<?xml version='1.0' encoding='UTF-8'?>
<osm version="0.6" generator="libosmium/2.20.0">
  <way id="100050641" version="3" timestamp="2011-04-01T22:56:53Z" uid="6269" user="Mueck" changeset="7740223">
    <nd ref="1154965776"/>
    <nd ref="1228567494"/>
    <nd ref="1154966239"/>
    <nd ref="1154966084"/>
    <nd ref="1163561134"/>
    <nd ref="1154965396"/>
    <nd ref="1154965776"/>
    <tag k="addr:housenumber" v="46"/>
    <tag k="addr:street" v="Luisenstraße"/>
    <tag k="building" v="yes"/>
    <tag k="source" v="LA-KA"/>
  </way>
  <way id="100050972" version="1" timestamp="2011-02-16T19:05:58Z" uid="115477" user="wowik" changeset="7306624">
    <nd ref="1156594802"/>
    <nd ref="1156594756"/>
    <nd ref="1156594728"/>
    <nd ref="1156594972"/>
    <nd ref="1156594945"/>
    <nd ref="1156594839"/>
    <nd ref="1156595020"/>
    <nd ref="1156594924"/>
    <nd ref="1156594889"/>
    <nd ref="1156594777"/>
    <nd ref="1156594753"/>
    <nd ref="1156594990"/>
    <nd ref="1156594802"/>
    <tag k="addr:housenumber" v="29 к33"/>
    <tag k="addr:street" v="Соколово-Мещерская улица"/>
    <tag k="building" v="yes"/>
    <tag k="building:use" v="residential"/>
  </way>
  <way id="100050972" version="2" timestamp="2012-03-27T08:08:20Z" uid="481934" user="iWowik" changeset="11113698">
    <nd ref="1156594802"/>
    <nd ref="1156594756"/>
    <nd ref="1156594728"/>
    <nd ref="1156594972"/>
    <nd ref="1156594945"/>
    <nd ref="1156594839"/>
    <nd ref="1156595020"/>
    <nd ref="1156594924"/>
    <nd ref="1156594889"/>
    <nd ref="1156594777"/>
    <nd ref="1156594753"/>
    <nd ref="1156594990"/>
    <nd ref="1156594802"/>
    <tag k="addr:city" v="Москва"/>
    <tag k="addr:country" v="RU"/>
    <tag k="addr:housenumber" v="29 к33"/>
    <tag k="addr:street" v="Соколово-Мещерская улица"/>
    <tag k="building" v="yes"/>
    <tag k="building:use" v="residential"/>
  </way>
  <way id="100050973" version="1" timestamp="2011-02-16T19:05:59Z" uid="115477" user="wowik" changeset="7306624">
    <nd ref="1156594821"/>
    <nd ref="1156594771"/>
    <nd ref="1156595009"/>
    <nd ref="1156594983"/>
    <nd ref="1156594821"/>
    <tag k="addr:housenumber" v="29 к10"/>
    <tag k="addr:street" v="Соколово-Мещерская улица"/>
    <tag k="building" v="yes"/>
    <tag k="building:use" v="residential"/>
  </way>
  <way id="100050973" version="2" timestamp="2012-03-27T08:08:07Z" uid="481934" user="iWowik" changeset="11113698">
    <nd ref="1156594821"/>
    <nd ref="1156594771"/>
    <nd ref="1156595009"/>
    <nd ref="1156594983"/>
    <nd ref="1156594821"/>
    <tag k="addr:city" v="Москва"/>
    <tag k="addr:country" v="RU"/>
    <tag k="addr:housenumber" v="29 к10"/>
    <tag k="addr:street" v="Соколово-Мещерская улица"/>
    <tag k="building" v="yes"/>
    <tag k="building:use" v="residential"/>
  </way>
  <way id="100050974" version="1" timestamp="2011-02-16T19:05:59Z" uid="115477" user="wowik" changeset="7306624">
    <nd ref="1156594848"/>
    <nd ref="1156594796"/>
    <nd ref="1156594762"/>
    <nd ref="1156595003"/>
    <nd ref="1156594848"/>
    <tag k="addr:housenumber" v="29 к11"/>
    <tag k="addr:street" v="Соколово-Мещерская улица"/>
    <tag k="building" v="yes"/>
    <tag k="building:use" v="residential"/>
  </way>
  <way id="100050974" version="2" timestamp="2012-03-27T08:08:08Z" uid="481934" user="iWowik" changeset="11113698">
    <nd ref="1156594848"/>
    <nd ref="1156594796"/>
    <nd ref="1156594762"/>
    <nd ref="1156595003"/>
    <nd ref="1156594848"/>
    <tag k="addr:city" v="Москва"/>
    <tag k="addr:country" v="RU"/>
    <tag k="addr:housenumber" v="29 к11"/>
    <tag k="addr:street" v="Соколово-Мещерская улица"/>
    <tag k="building" v="yes"/>
    <tag k="building:use" v="residential"/>
  </way>
  <way id="100050975" version="1" timestamp="2011-02-16T19:05:59Z" uid="115477" user="wowik" changeset="7306624">
    <nd ref="1156594933"/>
    <nd ref="1156594869"/>
    <nd ref="1156594842"/>
    <nd ref="1156594731"/>
    <nd ref="1156594933"/>
    <tag k="addr:housenumber" v="29 к17"/>
    <tag k="addr:street" v="Соколово-Мещерская улица"/>
    <tag k="building" v="yes"/>
    <tag k="building:use" v="residential"/>
  </way>
  <way id="100050975" version="2" timestamp="2012-03-27T08:08:10Z" uid="481934" user="iWowik" changeset="11113698">
    <nd ref="1156594933"/>
    <nd ref="1156594869"/>
    <nd ref="1156594842"/>
    <nd ref="1156594731"/>
    <nd ref="1156594933"/>
    <tag k="addr:city" v="Москва"/>
    <tag k="addr:country" v="RU"/>
    <tag k="addr:housenumber" v="29 к17"/>
    <tag k="addr:street" v="Соколово-Мещерская улица"/>
    <tag k="building" v="yes"/>
    <tag k="building:use" v="residential"/>
  </way>
  <way id="100050976" version="1" timestamp="2011-02-16T19:05:59Z" uid="115477" user="wowik" changeset="7306624">
    <nd ref="1156594872"/>
    <nd ref="1156594820"/>
    <nd ref="1156594784"/>
    <nd ref="1156595033"/>
    <nd ref="1156594872"/>
    <tag k="addr:housenumber" v="29 к12"/>
    <tag k="addr:street" v="Соколово-Мещерская улица"/>
    <tag k="building" v="yes"/>
    <tag k="building:use" v="residential"/>
  </way>
  <way id="100050976" version="2" timestamp="2012-03-27T08:08:08Z" uid="481934" user="iWowik" changeset="11113698">
    <nd ref="1156594872"/>
    <nd ref="1156594820"/>
    <nd ref="1156594784"/>
    <nd ref="1156595033"/>
    <nd ref="1156594872"/>
    <tag k="addr:city" v="Москва"/>
    <tag k="addr:country" v="RU"/>
    <tag k="addr:housenumber" v="29 к12"/>
    <tag k="addr:street" v="Соколово-Мещерская улица"/>
    <tag k="building" v="yes"/>
    <tag k="building:use" v="residential"/>
  </way>
  <way id="100050977" version="1" timestamp="2011-02-16T19:05:59Z" uid="115477" user="wowik" changeset="7306624">
    <nd ref="1156594949"/>
    <nd ref="1156594970"/>
    <nd ref="1156594866"/>
    <nd ref="1156594837"/>
    <nd ref="1156594949"/>
    <tag k="addr:housenumber" v="29 к18"/>
    <tag k="addr:street" v="Соколово-Мещерская улица"/>
    <tag k="building" v="yes"/>
    <tag k="building:use" v="residential"/>
  </way>
  <way id="100050977" version="2" timestamp="2012-03-27T08:08:10Z" uid="481934" user="iWowik" changeset="11113698">
    <nd ref="1156594949"/>
    <nd ref="1156594970"/>
    <nd ref="1156594866"/>
    <nd ref="1156594837"/>
    <nd ref="1156594949"/>
    <tag k="addr:city" v="Москва"/>
    <tag k="addr:country" v="RU"/>
    <tag k="addr:housenumber" v="29 к18"/>
    <tag k="addr:street" v="Соколово-Мещерская улица"/>
    <tag k="building" v="yes"/>
    <tag k="building:use" v="residential"/>
  </way>
  <way id="100050978" version="1" timestamp="2011-02-16T19:06:00Z" uid="115477" user="wowik" changeset="7306624">
    <nd ref="1156594914"/>
    <nd ref="1156594939"/>
    <nd ref="1156594817"/>
    <nd ref="1156594782"/>
    <nd ref="1156594914"/>
    <tag k="addr:housenumber" v="29 к13"/>
    <tag k="addr:street" v="Соколово-Мещерская улица"/>
    <tag k="building" v="yes"/>
    <tag k="building:use" v="residential"/>
  </way>
  <way id="100050978" version="2" timestamp="2012-03-27T08:08:08Z" uid="481934" user="iWowik" changeset="11113698">
    <nd ref="1156594914"/>
    <nd ref="1156594939"/>
    <nd ref="1156594817"/>
    <nd ref="1156594782"/>
    <nd ref="1156594914"/>
    <tag k="addr:city" v="Москва"/>
    <tag k="addr:country" v="RU"/>
    <tag k="addr:housenumber" v="29 к13"/>
    <tag k="addr:street" v="Соколово-Мещерская улица"/>
    <tag k="building" v="yes"/>
    <tag k="building:use" v="residential"/>
  </way>
  <way id="100050979" version="1" timestamp="2011-02-16T19:06:00Z" uid="115477" user="wowik" changeset="7306624">
    <nd ref="1156594912"/>
    <nd ref="1156594845"/>
    <nd ref="1156594734"/>
    <nd ref="1156594713"/>
    <nd ref="1156594959"/>
    <nd ref="1156594937"/>
    <nd ref="1156594815"/>
    <nd ref="1156594780"/>
    <nd ref="1156595032"/>
    <nd ref="1156594997"/>
    <nd ref="1156594906"/>
    <nd ref="1156594867"/>
    <nd ref="1156594760"/>
    <nd ref="1156594729"/>
    <nd ref="1156594974"/>
    <nd ref="1156594947"/>
    <nd ref="1156594840"/>
    <nd ref="1156594801"/>
    <nd ref="1156594708"/>
    <nd ref="1156595027"/>
    <nd ref="1156594926"/>
    <nd ref="1156594891"/>
    <nd ref="1156594912"/>
    <tag k="addr:housenumber" v="29 к32"/>
    <tag k="addr:street" v="Соколово-Мещерская улица"/>
    <tag k="building" v="yes"/>
    <tag k="building:use" v="residential"/>
  </way>
  <way id="100050979" version="2" timestamp="2012-03-27T08:08:19Z" uid="481934" user="iWowik" changeset="11113698">
    <nd ref="1156594912"/>
    <nd ref="1156594845"/>
    <nd ref="1156594734"/>
    <nd ref="1156594713"/>
    <nd ref="1156594959"/>
    <nd ref="1156594937"/>
    <nd ref="1156594815"/>
    <nd ref="1156594780"/>
    <nd ref="1156595032"/>
    <nd ref="1156594997"/>
    <nd ref="1156594906"/>
    <nd ref="1156594867"/>
    <nd ref="1156594760"/>
    <nd ref="1156594729"/>
    <nd ref="1156594974"/>
    <nd ref="1156594947"/>
    <nd ref="1156594840"/>
    <nd ref="1156594801"/>
    <nd ref="1156594708"/>
    <nd ref="1156595027"/>
    <nd ref="1156594926"/>
    <nd ref="1156594891"/>
    <nd ref="1156594912"/>
    <tag k="addr:city" v="Москва"/>
    <tag k="addr:country" v="RU"/>
    <tag k="addr:housenumber" v="29 к32"/>
    <tag k="addr:street" v="Соколово-Мещерская улица"/>
    <tag k="building" v="yes"/>
    <tag k="building:use" v="residential"/>
  </way>
  <way id="100050980" version="1" timestamp="2011-02-16T19:06:00Z" uid="115477" user="wowik" changeset="7306624">
    <nd ref="1156594705"/>
    <nd ref="1156594995"/>
    <nd ref="1156594892"/>
    <nd ref="1156594865"/>
    <nd ref="1156594705"/>
    <tag k="addr:housenumber" v="29 к19"/>
    <tag k="addr:street" v="Соколово-Мещерская улица"/>
    <tag k="building" v="yes"/>
    <tag k="building:use" v="residential"/>
  </way>
  <way id="100050980" version="2" timestamp="2012-03-27T08:08:10Z" uid="481934" user="iWowik" changeset="11113698">
    <nd ref="1156594705"/>
    <nd ref="1156594995"/>
    <nd ref="1156594892"/>
    <nd ref="1156594865"/>
    <nd ref="1156594705"/>
    <tag k="addr:city" v="Москва"/>
    <tag k="addr:country" v="RU"/>
    <tag k="addr:housenumber" v="29 к19"/>
    <tag k="addr:street" v="Соколово-Мещерская улица"/>
    <tag k="building" v="yes"/>
    <tag k="building:use" v="residential"/>
  </way>
  <way id="100050981" version="1" timestamp="2011-02-16T19:06:00Z" uid="115477" user="wowik" changeset="7306624">
    <nd ref="1156594835"/>
    <nd ref="1156594774"/>
    <nd ref="1156594743"/>
    <nd ref="1156594987"/>
    <nd ref="1156594968"/>
    <nd ref="1156594863"/>
    <nd ref="1156594825"/>
    <nd ref="1156594716"/>
    <nd ref="1156595039"/>
    <nd ref="1156594943"/>
    <nd ref="1156594918"/>
    <nd ref="1156594798"/>
    <nd ref="1156594770"/>
    <nd ref="1156595007"/>
    <nd ref="1156594981"/>
    <nd ref="1156594887"/>
    <nd ref="1156594835"/>
    <tag k="addr:housenumber" v="29 к35"/>
    <tag k="addr:street" v="Соколово-Мещерская улица"/>
    <tag k="building" v="yes"/>
    <tag k="building:use" v="residential"/>
  </way>
  <way id="100050981" version="2" timestamp="2012-03-27T08:08:21Z" uid="481934" user="iWowik" changeset="11113698">
    <nd ref="1156594835"/>
    <nd ref="1156594774"/>
    <nd ref="1156594743"/>
    <nd ref="1156594987"/>
    <nd ref="1156594968"/>
    <nd ref="1156594863"/>
    <nd ref="1156594825"/>
    <nd ref="1156594716"/>
    <nd ref="1156595039"/>
    <nd ref="1156594943"/>
    <nd ref="1156594918"/>
    <nd ref="1156594798"/>
    <nd ref="1156594770"/>
    <nd ref="1156595007"/>
    <nd ref="1156594981"/>
    <nd ref="1156594887"/>
    <nd ref="1156594835"/>
    <tag k="addr:city" v="Москва"/>
    <tag k="addr:country" v="RU"/>
    <tag k="addr:housenumber" v="29 к35"/>
    <tag k="addr:street" v="Соколово-Мещерская улица"/>
    <tag k="building" v="yes"/>
    <tag k="building:use" v="residential"/>
  </way>
  <way id="100050982" version="1" timestamp="2011-02-16T19:06:01Z" uid="115477" user="wowik" changeset="7306624">
    <nd ref="1156595002"/>
    <nd ref="1156594957"/>
    <nd ref="1156594843"/>
    <nd ref="1156594812"/>
    <nd ref="1156595002"/>
    <tag k="addr:housenumber" v="29 к14"/>
    <tag k="addr:street" v="Соколово-Мещерская улица"/>
    <tag k="building" v="yes"/>
    <tag k="building:use" v="residential"/>
  </way>
  <way id="100050982" version="2" timestamp="2012-03-27T08:08:08Z" uid="481934" user="iWowik" changeset="11113698">
    <nd ref="1156595002"/>
    <nd ref="1156594957"/>
    <nd ref="1156594843"/>
    <nd ref="1156594812"/>
    <nd ref="1156595002"/>
    <tag k="addr:city" v="Москва"/>
    <tag k="addr:country" v="RU"/>
    <tag k="addr:housenumber" v="29 к14"/>
    <tag k="addr:street" v="Соколово-Мещерская улица"/>
    <tag k="building" v="yes"/>
    <tag k="building:use" v="residential"/>
  </way>
  <way id="100050983" version="1" timestamp="2011-02-16T19:06:01Z" uid="115477" user="wowik" changeset="7306624">
    <nd ref="1156594719"/>
    <nd ref="1156595026"/>
    <nd ref="1156594992"/>
    <nd ref="1156594890"/>
    <nd ref="1156594719"/>
    <tag k="addr:housenumber" v="29 к20"/>
    <tag k="addr:street" v="Соколово-Мещерская улица"/>
    <tag k="building" v="yes"/>
    <tag k="building:use" v="residential"/>
  </way>
  <way id="100050983" version="2" timestamp="2012-03-27T08:08:15Z" uid="481934" user="iWowik" changeset="11113698">
    <nd ref="1156594719"/>
    <nd ref="1156595026"/>
    <nd ref="1156594992"/>
    <nd ref="1156594890"/>
    <nd ref="1156594719"/>
    <tag k="addr:city" v="Москва"/>
    <tag k="addr:country" v="RU"/>
    <tag k="addr:housenumber" v="29 к20"/>
    <tag k="addr:street" v="Соколово-Мещерская улица"/>
    <tag k="building" v="yes"/>
    <tag k="building:use" v="residential"/>
  </way>
  <way id="100050984" version="1" timestamp="2011-02-16T19:06:01Z" uid="115477" user="wowik" changeset="7306624">
    <nd ref="1156594754"/>
    <nd ref="1156594694"/>
    <nd ref="1156595017"/>
    <nd ref="1156594922"/>
    <nd ref="1156594754"/>
    <tag k="addr:housenumber" v="29 к21"/>
    <tag k="addr:street" v="Соколово-Мещерская улица"/>
    <tag k="building" v="yes"/>
    <tag k="building:use" v="residential"/>
  </way>
  <way id="100050984" version="2" timestamp="2012-03-27T08:08:16Z" uid="481934" user="iWowik" changeset="11113698">
    <nd ref="1156594754"/>
    <nd ref="1156594694"/>
    <nd ref="1156595017"/>
    <nd ref="1156594922"/>
    <nd ref="1156594754"/>
    <tag k="addr:city" v="Москва"/>
    <tag k="addr:country" v="RU"/>
    <tag k="addr:housenumber" v="29 к21"/>
    <tag k="addr:street" v="Соколово-Мещерская улица"/>
    <tag k="building" v="yes"/>
    <tag k="building:use" v="residential"/>
  </way>
  <way id="100050985" version="1" timestamp="2011-02-16T19:06:01Z" uid="115477" user="wowik" changeset="7306624">
    <nd ref="1156594776"/>
    <nd ref="1156594799"/>
    <nd ref="1156594693"/>
    <nd ref="1156595012"/>
    <nd ref="1156594776"/>
    <tag k="addr:housenumber" v="29 к22"/>
    <tag k="addr:street" v="Соколово-Мещерская улица"/>
    <tag k="building" v="yes"/>
    <tag k="building:use" v="residential"/>
  </way>
  <way id="100050985" version="2" timestamp="2012-03-27T08:08:16Z" uid="481934" user="iWowik" changeset="11113698">
    <nd ref="1156594776"/>
    <nd ref="1156594799"/>
    <nd ref="1156594693"/>
    <nd ref="1156595012"/>
    <nd ref="1156594776"/>
    <tag k="addr:city" v="Москва"/>
    <tag k="addr:country" v="RU"/>
    <tag k="addr:housenumber" v="29 к22"/>
    <tag k="addr:street" v="Соколово-Мещерская улица"/>
    <tag k="building" v="yes"/>
    <tag k="building:use" v="residential"/>
  </way>
  <way id="100050986" version="1" timestamp="2011-02-16T19:06:02Z" uid="115477" user="wowik" changeset="7306624">
    <nd ref="1156594732"/>
    <nd ref="1156595029"/>
    <nd ref="1156594935"/>
    <nd ref="1156594903"/>
    <nd ref="1156594732"/>
    <tag k="addr:housenumber" v="29 к15"/>
    <tag k="addr:street" v="Соколово-Мещерская улица"/>
    <tag k="building" v="yes"/>
    <tag k="building:use" v="residential"/>
  </way>
  <way id="100050986" version="2" timestamp="2012-03-27T08:08:09Z" uid="481934" user="iWowik" changeset="11113698">
    <nd ref="1156594732"/>
    <nd ref="1156595029"/>
    <nd ref="1156594935"/>
    <nd ref="1156594903"/>
    <nd ref="1156594732"/>
    <tag k="addr:city" v="Москва"/>
    <tag k="addr:country" v="RU"/>
    <tag k="addr:housenumber" v="29 к15"/>
    <tag k="addr:street" v="Соколово-Мещерская улица"/>
    <tag k="building" v="yes"/>
    <tag k="building:use" v="residential"/>
  </way>
  <way id="100050987" version="1" timestamp="2011-02-16T19:06:02Z" uid="115477" user="wowik" changeset="7306624">
    <nd ref="1156594888"/>
    <nd ref="1156594827"/>
    <nd ref="1156594717"/>
    <nd ref="1156594755"/>
    <nd ref="1156594888"/>
    <tag k="addr:housenumber" v="29 к32 c1"/>
    <tag k="addr:street" v="Соколово-Мещерская улица"/>
    <tag k="building" v="yes"/>
    <tag k="power" v="sub_station"/>
  </way>
  <way id="100050987" version="2" timestamp="2012-03-27T08:08:19Z" uid="481934" user="iWowik" changeset="11113698">
    <nd ref="1156594888"/>
    <nd ref="1156594827"/>
    <nd ref="1156594717"/>
    <nd ref="1156594755"/>
    <nd ref="1156594888"/>
    <tag k="addr:city" v="Москва"/>
    <tag k="addr:country" v="RU"/>
    <tag k="addr:housenumber" v="29 к32 c1"/>
    <tag k="addr:street" v="Соколово-Мещерская улица"/>
    <tag k="building" v="yes"/>
    <tag k="power" v="sub_station"/>
  </way>
  <way id="100050988" version="1" timestamp="2011-02-16T19:06:02Z" uid="115477" user="wowik" changeset="7306624">
    <nd ref="1156594758"/>
    <nd ref="1156594710"/>
    <nd ref="1156594803"/>
    <nd ref="1156594711"/>
    <nd ref="1156594758"/>
    <tag k="addr:housenumber" v="29 к16"/>
    <tag k="addr:street" v="Соколово-Мещерская улица"/>
    <tag k="building" v="yes"/>
    <tag k="building:use" v="residential"/>
  </way>
  <way id="100050988" version="2" timestamp="2012-03-27T08:08:10Z" uid="481934" user="iWowik" changeset="11113698">
    <nd ref="1156594758"/>
    <nd ref="1156594710"/>
    <nd ref="1156594803"/>
    <nd ref="1156594711"/>
    <nd ref="1156594758"/>
    <tag k="addr:city" v="Москва"/>
    <tag k="addr:country" v="RU"/>
    <tag k="addr:housenumber" v="29 к16"/>
    <tag k="addr:street" v="Соколово-Мещерская улица"/>
    <tag k="building" v="yes"/>
    <tag k="building:use" v="residential"/>
  </way>
  <way id="100050989" version="1" timestamp="2011-02-16T19:06:02Z" uid="115477" user="wowik" changeset="7306624">
    <nd ref="1156594984"/>
    <nd ref="1156594735"/>
    <nd ref="1156594920"/>
    <nd ref="1156594862"/>
    <nd ref="1156594740"/>
    <nd ref="1156594714"/>
    <nd ref="1156594965"/>
    <nd ref="1156594941"/>
    <nd ref="1156594823"/>
    <nd ref="1156594797"/>
    <nd ref="1156595036"/>
    <nd ref="1156595005"/>
    <nd ref="1156594916"/>
    <nd ref="1156594884"/>
    <nd ref="1156594763"/>
    <nd ref="1156594738"/>
    <nd ref="1156594976"/>
    <nd ref="1156594962"/>
    <nd ref="1156594846"/>
    <nd ref="1156594818"/>
    <nd ref="1156594864"/>
    <nd ref="1156594800"/>
    <nd ref="1156594773"/>
    <nd ref="1156595015"/>
    <nd ref="1156594984"/>
    <tag k="addr:housenumber" v="29 к34"/>
    <tag k="addr:street" v="Соколово-Мещерская улица"/>
    <tag k="building" v="yes"/>
    <tag k="building:use" v="residential"/>
  </way>
  <way id="100050989" version="2" timestamp="2012-03-27T08:08:20Z" uid="481934" user="iWowik" changeset="11113698">
    <nd ref="1156594984"/>
    <nd ref="1156594735"/>
    <nd ref="1156594920"/>
    <nd ref="1156594862"/>
    <nd ref="1156594740"/>
    <nd ref="1156594714"/>
    <nd ref="1156594965"/>
    <nd ref="1156594941"/>
    <nd ref="1156594823"/>
    <nd ref="1156594797"/>
    <nd ref="1156595036"/>
    <nd ref="1156595005"/>
    <nd ref="1156594916"/>
    <nd ref="1156594884"/>
    <nd ref="1156594763"/>
    <nd ref="1156594738"/>
    <nd ref="1156594976"/>
    <nd ref="1156594962"/>
    <nd ref="1156594846"/>
    <nd ref="1156594818"/>
    <nd ref="1156594864"/>
    <nd ref="1156594800"/>
    <nd ref="1156594773"/>
    <nd ref="1156595015"/>
    <nd ref="1156594984"/>
    <tag k="addr:city" v="Москва"/>
    <tag k="addr:country" v="RU"/>
    <tag k="addr:housenumber" v="29 к34"/>
    <tag k="addr:street" v="Соколово-Мещерская улица"/>
    <tag k="building" v="yes"/>
    <tag k="building:use" v="residential"/>
  </way>
  <way id="100050641" version="4" timestamp="2012-04-23T08:43:09Z" uid="35468" user="Blunauer" changeset="11392478">
    <nd ref="1154965776"/>
    <nd ref="1727483258"/>
    <nd ref="1154966239"/>
    <nd ref="1154966084"/>
    <nd ref="1727483257"/>
    <nd ref="1154965396"/>
    <nd ref="1154965776"/>
    <tag k="addr:housenumber" v="46"/>
    <tag k="addr:street" v="Luisenstraße"/>
    <tag k="building" v="yes"/>
    <tag k="source" v="LA-KA"/>
  </way>
  <way id="100050972" version="3" timestamp="2012-07-20T13:43:35Z" uid="722137" user="OSMF Redaction Account" changeset="12378161"/>
  <way id="100050973" version="3" timestamp="2012-07-20T13:43:37Z" uid="722137" user="OSMF Redaction Account" changeset="12378161"/>
  <way id="100050974" version="3" timestamp="2012-07-20T13:43:36Z" uid="722137" user="OSMF Redaction Account" changeset="12378161"/>
  <way id="100050975" version="3" timestamp="2012-07-20T13:43:35Z" uid="722137" user="OSMF Redaction Account" changeset="12378161"/>
  <way id="100050976" version="3" timestamp="2012-07-20T13:43:36Z" uid="722137" user="OSMF Redaction Account" changeset="12378161"/>
  <way id="100050977" version="3" timestamp="2012-07-20T13:43:34Z" uid="722137" user="OSMF Redaction Account" changeset="12378161"/>
  <way id="100050978" version="3" timestamp="2012-07-20T13:43:36Z" uid="722137" user="OSMF Redaction Account" changeset="12378161"/>
  <way id="100050979" version="3" timestamp="2012-07-20T13:43:32Z" uid="722137" user="OSMF Redaction Account" changeset="12378161"/>
  <way id="100050980" version="3" timestamp="2012-07-20T13:43:34Z" uid="722137" user="OSMF Redaction Account" changeset="12378161"/>
  <way id="100050981" version="3" timestamp="2012-07-20T13:43:32Z" uid="722137" user="OSMF Redaction Account" changeset="12378161"/>
  <way id="100050982" version="3" timestamp="2012-07-20T13:43:37Z" uid="722137" user="OSMF Redaction Account" changeset="12378161"/>
  <way id="100050983" version="3" timestamp="2012-07-20T13:43:33Z" uid="722137" user="OSMF Redaction Account" changeset="12378161"/>
  <way id="100050984" version="3" timestamp="2012-07-20T13:43:32Z" uid="722137" user="OSMF Redaction Account" changeset="12378161"/>
  <way id="100050985" version="3" timestamp="2012-07-20T13:43:31Z" uid="722137" user="OSMF Redaction Account" changeset="12378161"/>
  <way id="100050986" version="3" timestamp="2012-07-20T13:43:37Z" uid="722137" user="OSMF Redaction Account" changeset="12378161"/>
  <way id="100050987" version="3" timestamp="2012-07-20T13:43:31Z" uid="722137" user="OSMF Redaction Account" changeset="12378161"/>
  <way id="100050988" version="3" timestamp="2012-07-20T13:43:36Z" uid="722137" user="OSMF Redaction Account" changeset="12378161"/>
  <way id="100050989" version="3" timestamp="2012-07-20T13:43:35Z" uid="722137" user="OSMF Redaction Account" changeset="12378161"/>
</osm>
