<?xml version='1.0' encoding='UTF-8'?>
<osm version="0.6" generator="libosmium/2.20.0">
  <way id="100658025" version="5" timestamp="2011-03-02T19:16:08Z" uid="9581" user="Lobelt" changeset="7440328">
    <nd ref="279700571"/>
    <nd ref="148494463"/>
    <nd ref="307408003"/>
    <nd ref="281168732"/>
    <nd ref="26915514"/>
    <nd ref="872444668"/>
    <nd ref="1183258760"/>
    <nd ref="34822542"/>
    <tag k="highway" v="tertiary"/>
    <tag k="name" v="Waldhofstraße"/>
    <tag k="oneway" v="yes"/>
  </way>
  <way id="100658025" version="8" timestamp="2011-03-06T08:51:51Z" uid="410505" user="Udini" changeset="7470697">
    <nd ref="279700571"/>
    <nd ref="148494463"/>
    <nd ref="307408003"/>
    <nd ref="281168732"/>
    <nd ref="1184171069"/>
    <nd ref="26915514"/>
    <nd ref="1183258760"/>
    <nd ref="1184125377"/>
    <nd ref="34822542"/>
    <tag k="highway" v="tertiary"/>
    <tag k="name" v="Waldhofstraße"/>
    <tag k="oneway" v="yes"/>
  </way>
  <way id="100658025" version="9" timestamp="2012-01-29T20:27:24Z" uid="564585" user="wegavision" changeset="10534375">
    <nd ref="279700571"/>
    <nd ref="148494463"/>
    <nd ref="307408003"/>
    <nd ref="281168732"/>
    <nd ref="1184171069"/>
    <nd ref="26915514"/>
    <nd ref="1183258760"/>
    <nd ref="34822542"/>
    <tag k="highway" v="tertiary"/>
    <tag k="name" v="Waldhofstraße"/>
    <tag k="oneway" v="yes"/>
  </way>
  <way id="100658025" version="10" timestamp="2012-01-30T21:00:28Z" uid="564585" user="wegavision" changeset="10543789">
    <nd ref="279700571"/>
    <nd ref="148494463"/>
    <nd ref="281168732"/>
    <nd ref="1184171069"/>
    <nd ref="26915514"/>
    <nd ref="1183258760"/>
    <nd ref="34822542"/>
    <tag k="highway" v="tertiary"/>
    <tag k="name" v="Waldhofstraße"/>
    <tag k="oneway" v="yes"/>
  </way>
  <way id="100658025" version="11" timestamp="2012-02-16T19:13:04Z" uid="136321" user="Teddy73" changeset="10704384">
    <nd ref="279700571"/>
    <nd ref="1635576390"/>
    <nd ref="281168732"/>
    <nd ref="1184171069"/>
    <nd ref="26915514"/>
    <nd ref="1183258760"/>
    <nd ref="34822542"/>
    <tag k="highway" v="tertiary"/>
    <tag k="name" v="Waldhofstraße"/>
    <tag k="oneway" v="yes"/>
  </way>
  <way id="100658025" version="12" timestamp="2012-02-28T21:47:39Z" uid="136321" user="Teddy73" changeset="10822320"/>
  <way id="100658153" version="2" timestamp="2011-02-20T21:23:20Z" uid="23543" user="jkjk" changeset="7348147">
    <nd ref="344647600"/>
    <nd ref="344647602"/>
    <nd ref="1164230045"/>
    <nd ref="344647606"/>
    <tag k="highway" v="residential"/>
    <tag k="name" v="U dráhy"/>
    <tag k="source" v="cuzk:km;uhul:ortofoto"/>
  </way>
  <way id="100658153" version="3" timestamp="2011-03-02T10:12:48Z" uid="204219" user="pege" changeset="7436205">
    <nd ref="344647600"/>
    <nd ref="344647602"/>
    <nd ref="1164230045"/>
    <nd ref="344647606"/>
    <tag k="highway" v="residential"/>
    <tag k="name" v="U Dráhy"/>
    <tag k="source" v="cuzk:km;uhul:ortofoto"/>
  </way>
  <way id="100658153" version="4" timestamp="2012-07-17T08:14:46Z" uid="722137" user="OSMF Redaction Account" changeset="12260231">
    <nd ref="344647600"/>
    <nd ref="344647602"/>
    <nd ref="344647606"/>
    <tag k="highway" v="residential"/>
    <tag k="name" v="U Dráhy"/>
    <tag k="source" v="cuzk:km;uhul:ortofoto"/>
  </way>
</osm>
