<?xml version='1.0' encoding='UTF-8'?>
<osm version="0.6" generator="libosmium/2.20.0">
  <way id="101395542" version="2" timestamp="2011-03-07T17:31:39Z" uid="66036" user="h4v" changeset="7486461">
    <nd ref="1170892660"/>
    <nd ref="1170892656"/>
    <nd ref="1170892726"/>
    <nd ref="1170892407"/>
    <nd ref="1170892660"/>
    <tag k="building" v="yes"/>
  </way>
  <way id="101395542" version="3" timestamp="2012-04-12T04:37:45Z" uid="607553" user="Duke83" changeset="11272186">
    <nd ref="1170892660"/>
    <nd ref="1170892656"/>
    <nd ref="1170892726"/>
    <nd ref="1170892407"/>
    <nd ref="1170892660"/>
    <tag k="addr:housenumber" v="132;134"/>
    <tag k="addr:street" v="Bolesława Limanowskiego"/>
    <tag k="building" v="yes"/>
  </way>
  <way id="101395542" version="4" timestamp="2012-04-20T04:41:12Z" uid="607553" user="Duke83" changeset="11360199">
    <nd ref="1170892660"/>
    <nd ref="1170892656"/>
    <nd ref="1170892726"/>
    <nd ref="1170892407"/>
    <nd ref="1170892660"/>
    <tag k="addr:housenumber" v="132;134"/>
    <tag k="addr:street" v="Bolesława Limanowskiego"/>
    <tag k="building" v="yes"/>
    <tag k="building:levels" v="4"/>
    <tag k="source" v="survey"/>
  </way>
  <way id="101395542" version="5" timestamp="2012-07-24T14:11:16Z" uid="722137" user="OSMF Redaction Account" changeset="12467476">
    <nd ref="1170892660"/>
    <nd ref="1170892656"/>
    <nd ref="1170892726"/>
    <nd ref="1170892407"/>
    <nd ref="1170892660"/>
    <tag k="addr:housenumber" v="132;134"/>
    <tag k="addr:street" v="Bolesława Limanowskiego"/>
    <tag k="building:levels" v="4"/>
    <tag k="source" v="survey"/>
  </way>
  <way id="101395542" version="6" timestamp="2012-08-06T19:16:46Z" uid="338611" user="marek kleciak" changeset="12637459">
    <nd ref="1170892660"/>
    <nd ref="1170892656"/>
    <nd ref="1170892726"/>
    <nd ref="1170892407"/>
    <nd ref="1170892660"/>
    <tag k="addr:housenumber" v="132;134"/>
    <tag k="addr:street" v="Bolesława Limanowskiego"/>
    <tag k="building" v="yes"/>
    <tag k="building:levels" v="4"/>
    <tag k="source" v="survey"/>
  </way>
</osm>
