<?xml version='1.0' encoding='UTF-8'?>
<osm version="0.6" generator="libosmium/2.20.0">
  <way id="101670118" version="1" timestamp="2011-02-26T03:35:58Z" uid="4467" user="Rosscoe" changeset="7396343">
    <nd ref="1173839730"/>
    <nd ref="555768012"/>
    <nd ref="555768027"/>
    <nd ref="555768088"/>
    <nd ref="555768104"/>
    <nd ref="32434112"/>
    <tag k="highway" v="unclassified"/>
    <tag k="name" v="Brazier Drive"/>
  </way>
  <way id="101670119" version="1" timestamp="2011-02-26T03:35:58Z" uid="4467" user="Rosscoe" changeset="7396343">
    <nd ref="1173839728"/>
    <nd ref="1173839717"/>
    <nd ref="1173839730"/>
    <nd ref="1173839710"/>
    <nd ref="1173839723"/>
    <nd ref="1173839714"/>
    <nd ref="1173839726"/>
    <nd ref="1173839731"/>
    <nd ref="1173839728"/>
    <tag k="highway" v="unclassified"/>
    <tag k="junction" v="roundabout"/>
  </way>
  <way id="101670574" version="2" timestamp="2011-03-13T01:10:11Z" uid="4467" user="Rosscoe" changeset="7540135">
    <nd ref="1173859768"/>
    <nd ref="1173859857"/>
    <nd ref="1173860081"/>
    <nd ref="1173860103"/>
    <nd ref="1173859714"/>
    <nd ref="1173860107"/>
    <nd ref="1173860060"/>
    <nd ref="1173860051"/>
    <nd ref="1173859779"/>
    <nd ref="1173859997"/>
    <nd ref="1173859995"/>
    <nd ref="1173859664"/>
    <nd ref="1173859756"/>
    <nd ref="1173859768"/>
    <tag k="building" v="yes"/>
  </way>
  <way id="101670574" version="3" timestamp="2011-04-27T03:34:23Z" uid="11111" user="melb_guy" changeset="7981071">
    <nd ref="1173859768"/>
    <nd ref="1173859857"/>
    <nd ref="1173860081"/>
    <nd ref="1173860103"/>
    <nd ref="1173859714"/>
    <nd ref="1173860107"/>
    <nd ref="1173860060"/>
    <nd ref="1173860051"/>
    <nd ref="1173859779"/>
    <nd ref="1173859997"/>
    <nd ref="1173859995"/>
    <nd ref="1173859664"/>
    <nd ref="1173859756"/>
    <nd ref="1173859768"/>
    <tag k="access" v="private"/>
    <tag k="addr:city" v="Melbourne"/>
    <tag k="addr:country" v="AU"/>
    <tag k="addr:housenumber" v="8"/>
    <tag k="addr:postcode" v="3152"/>
    <tag k="addr:state" v="VIC"/>
    <tag k="addr:street" v="Badminton Court"/>
    <tag k="building" v="yes"/>
  </way>
  <way id="101670574" version="4" timestamp="2011-12-03T03:40:55Z" uid="11111" user="melb_guy" changeset="10021573">
    <nd ref="1173859768"/>
    <nd ref="1173859857"/>
    <nd ref="1173860081"/>
    <nd ref="1173860103"/>
    <nd ref="1173859714"/>
    <nd ref="1173860107"/>
    <nd ref="1173860060"/>
    <nd ref="1173860051"/>
    <nd ref="1173859779"/>
    <nd ref="1173859997"/>
    <nd ref="1173859995"/>
    <nd ref="1173859664"/>
    <nd ref="1173859756"/>
    <nd ref="1173859768"/>
    <tag k="access" v="private"/>
    <tag k="addr:city" v="Melbourne"/>
    <tag k="addr:country" v="AU"/>
    <tag k="addr:housenumber" v="8"/>
    <tag k="addr:postcode" v="3152"/>
    <tag k="addr:state" v="VIC"/>
    <tag k="addr:street" v="Badminton Court"/>
    <tag k="building" v="house"/>
  </way>
  <way id="101670576" version="2" timestamp="2011-03-13T01:10:01Z" uid="4467" user="Rosscoe" changeset="7540135">
    <nd ref="1173859742"/>
    <nd ref="1173859642"/>
    <nd ref="1173859770"/>
    <nd ref="1173860091"/>
    <nd ref="1173859757"/>
    <nd ref="1173859839"/>
    <nd ref="1173859652"/>
    <nd ref="1173860125"/>
    <nd ref="1173859742"/>
    <tag k="building" v="yes"/>
  </way>
  <way id="101670576" version="3" timestamp="2011-04-27T03:34:24Z" uid="11111" user="melb_guy" changeset="7981071">
    <nd ref="1173859742"/>
    <nd ref="1173859642"/>
    <nd ref="1173859770"/>
    <nd ref="1173860091"/>
    <nd ref="1173859757"/>
    <nd ref="1173859839"/>
    <nd ref="1173859652"/>
    <nd ref="1173860125"/>
    <nd ref="1173859742"/>
    <tag k="access" v="private"/>
    <tag k="addr:city" v="Melbourne"/>
    <tag k="addr:country" v="AU"/>
    <tag k="addr:housenumber" v="4"/>
    <tag k="addr:postcode" v="3152"/>
    <tag k="addr:state" v="VIC"/>
    <tag k="addr:street" v="Badminton Court"/>
    <tag k="building" v="yes"/>
  </way>
  <way id="101670576" version="4" timestamp="2011-12-03T03:40:56Z" uid="11111" user="melb_guy" changeset="10021573">
    <nd ref="1173859742"/>
    <nd ref="1173859642"/>
    <nd ref="1173859770"/>
    <nd ref="1173860091"/>
    <nd ref="1173859757"/>
    <nd ref="1173859839"/>
    <nd ref="1173859652"/>
    <nd ref="1173860125"/>
    <nd ref="1173859742"/>
    <tag k="access" v="private"/>
    <tag k="addr:city" v="Melbourne"/>
    <tag k="addr:country" v="AU"/>
    <tag k="addr:housenumber" v="4"/>
    <tag k="addr:postcode" v="3152"/>
    <tag k="addr:state" v="VIC"/>
    <tag k="addr:street" v="Badminton Court"/>
    <tag k="building" v="house"/>
  </way>
  <way id="101670577" version="2" timestamp="2011-03-13T01:10:21Z" uid="4467" user="Rosscoe" changeset="7540135">
    <nd ref="1173859810"/>
    <nd ref="1173860067"/>
    <nd ref="1173859629"/>
    <nd ref="1173859993"/>
    <nd ref="1173860077"/>
    <nd ref="1173860074"/>
    <nd ref="1173859758"/>
    <nd ref="1173859725"/>
    <nd ref="1173859767"/>
    <nd ref="1173859791"/>
    <nd ref="1173859810"/>
    <tag k="building" v="yes"/>
  </way>
  <way id="101670577" version="3" timestamp="2011-04-27T03:34:26Z" uid="11111" user="melb_guy" changeset="7981071">
    <nd ref="1173859810"/>
    <nd ref="1173860067"/>
    <nd ref="1173859629"/>
    <nd ref="1173859993"/>
    <nd ref="1173860077"/>
    <nd ref="1173860074"/>
    <nd ref="1173859758"/>
    <nd ref="1173859725"/>
    <nd ref="1173859767"/>
    <nd ref="1173859791"/>
    <nd ref="1173859810"/>
    <tag k="access" v="private"/>
    <tag k="addr:city" v="Melbourne"/>
    <tag k="addr:country" v="AU"/>
    <tag k="addr:housenumber" v="2"/>
    <tag k="addr:postcode" v="3152"/>
    <tag k="addr:state" v="VIC"/>
    <tag k="addr:street" v="Badminton Court"/>
    <tag k="building" v="yes"/>
  </way>
  <way id="101670577" version="4" timestamp="2011-12-03T03:40:57Z" uid="11111" user="melb_guy" changeset="10021573">
    <nd ref="1173859810"/>
    <nd ref="1173860067"/>
    <nd ref="1173859629"/>
    <nd ref="1173859993"/>
    <nd ref="1173860077"/>
    <nd ref="1173860074"/>
    <nd ref="1173859758"/>
    <nd ref="1173859725"/>
    <nd ref="1173859767"/>
    <nd ref="1173859791"/>
    <nd ref="1173859810"/>
    <tag k="access" v="private"/>
    <tag k="addr:city" v="Melbourne"/>
    <tag k="addr:country" v="AU"/>
    <tag k="addr:housenumber" v="2"/>
    <tag k="addr:postcode" v="3152"/>
    <tag k="addr:state" v="VIC"/>
    <tag k="addr:street" v="Badminton Court"/>
    <tag k="building" v="house"/>
  </way>
  <way id="101670578" version="2" timestamp="2011-03-13T01:10:15Z" uid="4467" user="Rosscoe" changeset="7540135">
    <nd ref="1173860117"/>
    <nd ref="1173860041"/>
    <nd ref="1173860010"/>
    <nd ref="1173859739"/>
    <nd ref="1173859769"/>
    <nd ref="1173859877"/>
    <nd ref="1173860084"/>
    <nd ref="1173859670"/>
    <nd ref="1173859733"/>
    <nd ref="1173859787"/>
    <nd ref="1173859743"/>
    <nd ref="1173859709"/>
    <nd ref="1173860117"/>
    <tag k="building" v="yes"/>
  </way>
  <way id="101670578" version="3" timestamp="2011-04-27T03:34:25Z" uid="11111" user="melb_guy" changeset="7981071">
    <nd ref="1173860117"/>
    <nd ref="1173860041"/>
    <nd ref="1173860010"/>
    <nd ref="1173859739"/>
    <nd ref="1173859769"/>
    <nd ref="1173859877"/>
    <nd ref="1173860084"/>
    <nd ref="1173859670"/>
    <nd ref="1173859733"/>
    <nd ref="1173859787"/>
    <nd ref="1173859743"/>
    <nd ref="1173859709"/>
    <nd ref="1173860117"/>
    <tag k="access" v="private"/>
    <tag k="addr:city" v="Melbourne"/>
    <tag k="addr:country" v="AU"/>
    <tag k="addr:housenumber" v="5"/>
    <tag k="addr:postcode" v="3152"/>
    <tag k="addr:state" v="VIC"/>
    <tag k="addr:street" v="Badminton Court"/>
    <tag k="building" v="yes"/>
  </way>
  <way id="101670578" version="4" timestamp="2011-12-03T03:40:57Z" uid="11111" user="melb_guy" changeset="10021573">
    <nd ref="1173860117"/>
    <nd ref="1173860041"/>
    <nd ref="1173860010"/>
    <nd ref="1173859739"/>
    <nd ref="1173859769"/>
    <nd ref="1173859877"/>
    <nd ref="1173860084"/>
    <nd ref="1173859670"/>
    <nd ref="1173859733"/>
    <nd ref="1173859787"/>
    <nd ref="1173859743"/>
    <nd ref="1173859709"/>
    <nd ref="1173860117"/>
    <tag k="access" v="private"/>
    <tag k="addr:city" v="Melbourne"/>
    <tag k="addr:country" v="AU"/>
    <tag k="addr:housenumber" v="5"/>
    <tag k="addr:postcode" v="3152"/>
    <tag k="addr:state" v="VIC"/>
    <tag k="addr:street" v="Badminton Court"/>
    <tag k="building" v="house"/>
  </way>
  <way id="101670583" version="2" timestamp="2011-03-13T01:10:12Z" uid="4467" user="Rosscoe" changeset="7540135">
    <nd ref="1173860110"/>
    <nd ref="1173860079"/>
    <nd ref="1173859882"/>
    <nd ref="1173859699"/>
    <nd ref="1173860089"/>
    <nd ref="1173860108"/>
    <nd ref="1173859774"/>
    <nd ref="1173859975"/>
    <nd ref="1173859707"/>
    <nd ref="1173860113"/>
    <nd ref="1173859646"/>
    <nd ref="1173859783"/>
    <nd ref="1173859766"/>
    <nd ref="1173859879"/>
    <nd ref="1173860052"/>
    <nd ref="1173860092"/>
    <nd ref="1173860110"/>
    <tag k="building" v="yes"/>
  </way>
  <way id="101670583" version="3" timestamp="2011-04-27T03:34:24Z" uid="11111" user="melb_guy" changeset="7981071">
    <nd ref="1173860110"/>
    <nd ref="1173860079"/>
    <nd ref="1173859882"/>
    <nd ref="1173859699"/>
    <nd ref="1173860089"/>
    <nd ref="1173860108"/>
    <nd ref="1173859774"/>
    <nd ref="1173859975"/>
    <nd ref="1173859707"/>
    <nd ref="1173860113"/>
    <nd ref="1173859646"/>
    <nd ref="1173859783"/>
    <nd ref="1173859766"/>
    <nd ref="1173859879"/>
    <nd ref="1173860052"/>
    <nd ref="1173860092"/>
    <nd ref="1173860110"/>
    <tag k="access" v="private"/>
    <tag k="addr:city" v="Melbourne"/>
    <tag k="addr:country" v="AU"/>
    <tag k="addr:housenumber" v="7"/>
    <tag k="addr:postcode" v="3152"/>
    <tag k="addr:state" v="VIC"/>
    <tag k="addr:street" v="Badminton Court"/>
    <tag k="building" v="yes"/>
  </way>
  <way id="101670583" version="4" timestamp="2011-12-03T03:40:58Z" uid="11111" user="melb_guy" changeset="10021573">
    <nd ref="1173860110"/>
    <nd ref="1173860079"/>
    <nd ref="1173859882"/>
    <nd ref="1173859699"/>
    <nd ref="1173860089"/>
    <nd ref="1173860108"/>
    <nd ref="1173859774"/>
    <nd ref="1173859975"/>
    <nd ref="1173859707"/>
    <nd ref="1173860113"/>
    <nd ref="1173859646"/>
    <nd ref="1173859783"/>
    <nd ref="1173859766"/>
    <nd ref="1173859879"/>
    <nd ref="1173860052"/>
    <nd ref="1173860092"/>
    <nd ref="1173860110"/>
    <tag k="access" v="private"/>
    <tag k="addr:city" v="Melbourne"/>
    <tag k="addr:country" v="AU"/>
    <tag k="addr:housenumber" v="7"/>
    <tag k="addr:postcode" v="3152"/>
    <tag k="addr:state" v="VIC"/>
    <tag k="addr:street" v="Badminton Court"/>
    <tag k="building" v="house"/>
  </way>
  <way id="101670585" version="2" timestamp="2011-03-13T01:10:11Z" uid="4467" user="Rosscoe" changeset="7540135">
    <nd ref="1173859864"/>
    <nd ref="1173859926"/>
    <nd ref="1173859906"/>
    <nd ref="1173860069"/>
    <nd ref="1173860078"/>
    <nd ref="1173859889"/>
    <nd ref="1173859911"/>
    <nd ref="1173859884"/>
    <nd ref="1173859808"/>
    <nd ref="1173859804"/>
    <nd ref="1173859788"/>
    <nd ref="1173859706"/>
    <nd ref="1173859864"/>
    <tag k="building" v="yes"/>
  </way>
  <way id="101670585" version="3" timestamp="2011-04-27T03:34:24Z" uid="11111" user="melb_guy" changeset="7981071">
    <nd ref="1173859864"/>
    <nd ref="1173859926"/>
    <nd ref="1173859906"/>
    <nd ref="1173860069"/>
    <nd ref="1173860078"/>
    <nd ref="1173859889"/>
    <nd ref="1173859911"/>
    <nd ref="1173859884"/>
    <nd ref="1173859808"/>
    <nd ref="1173859804"/>
    <nd ref="1173859788"/>
    <nd ref="1173859706"/>
    <nd ref="1173859864"/>
    <tag k="access" v="private"/>
    <tag k="addr:city" v="Melbourne"/>
    <tag k="addr:country" v="AU"/>
    <tag k="addr:housenumber" v="10"/>
    <tag k="addr:postcode" v="3152"/>
    <tag k="addr:state" v="VIC"/>
    <tag k="addr:street" v="Badminton Court"/>
    <tag k="building" v="yes"/>
  </way>
  <way id="101670585" version="4" timestamp="2011-12-03T03:40:59Z" uid="11111" user="melb_guy" changeset="10021573">
    <nd ref="1173859864"/>
    <nd ref="1173859926"/>
    <nd ref="1173859906"/>
    <nd ref="1173860069"/>
    <nd ref="1173860078"/>
    <nd ref="1173859889"/>
    <nd ref="1173859911"/>
    <nd ref="1173859884"/>
    <nd ref="1173859808"/>
    <nd ref="1173859804"/>
    <nd ref="1173859788"/>
    <nd ref="1173859706"/>
    <nd ref="1173859864"/>
    <tag k="access" v="private"/>
    <tag k="addr:city" v="Melbourne"/>
    <tag k="addr:country" v="AU"/>
    <tag k="addr:housenumber" v="10"/>
    <tag k="addr:postcode" v="3152"/>
    <tag k="addr:state" v="VIC"/>
    <tag k="addr:street" v="Badminton Court"/>
    <tag k="building" v="house"/>
  </way>
  <way id="101670588" version="2" timestamp="2011-03-13T01:10:23Z" uid="4467" user="Rosscoe" changeset="7540135">
    <nd ref="1173859852"/>
    <nd ref="1173859954"/>
    <nd ref="1173860105"/>
    <nd ref="1173860100"/>
    <nd ref="1173860121"/>
    <nd ref="1173860071"/>
    <nd ref="1173859991"/>
    <nd ref="1173859795"/>
    <nd ref="1173859773"/>
    <nd ref="1173860030"/>
    <nd ref="1173860026"/>
    <nd ref="1173859689"/>
    <nd ref="1173860043"/>
    <nd ref="1173859931"/>
    <nd ref="1173859852"/>
    <tag k="building" v="yes"/>
  </way>
  <way id="101670588" version="3" timestamp="2011-04-27T03:34:25Z" uid="11111" user="melb_guy" changeset="7981071">
    <nd ref="1173859852"/>
    <nd ref="1173859954"/>
    <nd ref="1173860105"/>
    <nd ref="1173860100"/>
    <nd ref="1173860121"/>
    <nd ref="1173860071"/>
    <nd ref="1173859991"/>
    <nd ref="1173859795"/>
    <nd ref="1173859773"/>
    <nd ref="1173860030"/>
    <nd ref="1173860026"/>
    <nd ref="1173859689"/>
    <nd ref="1173860043"/>
    <nd ref="1173859931"/>
    <nd ref="1173859852"/>
    <tag k="access" v="private"/>
    <tag k="addr:city" v="Melbourne"/>
    <tag k="addr:country" v="AU"/>
    <tag k="addr:housenumber" v="11"/>
    <tag k="addr:postcode" v="3152"/>
    <tag k="addr:state" v="VIC"/>
    <tag k="addr:street" v="Badminton Court"/>
    <tag k="building" v="yes"/>
  </way>
  <way id="101670588" version="4" timestamp="2011-12-03T03:41:04Z" uid="11111" user="melb_guy" changeset="10021573">
    <nd ref="1173859852"/>
    <nd ref="1173859954"/>
    <nd ref="1173860105"/>
    <nd ref="1173860100"/>
    <nd ref="1173860121"/>
    <nd ref="1173860071"/>
    <nd ref="1173859991"/>
    <nd ref="1173859795"/>
    <nd ref="1173859773"/>
    <nd ref="1173860030"/>
    <nd ref="1173860026"/>
    <nd ref="1173859689"/>
    <nd ref="1173860043"/>
    <nd ref="1173859931"/>
    <nd ref="1173859852"/>
    <tag k="access" v="private"/>
    <tag k="addr:city" v="Melbourne"/>
    <tag k="addr:country" v="AU"/>
    <tag k="addr:housenumber" v="11"/>
    <tag k="addr:postcode" v="3152"/>
    <tag k="addr:state" v="VIC"/>
    <tag k="addr:street" v="Badminton Court"/>
    <tag k="building" v="house"/>
  </way>
  <way id="101670593" version="2" timestamp="2011-03-13T01:10:10Z" uid="4467" user="Rosscoe" changeset="7540135">
    <nd ref="1173859945"/>
    <nd ref="1173860065"/>
    <nd ref="1173859695"/>
    <nd ref="1173859694"/>
    <nd ref="1173859731"/>
    <nd ref="1173859666"/>
    <nd ref="1173859929"/>
    <nd ref="1173859930"/>
    <nd ref="1173859865"/>
    <nd ref="1173859654"/>
    <nd ref="1173860058"/>
    <nd ref="1173860047"/>
    <nd ref="1173860101"/>
    <nd ref="1173859845"/>
    <nd ref="1173859945"/>
    <tag k="building" v="yes"/>
  </way>
  <way id="101670593" version="3" timestamp="2011-04-27T03:34:25Z" uid="11111" user="melb_guy" changeset="7981071">
    <nd ref="1173859945"/>
    <nd ref="1173860065"/>
    <nd ref="1173859695"/>
    <nd ref="1173859694"/>
    <nd ref="1173859731"/>
    <nd ref="1173859666"/>
    <nd ref="1173859929"/>
    <nd ref="1173859930"/>
    <nd ref="1173859865"/>
    <nd ref="1173859654"/>
    <nd ref="1173860058"/>
    <nd ref="1173860047"/>
    <nd ref="1173860101"/>
    <nd ref="1173859845"/>
    <nd ref="1173859945"/>
    <tag k="access" v="private"/>
    <tag k="addr:city" v="Melbourne"/>
    <tag k="addr:country" v="AU"/>
    <tag k="addr:housenumber" v="9"/>
    <tag k="addr:postcode" v="3152"/>
    <tag k="addr:state" v="VIC"/>
    <tag k="addr:street" v="Badminton Court"/>
    <tag k="building" v="yes"/>
  </way>
  <way id="101670593" version="4" timestamp="2011-12-03T03:41:02Z" uid="11111" user="melb_guy" changeset="10021573">
    <nd ref="1173859945"/>
    <nd ref="1173860065"/>
    <nd ref="1173859695"/>
    <nd ref="1173859694"/>
    <nd ref="1173859731"/>
    <nd ref="1173859666"/>
    <nd ref="1173859929"/>
    <nd ref="1173859930"/>
    <nd ref="1173859865"/>
    <nd ref="1173859654"/>
    <nd ref="1173860058"/>
    <nd ref="1173860047"/>
    <nd ref="1173860101"/>
    <nd ref="1173859845"/>
    <nd ref="1173859945"/>
    <tag k="access" v="private"/>
    <tag k="addr:city" v="Melbourne"/>
    <tag k="addr:country" v="AU"/>
    <tag k="addr:housenumber" v="9"/>
    <tag k="addr:postcode" v="3152"/>
    <tag k="addr:state" v="VIC"/>
    <tag k="addr:street" v="Badminton Court"/>
    <tag k="building" v="house"/>
  </way>
  <way id="101670594" version="2" timestamp="2011-03-13T01:10:26Z" uid="4467" user="Rosscoe" changeset="7540135">
    <nd ref="1173859850"/>
    <nd ref="1173859676"/>
    <nd ref="1173859800"/>
    <nd ref="1173859942"/>
    <nd ref="1173859673"/>
    <nd ref="1173859651"/>
    <nd ref="1173859940"/>
    <nd ref="1173859830"/>
    <nd ref="1173859829"/>
    <nd ref="1173859782"/>
    <nd ref="1173859850"/>
    <tag k="building" v="yes"/>
  </way>
  <way id="101670594" version="3" timestamp="2011-04-27T03:34:25Z" uid="11111" user="melb_guy" changeset="7981071">
    <nd ref="1173859850"/>
    <nd ref="1173859676"/>
    <nd ref="1173859800"/>
    <nd ref="1173859942"/>
    <nd ref="1173859673"/>
    <nd ref="1173859651"/>
    <nd ref="1173859940"/>
    <nd ref="1173859830"/>
    <nd ref="1173859829"/>
    <nd ref="1173859782"/>
    <nd ref="1173859850"/>
    <tag k="access" v="private"/>
    <tag k="addr:city" v="Melbourne"/>
    <tag k="addr:country" v="AU"/>
    <tag k="addr:housenumber" v="3"/>
    <tag k="addr:postcode" v="3152"/>
    <tag k="addr:state" v="VIC"/>
    <tag k="addr:street" v="Badminton Court"/>
    <tag k="building" v="yes"/>
  </way>
  <way id="101670594" version="4" timestamp="2011-12-03T03:41:02Z" uid="11111" user="melb_guy" changeset="10021573">
    <nd ref="1173859850"/>
    <nd ref="1173859676"/>
    <nd ref="1173859800"/>
    <nd ref="1173859942"/>
    <nd ref="1173859673"/>
    <nd ref="1173859651"/>
    <nd ref="1173859940"/>
    <nd ref="1173859830"/>
    <nd ref="1173859829"/>
    <nd ref="1173859782"/>
    <nd ref="1173859850"/>
    <tag k="access" v="private"/>
    <tag k="addr:city" v="Melbourne"/>
    <tag k="addr:country" v="AU"/>
    <tag k="addr:housenumber" v="3"/>
    <tag k="addr:postcode" v="3152"/>
    <tag k="addr:state" v="VIC"/>
    <tag k="addr:street" v="Badminton Court"/>
    <tag k="building" v="house"/>
  </way>
  <way id="101670596" version="2" timestamp="2011-03-13T01:10:22Z" uid="4467" user="Rosscoe" changeset="7540135">
    <nd ref="1173859634"/>
    <nd ref="1173860046"/>
    <nd ref="1173859858"/>
    <nd ref="1173859697"/>
    <nd ref="1173859823"/>
    <nd ref="1173859934"/>
    <nd ref="1173859631"/>
    <nd ref="1173860013"/>
    <nd ref="1173859922"/>
    <nd ref="1173859744"/>
    <nd ref="1173859634"/>
    <tag k="building" v="yes"/>
  </way>
  <way id="101670596" version="3" timestamp="2011-04-27T03:34:26Z" uid="11111" user="melb_guy" changeset="7981071">
    <nd ref="1173859634"/>
    <nd ref="1173860046"/>
    <nd ref="1173859858"/>
    <nd ref="1173859697"/>
    <nd ref="1173859823"/>
    <nd ref="1173859934"/>
    <nd ref="1173859631"/>
    <nd ref="1173860013"/>
    <nd ref="1173859922"/>
    <nd ref="1173859744"/>
    <nd ref="1173859634"/>
    <tag k="access" v="private"/>
    <tag k="addr:city" v="Melbourne"/>
    <tag k="addr:country" v="AU"/>
    <tag k="addr:housenumber" v="6"/>
    <tag k="addr:postcode" v="3152"/>
    <tag k="addr:state" v="VIC"/>
    <tag k="addr:street" v="Badminton Court"/>
    <tag k="building" v="yes"/>
  </way>
  <way id="101670596" version="4" timestamp="2011-12-03T03:40:11Z" uid="11111" user="melb_guy" changeset="10021573">
    <nd ref="1173859634"/>
    <nd ref="1173860046"/>
    <nd ref="1173859858"/>
    <nd ref="1173859697"/>
    <nd ref="1173859823"/>
    <nd ref="1173859934"/>
    <nd ref="1173859631"/>
    <nd ref="1173860013"/>
    <nd ref="1173859922"/>
    <nd ref="1173859744"/>
    <nd ref="1173859634"/>
    <tag k="access" v="private"/>
    <tag k="addr:city" v="Melbourne"/>
    <tag k="addr:country" v="AU"/>
    <tag k="addr:housenumber" v="6"/>
    <tag k="addr:postcode" v="3152"/>
    <tag k="addr:state" v="VIC"/>
    <tag k="addr:street" v="Badminton Court"/>
    <tag k="building" v="house"/>
  </way>
  <way id="101670702" version="1" timestamp="2011-02-26T03:59:04Z" uid="4467" user="Rosscoe" changeset="7396396">
    <nd ref="478560126"/>
    <nd ref="1173862571"/>
    <nd ref="902324660"/>
    <tag k="highway" v="unclassified"/>
    <tag k="source" v="nearmap"/>
    <tag k="surface" v="asphalt"/>
  </way>
  <way id="101670705" version="1" timestamp="2011-02-26T03:59:04Z" uid="4467" user="Rosscoe" changeset="7396396">
    <nd ref="478560118"/>
    <nd ref="1173862567"/>
    <nd ref="1173862570"/>
    <nd ref="478560126"/>
    <tag k="bridge" v="yes"/>
    <tag k="highway" v="unclassified"/>
    <tag k="layer" v="1"/>
    <tag k="source" v="nearmap"/>
    <tag k="surface" v="asphalt"/>
  </way>
  <way id="101670760" version="1" timestamp="2011-02-26T04:03:06Z" uid="4467" user="Rosscoe" changeset="7396401">
    <nd ref="1173865769"/>
    <nd ref="1173865775"/>
    <tag k="highway" v="residential"/>
    <tag k="source" v="nearmap"/>
    <tag k="surface" v="asphalt"/>
  </way>
  <way id="101670118" version="2" timestamp="2012-07-19T17:36:51Z" uid="722137" user="OSMF Redaction Account" changeset="12342037"/>
  <way id="101670119" version="2" timestamp="2012-07-19T17:36:51Z" uid="722137" user="OSMF Redaction Account" changeset="12342037"/>
  <way id="101670702" version="2" timestamp="2012-06-28T02:25:03Z" uid="147201" user="Nomad Tales" changeset="12042459">
    <nd ref="478560126"/>
    <nd ref="1173862571"/>
    <nd ref="902324660"/>
    <nd ref="332949669"/>
    <nd ref="332949668"/>
    <nd ref="332949667"/>
    <nd ref="902324665"/>
    <nd ref="332949666"/>
    <nd ref="902324674"/>
    <nd ref="902324651"/>
    <nd ref="902324668"/>
    <nd ref="1325796813"/>
    <nd ref="332949665"/>
    <nd ref="332949664"/>
    <nd ref="1325796827"/>
    <nd ref="332949663"/>
    <nd ref="332949662"/>
    <nd ref="1325796812"/>
    <nd ref="332949661"/>
    <tag k="cycleway" v="lane"/>
    <tag k="highway" v="secondary"/>
    <tag k="maxspeed" v="80"/>
    <tag k="name" v="Pitnacree Road"/>
    <tag k="source" v="nearmap"/>
    <tag k="surface" v="asphalt"/>
  </way>
  <way id="101670702" version="3" timestamp="2012-07-21T14:50:28Z" uid="722137" user="OSMF Redaction Account" changeset="12412392">
    <nd ref="332949669"/>
    <nd ref="332949668"/>
    <nd ref="332949667"/>
    <nd ref="902324665"/>
    <nd ref="332949666"/>
    <nd ref="902324674"/>
    <nd ref="902324651"/>
    <nd ref="902324668"/>
    <nd ref="332949665"/>
    <nd ref="332949664"/>
    <nd ref="332949663"/>
    <nd ref="332949662"/>
    <nd ref="332949661"/>
    <tag k="cycleway" v="lane"/>
    <tag k="highway" v="secondary"/>
    <tag k="maxspeed" v="80"/>
    <tag k="name" v="Pitnacree Road"/>
  </way>
  <way id="101670705" version="2" timestamp="2012-06-28T02:25:03Z" uid="147201" user="Nomad Tales" changeset="12042459">
    <nd ref="478560118"/>
    <nd ref="1173862567"/>
    <nd ref="1173862570"/>
    <nd ref="478560126"/>
    <tag k="bridge" v="yes"/>
    <tag k="cycleway" v="lane"/>
    <tag k="highway" v="secondary"/>
    <tag k="layer" v="1"/>
    <tag k="maxspeed" v="80"/>
    <tag k="name" v="Harry Boyle Bridge"/>
    <tag k="source" v="nearmap"/>
    <tag k="surface" v="asphalt"/>
  </way>
  <way id="101670705" version="3" timestamp="2012-07-21T14:50:56Z" uid="722137" user="OSMF Redaction Account" changeset="12412392"/>
  <way id="101670760" version="2" timestamp="2012-07-19T23:43:13Z" uid="722137" user="OSMF Redaction Account" changeset="12351722"/>
</osm>
