<?xml version='1.0' encoding='UTF-8'?>
<osm version="0.6" generator="libosmium/2.20.0">
  <way id="101884915" version="1" timestamp="2011-02-27T01:18:47Z" uid="410505" user="Udini" changeset="7406323">
    <nd ref="20978343"/>
    <nd ref="300992195"/>
    <nd ref="20978351"/>
    <nd ref="283626085"/>
    <nd ref="20978353"/>
    <nd ref="283626088"/>
    <nd ref="20978355"/>
    <nd ref="20978357"/>
    <nd ref="20978359"/>
    <nd ref="283626089"/>
    <nd ref="20978383"/>
    <nd ref="20978387"/>
    <nd ref="299214681"/>
    <nd ref="20978389"/>
    <tag k="highway" v="trunk"/>
    <tag k="lanes" v="2"/>
    <tag k="maxspeed" v="50"/>
    <tag k="name" v="Wilhelm-Varnholt-Allee"/>
    <tag k="oneway" v="yes"/>
    <tag k="ref" v="B 37"/>
    <tag k="source:maxspeed" v="DE:urban"/>
  </way>
  <way id="101884915" version="2" timestamp="2011-03-04T21:21:30Z" uid="9581" user="Lobelt" changeset="7458182">
    <nd ref="20978343"/>
    <nd ref="300992195"/>
    <nd ref="20978351"/>
    <nd ref="283626085"/>
    <nd ref="20978353"/>
    <nd ref="283626088"/>
    <nd ref="20978355"/>
    <nd ref="20978357"/>
    <nd ref="20978359"/>
    <nd ref="283626089"/>
    <nd ref="20978383"/>
    <nd ref="20978387"/>
    <nd ref="299214681"/>
    <nd ref="20978389"/>
    <tag k="highway" v="primary"/>
    <tag k="lanes" v="2"/>
    <tag k="maxspeed" v="50"/>
    <tag k="name" v="Wilhelm-Varnholt-Allee"/>
    <tag k="oneway" v="yes"/>
    <tag k="ref" v="B 37"/>
    <tag k="source:maxspeed" v="DE:urban"/>
  </way>
  <way id="101884915" version="3" timestamp="2011-03-15T20:38:16Z" uid="410505" user="Udini" changeset="7570104">
    <nd ref="20978343"/>
    <nd ref="300992195"/>
    <nd ref="20978351"/>
    <nd ref="283626085"/>
    <nd ref="20978353"/>
    <nd ref="283626088"/>
    <nd ref="20978355"/>
    <nd ref="20978357"/>
    <nd ref="20978359"/>
    <nd ref="283626089"/>
    <nd ref="20978383"/>
    <nd ref="20978387"/>
    <nd ref="299214681"/>
    <nd ref="20978389"/>
    <tag k="bicycle" v="no"/>
    <tag k="highway" v="primary"/>
    <tag k="lanes" v="2"/>
    <tag k="maxspeed" v="50"/>
    <tag k="name" v="Wilhelm-Varnholt-Allee"/>
    <tag k="oneway" v="yes"/>
    <tag k="ref" v="B 37"/>
    <tag k="source:maxspeed" v="DE:urban"/>
  </way>
  <way id="101884915" version="4" timestamp="2011-03-15T20:42:44Z" uid="410505" user="Udini" changeset="7570144">
    <nd ref="20978343"/>
    <nd ref="300992195"/>
    <nd ref="20978351"/>
    <nd ref="283626085"/>
    <nd ref="20978353"/>
    <nd ref="283626088"/>
    <nd ref="20978355"/>
    <nd ref="20978357"/>
    <nd ref="20978359"/>
    <nd ref="283626089"/>
    <nd ref="20978383"/>
    <nd ref="20978387"/>
    <nd ref="299214681"/>
    <nd ref="20978389"/>
    <tag k="highway" v="primary"/>
    <tag k="lanes" v="2"/>
    <tag k="maxspeed" v="50"/>
    <tag k="motorroad" v="yes"/>
    <tag k="name" v="Wilhelm-Varnholt-Allee"/>
    <tag k="oneway" v="yes"/>
    <tag k="ref" v="B 37"/>
    <tag k="source:maxspeed" v="DE:urban"/>
  </way>
  <way id="101884915" version="5" timestamp="2012-02-24T22:23:24Z" uid="136321" user="Teddy73" changeset="10783279"/>
</osm>
