<?xml version='1.0' encoding='UTF-8'?>
<osm version="0.6" generator="libosmium/2.20.0">
  <way id="101925580" version="2" timestamp="2011-04-27T19:50:04Z" uid="9581" user="Lobelt" changeset="7988733">
    <nd ref="288898025"/>
    <nd ref="288897995"/>
    <tag k="highway" v="secondary"/>
    <tag k="name" v="Binger Landstraße"/>
  </way>
  <way id="101925580" version="3" timestamp="2011-09-25T18:29:31Z" uid="429734" user="rosamap" changeset="9393366">
    <nd ref="288898025"/>
    <nd ref="288897995"/>
    <tag k="cycleway" v="track"/>
    <tag k="highway" v="secondary"/>
    <tag k="name" v="Binger Landstraße"/>
  </way>
  <way id="101925580" version="4" timestamp="2012-02-28T18:09:44Z" uid="16112" user="Barthwo" changeset="10821057">
    <nd ref="1651761101"/>
    <nd ref="1651761011"/>
    <tag k="cycleway" v="track"/>
    <tag k="highway" v="secondary"/>
    <tag k="name" v="Binger Landstraße"/>
  </way>
  <way id="101925648" version="5" timestamp="2011-04-27T19:54:35Z" uid="9581" user="Lobelt" changeset="7988788">
    <nd ref="288910981"/>
    <nd ref="332570756"/>
    <nd ref="332570757"/>
    <nd ref="332570775"/>
    <nd ref="333245212"/>
    <nd ref="332570776"/>
    <nd ref="352836722"/>
    <nd ref="332570780"/>
    <nd ref="332570782"/>
    <nd ref="332570791"/>
    <nd ref="332570793"/>
    <nd ref="1178843660"/>
    <nd ref="332570794"/>
    <nd ref="332570796"/>
    <nd ref="1106451843"/>
    <nd ref="1178841528"/>
    <nd ref="332570797"/>
    <nd ref="332570803"/>
    <nd ref="288911423"/>
    <tag k="highway" v="secondary"/>
    <tag k="name" v="Hauptstraße"/>
    <tag k="ref" v="L 232"/>
  </way>
  <way id="101925648" version="6" timestamp="2012-02-28T18:36:50Z" uid="16112" user="Barthwo" changeset="10821258"/>
  <way id="101925649" version="2" timestamp="2011-04-27T19:49:54Z" uid="9581" user="Lobelt" changeset="7988733">
    <nd ref="1262423618"/>
    <nd ref="332570738"/>
    <nd ref="332570751"/>
    <tag k="highway" v="tertiary"/>
    <tag k="layer" v="0"/>
    <tag k="name" v="Hauptstraße"/>
    <tag k="ref" v="L 232"/>
  </way>
  <way id="101925649" version="3" timestamp="2011-04-27T19:54:34Z" uid="9581" user="Lobelt" changeset="7988788">
    <nd ref="1262423618"/>
    <nd ref="332570738"/>
    <nd ref="332570751"/>
    <tag k="highway" v="secondary"/>
    <tag k="layer" v="0"/>
    <tag k="name" v="Hauptstraße"/>
    <tag k="ref" v="L 232"/>
  </way>
  <way id="101925649" version="4" timestamp="2012-02-28T18:21:01Z" uid="16112" user="Barthwo" changeset="10821057"/>
  <way id="101925654" version="1" timestamp="2011-02-27T08:04:01Z" uid="9581" user="Lobelt" changeset="7407600">
    <nd ref="1176700083"/>
    <nd ref="392618235"/>
    <tag k="highway" v="motorway"/>
    <tag k="maxspeed" v="no"/>
    <tag k="oneway" v="yes"/>
    <tag k="ref" v="A 66"/>
  </way>
  <way id="101925654" version="2" timestamp="2012-01-10T18:02:47Z" uid="166154" user="TomRat" changeset="10353573"/>
  <way id="101925655" version="1" timestamp="2011-02-27T08:04:01Z" uid="9581" user="Lobelt" changeset="7407600">
    <nd ref="1176700082"/>
    <nd ref="1176700086"/>
    <nd ref="1176700014"/>
    <nd ref="70707742"/>
    <nd ref="1176700061"/>
    <nd ref="70707745"/>
    <nd ref="1176700096"/>
    <nd ref="70707749"/>
    <nd ref="1176700077"/>
    <nd ref="1176700042"/>
    <nd ref="70707753"/>
    <nd ref="1176700017"/>
    <nd ref="70707756"/>
    <nd ref="1176700054"/>
    <nd ref="1176700087"/>
    <nd ref="70707762"/>
    <nd ref="1176700015"/>
    <nd ref="1176700069"/>
    <nd ref="70707767"/>
    <nd ref="1176700011"/>
    <nd ref="70707776"/>
    <nd ref="1176700060"/>
    <nd ref="70707782"/>
    <nd ref="70707787"/>
    <nd ref="70707795"/>
    <nd ref="1176700093"/>
    <nd ref="70707799"/>
    <nd ref="1176700027"/>
    <nd ref="1176699998"/>
    <nd ref="70707801"/>
    <nd ref="1176700009"/>
    <nd ref="1176700058"/>
    <nd ref="70707807"/>
    <nd ref="1176700102"/>
    <nd ref="70707814"/>
    <nd ref="12456120"/>
    <tag k="highway" v="motorway"/>
    <tag k="lanes" v="2"/>
    <tag k="maxspeed" v="no"/>
    <tag k="oneway" v="yes"/>
    <tag k="osmarender:renderRef" v="no"/>
    <tag k="ref" v="A 66"/>
  </way>
  <way id="101925655" version="2" timestamp="2011-09-01T01:48:17Z" uid="207745" user="NE2" changeset="9181205">
    <nd ref="1176700082"/>
    <nd ref="1176700086"/>
    <nd ref="1176700014"/>
    <nd ref="70707742"/>
    <nd ref="1176700061"/>
    <nd ref="70707745"/>
    <nd ref="1176700096"/>
    <nd ref="70707749"/>
    <nd ref="1176700077"/>
    <nd ref="1176700042"/>
    <nd ref="70707753"/>
    <nd ref="1176700017"/>
    <nd ref="70707756"/>
    <nd ref="1176700054"/>
    <nd ref="1176700087"/>
    <nd ref="70707762"/>
    <nd ref="1176700015"/>
    <nd ref="1176700069"/>
    <nd ref="70707767"/>
    <nd ref="1176700011"/>
    <nd ref="70707776"/>
    <nd ref="1176700060"/>
    <nd ref="70707782"/>
    <nd ref="70707787"/>
    <nd ref="70707795"/>
    <nd ref="1176700093"/>
    <nd ref="70707799"/>
    <nd ref="1176700027"/>
    <nd ref="1176699998"/>
    <nd ref="70707801"/>
    <nd ref="1176700009"/>
    <nd ref="1176700058"/>
    <nd ref="70707807"/>
    <nd ref="1176700102"/>
    <nd ref="70707814"/>
    <nd ref="12456120"/>
    <tag k="highway" v="motorway"/>
    <tag k="lanes" v="2"/>
    <tag k="maxspeed" v="no"/>
    <tag k="oneway" v="yes"/>
    <tag k="ref" v="A 66"/>
  </way>
  <way id="101925655" version="3" timestamp="2012-01-10T17:41:13Z" uid="166154" user="TomRat" changeset="10353363">
    <nd ref="1176700082"/>
    <nd ref="1176700086"/>
    <nd ref="1176700014"/>
    <nd ref="70707742"/>
    <nd ref="1176700061"/>
    <nd ref="70707745"/>
    <nd ref="1176700096"/>
    <nd ref="70707749"/>
    <nd ref="1176700077"/>
    <nd ref="1176700042"/>
    <nd ref="70707753"/>
    <nd ref="1176700017"/>
    <nd ref="70707756"/>
    <nd ref="1176700054"/>
    <nd ref="1176700087"/>
    <nd ref="70707762"/>
    <nd ref="1176700015"/>
    <nd ref="1176700069"/>
    <nd ref="70707767"/>
    <nd ref="1176700011"/>
    <nd ref="70707776"/>
    <nd ref="1176700060"/>
    <nd ref="70707782"/>
    <nd ref="70707787"/>
    <nd ref="70707795"/>
    <nd ref="1176700093"/>
    <nd ref="70707799"/>
    <nd ref="1176700027"/>
    <nd ref="1176699998"/>
    <nd ref="70707801"/>
    <nd ref="1176700009"/>
    <nd ref="1176700058"/>
    <nd ref="70707807"/>
    <nd ref="1176700102"/>
    <nd ref="70707814"/>
    <nd ref="1584817005"/>
    <nd ref="12456120"/>
    <tag k="highway" v="motorway"/>
    <tag k="lanes" v="2"/>
    <tag k="maxspeed" v="no"/>
    <tag k="oneway" v="yes"/>
    <tag k="ref" v="A 66"/>
  </way>
  <way id="101925655" version="4" timestamp="2012-01-17T17:03:39Z" uid="166154" user="TomRat" changeset="10419582"/>
  <way id="101925656" version="1" timestamp="2011-02-27T08:04:02Z" uid="9581" user="Lobelt" changeset="7407600">
    <nd ref="69377948"/>
    <nd ref="69377954"/>
    <nd ref="1176700049"/>
    <nd ref="1176700002"/>
    <nd ref="69377963"/>
    <nd ref="1176700066"/>
    <nd ref="69377973"/>
    <nd ref="536883825"/>
    <tag k="highway" v="motorway"/>
    <tag k="lanes" v="2"/>
    <tag k="maxspeed" v="no"/>
    <tag k="oneway" v="yes"/>
    <tag k="ref" v="A 66"/>
  </way>
  <way id="101925656" version="2" timestamp="2012-01-09T18:43:30Z" uid="166154" user="TomRat" changeset="10344571"/>
  <way id="101925657" version="1" timestamp="2011-02-27T08:04:02Z" uid="9581" user="Lobelt" changeset="7407600">
    <nd ref="70707740"/>
    <nd ref="1176700082"/>
    <tag k="bridge" v="yes"/>
    <tag k="highway" v="motorway"/>
    <tag k="lanes" v="2"/>
    <tag k="layer" v="1"/>
    <tag k="maxspeed" v="no"/>
    <tag k="oneway" v="yes"/>
    <tag k="osmarender:renderRef" v="no"/>
    <tag k="ref" v="A 66"/>
  </way>
  <way id="101925657" version="2" timestamp="2011-09-01T01:47:58Z" uid="207745" user="NE2" changeset="9181205">
    <nd ref="70707740"/>
    <nd ref="1176700082"/>
    <tag k="bridge" v="yes"/>
    <tag k="highway" v="motorway"/>
    <tag k="lanes" v="2"/>
    <tag k="layer" v="1"/>
    <tag k="maxspeed" v="no"/>
    <tag k="oneway" v="yes"/>
    <tag k="ref" v="A 66"/>
  </way>
  <way id="101925657" version="3" timestamp="2012-01-18T20:33:55Z" uid="302852" user="be-ju" changeset="10431216"/>
  <way id="101925658" version="1" timestamp="2011-02-27T08:04:02Z" uid="9581" user="Lobelt" changeset="7407600">
    <nd ref="1176700105"/>
    <nd ref="69377948"/>
    <tag k="bridge" v="yes"/>
    <tag k="highway" v="motorway"/>
    <tag k="lanes" v="2"/>
    <tag k="layer" v="1"/>
    <tag k="maxspeed" v="no"/>
    <tag k="oneway" v="yes"/>
    <tag k="ref" v="A 66"/>
  </way>
  <way id="101925658" version="2" timestamp="2012-01-18T20:33:56Z" uid="302852" user="be-ju" changeset="10431216"/>
  <way id="101925717" version="5" timestamp="2011-04-27T19:54:35Z" uid="9581" user="Lobelt" changeset="7988788">
    <nd ref="288911423"/>
    <nd ref="1184155202"/>
    <nd ref="332570824"/>
    <nd ref="332573841"/>
    <nd ref="332570844"/>
    <nd ref="332573934"/>
    <nd ref="332570894"/>
    <nd ref="352837112"/>
    <nd ref="288912657"/>
    <nd ref="664248886"/>
    <tag k="highway" v="secondary"/>
    <tag k="name" v="Hauptstraße"/>
    <tag k="ref" v="L 232"/>
  </way>
  <way id="101925717" version="6" timestamp="2012-02-28T18:36:50Z" uid="16112" user="Barthwo" changeset="10821258"/>
  <way id="101925580" version="5" timestamp="2012-05-06T11:29:36Z" uid="675079" user="ticaki" changeset="11517230">
    <nd ref="1651761101"/>
    <nd ref="1651761011"/>
    <tag k="cycleway" v="track"/>
    <tag k="highway" v="tertiary"/>
    <tag k="name" v="Binger Landstraße"/>
  </way>
</osm>
