<?xml version='1.0' encoding='UTF-8'?>
<osm version="0.6" generator="libosmium/2.20.0">
  <way id="102268111" version="1" timestamp="2011-03-01T11:08:10Z" uid="165061" user="keinname" changeset="7428036">
    <nd ref="15848098"/>
    <nd ref="15848099"/>
    <nd ref="950892646"/>
    <nd ref="1180503027"/>
    <nd ref="528653132"/>
    <tag k="highway" v="primary"/>
    <tag k="lanes" v="4"/>
    <tag k="maxspeed" v="60"/>
    <tag k="motorroad" v="no"/>
    <tag k="name" v="Wolfartsweierer Straße"/>
    <tag k="oneway" v="yes"/>
    <tag k="ref" v="B 10"/>
  </way>
  <way id="102268111" version="2" timestamp="2011-03-04T18:52:59Z" uid="6269" user="Mueck" changeset="7456921">
    <nd ref="15848098"/>
    <nd ref="15848099"/>
    <nd ref="1180503027"/>
    <nd ref="528653132"/>
    <tag k="highway" v="primary"/>
    <tag k="lanes" v="4"/>
    <tag k="maxspeed" v="60"/>
    <tag k="motorroad" v="no"/>
    <tag k="name" v="Wolfartsweierer Straße"/>
    <tag k="oneway" v="yes"/>
    <tag k="ref" v="B 10"/>
  </way>
  <way id="102268111" version="3" timestamp="2011-10-06T14:59:44Z" uid="4499" user="Jochen Topf" changeset="9486264">
    <nd ref="15848098"/>
    <nd ref="15848099"/>
    <nd ref="1180503027"/>
    <nd ref="528653132"/>
    <tag k="highway" v="primary"/>
    <tag k="lanes" v="4"/>
    <tag k="maxspeed" v="60"/>
    <tag k="motorroad" v="no"/>
    <tag k="name" v="Wolfartsweierer Straße"/>
    <tag k="oneway" v="yes"/>
    <tag k="ref" v="B 10"/>
    <tag k="tmc" v="DE:30891+30892"/>
  </way>
  <way id="102268111" version="4" timestamp="2011-10-13T15:03:55Z" uid="4499" user="Jochen Topf" changeset="9547928">
    <nd ref="15848098"/>
    <nd ref="15848099"/>
    <nd ref="1180503027"/>
    <nd ref="528653132"/>
    <tag k="highway" v="primary"/>
    <tag k="lanes" v="4"/>
    <tag k="maxspeed" v="60"/>
    <tag k="motorroad" v="no"/>
    <tag k="name" v="Wolfartsweierer Straße"/>
    <tag k="oneway" v="yes"/>
    <tag k="ref" v="B 10"/>
    <tag k="tmc" v="DE:30892-30891"/>
  </way>
  <way id="102268111" version="5" timestamp="2011-10-19T20:28:28Z" uid="165061" user="keinname" changeset="9603719">
    <nd ref="15848098"/>
    <nd ref="15848099"/>
    <nd ref="1180503027"/>
    <nd ref="528653132"/>
    <tag k="highway" v="primary"/>
    <tag k="lanes" v="4"/>
    <tag k="lanes:turnleft" v="2"/>
    <tag k="maxspeed" v="60"/>
    <tag k="motorroad" v="no"/>
    <tag k="name" v="Wolfartsweierer Straße"/>
    <tag k="oneway" v="yes"/>
    <tag k="ref" v="B 10"/>
    <tag k="tmc" v="DE:30892-30891"/>
  </way>
  <way id="102268111" version="6" timestamp="2011-10-26T09:54:16Z" uid="442210" user="dwausr" changeset="9658668"/>
  <way id="102268120" version="1" timestamp="2011-03-01T11:08:11Z" uid="165061" user="keinname" changeset="7428036">
    <nd ref="25928827"/>
    <nd ref="623727921"/>
    <nd ref="950892539"/>
    <nd ref="950892599"/>
    <nd ref="526169"/>
    <nd ref="1180503154"/>
    <tag k="highway" v="primary"/>
    <tag k="lanes" v="2"/>
    <tag k="maxspeed" v="60"/>
    <tag k="motorroad" v="no"/>
    <tag k="name" v="Ostring"/>
    <tag k="oneway" v="yes"/>
    <tag k="ref" v="B 10"/>
  </way>
  <way id="102268120" version="2" timestamp="2011-03-02T03:41:17Z" uid="6269" user="Mueck" changeset="7434891">
    <nd ref="25928827"/>
    <nd ref="623727921"/>
    <nd ref="950892539"/>
    <nd ref="526169"/>
    <nd ref="1180503154"/>
    <tag k="highway" v="primary"/>
    <tag k="lanes" v="2"/>
    <tag k="maxspeed" v="60"/>
    <tag k="motorroad" v="no"/>
    <tag k="name" v="Ostring"/>
    <tag k="oneway" v="yes"/>
    <tag k="ref" v="B 10"/>
  </way>
  <way id="102268120" version="3" timestamp="2011-10-06T14:59:43Z" uid="4499" user="Jochen Topf" changeset="9486264">
    <nd ref="25928827"/>
    <nd ref="623727921"/>
    <nd ref="950892539"/>
    <nd ref="526169"/>
    <nd ref="1180503154"/>
    <tag k="highway" v="primary"/>
    <tag k="lanes" v="2"/>
    <tag k="maxspeed" v="60"/>
    <tag k="motorroad" v="no"/>
    <tag k="name" v="Ostring"/>
    <tag k="oneway" v="yes"/>
    <tag k="ref" v="B 10"/>
    <tag k="tmc" v="DE:30893-30892"/>
  </way>
  <way id="102268120" version="4" timestamp="2011-10-13T15:03:44Z" uid="4499" user="Jochen Topf" changeset="9547928">
    <nd ref="25928827"/>
    <nd ref="623727921"/>
    <nd ref="950892539"/>
    <nd ref="526169"/>
    <nd ref="1180503154"/>
    <tag k="highway" v="primary"/>
    <tag k="lanes" v="2"/>
    <tag k="maxspeed" v="60"/>
    <tag k="motorroad" v="no"/>
    <tag k="name" v="Ostring"/>
    <tag k="oneway" v="yes"/>
    <tag k="ref" v="B 10"/>
    <tag k="tmc" v="DE:30892+30893"/>
  </way>
  <way id="102268244" version="1" timestamp="2011-03-01T11:12:28Z" uid="347344" user="Paul Bech" changeset="7428216">
    <nd ref="1180298473"/>
    <nd ref="1180298474"/>
    <tag k="highway" v="residential"/>
  </way>
  <way id="102268244" version="2" timestamp="2011-03-01T11:12:52Z" uid="347344" user="Paul Bech" changeset="7428216">
    <nd ref="1180298473"/>
    <nd ref="1180298474"/>
    <tag k="highway" v="residential"/>
    <tag k="name" v="Hogans Rd"/>
  </way>
  <way id="102268244" version="3" timestamp="2011-03-02T14:52:02Z" uid="4467" user="Rosscoe" changeset="7438307">
    <nd ref="1180298473"/>
    <nd ref="1180298474"/>
    <tag k="highway" v="residential"/>
    <tag k="name" v="Hogans Road"/>
  </way>
</osm>
