<?xml version='1.0' encoding='UTF-8'?>
<osm version="0.6" generator="libosmium/2.20.0">
  <way id="102576788" version="1" timestamp="2011-03-03T16:47:25Z" uid="20587" user="balrog-kun" changeset="7447317">
    <nd ref="36662286"/>
    <nd ref="255161082"/>
    <nd ref="255161081"/>
    <nd ref="255161070"/>
    <nd ref="330011095"/>
    <nd ref="38434748"/>
    <nd ref="330011087"/>
    <nd ref="255161050"/>
    <nd ref="255161035"/>
    <nd ref="255160986"/>
    <nd ref="339262952"/>
    <nd ref="255161003"/>
    <nd ref="38434746"/>
    <nd ref="38434747"/>
    <tag k="agricultural" v="no"/>
    <tag k="highway" v="tertiary"/>
    <tag k="lanes" v="2"/>
    <tag k="name" v="Zwycięzców"/>
    <tag k="wikipedia" v="pl:Ulica Zwycięzców w Warszawie"/>
  </way>
  <way id="102576788" version="2" timestamp="2012-09-10T12:18:37Z" uid="99386" user="masti" changeset="13056263">
    <nd ref="36662286"/>
    <nd ref="255161082"/>
    <nd ref="255161081"/>
    <nd ref="255161070"/>
    <nd ref="330011095"/>
    <nd ref="38434748"/>
    <nd ref="330011087"/>
    <nd ref="255161050"/>
    <nd ref="255161035"/>
    <nd ref="255160986"/>
    <nd ref="339262952"/>
    <nd ref="255161003"/>
    <nd ref="38434746"/>
    <tag k="agricultural" v="no"/>
    <tag k="highway" v="tertiary"/>
    <tag k="lanes" v="2"/>
    <tag k="name" v="Zwycięzców"/>
    <tag k="wikipedia" v="pl:Ulica Zwycięzców w Warszawie"/>
  </way>
</osm>
