<?xml version='1.0' encoding='UTF-8'?>
<osm version="0.6" generator="libosmium/2.20.0">
  <way id="103394456" version="2" timestamp="2011-04-13T21:54:44Z" uid="66036" user="h4v" changeset="7856409">
    <nd ref="1193915790"/>
    <nd ref="1193915812"/>
    <nd ref="1193915795"/>
    <nd ref="1193915778"/>
    <nd ref="1193915929"/>
    <nd ref="1193915899"/>
    <nd ref="1193915797"/>
    <nd ref="1193915790"/>
    <tag k="addr:housenumber" v="2"/>
    <tag k="building" v="yes"/>
    <tag k="old_name" v="Kino Gdynia"/>
    <tag k="source" v="bing"/>
    <tag k="source:addr" v="wikipedia"/>
    <tag k="source:name" v="wikipedia"/>
    <tag k="wikipedia" v="pl:Kino_Gdynia_w_Łodzi"/>
  </way>
  <way id="103394461" version="2" timestamp="2011-04-13T21:54:43Z" uid="66036" user="h4v" changeset="7856409">
    <nd ref="1193915899"/>
    <nd ref="1193915929"/>
    <nd ref="1193915847"/>
    <nd ref="1193915804"/>
    <nd ref="1193915781"/>
    <nd ref="1193915902"/>
    <nd ref="1193915823"/>
    <nd ref="1193915797"/>
    <nd ref="1193915899"/>
    <tag k="addr:housenumber" v="98"/>
    <tag k="building" v="yes"/>
    <tag k="loc_name" v="Dom Buta"/>
    <tag k="name" v="Magazyn Konfekcyjny Emila Schmechela"/>
    <tag k="source" v="bing"/>
    <tag k="source:addr" v="wikipedia"/>
    <tag k="source:name" v="wikipedia"/>
    <tag k="wikipedia" v="pl:Magazyn_Konfekcyjny_Emila_Schmechela"/>
  </way>
  <way id="103394456" version="3" timestamp="2012-07-24T13:30:51Z" uid="722137" user="OSMF Redaction Account" changeset="12466681">
    <nd ref="1193915790"/>
    <nd ref="1193915812"/>
    <nd ref="1193915795"/>
    <nd ref="1193915778"/>
    <nd ref="1193915929"/>
    <nd ref="1193915899"/>
    <nd ref="1193915797"/>
    <nd ref="1193915790"/>
    <tag k="building" v="yes"/>
    <tag k="source" v="bing"/>
  </way>
  <way id="103394456" version="4" timestamp="2012-08-10T19:40:15Z" uid="607553" user="Duke83" changeset="12684025">
    <nd ref="1193915795"/>
    <nd ref="1193915778"/>
    <nd ref="1193915929"/>
    <nd ref="1860683970"/>
    <nd ref="1193915899"/>
    <nd ref="1193915797"/>
    <nd ref="1193915795"/>
    <tag k="building" v="yes"/>
    <tag k="source" v="bing"/>
  </way>
  <way id="103394461" version="3" timestamp="2012-07-10T17:27:32Z" uid="537860" user="awulkiew" changeset="12176384">
    <nd ref="1193915899"/>
    <nd ref="1193915929"/>
    <nd ref="1193915847"/>
    <nd ref="1193915804"/>
    <nd ref="1193915781"/>
    <nd ref="1193915902"/>
    <nd ref="1193915823"/>
    <nd ref="1193915797"/>
    <nd ref="1193915899"/>
    <tag k="addr:housenumber" v="98"/>
    <tag k="building" v="yes"/>
    <tag k="loc_name" v="Dom Buta"/>
    <tag k="name" v="Magazyn Konfekcyjny Emila Schmechela"/>
    <tag k="source" v="bing"/>
    <tag k="source:addr" v="wikipedia"/>
    <tag k="source:name" v="wikipedia"/>
    <tag k="tourism" v="attraction"/>
    <tag k="wikipedia" v="pl:Magazyn_Konfekcyjny_Emila_Schmechela"/>
  </way>
  <way id="103394461" version="4" timestamp="2012-07-24T13:30:51Z" uid="722137" user="OSMF Redaction Account" changeset="12466681">
    <nd ref="1193915899"/>
    <nd ref="1193915929"/>
    <nd ref="1193915847"/>
    <nd ref="1193915804"/>
    <nd ref="1193915781"/>
    <nd ref="1193915902"/>
    <nd ref="1193915823"/>
    <nd ref="1193915797"/>
    <nd ref="1193915899"/>
    <tag k="building" v="yes"/>
    <tag k="source" v="bing"/>
    <tag k="tourism" v="attraction"/>
  </way>
  <way id="103394461" version="5" timestamp="2012-08-05T11:17:57Z" uid="607553" user="Duke83" changeset="12619040">
    <nd ref="1193915899"/>
    <nd ref="1193915929"/>
    <nd ref="1193915847"/>
    <nd ref="1193915804"/>
    <nd ref="1193915781"/>
    <nd ref="1193915902"/>
    <nd ref="1193915823"/>
    <nd ref="1193915797"/>
    <nd ref="1193915899"/>
    <tag k="addr:city" v="Łódź"/>
    <tag k="addr:street" v="Piotrkowska"/>
    <tag k="building" v="yes"/>
    <tag k="source" v="bing"/>
    <tag k="tourism" v="attraction"/>
  </way>
  <way id="103394461" version="6" timestamp="2012-08-05T11:19:37Z" uid="607553" user="Duke83" changeset="12619064">
    <nd ref="1193915899"/>
    <nd ref="1193915929"/>
    <nd ref="1193915847"/>
    <nd ref="1193915804"/>
    <nd ref="1193915781"/>
    <nd ref="1193915902"/>
    <nd ref="1193915823"/>
    <nd ref="1193915797"/>
    <nd ref="1193915899"/>
    <tag k="addr:city" v="Łódź"/>
    <tag k="addr:housenumber" v="98"/>
    <tag k="addr:street" v="Piotrkowska"/>
    <tag k="building" v="yes"/>
    <tag k="source" v="bing"/>
    <tag k="tourism" v="attraction"/>
  </way>
  <way id="103394461" version="7" timestamp="2012-08-10T19:40:15Z" uid="607553" user="Duke83" changeset="12684025">
    <nd ref="1193915899"/>
    <nd ref="1860683970"/>
    <nd ref="1193915929"/>
    <nd ref="1193915847"/>
    <nd ref="1193915781"/>
    <nd ref="1193915902"/>
    <nd ref="1193915823"/>
    <nd ref="1193915797"/>
    <nd ref="1193915899"/>
    <tag k="addr:city" v="Łódź"/>
    <tag k="addr:housenumber" v="98"/>
    <tag k="addr:street" v="Piotrkowska"/>
    <tag k="building" v="yes"/>
    <tag k="source" v="bing"/>
    <tag k="tourism" v="attraction"/>
  </way>
  <way id="103394461" version="8" timestamp="2012-08-12T07:42:10Z" uid="607553" user="Duke83" changeset="12698451">
    <nd ref="1193915899"/>
    <nd ref="1860683970"/>
    <nd ref="1193915929"/>
    <nd ref="1193915847"/>
    <nd ref="1193915781"/>
    <nd ref="1193915797"/>
    <nd ref="1193915899"/>
    <tag k="addr:city" v="Łódź"/>
    <tag k="addr:housenumber" v="98"/>
    <tag k="addr:street" v="Piotrkowska"/>
    <tag k="building" v="yes"/>
    <tag k="source" v="bing"/>
    <tag k="tourism" v="attraction"/>
  </way>
</osm>
