<?xml version='1.0' encoding='UTF-8'?>
<osm version="0.6" generator="libosmium/2.20.0">
  <way id="103591415" version="3" timestamp="2011-05-30T19:22:39Z" uid="34428" user="usm78-gis" changeset="8295330">
    <nd ref="152770879"/>
    <nd ref="152770884"/>
    <tag k="maxdraught" v="4,2 m"/>
    <tag k="name" v="Сайменский канал"/>
    <tag k="name:en" v="Saimaa Canal"/>
    <tag k="name:fi" v="Saimaan Kanava"/>
    <tag k="name:ru" v="Сайменский канал"/>
    <tag k="name:sv" v="Saima kanal"/>
    <tag k="route" v="ferry"/>
    <tag k="waterway" v="canal"/>
  </way>
  <way id="103591913" version="1" timestamp="2011-03-10T22:44:13Z" uid="6269" user="Mueck" changeset="7519170">
    <nd ref="695156039"/>
    <nd ref="1196014825"/>
    <nd ref="695156088"/>
    <nd ref="695156230"/>
    <nd ref="695156099"/>
    <nd ref="695156325"/>
    <nd ref="695156121"/>
    <nd ref="1196014962"/>
    <nd ref="695156330"/>
    <nd ref="1196014642"/>
    <nd ref="695156185"/>
    <nd ref="1163746869"/>
    <nd ref="695156040"/>
    <nd ref="695156256"/>
    <nd ref="1196014871"/>
    <nd ref="695156127"/>
    <nd ref="1196014826"/>
    <nd ref="695156322"/>
    <tag k="electrified" v="no"/>
    <tag k="gauge" v="1435"/>
    <tag k="operator" v="KVVH / AVG"/>
    <tag k="railway" v="rail"/>
    <tag k="service" v="yard"/>
    <tag k="tracks" v="1"/>
    <tag k="workrules" v="EBO"/>
  </way>
  <way id="103591915" version="1" timestamp="2011-03-10T22:44:13Z" uid="6269" user="Mueck" changeset="7519170">
    <nd ref="695156296"/>
    <nd ref="1196015044"/>
    <nd ref="695156159"/>
    <nd ref="1196014669"/>
    <nd ref="1196015041"/>
    <nd ref="695156107"/>
    <tag k="electrified" v="no"/>
    <tag k="gauge" v="1435"/>
    <tag k="operator" v="KVVH / AVG"/>
    <tag k="railway" v="rail"/>
    <tag k="service" v="yard"/>
    <tag k="tracks" v="1"/>
    <tag k="workrules" v="EBO"/>
  </way>
  <way id="103591916" version="1" timestamp="2011-03-10T22:44:14Z" uid="6269" user="Mueck" changeset="7519170">
    <nd ref="1196033356"/>
    <nd ref="695156222"/>
    <nd ref="695156133"/>
    <nd ref="1196014666"/>
    <nd ref="695156272"/>
    <nd ref="1163746895"/>
    <nd ref="695156141"/>
    <nd ref="1196014582"/>
    <nd ref="1163747047"/>
    <nd ref="695156159"/>
    <tag k="electrified" v="no"/>
    <tag k="gauge" v="1435"/>
    <tag k="operator" v="KVVH / AVG"/>
    <tag k="railway" v="rail"/>
    <tag k="service" v="yard"/>
    <tag k="tracks" v="1"/>
    <tag k="workrules" v="EBO"/>
  </way>
  <way id="103591415" version="4" timestamp="2012-07-21T05:16:34Z" uid="722137" user="OSMF Redaction Account" changeset="12400557">
    <nd ref="152770879"/>
    <nd ref="152770884"/>
    <tag k="maxdraught" v="4,2 m"/>
    <tag k="name" v="Сайменский канал"/>
    <tag k="name:en" v="Saimaa Canal"/>
    <tag k="name:fi" v="Saimaan Kanava"/>
    <tag k="name:ru" v="Сайменский канал"/>
    <tag k="name:sv" v="Saima kanal"/>
    <tag k="waterway" v="canal"/>
  </way>
  <way id="103591913" version="2" timestamp="2012-07-17T14:57:29Z" uid="722137" user="OSMF Redaction Account" changeset="12267828"/>
  <way id="103591915" version="2" timestamp="2012-07-17T14:57:29Z" uid="722137" user="OSMF Redaction Account" changeset="12267828"/>
  <way id="103591916" version="2" timestamp="2012-07-17T14:57:29Z" uid="722137" user="OSMF Redaction Account" changeset="12267828"/>
</osm>
