<?xml version='1.0' encoding='UTF-8'?>
<osm version="0.6" generator="libosmium/2.20.0">
  <way id="103600264" version="1" timestamp="2011-03-11T01:31:11Z" uid="6269" user="Mueck" changeset="7519922">
    <nd ref="1196222072"/>
    <nd ref="1196222200"/>
    <nd ref="1196222299"/>
    <nd ref="1026502607"/>
    <tag k="electrified" v="no"/>
    <tag k="gauge" v="1435"/>
    <tag k="operator" v="KVVH / AVG"/>
    <tag k="railway" v="rail"/>
    <tag k="service" v="spur"/>
    <tag k="tracks" v="1"/>
    <tag k="workrules" v="EBO"/>
  </way>
  <way id="103600264" version="2" timestamp="2011-11-24T13:17:05Z" uid="118006" user="vwistuttgart" changeset="9932964">
    <nd ref="1196222072"/>
    <nd ref="1196222200"/>
    <nd ref="1196222299"/>
    <nd ref="1026502607"/>
    <tag k="electrified" v="no"/>
    <tag k="gauge" v="1435"/>
    <tag k="operator" v="Karlsruher Versorgungs-, Verkehrs-, und Hafen-GmbH, KVVH"/>
    <tag k="railway" v="rail"/>
    <tag k="service" v="spur"/>
    <tag k="tracks" v="1"/>
    <tag k="workrules" v="EBO"/>
  </way>
  <way id="103600265" version="1" timestamp="2011-03-11T01:31:11Z" uid="6269" user="Mueck" changeset="7519922">
    <nd ref="1026502667"/>
    <nd ref="1196222115"/>
    <nd ref="1196222232"/>
    <tag k="electrified" v="no"/>
    <tag k="gauge" v="1435"/>
    <tag k="railway" v="rail"/>
    <tag k="service" v="spur"/>
    <tag k="tracks" v="1"/>
    <tag k="workrules" v="EBO"/>
  </way>
  <way id="103600265" version="2" timestamp="2011-11-24T13:16:49Z" uid="118006" user="vwistuttgart" changeset="9932964">
    <nd ref="1026502667"/>
    <nd ref="1196222115"/>
    <nd ref="1196222232"/>
    <tag k="electrified" v="no"/>
    <tag k="gauge" v="1435"/>
    <tag k="operator" v="ENBW AG"/>
    <tag k="railway" v="rail"/>
    <tag k="service" v="spur"/>
    <tag k="tracks" v="1"/>
    <tag k="workrules" v="EBO"/>
  </way>
  <way id="103600266" version="1" timestamp="2011-03-11T01:31:12Z" uid="6269" user="Mueck" changeset="7519922">
    <nd ref="1196222344"/>
    <nd ref="1196222204"/>
    <nd ref="1196222234"/>
    <tag k="electrified" v="no"/>
    <tag k="gauge" v="1435"/>
    <tag k="operator" v="KVVH / AVG"/>
    <tag k="railway" v="rail"/>
    <tag k="service" v="yard"/>
    <tag k="tracks" v="1"/>
    <tag k="workrules" v="EBO"/>
  </way>
  <way id="103600267" version="1" timestamp="2011-03-11T01:31:12Z" uid="6269" user="Mueck" changeset="7519922">
    <nd ref="1196222127"/>
    <nd ref="1196222368"/>
    <nd ref="1196222264"/>
    <nd ref="1196222357"/>
    <tag k="electrified" v="no"/>
    <tag k="gauge" v="1435"/>
    <tag k="operator" v="KVVH / AVG"/>
    <tag k="railway" v="rail"/>
    <tag k="service" v="spur"/>
    <tag k="tracks" v="1"/>
    <tag k="workrules" v="EBO"/>
  </way>
  <way id="103600267" version="2" timestamp="2011-11-24T13:17:05Z" uid="118006" user="vwistuttgart" changeset="9932964">
    <nd ref="1196222127"/>
    <nd ref="1196222368"/>
    <nd ref="1196222264"/>
    <nd ref="1196222357"/>
    <tag k="electrified" v="no"/>
    <tag k="gauge" v="1435"/>
    <tag k="operator" v="Karlsruher Versorgungs-, Verkehrs-, und Hafen-GmbH, KVVH"/>
    <tag k="railway" v="rail"/>
    <tag k="service" v="spur"/>
    <tag k="tracks" v="1"/>
    <tag k="workrules" v="EBO"/>
  </way>
  <way id="103600268" version="1" timestamp="2011-03-11T01:31:12Z" uid="6269" user="Mueck" changeset="7519922">
    <nd ref="1196222273"/>
    <nd ref="1196222281"/>
    <nd ref="1196222314"/>
    <nd ref="1196222351"/>
    <tag k="electrified" v="no"/>
    <tag k="gauge" v="1435"/>
    <tag k="operator" v="KVVH / AVG"/>
    <tag k="railway" v="rail"/>
    <tag k="service" v="spur"/>
    <tag k="tracks" v="1"/>
    <tag k="workrules" v="EBO"/>
  </way>
  <way id="103600268" version="2" timestamp="2011-11-24T13:17:05Z" uid="118006" user="vwistuttgart" changeset="9932964">
    <nd ref="1196222273"/>
    <nd ref="1196222281"/>
    <nd ref="1196222314"/>
    <nd ref="1196222351"/>
    <tag k="electrified" v="no"/>
    <tag k="gauge" v="1435"/>
    <tag k="operator" v="Karlsruher Versorgungs-, Verkehrs-, und Hafen-GmbH, KVVH"/>
    <tag k="railway" v="rail"/>
    <tag k="service" v="spur"/>
    <tag k="tracks" v="1"/>
    <tag k="workrules" v="EBO"/>
  </way>
  <way id="103600316" version="1" timestamp="2011-03-11T01:35:34Z" uid="6269" user="Mueck" changeset="7519936">
    <nd ref="1026408626"/>
    <nd ref="1196015030"/>
    <nd ref="1196014761"/>
    <nd ref="1026408641"/>
    <tag k="electrified" v="no"/>
    <tag k="gauge" v="1435"/>
    <tag k="operator" v="KVVH / AVG"/>
    <tag k="railway" v="rail"/>
    <tag k="service" v="spur"/>
    <tag k="tracks" v="1"/>
    <tag k="workrules" v="EBO"/>
  </way>
  <way id="103600316" version="2" timestamp="2011-11-24T13:17:05Z" uid="118006" user="vwistuttgart" changeset="9932964">
    <nd ref="1026408626"/>
    <nd ref="1196015030"/>
    <nd ref="1196014761"/>
    <nd ref="1026408641"/>
    <tag k="electrified" v="no"/>
    <tag k="gauge" v="1435"/>
    <tag k="operator" v="Karlsruher Versorgungs-, Verkehrs-, und Hafen-GmbH, KVVH"/>
    <tag k="railway" v="rail"/>
    <tag k="service" v="spur"/>
    <tag k="tracks" v="1"/>
    <tag k="workrules" v="EBO"/>
  </way>
  <way id="103600358" version="1" timestamp="2011-03-11T01:37:11Z" uid="6269" user="Mueck" changeset="7519944">
    <nd ref="1026418055"/>
    <nd ref="1026418058"/>
    <tag k="electrified" v="no"/>
    <tag k="gauge" v="1435"/>
    <tag k="operator" v="KVVH / AVG"/>
    <tag k="railway" v="rail"/>
    <tag k="ref" v="47"/>
    <tag k="service" v="spur"/>
    <tag k="tracks" v="1"/>
    <tag k="workrules" v="EBO"/>
  </way>
  <way id="103600358" version="2" timestamp="2011-03-11T01:37:24Z" uid="6269" user="Mueck" changeset="7519944">
    <nd ref="1026418055"/>
    <nd ref="1026418058"/>
    <tag k="electrified" v="no"/>
    <tag k="gauge" v="1435"/>
    <tag k="operator" v="KVVH / AVG"/>
    <tag k="railway" v="rail"/>
    <tag k="service" v="spur"/>
    <tag k="tracks" v="1"/>
    <tag k="workrules" v="EBO"/>
  </way>
  <way id="103600358" version="3" timestamp="2011-11-24T13:16:26Z" uid="118006" user="vwistuttgart" changeset="9932964">
    <nd ref="1026418055"/>
    <nd ref="1026418058"/>
    <tag k="electrified" v="no"/>
    <tag k="gauge" v="1435"/>
    <tag k="operator" v="Karlsruher Versorgungs-, Verkehrs-, und Hafen-GmbH, KVVH"/>
    <tag k="railway" v="rail"/>
    <tag k="service" v="spur"/>
    <tag k="tracks" v="1"/>
    <tag k="workrules" v="EBO"/>
  </way>
  <way id="103600862" version="1" timestamp="2011-03-11T01:48:01Z" uid="20587" user="balrog-kun" changeset="7519968">
    <nd ref="256349110"/>
    <nd ref="1021928069"/>
    <nd ref="256349111"/>
    <nd ref="286685457"/>
    <nd ref="286685452"/>
    <nd ref="286697723"/>
    <nd ref="256349113"/>
    <nd ref="286719206"/>
    <nd ref="286719230"/>
    <nd ref="256349114"/>
    <tag k="highway" v="residential"/>
    <tag k="name" v="Chodakowska"/>
    <tag k="wikipedia" v="pl:Ulica Chodakowska w Warszawie"/>
  </way>
  <way id="103600862" version="2" timestamp="2011-06-16T19:31:56Z" uid="52087" user="kocio" changeset="8459080">
    <nd ref="256349110"/>
    <nd ref="1021928069"/>
    <nd ref="256349111"/>
    <nd ref="1327851031"/>
    <nd ref="286685457"/>
    <nd ref="286685452"/>
    <nd ref="286697723"/>
    <nd ref="256349113"/>
    <nd ref="286719206"/>
    <nd ref="286719230"/>
    <nd ref="256349114"/>
    <tag k="highway" v="residential"/>
    <tag k="name" v="Chodakowska"/>
    <tag k="wikipedia" v="pl:Ulica Chodakowska w Warszawie"/>
  </way>
  <way id="103600862" version="3" timestamp="2012-02-11T21:11:41Z" uid="10638" user="MARC12" changeset="10656999">
    <nd ref="256349110"/>
    <nd ref="1021928069"/>
    <nd ref="256349111"/>
    <nd ref="1327851031"/>
    <nd ref="286685457"/>
    <nd ref="1628851059"/>
    <nd ref="286685452"/>
    <nd ref="286697723"/>
    <nd ref="256349113"/>
    <nd ref="1628851012"/>
    <nd ref="1628851011"/>
    <nd ref="286719206"/>
    <nd ref="286719230"/>
    <nd ref="256349114"/>
    <tag k="highway" v="residential"/>
    <tag k="name" v="Chodakowska"/>
    <tag k="wikipedia" v="pl:Ulica Chodakowska w Warszawie"/>
  </way>
  <way id="103600863" version="1" timestamp="2011-03-11T01:48:02Z" uid="20587" user="balrog-kun" changeset="7519968">
    <nd ref="256349109"/>
    <nd ref="256349110"/>
    <tag k="highway" v="tertiary"/>
    <tag k="name" v="Chodakowska"/>
    <tag k="wikipedia" v="pl:Ulica Chodakowska w Warszawie"/>
  </way>
  <way id="103600863" version="2" timestamp="2011-06-16T19:15:01Z" uid="52087" user="kocio" changeset="8459080">
    <nd ref="256349109"/>
    <nd ref="1327839692"/>
    <nd ref="256349110"/>
    <tag k="highway" v="tertiary"/>
    <tag k="name" v="Chodakowska"/>
    <tag k="wikipedia" v="pl:Ulica Chodakowska w Warszawie"/>
  </way>
  <way id="103600264" version="3" timestamp="2012-07-17T14:57:31Z" uid="722137" user="OSMF Redaction Account" changeset="12267828"/>
  <way id="103600265" version="3" timestamp="2012-07-19T22:29:46Z" uid="722137" user="OSMF Redaction Account" changeset="12350458"/>
  <way id="103600266" version="2" timestamp="2012-07-19T22:29:46Z" uid="722137" user="OSMF Redaction Account" changeset="12350458"/>
  <way id="103600267" version="3" timestamp="2012-07-17T14:57:31Z" uid="722137" user="OSMF Redaction Account" changeset="12267828"/>
  <way id="103600268" version="3" timestamp="2012-07-17T14:57:32Z" uid="722137" user="OSMF Redaction Account" changeset="12267828"/>
  <way id="103600316" version="3" timestamp="2012-07-17T14:57:32Z" uid="722137" user="OSMF Redaction Account" changeset="12267828"/>
  <way id="103600358" version="4" timestamp="2012-07-17T14:57:33Z" uid="722137" user="OSMF Redaction Account" changeset="12267828"/>
</osm>
