<?xml version='1.0' encoding='UTF-8'?>
<osm version="0.6" generator="libosmium/2.20.0">
  <way id="10361016" version="7" timestamp="2010-07-07T09:00:13Z" uid="74617" user="JohnSmith" changeset="5156250">
    <nd ref="87854612"/>
    <nd ref="87854607"/>
    <nd ref="665033654"/>
    <nd ref="87854609"/>
    <tag k="highway" v="residential"/>
    <tag k="maxspeed" v="50"/>
    <tag k="maxspeed:source" v="default residential speed limit in Australia"/>
    <tag k="name" v="Conder Street"/>
  </way>
  <way id="10361016" version="8" timestamp="2012-01-15T09:39:49Z" uid="147510" user="woodpeck_fixbot" changeset="10395278">
    <nd ref="87854612"/>
    <nd ref="87854607"/>
    <nd ref="665033654"/>
    <nd ref="87854609"/>
    <tag k="highway" v="residential"/>
    <tag k="name" v="Conder Street"/>
  </way>
  <way id="10361024" version="4" timestamp="2010-07-07T09:02:24Z" uid="74617" user="JohnSmith" changeset="5156250">
    <nd ref="87854974"/>
    <nd ref="87854975"/>
    <tag k="highway" v="residential"/>
    <tag k="maxspeed" v="50"/>
    <tag k="maxspeed:source" v="default residential speed limit in Australia"/>
    <tag k="name" v="Sturgess Place"/>
  </way>
  <way id="10361024" version="5" timestamp="2012-01-15T09:39:51Z" uid="147510" user="woodpeck_fixbot" changeset="10395278">
    <nd ref="87854974"/>
    <nd ref="87854975"/>
    <tag k="highway" v="residential"/>
    <tag k="name" v="Sturgess Place"/>
  </way>
  <way id="10361047" version="8" timestamp="2010-07-07T09:01:21Z" uid="74617" user="JohnSmith" changeset="5156250">
    <nd ref="87856043"/>
    <nd ref="87856033"/>
    <nd ref="87856034"/>
    <nd ref="87856035"/>
    <nd ref="87856036"/>
    <nd ref="665035401"/>
    <nd ref="87856037"/>
    <nd ref="207734671"/>
    <tag k="highway" v="residential"/>
    <tag k="maxspeed" v="50"/>
    <tag k="maxspeed:source" v="default residential speed limit in Australia"/>
    <tag k="name" v="McCubbin Street"/>
  </way>
  <way id="10361047" version="9" timestamp="2012-01-15T09:39:56Z" uid="147510" user="woodpeck_fixbot" changeset="10395278">
    <nd ref="87856043"/>
    <nd ref="87856033"/>
    <nd ref="87856034"/>
    <nd ref="87856035"/>
    <nd ref="87856036"/>
    <nd ref="665035401"/>
    <nd ref="87856037"/>
    <nd ref="207734671"/>
    <tag k="highway" v="residential"/>
    <tag k="name" v="McCubbin Street"/>
  </way>
  <way id="10361058" version="5" timestamp="2010-07-07T08:58:23Z" uid="74617" user="JohnSmith" changeset="5156250">
    <nd ref="87856331"/>
    <nd ref="87856333"/>
    <nd ref="87856335"/>
    <tag k="highway" v="residential"/>
    <tag k="maxspeed" v="50"/>
    <tag k="maxspeed:source" v="default residential speed limit in Australia"/>
    <tag k="name" v="Shore Place"/>
  </way>
  <way id="10361058" version="6" timestamp="2012-01-15T09:39:58Z" uid="147510" user="woodpeck_fixbot" changeset="10395278">
    <nd ref="87856331"/>
    <nd ref="87856333"/>
    <nd ref="87856335"/>
    <tag k="highway" v="residential"/>
    <tag k="name" v="Shore Place"/>
  </way>
  <way id="10361095" version="2" timestamp="2008-07-05T18:29:14Z" uid="6975" user="ulfl" changeset="398437">
    <nd ref="87857740"/>
    <nd ref="87857741"/>
    <nd ref="87857742"/>
    <nd ref="87857743"/>
    <nd ref="87857740"/>
    <tag k="leisure" v="pitch"/>
  </way>
  <way id="10361095" version="3" timestamp="2009-03-04T21:51:24Z" uid="11008" user="spacer1971" changeset="735234">
    <nd ref="87857740"/>
    <nd ref="87857741"/>
    <nd ref="87857742"/>
    <nd ref="87857743"/>
    <nd ref="87857740"/>
    <tag k="created_by" v="Potlatch 0.10f"/>
    <tag k="leisure" v="pitch"/>
  </way>
  <way id="10361095" version="4" timestamp="2009-10-27T17:31:11Z" uid="175483" user="InaOlada" changeset="2967026">
    <nd ref="87857740"/>
    <nd ref="87857741"/>
    <nd ref="87857742"/>
    <nd ref="87857743"/>
    <nd ref="87857740"/>
    <tag k="leisure" v="pitch"/>
    <tag k="sport" v="soccer"/>
  </way>
  <way id="10361106" version="2" timestamp="2008-07-05T18:29:25Z" uid="6975" user="ulfl" changeset="398437">
    <nd ref="87858001"/>
    <nd ref="87858002"/>
    <nd ref="87858003"/>
    <nd ref="87858005"/>
    <nd ref="87858001"/>
    <tag k="leisure" v="pitch"/>
  </way>
  <way id="10361106" version="3" timestamp="2009-10-27T17:31:10Z" uid="175483" user="InaOlada" changeset="2967026">
    <nd ref="87858001"/>
    <nd ref="87858002"/>
    <nd ref="87858003"/>
    <nd ref="87858005"/>
    <nd ref="87858001"/>
    <tag k="leisure" v="pitch"/>
    <tag k="sport" v="soccer"/>
  </way>
  <way id="10361228" version="9" timestamp="2009-04-26T05:34:35Z" uid="43863" user="Rundling" changeset="968466">
    <nd ref="367972267"/>
    <nd ref="287722203"/>
    <nd ref="157177269"/>
    <nd ref="87863080"/>
    <nd ref="87863081"/>
    <nd ref="87863082"/>
    <nd ref="87863083"/>
    <nd ref="87863084"/>
    <nd ref="87863085"/>
    <nd ref="87863086"/>
    <nd ref="87863087"/>
    <nd ref="87863088"/>
    <nd ref="87863089"/>
    <tag k="created_by" v="fixbot_csv"/>
    <tag k="highway" v="tertiary"/>
    <tag k="name" v="Hauptstraße"/>
  </way>
  <way id="10361228" version="10" timestamp="2009-06-05T15:17:36Z" uid="42429" user="FK270673" changeset="1430107">
    <nd ref="367972267"/>
    <nd ref="287722203"/>
    <nd ref="157177269"/>
    <nd ref="87863080"/>
    <nd ref="87863083"/>
    <nd ref="87863084"/>
    <nd ref="87863087"/>
    <nd ref="87863089"/>
    <tag k="created_by" v="fixbot_csv"/>
    <tag k="highway" v="tertiary"/>
    <tag k="name" v="Hauptstraße"/>
    <tag k="ref" v="K 105"/>
  </way>
  <way id="10361228" version="11" timestamp="2010-08-18T06:41:01Z" uid="24920" user="Schusch" changeset="5523724">
    <nd ref="367972267"/>
    <nd ref="287722203"/>
    <nd ref="157177269"/>
    <nd ref="87863080"/>
    <nd ref="87863083"/>
    <nd ref="87863084"/>
    <nd ref="87863087"/>
    <nd ref="87863089"/>
    <tag k="highway" v="tertiary"/>
    <tag k="name" v="Hauptstraße"/>
    <tag k="ref" v="K 105"/>
  </way>
  <way id="10361228" version="12" timestamp="2010-12-25T13:13:06Z" uid="30077" user="ChristianW" changeset="6760296">
    <nd ref="367972267"/>
    <nd ref="287722203"/>
    <nd ref="157177269"/>
    <nd ref="87863080"/>
    <nd ref="87863083"/>
    <nd ref="87863084"/>
    <nd ref="87863087"/>
    <nd ref="1063966399"/>
    <tag k="highway" v="tertiary"/>
    <tag k="lit" v="yes"/>
    <tag k="name" v="Hauptstraße"/>
    <tag k="ref" v="K 105"/>
  </way>
  <way id="10361228" version="13" timestamp="2012-03-30T03:47:42Z" uid="333167" user="biker@gf" changeset="11146860">
    <nd ref="367972267"/>
    <nd ref="287722203"/>
    <nd ref="157177269"/>
    <nd ref="1697030802"/>
    <nd ref="1697030787"/>
    <nd ref="87863080"/>
    <tag k="highway" v="tertiary"/>
    <tag k="lit" v="yes"/>
    <tag k="name" v="Hauptstraße"/>
    <tag k="ref" v="K 105"/>
  </way>
  <way id="10361294" version="2" timestamp="2008-07-05T18:29:17Z" uid="6975" user="ulfl" changeset="398437">
    <nd ref="87865709"/>
    <nd ref="87865710"/>
    <nd ref="87865711"/>
    <nd ref="87865712"/>
    <nd ref="87865709"/>
    <tag k="leisure" v="pitch"/>
  </way>
  <way id="10361294" version="3" timestamp="2011-05-19T21:58:39Z" uid="31075" user="wieland" changeset="8193974">
    <nd ref="87865709"/>
    <nd ref="87865710"/>
    <nd ref="87865711"/>
    <nd ref="87865712"/>
    <nd ref="87865709"/>
    <tag k="leisure" v="pitch"/>
    <tag k="sport" v="tennis"/>
  </way>
  <way id="10361295" version="2" timestamp="2008-12-20T11:02:52Z" uid="58091" user="Andreas M" changeset="504586">
    <nd ref="87865513"/>
    <nd ref="87865958"/>
    <nd ref="87865959"/>
    <tag k="created_by" v="Potlatch alpha"/>
    <tag k="highway" v="residential"/>
    <tag k="name" v="Lorenz-Böhler-Gasse"/>
  </way>
  <way id="10361295" version="3" timestamp="2011-04-10T21:16:44Z" uid="232372" user="wosm20" changeset="7827774">
    <nd ref="87865513"/>
    <nd ref="87865959"/>
    <tag k="highway" v="residential"/>
    <tag k="maxspeed" v="30"/>
    <tag k="name" v="Lorenz-Böhler-Gasse"/>
  </way>
  <way id="10361296" version="2" timestamp="2008-07-05T18:29:28Z" uid="6975" user="ulfl" changeset="398437">
    <nd ref="87866040"/>
    <nd ref="87866041"/>
    <nd ref="87866042"/>
    <nd ref="87866043"/>
    <nd ref="87866040"/>
    <tag k="leisure" v="pitch"/>
  </way>
  <way id="10361296" version="3" timestamp="2011-05-19T21:58:21Z" uid="31075" user="wieland" changeset="8193974">
    <nd ref="87866040"/>
    <nd ref="87866041"/>
    <nd ref="87866042"/>
    <nd ref="87866043"/>
    <nd ref="87866040"/>
    <tag k="leisure" v="pitch"/>
    <tag k="name" v="Foresta Club"/>
    <tag k="sport" v="tennis"/>
  </way>
  <way id="10361314" version="2" timestamp="2010-04-04T00:35:37Z" uid="20587" user="balrog-kun" changeset="4318130">
    <nd ref="87866713"/>
    <nd ref="87866714"/>
    <nd ref="87865855"/>
    <tag k="created_by" v="Potlatch alpha"/>
    <tag k="highway" v="residential"/>
    <tag k="name" v="South Oak Creek Court"/>
  </way>
  <way id="10361314" version="3" timestamp="2011-03-17T06:14:10Z" uid="117055" user="GPS_dr" changeset="7581936"/>
  <way id="10361316" version="2" timestamp="2008-07-05T18:29:36Z" uid="6975" user="ulfl" changeset="398437">
    <nd ref="87866721"/>
    <nd ref="87866722"/>
    <nd ref="87866724"/>
    <nd ref="87866725"/>
    <nd ref="87866721"/>
    <tag k="leisure" v="pitch"/>
  </way>
  <way id="10361316" version="3" timestamp="2009-09-01T15:27:06Z" uid="166115" user="BlueBreezer" changeset="2338917">
    <nd ref="87866721"/>
    <nd ref="87866722"/>
    <nd ref="87866724"/>
    <nd ref="87866725"/>
    <nd ref="87866721"/>
    <tag k="access" v="yes"/>
    <tag k="name" v="SSG Gravenbruch"/>
    <tag k="sport" v="soccer"/>
  </way>
  <way id="10361316" version="4" timestamp="2009-09-01T15:45:58Z" uid="166115" user="BlueBreezer" changeset="2339130">
    <nd ref="87866721"/>
    <nd ref="87866722"/>
    <nd ref="87866724"/>
    <nd ref="87866725"/>
    <nd ref="87866721"/>
    <tag k="access" v="yes"/>
    <tag k="leisure" v="playground"/>
    <tag k="name" v="SSG Gravenbruch"/>
    <tag k="sport" v="soccer"/>
  </way>
  <way id="10361316" version="5" timestamp="2009-09-01T16:31:32Z" uid="166115" user="BlueBreezer" changeset="2339612">
    <nd ref="87866721"/>
    <nd ref="87866722"/>
    <nd ref="87866724"/>
    <nd ref="87866725"/>
    <nd ref="87866721"/>
    <tag k="access" v="yes"/>
    <tag k="leisure" v="pitch"/>
    <tag k="name" v="SSG Gravenbruch"/>
    <tag k="sport" v="soccer"/>
  </way>
  <way id="10361316" version="6" timestamp="2012-01-18T11:46:13Z" uid="91490" user="Heinz_V" changeset="10426628"/>
  <way id="10361330" version="2" timestamp="2010-04-04T00:35:38Z" uid="20587" user="balrog-kun" changeset="4318130">
    <nd ref="87862174"/>
    <nd ref="87867323"/>
    <nd ref="87867324"/>
    <nd ref="87867325"/>
    <nd ref="87860767"/>
    <tag k="created_by" v="Potlatch alpha"/>
    <tag k="highway" v="residential"/>
    <tag k="name" v="South Silver Creek Street"/>
  </way>
  <way id="10361330" version="3" timestamp="2011-03-17T06:14:10Z" uid="117055" user="GPS_dr" changeset="7581936"/>
  <way id="10361354" version="2" timestamp="2010-04-04T00:35:38Z" uid="20587" user="balrog-kun" changeset="4318130">
    <nd ref="87867325"/>
    <nd ref="87867962"/>
    <nd ref="87867964"/>
    <nd ref="87862216"/>
    <tag k="created_by" v="Potlatch alpha"/>
    <tag k="highway" v="residential"/>
    <tag k="name" v="East Clear Creek Way"/>
  </way>
  <way id="10361354" version="3" timestamp="2011-03-17T06:14:09Z" uid="117055" user="GPS_dr" changeset="7581936"/>
  <way id="10361690" version="2" timestamp="2010-04-04T00:35:38Z" uid="20587" user="balrog-kun" changeset="4318130">
    <nd ref="87879895"/>
    <nd ref="87880225"/>
    <nd ref="87880226"/>
    <nd ref="87880227"/>
    <nd ref="87880228"/>
    <nd ref="87880229"/>
    <nd ref="87880230"/>
    <nd ref="87880231"/>
    <nd ref="87880232"/>
    <nd ref="87880233"/>
    <nd ref="87880234"/>
    <tag k="created_by" v="Potlatch alpha"/>
    <tag k="highway" v="residential"/>
    <tag k="name" v="South Nate Circle"/>
  </way>
  <way id="10361690" version="3" timestamp="2011-03-17T06:14:07Z" uid="117055" user="GPS_dr" changeset="7581936">
    <nd ref="88493347"/>
    <nd ref="87880225"/>
    <nd ref="87880226"/>
    <nd ref="87880227"/>
    <nd ref="1205423925"/>
    <nd ref="87880228"/>
    <nd ref="87880229"/>
    <nd ref="87880230"/>
    <nd ref="87880231"/>
    <nd ref="1205423815"/>
    <nd ref="87880232"/>
    <nd ref="87880233"/>
    <nd ref="87880234"/>
    <tag k="highway" v="residential"/>
    <tag k="name" v="South Nate Circle"/>
  </way>
  <way id="10361899" version="7" timestamp="2010-07-06T09:19:52Z" uid="74617" user="JohnSmith" changeset="5147679">
    <nd ref="26340538"/>
    <nd ref="577491423"/>
    <nd ref="87886619"/>
    <nd ref="577491399"/>
    <nd ref="26340551"/>
    <nd ref="26340550"/>
    <nd ref="26340552"/>
    <tag k="cycleway" v="lane"/>
    <tag k="highway" v="residential"/>
    <tag k="maxspeed" v="50"/>
    <tag k="maxspeed:source" v="default residential speed limit in Australia"/>
    <tag k="name" v="York Street"/>
  </way>
  <way id="10361899" version="8" timestamp="2012-01-15T09:40:00Z" uid="147510" user="woodpeck_fixbot" changeset="10395278">
    <nd ref="26340538"/>
    <nd ref="577491423"/>
    <nd ref="87886619"/>
    <nd ref="577491399"/>
    <nd ref="26340551"/>
    <nd ref="26340550"/>
    <nd ref="26340552"/>
    <tag k="cycleway" v="lane"/>
    <tag k="highway" v="residential"/>
    <tag k="name" v="York Street"/>
  </way>
  <way id="10361964" version="14" timestamp="2009-12-26T11:37:27Z" uid="58091" user="Andreas M" changeset="3453874">
    <nd ref="84482853"/>
    <nd ref="386843656"/>
    <nd ref="320926398"/>
    <nd ref="87887417"/>
    <nd ref="386843668"/>
    <nd ref="87887418"/>
    <nd ref="87887419"/>
    <nd ref="87887420"/>
    <nd ref="386843676"/>
    <nd ref="289300000"/>
    <nd ref="87887421"/>
    <nd ref="289299781"/>
    <nd ref="386843682"/>
    <nd ref="386843653"/>
    <nd ref="289299694"/>
    <nd ref="87887423"/>
    <nd ref="99153243"/>
    <nd ref="84478205"/>
    <tag k="highway" v="tertiary"/>
    <tag k="name" v="Rudolf-Zeller-Gasse"/>
  </way>
  <way id="10361964" version="15" timestamp="2011-09-07T13:56:14Z" uid="189469" user="geojosef" changeset="9236874">
    <nd ref="84482853"/>
    <nd ref="386843656"/>
    <nd ref="320926398"/>
    <tag k="highway" v="tertiary"/>
    <tag k="name" v="Rudolf-Zeller-Gasse"/>
  </way>
  <way id="10361964" version="16" timestamp="2011-10-08T01:27:51Z" uid="229590" user="xificurk" changeset="9498852">
    <nd ref="84482853"/>
    <nd ref="386843656"/>
    <nd ref="320926398"/>
    <tag k="admin_level" v="10"/>
    <tag k="boundary" v="administrative"/>
    <tag k="highway" v="tertiary"/>
    <tag k="name" v="Rudolf-Zeller-Gasse"/>
  </way>
  <way id="10361228" version="14" timestamp="2012-07-18T16:28:39Z" uid="722137" user="OSMF Redaction Account" changeset="12288878">
    <nd ref="287722203"/>
    <nd ref="157177269"/>
    <nd ref="1697030802"/>
    <nd ref="1697030787"/>
    <nd ref="87863080"/>
    <tag k="highway" v="tertiary"/>
    <tag k="lit" v="yes"/>
    <tag k="name" v="Hauptstraße"/>
    <tag k="ref" v="K 105"/>
  </way>
  <way id="10361295" version="4" timestamp="2012-07-16T23:38:17Z" uid="722137" user="OSMF Redaction Account" changeset="12253552">
    <nd ref="87865513"/>
    <nd ref="87865959"/>
    <tag k="highway" v="unclassified"/>
    <tag k="maxspeed" v="30"/>
  </way>
</osm>
