<?xml version='1.0' encoding='UTF-8'?>
<osm version="0.6" generator="libosmium/2.20.0">
  <way id="104183522" version="3" timestamp="2011-04-09T23:09:50Z" uid="136042" user="gent" changeset="7818264">
    <nd ref="1202157225"/>
    <nd ref="1202157077"/>
    <nd ref="1202157051"/>
    <nd ref="1202157132"/>
    <nd ref="1202157225"/>
    <tag k="addr:street" v="Karl Gega"/>
    <tag k="alt_name" v="Shkolla Fillore &quot;Naim Frashëri&quot;"/>
    <tag k="amenity" v="school"/>
    <tag k="building" v="yes"/>
    <tag k="name" v="Naim Frashëri"/>
  </way>
  <way id="104183522" version="4" timestamp="2011-04-09T23:10:58Z" uid="136042" user="gent" changeset="7818264">
    <nd ref="1202157225"/>
    <nd ref="1202157077"/>
    <nd ref="1202157051"/>
    <nd ref="1202157132"/>
    <nd ref="1202157225"/>
    <tag k="addr:street" v="Karl Gega"/>
    <tag k="alt_name" v="Shkolla Fillore &quot;Naim Frashëri&quot;"/>
    <tag k="amenity" v="school"/>
    <tag k="building" v="yes"/>
    <tag k="int_name" v="Elementary School &quot;Naim Frashëri&quot;"/>
    <tag k="name" v="Naim Frashëri"/>
  </way>
  <way id="104183522" version="5" timestamp="2011-07-19T22:44:03Z" uid="199034" user="Altin" changeset="8773689"/>
</osm>
