<?xml version='1.0' encoding='UTF-8'?>
<osm version="0.6" generator="libosmium/2.20.0">
  <way id="104189409" version="2" timestamp="2011-03-16T19:28:57Z" uid="66036" user="h4v" changeset="7578717">
    <nd ref="1202208446"/>
    <nd ref="1202208837"/>
    <nd ref="1202208342"/>
    <nd ref="1202208704"/>
    <nd ref="1202208908"/>
    <nd ref="1202208472"/>
    <nd ref="1204620516"/>
    <nd ref="1202208446"/>
    <tag k="building" v="yes"/>
  </way>
  <way id="104189409" version="3" timestamp="2011-04-02T12:20:53Z" uid="66036" user="h4v" changeset="7743623">
    <nd ref="1202208446"/>
    <nd ref="1202208837"/>
    <nd ref="1202208342"/>
    <nd ref="1202208704"/>
    <nd ref="1202208908"/>
    <nd ref="1202208472"/>
    <nd ref="1229154669"/>
    <nd ref="1202208446"/>
    <tag k="building" v="yes"/>
  </way>
  <way id="104189409" version="4" timestamp="2011-04-16T10:29:54Z" uid="66036" user="h4v" changeset="7877061">
    <nd ref="1202208446"/>
    <nd ref="1202208837"/>
    <nd ref="1202208342"/>
    <nd ref="1202208704"/>
    <nd ref="1202208908"/>
    <nd ref="1202208472"/>
    <nd ref="1229154669"/>
    <nd ref="1202208446"/>
    <tag k="addr:housenumber" v="104"/>
    <tag k="building" v="yes"/>
    <tag k="heritage" v="2"/>
    <tag k="heritage:operator" v="kobidz"/>
    <tag k="kobidz:ref" v="A/41"/>
    <tag k="name" v="Pałac Juliusza Heinzla"/>
    <tag k="source:addr" v="wikipedia"/>
    <tag k="source:name" v="wikipedia"/>
    <tag k="wikipedia" v="Pałac_Juliusza_Heinzla"/>
  </way>
  <way id="104189409" version="5" timestamp="2011-06-10T21:26:34Z" uid="66036" user="h4v" changeset="8401181">
    <nd ref="1202208446"/>
    <nd ref="1202208837"/>
    <nd ref="1202208342"/>
    <nd ref="1202208704"/>
    <nd ref="1202208908"/>
    <nd ref="1202208472"/>
    <nd ref="1229154669"/>
    <nd ref="1202208446"/>
    <tag k="addr:housenumber" v="104"/>
    <tag k="building" v="yes"/>
    <tag k="heritage" v="2"/>
    <tag k="heritage:operator" v="nid"/>
    <tag k="name" v="Pałac Juliusza Heinzla"/>
    <tag k="ref:nid" v="A/41"/>
    <tag k="source:addr" v="wikipedia"/>
    <tag k="source:name" v="wikipedia"/>
    <tag k="wikipedia" v="Pałac_Juliusza_Heinzla"/>
  </way>
  <way id="104189409" version="6" timestamp="2012-02-06T19:34:07Z" uid="314684" user="krattbot" changeset="10605722">
    <nd ref="1202208446"/>
    <nd ref="1202208837"/>
    <nd ref="1202208342"/>
    <nd ref="1202208704"/>
    <nd ref="1202208908"/>
    <nd ref="1202208472"/>
    <nd ref="1229154669"/>
    <nd ref="1202208446"/>
    <tag k="addr:housenumber" v="104"/>
    <tag k="building" v="yes"/>
    <tag k="fixme" v="Bad wikipedia link: Pałac_Juliusza_Heinzla"/>
    <tag k="heritage" v="2"/>
    <tag k="heritage:operator" v="nid"/>
    <tag k="name" v="Pałac Juliusza Heinzla"/>
    <tag k="ref:nid" v="A/41"/>
    <tag k="source:addr" v="wikipedia"/>
    <tag k="source:name" v="wikipedia"/>
    <tag k="wikipedia" v="Pałac_Juliusza_Heinzla"/>
  </way>
  <way id="104189409" version="7" timestamp="2012-07-10T17:28:12Z" uid="537860" user="awulkiew" changeset="12176392">
    <nd ref="1202208446"/>
    <nd ref="1202208837"/>
    <nd ref="1202208342"/>
    <nd ref="1202208704"/>
    <nd ref="1202208908"/>
    <nd ref="1202208472"/>
    <nd ref="1229154669"/>
    <nd ref="1202208446"/>
    <tag k="addr:housenumber" v="104"/>
    <tag k="building" v="yes"/>
    <tag k="fixme" v="Bad wikipedia link: Pałac_Juliusza_Heinzla"/>
    <tag k="heritage" v="2"/>
    <tag k="heritage:operator" v="nid"/>
    <tag k="name" v="Pałac Juliusza Heinzla"/>
    <tag k="ref:nid" v="A/41"/>
    <tag k="source:addr" v="wikipedia"/>
    <tag k="source:name" v="wikipedia"/>
    <tag k="tourism" v="attraction"/>
    <tag k="wikipedia" v="Pałac_Juliusza_Heinzla"/>
  </way>
  <way id="104189409" version="8" timestamp="2012-07-24T13:29:52Z" uid="722137" user="OSMF Redaction Account" changeset="12466611">
    <nd ref="1202208446"/>
    <nd ref="1202208837"/>
    <nd ref="1202208342"/>
    <nd ref="1202208704"/>
    <nd ref="1202208908"/>
    <nd ref="1202208472"/>
    <nd ref="1202208446"/>
    <tag k="building" v="yes"/>
    <tag k="fixme" v="Bad wikipedia link: Pałac_Juliusza_Heinzla"/>
    <tag k="tourism" v="attraction"/>
  </way>
  <way id="104189409" version="9" timestamp="2012-08-05T13:29:22Z" uid="607553" user="Duke83" changeset="12620639">
    <nd ref="1202208446"/>
    <nd ref="1202208837"/>
    <nd ref="1202208342"/>
    <nd ref="1202208704"/>
    <nd ref="1202208908"/>
    <nd ref="1202208472"/>
    <nd ref="1202208446"/>
    <tag k="addr:city" v="Łódź"/>
    <tag k="addr:street" v="Piotrkowska"/>
    <tag k="building" v="yes"/>
    <tag k="fixme" v="Bad wikipedia link: Pałac_Juliusza_Heinzla"/>
    <tag k="tourism" v="attraction"/>
  </way>
  <way id="104189409" version="10" timestamp="2012-08-12T07:40:59Z" uid="607553" user="Duke83" changeset="12698439">
    <nd ref="1202208446"/>
    <nd ref="1202208837"/>
    <nd ref="1202208342"/>
    <nd ref="1202208908"/>
    <nd ref="1202208472"/>
    <nd ref="1202208446"/>
    <tag k="addr:city" v="Łódź"/>
    <tag k="addr:street" v="Piotrkowska"/>
    <tag k="building" v="yes"/>
    <tag k="fixme" v="Bad wikipedia link: Pałac_Juliusza_Heinzla"/>
    <tag k="tourism" v="attraction"/>
  </way>
</osm>
