<?xml version='1.0' encoding='UTF-8'?>
<osm version="0.6" generator="libosmium/2.20.0">
  <way id="104675662" version="1" timestamp="2011-03-18T15:16:05Z" uid="4467" user="Rosscoe" changeset="7596265">
    <nd ref="1207409831"/>
    <nd ref="319719719"/>
    <nd ref="319719720"/>
    <nd ref="208509218"/>
    <tag k="highway" v="residential"/>
    <tag k="maxspeed" v="50"/>
    <tag k="name" v="Thomas Street"/>
    <tag k="source" v="Yahoo"/>
    <tag k="source_ref:name" v="http://osm.beldin.org/2009/06/DSCF1680.JPG"/>
  </way>
  <way id="104675664" version="1" timestamp="2011-03-18T15:16:05Z" uid="4467" user="Rosscoe" changeset="7596265">
    <nd ref="1207409824"/>
    <nd ref="253443752"/>
    <tag k="bridge" v="yes"/>
    <tag k="highway" v="primary"/>
    <tag k="layer" v="1"/>
    <tag k="name" v="Marion Road"/>
    <tag k="oneway" v="yes"/>
    <tag k="ref" v="A14"/>
  </way>
  <way id="104675664" version="2" timestamp="2011-08-06T02:30:15Z" uid="428465" user="markinspace" changeset="8934380">
    <nd ref="1207409824"/>
    <nd ref="253443752"/>
    <tag k="bridge" v="yes"/>
    <tag k="highway" v="primary"/>
    <tag k="lanes" v="2"/>
    <tag k="layer" v="1"/>
    <tag k="maxspeed" v="60"/>
    <tag k="name" v="Marion Road"/>
    <tag k="oneway" v="yes"/>
    <tag k="ref" v="A14"/>
  </way>
  <way id="104675664" version="3" timestamp="2011-08-14T10:12:25Z" uid="320632" user="Zulu99" changeset="9013836">
    <nd ref="1207409824"/>
    <nd ref="253443752"/>
    <tag k="bridge" v="yes"/>
    <tag k="cycleway" v="lane"/>
    <tag k="highway" v="primary"/>
    <tag k="lanes" v="2"/>
    <tag k="layer" v="1"/>
    <tag k="maxspeed" v="60"/>
    <tag k="name" v="Marion Road"/>
    <tag k="oneway" v="yes"/>
    <tag k="ref" v="A14"/>
  </way>
  <way id="104675667" version="1" timestamp="2011-03-18T15:16:05Z" uid="4467" user="Rosscoe" changeset="7596265">
    <nd ref="1207409870"/>
    <nd ref="997741284"/>
    <nd ref="253449430"/>
    <nd ref="1207409830"/>
    <tag k="highway" v="residential"/>
    <tag k="name" v="Highet Avenue"/>
    <tag k="source" v="nearmap"/>
  </way>
  <way id="104675668" version="1" timestamp="2011-03-18T15:16:05Z" uid="4467" user="Rosscoe" changeset="7596265">
    <nd ref="208509218"/>
    <nd ref="1207409872"/>
    <tag k="highway" v="residential"/>
    <tag k="maxspeed" v="50"/>
    <tag k="maxspeed:source" v="default residential speed limit in Australia"/>
    <tag k="name" v="Hawker Avenue"/>
    <tag k="oneway" v="yes"/>
  </way>
  <way id="104675668" version="2" timestamp="2011-03-18T15:41:20Z" uid="4467" user="Rosscoe" changeset="7596453">
    <nd ref="208509218"/>
    <nd ref="1207409872"/>
    <tag k="highway" v="residential"/>
    <tag k="maxspeed" v="50"/>
    <tag k="name" v="Hawker Avenue"/>
    <tag k="oneway" v="yes"/>
    <tag k="source:maxspeed" v="default residential speed limit in Australia"/>
  </way>
  <way id="104675671" version="1" timestamp="2011-03-18T15:16:06Z" uid="4467" user="Rosscoe" changeset="7596265">
    <nd ref="168806858"/>
    <nd ref="1207409905"/>
    <nd ref="1207409848"/>
    <tag k="highway" v="trunk_link"/>
    <tag k="oneway" v="yes"/>
    <tag k="source" v="nearmap"/>
  </way>
  <way id="104675673" version="1" timestamp="2011-03-18T15:16:06Z" uid="4467" user="Rosscoe" changeset="7596265">
    <nd ref="1149141515"/>
    <nd ref="1207409833"/>
    <nd ref="1207409898"/>
    <nd ref="1207409837"/>
    <nd ref="1207409839"/>
    <nd ref="1207409955"/>
    <nd ref="1207409956"/>
    <nd ref="1207409888"/>
    <nd ref="1207409890"/>
    <nd ref="1207409779"/>
    <nd ref="1207409879"/>
    <nd ref="1207409942"/>
    <nd ref="1207409944"/>
    <nd ref="1207409900"/>
    <nd ref="252167391"/>
    <nd ref="1207409958"/>
    <nd ref="1207409859"/>
    <tag k="highway" v="secondary"/>
    <tag k="maxspeed" v="60"/>
    <tag k="name" v="Seacombe Road"/>
    <tag k="oneway" v="yes"/>
    <tag k="source" v="nearmap"/>
    <tag k="source:boundary" v="knowledge"/>
  </way>
  <way id="104675679" version="1" timestamp="2011-03-18T15:16:06Z" uid="4467" user="Rosscoe" changeset="7596265">
    <nd ref="143580808"/>
    <nd ref="1207409816"/>
    <nd ref="1207409803"/>
    <nd ref="1207409928"/>
    <nd ref="1207409881"/>
    <nd ref="1207409819"/>
    <nd ref="1207409945"/>
    <nd ref="1207409895"/>
    <nd ref="1149142119"/>
    <nd ref="275562371"/>
    <nd ref="1207409844"/>
    <nd ref="1207409899"/>
    <nd ref="1149141696"/>
    <nd ref="1207409970"/>
    <nd ref="1207409913"/>
    <nd ref="1207409860"/>
    <nd ref="1207409801"/>
    <nd ref="1207409857"/>
    <tag k="highway" v="tertiary"/>
    <tag k="maxspeed" v="50"/>
    <tag k="name" v="Morphett Road"/>
    <tag k="source" v="survey"/>
  </way>
  <way id="104675682" version="1" timestamp="2011-03-18T15:16:07Z" uid="4467" user="Rosscoe" changeset="7596265">
    <nd ref="372681244"/>
    <nd ref="248608923"/>
    <nd ref="997741258"/>
    <nd ref="997741273"/>
    <nd ref="275590865"/>
    <tag k="highway" v="residential"/>
    <tag k="maxspeed" v="50"/>
    <tag k="name" v="Lascelles Avenue"/>
    <tag k="source" v="yahoo"/>
    <tag k="source:name" v="survey"/>
  </way>
  <way id="104675686" version="1" timestamp="2011-03-18T15:16:07Z" uid="4467" user="Rosscoe" changeset="7596265">
    <nd ref="252167461"/>
    <nd ref="1207409855"/>
    <nd ref="1207409799"/>
    <nd ref="1207409964"/>
    <tag k="highway" v="residential"/>
    <tag k="maxspeed" v="50"/>
    <tag k="name" v="Morphett Road"/>
    <tag k="source" v="nearmap"/>
  </way>
  <way id="104675688" version="1" timestamp="2011-03-18T15:16:07Z" uid="4467" user="Rosscoe" changeset="7596265">
    <nd ref="372681244"/>
    <nd ref="1207409969"/>
    <tag k="highway" v="residential"/>
    <tag k="maxspeed" v="50"/>
    <tag k="name" v="Lascelles Avenue"/>
    <tag k="oneway" v="yes"/>
    <tag k="source" v="yahoo"/>
    <tag k="source:name" v="survey"/>
  </way>
  <way id="104675691" version="1" timestamp="2011-03-18T15:16:07Z" uid="4467" user="Rosscoe" changeset="7596265">
    <nd ref="355182112"/>
    <nd ref="1207409861"/>
    <nd ref="370238790"/>
    <tag k="highway" v="residential"/>
    <tag k="name" v="Neath Avenue"/>
    <tag k="source" v="nearmap"/>
  </way>
  <way id="104675694" version="1" timestamp="2011-03-18T15:16:08Z" uid="4467" user="Rosscoe" changeset="7596265">
    <nd ref="1207409916"/>
    <nd ref="1207409954"/>
    <nd ref="1149141504"/>
    <nd ref="370246543"/>
    <nd ref="370246552"/>
    <nd ref="370238807"/>
    <nd ref="1149142304"/>
    <nd ref="1207409904"/>
    <nd ref="1207409861"/>
    <tag k="highway" v="residential"/>
    <tag k="name" v="Lewis Street"/>
    <tag k="source" v="nearmap"/>
  </way>
  <way id="104675697" version="1" timestamp="2011-03-18T15:16:08Z" uid="4467" user="Rosscoe" changeset="7596265">
    <nd ref="854278189"/>
    <nd ref="854278192"/>
    <nd ref="854278195"/>
    <nd ref="854278118"/>
    <tag k="highway" v="residential"/>
    <tag k="maxspeed" v="50"/>
    <tag k="name" v="O&apos;Halloran Terrace"/>
    <tag k="oneway" v="yes"/>
    <tag k="source" v="nearmap"/>
  </way>
  <way id="104675698" version="1" timestamp="2011-03-18T15:16:08Z" uid="4467" user="Rosscoe" changeset="7596265">
    <nd ref="1207409836"/>
    <nd ref="275571138"/>
    <nd ref="275571137"/>
    <nd ref="1207409821"/>
    <tag k="highway" v="residential"/>
    <tag k="maxspeed" v="50"/>
    <tag k="maxspeed:source" v="default residential speed limit in Australia"/>
    <tag k="name" v="Folkestone Road"/>
    <tag k="source" v="yahoo"/>
    <tag k="source:name" v="survey"/>
  </way>
  <way id="104675698" version="2" timestamp="2011-03-18T15:40:14Z" uid="4467" user="Rosscoe" changeset="7596453">
    <nd ref="1207409836"/>
    <nd ref="275571138"/>
    <nd ref="275571137"/>
    <nd ref="1207409821"/>
    <tag k="highway" v="residential"/>
    <tag k="maxspeed" v="50"/>
    <tag k="name" v="Folkestone Road"/>
    <tag k="source" v="yahoo"/>
    <tag k="source:maxspeed" v="default residential speed limit in Australia"/>
    <tag k="source:name" v="survey"/>
  </way>
  <way id="104675699" version="1" timestamp="2011-03-18T15:16:08Z" uid="4467" user="Rosscoe" changeset="7596265">
    <nd ref="279823407"/>
    <nd ref="1207409910"/>
    <tag k="highway" v="primary"/>
    <tag k="source" v="nearmap"/>
  </way>
  <way id="104675700" version="1" timestamp="2011-03-18T15:16:08Z" uid="4467" user="Rosscoe" changeset="7596265">
    <nd ref="1207409943"/>
    <nd ref="1207409864"/>
    <nd ref="1207409804"/>
    <tag k="highway" v="trunk_link"/>
    <tag k="oneway" v="yes"/>
    <tag k="source" v="nearmap"/>
  </way>
  <way id="104675701" version="1" timestamp="2011-03-18T15:16:08Z" uid="4467" user="Rosscoe" changeset="7596265">
    <nd ref="1207409884"/>
    <nd ref="1207409822"/>
    <nd ref="1207409930"/>
    <nd ref="1207409852"/>
    <nd ref="1207409796"/>
    <nd ref="1207409896"/>
    <nd ref="1207409831"/>
    <nd ref="1207409934"/>
    <nd ref="1207409884"/>
    <tag k="highway" v="residential"/>
    <tag k="junction" v="roundabout"/>
    <tag k="source" v="nearmap"/>
  </way>
  <way id="104675702" version="1" timestamp="2011-03-18T15:16:09Z" uid="4467" user="Rosscoe" changeset="7596265">
    <nd ref="1207409796"/>
    <nd ref="319718893"/>
    <tag k="highway" v="residential"/>
    <tag k="maxspeed" v="50"/>
    <tag k="name" v="Laurence Street"/>
    <tag k="source" v="Yahoo"/>
  </way>
  <way id="104675703" version="1" timestamp="2011-03-18T15:16:09Z" uid="4467" user="Rosscoe" changeset="7596265">
    <nd ref="1207409873"/>
    <nd ref="1207409937"/>
    <nd ref="1207409812"/>
    <nd ref="854278189"/>
    <tag k="highway" v="residential"/>
    <tag k="maxspeed" v="50"/>
    <tag k="name" v="O&apos;Halloran Terrace"/>
    <tag k="oneway" v="yes"/>
    <tag k="source" v="nearmap"/>
  </way>
  <way id="104675704" version="1" timestamp="2011-03-18T15:16:09Z" uid="4467" user="Rosscoe" changeset="7596265">
    <nd ref="1207409948"/>
    <nd ref="1207409815"/>
    <nd ref="1207409922"/>
    <nd ref="1207409875"/>
    <nd ref="1207409811"/>
    <nd ref="1207409936"/>
    <nd ref="1207409883"/>
    <nd ref="1207409821"/>
    <nd ref="1207409894"/>
    <nd ref="1207409850"/>
    <nd ref="1207409792"/>
    <nd ref="1207409920"/>
    <nd ref="1207409874"/>
    <nd ref="1207409807"/>
    <nd ref="31431044"/>
    <tag k="highway" v="secondary"/>
    <tag k="maxspeed" v="60"/>
    <tag k="name" v="Morphett Road"/>
    <tag k="source" v="survey"/>
  </way>
  <way id="104675705" version="1" timestamp="2011-03-18T15:16:09Z" uid="4467" user="Rosscoe" changeset="7596265">
    <nd ref="1207409859"/>
    <nd ref="143581030"/>
    <nd ref="143581007"/>
    <nd ref="1207409818"/>
    <nd ref="1207409809"/>
    <nd ref="1207409893"/>
    <nd ref="1207409817"/>
    <nd ref="1207409940"/>
    <nd ref="1207409805"/>
    <nd ref="1207409826"/>
    <nd ref="1207409907"/>
    <nd ref="1207409902"/>
    <nd ref="1207409820"/>
    <nd ref="1207409919"/>
    <nd ref="1149142117"/>
    <tag k="highway" v="secondary"/>
    <tag k="maxspeed" v="60"/>
    <tag k="name" v="Seacombe Road"/>
    <tag k="oneway" v="yes"/>
    <tag k="source" v="nearmap"/>
    <tag k="source:boundary" v="knowledge"/>
  </way>
  <way id="104675706" version="1" timestamp="2011-03-18T15:16:10Z" uid="4467" user="Rosscoe" changeset="7596265">
    <nd ref="1207409897"/>
    <nd ref="1207409951"/>
    <tag k="bridge" v="yes"/>
    <tag k="highway" v="primary"/>
    <tag k="layer" v="1"/>
    <tag k="maxspeed" v="60"/>
    <tag k="name" v="Marion Road"/>
    <tag k="oneway" v="yes"/>
    <tag k="ref" v="A14"/>
    <tag k="source" v="survey"/>
  </way>
  <way id="104675706" version="2" timestamp="2011-08-06T02:30:16Z" uid="428465" user="markinspace" changeset="8934380">
    <nd ref="1207409897"/>
    <nd ref="1207409951"/>
    <tag k="bridge" v="yes"/>
    <tag k="highway" v="primary"/>
    <tag k="lanes" v="2"/>
    <tag k="layer" v="1"/>
    <tag k="maxspeed" v="60"/>
    <tag k="name" v="Marion Road"/>
    <tag k="oneway" v="yes"/>
    <tag k="ref" v="A14"/>
    <tag k="source" v="survey"/>
  </way>
  <way id="104675706" version="3" timestamp="2011-08-14T10:12:24Z" uid="320632" user="Zulu99" changeset="9013836">
    <nd ref="1207409897"/>
    <nd ref="1207409951"/>
    <tag k="bridge" v="yes"/>
    <tag k="cycleway" v="lane"/>
    <tag k="highway" v="primary"/>
    <tag k="lanes" v="2"/>
    <tag k="layer" v="1"/>
    <tag k="maxspeed" v="60"/>
    <tag k="name" v="Marion Road"/>
    <tag k="oneway" v="yes"/>
    <tag k="ref" v="A14"/>
    <tag k="source" v="survey"/>
  </way>
  <way id="104675707" version="1" timestamp="2011-03-18T15:16:10Z" uid="4467" user="Rosscoe" changeset="7596265">
    <nd ref="208518411"/>
    <nd ref="369632552"/>
    <nd ref="369632370"/>
    <nd ref="369632556"/>
    <nd ref="459407933"/>
    <nd ref="369632525"/>
    <nd ref="369632357"/>
    <nd ref="369632557"/>
    <nd ref="369632555"/>
    <nd ref="854366223"/>
    <nd ref="854366224"/>
    <nd ref="369632554"/>
    <nd ref="854366226"/>
    <nd ref="854366227"/>
    <tag k="highway" v="residential"/>
    <tag k="maxspeed" v="50"/>
    <tag k="name" v="Tarranna Avenue"/>
  </way>
  <way id="104675707" version="2" timestamp="2011-04-10T12:16:04Z" uid="21143" user="hryciuk" changeset="7821785">
    <nd ref="208518411"/>
    <nd ref="1239725552"/>
    <nd ref="369632552"/>
    <nd ref="369632370"/>
    <nd ref="369632556"/>
    <nd ref="459407933"/>
    <nd ref="369632525"/>
    <nd ref="369632357"/>
    <nd ref="369632557"/>
    <nd ref="369632555"/>
    <nd ref="854366223"/>
    <nd ref="854366224"/>
    <nd ref="369632554"/>
    <nd ref="854366226"/>
    <nd ref="854366227"/>
    <tag k="highway" v="residential"/>
    <tag k="maxspeed" v="50"/>
    <tag k="name" v="Tarranna Avenue"/>
  </way>
  <way id="104675709" version="1" timestamp="2011-03-18T15:16:10Z" uid="4467" user="Rosscoe" changeset="7596265">
    <nd ref="208518390"/>
    <nd ref="854320995"/>
    <tag k="highway" v="residential"/>
    <tag k="maxspeed" v="50"/>
    <tag k="maxspeed:source" v="default residential speed limit in Australia"/>
    <tag k="name" v="Clifford Street"/>
    <tag k="oneway" v="yes"/>
    <tag k="source" v="nearmap"/>
  </way>
  <way id="104675709" version="2" timestamp="2011-03-18T15:41:15Z" uid="4467" user="Rosscoe" changeset="7596453">
    <nd ref="208518390"/>
    <nd ref="854320995"/>
    <tag k="highway" v="residential"/>
    <tag k="maxspeed" v="50"/>
    <tag k="name" v="Clifford Street"/>
    <tag k="oneway" v="yes"/>
    <tag k="source" v="nearmap"/>
    <tag k="source:maxspeed" v="default residential speed limit in Australia"/>
  </way>
  <way id="104675710" version="1" timestamp="2011-03-18T15:16:11Z" uid="4467" user="Rosscoe" changeset="7596265">
    <nd ref="1207409791"/>
    <nd ref="1207409918"/>
    <nd ref="1207409836"/>
    <nd ref="1207409941"/>
    <nd ref="1207409891"/>
    <nd ref="1207409802"/>
    <nd ref="1207409926"/>
    <nd ref="1207409847"/>
    <nd ref="1207409791"/>
    <tag k="highway" v="residential"/>
    <tag k="junction" v="roundabout"/>
    <tag k="source" v="nearmap"/>
  </way>
  <way id="104675711" version="1" timestamp="2011-03-18T15:16:11Z" uid="4467" user="Rosscoe" changeset="7596265">
    <nd ref="1207409966"/>
    <nd ref="1207409876"/>
    <tag k="highway" v="residential"/>
    <tag k="maxspeed" v="50"/>
    <tag k="name" v="Carbnet Place"/>
    <tag k="oneway" v="yes"/>
    <tag k="source" v="nearmap"/>
    <tag k="source:name" v="survey"/>
  </way>
  <way id="104675712" version="1" timestamp="2011-03-18T15:16:11Z" uid="4467" user="Rosscoe" changeset="7596265">
    <nd ref="319218263"/>
    <nd ref="1207409889"/>
    <nd ref="1207409827"/>
    <tag k="highway" v="tertiary"/>
    <tag k="maxspeed" v="50"/>
    <tag k="name:link" v="Quick Road"/>
    <tag k="oneway" v="yes"/>
    <tag k="source" v="yahoo"/>
  </way>
  <way id="104675712" version="2" timestamp="2011-03-18T15:43:37Z" uid="4467" user="Rosscoe" changeset="7596453">
    <nd ref="319218263"/>
    <nd ref="1207409889"/>
    <nd ref="1207409827"/>
    <tag k="highway" v="tertiary"/>
    <tag k="maxspeed" v="50"/>
    <tag k="name:link" v="Quick Road"/>
    <tag k="oneway" v="yes"/>
    <tag k="source" v="yahoo"/>
  </way>
  <way id="104675712" version="3" timestamp="2011-05-12T13:47:15Z" uid="331504" user="normangerman" changeset="8122409">
    <nd ref="319218263"/>
    <nd ref="1207409889"/>
    <nd ref="1207409827"/>
    <tag k="highway" v="tertiary"/>
    <tag k="maxspeed" v="50"/>
    <tag k="name" v="Quick Road"/>
    <tag k="name:link" v="Quick Road"/>
    <tag k="oneway" v="yes"/>
    <tag k="source" v="yahoo"/>
  </way>
  <way id="104675662" version="2" timestamp="2012-07-20T11:10:15Z" uid="722137" user="OSMF Redaction Account" changeset="12372454"/>
  <way id="104675664" version="4" timestamp="2012-07-04T12:26:40Z" uid="328538" user="o&apos;cholio" changeset="12110022">
    <nd ref="1207409824"/>
    <nd ref="253443752"/>
    <tag k="bridge" v="yes"/>
    <tag k="cycleway" v="lane"/>
    <tag k="highway" v="primary"/>
    <tag k="lanes" v="2"/>
    <tag k="layer" v="1"/>
    <tag k="maxspeed" v="60"/>
    <tag k="name" v="Marion Road"/>
    <tag k="odbl" v="clean"/>
    <tag k="oneway" v="yes"/>
    <tag k="ref" v="A14"/>
  </way>
  <way id="104675664" version="5" timestamp="2012-07-19T09:10:35Z" uid="722137" user="OSMF Redaction Account" changeset="12315382"/>
  <way id="104675667" version="2" timestamp="2012-07-07T15:30:15Z" uid="328538" user="o&apos;cholio" changeset="12141058">
    <nd ref="1816084040"/>
    <nd ref="253449430"/>
    <nd ref="1207409830"/>
    <tag k="highway" v="residential"/>
    <tag k="name" v="Highet Avenue"/>
    <tag k="source" v="nearmap"/>
  </way>
  <way id="104675667" version="3" timestamp="2012-07-19T09:10:53Z" uid="722137" user="OSMF Redaction Account" changeset="12315382"/>
  <way id="104675668" version="3" timestamp="2012-07-20T11:10:15Z" uid="722137" user="OSMF Redaction Account" changeset="12372454"/>
  <way id="104675671" version="2" timestamp="2012-07-03T12:54:44Z" uid="328538" user="o&apos;cholio" changeset="12099828"/>
  <way id="104675673" version="2" timestamp="2012-07-19T09:10:48Z" uid="722137" user="OSMF Redaction Account" changeset="12315382"/>
  <way id="104675679" version="2" timestamp="2012-07-19T09:10:48Z" uid="722137" user="OSMF Redaction Account" changeset="12315382"/>
  <way id="104675682" version="2" timestamp="2012-07-19T09:10:53Z" uid="722137" user="OSMF Redaction Account" changeset="12315382"/>
  <way id="104675686" version="2" timestamp="2012-06-11T10:46:56Z" uid="477020" user="Stellis" changeset="11863280">
    <nd ref="252167461"/>
    <nd ref="1783422668"/>
    <nd ref="1207409855"/>
    <nd ref="1207409799"/>
    <nd ref="1207409964"/>
    <tag k="highway" v="residential"/>
    <tag k="maxspeed" v="50"/>
    <tag k="name" v="Morphett Road"/>
    <tag k="source" v="nearmap"/>
  </way>
  <way id="104675686" version="3" timestamp="2012-07-19T09:10:44Z" uid="722137" user="OSMF Redaction Account" changeset="12315382"/>
  <way id="104675688" version="2" timestamp="2012-07-19T09:10:54Z" uid="722137" user="OSMF Redaction Account" changeset="12315382"/>
  <way id="104675691" version="2" timestamp="2012-07-19T09:10:50Z" uid="722137" user="OSMF Redaction Account" changeset="12315382"/>
  <way id="104675694" version="2" timestamp="2012-07-07T15:30:18Z" uid="328538" user="o&apos;cholio" changeset="12141058">
    <nd ref="1816084147"/>
    <nd ref="1149141504"/>
    <nd ref="370246543"/>
    <nd ref="370246552"/>
    <nd ref="370238807"/>
    <nd ref="1149142304"/>
    <nd ref="1207409904"/>
    <nd ref="1207409861"/>
    <tag k="highway" v="residential"/>
    <tag k="name" v="Lewis Street"/>
    <tag k="source" v="nearmap"/>
  </way>
  <way id="104675694" version="3" timestamp="2012-07-19T09:10:50Z" uid="722137" user="OSMF Redaction Account" changeset="12315382"/>
  <way id="104675697" version="2" timestamp="2012-07-20T11:10:11Z" uid="722137" user="OSMF Redaction Account" changeset="12372454"/>
  <way id="104675698" version="3" timestamp="2012-07-19T09:10:49Z" uid="722137" user="OSMF Redaction Account" changeset="12315382"/>
  <way id="104675699" version="2" timestamp="2012-06-15T11:07:00Z" uid="328538" user="o&apos;cholio" changeset="11903636"/>
  <way id="104675700" version="2" timestamp="2012-07-03T12:54:45Z" uid="328538" user="o&apos;cholio" changeset="12099828"/>
  <way id="104675701" version="2" timestamp="2012-07-20T11:10:15Z" uid="722137" user="OSMF Redaction Account" changeset="12372454"/>
  <way id="104675702" version="2" timestamp="2012-07-20T11:10:15Z" uid="722137" user="OSMF Redaction Account" changeset="12372454"/>
  <way id="104675703" version="2" timestamp="2012-07-20T11:10:11Z" uid="722137" user="OSMF Redaction Account" changeset="12372454"/>
  <way id="104675704" version="2" timestamp="2012-07-19T09:10:51Z" uid="722137" user="OSMF Redaction Account" changeset="12315382"/>
  <way id="104675705" version="2" timestamp="2012-07-19T09:10:47Z" uid="722137" user="OSMF Redaction Account" changeset="12315382"/>
  <way id="104675706" version="4" timestamp="2012-07-04T12:26:39Z" uid="328538" user="o&apos;cholio" changeset="12110022">
    <nd ref="1207409897"/>
    <nd ref="1207409951"/>
    <tag k="bridge" v="yes"/>
    <tag k="cycleway" v="lane"/>
    <tag k="highway" v="primary"/>
    <tag k="lanes" v="2"/>
    <tag k="layer" v="1"/>
    <tag k="maxspeed" v="60"/>
    <tag k="name" v="Marion Road"/>
    <tag k="odbl" v="clean"/>
    <tag k="oneway" v="yes"/>
    <tag k="ref" v="A14"/>
    <tag k="source" v="survey"/>
  </way>
  <way id="104675706" version="5" timestamp="2012-07-19T09:10:35Z" uid="722137" user="OSMF Redaction Account" changeset="12315382"/>
  <way id="104675707" version="3" timestamp="2012-07-20T11:10:14Z" uid="722137" user="OSMF Redaction Account" changeset="12372454"/>
  <way id="104675709" version="3" timestamp="2012-07-20T11:10:14Z" uid="722137" user="OSMF Redaction Account" changeset="12372454"/>
  <way id="104675710" version="2" timestamp="2012-07-19T09:10:49Z" uid="722137" user="OSMF Redaction Account" changeset="12315382"/>
  <way id="104675711" version="2" timestamp="2012-07-19T09:10:51Z" uid="722137" user="OSMF Redaction Account" changeset="12315382"/>
  <way id="104675712" version="4" timestamp="2012-07-19T09:10:56Z" uid="722137" user="OSMF Redaction Account" changeset="12315382"/>
</osm>
