<?xml version='1.0' encoding='UTF-8'?>
<osm version="0.6" generator="libosmium/2.20.0">
  <way id="104728077" version="2" timestamp="2011-05-06T19:37:25Z" uid="66036" user="h4v" changeset="8068126">
    <nd ref="1207965700"/>
    <nd ref="1207965693"/>
    <nd ref="1207965697"/>
    <nd ref="1207965689"/>
    <nd ref="1207965702"/>
    <nd ref="1207965692"/>
    <nd ref="1207965690"/>
    <nd ref="1207965699"/>
    <nd ref="1207965700"/>
    <tag k="amenity" v="place_of_worship"/>
    <tag k="religion" v="christian"/>
  </way>
  <way id="104728077" version="3" timestamp="2012-07-24T14:10:59Z" uid="722137" user="OSMF Redaction Account" changeset="12467476">
    <nd ref="1207965700"/>
    <nd ref="1207965693"/>
    <nd ref="1207965697"/>
    <nd ref="1207965689"/>
    <nd ref="1207965702"/>
    <nd ref="1207965692"/>
    <nd ref="1207965690"/>
    <nd ref="1207965699"/>
    <nd ref="1207965700"/>
    <tag k="amenity" v="place_of_worship"/>
  </way>
  <way id="104728077" version="4" timestamp="2012-08-18T08:35:03Z" uid="645021" user="Piotr99" changeset="12770359">
    <nd ref="1207965700"/>
    <nd ref="1815225302"/>
    <nd ref="1815225332"/>
    <nd ref="1815225336"/>
    <nd ref="1815225329"/>
    <nd ref="1207965699"/>
    <nd ref="1207965690"/>
    <nd ref="1207965692"/>
    <nd ref="1207965702"/>
    <nd ref="1207965689"/>
    <nd ref="1207965697"/>
    <nd ref="1207965693"/>
    <nd ref="1207965700"/>
    <tag k="addr:city" v="Łódź"/>
    <tag k="addr:country" v="PL"/>
    <tag k="addr:housenumber" v="4"/>
    <tag k="addr:postcode" v="94-230"/>
    <tag k="addr:street" v="Artylerzystów"/>
    <tag k="amenity" v="place_of_worship"/>
    <tag k="denomination" v="roman_catholic"/>
    <tag k="fax" v="+48426347581"/>
    <tag k="name" v="Św. Jana Chrzciciela"/>
    <tag k="phone" v="+48426111477"/>
    <tag k="religion" v="christian"/>
    <tag k="service_times" v="Mo-Fr 07:00;18:00 Su 07:30;09:00;10:30;12:00: 13:00;17:00"/>
    <tag k="website" v="http://www.janchrzciciel.parafia.info.pl"/>
  </way>
</osm>
