<?xml version='1.0' encoding='UTF-8'?>
<osm version="0.6" generator="libosmium/2.20.0">
  <way id="105107211" version="2" timestamp="2011-04-13T14:37:56Z" uid="4467" user="Rosscoe" changeset="7852475">
    <nd ref="1211537305"/>
    <nd ref="1111468985"/>
    <tag k="highway" v="residential"/>
    <tag k="maxspeed" v="50"/>
    <tag k="name" v="Dalmahoy Street"/>
    <tag k="source:maxspeed" v="default residential speed limit in Australia"/>
    <tag k="surface" v="paved"/>
  </way>
  <way id="105107215" version="2" timestamp="2011-04-13T14:37:53Z" uid="4467" user="Rosscoe" changeset="7852475">
    <nd ref="1111468985"/>
    <nd ref="1211519070"/>
    <tag k="highway" v="residential"/>
    <tag k="maxspeed" v="50"/>
    <tag k="name" v="Dalmahoy Street"/>
    <tag k="source:maxspeed" v="default residential speed limit in Australia"/>
    <tag k="surface" v="paved"/>
  </way>
  <way id="105107976" version="2" timestamp="2011-04-14T05:48:30Z" uid="4467" user="Rosscoe" changeset="7857700">
    <nd ref="529369555"/>
    <nd ref="529369570"/>
    <nd ref="529365712"/>
    <tag k="highway" v="tertiary"/>
    <tag k="name" v="McKean Street"/>
    <tag k="oneway" v="yes"/>
    <tag k="source" v="survey"/>
    <tag k="surface" v="paved"/>
  </way>
  <way id="105107977" version="2" timestamp="2011-04-13T14:37:54Z" uid="4467" user="Rosscoe" changeset="7852475">
    <nd ref="529365677"/>
    <nd ref="529369494"/>
    <nd ref="1211559244"/>
    <tag k="highway" v="tertiary"/>
    <tag k="name" v="McKean Street"/>
    <tag k="oneway" v="yes"/>
    <tag k="source" v="survey"/>
    <tag k="surface" v="paved"/>
  </way>
  <way id="105107977" version="3" timestamp="2011-04-14T05:48:38Z" uid="4467" user="Rosscoe" changeset="7857700"/>
  <way id="105107979" version="2" timestamp="2011-04-14T05:48:38Z" uid="4467" user="Rosscoe" changeset="7857700"/>
  <way id="105107982" version="2" timestamp="2011-04-13T14:38:00Z" uid="4467" user="Rosscoe" changeset="7852475">
    <nd ref="529369518"/>
    <nd ref="529840375"/>
    <nd ref="529840376"/>
    <nd ref="529840377"/>
    <nd ref="529840378"/>
    <nd ref="685159904"/>
    <nd ref="529369504"/>
    <nd ref="529351014"/>
    <nd ref="685172776"/>
    <nd ref="529369499"/>
    <nd ref="529365670"/>
    <tag k="highway" v="tertiary"/>
    <tag k="name" v="McKean Street"/>
    <tag k="oneway" v="yes"/>
    <tag k="source" v="survey"/>
    <tag k="surface" v="paved"/>
  </way>
  <way id="105107987" version="2" timestamp="2011-04-13T14:37:46Z" uid="4467" user="Rosscoe" changeset="7852475">
    <nd ref="685159682"/>
    <nd ref="685172387"/>
    <nd ref="685172392"/>
    <nd ref="685172401"/>
    <nd ref="685172407"/>
    <nd ref="685171579"/>
    <nd ref="685094086"/>
    <nd ref="690016238"/>
    <nd ref="690016148"/>
    <nd ref="690016240"/>
    <nd ref="690016047"/>
    <nd ref="690016081"/>
    <nd ref="690016184"/>
    <tag k="highway" v="residential"/>
    <tag k="maxspeed" v="50"/>
    <tag k="name" v="Day Street"/>
    <tag k="oneway" v="yes"/>
    <tag k="source" v="survey"/>
    <tag k="source:maxspeed" v="default residential speed limit in Australia"/>
    <tag k="surface" v="paved"/>
  </way>
  <way id="105107991" version="2" timestamp="2011-04-14T05:48:35Z" uid="4467" user="Rosscoe" changeset="7857700">
    <nd ref="529365677"/>
    <nd ref="529369494"/>
    <nd ref="1211559244"/>
    <nd ref="1243998421"/>
    <tag k="highway" v="tertiary"/>
    <tag k="name" v="McKean Street"/>
    <tag k="oneway" v="yes"/>
    <tag k="source" v="survey"/>
    <tag k="surface" v="paved"/>
  </way>
  <way id="105107993" version="2" timestamp="2011-04-13T14:38:00Z" uid="4467" user="Rosscoe" changeset="7852475"/>
  <way id="105107996" version="2" timestamp="2011-04-13T14:37:56Z" uid="4467" user="Rosscoe" changeset="7852475">
    <nd ref="529369487"/>
    <nd ref="685189356"/>
    <nd ref="529369492"/>
    <nd ref="529365683"/>
    <tag k="highway" v="tertiary"/>
    <tag k="name" v="McKean Street"/>
    <tag k="oneway" v="yes"/>
    <tag k="source" v="survey"/>
    <tag k="surface" v="paved"/>
  </way>
  <way id="105107996" version="3" timestamp="2011-04-14T05:48:38Z" uid="4467" user="Rosscoe" changeset="7857700"/>
  <way id="105107211" version="3" timestamp="2012-07-19T08:36:08Z" uid="722137" user="OSMF Redaction Account" changeset="12314151">
    <nd ref="1211537305"/>
    <nd ref="1111468985"/>
    <tag k="highway" v="residential"/>
    <tag k="maxspeed" v="50"/>
    <tag k="maxspeed:source" v="default residential speed limit in Australia"/>
    <tag k="name" v="Dalmahoy Street"/>
    <tag k="surface" v="paved"/>
  </way>
  <way id="105107215" version="3" timestamp="2012-07-19T08:32:25Z" uid="722137" user="OSMF Redaction Account" changeset="12314019">
    <nd ref="1111468985"/>
    <nd ref="1211519070"/>
    <tag k="highway" v="residential"/>
    <tag k="maxspeed" v="50"/>
    <tag k="maxspeed:source" v="default residential speed limit in Australia"/>
    <tag k="name" v="Dalmahoy Street"/>
    <tag k="surface" v="paved"/>
  </way>
  <way id="105107976" version="3" timestamp="2012-06-08T05:14:40Z" uid="633429" user="Angyork" changeset="11831776">
    <nd ref="529369555"/>
    <nd ref="1780031954"/>
    <nd ref="529369570"/>
    <nd ref="529365712"/>
    <tag k="highway" v="tertiary"/>
    <tag k="name" v="McKean Street"/>
    <tag k="oneway" v="yes"/>
    <tag k="source" v="survey"/>
    <tag k="surface" v="paved"/>
  </way>
  <way id="105107976" version="4" timestamp="2012-07-19T08:36:09Z" uid="722137" user="OSMF Redaction Account" changeset="12314151">
    <nd ref="1780031954"/>
    <nd ref="529369570"/>
    <tag k="highway" v="tertiary"/>
    <tag k="name" v="McKean Street"/>
    <tag k="oneway" v="yes"/>
    <tag k="source" v="survey"/>
    <tag k="surface" v="paved"/>
  </way>
  <way id="105107976" version="5" timestamp="2012-08-19T08:40:28Z" uid="633429" user="Angyork" changeset="12780792">
    <nd ref="529369555"/>
    <nd ref="1872383138"/>
    <nd ref="1780031954"/>
    <nd ref="529369570"/>
    <nd ref="529365712"/>
    <tag k="highway" v="tertiary"/>
    <tag k="name" v="McKean Street"/>
    <tag k="oneway" v="yes"/>
    <tag k="source" v="survey"/>
    <tag k="surface" v="paved"/>
  </way>
  <way id="105107982" version="3" timestamp="2012-07-19T08:36:12Z" uid="722137" user="OSMF Redaction Account" changeset="12314151">
    <nd ref="529369499"/>
    <nd ref="529365670"/>
    <tag k="highway" v="tertiary"/>
    <tag k="name" v="McKean Street"/>
    <tag k="oneway" v="yes"/>
    <tag k="source" v="survey"/>
    <tag k="surface" v="paved"/>
  </way>
  <way id="105107982" version="4" timestamp="2012-08-19T08:58:28Z" uid="633429" user="Angyork" changeset="12780792">
    <nd ref="1872396555"/>
    <nd ref="1872396552"/>
    <nd ref="1872396518"/>
    <nd ref="529369499"/>
    <nd ref="529365670"/>
    <tag k="highway" v="tertiary"/>
    <tag k="name" v="McKean Street"/>
    <tag k="oneway" v="yes"/>
    <tag k="source" v="survey"/>
    <tag k="surface" v="paved"/>
  </way>
  <way id="105107982" version="5" timestamp="2012-08-20T01:58:20Z" uid="633429" user="Angyork" changeset="12790588">
    <nd ref="1873905143"/>
    <nd ref="1872396555"/>
    <nd ref="1872396552"/>
    <nd ref="1872396518"/>
    <nd ref="529369499"/>
    <nd ref="529365670"/>
    <tag k="highway" v="tertiary"/>
    <tag k="name" v="McKean Street"/>
    <tag k="oneway" v="yes"/>
    <tag k="source" v="survey"/>
    <tag k="surface" v="paved"/>
  </way>
  <way id="105107987" version="3" timestamp="2012-07-19T08:36:20Z" uid="722137" user="OSMF Redaction Account" changeset="12314151">
    <nd ref="685159682"/>
    <nd ref="685172387"/>
    <nd ref="685172392"/>
    <nd ref="685172401"/>
    <nd ref="685172407"/>
    <nd ref="685171579"/>
    <nd ref="685094086"/>
    <nd ref="690016238"/>
    <nd ref="690016148"/>
    <nd ref="690016240"/>
    <nd ref="690016047"/>
    <nd ref="690016081"/>
    <nd ref="690016184"/>
    <tag k="highway" v="residential"/>
    <tag k="maxspeed" v="50"/>
    <tag k="maxspeed:source" v="default residential speed limit in Australia"/>
    <tag k="name" v="Day Street"/>
    <tag k="oneway" v="yes"/>
    <tag k="source" v="survey"/>
    <tag k="surface" v="paved"/>
  </way>
  <way id="105107991" version="3" timestamp="2012-07-19T08:36:34Z" uid="722137" user="OSMF Redaction Account" changeset="12314151"/>
</osm>
