<?xml version='1.0' encoding='UTF-8'?>
<osm version="0.6" generator="libosmium/2.20.0">
  <way id="105661343" version="1" timestamp="2011-03-24T22:15:13Z" uid="96874" user="Quedel" changeset="7660671">
    <nd ref="304097040"/>
    <nd ref="304097591"/>
    <tag k="access" v="destination"/>
    <tag k="highway" v="residential"/>
    <tag k="is_in" v="Wuppertal,Germany"/>
    <tag k="maxspeed" v="30"/>
    <tag k="name" v="Theoderichstraße"/>
    <tag k="parking:lane:both" v="inline"/>
  </way>
  <way id="105661343" version="2" timestamp="2011-06-04T20:09:07Z" uid="407336" user="navver" changeset="8342613">
    <nd ref="304097040"/>
    <nd ref="304097591"/>
    <tag k="highway" v="residential"/>
    <tag k="is_in" v="Wuppertal,Germany"/>
    <tag k="maxspeed" v="30"/>
    <tag k="name" v="Theoderichstraße"/>
    <tag k="parking:lane:both" v="inline"/>
    <tag k="vehicle" v="destination"/>
  </way>
  <way id="105661343" version="3" timestamp="2012-03-13T13:03:49Z" uid="503347" user="bilderhobbit" changeset="10966337"/>
  <way id="105661345" version="1" timestamp="2011-03-24T22:15:13Z" uid="96874" user="Quedel" changeset="7660671">
    <nd ref="395433735"/>
    <nd ref="390444569"/>
    <tag k="highway" v="residential"/>
    <tag k="is_in" v="Wuppertal,Germany"/>
    <tag k="name" v="Münzstraße"/>
    <tag k="parking:lane:both" v="no_stopping"/>
    <tag k="source" v="survey"/>
  </way>
  <way id="105661345" version="2" timestamp="2011-06-04T20:09:05Z" uid="407336" user="navver" changeset="8342613">
    <nd ref="395433735"/>
    <nd ref="390444569"/>
    <tag k="highway" v="residential"/>
    <tag k="is_in" v="Wuppertal,Germany"/>
    <tag k="maxspeed" v="30"/>
    <tag k="name" v="Münzstraße"/>
    <tag k="parking:lane:both" v="no_stopping"/>
    <tag k="source" v="survey"/>
  </way>
  <way id="105661345" version="3" timestamp="2012-03-13T13:06:21Z" uid="503347" user="bilderhobbit" changeset="10966337"/>
</osm>
