<?xml version='1.0' encoding='UTF-8'?>
<osm version="0.6" generator="libosmium/2.20.0">
  <way id="106577011" version="1" timestamp="2011-03-30T21:51:34Z" uid="16922" user="amai" changeset="7721069">
    <nd ref="1226017874"/>
    <nd ref="1226017871"/>
    <nd ref="1226017873"/>
    <nd ref="1226017872"/>
    <nd ref="1226017874"/>
    <tag k="amenity" v="social_facility"/>
    <tag k="building" v="yes"/>
    <tag k="name" v="Caritas Darmstadt e.V."/>
    <tag k="social_facility" v="outreach"/>
    <tag k="source" v="Bing, survey"/>
  </way>
  <way id="106577011" version="2" timestamp="2012-01-12T06:39:45Z" uid="583269" user="Fraenzi611" changeset="10366904">
    <nd ref="1226017874"/>
    <nd ref="1226017871"/>
    <nd ref="1226017873"/>
    <nd ref="1226017872"/>
    <nd ref="1226017874"/>
    <tag k="addr:housenumber" v="25"/>
    <tag k="amenity" v="social_facility"/>
    <tag k="building" v="yes"/>
    <tag k="name" v="Caritas Darmstadt e.V."/>
    <tag k="social_facility" v="outreach"/>
    <tag k="source" v="Bing, survey"/>
  </way>
  <way id="106577011" version="3" timestamp="2012-02-11T12:23:32Z" uid="131968" user="changchun_1" changeset="10652057"/>
</osm>
