<?xml version='1.0' encoding='UTF-8'?>
<osm version="0.6" generator="libosmium/2.20.0">
  <way id="106630438" version="2" timestamp="2011-05-16T17:14:50Z" uid="23543" user="jkjk" changeset="8164337">
    <nd ref="21320918"/>
    <nd ref="683668"/>
    <tag k="highway" v="tertiary"/>
    <tag k="name" v="Vyskočilova"/>
    <tag k="oneway" v="yes"/>
  </way>
  <way id="106630438" version="3" timestamp="2011-09-30T12:44:21Z" uid="527259" user="Vratislav Filler" changeset="9435017">
    <nd ref="21320918"/>
    <nd ref="683668"/>
    <tag k="highway" v="secondary"/>
    <tag k="name" v="Vyskočilova"/>
    <tag k="oneway" v="yes"/>
  </way>
  <way id="106630438" version="4" timestamp="2012-07-25T17:54:18Z" uid="527259" user="Vratislav Filler" changeset="12489832">
    <nd ref="21320918"/>
    <nd ref="683668"/>
    <nd ref="208481284"/>
    <nd ref="1144979707"/>
    <nd ref="1837892765"/>
    <nd ref="1144973602"/>
    <nd ref="299974543"/>
    <tag k="highway" v="secondary"/>
    <tag k="name" v="Vyskočilova"/>
    <tag k="oneway" v="yes"/>
  </way>
</osm>
