<?xml version='1.0' encoding='UTF-8'?>
<osm version="0.6" generator="libosmium/2.20.0">
  <way id="106651465" version="2" timestamp="2011-04-04T14:18:24Z" uid="66036" user="h4v" changeset="7765498">
    <nd ref="1226822770"/>
    <nd ref="1226822776"/>
    <nd ref="1226822778"/>
    <nd ref="1226822781"/>
    <nd ref="1226822775"/>
    <nd ref="1226822769"/>
    <nd ref="1226822777"/>
    <nd ref="1226822772"/>
    <nd ref="1226822770"/>
    <tag k="building" v="yes"/>
  </way>
  <way id="106651466" version="2" timestamp="2011-04-04T14:18:24Z" uid="66036" user="h4v" changeset="7765498">
    <nd ref="1226822779"/>
    <nd ref="1226822780"/>
    <nd ref="1226822771"/>
    <nd ref="1226822776"/>
    <nd ref="1226822778"/>
    <nd ref="1226822773"/>
    <nd ref="1226822774"/>
    <nd ref="1226822779"/>
    <tag k="building" v="yes"/>
  </way>
  <way id="106651466" version="3" timestamp="2012-07-14T21:30:37Z" uid="707169" user="damndog" changeset="12222006">
    <nd ref="1226822779"/>
    <nd ref="1226822780"/>
    <nd ref="1226822771"/>
    <nd ref="1226822776"/>
    <nd ref="1226822778"/>
    <nd ref="1226822773"/>
    <nd ref="1226822774"/>
    <nd ref="1226822779"/>
    <tag k="addr:city" v="Łódź"/>
    <tag k="addr:housenumber" v="111"/>
    <tag k="addr:street" v="Gdańska"/>
    <tag k="amenity" v="social_facility"/>
    <tag k="building" v="yes"/>
    <tag k="email" v="caritas@toya.net.pl"/>
    <tag k="name" v="Caritas"/>
    <tag k="phone" v="+48 42 6399582"/>
    <tag k="social_facility" v="assisted_living"/>
    <tag k="social_facility:for" v="homeless"/>
    <tag k="website" v="http://caritas.lodz.pl"/>
  </way>
</osm>
