<?xml version='1.0' encoding='UTF-8'?>
<osm version="0.6" generator="libosmium/2.20.0">
  <way id="106621350" version="2" timestamp="2011-04-12T11:23:21Z" uid="4467" user="Rosscoe" changeset="7841658">
    <nd ref="1226567825"/>
    <nd ref="1226567827"/>
    <nd ref="1226567830"/>
    <nd ref="1196698603"/>
    <tag k="highway" v="primary"/>
    <tag k="name" v="Illawarra Road"/>
    <tag k="oneway" v="yes"/>
    <tag k="ref" v="B52"/>
  </way>
  <way id="106621358" version="2" timestamp="2011-04-12T11:23:03Z" uid="4467" user="Rosscoe" changeset="7841658">
    <nd ref="1226567825"/>
    <nd ref="244850516"/>
    <nd ref="244850518"/>
    <nd ref="444186894"/>
    <nd ref="1241852269"/>
    <tag k="highway" v="primary"/>
    <tag k="name" v="Illawarra Road"/>
    <tag k="ref" v="B52"/>
  </way>
  <way id="106621358" version="3" timestamp="2012-02-04T01:14:04Z" uid="46482" user="Leon K" changeset="10580743"/>
  <way id="106621369" version="2" timestamp="2011-04-12T11:23:17Z" uid="4467" user="Rosscoe" changeset="7841658">
    <nd ref="1014079280"/>
    <nd ref="1014079259"/>
    <tag k="bridge" v="yes"/>
    <tag k="name" v="Western Line"/>
    <tag k="railway" v="rail"/>
    <tag k="source" v="nearmap"/>
  </way>
  <way id="106621369" version="3" timestamp="2011-06-18T09:29:26Z" uid="46482" user="Leon K" changeset="8471381">
    <nd ref="1014079280"/>
    <nd ref="1014079259"/>
    <tag k="bridge" v="yes"/>
    <tag k="name" v="Western Line"/>
    <tag k="railway" v="rail"/>
    <tag k="source" v="nearmap"/>
    <tag k="usage" v="main"/>
  </way>
  <way id="106621369" version="4" timestamp="2011-11-16T11:40:18Z" uid="338866" user="tiger" changeset="9843664">
    <nd ref="1014079280"/>
    <nd ref="1014079259"/>
    <tag k="bridge" v="yes"/>
    <tag k="layer" v="1"/>
    <tag k="name" v="Western Line"/>
    <tag k="railway" v="rail"/>
    <tag k="source" v="nearmap"/>
    <tag k="usage" v="main"/>
  </way>
  <way id="106621857" version="2" timestamp="2011-04-20T14:52:48Z" uid="4467" user="Rosscoe" changeset="7916972">
    <nd ref="329985140"/>
    <nd ref="1226580442"/>
    <nd ref="329985141"/>
    <tag k="highway" v="service"/>
    <tag k="lanes" v="1"/>
    <tag k="name" v="Country Club Avenue"/>
    <tag k="oneway" v="yes"/>
    <tag k="service" v="driveway"/>
  </way>
  <way id="106621866" version="2" timestamp="2011-04-20T14:52:45Z" uid="4467" user="Rosscoe" changeset="7916972">
    <nd ref="329985141"/>
    <nd ref="329985142"/>
    <nd ref="1226580431"/>
    <nd ref="329985143"/>
    <nd ref="329985144"/>
    <nd ref="329985145"/>
    <nd ref="329985146"/>
    <nd ref="329985147"/>
    <nd ref="1226580441"/>
    <nd ref="1226580489"/>
    <nd ref="1226580492"/>
    <nd ref="329985141"/>
    <tag k="highway" v="service"/>
    <tag k="lanes" v="1"/>
    <tag k="name" v="Country Club Avenue"/>
    <tag k="oneway" v="yes"/>
    <tag k="service" v="driveway"/>
  </way>
  <way id="106621350" version="3" timestamp="2012-07-19T10:33:20Z" uid="722137" user="OSMF Redaction Account" changeset="12318818">
    <nd ref="1226567825"/>
    <nd ref="1226567827"/>
    <nd ref="1226567830"/>
    <tag k="highway" v="primary"/>
    <tag k="name" v="Illawarra Road"/>
    <tag k="oneway" v="yes"/>
    <tag k="ref" v="B52"/>
  </way>
  <way id="106621350" version="4" timestamp="2012-07-19T12:48:56Z" uid="46482" user="Leon K" changeset="12326775">
    <nd ref="1226567825"/>
    <nd ref="1226567827"/>
    <nd ref="1226567830"/>
    <nd ref="1196698606"/>
    <tag k="highway" v="primary"/>
    <tag k="name" v="Illawarra Road"/>
    <tag k="oneway" v="yes"/>
    <tag k="ref" v="B52"/>
  </way>
  <way id="106621369" version="5" timestamp="2012-07-19T10:33:20Z" uid="722137" user="OSMF Redaction Account" changeset="12318818">
    <nd ref="1014079280"/>
    <nd ref="1014079259"/>
    <tag k="bridge" v="yes"/>
    <tag k="layer" v="1"/>
    <tag k="name" v="Western Line"/>
    <tag k="railway" v="rail"/>
    <tag k="source" v="yahoo"/>
    <tag k="usage" v="main"/>
  </way>
  <way id="106621866" version="3" timestamp="2012-07-19T10:08:52Z" uid="722137" user="OSMF Redaction Account" changeset="12317636">
    <nd ref="1226580441"/>
    <nd ref="1226580489"/>
    <nd ref="1226580492"/>
    <nd ref="329985141"/>
    <tag k="highway" v="service"/>
    <tag k="lanes" v="1"/>
    <tag k="oneway" v="yes"/>
    <tag k="service" v="driveway"/>
  </way>
</osm>
