<?xml version='1.0' encoding='UTF-8'?>
<osm version="0.6" generator="libosmium/2.20.0">
  <way id="10812017" version="4" timestamp="2010-02-15T06:57:37Z" uid="74617" user="JohnSmith" changeset="3880463">
    <nd ref="96095690"/>
    <nd ref="96097409"/>
    <nd ref="96097410"/>
    <nd ref="96097411"/>
    <nd ref="96097412"/>
    <nd ref="84351359"/>
    <tag k="highway" v="secondary"/>
    <tag k="name" v="King Avenue"/>
    <tag k="oneway" v="yes"/>
  </way>
  <way id="10812017" version="5" timestamp="2011-02-12T10:24:30Z" uid="4467" user="Rosscoe" changeset="7263105">
    <nd ref="96095691"/>
    <nd ref="96097409"/>
    <nd ref="96097410"/>
    <nd ref="84351359"/>
    <tag k="highway" v="secondary"/>
    <tag k="name" v="King Avenue"/>
    <tag k="oneway" v="yes"/>
  </way>
  <way id="10812049" version="5" timestamp="2010-02-15T06:57:37Z" uid="74617" user="JohnSmith" changeset="3880463">
    <nd ref="96094081"/>
    <nd ref="96097638"/>
    <nd ref="96097639"/>
    <nd ref="96097640"/>
    <nd ref="96097641"/>
    <tag k="highway" v="secondary"/>
    <tag k="name" v="Sherbrooke Road"/>
    <tag k="oneway" v="yes"/>
  </way>
  <way id="10812049" version="6" timestamp="2011-02-12T10:24:31Z" uid="4467" user="Rosscoe" changeset="7263105">
    <nd ref="96094081"/>
    <nd ref="96097638"/>
    <nd ref="96097639"/>
    <nd ref="96097641"/>
    <tag k="highway" v="secondary"/>
    <tag k="name" v="Sherbrooke Road"/>
    <tag k="oneway" v="yes"/>
  </way>
  <way id="10812064" version="5" timestamp="2010-02-15T06:57:37Z" uid="74617" user="JohnSmith" changeset="3880463">
    <nd ref="96097641"/>
    <nd ref="96097715"/>
    <nd ref="96097716"/>
    <nd ref="96097717"/>
    <nd ref="96095683"/>
    <tag k="highway" v="secondary"/>
    <tag k="name" v="Sherbrooke Road"/>
    <tag k="oneway" v="yes"/>
  </way>
  <way id="10812064" version="6" timestamp="2011-02-12T10:24:38Z" uid="4467" user="Rosscoe" changeset="7263105">
    <nd ref="96097641"/>
    <nd ref="96097716"/>
    <nd ref="96097717"/>
    <nd ref="96095683"/>
    <tag k="highway" v="secondary"/>
    <tag k="name" v="Sherbrooke Road"/>
    <tag k="oneway" v="yes"/>
  </way>
  <way id="10812155" version="4" timestamp="2010-02-15T06:57:37Z" uid="74617" user="JohnSmith" changeset="3880463">
    <nd ref="96095687"/>
    <nd ref="96098282"/>
    <nd ref="96098283"/>
    <nd ref="96098284"/>
    <tag k="highway" v="tertiary"/>
    <tag k="name" v="Sherbrooke Road"/>
    <tag k="oneway" v="yes"/>
  </way>
  <way id="10812155" version="5" timestamp="2011-02-12T10:24:39Z" uid="4467" user="Rosscoe" changeset="7263105">
    <nd ref="1148820861"/>
    <nd ref="96098282"/>
    <nd ref="1148820793"/>
    <nd ref="96098284"/>
    <tag k="highway" v="tertiary"/>
    <tag k="name" v="Sherbrooke Road"/>
    <tag k="oneway" v="yes"/>
  </way>
  <way id="10812174" version="4" timestamp="2010-02-15T06:57:38Z" uid="74617" user="JohnSmith" changeset="3880463">
    <nd ref="96098284"/>
    <nd ref="96098466"/>
    <nd ref="96098467"/>
    <nd ref="96098468"/>
    <nd ref="96095690"/>
    <tag k="highway" v="tertiary"/>
    <tag k="name" v="Sherbrooke Road"/>
    <tag k="oneway" v="yes"/>
  </way>
  <way id="10812174" version="5" timestamp="2011-02-12T10:24:41Z" uid="4467" user="Rosscoe" changeset="7263105">
    <nd ref="96098284"/>
    <nd ref="1148820824"/>
    <nd ref="96098468"/>
    <nd ref="96095690"/>
    <tag k="highway" v="tertiary"/>
    <tag k="name" v="Sherbrooke Road"/>
    <tag k="oneway" v="yes"/>
  </way>
  <way id="10812189" version="5" timestamp="2010-02-15T06:53:07Z" uid="74617" user="JohnSmith" changeset="3880463">
    <nd ref="96098284"/>
    <nd ref="96098556"/>
    <nd ref="96099400"/>
    <tag k="highway" v="tertiary"/>
    <tag k="name" v="Sherbrooke Road"/>
  </way>
  <way id="10812543" version="7" timestamp="2007-11-17T18:48:51Z" uid="8328" user="benpre" changeset="545740">
    <nd ref="35514557"/>
    <nd ref="96141540"/>
    <nd ref="35514390"/>
    <nd ref="35514661"/>
    <nd ref="94151281"/>
    <nd ref="361088"/>
    <nd ref="17809150"/>
    <nd ref="361087"/>
    <nd ref="94141553"/>
    <nd ref="361085"/>
    <tag k="created_by" v="Potlatch 0.4c"/>
    <tag k="highway" v="secondary"/>
    <tag k="name" v="Rue du faubourg du temple"/>
  </way>
  <way id="10812543" version="10" timestamp="2007-11-24T03:31:03Z" uid="1308" user="Thomas Walraet" changeset="608463">
    <nd ref="35514557"/>
    <nd ref="123457142"/>
    <nd ref="96141540"/>
    <nd ref="35514390"/>
    <nd ref="35514661"/>
    <nd ref="94151281"/>
    <nd ref="361088"/>
    <nd ref="17809150"/>
    <nd ref="361087"/>
    <nd ref="94141547"/>
    <nd ref="361085"/>
    <tag k="created_by" v="Potlatch 0.5c"/>
    <tag k="highway" v="secondary"/>
    <tag k="name" v="Rue du faubourg du temple"/>
  </way>
  <way id="10812543" version="11" timestamp="2007-11-25T14:27:30Z" uid="10927" user="Skywave" changeset="614561">
    <nd ref="35514557"/>
    <nd ref="123457136"/>
    <nd ref="96141540"/>
    <nd ref="35514390"/>
    <nd ref="35514661"/>
    <nd ref="94151281"/>
    <nd ref="361088"/>
    <nd ref="17809150"/>
    <nd ref="361087"/>
    <nd ref="94141547"/>
    <nd ref="361085"/>
    <tag k="created_by" v="Potlatch 0.5c"/>
    <tag k="highway" v="secondary"/>
    <tag k="name" v="Rue du faubourg du temple"/>
  </way>
  <way id="10812543" version="12" timestamp="2007-12-05T23:23:25Z" uid="18744" user="STA" changeset="108190">
    <nd ref="35514557"/>
    <nd ref="123457136"/>
    <nd ref="96141540"/>
    <nd ref="35514390"/>
    <nd ref="35514661"/>
    <nd ref="94151281"/>
    <nd ref="151357310"/>
    <nd ref="361088"/>
    <nd ref="17809150"/>
    <nd ref="361087"/>
    <nd ref="94141547"/>
    <nd ref="361085"/>
    <tag k="created_by" v="Potlatch 0.5d"/>
    <tag k="highway" v="secondary"/>
    <tag k="name" v="Rue du faubourg du temple"/>
  </way>
  <way id="10812543" version="13" timestamp="2007-12-19T20:31:49Z" uid="18744" user="STA" changeset="362390">
    <nd ref="35514557"/>
    <nd ref="123457136"/>
    <nd ref="96141540"/>
    <nd ref="35514390"/>
    <nd ref="35514661"/>
    <nd ref="94151281"/>
    <nd ref="151357310"/>
    <nd ref="361088"/>
    <nd ref="17809150"/>
    <nd ref="361087"/>
    <nd ref="94141547"/>
    <nd ref="361085"/>
    <tag k="created_by" v="Potlatch 0.5d"/>
    <tag k="highway" v="secondary"/>
    <tag k="name" v="Rue du faubourg du temple"/>
  </way>
  <way id="10812543" version="14" timestamp="2008-01-05T06:17:57Z" uid="1679" user="andrewpmk" changeset="545256">
    <nd ref="35514557"/>
    <nd ref="123457136"/>
    <nd ref="96141540"/>
    <nd ref="35514390"/>
    <nd ref="35514661"/>
    <nd ref="94151281"/>
    <nd ref="151357310"/>
    <nd ref="361088"/>
    <nd ref="17809150"/>
    <nd ref="361087"/>
    <nd ref="94141547"/>
    <nd ref="361085"/>
    <tag k="created_by" v="Potlatch 0.6a"/>
    <tag k="highway" v="secondary"/>
    <tag k="name" v="Rue du Faubourg du Temple"/>
  </way>
  <way id="10812543" version="15" timestamp="2008-01-15T01:50:57Z" uid="24335" user="Oingo" changeset="644315">
    <nd ref="35514557"/>
    <nd ref="123457136"/>
    <nd ref="96141540"/>
    <nd ref="35514390"/>
    <nd ref="35514661"/>
    <nd ref="94151281"/>
    <nd ref="151357310"/>
    <nd ref="361088"/>
    <nd ref="17809150"/>
    <nd ref="361087"/>
    <nd ref="94141547"/>
    <nd ref="361085"/>
    <tag k="created_by" v="Potlatch 0.6a"/>
    <tag k="highway" v="secondary"/>
    <tag k="name" v="Rue du Faubourg du Temple"/>
  </way>
  <way id="10812543" version="16" timestamp="2008-01-15T01:57:15Z" uid="1679" user="andrewpmk" changeset="637785">
    <nd ref="35514557"/>
    <nd ref="123457136"/>
    <nd ref="96141540"/>
    <nd ref="35514390"/>
    <nd ref="35514661"/>
    <nd ref="94151281"/>
    <nd ref="151357310"/>
    <nd ref="361088"/>
    <nd ref="17809150"/>
    <nd ref="361087"/>
    <nd ref="94141547"/>
    <nd ref="361085"/>
    <tag k="created_by" v="Potlatch 0.6a"/>
    <tag k="highway" v="secondary"/>
    <tag k="name" v="Rue du Faubourg du Temple"/>
  </way>
  <way id="10812543" version="17" timestamp="2008-02-09T22:51:40Z" uid="18744" user="STA" changeset="92859">
    <nd ref="35514557"/>
    <nd ref="123457136"/>
    <nd ref="96141540"/>
    <nd ref="35514390"/>
    <nd ref="246849051"/>
    <nd ref="35514661"/>
    <nd ref="94151281"/>
    <nd ref="151357310"/>
    <nd ref="361088"/>
    <nd ref="17809150"/>
    <nd ref="361087"/>
    <nd ref="94141547"/>
    <nd ref="361085"/>
    <tag k="created_by" v="Potlatch 0.7"/>
    <tag k="highway" v="secondary"/>
    <tag k="name" v="Rue du Faubourg du Temple"/>
  </way>
  <way id="10812543" version="18" timestamp="2008-03-05T08:04:45Z" uid="29559" user="Patrice" changeset="269483">
    <nd ref="35514557"/>
    <nd ref="123457136"/>
    <nd ref="96141540"/>
    <nd ref="35514390"/>
    <nd ref="246849051"/>
    <nd ref="35514661"/>
    <nd ref="94151281"/>
    <nd ref="151357310"/>
    <nd ref="361088"/>
    <nd ref="17809150"/>
    <nd ref="361087"/>
    <nd ref="94141547"/>
    <nd ref="361085"/>
    <tag k="created_by" v="Potlatch 0.7b"/>
    <tag k="highway" v="secondary"/>
    <tag k="name" v="Rue du Faubourg du Temple"/>
  </way>
  <way id="10812543" version="19" timestamp="2008-03-18T21:01:05Z" uid="29559" user="Patrice" changeset="348674">
    <nd ref="35514557"/>
    <nd ref="123457136"/>
    <nd ref="96141540"/>
    <nd ref="35514390"/>
    <nd ref="246849051"/>
    <nd ref="35514661"/>
    <nd ref="252805659"/>
    <nd ref="94151281"/>
    <nd ref="151357310"/>
    <nd ref="361088"/>
    <nd ref="17809150"/>
    <nd ref="361087"/>
    <nd ref="94141547"/>
    <nd ref="361085"/>
    <tag k="created_by" v="Potlatch 0.7b"/>
    <tag k="highway" v="secondary"/>
    <tag k="name" v="Rue du Faubourg du Temple"/>
  </way>
  <way id="10812543" version="20" timestamp="2008-04-08T14:42:10Z" uid="33634" user="lapinos03" changeset="84474">
    <nd ref="35514557"/>
    <nd ref="123457136"/>
    <nd ref="256419065"/>
    <nd ref="96141540"/>
    <nd ref="35514390"/>
    <nd ref="246849051"/>
    <nd ref="35514661"/>
    <nd ref="252805659"/>
    <nd ref="94151281"/>
    <nd ref="151357310"/>
    <nd ref="361088"/>
    <nd ref="17809150"/>
    <nd ref="361087"/>
    <nd ref="94141547"/>
    <nd ref="361085"/>
    <tag k="created_by" v="Potlatch 0.8a"/>
    <tag k="highway" v="secondary"/>
    <tag k="name" v="Rue du Faubourg du Temple"/>
  </way>
  <way id="10812543" version="21" timestamp="2008-04-09T16:25:49Z" uid="33634" user="lapinos03" changeset="93794">
    <nd ref="35514557"/>
    <nd ref="123457136"/>
    <nd ref="256419065"/>
    <nd ref="96141540"/>
    <nd ref="35514390"/>
    <nd ref="246849051"/>
    <nd ref="35514661"/>
    <nd ref="252805659"/>
    <nd ref="94151281"/>
    <nd ref="151357310"/>
    <nd ref="361088"/>
    <nd ref="17809150"/>
    <nd ref="361087"/>
    <nd ref="94141547"/>
    <tag k="created_by" v="Potlatch 0.8a"/>
    <tag k="highway" v="secondary"/>
    <tag k="name" v="Rue du Faubourg du Temple"/>
    <tag k="oneway" v="yes"/>
  </way>
  <way id="10812543" version="22" timestamp="2008-04-09T16:25:53Z" uid="33634" user="lapinos03" changeset="93794">
    <nd ref="35514557"/>
    <nd ref="123457136"/>
    <nd ref="256419065"/>
    <nd ref="96141540"/>
    <nd ref="35514390"/>
    <nd ref="246849051"/>
    <nd ref="35514661"/>
    <nd ref="252805659"/>
    <nd ref="94151281"/>
    <nd ref="151357310"/>
    <nd ref="361088"/>
    <nd ref="17809150"/>
    <tag k="created_by" v="Potlatch 0.8a"/>
    <tag k="highway" v="secondary"/>
    <tag k="name" v="Rue du Faubourg du Temple"/>
    <tag k="oneway" v="yes"/>
  </way>
  <way id="10812543" version="23" timestamp="2008-04-09T16:25:58Z" uid="33634" user="lapinos03" changeset="93794">
    <nd ref="35514557"/>
    <nd ref="123457136"/>
    <nd ref="256419065"/>
    <nd ref="96141540"/>
    <nd ref="35514390"/>
    <nd ref="246849051"/>
    <nd ref="35514661"/>
    <nd ref="252805659"/>
    <nd ref="94151281"/>
    <nd ref="151357310"/>
    <nd ref="361088"/>
    <tag k="created_by" v="Potlatch 0.8a"/>
    <tag k="highway" v="secondary"/>
    <tag k="name" v="Rue du Faubourg du Temple"/>
    <tag k="oneway" v="yes"/>
  </way>
  <way id="10812543" version="24" timestamp="2008-04-09T16:26:02Z" uid="33634" user="lapinos03" changeset="93794">
    <nd ref="35514557"/>
    <nd ref="123457136"/>
    <nd ref="256419065"/>
    <nd ref="96141540"/>
    <nd ref="35514390"/>
    <nd ref="246849051"/>
    <nd ref="35514661"/>
    <tag k="created_by" v="Potlatch 0.8a"/>
    <tag k="highway" v="secondary"/>
    <tag k="name" v="Rue du Faubourg du Temple"/>
    <tag k="oneway" v="yes"/>
  </way>
  <way id="10812543" version="25" timestamp="2008-04-09T16:26:16Z" uid="33634" user="lapinos03" changeset="93794">
    <nd ref="35514557"/>
    <nd ref="123457136"/>
    <nd ref="256419065"/>
    <nd ref="96141540"/>
    <nd ref="35514390"/>
    <tag k="created_by" v="Potlatch 0.8a"/>
    <tag k="highway" v="secondary"/>
    <tag k="name" v="Rue du Faubourg du Temple"/>
    <tag k="oneway" v="yes"/>
  </way>
  <way id="10812543" version="26" timestamp="2008-04-30T12:42:26Z" uid="33634" user="lapinos03" changeset="291620"/>
  <way id="10812562" version="4" timestamp="2010-02-15T06:57:31Z" uid="74617" user="JohnSmith" changeset="3880463">
    <nd ref="84352384"/>
    <nd ref="96100865"/>
    <nd ref="96100866"/>
    <nd ref="96100867"/>
    <nd ref="96100868"/>
    <nd ref="96100869"/>
    <nd ref="96100870"/>
    <tag k="highway" v="secondary"/>
    <tag k="name" v="Learoyd Road"/>
    <tag k="oneway" v="yes"/>
  </way>
  <way id="10812646" version="3" timestamp="2010-02-15T06:58:36Z" uid="74617" user="JohnSmith" changeset="3880463">
    <nd ref="96100870"/>
    <nd ref="96101253"/>
    <nd ref="96101254"/>
    <nd ref="96101256"/>
    <nd ref="96101257"/>
    <nd ref="96101258"/>
    <nd ref="96101259"/>
    <nd ref="96101261"/>
    <nd ref="96101262"/>
    <nd ref="96101263"/>
    <nd ref="96101264"/>
    <nd ref="96101266"/>
    <nd ref="96100870"/>
    <tag k="highway" v="secondary"/>
    <tag k="junction" v="roundabout"/>
    <tag k="name" v="Learoyd Road"/>
  </way>
  <way id="10812727" version="4" timestamp="2010-02-15T06:57:31Z" uid="74617" user="JohnSmith" changeset="3880463">
    <nd ref="96101263"/>
    <nd ref="96101681"/>
    <nd ref="96101682"/>
    <nd ref="96101683"/>
    <nd ref="96101684"/>
    <nd ref="84352384"/>
    <tag k="highway" v="secondary"/>
    <tag k="name" v="Learoyd Road"/>
    <tag k="oneway" v="yes"/>
  </way>
  <way id="10812879" version="4" timestamp="2010-02-15T06:58:36Z" uid="74617" user="JohnSmith" changeset="3880463">
    <nd ref="96100870"/>
    <nd ref="96102530"/>
    <nd ref="96102531"/>
    <nd ref="96102532"/>
    <tag k="highway" v="tertiary"/>
    <tag k="name" v="Watson Road"/>
    <tag k="oneway" v="yes"/>
  </way>
  <way id="10812880" version="3" timestamp="2010-02-15T06:58:36Z" uid="74617" user="JohnSmith" changeset="3880463">
    <nd ref="96102532"/>
    <nd ref="96102584"/>
    <nd ref="96102585"/>
    <nd ref="96101256"/>
    <tag k="highway" v="tertiary"/>
    <tag k="name" v="Watson Road"/>
    <tag k="oneway" v="yes"/>
  </way>
  <way id="10812017" version="6" timestamp="2012-07-20T07:58:18Z" uid="722137" user="OSMF Redaction Account" changeset="12367142">
    <nd ref="96097409"/>
    <nd ref="96097410"/>
    <nd ref="84351359"/>
    <tag k="highway" v="secondary"/>
    <tag k="name" v="King Avenue"/>
    <tag k="oneway" v="yes"/>
  </way>
  <way id="10812017" version="7" timestamp="2012-08-26T06:58:31Z" uid="67896" user="mrpulley" changeset="12862655">
    <nd ref="96095690"/>
    <nd ref="96097409"/>
    <nd ref="96097410"/>
    <nd ref="84351359"/>
    <tag k="highway" v="secondary"/>
    <tag k="name" v="King Avenue"/>
    <tag k="network" v="S"/>
    <tag k="oneway" v="yes"/>
    <tag k="ref" v="30"/>
  </way>
  <way id="10812155" version="6" timestamp="2012-07-20T07:57:50Z" uid="722137" user="OSMF Redaction Account" changeset="12367142">
    <nd ref="96098282"/>
    <nd ref="96098284"/>
    <tag k="highway" v="tertiary"/>
    <tag k="name" v="Sherbrooke Road"/>
    <tag k="oneway" v="yes"/>
  </way>
  <way id="10812155" version="7" timestamp="2012-08-26T06:58:55Z" uid="67896" user="mrpulley" changeset="12862655">
    <nd ref="96095687"/>
    <nd ref="96098282"/>
    <nd ref="96098284"/>
    <tag k="highway" v="tertiary"/>
    <tag k="name" v="Sherbrooke Road"/>
    <tag k="oneway" v="yes"/>
  </way>
  <way id="10812174" version="6" timestamp="2012-07-20T07:57:53Z" uid="722137" user="OSMF Redaction Account" changeset="12367142">
    <nd ref="96098284"/>
    <nd ref="96098468"/>
    <nd ref="96095690"/>
    <tag k="highway" v="tertiary"/>
    <tag k="name" v="Sherbrooke Road"/>
    <tag k="oneway" v="yes"/>
  </way>
</osm>
