<?xml version='1.0' encoding='UTF-8'?>
<osm version="0.6" generator="libosmium/2.20.0">
  <way id="10828035" version="3" timestamp="2010-07-08T00:24:10Z" uid="74617" user="JohnSmith" changeset="5162525">
    <nd ref="96233472"/>
    <nd ref="96233974"/>
    <nd ref="96233975"/>
    <nd ref="96233976"/>
    <tag k="highway" v="residential"/>
    <tag k="maxspeed" v="50"/>
    <tag k="maxspeed:source" v="default residential speed limit in Australia"/>
    <tag k="name" v="Iluka Place"/>
  </way>
  <way id="10828035" version="4" timestamp="2012-01-15T10:14:10Z" uid="147510" user="woodpeck_fixbot" changeset="10395278">
    <nd ref="96233472"/>
    <nd ref="96233974"/>
    <nd ref="96233975"/>
    <nd ref="96233976"/>
    <tag k="highway" v="residential"/>
    <tag k="name" v="Iluka Place"/>
  </way>
  <way id="10828074" version="2" timestamp="2010-01-11T08:52:19Z" uid="30201" user="rrankin" changeset="3594189"/>
  <way id="10828075" version="2" timestamp="2009-12-04T05:16:29Z" uid="30201" user="rrankin" changeset="3285963">
    <nd ref="96234039"/>
    <nd ref="96223733"/>
    <nd ref="96234042"/>
    <tag k="highway" v="unclassified"/>
    <tag k="name" v="Westbourne Street"/>
    <tag k="source" v="yahoo_imagery"/>
    <tag k="source:name" v="historical"/>
  </way>
  <way id="10828075" version="3" timestamp="2010-01-18T22:07:13Z" uid="30201" user="rrankin" changeset="3654668">
    <nd ref="96234039"/>
    <nd ref="616470457"/>
    <tag k="highway" v="unclassified"/>
    <tag k="name" v="Westbourne Street"/>
    <tag k="source" v="yahoo_imagery"/>
    <tag k="source:name" v="historical"/>
  </way>
  <way id="10828075" version="4" timestamp="2010-02-13T16:40:48Z" uid="61114" user="Trav" changeset="3866249">
    <nd ref="96234039"/>
    <nd ref="638552446"/>
    <nd ref="616470457"/>
    <tag k="highway" v="unclassified"/>
    <tag k="name" v="Westbourne Street"/>
    <tag k="source" v="yahoo_imagery"/>
    <tag k="source:name" v="historical"/>
  </way>
  <way id="10828075" version="5" timestamp="2010-03-13T08:23:05Z" uid="61114" user="Trav" changeset="4112395">
    <nd ref="96234039"/>
    <nd ref="638552446"/>
    <nd ref="665066954"/>
    <tag k="highway" v="unclassified"/>
    <tag k="name" v="Westbourne Street"/>
    <tag k="source" v="yahoo_imagery"/>
    <tag k="source:name" v="historical"/>
  </way>
  <way id="10828075" version="6" timestamp="2010-03-14T13:07:14Z" uid="7617" user="Franc" changeset="4124127">
    <nd ref="665877044"/>
    <nd ref="96234039"/>
    <nd ref="638552446"/>
    <nd ref="665066954"/>
    <tag k="highway" v="unclassified"/>
    <tag k="name" v="Westbourne Street"/>
    <tag k="source" v="yahoo_imagery"/>
    <tag k="source:name" v="historical"/>
  </way>
  <way id="10828075" version="7" timestamp="2012-02-09T05:25:54Z" uid="7523" user="inas" changeset="10630815">
    <nd ref="1624774032"/>
    <nd ref="96234039"/>
    <nd ref="638552446"/>
    <nd ref="665066954"/>
    <tag k="highway" v="unclassified"/>
    <tag k="name" v="Westbourne Street"/>
    <tag k="source" v="yahoo_imagery"/>
    <tag k="source:name" v="historical"/>
  </way>
  <way id="10828076" version="2" timestamp="2009-05-24T03:06:29Z" uid="61114" user="Trav" changeset="1301070">
    <nd ref="96234045"/>
    <nd ref="96234060"/>
    <tag k="abutters" v="residential"/>
    <tag k="highway" v="residential"/>
    <tag k="name" v="15 Herbert Street"/>
    <tag k="source" v="yahoo_imagery"/>
  </way>
  <way id="10828076" version="3" timestamp="2009-06-24T01:27:19Z" uid="135161" user="AusRick" changeset="1607366">
    <nd ref="96234045"/>
    <nd ref="96234060"/>
    <tag k="highway" v="service"/>
    <tag k="name" v="Herbert Street"/>
  </way>
  <way id="10828082" version="2" timestamp="2009-12-04T05:16:30Z" uid="30201" user="rrankin" changeset="3285963">
    <nd ref="96234076"/>
    <nd ref="96234084"/>
    <tag k="highway" v="unclassified"/>
    <tag k="name" v="Frederick Street"/>
    <tag k="source" v="yahoo_imagery"/>
    <tag k="source:name" v="historical"/>
  </way>
  <way id="10828086" version="3" timestamp="2009-12-04T05:16:40Z" uid="30201" user="rrankin" changeset="3285963">
    <nd ref="96234089"/>
    <nd ref="246788892"/>
    <nd ref="96234098"/>
    <tag k="highway" v="unclassified"/>
    <tag k="name" v="Punch Street"/>
    <tag k="source" v="yahoo_imagery"/>
    <tag k="source:name" v="historical"/>
  </way>
  <way id="10828086" version="4" timestamp="2010-01-12T11:33:17Z" uid="61114" user="Trav" changeset="3602366">
    <nd ref="96234089"/>
    <nd ref="246788892"/>
    <nd ref="612087872"/>
    <nd ref="96234098"/>
    <tag k="highway" v="unclassified"/>
    <tag k="name" v="Punch Street"/>
    <tag k="source" v="yahoo_imagery"/>
    <tag k="source:name" v="historical"/>
  </way>
  <way id="10828089" version="3" timestamp="2009-12-04T05:16:40Z" uid="30201" user="rrankin" changeset="3285963">
    <nd ref="96234098"/>
    <nd ref="96240194"/>
    <nd ref="96234110"/>
    <nd ref="96234120"/>
    <tag k="highway" v="unclassified"/>
    <tag k="name" v="Lambs Road"/>
    <tag k="source" v="yahoo_imagery"/>
    <tag k="source:name" v="historical"/>
  </way>
  <way id="10828089" version="4" timestamp="2010-01-12T11:33:19Z" uid="61114" user="Trav" changeset="3602366">
    <nd ref="96234098"/>
    <nd ref="612087876"/>
    <nd ref="96240194"/>
    <nd ref="96234110"/>
    <nd ref="96234120"/>
    <tag k="highway" v="unclassified"/>
    <tag k="name" v="Lambs Road"/>
    <tag k="source" v="yahoo_imagery"/>
    <tag k="source:name" v="historical"/>
  </way>
  <way id="10828089" version="5" timestamp="2010-03-01T01:48:01Z" uid="7617" user="Franc" changeset="4005308">
    <nd ref="96234098"/>
    <nd ref="612087876"/>
    <nd ref="96240194"/>
    <nd ref="96234110"/>
    <nd ref="657067107"/>
    <nd ref="96234120"/>
    <tag k="highway" v="unclassified"/>
    <tag k="name" v="Lambs Road"/>
    <tag k="source" v="yahoo_imagery"/>
    <tag k="source:name" v="historical"/>
  </way>
  <way id="10828091" version="2" timestamp="2009-12-04T05:16:40Z" uid="30201" user="rrankin" changeset="3285963">
    <nd ref="96234120"/>
    <nd ref="96234135"/>
    <tag k="bridge" v="yes"/>
    <tag k="highway" v="unclassified"/>
    <tag k="name" v="Lambs Road"/>
    <tag k="source" v="yahoo_imagery"/>
    <tag k="source:name" v="historical"/>
  </way>
  <way id="10828091" version="3" timestamp="2010-07-10T08:13:40Z" uid="4467" user="Rosscoe" changeset="5180195">
    <nd ref="96234120"/>
    <nd ref="809652996"/>
    <nd ref="96234135"/>
    <tag k="bridge" v="yes"/>
    <tag k="highway" v="unclassified"/>
    <tag k="layer" v="1"/>
    <tag k="name" v="Lambs Road"/>
    <tag k="source" v="nearmap"/>
    <tag k="source:name" v="historical"/>
  </way>
  <way id="10828093" version="3" timestamp="2009-12-04T05:16:40Z" uid="30201" user="rrankin" changeset="3285963">
    <nd ref="96234135"/>
    <nd ref="96234143"/>
    <tag k="highway" v="unclassified"/>
    <tag k="name" v="Lambs Road"/>
    <tag k="source" v="yahoo_imagery"/>
    <tag k="source:name" v="historical"/>
  </way>
  <way id="10828097" version="2" timestamp="2010-02-11T08:43:10Z" uid="9719" user="dvaey" changeset="3846096">
    <nd ref="19978869"/>
    <nd ref="19978864"/>
    <nd ref="26409010"/>
    <nd ref="19978859"/>
    <nd ref="19978854"/>
    <nd ref="13877593"/>
    <tag k="layer" v="-1"/>
    <tag k="name" v="North Shore Line"/>
    <tag k="railway" v="rail"/>
  </way>
  <way id="10828097" version="3" timestamp="2010-02-11T08:44:27Z" uid="9719" user="dvaey" changeset="3846096">
    <nd ref="19978869"/>
    <nd ref="19978864"/>
    <nd ref="26409010"/>
    <nd ref="19978859"/>
    <nd ref="19978854"/>
    <nd ref="635726470"/>
    <nd ref="635726471"/>
    <nd ref="635726472"/>
    <nd ref="13877593"/>
    <tag k="name" v="North Shore Line"/>
    <tag k="railway" v="rail"/>
  </way>
  <way id="10828097" version="4" timestamp="2010-02-12T09:42:02Z" uid="74617" user="JohnSmith" changeset="3854774">
    <nd ref="19978869"/>
    <nd ref="19978864"/>
    <nd ref="26409010"/>
    <nd ref="19978859"/>
    <nd ref="19978854"/>
    <nd ref="635726470"/>
    <nd ref="635726471"/>
    <nd ref="635726472"/>
    <nd ref="13877593"/>
    <tag k="railway" v="rail"/>
    <tag k="source" v="nearmap"/>
  </way>
  <way id="10828097" version="5" timestamp="2010-02-12T09:52:07Z" uid="74617" user="JohnSmith" changeset="3854814">
    <nd ref="19978869"/>
    <nd ref="636873768"/>
    <nd ref="19978864"/>
    <nd ref="636873761"/>
    <nd ref="636873762"/>
    <nd ref="26409010"/>
    <nd ref="636873744"/>
    <nd ref="636873743"/>
    <nd ref="636873741"/>
    <nd ref="636873742"/>
    <nd ref="636873737"/>
    <nd ref="636873738"/>
    <nd ref="19978859"/>
    <nd ref="636873732"/>
    <nd ref="19978854"/>
    <nd ref="636873750"/>
    <nd ref="635726470"/>
    <nd ref="635726471"/>
    <nd ref="635726472"/>
    <nd ref="13877593"/>
    <tag k="railway" v="rail"/>
    <tag k="source" v="nearmap"/>
  </way>
  <way id="10828097" version="6" timestamp="2011-12-23T09:45:36Z" uid="77586" user="wolftracker" changeset="10185720"/>
  <way id="10828035" version="5" timestamp="2012-08-19T07:42:22Z" uid="408202" user="BFX" changeset="12780147">
    <nd ref="96233472"/>
    <nd ref="96233974"/>
    <nd ref="96233975"/>
    <nd ref="1872324889"/>
    <nd ref="96233976"/>
    <tag k="highway" v="residential"/>
    <tag k="name" v="Iluka Place"/>
  </way>
  <way id="10828075" version="8" timestamp="2012-04-14T21:30:00Z" uid="104101" user="swanilli" changeset="11304169">
    <nd ref="1624774032"/>
    <nd ref="96234039"/>
    <nd ref="1716919274"/>
    <nd ref="1716919273"/>
    <nd ref="638552446"/>
    <nd ref="665066954"/>
    <tag k="highway" v="unclassified"/>
    <tag k="name" v="Westbourne Street"/>
    <tag k="source" v="yahoo_imagery"/>
    <tag k="source:name" v="historical"/>
  </way>
  <way id="10828075" version="9" timestamp="2012-07-19T23:09:22Z" uid="722137" user="OSMF Redaction Account" changeset="12351313">
    <nd ref="1624774032"/>
    <nd ref="96234039"/>
    <nd ref="1716919274"/>
    <nd ref="1716919273"/>
    <tag k="highway" v="unclassified"/>
    <tag k="name" v="Westbourne Street"/>
    <tag k="source" v="yahoo_imagery"/>
    <tag k="source:name" v="historical"/>
  </way>
  <way id="10828075" version="10" timestamp="2012-07-29T21:05:28Z" uid="104101" user="swanilli" changeset="12540676">
    <nd ref="1624774032"/>
    <nd ref="96234039"/>
    <nd ref="1716919274"/>
    <nd ref="1716919273"/>
    <nd ref="665066954"/>
    <nd ref="616470459"/>
    <nd ref="96223733"/>
    <nd ref="766159975"/>
    <nd ref="96234042"/>
    <tag k="highway" v="unclassified"/>
    <tag k="name" v="Westbourne Street"/>
    <tag k="source" v="yahoo_imagery"/>
    <tag k="source:name" v="historical"/>
  </way>
  <way id="10828075" version="11" timestamp="2012-07-31T11:53:57Z" uid="11321" user="Pecisk" changeset="12560239">
    <nd ref="1624774032"/>
    <nd ref="96234039"/>
    <nd ref="1716919274"/>
    <nd ref="1716919273"/>
    <nd ref="665066954"/>
    <nd ref="616470459"/>
    <nd ref="96223733"/>
    <nd ref="766159975"/>
    <nd ref="1845228447"/>
    <nd ref="96234042"/>
    <tag k="highway" v="unclassified"/>
    <tag k="name" v="Westbourne Street"/>
    <tag k="source" v="yahoo_imagery"/>
    <tag k="source:name" v="historical"/>
  </way>
  <way id="10828082" version="3" timestamp="2012-07-19T09:15:08Z" uid="713671" user="auspod" changeset="12314663">
    <nd ref="1830562100"/>
    <nd ref="96234084"/>
    <tag k="highway" v="unclassified"/>
    <tag k="name" v="Frederick Street"/>
    <tag k="source" v="yahoo_imagery"/>
    <tag k="source:name" v="historical"/>
  </way>
  <way id="10828086" version="5" timestamp="2012-07-19T21:31:21Z" uid="722137" user="OSMF Redaction Account" changeset="12348236">
    <nd ref="96234089"/>
    <nd ref="246788892"/>
    <nd ref="96234098"/>
    <tag k="highway" v="unclassified"/>
    <tag k="name" v="Punch Street"/>
    <tag k="source" v="yahoo_imagery"/>
    <tag k="source:name" v="historical"/>
  </way>
  <way id="10828086" version="6" timestamp="2012-08-02T23:07:50Z" uid="7523" user="inas" changeset="12592130">
    <nd ref="96234089"/>
    <nd ref="246788892"/>
    <nd ref="1849111397"/>
    <nd ref="1849111395"/>
    <nd ref="1849111394"/>
    <nd ref="96234098"/>
    <tag k="highway" v="unclassified"/>
    <tag k="name" v="Punch Street"/>
    <tag k="source" v="yahoo_imagery"/>
    <tag k="source:name" v="historical"/>
  </way>
  <way id="10828089" version="6" timestamp="2012-07-19T21:31:21Z" uid="722137" user="OSMF Redaction Account" changeset="12348236">
    <nd ref="96234098"/>
    <nd ref="96240194"/>
    <nd ref="96234110"/>
    <nd ref="96234120"/>
    <tag k="highway" v="unclassified"/>
    <tag k="name" v="Lambs Road"/>
    <tag k="source" v="yahoo_imagery"/>
    <tag k="source:name" v="historical"/>
  </way>
  <way id="10828089" version="7" timestamp="2012-07-31T11:53:47Z" uid="11321" user="Pecisk" changeset="12560239">
    <nd ref="96234098"/>
    <nd ref="96240194"/>
    <nd ref="96234110"/>
    <nd ref="1845228113"/>
    <nd ref="96234120"/>
    <tag k="highway" v="unclassified"/>
    <tag k="name" v="Lambs Road"/>
    <tag k="source" v="yahoo_imagery"/>
    <tag k="source:name" v="historical"/>
  </way>
  <way id="10828089" version="8" timestamp="2012-08-02T23:07:50Z" uid="7523" user="inas" changeset="12592130">
    <nd ref="96234098"/>
    <nd ref="1849111396"/>
    <nd ref="96240194"/>
    <nd ref="96234110"/>
    <nd ref="1845228113"/>
    <nd ref="96234120"/>
    <tag k="highway" v="unclassified"/>
    <tag k="name" v="Lambs Road"/>
    <tag k="source" v="yahoo_imagery"/>
    <tag k="source:name" v="historical"/>
  </way>
  <way id="10828091" version="4" timestamp="2012-07-19T21:31:23Z" uid="722137" user="OSMF Redaction Account" changeset="12348236">
    <nd ref="96234120"/>
    <nd ref="96234135"/>
    <tag k="bridge" v="yes"/>
    <tag k="highway" v="unclassified"/>
    <tag k="name" v="Lambs Road"/>
    <tag k="source" v="yahoo_imagery"/>
    <tag k="source:name" v="historical"/>
  </way>
  <way id="10828091" version="5" timestamp="2012-08-02T23:07:50Z" uid="7523" user="inas" changeset="12592130">
    <nd ref="96234120"/>
    <nd ref="96234135"/>
    <tag k="bridge" v="yes"/>
    <tag k="highway" v="unclassified"/>
    <tag k="layer" v="1"/>
    <tag k="name" v="Lambs Road"/>
    <tag k="source" v="yahoo_imagery"/>
    <tag k="source:name" v="historical"/>
  </way>
</osm>
