<?xml version='1.0' encoding='UTF-8'?>
<osm version="0.6" generator="libosmium/2.20.0">
  <way id="10829450" version="2" timestamp="2010-02-18T08:13:12Z" uid="7617" user="Franc" changeset="3906977">
    <nd ref="96234910"/>
    <nd ref="96240072"/>
    <nd ref="644590006"/>
    <nd ref="96240073"/>
    <tag k="highway" v="residential"/>
    <tag k="name" v="Joalah Close"/>
  </way>
  <way id="10829450" version="3" timestamp="2010-07-08T00:26:42Z" uid="74617" user="JohnSmith" changeset="5162525">
    <nd ref="96234910"/>
    <nd ref="96240072"/>
    <nd ref="644590006"/>
    <nd ref="96240073"/>
    <tag k="highway" v="residential"/>
    <tag k="maxspeed" v="50"/>
    <tag k="maxspeed:source" v="default residential speed limit in Australia"/>
    <tag k="name" v="Joalah Close"/>
  </way>
  <way id="10829450" version="4" timestamp="2012-01-15T10:14:11Z" uid="147510" user="woodpeck_fixbot" changeset="10395278">
    <nd ref="96234910"/>
    <nd ref="96240072"/>
    <nd ref="644590006"/>
    <nd ref="96240073"/>
    <tag k="highway" v="residential"/>
    <tag k="name" v="Joalah Close"/>
  </way>
  <way id="10829475" version="3" timestamp="2008-08-26T14:06:15Z" uid="61114" user="Trav" changeset="422447">
    <nd ref="96240187"/>
    <nd ref="291271227"/>
    <tag k="abutters" v="industrial"/>
    <tag k="created_by" v="Potlatch 0.9a"/>
    <tag k="highway" v="footway"/>
    <tag k="name" v="Cleg Street"/>
    <tag k="source" v="yahoo_imagery"/>
    <tag k="source:name" v="survey"/>
  </way>
  <way id="10829475" version="4" timestamp="2009-12-04T05:16:30Z" uid="30201" user="rrankin" changeset="3285963">
    <nd ref="96240187"/>
    <nd ref="291271227"/>
    <tag k="highway" v="footway"/>
    <tag k="name" v="Cleg Street"/>
    <tag k="source" v="yahoo_imagery"/>
    <tag k="source:name" v="survey"/>
  </way>
  <way id="10829478" version="3" timestamp="2009-12-04T05:16:27Z" uid="30201" user="rrankin" changeset="3285963">
    <nd ref="96240204"/>
    <nd ref="96251414"/>
    <nd ref="96240208"/>
    <tag k="highway" v="unclassified"/>
    <tag k="name" v="Carlotta Street"/>
    <tag k="source" v="yahoo_imagery"/>
    <tag k="source:name" v="historical"/>
  </way>
  <way id="10829478" version="4" timestamp="2010-01-11T08:52:13Z" uid="30201" user="rrankin" changeset="3594189">
    <nd ref="96240204"/>
    <nd ref="611586982"/>
    <tag k="highway" v="unclassified"/>
    <tag k="name" v="Carlotta Street"/>
    <tag k="source" v="yahoo_imagery"/>
    <tag k="source:name" v="historical"/>
  </way>
  <way id="10829478" version="5" timestamp="2010-01-11T09:37:26Z" uid="61114" user="Trav" changeset="3594449">
    <nd ref="96240204"/>
    <nd ref="611586982"/>
    <tag k="highway" v="residential"/>
    <tag k="name" v="Carlotta Street"/>
    <tag k="source" v="nearmap"/>
    <tag k="source:name" v="historical"/>
  </way>
  <way id="10829478" version="6" timestamp="2010-07-08T00:57:47Z" uid="74617" user="JohnSmith" changeset="5162525">
    <nd ref="96240204"/>
    <nd ref="611586982"/>
    <tag k="highway" v="residential"/>
    <tag k="maxspeed" v="50"/>
    <tag k="maxspeed:source" v="default residential speed limit in Australia"/>
    <tag k="name" v="Carlotta Street"/>
    <tag k="source" v="nearmap"/>
    <tag k="source:name" v="historical"/>
  </way>
  <way id="10829478" version="7" timestamp="2012-01-15T10:14:13Z" uid="147510" user="woodpeck_fixbot" changeset="10395278">
    <nd ref="96240204"/>
    <nd ref="611586982"/>
    <tag k="highway" v="residential"/>
    <tag k="name" v="Carlotta Street"/>
    <tag k="source" v="nearmap"/>
    <tag k="source:name" v="historical"/>
  </way>
  <way id="10829798" version="4" timestamp="2008-07-04T07:04:38Z" uid="6975" user="ulfl" changeset="389415">
    <nd ref="96241220"/>
    <nd ref="96241224"/>
    <nd ref="96241241"/>
    <nd ref="96241246"/>
    <nd ref="96241263"/>
    <nd ref="96241303"/>
    <nd ref="96241359"/>
    <nd ref="96241362"/>
    <nd ref="96241393"/>
    <nd ref="96241402"/>
    <nd ref="96241403"/>
    <nd ref="96241407"/>
    <nd ref="96241414"/>
    <nd ref="96241419"/>
    <nd ref="96241420"/>
    <nd ref="96241423"/>
    <nd ref="96241426"/>
    <nd ref="96241430"/>
    <nd ref="96241432"/>
    <nd ref="96241435"/>
    <nd ref="96241438"/>
    <nd ref="96241441"/>
    <nd ref="96241444"/>
    <tag k="amenity" v="parking"/>
    <tag k="source" v="survey"/>
  </way>
  <way id="10829798" version="5" timestamp="2009-09-16T21:30:07Z" uid="140789" user="amalon" changeset="2507167"/>
  <way id="10829450" version="5" timestamp="2012-07-19T19:13:35Z" uid="722137" user="OSMF Redaction Account" changeset="12344468">
    <nd ref="96234910"/>
    <nd ref="96240072"/>
    <nd ref="96240073"/>
    <tag k="highway" v="residential"/>
    <tag k="name" v="Joalah Close"/>
  </way>
  <way id="10829475" version="5" timestamp="2012-07-19T23:16:07Z" uid="722137" user="OSMF Redaction Account" changeset="12351428"/>
  <way id="10829478" version="8" timestamp="2012-07-19T23:16:07Z" uid="722137" user="OSMF Redaction Account" changeset="12351428"/>
</osm>
