<?xml version='1.0' encoding='UTF-8'?>
<osm version="0.6" generator="libosmium/2.20.0">
  <way id="10832303" version="2" timestamp="2010-07-07T23:59:47Z" uid="74617" user="JohnSmith" changeset="5162525">
    <nd ref="96251169"/>
    <nd ref="96251398"/>
    <nd ref="96251399"/>
    <nd ref="96247857"/>
    <tag k="highway" v="residential"/>
    <tag k="maxspeed" v="50"/>
    <tag k="maxspeed:source" v="default residential speed limit in Australia"/>
    <tag k="name" v="Torokina Avenue"/>
  </way>
  <way id="10832303" version="3" timestamp="2010-07-08T00:09:43Z" uid="74617" user="JohnSmith" changeset="5162525">
    <nd ref="96251169"/>
    <nd ref="96251398"/>
    <nd ref="96251399"/>
    <nd ref="96247857"/>
    <tag k="highway" v="residential"/>
    <tag k="maxspeed" v="50"/>
    <tag k="maxspeed:source" v="default residential speed limit in Australia"/>
    <tag k="name" v="Torokina Avenue"/>
  </way>
  <way id="10832303" version="4" timestamp="2012-01-15T10:14:19Z" uid="147510" user="woodpeck_fixbot" changeset="10395278">
    <nd ref="96251169"/>
    <nd ref="96251398"/>
    <nd ref="96251399"/>
    <nd ref="96247857"/>
    <tag k="highway" v="residential"/>
    <tag k="name" v="Torokina Avenue"/>
  </way>
  <way id="10832329" version="2" timestamp="2009-12-04T05:16:30Z" uid="30201" user="rrankin" changeset="3285963">
    <nd ref="96251430"/>
    <nd ref="96251414"/>
    <nd ref="33165403"/>
    <tag k="highway" v="unclassified"/>
    <tag k="name" v="Clarendon Street"/>
  </way>
  <way id="10832329" version="3" timestamp="2010-01-11T08:52:13Z" uid="30201" user="rrankin" changeset="3594189">
    <nd ref="611586972"/>
    <nd ref="611586988"/>
    <tag k="highway" v="unclassified"/>
    <tag k="name" v="Clarendon Street"/>
  </way>
  <way id="10832329" version="4" timestamp="2010-01-11T09:37:21Z" uid="61114" user="Trav" changeset="3594449">
    <nd ref="611586972"/>
    <nd ref="611586988"/>
    <tag k="highway" v="residential"/>
    <tag k="name" v="Clarendon Street"/>
    <tag k="source" v="nearmap"/>
  </way>
  <way id="10832329" version="5" timestamp="2010-07-08T01:00:51Z" uid="74617" user="JohnSmith" changeset="5162525">
    <nd ref="611586972"/>
    <nd ref="611586988"/>
    <tag k="highway" v="residential"/>
    <tag k="maxspeed" v="50"/>
    <tag k="maxspeed:source" v="default residential speed limit in Australia"/>
    <tag k="name" v="Clarendon Street"/>
    <tag k="source" v="nearmap"/>
  </way>
  <way id="10832329" version="6" timestamp="2012-01-15T10:14:20Z" uid="147510" user="woodpeck_fixbot" changeset="10395278">
    <nd ref="611586972"/>
    <nd ref="611586988"/>
    <tag k="highway" v="residential"/>
    <tag k="name" v="Clarendon Street"/>
    <tag k="source" v="nearmap"/>
  </way>
  <way id="10832332" version="2" timestamp="2008-08-23T13:26:06Z" uid="7617" user="Franc" changeset="378532">
    <nd ref="96251420"/>
    <nd ref="96251430"/>
    <nd ref="290387114"/>
    <nd ref="96251437"/>
    <tag k="abutters" v="industrial"/>
    <tag k="created_by" v="JOSM"/>
    <tag k="highway" v="unclassified"/>
    <tag k="name" v="Campbell Street"/>
    <tag k="source" v="yahoo_imagery"/>
    <tag k="source:name" v="historical"/>
  </way>
  <way id="10832332" version="3" timestamp="2009-12-04T05:16:30Z" uid="30201" user="rrankin" changeset="3285963">
    <nd ref="96251420"/>
    <nd ref="96251430"/>
    <nd ref="290387114"/>
    <nd ref="96251437"/>
    <tag k="highway" v="unclassified"/>
    <tag k="name" v="Campbell Street"/>
    <tag k="source" v="yahoo_imagery"/>
    <tag k="source:name" v="historical"/>
  </way>
  <way id="10832332" version="4" timestamp="2010-01-11T08:52:13Z" uid="30201" user="rrankin" changeset="3594189">
    <nd ref="96251420"/>
    <nd ref="611586973"/>
    <tag k="highway" v="unclassified"/>
    <tag k="name" v="Campbell Street"/>
    <tag k="source" v="yahoo_imagery"/>
    <tag k="source:name" v="historical"/>
  </way>
  <way id="10832332" version="5" timestamp="2010-01-11T09:37:20Z" uid="61114" user="Trav" changeset="3594449">
    <nd ref="96251420"/>
    <nd ref="611586973"/>
    <tag k="highway" v="residential"/>
    <tag k="name" v="Campbell Street"/>
    <tag k="source" v="nearmap"/>
    <tag k="source:name" v="historical"/>
  </way>
  <way id="10832332" version="6" timestamp="2010-03-14T13:07:14Z" uid="7617" user="Franc" changeset="4124127">
    <nd ref="665877069"/>
    <nd ref="96251420"/>
    <nd ref="611586973"/>
    <tag k="highway" v="residential"/>
    <tag k="name" v="Campbell Street"/>
    <tag k="source" v="nearmap"/>
    <tag k="source:name" v="historical"/>
  </way>
  <way id="10832332" version="7" timestamp="2010-07-08T00:59:14Z" uid="74617" user="JohnSmith" changeset="5162525">
    <nd ref="665877069"/>
    <nd ref="96251420"/>
    <nd ref="611586973"/>
    <tag k="highway" v="residential"/>
    <tag k="maxspeed" v="50"/>
    <tag k="maxspeed:source" v="default residential speed limit in Australia"/>
    <tag k="name" v="Campbell Street"/>
    <tag k="source" v="nearmap"/>
    <tag k="source:name" v="historical"/>
  </way>
  <way id="10832332" version="8" timestamp="2012-01-15T10:14:22Z" uid="147510" user="woodpeck_fixbot" changeset="10395278">
    <nd ref="665877069"/>
    <nd ref="96251420"/>
    <nd ref="611586973"/>
    <tag k="highway" v="residential"/>
    <tag k="name" v="Campbell Street"/>
    <tag k="source" v="nearmap"/>
    <tag k="source:name" v="historical"/>
  </way>
  <way id="10832332" version="9" timestamp="2012-02-09T05:25:49Z" uid="7523" user="inas" changeset="10630815">
    <nd ref="1624774014"/>
    <nd ref="96251420"/>
    <nd ref="611586973"/>
    <tag k="highway" v="residential"/>
    <tag k="name" v="Campbell Street"/>
    <tag k="source" v="nearmap"/>
    <tag k="source:name" v="historical"/>
  </way>
  <way id="10832334" version="2" timestamp="2008-03-14T13:07:16Z" uid="7617" user="Franc" changeset="322243">
    <nd ref="83273423"/>
    <nd ref="83267285"/>
    <nd ref="83267489"/>
    <nd ref="83273439"/>
    <nd ref="83273393"/>
    <nd ref="83273461"/>
    <nd ref="252078822"/>
    <tag k="abutters" v="residential"/>
    <tag k="created_by" v="JOSM"/>
    <tag k="highway" v="residential"/>
    <tag k="name" v="Innes Street"/>
    <tag k="source" v="yahoo_imagery"/>
    <tag k="source:name" v="historical"/>
  </way>
  <way id="10832334" version="3" timestamp="2008-03-20T02:39:32Z" uid="10413" user="Go Team K" changeset="358360">
    <nd ref="83273423"/>
    <nd ref="83267285"/>
    <nd ref="252995844"/>
    <nd ref="83267489"/>
    <nd ref="83273439"/>
    <nd ref="83273393"/>
    <nd ref="83273461"/>
    <nd ref="252078822"/>
    <tag k="abutters" v="residential"/>
    <tag k="created_by" v="Potlatch 0.7b"/>
    <tag k="highway" v="residential"/>
    <tag k="name" v="Innes Street"/>
    <tag k="source" v="yahoo_imagery"/>
    <tag k="source:name" v="historical"/>
  </way>
  <way id="10832334" version="4" timestamp="2009-04-27T10:28:37Z" uid="119972" user="roballen" changeset="988493">
    <nd ref="83273423"/>
    <nd ref="83267285"/>
    <nd ref="252995844"/>
    <nd ref="83267489"/>
    <nd ref="83273439"/>
    <nd ref="83273393"/>
    <nd ref="83273461"/>
    <nd ref="252078822"/>
    <tag k="abutters" v="residential"/>
    <tag k="created_by" v="Potlatch 0.7b"/>
    <tag k="highway" v="residential"/>
    <tag k="name" v="Innes Road"/>
    <tag k="source" v="yahoo_imagery"/>
    <tag k="source:name" v="historical"/>
  </way>
  <way id="10832334" version="5" timestamp="2009-04-28T01:05:01Z" uid="119972" user="roballen" changeset="998586">
    <nd ref="83273423"/>
    <nd ref="386273190"/>
    <nd ref="83267285"/>
    <nd ref="252995844"/>
    <nd ref="83267489"/>
    <nd ref="83273439"/>
    <nd ref="83273393"/>
    <nd ref="83273461"/>
    <nd ref="252078822"/>
    <tag k="abutters" v="residential"/>
    <tag k="created_by" v="Potlatch 0.7b"/>
    <tag k="highway" v="residential"/>
    <tag k="name" v="Innes Road"/>
    <tag k="source" v="yahoo_imagery"/>
    <tag k="source:name" v="historical"/>
  </way>
  <way id="10832334" version="6" timestamp="2009-11-27T12:45:30Z" uid="9477" user="NilbogAus" changeset="3227709">
    <nd ref="83273423"/>
    <nd ref="386273190"/>
    <nd ref="478539784"/>
    <nd ref="252995844"/>
    <nd ref="83267489"/>
    <nd ref="83273439"/>
    <nd ref="83273393"/>
    <nd ref="83273461"/>
    <nd ref="252078822"/>
    <tag k="abutters" v="residential"/>
    <tag k="highway" v="residential"/>
    <tag k="name" v="Innes Road"/>
    <tag k="source" v="yahoo_imagery"/>
    <tag k="source:name" v="historical"/>
  </way>
  <way id="10832334" version="7" timestamp="2009-12-04T05:16:29Z" uid="30201" user="rrankin" changeset="3285963">
    <nd ref="83273423"/>
    <nd ref="386273190"/>
    <nd ref="478539784"/>
    <nd ref="252995844"/>
    <nd ref="83267489"/>
    <nd ref="83273439"/>
    <nd ref="83273393"/>
    <nd ref="83273461"/>
    <nd ref="252078822"/>
    <tag k="highway" v="residential"/>
    <tag k="name" v="Innes Road"/>
    <tag k="source" v="yahoo_imagery"/>
    <tag k="source:name" v="historical"/>
  </way>
  <way id="10832334" version="8" timestamp="2010-03-12T08:33:27Z" uid="7617" user="Franc" changeset="4104261">
    <nd ref="83273423"/>
    <nd ref="664437462"/>
    <nd ref="386273190"/>
    <nd ref="478539784"/>
    <nd ref="664437452"/>
    <nd ref="252995844"/>
    <nd ref="83267489"/>
    <nd ref="83273439"/>
    <nd ref="83273393"/>
    <nd ref="83273461"/>
    <nd ref="252078822"/>
    <tag k="highway" v="residential"/>
    <tag k="name" v="Innes Road"/>
    <tag k="source" v="yahoo_imagery"/>
    <tag k="source:name" v="historical"/>
  </way>
  <way id="10832334" version="9" timestamp="2010-03-14T13:07:15Z" uid="7617" user="Franc" changeset="4124127"/>
  <way id="10832337" version="2" timestamp="2008-09-21T11:14:02Z" uid="61114" user="Trav" changeset="677175"/>
  <way id="10832339" version="2" timestamp="2009-12-04T05:16:39Z" uid="30201" user="rrankin" changeset="3285963">
    <nd ref="31069126"/>
    <nd ref="96251460"/>
    <tag k="highway" v="unclassified"/>
    <tag k="name" v="Whiting Street"/>
    <tag k="source" v="yahoo_imagery"/>
    <tag k="source:name" v="historical"/>
  </way>
  <way id="10832339" version="3" timestamp="2010-01-13T12:55:48Z" uid="61114" user="Trav" changeset="3609719">
    <nd ref="31069126"/>
    <nd ref="96251460"/>
    <tag k="highway" v="residential"/>
    <tag k="name" v="Whiting Street"/>
    <tag k="source" v="yahoo_imagery"/>
    <tag k="source:name" v="historical"/>
  </way>
  <way id="10832339" version="4" timestamp="2010-07-08T00:58:39Z" uid="74617" user="JohnSmith" changeset="5162525">
    <nd ref="31069126"/>
    <nd ref="96251460"/>
    <tag k="highway" v="residential"/>
    <tag k="maxspeed" v="50"/>
    <tag k="maxspeed:source" v="default residential speed limit in Australia"/>
    <tag k="name" v="Whiting Street"/>
    <tag k="source" v="yahoo_imagery"/>
    <tag k="source:name" v="historical"/>
  </way>
  <way id="10832339" version="5" timestamp="2012-01-15T10:14:24Z" uid="147510" user="woodpeck_fixbot" changeset="10395278">
    <nd ref="31069126"/>
    <nd ref="96251460"/>
    <tag k="highway" v="residential"/>
    <tag k="name" v="Whiting Street"/>
    <tag k="source" v="yahoo_imagery"/>
    <tag k="source:name" v="historical"/>
  </way>
  <way id="10832564" version="2" timestamp="2010-07-08T00:01:39Z" uid="74617" user="JohnSmith" changeset="5162525">
    <nd ref="96252114"/>
    <nd ref="96252441"/>
    <tag k="highway" v="residential"/>
    <tag k="maxspeed" v="50"/>
    <tag k="maxspeed:source" v="default residential speed limit in Australia"/>
    <tag k="name" v="Derby Street"/>
  </way>
  <way id="10832564" version="3" timestamp="2010-07-08T00:11:49Z" uid="74617" user="JohnSmith" changeset="5162525">
    <nd ref="96252114"/>
    <nd ref="96252441"/>
    <tag k="highway" v="residential"/>
    <tag k="maxspeed" v="50"/>
    <tag k="maxspeed:source" v="default residential speed limit in Australia"/>
    <tag k="name" v="Derby Street"/>
  </way>
  <way id="10832564" version="4" timestamp="2012-01-15T10:14:25Z" uid="147510" user="woodpeck_fixbot" changeset="10395278">
    <nd ref="96252114"/>
    <nd ref="96252441"/>
    <tag k="highway" v="residential"/>
    <tag k="name" v="Derby Street"/>
  </way>
  <way id="10832329" version="7" timestamp="2012-07-19T23:16:04Z" uid="722137" user="OSMF Redaction Account" changeset="12351428"/>
  <way id="10832332" version="10" timestamp="2012-07-19T23:07:13Z" uid="722137" user="OSMF Redaction Account" changeset="12351287">
    <nd ref="1624774014"/>
    <nd ref="96251420"/>
    <tag k="highway" v="unclassified"/>
    <tag k="name" v="Campbell Street"/>
    <tag k="source" v="yahoo_imagery"/>
    <tag k="source:name" v="historical"/>
  </way>
  <way id="10832339" version="6" timestamp="2012-07-19T23:09:25Z" uid="722137" user="OSMF Redaction Account" changeset="12351313">
    <nd ref="31069126"/>
    <nd ref="96251460"/>
    <tag k="highway" v="unclassified"/>
    <tag k="name" v="Whiting Street"/>
    <tag k="source" v="yahoo_imagery"/>
    <tag k="source:name" v="historical"/>
  </way>
  <way id="10832339" version="7" timestamp="2012-07-31T11:53:58Z" uid="11321" user="Pecisk" changeset="12560239">
    <nd ref="1845228260"/>
    <nd ref="1845228250"/>
    <nd ref="1845228218"/>
    <nd ref="96272598"/>
    <nd ref="1845228186"/>
    <nd ref="1845228144"/>
    <nd ref="31069126"/>
    <nd ref="96251460"/>
    <tag k="highway" v="unclassified"/>
    <tag k="name" v="Whiting Street"/>
    <tag k="source" v="yahoo_imagery"/>
    <tag k="source:name" v="historical"/>
  </way>
  <way id="10832339" version="8" timestamp="2012-08-02T23:07:51Z" uid="7523" user="inas" changeset="12592130">
    <nd ref="1845228260"/>
    <nd ref="1845228250"/>
    <nd ref="1845228218"/>
    <nd ref="96272598"/>
    <nd ref="1845228186"/>
    <nd ref="1845228144"/>
    <nd ref="31069126"/>
    <nd ref="1849111401"/>
    <nd ref="96251460"/>
    <tag k="highway" v="unclassified"/>
    <tag k="name" v="Whiting Street"/>
    <tag k="source" v="yahoo_imagery"/>
    <tag k="source:name" v="historical"/>
  </way>
</osm>
