<?xml version='1.0' encoding='UTF-8'?>
<osm version="0.6" generator="libosmium/2.20.0">
  <way id="108435159" version="1" timestamp="2011-04-14T10:20:24Z" uid="6269" user="Mueck" changeset="7859152">
    <nd ref="1244215101"/>
    <nd ref="1244215106"/>
    <nd ref="1244215108"/>
    <nd ref="1244215097"/>
    <nd ref="1244215095"/>
    <nd ref="1244215113"/>
    <nd ref="1244215117"/>
    <nd ref="1244215114"/>
    <nd ref="1244215111"/>
    <nd ref="1244215101"/>
    <tag k="building" v="yes"/>
  </way>
  <way id="108435159" version="2" timestamp="2011-04-16T13:47:35Z" uid="212553" user="ARWIE" changeset="7878311">
    <nd ref="1244215101"/>
    <nd ref="1244215106"/>
    <nd ref="1244215108"/>
    <nd ref="1244215097"/>
    <nd ref="1244215095"/>
    <nd ref="1246965742"/>
    <nd ref="1244215113"/>
    <nd ref="1244215117"/>
    <nd ref="1244215114"/>
    <nd ref="1244215111"/>
    <nd ref="1244215101"/>
    <tag k="building" v="yes"/>
  </way>
  <way id="108435160" version="1" timestamp="2011-04-14T10:20:24Z" uid="6269" user="Mueck" changeset="7859152">
    <nd ref="1244215107"/>
    <nd ref="1244215102"/>
    <tag k="barrier" v="wall"/>
  </way>
  <way id="108435160" version="2" timestamp="2011-04-16T13:47:34Z" uid="212553" user="ARWIE" changeset="7878311">
    <nd ref="1244215107"/>
    <nd ref="1246965278"/>
    <nd ref="1246965847"/>
    <nd ref="1244215102"/>
    <tag k="barrier" v="wall"/>
  </way>
  <way id="108435161" version="1" timestamp="2011-04-14T10:20:24Z" uid="6269" user="Mueck" changeset="7859152">
    <nd ref="1244215097"/>
    <nd ref="1244215115"/>
    <tag k="barrier" v="wall"/>
  </way>
  <way id="108435162" version="1" timestamp="2011-04-14T10:20:24Z" uid="6269" user="Mueck" changeset="7859152">
    <nd ref="1244215109"/>
    <nd ref="1244215105"/>
    <nd ref="1244215101"/>
    <tag k="barrier" v="wall"/>
  </way>
  <way id="108435163" version="1" timestamp="2011-04-14T10:20:25Z" uid="6269" user="Mueck" changeset="7859152">
    <nd ref="1244215118"/>
    <nd ref="1244215114"/>
    <nd ref="1244215111"/>
    <nd ref="1244215112"/>
    <nd ref="1244215100"/>
    <nd ref="1244215098"/>
    <nd ref="1244215094"/>
    <nd ref="1244215107"/>
    <nd ref="1244215096"/>
    <nd ref="1244215118"/>
    <tag k="addr:city" v="Karlsruhe"/>
    <tag k="addr:country" v="DE"/>
    <tag k="addr:housenumber" v="18"/>
    <tag k="addr:postcode" v="76131"/>
    <tag k="addr:street" v="Waldhornstraße"/>
    <tag k="amenity" v="fraternity"/>
    <tag k="building" v="yes"/>
    <tag k="building:use" v="dormitory"/>
    <tag k="name" v="B! Tulla"/>
    <tag k="official_name" v="Karlsruher Burschenschaft Tulla"/>
    <tag k="verbindung:art" v="Burschenschaft"/>
    <tag k="verbindung:couleur" v="farbentragend"/>
    <tag k="verbindung:farben" v="braun-weiß-grün"/>
    <tag k="verbindung:fechten" v="fakultativ schlagend"/>
    <tag k="verbindung:konfession" v="nein"/>
    <tag k="verbindung:mitglieder" v="männlich"/>
    <tag k="verbindung:tramizu" v="b_tulla_karlsruhe.html"/>
    <tag k="verbindung:typ" v="akademisch"/>
    <tag k="verbindung:verband" v="NeueDB"/>
    <tag k="website" v="http://www.kb-tulla.de/"/>
  </way>
  <way id="108435163" version="2" timestamp="2011-04-14T20:52:14Z" uid="6269" user="Mueck" changeset="7865008">
    <nd ref="1244215118"/>
    <nd ref="1244215114"/>
    <nd ref="1244215111"/>
    <nd ref="1244215112"/>
    <nd ref="1244215100"/>
    <nd ref="1244215098"/>
    <nd ref="1244215094"/>
    <nd ref="1244215107"/>
    <nd ref="1244215096"/>
    <nd ref="1244215118"/>
    <tag k="addr:city" v="Karlsruhe"/>
    <tag k="addr:country" v="DE"/>
    <tag k="addr:housenumber" v="18"/>
    <tag k="addr:postcode" v="76131"/>
    <tag k="addr:street" v="Waldhornstraße"/>
    <tag k="amenity" v="fraternity"/>
    <tag k="building" v="yes"/>
    <tag k="building:use" v="dormitory"/>
    <tag k="name" v="B! Tulla"/>
    <tag k="official_name" v="Karlsruher Burschenschaft Tulla"/>
    <tag k="verbindung" v="haus"/>
    <tag k="verbindung:art" v="Burschenschaft"/>
    <tag k="verbindung:couleur" v="farbentragend"/>
    <tag k="verbindung:farben" v="braun-weiß-grün"/>
    <tag k="verbindung:fechten" v="fakultativ schlagend"/>
    <tag k="verbindung:konfession" v="nein"/>
    <tag k="verbindung:mitglieder" v="männlich"/>
    <tag k="verbindung:tramizu" v="b_tulla_karlsruhe.html"/>
    <tag k="verbindung:typ" v="akademisch"/>
    <tag k="verbindung:verband" v="NeueDB"/>
    <tag k="website" v="http://www.kb-tulla.de/"/>
  </way>
  <way id="108435163" version="3" timestamp="2011-04-16T13:47:37Z" uid="212553" user="ARWIE" changeset="7878311">
    <nd ref="1244215118"/>
    <nd ref="1246965412"/>
    <nd ref="1244215114"/>
    <nd ref="1244215111"/>
    <nd ref="1246965336"/>
    <nd ref="1244215112"/>
    <nd ref="1244215100"/>
    <nd ref="1244215098"/>
    <nd ref="1244215094"/>
    <nd ref="1244215107"/>
    <nd ref="1244215096"/>
    <nd ref="1246965911"/>
    <nd ref="1244215118"/>
    <tag k="addr:city" v="Karlsruhe"/>
    <tag k="addr:country" v="DE"/>
    <tag k="addr:housenumber" v="18"/>
    <tag k="addr:postcode" v="76131"/>
    <tag k="addr:street" v="Waldhornstraße"/>
    <tag k="amenity" v="fraternity"/>
    <tag k="building" v="yes"/>
    <tag k="building:use" v="dormitory"/>
    <tag k="name" v="B! Tulla"/>
    <tag k="official_name" v="Karlsruher Burschenschaft Tulla"/>
    <tag k="verbindung" v="haus"/>
    <tag k="verbindung:art" v="Burschenschaft"/>
    <tag k="verbindung:couleur" v="farbentragend"/>
    <tag k="verbindung:farben" v="braun-weiß-grün"/>
    <tag k="verbindung:fechten" v="fakultativ schlagend"/>
    <tag k="verbindung:konfession" v="nein"/>
    <tag k="verbindung:mitglieder" v="männlich"/>
    <tag k="verbindung:tramizu" v="b_tulla_karlsruhe.html"/>
    <tag k="verbindung:typ" v="akademisch"/>
    <tag k="verbindung:verband" v="NeueDB"/>
    <tag k="website" v="http://www.kb-tulla.de/"/>
  </way>
  <way id="108435164" version="1" timestamp="2011-04-14T10:20:25Z" uid="6269" user="Mueck" changeset="7859152">
    <nd ref="1244215110"/>
    <nd ref="1244215116"/>
    <nd ref="1244215104"/>
    <nd ref="1244215102"/>
    <nd ref="1244215109"/>
    <nd ref="1244215110"/>
    <tag k="building" v="yes"/>
  </way>
  <way id="108435165" version="1" timestamp="2011-04-14T10:20:25Z" uid="6269" user="Mueck" changeset="7859152">
    <nd ref="1244215104"/>
    <nd ref="1244215103"/>
    <nd ref="1244215115"/>
    <nd ref="1244215099"/>
    <nd ref="1244215116"/>
    <nd ref="1244215104"/>
    <tag k="addr:city" v="Karlsruhe"/>
    <tag k="addr:country" v="DE"/>
    <tag k="addr:housenumber" v="20"/>
    <tag k="addr:postcode" v="76131"/>
    <tag k="addr:street" v="Waldhornstraße"/>
    <tag k="amenity" v="fraternity"/>
    <tag k="building" v="yes"/>
    <tag k="building:use" v="dormitory"/>
    <tag k="name" v="C! Bavaria"/>
    <tag k="official_name" v="Corps Bavaria Karlsruhe"/>
    <tag k="verbindung:art" v="Corps"/>
    <tag k="verbindung:couleur" v="farbentragend"/>
    <tag k="verbindung:farben" v="blau-gold-rot"/>
    <tag k="verbindung:fechten" v="nichtschlagend"/>
    <tag k="verbindung:konfession" v="nein"/>
    <tag k="verbindung:mitglieder" v="männlich"/>
    <tag k="verbindung:tramizu" v="bavaria_karlsruhe.html"/>
    <tag k="verbindung:typ" v="akademisch"/>
    <tag k="verbindung:verband" v="no"/>
    <tag k="website" v="http://www.corps-bavaria.de/"/>
    <tag k="wikipedia:de" v="Corps_Bavaria_Karlsruhe"/>
  </way>
  <way id="108435165" version="2" timestamp="2011-04-14T11:08:24Z" uid="6269" user="Mueck" changeset="7859779">
    <nd ref="1244215104"/>
    <nd ref="1244215103"/>
    <nd ref="1244215115"/>
    <nd ref="1244215099"/>
    <nd ref="1244215116"/>
    <nd ref="1244215104"/>
    <tag k="addr:city" v="Karlsruhe"/>
    <tag k="addr:country" v="DE"/>
    <tag k="addr:housenumber" v="20"/>
    <tag k="addr:postcode" v="76131"/>
    <tag k="addr:street" v="Waldhornstraße"/>
    <tag k="amenity" v="fraternity"/>
    <tag k="building" v="yes"/>
    <tag k="building:use" v="dormitory"/>
    <tag k="name" v="C! Bavaria"/>
    <tag k="official_name" v="Corps Bavaria Karlsruhe"/>
    <tag k="verbindung:art" v="Corps"/>
    <tag k="verbindung:couleur" v="farbentragend"/>
    <tag k="verbindung:farben" v="blau-gold-rot"/>
    <tag k="verbindung:fechten" v="nichtschlagend"/>
    <tag k="verbindung:konfession" v="nein"/>
    <tag k="verbindung:mitglieder" v="männlich"/>
    <tag k="verbindung:tramizu" v="bavaria_karlsruhe.html"/>
    <tag k="verbindung:typ" v="akademisch"/>
    <tag k="verbindung:verband" v="nein"/>
    <tag k="website" v="http://www.corps-bavaria.de/"/>
    <tag k="wikipedia:de" v="Corps_Bavaria_Karlsruhe"/>
  </way>
  <way id="108435165" version="3" timestamp="2011-04-14T20:52:26Z" uid="6269" user="Mueck" changeset="7865008">
    <nd ref="1244215104"/>
    <nd ref="1244215103"/>
    <nd ref="1244215115"/>
    <nd ref="1244215099"/>
    <nd ref="1244215116"/>
    <nd ref="1244215104"/>
    <tag k="addr:city" v="Karlsruhe"/>
    <tag k="addr:country" v="DE"/>
    <tag k="addr:housenumber" v="20"/>
    <tag k="addr:postcode" v="76131"/>
    <tag k="addr:street" v="Waldhornstraße"/>
    <tag k="amenity" v="fraternity"/>
    <tag k="building" v="yes"/>
    <tag k="building:use" v="dormitory"/>
    <tag k="name" v="C! Bavaria"/>
    <tag k="official_name" v="Corps Bavaria Karlsruhe"/>
    <tag k="verbindung" v="haus"/>
    <tag k="verbindung:art" v="Corps"/>
    <tag k="verbindung:couleur" v="farbentragend"/>
    <tag k="verbindung:farben" v="blau-gold-rot"/>
    <tag k="verbindung:fechten" v="nichtschlagend"/>
    <tag k="verbindung:konfession" v="nein"/>
    <tag k="verbindung:mitglieder" v="männlich"/>
    <tag k="verbindung:tramizu" v="bavaria_karlsruhe.html"/>
    <tag k="verbindung:typ" v="akademisch"/>
    <tag k="verbindung:verband" v="nein"/>
    <tag k="website" v="http://www.corps-bavaria.de/"/>
    <tag k="wikipedia:de" v="Corps_Bavaria_Karlsruhe"/>
  </way>
  <way id="108435165" version="4" timestamp="2011-04-16T13:47:36Z" uid="212553" user="ARWIE" changeset="7878311">
    <nd ref="1244215104"/>
    <nd ref="1244215103"/>
    <nd ref="1244215115"/>
    <nd ref="1246966126"/>
    <nd ref="1246965246"/>
    <nd ref="1246965611"/>
    <nd ref="1246965996"/>
    <nd ref="1244215099"/>
    <nd ref="1244215116"/>
    <nd ref="1244215104"/>
    <tag k="addr:city" v="Karlsruhe"/>
    <tag k="addr:country" v="DE"/>
    <tag k="addr:housenumber" v="20"/>
    <tag k="addr:postcode" v="76131"/>
    <tag k="addr:street" v="Waldhornstraße"/>
    <tag k="amenity" v="fraternity"/>
    <tag k="building" v="yes"/>
    <tag k="building:use" v="dormitory"/>
    <tag k="name" v="C! Bavaria"/>
    <tag k="official_name" v="Corps Bavaria Karlsruhe"/>
    <tag k="verbindung" v="haus"/>
    <tag k="verbindung:art" v="Corps"/>
    <tag k="verbindung:couleur" v="farbentragend"/>
    <tag k="verbindung:farben" v="blau-gold-rot"/>
    <tag k="verbindung:fechten" v="nichtschlagend"/>
    <tag k="verbindung:konfession" v="nein"/>
    <tag k="verbindung:mitglieder" v="männlich"/>
    <tag k="verbindung:tramizu" v="bavaria_karlsruhe.html"/>
    <tag k="verbindung:typ" v="akademisch"/>
    <tag k="verbindung:verband" v="nein"/>
    <tag k="website" v="http://www.corps-bavaria.de/"/>
    <tag k="wikipedia:de" v="Corps_Bavaria_Karlsruhe"/>
  </way>
  <way id="108435443" version="1" timestamp="2011-04-14T10:28:13Z" uid="6269" user="Mueck" changeset="7859152">
    <nd ref="1244217452"/>
    <nd ref="1244217462"/>
    <nd ref="1244217447"/>
    <nd ref="1244217463"/>
    <nd ref="1244217453"/>
    <nd ref="1244217464"/>
    <nd ref="1244217454"/>
    <nd ref="1244217458"/>
    <nd ref="1244217461"/>
    <nd ref="1244217433"/>
    <nd ref="1244217435"/>
    <nd ref="1244217431"/>
    <nd ref="1244217432"/>
    <nd ref="1244217449"/>
    <nd ref="1244217456"/>
    <nd ref="1244217448"/>
    <nd ref="1244217452"/>
    <tag k="addr:city" v="Karlsruhe"/>
    <tag k="addr:country" v="DE"/>
    <tag k="addr:housenumber" v="70"/>
    <tag k="addr:postcode" v="76137"/>
    <tag k="addr:street" v="Beiertheimer Allee"/>
    <tag k="amenity" v="fraternity"/>
    <tag k="building" v="yes"/>
    <tag k="building:use" v="dormitory"/>
    <tag k="name" v="S! Markomannen"/>
    <tag k="official_name" v="Sängerschaft Markomannen zu Brünn in Karlsruhe"/>
    <tag k="verbindung:art" v="Sängerschaft"/>
    <tag k="verbindung:couleur" v="farbentragend"/>
    <tag k="verbindung:farben" v="rot-weiß-rot"/>
    <tag k="verbindung:fechten" v="fakultativ schlagend"/>
    <tag k="verbindung:konfession" v="nein"/>
    <tag k="verbindung:mitglieder" v="männlich"/>
    <tag k="verbindung:tramizu" v="s_markomannen_karlsruhe.html"/>
    <tag k="verbindung:typ" v="akademisch"/>
    <tag k="verbindung:verband" v="DS"/>
    <tag k="website" v="http://www.markomannen.de/i"/>
  </way>
  <way id="108435443" version="2" timestamp="2011-04-14T20:52:30Z" uid="6269" user="Mueck" changeset="7865008">
    <nd ref="1244217452"/>
    <nd ref="1244217462"/>
    <nd ref="1244217447"/>
    <nd ref="1244217463"/>
    <nd ref="1244217453"/>
    <nd ref="1244217464"/>
    <nd ref="1244217454"/>
    <nd ref="1244217458"/>
    <nd ref="1244217461"/>
    <nd ref="1244217433"/>
    <nd ref="1244217435"/>
    <nd ref="1244217431"/>
    <nd ref="1244217432"/>
    <nd ref="1244217449"/>
    <nd ref="1244217456"/>
    <nd ref="1244217448"/>
    <nd ref="1244217452"/>
    <tag k="addr:city" v="Karlsruhe"/>
    <tag k="addr:country" v="DE"/>
    <tag k="addr:housenumber" v="70"/>
    <tag k="addr:postcode" v="76137"/>
    <tag k="addr:street" v="Beiertheimer Allee"/>
    <tag k="amenity" v="fraternity"/>
    <tag k="building" v="yes"/>
    <tag k="building:use" v="dormitory"/>
    <tag k="name" v="S! Markomannen"/>
    <tag k="official_name" v="Sängerschaft Markomannen zu Brünn in Karlsruhe"/>
    <tag k="verbindung" v="haus"/>
    <tag k="verbindung:art" v="Sängerschaft"/>
    <tag k="verbindung:couleur" v="farbentragend"/>
    <tag k="verbindung:farben" v="rot-weiß-rot"/>
    <tag k="verbindung:fechten" v="fakultativ schlagend"/>
    <tag k="verbindung:konfession" v="nein"/>
    <tag k="verbindung:mitglieder" v="männlich"/>
    <tag k="verbindung:tramizu" v="s_markomannen_karlsruhe.html"/>
    <tag k="verbindung:typ" v="akademisch"/>
    <tag k="verbindung:verband" v="DS"/>
    <tag k="website" v="http://www.markomannen.de/i"/>
  </way>
  <way id="108435159" version="3" timestamp="2012-05-05T15:33:17Z" uid="35468" user="Blunauer" changeset="11509150">
    <nd ref="1244215101"/>
    <nd ref="1244215106"/>
    <nd ref="1244215108"/>
    <nd ref="1741615179"/>
    <nd ref="1741615169"/>
    <nd ref="1246965742"/>
    <nd ref="1244215117"/>
    <nd ref="1244215114"/>
    <nd ref="1244215111"/>
    <nd ref="1244215101"/>
    <tag k="building" v="yes"/>
  </way>
  <way id="108435159" version="4" timestamp="2012-07-17T13:31:51Z" uid="722137" user="OSMF Redaction Account" changeset="12266591">
    <nd ref="1741615179"/>
    <nd ref="1741615169"/>
    <nd ref="1246965742"/>
  </way>
  <way id="108435159" version="5" timestamp="2012-07-19T18:00:30Z" uid="42208" user="JanTH" changeset="12341342"/>
  <way id="108435160" version="3" timestamp="2012-06-20T12:05:29Z" uid="165061" user="mapper999" changeset="11957772">
    <nd ref="1244215107"/>
    <nd ref="1795590866"/>
    <nd ref="1246965278"/>
    <nd ref="1246965847"/>
    <nd ref="1244215102"/>
    <tag k="barrier" v="wall"/>
  </way>
  <way id="108435160" version="4" timestamp="2012-07-17T13:29:09Z" uid="722137" user="OSMF Redaction Account" changeset="12266545">
    <nd ref="1795590866"/>
    <nd ref="1246965278"/>
    <nd ref="1246965847"/>
  </way>
  <way id="108435160" version="5" timestamp="2012-07-19T17:54:42Z" uid="42208" user="JanTH" changeset="12341342">
    <nd ref="1246965278"/>
    <nd ref="1246965847"/>
    <tag k="barrier" v="wall"/>
  </way>
  <way id="108435160" version="6" timestamp="2012-07-19T18:01:04Z" uid="42208" user="JanTH" changeset="12341342">
    <nd ref="1246965278"/>
    <nd ref="1246965847"/>
    <nd ref="1831229019"/>
    <tag k="barrier" v="wall"/>
  </way>
  <way id="108435161" version="2" timestamp="2012-05-05T15:33:19Z" uid="35468" user="Blunauer" changeset="11509150"/>
  <way id="108435162" version="2" timestamp="2012-07-17T13:37:18Z" uid="722137" user="OSMF Redaction Account" changeset="12266683"/>
  <way id="108435163" version="4" timestamp="2012-05-05T15:33:15Z" uid="35468" user="Blunauer" changeset="11509150">
    <nd ref="1244215118"/>
    <nd ref="1246965412"/>
    <nd ref="1244215114"/>
    <nd ref="1244215111"/>
    <nd ref="1246965336"/>
    <nd ref="1244215112"/>
    <nd ref="1244215100"/>
    <nd ref="1244215098"/>
    <nd ref="1244215094"/>
    <nd ref="1244215107"/>
    <nd ref="1244215096"/>
    <nd ref="1246965911"/>
    <nd ref="1244215118"/>
    <tag k="addr:city" v="Karlsruhe"/>
    <tag k="addr:country" v="DE"/>
    <tag k="addr:housenumber" v="18"/>
    <tag k="addr:postcode" v="76131"/>
    <tag k="addr:street" v="Waldhornstraße"/>
    <tag k="amenity" v="fraternity"/>
    <tag k="building" v="yes"/>
    <tag k="building:use" v="dormitory"/>
    <tag k="name" v="B! Tulla"/>
    <tag k="official_name" v="Karlsruher Burschenschaft Tulla"/>
    <tag k="verbindung" v="haus"/>
    <tag k="verbindung:art" v="Burschenschaft"/>
    <tag k="verbindung:couleur" v="farbentragend"/>
    <tag k="verbindung:farben" v="braun-weiß-grün"/>
    <tag k="verbindung:fechten" v="fakultativ schlagend"/>
    <tag k="verbindung:konfession" v="nein"/>
    <tag k="verbindung:mitglieder" v="männlich"/>
    <tag k="verbindung:tramizu" v="b_tulla_karlsruhe.html"/>
    <tag k="verbindung:typ" v="akademisch"/>
    <tag k="verbindung:verband" v="NeueDB"/>
    <tag k="website" v="http://www.kb-tulla.de/"/>
  </way>
  <way id="108435163" version="5" timestamp="2012-06-21T16:31:32Z" uid="53398" user="stefan005" changeset="11970461">
    <nd ref="1244215118"/>
    <nd ref="1246965412"/>
    <nd ref="1244215114"/>
    <nd ref="1244215111"/>
    <nd ref="1246965336"/>
    <nd ref="1244215112"/>
    <nd ref="1244215100"/>
    <nd ref="1244215098"/>
    <nd ref="1244215094"/>
    <nd ref="1244215107"/>
    <nd ref="1244215096"/>
    <nd ref="1246965911"/>
    <nd ref="1244215118"/>
    <tag k="addr:city" v="Karlsruhe"/>
    <tag k="addr:country" v="DE"/>
    <tag k="addr:housenumber" v="18"/>
    <tag k="addr:postcode" v="76131"/>
    <tag k="addr:street" v="Waldhornstraße"/>
    <tag k="amenity" v="fraternity"/>
    <tag k="building" v="yes"/>
    <tag k="building:use" v="dormitory"/>
    <tag k="name" v="KB! Tulla"/>
    <tag k="official_name" v="Karlsruher Burschenschaft Tulla"/>
    <tag k="verbindung" v="haus"/>
    <tag k="verbindung:art" v="Burschenschaft"/>
    <tag k="verbindung:couleur" v="farbentragend"/>
    <tag k="verbindung:farben" v="braun-weiß-grün"/>
    <tag k="verbindung:fechten" v="fakultativ schlagend"/>
    <tag k="verbindung:konfession" v="nein"/>
    <tag k="verbindung:mitglieder" v="männlich"/>
    <tag k="verbindung:tramizu" v="b_tulla_karlsruhe.html"/>
    <tag k="verbindung:typ" v="akademisch"/>
    <tag k="verbindung:verband" v="NeueDB"/>
    <tag k="website" v="http://www.kb-tulla.de/"/>
  </way>
  <way id="108435163" version="6" timestamp="2012-07-17T13:29:06Z" uid="722137" user="OSMF Redaction Account" changeset="12266545">
    <nd ref="1246965412"/>
    <nd ref="1246965336"/>
    <nd ref="1246965911"/>
    <tag k="name" v="KB! Tulla"/>
  </way>
  <way id="108435163" version="7" timestamp="2012-07-19T17:54:41Z" uid="42208" user="JanTH" changeset="12341342">
    <nd ref="1246965412"/>
    <nd ref="1244215114"/>
    <nd ref="1244215111"/>
    <nd ref="1246965336"/>
    <nd ref="1831229014"/>
    <nd ref="1831229015"/>
    <nd ref="1831229017"/>
    <nd ref="1244215098"/>
    <nd ref="1831229018"/>
    <nd ref="1831229020"/>
    <nd ref="1831229021"/>
    <nd ref="1246965911"/>
    <nd ref="1244215118"/>
    <nd ref="1246965412"/>
    <tag k="building" v="yes"/>
    <tag k="name" v="KB! Tulla"/>
  </way>
  <way id="108435164" version="2" timestamp="2012-06-20T12:05:26Z" uid="165061" user="mapper999" changeset="11957772">
    <nd ref="1244215110"/>
    <nd ref="1244215116"/>
    <nd ref="1244215104"/>
    <nd ref="1795590852"/>
    <nd ref="1244215102"/>
    <nd ref="1244215109"/>
    <nd ref="1244215110"/>
    <tag k="building" v="yes"/>
  </way>
  <way id="108435164" version="3" timestamp="2012-07-17T13:37:18Z" uid="722137" user="OSMF Redaction Account" changeset="12266683"/>
  <way id="108435165" version="5" timestamp="2012-07-17T13:29:17Z" uid="722137" user="OSMF Redaction Account" changeset="12266545">
    <nd ref="1246966126"/>
    <nd ref="1246965246"/>
    <nd ref="1246965611"/>
    <nd ref="1246965996"/>
  </way>
  <way id="108435165" version="6" timestamp="2012-07-17T21:00:40Z" uid="42208" user="JanTH" changeset="12267174">
    <nd ref="1246965246"/>
    <nd ref="1246965611"/>
    <nd ref="1246965996"/>
    <nd ref="1244215099"/>
    <nd ref="1244215116"/>
    <nd ref="1244215104"/>
    <nd ref="1244215103"/>
    <nd ref="1829144352"/>
    <nd ref="1829144353"/>
    <nd ref="1246965246"/>
    <tag k="building" v="yes"/>
  </way>
  <way id="108435165" version="7" timestamp="2012-07-18T20:07:21Z" uid="42208" user="JanTH" changeset="12296377">
    <nd ref="1246965246"/>
    <nd ref="1246965611"/>
    <nd ref="1246965996"/>
    <nd ref="1244215099"/>
    <nd ref="1244215116"/>
    <nd ref="1244215104"/>
    <nd ref="1244215103"/>
    <nd ref="1829144352"/>
    <nd ref="1829144353"/>
    <nd ref="1246965246"/>
    <tag k="building" v="yes"/>
    <tag k="name" v="Corps Bavaria"/>
  </way>
  <way id="108435443" version="3" timestamp="2012-04-13T12:28:17Z" uid="35468" user="Blunauer" changeset="11287120"/>
</osm>
