<?xml version='1.0' encoding='UTF-8'?>
<osm version="0.6" generator="libosmium/2.20.0">
  <way id="108452833" version="1" timestamp="2011-04-14T14:08:12Z" uid="66036" user="h4v" changeset="7861323">
    <nd ref="1244370943"/>
    <nd ref="1244370911"/>
    <tag k="addr:inclusion" v="potential"/>
    <tag k="addr:interpolation" v="odd"/>
    <tag k="source:addr" v="wikipedia"/>
    <tag k="source:name" v="wikipedia"/>
  </way>
  <way id="108452834" version="1" timestamp="2011-04-14T14:08:12Z" uid="66036" user="h4v" changeset="7861323">
    <nd ref="1244370965"/>
    <nd ref="1244370940"/>
    <tag k="addr:inclusion" v="potential"/>
    <tag k="addr:interpolation" v="odd"/>
    <tag k="source:addr" v="wikipedia"/>
    <tag k="source:name" v="wikipedia"/>
  </way>
  <way id="108452835" version="1" timestamp="2011-04-14T14:08:12Z" uid="66036" user="h4v" changeset="7861323">
    <nd ref="1244370919"/>
    <nd ref="1244370944"/>
    <tag k="addr:inclusion" v="potential"/>
    <tag k="addr:interpolation" v="even"/>
    <tag k="source:addr" v="wikipedia"/>
    <tag k="source:name" v="wikipedia"/>
  </way>
  <way id="108452836" version="1" timestamp="2011-04-14T14:08:12Z" uid="66036" user="h4v" changeset="7861323">
    <nd ref="1244370947"/>
    <nd ref="1244370968"/>
    <nd ref="1244370914"/>
    <nd ref="1244370972"/>
    <nd ref="624796864"/>
    <nd ref="624796859"/>
    <nd ref="1244370947"/>
    <tag k="landuse" v="industrial"/>
    <tag k="name" v="Browary Łódzkie"/>
    <tag k="source:addr" v="wikipedia"/>
    <tag k="source:name" v="wikipedia"/>
  </way>
  <way id="108452836" version="2" timestamp="2011-05-31T20:06:55Z" uid="66036" user="h4v" changeset="8305157">
    <nd ref="1244370947"/>
    <nd ref="1244370968"/>
    <nd ref="1244370914"/>
    <nd ref="1244370972"/>
    <nd ref="624796864"/>
    <nd ref="624796859"/>
    <nd ref="1244370947"/>
    <tag k="landuse" v="industrial"/>
    <tag k="name" v="Browary Łódzkie"/>
    <tag k="source:name" v="wikipedia"/>
  </way>
  <way id="108452836" version="3" timestamp="2011-06-13T11:06:31Z" uid="66036" user="h4v" changeset="8424619">
    <nd ref="1244370947"/>
    <nd ref="1244370968"/>
    <nd ref="1244370914"/>
    <nd ref="1244370972"/>
    <nd ref="624796864"/>
    <nd ref="624796859"/>
    <nd ref="1244370947"/>
    <tag k="addr:housenumber" v="34/36"/>
    <tag k="heritage" v="2"/>
    <tag k="heritage:operator" v="nid"/>
    <tag k="historic" v="heritage"/>
    <tag k="landuse" v="industrial"/>
    <tag k="name" v="Browar Nr 1"/>
    <tag k="old_name" v="browar Karola Anstadta"/>
    <tag k="operator" v="Browary Łódzkie"/>
    <tag k="ref:nid" v="A/57"/>
    <tag k="source:name" v="wikipedia"/>
  </way>
  <way id="108452836" version="4" timestamp="2012-03-04T22:47:17Z" uid="73912" user="Jacek_lodz" changeset="10874938">
    <nd ref="1244370947"/>
    <nd ref="1244370968"/>
    <nd ref="1244370914"/>
    <nd ref="1244370972"/>
    <nd ref="624796864"/>
    <nd ref="624796859"/>
    <nd ref="1244370947"/>
    <tag k="addr:housenumber" v="34/36"/>
    <tag k="heritage" v="2"/>
    <tag k="heritage:operator" v="nid"/>
    <tag k="historic" v="heritage"/>
    <tag k="landuse" v="industrial"/>
    <tag k="name" v="Browar Nr 1"/>
    <tag k="old_name" v="browar Karola Anstadta"/>
    <tag k="operator" v="Browary Łódzkie"/>
    <tag k="ref:nid" v="A/57"/>
    <tag k="source:name" v="wikipedia"/>
    <tag k="tourism" v="attraction"/>
  </way>
  <way id="108452837" version="1" timestamp="2011-04-14T14:08:12Z" uid="66036" user="h4v" changeset="7861323">
    <nd ref="1244370898"/>
    <nd ref="1244370925"/>
    <tag k="addr:inclusion" v="potential"/>
    <tag k="addr:interpolation" v="even"/>
    <tag k="source:addr" v="wikipedia"/>
    <tag k="source:name" v="wikipedia"/>
  </way>
  <way id="108452837" version="2" timestamp="2011-06-07T09:08:45Z" uid="66036" user="h4v" changeset="8368162">
    <nd ref="1244370898"/>
    <nd ref="1244370925"/>
    <tag k="addr:inclusion" v="potential"/>
    <tag k="addr:interpolation" v="even"/>
    <tag k="source:addr" v="wikipedia"/>
  </way>
  <way id="108452838" version="1" timestamp="2011-04-14T14:08:12Z" uid="66036" user="h4v" changeset="7861323">
    <nd ref="1244370916"/>
    <nd ref="1244370942"/>
    <tag k="addr:inclusion" v="potential"/>
    <tag k="addr:interpolation" v="even"/>
    <tag k="source:addr" v="wikipedia"/>
    <tag k="source:name" v="wikipedia"/>
  </way>
  <way id="108452839" version="1" timestamp="2011-04-14T14:08:13Z" uid="66036" user="h4v" changeset="7861323">
    <nd ref="1244370952"/>
    <nd ref="1244370889"/>
    <tag k="addr:inclusion" v="potential"/>
    <tag k="addr:interpolation" v="odd"/>
    <tag k="source:addr" v="wikipedia"/>
    <tag k="source:name" v="wikipedia"/>
  </way>
  <way id="108452839" version="2" timestamp="2011-06-07T09:08:47Z" uid="66036" user="h4v" changeset="8368162"/>
  <way id="108452840" version="1" timestamp="2011-04-14T14:08:13Z" uid="66036" user="h4v" changeset="7861323">
    <nd ref="1244370895"/>
    <nd ref="1244370910"/>
    <tag k="addr:inclusion" v="potential"/>
    <tag k="addr:interpolation" v="even"/>
    <tag k="source:addr" v="wikipedia"/>
    <tag k="source:name" v="wikipedia"/>
  </way>
  <way id="108452841" version="1" timestamp="2011-04-14T14:08:13Z" uid="66036" user="h4v" changeset="7861323">
    <nd ref="1244370892"/>
    <nd ref="1243840366"/>
    <tag k="addr:inclusion" v="potential"/>
    <tag k="addr:interpolation" v="odd"/>
    <tag k="source:addr" v="wikipedia"/>
    <tag k="source:name" v="wikipedia"/>
  </way>
  <way id="108452841" version="2" timestamp="2011-04-14T19:52:44Z" uid="66036" user="h4v" changeset="7864410">
    <nd ref="1244370892"/>
    <nd ref="1243840366"/>
    <tag k="addr:inclusion" v="potential"/>
    <tag k="addr:interpolation" v="odd"/>
    <tag k="source:addr" v="wikipedia"/>
  </way>
  <way id="108452842" version="1" timestamp="2011-04-14T14:08:13Z" uid="66036" user="h4v" changeset="7861323">
    <nd ref="1244370897"/>
    <nd ref="1244370963"/>
    <nd ref="1244370903"/>
    <nd ref="1244370970"/>
    <nd ref="1244370926"/>
    <nd ref="1244370885"/>
    <nd ref="1244370937"/>
    <nd ref="1244370958"/>
    <nd ref="1244370949"/>
    <nd ref="1244370900"/>
    <nd ref="1166563037"/>
    <nd ref="1244370897"/>
    <tag k="building" v="yes"/>
    <tag k="source:addr" v="wikipedia"/>
    <tag k="source:name" v="wikipedia"/>
    <tag k="tourism" v="attraction"/>
  </way>
  <way id="108452842" version="2" timestamp="2011-06-11T13:35:31Z" uid="66036" user="h4v" changeset="8406012">
    <nd ref="1244370897"/>
    <nd ref="1244370963"/>
    <nd ref="1244370903"/>
    <nd ref="1244370970"/>
    <nd ref="1244370926"/>
    <nd ref="1244370885"/>
    <nd ref="1244370937"/>
    <nd ref="1244370958"/>
    <nd ref="1244370949"/>
    <nd ref="1244370900"/>
    <nd ref="1166563037"/>
    <nd ref="1244370897"/>
    <tag k="building" v="yes"/>
    <tag k="heritage" v="2"/>
    <tag k="heritage:operator" v="nid"/>
    <tag k="historic" v="heritage"/>
    <tag k="ref:nid" v="A/39"/>
  </way>
  <way id="108452833" version="2" timestamp="2012-07-24T13:34:46Z" uid="722137" user="OSMF Redaction Account" changeset="12466777"/>
  <way id="108452834" version="2" timestamp="2012-07-24T13:34:32Z" uid="722137" user="OSMF Redaction Account" changeset="12466777"/>
  <way id="108452835" version="2" timestamp="2012-07-24T13:34:18Z" uid="722137" user="OSMF Redaction Account" changeset="12466765"/>
  <way id="108452836" version="5" timestamp="2012-06-25T08:39:39Z" uid="147230" user="SQ9NIT" changeset="12008533">
    <nd ref="1244370947"/>
    <nd ref="1244370968"/>
    <nd ref="1244370914"/>
    <nd ref="1244370972"/>
    <nd ref="624796864"/>
    <nd ref="624796859"/>
    <nd ref="1244370947"/>
    <tag k="addr:housenumber" v="34/36"/>
    <tag k="heritage" v="2"/>
    <tag k="heritage:operator" v="nid"/>
    <tag k="historic" v="industrial"/>
    <tag k="landuse" v="industrial"/>
    <tag k="name" v="Browar Nr 1"/>
    <tag k="old_name" v="browar Karola Anstadta"/>
    <tag k="operator" v="Browary Łódzkie"/>
    <tag k="ref:nid" v="A/57"/>
    <tag k="source:name" v="wikipedia"/>
    <tag k="tourism" v="attraction"/>
  </way>
  <way id="108452836" version="6" timestamp="2012-07-24T13:34:42Z" uid="722137" user="OSMF Redaction Account" changeset="12466777"/>
  <way id="108452837" version="3" timestamp="2012-07-24T13:34:41Z" uid="722137" user="OSMF Redaction Account" changeset="12466777"/>
  <way id="108452838" version="2" timestamp="2012-07-24T13:34:32Z" uid="722137" user="OSMF Redaction Account" changeset="12466777"/>
  <way id="108452840" version="2" timestamp="2012-07-24T13:34:14Z" uid="722137" user="OSMF Redaction Account" changeset="12466765"/>
  <way id="108452841" version="3" timestamp="2012-07-24T13:34:15Z" uid="722137" user="OSMF Redaction Account" changeset="12466765"/>
  <way id="108452842" version="3" timestamp="2012-06-25T08:39:49Z" uid="147230" user="SQ9NIT" changeset="12008533">
    <nd ref="1244370897"/>
    <nd ref="1244370963"/>
    <nd ref="1244370903"/>
    <nd ref="1244370970"/>
    <nd ref="1244370926"/>
    <nd ref="1244370885"/>
    <nd ref="1244370937"/>
    <nd ref="1244370958"/>
    <nd ref="1244370949"/>
    <nd ref="1244370900"/>
    <nd ref="1166563037"/>
    <nd ref="1244370897"/>
    <tag k="building" v="yes"/>
    <tag k="heritage" v="2"/>
    <tag k="heritage:operator" v="nid"/>
    <tag k="historic" v="building"/>
    <tag k="ref:nid" v="A/39"/>
  </way>
  <way id="108452842" version="4" timestamp="2012-07-24T13:34:15Z" uid="722137" user="OSMF Redaction Account" changeset="12466765"/>
</osm>
