<?xml version='1.0' encoding='UTF-8'?>
<osm version="0.6" generator="libosmium/2.20.0">
  <way id="108451062" version="1" timestamp="2011-04-14T14:01:23Z" uid="6269" user="Mueck" changeset="7861083">
    <nd ref="1244366017"/>
    <nd ref="1244366019"/>
    <nd ref="1244366021"/>
    <nd ref="1244365993"/>
    <nd ref="1244365992"/>
    <nd ref="1244366006"/>
    <nd ref="1244366024"/>
    <nd ref="1244365986"/>
    <nd ref="1244366017"/>
    <tag k="addr:city" v="Karlsruhe"/>
    <tag k="addr:country" v="DE"/>
    <tag k="addr:housename" v="Zollernhaus"/>
    <tag k="addr:housenumber" v="5"/>
    <tag k="addr:postcode" v="76133"/>
    <tag k="addr:street" v="Schirmerstraße"/>
    <tag k="amenity" v="fraternity"/>
    <tag k="building" v="yes"/>
    <tag k="building:use" v="dormitory"/>
    <tag k="name" v="K.St.V. Zollern-Breslau"/>
    <tag k="official_name" v="Katholischer Studentenverein Zollern Breslau im KV zu Karlsruhe"/>
    <tag k="verbindung:art" v="Katholischer Studentenverein"/>
    <tag k="verbindung:couleur" v="farbenführend"/>
    <tag k="verbindung:farben" v="silber-schwarz"/>
    <tag k="verbindung:fechten" v="nichtschlagend"/>
    <tag k="verbindung:konfession" v="katholisch"/>
    <tag k="verbindung:mitglieder" v="männlich"/>
    <tag k="verbindung:tramizu" v="kstv_k_st_v_zollern-breslau_karlsruhe.html"/>
    <tag k="verbindung:typ" v="akademisch"/>
    <tag k="verbindung:verband" v="KV"/>
    <tag k="website" v="http://www.zollern-breslau.de/"/>
    <tag k="wikipedia" v="K.St.V._Zollern-Breslau_Karlsruhe"/>
  </way>
  <way id="108451062" version="2" timestamp="2011-04-14T14:14:36Z" uid="6269" user="Mueck" changeset="7861083">
    <nd ref="1244366017"/>
    <nd ref="1244366019"/>
    <nd ref="1244366021"/>
    <nd ref="1244365993"/>
    <nd ref="1244365992"/>
    <nd ref="1244366006"/>
    <nd ref="1244366024"/>
    <nd ref="1244365986"/>
    <nd ref="1244366017"/>
    <tag k="addr:city" v="Karlsruhe"/>
    <tag k="addr:country" v="DE"/>
    <tag k="addr:housename" v="Zollernhaus"/>
    <tag k="addr:housenumber" v="5"/>
    <tag k="addr:postcode" v="76133"/>
    <tag k="addr:street" v="Schirmerstraße"/>
    <tag k="amenity" v="fraternity"/>
    <tag k="building" v="yes"/>
    <tag k="building:use" v="dormitory"/>
    <tag k="name" v="K.St.V. Zollern-Breslau"/>
    <tag k="official_name" v="Katholischer Studentenverein Zollern Breslau im KV zu Karlsruhe"/>
    <tag k="verbindung:art" v="Katholischer Studentenverein"/>
    <tag k="verbindung:couleur" v="farbenführend"/>
    <tag k="verbindung:farben" v="silber-schwarz"/>
    <tag k="verbindung:fechten" v="nichtschlagend"/>
    <tag k="verbindung:konfession" v="katholisch"/>
    <tag k="verbindung:mitglieder" v="männlich"/>
    <tag k="verbindung:tramizu" v="kstv_k_st_v_zollern-breslau_karlsruhe.html"/>
    <tag k="verbindung:typ" v="akademisch"/>
    <tag k="verbindung:verband" v="KV"/>
    <tag k="website" v="http://www.zollern-breslau.de/"/>
    <tag k="wikipedia:de" v="K.St.V._Zollern-Breslau_Karlsruhe"/>
  </way>
  <way id="108451062" version="3" timestamp="2011-04-14T20:52:32Z" uid="6269" user="Mueck" changeset="7865008">
    <nd ref="1244366017"/>
    <nd ref="1244366019"/>
    <nd ref="1244366021"/>
    <nd ref="1244365993"/>
    <nd ref="1244365992"/>
    <nd ref="1244366006"/>
    <nd ref="1244366024"/>
    <nd ref="1244365986"/>
    <nd ref="1244366017"/>
    <tag k="addr:city" v="Karlsruhe"/>
    <tag k="addr:country" v="DE"/>
    <tag k="addr:housename" v="Zollernhaus"/>
    <tag k="addr:housenumber" v="5"/>
    <tag k="addr:postcode" v="76133"/>
    <tag k="addr:street" v="Schirmerstraße"/>
    <tag k="amenity" v="fraternity"/>
    <tag k="building" v="yes"/>
    <tag k="building:use" v="dormitory"/>
    <tag k="name" v="K.St.V. Zollern-Breslau"/>
    <tag k="official_name" v="Katholischer Studentenverein Zollern Breslau im KV zu Karlsruhe"/>
    <tag k="verbindung" v="haus"/>
    <tag k="verbindung:art" v="Katholischer Studentenverein"/>
    <tag k="verbindung:couleur" v="farbenführend"/>
    <tag k="verbindung:farben" v="silber-schwarz"/>
    <tag k="verbindung:fechten" v="nichtschlagend"/>
    <tag k="verbindung:konfession" v="katholisch"/>
    <tag k="verbindung:mitglieder" v="männlich"/>
    <tag k="verbindung:tramizu" v="kstv_k_st_v_zollern-breslau_karlsruhe.html"/>
    <tag k="verbindung:typ" v="akademisch"/>
    <tag k="verbindung:verband" v="KV"/>
    <tag k="website" v="http://www.zollern-breslau.de/"/>
    <tag k="wikipedia:de" v="K.St.V._Zollern-Breslau_Karlsruhe"/>
  </way>
  <way id="108451063" version="1" timestamp="2011-04-14T14:01:24Z" uid="6269" user="Mueck" changeset="7861083">
    <nd ref="1244366031"/>
    <nd ref="1244366029"/>
    <nd ref="1244366009"/>
    <nd ref="1244366015"/>
    <nd ref="1244366004"/>
    <nd ref="1244366034"/>
    <nd ref="1244366026"/>
    <nd ref="1244365990"/>
    <nd ref="1244365989"/>
    <nd ref="1243912235"/>
    <nd ref="1243912233"/>
    <nd ref="1244366012"/>
    <nd ref="1244366031"/>
    <tag k="addr:city" v="Karlsruhe"/>
    <tag k="addr:country" v="DE"/>
    <tag k="addr:housenumber" v="11"/>
    <tag k="addr:postcode" v="76131"/>
    <tag k="addr:street" v="Kornblumenstraße"/>
    <tag k="amenity" v="fraternity"/>
    <tag k="building" v="yes"/>
    <tag k="building:use" v="dormitory"/>
    <tag k="name" v="K.St.V. Laetitia"/>
    <tag k="official_name" v="Katholischer Studentenverein Laetitia"/>
    <tag k="verbindung:art" v="Katholischer Studentenverein"/>
    <tag k="verbindung:couleur" v="farbenführend"/>
    <tag k="verbindung:farben" v="schwarz-gold-weiß"/>
    <tag k="verbindung:fechten" v="nichtschlagend"/>
    <tag k="verbindung:konfession" v="christlich"/>
    <tag k="verbindung:mitglieder" v="männlich"/>
    <tag k="verbindung:tramizu" v="laetitia_karlsruhe.html"/>
    <tag k="verbindung:typ" v="akademisch"/>
    <tag k="verbindung:verband" v="KV"/>
    <tag k="website" v="http://www.kstv-laetitia.de/"/>
  </way>
  <way id="108451063" version="2" timestamp="2011-04-14T14:14:37Z" uid="6269" user="Mueck" changeset="7861083">
    <nd ref="1244366031"/>
    <nd ref="1244366029"/>
    <nd ref="1244366009"/>
    <nd ref="1244366015"/>
    <nd ref="1244366004"/>
    <nd ref="1244366034"/>
    <nd ref="1244366026"/>
    <nd ref="1244365990"/>
    <nd ref="1244365989"/>
    <nd ref="1243912235"/>
    <nd ref="1243912233"/>
    <nd ref="1244366012"/>
    <nd ref="1244366031"/>
    <tag k="addr:city" v="Karlsruhe"/>
    <tag k="addr:country" v="DE"/>
    <tag k="addr:housenumber" v="11"/>
    <tag k="addr:postcode" v="76131"/>
    <tag k="addr:street" v="Kornblumenstraße"/>
    <tag k="amenity" v="fraternity"/>
    <tag k="building" v="yes"/>
    <tag k="building:use" v="dormitory"/>
    <tag k="name" v="K.St.V. Laetitia"/>
    <tag k="official_name" v="Katholischer Studentenverein Laetitia"/>
    <tag k="verbindung:art" v="Katholischer Studentenverein"/>
    <tag k="verbindung:couleur" v="farbenführend"/>
    <tag k="verbindung:farben" v="schwarz-gold-weiß"/>
    <tag k="verbindung:fechten" v="nichtschlagend"/>
    <tag k="verbindung:konfession" v="christlich"/>
    <tag k="verbindung:mitglieder" v="männlich"/>
    <tag k="verbindung:tramizu" v="laetitia_karlsruhe.html"/>
    <tag k="verbindung:typ" v="akademisch"/>
    <tag k="verbindung:verband" v="KV"/>
    <tag k="website" v="http://www.kstv-laetitia.de/"/>
    <tag k="wikipedia:de" v="K.St.V._Laetitia_Karlsruhe"/>
  </way>
  <way id="108451063" version="3" timestamp="2011-04-14T18:58:57Z" uid="331334" user="Fry3k-KA" changeset="7863788">
    <nd ref="1244366029"/>
    <nd ref="1244366009"/>
    <nd ref="1244366015"/>
    <nd ref="1244366004"/>
    <nd ref="1244366034"/>
    <nd ref="1244366026"/>
    <nd ref="1244365990"/>
    <nd ref="1244365989"/>
    <nd ref="1243912235"/>
    <nd ref="1243912233"/>
    <nd ref="1244366012"/>
    <nd ref="1244366029"/>
    <tag k="addr:city" v="Karlsruhe"/>
    <tag k="addr:country" v="DE"/>
    <tag k="addr:housenumber" v="11"/>
    <tag k="addr:postcode" v="76131"/>
    <tag k="addr:street" v="Kornblumenstraße"/>
    <tag k="amenity" v="fraternity"/>
    <tag k="building" v="yes"/>
    <tag k="building:use" v="dormitory"/>
    <tag k="name" v="K.St.V. Laetitia"/>
    <tag k="official_name" v="Katholischer Studentenverein Laetitia"/>
    <tag k="verbindung:art" v="Katholischer Studentenverein"/>
    <tag k="verbindung:couleur" v="farbenführend"/>
    <tag k="verbindung:farben" v="schwarz-gold-weiß"/>
    <tag k="verbindung:fechten" v="nichtschlagend"/>
    <tag k="verbindung:konfession" v="christlich"/>
    <tag k="verbindung:mitglieder" v="männlich"/>
    <tag k="verbindung:tramizu" v="laetitia_karlsruhe.html"/>
    <tag k="verbindung:typ" v="akademisch"/>
    <tag k="verbindung:verband" v="KV"/>
    <tag k="website" v="http://www.kstv-laetitia.de/"/>
    <tag k="wikipedia:de" v="K.St.V._Laetitia_Karlsruhe"/>
  </way>
  <way id="108451063" version="4" timestamp="2011-04-14T20:52:25Z" uid="6269" user="Mueck" changeset="7865008">
    <nd ref="1244366029"/>
    <nd ref="1244366009"/>
    <nd ref="1244366015"/>
    <nd ref="1244366004"/>
    <nd ref="1244366034"/>
    <nd ref="1244366026"/>
    <nd ref="1244365990"/>
    <nd ref="1244365989"/>
    <nd ref="1243912235"/>
    <nd ref="1243912233"/>
    <nd ref="1244366012"/>
    <nd ref="1244366029"/>
    <tag k="addr:city" v="Karlsruhe"/>
    <tag k="addr:country" v="DE"/>
    <tag k="addr:housenumber" v="11"/>
    <tag k="addr:postcode" v="76131"/>
    <tag k="addr:street" v="Kornblumenstraße"/>
    <tag k="amenity" v="fraternity"/>
    <tag k="building" v="yes"/>
    <tag k="building:use" v="dormitory"/>
    <tag k="name" v="K.St.V. Laetitia"/>
    <tag k="official_name" v="Katholischer Studentenverein Laetitia"/>
    <tag k="verbindung" v="haus"/>
    <tag k="verbindung:art" v="Katholischer Studentenverein"/>
    <tag k="verbindung:couleur" v="farbenführend"/>
    <tag k="verbindung:farben" v="schwarz-gold-weiß"/>
    <tag k="verbindung:fechten" v="nichtschlagend"/>
    <tag k="verbindung:konfession" v="christlich"/>
    <tag k="verbindung:mitglieder" v="männlich"/>
    <tag k="verbindung:tramizu" v="laetitia_karlsruhe.html"/>
    <tag k="verbindung:typ" v="akademisch"/>
    <tag k="verbindung:verband" v="KV"/>
    <tag k="website" v="http://www.kstv-laetitia.de/"/>
    <tag k="wikipedia:de" v="K.St.V._Laetitia_Karlsruhe"/>
  </way>
  <way id="108451063" version="5" timestamp="2011-08-05T05:30:51Z" uid="29203" user="dc6iq" changeset="8925708">
    <nd ref="1244366029"/>
    <nd ref="1244366009"/>
    <nd ref="1244366015"/>
    <nd ref="1244366004"/>
    <nd ref="1244365990"/>
    <nd ref="1244365989"/>
    <nd ref="1243912235"/>
    <nd ref="1243912233"/>
    <nd ref="1244366012"/>
    <nd ref="1244366029"/>
    <tag k="addr:city" v="Karlsruhe"/>
    <tag k="addr:country" v="DE"/>
    <tag k="addr:housenumber" v="11"/>
    <tag k="addr:postcode" v="76131"/>
    <tag k="addr:street" v="Kornblumenstraße"/>
    <tag k="amenity" v="fraternity"/>
    <tag k="building" v="yes"/>
    <tag k="building:use" v="dormitory"/>
    <tag k="name" v="K.St.V. Laetitia"/>
    <tag k="official_name" v="Katholischer Studentenverein Laetitia"/>
    <tag k="verbindung" v="haus"/>
    <tag k="verbindung:art" v="Katholischer Studentenverein"/>
    <tag k="verbindung:couleur" v="farbenführend"/>
    <tag k="verbindung:farben" v="schwarz-gold-weiß"/>
    <tag k="verbindung:fechten" v="nichtschlagend"/>
    <tag k="verbindung:konfession" v="christlich"/>
    <tag k="verbindung:mitglieder" v="männlich"/>
    <tag k="verbindung:tramizu" v="laetitia_karlsruhe.html"/>
    <tag k="verbindung:typ" v="akademisch"/>
    <tag k="verbindung:verband" v="KV"/>
    <tag k="website" v="http://www.kstv-laetitia.de/"/>
    <tag k="wikipedia:de" v="K.St.V._Laetitia_Karlsruhe"/>
  </way>
  <way id="108451062" version="4" timestamp="2012-07-17T13:37:20Z" uid="722137" user="OSMF Redaction Account" changeset="12266683"/>
  <way id="108451063" version="6" timestamp="2012-07-17T13:37:20Z" uid="722137" user="OSMF Redaction Account" changeset="12266683"/>
</osm>
