<?xml version='1.0' encoding='UTF-8'?>
<osm version="0.6" generator="libosmium/2.20.0">
  <way id="108458582" version="1" timestamp="2011-04-14T15:02:17Z" uid="6269" user="Mueck" changeset="7861757">
    <nd ref="1244412065"/>
    <nd ref="1244412062"/>
    <nd ref="1244412060"/>
    <nd ref="1244412063"/>
    <nd ref="1244412064"/>
    <nd ref="1244412061"/>
    <nd ref="1244412065"/>
    <tag k="addr:city" v="Karlsruhe"/>
    <tag k="addr:country" v="DE"/>
    <tag k="addr:housenumber" v="23"/>
    <tag k="addr:postcode" v="76135"/>
    <tag k="addr:street" v="Eisenlohrstraße"/>
    <tag k="amenity" v="fraternity"/>
    <tag k="building" v="yes"/>
    <tag k="building:use" v="dormitory"/>
    <tag k="name" v="Franco-Alemannia"/>
    <tag k="official_name" v="Katholischer Studentenverein  Unitas Franco-Alemannia"/>
    <tag k="verbindung:art" v="Wissenschaftlich-Katholischer Studentenverein"/>
    <tag k="verbindung:couleur" v="farbenführend"/>
    <tag k="verbindung:farben" v="blau-weiß-gold"/>
    <tag k="verbindung:fechten" v="nichtschlagend"/>
    <tag k="verbindung:konfession" v="katholisch"/>
    <tag k="verbindung:mitglieder" v="männlich"/>
    <tag k="verbindung:tramizu" v="wkstv_w_k_st_v_unitas_franco-alemannia_zu_karlsruhe_karlsruhe.html"/>
    <tag k="verbindung:typ" v="akademisch"/>
    <tag k="verbindung:verband" v="UV"/>
    <tag k="website" v="http://www.franco-alemannia.unitas.org/"/>
  </way>
  <way id="108458582" version="2" timestamp="2011-04-14T20:52:22Z" uid="6269" user="Mueck" changeset="7865008">
    <nd ref="1244412065"/>
    <nd ref="1244412062"/>
    <nd ref="1244412060"/>
    <nd ref="1244412063"/>
    <nd ref="1244412064"/>
    <nd ref="1244412061"/>
    <nd ref="1244412065"/>
    <tag k="addr:city" v="Karlsruhe"/>
    <tag k="addr:country" v="DE"/>
    <tag k="addr:housenumber" v="23"/>
    <tag k="addr:postcode" v="76135"/>
    <tag k="addr:street" v="Eisenlohrstraße"/>
    <tag k="amenity" v="fraternity"/>
    <tag k="building" v="yes"/>
    <tag k="building:use" v="dormitory"/>
    <tag k="name" v="Franco-Alemannia"/>
    <tag k="official_name" v="Katholischer Studentenverein  Unitas Franco-Alemannia"/>
    <tag k="verbindung" v="haus"/>
    <tag k="verbindung:art" v="Wissenschaftlich-Katholischer Studentenverein"/>
    <tag k="verbindung:couleur" v="farbenführend"/>
    <tag k="verbindung:farben" v="blau-weiß-gold"/>
    <tag k="verbindung:fechten" v="nichtschlagend"/>
    <tag k="verbindung:konfession" v="katholisch"/>
    <tag k="verbindung:mitglieder" v="männlich"/>
    <tag k="verbindung:tramizu" v="wkstv_w_k_st_v_unitas_franco-alemannia_zu_karlsruhe_karlsruhe.html"/>
    <tag k="verbindung:typ" v="akademisch"/>
    <tag k="verbindung:verband" v="UV"/>
    <tag k="website" v="http://www.franco-alemannia.unitas.org/"/>
  </way>
  <way id="108458582" version="3" timestamp="2011-04-29T21:24:21Z" uid="212553" user="ARWIE" changeset="8007057">
    <nd ref="1244412065"/>
    <nd ref="1265841581"/>
    <nd ref="1265842383"/>
    <nd ref="1244412062"/>
    <nd ref="1244412060"/>
    <nd ref="1244412063"/>
    <nd ref="1244412064"/>
    <nd ref="1244412061"/>
    <nd ref="1265841943"/>
    <nd ref="1244412065"/>
    <tag k="addr:city" v="Karlsruhe"/>
    <tag k="addr:country" v="DE"/>
    <tag k="addr:housenumber" v="23"/>
    <tag k="addr:postcode" v="76135"/>
    <tag k="addr:street" v="Eisenlohrstraße"/>
    <tag k="amenity" v="fraternity"/>
    <tag k="building" v="yes"/>
    <tag k="building:use" v="dormitory"/>
    <tag k="name" v="Franco-Alemannia"/>
    <tag k="official_name" v="Katholischer Studentenverein  Unitas Franco-Alemannia"/>
    <tag k="verbindung" v="haus"/>
    <tag k="verbindung:art" v="Wissenschaftlich-Katholischer Studentenverein"/>
    <tag k="verbindung:couleur" v="farbenführend"/>
    <tag k="verbindung:farben" v="blau-weiß-gold"/>
    <tag k="verbindung:fechten" v="nichtschlagend"/>
    <tag k="verbindung:konfession" v="katholisch"/>
    <tag k="verbindung:mitglieder" v="männlich"/>
    <tag k="verbindung:tramizu" v="wkstv_w_k_st_v_unitas_franco-alemannia_zu_karlsruhe_karlsruhe.html"/>
    <tag k="verbindung:typ" v="akademisch"/>
    <tag k="verbindung:verband" v="UV"/>
    <tag k="website" v="http://www.franco-alemannia.unitas.org/"/>
  </way>
  <way id="108458582" version="4" timestamp="2012-03-27T12:47:41Z" uid="42484" user="wombalton" changeset="11116086">
    <nd ref="1244412065"/>
    <nd ref="1265841581"/>
    <nd ref="1265842383"/>
    <nd ref="1244412062"/>
    <nd ref="1244412060"/>
    <nd ref="1244412063"/>
    <nd ref="1244412064"/>
    <nd ref="1244412061"/>
    <nd ref="1265841943"/>
    <nd ref="1244412065"/>
    <tag k="addr:city" v="Karlsruhe"/>
    <tag k="addr:country" v="DE"/>
    <tag k="addr:housename" v="W.k.St.V. Franco Alemannia"/>
    <tag k="addr:housenumber" v="23"/>
    <tag k="addr:postcode" v="76135"/>
    <tag k="addr:street" v="Eisenlohrstraße"/>
    <tag k="amenity" v="fraternity"/>
    <tag k="building" v="yes"/>
    <tag k="building:use" v="dormitory"/>
    <tag k="name" v="W.k.St.V. Franco-Alemannia"/>
    <tag k="official_name" v="Katholischer Studentenverein  Unitas Franco-Alemannia"/>
    <tag k="verbindung" v="haus"/>
    <tag k="verbindung:art" v="Wissenschaftlich-Katholischer Studentenverein"/>
    <tag k="verbindung:couleur" v="farbenführend"/>
    <tag k="verbindung:farben" v="blau-weiß-gold"/>
    <tag k="verbindung:fechten" v="nichtschlagend"/>
    <tag k="verbindung:konfession" v="katholisch"/>
    <tag k="verbindung:mitglieder" v="männlich"/>
    <tag k="verbindung:tramizu" v="wkstv_w_k_st_v_unitas_franco-alemannia_zu_karlsruhe_karlsruhe.html"/>
    <tag k="verbindung:typ" v="akademisch"/>
    <tag k="verbindung:verband" v="UV"/>
    <tag k="website" v="http://www.franco-alemannia.unitas.org/"/>
  </way>
  <way id="108458582" version="5" timestamp="2012-07-17T14:52:19Z" uid="722137" user="OSMF Redaction Account" changeset="12267763">
    <nd ref="1265841581"/>
    <nd ref="1265842383"/>
    <nd ref="1265841943"/>
    <tag k="addr:housename" v="W.k.St.V. Franco Alemannia"/>
    <tag k="name" v="W.k.St.V. Franco-Alemannia"/>
  </way>
</osm>
