<?xml version='1.0' encoding='UTF-8'?>
<osm version="0.6" generator="libosmium/2.20.0">
  <way id="108637221" version="1" timestamp="2011-04-15T17:59:32Z" uid="33382" user="de_muur" changeset="7871974">
    <nd ref="388279676"/>
    <nd ref="388279686"/>
    <nd ref="388284359"/>
    <nd ref="388268871"/>
    <nd ref="21722112"/>
    <tag k="highway" v="primary"/>
    <tag k="maxspeed" v="50"/>
    <tag k="name" v="Oldesloer Straße"/>
    <tag k="ref" v="B 208"/>
    <tag k="surface" v="paved"/>
  </way>
  <way id="108637221" version="2" timestamp="2011-09-22T22:05:42Z" uid="52495" user="seawolff" changeset="9372919">
    <nd ref="388279676"/>
    <nd ref="388279686"/>
    <nd ref="1440984745"/>
    <nd ref="388284359"/>
    <nd ref="388268871"/>
    <nd ref="21722112"/>
    <tag k="highway" v="primary"/>
    <tag k="maxspeed" v="50"/>
    <tag k="name" v="Oldesloer Straße"/>
    <tag k="ref" v="B 208"/>
    <tag k="surface" v="paved"/>
  </way>
  <way id="108637221" version="3" timestamp="2012-03-08T11:08:13Z" uid="63107" user="brogo" changeset="10908079"/>
</osm>
