<?xml version='1.0' encoding='UTF-8'?>
<osm version="0.6" generator="libosmium/2.20.0">
  <way id="10891780" version="10" timestamp="2009-09-04T21:15:26Z" uid="36809" user="pfoten_weg_!_" changeset="2374562">
    <nd ref="25279506"/>
    <nd ref="96835813"/>
    <nd ref="96834623"/>
    <nd ref="96835168"/>
    <nd ref="274392498"/>
    <nd ref="96835169"/>
    <nd ref="96835171"/>
    <nd ref="96835166"/>
    <nd ref="96835173"/>
    <nd ref="96835175"/>
    <tag k="highway" v="residential"/>
    <tag k="maxspeed" v="30"/>
    <tag k="name" v="Kederbacherstraße"/>
  </way>
  <way id="10891780" version="11" timestamp="2011-03-16T14:39:25Z" uid="124837" user="swus" changeset="7576313">
    <nd ref="25279506"/>
    <nd ref="96835813"/>
    <nd ref="96834623"/>
    <nd ref="96835168"/>
    <nd ref="274392498"/>
    <nd ref="96835169"/>
    <nd ref="1204278812"/>
    <nd ref="96835171"/>
    <nd ref="96835166"/>
    <nd ref="96835173"/>
    <nd ref="96835175"/>
    <tag k="highway" v="residential"/>
    <tag k="maxspeed" v="30"/>
    <tag k="name" v="Kederbacherstraße"/>
  </way>
  <way id="10891896" version="3" timestamp="2009-10-08T21:13:51Z" uid="179968" user="Ich_hasse_doitsche_OSM-Korinthenkacker" changeset="2788027">
    <nd ref="96871421"/>
    <nd ref="96871425"/>
    <nd ref="96871430"/>
    <nd ref="96871434"/>
    <nd ref="96871421"/>
    <tag k="highway" v="tertiary"/>
    <tag k="oneway" v="yes"/>
  </way>
  <way id="10891896" version="4" timestamp="2010-02-07T23:41:46Z" uid="45882" user="smarties" changeset="3820102">
    <nd ref="96871421"/>
    <nd ref="633021477"/>
    <nd ref="633021468"/>
    <nd ref="96871425"/>
    <nd ref="633021469"/>
    <nd ref="633021466"/>
    <nd ref="96871430"/>
    <nd ref="633021464"/>
    <nd ref="633021463"/>
    <nd ref="96871434"/>
    <nd ref="633021471"/>
    <nd ref="633021472"/>
    <nd ref="96871421"/>
    <tag k="bicycle" v="yes"/>
    <tag k="cycleway" v="track"/>
    <tag k="highway" v="tertiary"/>
    <tag k="junction" v="roundabout"/>
    <tag k="name" v="Valger Landstraße"/>
    <tag k="ref" v="K 69"/>
  </way>
  <way id="10891896" version="5" timestamp="2010-02-07T23:46:48Z" uid="45882" user="smarties" changeset="3820118">
    <nd ref="96871421"/>
    <nd ref="633021477"/>
    <nd ref="633021468"/>
    <nd ref="96871425"/>
    <nd ref="633021469"/>
    <nd ref="633021466"/>
    <nd ref="96871430"/>
    <nd ref="633021464"/>
    <nd ref="633021463"/>
    <nd ref="96871434"/>
    <nd ref="633021471"/>
    <nd ref="633021472"/>
    <nd ref="96871421"/>
    <tag k="bicycle" v="yes"/>
    <tag k="cycleway" v="track"/>
    <tag k="highway" v="tertiary"/>
    <tag k="junction" v="roundabout"/>
    <tag k="maxspeed" v="50"/>
    <tag k="name" v="Valger Landstraße"/>
    <tag k="ref" v="K 69"/>
  </way>
  <way id="10891896" version="6" timestamp="2010-08-08T17:49:14Z" uid="45882" user="smarties" changeset="5435689">
    <nd ref="96871421"/>
    <nd ref="633021477"/>
    <nd ref="633021468"/>
    <nd ref="96871425"/>
    <nd ref="633021469"/>
    <nd ref="633021466"/>
    <nd ref="96871430"/>
    <nd ref="633021464"/>
    <nd ref="633021463"/>
    <nd ref="96871434"/>
    <nd ref="633021471"/>
    <nd ref="633021472"/>
    <nd ref="96871421"/>
    <tag k="bicycle" v="yes"/>
    <tag k="cycleway" v="track"/>
    <tag k="highway" v="tertiary"/>
    <tag k="junction" v="roundabout"/>
    <tag k="maxspeed" v="50"/>
    <tag k="name" v="Valger Landstraße"/>
    <tag k="ref" v="K 69"/>
    <tag k="surface" v="paved"/>
  </way>
  <way id="10891897" version="9" timestamp="2009-10-08T21:13:52Z" uid="179968" user="Ich_hasse_doitsche_OSM-Korinthenkacker" changeset="2788027">
    <nd ref="96871430"/>
    <nd ref="96871437"/>
    <nd ref="354387064"/>
    <nd ref="305627530"/>
    <nd ref="96873631"/>
    <nd ref="96873636"/>
    <nd ref="305627538"/>
    <nd ref="96873640"/>
    <nd ref="96873644"/>
    <nd ref="282104549"/>
    <tag k="highway" v="tertiary"/>
    <tag k="ref" v="K 69"/>
  </way>
  <way id="10891897" version="10" timestamp="2010-02-07T23:41:46Z" uid="45882" user="smarties" changeset="3820102">
    <nd ref="96871430"/>
    <nd ref="96871437"/>
    <nd ref="354387064"/>
    <nd ref="305627530"/>
    <nd ref="96873631"/>
    <nd ref="96873636"/>
    <nd ref="305627538"/>
    <nd ref="96873640"/>
    <nd ref="96873644"/>
    <nd ref="282104549"/>
    <tag k="bicycle" v="yes"/>
    <tag k="cycleway" v="track"/>
    <tag k="highway" v="tertiary"/>
    <tag k="name" v="Valger Landstraße"/>
    <tag k="ref" v="K 69"/>
  </way>
  <way id="10891897" version="11" timestamp="2010-02-07T23:46:47Z" uid="45882" user="smarties" changeset="3820118">
    <nd ref="96871430"/>
    <nd ref="96871437"/>
    <nd ref="354387064"/>
    <nd ref="305627530"/>
    <nd ref="96873631"/>
    <nd ref="96873636"/>
    <nd ref="305627538"/>
    <nd ref="96873640"/>
    <nd ref="96873644"/>
    <nd ref="282104549"/>
    <tag k="bicycle" v="yes"/>
    <tag k="cycleway" v="track"/>
    <tag k="highway" v="tertiary"/>
    <tag k="maxspeed" v="50"/>
    <tag k="name" v="Valger Landstraße"/>
    <tag k="ref" v="K 69"/>
  </way>
  <way id="10891897" version="12" timestamp="2010-04-04T15:56:17Z" uid="45882" user="smarties" changeset="4323948">
    <nd ref="96871430"/>
    <nd ref="96871437"/>
    <nd ref="354387064"/>
    <nd ref="305627530"/>
    <nd ref="96873631"/>
    <nd ref="96873636"/>
    <nd ref="305627538"/>
    <nd ref="96873640"/>
    <nd ref="684255744"/>
    <nd ref="684255746"/>
    <nd ref="96873644"/>
    <nd ref="282104549"/>
    <tag k="bicycle" v="yes"/>
    <tag k="cycleway" v="track"/>
    <tag k="highway" v="tertiary"/>
    <tag k="maxspeed" v="50"/>
    <tag k="name" v="Valger Landstraße"/>
    <tag k="ref" v="K 69"/>
  </way>
  <way id="10891897" version="13" timestamp="2010-08-07T11:44:35Z" uid="45882" user="smarties" changeset="5423912">
    <nd ref="96871430"/>
    <nd ref="96871437"/>
    <nd ref="354387064"/>
    <nd ref="305627530"/>
    <nd ref="96873631"/>
    <nd ref="96873636"/>
    <nd ref="305627538"/>
    <nd ref="96873640"/>
    <nd ref="684255744"/>
    <nd ref="848539893"/>
    <nd ref="848540069"/>
    <nd ref="684255746"/>
    <nd ref="96873644"/>
    <nd ref="282104549"/>
    <nd ref="282104790"/>
    <nd ref="282104792"/>
    <tag k="bicycle" v="yes"/>
    <tag k="cycleway" v="track"/>
    <tag k="highway" v="tertiary"/>
    <tag k="maxspeed" v="50"/>
    <tag k="name" v="Ellhornstraße;Valger Landstraße"/>
    <tag k="ref" v="K 69"/>
  </way>
  <way id="10891897" version="14" timestamp="2010-08-08T10:08:56Z" uid="45882" user="smarties" changeset="5431322">
    <nd ref="96871430"/>
    <nd ref="96871437"/>
    <nd ref="354387064"/>
    <nd ref="305627530"/>
    <nd ref="96873631"/>
    <nd ref="96873636"/>
    <nd ref="305627538"/>
    <nd ref="96873640"/>
    <nd ref="684255744"/>
    <nd ref="848539893"/>
    <nd ref="848540069"/>
    <nd ref="684255746"/>
    <nd ref="96873644"/>
    <nd ref="282104549"/>
    <nd ref="282104790"/>
    <nd ref="282104792"/>
    <tag k="bicycle" v="yes"/>
    <tag k="cycleway" v="track"/>
    <tag k="highway" v="tertiary"/>
    <tag k="maxspeed" v="50"/>
    <tag k="name" v="Valger Landstraße"/>
    <tag k="ref" v="K 69"/>
  </way>
  <way id="10891897" version="15" timestamp="2010-08-08T17:48:32Z" uid="45882" user="smarties" changeset="5435689">
    <nd ref="96871430"/>
    <nd ref="96871437"/>
    <nd ref="354387064"/>
    <nd ref="305627530"/>
    <nd ref="96873631"/>
    <nd ref="96873636"/>
    <nd ref="305627538"/>
    <nd ref="96873640"/>
    <nd ref="684255744"/>
    <nd ref="848539893"/>
    <nd ref="848540069"/>
    <nd ref="684255746"/>
    <nd ref="96873644"/>
    <nd ref="282104549"/>
    <nd ref="282104790"/>
    <nd ref="282104792"/>
    <tag k="bicycle" v="yes"/>
    <tag k="cycleway" v="track"/>
    <tag k="highway" v="tertiary"/>
    <tag k="maxspeed" v="50"/>
    <tag k="name" v="Valger Landstraße"/>
    <tag k="ref" v="K 69"/>
    <tag k="surface" v="paved"/>
  </way>
  <way id="10891897" version="16" timestamp="2011-03-14T23:22:27Z" uid="160164" user="mahau" changeset="7562225">
    <nd ref="96871430"/>
    <nd ref="1202324664"/>
    <nd ref="96871437"/>
    <nd ref="354387064"/>
    <nd ref="305627530"/>
    <nd ref="96873631"/>
    <nd ref="96873636"/>
    <nd ref="305627538"/>
    <nd ref="96873640"/>
    <nd ref="684255744"/>
    <nd ref="848539893"/>
    <nd ref="848540069"/>
    <nd ref="684255746"/>
    <nd ref="96873644"/>
    <nd ref="282104549"/>
    <nd ref="282104790"/>
    <nd ref="282104792"/>
    <tag k="bicycle" v="yes"/>
    <tag k="cycleway" v="track"/>
    <tag k="highway" v="tertiary"/>
    <tag k="maxspeed" v="50"/>
    <tag k="name" v="Valger Landstraße"/>
    <tag k="ref" v="K 69"/>
    <tag k="surface" v="paved"/>
  </way>
  <way id="10891780" version="12" timestamp="2012-04-07T00:38:10Z" uid="124837" user="swus" changeset="11208549"/>
</osm>
