<?xml version='1.0' encoding='UTF-8'?>
<osm version="0.6" generator="libosmium/2.20.0">
  <way id="10926654" version="3" timestamp="2010-02-14T17:04:11Z" uid="74617" user="JohnSmith" changeset="3875836">
    <nd ref="88486602"/>
    <nd ref="320411571"/>
    <nd ref="320411569"/>
    <nd ref="88486601"/>
    <tag k="highway" v="service"/>
    <tag k="maxspeed" v="50"/>
    <tag k="name" v="Brady Street"/>
    <tag k="oneway" v="yes"/>
  </way>
  <way id="10926654" version="4" timestamp="2012-01-15T10:25:22Z" uid="147510" user="woodpeck_fixbot" changeset="10395278">
    <nd ref="88486602"/>
    <nd ref="320411571"/>
    <nd ref="320411569"/>
    <nd ref="88486601"/>
    <tag k="highway" v="service"/>
    <tag k="name" v="Brady Street"/>
    <tag k="oneway" v="yes"/>
  </way>
  <way id="10926656" version="2" timestamp="2010-02-14T17:04:07Z" uid="74617" user="JohnSmith" changeset="3875836">
    <nd ref="88485869"/>
    <nd ref="88485867"/>
    <tag k="highway" v="residential"/>
    <tag k="maxspeed" v="50"/>
    <tag k="name" v="Rogers Street"/>
  </way>
  <way id="10926656" version="3" timestamp="2012-01-15T10:25:23Z" uid="147510" user="woodpeck_fixbot" changeset="10395278">
    <nd ref="88485869"/>
    <nd ref="88485867"/>
    <tag k="highway" v="residential"/>
    <tag k="name" v="Rogers Street"/>
  </way>
  <way id="10926658" version="3" timestamp="2010-02-14T17:04:09Z" uid="74617" user="JohnSmith" changeset="3875836">
    <nd ref="88485866"/>
    <nd ref="88486093"/>
    <nd ref="88485867"/>
    <tag k="highway" v="residential"/>
    <tag k="maxspeed" v="50"/>
    <tag k="name" v="Ida Street"/>
  </way>
  <way id="10926658" version="4" timestamp="2012-01-15T10:25:24Z" uid="147510" user="woodpeck_fixbot" changeset="10395278">
    <nd ref="88485866"/>
    <nd ref="88486093"/>
    <nd ref="88485867"/>
    <tag k="highway" v="residential"/>
    <tag k="name" v="Ida Street"/>
  </way>
  <way id="10926661" version="2" timestamp="2010-02-14T17:03:37Z" uid="74617" user="JohnSmith" changeset="3875836">
    <nd ref="88477747"/>
    <nd ref="88477746"/>
    <nd ref="76474239"/>
    <tag k="highway" v="residential"/>
    <tag k="maxspeed" v="50"/>
    <tag k="name" v="Hill End Terrace"/>
  </way>
  <way id="10926661" version="3" timestamp="2012-01-15T10:25:25Z" uid="147510" user="woodpeck_fixbot" changeset="10395278">
    <nd ref="88477747"/>
    <nd ref="88477746"/>
    <nd ref="76474239"/>
    <tag k="highway" v="residential"/>
    <tag k="name" v="Hill End Terrace"/>
  </way>
  <way id="10926662" version="3" timestamp="2010-02-14T17:03:34Z" uid="74617" user="JohnSmith" changeset="3875836">
    <nd ref="76474239"/>
    <nd ref="88477745"/>
    <nd ref="88477744"/>
    <nd ref="320411510"/>
    <nd ref="320412008"/>
    <nd ref="320411517"/>
    <nd ref="88477743"/>
    <tag k="highway" v="residential"/>
    <tag k="maxspeed" v="50"/>
    <tag k="name" v="Orleigh Street"/>
  </way>
  <way id="10926662" version="4" timestamp="2010-05-26T10:59:23Z" uid="103574" user="Fairfield" changeset="4811867">
    <nd ref="76474239"/>
    <nd ref="88477745"/>
    <nd ref="88477744"/>
    <nd ref="320411510"/>
    <nd ref="320411517"/>
    <nd ref="88477743"/>
    <tag k="highway" v="residential"/>
    <tag k="maxspeed" v="50"/>
    <tag k="name" v="Orleigh Street"/>
  </way>
  <way id="10926662" version="5" timestamp="2012-01-15T10:25:27Z" uid="147510" user="woodpeck_fixbot" changeset="10395278">
    <nd ref="76474239"/>
    <nd ref="88477745"/>
    <nd ref="88477744"/>
    <nd ref="320411510"/>
    <nd ref="320411517"/>
    <nd ref="88477743"/>
    <tag k="highway" v="residential"/>
    <tag k="name" v="Orleigh Street"/>
  </way>
</osm>
