<?xml version='1.0' encoding='UTF-8'?>
<osm version="0.6" generator="libosmium/2.20.0">
  <way id="10946264" version="19" timestamp="2010-04-18T13:36:03Z" uid="4467" user="Rosscoe" changeset="4457925">
    <nd ref="34857914"/>
    <nd ref="471253174"/>
    <nd ref="700952457"/>
    <tag k="highway" v="tertiary"/>
    <tag k="is_in" v="Ferntree Gully,Victoria,Australia"/>
    <tag k="name" v="Blackwood Park Road"/>
    <tag k="postal_code" v="3156"/>
  </way>
  <way id="10946317" version="2" timestamp="2010-06-02T06:50:26Z" uid="4467" user="Rosscoe" changeset="4881307">
    <nd ref="25961815"/>
    <nd ref="97574974"/>
    <tag k="created_by" v="Potlatch 0.4c"/>
    <tag k="highway" v="residential"/>
    <tag k="name" v="Rudder Street"/>
  </way>
  <way id="10946317" version="3" timestamp="2010-09-02T23:53:17Z" uid="299678" user="peteramjet" changeset="5667031">
    <nd ref="25961815"/>
    <nd ref="97574974"/>
    <tag k="highway" v="secondary"/>
    <tag k="name" v="Rudder Street"/>
    <tag k="source" v="GPS"/>
  </way>
  <way id="10946317" version="4" timestamp="2010-09-02T23:56:00Z" uid="299678" user="peteramjet" changeset="5667031">
    <nd ref="25961815"/>
    <nd ref="893574413"/>
    <nd ref="97574974"/>
    <tag k="highway" v="secondary"/>
    <tag k="name" v="Rudder Street"/>
    <tag k="source" v="GPS"/>
  </way>
  <way id="10946317" version="5" timestamp="2011-05-25T18:43:11Z" uid="74617" user="JohnSmith" changeset="8247415">
    <nd ref="25961815"/>
    <nd ref="1299989713"/>
    <nd ref="1299989793"/>
    <nd ref="893574413"/>
    <tag k="highway" v="secondary"/>
    <tag k="name" v="Rudder Street"/>
    <tag k="source" v="GPS"/>
  </way>
  <way id="10946424" version="4" timestamp="2011-05-25T18:43:16Z" uid="74617" user="JohnSmith" changeset="8247415">
    <nd ref="893571189"/>
    <nd ref="893575731"/>
    <nd ref="1299989695"/>
    <tag k="highway" v="residential"/>
    <tag k="name" v="Rudder Street"/>
    <tag k="source" v="GPS"/>
  </way>
  <way id="10946635" version="6" timestamp="2009-09-04T21:16:44Z" uid="36809" user="pfoten_weg_!_" changeset="2374562">
    <nd ref="97576933"/>
    <nd ref="436537586"/>
    <nd ref="97576935"/>
    <nd ref="21133351"/>
    <tag k="highway" v="residential"/>
    <tag k="name" v="Hans-Preißinger-Straße"/>
  </way>
  <way id="10946635" version="7" timestamp="2011-05-09T15:41:10Z" uid="71041" user="TomRadfahrer" changeset="8093772">
    <nd ref="97576933"/>
    <nd ref="436537586"/>
    <nd ref="97576935"/>
    <nd ref="1278245645"/>
    <nd ref="21133351"/>
    <tag k="highway" v="residential"/>
    <tag k="name" v="Hans-Preißinger-Straße"/>
  </way>
  <way id="10946636" version="6" timestamp="2009-09-04T21:12:49Z" uid="36809" user="pfoten_weg_!_" changeset="2374562">
    <nd ref="21133351"/>
    <nd ref="21133352"/>
    <nd ref="97576928"/>
    <nd ref="97576929"/>
    <nd ref="274841435"/>
    <nd ref="97576930"/>
    <tag k="highway" v="residential"/>
    <tag k="name" v="Hans-Preißinger-Straße"/>
    <tag k="surface" v="cobblestone"/>
  </way>
  <way id="10946636" version="7" timestamp="2011-05-09T15:41:10Z" uid="71041" user="TomRadfahrer" changeset="8093772">
    <nd ref="21133351"/>
    <nd ref="1278245561"/>
    <nd ref="1278245408"/>
    <nd ref="21133352"/>
    <nd ref="97576928"/>
    <nd ref="97576929"/>
    <nd ref="274841435"/>
    <nd ref="97576930"/>
    <tag k="highway" v="residential"/>
    <tag k="name" v="Hans-Preißinger-Straße"/>
    <tag k="surface" v="cobblestone"/>
  </way>
  <way id="10946264" version="20" timestamp="2012-07-19T20:13:55Z" uid="722137" user="OSMF Redaction Account" changeset="12345859"/>
  <way id="10946317" version="6" timestamp="2012-07-19T11:36:46Z" uid="722137" user="OSMF Redaction Account" changeset="12322091">
    <nd ref="25961815"/>
    <nd ref="893574413"/>
    <tag k="highway" v="secondary"/>
    <tag k="name" v="Rudder Street"/>
    <tag k="source" v="GPS"/>
  </way>
  <way id="10946424" version="5" timestamp="2012-07-19T11:36:44Z" uid="722137" user="OSMF Redaction Account" changeset="12322091">
    <nd ref="893571189"/>
    <nd ref="893575731"/>
    <tag k="highway" v="residential"/>
    <tag k="name" v="Rudder Street"/>
    <tag k="source" v="GPS"/>
  </way>
  <way id="10946635" version="8" timestamp="2012-04-05T10:56:19Z" uid="2675" user="Eckhart Wörner" changeset="11187600">
    <nd ref="97576933"/>
    <nd ref="436537586"/>
    <nd ref="97576935"/>
    <nd ref="1278245645"/>
    <nd ref="21133351"/>
    <tag k="highway" v="residential"/>
    <tag k="maxspeed" v="50"/>
    <tag k="name" v="Hans-Preißinger-Straße"/>
  </way>
  <way id="10946636" version="8" timestamp="2012-04-05T10:56:19Z" uid="2675" user="Eckhart Wörner" changeset="11187600">
    <nd ref="21133351"/>
    <nd ref="1278245561"/>
    <nd ref="1278245408"/>
    <nd ref="21133352"/>
    <nd ref="97576928"/>
    <nd ref="97576929"/>
    <nd ref="274841435"/>
    <nd ref="97576930"/>
    <tag k="highway" v="residential"/>
    <tag k="maxspeed" v="50"/>
    <tag k="name" v="Hans-Preißinger-Straße"/>
    <tag k="surface" v="cobblestone"/>
  </way>
</osm>
