<?xml version='1.0' encoding='UTF-8'?>
<osm version="0.6" generator="libosmium/2.20.0">
  <way id="10963153" version="5" timestamp="2009-08-30T07:55:53Z" uid="61114" user="Trav" changeset="2309931">
    <nd ref="97728746"/>
    <nd ref="36788676"/>
    <nd ref="300515030"/>
    <nd ref="36788677"/>
    <nd ref="82530202"/>
    <nd ref="263131010"/>
    <nd ref="36788678"/>
    <tag k="highway" v="secondary"/>
    <tag k="name" v="Ernest Street"/>
    <tag k="source" v="survey"/>
  </way>
  <way id="10963153" version="6" timestamp="2009-12-04T08:58:35Z" uid="117890" user="Jonathan Trott" changeset="3286769">
    <nd ref="97728746"/>
    <nd ref="36788676"/>
    <nd ref="300515030"/>
    <nd ref="36788677"/>
    <tag k="highway" v="secondary"/>
    <tag k="name" v="Ernest Street"/>
    <tag k="source" v="survey"/>
  </way>
  <way id="10963153" version="7" timestamp="2010-11-04T23:04:43Z" uid="365425" user="Bicylce NSW" changeset="6292454">
    <nd ref="97728746"/>
    <nd ref="36788676"/>
    <nd ref="300515030"/>
    <nd ref="36788677"/>
    <tag k="highway" v="secondary"/>
    <tag k="lcn" v="yes"/>
    <tag k="name" v="Ernest Street"/>
    <tag k="source" v="survey"/>
  </way>
  <way id="10963153" version="8" timestamp="2011-02-14T04:58:30Z" uid="389517" user="good2010" changeset="7282875">
    <nd ref="97728746"/>
    <nd ref="36788676"/>
    <nd ref="300515030"/>
    <nd ref="36788677"/>
    <tag k="highway" v="secondary"/>
    <tag k="lcn" v="yes"/>
    <tag k="maxspeed" v="50"/>
    <tag k="name" v="Ernest Street"/>
    <tag k="source" v="survey"/>
  </way>
  <way id="10963153" version="9" timestamp="2011-10-13T02:00:20Z" uid="162096" user="Daz" changeset="9543871">
    <nd ref="97728746"/>
    <nd ref="36788676"/>
    <nd ref="300515030"/>
    <nd ref="36788677"/>
    <tag k="highway" v="secondary"/>
    <tag k="maxspeed" v="50"/>
    <tag k="name" v="Ernest Street"/>
    <tag k="source" v="survey"/>
  </way>
  <way id="10963372" version="2" timestamp="2009-03-14T12:56:26Z" uid="61114" user="Trav" changeset="804689">
    <nd ref="36253673"/>
    <nd ref="36252861"/>
    <tag k="bridge" v="yes"/>
    <tag k="created_by" v="Merkaartor 0.13"/>
    <tag k="highway" v="trunk"/>
    <tag k="layer" v="1"/>
    <tag k="name" v="Falcon Street"/>
    <tag k="oneway" v="yes"/>
    <tag k="ref" v="MR10"/>
    <tag k="source:name" v="survey"/>
  </way>
  <way id="10963372" version="3" timestamp="2009-08-29T00:57:55Z" uid="69319" user="Rhubarb" changeset="2296497">
    <nd ref="36253673"/>
    <nd ref="476179387"/>
    <nd ref="36252861"/>
    <tag k="bridge" v="yes"/>
    <tag k="highway" v="trunk"/>
    <tag k="layer" v="1"/>
    <tag k="name" v="Falcon Street"/>
    <tag k="oneway" v="yes"/>
    <tag k="ref" v="MR10"/>
    <tag k="source:name" v="survey"/>
  </way>
  <way id="10963372" version="4" timestamp="2009-12-29T11:17:59Z" uid="69319" user="Rhubarb" changeset="3479477"/>
  <way id="10963373" version="4" timestamp="2008-09-28T09:01:57Z" uid="61114" user="Trav" changeset="709191">
    <nd ref="36253823"/>
    <nd ref="82530217"/>
    <nd ref="36253824"/>
    <nd ref="36253825"/>
    <nd ref="299456129"/>
    <nd ref="36253826"/>
    <nd ref="300515016"/>
    <nd ref="36253827"/>
    <nd ref="299241169"/>
    <nd ref="36253828"/>
    <nd ref="36253657"/>
    <tag k="created_by" v="Merkaartor 0.13"/>
    <tag k="highway" v="trunk"/>
    <tag k="name" v="Military Road"/>
    <tag k="oneway" v="yes"/>
    <tag k="ref" v="MR10"/>
  </way>
  <way id="10963373" version="5" timestamp="2009-08-09T06:27:00Z" uid="104101" user="swanilli" changeset="2081632">
    <nd ref="36253823"/>
    <nd ref="82530217"/>
    <nd ref="36253824"/>
    <nd ref="36253825"/>
    <nd ref="299456129"/>
    <nd ref="36253826"/>
    <nd ref="300515016"/>
    <nd ref="36253827"/>
    <nd ref="299241169"/>
    <nd ref="36253828"/>
    <nd ref="81246492"/>
    <nd ref="81247563"/>
    <nd ref="8656224"/>
    <nd ref="299241160"/>
    <nd ref="81261070"/>
    <nd ref="8656221"/>
    <nd ref="8656217"/>
    <nd ref="81312959"/>
    <nd ref="81312965"/>
    <nd ref="8656216"/>
    <tag k="highway" v="trunk"/>
    <tag k="name" v="Military Road"/>
    <tag k="oneway" v="yes"/>
    <tag k="ref" v="MR10"/>
    <tag k="source" v="survey"/>
  </way>
  <way id="10963373" version="6" timestamp="2009-08-09T06:31:38Z" uid="104101" user="swanilli" changeset="2081661">
    <nd ref="36253823"/>
    <nd ref="82530217"/>
    <nd ref="36253824"/>
    <nd ref="36253825"/>
    <nd ref="299456129"/>
    <nd ref="36253826"/>
    <nd ref="300515016"/>
    <nd ref="36253827"/>
    <nd ref="299241169"/>
    <nd ref="459454010"/>
    <nd ref="36253828"/>
    <nd ref="81246492"/>
    <nd ref="81247563"/>
    <nd ref="8656224"/>
    <nd ref="299241160"/>
    <nd ref="81261070"/>
    <nd ref="8656221"/>
    <nd ref="8656217"/>
    <nd ref="81312959"/>
    <nd ref="81312965"/>
    <nd ref="8656216"/>
    <tag k="highway" v="trunk"/>
    <tag k="name" v="Military Road"/>
    <tag k="oneway" v="yes"/>
    <tag k="ref" v="MR10"/>
    <tag k="source" v="survey"/>
  </way>
  <way id="10963373" version="7" timestamp="2009-08-09T06:34:58Z" uid="104101" user="swanilli" changeset="2081685">
    <nd ref="36253823"/>
    <nd ref="82530217"/>
    <nd ref="36253824"/>
    <nd ref="36253825"/>
    <nd ref="299456129"/>
    <nd ref="36253826"/>
    <nd ref="300515016"/>
    <nd ref="36253827"/>
    <nd ref="299241169"/>
    <nd ref="459454010"/>
    <nd ref="36253828"/>
    <nd ref="81246492"/>
    <tag k="highway" v="trunk"/>
    <tag k="name" v="Military Road"/>
    <tag k="oneway" v="yes"/>
    <tag k="ref" v="MR10"/>
    <tag k="source" v="survey"/>
  </way>
  <way id="10963373" version="8" timestamp="2010-03-31T06:20:46Z" uid="74617" user="JohnSmith" changeset="4282717">
    <nd ref="36253823"/>
    <nd ref="82530217"/>
    <nd ref="36253824"/>
    <nd ref="36253825"/>
    <nd ref="299456129"/>
    <nd ref="36253826"/>
    <nd ref="300515016"/>
    <nd ref="36253827"/>
    <nd ref="299241169"/>
    <nd ref="459454010"/>
    <nd ref="36253828"/>
    <nd ref="81246492"/>
    <tag k="highway" v="trunk"/>
    <tag k="name" v="Military Road"/>
    <tag k="oneway" v="yes"/>
    <tag k="source" v="survey"/>
  </way>
  <way id="10963373" version="9" timestamp="2010-06-28T07:54:44Z" uid="299678" user="peteramjet" changeset="5095437">
    <nd ref="36253823"/>
    <nd ref="82530217"/>
    <nd ref="36253824"/>
    <nd ref="36253825"/>
    <nd ref="299456129"/>
    <nd ref="36253826"/>
    <nd ref="300515016"/>
    <nd ref="36253827"/>
    <nd ref="299241169"/>
    <nd ref="459454010"/>
    <nd ref="36253828"/>
    <nd ref="81246492"/>
    <tag k="highway" v="trunk"/>
    <tag k="name" v="Military Road"/>
    <tag k="oneway" v="yes"/>
    <tag k="ref" v="MR10"/>
    <tag k="source" v="survey"/>
  </way>
  <way id="10963373" version="10" timestamp="2010-07-08T10:22:36Z" uid="299678" user="peteramjet" changeset="5164989">
    <nd ref="36253823"/>
    <nd ref="82530217"/>
    <nd ref="36253824"/>
    <nd ref="36253825"/>
    <nd ref="299456129"/>
    <nd ref="36253826"/>
    <nd ref="300515016"/>
    <nd ref="36253827"/>
    <nd ref="299241169"/>
    <nd ref="459454010"/>
    <nd ref="36253828"/>
    <nd ref="81246492"/>
    <tag k="highway" v="trunk"/>
    <tag k="name" v="Military Road"/>
    <tag k="oneway" v="yes"/>
    <tag k="source" v="survey"/>
  </way>
  <way id="10963373" version="11" timestamp="2011-02-14T06:14:56Z" uid="389517" user="good2010" changeset="7283061">
    <nd ref="36253823"/>
    <nd ref="82530217"/>
    <nd ref="36253824"/>
    <nd ref="36253825"/>
    <nd ref="299456129"/>
    <nd ref="36253826"/>
    <nd ref="300515016"/>
    <nd ref="36253827"/>
    <nd ref="299241169"/>
    <nd ref="459454010"/>
    <nd ref="36253828"/>
    <nd ref="81246492"/>
    <tag k="highway" v="trunk"/>
    <tag k="maxspeed" v="60"/>
    <tag k="name" v="Military Road"/>
    <tag k="oneway" v="yes"/>
    <tag k="source" v="survey"/>
  </way>
  <way id="10963373" version="12" timestamp="2011-02-15T04:22:02Z" uid="389517" user="good2010" changeset="7291778">
    <nd ref="36253823"/>
    <nd ref="82530217"/>
    <nd ref="36253824"/>
    <nd ref="36253825"/>
    <nd ref="299456129"/>
    <nd ref="36253826"/>
    <nd ref="300515016"/>
    <nd ref="36253827"/>
    <nd ref="299241169"/>
    <nd ref="1153962572"/>
    <nd ref="459454010"/>
    <nd ref="36253828"/>
    <nd ref="1153962570"/>
    <nd ref="1153962569"/>
    <tag k="highway" v="trunk"/>
    <tag k="maxspeed" v="60"/>
    <tag k="name" v="Military Road"/>
    <tag k="oneway" v="yes"/>
    <tag k="source" v="survey"/>
  </way>
  <way id="10963373" version="13" timestamp="2012-01-30T06:39:13Z" uid="54784" user="Tom Hollander" changeset="10536990">
    <nd ref="36253823"/>
    <nd ref="82530217"/>
    <nd ref="36253824"/>
    <nd ref="36253825"/>
    <nd ref="299456129"/>
    <nd ref="36253826"/>
    <nd ref="300515016"/>
    <nd ref="36253827"/>
    <nd ref="299241169"/>
    <nd ref="1153962572"/>
    <nd ref="459454010"/>
    <nd ref="36253828"/>
    <nd ref="1153962570"/>
    <nd ref="1153962569"/>
    <tag k="highway" v="trunk"/>
    <tag k="maxspeed" v="60"/>
    <tag k="name" v="Military Road"/>
    <tag k="oneway" v="yes"/>
    <tag k="ref" v="MR10"/>
    <tag k="source" v="survey"/>
  </way>
  <way id="10963373" version="14" timestamp="2012-02-02T01:39:07Z" uid="54784" user="Tom Hollander" changeset="10564136">
    <nd ref="36253823"/>
    <nd ref="82530217"/>
    <nd ref="36253824"/>
    <nd ref="36253825"/>
    <nd ref="299456129"/>
    <nd ref="36253826"/>
    <nd ref="300515016"/>
    <nd ref="1615052759"/>
    <nd ref="36253827"/>
    <nd ref="299241169"/>
    <nd ref="1153962572"/>
    <nd ref="459454010"/>
    <nd ref="36253828"/>
    <nd ref="1153962570"/>
    <nd ref="1153962569"/>
    <tag k="highway" v="trunk"/>
    <tag k="maxspeed" v="60"/>
    <tag k="name" v="Military Road"/>
    <tag k="oneway" v="yes"/>
    <tag k="ref" v="MR10"/>
    <tag k="source" v="survey"/>
  </way>
  <way id="10963698" version="2" timestamp="2008-03-28T01:39:51Z" uid="30201" user="rrankin" changeset="409541">
    <nd ref="13797800"/>
    <nd ref="29421333"/>
    <nd ref="97734023"/>
    <nd ref="82543076"/>
    <nd ref="29421335"/>
    <nd ref="254359678"/>
    <nd ref="29421330"/>
    <tag k="created_by" v="Potlatch alpha"/>
    <tag k="highway" v="residential"/>
  </way>
  <way id="10963698" version="3" timestamp="2008-03-28T08:23:33Z" uid="30201" user="rrankin" changeset="414582">
    <nd ref="13797800"/>
    <nd ref="29421333"/>
    <nd ref="97734023"/>
    <nd ref="82543076"/>
    <nd ref="29421335"/>
    <nd ref="254359678"/>
    <nd ref="254375467"/>
    <tag k="created_by" v="Potlatch 0.8"/>
    <tag k="highway" v="residential"/>
    <tag k="name" v="Palmer Street"/>
  </way>
  <way id="10963698" version="4" timestamp="2008-06-02T00:33:52Z" uid="30201" user="rrankin" changeset="16379">
    <nd ref="13797800"/>
    <nd ref="29421333"/>
    <nd ref="97734023"/>
    <tag k="created_by" v="Potlatch 0.8"/>
    <tag k="highway" v="residential"/>
    <tag k="name" v="Palmer Street"/>
  </way>
  <way id="10963698" version="5" timestamp="2009-05-13T10:19:27Z" uid="69319" user="Rhubarb" changeset="1173726">
    <nd ref="13797800"/>
    <nd ref="395260437"/>
    <nd ref="29421333"/>
    <nd ref="97734023"/>
    <tag k="created_by" v="Potlatch 0.8"/>
    <tag k="highway" v="residential"/>
    <tag k="name" v="Palmer Street"/>
  </way>
  <way id="10963698" version="6" timestamp="2009-05-31T07:05:06Z" uid="61114" user="Trav" changeset="1365696">
    <nd ref="13797800"/>
    <nd ref="395260437"/>
    <nd ref="29421333"/>
    <nd ref="97734023"/>
    <tag k="highway" v="residential"/>
    <tag k="name" v="Palmer Street"/>
    <tag k="source:name" v="survey"/>
  </way>
  <way id="10963698" version="7" timestamp="2010-07-04T11:19:20Z" uid="9477" user="NilbogAus" changeset="5131846">
    <nd ref="13797800"/>
    <nd ref="395260437"/>
    <nd ref="29421333"/>
    <tag k="highway" v="residential"/>
    <tag k="name" v="Palmer Street"/>
    <tag k="source" v="survey"/>
    <tag k="source:name" v="survey"/>
  </way>
  <way id="10963698" version="8" timestamp="2010-07-08T01:18:59Z" uid="74617" user="JohnSmith" changeset="5162525">
    <nd ref="13797800"/>
    <nd ref="395260437"/>
    <nd ref="29421333"/>
    <tag k="highway" v="residential"/>
    <tag k="maxspeed" v="50"/>
    <tag k="maxspeed:source" v="default residential speed limit in Australia"/>
    <tag k="name" v="Palmer Street"/>
    <tag k="source" v="survey"/>
    <tag k="source:name" v="survey"/>
  </way>
  <way id="10963698" version="9" timestamp="2012-01-15T10:28:38Z" uid="147510" user="woodpeck_fixbot" changeset="10395278">
    <nd ref="13797800"/>
    <nd ref="395260437"/>
    <nd ref="29421333"/>
    <tag k="highway" v="residential"/>
    <tag k="name" v="Palmer Street"/>
    <tag k="source" v="survey"/>
    <tag k="source:name" v="survey"/>
  </way>
  <way id="10963810" version="3" timestamp="2010-03-21T05:11:45Z" uid="74617" user="JohnSmith" changeset="4187344">
    <nd ref="97734386"/>
    <nd ref="97735321"/>
    <nd ref="97735324"/>
    <nd ref="97735325"/>
    <nd ref="97735940"/>
    <nd ref="671145869"/>
    <tag k="highway" v="secondary"/>
    <tag k="name" v="Rickertt Road"/>
    <tag k="oneway" v="yes"/>
  </way>
  <way id="10963810" version="4" timestamp="2010-11-30T10:48:25Z" uid="22094" user="Chadzopkyo" changeset="6493318">
    <nd ref="97734386"/>
    <nd ref="97735321"/>
    <nd ref="97735324"/>
    <nd ref="97735940"/>
    <nd ref="671145869"/>
    <tag k="highway" v="secondary"/>
    <tag k="name" v="Rickertt Road"/>
    <tag k="oneway" v="yes"/>
  </way>
  <way id="10963911" version="5" timestamp="2010-03-21T05:11:47Z" uid="74617" user="JohnSmith" changeset="4187344"/>
  <way id="10963153" version="10" timestamp="2012-07-19T21:40:32Z" uid="722137" user="OSMF Redaction Account" changeset="12348758"/>
  <way id="10963373" version="15" timestamp="2012-07-13T04:22:11Z" uid="705018" user="jinkson" changeset="12202605">
    <nd ref="36253823"/>
    <nd ref="82530217"/>
    <nd ref="36253824"/>
    <nd ref="36253825"/>
    <nd ref="299456129"/>
    <nd ref="36253826"/>
    <nd ref="300515016"/>
    <nd ref="1615052759"/>
    <nd ref="36253827"/>
    <nd ref="299241169"/>
    <nd ref="1153962572"/>
    <nd ref="459454010"/>
    <nd ref="36253828"/>
    <nd ref="1153962570"/>
    <nd ref="1823644741"/>
    <tag k="highway" v="trunk"/>
    <tag k="maxspeed" v="60"/>
    <tag k="name" v="Military Road"/>
    <tag k="oneway" v="yes"/>
    <tag k="ref" v="MR10"/>
    <tag k="source" v="survey"/>
  </way>
  <way id="10963373" version="16" timestamp="2012-07-13T04:35:55Z" uid="705018" user="jinkson" changeset="12202605">
    <nd ref="36253823"/>
    <nd ref="82530217"/>
    <nd ref="36253824"/>
    <nd ref="36253825"/>
    <nd ref="299456129"/>
    <nd ref="36253826"/>
    <nd ref="300515016"/>
    <nd ref="1615052759"/>
    <nd ref="36253827"/>
    <nd ref="299241169"/>
    <nd ref="1153962572"/>
    <nd ref="459454010"/>
    <nd ref="36253828"/>
    <nd ref="1153962570"/>
    <nd ref="1823644741"/>
    <tag k="highway" v="trunk"/>
    <tag k="lanes" v="3"/>
    <tag k="maxspeed" v="60"/>
    <tag k="name" v="Military Road"/>
    <tag k="oneway" v="yes"/>
    <tag k="ref" v="MR10"/>
    <tag k="source" v="survey"/>
  </way>
  <way id="10963373" version="17" timestamp="2012-07-14T13:05:31Z" uid="705018" user="jinkson" changeset="12217155">
    <nd ref="36253823"/>
    <nd ref="82530217"/>
    <nd ref="36253824"/>
    <nd ref="36253825"/>
    <nd ref="299456129"/>
    <nd ref="36253826"/>
    <nd ref="300515016"/>
    <nd ref="1615052759"/>
    <nd ref="36253827"/>
    <nd ref="299241169"/>
    <nd ref="1153962572"/>
    <nd ref="459454010"/>
    <nd ref="36253828"/>
    <nd ref="1153962570"/>
    <nd ref="1823644741"/>
    <tag k="highway" v="trunk"/>
    <tag k="lanes" v="3"/>
    <tag k="maxspeed" v="60"/>
    <tag k="name" v="Military Road"/>
    <tag k="network" v="MR"/>
    <tag k="oneway" v="yes"/>
    <tag k="ref" v="10"/>
    <tag k="source" v="survey"/>
  </way>
  <way id="10963373" version="18" timestamp="2012-07-19T21:35:30Z" uid="722137" user="OSMF Redaction Account" changeset="12348543">
    <nd ref="36253823"/>
    <nd ref="82530217"/>
    <nd ref="36253824"/>
    <nd ref="36253825"/>
    <nd ref="299456129"/>
    <nd ref="36253826"/>
    <nd ref="1615052759"/>
    <nd ref="36253827"/>
    <nd ref="299241169"/>
    <nd ref="1153962572"/>
    <nd ref="459454010"/>
    <nd ref="36253828"/>
    <nd ref="1153962570"/>
    <nd ref="1823644741"/>
    <tag k="highway" v="trunk"/>
    <tag k="lanes" v="3"/>
    <tag k="maxspeed" v="60"/>
    <tag k="name" v="Military Road"/>
    <tag k="network" v="MR"/>
    <tag k="oneway" v="yes"/>
    <tag k="ref" v="10"/>
    <tag k="source" v="survey"/>
  </way>
  <way id="10963373" version="19" timestamp="2012-08-24T06:44:39Z" uid="69319" user="Rhubarb" changeset="12841209">
    <nd ref="36253823"/>
    <nd ref="82530217"/>
    <nd ref="36253824"/>
    <nd ref="36253825"/>
    <nd ref="299456129"/>
    <nd ref="36253826"/>
    <nd ref="36253827"/>
    <nd ref="299241169"/>
    <nd ref="1153962572"/>
    <nd ref="459454010"/>
    <nd ref="36253828"/>
    <nd ref="1153962570"/>
    <nd ref="1823644741"/>
    <tag k="highway" v="trunk"/>
    <tag k="lanes" v="3"/>
    <tag k="maxspeed" v="60"/>
    <tag k="name" v="Military Road"/>
    <tag k="network" v="MR"/>
    <tag k="oneway" v="yes"/>
    <tag k="ref" v="10"/>
    <tag k="source" v="survey"/>
  </way>
  <way id="10963698" version="10" timestamp="2012-07-19T21:36:00Z" uid="722137" user="OSMF Redaction Account" changeset="12348543">
    <nd ref="13797800"/>
    <nd ref="395260437"/>
    <nd ref="29421333"/>
    <tag k="highway" v="residential"/>
    <tag k="source" v="survey"/>
  </way>
  <way id="10963810" version="5" timestamp="2012-07-20T02:26:00Z" uid="722137" user="OSMF Redaction Account" changeset="12358035">
    <nd ref="97734386"/>
    <nd ref="97735321"/>
    <nd ref="97735324"/>
    <tag k="highway" v="secondary"/>
    <tag k="name" v="Rickertt Road"/>
    <tag k="oneway" v="yes"/>
  </way>
  <way id="10963810" version="6" timestamp="2012-08-26T06:58:47Z" uid="67896" user="mrpulley" changeset="12862655">
    <nd ref="97734386"/>
    <nd ref="97735321"/>
    <nd ref="97735324"/>
    <nd ref="97735940"/>
    <nd ref="671145869"/>
    <tag k="highway" v="secondary"/>
    <tag k="name" v="Rickertt Road"/>
    <tag k="oneway" v="yes"/>
    <tag k="source" v="Bing"/>
  </way>
</osm>
