<?xml version='1.0' encoding='UTF-8'?>
<osm version="0.6" generator="libosmium/2.20.0">
  <way id="109967875" version="1" timestamp="2011-04-24T02:58:11Z" uid="4467" user="Rosscoe" changeset="7948963">
    <nd ref="1257539945"/>
    <nd ref="1257539955"/>
    <tag k="highway" v="residential"/>
    <tag k="source" v="nearmap"/>
  </way>
  <way id="109967875" version="2" timestamp="2011-09-29T06:54:54Z" uid="168136" user="goldfishxyz" changeset="9424858">
    <nd ref="1257539945"/>
    <nd ref="1257539955"/>
    <tag k="highway" v="residential"/>
    <tag k="name" v="Gordon Ct."/>
    <tag k="source" v="nearmap"/>
  </way>
  <way id="109967875" version="3" timestamp="2011-12-28T12:14:25Z" uid="211804" user="KenS" changeset="10225205">
    <nd ref="1257539945"/>
    <nd ref="1257539955"/>
    <tag k="highway" v="residential"/>
    <tag k="name" v="Gordon Court"/>
    <tag k="source" v="nearmap"/>
  </way>
  <way id="109967875" version="4" timestamp="2012-03-29T06:38:14Z" uid="211804" user="KenS" changeset="11134069">
    <nd ref="1257539945"/>
    <nd ref="1695771706"/>
    <tag k="highway" v="residential"/>
    <tag k="name" v="Gordon Court"/>
    <tag k="source" v="nearmap"/>
  </way>
  <way id="109967875" version="5" timestamp="2012-03-29T06:44:56Z" uid="211804" user="KenS" changeset="11134122"/>
</osm>
