<?xml version='1.0' encoding='UTF-8'?>
<osm version="0.6" generator="libosmium/2.20.0">
  <way id="109905031" version="1" timestamp="2011-04-23T19:15:57Z" uid="20587" user="balrog-kun" changeset="7946490">
    <nd ref="393493670"/>
    <nd ref="393493673"/>
    <nd ref="393493639"/>
    <nd ref="393493567"/>
    <nd ref="393493569"/>
    <nd ref="393493603"/>
    <nd ref="393493605"/>
    <nd ref="393493609"/>
    <nd ref="393493670"/>
    <tag k="addr:housenumber" v="550"/>
    <tag k="addr:street" v="Avenue H"/>
    <tag k="building" v="abandoned"/>
    <tag k="name" v="Education Center Building 29A"/>
    <tag k="source" v="Yahoo"/>
  </way>
  <way id="109905031" version="2" timestamp="2011-04-25T07:08:37Z" uid="20587" user="balrog-kun" changeset="7959799">
    <nd ref="393493670"/>
    <nd ref="393493673"/>
    <nd ref="393493639"/>
    <nd ref="393493567"/>
    <nd ref="393493569"/>
    <nd ref="393493603"/>
    <nd ref="393493605"/>
    <nd ref="393493609"/>
    <nd ref="393493670"/>
    <tag k="addr:housenumber" v="550"/>
    <tag k="addr:street" v="Avenue H"/>
    <tag k="building" v="abandoned"/>
    <tag k="building:levels" v="1"/>
    <tag k="name" v="Education Center Building 29A"/>
    <tag k="source" v="Yahoo"/>
  </way>
  <way id="109905033" version="1" timestamp="2011-04-23T19:15:57Z" uid="20587" user="balrog-kun" changeset="7946490">
    <nd ref="1257032682"/>
    <nd ref="1257032647"/>
    <nd ref="1257032691"/>
    <nd ref="262829696"/>
    <nd ref="1257032669"/>
    <nd ref="1257032653"/>
    <nd ref="1257032682"/>
    <tag k="barrier" v="fence"/>
    <tag k="landuse" v="construction"/>
  </way>
  <way id="109905037" version="1" timestamp="2011-04-23T19:15:57Z" uid="20587" user="balrog-kun" changeset="7946490">
    <nd ref="393493650"/>
    <nd ref="393493660"/>
    <nd ref="393493625"/>
    <nd ref="393493629"/>
    <nd ref="393493663"/>
    <nd ref="393493600"/>
    <nd ref="393493584"/>
    <nd ref="393493582"/>
    <nd ref="393493595"/>
    <nd ref="393493598"/>
    <nd ref="393493650"/>
    <tag k="addr:housenumber" v="550"/>
    <tag k="addr:street" v="Avenue H"/>
    <tag k="building" v="abandoned"/>
    <tag k="name" v="Education Center Building 29C"/>
    <tag k="source" v="Yahoo"/>
  </way>
  <way id="109905037" version="2" timestamp="2011-04-25T07:08:41Z" uid="20587" user="balrog-kun" changeset="7959799">
    <nd ref="393493650"/>
    <nd ref="393493660"/>
    <nd ref="393493625"/>
    <nd ref="393493629"/>
    <nd ref="393493663"/>
    <nd ref="393493600"/>
    <nd ref="393493584"/>
    <nd ref="393493582"/>
    <nd ref="393493595"/>
    <nd ref="393493598"/>
    <nd ref="393493650"/>
    <tag k="addr:housenumber" v="550"/>
    <tag k="addr:street" v="Avenue H"/>
    <tag k="building" v="abandoned"/>
    <tag k="building:levels" v="1"/>
    <tag k="name" v="Education Center Building 29C"/>
    <tag k="source" v="Yahoo"/>
  </way>
  <way id="109905040" version="1" timestamp="2011-04-23T19:15:58Z" uid="20587" user="balrog-kun" changeset="7946490">
    <nd ref="393493593"/>
    <nd ref="393493571"/>
    <nd ref="393493564"/>
    <nd ref="393493566"/>
    <nd ref="393493613"/>
    <nd ref="393493643"/>
    <nd ref="393493593"/>
    <tag k="addr:housenumber" v="550"/>
    <tag k="addr:street" v="Avenue H"/>
    <tag k="building" v="abandoned"/>
    <tag k="name" v="Education Center Building 29E"/>
    <tag k="source" v="Yahoo"/>
  </way>
  <way id="109905040" version="2" timestamp="2011-04-25T07:08:39Z" uid="20587" user="balrog-kun" changeset="7959799">
    <nd ref="393493593"/>
    <nd ref="393493571"/>
    <nd ref="393493564"/>
    <nd ref="393493566"/>
    <nd ref="393493613"/>
    <nd ref="393493643"/>
    <nd ref="393493593"/>
    <tag k="addr:housenumber" v="550"/>
    <tag k="addr:street" v="Avenue H"/>
    <tag k="building" v="abandoned"/>
    <tag k="building:levels" v="1"/>
    <tag k="name" v="Education Center Building 29E"/>
    <tag k="source" v="Yahoo"/>
  </way>
  <way id="109905041" version="1" timestamp="2011-04-23T19:15:58Z" uid="20587" user="balrog-kun" changeset="7946490">
    <nd ref="1257032644"/>
    <nd ref="1257032685"/>
    <nd ref="1257032676"/>
    <nd ref="1257032690"/>
    <nd ref="1257032679"/>
    <nd ref="1257032672"/>
    <nd ref="1257032644"/>
    <tag k="access" v="no"/>
    <tag k="barrier" v="fence"/>
    <tag k="hazard" v="radiation"/>
    <tag k="landuse" v="construction"/>
    <tag k="name" v="Government environmental investigation, radiation danger"/>
  </way>
  <way id="109905044" version="1" timestamp="2011-04-23T19:15:58Z" uid="20587" user="balrog-kun" changeset="7946490">
    <nd ref="393493643"/>
    <nd ref="393493647"/>
    <nd ref="393493616"/>
    <nd ref="393493620"/>
    <nd ref="393493650"/>
    <nd ref="393493598"/>
    <nd ref="393493580"/>
    <nd ref="393493573"/>
    <nd ref="393493590"/>
    <nd ref="393493593"/>
    <nd ref="393493643"/>
    <tag k="addr:housenumber" v="550"/>
    <tag k="addr:street" v="Avenue H"/>
    <tag k="building" v="abandoned"/>
    <tag k="name" v="Education Center Building 29D"/>
    <tag k="source" v="Yahoo"/>
  </way>
  <way id="109905044" version="2" timestamp="2011-04-25T07:08:40Z" uid="20587" user="balrog-kun" changeset="7959799">
    <nd ref="393493643"/>
    <nd ref="393493647"/>
    <nd ref="393493616"/>
    <nd ref="393493620"/>
    <nd ref="393493650"/>
    <nd ref="393493598"/>
    <nd ref="393493580"/>
    <nd ref="393493573"/>
    <nd ref="393493590"/>
    <nd ref="393493593"/>
    <nd ref="393493643"/>
    <tag k="addr:housenumber" v="550"/>
    <tag k="addr:street" v="Avenue H"/>
    <tag k="building" v="abandoned"/>
    <tag k="building:levels" v="1"/>
    <tag k="name" v="Education Center Building 29D"/>
    <tag k="source" v="Yahoo"/>
  </way>
</osm>
