<?xml version='1.0' encoding='UTF-8'?>
<osm version="0.6" generator="libosmium/2.20.0">
  <way id="10996002" version="6" timestamp="2009-11-10T13:41:48Z" uid="23543" user="jkjk" changeset="3082104">
    <nd ref="97952104"/>
    <nd ref="97952151"/>
    <nd ref="97951610"/>
    <tag k="highway" v="tertiary"/>
    <tag k="kct_blue" v="major"/>
    <tag k="kct_red" v="major"/>
    <tag k="name" v="Černošická"/>
    <tag k="ref" v="1158"/>
  </way>
  <way id="10996002" version="7" timestamp="2009-11-16T11:36:30Z" uid="17615" user="Petr Dlouhý" changeset="3131069">
    <nd ref="97952104"/>
    <nd ref="97952151"/>
    <nd ref="97951610"/>
    <tag k="highway" v="tertiary"/>
    <tag k="kct_red" v="major"/>
    <tag k="name" v="Černošická"/>
    <tag k="ref" v="1158"/>
  </way>
  <way id="10996002" version="8" timestamp="2009-11-16T11:53:18Z" uid="17615" user="Petr Dlouhý" changeset="3131203">
    <nd ref="97952104"/>
    <nd ref="97952151"/>
    <nd ref="97951610"/>
    <tag k="highway" v="tertiary"/>
    <tag k="name" v="Černošická"/>
    <tag k="ref" v="1158"/>
  </way>
  <way id="10996002" version="9" timestamp="2010-10-24T20:45:30Z" uid="172147" user="&lt;0174" changeset="6162987">
    <nd ref="97952104"/>
    <nd ref="97952151"/>
    <nd ref="97951610"/>
    <tag k="highway" v="tertiary"/>
    <tag k="maxspeed" v="40"/>
    <tag k="name" v="Černošická"/>
    <tag k="ref" v="1158"/>
  </way>
  <way id="10996652" version="10" timestamp="2011-01-29T20:18:37Z" uid="33382" user="de_muur" changeset="7126816">
    <nd ref="33601168"/>
    <nd ref="256128415"/>
    <nd ref="256128414"/>
    <nd ref="97955461"/>
    <nd ref="107633496"/>
    <nd ref="97955467"/>
    <nd ref="256128429"/>
    <tag k="highway" v="secondary"/>
    <tag k="name" v="Holtumer Hauptstraße"/>
    <tag k="ref" v="L 202"/>
    <tag k="surface" v="paved"/>
  </way>
  <way id="10996652" version="11" timestamp="2011-01-29T20:25:19Z" uid="33382" user="de_muur" changeset="7126896">
    <nd ref="33601168"/>
    <nd ref="256128415"/>
    <tag k="highway" v="secondary"/>
    <tag k="maxspeed" v="50"/>
    <tag k="name" v="Holtumer Hauptstraße"/>
    <tag k="ref" v="L 202"/>
    <tag k="surface" v="paved"/>
  </way>
  <way id="10996652" version="12" timestamp="2011-02-03T19:44:24Z" uid="33382" user="de_muur" changeset="7177104">
    <nd ref="33601168"/>
    <nd ref="256128415"/>
    <tag k="highway" v="secondary"/>
    <tag k="maxspeed" v="50"/>
    <tag k="name" v="Hustedter Dorfstraße"/>
    <tag k="ref" v="L 202"/>
    <tag k="surface" v="paved"/>
  </way>
  <way id="10996652" version="13" timestamp="2012-03-04T16:37:58Z" uid="57645" user="KartoGrapHiti" changeset="10870627">
    <nd ref="33601168"/>
    <nd ref="256128415"/>
    <tag k="highway" v="secondary"/>
    <tag k="maxspeed" v="50"/>
    <tag k="name" v="Hustedter Dorfstraße"/>
    <tag k="ref" v="L 202"/>
    <tag k="surface" v="asphalt"/>
  </way>
  <way id="10996654" version="10" timestamp="2010-07-11T11:32:21Z" uid="33382" user="de_muur" changeset="5189394">
    <nd ref="97955321"/>
    <nd ref="811292843"/>
    <tag k="highway" v="tertiary"/>
    <tag k="maxspeed" v="50"/>
    <tag k="ref" v="K 20"/>
    <tag k="surface" v="paved"/>
  </way>
  <way id="10996654" version="11" timestamp="2010-11-28T17:23:18Z" uid="42429" user="FK270673" changeset="6480276">
    <nd ref="97955321"/>
    <nd ref="811292843"/>
    <tag k="highway" v="tertiary"/>
    <tag k="maxspeed" v="50"/>
    <tag k="name" v="Im Knick"/>
    <tag k="ref" v="K 20"/>
    <tag k="surface" v="paved"/>
  </way>
  <way id="10996654" version="12" timestamp="2010-12-22T17:08:22Z" uid="57645" user="KartoGrapHiti" changeset="6737576">
    <nd ref="97955321"/>
    <nd ref="1057129652"/>
    <nd ref="811292843"/>
    <tag k="highway" v="tertiary"/>
    <tag k="maxspeed" v="50"/>
    <tag k="name" v="Im Knick"/>
    <tag k="ref" v="K 20"/>
    <tag k="surface" v="paved"/>
  </way>
  <way id="10996654" version="13" timestamp="2011-01-29T20:18:44Z" uid="33382" user="de_muur" changeset="7126816">
    <nd ref="97955321"/>
    <nd ref="1057129652"/>
    <nd ref="811292843"/>
    <tag k="cycleway" v="track"/>
    <tag k="highway" v="tertiary"/>
    <tag k="maxspeed" v="50"/>
    <tag k="name" v="Im Knick"/>
    <tag k="ref" v="K 20"/>
    <tag k="surface" v="paved"/>
  </way>
  <way id="10996654" version="14" timestamp="2011-08-22T19:57:42Z" uid="57645" user="KartoGrapHiti" changeset="9097710">
    <nd ref="97955321"/>
    <nd ref="1057129652"/>
    <nd ref="811292843"/>
    <tag k="highway" v="tertiary"/>
    <tag k="maxspeed" v="50"/>
    <tag k="name" v="Im Knick"/>
    <tag k="ref" v="K 20"/>
    <tag k="surface" v="paved"/>
  </way>
  <way id="10996654" version="15" timestamp="2011-10-15T11:28:56Z" uid="114430" user="Chenshi" changeset="9562648">
    <nd ref="97955321"/>
    <nd ref="1057129652"/>
    <nd ref="811292843"/>
    <nd ref="267825431"/>
    <nd ref="811292846"/>
    <tag k="highway" v="tertiary"/>
    <tag k="maxspeed" v="50"/>
    <tag k="name" v="Im Knick"/>
    <tag k="ref" v="K 20"/>
    <tag k="surface" v="paved"/>
  </way>
  <way id="10996654" version="16" timestamp="2012-03-04T11:41:57Z" uid="57645" user="KartoGrapHiti" changeset="10867257">
    <nd ref="97955321"/>
    <nd ref="1057129652"/>
    <nd ref="811292843"/>
    <nd ref="267825431"/>
    <tag k="highway" v="tertiary"/>
    <tag k="maxspeed" v="50"/>
    <tag k="name" v="Im Knick"/>
    <tag k="ref" v="K 20"/>
    <tag k="surface" v="paved"/>
  </way>
  <way id="10996654" version="17" timestamp="2012-03-04T16:38:00Z" uid="57645" user="KartoGrapHiti" changeset="10870627">
    <nd ref="97955321"/>
    <nd ref="1057129652"/>
    <nd ref="811292843"/>
    <nd ref="267825431"/>
    <tag k="highway" v="tertiary"/>
    <tag k="maxspeed" v="50"/>
    <tag k="name" v="Im Knick"/>
    <tag k="ref" v="K 20"/>
    <tag k="surface" v="asphalt"/>
  </way>
  <way id="10996659" version="15" timestamp="2010-04-06T19:44:29Z" uid="33382" user="de_muur" changeset="4348125">
    <nd ref="323858763"/>
    <nd ref="489346732"/>
    <nd ref="97955336"/>
    <nd ref="489346756"/>
    <nd ref="269210337"/>
    <nd ref="269210298"/>
    <nd ref="97955341"/>
    <nd ref="324243397"/>
    <nd ref="324243399"/>
    <nd ref="269210316"/>
    <nd ref="97955346"/>
    <nd ref="369693812"/>
    <nd ref="97955350"/>
    <nd ref="324243708"/>
    <nd ref="269210320"/>
    <nd ref="324243709"/>
    <nd ref="97955353"/>
    <nd ref="687010997"/>
    <tag k="highway" v="tertiary"/>
    <tag k="ref" v="K 143"/>
    <tag k="surface" v="paved"/>
  </way>
  <way id="10996659" version="16" timestamp="2010-04-24T09:40:59Z" uid="33382" user="de_muur" changeset="4510311">
    <nd ref="323858763"/>
    <nd ref="489346732"/>
    <nd ref="97955336"/>
    <nd ref="489346756"/>
    <nd ref="269210337"/>
    <nd ref="269210298"/>
    <nd ref="97955341"/>
    <nd ref="324243397"/>
    <nd ref="324243399"/>
    <nd ref="269210316"/>
    <nd ref="97955346"/>
    <nd ref="369693812"/>
    <nd ref="97955350"/>
    <nd ref="324243708"/>
    <nd ref="269210320"/>
    <nd ref="324243709"/>
    <nd ref="97955353"/>
    <tag k="highway" v="tertiary"/>
    <tag k="ref" v="K 143"/>
    <tag k="surface" v="paved"/>
  </way>
  <way id="10996659" version="17" timestamp="2010-05-25T13:43:13Z" uid="35574" user="Schorse" changeset="4803763">
    <nd ref="323858763"/>
    <nd ref="97955336"/>
    <nd ref="489346756"/>
    <nd ref="269210337"/>
    <nd ref="269210298"/>
    <nd ref="97955341"/>
    <nd ref="324243397"/>
    <nd ref="324243399"/>
    <nd ref="269210316"/>
    <nd ref="97955346"/>
    <nd ref="369693812"/>
    <nd ref="97955350"/>
    <nd ref="324243708"/>
    <nd ref="269210320"/>
    <nd ref="324243709"/>
    <nd ref="97955353"/>
    <tag k="bicycle" v="designated"/>
    <tag k="cycleway" v="track"/>
    <tag k="foot" v="designated"/>
    <tag k="highway" v="tertiary"/>
    <tag k="ref" v="K 143"/>
    <tag k="surface" v="paved"/>
  </way>
  <way id="10996659" version="18" timestamp="2010-12-05T23:17:10Z" uid="57645" user="KartoGrapHiti" changeset="6558228">
    <nd ref="323858763"/>
    <nd ref="1024086330"/>
    <nd ref="1024086314"/>
    <nd ref="97955336"/>
    <nd ref="489346756"/>
    <nd ref="269210337"/>
    <nd ref="269210298"/>
    <nd ref="97955341"/>
    <nd ref="324243397"/>
    <nd ref="324243399"/>
    <nd ref="269210316"/>
    <nd ref="97955346"/>
    <nd ref="369693812"/>
    <nd ref="97955350"/>
    <nd ref="324243708"/>
    <nd ref="269210320"/>
    <nd ref="324243709"/>
    <nd ref="97955353"/>
    <tag k="bicycle" v="designated"/>
    <tag k="cycleway" v="track"/>
    <tag k="foot" v="designated"/>
    <tag k="highway" v="tertiary"/>
    <tag k="ref" v="K 143"/>
    <tag k="surface" v="paved"/>
  </way>
  <way id="10996659" version="19" timestamp="2011-10-03T22:06:00Z" uid="492542" user="cronos884" changeset="9465303">
    <nd ref="323858763"/>
    <nd ref="1024086330"/>
    <nd ref="1024086314"/>
    <nd ref="97955336"/>
    <nd ref="489346756"/>
    <nd ref="269210337"/>
    <nd ref="269210298"/>
    <nd ref="97955341"/>
    <nd ref="324243397"/>
    <nd ref="324243399"/>
    <nd ref="269210316"/>
    <nd ref="97955346"/>
    <nd ref="369693812"/>
    <nd ref="97955350"/>
    <nd ref="324243708"/>
    <nd ref="269210320"/>
    <nd ref="324243709"/>
    <nd ref="97955353"/>
    <tag k="bicycle" v="designated"/>
    <tag k="cycleway" v="track"/>
    <tag k="foot" v="designated"/>
    <tag k="highway" v="tertiary"/>
    <tag k="maxspeed" v="100"/>
    <tag k="ref" v="K 143"/>
    <tag k="surface" v="paved"/>
  </way>
  <way id="10996659" version="20" timestamp="2011-10-15T11:28:58Z" uid="114430" user="Chenshi" changeset="9562648">
    <nd ref="323858763"/>
    <nd ref="1468075422"/>
    <nd ref="1024086330"/>
    <nd ref="1468075420"/>
    <nd ref="1468075418"/>
    <nd ref="1024086314"/>
    <nd ref="97955336"/>
    <nd ref="489346756"/>
    <nd ref="269210337"/>
    <nd ref="269210298"/>
    <nd ref="97955341"/>
    <nd ref="324243397"/>
    <nd ref="324243399"/>
    <nd ref="269210316"/>
    <nd ref="97955346"/>
    <nd ref="369693812"/>
    <nd ref="97955350"/>
    <nd ref="324243708"/>
    <nd ref="269210320"/>
    <nd ref="324243709"/>
    <nd ref="97955353"/>
    <tag k="bicycle" v="designated"/>
    <tag k="cycleway" v="track"/>
    <tag k="foot" v="designated"/>
    <tag k="highway" v="tertiary"/>
    <tag k="maxspeed" v="100"/>
    <tag k="ref" v="K 143"/>
    <tag k="surface" v="paved"/>
  </way>
  <way id="10996659" version="21" timestamp="2011-11-10T22:51:03Z" uid="76114" user="Letus" changeset="9793061">
    <nd ref="323858763"/>
    <nd ref="1468075422"/>
    <nd ref="1024086330"/>
    <nd ref="1468075420"/>
    <nd ref="1468075418"/>
    <nd ref="1024086314"/>
    <nd ref="97955336"/>
    <nd ref="489346756"/>
    <nd ref="269210337"/>
    <nd ref="269210298"/>
    <nd ref="1497898774"/>
    <nd ref="97955341"/>
    <nd ref="1497898772"/>
    <nd ref="324243397"/>
    <nd ref="1497898770"/>
    <nd ref="324243399"/>
    <nd ref="269210316"/>
    <nd ref="97955346"/>
    <nd ref="1497898775"/>
    <nd ref="369693812"/>
    <nd ref="97955350"/>
    <nd ref="324243708"/>
    <nd ref="269210320"/>
    <nd ref="1497898754"/>
    <nd ref="324243709"/>
    <nd ref="97955353"/>
    <tag k="bicycle" v="designated"/>
    <tag k="cycleway" v="track"/>
    <tag k="foot" v="designated"/>
    <tag k="highway" v="tertiary"/>
    <tag k="maxspeed" v="100"/>
    <tag k="ref" v="K 143"/>
    <tag k="surface" v="paved"/>
  </way>
  <way id="10996659" version="22" timestamp="2012-03-04T11:41:58Z" uid="57645" user="KartoGrapHiti" changeset="10867257">
    <nd ref="323858763"/>
    <nd ref="1468075422"/>
    <nd ref="1468075420"/>
    <nd ref="1468075418"/>
    <nd ref="1024086314"/>
    <nd ref="97955336"/>
    <nd ref="489346756"/>
    <nd ref="269210337"/>
    <nd ref="269210298"/>
    <nd ref="1497898774"/>
    <nd ref="97955341"/>
    <nd ref="1497898772"/>
    <nd ref="324243397"/>
    <nd ref="1497898770"/>
    <nd ref="324243399"/>
    <nd ref="269210316"/>
    <nd ref="97955346"/>
    <nd ref="1497898775"/>
    <nd ref="369693812"/>
    <nd ref="97955350"/>
    <nd ref="324243708"/>
    <nd ref="269210320"/>
    <nd ref="1497898754"/>
    <nd ref="324243709"/>
    <nd ref="97955353"/>
    <tag k="highway" v="tertiary"/>
    <tag k="maxspeed" v="100"/>
    <tag k="ref" v="K 143"/>
    <tag k="surface" v="paved"/>
  </way>
  <way id="10996660" version="3" timestamp="2008-04-14T13:46:39Z" uid="33382" user="de_muur" changeset="141778">
    <nd ref="97955370"/>
    <nd ref="97955368"/>
    <nd ref="97955374"/>
    <nd ref="254331562"/>
    <nd ref="254331560"/>
    <nd ref="97955371"/>
    <nd ref="97955384"/>
    <nd ref="257552733"/>
    <nd ref="97955379"/>
    <nd ref="97955388"/>
    <nd ref="31196831"/>
    <tag k="created_by" v="nmea2osm"/>
    <tag k="highway" v="tertiary"/>
  </way>
  <way id="10996660" version="4" timestamp="2008-04-15T16:38:06Z" uid="33382" user="de_muur" changeset="156989">
    <nd ref="97955370"/>
    <nd ref="97955368"/>
    <nd ref="97955374"/>
    <nd ref="254331562"/>
    <nd ref="254331560"/>
    <nd ref="97955371"/>
    <nd ref="97955384"/>
    <nd ref="257745263"/>
    <nd ref="97955379"/>
    <nd ref="97955388"/>
    <nd ref="31196831"/>
    <tag k="created_by" v="nmea2osm"/>
    <tag k="highway" v="tertiary"/>
  </way>
  <way id="10996660" version="5" timestamp="2008-04-20T21:16:13Z" uid="11486" user="akemnade" changeset="212284">
    <nd ref="97955370"/>
    <nd ref="97955368"/>
    <nd ref="97955374"/>
    <nd ref="254331562"/>
    <nd ref="254331560"/>
    <nd ref="97955371"/>
    <nd ref="97955384"/>
    <nd ref="257552733"/>
    <nd ref="97955379"/>
    <nd ref="97955388"/>
    <nd ref="31196831"/>
    <tag k="created_by" v="nmea2osm"/>
    <tag k="highway" v="tertiary"/>
  </way>
  <way id="10996660" version="6" timestamp="2008-06-18T14:54:58Z" uid="17889" user="rrissiek" changeset="208383">
    <nd ref="97955370"/>
    <nd ref="97955368"/>
    <nd ref="97955374"/>
    <nd ref="254331562"/>
    <nd ref="254331560"/>
    <nd ref="97955371"/>
    <nd ref="97955384"/>
    <nd ref="257552733"/>
    <tag k="created_by" v="nmea2osm"/>
    <tag k="highway" v="tertiary"/>
    <tag k="ncn_ref" v="D9"/>
  </way>
  <way id="10996660" version="7" timestamp="2008-06-22T17:44:11Z" uid="2675" user="Eckhart Wörner" changeset="259014">
    <nd ref="97955370"/>
    <nd ref="97955368"/>
    <nd ref="97955374"/>
    <nd ref="254331562"/>
    <nd ref="254331560"/>
    <nd ref="97955371"/>
    <nd ref="97955384"/>
    <nd ref="257552733"/>
    <tag k="created_by" v="nmea2osm"/>
    <tag k="highway" v="tertiary"/>
  </way>
  <way id="10996660" version="8" timestamp="2008-06-23T08:59:59Z" uid="35574" user="Schorse" changeset="268018">
    <nd ref="97955370"/>
    <nd ref="272265139"/>
    <nd ref="272265140"/>
    <nd ref="272265137"/>
    <nd ref="272265135"/>
    <nd ref="272265133"/>
    <nd ref="97955368"/>
    <nd ref="272265132"/>
    <nd ref="272265130"/>
    <nd ref="272265128"/>
    <nd ref="97955374"/>
    <nd ref="254331562"/>
    <nd ref="254331560"/>
    <nd ref="97955371"/>
    <nd ref="97955384"/>
    <tag k="created_by" v="nmea2osm"/>
    <tag k="highway" v="tertiary"/>
    <tag k="name" v="Thedinghauser Straße"/>
    <tag k="ref" v="K 75"/>
  </way>
  <way id="10996660" version="9" timestamp="2008-09-13T17:26:05Z" uid="57645" user="KartoGrapHiti" changeset="622025">
    <nd ref="97955370"/>
    <nd ref="272265139"/>
    <nd ref="272265140"/>
    <nd ref="272265137"/>
    <nd ref="272265135"/>
    <nd ref="272265133"/>
    <nd ref="296424498"/>
    <nd ref="97955368"/>
    <nd ref="272265132"/>
    <nd ref="272265130"/>
    <nd ref="272265128"/>
    <nd ref="97955374"/>
    <nd ref="254331562"/>
    <nd ref="254331560"/>
    <nd ref="97955371"/>
    <nd ref="97955384"/>
    <tag k="created_by" v="Potlatch 0.10b"/>
    <tag k="highway" v="tertiary"/>
    <tag k="name" v="Thedinghauser Straße"/>
    <tag k="ref" v="K 75"/>
  </way>
  <way id="10996660" version="10" timestamp="2008-09-13T17:35:05Z" uid="57645" user="KartoGrapHiti" changeset="622025">
    <nd ref="97955370"/>
    <nd ref="272265139"/>
    <nd ref="272265140"/>
    <nd ref="272265137"/>
    <nd ref="272265135"/>
    <nd ref="272265133"/>
    <nd ref="296424498"/>
    <nd ref="97955368"/>
    <nd ref="272265132"/>
    <nd ref="272265130"/>
    <nd ref="272265128"/>
    <nd ref="97955374"/>
    <nd ref="254331562"/>
    <nd ref="254331560"/>
    <nd ref="97955371"/>
    <nd ref="97955384"/>
    <tag k="created_by" v="Potlatch 0.10b"/>
    <tag k="highway" v="tertiary"/>
    <tag k="name" v="Thedinghauser Straße"/>
    <tag k="ref" v="K 75"/>
  </way>
  <way id="10996660" version="11" timestamp="2008-09-13T17:40:53Z" uid="57645" user="KartoGrapHiti" changeset="622025">
    <nd ref="97955370"/>
    <nd ref="272265139"/>
    <nd ref="272265140"/>
    <nd ref="272265137"/>
    <nd ref="272265135"/>
    <nd ref="272265133"/>
    <nd ref="296424498"/>
    <nd ref="97955368"/>
    <nd ref="272265132"/>
    <nd ref="272265130"/>
    <nd ref="272265128"/>
    <nd ref="97955374"/>
    <nd ref="296428373"/>
    <nd ref="254331562"/>
    <nd ref="254331560"/>
    <nd ref="97955371"/>
    <nd ref="97955384"/>
    <tag k="created_by" v="Potlatch 0.10b"/>
    <tag k="highway" v="tertiary"/>
    <tag k="name" v="Thedinghauser Straße"/>
    <tag k="ref" v="K 75"/>
  </way>
  <way id="10996660" version="12" timestamp="2008-10-17T08:34:59Z" uid="57645" user="KartoGrapHiti" changeset="403037">
    <nd ref="97955370"/>
    <nd ref="272265139"/>
    <nd ref="305112244"/>
    <nd ref="272265140"/>
    <nd ref="272265137"/>
    <nd ref="272265135"/>
    <nd ref="272265133"/>
    <nd ref="296424498"/>
    <nd ref="305112245"/>
    <nd ref="97955368"/>
    <nd ref="305112246"/>
    <nd ref="272265132"/>
    <nd ref="272265130"/>
    <nd ref="272265128"/>
    <nd ref="97955374"/>
    <nd ref="296428373"/>
    <nd ref="254331562"/>
    <nd ref="254331560"/>
    <nd ref="97955371"/>
    <nd ref="97955384"/>
    <tag k="created_by" v="Potlatch 0.10e"/>
    <tag k="highway" v="tertiary"/>
    <tag k="name" v="Thedinghauser Straße"/>
    <tag k="ref" v="K 75"/>
  </way>
  <way id="10996660" version="13" timestamp="2008-10-17T08:35:15Z" uid="57645" user="KartoGrapHiti" changeset="403037">
    <nd ref="97955370"/>
    <nd ref="272265139"/>
    <nd ref="305112244"/>
    <nd ref="272265140"/>
    <nd ref="272265137"/>
    <nd ref="272265135"/>
    <nd ref="272265133"/>
    <nd ref="296424498"/>
    <nd ref="305112245"/>
    <nd ref="97955368"/>
    <nd ref="305112246"/>
    <nd ref="272265132"/>
    <nd ref="272265130"/>
    <nd ref="272265128"/>
    <nd ref="97955374"/>
    <nd ref="296428373"/>
    <nd ref="254331562"/>
    <nd ref="254331560"/>
    <nd ref="97955371"/>
    <nd ref="97955384"/>
    <tag k="created_by" v="Potlatch 0.10e"/>
    <tag k="highway" v="tertiary"/>
    <tag k="name" v="Thedinghauser Straße"/>
    <tag k="ref" v="K 75"/>
  </way>
  <way id="10996660" version="14" timestamp="2008-10-17T08:37:42Z" uid="57645" user="KartoGrapHiti" changeset="403037">
    <nd ref="97955370"/>
    <nd ref="272265139"/>
    <nd ref="305112244"/>
    <nd ref="272265140"/>
    <nd ref="272265137"/>
    <nd ref="272265135"/>
    <nd ref="272265133"/>
    <nd ref="296424498"/>
    <nd ref="305112245"/>
    <nd ref="97955368"/>
    <nd ref="305112246"/>
    <nd ref="272265132"/>
    <nd ref="272265130"/>
    <nd ref="272265128"/>
    <nd ref="97955374"/>
    <nd ref="296428373"/>
    <nd ref="254331562"/>
    <nd ref="254331560"/>
    <nd ref="97955371"/>
    <nd ref="305112704"/>
    <nd ref="97955384"/>
    <tag k="created_by" v="Potlatch 0.10e"/>
    <tag k="highway" v="tertiary"/>
    <tag k="name" v="Thedinghauser Straße"/>
    <tag k="ref" v="K 75"/>
  </way>
  <way id="10996660" version="15" timestamp="2009-02-13T23:27:06Z" uid="57645" user="KartoGrapHiti" changeset="420831">
    <nd ref="97955370"/>
    <nd ref="272265139"/>
    <nd ref="305112244"/>
    <nd ref="272265140"/>
    <nd ref="272265137"/>
    <nd ref="272265135"/>
    <nd ref="272265133"/>
    <tag k="created_by" v="Potlatch 0.10f"/>
    <tag k="highway" v="tertiary"/>
    <tag k="name" v="Thedinghauser Straße"/>
    <tag k="ref" v="K 75"/>
  </way>
  <way id="10996660" version="16" timestamp="2010-02-19T16:23:15Z" uid="57645" user="KartoGrapHiti" changeset="3916735">
    <nd ref="97955370"/>
    <nd ref="272265139"/>
    <nd ref="305112244"/>
    <nd ref="272265140"/>
    <nd ref="272265137"/>
    <nd ref="272265135"/>
    <nd ref="272265133"/>
    <tag k="highway" v="tertiary"/>
    <tag k="maxspeed" v="50"/>
    <tag k="name" v="Thedinghauser Straße"/>
    <tag k="ref" v="K 75"/>
  </way>
  <way id="10996660" version="17" timestamp="2010-03-23T19:29:13Z" uid="33382" user="de_muur" changeset="4215247">
    <nd ref="97955370"/>
    <nd ref="272265139"/>
    <nd ref="305112244"/>
    <nd ref="272265140"/>
    <nd ref="272265137"/>
    <nd ref="272265135"/>
    <tag k="highway" v="tertiary"/>
    <tag k="maxspeed" v="50"/>
    <tag k="name" v="Thedinghauser Straße"/>
    <tag k="ref" v="K 75"/>
    <tag k="surface" v="paved"/>
  </way>
  <way id="10996660" version="18" timestamp="2010-05-25T19:50:52Z" uid="35574" user="Schorse" changeset="4807389">
    <nd ref="97955370"/>
    <nd ref="272265139"/>
    <nd ref="305112244"/>
    <nd ref="272265140"/>
    <nd ref="272265137"/>
    <nd ref="272265135"/>
    <tag k="bicycle" v="designated"/>
    <tag k="cycleway" v="track"/>
    <tag k="foot" v="designated"/>
    <tag k="highway" v="tertiary"/>
    <tag k="maxspeed" v="50"/>
    <tag k="name" v="Thedinghauser Straße"/>
    <tag k="ref" v="K 75"/>
    <tag k="surface" v="paved"/>
  </way>
  <way id="10996660" version="19" timestamp="2011-08-19T16:31:20Z" uid="57645" user="KartoGrapHiti" changeset="9067167">
    <nd ref="97955370"/>
    <nd ref="272265139"/>
    <nd ref="1404670378"/>
    <nd ref="305112244"/>
    <nd ref="272265140"/>
    <nd ref="272265137"/>
    <nd ref="272265135"/>
    <tag k="highway" v="tertiary"/>
    <tag k="maxspeed" v="50"/>
    <tag k="name" v="Thedinghauser Straße"/>
    <tag k="ref" v="K 75"/>
    <tag k="surface" v="paved"/>
  </way>
  <way id="10996664" version="5" timestamp="2008-06-18T05:12:37Z" uid="33382" user="de_muur" changeset="214620">
    <nd ref="97955392"/>
    <nd ref="97955398"/>
    <nd ref="254331558"/>
    <nd ref="97955397"/>
    <nd ref="97955404"/>
    <nd ref="97955407"/>
    <nd ref="97955402"/>
    <tag k="created_by" v="Potlatch 0.7b"/>
    <tag k="highway" v="secondary"/>
  </way>
  <way id="10996664" version="6" timestamp="2008-06-22T18:22:11Z" uid="33382" user="de_muur" changeset="262742">
    <nd ref="97955392"/>
    <nd ref="271975542"/>
    <nd ref="97955398"/>
    <nd ref="254331558"/>
    <nd ref="271975506"/>
    <nd ref="97955397"/>
    <nd ref="97955404"/>
    <nd ref="97955407"/>
    <nd ref="97955402"/>
    <tag k="created_by" v="Potlatch 0.7b"/>
    <tag k="highway" v="secondary"/>
  </way>
  <way id="10996664" version="7" timestamp="2008-06-23T08:59:58Z" uid="35574" user="Schorse" changeset="268018">
    <nd ref="97955392"/>
    <nd ref="271975542"/>
    <nd ref="97955398"/>
    <nd ref="254331558"/>
    <nd ref="271975506"/>
    <nd ref="272265121"/>
    <nd ref="97955397"/>
    <tag k="created_by" v="Potlatch 0.7b"/>
    <tag k="highway" v="secondary"/>
    <tag k="name" v="Syker Straße"/>
    <tag k="ref" v="L 354"/>
  </way>
  <way id="10996664" version="8" timestamp="2008-10-17T08:45:51Z" uid="57645" user="KartoGrapHiti" changeset="403037">
    <nd ref="97955392"/>
    <nd ref="271975542"/>
    <nd ref="97955398"/>
    <nd ref="254331558"/>
    <nd ref="305114584"/>
    <nd ref="271975506"/>
    <nd ref="272265121"/>
    <nd ref="97955397"/>
    <tag k="created_by" v="Potlatch 0.10e"/>
    <tag k="highway" v="secondary"/>
    <tag k="name" v="Syker Straße"/>
    <tag k="ref" v="L 354"/>
  </way>
  <way id="10996664" version="9" timestamp="2008-12-14T19:18:50Z" uid="57645" user="KartoGrapHiti" changeset="372947">
    <nd ref="97955392"/>
    <nd ref="271975542"/>
    <nd ref="97955398"/>
    <nd ref="254331558"/>
    <nd ref="318715572"/>
    <nd ref="318715573"/>
    <nd ref="305114584"/>
    <nd ref="271975506"/>
    <nd ref="272265121"/>
    <nd ref="97955397"/>
    <tag k="created_by" v="Potlatch 0.10f"/>
    <tag k="highway" v="secondary"/>
    <tag k="name" v="Syker Straße"/>
    <tag k="ref" v="L 354"/>
  </way>
  <way id="10996664" version="10" timestamp="2008-12-14T19:18:59Z" uid="57645" user="KartoGrapHiti" changeset="372947">
    <nd ref="97955392"/>
    <nd ref="271975542"/>
    <nd ref="97955398"/>
    <nd ref="254331558"/>
    <nd ref="318715572"/>
    <nd ref="318715573"/>
    <nd ref="318715590"/>
    <nd ref="305114584"/>
    <nd ref="271975506"/>
    <nd ref="272265121"/>
    <nd ref="97955397"/>
    <tag k="created_by" v="Potlatch 0.10f"/>
    <tag k="highway" v="secondary"/>
    <tag k="name" v="Syker Straße"/>
    <tag k="ref" v="L 354"/>
  </way>
  <way id="10996664" version="11" timestamp="2008-12-14T19:21:33Z" uid="57645" user="KartoGrapHiti" changeset="372947">
    <nd ref="97955392"/>
    <nd ref="271975542"/>
    <nd ref="97955398"/>
    <nd ref="254331558"/>
    <nd ref="318715572"/>
    <nd ref="318715573"/>
    <nd ref="318715590"/>
    <nd ref="305114584"/>
    <nd ref="271975506"/>
    <nd ref="272265121"/>
    <nd ref="97955397"/>
    <tag k="created_by" v="Potlatch 0.10f"/>
    <tag k="highway" v="secondary"/>
    <tag k="maxspeed" v="50"/>
    <tag k="name" v="Syker Straße"/>
    <tag k="ref" v="L 354"/>
  </way>
  <way id="10996664" version="12" timestamp="2008-12-14T19:26:45Z" uid="57645" user="KartoGrapHiti" changeset="372947">
    <nd ref="97955392"/>
    <nd ref="271975542"/>
    <nd ref="97955398"/>
    <nd ref="254331558"/>
    <nd ref="318715572"/>
    <nd ref="318715590"/>
    <nd ref="305114584"/>
    <nd ref="271975506"/>
    <nd ref="272265121"/>
    <nd ref="97955397"/>
    <tag k="created_by" v="Potlatch 0.10f"/>
    <tag k="highway" v="secondary"/>
    <tag k="maxspeed" v="50"/>
    <tag k="name" v="Syker Straße"/>
    <tag k="ref" v="L 354"/>
  </way>
  <way id="10996664" version="13" timestamp="2008-12-14T19:27:56Z" uid="57645" user="KartoGrapHiti" changeset="372947">
    <nd ref="97955392"/>
    <nd ref="271975542"/>
    <nd ref="97955398"/>
    <tag k="created_by" v="Potlatch 0.10f"/>
    <tag k="highway" v="secondary"/>
    <tag k="maxspeed" v="50"/>
    <tag k="name" v="Syker Straße"/>
    <tag k="ref" v="L 354"/>
  </way>
  <way id="10996664" version="14" timestamp="2008-12-14T19:28:00Z" uid="57645" user="KartoGrapHiti" changeset="372947">
    <nd ref="97955392"/>
    <nd ref="271975542"/>
    <nd ref="97955398"/>
    <tag k="created_by" v="Potlatch 0.10f"/>
    <tag k="highway" v="secondary"/>
    <tag k="maxspeed" v="60"/>
    <tag k="name" v="Syker Straße"/>
    <tag k="ref" v="L 354"/>
  </way>
  <way id="10996664" version="15" timestamp="2009-01-05T10:19:02Z" uid="57645" user="KartoGrapHiti" changeset="735801">
    <nd ref="97955392"/>
    <nd ref="271975542"/>
    <nd ref="326964025"/>
    <nd ref="97955398"/>
    <tag k="created_by" v="Potlatch 0.10f"/>
    <tag k="highway" v="secondary"/>
    <tag k="maxspeed" v="60"/>
    <tag k="name" v="Syker Straße"/>
    <tag k="ref" v="L 354"/>
  </way>
  <way id="10996664" version="16" timestamp="2009-01-31T21:53:52Z" uid="57645" user="KartoGrapHiti" changeset="860202"/>
  <way id="10996666" version="12" timestamp="2010-06-18T20:25:02Z" uid="33382" user="de_muur" changeset="5019272">
    <nd ref="35146764"/>
    <nd ref="324622384"/>
    <nd ref="324622385"/>
    <nd ref="324622386"/>
    <nd ref="324622387"/>
    <nd ref="600816972"/>
    <nd ref="97955431"/>
    <nd ref="97955436"/>
    <nd ref="297039364"/>
    <nd ref="290791245"/>
    <tag k="highway" v="unclassified"/>
    <tag k="maxspeed" v="50"/>
    <tag k="name" v="Schulstraße"/>
    <tag k="surface" v="paved"/>
  </way>
  <way id="10996666" version="13" timestamp="2010-06-20T18:15:19Z" uid="33382" user="de_muur" changeset="5035666">
    <nd ref="35146764"/>
    <nd ref="324622384"/>
    <nd ref="324622385"/>
    <nd ref="324622386"/>
    <nd ref="324622387"/>
    <nd ref="600816972"/>
    <nd ref="97955431"/>
    <nd ref="97955436"/>
    <nd ref="297039364"/>
    <nd ref="290791245"/>
    <tag k="highway" v="residential"/>
    <tag k="name" v="Schulstraße"/>
    <tag k="surface" v="paved"/>
  </way>
  <way id="10996666" version="14" timestamp="2010-06-24T05:18:52Z" uid="33382" user="de_muur" changeset="5063462">
    <nd ref="35146764"/>
    <nd ref="324622384"/>
    <nd ref="324622385"/>
    <nd ref="324622386"/>
    <nd ref="324622387"/>
    <nd ref="600816972"/>
    <nd ref="97955431"/>
    <nd ref="97955436"/>
    <nd ref="297039364"/>
    <tag k="highway" v="residential"/>
    <tag k="name" v="Schulstraße"/>
    <tag k="surface" v="paved"/>
  </way>
  <way id="10996666" version="15" timestamp="2010-11-07T18:28:32Z" uid="57645" user="KartoGrapHiti" changeset="6314377">
    <nd ref="35146764"/>
    <nd ref="324622384"/>
    <nd ref="324622385"/>
    <nd ref="324622386"/>
    <nd ref="324622387"/>
    <nd ref="600816972"/>
    <nd ref="97955431"/>
    <nd ref="97955436"/>
    <nd ref="297039364"/>
    <tag k="highway" v="residential"/>
    <tag k="maxspeed" v="50"/>
    <tag k="name" v="Schulstraße"/>
    <tag k="surface" v="paved"/>
  </way>
  <way id="10996666" version="16" timestamp="2010-11-12T22:32:59Z" uid="57645" user="KartoGrapHiti" changeset="6354826">
    <nd ref="35146764"/>
    <nd ref="324622384"/>
    <nd ref="324622385"/>
    <nd ref="987063547"/>
    <nd ref="324622386"/>
    <nd ref="324622387"/>
    <nd ref="600816972"/>
    <nd ref="97955431"/>
    <nd ref="97955436"/>
    <nd ref="297039364"/>
    <tag k="highway" v="residential"/>
    <tag k="maxspeed" v="50"/>
    <tag k="name" v="Schulstraße"/>
    <tag k="surface" v="paved"/>
  </way>
  <way id="10996666" version="17" timestamp="2010-11-16T21:19:59Z" uid="57645" user="KartoGrapHiti" changeset="6388537">
    <nd ref="35146764"/>
    <nd ref="324622384"/>
    <nd ref="324622385"/>
    <nd ref="987063547"/>
    <nd ref="991913812"/>
    <nd ref="324622386"/>
    <nd ref="324622387"/>
    <nd ref="600816972"/>
    <nd ref="97955431"/>
    <nd ref="97955436"/>
    <nd ref="297039364"/>
    <tag k="highway" v="residential"/>
    <tag k="maxspeed" v="50"/>
    <tag k="name" v="Schulstraße"/>
    <tag k="surface" v="paved"/>
  </way>
  <way id="10996666" version="18" timestamp="2010-12-06T20:56:16Z" uid="57645" user="KartoGrapHiti" changeset="6568633">
    <nd ref="35146764"/>
    <nd ref="324622384"/>
    <nd ref="324622385"/>
    <nd ref="987063547"/>
    <nd ref="991913812"/>
    <nd ref="324622386"/>
    <nd ref="324622387"/>
    <nd ref="600816972"/>
    <nd ref="97955431"/>
    <nd ref="1025484165"/>
    <nd ref="97955436"/>
    <nd ref="297039364"/>
    <tag k="highway" v="residential"/>
    <tag k="maxspeed" v="50"/>
    <tag k="name" v="Schulstraße"/>
    <tag k="surface" v="paved"/>
  </way>
  <way id="10996666" version="19" timestamp="2010-12-22T17:43:04Z" uid="57645" user="KartoGrapHiti" changeset="6737886">
    <nd ref="35146764"/>
    <nd ref="324622384"/>
    <nd ref="324622385"/>
    <nd ref="987063547"/>
    <nd ref="991913812"/>
    <nd ref="324622386"/>
    <nd ref="324622387"/>
    <nd ref="1057220717"/>
    <nd ref="600816972"/>
    <nd ref="97955431"/>
    <nd ref="1025484165"/>
    <nd ref="97955436"/>
    <nd ref="297039364"/>
    <tag k="highway" v="residential"/>
    <tag k="maxspeed" v="50"/>
    <tag k="name" v="Schulstraße"/>
    <tag k="surface" v="paved"/>
  </way>
  <way id="10996666" version="20" timestamp="2011-12-27T13:31:43Z" uid="57645" user="KartoGrapHiti" changeset="10215695">
    <nd ref="35146764"/>
    <nd ref="324622384"/>
    <nd ref="324622385"/>
    <nd ref="987063547"/>
    <nd ref="991913812"/>
    <nd ref="324622386"/>
    <nd ref="324622387"/>
    <nd ref="1057220717"/>
    <nd ref="600816972"/>
    <nd ref="97955431"/>
    <nd ref="1025484165"/>
    <nd ref="97955436"/>
    <nd ref="297039364"/>
    <tag k="highway" v="residential"/>
    <tag k="maxspeed" v="50"/>
    <tag k="name" v="Schulstraße"/>
    <tag k="surface" v="asphalt"/>
  </way>
  <way id="10996666" version="21" timestamp="2011-12-27T16:09:23Z" uid="57645" user="KartoGrapHiti" changeset="10217062">
    <nd ref="35146764"/>
    <nd ref="324622384"/>
    <nd ref="324622385"/>
    <nd ref="987063547"/>
    <nd ref="991913812"/>
    <nd ref="324622386"/>
    <nd ref="324622387"/>
    <nd ref="1057220717"/>
    <nd ref="600816972"/>
    <nd ref="97955431"/>
    <nd ref="1025484165"/>
    <nd ref="97955436"/>
    <nd ref="297039364"/>
    <tag k="highway" v="residential"/>
    <tag k="lit" v="limited"/>
    <tag k="maxspeed" v="50"/>
    <tag k="name" v="Schulstraße"/>
    <tag k="surface" v="asphalt"/>
  </way>
  <way id="10996666" version="22" timestamp="2012-01-27T22:55:27Z" uid="57645" user="KartoGrapHiti" changeset="10517241"/>
  <way id="10996002" version="10" timestamp="2012-04-08T21:44:51Z" uid="488732" user="montardo" changeset="11231250">
    <nd ref="97952104"/>
    <nd ref="97952151"/>
    <nd ref="1707698164"/>
    <nd ref="1707698166"/>
    <nd ref="97951610"/>
    <tag k="highway" v="tertiary"/>
    <tag k="maxspeed" v="40"/>
    <tag k="name" v="Černošická"/>
    <tag k="ref" v="1158"/>
  </way>
  <way id="10996652" version="14" timestamp="2012-06-13T21:28:17Z" uid="131670" user="Ana Luisa" changeset="11889781"/>
  <way id="10996654" version="18" timestamp="2012-07-18T14:42:47Z" uid="722137" user="OSMF Redaction Account" changeset="12285483">
    <nd ref="97955321"/>
    <nd ref="1057129652"/>
    <nd ref="267825431"/>
    <tag k="highway" v="tertiary"/>
    <tag k="name" v="Im Knick"/>
    <tag k="ref" v="K 20"/>
    <tag k="surface" v="asphalt"/>
  </way>
  <way id="10996654" version="19" timestamp="2012-07-27T16:54:00Z" uid="57645" user="KartoGrapHiti" changeset="12513966">
    <nd ref="97955321"/>
    <nd ref="1057129652"/>
    <nd ref="811292843"/>
    <nd ref="267825431"/>
    <tag k="highway" v="tertiary"/>
    <tag k="lcn" v="yes"/>
    <tag k="name" v="Im Knick"/>
    <tag k="ref" v="K 20"/>
    <tag k="surface" v="asphalt"/>
  </way>
  <way id="10996659" version="23" timestamp="2012-06-19T10:19:28Z" uid="31089" user="behrang" changeset="11946486">
    <nd ref="323858763"/>
    <nd ref="1468075422"/>
    <nd ref="1468075420"/>
    <nd ref="1468075418"/>
    <nd ref="1024086314"/>
    <nd ref="97955336"/>
    <nd ref="489346756"/>
    <nd ref="269210337"/>
    <nd ref="269210298"/>
    <nd ref="1794218491"/>
    <nd ref="1794218464"/>
    <nd ref="1794218470"/>
    <nd ref="1794218489"/>
    <nd ref="1497898774"/>
    <nd ref="1794218475"/>
    <nd ref="97955341"/>
    <nd ref="1497898772"/>
    <nd ref="324243397"/>
    <nd ref="1497898770"/>
    <nd ref="324243399"/>
    <nd ref="269210316"/>
    <nd ref="97955346"/>
    <nd ref="1497898775"/>
    <nd ref="369693812"/>
    <nd ref="97955350"/>
    <nd ref="324243708"/>
    <nd ref="269210320"/>
    <nd ref="1497898754"/>
    <nd ref="324243709"/>
    <nd ref="97955353"/>
    <tag k="highway" v="tertiary"/>
    <tag k="maxspeed" v="100"/>
    <tag k="ref" v="K 143"/>
    <tag k="surface" v="paved"/>
  </way>
  <way id="10996659" version="24" timestamp="2012-06-20T12:16:52Z" uid="31089" user="behrang" changeset="11958151">
    <nd ref="323858763"/>
    <nd ref="1468075422"/>
    <nd ref="1468075420"/>
    <nd ref="1468075418"/>
    <nd ref="1024086314"/>
    <nd ref="97955336"/>
    <nd ref="489346756"/>
    <nd ref="269210337"/>
    <nd ref="269210298"/>
    <nd ref="1794218491"/>
    <nd ref="1794218464"/>
    <nd ref="1794218470"/>
    <nd ref="1794218489"/>
    <nd ref="1497898774"/>
    <nd ref="1794218475"/>
    <nd ref="97955341"/>
    <nd ref="1497898772"/>
    <nd ref="324243397"/>
    <nd ref="1497898770"/>
    <nd ref="324243399"/>
    <nd ref="269210316"/>
    <nd ref="97955346"/>
    <nd ref="1497898775"/>
    <nd ref="369693812"/>
    <nd ref="97955350"/>
    <nd ref="324243708"/>
    <nd ref="269210320"/>
    <nd ref="1795597466"/>
    <nd ref="1497898754"/>
    <nd ref="324243709"/>
    <nd ref="97955353"/>
    <tag k="highway" v="tertiary"/>
    <tag k="maxspeed" v="100"/>
    <tag k="ref" v="K 143"/>
    <tag k="surface" v="paved"/>
  </way>
  <way id="10996659" version="25" timestamp="2012-06-20T17:50:26Z" uid="31089" user="behrang" changeset="11961283">
    <nd ref="323858763"/>
    <nd ref="1468075422"/>
    <nd ref="1468075420"/>
    <nd ref="1468075418"/>
    <nd ref="1024086314"/>
    <nd ref="97955336"/>
    <nd ref="489346756"/>
    <nd ref="269210337"/>
    <nd ref="1796110696"/>
    <nd ref="1796110703"/>
    <nd ref="269210298"/>
    <nd ref="1794218491"/>
    <nd ref="1796110684"/>
    <nd ref="1794218464"/>
    <nd ref="1794218470"/>
    <nd ref="1794218489"/>
    <nd ref="1497898774"/>
    <nd ref="1794218475"/>
    <nd ref="97955341"/>
    <nd ref="1497898772"/>
    <nd ref="324243397"/>
    <nd ref="1497898770"/>
    <nd ref="324243399"/>
    <nd ref="269210316"/>
    <nd ref="97955346"/>
    <nd ref="1497898775"/>
    <nd ref="369693812"/>
    <nd ref="97955350"/>
    <nd ref="324243708"/>
    <nd ref="269210320"/>
    <nd ref="1795597466"/>
    <nd ref="1497898754"/>
    <nd ref="324243709"/>
    <nd ref="97955353"/>
    <tag k="highway" v="tertiary"/>
    <tag k="maxspeed" v="100"/>
    <tag k="ref" v="K 143"/>
    <tag k="surface" v="paved"/>
  </way>
  <way id="10996659" version="26" timestamp="2012-06-21T10:26:08Z" uid="31089" user="behrang" changeset="11967268">
    <nd ref="323858763"/>
    <nd ref="1468075422"/>
    <nd ref="1468075420"/>
    <nd ref="1468075418"/>
    <nd ref="1024086314"/>
    <nd ref="97955336"/>
    <nd ref="489346756"/>
    <nd ref="269210337"/>
    <nd ref="1796110696"/>
    <nd ref="1796110703"/>
    <nd ref="269210298"/>
    <nd ref="1794218491"/>
    <nd ref="1796110684"/>
    <nd ref="1794218464"/>
    <nd ref="1794218470"/>
    <nd ref="1794218489"/>
    <nd ref="1497898774"/>
    <nd ref="1794218475"/>
    <nd ref="97955341"/>
    <nd ref="1497898772"/>
    <nd ref="324243397"/>
    <nd ref="1497898770"/>
    <nd ref="324243399"/>
    <nd ref="269210316"/>
    <nd ref="97955346"/>
    <nd ref="1497898775"/>
    <nd ref="1796889220"/>
    <nd ref="369693812"/>
    <nd ref="97955350"/>
    <nd ref="324243708"/>
    <nd ref="269210320"/>
    <nd ref="1795597466"/>
    <nd ref="1497898754"/>
    <nd ref="324243709"/>
    <nd ref="97955353"/>
    <tag k="highway" v="tertiary"/>
    <tag k="maxspeed" v="100"/>
    <tag k="ref" v="K 143"/>
    <tag k="surface" v="paved"/>
  </way>
  <way id="10996659" version="27" timestamp="2012-06-24T10:04:19Z" uid="31089" user="behrang" changeset="11997842">
    <nd ref="323858763"/>
    <nd ref="1468075422"/>
    <nd ref="1468075420"/>
    <nd ref="1468075418"/>
    <nd ref="1024086314"/>
    <nd ref="97955336"/>
    <nd ref="489346756"/>
    <nd ref="269210337"/>
    <nd ref="1796110696"/>
    <nd ref="1796110703"/>
    <nd ref="269210298"/>
    <nd ref="1794218491"/>
    <nd ref="1796110684"/>
    <nd ref="1794218464"/>
    <nd ref="1794218470"/>
    <nd ref="1794218489"/>
    <nd ref="1497898774"/>
    <nd ref="1794218475"/>
    <nd ref="97955341"/>
    <nd ref="1497898772"/>
    <nd ref="324243397"/>
    <nd ref="1497898770"/>
    <nd ref="324243399"/>
    <nd ref="269210316"/>
    <nd ref="97955346"/>
    <nd ref="1497898775"/>
    <nd ref="1796889220"/>
    <nd ref="1800378618"/>
    <nd ref="369693812"/>
    <nd ref="97955350"/>
    <nd ref="324243708"/>
    <nd ref="269210320"/>
    <nd ref="1795597466"/>
    <nd ref="1497898754"/>
    <nd ref="324243709"/>
    <nd ref="97955353"/>
    <tag k="highway" v="tertiary"/>
    <tag k="maxspeed" v="100"/>
    <tag k="ref" v="K 143"/>
    <tag k="surface" v="paved"/>
  </way>
  <way id="10996659" version="28" timestamp="2012-06-25T09:35:03Z" uid="31089" user="behrang" changeset="12009091">
    <nd ref="323858763"/>
    <nd ref="1468075422"/>
    <nd ref="1468075420"/>
    <nd ref="1468075418"/>
    <nd ref="1024086314"/>
    <nd ref="97955336"/>
    <nd ref="489346756"/>
    <nd ref="269210337"/>
    <nd ref="1796110696"/>
    <nd ref="1796110703"/>
    <nd ref="269210298"/>
    <nd ref="1794218491"/>
    <nd ref="1796110684"/>
    <nd ref="1794218464"/>
    <nd ref="1794218470"/>
    <nd ref="1794218489"/>
    <nd ref="1497898774"/>
    <nd ref="1794218475"/>
    <nd ref="97955341"/>
    <nd ref="1801494067"/>
    <nd ref="1497898772"/>
    <nd ref="324243397"/>
    <nd ref="1497898770"/>
    <nd ref="324243399"/>
    <nd ref="1801494028"/>
    <nd ref="269210316"/>
    <nd ref="97955346"/>
    <nd ref="1497898775"/>
    <nd ref="1796889220"/>
    <nd ref="1800378618"/>
    <nd ref="369693812"/>
    <nd ref="97955350"/>
    <nd ref="324243708"/>
    <nd ref="269210320"/>
    <nd ref="1795597466"/>
    <nd ref="1497898754"/>
    <nd ref="324243709"/>
    <nd ref="97955353"/>
    <tag k="highway" v="tertiary"/>
    <tag k="maxspeed" v="100"/>
    <tag k="ref" v="K 143"/>
    <tag k="surface" v="paved"/>
  </way>
  <way id="10996659" version="29" timestamp="2012-07-18T14:48:01Z" uid="722137" user="OSMF Redaction Account" changeset="12285653">
    <nd ref="323858763"/>
    <nd ref="1468075422"/>
    <nd ref="1468075420"/>
    <nd ref="1468075418"/>
    <nd ref="1024086314"/>
    <nd ref="97955336"/>
    <nd ref="489346756"/>
    <nd ref="269210337"/>
    <nd ref="1796110696"/>
    <nd ref="1796110703"/>
    <nd ref="269210298"/>
    <nd ref="1794218491"/>
    <nd ref="1796110684"/>
    <nd ref="1794218464"/>
    <nd ref="1794218470"/>
    <nd ref="1794218489"/>
    <nd ref="1497898774"/>
    <nd ref="1794218475"/>
    <nd ref="97955341"/>
    <nd ref="1801494067"/>
    <nd ref="1497898772"/>
    <nd ref="324243397"/>
    <nd ref="1497898770"/>
    <nd ref="324243399"/>
    <nd ref="1801494028"/>
    <nd ref="269210316"/>
    <nd ref="97955346"/>
    <nd ref="1497898775"/>
    <nd ref="1796889220"/>
    <nd ref="1800378618"/>
    <nd ref="369693812"/>
    <nd ref="97955350"/>
    <nd ref="324243708"/>
    <nd ref="269210320"/>
    <nd ref="1795597466"/>
    <nd ref="1497898754"/>
    <nd ref="324243709"/>
    <nd ref="97955353"/>
    <tag k="highway" v="tertiary"/>
    <tag k="maxspeed" v="100"/>
    <tag k="ref" v="K 143"/>
  </way>
  <way id="10996659" version="30" timestamp="2012-07-29T10:12:17Z" uid="57645" user="KartoGrapHiti" changeset="12532877"/>
  <way id="10996660" version="20" timestamp="2012-07-17T05:07:01Z" uid="722137" user="OSMF Redaction Account" changeset="12257401">
    <nd ref="97955370"/>
    <nd ref="272265139"/>
    <nd ref="1404670378"/>
    <nd ref="305112244"/>
    <nd ref="272265140"/>
    <nd ref="272265137"/>
    <nd ref="272265135"/>
    <tag k="highway" v="tertiary"/>
    <tag k="maxspeed" v="50"/>
    <tag k="name" v="Thedinghauser Straße"/>
    <tag k="ref" v="K 75"/>
  </way>
  <way id="10996660" version="21" timestamp="2012-07-17T17:33:23Z" uid="57645" user="KartoGrapHiti" changeset="12269644">
    <nd ref="97955370"/>
    <nd ref="272265139"/>
    <nd ref="1404670378"/>
    <nd ref="305112244"/>
    <nd ref="272265140"/>
    <nd ref="272265137"/>
    <nd ref="272265135"/>
    <nd ref="272265133"/>
    <tag k="highway" v="tertiary"/>
    <tag k="maxspeed" v="50"/>
    <tag k="name" v="Thedinghauser Straße"/>
    <tag k="ref" v="K 75"/>
  </way>
  <way id="10996660" version="22" timestamp="2012-07-29T09:25:16Z" uid="57645" user="KartoGrapHiti" changeset="12532239">
    <nd ref="97955370"/>
    <nd ref="272265139"/>
    <nd ref="1404670378"/>
    <nd ref="305112244"/>
    <nd ref="272265140"/>
    <nd ref="272265137"/>
    <nd ref="272265135"/>
    <tag k="highway" v="tertiary"/>
    <tag k="maxspeed" v="50"/>
    <tag k="name" v="Thedinghauser Straße"/>
    <tag k="ref" v="K 75"/>
  </way>
  <way id="10996660" version="23" timestamp="2012-08-30T16:23:15Z" uid="57645" user="KartoGrapHiti" changeset="12920074">
    <nd ref="97955370"/>
    <nd ref="272265139"/>
    <nd ref="1404670378"/>
    <nd ref="305112244"/>
    <nd ref="272265140"/>
    <nd ref="1890161067"/>
    <nd ref="272265137"/>
    <nd ref="272265135"/>
    <tag k="highway" v="tertiary"/>
    <tag k="maxspeed" v="50"/>
    <tag k="name" v="Thedinghauser Straße"/>
    <tag k="ref" v="K 75"/>
  </way>
</osm>
