<?xml version='1.0' encoding='UTF-8'?>
<osm version="0.6" generator="libosmium/2.20.0">
  <way id="11004860" version="4" timestamp="2007-11-30T13:38:21Z" uid="9581" user="Lobelt" changeset="649481">
    <nd ref="98003734"/>
    <nd ref="98003737"/>
    <nd ref="98726767"/>
    <nd ref="98003741"/>
    <nd ref="98003745"/>
    <tag k="created_by" v="Potlatch 0.4c"/>
    <tag k="highway" v="residential"/>
  </way>
  <way id="11004860" version="5" timestamp="2010-04-24T17:50:11Z" uid="137626" user="Dr Jan Itor" changeset="4513998">
    <nd ref="98003734"/>
    <nd ref="98003737"/>
    <nd ref="98726767"/>
    <nd ref="98003741"/>
    <tag k="highway" v="residential"/>
    <tag k="name" v="Am Bahnhof"/>
  </way>
  <way id="11004860" version="6" timestamp="2010-05-08T17:35:07Z" uid="137626" user="Dr Jan Itor" changeset="4641155">
    <nd ref="98003734"/>
    <nd ref="98003737"/>
    <nd ref="98726767"/>
    <nd ref="98003741"/>
    <tag k="highway" v="residential"/>
    <tag k="name" v="Am Bahnhof"/>
    <tag k="surface" v="asphalt"/>
  </way>
  <way id="11004860" version="7" timestamp="2011-07-31T21:30:51Z" uid="28234" user="derandi" changeset="8885630">
    <nd ref="98003734"/>
    <nd ref="98003737"/>
    <nd ref="1380939629"/>
    <nd ref="98726767"/>
    <nd ref="1380939628"/>
    <nd ref="1380939626"/>
    <nd ref="98003741"/>
    <tag k="highway" v="residential"/>
    <tag k="name" v="Am Bahnhof"/>
    <tag k="surface" v="asphalt"/>
  </way>
  <way id="11004860" version="8" timestamp="2012-02-13T22:33:18Z" uid="15720" user="J budissin" changeset="10678425">
    <nd ref="98003734"/>
    <nd ref="98003737"/>
    <nd ref="1380939629"/>
    <nd ref="98726767"/>
    <nd ref="1380939628"/>
    <nd ref="1380939626"/>
    <nd ref="98003741"/>
    <tag k="highway" v="residential"/>
    <tag k="name" v="Am Bahnhof"/>
    <tag k="name:hsb" v="Pśi dwornišću"/>
    <tag k="surface" v="asphalt"/>
  </way>
  <way id="11004860" version="9" timestamp="2012-02-21T19:56:06Z" uid="28234" user="derandi" changeset="10753263"/>
  <way id="11004863" version="3" timestamp="2009-02-17T12:18:47Z" uid="9581" user="Lobelt" changeset="512064">
    <nd ref="98003766"/>
    <nd ref="98003767"/>
    <tag k="bridge" v="yes"/>
    <tag k="created_by" v="Potlatch 0.6a"/>
    <tag k="highway" v="unclassified"/>
    <tag k="layer" v="1"/>
  </way>
  <way id="11004863" version="4" timestamp="2010-05-08T17:35:09Z" uid="137626" user="Dr Jan Itor" changeset="4641155">
    <nd ref="98003766"/>
    <nd ref="98003767"/>
    <tag k="bridge" v="yes"/>
    <tag k="highway" v="unclassified"/>
    <tag k="layer" v="1"/>
    <tag k="surface" v="concrete"/>
  </way>
  <way id="11004863" version="5" timestamp="2012-02-17T10:09:35Z" uid="28234" user="derandi" changeset="10709592"/>
  <way id="11004864" version="3" timestamp="2008-02-18T08:48:17Z" uid="9581" user="Lobelt" changeset="149986">
    <nd ref="98003767"/>
    <nd ref="248140213"/>
    <nd ref="98003772"/>
    <nd ref="98003787"/>
    <nd ref="248140043"/>
    <nd ref="98003777"/>
    <nd ref="98003781"/>
    <nd ref="98003791"/>
    <nd ref="98003796"/>
    <nd ref="98003802"/>
    <nd ref="98003805"/>
    <nd ref="98003807"/>
    <nd ref="31122988"/>
    <tag k="created_by" v="Potlatch 0.7a"/>
    <tag k="highway" v="residential"/>
    <tag k="name" v="Skadower Hauptstraße"/>
  </way>
  <way id="11004864" version="4" timestamp="2008-08-15T12:02:52Z" uid="9581" user="Lobelt" changeset="265772">
    <nd ref="98003767"/>
    <nd ref="248140213"/>
    <nd ref="98003772"/>
    <nd ref="98003787"/>
    <nd ref="248140043"/>
    <nd ref="98003777"/>
    <nd ref="98003781"/>
    <tag k="created_by" v="Potlatch 0.7a"/>
    <tag k="highway" v="residential"/>
    <tag k="name" v="Skadower Hauptstraße"/>
  </way>
  <way id="11004864" version="5" timestamp="2009-08-15T06:38:14Z" uid="137626" user="Dr Jan Itor" changeset="2150048"/>
  <way id="11004964" version="3" timestamp="2009-11-10T13:43:05Z" uid="23543" user="jkjk" changeset="3082104">
    <nd ref="97952104"/>
    <nd ref="97952123"/>
    <nd ref="97952125"/>
    <nd ref="98004472"/>
    <nd ref="97952139"/>
    <tag k="highway" v="residential"/>
    <tag k="kct_blue" v="major"/>
    <tag k="name" v="K Vodárně"/>
    <tag k="surface" v="unpaved"/>
  </way>
  <way id="11004964" version="4" timestamp="2009-11-16T11:36:32Z" uid="17615" user="Petr Dlouhý" changeset="3131069">
    <nd ref="97952104"/>
    <nd ref="97952123"/>
    <nd ref="97952125"/>
    <nd ref="98004472"/>
    <nd ref="97952139"/>
    <tag k="highway" v="residential"/>
    <tag k="name" v="K Vodárně"/>
    <tag k="surface" v="unpaved"/>
  </way>
  <way id="11004970" version="2" timestamp="2009-11-10T13:43:05Z" uid="23543" user="jkjk" changeset="3082104">
    <nd ref="97952104"/>
    <nd ref="97952101"/>
    <nd ref="97951744"/>
    <tag k="highway" v="residential"/>
    <tag k="kct_green" v="major"/>
    <tag k="kct_red" v="major"/>
    <tag k="kct_yellow" v="major"/>
    <tag k="name" v="Na Návsi"/>
  </way>
  <way id="11004970" version="3" timestamp="2009-11-16T11:36:30Z" uid="17615" user="Petr Dlouhý" changeset="3131069">
    <nd ref="97952104"/>
    <nd ref="97952101"/>
    <nd ref="97951744"/>
    <tag k="highway" v="residential"/>
    <tag k="name" v="Na Návsi"/>
  </way>
  <way id="11004970" version="4" timestamp="2010-10-24T20:45:30Z" uid="172147" user="&lt;0174" changeset="6162987">
    <nd ref="97952104"/>
    <nd ref="97952101"/>
    <nd ref="97951744"/>
    <tag k="highway" v="residential"/>
    <tag k="maxspeed" v="40"/>
    <tag k="name" v="Na Návsi"/>
  </way>
  <way id="11004973" version="2" timestamp="2009-11-10T13:43:04Z" uid="23543" user="jkjk" changeset="3082104">
    <nd ref="97951929"/>
    <nd ref="97951925"/>
    <nd ref="97951921"/>
    <nd ref="97951870"/>
    <tag k="highway" v="residential"/>
    <tag k="kct_red" v="major"/>
    <tag k="name" v="Karlická"/>
  </way>
  <way id="11004973" version="3" timestamp="2009-11-16T11:36:29Z" uid="17615" user="Petr Dlouhý" changeset="3131069">
    <nd ref="97951929"/>
    <nd ref="97951925"/>
    <nd ref="97951921"/>
    <nd ref="97951870"/>
    <tag k="highway" v="residential"/>
    <tag k="name" v="Karlická"/>
  </way>
  <way id="11004973" version="4" timestamp="2010-10-24T20:44:15Z" uid="172147" user="&lt;0174" changeset="6162987">
    <nd ref="97951929"/>
    <nd ref="97951925"/>
    <nd ref="97951921"/>
    <nd ref="97951870"/>
    <tag k="highway" v="residential"/>
    <tag k="maxspeed" v="40"/>
    <tag k="name" v="Karlická"/>
  </way>
  <way id="11004973" version="5" timestamp="2012-01-13T15:46:14Z" uid="578663" user="Tomas_b" changeset="10379635">
    <nd ref="97951870"/>
    <nd ref="97951921"/>
    <nd ref="97951925"/>
    <nd ref="97951929"/>
    <tag k="highway" v="residential"/>
    <tag k="maxspeed" v="40"/>
    <tag k="name" v="Karlická"/>
  </way>
  <way id="11004976" version="2" timestamp="2009-11-10T13:43:03Z" uid="23543" user="jkjk" changeset="3082104">
    <nd ref="97951929"/>
    <nd ref="97951932"/>
    <nd ref="97951935"/>
    <nd ref="97951936"/>
    <nd ref="97951875"/>
    <tag k="highway" v="residential"/>
    <tag k="name" v="Konečná"/>
  </way>
  <way id="11004976" version="3" timestamp="2011-09-29T11:41:38Z" uid="8598" user="brnacisko73" changeset="9426706">
    <nd ref="97951929"/>
    <nd ref="97951932"/>
    <nd ref="97951935"/>
    <nd ref="97951936"/>
    <nd ref="97951875"/>
    <tag k="highway" v="residential"/>
    <tag k="name" v="Konečná"/>
    <tag k="oneway" v="-1"/>
  </way>
  <way id="11004982" version="4" timestamp="2009-11-10T13:43:03Z" uid="23543" user="jkjk" changeset="3082104">
    <nd ref="97951889"/>
    <nd ref="97951892"/>
    <tag k="highway" v="residential"/>
    <tag k="kct_yellow" v="major"/>
    <tag k="surface" v="unpaved"/>
  </way>
  <way id="11004982" version="5" timestamp="2009-11-16T11:36:32Z" uid="17615" user="Petr Dlouhý" changeset="3131069">
    <nd ref="97951889"/>
    <nd ref="97951892"/>
    <tag k="highway" v="residential"/>
    <tag k="surface" v="unpaved"/>
  </way>
  <way id="11004999" version="3" timestamp="2009-11-10T13:42:30Z" uid="23543" user="jkjk" changeset="3082104">
    <nd ref="97951870"/>
    <nd ref="97951882"/>
    <nd ref="97951887"/>
    <nd ref="97951889"/>
    <tag k="highway" v="residential"/>
    <tag k="kct_yellow" v="major"/>
    <tag k="name" v="V Kamení"/>
    <tag k="surface" v="unpaved"/>
  </way>
  <way id="11004999" version="4" timestamp="2009-11-16T11:36:28Z" uid="17615" user="Petr Dlouhý" changeset="3131069">
    <nd ref="97951870"/>
    <nd ref="97951882"/>
    <nd ref="97951887"/>
    <nd ref="97951889"/>
    <tag k="highway" v="residential"/>
    <tag k="name" v="V Kamení"/>
    <tag k="surface" v="unpaved"/>
  </way>
  <way id="11004964" version="5" timestamp="2012-04-08T21:44:21Z" uid="488732" user="montardo" changeset="11231250">
    <nd ref="97952104"/>
    <nd ref="97952123"/>
    <nd ref="1707698155"/>
    <nd ref="97952125"/>
    <nd ref="98004472"/>
    <nd ref="97952139"/>
    <tag k="highway" v="residential"/>
    <tag k="name" v="K Vodárně"/>
    <tag k="surface" v="unpaved"/>
  </way>
  <way id="11004973" version="6" timestamp="2012-07-26T10:01:23Z" uid="17615" user="Petr Dlouhý" changeset="12496938">
    <nd ref="963907960"/>
    <nd ref="1224515804"/>
    <nd ref="97951866"/>
    <nd ref="97951868"/>
    <nd ref="97951870"/>
    <tag k="highway" v="residential"/>
    <tag k="maxspeed" v="40"/>
    <tag k="name" v="Karlická"/>
  </way>
  <way id="11004973" version="7" timestamp="2012-09-11T19:49:41Z" uid="488732" user="montardo" changeset="13074535">
    <nd ref="97951744"/>
    <nd ref="963908193"/>
    <nd ref="1224515804"/>
    <nd ref="97951866"/>
    <nd ref="97951868"/>
    <nd ref="97951870"/>
    <tag k="highway" v="residential"/>
    <tag k="maxspeed" v="40"/>
    <tag k="name" v="Karlická"/>
  </way>
  <way id="11004982" version="6" timestamp="2012-06-04T16:21:45Z" uid="488732" user="montardo" changeset="11798042">
    <nd ref="1776169812"/>
    <nd ref="97951889"/>
    <nd ref="1776169804"/>
    <tag k="highway" v="track"/>
    <tag k="surface" v="unpaved"/>
  </way>
  <way id="11004999" version="5" timestamp="2012-06-04T16:21:32Z" uid="488732" user="montardo" changeset="11798042">
    <nd ref="97951870"/>
    <nd ref="97951882"/>
    <nd ref="1776169829"/>
    <nd ref="97951887"/>
    <nd ref="1776169812"/>
    <tag k="highway" v="residential"/>
    <tag k="name" v="V Kamení"/>
    <tag k="surface" v="unpaved"/>
  </way>
</osm>
