<?xml version='1.0' encoding='UTF-8'?>
<osm version="0.6" generator="libosmium/2.20.0">
  <way id="11015243" version="2" timestamp="2008-09-16T10:37:22Z" uid="1066" user="pavel" changeset="646258">
    <nd ref="95943726"/>
    <nd ref="95943727"/>
    <nd ref="95943728"/>
    <nd ref="95943729"/>
    <nd ref="95943730"/>
    <nd ref="95943731"/>
    <nd ref="95943733"/>
    <nd ref="95943734"/>
    <tag k="created_by" v="Potlatch 0.4c"/>
    <tag k="highway" v="residential"/>
    <tag k="name" v="Na Popelce"/>
    <tag k="name:source" v="nameit/uir-adr"/>
  </way>
  <way id="11015243" version="3" timestamp="2009-01-12T17:54:25Z" uid="17615" user="Petr Dlouhý" changeset="778046">
    <nd ref="95943726"/>
    <nd ref="95943727"/>
    <nd ref="95943728"/>
    <nd ref="95943729"/>
    <nd ref="95943730"/>
    <nd ref="95943731"/>
    <nd ref="95943733"/>
    <nd ref="2197198"/>
    <tag k="created_by" v="Potlatch 0.4c"/>
    <tag k="highway" v="residential"/>
    <tag k="name" v="Na Popelce"/>
    <tag k="name:source" v="nameit/uir-adr"/>
  </way>
  <way id="11015243" version="4" timestamp="2009-03-11T23:09:18Z" uid="3516" user="BiIbo" changeset="792152">
    <nd ref="95943726"/>
    <nd ref="95943727"/>
    <nd ref="95943728"/>
    <nd ref="95943729"/>
    <nd ref="95943730"/>
    <nd ref="95943731"/>
    <nd ref="95943733"/>
    <nd ref="2197198"/>
    <tag k="highway" v="residential"/>
    <tag k="name" v="Na Popelce"/>
    <tag k="source:name" v="nameit/uir-adr"/>
  </way>
  <way id="11015243" version="5" timestamp="2011-03-02T14:15:08Z" uid="162736" user="honzour" changeset="7438043">
    <nd ref="95943726"/>
    <nd ref="95943727"/>
    <nd ref="95943728"/>
    <nd ref="95943729"/>
    <nd ref="95943730"/>
    <nd ref="95943731"/>
    <nd ref="95943733"/>
    <nd ref="1182748520"/>
    <nd ref="2197198"/>
    <tag k="highway" v="residential"/>
    <tag k="name" v="Na Popelce"/>
    <tag k="source:name" v="nameit/uir-adr"/>
  </way>
  <way id="11015331" version="3" timestamp="2008-09-16T10:34:27Z" uid="1066" user="pavel" changeset="646258">
    <nd ref="60793983"/>
    <nd ref="95942727"/>
    <nd ref="95942728"/>
    <nd ref="95942729"/>
    <nd ref="95942730"/>
    <nd ref="95942731"/>
    <tag k="created_by" v="Potlatch 0.4c"/>
    <tag k="highway" v="residential"/>
    <tag k="name" v="U Mrázovky"/>
    <tag k="name:source" v="nameit/uir-adr"/>
  </way>
  <way id="11015331" version="4" timestamp="2009-03-13T23:36:04Z" uid="3516" user="BiIbo" changeset="803821">
    <nd ref="60793983"/>
    <nd ref="95942727"/>
    <nd ref="95942728"/>
    <nd ref="95942729"/>
    <nd ref="95942730"/>
    <nd ref="95942731"/>
    <tag k="highway" v="residential"/>
    <tag k="name" v="U Mrázovky"/>
    <tag k="source:name" v="nameit/uir-adr"/>
  </way>
  <way id="11015331" version="5" timestamp="2009-04-26T16:23:38Z" uid="29818" user="zub" changeset="976660">
    <nd ref="60793983"/>
    <nd ref="95942727"/>
    <nd ref="95942728"/>
    <nd ref="385341409"/>
    <nd ref="95942729"/>
    <nd ref="95942730"/>
    <nd ref="95942731"/>
    <tag k="highway" v="residential"/>
    <tag k="name" v="U Mrázovky"/>
    <tag k="source:name" v="nameit/uir-adr"/>
  </way>
  <way id="11015331" version="6" timestamp="2010-02-07T19:21:28Z" uid="17615" user="Petr Dlouhý" changeset="3817920">
    <nd ref="60793983"/>
    <nd ref="95942727"/>
    <nd ref="632722110"/>
    <nd ref="95942728"/>
    <nd ref="385341409"/>
    <nd ref="95942729"/>
    <nd ref="95942730"/>
    <nd ref="95942731"/>
    <tag k="highway" v="residential"/>
    <tag k="name" v="U Mrázovky"/>
    <tag k="source:name" v="nameit/uir-adr"/>
  </way>
  <way id="11015331" version="7" timestamp="2011-09-19T15:05:19Z" uid="17615" user="Petr Dlouhý" changeset="9343428">
    <nd ref="60793983"/>
    <nd ref="95942727"/>
    <nd ref="632722110"/>
    <nd ref="95942728"/>
    <nd ref="385341409"/>
    <nd ref="95942729"/>
    <nd ref="95942730"/>
    <tag k="highway" v="residential"/>
    <tag k="name" v="U Mrázovky"/>
    <tag k="source:name" v="nameit/uir-adr"/>
  </way>
  <way id="11015440" version="4" timestamp="2010-03-27T20:19:06Z" uid="20587" user="balrog-kun" changeset="4248199">
    <nd ref="89323468"/>
    <nd ref="89448226"/>
    <nd ref="88579921"/>
    <nd ref="89448231"/>
    <nd ref="89448234"/>
    <nd ref="87907324"/>
    <nd ref="89448242"/>
    <nd ref="88763311"/>
    <tag k="created_by" v="JOSM"/>
    <tag k="highway" v="secondary"/>
    <tag k="name" v="Burlando Road"/>
    <tag k="name_1" v="County Road 495"/>
    <tag k="oneway" v="yes"/>
    <tag k="tiger:cfcc" v="A45"/>
    <tag k="tiger:county" v="Kern, CA"/>
    <tag k="tiger:name_base" v="Burlando"/>
    <tag k="tiger:name_base_1" v="County Road 495"/>
    <tag k="tiger:name_type" v="Rd"/>
    <tag k="tiger:separated" v="yes"/>
    <tag k="tiger:source" v="tiger_import_dch_v0.6_20070809"/>
    <tag k="tiger:tlid" v="109535050"/>
  </way>
  <way id="11015717" version="6" timestamp="2008-09-22T01:29:37Z" uid="36809" user="pfoten_weg_!_" changeset="678890">
    <nd ref="96929918"/>
    <nd ref="295787756"/>
    <nd ref="98087923"/>
    <nd ref="96840551"/>
    <nd ref="96839512"/>
    <nd ref="98118057"/>
    <nd ref="98089685"/>
    <nd ref="28378471"/>
    <tag k="created_by" v="Potlatch 0.4c"/>
    <tag k="highway" v="residential"/>
    <tag k="maxspeed" v="30"/>
    <tag k="name" v="Werdenfelsstraße"/>
  </way>
  <way id="11015717" version="7" timestamp="2009-02-15T13:16:00Z" uid="36809" user="pfoten_weg_!_" changeset="463903">
    <nd ref="96929918"/>
    <nd ref="295787756"/>
    <nd ref="98087923"/>
    <nd ref="96840551"/>
    <nd ref="96839512"/>
    <nd ref="98118057"/>
    <nd ref="98089685"/>
    <nd ref="28378471"/>
    <tag k="created_by" v="RambaZamba"/>
    <tag k="highway" v="residential"/>
    <tag k="maxspeed" v="30"/>
    <tag k="name" v="Werdenfelsstraße"/>
    <tag k="source" v="survey"/>
  </way>
  <way id="11015717" version="8" timestamp="2009-04-11T06:39:10Z" uid="106615" user="matafumar" changeset="401978">
    <nd ref="96929918"/>
    <nd ref="295787756"/>
    <nd ref="98087923"/>
    <nd ref="96840551"/>
    <nd ref="372341421"/>
    <nd ref="96839512"/>
    <nd ref="98118057"/>
    <nd ref="98089685"/>
    <nd ref="28378471"/>
    <tag k="created_by" v="Potlatch 0.10f"/>
    <tag k="highway" v="residential"/>
    <tag k="maxspeed" v="30"/>
    <tag k="name" v="Werdenfelsstraße"/>
    <tag k="source" v="survey"/>
  </way>
  <way id="11015717" version="9" timestamp="2009-04-21T18:36:35Z" uid="8690" user="Meier" changeset="885302">
    <nd ref="96929918"/>
    <nd ref="295787756"/>
    <nd ref="98087923"/>
    <nd ref="96840551"/>
    <nd ref="372341421"/>
    <nd ref="96839512"/>
    <nd ref="98118057"/>
    <nd ref="98089685"/>
    <nd ref="379569889"/>
    <nd ref="28378471"/>
    <tag k="created_by" v="Potlatch 0.10f"/>
    <tag k="highway" v="residential"/>
    <tag k="maxspeed" v="30"/>
    <tag k="name" v="Werdenfelsstraße"/>
    <tag k="source" v="survey"/>
  </way>
  <way id="11015717" version="10" timestamp="2009-06-20T18:15:39Z" uid="85761" user="klausis" changeset="1577174">
    <nd ref="96929918"/>
    <nd ref="295787756"/>
    <nd ref="98087923"/>
    <nd ref="96840551"/>
    <nd ref="372341421"/>
    <nd ref="96839512"/>
    <nd ref="98118057"/>
    <nd ref="98089685"/>
    <nd ref="379569889"/>
    <nd ref="28378471"/>
    <tag k="highway" v="residential"/>
    <tag k="maxspeed" v="30"/>
    <tag k="name" v="Werdenfelsstraße"/>
    <tag k="source" v="survey"/>
  </way>
  <way id="11015717" version="11" timestamp="2009-09-04T21:13:03Z" uid="36809" user="pfoten_weg_!_" changeset="2374562">
    <nd ref="96929918"/>
    <nd ref="295787756"/>
    <nd ref="98087923"/>
    <nd ref="96840551"/>
    <nd ref="372341421"/>
    <nd ref="96839512"/>
    <nd ref="98118057"/>
    <nd ref="98089685"/>
    <nd ref="379569889"/>
    <nd ref="28378471"/>
    <tag k="highway" v="residential"/>
    <tag k="maxspeed" v="30"/>
    <tag k="name" v="Werdenfelsstraße"/>
    <tag k="source" v="survey"/>
  </way>
  <way id="11015717" version="12" timestamp="2010-10-17T20:23:55Z" uid="344721" user="stumpi80" changeset="6071431">
    <nd ref="96929918"/>
    <nd ref="295787756"/>
    <nd ref="98087923"/>
    <nd ref="96840551"/>
    <nd ref="372341421"/>
    <nd ref="96839512"/>
    <nd ref="98118057"/>
    <tag k="highway" v="residential"/>
    <tag k="maxspeed" v="30"/>
    <tag k="name" v="Werdenfelsstraße"/>
    <tag k="source" v="survey"/>
  </way>
  <way id="11015243" version="6" timestamp="2012-07-14T12:41:53Z" uid="527259" user="Vratislav Filler" changeset="12217045">
    <nd ref="95943726"/>
    <nd ref="95943727"/>
    <nd ref="95943728"/>
    <nd ref="95943729"/>
    <nd ref="95943730"/>
    <nd ref="95943731"/>
    <nd ref="95943733"/>
    <nd ref="1825290973"/>
    <nd ref="1182748520"/>
    <nd ref="2197198"/>
    <tag k="highway" v="residential"/>
    <tag k="name" v="Na Popelce"/>
    <tag k="source:name" v="nameit/uir-adr"/>
  </way>
  <way id="11015440" version="5" timestamp="2012-07-18T16:47:32Z" uid="722137" user="OSMF Redaction Account" changeset="12289440"/>
  <way id="11015717" version="13" timestamp="2012-04-07T00:38:16Z" uid="124837" user="swus" changeset="11208549"/>
</osm>
