<?xml version='1.0' encoding='UTF-8'?>
<osm version="0.6" generator="libosmium/2.20.0">
  <way id="110859515" version="1" timestamp="2011-04-29T06:43:33Z" uid="33382" user="de_muur" changeset="8000778">
    <nd ref="274702872"/>
    <nd ref="957119903"/>
    <nd ref="274702876"/>
    <nd ref="274702878"/>
    <nd ref="274702881"/>
    <nd ref="274702883"/>
    <tag k="highway" v="residential"/>
    <tag k="maxspeed" v="30"/>
    <tag k="name" v="Dorfstraße"/>
    <tag k="surface" v="cobblestone"/>
  </way>
  <way id="110859516" version="1" timestamp="2011-04-29T06:43:33Z" uid="33382" user="de_muur" changeset="8000778">
    <nd ref="274702883"/>
    <nd ref="274702886"/>
    <nd ref="274702888"/>
    <nd ref="274702890"/>
    <nd ref="274702892"/>
    <nd ref="274702894"/>
    <nd ref="274702896"/>
    <nd ref="274702898"/>
    <nd ref="274702900"/>
    <nd ref="388298657"/>
    <tag k="highway" v="residential"/>
    <tag k="maxspeed" v="30"/>
    <tag k="name" v="Dorfstraße"/>
    <tag k="surface" v="cobblestone"/>
  </way>
  <way id="110859517" version="1" timestamp="2011-04-29T06:43:34Z" uid="33382" user="de_muur" changeset="8000778">
    <nd ref="388298657"/>
    <nd ref="274702905"/>
    <nd ref="274702906"/>
    <nd ref="274702911"/>
    <nd ref="274702914"/>
    <nd ref="957119878"/>
    <nd ref="274702916"/>
    <tag k="highway" v="residential"/>
    <tag k="maxspeed" v="30"/>
    <tag k="name" v="Dorfstraße"/>
    <tag k="surface" v="cobblestone"/>
  </way>
  <way id="110859518" version="1" timestamp="2011-04-29T06:43:34Z" uid="33382" user="de_muur" changeset="8000778">
    <nd ref="388298683"/>
    <nd ref="280247663"/>
    <tag k="highway" v="residential"/>
    <tag k="name" v="Schmiedekamp"/>
    <tag k="surface" v="paved"/>
  </way>
  <way id="110859519" version="1" timestamp="2011-04-29T06:43:34Z" uid="33382" user="de_muur" changeset="8000778">
    <nd ref="274702916"/>
    <nd ref="957119898"/>
    <tag k="highway" v="residential"/>
    <tag k="maxspeed" v="30"/>
    <tag k="name" v="Dorfstraße"/>
    <tag k="surface" v="paved"/>
  </way>
  <way id="110859858" version="1" timestamp="2011-04-29T06:54:16Z" uid="33382" user="de_muur" changeset="8000826">
    <nd ref="271919556"/>
    <nd ref="1264605518"/>
    <nd ref="271919557"/>
    <nd ref="271919558"/>
    <nd ref="1264605519"/>
    <nd ref="271919559"/>
    <nd ref="1264605517"/>
    <nd ref="271919560"/>
    <nd ref="271919561"/>
    <nd ref="271919562"/>
    <nd ref="271919563"/>
    <nd ref="280246183"/>
    <tag k="highway" v="tertiary"/>
    <tag k="name" v="Franzhagener Straße"/>
    <tag k="ref" v="K 52"/>
    <tag k="surface" v="paved"/>
  </way>
  <way id="110859859" version="1" timestamp="2011-04-29T06:54:16Z" uid="33382" user="de_muur" changeset="8000826">
    <nd ref="280246183"/>
    <nd ref="271919564"/>
    <nd ref="1264605513"/>
    <nd ref="271919565"/>
    <nd ref="271919566"/>
    <nd ref="271919567"/>
    <nd ref="271919568"/>
    <nd ref="271919569"/>
    <nd ref="271919570"/>
    <nd ref="271919571"/>
    <tag k="highway" v="tertiary"/>
    <tag k="name" v="Franzhagener Straße"/>
    <tag k="ref" v="K 52"/>
    <tag k="surface" v="paved"/>
  </way>
  <way id="110859860" version="1" timestamp="2011-04-29T06:54:17Z" uid="33382" user="de_muur" changeset="8000826">
    <nd ref="274702874"/>
    <nd ref="271919556"/>
    <tag k="highway" v="tertiary"/>
    <tag k="maxspeed" v="50"/>
    <tag k="name" v="Franzhagener Straße"/>
    <tag k="ref" v="K 52"/>
    <tag k="surface" v="paved"/>
  </way>
  <way id="110859515" version="2" timestamp="2012-07-17T07:38:40Z" uid="722137" user="OSMF Redaction Account" changeset="12259629"/>
  <way id="110859516" version="2" timestamp="2012-07-17T07:38:40Z" uid="722137" user="OSMF Redaction Account" changeset="12259629"/>
  <way id="110859517" version="2" timestamp="2012-07-17T07:38:40Z" uid="722137" user="OSMF Redaction Account" changeset="12259629"/>
  <way id="110859518" version="2" timestamp="2012-07-17T07:38:40Z" uid="722137" user="OSMF Redaction Account" changeset="12259629"/>
  <way id="110859519" version="2" timestamp="2012-07-17T07:38:40Z" uid="722137" user="OSMF Redaction Account" changeset="12259629"/>
  <way id="110859858" version="2" timestamp="2012-04-20T18:36:08Z" uid="63107" user="brogo" changeset="11367066"/>
  <way id="110859859" version="2" timestamp="2012-04-12T21:10:23Z" uid="63107" user="brogo" changeset="11281382">
    <nd ref="280246183"/>
    <nd ref="271919564"/>
    <nd ref="1264605513"/>
    <nd ref="271919565"/>
    <nd ref="271919566"/>
    <nd ref="271919567"/>
    <nd ref="271919568"/>
    <nd ref="271919569"/>
    <nd ref="271919570"/>
    <nd ref="1713327048"/>
    <tag k="highway" v="tertiary"/>
    <tag k="name" v="Franzhagener Straße"/>
    <tag k="ref" v="K 52"/>
    <tag k="surface" v="paved"/>
  </way>
  <way id="110859859" version="3" timestamp="2012-04-20T18:36:11Z" uid="63107" user="brogo" changeset="11367066"/>
  <way id="110859860" version="2" timestamp="2012-04-20T18:36:07Z" uid="63107" user="brogo" changeset="11367066"/>
</osm>
