<?xml version='1.0' encoding='UTF-8'?>
<osm version="0.6" generator="libosmium/2.20.0">
  <way id="111315525" version="1" timestamp="2011-05-01T09:14:58Z" uid="7617" user="Franc" changeset="8019005">
    <nd ref="160789411"/>
    <nd ref="639650417"/>
    <nd ref="160790032"/>
    <nd ref="160789412"/>
    <nd ref="639650427"/>
    <tag k="highway" v="residential"/>
    <tag k="maxspeed" v="50"/>
    <tag k="maxspeed:source" v="default residential speed limit in Australia"/>
    <tag k="name" v="Hedges Avenue"/>
    <tag k="restriction" v="school_zone"/>
  </way>
  <way id="111315526" version="1" timestamp="2011-05-01T09:14:58Z" uid="7617" user="Franc" changeset="8019005">
    <nd ref="267102381"/>
    <nd ref="267102380"/>
    <nd ref="267083009"/>
    <nd ref="1268524315"/>
    <tag k="highway" v="primary"/>
    <tag k="name" v="Hume Highway"/>
    <tag k="oneway" v="yes"/>
    <tag k="restriction" v="school_zone"/>
  </way>
  <way id="111315526" version="2" timestamp="2012-02-02T05:54:53Z" uid="54784" user="Tom Hollander" changeset="10564724">
    <nd ref="267102381"/>
    <nd ref="267102380"/>
    <nd ref="267083009"/>
    <nd ref="1268524315"/>
    <tag k="highway" v="primary"/>
    <tag k="name" v="Hume Highway"/>
    <tag k="oneway" v="yes"/>
    <tag k="ref" v="SH31"/>
    <tag k="restriction" v="school_zone"/>
  </way>
  <way id="111315526" version="3" timestamp="2012-03-25T20:45:54Z" uid="20949" user="Ebenezer" changeset="11099566"/>
  <way id="111315527" version="1" timestamp="2011-05-01T09:14:58Z" uid="7617" user="Franc" changeset="8019005">
    <nd ref="1268524349"/>
    <nd ref="1268524348"/>
    <tag k="addr:interpolation" v="even"/>
  </way>
  <way id="111315527" version="2" timestamp="2012-02-15T05:16:29Z" uid="7523" user="inas" changeset="10689303"/>
  <way id="111315528" version="1" timestamp="2011-05-01T09:14:59Z" uid="7617" user="Franc" changeset="8019005">
    <nd ref="267102381"/>
    <nd ref="19126748"/>
    <tag k="highway" v="tertiary"/>
    <tag k="name" v="Homebush Road"/>
    <tag k="restriction" v="school_zone"/>
  </way>
  <way id="111315528" version="2" timestamp="2012-03-25T20:45:54Z" uid="20949" user="Ebenezer" changeset="11099566"/>
  <way id="111315531" version="1" timestamp="2011-05-01T09:14:59Z" uid="7617" user="Franc" changeset="8019005">
    <nd ref="36585865"/>
    <nd ref="36585255"/>
    <nd ref="160787254"/>
    <nd ref="36585256"/>
    <nd ref="639650459"/>
    <nd ref="266724908"/>
    <tag k="highway" v="primary"/>
    <tag k="maxspeed" v="60"/>
    <tag k="name" v="Hume Highway"/>
    <tag k="oneway" v="yes"/>
  </way>
  <way id="111315531" version="2" timestamp="2012-02-02T05:54:53Z" uid="54784" user="Tom Hollander" changeset="10564724">
    <nd ref="36585865"/>
    <nd ref="36585255"/>
    <nd ref="160787254"/>
    <nd ref="36585256"/>
    <nd ref="639650459"/>
    <nd ref="266724908"/>
    <tag k="highway" v="primary"/>
    <tag k="maxspeed" v="60"/>
    <tag k="name" v="Hume Highway"/>
    <tag k="oneway" v="yes"/>
    <tag k="ref" v="SH31"/>
  </way>
  <way id="111315532" version="1" timestamp="2011-05-01T09:14:59Z" uid="7617" user="Franc" changeset="8019005">
    <nd ref="1268524321"/>
    <nd ref="1268524617"/>
    <tag k="addr:interpolation" v="even"/>
  </way>
  <way id="111315532" version="2" timestamp="2012-02-15T05:16:29Z" uid="7523" user="inas" changeset="10689303"/>
  <way id="111315533" version="1" timestamp="2011-05-01T09:14:59Z" uid="7617" user="Franc" changeset="8019005">
    <nd ref="1268524567"/>
    <nd ref="976472874"/>
    <tag k="addr:interpolation" v="odd"/>
    <tag k="note" v="this is very rough"/>
  </way>
  <way id="111315533" version="2" timestamp="2012-02-13T05:25:00Z" uid="7523" user="inas" changeset="10670291"/>
  <way id="111315535" version="1" timestamp="2011-05-01T09:14:59Z" uid="7617" user="Franc" changeset="8019005">
    <nd ref="36539216"/>
    <nd ref="36539218"/>
    <nd ref="630525007"/>
    <nd ref="266726164"/>
    <tag k="highway" v="primary"/>
    <tag k="maxspeed" v="60"/>
    <tag k="name" v="Hume Highway"/>
    <tag k="oneway" v="yes"/>
  </way>
  <way id="111315535" version="2" timestamp="2012-02-02T05:44:59Z" uid="54784" user="Tom Hollander" changeset="10564724">
    <nd ref="36539216"/>
    <nd ref="36539218"/>
    <nd ref="630525007"/>
    <nd ref="266726164"/>
    <tag k="highway" v="primary"/>
    <tag k="maxspeed" v="60"/>
    <tag k="name" v="Hume Highway"/>
    <tag k="oneway" v="yes"/>
    <tag k="ref" v="SH31"/>
  </way>
  <way id="111315536" version="1" timestamp="2011-05-01T09:14:59Z" uid="7617" user="Franc" changeset="8019005">
    <nd ref="160789411"/>
    <nd ref="639650411"/>
    <tag k="highway" v="primary"/>
    <tag k="maxspeed" v="60"/>
    <tag k="name" v="Hume Highway"/>
    <tag k="oneway" v="yes"/>
    <tag k="restriction" v="school_zone"/>
  </way>
  <way id="111315537" version="1" timestamp="2011-05-01T09:14:59Z" uid="7617" user="Franc" changeset="8019005">
    <nd ref="639650387"/>
    <nd ref="36588192"/>
    <nd ref="639650366"/>
    <tag k="highway" v="primary"/>
    <tag k="name" v="Hume Highway"/>
    <tag k="oneway" v="yes"/>
    <tag k="restriction" v="school_zone"/>
  </way>
  <way id="111315537" version="2" timestamp="2012-02-02T05:44:59Z" uid="54784" user="Tom Hollander" changeset="10564724">
    <nd ref="639650387"/>
    <nd ref="36588192"/>
    <nd ref="639650366"/>
    <tag k="highway" v="primary"/>
    <tag k="name" v="Hume Highway"/>
    <tag k="oneway" v="yes"/>
    <tag k="ref" v="SH31"/>
    <tag k="restriction" v="school_zone"/>
  </way>
  <way id="111315539" version="1" timestamp="2011-05-01T09:15:00Z" uid="7617" user="Franc" changeset="8019005">
    <nd ref="1268524703"/>
    <nd ref="1268524371"/>
    <nd ref="1268524656"/>
    <tag k="bridge" v="yes"/>
    <tag k="highway" v="footway"/>
    <tag k="layer" v="1"/>
    <tag k="source" v="nearmap"/>
  </way>
  <way id="111315542" version="1" timestamp="2011-05-01T09:15:00Z" uid="7617" user="Franc" changeset="8019005">
    <nd ref="1268524656"/>
    <nd ref="1268524328"/>
    <tag k="highway" v="steps"/>
    <tag k="layer" v="1"/>
    <tag k="source" v="nearmap"/>
  </way>
  <way id="111315544" version="1" timestamp="2011-05-01T09:15:00Z" uid="7617" user="Franc" changeset="8019005">
    <nd ref="266726160"/>
    <nd ref="36587824"/>
    <tag k="highway" v="trunk_link"/>
    <tag k="oneway" v="yes"/>
  </way>
  <way id="111315545" version="1" timestamp="2011-05-01T09:15:00Z" uid="7617" user="Franc" changeset="8019005">
    <nd ref="36585730"/>
    <nd ref="639650403"/>
    <tag k="highway" v="primary"/>
    <tag k="name" v="Hume Highway"/>
    <tag k="oneway" v="yes"/>
  </way>
  <way id="111315545" version="2" timestamp="2012-02-02T05:44:59Z" uid="54784" user="Tom Hollander" changeset="10564724">
    <nd ref="36585730"/>
    <nd ref="639650403"/>
    <tag k="highway" v="primary"/>
    <tag k="name" v="Hume Highway"/>
    <tag k="oneway" v="yes"/>
    <tag k="ref" v="SH31"/>
  </way>
  <way id="111315546" version="1" timestamp="2011-05-01T09:15:00Z" uid="7617" user="Franc" changeset="8019005">
    <nd ref="266726160"/>
    <nd ref="36585252"/>
    <nd ref="36587979"/>
    <nd ref="639650364"/>
    <tag k="highway" v="primary"/>
    <tag k="maxspeed" v="60"/>
    <tag k="name" v="Hume Highway"/>
    <tag k="oneway" v="yes"/>
  </way>
  <way id="111315546" version="2" timestamp="2012-02-02T05:44:59Z" uid="54784" user="Tom Hollander" changeset="10564724">
    <nd ref="266726160"/>
    <nd ref="36585252"/>
    <nd ref="36587979"/>
    <nd ref="639650364"/>
    <tag k="highway" v="primary"/>
    <tag k="maxspeed" v="60"/>
    <tag k="name" v="Hume Highway"/>
    <tag k="oneway" v="yes"/>
    <tag k="ref" v="SH31"/>
  </way>
  <way id="111315547" version="1" timestamp="2011-05-01T09:15:00Z" uid="7617" user="Franc" changeset="8019005">
    <nd ref="1268524370"/>
    <nd ref="158874881"/>
    <nd ref="158874711"/>
    <nd ref="599526599"/>
    <nd ref="158872554"/>
    <nd ref="639650641"/>
    <nd ref="175977870"/>
    <nd ref="175979538"/>
    <nd ref="160765665"/>
    <nd ref="160764562"/>
    <nd ref="160763578"/>
    <tag k="highway" v="tertiary"/>
    <tag k="name" v="Homebush Road"/>
  </way>
  <way id="111315550" version="1" timestamp="2011-05-01T09:15:00Z" uid="7617" user="Franc" changeset="8019005">
    <nd ref="241648832"/>
    <nd ref="181229283"/>
    <tag k="highway" v="primary"/>
    <tag k="maxspeed" v="60"/>
    <tag k="name" v="Stoney Creek Road"/>
  </way>
  <way id="111315550" version="2" timestamp="2012-03-07T00:21:22Z" uid="7523" user="inas" changeset="10895933">
    <nd ref="181229283"/>
    <nd ref="241648832"/>
    <tag k="highway" v="primary"/>
    <tag k="maxspeed" v="60"/>
    <tag k="name" v="Stoney Creek Road"/>
  </way>
  <way id="111315551" version="1" timestamp="2011-05-01T09:15:01Z" uid="7617" user="Franc" changeset="8019005">
    <nd ref="266726164"/>
    <nd ref="266726169"/>
    <nd ref="266726170"/>
    <tag k="highway" v="trunk_link"/>
    <tag k="oneway" v="yes"/>
  </way>
  <way id="111315552" version="1" timestamp="2011-05-01T09:15:01Z" uid="7617" user="Franc" changeset="8019005">
    <nd ref="19126748"/>
    <nd ref="19126744"/>
    <nd ref="19126740"/>
    <nd ref="1268524351"/>
    <nd ref="158871286"/>
    <nd ref="158871808"/>
    <nd ref="1268524383"/>
    <tag k="highway" v="primary"/>
    <tag k="name" v="Hume Highway"/>
    <tag k="restriction" v="school_zone"/>
  </way>
  <way id="111315552" version="2" timestamp="2012-02-02T05:54:53Z" uid="54784" user="Tom Hollander" changeset="10564724">
    <nd ref="19126748"/>
    <nd ref="19126744"/>
    <nd ref="19126740"/>
    <nd ref="1268524351"/>
    <nd ref="158871286"/>
    <nd ref="158871808"/>
    <nd ref="1268524383"/>
    <tag k="highway" v="primary"/>
    <tag k="name" v="Hume Highway"/>
    <tag k="ref" v="SH31"/>
    <tag k="restriction" v="school_zone"/>
  </way>
  <way id="111315552" version="3" timestamp="2012-03-25T20:45:54Z" uid="20949" user="Ebenezer" changeset="11099566"/>
  <way id="111315553" version="1" timestamp="2011-05-01T09:15:01Z" uid="7617" user="Franc" changeset="8019005">
    <nd ref="182029481"/>
    <nd ref="918176595"/>
    <tag k="highway" v="primary"/>
    <tag k="maxspeed" v="60"/>
    <tag k="name" v="Stoney Creek Road"/>
  </way>
  <way id="111315553" version="2" timestamp="2012-03-07T02:58:07Z" uid="7523" user="inas" changeset="10896371"/>
  <way id="111315554" version="1" timestamp="2011-05-01T09:15:01Z" uid="7617" user="Franc" changeset="8019005">
    <nd ref="160788849"/>
    <nd ref="639650387"/>
    <tag k="highway" v="primary"/>
    <tag k="name" v="Hume Highway"/>
    <tag k="oneway" v="yes"/>
    <tag k="restriction" v="school_zone"/>
  </way>
  <way id="111315554" version="2" timestamp="2012-02-02T05:44:59Z" uid="54784" user="Tom Hollander" changeset="10564724">
    <nd ref="160788849"/>
    <nd ref="639650387"/>
    <tag k="highway" v="primary"/>
    <tag k="name" v="Hume Highway"/>
    <tag k="oneway" v="yes"/>
    <tag k="ref" v="SH31"/>
    <tag k="restriction" v="school_zone"/>
  </way>
  <way id="111315555" version="1" timestamp="2011-05-01T09:15:01Z" uid="7617" user="Franc" changeset="8019005">
    <nd ref="1268524383"/>
    <nd ref="19126736"/>
    <nd ref="158875703"/>
    <nd ref="158872191"/>
    <nd ref="19126731"/>
    <nd ref="19126727"/>
    <nd ref="19126723"/>
    <nd ref="1008827472"/>
    <nd ref="1008826680"/>
    <nd ref="19126719"/>
    <nd ref="1008827386"/>
    <nd ref="1008826565"/>
    <nd ref="19126716"/>
    <nd ref="19126715"/>
    <nd ref="1008826854"/>
    <nd ref="19126712"/>
    <nd ref="158869332"/>
    <nd ref="19126708"/>
    <nd ref="1008827119"/>
    <nd ref="19126704"/>
    <nd ref="158874884"/>
    <nd ref="19126701"/>
    <nd ref="1008827156"/>
    <nd ref="1008826898"/>
    <nd ref="19126699"/>
    <nd ref="60848059"/>
    <nd ref="1166161814"/>
    <nd ref="299690640"/>
    <tag k="highway" v="primary"/>
    <tag k="name" v="Hume Highway"/>
  </way>
  <way id="111315555" version="2" timestamp="2012-02-02T05:54:54Z" uid="54784" user="Tom Hollander" changeset="10564724">
    <nd ref="1268524383"/>
    <nd ref="19126736"/>
    <nd ref="158875703"/>
    <nd ref="158872191"/>
    <nd ref="19126731"/>
    <nd ref="19126727"/>
    <nd ref="19126723"/>
    <nd ref="1008827472"/>
    <nd ref="1008826680"/>
    <nd ref="19126719"/>
    <nd ref="1008827386"/>
    <nd ref="1008826565"/>
    <nd ref="19126716"/>
    <nd ref="19126715"/>
    <nd ref="1008826854"/>
    <nd ref="19126712"/>
    <nd ref="158869332"/>
    <nd ref="19126708"/>
    <nd ref="1008827119"/>
    <nd ref="19126704"/>
    <nd ref="158874884"/>
    <nd ref="19126701"/>
    <nd ref="1008827156"/>
    <nd ref="1008826898"/>
    <nd ref="19126699"/>
    <nd ref="60848059"/>
    <nd ref="1166161814"/>
    <nd ref="299690640"/>
    <tag k="highway" v="primary"/>
    <tag k="name" v="Hume Highway"/>
    <tag k="ref" v="SH31"/>
  </way>
  <way id="111315555" version="3" timestamp="2012-03-25T20:45:54Z" uid="20949" user="Ebenezer" changeset="11099566"/>
  <way id="111315556" version="1" timestamp="2011-05-01T09:15:02Z" uid="7617" user="Franc" changeset="8019005">
    <nd ref="19126748"/>
    <nd ref="158869534"/>
    <nd ref="1268524370"/>
    <tag k="highway" v="tertiary"/>
    <tag k="name" v="Homebush Road"/>
    <tag k="restriction" v="school_zone"/>
  </way>
  <way id="111315556" version="2" timestamp="2012-03-25T20:45:47Z" uid="20949" user="Ebenezer" changeset="11099566">
    <nd ref="1691043720"/>
    <nd ref="158869534"/>
    <nd ref="1268524370"/>
    <tag k="highway" v="tertiary"/>
    <tag k="name" v="Homebush Road"/>
    <tag k="restriction" v="school_zone"/>
  </way>
  <way id="111315557" version="1" timestamp="2011-05-01T09:15:02Z" uid="7617" user="Franc" changeset="8019005">
    <nd ref="1268524345"/>
    <nd ref="160771297"/>
    <nd ref="160771870"/>
    <nd ref="158869535"/>
    <nd ref="599526582"/>
    <nd ref="599526581"/>
    <tag k="highway" v="residential"/>
    <tag k="lcn" v="yes"/>
    <tag k="maxspeed" v="50"/>
    <tag k="maxspeed:source" v="default residential speed limit in Australia"/>
    <tag k="name" v="High Street"/>
  </way>
  <way id="111315558" version="1" timestamp="2011-05-01T09:15:02Z" uid="7617" user="Franc" changeset="8019005">
    <nd ref="19126752"/>
    <nd ref="19126748"/>
    <tag k="highway" v="primary"/>
    <tag k="name" v="Hume Highway"/>
    <tag k="restriction" v="school_zone"/>
  </way>
  <way id="111315558" version="2" timestamp="2012-02-02T05:54:54Z" uid="54784" user="Tom Hollander" changeset="10564724">
    <nd ref="19126752"/>
    <nd ref="19126748"/>
    <tag k="highway" v="primary"/>
    <tag k="name" v="Hume Highway"/>
    <tag k="ref" v="SH31"/>
    <tag k="restriction" v="school_zone"/>
  </way>
  <way id="111315558" version="3" timestamp="2012-03-25T20:45:55Z" uid="20949" user="Ebenezer" changeset="11099566"/>
  <way id="111315559" version="1" timestamp="2011-05-01T09:15:02Z" uid="7617" user="Franc" changeset="8019005">
    <nd ref="1268524330"/>
    <nd ref="1268524430"/>
    <nd ref="1268524316"/>
    <nd ref="1268524330"/>
    <tag k="leisure" v="park"/>
    <tag k="source" v="nearmap"/>
  </way>
  <way id="111315560" version="1" timestamp="2011-05-01T09:15:02Z" uid="7617" user="Franc" changeset="8019005">
    <nd ref="158863419"/>
    <nd ref="1268524441"/>
    <nd ref="1268524366"/>
    <nd ref="267102414"/>
    <nd ref="158876414"/>
    <nd ref="267102412"/>
    <nd ref="158876480"/>
    <nd ref="266724793"/>
    <tag k="highway" v="tertiary"/>
    <tag k="name" v="Water Street"/>
  </way>
  <way id="111315561" version="1" timestamp="2011-05-01T09:15:02Z" uid="7617" user="Franc" changeset="8019005">
    <nd ref="1268524424"/>
    <nd ref="1268524326"/>
    <tag k="addr:interpolation" v="odd"/>
  </way>
  <way id="111315561" version="2" timestamp="2012-02-13T05:25:00Z" uid="7523" user="inas" changeset="10670291"/>
  <way id="111315562" version="1" timestamp="2011-05-01T09:15:03Z" uid="7617" user="Franc" changeset="8019005">
    <nd ref="266726164"/>
    <nd ref="266726160"/>
    <tag k="highway" v="primary"/>
    <tag k="maxspeed" v="60"/>
    <tag k="name" v="Hume Highway"/>
    <tag k="oneway" v="yes"/>
  </way>
  <way id="111315563" version="1" timestamp="2011-05-01T09:15:03Z" uid="7617" user="Franc" changeset="8019005">
    <nd ref="1268524408"/>
    <nd ref="1268524389"/>
    <tag k="addr:interpolation" v="even"/>
  </way>
  <way id="111315563" version="2" timestamp="2012-02-13T05:25:00Z" uid="7523" user="inas" changeset="10670291"/>
  <way id="111315564" version="1" timestamp="2011-05-01T09:15:03Z" uid="7617" user="Franc" changeset="8019005">
    <nd ref="1268524438"/>
    <nd ref="1268524581"/>
    <nd ref="1268524337"/>
    <nd ref="1268524576"/>
    <nd ref="1268524438"/>
    <tag k="amenity" v="parking"/>
    <tag k="capacity" v="14"/>
    <tag k="capacity:disabled" v="1"/>
    <tag k="source" v="nearmap"/>
  </way>
  <way id="111315565" version="1" timestamp="2011-05-01T09:15:03Z" uid="7617" user="Franc" changeset="8019005">
    <nd ref="1268524542"/>
    <nd ref="158870771"/>
    <nd ref="1268524650"/>
    <nd ref="158869534"/>
    <nd ref="1268524345"/>
    <tag k="highway" v="residential"/>
    <tag k="lcn" v="yes"/>
    <tag k="maxspeed" v="50"/>
    <tag k="maxspeed:source" v="default residential speed limit in Australia"/>
    <tag k="name" v="High Street"/>
    <tag k="restriction" v="school_zone"/>
  </way>
  <way id="111315566" version="1" timestamp="2011-05-01T09:15:03Z" uid="7617" user="Franc" changeset="8019005">
    <nd ref="1268524445"/>
    <nd ref="1268524593"/>
    <nd ref="1268524404"/>
    <nd ref="1268524309"/>
    <nd ref="1268524522"/>
    <nd ref="1268524360"/>
    <nd ref="1268524616"/>
    <nd ref="1268524437"/>
    <nd ref="1268524320"/>
    <nd ref="1268524558"/>
    <nd ref="1268524372"/>
    <nd ref="1268524657"/>
    <nd ref="1268524475"/>
    <nd ref="1268524331"/>
    <nd ref="1268524574"/>
    <nd ref="1268524391"/>
    <nd ref="1268524393"/>
    <nd ref="1268524699"/>
    <nd ref="1268524515"/>
    <nd ref="1268524694"/>
    <nd ref="1268524506"/>
    <nd ref="1268524353"/>
    <nd ref="1268524602"/>
    <nd ref="1268524426"/>
    <nd ref="1268524312"/>
    <nd ref="1268524530"/>
    <nd ref="1268524362"/>
    <nd ref="1268524440"/>
    <nd ref="1268524323"/>
    <nd ref="1268524561"/>
    <nd ref="1268524379"/>
    <nd ref="1268524664"/>
    <nd ref="1268524483"/>
    <nd ref="1268524340"/>
    <nd ref="1268524580"/>
    <nd ref="1268524397"/>
    <nd ref="1268524706"/>
    <nd ref="1268524519"/>
    <nd ref="1268524358"/>
    <nd ref="1268524614"/>
    <nd ref="1268524536"/>
    <nd ref="1268524545"/>
    <nd ref="1268524368"/>
    <nd ref="1268524654"/>
    <nd ref="1268524467"/>
    <nd ref="1268524327"/>
    <nd ref="1268524570"/>
    <nd ref="1268524387"/>
    <nd ref="1268524673"/>
    <nd ref="1268524490"/>
    <nd ref="1268524350"/>
    <nd ref="1268524598"/>
    <nd ref="1268524425"/>
    <nd ref="1268524311"/>
    <nd ref="1268524529"/>
    <nd ref="1268524361"/>
    <nd ref="1268524619"/>
    <nd ref="1268524322"/>
    <nd ref="1268524374"/>
    <nd ref="1268524658"/>
    <nd ref="1268524478"/>
    <nd ref="1268524338"/>
    <nd ref="1268524655"/>
    <nd ref="1268524471"/>
    <nd ref="1268524329"/>
    <nd ref="1268524355"/>
    <nd ref="1268524607"/>
    <nd ref="1268524314"/>
    <nd ref="1268524532"/>
    <nd ref="1268524364"/>
    <nd ref="1268524642"/>
    <nd ref="1268524445"/>
    <tag k="leisure" v="nature_reserve"/>
    <tag k="source" v="nearmap"/>
  </way>
  <way id="111315567" version="1" timestamp="2011-05-01T09:15:04Z" uid="7617" user="Franc" changeset="8019005">
    <nd ref="1268524599"/>
    <nd ref="267102383"/>
    <nd ref="267102382"/>
    <nd ref="1268524493"/>
    <nd ref="267102386"/>
    <nd ref="267102385"/>
    <nd ref="267102381"/>
    <tag k="highway" v="primary"/>
    <tag k="name" v="Hume Highway"/>
    <tag k="oneway" v="yes"/>
    <tag k="restriction" v="school_zone"/>
  </way>
  <way id="111315567" version="2" timestamp="2012-02-02T05:54:55Z" uid="54784" user="Tom Hollander" changeset="10564724">
    <nd ref="1268524599"/>
    <nd ref="267102383"/>
    <nd ref="267102382"/>
    <nd ref="1268524493"/>
    <nd ref="267102386"/>
    <nd ref="267102385"/>
    <nd ref="267102381"/>
    <tag k="highway" v="primary"/>
    <tag k="name" v="Hume Highway"/>
    <tag k="oneway" v="yes"/>
    <tag k="ref" v="SH31"/>
    <tag k="restriction" v="school_zone"/>
  </way>
  <way id="111315567" version="3" timestamp="2012-03-25T20:45:55Z" uid="20949" user="Ebenezer" changeset="11099566"/>
  <way id="111315568" version="1" timestamp="2011-05-01T09:15:04Z" uid="7617" user="Franc" changeset="8019005">
    <nd ref="1268524310"/>
    <nd ref="1268524525"/>
    <tag k="addr:interpolation" v="odd"/>
  </way>
  <way id="111315568" version="2" timestamp="2012-02-15T05:16:29Z" uid="7523" user="inas" changeset="10689303"/>
  <way id="111315569" version="1" timestamp="2011-05-01T09:15:04Z" uid="7617" user="Franc" changeset="8019005">
    <nd ref="1268524402"/>
    <nd ref="1268524514"/>
    <tag k="addr:interpolation" v="even"/>
  </way>
  <way id="111315569" version="2" timestamp="2012-02-13T05:25:00Z" uid="7523" user="inas" changeset="10670291"/>
  <way id="111315570" version="1" timestamp="2011-05-01T09:15:04Z" uid="7617" user="Franc" changeset="8019005">
    <nd ref="1268524315"/>
    <nd ref="267102379"/>
    <nd ref="267083008"/>
    <nd ref="267102378"/>
    <nd ref="267102377"/>
    <nd ref="267102376"/>
    <nd ref="267083015"/>
    <nd ref="267102375"/>
    <tag k="highway" v="primary"/>
    <tag k="name" v="Hume Highway"/>
    <tag k="oneway" v="yes"/>
  </way>
  <way id="111315570" version="2" timestamp="2011-05-01T09:24:15Z" uid="7617" user="Franc" changeset="8019087">
    <nd ref="1268524315"/>
    <nd ref="267102379"/>
    <nd ref="267083008"/>
    <nd ref="267102378"/>
    <nd ref="1268532792"/>
    <nd ref="267102377"/>
    <nd ref="267102376"/>
    <nd ref="267083015"/>
    <nd ref="267102375"/>
    <tag k="highway" v="primary"/>
    <tag k="name" v="Hume Highway"/>
    <tag k="oneway" v="yes"/>
  </way>
  <way id="111315570" version="3" timestamp="2012-02-02T05:54:55Z" uid="54784" user="Tom Hollander" changeset="10564724">
    <nd ref="1268524315"/>
    <nd ref="267102379"/>
    <nd ref="267083008"/>
    <nd ref="267102378"/>
    <nd ref="1268532792"/>
    <nd ref="267102377"/>
    <nd ref="267102376"/>
    <nd ref="267083015"/>
    <nd ref="267102375"/>
    <tag k="highway" v="primary"/>
    <tag k="name" v="Hume Highway"/>
    <tag k="oneway" v="yes"/>
    <tag k="ref" v="SH31"/>
  </way>
  <way id="111315570" version="4" timestamp="2012-03-25T20:45:54Z" uid="20949" user="Ebenezer" changeset="11099566"/>
  <way id="111315571" version="1" timestamp="2011-05-01T09:15:04Z" uid="7617" user="Franc" changeset="8019005">
    <nd ref="251794036"/>
    <nd ref="603080332"/>
    <nd ref="251796452"/>
    <nd ref="603080333"/>
    <nd ref="603080334"/>
    <nd ref="603080335"/>
    <nd ref="251796453"/>
    <nd ref="603080336"/>
    <nd ref="251796454"/>
    <nd ref="251796455"/>
    <tag k="highway" v="residential"/>
    <tag k="maxspeed" v="50"/>
    <tag k="maxspeed:source" v="default residential speed limit in Australia"/>
    <tag k="name" v="Cardella Crescent"/>
    <tag k="source:name" v="survey"/>
  </way>
  <way id="111315572" version="1" timestamp="2011-05-01T09:15:05Z" uid="7617" user="Franc" changeset="8019005">
    <nd ref="36587824"/>
    <nd ref="266726164"/>
    <tag k="highway" v="trunk_link"/>
    <tag k="oneway" v="yes"/>
  </way>
  <way id="111315573" version="1" timestamp="2011-05-01T09:15:05Z" uid="7617" user="Franc" changeset="8019005">
    <nd ref="639650403"/>
    <nd ref="639650409"/>
    <tag k="highway" v="unclassified"/>
    <tag k="name" v="Gould Street"/>
    <tag k="source" v="nearmap"/>
    <tag k="source:name" v="survey"/>
  </way>
  <way id="111315574" version="1" timestamp="2011-05-01T09:15:05Z" uid="7617" user="Franc" changeset="8019005">
    <nd ref="181234987"/>
    <nd ref="182032957"/>
    <tag k="highway" v="primary"/>
    <tag k="maxspeed" v="60"/>
    <tag k="name" v="Stoney Creek Road"/>
  </way>
  <way id="111315574" version="2" timestamp="2012-03-07T02:58:06Z" uid="7523" user="inas" changeset="10896371"/>
  <way id="111315575" version="1" timestamp="2011-05-01T09:15:05Z" uid="7617" user="Franc" changeset="8019005">
    <nd ref="639650409"/>
    <nd ref="36585865"/>
    <tag k="highway" v="primary"/>
    <tag k="maxspeed" v="60"/>
    <tag k="name" v="Hume Highway"/>
    <tag k="oneway" v="yes"/>
  </way>
  <way id="111315575" version="2" timestamp="2012-02-02T05:45:00Z" uid="54784" user="Tom Hollander" changeset="10564724">
    <nd ref="639650409"/>
    <nd ref="36585865"/>
    <tag k="highway" v="primary"/>
    <tag k="maxspeed" v="60"/>
    <tag k="name" v="Hume Highway"/>
    <tag k="oneway" v="yes"/>
    <tag k="ref" v="SH31"/>
  </way>
  <way id="111315576" version="1" timestamp="2011-05-01T09:15:05Z" uid="7617" user="Franc" changeset="8019005">
    <nd ref="1268524423"/>
    <nd ref="1268524565"/>
    <nd ref="1268524381"/>
    <nd ref="1268524667"/>
    <nd ref="1268524484"/>
    <nd ref="1268524423"/>
    <tag k="amenity" v="school"/>
    <tag k="source" v="nearmap"/>
  </way>
  <way id="111315577" version="1" timestamp="2011-05-01T09:15:05Z" uid="7617" user="Franc" changeset="8019005">
    <nd ref="639650387"/>
    <nd ref="639650397"/>
    <tag k="highway" v="unclassified"/>
    <tag k="name" v="Braidwood Street"/>
    <tag k="source" v="nearmap"/>
    <tag k="source:name" v="survey"/>
  </way>
  <way id="111315578" version="1" timestamp="2011-05-01T09:15:05Z" uid="7617" user="Franc" changeset="8019005">
    <nd ref="36585730"/>
    <nd ref="36585865"/>
    <tag k="highway" v="unclassified"/>
    <tag k="name" v="Cosgrove Road"/>
  </way>
  <way id="111315579" version="1" timestamp="2011-05-01T09:15:05Z" uid="7617" user="Franc" changeset="8019005">
    <nd ref="158863419"/>
    <nd ref="1268524622"/>
    <nd ref="1268524534"/>
    <nd ref="1268524443"/>
    <tag k="highway" v="tertiary"/>
    <tag k="name" v="Homebush Road"/>
  </way>
  <way id="111315580" version="1" timestamp="2011-05-01T09:15:05Z" uid="7617" user="Franc" changeset="8019005">
    <nd ref="1268524443"/>
    <nd ref="267102381"/>
    <tag k="highway" v="tertiary"/>
    <tag k="name" v="Homebush Road"/>
    <tag k="restriction" v="school_zone"/>
  </way>
  <way id="111315580" version="2" timestamp="2012-03-25T20:45:49Z" uid="20949" user="Ebenezer" changeset="11099566">
    <nd ref="1268524443"/>
    <nd ref="1691043730"/>
    <nd ref="1691043662"/>
    <nd ref="1691043720"/>
    <tag k="highway" v="tertiary"/>
    <tag k="name" v="Homebush Road"/>
    <tag k="restriction" v="school_zone"/>
  </way>
  <way id="111315581" version="1" timestamp="2011-05-01T09:15:05Z" uid="7617" user="Franc" changeset="8019005">
    <nd ref="182032957"/>
    <nd ref="192983422"/>
    <tag k="highway" v="primary"/>
    <tag k="maxspeed" v="60"/>
    <tag k="name" v="Stoney Creek Road"/>
  </way>
  <way id="111315581" version="2" timestamp="2012-03-07T02:58:06Z" uid="7523" user="inas" changeset="10896371"/>
  <way id="111315582" version="1" timestamp="2011-05-01T09:15:06Z" uid="7617" user="Franc" changeset="8019005">
    <nd ref="639650397"/>
    <nd ref="160789411"/>
    <tag k="highway" v="primary"/>
    <tag k="maxspeed" v="60"/>
    <tag k="name" v="Hume Highway"/>
    <tag k="oneway" v="yes"/>
    <tag k="restriction" v="school_zone"/>
  </way>
  <way id="111315582" version="2" timestamp="2012-02-02T05:45:00Z" uid="54784" user="Tom Hollander" changeset="10564724">
    <nd ref="639650397"/>
    <nd ref="160789411"/>
    <tag k="highway" v="primary"/>
    <tag k="maxspeed" v="60"/>
    <tag k="name" v="Hume Highway"/>
    <tag k="oneway" v="yes"/>
    <tag k="ref" v="SH31"/>
    <tag k="restriction" v="school_zone"/>
  </way>
  <way id="111315583" version="1" timestamp="2011-05-01T09:15:06Z" uid="7617" user="Franc" changeset="8019005">
    <nd ref="1268524604"/>
    <nd ref="1268524669"/>
    <tag k="addr:interpolation" v="odd"/>
  </way>
  <way id="111315583" version="2" timestamp="2012-02-13T05:25:00Z" uid="7523" user="inas" changeset="10670291"/>
  <way id="111315584" version="1" timestamp="2011-05-01T09:15:06Z" uid="7617" user="Franc" changeset="8019005">
    <nd ref="639650403"/>
    <nd ref="639650413"/>
    <tag k="highway" v="primary"/>
    <tag k="name" v="Hume Highway"/>
    <tag k="oneway" v="yes"/>
  </way>
  <way id="111315525" version="2" timestamp="2012-04-10T23:22:29Z" uid="20949" user="Ebenezer" changeset="11259382">
    <nd ref="1710750951"/>
    <nd ref="160789411"/>
    <nd ref="639650417"/>
    <nd ref="160790032"/>
    <nd ref="160789412"/>
    <nd ref="639650427"/>
    <tag k="highway" v="residential"/>
    <tag k="maxspeed" v="50"/>
    <tag k="maxspeed:source" v="default residential speed limit in Australia"/>
    <tag k="name" v="Hedges Avenue"/>
    <tag k="restriction" v="school_zone"/>
  </way>
  <way id="111315525" version="3" timestamp="2012-04-10T23:25:31Z" uid="20949" user="Ebenezer" changeset="11259382">
    <nd ref="1710750951"/>
    <nd ref="1710752437"/>
    <nd ref="639650417"/>
    <nd ref="160790032"/>
    <nd ref="160789412"/>
    <nd ref="639650427"/>
    <tag k="highway" v="residential"/>
    <tag k="maxspeed" v="50"/>
    <tag k="maxspeed:source" v="default residential speed limit in Australia"/>
    <tag k="name" v="Hedges Avenue"/>
    <tag k="restriction" v="school_zone"/>
  </way>
  <way id="111315525" version="4" timestamp="2012-07-20T08:28:30Z" uid="722137" user="OSMF Redaction Account" changeset="12368329">
    <nd ref="1710750951"/>
    <nd ref="1710752437"/>
  </way>
  <way id="111315525" version="5" timestamp="2012-07-21T03:30:56Z" uid="47167" user="MCH" changeset="12399330"/>
  <way id="111315531" version="3" timestamp="2012-04-10T23:22:29Z" uid="20949" user="Ebenezer" changeset="11259382">
    <nd ref="36585865"/>
    <nd ref="36585255"/>
    <nd ref="160787254"/>
    <nd ref="1710750947"/>
    <nd ref="36585256"/>
    <nd ref="639650459"/>
    <nd ref="266724908"/>
    <tag k="highway" v="primary"/>
    <tag k="maxspeed" v="60"/>
    <tag k="name" v="Hume Highway"/>
    <tag k="oneway" v="yes"/>
    <tag k="ref" v="SH31"/>
  </way>
  <way id="111315531" version="4" timestamp="2012-04-10T23:25:34Z" uid="20949" user="Ebenezer" changeset="11259382"/>
  <way id="111315535" version="3" timestamp="2012-07-20T08:38:53Z" uid="722137" user="OSMF Redaction Account" changeset="12368619"/>
  <way id="111315536" version="2" timestamp="2012-04-10T23:25:34Z" uid="20949" user="Ebenezer" changeset="11259382"/>
  <way id="111315537" version="3" timestamp="2012-07-20T08:38:51Z" uid="722137" user="OSMF Redaction Account" changeset="12368619"/>
  <way id="111315539" version="2" timestamp="2012-07-20T08:38:52Z" uid="722137" user="OSMF Redaction Account" changeset="12368619"/>
  <way id="111315542" version="2" timestamp="2012-07-20T08:38:51Z" uid="722137" user="OSMF Redaction Account" changeset="12368619"/>
  <way id="111315544" version="2" timestamp="2012-07-20T08:38:53Z" uid="722137" user="OSMF Redaction Account" changeset="12368619"/>
  <way id="111315545" version="3" timestamp="2012-04-10T23:22:31Z" uid="20949" user="Ebenezer" changeset="11259382"/>
  <way id="111315546" version="3" timestamp="2012-07-20T08:38:53Z" uid="722137" user="OSMF Redaction Account" changeset="12368619"/>
  <way id="111315547" version="2" timestamp="2012-07-20T08:38:47Z" uid="722137" user="OSMF Redaction Account" changeset="12368586"/>
  <way id="111315550" version="3" timestamp="2012-07-20T08:36:58Z" uid="722137" user="OSMF Redaction Account" changeset="12368532"/>
  <way id="111315551" version="2" timestamp="2012-07-20T08:38:53Z" uid="722137" user="OSMF Redaction Account" changeset="12368619"/>
  <way id="111315554" version="3" timestamp="2012-04-10T23:22:29Z" uid="20949" user="Ebenezer" changeset="11259382">
    <nd ref="1710750951"/>
    <nd ref="639650387"/>
    <tag k="highway" v="primary"/>
    <tag k="name" v="Hume Highway"/>
    <tag k="oneway" v="yes"/>
    <tag k="ref" v="SH31"/>
    <tag k="restriction" v="school_zone"/>
  </way>
  <way id="111315554" version="4" timestamp="2012-07-20T08:38:50Z" uid="722137" user="OSMF Redaction Account" changeset="12368619"/>
  <way id="111315556" version="3" timestamp="2012-07-02T09:33:30Z" uid="713671" user="auspod" changeset="12084947">
    <nd ref="1691043720"/>
    <nd ref="1809758323"/>
    <nd ref="1268524370"/>
    <tag k="highway" v="tertiary"/>
    <tag k="name" v="Homebush Road"/>
    <tag k="restriction" v="school_zone"/>
  </way>
  <way id="111315556" version="4" timestamp="2012-07-20T08:28:37Z" uid="722137" user="OSMF Redaction Account" changeset="12368329">
    <nd ref="1691043720"/>
    <nd ref="1809758323"/>
  </way>
  <way id="111315556" version="5" timestamp="2012-07-30T14:35:27Z" uid="504708" user="HillWithSmallFields" changeset="12548939">
    <nd ref="1691043720"/>
    <nd ref="1809758323"/>
    <nd ref="158874881"/>
    <nd ref="158874711"/>
    <nd ref="158872554"/>
    <nd ref="175977870"/>
    <nd ref="175979538"/>
    <nd ref="160765665"/>
    <nd ref="160764562"/>
    <nd ref="160763578"/>
    <nd ref="1844058340"/>
    <tag k="highway" v="secondary"/>
  </way>
  <way id="111315556" version="6" timestamp="2012-08-03T14:20:25Z" uid="67896" user="mrpulley" changeset="12598774">
    <nd ref="1691043720"/>
    <nd ref="1809758323"/>
    <nd ref="158874881"/>
    <nd ref="158874711"/>
    <nd ref="158872554"/>
    <nd ref="175977870"/>
    <nd ref="175979538"/>
    <nd ref="160765665"/>
    <nd ref="160764562"/>
    <nd ref="160763578"/>
    <nd ref="1844058340"/>
    <tag k="highway" v="secondary"/>
    <tag k="name" v="Homebush Road"/>
  </way>
  <way id="111315557" version="2" timestamp="2012-04-13T18:34:39Z" uid="118262" user="Wynndale" changeset="11290749"/>
  <way id="111315559" version="2" timestamp="2012-07-20T08:38:24Z" uid="722137" user="OSMF Redaction Account" changeset="12368586"/>
  <way id="111315560" version="2" timestamp="2012-07-20T08:38:37Z" uid="722137" user="OSMF Redaction Account" changeset="12368586"/>
  <way id="111315562" version="2" timestamp="2012-07-20T08:38:53Z" uid="722137" user="OSMF Redaction Account" changeset="12368619"/>
  <way id="111315564" version="2" timestamp="2012-07-20T08:38:37Z" uid="722137" user="OSMF Redaction Account" changeset="12368586"/>
  <way id="111315565" version="2" timestamp="2012-07-02T09:33:30Z" uid="713671" user="auspod" changeset="12084947">
    <nd ref="1268524542"/>
    <nd ref="1809758337"/>
    <nd ref="1809758310"/>
    <nd ref="1268524650"/>
    <nd ref="1809758323"/>
    <nd ref="1268524345"/>
    <tag k="highway" v="residential"/>
    <tag k="lcn" v="yes"/>
    <tag k="maxspeed" v="50"/>
    <tag k="maxspeed:source" v="default residential speed limit in Australia"/>
    <tag k="name" v="High Street"/>
    <tag k="restriction" v="school_zone"/>
  </way>
  <way id="111315565" version="3" timestamp="2012-07-20T08:28:38Z" uid="722137" user="OSMF Redaction Account" changeset="12368329">
    <nd ref="1809758337"/>
    <nd ref="1809758310"/>
    <nd ref="1809758323"/>
  </way>
  <way id="111315565" version="4" timestamp="2012-07-30T14:35:28Z" uid="504708" user="HillWithSmallFields" changeset="12548939"/>
  <way id="111315566" version="2" timestamp="2012-07-20T08:38:46Z" uid="722137" user="OSMF Redaction Account" changeset="12368586"/>
  <way id="111315571" version="2" timestamp="2012-06-23T23:17:24Z" uid="7523" user="inas" changeset="11994456">
    <nd ref="251794036"/>
    <nd ref="603080332"/>
    <nd ref="251796452"/>
    <nd ref="251796453"/>
    <nd ref="251796454"/>
    <nd ref="251796455"/>
    <tag k="highway" v="residential"/>
    <tag k="maxspeed" v="50"/>
    <tag k="maxspeed:source" v="default residential speed limit in Australia"/>
    <tag k="name" v="Cardella Crescent"/>
    <tag k="source:name" v="survey"/>
  </way>
  <way id="111315571" version="3" timestamp="2012-07-20T08:37:04Z" uid="722137" user="OSMF Redaction Account" changeset="12368532"/>
  <way id="111315572" version="2" timestamp="2012-07-20T08:38:53Z" uid="722137" user="OSMF Redaction Account" changeset="12368619"/>
  <way id="111315573" version="2" timestamp="2012-04-10T23:22:32Z" uid="20949" user="Ebenezer" changeset="11259382"/>
  <way id="111315575" version="3" timestamp="2012-04-10T23:25:34Z" uid="20949" user="Ebenezer" changeset="11259382"/>
  <way id="111315576" version="2" timestamp="2012-07-20T08:38:42Z" uid="722137" user="OSMF Redaction Account" changeset="12368586"/>
  <way id="111315577" version="2" timestamp="2012-07-20T08:38:52Z" uid="722137" user="OSMF Redaction Account" changeset="12368619"/>
  <way id="111315578" version="2" timestamp="2012-04-10T23:22:32Z" uid="20949" user="Ebenezer" changeset="11259382"/>
  <way id="111315579" version="2" timestamp="2012-07-20T08:38:37Z" uid="722137" user="OSMF Redaction Account" changeset="12368586"/>
  <way id="111315580" version="3" timestamp="2012-07-20T08:28:39Z" uid="722137" user="OSMF Redaction Account" changeset="12368329">
    <nd ref="1691043730"/>
    <nd ref="1691043662"/>
    <nd ref="1691043720"/>
  </way>
  <way id="111315580" version="4" timestamp="2012-08-01T15:50:42Z" uid="510836" user="Rub21" changeset="12575897">
    <nd ref="1691043730"/>
    <nd ref="1691043662"/>
    <nd ref="1691043720"/>
    <tag k="highway" v="residential"/>
  </way>
  <way id="111315582" version="3" timestamp="2012-04-10T23:25:32Z" uid="20949" user="Ebenezer" changeset="11259382">
    <nd ref="639650397"/>
    <nd ref="1710752439"/>
    <nd ref="1710752437"/>
    <tag k="highway" v="primary"/>
    <tag k="maxspeed" v="60"/>
    <tag k="name" v="Hume Highway"/>
    <tag k="oneway" v="yes"/>
    <tag k="ref" v="SH31"/>
    <tag k="restriction" v="school_zone"/>
  </way>
  <way id="111315582" version="4" timestamp="2012-07-20T08:28:32Z" uid="722137" user="OSMF Redaction Account" changeset="12368329">
    <nd ref="1710752439"/>
    <nd ref="1710752437"/>
    <tag k="ref" v="SH31"/>
  </way>
  <way id="111315582" version="5" timestamp="2012-07-21T03:30:57Z" uid="47167" user="MCH" changeset="12399330"/>
  <way id="111315584" version="2" timestamp="2012-04-10T23:22:32Z" uid="20949" user="Ebenezer" changeset="11259382"/>
</osm>
