<?xml version='1.0' encoding='UTF-8'?>
<osm version="0.6" generator="libosmium/2.20.0">
  <way id="111504414" version="1" timestamp="2011-05-02T12:31:23Z" uid="74617" user="JohnSmith" changeset="8030210">
    <nd ref="426841280"/>
    <nd ref="426841278"/>
    <nd ref="1080489905"/>
    <nd ref="426841275"/>
    <nd ref="1080489926"/>
    <nd ref="1080489911"/>
    <nd ref="1080489933"/>
    <tag k="highway" v="residential"/>
    <tag k="maxspeed" v="50"/>
    <tag k="maxspeed:source" v="default residential speed limit in Australia"/>
    <tag k="name" v="Thompson Avenue"/>
    <tag k="source" v="survey"/>
  </way>
  <way id="111504414" version="2" timestamp="2012-01-17T12:12:31Z" uid="67896" user="mrpulley" changeset="10417019">
    <nd ref="426841280"/>
    <nd ref="426841278"/>
    <nd ref="1080489905"/>
    <nd ref="426841275"/>
    <nd ref="1080489926"/>
    <nd ref="1080489911"/>
    <nd ref="1080489933"/>
    <tag k="highway" v="residential"/>
    <tag k="maxspeed" v="50"/>
    <tag k="maxspeed:source" v="default residential speed limit in Australia"/>
    <tag k="name" v="Thompsons Avenue"/>
    <tag k="source" v="survey"/>
  </way>
  <way id="111504414" version="3" timestamp="2012-07-17T14:20:07Z" uid="67896" user="mrpulley" changeset="12267290">
    <nd ref="1828625436"/>
    <nd ref="1828625458"/>
    <nd ref="1828625438"/>
    <nd ref="1828625441"/>
    <nd ref="1828625446"/>
    <nd ref="1828625457"/>
    <nd ref="1828625444"/>
    <tag k="highway" v="residential"/>
    <tag k="maxspeed" v="50"/>
    <tag k="name" v="Thompsons Avenue"/>
    <tag k="source" v="Bing"/>
  </way>
  <way id="111504414" version="4" timestamp="2012-07-19T11:56:14Z" uid="722137" user="OSMF Redaction Account" changeset="12323256">
    <nd ref="1828625436"/>
    <nd ref="1828625458"/>
    <nd ref="1828625438"/>
    <nd ref="1828625441"/>
    <nd ref="1828625446"/>
    <nd ref="1828625457"/>
    <nd ref="1828625444"/>
    <tag k="name" v="Thompsons Avenue"/>
    <tag k="source" v="Bing"/>
  </way>
  <way id="111504414" version="5" timestamp="2012-07-24T14:00:15Z" uid="67896" user="mrpulley" changeset="12467188">
    <nd ref="1828625436"/>
    <nd ref="1828625458"/>
    <nd ref="1828625438"/>
    <nd ref="1828625441"/>
    <nd ref="1828625446"/>
    <nd ref="1828625457"/>
    <nd ref="1828625444"/>
    <tag k="highway" v="residential"/>
    <tag k="name" v="Thompsons Avenue"/>
    <tag k="source" v="Bing"/>
  </way>
</osm>
