<?xml version='1.0' encoding='UTF-8'?>
<osm version="0.6" generator="libosmium/2.20.0">
  <way id="112432000" version="1" timestamp="2011-05-09T02:52:02Z" uid="4467" user="Rosscoe" changeset="8089228">
    <nd ref="615049293"/>
    <nd ref="615049295"/>
    <tag k="highway" v="residential"/>
    <tag k="maxspeed" v="50"/>
    <tag k="name" v="Plimsoll Drive"/>
    <tag k="oneway" v="yes"/>
    <tag k="source:maxspeed" v="default residential speed limit in Australia"/>
  </way>
  <way id="112432001" version="1" timestamp="2011-05-09T02:52:03Z" uid="4467" user="Rosscoe" changeset="8089228">
    <nd ref="614515022"/>
    <nd ref="614515023"/>
    <tag k="highway" v="tertiary"/>
    <tag k="name" v="Overall Avenue"/>
    <tag k="oneway" v="yes"/>
  </way>
  <way id="112432002" version="1" timestamp="2011-05-09T02:52:03Z" uid="4467" user="Rosscoe" changeset="8089228">
    <nd ref="89707251"/>
    <nd ref="89707252"/>
    <nd ref="257039054"/>
    <nd ref="89707254"/>
    <nd ref="157211317"/>
    <tag k="highway" v="primary"/>
    <tag k="name" v="Horse Park Drive"/>
  </way>
  <way id="112432003" version="1" timestamp="2011-05-09T02:52:03Z" uid="4467" user="Rosscoe" changeset="8089228">
    <nd ref="1277886469"/>
    <nd ref="153457246"/>
    <tag k="bridge_number" v="1211"/>
    <tag k="highway" v="tertiary"/>
    <tag k="name" v="Kelleway Avenue"/>
    <tag k="oneway" v="yes"/>
  </way>
  <way id="112432000" version="2" timestamp="2012-06-15T10:16:40Z" uid="72613" user="mark_rat" changeset="11903281">
    <nd ref="615049293"/>
    <nd ref="1788398795"/>
    <nd ref="615049295"/>
    <tag k="highway" v="residential"/>
    <tag k="maxspeed" v="50"/>
    <tag k="name" v="Plimsoll Drive"/>
    <tag k="oneway" v="yes"/>
    <tag k="source:maxspeed" v="default residential speed limit in Australia"/>
  </way>
  <way id="112432000" version="3" timestamp="2012-07-19T09:52:02Z" uid="722137" user="OSMF Redaction Account" changeset="12316959"/>
  <way id="112432001" version="2" timestamp="2012-07-19T09:52:02Z" uid="722137" user="OSMF Redaction Account" changeset="12316959"/>
  <way id="112432002" version="2" timestamp="2012-07-19T09:52:01Z" uid="722137" user="OSMF Redaction Account" changeset="12316959"/>
  <way id="112432003" version="2" timestamp="2012-07-19T09:52:01Z" uid="722137" user="OSMF Redaction Account" changeset="12316959"/>
</osm>
