<?xml version='1.0' encoding='UTF-8'?>
<osm version="0.6" generator="libosmium/2.20.0">
  <way id="112507300" version="1" timestamp="2011-05-09T20:00:25Z" uid="33382" user="de_muur" changeset="8096345">
    <nd ref="104410169"/>
    <nd ref="30088721"/>
    <nd ref="30088720"/>
    <nd ref="266293890"/>
    <nd ref="1278556684"/>
    <nd ref="30088718"/>
    <nd ref="1278556685"/>
    <nd ref="30088717"/>
    <nd ref="30088716"/>
    <nd ref="1253049338"/>
    <tag k="cycleway" v="track"/>
    <tag k="highway" v="secondary"/>
    <tag k="maxspeed" v="50"/>
    <tag k="name" v="Landesstraße"/>
    <tag k="ref" v="L 122"/>
    <tag k="surface" v="paved"/>
  </way>
  <way id="112507300" version="2" timestamp="2012-02-13T21:19:24Z" uid="45882" user="smarties" changeset="10677730"/>
  <way id="112507303" version="1" timestamp="2011-05-09T20:00:25Z" uid="33382" user="de_muur" changeset="8096345">
    <nd ref="104410170"/>
    <nd ref="254989863"/>
    <tag k="highway" v="residential"/>
    <tag k="maxspeed" v="30"/>
    <tag k="name" v="Hanstedter Straße"/>
    <tag k="surface" v="paved"/>
  </way>
  <way id="112507305" version="1" timestamp="2011-05-09T20:00:25Z" uid="33382" user="de_muur" changeset="8096345">
    <nd ref="1253049338"/>
    <nd ref="30088715"/>
    <nd ref="30088714"/>
    <nd ref="30088713"/>
    <tag k="highway" v="secondary"/>
    <tag k="name" v="Landesstraße"/>
    <tag k="ref" v="L 122"/>
    <tag k="surface" v="paved"/>
  </way>
  <way id="112507305" version="2" timestamp="2011-05-10T18:10:01Z" uid="33382" user="de_muur" changeset="8104883">
    <nd ref="1253049338"/>
    <nd ref="30088715"/>
    <nd ref="30088714"/>
    <nd ref="30088713"/>
    <tag k="cycleway" v="track"/>
    <tag k="highway" v="secondary"/>
    <tag k="name" v="Landesstraße"/>
    <tag k="ref" v="L 122"/>
    <tag k="surface" v="paved"/>
  </way>
  <way id="112507305" version="3" timestamp="2012-02-13T21:18:27Z" uid="45882" user="smarties" changeset="10677730">
    <nd ref="1631850718"/>
    <nd ref="30088715"/>
    <nd ref="30088714"/>
    <nd ref="30088713"/>
    <tag k="cycleway" v="track"/>
    <tag k="highway" v="secondary"/>
    <tag k="name" v="Landesstraße"/>
    <tag k="ref" v="L 122"/>
    <tag k="surface" v="paved"/>
  </way>
  <way id="112507305" version="4" timestamp="2012-03-03T00:11:04Z" uid="45882" user="smarties" changeset="10853720"/>
  <way id="112507303" version="2" timestamp="2012-04-12T10:55:46Z" uid="81732" user="zahilb" changeset="11274988">
    <nd ref="104410170"/>
    <nd ref="1712552478"/>
    <nd ref="254989863"/>
    <tag k="highway" v="residential"/>
    <tag k="maxspeed" v="30"/>
    <tag k="name" v="Hanstedter Straße"/>
    <tag k="surface" v="paved"/>
  </way>
  <way id="112507303" version="3" timestamp="2012-07-19T02:03:27Z" uid="722137" user="OSMF Redaction Account" changeset="12304672"/>
</osm>
