<?xml version='1.0' encoding='UTF-8'?>
<osm version="0.6" generator="libosmium/2.20.0">
  <way id="11266303" version="4" timestamp="2008-07-04T08:25:54Z" uid="6975" user="ulfl" changeset="389415">
    <nd ref="155329"/>
    <nd ref="152246"/>
    <nd ref="183313980"/>
    <nd ref="152235"/>
    <nd ref="152236"/>
    <nd ref="183313929"/>
    <nd ref="152237"/>
    <tag k="cycleway" v="opposite_lane"/>
    <tag k="highway" v="primary"/>
    <tag k="lcn_ref" v="6"/>
    <tag k="name" v="St Pancras Way"/>
    <tag k="oneway" v="yes"/>
    <tag k="ref" v="A5202"/>
  </way>
  <way id="11266303" version="5" timestamp="2009-07-07T09:32:15Z" uid="72963" user="dtr20" changeset="1760699">
    <nd ref="155329"/>
    <nd ref="152246"/>
    <nd ref="183313980"/>
    <tag k="cycleway" v="opposite_lane"/>
    <tag k="highway" v="primary"/>
    <tag k="lcn_ref" v="6"/>
    <tag k="maxheight" v="4.6"/>
    <tag k="name" v="St Pancras Way"/>
    <tag k="oneway" v="yes"/>
    <tag k="ref" v="A5202"/>
  </way>
  <way id="11266303" version="6" timestamp="2009-11-28T18:03:55Z" uid="22285" user="Jean Dollimore" changeset="3238580"/>
</osm>
