<?xml version='1.0' encoding='UTF-8'?>
<osm version="0.6" generator="libosmium/2.20.0">
  <way id="11284143" version="2" timestamp="2007-12-15T23:12:55Z" uid="4667" user="MapZ" changeset="327963">
    <nd ref="33777624"/>
    <nd ref="33777625"/>
    <nd ref="33777627"/>
    <nd ref="33777628"/>
    <nd ref="171820750"/>
    <nd ref="33777629"/>
    <nd ref="33777630"/>
    <nd ref="33777637"/>
    <tag k="created_by" v="JOSM"/>
    <tag k="highway" v="secondary"/>
    <tag k="oneway" v="true"/>
    <tag k="ref" v="B43"/>
  </way>
  <way id="11284143" version="3" timestamp="2008-03-05T13:23:40Z" uid="16514" user="jaybe" changeset="271786">
    <nd ref="33777624"/>
    <nd ref="33777625"/>
    <nd ref="33777627"/>
    <tag k="created_by" v="JOSM"/>
    <tag k="highway" v="secondary"/>
    <tag k="oneway" v="true"/>
    <tag k="ref" v="B43"/>
  </way>
  <way id="11284143" version="4" timestamp="2008-06-22T11:48:22Z" uid="24920" user="Schusch" changeset="258812">
    <nd ref="33777624"/>
    <nd ref="33777625"/>
    <nd ref="33777627"/>
    <tag k="created_by" v="Potlatch 0.9c"/>
    <tag k="highway" v="secondary"/>
    <tag k="oneway" v="true"/>
    <tag k="ref" v="B 43"/>
  </way>
  <way id="11284143" version="5" timestamp="2008-07-02T13:34:45Z" uid="11008" user="spacer1971" changeset="366930">
    <nd ref="33777624"/>
    <nd ref="33777625"/>
    <nd ref="33777627"/>
    <tag k="created_by" v="Potlatch 0.9c"/>
    <tag k="highway" v="primary"/>
    <tag k="oneway" v="true"/>
    <tag k="ref" v="B 43"/>
  </way>
  <way id="11284143" version="6" timestamp="2008-07-07T09:17:05Z" uid="31470" user="Tom63452" changeset="417302">
    <nd ref="33777624"/>
    <nd ref="33777625"/>
    <nd ref="276878244"/>
    <nd ref="33777627"/>
    <tag k="created_by" v="Potlatch 0.9c"/>
    <tag k="highway" v="primary"/>
    <tag k="oneway" v="true"/>
    <tag k="ref" v="B 43"/>
  </way>
  <way id="11284143" version="7" timestamp="2008-12-29T14:47:39Z" uid="36745" user="Gluko" changeset="663226">
    <nd ref="33777624"/>
    <nd ref="33777625"/>
    <nd ref="276878244"/>
    <nd ref="33777627"/>
    <tag k="created_by" v="Potlatch 0.10f"/>
    <tag k="highway" v="primary"/>
    <tag k="oneway" v="yes"/>
    <tag k="ref" v="B 43"/>
  </way>
  <way id="11284143" version="8" timestamp="2011-05-22T13:30:44Z" uid="212553" user="ARWIE" changeset="8216279">
    <nd ref="33777624"/>
    <nd ref="1296135079"/>
    <nd ref="33777625"/>
    <nd ref="1296134828"/>
    <nd ref="1296134746"/>
    <nd ref="276878244"/>
    <nd ref="1296134705"/>
    <nd ref="33777627"/>
    <tag k="highway" v="primary"/>
    <tag k="oneway" v="yes"/>
    <tag k="ref" v="B 43"/>
  </way>
  <way id="11284143" version="9" timestamp="2012-07-19T04:07:43Z" uid="722137" user="OSMF Redaction Account" changeset="12307663">
    <nd ref="33777624"/>
    <nd ref="1296135079"/>
    <nd ref="1296134828"/>
    <nd ref="1296134746"/>
    <nd ref="276878244"/>
    <nd ref="1296134705"/>
    <nd ref="33777627"/>
    <tag k="highway" v="primary"/>
    <tag k="oneway" v="yes"/>
    <tag k="ref" v="B 43"/>
  </way>
</osm>
