<?xml version='1.0' encoding='UTF-8'?>
<osm version="0.6" generator="libosmium/2.20.0">
  <way id="11346170" version="3" timestamp="2008-07-10T21:01:54Z" uid="6975" user="ulfl" changeset="457552">
    <nd ref="100926239"/>
    <nd ref="277101602"/>
    <nd ref="100926245"/>
    <nd ref="277101595"/>
    <nd ref="100926251"/>
    <nd ref="100926257"/>
    <nd ref="100926262"/>
    <nd ref="100926239"/>
    <tag k="note" v="Kraftwerk Weisweiler"/>
    <tag k="power" v="generator"/>
    <tag k="power_source" v="fossil"/>
  </way>
  <way id="11346170" version="4" timestamp="2008-09-01T14:32:47Z" uid="48890" user="langerweher" changeset="491782">
    <nd ref="100926239"/>
    <nd ref="277101602"/>
    <nd ref="100926245"/>
    <nd ref="277101595"/>
    <nd ref="100926251"/>
    <nd ref="100926257"/>
    <nd ref="100926262"/>
    <nd ref="100926239"/>
    <tag k="created_by" v="Potlatch 0.10b"/>
    <tag k="note" v="Kraftwerk Weisweiler"/>
    <tag k="operator" v="RWE"/>
    <tag k="power" v="generator"/>
    <tag k="power_source" v="fossil"/>
  </way>
  <way id="11346170" version="5" timestamp="2009-02-18T21:12:26Z" uid="28378" user="PHerison" changeset="540766">
    <nd ref="100926239"/>
    <nd ref="277101602"/>
    <nd ref="100926245"/>
    <nd ref="277101595"/>
    <nd ref="100926251"/>
    <nd ref="100926257"/>
    <nd ref="100926262"/>
    <nd ref="100926239"/>
    <tag k="created_by" v="Potlatch 0.10b"/>
    <tag k="name" v="Kraftwerk Weisweiler"/>
    <tag k="operator" v="RWE"/>
    <tag k="power" v="generator"/>
    <tag k="power_source" v="fossil"/>
  </way>
  <way id="11346170" version="6" timestamp="2009-02-23T09:47:04Z" uid="38553" user="egon" changeset="628762">
    <nd ref="100926239"/>
    <nd ref="277101602"/>
    <nd ref="100926245"/>
    <nd ref="277101595"/>
    <nd ref="100926251"/>
    <nd ref="100926257"/>
    <nd ref="100926262"/>
    <nd ref="100926239"/>
    <tag k="created_by" v="Potlatch 0.10b"/>
    <tag k="name" v="Kraftwerk Weisweiler"/>
    <tag k="operator" v="RWE"/>
    <tag k="power" v="generator"/>
    <tag k="power_source" v="coal"/>
  </way>
  <way id="11346170" version="7" timestamp="2009-02-23T09:48:15Z" uid="38553" user="egon" changeset="628762">
    <nd ref="100926239"/>
    <nd ref="277101602"/>
    <nd ref="100926245"/>
    <nd ref="277101595"/>
    <nd ref="100926251"/>
    <nd ref="100926257"/>
    <nd ref="100926262"/>
    <nd ref="100926239"/>
    <tag k="created_by" v="Potlatch 0.10b"/>
    <tag k="name" v="Kraftwerk Weisweiler"/>
    <tag k="operator" v="RWE"/>
    <tag k="power" v="generator"/>
    <tag k="power_source" v="fossil"/>
  </way>
  <way id="11346170" version="8" timestamp="2009-02-23T10:25:04Z" uid="38553" user="egon" changeset="628762">
    <nd ref="349914497"/>
    <nd ref="277101602"/>
    <nd ref="100926245"/>
    <nd ref="277101595"/>
    <nd ref="100926251"/>
    <nd ref="100926257"/>
    <nd ref="100926262"/>
    <nd ref="349914496"/>
    <nd ref="349914497"/>
    <tag k="created_by" v="Potlatch 0.10b"/>
    <tag k="name" v="Kraftwerk Weisweiler"/>
    <tag k="operator" v="RWE"/>
    <tag k="power" v="generator"/>
    <tag k="power_source" v="fossil"/>
  </way>
  <way id="11346170" version="9" timestamp="2009-02-23T10:55:17Z" uid="38553" user="egon" changeset="628762">
    <nd ref="349914497"/>
    <nd ref="277101602"/>
    <nd ref="100926245"/>
    <nd ref="277101595"/>
    <nd ref="100926251"/>
    <nd ref="100926257"/>
    <nd ref="100926262"/>
    <nd ref="349914496"/>
    <nd ref="349914497"/>
    <tag k="name" v="Kraftwerk Weisweiler"/>
    <tag k="operator" v="RWE"/>
    <tag k="power" v="generator"/>
    <tag k="power_source" v="coal"/>
  </way>
  <way id="11346170" version="10" timestamp="2009-02-23T11:16:18Z" uid="38553" user="egon" changeset="628762">
    <nd ref="349914497"/>
    <nd ref="277101602"/>
    <nd ref="100926245"/>
    <nd ref="277101595"/>
    <nd ref="100926251"/>
    <nd ref="100926257"/>
    <nd ref="100926262"/>
    <nd ref="349914496"/>
    <nd ref="349914497"/>
    <tag k="landuse" v="industrial"/>
    <tag k="name" v="Kraftwerk Weisweiler"/>
    <tag k="operator" v="RWE"/>
    <tag k="power" v="generator"/>
    <tag k="power_source" v="coal"/>
  </way>
  <way id="11346170" version="11" timestamp="2009-04-28T00:10:05Z" uid="92274" user="adjuva" changeset="998474">
    <nd ref="349914497"/>
    <nd ref="277101602"/>
    <nd ref="100926245"/>
    <nd ref="277101595"/>
    <nd ref="100926251"/>
    <nd ref="100926257"/>
    <nd ref="100926262"/>
    <nd ref="349914496"/>
    <nd ref="349914497"/>
    <tag k="landuse" v="industrial"/>
    <tag k="name" v="RWE Kraftwerk Weisweiler"/>
    <tag k="operator" v="RWE"/>
    <tag k="power" v="generator"/>
    <tag k="power_output" v="2097 MW"/>
    <tag k="power_source" v="coal"/>
  </way>
  <way id="11346170" version="12" timestamp="2010-06-22T04:51:07Z" uid="92274" user="adjuva" changeset="5048215">
    <nd ref="349914497"/>
    <nd ref="277101602"/>
    <nd ref="100926245"/>
    <nd ref="277101595"/>
    <nd ref="100926251"/>
    <nd ref="100926257"/>
    <nd ref="100926262"/>
    <nd ref="349914496"/>
    <nd ref="349914497"/>
    <tag k="landuse" v="industrial"/>
    <tag k="name" v="RWE Kraftwerk Weisweiler"/>
    <tag k="operator" v="RWE"/>
    <tag k="power" v="generator"/>
    <tag k="power_rating" v="2097 MW"/>
    <tag k="power_source" v="coal"/>
  </way>
  <way id="11346170" version="13" timestamp="2011-06-03T22:25:47Z" uid="297482" user="don-vip" changeset="8334738">
    <nd ref="349914497"/>
    <nd ref="277101602"/>
    <nd ref="100926245"/>
    <nd ref="277101595"/>
    <nd ref="100926251"/>
    <nd ref="100926257"/>
    <nd ref="100926262"/>
    <nd ref="349914496"/>
    <nd ref="349914497"/>
    <tag k="generator:source" v="coal"/>
    <tag k="landuse" v="industrial"/>
    <tag k="name" v="RWE Kraftwerk Weisweiler"/>
    <tag k="operator" v="RWE"/>
    <tag k="power" v="generator"/>
    <tag k="power_rating" v="2097 MW"/>
  </way>
  <way id="11346432" version="9" timestamp="2010-02-14T17:13:59Z" uid="74617" user="JohnSmith" changeset="3875836">
    <nd ref="26336380"/>
    <nd ref="152467452"/>
    <nd ref="152472612"/>
    <nd ref="100927640"/>
    <nd ref="100927654"/>
    <nd ref="100927668"/>
    <nd ref="152474175"/>
    <nd ref="100927685"/>
    <nd ref="152474177"/>
    <nd ref="21616784"/>
    <tag k="highway" v="primary"/>
    <tag k="name" v="McLachlan Street"/>
  </way>
  <way id="11346432" version="10" timestamp="2010-06-14T14:32:37Z" uid="114230" user="danerikk" changeset="4988437">
    <nd ref="26336380"/>
    <nd ref="152467452"/>
    <nd ref="152472612"/>
    <nd ref="100927640"/>
    <nd ref="100927654"/>
    <nd ref="772651511"/>
    <nd ref="100927668"/>
    <nd ref="772651513"/>
    <nd ref="152474175"/>
    <nd ref="772651515"/>
    <nd ref="100927685"/>
    <nd ref="772651517"/>
    <nd ref="772651518"/>
    <nd ref="772651519"/>
    <nd ref="152474177"/>
    <nd ref="21616784"/>
    <tag k="highway" v="primary"/>
    <tag k="name" v="McLachlan Street"/>
  </way>
  <way id="11346432" version="11" timestamp="2010-06-14T14:33:11Z" uid="114230" user="danerikk" changeset="4988437">
    <nd ref="26336380"/>
    <nd ref="152467452"/>
    <nd ref="772651959"/>
    <nd ref="152472612"/>
    <nd ref="772651960"/>
    <nd ref="100927640"/>
    <nd ref="772651962"/>
    <nd ref="772651963"/>
    <nd ref="100927654"/>
    <nd ref="772651511"/>
    <nd ref="100927668"/>
    <nd ref="772651513"/>
    <nd ref="152474175"/>
    <nd ref="772651515"/>
    <nd ref="100927685"/>
    <nd ref="772651517"/>
    <nd ref="772651518"/>
    <nd ref="772651519"/>
    <nd ref="152474177"/>
    <nd ref="21616784"/>
    <tag k="highway" v="primary"/>
    <tag k="name" v="McLachlan Street"/>
  </way>
  <way id="11346432" version="12" timestamp="2010-06-14T14:35:47Z" uid="114230" user="danerikk" changeset="4988437">
    <nd ref="26336380"/>
    <nd ref="772652607"/>
    <nd ref="152467452"/>
    <nd ref="772651959"/>
    <nd ref="152472612"/>
    <nd ref="772651960"/>
    <nd ref="100927640"/>
    <nd ref="772651962"/>
    <nd ref="772651963"/>
    <nd ref="100927654"/>
    <nd ref="772651511"/>
    <nd ref="100927668"/>
    <nd ref="772651513"/>
    <nd ref="152474175"/>
    <nd ref="772651515"/>
    <nd ref="100927685"/>
    <nd ref="772651517"/>
    <nd ref="772651518"/>
    <nd ref="772651519"/>
    <nd ref="152474177"/>
    <nd ref="21616784"/>
    <tag k="highway" v="primary"/>
    <tag k="name" v="McLachlan Street"/>
    <tag k="oneway" v="yes"/>
  </way>
  <way id="11346434" version="5" timestamp="2010-02-14T17:15:53Z" uid="74617" user="JohnSmith" changeset="3875836">
    <nd ref="100927698"/>
    <nd ref="100927714"/>
    <nd ref="152477717"/>
    <nd ref="100927729"/>
    <nd ref="100927741"/>
    <nd ref="100927751"/>
    <nd ref="100927756"/>
    <nd ref="152448705"/>
    <nd ref="152448706"/>
    <nd ref="100927767"/>
    <nd ref="26336365"/>
    <tag k="highway" v="secondary"/>
    <tag k="name" v="Ivory Street Tunnel"/>
    <tag k="oneway" v="yes"/>
  </way>
  <way id="11346434" version="6" timestamp="2010-06-14T16:22:46Z" uid="114230" user="danerikk" changeset="4989300">
    <nd ref="100927698"/>
    <nd ref="100927714"/>
    <nd ref="772790015"/>
    <nd ref="772790016"/>
    <nd ref="772790017"/>
    <nd ref="772790018"/>
    <nd ref="152477717"/>
    <nd ref="772790019"/>
    <nd ref="772790020"/>
    <nd ref="772790021"/>
    <nd ref="100927729"/>
    <nd ref="100927741"/>
    <nd ref="100927751"/>
    <nd ref="772790023"/>
    <nd ref="772790025"/>
    <nd ref="100927756"/>
    <nd ref="772790026"/>
    <nd ref="772790028"/>
    <nd ref="152448705"/>
    <nd ref="772790030"/>
    <nd ref="152448706"/>
    <nd ref="100927767"/>
    <nd ref="26336365"/>
    <tag k="highway" v="secondary"/>
    <tag k="name" v="Ivory Street Tunnel"/>
    <tag k="oneway" v="yes"/>
  </way>
  <way id="11346434" version="7" timestamp="2010-06-14T16:29:24Z" uid="114230" user="danerikk" changeset="4989300">
    <nd ref="100927698"/>
    <nd ref="100927714"/>
    <nd ref="772790015"/>
    <nd ref="772790016"/>
    <nd ref="772790017"/>
    <nd ref="772790018"/>
    <nd ref="152477717"/>
    <nd ref="772790019"/>
    <nd ref="772790020"/>
    <nd ref="772790021"/>
    <nd ref="100927729"/>
    <nd ref="100927741"/>
    <nd ref="100927751"/>
    <nd ref="772790023"/>
    <nd ref="772790025"/>
    <nd ref="100927756"/>
    <nd ref="772790026"/>
    <nd ref="772790028"/>
    <nd ref="152448705"/>
    <nd ref="772790030"/>
    <nd ref="152448706"/>
    <nd ref="772792913"/>
    <nd ref="772792914"/>
    <nd ref="100927767"/>
    <nd ref="26336365"/>
    <tag k="highway" v="secondary"/>
    <tag k="name" v="Ivory Street Tunnel"/>
    <tag k="oneway" v="yes"/>
  </way>
  <way id="11346436" version="3" timestamp="2010-02-14T17:13:58Z" uid="74617" user="JohnSmith" changeset="3875836">
    <nd ref="100927784"/>
    <nd ref="26335180"/>
    <tag k="bridge" v="yes"/>
    <tag k="highway" v="primary"/>
    <tag k="layer" v="1"/>
    <tag k="name" v="Kemp Place"/>
    <tag k="oneway" v="yes"/>
    <tag k="ref" v="S15"/>
  </way>
  <way id="11346436" version="4" timestamp="2010-03-20T16:39:28Z" uid="74617" user="JohnSmith" changeset="4181787">
    <nd ref="100927784"/>
    <nd ref="26335180"/>
    <tag k="bridge" v="yes"/>
    <tag k="highway" v="primary"/>
    <tag k="layer" v="1"/>
    <tag k="name" v="Kemp Place"/>
    <tag k="oneway" v="yes"/>
  </way>
  <way id="11346438" version="3" timestamp="2010-02-14T17:15:32Z" uid="74617" user="JohnSmith" changeset="3875836">
    <nd ref="26335180"/>
    <nd ref="26335181"/>
    <nd ref="21478137"/>
    <tag k="highway" v="primary"/>
    <tag k="name" v="Kemp Place"/>
    <tag k="oneway" v="yes"/>
    <tag k="ref" v="S15"/>
  </way>
  <way id="11346438" version="4" timestamp="2010-03-20T16:39:29Z" uid="74617" user="JohnSmith" changeset="4181787">
    <nd ref="26335180"/>
    <nd ref="26335181"/>
    <nd ref="21478137"/>
    <tag k="highway" v="primary"/>
    <tag k="name" v="Kemp Place"/>
    <tag k="oneway" v="yes"/>
  </way>
  <way id="11346438" version="5" timestamp="2010-06-14T14:33:29Z" uid="114230" user="danerikk" changeset="4988437">
    <nd ref="26335180"/>
    <nd ref="772652012"/>
    <nd ref="26335181"/>
    <nd ref="772652013"/>
    <nd ref="772652015"/>
    <nd ref="772652016"/>
    <nd ref="21478137"/>
    <tag k="highway" v="primary"/>
    <tag k="name" v="Kemp Place"/>
    <tag k="oneway" v="yes"/>
  </way>
  <way id="11346439" version="3" timestamp="2010-02-14T17:13:59Z" uid="74617" user="JohnSmith" changeset="3875836">
    <nd ref="26336367"/>
    <nd ref="100927802"/>
    <tag k="highway" v="residential"/>
    <tag k="maxspeed" v="50"/>
    <tag k="name" v="Harrison Lane"/>
  </way>
  <way id="11346439" version="4" timestamp="2011-12-06T10:26:54Z" uid="313448" user="ConsEbt" changeset="10048688">
    <nd ref="26336367"/>
    <nd ref="1533890362"/>
    <nd ref="100927802"/>
    <tag k="highway" v="residential"/>
    <tag k="maxspeed" v="50"/>
    <tag k="name" v="Harrison Lane"/>
  </way>
  <way id="11346439" version="5" timestamp="2012-01-15T10:43:08Z" uid="147510" user="woodpeck_fixbot" changeset="10396281">
    <nd ref="26336367"/>
    <nd ref="1533890362"/>
    <nd ref="100927802"/>
    <tag k="highway" v="residential"/>
    <tag k="name" v="Harrison Lane"/>
  </way>
  <way id="11346443" version="4" timestamp="2010-02-14T17:02:51Z" uid="74617" user="JohnSmith" changeset="3875836">
    <nd ref="26336386"/>
    <nd ref="100927993"/>
    <nd ref="100928009"/>
    <nd ref="100928024"/>
    <nd ref="100928045"/>
    <nd ref="499943491"/>
    <nd ref="100928063"/>
    <nd ref="100928077"/>
    <nd ref="100928095"/>
    <nd ref="21592072"/>
    <tag k="highway" v="residential"/>
    <tag k="maxspeed" v="50"/>
    <tag k="name" v="Moray Street"/>
  </way>
  <way id="11346443" version="5" timestamp="2010-05-25T11:15:54Z" uid="103574" user="Fairfield" changeset="4802617">
    <nd ref="26336386"/>
    <nd ref="747773437"/>
    <nd ref="100927993"/>
    <nd ref="747773438"/>
    <nd ref="747773440"/>
    <nd ref="747773441"/>
    <nd ref="100928009"/>
    <nd ref="747773442"/>
    <nd ref="100928024"/>
    <nd ref="100928045"/>
    <nd ref="499943491"/>
    <nd ref="100928063"/>
    <nd ref="100928077"/>
    <nd ref="100928095"/>
    <nd ref="21592072"/>
    <tag k="highway" v="residential"/>
    <tag k="maxspeed" v="50"/>
    <tag k="name" v="Moray Street"/>
  </way>
  <way id="11346443" version="6" timestamp="2010-05-25T11:16:31Z" uid="103574" user="Fairfield" changeset="4802617">
    <nd ref="26336386"/>
    <nd ref="747773437"/>
    <nd ref="100927993"/>
    <nd ref="747773438"/>
    <nd ref="747773440"/>
    <nd ref="747773441"/>
    <nd ref="100928009"/>
    <nd ref="747773442"/>
    <nd ref="100928024"/>
    <nd ref="100928045"/>
    <nd ref="747773583"/>
    <nd ref="747773584"/>
    <nd ref="499943491"/>
    <nd ref="100928063"/>
    <nd ref="100928077"/>
    <nd ref="100928095"/>
    <nd ref="21592072"/>
    <tag k="highway" v="residential"/>
    <tag k="maxspeed" v="50"/>
    <tag k="name" v="Moray Street"/>
  </way>
  <way id="11346443" version="7" timestamp="2010-05-25T11:16:57Z" uid="103574" user="Fairfield" changeset="4802617">
    <nd ref="26336386"/>
    <nd ref="747773437"/>
    <nd ref="100927993"/>
    <nd ref="747773438"/>
    <nd ref="747773440"/>
    <nd ref="747773441"/>
    <nd ref="100928009"/>
    <nd ref="747773442"/>
    <nd ref="100928024"/>
    <nd ref="100928045"/>
    <nd ref="747773583"/>
    <nd ref="747773584"/>
    <nd ref="499943491"/>
    <nd ref="100928063"/>
    <nd ref="100928077"/>
    <nd ref="747773683"/>
    <nd ref="100928095"/>
    <nd ref="21592072"/>
    <tag k="highway" v="residential"/>
    <tag k="maxspeed" v="50"/>
    <tag k="name" v="Moray Street"/>
  </way>
  <way id="11346443" version="8" timestamp="2010-08-21T02:45:31Z" uid="128470" user="vkungys" changeset="5548721">
    <nd ref="26336386"/>
    <nd ref="747773437"/>
    <nd ref="100927993"/>
    <nd ref="747773438"/>
    <nd ref="747773440"/>
    <nd ref="747773441"/>
    <nd ref="100928009"/>
    <nd ref="747773442"/>
    <nd ref="100928024"/>
    <nd ref="100928045"/>
    <tag k="highway" v="residential"/>
    <tag k="maxspeed" v="50"/>
    <tag k="name" v="Moray Street"/>
  </way>
  <way id="11346443" version="9" timestamp="2012-01-15T10:43:09Z" uid="147510" user="woodpeck_fixbot" changeset="10396281">
    <nd ref="26336386"/>
    <nd ref="747773437"/>
    <nd ref="100927993"/>
    <nd ref="747773438"/>
    <nd ref="747773440"/>
    <nd ref="747773441"/>
    <nd ref="100928009"/>
    <nd ref="747773442"/>
    <nd ref="100928024"/>
    <nd ref="100928045"/>
    <tag k="highway" v="residential"/>
    <tag k="name" v="Moray Street"/>
  </way>
  <way id="11346449" version="5" timestamp="2010-02-14T17:16:58Z" uid="74617" user="JohnSmith" changeset="3875836">
    <nd ref="26336320"/>
    <nd ref="26336317"/>
    <nd ref="100927821"/>
    <tag k="highway" v="tertiary"/>
    <tag k="name" v="Annie Street"/>
  </way>
  <way id="11346450" version="5" timestamp="2010-02-14T17:02:52Z" uid="74617" user="JohnSmith" changeset="3875836">
    <nd ref="100927858"/>
    <nd ref="100928202"/>
    <nd ref="303299369"/>
    <nd ref="499943083"/>
    <nd ref="100928077"/>
    <tag k="highway" v="residential"/>
    <tag k="maxspeed" v="50"/>
    <tag k="name" v="Langshaw Street"/>
  </way>
  <way id="11346450" version="6" timestamp="2012-01-15T10:43:11Z" uid="147510" user="woodpeck_fixbot" changeset="10396281">
    <nd ref="100927858"/>
    <nd ref="100928202"/>
    <nd ref="303299369"/>
    <nd ref="499943083"/>
    <nd ref="100928077"/>
    <tag k="highway" v="residential"/>
    <tag k="name" v="Langshaw Street"/>
  </way>
  <way id="11346452" version="3" timestamp="2010-02-14T17:13:10Z" uid="74617" user="JohnSmith" changeset="3875836">
    <nd ref="100928063"/>
    <nd ref="100928335"/>
    <tag k="highway" v="residential"/>
    <tag k="maxspeed" v="50"/>
    <tag k="name" v="Julius Street"/>
  </way>
  <way id="11346452" version="4" timestamp="2010-05-25T11:16:38Z" uid="103574" user="Fairfield" changeset="4802617">
    <nd ref="100928063"/>
    <nd ref="747773619"/>
    <nd ref="100928335"/>
    <tag k="highway" v="residential"/>
    <tag k="maxspeed" v="50"/>
    <tag k="name" v="Julius Street"/>
  </way>
  <way id="11346452" version="5" timestamp="2012-01-15T10:43:12Z" uid="147510" user="woodpeck_fixbot" changeset="10396281">
    <nd ref="100928063"/>
    <nd ref="747773619"/>
    <nd ref="100928335"/>
    <tag k="highway" v="residential"/>
    <tag k="name" v="Julius Street"/>
  </way>
  <way id="11346453" version="3" timestamp="2010-02-14T17:13:08Z" uid="74617" user="JohnSmith" changeset="3875836">
    <nd ref="100928095"/>
    <nd ref="100928394"/>
    <nd ref="100928352"/>
    <nd ref="100928369"/>
    <nd ref="100928218"/>
    <nd ref="100929041"/>
    <nd ref="100927887"/>
    <tag k="highway" v="residential"/>
    <tag k="maxspeed" v="50"/>
    <tag k="name" v="Moreton Street"/>
  </way>
  <way id="11346453" version="4" timestamp="2012-01-15T10:43:13Z" uid="147510" user="woodpeck_fixbot" changeset="10396281">
    <nd ref="100928095"/>
    <nd ref="100928394"/>
    <nd ref="100928352"/>
    <nd ref="100928369"/>
    <nd ref="100928218"/>
    <nd ref="100929041"/>
    <nd ref="100927887"/>
    <tag k="highway" v="residential"/>
    <tag k="name" v="Moreton Street"/>
  </way>
  <way id="11346455" version="4" timestamp="2010-02-14T17:13:03Z" uid="74617" user="JohnSmith" changeset="3875836">
    <nd ref="100928352"/>
    <nd ref="100928385"/>
    <nd ref="100928982"/>
    <nd ref="100929155"/>
    <tag k="highway" v="residential"/>
    <tag k="maxspeed" v="50"/>
    <tag k="name" v="Abbott Street"/>
  </way>
  <way id="11346455" version="5" timestamp="2010-04-19T13:01:22Z" uid="4467" user="Rosscoe" changeset="4467619">
    <nd ref="100928352"/>
    <nd ref="100928385"/>
    <nd ref="701842155"/>
    <tag k="highway" v="residential"/>
    <tag k="maxspeed" v="50"/>
    <tag k="name" v="Abbott Street"/>
  </way>
  <way id="11346455" version="6" timestamp="2012-01-15T10:43:14Z" uid="147510" user="woodpeck_fixbot" changeset="10396281">
    <nd ref="100928352"/>
    <nd ref="100928385"/>
    <nd ref="701842155"/>
    <tag k="highway" v="residential"/>
    <tag k="name" v="Abbott Street"/>
  </way>
  <way id="11346457" version="3" timestamp="2010-02-14T17:13:10Z" uid="74617" user="JohnSmith" changeset="3875836">
    <nd ref="100928394"/>
    <nd ref="100928429"/>
    <nd ref="100928410"/>
    <tag k="highway" v="residential"/>
    <tag k="maxspeed" v="50"/>
    <tag k="name" v="Samuel Street"/>
  </way>
  <way id="11346457" version="4" timestamp="2012-01-15T10:43:16Z" uid="147510" user="woodpeck_fixbot" changeset="10396281">
    <nd ref="100928394"/>
    <nd ref="100928429"/>
    <nd ref="100928410"/>
    <tag k="highway" v="residential"/>
    <tag k="name" v="Samuel Street"/>
  </way>
  <way id="11346461" version="3" timestamp="2010-02-14T17:13:08Z" uid="74617" user="JohnSmith" changeset="3875836">
    <nd ref="100928369"/>
    <nd ref="100928451"/>
    <nd ref="100928470"/>
    <tag k="highway" v="residential"/>
    <tag k="maxspeed" v="50"/>
    <tag k="name" v="Watson Street"/>
  </way>
  <way id="11346461" version="4" timestamp="2012-01-15T10:43:18Z" uid="147510" user="woodpeck_fixbot" changeset="10396281">
    <nd ref="100928369"/>
    <nd ref="100928451"/>
    <nd ref="100928470"/>
    <tag k="highway" v="residential"/>
    <tag k="name" v="Watson Street"/>
  </way>
  <way id="11346463" version="3" timestamp="2010-02-14T17:13:10Z" uid="74617" user="JohnSmith" changeset="3875836">
    <nd ref="100928451"/>
    <nd ref="100928237"/>
    <tag k="highway" v="residential"/>
    <tag k="maxspeed" v="50"/>
    <tag k="name" v="Amity Street"/>
  </way>
  <way id="11346463" version="4" timestamp="2012-01-15T10:43:19Z" uid="147510" user="woodpeck_fixbot" changeset="10396281">
    <nd ref="100928451"/>
    <nd ref="100928237"/>
    <tag k="highway" v="residential"/>
    <tag k="name" v="Amity Street"/>
  </way>
  <way id="11346469" version="4" timestamp="2010-02-14T17:13:03Z" uid="74617" user="JohnSmith" changeset="3875836">
    <nd ref="100928140"/>
    <nd ref="100928147"/>
    <nd ref="561073472"/>
    <nd ref="100928164"/>
    <tag k="highway" v="residential"/>
    <tag k="maxspeed" v="50"/>
    <tag k="name" v="Moray Street"/>
  </way>
  <way id="11346469" version="5" timestamp="2010-08-21T02:45:34Z" uid="128470" user="vkungys" changeset="5548721">
    <nd ref="100928140"/>
    <nd ref="100928147"/>
    <nd ref="561073472"/>
    <nd ref="100928164"/>
    <tag k="cycleway" v="lane"/>
    <tag k="highway" v="residential"/>
    <tag k="maxspeed" v="50"/>
    <tag k="name" v="Moray Street"/>
  </way>
  <way id="11346469" version="6" timestamp="2012-01-15T10:43:21Z" uid="147510" user="woodpeck_fixbot" changeset="10396281">
    <nd ref="100928140"/>
    <nd ref="100928147"/>
    <nd ref="561073472"/>
    <nd ref="100928164"/>
    <tag k="cycleway" v="lane"/>
    <tag k="highway" v="residential"/>
    <tag k="name" v="Moray Street"/>
  </way>
  <way id="11346471" version="4" timestamp="2010-02-14T17:13:10Z" uid="74617" user="JohnSmith" changeset="3875836">
    <nd ref="100928520"/>
    <nd ref="100928699"/>
    <tag k="highway" v="residential"/>
    <tag k="maxspeed" v="50"/>
    <tag k="name" v="Maxwell Street"/>
  </way>
  <way id="11346471" version="5" timestamp="2010-05-25T11:18:30Z" uid="103574" user="Fairfield" changeset="4802617">
    <nd ref="100928520"/>
    <nd ref="747773833"/>
    <nd ref="100928699"/>
    <tag k="highway" v="residential"/>
    <tag k="maxspeed" v="50"/>
    <tag k="name" v="Maxwell Street"/>
  </way>
  <way id="11346471" version="6" timestamp="2012-01-15T10:43:23Z" uid="147510" user="woodpeck_fixbot" changeset="10396281">
    <nd ref="100928520"/>
    <nd ref="747773833"/>
    <nd ref="100928699"/>
    <tag k="highway" v="residential"/>
    <tag k="name" v="Maxwell Street"/>
  </way>
  <way id="11346473" version="6" timestamp="2010-02-14T17:13:07Z" uid="74617" user="JohnSmith" changeset="3875836">
    <nd ref="100928545"/>
    <nd ref="100928708"/>
    <nd ref="100928720"/>
    <tag k="cycleway" v="lane"/>
    <tag k="highway" v="residential"/>
    <tag k="lcn" v="yes"/>
    <tag k="maxspeed" v="50"/>
    <tag k="name" v="Riverview Court"/>
  </way>
  <way id="11346473" version="7" timestamp="2012-01-15T10:43:24Z" uid="147510" user="woodpeck_fixbot" changeset="10396281">
    <nd ref="100928545"/>
    <nd ref="100928708"/>
    <nd ref="100928720"/>
    <tag k="cycleway" v="lane"/>
    <tag k="highway" v="residential"/>
    <tag k="lcn" v="yes"/>
    <tag k="name" v="Riverview Court"/>
  </way>
  <way id="11346475" version="4" timestamp="2010-02-14T17:13:03Z" uid="74617" user="JohnSmith" changeset="3875836">
    <nd ref="100928507"/>
    <nd ref="100928733"/>
    <nd ref="100928748"/>
    <nd ref="561073481"/>
    <nd ref="100928763"/>
    <tag k="highway" v="residential"/>
    <tag k="maxspeed" v="50"/>
    <tag k="name" v="Llewellyn Street"/>
  </way>
  <way id="11346475" version="5" timestamp="2012-01-15T10:43:26Z" uid="147510" user="woodpeck_fixbot" changeset="10396281">
    <nd ref="100928507"/>
    <nd ref="100928733"/>
    <nd ref="100928748"/>
    <nd ref="561073481"/>
    <nd ref="100928763"/>
    <tag k="highway" v="residential"/>
    <tag k="name" v="Llewellyn Street"/>
  </way>
  <way id="11346477" version="6" timestamp="2010-04-19T13:01:22Z" uid="4467" user="Rosscoe" changeset="4467619">
    <nd ref="100929015"/>
    <nd ref="130087563"/>
    <nd ref="100928288"/>
    <nd ref="100928997"/>
    <nd ref="701842154"/>
    <tag k="cycleway" v="lane"/>
    <tag k="highway" v="tertiary"/>
    <tag k="name" v="Sydney Street"/>
  </way>
  <way id="11346479" version="3" timestamp="2010-02-14T17:13:06Z" uid="74617" user="JohnSmith" changeset="3875836">
    <nd ref="100928805"/>
    <nd ref="100928841"/>
    <nd ref="100928864"/>
    <tag k="highway" v="residential"/>
    <tag k="maxspeed" v="50"/>
    <tag k="name" v="Hazelwood Street"/>
    <tag k="oneway" v="yes"/>
  </way>
  <way id="11346479" version="4" timestamp="2012-01-15T10:43:26Z" uid="147510" user="woodpeck_fixbot" changeset="10396281">
    <nd ref="100928805"/>
    <nd ref="100928841"/>
    <nd ref="100928864"/>
    <tag k="highway" v="residential"/>
    <tag k="name" v="Hazelwood Street"/>
    <tag k="oneway" v="yes"/>
  </way>
  <way id="11346481" version="4" timestamp="2010-02-14T17:13:06Z" uid="74617" user="JohnSmith" changeset="3875836">
    <nd ref="100928864"/>
    <nd ref="100928886"/>
    <nd ref="100928906"/>
    <tag k="highway" v="residential"/>
    <tag k="maxspeed" v="50"/>
    <tag k="name" v="Hazelwood Street"/>
    <tag k="oneway" v="yes"/>
  </way>
  <way id="11346481" version="5" timestamp="2012-01-15T10:43:29Z" uid="147510" user="woodpeck_fixbot" changeset="10396281">
    <nd ref="100928864"/>
    <nd ref="100928886"/>
    <nd ref="100928906"/>
    <tag k="highway" v="residential"/>
    <tag k="name" v="Hazelwood Street"/>
    <tag k="oneway" v="yes"/>
  </way>
  <way id="11346484" version="3" timestamp="2010-02-14T17:13:06Z" uid="74617" user="JohnSmith" changeset="3875836">
    <nd ref="100928864"/>
    <nd ref="100928610"/>
    <tag k="highway" v="residential"/>
    <tag k="maxspeed" v="50"/>
    <tag k="name" v="Hazelwood Street"/>
  </way>
  <way id="11346484" version="4" timestamp="2012-01-15T10:43:30Z" uid="147510" user="woodpeck_fixbot" changeset="10396281">
    <nd ref="100928864"/>
    <nd ref="100928610"/>
    <tag k="highway" v="residential"/>
    <tag k="name" v="Hazelwood Street"/>
  </way>
  <way id="11346487" version="4" timestamp="2010-02-14T17:13:06Z" uid="74617" user="JohnSmith" changeset="3875836">
    <nd ref="100928781"/>
    <nd ref="100928921"/>
    <nd ref="100928640"/>
    <tag k="highway" v="residential"/>
    <tag k="maxspeed" v="50"/>
    <tag k="name" v="Sargent Street"/>
  </way>
  <way id="11346487" version="5" timestamp="2012-01-15T10:43:32Z" uid="147510" user="woodpeck_fixbot" changeset="10396281">
    <nd ref="100928781"/>
    <nd ref="100928921"/>
    <nd ref="100928640"/>
    <tag k="highway" v="residential"/>
    <tag k="name" v="Sargent Street"/>
  </way>
  <way id="11346488" version="4" timestamp="2010-02-14T17:13:04Z" uid="74617" user="JohnSmith" changeset="3875836">
    <nd ref="100928921"/>
    <nd ref="100928961"/>
    <nd ref="100929199"/>
    <nd ref="100928164"/>
    <nd ref="100929181"/>
    <nd ref="100929155"/>
    <nd ref="100929108"/>
    <tag k="highway" v="residential"/>
    <tag k="maxspeed" v="50"/>
    <tag k="name" v="Mountford Road"/>
  </way>
  <way id="11346488" version="5" timestamp="2012-01-15T10:43:33Z" uid="147510" user="woodpeck_fixbot" changeset="10396281">
    <nd ref="100928921"/>
    <nd ref="100928961"/>
    <nd ref="100929199"/>
    <nd ref="100928164"/>
    <nd ref="100929181"/>
    <nd ref="100929155"/>
    <nd ref="100929108"/>
    <tag k="highway" v="residential"/>
    <tag k="name" v="Mountford Road"/>
  </way>
  <way id="11346493" version="2" timestamp="2010-02-14T17:13:09Z" uid="74617" user="JohnSmith" changeset="3875836">
    <nd ref="100927922"/>
    <nd ref="100927938"/>
    <nd ref="100927954"/>
    <nd ref="100929015"/>
    <nd ref="100927922"/>
    <tag k="highway" v="secondary"/>
    <tag k="junction" v="roundabout"/>
    <tag k="name" v="Brunswick Street"/>
  </way>
  <way id="11346496" version="3" timestamp="2010-02-14T17:13:09Z" uid="74617" user="JohnSmith" changeset="3875836">
    <nd ref="100929041"/>
    <nd ref="100929065"/>
    <tag k="highway" v="residential"/>
    <tag k="maxspeed" v="50"/>
    <tag k="name" v="Hazel Street"/>
  </way>
  <way id="11346496" version="4" timestamp="2012-01-15T10:43:34Z" uid="147510" user="woodpeck_fixbot" changeset="10396281">
    <nd ref="100929041"/>
    <nd ref="100929065"/>
    <tag k="highway" v="residential"/>
    <tag k="name" v="Hazel Street"/>
  </way>
  <way id="11346498" version="3" timestamp="2010-02-14T17:13:04Z" uid="74617" user="JohnSmith" changeset="3875836">
    <nd ref="100929089"/>
    <nd ref="100928997"/>
    <nd ref="100929108"/>
    <nd ref="100929134"/>
    <tag k="highway" v="residential"/>
    <tag k="maxspeed" v="50"/>
    <tag k="name" v="Mark Street"/>
  </way>
  <way id="11346498" version="4" timestamp="2012-01-15T10:43:35Z" uid="147510" user="woodpeck_fixbot" changeset="10396281">
    <nd ref="100929089"/>
    <nd ref="100928997"/>
    <nd ref="100929108"/>
    <nd ref="100929134"/>
    <tag k="highway" v="residential"/>
    <tag k="name" v="Mark Street"/>
  </way>
  <way id="11346501" version="5" timestamp="2010-02-14T17:13:08Z" uid="74617" user="JohnSmith" changeset="3875836">
    <nd ref="100929181"/>
    <nd ref="561073442"/>
    <nd ref="616891816"/>
    <nd ref="100928667"/>
    <tag k="highway" v="residential"/>
    <tag k="maxspeed" v="50"/>
    <tag k="name" v="Turner Avenue"/>
    <tag k="sidewalk" v="both"/>
  </way>
  <way id="11346501" version="6" timestamp="2012-01-15T10:43:36Z" uid="147510" user="woodpeck_fixbot" changeset="10396281">
    <nd ref="100929181"/>
    <nd ref="561073442"/>
    <nd ref="616891816"/>
    <nd ref="100928667"/>
    <tag k="highway" v="residential"/>
    <tag k="name" v="Turner Avenue"/>
    <tag k="sidewalk" v="both"/>
  </way>
  <way id="11346507" version="2" timestamp="2010-02-14T17:13:07Z" uid="74617" user="JohnSmith" changeset="3875836">
    <nd ref="77666293"/>
    <nd ref="100929688"/>
    <tag k="man_made" v="pier"/>
  </way>
  <way id="11346507" version="3" timestamp="2010-02-17T00:11:27Z" uid="14505" user="David Dean" changeset="3897570">
    <nd ref="77666293"/>
    <nd ref="100929688"/>
    <tag k="highway" v="footway"/>
    <tag k="man_made" v="pier"/>
  </way>
  <way id="11346509" version="4" timestamp="2010-02-14T17:09:34Z" uid="74617" user="JohnSmith" changeset="3875836">
    <nd ref="77666292"/>
    <nd ref="77666293"/>
    <tag k="route" v="ferry"/>
  </way>
  <way id="11346455" version="7" timestamp="2012-07-20T03:36:24Z" uid="722137" user="OSMF Redaction Account" changeset="12359497">
    <nd ref="100928352"/>
    <nd ref="100928385"/>
    <tag k="highway" v="residential"/>
    <tag k="name" v="Abbott Street"/>
  </way>
  <way id="11346477" version="7" timestamp="2012-07-20T03:36:24Z" uid="722137" user="OSMF Redaction Account" changeset="12359497">
    <nd ref="100929015"/>
    <nd ref="130087563"/>
    <nd ref="100928288"/>
    <nd ref="100928997"/>
    <tag k="cycleway" v="lane"/>
    <tag k="highway" v="tertiary"/>
    <tag k="name" v="Sydney Street"/>
  </way>
</osm>
