<?xml version='1.0' encoding='UTF-8'?>
<osm version="0.6" generator="libosmium/2.20.0">
  <way id="11368286" version="12" timestamp="2008-12-18T17:46:43Z" uid="58091" user="Andreas M" changeset="457257">
    <nd ref="60632104"/>
    <nd ref="291622080"/>
    <nd ref="317486369"/>
    <nd ref="287712846"/>
    <nd ref="60739330"/>
    <tag k="created_by" v="Potlatch 0.6b"/>
    <tag k="highway" v="tertiary"/>
    <tag k="name" v="Gregor-Mendel-Straße"/>
  </way>
  <way id="11368286" version="13" timestamp="2010-04-02T06:26:27Z" uid="119945" user="rafta2009" changeset="4300523">
    <nd ref="60632104"/>
    <nd ref="681220731"/>
    <nd ref="291622080"/>
    <nd ref="317486369"/>
    <nd ref="287712846"/>
    <nd ref="60739330"/>
    <tag k="highway" v="tertiary"/>
    <tag k="name" v="Gregor-Mendel-Straße"/>
  </way>
  <way id="11368286" version="14" timestamp="2010-04-25T17:42:06Z" uid="58091" user="Andreas M" changeset="4524227">
    <nd ref="60632104"/>
    <nd ref="291622080"/>
    <nd ref="317486369"/>
    <nd ref="287712846"/>
    <nd ref="60739330"/>
    <tag k="highway" v="tertiary"/>
    <tag k="name" v="Gregor-Mendel-Straße"/>
  </way>
  <way id="11368286" version="15" timestamp="2010-11-14T11:56:44Z" uid="370727" user="unnic" changeset="6365925">
    <nd ref="60632104"/>
    <nd ref="291622080"/>
    <nd ref="317486369"/>
    <nd ref="287712846"/>
    <nd ref="60739330"/>
    <tag k="highway" v="tertiary"/>
    <tag k="maxspeed" v="50"/>
    <tag k="name" v="Gregor-Mendel-Straße"/>
  </way>
  <way id="11368286" version="16" timestamp="2011-10-08T01:28:36Z" uid="229590" user="xificurk" changeset="9498852">
    <nd ref="60632104"/>
    <nd ref="291622080"/>
    <nd ref="317486369"/>
    <nd ref="287712846"/>
    <nd ref="60739330"/>
    <tag k="admin_level" v="9"/>
    <tag k="boundary" v="administrative"/>
    <tag k="highway" v="tertiary"/>
    <tag k="maxspeed" v="50"/>
    <tag k="name" v="Gregor-Mendel-Straße"/>
  </way>
  <way id="11368966" version="2" timestamp="2007-12-10T20:59:50Z" uid="8328" user="benpre" changeset="239465">
    <nd ref="136225"/>
    <nd ref="136227"/>
    <tag k="created_by" v="Potlatch 0.4c"/>
    <tag k="highway" v="primary"/>
    <tag k="name" v="Avenue Général Champon"/>
  </way>
  <way id="11368966" version="3" timestamp="2008-04-06T17:57:00Z" uid="22431" user="rogerdupondt" changeset="67788"/>
  <way id="11368286" version="17" timestamp="2012-04-14T17:17:50Z" uid="129531" user="almich" changeset="11301332">
    <nd ref="60632104"/>
    <nd ref="1716460245"/>
    <nd ref="291622080"/>
    <nd ref="317486369"/>
    <nd ref="287712846"/>
    <nd ref="60739330"/>
    <tag k="admin_level" v="9"/>
    <tag k="boundary" v="administrative"/>
    <tag k="highway" v="tertiary"/>
    <tag k="maxspeed" v="50"/>
    <tag k="name" v="Gregor-Mendel-Straße"/>
  </way>
</osm>
