<?xml version='1.0' encoding='UTF-8'?>
<osm version="0.6" generator="libosmium/2.20.0">
  <way id="11374822" version="8" timestamp="2008-12-18T17:46:44Z" uid="58091" user="Andreas M" changeset="457257">
    <nd ref="393659"/>
    <nd ref="312070112"/>
    <nd ref="287712845"/>
    <nd ref="60740464"/>
    <nd ref="60739358"/>
    <tag k="created_by" v="Potlatch 0.10d"/>
    <tag k="highway" v="secondary"/>
    <tag k="name" v="Peter-Jordan-Straße"/>
  </way>
  <way id="11374822" version="9" timestamp="2009-01-15T16:11:31Z" uid="43577" user="dorni74" changeset="792355">
    <nd ref="393659"/>
    <nd ref="312070112"/>
    <nd ref="287712845"/>
    <nd ref="60740464"/>
    <nd ref="60739358"/>
    <tag k="created_by" v="Potlatch 0.10f"/>
    <tag k="highway" v="secondary"/>
    <tag k="name" v="Peter-Jordan-Straße"/>
  </way>
  <way id="11374822" version="10" timestamp="2009-01-19T21:32:35Z" uid="43577" user="dorni74" changeset="812585">
    <nd ref="393659"/>
    <nd ref="312070112"/>
    <nd ref="287712845"/>
    <nd ref="60740464"/>
    <tag k="created_by" v="Potlatch 0.10f"/>
    <tag k="highway" v="secondary"/>
    <tag k="name" v="Peter-Jordan-Straße"/>
  </way>
  <way id="11374822" version="11" timestamp="2010-01-18T17:17:13Z" uid="78656" user="Walter Schlögl" changeset="3651852">
    <nd ref="393659"/>
    <nd ref="312070112"/>
    <nd ref="287712845"/>
    <nd ref="60740464"/>
    <tag k="highway" v="secondary"/>
    <tag k="maxspeed" v="50"/>
    <tag k="name" v="Peter-Jordan-Straße"/>
  </way>
  <way id="11374822" version="12" timestamp="2011-10-08T01:26:41Z" uid="229590" user="xificurk" changeset="9498852">
    <nd ref="393659"/>
    <nd ref="312070112"/>
    <nd ref="287712845"/>
    <nd ref="60740464"/>
    <tag k="admin_level" v="9"/>
    <tag k="boundary" v="administrative"/>
    <tag k="highway" v="secondary"/>
    <tag k="maxspeed" v="50"/>
    <tag k="name" v="Peter-Jordan-Straße"/>
  </way>
</osm>
