<?xml version='1.0' encoding='UTF-8'?>
<osm version="0.6" generator="libosmium/2.20.0">
  <way id="11382261" version="6" timestamp="2009-01-03T13:35:13Z" uid="58091" user="Andreas M" changeset="721411">
    <nd ref="60424766"/>
    <nd ref="93434005"/>
    <tag k="created_by" v="Potlatch 0.4c"/>
    <tag k="highway" v="unclassified"/>
    <tag k="name" v="Eckpergasse"/>
    <tag k="oneway" v="yes"/>
    <tag k="railway" v="tram"/>
  </way>
  <way id="11382261" version="7" timestamp="2009-12-25T12:30:13Z" uid="78656" user="Walter Schlögl" changeset="3447753">
    <nd ref="60424766"/>
    <nd ref="93434005"/>
    <tag k="highway" v="residential"/>
    <tag k="name" v="Eckpergasse"/>
    <tag k="oneway" v="yes"/>
    <tag k="railway" v="tram"/>
  </way>
  <way id="11382261" version="8" timestamp="2010-04-18T19:59:17Z" uid="129531" user="almich" changeset="4462273">
    <nd ref="60424766"/>
    <nd ref="93434005"/>
    <tag k="gauge" v="1435"/>
    <tag k="highway" v="residential"/>
    <tag k="name" v="Eckpergasse"/>
    <tag k="oneway" v="yes"/>
    <tag k="railway" v="tram"/>
  </way>
  <way id="11382261" version="9" timestamp="2010-04-18T20:24:17Z" uid="129531" user="almich" changeset="4462598">
    <nd ref="60424766"/>
    <nd ref="93434005"/>
    <tag k="electrified" v="contact_line"/>
    <tag k="frequency" v="0"/>
    <tag k="gauge" v="1435"/>
    <tag k="highway" v="residential"/>
    <tag k="name" v="Eckpergasse"/>
    <tag k="oneway" v="yes"/>
    <tag k="railway" v="tram"/>
  </way>
  <way id="11382261" version="10" timestamp="2010-09-04T07:52:10Z" uid="129531" user="almich" changeset="5676288">
    <nd ref="60424766"/>
    <nd ref="93434005"/>
    <tag k="electrified" v="contact_line"/>
    <tag k="frequency" v="0"/>
    <tag k="gauge" v="1435"/>
    <tag k="highway" v="residential"/>
    <tag k="name" v="Eckpergasse"/>
    <tag k="oneway" v="yes"/>
    <tag k="railway" v="tram"/>
    <tag k="tracks" v="1"/>
  </way>
  <way id="11382261" version="11" timestamp="2011-11-07T23:59:03Z" uid="129531" user="almich" changeset="9770029">
    <nd ref="60424766"/>
    <nd ref="93434005"/>
    <tag k="electrified" v="contact_line"/>
    <tag k="frequency" v="0"/>
    <tag k="gauge" v="1435"/>
    <tag k="highway" v="residential"/>
    <tag k="name" v="Eckpergasse"/>
    <tag k="oneway" v="yes"/>
    <tag k="railway" v="tram"/>
    <tag k="tracks" v="1"/>
    <tag k="voltage" v="600"/>
  </way>
  <way id="11382261" version="12" timestamp="2011-11-30T21:48:42Z" uid="104947" user="My Friend" changeset="10003627">
    <nd ref="1525360404"/>
    <nd ref="1525360367"/>
    <tag k="electrified" v="contact_line"/>
    <tag k="frequency" v="0"/>
    <tag k="gauge" v="1435"/>
    <tag k="highway" v="residential"/>
    <tag k="name" v="Eckpergasse"/>
    <tag k="oneway" v="yes"/>
    <tag k="railway" v="tram"/>
    <tag k="tracks" v="1"/>
    <tag k="voltage" v="600"/>
  </way>
  <way id="11382261" version="13" timestamp="2011-12-21T17:57:18Z" uid="28205" user="kelvan" changeset="10173860">
    <nd ref="1525360404"/>
    <nd ref="1557341052"/>
    <nd ref="1557341050"/>
    <nd ref="1525360367"/>
    <tag k="electrified" v="contact_line"/>
    <tag k="frequency" v="0"/>
    <tag k="gauge" v="1435"/>
    <tag k="highway" v="residential"/>
    <tag k="name" v="Eckpergasse"/>
    <tag k="oneway" v="yes"/>
    <tag k="railway" v="tram"/>
    <tag k="tracks" v="1"/>
    <tag k="voltage" v="600"/>
  </way>
  <way id="11382263" version="2" timestamp="2008-06-18T21:20:29Z" uid="27600" user="Islanit" changeset="213984">
    <nd ref="60424766"/>
    <nd ref="93434007"/>
    <nd ref="93434008"/>
    <nd ref="93434010"/>
    <nd ref="93434011"/>
    <nd ref="93434013"/>
    <nd ref="93434014"/>
    <nd ref="68915052"/>
    <tag k="created_by" v="Potlatch 0.4c"/>
    <tag k="highway" v="residential"/>
  </way>
  <way id="11382263" version="3" timestamp="2008-08-06T19:38:56Z" uid="28205" user="kelvan" changeset="107128">
    <nd ref="60424766"/>
    <nd ref="93434007"/>
    <nd ref="93434008"/>
    <nd ref="93434010"/>
    <nd ref="93434011"/>
    <nd ref="93434013"/>
    <nd ref="93434014"/>
    <nd ref="68915052"/>
    <tag k="created_by" v="Potlatch 0.4c"/>
    <tag k="highway" v="residential"/>
    <tag k="name" v="Eckpergasse"/>
  </way>
  <way id="11382263" version="4" timestamp="2008-08-06T19:41:20Z" uid="28205" user="kelvan" changeset="107128"/>
  <way id="11382344" version="4" timestamp="2009-01-03T13:35:09Z" uid="58091" user="Andreas M" changeset="721411">
    <nd ref="65004157"/>
    <nd ref="34978464"/>
    <tag k="highway" v="tertiary"/>
    <tag k="name" v="Wallrißstraße"/>
    <tag k="oneway" v="yes"/>
    <tag k="railway" v="tram"/>
  </way>
  <way id="11382344" version="5" timestamp="2009-01-03T20:19:42Z" uid="58091" user="Andreas M" changeset="725036">
    <nd ref="65004157"/>
    <nd ref="325214808"/>
    <nd ref="34978464"/>
    <tag k="highway" v="tertiary"/>
    <tag k="name" v="Wallrißstraße"/>
    <tag k="oneway" v="yes"/>
    <tag k="railway" v="tram"/>
  </way>
  <way id="11382344" version="6" timestamp="2010-04-18T19:59:20Z" uid="129531" user="almich" changeset="4462273">
    <nd ref="65004157"/>
    <nd ref="325214808"/>
    <nd ref="34978464"/>
    <tag k="gauge" v="1435"/>
    <tag k="highway" v="tertiary"/>
    <tag k="name" v="Wallrißstraße"/>
    <tag k="oneway" v="yes"/>
    <tag k="railway" v="tram"/>
  </way>
  <way id="11382344" version="7" timestamp="2010-04-18T20:24:19Z" uid="129531" user="almich" changeset="4462598">
    <nd ref="65004157"/>
    <nd ref="325214808"/>
    <nd ref="34978464"/>
    <tag k="electrified" v="contact_line"/>
    <tag k="frequency" v="0"/>
    <tag k="gauge" v="1435"/>
    <tag k="highway" v="tertiary"/>
    <tag k="name" v="Wallrißstraße"/>
    <tag k="oneway" v="yes"/>
    <tag k="railway" v="tram"/>
  </way>
  <way id="11382344" version="8" timestamp="2010-12-05T20:49:02Z" uid="129531" user="almich" changeset="6556547">
    <nd ref="65004157"/>
    <nd ref="325214808"/>
    <tag k="electrified" v="contact_line"/>
    <tag k="frequency" v="0"/>
    <tag k="gauge" v="1435"/>
    <tag k="highway" v="tertiary"/>
    <tag k="name" v="Wallrißstraße"/>
    <tag k="oneway" v="yes"/>
    <tag k="railway" v="tram"/>
  </way>
  <way id="11382344" version="9" timestamp="2011-11-08T00:01:33Z" uid="129531" user="almich" changeset="9770029">
    <nd ref="65004157"/>
    <nd ref="325214808"/>
    <tag k="electrified" v="contact_line"/>
    <tag k="frequency" v="0"/>
    <tag k="gauge" v="1435"/>
    <tag k="highway" v="tertiary"/>
    <tag k="name" v="Wallrißstraße"/>
    <tag k="oneway" v="yes"/>
    <tag k="railway" v="tram"/>
    <tag k="voltage" v="600"/>
  </way>
  <way id="11382344" version="10" timestamp="2012-02-12T20:42:17Z" uid="129531" user="almich" changeset="10667964">
    <nd ref="65004157"/>
    <nd ref="1630416868"/>
    <tag k="electrified" v="contact_line"/>
    <tag k="frequency" v="0"/>
    <tag k="gauge" v="1435"/>
    <tag k="highway" v="tertiary"/>
    <tag k="name" v="Wallrißstraße"/>
    <tag k="oneway" v="yes"/>
    <tag k="railway" v="tram"/>
    <tag k="voltage" v="600"/>
  </way>
  <way id="11382425" version="11" timestamp="2009-01-03T13:35:12Z" uid="58091" user="Andreas M" changeset="721411">
    <nd ref="93434005"/>
    <nd ref="61930589"/>
    <nd ref="325098799"/>
    <nd ref="34978472"/>
    <tag k="highway" v="tertiary"/>
    <tag k="maxspeed" v="50"/>
    <tag k="name" v="Herbeckstraße"/>
    <tag k="railway" v="tram"/>
    <tag k="surface" v="paved"/>
  </way>
  <way id="11382425" version="12" timestamp="2009-01-03T13:36:13Z" uid="58091" user="Andreas M" changeset="721411">
    <nd ref="93434005"/>
    <nd ref="61930589"/>
    <nd ref="252507819"/>
    <nd ref="34978472"/>
    <tag k="highway" v="tertiary"/>
    <tag k="maxspeed" v="50"/>
    <tag k="name" v="Herbeckstraße"/>
    <tag k="railway" v="tram"/>
    <tag k="surface" v="paved"/>
  </way>
  <way id="11382425" version="13" timestamp="2009-12-25T12:30:12Z" uid="78656" user="Walter Schlögl" changeset="3447753">
    <nd ref="93434005"/>
    <nd ref="61930589"/>
    <nd ref="252507819"/>
    <nd ref="34978472"/>
    <tag k="highway" v="residential"/>
    <tag k="maxspeed" v="50"/>
    <tag k="name" v="Herbeckstraße"/>
    <tag k="railway" v="tram"/>
    <tag k="surface" v="paved"/>
  </way>
  <way id="11382425" version="14" timestamp="2010-04-18T19:59:18Z" uid="129531" user="almich" changeset="4462273">
    <nd ref="93434005"/>
    <nd ref="61930589"/>
    <nd ref="252507819"/>
    <nd ref="34978472"/>
    <tag k="gauge" v="1435"/>
    <tag k="highway" v="residential"/>
    <tag k="maxspeed" v="50"/>
    <tag k="name" v="Herbeckstraße"/>
    <tag k="railway" v="tram"/>
    <tag k="surface" v="paved"/>
  </way>
  <way id="11382425" version="15" timestamp="2010-04-18T20:24:18Z" uid="129531" user="almich" changeset="4462598">
    <nd ref="93434005"/>
    <nd ref="61930589"/>
    <nd ref="252507819"/>
    <nd ref="34978472"/>
    <tag k="electrified" v="contact_line"/>
    <tag k="frequency" v="0"/>
    <tag k="gauge" v="1435"/>
    <tag k="highway" v="residential"/>
    <tag k="maxspeed" v="50"/>
    <tag k="name" v="Herbeckstraße"/>
    <tag k="railway" v="tram"/>
    <tag k="surface" v="paved"/>
  </way>
  <way id="11382425" version="16" timestamp="2010-09-04T07:52:04Z" uid="129531" user="almich" changeset="5676288">
    <nd ref="93434005"/>
    <nd ref="61930589"/>
    <nd ref="252507819"/>
    <nd ref="34978472"/>
    <tag k="electrified" v="contact_line"/>
    <tag k="frequency" v="0"/>
    <tag k="gauge" v="1435"/>
    <tag k="highway" v="residential"/>
    <tag k="maxspeed" v="50"/>
    <tag k="name" v="Herbeckstraße"/>
    <tag k="railway" v="tram"/>
    <tag k="surface" v="paved"/>
    <tag k="tracks" v="1"/>
  </way>
  <way id="11382425" version="17" timestamp="2011-11-08T00:00:14Z" uid="129531" user="almich" changeset="9770029">
    <nd ref="93434005"/>
    <nd ref="61930589"/>
    <nd ref="252507819"/>
    <nd ref="34978472"/>
    <tag k="electrified" v="contact_line"/>
    <tag k="frequency" v="0"/>
    <tag k="gauge" v="1435"/>
    <tag k="highway" v="residential"/>
    <tag k="maxspeed" v="50"/>
    <tag k="name" v="Herbeckstraße"/>
    <tag k="railway" v="tram"/>
    <tag k="surface" v="paved"/>
    <tag k="tracks" v="1"/>
    <tag k="voltage" v="600"/>
  </way>
  <way id="11382425" version="18" timestamp="2011-11-30T21:48:41Z" uid="104947" user="My Friend" changeset="10003627">
    <nd ref="1525360376"/>
    <nd ref="61930589"/>
    <nd ref="252507819"/>
    <nd ref="34978472"/>
    <tag k="electrified" v="contact_line"/>
    <tag k="frequency" v="0"/>
    <tag k="gauge" v="1435"/>
    <tag k="highway" v="residential"/>
    <tag k="maxspeed" v="50"/>
    <tag k="name" v="Herbeckstraße"/>
    <tag k="railway" v="tram"/>
    <tag k="surface" v="paved"/>
    <tag k="tracks" v="1"/>
    <tag k="voltage" v="600"/>
  </way>
  <way id="11382425" version="19" timestamp="2011-12-14T20:17:11Z" uid="129531" user="almich" changeset="10119077">
    <nd ref="1525360376"/>
    <nd ref="61930589"/>
    <nd ref="252507819"/>
    <tag k="electrified" v="contact_line"/>
    <tag k="frequency" v="0"/>
    <tag k="gauge" v="1435"/>
    <tag k="highway" v="residential"/>
    <tag k="maxspeed" v="50"/>
    <tag k="name" v="Herbeckstraße"/>
    <tag k="railway" v="tram"/>
    <tag k="surface" v="paved"/>
    <tag k="tracks" v="1"/>
    <tag k="voltage" v="600"/>
  </way>
  <way id="11382510" version="8" timestamp="2009-01-03T13:35:11Z" uid="58091" user="Andreas M" changeset="721411">
    <nd ref="93547348"/>
    <nd ref="61929838"/>
    <nd ref="61929839"/>
    <nd ref="68916904"/>
    <nd ref="294141129"/>
    <nd ref="285512722"/>
    <nd ref="61929841"/>
    <nd ref="61929842"/>
    <nd ref="294142166"/>
    <nd ref="61929843"/>
    <nd ref="61929845"/>
    <nd ref="285501891"/>
    <nd ref="61929846"/>
    <nd ref="285501964"/>
    <nd ref="303775409"/>
    <nd ref="61923785"/>
    <nd ref="60424767"/>
    <tag k="created_by" v="Potlatch 0.4c"/>
    <tag k="highway" v="tertiary"/>
    <tag k="name" v="Scheibenbergstraße"/>
  </way>
  <way id="11382510" version="9" timestamp="2009-11-30T22:15:27Z" uid="51552" user="kfg" changeset="3260301">
    <nd ref="93547348"/>
    <nd ref="61929838"/>
    <nd ref="61929839"/>
    <nd ref="68916904"/>
    <nd ref="294141129"/>
    <nd ref="285512722"/>
    <nd ref="61929841"/>
    <nd ref="61929842"/>
    <nd ref="294142166"/>
    <nd ref="61929843"/>
    <nd ref="61929845"/>
    <nd ref="285501891"/>
    <nd ref="61929846"/>
    <nd ref="285501964"/>
    <nd ref="303775409"/>
    <nd ref="61923785"/>
    <nd ref="60424767"/>
    <tag k="highway" v="tertiary"/>
    <tag k="name" v="Scheibenbergstraße"/>
  </way>
  <way id="11382510" version="10" timestamp="2011-10-15T16:57:36Z" uid="28205" user="kelvan" changeset="9565192">
    <nd ref="93547348"/>
    <nd ref="1468382164"/>
    <nd ref="61929838"/>
    <nd ref="61929839"/>
    <nd ref="68916904"/>
    <nd ref="294141129"/>
    <nd ref="285512722"/>
    <nd ref="61929841"/>
    <nd ref="61929842"/>
    <nd ref="294142166"/>
    <nd ref="61929843"/>
    <nd ref="61929845"/>
    <nd ref="285501891"/>
    <nd ref="61929846"/>
    <nd ref="285501964"/>
    <nd ref="303775409"/>
    <nd ref="61923785"/>
    <nd ref="60424767"/>
    <tag k="highway" v="tertiary"/>
    <tag k="name" v="Scheibenbergstraße"/>
  </way>
  <way id="11382510" version="11" timestamp="2011-11-30T21:48:42Z" uid="104947" user="My Friend" changeset="10003627">
    <nd ref="93547348"/>
    <nd ref="1468382164"/>
    <nd ref="61929838"/>
    <nd ref="61929839"/>
    <nd ref="68916904"/>
    <nd ref="294141129"/>
    <nd ref="285512722"/>
    <nd ref="61929841"/>
    <nd ref="61929842"/>
    <nd ref="294142166"/>
    <nd ref="61929843"/>
    <nd ref="61929845"/>
    <nd ref="285501891"/>
    <nd ref="61929846"/>
    <nd ref="285501964"/>
    <nd ref="303775409"/>
    <nd ref="61923785"/>
    <nd ref="60424767"/>
    <nd ref="1525360366"/>
    <tag k="highway" v="tertiary"/>
    <tag k="name" v="Scheibenbergstraße"/>
  </way>
  <way id="11382510" version="12" timestamp="2011-12-21T17:57:24Z" uid="28205" user="kelvan" changeset="10173860">
    <nd ref="93547348"/>
    <nd ref="1468382164"/>
    <nd ref="61929838"/>
    <nd ref="61929839"/>
    <nd ref="68916904"/>
    <nd ref="294141129"/>
    <nd ref="285512722"/>
    <nd ref="61929841"/>
    <nd ref="61929842"/>
    <nd ref="294142166"/>
    <nd ref="61929843"/>
    <nd ref="61929845"/>
    <nd ref="285501891"/>
    <nd ref="285501964"/>
    <nd ref="1557341086"/>
    <nd ref="303775409"/>
    <nd ref="61923785"/>
    <nd ref="60424767"/>
    <nd ref="1525360366"/>
    <tag k="highway" v="tertiary"/>
    <tag k="name" v="Scheibenbergstraße"/>
  </way>
  <way id="11382534" version="5" timestamp="2009-01-03T13:35:07Z" uid="58091" user="Andreas M" changeset="721411">
    <nd ref="65004156"/>
    <nd ref="65004157"/>
    <tag k="created_by" v="Potlatch 0.4c"/>
    <tag k="highway" v="residential"/>
    <tag k="name" v="Salierigasse"/>
    <tag k="oneway" v="yes"/>
    <tag k="railway" v="tram"/>
  </way>
  <way id="11382534" version="6" timestamp="2010-04-18T19:59:20Z" uid="129531" user="almich" changeset="4462273">
    <nd ref="65004156"/>
    <nd ref="65004157"/>
    <tag k="gauge" v="1435"/>
    <tag k="highway" v="residential"/>
    <tag k="name" v="Salierigasse"/>
    <tag k="oneway" v="yes"/>
    <tag k="railway" v="tram"/>
  </way>
  <way id="11382534" version="7" timestamp="2010-04-18T20:24:19Z" uid="129531" user="almich" changeset="4462598">
    <nd ref="65004156"/>
    <nd ref="65004157"/>
    <tag k="electrified" v="contact_line"/>
    <tag k="frequency" v="0"/>
    <tag k="gauge" v="1435"/>
    <tag k="highway" v="residential"/>
    <tag k="name" v="Salierigasse"/>
    <tag k="oneway" v="yes"/>
    <tag k="railway" v="tram"/>
  </way>
  <way id="11382534" version="8" timestamp="2010-09-04T07:52:15Z" uid="129531" user="almich" changeset="5676288">
    <nd ref="65004156"/>
    <nd ref="65004157"/>
    <tag k="electrified" v="contact_line"/>
    <tag k="frequency" v="0"/>
    <tag k="gauge" v="1435"/>
    <tag k="highway" v="residential"/>
    <tag k="name" v="Salierigasse"/>
    <tag k="oneway" v="yes"/>
    <tag k="railway" v="tram"/>
    <tag k="tracks" v="1"/>
  </way>
  <way id="11382534" version="9" timestamp="2011-11-08T00:00:51Z" uid="129531" user="almich" changeset="9770029">
    <nd ref="65004156"/>
    <nd ref="65004157"/>
    <tag k="electrified" v="contact_line"/>
    <tag k="frequency" v="0"/>
    <tag k="gauge" v="1435"/>
    <tag k="highway" v="residential"/>
    <tag k="name" v="Salierigasse"/>
    <tag k="oneway" v="yes"/>
    <tag k="railway" v="tram"/>
    <tag k="tracks" v="1"/>
    <tag k="voltage" v="600"/>
  </way>
  <way id="11382534" version="10" timestamp="2011-11-27T21:18:00Z" uid="104947" user="My Friend" changeset="9972170">
    <nd ref="65004156"/>
    <nd ref="1520265211"/>
    <tag k="electrified" v="contact_line"/>
    <tag k="frequency" v="0"/>
    <tag k="gauge" v="1435"/>
    <tag k="highway" v="residential"/>
    <tag k="name" v="Salierigasse"/>
    <tag k="oneway" v="yes"/>
    <tag k="railway" v="tram"/>
    <tag k="tracks" v="1"/>
    <tag k="voltage" v="600"/>
  </way>
  <way id="11382534" version="11" timestamp="2011-11-30T21:59:58Z" uid="104947" user="My Friend" changeset="10003726">
    <nd ref="1525368692"/>
    <nd ref="1520265211"/>
    <tag k="electrified" v="contact_line"/>
    <tag k="frequency" v="0"/>
    <tag k="gauge" v="1435"/>
    <tag k="highway" v="residential"/>
    <tag k="name" v="Salierigasse"/>
    <tag k="oneway" v="yes"/>
    <tag k="railway" v="tram"/>
    <tag k="tracks" v="1"/>
    <tag k="voltage" v="600"/>
  </way>
  <way id="11382727" version="17" timestamp="2009-01-03T13:23:54Z" uid="58091" user="Andreas M" changeset="721411">
    <nd ref="93547348"/>
    <nd ref="251207373"/>
    <nd ref="278842299"/>
    <nd ref="68916698"/>
    <nd ref="93547221"/>
    <nd ref="278842300"/>
    <nd ref="61927452"/>
    <nd ref="316266824"/>
    <nd ref="280364830"/>
    <tag k="created_by" v="Potlatch 0.10c"/>
    <tag k="footway" v="both"/>
    <tag k="highway" v="tertiary"/>
    <tag k="maxspeed" v="50"/>
    <tag k="name" v="Pötzleinsdorfer Straße"/>
    <tag k="railway" v="tram"/>
  </way>
  <way id="11382727" version="18" timestamp="2010-04-18T19:59:19Z" uid="129531" user="almich" changeset="4462273">
    <nd ref="93547348"/>
    <nd ref="251207373"/>
    <nd ref="278842299"/>
    <nd ref="68916698"/>
    <nd ref="93547221"/>
    <nd ref="278842300"/>
    <nd ref="61927452"/>
    <nd ref="316266824"/>
    <nd ref="280364830"/>
    <tag k="footway" v="both"/>
    <tag k="gauge" v="1435"/>
    <tag k="highway" v="tertiary"/>
    <tag k="maxspeed" v="50"/>
    <tag k="name" v="Pötzleinsdorfer Straße"/>
    <tag k="railway" v="tram"/>
  </way>
  <way id="11382727" version="19" timestamp="2010-04-18T20:24:18Z" uid="129531" user="almich" changeset="4462598">
    <nd ref="93547348"/>
    <nd ref="251207373"/>
    <nd ref="278842299"/>
    <nd ref="68916698"/>
    <nd ref="93547221"/>
    <nd ref="278842300"/>
    <nd ref="61927452"/>
    <nd ref="316266824"/>
    <nd ref="280364830"/>
    <tag k="electrified" v="contact_line"/>
    <tag k="footway" v="both"/>
    <tag k="frequency" v="0"/>
    <tag k="gauge" v="1435"/>
    <tag k="highway" v="tertiary"/>
    <tag k="maxspeed" v="50"/>
    <tag k="name" v="Pötzleinsdorfer Straße"/>
    <tag k="railway" v="tram"/>
  </way>
  <way id="11382727" version="20" timestamp="2011-10-15T16:57:35Z" uid="28205" user="kelvan" changeset="9565192">
    <nd ref="93547348"/>
    <nd ref="1468382165"/>
    <nd ref="251207373"/>
    <nd ref="278842299"/>
    <nd ref="68916698"/>
    <nd ref="93547221"/>
    <nd ref="278842300"/>
    <nd ref="61927452"/>
    <nd ref="316266824"/>
    <nd ref="280364830"/>
    <tag k="electrified" v="contact_line"/>
    <tag k="footway" v="both"/>
    <tag k="frequency" v="0"/>
    <tag k="gauge" v="1435"/>
    <tag k="highway" v="tertiary"/>
    <tag k="maxspeed" v="50"/>
    <tag k="name" v="Pötzleinsdorfer Straße"/>
    <tag k="railway" v="tram"/>
  </way>
  <way id="11382727" version="21" timestamp="2011-11-08T00:00:47Z" uid="129531" user="almich" changeset="9770029">
    <nd ref="93547348"/>
    <nd ref="1468382165"/>
    <nd ref="251207373"/>
    <nd ref="278842299"/>
    <nd ref="68916698"/>
    <nd ref="93547221"/>
    <nd ref="278842300"/>
    <nd ref="61927452"/>
    <nd ref="316266824"/>
    <nd ref="280364830"/>
    <tag k="electrified" v="contact_line"/>
    <tag k="footway" v="both"/>
    <tag k="frequency" v="0"/>
    <tag k="gauge" v="1435"/>
    <tag k="highway" v="tertiary"/>
    <tag k="maxspeed" v="50"/>
    <tag k="name" v="Pötzleinsdorfer Straße"/>
    <tag k="railway" v="tram"/>
    <tag k="voltage" v="600"/>
  </way>
  <way id="11382727" version="22" timestamp="2011-12-21T15:52:12Z" uid="28205" user="kelvan" changeset="10172805">
    <nd ref="93547348"/>
    <nd ref="1468382165"/>
    <nd ref="251207373"/>
    <nd ref="278842299"/>
    <nd ref="1557237860"/>
    <nd ref="68916698"/>
    <nd ref="93547221"/>
    <nd ref="278842300"/>
    <nd ref="61927452"/>
    <nd ref="316266824"/>
    <nd ref="280364830"/>
    <tag k="electrified" v="contact_line"/>
    <tag k="footway" v="both"/>
    <tag k="frequency" v="0"/>
    <tag k="gauge" v="1435"/>
    <tag k="highway" v="tertiary"/>
    <tag k="maxspeed" v="50"/>
    <tag k="name" v="Pötzleinsdorfer Straße"/>
    <tag k="railway" v="tram"/>
    <tag k="voltage" v="600"/>
  </way>
  <way id="11382798" version="13" timestamp="2009-01-03T13:23:54Z" uid="58091" user="Andreas M" changeset="721411">
    <nd ref="392318"/>
    <nd ref="64980685"/>
    <tag k="created_by" v="Potlatch 0.10d"/>
    <tag k="highway" v="tertiary"/>
    <tag k="name" v="Gersthofer Straße"/>
  </way>
  <way id="11382798" version="14" timestamp="2009-01-08T19:10:54Z" uid="28205" user="kelvan" changeset="757695">
    <nd ref="392318"/>
    <nd ref="330271644"/>
    <nd ref="64980685"/>
    <tag k="created_by" v="Potlatch 0.10d"/>
    <tag k="highway" v="tertiary"/>
    <tag k="name" v="Gersthofer Straße"/>
  </way>
  <way id="11382798" version="15" timestamp="2009-01-18T22:07:51Z" uid="51552" user="kfg" changeset="807652">
    <nd ref="392318"/>
    <nd ref="330271644"/>
    <nd ref="64980132"/>
    <tag k="created_by" v="Potlatch 0.10d"/>
    <tag k="highway" v="tertiary"/>
    <tag k="name" v="Gersthofer Straße"/>
  </way>
  <way id="11382798" version="16" timestamp="2010-01-19T21:27:33Z" uid="78656" user="Walter Schlögl" changeset="3662539">
    <nd ref="392318"/>
    <nd ref="330271644"/>
    <nd ref="64980132"/>
    <tag k="highway" v="tertiary"/>
    <tag k="maxspeed" v="50"/>
    <tag k="name" v="Gersthofer Straße"/>
  </way>
  <way id="11382798" version="17" timestamp="2010-08-24T17:25:15Z" uid="104947" user="My Friend" changeset="5581905">
    <nd ref="392318"/>
    <nd ref="330271644"/>
    <nd ref="64980132"/>
    <tag k="highway" v="secondary"/>
    <tag k="maxspeed" v="50"/>
    <tag k="name" v="Gersthofer Straße"/>
  </way>
  <way id="11382798" version="18" timestamp="2011-04-05T18:26:03Z" uid="164833" user="reclaM" changeset="7777657">
    <nd ref="392318"/>
    <nd ref="64980132"/>
    <tag k="highway" v="secondary"/>
    <tag k="maxspeed" v="50"/>
    <tag k="name" v="Gersthofer Straße"/>
  </way>
  <way id="11382798" version="19" timestamp="2012-02-24T21:12:48Z" uid="302363" user="fkv" changeset="10782562">
    <nd ref="392318"/>
    <nd ref="64980132"/>
    <tag k="highway" v="secondary"/>
    <tag k="maxspeed" v="50"/>
    <tag k="name" v="Gersthofer Straße"/>
    <tag k="source:maxspeed" v="AT:urban"/>
  </way>
  <way id="11382261" version="14" timestamp="2012-05-20T16:43:17Z" uid="298560" user="evod" changeset="11653518">
    <nd ref="1525360404"/>
    <nd ref="1557341052"/>
    <nd ref="1557341050"/>
    <nd ref="1525360367"/>
    <tag k="electrified" v="contact_line"/>
    <tag k="frequency" v="0"/>
    <tag k="gauge" v="1435"/>
    <tag k="highway" v="residential"/>
    <tag k="maxspeed" v="50"/>
    <tag k="name" v="Eckpergasse"/>
    <tag k="oneway" v="yes"/>
    <tag k="railway" v="tram"/>
    <tag k="tracks" v="1"/>
    <tag k="voltage" v="600"/>
  </way>
  <way id="11382261" version="15" timestamp="2012-07-17T00:22:00Z" uid="722137" user="OSMF Redaction Account" changeset="12254115">
    <nd ref="1525360404"/>
    <nd ref="1557341052"/>
    <nd ref="1557341050"/>
    <nd ref="1525360367"/>
    <tag k="electrified" v="contact_line"/>
    <tag k="frequency" v="0"/>
    <tag k="gauge" v="1435"/>
    <tag k="highway" v="residential"/>
    <tag k="maxspeed" v="50"/>
    <tag k="name" v="Eckpergasse"/>
    <tag k="oneway" v="yes"/>
    <tag k="tracks" v="1"/>
    <tag k="voltage" v="600"/>
  </way>
  <way id="11382261" version="16" timestamp="2012-07-17T20:12:12Z" uid="129531" user="almich" changeset="12271679">
    <nd ref="1525360404"/>
    <nd ref="1557341052"/>
    <nd ref="1557341050"/>
    <nd ref="1525360367"/>
    <tag k="electrified" v="contact_line"/>
    <tag k="frequency" v="0"/>
    <tag k="gauge" v="1435"/>
    <tag k="highway" v="residential"/>
    <tag k="maxspeed" v="50"/>
    <tag k="name" v="Eckpergasse"/>
    <tag k="oneway" v="yes"/>
    <tag k="railway" v="tram"/>
    <tag k="tracks" v="1"/>
    <tag k="voltage" v="600"/>
  </way>
  <way id="11382344" version="11" timestamp="2012-05-20T16:43:33Z" uid="298560" user="evod" changeset="11653518">
    <nd ref="65004157"/>
    <nd ref="1630416868"/>
    <tag k="electrified" v="contact_line"/>
    <tag k="frequency" v="0"/>
    <tag k="gauge" v="1435"/>
    <tag k="highway" v="tertiary"/>
    <tag k="maxspeed" v="30"/>
    <tag k="name" v="Wallrißstraße"/>
    <tag k="oneway" v="yes"/>
    <tag k="railway" v="tram"/>
    <tag k="voltage" v="600"/>
  </way>
  <way id="11382344" version="12" timestamp="2012-07-17T00:21:59Z" uid="722137" user="OSMF Redaction Account" changeset="12254115">
    <nd ref="65004157"/>
    <nd ref="1630416868"/>
    <tag k="electrified" v="contact_line"/>
    <tag k="frequency" v="0"/>
    <tag k="gauge" v="1435"/>
    <tag k="highway" v="tertiary"/>
    <tag k="maxspeed" v="30"/>
    <tag k="name" v="Wallrißstraße"/>
    <tag k="oneway" v="yes"/>
    <tag k="voltage" v="600"/>
  </way>
  <way id="11382344" version="13" timestamp="2012-07-17T20:12:17Z" uid="129531" user="almich" changeset="12271679">
    <nd ref="65004157"/>
    <nd ref="1630416868"/>
    <tag k="electrified" v="contact_line"/>
    <tag k="frequency" v="0"/>
    <tag k="gauge" v="1435"/>
    <tag k="highway" v="tertiary"/>
    <tag k="maxspeed" v="30"/>
    <tag k="name" v="Wallrißstraße"/>
    <tag k="oneway" v="yes"/>
    <tag k="railway" v="tram"/>
    <tag k="voltage" v="600"/>
  </way>
  <way id="11382425" version="20" timestamp="2012-07-17T00:22:01Z" uid="722137" user="OSMF Redaction Account" changeset="12254115">
    <nd ref="1525360376"/>
    <nd ref="61930589"/>
    <tag k="electrified" v="contact_line"/>
    <tag k="frequency" v="0"/>
    <tag k="gauge" v="1435"/>
    <tag k="highway" v="residential"/>
    <tag k="maxspeed" v="50"/>
    <tag k="name" v="Herbeckstraße"/>
    <tag k="surface" v="paved"/>
    <tag k="tracks" v="1"/>
    <tag k="voltage" v="600"/>
  </way>
  <way id="11382425" version="21" timestamp="2012-07-17T20:12:14Z" uid="129531" user="almich" changeset="12271679">
    <nd ref="1525360376"/>
    <nd ref="61930589"/>
    <nd ref="252507819"/>
    <tag k="electrified" v="contact_line"/>
    <tag k="frequency" v="0"/>
    <tag k="gauge" v="1435"/>
    <tag k="highway" v="residential"/>
    <tag k="maxspeed" v="50"/>
    <tag k="name" v="Herbeckstraße"/>
    <tag k="railway" v="tram"/>
    <tag k="surface" v="paved"/>
    <tag k="tracks" v="1"/>
    <tag k="voltage" v="600"/>
  </way>
  <way id="11382510" version="13" timestamp="2012-05-20T16:43:29Z" uid="298560" user="evod" changeset="11653518">
    <nd ref="93547348"/>
    <nd ref="1468382164"/>
    <nd ref="61929838"/>
    <nd ref="68916904"/>
    <nd ref="294141129"/>
    <nd ref="285512722"/>
    <nd ref="1759955455"/>
    <nd ref="61929842"/>
    <nd ref="294142166"/>
    <nd ref="61929843"/>
    <nd ref="285501964"/>
    <nd ref="1557341086"/>
    <nd ref="303775409"/>
    <nd ref="61923785"/>
    <nd ref="60424767"/>
    <tag k="highway" v="tertiary"/>
    <tag k="maxspeed" v="30"/>
    <tag k="name" v="Scheibenbergstraße"/>
  </way>
  <way id="11382534" version="12" timestamp="2012-05-20T16:43:28Z" uid="298560" user="evod" changeset="11653518">
    <nd ref="1525368692"/>
    <nd ref="1520265211"/>
    <tag k="electrified" v="contact_line"/>
    <tag k="frequency" v="0"/>
    <tag k="gauge" v="1435"/>
    <tag k="highway" v="residential"/>
    <tag k="maxspeed" v="30"/>
    <tag k="name" v="Salierigasse"/>
    <tag k="oneway" v="yes"/>
    <tag k="railway" v="tram"/>
    <tag k="tracks" v="1"/>
    <tag k="voltage" v="600"/>
  </way>
  <way id="11382534" version="13" timestamp="2012-07-17T00:21:56Z" uid="722137" user="OSMF Redaction Account" changeset="12254115">
    <nd ref="1525368692"/>
    <nd ref="1520265211"/>
    <tag k="electrified" v="contact_line"/>
    <tag k="frequency" v="0"/>
    <tag k="gauge" v="1435"/>
    <tag k="highway" v="residential"/>
    <tag k="maxspeed" v="30"/>
    <tag k="name" v="Salierigasse"/>
    <tag k="oneway" v="yes"/>
    <tag k="tracks" v="1"/>
    <tag k="voltage" v="600"/>
  </way>
  <way id="11382534" version="14" timestamp="2012-07-17T20:12:15Z" uid="129531" user="almich" changeset="12271679">
    <nd ref="1525368692"/>
    <nd ref="1520265211"/>
    <tag k="electrified" v="contact_line"/>
    <tag k="frequency" v="0"/>
    <tag k="gauge" v="1435"/>
    <tag k="highway" v="residential"/>
    <tag k="maxspeed" v="30"/>
    <tag k="name" v="Salierigasse"/>
    <tag k="oneway" v="yes"/>
    <tag k="railway" v="tram"/>
    <tag k="tracks" v="1"/>
    <tag k="voltage" v="600"/>
  </way>
  <way id="11382727" version="23" timestamp="2012-07-17T00:22:09Z" uid="722137" user="OSMF Redaction Account" changeset="12254115">
    <nd ref="93547348"/>
    <nd ref="1468382165"/>
    <nd ref="278842299"/>
    <nd ref="1557237860"/>
    <nd ref="68916698"/>
    <nd ref="93547221"/>
    <nd ref="278842300"/>
    <nd ref="61927452"/>
    <nd ref="316266824"/>
    <tag k="electrified" v="contact_line"/>
    <tag k="footway" v="both"/>
    <tag k="frequency" v="0"/>
    <tag k="gauge" v="1435"/>
    <tag k="highway" v="tertiary"/>
    <tag k="maxspeed" v="50"/>
    <tag k="name" v="Pötzleinsdorfer Straße"/>
    <tag k="voltage" v="600"/>
  </way>
  <way id="11382727" version="24" timestamp="2012-07-17T20:12:15Z" uid="129531" user="almich" changeset="12271679">
    <nd ref="93547348"/>
    <nd ref="1468382165"/>
    <nd ref="278842299"/>
    <nd ref="1557237860"/>
    <nd ref="68916698"/>
    <nd ref="93547221"/>
    <nd ref="278842300"/>
    <nd ref="61927452"/>
    <nd ref="316266824"/>
    <nd ref="280364830"/>
    <tag k="electrified" v="contact_line"/>
    <tag k="footway" v="both"/>
    <tag k="frequency" v="0"/>
    <tag k="gauge" v="1435"/>
    <tag k="highway" v="tertiary"/>
    <tag k="maxspeed" v="50"/>
    <tag k="name" v="Pötzleinsdorfer Straße"/>
    <tag k="railway" v="tram"/>
    <tag k="voltage" v="600"/>
  </way>
  <way id="11382798" version="20" timestamp="2012-05-23T17:13:13Z" uid="473925" user="caigner" changeset="11682548">
    <nd ref="392318"/>
    <nd ref="1763322322"/>
    <nd ref="64980132"/>
    <tag k="highway" v="secondary"/>
    <tag k="maxspeed" v="50"/>
    <tag k="name" v="Gersthofer Straße"/>
    <tag k="source:maxspeed" v="AT:urban"/>
  </way>
</osm>
