<?xml version='1.0' encoding='UTF-8'?>
<osm version="0.6" generator="libosmium/2.20.0">
  <way id="114130454" version="1" timestamp="2011-05-20T14:57:53Z" uid="115477" user="wowik" changeset="8198206">
    <nd ref="1293289828"/>
    <nd ref="1293289650"/>
    <nd ref="1293289773"/>
    <nd ref="1293289725"/>
    <nd ref="1293289828"/>
    <tag k="addr:city" v="Москва"/>
    <tag k="addr:country" v="RU"/>
    <tag k="addr:housenumber" v="11"/>
    <tag k="addr:street" v="Охтинская улица"/>
    <tag k="building" v="yes"/>
    <tag k="building:levels" v="1"/>
    <tag k="building:use" v="residential"/>
  </way>
  <way id="114130455" version="1" timestamp="2011-05-20T14:57:53Z" uid="115477" user="wowik" changeset="8198206">
    <nd ref="1293289840"/>
    <nd ref="1293289745"/>
    <nd ref="1293289692"/>
    <nd ref="1293289649"/>
    <nd ref="1293289840"/>
    <tag k="building" v="yes"/>
  </way>
  <way id="114130455" version="2" timestamp="2011-05-20T15:12:00Z" uid="115477" user="wowik" changeset="8198206">
    <nd ref="1293289840"/>
    <nd ref="1293289745"/>
    <nd ref="1293289692"/>
    <nd ref="1293289649"/>
    <nd ref="1293289840"/>
    <tag k="building" v="yes"/>
    <tag k="building:levels" v="1"/>
  </way>
  <way id="114130456" version="1" timestamp="2011-05-20T14:57:54Z" uid="115477" user="wowik" changeset="8198206">
    <nd ref="1293289664"/>
    <nd ref="1293289817"/>
    <nd ref="1293289768"/>
    <nd ref="1293289717"/>
    <nd ref="1293289831"/>
    <nd ref="1293289803"/>
    <nd ref="1293289851"/>
    <nd ref="1293289821"/>
    <nd ref="1293289664"/>
    <tag k="addr:housenumber" v="182"/>
    <tag k="addr:street" v="Ленинградское шоссе"/>
    <tag k="building" v="yes"/>
  </way>
  <way id="114130457" version="1" timestamp="2011-05-20T14:57:54Z" uid="115477" user="wowik" changeset="8198206">
    <nd ref="1293289845"/>
    <nd ref="1293289663"/>
    <nd ref="1293289789"/>
    <nd ref="1293289750"/>
    <nd ref="1293289845"/>
    <tag k="addr:city" v="Москва"/>
    <tag k="addr:country" v="RU"/>
    <tag k="building" v="yes"/>
    <tag k="building:levels" v="1"/>
  </way>
  <way id="114130458" version="1" timestamp="2011-05-20T14:57:54Z" uid="115477" user="wowik" changeset="8198206">
    <nd ref="762527048"/>
    <nd ref="1293289781"/>
    <tag k="highway" v="steps"/>
  </way>
  <way id="114130459" version="1" timestamp="2011-05-20T14:57:54Z" uid="115477" user="wowik" changeset="8198206">
    <nd ref="1293289859"/>
    <nd ref="1293289770"/>
    <nd ref="1293289718"/>
    <nd ref="1293289666"/>
    <nd ref="1293289872"/>
    <nd ref="1293289754"/>
    <nd ref="1293289698"/>
    <nd ref="1293289774"/>
    <nd ref="1293289727"/>
    <nd ref="1293289834"/>
    <nd ref="1293289808"/>
    <nd ref="1293289722"/>
    <nd ref="1293289859"/>
    <tag k="building" v="yes"/>
    <tag k="layer" v="-1"/>
  </way>
  <way id="114130459" version="2" timestamp="2011-05-25T16:14:52Z" uid="115477" user="wowik" changeset="8246135">
    <nd ref="1293289859"/>
    <nd ref="1293289770"/>
    <nd ref="1293289718"/>
    <nd ref="1293289666"/>
    <nd ref="1293289872"/>
    <nd ref="1293289754"/>
    <nd ref="1293289698"/>
    <nd ref="1293289774"/>
    <nd ref="1293289727"/>
    <nd ref="1293289834"/>
    <nd ref="1293289808"/>
    <nd ref="1293289722"/>
    <nd ref="1293289859"/>
    <tag k="building" v="yes"/>
    <tag k="layer" v="-1"/>
    <tag k="source" v="ggk"/>
  </way>
  <way id="114130460" version="1" timestamp="2011-05-20T14:57:54Z" uid="115477" user="wowik" changeset="8198206">
    <nd ref="1293289637"/>
    <nd ref="1293289694"/>
    <nd ref="1293289843"/>
    <nd ref="1293289721"/>
    <nd ref="1293289637"/>
    <tag k="addr:city" v="Москва"/>
    <tag k="addr:country" v="RU"/>
    <tag k="addr:housenumber" v="19"/>
    <tag k="addr:street" v="Охтинская улица"/>
    <tag k="building" v="yes"/>
    <tag k="building:levels" v="1"/>
    <tag k="building:use" v="residential"/>
  </way>
  <way id="114130461" version="1" timestamp="2011-05-20T14:57:55Z" uid="115477" user="wowik" changeset="8198206">
    <nd ref="1293289655"/>
    <nd ref="1293289805"/>
    <nd ref="1293289755"/>
    <nd ref="1293289699"/>
    <nd ref="1293289655"/>
    <tag k="building" v="yes"/>
    <tag k="building:levels" v="1"/>
  </way>
  <way id="114130462" version="1" timestamp="2011-05-20T14:57:55Z" uid="115477" user="wowik" changeset="8198206">
    <nd ref="1293289678"/>
    <nd ref="1293289653"/>
    <nd ref="1293289858"/>
    <nd ref="1293289673"/>
    <nd ref="1293289638"/>
    <nd ref="1293289763"/>
    <nd ref="1293289709"/>
    <nd ref="1293289634"/>
    <nd ref="1293289839"/>
    <nd ref="1293289703"/>
    <nd ref="1293289670"/>
    <nd ref="1293289734"/>
    <nd ref="1293289678"/>
    <tag k="building" v="yes"/>
    <tag k="layer" v="-1"/>
  </way>
  <way id="114130463" version="1" timestamp="2011-05-20T14:57:55Z" uid="115477" user="wowik" changeset="8198206">
    <nd ref="1293289793"/>
    <nd ref="1293289816"/>
    <nd ref="1293289783"/>
    <nd ref="1293289639"/>
    <nd ref="1293289844"/>
    <nd ref="1293289656"/>
    <nd ref="1293289860"/>
    <nd ref="1293289735"/>
    <nd ref="1293289793"/>
    <tag k="addr:city" v="Москва"/>
    <tag k="addr:country" v="RU"/>
    <tag k="addr:housenumber" v="190"/>
    <tag k="addr:street" v="Ленинградское шоссе"/>
    <tag k="building" v="yes"/>
    <tag k="building:levels" v="1"/>
    <tag k="building:use" v="residential"/>
  </way>
  <way id="114130464" version="1" timestamp="2011-05-20T14:57:55Z" uid="115477" user="wowik" changeset="8198206">
    <nd ref="1293289812"/>
    <nd ref="1293289689"/>
    <nd ref="1293289778"/>
    <nd ref="1293289658"/>
    <nd ref="1293289812"/>
    <tag k="addr:city" v="Москва"/>
    <tag k="addr:country" v="RU"/>
    <tag k="addr:housenumber" v="198"/>
    <tag k="addr:street" v="Ленинградское шоссе"/>
    <tag k="building" v="yes"/>
    <tag k="building:levels" v="1"/>
    <tag k="building:use" v="residential"/>
  </way>
  <way id="114130465" version="1" timestamp="2011-05-20T14:57:55Z" uid="115477" user="wowik" changeset="8198206">
    <nd ref="1293289761"/>
    <nd ref="1293289660"/>
    <nd ref="1293289867"/>
    <nd ref="1293289747"/>
    <nd ref="1293289693"/>
    <nd ref="1293289866"/>
    <nd ref="1293289761"/>
    <tag k="addr:city" v="Москва"/>
    <tag k="addr:country" v="RU"/>
    <tag k="building" v="yes"/>
    <tag k="building:levels" v="1"/>
  </way>
  <way id="114130466" version="1" timestamp="2011-05-20T14:57:55Z" uid="115477" user="wowik" changeset="8198206">
    <nd ref="1293289862"/>
    <nd ref="1293289681"/>
    <tag k="highway" v="service"/>
  </way>
  <way id="114130467" version="1" timestamp="2011-05-20T14:57:56Z" uid="115477" user="wowik" changeset="8198206">
    <nd ref="1293289652"/>
    <nd ref="1293289800"/>
    <nd ref="1293289716"/>
    <nd ref="1293289749"/>
    <nd ref="1293289677"/>
    <nd ref="1293289849"/>
    <nd ref="1293289702"/>
    <nd ref="1293289795"/>
    <nd ref="1293289669"/>
    <nd ref="1293289759"/>
    <nd ref="1293289645"/>
    <nd ref="1293289847"/>
    <nd ref="1293289652"/>
    <tag k="addr:city" v="Москва"/>
    <tag k="addr:country" v="RU"/>
    <tag k="addr:housenumber" v="1"/>
    <tag k="addr:street" v="Охтинский проезд"/>
    <tag k="building" v="yes"/>
    <tag k="building:levels" v="1"/>
    <tag k="building:use" v="residential"/>
  </way>
  <way id="114130469" version="1" timestamp="2011-05-20T14:57:56Z" uid="115477" user="wowik" changeset="8198206">
    <nd ref="1293289711"/>
    <nd ref="1293289854"/>
    <nd ref="1293289724"/>
    <nd ref="1293289683"/>
    <nd ref="1293289711"/>
    <tag k="addr:city" v="Москва"/>
    <tag k="addr:country" v="RU"/>
    <tag k="building" v="yes"/>
    <tag k="building:levels" v="1"/>
  </way>
  <way id="114130470" version="1" timestamp="2011-05-20T14:57:56Z" uid="115477" user="wowik" changeset="8198206">
    <nd ref="1293289710"/>
    <nd ref="1293289680"/>
    <nd ref="1293289648"/>
    <nd ref="1293289697"/>
    <nd ref="1293289710"/>
    <tag k="building" v="yes"/>
  </way>
  <way id="114130471" version="1" timestamp="2011-05-20T14:57:56Z" uid="115477" user="wowik" changeset="8198206">
    <nd ref="1293289792"/>
    <nd ref="1293289675"/>
    <nd ref="1293289641"/>
    <nd ref="1293289794"/>
    <nd ref="1293289756"/>
    <nd ref="1293289855"/>
    <nd ref="1293289792"/>
    <tag k="building" v="yes"/>
  </way>
  <way id="114130471" version="2" timestamp="2011-05-20T15:12:00Z" uid="115477" user="wowik" changeset="8198206">
    <nd ref="1293289792"/>
    <nd ref="1293289675"/>
    <nd ref="1293289641"/>
    <nd ref="1293289794"/>
    <nd ref="1293289756"/>
    <nd ref="1293289855"/>
    <nd ref="1293289792"/>
    <tag k="building" v="yes"/>
    <tag k="building:levels" v="1"/>
  </way>
  <way id="114130472" version="1" timestamp="2011-05-20T14:57:57Z" uid="115477" user="wowik" changeset="8198206">
    <nd ref="1293289758"/>
    <nd ref="1293289642"/>
    <nd ref="1293289819"/>
    <nd ref="1293289784"/>
    <nd ref="1293289758"/>
    <tag k="addr:city" v="Москва"/>
    <tag k="addr:country" v="RU"/>
    <tag k="addr:housenumber" v="180"/>
    <tag k="addr:street" v="Ленинградское шоссе"/>
    <tag k="building" v="yes"/>
    <tag k="building:levels" v="1"/>
  </way>
  <way id="114130473" version="1" timestamp="2011-05-20T14:57:57Z" uid="115477" user="wowik" changeset="8198206">
    <nd ref="1293289690"/>
    <nd ref="1293289779"/>
    <nd ref="1293289659"/>
    <nd ref="1293289662"/>
    <nd ref="1293289815"/>
    <nd ref="1293289870"/>
    <nd ref="1293289690"/>
    <tag k="addr:city" v="Москва"/>
    <tag k="addr:country" v="RU"/>
    <tag k="addr:housenumber" v="17"/>
    <tag k="addr:street" v="Охтинская улица"/>
    <tag k="building" v="yes"/>
    <tag k="building:levels" v="1"/>
    <tag k="building:use" v="residential"/>
  </way>
  <way id="114130474" version="1" timestamp="2011-05-20T14:57:57Z" uid="115477" user="wowik" changeset="8198206">
    <nd ref="1293289846"/>
    <nd ref="1293289776"/>
    <nd ref="1293289729"/>
    <nd ref="1293289836"/>
    <nd ref="1293289809"/>
    <nd ref="1293289762"/>
    <nd ref="1293289705"/>
    <nd ref="1293289825"/>
    <nd ref="1293289798"/>
    <nd ref="1293289841"/>
    <nd ref="1293289813"/>
    <nd ref="1293289671"/>
    <nd ref="1293289635"/>
    <nd ref="1293289811"/>
    <nd ref="1293289846"/>
    <tag k="addr:city" v="Москва"/>
    <tag k="addr:country" v="RU"/>
    <tag k="addr:housenumber" v="178"/>
    <tag k="addr:street" v="Ленинградское шоссе"/>
    <tag k="building" v="yes"/>
    <tag k="building:levels" v="1"/>
  </way>
  <way id="114130475" version="1" timestamp="2011-05-20T14:57:57Z" uid="115477" user="wowik" changeset="8198206">
    <nd ref="1293289801"/>
    <nd ref="1293289777"/>
    <nd ref="1293289731"/>
    <nd ref="1293289796"/>
    <nd ref="1293289801"/>
    <tag k="addr:city" v="Москва"/>
    <tag k="addr:country" v="RU"/>
    <tag k="building" v="yes"/>
    <tag k="building:levels" v="1"/>
  </way>
  <way id="114130476" version="1" timestamp="2011-05-20T14:57:58Z" uid="115477" user="wowik" changeset="8198206">
    <nd ref="1293289712"/>
    <nd ref="1293289856"/>
    <nd ref="1293289667"/>
    <nd ref="1293289633"/>
    <nd ref="1293289757"/>
    <nd ref="1293289700"/>
    <nd ref="1293289873"/>
    <nd ref="1293289835"/>
    <nd ref="1293289712"/>
    <tag k="addr:city" v="Москва"/>
    <tag k="addr:country" v="RU"/>
    <tag k="addr:housenumber" v="192"/>
    <tag k="addr:street" v="Ленинградское шоссе"/>
    <tag k="building" v="yes"/>
    <tag k="building:levels" v="1"/>
    <tag k="building:use" v="residential"/>
  </way>
  <way id="114130477" version="1" timestamp="2011-05-20T14:57:58Z" uid="115477" user="wowik" changeset="8198206">
    <nd ref="1293289830"/>
    <nd ref="1293289733"/>
    <nd ref="1293289691"/>
    <nd ref="1293289838"/>
    <nd ref="1293289830"/>
    <tag k="addr:city" v="Москва"/>
    <tag k="addr:country" v="RU"/>
    <tag k="addr:housenumber" v="4"/>
    <tag k="addr:street" v="Охтинский проезд"/>
    <tag k="building" v="yes"/>
    <tag k="building:levels" v="1"/>
    <tag k="building:use" v="residential"/>
  </way>
  <way id="114130478" version="1" timestamp="2011-05-20T14:57:58Z" uid="115477" user="wowik" changeset="8198206">
    <nd ref="664473217"/>
    <nd ref="1293289826"/>
    <nd ref="1293289769"/>
    <tag k="highway" v="track"/>
  </way>
  <way id="114130479" version="1" timestamp="2011-05-20T14:57:58Z" uid="115477" user="wowik" changeset="8198206">
    <nd ref="762527048"/>
    <nd ref="1293289654"/>
    <tag k="highway" v="steps"/>
  </way>
  <way id="114130480" version="1" timestamp="2011-05-20T14:57:58Z" uid="115477" user="wowik" changeset="8198206">
    <nd ref="1293289804"/>
    <nd ref="1293289685"/>
    <nd ref="1293289814"/>
    <nd ref="1293289782"/>
    <nd ref="1293289804"/>
    <tag k="building" v="yes"/>
  </way>
  <way id="114130481" version="1" timestamp="2011-05-20T14:57:58Z" uid="115477" user="wowik" changeset="8198206">
    <nd ref="1293289688"/>
    <nd ref="1293289837"/>
    <nd ref="1293289810"/>
    <nd ref="1293289857"/>
    <nd ref="1293289824"/>
    <nd ref="1293289684"/>
    <nd ref="1293289688"/>
    <tag k="addr:city" v="Москва"/>
    <tag k="addr:country" v="RU"/>
    <tag k="addr:housenumber" v="13"/>
    <tag k="addr:street" v="Охтинская улица"/>
    <tag k="building" v="yes"/>
    <tag k="building:levels" v="1"/>
    <tag k="building:use" v="residential"/>
  </way>
  <way id="114130482" version="1" timestamp="2011-05-20T14:57:59Z" uid="115477" user="wowik" changeset="8198206">
    <nd ref="334457448"/>
    <nd ref="334457451"/>
    <nd ref="334457452"/>
    <nd ref="334457455"/>
    <nd ref="710365694"/>
    <nd ref="334457458"/>
    <nd ref="334457460"/>
    <nd ref="334457463"/>
    <nd ref="710365746"/>
    <nd ref="334457466"/>
    <nd ref="710365740"/>
    <nd ref="334457473"/>
    <nd ref="762537323"/>
    <nd ref="334457475"/>
    <nd ref="710365735"/>
    <nd ref="672079164"/>
    <tag k="highway" v="residential"/>
  </way>
  <way id="114130483" version="1" timestamp="2011-05-20T14:57:59Z" uid="115477" user="wowik" changeset="8198206">
    <nd ref="1293289799"/>
    <nd ref="1293289771"/>
    <nd ref="1293289719"/>
    <nd ref="1293289644"/>
    <nd ref="1293289848"/>
    <nd ref="1293289715"/>
    <nd ref="1293289799"/>
    <tag k="building" v="yes"/>
  </way>
  <way id="114130484" version="1" timestamp="2011-05-20T14:57:59Z" uid="115477" user="wowik" changeset="8198206">
    <nd ref="1293289864"/>
    <nd ref="1293289775"/>
    <nd ref="1293289852"/>
    <nd ref="1293289822"/>
    <nd ref="1293289679"/>
    <nd ref="1293289647"/>
    <nd ref="1293289696"/>
    <nd ref="1293289665"/>
    <nd ref="1293289791"/>
    <nd ref="1293289752"/>
    <nd ref="1293289661"/>
    <nd ref="1293289868"/>
    <nd ref="1293289864"/>
    <tag k="addr:city" v="Москва"/>
    <tag k="addr:country" v="RU"/>
    <tag k="addr:housenumber" v="194"/>
    <tag k="addr:street" v="Ленинградское шоссе"/>
    <tag k="building" v="yes"/>
    <tag k="building:levels" v="1"/>
    <tag k="building:use" v="residential"/>
  </way>
  <way id="114130485" version="1" timestamp="2011-05-20T14:57:59Z" uid="115477" user="wowik" changeset="8198206">
    <nd ref="1293289853"/>
    <nd ref="1293289765"/>
    <nd ref="1293289861"/>
    <nd ref="1293289827"/>
    <nd ref="1293289853"/>
    <tag k="addr:city" v="Москва"/>
    <tag k="addr:country" v="RU"/>
    <tag k="addr:housenumber" v="5"/>
    <tag k="addr:street" v="Охтинская улица"/>
    <tag k="building" v="yes"/>
    <tag k="building:levels" v="1"/>
    <tag k="building:use" v="residential"/>
  </way>
  <way id="114130486" version="1" timestamp="2011-05-20T14:57:59Z" uid="115477" user="wowik" changeset="8198206">
    <nd ref="1293289806"/>
    <nd ref="1293289863"/>
    <nd ref="1293289740"/>
    <nd ref="1293289686"/>
    <nd ref="1293289806"/>
    <tag k="addr:city" v="Москва"/>
    <tag k="addr:country" v="RU"/>
    <tag k="building" v="yes"/>
    <tag k="building:levels" v="1"/>
  </way>
  <way id="114130487" version="1" timestamp="2011-05-20T14:58:00Z" uid="115477" user="wowik" changeset="8198206">
    <nd ref="1293289829"/>
    <nd ref="1293289651"/>
    <nd ref="1293289701"/>
    <nd ref="1293289668"/>
    <nd ref="1293289829"/>
    <tag k="building" v="yes"/>
  </way>
  <way id="114130488" version="1" timestamp="2011-05-20T14:58:00Z" uid="115477" user="wowik" changeset="8198206">
    <nd ref="1293289820"/>
    <nd ref="1293289707"/>
    <nd ref="1293289787"/>
    <nd ref="1293289672"/>
    <nd ref="1293289820"/>
    <tag k="addr:city" v="Москва"/>
    <tag k="addr:country" v="RU"/>
    <tag k="addr:housenumber" v="3"/>
    <tag k="addr:street" v="Охтинский проезд"/>
    <tag k="building" v="yes"/>
    <tag k="building:levels" v="1"/>
    <tag k="building:use" v="residential"/>
  </way>
  <way id="114130489" version="1" timestamp="2011-05-20T14:58:00Z" uid="115477" user="wowik" changeset="8198206">
    <nd ref="1293289786"/>
    <nd ref="1293289797"/>
    <nd ref="659770706"/>
    <nd ref="903816541"/>
    <nd ref="915405405"/>
    <nd ref="659707821"/>
    <nd ref="659708101"/>
    <tag k="access" v="destination"/>
    <tag k="highway" v="service"/>
    <tag k="living_street" v="yes"/>
    <tag k="service" v="driveway"/>
  </way>
  <way id="114130489" version="2" timestamp="2011-05-25T16:14:46Z" uid="115477" user="wowik" changeset="8246135">
    <nd ref="1293289786"/>
    <nd ref="1293289797"/>
    <nd ref="1299810348"/>
    <nd ref="659770706"/>
    <nd ref="903816541"/>
    <nd ref="915405405"/>
    <nd ref="659707821"/>
    <nd ref="659708101"/>
    <tag k="access" v="destination"/>
    <tag k="highway" v="service"/>
    <tag k="living_street" v="yes"/>
    <tag k="service" v="driveway"/>
  </way>
  <way id="114130490" version="1" timestamp="2011-05-20T14:58:00Z" uid="115477" user="wowik" changeset="8198206">
    <nd ref="672638330"/>
    <nd ref="1293289751"/>
    <tag k="highway" v="steps"/>
  </way>
  <way id="114130491" version="1" timestamp="2011-05-20T14:58:00Z" uid="115477" user="wowik" changeset="8198206">
    <nd ref="672638330"/>
    <nd ref="1293289695"/>
    <tag k="highway" v="steps"/>
  </way>
  <way id="114130492" version="1" timestamp="2011-05-20T14:58:00Z" uid="115477" user="wowik" changeset="8198206">
    <nd ref="1293289790"/>
    <nd ref="1293289674"/>
    <nd ref="1293289640"/>
    <nd ref="1293289764"/>
    <nd ref="1293289790"/>
    <tag k="building" v="yes"/>
  </way>
  <way id="114130492" version="2" timestamp="2011-05-20T15:12:01Z" uid="115477" user="wowik" changeset="8198206">
    <nd ref="1293289790"/>
    <nd ref="1293289674"/>
    <nd ref="1293289640"/>
    <nd ref="1293289764"/>
    <nd ref="1293289790"/>
    <tag k="building" v="yes"/>
    <tag k="building:levels" v="1"/>
  </way>
  <way id="114130493" version="1" timestamp="2011-05-20T14:58:01Z" uid="115477" user="wowik" changeset="8198206">
    <nd ref="1293289708"/>
    <nd ref="1293289788"/>
    <nd ref="1293289646"/>
    <nd ref="1293289850"/>
    <nd ref="1293289807"/>
    <nd ref="1293289772"/>
    <nd ref="1293289871"/>
    <nd ref="1293289832"/>
    <nd ref="1293289708"/>
    <tag k="addr:city" v="Москва"/>
    <tag k="addr:country" v="RU"/>
    <tag k="addr:housenumber" v="192"/>
    <tag k="addr:street" v="Ленинградское шоссе"/>
    <tag k="building" v="yes"/>
    <tag k="shop" v="convenience"/>
  </way>
  <way id="114130493" version="2" timestamp="2011-12-12T17:52:29Z" uid="126304" user="TarzanASG" changeset="10100388">
    <nd ref="1293289708"/>
    <nd ref="1293289788"/>
    <nd ref="1293289646"/>
    <nd ref="1293289850"/>
    <nd ref="1293289807"/>
    <nd ref="1293289772"/>
    <nd ref="1293289871"/>
    <nd ref="1293289832"/>
    <nd ref="1293289708"/>
    <tag k="addr:city" v="Москва"/>
    <tag k="addr:country" v="RU"/>
    <tag k="addr:housenumber" v="192"/>
    <tag k="addr:street" v="Ленинградское шоссе"/>
    <tag k="building" v="retail"/>
    <tag k="shop" v="convenience"/>
  </way>
  <way id="114130493" version="3" timestamp="2011-12-14T13:11:34Z" uid="143266" user="Sergey Astakhov" changeset="10115724">
    <nd ref="1293289708"/>
    <nd ref="1293289788"/>
    <nd ref="1293289646"/>
    <nd ref="1293289850"/>
    <nd ref="1293289807"/>
    <nd ref="1293289772"/>
    <nd ref="1293289871"/>
    <nd ref="1293289832"/>
    <nd ref="1293289708"/>
    <tag k="addr:city" v="Москва"/>
    <tag k="addr:country" v="RU"/>
    <tag k="addr:housenumber" v="192"/>
    <tag k="addr:street" v="Ленинградское шоссе"/>
    <tag k="building" v="yes"/>
    <tag k="shop" v="convenience"/>
  </way>
  <way id="114130494" version="1" timestamp="2011-05-20T14:58:01Z" uid="115477" user="wowik" changeset="8198206">
    <nd ref="1293289833"/>
    <nd ref="1293289742"/>
    <nd ref="1293289687"/>
    <nd ref="1293289818"/>
    <nd ref="1293289833"/>
    <tag k="addr:city" v="Москва"/>
    <tag k="addr:country" v="RU"/>
    <tag k="addr:housenumber" v="9"/>
    <tag k="addr:street" v="Охтинская улица"/>
    <tag k="building" v="yes"/>
    <tag k="building:levels" v="1"/>
    <tag k="building:use" v="residential"/>
  </way>
  <way id="114130495" version="1" timestamp="2011-05-20T14:58:01Z" uid="115477" user="wowik" changeset="8198206">
    <nd ref="1293289732"/>
    <nd ref="1293289802"/>
    <nd ref="1293289657"/>
    <nd ref="1293289865"/>
    <nd ref="1293289676"/>
    <nd ref="1293289643"/>
    <nd ref="1293289767"/>
    <nd ref="1293289714"/>
    <nd ref="1293289732"/>
    <tag k="addr:city" v="Москва"/>
    <tag k="addr:country" v="RU"/>
    <tag k="addr:housenumber" v="6"/>
    <tag k="addr:street" v="Охтинский проезд"/>
    <tag k="amenity" v="school"/>
    <tag k="building" v="yes"/>
  </way>
  <way id="114130496" version="1" timestamp="2011-05-20T14:58:01Z" uid="115477" user="wowik" changeset="8198206">
    <nd ref="1293289748"/>
    <nd ref="1293289636"/>
    <nd ref="1293289842"/>
    <nd ref="1293289706"/>
    <nd ref="1293289748"/>
    <tag k="building" v="yes"/>
  </way>
  <way id="114130496" version="2" timestamp="2011-05-20T15:12:00Z" uid="115477" user="wowik" changeset="8198206">
    <nd ref="1293289748"/>
    <nd ref="1293289636"/>
    <nd ref="1293289842"/>
    <nd ref="1293289706"/>
    <nd ref="1293289748"/>
    <tag k="building" v="yes"/>
    <tag k="building:levels" v="1"/>
  </way>
  <way id="114130497" version="1" timestamp="2011-05-20T14:58:01Z" uid="115477" user="wowik" changeset="8198206">
    <nd ref="1293289785"/>
    <nd ref="1293289760"/>
    <nd ref="1293289704"/>
    <nd ref="1293289780"/>
    <nd ref="1293289785"/>
    <tag k="building" v="yes"/>
  </way>
  <way id="114130497" version="2" timestamp="2011-05-20T15:12:01Z" uid="115477" user="wowik" changeset="8198206">
    <nd ref="1293289785"/>
    <nd ref="1293289760"/>
    <nd ref="1293289704"/>
    <nd ref="1293289780"/>
    <nd ref="1293289785"/>
    <tag k="building" v="yes"/>
    <tag k="building:levels" v="1"/>
  </way>
  <way id="114130454" version="2" timestamp="2012-07-20T13:44:51Z" uid="722137" user="OSMF Redaction Account" changeset="12378204"/>
  <way id="114130455" version="3" timestamp="2012-07-20T13:44:52Z" uid="722137" user="OSMF Redaction Account" changeset="12378204"/>
  <way id="114130456" version="2" timestamp="2012-07-20T13:44:49Z" uid="722137" user="OSMF Redaction Account" changeset="12378204"/>
  <way id="114130457" version="2" timestamp="2012-07-20T13:44:53Z" uid="722137" user="OSMF Redaction Account" changeset="12378204"/>
  <way id="114130458" version="2" timestamp="2012-07-20T13:44:58Z" uid="722137" user="OSMF Redaction Account" changeset="12378204"/>
  <way id="114130459" version="3" timestamp="2012-07-20T13:44:57Z" uid="722137" user="OSMF Redaction Account" changeset="12378204"/>
  <way id="114130460" version="2" timestamp="2012-07-20T13:44:56Z" uid="722137" user="OSMF Redaction Account" changeset="12378204"/>
  <way id="114130461" version="2" timestamp="2012-07-20T13:44:54Z" uid="722137" user="OSMF Redaction Account" changeset="12378204"/>
  <way id="114130462" version="2" timestamp="2012-07-20T19:09:51Z" uid="722137" user="OSMF Redaction Account" changeset="12388034"/>
  <way id="114130463" version="2" timestamp="2012-07-20T13:44:51Z" uid="722137" user="OSMF Redaction Account" changeset="12378204"/>
  <way id="114130464" version="2" timestamp="2012-07-20T13:44:59Z" uid="722137" user="OSMF Redaction Account" changeset="12378204"/>
  <way id="114130465" version="2" timestamp="2012-07-20T13:44:52Z" uid="722137" user="OSMF Redaction Account" changeset="12378204"/>
  <way id="114130466" version="2" timestamp="2012-07-20T13:44:57Z" uid="722137" user="OSMF Redaction Account" changeset="12378204"/>
  <way id="114130467" version="2" timestamp="2012-07-20T13:44:59Z" uid="722137" user="OSMF Redaction Account" changeset="12378204"/>
  <way id="114130469" version="2" timestamp="2012-07-20T13:44:54Z" uid="722137" user="OSMF Redaction Account" changeset="12378204"/>
  <way id="114130470" version="2" timestamp="2012-07-20T13:44:56Z" uid="722137" user="OSMF Redaction Account" changeset="12378204"/>
  <way id="114130471" version="3" timestamp="2012-07-20T13:44:57Z" uid="722137" user="OSMF Redaction Account" changeset="12378204"/>
  <way id="114130472" version="2" timestamp="2012-07-20T13:44:44Z" uid="722137" user="OSMF Redaction Account" changeset="12378184"/>
  <way id="114130473" version="2" timestamp="2012-07-20T13:44:55Z" uid="722137" user="OSMF Redaction Account" changeset="12378204"/>
  <way id="114130474" version="2" timestamp="2012-07-20T13:44:43Z" uid="722137" user="OSMF Redaction Account" changeset="12378184"/>
  <way id="114130475" version="2" timestamp="2012-07-20T13:44:55Z" uid="722137" user="OSMF Redaction Account" changeset="12378204"/>
  <way id="114130476" version="2" timestamp="2012-07-20T13:44:52Z" uid="722137" user="OSMF Redaction Account" changeset="12378204"/>
  <way id="114130477" version="2" timestamp="2012-07-20T13:44:57Z" uid="722137" user="OSMF Redaction Account" changeset="12378204"/>
  <way id="114130478" version="2" timestamp="2012-07-20T19:09:55Z" uid="722137" user="OSMF Redaction Account" changeset="12388034"/>
  <way id="114130479" version="2" timestamp="2012-07-20T13:44:58Z" uid="722137" user="OSMF Redaction Account" changeset="12378204"/>
  <way id="114130480" version="2" timestamp="2012-07-20T13:44:48Z" uid="722137" user="OSMF Redaction Account" changeset="12378204"/>
  <way id="114130481" version="2" timestamp="2012-07-20T13:44:53Z" uid="722137" user="OSMF Redaction Account" changeset="12378204"/>
  <way id="114130482" version="2" timestamp="2012-07-20T19:09:50Z" uid="722137" user="OSMF Redaction Account" changeset="12388034"/>
  <way id="114130483" version="2" timestamp="2012-07-20T13:44:49Z" uid="722137" user="OSMF Redaction Account" changeset="12378204"/>
  <way id="114130484" version="2" timestamp="2012-07-20T13:44:54Z" uid="722137" user="OSMF Redaction Account" changeset="12378204"/>
  <way id="114130485" version="2" timestamp="2012-07-20T13:44:50Z" uid="722137" user="OSMF Redaction Account" changeset="12378204"/>
  <way id="114130486" version="2" timestamp="2012-07-20T13:44:54Z" uid="722137" user="OSMF Redaction Account" changeset="12378204"/>
  <way id="114130487" version="2" timestamp="2012-07-20T13:44:43Z" uid="722137" user="OSMF Redaction Account" changeset="12378184"/>
  <way id="114130488" version="2" timestamp="2012-07-20T13:44:59Z" uid="722137" user="OSMF Redaction Account" changeset="12378204"/>
  <way id="114130489" version="3" timestamp="2012-07-20T13:44:58Z" uid="722137" user="OSMF Redaction Account" changeset="12378204"/>
  <way id="114130490" version="2" timestamp="2012-07-20T13:44:57Z" uid="722137" user="OSMF Redaction Account" changeset="12378204"/>
  <way id="114130491" version="2" timestamp="2012-07-20T13:44:57Z" uid="722137" user="OSMF Redaction Account" changeset="12378204"/>
  <way id="114130492" version="3" timestamp="2012-07-20T13:44:49Z" uid="722137" user="OSMF Redaction Account" changeset="12378204"/>
  <way id="114130493" version="4" timestamp="2012-07-20T13:44:56Z" uid="722137" user="OSMF Redaction Account" changeset="12378204"/>
  <way id="114130494" version="2" timestamp="2012-07-20T13:44:51Z" uid="722137" user="OSMF Redaction Account" changeset="12378204"/>
  <way id="114130495" version="2" timestamp="2012-07-20T13:44:57Z" uid="722137" user="OSMF Redaction Account" changeset="12378204"/>
  <way id="114130496" version="3" timestamp="2012-07-20T13:44:49Z" uid="722137" user="OSMF Redaction Account" changeset="12378204"/>
  <way id="114130497" version="3" timestamp="2012-07-20T13:44:51Z" uid="722137" user="OSMF Redaction Account" changeset="12378204"/>
</osm>
