<?xml version='1.0' encoding='UTF-8'?>
<osm version="0.6" generator="libosmium/2.20.0">
  <way id="11410125" version="22" timestamp="2010-10-03T18:19:58Z" uid="9581" user="Lobelt" changeset="5946928">
    <nd ref="267030129"/>
    <nd ref="267170499"/>
    <nd ref="267170498"/>
    <nd ref="937006950"/>
    <nd ref="101539568"/>
    <nd ref="283620015"/>
    <nd ref="270762214"/>
    <tag k="footway" v="both"/>
    <tag k="highway" v="tertiary"/>
    <tag k="incline" v="-8%"/>
    <tag k="maxspeed" v="30"/>
    <tag k="name" v="Hauptstraße"/>
    <tag k="ref" v="K 4163"/>
  </way>
  <way id="11410125" version="23" timestamp="2010-12-03T21:32:05Z" uid="41172" user="dt2" changeset="6531748">
    <nd ref="267030129"/>
    <nd ref="267170499"/>
    <nd ref="267170498"/>
    <nd ref="937006950"/>
    <nd ref="101539568"/>
    <nd ref="283620015"/>
    <nd ref="101539570"/>
    <tag k="footway" v="both"/>
    <tag k="highway" v="tertiary"/>
    <tag k="incline" v="-8%"/>
    <tag k="maxspeed" v="30"/>
    <tag k="name" v="Hauptstraße"/>
    <tag k="ref" v="K 4163"/>
  </way>
  <way id="11410125" version="24" timestamp="2011-01-15T15:11:16Z" uid="202726" user="whb" changeset="6977939">
    <nd ref="267030129"/>
    <nd ref="267170499"/>
    <nd ref="267170498"/>
    <nd ref="937006950"/>
    <nd ref="101539568"/>
    <nd ref="283620015"/>
    <nd ref="1104592525"/>
    <nd ref="1104592561"/>
    <nd ref="101539570"/>
    <tag k="footway" v="both"/>
    <tag k="highway" v="tertiary"/>
    <tag k="incline" v="-8%"/>
    <tag k="maxspeed" v="30"/>
    <tag k="name" v="Hauptstraße"/>
    <tag k="ref" v="K 4163"/>
  </way>
  <way id="11410125" version="25" timestamp="2011-01-31T18:33:35Z" uid="160164" user="mahau" changeset="7147475">
    <nd ref="267030129"/>
    <nd ref="267170499"/>
    <nd ref="267170498"/>
    <nd ref="1129659181"/>
    <nd ref="937006950"/>
    <nd ref="1129659003"/>
    <nd ref="101539568"/>
    <nd ref="283620015"/>
    <nd ref="101539570"/>
    <tag k="footway" v="both"/>
    <tag k="highway" v="tertiary"/>
    <tag k="incline" v="-8%"/>
    <tag k="maxspeed" v="30"/>
    <tag k="name" v="Hauptstraße"/>
    <tag k="ref" v="K 4163"/>
  </way>
  <way id="11410125" version="26" timestamp="2011-02-27T18:23:52Z" uid="160164" user="mahau" changeset="7413760">
    <nd ref="1177572604"/>
    <nd ref="267030129"/>
    <tag k="footway" v="both"/>
    <tag k="highway" v="tertiary"/>
    <tag k="incline" v="8%"/>
    <tag k="maxspeed" v="30"/>
    <tag k="name" v="Hauptstraße"/>
    <tag k="oneway" v="yes"/>
    <tag k="ref" v="K 4163"/>
  </way>
  <way id="11410125" version="27" timestamp="2011-09-24T10:01:45Z" uid="52783" user="Cyrond" changeset="9382845">
    <nd ref="1177572604"/>
    <nd ref="267030129"/>
    <tag k="footway" v="both"/>
    <tag k="highway" v="tertiary"/>
    <tag k="incline" v="8%"/>
    <tag k="maxspeed" v="20"/>
    <tag k="name" v="Hauptstraße"/>
    <tag k="oneway" v="yes"/>
    <tag k="ref" v="K 4163"/>
  </way>
  <way id="11410125" version="28" timestamp="2011-09-29T18:30:46Z" uid="41172" user="dt2" changeset="9429536">
    <nd ref="1177572604"/>
    <nd ref="267030129"/>
    <tag k="footway" v="both"/>
    <tag k="highway" v="tertiary"/>
    <tag k="incline" v="8%"/>
    <tag k="maxspeed" v="20"/>
    <tag k="name" v="Hauptstraße"/>
    <tag k="oneway" v="yes"/>
    <tag k="ref" v="K 4163"/>
    <tag k="zone:maxspeed" v="20"/>
  </way>
  <way id="11410182" version="14" timestamp="2009-08-30T12:09:49Z" uid="58091" user="Andreas M" changeset="2312641">
    <nd ref="95029397"/>
    <nd ref="305404300"/>
    <nd ref="95029398"/>
    <nd ref="477358509"/>
    <nd ref="95029399"/>
    <nd ref="95029400"/>
    <nd ref="283408416"/>
    <nd ref="95029401"/>
    <nd ref="331117428"/>
    <nd ref="95029402"/>
    <nd ref="95032803"/>
    <tag k="foot" v="yes"/>
    <tag k="highway" v="cycleway"/>
    <tag k="layer" v="-1"/>
    <tag k="lcn" v="yes"/>
    <tag k="name" v="Schanzelufer"/>
    <tag k="surface" v="paved"/>
  </way>
  <way id="11410182" version="15" timestamp="2010-05-12T15:00:31Z" uid="58091" user="Andreas M" changeset="4677879">
    <nd ref="95029397"/>
    <nd ref="305404300"/>
    <nd ref="95029398"/>
    <nd ref="477358509"/>
    <nd ref="95029399"/>
    <nd ref="95029400"/>
    <nd ref="283408416"/>
    <nd ref="95029401"/>
    <nd ref="331117428"/>
    <nd ref="730979053"/>
    <nd ref="95029402"/>
    <nd ref="95032803"/>
    <tag k="foot" v="yes"/>
    <tag k="highway" v="cycleway"/>
    <tag k="layer" v="-1"/>
    <tag k="lcn" v="yes"/>
    <tag k="name" v="Schanzelufer"/>
    <tag k="surface" v="paved"/>
  </way>
  <way id="11410182" version="16" timestamp="2011-07-27T23:03:32Z" uid="99692" user="that" changeset="8850026">
    <nd ref="95029397"/>
    <nd ref="305404300"/>
    <nd ref="95029398"/>
    <nd ref="477358509"/>
    <nd ref="95029399"/>
    <nd ref="95029400"/>
    <nd ref="1376346363"/>
    <nd ref="283408416"/>
    <nd ref="1376346347"/>
    <nd ref="95029401"/>
    <nd ref="331117428"/>
    <nd ref="730979053"/>
    <nd ref="95029402"/>
    <nd ref="95032803"/>
    <tag k="foot" v="yes"/>
    <tag k="highway" v="cycleway"/>
    <tag k="layer" v="-1"/>
    <tag k="lcn" v="yes"/>
    <tag k="name" v="Schanzelufer"/>
    <tag k="surface" v="paved"/>
  </way>
  <way id="11410182" version="17" timestamp="2011-10-17T22:44:11Z" uid="495567" user="zimba" changeset="9587071">
    <nd ref="95029397"/>
    <nd ref="305404300"/>
    <nd ref="1471352024"/>
    <nd ref="95029398"/>
    <nd ref="477358509"/>
    <nd ref="95029399"/>
    <nd ref="1471352008"/>
    <nd ref="95029400"/>
    <nd ref="1376346363"/>
    <nd ref="283408416"/>
    <nd ref="1471351997"/>
    <nd ref="1376346347"/>
    <nd ref="95029401"/>
    <nd ref="1471351977"/>
    <nd ref="331117428"/>
    <nd ref="730979053"/>
    <nd ref="95029402"/>
    <nd ref="95032803"/>
    <tag k="foot" v="yes"/>
    <tag k="highway" v="cycleway"/>
    <tag k="layer" v="-1"/>
    <tag k="lcn" v="yes"/>
    <tag k="name" v="Schanzelufer"/>
    <tag k="surface" v="paved"/>
  </way>
  <way id="11410786" version="6" timestamp="2010-02-15T05:21:50Z" uid="74617" user="JohnSmith" changeset="3880269">
    <nd ref="101551663"/>
    <nd ref="101552461"/>
    <nd ref="101551664"/>
    <nd ref="101551665"/>
    <tag k="highway" v="residential"/>
    <tag k="maxspeed" v="50"/>
    <tag k="name" v="Bardot Street"/>
  </way>
  <way id="11410786" version="7" timestamp="2012-01-15T10:44:03Z" uid="147510" user="woodpeck_fixbot" changeset="10396281">
    <nd ref="101551663"/>
    <nd ref="101552461"/>
    <nd ref="101551664"/>
    <nd ref="101551665"/>
    <tag k="highway" v="residential"/>
    <tag k="name" v="Bardot Street"/>
  </way>
  <way id="11410844" version="5" timestamp="2010-02-15T05:21:50Z" uid="74617" user="JohnSmith" changeset="3880269">
    <nd ref="101552863"/>
    <nd ref="98281578"/>
    <nd ref="101552461"/>
    <tag k="highway" v="residential"/>
    <tag k="maxspeed" v="50"/>
    <tag k="name" v="Raki Street"/>
  </way>
  <way id="11410844" version="6" timestamp="2012-01-15T10:44:04Z" uid="147510" user="woodpeck_fixbot" changeset="10396281">
    <nd ref="101552863"/>
    <nd ref="98281578"/>
    <nd ref="101552461"/>
    <tag k="highway" v="residential"/>
    <tag k="name" v="Raki Street"/>
  </way>
  <way id="11410880" version="4" timestamp="2010-02-15T05:21:39Z" uid="74617" user="JohnSmith" changeset="3880269">
    <nd ref="101553162"/>
    <nd ref="101553163"/>
    <tag k="highway" v="residential"/>
    <tag k="maxspeed" v="50"/>
    <tag k="name" v="Jagger Street"/>
  </way>
  <way id="11410880" version="5" timestamp="2012-01-15T10:44:06Z" uid="147510" user="woodpeck_fixbot" changeset="10396281">
    <nd ref="101553162"/>
    <nd ref="101553163"/>
    <tag k="highway" v="residential"/>
    <tag k="name" v="Jagger Street"/>
  </way>
  <way id="11410125" version="29" timestamp="2012-07-17T04:40:21Z" uid="722137" user="OSMF Redaction Account" changeset="12257007">
    <nd ref="1177572604"/>
    <nd ref="267030129"/>
    <tag k="footway" v="both"/>
    <tag k="highway" v="tertiary"/>
    <tag k="incline" v="8%"/>
    <tag k="name" v="Hauptstraße"/>
    <tag k="oneway" v="yes"/>
    <tag k="ref" v="K 4163"/>
    <tag k="zone:maxspeed" v="20"/>
  </way>
  <way id="11410125" version="30" timestamp="2012-08-21T06:27:55Z" uid="52778" user="rudolf" changeset="12803908">
    <nd ref="1177572604"/>
    <nd ref="267030129"/>
    <tag k="highway" v="tertiary"/>
    <tag k="incline" v="8%"/>
    <tag k="name" v="Hauptstraße"/>
    <tag k="oneway" v="yes"/>
    <tag k="ref" v="K 4163"/>
    <tag k="sidewalk" v="both"/>
    <tag k="zone:maxspeed" v="20"/>
  </way>
  <way id="11410125" version="31" timestamp="2012-08-21T23:22:52Z" uid="145231" user="woodpeck_repair" changeset="12814310">
    <nd ref="1177572604"/>
    <nd ref="267030129"/>
    <tag k="footway" v="both"/>
    <tag k="highway" v="tertiary"/>
    <tag k="incline" v="8%"/>
    <tag k="name" v="Hauptstraße"/>
    <tag k="oneway" v="yes"/>
    <tag k="ref" v="K 4163"/>
    <tag k="zone:maxspeed" v="20"/>
  </way>
  <way id="11410182" version="18" timestamp="2012-04-29T19:19:23Z" uid="603286" user="Marmoti" changeset="11453416">
    <nd ref="95029397"/>
    <nd ref="305404300"/>
    <nd ref="1471352024"/>
    <nd ref="95029398"/>
    <nd ref="477358509"/>
    <nd ref="95029399"/>
    <nd ref="1471352008"/>
    <nd ref="95029400"/>
    <nd ref="1376346363"/>
    <nd ref="283408416"/>
    <nd ref="1471351997"/>
    <nd ref="1376346347"/>
    <nd ref="95029401"/>
    <nd ref="1471351977"/>
    <nd ref="331117428"/>
    <nd ref="730979053"/>
    <nd ref="95029402"/>
    <nd ref="95032803"/>
    <tag k="foot" v="yes"/>
    <tag k="highway" v="cycleway"/>
    <tag k="layer" v="-1"/>
    <tag k="lcn" v="yes"/>
    <tag k="name" v="Schanzelufer"/>
    <tag k="segregated" v="no"/>
    <tag k="surface" v="asphalt"/>
  </way>
  <way id="11410182" version="19" timestamp="2012-07-16T23:35:53Z" uid="722137" user="OSMF Redaction Account" changeset="12253552">
    <nd ref="95029397"/>
    <nd ref="305404300"/>
    <nd ref="1471352024"/>
    <nd ref="95029398"/>
    <nd ref="477358509"/>
    <nd ref="95029399"/>
    <nd ref="1471352008"/>
    <nd ref="95029400"/>
    <nd ref="1376346363"/>
    <nd ref="283408416"/>
    <nd ref="1471351997"/>
    <nd ref="1376346347"/>
    <nd ref="95029401"/>
    <nd ref="1471351977"/>
    <nd ref="331117428"/>
    <nd ref="95029402"/>
    <nd ref="95032803"/>
    <tag k="foot" v="yes"/>
    <tag k="highway" v="cycleway"/>
    <tag k="layer" v="-1"/>
    <tag k="lcn" v="yes"/>
    <tag k="name" v="Schanzelufer"/>
    <tag k="segregated" v="no"/>
    <tag k="surface" v="asphalt"/>
  </way>
  <way id="11410182" version="20" timestamp="2012-07-17T00:19:03Z" uid="722137" user="OSMF Redaction Account" changeset="12254074">
    <nd ref="95029397"/>
    <nd ref="305404300"/>
    <nd ref="1471352024"/>
    <nd ref="95029398"/>
    <nd ref="95029399"/>
    <nd ref="1471352008"/>
    <nd ref="95029400"/>
    <nd ref="1376346363"/>
    <nd ref="283408416"/>
    <nd ref="1471351997"/>
    <nd ref="1376346347"/>
    <nd ref="95029401"/>
    <nd ref="1471351977"/>
    <nd ref="331117428"/>
    <nd ref="95029402"/>
    <nd ref="95032803"/>
    <tag k="foot" v="yes"/>
    <tag k="highway" v="cycleway"/>
    <tag k="layer" v="-1"/>
    <tag k="lcn" v="yes"/>
    <tag k="name" v="Schanzelufer"/>
    <tag k="segregated" v="no"/>
    <tag k="surface" v="asphalt"/>
  </way>
  <way id="11410786" version="8" timestamp="2012-07-19T19:54:25Z" uid="722137" user="OSMF Redaction Account" changeset="12345491"/>
  <way id="11410844" version="7" timestamp="2012-07-19T19:54:28Z" uid="722137" user="OSMF Redaction Account" changeset="12345491"/>
  <way id="11410880" version="6" timestamp="2012-07-19T19:54:24Z" uid="722137" user="OSMF Redaction Account" changeset="12345491"/>
</osm>
