<?xml version='1.0' encoding='UTF-8'?>
<osm version="0.6" generator="libosmium/2.20.0">
  <way id="114126281" version="1" timestamp="2011-05-20T13:57:35Z" uid="115477" user="wowik" changeset="8198206">
    <nd ref="659405436"/>
    <nd ref="1293254655"/>
    <nd ref="1293254588"/>
    <tag k="highway" v="track"/>
  </way>
  <way id="114126282" version="1" timestamp="2011-05-20T13:57:35Z" uid="115477" user="wowik" changeset="8198206">
    <nd ref="1293254135"/>
    <nd ref="1293254226"/>
    <nd ref="1293254048"/>
    <nd ref="1293254759"/>
    <nd ref="1293254135"/>
    <tag k="addr:housenumber" v="41"/>
    <tag k="addr:street" v="Бурцевская улица"/>
    <tag k="building" v="yes"/>
  </way>
  <way id="114126282" version="2" timestamp="2012-03-26T08:14:10Z" uid="481934" user="iWowik" changeset="11103186">
    <nd ref="1293254135"/>
    <nd ref="1293254226"/>
    <nd ref="1293254048"/>
    <nd ref="1293254759"/>
    <nd ref="1293254135"/>
    <tag k="addr:city" v="Москва"/>
    <tag k="addr:country" v="RU"/>
    <tag k="addr:housenumber" v="41"/>
    <tag k="addr:street" v="Бурцевская улица"/>
    <tag k="building" v="yes"/>
  </way>
  <way id="114126284" version="1" timestamp="2011-05-20T13:57:36Z" uid="115477" user="wowik" changeset="8198206">
    <nd ref="1293254315"/>
    <nd ref="659405428"/>
    <tag k="boat" v="no"/>
    <tag k="waterway" v="stream"/>
  </way>
  <way id="114126285" version="1" timestamp="2011-05-20T13:57:36Z" uid="115477" user="wowik" changeset="8198206">
    <nd ref="1293254105"/>
    <nd ref="1293254542"/>
    <nd ref="1293254465"/>
    <nd ref="1293254204"/>
    <nd ref="1293254105"/>
    <tag k="building" v="yes"/>
  </way>
  <way id="114126285" version="2" timestamp="2012-03-26T08:14:31Z" uid="481934" user="iWowik" changeset="11103186">
    <nd ref="1293254105"/>
    <nd ref="1293254542"/>
    <nd ref="1293254465"/>
    <nd ref="1293254204"/>
    <nd ref="1293254105"/>
    <tag k="addr:city" v="Москва"/>
    <tag k="addr:country" v="RU"/>
    <tag k="building" v="yes"/>
  </way>
  <way id="114126286" version="1" timestamp="2011-05-20T13:57:36Z" uid="115477" user="wowik" changeset="8198206">
    <nd ref="1293254091"/>
    <nd ref="1293254513"/>
    <nd ref="1293254436"/>
    <nd ref="1293254186"/>
    <nd ref="1293254091"/>
    <tag k="addr:housenumber" v="43"/>
    <tag k="addr:street" v="Бурцевская улица"/>
    <tag k="building" v="yes"/>
  </way>
  <way id="114126286" version="2" timestamp="2012-03-26T08:14:11Z" uid="481934" user="iWowik" changeset="11103186">
    <nd ref="1293254091"/>
    <nd ref="1293254513"/>
    <nd ref="1293254436"/>
    <nd ref="1293254186"/>
    <nd ref="1293254091"/>
    <tag k="addr:city" v="Москва"/>
    <tag k="addr:country" v="RU"/>
    <tag k="addr:housenumber" v="43"/>
    <tag k="addr:street" v="Бурцевская улица"/>
    <tag k="building" v="yes"/>
  </way>
  <way id="114126290" version="1" timestamp="2011-05-20T13:57:36Z" uid="115477" user="wowik" changeset="8198206">
    <nd ref="1293254363"/>
    <nd ref="1293254510"/>
    <nd ref="1293254224"/>
    <nd ref="1293254626"/>
    <nd ref="1293254368"/>
    <nd ref="1293254292"/>
    <nd ref="1293254090"/>
    <nd ref="1293254198"/>
    <nd ref="1293254025"/>
    <nd ref="1293254710"/>
    <nd ref="1293254363"/>
    <tag k="natural" v="water"/>
    <tag k="source" v="bing"/>
  </way>
  <way id="114126293" version="1" timestamp="2011-05-20T13:57:37Z" uid="115477" user="wowik" changeset="8198206">
    <nd ref="1293254163"/>
    <nd ref="1293254608"/>
    <nd ref="1293254545"/>
    <nd ref="1293254251"/>
    <nd ref="1293254675"/>
    <nd ref="1293254410"/>
    <nd ref="1293254327"/>
    <nd ref="1293254114"/>
    <nd ref="1293254163"/>
    <tag k="natural" v="water"/>
    <tag k="source" v="bing"/>
  </way>
  <way id="114126294" version="1" timestamp="2011-05-20T13:57:37Z" uid="115477" user="wowik" changeset="8198206">
    <nd ref="1293254323"/>
    <nd ref="1293254483"/>
    <nd ref="1293254404"/>
    <nd ref="1293254162"/>
    <nd ref="1293254323"/>
    <tag k="addr:housenumber" v="49"/>
    <tag k="addr:street" v="Бурцевская улица"/>
    <tag k="building" v="yes"/>
  </way>
  <way id="114126294" version="2" timestamp="2012-03-26T08:14:12Z" uid="481934" user="iWowik" changeset="11103186">
    <nd ref="1293254323"/>
    <nd ref="1293254483"/>
    <nd ref="1293254404"/>
    <nd ref="1293254162"/>
    <nd ref="1293254323"/>
    <tag k="addr:city" v="Москва"/>
    <tag k="addr:country" v="RU"/>
    <tag k="addr:housenumber" v="49"/>
    <tag k="addr:street" v="Бурцевская улица"/>
    <tag k="building" v="yes"/>
  </way>
  <way id="114126296" version="1" timestamp="2011-05-20T13:57:37Z" uid="115477" user="wowik" changeset="8198206">
    <nd ref="1293254108"/>
    <nd ref="1293254210"/>
    <nd ref="1293254034"/>
    <nd ref="1293254335"/>
    <nd ref="1293254119"/>
    <nd ref="1293254070"/>
    <nd ref="1293254108"/>
    <tag k="addr:housenumber" v="51"/>
    <tag k="addr:street" v="Бурцевская улица"/>
    <tag k="building" v="yes"/>
  </way>
  <way id="114126296" version="2" timestamp="2012-03-26T08:14:13Z" uid="481934" user="iWowik" changeset="11103186">
    <nd ref="1293254108"/>
    <nd ref="1293254210"/>
    <nd ref="1293254034"/>
    <nd ref="1293254335"/>
    <nd ref="1293254119"/>
    <nd ref="1293254070"/>
    <nd ref="1293254108"/>
    <tag k="addr:city" v="Москва"/>
    <tag k="addr:country" v="RU"/>
    <tag k="addr:housenumber" v="51"/>
    <tag k="addr:street" v="Бурцевская улица"/>
    <tag k="building" v="yes"/>
  </way>
  <way id="114126297" version="1" timestamp="2011-05-20T13:57:37Z" uid="115477" user="wowik" changeset="8198206">
    <nd ref="1293254379"/>
    <nd ref="1293254578"/>
    <nd ref="1293254516"/>
    <tag k="highway" v="track"/>
  </way>
  <way id="114126299" version="1" timestamp="2011-05-20T13:57:37Z" uid="115477" user="wowik" changeset="8198206">
    <nd ref="659405448"/>
    <nd ref="1293254737"/>
    <nd ref="1293254486"/>
    <nd ref="659405454"/>
    <tag k="highway" v="track"/>
  </way>
  <way id="114126301" version="1" timestamp="2011-05-20T13:57:38Z" uid="115477" user="wowik" changeset="8198206">
    <nd ref="1293254645"/>
    <nd ref="1293254232"/>
    <nd ref="1293254189"/>
    <nd ref="1293254019"/>
    <nd ref="1293254645"/>
    <tag k="building" v="yes"/>
  </way>
  <way id="114126302" version="1" timestamp="2011-05-20T13:57:38Z" uid="115477" user="wowik" changeset="8198206">
    <nd ref="1293254401"/>
    <nd ref="1293254539"/>
    <nd ref="1293254461"/>
    <nd ref="1293254202"/>
    <nd ref="1293254591"/>
    <nd ref="1293254321"/>
    <nd ref="1293254250"/>
    <nd ref="1293254065"/>
    <nd ref="1293254401"/>
    <tag k="addr:housenumber" v="45"/>
    <tag k="addr:street" v="Бурцевская улица"/>
    <tag k="building" v="yes"/>
  </way>
  <way id="114126302" version="2" timestamp="2012-03-26T08:14:11Z" uid="481934" user="iWowik" changeset="11103186">
    <nd ref="1293254401"/>
    <nd ref="1293254539"/>
    <nd ref="1293254461"/>
    <nd ref="1293254202"/>
    <nd ref="1293254591"/>
    <nd ref="1293254321"/>
    <nd ref="1293254250"/>
    <nd ref="1293254065"/>
    <nd ref="1293254401"/>
    <tag k="addr:city" v="Москва"/>
    <tag k="addr:country" v="RU"/>
    <tag k="addr:housenumber" v="45"/>
    <tag k="addr:street" v="Бурцевская улица"/>
    <tag k="building" v="yes"/>
  </way>
  <way id="114126303" version="1" timestamp="2011-05-20T13:57:38Z" uid="115477" user="wowik" changeset="8198206">
    <nd ref="1293254707"/>
    <nd ref="1293254584"/>
    <nd ref="1293254726"/>
    <nd ref="1293254249"/>
    <tag k="highway" v="track"/>
  </way>
  <way id="114126304" version="1" timestamp="2011-05-20T13:57:38Z" uid="115477" user="wowik" changeset="8198206">
    <nd ref="1293254355"/>
    <nd ref="1293254181"/>
    <nd ref="1293254745"/>
    <nd ref="1293254288"/>
    <nd ref="1293254355"/>
    <tag k="building" v="yes"/>
  </way>
  <way id="114126304" version="2" timestamp="2012-03-26T08:14:18Z" uid="481934" user="iWowik" changeset="11103186">
    <nd ref="1293254355"/>
    <nd ref="1293254181"/>
    <nd ref="1293254745"/>
    <nd ref="1293254288"/>
    <nd ref="1293254355"/>
    <tag k="addr:city" v="Москва"/>
    <tag k="addr:country" v="RU"/>
    <tag k="building" v="yes"/>
  </way>
  <way id="114126305" version="1" timestamp="2011-05-20T13:57:38Z" uid="115477" user="wowik" changeset="8198206">
    <nd ref="1293254051"/>
    <nd ref="1293254139"/>
    <nd ref="1293254703"/>
    <nd ref="1293254230"/>
    <nd ref="1293254057"/>
    <nd ref="1293254761"/>
    <nd ref="1293254518"/>
    <nd ref="1293254051"/>
    <tag k="natural" v="water"/>
    <tag k="source" v="bing"/>
  </way>
  <way id="114126306" version="1" timestamp="2011-05-20T13:57:38Z" uid="115477" user="wowik" changeset="8198206">
    <nd ref="659352101"/>
    <nd ref="1293254164"/>
    <nd ref="1293254456"/>
    <nd ref="1293254201"/>
    <nd ref="659362958"/>
    <tag k="highway" v="path"/>
  </way>
  <way id="114126308" version="1" timestamp="2011-05-20T13:57:38Z" uid="115477" user="wowik" changeset="8198206">
    <nd ref="1293254439"/>
    <nd ref="1293254581"/>
    <nd ref="1293254302"/>
    <nd ref="1293254729"/>
    <nd ref="1293254444"/>
    <nd ref="1293254375"/>
    <nd ref="1293254156"/>
    <nd ref="1293254612"/>
    <nd ref="1293254339"/>
    <nd ref="1293254255"/>
    <nd ref="1293254073"/>
    <nd ref="1293254424"/>
    <nd ref="1293254177"/>
    <nd ref="1293254123"/>
    <nd ref="1293254439"/>
    <tag k="natural" v="water"/>
    <tag k="source" v="bing"/>
  </way>
  <way id="114126310" version="1" timestamp="2011-05-20T13:57:39Z" uid="115477" user="wowik" changeset="8198206">
    <nd ref="1293254096"/>
    <nd ref="1293254711"/>
    <nd ref="1293254442"/>
    <nd ref="1293254059"/>
    <nd ref="1293254586"/>
    <nd ref="1293254526"/>
    <nd ref="1293254247"/>
    <nd ref="1293254408"/>
    <nd ref="1293254096"/>
    <tag k="addr:housenumber" v="47"/>
    <tag k="addr:street" v="Бурцевская улица"/>
    <tag k="building" v="yes"/>
  </way>
  <way id="114126310" version="2" timestamp="2012-03-26T08:14:12Z" uid="481934" user="iWowik" changeset="11103186">
    <nd ref="1293254096"/>
    <nd ref="1293254711"/>
    <nd ref="1293254442"/>
    <nd ref="1293254059"/>
    <nd ref="1293254586"/>
    <nd ref="1293254526"/>
    <nd ref="1293254247"/>
    <nd ref="1293254408"/>
    <nd ref="1293254096"/>
    <tag k="addr:city" v="Москва"/>
    <tag k="addr:country" v="RU"/>
    <tag k="addr:housenumber" v="47"/>
    <tag k="addr:street" v="Бурцевская улица"/>
    <tag k="building" v="yes"/>
  </way>
  <way id="114126313" version="1" timestamp="2011-05-20T13:57:39Z" uid="115477" user="wowik" changeset="8198206">
    <nd ref="1293254045"/>
    <nd ref="1293254129"/>
    <nd ref="1293254082"/>
    <nd ref="1293254618"/>
    <nd ref="1293254183"/>
    <nd ref="1293254757"/>
    <nd ref="1293254694"/>
    <nd ref="1293254429"/>
    <nd ref="1293254740"/>
    <nd ref="1293254505"/>
    <nd ref="1293254411"/>
    <nd ref="1293254175"/>
    <nd ref="1293254557"/>
    <nd ref="1293254274"/>
    <nd ref="1293254220"/>
    <nd ref="1293254045"/>
    <tag k="natural" v="water"/>
    <tag k="source" v="bing"/>
  </way>
  <way id="114126586" version="1" timestamp="2011-05-20T14:03:19Z" uid="115477" user="wowik" changeset="8198206">
    <nd ref="1293259593"/>
    <nd ref="1293259535"/>
    <nd ref="1293259575"/>
    <nd ref="1293259545"/>
    <nd ref="1293259528"/>
    <nd ref="1293259487"/>
    <nd ref="1293259593"/>
    <tag k="addr:housenumber" v="63"/>
    <tag k="addr:street" v="Бурцевская улица"/>
    <tag k="building" v="yes"/>
  </way>
  <way id="114126586" version="2" timestamp="2012-03-26T08:14:16Z" uid="481934" user="iWowik" changeset="11103186">
    <nd ref="1293259593"/>
    <nd ref="1293259535"/>
    <nd ref="1293259575"/>
    <nd ref="1293259545"/>
    <nd ref="1293259528"/>
    <nd ref="1293259487"/>
    <nd ref="1293259593"/>
    <tag k="addr:city" v="Москва"/>
    <tag k="addr:country" v="RU"/>
    <tag k="addr:housenumber" v="63"/>
    <tag k="addr:street" v="Бурцевская улица"/>
    <tag k="building" v="yes"/>
  </way>
  <way id="114126588" version="1" timestamp="2011-05-20T14:03:19Z" uid="115477" user="wowik" changeset="8198206">
    <nd ref="1293259571"/>
    <nd ref="1293259591"/>
    <nd ref="1293259554"/>
    <nd ref="1293259621"/>
    <nd ref="1293259571"/>
    <tag k="building" v="yes"/>
  </way>
  <way id="114126588" version="2" timestamp="2012-03-26T08:14:51Z" uid="481934" user="iWowik" changeset="11103186">
    <nd ref="1293259571"/>
    <nd ref="1293259591"/>
    <nd ref="1293259554"/>
    <nd ref="1293259621"/>
    <nd ref="1293259571"/>
    <tag k="addr:city" v="Москва"/>
    <tag k="addr:country" v="RU"/>
    <tag k="building" v="yes"/>
  </way>
  <way id="114126590" version="1" timestamp="2011-05-20T14:03:19Z" uid="115477" user="wowik" changeset="8198206">
    <nd ref="1293259605"/>
    <nd ref="1293259541"/>
    <nd ref="1293259525"/>
    <nd ref="1293259486"/>
    <nd ref="1293259605"/>
    <tag k="building" v="yes"/>
  </way>
  <way id="114126590" version="2" timestamp="2012-03-26T08:14:37Z" uid="481934" user="iWowik" changeset="11103186">
    <nd ref="1293259605"/>
    <nd ref="1293259541"/>
    <nd ref="1293259525"/>
    <nd ref="1293259486"/>
    <nd ref="1293259605"/>
    <tag k="addr:city" v="Москва"/>
    <tag k="addr:country" v="RU"/>
    <tag k="building" v="yes"/>
  </way>
  <way id="114126591" version="1" timestamp="2011-05-20T14:03:19Z" uid="115477" user="wowik" changeset="8198206">
    <nd ref="1293259561"/>
    <nd ref="1293259577"/>
    <nd ref="1293259522"/>
    <nd ref="1293259474"/>
    <nd ref="1293259561"/>
    <tag k="building" v="yes"/>
  </way>
  <way id="114126591" version="2" timestamp="2012-03-26T08:14:48Z" uid="481934" user="iWowik" changeset="11103186">
    <nd ref="1293259561"/>
    <nd ref="1293259577"/>
    <nd ref="1293259522"/>
    <nd ref="1293259474"/>
    <nd ref="1293259561"/>
    <tag k="addr:city" v="Москва"/>
    <tag k="addr:country" v="RU"/>
    <tag k="building" v="yes"/>
  </way>
  <way id="114126592" version="1" timestamp="2011-05-20T14:03:19Z" uid="115477" user="wowik" changeset="8198206">
    <nd ref="1293259519"/>
    <nd ref="1293259548"/>
    <nd ref="1293259538"/>
    <nd ref="1293259492"/>
    <nd ref="1293259519"/>
    <tag k="addr:housenumber" v="53"/>
    <tag k="addr:street" v="Бурцевская улица"/>
    <tag k="building" v="yes"/>
  </way>
  <way id="114126592" version="2" timestamp="2012-03-26T08:14:13Z" uid="481934" user="iWowik" changeset="11103186">
    <nd ref="1293259519"/>
    <nd ref="1293259548"/>
    <nd ref="1293259538"/>
    <nd ref="1293259492"/>
    <nd ref="1293259519"/>
    <tag k="addr:city" v="Москва"/>
    <tag k="addr:country" v="RU"/>
    <tag k="addr:housenumber" v="53"/>
    <tag k="addr:street" v="Бурцевская улица"/>
    <tag k="building" v="yes"/>
  </way>
  <way id="114126594" version="1" timestamp="2011-05-20T14:03:20Z" uid="115477" user="wowik" changeset="8198206">
    <nd ref="1293259564"/>
    <nd ref="1293259610"/>
    <nd ref="1293259568"/>
    <nd ref="1293259558"/>
    <nd ref="1293259564"/>
    <tag k="building" v="yes"/>
  </way>
  <way id="114126594" version="2" timestamp="2012-03-26T08:14:53Z" uid="481934" user="iWowik" changeset="11103186">
    <nd ref="1293259564"/>
    <nd ref="1293259610"/>
    <nd ref="1293259568"/>
    <nd ref="1293259558"/>
    <nd ref="1293259564"/>
    <tag k="addr:city" v="Москва"/>
    <tag k="addr:country" v="RU"/>
    <tag k="building" v="yes"/>
  </way>
  <way id="114126595" version="1" timestamp="2011-05-20T14:03:20Z" uid="115477" user="wowik" changeset="8198206">
    <nd ref="1293259512"/>
    <nd ref="1293259470"/>
    <nd ref="1293259573"/>
    <nd ref="1293259516"/>
    <nd ref="1293259512"/>
    <tag k="addr:housenumber" v="55"/>
    <tag k="addr:street" v="Бурцевская улица"/>
    <tag k="building" v="yes"/>
  </way>
  <way id="114126595" version="2" timestamp="2012-03-26T08:14:14Z" uid="481934" user="iWowik" changeset="11103186">
    <nd ref="1293259512"/>
    <nd ref="1293259470"/>
    <nd ref="1293259573"/>
    <nd ref="1293259516"/>
    <nd ref="1293259512"/>
    <tag k="addr:city" v="Москва"/>
    <tag k="addr:country" v="RU"/>
    <tag k="addr:housenumber" v="55"/>
    <tag k="addr:street" v="Бурцевская улица"/>
    <tag k="building" v="yes"/>
  </way>
  <way id="114126598" version="1" timestamp="2011-05-20T14:03:20Z" uid="115477" user="wowik" changeset="8198206">
    <nd ref="1293259495"/>
    <nd ref="1293259511"/>
    <nd ref="1293259498"/>
    <nd ref="1293259602"/>
    <nd ref="1293259495"/>
    <tag k="building" v="yes"/>
  </way>
  <way id="114126598" version="2" timestamp="2012-03-26T08:14:47Z" uid="481934" user="iWowik" changeset="11103186">
    <nd ref="1293259495"/>
    <nd ref="1293259511"/>
    <nd ref="1293259498"/>
    <nd ref="1293259602"/>
    <nd ref="1293259495"/>
    <tag k="addr:city" v="Москва"/>
    <tag k="addr:country" v="RU"/>
    <tag k="building" v="yes"/>
  </way>
  <way id="114126599" version="1" timestamp="2011-05-20T14:03:20Z" uid="115477" user="wowik" changeset="8198206">
    <nd ref="1293259472"/>
    <nd ref="1293259588"/>
    <nd ref="1293259551"/>
    <nd ref="1293259490"/>
    <nd ref="1293259472"/>
    <tag k="building" v="yes"/>
  </way>
  <way id="114126599" version="2" timestamp="2012-03-26T08:14:20Z" uid="481934" user="iWowik" changeset="11103186">
    <nd ref="1293259472"/>
    <nd ref="1293259588"/>
    <nd ref="1293259551"/>
    <nd ref="1293259490"/>
    <nd ref="1293259472"/>
    <tag k="addr:city" v="Москва"/>
    <tag k="addr:country" v="RU"/>
    <tag k="building" v="yes"/>
  </way>
  <way id="114126600" version="1" timestamp="2011-05-20T14:03:20Z" uid="115477" user="wowik" changeset="8198206">
    <nd ref="1293259501"/>
    <nd ref="1293259533"/>
    <nd ref="1293259513"/>
    <nd ref="1293259619"/>
    <nd ref="1293259501"/>
    <tag k="addr:housenumber" v="61"/>
    <tag k="addr:street" v="Бурцевская улица"/>
    <tag k="building" v="yes"/>
  </way>
  <way id="114126600" version="2" timestamp="2012-03-26T08:14:15Z" uid="481934" user="iWowik" changeset="11103186">
    <nd ref="1293259501"/>
    <nd ref="1293259533"/>
    <nd ref="1293259513"/>
    <nd ref="1293259619"/>
    <nd ref="1293259501"/>
    <tag k="addr:city" v="Москва"/>
    <tag k="addr:country" v="RU"/>
    <tag k="addr:housenumber" v="61"/>
    <tag k="addr:street" v="Бурцевская улица"/>
    <tag k="building" v="yes"/>
  </way>
  <way id="114126601" version="1" timestamp="2011-05-20T14:03:20Z" uid="115477" user="wowik" changeset="8198206">
    <nd ref="1293259608"/>
    <nd ref="1293259488"/>
    <nd ref="1293259585"/>
    <nd ref="1293259504"/>
    <nd ref="1293259608"/>
    <tag k="addr:housenumber" v="59"/>
    <tag k="addr:street" v="Бурцевская улица"/>
    <tag k="building" v="yes"/>
  </way>
  <way id="114126601" version="2" timestamp="2012-03-26T08:14:14Z" uid="481934" user="iWowik" changeset="11103186">
    <nd ref="1293259608"/>
    <nd ref="1293259488"/>
    <nd ref="1293259585"/>
    <nd ref="1293259504"/>
    <nd ref="1293259608"/>
    <tag k="addr:city" v="Москва"/>
    <tag k="addr:country" v="RU"/>
    <tag k="addr:housenumber" v="59"/>
    <tag k="addr:street" v="Бурцевская улица"/>
    <tag k="building" v="yes"/>
  </way>
  <way id="114126719" version="1" timestamp="2011-05-20T14:07:43Z" uid="115477" user="wowik" changeset="8198206">
    <nd ref="1293262269"/>
    <nd ref="1293262343"/>
    <nd ref="1293262330"/>
    <nd ref="1293262286"/>
    <nd ref="1293262356"/>
    <nd ref="1293262315"/>
    <nd ref="1293262269"/>
    <tag k="addr:housenumber" v="65"/>
    <tag k="addr:street" v="Бурцевская улица"/>
    <tag k="building" v="yes"/>
  </way>
  <way id="114126719" version="2" timestamp="2012-03-26T08:14:16Z" uid="481934" user="iWowik" changeset="11103186">
    <nd ref="1293262269"/>
    <nd ref="1293262343"/>
    <nd ref="1293262330"/>
    <nd ref="1293262286"/>
    <nd ref="1293262356"/>
    <nd ref="1293262315"/>
    <nd ref="1293262269"/>
    <tag k="addr:city" v="Москва"/>
    <tag k="addr:country" v="RU"/>
    <tag k="addr:housenumber" v="65"/>
    <tag k="addr:street" v="Бурцевская улица"/>
    <tag k="building" v="yes"/>
  </way>
  <way id="114126720" version="1" timestamp="2011-05-20T14:07:43Z" uid="115477" user="wowik" changeset="8198206">
    <nd ref="1293262336"/>
    <nd ref="1293262365"/>
    <nd ref="1293262318"/>
    <nd ref="1293262339"/>
    <nd ref="1293262298"/>
    <nd ref="1293262284"/>
    <nd ref="1293262336"/>
    <tag k="building" v="yes"/>
  </way>
  <way id="114126720" version="2" timestamp="2012-03-26T08:14:56Z" uid="481934" user="iWowik" changeset="11103186">
    <nd ref="1293262336"/>
    <nd ref="1293262365"/>
    <nd ref="1293262318"/>
    <nd ref="1293262339"/>
    <nd ref="1293262298"/>
    <nd ref="1293262284"/>
    <nd ref="1293262336"/>
    <tag k="addr:city" v="Москва"/>
    <tag k="addr:country" v="RU"/>
    <tag k="building" v="yes"/>
  </way>
  <way id="114126721" version="1" timestamp="2011-05-20T14:07:43Z" uid="115477" user="wowik" changeset="8198206">
    <nd ref="1293262333"/>
    <nd ref="1293262270"/>
    <nd ref="1293262376"/>
    <nd ref="1293262329"/>
    <nd ref="1293262322"/>
    <nd ref="1293262275"/>
    <nd ref="1293262341"/>
    <nd ref="1293262300"/>
    <nd ref="1293262285"/>
    <nd ref="1293262250"/>
    <nd ref="1293262333"/>
    <tag k="addr:housenumber" v="28"/>
    <tag k="addr:street" v="Бурцевская улица"/>
    <tag k="building" v="yes"/>
  </way>
  <way id="114126721" version="2" timestamp="2012-03-26T08:13:58Z" uid="481934" user="iWowik" changeset="11103186">
    <nd ref="1293262333"/>
    <nd ref="1293262270"/>
    <nd ref="1293262376"/>
    <nd ref="1293262329"/>
    <nd ref="1293262322"/>
    <nd ref="1293262275"/>
    <nd ref="1293262341"/>
    <nd ref="1293262300"/>
    <nd ref="1293262285"/>
    <nd ref="1293262250"/>
    <nd ref="1293262333"/>
    <tag k="addr:city" v="Москва"/>
    <tag k="addr:country" v="RU"/>
    <tag k="addr:housenumber" v="28"/>
    <tag k="addr:street" v="Бурцевская улица"/>
    <tag k="building" v="yes"/>
  </way>
  <way id="114126722" version="1" timestamp="2011-05-20T14:07:43Z" uid="115477" user="wowik" changeset="8198206">
    <nd ref="1293262279"/>
    <nd ref="1293262361"/>
    <nd ref="1293262347"/>
    <nd ref="1293262303"/>
    <nd ref="1293262355"/>
    <nd ref="1293262314"/>
    <nd ref="1293262279"/>
    <tag k="addr:housenumber" v="38"/>
    <tag k="addr:street" v="Бурцевская улица"/>
    <tag k="building" v="yes"/>
  </way>
  <way id="114126722" version="2" timestamp="2012-03-26T08:14:09Z" uid="481934" user="iWowik" changeset="11103186">
    <nd ref="1293262279"/>
    <nd ref="1293262361"/>
    <nd ref="1293262347"/>
    <nd ref="1293262303"/>
    <nd ref="1293262355"/>
    <nd ref="1293262314"/>
    <nd ref="1293262279"/>
    <tag k="addr:city" v="Москва"/>
    <tag k="addr:country" v="RU"/>
    <tag k="addr:housenumber" v="38"/>
    <tag k="addr:street" v="Бурцевская улица"/>
    <tag k="building" v="yes"/>
  </way>
  <way id="114126723" version="1" timestamp="2011-05-20T14:07:43Z" uid="115477" user="wowik" changeset="8198206">
    <nd ref="1293262297"/>
    <nd ref="1293262321"/>
    <nd ref="1293262342"/>
    <nd ref="1293262301"/>
    <nd ref="1293262297"/>
    <tag k="building" v="yes"/>
  </way>
  <way id="114126723" version="2" timestamp="2012-03-26T08:14:35Z" uid="481934" user="iWowik" changeset="11103186">
    <nd ref="1293262297"/>
    <nd ref="1293262321"/>
    <nd ref="1293262342"/>
    <nd ref="1293262301"/>
    <nd ref="1293262297"/>
    <tag k="addr:city" v="Москва"/>
    <tag k="addr:country" v="RU"/>
    <tag k="building" v="yes"/>
  </way>
  <way id="114126724" version="1" timestamp="2011-05-20T14:07:43Z" uid="115477" user="wowik" changeset="8198206">
    <nd ref="1293262335"/>
    <nd ref="1293262364"/>
    <nd ref="1293262350"/>
    <nd ref="1293262305"/>
    <nd ref="1293262335"/>
    <tag k="building" v="yes"/>
  </way>
  <way id="114126724" version="2" timestamp="2012-03-26T08:14:31Z" uid="481934" user="iWowik" changeset="11103186">
    <nd ref="1293262335"/>
    <nd ref="1293262364"/>
    <nd ref="1293262350"/>
    <nd ref="1293262305"/>
    <nd ref="1293262335"/>
    <tag k="addr:city" v="Москва"/>
    <tag k="addr:country" v="RU"/>
    <tag k="building" v="yes"/>
  </way>
  <way id="114126725" version="1" timestamp="2011-05-20T14:07:43Z" uid="115477" user="wowik" changeset="8198206">
    <nd ref="1293262242"/>
    <nd ref="1293262271"/>
    <nd ref="1293262369"/>
    <nd ref="1293262357"/>
    <nd ref="1293262242"/>
    <tag k="building" v="yes"/>
  </way>
  <way id="114126725" version="2" timestamp="2012-03-26T08:14:42Z" uid="481934" user="iWowik" changeset="11103186">
    <nd ref="1293262242"/>
    <nd ref="1293262271"/>
    <nd ref="1293262369"/>
    <nd ref="1293262357"/>
    <nd ref="1293262242"/>
    <tag k="addr:city" v="Москва"/>
    <tag k="addr:country" v="RU"/>
    <tag k="building" v="yes"/>
  </way>
  <way id="114126726" version="1" timestamp="2011-05-20T14:07:44Z" uid="115477" user="wowik" changeset="8198206">
    <nd ref="1293262262"/>
    <nd ref="1293262278"/>
    <nd ref="1293262331"/>
    <nd ref="1293262287"/>
    <nd ref="1293262276"/>
    <nd ref="1293262377"/>
    <nd ref="1293262262"/>
    <tag k="addr:housenumber" v="34"/>
    <tag k="addr:street" v="Бурцевская улица"/>
    <tag k="building" v="yes"/>
  </way>
  <way id="114126726" version="2" timestamp="2012-03-26T08:14:08Z" uid="481934" user="iWowik" changeset="11103186">
    <nd ref="1293262262"/>
    <nd ref="1293262278"/>
    <nd ref="1293262331"/>
    <nd ref="1293262287"/>
    <nd ref="1293262276"/>
    <nd ref="1293262377"/>
    <nd ref="1293262262"/>
    <tag k="addr:city" v="Москва"/>
    <tag k="addr:country" v="RU"/>
    <tag k="addr:housenumber" v="34"/>
    <tag k="addr:street" v="Бурцевская улица"/>
    <tag k="building" v="yes"/>
  </way>
  <way id="114126727" version="1" timestamp="2011-05-20T14:07:44Z" uid="115477" user="wowik" changeset="8198206">
    <nd ref="1293262240"/>
    <nd ref="1293262263"/>
    <nd ref="1293262360"/>
    <nd ref="1293262346"/>
    <nd ref="1293262240"/>
    <tag k="building" v="yes"/>
  </way>
  <way id="114126727" version="2" timestamp="2012-03-26T08:14:27Z" uid="481934" user="iWowik" changeset="11103186">
    <nd ref="1293262240"/>
    <nd ref="1293262263"/>
    <nd ref="1293262360"/>
    <nd ref="1293262346"/>
    <nd ref="1293262240"/>
    <tag k="addr:city" v="Москва"/>
    <tag k="addr:country" v="RU"/>
    <tag k="building" v="yes"/>
  </way>
  <way id="114126728" version="1" timestamp="2011-05-20T14:07:44Z" uid="115477" user="wowik" changeset="8198206">
    <nd ref="1293262340"/>
    <nd ref="1293262311"/>
    <nd ref="1293262268"/>
    <nd ref="1293262328"/>
    <nd ref="1293262340"/>
    <tag k="building" v="yes"/>
  </way>
  <way id="114126728" version="2" timestamp="2012-03-26T08:14:19Z" uid="481934" user="iWowik" changeset="11103186">
    <nd ref="1293262340"/>
    <nd ref="1293262311"/>
    <nd ref="1293262268"/>
    <nd ref="1293262328"/>
    <nd ref="1293262340"/>
    <tag k="addr:city" v="Москва"/>
    <tag k="addr:country" v="RU"/>
    <tag k="building" v="yes"/>
  </way>
  <way id="114126729" version="1" timestamp="2011-05-20T14:07:44Z" uid="115477" user="wowik" changeset="8198206">
    <nd ref="1293262358"/>
    <nd ref="1293262238"/>
    <nd ref="1293262304"/>
    <nd ref="1293262264"/>
    <nd ref="1293262358"/>
    <tag k="building" v="yes"/>
  </way>
  <way id="114126729" version="2" timestamp="2012-03-26T08:14:31Z" uid="481934" user="iWowik" changeset="11103186">
    <nd ref="1293262358"/>
    <nd ref="1293262238"/>
    <nd ref="1293262304"/>
    <nd ref="1293262264"/>
    <nd ref="1293262358"/>
    <tag k="addr:city" v="Москва"/>
    <tag k="addr:country" v="RU"/>
    <tag k="building" v="yes"/>
  </way>
  <way id="114126730" version="1" timestamp="2011-05-20T14:07:44Z" uid="115477" user="wowik" changeset="8198206">
    <nd ref="1293262373"/>
    <nd ref="1293262272"/>
    <nd ref="1293262374"/>
    <nd ref="1293262366"/>
    <nd ref="1293262373"/>
    <tag k="building" v="yes"/>
  </way>
  <way id="114126730" version="2" timestamp="2012-03-26T08:14:41Z" uid="481934" user="iWowik" changeset="11103186">
    <nd ref="1293262373"/>
    <nd ref="1293262272"/>
    <nd ref="1293262374"/>
    <nd ref="1293262366"/>
    <nd ref="1293262373"/>
    <tag k="addr:city" v="Москва"/>
    <tag k="addr:country" v="RU"/>
    <tag k="building" v="yes"/>
  </way>
  <way id="114126731" version="1" timestamp="2011-05-20T14:07:44Z" uid="115477" user="wowik" changeset="8198206">
    <nd ref="1293262274"/>
    <nd ref="1293262299"/>
    <nd ref="1293262261"/>
    <nd ref="1293262308"/>
    <nd ref="1293262274"/>
    <tag k="building" v="yes"/>
  </way>
  <way id="114126731" version="2" timestamp="2012-03-26T08:14:51Z" uid="481934" user="iWowik" changeset="11103186">
    <nd ref="1293262274"/>
    <nd ref="1293262299"/>
    <nd ref="1293262261"/>
    <nd ref="1293262308"/>
    <nd ref="1293262274"/>
    <tag k="addr:city" v="Москва"/>
    <tag k="addr:country" v="RU"/>
    <tag k="building" v="yes"/>
  </way>
  <way id="114126732" version="1" timestamp="2011-05-20T14:07:44Z" uid="115477" user="wowik" changeset="8198206">
    <nd ref="1293262370"/>
    <nd ref="1293262254"/>
    <nd ref="1293262349"/>
    <nd ref="1293262334"/>
    <nd ref="1293262370"/>
    <tag k="building" v="yes"/>
  </way>
  <way id="114126732" version="2" timestamp="2012-03-26T08:14:47Z" uid="481934" user="iWowik" changeset="11103186">
    <nd ref="1293262370"/>
    <nd ref="1293262254"/>
    <nd ref="1293262349"/>
    <nd ref="1293262334"/>
    <nd ref="1293262370"/>
    <tag k="addr:city" v="Москва"/>
    <tag k="addr:country" v="RU"/>
    <tag k="building" v="yes"/>
  </way>
  <way id="114126733" version="1" timestamp="2011-05-20T14:07:44Z" uid="115477" user="wowik" changeset="8198206">
    <nd ref="1293262244"/>
    <nd ref="1293262320"/>
    <nd ref="1293262307"/>
    <nd ref="1293262266"/>
    <nd ref="1293262244"/>
    <tag k="building" v="yes"/>
  </way>
  <way id="114126733" version="2" timestamp="2012-03-26T08:14:22Z" uid="481934" user="iWowik" changeset="11103186">
    <nd ref="1293262244"/>
    <nd ref="1293262320"/>
    <nd ref="1293262307"/>
    <nd ref="1293262266"/>
    <nd ref="1293262244"/>
    <tag k="addr:city" v="Москва"/>
    <tag k="addr:country" v="RU"/>
    <tag k="building" v="yes"/>
  </way>
  <way id="114126734" version="1" timestamp="2011-05-20T14:07:45Z" uid="115477" user="wowik" changeset="8198206">
    <nd ref="1293262277"/>
    <nd ref="1293262302"/>
    <nd ref="1293262289"/>
    <nd ref="1293262251"/>
    <nd ref="1293262277"/>
    <tag k="addr:housenumber" v="67"/>
    <tag k="addr:street" v="Бурцевская улица"/>
    <tag k="building" v="yes"/>
  </way>
  <way id="114126734" version="2" timestamp="2012-03-26T08:14:16Z" uid="481934" user="iWowik" changeset="11103186">
    <nd ref="1293262277"/>
    <nd ref="1293262302"/>
    <nd ref="1293262289"/>
    <nd ref="1293262251"/>
    <nd ref="1293262277"/>
    <tag k="addr:city" v="Москва"/>
    <tag k="addr:country" v="RU"/>
    <tag k="addr:housenumber" v="67"/>
    <tag k="addr:street" v="Бурцевская улица"/>
    <tag k="building" v="yes"/>
  </way>
  <way id="114126735" version="1" timestamp="2011-05-20T14:07:45Z" uid="115477" user="wowik" changeset="8198206">
    <nd ref="1293262256"/>
    <nd ref="1293262326"/>
    <nd ref="1293262259"/>
    <nd ref="1293262353"/>
    <nd ref="1293262256"/>
    <tag k="building" v="yes"/>
  </way>
  <way id="114126735" version="2" timestamp="2012-03-26T08:14:44Z" uid="481934" user="iWowik" changeset="11103186">
    <nd ref="1293262256"/>
    <nd ref="1293262326"/>
    <nd ref="1293262259"/>
    <nd ref="1293262353"/>
    <nd ref="1293262256"/>
    <tag k="addr:city" v="Москва"/>
    <tag k="addr:country" v="RU"/>
    <tag k="building" v="yes"/>
  </way>
  <way id="114126736" version="1" timestamp="2011-05-20T14:07:45Z" uid="115477" user="wowik" changeset="8198206">
    <nd ref="1293262363"/>
    <nd ref="1293262292"/>
    <nd ref="1293262280"/>
    <nd ref="1293262243"/>
    <nd ref="1293262363"/>
    <tag k="building" v="yes"/>
  </way>
  <way id="114126736" version="2" timestamp="2012-03-26T08:14:42Z" uid="481934" user="iWowik" changeset="11103186">
    <nd ref="1293262363"/>
    <nd ref="1293262292"/>
    <nd ref="1293262280"/>
    <nd ref="1293262243"/>
    <nd ref="1293262363"/>
    <tag k="addr:city" v="Москва"/>
    <tag k="addr:country" v="RU"/>
    <tag k="building" v="yes"/>
  </way>
  <way id="114126737" version="1" timestamp="2011-05-20T14:07:45Z" uid="115477" user="wowik" changeset="8198206">
    <nd ref="1293262348"/>
    <nd ref="1293262351"/>
    <nd ref="1293262306"/>
    <nd ref="1293262293"/>
    <nd ref="1293262348"/>
    <tag k="building" v="yes"/>
  </way>
  <way id="114126737" version="2" timestamp="2012-03-26T08:14:54Z" uid="481934" user="iWowik" changeset="11103186">
    <nd ref="1293262348"/>
    <nd ref="1293262351"/>
    <nd ref="1293262306"/>
    <nd ref="1293262293"/>
    <nd ref="1293262348"/>
    <tag k="addr:city" v="Москва"/>
    <tag k="addr:country" v="RU"/>
    <tag k="building" v="yes"/>
  </way>
  <way id="114126738" version="1" timestamp="2011-05-20T14:07:45Z" uid="115477" user="wowik" changeset="8198206">
    <nd ref="1293262260"/>
    <nd ref="1293262273"/>
    <nd ref="1293262267"/>
    <nd ref="1293262367"/>
    <nd ref="1293262260"/>
    <tag k="addr:housenumber" v="30"/>
    <tag k="addr:street" v="Бурцевская улица"/>
    <tag k="building" v="yes"/>
  </way>
  <way id="114126738" version="2" timestamp="2012-03-26T08:14:04Z" uid="481934" user="iWowik" changeset="11103186">
    <nd ref="1293262260"/>
    <nd ref="1293262273"/>
    <nd ref="1293262267"/>
    <nd ref="1293262367"/>
    <nd ref="1293262260"/>
    <tag k="addr:city" v="Москва"/>
    <tag k="addr:country" v="RU"/>
    <tag k="addr:housenumber" v="30"/>
    <tag k="addr:street" v="Бурцевская улица"/>
    <tag k="building" v="yes"/>
  </way>
  <way id="114126739" version="1" timestamp="2011-05-20T14:07:45Z" uid="115477" user="wowik" changeset="8198206">
    <nd ref="1293262319"/>
    <nd ref="1293262337"/>
    <nd ref="1293262294"/>
    <nd ref="1293262281"/>
    <nd ref="1293262319"/>
    <tag k="building" v="yes"/>
  </way>
  <way id="114126739" version="2" timestamp="2012-03-26T08:14:39Z" uid="481934" user="iWowik" changeset="11103186">
    <nd ref="1293262319"/>
    <nd ref="1293262337"/>
    <nd ref="1293262294"/>
    <nd ref="1293262281"/>
    <nd ref="1293262319"/>
    <tag k="addr:city" v="Москва"/>
    <tag k="addr:country" v="RU"/>
    <tag k="building" v="yes"/>
  </way>
  <way id="114126740" version="1" timestamp="2011-05-20T14:07:45Z" uid="115477" user="wowik" changeset="8198206">
    <nd ref="1293262283"/>
    <nd ref="1293262309"/>
    <nd ref="1293262295"/>
    <nd ref="1293262257"/>
    <nd ref="1293262283"/>
    <tag k="building" v="yes"/>
  </way>
  <way id="114126740" version="2" timestamp="2012-03-26T08:14:34Z" uid="481934" user="iWowik" changeset="11103186">
    <nd ref="1293262283"/>
    <nd ref="1293262309"/>
    <nd ref="1293262295"/>
    <nd ref="1293262257"/>
    <nd ref="1293262283"/>
    <tag k="addr:city" v="Москва"/>
    <tag k="addr:country" v="RU"/>
    <tag k="building" v="yes"/>
  </way>
  <way id="114126741" version="1" timestamp="2011-05-20T14:07:46Z" uid="115477" user="wowik" changeset="8198206">
    <nd ref="1293262248"/>
    <nd ref="1293262354"/>
    <nd ref="1293262312"/>
    <nd ref="1293262252"/>
    <nd ref="1293262345"/>
    <nd ref="1293262290"/>
    <nd ref="1293262359"/>
    <nd ref="1293262316"/>
    <nd ref="1293262248"/>
    <tag k="addr:housenumber" v="32"/>
    <tag k="addr:street" v="Бурцевская улица"/>
    <tag k="building" v="yes"/>
  </way>
  <way id="114126741" version="2" timestamp="2012-03-26T08:14:07Z" uid="481934" user="iWowik" changeset="11103186">
    <nd ref="1293262248"/>
    <nd ref="1293262354"/>
    <nd ref="1293262312"/>
    <nd ref="1293262252"/>
    <nd ref="1293262345"/>
    <nd ref="1293262290"/>
    <nd ref="1293262359"/>
    <nd ref="1293262316"/>
    <nd ref="1293262248"/>
    <tag k="addr:city" v="Москва"/>
    <tag k="addr:country" v="RU"/>
    <tag k="addr:housenumber" v="32"/>
    <tag k="addr:street" v="Бурцевская улица"/>
    <tag k="building" v="yes"/>
  </way>
  <way id="114126742" version="1" timestamp="2011-05-20T14:07:46Z" uid="115477" user="wowik" changeset="8198206">
    <nd ref="1293262313"/>
    <nd ref="1293262249"/>
    <nd ref="1293262375"/>
    <nd ref="1293262327"/>
    <nd ref="1293262247"/>
    <nd ref="1293262338"/>
    <nd ref="1293262325"/>
    <nd ref="1293262282"/>
    <nd ref="1293262352"/>
    <nd ref="1293262310"/>
    <nd ref="1293262296"/>
    <nd ref="1293262258"/>
    <nd ref="1293262332"/>
    <nd ref="1293262288"/>
    <nd ref="1293262313"/>
    <tag k="building" v="yes"/>
  </way>
  <way id="114126742" version="2" timestamp="2012-03-26T08:14:17Z" uid="481934" user="iWowik" changeset="11103186">
    <nd ref="1293262313"/>
    <nd ref="1293262249"/>
    <nd ref="1293262375"/>
    <nd ref="1293262327"/>
    <nd ref="1293262247"/>
    <nd ref="1293262338"/>
    <nd ref="1293262325"/>
    <nd ref="1293262282"/>
    <nd ref="1293262352"/>
    <nd ref="1293262310"/>
    <nd ref="1293262296"/>
    <nd ref="1293262258"/>
    <nd ref="1293262332"/>
    <nd ref="1293262288"/>
    <nd ref="1293262313"/>
    <tag k="addr:city" v="Москва"/>
    <tag k="addr:country" v="RU"/>
    <tag k="building" v="yes"/>
  </way>
  <way id="114126743" version="1" timestamp="2011-05-20T14:07:46Z" uid="115477" user="wowik" changeset="8198206">
    <nd ref="1293262291"/>
    <nd ref="1293262371"/>
    <nd ref="1293262362"/>
    <nd ref="1293262317"/>
    <nd ref="1293262291"/>
    <tag k="building" v="yes"/>
  </way>
  <way id="114126743" version="2" timestamp="2012-03-26T08:14:32Z" uid="481934" user="iWowik" changeset="11103186">
    <nd ref="1293262291"/>
    <nd ref="1293262371"/>
    <nd ref="1293262362"/>
    <nd ref="1293262317"/>
    <nd ref="1293262291"/>
    <tag k="addr:city" v="Москва"/>
    <tag k="addr:country" v="RU"/>
    <tag k="building" v="yes"/>
  </way>
  <way id="114126744" version="1" timestamp="2011-05-20T14:07:46Z" uid="115477" user="wowik" changeset="8198206">
    <nd ref="1293262265"/>
    <nd ref="1293262372"/>
    <nd ref="1293262324"/>
    <nd ref="1293262255"/>
    <nd ref="1293262265"/>
    <tag k="building" v="yes"/>
  </way>
  <way id="114126744" version="2" timestamp="2012-03-26T08:14:23Z" uid="481934" user="iWowik" changeset="11103186">
    <nd ref="1293262265"/>
    <nd ref="1293262372"/>
    <nd ref="1293262324"/>
    <nd ref="1293262255"/>
    <nd ref="1293262265"/>
    <tag k="addr:city" v="Москва"/>
    <tag k="addr:country" v="RU"/>
    <tag k="building" v="yes"/>
  </way>
  <way id="114126745" version="1" timestamp="2011-05-20T14:07:46Z" uid="115477" user="wowik" changeset="8198206">
    <nd ref="1293262344"/>
    <nd ref="1293262368"/>
    <nd ref="1293262323"/>
    <nd ref="1293262253"/>
    <nd ref="1293262344"/>
    <tag k="addr:housenumber" v="26"/>
    <tag k="addr:street" v="Бурцевская улица"/>
    <tag k="building" v="yes"/>
  </way>
  <way id="114126745" version="2" timestamp="2012-03-26T08:13:57Z" uid="481934" user="iWowik" changeset="11103186">
    <nd ref="1293262344"/>
    <nd ref="1293262368"/>
    <nd ref="1293262323"/>
    <nd ref="1293262253"/>
    <nd ref="1293262344"/>
    <tag k="addr:city" v="Москва"/>
    <tag k="addr:country" v="RU"/>
    <tag k="addr:housenumber" v="26"/>
    <tag k="addr:street" v="Бурцевская улица"/>
    <tag k="building" v="yes"/>
  </way>
  <way id="114126281" version="2" timestamp="2012-07-20T13:45:35Z" uid="722137" user="OSMF Redaction Account" changeset="12378220"/>
  <way id="114126282" version="3" timestamp="2012-07-20T13:45:41Z" uid="722137" user="OSMF Redaction Account" changeset="12378220"/>
  <way id="114126284" version="2" timestamp="2012-07-20T13:45:35Z" uid="722137" user="OSMF Redaction Account" changeset="12378220"/>
  <way id="114126285" version="3" timestamp="2012-07-20T13:45:40Z" uid="722137" user="OSMF Redaction Account" changeset="12378220"/>
  <way id="114126286" version="3" timestamp="2012-07-20T13:45:41Z" uid="722137" user="OSMF Redaction Account" changeset="12378220"/>
  <way id="114126290" version="2" timestamp="2012-07-20T13:45:40Z" uid="722137" user="OSMF Redaction Account" changeset="12378220"/>
  <way id="114126293" version="2" timestamp="2012-07-20T13:45:39Z" uid="722137" user="OSMF Redaction Account" changeset="12378220"/>
  <way id="114126294" version="3" timestamp="2012-07-20T13:45:40Z" uid="722137" user="OSMF Redaction Account" changeset="12378220"/>
  <way id="114126296" version="3" timestamp="2012-07-20T13:45:40Z" uid="722137" user="OSMF Redaction Account" changeset="12378220"/>
  <way id="114126297" version="2" timestamp="2012-07-20T13:45:35Z" uid="722137" user="OSMF Redaction Account" changeset="12378220"/>
  <way id="114126299" version="2" timestamp="2012-07-20T13:45:30Z" uid="722137" user="OSMF Redaction Account" changeset="12378220"/>
  <way id="114126301" version="2" timestamp="2012-07-20T13:45:35Z" uid="722137" user="OSMF Redaction Account" changeset="12378220"/>
  <way id="114126302" version="3" timestamp="2012-07-20T13:45:41Z" uid="722137" user="OSMF Redaction Account" changeset="12378220"/>
  <way id="114126303" version="2" timestamp="2012-07-20T13:45:35Z" uid="722137" user="OSMF Redaction Account" changeset="12378220"/>
  <way id="114126304" version="3" timestamp="2012-07-20T13:45:39Z" uid="722137" user="OSMF Redaction Account" changeset="12378220"/>
  <way id="114126305" version="2" timestamp="2012-07-20T13:45:36Z" uid="722137" user="OSMF Redaction Account" changeset="12378220"/>
  <way id="114126306" version="2" timestamp="2012-07-20T13:45:34Z" uid="722137" user="OSMF Redaction Account" changeset="12378220"/>
  <way id="114126308" version="2" timestamp="2012-07-20T13:45:37Z" uid="722137" user="OSMF Redaction Account" changeset="12378220"/>
  <way id="114126310" version="3" timestamp="2012-07-20T13:45:41Z" uid="722137" user="OSMF Redaction Account" changeset="12378220"/>
  <way id="114126313" version="2" timestamp="2012-07-20T13:45:36Z" uid="722137" user="OSMF Redaction Account" changeset="12378220"/>
  <way id="114126586" version="3" timestamp="2012-07-20T13:45:38Z" uid="722137" user="OSMF Redaction Account" changeset="12378220"/>
  <way id="114126588" version="3" timestamp="2012-07-20T13:45:39Z" uid="722137" user="OSMF Redaction Account" changeset="12378220"/>
  <way id="114126590" version="3" timestamp="2012-07-20T13:45:40Z" uid="722137" user="OSMF Redaction Account" changeset="12378220"/>
  <way id="114126591" version="3" timestamp="2012-07-20T13:45:38Z" uid="722137" user="OSMF Redaction Account" changeset="12378220"/>
  <way id="114126592" version="3" timestamp="2012-07-20T13:45:39Z" uid="722137" user="OSMF Redaction Account" changeset="12378220"/>
  <way id="114126594" version="3" timestamp="2012-07-20T13:45:38Z" uid="722137" user="OSMF Redaction Account" changeset="12378220"/>
  <way id="114126595" version="3" timestamp="2012-07-20T13:45:39Z" uid="722137" user="OSMF Redaction Account" changeset="12378220"/>
  <way id="114126598" version="3" timestamp="2012-07-20T13:45:39Z" uid="722137" user="OSMF Redaction Account" changeset="12378220"/>
  <way id="114126599" version="3" timestamp="2012-07-20T13:45:39Z" uid="722137" user="OSMF Redaction Account" changeset="12378220"/>
  <way id="114126600" version="3" timestamp="2012-07-20T13:45:38Z" uid="722137" user="OSMF Redaction Account" changeset="12378220"/>
  <way id="114126601" version="3" timestamp="2012-07-20T13:45:39Z" uid="722137" user="OSMF Redaction Account" changeset="12378220"/>
  <way id="114126719" version="3" timestamp="2012-07-20T13:45:38Z" uid="722137" user="OSMF Redaction Account" changeset="12378220"/>
  <way id="114126720" version="3" timestamp="2012-07-20T13:45:36Z" uid="722137" user="OSMF Redaction Account" changeset="12378220"/>
  <way id="114126721" version="3" timestamp="2012-07-20T13:45:38Z" uid="722137" user="OSMF Redaction Account" changeset="12378220"/>
  <way id="114126722" version="3" timestamp="2012-07-20T13:45:37Z" uid="722137" user="OSMF Redaction Account" changeset="12378220"/>
  <way id="114126723" version="3" timestamp="2012-07-20T13:45:39Z" uid="722137" user="OSMF Redaction Account" changeset="12378220"/>
  <way id="114126724" version="3" timestamp="2012-07-20T13:45:39Z" uid="722137" user="OSMF Redaction Account" changeset="12378220"/>
  <way id="114126725" version="3" timestamp="2012-07-20T13:45:38Z" uid="722137" user="OSMF Redaction Account" changeset="12378220"/>
  <way id="114126726" version="3" timestamp="2012-07-20T13:45:38Z" uid="722137" user="OSMF Redaction Account" changeset="12378220"/>
  <way id="114126727" version="3" timestamp="2012-07-20T13:45:38Z" uid="722137" user="OSMF Redaction Account" changeset="12378220"/>
  <way id="114126728" version="3" timestamp="2012-07-20T13:45:39Z" uid="722137" user="OSMF Redaction Account" changeset="12378220"/>
  <way id="114126729" version="3" timestamp="2012-07-20T13:45:40Z" uid="722137" user="OSMF Redaction Account" changeset="12378220"/>
  <way id="114126730" version="3" timestamp="2012-07-20T13:45:37Z" uid="722137" user="OSMF Redaction Account" changeset="12378220"/>
  <way id="114126731" version="3" timestamp="2012-07-20T13:45:39Z" uid="722137" user="OSMF Redaction Account" changeset="12378220"/>
  <way id="114126732" version="3" timestamp="2012-07-20T13:45:38Z" uid="722137" user="OSMF Redaction Account" changeset="12378220"/>
  <way id="114126733" version="3" timestamp="2012-07-20T13:45:37Z" uid="722137" user="OSMF Redaction Account" changeset="12378220"/>
  <way id="114126734" version="3" timestamp="2012-07-20T13:45:38Z" uid="722137" user="OSMF Redaction Account" changeset="12378220"/>
  <way id="114126735" version="3" timestamp="2012-07-20T13:45:39Z" uid="722137" user="OSMF Redaction Account" changeset="12378220"/>
  <way id="114126736" version="3" timestamp="2012-07-20T13:45:38Z" uid="722137" user="OSMF Redaction Account" changeset="12378220"/>
  <way id="114126737" version="3" timestamp="2012-07-20T13:45:40Z" uid="722137" user="OSMF Redaction Account" changeset="12378220"/>
  <way id="114126738" version="3" timestamp="2012-07-20T13:45:38Z" uid="722137" user="OSMF Redaction Account" changeset="12378220"/>
  <way id="114126739" version="3" timestamp="2012-07-20T13:45:40Z" uid="722137" user="OSMF Redaction Account" changeset="12378220"/>
  <way id="114126740" version="3" timestamp="2012-07-20T13:45:37Z" uid="722137" user="OSMF Redaction Account" changeset="12378220"/>
  <way id="114126741" version="3" timestamp="2012-07-20T13:45:38Z" uid="722137" user="OSMF Redaction Account" changeset="12378220"/>
  <way id="114126742" version="3" timestamp="2012-07-20T13:45:37Z" uid="722137" user="OSMF Redaction Account" changeset="12378220"/>
  <way id="114126743" version="3" timestamp="2012-07-20T13:45:39Z" uid="722137" user="OSMF Redaction Account" changeset="12378220"/>
  <way id="114126744" version="3" timestamp="2012-07-20T13:45:37Z" uid="722137" user="OSMF Redaction Account" changeset="12378220"/>
  <way id="114126745" version="3" timestamp="2012-07-20T13:45:39Z" uid="722137" user="OSMF Redaction Account" changeset="12378220"/>
</osm>
