<?xml version='1.0' encoding='UTF-8'?>
<osm version="0.6" generator="libosmium/2.20.0">
  <way id="11437189" version="1" timestamp="2007-11-08T04:22:28Z" uid="7617" user="Franc" changeset="441827">
    <nd ref="12603327"/>
    <nd ref="101876206"/>
    <tag k="created_by" v="JOSM"/>
    <tag k="highway" v="residential"/>
    <tag k="oneway" v="yes"/>
    <tag k="source" v="Yahoo Imagery"/>
    <tag k="source:oneway" v="survey"/>
  </way>
  <way id="11437189" version="2" timestamp="2008-03-25T02:40:01Z" uid="7617" user="Franc" changeset="389545">
    <nd ref="12603327"/>
    <nd ref="101876206"/>
    <tag k="created_by" v="JOSM"/>
    <tag k="highway" v="residential"/>
    <tag k="name" v="Maria Street"/>
    <tag k="oneway" v="yes"/>
    <tag k="source" v="survey"/>
  </way>
  <way id="11437189" version="3" timestamp="2010-07-08T02:55:32Z" uid="74617" user="JohnSmith" changeset="5163091">
    <nd ref="12603327"/>
    <nd ref="101876206"/>
    <tag k="highway" v="residential"/>
    <tag k="maxspeed" v="50"/>
    <tag k="maxspeed:source" v="default residential speed limit in Australia"/>
    <tag k="name" v="Maria Street"/>
    <tag k="oneway" v="yes"/>
    <tag k="source" v="survey"/>
  </way>
  <way id="11437189" version="4" timestamp="2012-01-15T10:44:07Z" uid="147510" user="woodpeck_fixbot" changeset="10396281">
    <nd ref="12603327"/>
    <nd ref="101876206"/>
    <tag k="highway" v="residential"/>
    <tag k="name" v="Maria Street"/>
    <tag k="oneway" v="yes"/>
    <tag k="source" v="survey"/>
  </way>
  <way id="11437189" version="5" timestamp="2012-06-09T22:45:14Z" uid="20949" user="Ebenezer" changeset="11849596">
    <nd ref="1782049577"/>
    <nd ref="101876206"/>
    <tag k="highway" v="residential"/>
    <tag k="name" v="Maria Street"/>
    <tag k="oneway" v="yes"/>
    <tag k="source" v="survey"/>
  </way>
  <way id="11437189" version="6" timestamp="2012-07-20T02:51:56Z" uid="722137" user="OSMF Redaction Account" changeset="12358709"/>
</osm>
