<?xml version='1.0' encoding='UTF-8'?>
<osm version="0.6" generator="libosmium/2.20.0">
  <way id="114552883" version="1" timestamp="2011-05-23T15:30:22Z" uid="115477" user="wowik" changeset="8225200">
    <nd ref="1297372144"/>
    <nd ref="1297372172"/>
    <nd ref="1297372084"/>
    <nd ref="1297372055"/>
    <nd ref="1297372144"/>
    <tag k="building" v="yes"/>
    <tag k="building:levels" v="1"/>
  </way>
  <way id="114552884" version="1" timestamp="2011-05-23T15:30:22Z" uid="115477" user="wowik" changeset="8225200">
    <nd ref="1297372263"/>
    <nd ref="1297372205"/>
    <nd ref="1297372156"/>
    <nd ref="1297372181"/>
    <nd ref="1297372263"/>
    <tag k="addr:city" v="Москва"/>
    <tag k="addr:country" v="RU"/>
    <tag k="addr:housenumber" v="153"/>
    <tag k="addr:street" v="Ленинградское шоссе"/>
    <tag k="building" v="yes"/>
    <tag k="building:levels" v="1"/>
    <tag k="building:use" v="residential"/>
  </way>
  <way id="114552885" version="1" timestamp="2011-05-23T15:30:22Z" uid="115477" user="wowik" changeset="8225200">
    <nd ref="1297372202"/>
    <nd ref="1297372292"/>
    <nd ref="1297372188"/>
    <nd ref="1297372159"/>
    <nd ref="1297372202"/>
    <tag k="building" v="yes"/>
    <tag k="building:levels" v="1"/>
  </way>
  <way id="114552886" version="1" timestamp="2011-05-23T15:30:22Z" uid="115477" user="wowik" changeset="8225200">
    <nd ref="1297372079"/>
    <nd ref="1297372344"/>
    <nd ref="1297372249"/>
    <nd ref="1297372151"/>
    <nd ref="1297372079"/>
    <tag k="building" v="yes"/>
    <tag k="building:levels" v="1"/>
  </way>
  <way id="114552887" version="1" timestamp="2011-05-23T15:30:22Z" uid="115477" user="wowik" changeset="8225200">
    <nd ref="1297372122"/>
    <nd ref="1297372087"/>
    <nd ref="1297372060"/>
    <nd ref="1297372283"/>
    <nd ref="1297372122"/>
  </way>
  <way id="114552887" version="2" timestamp="2011-05-25T16:14:58Z" uid="115477" user="wowik" changeset="8246135">
    <nd ref="1297372122"/>
    <nd ref="1297372087"/>
    <nd ref="1297372060"/>
    <nd ref="1297372283"/>
    <nd ref="1297372122"/>
    <tag k="addr:city" v="Москва"/>
    <tag k="addr:country" v="RU"/>
    <tag k="building" v="yes"/>
    <tag k="building:levels" v="1"/>
    <tag k="source" v="ggk"/>
  </way>
  <way id="114552888" version="1" timestamp="2011-05-23T15:30:22Z" uid="115477" user="wowik" changeset="8225200">
    <nd ref="1297372272"/>
    <nd ref="1297372216"/>
    <nd ref="1297372192"/>
    <nd ref="1297372096"/>
    <nd ref="1297372272"/>
    <tag k="building" v="yes"/>
    <tag k="building:levels" v="1"/>
  </way>
  <way id="114552889" version="1" timestamp="2011-05-23T15:30:23Z" uid="115477" user="wowik" changeset="8225200">
    <nd ref="1297372367"/>
    <nd ref="1297372075"/>
    <nd ref="1297372296"/>
    <nd ref="1297372270"/>
    <nd ref="1297372164"/>
    <nd ref="1297372138"/>
    <nd ref="1297372367"/>
    <tag k="addr:city" v="Москва"/>
    <tag k="addr:country" v="RU"/>
    <tag k="addr:housenumber" v="149"/>
    <tag k="addr:street" v="Ленинградское шоссе"/>
    <tag k="building" v="yes"/>
    <tag k="building:levels" v="1"/>
    <tag k="building:use" v="residential"/>
  </way>
  <way id="114552890" version="1" timestamp="2011-05-23T15:30:23Z" uid="115477" user="wowik" changeset="8225200">
    <nd ref="1297372246"/>
    <nd ref="1297372196"/>
    <nd ref="1297372099"/>
    <nd ref="1297372077"/>
    <nd ref="1297372246"/>
    <tag k="building" v="yes"/>
    <tag k="building:levels" v="1"/>
  </way>
  <way id="114552891" version="1" timestamp="2011-05-23T15:30:23Z" uid="115477" user="wowik" changeset="8225200">
    <nd ref="1297372235"/>
    <nd ref="1297372177"/>
    <nd ref="1297372147"/>
    <nd ref="1297372063"/>
    <nd ref="1297372349"/>
    <nd ref="1297372257"/>
    <nd ref="1297372232"/>
    <nd ref="1297372124"/>
    <nd ref="1297372235"/>
    <tag k="building" v="yes"/>
    <tag k="building:levels" v="1"/>
  </way>
  <way id="114552892" version="1" timestamp="2011-05-23T15:30:23Z" uid="115477" user="wowik" changeset="8225200">
    <nd ref="1297372095"/>
    <nd ref="1297372362"/>
    <nd ref="1297372267"/>
    <nd ref="1297372241"/>
    <nd ref="1297372137"/>
    <nd ref="1297372176"/>
    <nd ref="1297372089"/>
    <nd ref="1297372061"/>
    <nd ref="1297372095"/>
    <tag k="addr:city" v="Москва"/>
    <tag k="addr:country" v="RU"/>
    <tag k="addr:housenumber" v="50"/>
    <tag k="addr:street" v="Лужская улица"/>
    <tag k="building" v="yes"/>
    <tag k="building:levels" v="1"/>
    <tag k="building:use" v="residential"/>
  </way>
  <way id="114552893" version="1" timestamp="2011-05-23T15:30:23Z" uid="115477" user="wowik" changeset="8225200">
    <nd ref="1297372141"/>
    <nd ref="1297372171"/>
    <nd ref="1297372082"/>
    <nd ref="1297372368"/>
    <nd ref="1297372141"/>
    <tag k="building" v="yes"/>
    <tag k="building:levels" v="1"/>
  </way>
  <way id="114552894" version="1" timestamp="2011-05-23T15:30:23Z" uid="115477" user="wowik" changeset="8225200">
    <nd ref="1297372190"/>
    <nd ref="1297372208"/>
    <nd ref="1297372161"/>
    <nd ref="1297372116"/>
    <nd ref="1297372190"/>
    <tag k="addr:city" v="Москва"/>
    <tag k="addr:country" v="RU"/>
    <tag k="addr:housenumber" v="129"/>
    <tag k="addr:street" v="Ленинградское шоссе"/>
    <tag k="building" v="yes"/>
    <tag k="building:levels" v="1"/>
    <tag k="building:use" v="residential"/>
  </way>
  <way id="114552895" version="1" timestamp="2011-05-23T15:30:24Z" uid="115477" user="wowik" changeset="8225200">
    <nd ref="1297372269"/>
    <nd ref="1297372351"/>
    <nd ref="1297372258"/>
    <nd ref="1297372234"/>
    <nd ref="1297372126"/>
    <nd ref="1297372106"/>
    <nd ref="1297372269"/>
    <tag k="addr:city" v="Москва"/>
    <tag k="addr:country" v="RU"/>
    <tag k="addr:housenumber" v="175"/>
    <tag k="addr:street" v="Ленинградское шоссе"/>
    <tag k="building" v="yes"/>
    <tag k="building:levels" v="1"/>
    <tag k="building:use" v="residential"/>
  </way>
  <way id="114552896" version="1" timestamp="2011-05-23T15:30:24Z" uid="115477" user="wowik" changeset="8225200">
    <nd ref="1297372319"/>
    <nd ref="1297372340"/>
    <nd ref="1297372244"/>
    <nd ref="1297372211"/>
    <nd ref="1297372319"/>
    <tag k="addr:city" v="Москва"/>
    <tag k="addr:country" v="RU"/>
    <tag k="addr:housenumber" v="135"/>
    <tag k="addr:street" v="Ленинградское шоссе"/>
    <tag k="building" v="yes"/>
    <tag k="building:levels" v="1"/>
    <tag k="building:use" v="residential"/>
  </way>
  <way id="114552897" version="1" timestamp="2011-05-23T15:30:24Z" uid="115477" user="wowik" changeset="8225200">
    <nd ref="1297372132"/>
    <nd ref="1297372090"/>
    <nd ref="1297372309"/>
    <nd ref="1297372286"/>
    <nd ref="1297372182"/>
    <nd ref="1297372153"/>
    <nd ref="1297372067"/>
    <nd ref="1297372355"/>
    <nd ref="1297372132"/>
    <tag k="addr:city" v="Москва"/>
    <tag k="addr:country" v="RU"/>
    <tag k="addr:housenumber" v="165"/>
    <tag k="addr:street" v="Ленинградское шоссе"/>
    <tag k="building" v="yes"/>
    <tag k="building:levels" v="1"/>
    <tag k="building:use" v="residential"/>
  </way>
  <way id="114552898" version="1" timestamp="2011-05-23T15:30:24Z" uid="115477" user="wowik" changeset="8225200">
    <nd ref="1297372127"/>
    <nd ref="1297372146"/>
    <nd ref="1297372062"/>
    <nd ref="1297372348"/>
    <nd ref="1297372127"/>
    <tag k="building" v="yes"/>
    <tag k="building:levels" v="1"/>
  </way>
  <way id="114552899" version="1" timestamp="2011-05-23T15:30:24Z" uid="115477" user="wowik" changeset="8225200">
    <nd ref="1297372068"/>
    <nd ref="1297372332"/>
    <nd ref="1297372057"/>
    <nd ref="1297372279"/>
    <nd ref="1297372068"/>
    <tag k="building" v="yes"/>
    <tag k="building:levels" v="1"/>
  </way>
  <way id="114552900" version="1" timestamp="2011-05-23T15:30:25Z" uid="115477" user="wowik" changeset="8225200">
    <nd ref="1297372105"/>
    <nd ref="1297372069"/>
    <nd ref="1297372288"/>
    <nd ref="1297372264"/>
    <nd ref="1297372105"/>
    <tag k="building" v="yes"/>
    <tag k="building:levels" v="1"/>
  </way>
  <way id="114552901" version="1" timestamp="2011-05-23T15:30:25Z" uid="115477" user="wowik" changeset="8225200">
    <nd ref="1297372370"/>
    <nd ref="1297372323"/>
    <nd ref="1297372300"/>
    <nd ref="1297372198"/>
    <nd ref="1297372168"/>
    <nd ref="1297372078"/>
    <nd ref="1297372366"/>
    <nd ref="1297372274"/>
    <nd ref="1297372370"/>
    <tag k="addr:city" v="Москва"/>
    <tag k="addr:country" v="RU"/>
    <tag k="addr:housenumber" v="143"/>
    <tag k="addr:street" v="Ленинградское шоссе"/>
    <tag k="building" v="yes"/>
    <tag k="building:levels" v="1"/>
    <tag k="building:use" v="residential"/>
  </way>
  <way id="114552902" version="1" timestamp="2011-05-23T15:30:25Z" uid="115477" user="wowik" changeset="8225200">
    <nd ref="1297372238"/>
    <nd ref="1297372260"/>
    <nd ref="1297372152"/>
    <nd ref="1297372073"/>
    <nd ref="1297372238"/>
  </way>
  <way id="114552902" version="2" timestamp="2011-05-25T16:14:55Z" uid="115477" user="wowik" changeset="8246135">
    <nd ref="1297372238"/>
    <nd ref="1297372260"/>
    <nd ref="1297372152"/>
    <nd ref="1297372073"/>
    <nd ref="1297372238"/>
    <tag k="addr:city" v="Москва"/>
    <tag k="addr:country" v="RU"/>
    <tag k="building" v="yes"/>
    <tag k="building:levels" v="1"/>
    <tag k="source" v="ggk"/>
  </way>
  <way id="114552903" version="1" timestamp="2011-05-23T15:30:25Z" uid="115477" user="wowik" changeset="8225200">
    <nd ref="1297372361"/>
    <nd ref="1297372314"/>
    <nd ref="1297372289"/>
    <nd ref="1297372186"/>
    <nd ref="1297372361"/>
    <tag k="addr:city" v="Москва"/>
    <tag k="addr:country" v="RU"/>
    <tag k="addr:housenumber" v="145"/>
    <tag k="addr:street" v="Ленинградское шоссе"/>
    <tag k="building" v="yes"/>
    <tag k="building:levels" v="1"/>
    <tag k="building:use" v="residential"/>
  </way>
  <way id="114552904" version="1" timestamp="2011-05-23T15:30:25Z" uid="115477" user="wowik" changeset="8225200">
    <nd ref="1297372203"/>
    <nd ref="1297372148"/>
    <nd ref="1297372125"/>
    <nd ref="1297372350"/>
    <nd ref="1297372328"/>
    <nd ref="1297372233"/>
    <nd ref="1297372203"/>
    <tag k="addr:city" v="Москва"/>
    <tag k="addr:country" v="RU"/>
    <tag k="addr:street" v="Ленинградское шоссе"/>
    <tag k="building" v="yes"/>
    <tag k="building:levels" v="1"/>
    <tag k="building:use" v="residential"/>
  </way>
  <way id="114552905" version="1" timestamp="2011-05-23T15:30:26Z" uid="115477" user="wowik" changeset="8225200">
    <nd ref="1297372204"/>
    <nd ref="1297372155"/>
    <nd ref="1297372130"/>
    <nd ref="1297372357"/>
    <nd ref="1297372204"/>
    <tag k="addr:city" v="Москва"/>
    <tag k="addr:country" v="RU"/>
    <tag k="addr:housenumber" v="137"/>
    <tag k="addr:street" v="Ленинградское шоссе"/>
    <tag k="building" v="yes"/>
    <tag k="building:levels" v="1"/>
    <tag k="building:use" v="residential"/>
  </way>
  <way id="114552906" version="1" timestamp="2011-05-23T15:30:26Z" uid="115477" user="wowik" changeset="8225200">
    <nd ref="1297372337"/>
    <nd ref="1297372293"/>
    <nd ref="1297372189"/>
    <nd ref="1297372160"/>
    <nd ref="1297372337"/>
    <tag k="building" v="yes"/>
    <tag k="building:levels" v="1"/>
  </way>
  <way id="114552907" version="1" timestamp="2011-05-23T15:30:26Z" uid="115477" user="wowik" changeset="8225200">
    <nd ref="1297372134"/>
    <nd ref="1297372093"/>
    <nd ref="1297372324"/>
    <nd ref="1297372226"/>
    <nd ref="1297372134"/>
    <tag k="building" v="yes"/>
    <tag k="building:levels" v="1"/>
  </way>
  <way id="114552908" version="1" timestamp="2011-05-23T15:30:26Z" uid="115477" user="wowik" changeset="8225200">
    <nd ref="1297372072"/>
    <nd ref="1297372339"/>
    <nd ref="1297372316"/>
    <nd ref="1297372210"/>
    <nd ref="1297372072"/>
    <tag k="building" v="yes"/>
    <tag k="building:levels" v="1"/>
  </way>
  <way id="114552909" version="1" timestamp="2011-05-23T15:30:26Z" uid="115477" user="wowik" changeset="8225200">
    <nd ref="1297372325"/>
    <nd ref="1297372282"/>
    <nd ref="1297372252"/>
    <nd ref="1297372143"/>
    <nd ref="1297372120"/>
    <nd ref="1297372345"/>
    <nd ref="1297372262"/>
    <nd ref="1297372154"/>
    <nd ref="1297372325"/>
    <tag k="building" v="yes"/>
    <tag k="building:levels" v="1"/>
  </way>
  <way id="114552910" version="1" timestamp="2011-05-23T15:30:27Z" uid="115477" user="wowik" changeset="8225200">
    <nd ref="1297372112"/>
    <nd ref="1297372071"/>
    <nd ref="1297372291"/>
    <nd ref="1297372265"/>
    <nd ref="1297372112"/>
    <tag k="building" v="yes"/>
    <tag k="building:levels" v="1"/>
  </way>
  <way id="114552911" version="1" timestamp="2011-05-23T15:30:27Z" uid="115477" user="wowik" changeset="8225200">
    <nd ref="1297372365"/>
    <nd ref="1297372318"/>
    <nd ref="1297372213"/>
    <nd ref="1297372191"/>
    <nd ref="1297372365"/>
    <tag k="building" v="yes"/>
    <tag k="building:levels" v="1"/>
  </way>
  <way id="114552912" version="1" timestamp="2011-05-23T15:30:27Z" uid="115477" user="wowik" changeset="8225200">
    <nd ref="1297372305"/>
    <nd ref="1297372255"/>
    <nd ref="1297372145"/>
    <nd ref="1297372121"/>
    <nd ref="1297372305"/>
    <tag k="addr:city" v="Москва"/>
    <tag k="addr:country" v="RU"/>
    <tag k="addr:housenumber" v="155"/>
    <tag k="addr:street" v="Ленинградское шоссе"/>
    <tag k="building" v="yes"/>
    <tag k="building:levels" v="1"/>
    <tag k="building:use" v="residential"/>
  </way>
  <way id="114552913" version="1" timestamp="2011-05-23T15:30:27Z" uid="115477" user="wowik" changeset="8225200">
    <nd ref="1297372356"/>
    <nd ref="1297372308"/>
    <nd ref="1297372285"/>
    <nd ref="1297372179"/>
    <nd ref="1297372150"/>
    <nd ref="1297372065"/>
    <nd ref="1297372352"/>
    <nd ref="1297372259"/>
    <nd ref="1297372356"/>
    <tag k="addr:city" v="Москва"/>
    <tag k="addr:country" v="RU"/>
    <tag k="addr:housenumber" v="151"/>
    <tag k="addr:street" v="Ленинградское шоссе"/>
    <tag k="building" v="yes"/>
    <tag k="building:levels" v="1"/>
    <tag k="building:use" v="residential"/>
  </way>
  <way id="114552913" version="2" timestamp="2011-05-25T16:14:46Z" uid="115477" user="wowik" changeset="8246135">
    <nd ref="1297372356"/>
    <nd ref="1297372308"/>
    <nd ref="1297372285"/>
    <nd ref="1297372179"/>
    <nd ref="1297372150"/>
    <nd ref="1299810778"/>
    <nd ref="1297372065"/>
    <nd ref="1297372352"/>
    <nd ref="1297372259"/>
    <nd ref="1297372356"/>
    <tag k="addr:city" v="Москва"/>
    <tag k="addr:country" v="RU"/>
    <tag k="addr:housenumber" v="151"/>
    <tag k="addr:street" v="Ленинградское шоссе"/>
    <tag k="building" v="yes"/>
    <tag k="building:levels" v="1"/>
    <tag k="building:use" v="residential"/>
  </way>
  <way id="114552914" version="1" timestamp="2011-05-23T15:30:27Z" uid="115477" user="wowik" changeset="8225200">
    <nd ref="1297372359"/>
    <nd ref="1297372312"/>
    <nd ref="1297372287"/>
    <nd ref="1297372184"/>
    <nd ref="1297372359"/>
    <tag k="building" v="yes"/>
    <tag k="building:levels" v="1"/>
  </way>
  <way id="114552915" version="1" timestamp="2011-05-23T15:30:28Z" uid="115477" user="wowik" changeset="8225200">
    <nd ref="1297372341"/>
    <nd ref="1297372363"/>
    <nd ref="1297372268"/>
    <nd ref="1297372242"/>
    <nd ref="1297372341"/>
    <tag k="building" v="yes"/>
    <tag k="building:levels" v="1"/>
  </way>
  <way id="114552916" version="1" timestamp="2011-05-23T15:30:28Z" uid="115477" user="wowik" changeset="8225200">
    <nd ref="1297372091"/>
    <nd ref="1297372358"/>
    <nd ref="1297372330"/>
    <nd ref="1297372239"/>
    <nd ref="1297372091"/>
    <tag k="building" v="yes"/>
    <tag k="building:levels" v="1"/>
  </way>
  <way id="114552917" version="1" timestamp="2011-05-23T15:30:28Z" uid="115477" user="wowik" changeset="8225200">
    <nd ref="1297372277"/>
    <nd ref="1297372298"/>
    <nd ref="1297372195"/>
    <nd ref="1297372166"/>
    <nd ref="1297372277"/>
    <tag k="building" v="yes"/>
    <tag k="building:levels" v="1"/>
  </way>
  <way id="114552918" version="1" timestamp="2011-05-23T15:30:28Z" uid="115477" user="wowik" changeset="8225200">
    <nd ref="1297372140"/>
    <nd ref="1297372101"/>
    <nd ref="1297372322"/>
    <nd ref="1297372299"/>
    <nd ref="1297372197"/>
    <nd ref="1297372167"/>
    <nd ref="1297372140"/>
    <tag k="building" v="yes"/>
    <tag k="building:levels" v="1"/>
  </way>
  <way id="114552919" version="1" timestamp="2011-05-23T15:30:28Z" uid="115477" user="wowik" changeset="8225200">
    <nd ref="1297372336"/>
    <nd ref="1297372290"/>
    <nd ref="1297372187"/>
    <nd ref="1297372158"/>
    <nd ref="1297372336"/>
    <tag k="building" v="yes"/>
    <tag k="building:levels" v="1"/>
  </way>
  <way id="114552920" version="1" timestamp="2011-05-23T15:30:28Z" uid="115477" user="wowik" changeset="8225200">
    <nd ref="1297372320"/>
    <nd ref="1297372273"/>
    <nd ref="1297372245"/>
    <nd ref="1297372139"/>
    <nd ref="1297372320"/>
    <tag k="building" v="yes"/>
    <tag k="building:levels" v="1"/>
  </way>
  <way id="114552921" version="1" timestamp="2011-05-23T15:30:29Z" uid="115477" user="wowik" changeset="8225200">
    <nd ref="1297372180"/>
    <nd ref="1297372131"/>
    <nd ref="1297372170"/>
    <nd ref="1297372081"/>
    <nd ref="1297372180"/>
    <tag k="building" v="yes"/>
    <tag k="building:levels" v="1"/>
  </way>
  <way id="114552922" version="1" timestamp="2011-05-23T15:30:29Z" uid="115477" user="wowik" changeset="8225200">
    <nd ref="1297372364"/>
    <nd ref="1297372317"/>
    <nd ref="1297372338"/>
    <nd ref="1297372294"/>
    <nd ref="1297372315"/>
    <nd ref="1297372094"/>
    <nd ref="1297372364"/>
    <tag k="addr:city" v="Москва"/>
    <tag k="addr:country" v="RU"/>
    <tag k="addr:housenumber" v="131"/>
    <tag k="addr:street" v="Ленинградское шоссе"/>
    <tag k="building" v="yes"/>
    <tag k="building:levels" v="1"/>
    <tag k="building:use" v="residential"/>
  </way>
  <way id="114552923" version="1" timestamp="2011-05-23T15:30:29Z" uid="115477" user="wowik" changeset="8225200">
    <nd ref="1297372059"/>
    <nd ref="1297372083"/>
    <nd ref="1297372302"/>
    <nd ref="1297372278"/>
    <nd ref="1297372059"/>
    <tag k="building" v="yes"/>
    <tag k="building:levels" v="1"/>
  </way>
  <way id="114552924" version="1" timestamp="2011-05-23T15:30:29Z" uid="115477" user="wowik" changeset="8225200">
    <nd ref="1297372183"/>
    <nd ref="1297372133"/>
    <nd ref="1297372109"/>
    <nd ref="1297372331"/>
    <nd ref="1297372183"/>
    <tag k="addr:city" v="Москва"/>
    <tag k="addr:country" v="RU"/>
    <tag k="addr:housenumber" v="143"/>
    <tag k="addr:street" v="Ленинградское шоссе"/>
    <tag k="building" v="yes"/>
    <tag k="building:levels" v="1"/>
    <tag k="building:use" v="residential"/>
  </way>
  <way id="114552925" version="1" timestamp="2011-05-23T15:30:29Z" uid="115477" user="wowik" changeset="8225200">
    <nd ref="1297372169"/>
    <nd ref="1297372194"/>
    <nd ref="1297372098"/>
    <nd ref="1297372076"/>
    <nd ref="1297372297"/>
    <nd ref="1297372271"/>
    <nd ref="1297372165"/>
    <nd ref="1297372088"/>
    <nd ref="1297372307"/>
    <nd ref="1297372284"/>
    <nd ref="1297372169"/>
    <tag k="building" v="yes"/>
    <tag k="building:levels" v="1"/>
  </way>
  <way id="114552928" version="1" timestamp="2011-05-23T15:30:30Z" uid="115477" user="wowik" changeset="8225200">
    <nd ref="1297372243"/>
    <nd ref="1297372266"/>
    <nd ref="1297372162"/>
    <nd ref="1297372136"/>
    <nd ref="1297372243"/>
    <tag k="building" v="yes"/>
    <tag k="building:levels" v="1"/>
  </way>
  <way id="114552929" version="1" timestamp="2011-05-23T15:30:30Z" uid="115477" user="wowik" changeset="8225200">
    <nd ref="1297372306"/>
    <nd ref="1297372256"/>
    <nd ref="1297372230"/>
    <nd ref="1297372123"/>
    <nd ref="1297372104"/>
    <nd ref="1297372326"/>
    <nd ref="1297372303"/>
    <nd ref="1297372200"/>
    <nd ref="1297372240"/>
    <nd ref="1297372135"/>
    <nd ref="1297372110"/>
    <nd ref="1297372334"/>
    <nd ref="1297372306"/>
    <tag k="addr:city" v="Москва"/>
    <tag k="addr:country" v="RU"/>
    <tag k="addr:housenumber" v="48"/>
    <tag k="addr:street" v="Лужская улица"/>
    <tag k="building" v="yes"/>
    <tag k="building:levels" v="1"/>
    <tag k="building:use" v="residential"/>
  </way>
  <way id="114552932" version="1" timestamp="2011-05-23T15:30:30Z" uid="115477" user="wowik" changeset="8225200">
    <nd ref="1297372102"/>
    <nd ref="1297372371"/>
    <nd ref="1297372343"/>
    <nd ref="1297372248"/>
    <nd ref="1297372220"/>
    <nd ref="1297372119"/>
    <nd ref="1297372097"/>
    <nd ref="1297372321"/>
    <nd ref="1297372295"/>
    <nd ref="1297372193"/>
    <nd ref="1297372163"/>
    <nd ref="1297372074"/>
    <nd ref="1297372102"/>
    <tag k="addr:city" v="Москва"/>
    <tag k="addr:country" v="RU"/>
    <tag k="addr:street" v="Ленинградское шоссе"/>
    <tag k="building" v="yes"/>
    <tag k="building:levels" v="1"/>
    <tag k="building:use" v="residential"/>
  </way>
  <way id="114552934" version="1" timestamp="2011-05-23T15:30:30Z" uid="115477" user="wowik" changeset="8225200">
    <nd ref="1297372347"/>
    <nd ref="1297372304"/>
    <nd ref="1297372281"/>
    <nd ref="1297372175"/>
    <nd ref="1297372347"/>
    <tag k="building" v="yes"/>
    <tag k="building:levels" v="1"/>
  </way>
  <way id="114552935" version="1" timestamp="2011-05-23T15:30:30Z" uid="115477" user="wowik" changeset="8225200">
    <nd ref="1297372092"/>
    <nd ref="1297372173"/>
    <nd ref="1297372085"/>
    <nd ref="1297372056"/>
    <nd ref="1297372092"/>
    <tag k="addr:city" v="Москва"/>
    <tag k="addr:country" v="RU"/>
    <tag k="addr:housenumber" v="46"/>
    <tag k="addr:street" v="Лужская улица"/>
    <tag k="building" v="yes"/>
    <tag k="building:levels" v="1"/>
    <tag k="building:use" v="residential"/>
  </way>
  <way id="114552936" version="1" timestamp="2011-05-23T15:30:31Z" uid="115477" user="wowik" changeset="8225200">
    <nd ref="1297372157"/>
    <nd ref="1297372111"/>
    <nd ref="1297372335"/>
    <nd ref="1297372311"/>
    <nd ref="1297372157"/>
    <tag k="building" v="yes"/>
    <tag k="building:levels" v="1"/>
  </way>
  <way id="114552937" version="1" timestamp="2011-05-23T15:30:31Z" uid="115477" user="wowik" changeset="8225200">
    <nd ref="1297372275"/>
    <nd ref="1297372225"/>
    <nd ref="1297372128"/>
    <nd ref="1297372353"/>
    <nd ref="1297372275"/>
    <tag k="building" v="yes"/>
    <tag k="building:levels" v="1"/>
  </way>
  <way id="114552938" version="1" timestamp="2011-05-23T15:30:31Z" uid="115477" user="wowik" changeset="8225200">
    <nd ref="1297372327"/>
    <nd ref="1297372346"/>
    <nd ref="1297372253"/>
    <nd ref="1297372228"/>
    <nd ref="1297372327"/>
    <tag k="building" v="yes"/>
    <tag k="building:levels" v="1"/>
  </way>
  <way id="114552939" version="1" timestamp="2011-05-23T15:30:31Z" uid="115477" user="wowik" changeset="8225200">
    <nd ref="1297372254"/>
    <nd ref="1297372201"/>
    <nd ref="1297372174"/>
    <nd ref="1297372086"/>
    <nd ref="1297372058"/>
    <nd ref="1297372280"/>
    <nd ref="1297372251"/>
    <nd ref="1297372142"/>
    <nd ref="1297372254"/>
    <tag k="addr:city" v="Москва"/>
    <tag k="addr:country" v="RU"/>
    <tag k="addr:housenumber" v="167"/>
    <tag k="addr:street" v="Ленинградское шоссе"/>
    <tag k="building" v="yes"/>
    <tag k="building:levels" v="1"/>
    <tag k="building:use" v="residential"/>
  </way>
  <way id="114552940" version="1" timestamp="2011-05-23T15:30:31Z" uid="115477" user="wowik" changeset="8225200">
    <nd ref="1297372070"/>
    <nd ref="1297372333"/>
    <nd ref="1297372310"/>
    <nd ref="1297372206"/>
    <nd ref="1297372070"/>
    <tag k="building" v="yes"/>
    <tag k="building:levels" v="1"/>
  </way>
  <way id="114552941" version="1" timestamp="2011-05-23T15:30:32Z" uid="115477" user="wowik" changeset="8225200">
    <nd ref="1297372250"/>
    <nd ref="1297372199"/>
    <nd ref="1297372103"/>
    <nd ref="1297372080"/>
    <nd ref="1297372250"/>
    <tag k="building" v="yes"/>
    <tag k="building:levels" v="1"/>
  </way>
  <way id="114552942" version="1" timestamp="2011-05-23T15:30:32Z" uid="115477" user="wowik" changeset="8225200">
    <nd ref="1297372108"/>
    <nd ref="1297372066"/>
    <nd ref="1297372354"/>
    <nd ref="1297372261"/>
    <nd ref="1297372236"/>
    <nd ref="1297372129"/>
    <nd ref="1297372107"/>
    <nd ref="1297372329"/>
    <nd ref="1297372108"/>
    <tag k="addr:city" v="Москва"/>
    <tag k="addr:country" v="RU"/>
    <tag k="addr:housenumber" v="157"/>
    <tag k="addr:street" v="Ленинградское шоссе"/>
    <tag k="building" v="yes"/>
    <tag k="building:levels" v="1"/>
    <tag k="building:use" v="residential"/>
  </way>
  <way id="114552943" version="1" timestamp="2011-05-23T15:30:32Z" uid="115477" user="wowik" changeset="8225200">
    <nd ref="1297372100"/>
    <nd ref="1297372369"/>
    <nd ref="1297372342"/>
    <nd ref="1297372247"/>
    <nd ref="1297372218"/>
    <nd ref="1297372118"/>
    <nd ref="1297372100"/>
    <tag k="building" v="yes"/>
    <tag k="building:levels" v="1"/>
  </way>
  <way id="114552944" version="1" timestamp="2011-05-23T15:30:32Z" uid="115477" user="wowik" changeset="8225200">
    <nd ref="1297372237"/>
    <nd ref="1297372178"/>
    <nd ref="1297372149"/>
    <nd ref="1297372064"/>
    <nd ref="1297372237"/>
    <tag k="addr:city" v="Москва"/>
    <tag k="addr:country" v="RU"/>
    <tag k="addr:housenumber" v="169"/>
    <tag k="addr:street" v="Ленинградское шоссе"/>
    <tag k="building" v="yes"/>
    <tag k="building:levels" v="1"/>
    <tag k="building:use" v="residential"/>
  </way>
  <way id="114552945" version="1" timestamp="2011-05-23T15:30:32Z" uid="115477" user="wowik" changeset="8225200">
    <nd ref="1297372360"/>
    <nd ref="1297372313"/>
    <nd ref="1297372207"/>
    <nd ref="1297372185"/>
    <nd ref="1297372360"/>
    <tag k="building" v="yes"/>
    <tag k="building:levels" v="1"/>
  </way>
  <way id="114552883" version="2" timestamp="2012-07-20T13:45:12Z" uid="722137" user="OSMF Redaction Account" changeset="12378204"/>
  <way id="114552884" version="2" timestamp="2012-07-20T13:45:15Z" uid="722137" user="OSMF Redaction Account" changeset="12378204"/>
  <way id="114552885" version="2" timestamp="2012-07-20T13:45:14Z" uid="722137" user="OSMF Redaction Account" changeset="12378204"/>
  <way id="114552886" version="2" timestamp="2012-07-20T13:45:08Z" uid="722137" user="OSMF Redaction Account" changeset="12378204"/>
  <way id="114552887" version="3" timestamp="2012-07-20T13:45:13Z" uid="722137" user="OSMF Redaction Account" changeset="12378204"/>
  <way id="114552888" version="2" timestamp="2012-07-20T13:45:05Z" uid="722137" user="OSMF Redaction Account" changeset="12378204"/>
  <way id="114552889" version="2" timestamp="2012-07-20T13:45:16Z" uid="722137" user="OSMF Redaction Account" changeset="12378204"/>
  <way id="114552890" version="2" timestamp="2012-07-20T13:45:05Z" uid="722137" user="OSMF Redaction Account" changeset="12378204"/>
  <way id="114552891" version="2" timestamp="2012-07-20T13:45:08Z" uid="722137" user="OSMF Redaction Account" changeset="12378204"/>
  <way id="114552892" version="2" timestamp="2012-07-20T13:45:08Z" uid="722137" user="OSMF Redaction Account" changeset="12378204"/>
  <way id="114552893" version="2" timestamp="2012-07-20T13:45:06Z" uid="722137" user="OSMF Redaction Account" changeset="12378204"/>
  <way id="114552894" version="2" timestamp="2012-07-20T13:45:03Z" uid="722137" user="OSMF Redaction Account" changeset="12378204"/>
  <way id="114552895" version="2" timestamp="2012-07-20T13:45:18Z" uid="722137" user="OSMF Redaction Account" changeset="12378204"/>
  <way id="114552896" version="2" timestamp="2012-07-20T13:45:10Z" uid="722137" user="OSMF Redaction Account" changeset="12378204"/>
  <way id="114552897" version="2" timestamp="2012-07-20T13:45:24Z" uid="722137" user="OSMF Redaction Account" changeset="12378204"/>
  <way id="114552898" version="2" timestamp="2012-07-20T13:45:13Z" uid="722137" user="OSMF Redaction Account" changeset="12378204"/>
  <way id="114552899" version="2" timestamp="2012-07-20T13:45:08Z" uid="722137" user="OSMF Redaction Account" changeset="12378204"/>
  <way id="114552900" version="2" timestamp="2012-07-20T13:45:21Z" uid="722137" user="OSMF Redaction Account" changeset="12378204"/>
  <way id="114552901" version="2" timestamp="2012-07-20T13:45:11Z" uid="722137" user="OSMF Redaction Account" changeset="12378204"/>
  <way id="114552902" version="3" timestamp="2012-07-20T13:45:05Z" uid="722137" user="OSMF Redaction Account" changeset="12378204"/>
  <way id="114552903" version="2" timestamp="2012-07-20T13:45:16Z" uid="722137" user="OSMF Redaction Account" changeset="12378204"/>
  <way id="114552904" version="2" timestamp="2012-07-20T13:45:21Z" uid="722137" user="OSMF Redaction Account" changeset="12378204"/>
  <way id="114552905" version="2" timestamp="2012-07-20T13:45:10Z" uid="722137" user="OSMF Redaction Account" changeset="12378204"/>
  <way id="114552906" version="2" timestamp="2012-07-20T13:45:16Z" uid="722137" user="OSMF Redaction Account" changeset="12378204"/>
  <way id="114552907" version="2" timestamp="2012-07-20T13:45:22Z" uid="722137" user="OSMF Redaction Account" changeset="12378204"/>
  <way id="114552908" version="2" timestamp="2012-07-20T13:45:20Z" uid="722137" user="OSMF Redaction Account" changeset="12378204"/>
  <way id="114552909" version="2" timestamp="2012-07-20T13:45:16Z" uid="722137" user="OSMF Redaction Account" changeset="12378204"/>
  <way id="114552910" version="2" timestamp="2012-07-20T13:45:22Z" uid="722137" user="OSMF Redaction Account" changeset="12378204"/>
  <way id="114552911" version="2" timestamp="2012-07-20T13:45:26Z" uid="722137" user="OSMF Redaction Account" changeset="12378204"/>
  <way id="114552912" version="2" timestamp="2012-07-20T13:45:17Z" uid="722137" user="OSMF Redaction Account" changeset="12378204"/>
  <way id="114552913" version="3" timestamp="2012-07-20T13:45:14Z" uid="722137" user="OSMF Redaction Account" changeset="12378204"/>
  <way id="114552914" version="2" timestamp="2012-07-20T13:45:08Z" uid="722137" user="OSMF Redaction Account" changeset="12378204"/>
  <way id="114552915" version="2" timestamp="2012-07-20T13:45:21Z" uid="722137" user="OSMF Redaction Account" changeset="12378204"/>
  <way id="114552916" version="2" timestamp="2012-07-20T13:45:15Z" uid="722137" user="OSMF Redaction Account" changeset="12378204"/>
  <way id="114552917" version="2" timestamp="2012-07-20T13:45:25Z" uid="722137" user="OSMF Redaction Account" changeset="12378204"/>
  <way id="114552918" version="2" timestamp="2012-07-20T13:45:22Z" uid="722137" user="OSMF Redaction Account" changeset="12378204"/>
  <way id="114552919" version="2" timestamp="2012-07-20T13:45:08Z" uid="722137" user="OSMF Redaction Account" changeset="12378204"/>
  <way id="114552920" version="2" timestamp="2012-07-20T13:45:24Z" uid="722137" user="OSMF Redaction Account" changeset="12378204"/>
  <way id="114552921" version="2" timestamp="2012-07-20T13:45:26Z" uid="722137" user="OSMF Redaction Account" changeset="12378204"/>
  <way id="114552922" version="2" timestamp="2012-07-20T13:45:05Z" uid="722137" user="OSMF Redaction Account" changeset="12378204"/>
  <way id="114552923" version="2" timestamp="2012-07-20T13:45:20Z" uid="722137" user="OSMF Redaction Account" changeset="12378204"/>
  <way id="114552924" version="2" timestamp="2012-07-20T13:45:11Z" uid="722137" user="OSMF Redaction Account" changeset="12378204"/>
  <way id="114552925" version="2" timestamp="2012-07-20T13:45:02Z" uid="722137" user="OSMF Redaction Account" changeset="12378204"/>
  <way id="114552928" version="2" timestamp="2012-07-20T13:45:07Z" uid="722137" user="OSMF Redaction Account" changeset="12378204"/>
  <way id="114552929" version="2" timestamp="2012-07-20T13:45:03Z" uid="722137" user="OSMF Redaction Account" changeset="12378204"/>
  <way id="114552932" version="2" timestamp="2012-07-20T13:45:20Z" uid="722137" user="OSMF Redaction Account" changeset="12378204"/>
  <way id="114552934" version="2" timestamp="2012-07-20T13:45:19Z" uid="722137" user="OSMF Redaction Account" changeset="12378204"/>
  <way id="114552935" version="2" timestamp="2012-07-20T13:45:02Z" uid="722137" user="OSMF Redaction Account" changeset="12378204"/>
  <way id="114552936" version="2" timestamp="2012-07-20T13:45:11Z" uid="722137" user="OSMF Redaction Account" changeset="12378204"/>
  <way id="114552937" version="2" timestamp="2012-07-20T13:45:09Z" uid="722137" user="OSMF Redaction Account" changeset="12378204"/>
  <way id="114552938" version="2" timestamp="2012-07-20T13:45:10Z" uid="722137" user="OSMF Redaction Account" changeset="12378204"/>
  <way id="114552939" version="2" timestamp="2012-07-20T13:45:26Z" uid="722137" user="OSMF Redaction Account" changeset="12378204"/>
  <way id="114552940" version="2" timestamp="2012-07-20T13:45:15Z" uid="722137" user="OSMF Redaction Account" changeset="12378204"/>
  <way id="114552941" version="2" timestamp="2012-07-20T13:45:12Z" uid="722137" user="OSMF Redaction Account" changeset="12378204"/>
  <way id="114552942" version="2" timestamp="2012-07-20T13:45:22Z" uid="722137" user="OSMF Redaction Account" changeset="12378204"/>
  <way id="114552943" version="2" timestamp="2012-07-20T13:45:11Z" uid="722137" user="OSMF Redaction Account" changeset="12378204"/>
  <way id="114552944" version="2" timestamp="2012-07-20T13:45:23Z" uid="722137" user="OSMF Redaction Account" changeset="12378204"/>
  <way id="114552945" version="2" timestamp="2012-07-20T13:45:14Z" uid="722137" user="OSMF Redaction Account" changeset="12378204"/>
</osm>
