<?xml version='1.0' encoding='UTF-8'?>
<osm version="0.6" generator="libosmium/2.20.0">
  <way id="11451051" version="42" timestamp="2011-03-13T01:10:05Z" uid="4467" user="Rosscoe" changeset="7540135">
    <nd ref="577539976"/>
    <nd ref="256193309"/>
    <nd ref="561042576"/>
    <nd ref="377524655"/>
    <nd ref="377524530"/>
    <nd ref="377524261"/>
    <nd ref="377524218"/>
    <nd ref="377524197"/>
    <nd ref="377524101"/>
    <nd ref="377523743"/>
    <nd ref="377523711"/>
    <nd ref="377523695"/>
    <nd ref="377523570"/>
    <nd ref="377522238"/>
    <nd ref="377522154"/>
    <nd ref="377522124"/>
    <nd ref="377522004"/>
    <nd ref="377521916"/>
    <nd ref="377521881"/>
    <nd ref="377521838"/>
    <nd ref="377521808"/>
    <nd ref="377521668"/>
    <nd ref="579165791"/>
    <nd ref="579168558"/>
    <nd ref="256193554"/>
    <nd ref="263062618"/>
    <nd ref="580419646"/>
    <nd ref="580419852"/>
    <nd ref="580420391"/>
    <nd ref="101962337"/>
    <nd ref="580412095"/>
    <nd ref="256194076"/>
    <nd ref="256194075"/>
    <nd ref="101962338"/>
    <nd ref="577539976"/>
    <tag k="addr:city" v="Melbourne"/>
    <tag k="addr:housenumber" v="203"/>
    <tag k="addr:street" v="Mountain Highway"/>
    <tag k="addr:suburb" v="Wantirna"/>
    <tag k="name" v="Wantirna Park Caravan Park"/>
    <tag k="tourism" v="caravan_site"/>
  </way>
  <way id="11451051" version="43" timestamp="2012-02-05T13:16:17Z" uid="11111" user="melb_guy" changeset="10593353">
    <nd ref="577539976"/>
    <nd ref="256193309"/>
    <nd ref="561042576"/>
    <nd ref="377524655"/>
    <nd ref="377524530"/>
    <nd ref="377524261"/>
    <nd ref="377524218"/>
    <nd ref="377524197"/>
    <nd ref="377524101"/>
    <nd ref="377523743"/>
    <nd ref="377523711"/>
    <nd ref="377523695"/>
    <nd ref="377523570"/>
    <nd ref="377522238"/>
    <nd ref="377522154"/>
    <nd ref="377522124"/>
    <nd ref="377522004"/>
    <nd ref="377521916"/>
    <nd ref="377521881"/>
    <nd ref="377521838"/>
    <nd ref="377521808"/>
    <nd ref="377521668"/>
    <nd ref="579165791"/>
    <nd ref="579168558"/>
    <nd ref="256193554"/>
    <nd ref="263062618"/>
    <nd ref="580419646"/>
    <nd ref="580419852"/>
    <nd ref="580420391"/>
    <nd ref="101962337"/>
    <nd ref="580412095"/>
    <nd ref="256194076"/>
    <nd ref="256194075"/>
    <nd ref="1618885169"/>
    <nd ref="101962338"/>
    <nd ref="577539976"/>
    <tag k="addr:city" v="Melbourne"/>
    <tag k="addr:housenumber" v="203"/>
    <tag k="addr:street" v="Mountain Highway"/>
    <tag k="addr:suburb" v="Wantirna"/>
    <tag k="name" v="Wantirna Park Caravan Park"/>
    <tag k="tourism" v="caravan_site"/>
  </way>
  <way id="11451105" version="7" timestamp="2011-03-05T00:19:04Z" uid="4467" user="Rosscoe" changeset="7459426">
    <nd ref="101963564"/>
    <nd ref="580387910"/>
    <nd ref="580387028"/>
    <nd ref="101962526"/>
    <tag k="highway" v="service"/>
    <tag k="oneway" v="yes"/>
  </way>
  <way id="11451105" version="8" timestamp="2011-04-02T05:08:45Z" uid="11111" user="melb_guy" changeset="7741029">
    <nd ref="101963564"/>
    <nd ref="580387910"/>
    <nd ref="580387028"/>
    <tag k="highway" v="service"/>
    <tag k="oneway" v="yes"/>
  </way>
  <way id="11451105" version="9" timestamp="2012-02-05T13:05:51Z" uid="11111" user="melb_guy" changeset="10593262">
    <nd ref="101963564"/>
    <nd ref="580387910"/>
    <nd ref="580387028"/>
    <tag k="highway" v="service"/>
    <tag k="name" v="The Avenue"/>
    <tag k="oneway" v="yes"/>
    <tag k="surface" v="asphalt"/>
  </way>
  <way id="11451237" version="9" timestamp="2011-03-05T00:19:02Z" uid="4467" user="Rosscoe" changeset="7459426">
    <nd ref="1186648073"/>
    <nd ref="101962665"/>
    <nd ref="580387577"/>
    <nd ref="101963564"/>
    <tag k="highway" v="service"/>
    <tag k="oneway" v="yes"/>
  </way>
  <way id="11451237" version="10" timestamp="2011-04-02T05:08:45Z" uid="11111" user="melb_guy" changeset="7741029">
    <nd ref="1228840812"/>
    <nd ref="101962665"/>
    <tag k="highway" v="primary_link"/>
    <tag k="oneway" v="yes"/>
    <tag k="source" v="nearmap"/>
    <tag k="surface" v="asphalt"/>
  </way>
  <way id="11451355" version="3" timestamp="2010-07-08T20:17:52Z" uid="74617" user="JohnSmith" changeset="5168688">
    <nd ref="101964044"/>
    <nd ref="101964192"/>
    <tag k="highway" v="residential"/>
    <tag k="maxspeed" v="50"/>
    <tag k="maxspeed:source" v="default residential speed limit in Australia"/>
    <tag k="name" v="Waterman Drive"/>
  </way>
  <way id="11451355" version="4" timestamp="2011-02-10T03:55:16Z" uid="11111" user="lakeyboy" changeset="7242252"/>
  <way id="11451626" version="7" timestamp="2010-06-23T02:24:12Z" uid="4467" user="Rosscoe" changeset="5056007">
    <nd ref="783394817"/>
    <nd ref="481694400"/>
    <nd ref="101965582"/>
    <nd ref="101965586"/>
    <tag k="highway" v="residential"/>
    <tag k="name" v="Atlantic Avenue"/>
    <tag k="oneway" v="yes"/>
    <tag k="tiger:cfcc" v="A41"/>
    <tag k="tiger:county" v="Knox, ME"/>
    <tag k="tiger:name_base" v="Atlantic"/>
    <tag k="tiger:name_type" v="Ave"/>
    <tag k="tiger:reviewed" v="no"/>
    <tag k="tiger:separated" v="no"/>
    <tag k="tiger:source" v="tiger_import_dch_v0.6_20070813"/>
    <tag k="tiger:tlid" v="75547950:75547597"/>
    <tag k="tiger:upload_uuid" v="bulk_upload.pl-ace483b2-7c7f-4c29-8a4e-7a13686e77d5"/>
    <tag k="tiger:zip_left" v="04843"/>
  </way>
  <way id="11451105" version="10" timestamp="2012-07-19T22:24:52Z" uid="722137" user="OSMF Redaction Account" changeset="12350362"/>
</osm>
