<?xml version='1.0' encoding='UTF-8'?>
<osm version="0.6" generator="libosmium/2.20.0">
  <way id="11531180" version="1" timestamp="2007-11-08T19:28:56Z" uid="6975" user="ulfl" changeset="441742">
    <nd ref="102782729"/>
    <nd ref="102782733"/>
    <tag k="created_by" v="JOSM"/>
  </way>
  <way id="11531180" version="2" timestamp="2009-01-04T12:20:37Z" uid="81175" user="robome" changeset="728871">
    <nd ref="102782729"/>
    <nd ref="102782949"/>
    <tag k="created_by" v="JOSM"/>
    <tag k="highway" v="residential"/>
    <tag k="name" v="Heinickestraße"/>
  </way>
  <way id="11531180" version="3" timestamp="2011-01-17T18:19:20Z" uid="238266" user="bangla" changeset="7002315">
    <nd ref="102782729"/>
    <nd ref="102782949"/>
    <tag k="highway" v="residential"/>
    <tag k="name" v="Heinickestraße"/>
  </way>
  <way id="11531180" version="4" timestamp="2011-12-03T22:56:36Z" uid="71557" user="Taroc" changeset="10029123"/>
  <way id="11531706" version="9" timestamp="2010-10-20T07:49:09Z" uid="115477" user="wowik" changeset="6108357">
    <nd ref="74062996"/>
    <nd ref="591883793"/>
    <tag k="access" v="destination"/>
    <tag k="addr:postcode" v="101000"/>
    <tag k="cladr:code" v="77000000000066100"/>
    <tag k="cladr:name" v="Лубянка М."/>
    <tag k="cladr:suffix" v="Улица"/>
    <tag k="highway" v="unclassified"/>
    <tag k="name" v="улица Малая Лубянка"/>
    <tag k="omkum:code" v="14090"/>
    <tag k="sorting_name" v="Лубянка  Малая  улица"/>
  </way>
  <way id="11531706" version="10" timestamp="2012-05-28T13:16:55Z" uid="39086" user="AlexeyS" changeset="11726552"/>
</osm>
