<?xml version='1.0' encoding='UTF-8'?>
<osm version="0.6" generator="libosmium/2.20.0">
  <way id="11569620" version="6" timestamp="2008-02-03T21:11:43Z" uid="8328" user="benpre" changeset="26797">
    <nd ref="16777382"/>
    <nd ref="16777383"/>
    <nd ref="104228468"/>
    <nd ref="16777384"/>
    <tag k="created_by" v="Potlatch 0.4c"/>
    <tag k="highway" v="residential"/>
    <tag k="name" v="via del Vanni"/>
  </way>
  <way id="11569620" version="7" timestamp="2008-04-27T18:13:34Z" uid="864" user="Niccolo" changeset="267577">
    <nd ref="16777382"/>
    <nd ref="16777383"/>
    <nd ref="260241796"/>
    <nd ref="104228468"/>
    <nd ref="16777384"/>
    <tag k="created_by" v="Potlatch 0.4c"/>
    <tag k="highway" v="residential"/>
    <tag k="name" v="via del Vanni"/>
  </way>
  <way id="11569620" version="8" timestamp="2008-06-14T23:07:33Z" uid="33355" user="hinste" changeset="172129">
    <nd ref="16777382"/>
    <nd ref="16777383"/>
    <nd ref="260241796"/>
    <nd ref="104228468"/>
    <nd ref="16777384"/>
    <tag k="created_by" v="Potlatch 0.4c"/>
    <tag k="highway" v="residential"/>
    <tag k="name" v="via del Vanni"/>
  </way>
  <way id="11569620" version="9" timestamp="2008-06-28T10:27:15Z" uid="17383" user="grampasso" changeset="321477">
    <nd ref="274243729"/>
    <nd ref="16777382"/>
    <tag k="created_by" v="Potlatch 0.9c"/>
    <tag k="highway" v="residential"/>
    <tag k="name" v="via del Vanni"/>
  </way>
  <way id="11569620" version="10" timestamp="2008-06-28T10:27:20Z" uid="17383" user="grampasso" changeset="321477">
    <nd ref="274243729"/>
    <nd ref="16777382"/>
    <tag k="created_by" v="Potlatch 0.9c"/>
    <tag k="highway" v="residential"/>
  </way>
  <way id="11569620" version="11" timestamp="2008-10-08T17:22:08Z" uid="49848" user="Simone Piccardi" changeset="162129">
    <nd ref="274243729"/>
    <nd ref="16777382"/>
    <tag k="created_by" v="Potlatch 0.9c"/>
    <tag k="highway" v="residential"/>
    <tag k="name" v="Via Baccio Bandinelli"/>
  </way>
  <way id="11569620" version="12" timestamp="2009-02-11T15:27:12Z" uid="49848" user="Simone Piccardi" changeset="349561">
    <nd ref="274243729"/>
    <nd ref="16777382"/>
    <tag k="created_by" v="Merkaartor 0.12"/>
    <tag k="highway" v="residential"/>
    <tag k="name" v="Via Baccio Bandinelli"/>
    <tag k="oneway" v="-1"/>
  </way>
  <way id="11569620" version="13" timestamp="2010-12-25T18:07:40Z" uid="192299" user="a_l_e_c_h" changeset="6762876">
    <nd ref="274243729"/>
    <nd ref="1064433324"/>
    <nd ref="16777382"/>
    <tag k="highway" v="residential"/>
    <tag k="name" v="Via Baccio Bandinelli"/>
    <tag k="oneway" v="-1"/>
  </way>
  <way id="11569620" version="14" timestamp="2011-02-10T12:41:58Z" uid="270936" user="alexkey" changeset="7245020">
    <nd ref="1064433324"/>
    <nd ref="274243729"/>
    <tag k="highway" v="residential"/>
    <tag k="name" v="Via Baccio Bandinelli"/>
    <tag k="oneway" v="-1"/>
  </way>
</osm>
