<?xml version='1.0' encoding='UTF-8'?>
<osm version="0.6" generator="libosmium/2.20.0">
  <way id="115666092" version="2" timestamp="2011-06-03T07:49:01Z" uid="27600" user="Islanit" changeset="8326743">
    <nd ref="333304320"/>
    <nd ref="1306132412"/>
    <nd ref="1309898693"/>
    <nd ref="1306132413"/>
    <nd ref="333304346"/>
    <tag k="highway" v="residential"/>
    <tag k="name" v="Klosterweg"/>
    <tag k="surface" v="paved"/>
  </way>
  <way id="115666092" version="3" timestamp="2011-06-12T09:10:01Z" uid="249676" user="mmd" changeset="8412953">
    <nd ref="333304320"/>
    <nd ref="1306132412"/>
    <nd ref="1309898693"/>
    <nd ref="1306132413"/>
    <nd ref="1321451585"/>
    <nd ref="333304346"/>
    <tag k="highway" v="residential"/>
    <tag k="name" v="Klosterweg"/>
    <tag k="surface" v="paved"/>
  </way>
  <way id="115666092" version="4" timestamp="2011-06-26T19:00:11Z" uid="67999" user="chrisber" changeset="8555035">
    <nd ref="333304320"/>
    <nd ref="1306132412"/>
    <nd ref="1309898693"/>
    <nd ref="1306132413"/>
    <nd ref="1321451585"/>
    <nd ref="333304346"/>
    <tag k="highway" v="residential"/>
    <tag k="lanes" v="2"/>
    <tag k="name" v="Klosterweg"/>
    <tag k="surface" v="paved"/>
  </way>
  <way id="115666092" version="5" timestamp="2011-06-28T09:15:36Z" uid="67999" user="chrisber" changeset="8569623">
    <nd ref="333304320"/>
    <nd ref="1306132412"/>
    <nd ref="1342066581"/>
    <nd ref="1309898693"/>
    <nd ref="1306132413"/>
    <nd ref="1321451585"/>
    <nd ref="333304346"/>
    <tag k="highway" v="residential"/>
    <tag k="lanes" v="2"/>
    <tag k="name" v="Klosterweg"/>
    <tag k="surface" v="paved"/>
  </way>
  <way id="115666092" version="6" timestamp="2011-07-17T20:20:59Z" uid="67999" user="chrisber" changeset="8752222">
    <nd ref="333304320"/>
    <nd ref="1306132412"/>
    <nd ref="1342066581"/>
    <nd ref="1309898693"/>
    <nd ref="1306132413"/>
    <nd ref="1321451585"/>
    <nd ref="333304346"/>
    <tag k="highway" v="residential"/>
    <tag k="lanes" v="2"/>
    <tag k="maxspeed" v="30"/>
    <tag k="name" v="Klosterweg"/>
    <tag k="surface" v="paved"/>
  </way>
  <way id="115666094" version="2" timestamp="2011-06-03T07:49:01Z" uid="27600" user="Islanit" changeset="8326743">
    <nd ref="288933299"/>
    <nd ref="1306132456"/>
    <nd ref="1306132457"/>
    <nd ref="1306132458"/>
    <tag k="highway" v="residential"/>
  </way>
  <way id="115666094" version="3" timestamp="2011-06-29T12:11:02Z" uid="67999" user="chrisber" changeset="8580380"/>
  <way id="115666101" version="2" timestamp="2011-06-03T07:49:01Z" uid="27600" user="Islanit" changeset="8326743">
    <nd ref="1306132534"/>
    <nd ref="1306132535"/>
    <nd ref="1306132536"/>
    <nd ref="1306132537"/>
    <nd ref="1306132538"/>
    <nd ref="1309898698"/>
    <nd ref="1306132539"/>
    <tag k="highway" v="residential"/>
    <tag k="name" v="Berliner Straße"/>
  </way>
  <way id="115666101" version="3" timestamp="2011-06-26T13:21:50Z" uid="67999" user="chrisber" changeset="8551781">
    <nd ref="1306132534"/>
    <nd ref="1339636141"/>
    <nd ref="1339636112"/>
    <nd ref="1306132535"/>
    <nd ref="1306132536"/>
    <nd ref="1306132537"/>
    <nd ref="1306132538"/>
    <nd ref="1309898698"/>
    <nd ref="1306132539"/>
    <tag k="highway" v="residential"/>
    <tag k="lanes" v="2"/>
    <tag k="name" v="Berliner Straße"/>
    <tag k="surface" v="paved"/>
  </way>
  <way id="115666101" version="4" timestamp="2011-07-02T08:47:38Z" uid="67999" user="chrisber" changeset="8605851">
    <nd ref="1306132534"/>
    <nd ref="1339636141"/>
    <nd ref="1339636112"/>
    <nd ref="1306132535"/>
    <nd ref="1306132536"/>
    <nd ref="1306132537"/>
    <nd ref="1306132538"/>
    <nd ref="1346622722"/>
    <nd ref="1309898698"/>
    <nd ref="1306132539"/>
    <tag k="highway" v="residential"/>
    <tag k="lanes" v="2"/>
    <tag k="name" v="Berliner Straße"/>
    <tag k="surface" v="paved"/>
  </way>
  <way id="115666102" version="3" timestamp="2011-06-03T07:49:02Z" uid="27600" user="Islanit" changeset="8326743">
    <nd ref="1309898698"/>
    <nd ref="1306132548"/>
    <nd ref="1306132549"/>
    <tag k="highway" v="service"/>
    <tag k="name" v="Baugebiet &quot;Am Ursberg&quot;"/>
  </way>
  <way id="115666102" version="4" timestamp="2011-06-03T10:29:19Z" uid="67999" user="chrisber" changeset="8328014">
    <nd ref="1306132548"/>
    <nd ref="1306132549"/>
    <nd ref="1306132550"/>
    <nd ref="1306132551"/>
    <nd ref="1306132553"/>
    <nd ref="1306132560"/>
    <nd ref="1306132561"/>
    <nd ref="1310063374"/>
    <nd ref="1306132549"/>
    <nd ref="1306132548"/>
    <tag k="highway" v="service"/>
    <tag k="landuse" v="greenfield"/>
    <tag k="name" v="Baugebiet &quot;Am Ursberg&quot;"/>
  </way>
  <way id="115666102" version="5" timestamp="2011-06-03T18:00:00Z" uid="67999" user="chrisber" changeset="8331936">
    <nd ref="1306132548"/>
    <nd ref="1306132549"/>
    <nd ref="1306132550"/>
    <nd ref="1306132551"/>
    <nd ref="1306132553"/>
    <nd ref="1306132560"/>
    <nd ref="1306132561"/>
    <nd ref="1310063374"/>
    <nd ref="1306132549"/>
    <nd ref="1306132548"/>
    <tag k="highway" v="service"/>
    <tag k="landuse" v="construction"/>
    <tag k="name" v="Baugebiet &quot;Am Ursberg&quot;"/>
  </way>
  <way id="115666102" version="6" timestamp="2011-06-19T08:46:03Z" uid="88172" user="TheFive" changeset="8481232"/>
  <way id="115666105" version="2" timestamp="2011-06-03T07:49:02Z" uid="27600" user="Islanit" changeset="8326743">
    <nd ref="1306132577"/>
    <nd ref="1306132579"/>
    <nd ref="1309898708"/>
    <tag k="highway" v="residential"/>
    <tag k="name" v="Im Winkel"/>
  </way>
  <way id="115666105" version="3" timestamp="2011-06-03T10:29:12Z" uid="67999" user="chrisber" changeset="8328014">
    <nd ref="1306132577"/>
    <nd ref="1306132579"/>
    <nd ref="1306132580"/>
    <nd ref="1306132584"/>
    <nd ref="1306132585"/>
    <nd ref="1306132584"/>
    <nd ref="1306132588"/>
    <nd ref="1306132592"/>
    <tag k="highway" v="residential"/>
    <tag k="name" v="Im Winkel"/>
  </way>
  <way id="115666105" version="4" timestamp="2011-06-09T13:13:58Z" uid="39691" user="yzemaze" changeset="8388047">
    <nd ref="1306132577"/>
    <nd ref="1309898708"/>
    <tag k="highway" v="residential"/>
    <tag k="name" v="Im Winkel"/>
  </way>
  <way id="115666105" version="5" timestamp="2011-06-26T13:21:47Z" uid="67999" user="chrisber" changeset="8551781">
    <nd ref="1306132577"/>
    <nd ref="1309898708"/>
    <tag k="highway" v="residential"/>
    <tag k="lanes" v="1"/>
    <tag k="name" v="Im Winkel"/>
    <tag k="surface" v="paved"/>
  </way>
  <way id="115666111" version="2" timestamp="2011-06-03T07:49:02Z" uid="27600" user="Islanit" changeset="8326743">
    <nd ref="1309898693"/>
    <nd ref="1309898702"/>
    <tag k="highway" v="residential"/>
    <tag k="name" v="Disibodenberger Straße"/>
  </way>
  <way id="115666111" version="3" timestamp="2011-06-26T19:00:01Z" uid="67999" user="chrisber" changeset="8555035">
    <nd ref="1309898693"/>
    <nd ref="1309898702"/>
    <tag k="highway" v="residential"/>
    <tag k="lanes" v="2"/>
    <tag k="name" v="Disibodenberger Straße"/>
    <tag k="surface" v="paved"/>
  </way>
  <way id="115666111" version="4" timestamp="2011-07-17T20:20:58Z" uid="67999" user="chrisber" changeset="8752222">
    <nd ref="1309898693"/>
    <nd ref="1309898702"/>
    <tag k="highway" v="residential"/>
    <tag k="lanes" v="2"/>
    <tag k="maxspeed" v="30"/>
    <tag k="name" v="Disibodenberger Straße"/>
    <tag k="surface" v="paved"/>
  </way>
  <way id="115666112" version="2" timestamp="2011-06-03T07:49:02Z" uid="27600" user="Islanit" changeset="8326743">
    <nd ref="1306132412"/>
    <nd ref="1309898723"/>
    <tag k="highway" v="residential"/>
    <tag k="name" v="In den Elfmorgen"/>
  </way>
  <way id="115666112" version="3" timestamp="2011-06-26T18:59:22Z" uid="67999" user="chrisber" changeset="8555035">
    <nd ref="1306132412"/>
    <nd ref="1309898723"/>
    <tag k="highway" v="residential"/>
    <tag k="lanes" v="2"/>
    <tag k="name" v="In den Elfmorgen"/>
    <tag k="surface" v="paved"/>
  </way>
  <way id="115666112" version="4" timestamp="2011-07-17T20:20:59Z" uid="67999" user="chrisber" changeset="8752222">
    <nd ref="1306132412"/>
    <nd ref="1309898723"/>
    <tag k="highway" v="residential"/>
    <tag k="lanes" v="2"/>
    <tag k="maxspeed" v="30"/>
    <tag k="name" v="In den Elfmorgen"/>
    <tag k="surface" v="paved"/>
  </way>
  <way id="115666126" version="4" timestamp="2011-06-03T07:49:02Z" uid="27600" user="Islanit" changeset="8326743">
    <nd ref="1306132826"/>
    <nd ref="1308003310"/>
    <nd ref="1306132833"/>
    <nd ref="1306132834"/>
    <nd ref="1309898717"/>
    <tag k="bicycle" v="yes"/>
    <tag k="foot" v="yes"/>
    <tag k="highway" v="path"/>
    <tag k="surface" v="paving_stones"/>
    <tag k="trail_visibility" v="excellent"/>
  </way>
  <way id="115666128" version="3" timestamp="2011-06-03T07:49:04Z" uid="27600" user="Islanit" changeset="8326743">
    <nd ref="1309898720"/>
    <nd ref="1309898705"/>
    <nd ref="1306132855"/>
    <tag k="highway" v="residential"/>
    <tag k="name" v="Im Behl"/>
  </way>
  <way id="115666128" version="4" timestamp="2011-06-26T18:59:19Z" uid="67999" user="chrisber" changeset="8555035">
    <nd ref="1309898720"/>
    <nd ref="1309898705"/>
    <nd ref="1306132855"/>
    <tag k="highway" v="residential"/>
    <tag k="lanes" v="2"/>
    <tag k="name" v="Im Behl"/>
    <tag k="noexit" v="yes"/>
    <tag k="surface" v="paved"/>
  </way>
  <way id="115666129" version="2" timestamp="2011-06-03T07:49:04Z" uid="27600" user="Islanit" changeset="8326743">
    <nd ref="1306132850"/>
    <nd ref="1306132863"/>
    <nd ref="285357584"/>
    <tag k="highway" v="residential"/>
    <tag k="name" v="In der Bein"/>
  </way>
  <way id="115666129" version="3" timestamp="2011-06-26T18:59:44Z" uid="67999" user="chrisber" changeset="8555035">
    <nd ref="1306132850"/>
    <nd ref="1306132863"/>
    <nd ref="285357584"/>
    <tag k="highway" v="residential"/>
    <tag k="lanes" v="2"/>
    <tag k="name" v="In der Bein"/>
    <tag k="surface" v="paved"/>
  </way>
  <way id="115666130" version="3" timestamp="2011-06-03T07:49:02Z" uid="27600" user="Islanit" changeset="8326743">
    <nd ref="1306132863"/>
    <nd ref="1306132868"/>
    <nd ref="1307722398"/>
    <nd ref="1306132871"/>
    <nd ref="1307722371"/>
    <nd ref="1306132872"/>
    <nd ref="1307722383"/>
    <nd ref="1306132874"/>
    <nd ref="1307722408"/>
    <nd ref="1306132876"/>
    <nd ref="1307722401"/>
    <nd ref="1307722394"/>
    <nd ref="1306132879"/>
    <nd ref="1307722375"/>
    <nd ref="1307722404"/>
    <nd ref="1306132880"/>
    <nd ref="1307722381"/>
    <nd ref="1306132881"/>
    <nd ref="1306132884"/>
    <nd ref="1306132884"/>
    <nd ref="1306132888"/>
    <nd ref="1306132890"/>
    <nd ref="1306132892"/>
    <nd ref="1307722415"/>
    <nd ref="1306132850"/>
    <tag k="highway" v="residential"/>
    <tag k="lanes" v="2"/>
    <tag k="name" v="Akazienweg"/>
    <tag k="surface" v="paving_stones"/>
  </way>
  <way id="115666130" version="4" timestamp="2011-06-03T10:29:29Z" uid="67999" user="chrisber" changeset="8328014">
    <nd ref="1306132863"/>
    <nd ref="1306132868"/>
    <nd ref="1307722398"/>
    <nd ref="1306132871"/>
    <nd ref="1307722371"/>
    <nd ref="1306132872"/>
    <nd ref="1307722383"/>
    <nd ref="1306132874"/>
    <nd ref="1307722408"/>
    <nd ref="1306132876"/>
    <nd ref="1307722401"/>
    <nd ref="1307722394"/>
    <nd ref="1306132879"/>
    <nd ref="1307722375"/>
    <nd ref="1307722404"/>
    <nd ref="1306132880"/>
    <nd ref="1307722381"/>
    <nd ref="1306132881"/>
    <nd ref="1310064151"/>
    <nd ref="1306132888"/>
    <nd ref="1306132890"/>
    <nd ref="1306132892"/>
    <nd ref="1307722415"/>
    <nd ref="1306132850"/>
    <tag k="highway" v="residential"/>
    <tag k="lanes" v="2"/>
    <tag k="name" v="Akazienweg"/>
    <tag k="surface" v="paving_stones"/>
  </way>
  <way id="115666130" version="5" timestamp="2011-06-14T16:58:14Z" uid="67999" user="chrisber" changeset="8439376">
    <nd ref="1306132863"/>
    <nd ref="1306132868"/>
    <nd ref="1307722398"/>
    <nd ref="1306132871"/>
    <nd ref="1307722371"/>
    <nd ref="1306132872"/>
    <nd ref="1307722383"/>
    <nd ref="1306132874"/>
    <nd ref="1307722408"/>
    <nd ref="1306132876"/>
    <nd ref="1307722401"/>
    <nd ref="1307722394"/>
    <nd ref="1306132879"/>
    <nd ref="1307722375"/>
    <nd ref="1307722404"/>
    <nd ref="1325339231"/>
    <nd ref="1306132880"/>
    <nd ref="1307722381"/>
    <nd ref="1306132881"/>
    <nd ref="1310064151"/>
    <nd ref="1306132888"/>
    <nd ref="1306132890"/>
    <nd ref="1306132892"/>
    <nd ref="1307722415"/>
    <nd ref="1306132850"/>
    <tag k="highway" v="living_street"/>
    <tag k="lanes" v="2"/>
    <tag k="name" v="Akazienweg"/>
    <tag k="surface" v="paving_stones"/>
  </way>
  <way id="115666140" version="2" timestamp="2011-06-03T07:49:03Z" uid="27600" user="Islanit" changeset="8326743">
    <nd ref="1306133018"/>
    <nd ref="1309898702"/>
    <nd ref="1306133035"/>
    <nd ref="1309898723"/>
    <nd ref="1306133036"/>
    <nd ref="1306133037"/>
    <nd ref="1306133039"/>
    <nd ref="1306132640"/>
    <tag k="highway" v="residential"/>
    <tag k="name" v="Am Rossmarkt"/>
  </way>
  <way id="115666140" version="3" timestamp="2011-06-26T18:59:38Z" uid="67999" user="chrisber" changeset="8555035">
    <nd ref="1306133018"/>
    <nd ref="1309898702"/>
    <nd ref="1306133035"/>
    <nd ref="1309898723"/>
    <nd ref="1306133036"/>
    <nd ref="1306133037"/>
    <tag k="highway" v="residential"/>
    <tag k="lanes" v="2"/>
    <tag k="name" v="Am Rossmarkt"/>
    <tag k="surface" v="paved"/>
  </way>
  <way id="115666140" version="4" timestamp="2011-07-17T20:20:57Z" uid="67999" user="chrisber" changeset="8752222">
    <nd ref="1306133018"/>
    <nd ref="1309898702"/>
    <nd ref="1306133035"/>
    <nd ref="1309898723"/>
    <nd ref="1306133036"/>
    <nd ref="1306133037"/>
    <tag k="highway" v="residential"/>
    <tag k="lanes" v="2"/>
    <tag k="maxspeed" v="30"/>
    <tag k="name" v="Am Rossmarkt"/>
    <tag k="surface" v="paved"/>
  </way>
  <way id="115666141" version="3" timestamp="2011-06-03T07:49:03Z" uid="27600" user="Islanit" changeset="8326743">
    <nd ref="1306132850"/>
    <nd ref="1309898720"/>
    <nd ref="1306132848"/>
    <nd ref="1309898717"/>
    <nd ref="1308003106"/>
    <nd ref="1306133044"/>
    <nd ref="1306133047"/>
    <tag k="highway" v="residential"/>
    <tag k="name" v="In den Sechsmorgen"/>
  </way>
  <way id="115666141" version="4" timestamp="2011-06-26T18:59:53Z" uid="67999" user="chrisber" changeset="8555035">
    <nd ref="1306132850"/>
    <nd ref="1309898720"/>
    <nd ref="1306132848"/>
    <nd ref="1309898717"/>
    <nd ref="1308003106"/>
    <nd ref="1306133044"/>
    <nd ref="1340169899"/>
    <tag k="highway" v="residential"/>
    <tag k="lanes" v="2"/>
    <tag k="name" v="In den Sechsmorgen"/>
    <tag k="noexit" v="yes"/>
    <tag k="surface" v="paved"/>
  </way>
  <way id="115666142" version="2" timestamp="2011-06-03T07:49:03Z" uid="27600" user="Islanit" changeset="8326743">
    <nd ref="1306132859"/>
    <nd ref="1309898705"/>
    <nd ref="1306133050"/>
    <tag k="highway" v="residential"/>
    <tag k="name" v="Rosenstraße"/>
  </way>
  <way id="115666142" version="3" timestamp="2011-06-26T19:00:20Z" uid="67999" user="chrisber" changeset="8555035">
    <nd ref="1340168986"/>
    <nd ref="1309898705"/>
    <nd ref="1340168346"/>
    <tag k="highway" v="residential"/>
    <tag k="lanes" v="2"/>
    <tag k="name" v="Rosenstraße"/>
    <tag k="noexit" v="yes"/>
    <tag k="surface" v="paved"/>
  </way>
  <way id="115666092" version="7" timestamp="2012-07-18T17:43:29Z" uid="722137" user="OSMF Redaction Account" changeset="12291002">
    <nd ref="333304320"/>
    <nd ref="1306132412"/>
    <nd ref="1342066581"/>
    <nd ref="1306132413"/>
    <nd ref="1321451585"/>
    <nd ref="333304346"/>
    <tag k="highway" v="residential"/>
    <tag k="lanes" v="2"/>
    <tag k="maxspeed" v="30"/>
    <tag k="name" v="Klosterweg"/>
    <tag k="surface" v="paved"/>
  </way>
  <way id="115666092" version="8" timestamp="2012-07-21T20:50:45Z" uid="67999" user="chrisber" changeset="12419931">
    <nd ref="333304320"/>
    <nd ref="1306132412"/>
    <nd ref="1342066581"/>
    <nd ref="1833559661"/>
    <nd ref="1306132413"/>
    <nd ref="1321451585"/>
    <nd ref="333304346"/>
    <tag k="highway" v="residential"/>
    <tag k="lanes" v="2"/>
    <tag k="maxspeed" v="30"/>
    <tag k="name" v="Klosterweg"/>
    <tag k="surface" v="paved"/>
  </way>
  <way id="115666101" version="5" timestamp="2012-07-18T17:44:46Z" uid="722137" user="OSMF Redaction Account" changeset="12291031">
    <nd ref="1306132534"/>
    <nd ref="1339636141"/>
    <nd ref="1339636112"/>
    <nd ref="1306132535"/>
    <nd ref="1306132536"/>
    <nd ref="1306132537"/>
    <nd ref="1306132538"/>
    <nd ref="1346622722"/>
    <nd ref="1306132539"/>
    <tag k="highway" v="residential"/>
    <tag k="lanes" v="2"/>
    <tag k="name" v="Berliner Straße"/>
    <tag k="surface" v="paved"/>
  </way>
  <way id="115666101" version="6" timestamp="2012-08-18T16:00:55Z" uid="461945" user="poppei82" changeset="12774497">
    <nd ref="1306132534"/>
    <nd ref="1339636141"/>
    <nd ref="1339636112"/>
    <nd ref="1306132535"/>
    <nd ref="1306132536"/>
    <nd ref="1306132537"/>
    <nd ref="1306132538"/>
    <nd ref="1346622722"/>
    <nd ref="1309898698"/>
    <nd ref="1306132539"/>
    <tag k="highway" v="residential"/>
    <tag k="lanes" v="2"/>
    <tag k="name" v="Berliner Straße"/>
    <tag k="surface" v="paved"/>
  </way>
  <way id="115666111" version="5" timestamp="2012-07-18T17:43:41Z" uid="722137" user="OSMF Redaction Account" changeset="12291002"/>
  <way id="115666112" version="5" timestamp="2012-07-18T17:43:41Z" uid="722137" user="OSMF Redaction Account" changeset="12291002"/>
  <way id="115666126" version="5" timestamp="2012-07-18T17:43:29Z" uid="722137" user="OSMF Redaction Account" changeset="12291002">
    <nd ref="1306132826"/>
    <nd ref="1308003310"/>
    <nd ref="1306132833"/>
    <nd ref="1306132834"/>
    <tag k="bicycle" v="yes"/>
    <tag k="foot" v="yes"/>
    <tag k="highway" v="path"/>
    <tag k="surface" v="paving_stones"/>
    <tag k="trail_visibility" v="excellent"/>
  </way>
  <way id="115666128" version="5" timestamp="2012-07-18T17:43:41Z" uid="722137" user="OSMF Redaction Account" changeset="12291002"/>
  <way id="115666129" version="4" timestamp="2012-07-18T17:43:38Z" uid="722137" user="OSMF Redaction Account" changeset="12291002">
    <nd ref="1306132850"/>
    <nd ref="1306132863"/>
    <tag k="highway" v="residential"/>
    <tag k="lanes" v="2"/>
    <tag k="name" v="In der Bein"/>
    <tag k="surface" v="paved"/>
  </way>
  <way id="115666129" version="5" timestamp="2012-07-21T20:50:45Z" uid="67999" user="chrisber" changeset="12419931">
    <nd ref="1306132850"/>
    <nd ref="1833559663"/>
    <nd ref="285357584"/>
    <tag k="highway" v="residential"/>
    <tag k="lanes" v="2"/>
    <tag k="name" v="In der Bein"/>
    <tag k="surface" v="paved"/>
  </way>
  <way id="115666130" version="6" timestamp="2012-07-21T20:50:41Z" uid="67999" user="chrisber" changeset="12419931">
    <nd ref="1833559663"/>
    <nd ref="1306132868"/>
    <nd ref="1307722398"/>
    <nd ref="1306132871"/>
    <nd ref="1307722371"/>
    <nd ref="1306132872"/>
    <nd ref="1307722383"/>
    <nd ref="1306132874"/>
    <nd ref="1307722408"/>
    <nd ref="1306132876"/>
    <nd ref="1307722401"/>
    <nd ref="1307722394"/>
    <nd ref="1306132879"/>
    <nd ref="1307722375"/>
    <nd ref="1307722404"/>
    <nd ref="1325339231"/>
    <nd ref="1306132880"/>
    <nd ref="1307722381"/>
    <nd ref="1306132881"/>
    <nd ref="1310064151"/>
    <nd ref="1306132888"/>
    <nd ref="1306132890"/>
    <nd ref="1306132892"/>
    <nd ref="1307722415"/>
    <nd ref="1306132850"/>
    <tag k="highway" v="living_street"/>
    <tag k="lanes" v="2"/>
    <tag k="name" v="Akazienweg"/>
    <tag k="surface" v="paving_stones"/>
  </way>
  <way id="115666140" version="5" timestamp="2012-07-18T17:43:30Z" uid="722137" user="OSMF Redaction Account" changeset="12291002">
    <nd ref="1306133018"/>
    <nd ref="1306133035"/>
    <nd ref="1306133036"/>
    <nd ref="1306133037"/>
    <tag k="highway" v="residential"/>
    <tag k="lanes" v="2"/>
    <tag k="maxspeed" v="30"/>
    <tag k="name" v="Am Rossmarkt"/>
    <tag k="surface" v="paved"/>
  </way>
  <way id="115666140" version="6" timestamp="2012-07-21T20:50:41Z" uid="67999" user="chrisber" changeset="12419931">
    <nd ref="1306133018"/>
    <nd ref="1306133035"/>
    <nd ref="1833559660"/>
    <nd ref="1306133036"/>
    <nd ref="1306133037"/>
    <tag k="highway" v="residential"/>
    <tag k="lanes" v="2"/>
    <tag k="maxspeed" v="30"/>
    <tag k="name" v="Am Rossmarkt"/>
    <tag k="surface" v="paved"/>
  </way>
  <way id="115666141" version="5" timestamp="2012-07-18T17:43:29Z" uid="722137" user="OSMF Redaction Account" changeset="12291002">
    <nd ref="1306132850"/>
    <nd ref="1306132848"/>
    <nd ref="1308003106"/>
    <nd ref="1306133044"/>
    <nd ref="1340169899"/>
    <tag k="highway" v="residential"/>
    <tag k="lanes" v="2"/>
    <tag k="name" v="In den Sechsmorgen"/>
    <tag k="noexit" v="yes"/>
    <tag k="surface" v="paved"/>
  </way>
  <way id="115666141" version="6" timestamp="2012-07-21T20:50:45Z" uid="67999" user="chrisber" changeset="12419931">
    <nd ref="1306132850"/>
    <nd ref="1833559664"/>
    <nd ref="1306132848"/>
    <nd ref="1308003106"/>
    <nd ref="1306133044"/>
    <nd ref="1340169899"/>
    <tag k="highway" v="residential"/>
    <tag k="lanes" v="2"/>
    <tag k="name" v="In den Sechsmorgen"/>
    <tag k="noexit" v="yes"/>
    <tag k="surface" v="paved"/>
  </way>
  <way id="115666142" version="4" timestamp="2012-07-18T17:43:38Z" uid="722137" user="OSMF Redaction Account" changeset="12291002">
    <nd ref="1340168986"/>
    <nd ref="1340168346"/>
    <tag k="highway" v="residential"/>
    <tag k="lanes" v="2"/>
    <tag k="name" v="Rosenstraße"/>
    <tag k="noexit" v="yes"/>
    <tag k="surface" v="paved"/>
  </way>
  <way id="115666142" version="5" timestamp="2012-08-05T11:15:52Z" uid="461945" user="poppei82" changeset="12619002">
    <nd ref="1340168986"/>
    <nd ref="1309898705"/>
    <nd ref="1340168346"/>
    <tag k="highway" v="residential"/>
    <tag k="lanes" v="2"/>
    <tag k="name" v="Rosenstraße"/>
    <tag k="noexit" v="yes"/>
    <tag k="surface" v="paved"/>
  </way>
</osm>
