<?xml version='1.0' encoding='UTF-8'?>
<osm version="0.6" generator="libosmium/2.20.0">
  <way id="115832233" version="1" timestamp="2011-06-01T09:09:04Z" uid="115477" user="wowik" changeset="8308495">
    <nd ref="1307549234"/>
    <nd ref="60443949"/>
    <nd ref="1229211963"/>
    <nd ref="60443951"/>
    <nd ref="60443952"/>
    <tag k="highway" v="trunk"/>
    <tag k="lit" v="yes"/>
    <tag k="name" v="Дмитровское шоссе"/>
    <tag k="oneway" v="yes"/>
    <tag k="ref" v="А104"/>
  </way>
  <way id="115832233" version="2" timestamp="2011-06-01T09:12:40Z" uid="115477" user="wowik" changeset="8308495">
    <nd ref="1307549234"/>
    <nd ref="60443949"/>
    <nd ref="1229211963"/>
    <nd ref="60443951"/>
    <tag k="highway" v="trunk"/>
    <tag k="lit" v="yes"/>
    <tag k="name" v="Дмитровское шоссе"/>
    <tag k="oneway" v="yes"/>
    <tag k="ref" v="А104"/>
  </way>
  <way id="115832233" version="3" timestamp="2012-03-25T16:17:54Z" uid="440644" user="markhor" changeset="11096752">
    <nd ref="1307549234"/>
    <nd ref="60443949"/>
    <nd ref="1229211963"/>
    <nd ref="60443951"/>
    <tag k="highway" v="trunk"/>
    <tag k="lit" v="yes"/>
    <tag k="name" v="Дмитровское шоссе"/>
    <tag k="oneway" v="yes"/>
    <tag k="ref" v="А104"/>
    <tag k="wikipedia" v="ru:Дмитровское_шоссе"/>
  </way>
  <way id="115832234" version="1" timestamp="2011-06-01T09:09:04Z" uid="115477" user="wowik" changeset="8308495">
    <nd ref="1229211952"/>
    <nd ref="60443948"/>
    <nd ref="1307549234"/>
    <tag k="bridge" v="yes"/>
    <tag k="highway" v="trunk"/>
    <tag k="layer" v="1"/>
    <tag k="lit" v="yes"/>
    <tag k="name" v="Дмитровское шоссе"/>
    <tag k="oneway" v="yes"/>
    <tag k="ref" v="А104"/>
  </way>
  <way id="115832234" version="2" timestamp="2012-03-25T16:17:29Z" uid="440644" user="markhor" changeset="11096752">
    <nd ref="1229211952"/>
    <nd ref="60443948"/>
    <nd ref="1307549234"/>
    <tag k="bridge" v="yes"/>
    <tag k="highway" v="trunk"/>
    <tag k="layer" v="1"/>
    <tag k="lit" v="yes"/>
    <tag k="name" v="Дмитровское шоссе"/>
    <tag k="oneway" v="yes"/>
    <tag k="ref" v="А104"/>
    <tag k="wikipedia" v="ru:Дмитровское_шоссе"/>
  </way>
  <way id="115832235" version="1" timestamp="2011-06-01T09:09:04Z" uid="115477" user="wowik" changeset="8308495">
    <nd ref="1307549242"/>
    <nd ref="66373431"/>
    <nd ref="1229211991"/>
    <nd ref="66373433"/>
    <nd ref="310961961"/>
    <nd ref="66373436"/>
    <tag k="highway" v="trunk"/>
    <tag k="lit" v="yes"/>
    <tag k="name" v="Дмитровское шоссе"/>
    <tag k="oneway" v="yes"/>
    <tag k="ref" v="А104"/>
  </way>
  <way id="115832235" version="2" timestamp="2011-06-23T14:16:58Z" uid="65083" user="deep125" changeset="8522262">
    <nd ref="1307549242"/>
    <nd ref="66373431"/>
    <nd ref="1229211991"/>
    <nd ref="66373433"/>
    <nd ref="310961961"/>
    <nd ref="66373436"/>
    <tag k="highway" v="trunk"/>
    <tag k="layer" v="1"/>
    <tag k="lit" v="yes"/>
    <tag k="name" v="Дмитровское шоссе"/>
    <tag k="oneway" v="yes"/>
    <tag k="ref" v="А104"/>
  </way>
  <way id="115832235" version="3" timestamp="2011-11-26T08:26:36Z" uid="440644" user="markhor" changeset="9952719"/>
  <way id="115832236" version="1" timestamp="2011-06-01T09:09:04Z" uid="115477" user="wowik" changeset="8308495">
    <nd ref="1307549244"/>
    <nd ref="1307549232"/>
    <nd ref="1307549226"/>
    <nd ref="1307549241"/>
    <nd ref="1307549244"/>
    <tag k="area" v="yes"/>
    <tag k="bridge" v="yes"/>
    <tag k="layer" v="1"/>
  </way>
  <way id="115832237" version="1" timestamp="2011-06-01T09:09:04Z" uid="115477" user="wowik" changeset="8308495">
    <nd ref="1307549243"/>
    <nd ref="1307549240"/>
    <nd ref="1307549220"/>
    <nd ref="1307549237"/>
    <nd ref="1307549243"/>
    <tag k="area" v="yes"/>
    <tag k="bridge" v="yes"/>
    <tag k="layer" v="1"/>
  </way>
  <way id="115832238" version="1" timestamp="2011-06-01T09:09:04Z" uid="115477" user="wowik" changeset="8308495">
    <nd ref="1307549229"/>
    <nd ref="1307549243"/>
    <nd ref="1307549237"/>
  </way>
  <way id="115832238" version="2" timestamp="2011-06-23T14:23:21Z" uid="65083" user="deep125" changeset="8522294"/>
  <way id="115832321" version="1" timestamp="2011-06-01T09:12:38Z" uid="115477" user="wowik" changeset="8308495">
    <nd ref="1307550951"/>
    <nd ref="60443952"/>
    <tag k="highway" v="trunk"/>
    <tag k="lit" v="yes"/>
    <tag k="name" v="Дмитровское шоссе"/>
    <tag k="oneway" v="yes"/>
    <tag k="ref" v="А104"/>
  </way>
  <way id="115832321" version="2" timestamp="2011-11-27T17:05:10Z" uid="440644" user="markhor" changeset="9969323">
    <nd ref="1307550951"/>
    <nd ref="1519883215"/>
    <tag k="highway" v="trunk"/>
    <tag k="lit" v="yes"/>
    <tag k="name" v="Дмитровское шоссе"/>
    <tag k="oneway" v="yes"/>
    <tag k="ref" v="А104"/>
  </way>
  <way id="115832321" version="3" timestamp="2012-03-25T16:16:44Z" uid="440644" user="markhor" changeset="11096752">
    <nd ref="1307550951"/>
    <nd ref="1519883215"/>
    <tag k="highway" v="trunk"/>
    <tag k="lit" v="yes"/>
    <tag k="name" v="Дмитровское шоссе"/>
    <tag k="oneway" v="yes"/>
    <tag k="ref" v="А104"/>
    <tag k="wikipedia" v="ru:Дмитровское_шоссе"/>
  </way>
  <way id="115832322" version="1" timestamp="2011-06-01T09:12:38Z" uid="115477" user="wowik" changeset="8308495">
    <nd ref="1307550952"/>
    <nd ref="66373423"/>
    <tag k="bridge" v="yes"/>
    <tag k="highway" v="trunk"/>
    <tag k="layer" v="1"/>
    <tag k="lit" v="yes"/>
    <tag k="name" v="Дмитровское шоссе"/>
    <tag k="oneway" v="yes"/>
    <tag k="ref" v="А104"/>
  </way>
  <way id="115832322" version="2" timestamp="2012-03-25T16:16:39Z" uid="440644" user="markhor" changeset="11096752">
    <nd ref="1307550952"/>
    <nd ref="66373423"/>
    <tag k="bridge" v="yes"/>
    <tag k="highway" v="trunk"/>
    <tag k="layer" v="1"/>
    <tag k="lit" v="yes"/>
    <tag k="name" v="Дмитровское шоссе"/>
    <tag k="oneway" v="yes"/>
    <tag k="ref" v="А104"/>
    <tag k="wikipedia" v="ru:Дмитровское_шоссе"/>
  </way>
  <way id="115832323" version="1" timestamp="2011-06-01T09:12:38Z" uid="115477" user="wowik" changeset="8308495">
    <nd ref="1307550961"/>
    <nd ref="1307550965"/>
    <nd ref="1307550959"/>
    <nd ref="1307550966"/>
    <nd ref="1307550961"/>
    <tag k="area" v="yes"/>
    <tag k="bridge" v="yes"/>
    <tag k="layer" v="y"/>
  </way>
  <way id="115832323" version="2" timestamp="2012-02-12T21:33:25Z" uid="519501" user="parukhin" changeset="10668531">
    <nd ref="1307550961"/>
    <nd ref="1307550965"/>
    <nd ref="1307550959"/>
    <nd ref="1307550966"/>
    <nd ref="1307550961"/>
    <tag k="area" v="yes"/>
    <tag k="bridge" v="yes"/>
    <tag k="layer" v="1"/>
  </way>
  <way id="115832324" version="1" timestamp="2011-06-01T09:12:38Z" uid="115477" user="wowik" changeset="8308495">
    <nd ref="1307550949"/>
    <nd ref="1307550953"/>
    <nd ref="1307550950"/>
    <nd ref="1307550960"/>
    <nd ref="1307550949"/>
    <tag k="area" v="yes"/>
    <tag k="bridge" v="yes"/>
    <tag k="layer" v="y"/>
  </way>
  <way id="115832324" version="2" timestamp="2012-02-12T21:33:25Z" uid="519501" user="parukhin" changeset="10668531">
    <nd ref="1307550949"/>
    <nd ref="1307550953"/>
    <nd ref="1307550950"/>
    <nd ref="1307550960"/>
    <nd ref="1307550949"/>
    <tag k="area" v="yes"/>
    <tag k="bridge" v="yes"/>
    <tag k="layer" v="1"/>
  </way>
  <way id="115832325" version="1" timestamp="2011-06-01T09:12:38Z" uid="115477" user="wowik" changeset="8308495">
    <nd ref="60443951"/>
    <nd ref="1307550951"/>
    <tag k="bridge" v="yes"/>
    <tag k="highway" v="trunk"/>
    <tag k="layer" v="1"/>
    <tag k="lit" v="yes"/>
    <tag k="name" v="Дмитровское шоссе"/>
    <tag k="oneway" v="yes"/>
    <tag k="ref" v="А104"/>
  </way>
  <way id="115832325" version="2" timestamp="2012-03-25T16:17:05Z" uid="440644" user="markhor" changeset="11096752">
    <nd ref="60443951"/>
    <nd ref="1307550951"/>
    <tag k="bridge" v="yes"/>
    <tag k="highway" v="trunk"/>
    <tag k="layer" v="1"/>
    <tag k="lit" v="yes"/>
    <tag k="name" v="Дмитровское шоссе"/>
    <tag k="oneway" v="yes"/>
    <tag k="ref" v="А104"/>
    <tag k="wikipedia" v="ru:Дмитровское_шоссе"/>
  </way>
  <way id="115832326" version="1" timestamp="2011-06-01T09:12:38Z" uid="115477" user="wowik" changeset="8308495">
    <nd ref="66373423"/>
    <nd ref="310961962"/>
    <nd ref="66373428"/>
    <nd ref="1307549242"/>
    <tag k="highway" v="trunk"/>
    <tag k="lit" v="yes"/>
    <tag k="name" v="Дмитровское шоссе"/>
    <tag k="oneway" v="yes"/>
    <tag k="ref" v="А104"/>
  </way>
  <way id="115832326" version="2" timestamp="2012-03-25T16:17:51Z" uid="440644" user="markhor" changeset="11096752">
    <nd ref="66373423"/>
    <nd ref="310961962"/>
    <nd ref="66373428"/>
    <nd ref="1307549242"/>
    <tag k="highway" v="trunk"/>
    <tag k="lit" v="yes"/>
    <tag k="name" v="Дмитровское шоссе"/>
    <tag k="oneway" v="yes"/>
    <tag k="ref" v="А104"/>
    <tag k="wikipedia" v="ru:Дмитровское_шоссе"/>
  </way>
  <way id="115832233" version="4" timestamp="2012-07-20T11:45:11Z" uid="722137" user="OSMF Redaction Account" changeset="12373892"/>
  <way id="115832234" version="3" timestamp="2012-07-20T11:45:11Z" uid="722137" user="OSMF Redaction Account" changeset="12373892"/>
  <way id="115832236" version="2" timestamp="2012-07-20T11:45:11Z" uid="722137" user="OSMF Redaction Account" changeset="12373892"/>
  <way id="115832237" version="2" timestamp="2012-07-20T11:45:11Z" uid="722137" user="OSMF Redaction Account" changeset="12373892"/>
  <way id="115832321" version="4" timestamp="2012-07-20T11:45:10Z" uid="722137" user="OSMF Redaction Account" changeset="12373892"/>
  <way id="115832322" version="3" timestamp="2012-07-20T11:45:10Z" uid="722137" user="OSMF Redaction Account" changeset="12373892"/>
  <way id="115832323" version="3" timestamp="2012-07-20T11:45:10Z" uid="722137" user="OSMF Redaction Account" changeset="12373892"/>
  <way id="115832324" version="3" timestamp="2012-07-20T11:45:10Z" uid="722137" user="OSMF Redaction Account" changeset="12373892"/>
  <way id="115832325" version="3" timestamp="2012-07-20T11:45:10Z" uid="722137" user="OSMF Redaction Account" changeset="12373892"/>
  <way id="115832326" version="3" timestamp="2012-07-20T11:45:10Z" uid="722137" user="OSMF Redaction Account" changeset="12373892"/>
</osm>
