<?xml version='1.0' encoding='UTF-8'?>
<osm version="0.6" generator="libosmium/2.20.0">
  <way id="11637485" version="4" timestamp="2010-03-21T04:17:16Z" uid="74617" user="JohnSmith" changeset="4187218">
    <nd ref="103921455"/>
    <nd ref="103921456"/>
    <nd ref="103921457"/>
    <nd ref="103923718"/>
    <nd ref="103921460"/>
    <nd ref="103921461"/>
    <nd ref="103921462"/>
    <nd ref="103921464"/>
    <nd ref="103921465"/>
    <nd ref="103921466"/>
    <nd ref="103921467"/>
    <nd ref="103921468"/>
    <nd ref="103921470"/>
    <nd ref="103921455"/>
    <tag k="highway" v="primary"/>
    <tag k="junction" v="roundabout"/>
  </way>
  <way id="11637485" version="5" timestamp="2010-12-23T06:14:49Z" uid="22094" user="Chadzopkyo" changeset="6742402">
    <nd ref="103921455"/>
    <nd ref="103921456"/>
    <nd ref="103921457"/>
    <nd ref="1058440015"/>
    <nd ref="1058440025"/>
    <nd ref="103923718"/>
    <nd ref="103921460"/>
    <nd ref="103921461"/>
    <nd ref="103921462"/>
    <nd ref="103921464"/>
    <nd ref="103921465"/>
    <nd ref="103921466"/>
    <nd ref="103921467"/>
    <nd ref="103921468"/>
    <nd ref="103921470"/>
    <nd ref="103921455"/>
    <tag k="highway" v="primary"/>
    <tag k="junction" v="roundabout"/>
    <tag k="lanes" v="2"/>
  </way>
  <way id="11637509" version="5" timestamp="2010-03-21T04:17:17Z" uid="74617" user="JohnSmith" changeset="4187218">
    <nd ref="103563913"/>
    <nd ref="103921737"/>
    <nd ref="103921738"/>
    <nd ref="103921739"/>
    <nd ref="103921470"/>
    <tag k="highway" v="primary"/>
    <tag k="name" v="Lytton Road"/>
    <tag k="oneway" v="yes"/>
  </way>
  <way id="11637509" version="6" timestamp="2010-12-23T06:14:57Z" uid="22094" user="Chadzopkyo" changeset="6742402">
    <nd ref="103563913"/>
    <nd ref="103921737"/>
    <nd ref="103921738"/>
    <nd ref="103921739"/>
    <nd ref="103921470"/>
    <tag k="highway" v="primary"/>
    <tag k="lanes" v="2"/>
    <tag k="name" v="Lytton Road"/>
    <tag k="oneway" v="yes"/>
  </way>
  <way id="11637561" version="5" timestamp="2010-03-21T04:17:17Z" uid="74617" user="JohnSmith" changeset="4187218">
    <nd ref="103921456"/>
    <nd ref="103922917"/>
    <nd ref="103922918"/>
    <nd ref="103922920"/>
    <tag k="highway" v="primary"/>
    <tag k="name" v="Junction Road"/>
    <tag k="oneway" v="yes"/>
  </way>
  <way id="11637561" version="6" timestamp="2010-06-16T03:10:01Z" uid="22094" user="Chadzopkyo" changeset="4997181">
    <nd ref="103921456"/>
    <nd ref="103922917"/>
    <nd ref="773402758"/>
    <nd ref="103922918"/>
    <nd ref="103922920"/>
    <tag k="highway" v="primary"/>
    <tag k="name" v="Junction Road"/>
    <tag k="oneway" v="yes"/>
  </way>
  <way id="11637561" version="7" timestamp="2010-12-23T06:15:00Z" uid="22094" user="Chadzopkyo" changeset="6742402"/>
  <way id="11637575" version="7" timestamp="2010-03-21T04:17:17Z" uid="74617" user="JohnSmith" changeset="4187218">
    <nd ref="103922920"/>
    <nd ref="103923223"/>
    <nd ref="103923224"/>
    <nd ref="103923226"/>
    <nd ref="103923228"/>
    <nd ref="103923718"/>
    <tag k="highway" v="primary"/>
    <tag k="name" v="Junction Road"/>
    <tag k="oneway" v="yes"/>
  </way>
  <way id="11637575" version="8" timestamp="2010-12-23T06:14:58Z" uid="22094" user="Chadzopkyo" changeset="6742402">
    <nd ref="103922920"/>
    <nd ref="103923223"/>
    <nd ref="103923224"/>
    <nd ref="103923226"/>
    <nd ref="103923228"/>
    <nd ref="1058440053"/>
    <nd ref="1058440025"/>
    <tag k="highway" v="primary"/>
    <tag k="name" v="Junction Road"/>
    <tag k="oneway" v="yes"/>
  </way>
  <way id="11637575" version="9" timestamp="2011-08-13T05:43:47Z" uid="22094" user="Chadzopkyo" changeset="9002249">
    <nd ref="103922920"/>
    <nd ref="103923223"/>
    <nd ref="103923224"/>
    <nd ref="103923226"/>
    <nd ref="1058440025"/>
    <tag k="highway" v="primary"/>
    <tag k="name" v="Junction Road"/>
    <tag k="oneway" v="yes"/>
  </way>
  <way id="11637623" version="5" timestamp="2010-03-21T04:17:16Z" uid="74617" user="JohnSmith" changeset="4187218">
    <nd ref="103921465"/>
    <nd ref="103924563"/>
    <nd ref="103924564"/>
    <nd ref="103563913"/>
    <tag k="highway" v="primary"/>
    <tag k="name" v="Lytton Road"/>
    <tag k="oneway" v="yes"/>
  </way>
  <way id="11637623" version="6" timestamp="2010-12-23T06:14:57Z" uid="22094" user="Chadzopkyo" changeset="6742402">
    <nd ref="103921465"/>
    <nd ref="103924563"/>
    <nd ref="103563913"/>
    <tag k="highway" v="primary"/>
    <tag k="lanes" v="2"/>
    <tag k="name" v="Lytton Road"/>
    <tag k="oneway" v="yes"/>
  </way>
  <way id="11637631" version="4" timestamp="2010-07-06T09:47:58Z" uid="74617" user="JohnSmith" changeset="5147679">
    <nd ref="103921461"/>
    <nd ref="103925073"/>
    <nd ref="103925074"/>
    <nd ref="103925076"/>
    <tag k="highway" v="residential"/>
    <tag k="maxspeed" v="50"/>
    <tag k="maxspeed:source" v="default residential speed limit in Australia"/>
    <tag k="name" v="Colmslie Road"/>
    <tag k="oneway" v="yes"/>
  </way>
  <way id="11637631" version="5" timestamp="2010-12-23T06:14:59Z" uid="22094" user="Chadzopkyo" changeset="6742402"/>
  <way id="11637633" version="4" timestamp="2010-07-06T09:51:38Z" uid="74617" user="JohnSmith" changeset="5147679">
    <nd ref="103925076"/>
    <nd ref="103925328"/>
    <nd ref="103925329"/>
    <nd ref="103925330"/>
    <nd ref="103921465"/>
    <tag k="highway" v="residential"/>
    <tag k="maxspeed" v="50"/>
    <tag k="maxspeed:source" v="default residential speed limit in Australia"/>
    <tag k="name" v="Colmslie Road"/>
    <tag k="oneway" v="yes"/>
  </way>
  <way id="11637633" version="5" timestamp="2010-12-23T06:14:50Z" uid="22094" user="Chadzopkyo" changeset="6742402">
    <nd ref="103925076"/>
    <nd ref="103925328"/>
    <nd ref="103925330"/>
    <nd ref="103921465"/>
    <tag k="highway" v="residential"/>
    <tag k="maxspeed" v="50"/>
    <tag k="maxspeed:source" v="default residential speed limit in Australia"/>
    <tag k="name" v="Colmslie Road"/>
    <tag k="oneway" v="yes"/>
  </way>
  <way id="11637633" version="6" timestamp="2011-08-13T05:43:44Z" uid="22094" user="Chadzopkyo" changeset="9002249">
    <nd ref="103925076"/>
    <nd ref="103925330"/>
    <nd ref="103921465"/>
    <tag k="highway" v="residential"/>
    <tag k="maxspeed" v="50"/>
    <tag k="maxspeed:source" v="default residential speed limit in Australia"/>
    <tag k="name" v="Colmslie Road"/>
    <tag k="oneway" v="yes"/>
  </way>
  <way id="11637633" version="7" timestamp="2012-01-15T10:49:56Z" uid="147510" user="woodpeck_fixbot" changeset="10396281">
    <nd ref="103925076"/>
    <nd ref="103925330"/>
    <nd ref="103921465"/>
    <tag k="highway" v="residential"/>
    <tag k="name" v="Colmslie Road"/>
    <tag k="oneway" v="yes"/>
  </way>
  <way id="11637734" version="6" timestamp="2010-07-06T09:50:43Z" uid="74617" user="JohnSmith" changeset="5147679">
    <nd ref="103925076"/>
    <nd ref="103920633"/>
    <nd ref="103927856"/>
    <nd ref="103927858"/>
    <nd ref="103927860"/>
    <nd ref="103927861"/>
    <nd ref="103927863"/>
    <nd ref="103927865"/>
    <nd ref="103927866"/>
    <nd ref="103927868"/>
    <nd ref="513263657"/>
    <nd ref="103927869"/>
    <nd ref="103927871"/>
    <nd ref="103927872"/>
    <nd ref="103927874"/>
    <nd ref="103927875"/>
    <nd ref="103927877"/>
    <nd ref="103927879"/>
    <nd ref="103927881"/>
    <nd ref="103927882"/>
    <nd ref="103927884"/>
    <nd ref="103927886"/>
    <nd ref="103927887"/>
    <nd ref="103927888"/>
    <nd ref="763007203"/>
    <tag k="highway" v="residential"/>
    <tag k="maxspeed" v="50"/>
    <tag k="maxspeed:source" v="default residential speed limit in Australia"/>
    <tag k="name" v="Colmslie Road"/>
  </way>
  <way id="11637734" version="7" timestamp="2010-12-23T06:14:54Z" uid="22094" user="Chadzopkyo" changeset="6742402">
    <nd ref="103925076"/>
    <nd ref="103920633"/>
    <nd ref="103927858"/>
    <nd ref="103927860"/>
    <nd ref="103927861"/>
    <nd ref="103927863"/>
    <nd ref="103927866"/>
    <nd ref="103927868"/>
    <nd ref="513263657"/>
    <nd ref="103927869"/>
    <nd ref="103927871"/>
    <nd ref="103927872"/>
    <nd ref="103927874"/>
    <nd ref="103927875"/>
    <nd ref="103927877"/>
    <nd ref="103927879"/>
    <nd ref="103927881"/>
    <nd ref="103927882"/>
    <nd ref="103927884"/>
    <nd ref="103927886"/>
    <nd ref="103927887"/>
    <nd ref="103927888"/>
    <nd ref="763007203"/>
    <tag k="highway" v="residential"/>
    <tag k="maxspeed" v="50"/>
    <tag k="maxspeed:source" v="default residential speed limit in Australia"/>
    <tag k="name" v="Colmslie Road"/>
  </way>
  <way id="11637734" version="8" timestamp="2012-01-15T10:49:58Z" uid="147510" user="woodpeck_fixbot" changeset="10396281">
    <nd ref="103925076"/>
    <nd ref="103920633"/>
    <nd ref="103927858"/>
    <nd ref="103927860"/>
    <nd ref="103927861"/>
    <nd ref="103927863"/>
    <nd ref="103927866"/>
    <nd ref="103927868"/>
    <nd ref="513263657"/>
    <nd ref="103927869"/>
    <nd ref="103927871"/>
    <nd ref="103927872"/>
    <nd ref="103927874"/>
    <nd ref="103927875"/>
    <nd ref="103927877"/>
    <nd ref="103927879"/>
    <nd ref="103927881"/>
    <nd ref="103927882"/>
    <nd ref="103927884"/>
    <nd ref="103927886"/>
    <nd ref="103927887"/>
    <nd ref="103927888"/>
    <nd ref="763007203"/>
    <tag k="highway" v="residential"/>
    <tag k="name" v="Colmslie Road"/>
  </way>
  <way id="11637761" version="3" timestamp="2010-02-14T17:15:28Z" uid="74617" user="JohnSmith" changeset="3875836">
    <nd ref="103927905"/>
    <nd ref="103927928"/>
    <tag k="highway" v="residential"/>
    <tag k="maxspeed" v="50"/>
    <tag k="name" v="Arch Lane"/>
  </way>
  <way id="11637761" version="4" timestamp="2010-10-16T12:12:08Z" uid="76643" user="mikeinoz" changeset="6057037">
    <nd ref="103927905"/>
    <nd ref="103927928"/>
    <tag k="highway" v="residential"/>
    <tag k="maxspeed" v="50"/>
    <tag k="name" v="Arch Lane"/>
  </way>
  <way id="11637761" version="5" timestamp="2012-01-15T10:50:00Z" uid="147510" user="woodpeck_fixbot" changeset="10396281">
    <nd ref="103927905"/>
    <nd ref="103927928"/>
    <tag k="highway" v="residential"/>
    <tag k="name" v="Arch Lane"/>
  </way>
  <way id="11637763" version="5" timestamp="2010-02-14T17:15:12Z" uid="74617" user="JohnSmith" changeset="3875836">
    <nd ref="21478927"/>
    <nd ref="289069793"/>
    <nd ref="289069794"/>
    <nd ref="74004068"/>
    <nd ref="289069795"/>
    <nd ref="289069796"/>
    <nd ref="74004105"/>
    <tag k="highway" v="secondary"/>
    <tag k="name" v="Ivory Street Tunnel"/>
  </way>
  <way id="11637763" version="6" timestamp="2010-06-14T16:30:53Z" uid="114230" user="danerikk" changeset="4989300">
    <nd ref="21478927"/>
    <nd ref="772793580"/>
    <nd ref="289069793"/>
    <nd ref="289069794"/>
    <nd ref="74004068"/>
    <nd ref="772793593"/>
    <nd ref="772793596"/>
    <nd ref="289069795"/>
    <nd ref="772793607"/>
    <nd ref="289069796"/>
    <nd ref="74004105"/>
    <tag k="highway" v="secondary"/>
    <tag k="name" v="Ivory Street Tunnel"/>
  </way>
  <way id="11637763" version="7" timestamp="2010-06-15T20:47:38Z" uid="114230" user="danerikk" changeset="4995517">
    <nd ref="21478927"/>
    <nd ref="772793580"/>
    <nd ref="289069793"/>
    <nd ref="289069794"/>
    <nd ref="74004068"/>
    <tag k="highway" v="secondary"/>
    <tag k="name" v="Ivory Street Tunnel"/>
  </way>
  <way id="11637763" version="8" timestamp="2010-06-15T20:55:27Z" uid="114230" user="danerikk" changeset="4995517">
    <nd ref="21478927"/>
    <nd ref="772793580"/>
    <nd ref="289069793"/>
    <nd ref="289069794"/>
    <nd ref="773279541"/>
    <nd ref="74004068"/>
    <nd ref="773279553"/>
    <nd ref="773279558"/>
    <nd ref="773279567"/>
    <nd ref="773279573"/>
    <nd ref="773279478"/>
    <nd ref="773279577"/>
    <nd ref="773279581"/>
    <nd ref="773279587"/>
    <nd ref="773279592"/>
    <nd ref="773272890"/>
    <tag k="highway" v="secondary"/>
    <tag k="name" v="Ivory Street Tunnel"/>
    <tag k="oneway" v="yes"/>
  </way>
  <way id="11637763" version="9" timestamp="2010-06-15T20:55:30Z" uid="114230" user="danerikk" changeset="4995517">
    <nd ref="21478927"/>
    <nd ref="772793580"/>
    <nd ref="289069793"/>
    <nd ref="289069794"/>
    <nd ref="773279541"/>
    <nd ref="74004068"/>
    <nd ref="773279553"/>
    <nd ref="773279558"/>
    <nd ref="773279567"/>
    <nd ref="773279573"/>
    <nd ref="773279478"/>
    <tag k="highway" v="secondary"/>
    <tag k="name" v="Ivory Street Tunnel"/>
    <tag k="oneway" v="yes"/>
  </way>
  <way id="11637763" version="10" timestamp="2010-06-15T20:57:58Z" uid="114230" user="danerikk" changeset="4995517">
    <nd ref="21478927"/>
    <nd ref="772793580"/>
    <nd ref="289069793"/>
    <nd ref="289069794"/>
    <nd ref="773279541"/>
    <nd ref="74004068"/>
    <tag k="highway" v="secondary"/>
    <tag k="name" v="Ivory Street Tunnel"/>
    <tag k="oneway" v="yes"/>
  </way>
  <way id="11637763" version="11" timestamp="2010-06-15T20:58:16Z" uid="114230" user="danerikk" changeset="4995517">
    <nd ref="21478927"/>
    <nd ref="772793580"/>
    <nd ref="289069793"/>
    <nd ref="289069794"/>
    <nd ref="773279541"/>
    <nd ref="74004068"/>
    <tag k="highway" v="secondary"/>
    <tag k="lanes" v="1"/>
    <tag k="name" v="Ivory Street Tunnel"/>
    <tag k="oneway" v="yes"/>
  </way>
  <way id="11637766" version="3" timestamp="2010-02-14T17:15:30Z" uid="74617" user="JohnSmith" changeset="3875836">
    <nd ref="103927953"/>
    <nd ref="103927981"/>
    <nd ref="103928112"/>
    <tag k="highway" v="residential"/>
    <tag k="lcn" v="yes"/>
    <tag k="maxspeed" v="50"/>
    <tag k="name" v="Ivory Lane"/>
  </way>
  <way id="11637766" version="4" timestamp="2010-03-09T05:39:08Z" uid="211951" user="Dr Paul Martin" changeset="4078231">
    <nd ref="103927953"/>
    <nd ref="663133656"/>
    <nd ref="103927981"/>
    <nd ref="663133657"/>
    <nd ref="103928112"/>
    <tag k="highway" v="residential"/>
    <tag k="lcn" v="yes"/>
    <tag k="maxspeed" v="50"/>
    <tag k="name" v="Ivory Lane"/>
  </way>
  <way id="11637766" version="5" timestamp="2011-07-11T01:14:01Z" uid="103574" user="El Segundo can&apos;t win" changeset="8689772">
    <nd ref="1357272239"/>
    <nd ref="663133656"/>
    <nd ref="103927981"/>
    <nd ref="663133657"/>
    <nd ref="103928112"/>
    <tag k="highway" v="residential"/>
    <tag k="lcn" v="yes"/>
    <tag k="maxspeed" v="50"/>
    <tag k="name" v="Ivory Lane"/>
  </way>
  <way id="11637766" version="6" timestamp="2012-01-15T10:50:01Z" uid="147510" user="woodpeck_fixbot" changeset="10396281">
    <nd ref="1357272239"/>
    <nd ref="663133656"/>
    <nd ref="103927981"/>
    <nd ref="663133657"/>
    <nd ref="103928112"/>
    <tag k="highway" v="residential"/>
    <tag k="lcn" v="yes"/>
    <tag k="name" v="Ivory Lane"/>
  </way>
  <way id="11637767" version="3" timestamp="2010-02-14T17:15:32Z" uid="74617" user="JohnSmith" changeset="3875836">
    <nd ref="103927964"/>
    <nd ref="103927890"/>
    <tag k="highway" v="residential"/>
    <tag k="lcn" v="yes"/>
    <tag k="maxspeed" v="50"/>
    <tag k="name" v="Boundary Street"/>
  </way>
  <way id="11637767" version="4" timestamp="2010-03-09T05:38:58Z" uid="211951" user="Dr Paul Martin" changeset="4078231"/>
  <way id="11637772" version="6" timestamp="2010-02-14T17:02:55Z" uid="74617" user="JohnSmith" changeset="3875836">
    <nd ref="103928221"/>
    <nd ref="266723920"/>
    <nd ref="266723922"/>
    <nd ref="74838762"/>
    <nd ref="103928155"/>
    <tag k="bridge" v="yes"/>
    <tag k="highway" v="primary"/>
    <tag k="layer" v="1"/>
    <tag k="name" v="Bradfield Highway"/>
    <tag k="oneway" v="yes"/>
    <tag k="ref" v="S15"/>
  </way>
  <way id="11637772" version="7" timestamp="2010-03-20T16:39:28Z" uid="74617" user="JohnSmith" changeset="4181787">
    <nd ref="103928221"/>
    <nd ref="266723920"/>
    <nd ref="266723922"/>
    <nd ref="74838762"/>
    <nd ref="103928155"/>
    <tag k="bridge" v="yes"/>
    <tag k="highway" v="primary"/>
    <tag k="layer" v="1"/>
    <tag k="name" v="Bradfield Highway"/>
    <tag k="oneway" v="yes"/>
  </way>
  <way id="11637772" version="8" timestamp="2010-05-09T10:35:46Z" uid="84644" user="Ash Kyd" changeset="4646855">
    <nd ref="103928221"/>
    <nd ref="266723920"/>
    <nd ref="266723922"/>
    <nd ref="74838762"/>
    <nd ref="103928155"/>
    <tag k="bridge" v="yes"/>
    <tag k="cycleway" v="track"/>
    <tag k="highway" v="primary"/>
    <tag k="layer" v="1"/>
    <tag k="name" v="Bradfield Highway"/>
    <tag k="oneway" v="yes"/>
  </way>
  <way id="11637772" version="9" timestamp="2010-06-14T14:39:48Z" uid="114230" user="danerikk" changeset="4988437">
    <nd ref="103928221"/>
    <nd ref="266723920"/>
    <nd ref="266723922"/>
    <nd ref="772657770"/>
    <nd ref="772657771"/>
    <nd ref="74838762"/>
    <nd ref="772657776"/>
    <nd ref="103928155"/>
    <tag k="bridge" v="yes"/>
    <tag k="cycleway" v="track"/>
    <tag k="highway" v="primary"/>
    <tag k="layer" v="1"/>
    <tag k="name" v="Bradfield Highway"/>
    <tag k="oneway" v="yes"/>
  </way>
  <way id="11637772" version="10" timestamp="2010-06-14T14:40:20Z" uid="114230" user="danerikk" changeset="4988437">
    <nd ref="103928221"/>
    <nd ref="266723920"/>
    <nd ref="772658560"/>
    <nd ref="266723922"/>
    <nd ref="772657770"/>
    <nd ref="772657771"/>
    <nd ref="74838762"/>
    <nd ref="772657776"/>
    <nd ref="103928155"/>
    <tag k="bridge" v="yes"/>
    <tag k="cycleway" v="track"/>
    <tag k="highway" v="primary"/>
    <tag k="layer" v="1"/>
    <tag k="name" v="Bradfield Highway"/>
    <tag k="oneway" v="yes"/>
  </way>
  <way id="11637772" version="11" timestamp="2012-03-30T01:57:10Z" uid="349913" user="Peter W34" changeset="11146361"/>
  <way id="11637775" version="5" timestamp="2010-02-12T11:37:56Z" uid="74617" user="JohnSmith" changeset="3855511">
    <nd ref="103928203"/>
    <nd ref="616887473"/>
    <nd ref="616887474"/>
    <nd ref="616887475"/>
    <nd ref="74838530"/>
    <nd ref="21478138"/>
    <nd ref="636968065"/>
    <nd ref="21478140"/>
    <tag k="highway" v="primary"/>
    <tag k="name" v="Bradfield Highway"/>
    <tag k="oneway" v="yes"/>
    <tag k="ref" v="S15"/>
  </way>
  <way id="11637775" version="6" timestamp="2010-03-20T16:43:47Z" uid="74617" user="JohnSmith" changeset="4181845">
    <nd ref="103928203"/>
    <nd ref="616887473"/>
    <nd ref="616887474"/>
    <nd ref="616887475"/>
    <nd ref="74838530"/>
    <nd ref="21478138"/>
    <nd ref="636968065"/>
    <nd ref="21478140"/>
    <tag k="highway" v="primary"/>
    <tag k="name" v="Bradfield Highway"/>
    <tag k="oneway" v="yes"/>
  </way>
  <way id="11637775" version="7" timestamp="2010-06-13T15:31:21Z" uid="114230" user="danerikk" changeset="4979343">
    <nd ref="103928203"/>
    <nd ref="616887473"/>
    <nd ref="616887474"/>
    <nd ref="616887475"/>
    <nd ref="74838530"/>
    <nd ref="21478138"/>
    <nd ref="771501132"/>
    <nd ref="636968065"/>
    <nd ref="21478140"/>
    <tag k="highway" v="primary"/>
    <tag k="name" v="Bradfield Highway"/>
    <tag k="oneway" v="yes"/>
  </way>
  <way id="11637775" version="8" timestamp="2010-06-13T15:33:29Z" uid="114230" user="danerikk" changeset="4979343">
    <nd ref="103928203"/>
    <nd ref="616887473"/>
    <nd ref="616887474"/>
    <nd ref="616887475"/>
    <nd ref="74838530"/>
    <nd ref="21478138"/>
    <nd ref="771501132"/>
    <nd ref="771502839"/>
    <nd ref="771502840"/>
    <nd ref="636968065"/>
    <nd ref="21478140"/>
    <tag k="highway" v="primary"/>
    <tag k="name" v="Bradfield Highway"/>
    <tag k="oneway" v="yes"/>
  </way>
  <way id="11637775" version="9" timestamp="2010-06-14T14:42:53Z" uid="114230" user="danerikk" changeset="4988437">
    <nd ref="103928203"/>
    <nd ref="616887473"/>
    <nd ref="616887474"/>
    <nd ref="616887475"/>
    <nd ref="74838530"/>
    <nd ref="772664346"/>
    <nd ref="21478138"/>
    <nd ref="771501132"/>
    <nd ref="771502839"/>
    <nd ref="771502840"/>
    <nd ref="636968065"/>
    <nd ref="21478140"/>
    <tag k="highway" v="primary"/>
    <tag k="name" v="Bradfield Highway"/>
    <tag k="oneway" v="yes"/>
  </way>
  <way id="11637775" version="10" timestamp="2010-06-14T14:43:56Z" uid="114230" user="danerikk" changeset="4988437">
    <nd ref="103928203"/>
    <nd ref="616887473"/>
    <nd ref="616887474"/>
    <nd ref="616887475"/>
    <nd ref="74838530"/>
    <nd ref="772664346"/>
    <nd ref="772666174"/>
    <nd ref="21478138"/>
    <nd ref="771501132"/>
    <nd ref="771502839"/>
    <nd ref="771502840"/>
    <nd ref="636968065"/>
    <nd ref="21478140"/>
    <tag k="highway" v="primary"/>
    <tag k="name" v="Bradfield Highway"/>
    <tag k="oneway" v="yes"/>
  </way>
  <way id="11637775" version="11" timestamp="2012-03-30T01:57:10Z" uid="349913" user="Peter W34" changeset="11146361"/>
  <way id="11637776" version="5" timestamp="2010-02-14T17:02:55Z" uid="74617" user="JohnSmith" changeset="3875836">
    <nd ref="103928137"/>
    <nd ref="103928264"/>
    <nd ref="74838528"/>
    <nd ref="266723923"/>
    <nd ref="266723921"/>
    <nd ref="103928203"/>
    <tag k="bridge" v="yes"/>
    <tag k="highway" v="primary"/>
    <tag k="layer" v="1"/>
    <tag k="name" v="Bradfield Highway"/>
    <tag k="oneway" v="yes"/>
    <tag k="ref" v="S15"/>
  </way>
  <way id="11637776" version="6" timestamp="2010-03-20T16:39:28Z" uid="74617" user="JohnSmith" changeset="4181787">
    <nd ref="103928137"/>
    <nd ref="103928264"/>
    <nd ref="74838528"/>
    <nd ref="266723923"/>
    <nd ref="266723921"/>
    <nd ref="103928203"/>
    <tag k="bridge" v="yes"/>
    <tag k="highway" v="primary"/>
    <tag k="layer" v="1"/>
    <tag k="name" v="Bradfield Highway"/>
    <tag k="oneway" v="yes"/>
  </way>
  <way id="11637776" version="7" timestamp="2010-05-09T10:35:46Z" uid="84644" user="Ash Kyd" changeset="4646855">
    <nd ref="103928137"/>
    <nd ref="103928264"/>
    <nd ref="74838528"/>
    <nd ref="266723923"/>
    <nd ref="266723921"/>
    <nd ref="103928203"/>
    <tag k="bridge" v="yes"/>
    <tag k="cycleway" v="track"/>
    <tag k="highway" v="primary"/>
    <tag k="layer" v="1"/>
    <tag k="name" v="Bradfield Highway"/>
    <tag k="oneway" v="yes"/>
  </way>
  <way id="11637776" version="8" timestamp="2010-06-14T14:40:09Z" uid="114230" user="danerikk" changeset="4988437">
    <nd ref="103928137"/>
    <nd ref="103928264"/>
    <nd ref="74838528"/>
    <nd ref="772658288"/>
    <nd ref="772658290"/>
    <nd ref="266723923"/>
    <nd ref="266723921"/>
    <nd ref="103928203"/>
    <tag k="bridge" v="yes"/>
    <tag k="cycleway" v="track"/>
    <tag k="highway" v="primary"/>
    <tag k="layer" v="1"/>
    <tag k="name" v="Bradfield Highway"/>
    <tag k="oneway" v="yes"/>
  </way>
  <way id="11637776" version="9" timestamp="2012-03-30T02:17:32Z" uid="349913" user="Peter W34" changeset="11146361"/>
  <way id="11637778" version="4" timestamp="2010-02-14T17:15:30Z" uid="74617" user="JohnSmith" changeset="3875836">
    <nd ref="103928155"/>
    <nd ref="103928188"/>
    <nd ref="26336380"/>
    <tag k="highway" v="primary"/>
    <tag k="name" v="Bradfield Highway"/>
    <tag k="oneway" v="yes"/>
    <tag k="ref" v="S15"/>
  </way>
  <way id="11637778" version="5" timestamp="2010-03-20T16:39:29Z" uid="74617" user="JohnSmith" changeset="4181787">
    <nd ref="103928155"/>
    <nd ref="103928188"/>
    <nd ref="26336380"/>
    <tag k="highway" v="primary"/>
    <tag k="name" v="Bradfield Highway"/>
    <tag k="oneway" v="yes"/>
  </way>
  <way id="11637780" version="2" timestamp="2010-02-14T17:12:36Z" uid="74617" user="JohnSmith" changeset="3875836">
    <nd ref="103928264"/>
    <nd ref="103928277"/>
    <nd ref="103928284"/>
    <tag k="highway" v="steps"/>
  </way>
  <way id="11637780" version="3" timestamp="2012-02-19T09:51:10Z" uid="361861" user="jtebruen" changeset="10727893">
    <nd ref="103928264"/>
    <nd ref="1638820958"/>
    <nd ref="103928277"/>
    <nd ref="103928284"/>
    <tag k="highway" v="steps"/>
  </way>
  <way id="11637809" version="6" timestamp="2010-03-21T04:17:17Z" uid="74617" user="JohnSmith" changeset="4187218">
    <nd ref="103922920"/>
    <nd ref="103928940"/>
    <nd ref="103928941"/>
    <nd ref="103928942"/>
    <nd ref="103928943"/>
    <nd ref="103928944"/>
    <nd ref="103928945"/>
    <nd ref="103928946"/>
    <nd ref="103928947"/>
    <nd ref="103928949"/>
    <tag k="highway" v="primary"/>
    <tag k="name" v="Junction Road"/>
  </way>
  <way id="11637809" version="7" timestamp="2010-06-16T03:10:01Z" uid="22094" user="Chadzopkyo" changeset="4997181">
    <nd ref="103922920"/>
    <nd ref="103928940"/>
    <nd ref="103928941"/>
    <nd ref="103928942"/>
    <nd ref="103928943"/>
    <nd ref="103928944"/>
    <nd ref="103928945"/>
    <nd ref="773402764"/>
    <nd ref="103928946"/>
    <nd ref="103928947"/>
    <nd ref="103928949"/>
    <tag k="highway" v="primary"/>
    <tag k="name" v="Junction Road"/>
  </way>
  <way id="11637809" version="8" timestamp="2010-08-21T03:47:27Z" uid="128470" user="vkungys" changeset="5548827">
    <nd ref="103922920"/>
    <nd ref="103928940"/>
    <nd ref="103928941"/>
    <nd ref="103928942"/>
    <nd ref="103928943"/>
    <nd ref="103928944"/>
    <nd ref="103928945"/>
    <nd ref="773402764"/>
    <nd ref="103928946"/>
    <nd ref="103928947"/>
    <nd ref="103928949"/>
    <tag k="cycleway" v="lane"/>
    <tag k="highway" v="primary"/>
    <tag k="name" v="Junction Road"/>
  </way>
  <way id="11637485" version="6" timestamp="2012-04-15T05:05:06Z" uid="22094" user="Chadzopkyo" changeset="11305992">
    <nd ref="103921455"/>
    <nd ref="103921456"/>
    <nd ref="103921457"/>
    <nd ref="1058440015"/>
    <nd ref="1058440025"/>
    <nd ref="103923718"/>
    <nd ref="103921460"/>
    <nd ref="103921461"/>
    <nd ref="103921462"/>
    <nd ref="103921464"/>
    <nd ref="1717378559"/>
    <nd ref="103921465"/>
    <nd ref="103921466"/>
    <nd ref="103921467"/>
    <nd ref="103921468"/>
    <nd ref="103921470"/>
    <nd ref="103921455"/>
    <tag k="highway" v="primary"/>
    <tag k="junction" v="roundabout"/>
    <tag k="lanes" v="2"/>
    <tag k="name" v="Lytton Road"/>
  </way>
  <way id="11637633" version="8" timestamp="2012-04-15T05:05:05Z" uid="22094" user="Chadzopkyo" changeset="11305992">
    <nd ref="103925076"/>
    <nd ref="103925330"/>
    <nd ref="1717378559"/>
    <tag k="highway" v="residential"/>
    <tag k="name" v="Colmslie Road"/>
    <tag k="oneway" v="yes"/>
  </way>
  <way id="11637734" version="9" timestamp="2012-04-19T05:22:34Z" uid="22094" user="Chadzopkyo" changeset="11350597">
    <nd ref="103925076"/>
    <nd ref="103920633"/>
    <nd ref="103927858"/>
    <nd ref="103927860"/>
    <nd ref="103927861"/>
    <nd ref="103927863"/>
    <nd ref="103927868"/>
    <nd ref="513263657"/>
    <nd ref="103927869"/>
    <nd ref="103927871"/>
    <nd ref="103927872"/>
    <nd ref="103927877"/>
    <nd ref="103927879"/>
    <nd ref="103927881"/>
    <nd ref="103927882"/>
    <nd ref="103927888"/>
    <nd ref="763007203"/>
    <tag k="highway" v="residential"/>
    <tag k="name" v="Colmslie Road"/>
  </way>
</osm>
