<?xml version='1.0' encoding='UTF-8'?>
<osm version="0.6" generator="libosmium/2.20.0">
  <way id="11640533" version="4" timestamp="2010-07-06T10:04:40Z" uid="74617" user="JohnSmith" changeset="5147679">
    <nd ref="103984781"/>
    <nd ref="103984782"/>
    <nd ref="103984783"/>
    <nd ref="103984784"/>
    <nd ref="103984785"/>
    <nd ref="103984787"/>
    <tag k="highway" v="residential"/>
    <tag k="maxspeed" v="50"/>
    <tag k="maxspeed:source" v="default residential speed limit in Australia"/>
    <tag k="name" v="Bradnor Street"/>
  </way>
  <way id="11640533" version="5" timestamp="2011-08-18T06:08:39Z" uid="22094" user="Chadzopkyo" changeset="9053899">
    <nd ref="103984781"/>
    <nd ref="103984783"/>
    <nd ref="103984787"/>
    <tag k="highway" v="residential"/>
    <tag k="maxspeed" v="50"/>
    <tag k="maxspeed:source" v="default residential speed limit in Australia"/>
    <tag k="name" v="Bradnor Street"/>
    <tag k="source" v="GPS"/>
    <tag k="surface" v="asphalt"/>
  </way>
  <way id="11640533" version="6" timestamp="2012-01-15T10:50:10Z" uid="147510" user="woodpeck_fixbot" changeset="10396281">
    <nd ref="103984781"/>
    <nd ref="103984783"/>
    <nd ref="103984787"/>
    <tag k="highway" v="residential"/>
    <tag k="name" v="Bradnor Street"/>
    <tag k="source" v="GPS"/>
    <tag k="surface" v="asphalt"/>
  </way>
  <way id="11640560" version="6" timestamp="2010-07-06T10:12:40Z" uid="74617" user="JohnSmith" changeset="5147679">
    <nd ref="103987886"/>
    <nd ref="103987887"/>
    <nd ref="103984787"/>
    <nd ref="103985267"/>
    <nd ref="103985269"/>
    <nd ref="103985909"/>
    <nd ref="103985271"/>
    <nd ref="103985272"/>
    <nd ref="103985273"/>
    <tag k="highway" v="residential"/>
    <tag k="maxspeed" v="50"/>
    <tag k="maxspeed:source" v="default residential speed limit in Australia"/>
    <tag k="name" v="Kenrose Street"/>
  </way>
  <way id="11640560" version="7" timestamp="2011-08-18T06:08:42Z" uid="22094" user="Chadzopkyo" changeset="9053899">
    <nd ref="103987886"/>
    <nd ref="103987887"/>
    <nd ref="103984787"/>
    <nd ref="103985909"/>
    <nd ref="103985272"/>
    <nd ref="103985273"/>
    <tag k="highway" v="residential"/>
    <tag k="maxspeed" v="50"/>
    <tag k="maxspeed:source" v="default residential speed limit in Australia"/>
    <tag k="name" v="Kenrose Street"/>
    <tag k="source" v="GPS"/>
    <tag k="surface" v="asphalt"/>
  </way>
  <way id="11640560" version="8" timestamp="2012-01-15T10:50:12Z" uid="147510" user="woodpeck_fixbot" changeset="10396281">
    <nd ref="103987886"/>
    <nd ref="103987887"/>
    <nd ref="103984787"/>
    <nd ref="103985909"/>
    <nd ref="103985272"/>
    <nd ref="103985273"/>
    <tag k="highway" v="residential"/>
    <tag k="name" v="Kenrose Street"/>
    <tag k="source" v="GPS"/>
    <tag k="surface" v="asphalt"/>
  </way>
  <way id="11640581" version="4" timestamp="2009-12-09T23:05:23Z" uid="200463" user="harmagedon" changeset="3337772">
    <nd ref="103985550"/>
    <nd ref="103985551"/>
    <nd ref="103985553"/>
    <nd ref="103985700"/>
    <tag k="foot" v="yes"/>
    <tag k="highway" v="footway"/>
  </way>
  <way id="11640593" version="9" timestamp="2010-07-06T10:11:57Z" uid="74617" user="JohnSmith" changeset="5147679">
    <nd ref="103985909"/>
    <nd ref="103985910"/>
    <nd ref="103985911"/>
    <nd ref="103987633"/>
    <nd ref="103986681"/>
    <nd ref="103985912"/>
    <nd ref="103985914"/>
    <nd ref="260399328"/>
    <tag k="highway" v="residential"/>
    <tag k="maxspeed" v="50"/>
    <tag k="maxspeed:source" v="default residential speed limit in Australia"/>
    <tag k="name" v="Kordick Street"/>
  </way>
  <way id="11640593" version="10" timestamp="2011-08-18T06:08:42Z" uid="22094" user="Chadzopkyo" changeset="9053899">
    <nd ref="103985909"/>
    <nd ref="103987633"/>
    <nd ref="103986681"/>
    <nd ref="103985912"/>
    <nd ref="103985914"/>
    <nd ref="260399328"/>
    <tag k="highway" v="residential"/>
    <tag k="maxspeed" v="50"/>
    <tag k="maxspeed:source" v="default residential speed limit in Australia"/>
    <tag k="name" v="Kordick Street"/>
    <tag k="source" v="GPS"/>
    <tag k="surface" v="asphalt"/>
  </way>
  <way id="11640593" version="11" timestamp="2012-01-15T10:50:13Z" uid="147510" user="woodpeck_fixbot" changeset="10396281">
    <nd ref="103985909"/>
    <nd ref="103987633"/>
    <nd ref="103986681"/>
    <nd ref="103985912"/>
    <nd ref="103985914"/>
    <nd ref="260399328"/>
    <tag k="highway" v="residential"/>
    <tag k="name" v="Kordick Street"/>
    <tag k="source" v="GPS"/>
    <tag k="surface" v="asphalt"/>
  </way>
  <way id="11640617" version="6" timestamp="2009-12-09T23:05:26Z" uid="200463" user="harmagedon" changeset="3337772">
    <nd ref="103985700"/>
    <nd ref="103986116"/>
    <nd ref="103986117"/>
    <nd ref="116164702"/>
    <tag k="foot" v="yes"/>
    <tag k="highway" v="footway"/>
    <tag k="name" v="Wasterkingerweg"/>
  </way>
  <way id="11640639" version="6" timestamp="2010-07-06T10:11:38Z" uid="74617" user="JohnSmith" changeset="5147679">
    <nd ref="103594637"/>
    <nd ref="103986678"/>
    <nd ref="103986679"/>
    <nd ref="103986680"/>
    <nd ref="103984781"/>
    <nd ref="103986681"/>
    <tag k="highway" v="residential"/>
    <tag k="maxspeed" v="50"/>
    <tag k="maxspeed:source" v="default residential speed limit in Australia"/>
    <tag k="name" v="Merle Street"/>
  </way>
  <way id="11640639" version="7" timestamp="2011-08-18T06:08:44Z" uid="22094" user="Chadzopkyo" changeset="9053899">
    <nd ref="103594637"/>
    <nd ref="103986678"/>
    <nd ref="103986679"/>
    <nd ref="103986680"/>
    <nd ref="103984781"/>
    <nd ref="103986681"/>
    <tag k="highway" v="residential"/>
    <tag k="maxspeed" v="50"/>
    <tag k="maxspeed:source" v="default residential speed limit in Australia"/>
    <tag k="name" v="Merle Street"/>
    <tag k="source" v="GPS"/>
    <tag k="surface" v="asphalt"/>
  </way>
  <way id="11640639" version="8" timestamp="2012-01-15T10:50:15Z" uid="147510" user="woodpeck_fixbot" changeset="10396281">
    <nd ref="103594637"/>
    <nd ref="103986678"/>
    <nd ref="103986679"/>
    <nd ref="103986680"/>
    <nd ref="103984781"/>
    <nd ref="103986681"/>
    <tag k="highway" v="residential"/>
    <tag k="name" v="Merle Street"/>
    <tag k="source" v="GPS"/>
    <tag k="surface" v="asphalt"/>
  </way>
  <way id="11640689" version="5" timestamp="2010-07-06T10:09:00Z" uid="74617" user="JohnSmith" changeset="5147679">
    <nd ref="103987633"/>
    <nd ref="103987636"/>
    <nd ref="103987637"/>
    <nd ref="103987639"/>
    <tag k="highway" v="residential"/>
    <tag k="maxspeed" v="50"/>
    <tag k="maxspeed:source" v="default residential speed limit in Australia"/>
    <tag k="name" v="Rymer Street"/>
  </way>
  <way id="11640689" version="6" timestamp="2011-08-18T06:08:45Z" uid="22094" user="Chadzopkyo" changeset="9053899">
    <nd ref="103987633"/>
    <nd ref="103987637"/>
    <nd ref="1403017023"/>
    <nd ref="103987639"/>
    <tag k="highway" v="residential"/>
    <tag k="maxspeed" v="50"/>
    <tag k="maxspeed:source" v="default residential speed limit in Australia"/>
    <tag k="name" v="Rymer Street"/>
    <tag k="source" v="GPS"/>
    <tag k="surface" v="asphalt"/>
  </way>
  <way id="11640689" version="7" timestamp="2012-01-15T10:50:17Z" uid="147510" user="woodpeck_fixbot" changeset="10396281">
    <nd ref="103987633"/>
    <nd ref="103987637"/>
    <nd ref="1403017023"/>
    <nd ref="103987639"/>
    <tag k="highway" v="residential"/>
    <tag k="name" v="Rymer Street"/>
    <tag k="source" v="GPS"/>
    <tag k="surface" v="asphalt"/>
  </way>
  <way id="11640714" version="4" timestamp="2010-07-06T10:02:28Z" uid="74617" user="JohnSmith" changeset="5147679">
    <nd ref="103987887"/>
    <nd ref="103988272"/>
    <nd ref="103988274"/>
    <nd ref="103988275"/>
    <nd ref="103988276"/>
    <nd ref="103986680"/>
    <tag k="highway" v="residential"/>
    <tag k="maxspeed" v="50"/>
    <tag k="maxspeed:source" v="default residential speed limit in Australia"/>
    <tag k="name" v="Ramsden Street"/>
  </way>
  <way id="11640714" version="5" timestamp="2010-07-29T09:27:24Z" uid="4467" user="Rosscoe" changeset="5345044">
    <nd ref="103987887"/>
    <nd ref="103988272"/>
    <nd ref="103988274"/>
    <nd ref="103988275"/>
    <nd ref="103986680"/>
    <tag k="highway" v="residential"/>
    <tag k="maxspeed" v="50"/>
    <tag k="maxspeed:source" v="default residential speed limit in Australia"/>
    <tag k="name" v="Ramsden Street"/>
  </way>
  <way id="11640714" version="6" timestamp="2011-08-18T06:08:44Z" uid="22094" user="Chadzopkyo" changeset="9053899">
    <nd ref="103987887"/>
    <nd ref="103988272"/>
    <nd ref="103988274"/>
    <nd ref="103988275"/>
    <nd ref="103986680"/>
    <tag k="highway" v="residential"/>
    <tag k="maxspeed" v="50"/>
    <tag k="maxspeed:source" v="default residential speed limit in Australia"/>
    <tag k="name" v="Ramsden Street"/>
    <tag k="source" v="GPS"/>
    <tag k="surface" v="asphalt"/>
  </way>
  <way id="11640714" version="7" timestamp="2012-01-15T10:50:18Z" uid="147510" user="woodpeck_fixbot" changeset="10396281">
    <nd ref="103987887"/>
    <nd ref="103988272"/>
    <nd ref="103988274"/>
    <nd ref="103988275"/>
    <nd ref="103986680"/>
    <tag k="highway" v="residential"/>
    <tag k="name" v="Ramsden Street"/>
    <tag k="source" v="GPS"/>
    <tag k="surface" v="asphalt"/>
  </way>
  <way id="11640786" version="7" timestamp="2009-12-09T23:05:28Z" uid="200463" user="harmagedon" changeset="3337772">
    <nd ref="103756643"/>
    <nd ref="103756644"/>
    <nd ref="103756645"/>
    <nd ref="103989543"/>
    <nd ref="103989544"/>
    <nd ref="103989545"/>
    <nd ref="103989546"/>
    <nd ref="103991297"/>
    <tag k="highway" v="unclassified"/>
    <tag k="name" v="Stampfistrasse"/>
  </way>
  <way id="11640786" version="8" timestamp="2010-02-20T10:29:46Z" uid="8296" user="kuede" changeset="3922046">
    <nd ref="103756643"/>
    <nd ref="103756644"/>
    <nd ref="103756645"/>
    <nd ref="103989543"/>
    <nd ref="647878680"/>
    <nd ref="103989544"/>
    <nd ref="103989545"/>
    <nd ref="103989546"/>
    <nd ref="103991297"/>
    <tag k="highway" v="unclassified"/>
    <tag k="name" v="Stampfistrasse"/>
  </way>
  <way id="11640806" version="7" timestamp="2010-07-06T10:07:46Z" uid="74617" user="JohnSmith" changeset="5147679">
    <nd ref="103990352"/>
    <nd ref="103990354"/>
    <nd ref="103987886"/>
    <nd ref="178247640"/>
    <nd ref="103990085"/>
    <nd ref="103990087"/>
    <nd ref="103990088"/>
    <nd ref="103990089"/>
    <nd ref="103990091"/>
    <nd ref="103986679"/>
    <tag k="highway" v="residential"/>
    <tag k="maxspeed" v="50"/>
    <tag k="maxspeed:source" v="default residential speed limit in Australia"/>
    <tag k="name" v="Mee Street"/>
  </way>
  <way id="11640806" version="8" timestamp="2010-07-29T08:44:00Z" uid="4467" user="Rosscoe" changeset="5344779">
    <nd ref="103990352"/>
    <nd ref="103987886"/>
    <nd ref="178247640"/>
    <nd ref="103990085"/>
    <nd ref="103990087"/>
    <nd ref="103990088"/>
    <nd ref="103990089"/>
    <nd ref="103990091"/>
    <nd ref="103986679"/>
    <tag k="highway" v="residential"/>
    <tag k="maxspeed" v="50"/>
    <tag k="maxspeed:source" v="default residential speed limit in Australia"/>
    <tag k="name" v="Mee Street"/>
  </way>
  <way id="11640806" version="9" timestamp="2010-07-29T09:27:25Z" uid="4467" user="Rosscoe" changeset="5345044">
    <nd ref="103990352"/>
    <nd ref="103987886"/>
    <nd ref="178247640"/>
    <nd ref="103990085"/>
    <nd ref="103990087"/>
    <nd ref="103990088"/>
    <nd ref="103990089"/>
    <nd ref="103986679"/>
    <tag k="highway" v="residential"/>
    <tag k="maxspeed" v="50"/>
    <tag k="maxspeed:source" v="default residential speed limit in Australia"/>
    <tag k="name" v="Mee Street"/>
  </way>
  <way id="11640806" version="10" timestamp="2011-08-18T06:08:43Z" uid="22094" user="Chadzopkyo" changeset="9053899">
    <nd ref="103990352"/>
    <nd ref="103987886"/>
    <nd ref="178247640"/>
    <nd ref="103990085"/>
    <nd ref="103990087"/>
    <nd ref="103990088"/>
    <nd ref="103990089"/>
    <nd ref="103986679"/>
    <tag k="highway" v="residential"/>
    <tag k="maxspeed" v="50"/>
    <tag k="maxspeed:source" v="default residential speed limit in Australia"/>
    <tag k="name" v="Mee Street"/>
    <tag k="source" v="GPS"/>
    <tag k="surface" v="asphalt"/>
  </way>
  <way id="11640806" version="11" timestamp="2012-01-15T10:50:20Z" uid="147510" user="woodpeck_fixbot" changeset="10396281">
    <nd ref="103990352"/>
    <nd ref="103987886"/>
    <nd ref="178247640"/>
    <nd ref="103990085"/>
    <nd ref="103990087"/>
    <nd ref="103990088"/>
    <nd ref="103990089"/>
    <nd ref="103986679"/>
    <tag k="highway" v="residential"/>
    <tag k="name" v="Mee Street"/>
    <tag k="source" v="GPS"/>
    <tag k="surface" v="asphalt"/>
  </way>
  <way id="11640871" version="3" timestamp="2009-12-09T23:05:27Z" uid="200463" user="harmagedon" changeset="3337772">
    <nd ref="103991278"/>
    <nd ref="103991279"/>
    <nd ref="103991280"/>
    <nd ref="103991281"/>
    <nd ref="103991282"/>
    <nd ref="103991283"/>
    <nd ref="103991284"/>
    <nd ref="103991285"/>
    <nd ref="103991286"/>
    <nd ref="103991287"/>
    <nd ref="103991288"/>
    <nd ref="103991290"/>
    <nd ref="103991292"/>
    <nd ref="103991293"/>
    <nd ref="103991294"/>
    <nd ref="103991295"/>
    <nd ref="103991296"/>
    <nd ref="103991297"/>
    <tag k="foot" v="yes"/>
    <tag k="highway" v="footway"/>
    <tag k="name" v="Rhiweg"/>
  </way>
  <way id="11640871" version="4" timestamp="2011-08-08T23:12:53Z" uid="8296" user="kuede" changeset="8962644">
    <nd ref="103991278"/>
    <nd ref="103991279"/>
    <nd ref="103991280"/>
    <nd ref="103991281"/>
    <nd ref="103991282"/>
    <nd ref="103991283"/>
    <nd ref="103991284"/>
    <nd ref="103991285"/>
    <nd ref="103991286"/>
    <nd ref="103991287"/>
    <nd ref="103991288"/>
    <nd ref="103991290"/>
    <nd ref="103991292"/>
    <tag k="foot" v="yes"/>
    <tag k="highway" v="footway"/>
    <tag k="name" v="Rhiweg"/>
  </way>
  <way id="11640871" version="5" timestamp="2012-06-15T09:47:54Z" uid="653802" user="Podvalov" changeset="11903055">
    <nd ref="103991278"/>
    <nd ref="103991279"/>
    <nd ref="103991280"/>
    <nd ref="103991281"/>
    <nd ref="103991282"/>
    <nd ref="103991283"/>
    <nd ref="1788373305"/>
    <nd ref="103991284"/>
    <nd ref="1788373316"/>
    <nd ref="103991285"/>
    <nd ref="103991286"/>
    <nd ref="103991287"/>
    <nd ref="103991288"/>
    <nd ref="103991290"/>
    <nd ref="103991292"/>
    <tag k="foot" v="yes"/>
    <tag k="highway" v="footway"/>
    <tag k="name" v="Rhiweg"/>
  </way>
</osm>
