<?xml version='1.0' encoding='UTF-8'?>
<osm version="0.6" generator="libosmium/2.20.0">
  <way id="11680873" version="4" timestamp="2008-11-17T19:31:00Z" uid="79904" user="VanceK" changeset="763589"/>
  <way id="11680900" version="4" timestamp="2010-01-12T20:54:25Z" uid="33382" user="de_muur" changeset="3606038">
    <nd ref="102906462"/>
    <nd ref="102906463"/>
    <nd ref="102906464"/>
    <nd ref="102906466"/>
    <nd ref="167061647"/>
    <nd ref="167061689"/>
    <tag k="foot" v="yes"/>
    <tag k="highway" v="cycleway"/>
    <tag k="name" v="Funkschneise"/>
    <tag k="surface" v="paved"/>
  </way>
  <way id="11680901" version="3" timestamp="2010-01-12T20:54:25Z" uid="33382" user="de_muur" changeset="3606038">
    <nd ref="102906461"/>
    <nd ref="102906462"/>
    <tag k="bridge" v="yes"/>
    <tag k="foot" v="yes"/>
    <tag k="highway" v="cycleway"/>
    <tag k="layer" v="1"/>
    <tag k="name" v="Funkschneise"/>
    <tag k="surface" v="paved"/>
  </way>
  <way id="11680920" version="9" timestamp="2010-01-09T15:03:44Z" uid="33382" user="de_muur" changeset="3578351">
    <nd ref="48632119"/>
    <nd ref="102916472"/>
    <nd ref="239735079"/>
    <nd ref="102916471"/>
    <nd ref="169500239"/>
    <nd ref="102916470"/>
    <tag k="cycleway" v="track"/>
    <tag k="highway" v="secondary"/>
    <tag k="maxspeed" v="50"/>
    <tag k="name" v="Hannoversche Straße"/>
    <tag k="surface" v="paved"/>
  </way>
  <way id="11680933" version="5" timestamp="2010-01-09T15:21:02Z" uid="33382" user="de_muur" changeset="3578499">
    <nd ref="102890157"/>
    <nd ref="36801163"/>
    <nd ref="36800890"/>
    <nd ref="102899286"/>
    <tag k="cycleway" v="track"/>
    <tag k="highway" v="residential"/>
    <tag k="maxspeed" v="50"/>
    <tag k="name" v="Christernstraße"/>
    <tag k="surface" v="paved"/>
  </way>
  <way id="11680939" version="9" timestamp="2009-01-11T14:36:16Z" uid="33382" user="de_muur" changeset="773802">
    <nd ref="331214814"/>
    <nd ref="232768679"/>
    <nd ref="159943172"/>
    <nd ref="102890153"/>
    <nd ref="102898051"/>
    <nd ref="102890155"/>
    <tag k="created_by" v="Potlatch 0.4c"/>
    <tag k="cycleway" v="track"/>
    <tag k="highway" v="residential"/>
    <tag k="name" v="Bruchweg"/>
    <tag k="source" v="survey"/>
  </way>
  <way id="11680939" version="10" timestamp="2009-02-18T17:42:21Z" uid="33382" user="de_muur" changeset="541453">
    <nd ref="331214818"/>
    <nd ref="232768679"/>
    <nd ref="159943172"/>
    <nd ref="102890153"/>
    <nd ref="102898051"/>
    <nd ref="102890155"/>
    <tag k="created_by" v="Potlatch 0.4c"/>
    <tag k="cycleway" v="track"/>
    <tag k="highway" v="residential"/>
    <tag k="name" v="Bruchweg"/>
    <tag k="source" v="survey"/>
  </way>
  <way id="11680939" version="11" timestamp="2010-12-27T13:09:32Z" uid="57645" user="KartoGrapHiti" changeset="6777507">
    <nd ref="331214818"/>
    <nd ref="232768679"/>
    <nd ref="159943172"/>
    <nd ref="102890153"/>
    <nd ref="102898051"/>
    <nd ref="102890155"/>
    <tag k="cycleway" v="track"/>
    <tag k="highway" v="residential"/>
    <tag k="name" v="Bruchweg"/>
    <tag k="source" v="survey"/>
  </way>
  <way id="11680948" version="3" timestamp="2009-01-11T14:36:15Z" uid="33382" user="de_muur" changeset="773802">
    <nd ref="331214818"/>
    <nd ref="232768685"/>
    <nd ref="104471729"/>
    <nd ref="104471737"/>
    <tag k="created_by" v="JOSM"/>
    <tag k="highway" v="residential"/>
    <tag k="name" v="Tägtmeyerstraße"/>
  </way>
  <way id="11680948" version="4" timestamp="2010-12-27T13:14:07Z" uid="57645" user="KartoGrapHiti" changeset="6777507">
    <nd ref="331214818"/>
    <nd ref="232768685"/>
    <nd ref="104471729"/>
    <nd ref="104471737"/>
    <tag k="highway" v="residential"/>
    <tag k="name" v="Tägtmeyerstraße"/>
  </way>
  <way id="11680900" version="5" timestamp="2012-07-17T11:52:25Z" uid="722137" user="OSMF Redaction Account" changeset="12264539">
    <nd ref="102906462"/>
    <nd ref="102906463"/>
    <nd ref="102906464"/>
    <nd ref="102906466"/>
    <nd ref="167061647"/>
    <nd ref="167061689"/>
    <tag k="foot" v="yes"/>
    <tag k="highway" v="cycleway"/>
    <tag k="name" v="Funkschneise"/>
  </way>
  <way id="11680901" version="4" timestamp="2012-07-17T11:52:27Z" uid="722137" user="OSMF Redaction Account" changeset="12264539">
    <nd ref="102906461"/>
    <nd ref="102906462"/>
    <tag k="bridge" v="yes"/>
    <tag k="foot" v="yes"/>
    <tag k="highway" v="cycleway"/>
    <tag k="layer" v="1"/>
    <tag k="name" v="Funkschneise"/>
  </way>
  <way id="11680920" version="10" timestamp="2012-07-17T11:52:20Z" uid="722137" user="OSMF Redaction Account" changeset="12264539">
    <nd ref="48632119"/>
    <nd ref="102916472"/>
    <nd ref="239735079"/>
    <nd ref="102916471"/>
    <nd ref="169500239"/>
    <nd ref="102916470"/>
    <tag k="cycleway" v="track"/>
    <tag k="highway" v="secondary"/>
    <tag k="name" v="Hemelinger Heerstraße"/>
  </way>
  <way id="11680933" version="6" timestamp="2012-07-17T11:52:27Z" uid="722137" user="OSMF Redaction Account" changeset="12264539">
    <nd ref="102890157"/>
    <nd ref="36801163"/>
    <nd ref="36800890"/>
    <nd ref="102899286"/>
    <tag k="cycleway" v="track"/>
    <tag k="highway" v="residential"/>
    <tag k="maxspeed" v="50"/>
    <tag k="name" v="Christernstraße"/>
  </way>
  <way id="11680939" version="12" timestamp="2012-07-17T11:52:24Z" uid="722137" user="OSMF Redaction Account" changeset="12264539">
    <nd ref="232768679"/>
    <nd ref="159943172"/>
    <nd ref="102890153"/>
    <nd ref="102898051"/>
    <nd ref="102890155"/>
    <tag k="cycleway" v="track"/>
    <tag k="highway" v="residential"/>
    <tag k="name" v="Bruchweg"/>
    <tag k="source" v="survey"/>
  </way>
  <way id="11680948" version="5" timestamp="2012-07-17T11:52:24Z" uid="722137" user="OSMF Redaction Account" changeset="12264539">
    <nd ref="232768685"/>
    <nd ref="104471729"/>
    <nd ref="104471737"/>
    <tag k="highway" v="residential"/>
    <tag k="name" v="Tägtmeyerstraße"/>
  </way>
</osm>
