<?xml version='1.0' encoding='UTF-8'?>
<osm version="0.6" generator="libosmium/2.20.0">
  <way id="117200282" version="1" timestamp="2011-06-11T13:35:27Z" uid="66036" user="h4v" changeset="8406012">
    <nd ref="1320103008"/>
    <nd ref="1320103020"/>
    <tag k="addr:inclusion" v="potential"/>
    <tag k="addr:interpolation" v="odd"/>
  </way>
  <way id="117200283" version="1" timestamp="2011-06-11T13:35:27Z" uid="66036" user="h4v" changeset="8406012">
    <nd ref="1320103009"/>
    <nd ref="1320103022"/>
    <tag k="addr:inclusion" v="estimate"/>
    <tag k="addr:interpolation" v="even"/>
  </way>
  <way id="117200284" version="1" timestamp="2011-06-11T13:35:27Z" uid="66036" user="h4v" changeset="8406012">
    <nd ref="1320102984"/>
    <nd ref="1320103029"/>
    <nd ref="1320103018"/>
    <nd ref="1320103005"/>
    <nd ref="1320102978"/>
    <nd ref="1320102947"/>
    <nd ref="1320102984"/>
    <tag k="addr:housenumber" v="107"/>
    <tag k="building" v="yes"/>
    <tag k="heritage" v="2"/>
    <tag k="heritage:operator" v="nid"/>
    <tag k="historic" v="heritage"/>
    <tag k="name" v="Pałacyk Elektrowni Łódzkiej"/>
    <tag k="operator" v="Uniwersytet Łódzki"/>
    <tag k="ref:nid" v="A/86"/>
  </way>
  <way id="117200284" version="2" timestamp="2012-02-09T09:09:04Z" uid="73912" user="Jacek_lodz" changeset="10631827">
    <nd ref="1320102984"/>
    <nd ref="1320103029"/>
    <nd ref="1320103018"/>
    <nd ref="1320103005"/>
    <nd ref="1320102978"/>
    <nd ref="1320102947"/>
    <nd ref="1320102984"/>
    <tag k="addr:housenumber" v="107"/>
    <tag k="building" v="yes"/>
    <tag k="heritage" v="2"/>
    <tag k="heritage:operator" v="nid"/>
    <tag k="historic" v="heritage"/>
    <tag k="name" v="Pałacyk Elektrowni Łódzkiej"/>
    <tag k="operator" v="Uniwersytet Łódzki"/>
    <tag k="ref:nid" v="A/86"/>
    <tag k="tourism" v="attraction"/>
  </way>
  <way id="117200285" version="1" timestamp="2011-06-11T13:35:27Z" uid="66036" user="h4v" changeset="8406012">
    <nd ref="1320103024"/>
    <nd ref="1320102990"/>
    <nd ref="1320102963"/>
    <nd ref="1320102986"/>
    <nd ref="1320103024"/>
    <tag k="addr:housenumber" v="1"/>
    <tag k="addr:street" v="Karolewska"/>
    <tag k="building" v="yes"/>
    <tag k="heritage" v="2"/>
    <tag k="heritage:operator" v="nid"/>
    <tag k="historic" v="heritage"/>
    <tag k="name" v="Willa Ryszarda Leona Schimmela"/>
    <tag k="ref:nid" v="A/285"/>
  </way>
  <way id="117200285" version="2" timestamp="2012-02-15T13:08:44Z" uid="73912" user="Jacek_lodz" changeset="10691948">
    <nd ref="1320103024"/>
    <nd ref="1320102990"/>
    <nd ref="1320102963"/>
    <nd ref="1320102986"/>
    <nd ref="1320103024"/>
    <tag k="addr:housenumber" v="1"/>
    <tag k="addr:street" v="Karolewska"/>
    <tag k="building" v="yes"/>
    <tag k="heritage" v="2"/>
    <tag k="heritage:operator" v="nid"/>
    <tag k="historic" v="heritage"/>
    <tag k="name" v="Willa Ryszarda Leona Schimmela"/>
    <tag k="ref:nid" v="A/285"/>
    <tag k="tourism" v="attraction"/>
  </way>
  <way id="117200286" version="1" timestamp="2011-06-11T13:35:27Z" uid="66036" user="h4v" changeset="8406012">
    <nd ref="1320103027"/>
    <nd ref="1320103001"/>
    <tag k="addr:inclusion" v="estimate"/>
    <tag k="addr:interpolation" v="odd"/>
  </way>
  <way id="117200287" version="1" timestamp="2011-06-11T13:35:27Z" uid="66036" user="h4v" changeset="8406012">
    <nd ref="1320103021"/>
    <nd ref="1320103030"/>
    <tag k="addr:inclusion" v="estimate"/>
    <tag k="addr:interpolation" v="even"/>
  </way>
  <way id="117200288" version="1" timestamp="2011-06-11T13:35:27Z" uid="66036" user="h4v" changeset="8406012">
    <nd ref="1203357616"/>
    <nd ref="1320102971"/>
    <nd ref="1320102937"/>
    <nd ref="1320103019"/>
    <nd ref="1203357457"/>
    <nd ref="1203357616"/>
    <tag k="barrier" v="wall"/>
    <tag k="heritage" v="2"/>
    <tag k="heritage:operator" v="nid"/>
    <tag k="historic" v="heritage"/>
    <tag k="leisure" v="common"/>
    <tag k="name" v="zespół pałacu Rudolfa Kellera"/>
    <tag k="ref:nid" v="A/299"/>
  </way>
  <way id="117200289" version="1" timestamp="2011-06-11T13:35:28Z" uid="66036" user="h4v" changeset="8406012">
    <nd ref="1320102959"/>
    <nd ref="1320102980"/>
    <tag k="addr:inclusion" v="estimate"/>
    <tag k="addr:interpolation" v="odd"/>
  </way>
  <way id="117200290" version="1" timestamp="2011-06-11T13:35:28Z" uid="66036" user="h4v" changeset="8406012">
    <nd ref="1320103026"/>
    <nd ref="1320102936"/>
    <nd ref="1320103025"/>
    <nd ref="1320102966"/>
    <nd ref="1320103026"/>
    <tag k="addr:housenumber" v="22"/>
    <tag k="amenity" v="hospital"/>
    <tag k="heritage" v="2"/>
    <tag k="heritage:operator" v="nid"/>
    <tag k="historic" v="heritage"/>
    <tag k="name" v="Szpital im. Barlickiego"/>
    <tag k="ref:nid" v="A/106"/>
  </way>
  <way id="117200291" version="1" timestamp="2011-06-11T13:35:28Z" uid="66036" user="h4v" changeset="8406012">
    <nd ref="1320102977"/>
    <nd ref="1320102999"/>
    <tag k="addr:inclusion" v="estimate"/>
    <tag k="addr:interpolation" v="even"/>
  </way>
  <way id="117200292" version="1" timestamp="2011-06-11T13:35:28Z" uid="66036" user="h4v" changeset="8406012">
    <nd ref="1320103006"/>
    <nd ref="1320102949"/>
    <tag k="addr:inclusion" v="potential"/>
    <tag k="addr:interpolation" v="even"/>
  </way>
  <way id="117200292" version="2" timestamp="2012-01-02T17:43:21Z" uid="577656" user="iwona_0202" changeset="10273354">
    <nd ref="1320103006"/>
    <nd ref="1320102949"/>
    <tag k="addr:inclusion" v="potential"/>
    <tag k="addr:interpolation" v="even"/>
  </way>
  <way id="117200293" version="1" timestamp="2011-06-11T13:35:28Z" uid="66036" user="h4v" changeset="8406012">
    <nd ref="1320102938"/>
    <nd ref="1320103016"/>
    <nd ref="1320102992"/>
    <nd ref="1320102969"/>
    <nd ref="1320103033"/>
    <nd ref="1320103023"/>
    <nd ref="1320102938"/>
    <tag k="addr:housenumber" v="101"/>
    <tag k="building" v="yes"/>
    <tag k="name" v="Muzeum Przyrodnicze"/>
    <tag k="operator" v="Uniwersytet Łódzki"/>
  </way>
  <way id="117200294" version="1" timestamp="2011-06-11T13:35:28Z" uid="66036" user="h4v" changeset="8406012">
    <nd ref="1320103003"/>
    <nd ref="1279173246"/>
    <tag k="addr:inclusion" v="potential"/>
    <tag k="addr:interpolation" v="odd"/>
  </way>
  <way id="117200295" version="1" timestamp="2011-06-11T13:35:28Z" uid="66036" user="h4v" changeset="8406012">
    <nd ref="1320102942"/>
    <nd ref="1320103017"/>
    <tag k="addr:inclusion" v="estimate"/>
    <tag k="addr:interpolation" v="odd"/>
  </way>
  <way id="117200296" version="1" timestamp="2011-06-11T13:35:29Z" uid="66036" user="h4v" changeset="8406012">
    <nd ref="1320102964"/>
    <nd ref="1320102988"/>
    <nd ref="1320102962"/>
    <nd ref="1320103031"/>
    <nd ref="1320102964"/>
    <tag k="addr:housenumber" v="89"/>
    <tag k="building" v="yes"/>
    <tag k="heritage" v="2"/>
    <tag k="heritage:operator" v="nid"/>
    <tag k="historic" v="heritage"/>
    <tag k="name" v="dom Reinharda Bennicha"/>
    <tag k="ref:nid" v="A/40"/>
  </way>
  <way id="117200296" version="2" timestamp="2011-09-18T08:41:03Z" uid="338611" user="marek kleciak" changeset="9330210">
    <nd ref="1320102964"/>
    <nd ref="1320102988"/>
    <nd ref="1320102962"/>
    <nd ref="1436258786"/>
    <nd ref="1320103031"/>
    <nd ref="1320102964"/>
    <tag k="addr:housenumber" v="89"/>
    <tag k="building" v="yes"/>
    <tag k="heritage" v="2"/>
    <tag k="heritage:operator" v="nid"/>
    <tag k="historic" v="heritage"/>
    <tag k="name" v="dom Reinharda Bennicha"/>
    <tag k="ref:nid" v="A/40"/>
  </way>
  <way id="117200297" version="1" timestamp="2011-06-11T13:35:29Z" uid="66036" user="h4v" changeset="8406012">
    <nd ref="1320102956"/>
    <nd ref="1320103028"/>
    <nd ref="1320103007"/>
    <nd ref="1320102982"/>
    <nd ref="1320102956"/>
    <tag k="addr:housenumber" v="22"/>
    <tag k="amenity" v="veterinary"/>
    <tag k="building" v="yes"/>
    <tag k="name" v="Lecznica &quot;Pod koniem&quot;"/>
  </way>
  <way id="117200282" version="2" timestamp="2012-07-24T13:34:11Z" uid="722137" user="OSMF Redaction Account" changeset="12466765"/>
  <way id="117200283" version="2" timestamp="2012-07-24T13:34:28Z" uid="722137" user="OSMF Redaction Account" changeset="12466777"/>
  <way id="117200284" version="3" timestamp="2012-06-25T09:01:08Z" uid="147230" user="SQ9NIT" changeset="12008782">
    <nd ref="1320102984"/>
    <nd ref="1320103029"/>
    <nd ref="1320103018"/>
    <nd ref="1320103005"/>
    <nd ref="1320102978"/>
    <nd ref="1320102947"/>
    <nd ref="1320102984"/>
    <tag k="addr:housenumber" v="107"/>
    <tag k="building" v="yes"/>
    <tag k="heritage" v="2"/>
    <tag k="heritage:operator" v="nid"/>
    <tag k="historic" v="palace"/>
    <tag k="name" v="Pałacyk Elektrowni Łódzkiej"/>
    <tag k="operator" v="Uniwersytet Łódzki"/>
    <tag k="ref:nid" v="A/86"/>
    <tag k="tourism" v="attraction"/>
  </way>
  <way id="117200284" version="4" timestamp="2012-07-24T13:34:10Z" uid="722137" user="OSMF Redaction Account" changeset="12466765"/>
  <way id="117200285" version="3" timestamp="2012-06-25T09:01:09Z" uid="147230" user="SQ9NIT" changeset="12008782">
    <nd ref="1320103024"/>
    <nd ref="1320102990"/>
    <nd ref="1320102963"/>
    <nd ref="1320102986"/>
    <nd ref="1320103024"/>
    <tag k="addr:housenumber" v="1"/>
    <tag k="addr:street" v="Karolewska"/>
    <tag k="building" v="yes"/>
    <tag k="heritage" v="2"/>
    <tag k="heritage:operator" v="nid"/>
    <tag k="historic" v="building"/>
    <tag k="name" v="Willa Ryszarda Leona Schimmela"/>
    <tag k="ref:nid" v="A/285"/>
    <tag k="tourism" v="attraction"/>
  </way>
  <way id="117200285" version="4" timestamp="2012-07-24T13:34:03Z" uid="722137" user="OSMF Redaction Account" changeset="12466765"/>
  <way id="117200286" version="2" timestamp="2012-07-24T13:34:14Z" uid="722137" user="OSMF Redaction Account" changeset="12466765"/>
  <way id="117200287" version="2" timestamp="2012-07-24T13:34:39Z" uid="722137" user="OSMF Redaction Account" changeset="12466777"/>
  <way id="117200288" version="2" timestamp="2012-06-25T08:39:56Z" uid="147230" user="SQ9NIT" changeset="12008533">
    <nd ref="1203357616"/>
    <nd ref="1320102971"/>
    <nd ref="1320102937"/>
    <nd ref="1320103019"/>
    <nd ref="1203357457"/>
    <nd ref="1203357616"/>
    <tag k="barrier" v="wall"/>
    <tag k="heritage" v="2"/>
    <tag k="heritage:operator" v="nid"/>
    <tag k="historic" v="park"/>
    <tag k="leisure" v="common"/>
    <tag k="name" v="zespół pałacu Rudolfa Kellera"/>
    <tag k="ref:nid" v="A/299"/>
  </way>
  <way id="117200288" version="3" timestamp="2012-07-24T13:34:24Z" uid="722137" user="OSMF Redaction Account" changeset="12466777"/>
  <way id="117200289" version="2" timestamp="2012-07-24T13:34:16Z" uid="722137" user="OSMF Redaction Account" changeset="12466765"/>
  <way id="117200290" version="2" timestamp="2012-06-25T09:01:08Z" uid="147230" user="SQ9NIT" changeset="12008782">
    <nd ref="1320103026"/>
    <nd ref="1320102936"/>
    <nd ref="1320103025"/>
    <nd ref="1320102966"/>
    <nd ref="1320103026"/>
    <tag k="addr:housenumber" v="22"/>
    <tag k="amenity" v="hospital"/>
    <tag k="heritage" v="2"/>
    <tag k="heritage:operator" v="nid"/>
    <tag k="historic" v="hospital"/>
    <tag k="name" v="Szpital im. Barlickiego"/>
    <tag k="ref:nid" v="A/106"/>
  </way>
  <way id="117200290" version="3" timestamp="2012-07-24T13:34:33Z" uid="722137" user="OSMF Redaction Account" changeset="12466777"/>
  <way id="117200291" version="2" timestamp="2012-07-24T13:34:09Z" uid="722137" user="OSMF Redaction Account" changeset="12466765"/>
  <way id="117200292" version="3" timestamp="2012-07-24T13:34:37Z" uid="722137" user="OSMF Redaction Account" changeset="12466777"/>
  <way id="117200293" version="2" timestamp="2012-07-24T13:34:12Z" uid="722137" user="OSMF Redaction Account" changeset="12466765"/>
  <way id="117200294" version="2" timestamp="2012-07-24T13:34:24Z" uid="722137" user="OSMF Redaction Account" changeset="12466777"/>
  <way id="117200295" version="2" timestamp="2012-07-24T13:34:20Z" uid="722137" user="OSMF Redaction Account" changeset="12466777"/>
  <way id="117200296" version="3" timestamp="2012-06-25T09:01:11Z" uid="147230" user="SQ9NIT" changeset="12008782">
    <nd ref="1320102964"/>
    <nd ref="1320102988"/>
    <nd ref="1320102962"/>
    <nd ref="1436258786"/>
    <nd ref="1320103031"/>
    <nd ref="1320102964"/>
    <tag k="addr:housenumber" v="89"/>
    <tag k="building" v="yes"/>
    <tag k="heritage" v="2"/>
    <tag k="heritage:operator" v="nid"/>
    <tag k="historic" v="building"/>
    <tag k="name" v="dom Reinharda Bennicha"/>
    <tag k="ref:nid" v="A/40"/>
  </way>
  <way id="117200296" version="4" timestamp="2012-07-24T13:34:14Z" uid="722137" user="OSMF Redaction Account" changeset="12466765"/>
  <way id="117200297" version="2" timestamp="2012-07-24T13:34:07Z" uid="722137" user="OSMF Redaction Account" changeset="12466765"/>
</osm>
