<?xml version='1.0' encoding='UTF-8'?>
<osm version="0.6" generator="libosmium/2.20.0">
  <way id="117373032" version="1" timestamp="2011-06-12T15:20:53Z" uid="66036" user="h4v" changeset="8416411">
    <nd ref="1225615022"/>
    <nd ref="1227725366"/>
    <nd ref="1227725362"/>
    <nd ref="1322057234"/>
    <nd ref="1322057198"/>
    <nd ref="1322057153"/>
    <nd ref="1322057271"/>
    <nd ref="1322057256"/>
    <nd ref="1225615022"/>
    <tag k="building" v="yes"/>
  </way>
  <way id="117373035" version="1" timestamp="2011-06-12T15:20:53Z" uid="66036" user="h4v" changeset="8416411">
    <nd ref="1322057202"/>
    <nd ref="1322057287"/>
    <nd ref="1322057258"/>
    <nd ref="1322057236"/>
    <nd ref="1322057199"/>
    <nd ref="1322057157"/>
    <nd ref="1322057274"/>
    <nd ref="1322057150"/>
    <nd ref="1322057202"/>
    <tag k="addr:housenumber" v="34/36"/>
    <tag k="building" v="yes"/>
    <tag k="heritage" v="2"/>
    <tag k="heritage:operator" v="nid"/>
    <tag k="historic" v="heritage"/>
    <tag k="name" v="budynek dawnej Kasy Chorych"/>
    <tag k="ref:nid" v="A/107"/>
  </way>
  <way id="117373035" version="2" timestamp="2011-06-24T20:11:27Z" uid="446126" user="Wampcia" changeset="8536476">
    <nd ref="1322057202"/>
    <nd ref="1322057287"/>
    <nd ref="1322057258"/>
    <nd ref="1322057236"/>
    <nd ref="1322057199"/>
    <nd ref="1322057157"/>
    <nd ref="1322057274"/>
    <nd ref="1322057150"/>
    <nd ref="1322057202"/>
    <tag k="addr:housenumber" v="34/36"/>
    <tag k="alt_name" v="Szpital im. Heleny Wolff"/>
    <tag k="building" v="yes"/>
    <tag k="heritage" v="2"/>
    <tag k="heritage:operator" v="nid"/>
    <tag k="historic" v="heritage"/>
    <tag k="name" v="budynek dawnej Kasy Chorych"/>
    <tag k="ref:nid" v="A/107"/>
  </way>
  <way id="117373035" version="3" timestamp="2011-08-19T07:46:08Z" uid="338611" user="marek kleciak" changeset="9062961">
    <nd ref="1322057202"/>
    <nd ref="1404343393"/>
    <nd ref="1404343397"/>
    <nd ref="1322057287"/>
    <nd ref="1322057258"/>
    <nd ref="1322057236"/>
    <nd ref="1322057199"/>
    <nd ref="1322057157"/>
    <nd ref="1322057274"/>
    <nd ref="1322057150"/>
    <nd ref="1322057202"/>
    <tag k="addr:housenumber" v="34/36"/>
    <tag k="alt_name" v="Szpital im. Heleny Wolff"/>
    <tag k="building" v="yes"/>
    <tag k="heritage" v="2"/>
    <tag k="heritage:operator" v="nid"/>
    <tag k="historic" v="heritage"/>
    <tag k="name" v="budynek dawnej Kasy Chorych"/>
    <tag k="ref:nid" v="A/107"/>
  </way>
  <way id="117373036" version="1" timestamp="2011-06-12T15:20:53Z" uid="66036" user="h4v" changeset="8416411">
    <nd ref="1322057206"/>
    <nd ref="1322057288"/>
    <nd ref="1322057263"/>
    <nd ref="1322057239"/>
    <nd ref="1322057206"/>
    <tag k="amenity" v="school"/>
  </way>
  <way id="117373037" version="1" timestamp="2011-06-12T15:20:54Z" uid="66036" user="h4v" changeset="8416411">
    <nd ref="1322057223"/>
    <nd ref="1322057292"/>
    <tag k="addr:inclusion" v="estimate"/>
    <tag k="addr:interpolation" v="odd"/>
  </way>
  <way id="117373038" version="1" timestamp="2011-06-12T15:20:54Z" uid="66036" user="h4v" changeset="8416411">
    <nd ref="1322057265"/>
    <nd ref="1322057290"/>
    <tag k="addr:inclusion" v="potential"/>
    <tag k="addr:interpolation" v="even"/>
  </way>
  <way id="117373038" version="2" timestamp="2012-03-21T13:45:51Z" uid="446126" user="Wampcia" changeset="11052217"/>
  <way id="117373039" version="1" timestamp="2011-06-12T15:20:54Z" uid="66036" user="h4v" changeset="8416411">
    <nd ref="1322057146"/>
    <nd ref="1322057184"/>
    <tag k="addr:inclusion" v="estimate"/>
    <tag k="addr:interpolation" v="odd"/>
  </way>
  <way id="117373040" version="1" timestamp="2011-06-12T15:20:54Z" uid="66036" user="h4v" changeset="8416411">
    <nd ref="1322057294"/>
    <nd ref="1322057164"/>
    <tag k="addr:inclusion" v="potential"/>
    <tag k="addr:interpolation" v="odd"/>
  </way>
  <way id="117373041" version="1" timestamp="2011-06-12T15:20:54Z" uid="66036" user="h4v" changeset="8416411">
    <nd ref="1322057243"/>
    <nd ref="1322057187"/>
    <tag k="addr:inclusion" v="estimate"/>
    <tag k="addr:interpolation" v="odd"/>
  </way>
  <way id="117373042" version="1" timestamp="2011-06-12T15:20:54Z" uid="66036" user="h4v" changeset="8416411">
    <nd ref="1322057260"/>
    <nd ref="1322057204"/>
    <tag k="addr:inclusion" v="estimate"/>
    <tag k="addr:interpolation" v="even"/>
  </way>
  <way id="117373043" version="1" timestamp="2011-06-12T15:20:54Z" uid="66036" user="h4v" changeset="8416411">
    <nd ref="1322057192"/>
    <nd ref="1322057226"/>
    <tag k="addr:inclusion" v="actual"/>
    <tag k="addr:interpolation" v="odd"/>
  </way>
  <way id="117373044" version="1" timestamp="2011-06-12T15:20:54Z" uid="66036" user="h4v" changeset="8416411">
    <nd ref="1322057276"/>
    <nd ref="1322057231"/>
    <tag k="addr:inclusion" v="estimate"/>
    <tag k="addr:interpolation" v="odd"/>
  </way>
  <way id="117373032" version="2" timestamp="2012-07-24T13:34:16Z" uid="722137" user="OSMF Redaction Account" changeset="12466765"/>
  <way id="117373035" version="4" timestamp="2012-06-25T09:01:10Z" uid="147230" user="SQ9NIT" changeset="12008782">
    <nd ref="1322057202"/>
    <nd ref="1404343393"/>
    <nd ref="1404343397"/>
    <nd ref="1322057287"/>
    <nd ref="1322057258"/>
    <nd ref="1322057236"/>
    <nd ref="1322057199"/>
    <nd ref="1322057157"/>
    <nd ref="1322057274"/>
    <nd ref="1322057150"/>
    <nd ref="1322057202"/>
    <tag k="addr:housenumber" v="34/36"/>
    <tag k="alt_name" v="Szpital im. Heleny Wolff"/>
    <tag k="building" v="yes"/>
    <tag k="heritage" v="2"/>
    <tag k="heritage:operator" v="nid"/>
    <tag k="historic" v="hospital"/>
    <tag k="name" v="budynek dawnej Kasy Chorych"/>
    <tag k="ref:nid" v="A/107"/>
  </way>
  <way id="117373035" version="5" timestamp="2012-07-24T13:29:03Z" uid="722137" user="OSMF Redaction Account" changeset="12466611">
    <nd ref="1404343393"/>
    <nd ref="1404343397"/>
    <tag k="alt_name" v="Szpital im. Heleny Wolff"/>
    <tag k="historic" v="hospital"/>
  </way>
  <way id="117373036" version="2" timestamp="2012-07-24T13:35:01Z" uid="722137" user="OSMF Redaction Account" changeset="12466777"/>
  <way id="117373037" version="2" timestamp="2012-06-03T07:58:25Z" uid="99386" user="masti" changeset="11783450"/>
  <way id="117373039" version="2" timestamp="2012-07-24T13:34:17Z" uid="722137" user="OSMF Redaction Account" changeset="12466765"/>
  <way id="117373040" version="2" timestamp="2012-07-24T13:34:09Z" uid="722137" user="OSMF Redaction Account" changeset="12466765"/>
  <way id="117373041" version="2" timestamp="2012-07-24T13:34:24Z" uid="722137" user="OSMF Redaction Account" changeset="12466777"/>
  <way id="117373042" version="2" timestamp="2012-07-24T13:34:22Z" uid="722137" user="OSMF Redaction Account" changeset="12466777"/>
  <way id="117373043" version="2" timestamp="2012-07-24T13:34:01Z" uid="722137" user="OSMF Redaction Account" changeset="12466765"/>
  <way id="117373044" version="2" timestamp="2012-07-24T13:34:15Z" uid="722137" user="OSMF Redaction Account" changeset="12466765"/>
</osm>
