<?xml version='1.0' encoding='UTF-8'?>
<osm version="0.6" generator="libosmium/2.20.0">
  <way id="11749351" version="2" timestamp="2010-02-15T06:00:31Z" uid="74617" user="JohnSmith" changeset="3880328">
    <nd ref="105199318"/>
    <nd ref="105199319"/>
    <tag k="highway" v="residential"/>
    <tag k="maxspeed" v="50"/>
    <tag k="name" v="Heather Street"/>
  </way>
  <way id="11749351" version="3" timestamp="2011-05-20T11:17:53Z" uid="22094" user="Chadzopkyo" changeset="8197730">
    <nd ref="105199318"/>
    <nd ref="1293143502"/>
    <nd ref="1293143491"/>
    <nd ref="105199319"/>
    <tag k="highway" v="residential"/>
    <tag k="maxspeed" v="50"/>
    <tag k="name" v="Heather Street"/>
    <tag k="source" v="GPS"/>
    <tag k="surface" v="asphalt"/>
  </way>
  <way id="11749351" version="4" timestamp="2012-01-15T10:53:47Z" uid="147510" user="woodpeck_fixbot" changeset="10396281">
    <nd ref="105199318"/>
    <nd ref="1293143502"/>
    <nd ref="1293143491"/>
    <nd ref="105199319"/>
    <tag k="highway" v="residential"/>
    <tag k="name" v="Heather Street"/>
    <tag k="source" v="GPS"/>
    <tag k="surface" v="asphalt"/>
  </way>
  <way id="11749396" version="2" timestamp="2010-02-15T06:00:31Z" uid="74617" user="JohnSmith" changeset="3880328">
    <nd ref="105199761"/>
    <nd ref="105199762"/>
    <nd ref="105199763"/>
    <nd ref="105199764"/>
    <nd ref="105199765"/>
    <tag k="highway" v="residential"/>
    <tag k="maxspeed" v="50"/>
    <tag k="name" v="Cambridge Street"/>
  </way>
  <way id="11749396" version="3" timestamp="2011-05-20T11:18:05Z" uid="22094" user="Chadzopkyo" changeset="8197730">
    <nd ref="105199761"/>
    <nd ref="1293143506"/>
    <nd ref="105199762"/>
    <nd ref="105199763"/>
    <nd ref="1293143484"/>
    <nd ref="1293143414"/>
    <nd ref="105199764"/>
    <nd ref="1293143519"/>
    <nd ref="1293143492"/>
    <nd ref="105199765"/>
    <tag k="highway" v="residential"/>
    <tag k="maxspeed" v="50"/>
    <tag k="name" v="Cambridge Street"/>
    <tag k="source" v="GPS"/>
    <tag k="surface" v="asphalt"/>
  </way>
  <way id="11749396" version="4" timestamp="2012-01-15T10:53:49Z" uid="147510" user="woodpeck_fixbot" changeset="10396281">
    <nd ref="105199761"/>
    <nd ref="1293143506"/>
    <nd ref="105199762"/>
    <nd ref="105199763"/>
    <nd ref="1293143484"/>
    <nd ref="1293143414"/>
    <nd ref="105199764"/>
    <nd ref="1293143519"/>
    <nd ref="1293143492"/>
    <nd ref="105199765"/>
    <tag k="highway" v="residential"/>
    <tag k="name" v="Cambridge Street"/>
    <tag k="source" v="GPS"/>
    <tag k="surface" v="asphalt"/>
  </way>
  <way id="11749588" version="9" timestamp="2010-02-15T06:00:02Z" uid="74617" user="JohnSmith" changeset="3880328">
    <nd ref="105199319"/>
    <nd ref="187810753"/>
    <nd ref="105199765"/>
    <nd ref="187810719"/>
    <nd ref="104100376"/>
    <nd ref="243212927"/>
    <nd ref="243212925"/>
    <nd ref="114772176"/>
    <nd ref="243212930"/>
    <nd ref="114768477"/>
    <nd ref="243212932"/>
    <nd ref="243212936"/>
    <nd ref="243212934"/>
    <nd ref="269301573"/>
    <nd ref="269301512"/>
    <nd ref="330762451"/>
    <nd ref="330762452"/>
    <nd ref="330762453"/>
    <nd ref="104743164"/>
    <tag k="highway" v="secondary"/>
    <tag k="name" v="Blackstone Road"/>
  </way>
  <way id="11749588" version="10" timestamp="2011-05-20T09:10:32Z" uid="22094" user="Chadzopkyo" changeset="8196739"/>
  <way id="11749840" version="5" timestamp="2010-02-15T06:00:33Z" uid="74617" user="JohnSmith" changeset="3880328">
    <nd ref="105203372"/>
    <nd ref="109710877"/>
    <nd ref="105203373"/>
    <tag k="highway" v="residential"/>
    <tag k="maxspeed" v="50"/>
    <tag k="name" v="Dwyer Street"/>
  </way>
  <way id="11749840" version="6" timestamp="2012-01-15T10:53:50Z" uid="147510" user="woodpeck_fixbot" changeset="10396281">
    <nd ref="105203372"/>
    <nd ref="109710877"/>
    <nd ref="105203373"/>
    <tag k="highway" v="residential"/>
    <tag k="name" v="Dwyer Street"/>
  </way>
</osm>
