<?xml version='1.0' encoding='UTF-8'?>
<osm version="0.6" generator="libosmium/2.20.0">
  <way id="11756842" version="2" timestamp="2008-07-07T00:24:05Z" uid="30201" user="rrankin" changeset="415645">
    <nd ref="79501252"/>
    <nd ref="276831650"/>
    <nd ref="105263498"/>
    <nd ref="105263487"/>
    <nd ref="105263472"/>
    <nd ref="105263594"/>
    <tag k="created_by" v="JOSM"/>
    <tag k="highway" v="primary"/>
    <tag k="name" v="Wilberforce Road"/>
    <tag k="oneway" v="yes"/>
    <tag k="ref" v="S69"/>
    <tag k="source" v="survey"/>
  </way>
  <way id="11756842" version="3" timestamp="2010-01-01T13:40:45Z" uid="12203" user="brainwad" changeset="3507891">
    <nd ref="79501252"/>
    <nd ref="276831650"/>
    <nd ref="105263498"/>
    <nd ref="105263487"/>
    <nd ref="105263472"/>
    <nd ref="105263594"/>
    <tag k="highway" v="primary"/>
    <tag k="maxspeed" v="60"/>
    <tag k="name" v="Wilberforce Road"/>
    <tag k="oneway" v="yes"/>
    <tag k="ref" v="S69"/>
    <tag k="source" v="survey"/>
  </way>
  <way id="11756842" version="4" timestamp="2010-04-01T17:41:50Z" uid="74617" user="JohnSmith" changeset="4295913">
    <nd ref="79501252"/>
    <nd ref="276831650"/>
    <nd ref="105263498"/>
    <nd ref="105263487"/>
    <nd ref="105263472"/>
    <nd ref="105263594"/>
    <tag k="highway" v="primary"/>
    <tag k="maxspeed" v="60"/>
    <tag k="name" v="Wilberforce Road"/>
    <tag k="oneway" v="yes"/>
    <tag k="source" v="survey"/>
  </way>
  <way id="11756842" version="5" timestamp="2010-06-29T10:26:31Z" uid="299678" user="peteramjet" changeset="5104786">
    <nd ref="79501252"/>
    <nd ref="276831650"/>
    <nd ref="105263498"/>
    <nd ref="105263487"/>
    <nd ref="105263472"/>
    <nd ref="105263594"/>
    <tag k="highway" v="primary"/>
    <tag k="maxspeed" v="60"/>
    <tag k="name" v="Bridge Street"/>
    <tag k="oneway" v="yes"/>
    <tag k="source" v="survey"/>
  </way>
  <way id="11756842" version="6" timestamp="2012-02-02T00:56:56Z" uid="54784" user="Tom Hollander" changeset="10563890">
    <nd ref="79501252"/>
    <nd ref="276831650"/>
    <nd ref="105263498"/>
    <nd ref="105263487"/>
    <nd ref="105263472"/>
    <nd ref="105263594"/>
    <tag k="highway" v="primary"/>
    <tag k="maxspeed" v="60"/>
    <tag k="name" v="Bridge Street"/>
    <tag k="oneway" v="yes"/>
    <tag k="ref" v="SH40"/>
    <tag k="source" v="survey"/>
  </way>
  <way id="11756843" version="2" timestamp="2010-05-15T17:08:45Z" uid="74617" user="JohnSmith" changeset="4708365">
    <nd ref="105263510"/>
    <nd ref="105263519"/>
    <nd ref="105263531"/>
    <nd ref="105263545"/>
    <nd ref="105263556"/>
    <nd ref="105263564"/>
    <nd ref="105263581"/>
    <nd ref="105263594"/>
    <nd ref="105263510"/>
    <tag k="highway" v="primary"/>
    <tag k="junction" v="roundabout"/>
    <tag k="source" v="yahoo_imagery"/>
  </way>
  <way id="11756847" version="4" timestamp="2010-01-23T23:09:25Z" uid="7617" user="Franc" changeset="3696742">
    <nd ref="105263531"/>
    <nd ref="105263637"/>
    <nd ref="105263651"/>
    <nd ref="618970053"/>
    <nd ref="618970054"/>
    <nd ref="105263660"/>
    <tag k="highway" v="primary"/>
    <tag k="maxspeed" v="60"/>
    <tag k="name" v="Wilberforce Road"/>
    <tag k="ref" v="S69"/>
    <tag k="source" v="survey"/>
  </way>
  <way id="11756847" version="5" timestamp="2010-01-23T23:17:00Z" uid="7617" user="Franc" changeset="3696805"/>
  <way id="11756842" version="7" timestamp="2012-07-21T23:51:02Z" uid="722137" user="OSMF Redaction Account" changeset="12422820">
    <nd ref="79501252"/>
    <nd ref="105263498"/>
    <nd ref="105263487"/>
    <nd ref="105263472"/>
    <nd ref="105263594"/>
    <tag k="highway" v="primary"/>
    <tag k="maxspeed" v="60"/>
    <tag k="name" v="Bridge Street"/>
    <tag k="oneway" v="yes"/>
    <tag k="ref" v="SH40"/>
    <tag k="source" v="survey"/>
  </way>
</osm>
