<?xml version='1.0' encoding='UTF-8'?>
<osm version="0.6" generator="libosmium/2.20.0">
  <way id="11808097" version="2" timestamp="2008-10-09T01:48:26Z" uid="20587" user="balrog-kun" changeset="194107">
    <nd ref="105711857"/>
    <nd ref="105711860"/>
    <nd ref="105711864"/>
    <nd ref="105711869"/>
    <nd ref="105711875"/>
    <nd ref="303205495"/>
    <nd ref="303205494"/>
    <nd ref="303205493"/>
    <nd ref="105711884"/>
    <nd ref="105711879"/>
    <tag k="created_by" v="JOSM"/>
    <tag k="highway" v="service"/>
    <tag k="name" v="Giełdowa"/>
  </way>
  <way id="11808097" version="3" timestamp="2009-05-26T15:30:07Z" uid="20587" user="balrog-kun" changeset="1326640">
    <nd ref="105711857"/>
    <nd ref="105711860"/>
    <nd ref="411421377"/>
    <nd ref="105711864"/>
    <nd ref="105711869"/>
    <nd ref="411421384"/>
    <nd ref="105711875"/>
    <nd ref="303205495"/>
    <nd ref="303205494"/>
    <nd ref="303205493"/>
    <nd ref="105711884"/>
    <nd ref="105711879"/>
    <tag k="created_by" v="JOSM"/>
    <tag k="highway" v="service"/>
    <tag k="name" v="Giełdowa"/>
  </way>
  <way id="11808098" version="4" timestamp="2009-05-26T15:30:07Z" uid="20587" user="balrog-kun" changeset="1326640">
    <nd ref="105711884"/>
    <nd ref="105711887"/>
    <nd ref="105711888"/>
    <nd ref="105711891"/>
    <tag k="created_by" v="Potlatch 0.10f"/>
    <tag k="highway" v="service"/>
  </way>
  <way id="11808383" version="7" timestamp="2008-12-20T14:04:32Z" uid="58091" user="Andreas M" changeset="504586">
    <nd ref="105709707"/>
    <nd ref="105713654"/>
    <tag k="created_by" v="Potlatch 0.10c"/>
    <tag k="highway" v="residential"/>
    <tag k="name" v="Leopold-Kunschak-Platz"/>
    <tag k="oneway" v="yes"/>
  </way>
  <way id="11808475" version="6" timestamp="2008-12-20T14:04:32Z" uid="58091" user="Andreas M" changeset="504586">
    <nd ref="68895935"/>
    <nd ref="105708754"/>
    <nd ref="68895937"/>
    <nd ref="394907"/>
    <tag k="created_by" v="Potlatch 0.10c"/>
    <tag k="highway" v="residential"/>
    <tag k="name" v="Leopold-Kunschak-Platz"/>
  </way>
  <way id="11808475" version="7" timestamp="2009-07-10T10:50:46Z" uid="41463" user="digitalhippie" changeset="1787894">
    <nd ref="68895935"/>
    <nd ref="105708754"/>
    <tag k="highway" v="residential"/>
    <tag k="name" v="Leopold-Kunschak-Platz"/>
  </way>
  <way id="11808475" version="8" timestamp="2011-06-11T05:40:34Z" uid="47064" user="7503146" changeset="8402779">
    <nd ref="68895935"/>
    <nd ref="1319479857"/>
    <nd ref="105708754"/>
    <tag k="highway" v="residential"/>
    <tag k="name" v="Leopold-Kunschak-Platz"/>
  </way>
  <way id="11808599" version="2" timestamp="2008-11-15T19:32:48Z" uid="79904" user="VanceK" changeset="754047">
    <nd ref="104476518"/>
    <nd ref="312343895"/>
    <nd ref="312343896"/>
    <nd ref="105715289"/>
    <tag k="created_by" v="Potlatch 0.10f"/>
    <tag k="highway" v="residential"/>
    <tag k="name" v="Corbett Dr"/>
    <tag k="tiger:cfcc" v="A41"/>
    <tag k="tiger:name_base" v="Corbett"/>
    <tag k="tiger:name_type" v="Dr"/>
    <tag k="tiger:reviewed" v="no"/>
    <tag k="tiger:separated" v="no"/>
    <tag k="tiger:source" v="tiger_import_dch_v0.7_20071109"/>
    <tag k="tiger:tlid" v="51633004"/>
    <tag k="tiger:zip_left" v="15234"/>
    <tag k="tiger:zip_right" v="15234"/>
  </way>
  <way id="11808599" version="3" timestamp="2008-11-15T19:33:12Z" uid="79904" user="VanceK" changeset="754047">
    <nd ref="104476518"/>
    <nd ref="312343895"/>
    <nd ref="312343896"/>
    <nd ref="105715289"/>
    <tag k="created_by" v="Potlatch 0.10f"/>
    <tag k="highway" v="residential"/>
    <tag k="name" v="Corbett Drive"/>
    <tag k="tiger:cfcc" v="A41"/>
    <tag k="tiger:name_base" v="Corbett"/>
    <tag k="tiger:name_type" v="Dr"/>
    <tag k="tiger:reviewed" v="yes"/>
    <tag k="tiger:separated" v="no"/>
    <tag k="tiger:source" v="tiger_import_dch_v0.7_20071109"/>
    <tag k="tiger:tlid" v="51633004"/>
    <tag k="tiger:zip_left" v="15234"/>
    <tag k="tiger:zip_right" v="15234"/>
  </way>
  <way id="11808599" version="4" timestamp="2009-10-18T18:10:16Z" uid="186116" user="JoePranevich" changeset="2886987">
    <nd ref="104476518"/>
    <nd ref="312343895"/>
    <nd ref="534846350"/>
    <nd ref="312343896"/>
    <nd ref="105715289"/>
    <tag k="highway" v="residential"/>
    <tag k="name" v="Corbett Drive"/>
    <tag k="tiger:cfcc" v="A41"/>
    <tag k="tiger:name_base" v="Corbett"/>
    <tag k="tiger:name_type" v="Dr"/>
    <tag k="tiger:reviewed" v="yes"/>
    <tag k="tiger:separated" v="no"/>
    <tag k="tiger:source" v="tiger_import_dch_v0.7_20071109"/>
    <tag k="tiger:tlid" v="51633004"/>
    <tag k="tiger:zip_left" v="15234"/>
    <tag k="tiger:zip_right" v="15234"/>
  </way>
  <way id="11808841" version="2" timestamp="2008-07-09T01:08:43Z" uid="6975" user="ulfl" changeset="443284">
    <nd ref="105716800"/>
    <nd ref="105716858"/>
    <nd ref="105716862"/>
    <tag k="highway" v="road"/>
    <tag k="name" v="Yelverton Road"/>
  </way>
  <way id="11808841" version="3" timestamp="2012-03-14T09:35:07Z" uid="61216" user="UniEagle" changeset="10975812"/>
  <way id="11808882" version="2" timestamp="2008-07-09T01:06:40Z" uid="6975" user="ulfl" changeset="443284">
    <nd ref="105716749"/>
    <nd ref="105716710"/>
    <tag k="highway" v="road"/>
    <tag k="name" v="Tudor Road"/>
  </way>
  <way id="11808882" version="3" timestamp="2009-10-17T08:48:44Z" uid="84681" user="SK53" changeset="2871602">
    <nd ref="105716749"/>
    <nd ref="105716710"/>
    <tag k="highway" v="residential"/>
    <tag k="name" v="Tudor Road"/>
  </way>
  <way id="11808882" version="4" timestamp="2012-03-14T09:35:06Z" uid="61216" user="UniEagle" changeset="10975812"/>
</osm>
