<?xml version='1.0' encoding='UTF-8'?>
<osm version="0.6" generator="libosmium/2.20.0">
  <way id="118173906" version="1" timestamp="2011-06-18T13:26:27Z" uid="7617" user="Franc" changeset="8473322">
    <nd ref="29898557"/>
    <nd ref="665724908"/>
    <nd ref="29898556"/>
    <tag k="highway" v="residential"/>
    <tag k="maxspeed" v="50"/>
    <tag k="maxspeed:source" v="default residential speed limit in Australia"/>
    <tag k="name" v="Strickland Avenue"/>
    <tag k="source" v="survey"/>
  </way>
  <way id="118173908" version="1" timestamp="2011-06-18T13:26:27Z" uid="7617" user="Franc" changeset="8473322">
    <nd ref="665724959"/>
    <nd ref="665724957"/>
    <nd ref="109708694"/>
    <nd ref="109707708"/>
    <tag k="highway" v="residential"/>
    <tag k="maxspeed" v="50"/>
    <tag k="maxspeed:source" v="default residential speed limit in Australia"/>
    <tag k="name" v="Merriwa Street"/>
    <tag k="source" v="survey"/>
  </way>
  <way id="118173909" version="1" timestamp="2011-06-18T13:26:27Z" uid="7617" user="Franc" changeset="8473322">
    <nd ref="665724909"/>
    <nd ref="665724910"/>
    <nd ref="665724913"/>
    <nd ref="665724894"/>
    <nd ref="665724898"/>
    <tag k="highway" v="trunk"/>
    <tag k="maxspeed" v="60"/>
    <tag k="name" v="Pacific Highway"/>
    <tag k="oneway" v="yes"/>
    <tag k="restriction" v="school_zone"/>
    <tag k="source" v="nearmap"/>
  </way>
  <way id="118173909" version="2" timestamp="2012-02-01T01:53:21Z" uid="54784" user="Tom Hollander" changeset="10555431">
    <nd ref="665724909"/>
    <nd ref="665724910"/>
    <nd ref="665724913"/>
    <nd ref="665724894"/>
    <nd ref="665724898"/>
    <tag k="highway" v="trunk"/>
    <tag k="maxspeed" v="60"/>
    <tag k="name" v="Pacific Highway"/>
    <tag k="oneway" v="yes"/>
    <tag k="ref" v="MR1"/>
    <tag k="restriction" v="school_zone"/>
    <tag k="source" v="nearmap"/>
  </way>
  <way id="118173910" version="1" timestamp="2011-06-18T13:26:27Z" uid="7617" user="Franc" changeset="8473322">
    <nd ref="665724917"/>
    <nd ref="665724916"/>
    <nd ref="33166436"/>
    <nd ref="32561407"/>
    <nd ref="33166433"/>
    <nd ref="32561448"/>
    <nd ref="32561233"/>
    <nd ref="32561117"/>
    <nd ref="602860186"/>
    <nd ref="602859971"/>
    <nd ref="32561236"/>
    <nd ref="616559329"/>
    <tag k="highway" v="residential"/>
    <tag k="maxspeed" v="50"/>
    <tag k="maxspeed:source" v="default residential speed limit in Australia"/>
    <tag k="name" v="Highfield Road"/>
    <tag k="source:name" v="survey"/>
  </way>
  <way id="118173911" version="1" timestamp="2011-06-18T13:26:27Z" uid="7617" user="Franc" changeset="8473322">
    <nd ref="665725061"/>
    <nd ref="29419438"/>
    <nd ref="29419439"/>
    <nd ref="29419440"/>
    <nd ref="29419441"/>
    <nd ref="29419442"/>
    <nd ref="29419443"/>
    <nd ref="29419444"/>
    <nd ref="29419445"/>
    <nd ref="29419446"/>
    <nd ref="265869052"/>
    <nd ref="29419396"/>
    <tag k="highway" v="residential"/>
    <tag k="maxspeed" v="50"/>
    <tag k="maxspeed:source" v="default residential speed limit in Australia"/>
    <tag k="name" v="St Johns Avenue"/>
  </way>
  <way id="118173912" version="1" timestamp="2011-06-18T13:26:28Z" uid="7617" user="Franc" changeset="8473322">
    <nd ref="231348310"/>
    <nd ref="665724966"/>
    <nd ref="252532829"/>
    <nd ref="616559374"/>
    <tag k="highway" v="residential"/>
    <tag k="maxspeed" v="50"/>
    <tag k="maxspeed:source" v="default residential speed limit in Australia"/>
    <tag k="name" v="Stanhope Road"/>
    <tag k="source" v="survey"/>
    <tag k="source:name" v="survey"/>
  </way>
  <way id="118173913" version="1" timestamp="2011-06-18T13:26:28Z" uid="7617" user="Franc" changeset="8473322">
    <nd ref="665725061"/>
    <nd ref="665725062"/>
    <nd ref="665725063"/>
    <nd ref="665725067"/>
    <nd ref="665725068"/>
    <tag k="highway" v="trunk"/>
    <tag k="lanes" v="2"/>
    <tag k="maxspeed" v="60"/>
    <tag k="name" v="Pacific Highway"/>
    <tag k="oneway" v="yes"/>
    <tag k="source" v="nearmap"/>
  </way>
  <way id="118173913" version="2" timestamp="2012-02-01T01:53:22Z" uid="54784" user="Tom Hollander" changeset="10555431">
    <nd ref="665725061"/>
    <nd ref="665725062"/>
    <nd ref="665725063"/>
    <nd ref="665725067"/>
    <nd ref="665725068"/>
    <tag k="highway" v="trunk"/>
    <tag k="lanes" v="2"/>
    <tag k="maxspeed" v="60"/>
    <tag k="name" v="Pacific Highway"/>
    <tag k="oneway" v="yes"/>
    <tag k="ref" v="MR1"/>
    <tag k="source" v="nearmap"/>
  </way>
  <way id="118173914" version="1" timestamp="2011-06-18T13:26:28Z" uid="7617" user="Franc" changeset="8473322">
    <nd ref="665724969"/>
    <nd ref="665724970"/>
    <nd ref="665724971"/>
    <nd ref="665724989"/>
    <nd ref="665724975"/>
    <nd ref="665724985"/>
    <nd ref="665724976"/>
    <nd ref="665724978"/>
    <nd ref="665724979"/>
    <nd ref="665724981"/>
    <nd ref="665724983"/>
    <nd ref="665725015"/>
    <nd ref="665725017"/>
    <nd ref="665725018"/>
    <nd ref="665725019"/>
    <tag k="highway" v="trunk"/>
    <tag k="maxspeed" v="60"/>
    <tag k="name" v="Pacific Highway"/>
    <tag k="oneway" v="yes"/>
    <tag k="source" v="nearmap"/>
  </way>
  <way id="118173914" version="2" timestamp="2012-02-01T01:53:22Z" uid="54784" user="Tom Hollander" changeset="10555431">
    <nd ref="665724969"/>
    <nd ref="665724970"/>
    <nd ref="665724971"/>
    <nd ref="665724989"/>
    <nd ref="665724975"/>
    <nd ref="665724985"/>
    <nd ref="665724976"/>
    <nd ref="665724978"/>
    <nd ref="665724979"/>
    <nd ref="665724981"/>
    <nd ref="665724983"/>
    <nd ref="665725015"/>
    <nd ref="665725017"/>
    <nd ref="665725018"/>
    <nd ref="665725019"/>
    <tag k="highway" v="trunk"/>
    <tag k="maxspeed" v="60"/>
    <tag k="name" v="Pacific Highway"/>
    <tag k="oneway" v="yes"/>
    <tag k="ref" v="MR1"/>
    <tag k="source" v="nearmap"/>
  </way>
  <way id="118173915" version="1" timestamp="2011-06-18T13:26:28Z" uid="7617" user="Franc" changeset="8473322">
    <nd ref="31429752"/>
    <nd ref="29419452"/>
    <tag k="highway" v="trunk"/>
    <tag k="lanes" v="3"/>
    <tag k="maxspeed" v="60"/>
    <tag k="name" v="Pacific Highway"/>
    <tag k="oneway" v="yes"/>
    <tag k="source" v="survey"/>
  </way>
  <way id="118173915" version="2" timestamp="2012-02-01T01:53:22Z" uid="54784" user="Tom Hollander" changeset="10555431">
    <nd ref="31429752"/>
    <nd ref="29419452"/>
    <tag k="highway" v="trunk"/>
    <tag k="lanes" v="3"/>
    <tag k="maxspeed" v="60"/>
    <tag k="name" v="Pacific Highway"/>
    <tag k="oneway" v="yes"/>
    <tag k="ref" v="MR1"/>
    <tag k="source" v="survey"/>
  </way>
  <way id="118173915" version="3" timestamp="2012-02-02T08:04:09Z" uid="7523" user="inas" changeset="10565177">
    <nd ref="31429752"/>
    <nd ref="29419452"/>
    <tag k="highway" v="trunk"/>
    <tag k="lanes" v="3"/>
    <tag k="maxspeed" v="60"/>
    <tag k="name" v="Pacific Highway"/>
    <tag k="network" v="MR"/>
    <tag k="oneway" v="yes"/>
    <tag k="ref" v="1"/>
    <tag k="source" v="survey"/>
  </way>
  <way id="118173916" version="1" timestamp="2011-06-18T13:26:28Z" uid="7617" user="Franc" changeset="8473322">
    <nd ref="665724962"/>
    <nd ref="665724963"/>
    <nd ref="665724964"/>
    <nd ref="665724965"/>
    <nd ref="665724968"/>
    <nd ref="665724969"/>
    <tag k="highway" v="trunk"/>
    <tag k="maxspeed" v="60"/>
    <tag k="name" v="Pacific Highway"/>
    <tag k="oneway" v="yes"/>
    <tag k="source" v="nearmap"/>
  </way>
  <way id="118173916" version="2" timestamp="2012-02-01T01:53:23Z" uid="54784" user="Tom Hollander" changeset="10555431">
    <nd ref="665724962"/>
    <nd ref="665724963"/>
    <nd ref="665724964"/>
    <nd ref="665724965"/>
    <nd ref="665724968"/>
    <nd ref="665724969"/>
    <tag k="highway" v="trunk"/>
    <tag k="maxspeed" v="60"/>
    <tag k="name" v="Pacific Highway"/>
    <tag k="oneway" v="yes"/>
    <tag k="ref" v="MR1"/>
    <tag k="source" v="nearmap"/>
  </way>
  <way id="118173921" version="1" timestamp="2011-06-18T13:26:29Z" uid="7617" user="Franc" changeset="8473322">
    <nd ref="29898557"/>
    <nd ref="17392859"/>
    <tag k="highway" v="trunk"/>
    <tag k="maxspeed" v="60"/>
    <tag k="name" v="Pacific Highway"/>
    <tag k="oneway" v="yes"/>
    <tag k="restriction" v="school_zone"/>
    <tag k="source" v="survey"/>
  </way>
  <way id="118173921" version="2" timestamp="2012-02-02T08:04:07Z" uid="7523" user="inas" changeset="10565177">
    <nd ref="29898557"/>
    <nd ref="17392859"/>
    <tag k="highway" v="trunk"/>
    <tag k="maxspeed" v="60"/>
    <tag k="name" v="Pacific Highway"/>
    <tag k="network" v="MR"/>
    <tag k="oneway" v="yes"/>
    <tag k="ref" v="1"/>
    <tag k="restriction" v="school_zone"/>
    <tag k="source" v="survey"/>
  </way>
  <way id="118173923" version="1" timestamp="2011-06-18T13:26:29Z" uid="7617" user="Franc" changeset="8473322">
    <nd ref="29419452"/>
    <nd ref="145476463"/>
    <nd ref="29419449"/>
    <nd ref="17392906"/>
    <nd ref="29419447"/>
    <tag k="highway" v="trunk"/>
    <tag k="lanes" v="3"/>
    <tag k="maxspeed" v="60"/>
    <tag k="name" v="Pacific Highway"/>
    <tag k="oneway" v="yes"/>
    <tag k="source" v="survey"/>
  </way>
  <way id="118173923" version="2" timestamp="2012-02-01T01:53:23Z" uid="54784" user="Tom Hollander" changeset="10555431">
    <nd ref="29419452"/>
    <nd ref="145476463"/>
    <nd ref="29419449"/>
    <nd ref="17392906"/>
    <nd ref="29419447"/>
    <tag k="highway" v="trunk"/>
    <tag k="lanes" v="3"/>
    <tag k="maxspeed" v="60"/>
    <tag k="name" v="Pacific Highway"/>
    <tag k="oneway" v="yes"/>
    <tag k="ref" v="MR1"/>
    <tag k="source" v="survey"/>
  </way>
  <way id="118173923" version="3" timestamp="2012-02-02T08:04:19Z" uid="7523" user="inas" changeset="10565177">
    <nd ref="29419452"/>
    <nd ref="145476463"/>
    <nd ref="29419449"/>
    <nd ref="17392906"/>
    <nd ref="29419447"/>
    <tag k="highway" v="trunk"/>
    <tag k="lanes" v="3"/>
    <tag k="maxspeed" v="60"/>
    <tag k="name" v="Pacific Highway"/>
    <tag k="network" v="MR"/>
    <tag k="oneway" v="yes"/>
    <tag k="ref" v="1"/>
    <tag k="source" v="survey"/>
  </way>
  <way id="118173924" version="1" timestamp="2011-06-18T13:26:29Z" uid="7617" user="Franc" changeset="8473322">
    <nd ref="33166437"/>
    <nd ref="665724946"/>
    <tag k="highway" v="trunk"/>
    <tag k="maxspeed" v="60"/>
    <tag k="name" v="Pacific Highway"/>
    <tag k="oneway" v="yes"/>
    <tag k="restriction" v="school_zone"/>
    <tag k="source" v="survey"/>
  </way>
  <way id="118173924" version="2" timestamp="2012-02-01T01:53:24Z" uid="54784" user="Tom Hollander" changeset="10555431">
    <nd ref="33166437"/>
    <nd ref="665724946"/>
    <tag k="highway" v="trunk"/>
    <tag k="maxspeed" v="60"/>
    <tag k="name" v="Pacific Highway"/>
    <tag k="oneway" v="yes"/>
    <tag k="ref" v="MR1"/>
    <tag k="restriction" v="school_zone"/>
    <tag k="source" v="survey"/>
  </way>
  <way id="118173924" version="3" timestamp="2012-02-02T08:04:07Z" uid="7523" user="inas" changeset="10565177">
    <nd ref="33166437"/>
    <nd ref="665724946"/>
    <tag k="highway" v="trunk"/>
    <tag k="maxspeed" v="60"/>
    <tag k="name" v="Pacific Highway"/>
    <tag k="network" v="MR"/>
    <tag k="oneway" v="yes"/>
    <tag k="ref" v="1"/>
    <tag k="restriction" v="school_zone"/>
    <tag k="source" v="survey"/>
  </way>
  <way id="118173925" version="1" timestamp="2011-06-18T13:26:29Z" uid="7617" user="Franc" changeset="8473322">
    <nd ref="665725068"/>
    <nd ref="29419455"/>
    <nd ref="283047333"/>
    <tag k="highway" v="residential"/>
    <tag k="maxspeed" v="50"/>
    <tag k="maxspeed:source" v="default residential speed limit in Australia"/>
    <tag k="name" v="Dumaresq Street"/>
  </way>
  <way id="118173927" version="1" timestamp="2011-06-18T13:26:29Z" uid="7617" user="Franc" changeset="8473322">
    <nd ref="665724907"/>
    <nd ref="29898544"/>
    <tag k="highway" v="residential"/>
    <tag k="maxspeed" v="50"/>
    <tag k="maxspeed:source" v="default residential speed limit in Australia"/>
    <tag k="name" v="Gladstone Parade"/>
    <tag k="restriction" v="school_zone"/>
  </way>
  <way id="118173928" version="1" timestamp="2011-06-18T13:26:29Z" uid="7617" user="Franc" changeset="8473322">
    <nd ref="665724917"/>
    <nd ref="1153707633"/>
    <nd ref="665724923"/>
    <tag k="highway" v="trunk"/>
    <tag k="maxspeed" v="60"/>
    <tag k="name" v="Pacific Highway"/>
    <tag k="oneway" v="yes"/>
    <tag k="restriction" v="school_zone"/>
    <tag k="source" v="nearmap"/>
  </way>
  <way id="118173928" version="2" timestamp="2012-02-01T01:53:24Z" uid="54784" user="Tom Hollander" changeset="10555431">
    <nd ref="665724917"/>
    <nd ref="1153707633"/>
    <nd ref="665724923"/>
    <tag k="highway" v="trunk"/>
    <tag k="maxspeed" v="60"/>
    <tag k="name" v="Pacific Highway"/>
    <tag k="oneway" v="yes"/>
    <tag k="ref" v="MR1"/>
    <tag k="restriction" v="school_zone"/>
    <tag k="source" v="nearmap"/>
  </way>
  <way id="118173932" version="1" timestamp="2011-06-18T13:26:30Z" uid="7617" user="Franc" changeset="8473322">
    <nd ref="231348310"/>
    <nd ref="665724967"/>
    <nd ref="665724960"/>
    <nd ref="665724961"/>
    <nd ref="30964696"/>
    <nd ref="252532825"/>
    <nd ref="17392874"/>
    <nd ref="665725032"/>
    <nd ref="17392873"/>
    <nd ref="33166444"/>
    <nd ref="38417913"/>
    <nd ref="17392871"/>
    <nd ref="33166442"/>
    <nd ref="665724921"/>
    <nd ref="17392870"/>
    <nd ref="665724922"/>
    <tag k="highway" v="trunk"/>
    <tag k="maxspeed" v="60"/>
    <tag k="name" v="Pacific Highway"/>
    <tag k="oneway" v="yes"/>
    <tag k="source" v="survey"/>
  </way>
  <way id="118173932" version="2" timestamp="2012-02-01T01:53:26Z" uid="54784" user="Tom Hollander" changeset="10555431">
    <nd ref="231348310"/>
    <nd ref="665724967"/>
    <nd ref="665724960"/>
    <nd ref="665724961"/>
    <nd ref="30964696"/>
    <nd ref="252532825"/>
    <nd ref="17392874"/>
    <nd ref="665725032"/>
    <nd ref="17392873"/>
    <nd ref="33166444"/>
    <nd ref="38417913"/>
    <nd ref="17392871"/>
    <nd ref="33166442"/>
    <nd ref="665724921"/>
    <nd ref="17392870"/>
    <nd ref="665724922"/>
    <tag k="highway" v="trunk"/>
    <tag k="maxspeed" v="60"/>
    <tag k="name" v="Pacific Highway"/>
    <tag k="oneway" v="yes"/>
    <tag k="ref" v="MR1"/>
    <tag k="source" v="survey"/>
  </way>
  <way id="118173932" version="3" timestamp="2012-02-02T08:04:02Z" uid="7523" user="inas" changeset="10565177">
    <nd ref="231348310"/>
    <nd ref="665724967"/>
    <nd ref="665724960"/>
    <nd ref="665724961"/>
    <nd ref="30964696"/>
    <nd ref="252532825"/>
    <nd ref="17392874"/>
    <nd ref="665725032"/>
    <nd ref="17392873"/>
    <nd ref="33166444"/>
    <nd ref="38417913"/>
    <nd ref="17392871"/>
    <nd ref="33166442"/>
    <nd ref="665724921"/>
    <nd ref="17392870"/>
    <nd ref="665724922"/>
    <tag k="highway" v="trunk"/>
    <tag k="maxspeed" v="60"/>
    <tag k="name" v="Pacific Highway"/>
    <tag k="network" v="MR"/>
    <tag k="oneway" v="yes"/>
    <tag k="ref" v="1"/>
    <tag k="source" v="survey"/>
  </way>
  <way id="118173933" version="1" timestamp="2011-06-18T13:26:30Z" uid="7617" user="Franc" changeset="8473322">
    <nd ref="665725068"/>
    <nd ref="665725069"/>
    <nd ref="665725074"/>
    <nd ref="665725071"/>
    <nd ref="665725072"/>
    <nd ref="1076315249"/>
    <tag k="highway" v="trunk"/>
    <tag k="lanes" v="2"/>
    <tag k="maxspeed" v="60"/>
    <tag k="name" v="Pacific Highway"/>
    <tag k="oneway" v="yes"/>
    <tag k="source" v="nearmap"/>
  </way>
  <way id="118173933" version="2" timestamp="2012-02-01T01:53:24Z" uid="54784" user="Tom Hollander" changeset="10555431">
    <nd ref="665725068"/>
    <nd ref="665725069"/>
    <nd ref="665725074"/>
    <nd ref="665725071"/>
    <nd ref="665725072"/>
    <nd ref="1076315249"/>
    <tag k="highway" v="trunk"/>
    <tag k="lanes" v="2"/>
    <tag k="maxspeed" v="60"/>
    <tag k="name" v="Pacific Highway"/>
    <tag k="oneway" v="yes"/>
    <tag k="ref" v="MR1"/>
    <tag k="source" v="nearmap"/>
  </way>
  <way id="118173934" version="1" timestamp="2011-06-18T13:26:30Z" uid="7617" user="Franc" changeset="8473322">
    <nd ref="665725019"/>
    <nd ref="36403779"/>
    <nd ref="36403804"/>
    <nd ref="36403780"/>
    <nd ref="36403781"/>
    <nd ref="29174170"/>
    <nd ref="29174168"/>
    <nd ref="29174171"/>
    <nd ref="29174172"/>
    <nd ref="29174173"/>
    <nd ref="29174174"/>
    <nd ref="29174175"/>
    <nd ref="29174176"/>
    <nd ref="29174177"/>
    <nd ref="29174178"/>
    <nd ref="29174179"/>
    <tag k="highway" v="residential"/>
    <tag k="maxspeed" v="50"/>
    <tag k="maxspeed:source" v="default residential speed limit in Australia"/>
    <tag k="name" v="Spencer Road"/>
    <tag k="source:name" v="survey"/>
  </way>
  <way id="118173935" version="1" timestamp="2011-06-18T13:26:30Z" uid="7617" user="Franc" changeset="8473322">
    <nd ref="231340352"/>
    <nd ref="231340396"/>
    <nd ref="231340428"/>
    <nd ref="231340464"/>
    <tag k="highway" v="residential"/>
    <tag k="maxspeed" v="50"/>
    <tag k="maxspeed:source" v="default residential speed limit in Australia"/>
    <tag k="name" v="Lorne Avenue"/>
    <tag k="source" v="survey"/>
  </way>
  <way id="118173936" version="1" timestamp="2011-06-18T13:26:31Z" uid="7617" user="Franc" changeset="8473322">
    <nd ref="665724959"/>
    <nd ref="665724956"/>
    <nd ref="245929198"/>
    <nd ref="264195294"/>
    <nd ref="245929199"/>
    <nd ref="245929407"/>
    <nd ref="245929200"/>
    <nd ref="665706990"/>
    <nd ref="665706991"/>
    <nd ref="793909001"/>
    <nd ref="245929406"/>
    <nd ref="245929202"/>
    <nd ref="665707029"/>
    <nd ref="1329584855"/>
    <nd ref="1329584871"/>
    <nd ref="665707030"/>
    <tag k="highway" v="trunk"/>
    <tag k="lanes" v="3"/>
    <tag k="maxspeed" v="60"/>
    <tag k="name" v="Pacific Highway"/>
    <tag k="oneway" v="yes"/>
    <tag k="source" v="nearmap"/>
  </way>
  <way id="118173936" version="2" timestamp="2012-01-31T06:16:53Z" uid="54784" user="Tom Hollander" changeset="10546288">
    <nd ref="665724959"/>
    <nd ref="665724956"/>
    <nd ref="245929198"/>
    <nd ref="264195294"/>
    <nd ref="245929199"/>
    <nd ref="245929407"/>
    <nd ref="245929200"/>
    <nd ref="665706990"/>
    <nd ref="665706991"/>
    <nd ref="793909001"/>
    <nd ref="245929406"/>
    <nd ref="245929202"/>
    <nd ref="665707029"/>
    <nd ref="1329584855"/>
    <nd ref="1329584871"/>
    <nd ref="665707030"/>
    <tag k="highway" v="trunk"/>
    <tag k="lanes" v="3"/>
    <tag k="maxspeed" v="60"/>
    <tag k="name" v="Pacific Highway"/>
    <tag k="oneway" v="yes"/>
    <tag k="ref" v="MR1"/>
    <tag k="source" v="nearmap"/>
  </way>
  <way id="118173937" version="1" timestamp="2011-06-18T13:26:31Z" uid="7617" user="Franc" changeset="8473322">
    <nd ref="665725019"/>
    <nd ref="665725020"/>
    <tag k="highway" v="trunk"/>
    <tag k="maxspeed" v="60"/>
    <tag k="name" v="Pacific Highway"/>
    <tag k="oneway" v="yes"/>
    <tag k="source" v="nearmap"/>
  </way>
  <way id="118173937" version="2" timestamp="2012-02-01T01:53:25Z" uid="54784" user="Tom Hollander" changeset="10555431">
    <nd ref="665725019"/>
    <nd ref="665725020"/>
    <tag k="highway" v="trunk"/>
    <tag k="maxspeed" v="60"/>
    <tag k="name" v="Pacific Highway"/>
    <tag k="oneway" v="yes"/>
    <tag k="ref" v="MR1"/>
    <tag k="source" v="nearmap"/>
  </way>
  <way id="118173938" version="1" timestamp="2011-06-18T13:26:31Z" uid="7617" user="Franc" changeset="8473322">
    <nd ref="665724907"/>
    <nd ref="665724906"/>
    <tag k="highway" v="trunk"/>
    <tag k="maxspeed" v="60"/>
    <tag k="name" v="Pacific Highway"/>
    <tag k="oneway" v="yes"/>
    <tag k="restriction" v="school_zone"/>
    <tag k="source" v="nearmap"/>
  </way>
  <way id="118173938" version="2" timestamp="2012-02-01T01:53:25Z" uid="54784" user="Tom Hollander" changeset="10555431">
    <nd ref="665724907"/>
    <nd ref="665724906"/>
    <tag k="highway" v="trunk"/>
    <tag k="maxspeed" v="60"/>
    <tag k="name" v="Pacific Highway"/>
    <tag k="oneway" v="yes"/>
    <tag k="ref" v="MR1"/>
    <tag k="restriction" v="school_zone"/>
    <tag k="source" v="nearmap"/>
  </way>
  <way id="118173939" version="1" timestamp="2011-06-18T13:26:31Z" uid="7617" user="Franc" changeset="8473322">
    <nd ref="665725020"/>
    <nd ref="665725021"/>
    <nd ref="665725022"/>
    <nd ref="665725023"/>
    <nd ref="665725024"/>
    <nd ref="665725025"/>
    <nd ref="665725026"/>
    <nd ref="665725028"/>
    <nd ref="665725029"/>
    <nd ref="665725031"/>
    <nd ref="665725030"/>
    <nd ref="665724993"/>
    <nd ref="665724994"/>
    <nd ref="665724995"/>
    <nd ref="665724996"/>
    <nd ref="665724997"/>
    <nd ref="665725010"/>
    <nd ref="665725043"/>
    <nd ref="665725044"/>
    <nd ref="665725045"/>
    <nd ref="665725046"/>
    <nd ref="665725049"/>
    <nd ref="665725050"/>
    <nd ref="665725054"/>
    <nd ref="665725053"/>
    <tag k="highway" v="trunk"/>
    <tag k="maxspeed" v="60"/>
    <tag k="name" v="Pacific Highway"/>
    <tag k="oneway" v="yes"/>
    <tag k="source" v="nearmap"/>
  </way>
  <way id="118173939" version="2" timestamp="2011-12-11T04:43:35Z" uid="77586" user="wolftracker" changeset="10086642">
    <nd ref="665725020"/>
    <nd ref="665725021"/>
    <nd ref="665725022"/>
    <nd ref="665725023"/>
    <nd ref="665725024"/>
    <nd ref="665725025"/>
    <nd ref="665725026"/>
    <nd ref="665725028"/>
    <nd ref="665725029"/>
    <nd ref="665725031"/>
    <nd ref="665725030"/>
    <nd ref="665724993"/>
    <nd ref="665724994"/>
    <nd ref="665724995"/>
    <nd ref="665724996"/>
    <nd ref="665724997"/>
    <nd ref="665725010"/>
    <nd ref="1540354458"/>
    <tag k="highway" v="trunk"/>
    <tag k="maxspeed" v="60"/>
    <tag k="name" v="Pacific Highway"/>
    <tag k="oneway" v="yes"/>
    <tag k="source" v="nearmap"/>
  </way>
  <way id="118173939" version="3" timestamp="2012-02-01T01:53:25Z" uid="54784" user="Tom Hollander" changeset="10555431">
    <nd ref="665725020"/>
    <nd ref="665725021"/>
    <nd ref="665725022"/>
    <nd ref="665725023"/>
    <nd ref="665725024"/>
    <nd ref="665725025"/>
    <nd ref="665725026"/>
    <nd ref="665725028"/>
    <nd ref="665725029"/>
    <nd ref="665725031"/>
    <nd ref="665725030"/>
    <nd ref="665724993"/>
    <nd ref="665724994"/>
    <nd ref="665724995"/>
    <nd ref="665724996"/>
    <nd ref="665724997"/>
    <nd ref="665725010"/>
    <nd ref="1540354458"/>
    <tag k="highway" v="trunk"/>
    <tag k="maxspeed" v="60"/>
    <tag k="name" v="Pacific Highway"/>
    <tag k="oneway" v="yes"/>
    <tag k="ref" v="MR1"/>
    <tag k="source" v="nearmap"/>
  </way>
  <way id="118173940" version="1" timestamp="2011-06-18T13:26:32Z" uid="7617" user="Franc" changeset="8473322">
    <nd ref="17392909"/>
    <nd ref="1283909316"/>
    <nd ref="264195472"/>
    <nd ref="109707713"/>
    <nd ref="17392908"/>
    <nd ref="109704524"/>
    <nd ref="665725073"/>
    <nd ref="31429752"/>
    <tag k="highway" v="trunk"/>
    <tag k="lanes" v="3"/>
    <tag k="maxspeed" v="60"/>
    <tag k="name" v="Pacific Highway"/>
    <tag k="oneway" v="yes"/>
    <tag k="source" v="survey"/>
  </way>
  <way id="118173940" version="2" timestamp="2012-02-01T01:53:26Z" uid="54784" user="Tom Hollander" changeset="10555431">
    <nd ref="17392909"/>
    <nd ref="1283909316"/>
    <nd ref="264195472"/>
    <nd ref="109707713"/>
    <nd ref="17392908"/>
    <nd ref="109704524"/>
    <nd ref="665725073"/>
    <nd ref="31429752"/>
    <tag k="highway" v="trunk"/>
    <tag k="lanes" v="3"/>
    <tag k="maxspeed" v="60"/>
    <tag k="name" v="Pacific Highway"/>
    <tag k="oneway" v="yes"/>
    <tag k="ref" v="MR1"/>
    <tag k="source" v="survey"/>
  </way>
  <way id="118173940" version="3" timestamp="2012-02-02T08:04:27Z" uid="7523" user="inas" changeset="10565177">
    <nd ref="17392909"/>
    <nd ref="1283909316"/>
    <nd ref="264195472"/>
    <nd ref="109707713"/>
    <nd ref="17392908"/>
    <nd ref="109704524"/>
    <nd ref="665725073"/>
    <nd ref="31429752"/>
    <tag k="highway" v="trunk"/>
    <tag k="lanes" v="3"/>
    <tag k="maxspeed" v="60"/>
    <tag k="name" v="Pacific Highway"/>
    <tag k="network" v="MR"/>
    <tag k="oneway" v="yes"/>
    <tag k="ref" v="1"/>
    <tag k="source" v="survey"/>
  </way>
  <way id="118173941" version="1" timestamp="2011-06-18T13:26:32Z" uid="7617" user="Franc" changeset="8473322">
    <nd ref="665724962"/>
    <nd ref="30964698"/>
    <nd ref="616559362"/>
    <tag k="highway" v="residential"/>
    <tag k="maxspeed" v="50"/>
    <tag k="maxspeed:source" v="default residential speed limit in Australia"/>
    <tag k="name" v="Fiddens Wharf Road"/>
  </way>
  <way id="118173906" version="2" timestamp="2012-07-19T23:17:23Z" uid="722137" user="OSMF Redaction Account" changeset="12351454"/>
  <way id="118173908" version="2" timestamp="2012-07-19T23:17:57Z" uid="722137" user="OSMF Redaction Account" changeset="12351454"/>
  <way id="118173909" version="3" timestamp="2012-07-19T23:17:23Z" uid="722137" user="OSMF Redaction Account" changeset="12351454"/>
  <way id="118173910" version="2" timestamp="2012-07-19T23:17:30Z" uid="722137" user="OSMF Redaction Account" changeset="12351454"/>
  <way id="118173911" version="2" timestamp="2012-07-19T23:17:51Z" uid="722137" user="OSMF Redaction Account" changeset="12351454"/>
  <way id="118173912" version="2" timestamp="2012-07-19T23:17:34Z" uid="722137" user="OSMF Redaction Account" changeset="12351454"/>
  <way id="118173913" version="3" timestamp="2012-07-19T23:17:51Z" uid="722137" user="OSMF Redaction Account" changeset="12351454"/>
  <way id="118173914" version="3" timestamp="2012-07-19T23:17:34Z" uid="722137" user="OSMF Redaction Account" changeset="12351454"/>
  <way id="118173915" version="4" timestamp="2012-07-19T23:17:55Z" uid="722137" user="OSMF Redaction Account" changeset="12351454"/>
  <way id="118173916" version="3" timestamp="2012-07-19T23:17:33Z" uid="722137" user="OSMF Redaction Account" changeset="12351454"/>
  <way id="118173921" version="3" timestamp="2012-07-19T23:17:23Z" uid="722137" user="OSMF Redaction Account" changeset="12351454"/>
  <way id="118173923" version="4" timestamp="2012-07-19T23:17:54Z" uid="722137" user="OSMF Redaction Account" changeset="12351454"/>
  <way id="118173924" version="4" timestamp="2012-07-19T23:17:30Z" uid="722137" user="OSMF Redaction Account" changeset="12351454"/>
  <way id="118173925" version="2" timestamp="2012-07-19T23:17:54Z" uid="722137" user="OSMF Redaction Account" changeset="12351454"/>
  <way id="118173927" version="2" timestamp="2012-07-19T23:17:22Z" uid="722137" user="OSMF Redaction Account" changeset="12351454"/>
  <way id="118173928" version="3" timestamp="2012-07-19T23:17:30Z" uid="722137" user="OSMF Redaction Account" changeset="12351454"/>
  <way id="118173932" version="4" timestamp="2012-07-19T23:17:34Z" uid="722137" user="OSMF Redaction Account" changeset="12351454"/>
  <way id="118173933" version="3" timestamp="2012-07-19T23:17:54Z" uid="722137" user="OSMF Redaction Account" changeset="12351454"/>
  <way id="118173934" version="2" timestamp="2012-07-19T23:17:40Z" uid="722137" user="OSMF Redaction Account" changeset="12351454"/>
  <way id="118173935" version="2" timestamp="2012-07-19T23:17:41Z" uid="722137" user="OSMF Redaction Account" changeset="12351454"/>
  <way id="118173936" version="3" timestamp="2012-07-19T19:13:50Z" uid="722137" user="OSMF Redaction Account" changeset="12344468">
    <nd ref="665724959"/>
    <nd ref="665724956"/>
    <nd ref="245929198"/>
    <nd ref="264195294"/>
    <nd ref="245929199"/>
    <nd ref="245929407"/>
    <nd ref="245929200"/>
    <nd ref="665706990"/>
    <nd ref="665706991"/>
    <nd ref="793909001"/>
    <nd ref="245929406"/>
    <nd ref="245929202"/>
    <tag k="highway" v="trunk"/>
    <tag k="lanes" v="3"/>
    <tag k="maxspeed" v="60"/>
    <tag k="name" v="Pacific Highway"/>
    <tag k="oneway" v="yes"/>
    <tag k="ref" v="MR1"/>
    <tag k="source" v="nearmap"/>
  </way>
  <way id="118173936" version="4" timestamp="2012-07-19T23:17:57Z" uid="722137" user="OSMF Redaction Account" changeset="12351454"/>
  <way id="118173937" version="3" timestamp="2012-07-19T23:17:40Z" uid="722137" user="OSMF Redaction Account" changeset="12351454"/>
  <way id="118173938" version="3" timestamp="2012-07-19T23:17:22Z" uid="722137" user="OSMF Redaction Account" changeset="12351454"/>
  <way id="118173939" version="4" timestamp="2012-07-19T23:17:41Z" uid="722137" user="OSMF Redaction Account" changeset="12351454"/>
  <way id="118173940" version="4" timestamp="2012-07-19T23:17:57Z" uid="722137" user="OSMF Redaction Account" changeset="12351454"/>
  <way id="118173941" version="2" timestamp="2012-07-19T23:17:33Z" uid="722137" user="OSMF Redaction Account" changeset="12351454"/>
</osm>
