<?xml version='1.0' encoding='UTF-8'?>
<osm version="0.6" generator="libosmium/2.20.0">
  <way id="11917698" version="7" timestamp="2011-02-16T14:28:49Z" uid="4467" user="Rosscoe" changeset="7304347"/>
  <way id="11917798" version="2" timestamp="2009-01-27T23:05:21Z" uid="20587" user="balrog-kun" changeset="846436">
    <nd ref="34520515"/>
    <nd ref="32596648"/>
    <tag k="created_by" v="JOSM"/>
    <tag k="highway" v="residential"/>
    <tag k="name" v="Emilii Plater"/>
    <tag k="wikipedia" v="pl:Ulica Emilii Plater w Warszawie"/>
  </way>
  <way id="11917798" version="3" timestamp="2010-05-23T15:15:39Z" uid="20587" user="balrog-kun" changeset="4784060">
    <nd ref="34520515"/>
    <nd ref="32596648"/>
    <tag k="highway" v="residential"/>
    <tag k="lanes" v="2"/>
    <tag k="name" v="Emilii Plater"/>
    <tag k="wikipedia" v="pl:Ulica Emilii Plater w Warszawie"/>
  </way>
  <way id="11917798" version="4" timestamp="2011-12-30T19:46:56Z" uid="165509" user="koszatek" changeset="10248968">
    <nd ref="34520515"/>
    <nd ref="32596648"/>
    <tag k="highway" v="unclassified"/>
    <tag k="lanes" v="2"/>
    <tag k="name" v="Emilii Plater"/>
    <tag k="wikipedia" v="pl:Ulica Emilii Plater w Warszawie"/>
  </way>
  <way id="11917798" version="5" timestamp="2012-04-04T19:43:33Z" uid="550476" user="fishcrosser" changeset="11181211">
    <nd ref="34520515"/>
    <nd ref="32596648"/>
    <tag k="highway" v="unclassified"/>
    <tag k="lanes" v="2"/>
    <tag k="name" v="Emilii Plater"/>
    <tag k="oneway" v="no"/>
    <tag k="wikipedia" v="pl:Ulica Emilii Plater w Warszawie"/>
  </way>
</osm>
