<?xml version='1.0' encoding='UTF-8'?>
<osm version="0.6" generator="libosmium/2.20.0">
  <way id="12064025" version="4" timestamp="2010-07-03T22:08:37Z" uid="4467" user="Rosscoe" changeset="5128505">
    <nd ref="108993726"/>
    <nd ref="109152148"/>
    <nd ref="109093702"/>
    <nd ref="108943830"/>
    <nd ref="109152151"/>
    <nd ref="108993912"/>
    <tag k="highway" v="primary"/>
    <tag k="name" v="Pershing Avenue"/>
    <tag k="name_1" v="3rd St"/>
    <tag k="old_ref_legislative" v="203"/>
    <tag k="ref" v="66"/>
    <tag k="tiger:cfcc" v="A31"/>
    <tag k="tiger:name_base" v="Pershing"/>
    <tag k="tiger:name_base_1" v="3rd"/>
    <tag k="tiger:name_base_2" v="State Route 66"/>
    <tag k="tiger:name_type" v="Ave"/>
    <tag k="tiger:name_type_1" v="St"/>
    <tag k="tiger:reviewed" v="no"/>
    <tag k="tiger:separated" v="no"/>
    <tag k="tiger:source" v="tiger_import_dch_v0.7_20071109"/>
    <tag k="tiger:tlid" v="52474207"/>
  </way>
  <way id="12064025" version="5" timestamp="2011-06-06T00:24:25Z" uid="207745" user="NE2" changeset="8355588">
    <nd ref="108993726"/>
    <nd ref="109152148"/>
    <nd ref="109093702"/>
    <nd ref="108943830"/>
    <nd ref="109152151"/>
    <nd ref="108993912"/>
    <tag k="highway" v="primary"/>
    <tag k="name" v="Pershing Avenue"/>
    <tag k="name_1" v="3rd St"/>
    <tag k="old_ref_legislative" v="203"/>
    <tag k="ref" v="PA 66"/>
    <tag k="tiger:cfcc" v="A31"/>
    <tag k="tiger:name_base" v="Pershing"/>
    <tag k="tiger:name_base_1" v="3rd"/>
    <tag k="tiger:name_base_2" v="State Route 66"/>
    <tag k="tiger:name_type" v="Ave"/>
    <tag k="tiger:name_type_1" v="St"/>
    <tag k="tiger:reviewed" v="no"/>
    <tag k="tiger:separated" v="no"/>
    <tag k="tiger:source" v="tiger_import_dch_v0.7_20071109"/>
    <tag k="tiger:tlid" v="52474207"/>
  </way>
  <way id="12064025" version="6" timestamp="2011-12-07T03:03:11Z" uid="207745" user="NE2" changeset="10054668">
    <nd ref="108993726"/>
    <nd ref="109152148"/>
    <nd ref="109093702"/>
    <nd ref="108943830"/>
    <nd ref="109152151"/>
    <nd ref="108993912"/>
    <tag k="hgv" v="yes"/>
    <tag k="highway" v="primary"/>
    <tag k="name" v="Pershing Avenue"/>
    <tag k="name_1" v="3rd St"/>
    <tag k="old_ref_legislative" v="203"/>
    <tag k="ref" v="PA 66"/>
    <tag k="source:hgv" v="PennDOT ftp://ftp.dot.state.pa.us/public/Bureaus/BOMO/MC/Publication411.pdf"/>
    <tag k="tiger:cfcc" v="A31"/>
    <tag k="tiger:name_base" v="Pershing"/>
    <tag k="tiger:name_base_1" v="3rd"/>
    <tag k="tiger:name_base_2" v="State Route 66"/>
    <tag k="tiger:name_type" v="Ave"/>
    <tag k="tiger:name_type_1" v="St"/>
    <tag k="tiger:reviewed" v="no"/>
    <tag k="tiger:separated" v="no"/>
    <tag k="tiger:source" v="tiger_import_dch_v0.7_20071109"/>
    <tag k="tiger:tlid" v="52474207"/>
  </way>
</osm>
