<?xml version='1.0' encoding='UTF-8'?>
<osm version="0.6" generator="libosmium/2.20.0">
  <way id="12448125" version="2" timestamp="2009-11-07T13:15:22Z" uid="99207" user="Lar Kiesel" changeset="3055620">
    <nd ref="113264536"/>
    <nd ref="113271428"/>
    <nd ref="113271431"/>
    <nd ref="113271434"/>
    <nd ref="113271436"/>
    <nd ref="113271439"/>
    <nd ref="113271441"/>
    <nd ref="113271444"/>
    <tag k="highway" v="primary"/>
    <tag k="name" v="United States Highway 276"/>
    <tag k="name_1" v="State Highway 11"/>
    <tag k="name_2" v="Geer Hwy"/>
    <tag k="ref" v="US 276; SC 11"/>
    <tag k="tiger:cfcc" v="A21"/>
    <tag k="tiger:county" v="Greenville, SC"/>
    <tag k="tiger:name_base" v="United States Highway 276"/>
    <tag k="tiger:name_base_1" v="State Highway 11"/>
    <tag k="tiger:name_base_2" v="Geer"/>
    <tag k="tiger:name_type_2" v="Hwy"/>
    <tag k="tiger:reviewed" v="no"/>
    <tag k="tiger:separated" v="no"/>
    <tag k="tiger:source" v="tiger_import_dch_v0.6_20070829"/>
    <tag k="tiger:tlid" v="38353301"/>
    <tag k="tiger:upload_uuid" v="bulk_upload.pl-f4b332de-cd92-4f5a-acff-5f1a1acec231"/>
  </way>
  <way id="12448125" version="3" timestamp="2011-05-15T16:59:16Z" uid="135163" user="MikeN" changeset="8154176">
    <nd ref="113264536"/>
    <nd ref="113271428"/>
    <nd ref="113271431"/>
    <nd ref="113271434"/>
    <nd ref="113271436"/>
    <nd ref="113271439"/>
    <nd ref="113271441"/>
    <nd ref="113271444"/>
    <tag k="highway" v="primary"/>
    <tag k="lanes" v="2"/>
    <tag k="maxspeed" v="45 mph"/>
    <tag k="name" v="United States Highway 276"/>
    <tag k="name_1" v="State Highway 11"/>
    <tag k="name_2" v="Geer Hwy"/>
    <tag k="ref" v="US 276; SC 11"/>
    <tag k="tiger:cfcc" v="A21"/>
    <tag k="tiger:county" v="Greenville, SC"/>
    <tag k="tiger:name_base" v="United States Highway 276"/>
    <tag k="tiger:name_base_1" v="State Highway 11"/>
    <tag k="tiger:name_base_2" v="Geer"/>
    <tag k="tiger:name_type_2" v="Hwy"/>
    <tag k="tiger:separated" v="no"/>
    <tag k="tiger:source" v="tiger_import_dch_v0.6_20070829"/>
    <tag k="tiger:tlid" v="38353301"/>
    <tag k="tiger:upload_uuid" v="bulk_upload.pl-f4b332de-cd92-4f5a-acff-5f1a1acec231"/>
  </way>
  <way id="12448125" version="4" timestamp="2011-06-16T16:48:52Z" uid="207745" user="NE2" changeset="8457565">
    <nd ref="113264536"/>
    <nd ref="113271428"/>
    <nd ref="113271431"/>
    <nd ref="113271434"/>
    <nd ref="113271436"/>
    <nd ref="113271439"/>
    <nd ref="113271441"/>
    <nd ref="113271444"/>
    <tag k="highway" v="primary"/>
    <tag k="lanes" v="2"/>
    <tag k="maxspeed" v="45 mph"/>
    <tag k="name" v="Geer Hwy"/>
    <tag k="ref" v="US 276; SC 11"/>
    <tag k="tiger:cfcc" v="A21"/>
    <tag k="tiger:county" v="Greenville, SC"/>
    <tag k="tiger:name_base" v="United States Highway 276"/>
    <tag k="tiger:name_base_1" v="State Highway 11"/>
    <tag k="tiger:name_base_2" v="Geer"/>
    <tag k="tiger:name_type_2" v="Hwy"/>
    <tag k="tiger:separated" v="no"/>
    <tag k="tiger:source" v="tiger_import_dch_v0.6_20070829"/>
    <tag k="tiger:tlid" v="38353301"/>
    <tag k="tiger:upload_uuid" v="bulk_upload.pl-f4b332de-cd92-4f5a-acff-5f1a1acec231"/>
  </way>
  <way id="12448510" version="3" timestamp="2009-09-25T07:08:04Z" uid="4467" user="Rosscoe" changeset="2613415">
    <nd ref="59734346"/>
    <nd ref="113273308"/>
    <nd ref="113273334"/>
    <nd ref="113273355"/>
    <nd ref="113273383"/>
    <nd ref="113273408"/>
    <nd ref="113273439"/>
    <nd ref="113273467"/>
    <nd ref="113273490"/>
    <nd ref="113273517"/>
    <nd ref="113273542"/>
    <nd ref="113273572"/>
    <nd ref="113273598"/>
    <nd ref="113273620"/>
    <nd ref="113273643"/>
    <nd ref="60671404"/>
    <tag k="highway" v="unclassified"/>
    <tag k="name" v="Derhams Lane"/>
    <tag k="source" v="survey"/>
    <tag k="surface" v="unpaved"/>
  </way>
  <way id="12448553" version="9" timestamp="2010-04-04T19:49:11Z" uid="74617" user="JohnSmith" changeset="4325742">
    <nd ref="31319332"/>
    <nd ref="604314696"/>
    <nd ref="604314940"/>
    <nd ref="31319333"/>
    <tag k="highway" v="motorway"/>
    <tag k="name" v="Frankston Freeway"/>
    <tag k="oneway" v="yes"/>
  </way>
  <way id="12448553" version="10" timestamp="2010-12-12T04:48:59Z" uid="46482" user="Leon K" changeset="6632311">
    <nd ref="31319332"/>
    <nd ref="604314696"/>
    <nd ref="604314940"/>
    <nd ref="31319333"/>
    <tag k="highway" v="motorway"/>
    <tag k="lanes" v="2"/>
    <tag k="name" v="Frankston Freeway"/>
    <tag k="oneway" v="yes"/>
  </way>
  <way id="12448553" version="11" timestamp="2010-12-20T02:05:35Z" uid="46482" user="Leon K" changeset="6712452">
    <nd ref="31319332"/>
    <nd ref="604314696"/>
    <nd ref="604314940"/>
    <nd ref="31319333"/>
    <tag k="highway" v="motorway"/>
    <tag k="lanes" v="2"/>
    <tag k="name" v="Frankston Freeway"/>
    <tag k="oneway" v="yes"/>
    <tag k="ref" v="S11"/>
  </way>
  <way id="12448553" version="12" timestamp="2011-02-27T05:02:39Z" uid="11111" user="lakeyboy" changeset="7406862">
    <nd ref="1176495167"/>
    <nd ref="31319332"/>
    <nd ref="604314696"/>
    <nd ref="1176495172"/>
    <nd ref="1176495159"/>
    <nd ref="604314940"/>
    <nd ref="1176495153"/>
    <nd ref="31319333"/>
    <tag k="highway" v="motorway"/>
    <tag k="lanes" v="2"/>
    <tag k="name" v="Frankston Freeway"/>
    <tag k="oneway" v="yes"/>
    <tag k="ref" v="S11"/>
  </way>
  <way id="12448553" version="13" timestamp="2011-03-19T05:43:00Z" uid="46482" user="Leon K" changeset="7601479">
    <nd ref="1176495167"/>
    <nd ref="31319332"/>
    <nd ref="604314696"/>
    <nd ref="1176495172"/>
    <nd ref="1176495159"/>
    <nd ref="604314940"/>
    <nd ref="1176495153"/>
    <nd ref="31319333"/>
    <tag k="highway" v="motorway"/>
    <tag k="lanes" v="2"/>
    <tag k="maxspeed" v="70"/>
    <tag k="name" v="Frankston Freeway"/>
    <tag k="oneway" v="yes"/>
    <tag k="ref" v="S11"/>
  </way>
  <way id="12448971" version="2" timestamp="2009-11-14T03:26:33Z" uid="99207" user="Lar Kiesel" changeset="3110442">
    <nd ref="113127536"/>
    <nd ref="113276387"/>
    <nd ref="113276390"/>
    <tag k="highway" v="residential"/>
    <tag k="name" v="County Line Rd"/>
    <tag k="tiger:cfcc" v="A41"/>
    <tag k="tiger:county" v="Lancaster, SC"/>
    <tag k="tiger:name_base" v="County Line"/>
    <tag k="tiger:name_type" v="Rd"/>
    <tag k="tiger:reviewed" v="no"/>
    <tag k="tiger:separated" v="no"/>
    <tag k="tiger:source" v="tiger_import_dch_v0.6_20070829"/>
    <tag k="tiger:tlid" v="40690147"/>
    <tag k="tiger:upload_uuid" v="bulk_upload.pl-5974dbe4-9209-4ed0-9a8d-5ecd334e2af8"/>
  </way>
  <way id="12448125" version="5" timestamp="2012-07-18T15:51:19Z" uid="722137" user="OSMF Redaction Account" changeset="12287771">
    <nd ref="113264536"/>
    <nd ref="113271428"/>
    <nd ref="113271431"/>
    <nd ref="113271434"/>
    <nd ref="113271436"/>
    <nd ref="113271439"/>
    <nd ref="113271441"/>
    <nd ref="113271444"/>
    <tag k="highway" v="primary"/>
    <tag k="lanes" v="2"/>
    <tag k="maxspeed" v="45 mph"/>
    <tag k="name" v="Geer Hwy"/>
    <tag k="tiger:cfcc" v="A21"/>
    <tag k="tiger:county" v="Greenville, SC"/>
    <tag k="tiger:name_base" v="United States Highway 276"/>
    <tag k="tiger:name_base_1" v="State Highway 11"/>
    <tag k="tiger:name_base_2" v="Geer"/>
    <tag k="tiger:name_type_2" v="Hwy"/>
    <tag k="tiger:separated" v="no"/>
    <tag k="tiger:source" v="tiger_import_dch_v0.6_20070829"/>
    <tag k="tiger:tlid" v="38353301"/>
    <tag k="tiger:upload_uuid" v="bulk_upload.pl-f4b332de-cd92-4f5a-acff-5f1a1acec231"/>
  </way>
  <way id="12448125" version="6" timestamp="2012-07-26T04:57:42Z" uid="207745" user="NE2" changeset="12494414">
    <nd ref="113264536"/>
    <nd ref="113271428"/>
    <nd ref="113271431"/>
    <nd ref="113271434"/>
    <nd ref="113271436"/>
    <nd ref="113271439"/>
    <nd ref="113271441"/>
    <nd ref="113271444"/>
    <tag k="highway" v="primary"/>
    <tag k="lanes" v="2"/>
    <tag k="maxspeed" v="45 mph"/>
    <tag k="name" v="Geer Hwy"/>
    <tag k="ref" v="US 276"/>
    <tag k="tiger:cfcc" v="A21"/>
    <tag k="tiger:county" v="Greenville, SC"/>
    <tag k="tiger:name_base" v="United States Highway 276"/>
    <tag k="tiger:name_base_1" v="State Highway 11"/>
    <tag k="tiger:name_base_2" v="Geer"/>
    <tag k="tiger:name_type_2" v="Hwy"/>
    <tag k="tiger:separated" v="no"/>
    <tag k="tiger:source" v="tiger_import_dch_v0.6_20070829"/>
    <tag k="tiger:tlid" v="38353301"/>
    <tag k="tiger:upload_uuid" v="bulk_upload.pl-f4b332de-cd92-4f5a-acff-5f1a1acec231"/>
  </way>
  <way id="12448125" version="7" timestamp="2012-09-08T04:53:15Z" uid="207745" user="NE2" changeset="13030029">
    <nd ref="113264536"/>
    <nd ref="113271428"/>
    <nd ref="113271431"/>
    <nd ref="113271434"/>
    <nd ref="113271436"/>
    <nd ref="113271439"/>
    <nd ref="113271441"/>
    <nd ref="113271444"/>
    <tag k="highway" v="primary"/>
    <tag k="lanes" v="2"/>
    <tag k="maxspeed" v="45 mph"/>
    <tag k="name" v="Geer Hwy"/>
    <tag k="ref" v="US 276;SC 11"/>
    <tag k="tiger:cfcc" v="A21"/>
    <tag k="tiger:county" v="Greenville, SC"/>
    <tag k="tiger:name_base" v="United States Highway 276"/>
    <tag k="tiger:name_base_1" v="State Highway 11"/>
    <tag k="tiger:name_base_2" v="Geer"/>
    <tag k="tiger:name_type_2" v="Hwy"/>
    <tag k="tiger:separated" v="no"/>
    <tag k="tiger:source" v="tiger_import_dch_v0.6_20070829"/>
    <tag k="tiger:tlid" v="38353301"/>
    <tag k="tiger:upload_uuid" v="bulk_upload.pl-f4b332de-cd92-4f5a-acff-5f1a1acec231"/>
  </way>
  <way id="12448510" version="4" timestamp="2012-07-19T05:16:03Z" uid="722137" user="OSMF Redaction Account" changeset="12309025">
    <nd ref="59734346"/>
    <nd ref="113273308"/>
    <nd ref="113273334"/>
    <nd ref="113273355"/>
    <nd ref="113273383"/>
    <nd ref="113273408"/>
    <nd ref="113273439"/>
    <nd ref="113273467"/>
    <nd ref="113273490"/>
    <nd ref="113273517"/>
    <nd ref="113273542"/>
    <nd ref="113273572"/>
    <nd ref="113273598"/>
    <nd ref="113273620"/>
    <nd ref="113273643"/>
    <nd ref="60671404"/>
    <tag k="highway" v="unclassified"/>
    <tag k="name" v="Derhams Lane"/>
    <tag k="source" v="surveyed"/>
    <tag k="surface" v="unpaved"/>
  </way>
  <way id="12448553" version="14" timestamp="2012-09-01T14:02:08Z" uid="67896" user="mrpulley" changeset="12942817">
    <nd ref="1176495167"/>
    <nd ref="31319332"/>
    <nd ref="604314696"/>
    <nd ref="1176495172"/>
    <nd ref="1176495159"/>
    <nd ref="604314940"/>
    <nd ref="1176495153"/>
    <nd ref="31319333"/>
    <tag k="highway" v="motorway"/>
    <tag k="lanes" v="2"/>
    <tag k="maxspeed" v="70"/>
    <tag k="name" v="Frankston Freeway"/>
    <tag k="network" v="S"/>
    <tag k="oneway" v="yes"/>
    <tag k="ref" v="11"/>
  </way>
  <way id="12448971" version="3" timestamp="2012-07-18T18:40:44Z" uid="722137" user="OSMF Redaction Account" changeset="12293085">
    <nd ref="113276387"/>
    <nd ref="113276390"/>
    <tag k="highway" v="residential"/>
    <tag k="name" v="County Line Rd"/>
    <tag k="tiger:cfcc" v="A41"/>
    <tag k="tiger:county" v="Lancaster, SC"/>
    <tag k="tiger:name_base" v="County Line"/>
    <tag k="tiger:name_type" v="Rd"/>
    <tag k="tiger:reviewed" v="no"/>
    <tag k="tiger:separated" v="no"/>
    <tag k="tiger:source" v="tiger_import_dch_v0.6_20070829"/>
    <tag k="tiger:tlid" v="40690147"/>
    <tag k="tiger:upload_uuid" v="bulk_upload.pl-5974dbe4-9209-4ed0-9a8d-5ecd334e2af8"/>
  </way>
</osm>
