<?xml version='1.0' encoding='UTF-8'?>
<osm version="0.6" generator="libosmium/2.20.0">
  <way id="12573967" version="4" timestamp="2008-10-01T23:13:44Z" uid="65847" user="LKK" changeset="24639">
    <nd ref="61150720"/>
    <nd ref="114093387"/>
    <nd ref="35186253"/>
    <nd ref="35186254"/>
    <tag k="bicycle" v="lane"/>
    <tag k="bridge" v="yes"/>
    <tag k="created_by" v="Potlatch 0.8a"/>
    <tag k="foot" v="yes"/>
    <tag k="highway" v="secondary"/>
    <tag k="layer" v="1"/>
    <tag k="name" v="Leunabrücke"/>
    <tag k="oneway" v="yes"/>
  </way>
  <way id="12573967" version="5" timestamp="2008-11-14T21:42:23Z" uid="70621" user="BikeMap" changeset="749894">
    <nd ref="61150720"/>
    <nd ref="114093387"/>
    <nd ref="35186253"/>
    <nd ref="35186254"/>
    <tag k="bridge" v="yes"/>
    <tag k="created_by" v="Potlatch 0.8a"/>
    <tag k="cycalway" v="lane"/>
    <tag k="foot" v="yes"/>
    <tag k="highway" v="secondary"/>
    <tag k="layer" v="1"/>
    <tag k="name" v="Leunabrücke"/>
    <tag k="oneway" v="yes"/>
  </way>
  <way id="12573967" version="6" timestamp="2008-11-19T10:21:23Z" uid="70621" user="BikeMap" changeset="767931">
    <nd ref="61150720"/>
    <nd ref="114093387"/>
    <nd ref="35186253"/>
    <nd ref="35186254"/>
    <tag k="bridge" v="yes"/>
    <tag k="created_by" v="Potlatch 0.8a"/>
    <tag k="cycleway" v="lane"/>
    <tag k="foot" v="yes"/>
    <tag k="highway" v="secondary"/>
    <tag k="layer" v="1"/>
    <tag k="name" v="Leunabrücke"/>
    <tag k="oneway" v="yes"/>
  </way>
  <way id="12573967" version="7" timestamp="2009-07-04T16:05:13Z" uid="8464" user="MichaH" changeset="1731000">
    <nd ref="61150720"/>
    <nd ref="114093387"/>
    <nd ref="35186253"/>
    <nd ref="35186254"/>
    <tag k="bridge" v="yes"/>
    <tag k="cycleway" v="lane"/>
    <tag k="foot" v="yes"/>
    <tag k="highway" v="secondary"/>
    <tag k="layer" v="1"/>
    <tag k="name" v="Leunabrücke"/>
    <tag k="oneway" v="yes"/>
  </way>
  <way id="12573967" version="8" timestamp="2010-05-22T12:29:43Z" uid="263596" user="Oberförster" changeset="4773931">
    <nd ref="61150720"/>
    <nd ref="114093387"/>
    <nd ref="35186253"/>
    <nd ref="35186254"/>
    <tag k="bridge" v="yes"/>
    <tag k="foot" v="yes"/>
    <tag k="highway" v="secondary"/>
    <tag k="layer" v="1"/>
    <tag k="name" v="Leunabrücke"/>
    <tag k="oneway" v="yes"/>
  </way>
  <way id="12573967" version="9" timestamp="2010-05-29T21:28:27Z" uid="57645" user="KartoGrapHiti" changeset="4846751">
    <nd ref="61150720"/>
    <nd ref="114093387"/>
    <tag k="highway" v="secondary"/>
    <tag k="layer" v="1"/>
    <tag k="name" v="Leunabrücke"/>
    <tag k="oneway" v="yes"/>
  </way>
</osm>
