<?xml version='1.0' encoding='UTF-8'?>
<osm version="0.6" generator="libosmium/2.20.0">
  <way id="12625248" version="4" timestamp="2008-07-05T22:32:52Z" uid="6975" user="ulfl" changeset="404092">
    <nd ref="101594476"/>
    <nd ref="101594480"/>
    <nd ref="114109672"/>
    <nd ref="114109578"/>
    <nd ref="101594482"/>
    <nd ref="101594485"/>
    <tag k="FIXME" v="The position of this feature is likely over 50m out, please GPS survey."/>
    <tag k="highway" v="primary"/>
    <tag k="name" v="Bennochy Rd"/>
    <tag k="note" v="This is a very rough tracing from an 1940 map. Retag only as real feature if you know it is still in use."/>
    <tag k="npe" v="primary"/>
    <tag k="ref" v="A907"/>
  </way>
  <way id="12625248" version="5" timestamp="2009-02-13T13:09:44Z" uid="7272" user="sciuro" changeset="399177">
    <nd ref="101594476"/>
    <nd ref="344891485"/>
    <nd ref="101594480"/>
    <nd ref="114109672"/>
    <nd ref="114109578"/>
    <nd ref="101594482"/>
    <nd ref="101594485"/>
    <tag k="FIXME" v="The position of this feature is likely over 50m out, please GPS survey."/>
    <tag k="highway" v="primary"/>
    <tag k="name" v="Bennochy Rd"/>
    <tag k="note" v="This is a very rough tracing from an 1940 map. Retag only as real feature if you know it is still in use."/>
    <tag k="npe" v="primary"/>
    <tag k="ref" v="A907"/>
  </way>
  <way id="12625248" version="6" timestamp="2010-03-19T16:59:48Z" uid="7272" user="sciuro" changeset="4171889">
    <nd ref="101594476"/>
    <nd ref="669836851"/>
    <nd ref="344891485"/>
    <nd ref="101594480"/>
    <nd ref="114109672"/>
    <nd ref="114109578"/>
    <nd ref="101594482"/>
    <nd ref="101594485"/>
    <tag k="FIXME" v="The position of this feature is likely over 50m out, please GPS survey."/>
    <tag k="highway" v="primary"/>
    <tag k="name" v="Bennochy Rd"/>
    <tag k="note" v="This is a very rough tracing from an 1940 map. Retag only as real feature if you know it is still in use."/>
    <tag k="npe" v="primary"/>
    <tag k="ref" v="A907"/>
  </way>
  <way id="12625248" version="7" timestamp="2010-09-02T16:37:54Z" uid="12437" user="Homerjay69" changeset="5663444">
    <nd ref="101594476"/>
    <nd ref="669836851"/>
    <nd ref="344891485"/>
    <nd ref="101594480"/>
    <nd ref="114109672"/>
    <nd ref="114109578"/>
    <tag k="FIXME" v="The position of this feature is likely over 50m out, please GPS survey."/>
    <tag k="highway" v="primary"/>
    <tag k="name" v="Bennochy Rd"/>
    <tag k="note" v="This is a very rough tracing from an 1940 map. Retag only as real feature if you know it is still in use."/>
    <tag k="npe" v="primary"/>
    <tag k="ref" v="A907"/>
  </way>
  <way id="12625248" version="8" timestamp="2010-09-02T16:39:25Z" uid="12437" user="Homerjay69" changeset="5663444">
    <nd ref="101594476"/>
    <nd ref="669836851"/>
    <nd ref="344891485"/>
    <nd ref="101594480"/>
    <nd ref="114109672"/>
    <nd ref="114109578"/>
    <tag k="highway" v="secondary"/>
    <tag k="name" v="Bennochy Rd"/>
    <tag k="npe" v="primary"/>
    <tag k="ref" v="A907"/>
  </way>
  <way id="12625248" version="9" timestamp="2010-09-02T16:39:36Z" uid="12437" user="Homerjay69" changeset="5663444">
    <nd ref="101594476"/>
    <nd ref="669836851"/>
    <nd ref="344891485"/>
    <nd ref="101594480"/>
    <nd ref="114109672"/>
    <nd ref="114109578"/>
    <tag k="highway" v="secondary"/>
    <tag k="name" v="Bennochy Rd"/>
    <tag k="ref" v="B925"/>
    <tag k="source" v="OS_OpenData_StreetView"/>
  </way>
  <way id="12625248" version="10" timestamp="2011-07-26T11:41:58Z" uid="69853" user="Central America" changeset="8834891">
    <nd ref="101594476"/>
    <nd ref="669836851"/>
    <nd ref="344891485"/>
    <nd ref="101594480"/>
    <nd ref="114109672"/>
    <nd ref="114109578"/>
    <tag k="highway" v="secondary"/>
    <tag k="name" v="Bennochy Road"/>
    <tag k="ref" v="B925"/>
    <tag k="source" v="OS_OpenData_StreetView"/>
  </way>
  <way id="12625913" version="2" timestamp="2009-08-24T16:56:24Z" uid="68769" user="david lynch" changeset="2246943">
    <nd ref="115225533"/>
    <nd ref="473070075"/>
    <nd ref="115225536"/>
    <tag k="highway" v="residential"/>
    <tag k="name" v="Castille Rd"/>
    <tag k="tiger:cfcc" v="A41"/>
    <tag k="tiger:county" v="East Baton Rouge, LA"/>
    <tag k="tiger:name_base" v="Castille"/>
    <tag k="tiger:name_type" v="Rd"/>
    <tag k="tiger:reviewed" v="no"/>
    <tag k="tiger:separated" v="no"/>
    <tag k="tiger:source" v="tiger_import_dch_v0.6_20070813"/>
    <tag k="tiger:tlid" v="92195119"/>
    <tag k="tiger:upload_uuid" v="bulk_upload.pl-40f65c9b-293f-4ade-855c-437289561ee9"/>
    <tag k="tiger:zip_left" v="70809"/>
    <tag k="tiger:zip_right" v="70809"/>
  </way>
  <way id="12625913" version="3" timestamp="2012-07-18T12:26:12Z" uid="722137" user="OSMF Redaction Account" changeset="12281829">
    <nd ref="115225533"/>
    <nd ref="115225536"/>
    <tag k="highway" v="residential"/>
    <tag k="name" v="Castille Rd"/>
    <tag k="tiger:cfcc" v="A41"/>
    <tag k="tiger:county" v="East Baton Rouge, LA"/>
    <tag k="tiger:name_base" v="Castille"/>
    <tag k="tiger:name_type" v="Rd"/>
    <tag k="tiger:reviewed" v="no"/>
    <tag k="tiger:separated" v="no"/>
    <tag k="tiger:source" v="tiger_import_dch_v0.6_20070813"/>
    <tag k="tiger:tlid" v="92195119"/>
    <tag k="tiger:upload_uuid" v="bulk_upload.pl-40f65c9b-293f-4ade-855c-437289561ee9"/>
    <tag k="tiger:zip_left" v="70809"/>
    <tag k="tiger:zip_right" v="70809"/>
  </way>
  <way id="12625913" version="4" timestamp="2012-08-09T16:29:26Z" uid="22925" user="ELadner" changeset="12670475">
    <nd ref="115225533"/>
    <nd ref="1859035745"/>
    <nd ref="1859035742"/>
    <nd ref="115225536"/>
    <tag k="highway" v="residential"/>
    <tag k="name" v="Castille Rd"/>
    <tag k="tiger:cfcc" v="A41"/>
    <tag k="tiger:county" v="East Baton Rouge, LA"/>
    <tag k="tiger:name_base" v="Castille"/>
    <tag k="tiger:name_type" v="Rd"/>
    <tag k="tiger:reviewed" v="no"/>
    <tag k="tiger:separated" v="no"/>
    <tag k="tiger:source" v="tiger_import_dch_v0.6_20070813"/>
    <tag k="tiger:tlid" v="92195119"/>
    <tag k="tiger:upload_uuid" v="bulk_upload.pl-40f65c9b-293f-4ade-855c-437289561ee9"/>
    <tag k="tiger:zip_left" v="70809"/>
    <tag k="tiger:zip_right" v="70809"/>
  </way>
</osm>
