<?xml version='1.0' encoding='UTF-8'?>
<osm version="0.6" generator="libosmium/2.20.0">
  <way id="12671844" version="3" timestamp="2008-07-04T09:06:39Z" uid="6975" user="ulfl" changeset="389415">
    <nd ref="115696799"/>
    <nd ref="115696806"/>
    <tag k="access" v="no"/>
    <tag k="highway" v="track"/>
    <tag k="name" v="Grüner Wald"/>
    <tag k="tracktype" v="grade3"/>
  </way>
  <way id="12671844" version="4" timestamp="2008-12-26T09:11:57Z" uid="73143" user="HB24" changeset="619875"/>
  <way id="12671844" version="5" timestamp="2008-12-26T09:16:22Z" uid="73143" user="HB24" changeset="619875">
    <nd ref="115696799"/>
    <nd ref="115696806"/>
    <tag k="access" v="no"/>
    <tag k="created_by" v="Potlatch 0.10f"/>
    <tag k="highway" v="track"/>
    <tag k="name" v="Grüner Wald"/>
    <tag k="tracktype" v="grade3"/>
  </way>
  <way id="12671844" version="6" timestamp="2009-03-30T15:27:35Z" uid="65845" user="Christian Wirth" changeset="869564">
    <nd ref="115696799"/>
    <nd ref="115696806"/>
    <tag k="access" v="no"/>
    <tag k="created_by" v="Potlatch 0.10f"/>
    <tag k="highway" v="track"/>
    <tag k="name" v="Grüner Wald"/>
    <tag k="tracktype" v="grade3"/>
  </way>
  <way id="12671844" version="7" timestamp="2012-01-14T11:58:11Z" uid="65845" user="Christian Wirth" changeset="10386695"/>
  <way id="12671848" version="3" timestamp="2008-07-04T09:06:42Z" uid="6975" user="ulfl" changeset="389415">
    <nd ref="115696908"/>
    <nd ref="115696917"/>
    <nd ref="115696926"/>
    <nd ref="115696933"/>
    <nd ref="115696935"/>
    <nd ref="115696938"/>
    <nd ref="115696945"/>
    <nd ref="115696953"/>
    <nd ref="115696958"/>
    <nd ref="115696965"/>
    <nd ref="115696971"/>
    <nd ref="115696976"/>
    <tag k="highway" v="track"/>
    <tag k="name" v="Eck"/>
    <tag k="tracktype" v="grade3"/>
  </way>
  <way id="12671848" version="4" timestamp="2011-03-09T19:11:29Z" uid="26265" user="rmoser" changeset="7507312">
    <nd ref="115696908"/>
    <nd ref="115696917"/>
    <nd ref="115696926"/>
    <nd ref="115696933"/>
    <nd ref="115696935"/>
    <nd ref="115696938"/>
    <nd ref="115696945"/>
    <nd ref="1194427922"/>
    <nd ref="115696953"/>
    <nd ref="1194427050"/>
    <nd ref="115696958"/>
    <nd ref="115696965"/>
    <nd ref="115696971"/>
    <nd ref="115696976"/>
    <tag k="highway" v="track"/>
    <tag k="name" v="Eck"/>
    <tag k="tracktype" v="grade3"/>
  </way>
  <way id="12671849" version="3" timestamp="2008-07-04T09:06:43Z" uid="6975" user="ulfl" changeset="389415">
    <nd ref="115696938"/>
    <nd ref="115696982"/>
    <nd ref="115696987"/>
    <nd ref="115696992"/>
    <nd ref="115696491"/>
    <tag k="highway" v="track"/>
    <tag k="name" v="Eck"/>
    <tag k="tracktype" v="grade3"/>
  </way>
  <way id="12671849" version="4" timestamp="2008-07-08T18:55:23Z" uid="15511" user="juha1" changeset="430887">
    <nd ref="115696938"/>
    <nd ref="115696982"/>
    <nd ref="115696987"/>
    <nd ref="115696992"/>
    <nd ref="115696491"/>
    <tag k="created_by" v="Potlatch 0.9c"/>
    <tag k="highway" v="primary"/>
    <tag k="name" v="Eck"/>
    <tag k="tracktype" v="grade3"/>
  </way>
  <way id="12671849" version="5" timestamp="2008-07-17T00:05:13Z" uid="15511" user="juha1" changeset="518245">
    <nd ref="115696938"/>
    <nd ref="115696982"/>
    <nd ref="115696987"/>
    <nd ref="115696992"/>
    <nd ref="115696491"/>
    <tag k="created_by" v="Potlatch 0.9c"/>
    <tag k="highway" v="track"/>
    <tag k="name" v="Eck"/>
    <tag k="tracktype" v="grade3"/>
  </way>
  <way id="12671848" version="5" timestamp="2012-05-17T13:49:21Z" uid="26265" user="rmoser" changeset="11623635">
    <nd ref="115696908"/>
    <nd ref="115696917"/>
    <nd ref="115696926"/>
    <nd ref="115696933"/>
    <nd ref="115696935"/>
    <nd ref="115696938"/>
    <nd ref="115696945"/>
    <nd ref="1194427922"/>
    <nd ref="115696953"/>
    <nd ref="1194427050"/>
    <nd ref="115696958"/>
    <nd ref="115696965"/>
    <nd ref="115696971"/>
    <nd ref="115696976"/>
    <tag k="highway" v="track"/>
    <tag k="name" v="Eck"/>
    <tag k="odbl" v="clean"/>
    <tag k="odbl:note" v="decliner touched tags that have been are trivial."/>
    <tag k="tracktype" v="grade3"/>
  </way>
  <way id="12671849" version="6" timestamp="2012-05-17T13:49:22Z" uid="26265" user="rmoser" changeset="11623635">
    <nd ref="115696938"/>
    <nd ref="115696982"/>
    <nd ref="115696987"/>
    <nd ref="115696992"/>
    <nd ref="115696491"/>
    <tag k="highway" v="track"/>
    <tag k="name" v="Eck"/>
    <tag k="odbl" v="clean"/>
    <tag k="odbl:note" v="decliner touched tags that have been are trivial."/>
    <tag k="tracktype" v="grade3"/>
  </way>
</osm>
