<?xml version='1.0' encoding='UTF-8'?>
<osm version="0.6" generator="libosmium/2.20.0">
  <way id="12695075" version="1" timestamp="2007-11-15T20:35:33Z" uid="8328" user="benpre" changeset="521854">
    <nd ref="30459740"/>
    <nd ref="30459741"/>
    <nd ref="30459742"/>
    <tag k="created_by" v="Potlatch alpha"/>
    <tag k="highway" v="residential"/>
  </way>
  <way id="12695075" version="2" timestamp="2007-11-24T15:15:59Z" uid="9642" user="Jscott" changeset="609432">
    <nd ref="30459740"/>
    <nd ref="30459741"/>
    <nd ref="30459742"/>
    <tag k="created_by" v="Potlatch 0.5d"/>
    <tag k="highway" v="residential"/>
    <tag k="name" v="Dale Avenue"/>
  </way>
  <way id="12695075" version="3" timestamp="2009-09-11T18:00:00Z" uid="164542" user="kc_ott" changeset="2449493">
    <nd ref="30459740"/>
    <nd ref="30459741"/>
    <nd ref="30459742"/>
    <tag k="highway" v="residential"/>
    <tag k="name" v="Dale Avenue"/>
  </way>
  <way id="12695075" version="4" timestamp="2010-08-08T01:33:59Z" uid="186592" user="Johnwhelan" changeset="5429207">
    <nd ref="30459740"/>
    <nd ref="30459741"/>
    <nd ref="30459742"/>
    <tag k="highway" v="residential"/>
    <tag k="name" v="Dale Avenue"/>
    <tag k="name:fr" v="avenue Dale"/>
  </way>
  <way id="12695075" version="5" timestamp="2010-08-08T10:04:29Z" uid="186592" user="Johnwhelan" changeset="5431191">
    <nd ref="30459740"/>
    <nd ref="30459741"/>
    <nd ref="30459742"/>
    <tag k="highway" v="residential"/>
    <tag k="name" v="Dale Avenue"/>
    <tag k="name:fr" v="avenue Dale"/>
  </way>
  <way id="12695075" version="6" timestamp="2010-09-07T18:28:12Z" uid="186592" user="Johnwhelan" changeset="5710220"/>
  <way id="12695757" version="2" timestamp="2008-07-15T01:33:23Z" uid="6975" user="ulfl" changeset="496348">
    <nd ref="115977593"/>
    <nd ref="115977598"/>
    <nd ref="17653743"/>
    <nd ref="17653745"/>
    <nd ref="17653746"/>
    <tag k="highway" v="primary"/>
    <tag k="maxspeed" v="32"/>
    <tag k="ref" v="A420"/>
  </way>
  <way id="12695757" version="3" timestamp="2009-02-18T16:42:41Z" uid="98717" user="mdt3k" changeset="547598">
    <nd ref="115977593"/>
    <nd ref="115977598"/>
    <nd ref="283619492"/>
    <tag k="highway" v="primary"/>
    <tag k="maxspeed" v="32"/>
    <tag k="ref" v="A420"/>
  </way>
  <way id="12695757" version="4" timestamp="2009-02-26T10:12:28Z" uid="28589" user="gashead" changeset="676459">
    <nd ref="115977593"/>
    <nd ref="115977598"/>
    <nd ref="283619492"/>
    <tag k="created_by" v="Potlatch 0.10f"/>
    <tag k="highway" v="primary"/>
    <tag k="maxspeed" v="32"/>
    <tag k="ref" v="A420"/>
  </way>
  <way id="12695757" version="5" timestamp="2009-02-26T10:12:47Z" uid="28589" user="gashead" changeset="676459">
    <nd ref="115977593"/>
    <nd ref="115977598"/>
    <nd ref="283619492"/>
    <tag k="created_by" v="Potlatch 0.10f"/>
    <tag k="highway" v="primary"/>
    <tag k="maxspeed" v="32"/>
    <tag k="ref" v="A420"/>
  </way>
  <way id="12695757" version="6" timestamp="2010-02-05T16:54:42Z" uid="3937" user="southglos" changeset="3799045">
    <nd ref="115977593"/>
    <nd ref="115977598"/>
    <nd ref="283619492"/>
    <tag k="highway" v="primary"/>
    <tag k="maxspeed" v="20mph"/>
    <tag k="ref" v="A420"/>
  </way>
  <way id="12695757" version="7" timestamp="2010-02-05T17:59:29Z" uid="3937" user="southglos" changeset="3799478">
    <nd ref="115977593"/>
    <nd ref="115977598"/>
    <nd ref="283619492"/>
    <tag k="highway" v="primary"/>
    <tag k="maxspeed" v="20mph"/>
    <tag k="name" v="Two Mile Hill Road"/>
    <tag k="ref" v="A420"/>
  </way>
</osm>
