<?xml version='1.0' encoding='UTF-8'?>
<osm version="0.6" generator="libosmium/2.20.0">
  <way id="13490042" version="8" timestamp="2010-03-14T20:40:32Z" uid="163746" user="anti_bot-nonsense" changeset="4128666">
    <nd ref="392276406"/>
    <nd ref="314573651"/>
    <nd ref="123978132"/>
    <nd ref="314573680"/>
    <nd ref="314573673"/>
    <nd ref="243771480"/>
    <nd ref="243772904"/>
    <nd ref="123978133"/>
    <tag k="highway" v="residential"/>
    <tag k="name" v="Marszałkowska"/>
  </way>
  <way id="13490353" version="5" timestamp="2010-01-05T11:42:51Z" uid="20587" user="balrog-kun" changeset="3544624">
    <nd ref="123978834"/>
    <nd ref="27308478"/>
    <nd ref="381963896"/>
    <tag k="highway" v="secondary"/>
  </way>
  <way id="13490447" version="14" timestamp="2009-08-02T17:16:45Z" uid="20587" user="balrog-kun" changeset="2017141">
    <nd ref="123980465"/>
    <nd ref="392261528"/>
    <nd ref="454538831"/>
    <nd ref="265222716"/>
    <nd ref="392261537"/>
    <nd ref="123981177"/>
    <nd ref="392258159"/>
    <nd ref="123981178"/>
    <nd ref="392258160"/>
    <nd ref="123981179"/>
    <nd ref="392258161"/>
    <nd ref="317895677"/>
    <nd ref="392261820"/>
    <nd ref="392261821"/>
    <nd ref="392261822"/>
    <nd ref="313308388"/>
    <tag k="highway" v="tertiary"/>
    <tag k="name" v="Edmunda Taczanowskiego"/>
    <tag k="oneway" v="yes"/>
  </way>
  <way id="13490447" version="15" timestamp="2009-09-19T10:11:45Z" uid="19417" user="xjr" changeset="2532599">
    <nd ref="123980465"/>
    <nd ref="392261528"/>
    <tag k="highway" v="tertiary"/>
    <tag k="name" v="Edmunda Taczanowskiego"/>
    <tag k="oneway" v="yes"/>
  </way>
  <way id="13490447" version="16" timestamp="2010-01-05T11:30:13Z" uid="215515" user="qlex" changeset="3544510">
    <nd ref="392261528"/>
    <nd ref="605288830"/>
    <tag k="highway" v="tertiary"/>
    <tag k="name" v="Edmunda Taczanowskiego"/>
    <tag k="oneway" v="yes"/>
  </way>
  <way id="13490447" version="17" timestamp="2010-01-05T11:31:52Z" uid="215515" user="qlex" changeset="3544510">
    <nd ref="605288830"/>
    <nd ref="392261528"/>
    <tag k="highway" v="tertiary"/>
    <tag k="name" v="Edmunda Taczanowskiego"/>
    <tag k="oneway" v="yes"/>
  </way>
  <way id="13490447" version="18" timestamp="2010-01-05T11:33:58Z" uid="165" user="Richard" changeset="3544570">
    <nd ref="381963896"/>
    <nd ref="392261528"/>
    <tag k="highway" v="tertiary"/>
    <tag k="name" v="Edmunda Taczanowskiego"/>
    <tag k="oneway" v="yes"/>
  </way>
  <way id="13490042" version="9" timestamp="2012-07-17T08:28:11Z" uid="722137" user="OSMF Redaction Account" changeset="12260434">
    <nd ref="392276406"/>
    <nd ref="314573651"/>
    <nd ref="123978132"/>
    <nd ref="314573680"/>
    <nd ref="314573673"/>
    <nd ref="123978133"/>
    <tag k="highway" v="residential"/>
    <tag k="name" v="Marszałkowska"/>
  </way>
  <way id="13490447" version="19" timestamp="2012-07-17T08:28:10Z" uid="722137" user="OSMF Redaction Account" changeset="12260434">
    <nd ref="381963896"/>
    <nd ref="392261528"/>
    <tag k="highway" v="tertiary"/>
    <tag k="name" v="Taczanowskiego"/>
    <tag k="oneway" v="yes"/>
  </way>
  <way id="13490447" version="20" timestamp="2012-07-18T01:54:23Z" uid="740427" user="Redaction Account Bugfix" changeset="12274066">
    <nd ref="381963896"/>
    <nd ref="392261528"/>
    <tag k="highway" v="tertiary"/>
    <tag k="name" v="Edmunda Taczanowskiego"/>
    <tag k="oneway" v="yes"/>
  </way>
  <way id="13490447" version="21" timestamp="2012-07-18T21:09:35Z" uid="475943" user="sir-mapalot" changeset="12298596">
    <nd ref="381963896"/>
    <nd ref="1830194851"/>
    <nd ref="392261528"/>
    <tag k="highway" v="tertiary"/>
    <tag k="name" v="Edmunda Taczanowskiego"/>
    <tag k="oneway" v="yes"/>
  </way>
  <way id="13490447" version="22" timestamp="2012-07-18T22:39:26Z" uid="475943" user="sir-mapalot" changeset="12300787">
    <nd ref="381963896"/>
    <nd ref="1830194851"/>
    <nd ref="1830263106"/>
    <nd ref="392261528"/>
    <tag k="highway" v="tertiary"/>
    <tag k="name" v="Edmunda Taczanowskiego"/>
    <tag k="oneway" v="yes"/>
  </way>
</osm>
