<?xml version='1.0' encoding='UTF-8'?>
<osm version="0.6" generator="libosmium/2.20.0">
  <way id="13518554" version="4" timestamp="2010-04-02T16:38:36Z" uid="20587" user="balrog-kun" changeset="4304500">
    <nd ref="124222269"/>
    <nd ref="59999601"/>
    <tag k="bridge" v="yes"/>
    <tag k="footway" v="right"/>
    <tag k="highway" v="trunk"/>
    <tag k="layer" v="1"/>
    <tag k="name" v="Aurora Avenue North"/>
    <tag k="oneway" v="yes"/>
    <tag k="ref" v="WA 99"/>
  </way>
  <way id="13518554" version="5" timestamp="2010-05-31T18:16:16Z" uid="121241" user="zephyr" changeset="4866640">
    <nd ref="124222269"/>
    <nd ref="59999601"/>
    <tag k="bridge" v="yes"/>
    <tag k="footway" v="right"/>
    <tag k="highway" v="trunk"/>
    <tag k="layer" v="1"/>
    <tag k="maxspeed" v="40 mph"/>
    <tag k="name" v="Aurora Avenue North"/>
    <tag k="oneway" v="yes"/>
    <tag k="ref" v="WA 99"/>
  </way>
  <way id="13518554" version="6" timestamp="2011-06-23T02:09:44Z" uid="473471" user="NE3" changeset="8520254">
    <nd ref="124222269"/>
    <nd ref="59999601"/>
    <tag k="bridge" v="yes"/>
    <tag k="footway" v="right"/>
    <tag k="highway" v="trunk"/>
    <tag k="lanes" v="3"/>
    <tag k="layer" v="1"/>
    <tag k="maxspeed" v="40 mph"/>
    <tag k="name" v="Aurora Avenue North"/>
    <tag k="oneway" v="yes"/>
    <tag k="ref" v="WA 99"/>
  </way>
  <way id="13518555" version="3" timestamp="2010-04-02T16:38:36Z" uid="20587" user="balrog-kun" changeset="4304500">
    <nd ref="124222285"/>
    <nd ref="124222276"/>
    <tag k="bridge" v="yes"/>
    <tag k="highway" v="trunk"/>
    <tag k="lanes" v="2"/>
    <tag k="layer" v="1"/>
    <tag k="maxspeed" v="64.374"/>
    <tag k="name" v="Aurora Avenue North"/>
    <tag k="oneway" v="yes"/>
    <tag k="ref" v="WA 99"/>
  </way>
  <way id="13518555" version="4" timestamp="2010-05-31T18:16:03Z" uid="121241" user="zephyr" changeset="4866640">
    <nd ref="124222285"/>
    <nd ref="124222276"/>
    <tag k="bridge" v="yes"/>
    <tag k="highway" v="trunk"/>
    <tag k="lanes" v="2"/>
    <tag k="layer" v="1"/>
    <tag k="maxspeed" v="40 mph"/>
    <tag k="name" v="Aurora Avenue North"/>
    <tag k="oneway" v="yes"/>
    <tag k="ref" v="WA 99"/>
  </way>
  <way id="13518557" version="3" timestamp="2010-04-02T16:38:37Z" uid="20587" user="balrog-kun" changeset="4304500">
    <nd ref="124222276"/>
    <nd ref="124222296"/>
    <tag k="highway" v="trunk"/>
    <tag k="lanes" v="2"/>
    <tag k="layer" v="1"/>
    <tag k="maxspeed" v="64.374"/>
    <tag k="name" v="Aurora Avenue North"/>
    <tag k="oneway" v="yes"/>
    <tag k="ref" v="WA 99"/>
  </way>
  <way id="13518557" version="4" timestamp="2010-04-12T08:34:36Z" uid="223681" user="Wim L" changeset="4402149">
    <nd ref="124222276"/>
    <nd ref="694087823"/>
    <nd ref="124222296"/>
    <tag k="highway" v="trunk"/>
    <tag k="lanes" v="2"/>
    <tag k="layer" v="1"/>
    <tag k="maxspeed" v="64.374"/>
    <tag k="name" v="Aurora Avenue North"/>
    <tag k="oneway" v="yes"/>
    <tag k="ref" v="WA 99"/>
  </way>
  <way id="13518557" version="5" timestamp="2010-05-31T18:16:13Z" uid="121241" user="zephyr" changeset="4866640">
    <nd ref="124222276"/>
    <nd ref="694087823"/>
    <nd ref="124222296"/>
    <tag k="highway" v="trunk"/>
    <tag k="lanes" v="2"/>
    <tag k="layer" v="1"/>
    <tag k="maxspeed" v="40 mph"/>
    <tag k="name" v="Aurora Avenue North"/>
    <tag k="oneway" v="yes"/>
    <tag k="ref" v="WA 99"/>
  </way>
  <way id="13518557" version="6" timestamp="2011-06-07T15:38:21Z" uid="282329" user="compdude" changeset="8371231">
    <nd ref="124222276"/>
    <nd ref="694087823"/>
    <nd ref="124222296"/>
    <tag k="highway" v="trunk"/>
    <tag k="lanes" v="2"/>
    <tag k="maxspeed" v="40 mph"/>
    <tag k="name" v="Aurora Avenue North"/>
    <tag k="oneway" v="yes"/>
    <tag k="ref" v="WA 99"/>
  </way>
  <way id="13518558" version="5" timestamp="2010-04-02T16:38:37Z" uid="20587" user="balrog-kun" changeset="4304500">
    <nd ref="124222296"/>
    <nd ref="59999576"/>
    <nd ref="30759920"/>
    <nd ref="60002808"/>
    <nd ref="60002810"/>
    <tag k="bridge" v="yes"/>
    <tag k="footway" v="right"/>
    <tag k="highway" v="trunk"/>
    <tag k="lanes" v="3"/>
    <tag k="layer" v="1"/>
    <tag k="maxspeed" v="64.374"/>
    <tag k="name" v="Aurora Avenue North"/>
    <tag k="oneway" v="yes"/>
    <tag k="ref" v="WA 99"/>
  </way>
  <way id="13518558" version="6" timestamp="2010-05-31T18:16:22Z" uid="121241" user="zephyr" changeset="4866640">
    <nd ref="124222296"/>
    <nd ref="59999576"/>
    <nd ref="30759920"/>
    <nd ref="60002808"/>
    <nd ref="60002810"/>
    <tag k="bridge" v="yes"/>
    <tag k="footway" v="right"/>
    <tag k="highway" v="trunk"/>
    <tag k="lanes" v="3"/>
    <tag k="layer" v="1"/>
    <tag k="maxspeed" v="40 mph"/>
    <tag k="name" v="Aurora Avenue North"/>
    <tag k="oneway" v="yes"/>
    <tag k="ref" v="WA 99"/>
  </way>
  <way id="13518558" version="7" timestamp="2011-06-07T15:38:21Z" uid="282329" user="compdude" changeset="8371231">
    <nd ref="124222296"/>
    <nd ref="1315179679"/>
    <tag k="footway" v="right"/>
    <tag k="highway" v="trunk"/>
    <tag k="lanes" v="3"/>
    <tag k="maxspeed" v="40 mph"/>
    <tag k="name" v="Aurora Avenue North"/>
    <tag k="oneway" v="yes"/>
    <tag k="ref" v="WA 99"/>
  </way>
  <way id="13518560" version="4" timestamp="2010-04-02T16:38:37Z" uid="20587" user="balrog-kun" changeset="4304500">
    <nd ref="124222309"/>
    <nd ref="124222269"/>
    <tag k="footway" v="right"/>
    <tag k="highway" v="trunk"/>
    <tag k="layer" v="1"/>
    <tag k="name" v="Aurora Avenue North"/>
    <tag k="oneway" v="yes"/>
    <tag k="ref" v="WA 99"/>
  </way>
  <way id="13518560" version="5" timestamp="2010-04-12T08:34:31Z" uid="223681" user="Wim L" changeset="4402149">
    <nd ref="124222309"/>
    <nd ref="694087851"/>
    <nd ref="124222269"/>
    <tag k="footway" v="right"/>
    <tag k="highway" v="trunk"/>
    <tag k="layer" v="1"/>
    <tag k="name" v="Aurora Avenue North"/>
    <tag k="oneway" v="yes"/>
    <tag k="ref" v="WA 99"/>
  </way>
  <way id="13518560" version="6" timestamp="2010-05-31T18:16:06Z" uid="121241" user="zephyr" changeset="4866640">
    <nd ref="124222309"/>
    <nd ref="694087851"/>
    <nd ref="124222269"/>
    <tag k="footway" v="right"/>
    <tag k="highway" v="trunk"/>
    <tag k="layer" v="1"/>
    <tag k="maxspeed" v="40 mph"/>
    <tag k="name" v="Aurora Avenue North"/>
    <tag k="oneway" v="yes"/>
    <tag k="ref" v="WA 99"/>
  </way>
  <way id="13518560" version="7" timestamp="2011-06-07T15:38:21Z" uid="282329" user="compdude" changeset="8371231">
    <nd ref="124222309"/>
    <nd ref="694087851"/>
    <nd ref="124222269"/>
    <tag k="footway" v="right"/>
    <tag k="highway" v="trunk"/>
    <tag k="maxspeed" v="40 mph"/>
    <tag k="name" v="Aurora Avenue North"/>
    <tag k="oneway" v="yes"/>
    <tag k="ref" v="WA 99"/>
  </way>
  <way id="13518560" version="8" timestamp="2011-06-23T02:06:05Z" uid="473471" user="NE3" changeset="8520254">
    <nd ref="124222309"/>
    <nd ref="694087851"/>
    <nd ref="124222269"/>
    <tag k="footway" v="right"/>
    <tag k="highway" v="trunk"/>
    <tag k="lanes" v="3"/>
    <tag k="maxspeed" v="40 mph"/>
    <tag k="name" v="Aurora Avenue North"/>
    <tag k="oneway" v="yes"/>
    <tag k="ref" v="WA 99"/>
  </way>
  <way id="13518696" version="1" timestamp="2007-11-19T20:57:40Z" uid="18775" user="drlizau" changeset="570786">
    <nd ref="124224000"/>
    <nd ref="124224013"/>
    <nd ref="124224036"/>
    <nd ref="124200388"/>
    <nd ref="124224070"/>
    <nd ref="124224094"/>
    <nd ref="124224122"/>
    <nd ref="124224145"/>
    <nd ref="124224173"/>
    <nd ref="124224198"/>
    <nd ref="124224220"/>
    <nd ref="124224243"/>
    <nd ref="124224266"/>
    <nd ref="117046156"/>
    <tag k="created_by" v="JOSM"/>
    <tag k="highway" v="unclassified"/>
    <tag k="name" v="Lakes Road"/>
  </way>
  <way id="13518696" version="2" timestamp="2007-11-27T04:32:07Z" uid="18775" user="drlizau" changeset="629602">
    <nd ref="124224000"/>
    <nd ref="124224013"/>
    <nd ref="124224036"/>
    <nd ref="124200388"/>
    <nd ref="124224070"/>
    <nd ref="124224094"/>
    <nd ref="124224122"/>
    <nd ref="124224145"/>
    <nd ref="124224173"/>
    <nd ref="124224198"/>
    <nd ref="124224220"/>
    <nd ref="124224243"/>
    <nd ref="124224266"/>
    <nd ref="136349145"/>
    <nd ref="117046156"/>
    <tag k="created_by" v="JOSM"/>
    <tag k="highway" v="unclassified"/>
    <tag k="name" v="Lakes Road"/>
  </way>
  <way id="13518696" version="3" timestamp="2008-02-12T06:31:35Z" uid="19626" user="Swamp" changeset="109378">
    <nd ref="124224013"/>
    <nd ref="124224036"/>
    <nd ref="124200388"/>
    <nd ref="124224070"/>
    <nd ref="124224094"/>
    <nd ref="124224122"/>
    <nd ref="124224145"/>
    <nd ref="124224173"/>
    <nd ref="124224198"/>
    <nd ref="124224220"/>
    <nd ref="124224243"/>
    <nd ref="124224266"/>
    <nd ref="136349145"/>
    <nd ref="117046156"/>
    <tag k="created_by" v="JOSM"/>
    <tag k="highway" v="unclassified"/>
    <tag k="name" v="Lakes Road"/>
  </way>
  <way id="13518696" version="4" timestamp="2008-02-12T06:38:45Z" uid="19626" user="Swamp" changeset="109378">
    <nd ref="247302685"/>
    <nd ref="247302683"/>
    <nd ref="247302682"/>
    <nd ref="247302681"/>
    <nd ref="247302680"/>
    <nd ref="247302679"/>
    <nd ref="247302678"/>
    <nd ref="247302677"/>
    <nd ref="247302676"/>
    <nd ref="247302675"/>
    <nd ref="247302673"/>
    <nd ref="247302672"/>
    <nd ref="124224013"/>
    <nd ref="124224036"/>
    <nd ref="124200388"/>
    <nd ref="124224070"/>
    <nd ref="124224094"/>
    <nd ref="124224122"/>
    <nd ref="124224145"/>
    <nd ref="124224173"/>
    <nd ref="124224198"/>
    <nd ref="124224220"/>
    <nd ref="124224243"/>
    <nd ref="124224266"/>
    <nd ref="136349145"/>
    <nd ref="117046156"/>
    <tag k="created_by" v="JOSM"/>
    <tag k="highway" v="unclassified"/>
    <tag k="name" v="Lakes Road"/>
    <tag k="surface" v="unpaved"/>
  </way>
  <way id="13518696" version="5" timestamp="2008-02-12T09:50:12Z" uid="19626" user="Swamp" changeset="109378">
    <nd ref="247302685"/>
    <nd ref="247302683"/>
    <nd ref="247302682"/>
    <nd ref="247302681"/>
    <nd ref="247302680"/>
    <nd ref="247302679"/>
    <nd ref="247302678"/>
    <nd ref="247302677"/>
    <nd ref="247302673"/>
    <nd ref="247302672"/>
    <nd ref="124224013"/>
    <nd ref="124224036"/>
    <nd ref="124200388"/>
    <nd ref="124224070"/>
    <nd ref="124224094"/>
    <nd ref="124224122"/>
    <nd ref="124224145"/>
    <nd ref="124224243"/>
    <nd ref="124224266"/>
    <nd ref="136349145"/>
    <nd ref="117046156"/>
    <tag k="created_by" v="JOSM"/>
    <tag k="highway" v="unclassified"/>
    <tag k="name" v="Lakes Road"/>
    <tag k="surface" v="unpaved"/>
  </way>
  <way id="13518696" version="6" timestamp="2008-02-24T09:59:01Z" uid="19626" user="Swamp" changeset="195877">
    <nd ref="247302685"/>
    <nd ref="247302683"/>
    <nd ref="247302682"/>
    <nd ref="247302681"/>
    <nd ref="247302680"/>
    <nd ref="247302679"/>
    <nd ref="247302678"/>
    <nd ref="247302677"/>
    <nd ref="247302673"/>
    <nd ref="247302672"/>
    <nd ref="124224013"/>
    <nd ref="124224036"/>
    <nd ref="124200388"/>
    <nd ref="124224070"/>
    <nd ref="124224094"/>
    <nd ref="124224122"/>
    <nd ref="124224145"/>
    <nd ref="124224243"/>
    <nd ref="249067353"/>
    <nd ref="124224266"/>
    <nd ref="136349145"/>
    <nd ref="117046156"/>
    <tag k="created_by" v="JOSM"/>
    <tag k="highway" v="unclassified"/>
    <tag k="name" v="Lakes Road"/>
    <tag k="surface" v="unpaved"/>
  </way>
  <way id="13518696" version="7" timestamp="2008-02-24T10:05:24Z" uid="19626" user="Swamp" changeset="195877">
    <nd ref="247302685"/>
    <nd ref="247302683"/>
    <nd ref="247302682"/>
    <nd ref="247302681"/>
    <nd ref="247302680"/>
    <nd ref="247302679"/>
    <nd ref="247302678"/>
    <nd ref="247302677"/>
    <nd ref="247302673"/>
    <nd ref="247302672"/>
    <nd ref="124224036"/>
    <nd ref="124200388"/>
    <nd ref="124224070"/>
    <nd ref="124224094"/>
    <nd ref="124224122"/>
    <nd ref="124224145"/>
    <nd ref="124224243"/>
    <nd ref="249067353"/>
    <nd ref="124224266"/>
    <nd ref="249068165"/>
    <nd ref="136349145"/>
    <nd ref="117046156"/>
    <tag k="created_by" v="JOSM"/>
    <tag k="highway" v="unclassified"/>
    <tag k="name" v="Lakes Road"/>
    <tag k="surface" v="unpaved"/>
  </way>
  <way id="13518696" version="8" timestamp="2008-03-04T03:57:44Z" uid="18775" user="drlizau" changeset="263319">
    <nd ref="247302685"/>
    <nd ref="247302683"/>
    <nd ref="247302682"/>
    <nd ref="247302681"/>
    <nd ref="247302680"/>
    <nd ref="247302679"/>
    <nd ref="247302678"/>
    <nd ref="247302677"/>
    <nd ref="247302673"/>
    <nd ref="247302672"/>
    <nd ref="124224036"/>
    <nd ref="124200388"/>
    <nd ref="124224070"/>
    <nd ref="124224094"/>
    <nd ref="124224122"/>
    <nd ref="124224145"/>
    <nd ref="124224243"/>
    <nd ref="249067353"/>
    <nd ref="250448579"/>
    <nd ref="124224266"/>
    <nd ref="249068165"/>
    <nd ref="136349145"/>
    <nd ref="117046156"/>
    <tag k="created_by" v="JOSM"/>
    <tag k="highway" v="unclassified"/>
    <tag k="name" v="Lakes Road"/>
    <tag k="surface" v="unpaved"/>
  </way>
  <way id="13518696" version="9" timestamp="2008-03-27T06:52:27Z" uid="19626" user="Swamp" changeset="405665">
    <nd ref="247302685"/>
    <nd ref="247302683"/>
    <nd ref="247302682"/>
    <nd ref="247302681"/>
    <nd ref="247302680"/>
    <nd ref="247302679"/>
    <nd ref="247302678"/>
    <nd ref="247302677"/>
    <nd ref="247302673"/>
    <nd ref="247302672"/>
    <nd ref="124224036"/>
    <nd ref="124200388"/>
    <nd ref="124224070"/>
    <nd ref="124224122"/>
    <nd ref="124224145"/>
    <nd ref="124224243"/>
    <nd ref="249067353"/>
    <nd ref="250448579"/>
    <nd ref="124224266"/>
    <nd ref="249068165"/>
    <nd ref="136349145"/>
    <nd ref="117046156"/>
    <tag k="created_by" v="JOSM"/>
    <tag k="highway" v="unclassified"/>
    <tag k="name" v="Lakes Road"/>
    <tag k="surface" v="unpaved"/>
  </way>
  <way id="13518696" version="10" timestamp="2008-08-10T04:54:08Z" uid="19626" user="Swamp" changeset="173683">
    <nd ref="247302685"/>
    <nd ref="247302683"/>
    <nd ref="247302682"/>
    <nd ref="247302681"/>
    <nd ref="247302680"/>
    <nd ref="247302679"/>
    <nd ref="247302678"/>
    <nd ref="247302677"/>
    <nd ref="247302673"/>
    <nd ref="247302672"/>
    <nd ref="124200388"/>
    <nd ref="124224122"/>
    <nd ref="124224145"/>
    <nd ref="124224243"/>
    <nd ref="249067353"/>
    <nd ref="250448579"/>
    <nd ref="124224266"/>
    <nd ref="249068165"/>
    <nd ref="136349145"/>
    <nd ref="117046156"/>
    <tag k="created_by" v="JOSM"/>
    <tag k="highway" v="unclassified"/>
    <tag k="name" v="Lakes Road"/>
    <tag k="surface" v="unpaved"/>
  </way>
  <way id="13518696" version="11" timestamp="2010-07-27T08:20:24Z" uid="18775" user="drlizau" changeset="5327187">
    <nd ref="247302685"/>
    <nd ref="247302683"/>
    <nd ref="247302682"/>
    <nd ref="247302681"/>
    <nd ref="247302680"/>
    <nd ref="247302679"/>
    <nd ref="247302678"/>
    <nd ref="247302677"/>
    <nd ref="247302673"/>
    <nd ref="247302672"/>
    <nd ref="124200388"/>
    <nd ref="124224122"/>
    <nd ref="124224145"/>
    <nd ref="124224243"/>
    <nd ref="249067353"/>
    <nd ref="250448579"/>
    <nd ref="124224266"/>
    <nd ref="249068165"/>
    <tag k="highway" v="unclassified"/>
    <tag k="name" v="Lakes Road"/>
    <tag k="surface" v="unpaved"/>
  </way>
  <way id="13518554" version="7" timestamp="2012-07-30T05:18:13Z" uid="207745" user="NE2" changeset="12543168">
    <nd ref="124222269"/>
    <nd ref="59999601"/>
    <tag k="bridge" v="yes"/>
    <tag k="footway" v="right"/>
    <tag k="highway" v="trunk"/>
    <tag k="lanes" v="3"/>
    <tag k="layer" v="1"/>
    <tag k="maxspeed" v="40 mph"/>
    <tag k="name" v="Aurora Avenue North"/>
    <tag k="old_ref" v="US 99"/>
    <tag k="oneway" v="yes"/>
    <tag k="ref" v="WA 99"/>
  </way>
  <way id="13518555" version="5" timestamp="2012-07-30T05:18:11Z" uid="207745" user="NE2" changeset="12543168">
    <nd ref="124222285"/>
    <nd ref="124222276"/>
    <tag k="bridge" v="yes"/>
    <tag k="highway" v="trunk"/>
    <tag k="lanes" v="2"/>
    <tag k="layer" v="1"/>
    <tag k="maxspeed" v="40 mph"/>
    <tag k="name" v="Aurora Avenue North"/>
    <tag k="old_ref" v="US 99"/>
    <tag k="oneway" v="yes"/>
    <tag k="ref" v="WA 99"/>
  </way>
  <way id="13518557" version="7" timestamp="2012-07-30T05:18:16Z" uid="207745" user="NE2" changeset="12543168">
    <nd ref="124222276"/>
    <nd ref="694087823"/>
    <nd ref="124222296"/>
    <tag k="highway" v="trunk"/>
    <tag k="lanes" v="2"/>
    <tag k="maxspeed" v="40 mph"/>
    <tag k="name" v="Aurora Avenue North"/>
    <tag k="old_ref" v="US 99"/>
    <tag k="oneway" v="yes"/>
    <tag k="ref" v="WA 99"/>
  </way>
  <way id="13518557" version="8" timestamp="2012-09-08T03:52:40Z" uid="282329" user="compdude" changeset="13029885">
    <nd ref="124222276"/>
    <nd ref="694087823"/>
    <nd ref="504969259"/>
    <tag k="highway" v="trunk"/>
    <tag k="lanes" v="2"/>
    <tag k="maxspeed" v="40 mph"/>
    <tag k="name" v="Aurora Avenue North"/>
    <tag k="old_ref" v="US 99"/>
    <tag k="oneway" v="yes"/>
    <tag k="ref" v="WA 99"/>
  </way>
  <way id="13518558" version="8" timestamp="2012-07-30T05:18:11Z" uid="207745" user="NE2" changeset="12543168">
    <nd ref="124222296"/>
    <nd ref="1315179679"/>
    <tag k="footway" v="right"/>
    <tag k="highway" v="trunk"/>
    <tag k="lanes" v="3"/>
    <tag k="maxspeed" v="40 mph"/>
    <tag k="name" v="Aurora Avenue North"/>
    <tag k="old_ref" v="US 99"/>
    <tag k="oneway" v="yes"/>
    <tag k="ref" v="WA 99"/>
  </way>
  <way id="13518558" version="9" timestamp="2012-09-08T03:52:39Z" uid="282329" user="compdude" changeset="13029885">
    <nd ref="504969259"/>
    <nd ref="1315179679"/>
    <tag k="footway" v="right"/>
    <tag k="highway" v="trunk"/>
    <tag k="lanes" v="3"/>
    <tag k="maxspeed" v="40 mph"/>
    <tag k="name" v="Aurora Avenue North"/>
    <tag k="old_ref" v="US 99"/>
    <tag k="oneway" v="yes"/>
    <tag k="ref" v="WA 99"/>
  </way>
  <way id="13518560" version="9" timestamp="2012-07-30T05:18:16Z" uid="207745" user="NE2" changeset="12543168">
    <nd ref="124222309"/>
    <nd ref="694087851"/>
    <nd ref="124222269"/>
    <tag k="footway" v="right"/>
    <tag k="highway" v="trunk"/>
    <tag k="lanes" v="3"/>
    <tag k="maxspeed" v="40 mph"/>
    <tag k="name" v="Aurora Avenue North"/>
    <tag k="old_ref" v="US 99"/>
    <tag k="oneway" v="yes"/>
    <tag k="ref" v="WA 99"/>
  </way>
  <way id="13518560" version="10" timestamp="2012-09-08T03:52:40Z" uid="282329" user="compdude" changeset="13029885">
    <nd ref="1315179679"/>
    <nd ref="1905098192"/>
    <nd ref="694087851"/>
    <nd ref="124222269"/>
    <tag k="footway" v="right"/>
    <tag k="highway" v="trunk"/>
    <tag k="lanes" v="3"/>
    <tag k="maxspeed" v="40 mph"/>
    <tag k="name" v="Aurora Avenue North"/>
    <tag k="old_ref" v="US 99"/>
    <tag k="oneway" v="yes"/>
    <tag k="ref" v="WA 99"/>
  </way>
  <way id="13518696" version="12" timestamp="2012-07-19T07:45:54Z" uid="722137" user="OSMF Redaction Account" changeset="12312501"/>
</osm>
