<?xml version='1.0' encoding='UTF-8'?>
<osm version="0.6" generator="libosmium/2.20.0">
  <way id="13543059" version="3" timestamp="2009-06-06T03:23:09Z" uid="61114" user="Trav" changeset="1434233">
    <nd ref="124537465"/>
    <nd ref="124537450"/>
    <nd ref="124537451"/>
    <nd ref="124537452"/>
    <tag k="highway" v="residential"/>
    <tag k="name" v="Rayner Avenue"/>
    <tag k="source:name" v="survey"/>
  </way>
  <way id="13543059" version="4" timestamp="2010-07-07T23:33:50Z" uid="74617" user="JohnSmith" changeset="5162525">
    <nd ref="124537465"/>
    <nd ref="124537450"/>
    <nd ref="124537451"/>
    <nd ref="124537452"/>
    <tag k="highway" v="residential"/>
    <tag k="maxspeed" v="50"/>
    <tag k="maxspeed:source" v="default residential speed limit in Australia"/>
    <tag k="name" v="Rayner Avenue"/>
    <tag k="source:name" v="survey"/>
  </way>
  <way id="13543059" version="5" timestamp="2012-01-15T11:38:54Z" uid="147510" user="woodpeck_fixbot" changeset="10396281">
    <nd ref="124537465"/>
    <nd ref="124537450"/>
    <nd ref="124537451"/>
    <nd ref="124537452"/>
    <tag k="highway" v="residential"/>
    <tag k="name" v="Rayner Avenue"/>
    <tag k="source:name" v="survey"/>
  </way>
  <way id="13543060" version="3" timestamp="2009-06-06T03:23:10Z" uid="61114" user="Trav" changeset="1434233">
    <nd ref="124537463"/>
    <nd ref="124537452"/>
    <tag k="highway" v="residential"/>
    <tag k="name" v="Greenwood Avenue"/>
    <tag k="source:name" v="survey"/>
  </way>
  <way id="13543060" version="4" timestamp="2010-07-07T23:34:23Z" uid="74617" user="JohnSmith" changeset="5162525">
    <nd ref="124537463"/>
    <nd ref="124537452"/>
    <tag k="highway" v="residential"/>
    <tag k="maxspeed" v="50"/>
    <tag k="maxspeed:source" v="default residential speed limit in Australia"/>
    <tag k="name" v="Greenwood Avenue"/>
    <tag k="source:name" v="survey"/>
  </way>
  <way id="13543060" version="5" timestamp="2012-01-15T11:38:56Z" uid="147510" user="woodpeck_fixbot" changeset="10396281">
    <nd ref="124537463"/>
    <nd ref="124537452"/>
    <tag k="highway" v="residential"/>
    <tag k="name" v="Greenwood Avenue"/>
    <tag k="source:name" v="survey"/>
  </way>
  <way id="13543064" version="3" timestamp="2009-06-06T03:23:12Z" uid="61114" user="Trav" changeset="1434233">
    <nd ref="124536915"/>
    <nd ref="124537481"/>
    <nd ref="124537482"/>
    <nd ref="124537467"/>
    <tag k="highway" v="residential"/>
    <tag k="name" v="Sheppard Road"/>
    <tag k="source:name" v="survey"/>
  </way>
  <way id="13543064" version="4" timestamp="2010-07-07T23:32:53Z" uid="74617" user="JohnSmith" changeset="5162525">
    <nd ref="124536915"/>
    <nd ref="124537481"/>
    <nd ref="124537482"/>
    <nd ref="124537467"/>
    <tag k="highway" v="residential"/>
    <tag k="maxspeed" v="50"/>
    <tag k="maxspeed:source" v="default residential speed limit in Australia"/>
    <tag k="name" v="Sheppard Road"/>
    <tag k="source:name" v="survey"/>
  </way>
  <way id="13543064" version="5" timestamp="2012-01-15T11:38:57Z" uid="147510" user="woodpeck_fixbot" changeset="10396281">
    <nd ref="124536915"/>
    <nd ref="124537481"/>
    <nd ref="124537482"/>
    <nd ref="124537467"/>
    <tag k="highway" v="residential"/>
    <tag k="name" v="Sheppard Road"/>
    <tag k="source:name" v="survey"/>
  </way>
  <way id="13543195" version="3" timestamp="2009-06-07T02:41:54Z" uid="61114" user="Trav" changeset="1443935">
    <nd ref="122936882"/>
    <nd ref="124538611"/>
    <tag k="highway" v="residential"/>
    <tag k="name" v="Victor Road"/>
    <tag k="source:name" v="survey"/>
  </way>
  <way id="13543195" version="4" timestamp="2010-01-23T08:39:59Z" uid="30201" user="rrankin" changeset="3689609">
    <nd ref="122936882"/>
    <nd ref="618565249"/>
    <nd ref="124538611"/>
    <tag k="highway" v="residential"/>
    <tag k="name" v="Victor Road"/>
    <tag k="source:name" v="survey"/>
  </way>
  <way id="13543195" version="5" timestamp="2010-07-07T23:33:43Z" uid="74617" user="JohnSmith" changeset="5162525">
    <nd ref="122936882"/>
    <nd ref="618565249"/>
    <nd ref="124538611"/>
    <tag k="highway" v="residential"/>
    <tag k="maxspeed" v="50"/>
    <tag k="maxspeed:source" v="default residential speed limit in Australia"/>
    <tag k="name" v="Victor Road"/>
    <tag k="source:name" v="survey"/>
  </way>
  <way id="13543195" version="6" timestamp="2012-01-15T11:38:59Z" uid="147510" user="woodpeck_fixbot" changeset="10396281">
    <nd ref="122936882"/>
    <nd ref="618565249"/>
    <nd ref="124538611"/>
    <tag k="highway" v="residential"/>
    <tag k="name" v="Victor Road"/>
    <tag k="source:name" v="survey"/>
  </way>
  <way id="13543270" version="7" timestamp="2009-06-06T03:22:55Z" uid="61114" user="Trav" changeset="1434233">
    <nd ref="88628036"/>
    <nd ref="124551656"/>
    <nd ref="124551262"/>
    <nd ref="124542788"/>
    <nd ref="124539065"/>
    <tag k="highway" v="residential"/>
    <tag k="name" v="Prescott Avenue"/>
    <tag k="source:name" v="survey"/>
  </way>
  <way id="13543270" version="8" timestamp="2010-07-07T23:33:47Z" uid="74617" user="JohnSmith" changeset="5162525">
    <nd ref="88628036"/>
    <nd ref="124551656"/>
    <nd ref="124551262"/>
    <nd ref="124542788"/>
    <nd ref="124539065"/>
    <tag k="highway" v="residential"/>
    <tag k="maxspeed" v="50"/>
    <tag k="maxspeed:source" v="default residential speed limit in Australia"/>
    <tag k="name" v="Prescott Avenue"/>
    <tag k="source:name" v="survey"/>
  </way>
  <way id="13543270" version="9" timestamp="2012-01-15T11:39:00Z" uid="147510" user="woodpeck_fixbot" changeset="10396281">
    <nd ref="88628036"/>
    <nd ref="124551656"/>
    <nd ref="124551262"/>
    <nd ref="124542788"/>
    <nd ref="124539065"/>
    <tag k="highway" v="residential"/>
    <tag k="name" v="Prescott Avenue"/>
    <tag k="source:name" v="survey"/>
  </way>
  <way id="13543546" version="8" timestamp="2009-06-07T02:42:34Z" uid="61114" user="Trav" changeset="1443935">
    <nd ref="124540025"/>
    <nd ref="124543922"/>
    <nd ref="124551622"/>
    <nd ref="124544237"/>
    <nd ref="124540613"/>
    <tag k="highway" v="residential"/>
    <tag k="name" v="Victor Road"/>
    <tag k="note" v="FIXME: Southern end is broken into two parts"/>
    <tag k="source:name" v="survey"/>
  </way>
  <way id="13543546" version="9" timestamp="2009-06-07T22:51:42Z" uid="61114" user="Trav" changeset="1454364">
    <nd ref="124540025"/>
    <nd ref="417235602"/>
    <tag k="highway" v="residential"/>
    <tag k="name" v="Victor Road"/>
    <tag k="source:name" v="survey"/>
  </way>
  <way id="13543546" version="10" timestamp="2010-07-07T23:33:51Z" uid="74617" user="JohnSmith" changeset="5162525">
    <nd ref="124540025"/>
    <nd ref="417235602"/>
    <tag k="highway" v="residential"/>
    <tag k="maxspeed" v="50"/>
    <tag k="maxspeed:source" v="default residential speed limit in Australia"/>
    <tag k="name" v="Victor Road"/>
    <tag k="source:name" v="survey"/>
  </way>
  <way id="13543546" version="11" timestamp="2012-01-15T11:39:01Z" uid="147510" user="woodpeck_fixbot" changeset="10396281">
    <nd ref="124540025"/>
    <nd ref="417235602"/>
    <tag k="highway" v="residential"/>
    <tag k="name" v="Victor Road"/>
    <tag k="source:name" v="survey"/>
  </way>
  <way id="13543934" version="2" timestamp="2009-06-07T02:41:54Z" uid="61114" user="Trav" changeset="1443935">
    <nd ref="124543922"/>
    <nd ref="124544162"/>
    <tag k="highway" v="residential"/>
    <tag k="name" v="Shirley Close"/>
    <tag k="source:name" v="survey"/>
  </way>
  <way id="13543934" version="3" timestamp="2010-07-07T23:33:20Z" uid="74617" user="JohnSmith" changeset="5162525">
    <nd ref="124543922"/>
    <nd ref="124544162"/>
    <tag k="highway" v="residential"/>
    <tag k="maxspeed" v="50"/>
    <tag k="maxspeed:source" v="default residential speed limit in Australia"/>
    <tag k="name" v="Shirley Close"/>
    <tag k="source:name" v="survey"/>
  </way>
  <way id="13543934" version="4" timestamp="2012-01-15T11:39:02Z" uid="147510" user="woodpeck_fixbot" changeset="10396281">
    <nd ref="124543922"/>
    <nd ref="124544162"/>
    <tag k="highway" v="residential"/>
    <tag k="name" v="Shirley Close"/>
    <tag k="source:name" v="survey"/>
  </way>
  <way id="13543976" version="2" timestamp="2009-06-07T02:41:55Z" uid="61114" user="Trav" changeset="1443935">
    <nd ref="124544237"/>
    <nd ref="124544580"/>
    <nd ref="124544581"/>
    <tag k="highway" v="residential"/>
    <tag k="name" v="Larmer Place"/>
    <tag k="source:name" v="survey"/>
  </way>
  <way id="13543976" version="3" timestamp="2010-07-07T23:31:20Z" uid="74617" user="JohnSmith" changeset="5162525">
    <nd ref="124544237"/>
    <nd ref="124544580"/>
    <nd ref="124544581"/>
    <tag k="highway" v="residential"/>
    <tag k="maxspeed" v="50"/>
    <tag k="maxspeed:source" v="default residential speed limit in Australia"/>
    <tag k="name" v="Larmer Place"/>
    <tag k="source:name" v="survey"/>
  </way>
  <way id="13543976" version="4" timestamp="2012-01-15T11:39:04Z" uid="147510" user="woodpeck_fixbot" changeset="10396281">
    <nd ref="124544237"/>
    <nd ref="124544580"/>
    <nd ref="124544581"/>
    <tag k="highway" v="residential"/>
    <tag k="name" v="Larmer Place"/>
    <tag k="source:name" v="survey"/>
  </way>
  <way id="13543059" version="6" timestamp="2012-07-19T16:14:29Z" uid="722137" user="OSMF Redaction Account" changeset="12338140">
    <nd ref="124537465"/>
    <nd ref="124537450"/>
    <nd ref="124537451"/>
    <nd ref="124537452"/>
    <tag k="highway" v="residential"/>
  </way>
  <way id="13543060" version="6" timestamp="2012-07-19T16:14:27Z" uid="722137" user="OSMF Redaction Account" changeset="12338140">
    <nd ref="124537463"/>
    <nd ref="124537452"/>
    <tag k="highway" v="residential"/>
  </way>
  <way id="13543064" version="6" timestamp="2012-07-19T16:53:38Z" uid="722137" user="OSMF Redaction Account" changeset="12340739">
    <nd ref="124536915"/>
    <nd ref="124537481"/>
    <nd ref="124537482"/>
    <nd ref="124537467"/>
    <tag k="highway" v="residential"/>
  </way>
  <way id="13543195" version="7" timestamp="2012-07-19T16:14:21Z" uid="722137" user="OSMF Redaction Account" changeset="12338140">
    <nd ref="122936882"/>
    <nd ref="124538611"/>
    <tag k="highway" v="residential"/>
    <tag k="name" v="Victor Road"/>
    <tag k="source:name" v="survey"/>
  </way>
  <way id="13543195" version="8" timestamp="2012-07-19T16:53:38Z" uid="722137" user="OSMF Redaction Account" changeset="12340739">
    <nd ref="122936882"/>
    <nd ref="124538611"/>
    <tag k="highway" v="residential"/>
  </way>
  <way id="13543270" version="10" timestamp="2012-07-19T16:14:18Z" uid="722137" user="OSMF Redaction Account" changeset="12338140">
    <nd ref="124551656"/>
    <nd ref="124551262"/>
    <nd ref="124542788"/>
    <nd ref="124539065"/>
    <tag k="highway" v="residential"/>
  </way>
  <way id="13543546" version="12" timestamp="2012-07-19T16:18:07Z" uid="722137" user="OSMF Redaction Account" changeset="12338502"/>
  <way id="13543934" version="5" timestamp="2012-07-19T16:14:27Z" uid="722137" user="OSMF Redaction Account" changeset="12338140">
    <nd ref="124543922"/>
    <nd ref="124544162"/>
    <tag k="highway" v="residential"/>
  </way>
  <way id="13543976" version="5" timestamp="2012-07-19T16:14:29Z" uid="722137" user="OSMF Redaction Account" changeset="12338140">
    <nd ref="124544237"/>
    <nd ref="124544580"/>
    <nd ref="124544581"/>
    <tag k="highway" v="residential"/>
  </way>
</osm>
