<?xml version='1.0' encoding='UTF-8'?>
<osm version="0.6" generator="libosmium/2.20.0">
  <way id="13569074" version="5" timestamp="2009-07-09T04:01:17Z" uid="61114" user="Trav" changeset="1777636">
    <nd ref="124820564"/>
    <nd ref="124821158"/>
    <nd ref="124820566"/>
    <tag k="highway" v="residential"/>
    <tag k="name" v="Birdwood Avenue"/>
    <tag k="source:name" v="survey"/>
  </way>
  <way id="13569074" version="6" timestamp="2010-03-06T13:05:12Z" uid="7617" user="Franc" changeset="4049938">
    <nd ref="124820564"/>
    <nd ref="124821158"/>
    <nd ref="124820566"/>
    <nd ref="661074112"/>
    <tag k="highway" v="residential"/>
    <tag k="name" v="Birdwood Avenue"/>
    <tag k="source:name" v="survey"/>
  </way>
  <way id="13569074" version="7" timestamp="2010-07-07T23:35:25Z" uid="74617" user="JohnSmith" changeset="5162525">
    <nd ref="124820564"/>
    <nd ref="124821158"/>
    <nd ref="124820566"/>
    <nd ref="661074112"/>
    <tag k="highway" v="residential"/>
    <tag k="maxspeed" v="50"/>
    <tag k="maxspeed:source" v="default residential speed limit in Australia"/>
    <tag k="name" v="Birdwood Avenue"/>
    <tag k="source:name" v="survey"/>
  </way>
  <way id="13569074" version="8" timestamp="2012-01-15T11:41:15Z" uid="147510" user="woodpeck_fixbot" changeset="10396281">
    <nd ref="124820564"/>
    <nd ref="124821158"/>
    <nd ref="124820566"/>
    <nd ref="661074112"/>
    <tag k="highway" v="residential"/>
    <tag k="name" v="Birdwood Avenue"/>
    <tag k="source:name" v="survey"/>
  </way>
  <way id="13569116" version="6" timestamp="2010-03-06T23:15:30Z" uid="7617" user="Franc" changeset="4056103">
    <nd ref="124820666"/>
    <nd ref="124821155"/>
    <tag k="highway" v="service"/>
  </way>
  <way id="13569420" version="4" timestamp="2010-03-06T13:05:14Z" uid="7617" user="Franc" changeset="4049938">
    <nd ref="124824412"/>
    <nd ref="661074140"/>
    <nd ref="124824413"/>
    <nd ref="124824414"/>
    <tag k="highway" v="residential"/>
    <tag k="name" v="Stuart Street"/>
  </way>
  <way id="13569420" version="5" timestamp="2010-07-07T23:32:43Z" uid="74617" user="JohnSmith" changeset="5162525">
    <nd ref="124824412"/>
    <nd ref="661074140"/>
    <nd ref="124824413"/>
    <nd ref="124824414"/>
    <tag k="highway" v="residential"/>
    <tag k="maxspeed" v="50"/>
    <tag k="maxspeed:source" v="default residential speed limit in Australia"/>
    <tag k="name" v="Stuart Street"/>
  </way>
  <way id="13569420" version="6" timestamp="2012-01-15T11:41:16Z" uid="147510" user="woodpeck_fixbot" changeset="10396281">
    <nd ref="124824412"/>
    <nd ref="661074140"/>
    <nd ref="124824413"/>
    <nd ref="124824414"/>
    <tag k="highway" v="residential"/>
    <tag k="name" v="Stuart Street"/>
  </way>
  <way id="13569578" version="6" timestamp="2009-07-06T03:52:24Z" uid="61114" user="Trav" changeset="1745380">
    <nd ref="124826114"/>
    <nd ref="124826689"/>
    <nd ref="124827362"/>
    <nd ref="124826116"/>
    <nd ref="124837217"/>
    <nd ref="124837219"/>
    <tag k="highway" v="residential"/>
    <tag k="name" v="Park Street"/>
    <tag k="source:name" v="survey"/>
  </way>
  <way id="13569578" version="7" timestamp="2010-01-23T12:11:01Z" uid="30201" user="rrankin" changeset="3690907">
    <nd ref="124826114"/>
    <nd ref="618623973"/>
    <nd ref="618623972"/>
    <nd ref="618623974"/>
    <nd ref="618623995"/>
    <tag k="highway" v="residential"/>
    <tag k="name" v="Park Street"/>
    <tag k="source:name" v="survey"/>
  </way>
  <way id="13569578" version="8" timestamp="2010-07-07T23:35:12Z" uid="74617" user="JohnSmith" changeset="5162525">
    <nd ref="124826114"/>
    <nd ref="618623973"/>
    <nd ref="618623972"/>
    <nd ref="618623974"/>
    <nd ref="618623995"/>
    <tag k="highway" v="residential"/>
    <tag k="maxspeed" v="50"/>
    <tag k="maxspeed:source" v="default residential speed limit in Australia"/>
    <tag k="name" v="Park Street"/>
    <tag k="source:name" v="survey"/>
  </way>
  <way id="13569578" version="9" timestamp="2012-01-15T11:41:18Z" uid="147510" user="woodpeck_fixbot" changeset="10396281">
    <nd ref="124826114"/>
    <nd ref="618623973"/>
    <nd ref="618623972"/>
    <nd ref="618623974"/>
    <nd ref="618623995"/>
    <tag k="highway" v="residential"/>
    <tag k="name" v="Park Street"/>
    <tag k="source:name" v="survey"/>
  </way>
  <way id="13569649" version="2" timestamp="2009-07-06T03:52:25Z" uid="61114" user="Trav" changeset="1745380">
    <nd ref="124826686"/>
    <nd ref="124826689"/>
    <nd ref="124826693"/>
    <nd ref="124826694"/>
    <tag k="highway" v="residential"/>
    <tag k="name" v="Wetherill Street"/>
    <tag k="source:name" v="survey"/>
  </way>
  <way id="13569649" version="3" timestamp="2010-01-23T12:11:02Z" uid="30201" user="rrankin" changeset="3690907">
    <nd ref="124826686"/>
    <nd ref="618623972"/>
    <nd ref="124826693"/>
    <nd ref="124826694"/>
    <tag k="highway" v="residential"/>
    <tag k="name" v="Wetherill Street"/>
    <tag k="source:name" v="survey"/>
  </way>
  <way id="13569649" version="4" timestamp="2010-03-06T13:05:14Z" uid="7617" user="Franc" changeset="4049938">
    <nd ref="124826686"/>
    <nd ref="618623972"/>
    <nd ref="661074144"/>
    <nd ref="124826693"/>
    <nd ref="124826694"/>
    <tag k="highway" v="residential"/>
    <tag k="name" v="Wetherill Street"/>
    <tag k="source:name" v="survey"/>
  </way>
  <way id="13569649" version="5" timestamp="2010-07-07T23:35:15Z" uid="74617" user="JohnSmith" changeset="5162525">
    <nd ref="124826686"/>
    <nd ref="618623972"/>
    <nd ref="661074144"/>
    <nd ref="124826693"/>
    <nd ref="124826694"/>
    <tag k="highway" v="residential"/>
    <tag k="maxspeed" v="50"/>
    <tag k="maxspeed:source" v="default residential speed limit in Australia"/>
    <tag k="name" v="Wetherill Street"/>
    <tag k="source:name" v="survey"/>
  </way>
  <way id="13569649" version="6" timestamp="2012-01-15T11:41:19Z" uid="147510" user="woodpeck_fixbot" changeset="10396281">
    <nd ref="124826686"/>
    <nd ref="618623972"/>
    <nd ref="661074144"/>
    <nd ref="124826693"/>
    <nd ref="124826694"/>
    <tag k="highway" v="residential"/>
    <tag k="name" v="Wetherill Street"/>
    <tag k="source:name" v="survey"/>
  </way>
  <way id="13569703" version="4" timestamp="2010-01-23T12:11:02Z" uid="30201" user="rrankin" changeset="3690907">
    <nd ref="124827359"/>
    <nd ref="124827360"/>
    <nd ref="618623974"/>
    <tag k="highway" v="residential"/>
    <tag k="name" v="Clarke Street"/>
  </way>
  <way id="13569703" version="5" timestamp="2010-03-06T13:05:14Z" uid="7617" user="Franc" changeset="4049938">
    <nd ref="124827359"/>
    <nd ref="124827360"/>
    <nd ref="661074148"/>
    <nd ref="618623974"/>
    <tag k="highway" v="residential"/>
    <tag k="name" v="Clarke Street"/>
  </way>
  <way id="13569703" version="6" timestamp="2010-07-07T23:32:50Z" uid="74617" user="JohnSmith" changeset="5162525">
    <nd ref="124827359"/>
    <nd ref="124827360"/>
    <nd ref="661074148"/>
    <nd ref="618623974"/>
    <tag k="highway" v="residential"/>
    <tag k="maxspeed" v="50"/>
    <tag k="maxspeed:source" v="default residential speed limit in Australia"/>
    <tag k="name" v="Clarke Street"/>
  </way>
  <way id="13569703" version="7" timestamp="2012-01-15T11:41:20Z" uid="147510" user="woodpeck_fixbot" changeset="10396281">
    <nd ref="124827359"/>
    <nd ref="124827360"/>
    <nd ref="661074148"/>
    <nd ref="618623974"/>
    <tag k="highway" v="residential"/>
    <tag k="name" v="Clarke Street"/>
  </way>
  <way id="13569754" version="2" timestamp="2009-07-06T03:57:54Z" uid="61114" user="Trav" changeset="1745395">
    <nd ref="122944965"/>
    <nd ref="124827818"/>
    <tag k="highway" v="residential"/>
    <tag k="name" v="Mactier Street"/>
    <tag k="source:name" v="suvey"/>
  </way>
  <way id="13569754" version="3" timestamp="2009-09-25T13:00:22Z" uid="4467" user="Rosscoe" changeset="2618875">
    <nd ref="122944965"/>
    <nd ref="124827818"/>
    <tag k="highway" v="residential"/>
    <tag k="name" v="Mactier Street"/>
    <tag k="source:name" v="survey"/>
  </way>
  <way id="13569754" version="4" timestamp="2010-01-23T12:11:03Z" uid="30201" user="rrankin" changeset="3690907">
    <nd ref="618624007"/>
    <nd ref="124827818"/>
    <tag k="highway" v="residential"/>
    <tag k="name" v="Mactier Street"/>
    <tag k="source:name" v="survey"/>
  </way>
  <way id="13569754" version="5" timestamp="2010-07-07T23:32:34Z" uid="74617" user="JohnSmith" changeset="5162525">
    <nd ref="618624007"/>
    <nd ref="124827818"/>
    <tag k="highway" v="residential"/>
    <tag k="maxspeed" v="50"/>
    <tag k="maxspeed:source" v="default residential speed limit in Australia"/>
    <tag k="name" v="Mactier Street"/>
    <tag k="source:name" v="survey"/>
  </way>
  <way id="13569754" version="6" timestamp="2012-01-15T11:41:21Z" uid="147510" user="woodpeck_fixbot" changeset="10396281">
    <nd ref="618624007"/>
    <nd ref="124827818"/>
    <tag k="highway" v="residential"/>
    <tag k="name" v="Mactier Street"/>
    <tag k="source:name" v="survey"/>
  </way>
  <way id="13569759" version="5" timestamp="2009-07-06T03:52:15Z" uid="61114" user="Trav" changeset="1745380">
    <nd ref="124827863"/>
    <nd ref="124828846"/>
    <nd ref="124827865"/>
    <tag k="highway" v="residential"/>
    <tag k="name" v="Clarke Street West"/>
    <tag k="source:name" v="survey"/>
  </way>
  <way id="13569759" version="6" timestamp="2010-07-07T23:33:09Z" uid="74617" user="JohnSmith" changeset="5162525">
    <nd ref="124827863"/>
    <nd ref="124828846"/>
    <nd ref="124827865"/>
    <tag k="highway" v="residential"/>
    <tag k="maxspeed" v="50"/>
    <tag k="maxspeed:source" v="default residential speed limit in Australia"/>
    <tag k="name" v="Clarke Street West"/>
    <tag k="source:name" v="survey"/>
  </way>
  <way id="13569759" version="7" timestamp="2012-01-15T11:41:23Z" uid="147510" user="woodpeck_fixbot" changeset="10396281">
    <nd ref="124827863"/>
    <nd ref="124828846"/>
    <nd ref="124827865"/>
    <tag k="highway" v="residential"/>
    <tag k="name" v="Clarke Street West"/>
    <tag k="source:name" v="survey"/>
  </way>
  <way id="13569854" version="4" timestamp="2009-07-06T03:52:43Z" uid="61114" user="Trav" changeset="1745380"/>
  <way id="13569912" version="2" timestamp="2009-07-06T03:52:16Z" uid="61114" user="Trav" changeset="1745380">
    <nd ref="122944592"/>
    <nd ref="124829396"/>
    <nd ref="124827865"/>
    <nd ref="124829398"/>
    <tag k="highway" v="residential"/>
    <tag k="name" v="Walker Avenue"/>
    <tag k="source:name" v="survey"/>
  </way>
  <way id="13569912" version="3" timestamp="2010-01-23T12:11:01Z" uid="30201" user="rrankin" changeset="3690907">
    <nd ref="618623955"/>
    <nd ref="124829396"/>
    <nd ref="124827865"/>
    <nd ref="124829398"/>
    <tag k="highway" v="residential"/>
    <tag k="name" v="Walker Avenue"/>
    <tag k="source:name" v="survey"/>
  </way>
  <way id="13569912" version="4" timestamp="2010-07-07T23:31:58Z" uid="74617" user="JohnSmith" changeset="5162525">
    <nd ref="618623955"/>
    <nd ref="124829396"/>
    <nd ref="124827865"/>
    <nd ref="124829398"/>
    <tag k="highway" v="residential"/>
    <tag k="maxspeed" v="50"/>
    <tag k="maxspeed:source" v="default residential speed limit in Australia"/>
    <tag k="name" v="Walker Avenue"/>
    <tag k="source:name" v="survey"/>
  </way>
  <way id="13569912" version="5" timestamp="2012-01-15T11:41:24Z" uid="147510" user="woodpeck_fixbot" changeset="10396281">
    <nd ref="618623955"/>
    <nd ref="124829396"/>
    <nd ref="124827865"/>
    <nd ref="124829398"/>
    <tag k="highway" v="residential"/>
    <tag k="name" v="Walker Avenue"/>
    <tag k="source:name" v="survey"/>
  </way>
  <way id="13569074" version="9" timestamp="2012-07-19T16:13:56Z" uid="722137" user="OSMF Redaction Account" changeset="12338140">
    <nd ref="124820564"/>
    <nd ref="124821158"/>
    <nd ref="124820566"/>
    <tag k="highway" v="residential"/>
  </way>
  <way id="13569074" version="10" timestamp="2012-07-21T14:00:25Z" uid="705018" user="woftam" changeset="12405637">
    <nd ref="124820564"/>
    <nd ref="124821158"/>
    <nd ref="124820566"/>
    <nd ref="1833162059"/>
    <tag k="highway" v="residential"/>
  </way>
  <way id="13569420" version="7" timestamp="2012-07-19T16:13:47Z" uid="722137" user="OSMF Redaction Account" changeset="12338140">
    <nd ref="124824412"/>
    <nd ref="124824413"/>
    <nd ref="124824414"/>
    <tag k="highway" v="residential"/>
  </way>
  <way id="13569420" version="8" timestamp="2012-07-21T14:12:26Z" uid="705018" user="woftam" changeset="12411190">
    <nd ref="124824412"/>
    <nd ref="1833174930"/>
    <nd ref="124824413"/>
    <nd ref="124824414"/>
    <tag k="highway" v="residential"/>
  </way>
  <way id="13569578" version="10" timestamp="2012-07-19T16:18:27Z" uid="722137" user="OSMF Redaction Account" changeset="12338502"/>
  <way id="13569649" version="7" timestamp="2012-07-19T16:13:46Z" uid="722137" user="OSMF Redaction Account" changeset="12338140">
    <nd ref="124826686"/>
    <nd ref="124826693"/>
    <nd ref="124826694"/>
    <tag k="highway" v="residential"/>
  </way>
  <way id="13569649" version="8" timestamp="2012-07-21T14:12:26Z" uid="705018" user="woftam" changeset="12411190">
    <nd ref="124826686"/>
    <nd ref="1833174932"/>
    <nd ref="124826693"/>
    <nd ref="124826694"/>
    <tag k="highway" v="residential"/>
  </way>
  <way id="13569649" version="9" timestamp="2012-08-03T15:41:09Z" uid="510836" user="Rub21" changeset="12599716">
    <nd ref="124826686"/>
    <nd ref="1850068038"/>
    <nd ref="1833174932"/>
    <nd ref="124826693"/>
    <nd ref="124826694"/>
    <tag k="highway" v="residential"/>
  </way>
  <way id="13569703" version="8" timestamp="2012-07-19T16:13:46Z" uid="722137" user="OSMF Redaction Account" changeset="12338140">
    <nd ref="124827359"/>
    <nd ref="124827360"/>
    <tag k="highway" v="residential"/>
  </way>
  <way id="13569754" version="7" timestamp="2012-07-19T16:18:29Z" uid="722137" user="OSMF Redaction Account" changeset="12338502"/>
  <way id="13569759" version="8" timestamp="2012-07-19T16:14:55Z" uid="722137" user="OSMF Redaction Account" changeset="12338140">
    <nd ref="124827863"/>
    <nd ref="124828846"/>
    <nd ref="124827865"/>
    <tag k="highway" v="residential"/>
  </way>
  <way id="13569912" version="6" timestamp="2012-07-19T16:13:43Z" uid="722137" user="OSMF Redaction Account" changeset="12338140">
    <nd ref="124829396"/>
    <nd ref="124827865"/>
    <nd ref="124829398"/>
    <tag k="highway" v="residential"/>
  </way>
</osm>
