<?xml version='1.0' encoding='UTF-8'?>
<osm version="0.6" generator="libosmium/2.20.0">
  <way id="13654072" version="6" timestamp="2009-05-09T08:55:07Z" uid="64269" user="Triffnix" changeset="1125090">
    <nd ref="125773541"/>
    <nd ref="125773521"/>
    <nd ref="392623736"/>
    <tag k="created_by" v="Potlatch 0.9a"/>
    <tag k="highway" v="trunk"/>
    <tag k="oneway" v="yes"/>
    <tag k="osmarender:renderRef" v="no"/>
    <tag k="ref" v="B 294"/>
  </way>
  <way id="13654072" version="7" timestamp="2009-05-19T16:44:03Z" uid="69827" user="AleX76" changeset="1251586">
    <nd ref="125773541"/>
    <nd ref="406278858"/>
    <tag k="created_by" v="Potlatch 0.9a"/>
    <tag k="highway" v="trunk"/>
    <tag k="oneway" v="yes"/>
    <tag k="osmarender:renderRef" v="no"/>
    <tag k="ref" v="B 294"/>
  </way>
  <way id="13654072" version="8" timestamp="2009-07-02T21:30:29Z" uid="11374" user="q_un_go" changeset="1714213">
    <nd ref="125773541"/>
    <nd ref="406278858"/>
    <tag k="highway" v="trunk"/>
    <tag k="motorroad" v="yes"/>
    <tag k="oneway" v="yes"/>
    <tag k="osmarender:renderRef" v="no"/>
    <tag k="ref" v="B 294"/>
  </way>
  <way id="13654072" version="9" timestamp="2010-01-19T20:24:50Z" uid="2680" user="xylome" changeset="3661900">
    <nd ref="125773541"/>
    <nd ref="406278858"/>
    <tag k="highway" v="trunk"/>
    <tag k="motorroad" v="yes"/>
    <tag k="oneway" v="yes"/>
    <tag k="ref" v="B 294"/>
  </way>
  <way id="13654072" version="10" timestamp="2010-03-15T13:56:23Z" uid="11374" user="q_un_go" changeset="4134829">
    <nd ref="125775002"/>
    <nd ref="125773541"/>
    <nd ref="406278858"/>
    <tag k="highway" v="trunk"/>
    <tag k="motorroad" v="yes"/>
    <tag k="oneway" v="yes"/>
    <tag k="ref" v="B 294"/>
  </way>
  <way id="13654072" version="11" timestamp="2012-01-15T20:24:00Z" uid="11374" user="q_un_go" changeset="10402880"/>
</osm>
