<?xml version='1.0' encoding='UTF-8'?>
<osm version="0.6" generator="libosmium/2.20.0">
  <way id="13946067" version="3" timestamp="2010-02-15T06:33:47Z" uid="74617" user="JohnSmith" changeset="3880421">
    <nd ref="131943714"/>
    <nd ref="131951357"/>
    <tag k="highway" v="residential"/>
    <tag k="maxspeed" v="50"/>
  </way>
  <way id="13946067" version="4" timestamp="2011-12-06T07:57:03Z" uid="22094" user="Chadzopkyo" changeset="10047776">
    <nd ref="131943714"/>
    <nd ref="131951357"/>
    <tag k="highway" v="residential"/>
    <tag k="maxspeed" v="50"/>
    <tag k="name" v="Hydra Street"/>
    <tag k="source" v="GPS"/>
    <tag k="surface" v="asphalt"/>
  </way>
  <way id="13946067" version="5" timestamp="2012-01-15T12:13:47Z" uid="147510" user="woodpeck_fixbot" changeset="10396281">
    <nd ref="131943714"/>
    <nd ref="131951357"/>
    <tag k="highway" v="residential"/>
    <tag k="name" v="Hydra Street"/>
    <tag k="source" v="GPS"/>
    <tag k="surface" v="asphalt"/>
  </way>
  <way id="13946092" version="2" timestamp="2008-11-22T06:43:57Z" uid="7617" user="Franc" changeset="779843">
    <nd ref="131950918"/>
    <nd ref="131951578"/>
    <nd ref="131951580"/>
    <tag k="created_by" v="Potlatch 0.5d"/>
    <tag k="highway" v="residential"/>
    <tag k="name" v="Pearson Street"/>
    <tag k="source" v="survey"/>
  </way>
  <way id="13946092" version="3" timestamp="2010-03-12T09:46:06Z" uid="7617" user="Franc" changeset="4104695">
    <nd ref="131950918"/>
    <nd ref="131951578"/>
    <nd ref="664451768"/>
    <nd ref="131951580"/>
    <tag k="highway" v="residential"/>
    <tag k="name" v="Pearson Street"/>
    <tag k="source" v="survey"/>
  </way>
  <way id="13946092" version="4" timestamp="2010-07-08T00:59:15Z" uid="74617" user="JohnSmith" changeset="5162525">
    <nd ref="131950918"/>
    <nd ref="131951578"/>
    <nd ref="664451768"/>
    <nd ref="131951580"/>
    <tag k="highway" v="residential"/>
    <tag k="maxspeed" v="50"/>
    <tag k="maxspeed:source" v="default residential speed limit in Australia"/>
    <tag k="name" v="Pearson Street"/>
    <tag k="source" v="survey"/>
  </way>
  <way id="13946092" version="5" timestamp="2012-01-15T12:13:48Z" uid="147510" user="woodpeck_fixbot" changeset="10396281">
    <nd ref="131950918"/>
    <nd ref="131951578"/>
    <nd ref="664451768"/>
    <nd ref="131951580"/>
    <tag k="highway" v="residential"/>
    <tag k="name" v="Pearson Street"/>
    <tag k="source" v="survey"/>
  </way>
  <way id="13946113" version="4" timestamp="2010-02-15T06:33:48Z" uid="74617" user="JohnSmith" changeset="3880421">
    <nd ref="131943715"/>
    <nd ref="304561110"/>
    <nd ref="131951873"/>
    <nd ref="131951875"/>
    <nd ref="131951877"/>
    <nd ref="131951879"/>
    <nd ref="131943513"/>
    <tag k="highway" v="residential"/>
    <tag k="maxspeed" v="50"/>
  </way>
  <way id="13946113" version="5" timestamp="2011-12-05T09:57:56Z" uid="22094" user="Chadzopkyo" changeset="10040474">
    <nd ref="131943715"/>
    <nd ref="131951873"/>
    <nd ref="131951875"/>
    <nd ref="131951877"/>
    <nd ref="131951879"/>
    <nd ref="131943513"/>
    <tag k="highway" v="residential"/>
    <tag k="maxspeed" v="50"/>
    <tag k="name" v="Ursa Street"/>
    <tag k="source" v="GPS"/>
    <tag k="surface" v="asphalt"/>
  </way>
  <way id="13946113" version="6" timestamp="2011-12-05T10:18:31Z" uid="22094" user="Chadzopkyo" changeset="10040588">
    <nd ref="131943715"/>
    <nd ref="1532587638"/>
    <nd ref="131951873"/>
    <nd ref="131951875"/>
    <nd ref="131951877"/>
    <nd ref="131951879"/>
    <nd ref="131943513"/>
    <tag k="highway" v="residential"/>
    <tag k="maxspeed" v="50"/>
    <tag k="name" v="Ursa Street"/>
    <tag k="source" v="GPS"/>
    <tag k="surface" v="asphalt"/>
  </way>
  <way id="13946113" version="7" timestamp="2012-01-15T12:13:49Z" uid="147510" user="woodpeck_fixbot" changeset="10396281">
    <nd ref="131943715"/>
    <nd ref="1532587638"/>
    <nd ref="131951873"/>
    <nd ref="131951875"/>
    <nd ref="131951877"/>
    <nd ref="131951879"/>
    <nd ref="131943513"/>
    <tag k="highway" v="residential"/>
    <tag k="name" v="Ursa Street"/>
    <tag k="source" v="GPS"/>
    <tag k="surface" v="asphalt"/>
  </way>
  <way id="13946151" version="5" timestamp="2010-02-15T06:33:47Z" uid="74617" user="JohnSmith" changeset="3880421">
    <nd ref="131952333"/>
    <nd ref="131952335"/>
    <nd ref="131952336"/>
    <nd ref="131952338"/>
    <tag k="highway" v="residential"/>
    <tag k="maxspeed" v="50"/>
  </way>
  <way id="13946151" version="6" timestamp="2011-12-05T09:57:52Z" uid="22094" user="Chadzopkyo" changeset="10040474">
    <nd ref="131952338"/>
    <nd ref="131952336"/>
    <nd ref="131952335"/>
    <nd ref="131952333"/>
    <nd ref="252202477"/>
    <nd ref="252202033"/>
    <nd ref="131969022"/>
    <tag k="highway" v="residential"/>
    <tag k="maxspeed" v="50"/>
    <tag k="name" v="Gemini Street"/>
    <tag k="source" v="GPS"/>
    <tag k="surface" v="asphalt"/>
  </way>
  <way id="13946151" version="7" timestamp="2012-01-15T12:13:51Z" uid="147510" user="woodpeck_fixbot" changeset="10396281">
    <nd ref="131952338"/>
    <nd ref="131952336"/>
    <nd ref="131952335"/>
    <nd ref="131952333"/>
    <nd ref="252202477"/>
    <nd ref="252202033"/>
    <nd ref="131969022"/>
    <tag k="highway" v="residential"/>
    <tag k="name" v="Gemini Street"/>
    <tag k="source" v="GPS"/>
    <tag k="surface" v="asphalt"/>
  </way>
  <way id="13946246" version="2" timestamp="2008-11-22T07:12:32Z" uid="7617" user="Franc" changeset="779843">
    <nd ref="131952771"/>
    <nd ref="131953175"/>
    <tag k="created_by" v="Potlatch 0.5d"/>
    <tag k="highway" v="residential"/>
    <tag k="name" v="Coulter Street"/>
    <tag k="oneway" v="yes"/>
  </way>
  <way id="13946246" version="3" timestamp="2010-03-12T10:37:34Z" uid="7617" user="Franc" changeset="4104996">
    <nd ref="131952771"/>
    <nd ref="664461263"/>
    <nd ref="664461261"/>
    <nd ref="131953175"/>
    <tag k="highway" v="residential"/>
    <tag k="name" v="Coulter Street"/>
    <tag k="oneway" v="yes"/>
  </way>
  <way id="13946246" version="4" timestamp="2010-07-08T01:01:03Z" uid="74617" user="JohnSmith" changeset="5162525">
    <nd ref="131952771"/>
    <nd ref="664461263"/>
    <nd ref="664461261"/>
    <nd ref="131953175"/>
    <tag k="highway" v="residential"/>
    <tag k="maxspeed" v="50"/>
    <tag k="maxspeed:source" v="default residential speed limit in Australia"/>
    <tag k="name" v="Coulter Street"/>
    <tag k="oneway" v="yes"/>
  </way>
  <way id="13946246" version="5" timestamp="2011-09-05T06:16:43Z" uid="7523" user="inas" changeset="9214390">
    <nd ref="131952771"/>
    <nd ref="664461263"/>
    <nd ref="664461261"/>
    <nd ref="1423737126"/>
    <tag k="highway" v="residential"/>
    <tag k="maxspeed" v="50"/>
    <tag k="maxspeed:source" v="default residential speed limit in Australia"/>
    <tag k="name" v="Coulter Street"/>
    <tag k="oneway" v="yes"/>
  </way>
  <way id="13946246" version="6" timestamp="2012-01-15T12:13:52Z" uid="147510" user="woodpeck_fixbot" changeset="10396281">
    <nd ref="131952771"/>
    <nd ref="664461263"/>
    <nd ref="664461261"/>
    <nd ref="1423737126"/>
    <tag k="highway" v="residential"/>
    <tag k="name" v="Coulter Street"/>
    <tag k="oneway" v="yes"/>
  </way>
  <way id="13946253" version="5" timestamp="2010-02-15T06:33:42Z" uid="74617" user="JohnSmith" changeset="3880421">
    <nd ref="131964122"/>
    <nd ref="131964124"/>
    <nd ref="131958957"/>
    <nd ref="131964128"/>
    <nd ref="131964131"/>
    <nd ref="131964134"/>
    <tag k="highway" v="residential"/>
    <tag k="maxspeed" v="50"/>
  </way>
  <way id="13946253" version="6" timestamp="2011-08-25T09:28:53Z" uid="22094" user="Chadzopkyo" changeset="9119583">
    <nd ref="131964122"/>
    <nd ref="131958957"/>
    <nd ref="131964128"/>
    <nd ref="131964131"/>
    <nd ref="131964134"/>
    <tag k="highway" v="residential"/>
    <tag k="maxspeed" v="50"/>
  </way>
  <way id="13946253" version="7" timestamp="2011-12-06T07:57:07Z" uid="22094" user="Chadzopkyo" changeset="10047776"/>
  <way id="13946325" version="3" timestamp="2010-02-15T06:32:56Z" uid="74617" user="JohnSmith" changeset="3880421">
    <nd ref="131942733"/>
    <nd ref="131951879"/>
    <tag k="highway" v="residential"/>
    <tag k="maxspeed" v="50"/>
  </way>
  <way id="13946325" version="4" timestamp="2011-12-05T09:57:53Z" uid="22094" user="Chadzopkyo" changeset="10040474">
    <nd ref="131942733"/>
    <nd ref="131951879"/>
    <tag k="highway" v="residential"/>
    <tag k="maxspeed" v="50"/>
    <tag k="name" v="Leo Street"/>
    <tag k="source" v="GPS"/>
    <tag k="surface" v="asphalt"/>
  </way>
  <way id="13946325" version="5" timestamp="2012-01-15T12:13:54Z" uid="147510" user="woodpeck_fixbot" changeset="10396281">
    <nd ref="131942733"/>
    <nd ref="131951879"/>
    <tag k="highway" v="residential"/>
    <tag k="name" v="Leo Street"/>
    <tag k="source" v="GPS"/>
    <tag k="surface" v="asphalt"/>
  </way>
  <way id="13946332" version="2" timestamp="2008-11-22T07:34:22Z" uid="7617" user="Franc" changeset="779843">
    <nd ref="313661880"/>
    <nd ref="131953409"/>
    <nd ref="131953866"/>
    <tag k="created_by" v="Potlatch 0.5d"/>
    <tag k="highway" v="residential"/>
    <tag k="name" v="Orb Rd"/>
    <tag k="source" v="survey"/>
  </way>
  <way id="13946332" version="3" timestamp="2009-12-10T06:02:03Z" uid="30201" user="rrankin" changeset="3339278">
    <nd ref="313661880"/>
    <nd ref="131953409"/>
    <nd ref="131953866"/>
    <tag k="highway" v="residential"/>
    <tag k="name" v="Orb Road"/>
    <tag k="source" v="survey"/>
  </way>
  <way id="13946332" version="4" timestamp="2010-03-12T10:37:32Z" uid="7617" user="Franc" changeset="4104996">
    <nd ref="313661880"/>
    <nd ref="131953409"/>
    <nd ref="664461259"/>
    <tag k="highway" v="residential"/>
    <tag k="name" v="Orb Road"/>
    <tag k="restriction" v="school_zone"/>
    <tag k="source" v="survey"/>
  </way>
  <way id="13946332" version="5" timestamp="2010-07-08T00:57:21Z" uid="74617" user="JohnSmith" changeset="5162525">
    <nd ref="313661880"/>
    <nd ref="131953409"/>
    <nd ref="664461259"/>
    <tag k="highway" v="residential"/>
    <tag k="maxspeed" v="50"/>
    <tag k="maxspeed:source" v="default residential speed limit in Australia"/>
    <tag k="name" v="Orb Road"/>
    <tag k="restriction" v="school_zone"/>
    <tag k="source" v="survey"/>
  </way>
  <way id="13946332" version="6" timestamp="2012-01-15T12:13:56Z" uid="147510" user="woodpeck_fixbot" changeset="10396281">
    <nd ref="313661880"/>
    <nd ref="131953409"/>
    <nd ref="664461259"/>
    <tag k="highway" v="residential"/>
    <tag k="name" v="Orb Road"/>
    <tag k="restriction" v="school_zone"/>
    <tag k="source" v="survey"/>
  </way>
  <way id="13946354" version="2" timestamp="2008-11-22T07:12:31Z" uid="7617" user="Franc" changeset="779843">
    <nd ref="313661185"/>
    <nd ref="131954022"/>
    <nd ref="131954182"/>
    <tag k="created_by" v="Potlatch 0.5d"/>
    <tag k="highway" v="residential"/>
    <tag k="name" v="Blair Street"/>
  </way>
  <way id="13946354" version="3" timestamp="2010-03-12T10:37:34Z" uid="7617" user="Franc" changeset="4104996">
    <nd ref="313661185"/>
    <nd ref="131954022"/>
    <tag k="highway" v="residential"/>
    <tag k="name" v="Blair Street"/>
  </way>
  <way id="13946354" version="4" timestamp="2010-07-08T00:58:34Z" uid="74617" user="JohnSmith" changeset="5162525">
    <nd ref="313661185"/>
    <nd ref="131954022"/>
    <tag k="highway" v="residential"/>
    <tag k="maxspeed" v="50"/>
    <tag k="maxspeed:source" v="default residential speed limit in Australia"/>
    <tag k="name" v="Blair Street"/>
  </way>
  <way id="13946354" version="5" timestamp="2012-01-15T12:13:57Z" uid="147510" user="woodpeck_fixbot" changeset="10396281">
    <nd ref="313661185"/>
    <nd ref="131954022"/>
    <tag k="highway" v="residential"/>
    <tag k="name" v="Blair Street"/>
  </way>
  <way id="13946372" version="3" timestamp="2008-11-22T06:44:18Z" uid="7617" user="Franc" changeset="779843">
    <nd ref="131954321"/>
    <nd ref="131954465"/>
    <tag k="created_by" v="Potlatch 0.5d"/>
    <tag k="highway" v="residential"/>
    <tag k="name" v="Raven Street"/>
    <tag k="source" v="survey"/>
  </way>
  <way id="13946372" version="4" timestamp="2010-07-08T00:59:44Z" uid="74617" user="JohnSmith" changeset="5162525">
    <nd ref="131954321"/>
    <nd ref="131954465"/>
    <tag k="highway" v="residential"/>
    <tag k="maxspeed" v="50"/>
    <tag k="maxspeed:source" v="default residential speed limit in Australia"/>
    <tag k="name" v="Raven Street"/>
    <tag k="source" v="survey"/>
  </way>
  <way id="13946372" version="5" timestamp="2011-09-05T06:16:44Z" uid="7523" user="inas" changeset="9214390">
    <nd ref="1423737147"/>
    <nd ref="131954465"/>
    <tag k="highway" v="residential"/>
    <tag k="maxspeed" v="50"/>
    <tag k="maxspeed:source" v="default residential speed limit in Australia"/>
    <tag k="name" v="Raven Street"/>
    <tag k="source" v="survey"/>
  </way>
  <way id="13946372" version="6" timestamp="2012-01-15T12:13:58Z" uid="147510" user="woodpeck_fixbot" changeset="10396281">
    <nd ref="1423737147"/>
    <nd ref="131954465"/>
    <tag k="highway" v="residential"/>
    <tag k="name" v="Raven Street"/>
    <tag k="source" v="survey"/>
  </way>
  <way id="13946435" version="2" timestamp="2008-11-22T06:44:11Z" uid="7617" user="Franc" changeset="779843">
    <nd ref="131954557"/>
    <nd ref="131954949"/>
    <tag k="created_by" v="Potlatch 0.5d"/>
    <tag k="highway" v="residential"/>
    <tag k="name" v="Tyrell Street"/>
    <tag k="source" v="survey"/>
  </way>
  <way id="13946435" version="3" timestamp="2010-07-08T01:01:34Z" uid="74617" user="JohnSmith" changeset="5162525">
    <nd ref="131954557"/>
    <nd ref="131954949"/>
    <tag k="highway" v="residential"/>
    <tag k="maxspeed" v="50"/>
    <tag k="maxspeed:source" v="default residential speed limit in Australia"/>
    <tag k="name" v="Tyrell Street"/>
    <tag k="source" v="survey"/>
  </way>
  <way id="13946435" version="4" timestamp="2011-09-05T06:16:45Z" uid="7523" user="inas" changeset="9214390">
    <nd ref="1423737129"/>
    <nd ref="131954949"/>
    <tag k="highway" v="residential"/>
    <tag k="maxspeed" v="50"/>
    <tag k="maxspeed:source" v="default residential speed limit in Australia"/>
    <tag k="name" v="Tyrell Street"/>
    <tag k="source" v="survey"/>
  </way>
  <way id="13946435" version="5" timestamp="2012-01-15T12:13:59Z" uid="147510" user="woodpeck_fixbot" changeset="10396281">
    <nd ref="1423737129"/>
    <nd ref="131954949"/>
    <tag k="highway" v="residential"/>
    <tag k="name" v="Tyrell Street"/>
    <tag k="source" v="survey"/>
  </way>
  <way id="13946605" version="6" timestamp="2010-02-15T06:33:47Z" uid="74617" user="JohnSmith" changeset="3880421">
    <nd ref="131943518"/>
    <nd ref="131956400"/>
    <nd ref="131952338"/>
    <nd ref="131956403"/>
    <nd ref="131956405"/>
    <nd ref="131969744"/>
    <nd ref="131969746"/>
    <tag k="highway" v="residential"/>
    <tag k="maxspeed" v="50"/>
  </way>
  <way id="13946605" version="7" timestamp="2011-12-05T09:57:46Z" uid="22094" user="Chadzopkyo" changeset="10040474">
    <nd ref="131943518"/>
    <nd ref="131956400"/>
    <nd ref="131952338"/>
    <nd ref="131956403"/>
    <nd ref="131956405"/>
    <nd ref="131969744"/>
    <nd ref="131969746"/>
    <tag k="highway" v="residential"/>
    <tag k="maxspeed" v="50"/>
    <tag k="name" v="Andromeda Street"/>
    <tag k="source" v="GPS"/>
    <tag k="surface" v="asphalt"/>
  </way>
  <way id="13946605" version="8" timestamp="2012-01-15T12:14:01Z" uid="147510" user="woodpeck_fixbot" changeset="10396281">
    <nd ref="131943518"/>
    <nd ref="131956400"/>
    <nd ref="131952338"/>
    <nd ref="131956403"/>
    <nd ref="131956405"/>
    <nd ref="131969744"/>
    <nd ref="131969746"/>
    <tag k="highway" v="residential"/>
    <tag k="name" v="Andromeda Street"/>
    <tag k="source" v="GPS"/>
    <tag k="surface" v="asphalt"/>
  </way>
  <way id="13946875" version="3" timestamp="2010-02-15T06:33:40Z" uid="74617" user="JohnSmith" changeset="3880421">
    <nd ref="131954551"/>
    <nd ref="131958942"/>
    <nd ref="131958943"/>
    <nd ref="131958944"/>
    <nd ref="131958945"/>
    <nd ref="131958946"/>
    <nd ref="131958948"/>
    <nd ref="131958950"/>
    <nd ref="131958952"/>
    <nd ref="131958954"/>
    <nd ref="131958955"/>
    <nd ref="131958957"/>
    <tag k="highway" v="residential"/>
    <tag k="maxspeed" v="50"/>
  </way>
  <way id="13946875" version="4" timestamp="2011-12-05T09:57:56Z" uid="22094" user="Chadzopkyo" changeset="10040474">
    <nd ref="131954551"/>
    <nd ref="131958943"/>
    <nd ref="131958944"/>
    <nd ref="131958945"/>
    <nd ref="131958946"/>
    <nd ref="131958948"/>
    <nd ref="131958950"/>
    <nd ref="131958952"/>
    <nd ref="131958954"/>
    <nd ref="131958955"/>
    <nd ref="131958957"/>
    <tag k="highway" v="residential"/>
    <tag k="maxspeed" v="50"/>
  </way>
  <way id="13946875" version="5" timestamp="2011-12-06T07:57:03Z" uid="22094" user="Chadzopkyo" changeset="10047776">
    <nd ref="131954551"/>
    <nd ref="131958943"/>
    <nd ref="131958944"/>
    <nd ref="131958945"/>
    <nd ref="131958946"/>
    <nd ref="131958950"/>
    <nd ref="131958952"/>
    <nd ref="131958954"/>
    <nd ref="131958955"/>
    <nd ref="131958957"/>
    <tag k="highway" v="residential"/>
    <tag k="maxspeed" v="50"/>
    <tag k="name" v="Libra Street"/>
    <tag k="source" v="GPS"/>
    <tag k="surface" v="asphalt"/>
  </way>
  <way id="13946875" version="6" timestamp="2012-01-15T12:14:05Z" uid="147510" user="woodpeck_fixbot" changeset="10396281">
    <nd ref="131954551"/>
    <nd ref="131958943"/>
    <nd ref="131958944"/>
    <nd ref="131958945"/>
    <nd ref="131958946"/>
    <nd ref="131958950"/>
    <nd ref="131958952"/>
    <nd ref="131958954"/>
    <nd ref="131958955"/>
    <nd ref="131958957"/>
    <tag k="highway" v="residential"/>
    <tag k="name" v="Libra Street"/>
    <tag k="source" v="GPS"/>
    <tag k="surface" v="asphalt"/>
  </way>
  <way id="13946892" version="3" timestamp="2010-02-15T06:33:47Z" uid="74617" user="JohnSmith" changeset="3880421">
    <nd ref="131953245"/>
    <nd ref="131959013"/>
    <nd ref="131959014"/>
    <nd ref="131958950"/>
    <tag k="highway" v="residential"/>
    <tag k="maxspeed" v="50"/>
  </way>
  <way id="13946892" version="4" timestamp="2011-12-06T07:57:01Z" uid="22094" user="Chadzopkyo" changeset="10047776">
    <nd ref="131953245"/>
    <nd ref="131959014"/>
    <nd ref="131958950"/>
    <tag k="highway" v="residential"/>
    <tag k="maxspeed" v="50"/>
    <tag k="name" v="Aquarius Street"/>
    <tag k="source" v="GPS"/>
    <tag k="surface" v="asphalt"/>
  </way>
  <way id="13946892" version="5" timestamp="2012-01-15T12:14:08Z" uid="147510" user="woodpeck_fixbot" changeset="10396281">
    <nd ref="131953245"/>
    <nd ref="131959014"/>
    <nd ref="131958950"/>
    <tag k="highway" v="residential"/>
    <tag k="name" v="Aquarius Street"/>
    <tag k="source" v="GPS"/>
    <tag k="surface" v="asphalt"/>
  </way>
  <way id="13946917" version="3" timestamp="2010-02-15T06:33:47Z" uid="74617" user="JohnSmith" changeset="3880421">
    <nd ref="131958954"/>
    <nd ref="131959216"/>
    <nd ref="131959218"/>
    <tag k="highway" v="residential"/>
    <tag k="maxspeed" v="50"/>
  </way>
  <way id="13946917" version="4" timestamp="2011-12-06T07:57:02Z" uid="22094" user="Chadzopkyo" changeset="10047776">
    <nd ref="131958954"/>
    <nd ref="131959218"/>
    <tag k="highway" v="residential"/>
    <tag k="maxspeed" v="50"/>
    <tag k="name" v="Corvus Street"/>
    <tag k="source" v="GPS"/>
    <tag k="surface" v="asphalt"/>
  </way>
  <way id="13946917" version="5" timestamp="2012-01-15T12:14:10Z" uid="147510" user="woodpeck_fixbot" changeset="10396281">
    <nd ref="131958954"/>
    <nd ref="131959218"/>
    <tag k="highway" v="residential"/>
    <tag k="name" v="Corvus Street"/>
    <tag k="source" v="GPS"/>
    <tag k="surface" v="asphalt"/>
  </way>
  <way id="13946927" version="3" timestamp="2010-02-15T06:33:43Z" uid="74617" user="JohnSmith" changeset="3880421">
    <nd ref="131958955"/>
    <nd ref="131959329"/>
    <nd ref="131959331"/>
    <tag k="highway" v="residential"/>
    <tag k="maxspeed" v="50"/>
  </way>
  <way id="13946927" version="4" timestamp="2011-12-06T07:57:04Z" uid="22094" user="Chadzopkyo" changeset="10047776">
    <nd ref="131958955"/>
    <nd ref="131959331"/>
    <tag k="highway" v="residential"/>
    <tag k="maxspeed" v="50"/>
    <tag k="name" v="Sagitta Street"/>
    <tag k="source" v="GPS"/>
    <tag k="surface" v="asphalt"/>
  </way>
  <way id="13946927" version="5" timestamp="2012-01-15T12:14:14Z" uid="147510" user="woodpeck_fixbot" changeset="10396281">
    <nd ref="131958955"/>
    <nd ref="131959331"/>
    <tag k="highway" v="residential"/>
    <tag k="name" v="Sagitta Street"/>
    <tag k="source" v="GPS"/>
    <tag k="surface" v="asphalt"/>
  </way>
  <way id="13946092" version="6" timestamp="2012-07-19T23:07:35Z" uid="722137" user="OSMF Redaction Account" changeset="12351287">
    <nd ref="131950918"/>
    <nd ref="131951578"/>
    <nd ref="131951580"/>
    <tag k="highway" v="residential"/>
  </way>
  <way id="13946092" version="7" timestamp="2012-08-11T22:47:19Z" uid="20949" user="Ebenezer" changeset="12696410">
    <nd ref="1862259422"/>
    <nd ref="131951578"/>
    <nd ref="131951580"/>
    <tag k="highway" v="residential"/>
    <tag k="maxspeed" v="50"/>
    <tag k="name" v="Person Street"/>
    <tag k="source" v="Bing"/>
  </way>
  <way id="13946246" version="7" timestamp="2012-07-19T23:07:31Z" uid="722137" user="OSMF Redaction Account" changeset="12351287">
    <nd ref="131952771"/>
    <nd ref="1423737126"/>
    <tag k="highway" v="residential"/>
    <tag k="oneway" v="yes"/>
  </way>
  <way id="13946332" version="7" timestamp="2012-07-19T23:15:39Z" uid="722137" user="OSMF Redaction Account" changeset="12351419"/>
  <way id="13946354" version="6" timestamp="2012-07-20T05:31:05Z" uid="722137" user="OSMF Redaction Account" changeset="12362111"/>
  <way id="13946372" version="7" timestamp="2012-07-20T05:25:42Z" uid="722137" user="OSMF Redaction Account" changeset="12361944">
    <nd ref="1423737147"/>
    <nd ref="131954465"/>
    <tag k="highway" v="residential"/>
  </way>
  <way id="13946435" version="6" timestamp="2012-07-20T05:25:42Z" uid="722137" user="OSMF Redaction Account" changeset="12361944">
    <nd ref="1423737129"/>
    <nd ref="131954949"/>
    <tag k="highway" v="residential"/>
  </way>
</osm>
