<?xml version='1.0' encoding='UTF-8'?>
<osm version="0.6" generator="libosmium/2.20.0">
  <way id="13941380" version="5" timestamp="2010-07-09T03:39:21Z" uid="74617" user="JohnSmith" changeset="5170838">
    <nd ref="131888558"/>
    <nd ref="621432765"/>
    <nd ref="621432820"/>
    <nd ref="621432790"/>
    <nd ref="131888583"/>
    <nd ref="621432781"/>
    <tag k="highway" v="residential"/>
    <tag k="maxspeed" v="50"/>
    <tag k="maxspeed:source" v="default residential speed limit in Australia"/>
    <tag k="name" v="Tom Jones Court"/>
  </way>
  <way id="13941380" version="6" timestamp="2011-08-18T05:23:15Z" uid="288568" user="nickbarker" changeset="9053699">
    <nd ref="131888558"/>
    <nd ref="621432765"/>
    <nd ref="621432820"/>
    <nd ref="1402981980"/>
    <nd ref="621432790"/>
    <nd ref="131888583"/>
    <nd ref="621432781"/>
    <tag k="highway" v="residential"/>
    <tag k="maxspeed" v="50"/>
    <tag k="maxspeed:source" v="default residential speed limit in Australia"/>
    <tag k="name" v="Tom Jones Court"/>
  </way>
  <way id="13941380" version="7" timestamp="2012-01-15T12:12:57Z" uid="147510" user="woodpeck_fixbot" changeset="10396281">
    <nd ref="131888558"/>
    <nd ref="621432765"/>
    <nd ref="621432820"/>
    <nd ref="1402981980"/>
    <nd ref="621432790"/>
    <nd ref="131888583"/>
    <nd ref="621432781"/>
    <tag k="highway" v="residential"/>
    <tag k="name" v="Tom Jones Court"/>
  </way>
  <way id="13941384" version="4" timestamp="2010-07-09T03:37:59Z" uid="74617" user="JohnSmith" changeset="5170838">
    <nd ref="131888583"/>
    <nd ref="131888607"/>
    <nd ref="131888622"/>
    <nd ref="131888636"/>
    <tag k="highway" v="residential"/>
    <tag k="maxspeed" v="50"/>
    <tag k="maxspeed:source" v="default residential speed limit in Australia"/>
    <tag k="name" v="Tandderwen Court"/>
  </way>
  <way id="13941384" version="5" timestamp="2012-01-15T12:12:59Z" uid="147510" user="woodpeck_fixbot" changeset="10396281">
    <nd ref="131888583"/>
    <nd ref="131888607"/>
    <nd ref="131888622"/>
    <nd ref="131888636"/>
    <tag k="highway" v="residential"/>
    <tag k="name" v="Tandderwen Court"/>
  </way>
  <way id="13941548" version="4" timestamp="2010-07-09T03:38:25Z" uid="74617" user="JohnSmith" changeset="5170838">
    <nd ref="131890787"/>
    <nd ref="131890810"/>
    <nd ref="131888558"/>
    <tag k="highway" v="residential"/>
    <tag k="maxspeed" v="50"/>
    <tag k="maxspeed:source" v="default residential speed limit in Australia"/>
    <tag k="name" v="Abeckett Road"/>
  </way>
  <way id="13941548" version="5" timestamp="2012-01-15T12:13:00Z" uid="147510" user="woodpeck_fixbot" changeset="10396281">
    <nd ref="131890787"/>
    <nd ref="131890810"/>
    <nd ref="131888558"/>
    <tag k="highway" v="residential"/>
    <tag k="name" v="Abeckett Road"/>
  </way>
  <way id="13941551" version="4" timestamp="2010-07-09T03:40:00Z" uid="74617" user="JohnSmith" changeset="5170838">
    <nd ref="131890810"/>
    <nd ref="131885223"/>
    <tag k="highway" v="residential"/>
    <tag k="maxspeed" v="50"/>
    <tag k="maxspeed:source" v="default residential speed limit in Australia"/>
  </way>
  <way id="13941551" version="5" timestamp="2012-01-15T12:13:01Z" uid="147510" user="woodpeck_fixbot" changeset="10396281">
    <nd ref="131890810"/>
    <nd ref="131885223"/>
    <tag k="highway" v="residential"/>
  </way>
</osm>
