<?xml version='1.0' encoding='UTF-8'?>
<osm version="0.6" generator="libosmium/2.20.0">
  <way id="13973012" version="14" timestamp="2010-04-30T14:05:08Z" uid="74617" user="JohnSmith" changeset="4566032">
    <nd ref="132345285"/>
    <nd ref="132345286"/>
    <nd ref="132338137"/>
    <nd ref="132338134"/>
    <nd ref="132345300"/>
    <nd ref="315019858"/>
    <tag k="highway" v="residential"/>
    <tag k="is_in" v="Sunbury,Victoria,Australia"/>
    <tag k="name" v="O&apos;Shannassy Street"/>
    <tag k="postal_code" v="3429"/>
  </way>
  <way id="13973012" version="15" timestamp="2010-05-01T02:54:48Z" uid="74617" user="JohnSmith" changeset="4571237">
    <nd ref="132345285"/>
    <nd ref="132345286"/>
    <nd ref="132338137"/>
    <nd ref="132338134"/>
    <nd ref="132345300"/>
    <nd ref="315019858"/>
    <tag k="highway" v="residential"/>
    <tag k="name" v="O&apos;Shannassy Street"/>
  </way>
  <way id="13973012" version="16" timestamp="2010-05-04T07:21:18Z" uid="4467" user="Rosscoe" changeset="4601753">
    <nd ref="132345285"/>
    <nd ref="132345286"/>
    <nd ref="132338137"/>
    <nd ref="132338134"/>
    <nd ref="132345300"/>
    <nd ref="720575135"/>
    <tag k="highway" v="residential"/>
    <tag k="name" v="O&apos;Shannassy Street"/>
  </way>
  <way id="13973012" version="17" timestamp="2010-07-08T17:37:46Z" uid="74617" user="JohnSmith" changeset="5167338">
    <nd ref="132345285"/>
    <nd ref="132345286"/>
    <nd ref="132338137"/>
    <nd ref="132338134"/>
    <nd ref="132345300"/>
    <nd ref="720575135"/>
    <tag k="highway" v="residential"/>
    <tag k="maxspeed" v="50"/>
    <tag k="maxspeed:source" v="default residential speed limit in Australia"/>
    <tag k="name" v="O&apos;Shannassy Street"/>
  </way>
  <way id="13973012" version="18" timestamp="2012-01-15T12:18:49Z" uid="147510" user="woodpeck_fixbot" changeset="10396281">
    <nd ref="132345285"/>
    <nd ref="132345286"/>
    <nd ref="132338137"/>
    <nd ref="132338134"/>
    <nd ref="132345300"/>
    <nd ref="720575135"/>
    <tag k="highway" v="residential"/>
    <tag k="name" v="O&apos;Shannassy Street"/>
  </way>
  <way id="13973205" version="9" timestamp="2010-04-30T14:05:09Z" uid="74617" user="JohnSmith" changeset="4566032">
    <nd ref="132334604"/>
    <nd ref="132345285"/>
    <nd ref="298348049"/>
    <nd ref="132346834"/>
    <nd ref="132346842"/>
    <nd ref="298347894"/>
    <nd ref="298347602"/>
    <tag k="highway" v="residential"/>
    <tag k="is_in" v="Sunbury,Victoria,Australia"/>
    <tag k="name" v="Shields Street"/>
    <tag k="postal_code" v="3429"/>
  </way>
  <way id="13973205" version="10" timestamp="2010-04-30T14:25:54Z" uid="74617" user="JohnSmith" changeset="4566032">
    <nd ref="132334604"/>
    <nd ref="713391821"/>
    <nd ref="132345285"/>
    <nd ref="298348049"/>
    <nd ref="132346834"/>
    <nd ref="132346842"/>
    <nd ref="298347894"/>
    <nd ref="713391896"/>
    <tag k="highway" v="residential"/>
    <tag k="name" v="Shields Street"/>
  </way>
  <way id="13973205" version="11" timestamp="2010-05-04T07:21:13Z" uid="4467" user="Rosscoe" changeset="4601753">
    <nd ref="720575043"/>
    <nd ref="713391821"/>
    <nd ref="132345285"/>
    <nd ref="720575168"/>
    <nd ref="720575154"/>
    <tag k="highway" v="residential"/>
    <tag k="name" v="Shields Street"/>
  </way>
  <way id="13973205" version="12" timestamp="2010-07-08T17:36:19Z" uid="74617" user="JohnSmith" changeset="5167338">
    <nd ref="720575043"/>
    <nd ref="713391821"/>
    <nd ref="132345285"/>
    <nd ref="720575168"/>
    <nd ref="720575154"/>
    <tag k="highway" v="residential"/>
    <tag k="maxspeed" v="50"/>
    <tag k="maxspeed:source" v="default residential speed limit in Australia"/>
    <tag k="name" v="Shields Street"/>
  </way>
  <way id="13973205" version="13" timestamp="2012-01-15T12:18:50Z" uid="147510" user="woodpeck_fixbot" changeset="10396281">
    <nd ref="720575043"/>
    <nd ref="713391821"/>
    <nd ref="132345285"/>
    <nd ref="720575168"/>
    <nd ref="720575154"/>
    <tag k="highway" v="residential"/>
    <tag k="name" v="Shields Street"/>
  </way>
  <way id="13973279" version="5" timestamp="2010-04-30T14:05:12Z" uid="74617" user="JohnSmith" changeset="4566032">
    <nd ref="132333136"/>
    <nd ref="267070791"/>
    <nd ref="132333137"/>
    <nd ref="132342358"/>
    <nd ref="132347887"/>
    <nd ref="132347890"/>
    <nd ref="132347893"/>
    <nd ref="132347210"/>
    <tag k="highway" v="residential"/>
    <tag k="is_in" v="Sunbury,Victoria,Australia"/>
    <tag k="name" v="Brook Street"/>
    <tag k="postal_code" v="3429"/>
  </way>
  <way id="13973279" version="6" timestamp="2010-04-30T18:06:31Z" uid="74617" user="JohnSmith" changeset="4568160">
    <nd ref="132333136"/>
    <nd ref="267070791"/>
    <nd ref="132333137"/>
    <nd ref="132342358"/>
    <nd ref="132347887"/>
    <nd ref="132347890"/>
    <nd ref="132347893"/>
    <nd ref="132347210"/>
    <nd ref="713681790"/>
    <nd ref="713681807"/>
    <nd ref="713681795"/>
    <tag k="highway" v="residential"/>
    <tag k="maxspeed" v="50"/>
    <tag k="name" v="Brook Street"/>
    <tag k="source" v="nearmap"/>
  </way>
  <way id="13973279" version="7" timestamp="2010-05-04T07:21:14Z" uid="4467" user="Rosscoe" changeset="4601753">
    <nd ref="132333136"/>
    <nd ref="267070791"/>
    <nd ref="720575118"/>
    <nd ref="720575049"/>
    <tag k="highway" v="residential"/>
    <tag k="maxspeed" v="50"/>
    <tag k="name" v="Brook Street"/>
    <tag k="source" v="nearmap"/>
  </way>
  <way id="13973279" version="8" timestamp="2010-09-02T12:54:53Z" uid="146572" user="nomad_cam" changeset="5662069">
    <nd ref="132333136"/>
    <nd ref="892937559"/>
    <nd ref="267070791"/>
    <nd ref="720575118"/>
    <nd ref="720575049"/>
    <tag k="highway" v="residential"/>
    <tag k="maxspeed" v="50"/>
    <tag k="name" v="Brook Street"/>
    <tag k="source" v="nearmap"/>
  </way>
  <way id="13973279" version="9" timestamp="2010-09-04T00:15:23Z" uid="146572" user="nomad_cam" changeset="5675078">
    <nd ref="132333136"/>
    <nd ref="892937559"/>
    <nd ref="267070791"/>
    <nd ref="894923979"/>
    <nd ref="720575118"/>
    <nd ref="720575049"/>
    <tag k="highway" v="residential"/>
    <tag k="maxspeed" v="50"/>
    <tag k="name" v="Brook Street"/>
    <tag k="source" v="nearmap"/>
  </way>
  <way id="13973279" version="10" timestamp="2010-09-04T00:15:41Z" uid="146572" user="nomad_cam" changeset="5675078">
    <nd ref="132333136"/>
    <nd ref="892937559"/>
    <nd ref="267070791"/>
    <nd ref="894924402"/>
    <nd ref="894923979"/>
    <nd ref="720575118"/>
    <nd ref="720575049"/>
    <tag k="highway" v="residential"/>
    <tag k="maxspeed" v="50"/>
    <tag k="name" v="Brook Street"/>
    <tag k="source" v="nearmap"/>
  </way>
  <way id="13973279" version="11" timestamp="2012-01-15T12:18:51Z" uid="147510" user="woodpeck_fixbot" changeset="10396281">
    <nd ref="132333136"/>
    <nd ref="892937559"/>
    <nd ref="267070791"/>
    <nd ref="894924402"/>
    <nd ref="894923979"/>
    <nd ref="720575118"/>
    <nd ref="720575049"/>
    <tag k="highway" v="residential"/>
    <tag k="name" v="Brook Street"/>
    <tag k="source" v="nearmap"/>
  </way>
  <way id="13973416" version="2" timestamp="2007-11-26T11:35:53Z" uid="9581" user="Lobelt" changeset="623243"/>
  <way id="13973422" version="13" timestamp="2009-09-23T13:31:54Z" uid="9581" user="Lobelt" changeset="2595487">
    <nd ref="132350728"/>
    <nd ref="132350742"/>
    <nd ref="132350753"/>
    <nd ref="132350765"/>
    <nd ref="132350780"/>
    <nd ref="132350794"/>
    <nd ref="332499891"/>
    <nd ref="132350864"/>
    <nd ref="332558243"/>
    <nd ref="332576726"/>
    <nd ref="145931618"/>
    <nd ref="145931620"/>
    <nd ref="255716128"/>
    <nd ref="145931629"/>
    <nd ref="145931639"/>
    <nd ref="145931642"/>
    <nd ref="263264792"/>
    <nd ref="33050792"/>
    <tag k="foot" v="no"/>
    <tag k="highway" v="primary"/>
    <tag k="lanes" v="2"/>
    <tag k="name" v="Elsterdamm"/>
    <tag k="nat_ref" v="B 92"/>
    <tag k="oneway" v="yes"/>
    <tag k="ref" v="B 92"/>
  </way>
  <way id="13973422" version="14" timestamp="2010-03-30T06:18:27Z" uid="48353" user="Maper" changeset="4273714">
    <nd ref="132350728"/>
    <nd ref="132350742"/>
    <nd ref="132350753"/>
    <nd ref="132350765"/>
    <nd ref="132350780"/>
    <nd ref="132350794"/>
    <nd ref="332499891"/>
    <nd ref="132350864"/>
    <nd ref="332558243"/>
    <nd ref="332576726"/>
    <nd ref="145931618"/>
    <nd ref="145931620"/>
    <nd ref="255716128"/>
    <tag k="foot" v="no"/>
    <tag k="highway" v="primary"/>
    <tag k="lanes" v="2"/>
    <tag k="maxspeed" v="70"/>
    <tag k="name" v="Elsterdamm"/>
    <tag k="nat_ref" v="B 92"/>
    <tag k="oneway" v="yes"/>
    <tag k="ref" v="B 92"/>
  </way>
  <way id="13973422" version="15" timestamp="2011-02-20T01:01:26Z" uid="31911" user="Mathias Klein" changeset="7338196">
    <nd ref="132350728"/>
    <nd ref="132350742"/>
    <nd ref="132350753"/>
    <nd ref="132350765"/>
    <nd ref="132350780"/>
    <nd ref="132350794"/>
    <nd ref="1162578844"/>
    <nd ref="332499891"/>
    <nd ref="1162579162"/>
    <nd ref="132350864"/>
    <nd ref="1162578556"/>
    <nd ref="332558243"/>
    <nd ref="332576726"/>
    <nd ref="145931618"/>
    <nd ref="145931620"/>
    <nd ref="255716128"/>
    <tag k="foot" v="no"/>
    <tag k="highway" v="primary"/>
    <tag k="lanes" v="2"/>
    <tag k="maxspeed" v="70"/>
    <tag k="name" v="Elsterdamm"/>
    <tag k="nat_ref" v="B 92"/>
    <tag k="oneway" v="yes"/>
    <tag k="ref" v="B 92"/>
  </way>
  <way id="13973422" version="16" timestamp="2012-03-25T17:46:57Z" uid="36470" user="cochran" changeset="11097721"/>
  <way id="13973677" version="3" timestamp="2010-07-09T06:37:21Z" uid="74617" user="JohnSmith" changeset="5171134">
    <nd ref="132352588"/>
    <nd ref="314933782"/>
    <nd ref="132353363"/>
    <tag k="highway" v="residential"/>
    <tag k="maxspeed" v="50"/>
    <tag k="maxspeed:source" v="default residential speed limit in Australia"/>
  </way>
  <way id="13973677" version="4" timestamp="2012-01-15T12:18:52Z" uid="147510" user="woodpeck_fixbot" changeset="10396281">
    <nd ref="132352588"/>
    <nd ref="314933782"/>
    <nd ref="132353363"/>
    <tag k="highway" v="residential"/>
  </way>
  <way id="13973993" version="5" timestamp="2010-05-21T14:33:58Z" uid="4467" user="Rosscoe" changeset="4766199">
    <nd ref="132357257"/>
    <nd ref="742603116"/>
    <nd ref="132358611"/>
    <nd ref="253422480"/>
    <tag k="highway" v="residential"/>
    <tag k="name" v="Giles Street"/>
    <tag k="source" v="nearmap"/>
  </way>
  <way id="13973993" version="6" timestamp="2010-05-21T14:37:08Z" uid="4467" user="Rosscoe" changeset="4766199">
    <nd ref="132357257"/>
    <nd ref="742603116"/>
    <nd ref="132358611"/>
    <nd ref="253422480"/>
    <tag k="highway" v="residential"/>
    <tag k="name" v="Giles Street"/>
    <tag k="source" v="nearmap"/>
  </way>
  <way id="13973993" version="7" timestamp="2010-07-09T06:40:23Z" uid="74617" user="JohnSmith" changeset="5171134">
    <nd ref="132357257"/>
    <nd ref="742603116"/>
    <nd ref="132358611"/>
    <nd ref="253422480"/>
    <tag k="highway" v="residential"/>
    <tag k="maxspeed" v="50"/>
    <tag k="maxspeed:source" v="default residential speed limit in Australia"/>
    <tag k="name" v="Giles Street"/>
    <tag k="source" v="nearmap"/>
  </way>
  <way id="13973993" version="8" timestamp="2012-01-15T12:18:53Z" uid="147510" user="woodpeck_fixbot" changeset="10396281">
    <nd ref="132357257"/>
    <nd ref="742603116"/>
    <nd ref="132358611"/>
    <nd ref="253422480"/>
    <tag k="highway" v="residential"/>
    <tag k="name" v="Giles Street"/>
    <tag k="source" v="nearmap"/>
  </way>
  <way id="13973012" version="19" timestamp="2012-07-19T14:26:02Z" uid="722137" user="OSMF Redaction Account" changeset="12331321">
    <nd ref="132345285"/>
    <nd ref="132345300"/>
    <tag k="highway" v="residential"/>
    <tag k="name" v="O&apos;Shannassy Street"/>
  </way>
  <way id="13973012" version="20" timestamp="2012-07-30T04:32:12Z" uid="637652" user="steve91" changeset="12543033">
    <nd ref="132345285"/>
    <nd ref="1843469837"/>
    <nd ref="1843469836"/>
    <nd ref="132345300"/>
    <nd ref="1843469735"/>
    <tag k="highway" v="residential"/>
    <tag k="name" v="O&apos;Shannassy Street"/>
  </way>
  <way id="13973205" version="14" timestamp="2012-07-19T14:27:01Z" uid="722137" user="OSMF Redaction Account" changeset="12331371"/>
  <way id="13973279" version="12" timestamp="2012-05-12T11:41:54Z" uid="680162" user="gis_610" changeset="11575763">
    <nd ref="132333136"/>
    <nd ref="892937559"/>
    <nd ref="267070791"/>
    <nd ref="1749566217"/>
    <nd ref="894924402"/>
    <nd ref="894923979"/>
    <nd ref="720575118"/>
    <nd ref="720575049"/>
    <tag k="highway" v="residential"/>
    <tag k="name" v="Brook Street"/>
    <tag k="source" v="nearmap"/>
  </way>
  <way id="13973279" version="13" timestamp="2012-07-19T14:25:57Z" uid="722137" user="OSMF Redaction Account" changeset="12331321">
    <nd ref="892937559"/>
    <nd ref="267070791"/>
    <nd ref="1749566217"/>
    <nd ref="894924402"/>
    <nd ref="894923979"/>
    <tag k="highway" v="residential"/>
    <tag k="name" v="Brook Street"/>
  </way>
  <way id="13973279" version="14" timestamp="2012-07-30T04:32:11Z" uid="637652" user="steve91" changeset="12543033">
    <nd ref="892937559"/>
    <nd ref="267070791"/>
    <nd ref="1749566217"/>
    <nd ref="894924402"/>
    <nd ref="894923979"/>
    <nd ref="1843469599"/>
    <tag k="highway" v="residential"/>
    <tag k="name" v="Brook Street"/>
  </way>
  <way id="13973993" version="9" timestamp="2012-07-19T18:31:45Z" uid="722137" user="OSMF Redaction Account" changeset="12343236">
    <nd ref="132357257"/>
    <nd ref="132358611"/>
    <tag k="highway" v="residential"/>
  </way>
  <way id="13973993" version="10" timestamp="2012-08-04T13:48:13Z" uid="171576" user="Conquest" changeset="12609608">
    <nd ref="132357257"/>
    <nd ref="132358611"/>
    <nd ref="1851553243"/>
    <tag k="highway" v="residential"/>
  </way>
</osm>
