<?xml version='1.0' encoding='UTF-8'?>
<osm version="0.6" generator="libosmium/2.20.0">
  <way id="14012050" version="6" timestamp="2010-03-07T11:08:09Z" uid="58091" user="Andreas M" changeset="4059658">
    <nd ref="328191078"/>
    <nd ref="132921437"/>
    <nd ref="132921444"/>
    <nd ref="132921450"/>
    <nd ref="506914729"/>
    <nd ref="132921456"/>
    <nd ref="132921461"/>
    <nd ref="132921466"/>
    <nd ref="417872817"/>
    <nd ref="132874313"/>
    <tag k="highway" v="residential"/>
    <tag k="is_in:city" v="Kitzbühel"/>
    <tag k="is_in:country_code" v="AT"/>
    <tag k="name" v="Wagnerstraße"/>
    <tag k="postal_code" v="6370"/>
  </way>
  <way id="14012050" version="7" timestamp="2010-12-19T15:07:02Z" uid="301486" user="occam11" changeset="6706837">
    <nd ref="328191078"/>
    <nd ref="132921437"/>
    <nd ref="132921444"/>
    <nd ref="1049053948"/>
    <nd ref="506914729"/>
    <nd ref="132921456"/>
    <nd ref="132921461"/>
    <nd ref="417872817"/>
    <nd ref="132874313"/>
    <tag k="highway" v="residential"/>
    <tag k="is_in:city" v="Kitzbühel"/>
    <tag k="is_in:country_code" v="AT"/>
    <tag k="name" v="Wagnerstraße"/>
    <tag k="postal_code" v="6370"/>
  </way>
  <way id="14012051" version="4" timestamp="2010-03-07T11:08:10Z" uid="58091" user="Andreas M" changeset="4059658">
    <nd ref="132921477"/>
    <nd ref="132921472"/>
    <nd ref="328191078"/>
    <nd ref="132921482"/>
    <tag k="highway" v="unclassified"/>
    <tag k="is_in:city" v="Kitzbühel"/>
    <tag k="is_in:country_code" v="AT"/>
    <tag k="name" v="Traunsteinerweg"/>
    <tag k="postal_code" v="6370"/>
  </way>
  <way id="14012051" version="5" timestamp="2010-12-31T17:23:02Z" uid="364615" user="alpman" changeset="6822068">
    <nd ref="132921477"/>
    <nd ref="1075593466"/>
    <nd ref="132921472"/>
    <nd ref="328191078"/>
    <nd ref="132921482"/>
    <tag k="highway" v="unclassified"/>
    <tag k="is_in:city" v="Kitzbühel"/>
    <tag k="is_in:country_code" v="AT"/>
    <tag k="name" v="Traunsteinerweg"/>
    <tag k="postal_code" v="6370"/>
  </way>
  <way id="14012053" version="6" timestamp="2010-03-07T11:08:04Z" uid="58091" user="Andreas M" changeset="4059658">
    <nd ref="132921482"/>
    <nd ref="132921490"/>
    <nd ref="132921495"/>
    <nd ref="328394873"/>
    <nd ref="132921504"/>
    <nd ref="484210593"/>
    <nd ref="132921547"/>
    <nd ref="132921514"/>
    <nd ref="335859646"/>
    <nd ref="132921517"/>
    <nd ref="132921521"/>
    <nd ref="132921528"/>
    <nd ref="132921532"/>
    <tag k="highway" v="residential"/>
    <tag k="is_in:city" v="Kitzbühel"/>
    <tag k="is_in:country_code" v="AT"/>
    <tag k="name" v="Im Gries"/>
    <tag k="postal_code" v="6370"/>
  </way>
  <way id="14012053" version="7" timestamp="2010-12-19T15:06:34Z" uid="301486" user="occam11" changeset="6706837">
    <nd ref="132921482"/>
    <nd ref="132921490"/>
    <nd ref="132921495"/>
    <nd ref="328394873"/>
    <nd ref="132921504"/>
    <nd ref="484210593"/>
    <nd ref="132921547"/>
    <nd ref="1049053955"/>
    <nd ref="335859646"/>
    <nd ref="132921517"/>
    <nd ref="132921521"/>
    <nd ref="132921528"/>
    <nd ref="132921532"/>
    <tag k="highway" v="residential"/>
    <tag k="is_in:city" v="Kitzbühel"/>
    <tag k="is_in:country_code" v="AT"/>
    <tag k="name" v="Im Gries"/>
    <tag k="postal_code" v="6370"/>
  </way>
  <way id="14012053" version="8" timestamp="2010-12-31T10:51:46Z" uid="364615" user="alpman" changeset="6818250">
    <nd ref="132921482"/>
    <nd ref="132921490"/>
    <nd ref="132921495"/>
    <nd ref="328394873"/>
    <nd ref="132921504"/>
    <nd ref="484210593"/>
    <nd ref="132921547"/>
    <nd ref="1049053955"/>
    <nd ref="335859646"/>
    <nd ref="132921517"/>
    <nd ref="132921521"/>
    <nd ref="1074985877"/>
    <nd ref="132921528"/>
    <nd ref="132921532"/>
    <tag k="highway" v="residential"/>
    <tag k="is_in:city" v="Kitzbühel"/>
    <tag k="is_in:country_code" v="AT"/>
    <tag k="name" v="Im Gries"/>
    <tag k="postal_code" v="6370"/>
  </way>
  <way id="14012053" version="9" timestamp="2010-12-31T17:22:35Z" uid="364615" user="alpman" changeset="6822068">
    <nd ref="132921482"/>
    <nd ref="1075593533"/>
    <nd ref="132921490"/>
    <nd ref="132921495"/>
    <nd ref="328394873"/>
    <nd ref="132921504"/>
    <nd ref="484210593"/>
    <nd ref="132921547"/>
    <nd ref="1049053955"/>
    <nd ref="335859646"/>
    <nd ref="132921517"/>
    <nd ref="132921521"/>
    <nd ref="1074985877"/>
    <nd ref="132921528"/>
    <nd ref="132921532"/>
    <tag k="highway" v="residential"/>
    <tag k="is_in:city" v="Kitzbühel"/>
    <tag k="is_in:country_code" v="AT"/>
    <tag k="name" v="Im Gries"/>
    <tag k="postal_code" v="6370"/>
  </way>
  <way id="14012053" version="10" timestamp="2011-01-04T10:45:24Z" uid="364615" user="alpman" changeset="6859126">
    <nd ref="132921532"/>
    <nd ref="132921528"/>
    <nd ref="1074985877"/>
    <nd ref="132921521"/>
    <nd ref="132921517"/>
    <nd ref="335859646"/>
    <nd ref="1049053955"/>
    <nd ref="132921547"/>
    <nd ref="484210593"/>
    <nd ref="132921504"/>
    <nd ref="328394873"/>
    <nd ref="132921495"/>
    <nd ref="132921490"/>
    <nd ref="1075593533"/>
    <nd ref="1081909764"/>
    <nd ref="132921482"/>
    <tag k="highway" v="residential"/>
    <tag k="is_in:city" v="Kitzbühel"/>
    <tag k="is_in:country_code" v="AT"/>
    <tag k="name" v="Im Gries"/>
    <tag k="oneway" v="yes"/>
    <tag k="postal_code" v="6370"/>
  </way>
  <way id="14012053" version="11" timestamp="2012-01-26T16:38:58Z" uid="475758" user="HellasY" changeset="10504692">
    <nd ref="132921532"/>
    <nd ref="132921528"/>
    <nd ref="1606657276"/>
    <tag k="highway" v="residential"/>
    <tag k="is_in:city" v="Kitzbühel"/>
    <tag k="is_in:country_code" v="AT"/>
    <tag k="name" v="Im Gries"/>
    <tag k="postal_code" v="6370"/>
  </way>
  <way id="14012055" version="3" timestamp="2010-03-07T11:08:09Z" uid="58091" user="Andreas M" changeset="4059658">
    <nd ref="132921532"/>
    <nd ref="132921538"/>
    <nd ref="132921543"/>
    <tag k="highway" v="unclassified"/>
    <tag k="is_in:city" v="Kitzbühel"/>
    <tag k="is_in:country_code" v="AT"/>
    <tag k="name" v="Fischlechnerplatz"/>
    <tag k="postal_code" v="6370"/>
  </way>
  <way id="14012055" version="4" timestamp="2010-12-31T10:51:27Z" uid="364615" user="alpman" changeset="6818250">
    <nd ref="132921532"/>
    <nd ref="132921538"/>
    <nd ref="1074985612"/>
    <nd ref="132921543"/>
    <tag k="highway" v="unclassified"/>
    <tag k="is_in:city" v="Kitzbühel"/>
    <tag k="is_in:country_code" v="AT"/>
    <tag k="name" v="Fischlechnerplatz"/>
    <tag k="postal_code" v="6370"/>
  </way>
  <way id="14012055" version="5" timestamp="2012-01-26T16:38:58Z" uid="475758" user="HellasY" changeset="10504692">
    <nd ref="132921532"/>
    <nd ref="132921538"/>
    <nd ref="1074985612"/>
    <nd ref="132921543"/>
    <tag k="highway" v="residential"/>
    <tag k="is_in:city" v="Kitzbühel"/>
    <tag k="is_in:country_code" v="AT"/>
    <tag k="name" v="Fischlechnerplatz"/>
    <tag k="postal_code" v="6370"/>
  </way>
  <way id="14012763" version="3" timestamp="2010-03-27T22:52:17Z" uid="20587" user="balrog-kun" changeset="4250464">
    <nd ref="122623519"/>
    <nd ref="122623522"/>
    <nd ref="122623524"/>
    <nd ref="122623526"/>
    <nd ref="122623528"/>
    <nd ref="122623530"/>
    <nd ref="122623532"/>
    <nd ref="122623533"/>
    <nd ref="122623534"/>
    <nd ref="122623535"/>
    <nd ref="122623536"/>
    <nd ref="122623537"/>
    <nd ref="122623538"/>
    <nd ref="122623539"/>
    <nd ref="122623544"/>
    <nd ref="122623547"/>
    <nd ref="122623550"/>
    <nd ref="122623552"/>
    <nd ref="122623556"/>
    <nd ref="122623558"/>
    <nd ref="122623561"/>
    <nd ref="122623565"/>
    <nd ref="122613771"/>
    <tag k="created_by" v="JOSM"/>
    <tag k="highway" v="residential"/>
    <tag k="name" v="Knott Avenue"/>
    <tag k="name_1" v="South Knott Avenue"/>
    <tag k="tiger:cfcc" v="A41"/>
    <tag k="tiger:county" v="Orange, CA"/>
    <tag k="tiger:name_base" v="Knott"/>
    <tag k="tiger:name_base_1" v="Knott"/>
    <tag k="tiger:name_direction_prefix_1" v="S"/>
    <tag k="tiger:name_type" v="Ave"/>
    <tag k="tiger:name_type_1" v="Ave"/>
    <tag k="tiger:separated" v="no"/>
    <tag k="tiger:source" v="tiger_import_dch_v0.6_20070809"/>
    <tag k="tiger:tlid" v="144002051:144002137:144424532:144424533:144002014:144002042"/>
    <tag k="tiger:zip_left" v="90630"/>
    <tag k="tiger:zip_left_1" v="90630"/>
    <tag k="tiger:zip_left_10" v="90630"/>
    <tag k="tiger:zip_left_11" v="90630"/>
    <tag k="tiger:zip_left_12" v="90630"/>
    <tag k="tiger:zip_left_13" v="90680"/>
    <tag k="tiger:zip_left_14" v="90680"/>
    <tag k="tiger:zip_left_15" v="90680"/>
    <tag k="tiger:zip_left_16" v="90680"/>
    <tag k="tiger:zip_left_17" v="90680"/>
    <tag k="tiger:zip_left_18" v="90630"/>
    <tag k="tiger:zip_left_2" v="90630"/>
    <tag k="tiger:zip_left_3" v="90630"/>
    <tag k="tiger:zip_left_4" v="90630"/>
    <tag k="tiger:zip_left_5" v="90630"/>
    <tag k="tiger:zip_left_6" v="90630"/>
    <tag k="tiger:zip_left_7" v="90630"/>
    <tag k="tiger:zip_left_8" v="90630"/>
    <tag k="tiger:zip_left_9" v="90630"/>
    <tag k="tiger:zip_right" v="90630"/>
  </way>
  <way id="14012763" version="4" timestamp="2010-07-18T01:04:13Z" uid="82317" user="AM909" changeset="5247358">
    <nd ref="122623519"/>
    <nd ref="122623522"/>
    <nd ref="122623524"/>
    <nd ref="122623526"/>
    <nd ref="122623528"/>
    <nd ref="122623530"/>
    <nd ref="122623532"/>
    <nd ref="122623533"/>
    <nd ref="122623534"/>
    <nd ref="122623535"/>
    <nd ref="122623536"/>
    <nd ref="122623537"/>
    <nd ref="122623538"/>
    <nd ref="122623539"/>
    <nd ref="122623544"/>
    <nd ref="122623547"/>
    <nd ref="122623550"/>
    <nd ref="122623552"/>
    <nd ref="122623556"/>
    <nd ref="122623558"/>
    <nd ref="122623561"/>
    <nd ref="122623565"/>
    <nd ref="122613771"/>
    <tag k="highway" v="residential"/>
    <tag k="name" v="Knott Avenue"/>
    <tag k="name_1" v="South Knott Avenue"/>
    <tag k="tiger:cfcc" v="A41"/>
    <tag k="tiger:county" v="Orange, CA"/>
    <tag k="tiger:name_base" v="Knott"/>
    <tag k="tiger:name_base_1" v="Knott"/>
    <tag k="tiger:name_direction_prefix_1" v="S"/>
    <tag k="tiger:name_type" v="Ave"/>
    <tag k="tiger:name_type_1" v="Ave"/>
    <tag k="tiger:separated" v="no"/>
    <tag k="tiger:source" v="tiger_import_dch_v0.6_20070809"/>
    <tag k="tiger:tlid" v="144002051:144002137:144424532:144424533:144002014:144002042"/>
    <tag k="tiger:zip_left" v="90630"/>
    <tag k="tiger:zip_left_1" v="90680"/>
    <tag k="tiger:zip_right" v="90630"/>
  </way>
  <way id="14012981" version="2" timestamp="2010-04-07T15:55:57Z" uid="20587" user="balrog-kun" changeset="4355871">
    <nd ref="132936218"/>
    <nd ref="132889201"/>
    <tag k="highway" v="residential"/>
    <tag k="name" v="Paddock Street"/>
    <tag k="tiger:cfcc" v="A41"/>
    <tag k="tiger:county" v="Blaine, NE"/>
    <tag k="tiger:name_base" v="Paddock"/>
    <tag k="tiger:name_type" v="St"/>
    <tag k="tiger:reviewed" v="no"/>
    <tag k="tiger:separated" v="no"/>
    <tag k="tiger:source" v="tiger_import_dch_v0.6_20070828"/>
    <tag k="tiger:tlid" v="193722116"/>
  </way>
  <way id="14012984" version="2" timestamp="2010-04-07T15:55:58Z" uid="20587" user="balrog-kun" changeset="4355871">
    <nd ref="132889205"/>
    <nd ref="132936225"/>
    <nd ref="132891089"/>
    <nd ref="132889233"/>
    <nd ref="132936228"/>
    <nd ref="132936231"/>
    <nd ref="132936234"/>
    <nd ref="132936236"/>
    <nd ref="132936237"/>
    <nd ref="132936238"/>
    <nd ref="132936240"/>
    <nd ref="132930850"/>
    <tag k="highway" v="residential"/>
    <tag k="name" v="Paddock Street"/>
    <tag k="tiger:cfcc" v="A41"/>
    <tag k="tiger:county" v="Blaine, NE"/>
    <tag k="tiger:name_base" v="Paddock"/>
    <tag k="tiger:name_type" v="St"/>
    <tag k="tiger:reviewed" v="no"/>
    <tag k="tiger:separated" v="no"/>
    <tag k="tiger:source" v="tiger_import_dch_v0.6_20070828"/>
    <tag k="tiger:tlid" v="193722454:193722455:193719173"/>
  </way>
  <way id="14012986" version="2" timestamp="2010-04-07T15:55:58Z" uid="20587" user="balrog-kun" changeset="4355871">
    <nd ref="132881501"/>
    <nd ref="132936254"/>
    <nd ref="132901783"/>
    <nd ref="132901755"/>
    <nd ref="132936257"/>
    <nd ref="132936259"/>
    <nd ref="132936262"/>
    <nd ref="132936266"/>
    <nd ref="132936268"/>
    <nd ref="132936270"/>
    <nd ref="132889190"/>
    <tag k="highway" v="residential"/>
    <tag k="name" v="Dorsey Street"/>
    <tag k="tiger:cfcc" v="A41"/>
    <tag k="tiger:county" v="Blaine, NE"/>
    <tag k="tiger:name_base" v="Dorsey"/>
    <tag k="tiger:name_type" v="St"/>
    <tag k="tiger:reviewed" v="no"/>
    <tag k="tiger:separated" v="no"/>
    <tag k="tiger:source" v="tiger_import_dch_v0.6_20070828"/>
    <tag k="tiger:tlid" v="193722460:193722461:193722458:193719182"/>
  </way>
  <way id="14012988" version="2" timestamp="2010-04-07T15:55:59Z" uid="20587" user="balrog-kun" changeset="4355871">
    <nd ref="132936259"/>
    <nd ref="132936281"/>
    <nd ref="132936284"/>
    <nd ref="132936218"/>
    <nd ref="132936286"/>
    <nd ref="132901677"/>
    <nd ref="132936288"/>
    <nd ref="132936291"/>
    <nd ref="132936294"/>
    <nd ref="132936296"/>
    <nd ref="132880294"/>
    <tag k="highway" v="residential"/>
    <tag k="name" v="Barton Avenue"/>
    <tag k="tiger:cfcc" v="A41"/>
    <tag k="tiger:county" v="Blaine, NE"/>
    <tag k="tiger:name_base" v="Barton"/>
    <tag k="tiger:name_type" v="Ave"/>
    <tag k="tiger:reviewed" v="no"/>
    <tag k="tiger:separated" v="no"/>
    <tag k="tiger:source" v="tiger_import_dch_v0.6_20070828"/>
    <tag k="tiger:tlid" v="193719149:193722456:193722457:193719170:193719178"/>
  </way>
  <way id="14012989" version="2" timestamp="2010-04-07T15:55:59Z" uid="20587" user="balrog-kun" changeset="4355871">
    <nd ref="132883361"/>
    <nd ref="132883631"/>
    <nd ref="132936301"/>
    <nd ref="132879488"/>
    <nd ref="132930153"/>
    <nd ref="132930173"/>
    <nd ref="132930461"/>
    <nd ref="132936304"/>
    <nd ref="132936306"/>
    <tag k="highway" v="residential"/>
    <tag k="name" v="Rogers Avenue"/>
    <tag k="tiger:cfcc" v="A41"/>
    <tag k="tiger:county" v="Blaine, NE"/>
    <tag k="tiger:name_base" v="Rogers"/>
    <tag k="tiger:name_type" v="Ave"/>
    <tag k="tiger:reviewed" v="no"/>
    <tag k="tiger:separated" v="no"/>
    <tag k="tiger:source" v="tiger_import_dch_v0.6_20070828"/>
    <tag k="tiger:tlid" v="193720939:193722260:193722261:193722242:193722243:193720774:193720777"/>
  </way>
  <way id="14012991" version="2" timestamp="2010-04-07T15:55:59Z" uid="20587" user="balrog-kun" changeset="4355871">
    <nd ref="132889804"/>
    <nd ref="132936315"/>
    <nd ref="132936317"/>
    <nd ref="132889794"/>
    <nd ref="132936319"/>
    <nd ref="132880284"/>
    <tag k="highway" v="residential"/>
    <tag k="name" v="Grant Avenue"/>
    <tag k="tiger:cfcc" v="A41"/>
    <tag k="tiger:county" v="Blaine, NE"/>
    <tag k="tiger:name_base" v="Grant"/>
    <tag k="tiger:name_type" v="Ave"/>
    <tag k="tiger:reviewed" v="no"/>
    <tag k="tiger:separated" v="no"/>
    <tag k="tiger:source" v="tiger_import_dch_v0.6_20070828"/>
    <tag k="tiger:tlid" v="193719153:193719381"/>
  </way>
  <way id="14012992" version="2" timestamp="2010-04-07T15:55:59Z" uid="20587" user="balrog-kun" changeset="4355871">
    <nd ref="132889794"/>
    <nd ref="132936331"/>
    <nd ref="132892282"/>
    <nd ref="132936294"/>
    <nd ref="132936333"/>
    <nd ref="132936336"/>
    <nd ref="132889215"/>
    <nd ref="132912565"/>
    <nd ref="132936340"/>
    <nd ref="132936344"/>
    <nd ref="132889243"/>
    <nd ref="132936347"/>
    <nd ref="132936350"/>
    <nd ref="132936352"/>
    <nd ref="132936355"/>
    <nd ref="132903449"/>
    <tag k="highway" v="residential"/>
    <tag k="name" v="Laird Street"/>
    <tag k="tiger:cfcc" v="A41"/>
    <tag k="tiger:county" v="Blaine, NE"/>
    <tag k="tiger:name_base" v="Laird"/>
    <tag k="tiger:name_type" v="St"/>
    <tag k="tiger:reviewed" v="no"/>
    <tag k="tiger:separated" v="no"/>
    <tag k="tiger:source" v="tiger_import_dch_v0.6_20070828"/>
    <tag k="tiger:tlid" v="193719144:193719150:193719146:193719151:193719152:193719148"/>
  </way>
  <way id="14012050" version="8" timestamp="2012-07-17T01:15:35Z" uid="722137" user="OSMF Redaction Account" changeset="12254620">
    <nd ref="328191078"/>
    <nd ref="132921437"/>
    <nd ref="132921444"/>
    <nd ref="1049053948"/>
    <nd ref="506914729"/>
    <nd ref="132921456"/>
    <nd ref="132921461"/>
    <nd ref="417872817"/>
    <nd ref="132874313"/>
    <tag k="addr:city" v="Kitzbühel"/>
    <tag k="addr:country" v="AT"/>
    <tag k="addr:postcode" v="6370"/>
    <tag k="addr:street" v="Wagnerstraße"/>
    <tag k="highway" v="residential"/>
  </way>
  <way id="14012051" version="6" timestamp="2012-07-15T20:24:02Z" uid="57945" user="simon04" changeset="12235514">
    <nd ref="132921477"/>
    <nd ref="1075593466"/>
    <nd ref="328457217"/>
    <nd ref="328191078"/>
    <nd ref="132921482"/>
    <tag k="highway" v="unclassified"/>
    <tag k="is_in:city" v="Kitzbühel"/>
    <tag k="is_in:country_code" v="AT"/>
    <tag k="name" v="Traunsteinerweg"/>
    <tag k="postal_code" v="6370"/>
  </way>
  <way id="14012051" version="7" timestamp="2012-07-17T01:15:37Z" uid="722137" user="OSMF Redaction Account" changeset="12254620">
    <nd ref="132921477"/>
    <nd ref="1075593466"/>
    <nd ref="328457217"/>
    <nd ref="328191078"/>
    <nd ref="132921482"/>
    <tag k="addr:city" v="Kitzbühel"/>
    <tag k="addr:country" v="AT"/>
    <tag k="addr:postcode" v="6370"/>
    <tag k="addr:street" v="Traunsteinerweg"/>
    <tag k="highway" v="unclassified"/>
  </way>
  <way id="14012051" version="8" timestamp="2012-07-24T21:13:08Z" uid="133777" user="moserhe4" changeset="12476658">
    <nd ref="132921477"/>
    <nd ref="1837010569"/>
    <tag k="addr:city" v="Kitzbühel"/>
    <tag k="addr:country" v="AT"/>
    <tag k="addr:postcode" v="6370"/>
    <tag k="addr:street" v="Traunsteinerweg"/>
    <tag k="highway" v="unclassified"/>
  </way>
  <way id="14012053" version="12" timestamp="2012-07-17T01:15:33Z" uid="722137" user="OSMF Redaction Account" changeset="12254620">
    <nd ref="132921532"/>
    <nd ref="132921528"/>
    <nd ref="1606657276"/>
    <tag k="addr:city" v="Kitzbühel"/>
    <tag k="addr:country" v="AT"/>
    <tag k="addr:postcode" v="6370"/>
    <tag k="addr:street" v="Im Gries"/>
    <tag k="highway" v="residential"/>
  </way>
  <way id="14012055" version="6" timestamp="2012-07-17T01:15:40Z" uid="722137" user="OSMF Redaction Account" changeset="12254620">
    <nd ref="132921532"/>
    <nd ref="132921538"/>
    <nd ref="1074985612"/>
    <nd ref="132921543"/>
    <tag k="addr:city" v="Kitzbühel"/>
    <tag k="addr:country" v="AT"/>
    <tag k="addr:postcode" v="6370"/>
    <tag k="addr:street" v="Fischlechnerplatz"/>
    <tag k="highway" v="residential"/>
  </way>
  <way id="14012055" version="7" timestamp="2012-07-24T21:13:09Z" uid="133777" user="moserhe4" changeset="12476658">
    <nd ref="132921532"/>
    <nd ref="132921538"/>
    <nd ref="1837010632"/>
    <nd ref="1074985612"/>
    <nd ref="132921543"/>
    <tag k="addr:city" v="Kitzbühel"/>
    <tag k="addr:country" v="AT"/>
    <tag k="addr:postcode" v="6370"/>
    <tag k="addr:street" v="Fischlechnerplatz"/>
    <tag k="highway" v="residential"/>
  </way>
  <way id="14012763" version="5" timestamp="2012-07-18T15:12:04Z" uid="722137" user="OSMF Redaction Account" changeset="12286400"/>
</osm>
