<?xml version='1.0' encoding='UTF-8'?>
<osm version="0.6" generator="libosmium/2.20.0">
  <way id="14239593" version="2" timestamp="2010-03-27T22:52:24Z" uid="20587" user="balrog-kun" changeset="4250464">
    <nd ref="21568845"/>
    <nd ref="21383572"/>
    <nd ref="21476997"/>
    <nd ref="21383573"/>
    <nd ref="21383574"/>
    <tag k="created_by" v="JOSM"/>
    <tag k="highway" v="residential"/>
    <tag k="name" v="Hub Street"/>
  </way>
  <way id="14239698" version="1" timestamp="2007-11-27T04:19:17Z" uid="18775" user="drlizau" changeset="629602">
    <nd ref="136328840"/>
    <nd ref="136328873"/>
    <nd ref="136328904"/>
    <tag k="created_by" v="JOSM"/>
    <tag k="highway" v="unclassified"/>
    <tag k="name" v="McLean Road"/>
  </way>
  <way id="14239698" version="2" timestamp="2007-11-27T04:29:00Z" uid="18775" user="drlizau" changeset="629602">
    <nd ref="136328840"/>
    <nd ref="136328873"/>
    <nd ref="136328904"/>
    <tag k="created_by" v="JOSM"/>
    <tag k="highway" v="unclassified"/>
    <tag k="name" v="McLean Road"/>
    <tag k="surface" v="unpaved"/>
  </way>
  <way id="14239698" version="3" timestamp="2007-11-27T07:26:26Z" uid="18775" user="drlizau" changeset="629884">
    <nd ref="136638366"/>
    <nd ref="136328840"/>
    <nd ref="136328873"/>
    <nd ref="136328904"/>
    <tag k="created_by" v="JOSM"/>
    <tag k="highway" v="unclassified"/>
    <tag k="name" v="McLean Road"/>
    <tag k="surface" v="unpaved"/>
  </way>
  <way id="14239698" version="4" timestamp="2007-12-11T03:19:57Z" uid="18775" user="drlizau" changeset="264676">
    <nd ref="136638366"/>
    <nd ref="136328840"/>
    <nd ref="136328873"/>
    <nd ref="136328904"/>
    <tag k="created_by" v="JOSM"/>
    <tag k="highway" v="unclassified"/>
    <tag k="name" v="McLean Road"/>
    <tag k="surface" v="unpaved"/>
  </way>
  <way id="14239698" version="5" timestamp="2007-12-11T03:20:42Z" uid="18775" user="drlizau" changeset="264676">
    <nd ref="136638366"/>
    <nd ref="136328840"/>
    <nd ref="136328873"/>
    <nd ref="136328904"/>
    <tag k="created_by" v="JOSM"/>
    <tag k="highway" v="unclassified"/>
    <tag k="name" v="McLean Road"/>
    <tag k="surface" v="unpaved"/>
  </way>
  <way id="14239698" version="6" timestamp="2007-12-11T03:21:20Z" uid="18775" user="drlizau" changeset="264676">
    <nd ref="136638366"/>
    <nd ref="136328840"/>
    <nd ref="136328873"/>
    <nd ref="136328904"/>
    <tag k="created_by" v="JOSM"/>
    <tag k="highway" v="unclassified"/>
    <tag k="name" v="McLean Road"/>
    <tag k="surface" v="unpaved"/>
  </way>
  <way id="14239698" version="7" timestamp="2007-12-11T03:21:39Z" uid="18775" user="drlizau" changeset="264676">
    <nd ref="136638366"/>
    <nd ref="136328840"/>
    <nd ref="136328873"/>
    <nd ref="136328904"/>
    <tag k="created_by" v="JOSM"/>
    <tag k="highway" v="unclassified"/>
    <tag k="name" v="McLean Road"/>
    <tag k="surface" v="unpaved"/>
  </way>
  <way id="14239698" version="8" timestamp="2008-03-03T22:16:50Z" uid="18775" user="drlizau" changeset="263253">
    <nd ref="136638366"/>
    <nd ref="136328840"/>
    <nd ref="250412764"/>
    <nd ref="136328873"/>
    <nd ref="136328904"/>
    <tag k="created_by" v="JOSM"/>
    <tag k="highway" v="unclassified"/>
    <tag k="name" v="McLean Road"/>
    <tag k="surface" v="unpaved"/>
  </way>
  <way id="14239698" version="9" timestamp="2008-08-12T10:36:34Z" uid="19626" user="Swamp" changeset="208445">
    <nd ref="136638366"/>
    <nd ref="136328840"/>
    <nd ref="287242454"/>
    <tag k="created_by" v="JOSM"/>
    <tag k="highway" v="unclassified"/>
    <tag k="name" v="McLean Road"/>
    <tag k="surface" v="unpaved"/>
  </way>
  <way id="14239698" version="10" timestamp="2008-09-06T09:59:56Z" uid="19626" user="Swamp" changeset="552196">
    <nd ref="136638366"/>
    <nd ref="136328840"/>
    <nd ref="287242454"/>
    <tag k="created_by" v="JOSM"/>
    <tag k="highway" v="unclassified"/>
    <tag k="name" v="McLean Road"/>
    <tag k="surface" v="unpaved"/>
  </way>
  <way id="14239698" version="11" timestamp="2008-09-07T03:54:52Z" uid="18775" user="drlizau" changeset="557548">
    <nd ref="136638366"/>
    <nd ref="294398814"/>
    <nd ref="136328840"/>
    <nd ref="287242454"/>
    <tag k="created_by" v="JOSM"/>
    <tag k="highway" v="unclassified"/>
    <tag k="name" v="McLean Road"/>
    <tag k="surface" v="unpaved"/>
  </way>
  <way id="14239698" version="12" timestamp="2010-12-16T02:19:12Z" uid="18775" user="drlizau" changeset="6673344">
    <nd ref="136638366"/>
    <nd ref="294398814"/>
    <nd ref="136328840"/>
    <nd ref="287242454"/>
    <tag k="highway" v="unclassified"/>
    <tag k="name" v="McLean Road"/>
    <tag k="source" v="survey"/>
    <tag k="surface" v="unpaved"/>
  </way>
  <way id="14239785" version="4" timestamp="2010-07-03T22:20:24Z" uid="4467" user="Rosscoe" changeset="5128573">
    <nd ref="136278961"/>
    <nd ref="136241401"/>
    <nd ref="136287105"/>
    <nd ref="136263223"/>
    <nd ref="136275236"/>
    <nd ref="136233235"/>
    <tag k="highway" v="residential"/>
    <tag k="name" v="Logan Street"/>
    <tag k="old_ref_legislative" v="44029"/>
    <tag k="tiger:cfcc" v="A41"/>
    <tag k="tiger:county" v="Mifflin, PA"/>
    <tag k="tiger:name_base" v="Logan"/>
    <tag k="tiger:name_type" v="St"/>
    <tag k="tiger:reviewed" v="no"/>
    <tag k="tiger:separated" v="no"/>
    <tag k="tiger:source" v="tiger_import_dch_v0.6_20070829"/>
    <tag k="tiger:tlid" v="48027292:48016419:48016437:48022650:48022649:48016455:48016495:48016388"/>
    <tag k="tiger:upload_uuid" v="bulk_upload.pl-4db5ef2d-f327-4d8f-b479-bac6fd8fa3cf"/>
    <tag k="tiger:zip_left" v="17044"/>
    <tag k="tiger:zip_right" v="17044"/>
  </way>
  <way id="14239785" version="5" timestamp="2012-03-04T10:28:48Z" uid="252811" user="rickmastfan67" changeset="10866632">
    <nd ref="136233235"/>
    <nd ref="136275236"/>
    <nd ref="136263223"/>
    <nd ref="136287105"/>
    <nd ref="136241401"/>
    <nd ref="136278961"/>
    <tag k="highway" v="residential"/>
    <tag k="lanes" v="1"/>
    <tag k="name" v="Logan Street"/>
    <tag k="odbl" v="clean"/>
    <tag k="odbl:note" v="The &quot;Declining&quot; user only expanded the road name (St &gt; Street). It can be considered as a trivial edit, thus the way is clean."/>
    <tag k="old_ref_legislative" v="44029"/>
    <tag k="oneway" v="yes"/>
    <tag k="tiger:cfcc" v="A41"/>
    <tag k="tiger:county" v="Mifflin, PA"/>
    <tag k="tiger:name_base" v="Logan"/>
    <tag k="tiger:name_type" v="St"/>
    <tag k="tiger:reviewed" v="no"/>
    <tag k="tiger:separated" v="no"/>
    <tag k="tiger:source" v="tiger_import_dch_v0.6_20070829"/>
    <tag k="tiger:tlid" v="48027292:48016419:48016437:48022650:48022649:48016455:48016495:48016388"/>
    <tag k="tiger:upload_uuid" v="bulk_upload.pl-4db5ef2d-f327-4d8f-b479-bac6fd8fa3cf"/>
    <tag k="tiger:zip_left" v="17044"/>
    <tag k="tiger:zip_right" v="17044"/>
  </way>
  <way id="14239593" version="3" timestamp="2012-06-11T22:13:01Z" uid="104962" user="techlady" changeset="11868997"/>
  <way id="14239698" version="13" timestamp="2012-07-19T07:43:39Z" uid="722137" user="OSMF Redaction Account" changeset="12312432"/>
</osm>
