<?xml version='1.0' encoding='UTF-8'?>
<osm version="0.6" generator="libosmium/2.20.0">
  <way id="14252022" version="2" timestamp="2009-11-19T00:46:57Z" uid="30201" user="rrankin" changeset="3156177">
    <nd ref="136543406"/>
    <nd ref="136543407"/>
    <tag k="highway" v="residential"/>
    <tag k="name" v="Yallambee Court"/>
  </way>
  <way id="14252022" version="3" timestamp="2010-07-08T01:38:56Z" uid="74617" user="JohnSmith" changeset="5162525">
    <nd ref="136543406"/>
    <nd ref="136543407"/>
    <tag k="highway" v="residential"/>
    <tag k="maxspeed" v="50"/>
    <tag k="maxspeed:source" v="default residential speed limit in Australia"/>
    <tag k="name" v="Yallambee Court"/>
  </way>
  <way id="14252022" version="4" timestamp="2012-01-15T12:24:51Z" uid="147510" user="woodpeck_fixbot" changeset="10396281">
    <nd ref="136543406"/>
    <nd ref="136543407"/>
    <tag k="highway" v="residential"/>
    <tag k="name" v="Yallambee Court"/>
  </way>
  <way id="14252025" version="2" timestamp="2009-11-19T00:46:57Z" uid="30201" user="rrankin" changeset="3156177">
    <nd ref="136543419"/>
    <nd ref="136543421"/>
    <nd ref="136543422"/>
    <tag k="highway" v="residential"/>
    <tag k="name" v="Broula Avenue"/>
  </way>
  <way id="14252025" version="3" timestamp="2009-12-02T09:43:49Z" uid="1679" user="andrewpmk" changeset="3270074">
    <nd ref="136543419"/>
    <nd ref="577500062"/>
    <nd ref="136543421"/>
    <nd ref="577500063"/>
    <nd ref="577500064"/>
    <nd ref="136543422"/>
    <tag k="highway" v="residential"/>
    <tag k="name" v="Broula Avenue"/>
  </way>
  <way id="14252025" version="4" timestamp="2010-07-08T01:34:43Z" uid="74617" user="JohnSmith" changeset="5162525">
    <nd ref="136543419"/>
    <nd ref="577500062"/>
    <nd ref="136543421"/>
    <nd ref="577500063"/>
    <nd ref="577500064"/>
    <nd ref="136543422"/>
    <tag k="highway" v="residential"/>
    <tag k="maxspeed" v="50"/>
    <tag k="maxspeed:source" v="default residential speed limit in Australia"/>
    <tag k="name" v="Broula Avenue"/>
  </way>
  <way id="14252025" version="5" timestamp="2012-01-15T12:24:52Z" uid="147510" user="woodpeck_fixbot" changeset="10396281">
    <nd ref="136543419"/>
    <nd ref="577500062"/>
    <nd ref="136543421"/>
    <nd ref="577500063"/>
    <nd ref="577500064"/>
    <nd ref="136543422"/>
    <tag k="highway" v="residential"/>
    <tag k="name" v="Broula Avenue"/>
  </way>
  <way id="14252037" version="3" timestamp="2009-11-19T00:44:34Z" uid="30201" user="rrankin" changeset="3156177">
    <nd ref="136543546"/>
    <nd ref="136543547"/>
    <nd ref="136544597"/>
    <nd ref="136543549"/>
    <nd ref="136543551"/>
    <tag k="highway" v="residential"/>
    <tag k="name" v="Yawung Avenue"/>
  </way>
  <way id="14252037" version="4" timestamp="2009-12-02T09:40:17Z" uid="1679" user="andrewpmk" changeset="3270074">
    <nd ref="136543546"/>
    <nd ref="136543547"/>
    <nd ref="577499926"/>
    <nd ref="136544597"/>
    <nd ref="136543549"/>
    <nd ref="136543551"/>
    <tag k="highway" v="residential"/>
    <tag k="name" v="Yawung Avenue"/>
  </way>
  <way id="14252037" version="5" timestamp="2010-07-08T01:34:49Z" uid="74617" user="JohnSmith" changeset="5162525">
    <nd ref="136543546"/>
    <nd ref="136543547"/>
    <nd ref="577499926"/>
    <nd ref="136544597"/>
    <nd ref="136543549"/>
    <nd ref="136543551"/>
    <tag k="highway" v="residential"/>
    <tag k="maxspeed" v="50"/>
    <tag k="maxspeed:source" v="default residential speed limit in Australia"/>
    <tag k="name" v="Yawung Avenue"/>
  </way>
  <way id="14252037" version="6" timestamp="2011-02-26T07:10:12Z" uid="7617" user="Franc" changeset="7396977">
    <nd ref="136543546"/>
    <nd ref="136543547"/>
    <nd ref="1173988517"/>
    <nd ref="577499926"/>
    <nd ref="136544597"/>
    <nd ref="136543549"/>
    <nd ref="1173988640"/>
    <nd ref="136543551"/>
    <tag k="highway" v="residential"/>
    <tag k="maxspeed" v="50"/>
    <tag k="maxspeed:source" v="default residential speed limit in Australia"/>
    <tag k="name" v="Yawung Avenue"/>
  </way>
  <way id="14252037" version="7" timestamp="2012-01-15T12:24:54Z" uid="147510" user="woodpeck_fixbot" changeset="10396281">
    <nd ref="136543546"/>
    <nd ref="136543547"/>
    <nd ref="1173988517"/>
    <nd ref="577499926"/>
    <nd ref="136544597"/>
    <nd ref="136543549"/>
    <nd ref="1173988640"/>
    <nd ref="136543551"/>
    <tag k="highway" v="residential"/>
    <tag k="name" v="Yawung Avenue"/>
  </way>
  <way id="14252086" version="2" timestamp="2009-11-19T00:44:34Z" uid="30201" user="rrankin" changeset="3156177">
    <nd ref="136544591"/>
    <nd ref="136544593"/>
    <nd ref="136544594"/>
    <nd ref="136544595"/>
    <nd ref="136544596"/>
    <nd ref="136544597"/>
    <tag k="highway" v="residential"/>
    <tag k="name" v="Gumbuya Avenue"/>
  </way>
  <way id="14252086" version="3" timestamp="2009-12-02T09:42:01Z" uid="1679" user="andrewpmk" changeset="3270074">
    <nd ref="136544591"/>
    <nd ref="136544593"/>
    <nd ref="577499962"/>
    <nd ref="577499963"/>
    <nd ref="136544594"/>
    <nd ref="577499964"/>
    <nd ref="136544595"/>
    <nd ref="577499965"/>
    <nd ref="136544596"/>
    <nd ref="136544597"/>
    <tag k="highway" v="residential"/>
    <tag k="name" v="Gumbuya Avenue"/>
  </way>
  <way id="14252086" version="4" timestamp="2010-07-08T01:36:39Z" uid="74617" user="JohnSmith" changeset="5162525">
    <nd ref="136544591"/>
    <nd ref="136544593"/>
    <nd ref="577499962"/>
    <nd ref="577499963"/>
    <nd ref="136544594"/>
    <nd ref="577499964"/>
    <nd ref="136544595"/>
    <nd ref="577499965"/>
    <nd ref="136544596"/>
    <nd ref="136544597"/>
    <tag k="highway" v="residential"/>
    <tag k="maxspeed" v="50"/>
    <tag k="maxspeed:source" v="default residential speed limit in Australia"/>
    <tag k="name" v="Gumbuya Avenue"/>
  </way>
  <way id="14252086" version="5" timestamp="2012-01-15T12:24:56Z" uid="147510" user="woodpeck_fixbot" changeset="10396281">
    <nd ref="136544591"/>
    <nd ref="136544593"/>
    <nd ref="577499962"/>
    <nd ref="577499963"/>
    <nd ref="136544594"/>
    <nd ref="577499964"/>
    <nd ref="136544595"/>
    <nd ref="577499965"/>
    <nd ref="136544596"/>
    <nd ref="136544597"/>
    <tag k="highway" v="residential"/>
    <tag k="name" v="Gumbuya Avenue"/>
  </way>
  <way id="14252144" version="2" timestamp="2009-11-19T00:44:36Z" uid="30201" user="rrankin" changeset="3156177">
    <nd ref="136545625"/>
    <nd ref="136543419"/>
    <nd ref="136543546"/>
    <nd ref="136544591"/>
    <nd ref="136545626"/>
    <nd ref="136545628"/>
    <tag k="highway" v="residential"/>
    <tag k="name" v="Warumbui Avenue"/>
  </way>
  <way id="14252144" version="3" timestamp="2009-12-02T09:43:49Z" uid="1679" user="andrewpmk" changeset="3270074">
    <nd ref="136545625"/>
    <nd ref="136543419"/>
    <nd ref="577500060"/>
    <nd ref="136543546"/>
    <nd ref="577500061"/>
    <nd ref="136544591"/>
    <nd ref="136545626"/>
    <nd ref="136545628"/>
    <tag k="highway" v="residential"/>
    <tag k="name" v="Warumbui Avenue"/>
  </way>
  <way id="14252144" version="4" timestamp="2010-07-08T01:36:51Z" uid="74617" user="JohnSmith" changeset="5162525">
    <nd ref="136545625"/>
    <nd ref="136543419"/>
    <nd ref="577500060"/>
    <nd ref="136543546"/>
    <nd ref="577500061"/>
    <nd ref="136544591"/>
    <nd ref="136545626"/>
    <nd ref="136545628"/>
    <tag k="highway" v="residential"/>
    <tag k="maxspeed" v="50"/>
    <tag k="maxspeed:source" v="default residential speed limit in Australia"/>
    <tag k="name" v="Warumbui Avenue"/>
  </way>
  <way id="14252144" version="5" timestamp="2011-02-26T08:34:34Z" uid="7617" user="Franc" changeset="7397471">
    <nd ref="136545625"/>
    <nd ref="136543419"/>
    <nd ref="577500060"/>
    <nd ref="136543546"/>
    <nd ref="577500061"/>
    <nd ref="136544591"/>
    <nd ref="1174066949"/>
    <nd ref="1174066891"/>
    <nd ref="136545626"/>
    <nd ref="136545628"/>
    <tag k="highway" v="residential"/>
    <tag k="maxspeed" v="50"/>
    <tag k="maxspeed:source" v="default residential speed limit in Australia"/>
    <tag k="name" v="Warumbui Avenue"/>
  </way>
  <way id="14252144" version="6" timestamp="2012-01-15T12:24:57Z" uid="147510" user="woodpeck_fixbot" changeset="10396281">
    <nd ref="136545625"/>
    <nd ref="136543419"/>
    <nd ref="577500060"/>
    <nd ref="136543546"/>
    <nd ref="577500061"/>
    <nd ref="136544591"/>
    <nd ref="1174066949"/>
    <nd ref="1174066891"/>
    <nd ref="136545626"/>
    <nd ref="136545628"/>
    <tag k="highway" v="residential"/>
    <tag k="name" v="Warumbui Avenue"/>
  </way>
  <way id="14252167" version="2" timestamp="2009-11-19T00:44:41Z" uid="30201" user="rrankin" changeset="3156177">
    <nd ref="136546209"/>
    <nd ref="136546210"/>
    <tag k="highway" v="residential"/>
    <tag k="name" v="Birriwa Place"/>
  </way>
  <way id="14252167" version="3" timestamp="2010-07-08T01:38:43Z" uid="74617" user="JohnSmith" changeset="5162525">
    <nd ref="136546209"/>
    <nd ref="136546210"/>
    <tag k="highway" v="residential"/>
    <tag k="maxspeed" v="50"/>
    <tag k="maxspeed:source" v="default residential speed limit in Australia"/>
    <tag k="name" v="Birriwa Place"/>
  </way>
  <way id="14252167" version="4" timestamp="2012-01-15T12:24:59Z" uid="147510" user="woodpeck_fixbot" changeset="10396281">
    <nd ref="136546209"/>
    <nd ref="136546210"/>
    <tag k="highway" v="residential"/>
    <tag k="name" v="Birriwa Place"/>
  </way>
  <way id="14252183" version="2" timestamp="2009-11-19T00:44:43Z" uid="30201" user="rrankin" changeset="3156177">
    <nd ref="136546562"/>
    <nd ref="136546563"/>
    <tag k="highway" v="residential"/>
    <tag k="name" v="Dalman Place"/>
  </way>
  <way id="14252183" version="3" timestamp="2010-07-08T01:35:40Z" uid="74617" user="JohnSmith" changeset="5162525">
    <nd ref="136546562"/>
    <nd ref="136546563"/>
    <tag k="highway" v="residential"/>
    <tag k="maxspeed" v="50"/>
    <tag k="maxspeed:source" v="default residential speed limit in Australia"/>
    <tag k="name" v="Dalman Place"/>
  </way>
  <way id="14252183" version="4" timestamp="2012-01-15T12:25:00Z" uid="147510" user="woodpeck_fixbot" changeset="10396281">
    <nd ref="136546562"/>
    <nd ref="136546563"/>
    <tag k="highway" v="residential"/>
    <tag k="name" v="Dalman Place"/>
  </way>
  <way id="14252212" version="2" timestamp="2009-11-19T00:44:39Z" uid="30201" user="rrankin" changeset="3156177">
    <nd ref="136547114"/>
    <nd ref="136547115"/>
    <nd ref="136547117"/>
    <tag k="highway" v="residential"/>
    <tag k="name" v="Leumeah Avenue"/>
  </way>
  <way id="14252212" version="3" timestamp="2009-12-02T09:39:23Z" uid="1679" user="andrewpmk" changeset="3270074">
    <nd ref="136547114"/>
    <nd ref="136547115"/>
    <nd ref="577499895"/>
    <nd ref="136547117"/>
    <tag k="highway" v="residential"/>
    <tag k="name" v="Leumeah Avenue"/>
  </way>
  <way id="14252212" version="4" timestamp="2010-04-19T13:40:00Z" uid="4467" user="Rosscoe" changeset="4467919">
    <nd ref="136547114"/>
    <nd ref="136547115"/>
    <nd ref="577499895"/>
    <nd ref="701857804"/>
    <tag k="highway" v="residential"/>
    <tag k="name" v="Leumeah Avenue"/>
  </way>
  <way id="14252212" version="5" timestamp="2010-07-08T01:39:08Z" uid="74617" user="JohnSmith" changeset="5162525">
    <nd ref="136547114"/>
    <nd ref="136547115"/>
    <nd ref="577499895"/>
    <nd ref="701857804"/>
    <tag k="highway" v="residential"/>
    <tag k="maxspeed" v="50"/>
    <tag k="maxspeed:source" v="default residential speed limit in Australia"/>
    <tag k="name" v="Leumeah Avenue"/>
  </way>
  <way id="14252212" version="6" timestamp="2012-01-15T12:25:01Z" uid="147510" user="woodpeck_fixbot" changeset="10396281">
    <nd ref="136547114"/>
    <nd ref="136547115"/>
    <nd ref="577499895"/>
    <nd ref="701857804"/>
    <tag k="highway" v="residential"/>
    <tag k="name" v="Leumeah Avenue"/>
  </way>
  <way id="14252405" version="6" timestamp="2010-07-03T23:06:58Z" uid="4467" user="Rosscoe" changeset="5128847">
    <nd ref="136197703"/>
    <nd ref="136551455"/>
    <nd ref="136551458"/>
    <nd ref="136551461"/>
    <nd ref="136551462"/>
    <nd ref="136551463"/>
    <nd ref="136551466"/>
    <nd ref="136551470"/>
    <nd ref="136551474"/>
    <nd ref="318699121"/>
    <nd ref="318699209"/>
    <nd ref="136551477"/>
    <nd ref="136551480"/>
    <nd ref="136551482"/>
    <nd ref="136551486"/>
    <nd ref="136551490"/>
    <nd ref="136551494"/>
    <nd ref="136551498"/>
    <nd ref="136013208"/>
    <tag k="highway" v="primary"/>
    <tag k="name" v="Quarry Road"/>
    <tag k="old_ref_legislative" v="15093"/>
    <tag k="ref" v="US 322 Truck"/>
    <tag k="tiger:cfcc" v="A41"/>
    <tag k="tiger:county" v="Chester, PA"/>
    <tag k="tiger:name_base" v="Quarry"/>
    <tag k="tiger:name_type" v="Rd"/>
    <tag k="tiger:reviewed" v="no"/>
    <tag k="tiger:separated" v="no"/>
    <tag k="tiger:source" v="tiger_import_dch_v0.6_20070829"/>
    <tag k="tiger:tlid" v="179547300:179600100:179600101"/>
    <tag k="tiger:upload_uuid" v="bulk_upload.pl-4691f7aa-7be6-435d-b76b-38d6f525be55"/>
  </way>
  <way id="14252405" version="7" timestamp="2010-07-21T03:22:35Z" uid="278150" user="GeoTomDe" changeset="5275712">
    <nd ref="136197703"/>
    <nd ref="136551455"/>
    <nd ref="136551458"/>
    <nd ref="136551461"/>
    <nd ref="136551462"/>
    <nd ref="136551463"/>
    <nd ref="136551466"/>
    <nd ref="136551470"/>
    <nd ref="136551474"/>
    <nd ref="827126205"/>
    <nd ref="318699121"/>
    <nd ref="318699209"/>
    <nd ref="827126204"/>
    <nd ref="136551477"/>
    <nd ref="136551480"/>
    <nd ref="136551482"/>
    <nd ref="136551486"/>
    <nd ref="136551490"/>
    <nd ref="136551494"/>
    <nd ref="136551498"/>
    <nd ref="136013208"/>
    <tag k="highway" v="primary"/>
    <tag k="name" v="Quarry Road"/>
    <tag k="old_ref_legislative" v="15093"/>
    <tag k="ref" v="US 322 Truck"/>
    <tag k="tiger:cfcc" v="A41"/>
    <tag k="tiger:county" v="Chester, PA"/>
    <tag k="tiger:name_base" v="Quarry"/>
    <tag k="tiger:name_type" v="Rd"/>
    <tag k="tiger:reviewed" v="no"/>
    <tag k="tiger:separated" v="no"/>
    <tag k="tiger:source" v="tiger_import_dch_v0.6_20070829"/>
    <tag k="tiger:tlid" v="179547300:179600100:179600101"/>
    <tag k="tiger:upload_uuid" v="bulk_upload.pl-4691f7aa-7be6-435d-b76b-38d6f525be55"/>
  </way>
  <way id="14252405" version="8" timestamp="2010-10-25T15:27:32Z" uid="153669" user="dchiles" changeset="6174338">
    <nd ref="136197703"/>
    <nd ref="136551455"/>
    <nd ref="136551458"/>
    <nd ref="136551461"/>
    <nd ref="136551462"/>
    <nd ref="964939359"/>
    <nd ref="136551463"/>
    <nd ref="136551466"/>
    <nd ref="136551470"/>
    <nd ref="136551474"/>
    <nd ref="827126205"/>
    <nd ref="318699121"/>
    <nd ref="318699209"/>
    <nd ref="827126204"/>
    <nd ref="136551477"/>
    <nd ref="136551480"/>
    <nd ref="136551482"/>
    <nd ref="136551486"/>
    <nd ref="136551490"/>
    <nd ref="136551494"/>
    <nd ref="136551498"/>
    <nd ref="136013208"/>
    <tag k="highway" v="primary"/>
    <tag k="name" v="Quarry Road"/>
    <tag k="old_ref_legislative" v="15093"/>
    <tag k="ref" v="US 322 Truck"/>
    <tag k="tiger:cfcc" v="A41"/>
    <tag k="tiger:county" v="Chester, PA"/>
    <tag k="tiger:name_base" v="Quarry"/>
    <tag k="tiger:name_type" v="Rd"/>
    <tag k="tiger:reviewed" v="no"/>
    <tag k="tiger:separated" v="no"/>
    <tag k="tiger:source" v="tiger_import_dch_v0.6_20070829"/>
    <tag k="tiger:tlid" v="179547300:179600100:179600101"/>
    <tag k="tiger:upload_uuid" v="bulk_upload.pl-4691f7aa-7be6-435d-b76b-38d6f525be55"/>
  </way>
  <way id="14252405" version="9" timestamp="2011-11-28T12:40:32Z" uid="207745" user="NE2" changeset="9977397">
    <nd ref="136197703"/>
    <nd ref="136551455"/>
    <nd ref="136551458"/>
    <nd ref="136551461"/>
    <nd ref="136551462"/>
    <nd ref="964939359"/>
    <nd ref="136551463"/>
    <nd ref="136551466"/>
    <nd ref="136551470"/>
    <nd ref="136551474"/>
    <nd ref="827126205"/>
    <nd ref="318699121"/>
    <nd ref="318699209"/>
    <nd ref="827126204"/>
    <nd ref="136551477"/>
    <nd ref="136551480"/>
    <nd ref="136551482"/>
    <nd ref="136551486"/>
    <nd ref="136551490"/>
    <nd ref="136551494"/>
    <nd ref="136551498"/>
    <nd ref="136013208"/>
    <tag k="hgv" v="designated"/>
    <tag k="highway" v="primary"/>
    <tag k="name" v="Quarry Road"/>
    <tag k="old_ref_legislative" v="15093"/>
    <tag k="ref" v="US 322 Truck"/>
    <tag k="tiger:cfcc" v="A41"/>
    <tag k="tiger:county" v="Chester, PA"/>
    <tag k="tiger:name_base" v="Quarry"/>
    <tag k="tiger:name_type" v="Rd"/>
    <tag k="tiger:reviewed" v="no"/>
    <tag k="tiger:separated" v="no"/>
    <tag k="tiger:source" v="tiger_import_dch_v0.6_20070829"/>
    <tag k="tiger:tlid" v="179547300:179600100:179600101"/>
    <tag k="tiger:upload_uuid" v="bulk_upload.pl-4691f7aa-7be6-435d-b76b-38d6f525be55"/>
  </way>
  <way id="14252405" version="10" timestamp="2012-01-15T06:21:37Z" uid="396743" user="choess" changeset="10394895">
    <nd ref="136197703"/>
    <nd ref="136551455"/>
    <nd ref="136551458"/>
    <nd ref="136551461"/>
    <nd ref="136551462"/>
    <nd ref="964939359"/>
    <nd ref="136551463"/>
    <nd ref="136551466"/>
    <nd ref="136551470"/>
    <nd ref="136551474"/>
    <nd ref="827126205"/>
    <nd ref="318699121"/>
    <nd ref="318699209"/>
    <nd ref="827126204"/>
    <nd ref="136551477"/>
    <nd ref="136551480"/>
    <nd ref="136551482"/>
    <nd ref="136396314"/>
    <nd ref="136551490"/>
    <nd ref="136551494"/>
    <nd ref="136551498"/>
    <nd ref="136013208"/>
    <tag k="hgv" v="designated"/>
    <tag k="highway" v="primary"/>
    <tag k="name" v="Quarry Road"/>
    <tag k="old_ref_legislative" v="15093"/>
    <tag k="ref" v="US 322 Truck"/>
    <tag k="tiger:cfcc" v="A41"/>
    <tag k="tiger:county" v="Chester, PA"/>
    <tag k="tiger:name_base" v="Quarry"/>
    <tag k="tiger:name_type" v="Rd"/>
    <tag k="tiger:reviewed" v="no"/>
    <tag k="tiger:separated" v="no"/>
    <tag k="tiger:source" v="tiger_import_dch_v0.6_20070829"/>
    <tag k="tiger:tlid" v="179547300:179600100:179600101"/>
    <tag k="tiger:upload_uuid" v="bulk_upload.pl-4691f7aa-7be6-435d-b76b-38d6f525be55"/>
  </way>
  <way id="14252547" version="1" timestamp="2007-11-27T06:35:04Z" uid="19626" user="Swamp" changeset="636150">
    <nd ref="136554602"/>
    <nd ref="136554625"/>
    <nd ref="136554636"/>
    <nd ref="136554637"/>
    <nd ref="136554645"/>
    <nd ref="136554668"/>
    <nd ref="136554692"/>
    <nd ref="136554716"/>
    <nd ref="136554743"/>
    <nd ref="136554769"/>
    <nd ref="136554796"/>
    <nd ref="136554822"/>
    <nd ref="136554848"/>
    <nd ref="136554874"/>
    <nd ref="136554891"/>
    <nd ref="130019127"/>
    <tag k="created_by" v="JOSM"/>
    <tag k="highway" v="unclassified"/>
    <tag k="name" v="Walsh Road"/>
  </way>
  <way id="14252547" version="2" timestamp="2008-11-09T06:17:28Z" uid="30201" user="rrankin" changeset="719919">
    <nd ref="136554602"/>
    <nd ref="136554625"/>
    <nd ref="136554636"/>
    <nd ref="136554637"/>
    <nd ref="136554645"/>
    <nd ref="136554668"/>
    <nd ref="136554692"/>
    <nd ref="136554716"/>
    <nd ref="136554743"/>
    <nd ref="136554769"/>
    <nd ref="136554796"/>
    <nd ref="136554822"/>
    <nd ref="136554848"/>
    <nd ref="136554874"/>
    <nd ref="136554891"/>
    <nd ref="130019127"/>
    <tag k="created_by" v="JOSM"/>
    <tag k="highway" v="unclassified"/>
    <tag k="name" v="Walsh Road"/>
  </way>
  <way id="14252547" version="3" timestamp="2009-07-23T00:52:11Z" uid="74617" user="JohnSmith" changeset="1910473">
    <nd ref="136554602"/>
    <nd ref="136554625"/>
    <nd ref="136554636"/>
    <nd ref="136554637"/>
    <nd ref="136554645"/>
    <nd ref="136554668"/>
    <nd ref="136554692"/>
    <nd ref="136554716"/>
    <nd ref="136554743"/>
    <nd ref="136554769"/>
    <nd ref="136554796"/>
    <nd ref="136554822"/>
    <nd ref="136554848"/>
    <nd ref="136554874"/>
    <nd ref="136554891"/>
    <nd ref="130019127"/>
    <tag k="highway" v="unclassified"/>
    <tag k="name" v="Walsh Road"/>
  </way>
  <way id="14252551" version="1" timestamp="2007-11-27T06:35:05Z" uid="19626" user="Swamp" changeset="636150">
    <nd ref="130019121"/>
    <nd ref="130019122"/>
    <tag k="created_by" v="JOSM"/>
    <tag k="highway" v="unclassified"/>
    <tag k="name" v="Standbridge Road"/>
  </way>
  <way id="14252551" version="2" timestamp="2009-04-12T11:53:54Z" uid="18775" user="drlizau" changeset="445879">
    <nd ref="130019121"/>
    <nd ref="130019122"/>
    <tag k="created_by" v="JOSM"/>
    <tag k="highway" v="unclassified"/>
    <tag k="name" v="Stanbridge Road"/>
  </way>
  <way id="14252551" version="3" timestamp="2009-07-23T00:52:09Z" uid="74617" user="JohnSmith" changeset="1910473">
    <nd ref="130019121"/>
    <nd ref="130019122"/>
    <tag k="highway" v="unclassified"/>
    <tag k="name" v="Stanbridge Road"/>
  </way>
  <way id="14252553" version="1" timestamp="2007-11-27T06:35:06Z" uid="19626" user="Swamp" changeset="636150">
    <nd ref="130019122"/>
    <nd ref="130019127"/>
    <nd ref="130019133"/>
    <tag k="created_by" v="JOSM"/>
    <tag k="highway" v="unclassified"/>
    <tag k="name" v="Ciauarella Road"/>
  </way>
  <way id="14252553" version="2" timestamp="2008-11-09T06:17:40Z" uid="30201" user="rrankin" changeset="719919"/>
  <way id="14252721" version="4" timestamp="2010-07-03T22:11:51Z" uid="4467" user="Rosscoe" changeset="5128524">
    <nd ref="136396829"/>
    <nd ref="136558769"/>
    <nd ref="136558768"/>
    <nd ref="136558765"/>
    <nd ref="136558762"/>
    <nd ref="136558761"/>
    <nd ref="136558758"/>
    <nd ref="136558755"/>
    <nd ref="136558754"/>
    <nd ref="136558751"/>
    <nd ref="136083852"/>
    <nd ref="136558748"/>
    <nd ref="136558747"/>
    <nd ref="136558744"/>
    <nd ref="136558742"/>
    <nd ref="136247159"/>
    <nd ref="136176619"/>
    <tag k="highway" v="trunk"/>
    <tag k="name" v="E Ben Franklin Highway"/>
    <tag k="old_ref_legislative" v="146 Parallel"/>
    <tag k="oneway" v="yes"/>
    <tag k="ref" v="US 422"/>
    <tag k="tiger:cfcc" v="A41"/>
    <tag k="tiger:county" v="Berks, PA"/>
    <tag k="tiger:name_base" v="Ben Franklin"/>
    <tag k="tiger:name_direction_prefix" v="E"/>
    <tag k="tiger:name_type" v="Hwy"/>
    <tag k="tiger:reviewed" v="no"/>
    <tag k="tiger:separated" v="no"/>
    <tag k="tiger:source" v="tiger_import_dch_v0.6_20070829"/>
    <tag k="tiger:tlid" v="80387041:80387089:80387091:80387043"/>
    <tag k="tiger:upload_uuid" v="bulk_upload.pl-6517a127-4250-40d5-88da-8acebe246150"/>
    <tag k="tiger:zip_left" v="19508"/>
    <tag k="tiger:zip_right" v="19508"/>
  </way>
  <way id="14252721" version="5" timestamp="2011-06-04T01:21:29Z" uid="207745" user="NE2" changeset="8334380">
    <nd ref="136396829"/>
    <nd ref="136558769"/>
    <nd ref="136558768"/>
    <nd ref="136558765"/>
    <nd ref="136558762"/>
    <nd ref="136558761"/>
    <nd ref="136558758"/>
    <nd ref="136558755"/>
    <nd ref="136558754"/>
    <nd ref="136558751"/>
    <nd ref="136083852"/>
    <nd ref="136558748"/>
    <nd ref="136558747"/>
    <nd ref="136558744"/>
    <nd ref="136558742"/>
    <nd ref="136247159"/>
    <nd ref="136176619"/>
    <tag k="highway" v="trunk"/>
    <tag k="lanes" v="2"/>
    <tag k="name" v="E Ben Franklin Highway"/>
    <tag k="old_ref_legislative" v="146 Parallel"/>
    <tag k="oneway" v="yes"/>
    <tag k="ref" v="US 422"/>
    <tag k="tiger:cfcc" v="A41"/>
    <tag k="tiger:county" v="Berks, PA"/>
    <tag k="tiger:name_base" v="Ben Franklin"/>
    <tag k="tiger:name_direction_prefix" v="E"/>
    <tag k="tiger:name_type" v="Hwy"/>
    <tag k="tiger:reviewed" v="no"/>
    <tag k="tiger:separated" v="no"/>
    <tag k="tiger:source" v="tiger_import_dch_v0.6_20070829"/>
    <tag k="tiger:tlid" v="80387041:80387089:80387091:80387043"/>
    <tag k="tiger:upload_uuid" v="bulk_upload.pl-6517a127-4250-40d5-88da-8acebe246150"/>
    <tag k="tiger:zip_left" v="19508"/>
    <tag k="tiger:zip_right" v="19508"/>
  </way>
  <way id="14252721" version="6" timestamp="2011-07-07T16:18:34Z" uid="473471" user="NE3" changeset="8658775">
    <nd ref="136396829"/>
    <nd ref="136558769"/>
    <nd ref="136558768"/>
    <nd ref="136558765"/>
    <nd ref="136558762"/>
    <nd ref="136558761"/>
    <nd ref="136558758"/>
    <nd ref="136558755"/>
    <nd ref="136558754"/>
    <nd ref="136558751"/>
    <nd ref="136083852"/>
    <nd ref="136558748"/>
    <nd ref="136558747"/>
    <nd ref="136558744"/>
    <nd ref="136558742"/>
    <nd ref="136247159"/>
    <nd ref="136176619"/>
    <tag k="NHS" v="yes"/>
    <tag k="highway" v="trunk"/>
    <tag k="lanes" v="2"/>
    <tag k="name" v="E Ben Franklin Highway"/>
    <tag k="old_ref_legislative" v="146 Parallel"/>
    <tag k="oneway" v="yes"/>
    <tag k="ref" v="US 422"/>
    <tag k="tiger:cfcc" v="A41"/>
    <tag k="tiger:county" v="Berks, PA"/>
    <tag k="tiger:name_base" v="Ben Franklin"/>
    <tag k="tiger:name_direction_prefix" v="E"/>
    <tag k="tiger:name_type" v="Hwy"/>
    <tag k="tiger:reviewed" v="no"/>
    <tag k="tiger:separated" v="no"/>
    <tag k="tiger:source" v="tiger_import_dch_v0.6_20070829"/>
    <tag k="tiger:tlid" v="80387041:80387089:80387091:80387043"/>
    <tag k="tiger:upload_uuid" v="bulk_upload.pl-6517a127-4250-40d5-88da-8acebe246150"/>
    <tag k="tiger:zip_left" v="19508"/>
    <tag k="tiger:zip_right" v="19508"/>
  </way>
  <way id="14252721" version="7" timestamp="2011-12-07T00:57:47Z" uid="207745" user="NE2" changeset="10054668">
    <nd ref="136396829"/>
    <nd ref="136558769"/>
    <nd ref="136558768"/>
    <nd ref="136558765"/>
    <nd ref="136558762"/>
    <nd ref="136558761"/>
    <nd ref="136558758"/>
    <nd ref="136558755"/>
    <nd ref="136558754"/>
    <nd ref="136558751"/>
    <nd ref="136083852"/>
    <nd ref="136558748"/>
    <nd ref="136558747"/>
    <nd ref="136558744"/>
    <nd ref="136558742"/>
    <nd ref="136247159"/>
    <nd ref="136176619"/>
    <tag k="NHS" v="yes"/>
    <tag k="hgv" v="yes"/>
    <tag k="highway" v="trunk"/>
    <tag k="lanes" v="2"/>
    <tag k="name" v="E Ben Franklin Highway"/>
    <tag k="old_ref_legislative" v="146 Parallel"/>
    <tag k="oneway" v="yes"/>
    <tag k="ref" v="US 422"/>
    <tag k="source:hgv" v="PennDOT ftp://ftp.dot.state.pa.us/public/Bureaus/BOMO/MC/Publication411.pdf"/>
    <tag k="tiger:cfcc" v="A41"/>
    <tag k="tiger:county" v="Berks, PA"/>
    <tag k="tiger:name_base" v="Ben Franklin"/>
    <tag k="tiger:name_direction_prefix" v="E"/>
    <tag k="tiger:name_type" v="Hwy"/>
    <tag k="tiger:reviewed" v="no"/>
    <tag k="tiger:separated" v="no"/>
    <tag k="tiger:source" v="tiger_import_dch_v0.6_20070829"/>
    <tag k="tiger:tlid" v="80387041:80387089:80387091:80387043"/>
    <tag k="tiger:upload_uuid" v="bulk_upload.pl-6517a127-4250-40d5-88da-8acebe246150"/>
    <tag k="tiger:zip_left" v="19508"/>
    <tag k="tiger:zip_right" v="19508"/>
  </way>
  <way id="14252037" version="8" timestamp="2012-07-22T01:14:15Z" uid="722137" user="OSMF Redaction Account" changeset="12423743">
    <nd ref="136543546"/>
    <nd ref="136543547"/>
    <nd ref="577499926"/>
    <nd ref="136544597"/>
    <nd ref="136543549"/>
    <nd ref="136543551"/>
    <tag k="highway" v="residential"/>
    <tag k="name" v="Yawung Avenue"/>
  </way>
  <way id="14252144" version="7" timestamp="2012-07-22T01:14:10Z" uid="722137" user="OSMF Redaction Account" changeset="12423743">
    <nd ref="136545625"/>
    <nd ref="136543419"/>
    <nd ref="577500060"/>
    <nd ref="136543546"/>
    <nd ref="577500061"/>
    <nd ref="136544591"/>
    <nd ref="136545626"/>
    <nd ref="136545628"/>
    <tag k="highway" v="residential"/>
    <tag k="name" v="Warumbui Avenue"/>
  </way>
  <way id="14252212" version="7" timestamp="2012-07-21T22:16:17Z" uid="722137" user="OSMF Redaction Account" changeset="12421504">
    <nd ref="136547114"/>
    <nd ref="136547115"/>
    <nd ref="577499895"/>
    <tag k="highway" v="residential"/>
    <tag k="name" v="Leumeah Avenue"/>
  </way>
  <way id="14252547" version="4" timestamp="2012-07-19T08:32:47Z" uid="722137" user="OSMF Redaction Account" changeset="12314033"/>
  <way id="14252551" version="4" timestamp="2012-07-19T08:36:36Z" uid="722137" user="OSMF Redaction Account" changeset="12314172"/>
</osm>
