<?xml version='1.0' encoding='UTF-8'?>
<osm version="0.6" generator="libosmium/2.20.0">
  <way id="14342021" version="9" timestamp="2010-07-09T02:42:38Z" uid="74617" user="JohnSmith" changeset="5170713">
    <nd ref="26582857"/>
    <nd ref="324211686"/>
    <nd ref="26582856"/>
    <nd ref="324211688"/>
    <nd ref="324211689"/>
    <nd ref="242920392"/>
    <nd ref="26582855"/>
    <tag k="highway" v="residential"/>
    <tag k="maxspeed" v="50"/>
    <tag k="maxspeed:source" v="default residential speed limit in Australia"/>
    <tag k="name" v="England Road"/>
  </way>
  <way id="14342021" version="10" timestamp="2011-12-02T06:48:23Z" uid="11111" user="melb_guy" changeset="10014351">
    <nd ref="26582857"/>
    <nd ref="1527887468"/>
    <nd ref="1527887455"/>
    <tag k="highway" v="residential"/>
    <tag k="maxspeed" v="50"/>
    <tag k="name" v="England Road"/>
    <tag k="oneway" v="yes"/>
    <tag k="surface" v="asphalt"/>
  </way>
  <way id="14342021" version="11" timestamp="2012-01-15T12:31:59Z" uid="147510" user="woodpeck_fixbot" changeset="10396281">
    <nd ref="26582857"/>
    <nd ref="1527887468"/>
    <nd ref="1527887455"/>
    <tag k="highway" v="residential"/>
    <tag k="name" v="England Road"/>
    <tag k="oneway" v="yes"/>
    <tag k="surface" v="asphalt"/>
  </way>
  <way id="14342556" version="4" timestamp="2010-07-06T09:25:38Z" uid="4467" user="Rosscoe" changeset="5148673">
    <nd ref="138859308"/>
    <nd ref="803470358"/>
    <nd ref="138859332"/>
    <tag k="highway" v="residential"/>
    <tag k="name" v="Gardiner Road"/>
    <tag k="oneway" v="yes"/>
  </way>
  <way id="14342556" version="5" timestamp="2010-07-09T02:45:11Z" uid="74617" user="JohnSmith" changeset="5170713">
    <nd ref="138859308"/>
    <nd ref="803470358"/>
    <nd ref="138859332"/>
    <tag k="highway" v="residential"/>
    <tag k="maxspeed" v="50"/>
    <tag k="maxspeed:source" v="default residential speed limit in Australia"/>
    <tag k="name" v="Gardiner Road"/>
    <tag k="oneway" v="yes"/>
  </way>
  <way id="14342556" version="6" timestamp="2010-08-21T01:09:09Z" uid="320632" user="Zulu99" changeset="5548590">
    <nd ref="138859308"/>
    <nd ref="803470358"/>
    <nd ref="138859332"/>
    <tag k="highway" v="residential"/>
    <tag k="maxspeed" v="50"/>
    <tag k="maxspeed:source" v="default residential speed limit in Australia"/>
    <tag k="name" v="Gardiner Road"/>
    <tag k="oneway" v="yes"/>
  </way>
  <way id="14342556" version="7" timestamp="2011-03-02T12:58:40Z" uid="400269" user="John Berkers" changeset="7437546">
    <nd ref="138859308"/>
    <nd ref="1182667952"/>
    <nd ref="803470358"/>
    <nd ref="138859332"/>
    <tag k="highway" v="residential"/>
    <tag k="maxspeed" v="50"/>
    <tag k="maxspeed:source" v="default residential speed limit in Australia"/>
    <tag k="name" v="Gardiner Road"/>
    <tag k="oneway" v="yes"/>
  </way>
  <way id="14342556" version="8" timestamp="2012-01-15T12:32:01Z" uid="147510" user="woodpeck_fixbot" changeset="10396281">
    <nd ref="138859308"/>
    <nd ref="1182667952"/>
    <nd ref="803470358"/>
    <nd ref="138859332"/>
    <tag k="highway" v="residential"/>
    <tag k="name" v="Gardiner Road"/>
    <tag k="oneway" v="yes"/>
  </way>
  <way id="14342561" version="4" timestamp="2008-09-22T01:05:11Z" uid="36809" user="pfoten_weg_!_" changeset="678890">
    <nd ref="122411020"/>
    <nd ref="138860224"/>
    <tag k="created_by" v="JOSM"/>
    <tag k="highway" v="residential"/>
    <tag k="maxspeed" v="30"/>
    <tag k="name" v="Kernbauernstraße"/>
  </way>
  <way id="14342561" version="5" timestamp="2008-10-01T02:26:39Z" uid="36809" user="pfoten_weg_!_" changeset="5644">
    <nd ref="122411020"/>
    <nd ref="138860224"/>
    <tag k="created_by" v="RambaZamba"/>
    <tag k="highway" v="residential"/>
    <tag k="maxspeed" v="30"/>
    <tag k="name" v="Kernbauernstraße"/>
  </way>
  <way id="14342561" version="6" timestamp="2009-04-23T21:03:34Z" uid="118197" user="JosmJo" changeset="919551">
    <nd ref="122411020"/>
    <nd ref="313923936"/>
    <tag k="created_by" v="RambaZamba"/>
    <tag k="highway" v="residential"/>
    <tag k="maxspeed" v="30"/>
    <tag k="name" v="Kernbauernstraße"/>
  </way>
  <way id="14342561" version="7" timestamp="2009-08-28T19:52:49Z" uid="156995" user="HampelZamba" changeset="2294580">
    <nd ref="122411020"/>
    <nd ref="313923936"/>
    <tag k="highway" v="residential"/>
    <tag k="maxspeed" v="30"/>
    <tag k="name" v="Kernbauernstraße"/>
  </way>
  <way id="14342561" version="8" timestamp="2009-08-31T17:46:55Z" uid="36809" user="pfoten_weg_!_" changeset="2328905">
    <nd ref="122411020"/>
    <nd ref="313923936"/>
    <tag k="highway" v="residential"/>
    <tag k="maxspeed" v="30"/>
    <tag k="name" v="Kernbauernstraße"/>
  </way>
  <way id="14342556" version="9" timestamp="2012-07-19T23:39:28Z" uid="722137" user="OSMF Redaction Account" changeset="12351673">
    <nd ref="138859308"/>
    <nd ref="1182667952"/>
    <nd ref="138859332"/>
    <tag k="highway" v="residential"/>
    <tag k="name" v="Gardiner Road"/>
    <tag k="oneway" v="yes"/>
  </way>
  <way id="14342561" version="9" timestamp="2012-06-02T22:57:39Z" uid="8703" user="rolandg" changeset="11781650"/>
</osm>
