<?xml version='1.0' encoding='UTF-8'?>
<osm version="0.6" generator="libosmium/2.20.0">
  <way id="14344002" version="2" timestamp="2010-07-08T01:38:46Z" uid="74617" user="JohnSmith" changeset="5162525">
    <nd ref="138961438"/>
    <nd ref="138961439"/>
    <tag k="highway" v="residential"/>
    <tag k="maxspeed" v="50"/>
    <tag k="maxspeed:source" v="default residential speed limit in Australia"/>
    <tag k="name" v="Ness Place"/>
  </way>
  <way id="14344002" version="3" timestamp="2012-01-15T12:32:40Z" uid="147510" user="woodpeck_fixbot" changeset="10396281">
    <nd ref="138961438"/>
    <nd ref="138961439"/>
    <tag k="highway" v="residential"/>
    <tag k="name" v="Ness Place"/>
  </way>
  <way id="14344010" version="3" timestamp="2009-11-19T00:45:10Z" uid="30201" user="rrankin" changeset="3156177">
    <nd ref="138962082"/>
    <nd ref="138962083"/>
    <nd ref="138962509"/>
    <nd ref="138955855"/>
    <nd ref="138953632"/>
    <nd ref="138956958"/>
    <nd ref="138960112"/>
    <nd ref="138957444"/>
    <nd ref="138959388"/>
    <nd ref="138962085"/>
    <nd ref="138962086"/>
    <tag k="highway" v="residential"/>
    <tag k="name" v="Lomond Crescent"/>
  </way>
  <way id="14344010" version="4" timestamp="2010-07-08T01:36:29Z" uid="74617" user="JohnSmith" changeset="5162525">
    <nd ref="138962082"/>
    <nd ref="138962083"/>
    <nd ref="138962509"/>
    <nd ref="138955855"/>
    <nd ref="138953632"/>
    <nd ref="138956958"/>
    <nd ref="138960112"/>
    <nd ref="138957444"/>
    <nd ref="138959388"/>
    <nd ref="138962085"/>
    <nd ref="138962086"/>
    <tag k="highway" v="residential"/>
    <tag k="maxspeed" v="50"/>
    <tag k="maxspeed:source" v="default residential speed limit in Australia"/>
    <tag k="name" v="Lomond Crescent"/>
  </way>
  <way id="14344010" version="5" timestamp="2011-04-11T12:32:04Z" uid="7617" user="Franc" changeset="7832593">
    <nd ref="138962082"/>
    <nd ref="138962083"/>
    <nd ref="138962509"/>
    <nd ref="138955855"/>
    <nd ref="1240879557"/>
    <nd ref="1240879450"/>
    <nd ref="138953632"/>
    <nd ref="1240879980"/>
    <nd ref="1240879923"/>
    <nd ref="138956958"/>
    <nd ref="1240879633"/>
    <nd ref="138960112"/>
    <nd ref="138957444"/>
    <nd ref="138959388"/>
    <nd ref="1240879677"/>
    <nd ref="138962085"/>
    <nd ref="138962086"/>
    <tag k="highway" v="residential"/>
    <tag k="maxspeed" v="50"/>
    <tag k="maxspeed:source" v="default residential speed limit in Australia"/>
    <tag k="name" v="Lomond Crescent"/>
  </way>
  <way id="14344010" version="6" timestamp="2012-01-15T12:32:41Z" uid="147510" user="woodpeck_fixbot" changeset="10396281">
    <nd ref="138962082"/>
    <nd ref="138962083"/>
    <nd ref="138962509"/>
    <nd ref="138955855"/>
    <nd ref="1240879557"/>
    <nd ref="1240879450"/>
    <nd ref="138953632"/>
    <nd ref="1240879980"/>
    <nd ref="1240879923"/>
    <nd ref="138956958"/>
    <nd ref="1240879633"/>
    <nd ref="138960112"/>
    <nd ref="138957444"/>
    <nd ref="138959388"/>
    <nd ref="1240879677"/>
    <nd ref="138962085"/>
    <nd ref="138962086"/>
    <tag k="highway" v="residential"/>
    <tag k="name" v="Lomond Crescent"/>
  </way>
  <way id="14344020" version="2" timestamp="2009-11-19T00:45:11Z" uid="30201" user="rrankin" changeset="3156177">
    <nd ref="138962507"/>
    <nd ref="138962508"/>
    <nd ref="138962509"/>
    <tag k="highway" v="residential"/>
    <tag k="name" v="Glasgow Street"/>
  </way>
  <way id="14344020" version="3" timestamp="2010-07-08T01:37:57Z" uid="74617" user="JohnSmith" changeset="5162525">
    <nd ref="138962507"/>
    <nd ref="138962508"/>
    <nd ref="138962509"/>
    <tag k="highway" v="residential"/>
    <tag k="maxspeed" v="50"/>
    <tag k="maxspeed:source" v="default residential speed limit in Australia"/>
    <tag k="name" v="Glasgow Street"/>
  </way>
  <way id="14344020" version="4" timestamp="2011-04-11T12:31:53Z" uid="7617" user="Franc" changeset="7832593">
    <nd ref="138962507"/>
    <nd ref="1240879823"/>
    <nd ref="1240879777"/>
    <nd ref="138962508"/>
    <nd ref="1240879359"/>
    <nd ref="1240879859"/>
    <nd ref="138962509"/>
    <tag k="highway" v="residential"/>
    <tag k="maxspeed" v="50"/>
    <tag k="maxspeed:source" v="default residential speed limit in Australia"/>
    <tag k="name" v="Glasgow Street"/>
  </way>
  <way id="14344020" version="5" timestamp="2012-01-15T12:32:43Z" uid="147510" user="woodpeck_fixbot" changeset="10396281">
    <nd ref="138962507"/>
    <nd ref="1240879823"/>
    <nd ref="1240879777"/>
    <nd ref="138962508"/>
    <nd ref="1240879359"/>
    <nd ref="1240879859"/>
    <nd ref="138962509"/>
    <tag k="highway" v="residential"/>
    <tag k="name" v="Glasgow Street"/>
  </way>
  <way id="14344038" version="5" timestamp="2009-12-26T06:17:10Z" uid="61114" user="Trav" changeset="3452335">
    <nd ref="138963662"/>
    <nd ref="138965335"/>
    <nd ref="138964096"/>
    <nd ref="138964517"/>
    <nd ref="138962083"/>
    <tag k="highway" v="residential"/>
    <tag k="name" v="Selkirk Street"/>
    <tag k="source:name" v="survey"/>
  </way>
  <way id="14344038" version="6" timestamp="2010-07-08T01:39:22Z" uid="74617" user="JohnSmith" changeset="5162525">
    <nd ref="138963662"/>
    <nd ref="138965335"/>
    <nd ref="138964096"/>
    <nd ref="138964517"/>
    <nd ref="138962083"/>
    <tag k="highway" v="residential"/>
    <tag k="maxspeed" v="50"/>
    <tag k="maxspeed:source" v="default residential speed limit in Australia"/>
    <tag k="name" v="Selkirk Street"/>
    <tag k="source:name" v="survey"/>
  </way>
  <way id="14344038" version="7" timestamp="2012-01-15T12:32:45Z" uid="147510" user="woodpeck_fixbot" changeset="10396281">
    <nd ref="138963662"/>
    <nd ref="138965335"/>
    <nd ref="138964096"/>
    <nd ref="138964517"/>
    <nd ref="138962083"/>
    <tag k="highway" v="residential"/>
    <tag k="name" v="Selkirk Street"/>
    <tag k="source:name" v="survey"/>
  </way>
  <way id="14344048" version="2" timestamp="2010-07-08T01:32:43Z" uid="74617" user="JohnSmith" changeset="5162525">
    <nd ref="138964095"/>
    <nd ref="138964096"/>
    <tag k="highway" v="residential"/>
    <tag k="maxspeed" v="50"/>
    <tag k="maxspeed:source" v="default residential speed limit in Australia"/>
    <tag k="name" v="Dumfries Street"/>
  </way>
  <way id="14344048" version="3" timestamp="2012-01-15T12:32:46Z" uid="147510" user="woodpeck_fixbot" changeset="10396281">
    <nd ref="138964095"/>
    <nd ref="138964096"/>
    <tag k="highway" v="residential"/>
    <tag k="name" v="Dumfries Street"/>
  </way>
  <way id="14344057" version="2" timestamp="2010-07-08T01:31:47Z" uid="74617" user="JohnSmith" changeset="5162525">
    <nd ref="138964517"/>
    <nd ref="138964518"/>
    <nd ref="138964521"/>
    <tag k="highway" v="residential"/>
    <tag k="maxspeed" v="50"/>
    <tag k="maxspeed:source" v="default residential speed limit in Australia"/>
    <tag k="name" v="Peebles Street"/>
  </way>
  <way id="14344057" version="3" timestamp="2011-04-11T12:31:55Z" uid="7617" user="Franc" changeset="7832593">
    <nd ref="138964517"/>
    <nd ref="138964521"/>
    <tag k="highway" v="residential"/>
    <tag k="maxspeed" v="50"/>
    <tag k="maxspeed:source" v="default residential speed limit in Australia"/>
    <tag k="name" v="Peebles Street"/>
  </way>
  <way id="14344057" version="4" timestamp="2012-01-15T12:32:48Z" uid="147510" user="woodpeck_fixbot" changeset="10396281">
    <nd ref="138964517"/>
    <nd ref="138964521"/>
    <tag k="highway" v="residential"/>
    <tag k="name" v="Peebles Street"/>
  </way>
  <way id="14344065" version="2" timestamp="2010-07-08T01:39:29Z" uid="74617" user="JohnSmith" changeset="5162525">
    <nd ref="138965335"/>
    <nd ref="138965337"/>
    <nd ref="138965338"/>
    <nd ref="138955850"/>
    <tag k="highway" v="residential"/>
    <tag k="maxspeed" v="50"/>
    <tag k="maxspeed:source" v="default residential speed limit in Australia"/>
    <tag k="name" v="Lothian Street"/>
  </way>
  <way id="14344065" version="3" timestamp="2011-04-11T12:32:10Z" uid="7617" user="Franc" changeset="7832593">
    <nd ref="138965335"/>
    <nd ref="138965337"/>
    <nd ref="1240879462"/>
    <nd ref="1240879653"/>
    <nd ref="138965338"/>
    <nd ref="138955850"/>
    <tag k="highway" v="residential"/>
    <tag k="maxspeed" v="50"/>
    <tag k="maxspeed:source" v="default residential speed limit in Australia"/>
    <tag k="name" v="Lothian Street"/>
  </way>
  <way id="14344065" version="4" timestamp="2012-01-15T12:33:02Z" uid="147510" user="woodpeck_fixbot" changeset="10396281">
    <nd ref="138965335"/>
    <nd ref="138965337"/>
    <nd ref="1240879462"/>
    <nd ref="1240879653"/>
    <nd ref="138965338"/>
    <nd ref="138955850"/>
    <tag k="highway" v="residential"/>
    <tag k="name" v="Lothian Street"/>
  </way>
  <way id="14344083" version="2" timestamp="2009-12-26T06:17:30Z" uid="61114" user="Trav" changeset="3452335">
    <nd ref="138966545"/>
    <nd ref="138963662"/>
    <nd ref="138966548"/>
    <nd ref="138966550"/>
    <nd ref="599479846"/>
    <nd ref="138955846"/>
    <nd ref="138966552"/>
    <nd ref="138966554"/>
    <nd ref="599479822"/>
    <nd ref="138966555"/>
    <tag k="highway" v="residential"/>
    <tag k="name" v="Edinburgh Place"/>
    <tag k="source:name" v="survey"/>
  </way>
  <way id="14344083" version="3" timestamp="2010-07-08T01:32:49Z" uid="74617" user="JohnSmith" changeset="5162525">
    <nd ref="138966545"/>
    <nd ref="138963662"/>
    <nd ref="138966548"/>
    <nd ref="138966550"/>
    <nd ref="599479846"/>
    <nd ref="138955846"/>
    <nd ref="138966552"/>
    <nd ref="138966554"/>
    <nd ref="599479822"/>
    <nd ref="138966555"/>
    <tag k="highway" v="residential"/>
    <tag k="maxspeed" v="50"/>
    <tag k="maxspeed:source" v="default residential speed limit in Australia"/>
    <tag k="name" v="Edinburgh Place"/>
    <tag k="source:name" v="survey"/>
  </way>
  <way id="14344083" version="4" timestamp="2012-01-15T12:33:04Z" uid="147510" user="woodpeck_fixbot" changeset="10396281">
    <nd ref="138966545"/>
    <nd ref="138963662"/>
    <nd ref="138966548"/>
    <nd ref="138966550"/>
    <nd ref="599479846"/>
    <nd ref="138955846"/>
    <nd ref="138966552"/>
    <nd ref="138966554"/>
    <nd ref="599479822"/>
    <nd ref="138966555"/>
    <tag k="highway" v="residential"/>
    <tag k="name" v="Edinburgh Place"/>
    <tag k="source:name" v="survey"/>
  </way>
  <way id="14344099" version="4" timestamp="2009-11-19T00:45:11Z" uid="30201" user="rrankin" changeset="3156177">
    <nd ref="61094943"/>
    <nd ref="138969907"/>
    <nd ref="138962082"/>
    <nd ref="138969080"/>
    <nd ref="138967876"/>
    <nd ref="138964095"/>
    <nd ref="138966545"/>
    <nd ref="138967878"/>
    <tag k="highway" v="residential"/>
    <tag k="name" v="Barnetts Road"/>
  </way>
  <way id="14344099" version="5" timestamp="2010-07-08T01:38:00Z" uid="74617" user="JohnSmith" changeset="5162525">
    <nd ref="61094943"/>
    <nd ref="138969907"/>
    <nd ref="138962082"/>
    <nd ref="138969080"/>
    <nd ref="138967876"/>
    <nd ref="138964095"/>
    <nd ref="138966545"/>
    <nd ref="138967878"/>
    <tag k="highway" v="residential"/>
    <tag k="maxspeed" v="50"/>
    <tag k="maxspeed:source" v="default residential speed limit in Australia"/>
    <tag k="name" v="Barnetts Road"/>
  </way>
  <way id="14344099" version="6" timestamp="2010-12-13T11:19:22Z" uid="139659" user="LiteEarthTreader" changeset="6645987">
    <nd ref="61094943"/>
    <nd ref="1037077167"/>
    <nd ref="138969907"/>
    <nd ref="138962082"/>
    <nd ref="138969080"/>
    <nd ref="138967876"/>
    <nd ref="138964095"/>
    <nd ref="138966545"/>
    <nd ref="138967878"/>
    <tag k="highway" v="residential"/>
    <tag k="maxspeed" v="50"/>
    <tag k="maxspeed:source" v="default residential speed limit in Australia"/>
    <tag k="name" v="Barnetts Road"/>
  </way>
  <way id="14344099" version="7" timestamp="2010-12-18T02:22:28Z" uid="139659" user="LiteEarthTreader" changeset="6692541">
    <nd ref="61094943"/>
    <nd ref="1037077167"/>
    <tag k="highway" v="residential"/>
    <tag k="maxspeed" v="50"/>
    <tag k="maxspeed:source" v="default residential speed limit in Australia"/>
    <tag k="name" v="Barnetts Road"/>
  </way>
  <way id="14344099" version="8" timestamp="2011-01-22T04:01:59Z" uid="20949" user="Ebenezer" changeset="7046875">
    <nd ref="1114424229"/>
    <nd ref="1037077167"/>
    <tag k="highway" v="residential"/>
    <tag k="lcn" v="yes"/>
    <tag k="maxspeed" v="50"/>
    <tag k="maxspeed:source" v="default residential speed limit in Australia"/>
    <tag k="name" v="Barnetts Road"/>
  </way>
  <way id="14344099" version="9" timestamp="2012-01-15T12:33:05Z" uid="147510" user="woodpeck_fixbot" changeset="10396281">
    <nd ref="1114424229"/>
    <nd ref="1037077167"/>
    <tag k="highway" v="residential"/>
    <tag k="lcn" v="yes"/>
    <tag k="name" v="Barnetts Road"/>
  </way>
  <way id="14344107" version="3" timestamp="2010-07-08T01:35:30Z" uid="74617" user="JohnSmith" changeset="5162525">
    <nd ref="138969078"/>
    <nd ref="138969079"/>
    <nd ref="138969527"/>
    <nd ref="138969080"/>
    <tag k="highway" v="residential"/>
    <tag k="maxspeed" v="50"/>
    <tag k="maxspeed:source" v="default residential speed limit in Australia"/>
    <tag k="name" v="Euclid Street"/>
  </way>
  <way id="14344107" version="4" timestamp="2011-02-12T13:44:10Z" uid="7617" user="Franc" changeset="7264888">
    <nd ref="138969078"/>
    <nd ref="1149057804"/>
    <nd ref="138969079"/>
    <nd ref="138969527"/>
    <nd ref="138969080"/>
    <tag k="highway" v="residential"/>
    <tag k="maxspeed" v="50"/>
    <tag k="maxspeed:source" v="default residential speed limit in Australia"/>
    <tag k="name" v="Euclid Street"/>
  </way>
  <way id="14344107" version="5" timestamp="2012-01-15T12:33:06Z" uid="147510" user="woodpeck_fixbot" changeset="10396281">
    <nd ref="138969078"/>
    <nd ref="1149057804"/>
    <nd ref="138969079"/>
    <nd ref="138969527"/>
    <nd ref="138969080"/>
    <tag k="highway" v="residential"/>
    <tag k="name" v="Euclid Street"/>
  </way>
  <way id="14344113" version="2" timestamp="2009-11-19T00:45:14Z" uid="30201" user="rrankin" changeset="3156177">
    <nd ref="138969524"/>
    <nd ref="138969525"/>
    <nd ref="138969527"/>
    <tag k="highway" v="residential"/>
    <tag k="name" v="Einstein Stret"/>
  </way>
  <way id="14344113" version="3" timestamp="2010-06-02T13:34:04Z" uid="4467" user="Rosscoe" changeset="4884139">
    <nd ref="138969524"/>
    <nd ref="138969525"/>
    <nd ref="138969527"/>
    <tag k="highway" v="residential"/>
    <tag k="name" v="Einstein Street"/>
  </way>
  <way id="14344113" version="4" timestamp="2010-07-08T01:38:15Z" uid="74617" user="JohnSmith" changeset="5162525">
    <nd ref="138969524"/>
    <nd ref="138969525"/>
    <nd ref="138969527"/>
    <tag k="highway" v="residential"/>
    <tag k="maxspeed" v="50"/>
    <tag k="maxspeed:source" v="default residential speed limit in Australia"/>
    <tag k="name" v="Einstein Street"/>
  </way>
  <way id="14344113" version="5" timestamp="2012-01-15T12:33:08Z" uid="147510" user="woodpeck_fixbot" changeset="10396281">
    <nd ref="138969524"/>
    <nd ref="138969525"/>
    <nd ref="138969527"/>
    <tag k="highway" v="residential"/>
    <tag k="name" v="Einstein Street"/>
  </way>
  <way id="14344117" version="2" timestamp="2009-11-19T00:45:13Z" uid="30201" user="rrankin" changeset="3156177">
    <nd ref="138969904"/>
    <nd ref="138969905"/>
    <nd ref="138969524"/>
    <nd ref="138969907"/>
    <tag k="highway" v="residential"/>
    <tag k="name" v="Marconi Street"/>
  </way>
  <way id="14344117" version="3" timestamp="2010-07-08T01:37:05Z" uid="74617" user="JohnSmith" changeset="5162525">
    <nd ref="138969904"/>
    <nd ref="138969905"/>
    <nd ref="138969524"/>
    <nd ref="138969907"/>
    <tag k="highway" v="residential"/>
    <tag k="maxspeed" v="50"/>
    <tag k="maxspeed:source" v="default residential speed limit in Australia"/>
    <tag k="name" v="Marconi Street"/>
  </way>
  <way id="14344117" version="4" timestamp="2012-01-15T12:33:09Z" uid="147510" user="woodpeck_fixbot" changeset="10396281">
    <nd ref="138969904"/>
    <nd ref="138969905"/>
    <nd ref="138969524"/>
    <nd ref="138969907"/>
    <tag k="highway" v="residential"/>
    <tag k="name" v="Marconi Street"/>
  </way>
  <way id="14344121" version="2" timestamp="2009-11-19T00:45:15Z" uid="30201" user="rrankin" changeset="3156177">
    <nd ref="138970073"/>
    <nd ref="138970074"/>
    <nd ref="138970075"/>
    <tag k="highway" v="residential"/>
    <tag k="name" v="Volta Place"/>
  </way>
  <way id="14344121" version="3" timestamp="2010-07-08T01:35:48Z" uid="74617" user="JohnSmith" changeset="5162525">
    <nd ref="138970073"/>
    <nd ref="138970074"/>
    <nd ref="138970075"/>
    <tag k="highway" v="residential"/>
    <tag k="maxspeed" v="50"/>
    <tag k="maxspeed:source" v="default residential speed limit in Australia"/>
    <tag k="name" v="Volta Place"/>
  </way>
  <way id="14344121" version="4" timestamp="2011-02-12T13:44:12Z" uid="7617" user="Franc" changeset="7264888">
    <nd ref="138970073"/>
    <nd ref="138970074"/>
    <nd ref="1149057836"/>
    <nd ref="138970075"/>
    <tag k="highway" v="residential"/>
    <tag k="maxspeed" v="50"/>
    <tag k="maxspeed:source" v="default residential speed limit in Australia"/>
    <tag k="name" v="Volta Place"/>
  </way>
  <way id="14344121" version="5" timestamp="2012-01-15T12:33:11Z" uid="147510" user="woodpeck_fixbot" changeset="10396281">
    <nd ref="138970073"/>
    <nd ref="138970074"/>
    <nd ref="1149057836"/>
    <nd ref="138970075"/>
    <tag k="highway" v="residential"/>
    <tag k="name" v="Volta Place"/>
  </way>
  <way id="14344141" version="5" timestamp="2009-12-26T06:17:35Z" uid="61114" user="Trav" changeset="3452335">
    <nd ref="61758588"/>
    <nd ref="599479858"/>
    <nd ref="599479850"/>
    <nd ref="138971850"/>
    <nd ref="251268658"/>
    <nd ref="138971851"/>
    <nd ref="138972735"/>
    <tag k="highway" v="residential"/>
    <tag k="name" v="Edison Parade"/>
    <tag k="source" v="survey"/>
  </way>
  <way id="14344141" version="6" timestamp="2010-07-08T01:39:25Z" uid="74617" user="JohnSmith" changeset="5162525">
    <nd ref="61758588"/>
    <nd ref="599479858"/>
    <nd ref="599479850"/>
    <nd ref="138971850"/>
    <nd ref="251268658"/>
    <nd ref="138971851"/>
    <nd ref="138972735"/>
    <tag k="highway" v="residential"/>
    <tag k="maxspeed" v="50"/>
    <tag k="maxspeed:source" v="default residential speed limit in Australia"/>
    <tag k="name" v="Edison Parade"/>
    <tag k="source" v="survey"/>
  </way>
  <way id="14344141" version="7" timestamp="2011-02-12T13:44:19Z" uid="7617" user="Franc" changeset="7264888"/>
  <way id="14344145" version="2" timestamp="2010-07-08T01:31:36Z" uid="74617" user="JohnSmith" changeset="5162525">
    <nd ref="138971153"/>
    <nd ref="138971154"/>
    <nd ref="138971156"/>
    <nd ref="138970822"/>
    <tag k="highway" v="residential"/>
    <tag k="maxspeed" v="50"/>
    <tag k="maxspeed:source" v="default residential speed limit in Australia"/>
    <tag k="name" v="Nobel Place"/>
  </way>
  <way id="14344145" version="3" timestamp="2011-02-12T13:44:12Z" uid="7617" user="Franc" changeset="7264888">
    <nd ref="138971153"/>
    <nd ref="138971154"/>
    <nd ref="1149057841"/>
    <nd ref="138971156"/>
    <nd ref="1149057822"/>
    <nd ref="138970822"/>
    <tag k="highway" v="residential"/>
    <tag k="maxspeed" v="50"/>
    <tag k="maxspeed:source" v="default residential speed limit in Australia"/>
    <tag k="name" v="Nobel Place"/>
  </way>
  <way id="14344145" version="4" timestamp="2012-01-15T12:33:12Z" uid="147510" user="woodpeck_fixbot" changeset="10396281">
    <nd ref="138971153"/>
    <nd ref="138971154"/>
    <nd ref="1149057841"/>
    <nd ref="138971156"/>
    <nd ref="1149057822"/>
    <nd ref="138970822"/>
    <tag k="highway" v="residential"/>
    <tag k="name" v="Nobel Place"/>
  </way>
  <way id="14344159" version="2" timestamp="2009-12-26T06:16:55Z" uid="61114" user="Trav" changeset="3452335">
    <nd ref="138972224"/>
    <nd ref="138971850"/>
    <tag k="highway" v="residential"/>
    <tag k="name" v="Kelvin Grove"/>
    <tag k="source:name" v="survey"/>
  </way>
  <way id="14344159" version="3" timestamp="2010-07-08T01:32:45Z" uid="74617" user="JohnSmith" changeset="5162525">
    <nd ref="138972224"/>
    <nd ref="138971850"/>
    <tag k="highway" v="residential"/>
    <tag k="maxspeed" v="50"/>
    <tag k="maxspeed:source" v="default residential speed limit in Australia"/>
    <tag k="name" v="Kelvin Grove"/>
    <tag k="source:name" v="survey"/>
  </way>
  <way id="14344159" version="4" timestamp="2011-02-12T13:44:08Z" uid="7617" user="Franc" changeset="7264888">
    <nd ref="138972224"/>
    <nd ref="1149057812"/>
    <nd ref="138971850"/>
    <tag k="highway" v="residential"/>
    <tag k="maxspeed" v="50"/>
    <tag k="maxspeed:source" v="default residential speed limit in Australia"/>
    <tag k="name" v="Kelvin Grove"/>
    <tag k="source:name" v="survey"/>
  </way>
  <way id="14344159" version="5" timestamp="2012-01-15T12:33:13Z" uid="147510" user="woodpeck_fixbot" changeset="10396281">
    <nd ref="138972224"/>
    <nd ref="1149057812"/>
    <nd ref="138971850"/>
    <tag k="highway" v="residential"/>
    <tag k="name" v="Kelvin Grove"/>
    <tag k="source:name" v="survey"/>
  </way>
  <way id="14344167" version="2" timestamp="2009-12-26T06:16:59Z" uid="61114" user="Trav" changeset="3452335">
    <nd ref="138972735"/>
    <nd ref="138972737"/>
    <nd ref="138972739"/>
    <nd ref="599479757"/>
    <nd ref="599479759"/>
    <nd ref="138972741"/>
    <nd ref="138972743"/>
    <tag k="highway" v="residential"/>
    <tag k="name" v="Stephenson Street"/>
    <tag k="source:name" v="survey"/>
  </way>
  <way id="14344167" version="3" timestamp="2010-07-08T01:31:55Z" uid="74617" user="JohnSmith" changeset="5162525">
    <nd ref="138972735"/>
    <nd ref="138972737"/>
    <nd ref="138972739"/>
    <nd ref="599479757"/>
    <nd ref="599479759"/>
    <nd ref="138972741"/>
    <nd ref="138972743"/>
    <tag k="highway" v="residential"/>
    <tag k="maxspeed" v="50"/>
    <tag k="maxspeed:source" v="default residential speed limit in Australia"/>
    <tag k="name" v="Stephenson Street"/>
    <tag k="source:name" v="survey"/>
  </way>
  <way id="14344167" version="4" timestamp="2011-02-12T13:44:17Z" uid="7617" user="Franc" changeset="7264888">
    <nd ref="138972735"/>
    <nd ref="1149057775"/>
    <nd ref="1149057781"/>
    <nd ref="138972737"/>
    <nd ref="138972739"/>
    <nd ref="599479757"/>
    <nd ref="599479759"/>
    <nd ref="1149057819"/>
    <nd ref="1149057790"/>
    <nd ref="138972741"/>
    <nd ref="138972743"/>
    <tag k="highway" v="residential"/>
    <tag k="maxspeed" v="50"/>
    <tag k="maxspeed:source" v="default residential speed limit in Australia"/>
    <tag k="name" v="Stephenson Street"/>
    <tag k="source:name" v="survey"/>
  </way>
  <way id="14344167" version="5" timestamp="2012-01-15T12:33:14Z" uid="147510" user="woodpeck_fixbot" changeset="10396281">
    <nd ref="138972735"/>
    <nd ref="1149057775"/>
    <nd ref="1149057781"/>
    <nd ref="138972737"/>
    <nd ref="138972739"/>
    <nd ref="599479757"/>
    <nd ref="599479759"/>
    <nd ref="1149057819"/>
    <nd ref="1149057790"/>
    <nd ref="138972741"/>
    <nd ref="138972743"/>
    <tag k="highway" v="residential"/>
    <tag k="name" v="Stephenson Street"/>
    <tag k="source:name" v="survey"/>
  </way>
  <way id="14344182" version="2" timestamp="2008-07-07T23:57:42Z" uid="6975" user="ulfl" changeset="429882">
    <nd ref="138974090"/>
    <nd ref="138974091"/>
    <nd ref="138974092"/>
    <nd ref="138974094"/>
    <nd ref="138974090"/>
    <tag k="sport" v="soccer"/>
  </way>
  <way id="14344182" version="3" timestamp="2008-10-08T07:40:47Z" uid="28378" user="PHerison" changeset="169456">
    <nd ref="138974090"/>
    <nd ref="138974091"/>
    <nd ref="138974092"/>
    <nd ref="138974094"/>
    <nd ref="138974090"/>
    <tag k="created_by" v="Potlatch 0.10d"/>
    <tag k="leisure" v="pitch"/>
    <tag k="sport" v="soccer"/>
  </way>
  <way id="14344182" version="4" timestamp="2008-10-08T07:40:57Z" uid="28378" user="PHerison" changeset="169456">
    <nd ref="138974090"/>
    <nd ref="138974091"/>
    <nd ref="138974092"/>
    <nd ref="138974094"/>
    <nd ref="138974090"/>
    <tag k="created_by" v="Potlatch 0.10d"/>
    <tag k="leisure" v="pitch"/>
    <tag k="sport" v="soccer"/>
  </way>
  <way id="14344182" version="5" timestamp="2008-10-08T07:53:22Z" uid="28378" user="PHerison" changeset="169456">
    <nd ref="138974090"/>
    <nd ref="138974091"/>
    <nd ref="138974092"/>
    <nd ref="138974094"/>
    <nd ref="138974090"/>
    <tag k="created_by" v="Potlatch 0.10d"/>
    <tag k="leisure" v="pitch"/>
    <tag k="source" v="Yahoo"/>
    <tag k="sport" v="soccer"/>
  </way>
  <way id="14344182" version="6" timestamp="2010-10-25T22:39:03Z" uid="17286" user="Pieren" changeset="6178184">
    <nd ref="138974090"/>
    <nd ref="138974091"/>
    <nd ref="138974092"/>
    <nd ref="138974094"/>
    <nd ref="138974090"/>
    <tag k="leisure" v="pitch"/>
    <tag k="source" v="Yahoo"/>
    <tag k="sport" v="soccer"/>
  </way>
  <way id="14344194" version="3" timestamp="2009-12-26T06:17:40Z" uid="61114" user="Trav" changeset="3452335">
    <nd ref="138975152"/>
    <nd ref="599479872"/>
    <nd ref="599479852"/>
    <nd ref="599479856"/>
    <nd ref="138975153"/>
    <nd ref="599479854"/>
    <nd ref="61758588"/>
    <tag k="highway" v="residential"/>
    <tag k="name" v="Baden Powell Place"/>
    <tag k="source" v="survey"/>
  </way>
  <way id="14344194" version="4" timestamp="2010-07-08T01:38:03Z" uid="74617" user="JohnSmith" changeset="5162525">
    <nd ref="138975152"/>
    <nd ref="599479872"/>
    <nd ref="599479852"/>
    <nd ref="599479856"/>
    <nd ref="138975153"/>
    <nd ref="599479854"/>
    <nd ref="61758588"/>
    <tag k="highway" v="residential"/>
    <tag k="maxspeed" v="50"/>
    <tag k="maxspeed:source" v="default residential speed limit in Australia"/>
    <tag k="name" v="Baden Powell Place"/>
    <tag k="source" v="survey"/>
  </way>
  <way id="14344194" version="5" timestamp="2011-02-12T13:44:11Z" uid="7617" user="Franc" changeset="7264888">
    <nd ref="138975152"/>
    <nd ref="599479872"/>
    <nd ref="599479852"/>
    <nd ref="599479856"/>
    <nd ref="138975153"/>
    <nd ref="599479854"/>
    <nd ref="1149057821"/>
    <tag k="highway" v="residential"/>
    <tag k="maxspeed" v="50"/>
    <tag k="maxspeed:source" v="default residential speed limit in Australia"/>
    <tag k="name" v="Baden Powell Place"/>
    <tag k="source" v="survey"/>
  </way>
  <way id="14344194" version="6" timestamp="2012-01-15T12:33:15Z" uid="147510" user="woodpeck_fixbot" changeset="10396281">
    <nd ref="138975152"/>
    <nd ref="599479872"/>
    <nd ref="599479852"/>
    <nd ref="599479856"/>
    <nd ref="138975153"/>
    <nd ref="599479854"/>
    <nd ref="1149057821"/>
    <tag k="highway" v="residential"/>
    <tag k="name" v="Baden Powell Place"/>
    <tag k="source" v="survey"/>
  </way>
  <way id="14344249" version="3" timestamp="2010-07-08T01:39:17Z" uid="74617" user="JohnSmith" changeset="5162525">
    <nd ref="138977281"/>
    <nd ref="332054242"/>
    <tag k="highway" v="residential"/>
    <tag k="maxspeed" v="50"/>
    <tag k="maxspeed:source" v="default residential speed limit in Australia"/>
    <tag k="name" v="Thomas Street"/>
  </way>
  <way id="14344249" version="4" timestamp="2011-02-12T13:44:03Z" uid="7617" user="Franc" changeset="7264888">
    <nd ref="138977281"/>
    <nd ref="1149057784"/>
    <tag k="highway" v="residential"/>
    <tag k="maxspeed" v="50"/>
    <tag k="maxspeed:source" v="default residential speed limit in Australia"/>
    <tag k="name" v="Thomas Street"/>
    <tag k="restriction" v="school_zone"/>
  </way>
  <way id="14344249" version="5" timestamp="2012-01-15T12:33:17Z" uid="147510" user="woodpeck_fixbot" changeset="10396281">
    <nd ref="138977281"/>
    <nd ref="1149057784"/>
    <tag k="highway" v="residential"/>
    <tag k="name" v="Thomas Street"/>
    <tag k="restriction" v="school_zone"/>
  </way>
  <way id="14344276" version="2" timestamp="2009-12-26T06:17:26Z" uid="61114" user="Trav" changeset="3452335">
    <nd ref="138979600"/>
    <nd ref="599479830"/>
    <nd ref="138979602"/>
    <tag k="highway" v="residential"/>
    <tag k="name" v="Eros Place"/>
  </way>
  <way id="14344276" version="3" timestamp="2010-07-08T01:32:18Z" uid="74617" user="JohnSmith" changeset="5162525">
    <nd ref="138979600"/>
    <nd ref="599479830"/>
    <nd ref="138979602"/>
    <tag k="highway" v="residential"/>
    <tag k="maxspeed" v="50"/>
    <tag k="maxspeed:source" v="default residential speed limit in Australia"/>
    <tag k="name" v="Eros Place"/>
  </way>
  <way id="14344276" version="4" timestamp="2012-01-15T12:33:18Z" uid="147510" user="woodpeck_fixbot" changeset="10396281">
    <nd ref="138979600"/>
    <nd ref="599479830"/>
    <nd ref="138979602"/>
    <tag k="highway" v="residential"/>
    <tag k="name" v="Eros Place"/>
  </way>
  <way id="14344283" version="3" timestamp="2010-07-08T01:37:48Z" uid="74617" user="JohnSmith" changeset="5162525">
    <nd ref="138979998"/>
    <nd ref="138981162"/>
    <nd ref="138979999"/>
    <nd ref="138980000"/>
    <tag k="highway" v="residential"/>
    <tag k="maxspeed" v="50"/>
    <tag k="maxspeed:source" v="default residential speed limit in Australia"/>
    <tag k="name" v="Goodacre Avenue"/>
  </way>
  <way id="14344283" version="4" timestamp="2012-01-15T12:33:19Z" uid="147510" user="woodpeck_fixbot" changeset="10396281">
    <nd ref="138979998"/>
    <nd ref="138981162"/>
    <nd ref="138979999"/>
    <nd ref="138980000"/>
    <tag k="highway" v="residential"/>
    <tag k="name" v="Goodacre Avenue"/>
  </way>
  <way id="14344285" version="3" timestamp="2010-07-08T01:31:28Z" uid="74617" user="JohnSmith" changeset="5162525">
    <nd ref="138980576"/>
    <nd ref="138980578"/>
    <nd ref="138980580"/>
    <tag k="highway" v="residential"/>
    <tag k="maxspeed" v="50"/>
    <tag k="maxspeed:source" v="default residential speed limit in Australia"/>
    <tag k="name" v="McEwan Avenue"/>
  </way>
  <way id="14344285" version="4" timestamp="2012-01-15T12:33:20Z" uid="147510" user="woodpeck_fixbot" changeset="10396281">
    <nd ref="138980576"/>
    <nd ref="138980578"/>
    <nd ref="138980580"/>
    <tag k="highway" v="residential"/>
    <tag k="name" v="McEwan Avenue"/>
  </way>
  <way id="14344290" version="2" timestamp="2010-07-08T01:35:25Z" uid="74617" user="JohnSmith" changeset="5162525">
    <nd ref="138981156"/>
    <nd ref="138981158"/>
    <nd ref="138980580"/>
    <nd ref="138981160"/>
    <nd ref="138981162"/>
    <tag k="highway" v="residential"/>
    <tag k="maxspeed" v="50"/>
    <tag k="maxspeed:source" v="default residential speed limit in Australia"/>
    <tag k="name" v="Taywood Avenue"/>
  </way>
  <way id="14344290" version="3" timestamp="2012-01-15T12:33:21Z" uid="147510" user="woodpeck_fixbot" changeset="10396281">
    <nd ref="138981156"/>
    <nd ref="138981158"/>
    <nd ref="138980580"/>
    <nd ref="138981160"/>
    <nd ref="138981162"/>
    <tag k="highway" v="residential"/>
    <tag k="name" v="Taywood Avenue"/>
  </way>
  <way id="14344305" version="4" timestamp="2009-12-26T06:17:58Z" uid="61114" user="Trav" changeset="3452335">
    <nd ref="138982030"/>
    <nd ref="599479886"/>
    <nd ref="138979998"/>
    <nd ref="138980576"/>
    <nd ref="138982032"/>
    <nd ref="599479917"/>
    <nd ref="138982033"/>
    <nd ref="599479918"/>
    <nd ref="138982035"/>
    <nd ref="599479919"/>
    <nd ref="138982036"/>
    <nd ref="599479915"/>
    <nd ref="138982038"/>
    <nd ref="599479908"/>
    <nd ref="150910494"/>
    <nd ref="599479894"/>
    <nd ref="138982039"/>
    <nd ref="138983075"/>
    <nd ref="138981156"/>
    <nd ref="138982041"/>
    <nd ref="138982042"/>
    <tag k="highway" v="residential"/>
    <tag k="name" v="Huxley Drive"/>
  </way>
  <way id="14344305" version="5" timestamp="2010-07-08T01:37:25Z" uid="74617" user="JohnSmith" changeset="5162525">
    <nd ref="138982030"/>
    <nd ref="599479886"/>
    <nd ref="138979998"/>
    <nd ref="138980576"/>
    <nd ref="138982032"/>
    <nd ref="599479917"/>
    <nd ref="138982033"/>
    <nd ref="599479918"/>
    <nd ref="138982035"/>
    <nd ref="599479919"/>
    <nd ref="138982036"/>
    <nd ref="599479915"/>
    <nd ref="138982038"/>
    <nd ref="599479908"/>
    <nd ref="150910494"/>
    <nd ref="599479894"/>
    <nd ref="138982039"/>
    <nd ref="138983075"/>
    <nd ref="138981156"/>
    <nd ref="138982041"/>
    <nd ref="138982042"/>
    <tag k="highway" v="residential"/>
    <tag k="maxspeed" v="50"/>
    <tag k="maxspeed:source" v="default residential speed limit in Australia"/>
    <tag k="name" v="Huxley Drive"/>
  </way>
  <way id="14344305" version="6" timestamp="2012-01-15T12:33:22Z" uid="147510" user="woodpeck_fixbot" changeset="10396281">
    <nd ref="138982030"/>
    <nd ref="599479886"/>
    <nd ref="138979998"/>
    <nd ref="138980576"/>
    <nd ref="138982032"/>
    <nd ref="599479917"/>
    <nd ref="138982033"/>
    <nd ref="599479918"/>
    <nd ref="138982035"/>
    <nd ref="599479919"/>
    <nd ref="138982036"/>
    <nd ref="599479915"/>
    <nd ref="138982038"/>
    <nd ref="599479908"/>
    <nd ref="150910494"/>
    <nd ref="599479894"/>
    <nd ref="138982039"/>
    <nd ref="138983075"/>
    <nd ref="138981156"/>
    <nd ref="138982041"/>
    <nd ref="138982042"/>
    <tag k="highway" v="residential"/>
    <tag k="name" v="Huxley Drive"/>
  </way>
  <way id="14344311" version="4" timestamp="2010-07-08T01:32:28Z" uid="74617" user="JohnSmith" changeset="5162525">
    <nd ref="150910494"/>
    <nd ref="150910497"/>
    <nd ref="150910498"/>
    <nd ref="534629788"/>
    <nd ref="150910499"/>
    <nd ref="150910500"/>
    <nd ref="138983070"/>
    <nd ref="138983072"/>
    <nd ref="138983073"/>
    <nd ref="138983074"/>
    <nd ref="138983075"/>
    <tag k="highway" v="residential"/>
    <tag k="maxspeed" v="50"/>
    <tag k="maxspeed:source" v="default residential speed limit in Australia"/>
    <tag k="name" v="Dodson Crescent"/>
  </way>
  <way id="14344311" version="5" timestamp="2012-01-15T12:33:24Z" uid="147510" user="woodpeck_fixbot" changeset="10396281">
    <nd ref="150910494"/>
    <nd ref="150910497"/>
    <nd ref="150910498"/>
    <nd ref="534629788"/>
    <nd ref="150910499"/>
    <nd ref="150910500"/>
    <nd ref="138983070"/>
    <nd ref="138983072"/>
    <nd ref="138983073"/>
    <nd ref="138983074"/>
    <nd ref="138983075"/>
    <tag k="highway" v="residential"/>
    <tag k="name" v="Dodson Crescent"/>
  </way>
  <way id="14344696" version="4" timestamp="2010-03-27T21:43:34Z" uid="20587" user="balrog-kun" changeset="4250871">
    <nd ref="138689495"/>
    <nd ref="139006881"/>
    <nd ref="139006885"/>
    <nd ref="139006888"/>
    <nd ref="139006889"/>
    <nd ref="139006890"/>
    <nd ref="139006892"/>
    <nd ref="139006894"/>
    <nd ref="139006896"/>
    <nd ref="139006898"/>
    <nd ref="139006901"/>
    <nd ref="139006905"/>
    <nd ref="139006907"/>
    <nd ref="139006909"/>
    <nd ref="138871193"/>
    <nd ref="139006911"/>
    <nd ref="139006912"/>
    <nd ref="139006915"/>
    <nd ref="139006917"/>
    <nd ref="139006918"/>
    <nd ref="139006920"/>
    <nd ref="138689152"/>
    <nd ref="139006921"/>
    <nd ref="139006923"/>
    <nd ref="139006924"/>
    <nd ref="139006925"/>
    <nd ref="139006927"/>
    <nd ref="139006929"/>
    <nd ref="139006933"/>
    <nd ref="138689270"/>
    <nd ref="139006935"/>
    <nd ref="139006938"/>
    <nd ref="139006941"/>
    <nd ref="139006944"/>
    <nd ref="139006947"/>
    <nd ref="139006950"/>
    <nd ref="139006952"/>
    <nd ref="139006955"/>
    <nd ref="139006958"/>
    <nd ref="139006960"/>
    <nd ref="139006962"/>
    <nd ref="139006964"/>
    <nd ref="139006967"/>
    <nd ref="139006970"/>
    <nd ref="139006973"/>
    <nd ref="139006976"/>
    <nd ref="139006980"/>
    <nd ref="139006984"/>
    <nd ref="139006986"/>
    <nd ref="139006989"/>
    <nd ref="139006995"/>
    <nd ref="139006998"/>
    <nd ref="139007001"/>
    <nd ref="139007004"/>
    <nd ref="139007008"/>
    <nd ref="139007012"/>
    <nd ref="139007015"/>
    <nd ref="139007018"/>
    <nd ref="139007023"/>
    <nd ref="139007027"/>
    <nd ref="139007029"/>
    <nd ref="139007031"/>
    <nd ref="139007033"/>
    <nd ref="139007035"/>
    <nd ref="139007037"/>
    <nd ref="139007039"/>
    <nd ref="139007041"/>
    <nd ref="139007043"/>
    <nd ref="139007046"/>
    <nd ref="139007049"/>
    <nd ref="139007052"/>
    <nd ref="139007055"/>
    <nd ref="139007056"/>
    <nd ref="139007059"/>
    <nd ref="139007061"/>
    <nd ref="139007064"/>
    <nd ref="139007067"/>
    <nd ref="139007070"/>
    <nd ref="139007073"/>
    <nd ref="139007076"/>
    <nd ref="139007079"/>
    <nd ref="139007084"/>
    <nd ref="139007087"/>
    <nd ref="139007090"/>
    <nd ref="139007093"/>
    <nd ref="139007094"/>
    <nd ref="139007097"/>
    <nd ref="139007101"/>
    <nd ref="139007103"/>
    <nd ref="139007106"/>
    <nd ref="139007108"/>
    <nd ref="139007111"/>
    <nd ref="139007113"/>
    <nd ref="139007116"/>
    <nd ref="139007118"/>
    <nd ref="139007119"/>
    <nd ref="139007120"/>
    <nd ref="139007121"/>
    <nd ref="139007122"/>
    <nd ref="139007123"/>
    <nd ref="139007125"/>
    <nd ref="139007126"/>
    <nd ref="139007132"/>
    <nd ref="139007136"/>
    <nd ref="139007140"/>
    <nd ref="139007141"/>
    <nd ref="139007143"/>
    <nd ref="139007146"/>
    <nd ref="139007147"/>
    <nd ref="139007149"/>
    <nd ref="139007151"/>
    <nd ref="139007153"/>
    <nd ref="139007157"/>
    <nd ref="139007159"/>
    <nd ref="139007162"/>
    <nd ref="139007165"/>
    <nd ref="139007167"/>
    <nd ref="139007170"/>
    <nd ref="139007172"/>
    <nd ref="139007174"/>
    <nd ref="139007175"/>
    <nd ref="139007177"/>
    <nd ref="139007180"/>
    <nd ref="139007183"/>
    <nd ref="139007185"/>
    <nd ref="139007190"/>
    <nd ref="139007194"/>
    <nd ref="139007197"/>
    <nd ref="139007200"/>
    <nd ref="139007202"/>
    <nd ref="139007204"/>
    <tag k="highway" v="secondary"/>
    <tag k="name" v="Kane Springs Road"/>
    <tag k="ref" v="State Highway 317"/>
    <tag k="tiger:cfcc" v="A41"/>
    <tag k="tiger:county" v="Lincoln, NV"/>
    <tag k="tiger:reviewed" v="no"/>
    <tag k="tiger:separated" v="no"/>
    <tag k="tiger:source" v="tiger_import_dch_v0.6_20070828"/>
    <tag k="tiger:tlid" v="165701930:165701955:165714410:165695672:165695676:165695677:165713389:165695686:165695687:165713390:165713392:165706829:165667829:165713396:165713397:165695690:165695691:165700311:165714140:165713802:165698772:165652901:165686590:165686591:165711755:16571"/>
  </way>
  <way id="14344696" version="5" timestamp="2010-08-12T05:36:25Z" uid="63936" user="MojaveNC" changeset="5468737">
    <nd ref="138689495"/>
    <nd ref="139006881"/>
    <nd ref="139006885"/>
    <nd ref="139006888"/>
    <nd ref="139006889"/>
    <nd ref="139006890"/>
    <nd ref="139006892"/>
    <nd ref="139006894"/>
    <nd ref="139006896"/>
    <nd ref="139006898"/>
    <nd ref="139006901"/>
    <nd ref="139006905"/>
    <nd ref="139006907"/>
    <nd ref="139006909"/>
    <nd ref="138871193"/>
    <nd ref="139006911"/>
    <nd ref="139006912"/>
    <nd ref="139006915"/>
    <nd ref="139006917"/>
    <nd ref="139006918"/>
    <nd ref="139006920"/>
    <nd ref="138689152"/>
    <nd ref="139006921"/>
    <nd ref="139006923"/>
    <nd ref="139006924"/>
    <nd ref="139006925"/>
    <nd ref="139006927"/>
    <nd ref="139006929"/>
    <nd ref="139006933"/>
    <nd ref="138689270"/>
    <nd ref="139006935"/>
    <nd ref="139006938"/>
    <nd ref="139006941"/>
    <nd ref="139006944"/>
    <nd ref="139006947"/>
    <nd ref="139006950"/>
    <nd ref="139006952"/>
    <nd ref="139006955"/>
    <nd ref="139006958"/>
    <nd ref="139006960"/>
    <nd ref="139006962"/>
    <nd ref="139006964"/>
    <nd ref="139006967"/>
    <nd ref="139006970"/>
    <nd ref="139006973"/>
    <nd ref="139006976"/>
    <nd ref="139006980"/>
    <nd ref="139006984"/>
    <nd ref="139006986"/>
    <nd ref="139006989"/>
    <nd ref="139006995"/>
    <nd ref="139006998"/>
    <nd ref="139007001"/>
    <nd ref="139007004"/>
    <nd ref="139007008"/>
    <nd ref="139007012"/>
    <nd ref="139007015"/>
    <nd ref="139007018"/>
    <nd ref="139007023"/>
    <nd ref="139007027"/>
    <nd ref="139007029"/>
    <nd ref="139007031"/>
    <nd ref="139007033"/>
    <nd ref="139007035"/>
    <nd ref="139007037"/>
    <nd ref="139007039"/>
    <nd ref="139007041"/>
    <nd ref="139007043"/>
    <nd ref="139007046"/>
    <nd ref="139007049"/>
    <nd ref="139007052"/>
    <nd ref="139007055"/>
    <nd ref="139007056"/>
    <nd ref="139007059"/>
    <nd ref="139007061"/>
    <nd ref="139007064"/>
    <nd ref="139007067"/>
    <nd ref="139007070"/>
    <nd ref="139007073"/>
    <nd ref="139007076"/>
    <nd ref="139007079"/>
    <nd ref="139007084"/>
    <nd ref="139007087"/>
    <nd ref="139007090"/>
    <nd ref="139007093"/>
    <nd ref="139007094"/>
    <nd ref="139007097"/>
    <nd ref="139007101"/>
    <nd ref="139007103"/>
    <nd ref="139007106"/>
    <nd ref="139007108"/>
    <nd ref="139007111"/>
    <nd ref="139007113"/>
    <nd ref="139007116"/>
    <nd ref="139007118"/>
    <nd ref="139007119"/>
    <nd ref="139007120"/>
    <nd ref="139007121"/>
    <nd ref="139007122"/>
    <nd ref="139007123"/>
    <nd ref="139007125"/>
    <nd ref="139007126"/>
    <nd ref="139007132"/>
    <nd ref="139007136"/>
    <nd ref="139007140"/>
    <nd ref="139007141"/>
    <nd ref="139007143"/>
    <nd ref="139007146"/>
    <nd ref="139007147"/>
    <nd ref="139007149"/>
    <nd ref="139007151"/>
    <nd ref="139007153"/>
    <nd ref="139007157"/>
    <nd ref="139007159"/>
    <nd ref="139007162"/>
    <nd ref="139007165"/>
    <nd ref="139007167"/>
    <nd ref="139007170"/>
    <nd ref="139007172"/>
    <nd ref="139007174"/>
    <nd ref="139007175"/>
    <nd ref="139007177"/>
    <nd ref="139007180"/>
    <nd ref="139007183"/>
    <nd ref="139007185"/>
    <nd ref="139007190"/>
    <nd ref="139007194"/>
    <nd ref="139007197"/>
    <nd ref="139007200"/>
    <nd ref="139007202"/>
    <nd ref="139007204"/>
    <tag k="highway" v="track"/>
    <tag k="name" v="Kane Springs Road"/>
    <tag k="ref" v="State Highway 317"/>
    <tag k="tiger:cfcc" v="A41"/>
    <tag k="tiger:county" v="Lincoln, NV"/>
    <tag k="tiger:reviewed" v="no"/>
    <tag k="tiger:separated" v="no"/>
    <tag k="tiger:source" v="tiger_import_dch_v0.6_20070828"/>
    <tag k="tiger:tlid" v="165701930:165701955:165714410:165695672:165695676:165695677:165713389:165695686:165695687:165713390:165713392:165706829:165667829:165713396:165713397:165695690:165695691:165700311:165714140:165713802:165698772:165652901:165686590:165686591:165711755:16571"/>
  </way>
  <way id="14344696" version="6" timestamp="2011-04-11T19:49:49Z" uid="207745" user="NE2" changeset="7834649"/>
  <way id="14344900" version="5" timestamp="2008-07-07T00:36:37Z" uid="6975" user="ulfl" changeset="415781">
    <nd ref="139021991"/>
    <nd ref="139019682"/>
    <tag k="bridge" v="yes"/>
    <tag k="highway" v="motorway"/>
    <tag k="int_ref" v="E90"/>
    <tag k="layer" v="1"/>
    <tag k="length" v="500"/>
    <tag k="name" v="Metsovitikos Bridge"/>
    <tag k="ref" v="A2"/>
  </way>
  <way id="14344900" version="6" timestamp="2008-08-05T12:45:16Z" uid="14235" user="AiNikolas" changeset="76317">
    <nd ref="139021991"/>
    <nd ref="283620814"/>
    <nd ref="283620815"/>
    <nd ref="283620816"/>
    <nd ref="139019682"/>
    <tag k="bridge" v="yes"/>
    <tag k="created_by" v="Potlatch 0.10b"/>
    <tag k="highway" v="motorway"/>
    <tag k="int_ref" v="E90"/>
    <tag k="layer" v="1"/>
    <tag k="length" v="500"/>
    <tag k="name" v="Metsovitikos Bridge"/>
    <tag k="ref" v="A2"/>
  </way>
  <way id="14344900" version="7" timestamp="2008-08-05T12:50:01Z" uid="14235" user="AiNikolas" changeset="76317">
    <nd ref="139021991"/>
    <nd ref="283621684"/>
    <nd ref="283620815"/>
    <nd ref="283620816"/>
    <nd ref="139019682"/>
    <tag k="bridge" v="yes"/>
    <tag k="created_by" v="Potlatch 0.10b"/>
    <tag k="highway" v="motorway"/>
    <tag k="int_ref" v="E90"/>
    <tag k="layer" v="1"/>
    <tag k="length" v="500"/>
    <tag k="name" v="Metsovitikos Bridge"/>
    <tag k="ref" v="A2"/>
  </way>
  <way id="14344900" version="8" timestamp="2008-08-05T13:01:17Z" uid="14235" user="AiNikolas" changeset="76317">
    <nd ref="139021991"/>
    <nd ref="283621684"/>
    <nd ref="283620815"/>
    <nd ref="283620816"/>
    <nd ref="139019682"/>
    <tag k="bridge" v="yes"/>
    <tag k="created_by" v="Potlatch 0.10b"/>
    <tag k="highway" v="motorway"/>
    <tag k="int_ref" v="E90"/>
    <tag k="layer" v="1"/>
    <tag k="length" v="500"/>
    <tag k="name" v="Metsovitikos Bridge"/>
    <tag k="ref" v="A2"/>
  </way>
  <way id="14344900" version="9" timestamp="2008-09-02T17:36:41Z" uid="14235" user="AiNikolas" changeset="501135">
    <nd ref="139021991"/>
    <nd ref="283621684"/>
    <nd ref="283620815"/>
    <nd ref="283620816"/>
    <nd ref="139019682"/>
    <tag k="bridge" v="yes"/>
    <tag k="construction" v="motorway"/>
    <tag k="created_by" v="Potlatch 0.10b"/>
    <tag k="int_ref" v="E90"/>
    <tag k="layer" v="1"/>
    <tag k="length" v="500"/>
    <tag k="name" v="Metsovitikos Bridge"/>
    <tag k="ref" v="A2"/>
  </way>
  <way id="14344900" version="10" timestamp="2008-09-13T01:06:11Z" uid="14235" user="AiNikolas" changeset="618732">
    <nd ref="139021991"/>
    <nd ref="283621684"/>
    <nd ref="283620815"/>
    <nd ref="283620816"/>
    <nd ref="139019682"/>
    <tag k="bridge" v="yes"/>
    <tag k="construction" v="motorway"/>
    <tag k="created_by" v="Potlatch 0.10b"/>
    <tag k="highway" v="construction"/>
    <tag k="int_ref" v="E90"/>
    <tag k="layer" v="1"/>
    <tag k="length" v="500"/>
    <tag k="ref" v="A2"/>
  </way>
  <way id="14344900" version="11" timestamp="2008-11-19T05:14:25Z" uid="14235" user="AiNikolas" changeset="768106">
    <nd ref="139021991"/>
    <nd ref="283621684"/>
    <nd ref="283620815"/>
    <nd ref="283620816"/>
    <nd ref="139019682"/>
    <tag k="bridge" v="yes"/>
    <tag k="construction" v="motorway"/>
    <tag k="created_by" v="Potlatch 0.10f"/>
    <tag k="height" v="110"/>
    <tag k="highway" v="construction"/>
    <tag k="int_ref" v="E90"/>
    <tag k="layer" v="1"/>
    <tag k="length" v="530"/>
    <tag k="name" v="Gefyra Μετσοβίτικου Ποταμού"/>
    <tag k="name:de" v="Metsovitikos Flussbrücke"/>
    <tag k="name:el" v="Gefyra Μετσοβίτικου Ποταμού"/>
    <tag k="name:en" v="Metsovitikos River Bridge"/>
    <tag k="name:fr" v="Pont Fleuve Metsovitikos"/>
    <tag k="ref" v="A2"/>
  </way>
  <way id="14344900" version="12" timestamp="2009-04-15T15:26:24Z" uid="14235" user="AiNikolas" changeset="560963">
    <nd ref="139021991"/>
    <nd ref="283621684"/>
    <nd ref="283620815"/>
    <nd ref="283620816"/>
    <nd ref="139019682"/>
    <tag k="bridge" v="yes"/>
    <tag k="created_by" v="Potlatch 0.10f"/>
    <tag k="height" v="110"/>
    <tag k="highway" v="motorway"/>
    <tag k="int_ref" v="E90"/>
    <tag k="layer" v="1"/>
    <tag k="length" v="530"/>
    <tag k="name" v="Gefyra Μετσοβίτικου Ποταμού"/>
    <tag k="name:de" v="Metsovitikos Flussbrücke"/>
    <tag k="name:el" v="Gefyra Μετσοβίτικου Ποταμού"/>
    <tag k="name:en" v="Metsovitikos River Bridge"/>
    <tag k="name:fr" v="Pont Fleuve Metsovitikos"/>
    <tag k="ref" v="A2"/>
  </way>
  <way id="14344900" version="13" timestamp="2009-05-30T10:21:18Z" uid="14235" user="AiNikolas" changeset="1357136">
    <nd ref="139021991"/>
    <nd ref="283621684"/>
    <nd ref="283620815"/>
    <nd ref="283620816"/>
    <nd ref="139019682"/>
    <tag k="bridge" v="yes"/>
    <tag k="created_by" v="Potlatch 0.10f"/>
    <tag k="height" v="112"/>
    <tag k="highway" v="motorway"/>
    <tag k="int_ref" v="E90"/>
    <tag k="layer" v="1"/>
    <tag k="length" v="530"/>
    <tag k="name" v="Gefyra Μετσοβίτικου Ποταμού"/>
    <tag k="name:de" v="Metsovitikos Flussbrücke"/>
    <tag k="name:el" v="Gefyra Μετσοβίτικου Ποταμού"/>
    <tag k="name:en" v="Metsovitikos River Bridge"/>
    <tag k="name:fr" v="Pont Fleuve Metsovitikos"/>
    <tag k="ref" v="A2"/>
  </way>
  <way id="14344900" version="14" timestamp="2010-02-15T18:04:02Z" uid="23785" user="Simon Kokolakis" changeset="3885345">
    <nd ref="139021991"/>
    <nd ref="283621684"/>
    <nd ref="283620815"/>
    <nd ref="283620816"/>
    <nd ref="139019682"/>
    <tag k="bridge" v="yes"/>
    <tag k="height" v="112"/>
    <tag k="highway" v="motorway"/>
    <tag k="layer" v="1"/>
    <tag k="length" v="530"/>
    <tag k="name" v="Gefyra Μετσοβίτικου Ποταμού"/>
    <tag k="name:de" v="Metsovitikos Flussbrücke"/>
    <tag k="name:el" v="Gefyra Μετσοβίτικου Ποταμού"/>
    <tag k="name:en" v="Metsovitikos River Bridge"/>
    <tag k="name:fr" v="Pont Fleuve Metsovitikos"/>
  </way>
  <way id="14344900" version="15" timestamp="2010-05-03T19:25:18Z" uid="23785" user="Simon Kokolakis" changeset="4598108">
    <nd ref="139021991"/>
    <nd ref="283621684"/>
    <nd ref="283620815"/>
    <nd ref="283620816"/>
    <nd ref="139019682"/>
    <tag k="bridge" v="yes"/>
    <tag k="height" v="112"/>
    <tag k="highway" v="motorway"/>
    <tag k="layer" v="1"/>
    <tag k="length" v="530"/>
    <tag k="name" v="Gefyra Μετσοβίτικου Ποταμού"/>
    <tag k="name:de" v="Metsovitikos Flussbrücke"/>
    <tag k="name:el" v="Gefyra Μετσοβίτικου Ποταμού"/>
    <tag k="name:en" v="Metsovitikos River Bridge"/>
    <tag k="name:fr" v="Pont Fleuve Metsovitikos"/>
    <tag k="oneway" v="yes"/>
  </way>
  <way id="14344900" version="16" timestamp="2010-10-25T05:02:31Z" uid="14235" user="AiNikolas" changeset="6167981">
    <nd ref="139021991"/>
    <nd ref="139019682"/>
    <tag k="bridge" v="yes"/>
    <tag k="height" v="112"/>
    <tag k="highway" v="motorway"/>
    <tag k="layer" v="1"/>
    <tag k="length" v="530"/>
    <tag k="name" v="Gefyra Μετσοβίτικου Ποταμού"/>
    <tag k="name:de" v="Metsovitikos Flussbrücke"/>
    <tag k="name:el" v="Gefyra Μετσοβίτικου Ποταμού"/>
    <tag k="name:en" v="Metsovitikos River Bridge"/>
    <tag k="name:fr" v="Pont Fleuve Metsovitikos"/>
    <tag k="oneway" v="yes"/>
  </way>
  <way id="14344900" version="17" timestamp="2010-10-27T11:40:29Z" uid="14235" user="AiNikolas" changeset="6194455"/>
  <way id="14344904" version="12" timestamp="2008-07-07T00:36:38Z" uid="6975" user="ulfl" changeset="415781">
    <nd ref="139019682"/>
    <nd ref="140904569"/>
    <nd ref="140902098"/>
    <nd ref="140904571"/>
    <nd ref="139019684"/>
    <nd ref="139019686"/>
    <nd ref="139019687"/>
    <nd ref="139019689"/>
    <nd ref="139019690"/>
    <nd ref="140903788"/>
    <nd ref="139019692"/>
    <nd ref="139030086"/>
    <tag k="highway" v="motorway"/>
    <tag k="int_ref" v="E90"/>
    <tag k="layer" v="-1"/>
    <tag k="length" v="3600"/>
    <tag k="name" v="Metsovo Tunnel"/>
    <tag k="ref" v="A2"/>
    <tag k="tunnel" v="yes"/>
  </way>
  <way id="14344904" version="13" timestamp="2008-09-02T17:36:58Z" uid="14235" user="AiNikolas" changeset="501135">
    <nd ref="139019682"/>
    <nd ref="140904569"/>
    <nd ref="140902098"/>
    <nd ref="140904571"/>
    <nd ref="139019684"/>
    <nd ref="139019686"/>
    <nd ref="139019687"/>
    <nd ref="139019689"/>
    <nd ref="139019690"/>
    <nd ref="140903788"/>
    <nd ref="139019692"/>
    <nd ref="139030086"/>
    <tag k="construction" v="motorway"/>
    <tag k="created_by" v="Potlatch 0.10b"/>
    <tag k="int_ref" v="E90"/>
    <tag k="layer" v="-1"/>
    <tag k="length" v="3600"/>
    <tag k="name" v="Metsovo Tunnel"/>
    <tag k="ref" v="A2"/>
    <tag k="tunnel" v="yes"/>
  </way>
  <way id="14344904" version="14" timestamp="2008-09-13T01:04:37Z" uid="14235" user="AiNikolas" changeset="618732">
    <nd ref="139019682"/>
    <nd ref="140904569"/>
    <nd ref="140902098"/>
    <nd ref="140904571"/>
    <nd ref="139019684"/>
    <nd ref="139019686"/>
    <nd ref="139019687"/>
    <nd ref="139019689"/>
    <nd ref="139019690"/>
    <nd ref="140903788"/>
    <nd ref="139019692"/>
    <nd ref="139030086"/>
    <tag k="construction" v="motorway"/>
    <tag k="created_by" v="Potlatch 0.10b"/>
    <tag k="int_ref" v="E90"/>
    <tag k="layer" v="-1"/>
    <tag k="length" v="3600"/>
    <tag k="name" v="Metsovo Tunnel"/>
    <tag k="ref" v="A2"/>
    <tag k="tunnel" v="yes"/>
  </way>
  <way id="14344904" version="15" timestamp="2008-09-13T01:04:48Z" uid="14235" user="AiNikolas" changeset="618732">
    <nd ref="139019682"/>
    <nd ref="140904569"/>
    <nd ref="140902098"/>
    <nd ref="140904571"/>
    <nd ref="139019684"/>
    <nd ref="139019686"/>
    <nd ref="139019687"/>
    <nd ref="139019689"/>
    <nd ref="139019690"/>
    <nd ref="140903788"/>
    <nd ref="139019692"/>
    <nd ref="139030086"/>
    <tag k="construction" v="motorway"/>
    <tag k="created_by" v="Potlatch 0.10b"/>
    <tag k="highway" v="construction"/>
    <tag k="int_ref" v="E90"/>
    <tag k="layer" v="-1"/>
    <tag k="length" v="3600"/>
    <tag k="name" v="Metsovo Tunnel"/>
    <tag k="ref" v="A2"/>
    <tag k="tunnel" v="yes"/>
  </way>
  <way id="14344904" version="16" timestamp="2008-11-19T05:09:32Z" uid="14235" user="AiNikolas" changeset="768106">
    <nd ref="139019682"/>
    <nd ref="140904569"/>
    <nd ref="140902098"/>
    <nd ref="140904571"/>
    <nd ref="139019684"/>
    <nd ref="139019686"/>
    <nd ref="139019687"/>
    <nd ref="139019689"/>
    <nd ref="139019690"/>
    <nd ref="140903788"/>
    <nd ref="139019692"/>
    <nd ref="139030086"/>
    <tag k="construction" v="motorway"/>
    <tag k="created_by" v="Potlatch 0.10f"/>
    <tag k="highway" v="construction"/>
    <tag k="int_ref" v="E90"/>
    <tag k="layer" v="-1"/>
    <tag k="length" v="3600"/>
    <tag k="name" v="σήραγγα Μετσόβου"/>
    <tag k="name:de" v="Metsovo Tunnel"/>
    <tag k="name:el" v="σήραγγα Μετσόβου"/>
    <tag k="name:en" v="Metsovo Tunnel"/>
    <tag k="name:fr" v="Metsovo Tunnel"/>
    <tag k="ref" v="A2"/>
    <tag k="tunnel" v="yes"/>
  </way>
  <way id="14344904" version="17" timestamp="2009-04-15T15:26:15Z" uid="14235" user="AiNikolas" changeset="560963">
    <nd ref="139019682"/>
    <nd ref="140904569"/>
    <nd ref="140902098"/>
    <nd ref="140904571"/>
    <nd ref="139019684"/>
    <nd ref="139019686"/>
    <nd ref="139019687"/>
    <nd ref="139019689"/>
    <nd ref="139019690"/>
    <nd ref="140903788"/>
    <nd ref="139019692"/>
    <nd ref="139030086"/>
    <tag k="created_by" v="Potlatch 0.10f"/>
    <tag k="highway" v="motorway"/>
    <tag k="int_ref" v="E90"/>
    <tag k="layer" v="-1"/>
    <tag k="length" v="3600"/>
    <tag k="name" v="σήραγγα Μετσόβου"/>
    <tag k="name:de" v="Metsovo Tunnel"/>
    <tag k="name:el" v="σήραγγα Μετσόβου"/>
    <tag k="name:en" v="Metsovo Tunnel"/>
    <tag k="name:fr" v="Metsovo Tunnel"/>
    <tag k="ref" v="A2"/>
    <tag k="tunnel" v="yes"/>
  </way>
  <way id="14344904" version="18" timestamp="2009-05-30T10:21:01Z" uid="14235" user="AiNikolas" changeset="1357136">
    <nd ref="139019682"/>
    <nd ref="140904569"/>
    <nd ref="140902098"/>
    <nd ref="140904571"/>
    <nd ref="139019684"/>
    <nd ref="139019686"/>
    <nd ref="139019687"/>
    <nd ref="139019689"/>
    <nd ref="139019690"/>
    <nd ref="412747518"/>
    <nd ref="140903788"/>
    <nd ref="139019692"/>
    <nd ref="139030086"/>
    <tag k="created_by" v="Potlatch 0.10f"/>
    <tag k="highway" v="motorway"/>
    <tag k="int_ref" v="E90"/>
    <tag k="layer" v="-1"/>
    <tag k="length" v="3600"/>
    <tag k="name" v="σήραγγα Μετσόβου"/>
    <tag k="name:de" v="Metsovo Tunnel"/>
    <tag k="name:el" v="σήραγγα Μετσόβου"/>
    <tag k="name:en" v="Metsovo Tunnel"/>
    <tag k="name:fr" v="Metsovo Tunnel"/>
    <tag k="ref" v="A2"/>
    <tag k="tunnel" v="yes"/>
  </way>
  <way id="14344904" version="19" timestamp="2009-08-21T21:03:45Z" uid="27370" user="skamp" changeset="2228703">
    <nd ref="139019682"/>
    <nd ref="140904569"/>
    <nd ref="140902098"/>
    <nd ref="140904571"/>
    <nd ref="139019684"/>
    <nd ref="139019686"/>
    <nd ref="139019687"/>
    <nd ref="139019689"/>
    <nd ref="139019690"/>
    <tag k="highway" v="motorway"/>
    <tag k="int_ref" v="E90"/>
    <tag k="layer" v="-1"/>
    <tag k="length" v="3600"/>
    <tag k="name" v="σήραγγα Μετσόβου"/>
    <tag k="name:de" v="Metsovo Tunnel"/>
    <tag k="name:el" v="σήραγγα Μετσόβου"/>
    <tag k="name:en" v="Metsovo Tunnel"/>
    <tag k="name:fr" v="Metsovo Tunnel"/>
    <tag k="ref" v="A2"/>
    <tag k="tunnel" v="yes"/>
  </way>
  <way id="14344904" version="20" timestamp="2010-02-15T18:03:52Z" uid="23785" user="Simon Kokolakis" changeset="3885345">
    <nd ref="139019682"/>
    <nd ref="140904569"/>
    <nd ref="140902098"/>
    <nd ref="140904571"/>
    <nd ref="139019684"/>
    <nd ref="139019686"/>
    <nd ref="139019687"/>
    <nd ref="139019689"/>
    <nd ref="139019690"/>
    <tag k="highway" v="motorway"/>
    <tag k="layer" v="-1"/>
    <tag k="length" v="3600"/>
    <tag k="name" v="σήραγγα Μετσόβου"/>
    <tag k="name:de" v="Metsovo Tunnel"/>
    <tag k="name:el" v="σήραγγα Μετσόβου"/>
    <tag k="name:en" v="Metsovo Tunnel"/>
    <tag k="name:fr" v="Metsovo Tunnel"/>
    <tag k="tunnel" v="yes"/>
  </way>
  <way id="14344904" version="21" timestamp="2010-05-03T19:25:17Z" uid="23785" user="Simon Kokolakis" changeset="4598108">
    <nd ref="139019682"/>
    <nd ref="140904569"/>
    <nd ref="140902098"/>
    <nd ref="140904571"/>
    <nd ref="139019684"/>
    <nd ref="139019686"/>
    <nd ref="139019687"/>
    <nd ref="139019689"/>
    <nd ref="139019690"/>
    <tag k="highway" v="motorway"/>
    <tag k="layer" v="-1"/>
    <tag k="length" v="3600"/>
    <tag k="name" v="σήραγγα Μετσόβου"/>
    <tag k="name:de" v="Metsovo Tunnel"/>
    <tag k="name:el" v="σήραγγα Μετσόβου"/>
    <tag k="name:en" v="Metsovo Tunnel"/>
    <tag k="name:fr" v="Metsovo Tunnel"/>
    <tag k="oneway" v="yes"/>
    <tag k="tunnel" v="yes"/>
  </way>
  <way id="14344904" version="22" timestamp="2010-10-25T06:31:22Z" uid="14235" user="AiNikolas" changeset="6168513">
    <nd ref="139019682"/>
    <nd ref="140904569"/>
    <nd ref="140902098"/>
    <nd ref="140904571"/>
    <nd ref="139019684"/>
    <nd ref="139019686"/>
    <nd ref="139019687"/>
    <nd ref="139019689"/>
    <nd ref="964631998"/>
    <nd ref="964631999"/>
    <nd ref="964632000"/>
    <nd ref="964632001"/>
    <nd ref="139019690"/>
    <nd ref="412747518"/>
    <nd ref="140903788"/>
    <nd ref="964559154"/>
    <tag k="highway" v="motorway"/>
    <tag k="layer" v="-1"/>
    <tag k="length" v="3600"/>
    <tag k="name" v="σήραγγα Μετσόβου"/>
    <tag k="name:de" v="Metsovo Tunnel"/>
    <tag k="name:el" v="σήραγγα Μετσόβου"/>
    <tag k="name:en" v="Metsovo Tunnel"/>
    <tag k="name:fr" v="Metsovo Tunnel"/>
    <tag k="oneway" v="yes"/>
    <tag k="tunnel" v="yes"/>
  </way>
  <way id="14344904" version="23" timestamp="2010-10-27T11:38:52Z" uid="14235" user="AiNikolas" changeset="6194455">
    <nd ref="966731622"/>
    <nd ref="139019682"/>
    <nd ref="140904569"/>
    <nd ref="140902098"/>
    <nd ref="140904571"/>
    <nd ref="139019684"/>
    <nd ref="139019686"/>
    <nd ref="139019687"/>
    <nd ref="139019689"/>
    <nd ref="964631998"/>
    <nd ref="964631999"/>
    <nd ref="964632000"/>
    <nd ref="964632001"/>
    <nd ref="966733595"/>
    <nd ref="966733596"/>
    <nd ref="966733598"/>
    <nd ref="966733600"/>
    <nd ref="966731705"/>
    <tag k="highway" v="motorway"/>
    <tag k="layer" v="-1"/>
    <tag k="length" v="3600"/>
    <tag k="name" v="σήραγγα Μετσόβου"/>
    <tag k="name:de" v="Metsovo Tunnel"/>
    <tag k="name:el" v="σήραγγα Μετσόβου"/>
    <tag k="name:en" v="Metsovo Tunnel"/>
    <tag k="name:fr" v="Metsovo Tunnel"/>
    <tag k="oneway" v="yes"/>
    <tag k="tunnel" v="yes"/>
  </way>
  <way id="14344904" version="24" timestamp="2010-10-27T15:10:48Z" uid="14235" user="AiNikolas" changeset="6196821">
    <nd ref="966731622"/>
    <nd ref="139019682"/>
    <nd ref="140904569"/>
    <nd ref="140902098"/>
    <nd ref="140904571"/>
    <nd ref="139019684"/>
    <nd ref="139019686"/>
    <nd ref="139019687"/>
    <nd ref="139019689"/>
    <nd ref="964631998"/>
    <nd ref="964631999"/>
    <nd ref="964632000"/>
    <nd ref="964632001"/>
    <nd ref="966733595"/>
    <nd ref="966733596"/>
    <nd ref="966733598"/>
    <nd ref="966733600"/>
    <nd ref="966731705"/>
    <tag k="highway" v="motorway"/>
    <tag k="info" v="corrected by GPS tracking 2010-10-07"/>
    <tag k="layer" v="-1"/>
    <tag k="length" v="3600"/>
    <tag k="name" v="Σήραγγα Μετσόβου"/>
    <tag k="name:de" v="Metsovo Tunnel"/>
    <tag k="name:el" v="Σήραγγα Μετσόβου"/>
    <tag k="name:en" v="Metsovo Tunnel"/>
    <tag k="name:fr" v="Metsovo Tunnel"/>
    <tag k="oneway" v="yes"/>
    <tag k="tunnel" v="yes"/>
  </way>
  <way id="14344920" version="3" timestamp="2010-03-27T21:43:35Z" uid="20587" user="balrog-kun" changeset="4250871">
    <nd ref="139023166"/>
    <nd ref="139023168"/>
    <nd ref="139023171"/>
    <nd ref="139023173"/>
    <nd ref="139023176"/>
    <nd ref="139023180"/>
    <nd ref="139023183"/>
    <nd ref="139007673"/>
    <tag k="highway" v="residential"/>
    <tag k="name" v="Kane Springs Wash Road"/>
    <tag k="tiger:cfcc" v="A41"/>
    <tag k="tiger:county" v="Lincoln, NV"/>
    <tag k="tiger:reviewed" v="no"/>
    <tag k="tiger:separated" v="no"/>
    <tag k="tiger:source" v="tiger_import_dch_v0.6_20070828"/>
    <tag k="tiger:tlid" v="165652762"/>
  </way>
  <way id="14344920" version="4" timestamp="2011-05-31T04:19:34Z" uid="3392" user="SimMoonXP" changeset="8298188">
    <nd ref="139023166"/>
    <nd ref="139023168"/>
    <nd ref="139023171"/>
    <nd ref="139023173"/>
    <nd ref="139023176"/>
    <nd ref="139023180"/>
    <nd ref="139023183"/>
    <nd ref="139007673"/>
    <tag k="highway" v="track"/>
    <tag k="name" v="Kane Springs Wash Road"/>
    <tag k="tiger:cfcc" v="A41"/>
    <tag k="tiger:county" v="Lincoln, NV"/>
    <tag k="tiger:reviewed" v="no"/>
    <tag k="tiger:separated" v="no"/>
    <tag k="tiger:source" v="tiger_import_dch_v0.6_20070828"/>
    <tag k="tiger:tlid" v="165652762"/>
  </way>
  <way id="14344924" version="9" timestamp="2008-07-07T00:36:37Z" uid="6975" user="ulfl" changeset="415781">
    <nd ref="139747820"/>
    <nd ref="140905690"/>
    <nd ref="139748010"/>
    <nd ref="139022106"/>
    <nd ref="139022108"/>
    <nd ref="139022110"/>
    <nd ref="140904983"/>
    <nd ref="140901799"/>
    <nd ref="140904986"/>
    <nd ref="139022111"/>
    <nd ref="140904988"/>
    <nd ref="140901800"/>
    <nd ref="140904989"/>
    <nd ref="139022112"/>
    <nd ref="139021991"/>
    <tag k="highway" v="motorway"/>
    <tag k="int_ref" v="E90"/>
    <tag k="layer" v="-1"/>
    <tag k="length" v="2800"/>
    <tag k="name" v="Anilio Tunnel"/>
    <tag k="ref" v="A2"/>
    <tag k="tunnel" v="yes"/>
  </way>
  <way id="14344924" version="10" timestamp="2008-08-05T11:39:02Z" uid="14235" user="AiNikolas" changeset="76317">
    <nd ref="139747820"/>
    <nd ref="140905690"/>
    <nd ref="139748010"/>
    <nd ref="283604317"/>
    <nd ref="139022106"/>
    <nd ref="139022108"/>
    <nd ref="139022110"/>
    <nd ref="140904983"/>
    <nd ref="140901799"/>
    <nd ref="140904986"/>
    <nd ref="139022111"/>
    <nd ref="140904988"/>
    <nd ref="140901800"/>
    <nd ref="140904989"/>
    <nd ref="139022112"/>
    <nd ref="139021991"/>
    <tag k="created_by" v="Potlatch 0.10b"/>
    <tag k="highway" v="motorway"/>
    <tag k="int_ref" v="E90"/>
    <tag k="layer" v="-1"/>
    <tag k="length" v="2800"/>
    <tag k="name" v="Anilio Tunnel"/>
    <tag k="ref" v="A2"/>
    <tag k="tunnel" v="yes"/>
  </way>
  <way id="14344924" version="11" timestamp="2008-08-05T11:40:01Z" uid="14235" user="AiNikolas" changeset="76317">
    <nd ref="283604317"/>
    <nd ref="139022106"/>
    <nd ref="139022108"/>
    <nd ref="139022110"/>
    <nd ref="140904983"/>
    <nd ref="140901799"/>
    <nd ref="140904986"/>
    <nd ref="139022111"/>
    <nd ref="140904988"/>
    <nd ref="140901800"/>
    <nd ref="140904989"/>
    <nd ref="139022112"/>
    <nd ref="139021991"/>
    <tag k="created_by" v="Potlatch 0.10b"/>
    <tag k="highway" v="motorway"/>
    <tag k="int_ref" v="E90"/>
    <tag k="layer" v="-1"/>
    <tag k="length" v="2800"/>
    <tag k="name" v="Anilio Tunnel"/>
    <tag k="ref" v="A2"/>
    <tag k="tunnel" v="yes"/>
  </way>
  <way id="14344924" version="12" timestamp="2008-08-05T11:40:39Z" uid="14235" user="AiNikolas" changeset="76317">
    <nd ref="283604314"/>
    <nd ref="283604316"/>
    <nd ref="283604317"/>
    <nd ref="139022106"/>
    <nd ref="139022108"/>
    <nd ref="139022110"/>
    <nd ref="140904983"/>
    <nd ref="140901799"/>
    <nd ref="140904986"/>
    <nd ref="139022111"/>
    <nd ref="140904988"/>
    <nd ref="140901800"/>
    <nd ref="140904989"/>
    <nd ref="139022112"/>
    <nd ref="139021991"/>
    <tag k="created_by" v="Potlatch 0.10b"/>
    <tag k="highway" v="motorway"/>
    <tag k="int_ref" v="E90"/>
    <tag k="layer" v="-1"/>
    <tag k="length" v="2800"/>
    <tag k="name" v="Anilio Tunnel; Egnatia Odos"/>
    <tag k="ref" v="A2"/>
    <tag k="tunnel" v="yes"/>
  </way>
  <way id="14344924" version="13" timestamp="2008-08-05T12:41:36Z" uid="14235" user="AiNikolas" changeset="76317">
    <nd ref="283604314"/>
    <nd ref="283604316"/>
    <nd ref="283604317"/>
    <nd ref="139022106"/>
    <nd ref="139022108"/>
    <nd ref="139022110"/>
    <nd ref="140904983"/>
    <nd ref="140901799"/>
    <nd ref="140904986"/>
    <nd ref="139022111"/>
    <nd ref="140904988"/>
    <nd ref="140901800"/>
    <nd ref="140904989"/>
    <nd ref="139022112"/>
    <nd ref="139021991"/>
    <tag k="created_by" v="Potlatch 0.10b"/>
    <tag k="highway" v="motorway"/>
    <tag k="int_ref" v="E90"/>
    <tag k="layer" v="-1"/>
    <tag k="length" v="2800"/>
    <tag k="name" v="Anilio Tunnel"/>
    <tag k="ref" v="A2"/>
    <tag k="tunnel" v="yes"/>
  </way>
  <way id="14344924" version="14" timestamp="2008-09-02T17:36:14Z" uid="14235" user="AiNikolas" changeset="501135">
    <nd ref="283604314"/>
    <nd ref="283604316"/>
    <nd ref="283604317"/>
    <nd ref="139022106"/>
    <nd ref="139022108"/>
    <nd ref="139022110"/>
    <nd ref="140904983"/>
    <nd ref="140901799"/>
    <nd ref="140904986"/>
    <nd ref="139022111"/>
    <nd ref="140904988"/>
    <nd ref="140901800"/>
    <nd ref="140904989"/>
    <nd ref="139022112"/>
    <nd ref="139021991"/>
    <tag k="construction" v="motorway"/>
    <tag k="created_by" v="Potlatch 0.10b"/>
    <tag k="int_ref" v="E90"/>
    <tag k="layer" v="-1"/>
    <tag k="length" v="2800"/>
    <tag k="name" v="Anilio Tunnel"/>
    <tag k="ref" v="A2"/>
    <tag k="tunnel" v="yes"/>
  </way>
  <way id="14344924" version="15" timestamp="2008-09-09T10:22:05Z" uid="14235" user="AiNikolas" changeset="584655"/>
  <way id="14344010" version="7" timestamp="2012-07-22T01:15:09Z" uid="722137" user="OSMF Redaction Account" changeset="12423743">
    <nd ref="138962082"/>
    <nd ref="138962083"/>
    <nd ref="138962509"/>
    <nd ref="138955855"/>
    <nd ref="138953632"/>
    <nd ref="138956958"/>
    <nd ref="138960112"/>
    <nd ref="138957444"/>
    <nd ref="138959388"/>
    <nd ref="138962085"/>
    <nd ref="138962086"/>
    <tag k="highway" v="residential"/>
    <tag k="name" v="Lomond Crescent"/>
  </way>
  <way id="14344020" version="6" timestamp="2012-07-22T01:15:11Z" uid="722137" user="OSMF Redaction Account" changeset="12423743">
    <nd ref="138962507"/>
    <nd ref="138962508"/>
    <nd ref="138962509"/>
    <tag k="highway" v="residential"/>
    <tag k="name" v="Glasgow Street"/>
  </way>
  <way id="14344038" version="8" timestamp="2012-07-22T01:18:59Z" uid="722137" user="OSMF Redaction Account" changeset="12423792">
    <nd ref="138963662"/>
    <nd ref="138965335"/>
    <nd ref="138964096"/>
    <nd ref="138964517"/>
    <nd ref="138962083"/>
    <tag k="highway" v="residential"/>
    <tag k="name" v="Selkirk Street"/>
  </way>
  <way id="14344065" version="5" timestamp="2012-07-22T01:15:11Z" uid="722137" user="OSMF Redaction Account" changeset="12423743">
    <nd ref="138965335"/>
    <nd ref="138965337"/>
    <nd ref="138965338"/>
    <nd ref="138955850"/>
    <tag k="highway" v="residential"/>
    <tag k="name" v="Lothian Street"/>
  </way>
  <way id="14344083" version="5" timestamp="2012-07-22T01:15:09Z" uid="722137" user="OSMF Redaction Account" changeset="12423743">
    <nd ref="138966545"/>
    <nd ref="138963662"/>
    <nd ref="138966548"/>
    <nd ref="138966550"/>
    <nd ref="138955846"/>
    <nd ref="138966552"/>
    <nd ref="138966554"/>
    <nd ref="138966555"/>
    <tag k="highway" v="residential"/>
    <tag k="name" v="Edinburgh Place"/>
  </way>
  <way id="14344107" version="6" timestamp="2012-07-22T01:15:19Z" uid="722137" user="OSMF Redaction Account" changeset="12423743">
    <nd ref="138969078"/>
    <nd ref="138969079"/>
    <nd ref="138969527"/>
    <nd ref="138969080"/>
    <tag k="highway" v="residential"/>
    <tag k="name" v="Euclid Street"/>
  </way>
  <way id="14344121" version="6" timestamp="2012-07-22T01:15:14Z" uid="722137" user="OSMF Redaction Account" changeset="12423743">
    <nd ref="138970073"/>
    <nd ref="138970074"/>
    <nd ref="138970075"/>
    <tag k="highway" v="residential"/>
    <tag k="name" v="Volta Place"/>
  </way>
  <way id="14344145" version="5" timestamp="2012-07-22T01:15:17Z" uid="722137" user="OSMF Redaction Account" changeset="12423743">
    <nd ref="138971153"/>
    <nd ref="138971154"/>
    <nd ref="138971156"/>
    <nd ref="138970822"/>
    <tag k="highway" v="residential"/>
    <tag k="name" v="Nobel Place"/>
  </way>
  <way id="14344159" version="6" timestamp="2012-07-22T01:15:25Z" uid="722137" user="OSMF Redaction Account" changeset="12423743">
    <nd ref="138972224"/>
    <nd ref="138971850"/>
    <tag k="highway" v="residential"/>
    <tag k="name" v="Kelvin Drive"/>
  </way>
  <way id="14344167" version="6" timestamp="2012-07-22T01:15:19Z" uid="722137" user="OSMF Redaction Account" changeset="12423743">
    <nd ref="138972735"/>
    <nd ref="138972737"/>
    <nd ref="138972739"/>
    <nd ref="138972741"/>
    <nd ref="138972743"/>
    <tag k="highway" v="residential"/>
    <tag k="name" v="Stephenson Street"/>
  </way>
  <way id="14344194" version="7" timestamp="2012-07-22T01:15:26Z" uid="722137" user="OSMF Redaction Account" changeset="12423743">
    <nd ref="138975152"/>
    <nd ref="138975153"/>
    <tag k="highway" v="residential"/>
    <tag k="name" v="Baden Powell Place"/>
    <tag k="source" v="survey"/>
  </way>
  <way id="14344249" version="6" timestamp="2012-07-22T01:26:32Z" uid="722137" user="OSMF Redaction Account" changeset="12423878"/>
  <way id="14344276" version="5" timestamp="2012-07-22T01:15:06Z" uid="722137" user="OSMF Redaction Account" changeset="12423743">
    <nd ref="138979600"/>
    <nd ref="138979602"/>
    <tag k="highway" v="residential"/>
    <tag k="name" v="Eros Place"/>
  </way>
  <way id="14344305" version="7" timestamp="2012-07-22T01:15:05Z" uid="722137" user="OSMF Redaction Account" changeset="12423743">
    <nd ref="138982030"/>
    <nd ref="138979998"/>
    <nd ref="138980576"/>
    <nd ref="138982032"/>
    <nd ref="138982033"/>
    <nd ref="138982035"/>
    <nd ref="138982036"/>
    <nd ref="138982038"/>
    <nd ref="150910494"/>
    <nd ref="138982039"/>
    <nd ref="138983075"/>
    <nd ref="138981156"/>
    <nd ref="138982041"/>
    <nd ref="138982042"/>
    <tag k="highway" v="residential"/>
    <tag k="name" v="Huxley Drive"/>
  </way>
  <way id="14344904" version="25" timestamp="2012-06-04T21:09:54Z" uid="9176" user="Maarten Deen" changeset="11800958">
    <nd ref="966731622"/>
    <nd ref="139019682"/>
    <nd ref="140904569"/>
    <nd ref="140902098"/>
    <nd ref="140904571"/>
    <nd ref="139019684"/>
    <nd ref="139019686"/>
    <nd ref="139019687"/>
    <nd ref="139019689"/>
    <nd ref="964631998"/>
    <nd ref="964631999"/>
    <nd ref="964632000"/>
    <nd ref="964632001"/>
    <nd ref="966733595"/>
    <nd ref="966733596"/>
    <nd ref="966733598"/>
    <nd ref="966733600"/>
    <nd ref="966731705"/>
    <tag k="highway" v="motorway"/>
    <tag k="info" v="corrected by GPS tracking 2010-10-07"/>
    <tag k="int_ref" v="E 90"/>
    <tag k="layer" v="-1"/>
    <tag k="length" v="3600"/>
    <tag k="name" v="Σήραγγα Μετσόβου"/>
    <tag k="name:de" v="Metsovo Tunnel"/>
    <tag k="name:el" v="Σήραγγα Μετσόβου"/>
    <tag k="name:en" v="Metsovo Tunnel"/>
    <tag k="name:fr" v="Metsovo Tunnel"/>
    <tag k="oneway" v="yes"/>
    <tag k="tunnel" v="yes"/>
  </way>
</osm>
