<?xml version='1.0' encoding='UTF-8'?>
<osm version="0.6" generator="libosmium/2.20.0">
  <way id="14488679" version="12" timestamp="2010-03-15T23:40:23Z" uid="163746" user="anti_bot-nonsense" changeset="4139871">
    <nd ref="258148166"/>
    <nd ref="258148759"/>
    <tag k="bridge" v="yes"/>
    <tag k="highway" v="primary"/>
    <tag k="int_ref" v="E 261"/>
    <tag k="layer" v="1"/>
    <tag k="name" v="Hetmańska"/>
    <tag k="oneway" v="yes"/>
    <tag k="ref" v="5, 11"/>
  </way>
  <way id="14488679" version="13" timestamp="2010-07-31T18:56:40Z" uid="113415" user="tomek-k" changeset="5364977">
    <nd ref="258148166"/>
    <nd ref="258148759"/>
    <tag k="bridge" v="yes"/>
    <tag k="highway" v="primary"/>
    <tag k="int_ref" v="E 261"/>
    <tag k="layer" v="1"/>
    <tag k="name" v="Hetmańska"/>
    <tag k="oneway" v="yes"/>
    <tag k="ref" v="5;11"/>
  </way>
  <way id="14488683" version="6" timestamp="2010-03-15T23:40:21Z" uid="163746" user="anti_bot-nonsense" changeset="4139871">
    <nd ref="142361956"/>
    <nd ref="428765310"/>
    <nd ref="142332272"/>
    <tag k="highway" v="primary_link"/>
    <tag k="oneway" v="yes"/>
  </way>
  <way id="14488683" version="7" timestamp="2012-01-23T04:11:15Z" uid="88909" user="miko101" changeset="10471972"/>
  <way id="14488686" version="8" timestamp="2010-03-15T23:40:23Z" uid="163746" user="anti_bot-nonsense" changeset="4139871">
    <nd ref="142361953"/>
    <nd ref="428764961"/>
    <nd ref="142330760"/>
    <tag k="highway" v="primary_link"/>
    <tag k="oneway" v="yes"/>
  </way>
  <way id="14488686" version="9" timestamp="2011-09-11T19:24:33Z" uid="91056" user="Yarl" changeset="9274350">
    <nd ref="142361953"/>
    <nd ref="1430432553"/>
    <nd ref="428764961"/>
    <nd ref="142330760"/>
    <tag k="highway" v="primary_link"/>
    <tag k="oneway" v="yes"/>
  </way>
  <way id="14488686" version="10" timestamp="2012-01-23T04:11:14Z" uid="88909" user="miko101" changeset="10471972"/>
  <way id="14488688" version="6" timestamp="2010-03-15T23:40:20Z" uid="163746" user="anti_bot-nonsense" changeset="4139871">
    <nd ref="142330759"/>
    <nd ref="428764824"/>
    <nd ref="142361951"/>
    <tag k="highway" v="primary_link"/>
    <tag k="oneway" v="yes"/>
  </way>
  <way id="14488688" version="7" timestamp="2012-01-23T04:11:15Z" uid="88909" user="miko101" changeset="10471972"/>
  <way id="14488690" version="8" timestamp="2010-03-15T23:40:22Z" uid="163746" user="anti_bot-nonsense" changeset="4139871">
    <nd ref="258148852"/>
    <nd ref="258148615"/>
    <tag k="bridge" v="yes"/>
    <tag k="highway" v="primary"/>
    <tag k="int_ref" v="E 261"/>
    <tag k="layer" v="1"/>
    <tag k="name" v="Hetmańska"/>
    <tag k="oneway" v="yes"/>
    <tag k="ref" v="5, 11"/>
  </way>
  <way id="14488690" version="9" timestamp="2010-07-31T18:56:40Z" uid="113415" user="tomek-k" changeset="5364977">
    <nd ref="258148852"/>
    <nd ref="258148615"/>
    <tag k="bridge" v="yes"/>
    <tag k="highway" v="primary"/>
    <tag k="int_ref" v="E 261"/>
    <tag k="layer" v="1"/>
    <tag k="name" v="Hetmańska"/>
    <tag k="oneway" v="yes"/>
    <tag k="ref" v="5;11"/>
  </way>
  <way id="14488692" version="5" timestamp="2010-03-15T23:39:01Z" uid="163746" user="anti_bot-nonsense" changeset="4139871">
    <nd ref="142361954"/>
    <nd ref="428765300"/>
    <nd ref="29943247"/>
    <tag k="highway" v="secondary"/>
    <tag k="name" v="Dolna Wilda"/>
    <tag k="oneway" v="yes"/>
  </way>
  <way id="14488692" version="6" timestamp="2011-01-04T22:00:56Z" uid="88909" user="miko101" changeset="6866426">
    <nd ref="142361954"/>
    <nd ref="428765300"/>
    <nd ref="29943247"/>
    <tag k="highway" v="secondary"/>
    <tag k="name" v="Dolna Wilda"/>
    <tag k="oneway" v="yes"/>
    <tag k="ref" v="430"/>
  </way>
  <way id="14488692" version="7" timestamp="2011-09-11T19:24:24Z" uid="91056" user="Yarl" changeset="9274350">
    <nd ref="142361954"/>
    <nd ref="428765300"/>
    <nd ref="1430432542"/>
    <nd ref="29943247"/>
    <tag k="highway" v="secondary"/>
    <tag k="name" v="Dolna Wilda"/>
    <tag k="oneway" v="yes"/>
    <tag k="ref" v="430"/>
  </way>
  <way id="14488693" version="6" timestamp="2010-03-15T23:39:00Z" uid="163746" user="anti_bot-nonsense" changeset="4139871">
    <nd ref="29943247"/>
    <nd ref="436161109"/>
    <nd ref="436161110"/>
    <nd ref="142362110"/>
    <nd ref="142361956"/>
    <tag k="highway" v="secondary"/>
    <tag k="name" v="Dolna Wilda"/>
    <tag k="oneway" v="yes"/>
  </way>
  <way id="14488693" version="7" timestamp="2011-01-04T21:59:54Z" uid="88909" user="miko101" changeset="6866426">
    <nd ref="29943247"/>
    <nd ref="436161109"/>
    <nd ref="436161110"/>
    <nd ref="142362110"/>
    <nd ref="142361956"/>
    <tag k="highway" v="secondary"/>
    <tag k="name" v="Dolna Wilda"/>
    <tag k="oneway" v="yes"/>
    <tag k="ref" v="430"/>
  </way>
  <way id="14488693" version="8" timestamp="2011-09-11T19:24:24Z" uid="91056" user="Yarl" changeset="9274350">
    <nd ref="29943247"/>
    <nd ref="436161109"/>
    <nd ref="1430432544"/>
    <nd ref="436161110"/>
    <nd ref="142362110"/>
    <nd ref="142361956"/>
    <tag k="highway" v="secondary"/>
    <tag k="name" v="Dolna Wilda"/>
    <tag k="oneway" v="yes"/>
    <tag k="ref" v="430"/>
  </way>
  <way id="14488880" version="2" timestamp="2008-08-11T11:32:23Z" uid="6269" user="Mueck" changeset="188275">
    <nd ref="35828150"/>
    <nd ref="142365229"/>
    <nd ref="142365236"/>
    <nd ref="142365242"/>
    <nd ref="142365249"/>
    <nd ref="142365255"/>
    <tag k="created_by" v="Potlatch 0.10b"/>
    <tag k="highway" v="tertiary"/>
  </way>
  <way id="14488880" version="3" timestamp="2009-09-23T08:53:13Z" uid="9527" user="lluc" changeset="2592751">
    <nd ref="35828150"/>
    <nd ref="142365229"/>
    <nd ref="142365236"/>
    <nd ref="142365242"/>
    <nd ref="142365249"/>
    <nd ref="142365255"/>
    <tag k="highway" v="tertiary"/>
  </way>
  <way id="14488880" version="4" timestamp="2010-08-21T05:40:40Z" uid="215889" user="SolarPlucked2" changeset="5549026">
    <nd ref="35828150"/>
    <nd ref="142365229"/>
    <nd ref="142365236"/>
    <nd ref="142365242"/>
    <nd ref="142365249"/>
    <nd ref="142365255"/>
    <tag k="highway" v="tertiary"/>
    <tag k="name" v="Christian-Pähr-Straße"/>
  </way>
  <way id="14488880" version="5" timestamp="2011-01-03T10:21:41Z" uid="121365" user="AKletti" changeset="6847763">
    <nd ref="35828150"/>
    <nd ref="1080337446"/>
    <nd ref="142365229"/>
    <nd ref="142365236"/>
    <nd ref="142365242"/>
    <nd ref="142365249"/>
    <nd ref="142365255"/>
    <tag k="highway" v="tertiary"/>
    <tag k="name" v="Christian-Pähr-Straße"/>
  </way>
  <way id="14488880" version="6" timestamp="2011-02-19T13:09:21Z" uid="131968" user="changchun_1" changeset="7331603">
    <nd ref="35828150"/>
    <nd ref="1080337446"/>
    <nd ref="142365229"/>
    <nd ref="142365236"/>
    <tag k="highway" v="tertiary"/>
    <tag k="name" v="Christian-Pähr-Straße"/>
  </way>
  <way id="14488880" version="7" timestamp="2011-08-07T14:56:49Z" uid="7010" user="GarryX3D" changeset="8948001">
    <nd ref="35828150"/>
    <nd ref="1080337446"/>
    <nd ref="142365229"/>
    <nd ref="1389726409"/>
    <nd ref="142365236"/>
    <tag k="highway" v="tertiary"/>
    <tag k="name" v="Christian-Pähr-Straße"/>
  </way>
  <way id="14488883" version="2" timestamp="2008-08-11T11:32:19Z" uid="6269" user="Mueck" changeset="188275">
    <nd ref="142365345"/>
    <nd ref="142365353"/>
    <nd ref="142365359"/>
    <nd ref="142365365"/>
    <nd ref="142365255"/>
    <nd ref="142365370"/>
    <nd ref="142365372"/>
    <nd ref="142365374"/>
    <nd ref="142365382"/>
    <nd ref="142365390"/>
    <nd ref="142365400"/>
    <nd ref="142365407"/>
    <nd ref="142365415"/>
    <nd ref="142365262"/>
    <nd ref="142365420"/>
    <nd ref="142365426"/>
    <nd ref="142365435"/>
    <nd ref="142365345"/>
    <tag k="created_by" v="Potlatch 0.10b"/>
    <tag k="highway" v="tertiary"/>
    <tag k="junction" v="roundabout"/>
  </way>
  <way id="14488883" version="3" timestamp="2009-03-14T09:06:38Z" uid="49317" user="Gary68" changeset="804290">
    <nd ref="142365345"/>
    <nd ref="142365435"/>
    <nd ref="142365426"/>
    <nd ref="142365420"/>
    <nd ref="142365262"/>
    <nd ref="142365415"/>
    <nd ref="142365407"/>
    <nd ref="142365400"/>
    <nd ref="142365390"/>
    <nd ref="142365382"/>
    <nd ref="142365374"/>
    <nd ref="142365372"/>
    <nd ref="142365370"/>
    <nd ref="142365255"/>
    <nd ref="142365365"/>
    <nd ref="142365359"/>
    <nd ref="142365353"/>
    <nd ref="142365345"/>
    <tag k="created_by" v="Potlatch 0.10b"/>
    <tag k="highway" v="tertiary"/>
    <tag k="junction" v="roundabout"/>
  </way>
  <way id="14488883" version="4" timestamp="2010-01-30T11:30:36Z" uid="215889" user="SolarPlucked2" changeset="3750073">
    <nd ref="142365345"/>
    <nd ref="142365435"/>
    <nd ref="142365426"/>
    <nd ref="142365420"/>
    <nd ref="142365262"/>
    <nd ref="142365415"/>
    <nd ref="142365407"/>
    <nd ref="142365400"/>
    <nd ref="142365390"/>
    <nd ref="142365382"/>
    <nd ref="142365374"/>
    <nd ref="623040017"/>
    <nd ref="142365372"/>
    <nd ref="142365370"/>
    <nd ref="142365255"/>
    <nd ref="142365365"/>
    <nd ref="142365359"/>
    <nd ref="142365353"/>
    <nd ref="142365345"/>
    <tag k="highway" v="tertiary"/>
    <tag k="junction" v="roundabout"/>
  </way>
  <way id="14488883" version="5" timestamp="2011-01-03T10:52:32Z" uid="121365" user="AKletti" changeset="6848049">
    <nd ref="142365345"/>
    <nd ref="142365435"/>
    <nd ref="142365426"/>
    <nd ref="142365420"/>
    <nd ref="142365262"/>
    <nd ref="142365415"/>
    <nd ref="142365407"/>
    <nd ref="142365400"/>
    <nd ref="142365390"/>
    <nd ref="1080370938"/>
    <nd ref="142365382"/>
    <nd ref="142365374"/>
    <nd ref="623040017"/>
    <nd ref="142365372"/>
    <nd ref="142365370"/>
    <nd ref="142365255"/>
    <nd ref="142365365"/>
    <nd ref="142365359"/>
    <nd ref="142365353"/>
    <nd ref="142365345"/>
    <tag k="highway" v="tertiary"/>
    <tag k="junction" v="roundabout"/>
  </way>
  <way id="14488679" version="14" timestamp="2012-04-27T13:46:27Z" uid="88909" user="miko101" changeset="11432826">
    <nd ref="258148166"/>
    <nd ref="258148759"/>
    <tag k="bridge" v="yes"/>
    <tag k="highway" v="primary"/>
    <tag k="int_ref" v="E 261"/>
    <tag k="layer" v="1"/>
    <tag k="lit" v="yes"/>
    <tag k="name" v="Hetmańska"/>
    <tag k="oneway" v="yes"/>
    <tag k="ref" v="5;11"/>
  </way>
  <way id="14488679" version="15" timestamp="2012-06-03T21:31:04Z" uid="318486" user="tomaszko90" changeset="11791248">
    <nd ref="258148166"/>
    <nd ref="258148759"/>
    <tag k="bridge" v="yes"/>
    <tag k="highway" v="secondary"/>
    <tag k="layer" v="1"/>
    <tag k="lit" v="yes"/>
    <tag k="name" v="Hetmańska"/>
    <tag k="oneway" v="yes"/>
  </way>
  <way id="14488679" version="16" timestamp="2012-06-04T20:21:51Z" uid="88909" user="miko101" changeset="11800366">
    <nd ref="258148166"/>
    <nd ref="258148759"/>
    <tag k="bridge" v="yes"/>
    <tag k="highway" v="primary"/>
    <tag k="layer" v="1"/>
    <tag k="lit" v="yes"/>
    <tag k="name" v="Hetmańska"/>
    <tag k="oneway" v="yes"/>
    <tag k="ref" v="11"/>
  </way>
  <way id="14488679" version="17" timestamp="2012-06-09T17:07:15Z" uid="88909" user="miko101" changeset="11846953">
    <nd ref="258148166"/>
    <nd ref="258148759"/>
    <tag k="alt_name" v="Wiadukt Dolna Wilda"/>
    <tag k="bridge" v="yes"/>
    <tag k="highway" v="primary"/>
    <tag k="layer" v="1"/>
    <tag k="lit" v="yes"/>
    <tag k="name" v="Hetmańska"/>
    <tag k="oneway" v="yes"/>
    <tag k="ref" v="11"/>
    <tag k="wikipedia" v="pl:Wiadukt Dolna Wilda w Poznaniu"/>
  </way>
  <way id="14488679" version="18" timestamp="2012-06-18T11:26:18Z" uid="88909" user="miko101" changeset="11935785">
    <nd ref="258148166"/>
    <nd ref="258148759"/>
    <tag k="alt_name" v="Wiadukt Dolna Wilda"/>
    <tag k="bridge" v="viaduct"/>
    <tag k="highway" v="primary"/>
    <tag k="layer" v="1"/>
    <tag k="lit" v="yes"/>
    <tag k="maxspeed" v="70"/>
    <tag k="name" v="Hetmańska"/>
    <tag k="oneway" v="yes"/>
    <tag k="ref" v="11"/>
    <tag k="wikipedia" v="pl:Wiadukt Dolna Wilda w Poznaniu"/>
  </way>
  <way id="14488690" version="10" timestamp="2012-04-27T13:46:27Z" uid="88909" user="miko101" changeset="11432826">
    <nd ref="258148852"/>
    <nd ref="258148615"/>
    <tag k="bridge" v="yes"/>
    <tag k="highway" v="primary"/>
    <tag k="int_ref" v="E 261"/>
    <tag k="layer" v="1"/>
    <tag k="lit" v="yes"/>
    <tag k="name" v="Hetmańska"/>
    <tag k="oneway" v="yes"/>
    <tag k="ref" v="5;11"/>
  </way>
  <way id="14488690" version="11" timestamp="2012-06-03T21:29:26Z" uid="318486" user="tomaszko90" changeset="11791248">
    <nd ref="258148852"/>
    <nd ref="258148615"/>
    <tag k="bridge" v="yes"/>
    <tag k="highway" v="secondary"/>
    <tag k="int_ref" v="E 261"/>
    <tag k="layer" v="1"/>
    <tag k="lit" v="yes"/>
    <tag k="name" v="Hetmańska"/>
    <tag k="oneway" v="yes"/>
  </way>
  <way id="14488690" version="12" timestamp="2012-06-04T20:21:52Z" uid="88909" user="miko101" changeset="11800366">
    <nd ref="258148852"/>
    <nd ref="258148615"/>
    <tag k="bridge" v="yes"/>
    <tag k="highway" v="primary"/>
    <tag k="layer" v="1"/>
    <tag k="lit" v="yes"/>
    <tag k="name" v="Hetmańska"/>
    <tag k="oneway" v="yes"/>
    <tag k="ref" v="11"/>
  </way>
  <way id="14488690" version="13" timestamp="2012-06-09T17:07:15Z" uid="88909" user="miko101" changeset="11846953">
    <nd ref="258148852"/>
    <nd ref="258148615"/>
    <tag k="alt_name" v="Wiadukt Dolna Wilda"/>
    <tag k="bridge" v="yes"/>
    <tag k="highway" v="primary"/>
    <tag k="layer" v="1"/>
    <tag k="lit" v="yes"/>
    <tag k="name" v="Hetmańska"/>
    <tag k="oneway" v="yes"/>
    <tag k="ref" v="11"/>
    <tag k="wikipedia" v="pl:Wiadukt Dolna Wilda w Poznaniu"/>
  </way>
  <way id="14488690" version="14" timestamp="2012-06-18T11:26:18Z" uid="88909" user="miko101" changeset="11935785">
    <nd ref="258148852"/>
    <nd ref="258148615"/>
    <tag k="alt_name" v="Wiadukt Dolna Wilda"/>
    <tag k="bridge" v="viaduct"/>
    <tag k="highway" v="primary"/>
    <tag k="layer" v="1"/>
    <tag k="lit" v="yes"/>
    <tag k="maxspeed" v="70"/>
    <tag k="name" v="Hetmańska"/>
    <tag k="oneway" v="yes"/>
    <tag k="ref" v="11"/>
    <tag k="wikipedia" v="pl:Wiadukt Dolna Wilda w Poznaniu"/>
  </way>
  <way id="14488692" version="8" timestamp="2012-06-06T18:49:48Z" uid="641600" user="piottr" changeset="11818436">
    <nd ref="142361954"/>
    <nd ref="1778284640"/>
    <nd ref="428765300"/>
    <nd ref="1430432542"/>
    <nd ref="29943247"/>
    <tag k="highway" v="secondary"/>
    <tag k="name" v="Dolna Wilda"/>
    <tag k="oneway" v="yes"/>
    <tag k="ref" v="430"/>
  </way>
  <way id="14488693" version="9" timestamp="2012-04-27T13:46:30Z" uid="88909" user="miko101" changeset="11432826">
    <nd ref="29943247"/>
    <nd ref="436161109"/>
    <nd ref="1430432544"/>
    <nd ref="436161110"/>
    <nd ref="142362110"/>
    <nd ref="142361956"/>
    <tag k="highway" v="secondary"/>
    <tag k="lit" v="yes"/>
    <tag k="name" v="Dolna Wilda"/>
    <tag k="oneway" v="yes"/>
    <tag k="ref" v="430"/>
  </way>
  <way id="14488693" version="10" timestamp="2012-06-06T18:49:48Z" uid="641600" user="piottr" changeset="11818436">
    <nd ref="29943247"/>
    <nd ref="436161109"/>
    <nd ref="1430432544"/>
    <nd ref="436161110"/>
    <nd ref="142362110"/>
    <nd ref="1778284638"/>
    <nd ref="142361956"/>
    <tag k="highway" v="secondary"/>
    <tag k="lit" v="yes"/>
    <tag k="name" v="Dolna Wilda"/>
    <tag k="oneway" v="yes"/>
    <tag k="ref" v="430"/>
  </way>
  <way id="14488880" version="8" timestamp="2012-07-17T08:29:54Z" uid="722137" user="OSMF Redaction Account" changeset="12260459">
    <nd ref="35828150"/>
    <nd ref="1080337446"/>
    <nd ref="142365229"/>
    <nd ref="1389726409"/>
    <nd ref="142365236"/>
    <tag k="highway" v="unclassified"/>
    <tag k="name" v="Christian-Pähr-Straße"/>
  </way>
  <way id="14488883" version="6" timestamp="2012-04-29T12:36:26Z" uid="42208" user="JanTH" changeset="11449290">
    <nd ref="142365345"/>
    <nd ref="142365435"/>
    <nd ref="142365426"/>
    <nd ref="142365420"/>
    <nd ref="142365262"/>
    <nd ref="142365415"/>
    <nd ref="142365407"/>
    <nd ref="142365400"/>
    <nd ref="142365390"/>
    <nd ref="1080370938"/>
    <nd ref="142365382"/>
    <nd ref="142365374"/>
    <nd ref="623040017"/>
    <nd ref="142365372"/>
    <nd ref="142365370"/>
    <nd ref="142365255"/>
    <nd ref="142365365"/>
    <nd ref="142365359"/>
    <nd ref="142365353"/>
    <nd ref="142365345"/>
    <tag k="highway" v="tertiary"/>
    <tag k="junction" v="roundabout"/>
    <tag k="name" v="Industriestraße"/>
  </way>
  <way id="14488883" version="7" timestamp="2012-07-17T08:29:53Z" uid="722137" user="OSMF Redaction Account" changeset="12260459">
    <nd ref="142365345"/>
    <nd ref="142365435"/>
    <nd ref="142365426"/>
    <nd ref="142365420"/>
    <nd ref="142365262"/>
    <nd ref="142365415"/>
    <nd ref="142365407"/>
    <nd ref="142365400"/>
    <nd ref="142365390"/>
    <nd ref="1080370938"/>
    <nd ref="142365382"/>
    <nd ref="142365374"/>
    <nd ref="623040017"/>
    <nd ref="142365372"/>
    <nd ref="142365370"/>
    <nd ref="142365255"/>
    <nd ref="142365365"/>
    <nd ref="142365359"/>
    <nd ref="142365353"/>
    <nd ref="142365345"/>
    <tag k="highway" v="unclassified"/>
    <tag k="junction" v="roundabout"/>
    <tag k="name" v="Industriestraße"/>
  </way>
</osm>
