<?xml version='1.0' encoding='UTF-8'?>
<osm version="0.6" generator="libosmium/2.20.0">
  <way id="14489130" version="8" timestamp="2010-03-15T23:38:59Z" uid="163746" user="anti_bot-nonsense" changeset="4139871">
    <nd ref="258148759"/>
    <nd ref="142332272"/>
    <nd ref="142374298"/>
    <tag k="highway" v="primary"/>
    <tag k="int_ref" v="E 261"/>
    <tag k="name" v="Hetmańska"/>
    <tag k="oneway" v="yes"/>
    <tag k="ref" v="5, 11"/>
  </way>
  <way id="14489130" version="9" timestamp="2010-05-24T18:46:17Z" uid="19417" user="xjr" changeset="4796935">
    <nd ref="258148759"/>
    <nd ref="142332272"/>
    <nd ref="142374298"/>
    <tag k="highway" v="primary"/>
    <tag k="int_ref" v="E 261"/>
    <tag k="maxspeed" v="70"/>
    <tag k="name" v="Hetmańska"/>
    <tag k="oneway" v="yes"/>
    <tag k="ref" v="5, 11"/>
  </way>
  <way id="14489130" version="10" timestamp="2010-07-31T18:56:41Z" uid="113415" user="tomek-k" changeset="5364977">
    <nd ref="258148759"/>
    <nd ref="142332272"/>
    <nd ref="142374298"/>
    <tag k="highway" v="primary"/>
    <tag k="int_ref" v="E 261"/>
    <tag k="maxspeed" v="70"/>
    <tag k="name" v="Hetmańska"/>
    <tag k="oneway" v="yes"/>
    <tag k="ref" v="5;11"/>
  </way>
  <way id="14489295" version="3" timestamp="2008-08-11T11:50:31Z" uid="6269" user="Mueck" changeset="188275">
    <nd ref="27162123"/>
    <nd ref="21733362"/>
    <nd ref="21733363"/>
    <nd ref="21733364"/>
    <nd ref="21733365"/>
    <nd ref="21733366"/>
    <nd ref="21733367"/>
    <nd ref="25874125"/>
    <tag k="created_by" v="Potlatch 0.10b"/>
    <tag k="highway" v="primary"/>
    <tag k="note" v="im SHP des NVK: I"/>
  </way>
  <way id="14489295" version="4" timestamp="2008-08-11T11:50:36Z" uid="6269" user="Mueck" changeset="188275"/>
  <way id="14489322" version="6" timestamp="2009-10-22T16:57:56Z" uid="9581" user="Lobelt" changeset="2923245">
    <nd ref="142373235"/>
    <nd ref="538410679"/>
    <tag k="bridge" v="yes"/>
    <tag k="highway" v="secondary"/>
    <tag k="layer" v="1"/>
    <tag k="maxweight" v="3"/>
    <tag k="name" v="Leipziger Straße"/>
    <tag k="ref" v="S 54"/>
  </way>
  <way id="14489403" version="5" timestamp="2010-03-15T23:39:25Z" uid="163746" user="anti_bot-nonsense" changeset="4139871">
    <nd ref="142374298"/>
    <nd ref="142332273"/>
    <tag k="bridge" v="yes"/>
    <tag k="highway" v="primary"/>
    <tag k="int_ref" v="E 261"/>
    <tag k="layer" v="1"/>
    <tag k="oneway" v="yes"/>
    <tag k="ref" v="5, 11"/>
  </way>
  <way id="14489403" version="6" timestamp="2010-05-24T18:46:21Z" uid="19417" user="xjr" changeset="4796935">
    <nd ref="142374298"/>
    <nd ref="142332273"/>
    <tag k="bridge" v="yes"/>
    <tag k="highway" v="primary"/>
    <tag k="int_ref" v="E 261"/>
    <tag k="layer" v="1"/>
    <tag k="maxspeed" v="70"/>
    <tag k="oneway" v="yes"/>
    <tag k="ref" v="5, 11"/>
  </way>
  <way id="14489403" version="7" timestamp="2010-07-31T18:56:38Z" uid="113415" user="tomek-k" changeset="5364977">
    <nd ref="142374298"/>
    <nd ref="142332273"/>
    <tag k="bridge" v="yes"/>
    <tag k="highway" v="primary"/>
    <tag k="int_ref" v="E 261"/>
    <tag k="layer" v="1"/>
    <tag k="maxspeed" v="70"/>
    <tag k="oneway" v="yes"/>
    <tag k="ref" v="5;11"/>
  </way>
  <way id="14489413" version="6" timestamp="2010-03-15T23:40:20Z" uid="163746" user="anti_bot-nonsense" changeset="4139871">
    <nd ref="142373944"/>
    <nd ref="142330759"/>
    <nd ref="258148852"/>
    <tag k="highway" v="primary"/>
    <tag k="int_ref" v="E 261"/>
    <tag k="name" v="Hetmańska"/>
    <tag k="oneway" v="yes"/>
    <tag k="ref" v="5, 11"/>
  </way>
  <way id="14489413" version="7" timestamp="2010-05-24T18:46:18Z" uid="19417" user="xjr" changeset="4796935">
    <nd ref="142373944"/>
    <nd ref="142330759"/>
    <nd ref="258148852"/>
    <tag k="highway" v="primary"/>
    <tag k="int_ref" v="E 261"/>
    <tag k="maxspeed" v="70"/>
    <tag k="name" v="Hetmańska"/>
    <tag k="oneway" v="yes"/>
    <tag k="ref" v="5, 11"/>
  </way>
  <way id="14489413" version="8" timestamp="2010-07-31T18:56:40Z" uid="113415" user="tomek-k" changeset="5364977">
    <nd ref="142373944"/>
    <nd ref="142330759"/>
    <nd ref="258148852"/>
    <tag k="highway" v="primary"/>
    <tag k="int_ref" v="E 261"/>
    <tag k="maxspeed" v="70"/>
    <tag k="name" v="Hetmańska"/>
    <tag k="oneway" v="yes"/>
    <tag k="ref" v="5;11"/>
  </way>
  <way id="14489528" version="13" timestamp="2009-04-16T20:59:19Z" uid="30632" user="antblant" changeset="598077">
    <nd ref="255224311"/>
    <nd ref="247994379"/>
    <nd ref="247994380"/>
    <nd ref="247994381"/>
    <nd ref="247994382"/>
    <nd ref="142376767"/>
    <nd ref="142376765"/>
    <nd ref="194741994"/>
    <nd ref="151132546"/>
    <tag k="created_by" v="Potlatch 0.10f"/>
    <tag k="highway" v="primary"/>
    <tag k="name" v="Hetmańska"/>
    <tag k="oneway" v="yes"/>
  </way>
  <way id="14489528" version="14" timestamp="2009-04-16T21:00:51Z" uid="30632" user="antblant" changeset="598077">
    <nd ref="255224311"/>
    <nd ref="247994379"/>
    <nd ref="247994380"/>
    <nd ref="247994381"/>
    <nd ref="247994382"/>
    <nd ref="142376767"/>
    <nd ref="142376765"/>
    <nd ref="194741994"/>
    <nd ref="151132546"/>
    <tag k="created_by" v="Potlatch 0.10f"/>
    <tag k="highway" v="secondary"/>
    <tag k="name" v="Hetmańska"/>
    <tag k="oneway" v="yes"/>
  </way>
  <way id="14489528" version="15" timestamp="2009-10-19T11:10:52Z" uid="19417" user="xjr" changeset="2893234">
    <nd ref="255224311"/>
    <nd ref="247994379"/>
    <nd ref="247994380"/>
    <nd ref="247994381"/>
    <nd ref="247994382"/>
    <nd ref="142376767"/>
    <nd ref="142376765"/>
    <nd ref="535216585"/>
    <nd ref="194741994"/>
    <nd ref="151132546"/>
    <tag k="highway" v="secondary"/>
    <tag k="name" v="Hetmańska"/>
    <tag k="oneway" v="yes"/>
  </way>
  <way id="14489528" version="16" timestamp="2009-10-19T11:36:51Z" uid="19417" user="xjr" changeset="2893234">
    <nd ref="255224311"/>
    <nd ref="535228831"/>
    <nd ref="247994379"/>
    <nd ref="247994380"/>
    <nd ref="247994381"/>
    <nd ref="247994382"/>
    <nd ref="142376767"/>
    <nd ref="142376765"/>
    <nd ref="535216585"/>
    <nd ref="194741994"/>
    <nd ref="151132546"/>
    <tag k="highway" v="secondary"/>
    <tag k="name" v="Hetmańska"/>
    <tag k="oneway" v="yes"/>
  </way>
  <way id="14489528" version="17" timestamp="2010-06-22T14:47:40Z" uid="19417" user="xjr" changeset="5051743">
    <nd ref="255224311"/>
    <nd ref="535228831"/>
    <nd ref="247994379"/>
    <nd ref="247994380"/>
    <nd ref="247994381"/>
    <nd ref="247994382"/>
    <nd ref="142376767"/>
    <nd ref="142376765"/>
    <nd ref="535216585"/>
    <nd ref="194741994"/>
    <nd ref="151132546"/>
    <tag k="highway" v="secondary"/>
    <tag k="maxspeed" v="70"/>
    <tag k="name" v="Hetmańska"/>
    <tag k="oneway" v="yes"/>
  </way>
  <way id="14489528" version="18" timestamp="2011-09-10T10:47:54Z" uid="91056" user="Yarl" changeset="9261094">
    <nd ref="255224311"/>
    <nd ref="535228831"/>
    <nd ref="247994379"/>
    <nd ref="247994380"/>
    <nd ref="247994381"/>
    <nd ref="247994382"/>
    <nd ref="142376767"/>
    <nd ref="142376765"/>
    <nd ref="535216585"/>
    <nd ref="194741994"/>
    <nd ref="151132546"/>
    <tag k="highway" v="tertiary"/>
    <tag k="maxspeed" v="70"/>
    <tag k="name" v="Hetmańska"/>
    <tag k="oneway" v="yes"/>
  </way>
  <way id="14489528" version="19" timestamp="2011-12-25T21:48:45Z" uid="338611" user="marek kleciak" changeset="10203355">
    <nd ref="255224311"/>
    <nd ref="535228831"/>
    <nd ref="247994379"/>
    <nd ref="247994380"/>
    <nd ref="247994381"/>
    <nd ref="247994382"/>
    <nd ref="142376767"/>
    <nd ref="1561875886"/>
    <nd ref="142376765"/>
    <nd ref="1561875875"/>
    <nd ref="535216585"/>
    <nd ref="194741994"/>
    <nd ref="151132546"/>
    <tag k="highway" v="tertiary"/>
    <tag k="maxspeed" v="70"/>
    <tag k="name" v="Hetmańska"/>
    <tag k="oneway" v="yes"/>
  </way>
  <way id="14489528" version="20" timestamp="2012-01-29T04:29:03Z" uid="88909" user="miko101" changeset="10526843">
    <nd ref="255224311"/>
    <nd ref="535228831"/>
    <nd ref="247994379"/>
    <nd ref="247994380"/>
    <nd ref="1609782880"/>
    <tag k="highway" v="tertiary"/>
    <tag k="maxspeed" v="70"/>
    <tag k="name" v="Hetmańska"/>
    <tag k="oneway" v="yes"/>
  </way>
  <way id="14489528" version="21" timestamp="2012-02-24T08:51:40Z" uid="338611" user="marek kleciak" changeset="10775879">
    <nd ref="255224311"/>
    <nd ref="535228831"/>
    <nd ref="247994379"/>
    <nd ref="1645289517"/>
    <nd ref="247994380"/>
    <nd ref="1609782880"/>
    <tag k="highway" v="tertiary"/>
    <tag k="maxspeed" v="70"/>
    <tag k="name" v="Hetmańska"/>
    <tag k="oneway" v="yes"/>
  </way>
  <way id="14489683" version="14" timestamp="2010-03-15T23:39:28Z" uid="163746" user="anti_bot-nonsense" changeset="4139871">
    <nd ref="142332273"/>
    <nd ref="142379849"/>
    <nd ref="232967294"/>
    <tag k="highway" v="primary"/>
    <tag k="int_ref" v="E 261"/>
    <tag k="name" v="Hetmańska"/>
    <tag k="oneway" v="yes"/>
    <tag k="ref" v="5, 11"/>
  </way>
  <way id="14489683" version="15" timestamp="2010-05-24T18:46:20Z" uid="19417" user="xjr" changeset="4796935">
    <nd ref="142332273"/>
    <nd ref="142379849"/>
    <nd ref="232967294"/>
    <tag k="highway" v="primary"/>
    <tag k="int_ref" v="E 261"/>
    <tag k="maxspeed" v="70"/>
    <tag k="name" v="Hetmańska"/>
    <tag k="oneway" v="yes"/>
    <tag k="ref" v="5, 11"/>
  </way>
  <way id="14489683" version="16" timestamp="2010-07-31T18:56:39Z" uid="113415" user="tomek-k" changeset="5364977">
    <nd ref="142332273"/>
    <nd ref="142379849"/>
    <nd ref="232967294"/>
    <tag k="highway" v="primary"/>
    <tag k="int_ref" v="E 261"/>
    <tag k="maxspeed" v="70"/>
    <tag k="name" v="Hetmańska"/>
    <tag k="oneway" v="yes"/>
    <tag k="ref" v="5;11"/>
  </way>
  <way id="14489997" version="6" timestamp="2008-08-11T12:13:00Z" uid="6269" user="Mueck" changeset="188275">
    <nd ref="28142496"/>
    <nd ref="28142499"/>
    <nd ref="28142504"/>
    <nd ref="60121779"/>
    <nd ref="28142459"/>
    <nd ref="28142451"/>
    <nd ref="28142448"/>
    <nd ref="252301823"/>
    <nd ref="28142444"/>
    <nd ref="28142440"/>
    <nd ref="60121780"/>
    <nd ref="60122152"/>
    <nd ref="60122139"/>
    <nd ref="60122142"/>
    <nd ref="28142519"/>
    <nd ref="28142524"/>
    <nd ref="28142420"/>
    <nd ref="28142369"/>
    <nd ref="28142327"/>
    <tag k="+no" v="im SHP des NVK: II"/>
    <tag k="created_by" v="Potlatch 0.10b"/>
    <tag k="highway" v="secondary"/>
    <tag k="name" v="Hauptstraße"/>
  </way>
  <way id="14489997" version="7" timestamp="2008-10-04T09:00:54Z" uid="31231" user="Andre68" changeset="55676">
    <nd ref="28142496"/>
    <nd ref="28142499"/>
    <nd ref="28142504"/>
    <nd ref="60121779"/>
    <nd ref="28142459"/>
    <nd ref="28142451"/>
    <nd ref="28142448"/>
    <nd ref="252301823"/>
    <nd ref="28142444"/>
    <nd ref="28142440"/>
    <nd ref="60121780"/>
    <nd ref="60122152"/>
    <nd ref="60122139"/>
    <nd ref="60122142"/>
    <nd ref="28142519"/>
    <nd ref="28142524"/>
    <nd ref="28142420"/>
    <nd ref="28142369"/>
    <nd ref="28142327"/>
    <tag k="created_by" v="Potlatch 0.10b"/>
    <tag k="highway" v="secondary"/>
    <tag k="name" v="Hauptstraße"/>
    <tag k="note" v="im SHP des NVK: II"/>
  </way>
  <way id="14489997" version="8" timestamp="2009-03-19T21:13:08Z" uid="31911" user="Mathias Klein" changeset="832956">
    <nd ref="28142496"/>
    <nd ref="363885239"/>
    <nd ref="363885265"/>
    <nd ref="28142499"/>
    <nd ref="28142504"/>
    <nd ref="60121779"/>
    <nd ref="28142459"/>
    <nd ref="28142451"/>
    <nd ref="28142448"/>
    <nd ref="252301823"/>
    <nd ref="28142444"/>
    <nd ref="28142440"/>
    <nd ref="60121780"/>
    <nd ref="60122152"/>
    <nd ref="60122139"/>
    <nd ref="60122142"/>
    <nd ref="28142519"/>
    <nd ref="28142524"/>
    <nd ref="28142420"/>
    <nd ref="28142369"/>
    <nd ref="28142327"/>
    <tag k="created_by" v="Potlatch 0.10b"/>
    <tag k="highway" v="secondary"/>
    <tag k="name" v="Hauptstraße"/>
    <tag k="note" v="im SHP des NVK: II"/>
  </way>
  <way id="14489997" version="9" timestamp="2009-06-20T21:21:12Z" uid="85761" user="klausis" changeset="1578334">
    <nd ref="28142496"/>
    <nd ref="363885239"/>
    <nd ref="363885265"/>
    <nd ref="28142499"/>
    <nd ref="28142504"/>
    <nd ref="60121779"/>
    <nd ref="28142459"/>
    <nd ref="28142451"/>
    <nd ref="28142448"/>
    <nd ref="252301823"/>
    <nd ref="28142444"/>
    <nd ref="28142440"/>
    <nd ref="60121780"/>
    <nd ref="60122152"/>
    <nd ref="60122139"/>
    <nd ref="60122142"/>
    <nd ref="28142519"/>
    <nd ref="28142524"/>
    <nd ref="28142420"/>
    <nd ref="28142369"/>
    <nd ref="28142327"/>
    <tag k="highway" v="secondary"/>
    <tag k="name" v="Hauptstraße"/>
    <tag k="note" v="im SHP des NVK: II"/>
  </way>
  <way id="14489997" version="10" timestamp="2009-06-27T20:56:47Z" uid="59242" user="tgoti" changeset="1654722">
    <nd ref="28142496"/>
    <nd ref="363885239"/>
    <nd ref="363885265"/>
    <nd ref="28142499"/>
    <nd ref="28142504"/>
    <nd ref="60121779"/>
    <nd ref="28142459"/>
    <nd ref="28142451"/>
    <nd ref="28142448"/>
    <nd ref="252301823"/>
    <nd ref="28142444"/>
    <nd ref="28142440"/>
    <tag k="highway" v="secondary"/>
    <tag k="name" v="Hauptstraße"/>
    <tag k="note" v="im SHP des NVK: II"/>
  </way>
  <way id="14489997" version="11" timestamp="2010-07-12T07:45:36Z" uid="315704" user="joe2" changeset="5196347">
    <nd ref="28142496"/>
    <nd ref="363885239"/>
    <nd ref="363885265"/>
    <nd ref="28142499"/>
    <nd ref="28142504"/>
    <nd ref="60121779"/>
    <nd ref="28142459"/>
    <nd ref="28142451"/>
    <nd ref="28142448"/>
    <nd ref="252301823"/>
    <nd ref="28142444"/>
    <nd ref="28142440"/>
    <tag k="foortway" v="both"/>
    <tag k="highway" v="secondary"/>
    <tag k="name" v="Hauptstraße"/>
    <tag k="note" v="im SHP des NVK: II"/>
  </way>
  <way id="14489997" version="12" timestamp="2010-07-13T14:27:35Z" uid="289695" user="kirsten1" changeset="5208524">
    <nd ref="28142496"/>
    <nd ref="363885239"/>
    <nd ref="363885265"/>
    <nd ref="28142499"/>
    <nd ref="28142504"/>
    <nd ref="60121779"/>
    <nd ref="28142459"/>
    <nd ref="815065399"/>
    <nd ref="28142451"/>
    <nd ref="28142448"/>
    <nd ref="252301823"/>
    <nd ref="28142444"/>
    <nd ref="28142440"/>
    <tag k="foortway" v="both"/>
    <tag k="highway" v="secondary"/>
    <tag k="name" v="Hauptstraße"/>
    <tag k="note" v="im SHP des NVK: II"/>
  </way>
  <way id="14489997" version="13" timestamp="2010-07-25T17:19:12Z" uid="30284" user="Nihat" changeset="5314048">
    <nd ref="28142496"/>
    <nd ref="363885239"/>
    <nd ref="363885265"/>
    <nd ref="28142499"/>
    <nd ref="833149579"/>
    <nd ref="833149699"/>
    <nd ref="28142504"/>
    <nd ref="833149222"/>
    <nd ref="833149424"/>
    <nd ref="833149879"/>
    <nd ref="833149615"/>
    <nd ref="28142451"/>
    <nd ref="28142448"/>
    <nd ref="833149270"/>
    <nd ref="833149758"/>
    <nd ref="833149402"/>
    <nd ref="833149274"/>
    <nd ref="833149192"/>
    <nd ref="833149289"/>
    <nd ref="833149697"/>
    <tag k="foortway" v="both"/>
    <tag k="highway" v="secondary"/>
    <tag k="name" v="Hauptstraße"/>
    <tag k="note" v="im SHP des NVK: II"/>
  </way>
  <way id="14489997" version="14" timestamp="2010-07-25T17:52:33Z" uid="30284" user="Nihat" changeset="5314464">
    <nd ref="28142496"/>
    <nd ref="363885239"/>
    <nd ref="363885265"/>
    <nd ref="28142499"/>
    <nd ref="833149579"/>
    <nd ref="28142504"/>
    <nd ref="833149222"/>
    <nd ref="833149424"/>
    <nd ref="833149879"/>
    <nd ref="28142451"/>
    <nd ref="28142448"/>
    <nd ref="833149270"/>
    <nd ref="833149758"/>
    <nd ref="833149402"/>
    <nd ref="833149274"/>
    <nd ref="833149192"/>
    <nd ref="833149289"/>
    <nd ref="833149697"/>
    <tag k="foortway" v="both"/>
    <tag k="highway" v="secondary"/>
    <tag k="name" v="Hauptstraße"/>
    <tag k="note" v="im SHP des NVK: II"/>
  </way>
  <way id="14489997" version="15" timestamp="2010-07-26T09:01:47Z" uid="30284" user="Nihat" changeset="5319246">
    <nd ref="28142496"/>
    <nd ref="363885239"/>
    <nd ref="363885265"/>
    <nd ref="28142499"/>
    <nd ref="833149579"/>
    <nd ref="833734051"/>
    <nd ref="28142504"/>
    <nd ref="833149222"/>
    <nd ref="833149424"/>
    <nd ref="833149879"/>
    <nd ref="28142451"/>
    <nd ref="28142448"/>
    <nd ref="833149270"/>
    <nd ref="833149758"/>
    <nd ref="833149402"/>
    <nd ref="833149274"/>
    <nd ref="833149192"/>
    <nd ref="833149289"/>
    <nd ref="833149697"/>
    <tag k="foortway" v="both"/>
    <tag k="highway" v="secondary"/>
    <tag k="name" v="Hauptstraße"/>
    <tag k="note" v="im SHP des NVK: II"/>
  </way>
  <way id="14489997" version="16" timestamp="2010-08-10T16:34:29Z" uid="192395" user="BBO" changeset="5455369">
    <nd ref="28142496"/>
    <nd ref="363885239"/>
    <nd ref="363885265"/>
    <nd ref="28142499"/>
    <nd ref="833149579"/>
    <nd ref="833734051"/>
    <nd ref="28142504"/>
    <nd ref="833149222"/>
    <nd ref="833149424"/>
    <nd ref="833149879"/>
    <nd ref="28142451"/>
    <nd ref="28142448"/>
    <nd ref="833149270"/>
    <nd ref="833149758"/>
    <nd ref="833149402"/>
    <nd ref="833149274"/>
    <nd ref="833149192"/>
    <nd ref="833149289"/>
    <nd ref="833149697"/>
    <tag k="footway" v="both"/>
    <tag k="highway" v="secondary"/>
    <tag k="name" v="Hauptstraße"/>
    <tag k="note" v="im SHP des NVK: II"/>
  </way>
  <way id="14489997" version="17" timestamp="2011-03-17T12:26:00Z" uid="410505" user="Udini" changeset="7584841">
    <nd ref="28142496"/>
    <nd ref="363885239"/>
    <nd ref="363885265"/>
    <nd ref="28142499"/>
    <nd ref="833149579"/>
    <nd ref="833734051"/>
    <nd ref="28142504"/>
    <nd ref="833149222"/>
    <nd ref="833149424"/>
    <nd ref="833149879"/>
    <nd ref="28142451"/>
    <nd ref="28142448"/>
    <nd ref="833149270"/>
    <nd ref="833149758"/>
    <nd ref="833149402"/>
    <nd ref="833149274"/>
    <nd ref="833149192"/>
    <nd ref="833149289"/>
    <nd ref="252307966"/>
    <nd ref="833149697"/>
    <tag k="footway" v="both"/>
    <tag k="highway" v="secondary"/>
    <tag k="name" v="Hauptstraße"/>
    <tag k="note" v="im SHP des NVK: II"/>
  </way>
  <way id="14489997" version="18" timestamp="2011-05-15T11:35:02Z" uid="364237" user="konsumschaf" changeset="8150669">
    <nd ref="28142496"/>
    <nd ref="363885239"/>
    <nd ref="363885265"/>
    <nd ref="28142499"/>
    <nd ref="833149579"/>
    <nd ref="833734051"/>
    <nd ref="28142504"/>
    <nd ref="833149222"/>
    <nd ref="833149424"/>
    <nd ref="833149879"/>
    <nd ref="28142451"/>
    <nd ref="28142448"/>
    <nd ref="833149270"/>
    <nd ref="833149758"/>
    <nd ref="833149402"/>
    <nd ref="833149274"/>
    <nd ref="833149192"/>
    <nd ref="833149289"/>
    <nd ref="252307966"/>
    <nd ref="833149697"/>
    <tag k="footway" v="both"/>
    <tag k="highway" v="secondary"/>
    <tag k="maxspeed" v="30"/>
    <tag k="name" v="Hauptstraße"/>
    <tag k="note" v="im SHP des NVK: II"/>
  </way>
  <way id="14489130" version="11" timestamp="2012-04-27T13:46:26Z" uid="88909" user="miko101" changeset="11432826">
    <nd ref="258148759"/>
    <nd ref="142332272"/>
    <nd ref="142374298"/>
    <tag k="highway" v="primary"/>
    <tag k="int_ref" v="E 261"/>
    <tag k="lit" v="yes"/>
    <tag k="maxspeed" v="70"/>
    <tag k="name" v="Hetmańska"/>
    <tag k="oneway" v="yes"/>
    <tag k="ref" v="5;11"/>
  </way>
  <way id="14489130" version="12" timestamp="2012-06-03T21:31:31Z" uid="318486" user="tomaszko90" changeset="11791248">
    <nd ref="258148759"/>
    <nd ref="142332272"/>
    <nd ref="142374298"/>
    <tag k="highway" v="secondary"/>
    <tag k="int_ref" v="E 261"/>
    <tag k="lit" v="yes"/>
    <tag k="maxspeed" v="70"/>
    <tag k="name" v="Hetmańska"/>
    <tag k="oneway" v="yes"/>
  </way>
  <way id="14489130" version="13" timestamp="2012-06-04T20:21:52Z" uid="88909" user="miko101" changeset="11800366">
    <nd ref="258148759"/>
    <nd ref="142332272"/>
    <nd ref="142374298"/>
    <tag k="highway" v="primary"/>
    <tag k="lit" v="yes"/>
    <tag k="maxspeed" v="70"/>
    <tag k="name" v="Hetmańska"/>
    <tag k="oneway" v="yes"/>
    <tag k="ref" v="11"/>
  </way>
  <way id="14489322" version="7" timestamp="2012-07-19T06:20:30Z" uid="722137" user="OSMF Redaction Account" changeset="12310229"/>
  <way id="14489403" version="8" timestamp="2012-04-27T13:46:38Z" uid="88909" user="miko101" changeset="11432826">
    <nd ref="142374298"/>
    <nd ref="142332273"/>
    <tag k="bridge" v="yes"/>
    <tag k="highway" v="primary"/>
    <tag k="int_ref" v="E 261"/>
    <tag k="layer" v="1"/>
    <tag k="lit" v="yes"/>
    <tag k="maxspeed" v="70"/>
    <tag k="oneway" v="yes"/>
    <tag k="ref" v="5;11"/>
  </way>
  <way id="14489403" version="9" timestamp="2012-06-03T21:32:00Z" uid="318486" user="tomaszko90" changeset="11791248">
    <nd ref="142374298"/>
    <nd ref="142332273"/>
    <tag k="bridge" v="yes"/>
    <tag k="highway" v="secondary"/>
    <tag k="int_ref" v="E 261"/>
    <tag k="layer" v="1"/>
    <tag k="lit" v="yes"/>
    <tag k="maxspeed" v="70"/>
    <tag k="oneway" v="yes"/>
  </way>
  <way id="14489403" version="10" timestamp="2012-06-04T20:21:52Z" uid="88909" user="miko101" changeset="11800366">
    <nd ref="142374298"/>
    <nd ref="142332273"/>
    <tag k="bridge" v="yes"/>
    <tag k="highway" v="primary"/>
    <tag k="layer" v="1"/>
    <tag k="lit" v="yes"/>
    <tag k="maxspeed" v="70"/>
    <tag k="oneway" v="yes"/>
    <tag k="ref" v="11"/>
  </way>
  <way id="14489403" version="11" timestamp="2012-06-18T11:26:18Z" uid="88909" user="miko101" changeset="11935785">
    <nd ref="142374298"/>
    <nd ref="142332273"/>
    <tag k="bridge" v="viaduct"/>
    <tag k="highway" v="primary"/>
    <tag k="layer" v="1"/>
    <tag k="lit" v="yes"/>
    <tag k="maxspeed" v="70"/>
    <tag k="oneway" v="yes"/>
    <tag k="ref" v="11"/>
  </way>
  <way id="14489413" version="9" timestamp="2012-04-27T13:46:28Z" uid="88909" user="miko101" changeset="11432826">
    <nd ref="142373944"/>
    <nd ref="142330759"/>
    <nd ref="258148852"/>
    <tag k="highway" v="primary"/>
    <tag k="int_ref" v="E 261"/>
    <tag k="lit" v="yes"/>
    <tag k="maxspeed" v="70"/>
    <tag k="name" v="Hetmańska"/>
    <tag k="oneway" v="yes"/>
    <tag k="ref" v="5;11"/>
  </way>
  <way id="14489413" version="10" timestamp="2012-06-03T21:31:19Z" uid="318486" user="tomaszko90" changeset="11791248">
    <nd ref="142373944"/>
    <nd ref="142330759"/>
    <nd ref="258148852"/>
    <tag k="highway" v="secondary"/>
    <tag k="int_ref" v="E 261"/>
    <tag k="lit" v="yes"/>
    <tag k="maxspeed" v="70"/>
    <tag k="name" v="Hetmańska"/>
    <tag k="oneway" v="yes"/>
  </way>
  <way id="14489413" version="11" timestamp="2012-06-04T20:21:52Z" uid="88909" user="miko101" changeset="11800366">
    <nd ref="142373944"/>
    <nd ref="142330759"/>
    <nd ref="258148852"/>
    <tag k="highway" v="primary"/>
    <tag k="lit" v="yes"/>
    <tag k="maxspeed" v="70"/>
    <tag k="name" v="Hetmańska"/>
    <tag k="oneway" v="yes"/>
    <tag k="ref" v="11"/>
  </way>
  <way id="14489528" version="22" timestamp="2012-05-07T10:46:18Z" uid="676152" user="lukaszw20-90" changeset="11527109">
    <nd ref="255224311"/>
    <nd ref="535228831"/>
    <nd ref="247994379"/>
    <nd ref="1645289517"/>
    <nd ref="1744120177"/>
    <nd ref="247994380"/>
    <nd ref="1609782880"/>
    <tag k="highway" v="tertiary"/>
    <tag k="maxspeed" v="70"/>
    <tag k="name" v="Hetmańska"/>
    <tag k="oneway" v="yes"/>
  </way>
  <way id="14489683" version="17" timestamp="2012-04-27T13:46:40Z" uid="88909" user="miko101" changeset="11432826">
    <nd ref="142332273"/>
    <nd ref="142379849"/>
    <nd ref="232967294"/>
    <tag k="highway" v="primary"/>
    <tag k="int_ref" v="E 261"/>
    <tag k="lit" v="yes"/>
    <tag k="maxspeed" v="70"/>
    <tag k="name" v="Hetmańska"/>
    <tag k="oneway" v="yes"/>
    <tag k="ref" v="5;11"/>
  </way>
  <way id="14489683" version="18" timestamp="2012-06-03T21:33:00Z" uid="318486" user="tomaszko90" changeset="11791248">
    <nd ref="142332273"/>
    <nd ref="142379849"/>
    <nd ref="232967294"/>
    <tag k="highway" v="secondary"/>
    <tag k="lit" v="yes"/>
    <tag k="maxspeed" v="70"/>
    <tag k="name" v="Hetmańska"/>
    <tag k="oneway" v="yes"/>
  </way>
  <way id="14489683" version="19" timestamp="2012-06-04T20:23:46Z" uid="88909" user="miko101" changeset="11800366">
    <nd ref="142332273"/>
    <nd ref="142379849"/>
    <nd ref="232967294"/>
    <tag k="highway" v="primary"/>
    <tag k="lit" v="yes"/>
    <tag k="maxspeed" v="70"/>
    <tag k="name" v="Hetmańska"/>
    <tag k="oneway" v="yes"/>
    <tag k="ref" v="11"/>
  </way>
  <way id="14489997" version="19" timestamp="2012-07-17T12:36:50Z" uid="722137" user="OSMF Redaction Account" changeset="12265303">
    <nd ref="28142496"/>
    <nd ref="363885239"/>
    <nd ref="363885265"/>
    <nd ref="28142499"/>
    <nd ref="833149579"/>
    <nd ref="833734051"/>
    <nd ref="28142504"/>
    <nd ref="833149222"/>
    <nd ref="833149424"/>
    <nd ref="833149879"/>
    <nd ref="28142451"/>
    <nd ref="28142448"/>
    <nd ref="833149270"/>
    <nd ref="833149758"/>
    <nd ref="833149402"/>
    <nd ref="833149274"/>
    <nd ref="833149192"/>
    <nd ref="833149289"/>
    <nd ref="252307966"/>
    <nd ref="833149697"/>
    <tag k="footway" v="both"/>
    <tag k="highway" v="tertiary"/>
    <tag k="maxspeed" v="30"/>
    <tag k="name" v="Hauptstraße"/>
    <tag k="note" v="im SHP des NVK: II"/>
  </way>
  <way id="14489997" version="20" timestamp="2012-07-17T14:56:26Z" uid="42208" user="JanTH" changeset="12267174">
    <nd ref="28142496"/>
    <nd ref="363885239"/>
    <nd ref="363885265"/>
    <nd ref="28142499"/>
    <nd ref="833149579"/>
    <nd ref="833734051"/>
    <nd ref="28142504"/>
    <nd ref="833149222"/>
    <nd ref="833149424"/>
    <nd ref="833149879"/>
    <nd ref="28142451"/>
    <nd ref="28142448"/>
    <nd ref="833149270"/>
    <nd ref="833149758"/>
    <nd ref="833149402"/>
    <nd ref="833149274"/>
    <nd ref="833149192"/>
    <nd ref="833149289"/>
    <nd ref="252307966"/>
    <nd ref="833149697"/>
    <tag k="footway" v="both"/>
    <tag k="highway" v="secondary"/>
    <tag k="maxspeed" v="30"/>
    <tag k="name" v="Hauptstraße"/>
    <tag k="note" v="im SHP des NVK: II"/>
  </way>
  <way id="14489997" version="21" timestamp="2012-08-21T06:27:58Z" uid="52778" user="rudolf" changeset="12803908">
    <nd ref="28142496"/>
    <nd ref="363885239"/>
    <nd ref="363885265"/>
    <nd ref="28142499"/>
    <nd ref="833149579"/>
    <nd ref="833734051"/>
    <nd ref="28142504"/>
    <nd ref="833149222"/>
    <nd ref="833149424"/>
    <nd ref="833149879"/>
    <nd ref="28142451"/>
    <nd ref="28142448"/>
    <nd ref="833149270"/>
    <nd ref="833149758"/>
    <nd ref="833149402"/>
    <nd ref="833149274"/>
    <nd ref="833149192"/>
    <nd ref="833149289"/>
    <nd ref="252307966"/>
    <nd ref="833149697"/>
    <tag k="highway" v="secondary"/>
    <tag k="maxspeed" v="30"/>
    <tag k="name" v="Hauptstraße"/>
    <tag k="note" v="im SHP des NVK: II"/>
    <tag k="sidewalk" v="both"/>
  </way>
  <way id="14489997" version="22" timestamp="2012-08-21T23:22:42Z" uid="145231" user="woodpeck_repair" changeset="12814310">
    <nd ref="28142496"/>
    <nd ref="363885239"/>
    <nd ref="363885265"/>
    <nd ref="28142499"/>
    <nd ref="833149579"/>
    <nd ref="833734051"/>
    <nd ref="28142504"/>
    <nd ref="833149222"/>
    <nd ref="833149424"/>
    <nd ref="833149879"/>
    <nd ref="28142451"/>
    <nd ref="28142448"/>
    <nd ref="833149270"/>
    <nd ref="833149758"/>
    <nd ref="833149402"/>
    <nd ref="833149274"/>
    <nd ref="833149192"/>
    <nd ref="833149289"/>
    <nd ref="252307966"/>
    <nd ref="833149697"/>
    <tag k="footway" v="both"/>
    <tag k="highway" v="secondary"/>
    <tag k="maxspeed" v="30"/>
    <tag k="name" v="Hauptstraße"/>
    <tag k="note" v="im SHP des NVK: II"/>
  </way>
</osm>
