<?xml version='1.0' encoding='UTF-8'?>
<osm version="0.6" generator="libosmium/2.20.0">
  <way id="14501091" version="3" timestamp="2009-09-30T12:58:34Z" uid="36809" user="pfoten_weg_!_" changeset="2687909">
    <nd ref="142555853"/>
    <nd ref="142556125"/>
    <tag k="highway" v="residential"/>
    <tag k="name" v="Miedersweg"/>
  </way>
  <way id="14501091" version="4" timestamp="2010-08-12T12:28:09Z" uid="7596" user="ck3d" changeset="5472762">
    <nd ref="142555853"/>
    <nd ref="142556125"/>
    <tag k="highway" v="residential"/>
    <tag k="name" v="Miedersweg"/>
    <tag k="zone:traffic" v="DE:urban"/>
  </way>
  <way id="14501091" version="5" timestamp="2011-05-30T07:20:27Z" uid="115348" user="Thomas Schwiertz" changeset="8289261">
    <nd ref="142555853"/>
    <nd ref="142556125"/>
    <tag k="highway" v="residential"/>
    <tag k="name" v="Miedersweg"/>
    <tag k="oneway" v="no"/>
    <tag k="zone:traffic" v="DE:urban"/>
  </way>
  <way id="14501280" version="4" timestamp="2009-09-30T12:58:10Z" uid="36809" user="pfoten_weg_!_" changeset="2687909">
    <nd ref="142548409"/>
    <nd ref="142559043"/>
    <nd ref="142559044"/>
    <nd ref="142559045"/>
    <tag k="highway" v="residential"/>
    <tag k="name" v="Wettersteinstraße"/>
  </way>
  <way id="14501280" version="5" timestamp="2010-08-12T12:29:31Z" uid="7596" user="ck3d" changeset="5472762">
    <nd ref="142548409"/>
    <nd ref="142559043"/>
    <nd ref="142559044"/>
    <nd ref="142559045"/>
    <tag k="highway" v="residential"/>
    <tag k="name" v="Wettersteinstraße"/>
    <tag k="zone:traffic" v="DE:urban"/>
  </way>
  <way id="14501359" version="9" timestamp="2009-09-30T12:58:04Z" uid="36809" user="pfoten_weg_!_" changeset="2687909">
    <nd ref="31321068"/>
    <nd ref="142559982"/>
    <nd ref="142559983"/>
    <nd ref="142547677"/>
    <nd ref="249546747"/>
    <nd ref="142559988"/>
    <nd ref="142559992"/>
    <nd ref="142559994"/>
    <tag k="highway" v="residential"/>
    <tag k="maxspeed" v="30"/>
    <tag k="name" v="Schillerstraße"/>
  </way>
  <way id="14501359" version="10" timestamp="2009-11-01T19:23:52Z" uid="7596" user="ck3d" changeset="3010111">
    <nd ref="31321068"/>
    <nd ref="142559982"/>
    <nd ref="142559983"/>
    <nd ref="142547677"/>
    <nd ref="249546747"/>
    <nd ref="142559988"/>
    <nd ref="142559992"/>
    <nd ref="142559994"/>
    <tag k="highway" v="residential"/>
    <tag k="maxspeed" v="30"/>
    <tag k="name" v="Schillerstraße"/>
    <tag k="zone:traffic" v="DE:urban"/>
  </way>
  <way id="14501359" version="11" timestamp="2010-04-16T20:23:37Z" uid="7596" user="ck3d" changeset="4442204">
    <nd ref="31321068"/>
    <nd ref="142559982"/>
    <nd ref="142559983"/>
    <nd ref="142547677"/>
    <nd ref="249546747"/>
    <nd ref="142559988"/>
    <nd ref="142559992"/>
    <tag k="highway" v="residential"/>
    <tag k="maxspeed" v="30"/>
    <tag k="name" v="Schillerstraße"/>
    <tag k="zone:traffic" v="DE:urban"/>
  </way>
  <way id="14501385" version="4" timestamp="2009-09-30T12:57:56Z" uid="36809" user="pfoten_weg_!_" changeset="2687909">
    <nd ref="142560282"/>
    <nd ref="142560283"/>
    <nd ref="142560285"/>
    <nd ref="142560286"/>
    <tag k="highway" v="residential"/>
    <tag k="name" v="Mozartstraße"/>
  </way>
  <way id="14501385" version="5" timestamp="2010-04-03T13:25:48Z" uid="7596" user="ck3d" changeset="4312976">
    <nd ref="142560282"/>
    <nd ref="142560283"/>
    <nd ref="142560285"/>
    <nd ref="142560286"/>
    <tag k="highway" v="residential"/>
    <tag k="name" v="Mozartstraße"/>
    <tag k="zone:traffic" v="DE:urban"/>
  </way>
  <way id="14501400" version="6" timestamp="2009-09-30T12:57:53Z" uid="36809" user="pfoten_weg_!_" changeset="2687909">
    <nd ref="142560622"/>
    <nd ref="142560282"/>
    <nd ref="142560623"/>
    <nd ref="142560624"/>
    <nd ref="142560625"/>
    <tag k="highway" v="residential"/>
    <tag k="maxspeed" v="30"/>
    <tag k="name" v="Höhenringstraße"/>
  </way>
  <way id="14501400" version="7" timestamp="2010-04-03T13:25:46Z" uid="7596" user="ck3d" changeset="4312976">
    <nd ref="142560622"/>
    <nd ref="142560282"/>
    <nd ref="142560623"/>
    <nd ref="142560624"/>
    <nd ref="142560625"/>
    <tag k="highway" v="residential"/>
    <tag k="maxspeed" v="30"/>
    <tag k="name" v="Höhenringstraße"/>
    <tag k="zone:traffic" v="DE:urban"/>
  </way>
  <way id="14501400" version="8" timestamp="2010-08-16T11:46:48Z" uid="7596" user="ck3d" changeset="5508416">
    <nd ref="142560622"/>
    <nd ref="142560282"/>
    <nd ref="142560624"/>
    <nd ref="142560625"/>
    <tag k="highway" v="residential"/>
    <tag k="maxspeed" v="30"/>
    <tag k="name" v="Höhenringstraße"/>
    <tag k="zone:traffic" v="DE:urban"/>
  </way>
  <way id="14501412" version="6" timestamp="2009-09-30T12:57:51Z" uid="36809" user="pfoten_weg_!_" changeset="2687909">
    <nd ref="142562525"/>
    <nd ref="142562364"/>
    <nd ref="142560757"/>
    <nd ref="142560622"/>
    <tag k="highway" v="residential"/>
    <tag k="name" v="Uhlandstraße"/>
  </way>
  <way id="14501412" version="7" timestamp="2010-04-03T13:25:49Z" uid="7596" user="ck3d" changeset="4312976">
    <nd ref="142562525"/>
    <nd ref="683255052"/>
    <nd ref="142562364"/>
    <nd ref="142560757"/>
    <nd ref="142560622"/>
    <tag k="highway" v="residential"/>
    <tag k="name" v="Uhlandstraße"/>
    <tag k="zone:traffic" v="DE:urban"/>
  </way>
  <way id="14501502" version="7" timestamp="2009-09-30T12:57:44Z" uid="36809" user="pfoten_weg_!_" changeset="2687909">
    <nd ref="142560285"/>
    <nd ref="142561715"/>
    <nd ref="142561716"/>
    <nd ref="142561717"/>
    <nd ref="142561718"/>
    <nd ref="142561719"/>
    <nd ref="249546199"/>
    <tag k="highway" v="residential"/>
    <tag k="maxspeed" v="30"/>
    <tag k="name" v="Beethovenstraße"/>
  </way>
  <way id="14501502" version="8" timestamp="2010-04-03T13:25:49Z" uid="7596" user="ck3d" changeset="4312976">
    <nd ref="142560285"/>
    <nd ref="142561715"/>
    <nd ref="142561716"/>
    <nd ref="142561717"/>
    <nd ref="142561718"/>
    <nd ref="142561719"/>
    <nd ref="249546199"/>
    <tag k="highway" v="residential"/>
    <tag k="maxspeed" v="30"/>
    <tag k="name" v="Beethovenstraße"/>
    <tag k="zone:traffic" v="DE:urban"/>
  </way>
  <way id="14501530" version="5" timestamp="2009-09-30T12:57:39Z" uid="36809" user="pfoten_weg_!_" changeset="2687909">
    <nd ref="142559983"/>
    <nd ref="142562083"/>
    <nd ref="142562085"/>
    <nd ref="142562364"/>
    <tag k="highway" v="residential"/>
    <tag k="name" v="Lessingstraße"/>
  </way>
  <way id="14501530" version="6" timestamp="2010-08-12T12:28:35Z" uid="7596" user="ck3d" changeset="5472762">
    <nd ref="142559983"/>
    <nd ref="142562083"/>
    <nd ref="142562085"/>
    <nd ref="142562364"/>
    <tag k="highway" v="residential"/>
    <tag k="name" v="Lessingstraße"/>
    <tag k="zone:traffic" v="DE:urban"/>
  </way>
  <way id="14501530" version="7" timestamp="2010-08-16T11:46:43Z" uid="7596" user="ck3d" changeset="5508416">
    <nd ref="142559983"/>
    <nd ref="142562083"/>
    <nd ref="142562364"/>
    <tag k="highway" v="residential"/>
    <tag k="name" v="Lessingstraße"/>
    <tag k="zone:traffic" v="DE:urban"/>
  </way>
  <way id="14501576" version="5" timestamp="2009-09-30T12:57:36Z" uid="36809" user="pfoten_weg_!_" changeset="2687909">
    <nd ref="142563487"/>
    <nd ref="142563715"/>
    <nd ref="142563717"/>
    <nd ref="142563719"/>
    <nd ref="142563720"/>
    <nd ref="142563722"/>
    <nd ref="142563306"/>
    <nd ref="142563307"/>
    <tag k="highway" v="residential"/>
    <tag k="name" v="Wernher-von-Braun-Straße"/>
  </way>
  <way id="14501576" version="6" timestamp="2009-10-24T17:47:55Z" uid="7596" user="ck3d" changeset="2940184">
    <nd ref="142563487"/>
    <nd ref="142563715"/>
    <nd ref="142563717"/>
    <nd ref="142563719"/>
    <nd ref="142563720"/>
    <nd ref="142563722"/>
    <nd ref="142563306"/>
    <nd ref="142563307"/>
    <tag k="highway" v="residential"/>
    <tag k="name" v="Wernher-von-Braun-Straße"/>
    <tag k="zone:traffic" v="DE:urban"/>
  </way>
  <way id="14501576" version="7" timestamp="2010-02-13T22:35:55Z" uid="7596" user="ck3d" changeset="3869105">
    <nd ref="142563487"/>
    <nd ref="142563715"/>
    <nd ref="142563717"/>
    <nd ref="142563719"/>
    <nd ref="142563720"/>
    <nd ref="142563306"/>
    <nd ref="638762098"/>
    <nd ref="142563307"/>
    <tag k="highway" v="residential"/>
    <tag k="name" v="Wernher-von-Braun-Straße"/>
    <tag k="zone:traffic" v="DE:urban"/>
  </way>
  <way id="14501576" version="8" timestamp="2010-08-16T11:46:44Z" uid="7596" user="ck3d" changeset="5508416">
    <nd ref="142563487"/>
    <nd ref="142563715"/>
    <nd ref="142563717"/>
    <nd ref="142563719"/>
    <nd ref="863096146"/>
    <nd ref="142563720"/>
    <nd ref="142563306"/>
    <nd ref="638762098"/>
    <nd ref="142563307"/>
    <tag k="highway" v="residential"/>
    <tag k="name" v="Wernher-von-Braun-Straße"/>
    <tag k="zone:traffic" v="DE:urban"/>
  </way>
  <way id="14501091" version="6" timestamp="2012-07-18T06:14:27Z" uid="722137" user="OSMF Redaction Account" changeset="12274979">
    <nd ref="142555853"/>
    <nd ref="142556125"/>
    <tag k="highway" v="residential"/>
    <tag k="oneway" v="no"/>
    <tag k="zone:traffic" v="DE:urban"/>
  </way>
  <way id="14501280" version="6" timestamp="2012-04-08T10:14:24Z" uid="7596" user="ck3d" changeset="11223334">
    <nd ref="142548409"/>
    <nd ref="142559043"/>
    <nd ref="142559044"/>
    <nd ref="142559045"/>
    <tag k="highway" v="residential"/>
    <tag k="maxspeed" v="30"/>
    <tag k="name" v="Wettersteinstraße"/>
    <tag k="zone:traffic" v="DE:urban"/>
  </way>
  <way id="14501280" version="7" timestamp="2012-07-18T06:14:33Z" uid="722137" user="OSMF Redaction Account" changeset="12274979">
    <nd ref="142548409"/>
    <nd ref="142559043"/>
    <nd ref="142559044"/>
    <nd ref="142559045"/>
    <tag k="highway" v="unclassified"/>
    <tag k="maxspeed" v="30"/>
    <tag k="zone:traffic" v="DE:urban"/>
  </way>
  <way id="14501359" version="12" timestamp="2012-07-18T06:14:36Z" uid="722137" user="OSMF Redaction Account" changeset="12274979">
    <nd ref="31321068"/>
    <nd ref="142559982"/>
    <nd ref="142559983"/>
    <nd ref="142547677"/>
    <nd ref="142559988"/>
    <nd ref="142559992"/>
    <tag k="highway" v="residential"/>
    <tag k="maxspeed" v="30"/>
    <tag k="name" v="Schillerstraße"/>
    <tag k="zone:traffic" v="DE:urban"/>
  </way>
  <way id="14501359" version="13" timestamp="2012-09-02T10:49:05Z" uid="36599" user="horstelix" changeset="12952049">
    <nd ref="31321068"/>
    <nd ref="142559982"/>
    <nd ref="142559983"/>
    <nd ref="142547677"/>
    <nd ref="249546747"/>
    <nd ref="142559988"/>
    <nd ref="142559992"/>
    <tag k="highway" v="residential"/>
    <tag k="maxspeed" v="30"/>
    <tag k="name" v="Schillerstraße"/>
    <tag k="zone:traffic" v="DE:urban"/>
  </way>
  <way id="14501385" version="6" timestamp="2012-04-08T10:14:21Z" uid="7596" user="ck3d" changeset="11223334">
    <nd ref="142560282"/>
    <nd ref="142560283"/>
    <nd ref="142560285"/>
    <nd ref="142560286"/>
    <tag k="highway" v="residential"/>
    <tag k="maxspeed" v="30"/>
    <tag k="name" v="Mozartstraße"/>
    <tag k="zone:traffic" v="DE:urban"/>
  </way>
  <way id="14501385" version="7" timestamp="2012-07-18T06:14:36Z" uid="722137" user="OSMF Redaction Account" changeset="12274979">
    <nd ref="142560282"/>
    <nd ref="142560283"/>
    <nd ref="142560285"/>
    <nd ref="142560286"/>
    <tag k="highway" v="residential"/>
    <tag k="maxspeed" v="30"/>
    <tag k="zone:traffic" v="DE:urban"/>
  </way>
  <way id="14501400" version="9" timestamp="2012-07-18T06:14:36Z" uid="722137" user="OSMF Redaction Account" changeset="12274979">
    <nd ref="142560622"/>
    <nd ref="142560282"/>
    <nd ref="142560624"/>
    <nd ref="142560625"/>
    <tag k="highway" v="residential"/>
    <tag k="maxspeed" v="30"/>
    <tag k="zone:traffic" v="DE:urban"/>
  </way>
  <way id="14501412" version="8" timestamp="2012-04-08T10:14:23Z" uid="7596" user="ck3d" changeset="11223334">
    <nd ref="142562525"/>
    <nd ref="683255052"/>
    <nd ref="142562364"/>
    <nd ref="142560757"/>
    <nd ref="142560622"/>
    <tag k="highway" v="residential"/>
    <tag k="maxspeed" v="30"/>
    <tag k="name" v="Uhlandstraße"/>
    <tag k="zone:traffic" v="DE:urban"/>
  </way>
  <way id="14501412" version="9" timestamp="2012-07-18T06:14:36Z" uid="722137" user="OSMF Redaction Account" changeset="12274979">
    <nd ref="142562525"/>
    <nd ref="683255052"/>
    <nd ref="142562364"/>
    <nd ref="142560757"/>
    <nd ref="142560622"/>
    <tag k="highway" v="residential"/>
    <tag k="maxspeed" v="30"/>
    <tag k="zone:traffic" v="DE:urban"/>
  </way>
  <way id="14501502" version="9" timestamp="2012-07-18T06:14:35Z" uid="722137" user="OSMF Redaction Account" changeset="12274979">
    <nd ref="142560285"/>
    <nd ref="142561715"/>
    <nd ref="142561716"/>
    <nd ref="142561717"/>
    <nd ref="142561718"/>
    <nd ref="142561719"/>
    <tag k="highway" v="residential"/>
    <tag k="maxspeed" v="30"/>
    <tag k="zone:traffic" v="DE:urban"/>
  </way>
  <way id="14501530" version="8" timestamp="2012-04-08T10:14:19Z" uid="7596" user="ck3d" changeset="11223334">
    <nd ref="142559983"/>
    <nd ref="142562083"/>
    <nd ref="142562364"/>
    <tag k="highway" v="residential"/>
    <tag k="maxspeed" v="30"/>
    <tag k="name" v="Lessingstraße"/>
    <tag k="zone:traffic" v="DE:urban"/>
  </way>
  <way id="14501530" version="9" timestamp="2012-07-18T06:14:35Z" uid="722137" user="OSMF Redaction Account" changeset="12274979">
    <nd ref="142559983"/>
    <nd ref="142562083"/>
    <nd ref="142562364"/>
    <tag k="highway" v="residential"/>
    <tag k="maxspeed" v="30"/>
    <tag k="zone:traffic" v="DE:urban"/>
  </way>
</osm>
