<?xml version='1.0' encoding='UTF-8'?>
<osm version="0.6" generator="libosmium/2.20.0">
  <way id="14500046" version="9" timestamp="2009-09-30T12:56:43Z" uid="36809" user="pfoten_weg_!_" changeset="2687909">
    <nd ref="34697127"/>
    <nd ref="142539669"/>
    <nd ref="142539670"/>
    <nd ref="322670628"/>
    <nd ref="142539671"/>
    <nd ref="142538868"/>
    <nd ref="433635667"/>
    <nd ref="142539676"/>
    <nd ref="142539048"/>
    <nd ref="316479568"/>
    <nd ref="142538850"/>
    <nd ref="142541000"/>
    <nd ref="142541005"/>
    <nd ref="142541007"/>
    <tag k="highway" v="residential"/>
    <tag k="name" v="Weidenstraße"/>
  </way>
  <way id="14500046" version="10" timestamp="2010-07-18T17:05:22Z" uid="7596" user="ck3d" changeset="5253221">
    <nd ref="34697127"/>
    <nd ref="142539669"/>
    <nd ref="142539670"/>
    <nd ref="322670628"/>
    <nd ref="142539671"/>
    <tag k="highway" v="unclassified"/>
    <tag k="zone:traffic" v="DE:rural"/>
  </way>
  <way id="14500046" version="11" timestamp="2010-08-12T07:56:35Z" uid="7596" user="ck3d" changeset="5469881">
    <nd ref="34697127"/>
    <nd ref="142539669"/>
    <nd ref="142539670"/>
    <tag k="highway" v="unclassified"/>
    <tag k="zone:traffic" v="DE:rural"/>
  </way>
  <way id="14500217" version="3" timestamp="2009-09-30T12:56:32Z" uid="36809" user="pfoten_weg_!_" changeset="2687909">
    <nd ref="142543220"/>
    <nd ref="142543384"/>
    <nd ref="142543386"/>
    <tag k="highway" v="residential"/>
    <tag k="name" v="Vogelbeerenweg"/>
  </way>
  <way id="14500217" version="4" timestamp="2010-03-01T20:26:55Z" uid="239540" user="Dagmartin" changeset="4012026">
    <nd ref="142543220"/>
    <nd ref="142543384"/>
    <nd ref="142543386"/>
    <tag k="highway" v="residential"/>
    <tag k="name" v="Vogelbeerweg"/>
  </way>
  <way id="14500217" version="5" timestamp="2010-08-12T12:26:40Z" uid="7596" user="ck3d" changeset="5472762">
    <nd ref="142543220"/>
    <nd ref="142543384"/>
    <nd ref="142543386"/>
    <tag k="highway" v="residential"/>
    <tag k="name" v="Vogelbeerweg"/>
    <tag k="zone:traffic" v="DE:urban"/>
  </way>
  <way id="14500254" version="4" timestamp="2009-09-30T12:56:15Z" uid="36809" user="pfoten_weg_!_" changeset="2687909">
    <nd ref="142521593"/>
    <nd ref="142543800"/>
    <nd ref="320732413"/>
    <tag k="highway" v="residential"/>
    <tag k="name" v="Nußbaumstraße"/>
  </way>
  <way id="14500254" version="5" timestamp="2010-08-12T12:29:15Z" uid="7596" user="ck3d" changeset="5472762">
    <nd ref="142521593"/>
    <nd ref="142543800"/>
    <nd ref="320732413"/>
    <tag k="highway" v="residential"/>
    <tag k="name" v="Nußbaumstraße"/>
    <tag k="zone:traffic" v="DE:urban"/>
  </way>
  <way id="14500348" version="4" timestamp="2009-09-30T12:56:24Z" uid="36809" user="pfoten_weg_!_" changeset="2687909">
    <nd ref="142545550"/>
    <nd ref="142545735"/>
    <nd ref="142553882"/>
    <tag k="highway" v="residential"/>
    <tag k="name" v="Sankt-Bernhard-Straße"/>
  </way>
  <way id="14500348" version="5" timestamp="2010-08-12T12:27:13Z" uid="7596" user="ck3d" changeset="5472762">
    <nd ref="142545550"/>
    <nd ref="142545735"/>
    <nd ref="142553882"/>
    <tag k="highway" v="residential"/>
    <tag k="name" v="Sankt-Bernhard-Straße"/>
    <tag k="zone:traffic" v="DE:urban"/>
  </way>
  <way id="14500348" version="6" timestamp="2012-02-25T17:52:27Z" uid="7596" user="ck3d" changeset="10790252">
    <nd ref="142545550"/>
    <nd ref="142545735"/>
    <tag k="highway" v="residential"/>
    <tag k="maxspeed" v="30"/>
    <tag k="name" v="Sankt-Bernhard-Straße"/>
    <tag k="zone:traffic" v="DE:urban"/>
  </way>
  <way id="14500360" version="3" timestamp="2009-09-30T12:55:53Z" uid="36809" user="pfoten_weg_!_" changeset="2687909">
    <nd ref="142545887"/>
    <nd ref="142545540"/>
    <tag k="highway" v="residential"/>
    <tag k="name" v="Appianistraße"/>
  </way>
  <way id="14500360" version="4" timestamp="2010-08-12T12:28:10Z" uid="7596" user="ck3d" changeset="5472762">
    <nd ref="142545887"/>
    <nd ref="142545540"/>
    <tag k="highway" v="residential"/>
    <tag k="name" v="Appianistraße"/>
    <tag k="zone:traffic" v="DE:urban"/>
  </way>
  <way id="14500506" version="5" timestamp="2009-09-30T12:55:43Z" uid="36809" user="pfoten_weg_!_" changeset="2687909">
    <nd ref="142547238"/>
    <nd ref="142548017"/>
    <nd ref="142548020"/>
    <tag k="highway" v="residential"/>
    <tag k="name" v="Rissfeldstraße"/>
  </way>
  <way id="14500506" version="6" timestamp="2010-08-12T12:27:54Z" uid="7596" user="ck3d" changeset="5472762">
    <nd ref="142547238"/>
    <nd ref="142548017"/>
    <nd ref="142548020"/>
    <tag k="highway" v="residential"/>
    <tag k="name" v="Rissfeldstraße"/>
    <tag k="zone:traffic" v="DE:urban"/>
  </way>
  <way id="14500621" version="4" timestamp="2009-09-30T12:55:35Z" uid="36809" user="pfoten_weg_!_" changeset="2687909">
    <nd ref="142552991"/>
    <nd ref="142549376"/>
    <nd ref="142549379"/>
    <tag k="highway" v="residential"/>
    <tag k="name" v="Marsstraße"/>
  </way>
  <way id="14500621" version="5" timestamp="2010-08-12T12:27:38Z" uid="7596" user="ck3d" changeset="5472762">
    <nd ref="142552991"/>
    <nd ref="142549376"/>
    <nd ref="142549379"/>
    <tag k="highway" v="residential"/>
    <tag k="name" v="Marsstraße"/>
    <tag k="zone:traffic" v="DE:urban"/>
  </way>
  <way id="14500675" version="4" timestamp="2009-09-30T12:55:42Z" uid="36809" user="pfoten_weg_!_" changeset="2687909">
    <nd ref="142549853"/>
    <nd ref="142550067"/>
    <nd ref="249668398"/>
    <nd ref="142550068"/>
    <nd ref="142550069"/>
    <tag k="highway" v="residential"/>
    <tag k="name" v="Wettersteinstraße"/>
  </way>
  <way id="14500675" version="5" timestamp="2010-08-12T12:29:04Z" uid="7596" user="ck3d" changeset="5472762">
    <nd ref="142549853"/>
    <nd ref="142550067"/>
    <nd ref="249668398"/>
    <nd ref="142550068"/>
    <nd ref="142550069"/>
    <tag k="highway" v="residential"/>
    <tag k="name" v="Wettersteinstraße"/>
    <tag k="zone:traffic" v="DE:urban"/>
  </way>
  <way id="14500675" version="6" timestamp="2010-08-12T22:35:53Z" uid="7596" user="ck3d" changeset="5477717">
    <nd ref="142549853"/>
    <nd ref="249668398"/>
    <nd ref="142550069"/>
    <tag k="highway" v="residential"/>
    <tag k="name" v="Wettersteinstraße"/>
    <tag k="zone:traffic" v="DE:urban"/>
  </way>
  <way id="14500870" version="3" timestamp="2009-09-30T12:58:54Z" uid="36809" user="pfoten_weg_!_" changeset="2687909">
    <nd ref="142552611"/>
    <nd ref="142552991"/>
    <nd ref="142552993"/>
    <tag k="highway" v="residential"/>
    <tag k="name" v="Alpspitzweg"/>
  </way>
  <way id="14500870" version="4" timestamp="2010-08-12T12:28:46Z" uid="7596" user="ck3d" changeset="5472762">
    <nd ref="142552611"/>
    <nd ref="142552991"/>
    <nd ref="142552993"/>
    <tag k="highway" v="residential"/>
    <tag k="name" v="Alpspitzweg"/>
    <tag k="zone:traffic" v="DE:urban"/>
  </way>
  <way id="14500217" version="6" timestamp="2012-07-18T06:14:27Z" uid="722137" user="OSMF Redaction Account" changeset="12274979">
    <nd ref="142543220"/>
    <nd ref="142543384"/>
    <nd ref="142543386"/>
    <tag k="highway" v="residential"/>
    <tag k="zone:traffic" v="DE:urban"/>
  </way>
  <way id="14500506" version="7" timestamp="2012-04-08T10:14:21Z" uid="7596" user="ck3d" changeset="11223334">
    <nd ref="142547238"/>
    <nd ref="142548017"/>
    <nd ref="1706856131"/>
    <nd ref="142548020"/>
    <tag k="highway" v="residential"/>
    <tag k="maxspeed" v="30"/>
    <tag k="name" v="Rissfeldstraße"/>
    <tag k="zone:traffic" v="DE:urban"/>
  </way>
  <way id="14500506" version="8" timestamp="2012-07-18T06:14:34Z" uid="722137" user="OSMF Redaction Account" changeset="12274979">
    <nd ref="142547238"/>
    <nd ref="142548017"/>
    <nd ref="1706856131"/>
    <nd ref="142548020"/>
    <tag k="highway" v="residential"/>
    <tag k="maxspeed" v="30"/>
    <tag k="zone:traffic" v="DE:urban"/>
  </way>
  <way id="14500621" version="6" timestamp="2012-04-08T10:14:19Z" uid="7596" user="ck3d" changeset="11223334">
    <nd ref="142552991"/>
    <nd ref="1706856107"/>
    <nd ref="142549376"/>
    <nd ref="142549379"/>
    <tag k="highway" v="residential"/>
    <tag k="maxspeed" v="30"/>
    <tag k="name" v="Marsstraße"/>
    <tag k="zone:traffic" v="DE:urban"/>
  </way>
  <way id="14500675" version="7" timestamp="2012-04-08T10:14:24Z" uid="7596" user="ck3d" changeset="11223334">
    <nd ref="142549853"/>
    <nd ref="1706856105"/>
    <nd ref="142550069"/>
    <tag k="highway" v="residential"/>
    <tag k="maxspeed" v="30"/>
    <tag k="name" v="Wettersteinstraße"/>
    <tag k="zone:traffic" v="DE:urban"/>
  </way>
  <way id="14500675" version="8" timestamp="2012-07-18T06:14:32Z" uid="722137" user="OSMF Redaction Account" changeset="12274979">
    <nd ref="142549853"/>
    <nd ref="1706856105"/>
    <nd ref="142550069"/>
    <tag k="highway" v="residential"/>
    <tag k="maxspeed" v="30"/>
    <tag k="zone:traffic" v="DE:urban"/>
  </way>
  <way id="14500870" version="5" timestamp="2012-04-08T10:14:15Z" uid="7596" user="ck3d" changeset="11223334">
    <nd ref="142552611"/>
    <nd ref="142552991"/>
    <nd ref="142552993"/>
    <tag k="highway" v="residential"/>
    <tag k="maxspeed" v="30"/>
    <tag k="name" v="Alpspitzweg"/>
    <tag k="zone:traffic" v="DE:urban"/>
  </way>
  <way id="14500870" version="6" timestamp="2012-07-18T06:14:32Z" uid="722137" user="OSMF Redaction Account" changeset="12274979">
    <nd ref="142552611"/>
    <nd ref="142552991"/>
    <nd ref="142552993"/>
    <tag k="highway" v="unclassified"/>
    <tag k="maxspeed" v="30"/>
    <tag k="zone:traffic" v="DE:urban"/>
  </way>
</osm>
