<?xml version='1.0' encoding='UTF-8'?>
<osm version="0.6" generator="libosmium/2.20.0">
  <way id="14858357" version="7" timestamp="2010-04-01T16:05:03Z" uid="33382" user="de_muur" changeset="4295241">
    <nd ref="146766108"/>
    <nd ref="146766153"/>
    <nd ref="146766136"/>
    <nd ref="146766255"/>
    <nd ref="146766142"/>
    <tag k="highway" v="tertiary"/>
    <tag k="name" v="Inscheder Dorfstraße"/>
    <tag k="ref" v="K 9"/>
    <tag k="surface" v="paved"/>
  </way>
  <way id="14858357" version="8" timestamp="2010-05-25T13:41:32Z" uid="35574" user="Schorse" changeset="4803763">
    <nd ref="146766108"/>
    <nd ref="146766153"/>
    <nd ref="146766136"/>
    <nd ref="146766255"/>
    <nd ref="146766142"/>
    <tag k="bicycle" v="designated"/>
    <tag k="cycleway" v="track"/>
    <tag k="foot" v="designated"/>
    <tag k="highway" v="tertiary"/>
    <tag k="name" v="Inscheder Dorfstraße"/>
    <tag k="ref" v="K 9"/>
    <tag k="surface" v="paved"/>
  </way>
  <way id="14858357" version="9" timestamp="2010-11-29T10:22:16Z" uid="42429" user="FK270673" changeset="6485168">
    <nd ref="146766108"/>
    <nd ref="146766153"/>
    <nd ref="146766136"/>
    <nd ref="146766255"/>
    <nd ref="146766142"/>
    <tag k="bicycle" v="designated"/>
    <tag k="cycleway" v="track"/>
    <tag k="foot" v="designated"/>
    <tag k="highway" v="tertiary"/>
    <tag k="name" v="Intscheder Dorfstraße"/>
    <tag k="ref" v="K 9"/>
    <tag k="surface" v="paved"/>
  </way>
  <way id="14858357" version="10" timestamp="2011-01-28T18:46:19Z" uid="33382" user="de_muur" changeset="7115709">
    <nd ref="146766108"/>
    <nd ref="146766153"/>
    <tag k="bicycle" v="designated"/>
    <tag k="cycleway" v="track"/>
    <tag k="foot" v="designated"/>
    <tag k="highway" v="tertiary"/>
    <tag k="name" v="Intscheder Dorfstraße"/>
    <tag k="ref" v="K 9"/>
    <tag k="surface" v="paved"/>
  </way>
  <way id="14858357" version="11" timestamp="2011-08-14T17:35:15Z" uid="57645" user="KartoGrapHiti" changeset="9018677">
    <nd ref="146766153"/>
    <nd ref="146766108"/>
    <tag k="bicycle" v="designated"/>
    <tag k="cycleway" v="track"/>
    <tag k="foot" v="designated"/>
    <tag k="highway" v="tertiary"/>
    <tag k="name" v="Intscheder Dorfstraße"/>
    <tag k="ref" v="K 9"/>
    <tag k="surface" v="paved"/>
  </way>
  <way id="14858357" version="12" timestamp="2011-10-29T21:57:27Z" uid="57645" user="KartoGrapHiti" changeset="9689139">
    <nd ref="146766153"/>
    <nd ref="1485145355"/>
    <tag k="bicycle" v="designated"/>
    <tag k="cycleway" v="track"/>
    <tag k="foot" v="designated"/>
    <tag k="highway" v="tertiary"/>
    <tag k="name" v="Intscheder Dorfstraße"/>
    <tag k="ref" v="K 9"/>
    <tag k="surface" v="paved"/>
  </way>
  <way id="14858357" version="13" timestamp="2012-01-27T19:53:30Z" uid="57645" user="KartoGrapHiti" changeset="10515710">
    <nd ref="146766153"/>
    <nd ref="1485145355"/>
    <tag k="highway" v="tertiary"/>
    <tag k="name" v="Intscheder Dorfstraße"/>
    <tag k="ref" v="K 9"/>
    <tag k="surface" v="asphalt"/>
  </way>
  <way id="14858367" version="3" timestamp="2010-06-18T20:49:17Z" uid="33382" user="de_muur" changeset="5019482">
    <nd ref="146766255"/>
    <nd ref="146766258"/>
    <nd ref="146766261"/>
    <nd ref="146766265"/>
    <tag k="highway" v="residential"/>
    <tag k="name" v="Bergende"/>
    <tag k="surface" v="paved"/>
  </way>
  <way id="14858367" version="4" timestamp="2011-08-23T13:41:05Z" uid="57645" user="KartoGrapHiti" changeset="9103809">
    <nd ref="146766255"/>
    <nd ref="146766258"/>
    <nd ref="146766261"/>
    <nd ref="1409893771"/>
    <nd ref="1409893773"/>
    <nd ref="146766265"/>
    <tag k="highway" v="residential"/>
    <tag k="name" v="Bergende"/>
    <tag k="surface" v="paved"/>
  </way>
  <way id="14858367" version="5" timestamp="2012-01-28T17:53:44Z" uid="57645" user="KartoGrapHiti" changeset="10523331">
    <nd ref="1609056636"/>
    <nd ref="146766258"/>
    <nd ref="146766261"/>
    <nd ref="1409893771"/>
    <nd ref="1409893773"/>
    <nd ref="146766265"/>
    <tag k="highway" v="residential"/>
    <tag k="name" v="Bergende"/>
    <tag k="surface" v="paved"/>
  </way>
  <way id="14858368" version="5" timestamp="2010-04-26T19:24:49Z" uid="33382" user="de_muur" changeset="4535132">
    <nd ref="146766151"/>
    <nd ref="707990720"/>
    <tag k="highway" v="unclassified"/>
    <tag k="name" v="Reerer Damm"/>
    <tag k="surface" v="paved"/>
  </way>
  <way id="14858368" version="6" timestamp="2011-08-14T17:35:16Z" uid="57645" user="KartoGrapHiti" changeset="9018677">
    <nd ref="707990720"/>
    <nd ref="146766151"/>
    <tag k="highway" v="unclassified"/>
    <tag k="name" v="Reerer Damm"/>
    <tag k="surface" v="paved"/>
  </way>
  <way id="14858370" version="3" timestamp="2010-04-28T18:36:39Z" uid="33382" user="de_muur" changeset="4552154">
    <nd ref="146766312"/>
    <nd ref="271439603"/>
    <nd ref="146766308"/>
    <nd ref="146766303"/>
    <tag k="highway" v="residential"/>
    <tag k="name" v="Rumbarg"/>
  </way>
  <way id="14858370" version="4" timestamp="2011-08-22T16:43:07Z" uid="57645" user="KartoGrapHiti" changeset="9095851">
    <nd ref="146766312"/>
    <nd ref="271439603"/>
    <nd ref="146766308"/>
    <nd ref="146766303"/>
    <tag k="highway" v="residential"/>
    <tag k="maxspeed" v="30"/>
    <tag k="name" v="Rumbarg"/>
  </way>
  <way id="14858370" version="5" timestamp="2012-03-08T19:49:23Z" uid="57645" user="KartoGrapHiti" changeset="10912874">
    <nd ref="146766312"/>
    <nd ref="271439603"/>
    <nd ref="146766308"/>
    <nd ref="146766303"/>
    <tag k="highway" v="residential"/>
    <tag k="lcn" v="yes"/>
    <tag k="maxspeed" v="30"/>
    <tag k="name" v="Rumbarg"/>
  </way>
  <way id="14858371" version="4" timestamp="2010-04-26T19:24:49Z" uid="33382" user="de_muur" changeset="4535132">
    <nd ref="253651353"/>
    <nd ref="146766323"/>
    <nd ref="146766303"/>
    <tag k="highway" v="residential"/>
    <tag k="name" v="Eschweg"/>
  </way>
  <way id="14858371" version="5" timestamp="2010-04-28T18:36:39Z" uid="33382" user="de_muur" changeset="4552154">
    <nd ref="253651353"/>
    <nd ref="146766323"/>
    <nd ref="146766303"/>
    <tag k="highway" v="residential"/>
    <tag k="name" v="Eschweg"/>
    <tag k="surface" v="paved"/>
  </way>
  <way id="14858371" version="6" timestamp="2011-08-22T16:43:03Z" uid="57645" user="KartoGrapHiti" changeset="9095851">
    <nd ref="253651353"/>
    <nd ref="1408722296"/>
    <tag k="highway" v="residential"/>
    <tag k="maxspeed" v="50"/>
    <tag k="name" v="Eschweg"/>
    <tag k="surface" v="paved"/>
  </way>
  <way id="14858371" version="7" timestamp="2012-01-28T18:20:44Z" uid="57645" user="KartoGrapHiti" changeset="10523597">
    <nd ref="253651353"/>
    <nd ref="1609088132"/>
    <nd ref="1408722296"/>
    <tag k="highway" v="residential"/>
    <tag k="maxspeed" v="50"/>
    <tag k="name" v="Eschweg"/>
    <tag k="surface" v="paved"/>
  </way>
  <way id="14858372" version="4" timestamp="2010-04-26T19:24:49Z" uid="33382" user="de_muur" changeset="4535132">
    <nd ref="146766315"/>
    <nd ref="253651353"/>
    <tag k="highway" v="residential"/>
    <tag k="name" v="Hafenstraße"/>
  </way>
  <way id="14858372" version="5" timestamp="2010-04-28T18:36:39Z" uid="33382" user="de_muur" changeset="4552154">
    <nd ref="146766315"/>
    <nd ref="253651353"/>
    <tag k="highway" v="residential"/>
    <tag k="name" v="Hafenstraße"/>
    <tag k="surface" v="paved"/>
  </way>
  <way id="14858372" version="6" timestamp="2011-08-22T16:43:04Z" uid="57645" user="KartoGrapHiti" changeset="9095851">
    <nd ref="146766315"/>
    <nd ref="1408722291"/>
    <tag k="highway" v="residential"/>
    <tag k="maxspeed" v="30"/>
    <tag k="name" v="Hafenstraße"/>
    <tag k="surface" v="paved"/>
  </way>
  <way id="14858372" version="7" timestamp="2012-01-28T18:12:30Z" uid="57645" user="KartoGrapHiti" changeset="10523509">
    <nd ref="146766315"/>
    <nd ref="1609075575"/>
    <nd ref="1408722291"/>
    <tag k="highway" v="residential"/>
    <tag k="maxspeed" v="30"/>
    <tag k="name" v="Hafenstraße"/>
    <tag k="surface" v="paved"/>
  </way>
  <way id="14858391" version="3" timestamp="2010-04-28T18:45:01Z" uid="33382" user="de_muur" changeset="4552248">
    <nd ref="146766151"/>
    <nd ref="146766270"/>
    <nd ref="146766275"/>
    <nd ref="146766277"/>
    <tag k="highway" v="residential"/>
    <tag k="name" v="In der Aue"/>
    <tag k="surface" v="paved"/>
  </way>
  <way id="14858397" version="4" timestamp="2010-04-26T19:24:49Z" uid="33382" user="de_muur" changeset="4535132">
    <nd ref="146766160"/>
    <nd ref="146766157"/>
    <nd ref="707990731"/>
    <nd ref="146766154"/>
    <nd ref="146766201"/>
    <nd ref="146766240"/>
    <nd ref="707990722"/>
    <nd ref="146766237"/>
    <tag k="highway" v="track"/>
    <tag k="surface" v="paved"/>
    <tag k="tracktype" v="grade1"/>
  </way>
  <way id="14858397" version="5" timestamp="2011-02-27T16:46:45Z" uid="57645" user="KartoGrapHiti" changeset="7412653">
    <nd ref="146766160"/>
    <nd ref="146766157"/>
    <nd ref="707990731"/>
    <nd ref="146766154"/>
    <nd ref="146766201"/>
    <nd ref="1177415902"/>
    <nd ref="146766240"/>
    <nd ref="707990722"/>
    <nd ref="146766237"/>
    <tag k="highway" v="track"/>
    <tag k="surface" v="paved"/>
    <tag k="tracktype" v="grade1"/>
  </way>
  <way id="14858397" version="6" timestamp="2011-08-22T16:43:09Z" uid="57645" user="KartoGrapHiti" changeset="9095851">
    <nd ref="146766160"/>
    <nd ref="146766157"/>
    <nd ref="707990731"/>
    <nd ref="146766154"/>
    <tag k="highway" v="track"/>
    <tag k="surface" v="concrete"/>
    <tag k="tracktype" v="grade1"/>
  </way>
  <way id="14858397" version="7" timestamp="2011-08-22T16:45:03Z" uid="57645" user="KartoGrapHiti" changeset="9095871">
    <nd ref="146766160"/>
    <nd ref="146766157"/>
    <nd ref="707990731"/>
    <nd ref="146766154"/>
    <tag k="highway" v="track"/>
    <tag k="smoothness" v="excellent"/>
    <tag k="surface" v="concrete"/>
    <tag k="tracktype" v="grade1"/>
  </way>
  <way id="14858397" version="8" timestamp="2011-08-22T16:51:21Z" uid="57645" user="KartoGrapHiti" changeset="9095931">
    <nd ref="146766160"/>
    <nd ref="146766157"/>
    <nd ref="707990731"/>
    <nd ref="1408728900"/>
    <nd ref="146766154"/>
    <tag k="highway" v="track"/>
    <tag k="smoothness" v="excellent"/>
    <tag k="surface" v="concrete"/>
    <tag k="tracktype" v="grade1"/>
  </way>
  <way id="14858400" version="6" timestamp="2010-04-26T19:24:48Z" uid="33382" user="de_muur" changeset="4535132">
    <nd ref="146766277"/>
    <nd ref="146766280"/>
    <nd ref="146766285"/>
    <nd ref="324627177"/>
    <tag k="highway" v="residential"/>
    <tag k="name" v="In der Aue"/>
    <tag k="surface" v="paved"/>
  </way>
  <way id="14858400" version="7" timestamp="2010-12-12T19:04:53Z" uid="57645" user="KartoGrapHiti" changeset="6640324">
    <nd ref="146766277"/>
    <nd ref="146766280"/>
    <nd ref="1036272801"/>
    <nd ref="146766285"/>
    <nd ref="324627177"/>
    <tag k="highway" v="residential"/>
    <tag k="name" v="In der Aue"/>
    <tag k="surface" v="paved"/>
  </way>
  <way id="14858400" version="8" timestamp="2012-03-08T19:49:19Z" uid="57645" user="KartoGrapHiti" changeset="10912874">
    <nd ref="146766277"/>
    <nd ref="146766280"/>
    <nd ref="1036272801"/>
    <nd ref="146766285"/>
    <nd ref="324627177"/>
    <tag k="highway" v="residential"/>
    <tag k="lcn" v="yes"/>
    <tag k="name" v="In der Aue"/>
    <tag k="surface" v="paved"/>
  </way>
  <way id="14858404" version="8" timestamp="2010-04-01T16:05:03Z" uid="33382" user="de_muur" changeset="4295241">
    <nd ref="146766142"/>
    <nd ref="146766289"/>
    <tag k="highway" v="tertiary"/>
    <tag k="maxspeed" v="50"/>
    <tag k="name" v="Inscheder Dorfstraße"/>
    <tag k="ref" v="K 9"/>
    <tag k="surface" v="paved"/>
  </way>
  <way id="14858404" version="9" timestamp="2010-05-25T13:41:27Z" uid="35574" user="Schorse" changeset="4803763">
    <nd ref="146766142"/>
    <nd ref="146766289"/>
    <tag k="bicycle" v="designated"/>
    <tag k="cycleway" v="track"/>
    <tag k="foot" v="designated"/>
    <tag k="highway" v="tertiary"/>
    <tag k="maxspeed" v="50"/>
    <tag k="name" v="Inscheder Dorfstraße"/>
    <tag k="ref" v="K 9"/>
    <tag k="surface" v="paved"/>
  </way>
  <way id="14858404" version="10" timestamp="2010-11-29T10:22:16Z" uid="42429" user="FK270673" changeset="6485168">
    <nd ref="146766142"/>
    <nd ref="146766289"/>
    <tag k="bicycle" v="designated"/>
    <tag k="cycleway" v="track"/>
    <tag k="foot" v="designated"/>
    <tag k="highway" v="tertiary"/>
    <tag k="maxspeed" v="50"/>
    <tag k="name" v="Intscheder Dorfstraße"/>
    <tag k="ref" v="K 9"/>
    <tag k="surface" v="paved"/>
  </way>
  <way id="14858404" version="11" timestamp="2010-12-12T19:04:57Z" uid="57645" user="KartoGrapHiti" changeset="6640324">
    <nd ref="146766142"/>
    <nd ref="1036272469"/>
    <nd ref="146766289"/>
    <tag k="bicycle" v="designated"/>
    <tag k="cycleway" v="track"/>
    <tag k="foot" v="designated"/>
    <tag k="highway" v="tertiary"/>
    <tag k="maxspeed" v="50"/>
    <tag k="name" v="Intscheder Dorfstraße"/>
    <tag k="ref" v="K 9"/>
    <tag k="surface" v="paved"/>
  </way>
  <way id="14858404" version="12" timestamp="2011-08-14T17:35:15Z" uid="57645" user="KartoGrapHiti" changeset="9018677">
    <nd ref="146766289"/>
    <nd ref="1036272469"/>
    <nd ref="146766142"/>
    <tag k="bicycle" v="designated"/>
    <tag k="cycleway" v="track"/>
    <tag k="foot" v="designated"/>
    <tag k="highway" v="tertiary"/>
    <tag k="maxspeed" v="50"/>
    <tag k="name" v="Intscheder Dorfstraße"/>
    <tag k="ref" v="K 9"/>
    <tag k="surface" v="paved"/>
  </way>
  <way id="14858404" version="13" timestamp="2011-08-22T16:43:05Z" uid="57645" user="KartoGrapHiti" changeset="9095851">
    <nd ref="146766289"/>
    <nd ref="1036272469"/>
    <nd ref="146766142"/>
    <tag k="highway" v="tertiary"/>
    <tag k="maxspeed" v="50"/>
    <tag k="name" v="Intscheder Dorfstraße"/>
    <tag k="ref" v="K 9"/>
    <tag k="surface" v="paved"/>
  </way>
  <way id="14858404" version="14" timestamp="2011-08-23T09:50:07Z" uid="57645" user="KartoGrapHiti" changeset="9101889">
    <nd ref="146766289"/>
    <nd ref="1036272469"/>
    <nd ref="146766142"/>
    <tag k="highway" v="tertiary"/>
    <tag k="lit" v="limited"/>
    <tag k="maxspeed" v="50"/>
    <tag k="name" v="Intscheder Dorfstraße"/>
    <tag k="ref" v="K 9"/>
    <tag k="surface" v="paved"/>
  </way>
  <way id="14858404" version="15" timestamp="2012-03-08T19:49:20Z" uid="57645" user="KartoGrapHiti" changeset="10912874">
    <nd ref="146766289"/>
    <nd ref="1036272469"/>
    <nd ref="146766142"/>
    <tag k="highway" v="tertiary"/>
    <tag k="lit" v="limited"/>
    <tag k="maxspeed" v="50"/>
    <tag k="name" v="Intscheder Dorfstraße"/>
    <tag k="ref" v="K 9"/>
    <tag k="surface" v="asphalt"/>
  </way>
  <way id="14858405" version="15" timestamp="2010-04-01T16:05:04Z" uid="33382" user="de_muur" changeset="4295241">
    <nd ref="146766392"/>
    <nd ref="600862951"/>
    <nd ref="146766289"/>
    <tag k="highway" v="tertiary"/>
    <tag k="maxspeed" v="50"/>
    <tag k="name" v="Inscheder Dorfstraße"/>
    <tag k="ref" v="K 9"/>
    <tag k="surface" v="paved"/>
  </way>
  <way id="14858405" version="16" timestamp="2010-05-25T13:41:33Z" uid="35574" user="Schorse" changeset="4803763">
    <nd ref="146766392"/>
    <nd ref="600862951"/>
    <nd ref="146766289"/>
    <tag k="bicycle" v="designated"/>
    <tag k="cycleway" v="track"/>
    <tag k="foot" v="designated"/>
    <tag k="highway" v="tertiary"/>
    <tag k="maxspeed" v="50"/>
    <tag k="name" v="Inscheder Dorfstraße"/>
    <tag k="ref" v="K 9"/>
    <tag k="surface" v="paved"/>
  </way>
  <way id="14858405" version="17" timestamp="2010-12-26T15:05:25Z" uid="57645" user="KartoGrapHiti" changeset="6768907">
    <nd ref="146766392"/>
    <nd ref="600862951"/>
    <nd ref="146766289"/>
    <tag k="bicycle" v="designated"/>
    <tag k="cycleway" v="track"/>
    <tag k="foot" v="designated"/>
    <tag k="highway" v="tertiary"/>
    <tag k="maxspeed" v="50"/>
    <tag k="name" v="Intscheder Dorfstraße"/>
    <tag k="ref" v="K 9"/>
    <tag k="surface" v="paved"/>
  </way>
  <way id="14858405" version="18" timestamp="2011-08-22T16:43:05Z" uid="57645" user="KartoGrapHiti" changeset="9095851">
    <nd ref="146766392"/>
    <nd ref="600862951"/>
    <nd ref="146766289"/>
    <tag k="highway" v="tertiary"/>
    <tag k="maxspeed" v="50"/>
    <tag k="name" v="Intscheder Dorfstraße"/>
    <tag k="ref" v="K 9"/>
    <tag k="surface" v="paved"/>
  </way>
  <way id="14858405" version="19" timestamp="2011-08-23T09:50:07Z" uid="57645" user="KartoGrapHiti" changeset="9101889">
    <nd ref="146766392"/>
    <nd ref="600862951"/>
    <nd ref="146766289"/>
    <tag k="highway" v="tertiary"/>
    <tag k="lit" v="limited"/>
    <tag k="maxspeed" v="50"/>
    <tag k="name" v="Intscheder Dorfstraße"/>
    <tag k="ref" v="K 9"/>
    <tag k="surface" v="paved"/>
  </way>
  <way id="14858405" version="20" timestamp="2012-03-08T19:49:20Z" uid="57645" user="KartoGrapHiti" changeset="10912874">
    <nd ref="146766392"/>
    <nd ref="600862951"/>
    <nd ref="146766289"/>
    <tag k="highway" v="tertiary"/>
    <tag k="lit" v="limited"/>
    <tag k="maxspeed" v="50"/>
    <tag k="name" v="Intscheder Dorfstraße"/>
    <tag k="ref" v="K 9"/>
    <tag k="surface" v="asphalt"/>
  </way>
  <way id="14858357" version="14" timestamp="2012-07-18T14:35:37Z" uid="722137" user="OSMF Redaction Account" changeset="12285248">
    <nd ref="146766153"/>
    <nd ref="1485145355"/>
    <tag k="highway" v="secondary"/>
    <tag k="name" v="Intscheder Dorfstraße"/>
    <tag k="ref" v="K 9"/>
    <tag k="surface" v="asphalt"/>
  </way>
  <way id="14858357" version="15" timestamp="2012-07-18T16:20:05Z" uid="57645" user="KartoGrapHiti" changeset="12288627">
    <nd ref="146766153"/>
    <nd ref="1485145355"/>
    <tag k="highway" v="tertiary"/>
    <tag k="name" v="Intscheder Dorfstraße"/>
    <tag k="ref" v="K 9"/>
    <tag k="surface" v="asphalt"/>
  </way>
  <way id="14858367" version="6" timestamp="2012-07-18T14:35:39Z" uid="722137" user="OSMF Redaction Account" changeset="12285248">
    <nd ref="1609056636"/>
    <nd ref="146766258"/>
    <nd ref="146766261"/>
    <nd ref="1409893771"/>
    <nd ref="1409893773"/>
    <nd ref="146766265"/>
    <tag k="highway" v="residential"/>
    <tag k="name" v="Bergende"/>
  </way>
  <way id="14858367" version="7" timestamp="2012-09-09T22:38:44Z" uid="57645" user="KartoGrapHiti" changeset="13050948">
    <nd ref="1609056636"/>
    <nd ref="146766258"/>
    <nd ref="146766261"/>
    <nd ref="1409893771"/>
    <nd ref="1409893773"/>
    <nd ref="1907665240"/>
    <nd ref="146766265"/>
    <tag k="highway" v="residential"/>
    <tag k="lcn" v="yes"/>
    <tag k="name" v="Bergende"/>
  </way>
  <way id="14858368" version="7" timestamp="2012-07-18T14:36:03Z" uid="722137" user="OSMF Redaction Account" changeset="12285248"/>
  <way id="14858371" version="8" timestamp="2012-07-18T14:35:41Z" uid="722137" user="OSMF Redaction Account" changeset="12285248">
    <nd ref="253651353"/>
    <nd ref="1609088132"/>
    <nd ref="1408722296"/>
    <tag k="highway" v="residential"/>
    <tag k="maxspeed" v="50"/>
    <tag k="name" v="Eschweg"/>
  </way>
  <way id="14858371" version="9" timestamp="2012-07-29T12:00:21Z" uid="57645" user="KartoGrapHiti" changeset="12534071">
    <nd ref="253651353"/>
    <nd ref="1609088132"/>
    <nd ref="1408722296"/>
    <tag k="highway" v="residential"/>
    <tag k="lcn" v="yes"/>
    <tag k="maxspeed" v="50"/>
    <tag k="name" v="Eschweg"/>
  </way>
  <way id="14858372" version="8" timestamp="2012-07-18T14:35:39Z" uid="722137" user="OSMF Redaction Account" changeset="12285248">
    <nd ref="146766315"/>
    <nd ref="1609075575"/>
    <nd ref="1408722291"/>
    <tag k="highway" v="residential"/>
    <tag k="maxspeed" v="30"/>
    <tag k="name" v="Hafenstraße"/>
  </way>
  <way id="14858391" version="4" timestamp="2012-07-18T14:35:38Z" uid="722137" user="OSMF Redaction Account" changeset="12285248">
    <nd ref="146766151"/>
    <nd ref="146766270"/>
    <nd ref="146766275"/>
    <nd ref="146766277"/>
    <tag k="highway" v="residential"/>
    <tag k="name" v="In der Aue"/>
  </way>
  <way id="14858391" version="5" timestamp="2012-09-09T22:39:03Z" uid="57645" user="KartoGrapHiti" changeset="13050948">
    <nd ref="146766151"/>
    <nd ref="146766270"/>
    <nd ref="146766275"/>
    <nd ref="146766277"/>
    <tag k="highway" v="residential"/>
    <tag k="lcn" v="yes"/>
    <tag k="name" v="In der Aue"/>
  </way>
  <way id="14858397" version="9" timestamp="2012-07-18T14:35:41Z" uid="722137" user="OSMF Redaction Account" changeset="12285248">
    <nd ref="146766160"/>
    <nd ref="146766157"/>
    <nd ref="1408728900"/>
    <nd ref="146766154"/>
    <tag k="highway" v="track"/>
    <tag k="smoothness" v="excellent"/>
    <tag k="surface" v="concrete"/>
    <tag k="tracktype" v="grade1"/>
  </way>
  <way id="14858397" version="10" timestamp="2012-07-29T12:00:46Z" uid="57645" user="KartoGrapHiti" changeset="12534071">
    <nd ref="146766160"/>
    <nd ref="146766157"/>
    <nd ref="1408728900"/>
    <nd ref="146766154"/>
    <tag k="highway" v="track"/>
    <tag k="lcn" v="yes"/>
    <tag k="smoothness" v="excellent"/>
    <tag k="surface" v="concrete"/>
    <tag k="tracktype" v="grade1"/>
  </way>
  <way id="14858400" version="9" timestamp="2012-07-18T14:35:39Z" uid="722137" user="OSMF Redaction Account" changeset="12285248">
    <nd ref="146766277"/>
    <nd ref="146766280"/>
    <nd ref="1036272801"/>
    <nd ref="146766285"/>
    <nd ref="324627177"/>
    <tag k="highway" v="residential"/>
    <tag k="lcn" v="yes"/>
    <tag k="name" v="In der Aue"/>
  </way>
  <way id="14858404" version="16" timestamp="2012-07-18T14:35:40Z" uid="722137" user="OSMF Redaction Account" changeset="12285248">
    <nd ref="146766289"/>
    <nd ref="1036272469"/>
    <nd ref="146766142"/>
    <tag k="highway" v="secondary"/>
    <tag k="lit" v="limited"/>
    <tag k="maxspeed" v="50"/>
    <tag k="name" v="Intscheder Dorfstraße"/>
    <tag k="ref" v="K 9"/>
    <tag k="surface" v="asphalt"/>
  </way>
  <way id="14858404" version="17" timestamp="2012-07-18T16:20:06Z" uid="57645" user="KartoGrapHiti" changeset="12288627">
    <nd ref="146766289"/>
    <nd ref="1036272469"/>
    <nd ref="146766142"/>
    <tag k="highway" v="tertiary"/>
    <tag k="lit" v="limited"/>
    <tag k="maxspeed" v="50"/>
    <tag k="name" v="Intscheder Dorfstraße"/>
    <tag k="ref" v="K 9"/>
    <tag k="surface" v="asphalt"/>
  </way>
  <way id="14858405" version="21" timestamp="2012-07-18T14:35:40Z" uid="722137" user="OSMF Redaction Account" changeset="12285248">
    <nd ref="146766392"/>
    <nd ref="600862951"/>
    <nd ref="146766289"/>
    <tag k="highway" v="secondary"/>
    <tag k="lit" v="limited"/>
    <tag k="maxspeed" v="50"/>
    <tag k="name" v="Intscheder Dorfstraße"/>
    <tag k="ref" v="K 9"/>
    <tag k="surface" v="asphalt"/>
  </way>
  <way id="14858405" version="22" timestamp="2012-07-18T16:20:06Z" uid="57645" user="KartoGrapHiti" changeset="12288627">
    <nd ref="146766392"/>
    <nd ref="600862951"/>
    <nd ref="146766289"/>
    <tag k="highway" v="tertiary"/>
    <tag k="lit" v="limited"/>
    <tag k="maxspeed" v="50"/>
    <tag k="name" v="Intscheder Dorfstraße"/>
    <tag k="ref" v="K 9"/>
    <tag k="surface" v="asphalt"/>
  </way>
</osm>
