<?xml version='1.0' encoding='UTF-8'?>
<osm version="0.6" generator="libosmium/2.20.0">
  <way id="14990032" version="5" timestamp="2010-05-09T09:24:05Z" uid="61114" user="Trav" changeset="4646167">
    <nd ref="148040889"/>
    <nd ref="148040891"/>
    <tag k="bridge" v="yes"/>
    <tag k="foot" v="yes"/>
    <tag k="handrail" v="yes"/>
    <tag k="highway" v="footway"/>
    <tag k="layer" v="2"/>
  </way>
  <way id="14990329" version="5" timestamp="2009-12-31T06:19:04Z" uid="61114" user="Trav" changeset="3496304">
    <nd ref="97521718"/>
    <nd ref="60087186"/>
    <nd ref="60087488"/>
    <tag k="highway" v="residential"/>
    <tag k="name" v="Jasmine Road"/>
    <tag k="source" v="nearmap"/>
  </way>
  <way id="14990329" version="6" timestamp="2010-04-17T02:16:47Z" uid="7617" user="Franc" changeset="4443965">
    <nd ref="97521718"/>
    <nd ref="60087186"/>
    <nd ref="60087488"/>
    <tag k="highway" v="residential"/>
    <tag k="name" v="Jasmine Road"/>
    <tag k="restriction" v="school_zone"/>
    <tag k="source" v="nearmap"/>
  </way>
  <way id="14990329" version="7" timestamp="2010-07-08T00:01:18Z" uid="74617" user="JohnSmith" changeset="5162525">
    <nd ref="97521718"/>
    <nd ref="60087186"/>
    <nd ref="60087488"/>
    <tag k="highway" v="residential"/>
    <tag k="maxspeed" v="50"/>
    <tag k="maxspeed:source" v="default residential speed limit in Australia"/>
    <tag k="name" v="Jasmine Road"/>
    <tag k="restriction" v="school_zone"/>
    <tag k="source" v="nearmap"/>
  </way>
  <way id="14990329" version="8" timestamp="2010-07-08T00:11:26Z" uid="74617" user="JohnSmith" changeset="5162525">
    <nd ref="97521718"/>
    <nd ref="60087186"/>
    <nd ref="60087488"/>
    <tag k="highway" v="residential"/>
    <tag k="maxspeed" v="50"/>
    <tag k="maxspeed:source" v="default residential speed limit in Australia"/>
    <tag k="name" v="Jasmine Road"/>
    <tag k="restriction" v="school_zone"/>
    <tag k="source" v="nearmap"/>
  </way>
  <way id="14990329" version="9" timestamp="2010-09-25T05:45:06Z" uid="7617" user="Franc" changeset="5868200">
    <nd ref="97521718"/>
    <nd ref="60087186"/>
    <tag k="highway" v="residential"/>
    <tag k="maxspeed" v="50"/>
    <tag k="maxspeed:source" v="default residential speed limit in Australia"/>
    <tag k="name" v="Jasmine Road"/>
    <tag k="restriction" v="school_zone"/>
    <tag k="source" v="nearmap"/>
  </way>
  <way id="14990329" version="10" timestamp="2012-01-15T13:00:25Z" uid="147510" user="woodpeck_fixbot" changeset="10396281">
    <nd ref="97521718"/>
    <nd ref="60087186"/>
    <tag k="highway" v="residential"/>
    <tag k="name" v="Jasmine Road"/>
    <tag k="restriction" v="school_zone"/>
    <tag k="source" v="nearmap"/>
  </way>
  <way id="14990672" version="1" timestamp="2007-12-02T12:58:37Z" uid="9581" user="Lobelt" changeset="44251">
    <nd ref="148046193"/>
    <nd ref="148046200"/>
    <nd ref="148046204"/>
    <nd ref="148046206"/>
    <nd ref="148046210"/>
    <nd ref="148046216"/>
    <nd ref="148046222"/>
    <nd ref="148046227"/>
    <nd ref="148046232"/>
    <nd ref="148046246"/>
    <nd ref="148046193"/>
    <tag k="amenity" v="parking"/>
    <tag k="created_by" v="JOSM"/>
  </way>
  <way id="14990672" version="2" timestamp="2011-05-01T15:07:42Z" uid="9581" user="Lobelt" changeset="8022138">
    <nd ref="148046193"/>
    <nd ref="148046200"/>
    <nd ref="148046204"/>
    <nd ref="148046206"/>
    <nd ref="148046210"/>
    <nd ref="148046216"/>
    <nd ref="148046222"/>
    <nd ref="148046227"/>
    <nd ref="148046232"/>
    <nd ref="148046246"/>
    <nd ref="148046193"/>
    <tag k="amenity" v="parking"/>
  </way>
  <way id="14990672" version="3" timestamp="2012-01-19T19:36:40Z" uid="118134" user="scai" changeset="10440397">
    <nd ref="148046193"/>
    <nd ref="148046200"/>
    <nd ref="148046204"/>
    <nd ref="148046206"/>
    <nd ref="148046210"/>
    <nd ref="148046216"/>
    <nd ref="148046222"/>
    <nd ref="148046227"/>
    <nd ref="148046232"/>
    <nd ref="148046246"/>
    <nd ref="148046193"/>
    <tag k="amenity" v="parking"/>
    <tag k="fee" v="yes"/>
    <tag k="parking" v="surface"/>
  </way>
  <way id="14990672" version="4" timestamp="2012-02-15T22:58:44Z" uid="125832" user="tijuca" changeset="10697495"/>
  <way id="14990673" version="1" timestamp="2007-12-02T12:58:38Z" uid="9581" user="Lobelt" changeset="44251">
    <nd ref="148046238"/>
    <nd ref="148046246"/>
    <tag k="created_by" v="JOSM"/>
    <tag k="highway" v="service"/>
  </way>
  <way id="14990673" version="2" timestamp="2011-05-01T15:06:29Z" uid="9581" user="Lobelt" changeset="8022138">
    <nd ref="148046238"/>
    <nd ref="148046246"/>
    <tag k="highway" v="service"/>
  </way>
  <way id="14990673" version="3" timestamp="2011-11-06T17:30:31Z" uid="82694" user="Zottel100" changeset="9757468">
    <nd ref="148046238"/>
    <nd ref="148046246"/>
    <tag k="highway" v="service"/>
    <tag k="maxheight" v="2,5"/>
  </way>
  <way id="14990673" version="4" timestamp="2012-01-01T11:17:20Z" uid="78656" user="Walter Schlögl" changeset="10260423">
    <nd ref="148046238"/>
    <nd ref="148046246"/>
    <tag k="highway" v="service"/>
    <tag k="maxheight" v="2.5"/>
  </way>
  <way id="14990673" version="5" timestamp="2012-01-19T19:36:34Z" uid="118134" user="scai" changeset="10440397">
    <nd ref="1597985009"/>
    <nd ref="148046246"/>
    <tag k="highway" v="service"/>
    <tag k="maxheight" v="2.5"/>
  </way>
  <way id="14990673" version="6" timestamp="2012-02-15T22:58:43Z" uid="125832" user="tijuca" changeset="10697495"/>
  <way id="14990675" version="1" timestamp="2007-12-02T12:58:38Z" uid="9581" user="Lobelt" changeset="44251">
    <nd ref="148046204"/>
    <nd ref="148046253"/>
    <tag k="created_by" v="JOSM"/>
    <tag k="highway" v="steps"/>
  </way>
  <way id="14990675" version="2" timestamp="2011-05-01T15:08:03Z" uid="9581" user="Lobelt" changeset="8022138">
    <nd ref="148046204"/>
    <nd ref="148046253"/>
    <tag k="highway" v="steps"/>
  </way>
  <way id="14990675" version="3" timestamp="2012-02-15T22:58:39Z" uid="125832" user="tijuca" changeset="10697495"/>
  <way id="14990676" version="1" timestamp="2007-12-02T12:58:38Z" uid="9581" user="Lobelt" changeset="44251">
    <nd ref="148046256"/>
    <nd ref="148046262"/>
    <nd ref="148046264"/>
    <nd ref="148046266"/>
    <nd ref="148046269"/>
    <nd ref="148046273"/>
    <nd ref="148046277"/>
    <nd ref="148046280"/>
    <nd ref="148046285"/>
    <nd ref="31993038"/>
    <nd ref="148046256"/>
    <tag k="building" v="yes"/>
    <tag k="created_by" v="JOSM"/>
    <tag k="historic" v="castle"/>
  </way>
  <way id="14990676" version="2" timestamp="2008-07-31T07:27:21Z" uid="9581" user="Lobelt" changeset="633201">
    <nd ref="148046256"/>
    <nd ref="148046262"/>
    <nd ref="148046264"/>
    <nd ref="148046266"/>
    <nd ref="148046269"/>
    <nd ref="148046273"/>
    <nd ref="148046277"/>
    <nd ref="148046280"/>
    <nd ref="148046285"/>
    <nd ref="282407816"/>
    <nd ref="148046256"/>
    <tag k="created_by" v="JOSM"/>
    <tag k="historic" v="castle"/>
  </way>
  <way id="14990676" version="3" timestamp="2011-05-01T15:06:58Z" uid="9581" user="Lobelt" changeset="8022138">
    <nd ref="148046256"/>
    <nd ref="148046262"/>
    <nd ref="148046264"/>
    <nd ref="148046266"/>
    <nd ref="148046269"/>
    <nd ref="148046273"/>
    <nd ref="148046277"/>
    <nd ref="148046280"/>
    <nd ref="148046285"/>
    <nd ref="282407816"/>
    <nd ref="148046256"/>
    <tag k="historic" v="castle"/>
  </way>
  <way id="14990676" version="4" timestamp="2012-02-15T22:58:44Z" uid="125832" user="tijuca" changeset="10697495"/>
  <way id="14990677" version="1" timestamp="2007-12-02T12:58:38Z" uid="9581" user="Lobelt" changeset="44251">
    <nd ref="148046289"/>
    <nd ref="148046293"/>
    <nd ref="148046296"/>
    <nd ref="148046300"/>
    <nd ref="148046289"/>
    <tag k="building" v="yes"/>
    <tag k="created_by" v="JOSM"/>
  </way>
  <way id="14990677" version="2" timestamp="2010-08-22T20:24:29Z" uid="9581" user="Lobelt" changeset="5565397">
    <nd ref="148046289"/>
    <nd ref="148046293"/>
    <nd ref="148046296"/>
    <nd ref="148046300"/>
    <nd ref="148046289"/>
    <tag k="building" v="yes"/>
  </way>
  <way id="14990678" version="1" timestamp="2007-12-02T12:58:38Z" uid="9581" user="Lobelt" changeset="44251">
    <nd ref="148046253"/>
    <nd ref="31993014"/>
    <tag k="created_by" v="JOSM"/>
    <tag k="highway" v="footway"/>
  </way>
  <way id="14990678" version="2" timestamp="2011-05-01T15:06:38Z" uid="9581" user="Lobelt" changeset="8022138">
    <nd ref="148046253"/>
    <nd ref="31993014"/>
    <tag k="highway" v="footway"/>
  </way>
  <way id="14990678" version="3" timestamp="2012-01-19T19:36:33Z" uid="118134" user="scai" changeset="10440397">
    <nd ref="148046253"/>
    <nd ref="1597985006"/>
    <tag k="highway" v="footway"/>
  </way>
  <way id="14990678" version="4" timestamp="2012-02-15T22:58:41Z" uid="125832" user="tijuca" changeset="10697495"/>
  <way id="14990957" version="10" timestamp="2009-04-16T21:24:37Z" uid="30632" user="antblant" changeset="598077">
    <nd ref="148048767"/>
    <nd ref="142460281"/>
    <nd ref="330838571"/>
    <tag k="bridge" v="yes"/>
    <tag k="created_by" v="Potlatch 0.10f"/>
    <tag k="highway" v="primary"/>
    <tag k="lanes" v="3"/>
    <tag k="layer" v="1"/>
    <tag k="name" v="Wiadukt Franowo"/>
    <tag k="oneway" v="yes"/>
    <tag k="ref" v="11"/>
  </way>
  <way id="14990957" version="11" timestamp="2010-03-29T01:28:33Z" uid="88909" user="miko101" changeset="4263407">
    <nd ref="148048767"/>
    <nd ref="142460281"/>
    <nd ref="330838571"/>
    <tag k="bridge" v="yes"/>
    <tag k="highway" v="trunk"/>
    <tag k="lanes" v="3"/>
    <tag k="layer" v="1"/>
    <tag k="name" v="Wiadukt Franowo"/>
    <tag k="oneway" v="yes"/>
    <tag k="ref" v="11"/>
    <tag k="source" v="WikiProject Poland/Klasyfikacja dróg"/>
  </way>
  <way id="14990957" version="12" timestamp="2011-01-06T20:13:26Z" uid="318486" user="tomaszko90" changeset="6886513">
    <nd ref="148048767"/>
    <nd ref="142460281"/>
    <nd ref="330838571"/>
    <tag k="bridge" v="yes"/>
    <tag k="highway" v="primary"/>
    <tag k="lanes" v="3"/>
    <tag k="layer" v="1"/>
    <tag k="name" v="Wiadukt Franowo"/>
    <tag k="oneway" v="yes"/>
    <tag k="ref" v="11"/>
    <tag k="source" v="WikiProject Poland/Klasyfikacja dróg"/>
  </way>
  <way id="14990957" version="13" timestamp="2011-06-17T11:19:46Z" uid="88909" user="miko101" changeset="8463732">
    <nd ref="148048767"/>
    <nd ref="142460281"/>
    <nd ref="330838571"/>
    <tag k="bridge" v="yes"/>
    <tag k="highway" v="trunk"/>
    <tag k="lanes" v="3"/>
    <tag k="layer" v="1"/>
    <tag k="name" v="Wiadukt Franowo"/>
    <tag k="note" v="Droga ma same węzły bezkolizyjne!"/>
    <tag k="oneway" v="yes"/>
    <tag k="ref" v="11"/>
    <tag k="source" v="WikiProject Poland/Klasyfikacja dróg"/>
  </way>
  <way id="14990957" version="14" timestamp="2011-06-24T13:51:02Z" uid="338064" user="bombka190" changeset="8533046">
    <nd ref="148048767"/>
    <nd ref="142460281"/>
    <nd ref="330838571"/>
    <tag k="bridge" v="yes"/>
    <tag k="highway" v="trunk"/>
    <tag k="lanes" v="3"/>
    <tag k="layer" v="1"/>
    <tag k="name" v="Wiadukt Franowo"/>
    <tag k="note" v="Droga ma same węzły bezkolizyjne!"/>
    <tag k="oneway" v="yes"/>
    <tag k="ref" v="S11"/>
    <tag k="source" v="WikiProject Poland/Klasyfikacja dróg"/>
  </way>
  <way id="14990957" version="15" timestamp="2012-01-26T20:22:10Z" uid="88909" user="miko101" changeset="10506817">
    <nd ref="148048767"/>
    <nd ref="142460281"/>
    <nd ref="330838571"/>
    <tag k="bridge" v="yes"/>
    <tag k="highway" v="trunk"/>
    <tag k="lanes" v="3"/>
    <tag k="layer" v="1"/>
    <tag k="name" v="Wiadukt Franowo"/>
    <tag k="note" v="Droga ma same węzły bezkolizyjne!"/>
    <tag k="oneway" v="yes"/>
    <tag k="ref" v="11"/>
    <tag k="source" v="WikiProject Poland/Klasyfikacja dróg"/>
  </way>
  <way id="14990957" version="16" timestamp="2012-03-21T17:50:28Z" uid="88909" user="miko101" changeset="11054761">
    <nd ref="148048767"/>
    <nd ref="142460281"/>
    <nd ref="330838571"/>
    <tag k="bridge" v="yes"/>
    <tag k="highway" v="trunk"/>
    <tag k="lanes" v="3"/>
    <tag k="layer" v="1"/>
    <tag k="name" v="Wiadukt Franowo"/>
    <tag k="note" v="Droga ma same węzły bezkolizyjne!"/>
    <tag k="old_name" v="wiadukt franowski"/>
    <tag k="oneway" v="yes"/>
    <tag k="ref" v="11"/>
    <tag k="source" v="WikiProject Poland/Klasyfikacja dróg"/>
  </way>
  <way id="14990984" version="15" timestamp="2009-04-16T21:22:37Z" uid="30632" user="antblant" changeset="598077">
    <nd ref="330838761"/>
    <nd ref="330838762"/>
    <nd ref="330839191"/>
    <nd ref="330837860"/>
    <nd ref="142460283"/>
    <nd ref="326008878"/>
    <nd ref="326011482"/>
    <nd ref="330844355"/>
    <nd ref="142460285"/>
    <tag k="created_by" v="Potlatch 0.10f"/>
    <tag k="highway" v="primary"/>
    <tag k="name" v="Bolesława Krzywoustego"/>
    <tag k="oneway" v="yes"/>
    <tag k="ref" v="11"/>
  </way>
  <way id="14990984" version="16" timestamp="2009-09-27T14:08:11Z" uid="19417" user="xjr" changeset="2653190">
    <nd ref="330838761"/>
    <nd ref="330838762"/>
    <nd ref="330839191"/>
    <nd ref="330837860"/>
    <tag k="highway" v="primary"/>
    <tag k="name" v="Bolesława Krzywoustego"/>
    <tag k="oneway" v="yes"/>
    <tag k="ref" v="11"/>
  </way>
  <way id="14990984" version="17" timestamp="2010-03-29T01:34:12Z" uid="88909" user="miko101" changeset="4263416">
    <nd ref="330838761"/>
    <nd ref="330838762"/>
    <nd ref="330839191"/>
    <nd ref="330837860"/>
    <tag k="highway" v="trunk"/>
    <tag k="name" v="Bolesława Krzywoustego"/>
    <tag k="oneway" v="yes"/>
    <tag k="ref" v="11"/>
    <tag k="source" v="WikiProject Poland/Klasyfikacja dróg"/>
  </way>
  <way id="14990984" version="18" timestamp="2011-01-06T20:13:14Z" uid="318486" user="tomaszko90" changeset="6886513">
    <nd ref="330838761"/>
    <nd ref="330838762"/>
    <nd ref="330839191"/>
    <nd ref="330837860"/>
    <tag k="highway" v="primary"/>
    <tag k="name" v="Bolesława Krzywoustego"/>
    <tag k="oneway" v="yes"/>
    <tag k="ref" v="11"/>
    <tag k="source" v="WikiProject Poland/Klasyfikacja dróg"/>
  </way>
  <way id="14990984" version="19" timestamp="2011-02-18T11:12:20Z" uid="309867" user="Damian_Lisu" changeset="7321402">
    <nd ref="330838571"/>
    <nd ref="330838762"/>
    <nd ref="330839191"/>
    <nd ref="330837860"/>
    <tag k="highway" v="primary"/>
    <tag k="name" v="Bolesława Krzywoustego"/>
    <tag k="oneway" v="yes"/>
    <tag k="ref" v="11"/>
    <tag k="source" v="WikiProject Poland/Klasyfikacja dróg"/>
  </way>
  <way id="14990984" version="20" timestamp="2011-06-17T11:19:45Z" uid="88909" user="miko101" changeset="8463732">
    <nd ref="330838571"/>
    <nd ref="330838762"/>
    <nd ref="330839191"/>
    <nd ref="330837860"/>
    <tag k="highway" v="trunk_link"/>
    <tag k="name" v="Bolesława Krzywoustego"/>
    <tag k="oneway" v="yes"/>
    <tag k="ref" v="11"/>
    <tag k="source" v="WikiProject Poland/Klasyfikacja dróg"/>
  </way>
  <way id="14990984" version="21" timestamp="2012-01-26T20:22:10Z" uid="88909" user="miko101" changeset="10506817">
    <nd ref="330838571"/>
    <nd ref="1606864837"/>
    <nd ref="1606865082"/>
    <nd ref="330838762"/>
    <nd ref="330839191"/>
    <nd ref="330837860"/>
    <tag k="highway" v="trunk_link"/>
    <tag k="name" v="Bolesława Krzywoustego"/>
    <tag k="oneway" v="yes"/>
    <tag k="ref" v="11"/>
    <tag k="source" v="WikiProject Poland/Klasyfikacja dróg"/>
  </way>
  <way id="14990984" version="22" timestamp="2012-01-27T03:56:00Z" uid="88909" user="miko101" changeset="10509163">
    <nd ref="330838571"/>
    <nd ref="1606864837"/>
    <nd ref="1606865082"/>
    <nd ref="330838762"/>
    <nd ref="330839191"/>
    <nd ref="330837860"/>
    <tag k="highway" v="trunk"/>
    <tag k="name" v="Bolesława Krzywoustego"/>
    <tag k="oneway" v="yes"/>
    <tag k="ref" v="11"/>
    <tag k="source" v="WikiProject Poland/Klasyfikacja dróg"/>
  </way>
  <way id="14990032" version="6" timestamp="2012-07-19T20:07:51Z" uid="722137" user="OSMF Redaction Account" changeset="12345715">
    <nd ref="148040889"/>
    <nd ref="148040891"/>
    <tag k="bridge" v="yes"/>
    <tag k="foot" v="yes"/>
    <tag k="highway" v="footway"/>
    <tag k="layer" v="2"/>
  </way>
  <way id="14990329" version="11" timestamp="2012-07-19T20:07:56Z" uid="722137" user="OSMF Redaction Account" changeset="12345758">
    <nd ref="97521718"/>
    <nd ref="60087186"/>
    <tag k="highway" v="residential"/>
    <tag k="name" v="Jasmine Road"/>
    <tag k="source" v="yahoo_imagery"/>
  </way>
  <way id="14990329" version="12" timestamp="2012-07-22T19:51:27Z" uid="92387" user="SimonPoole" changeset="12439039">
    <nd ref="97521718"/>
    <nd ref="60087186"/>
    <nd ref="60087488"/>
    <tag k="highway" v="residential"/>
    <tag k="name" v="Jasmine Road"/>
    <tag k="source" v="yahoo_imagery"/>
  </way>
  <way id="14990677" version="3" timestamp="2012-07-18T15:29:23Z" uid="722137" user="OSMF Redaction Account" changeset="12286972"/>
  <way id="14990957" version="17" timestamp="2012-05-01T22:17:38Z" uid="88909" user="miko101" changeset="11474969">
    <nd ref="148048767"/>
    <nd ref="142460281"/>
    <nd ref="330838571"/>
    <tag k="bridge" v="yes"/>
    <tag k="highway" v="trunk"/>
    <tag k="lanes" v="3"/>
    <tag k="layer" v="1"/>
    <tag k="lit" v="yes"/>
    <tag k="name" v="Wiadukt Franowo"/>
    <tag k="note" v="Droga ma same węzły bezkolizyjne!"/>
    <tag k="old_name" v="wiadukt franowski"/>
    <tag k="oneway" v="yes"/>
    <tag k="ref" v="11"/>
    <tag k="source" v="WikiProject Poland/Klasyfikacja dróg"/>
  </way>
  <way id="14990984" version="23" timestamp="2012-05-01T22:17:39Z" uid="88909" user="miko101" changeset="11474969">
    <nd ref="330838571"/>
    <nd ref="1606864837"/>
    <nd ref="1606865082"/>
    <nd ref="330838762"/>
    <nd ref="330839191"/>
    <nd ref="330837860"/>
    <tag k="highway" v="trunk"/>
    <tag k="lit" v="yes"/>
    <tag k="name" v="Bolesława Krzywoustego"/>
    <tag k="oneway" v="yes"/>
    <tag k="ref" v="11"/>
    <tag k="source" v="WikiProject Poland/Klasyfikacja dróg"/>
  </way>
  <way id="14990984" version="24" timestamp="2012-08-24T16:06:52Z" uid="88909" user="miko101" changeset="12846594">
    <nd ref="330838571"/>
    <nd ref="1606864837"/>
    <nd ref="1606865082"/>
    <nd ref="330838762"/>
    <nd ref="330839191"/>
    <nd ref="330837860"/>
    <tag k="highway" v="trunk"/>
    <tag k="lanes" v="3"/>
    <tag k="lit" v="yes"/>
    <tag k="name" v="Bolesława Krzywoustego"/>
    <tag k="oneway" v="yes"/>
    <tag k="ref" v="11"/>
    <tag k="source" v="WikiProject Poland/Klasyfikacja dróg"/>
  </way>
</osm>
