<?xml version='1.0' encoding='UTF-8'?>
<osm version="0.6" generator="libosmium/2.20.0">
  <way id="14991026" version="6" timestamp="2009-04-16T21:24:47Z" uid="30632" user="antblant" changeset="598077">
    <nd ref="148049214"/>
    <nd ref="142458775"/>
    <nd ref="148049465"/>
    <tag k="bridge" v="yes"/>
    <tag k="created_by" v="Potlatch 0.10f"/>
    <tag k="highway" v="primary"/>
    <tag k="lanes" v="3"/>
    <tag k="layer" v="1"/>
    <tag k="name" v="Wiadukt Franowo"/>
    <tag k="oneway" v="yes"/>
    <tag k="ref" v="11"/>
  </way>
  <way id="14991026" version="7" timestamp="2010-03-29T01:33:49Z" uid="88909" user="miko101" changeset="4263416">
    <nd ref="148049214"/>
    <nd ref="142458775"/>
    <nd ref="148049465"/>
    <tag k="bridge" v="yes"/>
    <tag k="highway" v="trunk"/>
    <tag k="lanes" v="3"/>
    <tag k="layer" v="1"/>
    <tag k="name" v="Wiadukt Franowo"/>
    <tag k="oneway" v="yes"/>
    <tag k="ref" v="11"/>
    <tag k="source" v="WikiProject Poland/Klasyfikacja dróg"/>
  </way>
  <way id="14991026" version="8" timestamp="2011-01-06T20:13:25Z" uid="318486" user="tomaszko90" changeset="6886513">
    <nd ref="148049214"/>
    <nd ref="142458775"/>
    <nd ref="148049465"/>
    <tag k="bridge" v="yes"/>
    <tag k="highway" v="primary"/>
    <tag k="lanes" v="3"/>
    <tag k="layer" v="1"/>
    <tag k="name" v="Wiadukt Franowo"/>
    <tag k="oneway" v="yes"/>
    <tag k="ref" v="11"/>
    <tag k="source" v="WikiProject Poland/Klasyfikacja dróg"/>
  </way>
  <way id="14991026" version="9" timestamp="2011-06-17T11:19:46Z" uid="88909" user="miko101" changeset="8463732">
    <nd ref="148049214"/>
    <nd ref="142458775"/>
    <nd ref="148049465"/>
    <tag k="bridge" v="yes"/>
    <tag k="highway" v="trunk"/>
    <tag k="lanes" v="3"/>
    <tag k="layer" v="1"/>
    <tag k="name" v="Wiadukt Franowo"/>
    <tag k="note" v="Droga ma same węzły bezkolizyjne!"/>
    <tag k="oneway" v="yes"/>
    <tag k="ref" v="11"/>
    <tag k="source" v="WikiProject Poland/Klasyfikacja dróg"/>
  </way>
  <way id="14991026" version="10" timestamp="2011-06-24T13:51:02Z" uid="338064" user="bombka190" changeset="8533046">
    <nd ref="148049214"/>
    <nd ref="142458775"/>
    <nd ref="148049465"/>
    <tag k="bridge" v="yes"/>
    <tag k="highway" v="trunk"/>
    <tag k="lanes" v="3"/>
    <tag k="layer" v="1"/>
    <tag k="name" v="Wiadukt Franowo"/>
    <tag k="note" v="Droga ma same węzły bezkolizyjne!"/>
    <tag k="oneway" v="yes"/>
    <tag k="ref" v="S11"/>
    <tag k="source" v="WikiProject Poland/Klasyfikacja dróg"/>
  </way>
  <way id="14991026" version="11" timestamp="2012-01-26T20:22:11Z" uid="88909" user="miko101" changeset="10506817">
    <nd ref="148049214"/>
    <nd ref="142458775"/>
    <nd ref="148049465"/>
    <tag k="bridge" v="yes"/>
    <tag k="highway" v="trunk"/>
    <tag k="lanes" v="3"/>
    <tag k="layer" v="1"/>
    <tag k="name" v="Wiadukt Franowo"/>
    <tag k="note" v="Droga ma same węzły bezkolizyjne!"/>
    <tag k="oneway" v="yes"/>
    <tag k="ref" v="11"/>
    <tag k="source" v="WikiProject Poland/Klasyfikacja dróg"/>
  </way>
  <way id="14991026" version="12" timestamp="2012-03-21T17:50:27Z" uid="88909" user="miko101" changeset="11054761">
    <nd ref="148049214"/>
    <nd ref="142458775"/>
    <nd ref="148049465"/>
    <tag k="bridge" v="yes"/>
    <tag k="highway" v="trunk"/>
    <tag k="lanes" v="3"/>
    <tag k="layer" v="1"/>
    <tag k="name" v="Wiadukt Franowo"/>
    <tag k="note" v="Droga ma same węzły bezkolizyjne!"/>
    <tag k="old_name" v="wiadukt franowski"/>
    <tag k="oneway" v="yes"/>
    <tag k="ref" v="11"/>
    <tag k="source" v="WikiProject Poland/Klasyfikacja dróg"/>
  </way>
  <way id="14991053" version="7" timestamp="2009-04-16T21:25:17Z" uid="30632" user="antblant" changeset="598077">
    <nd ref="148049465"/>
    <nd ref="146956288"/>
    <nd ref="146956289"/>
    <nd ref="147019425"/>
    <nd ref="142458776"/>
    <nd ref="147023671"/>
    <nd ref="147023672"/>
    <tag k="created_by" v="Potlatch 0.10f"/>
    <tag k="highway" v="primary"/>
    <tag k="name" v="Bolesława Krzywoustego"/>
    <tag k="oneway" v="yes"/>
    <tag k="ref" v="11"/>
  </way>
  <way id="14991053" version="8" timestamp="2009-06-24T11:12:53Z" uid="88909" user="miko101" changeset="1610301">
    <nd ref="148049465"/>
    <nd ref="146956288"/>
    <nd ref="146956289"/>
    <nd ref="147019425"/>
    <nd ref="428760831"/>
    <nd ref="142458776"/>
    <nd ref="147023671"/>
    <nd ref="147023672"/>
    <tag k="created_by" v="Potlatch 0.10f"/>
    <tag k="highway" v="primary"/>
    <tag k="name" v="Bolesława Krzywoustego"/>
    <tag k="oneway" v="yes"/>
    <tag k="ref" v="11"/>
  </way>
  <way id="14991053" version="9" timestamp="2009-07-02T13:51:12Z" uid="88909" user="miko101" changeset="1710405">
    <nd ref="148049465"/>
    <nd ref="146956288"/>
    <nd ref="146956289"/>
    <nd ref="147019425"/>
    <nd ref="428760831"/>
    <nd ref="142458776"/>
    <nd ref="147023671"/>
    <nd ref="147023672"/>
    <tag k="created_by" v="Potlatch 0.10f"/>
    <tag k="highway" v="trunk"/>
    <tag k="name" v="Bolesława Krzywoustego"/>
    <tag k="oneway" v="yes"/>
    <tag k="ref" v="11"/>
  </way>
  <way id="14991053" version="10" timestamp="2010-04-11T16:29:42Z" uid="19417" user="xjr" changeset="4395743">
    <nd ref="146956288"/>
    <nd ref="146956289"/>
    <nd ref="147019425"/>
    <nd ref="428760831"/>
    <nd ref="142458776"/>
    <nd ref="147023671"/>
    <nd ref="147023672"/>
    <tag k="highway" v="trunk"/>
    <tag k="name" v="Bolesława Krzywoustego"/>
    <tag k="oneway" v="yes"/>
    <tag k="ref" v="11"/>
  </way>
  <way id="14991053" version="11" timestamp="2011-01-06T20:13:22Z" uid="318486" user="tomaszko90" changeset="6886513">
    <nd ref="146956288"/>
    <nd ref="146956289"/>
    <nd ref="147019425"/>
    <nd ref="428760831"/>
    <nd ref="142458776"/>
    <nd ref="147023671"/>
    <nd ref="147023672"/>
    <tag k="highway" v="primary"/>
    <tag k="name" v="Bolesława Krzywoustego"/>
    <tag k="oneway" v="yes"/>
    <tag k="ref" v="11"/>
  </way>
  <way id="14991053" version="12" timestamp="2011-06-24T13:51:03Z" uid="338064" user="bombka190" changeset="8533046">
    <nd ref="146956288"/>
    <nd ref="146956289"/>
    <nd ref="147019425"/>
    <nd ref="428760831"/>
    <nd ref="142458776"/>
    <nd ref="147023671"/>
    <nd ref="147023672"/>
    <tag k="highway" v="trunk"/>
    <tag k="name" v="Bolesława Krzywoustego"/>
    <tag k="oneway" v="yes"/>
    <tag k="ref" v="S11"/>
  </way>
  <way id="14991053" version="13" timestamp="2012-01-26T20:22:12Z" uid="88909" user="miko101" changeset="10506817">
    <nd ref="146956288"/>
    <nd ref="1606864853"/>
    <nd ref="146956289"/>
    <nd ref="1606865140"/>
    <nd ref="147019425"/>
    <nd ref="1606865112"/>
    <nd ref="1606865136"/>
    <nd ref="428760831"/>
    <nd ref="142458776"/>
    <nd ref="147023671"/>
    <nd ref="147023672"/>
    <tag k="highway" v="trunk"/>
    <tag k="name" v="Bolesława Krzywoustego"/>
    <tag k="oneway" v="yes"/>
    <tag k="ref" v="11"/>
  </way>
  <way id="14991379" version="8" timestamp="2010-03-30T22:40:18Z" uid="163746" user="anti_bot-nonsense" changeset="4281484">
    <nd ref="148052223"/>
    <nd ref="216370454"/>
    <nd ref="325261314"/>
    <nd ref="148052222"/>
    <nd ref="148052220"/>
    <nd ref="146967319"/>
    <tag k="highway" v="motorway_link"/>
    <tag k="oneway" v="yes"/>
  </way>
  <way id="14991379" version="9" timestamp="2012-01-26T19:33:49Z" uid="88909" user="miko101" changeset="10506057">
    <nd ref="148052223"/>
    <nd ref="216370454"/>
    <nd ref="1606825728"/>
    <nd ref="325261314"/>
    <nd ref="1606825803"/>
    <nd ref="1606825780"/>
    <nd ref="148052222"/>
    <nd ref="148052220"/>
    <nd ref="146967319"/>
    <tag k="highway" v="motorway_link"/>
    <tag k="oneway" v="yes"/>
  </way>
  <way id="14991670" version="5" timestamp="2010-03-30T22:39:19Z" uid="163746" user="anti_bot-nonsense" changeset="4281484">
    <nd ref="147026000"/>
    <nd ref="269600639"/>
    <nd ref="148054525"/>
    <nd ref="148054526"/>
    <nd ref="148054528"/>
    <nd ref="148054529"/>
    <nd ref="148052222"/>
    <tag k="highway" v="motorway_link"/>
    <tag k="oneway" v="yes"/>
  </way>
  <way id="14991670" version="6" timestamp="2012-01-26T19:33:50Z" uid="88909" user="miko101" changeset="10506057">
    <nd ref="1606825787"/>
    <nd ref="1606825676"/>
    <nd ref="1606825734"/>
    <nd ref="1606825739"/>
    <nd ref="1606825807"/>
    <nd ref="1606825773"/>
    <nd ref="1606825743"/>
    <nd ref="1606825770"/>
    <nd ref="1606825693"/>
    <nd ref="1606825694"/>
    <nd ref="1606825704"/>
    <nd ref="1606825788"/>
    <nd ref="1606825701"/>
    <nd ref="1606825719"/>
    <nd ref="1606825822"/>
    <nd ref="1606825707"/>
    <nd ref="1606825673"/>
    <nd ref="1606825659"/>
    <nd ref="1606825818"/>
    <nd ref="1606825689"/>
    <nd ref="1606825725"/>
    <nd ref="1606825662"/>
    <nd ref="1606825727"/>
    <nd ref="1606825735"/>
    <nd ref="1606825780"/>
    <tag k="highway" v="motorway_link"/>
    <tag k="oneway" v="yes"/>
  </way>
  <way id="14991984" version="4" timestamp="2010-03-31T21:30:30Z" uid="163746" user="anti_bot-nonsense" changeset="4289355">
    <nd ref="148056450"/>
    <nd ref="148056930"/>
    <nd ref="148056931"/>
    <nd ref="148056932"/>
    <nd ref="148056933"/>
    <nd ref="29943283"/>
    <tag k="highway" v="motorway_link"/>
    <tag k="oneway" v="yes"/>
  </way>
  <way id="14991984" version="5" timestamp="2011-03-05T23:36:38Z" uid="88909" user="miko101" changeset="7468964">
    <nd ref="148056450"/>
    <nd ref="148056930"/>
    <nd ref="148056931"/>
    <nd ref="148056932"/>
    <nd ref="148056933"/>
    <nd ref="29943283"/>
    <tag k="highway" v="motorway_link"/>
    <tag k="maxspeed" v="60"/>
    <tag k="oneway" v="yes"/>
  </way>
  <way id="14991984" version="6" timestamp="2011-03-08T09:43:46Z" uid="338611" user="marek kleciak" changeset="7492423">
    <nd ref="148056450"/>
    <nd ref="1192430558"/>
    <nd ref="1192430604"/>
    <nd ref="1192430526"/>
    <nd ref="148056930"/>
    <nd ref="1192430592"/>
    <nd ref="148056931"/>
    <nd ref="1192430618"/>
    <nd ref="148056932"/>
    <nd ref="148056933"/>
    <nd ref="1192430588"/>
    <nd ref="1192430586"/>
    <nd ref="29943283"/>
    <tag k="highway" v="motorway_link"/>
    <tag k="maxspeed" v="60"/>
    <tag k="oneway" v="yes"/>
  </way>
  <way id="14991026" version="13" timestamp="2012-05-01T22:17:37Z" uid="88909" user="miko101" changeset="11474969">
    <nd ref="148049214"/>
    <nd ref="142458775"/>
    <nd ref="148049465"/>
    <tag k="bridge" v="yes"/>
    <tag k="highway" v="trunk"/>
    <tag k="lanes" v="3"/>
    <tag k="layer" v="1"/>
    <tag k="lit" v="yes"/>
    <tag k="name" v="Wiadukt Franowo"/>
    <tag k="note" v="Droga ma same węzły bezkolizyjne!"/>
    <tag k="old_name" v="wiadukt franowski"/>
    <tag k="oneway" v="yes"/>
    <tag k="ref" v="11"/>
    <tag k="source" v="WikiProject Poland/Klasyfikacja dróg"/>
  </way>
  <way id="14991053" version="14" timestamp="2012-05-01T22:17:37Z" uid="88909" user="miko101" changeset="11474969">
    <nd ref="146956288"/>
    <nd ref="1606864853"/>
    <nd ref="146956289"/>
    <nd ref="1606865140"/>
    <nd ref="147019425"/>
    <nd ref="1606865112"/>
    <nd ref="1606865136"/>
    <nd ref="428760831"/>
    <nd ref="142458776"/>
    <nd ref="147023671"/>
    <nd ref="147023672"/>
    <tag k="highway" v="trunk"/>
    <tag k="lit" v="yes"/>
    <tag k="name" v="Bolesława Krzywoustego"/>
    <tag k="oneway" v="yes"/>
    <tag k="ref" v="11"/>
  </way>
  <way id="14991053" version="15" timestamp="2012-08-24T16:07:20Z" uid="88909" user="miko101" changeset="12846594">
    <nd ref="146956288"/>
    <nd ref="1606864853"/>
    <nd ref="146956289"/>
    <nd ref="1606865140"/>
    <nd ref="147019425"/>
    <nd ref="1606865112"/>
    <nd ref="1606865136"/>
    <nd ref="428760831"/>
    <nd ref="142458776"/>
    <nd ref="147023671"/>
    <nd ref="147023672"/>
    <tag k="highway" v="trunk"/>
    <tag k="lanes" v="2"/>
    <tag k="lit" v="yes"/>
    <tag k="name" v="Bolesława Krzywoustego"/>
    <tag k="oneway" v="yes"/>
    <tag k="ref" v="11"/>
  </way>
  <way id="14991379" version="10" timestamp="2012-04-27T14:30:57Z" uid="88909" user="miko101" changeset="11433170">
    <nd ref="148052223"/>
    <nd ref="216370454"/>
    <nd ref="1606825728"/>
    <nd ref="325261314"/>
    <nd ref="1606825803"/>
    <nd ref="1606825780"/>
    <nd ref="148052222"/>
    <nd ref="148052220"/>
    <nd ref="146967319"/>
    <tag k="highway" v="motorway_link"/>
    <tag k="lit" v="yes"/>
    <tag k="oneway" v="yes"/>
  </way>
  <way id="14991379" version="11" timestamp="2012-08-11T13:48:25Z" uid="113415" user="tomek-k" changeset="12691422">
    <nd ref="148052223"/>
    <nd ref="216370454"/>
    <nd ref="1606825728"/>
    <tag k="highway" v="motorway_link"/>
    <tag k="lit" v="yes"/>
    <tag k="oneway" v="yes"/>
  </way>
  <way id="14991670" version="7" timestamp="2012-04-27T14:31:03Z" uid="88909" user="miko101" changeset="11433170">
    <nd ref="1606825787"/>
    <nd ref="1606825676"/>
    <nd ref="1606825734"/>
    <nd ref="1606825739"/>
    <nd ref="1606825807"/>
    <nd ref="1606825773"/>
    <nd ref="1606825743"/>
    <nd ref="1606825770"/>
    <nd ref="1606825693"/>
    <nd ref="1606825694"/>
    <nd ref="1606825704"/>
    <nd ref="1606825788"/>
    <nd ref="1606825701"/>
    <nd ref="1606825719"/>
    <nd ref="1606825822"/>
    <nd ref="1606825707"/>
    <nd ref="1606825673"/>
    <nd ref="1606825659"/>
    <nd ref="1606825818"/>
    <nd ref="1606825689"/>
    <nd ref="1606825725"/>
    <nd ref="1606825662"/>
    <nd ref="1606825727"/>
    <nd ref="1606825735"/>
    <nd ref="1606825780"/>
    <tag k="highway" v="motorway_link"/>
    <tag k="lit" v="yes"/>
    <tag k="oneway" v="yes"/>
  </way>
  <way id="14991984" version="7" timestamp="2012-04-27T14:27:05Z" uid="88909" user="miko101" changeset="11433141">
    <nd ref="148056450"/>
    <nd ref="1192430558"/>
    <nd ref="1192430604"/>
    <nd ref="1192430526"/>
    <nd ref="148056930"/>
    <nd ref="1192430592"/>
    <nd ref="148056931"/>
    <nd ref="1192430618"/>
    <nd ref="148056932"/>
    <nd ref="148056933"/>
    <nd ref="1192430588"/>
    <nd ref="1192430586"/>
    <nd ref="29943283"/>
    <tag k="highway" v="motorway_link"/>
    <tag k="lit" v="yes"/>
    <tag k="maxspeed" v="60"/>
    <tag k="oneway" v="yes"/>
  </way>
</osm>
