<?xml version='1.0' encoding='UTF-8'?>
<osm version="0.6" generator="libosmium/2.20.0">
  <way id="15014460" version="6" timestamp="2010-07-09T06:40:52Z" uid="74617" user="JohnSmith" changeset="5171134">
    <nd ref="56943408"/>
    <nd ref="132436448"/>
    <nd ref="148191937"/>
    <tag k="highway" v="residential"/>
    <tag k="maxspeed" v="50"/>
    <tag k="maxspeed:source" v="default residential speed limit in Australia"/>
    <tag k="name" v="Barnes Avenue"/>
    <tag k="source:name" v="survey"/>
  </way>
  <way id="15014460" version="7" timestamp="2012-01-15T13:00:41Z" uid="147510" user="woodpeck_fixbot" changeset="10396281">
    <nd ref="56943408"/>
    <nd ref="132436448"/>
    <nd ref="148191937"/>
    <tag k="highway" v="residential"/>
    <tag k="name" v="Barnes Avenue"/>
    <tag k="source:name" v="survey"/>
  </way>
  <way id="15014640" version="6" timestamp="2010-07-09T06:38:02Z" uid="74617" user="JohnSmith" changeset="5171134">
    <nd ref="148192353"/>
    <nd ref="332347391"/>
    <nd ref="148193026"/>
    <nd ref="148192579"/>
    <tag k="highway" v="residential"/>
    <tag k="maxspeed" v="50"/>
    <tag k="maxspeed:source" v="default residential speed limit in Australia"/>
    <tag k="name" v="Sandford Street"/>
    <tag k="source:name" v="survey"/>
  </way>
  <way id="15014640" version="7" timestamp="2012-01-15T13:00:43Z" uid="147510" user="woodpeck_fixbot" changeset="10396281">
    <nd ref="148192353"/>
    <nd ref="332347391"/>
    <nd ref="148193026"/>
    <nd ref="148192579"/>
    <tag k="highway" v="residential"/>
    <tag k="name" v="Sandford Street"/>
    <tag k="source:name" v="survey"/>
  </way>
  <way id="15014680" version="3" timestamp="2010-07-03T22:19:52Z" uid="4467" user="Rosscoe" changeset="5128573">
    <nd ref="148162644"/>
    <nd ref="148192693"/>
    <tag k="highway" v="secondary"/>
    <tag k="name" v="E Sunbury Street"/>
    <tag k="old_ref_legislative" v="199"/>
    <tag k="tiger:cfcc" v="A41"/>
    <tag k="tiger:county" v="Schuylkill, PA"/>
    <tag k="tiger:name_base" v="Sunbury"/>
    <tag k="tiger:name_direction_prefix" v="E"/>
    <tag k="tiger:name_type" v="St"/>
    <tag k="tiger:reviewed" v="no"/>
    <tag k="tiger:separated" v="no"/>
    <tag k="tiger:source" v="tiger_import_dch_v0.6_20070829"/>
    <tag k="tiger:tlid" v="70961253:70962177:70943149:70943267"/>
    <tag k="tiger:upload_uuid" v="bulk_upload.pl-67d9c5bc-d74d-4c4b-8fc2-510b7f951522"/>
    <tag k="tiger:zip_left" v="17954"/>
    <tag k="tiger:zip_right" v="17954"/>
  </way>
  <way id="15014680" version="4" timestamp="2010-07-05T23:52:21Z" uid="207745" user="NE2" changeset="5146668">
    <nd ref="148162644"/>
    <nd ref="148192693"/>
    <tag k="highway" v="secondary"/>
    <tag k="name" v="E Sunbury Street"/>
    <tag k="old_ref_legislative" v="199"/>
    <tag k="ref" v="901"/>
    <tag k="tiger:cfcc" v="A41"/>
    <tag k="tiger:county" v="Schuylkill, PA"/>
    <tag k="tiger:name_base" v="Sunbury"/>
    <tag k="tiger:name_direction_prefix" v="E"/>
    <tag k="tiger:name_type" v="St"/>
    <tag k="tiger:reviewed" v="no"/>
    <tag k="tiger:separated" v="no"/>
    <tag k="tiger:source" v="tiger_import_dch_v0.6_20070829"/>
    <tag k="tiger:tlid" v="70961253:70962177:70943149:70943267"/>
    <tag k="tiger:upload_uuid" v="bulk_upload.pl-67d9c5bc-d74d-4c4b-8fc2-510b7f951522"/>
    <tag k="tiger:zip_left" v="17954"/>
    <tag k="tiger:zip_right" v="17954"/>
  </way>
  <way id="15014680" version="5" timestamp="2011-06-06T01:09:33Z" uid="207745" user="NE2" changeset="8355588">
    <nd ref="148162644"/>
    <nd ref="148192693"/>
    <tag k="highway" v="secondary"/>
    <tag k="name" v="E Sunbury Street"/>
    <tag k="old_ref_legislative" v="199"/>
    <tag k="ref" v="PA 901"/>
    <tag k="tiger:cfcc" v="A41"/>
    <tag k="tiger:county" v="Schuylkill, PA"/>
    <tag k="tiger:name_base" v="Sunbury"/>
    <tag k="tiger:name_direction_prefix" v="E"/>
    <tag k="tiger:name_type" v="St"/>
    <tag k="tiger:reviewed" v="no"/>
    <tag k="tiger:separated" v="no"/>
    <tag k="tiger:source" v="tiger_import_dch_v0.6_20070829"/>
    <tag k="tiger:tlid" v="70961253:70962177:70943149:70943267"/>
    <tag k="tiger:upload_uuid" v="bulk_upload.pl-67d9c5bc-d74d-4c4b-8fc2-510b7f951522"/>
    <tag k="tiger:zip_left" v="17954"/>
    <tag k="tiger:zip_right" v="17954"/>
  </way>
  <way id="15014806" version="5" timestamp="2010-07-09T06:36:10Z" uid="74617" user="JohnSmith" changeset="5171134">
    <nd ref="148193026"/>
    <nd ref="148193232"/>
    <nd ref="148193233"/>
    <nd ref="148193234"/>
    <nd ref="132437720"/>
    <tag k="highway" v="residential"/>
    <tag k="maxspeed" v="50"/>
    <tag k="maxspeed:source" v="default residential speed limit in Australia"/>
    <tag k="name" v="Roslind Avenue"/>
    <tag k="source:name" v="Gregory&apos;s 1949"/>
  </way>
  <way id="15014806" version="6" timestamp="2010-08-01T23:00:51Z" uid="151053" user="Didz" changeset="5375912">
    <nd ref="148193026"/>
    <nd ref="842662893"/>
    <nd ref="148193232"/>
    <nd ref="842662894"/>
    <nd ref="148193233"/>
    <nd ref="148193234"/>
    <nd ref="132437720"/>
    <tag k="highway" v="residential"/>
    <tag k="maxspeed" v="50"/>
    <tag k="maxspeed:source" v="default residential speed limit in Australia"/>
    <tag k="name" v="Roslind Avenue"/>
    <tag k="source:name" v="Gregory&apos;s 1949"/>
  </way>
  <way id="15014806" version="7" timestamp="2012-01-15T13:00:43Z" uid="147510" user="woodpeck_fixbot" changeset="10396281">
    <nd ref="148193026"/>
    <nd ref="842662893"/>
    <nd ref="148193232"/>
    <nd ref="842662894"/>
    <nd ref="148193233"/>
    <nd ref="148193234"/>
    <nd ref="132437720"/>
    <tag k="highway" v="residential"/>
    <tag k="name" v="Roslind Avenue"/>
    <tag k="source:name" v="Gregory&apos;s 1949"/>
  </way>
  <way id="15014963" version="10" timestamp="2010-07-09T06:39:40Z" uid="74617" user="JohnSmith" changeset="5171134">
    <nd ref="148193337"/>
    <nd ref="319199406"/>
    <nd ref="319199475"/>
    <nd ref="148194021"/>
    <nd ref="148193902"/>
    <nd ref="148193903"/>
    <tag k="highway" v="residential"/>
    <tag k="maxspeed" v="50"/>
    <tag k="maxspeed:source" v="default residential speed limit in Australia"/>
    <tag k="name" v="Orient Road"/>
    <tag k="source:name" v="survey"/>
  </way>
  <way id="15014963" version="11" timestamp="2012-01-15T13:00:45Z" uid="147510" user="woodpeck_fixbot" changeset="10396281">
    <nd ref="148193337"/>
    <nd ref="319199406"/>
    <nd ref="319199475"/>
    <nd ref="148194021"/>
    <nd ref="148193902"/>
    <nd ref="148193903"/>
    <tag k="highway" v="residential"/>
    <tag k="name" v="Orient Road"/>
    <tag k="source:name" v="survey"/>
  </way>
  <way id="15014996" version="6" timestamp="2010-07-09T06:39:56Z" uid="74617" user="JohnSmith" changeset="5171134">
    <nd ref="132437720"/>
    <nd ref="148194147"/>
    <nd ref="148194021"/>
    <tag k="highway" v="residential"/>
    <tag k="maxspeed" v="50"/>
    <tag k="maxspeed:source" v="default residential speed limit in Australia"/>
    <tag k="name" v="Orient Lane"/>
    <tag k="source" v="Yahoo"/>
    <tag k="source:name" v="Gregory&apos;s 1949"/>
  </way>
  <way id="15014996" version="7" timestamp="2012-01-15T13:00:46Z" uid="147510" user="woodpeck_fixbot" changeset="10396281">
    <nd ref="132437720"/>
    <nd ref="148194147"/>
    <nd ref="148194021"/>
    <tag k="highway" v="residential"/>
    <tag k="name" v="Orient Lane"/>
    <tag k="source" v="Yahoo"/>
    <tag k="source:name" v="Gregory&apos;s 1949"/>
  </way>
</osm>
