<?xml version='1.0' encoding='UTF-8'?>
<osm version="0.6" generator="libosmium/2.20.0">
  <way id="15076036" version="4" timestamp="2008-05-08T17:52:46Z" uid="36809" user="pfoten_weg_!_" changeset="366018">
    <nd ref="148687525"/>
    <nd ref="148687533"/>
    <nd ref="148687539"/>
    <nd ref="148687541"/>
    <nd ref="148687547"/>
    <nd ref="148720318"/>
    <tag k="created_by" v="Potlatch 0.9"/>
    <tag k="highway" v="residential"/>
    <tag k="name" v="Walliser Straße"/>
  </way>
  <way id="15076036" version="5" timestamp="2008-05-08T17:53:11Z" uid="36809" user="pfoten_weg_!_" changeset="366018">
    <nd ref="148687525"/>
    <nd ref="148687547"/>
    <nd ref="148720318"/>
    <tag k="created_by" v="Potlatch 0.9"/>
    <tag k="highway" v="residential"/>
    <tag k="name" v="Walliser Straße"/>
  </way>
  <way id="15076036" version="6" timestamp="2008-05-28T22:51:42Z" uid="37850" user="mawis" changeset="548849">
    <nd ref="148687525"/>
    <nd ref="148687547"/>
    <nd ref="148720318"/>
    <tag k="created_by" v="Potlatch 0.9"/>
    <tag k="highway" v="service"/>
    <tag k="name" v="Walliser Straße"/>
  </way>
  <way id="15076036" version="7" timestamp="2008-06-03T13:04:50Z" uid="37850" user="mawis" changeset="38356">
    <nd ref="148687525"/>
    <nd ref="148687547"/>
    <nd ref="148720318"/>
    <tag k="created_by" v="Potlatch 0.9"/>
    <tag k="highway" v="footway"/>
    <tag k="name" v="Walliser Straße"/>
  </way>
  <way id="15076036" version="8" timestamp="2008-09-20T03:59:30Z" uid="36809" user="pfoten_weg_!_" changeset="670006">
    <nd ref="148687525"/>
    <nd ref="148687547"/>
    <nd ref="148720318"/>
    <tag k="created_by" v="RambaZamba"/>
    <tag k="highway" v="footway"/>
    <tag k="name" v="Walliser Straße"/>
  </way>
  <way id="15076036" version="9" timestamp="2008-10-01T02:06:01Z" uid="36809" user="pfoten_weg_!_" changeset="5644">
    <nd ref="148687525"/>
    <nd ref="148687547"/>
    <nd ref="148720318"/>
    <tag k="created_by" v="RambaZamba"/>
    <tag k="highway" v="footway"/>
    <tag k="name" v="Walliser Straße"/>
  </way>
  <way id="15076036" version="10" timestamp="2009-02-15T13:10:24Z" uid="36809" user="pfoten_weg_!_" changeset="463903">
    <nd ref="148687525"/>
    <nd ref="148687547"/>
    <nd ref="148720318"/>
    <tag k="created_by" v="RambaZamba"/>
    <tag k="highway" v="footway"/>
    <tag k="name" v="Walliser Straße"/>
    <tag k="source" v="survey"/>
  </way>
  <way id="15076036" version="11" timestamp="2009-08-28T19:52:55Z" uid="156995" user="HampelZamba" changeset="2294580">
    <nd ref="148687525"/>
    <nd ref="148687547"/>
    <nd ref="148720318"/>
    <tag k="highway" v="footway"/>
    <tag k="name" v="Walliser Straße"/>
    <tag k="source" v="survey"/>
  </way>
  <way id="15076036" version="12" timestamp="2009-09-01T10:54:10Z" uid="36809" user="pfoten_weg_!_" changeset="2335754">
    <nd ref="148687525"/>
    <nd ref="148687547"/>
    <nd ref="148720318"/>
    <tag k="highway" v="footway"/>
    <tag k="name" v="Walliser Straße"/>
    <tag k="source" v="survey"/>
  </way>
  <way id="15076036" version="13" timestamp="2009-10-02T18:05:22Z" uid="86259" user="hasse_osm_korinthenkacker" changeset="2715119">
    <nd ref="148687525"/>
    <nd ref="148687547"/>
    <nd ref="148720318"/>
    <tag k="highway" v="footway"/>
    <tag k="name" v="Walliser Straße"/>
  </way>
  <way id="15076038" version="5" timestamp="2008-10-01T02:06:03Z" uid="36809" user="pfoten_weg_!_" changeset="5644">
    <nd ref="148687551"/>
    <nd ref="148687554"/>
    <nd ref="148687559"/>
    <nd ref="148687566"/>
    <tag k="created_by" v="RambaZamba"/>
    <tag k="highway" v="footway"/>
    <tag k="name" v="Walliser Straße"/>
  </way>
  <way id="15076038" version="6" timestamp="2009-02-15T13:10:24Z" uid="36809" user="pfoten_weg_!_" changeset="463903">
    <nd ref="148687551"/>
    <nd ref="148687554"/>
    <nd ref="148687559"/>
    <nd ref="148687566"/>
    <tag k="created_by" v="RambaZamba"/>
    <tag k="highway" v="footway"/>
    <tag k="name" v="Walliser Straße"/>
    <tag k="source" v="survey"/>
  </way>
  <way id="15076038" version="7" timestamp="2009-08-28T19:52:56Z" uid="156995" user="HampelZamba" changeset="2294580">
    <nd ref="148687551"/>
    <nd ref="148687554"/>
    <nd ref="148687559"/>
    <nd ref="148687566"/>
    <tag k="highway" v="footway"/>
    <tag k="name" v="Walliser Straße"/>
    <tag k="source" v="survey"/>
  </way>
  <way id="15076038" version="8" timestamp="2009-09-01T10:31:11Z" uid="36809" user="pfoten_weg_!_" changeset="2335754">
    <nd ref="148687551"/>
    <nd ref="148687554"/>
    <nd ref="148687559"/>
    <nd ref="148687566"/>
    <tag k="highway" v="footway"/>
    <tag k="name" v="Walliser Straße"/>
    <tag k="source" v="survey"/>
  </way>
  <way id="15076038" version="9" timestamp="2009-10-30T19:56:28Z" uid="36809" user="pfoten_weg_!_" changeset="2992134">
    <nd ref="148687551"/>
    <nd ref="148687554"/>
    <nd ref="148687559"/>
    <nd ref="148687566"/>
    <tag k="highway" v="footway"/>
    <tag k="name" v="Walliser Straße"/>
  </way>
  <way id="15076040" version="3" timestamp="2008-09-22T01:05:10Z" uid="36809" user="pfoten_weg_!_" changeset="678890">
    <nd ref="148657272"/>
    <nd ref="148687566"/>
    <nd ref="148687547"/>
    <tag k="created_by" v="JOSM"/>
    <tag k="highway" v="footway"/>
  </way>
  <way id="15076040" version="4" timestamp="2008-10-01T02:05:59Z" uid="36809" user="pfoten_weg_!_" changeset="5644">
    <nd ref="148657272"/>
    <nd ref="148687566"/>
    <nd ref="148687547"/>
    <tag k="created_by" v="RambaZamba"/>
    <tag k="highway" v="footway"/>
  </way>
  <way id="15076040" version="5" timestamp="2009-02-15T13:10:23Z" uid="36809" user="pfoten_weg_!_" changeset="463903">
    <nd ref="148657272"/>
    <nd ref="148687566"/>
    <nd ref="148687547"/>
    <tag k="created_by" v="RambaZamba"/>
    <tag k="highway" v="footway"/>
    <tag k="source" v="survey"/>
  </way>
  <way id="15076040" version="6" timestamp="2009-08-28T19:52:56Z" uid="156995" user="HampelZamba" changeset="2294580">
    <nd ref="148657272"/>
    <nd ref="148687566"/>
    <nd ref="148687547"/>
    <tag k="highway" v="footway"/>
    <tag k="source" v="survey"/>
  </way>
  <way id="15076040" version="7" timestamp="2009-09-01T10:39:20Z" uid="36809" user="pfoten_weg_!_" changeset="2335754">
    <nd ref="148657272"/>
    <nd ref="148687566"/>
    <nd ref="148687547"/>
    <tag k="highway" v="footway"/>
    <tag k="source" v="survey"/>
  </way>
  <way id="15076040" version="8" timestamp="2009-10-30T19:56:38Z" uid="36809" user="pfoten_weg_!_" changeset="2992134">
    <nd ref="148657272"/>
    <nd ref="148687566"/>
    <nd ref="148687547"/>
    <tag k="highway" v="footway"/>
  </way>
  <way id="15076042" version="5" timestamp="2008-10-01T02:06:01Z" uid="36809" user="pfoten_weg_!_" changeset="5644">
    <nd ref="148687572"/>
    <nd ref="148687576"/>
    <nd ref="148687584"/>
    <tag k="created_by" v="RambaZamba"/>
    <tag k="highway" v="footway"/>
    <tag k="name" v="Solothurner Straße"/>
  </way>
  <way id="15076042" version="6" timestamp="2009-02-15T13:10:23Z" uid="36809" user="pfoten_weg_!_" changeset="463903">
    <nd ref="148687572"/>
    <nd ref="148687576"/>
    <nd ref="148687584"/>
    <tag k="created_by" v="RambaZamba"/>
    <tag k="highway" v="footway"/>
    <tag k="name" v="Solothurner Straße"/>
    <tag k="source" v="survey"/>
  </way>
  <way id="15076042" version="7" timestamp="2009-08-28T19:52:56Z" uid="156995" user="HampelZamba" changeset="2294580">
    <nd ref="148687572"/>
    <nd ref="148687576"/>
    <nd ref="148687584"/>
    <tag k="highway" v="footway"/>
    <tag k="name" v="Solothurner Straße"/>
    <tag k="source" v="survey"/>
  </way>
  <way id="15076042" version="8" timestamp="2009-09-01T10:45:39Z" uid="36809" user="pfoten_weg_!_" changeset="2335754">
    <nd ref="148687572"/>
    <nd ref="148687576"/>
    <nd ref="148687584"/>
    <tag k="highway" v="footway"/>
    <tag k="name" v="Solothurner Straße"/>
    <tag k="source" v="survey"/>
  </way>
  <way id="15076042" version="9" timestamp="2009-10-02T18:05:19Z" uid="86259" user="hasse_osm_korinthenkacker" changeset="2715119">
    <nd ref="148687572"/>
    <nd ref="148687576"/>
    <nd ref="148687584"/>
    <tag k="highway" v="footway"/>
    <tag k="name" v="Solothurner Straße"/>
  </way>
  <way id="15076044" version="5" timestamp="2008-10-01T02:05:58Z" uid="36809" user="pfoten_weg_!_" changeset="5644">
    <nd ref="148687588"/>
    <nd ref="148687592"/>
    <nd ref="148687594"/>
    <tag k="created_by" v="RambaZamba"/>
    <tag k="highway" v="footway"/>
    <tag k="name" v="Solothurner Straße"/>
  </way>
  <way id="15076044" version="6" timestamp="2009-02-15T13:10:20Z" uid="36809" user="pfoten_weg_!_" changeset="463903">
    <nd ref="148687588"/>
    <nd ref="148687592"/>
    <nd ref="148687594"/>
    <tag k="created_by" v="RambaZamba"/>
    <tag k="highway" v="footway"/>
    <tag k="name" v="Solothurner Straße"/>
    <tag k="source" v="survey"/>
  </way>
  <way id="15076044" version="7" timestamp="2009-08-28T19:52:56Z" uid="156995" user="HampelZamba" changeset="2294580">
    <nd ref="148687588"/>
    <nd ref="148687592"/>
    <nd ref="148687594"/>
    <tag k="highway" v="footway"/>
    <tag k="name" v="Solothurner Straße"/>
    <tag k="source" v="survey"/>
  </way>
  <way id="15076044" version="8" timestamp="2009-09-01T11:05:34Z" uid="36809" user="pfoten_weg_!_" changeset="2335754">
    <nd ref="148687588"/>
    <nd ref="148687592"/>
    <nd ref="148687594"/>
    <tag k="highway" v="footway"/>
    <tag k="name" v="Solothurner Straße"/>
    <tag k="source" v="survey"/>
  </way>
  <way id="15076044" version="9" timestamp="2009-10-02T18:05:15Z" uid="86259" user="hasse_osm_korinthenkacker" changeset="2715119">
    <nd ref="148687588"/>
    <nd ref="148687592"/>
    <nd ref="148687594"/>
    <tag k="highway" v="footway"/>
    <tag k="name" v="Solothurner Straße"/>
  </way>
  <way id="15076045" version="5" timestamp="2008-10-01T02:05:58Z" uid="36809" user="pfoten_weg_!_" changeset="5644">
    <nd ref="148687596"/>
    <nd ref="148687600"/>
    <nd ref="148687605"/>
    <tag k="created_by" v="RambaZamba"/>
    <tag k="highway" v="footway"/>
    <tag k="name" v="Solothurner Straße"/>
  </way>
  <way id="15076045" version="6" timestamp="2009-02-15T13:10:20Z" uid="36809" user="pfoten_weg_!_" changeset="463903">
    <nd ref="148687596"/>
    <nd ref="148687600"/>
    <nd ref="148687605"/>
    <tag k="created_by" v="RambaZamba"/>
    <tag k="highway" v="footway"/>
    <tag k="name" v="Solothurner Straße"/>
    <tag k="source" v="survey"/>
  </way>
  <way id="15076045" version="7" timestamp="2009-08-28T19:52:56Z" uid="156995" user="HampelZamba" changeset="2294580">
    <nd ref="148687596"/>
    <nd ref="148687600"/>
    <nd ref="148687605"/>
    <tag k="highway" v="footway"/>
    <tag k="name" v="Solothurner Straße"/>
    <tag k="source" v="survey"/>
  </way>
  <way id="15076045" version="8" timestamp="2009-09-01T10:31:27Z" uid="36809" user="pfoten_weg_!_" changeset="2335754">
    <nd ref="148687596"/>
    <nd ref="148687600"/>
    <nd ref="148687605"/>
    <tag k="highway" v="footway"/>
    <tag k="name" v="Solothurner Straße"/>
    <tag k="source" v="survey"/>
  </way>
  <way id="15076045" version="9" timestamp="2009-10-02T18:05:13Z" uid="86259" user="hasse_osm_korinthenkacker" changeset="2715119">
    <nd ref="148687596"/>
    <nd ref="148687600"/>
    <nd ref="148687605"/>
    <tag k="highway" v="footway"/>
    <tag k="name" v="Solothurner Straße"/>
  </way>
  <way id="15076490" version="5" timestamp="2008-10-01T02:51:42Z" uid="36809" user="pfoten_weg_!_" changeset="5644">
    <nd ref="148690604"/>
    <nd ref="148690626"/>
    <nd ref="148690637"/>
    <tag k="created_by" v="RambaZamba"/>
    <tag k="highway" v="footway"/>
    <tag k="name" v="Walliser Straße"/>
  </way>
  <way id="15076490" version="6" timestamp="2009-02-15T13:18:00Z" uid="36809" user="pfoten_weg_!_" changeset="463903">
    <nd ref="148690604"/>
    <nd ref="148690626"/>
    <nd ref="148690637"/>
    <tag k="created_by" v="RambaZamba"/>
    <tag k="highway" v="footway"/>
    <tag k="name" v="Walliser Straße"/>
    <tag k="source" v="survey"/>
  </way>
  <way id="15076490" version="7" timestamp="2009-08-28T19:52:56Z" uid="156995" user="HampelZamba" changeset="2294580">
    <nd ref="148690604"/>
    <nd ref="148690626"/>
    <nd ref="148690637"/>
    <tag k="highway" v="footway"/>
    <tag k="name" v="Walliser Straße"/>
    <tag k="source" v="survey"/>
  </way>
  <way id="15076490" version="8" timestamp="2009-09-01T10:59:14Z" uid="36809" user="pfoten_weg_!_" changeset="2335754">
    <nd ref="148690604"/>
    <nd ref="148690626"/>
    <nd ref="148690637"/>
    <tag k="highway" v="footway"/>
    <tag k="name" v="Walliser Straße"/>
    <tag k="source" v="survey"/>
  </way>
  <way id="15076490" version="9" timestamp="2009-10-30T19:56:35Z" uid="36809" user="pfoten_weg_!_" changeset="2992134">
    <nd ref="148690604"/>
    <nd ref="148690626"/>
    <nd ref="148690637"/>
    <tag k="highway" v="footway"/>
    <tag k="name" v="Walliser Straße"/>
  </way>
  <way id="15076491" version="5" timestamp="2008-10-01T02:51:41Z" uid="36809" user="pfoten_weg_!_" changeset="5644">
    <nd ref="148690643"/>
    <nd ref="148690647"/>
    <nd ref="148690705"/>
    <tag k="created_by" v="RambaZamba"/>
    <tag k="highway" v="footway"/>
    <tag k="name" v="Walliser Straße"/>
  </way>
  <way id="15076491" version="6" timestamp="2009-02-15T13:17:58Z" uid="36809" user="pfoten_weg_!_" changeset="463903">
    <nd ref="148690643"/>
    <nd ref="148690647"/>
    <nd ref="148690705"/>
    <tag k="created_by" v="RambaZamba"/>
    <tag k="highway" v="footway"/>
    <tag k="name" v="Walliser Straße"/>
    <tag k="source" v="survey"/>
  </way>
  <way id="15076491" version="7" timestamp="2009-08-28T19:52:56Z" uid="156995" user="HampelZamba" changeset="2294580">
    <nd ref="148690643"/>
    <nd ref="148690647"/>
    <nd ref="148690705"/>
    <tag k="highway" v="footway"/>
    <tag k="name" v="Walliser Straße"/>
    <tag k="source" v="survey"/>
  </way>
  <way id="15076491" version="8" timestamp="2009-09-01T10:30:36Z" uid="36809" user="pfoten_weg_!_" changeset="2335754">
    <nd ref="148690643"/>
    <nd ref="148690647"/>
    <nd ref="148690705"/>
    <tag k="highway" v="footway"/>
    <tag k="name" v="Walliser Straße"/>
    <tag k="source" v="survey"/>
  </way>
  <way id="15076491" version="9" timestamp="2009-10-30T19:56:34Z" uid="36809" user="pfoten_weg_!_" changeset="2992134">
    <nd ref="148690643"/>
    <nd ref="148690647"/>
    <nd ref="148690705"/>
    <tag k="highway" v="footway"/>
    <tag k="name" v="Walliser Straße"/>
  </way>
  <way id="15076493" version="5" timestamp="2008-10-01T02:51:30Z" uid="36809" user="pfoten_weg_!_" changeset="5644">
    <nd ref="148690786"/>
    <nd ref="148690798"/>
    <nd ref="148690804"/>
    <tag k="created_by" v="RambaZamba"/>
    <tag k="highway" v="footway"/>
    <tag k="name" v="Walliser Straße"/>
  </way>
  <way id="15076493" version="6" timestamp="2009-02-15T13:17:56Z" uid="36809" user="pfoten_weg_!_" changeset="463903">
    <nd ref="148690786"/>
    <nd ref="148690798"/>
    <nd ref="148690804"/>
    <tag k="created_by" v="RambaZamba"/>
    <tag k="highway" v="footway"/>
    <tag k="name" v="Walliser Straße"/>
    <tag k="source" v="survey"/>
  </way>
  <way id="15076493" version="7" timestamp="2009-08-28T19:52:56Z" uid="156995" user="HampelZamba" changeset="2294580">
    <nd ref="148690786"/>
    <nd ref="148690798"/>
    <nd ref="148690804"/>
    <tag k="highway" v="footway"/>
    <tag k="name" v="Walliser Straße"/>
    <tag k="source" v="survey"/>
  </way>
  <way id="15076493" version="8" timestamp="2009-09-01T11:10:25Z" uid="36809" user="pfoten_weg_!_" changeset="2335754">
    <nd ref="148690786"/>
    <nd ref="148690798"/>
    <nd ref="148690804"/>
    <tag k="highway" v="footway"/>
    <tag k="name" v="Walliser Straße"/>
    <tag k="source" v="survey"/>
  </way>
  <way id="15076493" version="9" timestamp="2009-10-30T19:56:31Z" uid="36809" user="pfoten_weg_!_" changeset="2992134">
    <nd ref="148690786"/>
    <nd ref="148690798"/>
    <nd ref="148690804"/>
    <tag k="highway" v="footway"/>
    <tag k="name" v="Walliser Straße"/>
  </way>
  <way id="15076495" version="5" timestamp="2008-10-01T02:51:32Z" uid="36809" user="pfoten_weg_!_" changeset="5644">
    <nd ref="148690810"/>
    <nd ref="148690812"/>
    <nd ref="148690816"/>
    <tag k="created_by" v="RambaZamba"/>
    <tag k="highway" v="footway"/>
    <tag k="name" v="Walliser Straße"/>
  </way>
  <way id="15076495" version="6" timestamp="2009-02-15T13:17:57Z" uid="36809" user="pfoten_weg_!_" changeset="463903">
    <nd ref="148690810"/>
    <nd ref="148690812"/>
    <nd ref="148690816"/>
    <tag k="created_by" v="RambaZamba"/>
    <tag k="highway" v="footway"/>
    <tag k="name" v="Walliser Straße"/>
    <tag k="source" v="survey"/>
  </way>
  <way id="15076495" version="7" timestamp="2009-08-28T19:52:56Z" uid="156995" user="HampelZamba" changeset="2294580">
    <nd ref="148690810"/>
    <nd ref="148690812"/>
    <nd ref="148690816"/>
    <tag k="highway" v="footway"/>
    <tag k="name" v="Walliser Straße"/>
    <tag k="source" v="survey"/>
  </way>
  <way id="15076495" version="8" timestamp="2009-09-01T10:56:43Z" uid="36809" user="pfoten_weg_!_" changeset="2335754">
    <nd ref="148690810"/>
    <nd ref="148690812"/>
    <nd ref="148690816"/>
    <tag k="highway" v="footway"/>
    <tag k="name" v="Walliser Straße"/>
    <tag k="source" v="survey"/>
  </way>
  <way id="15076495" version="9" timestamp="2009-10-30T19:56:31Z" uid="36809" user="pfoten_weg_!_" changeset="2992134">
    <nd ref="148690810"/>
    <nd ref="148690812"/>
    <nd ref="148690816"/>
    <tag k="highway" v="footway"/>
    <tag k="name" v="Walliser Straße"/>
  </way>
  <way id="15076496" version="5" timestamp="2008-10-01T02:51:53Z" uid="36809" user="pfoten_weg_!_" changeset="5644">
    <nd ref="148690820"/>
    <nd ref="148690827"/>
    <nd ref="148690834"/>
    <nd ref="148690837"/>
    <tag k="created_by" v="RambaZamba"/>
    <tag k="highway" v="footway"/>
    <tag k="name" v="Walliser Straße"/>
  </way>
  <way id="15076496" version="6" timestamp="2009-02-15T13:18:02Z" uid="36809" user="pfoten_weg_!_" changeset="463903">
    <nd ref="148690820"/>
    <nd ref="148690827"/>
    <nd ref="148690834"/>
    <nd ref="148690837"/>
    <tag k="created_by" v="RambaZamba"/>
    <tag k="highway" v="footway"/>
    <tag k="name" v="Walliser Straße"/>
    <tag k="source" v="survey"/>
  </way>
  <way id="15076496" version="7" timestamp="2009-08-28T19:52:57Z" uid="156995" user="HampelZamba" changeset="2294580">
    <nd ref="148690820"/>
    <nd ref="148690827"/>
    <nd ref="148690834"/>
    <nd ref="148690837"/>
    <tag k="highway" v="footway"/>
    <tag k="name" v="Walliser Straße"/>
    <tag k="source" v="survey"/>
  </way>
  <way id="15076496" version="8" timestamp="2009-09-01T10:36:49Z" uid="36809" user="pfoten_weg_!_" changeset="2335754">
    <nd ref="148690820"/>
    <nd ref="148690827"/>
    <nd ref="148690834"/>
    <nd ref="148690837"/>
    <tag k="highway" v="footway"/>
    <tag k="name" v="Walliser Straße"/>
    <tag k="source" v="survey"/>
  </way>
  <way id="15076496" version="9" timestamp="2009-10-30T19:56:24Z" uid="36809" user="pfoten_weg_!_" changeset="2992134">
    <nd ref="148690820"/>
    <nd ref="148690827"/>
    <nd ref="148690834"/>
    <nd ref="148690837"/>
    <tag k="highway" v="footway"/>
    <tag k="name" v="Walliser Straße"/>
  </way>
  <way id="15076498" version="2" timestamp="2008-09-22T01:06:16Z" uid="36809" user="pfoten_weg_!_" changeset="678890">
    <nd ref="148644851"/>
    <nd ref="148690841"/>
    <nd ref="148687605"/>
    <nd ref="148690845"/>
    <nd ref="148690849"/>
    <nd ref="148687594"/>
    <nd ref="148690854"/>
    <nd ref="148690859"/>
    <nd ref="148687584"/>
    <nd ref="148690866"/>
    <nd ref="148690871"/>
    <nd ref="148690877"/>
    <nd ref="148690881"/>
    <nd ref="148690884"/>
    <tag k="created_by" v="JOSM"/>
    <tag k="highway" v="footway"/>
  </way>
  <way id="15076498" version="3" timestamp="2008-10-01T02:51:56Z" uid="36809" user="pfoten_weg_!_" changeset="5644">
    <nd ref="148644851"/>
    <nd ref="148690841"/>
    <nd ref="148687605"/>
    <nd ref="148690845"/>
    <nd ref="148690849"/>
    <nd ref="148687594"/>
    <nd ref="148690854"/>
    <nd ref="148690859"/>
    <nd ref="148687584"/>
    <nd ref="148690866"/>
    <nd ref="148690871"/>
    <nd ref="148690877"/>
    <nd ref="148690881"/>
    <nd ref="148690884"/>
    <tag k="created_by" v="RambaZamba"/>
    <tag k="highway" v="footway"/>
  </way>
  <way id="15076498" version="4" timestamp="2009-02-15T13:18:02Z" uid="36809" user="pfoten_weg_!_" changeset="463903">
    <nd ref="148644851"/>
    <nd ref="148690841"/>
    <nd ref="148687605"/>
    <nd ref="148690845"/>
    <nd ref="148690849"/>
    <nd ref="148687594"/>
    <nd ref="148690854"/>
    <nd ref="148690859"/>
    <nd ref="148687584"/>
    <nd ref="148690866"/>
    <nd ref="148690871"/>
    <nd ref="148690877"/>
    <nd ref="148690881"/>
    <nd ref="148690884"/>
    <tag k="created_by" v="RambaZamba"/>
    <tag k="highway" v="footway"/>
    <tag k="source" v="survey"/>
  </way>
  <way id="15076498" version="5" timestamp="2009-08-28T19:52:57Z" uid="156995" user="HampelZamba" changeset="2294580">
    <nd ref="148644851"/>
    <nd ref="148690841"/>
    <nd ref="148687605"/>
    <nd ref="148690845"/>
    <nd ref="148690849"/>
    <nd ref="148687594"/>
    <nd ref="148690854"/>
    <nd ref="148690859"/>
    <nd ref="148687584"/>
    <nd ref="148690866"/>
    <nd ref="148690871"/>
    <nd ref="148690877"/>
    <nd ref="148690881"/>
    <nd ref="148690884"/>
    <tag k="highway" v="footway"/>
    <tag k="source" v="survey"/>
  </way>
  <way id="15076498" version="6" timestamp="2009-09-01T10:32:48Z" uid="36809" user="pfoten_weg_!_" changeset="2335754">
    <nd ref="148644851"/>
    <nd ref="148690841"/>
    <nd ref="148687605"/>
    <nd ref="148690845"/>
    <nd ref="148690849"/>
    <nd ref="148687594"/>
    <nd ref="148690854"/>
    <nd ref="148690859"/>
    <nd ref="148687584"/>
    <nd ref="148690866"/>
    <nd ref="148690871"/>
    <nd ref="148690877"/>
    <nd ref="148690881"/>
    <nd ref="148690884"/>
    <tag k="highway" v="footway"/>
    <tag k="source" v="survey"/>
  </way>
  <way id="15076498" version="7" timestamp="2009-10-30T19:56:24Z" uid="36809" user="pfoten_weg_!_" changeset="2992134">
    <nd ref="148644851"/>
    <nd ref="148690841"/>
    <nd ref="148687605"/>
    <nd ref="148690845"/>
    <nd ref="148690849"/>
    <nd ref="148687594"/>
    <nd ref="148690854"/>
    <nd ref="148690859"/>
    <nd ref="148687584"/>
    <nd ref="148690866"/>
    <nd ref="148690871"/>
    <nd ref="148690877"/>
    <nd ref="148690881"/>
    <nd ref="148690884"/>
    <tag k="highway" v="footway"/>
  </way>
  <way id="15076036" version="14" timestamp="2012-07-18T02:54:02Z" uid="722137" user="OSMF Redaction Account" changeset="12274251">
    <nd ref="148687525"/>
    <nd ref="148687547"/>
    <nd ref="148720318"/>
    <tag k="highway" v="residential"/>
    <tag k="name" v="Walliser Straße"/>
  </way>
  <way id="15076038" version="10" timestamp="2012-07-18T02:54:02Z" uid="722137" user="OSMF Redaction Account" changeset="12274251">
    <nd ref="148687551"/>
    <nd ref="148687554"/>
    <nd ref="148687559"/>
    <nd ref="148687566"/>
    <tag k="highway" v="residential"/>
    <tag k="name" v="Walliser Straße"/>
  </way>
  <way id="15076042" version="10" timestamp="2012-07-18T02:53:59Z" uid="722137" user="OSMF Redaction Account" changeset="12274251">
    <nd ref="148687572"/>
    <nd ref="148687576"/>
    <nd ref="148687584"/>
    <tag k="highway" v="residential"/>
    <tag k="name" v="Solothurner Straße"/>
  </way>
  <way id="15076042" version="11" timestamp="2012-08-02T15:26:26Z" uid="342705" user="KLMB" changeset="12587248">
    <nd ref="148687572"/>
    <nd ref="148687576"/>
    <nd ref="148687584"/>
    <tag k="highway" v="service"/>
    <tag k="name" v="Solothurner Straße"/>
  </way>
  <way id="15076044" version="10" timestamp="2012-07-18T02:53:57Z" uid="722137" user="OSMF Redaction Account" changeset="12274251">
    <nd ref="148687588"/>
    <nd ref="148687592"/>
    <nd ref="148687594"/>
    <tag k="highway" v="residential"/>
    <tag k="name" v="Solothurner Straße"/>
  </way>
  <way id="15076044" version="11" timestamp="2012-08-02T15:26:25Z" uid="342705" user="KLMB" changeset="12587248">
    <nd ref="148687588"/>
    <nd ref="148687592"/>
    <nd ref="148687594"/>
    <tag k="highway" v="service"/>
    <tag k="name" v="Solothurner Straße"/>
  </way>
  <way id="15076045" version="10" timestamp="2012-07-18T02:53:56Z" uid="722137" user="OSMF Redaction Account" changeset="12274251">
    <nd ref="148687596"/>
    <nd ref="148687600"/>
    <nd ref="148687605"/>
    <tag k="highway" v="residential"/>
    <tag k="name" v="Solothurner Straße"/>
  </way>
  <way id="15076045" version="11" timestamp="2012-08-02T15:26:26Z" uid="342705" user="KLMB" changeset="12587248">
    <nd ref="148687596"/>
    <nd ref="148687600"/>
    <nd ref="148687605"/>
    <tag k="highway" v="service"/>
    <tag k="name" v="Solothurner Straße"/>
  </way>
  <way id="15076490" version="10" timestamp="2012-07-18T02:54:00Z" uid="722137" user="OSMF Redaction Account" changeset="12274251">
    <nd ref="148690604"/>
    <nd ref="148690626"/>
    <nd ref="148690637"/>
    <tag k="highway" v="residential"/>
    <tag k="name" v="Walliser Straße"/>
  </way>
  <way id="15076490" version="11" timestamp="2012-08-02T15:26:29Z" uid="342705" user="KLMB" changeset="12587248">
    <nd ref="148690604"/>
    <nd ref="148690626"/>
    <nd ref="148690637"/>
    <tag k="highway" v="service"/>
    <tag k="name" v="Walliser Straße"/>
  </way>
  <way id="15076491" version="10" timestamp="2012-07-18T02:54:00Z" uid="722137" user="OSMF Redaction Account" changeset="12274251">
    <nd ref="148690643"/>
    <nd ref="148690647"/>
    <nd ref="148690705"/>
    <tag k="highway" v="residential"/>
    <tag k="name" v="Walliser Straße"/>
  </way>
  <way id="15076491" version="11" timestamp="2012-08-02T15:26:29Z" uid="342705" user="KLMB" changeset="12587248">
    <nd ref="148690643"/>
    <nd ref="148690647"/>
    <nd ref="148690705"/>
    <tag k="highway" v="service"/>
    <tag k="name" v="Walliser Straße"/>
  </way>
  <way id="15076493" version="10" timestamp="2012-07-18T02:54:01Z" uid="722137" user="OSMF Redaction Account" changeset="12274251">
    <nd ref="148690786"/>
    <nd ref="148690798"/>
    <nd ref="148690804"/>
    <tag k="highway" v="residential"/>
    <tag k="name" v="Walliser Straße"/>
  </way>
  <way id="15076493" version="11" timestamp="2012-08-02T15:26:28Z" uid="342705" user="KLMB" changeset="12587248">
    <nd ref="148690786"/>
    <nd ref="148690798"/>
    <nd ref="148690804"/>
    <tag k="highway" v="service"/>
    <tag k="name" v="Walliser Straße"/>
  </way>
  <way id="15076495" version="10" timestamp="2012-07-18T02:54:01Z" uid="722137" user="OSMF Redaction Account" changeset="12274251">
    <nd ref="148690810"/>
    <nd ref="148690812"/>
    <nd ref="148690816"/>
    <tag k="highway" v="residential"/>
    <tag k="name" v="Walliser Straße"/>
  </way>
  <way id="15076495" version="11" timestamp="2012-08-02T15:26:29Z" uid="342705" user="KLMB" changeset="12587248">
    <nd ref="148690810"/>
    <nd ref="148690812"/>
    <nd ref="148690816"/>
    <tag k="highway" v="service"/>
    <tag k="name" v="Walliser Straße"/>
  </way>
  <way id="15076496" version="10" timestamp="2012-07-18T02:53:59Z" uid="722137" user="OSMF Redaction Account" changeset="12274251">
    <nd ref="148690820"/>
    <nd ref="148690827"/>
    <nd ref="148690834"/>
    <nd ref="148690837"/>
    <tag k="highway" v="residential"/>
    <tag k="name" v="Walliser Straße"/>
  </way>
  <way id="15076496" version="11" timestamp="2012-08-02T15:26:29Z" uid="342705" user="KLMB" changeset="12587248">
    <nd ref="148690820"/>
    <nd ref="148690827"/>
    <nd ref="148690837"/>
    <tag k="highway" v="service"/>
    <tag k="name" v="Walliser Straße"/>
  </way>
</osm>
