<?xml version='1.0' encoding='UTF-8'?>
<osm version="0.6" generator="libosmium/2.20.0">
  <way id="15497323" version="1" timestamp="2007-12-07T10:21:30Z" uid="11308" user="samc" changeset="171555">
    <nd ref="12657760"/>
    <nd ref="154504413"/>
    <nd ref="154504373"/>
    <tag k="created_by" v="JOSM"/>
    <tag k="highway" v="secondary"/>
    <tag k="name" v="Gundaroo Drive"/>
  </way>
  <way id="15497323" version="2" timestamp="2008-04-10T23:07:24Z" uid="12434" user="nm7s9" changeset="109231">
    <nd ref="12657760"/>
    <nd ref="154504413"/>
    <nd ref="154504373"/>
    <tag k="created_by" v="JOSM"/>
    <tag k="highway" v="secondary"/>
    <tag k="name" v="Gundaroo Drive"/>
    <tag k="oneway" v="yes"/>
  </way>
  <way id="15497323" version="3" timestamp="2010-03-05T03:27:21Z" uid="79144" user="John H" changeset="4038034">
    <nd ref="12657760"/>
    <nd ref="154504413"/>
    <nd ref="660545261"/>
    <nd ref="660545262"/>
    <nd ref="154504373"/>
    <tag k="highway" v="secondary"/>
    <tag k="name" v="Gundaroo Drive"/>
    <tag k="oneway" v="yes"/>
  </way>
  <way id="15497323" version="4" timestamp="2010-08-17T23:52:17Z" uid="79475" user="AlexOnTheBus" changeset="5522678">
    <nd ref="12657760"/>
    <nd ref="154504413"/>
    <nd ref="660545261"/>
    <nd ref="660545262"/>
    <nd ref="154504373"/>
    <tag k="highway" v="primary"/>
    <tag k="name" v="Gundaroo Drive"/>
    <tag k="oneway" v="yes"/>
  </way>
  <way id="15497323" version="5" timestamp="2011-12-20T11:04:41Z" uid="12434" user="nm7s9" changeset="10162524">
    <nd ref="12657760"/>
    <nd ref="154504413"/>
    <nd ref="660545261"/>
    <nd ref="660545262"/>
    <tag k="highway" v="primary"/>
    <tag k="name" v="Gundaroo Drive"/>
    <tag k="oneway" v="yes"/>
  </way>
  <way id="15497323" version="6" timestamp="2011-12-20T11:11:47Z" uid="12434" user="nm7s9" changeset="10162573"/>
  <way id="15497327" version="1" timestamp="2007-12-07T10:21:30Z" uid="11308" user="samc" changeset="171555">
    <nd ref="154504392"/>
    <nd ref="154504429"/>
    <nd ref="12657746"/>
    <tag k="created_by" v="JOSM"/>
    <tag k="highway" v="secondary"/>
    <tag k="name" v="Gundaroo Drive"/>
  </way>
  <way id="15497327" version="2" timestamp="2008-04-10T23:08:39Z" uid="12434" user="nm7s9" changeset="109231">
    <nd ref="154504392"/>
    <nd ref="154504429"/>
    <nd ref="12657746"/>
    <tag k="created_by" v="JOSM"/>
    <tag k="highway" v="secondary"/>
    <tag k="name" v="Gundaroo Drive"/>
    <tag k="oneway" v="yes"/>
  </way>
  <way id="15497327" version="3" timestamp="2010-08-17T23:52:26Z" uid="79475" user="AlexOnTheBus" changeset="5522678">
    <nd ref="154504392"/>
    <nd ref="154504429"/>
    <nd ref="12657746"/>
    <tag k="highway" v="primary"/>
    <tag k="name" v="Gundaroo Drive"/>
    <tag k="oneway" v="yes"/>
  </way>
  <way id="15497327" version="4" timestamp="2011-12-20T11:04:40Z" uid="12434" user="nm7s9" changeset="10162524">
    <nd ref="154504429"/>
    <nd ref="12657746"/>
    <tag k="highway" v="primary"/>
    <tag k="name" v="Gundaroo Drive"/>
    <tag k="oneway" v="yes"/>
  </way>
  <way id="15497327" version="5" timestamp="2011-12-20T11:11:47Z" uid="12434" user="nm7s9" changeset="10162573"/>
  <way id="15497908" version="2" timestamp="2010-03-27T22:19:47Z" uid="20587" user="balrog-kun" changeset="4250871">
    <nd ref="123672105"/>
    <nd ref="123066504"/>
    <tag k="created_by" v="JOSM"/>
    <tag k="highway" v="residential"/>
    <tag k="name" v="North Isabel Street"/>
    <tag k="tiger:cfcc" v="A41"/>
    <tag k="tiger:county" v="Los Angeles, CA"/>
    <tag k="tiger:name_base" v="Isabel"/>
    <tag k="tiger:name_direction_prefix" v="N"/>
    <tag k="tiger:name_type" v="St"/>
    <tag k="tiger:separated" v="no"/>
    <tag k="tiger:source" v="tiger_import_dch_v0.6_20070809"/>
    <tag k="tiger:tlid" v="141608900:141608908:141610128:141610131:141608896"/>
    <tag k="tiger:zip_left" v="91206"/>
    <tag k="tiger:zip_right" v="91206"/>
  </way>
  <way id="15497908" version="3" timestamp="2011-04-10T17:55:01Z" uid="36489" user="jerjozwik" changeset="7825589">
    <nd ref="123672105"/>
    <nd ref="1240143862"/>
    <nd ref="123066504"/>
    <tag k="highway" v="residential"/>
    <tag k="name" v="North Isabel Street"/>
  </way>
  <way id="15497920" version="6" timestamp="2010-03-27T22:19:47Z" uid="20587" user="balrog-kun" changeset="4250871">
    <nd ref="154510103"/>
    <nd ref="26880568"/>
    <nd ref="122684714"/>
    <nd ref="26880583"/>
    <nd ref="26880601"/>
    <tag k="created_by" v="Potlatch 0.10f"/>
    <tag k="highway" v="residential"/>
    <tag k="name" v="Glenoaks Boulevard North"/>
  </way>
  <way id="15497920" version="7" timestamp="2011-04-29T14:57:48Z" uid="36489" user="jerjozwik" changeset="8004167">
    <nd ref="154510103"/>
    <nd ref="26880568"/>
    <nd ref="122684714"/>
    <nd ref="26880583"/>
    <nd ref="1265037749"/>
    <nd ref="1265037750"/>
    <nd ref="1265037752"/>
    <nd ref="1265037756"/>
    <nd ref="26880601"/>
    <tag k="highway" v="residential"/>
    <tag k="name" v="Glenoaks Boulevard North"/>
  </way>
  <way id="15497908" version="4" timestamp="2012-06-11T01:30:25Z" uid="104962" user="techlady" changeset="11860493"/>
  <way id="15497920" version="8" timestamp="2012-06-23T20:57:53Z" uid="104962" user="techlady" changeset="11992135"/>
</osm>
