<?xml version='1.0' encoding='UTF-8'?>
<osm version="0.6" generator="libosmium/2.20.0">
  <way id="15581674" version="7" timestamp="2010-12-21T00:39:50Z" uid="6269" user="Mueck" changeset="6721616">
    <nd ref="192460549"/>
    <nd ref="1053027085"/>
    <nd ref="192460550"/>
    <tag k="highway" v="unclassified"/>
    <tag k="maxspeed" v="50"/>
    <tag k="name" v="Adolf-Kolping-Straße"/>
    <tag k="oneway" v="yes"/>
    <tag k="surface" v="paved"/>
  </way>
  <way id="15581674" version="8" timestamp="2012-03-04T19:43:28Z" uid="45882" user="smarties" changeset="10873020">
    <nd ref="1659476897"/>
    <nd ref="1053027085"/>
    <nd ref="192460550"/>
    <tag k="highway" v="unclassified"/>
    <tag k="maxspeed" v="50"/>
    <tag k="name" v="Adolf-Kolping-Straße"/>
    <tag k="oneway" v="yes"/>
    <tag k="surface" v="paved"/>
  </way>
  <way id="15581674" version="9" timestamp="2012-04-09T08:50:34Z" uid="114813" user="Chrisuu" changeset="11234694">
    <nd ref="1659476897"/>
    <nd ref="1053027085"/>
    <nd ref="1708086267"/>
    <nd ref="192460550"/>
    <tag k="highway" v="unclassified"/>
    <tag k="maxspeed" v="50"/>
    <tag k="name" v="Adolf-Kolping-Straße"/>
    <tag k="oneway" v="yes"/>
    <tag k="surface" v="paved"/>
  </way>
  <way id="15581674" version="10" timestamp="2012-07-17T10:01:35Z" uid="722137" user="OSMF Redaction Account" changeset="12262402">
    <nd ref="1659476897"/>
    <nd ref="1708086267"/>
    <nd ref="192460550"/>
    <tag k="highway" v="unclassified"/>
    <tag k="maxspeed" v="50"/>
    <tag k="name" v="Adolf-Kolping-Straße"/>
    <tag k="oneway" v="yes"/>
    <tag k="surface" v="paved"/>
  </way>
  <way id="15581674" version="11" timestamp="2012-07-23T09:49:01Z" uid="61005" user="nkbre" changeset="12447245">
    <nd ref="1659476897"/>
    <nd ref="1835141727"/>
    <nd ref="1708086267"/>
    <nd ref="192460550"/>
    <tag k="highway" v="unclassified"/>
    <tag k="maxspeed" v="50"/>
    <tag k="name" v="Adolf-Kolping-Straße"/>
    <tag k="oneway" v="yes"/>
    <tag k="surface" v="paved"/>
  </way>
</osm>
