<?xml version='1.0' encoding='UTF-8'?>
<osm version="0.6" generator="libosmium/2.20.0">
  <way id="15597234" version="13" timestamp="2010-03-14T20:58:05Z" uid="163746" user="anti_bot-nonsense" changeset="4128666">
    <nd ref="155552375"/>
    <nd ref="155560009"/>
    <nd ref="155560011"/>
    <tag k="highway" v="secondary"/>
    <tag k="name" v="Roosevelta"/>
    <tag k="oneway" v="yes"/>
  </way>
  <way id="15597234" version="14" timestamp="2011-08-24T12:58:03Z" uid="19417" user="xjr" changeset="9112365">
    <nd ref="155552373"/>
    <nd ref="155560009"/>
    <nd ref="155560011"/>
    <tag k="highway" v="secondary"/>
    <tag k="name" v="Roosevelta"/>
    <tag k="oneway" v="yes"/>
  </way>
  <way id="15597234" version="15" timestamp="2011-09-08T15:55:02Z" uid="88909" user="miko101" changeset="9246857">
    <nd ref="155552373"/>
    <nd ref="155560009"/>
    <nd ref="1427106353"/>
    <nd ref="1427106360"/>
    <tag k="access" v="no"/>
    <tag k="highway" v="secondary"/>
    <tag k="name" v="Roosevelta"/>
    <tag k="oneway" v="yes"/>
  </way>
  <way id="15597398" version="3" timestamp="2009-04-10T05:43:42Z" uid="61114" user="Trav" changeset="387666">
    <nd ref="154175515"/>
    <nd ref="155561019"/>
    <nd ref="155561078"/>
    <nd ref="155561156"/>
    <nd ref="155561101"/>
    <nd ref="154187808"/>
    <nd ref="155567935"/>
    <nd ref="155561189"/>
    <nd ref="155561256"/>
    <nd ref="155561046"/>
    <nd ref="155561127"/>
    <nd ref="155561225"/>
    <tag k="created_by" v="Merkaartor 0.14"/>
    <tag k="highway" v="residential"/>
    <tag k="name" v="Maxwell Street"/>
    <tag k="source:name" v="survey"/>
  </way>
  <way id="15597398" version="4" timestamp="2010-03-05T07:11:49Z" uid="7617" user="Franc" changeset="4038445">
    <nd ref="154175515"/>
    <nd ref="155561019"/>
    <nd ref="155561078"/>
    <nd ref="155561156"/>
    <nd ref="154187808"/>
    <nd ref="155567935"/>
    <nd ref="155561256"/>
    <nd ref="155561046"/>
    <nd ref="155561127"/>
    <nd ref="155561225"/>
    <tag k="highway" v="residential"/>
    <tag k="name" v="Maxwell Street"/>
    <tag k="source:name" v="survey"/>
  </way>
  <way id="15597398" version="5" timestamp="2010-07-07T23:23:59Z" uid="74617" user="JohnSmith" changeset="5162525">
    <nd ref="154175515"/>
    <nd ref="155561019"/>
    <nd ref="155561078"/>
    <nd ref="155561156"/>
    <nd ref="154187808"/>
    <nd ref="155567935"/>
    <nd ref="155561256"/>
    <nd ref="155561046"/>
    <nd ref="155561127"/>
    <nd ref="155561225"/>
    <tag k="highway" v="residential"/>
    <tag k="maxspeed" v="50"/>
    <tag k="maxspeed:source" v="default residential speed limit in Australia"/>
    <tag k="name" v="Maxwell Street"/>
    <tag k="source:name" v="survey"/>
  </way>
  <way id="15597398" version="6" timestamp="2012-01-15T13:53:02Z" uid="147510" user="woodpeck_fixbot" changeset="10397711">
    <nd ref="154175515"/>
    <nd ref="155561019"/>
    <nd ref="155561078"/>
    <nd ref="155561156"/>
    <nd ref="154187808"/>
    <nd ref="155567935"/>
    <nd ref="155561256"/>
    <nd ref="155561046"/>
    <nd ref="155561127"/>
    <nd ref="155561225"/>
    <tag k="highway" v="residential"/>
    <tag k="name" v="Maxwell Street"/>
    <tag k="source:name" v="survey"/>
  </way>
  <way id="15597404" version="2" timestamp="2009-04-10T05:43:51Z" uid="61114" user="Trav" changeset="387666">
    <nd ref="154163063"/>
    <nd ref="155561256"/>
    <tag k="created_by" v="Merkaartor 0.14"/>
    <tag k="highway" v="residential"/>
    <tag k="name" v="Government Road"/>
    <tag k="source:name" v="survey"/>
  </way>
  <way id="15597404" version="3" timestamp="2010-07-07T23:24:57Z" uid="74617" user="JohnSmith" changeset="5162525">
    <nd ref="154163063"/>
    <nd ref="155561256"/>
    <tag k="highway" v="residential"/>
    <tag k="maxspeed" v="50"/>
    <tag k="maxspeed:source" v="default residential speed limit in Australia"/>
    <tag k="name" v="Government Road"/>
    <tag k="source:name" v="survey"/>
  </way>
  <way id="15597404" version="4" timestamp="2012-01-15T13:53:03Z" uid="147510" user="woodpeck_fixbot" changeset="10397711">
    <nd ref="154163063"/>
    <nd ref="155561256"/>
    <tag k="highway" v="residential"/>
    <tag k="name" v="Government Road"/>
    <tag k="source:name" v="survey"/>
  </way>
  <way id="15597234" version="16" timestamp="2012-04-18T08:43:48Z" uid="37137" user="Derick Rethans" changeset="11341400">
    <nd ref="155552373"/>
    <nd ref="1721571856"/>
    <nd ref="155560009"/>
    <nd ref="1427106353"/>
    <nd ref="1427106360"/>
    <tag k="access" v="no"/>
    <tag k="highway" v="secondary"/>
    <tag k="name" v="Roosevelta"/>
    <tag k="oneway" v="yes"/>
  </way>
  <way id="15597234" version="17" timestamp="2012-04-27T13:50:57Z" uid="88909" user="miko101" changeset="11432862">
    <nd ref="155552373"/>
    <nd ref="1721571856"/>
    <nd ref="155560009"/>
    <nd ref="1427106353"/>
    <nd ref="1427106360"/>
    <tag k="access" v="no"/>
    <tag k="highway" v="secondary"/>
    <tag k="lit" v="yes"/>
    <tag k="name" v="Roosevelta"/>
    <tag k="oneway" v="yes"/>
  </way>
  <way id="15597234" version="18" timestamp="2012-06-08T11:08:21Z" uid="68670" user="Leinad_pl" changeset="11834048">
    <nd ref="155552373"/>
    <nd ref="1721571856"/>
    <nd ref="155560009"/>
    <nd ref="1427106353"/>
    <nd ref="1427106360"/>
    <tag k="highway" v="secondary"/>
    <tag k="lit" v="yes"/>
    <tag k="name" v="Roosevelta"/>
    <tag k="oneway" v="yes"/>
  </way>
  <way id="15597234" version="19" timestamp="2012-06-30T13:16:37Z" uid="88909" user="miko101" changeset="12065710">
    <nd ref="155552373"/>
    <nd ref="1721571856"/>
    <nd ref="155560009"/>
    <nd ref="1427106353"/>
    <nd ref="1427106360"/>
    <tag k="highway" v="secondary"/>
    <tag k="lit" v="yes"/>
    <tag k="name" v="Franklina Roosevelta"/>
    <tag k="note" v="Tabliczki z nazwą ulicy podają &quot;Franklina Roosevelta&quot;"/>
    <tag k="oneway" v="yes"/>
    <tag k="source:name" v="local_knowledge"/>
  </way>
  <way id="15597398" version="7" timestamp="2012-07-19T16:15:35Z" uid="722137" user="OSMF Redaction Account" changeset="12338343">
    <nd ref="154175515"/>
    <nd ref="155561019"/>
    <nd ref="155561078"/>
    <nd ref="155561156"/>
    <nd ref="154187808"/>
    <nd ref="155567935"/>
    <nd ref="155561256"/>
    <nd ref="155561046"/>
    <nd ref="155561127"/>
    <nd ref="155561225"/>
    <tag k="highway" v="residential"/>
  </way>
  <way id="15597404" version="5" timestamp="2012-07-19T16:15:35Z" uid="722137" user="OSMF Redaction Account" changeset="12338343">
    <nd ref="154163063"/>
    <nd ref="155561256"/>
    <tag k="highway" v="residential"/>
  </way>
</osm>
