<?xml version='1.0' encoding='UTF-8'?>
<osm version="0.6" generator="libosmium/2.20.0">
  <way id="15596010" version="4" timestamp="2010-03-14T20:58:10Z" uid="163746" user="anti_bot-nonsense" changeset="4128666">
    <nd ref="155550222"/>
    <nd ref="155550896"/>
    <nd ref="155552373"/>
    <tag k="highway" v="secondary"/>
    <tag k="name" v="Zwierzyniecka"/>
    <tag k="oneway" v="yes"/>
  </way>
  <way id="15596010" version="5" timestamp="2011-09-08T15:55:00Z" uid="88909" user="miko101" changeset="9246857">
    <nd ref="155550222"/>
    <nd ref="155550896"/>
    <nd ref="155552373"/>
    <tag k="access" v="no"/>
    <tag k="highway" v="secondary"/>
    <tag k="name" v="Zwierzyniecka"/>
    <tag k="oneway" v="yes"/>
  </way>
  <way id="15596010" version="6" timestamp="2012-01-22T22:29:52Z" uid="88909" user="miko101" changeset="10470772">
    <nd ref="155550222"/>
    <nd ref="155550896"/>
    <nd ref="1601765678"/>
    <nd ref="155552373"/>
    <tag k="access" v="no"/>
    <tag k="highway" v="secondary"/>
    <tag k="name" v="Zwierzyniecka"/>
    <tag k="oneway" v="yes"/>
  </way>
  <way id="15596010" version="7" timestamp="2012-03-05T22:14:34Z" uid="88909" user="miko101" changeset="10885213">
    <nd ref="155550222"/>
    <nd ref="155550896"/>
    <nd ref="1601765678"/>
    <nd ref="155552373"/>
    <tag k="highway" v="secondary"/>
    <tag k="name" v="Zwierzyniecka"/>
    <tag k="oneway" v="yes"/>
  </way>
  <way id="15596191" version="13" timestamp="2009-06-05T22:33:29Z" uid="20587" user="balrog-kun" changeset="1433663">
    <nd ref="155552378"/>
    <nd ref="155552379"/>
    <nd ref="155552380"/>
    <nd ref="155552381"/>
    <nd ref="155552373"/>
    <nd ref="155552375"/>
    <nd ref="155552376"/>
    <nd ref="155552377"/>
    <tag k="created_by" v="Potlatch 0.10f"/>
    <tag k="highway" v="secondary"/>
    <tag k="junction" v="roundabout"/>
    <tag k="name" v="Rondo Kaponiera"/>
  </way>
  <way id="15596191" version="14" timestamp="2009-08-03T09:38:16Z" uid="19417" user="xjr" changeset="2023374">
    <nd ref="155552378"/>
    <nd ref="155552379"/>
    <nd ref="454990508"/>
    <nd ref="155552380"/>
    <nd ref="155552381"/>
    <nd ref="454990509"/>
    <nd ref="155552373"/>
    <nd ref="155552375"/>
    <nd ref="454990510"/>
    <nd ref="155552376"/>
    <nd ref="155552377"/>
    <tag k="created_by" v="Potlatch 0.10f"/>
    <tag k="highway" v="secondary"/>
    <tag k="junction" v="roundabout"/>
    <tag k="name" v="Rondo Kaponiera"/>
  </way>
  <way id="15596191" version="15" timestamp="2009-12-06T23:06:01Z" uid="20587" user="balrog-kun" changeset="3311402">
    <nd ref="155552378"/>
    <nd ref="155552379"/>
    <nd ref="454990508"/>
    <nd ref="155552380"/>
    <nd ref="155552381"/>
    <nd ref="454990509"/>
    <nd ref="155552373"/>
    <nd ref="155552375"/>
    <nd ref="454990510"/>
    <nd ref="155552376"/>
    <nd ref="155552377"/>
    <tag k="highway" v="secondary"/>
    <tag k="junction" v="roundabout"/>
    <tag k="name" v="Rondo Kaponiera"/>
    <tag k="old_name" v="Rondo Mikołaja Kopernika"/>
  </way>
  <way id="15596191" version="16" timestamp="2011-08-24T12:58:02Z" uid="19417" user="xjr" changeset="9112365">
    <nd ref="155552378"/>
    <nd ref="1411216101"/>
    <nd ref="454990508"/>
    <nd ref="155552380"/>
    <nd ref="1411216094"/>
    <nd ref="454990509"/>
    <nd ref="155552373"/>
    <nd ref="1411216072"/>
    <nd ref="454990510"/>
    <nd ref="155552376"/>
    <tag k="highway" v="secondary"/>
    <tag k="junction" v="roundabout"/>
    <tag k="name" v="Rondo Kaponiera"/>
    <tag k="old_name" v="Rondo Mikołaja Kopernika"/>
  </way>
  <way id="15596191" version="17" timestamp="2011-09-10T19:10:22Z" uid="91056" user="Yarl" changeset="9264888">
    <nd ref="155552378"/>
    <nd ref="1411216101"/>
    <nd ref="454990508"/>
    <nd ref="155552380"/>
    <nd ref="1411216094"/>
    <nd ref="454990509"/>
    <nd ref="155552373"/>
    <nd ref="1411216072"/>
    <nd ref="454990510"/>
    <nd ref="155552376"/>
    <tag k="highway" v="secondary"/>
    <tag k="junction" v="roundabout"/>
    <tag k="name" v="Rondo Kaponiera"/>
    <tag k="old_name" v="Rondo Mikołaja Kopernika"/>
    <tag k="wikipedia" v="pl:Rondo Kaponiera"/>
  </way>
  <way id="15596191" version="18" timestamp="2012-01-22T22:28:20Z" uid="88909" user="miko101" changeset="10470755"/>
  <way id="15596394" version="8" timestamp="2010-03-14T20:58:09Z" uid="163746" user="anti_bot-nonsense" changeset="4128666">
    <nd ref="155552381"/>
    <nd ref="454990512"/>
    <nd ref="155553902"/>
    <nd ref="257432789"/>
    <nd ref="243971313"/>
    <nd ref="155550222"/>
    <tag k="highway" v="secondary"/>
    <tag k="name" v="Zwierzyniecka"/>
    <tag k="oneway" v="yes"/>
  </way>
  <way id="15596394" version="9" timestamp="2011-03-19T10:13:20Z" uid="338611" user="marek kleciak" changeset="7603011">
    <nd ref="155552381"/>
    <nd ref="454990512"/>
    <nd ref="155553902"/>
    <nd ref="1208602587"/>
    <nd ref="257432789"/>
    <nd ref="243971313"/>
    <nd ref="155550222"/>
    <tag k="highway" v="secondary"/>
    <tag k="name" v="Zwierzyniecka"/>
    <tag k="oneway" v="yes"/>
  </way>
  <way id="15596394" version="10" timestamp="2011-08-24T12:58:04Z" uid="19417" user="xjr" changeset="9112365">
    <nd ref="155552380"/>
    <nd ref="454990512"/>
    <nd ref="155553902"/>
    <nd ref="1208602587"/>
    <nd ref="257432789"/>
    <nd ref="243971313"/>
    <nd ref="155550222"/>
    <tag k="highway" v="secondary"/>
    <tag k="name" v="Zwierzyniecka"/>
    <tag k="oneway" v="yes"/>
  </way>
  <way id="15596576" version="13" timestamp="2009-06-29T11:49:39Z" uid="20587" user="balrog-kun" changeset="1676112">
    <nd ref="126151461"/>
    <nd ref="198037831"/>
    <nd ref="318225197"/>
    <nd ref="126151455"/>
    <nd ref="314821661"/>
    <nd ref="257432788"/>
    <nd ref="314821682"/>
    <nd ref="318225988"/>
    <nd ref="257432786"/>
    <nd ref="318225989"/>
    <nd ref="430725116"/>
    <nd ref="430725118"/>
    <nd ref="160619836"/>
    <nd ref="160619838"/>
    <tag k="created_by" v="Potlatch 0.10f"/>
    <tag k="highway" v="tertiary"/>
    <tag k="name" v="Jana Henryka Dąbrowskiego"/>
  </way>
  <way id="15596576" version="14" timestamp="2009-06-29T11:54:10Z" uid="20587" user="balrog-kun" changeset="1676160">
    <nd ref="126151461"/>
    <nd ref="198037831"/>
    <nd ref="318225197"/>
    <nd ref="126151455"/>
    <nd ref="314821661"/>
    <nd ref="257432788"/>
    <nd ref="430726118"/>
    <nd ref="314821682"/>
    <nd ref="430726117"/>
    <nd ref="318225988"/>
    <nd ref="257432786"/>
    <nd ref="430726113"/>
    <nd ref="318225989"/>
    <nd ref="430725116"/>
    <nd ref="430725118"/>
    <nd ref="160619836"/>
    <nd ref="160619838"/>
    <tag k="created_by" v="Potlatch 0.10f"/>
    <tag k="highway" v="tertiary"/>
    <tag k="name" v="Jana Henryka Dąbrowskiego"/>
  </way>
  <way id="15596576" version="15" timestamp="2009-07-01T03:20:54Z" uid="20587" user="balrog-kun" changeset="1697137">
    <nd ref="126151461"/>
    <nd ref="198039857"/>
    <nd ref="198037831"/>
    <nd ref="318225197"/>
    <nd ref="126151455"/>
    <nd ref="314821661"/>
    <nd ref="257432788"/>
    <nd ref="430726118"/>
    <nd ref="314821682"/>
    <nd ref="430726117"/>
    <nd ref="318225988"/>
    <nd ref="257432786"/>
    <nd ref="430726113"/>
    <nd ref="318225989"/>
    <nd ref="430725116"/>
    <nd ref="430725118"/>
    <nd ref="160619836"/>
    <nd ref="160619838"/>
    <tag k="created_by" v="Potlatch 0.10f"/>
    <tag k="highway" v="tertiary"/>
    <tag k="name" v="Jana Henryka Dąbrowskiego"/>
  </way>
  <way id="15596576" version="16" timestamp="2009-08-03T09:38:11Z" uid="19417" user="xjr" changeset="2023374">
    <nd ref="454990498"/>
    <nd ref="454990499"/>
    <nd ref="198037831"/>
    <nd ref="318225197"/>
    <nd ref="454990500"/>
    <tag k="created_by" v="Potlatch 0.10f"/>
    <tag k="highway" v="tertiary"/>
    <tag k="name" v="Jana Henryka Dąbrowskiego"/>
  </way>
  <way id="15596576" version="17" timestamp="2009-12-06T23:06:02Z" uid="20587" user="balrog-kun" changeset="3311402">
    <nd ref="454990498"/>
    <nd ref="582752614"/>
    <nd ref="454990499"/>
    <nd ref="582752613"/>
    <nd ref="198037831"/>
    <nd ref="318225197"/>
    <nd ref="454990500"/>
    <tag k="highway" v="tertiary"/>
    <tag k="name" v="Jana Henryka Dąbrowskiego"/>
  </way>
  <way id="15596576" version="18" timestamp="2009-12-08T22:29:16Z" uid="123700" user="Mala" changeset="3328988">
    <nd ref="454990498"/>
    <nd ref="582752614"/>
    <nd ref="454990499"/>
    <nd ref="582752613"/>
    <nd ref="198037831"/>
    <nd ref="583405167"/>
    <nd ref="318225197"/>
    <nd ref="454990500"/>
    <tag k="highway" v="tertiary"/>
    <tag k="name" v="Jana Henryka Dąbrowskiego"/>
  </way>
  <way id="15596576" version="19" timestamp="2011-09-27T21:39:37Z" uid="88909" user="miko101" changeset="9415133">
    <nd ref="454990498"/>
    <nd ref="582752614"/>
    <nd ref="454990499"/>
    <nd ref="582752613"/>
    <nd ref="198037831"/>
    <nd ref="583405167"/>
    <nd ref="318225197"/>
    <nd ref="454990500"/>
    <tag k="highway" v="tertiary"/>
    <tag k="name" v="Jana Henryka Dąbrowskiego"/>
    <tag k="oneway" v="yes"/>
  </way>
  <way id="15596780" version="2" timestamp="2007-12-30T17:53:03Z" uid="12188" user="Babis" changeset="481902">
    <nd ref="155540010"/>
    <nd ref="155556636"/>
    <nd ref="155556638"/>
    <nd ref="155556639"/>
    <nd ref="155556640"/>
    <nd ref="155556641"/>
    <nd ref="155556642"/>
    <nd ref="155556644"/>
    <nd ref="155556645"/>
    <nd ref="155556647"/>
    <nd ref="155556648"/>
    <nd ref="155556649"/>
    <nd ref="155556650"/>
    <nd ref="155556651"/>
    <nd ref="155556652"/>
    <nd ref="155556654"/>
    <nd ref="155556655"/>
    <nd ref="155556656"/>
    <nd ref="155556657"/>
    <nd ref="155556658"/>
    <nd ref="155556659"/>
    <nd ref="155556660"/>
    <nd ref="155556661"/>
    <nd ref="155556662"/>
    <nd ref="36433061"/>
    <nd ref="36433062"/>
    <nd ref="36433063"/>
    <nd ref="36433064"/>
    <nd ref="36433065"/>
    <nd ref="36433066"/>
    <nd ref="36433067"/>
    <nd ref="36433068"/>
    <nd ref="36433069"/>
    <nd ref="36433070"/>
    <nd ref="26734954"/>
    <tag k="created_by" v="Potlatch 0.6"/>
    <tag k="highway" v="trunk"/>
    <tag k="name" v="Poseidonos"/>
    <tag k="oneway" v="yes"/>
  </way>
  <way id="15596780" version="3" timestamp="2008-03-05T08:24:50Z" uid="14235" user="AiNikolas" changeset="269940">
    <nd ref="155540010"/>
    <nd ref="155556636"/>
    <nd ref="155556638"/>
    <nd ref="155556639"/>
    <nd ref="155556640"/>
    <nd ref="155556641"/>
    <nd ref="155556642"/>
    <nd ref="155556644"/>
    <nd ref="155556645"/>
    <nd ref="155556647"/>
    <nd ref="155556648"/>
    <nd ref="155556649"/>
    <nd ref="155556650"/>
    <nd ref="250660334"/>
    <nd ref="155556651"/>
    <nd ref="155556652"/>
    <nd ref="155556654"/>
    <nd ref="155556655"/>
    <nd ref="155556656"/>
    <nd ref="155556657"/>
    <nd ref="155556658"/>
    <nd ref="155556659"/>
    <nd ref="155556660"/>
    <nd ref="155556661"/>
    <nd ref="155556662"/>
    <nd ref="36433061"/>
    <nd ref="36433062"/>
    <nd ref="36433063"/>
    <nd ref="36433064"/>
    <nd ref="36433065"/>
    <nd ref="36433066"/>
    <nd ref="36433067"/>
    <nd ref="36433068"/>
    <nd ref="36433069"/>
    <nd ref="36433070"/>
    <nd ref="26734954"/>
    <tag k="created_by" v="Potlatch 0.7b"/>
    <tag k="highway" v="trunk"/>
    <tag k="name" v="Poseidonos"/>
    <tag k="oneway" v="yes"/>
  </way>
  <way id="15596780" version="4" timestamp="2008-03-05T09:02:32Z" uid="14235" user="AiNikolas" changeset="269940">
    <nd ref="155540010"/>
    <nd ref="155556636"/>
    <nd ref="155556638"/>
    <nd ref="155556639"/>
    <nd ref="155556640"/>
    <nd ref="155556641"/>
    <nd ref="155556642"/>
    <nd ref="155556644"/>
    <nd ref="155556645"/>
    <nd ref="155556647"/>
    <nd ref="155556648"/>
    <nd ref="155556649"/>
    <nd ref="155556650"/>
    <nd ref="250660334"/>
    <tag k="created_by" v="Potlatch 0.7b"/>
    <tag k="highway" v="trunk"/>
    <tag k="name" v="Poseidonos"/>
    <tag k="oneway" v="yes"/>
  </way>
  <way id="15596780" version="5" timestamp="2009-11-28T18:54:32Z" uid="23785" user="Simon Kokolakis" changeset="3239096"/>
  <way id="15596843" version="5" timestamp="2010-03-16T21:58:43Z" uid="163746" user="anti_bot-nonsense" changeset="4147354">
    <nd ref="126151498"/>
    <nd ref="280465173"/>
    <nd ref="126151493"/>
    <tag k="bridge" v="yes"/>
    <tag k="highway" v="secondary"/>
    <tag k="layer" v="1"/>
    <tag k="name" v="Most Uniwersytecki"/>
    <tag k="oneway" v="yes"/>
  </way>
  <way id="15596843" version="6" timestamp="2011-01-05T20:58:32Z" uid="101884" user="Antwelm" changeset="6876197">
    <nd ref="126151498"/>
    <nd ref="280465173"/>
    <nd ref="126151493"/>
    <nd ref="871239450"/>
    <tag k="bridge" v="yes"/>
    <tag k="highway" v="secondary"/>
    <tag k="layer" v="1"/>
    <tag k="name" v="Most Uniwersytecki"/>
    <tag k="oneway" v="yes"/>
  </way>
  <way id="15596843" version="7" timestamp="2011-08-24T12:58:02Z" uid="19417" user="xjr" changeset="9112365">
    <nd ref="126151498"/>
    <nd ref="280465173"/>
    <nd ref="1411216085"/>
    <nd ref="126151493"/>
    <nd ref="871239450"/>
    <tag k="bridge" v="yes"/>
    <tag k="highway" v="secondary"/>
    <tag k="layer" v="1"/>
    <tag k="name" v="Most Uniwersytecki"/>
    <tag k="oneway" v="yes"/>
  </way>
  <way id="15596843" version="8" timestamp="2011-09-10T10:48:00Z" uid="91056" user="Yarl" changeset="9261094">
    <nd ref="126151498"/>
    <nd ref="280465173"/>
    <nd ref="1411216085"/>
    <nd ref="126151493"/>
    <nd ref="871239450"/>
    <tag k="bridge" v="yes"/>
    <tag k="highway" v="tertiary"/>
    <tag k="layer" v="1"/>
    <tag k="name" v="Most Uniwersytecki"/>
    <tag k="oneway" v="yes"/>
  </way>
  <way id="15596010" version="8" timestamp="2012-04-18T08:43:48Z" uid="37137" user="Derick Rethans" changeset="11341400">
    <nd ref="155550222"/>
    <nd ref="1721571900"/>
    <nd ref="155550896"/>
    <nd ref="1721571880"/>
    <nd ref="1601765678"/>
    <nd ref="155552373"/>
    <tag k="highway" v="secondary"/>
    <tag k="name" v="Zwierzyniecka"/>
    <tag k="oneway" v="yes"/>
  </way>
  <way id="15596010" version="9" timestamp="2012-04-27T13:51:02Z" uid="88909" user="miko101" changeset="11432862">
    <nd ref="155550222"/>
    <nd ref="1721571900"/>
    <nd ref="155550896"/>
    <nd ref="1721571880"/>
    <nd ref="1601765678"/>
    <nd ref="155552373"/>
    <tag k="highway" v="secondary"/>
    <tag k="lit" v="yes"/>
    <tag k="name" v="Zwierzyniecka"/>
    <tag k="oneway" v="yes"/>
  </way>
  <way id="15596010" version="10" timestamp="2012-06-14T13:13:05Z" uid="88909" user="miko101" changeset="11895181">
    <nd ref="155550222"/>
    <nd ref="1787260628"/>
    <nd ref="1721571900"/>
    <nd ref="155550896"/>
    <nd ref="1721571880"/>
    <nd ref="1601765678"/>
    <nd ref="155552373"/>
    <tag k="highway" v="secondary"/>
    <tag k="lit" v="yes"/>
    <tag k="name" v="Zwierzyniecka"/>
    <tag k="oneway" v="yes"/>
  </way>
  <way id="15596010" version="11" timestamp="2012-08-13T08:41:52Z" uid="641600" user="piottr" changeset="12710764">
    <nd ref="155550222"/>
    <nd ref="1787260628"/>
    <nd ref="1864017594"/>
    <nd ref="1721571900"/>
    <nd ref="155550896"/>
    <nd ref="1721571880"/>
    <nd ref="1601765678"/>
    <nd ref="155552373"/>
    <tag k="highway" v="secondary"/>
    <tag k="lit" v="yes"/>
    <tag k="name" v="Zwierzyniecka"/>
    <tag k="oneway" v="yes"/>
  </way>
  <way id="15596394" version="11" timestamp="2012-04-27T13:51:02Z" uid="88909" user="miko101" changeset="11432862">
    <nd ref="155552380"/>
    <nd ref="454990512"/>
    <nd ref="155553902"/>
    <nd ref="1208602587"/>
    <nd ref="257432789"/>
    <nd ref="243971313"/>
    <nd ref="155550222"/>
    <tag k="highway" v="secondary"/>
    <tag k="lit" v="yes"/>
    <tag k="name" v="Zwierzyniecka"/>
    <tag k="oneway" v="yes"/>
  </way>
  <way id="15596394" version="12" timestamp="2012-06-14T14:06:22Z" uid="88909" user="miko101" changeset="11895661">
    <nd ref="155552380"/>
    <nd ref="454990512"/>
    <nd ref="155553902"/>
    <nd ref="1208602587"/>
    <nd ref="257432789"/>
    <tag k="highway" v="secondary"/>
    <tag k="lit" v="yes"/>
    <tag k="name" v="Zwierzyniecka"/>
    <tag k="oneway" v="yes"/>
  </way>
  <way id="15596394" version="13" timestamp="2012-07-17T07:35:30Z" uid="722137" user="OSMF Redaction Account" changeset="12259568">
    <nd ref="155552380"/>
    <nd ref="454990512"/>
    <nd ref="155553902"/>
    <nd ref="1208602587"/>
    <tag k="highway" v="secondary"/>
    <tag k="lit" v="yes"/>
    <tag k="name" v="Zwierzyniecka"/>
    <tag k="oneway" v="yes"/>
  </way>
  <way id="15596394" version="14" timestamp="2012-07-24T19:12:38Z" uid="88909" user="miko101" changeset="12474270">
    <nd ref="155552380"/>
    <nd ref="454990512"/>
    <nd ref="155553902"/>
    <nd ref="1208602587"/>
    <nd ref="257432789"/>
    <tag k="highway" v="secondary"/>
    <tag k="lit" v="yes"/>
    <tag k="name" v="Zwierzyniecka"/>
    <tag k="oneway" v="yes"/>
  </way>
  <way id="15596394" version="15" timestamp="2012-07-27T06:02:01Z" uid="88909" user="miko101" changeset="12507129">
    <nd ref="155552380"/>
    <nd ref="454990512"/>
    <nd ref="155553902"/>
    <nd ref="1208602587"/>
    <nd ref="1839464911"/>
    <nd ref="257432789"/>
    <tag k="highway" v="secondary"/>
    <tag k="lit" v="yes"/>
    <tag k="name" v="Zwierzyniecka"/>
    <tag k="oneway" v="yes"/>
  </way>
  <way id="15596394" version="16" timestamp="2012-08-13T08:41:52Z" uid="641600" user="piottr" changeset="12710764">
    <nd ref="155552380"/>
    <nd ref="454990512"/>
    <nd ref="155553902"/>
    <nd ref="1208602587"/>
    <nd ref="1839464911"/>
    <tag k="access" v="no"/>
    <tag k="highway" v="construction"/>
    <tag k="lit" v="yes"/>
    <tag k="name" v="Zwierzyniecka"/>
    <tag k="oneway" v="yes"/>
  </way>
  <way id="15596394" version="17" timestamp="2012-08-14T17:31:55Z" uid="88909" user="miko101" changeset="12729596">
    <nd ref="155552380"/>
    <nd ref="454990512"/>
    <nd ref="155553902"/>
    <nd ref="1208602587"/>
    <nd ref="1839464911"/>
    <tag k="access" v="no"/>
    <tag k="construction" v="secondary"/>
    <tag k="highway" v="construction"/>
    <tag k="lit" v="yes"/>
    <tag k="name" v="Zwierzyniecka"/>
    <tag k="oneway" v="yes"/>
  </way>
  <way id="15596576" version="20" timestamp="2012-04-27T13:51:10Z" uid="88909" user="miko101" changeset="11432862">
    <nd ref="454990498"/>
    <nd ref="582752614"/>
    <nd ref="454990499"/>
    <nd ref="582752613"/>
    <nd ref="198037831"/>
    <nd ref="583405167"/>
    <nd ref="318225197"/>
    <nd ref="454990500"/>
    <tag k="highway" v="tertiary"/>
    <tag k="lit" v="yes"/>
    <tag k="name" v="Jana Henryka Dąbrowskiego"/>
    <tag k="oneway" v="yes"/>
  </way>
  <way id="15596576" version="21" timestamp="2012-08-24T21:29:22Z" uid="88909" user="miko101" changeset="12849905">
    <nd ref="454990498"/>
    <nd ref="582752614"/>
    <nd ref="454990499"/>
    <nd ref="582752613"/>
    <nd ref="1881658462"/>
    <nd ref="1881658459"/>
    <nd ref="198037831"/>
    <nd ref="583405167"/>
    <nd ref="318225197"/>
    <nd ref="454990500"/>
    <tag k="highway" v="tertiary"/>
    <tag k="lit" v="yes"/>
    <tag k="name" v="Jana Henryka Dąbrowskiego"/>
    <tag k="oneway" v="yes"/>
  </way>
  <way id="15596843" version="9" timestamp="2012-04-27T13:51:05Z" uid="88909" user="miko101" changeset="11432862">
    <nd ref="126151498"/>
    <nd ref="280465173"/>
    <nd ref="1411216085"/>
    <nd ref="126151493"/>
    <nd ref="871239450"/>
    <tag k="bridge" v="yes"/>
    <tag k="highway" v="tertiary"/>
    <tag k="layer" v="1"/>
    <tag k="lit" v="yes"/>
    <tag k="name" v="Most Uniwersytecki"/>
    <tag k="oneway" v="yes"/>
  </way>
  <way id="15596843" version="10" timestamp="2012-08-13T08:41:51Z" uid="641600" user="piottr" changeset="12710764">
    <nd ref="126151498"/>
    <nd ref="280465173"/>
    <nd ref="1411216085"/>
    <nd ref="1864017593"/>
    <tag k="bridge" v="yes"/>
    <tag k="highway" v="tertiary"/>
    <tag k="layer" v="1"/>
    <tag k="lit" v="yes"/>
    <tag k="name" v="Most Uniwersytecki"/>
    <tag k="oneway" v="yes"/>
  </way>
</osm>
