<?xml version='1.0' encoding='UTF-8'?>
<osm version="0.6" generator="libosmium/2.20.0">
  <way id="15593106" version="13" timestamp="2010-03-26T00:57:41Z" uid="163746" user="anti_bot-nonsense" changeset="4234417">
    <nd ref="32118335"/>
    <nd ref="299842863"/>
    <nd ref="247367020"/>
    <nd ref="400900388"/>
    <nd ref="299842921"/>
    <nd ref="299842960"/>
    <nd ref="362238240"/>
    <tag k="highway" v="primary"/>
    <tag k="name" v="Obornicka"/>
    <tag k="ref" v="11"/>
  </way>
  <way id="15593106" version="14" timestamp="2010-07-26T17:41:24Z" uid="20587" user="balrog-kun" changeset="5322871">
    <nd ref="32118335"/>
    <nd ref="834293841"/>
    <nd ref="299842863"/>
    <nd ref="247367020"/>
    <nd ref="400900388"/>
    <nd ref="299842921"/>
    <nd ref="299842960"/>
    <nd ref="362238240"/>
    <tag k="highway" v="primary"/>
    <tag k="name" v="Obornicka"/>
    <tag k="ref" v="11"/>
  </way>
  <way id="15593231" version="7" timestamp="2010-03-16T22:33:42Z" uid="163746" user="anti_bot-nonsense" changeset="4147654">
    <nd ref="155520823"/>
    <nd ref="360929653"/>
    <nd ref="32118363"/>
    <nd ref="360929701"/>
    <nd ref="155520825"/>
    <tag k="highway" v="primary"/>
    <tag k="name" v="Obornicka"/>
    <tag k="oneway" v="yes"/>
    <tag k="ref" v="11"/>
  </way>
  <way id="15593231" version="8" timestamp="2011-02-21T08:37:44Z" uid="309867" user="Damian_Lisu" changeset="7351175">
    <nd ref="155520823"/>
    <nd ref="360929653"/>
    <nd ref="451846140"/>
    <nd ref="451846151"/>
    <nd ref="32118363"/>
    <nd ref="360929701"/>
    <nd ref="155520825"/>
    <tag k="highway" v="primary"/>
    <tag k="name" v="Obornicka"/>
    <tag k="oneway" v="yes"/>
    <tag k="ref" v="11"/>
  </way>
  <way id="15593231" version="9" timestamp="2011-04-28T20:07:10Z" uid="19417" user="xjr" changeset="7998227">
    <nd ref="155520823"/>
    <nd ref="360929653"/>
    <nd ref="451846140"/>
    <nd ref="451846151"/>
    <nd ref="1264103535"/>
    <nd ref="429621453"/>
    <nd ref="1264103580"/>
    <nd ref="1264103585"/>
    <tag k="highway" v="primary"/>
    <tag k="name" v="Obornicka"/>
    <tag k="oneway" v="yes"/>
    <tag k="ref" v="11"/>
  </way>
  <way id="15593432" version="20" timestamp="2010-03-16T22:33:35Z" uid="163746" user="anti_bot-nonsense" changeset="4147654">
    <nd ref="155528052"/>
    <nd ref="360927423"/>
    <nd ref="155520828"/>
    <tag k="highway" v="primary"/>
    <tag k="name" v="Lutycka"/>
    <tag k="oneway" v="yes"/>
    <tag k="ref" v="92"/>
  </way>
  <way id="15593432" version="21" timestamp="2011-04-28T20:07:11Z" uid="19417" user="xjr" changeset="7998227">
    <nd ref="155528052"/>
    <nd ref="360927423"/>
    <nd ref="1264103637"/>
    <nd ref="155520828"/>
    <tag k="highway" v="primary"/>
    <tag k="name" v="Lutycka"/>
    <tag k="oneway" v="yes"/>
    <tag k="ref" v="92"/>
  </way>
  <way id="15593611" version="10" timestamp="2010-03-16T22:33:21Z" uid="163746" user="anti_bot-nonsense" changeset="4147654">
    <nd ref="155528055"/>
    <nd ref="360927184"/>
    <nd ref="155530337"/>
    <nd ref="155530339"/>
    <nd ref="400900001"/>
    <nd ref="155530341"/>
    <nd ref="155534404"/>
    <nd ref="315027488"/>
    <tag k="highway" v="tertiary"/>
    <tag k="name" v="Strzeszyńska"/>
  </way>
  <way id="15593611" version="11" timestamp="2011-03-21T10:57:41Z" uid="338611" user="marek kleciak" changeset="7625974">
    <nd ref="155528055"/>
    <nd ref="360927184"/>
    <nd ref="155530337"/>
    <nd ref="155530339"/>
    <nd ref="400900001"/>
    <nd ref="155530341"/>
    <nd ref="155534404"/>
    <nd ref="1211762455"/>
    <nd ref="315027488"/>
    <tag k="highway" v="tertiary"/>
    <tag k="name" v="Strzeszyńska"/>
  </way>
  <way id="15593611" version="12" timestamp="2011-03-30T20:28:28Z" uid="156907" user="kububa" changeset="7720356">
    <nd ref="155528055"/>
    <nd ref="1225903753"/>
    <nd ref="1225903710"/>
    <tag k="highway" v="tertiary"/>
    <tag k="name" v="Strzeszyńska"/>
  </way>
  <way id="15593611" version="13" timestamp="2011-04-28T20:07:24Z" uid="19417" user="xjr" changeset="7998227">
    <nd ref="155528055"/>
    <nd ref="1225903710"/>
    <tag k="highway" v="tertiary"/>
    <tag k="name" v="Strzeszyńska"/>
  </way>
  <way id="15593106" version="15" timestamp="2012-07-17T07:35:53Z" uid="722137" user="OSMF Redaction Account" changeset="12259568">
    <nd ref="32118335"/>
    <nd ref="834293841"/>
    <nd ref="247367020"/>
    <nd ref="362238240"/>
    <tag k="highway" v="primary"/>
    <tag k="name" v="Obornicka"/>
    <tag k="ref" v="11"/>
  </way>
  <way id="15593106" version="16" timestamp="2012-08-09T10:22:31Z" uid="711925" user="yazz007" changeset="12666731">
    <nd ref="32118335"/>
    <nd ref="834293841"/>
    <nd ref="1858360711"/>
    <nd ref="247367020"/>
    <nd ref="1858360706"/>
    <nd ref="362238240"/>
    <tag k="highway" v="primary"/>
    <tag k="name" v="Obornicka"/>
    <tag k="ref" v="11"/>
  </way>
  <way id="15593231" version="10" timestamp="2012-04-27T14:04:51Z" uid="88909" user="miko101" changeset="11432962">
    <nd ref="155520823"/>
    <nd ref="360929653"/>
    <nd ref="451846140"/>
    <nd ref="451846151"/>
    <nd ref="1264103535"/>
    <nd ref="429621453"/>
    <nd ref="1264103580"/>
    <nd ref="1264103585"/>
    <tag k="highway" v="primary"/>
    <tag k="lit" v="yes"/>
    <tag k="name" v="Obornicka"/>
    <tag k="oneway" v="yes"/>
    <tag k="ref" v="11"/>
  </way>
  <way id="15593432" version="22" timestamp="2012-04-27T14:04:47Z" uid="88909" user="miko101" changeset="11432962">
    <nd ref="155528052"/>
    <nd ref="360927423"/>
    <nd ref="1264103637"/>
    <nd ref="155520828"/>
    <tag k="highway" v="primary"/>
    <tag k="lit" v="yes"/>
    <tag k="name" v="Lutycka"/>
    <tag k="oneway" v="yes"/>
    <tag k="ref" v="92"/>
  </way>
  <way id="15593432" version="23" timestamp="2012-07-22T11:37:55Z" uid="467703" user="Zbigniew_Czernik" changeset="12429546">
    <nd ref="155528052"/>
    <nd ref="360927423"/>
    <nd ref="1264103637"/>
    <nd ref="155517187"/>
    <tag k="highway" v="primary"/>
    <tag k="lit" v="yes"/>
    <tag k="name" v="Lutycka"/>
    <tag k="oneway" v="yes"/>
    <tag k="ref" v="92"/>
  </way>
  <way id="15593611" version="14" timestamp="2012-04-27T14:04:55Z" uid="88909" user="miko101" changeset="11432962">
    <nd ref="155528055"/>
    <nd ref="1225903710"/>
    <tag k="highway" v="tertiary"/>
    <tag k="lit" v="yes"/>
    <tag k="name" v="Strzeszyńska"/>
  </way>
</osm>
