<?xml version='1.0' encoding='UTF-8'?>
<osm version="0.6" generator="libosmium/2.20.0">
  <way id="15726266" version="2" timestamp="2008-08-10T16:08:00Z" uid="6269" user="Mueck" changeset="171550">
    <nd ref="26973941"/>
    <nd ref="26973942"/>
    <nd ref="26973943"/>
    <tag k="bridge" v="true"/>
    <tag k="created_by" v="Potlatch 0.10b"/>
    <tag k="highway" v="tertiary"/>
    <tag k="layer" v="1"/>
    <tag k="name" v="Weiherstraße"/>
  </way>
  <way id="15726266" version="3" timestamp="2008-08-18T18:47:02Z" uid="39851" user="ferex" changeset="314233">
    <nd ref="26973941"/>
    <nd ref="26973942"/>
    <nd ref="26973943"/>
    <tag k="bridge" v="true"/>
    <tag k="created_by" v="Potlatch 0.10b"/>
    <tag k="highway" v="residential"/>
    <tag k="layer" v="1"/>
    <tag k="name" v="Weiherstraße"/>
  </way>
  <way id="15726266" version="4" timestamp="2008-08-30T11:35:25Z" uid="39851" user="ferex" changeset="465168">
    <nd ref="26973941"/>
    <nd ref="26973942"/>
    <nd ref="26973943"/>
    <tag k="bridge" v="true"/>
    <tag k="created_by" v="Potlatch 0.10b"/>
    <tag k="highway" v="residential"/>
    <tag k="layer" v="2"/>
    <tag k="name" v="Weiherstraße"/>
  </way>
  <way id="15726266" version="5" timestamp="2009-03-06T15:34:17Z" uid="39851" user="ferex" changeset="745566">
    <nd ref="26973941"/>
    <nd ref="26973942"/>
    <nd ref="26973943"/>
    <tag k="bridge" v="true"/>
    <tag k="created_by" v="Potlatch 0.10b"/>
    <tag k="highway" v="residential"/>
    <tag k="layer" v="2"/>
    <tag k="maxspeed" v="50"/>
    <tag k="name" v="Weiherstraße"/>
  </way>
  <way id="15726266" version="6" timestamp="2009-04-17T00:56:51Z" uid="103885" user="logicbot" changeset="603450">
    <nd ref="26973941"/>
    <nd ref="26973942"/>
    <nd ref="26973943"/>
    <tag k="bridge" v="yes"/>
    <tag k="created_by" v="Potlatch 0.10b"/>
    <tag k="highway" v="residential"/>
    <tag k="layer" v="2"/>
    <tag k="maxspeed" v="50"/>
    <tag k="name" v="Weiherstraße"/>
  </way>
  <way id="15726266" version="7" timestamp="2009-06-19T11:54:00Z" uid="85761" user="klausis" changeset="1563936">
    <nd ref="26973941"/>
    <nd ref="26973942"/>
    <nd ref="26973943"/>
    <tag k="bridge" v="yes"/>
    <tag k="highway" v="residential"/>
    <tag k="layer" v="2"/>
    <tag k="maxspeed" v="50"/>
    <tag k="name" v="Weiherstraße"/>
  </way>
  <way id="15726266" version="8" timestamp="2011-10-04T12:07:43Z" uid="442210" user="dwausr" changeset="9468814"/>
  <way id="15726267" version="2" timestamp="2008-08-10T16:07:54Z" uid="6269" user="Mueck" changeset="171550">
    <nd ref="26973943"/>
    <nd ref="26993132"/>
    <tag k="created_by" v="Potlatch 0.10b"/>
    <tag k="highway" v="tertiary"/>
    <tag k="name" v="Weiherstraße"/>
    <tag k="note" v="im SHP des NVK: III"/>
  </way>
  <way id="15726267" version="3" timestamp="2008-08-18T18:47:03Z" uid="39851" user="ferex" changeset="314233">
    <nd ref="26973943"/>
    <nd ref="26993132"/>
    <tag k="created_by" v="Potlatch 0.10b"/>
    <tag k="highway" v="residential"/>
    <tag k="name" v="Weiherstraße"/>
    <tag k="note" v="im SHP des NVK: III"/>
  </way>
  <way id="15726267" version="4" timestamp="2009-03-06T15:34:17Z" uid="39851" user="ferex" changeset="745566">
    <nd ref="26973943"/>
    <nd ref="26993132"/>
    <tag k="created_by" v="Potlatch 0.10b"/>
    <tag k="highway" v="residential"/>
    <tag k="maxspeed" v="50"/>
    <tag k="name" v="Weiherstraße"/>
    <tag k="note" v="im SHP des NVK: III"/>
  </way>
  <way id="15726267" version="5" timestamp="2009-06-19T11:53:59Z" uid="85761" user="klausis" changeset="1563936">
    <nd ref="26973943"/>
    <nd ref="26993132"/>
    <tag k="highway" v="residential"/>
    <tag k="maxspeed" v="50"/>
    <tag k="name" v="Weiherstraße"/>
    <tag k="note" v="im SHP des NVK: III"/>
  </way>
  <way id="15726267" version="6" timestamp="2011-03-22T22:30:09Z" uid="77204" user="aps" changeset="7642175">
    <nd ref="26973943"/>
    <nd ref="1214048555"/>
    <nd ref="26993132"/>
    <tag k="highway" v="residential"/>
    <tag k="maxspeed" v="50"/>
    <tag k="name" v="Weiherstraße"/>
    <tag k="note" v="im SHP des NVK: III"/>
  </way>
  <way id="15726267" version="7" timestamp="2011-04-22T06:57:25Z" uid="39851" user="ferex" changeset="7931420">
    <nd ref="26973943"/>
    <nd ref="1214048555"/>
    <nd ref="26993132"/>
    <tag k="highway" v="residential"/>
    <tag k="maxspeed" v="50"/>
    <tag k="name" v="Weiherstraße"/>
    <tag k="note" v="im SHP des NVK: III"/>
    <tag k="oneway" v="yes"/>
  </way>
  <way id="15726267" version="8" timestamp="2011-10-04T12:07:43Z" uid="442210" user="dwausr" changeset="9468814"/>
  <way id="15726354" version="12" timestamp="2009-04-04T22:55:44Z" uid="36809" user="pfoten_weg_!_" changeset="196576">
    <nd ref="157240083"/>
    <nd ref="157239431"/>
    <nd ref="157250010"/>
    <nd ref="157253080"/>
    <nd ref="157250782"/>
    <nd ref="157239433"/>
    <nd ref="157239435"/>
    <tag k="created_by" v="RambaZamba"/>
    <tag k="highway" v="residential"/>
    <tag k="maxspeed" v="30"/>
    <tag k="name" v="Leutstettener Weg"/>
    <tag k="source" v="survey"/>
  </way>
  <way id="15726354" version="13" timestamp="2009-08-28T19:53:02Z" uid="156995" user="HampelZamba" changeset="2294580">
    <nd ref="157240083"/>
    <nd ref="157239431"/>
    <nd ref="157250010"/>
    <nd ref="157253080"/>
    <nd ref="157250782"/>
    <nd ref="157239433"/>
    <nd ref="157239435"/>
    <tag k="highway" v="residential"/>
    <tag k="maxspeed" v="30"/>
    <tag k="name" v="Leutstettener Weg"/>
    <tag k="source" v="survey"/>
  </way>
  <way id="15726354" version="14" timestamp="2009-08-28T20:55:03Z" uid="36809" user="pfoten_weg_!_" changeset="2295155">
    <nd ref="157240083"/>
    <nd ref="157239431"/>
    <nd ref="157250010"/>
    <nd ref="157253080"/>
    <nd ref="157250782"/>
    <nd ref="157239433"/>
    <nd ref="157239435"/>
    <tag k="discovered_by" v="RambaZamba"/>
    <tag k="highway" v="residential"/>
    <tag k="maxspeed" v="30"/>
    <tag k="name" v="Leutstettener Weg"/>
    <tag k="source" v="survey"/>
  </way>
  <way id="15726354" version="15" timestamp="2009-08-30T09:20:24Z" uid="156995" user="HampelZamba" changeset="2310659">
    <nd ref="157240083"/>
    <nd ref="157239431"/>
    <nd ref="157250010"/>
    <nd ref="157253080"/>
    <nd ref="157250782"/>
    <nd ref="157239433"/>
    <nd ref="157239435"/>
    <tag k="highway" v="residential"/>
    <tag k="maxspeed" v="30"/>
    <tag k="name" v="Leutstettener Weg"/>
    <tag k="source" v="survey"/>
  </way>
  <way id="15726354" version="16" timestamp="2009-08-31T17:48:54Z" uid="36809" user="pfoten_weg_!_" changeset="2328905">
    <nd ref="157240083"/>
    <nd ref="157239431"/>
    <nd ref="157250010"/>
    <nd ref="157253080"/>
    <nd ref="157250782"/>
    <nd ref="157239433"/>
    <nd ref="157239435"/>
    <tag k="highway" v="residential"/>
    <tag k="maxspeed" v="30"/>
    <tag k="name" v="Leutstettener Weg"/>
    <tag k="source" v="survey"/>
  </way>
  <way id="15726354" version="17" timestamp="2009-10-02T18:06:31Z" uid="86259" user="hasse_osm_korinthenkacker" changeset="2715119">
    <nd ref="157240083"/>
    <nd ref="157239431"/>
    <nd ref="157250010"/>
    <nd ref="157253080"/>
    <nd ref="157250782"/>
    <nd ref="157239433"/>
    <nd ref="157239435"/>
    <tag k="highway" v="residential"/>
    <tag k="maxspeed" v="30"/>
    <tag k="name" v="Leutstettener Weg"/>
  </way>
  <way id="15726354" version="18" timestamp="2010-11-27T16:22:30Z" uid="73495" user="Kaffeebohne" changeset="6471110">
    <nd ref="157240083"/>
    <nd ref="157239431"/>
    <nd ref="157250010"/>
    <nd ref="1008059465"/>
    <nd ref="1008059481"/>
    <nd ref="157253080"/>
    <nd ref="157250782"/>
    <nd ref="157239433"/>
    <nd ref="157239435"/>
    <tag k="highway" v="residential"/>
    <tag k="maxspeed" v="30"/>
    <tag k="name" v="Leutstettener Weg"/>
  </way>
  <way id="15726354" version="19" timestamp="2011-09-15T19:22:48Z" uid="522630" user="delphinauge" changeset="9310810">
    <nd ref="157240083"/>
    <nd ref="157239431"/>
    <nd ref="157250010"/>
    <nd ref="1008059465"/>
    <nd ref="1008059481"/>
    <nd ref="157253080"/>
    <nd ref="157250782"/>
    <nd ref="157239433"/>
    <nd ref="157239435"/>
    <tag k="bicycle" v="yes"/>
    <tag k="highway" v="residential"/>
    <tag k="maxspeed" v="30"/>
    <tag k="name" v="Leutstettener Weg"/>
  </way>
  <way id="15726534" version="14" timestamp="2009-04-03T05:58:55Z" uid="36809" user="pfoten_weg_!_" changeset="111830">
    <nd ref="156705599"/>
    <nd ref="157242413"/>
    <nd ref="157242414"/>
    <nd ref="157286973"/>
    <nd ref="195401164"/>
    <nd ref="157242416"/>
    <nd ref="195401167"/>
    <nd ref="185521635"/>
    <nd ref="185521631"/>
    <nd ref="157325323"/>
    <nd ref="157242418"/>
    <nd ref="157242420"/>
    <nd ref="185521192"/>
    <nd ref="185501366"/>
    <tag k="created_by" v="RambaZamba"/>
    <tag k="highway" v="residential"/>
    <tag k="maxspeed" v="30"/>
    <tag k="name" v="Forstenrieder-Park-Straße"/>
    <tag k="source" v="survey"/>
  </way>
  <way id="15726534" version="15" timestamp="2009-05-10T18:52:51Z" uid="64536" user="Michael Forster" changeset="1143738">
    <nd ref="156705599"/>
    <nd ref="157242413"/>
    <tag k="created_by" v="RambaZamba"/>
    <tag k="highway" v="residential"/>
    <tag k="maxspeed" v="30"/>
    <tag k="name" v="Forstenrieder-Park-Straße"/>
    <tag k="source" v="survey"/>
  </way>
  <way id="15726534" version="16" timestamp="2009-08-28T19:53:02Z" uid="156995" user="HampelZamba" changeset="2294580">
    <nd ref="156705599"/>
    <nd ref="157242413"/>
    <tag k="highway" v="residential"/>
    <tag k="maxspeed" v="30"/>
    <tag k="name" v="Forstenrieder-Park-Straße"/>
    <tag k="source" v="survey"/>
  </way>
  <way id="15726534" version="17" timestamp="2009-08-28T20:57:14Z" uid="36809" user="pfoten_weg_!_" changeset="2295155">
    <nd ref="156705599"/>
    <nd ref="157242413"/>
    <tag k="discovered_by" v="RambaZamba"/>
    <tag k="highway" v="residential"/>
    <tag k="maxspeed" v="30"/>
    <tag k="name" v="Forstenrieder-Park-Straße"/>
    <tag k="source" v="survey"/>
  </way>
  <way id="15726534" version="18" timestamp="2009-08-30T09:20:24Z" uid="156995" user="HampelZamba" changeset="2310659">
    <nd ref="156705599"/>
    <nd ref="157242413"/>
    <tag k="highway" v="residential"/>
    <tag k="maxspeed" v="30"/>
    <tag k="name" v="Forstenrieder-Park-Straße"/>
    <tag k="source" v="survey"/>
  </way>
  <way id="15726534" version="19" timestamp="2009-08-31T17:44:11Z" uid="36809" user="pfoten_weg_!_" changeset="2328905">
    <nd ref="156705599"/>
    <nd ref="157242413"/>
    <tag k="highway" v="residential"/>
    <tag k="maxspeed" v="30"/>
    <tag k="name" v="Forstenrieder-Park-Straße"/>
    <tag k="source" v="survey"/>
  </way>
  <way id="15726534" version="20" timestamp="2009-10-02T18:06:19Z" uid="86259" user="hasse_osm_korinthenkacker" changeset="2715119">
    <nd ref="156705599"/>
    <nd ref="157242413"/>
    <tag k="highway" v="residential"/>
    <tag k="maxspeed" v="30"/>
    <tag k="name" v="Forstenrieder-Park-Straße"/>
  </way>
  <way id="15726636" version="5" timestamp="2009-04-04T22:56:31Z" uid="36809" user="pfoten_weg_!_" changeset="196576">
    <nd ref="156705597"/>
    <nd ref="157244185"/>
    <nd ref="157244186"/>
    <tag k="created_by" v="RambaZamba"/>
    <tag k="highway" v="residential"/>
    <tag k="maxspeed" v="30"/>
    <tag k="name" v="Stockdorfer Weg"/>
    <tag k="source" v="survey"/>
  </way>
  <way id="15726636" version="6" timestamp="2009-08-28T19:53:03Z" uid="156995" user="HampelZamba" changeset="2294580">
    <nd ref="156705597"/>
    <nd ref="157244185"/>
    <nd ref="157244186"/>
    <tag k="highway" v="residential"/>
    <tag k="maxspeed" v="30"/>
    <tag k="name" v="Stockdorfer Weg"/>
    <tag k="source" v="survey"/>
  </way>
  <way id="15726636" version="7" timestamp="2009-08-28T21:02:16Z" uid="36809" user="pfoten_weg_!_" changeset="2295155">
    <nd ref="156705597"/>
    <nd ref="157244185"/>
    <nd ref="157244186"/>
    <tag k="discovered_by" v="RambaZamba"/>
    <tag k="highway" v="residential"/>
    <tag k="maxspeed" v="30"/>
    <tag k="name" v="Stockdorfer Weg"/>
    <tag k="source" v="survey"/>
  </way>
  <way id="15726636" version="8" timestamp="2009-08-30T09:20:25Z" uid="156995" user="HampelZamba" changeset="2310659">
    <nd ref="156705597"/>
    <nd ref="157244185"/>
    <nd ref="157244186"/>
    <tag k="highway" v="residential"/>
    <tag k="maxspeed" v="30"/>
    <tag k="name" v="Stockdorfer Weg"/>
    <tag k="source" v="survey"/>
  </way>
  <way id="15726636" version="9" timestamp="2009-08-31T17:48:43Z" uid="36809" user="pfoten_weg_!_" changeset="2328905">
    <nd ref="156705597"/>
    <nd ref="157244185"/>
    <nd ref="157244186"/>
    <tag k="highway" v="residential"/>
    <tag k="maxspeed" v="30"/>
    <tag k="name" v="Stockdorfer Weg"/>
    <tag k="source" v="survey"/>
  </way>
  <way id="15726636" version="10" timestamp="2009-10-02T18:00:56Z" uid="86259" user="hasse_osm_korinthenkacker" changeset="2715119">
    <nd ref="156705597"/>
    <nd ref="157244185"/>
    <nd ref="157244186"/>
    <tag k="highway" v="residential"/>
    <tag k="maxspeed" v="30"/>
    <tag k="name" v="Stockdorfer Weg"/>
  </way>
  <way id="15726636" version="11" timestamp="2011-05-08T14:42:23Z" uid="42393" user="mawi42" changeset="8083358">
    <nd ref="156705597"/>
    <nd ref="1277118102"/>
    <nd ref="157244185"/>
    <nd ref="157244186"/>
    <tag k="highway" v="residential"/>
    <tag k="maxspeed" v="30"/>
    <tag k="name" v="Stockdorfer Weg"/>
  </way>
  <way id="15726697" version="6" timestamp="2009-04-04T22:55:49Z" uid="36809" user="pfoten_weg_!_" changeset="196576">
    <nd ref="157244933"/>
    <nd ref="157244935"/>
    <nd ref="157244936"/>
    <tag k="created_by" v="RambaZamba"/>
    <tag k="highway" v="residential"/>
    <tag k="maxspeed" v="30"/>
    <tag k="name" v="Baumgartnerweg"/>
    <tag k="source" v="survey"/>
  </way>
  <way id="15726697" version="7" timestamp="2009-08-28T19:53:04Z" uid="156995" user="HampelZamba" changeset="2294580">
    <nd ref="157244933"/>
    <nd ref="157244935"/>
    <nd ref="157244936"/>
    <tag k="highway" v="residential"/>
    <tag k="maxspeed" v="30"/>
    <tag k="name" v="Baumgartnerweg"/>
    <tag k="source" v="survey"/>
  </way>
  <way id="15726697" version="8" timestamp="2009-08-28T21:02:06Z" uid="36809" user="pfoten_weg_!_" changeset="2295155">
    <nd ref="157244933"/>
    <nd ref="157244935"/>
    <nd ref="157244936"/>
    <tag k="discovered_by" v="RambaZamba"/>
    <tag k="highway" v="residential"/>
    <tag k="maxspeed" v="30"/>
    <tag k="name" v="Baumgartnerweg"/>
    <tag k="source" v="survey"/>
  </way>
  <way id="15726697" version="9" timestamp="2009-08-30T09:20:25Z" uid="156995" user="HampelZamba" changeset="2310659">
    <nd ref="157244933"/>
    <nd ref="157244935"/>
    <nd ref="157244936"/>
    <tag k="highway" v="residential"/>
    <tag k="maxspeed" v="30"/>
    <tag k="name" v="Baumgartnerweg"/>
    <tag k="source" v="survey"/>
  </way>
  <way id="15726697" version="10" timestamp="2009-08-31T17:43:57Z" uid="36809" user="pfoten_weg_!_" changeset="2328905">
    <nd ref="157244933"/>
    <nd ref="157244935"/>
    <nd ref="157244936"/>
    <tag k="highway" v="residential"/>
    <tag k="maxspeed" v="30"/>
    <tag k="name" v="Baumgartnerweg"/>
    <tag k="source" v="survey"/>
  </way>
  <way id="15726697" version="11" timestamp="2009-10-02T18:00:30Z" uid="86259" user="hasse_osm_korinthenkacker" changeset="2715119">
    <nd ref="157244933"/>
    <nd ref="157244935"/>
    <nd ref="157244936"/>
    <tag k="highway" v="residential"/>
    <tag k="maxspeed" v="30"/>
    <tag k="name" v="Baumgartnerweg"/>
  </way>
  <way id="15726816" version="6" timestamp="2009-04-04T22:55:48Z" uid="36809" user="pfoten_weg_!_" changeset="196576">
    <nd ref="157246854"/>
    <nd ref="157246855"/>
    <tag k="created_by" v="RambaZamba"/>
    <tag k="highway" v="residential"/>
    <tag k="name" v="Am Weiher"/>
    <tag k="noexit" v="yes"/>
    <tag k="source" v="survey"/>
    <tag k="surface" v="unpaved"/>
  </way>
  <way id="15726816" version="7" timestamp="2009-08-28T19:53:04Z" uid="156995" user="HampelZamba" changeset="2294580">
    <nd ref="157246854"/>
    <nd ref="157246855"/>
    <tag k="highway" v="residential"/>
    <tag k="name" v="Am Weiher"/>
    <tag k="noexit" v="yes"/>
    <tag k="source" v="survey"/>
    <tag k="surface" v="unpaved"/>
  </way>
  <way id="15726816" version="8" timestamp="2009-08-28T21:08:11Z" uid="36809" user="pfoten_weg_!_" changeset="2295155">
    <nd ref="157246854"/>
    <nd ref="157246855"/>
    <tag k="discovered_by" v="RambaZamba"/>
    <tag k="highway" v="residential"/>
    <tag k="name" v="Am Weiher"/>
    <tag k="noexit" v="yes"/>
    <tag k="source" v="survey"/>
    <tag k="surface" v="unpaved"/>
  </way>
  <way id="15726816" version="9" timestamp="2009-08-30T09:20:25Z" uid="156995" user="HampelZamba" changeset="2310659">
    <nd ref="157246854"/>
    <nd ref="157246855"/>
    <tag k="highway" v="residential"/>
    <tag k="name" v="Am Weiher"/>
    <tag k="noexit" v="yes"/>
    <tag k="source" v="survey"/>
    <tag k="surface" v="unpaved"/>
  </way>
  <way id="15726816" version="10" timestamp="2009-08-31T17:46:54Z" uid="36809" user="pfoten_weg_!_" changeset="2328905">
    <nd ref="157246854"/>
    <nd ref="157246855"/>
    <tag k="highway" v="residential"/>
    <tag k="name" v="Am Weiher"/>
    <tag k="noexit" v="yes"/>
    <tag k="source" v="survey"/>
    <tag k="surface" v="unpaved"/>
  </way>
  <way id="15726816" version="11" timestamp="2009-10-02T18:01:27Z" uid="86259" user="hasse_osm_korinthenkacker" changeset="2715119">
    <nd ref="157246854"/>
    <nd ref="157246855"/>
    <tag k="highway" v="residential"/>
    <tag k="name" v="Am Weiher"/>
    <tag k="noexit" v="yes"/>
    <tag k="surface" v="unpaved"/>
  </way>
  <way id="15726816" version="12" timestamp="2012-03-07T10:35:30Z" uid="482628" user="gumul" changeset="10898381">
    <nd ref="157246854"/>
    <nd ref="157246855"/>
    <tag k="highway" v="residential"/>
    <tag k="maxspeed" v="30"/>
    <tag k="name" v="Am Weiher"/>
    <tag k="noexit" v="yes"/>
    <tag k="surface" v="unpaved"/>
  </way>
  <way id="15726838" version="5" timestamp="2009-04-04T22:55:42Z" uid="36809" user="pfoten_weg_!_" changeset="196576">
    <nd ref="157247236"/>
    <nd ref="157247238"/>
    <nd ref="157246858"/>
    <tag k="created_by" v="RambaZamba"/>
    <tag k="highway" v="residential"/>
    <tag k="maxspeed" v="30"/>
    <tag k="name" v="Zweigstraße"/>
    <tag k="source" v="survey"/>
  </way>
  <way id="15726838" version="6" timestamp="2009-08-28T19:53:04Z" uid="156995" user="HampelZamba" changeset="2294580">
    <nd ref="157247236"/>
    <nd ref="157247238"/>
    <nd ref="157246858"/>
    <tag k="highway" v="residential"/>
    <tag k="maxspeed" v="30"/>
    <tag k="name" v="Zweigstraße"/>
    <tag k="source" v="survey"/>
  </way>
  <way id="15726838" version="7" timestamp="2009-08-28T20:58:52Z" uid="36809" user="pfoten_weg_!_" changeset="2295155">
    <nd ref="157247236"/>
    <nd ref="157247238"/>
    <nd ref="157246858"/>
    <tag k="discovered_by" v="RambaZamba"/>
    <tag k="highway" v="residential"/>
    <tag k="maxspeed" v="30"/>
    <tag k="name" v="Zweigstraße"/>
    <tag k="source" v="survey"/>
  </way>
  <way id="15726838" version="8" timestamp="2009-08-30T09:20:25Z" uid="156995" user="HampelZamba" changeset="2310659">
    <nd ref="157247236"/>
    <nd ref="157247238"/>
    <nd ref="157246858"/>
    <tag k="highway" v="residential"/>
    <tag k="maxspeed" v="30"/>
    <tag k="name" v="Zweigstraße"/>
    <tag k="source" v="survey"/>
  </way>
  <way id="15726838" version="9" timestamp="2009-08-31T17:43:48Z" uid="36809" user="pfoten_weg_!_" changeset="2328905">
    <nd ref="157247236"/>
    <nd ref="157247238"/>
    <nd ref="157246858"/>
    <tag k="highway" v="residential"/>
    <tag k="maxspeed" v="30"/>
    <tag k="name" v="Zweigstraße"/>
    <tag k="source" v="survey"/>
  </way>
  <way id="15726838" version="10" timestamp="2009-10-02T18:01:16Z" uid="86259" user="hasse_osm_korinthenkacker" changeset="2715119">
    <nd ref="157247236"/>
    <nd ref="157247238"/>
    <nd ref="157246858"/>
    <tag k="highway" v="residential"/>
    <tag k="maxspeed" v="30"/>
    <tag k="name" v="Zweigstraße"/>
  </way>
  <way id="15726838" version="11" timestamp="2011-06-29T19:18:02Z" uid="42393" user="mawi42" changeset="8583990">
    <nd ref="157247236"/>
    <nd ref="157246858"/>
    <tag k="highway" v="residential"/>
    <tag k="maxspeed" v="30"/>
    <tag k="name" v="Zweigstraße"/>
  </way>
  <way id="15726847" version="5" timestamp="2009-04-04T22:55:38Z" uid="36809" user="pfoten_weg_!_" changeset="196576">
    <nd ref="157247449"/>
    <nd ref="157247451"/>
    <nd ref="157246856"/>
    <tag k="created_by" v="RambaZamba"/>
    <tag k="highway" v="residential"/>
    <tag k="maxspeed" v="30"/>
    <tag k="name" v="Am Biberberg"/>
    <tag k="source" v="survey"/>
  </way>
  <way id="15726847" version="6" timestamp="2009-08-28T19:53:05Z" uid="156995" user="HampelZamba" changeset="2294580">
    <nd ref="157247449"/>
    <nd ref="157247451"/>
    <nd ref="157246856"/>
    <tag k="highway" v="residential"/>
    <tag k="maxspeed" v="30"/>
    <tag k="name" v="Am Biberberg"/>
    <tag k="source" v="survey"/>
  </way>
  <way id="15726847" version="7" timestamp="2009-08-28T21:11:03Z" uid="36809" user="pfoten_weg_!_" changeset="2295155">
    <nd ref="157247449"/>
    <nd ref="157247451"/>
    <nd ref="157246856"/>
    <tag k="discovered_by" v="RambaZamba"/>
    <tag k="highway" v="residential"/>
    <tag k="maxspeed" v="30"/>
    <tag k="name" v="Am Biberberg"/>
    <tag k="source" v="survey"/>
  </way>
  <way id="15726847" version="8" timestamp="2009-08-30T09:20:25Z" uid="156995" user="HampelZamba" changeset="2310659">
    <nd ref="157247449"/>
    <nd ref="157247451"/>
    <nd ref="157246856"/>
    <tag k="highway" v="residential"/>
    <tag k="maxspeed" v="30"/>
    <tag k="name" v="Am Biberberg"/>
    <tag k="source" v="survey"/>
  </way>
  <way id="15726847" version="9" timestamp="2009-08-31T17:46:32Z" uid="36809" user="pfoten_weg_!_" changeset="2328905">
    <nd ref="157247449"/>
    <nd ref="157247451"/>
    <nd ref="157246856"/>
    <tag k="highway" v="residential"/>
    <tag k="maxspeed" v="30"/>
    <tag k="name" v="Am Biberberg"/>
    <tag k="source" v="survey"/>
  </way>
  <way id="15726847" version="10" timestamp="2009-10-02T18:01:11Z" uid="86259" user="hasse_osm_korinthenkacker" changeset="2715119">
    <nd ref="157247449"/>
    <nd ref="157247451"/>
    <nd ref="157246856"/>
    <tag k="highway" v="residential"/>
    <tag k="maxspeed" v="30"/>
    <tag k="name" v="Am Biberberg"/>
  </way>
  <way id="15726847" version="11" timestamp="2011-06-29T19:29:04Z" uid="42393" user="mawi42" changeset="8583990">
    <nd ref="157247449"/>
    <nd ref="157246856"/>
    <tag k="highway" v="residential"/>
    <tag k="maxspeed" v="30"/>
    <tag k="name" v="Am Biberberg"/>
  </way>
  <way id="15726847" version="12" timestamp="2012-03-07T17:09:32Z" uid="42393" user="mawi42" changeset="10901684">
    <nd ref="157247449"/>
    <nd ref="1664608309"/>
    <nd ref="157246856"/>
    <tag k="highway" v="residential"/>
    <tag k="maxspeed" v="30"/>
    <tag k="name" v="Am Biberberg"/>
  </way>
  <way id="15726354" version="20" timestamp="2012-05-03T14:20:02Z" uid="342705" user="KLMB" changeset="11489274">
    <nd ref="156705598"/>
    <nd ref="157239431"/>
    <nd ref="157250010"/>
    <nd ref="1008059465"/>
    <nd ref="1008059481"/>
    <nd ref="157253080"/>
    <nd ref="157250782"/>
    <nd ref="157239433"/>
    <nd ref="157239435"/>
    <tag k="bicycle" v="yes"/>
    <tag k="highway" v="residential"/>
    <tag k="maxspeed" v="30"/>
    <tag k="name" v="Leutstettener Weg"/>
  </way>
</osm>
