<?xml version='1.0' encoding='UTF-8'?>
<osm version="0.6" generator="libosmium/2.20.0">
  <way id="15735187" version="4" timestamp="2009-09-29T01:18:21Z" uid="36809" user="pfoten_weg_!_" changeset="2671973">
    <nd ref="185356946"/>
    <nd ref="157392875"/>
    <nd ref="35658187"/>
    <tag k="highway" v="residential"/>
    <tag k="name" v="Jägerstraße"/>
  </way>
  <way id="15735187" version="5" timestamp="2012-01-28T15:47:18Z" uid="482628" user="gumul" changeset="10522106">
    <nd ref="185356946"/>
    <nd ref="157392875"/>
    <nd ref="35658187"/>
    <tag k="highway" v="residential"/>
    <tag k="maxspeed" v="30"/>
    <tag k="name" v="Jägerstraße"/>
  </way>
  <way id="15735286" version="6" timestamp="2009-09-29T01:18:20Z" uid="36809" user="pfoten_weg_!_" changeset="2671973">
    <nd ref="35658184"/>
    <nd ref="35658185"/>
    <nd ref="157399793"/>
    <nd ref="157355803"/>
    <nd ref="35658186"/>
    <tag k="highway" v="residential"/>
    <tag k="name" v="Bahnhofstraße"/>
  </way>
  <way id="15735286" version="7" timestamp="2010-12-26T20:51:07Z" uid="72719" user="metaroll" changeset="6772064">
    <nd ref="35658184"/>
    <nd ref="35658185"/>
    <nd ref="157399793"/>
    <nd ref="157355803"/>
    <nd ref="35658186"/>
    <tag k="highway" v="tertiary"/>
    <tag k="name" v="Bahnhofstraße"/>
  </way>
  <way id="15735286" version="8" timestamp="2011-07-21T06:38:28Z" uid="482628" user="gumul" changeset="8785320">
    <nd ref="35658184"/>
    <nd ref="35658185"/>
    <nd ref="157399793"/>
    <nd ref="1368679069"/>
    <nd ref="157355803"/>
    <nd ref="35658186"/>
    <tag k="highway" v="tertiary"/>
    <tag k="name" v="Bahnhofstraße"/>
  </way>
  <way id="15735286" version="9" timestamp="2011-07-21T07:11:35Z" uid="482628" user="gumul" changeset="8785555">
    <nd ref="35658184"/>
    <nd ref="35658185"/>
    <nd ref="157399793"/>
    <nd ref="1368679069"/>
    <nd ref="157355803"/>
    <tag k="highway" v="tertiary"/>
    <tag k="name" v="Bahnhofstraße"/>
  </way>
  <way id="15735286" version="10" timestamp="2012-02-05T18:10:42Z" uid="482628" user="gumul" changeset="10596307">
    <nd ref="35658184"/>
    <nd ref="35658185"/>
    <nd ref="157399793"/>
    <nd ref="1368679069"/>
    <nd ref="157355803"/>
    <tag k="highway" v="tertiary"/>
    <tag k="maxspeed" v="50"/>
    <tag k="name" v="Bahnhofstraße"/>
  </way>
  <way id="15735611" version="3" timestamp="2009-09-29T01:18:11Z" uid="36809" user="pfoten_weg_!_" changeset="2671973">
    <nd ref="157399793"/>
    <nd ref="157399795"/>
    <nd ref="157392875"/>
    <tag k="highway" v="residential"/>
    <tag k="name" v="Hubert-Deschler-Straße"/>
  </way>
  <way id="15735611" version="4" timestamp="2012-01-28T15:47:19Z" uid="482628" user="gumul" changeset="10522106">
    <nd ref="157399793"/>
    <nd ref="157399795"/>
    <nd ref="157392875"/>
    <tag k="highway" v="residential"/>
    <tag k="maxspeed" v="30"/>
    <tag k="name" v="Hubert-Deschler-Straße"/>
  </way>
  <way id="15735813" version="5" timestamp="2009-09-29T01:17:35Z" uid="36809" user="pfoten_weg_!_" changeset="2671973">
    <nd ref="157402427"/>
    <nd ref="157411015"/>
    <nd ref="157349032"/>
    <tag k="highway" v="residential"/>
    <tag k="name" v="Kreuzstraße"/>
  </way>
  <way id="15735813" version="6" timestamp="2012-02-02T12:10:37Z" uid="482628" user="gumul" changeset="10566834">
    <nd ref="157402427"/>
    <nd ref="157411015"/>
    <nd ref="157349032"/>
    <tag k="highway" v="residential"/>
    <tag k="maxspeed" v="30"/>
    <tag k="name" v="Kreuzstraße"/>
  </way>
  <way id="15735881" version="5" timestamp="2009-09-29T01:17:36Z" uid="36809" user="pfoten_weg_!_" changeset="2671973">
    <nd ref="157403700"/>
    <nd ref="157406447"/>
    <nd ref="157403701"/>
    <nd ref="157405778"/>
    <nd ref="157403702"/>
    <tag k="highway" v="residential"/>
    <tag k="name" v="Konrad-Engelhardt-Straße"/>
  </way>
  <way id="15735881" version="6" timestamp="2010-07-04T10:18:44Z" uid="84087" user="mkowa" changeset="5131389">
    <nd ref="157403700"/>
    <nd ref="157406447"/>
    <nd ref="800187279"/>
    <nd ref="157403701"/>
    <nd ref="157405778"/>
    <nd ref="157403702"/>
    <tag k="highway" v="residential"/>
    <tag k="name" v="Konrad-Engelhardt-Straße"/>
  </way>
  <way id="15735881" version="7" timestamp="2011-11-22T07:42:51Z" uid="482628" user="gumul" changeset="9905966">
    <nd ref="157403700"/>
    <nd ref="157406447"/>
    <nd ref="800187279"/>
    <nd ref="157405778"/>
    <nd ref="157403702"/>
    <tag k="highway" v="residential"/>
    <tag k="name" v="Konrad-Engelhardt-Straße"/>
  </way>
  <way id="15735881" version="8" timestamp="2012-02-02T12:10:37Z" uid="482628" user="gumul" changeset="10566834">
    <nd ref="157403700"/>
    <nd ref="157406447"/>
    <nd ref="800187279"/>
    <nd ref="157405778"/>
    <nd ref="157403702"/>
    <tag k="highway" v="residential"/>
    <tag k="maxspeed" v="30"/>
    <tag k="name" v="Konrad-Engelhardt-Straße"/>
  </way>
  <way id="15735920" version="3" timestamp="2009-09-29T01:17:36Z" uid="36809" user="pfoten_weg_!_" changeset="2671973">
    <nd ref="157404259"/>
    <nd ref="157404261"/>
    <nd ref="157404262"/>
    <nd ref="157349022"/>
    <tag k="highway" v="residential"/>
    <tag k="name" v="Blumenstraße"/>
  </way>
  <way id="15735920" version="4" timestamp="2012-02-02T12:10:37Z" uid="482628" user="gumul" changeset="10566834">
    <nd ref="157404259"/>
    <nd ref="157404261"/>
    <nd ref="157404262"/>
    <nd ref="157349022"/>
    <tag k="highway" v="residential"/>
    <tag k="maxspeed" v="30"/>
    <tag k="name" v="Blumenstraße"/>
  </way>
  <way id="15735938" version="4" timestamp="2009-09-29T01:17:37Z" uid="36809" user="pfoten_weg_!_" changeset="2671973">
    <nd ref="157404617"/>
    <nd ref="157404618"/>
    <nd ref="157404620"/>
    <nd ref="157404621"/>
    <tag k="highway" v="residential"/>
    <tag k="name" v="Tulpenstraße"/>
  </way>
  <way id="15735938" version="5" timestamp="2011-11-24T07:51:50Z" uid="482628" user="gumul" changeset="9930433">
    <nd ref="157404617"/>
    <nd ref="157404618"/>
    <nd ref="1515043612"/>
    <nd ref="157404620"/>
    <nd ref="1515043602"/>
    <nd ref="157404621"/>
    <tag k="highway" v="residential"/>
    <tag k="name" v="Tulpenstraße"/>
  </way>
  <way id="15735938" version="6" timestamp="2012-02-02T12:10:37Z" uid="482628" user="gumul" changeset="10566834">
    <nd ref="157404617"/>
    <nd ref="157404618"/>
    <nd ref="1515043612"/>
    <nd ref="157404620"/>
    <nd ref="1515043602"/>
    <nd ref="157404621"/>
    <tag k="highway" v="residential"/>
    <tag k="maxspeed" v="30"/>
    <tag k="name" v="Tulpenstraße"/>
  </way>
  <way id="15735973" version="4" timestamp="2009-09-29T01:17:38Z" uid="36809" user="pfoten_weg_!_" changeset="2671973">
    <nd ref="157405778"/>
    <nd ref="157405780"/>
    <nd ref="157404262"/>
    <nd ref="157405343"/>
    <nd ref="157404620"/>
    <tag k="highway" v="residential"/>
    <tag k="name" v="Rosenstraße"/>
  </way>
  <way id="15735973" version="5" timestamp="2012-02-02T12:10:37Z" uid="482628" user="gumul" changeset="10566834">
    <nd ref="157405778"/>
    <nd ref="157405780"/>
    <nd ref="157404262"/>
    <nd ref="157405343"/>
    <nd ref="157404620"/>
    <tag k="highway" v="residential"/>
    <tag k="maxspeed" v="30"/>
    <tag k="name" v="Rosenstraße"/>
  </way>
  <way id="15735187" version="6" timestamp="2012-07-19T12:48:14Z" uid="482628" user="gumul" changeset="12326639">
    <nd ref="185356946"/>
    <nd ref="157392875"/>
    <nd ref="1830800786"/>
    <nd ref="1830800684"/>
    <tag k="highway" v="residential"/>
    <tag k="maxspeed" v="30"/>
    <tag k="name" v="Jägerstraße"/>
  </way>
  <way id="15735813" version="7" timestamp="2012-07-01T09:21:16Z" uid="8703" user="rolandg" changeset="12073304">
    <nd ref="157402427"/>
    <nd ref="1808553471"/>
    <nd ref="157411015"/>
    <nd ref="157349032"/>
    <tag k="highway" v="residential"/>
    <tag k="maxspeed" v="30"/>
    <tag k="name" v="Kreuzstraße"/>
  </way>
  <way id="15735881" version="9" timestamp="2012-07-23T15:36:07Z" uid="42393" user="mawi42" changeset="12452241">
    <nd ref="157403700"/>
    <nd ref="1835458514"/>
    <nd ref="157406447"/>
    <nd ref="800187279"/>
    <nd ref="157405778"/>
    <nd ref="1835458513"/>
    <nd ref="1835458517"/>
    <nd ref="157403702"/>
    <tag k="highway" v="residential"/>
    <tag k="maxspeed" v="30"/>
    <tag k="name" v="Konrad-Engelhardt-Straße"/>
  </way>
  <way id="15735973" version="6" timestamp="2012-07-23T15:36:07Z" uid="42393" user="mawi42" changeset="12452241">
    <nd ref="157405778"/>
    <nd ref="1835458518"/>
    <nd ref="157405780"/>
    <nd ref="157404262"/>
    <nd ref="157405343"/>
    <nd ref="157404620"/>
    <tag k="highway" v="residential"/>
    <tag k="maxspeed" v="30"/>
    <tag k="name" v="Rosenstraße"/>
  </way>
</osm>
