<?xml version='1.0' encoding='UTF-8'?>
<osm version="0.6" generator="libosmium/2.20.0">
  <way id="15815169" version="7" timestamp="2010-03-06T13:05:16Z" uid="7617" user="Franc" changeset="4049938">
    <nd ref="26381619"/>
    <nd ref="29698926"/>
    <tag k="highway" v="trunk"/>
    <tag k="maxspeed" v="60"/>
    <tag k="name" v="Pittwater Road"/>
    <tag k="oneway" v="yes"/>
    <tag k="ref" v="MR10"/>
  </way>
  <way id="15815169" version="8" timestamp="2010-03-31T07:59:21Z" uid="74617" user="JohnSmith" changeset="4283194">
    <nd ref="26381619"/>
    <nd ref="679031609"/>
    <tag k="highway" v="trunk"/>
    <tag k="maxspeed" v="60"/>
    <tag k="name" v="Pittwater Road"/>
    <tag k="oneway" v="yes"/>
  </way>
  <way id="15815239" version="10" timestamp="2010-03-06T13:05:15Z" uid="7617" user="Franc" changeset="4049938">
    <nd ref="152307818"/>
    <nd ref="158929634"/>
    <nd ref="158929636"/>
    <nd ref="158929637"/>
    <nd ref="158929638"/>
    <nd ref="158929639"/>
    <tag k="highway" v="trunk_link"/>
    <tag k="maxspeed" v="70"/>
    <tag k="name" v="Pittwater Road"/>
    <tag k="oneway" v="yes"/>
    <tag k="ref" v="MR10"/>
  </way>
  <way id="15815239" version="11" timestamp="2010-03-31T07:59:19Z" uid="74617" user="JohnSmith" changeset="4283194">
    <nd ref="29699074"/>
    <nd ref="29612711"/>
    <nd ref="21421666"/>
    <nd ref="21401213"/>
    <nd ref="152296038"/>
    <nd ref="152406392"/>
    <nd ref="152307818"/>
    <nd ref="158929634"/>
    <nd ref="158929636"/>
    <nd ref="158929637"/>
    <nd ref="158929638"/>
    <nd ref="158929639"/>
    <nd ref="679031607"/>
    <tag k="highway" v="trunk"/>
    <tag k="maxspeed" v="70"/>
    <tag k="name" v="Pittwater Road"/>
    <tag k="oneway" v="yes"/>
  </way>
  <way id="15815239" version="12" timestamp="2010-06-28T07:43:46Z" uid="299678" user="peteramjet" changeset="5095437">
    <nd ref="29699074"/>
    <nd ref="29612711"/>
    <nd ref="21421666"/>
    <nd ref="21401213"/>
    <nd ref="152296038"/>
    <nd ref="152406392"/>
    <nd ref="152307818"/>
    <nd ref="158929634"/>
    <nd ref="158929636"/>
    <nd ref="158929637"/>
    <nd ref="158929638"/>
    <nd ref="158929639"/>
    <nd ref="679031607"/>
    <tag k="highway" v="trunk"/>
    <tag k="maxspeed" v="70"/>
    <tag k="name" v="Pittwater Road"/>
    <tag k="oneway" v="yes"/>
    <tag k="ref" v="MR10"/>
  </way>
  <way id="15815239" version="13" timestamp="2010-07-08T10:31:39Z" uid="299678" user="peteramjet" changeset="5164989">
    <nd ref="29699074"/>
    <nd ref="29612711"/>
    <nd ref="21421666"/>
    <nd ref="21401213"/>
    <nd ref="152296038"/>
    <nd ref="152406392"/>
    <nd ref="152307818"/>
    <nd ref="158929634"/>
    <nd ref="158929636"/>
    <nd ref="158929637"/>
    <nd ref="158929638"/>
    <nd ref="158929639"/>
    <nd ref="679031607"/>
    <tag k="highway" v="trunk"/>
    <tag k="maxspeed" v="70"/>
    <tag k="name" v="Pittwater Road"/>
    <tag k="oneway" v="yes"/>
  </way>
  <way id="15815239" version="14" timestamp="2012-02-02T01:38:55Z" uid="54784" user="Tom Hollander" changeset="10564136">
    <nd ref="29699074"/>
    <nd ref="29612711"/>
    <nd ref="21421666"/>
    <nd ref="21401213"/>
    <nd ref="152296038"/>
    <nd ref="152406392"/>
    <nd ref="152307818"/>
    <nd ref="158929634"/>
    <nd ref="158929636"/>
    <nd ref="158929637"/>
    <nd ref="158929638"/>
    <nd ref="158929639"/>
    <nd ref="679031607"/>
    <tag k="highway" v="trunk"/>
    <tag k="maxspeed" v="70"/>
    <tag k="name" v="Pittwater Road"/>
    <tag k="oneway" v="yes"/>
    <tag k="ref" v="MR10"/>
  </way>
  <way id="15815244" version="1" timestamp="2007-12-10T00:39:49Z" uid="17602" user="B10xyz" changeset="246950">
    <nd ref="158929129"/>
    <nd ref="158929688"/>
    <nd ref="158929690"/>
    <tag k="created_by" v="Potlatch 0.5d"/>
    <tag k="highway" v="service"/>
  </way>
  <way id="15815244" version="2" timestamp="2011-04-16T19:57:58Z" uid="25338" user="cyfreak" changeset="7881579">
    <nd ref="158929129"/>
    <nd ref="1247539627"/>
    <nd ref="1247539686"/>
    <nd ref="158929688"/>
    <nd ref="1247539860"/>
    <nd ref="158929690"/>
    <nd ref="1247539673"/>
    <nd ref="1247539617"/>
    <tag k="highway" v="path"/>
  </way>
  <way id="15815244" version="3" timestamp="2011-04-16T20:04:21Z" uid="25338" user="cyfreak" changeset="7881657">
    <nd ref="158929129"/>
    <nd ref="1247539627"/>
    <nd ref="1247539686"/>
    <nd ref="158929688"/>
    <nd ref="1247539860"/>
    <nd ref="158929690"/>
    <nd ref="1247539673"/>
    <nd ref="1247539617"/>
    <tag k="highway" v="footway"/>
  </way>
  <way id="15815244" version="4" timestamp="2012-03-24T06:24:34Z" uid="43566" user="anbr" changeset="11081000">
    <nd ref="1688091750"/>
    <nd ref="1247539627"/>
    <nd ref="1247539686"/>
    <nd ref="158929688"/>
    <nd ref="1247539860"/>
    <nd ref="158929690"/>
    <nd ref="1247539673"/>
    <nd ref="1247539617"/>
    <tag k="highway" v="footway"/>
  </way>
  <way id="15815355" version="3" timestamp="2010-03-27T22:19:56Z" uid="20587" user="balrog-kun" changeset="4250871">
    <nd ref="122697799"/>
    <nd ref="122864614"/>
    <nd ref="122864617"/>
    <tag k="highway" v="residential"/>
    <tag k="name" v="West Chapman Avenue"/>
    <tag k="tiger:cfcc" v="A41"/>
    <tag k="tiger:county" v="Orange, CA"/>
    <tag k="tiger:name_base" v="Chapman"/>
    <tag k="tiger:name_direction_prefix" v="W"/>
    <tag k="tiger:name_type" v="Ave"/>
    <tag k="tiger:reviewed" v="no"/>
    <tag k="tiger:separated" v="no"/>
    <tag k="tiger:source" v="tiger_import_dch_v0.6_20070809"/>
    <tag k="tiger:tlid" v="144136082:144136086:144077115:144040905:144040860:144040912:144136109:144136110:144040934:144040935:144040939:144041184:144041208:144041210:144041300:144041301:144041302:144041307:144418336:144041274:144051037:144051039:144051042:144041185:144051061:14405"/>
  </way>
  <way id="15815355" version="4" timestamp="2010-07-04T22:53:34Z" uid="194231" user="Chris Bell in California" changeset="5138026"/>
  <way id="15815381" version="5" timestamp="2010-03-31T07:59:21Z" uid="74617" user="JohnSmith" changeset="4283194">
    <nd ref="158929634"/>
    <nd ref="158932516"/>
    <nd ref="158932517"/>
    <nd ref="21401211"/>
    <tag k="highway" v="trunk"/>
    <tag k="name" v="Pittwater Road"/>
    <tag k="oneway" v="yes"/>
  </way>
  <way id="15815381" version="6" timestamp="2012-02-02T01:38:56Z" uid="54784" user="Tom Hollander" changeset="10564136">
    <nd ref="158929634"/>
    <nd ref="158932516"/>
    <nd ref="158932517"/>
    <nd ref="21401211"/>
    <tag k="highway" v="primary"/>
    <tag k="name" v="Pittwater Road"/>
    <tag k="oneway" v="yes"/>
  </way>
  <way id="15815419" version="7" timestamp="2010-03-06T13:05:16Z" uid="7617" user="Franc" changeset="4049938"/>
  <way id="15815831" version="1" timestamp="2007-12-10T00:45:56Z" uid="17602" user="B10xyz" changeset="246950">
    <nd ref="30051654"/>
    <nd ref="158940719"/>
    <nd ref="158940720"/>
    <tag k="created_by" v="Potlatch 0.5d"/>
    <tag k="highway" v="residential"/>
  </way>
  <way id="15815831" version="2" timestamp="2008-11-21T05:50:44Z" uid="80389" user="migra" changeset="775410">
    <nd ref="30051654"/>
    <nd ref="158940719"/>
    <nd ref="158940720"/>
    <tag k="created_by" v="Potlatch 0.10f"/>
    <tag k="highway" v="residential"/>
  </way>
  <way id="15815831" version="3" timestamp="2008-11-21T05:50:54Z" uid="80389" user="migra" changeset="775410">
    <nd ref="30051654"/>
    <nd ref="158940719"/>
    <nd ref="158940720"/>
    <nd ref="313442547"/>
    <nd ref="313442548"/>
    <tag k="created_by" v="Potlatch 0.10f"/>
    <tag k="highway" v="residential"/>
  </way>
  <way id="15815831" version="4" timestamp="2009-01-18T18:24:51Z" uid="6433" user="eserte" changeset="806359">
    <nd ref="30051654"/>
    <nd ref="158940719"/>
    <nd ref="158940720"/>
    <nd ref="313442547"/>
    <nd ref="313442548"/>
    <tag k="created_by" v="Merkaartor 0.12"/>
    <tag k="highway" v="residential"/>
    <tag k="name" v="Schwechtenstraße"/>
  </way>
  <way id="15815831" version="5" timestamp="2009-10-20T18:59:35Z" uid="6669" user="Elwood" changeset="2905902">
    <nd ref="30051654"/>
    <nd ref="158940719"/>
    <nd ref="158940720"/>
    <nd ref="313442547"/>
    <nd ref="313442548"/>
    <tag k="highway" v="residential"/>
    <tag k="name" v="Schwechtenstraße"/>
    <tag k="postal_code" v="12277"/>
  </way>
  <way id="15815831" version="6" timestamp="2011-02-09T16:49:58Z" uid="66391" user="geozeisig" changeset="7237767">
    <nd ref="30051654"/>
    <nd ref="158940719"/>
    <nd ref="1144028742"/>
    <nd ref="1144028759"/>
    <nd ref="1144028670"/>
    <nd ref="158940720"/>
    <nd ref="313442547"/>
    <tag k="highway" v="residential"/>
    <tag k="name" v="Schwechtenstraße"/>
    <tag k="postal_code" v="12277"/>
  </way>
  <way id="15815964" version="1" timestamp="2007-12-10T00:46:59Z" uid="17602" user="B10xyz" changeset="246950">
    <nd ref="32348287"/>
    <nd ref="158942553"/>
    <nd ref="158942554"/>
    <tag k="created_by" v="Potlatch 0.5d"/>
    <tag k="highway" v="residential"/>
  </way>
  <way id="15815964" version="2" timestamp="2008-01-04T16:39:27Z" uid="17889" user="rrissiek" changeset="536635">
    <nd ref="32348287"/>
    <nd ref="158942553"/>
    <nd ref="158942554"/>
    <tag k="created_by" v="Potlatch 0.5d"/>
    <tag k="highway" v="residential"/>
    <tag k="name" v="Am Horstenstein"/>
  </way>
  <way id="15815964" version="3" timestamp="2009-03-04T07:13:21Z" uid="66391" user="geozeisig" changeset="736636">
    <nd ref="32348287"/>
    <nd ref="355490213"/>
    <nd ref="158942553"/>
    <nd ref="158942554"/>
    <tag k="created_by" v="Potlatch 0.5d"/>
    <tag k="highway" v="residential"/>
    <tag k="name" v="Am Horstenstein"/>
  </way>
  <way id="15815964" version="4" timestamp="2009-06-08T19:28:13Z" uid="10549" user="toaster" changeset="1462480">
    <nd ref="32348287"/>
    <nd ref="355490213"/>
    <nd ref="158942553"/>
    <nd ref="158942554"/>
    <tag k="created_by" v="Potlatch 0.5d"/>
    <tag k="highway" v="residential"/>
    <tag k="name" v="Am Horstenstein"/>
    <tag k="postal_code" v="12277"/>
  </way>
  <way id="15815964" version="5" timestamp="2012-01-01T16:33:30Z" uid="324579" user="HaH" changeset="10262954">
    <nd ref="32348287"/>
    <nd ref="1572836469"/>
    <nd ref="355490213"/>
    <nd ref="158942553"/>
    <nd ref="158942554"/>
    <tag k="highway" v="residential"/>
    <tag k="name" v="Am Horstenstein"/>
    <tag k="postal_code" v="12277"/>
  </way>
  <way id="15815964" version="6" timestamp="2012-02-11T08:38:49Z" uid="66391" user="geozeisig" changeset="10650256"/>
  <way id="15815169" version="9" timestamp="2012-07-06T23:31:49Z" uid="705018" user="jinkson" changeset="12135003">
    <nd ref="26381619"/>
    <nd ref="679031609"/>
    <tag k="highway" v="trunk"/>
    <tag k="maxspeed" v="60"/>
    <tag k="name" v="Pittwater Road"/>
    <tag k="network" v="MR"/>
    <tag k="oneway" v="yes"/>
    <tag k="ref" v="10"/>
  </way>
  <way id="15815169" version="10" timestamp="2012-07-11T11:03:43Z" uid="705018" user="jinkson" changeset="12184495"/>
  <way id="15815239" version="15" timestamp="2012-06-24T04:49:15Z" uid="7523" user="inas" changeset="11995477">
    <nd ref="29699074"/>
    <nd ref="29612711"/>
    <nd ref="21421666"/>
    <nd ref="21401213"/>
    <nd ref="152296038"/>
    <nd ref="152406392"/>
    <nd ref="152307818"/>
    <nd ref="158929634"/>
    <nd ref="158929636"/>
    <nd ref="158929637"/>
    <nd ref="158929638"/>
    <nd ref="158929639"/>
    <nd ref="679031607"/>
    <tag k="highway" v="trunk"/>
    <tag k="maxspeed" v="70"/>
    <tag k="name" v="Pittwater Road"/>
    <tag k="network" v="MR"/>
    <tag k="oneway" v="yes"/>
    <tag k="ref" v="10"/>
  </way>
  <way id="15815239" version="16" timestamp="2012-07-11T11:03:42Z" uid="705018" user="jinkson" changeset="12184495">
    <nd ref="29699074"/>
    <nd ref="29612711"/>
    <nd ref="21421666"/>
    <nd ref="21401213"/>
    <nd ref="152296038"/>
    <nd ref="152406392"/>
    <nd ref="152307818"/>
    <nd ref="158929634"/>
    <nd ref="158929636"/>
    <tag k="highway" v="trunk"/>
    <tag k="maxspeed" v="70"/>
    <tag k="name" v="Pittwater Road"/>
    <tag k="network" v="MR"/>
    <tag k="oneway" v="yes"/>
    <tag k="ref" v="10"/>
  </way>
  <way id="15815239" version="17" timestamp="2012-07-19T16:14:58Z" uid="722137" user="OSMF Redaction Account" changeset="12338140">
    <nd ref="152307818"/>
    <nd ref="158929634"/>
    <nd ref="158929636"/>
    <tag k="highway" v="trunk_link"/>
    <tag k="maxspeed" v="70"/>
    <tag k="name" v="Pittwater Road"/>
    <tag k="network" v="MR"/>
    <tag k="oneway" v="yes"/>
    <tag k="ref" v="10"/>
  </way>
  <way id="15815239" version="18" timestamp="2012-07-21T15:00:58Z" uid="705018" user="woftam" changeset="12412390">
    <nd ref="152307818"/>
    <nd ref="158929634"/>
    <tag k="highway" v="trunk_link"/>
    <tag k="maxspeed" v="70"/>
    <tag k="name" v="Pittwater Road"/>
    <tag k="network" v="MR"/>
    <tag k="oneway" v="yes"/>
    <tag k="ref" v="10"/>
  </way>
  <way id="15815239" version="19" timestamp="2012-07-21T15:06:23Z" uid="705018" user="woftam" changeset="12412390">
    <nd ref="152307818"/>
    <nd ref="158929634"/>
    <nd ref="158929636"/>
    <nd ref="158929637"/>
    <nd ref="158929638"/>
    <nd ref="158929639"/>
    <nd ref="1833221600"/>
    <tag k="highway" v="trunk"/>
    <tag k="lanes" v="3"/>
    <tag k="maxspeed" v="70"/>
    <tag k="name" v="Pittwater Road"/>
    <tag k="network" v="MR"/>
    <tag k="oneway" v="yes"/>
    <tag k="ref" v="10"/>
  </way>
  <way id="15815239" version="20" timestamp="2012-07-21T15:13:28Z" uid="705018" user="woftam" changeset="12412390">
    <nd ref="29612711"/>
    <nd ref="1833232142"/>
    <nd ref="1833232144"/>
    <nd ref="1833232145"/>
    <nd ref="152296038"/>
    <nd ref="1833232141"/>
    <nd ref="152406392"/>
    <nd ref="152307818"/>
    <nd ref="158929634"/>
    <nd ref="158929636"/>
    <nd ref="158929637"/>
    <nd ref="158929638"/>
    <nd ref="158929639"/>
    <nd ref="1833221600"/>
    <tag k="highway" v="trunk"/>
    <tag k="lanes" v="3"/>
    <tag k="maxspeed" v="70"/>
    <tag k="name" v="Pittwater Road"/>
    <tag k="network" v="MR"/>
    <tag k="oneway" v="yes"/>
    <tag k="ref" v="10"/>
  </way>
  <way id="15815239" version="21" timestamp="2012-07-21T15:28:29Z" uid="705018" user="woftam" changeset="12412390"/>
  <way id="15815244" version="5" timestamp="2012-07-18T14:09:18Z" uid="722137" user="OSMF Redaction Account" changeset="12284486">
    <nd ref="1688091750"/>
    <nd ref="1247539627"/>
    <nd ref="1247539686"/>
    <nd ref="1247539860"/>
    <nd ref="1247539673"/>
    <nd ref="1247539617"/>
    <tag k="highway" v="footway"/>
  </way>
  <way id="15815381" version="7" timestamp="2012-07-21T15:00:58Z" uid="705018" user="woftam" changeset="12412390">
    <nd ref="158929634"/>
    <nd ref="158932516"/>
    <nd ref="158932517"/>
    <nd ref="21401211"/>
    <tag k="highway" v="trunk"/>
    <tag k="name" v="Pittwater Road"/>
    <tag k="oneway" v="yes"/>
  </way>
  <way id="15815381" version="8" timestamp="2012-07-21T15:06:24Z" uid="705018" user="woftam" changeset="12412390">
    <nd ref="158929634"/>
    <nd ref="158932516"/>
    <nd ref="158932517"/>
    <nd ref="21401211"/>
    <tag k="highway" v="primary_link"/>
    <tag k="name" v="Pittwater Road"/>
    <tag k="oneway" v="yes"/>
  </way>
  <way id="15815831" version="7" timestamp="2012-07-18T14:09:46Z" uid="722137" user="OSMF Redaction Account" changeset="12284486">
    <nd ref="1144028742"/>
    <nd ref="1144028759"/>
    <nd ref="1144028670"/>
    <nd ref="313442547"/>
    <tag k="name" v="Schwechtenstraße"/>
    <tag k="postal_code" v="12277"/>
  </way>
  <way id="15815831" version="8" timestamp="2012-08-27T19:52:32Z" uid="330055" user="Mecki" changeset="12883982">
    <nd ref="158940719"/>
    <nd ref="1885851534"/>
    <nd ref="1144028742"/>
    <nd ref="1144028759"/>
    <nd ref="1144028670"/>
    <nd ref="313442547"/>
    <tag k="highway" v="unclassified"/>
    <tag k="name" v="Schwechtenstraße"/>
    <tag k="postal_code" v="12277"/>
  </way>
</osm>
