<?xml version='1.0' encoding='UTF-8'?>
<osm version="0.6" generator="libosmium/2.20.0">
  <way id="15824825" version="1" timestamp="2007-12-10T01:35:48Z" uid="6454" user="B10xxx" changeset="237560">
    <nd ref="159030063"/>
    <nd ref="159030033"/>
    <nd ref="159030027"/>
    <tag k="created_by" v="JOSM"/>
    <tag k="highway" v="residential"/>
  </way>
  <way id="15824825" version="2" timestamp="2008-01-12T19:07:25Z" uid="6669" user="Elwood" changeset="614121">
    <nd ref="159030063"/>
    <nd ref="221466275"/>
    <nd ref="159030033"/>
    <nd ref="159030027"/>
    <tag k="created_by" v="JOSM"/>
    <tag k="highway" v="residential"/>
    <tag k="name" v="Marinesteig"/>
  </way>
  <way id="15824825" version="3" timestamp="2008-06-16T15:03:18Z" uid="45971" user="Solon" changeset="182896">
    <nd ref="159030063"/>
    <nd ref="221466275"/>
    <nd ref="159030033"/>
    <nd ref="270726909"/>
    <nd ref="159030027"/>
    <tag k="created_by" v="JOSM"/>
    <tag k="highway" v="residential"/>
    <tag k="name" v="Marinesteig"/>
  </way>
  <way id="15824825" version="4" timestamp="2009-04-12T13:44:36Z" uid="6669" user="Elwood" changeset="446860">
    <nd ref="159030063"/>
    <nd ref="221466275"/>
    <nd ref="159030033"/>
    <nd ref="270726909"/>
    <nd ref="159030027"/>
    <tag k="created_by" v="JOSM"/>
    <tag k="highway" v="residential"/>
    <tag k="name" v="Marinesteig"/>
    <tag k="postal_code" v="14129"/>
  </way>
  <way id="15824825" version="5" timestamp="2009-07-13T12:29:33Z" uid="42938" user="Xanadu" changeset="1816499">
    <nd ref="159030063"/>
    <nd ref="429947747"/>
    <nd ref="159030033"/>
    <nd ref="270726909"/>
    <nd ref="159030027"/>
    <tag k="created_by" v="JOSM"/>
    <tag k="highway" v="residential"/>
    <tag k="name" v="Marinesteig"/>
    <tag k="postal_code" v="14129"/>
  </way>
  <way id="15824825" version="6" timestamp="2011-05-19T19:11:12Z" uid="6669" user="Elwood" changeset="8192023">
    <nd ref="159030063"/>
    <nd ref="429947747"/>
    <nd ref="159030033"/>
    <nd ref="270726909"/>
    <nd ref="159030027"/>
    <tag k="highway" v="residential"/>
    <tag k="name" v="Marinesteig"/>
    <tag k="postal_code" v="14129"/>
  </way>
  <way id="15824825" version="7" timestamp="2011-06-18T18:14:53Z" uid="6669" user="Elwood" changeset="8475577">
    <nd ref="159030063"/>
    <nd ref="429947747"/>
    <nd ref="1329913467"/>
    <nd ref="159030033"/>
    <nd ref="270726909"/>
    <nd ref="1329913468"/>
    <tag k="highway" v="residential"/>
    <tag k="name" v="Marinesteig"/>
    <tag k="postal_code" v="14129"/>
  </way>
  <way id="15824825" version="8" timestamp="2012-02-18T14:57:13Z" uid="6669" user="Elwood" changeset="10720610"/>
  <way id="15824828" version="1" timestamp="2007-12-10T01:35:48Z" uid="6454" user="B10xxx" changeset="237560">
    <nd ref="159030033"/>
    <nd ref="26190925"/>
    <tag k="created_by" v="JOSM"/>
    <tag k="highway" v="residential"/>
  </way>
  <way id="15824828" version="2" timestamp="2008-01-12T19:07:25Z" uid="6669" user="Elwood" changeset="614121">
    <nd ref="159030033"/>
    <nd ref="26190925"/>
    <tag k="created_by" v="JOSM"/>
    <tag k="highway" v="residential"/>
    <tag k="name" v="Marinesteig"/>
  </way>
  <way id="15824828" version="3" timestamp="2009-04-12T13:44:38Z" uid="6669" user="Elwood" changeset="446860">
    <nd ref="159030033"/>
    <nd ref="26190925"/>
    <tag k="created_by" v="JOSM"/>
    <tag k="highway" v="residential"/>
    <tag k="name" v="Marinesteig"/>
    <tag k="postal_code" v="14129"/>
  </way>
  <way id="15824828" version="4" timestamp="2011-05-19T19:14:41Z" uid="6669" user="Elwood" changeset="8192023">
    <nd ref="159030033"/>
    <nd ref="26190925"/>
    <tag k="highway" v="residential"/>
    <tag k="name" v="Marinesteig"/>
    <tag k="postal_code" v="14129"/>
  </way>
  <way id="15824828" version="5" timestamp="2012-02-18T14:57:13Z" uid="6669" user="Elwood" changeset="10720610"/>
</osm>
