<?xml version='1.0' encoding='UTF-8'?>
<osm version="0.6" generator="libosmium/2.20.0">
  <way id="15867102" version="9" timestamp="2011-05-11T13:46:33Z" uid="115477" user="wowik" changeset="8111856">
    <nd ref="159464337"/>
    <nd ref="1280267769"/>
    <nd ref="159464353"/>
    <tag k="bridge" v="yes"/>
    <tag k="cladr:code" v="77000000000073300"/>
    <tag k="cladr:name" v="Алтуфьевское"/>
    <tag k="cladr:suffix" v="ш"/>
    <tag k="highway" v="primary"/>
    <tag k="lanes" v="3"/>
    <tag k="layer" v="1"/>
    <tag k="lit" v="on"/>
    <tag k="name" v="Алтуфьевское шоссе"/>
    <tag k="omkum:code" v="00330"/>
    <tag k="oneway" v="yes"/>
    <tag k="sorting_name" v="Алтуфьевское  шоссе"/>
    <tag k="trolley_wire" v="yes"/>
  </way>
  <way id="15867102" version="10" timestamp="2012-03-25T07:05:38Z" uid="440644" user="markhor" changeset="11091734">
    <nd ref="159464337"/>
    <nd ref="1280267769"/>
    <nd ref="159464353"/>
    <tag k="bridge" v="yes"/>
    <tag k="cladr:code" v="77000000000073300"/>
    <tag k="cladr:name" v="Алтуфьевское"/>
    <tag k="cladr:suffix" v="ш"/>
    <tag k="highway" v="primary"/>
    <tag k="lanes" v="3"/>
    <tag k="layer" v="1"/>
    <tag k="lit" v="on"/>
    <tag k="name" v="Алтуфьевское шоссе"/>
    <tag k="omkum:code" v="00330"/>
    <tag k="oneway" v="yes"/>
    <tag k="sorting_name" v="Алтуфьевское  шоссе"/>
    <tag k="trolley_wire" v="yes"/>
    <tag k="wikipedia" v="ru:Алтуфьевское_шоссе"/>
  </way>
  <way id="15867102" version="11" timestamp="2012-07-20T11:33:00Z" uid="722137" user="OSMF Redaction Account" changeset="12373415">
    <nd ref="159464337"/>
    <nd ref="159464353"/>
    <tag k="bridge" v="yes"/>
    <tag k="cladr:code" v="77000000000073300"/>
    <tag k="cladr:name" v="Алтуфьевское"/>
    <tag k="cladr:suffix" v="ш"/>
    <tag k="highway" v="primary"/>
    <tag k="lanes" v="3"/>
    <tag k="layer" v="1"/>
    <tag k="lit" v="on"/>
    <tag k="name" v="Алтуфьевское шоссе"/>
    <tag k="omkum:code" v="00330"/>
    <tag k="oneway" v="yes"/>
    <tag k="sorting_name" v="Алтуфьевское  шоссе"/>
    <tag k="trolley_wire" v="yes"/>
    <tag k="wikipedia" v="ru:Алтуфьевское_шоссе"/>
  </way>
</osm>
