<?xml version='1.0' encoding='UTF-8'?>
<osm version="0.6" generator="libosmium/2.20.0">
  <way id="15947608" version="4" timestamp="2009-09-29T01:13:17Z" uid="36809" user="pfoten_weg_!_" changeset="2671973">
    <nd ref="160280311"/>
    <nd ref="160280640"/>
    <nd ref="160280312"/>
    <tag k="highway" v="residential"/>
    <tag k="name" v="Balthasar-Vitzthum-Straße"/>
  </way>
  <way id="15947608" version="5" timestamp="2012-02-02T12:10:35Z" uid="482628" user="gumul" changeset="10566834">
    <nd ref="160280311"/>
    <nd ref="160280640"/>
    <nd ref="160280312"/>
    <tag k="highway" v="residential"/>
    <tag k="maxspeed" v="30"/>
    <tag k="name" v="Balthasar-Vitzthum-Straße"/>
  </way>
  <way id="15947644" version="4" timestamp="2009-09-29T01:13:22Z" uid="36809" user="pfoten_weg_!_" changeset="2671973">
    <nd ref="160280638"/>
    <nd ref="160280640"/>
    <tag k="highway" v="service"/>
  </way>
  <way id="15947608" version="6" timestamp="2012-07-01T08:58:25Z" uid="8703" user="rolandg" changeset="12073304">
    <nd ref="160280311"/>
    <nd ref="1808537894"/>
    <nd ref="160280640"/>
    <nd ref="160280312"/>
    <tag k="highway" v="residential"/>
    <tag k="maxspeed" v="30"/>
    <tag k="name" v="Balthasar-Vitzthum-Straße"/>
  </way>
</osm>
