<?xml version='1.0' encoding='UTF-8'?>
<osm version="0.6" generator="libosmium/2.20.0">
  <way id="15950128" version="3" timestamp="2009-09-29T01:18:52Z" uid="36809" user="pfoten_weg_!_" changeset="2671973">
    <nd ref="52762981"/>
    <nd ref="160305118"/>
    <nd ref="160305119"/>
    <tag k="highway" v="residential"/>
    <tag k="name" v="Gartenpromenade"/>
  </way>
  <way id="15950128" version="4" timestamp="2012-02-07T08:21:17Z" uid="482628" user="gumul" changeset="10609899">
    <nd ref="52762981"/>
    <nd ref="160305118"/>
    <nd ref="160305119"/>
    <tag k="highway" v="residential"/>
    <tag k="maxspeed" v="30"/>
    <tag k="name" v="Gartenpromenade"/>
  </way>
  <way id="15950342" version="10" timestamp="2009-10-12T22:05:25Z" uid="36809" user="pfoten_weg_!_" changeset="2831291">
    <nd ref="35658188"/>
    <nd ref="281909672"/>
    <tag k="highway" v="residential"/>
    <tag k="name" v="Pippinplatz"/>
    <tag k="oneway" v="yes"/>
  </way>
  <way id="15950342" version="11" timestamp="2011-11-15T09:58:06Z" uid="482628" user="gumul" changeset="9833133">
    <nd ref="35658188"/>
    <nd ref="281909672"/>
    <tag k="highway" v="residential"/>
    <tag k="name" v="Pippinplatz"/>
    <tag k="oneway" v="-1"/>
  </way>
  <way id="15950641" version="3" timestamp="2009-09-29T01:18:41Z" uid="36809" user="pfoten_weg_!_" changeset="2671973">
    <nd ref="160310102"/>
    <nd ref="160310104"/>
    <nd ref="160310105"/>
    <nd ref="160310107"/>
    <tag k="highway" v="residential"/>
    <tag k="name" v="Hildegardstraße"/>
  </way>
  <way id="15950641" version="4" timestamp="2009-11-01T17:23:17Z" uid="7738" user="pklaus" changeset="3008725">
    <nd ref="160310102"/>
    <nd ref="160310104"/>
    <nd ref="550174236"/>
    <nd ref="160310105"/>
    <nd ref="160310107"/>
    <tag k="highway" v="residential"/>
    <tag k="name" v="Hildegardstraße"/>
  </way>
  <way id="15950641" version="5" timestamp="2011-07-29T11:25:21Z" uid="482628" user="gumul" changeset="8862419">
    <nd ref="160310102"/>
    <nd ref="160310104"/>
    <nd ref="550174236"/>
    <nd ref="160310105"/>
    <nd ref="1377466655"/>
    <nd ref="160310107"/>
    <tag k="highway" v="residential"/>
    <tag k="name" v="Hildegardstraße"/>
  </way>
  <way id="15950641" version="6" timestamp="2012-02-07T08:21:18Z" uid="482628" user="gumul" changeset="10609899">
    <nd ref="160310102"/>
    <nd ref="160310104"/>
    <nd ref="550174236"/>
    <nd ref="160310105"/>
    <nd ref="1377466655"/>
    <nd ref="160310107"/>
    <tag k="highway" v="residential"/>
    <tag k="maxspeed" v="30"/>
    <tag k="name" v="Hildegardstraße"/>
  </way>
  <way id="15950128" version="5" timestamp="2012-07-19T12:48:04Z" uid="482628" user="gumul" changeset="12326639">
    <nd ref="52762981"/>
    <nd ref="1830800932"/>
    <nd ref="1830800816"/>
    <nd ref="160305118"/>
    <nd ref="160305119"/>
    <tag k="highway" v="residential"/>
    <tag k="maxspeed" v="30"/>
    <tag k="name" v="Gartenpromenade"/>
  </way>
</osm>
