<?xml version='1.0' encoding='UTF-8'?>
<osm version="0.6" generator="libosmium/2.20.0">
  <way id="15997091" version="3" timestamp="2010-04-18T19:47:48Z" uid="23543" user="jkjk" changeset="4462140"/>
  <way id="15997403" version="2" timestamp="2010-02-15T13:38:53Z" uid="7617" user="Franc" changeset="3883208"/>
  <way id="15997405" version="2" timestamp="2010-01-31T00:21:11Z" uid="30201" user="rrankin" changeset="3755774">
    <nd ref="160758397"/>
    <nd ref="623747162"/>
    <tag k="highway" v="residential"/>
    <tag k="name" v="Woodward Avenue"/>
  </way>
  <way id="15997405" version="3" timestamp="2010-07-08T02:35:24Z" uid="74617" user="JohnSmith" changeset="5163091">
    <nd ref="160758397"/>
    <nd ref="623747162"/>
    <tag k="highway" v="residential"/>
    <tag k="maxspeed" v="50"/>
    <tag k="maxspeed:source" v="default residential speed limit in Australia"/>
    <tag k="name" v="Woodward Avenue"/>
  </way>
  <way id="15997405" version="4" timestamp="2012-01-15T15:12:57Z" uid="147510" user="woodpeck_fixbot" changeset="10398186">
    <nd ref="160758397"/>
    <nd ref="623747162"/>
    <tag k="highway" v="residential"/>
    <tag k="name" v="Woodward Avenue"/>
  </way>
  <way id="15997410" version="3" timestamp="2010-01-31T00:21:11Z" uid="30201" user="rrankin" changeset="3755774">
    <nd ref="623747142"/>
    <nd ref="623747170"/>
    <tag k="highway" v="residential"/>
    <tag k="name" v="Parsons Avenue"/>
  </way>
  <way id="15997410" version="4" timestamp="2010-07-08T02:39:13Z" uid="74617" user="JohnSmith" changeset="5163091">
    <nd ref="623747142"/>
    <nd ref="623747170"/>
    <tag k="highway" v="residential"/>
    <tag k="maxspeed" v="50"/>
    <tag k="maxspeed:source" v="default residential speed limit in Australia"/>
    <tag k="name" v="Parsons Avenue"/>
  </way>
  <way id="15997410" version="5" timestamp="2012-01-15T15:12:59Z" uid="147510" user="woodpeck_fixbot" changeset="10398186">
    <nd ref="623747142"/>
    <nd ref="623747170"/>
    <tag k="highway" v="residential"/>
    <tag k="name" v="Parsons Avenue"/>
  </way>
  <way id="15997413" version="3" timestamp="2010-02-15T13:38:48Z" uid="7617" user="Franc" changeset="3883208">
    <nd ref="160758463"/>
    <nd ref="639650656"/>
    <nd ref="163183503"/>
    <nd ref="160758478"/>
    <tag k="highway" v="residential"/>
    <tag k="name" v="Alviston Street"/>
  </way>
  <way id="15997413" version="4" timestamp="2010-07-08T02:34:37Z" uid="74617" user="JohnSmith" changeset="5163091">
    <nd ref="160758463"/>
    <nd ref="639650656"/>
    <nd ref="163183503"/>
    <nd ref="160758478"/>
    <tag k="highway" v="residential"/>
    <tag k="maxspeed" v="50"/>
    <tag k="maxspeed:source" v="default residential speed limit in Australia"/>
    <tag k="name" v="Alviston Street"/>
  </way>
  <way id="15997413" version="5" timestamp="2012-01-15T15:13:00Z" uid="147510" user="woodpeck_fixbot" changeset="10398186">
    <nd ref="160758463"/>
    <nd ref="639650656"/>
    <nd ref="163183503"/>
    <nd ref="160758478"/>
    <tag k="highway" v="residential"/>
    <tag k="name" v="Alviston Street"/>
  </way>
  <way id="15997574" version="4" timestamp="2008-05-25T06:01:05Z" uid="30201" user="rrankin" changeset="514784">
    <nd ref="160759859"/>
    <nd ref="175977473"/>
    <nd ref="160758449"/>
    <nd ref="175978492"/>
    <tag k="created_by" v="Potlatch 0.5d"/>
    <tag k="highway" v="residential"/>
    <tag k="name" v="Albyn Road"/>
  </way>
  <way id="15997574" version="5" timestamp="2010-01-31T00:21:11Z" uid="30201" user="rrankin" changeset="3755774">
    <nd ref="160759859"/>
    <nd ref="623747173"/>
    <tag k="highway" v="residential"/>
    <tag k="name" v="Albyn Road"/>
  </way>
  <way id="15997574" version="6" timestamp="2010-07-08T02:34:37Z" uid="74617" user="JohnSmith" changeset="5163091">
    <nd ref="160759859"/>
    <nd ref="623747173"/>
    <tag k="highway" v="residential"/>
    <tag k="maxspeed" v="50"/>
    <tag k="maxspeed:source" v="default residential speed limit in Australia"/>
    <tag k="name" v="Albyn Road"/>
  </way>
  <way id="15997574" version="7" timestamp="2012-01-15T15:13:01Z" uid="147510" user="woodpeck_fixbot" changeset="10398186">
    <nd ref="160759859"/>
    <nd ref="623747173"/>
    <tag k="highway" v="residential"/>
    <tag k="name" v="Albyn Road"/>
  </way>
  <way id="15997617" version="3" timestamp="2010-02-15T13:38:34Z" uid="7617" user="Franc" changeset="3883208">
    <nd ref="160760778"/>
    <nd ref="639650533"/>
    <nd ref="160762274"/>
    <nd ref="158863702"/>
    <tag k="highway" v="residential"/>
    <tag k="name" v="Redmyre Road"/>
  </way>
  <way id="15997617" version="4" timestamp="2010-07-08T02:40:03Z" uid="74617" user="JohnSmith" changeset="5163091">
    <nd ref="160760778"/>
    <nd ref="639650533"/>
    <nd ref="160762274"/>
    <nd ref="158863702"/>
    <tag k="highway" v="residential"/>
    <tag k="maxspeed" v="50"/>
    <tag k="maxspeed:source" v="default residential speed limit in Australia"/>
    <tag k="name" v="Redmyre Road"/>
  </way>
  <way id="15997617" version="5" timestamp="2012-01-15T15:13:04Z" uid="147510" user="woodpeck_fixbot" changeset="10398186">
    <nd ref="160760778"/>
    <nd ref="639650533"/>
    <nd ref="160762274"/>
    <nd ref="158863702"/>
    <tag k="highway" v="residential"/>
    <tag k="name" v="Redmyre Road"/>
  </way>
  <way id="15997704" version="8" timestamp="2008-05-25T06:00:58Z" uid="30201" user="rrankin" changeset="514784">
    <nd ref="160760778"/>
    <nd ref="160761743"/>
    <nd ref="160775450"/>
    <nd ref="160760289"/>
    <nd ref="160775108"/>
    <tag k="created_by" v="Potlatch 0.5d"/>
    <tag k="highway" v="residential"/>
    <tag k="name" v="Chalmers Road"/>
  </way>
  <way id="15997704" version="9" timestamp="2010-02-15T13:38:42Z" uid="7617" user="Franc" changeset="3883208">
    <nd ref="160760778"/>
    <nd ref="639650531"/>
    <nd ref="160761743"/>
    <nd ref="160775450"/>
    <nd ref="160760289"/>
    <nd ref="639650529"/>
    <tag k="highway" v="residential"/>
    <tag k="name" v="Chalmers Road"/>
  </way>
  <way id="15997704" version="10" timestamp="2010-07-08T02:38:02Z" uid="74617" user="JohnSmith" changeset="5163091">
    <nd ref="160760778"/>
    <nd ref="639650531"/>
    <nd ref="160761743"/>
    <nd ref="160775450"/>
    <nd ref="160760289"/>
    <nd ref="639650529"/>
    <tag k="highway" v="residential"/>
    <tag k="maxspeed" v="50"/>
    <tag k="maxspeed:source" v="default residential speed limit in Australia"/>
    <tag k="name" v="Chalmers Road"/>
  </way>
  <way id="15997704" version="11" timestamp="2012-01-15T15:13:06Z" uid="147510" user="woodpeck_fixbot" changeset="10398186">
    <nd ref="160760778"/>
    <nd ref="639650531"/>
    <nd ref="160761743"/>
    <nd ref="160775450"/>
    <nd ref="160760289"/>
    <nd ref="639650529"/>
    <tag k="highway" v="residential"/>
    <tag k="name" v="Chalmers Road"/>
  </way>
  <way id="15997719" version="3" timestamp="2010-02-15T13:38:33Z" uid="7617" user="Franc" changeset="3883208">
    <nd ref="160761743"/>
    <nd ref="160763338"/>
    <nd ref="639650653"/>
    <tag k="highway" v="residential"/>
    <tag k="name" v="Elwin Road"/>
  </way>
  <way id="15997719" version="4" timestamp="2010-07-08T02:33:37Z" uid="74617" user="JohnSmith" changeset="5163091">
    <nd ref="160761743"/>
    <nd ref="160763338"/>
    <nd ref="639650653"/>
    <tag k="highway" v="residential"/>
    <tag k="maxspeed" v="50"/>
    <tag k="maxspeed:source" v="default residential speed limit in Australia"/>
    <tag k="name" v="Elwin Road"/>
  </way>
  <way id="15997719" version="5" timestamp="2012-01-15T15:13:10Z" uid="147510" user="woodpeck_fixbot" changeset="10398186">
    <nd ref="160761743"/>
    <nd ref="160763338"/>
    <nd ref="639650653"/>
    <tag k="highway" v="residential"/>
    <tag k="name" v="Elwin Road"/>
  </way>
  <way id="15997803" version="2" timestamp="2010-02-15T13:38:46Z" uid="7617" user="Franc" changeset="3883208">
    <nd ref="160762274"/>
    <nd ref="639650663"/>
    <nd ref="160763337"/>
    <nd ref="160763338"/>
    <nd ref="639650654"/>
    <nd ref="639650655"/>
    <nd ref="160763339"/>
    <tag k="highway" v="residential"/>
    <tag k="name" v="Florence Street"/>
  </way>
  <way id="15997803" version="3" timestamp="2010-07-08T02:33:42Z" uid="74617" user="JohnSmith" changeset="5163091">
    <nd ref="160762274"/>
    <nd ref="639650663"/>
    <nd ref="160763337"/>
    <nd ref="160763338"/>
    <nd ref="639650654"/>
    <nd ref="639650655"/>
    <nd ref="160763339"/>
    <tag k="highway" v="residential"/>
    <tag k="maxspeed" v="50"/>
    <tag k="maxspeed:source" v="default residential speed limit in Australia"/>
    <tag k="name" v="Florence Street"/>
  </way>
  <way id="15997803" version="4" timestamp="2012-01-15T15:13:11Z" uid="147510" user="woodpeck_fixbot" changeset="10398186">
    <nd ref="160762274"/>
    <nd ref="639650663"/>
    <nd ref="160763337"/>
    <nd ref="160763338"/>
    <nd ref="639650654"/>
    <nd ref="639650655"/>
    <nd ref="160763339"/>
    <tag k="highway" v="residential"/>
    <tag k="name" v="Florence Street"/>
  </way>
  <way id="15997815" version="3" timestamp="2008-05-25T06:01:00Z" uid="30201" user="rrankin" changeset="514784">
    <nd ref="160763360"/>
    <nd ref="160763736"/>
    <nd ref="160763578"/>
    <tag k="created_by" v="Potlatch 0.5d"/>
    <tag k="highway" v="residential"/>
    <tag k="lcn" v="yes"/>
    <tag k="name" v="Victoria Street"/>
  </way>
  <way id="15997815" version="4" timestamp="2010-07-08T02:40:33Z" uid="74617" user="JohnSmith" changeset="5163091">
    <nd ref="160763360"/>
    <nd ref="160763736"/>
    <nd ref="160763578"/>
    <tag k="highway" v="residential"/>
    <tag k="lcn" v="yes"/>
    <tag k="maxspeed" v="50"/>
    <tag k="maxspeed:source" v="default residential speed limit in Australia"/>
    <tag k="name" v="Victoria Street"/>
  </way>
  <way id="15997815" version="5" timestamp="2012-01-15T15:13:13Z" uid="147510" user="woodpeck_fixbot" changeset="10398186">
    <nd ref="160763360"/>
    <nd ref="160763736"/>
    <nd ref="160763578"/>
    <tag k="highway" v="residential"/>
    <tag k="lcn" v="yes"/>
    <tag k="name" v="Victoria Street"/>
  </way>
  <way id="15997862" version="3" timestamp="2008-05-28T01:46:32Z" uid="30201" user="rrankin" changeset="537299">
    <nd ref="160763736"/>
    <nd ref="160764305"/>
    <tag k="created_by" v="Potlatch 0.5d"/>
    <tag k="highway" v="residential"/>
    <tag k="name" v="Summit Place"/>
  </way>
  <way id="15997862" version="4" timestamp="2010-07-08T02:38:27Z" uid="74617" user="JohnSmith" changeset="5163091">
    <nd ref="160763736"/>
    <nd ref="160764305"/>
    <tag k="highway" v="residential"/>
    <tag k="maxspeed" v="50"/>
    <tag k="maxspeed:source" v="default residential speed limit in Australia"/>
    <tag k="name" v="Summit Place"/>
  </way>
  <way id="15997862" version="5" timestamp="2012-01-15T15:13:15Z" uid="147510" user="woodpeck_fixbot" changeset="10398186">
    <nd ref="160763736"/>
    <nd ref="160764305"/>
    <tag k="highway" v="residential"/>
    <tag k="name" v="Summit Place"/>
  </way>
  <way id="15997920" version="2" timestamp="2010-07-08T02:39:25Z" uid="74617" user="JohnSmith" changeset="5163091">
    <nd ref="160764562"/>
    <nd ref="160764911"/>
    <tag k="highway" v="residential"/>
    <tag k="maxspeed" v="50"/>
    <tag k="maxspeed:source" v="default residential speed limit in Australia"/>
    <tag k="name" v="Birnam Grove"/>
  </way>
  <way id="15997920" version="3" timestamp="2012-01-15T15:13:16Z" uid="147510" user="woodpeck_fixbot" changeset="10398186">
    <nd ref="160764562"/>
    <nd ref="160764911"/>
    <tag k="highway" v="residential"/>
    <tag k="name" v="Birnam Grove"/>
  </way>
  <way id="15997405" version="5" timestamp="2012-07-20T08:39:10Z" uid="722137" user="OSMF Redaction Account" changeset="12368619"/>
  <way id="15997410" version="6" timestamp="2012-07-20T08:39:09Z" uid="722137" user="OSMF Redaction Account" changeset="12368619"/>
  <way id="15997413" version="6" timestamp="2012-07-20T08:28:20Z" uid="722137" user="OSMF Redaction Account" changeset="12368329">
    <nd ref="160758463"/>
    <nd ref="163183503"/>
    <nd ref="160758478"/>
    <tag k="highway" v="residential"/>
    <tag k="name" v="Alviston Street"/>
  </way>
  <way id="15997574" version="8" timestamp="2012-07-02T09:21:45Z" uid="713671" user="auspod" changeset="12084947">
    <nd ref="1809751844"/>
    <nd ref="1809751768"/>
    <nd ref="623747173"/>
    <tag k="highway" v="residential"/>
    <tag k="name" v="Albyn Road"/>
  </way>
  <way id="15997574" version="9" timestamp="2012-07-20T08:28:22Z" uid="722137" user="OSMF Redaction Account" changeset="12368329">
    <nd ref="1809751844"/>
    <nd ref="1809751768"/>
    <tag k="highway" v="residential"/>
    <tag k="name" v="Albyn Road"/>
  </way>
  <way id="15997574" version="10" timestamp="2012-07-28T20:19:05Z" uid="71337" user="quantumstate" changeset="12527878">
    <nd ref="1809751844"/>
    <nd ref="1809751768"/>
    <nd ref="160758449"/>
    <tag k="highway" v="residential"/>
    <tag k="name" v="Albyn Road"/>
  </way>
  <way id="15997574" version="11" timestamp="2012-08-01T17:05:09Z" uid="510836" user="Rub21" changeset="12576715">
    <nd ref="1809751844"/>
    <nd ref="1809751768"/>
    <nd ref="1847112570"/>
    <nd ref="160758449"/>
    <nd ref="1847112558"/>
    <tag k="highway" v="residential"/>
    <tag k="name" v="Albyn Road"/>
  </way>
  <way id="15997574" version="12" timestamp="2012-08-02T12:10:09Z" uid="11321" user="Pecisk" changeset="12585114">
    <nd ref="1809751844"/>
    <nd ref="1848332024"/>
    <nd ref="1809751768"/>
    <nd ref="1847112570"/>
    <nd ref="160758449"/>
    <nd ref="1847112558"/>
    <tag k="highway" v="residential"/>
    <tag k="name" v="Albyn Road"/>
  </way>
  <way id="15997617" version="6" timestamp="2012-07-20T08:28:18Z" uid="722137" user="OSMF Redaction Account" changeset="12368329">
    <nd ref="160760778"/>
    <nd ref="160762274"/>
    <nd ref="158863702"/>
    <tag k="highway" v="residential"/>
    <tag k="name" v="Redmyre Road"/>
  </way>
  <way id="15997617" version="7" timestamp="2012-07-30T14:35:28Z" uid="504708" user="HillWithSmallFields" changeset="12548939"/>
  <way id="15997704" version="12" timestamp="2012-04-13T18:34:44Z" uid="118262" user="Wynndale" changeset="11290749"/>
  <way id="15997719" version="6" timestamp="2012-04-13T18:34:38Z" uid="118262" user="Wynndale" changeset="11290749">
    <nd ref="1714901631"/>
    <nd ref="160763338"/>
    <nd ref="639650653"/>
    <tag k="highway" v="residential"/>
    <tag k="name" v="Elwin Road"/>
  </way>
  <way id="15997719" version="7" timestamp="2012-07-20T08:28:21Z" uid="722137" user="OSMF Redaction Account" changeset="12368329">
    <nd ref="1714901631"/>
    <nd ref="160763338"/>
    <tag k="highway" v="residential"/>
    <tag k="name" v="Elwin Road"/>
  </way>
  <way id="15997803" version="5" timestamp="2012-07-20T08:28:18Z" uid="722137" user="OSMF Redaction Account" changeset="12368329">
    <nd ref="160762274"/>
    <nd ref="160763337"/>
    <nd ref="160763338"/>
    <nd ref="160763339"/>
    <tag k="highway" v="residential"/>
    <tag k="name" v="Florence Street"/>
  </way>
  <way id="15997803" version="6" timestamp="2012-08-02T12:10:09Z" uid="11321" user="Pecisk" changeset="12585114">
    <nd ref="160762274"/>
    <nd ref="160763337"/>
    <nd ref="160763338"/>
    <nd ref="1848332020"/>
    <nd ref="1848332022"/>
    <nd ref="1848332023"/>
    <nd ref="160763339"/>
    <tag k="highway" v="residential"/>
    <tag k="name" v="Florence Street"/>
  </way>
  <way id="15997815" version="6" timestamp="2012-04-13T18:34:38Z" uid="118262" user="Wynndale" changeset="11290749">
    <nd ref="1714901701"/>
    <nd ref="160763736"/>
    <nd ref="160763578"/>
    <tag k="highway" v="residential"/>
    <tag k="lcn" v="yes"/>
    <tag k="name" v="Victoria Street"/>
  </way>
  <way id="15997815" version="7" timestamp="2012-07-20T08:32:07Z" uid="722137" user="OSMF Redaction Account" changeset="12368415">
    <nd ref="1714901701"/>
    <nd ref="160763736"/>
    <nd ref="160763578"/>
    <tag k="highway" v="residential"/>
    <tag k="name" v="Victoria Street"/>
  </way>
  <way id="15997862" version="6" timestamp="2012-07-20T08:32:07Z" uid="722137" user="OSMF Redaction Account" changeset="12368415">
    <nd ref="160763736"/>
    <nd ref="160764305"/>
    <tag k="highway" v="residential"/>
  </way>
</osm>
