<?xml version='1.0' encoding='UTF-8'?>
<osm version="0.6" generator="libosmium/2.20.0">
  <way id="16125345" version="3" timestamp="2008-07-04T07:59:50Z" uid="6975" user="ulfl" changeset="389415">
    <nd ref="162716672"/>
    <nd ref="162716680"/>
    <nd ref="162716687"/>
    <nd ref="162716696"/>
    <nd ref="162716705"/>
    <nd ref="162716710"/>
    <nd ref="162716672"/>
    <tag k="building" v="yes"/>
    <tag k="name" v="B&amp;amp;Q"/>
    <tag k="shop" v="doityourself"/>
  </way>
  <way id="16125345" version="4" timestamp="2008-10-09T19:59:55Z" uid="14846" user="ndm" changeset="193393">
    <nd ref="162716672"/>
    <nd ref="162716680"/>
    <nd ref="162716687"/>
    <nd ref="162716696"/>
    <nd ref="162716705"/>
    <nd ref="162716710"/>
    <nd ref="162716672"/>
    <tag k="building" v="yes"/>
    <tag k="name" v="B&amp;Q"/>
    <tag k="shop" v="doityourself"/>
  </way>
  <way id="16125396" version="19" timestamp="2010-03-16T22:33:23Z" uid="163746" user="anti_bot-nonsense" changeset="4147654">
    <nd ref="162715657"/>
    <nd ref="162717914"/>
    <nd ref="255327217"/>
    <nd ref="162717915"/>
    <nd ref="264050253"/>
    <tag k="highway" v="secondary"/>
    <tag k="name" v="Księcia Mieszka I"/>
  </way>
  <way id="16125396" version="20" timestamp="2010-03-27T17:59:15Z" uid="88909" user="miko101" changeset="4249149">
    <nd ref="162715657"/>
    <nd ref="676091618"/>
    <tag k="highway" v="secondary"/>
    <tag k="name" v="Księcia Mieszka I"/>
  </way>
  <way id="16125396" version="21" timestamp="2010-03-27T18:00:47Z" uid="88909" user="miko101" changeset="4249149">
    <nd ref="676095103"/>
    <nd ref="676095163"/>
    <nd ref="676095238"/>
    <nd ref="676095251"/>
    <nd ref="676091618"/>
    <tag k="highway" v="secondary"/>
    <tag k="name" v="Księcia Mieszka I"/>
  </way>
  <way id="16125396" version="22" timestamp="2010-03-27T18:03:14Z" uid="88909" user="miko101" changeset="4249149">
    <nd ref="676091618"/>
    <nd ref="676095251"/>
    <nd ref="676095238"/>
    <nd ref="676095163"/>
    <nd ref="676095103"/>
    <tag k="highway" v="secondary"/>
    <tag k="name" v="Księcia Mieszka I"/>
    <tag k="oneway" v="yes"/>
  </way>
  <way id="16125396" version="23" timestamp="2010-03-27T18:05:34Z" uid="88909" user="miko101" changeset="4249149">
    <nd ref="676091618"/>
    <nd ref="676095251"/>
    <nd ref="676105767"/>
    <nd ref="676095238"/>
    <nd ref="676095163"/>
    <nd ref="676095103"/>
    <tag k="highway" v="secondary"/>
    <tag k="name" v="Księcia Mieszka I"/>
    <tag k="oneway" v="yes"/>
  </way>
  <way id="16125443" version="1" timestamp="2007-12-11T20:17:06Z" uid="6975" user="ulfl" changeset="261495">
    <nd ref="21263916"/>
    <nd ref="162718544"/>
    <nd ref="162718553"/>
    <nd ref="162718559"/>
    <nd ref="162718566"/>
    <nd ref="162718570"/>
    <nd ref="162718577"/>
    <nd ref="122399125"/>
    <tag k="created_by" v="JOSM"/>
    <tag k="highway" v="residential"/>
  </way>
  <way id="16125443" version="2" timestamp="2008-02-23T12:27:55Z" uid="6975" user="ulfl" changeset="184302">
    <nd ref="21263916"/>
    <nd ref="162718544"/>
    <nd ref="162718553"/>
    <nd ref="162718559"/>
    <nd ref="162718566"/>
    <nd ref="162718570"/>
    <nd ref="162718577"/>
    <nd ref="122399125"/>
    <tag k="created_by" v="Potlatch 0.7b"/>
    <tag k="highway" v="residential"/>
  </way>
  <way id="16125443" version="3" timestamp="2008-02-23T12:28:00Z" uid="6975" user="ulfl" changeset="184302">
    <nd ref="21263916"/>
    <nd ref="162718544"/>
    <nd ref="162718553"/>
    <nd ref="162718559"/>
    <nd ref="162718566"/>
    <nd ref="248882099"/>
    <nd ref="162718570"/>
    <nd ref="162718577"/>
    <nd ref="122399125"/>
    <tag k="created_by" v="Potlatch 0.7b"/>
    <tag k="highway" v="residential"/>
  </way>
  <way id="16125443" version="4" timestamp="2008-02-23T12:28:09Z" uid="6975" user="ulfl" changeset="184302">
    <nd ref="21263916"/>
    <nd ref="162718544"/>
    <nd ref="162718553"/>
    <nd ref="162718559"/>
    <nd ref="162718566"/>
    <nd ref="248882099"/>
    <nd ref="162718570"/>
    <nd ref="162718577"/>
    <nd ref="122399125"/>
    <tag k="created_by" v="Potlatch 0.7b"/>
    <tag k="highway" v="residential"/>
  </way>
  <way id="16125443" version="5" timestamp="2008-03-09T01:57:29Z" uid="30053" user="Red Rooster" changeset="290549">
    <nd ref="21263916"/>
    <nd ref="162718544"/>
    <nd ref="162718553"/>
    <nd ref="162718559"/>
    <nd ref="162718566"/>
    <nd ref="248882099"/>
    <nd ref="162718570"/>
    <tag k="created_by" v="Potlatch 0.7b"/>
    <tag k="highway" v="residential"/>
    <tag k="name" v="Scherbsgraben"/>
  </way>
  <way id="16125443" version="6" timestamp="2008-03-10T21:03:41Z" uid="30053" user="Red Rooster" changeset="299613">
    <nd ref="21263916"/>
    <nd ref="162718544"/>
    <nd ref="162718553"/>
    <nd ref="162718559"/>
    <nd ref="162718566"/>
    <nd ref="248882099"/>
    <nd ref="162718570"/>
    <tag k="created_by" v="Potlatch 0.7b"/>
    <tag k="highway" v="residential"/>
    <tag k="name" v="Scherbsgraben"/>
  </way>
  <way id="16125443" version="7" timestamp="2008-03-16T17:35:21Z" uid="30053" user="Red Rooster" changeset="336663">
    <nd ref="21263916"/>
    <nd ref="162718544"/>
    <nd ref="162718553"/>
    <nd ref="252451777"/>
    <nd ref="162718559"/>
    <nd ref="162718566"/>
    <nd ref="248882099"/>
    <nd ref="162718570"/>
    <tag k="created_by" v="Potlatch 0.7b"/>
    <tag k="highway" v="residential"/>
    <tag k="name" v="Scherbsgraben"/>
  </way>
  <way id="16125443" version="8" timestamp="2009-03-13T22:55:46Z" uid="106040" user="mw9" changeset="803568">
    <nd ref="21263916"/>
    <nd ref="162718544"/>
    <nd ref="162718553"/>
    <nd ref="252451777"/>
    <nd ref="162718559"/>
    <nd ref="162718566"/>
    <nd ref="248882099"/>
    <nd ref="162718570"/>
    <tag k="created_by" v="Potlatch 0.10f"/>
    <tag k="highway" v="tertiary"/>
    <tag k="name" v="Scherbsgraben"/>
  </way>
  <way id="16125443" version="9" timestamp="2009-08-15T06:47:03Z" uid="109925" user="WanMil" changeset="2150089">
    <nd ref="21263916"/>
    <nd ref="162718544"/>
    <nd ref="162718553"/>
    <nd ref="252451777"/>
    <nd ref="162718559"/>
    <nd ref="162718566"/>
    <nd ref="248882099"/>
    <nd ref="162718570"/>
    <tag k="highway" v="tertiary"/>
    <tag k="name" v="Scherbsgraben"/>
  </way>
  <way id="16125443" version="10" timestamp="2009-11-28T20:46:37Z" uid="73317" user="kanu_guenni" changeset="3240140">
    <nd ref="21263916"/>
    <nd ref="162718544"/>
    <nd ref="162718553"/>
    <nd ref="252451777"/>
    <nd ref="162718559"/>
    <nd ref="162718566"/>
    <nd ref="573674268"/>
    <nd ref="248882099"/>
    <nd ref="162718570"/>
    <tag k="highway" v="tertiary"/>
    <tag k="name" v="Scherbsgraben"/>
  </way>
  <way id="16125443" version="11" timestamp="2009-11-28T20:52:22Z" uid="73317" user="kanu_guenni" changeset="3240140">
    <nd ref="21263916"/>
    <nd ref="162718544"/>
    <nd ref="162718553"/>
    <nd ref="252451777"/>
    <nd ref="162718559"/>
    <nd ref="162718566"/>
    <nd ref="573680712"/>
    <nd ref="573674268"/>
    <nd ref="248882099"/>
    <nd ref="162718570"/>
    <tag k="highway" v="tertiary"/>
    <tag k="name" v="Scherbsgraben"/>
  </way>
  <way id="16125443" version="12" timestamp="2010-09-03T23:23:10Z" uid="13192" user="delphiN" changeset="5674902">
    <nd ref="21263916"/>
    <nd ref="162718544"/>
    <nd ref="162718553"/>
    <nd ref="252451777"/>
    <nd ref="162718566"/>
    <nd ref="573680712"/>
    <nd ref="573674268"/>
    <nd ref="248882099"/>
    <nd ref="162718570"/>
    <tag k="highway" v="tertiary"/>
    <tag k="name" v="Scherbsgraben"/>
  </way>
  <way id="16125443" version="13" timestamp="2010-09-04T00:04:38Z" uid="13192" user="delphiN" changeset="5675011">
    <nd ref="21263916"/>
    <nd ref="162718544"/>
    <nd ref="162718553"/>
    <nd ref="252451777"/>
    <nd ref="162718566"/>
    <nd ref="573680712"/>
    <nd ref="573674268"/>
    <nd ref="248882099"/>
    <nd ref="162718570"/>
    <tag k="highway" v="tertiary"/>
    <tag k="name" v="Scherbsgraben"/>
  </way>
  <way id="16125443" version="14" timestamp="2010-09-04T20:56:05Z" uid="13192" user="delphiN" changeset="5682574">
    <nd ref="21263916"/>
    <nd ref="162718544"/>
    <nd ref="162718553"/>
    <nd ref="252451777"/>
    <nd ref="162718566"/>
    <nd ref="573680712"/>
    <nd ref="896347764"/>
    <nd ref="573674268"/>
    <nd ref="248882099"/>
    <nd ref="162718570"/>
    <tag k="highway" v="tertiary"/>
    <tag k="name" v="Scherbsgraben"/>
  </way>
  <way id="16125443" version="15" timestamp="2010-09-05T17:29:14Z" uid="13192" user="delphiN" changeset="5690165">
    <nd ref="21263916"/>
    <nd ref="897641714"/>
    <nd ref="897641142"/>
    <nd ref="897640565"/>
    <nd ref="162718544"/>
    <nd ref="162718553"/>
    <nd ref="252451777"/>
    <nd ref="162718566"/>
    <nd ref="573680712"/>
    <nd ref="896347764"/>
    <nd ref="573674268"/>
    <nd ref="248882099"/>
    <nd ref="162718570"/>
    <tag k="highway" v="tertiary"/>
    <tag k="name" v="Scherbsgraben"/>
  </way>
  <way id="16125443" version="16" timestamp="2010-11-22T12:56:18Z" uid="13192" user="delphiN" changeset="6431241">
    <nd ref="21263916"/>
    <nd ref="897641714"/>
    <nd ref="897641142"/>
    <nd ref="897640565"/>
    <nd ref="162718544"/>
    <nd ref="162718553"/>
    <nd ref="252451777"/>
    <nd ref="162718566"/>
    <nd ref="573680712"/>
    <nd ref="896347764"/>
    <nd ref="573674268"/>
    <nd ref="248882099"/>
    <nd ref="999325859"/>
    <nd ref="999325851"/>
    <nd ref="162718570"/>
    <tag k="highway" v="tertiary"/>
    <tag k="name" v="Scherbsgraben"/>
  </way>
  <way id="16125443" version="17" timestamp="2012-01-20T10:04:34Z" uid="82877" user="Wankmann" changeset="10444713"/>
  <way id="16125444" version="1" timestamp="2007-12-11T20:17:06Z" uid="6975" user="ulfl" changeset="261495">
    <nd ref="122399134"/>
    <nd ref="162718585"/>
    <nd ref="162718593"/>
    <nd ref="162718601"/>
    <nd ref="162718610"/>
    <nd ref="162718620"/>
    <tag k="created_by" v="JOSM"/>
    <tag k="highway" v="residential"/>
  </way>
  <way id="16125444" version="2" timestamp="2007-12-12T20:08:00Z" uid="6975" user="ulfl" changeset="276053">
    <nd ref="122399134"/>
    <nd ref="162718585"/>
    <nd ref="165008528"/>
    <nd ref="162718593"/>
    <nd ref="162718601"/>
    <nd ref="162718610"/>
    <nd ref="162718620"/>
    <tag k="created_by" v="JOSM"/>
    <tag k="highway" v="residential"/>
  </way>
  <way id="16125444" version="3" timestamp="2008-03-09T02:03:11Z" uid="30053" user="Red Rooster" changeset="290549"/>
  <way id="16125757" version="2" timestamp="2008-07-14T15:12:47Z" uid="16579" user="bjk" changeset="486019">
    <nd ref="25777450"/>
    <nd ref="25777452"/>
    <tag k="bridge" v="yes"/>
    <tag k="created_by" v="JOSM"/>
    <tag k="highway" v="motorway"/>
    <tag k="layer" v="5"/>
    <tag k="name" v="A4"/>
    <tag k="oneway" v="true"/>
  </way>
  <way id="16125757" version="3" timestamp="2008-07-16T20:51:37Z" uid="42123" user="Ropino" changeset="508791">
    <nd ref="25777450"/>
    <nd ref="25777452"/>
    <tag k="bridge" v="yes"/>
    <tag k="created_by" v="JOSM"/>
    <tag k="highway" v="motorway"/>
    <tag k="layer" v="5"/>
    <tag k="oneway" v="true"/>
    <tag k="ref" v="A 4"/>
  </way>
  <way id="16125757" version="4" timestamp="2008-07-18T12:36:56Z" uid="41016" user="Oliver Riesen" changeset="530750"/>
  <way id="16125781" version="7" timestamp="2009-06-30T01:52:27Z" uid="20587" user="balrog-kun" changeset="1683645">
    <nd ref="162722314"/>
    <nd ref="430999277"/>
    <nd ref="430999576"/>
    <nd ref="265627628"/>
    <nd ref="265627418"/>
    <tag k="created_by" v="Potlatch 0.9a"/>
    <tag k="highway" v="secondary"/>
    <tag k="name" v="Przepadek"/>
    <tag k="oneway" v="yes"/>
  </way>
  <way id="16125781" version="8" timestamp="2009-06-30T02:15:37Z" uid="20587" user="balrog-kun" changeset="1683707">
    <nd ref="162722314"/>
    <nd ref="430999277"/>
    <nd ref="430999576"/>
    <nd ref="265627628"/>
    <nd ref="265627418"/>
    <tag k="created_by" v="Potlatch 0.9a"/>
    <tag k="highway" v="secondary"/>
    <tag k="name" v="Przepadek"/>
    <tag k="oneway" v="yes"/>
  </way>
  <way id="16125781" version="9" timestamp="2009-06-30T20:35:43Z" uid="20587" user="balrog-kun" changeset="1695853">
    <nd ref="162722314"/>
    <nd ref="430999277"/>
    <nd ref="430999576"/>
    <nd ref="265627628"/>
    <nd ref="265627418"/>
    <tag k="created_by" v="Potlatch 0.9a"/>
    <tag k="highway" v="secondary"/>
    <tag k="name" v="Przepadek"/>
    <tag k="oneway" v="yes"/>
  </way>
  <way id="16125781" version="10" timestamp="2009-07-01T03:20:54Z" uid="20587" user="balrog-kun" changeset="1697137">
    <nd ref="162722314"/>
    <nd ref="430999277"/>
    <nd ref="430999576"/>
    <nd ref="265627628"/>
    <nd ref="265627418"/>
    <tag k="created_by" v="Potlatch 0.9a"/>
    <tag k="highway" v="secondary"/>
    <tag k="name" v="Przepadek"/>
    <tag k="oneway" v="yes"/>
  </way>
  <way id="16125781" version="11" timestamp="2010-03-16T22:00:23Z" uid="163746" user="anti_bot-nonsense" changeset="4147354">
    <nd ref="162722314"/>
    <nd ref="430999277"/>
    <nd ref="430999576"/>
    <nd ref="265627628"/>
    <nd ref="265627418"/>
    <tag k="highway" v="secondary"/>
    <tag k="name" v="Przepadek"/>
    <tag k="oneway" v="yes"/>
  </way>
  <way id="16125781" version="12" timestamp="2010-08-25T16:21:01Z" uid="88909" user="miko101" changeset="5591044">
    <nd ref="162722314"/>
    <nd ref="430999277"/>
    <nd ref="879006628"/>
    <nd ref="430999576"/>
    <nd ref="265627628"/>
    <nd ref="265627418"/>
    <tag k="highway" v="secondary"/>
    <tag k="name" v="Przepadek"/>
    <tag k="oneway" v="yes"/>
  </way>
  <way id="16125345" version="5" timestamp="2012-04-24T16:09:05Z" uid="666740" user="Sinnyo" changeset="11406809">
    <nd ref="162716672"/>
    <nd ref="162716680"/>
    <nd ref="162716687"/>
    <nd ref="162716696"/>
    <nd ref="162716705"/>
    <nd ref="162716710"/>
    <nd ref="162716672"/>
    <tag k="addr:street" v="Lister Road"/>
    <tag k="building" v="yes"/>
    <tag k="name" v="B&amp;Q"/>
    <tag k="shop" v="doityourself"/>
  </way>
  <way id="16125345" version="6" timestamp="2012-07-13T18:03:49Z" uid="722137" user="OSMF Redaction Account" changeset="12209450">
    <nd ref="162716672"/>
    <nd ref="162716680"/>
    <nd ref="162716687"/>
    <nd ref="162716696"/>
    <nd ref="162716705"/>
    <nd ref="162716710"/>
    <nd ref="162716672"/>
    <tag k="addr:street" v="Lister Road"/>
    <tag k="building" v="yes"/>
    <tag k="name" v="B&amp;Q"/>
    <tag k="shop" v="diy"/>
  </way>
  <way id="16125345" version="7" timestamp="2012-07-14T13:28:19Z" uid="82820" user="Mark_S" changeset="12217476">
    <nd ref="31412370"/>
    <nd ref="31412369"/>
    <nd ref="162716640"/>
    <nd ref="162716646"/>
    <nd ref="162716705"/>
    <nd ref="162716710"/>
    <nd ref="31412370"/>
    <tag k="addr:street" v="Lister Road"/>
    <tag k="building" v="yes"/>
    <tag k="name" v="B&amp;Q"/>
    <tag k="shop" v="diy"/>
    <tag k="source" v="bing"/>
  </way>
  <way id="16125345" version="8" timestamp="2012-09-01T12:20:42Z" uid="79386" user="philippekerla" changeset="12941886">
    <nd ref="31412370"/>
    <nd ref="31412369"/>
    <nd ref="162716640"/>
    <nd ref="162716646"/>
    <nd ref="162716705"/>
    <nd ref="162716710"/>
    <nd ref="31412370"/>
    <tag k="addr:street" v="Lister Road"/>
    <tag k="building" v="yes"/>
    <tag k="name" v="B&amp;Q"/>
    <tag k="shop" v="doityourself"/>
    <tag k="source" v="bing"/>
  </way>
  <way id="16125781" version="13" timestamp="2012-05-01T21:50:34Z" uid="88909" user="miko101" changeset="11474797">
    <nd ref="162722314"/>
    <nd ref="430999277"/>
    <nd ref="879006628"/>
    <nd ref="430999576"/>
    <nd ref="265627628"/>
    <nd ref="265627418"/>
    <tag k="highway" v="secondary"/>
    <tag k="lit" v="yes"/>
    <tag k="name" v="Przepadek"/>
    <tag k="oneway" v="yes"/>
  </way>
  <way id="16125781" version="14" timestamp="2012-08-24T15:42:10Z" uid="88909" user="miko101" changeset="12846513">
    <nd ref="162722314"/>
    <nd ref="430999277"/>
    <nd ref="879006628"/>
    <nd ref="430999576"/>
    <nd ref="265627628"/>
    <nd ref="265627418"/>
    <tag k="highway" v="tertiary"/>
    <tag k="lit" v="yes"/>
    <tag k="name" v="Przepadek"/>
    <tag k="oneway" v="yes"/>
  </way>
</osm>
