<?xml version='1.0' encoding='UTF-8'?>
<osm version="0.6" generator="libosmium/2.20.0">
  <way id="16129240" version="12" timestamp="2009-02-14T01:20:06Z" uid="36809" user="pfoten_weg_!_" changeset="423851">
    <nd ref="30884825"/>
    <nd ref="21101331"/>
    <nd ref="21101333"/>
    <nd ref="21101335"/>
    <tag k="created_by" v="RambaZamba"/>
    <tag k="highway" v="primary"/>
    <tag k="layer" v="-1"/>
    <tag k="name" v="Leuchtenbergring"/>
    <tag k="note" v="trunk bei diesem kurzen Stück kaum sinnvoll"/>
    <tag k="oneway" v="yes"/>
    <tag k="osmarender:nameDirection" v="-1"/>
    <tag k="osmarender:renderName" v="no"/>
    <tag k="ref" v="B 2R;B 11"/>
    <tag k="source" v="survey"/>
    <tag k="tunnel" v="yes"/>
  </way>
  <way id="16129240" version="13" timestamp="2009-05-25T22:19:26Z" uid="17979" user="rudison" changeset="1321581">
    <nd ref="30884825"/>
    <nd ref="21101331"/>
    <nd ref="21101333"/>
    <nd ref="21101335"/>
    <tag k="created_by" v="RambaZamba"/>
    <tag k="highway" v="primary"/>
    <tag k="layer" v="-1"/>
    <tag k="maxspeed" v="40"/>
    <tag k="name" v="Leuchtenbergring"/>
    <tag k="note" v="trunk bei diesem kurzen Stück kaum sinnvoll"/>
    <tag k="oneway" v="yes"/>
    <tag k="osmarender:nameDirection" v="-1"/>
    <tag k="osmarender:renderName" v="no"/>
    <tag k="ref" v="B 2R;B 11"/>
    <tag k="source" v="survey"/>
    <tag k="tunnel" v="yes"/>
  </way>
  <way id="16129240" version="14" timestamp="2009-05-26T17:43:04Z" uid="17979" user="rudison" changeset="1327695">
    <nd ref="30884825"/>
    <nd ref="411506081"/>
    <tag k="bicycle" v="no"/>
    <tag k="foot" v="no"/>
    <tag k="highway" v="trunk"/>
    <tag k="layer" v="-1"/>
    <tag k="maxspeed" v="40"/>
    <tag k="motorroad" v="yes"/>
    <tag k="name" v="Innsbrucker Ring"/>
    <tag k="note" v="Innsbrucker Ring Tunnel"/>
    <tag k="oneway" v="yes"/>
    <tag k="osmarender:nameDirection" v="-1"/>
    <tag k="osmarender:renderName" v="no"/>
    <tag k="ref" v="B 2R;B 11"/>
    <tag k="source" v="survey"/>
  </way>
  <way id="16129240" version="15" timestamp="2009-06-26T18:36:20Z" uid="129061" user="Singvogel" changeset="1643636">
    <nd ref="30884825"/>
    <nd ref="411506081"/>
    <tag k="bicycle" v="no"/>
    <tag k="foot" v="no"/>
    <tag k="highway" v="primary"/>
    <tag k="layer" v="-1"/>
    <tag k="maxspeed" v="40"/>
    <tag k="motorroad" v="yes"/>
    <tag k="name" v="Innsbrucker Ring"/>
    <tag k="note" v="Innsbrucker Ring Tunnel"/>
    <tag k="oneway" v="yes"/>
    <tag k="osmarender:nameDirection" v="-1"/>
    <tag k="osmarender:renderName" v="no"/>
    <tag k="ref" v="B 2R;B 11"/>
    <tag k="source" v="survey"/>
  </way>
  <way id="16129240" version="16" timestamp="2009-09-23T20:05:04Z" uid="118197" user="JosmJo" changeset="2599790">
    <nd ref="30884825"/>
    <nd ref="411506081"/>
    <tag k="bicycle" v="no"/>
    <tag k="foot" v="no"/>
    <tag k="highway" v="primary"/>
    <tag k="layer" v="-1"/>
    <tag k="maxspeed" v="40"/>
    <tag k="motorroad" v="yes"/>
    <tag k="name" v="Innsbrucker Ring"/>
    <tag k="note" v="Innsbrucker Ring Tunnel"/>
    <tag k="oneway" v="yes"/>
    <tag k="osmarender:nameDirection" v="-1"/>
    <tag k="osmarender:renderName" v="no"/>
    <tag k="ref" v="B 2R"/>
    <tag k="source" v="survey"/>
  </way>
  <way id="16129240" version="17" timestamp="2010-04-23T18:42:08Z" uid="224490" user="Geo-Tobi" changeset="4505948">
    <nd ref="30884825"/>
    <nd ref="411506081"/>
    <tag k="bicycle" v="no"/>
    <tag k="foot" v="no"/>
    <tag k="highway" v="primary"/>
    <tag k="layer" v="-1"/>
    <tag k="maxspeed" v="60"/>
    <tag k="motorroad" v="yes"/>
    <tag k="name" v="Innsbrucker Ring"/>
    <tag k="note" v="Innsbrucker Ring Tunnel"/>
    <tag k="oneway" v="yes"/>
    <tag k="osmarender:nameDirection" v="-1"/>
    <tag k="osmarender:renderName" v="no"/>
    <tag k="ref" v="B 2R"/>
    <tag k="source" v="survey"/>
  </way>
  <way id="16129240" version="18" timestamp="2011-01-06T21:12:56Z" uid="207745" user="NE2" changeset="6886621">
    <nd ref="30884825"/>
    <nd ref="411506081"/>
    <tag k="bicycle" v="no"/>
    <tag k="foot" v="no"/>
    <tag k="highway" v="primary"/>
    <tag k="layer" v="-1"/>
    <tag k="maxspeed" v="60"/>
    <tag k="motorroad" v="yes"/>
    <tag k="name" v="Innsbrucker Ring"/>
    <tag k="note" v="Innsbrucker Ring Tunnel"/>
    <tag k="oneway" v="yes"/>
    <tag k="osmarender:nameDirection" v="-1"/>
    <tag k="ref" v="B 2R"/>
    <tag k="source" v="survey"/>
  </way>
  <way id="16129240" version="19" timestamp="2012-01-28T12:28:16Z" uid="224490" user="Geo-Tobi" changeset="10520416">
    <nd ref="30884825"/>
    <nd ref="411506081"/>
    <tag k="bicycle" v="no"/>
    <tag k="foot" v="no"/>
    <tag k="hgv" v="delivery"/>
    <tag k="highway" v="primary"/>
    <tag k="layer" v="-1"/>
    <tag k="maxspeed" v="60"/>
    <tag k="motorroad" v="yes"/>
    <tag k="name" v="Innsbrucker Ring"/>
    <tag k="note" v="Innsbrucker Ring Tunnel"/>
    <tag k="oneway" v="yes"/>
    <tag k="osmarender:nameDirection" v="-1"/>
    <tag k="ref" v="B 2R"/>
    <tag k="source" v="survey"/>
  </way>
  <way id="16129240" version="20" timestamp="2012-03-01T22:08:26Z" uid="224490" user="Geo-Tobi" changeset="10842851">
    <nd ref="30884825"/>
    <nd ref="411506081"/>
    <tag k="bicycle" v="no"/>
    <tag k="foot" v="no"/>
    <tag k="hgv" v="delivery"/>
    <tag k="highway" v="primary"/>
    <tag k="lanes" v="2"/>
    <tag k="layer" v="-1"/>
    <tag k="maxspeed" v="60"/>
    <tag k="motorroad" v="yes"/>
    <tag k="name" v="Innsbrucker Ring"/>
    <tag k="note" v="Innsbrucker Ring Tunnel"/>
    <tag k="oneway" v="yes"/>
    <tag k="osmarender:nameDirection" v="-1"/>
    <tag k="ref" v="B 2R"/>
    <tag k="source" v="survey"/>
  </way>
  <way id="16129243" version="2" timestamp="2010-03-27T22:20:02Z" uid="20587" user="balrog-kun" changeset="4250871">
    <nd ref="65472277"/>
    <nd ref="65516421"/>
    <nd ref="65516422"/>
    <nd ref="162793667"/>
    <nd ref="162793868"/>
    <nd ref="65446263"/>
    <nd ref="65427535"/>
    <tag k="created_by" v="JOSM"/>
    <tag k="highway" v="residential"/>
    <tag k="name" v="Casa del Mar Drive"/>
    <tag k="tiger:cfcc" v="A41"/>
    <tag k="tiger:county" v="San Mateo, CA"/>
    <tag k="tiger:name_base" v="Casa del Mar"/>
    <tag k="tiger:name_type" v="Dr"/>
    <tag k="tiger:reviewed" v="no"/>
    <tag k="tiger:separated" v="no"/>
    <tag k="tiger:source" v="tiger_import_dch_v0.6_20070809"/>
    <tag k="tiger:tlid" v="192382521:192409092:192409093:192382516"/>
    <tag k="tiger:zip_left" v="94019"/>
    <tag k="tiger:zip_right" v="94019"/>
  </way>
  <way id="16129244" version="2" timestamp="2010-03-27T22:20:03Z" uid="20587" user="balrog-kun" changeset="4250871">
    <nd ref="65472265"/>
    <nd ref="65481312"/>
    <nd ref="65427538"/>
    <nd ref="65415471"/>
    <tag k="created_by" v="JOSM"/>
    <tag k="highway" v="residential"/>
    <tag k="name" v="Kehoe Avenue"/>
    <tag k="tiger:cfcc" v="A41"/>
    <tag k="tiger:county" v="San Mateo, CA"/>
    <tag k="tiger:name_base" v="Kehoe"/>
    <tag k="tiger:name_type" v="Ave"/>
    <tag k="tiger:reviewed" v="no"/>
    <tag k="tiger:separated" v="no"/>
    <tag k="tiger:source" v="tiger_import_dch_v0.6_20070809"/>
    <tag k="tiger:tlid" v="192382528:192409094:192409095"/>
    <tag k="tiger:zip_left" v="94019"/>
    <tag k="tiger:zip_right" v="94019"/>
  </way>
  <way id="16129245" version="2" timestamp="2010-03-27T22:20:04Z" uid="20587" user="balrog-kun" changeset="4250871">
    <nd ref="65472287"/>
    <nd ref="65390532"/>
    <nd ref="162794074"/>
    <tag k="created_by" v="JOSM"/>
    <tag k="highway" v="residential"/>
    <tag k="name" v="Wave Avenue"/>
    <tag k="tiger:cfcc" v="A41"/>
    <tag k="tiger:county" v="San Mateo, CA"/>
    <tag k="tiger:name_base" v="Wave"/>
    <tag k="tiger:name_type" v="Ave"/>
    <tag k="tiger:reviewed" v="no"/>
    <tag k="tiger:separated" v="no"/>
    <tag k="tiger:source" v="tiger_import_dch_v0.6_20070809"/>
    <tag k="tiger:tlid" v="192375724"/>
    <tag k="tiger:zip_left" v="94019"/>
    <tag k="tiger:zip_right" v="94019"/>
  </way>
  <way id="16129247" version="2" timestamp="2010-03-27T22:20:04Z" uid="20587" user="balrog-kun" changeset="4250871">
    <nd ref="162794163"/>
    <nd ref="162794101"/>
    <nd ref="162794113"/>
    <nd ref="162794127"/>
    <nd ref="162794138"/>
    <nd ref="162794151"/>
    <nd ref="162794086"/>
    <nd ref="65427538"/>
    <nd ref="65427535"/>
    <nd ref="162793991"/>
    <nd ref="162794074"/>
    <nd ref="162794065"/>
    <nd ref="162794059"/>
    <nd ref="162794043"/>
    <nd ref="162794035"/>
    <nd ref="162794020"/>
    <nd ref="162794006"/>
    <tag k="created_by" v="JOSM"/>
    <tag k="highway" v="residential"/>
    <tag k="name" v="Frontage Road"/>
    <tag k="tiger:cfcc" v="A41"/>
    <tag k="tiger:county" v="San Mateo, CA"/>
    <tag k="tiger:name_base" v="Frontage"/>
    <tag k="tiger:name_type" v="Rd"/>
    <tag k="tiger:reviewed" v="no"/>
    <tag k="tiger:separated" v="no"/>
    <tag k="tiger:source" v="tiger_import_dch_v0.6_20070809"/>
    <tag k="tiger:tlid" v="192409096"/>
    <tag k="tiger:zip_left" v="94019"/>
    <tag k="tiger:zip_right" v="94019"/>
  </way>
  <way id="16129703" version="16" timestamp="2009-01-03T14:25:40Z" uid="58091" user="Andreas M" changeset="721411"/>
  <way id="16129774" version="3" timestamp="2010-07-03T22:15:06Z" uid="4467" user="Rosscoe" changeset="5128548">
    <nd ref="162272787"/>
    <nd ref="162807981"/>
    <nd ref="162787808"/>
    <nd ref="162807995"/>
    <nd ref="162808009"/>
    <nd ref="162808020"/>
    <nd ref="162808041"/>
    <nd ref="162808050"/>
    <nd ref="162808058"/>
    <nd ref="161998645"/>
    <nd ref="162808069"/>
    <nd ref="162808083"/>
    <tag k="highway" v="residential"/>
    <tag k="name" v="Buttermilk Falls Road"/>
    <tag k="note" v="no longer a state highway by 1987 (except at bridges)"/>
    <tag k="old_ref_legislative" v="45011"/>
    <tag k="tiger:cfcc" v="A41"/>
    <tag k="tiger:name_base" v="Buttermilk Falls"/>
    <tag k="tiger:name_type" v="Rd"/>
    <tag k="tiger:reviewed" v="no"/>
    <tag k="tiger:separated" v="no"/>
    <tag k="tiger:source" v="tiger_import_dch_v0.7_20071211"/>
    <tag k="tiger:tlid" v="136793643:136793644:136795354:136763084"/>
  </way>
  <way id="16129240" version="21" timestamp="2012-07-17T18:27:49Z" uid="722137" user="OSMF Redaction Account" changeset="12270211">
    <nd ref="30884825"/>
    <nd ref="411506081"/>
    <tag k="bicycle" v="no"/>
    <tag k="foot" v="no"/>
    <tag k="hgv" v="delivery"/>
    <tag k="highway" v="primary"/>
    <tag k="lanes" v="2"/>
    <tag k="layer" v="-1"/>
    <tag k="maxspeed" v="60"/>
    <tag k="motorroad" v="yes"/>
    <tag k="name" v="Innsbrucker Ring"/>
    <tag k="note" v="Innsbrucker Ring Tunnel"/>
    <tag k="oneway" v="yes"/>
    <tag k="osmarender:nameDirection" v="-1"/>
    <tag k="ref" v="B 2R"/>
  </way>
  <way id="16129243" version="3" timestamp="2012-04-10T19:09:39Z" uid="123633" user="stevea" changeset="11256575"/>
  <way id="16129244" version="3" timestamp="2012-04-10T19:09:39Z" uid="123633" user="stevea" changeset="11256575"/>
  <way id="16129245" version="3" timestamp="2012-04-10T19:09:39Z" uid="123633" user="stevea" changeset="11256575"/>
  <way id="16129247" version="3" timestamp="2012-04-10T19:09:39Z" uid="123633" user="stevea" changeset="11256575"/>
  <way id="16129774" version="4" timestamp="2012-04-04T19:02:09Z" uid="424977" user="PhillyBiker" changeset="11180609">
    <nd ref="162272749"/>
    <nd ref="162807981"/>
    <nd ref="162787808"/>
    <nd ref="162807995"/>
    <nd ref="162808009"/>
    <nd ref="162808020"/>
    <nd ref="162808041"/>
    <nd ref="162808050"/>
    <nd ref="162808058"/>
    <nd ref="161998645"/>
    <nd ref="162808069"/>
    <nd ref="162808083"/>
    <tag k="highway" v="residential"/>
    <tag k="name" v="Buttermilk Falls Road"/>
    <tag k="note" v="no longer a state highway by 1987 (except at bridges)"/>
    <tag k="old_ref_legislative" v="45011"/>
    <tag k="tiger:cfcc" v="A41"/>
    <tag k="tiger:name_base" v="Buttermilk Falls"/>
    <tag k="tiger:name_type" v="Rd"/>
    <tag k="tiger:reviewed" v="no"/>
    <tag k="tiger:separated" v="no"/>
    <tag k="tiger:source" v="tiger_import_dch_v0.7_20071211"/>
    <tag k="tiger:tlid" v="136793643:136793644:136795354:136763084"/>
  </way>
  <way id="16129774" version="5" timestamp="2012-04-06T21:10:54Z" uid="424977" user="PhillyBiker" changeset="11207197">
    <nd ref="162272749"/>
    <nd ref="162807981"/>
    <nd ref="162787808"/>
    <nd ref="162807995"/>
    <nd ref="162808009"/>
    <nd ref="162808020"/>
    <nd ref="162808041"/>
    <nd ref="161998645"/>
    <nd ref="162808069"/>
    <nd ref="162562100"/>
    <tag k="highway" v="residential"/>
    <tag k="name" v="Buttermilk Falls Road"/>
    <tag k="note" v="no longer a state highway by 1987 (except at bridges)"/>
    <tag k="old_ref_legislative" v="45011"/>
    <tag k="tiger:cfcc" v="A41"/>
    <tag k="tiger:name_base" v="Buttermilk Falls"/>
    <tag k="tiger:name_type" v="Rd"/>
    <tag k="tiger:reviewed" v="no"/>
    <tag k="tiger:separated" v="no"/>
    <tag k="tiger:source" v="tiger_import_dch_v0.7_20071211"/>
    <tag k="tiger:tlid" v="136793643:136793644:136795354:136763084"/>
  </way>
</osm>
