<?xml version='1.0' encoding='UTF-8'?>
<osm version="0.6" generator="libosmium/2.20.0">
  <way id="16143396" version="2" timestamp="2008-11-11T22:19:25Z" uid="36809" user="pfoten_weg_!_" changeset="736643">
    <nd ref="163087837"/>
    <nd ref="163087838"/>
    <nd ref="163087840"/>
    <nd ref="163087841"/>
    <nd ref="163087842"/>
    <nd ref="163087844"/>
    <nd ref="163087845"/>
    <nd ref="163087847"/>
    <nd ref="163087848"/>
    <nd ref="161604170"/>
    <tag k="created_by" v="JOSM"/>
    <tag k="fixme" v="Straßenname fehlt"/>
    <tag k="highway" v="residential"/>
    <tag k="name" v="NoName"/>
  </way>
  <way id="16143396" version="3" timestamp="2008-11-21T18:33:22Z" uid="80489" user="martin-144" changeset="778948">
    <nd ref="163087837"/>
    <nd ref="163087838"/>
    <nd ref="163087840"/>
    <nd ref="163087841"/>
    <nd ref="163087842"/>
    <nd ref="163087844"/>
    <nd ref="163087845"/>
    <nd ref="163087847"/>
    <nd ref="163087848"/>
    <nd ref="161604170"/>
    <tag k="created_by" v="Potlatch 0.10f"/>
    <tag k="fixme" v="Straßenname fehlt"/>
    <tag k="highway" v="residential"/>
    <tag k="name" v="Petersbrunner Str."/>
  </way>
  <way id="16143396" version="4" timestamp="2008-12-18T09:38:05Z" uid="70696" user="xybot" changeset="465787">
    <nd ref="163087837"/>
    <nd ref="163087838"/>
    <nd ref="163087840"/>
    <nd ref="163087841"/>
    <nd ref="163087842"/>
    <nd ref="163087844"/>
    <nd ref="163087845"/>
    <nd ref="163087847"/>
    <nd ref="163087848"/>
    <nd ref="161604170"/>
    <tag k="created_by" v="xybot"/>
    <tag k="fixme" v="Straßenname fehlt"/>
    <tag k="highway" v="residential"/>
    <tag k="name" v="Petersbrunner Straße"/>
  </way>
  <way id="16143396" version="5" timestamp="2009-07-13T18:09:15Z" uid="36599" user="horstelix" changeset="1819754">
    <nd ref="416032506"/>
    <nd ref="163087838"/>
    <nd ref="163087840"/>
    <nd ref="163087841"/>
    <nd ref="163087842"/>
    <nd ref="163087844"/>
    <nd ref="163087845"/>
    <nd ref="163087847"/>
    <nd ref="163087848"/>
    <nd ref="161604170"/>
    <tag k="created_by" v="xybot"/>
    <tag k="fixme" v="Straßenname fehlt"/>
    <tag k="highway" v="residential"/>
    <tag k="name" v="Petersbrunner Straße"/>
  </way>
  <way id="16143396" version="6" timestamp="2009-09-29T01:34:52Z" uid="36809" user="pfoten_weg_!_" changeset="2672113">
    <nd ref="416032506"/>
    <nd ref="163087838"/>
    <nd ref="163087840"/>
    <nd ref="163087841"/>
    <nd ref="163087842"/>
    <nd ref="163087844"/>
    <nd ref="163087845"/>
    <nd ref="163087847"/>
    <nd ref="163087848"/>
    <nd ref="161604170"/>
    <tag k="fixme" v="Straßenname fehlt"/>
    <tag k="highway" v="residential"/>
    <tag k="name" v="Petersbrunner Straße"/>
  </way>
  <way id="16143396" version="7" timestamp="2010-03-16T08:56:24Z" uid="166889" user="strangemeister" changeset="4141588">
    <nd ref="416032506"/>
    <nd ref="163087838"/>
    <nd ref="163087840"/>
    <nd ref="163087841"/>
    <nd ref="163087842"/>
    <nd ref="163087844"/>
    <nd ref="163087845"/>
    <nd ref="163087847"/>
    <nd ref="163087848"/>
    <nd ref="161604170"/>
    <tag k="highway" v="residential"/>
    <tag k="name" v="Petersbrunner Straße"/>
  </way>
  <way id="16143396" version="8" timestamp="2010-03-22T13:19:16Z" uid="166889" user="strangemeister" changeset="4202573">
    <nd ref="416032506"/>
    <nd ref="163087838"/>
    <nd ref="163087840"/>
    <nd ref="163087841"/>
    <nd ref="163087842"/>
    <nd ref="163087844"/>
    <nd ref="163087845"/>
    <nd ref="163087847"/>
    <nd ref="163087848"/>
    <nd ref="161604170"/>
    <tag k="highway" v="residential"/>
    <tag k="name" v="Petersbrunner Straße"/>
    <tag k="noexit" v="yes"/>
  </way>
  <way id="16143396" version="9" timestamp="2011-06-07T02:18:08Z" uid="459274" user="masdfkgjer" changeset="8366275">
    <nd ref="416032506"/>
    <nd ref="163087838"/>
    <nd ref="163087840"/>
    <nd ref="163087841"/>
    <nd ref="163087842"/>
    <nd ref="163087844"/>
    <nd ref="163087845"/>
    <nd ref="163087847"/>
    <nd ref="163087848"/>
    <nd ref="1314709278"/>
    <nd ref="161604170"/>
    <tag k="highway" v="residential"/>
    <tag k="name" v="Petersbrunner Straße"/>
    <tag k="noexit" v="yes"/>
  </way>
  <way id="16143433" version="2" timestamp="2008-11-11T22:19:23Z" uid="36809" user="pfoten_weg_!_" changeset="736643">
    <nd ref="163088988"/>
    <nd ref="163088990"/>
    <nd ref="163087848"/>
    <tag k="created_by" v="JOSM"/>
    <tag k="fixme" v="Straßenname fehlt"/>
    <tag k="highway" v="residential"/>
    <tag k="name" v="NoName"/>
  </way>
  <way id="16143433" version="3" timestamp="2008-11-24T20:40:13Z" uid="50629" user="reimarh" changeset="789560">
    <nd ref="163088988"/>
    <nd ref="163088990"/>
    <nd ref="163087848"/>
    <tag k="created_by" v="Potlatch 0.10f"/>
    <tag k="highway" v="residential"/>
    <tag k="name" v="Moosstr"/>
  </way>
  <way id="16143433" version="4" timestamp="2008-12-18T09:38:06Z" uid="70696" user="xybot" changeset="465787">
    <nd ref="163088988"/>
    <nd ref="163088990"/>
    <nd ref="163087848"/>
    <tag k="created_by" v="xybot"/>
    <tag k="highway" v="residential"/>
    <tag k="name" v="Moosstraße"/>
  </way>
  <way id="16143433" version="5" timestamp="2009-09-01T11:50:49Z" uid="36809" user="pfoten_weg_!_" changeset="2336655">
    <nd ref="163088988"/>
    <nd ref="163088990"/>
    <nd ref="163087848"/>
    <tag k="highway" v="residential"/>
    <tag k="name" v="Moosstraße"/>
  </way>
  <way id="16143725" version="5" timestamp="2009-09-01T11:50:54Z" uid="36809" user="pfoten_weg_!_" changeset="2336655">
    <nd ref="163102233"/>
    <nd ref="304770513"/>
    <tag k="highway" v="residential"/>
    <tag k="name" v="Schlossbergstraße"/>
    <tag k="surface" v="paved"/>
  </way>
  <way id="16143751" version="5" timestamp="2009-10-12T21:49:22Z" uid="36809" user="pfoten_weg_!_" changeset="2831247">
    <nd ref="161598580"/>
    <nd ref="201249490"/>
    <nd ref="163100036"/>
    <nd ref="163100037"/>
    <nd ref="163100731"/>
    <nd ref="163100038"/>
    <nd ref="163100039"/>
    <nd ref="163099449"/>
    <tag k="highway" v="residential"/>
    <tag k="name" v="Mühlbergstraße"/>
  </way>
  <way id="16143777" version="2" timestamp="2009-08-26T08:46:30Z" uid="36809" user="pfoten_weg_!_" changeset="2264896">
    <nd ref="163100729"/>
    <nd ref="163100730"/>
    <nd ref="163100731"/>
    <tag k="highway" v="residential"/>
  </way>
  <way id="16143777" version="3" timestamp="2010-12-01T21:32:31Z" uid="378328" user="krz9000" changeset="6508921">
    <nd ref="163100729"/>
    <nd ref="1015085608"/>
    <nd ref="1015085313"/>
    <nd ref="163100730"/>
    <nd ref="1015085004"/>
    <nd ref="163100731"/>
    <tag k="highway" v="residential"/>
  </way>
  <way id="16143777" version="4" timestamp="2011-01-12T05:54:38Z" uid="323886" user="hermann51" changeset="6944191">
    <nd ref="163100729"/>
    <nd ref="1015085608"/>
    <nd ref="1015085313"/>
    <nd ref="163100730"/>
    <nd ref="1015085004"/>
    <nd ref="163100731"/>
    <tag k="highway" v="residential"/>
    <tag k="name" v="Ostheimer Weg"/>
  </way>
  <way id="16143792" version="3" timestamp="2009-10-12T21:49:21Z" uid="36809" user="pfoten_weg_!_" changeset="2831247">
    <nd ref="163101443"/>
    <nd ref="163101445"/>
    <nd ref="161598580"/>
    <tag k="highway" v="residential"/>
    <tag k="name" v="Mühlbergstraße"/>
  </way>
  <way id="16143832" version="6" timestamp="2009-10-12T21:49:45Z" uid="36809" user="pfoten_weg_!_" changeset="2831247">
    <nd ref="304770499"/>
    <nd ref="304770511"/>
    <nd ref="304770510"/>
    <nd ref="304770509"/>
    <nd ref="304770508"/>
    <nd ref="304770507"/>
    <nd ref="304770506"/>
    <nd ref="304770505"/>
    <nd ref="201233172"/>
    <tag k="highway" v="footway"/>
    <tag k="name" v="Vordermühlstraße"/>
    <tag k="surface" v="unpaved"/>
  </way>
  <way id="16143837" version="2" timestamp="2008-11-11T22:19:30Z" uid="36809" user="pfoten_weg_!_" changeset="736643">
    <nd ref="163103272"/>
    <nd ref="163103633"/>
    <nd ref="163103634"/>
    <tag k="created_by" v="JOSM"/>
    <tag k="fixme" v="Straßenname fehlt"/>
    <tag k="highway" v="residential"/>
    <tag k="name" v="NoName"/>
  </way>
  <way id="16143837" version="3" timestamp="2009-05-12T11:07:26Z" uid="122157" user="bernd" changeset="1162974">
    <nd ref="163103272"/>
    <nd ref="163103633"/>
    <nd ref="163103634"/>
    <tag k="created_by" v="JOSM"/>
    <tag k="fixme" v="Straßenname fehlt"/>
    <tag k="highway" v="residential"/>
    <tag k="name" v="Tutzingerhofplatz"/>
  </way>
  <way id="16143837" version="4" timestamp="2009-05-16T16:52:13Z" uid="122157" user="bernd" changeset="1212586">
    <nd ref="163103272"/>
    <nd ref="163103633"/>
    <nd ref="163103634"/>
    <tag k="created_by" v="JOSM"/>
    <tag k="fixme" v="Tutzingerhofplatz"/>
    <tag k="highway" v="residential"/>
    <tag k="name" v="Tutzingerhofplatz"/>
  </way>
  <way id="16143837" version="5" timestamp="2009-10-12T21:50:21Z" uid="36809" user="pfoten_weg_!_" changeset="2831247">
    <nd ref="163103272"/>
    <nd ref="163103633"/>
    <nd ref="163103634"/>
    <tag k="fixme" v="Tutzingerhofplatz"/>
    <tag k="highway" v="residential"/>
    <tag k="name" v="Tutzingerhofplatz"/>
  </way>
  <way id="16143837" version="6" timestamp="2010-12-02T18:43:35Z" uid="378328" user="krz9000" changeset="6517869">
    <nd ref="163103272"/>
    <nd ref="163103633"/>
    <nd ref="163103634"/>
    <tag k="highway" v="residential"/>
    <tag k="name" v="Tutzingerhofplatz"/>
  </way>
  <way id="16143837" version="7" timestamp="2011-01-12T05:54:39Z" uid="323886" user="hermann51" changeset="6944191">
    <nd ref="163103272"/>
    <nd ref="163103633"/>
    <nd ref="163103634"/>
    <tag k="highway" v="residential"/>
    <tag k="name" v="Tutzinger-Hof-Platz"/>
  </way>
  <way id="16143985" version="5" timestamp="2009-08-26T08:46:38Z" uid="36809" user="pfoten_weg_!_" changeset="2264896">
    <nd ref="34816028"/>
    <nd ref="26423961"/>
    <nd ref="26423962"/>
    <nd ref="26423963"/>
    <nd ref="26423964"/>
    <nd ref="26423965"/>
    <nd ref="26423966"/>
    <nd ref="58822410"/>
    <tag k="electrified" v="contact_line"/>
    <tag k="name" v="S6"/>
    <tag k="railway" v="rail"/>
  </way>
  <way id="16143985" version="6" timestamp="2010-01-20T20:37:15Z" uid="83876" user="BurnyB" changeset="3670175">
    <nd ref="34816028"/>
    <nd ref="26423961"/>
    <nd ref="617309908"/>
    <nd ref="26423962"/>
    <nd ref="617309902"/>
    <tag k="electrified" v="contact_line"/>
    <tag k="name" v="S6"/>
    <tag k="railway" v="rail"/>
  </way>
  <way id="16143985" version="7" timestamp="2010-04-03T18:08:19Z" uid="9176" user="Maarten Deen" changeset="4315667">
    <nd ref="34816028"/>
    <nd ref="26423961"/>
    <nd ref="617309908"/>
    <nd ref="26423962"/>
    <nd ref="617309902"/>
    <tag k="electrified" v="contact_line"/>
    <tag k="frequency" v="16.7"/>
    <tag k="name" v="S6"/>
    <tag k="railway" v="rail"/>
    <tag k="voltage" v="15000"/>
  </way>
  <way id="16143985" version="8" timestamp="2010-04-03T18:16:46Z" uid="9176" user="Maarten Deen" changeset="4315667">
    <nd ref="34816028"/>
    <nd ref="26423961"/>
    <nd ref="617309908"/>
    <nd ref="26423962"/>
    <nd ref="617309902"/>
    <tag k="electrified" v="contact_line"/>
    <tag k="frequency" v="16.7"/>
    <tag k="name" v="S6"/>
    <tag k="railway" v="rail"/>
    <tag k="voltage" v="15000"/>
  </way>
  <way id="16143985" version="9" timestamp="2010-04-03T18:26:06Z" uid="9176" user="Maarten Deen" changeset="4315667">
    <nd ref="34816028"/>
    <nd ref="26423961"/>
    <nd ref="617309908"/>
    <nd ref="26423962"/>
    <nd ref="617309902"/>
    <tag k="electrified" v="contact_line"/>
    <tag k="frequency" v="16.7"/>
    <tag k="name" v="S6"/>
    <tag k="railway" v="rail"/>
    <tag k="voltage" v="15000"/>
  </way>
  <way id="16143985" version="10" timestamp="2010-04-03T18:35:08Z" uid="9176" user="Maarten Deen" changeset="4315667">
    <nd ref="34816028"/>
    <nd ref="26423961"/>
    <nd ref="617309908"/>
    <nd ref="26423962"/>
    <nd ref="617309902"/>
    <tag k="electrified" v="contact_line"/>
    <tag k="frequency" v="16.7"/>
    <tag k="name" v="S6"/>
    <tag k="railway" v="rail"/>
    <tag k="voltage" v="15000"/>
  </way>
  <way id="16143985" version="11" timestamp="2011-11-04T08:38:08Z" uid="42429" user="FK270673" changeset="9736510">
    <nd ref="34816028"/>
    <nd ref="26423961"/>
    <nd ref="617309908"/>
    <nd ref="26423962"/>
    <nd ref="617309902"/>
    <tag k="electrified" v="contact_line"/>
    <tag k="frequency" v="16.7"/>
    <tag k="gauge" v="1435"/>
    <tag k="name" v="S6"/>
    <tag k="railway" v="rail"/>
    <tag k="voltage" v="15000"/>
  </way>
  <way id="16143987" version="6" timestamp="2009-08-26T08:46:55Z" uid="36809" user="pfoten_weg_!_" changeset="2264896">
    <nd ref="34816027"/>
    <nd ref="34816028"/>
    <tag k="bridge" v="yes"/>
    <tag k="electrified" v="contact_line"/>
    <tag k="layer" v="1"/>
    <tag k="name" v="S6"/>
    <tag k="railway" v="rail"/>
  </way>
  <way id="16143987" version="7" timestamp="2010-04-03T18:08:18Z" uid="9176" user="Maarten Deen" changeset="4315667">
    <nd ref="34816027"/>
    <nd ref="34816028"/>
    <tag k="bridge" v="yes"/>
    <tag k="electrified" v="contact_line"/>
    <tag k="frequency" v="16.7"/>
    <tag k="layer" v="1"/>
    <tag k="name" v="S6"/>
    <tag k="railway" v="rail"/>
    <tag k="voltage" v="15000"/>
  </way>
  <way id="16143987" version="8" timestamp="2010-04-03T18:16:46Z" uid="9176" user="Maarten Deen" changeset="4315667">
    <nd ref="34816027"/>
    <nd ref="34816028"/>
    <tag k="bridge" v="yes"/>
    <tag k="electrified" v="contact_line"/>
    <tag k="frequency" v="16.7"/>
    <tag k="layer" v="1"/>
    <tag k="name" v="S6"/>
    <tag k="railway" v="rail"/>
    <tag k="voltage" v="15000"/>
  </way>
  <way id="16143987" version="9" timestamp="2010-04-03T18:26:06Z" uid="9176" user="Maarten Deen" changeset="4315667">
    <nd ref="34816027"/>
    <nd ref="34816028"/>
    <tag k="bridge" v="yes"/>
    <tag k="electrified" v="contact_line"/>
    <tag k="frequency" v="16.7"/>
    <tag k="layer" v="1"/>
    <tag k="name" v="S6"/>
    <tag k="railway" v="rail"/>
    <tag k="voltage" v="15000"/>
  </way>
  <way id="16143987" version="10" timestamp="2010-04-03T18:35:08Z" uid="9176" user="Maarten Deen" changeset="4315667">
    <nd ref="34816027"/>
    <nd ref="34816028"/>
    <tag k="bridge" v="yes"/>
    <tag k="electrified" v="contact_line"/>
    <tag k="frequency" v="16.7"/>
    <tag k="layer" v="1"/>
    <tag k="name" v="S6"/>
    <tag k="railway" v="rail"/>
    <tag k="voltage" v="15000"/>
  </way>
  <way id="16143987" version="11" timestamp="2011-11-04T08:37:54Z" uid="42429" user="FK270673" changeset="9736510">
    <nd ref="34816027"/>
    <nd ref="34816028"/>
    <tag k="bridge" v="yes"/>
    <tag k="electrified" v="contact_line"/>
    <tag k="frequency" v="16.7"/>
    <tag k="gauge" v="1435"/>
    <tag k="layer" v="1"/>
    <tag k="name" v="S6"/>
    <tag k="railway" v="rail"/>
    <tag k="voltage" v="15000"/>
  </way>
  <way id="16143396" version="10" timestamp="2012-06-22T15:50:44Z" uid="290723" user="sulagaloh" changeset="11980682">
    <nd ref="416032506"/>
    <nd ref="163087838"/>
    <nd ref="163087840"/>
    <nd ref="163087841"/>
    <nd ref="163087842"/>
    <nd ref="163087844"/>
    <nd ref="163087845"/>
    <nd ref="1798376492"/>
    <nd ref="163087847"/>
    <nd ref="163087848"/>
    <nd ref="1314709278"/>
    <nd ref="161604170"/>
    <tag k="highway" v="residential"/>
    <tag k="name" v="Petersbrunner Straße"/>
    <tag k="noexit" v="yes"/>
  </way>
  <way id="16143396" version="11" timestamp="2012-07-18T05:55:27Z" uid="722137" user="OSMF Redaction Account" changeset="12274874">
    <nd ref="416032506"/>
    <nd ref="163087838"/>
    <nd ref="163087840"/>
    <nd ref="163087841"/>
    <nd ref="163087842"/>
    <nd ref="163087844"/>
    <nd ref="163087845"/>
    <nd ref="1798376492"/>
    <nd ref="163087847"/>
    <nd ref="163087848"/>
    <nd ref="1314709278"/>
    <nd ref="161604170"/>
    <tag k="highway" v="residential"/>
    <tag k="noexit" v="yes"/>
  </way>
  <way id="16143396" version="12" timestamp="2012-08-18T11:49:01Z" uid="813038" user="München72" changeset="12772181">
    <nd ref="416032506"/>
    <nd ref="163087838"/>
    <nd ref="163087840"/>
    <nd ref="163087841"/>
    <nd ref="163087842"/>
    <nd ref="163087844"/>
    <nd ref="163087845"/>
    <nd ref="1798376492"/>
    <nd ref="163087847"/>
    <nd ref="163087848"/>
    <nd ref="1314709278"/>
    <nd ref="161604170"/>
    <tag k="highway" v="residential"/>
    <tag k="name" v="Petersbrunner Straße"/>
    <tag k="noexit" v="yes"/>
    <tag k="oneway" v="no"/>
  </way>
  <way id="16143433" version="6" timestamp="2012-06-22T15:50:44Z" uid="290723" user="sulagaloh" changeset="11980682">
    <nd ref="163088988"/>
    <nd ref="163088990"/>
    <nd ref="1798376491"/>
    <nd ref="163087848"/>
    <tag k="highway" v="residential"/>
    <tag k="name" v="Moosstraße"/>
  </way>
  <way id="16143832" version="7" timestamp="2012-05-07T06:28:17Z" uid="382934" user="NepoMUC69" changeset="11525323">
    <nd ref="304770499"/>
    <nd ref="304770511"/>
    <nd ref="1743968950"/>
    <nd ref="304770510"/>
    <nd ref="304770509"/>
    <nd ref="304770508"/>
    <nd ref="304770507"/>
    <nd ref="304770506"/>
    <nd ref="304770505"/>
    <nd ref="201233172"/>
    <tag k="highway" v="footway"/>
    <tag k="name" v="Vordermühlstraße"/>
    <tag k="surface" v="unpaved"/>
  </way>
  <way id="16143985" version="12" timestamp="2012-04-14T22:06:46Z" uid="64536" user="Michael Forster" changeset="11304506"/>
  <way id="16143987" version="12" timestamp="2012-04-14T22:04:45Z" uid="64536" user="Michael Forster" changeset="11304506">
    <nd ref="34816027"/>
    <nd ref="34816028"/>
    <tag k="bridge" v="yes"/>
    <tag k="electrified" v="contact_line"/>
    <tag k="frequency" v="16.7"/>
    <tag k="gauge" v="1435"/>
    <tag k="layer" v="1"/>
    <tag k="name" v="S6"/>
    <tag k="oneway" v="yes"/>
    <tag k="railway" v="rail"/>
    <tag k="voltage" v="15000"/>
  </way>
</osm>
