<?xml version='1.0' encoding='UTF-8'?>
<osm version="0.6" generator="libosmium/2.20.0">
  <way id="16149061" version="9" timestamp="2010-02-15T13:38:50Z" uid="7617" user="Franc" changeset="3883208">
    <nd ref="241500012"/>
    <nd ref="639650729"/>
    <nd ref="163196485"/>
    <nd ref="163196864"/>
    <nd ref="60411723"/>
    <tag k="highway" v="secondary"/>
    <tag k="history" v="Retrieved from v5"/>
    <tag k="name" v="Albert Road"/>
  </way>
  <way id="16149113" version="4" timestamp="2009-04-24T23:58:02Z" uid="7617" user="Franc" changeset="935084">
    <nd ref="163192791"/>
    <nd ref="163192092"/>
    <nd ref="384016975"/>
    <tag k="created_by" v="Potlatch 0.5d"/>
    <tag k="highway" v="living_street"/>
    <tag k="name" v="Churchill Avenue"/>
    <tag k="oneway" v="yes"/>
  </way>
  <way id="16149113" version="5" timestamp="2010-02-15T13:38:50Z" uid="7617" user="Franc" changeset="3883208">
    <nd ref="163192791"/>
    <nd ref="163192092"/>
    <tag k="highway" v="living_street"/>
    <tag k="name" v="Churchill Avenue"/>
    <tag k="oneway" v="yes"/>
  </way>
  <way id="16149191" version="6" timestamp="2008-02-12T03:24:26Z" uid="7617" user="Franc" changeset="104216">
    <nd ref="60411747"/>
    <nd ref="163197920"/>
    <nd ref="163193564"/>
    <nd ref="163200142"/>
    <nd ref="163192791"/>
    <nd ref="163193565"/>
    <nd ref="163193566"/>
    <tag k="created_by" v="Potlatch 0.5d"/>
    <tag k="highway" v="unclassified"/>
    <tag k="name" v="The Boulevarde"/>
  </way>
  <way id="16149191" version="7" timestamp="2008-03-06T23:09:34Z" uid="7617" user="Franc" changeset="278098">
    <nd ref="60411747"/>
    <nd ref="250909174"/>
    <nd ref="163197920"/>
    <nd ref="163200142"/>
    <nd ref="163192791"/>
    <nd ref="163193565"/>
    <nd ref="163193566"/>
    <tag k="created_by" v="Potlatch 0.5d"/>
    <tag k="highway" v="unclassified"/>
    <tag k="name" v="The Boulevarde"/>
  </way>
  <way id="16149191" version="8" timestamp="2009-12-16T06:00:46Z" uid="30201" user="rrankin" changeset="3384624">
    <nd ref="60411747"/>
    <nd ref="250909174"/>
    <nd ref="163197920"/>
    <tag k="highway" v="unclassified"/>
    <tag k="name" v="The Boulevarde"/>
  </way>
  <way id="16149191" version="9" timestamp="2010-02-15T13:38:49Z" uid="7617" user="Franc" changeset="3883208">
    <nd ref="60411747"/>
    <nd ref="250909174"/>
    <nd ref="163197920"/>
    <tag k="highway" v="unclassified"/>
    <tag k="name" v="The Boulevarde"/>
    <tag k="restriction" v="school_zone"/>
  </way>
  <way id="16149574" version="2" timestamp="2009-04-24T23:58:03Z" uid="7617" user="Franc" changeset="935084">
    <nd ref="163196864"/>
    <nd ref="163197030"/>
    <tag k="created_by" v="Potlatch 0.5d"/>
    <tag k="highway" v="residential"/>
    <tag k="name" v="Pilgrim Avenue"/>
    <tag k="source" v="survey"/>
  </way>
  <way id="16149574" version="3" timestamp="2010-07-08T02:38:34Z" uid="74617" user="JohnSmith" changeset="5163091">
    <nd ref="163196864"/>
    <nd ref="163197030"/>
    <tag k="highway" v="residential"/>
    <tag k="maxspeed" v="50"/>
    <tag k="maxspeed:source" v="default residential speed limit in Australia"/>
    <tag k="name" v="Pilgrim Avenue"/>
    <tag k="source" v="survey"/>
  </way>
  <way id="16149574" version="4" timestamp="2012-01-15T15:24:39Z" uid="147510" user="woodpeck_fixbot" changeset="10398186">
    <nd ref="163196864"/>
    <nd ref="163197030"/>
    <tag k="highway" v="residential"/>
    <tag k="name" v="Pilgrim Avenue"/>
    <tag k="source" v="survey"/>
  </way>
  <way id="16149583" version="3" timestamp="2008-03-06T23:09:38Z" uid="7617" user="Franc" changeset="278098">
    <nd ref="60411723"/>
    <nd ref="163192087"/>
    <nd ref="163192088"/>
    <nd ref="250909148"/>
    <nd ref="163192090"/>
    <nd ref="163192092"/>
    <tag k="created_by" v="Potlatch 0.5d"/>
    <tag k="highway" v="unclassified"/>
    <tag k="name" v="Albert Road"/>
    <tag k="oneway" v="yes"/>
  </way>
  <way id="16149583" version="4" timestamp="2009-04-24T23:58:03Z" uid="7617" user="Franc" changeset="935084">
    <nd ref="60411723"/>
    <nd ref="384016963"/>
    <tag k="created_by" v="Potlatch 0.5d"/>
    <tag k="highway" v="unclassified"/>
    <tag k="name" v="Albert Road"/>
    <tag k="oneway" v="yes"/>
  </way>
  <way id="16149583" version="5" timestamp="2010-04-12T10:33:20Z" uid="20949" user="Ebenezer" changeset="4403025">
    <nd ref="60411723"/>
    <nd ref="694130225"/>
    <nd ref="384016963"/>
    <tag k="highway" v="unclassified"/>
    <tag k="name" v="Albert Road"/>
    <tag k="oneway" v="yes"/>
  </way>
  <way id="16149944" version="2" timestamp="2009-04-24T23:58:03Z" uid="7617" user="Franc" changeset="935084">
    <nd ref="163197920"/>
    <nd ref="384016922"/>
    <nd ref="163200096"/>
    <nd ref="163200097"/>
    <tag k="created_by" v="Potlatch 0.5d"/>
    <tag k="highway" v="residential"/>
    <tag k="name" v="Lyons Street"/>
  </way>
  <way id="16149944" version="3" timestamp="2010-02-15T13:38:50Z" uid="7617" user="Franc" changeset="3883208">
    <nd ref="163197920"/>
    <nd ref="639650716"/>
    <tag k="highway" v="residential"/>
    <tag k="name" v="Lyons Street"/>
    <tag k="restriction" v="school_zone"/>
  </way>
  <way id="16149944" version="4" timestamp="2010-07-08T02:37:21Z" uid="74617" user="JohnSmith" changeset="5163091">
    <nd ref="163197920"/>
    <nd ref="639650716"/>
    <tag k="highway" v="residential"/>
    <tag k="maxspeed" v="50"/>
    <tag k="maxspeed:source" v="default residential speed limit in Australia"/>
    <tag k="name" v="Lyons Street"/>
    <tag k="restriction" v="school_zone"/>
  </way>
  <way id="16149944" version="5" timestamp="2012-01-15T15:24:44Z" uid="147510" user="woodpeck_fixbot" changeset="10398186">
    <nd ref="163197920"/>
    <nd ref="639650716"/>
    <tag k="highway" v="residential"/>
    <tag k="name" v="Lyons Street"/>
    <tag k="restriction" v="school_zone"/>
  </way>
  <way id="16149061" version="10" timestamp="2012-07-02T08:00:18Z" uid="713671" user="auspod" changeset="12084255">
    <nd ref="241500012"/>
    <nd ref="639650729"/>
    <nd ref="163196485"/>
    <nd ref="163196864"/>
    <nd ref="1809681251"/>
    <tag k="highway" v="secondary"/>
    <tag k="history" v="Retrieved from v5"/>
    <tag k="name" v="Albert Road"/>
  </way>
  <way id="16149061" version="11" timestamp="2012-07-20T05:24:50Z" uid="722137" user="OSMF Redaction Account" changeset="12361889">
    <nd ref="241500012"/>
    <nd ref="163196485"/>
    <nd ref="163196864"/>
    <nd ref="1809681251"/>
    <tag k="highway" v="secondary"/>
    <tag k="history" v="Retrieved from v5"/>
    <tag k="name" v="Albert Road"/>
  </way>
  <way id="16149061" version="12" timestamp="2012-07-31T12:24:26Z" uid="504708" user="HillWithSmallFields" changeset="12560603">
    <nd ref="163186020"/>
    <nd ref="241500012"/>
    <nd ref="1845264081"/>
    <nd ref="163196485"/>
    <nd ref="163196864"/>
    <nd ref="1809681251"/>
    <tag k="highway" v="secondary"/>
    <tag k="history" v="Retrieved from v5"/>
    <tag k="name" v="Albert Road"/>
  </way>
  <way id="16149061" version="13" timestamp="2012-08-02T12:10:08Z" uid="11321" user="Pecisk" changeset="12585114">
    <nd ref="163186020"/>
    <nd ref="241500012"/>
    <nd ref="163196485"/>
    <nd ref="1848331930"/>
    <nd ref="163196864"/>
    <nd ref="1809681251"/>
    <tag k="highway" v="secondary"/>
    <tag k="history" v="Retrieved from v5"/>
    <tag k="name" v="Albert Road"/>
  </way>
  <way id="16149113" version="6" timestamp="2012-07-20T05:24:57Z" uid="722137" user="OSMF Redaction Account" changeset="12361889">
    <nd ref="163192791"/>
    <nd ref="163192092"/>
    <tag k="highway" v="unclassified"/>
    <tag k="oneway" v="yes"/>
  </way>
  <way id="16149191" version="10" timestamp="2012-07-20T05:24:54Z" uid="722137" user="OSMF Redaction Account" changeset="12361889">
    <nd ref="60411747"/>
    <nd ref="163197920"/>
    <tag k="highway" v="unclassified"/>
    <tag k="name" v="The Boulrvarde"/>
  </way>
  <way id="16149574" version="5" timestamp="2012-07-20T05:24:59Z" uid="722137" user="OSMF Redaction Account" changeset="12361889">
    <nd ref="163196864"/>
    <nd ref="163197030"/>
    <tag k="highway" v="residential"/>
    <tag k="name" v="Pilgrim Avenue"/>
  </way>
  <way id="16149574" version="6" timestamp="2012-08-02T12:10:11Z" uid="11321" user="Pecisk" changeset="12585114">
    <nd ref="163196864"/>
    <nd ref="1848331926"/>
    <nd ref="1848331924"/>
    <nd ref="163197030"/>
    <tag k="highway" v="residential"/>
    <tag k="name" v="Pilgrim Avenue"/>
  </way>
  <way id="16149583" version="6" timestamp="2012-07-02T08:00:19Z" uid="713671" user="auspod" changeset="12084255">
    <nd ref="1809681251"/>
    <nd ref="1809681283"/>
    <nd ref="694130225"/>
    <nd ref="384016963"/>
    <tag k="highway" v="unclassified"/>
    <tag k="name" v="Albert Road"/>
    <tag k="oneway" v="yes"/>
  </way>
  <way id="16149583" version="7" timestamp="2012-07-20T05:24:52Z" uid="722137" user="OSMF Redaction Account" changeset="12361889">
    <nd ref="1809681251"/>
    <nd ref="1809681283"/>
    <nd ref="694130225"/>
    <tag k="highway" v="unclassified"/>
    <tag k="name" v="Albert Road"/>
    <tag k="oneway" v="yes"/>
  </way>
  <way id="16149583" version="8" timestamp="2012-07-31T12:24:24Z" uid="504708" user="HillWithSmallFields" changeset="12560603">
    <nd ref="1809681251"/>
    <nd ref="1809681283"/>
    <nd ref="694130225"/>
    <nd ref="1845264082"/>
    <nd ref="1845264085"/>
    <nd ref="1845264100"/>
    <nd ref="1845264080"/>
    <nd ref="163192791"/>
    <nd ref="163197920"/>
    <tag k="highway" v="unclassified"/>
    <tag k="name" v="Albert Road"/>
    <tag k="oneway" v="yes"/>
  </way>
  <way id="16149583" version="9" timestamp="2012-08-02T12:10:08Z" uid="11321" user="Pecisk" changeset="12585114">
    <nd ref="1809681251"/>
    <nd ref="1809681283"/>
    <nd ref="694130225"/>
    <nd ref="1845264082"/>
    <nd ref="1845264085"/>
    <nd ref="1845264100"/>
    <nd ref="1845264080"/>
    <nd ref="163192791"/>
    <nd ref="163200142"/>
    <nd ref="163197920"/>
    <tag k="highway" v="unclassified"/>
    <tag k="name" v="Albert Road"/>
    <tag k="oneway" v="yes"/>
  </way>
  <way id="16149944" version="6" timestamp="2012-07-20T05:30:08Z" uid="722137" user="OSMF Redaction Account" changeset="12362098"/>
</osm>
