<?xml version='1.0' encoding='UTF-8'?>
<osm version="0.6" generator="libosmium/2.20.0">
  <way id="16150036" version="3" timestamp="2010-01-05T12:47:20Z" uid="30201" user="rrankin" changeset="3544973">
    <nd ref="163200142"/>
    <nd ref="163200880"/>
    <nd ref="163200882"/>
    <nd ref="163200097"/>
    <nd ref="163200884"/>
    <nd ref="605335798"/>
    <nd ref="605335800"/>
    <tag k="highway" v="residential"/>
    <tag k="name" v="Parnell Street"/>
  </way>
  <way id="16150036" version="4" timestamp="2010-02-15T13:38:47Z" uid="7617" user="Franc" changeset="3883208">
    <nd ref="163200142"/>
    <nd ref="163200880"/>
    <nd ref="639650746"/>
    <nd ref="163200882"/>
    <nd ref="639650748"/>
    <nd ref="163200097"/>
    <nd ref="163200884"/>
    <nd ref="639650744"/>
    <nd ref="605335798"/>
    <nd ref="605335800"/>
    <tag k="highway" v="residential"/>
    <tag k="name" v="Parnell Street"/>
  </way>
  <way id="16150036" version="5" timestamp="2010-07-08T02:39:18Z" uid="74617" user="JohnSmith" changeset="5163091">
    <nd ref="163200142"/>
    <nd ref="163200880"/>
    <nd ref="639650746"/>
    <nd ref="163200882"/>
    <nd ref="639650748"/>
    <nd ref="163200097"/>
    <nd ref="163200884"/>
    <nd ref="639650744"/>
    <nd ref="605335798"/>
    <nd ref="605335800"/>
    <tag k="highway" v="residential"/>
    <tag k="maxspeed" v="50"/>
    <tag k="maxspeed:source" v="default residential speed limit in Australia"/>
    <tag k="name" v="Parnell Street"/>
  </way>
  <way id="16150036" version="6" timestamp="2012-01-15T15:24:46Z" uid="147510" user="woodpeck_fixbot" changeset="10398186">
    <nd ref="163200142"/>
    <nd ref="163200880"/>
    <nd ref="639650746"/>
    <nd ref="163200882"/>
    <nd ref="639650748"/>
    <nd ref="163200097"/>
    <nd ref="163200884"/>
    <nd ref="639650744"/>
    <nd ref="605335798"/>
    <nd ref="605335800"/>
    <tag k="highway" v="residential"/>
    <tag k="name" v="Parnell Street"/>
  </way>
  <way id="16150471" version="6" timestamp="2010-03-27T22:20:05Z" uid="20587" user="balrog-kun" changeset="4250871">
    <nd ref="95751826"/>
    <nd ref="95746945"/>
    <nd ref="95756084"/>
    <nd ref="95754734"/>
    <nd ref="95756085"/>
    <nd ref="95752588"/>
    <nd ref="95747161"/>
    <tag k="created_by" v="Potlatch 0.10b"/>
    <tag k="highway" v="primary"/>
    <tag k="name" v="East Street"/>
    <tag k="ref" v="CA 70"/>
    <tag k="tiger:cfcc" v="A41"/>
    <tag k="tiger:county" v="Yuba, CA"/>
    <tag k="tiger:name_base" v="E"/>
    <tag k="tiger:name_type" v="St"/>
    <tag k="tiger:reviewed" v="no"/>
    <tag k="tiger:separated" v="no"/>
    <tag k="tiger:source" v="tiger_import_dch_v0.6_20070809"/>
    <tag k="tiger:tlid" v="106940451:106940454:106940534:106940535:106940500:106940493"/>
    <tag k="tiger:zip_left" v="95901"/>
    <tag k="tiger:zip_right" v="95901"/>
  </way>
  <way id="16150471" version="7" timestamp="2010-04-13T18:10:22Z" uid="20587" user="balrog-kun" changeset="4416058">
    <nd ref="95751826"/>
    <nd ref="95746945"/>
    <nd ref="95756084"/>
    <nd ref="95754734"/>
    <nd ref="95756085"/>
    <nd ref="95752588"/>
    <nd ref="95747161"/>
    <tag k="created_by" v="Potlatch 0.10b"/>
    <tag k="highway" v="primary"/>
    <tag k="name" v="E Street"/>
    <tag k="ref" v="CA 70"/>
    <tag k="tiger:cfcc" v="A41"/>
    <tag k="tiger:county" v="Yuba, CA"/>
    <tag k="tiger:name_base" v="E"/>
    <tag k="tiger:name_type" v="St"/>
    <tag k="tiger:reviewed" v="no"/>
    <tag k="tiger:separated" v="no"/>
    <tag k="tiger:source" v="tiger_import_dch_v0.6_20070809"/>
    <tag k="tiger:tlid" v="106940451:106940454:106940534:106940535:106940500:106940493"/>
    <tag k="tiger:zip_left" v="95901"/>
    <tag k="tiger:zip_right" v="95901"/>
  </way>
  <way id="16150471" version="8" timestamp="2011-06-09T23:46:46Z" uid="239998" user="Sundance" changeset="8393339">
    <nd ref="95751826"/>
    <nd ref="95746945"/>
    <nd ref="95756084"/>
    <nd ref="95754734"/>
    <nd ref="95756085"/>
    <nd ref="95752588"/>
    <nd ref="95747161"/>
    <tag k="addr:postcode" v="95901"/>
    <tag k="highway" v="primary"/>
    <tag k="is_in" v="Yuba, CA"/>
    <tag k="name" v="E Street"/>
    <tag k="ref" v="CA 70"/>
    <tag k="reg_name" v="State Route 70"/>
    <tag k="tiger:reviewed" v="no"/>
    <tag k="tiger:source" v="tiger_import_dch_v0.6_20070809"/>
    <tag k="tiger:tlid" v="106940451:106940454:106940534:106940535:106940500:106940493"/>
  </way>
  <way id="16150471" version="9" timestamp="2011-06-28T15:13:54Z" uid="473471" user="NE3" changeset="8572555">
    <nd ref="95751826"/>
    <nd ref="95746945"/>
    <nd ref="95756084"/>
    <nd ref="95754734"/>
    <nd ref="95756085"/>
    <nd ref="95752588"/>
    <nd ref="95747161"/>
    <tag k="addr:postcode" v="95901"/>
    <tag k="highway" v="primary"/>
    <tag k="is_in" v="Yuba, CA"/>
    <tag k="lanes" v="4"/>
    <tag k="name" v="E Street"/>
    <tag k="ref" v="CA 70"/>
    <tag k="tiger:reviewed" v="no"/>
    <tag k="tiger:source" v="tiger_import_dch_v0.6_20070809"/>
    <tag k="tiger:tlid" v="106940451:106940454:106940534:106940535:106940500:106940493"/>
  </way>
  <way id="16150471" version="10" timestamp="2011-07-19T00:58:26Z" uid="473471" user="NE3" changeset="8764274">
    <nd ref="95751826"/>
    <nd ref="95746945"/>
    <nd ref="95756084"/>
    <nd ref="95754734"/>
    <nd ref="95756085"/>
    <nd ref="95752588"/>
    <nd ref="95747161"/>
    <tag k="NHS" v="yes"/>
    <tag k="addr:postcode" v="95901"/>
    <tag k="highway" v="primary"/>
    <tag k="is_in" v="Yuba, CA"/>
    <tag k="lanes" v="4"/>
    <tag k="name" v="E Street"/>
    <tag k="ref" v="CA 70"/>
    <tag k="tiger:reviewed" v="no"/>
    <tag k="tiger:source" v="tiger_import_dch_v0.6_20070809"/>
    <tag k="tiger:tlid" v="106940451:106940454:106940534:106940535:106940500:106940493"/>
  </way>
  <way id="16150661" version="2" timestamp="2009-04-24T23:58:04Z" uid="7617" user="Franc" changeset="935084">
    <nd ref="163207231"/>
    <nd ref="384016930"/>
    <nd ref="163208001"/>
    <tag k="created_by" v="Potlatch 0.5d"/>
    <tag k="highway" v="residential"/>
    <tag k="name" v="Russel Street"/>
  </way>
  <way id="16150661" version="3" timestamp="2010-02-15T13:38:47Z" uid="7617" user="Franc" changeset="3883208">
    <nd ref="163207231"/>
    <nd ref="639650689"/>
    <nd ref="384016930"/>
    <nd ref="163208001"/>
    <tag k="highway" v="residential"/>
    <tag k="name" v="Russel Street"/>
  </way>
  <way id="16150661" version="4" timestamp="2010-07-08T02:39:30Z" uid="74617" user="JohnSmith" changeset="5163091">
    <nd ref="163207231"/>
    <nd ref="639650689"/>
    <nd ref="384016930"/>
    <nd ref="163208001"/>
    <tag k="highway" v="residential"/>
    <tag k="maxspeed" v="50"/>
    <tag k="maxspeed:source" v="default residential speed limit in Australia"/>
    <tag k="name" v="Russel Street"/>
  </way>
  <way id="16150661" version="5" timestamp="2012-01-15T15:24:50Z" uid="147510" user="woodpeck_fixbot" changeset="10398186">
    <nd ref="163207231"/>
    <nd ref="639650689"/>
    <nd ref="384016930"/>
    <nd ref="163208001"/>
    <tag k="highway" v="residential"/>
    <tag k="name" v="Russel Street"/>
  </way>
  <way id="16150697" version="2" timestamp="2010-02-15T13:38:47Z" uid="7617" user="Franc" changeset="3883208">
    <nd ref="163208393"/>
    <nd ref="639650742"/>
    <nd ref="163208394"/>
    <tag k="highway" v="residential"/>
    <tag k="name" v="Jersy Road"/>
  </way>
  <way id="16150697" version="3" timestamp="2010-07-08T02:40:04Z" uid="74617" user="JohnSmith" changeset="5163091">
    <nd ref="163208393"/>
    <nd ref="639650742"/>
    <nd ref="163208394"/>
    <tag k="highway" v="residential"/>
    <tag k="maxspeed" v="50"/>
    <tag k="maxspeed:source" v="default residential speed limit in Australia"/>
    <tag k="name" v="Jersy Road"/>
  </way>
  <way id="16150697" version="4" timestamp="2012-01-15T15:24:52Z" uid="147510" user="woodpeck_fixbot" changeset="10398186">
    <nd ref="163208393"/>
    <nd ref="639650742"/>
    <nd ref="163208394"/>
    <tag k="highway" v="residential"/>
    <tag k="name" v="Jersy Road"/>
  </way>
  <way id="16150806" version="5" timestamp="2010-01-13T10:17:01Z" uid="30201" user="rrankin" changeset="3608813">
    <nd ref="163208661"/>
    <nd ref="612865726"/>
    <tag k="highway" v="residential"/>
    <tag k="name" v="Woodside Avenue"/>
  </way>
  <way id="16150806" version="6" timestamp="2010-07-08T02:40:05Z" uid="74617" user="JohnSmith" changeset="5163091">
    <nd ref="163208661"/>
    <nd ref="612865726"/>
    <tag k="highway" v="residential"/>
    <tag k="maxspeed" v="50"/>
    <tag k="maxspeed:source" v="default residential speed limit in Australia"/>
    <tag k="name" v="Woodside Avenue"/>
  </way>
  <way id="16150806" version="7" timestamp="2012-01-15T15:24:54Z" uid="147510" user="woodpeck_fixbot" changeset="10398186">
    <nd ref="163208661"/>
    <nd ref="612865726"/>
    <tag k="highway" v="residential"/>
    <tag k="name" v="Woodside Avenue"/>
  </way>
  <way id="16150036" version="7" timestamp="2012-07-20T05:24:53Z" uid="722137" user="OSMF Redaction Account" changeset="12361889">
    <nd ref="163200142"/>
    <nd ref="163200880"/>
    <nd ref="163200882"/>
    <nd ref="163200097"/>
    <nd ref="163200884"/>
    <tag k="highway" v="residential"/>
    <tag k="name" v="Parnell Street"/>
  </way>
  <way id="16150036" version="8" timestamp="2012-08-02T12:10:11Z" uid="11321" user="Pecisk" changeset="12585114">
    <nd ref="163200142"/>
    <nd ref="1848331958"/>
    <nd ref="1848331959"/>
    <nd ref="1848331961"/>
    <nd ref="163200880"/>
    <nd ref="163200882"/>
    <nd ref="1848331971"/>
    <nd ref="1848331979"/>
    <nd ref="163200097"/>
    <nd ref="163200884"/>
    <nd ref="1848332006"/>
    <nd ref="1848332009"/>
    <nd ref="1848332010"/>
    <nd ref="1848332011"/>
    <tag k="highway" v="residential"/>
    <tag k="name" v="Parnell Street"/>
  </way>
  <way id="16150471" version="11" timestamp="2012-06-16T09:36:50Z" uid="199837" user="happy5214" changeset="11912658">
    <nd ref="95751826"/>
    <nd ref="95746945"/>
    <nd ref="95756084"/>
    <nd ref="95754734"/>
    <nd ref="95756085"/>
    <nd ref="95752588"/>
    <tag k="addr:postcode" v="95901"/>
    <tag k="highway" v="primary"/>
    <tag k="is_in" v="Yuba, CA"/>
    <tag k="lanes" v="4"/>
    <tag k="name" v="E Street"/>
    <tag k="NHS" v="yes"/>
    <tag k="ref" v="CA 70"/>
    <tag k="tiger:reviewed" v="no"/>
    <tag k="tiger:source" v="tiger_import_dch_v0.6_20070809"/>
    <tag k="tiger:tlid" v="106940451:106940454:106940534:106940535:106940500:106940493"/>
  </way>
  <way id="16150471" version="12" timestamp="2012-08-17T11:43:41Z" uid="199837" user="happy5214" changeset="12761511">
    <nd ref="95751826"/>
    <nd ref="95746945"/>
    <nd ref="95756084"/>
    <tag k="addr:postcode" v="95901"/>
    <tag k="highway" v="primary"/>
    <tag k="is_in" v="Yuba, CA"/>
    <tag k="lanes" v="4"/>
    <tag k="name" v="E Street"/>
    <tag k="NHS" v="yes"/>
    <tag k="ref" v="CA 70"/>
    <tag k="tiger:reviewed" v="no"/>
    <tag k="tiger:source" v="tiger_import_dch_v0.6_20070809"/>
    <tag k="tiger:tlid" v="106940451:106940454:106940534:106940535:106940500:106940493"/>
  </way>
  <way id="16150471" version="13" timestamp="2012-08-27T04:47:42Z" uid="199837" user="happy5214" changeset="12874465">
    <nd ref="95751826"/>
    <nd ref="95746945"/>
    <nd ref="95756084"/>
    <tag k="addr:postcode" v="95901"/>
    <tag k="highway" v="primary"/>
    <tag k="lanes" v="4"/>
    <tag k="name" v="E Street"/>
    <tag k="NHS" v="yes"/>
    <tag k="ref" v="CA 70"/>
    <tag k="tiger:reviewed" v="no"/>
    <tag k="tiger:source" v="tiger_import_dch_v0.6_20070809"/>
    <tag k="tiger:tlid" v="106940451:106940454:106940534:106940535:106940500:106940493"/>
  </way>
  <way id="16150661" version="6" timestamp="2012-07-20T08:28:17Z" uid="722137" user="OSMF Redaction Account" changeset="12368329">
    <nd ref="163207231"/>
    <nd ref="163208001"/>
    <tag k="highway" v="residential"/>
    <tag k="name" v="Russel Street"/>
  </way>
  <way id="16150697" version="5" timestamp="2012-07-02T09:21:38Z" uid="713671" user="auspod" changeset="12084947">
    <nd ref="1809751861"/>
    <nd ref="639650742"/>
    <nd ref="163208394"/>
    <tag k="highway" v="residential"/>
    <tag k="name" v="Jersy Road"/>
  </way>
  <way id="16150697" version="6" timestamp="2012-07-20T08:28:22Z" uid="722137" user="OSMF Redaction Account" changeset="12368329">
    <nd ref="1809751861"/>
    <nd ref="163208394"/>
    <tag k="highway" v="residential"/>
    <tag k="name" v="Jersy Road"/>
  </way>
  <way id="16150806" version="8" timestamp="2012-07-02T09:21:41Z" uid="713671" user="auspod" changeset="12084947">
    <nd ref="1809751888"/>
    <nd ref="1809751782"/>
    <nd ref="1809751876"/>
    <tag k="highway" v="residential"/>
    <tag k="name" v="Woodside Avenue"/>
  </way>
</osm>
