<?xml version='1.0' encoding='UTF-8'?>
<osm version="0.6" generator="libosmium/2.20.0">
  <way id="16168024" version="2" timestamp="2009-06-06T03:22:00Z" uid="61114" user="Trav" changeset="1434233">
    <nd ref="163544077"/>
    <nd ref="163546030"/>
    <nd ref="163546031"/>
    <nd ref="163545498"/>
    <nd ref="163546033"/>
    <nd ref="163546035"/>
    <tag k="highway" v="residential"/>
    <tag k="name" v="Derwent Street"/>
    <tag k="source:name" v="survey"/>
  </way>
  <way id="16168024" version="3" timestamp="2009-10-13T19:15:03Z" uid="184929" user="jaybee767" changeset="2839508">
    <nd ref="163544077"/>
    <nd ref="163546030"/>
    <nd ref="163546031"/>
    <nd ref="163545498"/>
    <nd ref="163546033"/>
    <nd ref="163546035"/>
    <tag k="highway" v="residential"/>
    <tag k="maxspeed" v="50"/>
    <tag k="name" v="Derwent Street"/>
    <tag k="source:name" v="survey"/>
  </way>
  <way id="16168081" version="4" timestamp="2009-06-06T03:22:04Z" uid="61114" user="Trav" changeset="1434233">
    <nd ref="163546392"/>
    <nd ref="163549574"/>
    <nd ref="163547566"/>
    <tag k="highway" v="residential"/>
    <tag k="name" v="Carlisle Street"/>
    <tag k="source:name" v="survey"/>
  </way>
  <way id="16168081" version="5" timestamp="2009-10-13T19:15:01Z" uid="184929" user="jaybee767" changeset="2839508">
    <nd ref="163546392"/>
    <nd ref="163549574"/>
    <nd ref="163547566"/>
    <tag k="highway" v="residential"/>
    <tag k="maxspeed" v="50"/>
    <tag k="name" v="Carlisle Street"/>
    <tag k="source:name" v="survey"/>
  </way>
  <way id="16168095" version="2" timestamp="2009-06-06T03:22:33Z" uid="61114" user="Trav" changeset="1434233">
    <nd ref="163547848"/>
    <nd ref="163547849"/>
    <tag k="highway" v="residential"/>
    <tag k="name" v="Newby Place"/>
    <tag k="source:name" v="survey"/>
  </way>
  <way id="16168095" version="3" timestamp="2010-07-07T23:31:44Z" uid="74617" user="JohnSmith" changeset="5162525">
    <nd ref="163547848"/>
    <nd ref="163547849"/>
    <tag k="highway" v="residential"/>
    <tag k="maxspeed" v="50"/>
    <tag k="maxspeed:source" v="default residential speed limit in Australia"/>
    <tag k="name" v="Newby Place"/>
    <tag k="source:name" v="survey"/>
  </way>
  <way id="16168095" version="4" timestamp="2012-01-15T15:25:49Z" uid="147510" user="woodpeck_fixbot" changeset="10398186">
    <nd ref="163547848"/>
    <nd ref="163547849"/>
    <tag k="highway" v="residential"/>
    <tag k="name" v="Newby Place"/>
    <tag k="source:name" v="survey"/>
  </way>
  <way id="16168113" version="2" timestamp="2009-06-06T03:22:03Z" uid="61114" user="Trav" changeset="1434233">
    <nd ref="163548145"/>
    <nd ref="163548146"/>
    <nd ref="163548147"/>
    <tag k="highway" v="residential"/>
    <tag k="name" v="Rydal Place"/>
    <tag k="source:name" v="survey"/>
  </way>
  <way id="16168113" version="3" timestamp="2010-07-07T23:32:52Z" uid="74617" user="JohnSmith" changeset="5162525">
    <nd ref="163548145"/>
    <nd ref="163548146"/>
    <nd ref="163548147"/>
    <tag k="highway" v="residential"/>
    <tag k="maxspeed" v="50"/>
    <tag k="maxspeed:source" v="default residential speed limit in Australia"/>
    <tag k="name" v="Rydal Place"/>
    <tag k="source:name" v="survey"/>
  </way>
  <way id="16168113" version="4" timestamp="2012-01-15T15:25:50Z" uid="147510" user="woodpeck_fixbot" changeset="10398186">
    <nd ref="163548145"/>
    <nd ref="163548146"/>
    <nd ref="163548147"/>
    <tag k="highway" v="residential"/>
    <tag k="name" v="Rydal Place"/>
    <tag k="source:name" v="survey"/>
  </way>
  <way id="16168151" version="2" timestamp="2009-06-06T03:22:07Z" uid="61114" user="Trav" changeset="1434233">
    <nd ref="114324679"/>
    <nd ref="416264287"/>
    <nd ref="163547566"/>
    <tag k="highway" v="residential"/>
    <tag k="name" v="Berith Street"/>
    <tag k="source:name" v="survey"/>
  </way>
  <way id="16168151" version="3" timestamp="2010-03-10T08:54:10Z" uid="7617" user="Franc" changeset="4087205">
    <nd ref="114324679"/>
    <nd ref="663559974"/>
    <tag k="highway" v="residential"/>
    <tag k="name" v="Berith Street"/>
    <tag k="source:name" v="survey"/>
  </way>
  <way id="16168151" version="4" timestamp="2010-07-07T23:34:20Z" uid="74617" user="JohnSmith" changeset="5162525">
    <nd ref="114324679"/>
    <nd ref="663559974"/>
    <tag k="highway" v="residential"/>
    <tag k="maxspeed" v="50"/>
    <tag k="maxspeed:source" v="default residential speed limit in Australia"/>
    <tag k="name" v="Berith Street"/>
    <tag k="source:name" v="survey"/>
  </way>
  <way id="16168151" version="5" timestamp="2012-01-15T15:25:52Z" uid="147510" user="woodpeck_fixbot" changeset="10398186">
    <nd ref="114324679"/>
    <nd ref="663559974"/>
    <tag k="highway" v="residential"/>
    <tag k="name" v="Berith Street"/>
    <tag k="source:name" v="survey"/>
  </way>
  <way id="16168197" version="2" timestamp="2009-06-06T03:23:22Z" uid="61114" user="Trav" changeset="1434233"/>
  <way id="16168267" version="5" timestamp="2009-06-06T03:22:36Z" uid="61114" user="Trav" changeset="1434233">
    <nd ref="114310770"/>
    <nd ref="163552444"/>
    <nd ref="163551385"/>
    <nd ref="163551620"/>
    <nd ref="163551386"/>
    <nd ref="163551924"/>
    <nd ref="163551387"/>
    <nd ref="163551388"/>
    <nd ref="163551389"/>
    <nd ref="163551390"/>
    <nd ref="163551392"/>
    <tag k="highway" v="unclassified"/>
    <tag k="name" v="Penrith Avenue"/>
    <tag k="source:name" v="survey"/>
  </way>
  <way id="16168273" version="3" timestamp="2009-06-06T03:22:38Z" uid="61114" user="Trav" changeset="1434233">
    <nd ref="163551385"/>
    <nd ref="163552138"/>
    <nd ref="163551563"/>
    <tag k="highway" v="residential"/>
    <tag k="name" v="Crummock Street"/>
    <tag k="source:name" v="survey"/>
  </way>
  <way id="16168273" version="4" timestamp="2010-07-07T23:33:04Z" uid="74617" user="JohnSmith" changeset="5162525">
    <nd ref="163551385"/>
    <nd ref="163552138"/>
    <nd ref="163551563"/>
    <tag k="highway" v="residential"/>
    <tag k="maxspeed" v="50"/>
    <tag k="maxspeed:source" v="default residential speed limit in Australia"/>
    <tag k="name" v="Crummock Street"/>
    <tag k="source:name" v="survey"/>
  </way>
  <way id="16168273" version="5" timestamp="2012-01-15T15:25:54Z" uid="147510" user="woodpeck_fixbot" changeset="10398186">
    <nd ref="163551385"/>
    <nd ref="163552138"/>
    <nd ref="163551563"/>
    <tag k="highway" v="residential"/>
    <tag k="name" v="Crummock Street"/>
    <tag k="source:name" v="survey"/>
  </way>
  <way id="16168290" version="2" timestamp="2009-06-06T03:22:37Z" uid="61114" user="Trav" changeset="1434233">
    <nd ref="163551620"/>
    <nd ref="163551768"/>
    <tag k="highway" v="residential"/>
    <tag k="name" v="Wasdale Street"/>
    <tag k="source:name" v="survey"/>
  </way>
  <way id="16168290" version="3" timestamp="2010-07-07T23:32:51Z" uid="74617" user="JohnSmith" changeset="5162525">
    <nd ref="163551620"/>
    <nd ref="163551768"/>
    <tag k="highway" v="residential"/>
    <tag k="maxspeed" v="50"/>
    <tag k="maxspeed:source" v="default residential speed limit in Australia"/>
    <tag k="name" v="Wasdale Street"/>
    <tag k="source:name" v="survey"/>
  </way>
  <way id="16168290" version="4" timestamp="2012-01-15T15:25:56Z" uid="147510" user="woodpeck_fixbot" changeset="10398186">
    <nd ref="163551620"/>
    <nd ref="163551768"/>
    <tag k="highway" v="residential"/>
    <tag k="name" v="Wasdale Street"/>
    <tag k="source:name" v="survey"/>
  </way>
  <way id="16168294" version="2" timestamp="2009-06-06T03:22:37Z" uid="61114" user="Trav" changeset="1434233">
    <nd ref="163551922"/>
    <nd ref="163551924"/>
    <tag k="highway" v="residential"/>
    <tag k="name" v="Penrith Avenue"/>
    <tag k="source:name" v="extrapolation"/>
  </way>
  <way id="16168294" version="3" timestamp="2010-07-07T23:31:16Z" uid="74617" user="JohnSmith" changeset="5162525">
    <nd ref="163551922"/>
    <nd ref="163551924"/>
    <tag k="highway" v="residential"/>
    <tag k="maxspeed" v="50"/>
    <tag k="maxspeed:source" v="default residential speed limit in Australia"/>
    <tag k="name" v="Penrith Avenue"/>
    <tag k="source:name" v="extrapolation"/>
  </way>
  <way id="16168294" version="4" timestamp="2012-01-15T15:25:58Z" uid="147510" user="woodpeck_fixbot" changeset="10398186">
    <nd ref="163551922"/>
    <nd ref="163551924"/>
    <tag k="highway" v="residential"/>
    <tag k="name" v="Penrith Avenue"/>
    <tag k="source:name" v="extrapolation"/>
  </way>
  <way id="16168323" version="2" timestamp="2009-06-06T03:22:38Z" uid="61114" user="Trav" changeset="1434233">
    <nd ref="163552138"/>
    <nd ref="163552443"/>
    <nd ref="163552444"/>
    <tag k="highway" v="service"/>
    <tag k="name" v="South Creek Lane"/>
    <tag k="source:name" v="survey"/>
  </way>
  <way id="16168362" version="2" timestamp="2009-06-06T03:22:35Z" uid="61114" user="Trav" changeset="1434233">
    <nd ref="163553276"/>
    <nd ref="114319465"/>
    <tag k="highway" v="residential"/>
    <tag k="name" v="Dympna Street"/>
    <tag k="source:name" v="survey"/>
  </way>
  <way id="16168362" version="3" timestamp="2010-07-07T23:34:16Z" uid="74617" user="JohnSmith" changeset="5162525">
    <nd ref="163553276"/>
    <nd ref="114319465"/>
    <tag k="highway" v="residential"/>
    <tag k="maxspeed" v="50"/>
    <tag k="maxspeed:source" v="default residential speed limit in Australia"/>
    <tag k="name" v="Dympna Street"/>
    <tag k="source:name" v="survey"/>
  </way>
  <way id="16168362" version="4" timestamp="2012-01-15T15:25:59Z" uid="147510" user="woodpeck_fixbot" changeset="10398186">
    <nd ref="163553276"/>
    <nd ref="114319465"/>
    <tag k="highway" v="residential"/>
    <tag k="name" v="Dympna Street"/>
    <tag k="source:name" v="survey"/>
  </way>
  <way id="16168379" version="3" timestamp="2009-06-06T03:22:34Z" uid="61114" user="Trav" changeset="1434233">
    <nd ref="163553683"/>
    <nd ref="163554311"/>
    <nd ref="163553684"/>
    <tag k="highway" v="residential"/>
    <tag k="name" v="Dympna Street"/>
    <tag k="source:name" v="survey"/>
  </way>
  <way id="16168379" version="4" timestamp="2010-07-07T23:32:32Z" uid="74617" user="JohnSmith" changeset="5162525">
    <nd ref="163553683"/>
    <nd ref="163554311"/>
    <nd ref="163553684"/>
    <tag k="highway" v="residential"/>
    <tag k="maxspeed" v="50"/>
    <tag k="maxspeed:source" v="default residential speed limit in Australia"/>
    <tag k="name" v="Dympna Street"/>
    <tag k="source:name" v="survey"/>
  </way>
  <way id="16168379" version="5" timestamp="2012-01-15T15:26:01Z" uid="147510" user="woodpeck_fixbot" changeset="10398186">
    <nd ref="163553683"/>
    <nd ref="163554311"/>
    <nd ref="163553684"/>
    <tag k="highway" v="residential"/>
    <tag k="name" v="Dympna Street"/>
    <tag k="source:name" v="survey"/>
  </way>
  <way id="16168404" version="2" timestamp="2009-06-06T03:22:35Z" uid="61114" user="Trav" changeset="1434233">
    <nd ref="163554310"/>
    <nd ref="163554311"/>
    <tag k="highway" v="residential"/>
    <tag k="name" v="Boola Place"/>
    <tag k="source:name" v="survey"/>
  </way>
  <way id="16168404" version="3" timestamp="2010-07-07T23:33:29Z" uid="74617" user="JohnSmith" changeset="5162525">
    <nd ref="163554310"/>
    <nd ref="163554311"/>
    <tag k="highway" v="residential"/>
    <tag k="maxspeed" v="50"/>
    <tag k="maxspeed:source" v="default residential speed limit in Australia"/>
    <tag k="name" v="Boola Place"/>
    <tag k="source:name" v="survey"/>
  </way>
  <way id="16168404" version="4" timestamp="2012-01-15T15:26:02Z" uid="147510" user="woodpeck_fixbot" changeset="10398186">
    <nd ref="163554310"/>
    <nd ref="163554311"/>
    <tag k="highway" v="residential"/>
    <tag k="name" v="Boola Place"/>
    <tag k="source:name" v="survey"/>
  </way>
  <way id="16168443" version="4" timestamp="2009-06-06T03:22:28Z" uid="61114" user="Trav" changeset="1434233">
    <nd ref="114310767"/>
    <nd ref="163555079"/>
    <nd ref="163553684"/>
    <nd ref="163556180"/>
    <nd ref="163555080"/>
    <nd ref="416264607"/>
    <tag k="highway" v="residential"/>
    <tag k="name" v="Middleton Road"/>
    <tag k="source:name" v="survey"/>
  </way>
  <way id="16168443" version="5" timestamp="2010-03-10T08:54:03Z" uid="7617" user="Franc" changeset="4087205">
    <nd ref="114310767"/>
    <nd ref="163555079"/>
    <nd ref="663559960"/>
    <nd ref="163553684"/>
    <nd ref="163556180"/>
    <nd ref="163555080"/>
    <nd ref="663559961"/>
    <nd ref="416264607"/>
    <tag k="highway" v="residential"/>
    <tag k="name" v="Middleton Road"/>
    <tag k="source:name" v="survey"/>
  </way>
  <way id="16168443" version="6" timestamp="2010-07-07T23:31:59Z" uid="74617" user="JohnSmith" changeset="5162525">
    <nd ref="114310767"/>
    <nd ref="163555079"/>
    <nd ref="663559960"/>
    <nd ref="163553684"/>
    <nd ref="163556180"/>
    <nd ref="163555080"/>
    <nd ref="663559961"/>
    <nd ref="416264607"/>
    <tag k="highway" v="residential"/>
    <tag k="maxspeed" v="50"/>
    <tag k="maxspeed:source" v="default residential speed limit in Australia"/>
    <tag k="name" v="Middleton Road"/>
    <tag k="source:name" v="survey"/>
  </way>
  <way id="16168443" version="7" timestamp="2012-01-15T15:26:04Z" uid="147510" user="woodpeck_fixbot" changeset="10398186">
    <nd ref="114310767"/>
    <nd ref="163555079"/>
    <nd ref="663559960"/>
    <nd ref="163553684"/>
    <nd ref="163556180"/>
    <nd ref="163555080"/>
    <nd ref="663559961"/>
    <nd ref="416264607"/>
    <tag k="highway" v="residential"/>
    <tag k="name" v="Middleton Road"/>
    <tag k="source:name" v="survey"/>
  </way>
  <way id="16168502" version="2" timestamp="2009-06-06T03:22:28Z" uid="61114" user="Trav" changeset="1434233">
    <nd ref="114310853"/>
    <nd ref="163556180"/>
    <tag k="highway" v="residential"/>
    <tag k="name" v="Thew Parade"/>
    <tag k="source:name" v="survey"/>
  </way>
  <way id="16168502" version="3" timestamp="2010-03-10T08:54:09Z" uid="7617" user="Franc" changeset="4087205">
    <nd ref="114310853"/>
    <nd ref="663559956"/>
    <tag k="highway" v="residential"/>
    <tag k="name" v="Thew Parade"/>
    <tag k="restriction" v="school_zone"/>
    <tag k="source:name" v="survey"/>
  </way>
  <way id="16168502" version="4" timestamp="2010-07-07T23:34:54Z" uid="74617" user="JohnSmith" changeset="5162525">
    <nd ref="114310853"/>
    <nd ref="663559956"/>
    <tag k="highway" v="residential"/>
    <tag k="maxspeed" v="50"/>
    <tag k="maxspeed:source" v="default residential speed limit in Australia"/>
    <tag k="name" v="Thew Parade"/>
    <tag k="restriction" v="school_zone"/>
    <tag k="source:name" v="survey"/>
  </way>
  <way id="16168502" version="5" timestamp="2012-01-15T15:26:05Z" uid="147510" user="woodpeck_fixbot" changeset="10398186">
    <nd ref="114310853"/>
    <nd ref="663559956"/>
    <tag k="highway" v="residential"/>
    <tag k="name" v="Thew Parade"/>
    <tag k="restriction" v="school_zone"/>
    <tag k="source:name" v="survey"/>
  </way>
  <way id="16168577" version="3" timestamp="2009-06-06T03:22:22Z" uid="61114" user="Trav" changeset="1434233">
    <nd ref="163557310"/>
    <nd ref="163557312"/>
    <nd ref="163557313"/>
    <nd ref="163557314"/>
    <nd ref="163557315"/>
    <nd ref="163557316"/>
    <nd ref="114314769"/>
    <tag k="highway" v="residential"/>
    <tag k="name" v="Gilmore Avenue"/>
    <tag k="source:name" v="survey"/>
  </way>
  <way id="16168577" version="4" timestamp="2010-07-07T23:33:28Z" uid="74617" user="JohnSmith" changeset="5162525">
    <nd ref="163557310"/>
    <nd ref="163557312"/>
    <nd ref="163557313"/>
    <nd ref="163557314"/>
    <nd ref="163557315"/>
    <nd ref="163557316"/>
    <nd ref="114314769"/>
    <tag k="highway" v="residential"/>
    <tag k="maxspeed" v="50"/>
    <tag k="maxspeed:source" v="default residential speed limit in Australia"/>
    <tag k="name" v="Gilmore Avenue"/>
    <tag k="source:name" v="survey"/>
  </way>
  <way id="16168577" version="5" timestamp="2012-01-15T15:26:07Z" uid="147510" user="woodpeck_fixbot" changeset="10398186">
    <nd ref="163557310"/>
    <nd ref="163557312"/>
    <nd ref="163557313"/>
    <nd ref="163557314"/>
    <nd ref="163557315"/>
    <nd ref="163557316"/>
    <nd ref="114314769"/>
    <tag k="highway" v="residential"/>
    <tag k="name" v="Gilmore Avenue"/>
    <tag k="source:name" v="survey"/>
  </way>
  <way id="16168607" version="3" timestamp="2009-06-06T03:22:25Z" uid="61114" user="Trav" changeset="1434233">
    <nd ref="163558061"/>
    <nd ref="163558864"/>
    <nd ref="163558655"/>
    <nd ref="163558656"/>
    <nd ref="163558658"/>
    <nd ref="114314765"/>
    <tag k="highway" v="residential"/>
    <tag k="name" v="Orlando Road"/>
    <tag k="source:name" v="survey"/>
  </way>
  <way id="16168607" version="4" timestamp="2010-01-23T12:10:58Z" uid="30201" user="rrankin" changeset="3690907">
    <nd ref="163558061"/>
    <nd ref="163558864"/>
    <nd ref="163558655"/>
    <nd ref="163558656"/>
    <nd ref="163558658"/>
    <nd ref="618623830"/>
    <nd ref="114314765"/>
    <tag k="highway" v="residential"/>
    <tag k="name" v="Orlando Road"/>
    <tag k="source:name" v="survey"/>
  </way>
  <way id="16168607" version="5" timestamp="2010-07-07T23:35:41Z" uid="74617" user="JohnSmith" changeset="5162525">
    <nd ref="163558061"/>
    <nd ref="163558864"/>
    <nd ref="163558655"/>
    <nd ref="163558656"/>
    <nd ref="163558658"/>
    <nd ref="618623830"/>
    <nd ref="114314765"/>
    <tag k="highway" v="residential"/>
    <tag k="maxspeed" v="50"/>
    <tag k="maxspeed:source" v="default residential speed limit in Australia"/>
    <tag k="name" v="Orlando Road"/>
    <tag k="source:name" v="survey"/>
  </way>
  <way id="16168607" version="6" timestamp="2012-01-15T15:26:09Z" uid="147510" user="woodpeck_fixbot" changeset="10398186">
    <nd ref="163558061"/>
    <nd ref="163558864"/>
    <nd ref="163558655"/>
    <nd ref="163558656"/>
    <nd ref="163558658"/>
    <nd ref="618623830"/>
    <nd ref="114314765"/>
    <tag k="highway" v="residential"/>
    <tag k="name" v="Orlando Road"/>
    <tag k="source:name" v="survey"/>
  </way>
  <way id="16168618" version="2" timestamp="2009-06-06T03:22:26Z" uid="61114" user="Trav" changeset="1434233">
    <nd ref="163558860"/>
    <nd ref="163558862"/>
    <nd ref="163558863"/>
    <nd ref="163558864"/>
    <tag k="highway" v="residential"/>
    <tag k="name" v="Villiers Place"/>
    <tag k="source:name" v="survey"/>
  </way>
  <way id="16168618" version="3" timestamp="2010-07-07T23:31:11Z" uid="74617" user="JohnSmith" changeset="5162525">
    <nd ref="163558860"/>
    <nd ref="163558862"/>
    <nd ref="163558863"/>
    <nd ref="163558864"/>
    <tag k="highway" v="residential"/>
    <tag k="maxspeed" v="50"/>
    <tag k="maxspeed:source" v="default residential speed limit in Australia"/>
    <tag k="name" v="Villiers Place"/>
    <tag k="source:name" v="survey"/>
  </way>
  <way id="16168618" version="4" timestamp="2012-01-15T15:26:12Z" uid="147510" user="woodpeck_fixbot" changeset="10398186">
    <nd ref="163558860"/>
    <nd ref="163558862"/>
    <nd ref="163558863"/>
    <nd ref="163558864"/>
    <tag k="highway" v="residential"/>
    <tag k="name" v="Villiers Place"/>
    <tag k="source:name" v="survey"/>
  </way>
  <way id="16168698" version="3" timestamp="2009-06-06T03:22:39Z" uid="61114" user="Trav" changeset="1434233">
    <nd ref="114310848"/>
    <nd ref="163562055"/>
    <nd ref="163560924"/>
    <tag k="highway" v="residential"/>
    <tag k="name" v="Campbell Avenue"/>
    <tag k="source:name" v="survey"/>
  </way>
  <way id="16168698" version="4" timestamp="2010-03-06T06:09:06Z" uid="7617" user="Franc" changeset="4046790">
    <nd ref="114310848"/>
    <nd ref="660942968"/>
    <nd ref="163562055"/>
    <nd ref="163560924"/>
    <tag k="highway" v="residential"/>
    <tag k="name" v="Campbell Avenue"/>
    <tag k="source:name" v="survey"/>
  </way>
  <way id="16168698" version="5" timestamp="2010-07-07T23:31:50Z" uid="74617" user="JohnSmith" changeset="5162525">
    <nd ref="114310848"/>
    <nd ref="660942968"/>
    <nd ref="163562055"/>
    <nd ref="163560924"/>
    <tag k="highway" v="residential"/>
    <tag k="maxspeed" v="50"/>
    <tag k="maxspeed:source" v="default residential speed limit in Australia"/>
    <tag k="name" v="Campbell Avenue"/>
    <tag k="source:name" v="survey"/>
  </way>
  <way id="16168698" version="6" timestamp="2012-01-15T15:26:13Z" uid="147510" user="woodpeck_fixbot" changeset="10398186">
    <nd ref="114310848"/>
    <nd ref="660942968"/>
    <nd ref="163562055"/>
    <nd ref="163560924"/>
    <tag k="highway" v="residential"/>
    <tag k="name" v="Campbell Avenue"/>
    <tag k="source:name" v="survey"/>
  </way>
  <way id="16168760" version="2" timestamp="2009-06-06T03:22:39Z" uid="61114" user="Trav" changeset="1434233">
    <nd ref="163562051"/>
    <nd ref="163562052"/>
    <nd ref="163562053"/>
    <nd ref="163562055"/>
    <tag k="highway" v="residential"/>
    <tag k="name" v="Michele Road"/>
    <tag k="source:name" v="survey"/>
  </way>
  <way id="16168760" version="3" timestamp="2009-06-07T22:52:19Z" uid="61114" user="Trav" changeset="1454364"/>
  <way id="16168762" version="2" timestamp="2009-06-06T03:22:48Z" uid="61114" user="Trav" changeset="1434233">
    <nd ref="163562082"/>
    <nd ref="163562084"/>
    <nd ref="163562085"/>
    <tag k="complete" v="no"/>
    <tag k="highway" v="residential"/>
    <tag k="name" v="Randall Court"/>
    <tag k="source:name" v="survey"/>
  </way>
  <way id="16168762" version="3" timestamp="2009-06-07T22:52:18Z" uid="61114" user="Trav" changeset="1454364"/>
  <way id="16168789" version="3" timestamp="2009-05-31T05:58:17Z" uid="61114" user="Trav" changeset="1365262">
    <nd ref="114310765"/>
    <nd ref="163563368"/>
    <nd ref="163562835"/>
    <nd ref="413326676"/>
    <tag k="highway" v="residential"/>
    <tag k="name" v="Grover Avenue"/>
    <tag k="source:name" v="survey"/>
  </way>
  <way id="16168789" version="4" timestamp="2010-01-23T08:40:12Z" uid="30201" user="rrankin" changeset="3689609">
    <nd ref="114310765"/>
    <nd ref="163563368"/>
    <nd ref="163563197"/>
    <nd ref="163562835"/>
    <nd ref="413326676"/>
    <tag k="highway" v="residential"/>
    <tag k="name" v="Grover Avenue"/>
    <tag k="source:name" v="survey"/>
  </way>
  <way id="16168789" version="5" timestamp="2010-07-07T23:35:26Z" uid="74617" user="JohnSmith" changeset="5162525">
    <nd ref="114310765"/>
    <nd ref="163563368"/>
    <nd ref="163563197"/>
    <nd ref="163562835"/>
    <nd ref="413326676"/>
    <tag k="highway" v="residential"/>
    <tag k="maxspeed" v="50"/>
    <tag k="maxspeed:source" v="default residential speed limit in Australia"/>
    <tag k="name" v="Grover Avenue"/>
    <tag k="source:name" v="survey"/>
  </way>
  <way id="16168789" version="6" timestamp="2012-01-15T15:26:15Z" uid="147510" user="woodpeck_fixbot" changeset="10398186">
    <nd ref="114310765"/>
    <nd ref="163563368"/>
    <nd ref="163563197"/>
    <nd ref="163562835"/>
    <nd ref="413326676"/>
    <tag k="highway" v="residential"/>
    <tag k="name" v="Grover Avenue"/>
    <tag k="source:name" v="survey"/>
  </way>
  <way id="16168801" version="3" timestamp="2009-05-31T05:58:13Z" uid="61114" user="Trav" changeset="1365262">
    <nd ref="163563066"/>
    <nd ref="163562835"/>
    <tag k="highway" v="residential"/>
    <tag k="name" v="Dalpura Street"/>
    <tag k="source:name" v="survey"/>
  </way>
  <way id="16168801" version="4" timestamp="2010-07-07T23:33:07Z" uid="74617" user="JohnSmith" changeset="5162525">
    <nd ref="163563066"/>
    <nd ref="163562835"/>
    <tag k="highway" v="residential"/>
    <tag k="maxspeed" v="50"/>
    <tag k="maxspeed:source" v="default residential speed limit in Australia"/>
    <tag k="name" v="Dalpura Street"/>
    <tag k="source:name" v="survey"/>
  </way>
  <way id="16168801" version="5" timestamp="2012-01-15T15:26:18Z" uid="147510" user="woodpeck_fixbot" changeset="10398186">
    <nd ref="163563066"/>
    <nd ref="163562835"/>
    <tag k="highway" v="residential"/>
    <tag k="name" v="Dalpura Street"/>
    <tag k="source:name" v="survey"/>
  </way>
  <way id="16168809" version="3" timestamp="2009-05-31T05:58:11Z" uid="61114" user="Trav" changeset="1365262">
    <nd ref="163563196"/>
    <nd ref="163563197"/>
    <tag k="highway" v="residential"/>
    <tag k="name" v="Mirra Place"/>
    <tag k="source:name" v="survey"/>
  </way>
  <way id="16168809" version="4" timestamp="2010-07-07T23:35:03Z" uid="74617" user="JohnSmith" changeset="5162525">
    <nd ref="163563196"/>
    <nd ref="163563197"/>
    <tag k="highway" v="residential"/>
    <tag k="maxspeed" v="50"/>
    <tag k="maxspeed:source" v="default residential speed limit in Australia"/>
    <tag k="name" v="Mirra Place"/>
    <tag k="source:name" v="survey"/>
  </way>
  <way id="16168809" version="5" timestamp="2012-01-15T15:26:20Z" uid="147510" user="woodpeck_fixbot" changeset="10398186">
    <nd ref="163563196"/>
    <nd ref="163563197"/>
    <tag k="highway" v="residential"/>
    <tag k="name" v="Mirra Place"/>
    <tag k="source:name" v="survey"/>
  </way>
  <way id="16168811" version="3" timestamp="2009-05-31T05:58:12Z" uid="61114" user="Trav" changeset="1365262">
    <nd ref="163563367"/>
    <nd ref="163563368"/>
    <tag k="highway" v="residential"/>
    <tag k="name" v="Hoover Place"/>
    <tag k="source:name" v="survey"/>
  </way>
  <way id="16168811" version="4" timestamp="2010-07-07T23:35:52Z" uid="74617" user="JohnSmith" changeset="5162525">
    <nd ref="163563367"/>
    <nd ref="163563368"/>
    <tag k="highway" v="residential"/>
    <tag k="maxspeed" v="50"/>
    <tag k="maxspeed:source" v="default residential speed limit in Australia"/>
    <tag k="name" v="Hoover Place"/>
    <tag k="source:name" v="survey"/>
  </way>
  <way id="16168811" version="5" timestamp="2012-01-15T15:26:23Z" uid="147510" user="woodpeck_fixbot" changeset="10398186">
    <nd ref="163563367"/>
    <nd ref="163563368"/>
    <tag k="highway" v="residential"/>
    <tag k="name" v="Hoover Place"/>
    <tag k="source:name" v="survey"/>
  </way>
  <way id="16168850" version="2" timestamp="2009-05-31T05:58:06Z" uid="61114" user="Trav" changeset="1365262">
    <nd ref="163564178"/>
    <nd ref="163564179"/>
    <nd ref="163564682"/>
    <nd ref="163564924"/>
    <tag k="highway" v="residential"/>
    <tag k="name" v="Judith Place"/>
    <tag k="source:name" v="survey"/>
  </way>
  <way id="16168850" version="3" timestamp="2010-07-07T23:35:11Z" uid="74617" user="JohnSmith" changeset="5162525">
    <nd ref="163564178"/>
    <nd ref="163564179"/>
    <nd ref="163564682"/>
    <nd ref="163564924"/>
    <tag k="highway" v="residential"/>
    <tag k="maxspeed" v="50"/>
    <tag k="maxspeed:source" v="default residential speed limit in Australia"/>
    <tag k="name" v="Judith Place"/>
    <tag k="source:name" v="survey"/>
  </way>
  <way id="16168850" version="4" timestamp="2012-01-15T15:26:25Z" uid="147510" user="woodpeck_fixbot" changeset="10398186">
    <nd ref="163564178"/>
    <nd ref="163564179"/>
    <nd ref="163564682"/>
    <nd ref="163564924"/>
    <tag k="highway" v="residential"/>
    <tag k="name" v="Judith Place"/>
    <tag k="source:name" v="survey"/>
  </way>
  <way id="16168888" version="4" timestamp="2009-05-31T05:59:00Z" uid="61114" user="Trav" changeset="1365262"/>
  <way id="16168901" version="4" timestamp="2009-05-31T05:58:13Z" uid="61114" user="Trav" changeset="1365262">
    <nd ref="163564923"/>
    <nd ref="163564924"/>
    <nd ref="163566986"/>
    <nd ref="163564926"/>
    <tag k="highway" v="residential"/>
    <tag k="name" v="Waroon Road"/>
    <tag k="source:name" v="survey"/>
  </way>
  <way id="16168901" version="5" timestamp="2010-03-10T08:54:08Z" uid="7617" user="Franc" changeset="4087205">
    <nd ref="163564923"/>
    <nd ref="163564924"/>
    <nd ref="663559937"/>
    <tag k="highway" v="residential"/>
    <tag k="name" v="Waroon Road"/>
    <tag k="source:name" v="survey"/>
  </way>
  <way id="16168901" version="6" timestamp="2010-07-07T23:33:22Z" uid="74617" user="JohnSmith" changeset="5162525">
    <nd ref="163564923"/>
    <nd ref="163564924"/>
    <nd ref="663559937"/>
    <tag k="highway" v="residential"/>
    <tag k="maxspeed" v="50"/>
    <tag k="maxspeed:source" v="default residential speed limit in Australia"/>
    <tag k="name" v="Waroon Road"/>
    <tag k="source:name" v="survey"/>
  </way>
  <way id="16168901" version="7" timestamp="2012-01-15T15:26:29Z" uid="147510" user="woodpeck_fixbot" changeset="10398186">
    <nd ref="163564923"/>
    <nd ref="163564924"/>
    <nd ref="663559937"/>
    <tag k="highway" v="residential"/>
    <tag k="name" v="Waroon Road"/>
    <tag k="source:name" v="survey"/>
  </way>
  <way id="16168939" version="2" timestamp="2009-05-31T05:58:15Z" uid="61114" user="Trav" changeset="1365262">
    <nd ref="163565580"/>
    <nd ref="163565581"/>
    <nd ref="163565582"/>
    <tag k="highway" v="residential"/>
    <tag k="name" v="Geelong Road"/>
    <tag k="source:name" v="survey"/>
  </way>
  <way id="16168939" version="3" timestamp="2010-07-07T23:34:51Z" uid="74617" user="JohnSmith" changeset="5162525">
    <nd ref="163565580"/>
    <nd ref="163565581"/>
    <nd ref="163565582"/>
    <tag k="highway" v="residential"/>
    <tag k="maxspeed" v="50"/>
    <tag k="maxspeed:source" v="default residential speed limit in Australia"/>
    <tag k="name" v="Geelong Road"/>
    <tag k="source:name" v="survey"/>
  </way>
  <way id="16168939" version="4" timestamp="2012-01-15T15:26:31Z" uid="147510" user="woodpeck_fixbot" changeset="10398186">
    <nd ref="163565580"/>
    <nd ref="163565581"/>
    <nd ref="163565582"/>
    <tag k="highway" v="residential"/>
    <tag k="name" v="Geelong Road"/>
    <tag k="source:name" v="survey"/>
  </way>
  <way id="16168983" version="2" timestamp="2010-01-23T06:01:57Z" uid="30201" user="rrankin" changeset="3689199">
    <nd ref="618542749"/>
    <nd ref="163566098"/>
    <tag k="highway" v="residential"/>
  </way>
  <way id="16168983" version="3" timestamp="2010-07-07T23:32:09Z" uid="74617" user="JohnSmith" changeset="5162525">
    <nd ref="618542749"/>
    <nd ref="163566098"/>
    <tag k="highway" v="residential"/>
    <tag k="maxspeed" v="50"/>
    <tag k="maxspeed:source" v="default residential speed limit in Australia"/>
  </way>
  <way id="16168983" version="4" timestamp="2010-10-22T22:18:06Z" uid="7617" user="Franc" changeset="6140904">
    <nd ref="618542749"/>
    <nd ref="163566098"/>
    <tag k="highway" v="residential"/>
    <tag k="maxspeed" v="50"/>
    <tag k="maxspeed:source" v="default residential speed limit in Australia"/>
    <tag k="name" v="Alfred Street"/>
    <tag k="source:name" v="survey"/>
  </way>
  <way id="16168983" version="5" timestamp="2012-01-15T15:26:33Z" uid="147510" user="woodpeck_fixbot" changeset="10398186">
    <nd ref="618542749"/>
    <nd ref="163566098"/>
    <tag k="highway" v="residential"/>
    <tag k="name" v="Alfred Street"/>
    <tag k="source:name" v="survey"/>
  </way>
  <way id="16168024" version="4" timestamp="2012-07-19T16:14:47Z" uid="722137" user="OSMF Redaction Account" changeset="12338140">
    <nd ref="163544077"/>
    <nd ref="163546030"/>
    <nd ref="163546031"/>
    <nd ref="163545498"/>
    <nd ref="163546033"/>
    <nd ref="163546035"/>
    <tag k="highway" v="residential"/>
    <tag k="maxspeed" v="50"/>
  </way>
  <way id="16168081" version="6" timestamp="2012-07-19T16:14:51Z" uid="722137" user="OSMF Redaction Account" changeset="12338140">
    <nd ref="163546392"/>
    <nd ref="163549574"/>
    <nd ref="163547566"/>
    <tag k="highway" v="residential"/>
    <tag k="maxspeed" v="50"/>
  </way>
  <way id="16168081" version="7" timestamp="2012-08-03T15:41:08Z" uid="510836" user="Rub21" changeset="12599716">
    <nd ref="163546392"/>
    <nd ref="1850068067"/>
    <nd ref="163549574"/>
    <nd ref="163547566"/>
    <tag k="highway" v="residential"/>
    <tag k="maxspeed" v="50"/>
  </way>
  <way id="16168095" version="5" timestamp="2012-07-19T16:14:47Z" uid="722137" user="OSMF Redaction Account" changeset="12338140">
    <nd ref="163547848"/>
    <nd ref="163547849"/>
    <tag k="highway" v="residential"/>
  </way>
  <way id="16168095" version="6" timestamp="2012-08-03T15:29:36Z" uid="510836" user="Rub21" changeset="12599604">
    <nd ref="163547848"/>
    <nd ref="1850055477"/>
    <tag k="highway" v="residential"/>
  </way>
  <way id="16168113" version="5" timestamp="2012-07-19T16:14:48Z" uid="722137" user="OSMF Redaction Account" changeset="12338140">
    <nd ref="163548145"/>
    <nd ref="163548146"/>
    <nd ref="163548147"/>
    <tag k="highway" v="residential"/>
  </way>
  <way id="16168151" version="6" timestamp="2012-07-19T16:18:26Z" uid="722137" user="OSMF Redaction Account" changeset="12338502"/>
  <way id="16168267" version="6" timestamp="2012-07-19T16:14:43Z" uid="722137" user="OSMF Redaction Account" changeset="12338140">
    <nd ref="114310770"/>
    <nd ref="163552444"/>
    <nd ref="163551385"/>
    <nd ref="163551620"/>
    <nd ref="163551386"/>
    <nd ref="163551924"/>
    <nd ref="163551387"/>
    <nd ref="163551388"/>
    <nd ref="163551389"/>
    <nd ref="163551390"/>
    <nd ref="163551392"/>
    <tag k="highway" v="unclassified"/>
  </way>
  <way id="16168273" version="6" timestamp="2012-07-19T16:14:43Z" uid="722137" user="OSMF Redaction Account" changeset="12338140">
    <nd ref="163551385"/>
    <nd ref="163552138"/>
    <nd ref="163551563"/>
    <tag k="highway" v="residential"/>
  </way>
  <way id="16168290" version="5" timestamp="2012-07-19T16:14:44Z" uid="722137" user="OSMF Redaction Account" changeset="12338140">
    <nd ref="163551620"/>
    <nd ref="163551768"/>
    <tag k="highway" v="residential"/>
  </way>
  <way id="16168294" version="5" timestamp="2012-07-19T16:14:45Z" uid="722137" user="OSMF Redaction Account" changeset="12338140">
    <nd ref="163551922"/>
    <nd ref="163551924"/>
    <tag k="highway" v="residential"/>
  </way>
  <way id="16168323" version="3" timestamp="2012-07-19T16:14:44Z" uid="722137" user="OSMF Redaction Account" changeset="12338140">
    <nd ref="163552138"/>
    <nd ref="163552443"/>
    <nd ref="163552444"/>
    <tag k="highway" v="service"/>
  </way>
  <way id="16168362" version="5" timestamp="2012-07-19T16:14:44Z" uid="722137" user="OSMF Redaction Account" changeset="12338140">
    <nd ref="163553276"/>
    <nd ref="114319465"/>
    <tag k="highway" v="residential"/>
  </way>
  <way id="16168379" version="6" timestamp="2012-07-19T16:14:43Z" uid="722137" user="OSMF Redaction Account" changeset="12338140">
    <nd ref="163553683"/>
    <nd ref="163554311"/>
    <nd ref="163553684"/>
    <tag k="highway" v="residential"/>
  </way>
  <way id="16168404" version="5" timestamp="2012-07-19T16:14:43Z" uid="722137" user="OSMF Redaction Account" changeset="12338140">
    <nd ref="163554310"/>
    <nd ref="163554311"/>
    <tag k="highway" v="residential"/>
  </way>
  <way id="16168443" version="8" timestamp="2012-07-19T16:14:00Z" uid="722137" user="OSMF Redaction Account" changeset="12338140">
    <nd ref="114310767"/>
    <nd ref="163555079"/>
    <nd ref="163553684"/>
    <nd ref="163556180"/>
    <nd ref="163555080"/>
    <tag k="highway" v="residential"/>
  </way>
  <way id="16168443" version="9" timestamp="2012-08-03T15:29:37Z" uid="510836" user="Rub21" changeset="12599604">
    <nd ref="114310767"/>
    <nd ref="163555079"/>
    <nd ref="163553684"/>
    <nd ref="1850055493"/>
    <nd ref="163556180"/>
    <nd ref="163555080"/>
    <tag k="highway" v="residential"/>
  </way>
  <way id="16168502" version="6" timestamp="2012-07-19T16:18:19Z" uid="722137" user="OSMF Redaction Account" changeset="12338502"/>
  <way id="16168577" version="6" timestamp="2012-07-19T16:14:42Z" uid="722137" user="OSMF Redaction Account" changeset="12338140">
    <nd ref="163557310"/>
    <nd ref="163557312"/>
    <nd ref="163557313"/>
    <nd ref="163557314"/>
    <nd ref="163557315"/>
    <nd ref="163557316"/>
    <nd ref="114314769"/>
    <tag k="highway" v="residential"/>
  </way>
  <way id="16168607" version="7" timestamp="2012-07-19T16:14:02Z" uid="722137" user="OSMF Redaction Account" changeset="12338140">
    <nd ref="163558061"/>
    <nd ref="163558864"/>
    <nd ref="163558655"/>
    <nd ref="163558656"/>
    <nd ref="163558658"/>
    <nd ref="114314765"/>
    <tag k="highway" v="residential"/>
  </way>
  <way id="16168607" version="8" timestamp="2012-08-03T15:25:57Z" uid="510836" user="Rub21" changeset="12599556">
    <nd ref="163558061"/>
    <nd ref="163558864"/>
    <nd ref="163558655"/>
    <nd ref="163558656"/>
    <nd ref="163558658"/>
    <nd ref="1850050103"/>
    <nd ref="114314765"/>
    <tag k="highway" v="residential"/>
  </way>
  <way id="16168607" version="9" timestamp="2012-08-03T15:29:37Z" uid="510836" user="Rub21" changeset="12599604">
    <nd ref="163558061"/>
    <nd ref="163558864"/>
    <nd ref="163558655"/>
    <nd ref="1850055503"/>
    <nd ref="163558656"/>
    <nd ref="163558658"/>
    <nd ref="1850050103"/>
    <nd ref="114314765"/>
    <tag k="highway" v="residential"/>
  </way>
  <way id="16168618" version="5" timestamp="2012-07-19T16:14:41Z" uid="722137" user="OSMF Redaction Account" changeset="12338140">
    <nd ref="163558860"/>
    <nd ref="163558862"/>
    <nd ref="163558863"/>
    <nd ref="163558864"/>
    <tag k="highway" v="residential"/>
  </way>
  <way id="16168698" version="7" timestamp="2012-07-19T16:14:06Z" uid="722137" user="OSMF Redaction Account" changeset="12338140">
    <nd ref="114310848"/>
    <nd ref="163562055"/>
    <nd ref="163560924"/>
    <tag k="highway" v="residential"/>
  </way>
  <way id="16168698" version="8" timestamp="2012-08-03T15:25:57Z" uid="510836" user="Rub21" changeset="12599556">
    <nd ref="114310630"/>
    <nd ref="114310848"/>
    <nd ref="163562055"/>
    <nd ref="1850050185"/>
    <nd ref="163560924"/>
    <tag k="highway" v="residential"/>
  </way>
  <way id="16168789" version="7" timestamp="2012-07-19T16:14:01Z" uid="722137" user="OSMF Redaction Account" changeset="12338140">
    <nd ref="163562835"/>
    <nd ref="163563368"/>
    <nd ref="114310765"/>
    <tag k="highway" v="residential"/>
  </way>
  <way id="16168801" version="6" timestamp="2012-07-19T16:14:40Z" uid="722137" user="OSMF Redaction Account" changeset="12338140">
    <nd ref="163563066"/>
    <nd ref="163562835"/>
    <tag k="highway" v="residential"/>
  </way>
  <way id="16168809" version="6" timestamp="2012-07-19T16:14:40Z" uid="722137" user="OSMF Redaction Account" changeset="12338140">
    <nd ref="163563196"/>
    <nd ref="163563197"/>
    <tag k="highway" v="residential"/>
  </way>
  <way id="16168811" version="6" timestamp="2012-07-19T16:14:40Z" uid="722137" user="OSMF Redaction Account" changeset="12338140">
    <nd ref="163563367"/>
    <nd ref="163563368"/>
    <tag k="highway" v="residential"/>
  </way>
  <way id="16168850" version="5" timestamp="2012-07-19T16:14:39Z" uid="722137" user="OSMF Redaction Account" changeset="12338140">
    <nd ref="163564178"/>
    <nd ref="163564179"/>
    <tag k="highway" v="unclassified"/>
  </way>
  <way id="16168901" version="8" timestamp="2012-07-19T16:14:06Z" uid="722137" user="OSMF Redaction Account" changeset="12338140">
    <nd ref="163564923"/>
    <nd ref="163564924"/>
    <tag k="highway" v="residential"/>
  </way>
  <way id="16168939" version="5" timestamp="2012-07-19T16:14:39Z" uid="722137" user="OSMF Redaction Account" changeset="12338140">
    <nd ref="163565580"/>
    <nd ref="163565581"/>
    <nd ref="163565582"/>
    <tag k="highway" v="residential"/>
  </way>
  <way id="16168983" version="6" timestamp="2012-07-19T16:18:12Z" uid="722137" user="OSMF Redaction Account" changeset="12338502"/>
</osm>
