<?xml version='1.0' encoding='UTF-8'?>
<osm version="0.6" generator="libosmium/2.20.0">
  <way id="16215144" version="2" timestamp="2010-07-08T17:49:42Z" uid="74617" user="JohnSmith" changeset="5167338">
    <nd ref="129751050"/>
    <nd ref="129751011"/>
    <nd ref="164671171"/>
    <tag k="highway" v="residential"/>
    <tag k="maxspeed" v="50"/>
    <tag k="maxspeed:source" v="default residential speed limit in Australia"/>
    <tag k="name" v="Stanton Street"/>
  </way>
  <way id="16215144" version="3" timestamp="2012-01-15T15:34:03Z" uid="147510" user="woodpeck_fixbot" changeset="10398186">
    <nd ref="129751050"/>
    <nd ref="129751011"/>
    <nd ref="164671171"/>
    <tag k="highway" v="residential"/>
    <tag k="name" v="Stanton Street"/>
  </way>
  <way id="16215148" version="2" timestamp="2010-07-08T17:48:57Z" uid="74617" user="JohnSmith" changeset="5167338">
    <nd ref="164671205"/>
    <nd ref="164671238"/>
    <nd ref="164671267"/>
    <nd ref="164671331"/>
    <tag k="highway" v="residential"/>
    <tag k="maxspeed" v="50"/>
    <tag k="maxspeed:source" v="default residential speed limit in Australia"/>
    <tag k="name" v="Olivia Street"/>
  </way>
  <way id="16215148" version="3" timestamp="2012-01-15T15:34:04Z" uid="147510" user="woodpeck_fixbot" changeset="10398186">
    <nd ref="164671205"/>
    <nd ref="164671238"/>
    <nd ref="164671267"/>
    <nd ref="164671331"/>
    <tag k="highway" v="residential"/>
    <tag k="name" v="Olivia Street"/>
  </way>
  <way id="16215151" version="2" timestamp="2010-07-08T17:50:37Z" uid="74617" user="JohnSmith" changeset="5167338">
    <nd ref="164671378"/>
    <nd ref="164671416"/>
    <nd ref="164671463"/>
    <tag k="highway" v="residential"/>
    <tag k="maxspeed" v="50"/>
    <tag k="maxspeed:source" v="default residential speed limit in Australia"/>
    <tag k="name" v="Short Street"/>
  </way>
  <way id="16215151" version="3" timestamp="2012-01-15T15:34:06Z" uid="147510" user="woodpeck_fixbot" changeset="10398186">
    <nd ref="164671378"/>
    <nd ref="164671416"/>
    <nd ref="164671463"/>
    <tag k="highway" v="residential"/>
    <tag k="name" v="Short Street"/>
  </way>
  <way id="16215157" version="2" timestamp="2010-07-08T17:48:22Z" uid="74617" user="JohnSmith" changeset="5167338">
    <nd ref="85724722"/>
    <nd ref="164671611"/>
    <nd ref="164671664"/>
    <nd ref="164671716"/>
    <tag k="highway" v="residential"/>
    <tag k="maxspeed" v="50"/>
    <tag k="maxspeed:source" v="default residential speed limit in Australia"/>
    <tag k="name" v="Park Lands Place"/>
  </way>
  <way id="16215157" version="3" timestamp="2012-01-15T15:34:07Z" uid="147510" user="woodpeck_fixbot" changeset="10398186">
    <nd ref="85724722"/>
    <nd ref="164671611"/>
    <nd ref="164671664"/>
    <nd ref="164671716"/>
    <tag k="highway" v="residential"/>
    <tag k="name" v="Park Lands Place"/>
  </way>
  <way id="16215160" version="2" timestamp="2010-07-08T17:46:43Z" uid="74617" user="JohnSmith" changeset="5167338">
    <nd ref="164671756"/>
    <nd ref="164671807"/>
    <nd ref="164671852"/>
    <nd ref="164671881"/>
    <nd ref="164671928"/>
    <tag k="highway" v="residential"/>
    <tag k="maxspeed" v="50"/>
    <tag k="maxspeed:source" v="default residential speed limit in Australia"/>
    <tag k="name" v="Lord Place"/>
  </way>
  <way id="16215160" version="3" timestamp="2012-01-15T15:34:09Z" uid="147510" user="woodpeck_fixbot" changeset="10398186">
    <nd ref="164671756"/>
    <nd ref="164671807"/>
    <nd ref="164671852"/>
    <nd ref="164671881"/>
    <nd ref="164671928"/>
    <tag k="highway" v="residential"/>
    <tag k="name" v="Lord Place"/>
  </way>
  <way id="16215162" version="2" timestamp="2010-07-08T17:49:33Z" uid="74617" user="JohnSmith" changeset="5167338">
    <nd ref="158669489"/>
    <nd ref="158669413"/>
    <nd ref="164671980"/>
    <nd ref="164672016"/>
    <nd ref="164672041"/>
    <nd ref="164672118"/>
    <nd ref="164672076"/>
    <tag k="highway" v="residential"/>
    <tag k="maxspeed" v="50"/>
    <tag k="maxspeed:source" v="default residential speed limit in Australia"/>
    <tag k="name" v="Cobon Court"/>
  </way>
  <way id="16215162" version="3" timestamp="2012-01-15T15:34:12Z" uid="147510" user="woodpeck_fixbot" changeset="10398186">
    <nd ref="158669489"/>
    <nd ref="158669413"/>
    <nd ref="164671980"/>
    <nd ref="164672016"/>
    <nd ref="164672041"/>
    <nd ref="164672118"/>
    <nd ref="164672076"/>
    <tag k="highway" v="residential"/>
    <tag k="name" v="Cobon Court"/>
  </way>
  <way id="16215166" version="2" timestamp="2010-07-08T17:48:50Z" uid="74617" user="JohnSmith" changeset="5167338">
    <nd ref="164672148"/>
    <nd ref="164672316"/>
    <nd ref="164672349"/>
    <nd ref="164672402"/>
    <nd ref="164672459"/>
    <tag k="highway" v="residential"/>
    <tag k="maxspeed" v="50"/>
    <tag k="maxspeed:source" v="default residential speed limit in Australia"/>
    <tag k="name" v="Carlyle Court"/>
  </way>
  <way id="16215166" version="3" timestamp="2012-01-15T15:34:18Z" uid="147510" user="woodpeck_fixbot" changeset="10398186">
    <nd ref="164672148"/>
    <nd ref="164672316"/>
    <nd ref="164672349"/>
    <nd ref="164672402"/>
    <nd ref="164672459"/>
    <tag k="highway" v="residential"/>
    <tag k="name" v="Carlyle Court"/>
  </way>
  <way id="16215169" version="3" timestamp="2010-07-08T17:48:20Z" uid="74617" user="JohnSmith" changeset="5167338">
    <nd ref="164672279"/>
    <nd ref="164672514"/>
    <nd ref="164672578"/>
    <nd ref="168213030"/>
    <nd ref="168213039"/>
    <nd ref="168213049"/>
    <nd ref="168213056"/>
    <nd ref="168213063"/>
    <tag k="highway" v="residential"/>
    <tag k="maxspeed" v="50"/>
    <tag k="maxspeed:source" v="default residential speed limit in Australia"/>
    <tag k="name" v="Glenrowan Street"/>
  </way>
  <way id="16215169" version="4" timestamp="2012-01-15T15:34:19Z" uid="147510" user="woodpeck_fixbot" changeset="10398186">
    <nd ref="164672279"/>
    <nd ref="164672514"/>
    <nd ref="164672578"/>
    <nd ref="168213030"/>
    <nd ref="168213039"/>
    <nd ref="168213049"/>
    <nd ref="168213056"/>
    <nd ref="168213063"/>
    <tag k="highway" v="residential"/>
    <tag k="name" v="Glenrowan Street"/>
  </way>
  <way id="16215171" version="2" timestamp="2010-07-08T17:50:54Z" uid="74617" user="JohnSmith" changeset="5167338">
    <nd ref="164672765"/>
    <nd ref="164672813"/>
    <tag k="highway" v="residential"/>
    <tag k="maxspeed" v="50"/>
    <tag k="maxspeed:source" v="default residential speed limit in Australia"/>
    <tag k="name" v="Noy Court"/>
  </way>
  <way id="16215171" version="3" timestamp="2012-01-15T15:34:22Z" uid="147510" user="woodpeck_fixbot" changeset="10398186">
    <nd ref="164672765"/>
    <nd ref="164672813"/>
    <tag k="highway" v="residential"/>
    <tag k="name" v="Noy Court"/>
  </way>
  <way id="16215173" version="2" timestamp="2010-07-08T17:47:31Z" uid="74617" user="JohnSmith" changeset="5167338">
    <nd ref="164672868"/>
    <nd ref="164672922"/>
    <nd ref="164672970"/>
    <nd ref="164673017"/>
    <nd ref="164673070"/>
    <nd ref="164673113"/>
    <tag k="highway" v="residential"/>
    <tag k="maxspeed" v="50"/>
    <tag k="maxspeed:source" v="default residential speed limit in Australia"/>
    <tag k="name" v="Bemm Drive"/>
  </way>
  <way id="16215173" version="3" timestamp="2012-01-15T15:34:24Z" uid="147510" user="woodpeck_fixbot" changeset="10398186">
    <nd ref="164672868"/>
    <nd ref="164672922"/>
    <nd ref="164672970"/>
    <nd ref="164673017"/>
    <nd ref="164673070"/>
    <nd ref="164673113"/>
    <tag k="highway" v="residential"/>
    <tag k="name" v="Bemm Drive"/>
  </way>
  <way id="16215175" version="2" timestamp="2010-07-08T17:50:18Z" uid="74617" user="JohnSmith" changeset="5167338">
    <nd ref="81380666"/>
    <nd ref="164673154"/>
    <tag k="highway" v="residential"/>
    <tag k="maxspeed" v="50"/>
    <tag k="maxspeed:source" v="default residential speed limit in Australia"/>
    <tag k="name" v="Yarak Court"/>
  </way>
  <way id="16215175" version="3" timestamp="2012-01-15T15:34:26Z" uid="147510" user="woodpeck_fixbot" changeset="10398186">
    <nd ref="81380666"/>
    <nd ref="164673154"/>
    <tag k="highway" v="residential"/>
    <tag k="name" v="Yarak Court"/>
  </way>
  <way id="16215176" version="2" timestamp="2010-07-08T17:50:40Z" uid="74617" user="JohnSmith" changeset="5167338">
    <nd ref="164673187"/>
    <nd ref="164673237"/>
    <tag k="highway" v="residential"/>
    <tag k="maxspeed" v="50"/>
    <tag k="maxspeed:source" v="default residential speed limit in Australia"/>
    <tag k="name" v="Woorarra Court"/>
  </way>
  <way id="16215176" version="3" timestamp="2012-01-15T15:34:28Z" uid="147510" user="woodpeck_fixbot" changeset="10398186">
    <nd ref="164673187"/>
    <nd ref="164673237"/>
    <tag k="highway" v="residential"/>
    <tag k="name" v="Woorarra Court"/>
  </way>
  <way id="16215177" version="2" timestamp="2010-07-08T17:49:45Z" uid="74617" user="JohnSmith" changeset="5167338">
    <nd ref="164673273"/>
    <nd ref="164673323"/>
    <tag k="highway" v="residential"/>
    <tag k="maxspeed" v="50"/>
    <tag k="maxspeed:source" v="default residential speed limit in Australia"/>
    <tag k="name" v="Booran Court"/>
  </way>
  <way id="16215177" version="3" timestamp="2012-01-15T15:34:32Z" uid="147510" user="woodpeck_fixbot" changeset="10398186">
    <nd ref="164673273"/>
    <nd ref="164673323"/>
    <tag k="highway" v="residential"/>
    <tag k="name" v="Booran Court"/>
  </way>
  <way id="16215180" version="2" timestamp="2010-07-08T17:50:00Z" uid="74617" user="JohnSmith" changeset="5167338">
    <nd ref="164673323"/>
    <nd ref="164673380"/>
    <tag k="highway" v="residential"/>
    <tag k="maxspeed" v="50"/>
    <tag k="maxspeed:source" v="default residential speed limit in Australia"/>
    <tag k="name" v="Karlo Court"/>
  </way>
  <way id="16215180" version="3" timestamp="2012-01-15T15:34:33Z" uid="147510" user="woodpeck_fixbot" changeset="10398186">
    <nd ref="164673323"/>
    <nd ref="164673380"/>
    <tag k="highway" v="residential"/>
    <tag k="name" v="Karlo Court"/>
  </way>
  <way id="16215181" version="2" timestamp="2010-07-08T17:49:01Z" uid="74617" user="JohnSmith" changeset="5167338">
    <nd ref="81380753"/>
    <nd ref="164673429"/>
    <tag k="highway" v="residential"/>
    <tag k="maxspeed" v="50"/>
    <tag k="maxspeed:source" v="default residential speed limit in Australia"/>
    <tag k="name" v="Yanakie Court"/>
  </way>
  <way id="16215181" version="3" timestamp="2012-01-15T15:34:36Z" uid="147510" user="woodpeck_fixbot" changeset="10398186">
    <nd ref="81380753"/>
    <nd ref="164673429"/>
    <tag k="highway" v="residential"/>
    <tag k="name" v="Yanakie Court"/>
  </way>
  <way id="16215183" version="2" timestamp="2010-07-08T17:46:57Z" uid="74617" user="JohnSmith" changeset="5167338">
    <nd ref="164673467"/>
    <nd ref="164673510"/>
    <nd ref="164673551"/>
    <nd ref="164673597"/>
    <nd ref="164673634"/>
    <nd ref="164673683"/>
    <tag k="highway" v="residential"/>
    <tag k="maxspeed" v="50"/>
    <tag k="maxspeed:source" v="default residential speed limit in Australia"/>
    <tag k="name" v="Bunyip Court"/>
  </way>
  <way id="16215183" version="3" timestamp="2012-01-15T15:34:38Z" uid="147510" user="woodpeck_fixbot" changeset="10398186">
    <nd ref="164673467"/>
    <nd ref="164673510"/>
    <nd ref="164673551"/>
    <nd ref="164673597"/>
    <nd ref="164673634"/>
    <nd ref="164673683"/>
    <tag k="highway" v="residential"/>
    <tag k="name" v="Bunyip Court"/>
  </way>
  <way id="16215186" version="2" timestamp="2010-07-08T17:49:08Z" uid="74617" user="JohnSmith" changeset="5167338">
    <nd ref="164673510"/>
    <nd ref="164673741"/>
    <tag k="highway" v="residential"/>
    <tag k="maxspeed" v="50"/>
    <tag k="maxspeed:source" v="default residential speed limit in Australia"/>
    <tag k="name" v="Giffard Court"/>
  </way>
  <way id="16215186" version="3" timestamp="2012-01-15T15:34:42Z" uid="147510" user="woodpeck_fixbot" changeset="10398186">
    <nd ref="164673510"/>
    <nd ref="164673741"/>
    <tag k="highway" v="residential"/>
    <tag k="name" v="Giffard Court"/>
  </way>
  <way id="16215189" version="2" timestamp="2010-07-08T17:49:26Z" uid="74617" user="JohnSmith" changeset="5167338">
    <nd ref="164673788"/>
    <nd ref="164673832"/>
    <tag k="highway" v="residential"/>
    <tag k="maxspeed" v="50"/>
    <tag k="maxspeed:source" v="default residential speed limit in Australia"/>
    <tag k="name" v="Fumina Court"/>
  </way>
  <way id="16215189" version="3" timestamp="2012-01-15T15:34:44Z" uid="147510" user="woodpeck_fixbot" changeset="10398186">
    <nd ref="164673788"/>
    <nd ref="164673832"/>
    <tag k="highway" v="residential"/>
    <tag k="name" v="Fumina Court"/>
  </way>
  <way id="16215190" version="2" timestamp="2010-07-08T17:48:26Z" uid="74617" user="JohnSmith" changeset="5167338">
    <nd ref="164673883"/>
    <nd ref="164673920"/>
    <nd ref="164673951"/>
    <tag k="highway" v="residential"/>
    <tag k="maxspeed" v="50"/>
    <tag k="maxspeed:source" v="default residential speed limit in Australia"/>
    <tag k="name" v="Wonga Court"/>
  </way>
  <way id="16215190" version="3" timestamp="2012-01-15T15:34:45Z" uid="147510" user="woodpeck_fixbot" changeset="10398186">
    <nd ref="164673883"/>
    <nd ref="164673920"/>
    <nd ref="164673951"/>
    <tag k="highway" v="residential"/>
    <tag k="name" v="Wonga Court"/>
  </way>
  <way id="16215192" version="2" timestamp="2010-07-08T17:47:46Z" uid="74617" user="JohnSmith" changeset="5167338">
    <nd ref="164673995"/>
    <nd ref="164674058"/>
    <nd ref="164674107"/>
    <nd ref="164674158"/>
    <tag k="highway" v="residential"/>
    <tag k="maxspeed" v="50"/>
    <tag k="maxspeed:source" v="default residential speed limit in Australia"/>
    <tag k="name" v="Talbot Court"/>
  </way>
  <way id="16215192" version="3" timestamp="2012-01-15T15:34:47Z" uid="147510" user="woodpeck_fixbot" changeset="10398186">
    <nd ref="164673995"/>
    <nd ref="164674058"/>
    <nd ref="164674107"/>
    <nd ref="164674158"/>
    <tag k="highway" v="residential"/>
    <tag k="name" v="Talbot Court"/>
  </way>
  <way id="16215193" version="2" timestamp="2010-07-08T17:46:47Z" uid="74617" user="JohnSmith" changeset="5167338">
    <nd ref="164674191"/>
    <nd ref="164674250"/>
    <nd ref="164674292"/>
    <nd ref="164674340"/>
    <tag k="highway" v="residential"/>
    <tag k="maxspeed" v="50"/>
    <tag k="maxspeed:source" v="default residential speed limit in Australia"/>
    <tag k="name" v="Hewat Court"/>
  </way>
  <way id="16215193" version="3" timestamp="2012-01-15T15:34:50Z" uid="147510" user="woodpeck_fixbot" changeset="10398186">
    <nd ref="164674191"/>
    <nd ref="164674250"/>
    <nd ref="164674292"/>
    <nd ref="164674340"/>
    <tag k="highway" v="residential"/>
    <tag k="name" v="Hewat Court"/>
  </way>
  <way id="16215195" version="2" timestamp="2010-07-08T17:49:38Z" uid="74617" user="JohnSmith" changeset="5167338">
    <nd ref="164674413"/>
    <nd ref="164674449"/>
    <nd ref="164674486"/>
    <nd ref="164674533"/>
    <nd ref="164674572"/>
    <tag k="highway" v="residential"/>
    <tag k="maxspeed" v="50"/>
    <tag k="maxspeed:source" v="default residential speed limit in Australia"/>
    <tag k="name" v="Ensay Court"/>
  </way>
  <way id="16215195" version="3" timestamp="2012-01-15T15:34:51Z" uid="147510" user="woodpeck_fixbot" changeset="10398186">
    <nd ref="164674413"/>
    <nd ref="164674449"/>
    <nd ref="164674486"/>
    <nd ref="164674533"/>
    <nd ref="164674572"/>
    <tag k="highway" v="residential"/>
    <tag k="name" v="Ensay Court"/>
  </way>
  <way id="16215197" version="2" timestamp="2010-07-08T17:50:44Z" uid="74617" user="JohnSmith" changeset="5167338">
    <nd ref="164674614"/>
    <nd ref="164674651"/>
    <tag k="highway" v="residential"/>
    <tag k="maxspeed" v="50"/>
    <tag k="maxspeed:source" v="default residential speed limit in Australia"/>
    <tag k="name" v="Bernard Road"/>
  </way>
  <way id="16215197" version="3" timestamp="2012-01-15T15:34:53Z" uid="147510" user="woodpeck_fixbot" changeset="10398186">
    <nd ref="164674614"/>
    <nd ref="164674651"/>
    <tag k="highway" v="residential"/>
    <tag k="name" v="Bernard Road"/>
  </way>
</osm>
