<?xml version='1.0' encoding='UTF-8'?>
<osm version="0.6" generator="libosmium/2.20.0">
  <way id="16282254" version="2" timestamp="2008-08-19T12:09:06Z" uid="7617" user="Franc" changeset="325032">
    <nd ref="143517591"/>
    <nd ref="143517595"/>
    <nd ref="97516813"/>
    <nd ref="97520493"/>
    <nd ref="289360854"/>
    <nd ref="97520495"/>
    <nd ref="143519207"/>
    <nd ref="97520496"/>
    <tag k="created_by" v="Potlatch 0.5d"/>
    <tag k="highway" v="residential"/>
    <tag k="name" v="Denman Parade"/>
    <tag k="source" v="yahoo_imagery"/>
  </way>
  <way id="16282254" version="3" timestamp="2008-08-19T12:19:03Z" uid="7617" user="Franc" changeset="325032">
    <nd ref="143517591"/>
    <nd ref="143517595"/>
    <nd ref="97516813"/>
    <nd ref="97520493"/>
    <nd ref="289360854"/>
    <nd ref="97520495"/>
    <nd ref="143519207"/>
    <nd ref="97520496"/>
    <tag k="created_by" v="Potlatch 0.5d"/>
    <tag k="highway" v="residential"/>
    <tag k="name" v="Denman Parade"/>
    <tag k="source" v="survey"/>
  </way>
  <way id="16282254" version="4" timestamp="2008-09-22T09:45:57Z" uid="7617" user="Franc" changeset="680122">
    <nd ref="143517591"/>
    <nd ref="143517595"/>
    <nd ref="298986838"/>
    <nd ref="97516813"/>
    <nd ref="97520493"/>
    <nd ref="289360854"/>
    <nd ref="97520495"/>
    <nd ref="143519207"/>
    <nd ref="97520496"/>
    <tag k="created_by" v="Potlatch 0.5d"/>
    <tag k="highway" v="residential"/>
    <tag k="name" v="Denman Parade"/>
    <tag k="source" v="survey"/>
  </way>
  <way id="16282254" version="5" timestamp="2009-04-13T05:45:27Z" uid="9477" user="NilbogAus" changeset="483782">
    <nd ref="143517591"/>
    <nd ref="143517595"/>
    <nd ref="298986838"/>
    <nd ref="97516813"/>
    <nd ref="289360854"/>
    <nd ref="373705658"/>
    <nd ref="97520495"/>
    <nd ref="143519207"/>
    <nd ref="97520496"/>
    <tag k="created_by" v="Potlatch 0.5d"/>
    <tag k="highway" v="residential"/>
    <tag k="name" v="Denman Parade"/>
    <tag k="source" v="survey"/>
  </way>
  <way id="16282254" version="6" timestamp="2010-01-19T02:04:38Z" uid="30201" user="rrankin" changeset="3655734">
    <nd ref="143517591"/>
    <nd ref="143517595"/>
    <nd ref="298986838"/>
    <nd ref="616540667"/>
    <tag k="highway" v="residential"/>
    <tag k="name" v="Denman Parade"/>
    <tag k="source" v="survey"/>
  </way>
  <way id="16282254" version="7" timestamp="2010-07-08T00:03:23Z" uid="74617" user="JohnSmith" changeset="5162525">
    <nd ref="143517591"/>
    <nd ref="143517595"/>
    <nd ref="298986838"/>
    <nd ref="616540667"/>
    <tag k="highway" v="residential"/>
    <tag k="maxspeed" v="50"/>
    <tag k="maxspeed:source" v="default residential speed limit in Australia"/>
    <tag k="name" v="Denman Parade"/>
    <tag k="source" v="survey"/>
  </way>
  <way id="16282254" version="8" timestamp="2010-07-08T00:13:40Z" uid="74617" user="JohnSmith" changeset="5162525">
    <nd ref="143517591"/>
    <nd ref="143517595"/>
    <nd ref="298986838"/>
    <nd ref="616540667"/>
    <tag k="highway" v="residential"/>
    <tag k="maxspeed" v="50"/>
    <tag k="maxspeed:source" v="default residential speed limit in Australia"/>
    <tag k="name" v="Denman Parade"/>
    <tag k="source" v="survey"/>
  </way>
  <way id="16282254" version="9" timestamp="2010-10-30T04:57:11Z" uid="61114" user="Trav" changeset="6223941">
    <nd ref="143517591"/>
    <nd ref="969661837"/>
    <nd ref="143517595"/>
    <nd ref="969661836"/>
    <nd ref="298986838"/>
    <nd ref="616540667"/>
    <tag k="highway" v="residential"/>
    <tag k="maxspeed" v="50"/>
    <tag k="maxspeed:source" v="default residential speed limit in Australia"/>
    <tag k="name" v="Denman Parade"/>
    <tag k="source" v="survey"/>
  </way>
  <way id="16282254" version="10" timestamp="2010-10-30T05:05:55Z" uid="61114" user="Trav" changeset="6223959">
    <nd ref="143517591"/>
    <nd ref="969661837"/>
    <nd ref="143517595"/>
    <tag k="highway" v="residential"/>
    <tag k="maxspeed" v="50"/>
    <tag k="maxspeed:source" v="default residential speed limit in Australia"/>
    <tag k="name" v="Denman Parade"/>
    <tag k="source" v="survey"/>
  </way>
  <way id="16282254" version="11" timestamp="2012-01-15T15:38:39Z" uid="147510" user="woodpeck_fixbot" changeset="10398186">
    <nd ref="143517591"/>
    <nd ref="969661837"/>
    <nd ref="143517595"/>
    <tag k="highway" v="residential"/>
    <tag k="name" v="Denman Parade"/>
    <tag k="source" v="survey"/>
  </way>
  <way id="16282257" version="2" timestamp="2008-03-10T07:11:26Z" uid="7617" user="Franc" changeset="299079">
    <nd ref="97515645"/>
    <nd ref="251464356"/>
    <nd ref="166107381"/>
    <tag k="created_by" v="Potlatch 0.5d"/>
    <tag k="highway" v="residential"/>
    <tag k="name" v="Denman Parade"/>
    <tag k="source" v="yahoo_imagery"/>
  </way>
  <way id="16282257" version="3" timestamp="2008-09-22T05:15:47Z" uid="7617" user="Franc" changeset="678206">
    <nd ref="97515645"/>
    <nd ref="298942021"/>
    <nd ref="251464356"/>
    <nd ref="166107381"/>
    <tag k="created_by" v="Potlatch 0.5d"/>
    <tag k="highway" v="residential"/>
    <tag k="name" v="Denman Parade"/>
    <tag k="source" v="survey"/>
  </way>
  <way id="16282257" version="4" timestamp="2008-11-08T00:35:39Z" uid="67716" user="zimgao" changeset="718577">
    <nd ref="97515645"/>
    <nd ref="298942021"/>
    <nd ref="251464356"/>
    <nd ref="166107381"/>
    <tag k="created_by" v="Potlatch 0.10f"/>
    <tag k="highway" v="residential"/>
    <tag k="name" v="Denman Parade"/>
    <tag k="source" v="survey"/>
  </way>
  <way id="16282257" version="5" timestamp="2009-04-13T05:45:25Z" uid="9477" user="NilbogAus" changeset="483782">
    <nd ref="97515645"/>
    <nd ref="373705653"/>
    <nd ref="298942021"/>
    <nd ref="251464356"/>
    <nd ref="166107381"/>
    <tag k="created_by" v="Potlatch 0.10f"/>
    <tag k="highway" v="residential"/>
    <tag k="name" v="Denman Parade"/>
    <tag k="source" v="survey"/>
  </way>
  <way id="16282257" version="6" timestamp="2010-03-29T08:18:44Z" uid="61114" user="Trav" changeset="4265028">
    <nd ref="97515645"/>
    <nd ref="677320161"/>
    <nd ref="373705653"/>
    <nd ref="298942021"/>
    <nd ref="251464356"/>
    <nd ref="166107381"/>
    <tag k="highway" v="residential"/>
    <tag k="name" v="Denman Parade"/>
    <tag k="source" v="survey"/>
  </way>
  <way id="16282257" version="7" timestamp="2010-07-08T00:01:49Z" uid="74617" user="JohnSmith" changeset="5162525">
    <nd ref="97515645"/>
    <nd ref="677320161"/>
    <nd ref="373705653"/>
    <nd ref="298942021"/>
    <nd ref="251464356"/>
    <nd ref="166107381"/>
    <tag k="highway" v="residential"/>
    <tag k="maxspeed" v="50"/>
    <tag k="maxspeed:source" v="default residential speed limit in Australia"/>
    <tag k="name" v="Denman Parade"/>
    <tag k="source" v="survey"/>
  </way>
  <way id="16282257" version="8" timestamp="2010-07-08T00:12:00Z" uid="74617" user="JohnSmith" changeset="5162525">
    <nd ref="97515645"/>
    <nd ref="677320161"/>
    <nd ref="373705653"/>
    <nd ref="298942021"/>
    <nd ref="251464356"/>
    <nd ref="166107381"/>
    <tag k="highway" v="residential"/>
    <tag k="maxspeed" v="50"/>
    <tag k="maxspeed:source" v="default residential speed limit in Australia"/>
    <tag k="name" v="Denman Parade"/>
    <tag k="source" v="survey"/>
  </way>
  <way id="16282257" version="9" timestamp="2012-01-15T15:38:41Z" uid="147510" user="woodpeck_fixbot" changeset="10398186">
    <nd ref="97515645"/>
    <nd ref="677320161"/>
    <nd ref="373705653"/>
    <nd ref="298942021"/>
    <nd ref="251464356"/>
    <nd ref="166107381"/>
    <tag k="highway" v="residential"/>
    <tag k="name" v="Denman Parade"/>
    <tag k="source" v="survey"/>
  </way>
  <way id="16282259" version="4" timestamp="2010-07-08T00:04:55Z" uid="74617" user="JohnSmith" changeset="5162525">
    <nd ref="31981264"/>
    <nd ref="31981263"/>
    <tag k="bridge" v="yes"/>
    <tag k="highway" v="residential"/>
    <tag k="layer" v="1"/>
    <tag k="maxspeed" v="50"/>
    <tag k="maxspeed:source" v="default residential speed limit in Australia"/>
    <tag k="name" v="Buckingham Avenue"/>
    <tag k="source" v="survey"/>
  </way>
  <way id="16282259" version="5" timestamp="2010-07-08T00:15:46Z" uid="74617" user="JohnSmith" changeset="5162525">
    <nd ref="31981264"/>
    <nd ref="31981263"/>
    <tag k="bridge" v="yes"/>
    <tag k="highway" v="residential"/>
    <tag k="layer" v="1"/>
    <tag k="maxspeed" v="50"/>
    <tag k="maxspeed:source" v="default residential speed limit in Australia"/>
    <tag k="name" v="Buckingham Avenue"/>
    <tag k="source" v="survey"/>
  </way>
  <way id="16282259" version="6" timestamp="2012-01-15T15:38:43Z" uid="147510" user="woodpeck_fixbot" changeset="10398186">
    <nd ref="31981264"/>
    <nd ref="31981263"/>
    <tag k="bridge" v="yes"/>
    <tag k="highway" v="residential"/>
    <tag k="layer" v="1"/>
    <tag k="name" v="Buckingham Avenue"/>
    <tag k="source" v="survey"/>
  </way>
  <way id="16282263" version="2" timestamp="2008-03-10T07:11:27Z" uid="7617" user="Franc" changeset="299079">
    <nd ref="31981263"/>
    <nd ref="143517591"/>
    <nd ref="166107381"/>
    <nd ref="251464362"/>
    <nd ref="60087123"/>
    <tag k="created_by" v="Potlatch 0.5d"/>
    <tag k="highway" v="residential"/>
    <tag k="name" v="Buckingham Avenue"/>
  </way>
  <way id="16282263" version="3" timestamp="2010-03-29T08:18:47Z" uid="61114" user="Trav" changeset="4265028">
    <nd ref="31981263"/>
    <nd ref="143517591"/>
    <nd ref="166107381"/>
    <nd ref="251464362"/>
    <nd ref="677320153"/>
    <nd ref="677320166"/>
    <nd ref="60087123"/>
    <tag k="highway" v="residential"/>
    <tag k="name" v="Buckingham Avenue"/>
  </way>
  <way id="16282263" version="4" timestamp="2010-07-08T00:04:02Z" uid="74617" user="JohnSmith" changeset="5162525">
    <nd ref="31981263"/>
    <nd ref="143517591"/>
    <nd ref="166107381"/>
    <nd ref="251464362"/>
    <nd ref="677320153"/>
    <nd ref="677320166"/>
    <nd ref="60087123"/>
    <tag k="highway" v="residential"/>
    <tag k="maxspeed" v="50"/>
    <tag k="maxspeed:source" v="default residential speed limit in Australia"/>
    <tag k="name" v="Buckingham Avenue"/>
  </way>
  <way id="16282263" version="5" timestamp="2010-07-08T00:14:26Z" uid="74617" user="JohnSmith" changeset="5162525">
    <nd ref="31981263"/>
    <nd ref="143517591"/>
    <nd ref="166107381"/>
    <nd ref="251464362"/>
    <nd ref="677320153"/>
    <nd ref="677320166"/>
    <nd ref="60087123"/>
    <tag k="highway" v="residential"/>
    <tag k="maxspeed" v="50"/>
    <tag k="maxspeed:source" v="default residential speed limit in Australia"/>
    <tag k="name" v="Buckingham Avenue"/>
  </way>
  <way id="16282263" version="6" timestamp="2010-10-30T04:53:50Z" uid="61114" user="Trav" changeset="6223930">
    <nd ref="31981263"/>
    <nd ref="143517591"/>
    <nd ref="166107381"/>
    <nd ref="969659996"/>
    <nd ref="251464362"/>
    <nd ref="969660000"/>
    <nd ref="677320153"/>
    <nd ref="677320166"/>
    <nd ref="60087123"/>
    <tag k="highway" v="residential"/>
    <tag k="maxspeed" v="50"/>
    <tag k="maxspeed:source" v="default residential speed limit in Australia"/>
    <tag k="name" v="Buckingham Avenue"/>
  </way>
  <way id="16282263" version="7" timestamp="2012-01-15T15:38:46Z" uid="147510" user="woodpeck_fixbot" changeset="10398186">
    <nd ref="31981263"/>
    <nd ref="143517591"/>
    <nd ref="166107381"/>
    <nd ref="969659996"/>
    <nd ref="251464362"/>
    <nd ref="969660000"/>
    <nd ref="677320153"/>
    <nd ref="677320166"/>
    <nd ref="60087123"/>
    <tag k="highway" v="residential"/>
    <tag k="name" v="Buckingham Avenue"/>
  </way>
  <way id="16282525" version="2" timestamp="2010-01-19T02:04:39Z" uid="30201" user="rrankin" changeset="3655734">
    <nd ref="144692199"/>
    <nd ref="144692201"/>
    <nd ref="17388400"/>
    <nd ref="166111678"/>
    <tag k="highway" v="motorway_link"/>
    <tag k="layer" v="1"/>
  </way>
  <way id="16282525" version="3" timestamp="2010-03-14T04:06:07Z" uid="7617" user="Franc" changeset="4120985"/>
  <way id="16282717" version="6" timestamp="2010-07-06T08:35:14Z" uid="74617" user="JohnSmith" changeset="5147679">
    <nd ref="158082482"/>
    <nd ref="166114432"/>
    <tag k="highway" v="residential"/>
    <tag k="maxspeed" v="50"/>
    <tag k="maxspeed:source" v="default residential speed limit in Australia"/>
    <tag k="name" v="Lynne Grove Avenue"/>
  </way>
  <way id="16282717" version="7" timestamp="2012-01-15T15:38:49Z" uid="147510" user="woodpeck_fixbot" changeset="10398186">
    <nd ref="158082482"/>
    <nd ref="166114432"/>
    <tag k="highway" v="residential"/>
    <tag k="name" v="Lynne Grove Avenue"/>
  </way>
  <way id="16282739" version="4" timestamp="2010-07-06T08:50:50Z" uid="74617" user="JohnSmith" changeset="5147679">
    <nd ref="158082480"/>
    <nd ref="166114911"/>
    <nd ref="166114912"/>
    <nd ref="166114914"/>
    <tag k="highway" v="residential"/>
    <tag k="maxspeed" v="50"/>
    <tag k="maxspeed:source" v="default residential speed limit in Australia"/>
    <tag k="name" v="Swift Street"/>
  </way>
  <way id="16282739" version="5" timestamp="2010-07-23T14:48:47Z" uid="4467" user="Rosscoe" changeset="5296188">
    <nd ref="158082480"/>
    <nd ref="166114912"/>
    <nd ref="166114914"/>
    <tag k="highway" v="residential"/>
    <tag k="maxspeed" v="50"/>
    <tag k="maxspeed:source" v="default residential speed limit in Australia"/>
    <tag k="name" v="Swift Street"/>
  </way>
  <way id="16282739" version="6" timestamp="2012-01-15T15:38:50Z" uid="147510" user="woodpeck_fixbot" changeset="10398186">
    <nd ref="158082480"/>
    <nd ref="166114912"/>
    <nd ref="166114914"/>
    <tag k="highway" v="residential"/>
    <tag k="name" v="Swift Street"/>
  </way>
  <way id="16282753" version="4" timestamp="2010-07-06T08:36:18Z" uid="74617" user="JohnSmith" changeset="5147679">
    <nd ref="166114912"/>
    <nd ref="166114432"/>
    <nd ref="166115134"/>
    <tag k="highway" v="residential"/>
    <tag k="maxspeed" v="50"/>
    <tag k="maxspeed:source" v="default residential speed limit in Australia"/>
    <tag k="name" v="Lamb Street"/>
  </way>
  <way id="16282753" version="5" timestamp="2012-01-15T15:38:52Z" uid="147510" user="woodpeck_fixbot" changeset="10398186">
    <nd ref="166114912"/>
    <nd ref="166114432"/>
    <nd ref="166115134"/>
    <tag k="highway" v="residential"/>
    <tag k="name" v="Lamb Street"/>
  </way>
  <way id="16282858" version="4" timestamp="2010-07-06T08:53:12Z" uid="74617" user="JohnSmith" changeset="5147679">
    <nd ref="158087035"/>
    <nd ref="166117176"/>
    <nd ref="166117178"/>
    <nd ref="166117179"/>
    <nd ref="158085155"/>
    <tag k="highway" v="residential"/>
    <tag k="maxspeed" v="50"/>
    <tag k="maxspeed:source" v="default residential speed limit in Australia"/>
    <tag k="name" v="Allan Terrace"/>
  </way>
  <way id="16282858" version="5" timestamp="2012-01-15T15:38:54Z" uid="147510" user="woodpeck_fixbot" changeset="10398186">
    <nd ref="158087035"/>
    <nd ref="166117176"/>
    <nd ref="166117178"/>
    <nd ref="166117179"/>
    <nd ref="158085155"/>
    <tag k="highway" v="residential"/>
    <tag k="name" v="Allan Terrace"/>
  </way>
  <way id="16282908" version="2" timestamp="2008-03-10T06:39:57Z" uid="7617" user="Franc" changeset="299079">
    <nd ref="143249941"/>
    <nd ref="143249942"/>
    <tag k="bridge" v="yes"/>
    <tag k="created_by" v="Potlatch 0.5d"/>
    <tag k="highway" v="footway"/>
    <tag k="layer" v="1"/>
    <tag k="source" v="Yahoo Imagery"/>
  </way>
  <way id="16282909" version="2" timestamp="2008-03-10T06:39:58Z" uid="7617" user="Franc" changeset="299079">
    <nd ref="143249942"/>
    <nd ref="143249944"/>
    <nd ref="143232827"/>
    <nd ref="144668444"/>
    <nd ref="51136658"/>
    <nd ref="144668425"/>
    <tag k="created_by" v="Potlatch 0.5d"/>
    <tag k="highway" v="footway"/>
    <tag k="source" v="Yahoo Imagery"/>
  </way>
  <way id="16282909" version="3" timestamp="2008-11-08T00:45:39Z" uid="67716" user="zimgao" changeset="718577">
    <nd ref="143249942"/>
    <nd ref="143249944"/>
    <nd ref="143232827"/>
    <nd ref="144668444"/>
    <nd ref="51136658"/>
    <nd ref="144668425"/>
    <tag k="created_by" v="Potlatch 0.10f"/>
    <tag k="highway" v="footway"/>
    <tag k="source" v="Yahoo Imagery"/>
  </way>
  <way id="16282949" version="5" timestamp="2010-07-06T08:52:35Z" uid="74617" user="JohnSmith" changeset="5147679">
    <nd ref="166118928"/>
    <nd ref="166118927"/>
    <nd ref="166118926"/>
    <nd ref="166118923"/>
    <tag k="highway" v="residential"/>
    <tag k="lcn" v="yes"/>
    <tag k="maxspeed" v="50"/>
    <tag k="maxspeed:source" v="default residential speed limit in Australia"/>
    <tag k="name" v="Menin Road"/>
  </way>
  <way id="16282949" version="6" timestamp="2012-01-15T15:38:56Z" uid="147510" user="woodpeck_fixbot" changeset="10398186">
    <nd ref="166118928"/>
    <nd ref="166118927"/>
    <nd ref="166118926"/>
    <nd ref="166118923"/>
    <tag k="highway" v="residential"/>
    <tag k="lcn" v="yes"/>
    <tag k="name" v="Menin Road"/>
  </way>
  <way id="16282254" version="12" timestamp="2012-07-19T20:07:03Z" uid="722137" user="OSMF Redaction Account" changeset="12345715">
    <nd ref="143517591"/>
    <nd ref="143517595"/>
    <tag k="highway" v="residential"/>
    <tag k="name" v="Denman Parade"/>
    <tag k="source" v="yahoo_imagery"/>
  </way>
  <way id="16282257" version="10" timestamp="2012-07-19T20:07:04Z" uid="722137" user="OSMF Redaction Account" changeset="12345715">
    <nd ref="97515645"/>
    <nd ref="373705653"/>
    <nd ref="166107381"/>
    <tag k="highway" v="residential"/>
    <tag k="name" v="Denman Parade"/>
    <tag k="source" v="yahoo_imagery"/>
  </way>
  <way id="16282259" version="7" timestamp="2012-07-19T20:10:13Z" uid="722137" user="OSMF Redaction Account" changeset="12345801"/>
  <way id="16282263" version="8" timestamp="2012-07-19T20:07:02Z" uid="722137" user="OSMF Redaction Account" changeset="12345715">
    <nd ref="143517591"/>
    <nd ref="166107381"/>
    <nd ref="60087123"/>
    <tag k="highway" v="residential"/>
    <tag k="name" v="Buckingham Avenue"/>
  </way>
  <way id="16282908" version="3" timestamp="2012-07-19T20:07:58Z" uid="722137" user="OSMF Redaction Account" changeset="12345758">
    <nd ref="143249941"/>
    <nd ref="143249942"/>
    <tag k="bridge" v="yes"/>
    <tag k="highway" v="footpath"/>
    <tag k="layer" v="1"/>
    <tag k="source" v="Yahoo Imagery"/>
  </way>
  <way id="16282908" version="4" timestamp="2012-08-17T09:51:13Z" uid="408202" user="BFX" changeset="12758696">
    <nd ref="143249941"/>
    <nd ref="143249942"/>
    <tag k="bridge" v="yes"/>
    <tag k="highway" v="footway"/>
    <tag k="layer" v="1"/>
  </way>
  <way id="16282909" version="4" timestamp="2012-07-19T20:07:58Z" uid="722137" user="OSMF Redaction Account" changeset="12345758">
    <nd ref="143249942"/>
    <nd ref="143249944"/>
    <nd ref="143232827"/>
    <nd ref="144668444"/>
    <nd ref="51136658"/>
    <nd ref="144668425"/>
    <tag k="highway" v="footpath"/>
    <tag k="source" v="Yahoo Imagery"/>
  </way>
  <way id="16282909" version="5" timestamp="2012-08-17T09:51:13Z" uid="408202" user="BFX" changeset="12758696">
    <nd ref="143249942"/>
    <nd ref="143249944"/>
    <nd ref="143232827"/>
    <nd ref="144668444"/>
    <nd ref="51136658"/>
    <nd ref="144668425"/>
    <tag k="highway" v="footway"/>
  </way>
</osm>
