<?xml version='1.0' encoding='UTF-8'?>
<osm version="0.6" generator="libosmium/2.20.0">
  <way id="16286199" version="5" timestamp="2009-08-11T11:04:12Z" uid="4467" user="Rosscoe" changeset="2107049">
    <nd ref="21479041"/>
    <nd ref="21479042"/>
    <tag k="bridge" v="yes"/>
    <tag k="highway" v="trunk"/>
    <tag k="is_in" v="Brisbane, QLD, Queensland, Australia"/>
    <tag k="layer" v="1"/>
    <tag k="name" v="Ipswich Road"/>
    <tag k="oneway" v="yes"/>
  </way>
  <way id="16286199" version="6" timestamp="2010-02-15T06:58:14Z" uid="74617" user="JohnSmith" changeset="3880463">
    <nd ref="21479041"/>
    <nd ref="21479042"/>
    <tag k="bridge" v="yes"/>
    <tag k="highway" v="trunk"/>
    <tag k="layer" v="1"/>
    <tag k="name" v="Ipswich Road"/>
    <tag k="oneway" v="yes"/>
  </way>
  <way id="16286199" version="7" timestamp="2010-03-21T14:59:47Z" uid="74617" user="JohnSmith" changeset="4191968">
    <nd ref="21479041"/>
    <nd ref="21479042"/>
    <tag k="bridge" v="yes"/>
    <tag k="highway" v="trunk"/>
    <tag k="layer" v="1"/>
    <tag k="oneway" v="yes"/>
  </way>
  <way id="16286203" version="3" timestamp="2009-08-11T11:04:12Z" uid="4467" user="Rosscoe" changeset="2107049">
    <nd ref="21477687"/>
    <nd ref="21477688"/>
    <nd ref="77728868"/>
    <nd ref="21477689"/>
    <tag k="highway" v="trunk"/>
    <tag k="is_in" v="Brisbane, QLD, Queensland, Australia"/>
    <tag k="name" v="Ipswich Road"/>
    <tag k="oneway" v="yes"/>
    <tag k="ref" v="A7"/>
  </way>
  <way id="16286203" version="4" timestamp="2010-02-15T06:58:12Z" uid="74617" user="JohnSmith" changeset="3880463">
    <nd ref="21477687"/>
    <nd ref="21477688"/>
    <nd ref="77728868"/>
    <nd ref="21477689"/>
    <tag k="highway" v="trunk"/>
    <tag k="name" v="Ipswich Road"/>
    <tag k="oneway" v="yes"/>
    <tag k="ref" v="A7"/>
  </way>
  <way id="16286203" version="5" timestamp="2010-03-21T14:59:47Z" uid="74617" user="JohnSmith" changeset="4191968">
    <nd ref="21477687"/>
    <nd ref="21477688"/>
    <nd ref="77728868"/>
    <nd ref="21477689"/>
    <tag k="highway" v="trunk"/>
    <tag k="oneway" v="yes"/>
  </way>
  <way id="16286233" version="5" timestamp="2011-04-05T02:51:01Z" uid="4467" user="Rosscoe" changeset="7771132">
    <nd ref="31394232"/>
    <nd ref="166206880"/>
    <tag k="highway" v="residential"/>
    <tag k="maxspeed" v="50"/>
    <tag k="name" v="Seafield Street"/>
  </way>
  <way id="16286257" version="7" timestamp="2010-04-03T05:27:45Z" uid="74617" user="JohnSmith" changeset="4309757">
    <nd ref="77720244"/>
    <nd ref="53946489"/>
    <nd ref="77728250"/>
    <tag k="highway" v="primary"/>
    <tag k="name" v="Muriel Avenue"/>
    <tag k="oneway" v="yes"/>
  </way>
  <way id="16286257" version="8" timestamp="2010-10-30T05:05:41Z" uid="22094" user="Chadzopkyo" changeset="6223958">
    <nd ref="77720244"/>
    <nd ref="53946489"/>
    <nd ref="969662883"/>
    <nd ref="77728250"/>
    <tag k="highway" v="primary"/>
    <tag k="name" v="Muriel Avenue"/>
    <tag k="oneway" v="yes"/>
  </way>
  <way id="16286257" version="9" timestamp="2012-02-03T01:25:24Z" uid="103574" user="Here is the repulsant snozzcumber!" changeset="10572809">
    <nd ref="1616213868"/>
    <nd ref="53946489"/>
    <nd ref="969662883"/>
    <nd ref="77728250"/>
    <tag k="highway" v="primary"/>
    <tag k="name" v="Muriel Avenue"/>
    <tag k="oneway" v="yes"/>
  </way>
  <way id="16286257" version="10" timestamp="2012-02-03T01:35:14Z" uid="103574" user="Here is the repulsant snozzcumber!" changeset="10572809"/>
  <way id="16286415" version="5" timestamp="2011-04-05T02:51:13Z" uid="4467" user="Rosscoe" changeset="7771132">
    <nd ref="166210185"/>
    <nd ref="166210186"/>
    <tag k="highway" v="residential"/>
    <tag k="maxspeed" v="50"/>
    <tag k="name" v="Koowarra Terrace"/>
  </way>
  <way id="16286495" version="6" timestamp="2010-02-15T06:57:59Z" uid="74617" user="JohnSmith" changeset="3880463">
    <nd ref="53946459"/>
    <nd ref="166213282"/>
    <nd ref="166213283"/>
    <nd ref="166213284"/>
    <nd ref="166213285"/>
    <nd ref="166213286"/>
    <nd ref="166213287"/>
    <nd ref="166213288"/>
    <nd ref="166213290"/>
    <nd ref="166213291"/>
    <nd ref="166213292"/>
    <nd ref="166213293"/>
    <nd ref="254531116"/>
    <nd ref="166213294"/>
    <nd ref="166213295"/>
    <nd ref="166213296"/>
    <nd ref="166185712"/>
    <tag k="highway" v="residential"/>
    <tag k="maxspeed" v="50"/>
    <tag k="name" v="Anson Street"/>
  </way>
  <way id="16286495" version="7" timestamp="2012-01-15T15:41:14Z" uid="147510" user="woodpeck_fixbot" changeset="10398186">
    <nd ref="53946459"/>
    <nd ref="166213282"/>
    <nd ref="166213283"/>
    <nd ref="166213284"/>
    <nd ref="166213285"/>
    <nd ref="166213286"/>
    <nd ref="166213287"/>
    <nd ref="166213288"/>
    <nd ref="166213290"/>
    <nd ref="166213291"/>
    <nd ref="166213292"/>
    <nd ref="166213293"/>
    <nd ref="254531116"/>
    <nd ref="166213294"/>
    <nd ref="166213295"/>
    <nd ref="166213296"/>
    <nd ref="166185712"/>
    <tag k="highway" v="residential"/>
    <tag k="name" v="Anson Street"/>
  </way>
  <way id="16286603" version="4" timestamp="2009-08-11T11:04:12Z" uid="4467" user="Rosscoe" changeset="2107049">
    <nd ref="21477686"/>
    <nd ref="21477687"/>
    <tag k="bridge" v="yes"/>
    <tag k="highway" v="trunk"/>
    <tag k="is_in" v="Brisbane, QLD, Queensland, Australia"/>
    <tag k="layer" v="1"/>
    <tag k="name" v="Ipswich Road"/>
    <tag k="oneway" v="yes"/>
  </way>
  <way id="16286603" version="5" timestamp="2010-02-15T06:58:14Z" uid="74617" user="JohnSmith" changeset="3880463">
    <nd ref="21477686"/>
    <nd ref="21477687"/>
    <tag k="bridge" v="yes"/>
    <tag k="highway" v="trunk"/>
    <tag k="layer" v="1"/>
    <tag k="name" v="Ipswich Road"/>
    <tag k="oneway" v="yes"/>
  </way>
  <way id="16286603" version="6" timestamp="2010-03-21T14:59:47Z" uid="74617" user="JohnSmith" changeset="4191968">
    <nd ref="21477686"/>
    <nd ref="21477687"/>
    <tag k="bridge" v="yes"/>
    <tag k="highway" v="trunk"/>
    <tag k="layer" v="1"/>
    <tag k="oneway" v="yes"/>
  </way>
  <way id="16286608" version="3" timestamp="2009-08-11T11:04:12Z" uid="4467" user="Rosscoe" changeset="2107049">
    <nd ref="21479042"/>
    <nd ref="21479043"/>
    <nd ref="21479044"/>
    <nd ref="21479045"/>
    <tag k="highway" v="trunk"/>
    <tag k="is_in" v="Brisbane, QLD, Queensland, Australia"/>
    <tag k="name" v="Ipswich Road"/>
    <tag k="oneway" v="yes"/>
    <tag k="ref" v="A7"/>
  </way>
  <way id="16286608" version="4" timestamp="2010-02-15T06:58:13Z" uid="74617" user="JohnSmith" changeset="3880463">
    <nd ref="21479042"/>
    <nd ref="21479043"/>
    <nd ref="21479044"/>
    <nd ref="21479045"/>
    <tag k="highway" v="trunk"/>
    <tag k="name" v="Ipswich Road"/>
    <tag k="oneway" v="yes"/>
    <tag k="ref" v="A7"/>
  </way>
  <way id="16286608" version="5" timestamp="2010-03-21T14:59:47Z" uid="74617" user="JohnSmith" changeset="4191968">
    <nd ref="21479042"/>
    <nd ref="21479043"/>
    <nd ref="21479044"/>
    <nd ref="21479045"/>
    <tag k="highway" v="trunk"/>
    <tag k="oneway" v="yes"/>
  </way>
  <way id="16286608" version="6" timestamp="2012-02-03T05:45:38Z" uid="103574" user="Here is the repulsant snozzcumber!" changeset="10573481">
    <nd ref="21479042"/>
    <nd ref="21479043"/>
    <nd ref="21479044"/>
    <nd ref="1616390249"/>
    <tag k="highway" v="trunk"/>
    <tag k="oneway" v="yes"/>
  </way>
  <way id="16286708" version="4" timestamp="2009-08-11T11:04:11Z" uid="4467" user="Rosscoe" changeset="2107049">
    <nd ref="166208413"/>
    <nd ref="166220120"/>
    <tag k="bridge" v="yes"/>
    <tag k="highway" v="secondary"/>
    <tag k="is_in" v="Brisbane, QLD, Queensland, Australia"/>
    <tag k="layer" v="1"/>
    <tag k="name" v="Muriel Avenue"/>
    <tag k="oneway" v="yes"/>
  </way>
  <way id="16286708" version="5" timestamp="2010-01-25T10:23:05Z" uid="14505" user="David Dean" changeset="3709443">
    <nd ref="166208413"/>
    <nd ref="166220120"/>
    <tag k="bridge" v="yes"/>
    <tag k="highway" v="primary"/>
    <tag k="is_in" v="Brisbane, QLD, Queensland, Australia"/>
    <tag k="layer" v="1"/>
    <tag k="name" v="Muriel Avenue"/>
    <tag k="oneway" v="yes"/>
    <tag k="ref" v="S20"/>
  </way>
  <way id="16286708" version="6" timestamp="2010-02-15T06:58:13Z" uid="74617" user="JohnSmith" changeset="3880463">
    <nd ref="166208413"/>
    <nd ref="166220120"/>
    <tag k="bridge" v="yes"/>
    <tag k="highway" v="primary"/>
    <tag k="layer" v="1"/>
    <tag k="name" v="Muriel Avenue"/>
    <tag k="oneway" v="yes"/>
    <tag k="ref" v="S20"/>
  </way>
  <way id="16286708" version="7" timestamp="2010-04-03T05:27:44Z" uid="74617" user="JohnSmith" changeset="4309757">
    <nd ref="166208413"/>
    <nd ref="166220120"/>
    <tag k="bridge" v="yes"/>
    <tag k="highway" v="primary"/>
    <tag k="layer" v="1"/>
    <tag k="oneway" v="yes"/>
  </way>
  <way id="16286708" version="8" timestamp="2012-02-03T01:36:31Z" uid="103574" user="Here is the repulsant snozzcumber!" changeset="10572809">
    <nd ref="166208413"/>
    <nd ref="1616218665"/>
    <tag k="bridge" v="yes"/>
    <tag k="highway" v="primary"/>
    <tag k="layer" v="1"/>
    <tag k="oneway" v="yes"/>
  </way>
  <way id="16286751" version="4" timestamp="2010-04-03T05:27:44Z" uid="74617" user="JohnSmith" changeset="4309757">
    <nd ref="166220120"/>
    <nd ref="166221605"/>
    <nd ref="166221607"/>
    <nd ref="166221608"/>
    <nd ref="166218036"/>
    <tag k="highway" v="primary"/>
    <tag k="name" v="Muriel Avenue"/>
    <tag k="oneway" v="yes"/>
  </way>
  <way id="16286751" version="5" timestamp="2012-02-03T01:36:32Z" uid="103574" user="Here is the repulsant snozzcumber!" changeset="10572809"/>
  <way id="16286762" version="5" timestamp="2009-11-10T15:17:58Z" uid="185592" user="TTIOT" changeset="3082785"/>
  <way id="16286855" version="8" timestamp="2009-08-11T12:38:07Z" uid="4467" user="Rosscoe" changeset="2107997"/>
  <way id="16286895" version="3" timestamp="2009-08-11T12:38:00Z" uid="4467" user="Rosscoe" changeset="2107997">
    <nd ref="77728015"/>
    <nd ref="77728016"/>
    <nd ref="77728018"/>
    <nd ref="77721247"/>
    <nd ref="166209688"/>
    <nd ref="166208410"/>
    <tag k="highway" v="trunk_link"/>
    <tag k="name" v="Ipswich Road"/>
    <tag k="oneway" v="yes"/>
  </way>
  <way id="16286895" version="4" timestamp="2010-01-25T10:23:05Z" uid="14505" user="David Dean" changeset="3709443">
    <nd ref="77728015"/>
    <nd ref="77728016"/>
    <nd ref="77728018"/>
    <nd ref="77721247"/>
    <nd ref="166209688"/>
    <nd ref="166208410"/>
    <tag k="highway" v="trunk_link"/>
    <tag k="name" v="Ipswich Road"/>
    <tag k="oneway" v="yes"/>
    <tag k="ref" v="S20"/>
  </way>
  <way id="16286895" version="5" timestamp="2010-04-03T05:27:43Z" uid="74617" user="JohnSmith" changeset="4309757">
    <nd ref="77728015"/>
    <nd ref="77728016"/>
    <nd ref="77728018"/>
    <nd ref="77721247"/>
    <nd ref="166209688"/>
    <nd ref="166208410"/>
    <tag k="highway" v="trunk_link"/>
    <tag k="name" v="Ipswich Road"/>
    <tag k="oneway" v="yes"/>
  </way>
  <way id="16286936" version="4" timestamp="2010-02-15T06:58:11Z" uid="74617" user="JohnSmith" changeset="3880463">
    <nd ref="77728863"/>
    <nd ref="166227247"/>
    <nd ref="166227248"/>
    <nd ref="166227250"/>
    <nd ref="166227251"/>
    <nd ref="619743384"/>
    <nd ref="166227253"/>
    <nd ref="166227254"/>
    <nd ref="166227256"/>
    <nd ref="166227258"/>
    <nd ref="166227259"/>
    <nd ref="166227261"/>
    <nd ref="166227262"/>
    <nd ref="166227264"/>
    <tag k="highway" v="residential"/>
    <tag k="maxspeed" v="50"/>
    <tag k="name" v="Ipswich Road"/>
    <tag k="oneway" v="yes"/>
  </way>
  <way id="16286936" version="5" timestamp="2010-10-30T05:05:43Z" uid="22094" user="Chadzopkyo" changeset="6223958">
    <nd ref="77728863"/>
    <nd ref="969662890"/>
    <nd ref="166227247"/>
    <nd ref="166227248"/>
    <nd ref="166227250"/>
    <nd ref="166227251"/>
    <nd ref="619743384"/>
    <nd ref="166227253"/>
    <nd ref="166227254"/>
    <nd ref="166227256"/>
    <nd ref="166227258"/>
    <nd ref="166227259"/>
    <nd ref="166227261"/>
    <nd ref="166227262"/>
    <nd ref="166227264"/>
    <tag k="highway" v="residential"/>
    <tag k="maxspeed" v="50"/>
    <tag k="name" v="Ipswich Road"/>
    <tag k="oneway" v="yes"/>
  </way>
  <way id="16286936" version="6" timestamp="2012-01-15T15:41:17Z" uid="147510" user="woodpeck_fixbot" changeset="10398186">
    <nd ref="77728863"/>
    <nd ref="969662890"/>
    <nd ref="166227247"/>
    <nd ref="166227248"/>
    <nd ref="166227250"/>
    <nd ref="166227251"/>
    <nd ref="619743384"/>
    <nd ref="166227253"/>
    <nd ref="166227254"/>
    <nd ref="166227256"/>
    <nd ref="166227258"/>
    <nd ref="166227259"/>
    <nd ref="166227261"/>
    <nd ref="166227262"/>
    <nd ref="166227264"/>
    <tag k="highway" v="residential"/>
    <tag k="name" v="Ipswich Road"/>
    <tag k="oneway" v="yes"/>
  </way>
  <way id="16286985" version="5" timestamp="2010-02-15T06:58:14Z" uid="74617" user="JohnSmith" changeset="3880463">
    <nd ref="619743380"/>
    <nd ref="166228768"/>
    <nd ref="619743382"/>
    <nd ref="619743384"/>
    <tag k="highway" v="residential"/>
    <tag k="maxspeed" v="50"/>
    <tag k="name" v="Ipswich Road"/>
  </way>
  <way id="16286985" version="6" timestamp="2012-01-15T15:41:22Z" uid="147510" user="woodpeck_fixbot" changeset="10398186">
    <nd ref="619743380"/>
    <nd ref="166228768"/>
    <nd ref="619743382"/>
    <nd ref="619743384"/>
    <tag k="highway" v="residential"/>
    <tag k="name" v="Ipswich Road"/>
  </way>
  <way id="16286233" version="6" timestamp="2012-07-20T12:23:44Z" uid="722137" user="OSMF Redaction Account" changeset="12375752"/>
  <way id="16286415" version="6" timestamp="2012-07-20T12:23:44Z" uid="722137" user="OSMF Redaction Account" changeset="12375752"/>
  <way id="16286895" version="6" timestamp="2012-07-20T07:58:59Z" uid="722137" user="OSMF Redaction Account" changeset="12367142">
    <nd ref="77728015"/>
    <nd ref="77728016"/>
    <nd ref="77728018"/>
    <nd ref="77721247"/>
    <nd ref="166209688"/>
    <nd ref="166208410"/>
    <tag k="highway" v="secondary"/>
    <tag k="name" v="Ipswich Road"/>
    <tag k="oneway" v="yes"/>
  </way>
</osm>
