<?xml version='1.0' encoding='UTF-8'?>
<osm version="0.6" generator="libosmium/2.20.0">
  <way id="16318972" version="1" timestamp="2007-12-13T23:48:40Z" uid="6454" user="B10xxx" changeset="292133">
    <nd ref="167259110"/>
    <nd ref="165384727"/>
    <nd ref="165384690"/>
    <tag k="created_by" v="JOSM"/>
    <tag k="highway" v="footway"/>
  </way>
  <way id="16318972" version="2" timestamp="2008-02-17T10:34:01Z" uid="17602" user="B10xyz" changeset="141026">
    <nd ref="167259110"/>
    <nd ref="165384727"/>
    <tag k="created_by" v="Potlatch 0.7b"/>
    <tag k="highway" v="footway"/>
  </way>
  <way id="16318972" version="3" timestamp="2008-02-17T10:34:32Z" uid="17602" user="B10xyz" changeset="141026">
    <nd ref="167259110"/>
    <nd ref="165384727"/>
    <tag k="created_by" v="Potlatch 0.7b"/>
    <tag k="highway" v="footway"/>
    <tag k="name" v="CALLE DEL PISTOR"/>
  </way>
  <way id="16318972" version="4" timestamp="2008-06-21T10:06:31Z" uid="31450" user="sanna" changeset="239989">
    <nd ref="167259110"/>
    <nd ref="165384727"/>
    <tag k="highway" v="footway"/>
    <tag k="name" v="CALLE DEL PISTOR"/>
  </way>
  <way id="16318972" version="5" timestamp="2008-09-18T22:23:06Z" uid="17602" user="B10xyz" changeset="663065">
    <nd ref="167259110"/>
    <nd ref="298024066"/>
    <nd ref="298024067"/>
    <nd ref="165384727"/>
    <tag k="created_by" v="Potlatch 0.10b"/>
    <tag k="highway" v="footway"/>
    <tag k="name" v="CALLE DEL PISTOR"/>
  </way>
  <way id="16318972" version="6" timestamp="2008-09-18T22:23:29Z" uid="17602" user="B10xyz" changeset="663065">
    <nd ref="167259110"/>
    <nd ref="298024094"/>
    <nd ref="298024095"/>
    <nd ref="298024067"/>
    <nd ref="165384727"/>
    <tag k="created_by" v="Potlatch 0.10b"/>
    <tag k="highway" v="footway"/>
    <tag k="name" v="CALLE DEL PISTOR"/>
  </way>
  <way id="16318972" version="7" timestamp="2008-09-24T13:49:30Z" uid="4526" user="EdoM" changeset="690241">
    <nd ref="167259110"/>
    <nd ref="298024094"/>
    <nd ref="298024095"/>
    <nd ref="298024067"/>
    <nd ref="165384727"/>
    <nd ref="165384690"/>
    <nd ref="293398914"/>
    <tag k="created_by" v="Potlatch 0.10b"/>
    <tag k="highway" v="footway"/>
    <tag k="name" v="Calle de Pistor"/>
  </way>
  <way id="16318972" version="8" timestamp="2008-11-28T12:06:31Z" uid="17602" user="B10xyz" changeset="803657">
    <nd ref="167259110"/>
    <nd ref="298024094"/>
    <nd ref="298024095"/>
    <nd ref="298024067"/>
    <nd ref="315259521"/>
    <tag k="created_by" v="Potlatch 0.10b"/>
    <tag k="highway" v="footway"/>
    <tag k="name" v="Calle de Pistor"/>
  </way>
  <way id="16318972" version="9" timestamp="2008-11-28T14:02:15Z" uid="17602" user="B10xyz" changeset="803657">
    <nd ref="167259110"/>
    <nd ref="298024094"/>
    <nd ref="298024095"/>
    <nd ref="298024067"/>
    <nd ref="315259521"/>
    <tag k="created_by" v="Potlatch 0.10b"/>
    <tag k="highway" v="footway"/>
    <tag k="name" v="Calle de Pistor"/>
    <tag k="visible_name" v="CALLE DEL PISTOR"/>
  </way>
  <way id="16318972" version="10" timestamp="2009-11-17T18:25:16Z" uid="17602" user="B10xyz" changeset="3143268">
    <nd ref="167259110"/>
    <nd ref="298024094"/>
    <nd ref="298024095"/>
    <nd ref="298024067"/>
    <nd ref="315259521"/>
    <tag k="highway" v="footway"/>
    <tag k="name" v="Calle de Pistor"/>
    <tag k="visible_name" v="CALLE DEL PISTOR"/>
  </way>
  <way id="16318972" version="11" timestamp="2011-07-14T15:24:24Z" uid="486260" user="Luca81" changeset="8721678">
    <nd ref="167259110"/>
    <nd ref="298024094"/>
    <nd ref="298024095"/>
    <nd ref="298024067"/>
    <nd ref="315259521"/>
    <tag k="highway" v="pedestrian"/>
    <tag k="name" v="Calle de Pistor"/>
    <tag k="visible_name" v="CALLE DEL PISTOR"/>
  </way>
  <way id="16318973" version="1" timestamp="2007-12-13T23:48:41Z" uid="6454" user="B10xxx" changeset="292133">
    <nd ref="167259110"/>
    <nd ref="27232724"/>
    <nd ref="48383563"/>
    <tag k="created_by" v="Potlatch alpha"/>
    <tag k="highway" v="footway"/>
    <tag k="name" v="RAMO CA&apos; D&apos;ORO"/>
  </way>
  <way id="16318973" version="2" timestamp="2007-12-14T15:01:35Z" uid="6454" user="B10xxx" changeset="298758">
    <nd ref="167259110"/>
    <nd ref="27232724"/>
    <tag k="created_by" v="Potlatch alpha"/>
    <tag k="highway" v="footway"/>
    <tag k="name" v="RAMO CA&apos; D&apos;ORO"/>
  </way>
  <way id="16318973" version="3" timestamp="2007-12-22T23:15:36Z" uid="6454" user="B10xxx" changeset="403501">
    <nd ref="167259110"/>
    <nd ref="27232724"/>
    <tag k="created_by" v="Potlatch alpha"/>
    <tag k="highway" v="footway"/>
    <tag k="name" v="RAMO CA&apos; D&apos;ORO"/>
    <tag k="note" v="3914"/>
  </way>
  <way id="16318973" version="4" timestamp="2008-06-21T10:07:47Z" uid="31450" user="sanna" changeset="239989">
    <nd ref="167259110"/>
    <nd ref="27232724"/>
    <tag k="highway" v="footway"/>
    <tag k="name" v="RAMO CA&apos; D&apos;ORO"/>
    <tag k="note" v="3914"/>
  </way>
  <way id="16318973" version="5" timestamp="2008-09-24T13:49:28Z" uid="4526" user="EdoM" changeset="690241">
    <nd ref="167259110"/>
    <nd ref="27232724"/>
    <tag k="highway" v="footway"/>
    <tag k="name" v="Ramo Ca&apos; D&apos;Oro"/>
    <tag k="note" v="3914"/>
  </way>
  <way id="16318973" version="6" timestamp="2009-03-15T13:46:41Z" uid="17602" user="B10xyz" changeset="813981">
    <nd ref="167259110"/>
    <nd ref="27232724"/>
    <tag k="highway" v="footway"/>
    <tag k="name" v="Ramo Ca&apos; D&apos;Oro"/>
    <tag k="note" v="3914 Can"/>
    <tag k="visible_name" v="RAMO CA&apos; D&apos;ORO"/>
  </way>
  <way id="16318973" version="7" timestamp="2011-07-14T15:24:24Z" uid="486260" user="Luca81" changeset="8721678">
    <nd ref="167259110"/>
    <nd ref="27232724"/>
    <tag k="highway" v="pedestrian"/>
    <tag k="name" v="Ramo Ca&apos; D&apos;Oro"/>
    <tag k="note" v="3914 Can"/>
    <tag k="visible_name" v="RAMO CA&apos; D&apos;ORO"/>
  </way>
  <way id="16318972" version="12" timestamp="2012-05-05T14:49:36Z" uid="590900" user="Ciaurlec" changeset="11508677">
    <nd ref="167259110"/>
    <nd ref="298024094"/>
    <nd ref="298024095"/>
    <nd ref="315259521"/>
    <tag k="highway" v="pedestrian"/>
    <tag k="name" v="Calle de Pistor"/>
    <tag k="visible_name" v="CALLE DEL PISTOR"/>
  </way>
  <way id="16318972" version="13" timestamp="2012-05-12T11:24:18Z" uid="590900" user="Ciaurlec" changeset="11575628"/>
  <way id="16318973" version="8" timestamp="2012-05-12T11:24:18Z" uid="590900" user="Ciaurlec" changeset="11575628"/>
</osm>
