<?xml version='1.0' encoding='UTF-8'?>
<osm version="0.6" generator="libosmium/2.20.0">
  <way id="16354180" version="3" timestamp="2008-03-07T15:11:19Z" uid="9581" user="Lobelt" changeset="281118">
    <nd ref="60663096"/>
    <nd ref="31123604"/>
    <nd ref="31123605"/>
    <nd ref="31123606"/>
    <nd ref="31123607"/>
    <nd ref="31123608"/>
    <nd ref="31123609"/>
    <nd ref="31123610"/>
    <nd ref="31123611"/>
    <nd ref="31123612"/>
    <nd ref="31123613"/>
    <nd ref="31123614"/>
    <nd ref="31123615"/>
    <nd ref="31123616"/>
    <nd ref="31123617"/>
    <nd ref="31123618"/>
    <nd ref="31123619"/>
    <nd ref="31123620"/>
    <nd ref="251000097"/>
    <nd ref="31123621"/>
    <nd ref="31123622"/>
    <nd ref="31123623"/>
    <nd ref="31123625"/>
    <nd ref="31123627"/>
    <nd ref="31123629"/>
    <nd ref="31123631"/>
    <nd ref="31123633"/>
    <nd ref="31123635"/>
    <nd ref="31118695"/>
    <tag k="created_by" v="Potlatch 0.5d"/>
    <tag k="highway" v="secondary"/>
    <tag k="name" v="Dissener Straße"/>
    <tag k="ref" v="L511"/>
  </way>
  <way id="16354180" version="4" timestamp="2008-04-18T15:28:38Z" uid="17889" user="rrissiek" changeset="181892">
    <nd ref="60663096"/>
    <nd ref="31123604"/>
    <nd ref="31123605"/>
    <nd ref="31123606"/>
    <nd ref="31123607"/>
    <nd ref="31123608"/>
    <nd ref="31123609"/>
    <nd ref="31123610"/>
    <nd ref="31123611"/>
    <nd ref="31123612"/>
    <nd ref="31123613"/>
    <nd ref="31123614"/>
    <tag k="created_by" v="Potlatch 0.5d"/>
    <tag k="highway" v="secondary"/>
    <tag k="name" v="Dissener Straße"/>
    <tag k="ref" v="L511"/>
  </way>
  <way id="16354180" version="5" timestamp="2008-08-26T10:57:25Z" uid="43566" user="anbr" changeset="410228">
    <nd ref="60663096"/>
    <nd ref="31123604"/>
    <nd ref="31123605"/>
    <nd ref="31123606"/>
    <nd ref="31123607"/>
    <nd ref="31123608"/>
    <nd ref="31123609"/>
    <nd ref="31123610"/>
    <nd ref="31123611"/>
    <nd ref="31123612"/>
    <nd ref="31123613"/>
    <nd ref="31123614"/>
    <tag k="created_by" v="Potlatch 0.5d"/>
    <tag k="highway" v="secondary"/>
    <tag k="name" v="Dissener Straße"/>
    <tag k="ref" v="L 511"/>
  </way>
  <way id="16354180" version="6" timestamp="2009-01-12T09:47:29Z" uid="9581" user="Lobelt" changeset="776302">
    <nd ref="60663096"/>
    <nd ref="31123604"/>
    <nd ref="31123605"/>
    <nd ref="31123606"/>
    <tag k="created_by" v="Potlatch 0.5d"/>
    <tag k="highway" v="secondary"/>
    <tag k="name" v="Dissener Straße"/>
    <tag k="ref" v="L 511"/>
  </way>
  <way id="16354180" version="7" timestamp="2009-09-04T06:42:29Z" uid="14029" user="MartinDornfelder" changeset="2366517">
    <nd ref="60663096"/>
    <nd ref="31123604"/>
    <nd ref="482833926"/>
    <nd ref="31123605"/>
    <nd ref="31123606"/>
    <tag k="highway" v="secondary"/>
    <tag k="name" v="Dissener Straße"/>
    <tag k="ref" v="L 511"/>
  </way>
  <way id="16354180" version="8" timestamp="2011-03-27T09:19:15Z" uid="137626" user="Dr Jan Itor" changeset="7683521">
    <nd ref="60663096"/>
    <nd ref="31123604"/>
    <nd ref="482833926"/>
    <nd ref="31123605"/>
    <tag k="highway" v="secondary"/>
    <tag k="name" v="Dissener Straße"/>
    <tag k="ref" v="L 511"/>
  </way>
  <way id="16354180" version="9" timestamp="2012-02-14T10:00:42Z" uid="15720" user="J budissin" changeset="10681054">
    <nd ref="60663096"/>
    <nd ref="31123604"/>
    <nd ref="482833926"/>
    <nd ref="31123605"/>
    <tag k="highway" v="secondary"/>
    <tag k="name" v="Dissener Straße"/>
    <tag k="name:hsb" v="Dešańska droga"/>
    <tag k="ref" v="L 511"/>
  </way>
  <way id="16354180" version="10" timestamp="2012-02-20T22:17:58Z" uid="28234" user="derandi" changeset="10745696"/>
  <way id="16354203" version="1" timestamp="2007-12-14T09:19:12Z" uid="11308" user="samc" changeset="302741">
    <nd ref="165999474"/>
    <nd ref="165998832"/>
    <nd ref="168180499"/>
    <nd ref="168180526"/>
    <nd ref="165998788"/>
    <nd ref="97056541"/>
    <tag k="created_by" v="JOSM"/>
    <tag k="highway" v="residential"/>
  </way>
  <way id="16354203" version="2" timestamp="2008-03-01T03:11:33Z" uid="11354" user="Max Bott" changeset="244791">
    <nd ref="165999474"/>
    <nd ref="165998832"/>
    <nd ref="168180499"/>
    <nd ref="168180526"/>
    <nd ref="165998788"/>
    <nd ref="97056541"/>
    <tag k="created_by" v="JOSM"/>
    <tag k="highway" v="residential"/>
    <tag k="name" v="Winter Street"/>
    <tag k="source" v="image"/>
  </way>
  <way id="16354203" version="3" timestamp="2010-07-07T08:37:23Z" uid="74617" user="JohnSmith" changeset="5156250">
    <nd ref="165999474"/>
    <nd ref="165998832"/>
    <nd ref="168180499"/>
    <nd ref="168180526"/>
    <nd ref="165998788"/>
    <nd ref="97056541"/>
    <tag k="highway" v="residential"/>
    <tag k="maxspeed" v="50"/>
    <tag k="maxspeed:source" v="default residential speed limit in Australia"/>
    <tag k="name" v="Winter Street"/>
    <tag k="source" v="image"/>
  </way>
  <way id="16354203" version="4" timestamp="2012-01-04T10:39:58Z" uid="12434" user="nm7s9" changeset="10289485"/>
  <way id="16354205" version="1" timestamp="2007-12-14T09:19:13Z" uid="11308" user="samc" changeset="302741">
    <nd ref="168180548"/>
    <nd ref="168180569"/>
    <nd ref="168180597"/>
    <nd ref="168180621"/>
    <nd ref="97056542"/>
    <tag k="created_by" v="JOSM"/>
    <tag k="highway" v="residential"/>
  </way>
  <way id="16354205" version="2" timestamp="2008-03-01T03:11:30Z" uid="11354" user="Max Bott" changeset="244791">
    <nd ref="168180548"/>
    <nd ref="168180569"/>
    <nd ref="168180597"/>
    <nd ref="168180621"/>
    <nd ref="97056542"/>
    <tag k="created_by" v="JOSM"/>
    <tag k="highway" v="residential"/>
    <tag k="name" v="Fulford Place"/>
    <tag k="source" v="image"/>
  </way>
  <way id="16354205" version="3" timestamp="2010-07-07T08:32:58Z" uid="74617" user="JohnSmith" changeset="5156250">
    <nd ref="168180548"/>
    <nd ref="168180569"/>
    <nd ref="168180597"/>
    <nd ref="168180621"/>
    <nd ref="97056542"/>
    <tag k="highway" v="residential"/>
    <tag k="maxspeed" v="50"/>
    <tag k="maxspeed:source" v="default residential speed limit in Australia"/>
    <tag k="name" v="Fulford Place"/>
    <tag k="source" v="image"/>
  </way>
  <way id="16354205" version="4" timestamp="2012-01-04T10:39:57Z" uid="12434" user="nm7s9" changeset="10289485"/>
  <way id="16354405" version="2" timestamp="2008-07-07T23:47:06Z" uid="6975" user="ulfl" changeset="429882">
    <nd ref="168174007"/>
    <nd ref="168174008"/>
    <tag k="name" v="Sämsjön"/>
    <tag k="natural" v="water"/>
    <tag k="source" v="yahoo_imaginary"/>
  </way>
  <way id="16354405" version="3" timestamp="2009-02-12T23:28:12Z" uid="45027" user="PA94" changeset="387198"/>
  <way id="16354496" version="6" timestamp="2010-08-18T07:57:49Z" uid="4467" user="Rosscoe" changeset="5524169">
    <nd ref="864117790"/>
    <nd ref="258482479"/>
    <nd ref="258482476"/>
    <nd ref="258482473"/>
    <nd ref="258485577"/>
    <nd ref="168186808"/>
    <nd ref="258485582"/>
    <nd ref="168186810"/>
    <tag k="highway" v="residential"/>
    <tag k="name" v="Showalter Drive"/>
    <tag k="tiger:cfcc" v="A41"/>
    <tag k="tiger:county" v="Scott, KY"/>
    <tag k="tiger:separated" v="no"/>
    <tag k="tiger:source" v="tiger_import_dch_v0.6_20070813"/>
    <tag k="tiger:tlid" v="41239034"/>
    <tag k="tiger:upload_uuid" v="bulk_upload.pl-92658bee-73c1-4acc-a5d1-7790dd96620a"/>
  </way>
  <way id="16354500" version="1" timestamp="2007-12-14T09:23:03Z" uid="11308" user="samc" changeset="302741">
    <nd ref="168186664"/>
    <nd ref="168186678"/>
    <nd ref="168186699"/>
    <nd ref="168186723"/>
    <nd ref="168186745"/>
    <nd ref="168186767"/>
    <nd ref="168186791"/>
    <nd ref="97054803"/>
    <tag k="created_by" v="JOSM"/>
    <tag k="highway" v="residential"/>
  </way>
  <way id="16354500" version="2" timestamp="2008-03-01T02:50:33Z" uid="11354" user="Max Bott" changeset="244791">
    <nd ref="168186664"/>
    <nd ref="168186678"/>
    <nd ref="168186699"/>
    <nd ref="168186723"/>
    <nd ref="168186745"/>
    <nd ref="168186767"/>
    <nd ref="168186791"/>
    <nd ref="97054803"/>
    <tag k="created_by" v="JOSM"/>
    <tag k="highway" v="residential"/>
    <tag k="name" v="Newland Street"/>
    <tag k="source" v="image"/>
  </way>
  <way id="16354500" version="3" timestamp="2010-07-07T08:32:11Z" uid="74617" user="JohnSmith" changeset="5156250">
    <nd ref="168186664"/>
    <nd ref="168186678"/>
    <nd ref="168186699"/>
    <nd ref="168186723"/>
    <nd ref="168186745"/>
    <nd ref="168186767"/>
    <nd ref="168186791"/>
    <nd ref="97054803"/>
    <tag k="highway" v="residential"/>
    <tag k="maxspeed" v="50"/>
    <tag k="maxspeed:source" v="default residential speed limit in Australia"/>
    <tag k="name" v="Newland Street"/>
    <tag k="source" v="image"/>
  </way>
  <way id="16354500" version="4" timestamp="2012-01-04T11:57:58Z" uid="12434" user="nm7s9" changeset="10290039"/>
  <way id="16354502" version="1" timestamp="2007-12-14T09:23:04Z" uid="11308" user="samc" changeset="302741">
    <nd ref="168186678"/>
    <nd ref="97054798"/>
    <tag k="created_by" v="JOSM"/>
    <tag k="highway" v="residential"/>
  </way>
  <way id="16354502" version="2" timestamp="2008-03-01T02:50:39Z" uid="11354" user="Max Bott" changeset="244791">
    <nd ref="168186678"/>
    <nd ref="97054798"/>
    <tag k="created_by" v="JOSM"/>
    <tag k="highway" v="residential"/>
    <tag k="name" v="Newland Street"/>
    <tag k="source" v="image"/>
  </way>
  <way id="16354502" version="3" timestamp="2010-07-07T08:33:36Z" uid="74617" user="JohnSmith" changeset="5156250">
    <nd ref="168186678"/>
    <nd ref="97054798"/>
    <tag k="highway" v="residential"/>
    <tag k="maxspeed" v="50"/>
    <tag k="maxspeed:source" v="default residential speed limit in Australia"/>
    <tag k="name" v="Newland Street"/>
    <tag k="source" v="image"/>
  </way>
  <way id="16354502" version="4" timestamp="2012-01-04T11:57:58Z" uid="12434" user="nm7s9" changeset="10290039"/>
  <way id="16354504" version="1" timestamp="2007-12-14T09:23:05Z" uid="11308" user="samc" changeset="302741">
    <nd ref="168186812"/>
    <nd ref="168186846"/>
    <nd ref="97055425"/>
    <tag k="created_by" v="JOSM"/>
    <tag k="highway" v="residential"/>
  </way>
  <way id="16354504" version="2" timestamp="2008-03-01T03:17:48Z" uid="11354" user="Max Bott" changeset="244791">
    <nd ref="168186812"/>
    <nd ref="168186846"/>
    <nd ref="97055425"/>
    <tag k="created_by" v="JOSM"/>
    <tag k="highway" v="residential"/>
    <tag k="name" v="Goessling Place"/>
    <tag k="source" v="image"/>
  </way>
  <way id="16354504" version="3" timestamp="2010-07-07T08:38:39Z" uid="74617" user="JohnSmith" changeset="5156250">
    <nd ref="168186812"/>
    <nd ref="168186846"/>
    <nd ref="97055425"/>
    <tag k="highway" v="residential"/>
    <tag k="maxspeed" v="50"/>
    <tag k="maxspeed:source" v="default residential speed limit in Australia"/>
    <tag k="name" v="Goessling Place"/>
    <tag k="source" v="image"/>
  </way>
  <way id="16354504" version="4" timestamp="2012-01-04T11:57:58Z" uid="12434" user="nm7s9" changeset="10290039"/>
  <way id="16354506" version="1" timestamp="2007-12-14T09:23:06Z" uid="11308" user="samc" changeset="302741">
    <nd ref="168186925"/>
    <nd ref="168186846"/>
    <tag k="created_by" v="JOSM"/>
    <tag k="highway" v="residential"/>
  </way>
  <way id="16354506" version="2" timestamp="2008-03-01T03:17:45Z" uid="11354" user="Max Bott" changeset="244791">
    <nd ref="168186925"/>
    <nd ref="168186846"/>
    <tag k="created_by" v="JOSM"/>
    <tag k="highway" v="residential"/>
    <tag k="name" v="Goessling Place"/>
    <tag k="source" v="image"/>
  </way>
  <way id="16354506" version="3" timestamp="2010-07-07T08:39:35Z" uid="74617" user="JohnSmith" changeset="5156250">
    <nd ref="168186925"/>
    <nd ref="168186846"/>
    <tag k="highway" v="residential"/>
    <tag k="maxspeed" v="50"/>
    <tag k="maxspeed:source" v="default residential speed limit in Australia"/>
    <tag k="name" v="Goessling Place"/>
    <tag k="source" v="image"/>
  </way>
  <way id="16354506" version="4" timestamp="2012-01-04T11:57:57Z" uid="12434" user="nm7s9" changeset="10290039"/>
  <way id="16354508" version="3" timestamp="2008-07-07T23:47:03Z" uid="6975" user="ulfl" changeset="429882">
    <nd ref="168164547"/>
    <nd ref="168164548"/>
    <nd ref="168164549"/>
    <nd ref="168164550"/>
    <nd ref="168164551"/>
    <nd ref="168164552"/>
    <nd ref="168164553"/>
    <nd ref="168164554"/>
    <nd ref="168164555"/>
    <nd ref="168164556"/>
    <nd ref="168164557"/>
    <nd ref="168164558"/>
    <nd ref="168164559"/>
    <nd ref="168188737"/>
    <nd ref="168164562"/>
    <nd ref="168187948"/>
    <nd ref="168188740"/>
    <nd ref="168164547"/>
    <tag k="name" v="Stensvattnet"/>
    <tag k="natural" v="water"/>
    <tag k="source" v="yahoo_imaginary"/>
  </way>
  <way id="16354663" version="9" timestamp="2008-07-07T23:47:06Z" uid="6975" user="ulfl" changeset="429882">
    <nd ref="168190008"/>
    <nd ref="168190009"/>
    <nd ref="168190011"/>
    <nd ref="168190012"/>
    <nd ref="168190013"/>
    <nd ref="168190015"/>
    <nd ref="168190016"/>
    <nd ref="168190017"/>
    <nd ref="168190019"/>
    <nd ref="168190020"/>
    <nd ref="168190022"/>
    <nd ref="168189988"/>
    <nd ref="168189989"/>
    <nd ref="168189991"/>
    <nd ref="168189992"/>
    <nd ref="168189993"/>
    <nd ref="168189994"/>
    <nd ref="168189996"/>
    <nd ref="168189997"/>
    <nd ref="168189999"/>
    <nd ref="168190000"/>
    <nd ref="168190001"/>
    <nd ref="168190003"/>
    <nd ref="168190004"/>
    <nd ref="168190005"/>
    <nd ref="168190006"/>
    <nd ref="168190008"/>
    <tag k="natural" v="water"/>
    <tag k="source" v="yahoo_imaginary"/>
  </way>
  <way id="16354663" version="10" timestamp="2011-07-23T13:28:31Z" uid="53882" user="ra_sch" changeset="8806310">
    <nd ref="168190008"/>
    <nd ref="168190009"/>
    <nd ref="168190011"/>
    <nd ref="168190012"/>
    <nd ref="168190013"/>
    <nd ref="168190015"/>
    <nd ref="168190016"/>
    <nd ref="168190017"/>
    <nd ref="168190019"/>
    <nd ref="168190020"/>
    <nd ref="168190022"/>
    <nd ref="168189988"/>
    <nd ref="168189989"/>
    <nd ref="168189991"/>
    <nd ref="168189992"/>
    <nd ref="168189993"/>
    <nd ref="168189994"/>
    <nd ref="168189996"/>
    <nd ref="168189997"/>
    <nd ref="168189999"/>
    <nd ref="168190000"/>
    <nd ref="168190001"/>
    <nd ref="168190003"/>
    <nd ref="168190004"/>
    <nd ref="168190005"/>
    <nd ref="168190006"/>
    <nd ref="168190008"/>
    <tag k="natural" v="land"/>
    <tag k="source" v="yahoo_imaginary"/>
  </way>
  <way id="16354765" version="7" timestamp="2009-10-12T22:05:18Z" uid="36809" user="pfoten_weg_!_" changeset="2831291">
    <nd ref="168191738"/>
    <nd ref="168191739"/>
    <nd ref="168191741"/>
    <nd ref="168191742"/>
    <nd ref="168191743"/>
    <nd ref="168191744"/>
    <nd ref="168191738"/>
    <tag k="amenity" v="townhall"/>
    <tag k="building" v="yes"/>
    <tag k="name" v="Gemeinde Gauting"/>
  </way>
  <way id="16354765" version="8" timestamp="2011-08-04T11:15:33Z" uid="482628" user="gumul" changeset="8918678">
    <nd ref="168191738"/>
    <nd ref="168191739"/>
    <nd ref="168191741"/>
    <nd ref="168191742"/>
    <nd ref="168191743"/>
    <nd ref="168191744"/>
    <nd ref="168191738"/>
    <tag k="addr:housenumber" v="7"/>
    <tag k="addr:street" v="Bahnhofstraße"/>
    <tag k="amenity" v="townhall"/>
    <tag k="building" v="yes"/>
    <tag k="name" v="Gemeinde Gauting"/>
  </way>
  <way id="16354663" version="11" timestamp="2012-08-24T17:16:10Z" uid="652913" user="Haaninjo" changeset="12847106">
    <nd ref="168190008"/>
    <nd ref="168190009"/>
    <nd ref="168190011"/>
    <nd ref="168190012"/>
    <nd ref="168190013"/>
    <nd ref="168190015"/>
    <nd ref="168190016"/>
    <nd ref="168190017"/>
    <nd ref="168190019"/>
    <nd ref="168190020"/>
    <nd ref="168190022"/>
    <nd ref="168189988"/>
    <nd ref="168189989"/>
    <nd ref="168189991"/>
    <nd ref="168189992"/>
    <nd ref="168189993"/>
    <nd ref="168189994"/>
    <nd ref="168189996"/>
    <nd ref="168189997"/>
    <nd ref="168189999"/>
    <nd ref="168190000"/>
    <nd ref="168190001"/>
    <nd ref="168190003"/>
    <nd ref="168190004"/>
    <nd ref="168190005"/>
    <nd ref="168190006"/>
    <nd ref="168190008"/>
    <tag k="source" v="yahoo_imaginary"/>
  </way>
</osm>
