<?xml version='1.0' encoding='UTF-8'?>
<osm version="0.6" generator="libosmium/2.20.0">
  <way id="16350419" version="3" timestamp="2009-12-10T05:05:54Z" uid="23543" user="jkjk" changeset="3339158">
    <nd ref="168052842"/>
    <nd ref="168052843"/>
    <nd ref="168052845"/>
    <nd ref="168052846"/>
    <nd ref="168052848"/>
    <nd ref="584635127"/>
    <nd ref="168052850"/>
    <nd ref="168052851"/>
    <nd ref="168052853"/>
    <nd ref="168052854"/>
    <nd ref="168049931"/>
    <tag k="highway" v="primary"/>
    <tag k="name" v="Manisa-Balıkesir yolu"/>
    <tag k="ref" v="D565"/>
  </way>
  <way id="16350419" version="4" timestamp="2010-05-26T18:59:59Z" uid="17497" user="katpatuka" changeset="4815784">
    <nd ref="168052842"/>
    <nd ref="168052843"/>
    <nd ref="168052845"/>
    <nd ref="168052846"/>
    <nd ref="168052848"/>
    <nd ref="584635127"/>
    <nd ref="168052850"/>
    <nd ref="168052851"/>
    <nd ref="168052853"/>
    <nd ref="168052854"/>
    <nd ref="168049931"/>
    <tag k="highway" v="trunk"/>
    <tag k="name" v="Manisa-Balıkesir yolu"/>
    <tag k="oneway" v="yes"/>
    <tag k="ref" v="D565"/>
  </way>
  <way id="16350419" version="5" timestamp="2010-12-16T11:20:48Z" uid="17497" user="katpatuka" changeset="6675640">
    <nd ref="168052842"/>
    <nd ref="1041009283"/>
    <tag k="highway" v="trunk"/>
    <tag k="name" v="Manisa-Balıkesir yolu"/>
    <tag k="oneway" v="yes"/>
    <tag k="ref" v="D565"/>
  </way>
  <way id="16350862" version="7" timestamp="2010-11-19T17:06:06Z" uid="9581" user="Lobelt" changeset="6408536">
    <nd ref="21687044"/>
    <nd ref="650746761"/>
    <nd ref="21687048"/>
    <tag k="highway" v="secondary"/>
    <tag k="name" v="Seckenheimer Hauptstraße"/>
    <tag k="ref" v="L 637"/>
  </way>
  <way id="16350863" version="13" timestamp="2010-11-19T17:06:31Z" uid="9581" user="Lobelt" changeset="6408536">
    <nd ref="168084328"/>
    <nd ref="338872657"/>
    <nd ref="21687035"/>
    <nd ref="686969962"/>
    <nd ref="21687037"/>
    <nd ref="21687040"/>
    <nd ref="664681231"/>
    <nd ref="333116216"/>
    <nd ref="21687041"/>
    <nd ref="302997495"/>
    <tag k="cycleway" v="lane"/>
    <tag k="highway" v="secondary"/>
    <tag k="name" v="Seckenheimer Hauptstraße"/>
    <tag k="oneway" v="yes"/>
    <tag k="ref" v="L 637"/>
  </way>
  <way id="16350863" version="14" timestamp="2011-06-14T18:21:36Z" uid="6326" user="mike_hd" changeset="8440176">
    <nd ref="168084328"/>
    <nd ref="338872657"/>
    <nd ref="21687035"/>
    <nd ref="686969962"/>
    <nd ref="21687037"/>
    <nd ref="21687040"/>
    <nd ref="664681231"/>
    <nd ref="1325422705"/>
    <nd ref="333116216"/>
    <nd ref="21687041"/>
    <nd ref="302997495"/>
    <tag k="cycleway" v="lane"/>
    <tag k="highway" v="secondary"/>
    <tag k="name" v="Seckenheimer Hauptstraße"/>
    <tag k="oneway" v="yes"/>
    <tag k="ref" v="L 637"/>
  </way>
  <way id="16350864" version="14" timestamp="2011-02-05T21:15:25Z" uid="9581" user="Lobelt" changeset="7197353">
    <nd ref="96655267"/>
    <nd ref="338871681"/>
    <nd ref="96655268"/>
    <nd ref="650089171"/>
    <nd ref="650089176"/>
    <nd ref="338872832"/>
    <nd ref="1138002790"/>
    <nd ref="344603359"/>
    <tag k="highway" v="tertiary"/>
    <tag k="maxspeed" v="50"/>
    <tag k="name" v="Schwabenstraße"/>
    <tag k="ref" v="K 9756"/>
  </way>
  <way id="16350864" version="15" timestamp="2011-05-28T16:13:10Z" uid="6326" user="mike_hd" changeset="8273296">
    <nd ref="96655267"/>
    <nd ref="96655268"/>
    <nd ref="650089171"/>
    <nd ref="650089176"/>
    <nd ref="338872832"/>
    <nd ref="1138002790"/>
    <nd ref="344603359"/>
    <tag k="highway" v="tertiary"/>
    <tag k="maxspeed" v="50"/>
    <tag k="name" v="Schwabenstraße"/>
    <tag k="ref" v="K 9756"/>
  </way>
  <way id="16350863" version="15" timestamp="2012-04-25T15:06:37Z" uid="328555" user="peb12345" changeset="11415821">
    <nd ref="168084328"/>
    <nd ref="338872657"/>
    <nd ref="21687035"/>
    <nd ref="686969962"/>
    <nd ref="21687037"/>
    <nd ref="21687040"/>
    <nd ref="664681231"/>
    <nd ref="1325422705"/>
    <nd ref="333116216"/>
    <nd ref="21687041"/>
    <nd ref="302997495"/>
    <nd ref="21687043"/>
    <nd ref="664672708"/>
    <nd ref="21687044"/>
    <tag k="highway" v="secondary"/>
    <tag k="name" v="Seckenheimer Hauptstraße"/>
    <tag k="oneway" v="yes"/>
    <tag k="ref" v="L 637"/>
  </way>
  <way id="16350864" version="16" timestamp="2012-05-05T16:47:18Z" uid="328555" user="peb12345" changeset="11509888">
    <nd ref="96655267"/>
    <nd ref="96655268"/>
    <nd ref="650089171"/>
    <nd ref="650089176"/>
    <nd ref="338872832"/>
    <nd ref="344603359"/>
    <nd ref="96655270"/>
    <nd ref="1413226409"/>
    <nd ref="650090567"/>
    <nd ref="301563287"/>
    <nd ref="419978542"/>
    <tag k="highway" v="tertiary"/>
    <tag k="maxspeed" v="50"/>
    <tag k="name" v="Schwabenstraße"/>
    <tag k="ref" v="K 9756"/>
  </way>
  <way id="16350864" version="17" timestamp="2012-07-17T07:16:11Z" uid="722137" user="OSMF Redaction Account" changeset="12259265">
    <nd ref="96655267"/>
    <nd ref="96655268"/>
    <nd ref="650089171"/>
    <nd ref="650089176"/>
    <nd ref="338872832"/>
    <nd ref="344603359"/>
    <nd ref="96655270"/>
    <nd ref="1413226409"/>
    <nd ref="650090567"/>
    <nd ref="301563287"/>
    <nd ref="419978542"/>
    <tag k="highway" v="tertiary"/>
    <tag k="name" v="Schwabenstraße"/>
    <tag k="ref" v="K 9756"/>
  </way>
</osm>
