<?xml version='1.0' encoding='UTF-8'?>
<osm version="0.6" generator="libosmium/2.20.0">
  <way id="16357064" version="2" timestamp="2010-07-08T17:50:59Z" uid="74617" user="JohnSmith" changeset="5167338">
    <nd ref="168242625"/>
    <nd ref="168242645"/>
    <nd ref="168242664"/>
    <nd ref="168242682"/>
    <nd ref="168242709"/>
    <nd ref="168242735"/>
    <nd ref="168242759"/>
    <nd ref="168242782"/>
    <nd ref="60187442"/>
    <tag k="highway" v="residential"/>
    <tag k="maxspeed" v="50"/>
    <tag k="maxspeed:source" v="default residential speed limit in Australia"/>
    <tag k="name" v="Alamere Drive"/>
  </way>
  <way id="16357064" version="3" timestamp="2012-01-15T15:49:07Z" uid="147510" user="woodpeck_fixbot" changeset="10398186">
    <nd ref="168242625"/>
    <nd ref="168242645"/>
    <nd ref="168242664"/>
    <nd ref="168242682"/>
    <nd ref="168242709"/>
    <nd ref="168242735"/>
    <nd ref="168242759"/>
    <nd ref="168242782"/>
    <nd ref="60187442"/>
    <tag k="highway" v="residential"/>
    <tag k="name" v="Alamere Drive"/>
  </way>
  <way id="16357517" version="4" timestamp="2010-07-07T09:11:28Z" uid="74617" user="JohnSmith" changeset="5156250">
    <nd ref="168244029"/>
    <nd ref="168244965"/>
    <nd ref="168245836"/>
    <nd ref="168246333"/>
    <nd ref="168247396"/>
    <tag k="highway" v="residential"/>
    <tag k="maxspeed" v="50"/>
    <tag k="maxspeed:source" v="default residential speed limit in Australia"/>
    <tag k="name" v="Spensley Place"/>
  </way>
  <way id="16357517" version="5" timestamp="2012-01-15T15:49:08Z" uid="147510" user="woodpeck_fixbot" changeset="10398186">
    <nd ref="168244029"/>
    <nd ref="168244965"/>
    <nd ref="168245836"/>
    <nd ref="168246333"/>
    <nd ref="168247396"/>
    <tag k="highway" v="residential"/>
    <tag k="name" v="Spensley Place"/>
  </way>
  <way id="16357536" version="3" timestamp="2010-07-07T09:10:29Z" uid="74617" user="JohnSmith" changeset="5156250">
    <nd ref="168247877"/>
    <nd ref="168248386"/>
    <nd ref="168248891"/>
    <nd ref="168249365"/>
    <nd ref="168249917"/>
    <nd ref="152468164"/>
    <tag k="highway" v="residential"/>
    <tag k="maxspeed" v="50"/>
    <tag k="maxspeed:source" v="default residential speed limit in Australia"/>
    <tag k="name" v="Melville Place"/>
  </way>
  <way id="16357536" version="4" timestamp="2012-01-15T15:49:10Z" uid="147510" user="woodpeck_fixbot" changeset="10398186">
    <nd ref="168247877"/>
    <nd ref="168248386"/>
    <nd ref="168248891"/>
    <nd ref="168249365"/>
    <nd ref="168249917"/>
    <nd ref="152468164"/>
    <tag k="highway" v="residential"/>
    <tag k="name" v="Melville Place"/>
  </way>
  <way id="16357540" version="3" timestamp="2010-07-07T09:18:50Z" uid="74617" user="JohnSmith" changeset="5156250">
    <nd ref="168250429"/>
    <nd ref="168250949"/>
    <tag k="highway" v="residential"/>
    <tag k="maxspeed" v="50"/>
    <tag k="maxspeed:source" v="default residential speed limit in Australia"/>
    <tag k="name" v="Simmie Place"/>
  </way>
  <way id="16357540" version="4" timestamp="2012-01-15T15:49:11Z" uid="147510" user="woodpeck_fixbot" changeset="10398186">
    <nd ref="168250429"/>
    <nd ref="168250949"/>
    <tag k="highway" v="residential"/>
    <tag k="name" v="Simmie Place"/>
  </way>
  <way id="16357549" version="3" timestamp="2010-07-07T09:18:29Z" uid="74617" user="JohnSmith" changeset="5156250">
    <nd ref="168251540"/>
    <nd ref="53911807"/>
    <tag k="highway" v="residential"/>
    <tag k="maxspeed" v="50"/>
    <tag k="maxspeed:source" v="default residential speed limit in Australia"/>
    <tag k="name" v="Lock Place"/>
  </way>
  <way id="16357549" version="4" timestamp="2012-01-15T15:49:13Z" uid="147510" user="woodpeck_fixbot" changeset="10398186">
    <nd ref="168251540"/>
    <nd ref="53911807"/>
    <tag k="highway" v="residential"/>
    <tag k="name" v="Lock Place"/>
  </way>
</osm>
