<?xml version='1.0' encoding='UTF-8'?>
<osm version="0.6" generator="libosmium/2.20.0">
  <way id="16360283" version="3" timestamp="2008-07-07T18:47:44Z" uid="6975" user="ulfl" changeset="420350">
    <nd ref="168355722"/>
    <nd ref="168355723"/>
    <nd ref="168355724"/>
    <nd ref="168355725"/>
    <nd ref="168355726"/>
    <nd ref="168355722"/>
    <tag k="name" v="Stonebridge Road"/>
    <tag k="owner" v="Ebbsfleet United F. C."/>
    <tag k="sport" v="football"/>
  </way>
  <way id="16360283" version="4" timestamp="2010-02-01T19:10:05Z" uid="30525" user="The Maarssen Mapper" changeset="3770318">
    <nd ref="168355722"/>
    <nd ref="168355723"/>
    <nd ref="168355724"/>
    <nd ref="168355725"/>
    <nd ref="168355726"/>
    <nd ref="168355722"/>
    <tag k="leisure" v="stadium"/>
    <tag k="name" v="Stonebridge Road"/>
    <tag k="owner" v="Ebbsfleet United F. C."/>
    <tag k="sport" v="soccer"/>
  </way>
  <way id="16360283" version="5" timestamp="2010-02-01T19:20:42Z" uid="30525" user="The Maarssen Mapper" changeset="3770402">
    <nd ref="168355722"/>
    <nd ref="168355723"/>
    <nd ref="168355724"/>
    <nd ref="168355725"/>
    <nd ref="168355726"/>
    <nd ref="168355722"/>
    <tag k="leisure" v="stadium"/>
    <tag k="name" v="Stonebridge Road - Ebbsfleet United FC"/>
    <tag k="owner" v="Ebbsfleet United F. C."/>
    <tag k="sport" v="soccer"/>
  </way>
  <way id="16360283" version="6" timestamp="2011-01-23T16:23:39Z" uid="7275" user="netman55" changeset="7063340">
    <nd ref="168355722"/>
    <nd ref="168355723"/>
    <nd ref="168355724"/>
    <nd ref="168355725"/>
    <nd ref="168355726"/>
    <nd ref="168355722"/>
    <tag k="leisure" v="stadium"/>
    <tag k="name" v="Stonebridge Road - Ebbsfleet United FC"/>
    <tag k="old_name" v="Gravesend and Northfleet Football Club"/>
    <tag k="owner" v="Ebbsfleet United F. C."/>
    <tag k="sport" v="football"/>
  </way>
  <way id="16360283" version="7" timestamp="2011-01-23T16:24:47Z" uid="7275" user="netman55" changeset="7063340">
    <nd ref="168355722"/>
    <nd ref="168355723"/>
    <nd ref="168355724"/>
    <nd ref="168355725"/>
    <nd ref="168355726"/>
    <nd ref="168355722"/>
    <tag k="leisure" v="stadium"/>
    <tag k="name" v="Stonebridge Road - Ebbsfleet United FC"/>
    <tag k="old_name" v="Gravesend &amp; Northfleet Football Club"/>
    <tag k="owner" v="Ebbsfleet United F. C."/>
    <tag k="sport" v="football"/>
  </way>
</osm>
