<?xml version='1.0' encoding='UTF-8'?>
<osm version="0.6" generator="libosmium/2.20.0">
  <way id="16403415" version="6" timestamp="2009-07-01T03:20:58Z" uid="20587" user="balrog-kun" changeset="1697137">
    <nd ref="169300167"/>
    <nd ref="169301893"/>
    <nd ref="169300023"/>
    <nd ref="169300022"/>
    <nd ref="317729797"/>
    <nd ref="317729798"/>
    <nd ref="317729799"/>
    <nd ref="317729800"/>
    <nd ref="317729801"/>
    <nd ref="404561820"/>
    <nd ref="404561822"/>
    <nd ref="404561824"/>
    <nd ref="404561827"/>
    <nd ref="404561829"/>
    <nd ref="404561833"/>
    <tag k="created_by" v="Merkaartor 0.12"/>
    <tag k="highway" v="residential"/>
    <tag k="name" v="Świętego Wincentego"/>
  </way>
  <way id="16403415" version="7" timestamp="2009-07-03T20:28:24Z" uid="88909" user="miko101" changeset="1724625">
    <nd ref="169300167"/>
    <nd ref="169301893"/>
    <nd ref="169300023"/>
    <nd ref="433360945"/>
    <tag k="created_by" v="Merkaartor 0.12"/>
    <tag k="highway" v="residential"/>
    <tag k="name" v="Świętego Wincentego"/>
  </way>
  <way id="16403415" version="8" timestamp="2009-10-03T11:20:24Z" uid="19417" user="xjr" changeset="2722475">
    <nd ref="169300167"/>
    <nd ref="169301893"/>
    <nd ref="169300023"/>
    <nd ref="518694392"/>
    <nd ref="433360945"/>
    <tag k="highway" v="residential"/>
    <tag k="name" v="Świętego Wincentego"/>
  </way>
  <way id="16403415" version="9" timestamp="2010-09-25T20:28:33Z" uid="88909" user="miko101" changeset="5874310">
    <nd ref="169300167"/>
    <nd ref="169301893"/>
    <tag k="highway" v="residential"/>
    <tag k="name" v="Świętego Wincentego"/>
  </way>
  <way id="16403415" version="10" timestamp="2010-09-25T20:29:03Z" uid="88909" user="miko101" changeset="5874310">
    <nd ref="169300167"/>
    <nd ref="169301893"/>
    <tag k="access" v="no"/>
    <tag k="construction" v="residential"/>
    <tag k="highway" v="construction"/>
    <tag k="name" v="Świętego Wincentego"/>
  </way>
  <way id="16403415" version="11" timestamp="2010-10-11T19:28:20Z" uid="88909" user="miko101" changeset="6015132">
    <nd ref="169300167"/>
    <nd ref="945333830"/>
    <nd ref="169301893"/>
    <tag k="access" v="no"/>
    <tag k="construction" v="residential"/>
    <tag k="highway" v="construction"/>
    <tag k="name" v="Świętego Wincentego"/>
  </way>
  <way id="16403415" version="12" timestamp="2010-10-11T19:30:47Z" uid="88909" user="miko101" changeset="6015132">
    <nd ref="169300167"/>
    <nd ref="945335785"/>
    <nd ref="945333830"/>
    <nd ref="169301893"/>
    <tag k="access" v="no"/>
    <tag k="construction" v="residential"/>
    <tag k="highway" v="construction"/>
    <tag k="name" v="Świętego Wincentego"/>
  </way>
  <way id="16403415" version="13" timestamp="2010-10-11T19:31:54Z" uid="88909" user="miko101" changeset="6015132">
    <nd ref="169300167"/>
    <nd ref="945335785"/>
    <nd ref="945333830"/>
    <tag k="access" v="no"/>
    <tag k="construction" v="residential"/>
    <tag k="highway" v="construction"/>
    <tag k="name" v="Świętego Wincentego"/>
  </way>
  <way id="16403415" version="14" timestamp="2010-10-11T19:32:06Z" uid="88909" user="miko101" changeset="6015132">
    <nd ref="169300167"/>
    <nd ref="945335785"/>
    <nd ref="945333830"/>
    <tag k="highway" v="residential"/>
    <tag k="name" v="Świętego Wincentego"/>
  </way>
  <way id="16403415" version="15" timestamp="2010-10-26T16:07:03Z" uid="88909" user="miko101" changeset="6184098">
    <nd ref="169300167"/>
    <nd ref="945335785"/>
    <nd ref="945333830"/>
    <tag k="highway" v="residential"/>
    <tag k="name" v="Świętego Wincentego(?)"/>
  </way>
  <way id="16403820" version="9" timestamp="2010-03-16T22:00:31Z" uid="163746" user="anti_bot-nonsense" changeset="4147354">
    <nd ref="169304517"/>
    <nd ref="169304518"/>
    <nd ref="169304520"/>
    <nd ref="169304521"/>
    <nd ref="169304523"/>
    <nd ref="169304524"/>
    <nd ref="169306358"/>
    <nd ref="169304525"/>
    <nd ref="169304526"/>
    <nd ref="169304527"/>
    <nd ref="169304528"/>
    <nd ref="169304529"/>
    <nd ref="169304530"/>
    <nd ref="169304532"/>
    <nd ref="169304533"/>
    <nd ref="169304535"/>
    <tag k="layer" v="1"/>
    <tag k="name" v="1 - 7"/>
    <tag k="railway" v="tram"/>
  </way>
  <way id="16403820" version="10" timestamp="2010-08-25T14:58:15Z" uid="88909" user="miko101" changeset="5590509">
    <nd ref="169304517"/>
    <nd ref="878879852"/>
    <nd ref="169304518"/>
    <nd ref="169304520"/>
    <nd ref="169304521"/>
    <nd ref="169304523"/>
    <nd ref="169304524"/>
    <nd ref="169306358"/>
    <nd ref="169304525"/>
    <nd ref="169304526"/>
    <nd ref="169304527"/>
    <nd ref="169304528"/>
    <nd ref="169304529"/>
    <nd ref="169304530"/>
    <nd ref="169304532"/>
    <nd ref="169304533"/>
    <nd ref="169304535"/>
    <tag k="layer" v="1"/>
    <tag k="name" v="1 - 7"/>
    <tag k="railway" v="tram"/>
  </way>
  <way id="16403820" version="11" timestamp="2010-12-04T18:43:03Z" uid="19417" user="xjr" changeset="6541724"/>
  <way id="16403985" version="6" timestamp="2010-03-16T22:00:58Z" uid="163746" user="anti_bot-nonsense" changeset="4147354">
    <nd ref="169306358"/>
    <nd ref="169304538"/>
    <nd ref="169304536"/>
    <nd ref="169304535"/>
    <tag k="layer" v="1"/>
    <tag k="name" v="1 - 7"/>
    <tag k="railway" v="tram"/>
  </way>
  <way id="16403985" version="7" timestamp="2010-08-20T19:47:33Z" uid="88909" user="miko101" changeset="5546464">
    <nd ref="870941632"/>
    <nd ref="870941633"/>
    <nd ref="870941634"/>
    <nd ref="169304538"/>
    <nd ref="169304536"/>
    <nd ref="169304535"/>
    <tag k="layer" v="1"/>
    <tag k="name" v="1 - 7"/>
    <tag k="railway" v="tram"/>
  </way>
  <way id="16403985" version="8" timestamp="2010-12-04T18:42:39Z" uid="19417" user="xjr" changeset="6541724">
    <nd ref="870941632"/>
    <nd ref="870941633"/>
    <nd ref="870941634"/>
    <nd ref="169304538"/>
    <nd ref="169304536"/>
    <tag k="layer" v="1"/>
    <tag k="name" v="1 - 7"/>
    <tag k="railway" v="tram"/>
  </way>
  <way id="16403985" version="9" timestamp="2011-03-07T21:47:18Z" uid="88909" user="miko101" changeset="7489298">
    <nd ref="870941632"/>
    <nd ref="870941633"/>
    <nd ref="870941634"/>
    <nd ref="169304538"/>
    <nd ref="169304536"/>
    <tag k="name" v="1 - 7"/>
    <tag k="railway" v="tram"/>
  </way>
  <way id="16403415" version="16" timestamp="2012-05-01T22:08:34Z" uid="88909" user="miko101" changeset="11474917">
    <nd ref="169300167"/>
    <nd ref="945335785"/>
    <nd ref="945333830"/>
    <tag k="highway" v="residential"/>
    <tag k="lit" v="yes"/>
    <tag k="name" v="Świętego Wincentego(?)"/>
  </way>
  <way id="16403415" version="17" timestamp="2012-05-08T10:33:25Z" uid="88909" user="miko101" changeset="11537592">
    <nd ref="169300167"/>
    <nd ref="945335785"/>
    <nd ref="945333830"/>
    <tag k="highway" v="residential"/>
    <tag k="lit" v="yes"/>
    <tag k="name" v="Zawady"/>
  </way>
  <way id="16403415" version="18" timestamp="2012-06-03T19:52:04Z" uid="318486" user="tomaszko90" changeset="11790135">
    <nd ref="169300167"/>
    <nd ref="945335785"/>
    <nd ref="945333830"/>
    <tag k="highway" v="tertiary"/>
    <tag k="lit" v="yes"/>
    <tag k="name" v="Zawady"/>
  </way>
  <way id="16403415" version="19" timestamp="2012-08-30T13:14:44Z" uid="826720" user="baartek" changeset="12917449">
    <nd ref="169300167"/>
    <nd ref="945335785"/>
    <nd ref="403366744"/>
    <nd ref="1782044641"/>
    <tag k="highway" v="tertiary"/>
    <tag k="lit" v="yes"/>
    <tag k="name" v="Zawady"/>
    <tag k="oneway" v="no"/>
  </way>
  <way id="16403985" version="10" timestamp="2012-06-09T20:03:09Z" uid="88909" user="miko101" changeset="11848542">
    <nd ref="870941632"/>
    <nd ref="870941633"/>
    <nd ref="870941634"/>
    <nd ref="169304538"/>
    <nd ref="169304536"/>
    <tag k="name" v="1 - 7 - 11"/>
    <tag k="operator" v="MPK Poznań"/>
    <tag k="railway" v="tram"/>
  </way>
  <way id="16403985" version="11" timestamp="2012-06-09T22:32:24Z" uid="641600" user="piottr" changeset="11849713">
    <nd ref="870941632"/>
    <nd ref="870941633"/>
    <nd ref="1782044628"/>
    <nd ref="169304538"/>
    <nd ref="169304536"/>
    <tag k="name" v="1 - 7 - 11"/>
    <tag k="operator" v="MPK Poznań"/>
    <tag k="railway" v="tram"/>
  </way>
  <way id="16403985" version="12" timestamp="2012-09-03T13:27:34Z" uid="88909" user="miko101" changeset="12967497">
    <nd ref="870941632"/>
    <nd ref="870941633"/>
    <nd ref="1782044628"/>
    <nd ref="169304538"/>
    <nd ref="169304536"/>
    <tag k="name" v="7 - 11"/>
    <tag k="operator" v="MPK Poznań"/>
    <tag k="railway" v="tram"/>
  </way>
  <way id="16403985" version="13" timestamp="2012-09-03T19:23:45Z" uid="88909" user="miko101" changeset="12971943">
    <nd ref="870941632"/>
    <nd ref="870941633"/>
    <nd ref="1782044628"/>
    <nd ref="169304538"/>
    <nd ref="169304536"/>
    <tag k="name" v="3 - 7 - 11"/>
    <tag k="operator" v="MPK Poznań"/>
    <tag k="railway" v="tram"/>
  </way>
</osm>
