<?xml version='1.0' encoding='UTF-8'?>
<osm version="0.6" generator="libosmium/2.20.0">
  <way id="16453024" version="6" timestamp="2010-07-08T19:39:12Z" uid="74617" user="JohnSmith" changeset="5168730">
    <nd ref="169794369"/>
    <nd ref="169794578"/>
    <nd ref="169794579"/>
    <nd ref="169794580"/>
    <nd ref="169794582"/>
    <nd ref="169794583"/>
    <tag k="highway" v="residential"/>
    <tag k="maxspeed" v="50"/>
    <tag k="maxspeed:source" v="default residential speed limit in Australia"/>
    <tag k="name" v="Arundel Road"/>
    <tag k="oneway" v="yes"/>
  </way>
  <way id="16453024" version="7" timestamp="2011-11-11T16:35:28Z" uid="11111" user="melb_guy" changeset="9797547">
    <nd ref="169794369"/>
    <nd ref="169794578"/>
    <nd ref="1498879585"/>
    <nd ref="1498879569"/>
    <nd ref="169794579"/>
    <nd ref="169794583"/>
    <tag k="highway" v="unclassified"/>
    <tag k="maxspeed" v="60"/>
    <tag k="name" v="Arundel Road"/>
    <tag k="oneway" v="yes"/>
    <tag k="surface" v="asphalt"/>
  </way>
  <way id="16453024" version="8" timestamp="2012-01-15T15:55:34Z" uid="147510" user="woodpeck_fixbot" changeset="10398186">
    <nd ref="169794369"/>
    <nd ref="169794578"/>
    <nd ref="1498879585"/>
    <nd ref="1498879569"/>
    <nd ref="169794579"/>
    <nd ref="169794583"/>
    <tag k="highway" v="unclassified"/>
    <tag k="name" v="Arundel Road"/>
    <tag k="oneway" v="yes"/>
    <tag k="surface" v="asphalt"/>
  </way>
  <way id="16453165" version="3" timestamp="2009-08-03T13:34:34Z" uid="4467" user="Rosscoe" changeset="2025552">
    <nd ref="30928580"/>
    <nd ref="169795560"/>
    <nd ref="169795562"/>
    <nd ref="169795563"/>
    <tag k="highway" v="primary"/>
    <tag k="name" v="Green Gully Road"/>
    <tag k="oneway" v="yes"/>
  </way>
  <way id="16453165" version="4" timestamp="2011-11-11T16:35:29Z" uid="11111" user="melb_guy" changeset="9797547">
    <nd ref="30928580"/>
    <nd ref="169795562"/>
    <nd ref="1498879575"/>
    <nd ref="1498879573"/>
    <nd ref="1498879584"/>
    <nd ref="169795563"/>
    <tag k="highway" v="primary"/>
    <tag k="name" v="Green Gully Road"/>
    <tag k="oneway" v="yes"/>
  </way>
  <way id="16453212" version="20" timestamp="2009-08-03T13:42:45Z" uid="4467" user="Rosscoe" changeset="2025631">
    <nd ref="169794583"/>
    <nd ref="169795381"/>
    <nd ref="169795382"/>
    <nd ref="169795384"/>
    <nd ref="169795385"/>
    <nd ref="30928580"/>
    <tag k="highway" v="primary"/>
    <tag k="name" v="Green Gully Road"/>
    <tag k="oneway" v="yes"/>
  </way>
  <way id="16453212" version="21" timestamp="2009-08-29T11:17:32Z" uid="79475" user="AlexOnTheBus" changeset="2300144"/>
  <way id="16453343" version="7" timestamp="2010-07-08T19:36:59Z" uid="74617" user="JohnSmith" changeset="5168730">
    <nd ref="169794369"/>
    <nd ref="169794370"/>
    <nd ref="169794372"/>
    <nd ref="711124211"/>
    <nd ref="169794373"/>
    <nd ref="169794374"/>
    <nd ref="169794375"/>
    <tag k="highway" v="residential"/>
    <tag k="maxspeed" v="50"/>
    <tag k="maxspeed:source" v="default residential speed limit in Australia"/>
    <tag k="name" v="Arundel Road"/>
    <tag k="source" v="nearmap"/>
    <tag k="source:name" v="survey"/>
  </way>
  <way id="16453343" version="8" timestamp="2011-11-11T16:35:29Z" uid="11111" user="melb_guy" changeset="9797547">
    <nd ref="169794369"/>
    <nd ref="169794372"/>
    <nd ref="711124211"/>
    <nd ref="169794373"/>
    <nd ref="169794374"/>
    <nd ref="169794375"/>
    <tag k="highway" v="unclassified"/>
    <tag k="maxspeed" v="60"/>
    <tag k="name" v="Arundel Road"/>
    <tag k="source:name" v="survey"/>
    <tag k="surface" v="asphalt"/>
  </way>
  <way id="16453343" version="9" timestamp="2012-01-15T15:55:36Z" uid="147510" user="woodpeck_fixbot" changeset="10398186">
    <nd ref="169794369"/>
    <nd ref="169794372"/>
    <nd ref="711124211"/>
    <nd ref="169794373"/>
    <nd ref="169794374"/>
    <nd ref="169794375"/>
    <tag k="highway" v="unclassified"/>
    <tag k="name" v="Arundel Road"/>
    <tag k="source:name" v="survey"/>
    <tag k="surface" v="asphalt"/>
  </way>
  <way id="16453382" version="13" timestamp="2010-04-05T09:46:09Z" uid="74617" user="JohnSmith" changeset="4330839">
    <nd ref="169794583"/>
    <nd ref="30928598"/>
    <nd ref="30928599"/>
    <nd ref="30928600"/>
    <nd ref="303684869"/>
    <nd ref="26032548"/>
    <tag k="highway" v="motorway_link"/>
    <tag k="name" v="Calder Freeway Onramp"/>
    <tag k="oneway" v="yes"/>
    <tag k="source" v="survey"/>
  </way>
  <way id="16453382" version="14" timestamp="2011-11-13T04:46:06Z" uid="11111" user="melb_guy" changeset="9810559">
    <nd ref="169794583"/>
    <nd ref="1500918443"/>
    <nd ref="1500918426"/>
    <nd ref="1500918433"/>
    <nd ref="30928598"/>
    <nd ref="1500918422"/>
    <nd ref="1500918428"/>
    <nd ref="30928599"/>
    <tag k="highway" v="motorway_link"/>
    <tag k="lanes" v="2"/>
    <tag k="maxspeed" v="70"/>
    <tag k="name" v="Calder Freeway Onramp"/>
    <tag k="oneway" v="yes"/>
    <tag k="surface" v="asphalt"/>
  </way>
  <way id="16453830" version="4" timestamp="2010-07-08T19:38:01Z" uid="74617" user="JohnSmith" changeset="5168730">
    <nd ref="169800440"/>
    <nd ref="169802134"/>
    <nd ref="169802136"/>
    <nd ref="169802137"/>
    <nd ref="169802139"/>
    <nd ref="169802141"/>
    <nd ref="169802143"/>
    <nd ref="169802145"/>
    <nd ref="169802146"/>
    <nd ref="169802147"/>
    <nd ref="169805974"/>
    <nd ref="169805975"/>
    <nd ref="169805976"/>
    <nd ref="169805978"/>
    <nd ref="169805979"/>
    <nd ref="169805980"/>
    <tag k="highway" v="residential"/>
    <tag k="maxspeed" v="50"/>
    <tag k="maxspeed:source" v="default residential speed limit in Australia"/>
    <tag k="name" v="McNabs Road"/>
  </way>
  <way id="16453830" version="5" timestamp="2010-10-11T06:05:46Z" uid="4467" user="Rosscoe" changeset="6008715">
    <nd ref="169800440"/>
    <nd ref="169802134"/>
    <nd ref="169802136"/>
    <nd ref="169802137"/>
    <nd ref="169802139"/>
    <nd ref="169802141"/>
    <nd ref="169802143"/>
    <nd ref="169802145"/>
    <nd ref="169802146"/>
    <nd ref="169802147"/>
    <nd ref="169805978"/>
    <nd ref="169805979"/>
    <nd ref="169805980"/>
    <tag k="highway" v="residential"/>
    <tag k="maxspeed" v="50"/>
    <tag k="maxspeed:source" v="default residential speed limit in Australia"/>
    <tag k="name" v="McNabs Road"/>
  </way>
  <way id="16453830" version="6" timestamp="2012-01-15T15:55:37Z" uid="147510" user="woodpeck_fixbot" changeset="10398186">
    <nd ref="169800440"/>
    <nd ref="169802134"/>
    <nd ref="169802136"/>
    <nd ref="169802137"/>
    <nd ref="169802139"/>
    <nd ref="169802141"/>
    <nd ref="169802143"/>
    <nd ref="169802145"/>
    <nd ref="169802146"/>
    <nd ref="169802147"/>
    <nd ref="169805978"/>
    <nd ref="169805979"/>
    <nd ref="169805980"/>
    <tag k="highway" v="residential"/>
    <tag k="name" v="McNabs Road"/>
  </way>
  <way id="16453913" version="13" timestamp="2011-03-07T01:37:58Z" uid="4467" user="Rosscoe" changeset="7480325">
    <nd ref="370337148"/>
    <nd ref="567862720"/>
    <nd ref="567862710"/>
    <nd ref="269279731"/>
    <nd ref="48322119"/>
    <tag k="highway" v="secondary"/>
    <tag k="name" v="Sumner Road"/>
    <tag k="oneway" v="yes"/>
    <tag k="source" v="nearmap"/>
  </way>
  <way id="16453165" version="5" timestamp="2012-07-19T11:11:48Z" uid="722137" user="OSMF Redaction Account" changeset="12320817">
    <nd ref="30928580"/>
    <nd ref="169795562"/>
    <nd ref="1498879575"/>
    <nd ref="1498879573"/>
    <nd ref="1498879584"/>
    <nd ref="169795563"/>
    <tag k="highway" v="primary"/>
    <tag k="name" v="Green Gully Road"/>
    <tag k="oneway" v="true"/>
  </way>
  <way id="16453382" version="15" timestamp="2012-07-31T06:36:02Z" uid="67896" user="mrpulley" changeset="12557007">
    <nd ref="169794583"/>
    <nd ref="1500918443"/>
    <nd ref="1500918426"/>
    <nd ref="1500918433"/>
    <nd ref="30928598"/>
    <nd ref="1500918422"/>
    <nd ref="1500918428"/>
    <nd ref="30928599"/>
    <tag k="highway" v="motorway_link"/>
    <tag k="lanes" v="2"/>
    <tag k="maxspeed" v="70"/>
    <tag k="name" v="Calder Freeway Onramp"/>
    <tag k="network" v="S"/>
    <tag k="oneway" v="yes"/>
    <tag k="ref" v="40"/>
    <tag k="surface" v="asphalt"/>
  </way>
  <way id="16453913" version="14" timestamp="2012-07-19T21:05:08Z" uid="722137" user="OSMF Redaction Account" changeset="12347367">
    <nd ref="370337148"/>
    <nd ref="567862720"/>
    <nd ref="567862710"/>
    <nd ref="269279731"/>
    <nd ref="48322119"/>
    <tag k="highway" v="secondary"/>
    <tag k="name" v="Sumner Road"/>
    <tag k="oneway" v="yes"/>
  </way>
</osm>
