<?xml version='1.0' encoding='UTF-8'?>
<osm version="0.6" generator="libosmium/2.20.0">
  <way id="16454048" version="2" timestamp="2010-07-08T19:37:59Z" uid="74617" user="JohnSmith" changeset="5168730">
    <nd ref="169802145"/>
    <nd ref="169804334"/>
    <nd ref="169804335"/>
    <nd ref="169804337"/>
    <nd ref="169804338"/>
    <nd ref="169804341"/>
    <tag k="highway" v="residential"/>
    <tag k="maxspeed" v="50"/>
    <tag k="maxspeed:source" v="default residential speed limit in Australia"/>
    <tag k="name" v="Barbiston Road"/>
  </way>
  <way id="16454048" version="3" timestamp="2012-01-15T15:55:40Z" uid="147510" user="woodpeck_fixbot" changeset="10398186">
    <nd ref="169802145"/>
    <nd ref="169804334"/>
    <nd ref="169804335"/>
    <nd ref="169804337"/>
    <nd ref="169804338"/>
    <nd ref="169804341"/>
    <tag k="highway" v="residential"/>
    <tag k="name" v="Barbiston Road"/>
  </way>
  <way id="16454226" version="3" timestamp="2010-07-08T19:42:33Z" uid="74617" user="JohnSmith" changeset="5168730">
    <nd ref="169805980"/>
    <nd ref="169805981"/>
    <nd ref="169805983"/>
    <nd ref="169805984"/>
    <nd ref="169805985"/>
    <nd ref="169805986"/>
    <nd ref="169805987"/>
    <nd ref="169805989"/>
    <tag k="highway" v="residential"/>
    <tag k="maxspeed" v="50"/>
    <tag k="maxspeed:source" v="default residential speed limit in Australia"/>
    <tag k="name" v="Mansfield Road"/>
  </way>
  <way id="16454226" version="4" timestamp="2012-01-15T15:55:42Z" uid="147510" user="woodpeck_fixbot" changeset="10398186">
    <nd ref="169805980"/>
    <nd ref="169805981"/>
    <nd ref="169805983"/>
    <nd ref="169805984"/>
    <nd ref="169805985"/>
    <nd ref="169805986"/>
    <nd ref="169805987"/>
    <nd ref="169805989"/>
    <tag k="highway" v="residential"/>
    <tag k="name" v="Mansfield Road"/>
  </way>
  <way id="16454266" version="10" timestamp="2011-03-07T01:37:44Z" uid="4467" user="Rosscoe" changeset="7480325">
    <nd ref="48322119"/>
    <nd ref="269159183"/>
    <nd ref="874029066"/>
    <tag k="highway" v="secondary"/>
    <tag k="name" v="Sumner Road"/>
    <tag k="oneway" v="yes"/>
    <tag k="source" v="nearmap"/>
  </way>
  <way id="16454326" version="2" timestamp="2010-07-08T19:41:59Z" uid="74617" user="JohnSmith" changeset="5168730">
    <nd ref="169805986"/>
    <nd ref="169807282"/>
    <nd ref="169807284"/>
    <nd ref="169807285"/>
    <nd ref="169807287"/>
    <nd ref="169807288"/>
    <nd ref="169807289"/>
    <nd ref="169807290"/>
    <tag k="highway" v="residential"/>
    <tag k="maxspeed" v="50"/>
    <tag k="maxspeed:source" v="default residential speed limit in Australia"/>
    <tag k="name" v="Panton Drive"/>
  </way>
  <way id="16454326" version="3" timestamp="2012-01-15T15:55:43Z" uid="147510" user="woodpeck_fixbot" changeset="10398186">
    <nd ref="169805986"/>
    <nd ref="169807282"/>
    <nd ref="169807284"/>
    <nd ref="169807285"/>
    <nd ref="169807287"/>
    <nd ref="169807288"/>
    <nd ref="169807289"/>
    <nd ref="169807290"/>
    <tag k="highway" v="residential"/>
    <tag k="name" v="Panton Drive"/>
  </way>
  <way id="16454445" version="9" timestamp="2011-03-07T01:37:18Z" uid="4467" user="Rosscoe" changeset="7480325">
    <nd ref="169808334"/>
    <nd ref="1148907425"/>
    <nd ref="269158826"/>
    <nd ref="874029046"/>
    <tag k="highway" v="secondary"/>
    <tag k="name" v="Sumner Road"/>
    <tag k="oneway" v="yes"/>
    <tag k="source" v="nearmap"/>
  </way>
  <way id="16454454" version="2" timestamp="2010-07-08T19:24:33Z" uid="74617" user="JohnSmith" changeset="5168730">
    <nd ref="169807290"/>
    <nd ref="169808488"/>
    <nd ref="169808489"/>
    <nd ref="169808490"/>
    <nd ref="169808492"/>
    <nd ref="169808494"/>
    <tag k="highway" v="residential"/>
    <tag k="maxspeed" v="50"/>
    <tag k="maxspeed:source" v="default residential speed limit in Australia"/>
    <tag k="name" v="Bassett Road"/>
  </way>
  <way id="16454454" version="3" timestamp="2012-01-15T15:55:52Z" uid="147510" user="woodpeck_fixbot" changeset="10398186">
    <nd ref="169807290"/>
    <nd ref="169808488"/>
    <nd ref="169808489"/>
    <nd ref="169808490"/>
    <nd ref="169808492"/>
    <nd ref="169808494"/>
    <tag k="highway" v="residential"/>
    <tag k="name" v="Bassett Road"/>
  </way>
  <way id="16454477" version="3" timestamp="2011-03-07T01:37:38Z" uid="4467" user="Rosscoe" changeset="7480325">
    <nd ref="169808086"/>
    <nd ref="169808832"/>
    <nd ref="169808834"/>
    <tag k="highway" v="residential"/>
    <tag k="name" v="Sumner Road"/>
    <tag k="oneway" v="yes"/>
    <tag k="source" v="nearmap"/>
  </way>
  <way id="16454506" version="4" timestamp="2011-03-07T01:37:48Z" uid="4467" user="Rosscoe" changeset="7480325">
    <nd ref="169808834"/>
    <nd ref="169809294"/>
    <nd ref="169809296"/>
    <nd ref="497608907"/>
    <nd ref="169809300"/>
    <nd ref="169809302"/>
    <tag k="highway" v="residential"/>
    <tag k="name" v="Sumner Road"/>
    <tag k="source" v="nearmap"/>
  </way>
  <way id="16454533" version="3" timestamp="2011-03-07T01:37:23Z" uid="4467" user="Rosscoe" changeset="7480325">
    <nd ref="169808834"/>
    <nd ref="169809532"/>
    <nd ref="169808334"/>
    <tag k="highway" v="residential"/>
    <tag k="name" v="Sumner Road"/>
    <tag k="oneway" v="yes"/>
    <tag k="source" v="nearmap"/>
  </way>
  <way id="16454266" version="11" timestamp="2012-07-19T21:05:13Z" uid="722137" user="OSMF Redaction Account" changeset="12347367">
    <nd ref="48322119"/>
    <nd ref="269159183"/>
    <nd ref="874029066"/>
    <tag k="highway" v="secondary"/>
    <tag k="name" v="Sumner Road"/>
    <tag k="oneway" v="yes"/>
  </way>
  <way id="16454445" version="10" timestamp="2012-07-19T21:05:14Z" uid="722137" user="OSMF Redaction Account" changeset="12347367">
    <nd ref="169808334"/>
    <nd ref="1148907425"/>
    <nd ref="269158826"/>
    <nd ref="874029046"/>
    <tag k="highway" v="secondary"/>
    <tag k="name" v="Sumner Road"/>
    <tag k="oneway" v="yes"/>
  </way>
  <way id="16454477" version="4" timestamp="2012-07-19T21:05:08Z" uid="722137" user="OSMF Redaction Account" changeset="12347367">
    <nd ref="169808086"/>
    <nd ref="169808832"/>
    <nd ref="169808834"/>
    <tag k="highway" v="tertiary"/>
    <tag k="name" v="Sumner Road"/>
    <tag k="oneway" v="yes"/>
  </way>
  <way id="16454506" version="5" timestamp="2012-07-19T21:05:07Z" uid="722137" user="OSMF Redaction Account" changeset="12347367">
    <nd ref="169808834"/>
    <nd ref="169809294"/>
    <nd ref="169809296"/>
    <nd ref="497608907"/>
    <nd ref="169809300"/>
    <nd ref="169809302"/>
    <tag k="highway" v="tertiary"/>
    <tag k="name" v="Sumner Road"/>
  </way>
  <way id="16454533" version="4" timestamp="2012-07-19T21:05:07Z" uid="722137" user="OSMF Redaction Account" changeset="12347367">
    <nd ref="169808834"/>
    <nd ref="169809532"/>
    <nd ref="169808334"/>
    <tag k="highway" v="tertiary"/>
    <tag k="name" v="Sumner Road"/>
    <tag k="oneway" v="yes"/>
  </way>
</osm>
