<?xml version='1.0' encoding='UTF-8'?>
<osm version="0.6" generator="libosmium/2.20.0">
  <way id="16461614" version="3" timestamp="2009-07-26T13:44:21Z" uid="4467" user="Rosscoe" changeset="1944918">
    <nd ref="169871633"/>
    <nd ref="169871634"/>
    <nd ref="169871636"/>
    <tag k="bridge" v="yes"/>
    <tag k="highway" v="primary"/>
    <tag k="layer" v="1"/>
    <tag k="name" v="Colleges Crossing"/>
  </way>
  <way id="16461874" version="4" timestamp="2010-02-15T06:08:37Z" uid="74617" user="JohnSmith" changeset="3880328">
    <nd ref="169873700"/>
    <nd ref="169874449"/>
    <nd ref="169874450"/>
    <nd ref="169874451"/>
    <nd ref="169874454"/>
    <nd ref="169875804"/>
    <nd ref="169875806"/>
    <nd ref="169875807"/>
    <nd ref="169875809"/>
    <tag k="highway" v="primary"/>
    <tag k="name" v="Mount Crosby Road"/>
  </way>
  <way id="16461614" version="4" timestamp="2012-07-19T21:42:10Z" uid="722137" user="OSMF Redaction Account" changeset="12348792">
    <nd ref="169871633"/>
    <nd ref="169871634"/>
    <nd ref="169871636"/>
    <tag k="bridge" v="yes"/>
    <tag k="highway" v="primary"/>
    <tag k="level" v="1"/>
    <tag k="name" v="Colleges Crossing"/>
  </way>
</osm>
