<?xml version='1.0' encoding='UTF-8'?>
<osm version="0.6" generator="libosmium/2.20.0">
  <way id="16506299" version="5" timestamp="2011-03-18T15:17:33Z" uid="4467" user="Rosscoe" changeset="7596265">
    <nd ref="279977646"/>
    <nd ref="150573417"/>
    <nd ref="170419770"/>
    <tag k="highway" v="residential"/>
    <tag k="is_in" v="Brighton,South Australia,Australia"/>
    <tag k="maxspeed" v="50"/>
    <tag k="name" v="Strathmore Terrace"/>
    <tag k="postal_code" v="5048"/>
    <tag k="source" v="survey"/>
  </way>
  <way id="16506306" version="6" timestamp="2011-03-18T15:16:57Z" uid="4467" user="Rosscoe" changeset="7596265">
    <nd ref="370250113"/>
    <nd ref="1207409903"/>
    <nd ref="370250114"/>
    <nd ref="672140427"/>
    <nd ref="170419863"/>
    <nd ref="170419843"/>
    <tag k="highway" v="residential"/>
    <tag k="maxspeed" v="50"/>
    <tag k="maxspeed:source" v="default residential speed limit in Australia"/>
    <tag k="name" v="Greggory Street"/>
  </way>
  <way id="16506306" version="7" timestamp="2011-03-18T15:41:31Z" uid="4467" user="Rosscoe" changeset="7596453">
    <nd ref="370250113"/>
    <nd ref="1207409903"/>
    <nd ref="370250114"/>
    <nd ref="672140427"/>
    <nd ref="170419863"/>
    <nd ref="170419843"/>
    <tag k="highway" v="residential"/>
    <tag k="maxspeed" v="50"/>
    <tag k="name" v="Greggory Street"/>
    <tag k="source:maxspeed" v="default residential speed limit in Australia"/>
  </way>
  <way id="16506316" version="11" timestamp="2011-03-18T15:17:40Z" uid="4467" user="Rosscoe" changeset="7596265">
    <nd ref="31430690"/>
    <nd ref="253449406"/>
    <nd ref="99025762"/>
    <nd ref="170964701"/>
    <nd ref="170964681"/>
    <nd ref="31431054"/>
    <nd ref="170394358"/>
    <nd ref="170395554"/>
    <nd ref="170419770"/>
    <nd ref="170419886"/>
    <nd ref="170419863"/>
    <nd ref="1207409961"/>
    <nd ref="248611158"/>
    <nd ref="150573404"/>
    <tag k="highway" v="primary"/>
    <tag k="is_in" v="Brighton,South Australia,Australia"/>
    <tag k="lanes" v="2"/>
    <tag k="maxspeed" v="60"/>
    <tag k="name" v="Brighton Road"/>
    <tag k="oneway" v="yes"/>
    <tag k="postal_code" v="5048"/>
    <tag k="ref" v="A15"/>
    <tag k="source" v="survey"/>
  </way>
  <way id="16506338" version="2" timestamp="2011-03-18T15:41:01Z" uid="4467" user="Rosscoe" changeset="7596453">
    <nd ref="170419921"/>
    <nd ref="170419934"/>
    <nd ref="170419955"/>
    <nd ref="170419979"/>
    <nd ref="170419996"/>
    <nd ref="170420013"/>
    <nd ref="170420030"/>
    <nd ref="170420051"/>
    <nd ref="170419921"/>
    <tag k="amenity" v="parking"/>
  </way>
  <way id="16506299" version="6" timestamp="2012-07-07T15:30:23Z" uid="328538" user="o&apos;cholio" changeset="12141058">
    <nd ref="279977646"/>
    <nd ref="150573417"/>
    <tag k="highway" v="residential"/>
    <tag k="is_in" v="Brighton,South Australia,Australia"/>
    <tag k="maxspeed" v="50"/>
    <tag k="name" v="Strathmore Terrace"/>
    <tag k="odbl" v="clean"/>
    <tag k="postal_code" v="5048"/>
    <tag k="source" v="survey"/>
  </way>
  <way id="16506299" version="7" timestamp="2012-09-10T23:24:29Z" uid="418724" user="wintersportler" changeset="13063663">
    <nd ref="279977646"/>
    <nd ref="150573417"/>
    <nd ref="170419770"/>
    <tag k="highway" v="residential"/>
    <tag k="is_in" v="Brighton,South Australia,Australia"/>
    <tag k="maxspeed" v="50"/>
    <tag k="name" v="Strathmore Terrace"/>
    <tag k="postal_code" v="5048"/>
    <tag k="source" v="survey"/>
  </way>
  <way id="16506306" version="8" timestamp="2012-07-07T15:30:14Z" uid="328538" user="o&apos;cholio" changeset="12141058">
    <nd ref="370250113"/>
    <nd ref="1207409903"/>
    <nd ref="370250114"/>
    <nd ref="672140427"/>
    <nd ref="170419863"/>
    <tag k="highway" v="residential"/>
    <tag k="maxspeed" v="50"/>
    <tag k="name" v="Greggory Street"/>
    <tag k="odbl" v="clean"/>
    <tag k="source:maxspeed" v="default residential speed limit in Australia"/>
  </way>
  <way id="16506306" version="9" timestamp="2012-09-10T23:23:56Z" uid="418724" user="wintersportler" changeset="13063663">
    <nd ref="370250113"/>
    <nd ref="1909310628"/>
    <nd ref="370250114"/>
    <nd ref="672140427"/>
    <nd ref="170419863"/>
    <nd ref="170419843"/>
    <tag k="highway" v="residential"/>
    <tag k="maxspeed" v="50"/>
    <tag k="name" v="Greggory Street"/>
    <tag k="source:maxspeed" v="default residential speed limit in Australia"/>
  </way>
  <way id="16506316" version="12" timestamp="2012-07-07T15:30:07Z" uid="328538" user="o&apos;cholio" changeset="12141058">
    <nd ref="31430690"/>
    <nd ref="1816084052"/>
    <nd ref="1816084063"/>
    <nd ref="1816084072"/>
    <nd ref="99025762"/>
    <nd ref="1816084084"/>
    <nd ref="1816084096"/>
    <nd ref="170964701"/>
    <nd ref="170964681"/>
    <nd ref="1816084099"/>
    <nd ref="31431054"/>
    <nd ref="170394358"/>
    <nd ref="1816084124"/>
    <nd ref="170395554"/>
    <nd ref="170419770"/>
    <nd ref="170419886"/>
    <nd ref="170419863"/>
    <nd ref="1816084135"/>
    <nd ref="248611158"/>
    <nd ref="150573404"/>
    <tag k="highway" v="primary"/>
    <tag k="is_in" v="Brighton,South Australia,Australia"/>
    <tag k="lanes" v="2"/>
    <tag k="maxspeed" v="60"/>
    <tag k="name" v="Brighton Road"/>
    <tag k="odbl" v="clean"/>
    <tag k="oneway" v="yes"/>
    <tag k="postal_code" v="5048"/>
    <tag k="ref" v="A15"/>
    <tag k="source" v="survey"/>
  </way>
  <way id="16506316" version="13" timestamp="2012-09-10T23:23:32Z" uid="418724" user="wintersportler" changeset="13063663">
    <nd ref="31430690"/>
    <nd ref="1816084052"/>
    <nd ref="1816084063"/>
    <nd ref="1816084072"/>
    <nd ref="99025762"/>
    <nd ref="1816084084"/>
    <nd ref="170964701"/>
    <nd ref="170964681"/>
    <nd ref="1816084099"/>
    <nd ref="31431054"/>
    <nd ref="170394358"/>
    <nd ref="1816084124"/>
    <nd ref="170395554"/>
    <nd ref="170419770"/>
    <nd ref="170419886"/>
    <nd ref="170419863"/>
    <nd ref="1816084135"/>
    <nd ref="1909310635"/>
    <nd ref="150573404"/>
    <tag k="highway" v="primary"/>
    <tag k="is_in" v="Brighton,South Australia,Australia"/>
    <tag k="lanes" v="2"/>
    <tag k="maxspeed" v="60"/>
    <tag k="name" v="Brighton Road"/>
    <tag k="oneway" v="yes"/>
    <tag k="postal_code" v="5048"/>
    <tag k="ref" v="A15"/>
    <tag k="source" v="survey"/>
  </way>
</osm>
