<?xml version='1.0' encoding='UTF-8'?>
<osm version="0.6" generator="libosmium/2.20.0">
  <way id="16544151" version="3" timestamp="2010-08-18T07:55:30Z" uid="4467" user="Rosscoe" changeset="5524146">
    <nd ref="170521989"/>
    <nd ref="170716166"/>
    <nd ref="170716169"/>
    <nd ref="170662097"/>
    <tag k="highway" v="residential"/>
    <tag k="name" v="Chamberlin Avenue"/>
    <tag k="tiger:cfcc" v="A41"/>
    <tag k="tiger:county" v="Durham, NC"/>
    <tag k="tiger:name_base" v="Chamberlin"/>
    <tag k="tiger:name_type" v="Ave"/>
    <tag k="tiger:reviewed" v="no"/>
    <tag k="tiger:separated" v="no"/>
    <tag k="tiger:source" v="tiger_import_dch_v0.6_20070829"/>
    <tag k="tiger:tlid" v="71741174"/>
    <tag k="tiger:upload_uuid" v="bulk_upload.pl-bf548042-739d-4141-98f7-cac7afbf29c5"/>
    <tag k="tiger:zip_left" v="27704"/>
    <tag k="tiger:zip_right" v="27704"/>
  </way>
  <way id="16544151" version="4" timestamp="2012-02-15T18:07:33Z" uid="38487" user="jumbanho" changeset="10694747">
    <nd ref="170521989"/>
    <nd ref="170716166"/>
    <nd ref="170716169"/>
    <nd ref="170662097"/>
    <tag k="highway" v="residential"/>
    <tag k="name" v="Chamberlin Avenue"/>
    <tag k="tiger:cfcc" v="A41"/>
    <tag k="tiger:county" v="Durham, NC"/>
    <tag k="tiger:name_base" v="Chamberlin"/>
    <tag k="tiger:name_type" v="Ave"/>
    <tag k="tiger:reviewed" v="yes"/>
    <tag k="tiger:separated" v="no"/>
    <tag k="tiger:source" v="tiger_import_dch_v0.6_20070829"/>
    <tag k="tiger:tlid" v="71741174"/>
    <tag k="tiger:upload_uuid" v="bulk_upload.pl-bf548042-739d-4141-98f7-cac7afbf29c5"/>
    <tag k="tiger:zip_left" v="27704"/>
    <tag k="tiger:zip_right" v="27704"/>
  </way>
  <way id="16544187" version="7" timestamp="2010-02-14T17:12:41Z" uid="74617" user="JohnSmith" changeset="3875836">
    <nd ref="77675412"/>
    <nd ref="170716472"/>
    <nd ref="170716473"/>
    <nd ref="370476307"/>
    <nd ref="170716474"/>
    <nd ref="370476308"/>
    <nd ref="170716475"/>
    <nd ref="170716476"/>
    <nd ref="170716477"/>
    <nd ref="370476305"/>
    <nd ref="170716478"/>
    <nd ref="170716479"/>
    <nd ref="170716481"/>
    <nd ref="170705146"/>
    <nd ref="170721095"/>
    <tag k="highway" v="tertiary"/>
    <tag k="name" v="Mowbray Terrace"/>
  </way>
  <way id="16544193" version="5" timestamp="2010-02-14T17:12:48Z" uid="74617" user="JohnSmith" changeset="3875836">
    <nd ref="170716473"/>
    <nd ref="170716517"/>
    <nd ref="170716518"/>
    <nd ref="170716520"/>
    <tag k="highway" v="residential"/>
    <tag k="maxspeed" v="50"/>
    <tag k="name" v="Rosslyn Street"/>
  </way>
  <way id="16544193" version="6" timestamp="2012-01-15T16:04:11Z" uid="147510" user="woodpeck_fixbot" changeset="10398186">
    <nd ref="170716473"/>
    <nd ref="170716517"/>
    <nd ref="170716518"/>
    <nd ref="170716520"/>
    <tag k="highway" v="residential"/>
    <tag k="name" v="Rosslyn Street"/>
  </way>
  <way id="16544195" version="6" timestamp="2010-02-14T17:12:48Z" uid="74617" user="JohnSmith" changeset="3875836">
    <nd ref="170716475"/>
    <nd ref="170716526"/>
    <nd ref="170725381"/>
    <tag k="highway" v="residential"/>
    <tag k="maxspeed" v="50"/>
    <tag k="name" v="Sinclair Street"/>
  </way>
  <way id="16544195" version="7" timestamp="2012-01-15T16:04:12Z" uid="147510" user="woodpeck_fixbot" changeset="10398186">
    <nd ref="170716475"/>
    <nd ref="170716526"/>
    <nd ref="170725381"/>
    <tag k="highway" v="residential"/>
    <tag k="name" v="Sinclair Street"/>
  </way>
  <way id="16544201" version="4" timestamp="2010-02-14T17:12:48Z" uid="74617" user="JohnSmith" changeset="3875836">
    <nd ref="170716517"/>
    <nd ref="170716574"/>
    <nd ref="170716580"/>
    <tag k="highway" v="residential"/>
    <tag k="maxspeed" v="50"/>
    <tag k="name" v="Balmoral Terrace"/>
  </way>
  <way id="16544201" version="5" timestamp="2012-01-15T16:04:14Z" uid="147510" user="woodpeck_fixbot" changeset="10398186">
    <nd ref="170716517"/>
    <nd ref="170716574"/>
    <nd ref="170716580"/>
    <tag k="highway" v="residential"/>
    <tag k="name" v="Balmoral Terrace"/>
  </way>
  <way id="16544202" version="4" timestamp="2010-02-14T17:12:52Z" uid="74617" user="JohnSmith" changeset="3875836">
    <nd ref="170716518"/>
    <nd ref="170716580"/>
    <tag k="highway" v="residential"/>
    <tag k="maxspeed" v="50"/>
    <tag k="name" v="Lomond Terrace"/>
  </way>
  <way id="16544202" version="5" timestamp="2012-01-15T16:04:15Z" uid="147510" user="woodpeck_fixbot" changeset="10398186">
    <nd ref="170716518"/>
    <nd ref="170716580"/>
    <tag k="highway" v="residential"/>
    <tag k="name" v="Lomond Terrace"/>
  </way>
  <way id="16544216" version="4" timestamp="2010-02-14T17:12:59Z" uid="74617" user="JohnSmith" changeset="3875836">
    <nd ref="170716643"/>
    <nd ref="170716644"/>
    <nd ref="170716647"/>
    <tag k="highway" v="residential"/>
    <tag k="maxspeed" v="50"/>
    <tag k="name" v="Walter Avenue"/>
    <tag k="oneway" v="yes"/>
  </way>
  <way id="16544216" version="5" timestamp="2012-01-15T16:04:17Z" uid="147510" user="woodpeck_fixbot" changeset="10398186">
    <nd ref="170716643"/>
    <nd ref="170716644"/>
    <nd ref="170716647"/>
    <tag k="highway" v="residential"/>
    <tag k="name" v="Walter Avenue"/>
    <tag k="oneway" v="yes"/>
  </way>
  <way id="16544336" version="2" timestamp="2010-07-08T17:49:05Z" uid="74617" user="JohnSmith" changeset="5167338">
    <nd ref="170717273"/>
    <nd ref="170717251"/>
    <nd ref="170717225"/>
    <nd ref="170717196"/>
    <nd ref="170717170"/>
    <nd ref="170717141"/>
    <tag k="highway" v="residential"/>
    <tag k="maxspeed" v="50"/>
    <tag k="maxspeed:source" v="default residential speed limit in Australia"/>
    <tag k="name" v="Davey Jones Lane"/>
    <tag k="surface" v="unpaved"/>
  </way>
  <way id="16544336" version="3" timestamp="2012-01-15T16:04:19Z" uid="147510" user="woodpeck_fixbot" changeset="10398186">
    <nd ref="170717273"/>
    <nd ref="170717251"/>
    <nd ref="170717225"/>
    <nd ref="170717196"/>
    <nd ref="170717170"/>
    <nd ref="170717141"/>
    <tag k="highway" v="residential"/>
    <tag k="name" v="Davey Jones Lane"/>
    <tag k="surface" v="unpaved"/>
  </way>
  <way id="16544339" version="2" timestamp="2010-07-08T17:50:43Z" uid="74617" user="JohnSmith" changeset="5167338">
    <nd ref="170717341"/>
    <nd ref="170717305"/>
    <tag k="highway" v="residential"/>
    <tag k="maxspeed" v="50"/>
    <tag k="maxspeed:source" v="default residential speed limit in Australia"/>
    <tag k="name" v="Romuald Road"/>
  </way>
  <way id="16544339" version="3" timestamp="2012-01-15T16:04:21Z" uid="147510" user="woodpeck_fixbot" changeset="10398186">
    <nd ref="170717341"/>
    <nd ref="170717305"/>
    <tag k="highway" v="residential"/>
    <tag k="name" v="Romuald Road"/>
  </way>
  <way id="16544343" version="2" timestamp="2010-07-08T17:50:04Z" uid="74617" user="JohnSmith" changeset="5167338">
    <nd ref="170717497"/>
    <nd ref="170717457"/>
    <nd ref="170717431"/>
    <nd ref="170717408"/>
    <nd ref="170717386"/>
    <nd ref="170717366"/>
    <tag k="highway" v="residential"/>
    <tag k="maxspeed" v="50"/>
    <tag k="maxspeed:source" v="default residential speed limit in Australia"/>
    <tag k="name" v="Malcom Way"/>
  </way>
  <way id="16544343" version="3" timestamp="2012-01-15T16:04:22Z" uid="147510" user="woodpeck_fixbot" changeset="10398186">
    <nd ref="170717497"/>
    <nd ref="170717457"/>
    <nd ref="170717431"/>
    <nd ref="170717408"/>
    <nd ref="170717386"/>
    <nd ref="170717366"/>
    <tag k="highway" v="residential"/>
    <tag k="name" v="Malcom Way"/>
  </way>
  <way id="16544347" version="2" timestamp="2010-07-08T17:47:27Z" uid="74617" user="JohnSmith" changeset="5167338">
    <nd ref="170717529"/>
    <nd ref="170717565"/>
    <nd ref="170717457"/>
    <tag k="highway" v="residential"/>
    <tag k="maxspeed" v="50"/>
    <tag k="maxspeed:source" v="default residential speed limit in Australia"/>
    <tag k="name" v="Kenneth Court"/>
    <tag k="surface" v="unpaved"/>
  </way>
  <way id="16544347" version="3" timestamp="2012-01-15T16:04:24Z" uid="147510" user="woodpeck_fixbot" changeset="10398186">
    <nd ref="170717529"/>
    <nd ref="170717565"/>
    <nd ref="170717457"/>
    <tag k="highway" v="residential"/>
    <tag k="name" v="Kenneth Court"/>
    <tag k="surface" v="unpaved"/>
  </way>
  <way id="16544353" version="2" timestamp="2010-07-08T17:47:14Z" uid="74617" user="JohnSmith" changeset="5167338">
    <nd ref="170717591"/>
    <nd ref="170717618"/>
    <tag k="highway" v="residential"/>
    <tag k="maxspeed" v="50"/>
    <tag k="maxspeed:source" v="default residential speed limit in Australia"/>
    <tag k="name" v="Buckleys Road"/>
    <tag k="surface" v="unpaved"/>
  </way>
  <way id="16544353" version="3" timestamp="2012-01-15T16:04:25Z" uid="147510" user="woodpeck_fixbot" changeset="10398186">
    <nd ref="170717591"/>
    <nd ref="170717618"/>
    <tag k="highway" v="residential"/>
    <tag k="name" v="Buckleys Road"/>
    <tag k="surface" v="unpaved"/>
  </way>
  <way id="16544356" version="2" timestamp="2010-07-08T17:47:31Z" uid="74617" user="JohnSmith" changeset="5167338">
    <nd ref="170717736"/>
    <nd ref="170717761"/>
    <tag k="highway" v="residential"/>
    <tag k="maxspeed" v="50"/>
    <tag k="maxspeed:source" v="default residential speed limit in Australia"/>
    <tag k="name" v="Ambrose Road"/>
  </way>
  <way id="16544356" version="3" timestamp="2012-01-15T16:04:26Z" uid="147510" user="woodpeck_fixbot" changeset="10398186">
    <nd ref="170717736"/>
    <nd ref="170717761"/>
    <tag k="highway" v="residential"/>
    <tag k="name" v="Ambrose Road"/>
  </way>
  <way id="16544369" version="2" timestamp="2010-07-08T17:49:09Z" uid="74617" user="JohnSmith" changeset="5167338">
    <nd ref="170717618"/>
    <nd ref="170717761"/>
    <nd ref="170717643"/>
    <nd ref="170717662"/>
    <nd ref="170717683"/>
    <nd ref="170717709"/>
    <tag k="highway" v="residential"/>
    <tag k="maxspeed" v="50"/>
    <tag k="maxspeed:source" v="default residential speed limit in Australia"/>
    <tag k="name" v="Groppi Road"/>
    <tag k="surface" v="unpaved"/>
  </way>
  <way id="16544369" version="3" timestamp="2012-01-15T16:04:28Z" uid="147510" user="woodpeck_fixbot" changeset="10398186">
    <nd ref="170717618"/>
    <nd ref="170717761"/>
    <nd ref="170717643"/>
    <nd ref="170717662"/>
    <nd ref="170717683"/>
    <nd ref="170717709"/>
    <tag k="highway" v="residential"/>
    <tag k="name" v="Groppi Road"/>
    <tag k="surface" v="unpaved"/>
  </way>
  <way id="16544373" version="2" timestamp="2010-07-08T17:48:27Z" uid="74617" user="JohnSmith" changeset="5167338">
    <nd ref="170717141"/>
    <nd ref="170717106"/>
    <nd ref="170717305"/>
    <nd ref="170717065"/>
    <tag k="highway" v="residential"/>
    <tag k="maxspeed" v="50"/>
    <tag k="maxspeed:source" v="default residential speed limit in Australia"/>
    <tag k="name" v="Romuald Road"/>
  </way>
  <way id="16544373" version="3" timestamp="2012-01-15T16:04:31Z" uid="147510" user="woodpeck_fixbot" changeset="10398186">
    <nd ref="170717141"/>
    <nd ref="170717106"/>
    <nd ref="170717305"/>
    <nd ref="170717065"/>
    <tag k="highway" v="residential"/>
    <tag k="name" v="Romuald Road"/>
  </way>
  <way id="16544920" version="4" timestamp="2010-02-14T17:12:53Z" uid="74617" user="JohnSmith" changeset="3875836">
    <nd ref="170722636"/>
    <nd ref="170722948"/>
    <nd ref="170722951"/>
    <nd ref="170722953"/>
    <tag k="highway" v="tertiary"/>
    <tag k="name" v="Caswell Street"/>
    <tag k="oneway" v="yes"/>
  </way>
  <way id="16544967" version="4" timestamp="2010-02-14T17:12:53Z" uid="74617" user="JohnSmith" changeset="3875836">
    <nd ref="81333332"/>
    <nd ref="170723183"/>
    <nd ref="170722636"/>
    <tag k="highway" v="tertiary"/>
    <tag k="name" v="Vulture Street East"/>
    <tag k="oneway" v="yes"/>
  </way>
</osm>
