<?xml version='1.0' encoding='UTF-8'?>
<osm version="0.6" generator="libosmium/2.20.0">
  <way id="16545068" version="6" timestamp="2010-02-14T17:12:41Z" uid="74617" user="JohnSmith" changeset="3875836">
    <nd ref="170721095"/>
    <nd ref="170721096"/>
    <nd ref="170721097"/>
    <nd ref="170722625"/>
    <nd ref="170722626"/>
    <nd ref="170722628"/>
    <nd ref="170722630"/>
    <nd ref="170722632"/>
    <nd ref="170722634"/>
    <nd ref="170722636"/>
    <tag k="highway" v="tertiary"/>
    <tag k="name" v="Stanley Terrace"/>
  </way>
  <way id="16545143" version="3" timestamp="2010-08-18T06:54:44Z" uid="4467" user="Rosscoe" changeset="5523778">
    <nd ref="170527212"/>
    <nd ref="170724472"/>
    <nd ref="170724474"/>
    <tag k="highway" v="residential"/>
    <tag k="name" v="Moreland Avenue"/>
    <tag k="tiger:cfcc" v="A41"/>
    <tag k="tiger:county" v="Durham, NC"/>
    <tag k="tiger:name_base" v="Moreland"/>
    <tag k="tiger:name_type" v="Ave"/>
    <tag k="tiger:reviewed" v="no"/>
    <tag k="tiger:separated" v="no"/>
    <tag k="tiger:source" v="tiger_import_dch_v0.6_20070829"/>
    <tag k="tiger:tlid" v="71787741"/>
    <tag k="tiger:upload_uuid" v="bulk_upload.pl-bf548042-739d-4141-98f7-cac7afbf29c5"/>
    <tag k="tiger:zip_left" v="27707"/>
    <tag k="tiger:zip_right" v="27707"/>
  </way>
  <way id="16545161" version="4" timestamp="2010-02-14T17:12:49Z" uid="74617" user="JohnSmith" changeset="3875836">
    <nd ref="170716526"/>
    <nd ref="170722630"/>
    <tag k="highway" v="residential"/>
    <tag k="maxspeed" v="50"/>
    <tag k="name" v="Gresham Street"/>
  </way>
  <way id="16545161" version="5" timestamp="2012-01-15T16:04:32Z" uid="147510" user="woodpeck_fixbot" changeset="10398186">
    <nd ref="170716526"/>
    <nd ref="170722630"/>
    <tag k="highway" v="residential"/>
    <tag k="name" v="Gresham Street"/>
  </way>
  <way id="16545523" version="5" timestamp="2010-02-14T17:12:42Z" uid="74617" user="JohnSmith" changeset="3875836">
    <nd ref="170700341"/>
    <nd ref="370476310"/>
    <nd ref="170716476"/>
    <tag k="highway" v="tertiary"/>
    <tag k="name" v="Heidelberg Street"/>
  </way>
  <way id="16545673" version="5" timestamp="2010-02-14T17:12:43Z" uid="74617" user="JohnSmith" changeset="3875836">
    <nd ref="170702985"/>
    <nd ref="170716477"/>
    <tag k="highway" v="residential"/>
    <tag k="maxspeed" v="50"/>
    <tag k="name" v="Burlington Street"/>
  </way>
  <way id="16545673" version="6" timestamp="2012-01-15T16:04:36Z" uid="147510" user="woodpeck_fixbot" changeset="10398186">
    <nd ref="170702985"/>
    <nd ref="170716477"/>
    <tag k="highway" v="residential"/>
    <tag k="name" v="Burlington Street"/>
  </way>
  <way id="16545701" version="4" timestamp="2010-02-14T17:12:42Z" uid="74617" user="JohnSmith" changeset="3875836">
    <nd ref="170702991"/>
    <nd ref="170729686"/>
    <nd ref="170716478"/>
    <tag k="highway" v="residential"/>
    <tag k="maxspeed" v="50"/>
    <tag k="name" v="Clarendon Street"/>
  </way>
  <way id="16545701" version="5" timestamp="2012-01-15T16:04:37Z" uid="147510" user="woodpeck_fixbot" changeset="10398186">
    <nd ref="170702991"/>
    <nd ref="170729686"/>
    <nd ref="170716478"/>
    <tag k="highway" v="residential"/>
    <tag k="name" v="Clarendon Street"/>
  </way>
  <way id="16545826" version="3" timestamp="2010-02-14T17:12:43Z" uid="74617" user="JohnSmith" changeset="3875836">
    <nd ref="170702997"/>
    <nd ref="170716479"/>
    <tag k="highway" v="residential"/>
    <tag k="maxspeed" v="50"/>
    <tag k="name" v="Ashfield Street"/>
  </way>
  <way id="16545826" version="4" timestamp="2012-01-15T16:04:40Z" uid="147510" user="woodpeck_fixbot" changeset="10398186">
    <nd ref="170702997"/>
    <nd ref="170716479"/>
    <tag k="highway" v="residential"/>
    <tag k="name" v="Ashfield Street"/>
  </way>
  <way id="16545862" version="4" timestamp="2010-02-14T17:12:43Z" uid="74617" user="JohnSmith" changeset="3875836">
    <nd ref="170702998"/>
    <nd ref="170716481"/>
    <tag k="highway" v="residential"/>
    <tag k="maxspeed" v="50"/>
    <tag k="name" v="Barker Street"/>
  </way>
  <way id="16545862" version="5" timestamp="2012-01-15T16:04:41Z" uid="147510" user="woodpeck_fixbot" changeset="10398186">
    <nd ref="170702998"/>
    <nd ref="170716481"/>
    <tag k="highway" v="residential"/>
    <tag k="name" v="Barker Street"/>
  </way>
</osm>
