<?xml version='1.0' encoding='UTF-8'?>
<osm version="0.6" generator="libosmium/2.20.0">
  <way id="16610083" version="1" timestamp="2007-12-15T20:17:30Z" uid="8619" user="cetest" changeset="315890">
    <nd ref="171530734"/>
    <nd ref="171530740"/>
    <nd ref="171530746"/>
    <nd ref="171530750"/>
    <nd ref="171530757"/>
    <nd ref="171530759"/>
    <nd ref="171530734"/>
    <tag k="created_by" v="JOSM"/>
    <tag k="natural" v="water"/>
  </way>
  <way id="16610083" version="2" timestamp="2009-11-12T19:08:43Z" uid="133028" user="gvv" changeset="3100675"/>
  <way id="16610302" version="5" timestamp="2008-02-07T21:12:07Z" uid="1066" user="pavel" changeset="65978">
    <nd ref="7786349"/>
    <nd ref="171534549"/>
    <nd ref="171537678"/>
    <nd ref="7786121"/>
    <nd ref="7786099"/>
    <nd ref="246546410"/>
    <nd ref="246546408"/>
    <nd ref="59769955"/>
    <nd ref="260813"/>
    <tag k="created_by" v="Potlatch 0.5d"/>
    <tag k="highway" v="tertiary"/>
    <tag k="name" v="K cihelně"/>
  </way>
  <way id="16610302" version="6" timestamp="2009-03-14T13:16:37Z" uid="3516" user="BiIbo" changeset="804731">
    <nd ref="7786349"/>
    <nd ref="171534549"/>
    <nd ref="171537678"/>
    <nd ref="7786121"/>
    <nd ref="7786099"/>
    <nd ref="246546410"/>
    <nd ref="246546408"/>
    <nd ref="59769955"/>
    <nd ref="260813"/>
    <tag k="highway" v="tertiary"/>
    <tag k="name" v="K Cihelně"/>
  </way>
  <way id="16610302" version="7" timestamp="2009-04-05T14:58:42Z" uid="17615" user="Petr Dlouhý" changeset="211600">
    <nd ref="7786349"/>
    <nd ref="171534549"/>
    <nd ref="171537678"/>
    <nd ref="7786121"/>
    <nd ref="7786099"/>
    <nd ref="246546410"/>
    <nd ref="246546408"/>
    <nd ref="59769955"/>
    <nd ref="370041192"/>
    <tag k="highway" v="tertiary"/>
    <tag k="name" v="K Cihelně"/>
  </way>
  <way id="16610302" version="8" timestamp="2011-04-25T12:57:54Z" uid="3516" user="BiIbo" changeset="7961486">
    <nd ref="7786349"/>
    <nd ref="171534549"/>
    <nd ref="171537678"/>
    <nd ref="7786121"/>
    <nd ref="1259499658"/>
    <nd ref="7786099"/>
    <nd ref="1259499674"/>
    <nd ref="246546410"/>
    <nd ref="246546408"/>
    <nd ref="1259499684"/>
    <nd ref="1259499635"/>
    <nd ref="59769955"/>
    <nd ref="1259499660"/>
    <nd ref="1259499639"/>
    <nd ref="370041192"/>
    <tag k="highway" v="tertiary"/>
    <tag k="name" v="K Cihelně"/>
  </way>
  <way id="16610302" version="9" timestamp="2012-01-03T10:47:54Z" uid="576633" user="nily" changeset="10279880">
    <nd ref="7786349"/>
    <nd ref="171534549"/>
    <nd ref="171537678"/>
    <nd ref="7786121"/>
    <nd ref="1259499658"/>
    <nd ref="7786099"/>
    <nd ref="1259499674"/>
    <nd ref="246546410"/>
    <nd ref="246546408"/>
    <nd ref="1259499684"/>
    <nd ref="1259499635"/>
    <nd ref="59769955"/>
    <tag k="highway" v="tertiary"/>
    <tag k="name" v="K Cihelně"/>
  </way>
  <way id="16610667" version="2" timestamp="2008-02-25T07:05:47Z" uid="6975" user="ulfl" changeset="200530">
    <nd ref="171538390"/>
    <nd ref="12249778"/>
    <nd ref="249215087"/>
    <nd ref="24836321"/>
    <nd ref="12249777"/>
    <tag k="created_by" v="Potlatch 0.7b"/>
    <tag k="highway" v="motorway"/>
    <tag k="int_ref" v="E51"/>
    <tag k="oneway" v="yes"/>
    <tag k="ref" v="A9"/>
  </way>
  <way id="16610667" version="3" timestamp="2008-03-02T08:33:36Z" uid="9364" user="keichwa" changeset="250027">
    <nd ref="171538390"/>
    <nd ref="12249778"/>
    <nd ref="249215087"/>
    <nd ref="24836321"/>
    <nd ref="12249777"/>
    <tag k="created_by" v="Potlatch 0.7b"/>
    <tag k="highway" v="motorway"/>
    <tag k="int_ref" v="E51"/>
    <tag k="oneway" v="yes"/>
    <tag k="ref" v="A9"/>
  </way>
  <way id="16610667" version="4" timestamp="2008-03-25T21:28:45Z" uid="17099" user="matmai" changeset="392362">
    <nd ref="171538390"/>
    <nd ref="12249778"/>
    <nd ref="254003868"/>
    <nd ref="24836321"/>
    <nd ref="12249777"/>
    <tag k="created_by" v="Potlatch 0.7b"/>
    <tag k="highway" v="motorway"/>
    <tag k="int_ref" v="E51"/>
    <tag k="oneway" v="yes"/>
    <tag k="ref" v="A9"/>
  </way>
  <way id="16610667" version="5" timestamp="2008-04-09T20:19:13Z" uid="16268" user="MasterMG" changeset="96593">
    <nd ref="171538390"/>
    <nd ref="256609653"/>
    <nd ref="12249778"/>
    <nd ref="254003868"/>
    <nd ref="24836321"/>
    <nd ref="12249777"/>
    <nd ref="12249776"/>
    <nd ref="12249775"/>
    <nd ref="12249773"/>
    <tag k="created_by" v="JOSM"/>
    <tag k="highway" v="motorway"/>
    <tag k="int_ref" v="E51"/>
    <tag k="oneway" v="yes"/>
    <tag k="ref" v="A9"/>
  </way>
  <way id="16610667" version="6" timestamp="2008-07-14T00:00:03Z" uid="2675" user="Eckhart Wörner" changeset="485281">
    <nd ref="171538390"/>
    <nd ref="256609653"/>
    <nd ref="12249778"/>
    <nd ref="254003868"/>
    <nd ref="24836321"/>
    <nd ref="12249777"/>
    <nd ref="12249776"/>
    <nd ref="12249775"/>
    <nd ref="12249773"/>
    <tag k="created_by" v="JOSM"/>
    <tag k="highway" v="motorway"/>
    <tag k="int_ref" v="E51"/>
    <tag k="oneway" v="yes"/>
    <tag k="ref" v="A 9"/>
  </way>
  <way id="16610667" version="7" timestamp="2009-01-09T21:37:59Z" uid="35560" user="HeikoE" changeset="764862">
    <nd ref="171538390"/>
    <nd ref="256609653"/>
    <nd ref="12249778"/>
    <nd ref="254003868"/>
    <nd ref="24836321"/>
    <nd ref="12249777"/>
    <nd ref="12249776"/>
    <nd ref="12249775"/>
    <nd ref="12249773"/>
    <tag k="created_by" v="JOSM"/>
    <tag k="highway" v="motorway"/>
    <tag k="int_ref" v="E 51"/>
    <tag k="oneway" v="yes"/>
    <tag k="ref" v="A 9"/>
  </way>
  <way id="16610667" version="8" timestamp="2009-07-25T08:28:59Z" uid="67020" user="Nibbler" changeset="1931827">
    <nd ref="171538390"/>
    <nd ref="256609653"/>
    <nd ref="254003868"/>
    <nd ref="447750165"/>
    <nd ref="12249777"/>
    <nd ref="12249776"/>
    <nd ref="447750164"/>
    <nd ref="12249775"/>
    <nd ref="447750163"/>
    <nd ref="12249773"/>
    <tag k="highway" v="motorway"/>
    <tag k="int_ref" v="E 51"/>
    <tag k="oneway" v="yes"/>
    <tag k="ref" v="A 9"/>
  </way>
  <way id="16610667" version="9" timestamp="2009-10-02T15:11:26Z" uid="83876" user="BurnyB" changeset="2713805">
    <nd ref="171538390"/>
    <nd ref="256609653"/>
    <nd ref="254003868"/>
    <nd ref="447750165"/>
    <nd ref="12249777"/>
    <nd ref="12249776"/>
    <nd ref="447750164"/>
    <nd ref="12249775"/>
    <nd ref="447750163"/>
    <nd ref="12249773"/>
    <tag k="highway" v="motorway"/>
    <tag k="int_ref" v="E 51"/>
    <tag k="lanes" v="2"/>
    <tag k="oneway" v="yes"/>
    <tag k="ref" v="A 9"/>
  </way>
  <way id="16610667" version="10" timestamp="2009-10-02T15:20:29Z" uid="83876" user="BurnyB" changeset="2713924">
    <nd ref="171538390"/>
    <nd ref="171538396"/>
    <tag k="highway" v="motorway"/>
    <tag k="int_ref" v="E 51"/>
    <tag k="lanes" v="4"/>
    <tag k="oneway" v="yes"/>
    <tag k="ref" v="A 9"/>
  </way>
  <way id="16610667" version="11" timestamp="2011-08-22T23:53:46Z" uid="479256" user="geodreieck4711" changeset="9099349">
    <nd ref="171538390"/>
    <nd ref="171538396"/>
    <tag k="highway" v="motorway"/>
    <tag k="int_ref" v="E 51"/>
    <tag k="lanes" v="4"/>
    <tag k="maxspeed" v="signals"/>
    <tag k="oneway" v="yes"/>
    <tag k="ref" v="A 9"/>
  </way>
  <way id="16610667" version="12" timestamp="2011-10-07T16:33:41Z" uid="30077" user="ChristianW" changeset="9495509">
    <nd ref="171538390"/>
    <nd ref="171538396"/>
    <tag k="highway" v="motorway"/>
    <tag k="int_ref" v="E 51"/>
    <tag k="lanes" v="4"/>
    <tag k="lit" v="no"/>
    <tag k="maxspeed" v="signals"/>
    <tag k="oneway" v="yes"/>
    <tag k="ref" v="A 9"/>
    <tag k="source:lit" v="http://www.autobahn-bilder.de"/>
    <tag k="surface" v="asphalt"/>
  </way>
  <way id="16610667" version="13" timestamp="2011-12-01T23:42:08Z" uid="445671" user="flierfy" changeset="10013433">
    <nd ref="171538390"/>
    <nd ref="171538396"/>
    <tag k="highway" v="motorway"/>
    <tag k="int_ref" v="E 51"/>
    <tag k="lanes" v="3"/>
    <tag k="lit" v="no"/>
    <tag k="maxspeed" v="signals"/>
    <tag k="oneway" v="yes"/>
    <tag k="ref" v="A 9"/>
    <tag k="source:lit" v="http://www.autobahn-bilder.de"/>
    <tag k="surface" v="asphalt"/>
  </way>
  <way id="16610667" version="14" timestamp="2011-12-29T07:45:36Z" uid="82877" user="Wankmann" changeset="10232683"/>
  <way id="16610779" version="6" timestamp="2009-08-03T13:51:54Z" uid="4467" user="Rosscoe" changeset="2025703">
    <nd ref="171539823"/>
    <nd ref="27419766"/>
    <nd ref="158771402"/>
    <nd ref="158771403"/>
    <nd ref="27419767"/>
    <nd ref="27419768"/>
    <tag k="highway" v="primary"/>
    <tag k="maxspeed" v="80"/>
    <tag k="name" v="Erindale Drive"/>
  </way>
  <way id="16610779" version="7" timestamp="2010-03-29T20:28:51Z" uid="79144" user="John H" changeset="4271257">
    <nd ref="171539823"/>
    <nd ref="27419766"/>
    <nd ref="158771402"/>
    <nd ref="158771403"/>
    <nd ref="27419767"/>
    <nd ref="677736297"/>
    <nd ref="27419768"/>
    <tag k="highway" v="primary"/>
    <tag k="maxspeed" v="80"/>
    <tag k="name" v="Erindale Drive"/>
  </way>
  <way id="16610779" version="8" timestamp="2010-03-29T20:33:45Z" uid="79144" user="John H" changeset="4271315">
    <nd ref="171539823"/>
    <nd ref="677746115"/>
    <nd ref="27419766"/>
    <nd ref="158771402"/>
    <nd ref="158771403"/>
    <nd ref="27419767"/>
    <nd ref="677736297"/>
    <nd ref="27419768"/>
    <tag k="highway" v="primary"/>
    <tag k="maxspeed" v="80"/>
    <tag k="name" v="Erindale Drive"/>
  </way>
</osm>
