<?xml version='1.0' encoding='UTF-8'?>
<osm version="0.6" generator="libosmium/2.20.0">
  <way id="16654033" version="3" timestamp="2009-07-27T03:43:46Z" uid="74617" user="JohnSmith" changeset="1951118">
    <nd ref="324952699"/>
    <nd ref="324952689"/>
    <nd ref="324952680"/>
    <nd ref="324952660"/>
    <nd ref="324952637"/>
    <nd ref="324952628"/>
    <tag k="foot" v="yes"/>
    <tag k="highway" v="cycleway"/>
  </way>
  <way id="16654033" version="4" timestamp="2010-12-08T12:11:21Z" uid="4481" user="Leigh" changeset="6584348">
    <nd ref="324952699"/>
    <nd ref="324952689"/>
    <nd ref="324952680"/>
    <nd ref="324952660"/>
    <nd ref="324952637"/>
    <nd ref="324952628"/>
    <tag k="bicycle" v="designated"/>
    <tag k="foot" v="designated"/>
    <tag k="highway" v="path"/>
    <tag k="segregated" v="no"/>
  </way>
  <way id="16654208" version="1" timestamp="2007-12-16T01:47:31Z" uid="7617" user="Franc" changeset="319298">
    <nd ref="28360444"/>
    <nd ref="28360445"/>
    <nd ref="28360446"/>
    <nd ref="28360423"/>
    <tag k="created_by" v="Potlatch alpha"/>
    <tag k="highway" v="secondary"/>
    <tag k="name" v="Warialda Street"/>
  </way>
  <way id="16654208" version="2" timestamp="2008-08-24T00:57:07Z" uid="7617" user="Franc" changeset="384033">
    <nd ref="28360444"/>
    <nd ref="28360445"/>
    <nd ref="28360423"/>
    <tag k="created_by" v="Potlatch alpha"/>
    <tag k="highway" v="secondary"/>
    <tag k="name" v="Warialda Street"/>
  </way>
  <way id="16654208" version="3" timestamp="2010-08-13T10:47:59Z" uid="7617" user="Franc" changeset="5480723">
    <nd ref="28360444"/>
    <nd ref="858323845"/>
    <nd ref="28360445"/>
    <nd ref="858323843"/>
    <nd ref="28360423"/>
    <tag k="highway" v="secondary"/>
    <tag k="name" v="Warialda Street"/>
  </way>
  <way id="16654211" version="1" timestamp="2007-12-16T01:47:32Z" uid="7617" user="Franc" changeset="319298">
    <nd ref="30188217"/>
    <nd ref="172033200"/>
    <tag k="created_by" v="JOSM"/>
    <tag k="highway" v="service"/>
    <tag k="name" v="Dexter Lane"/>
    <tag k="source" v="survey"/>
  </way>
  <way id="16654211" version="2" timestamp="2012-03-08T05:57:09Z" uid="7523" user="inas" changeset="10906275">
    <nd ref="30188217"/>
    <nd ref="172033200"/>
    <tag k="highway" v="service"/>
    <tag k="name" v="Dexter Lane"/>
    <tag k="source" v="survey"/>
  </way>
  <way id="16654214" version="1" timestamp="2007-12-16T01:47:33Z" uid="7617" user="Franc" changeset="319298">
    <nd ref="35365039"/>
    <nd ref="35365029"/>
    <nd ref="35365030"/>
    <tag k="created_by" v="Potlatch alpha"/>
    <tag k="highway" v="residential"/>
    <tag k="name" v="Abercorn Street"/>
    <tag k="source:name" v="survey"/>
  </way>
  <way id="16654214" version="2" timestamp="2007-12-16T01:53:18Z" uid="7617" user="Franc" changeset="319298">
    <nd ref="35365028"/>
    <nd ref="35365039"/>
    <nd ref="35365029"/>
    <nd ref="35365030"/>
    <tag k="created_by" v="Potlatch alpha"/>
    <tag k="highway" v="residential"/>
    <tag k="name" v="Abercorn Street"/>
    <tag k="source:name" v="survey"/>
  </way>
  <way id="16654214" version="3" timestamp="2008-01-13T00:40:23Z" uid="7617" user="Franc" changeset="617681">
    <nd ref="35365028"/>
    <nd ref="222032135"/>
    <nd ref="35365039"/>
    <nd ref="35365029"/>
    <nd ref="35365030"/>
    <tag k="created_by" v="Potlatch alpha"/>
    <tag k="highway" v="residential"/>
    <tag k="name" v="Abercorn Street"/>
    <tag k="source:name" v="survey"/>
  </way>
  <way id="16654214" version="4" timestamp="2008-03-03T07:03:18Z" uid="7617" user="Franc" changeset="257791">
    <nd ref="35365028"/>
    <nd ref="222032135"/>
    <nd ref="250280901"/>
    <nd ref="35365039"/>
    <nd ref="35365029"/>
    <nd ref="35365030"/>
    <tag k="created_by" v="Potlatch alpha"/>
    <tag k="highway" v="residential"/>
    <tag k="name" v="Abercorn Street"/>
    <tag k="source:name" v="survey"/>
  </way>
  <way id="16654214" version="5" timestamp="2010-01-04T02:48:53Z" uid="7617" user="Franc" changeset="3534455">
    <nd ref="35365028"/>
    <nd ref="222032135"/>
    <nd ref="250280901"/>
    <nd ref="604108279"/>
    <nd ref="35365039"/>
    <nd ref="35365029"/>
    <nd ref="35365030"/>
    <tag k="highway" v="residential"/>
    <tag k="name" v="Abercorn Street"/>
    <tag k="source:name" v="survey"/>
  </way>
  <way id="16654214" version="6" timestamp="2010-01-25T09:26:18Z" uid="7617" user="Franc" changeset="3709079">
    <nd ref="35365028"/>
    <nd ref="222032135"/>
    <tag k="highway" v="residential"/>
    <tag k="name" v="Abercorn Street"/>
    <tag k="source:name" v="survey"/>
  </way>
  <way id="16654214" version="7" timestamp="2010-07-08T02:13:04Z" uid="74617" user="JohnSmith" changeset="5162525">
    <nd ref="35365028"/>
    <nd ref="222032135"/>
    <tag k="highway" v="residential"/>
    <tag k="maxspeed" v="50"/>
    <tag k="maxspeed:source" v="default residential speed limit in Australia"/>
    <tag k="name" v="Abercorn Street"/>
    <tag k="source:name" v="survey"/>
  </way>
  <way id="16654214" version="8" timestamp="2012-01-15T16:15:54Z" uid="147510" user="woodpeck_fixbot" changeset="10398186">
    <nd ref="35365028"/>
    <nd ref="222032135"/>
    <tag k="highway" v="residential"/>
    <tag k="name" v="Abercorn Street"/>
    <tag k="source:name" v="survey"/>
  </way>
  <way id="16654217" version="1" timestamp="2007-12-16T01:47:34Z" uid="7617" user="Franc" changeset="319298">
    <nd ref="172033255"/>
    <nd ref="35364898"/>
    <tag k="created_by" v="Potlatch alpha"/>
    <tag k="highway" v="residential"/>
    <tag k="name" v="Smith Street"/>
    <tag k="source" v="survey"/>
  </way>
  <way id="16654217" version="2" timestamp="2010-07-08T02:12:50Z" uid="74617" user="JohnSmith" changeset="5162525">
    <nd ref="172033255"/>
    <nd ref="35364898"/>
    <tag k="highway" v="residential"/>
    <tag k="maxspeed" v="50"/>
    <tag k="maxspeed:source" v="default residential speed limit in Australia"/>
    <tag k="name" v="Smith Street"/>
    <tag k="source" v="survey"/>
  </way>
  <way id="16654217" version="3" timestamp="2012-01-15T16:15:56Z" uid="147510" user="woodpeck_fixbot" changeset="10398186">
    <nd ref="172033255"/>
    <nd ref="35364898"/>
    <tag k="highway" v="residential"/>
    <tag k="name" v="Smith Street"/>
    <tag k="source" v="survey"/>
  </way>
  <way id="16654219" version="1" timestamp="2007-12-16T01:47:34Z" uid="7617" user="Franc" changeset="319298">
    <nd ref="172033309"/>
    <nd ref="172033332"/>
    <nd ref="172033361"/>
    <nd ref="172033387"/>
    <nd ref="172033406"/>
    <nd ref="172033432"/>
    <nd ref="172033461"/>
    <nd ref="172033476"/>
    <nd ref="172033495"/>
    <nd ref="172033524"/>
    <nd ref="172033547"/>
    <nd ref="172033565"/>
    <nd ref="172033309"/>
    <tag k="created_by" v="JOSM"/>
    <tag k="leisure" v="park"/>
  </way>
  <way id="16654219" version="2" timestamp="2010-01-04T02:48:51Z" uid="7617" user="Franc" changeset="3534455">
    <nd ref="172033309"/>
    <nd ref="604108289"/>
    <nd ref="604108290"/>
    <nd ref="172033332"/>
    <nd ref="172033361"/>
    <nd ref="172033387"/>
    <nd ref="172033406"/>
    <nd ref="172033432"/>
    <nd ref="172033461"/>
    <nd ref="172033476"/>
    <nd ref="172033495"/>
    <nd ref="172033524"/>
    <nd ref="172033547"/>
    <nd ref="604108288"/>
    <nd ref="604108287"/>
    <nd ref="172033565"/>
    <nd ref="172033309"/>
    <tag k="leisure" v="park"/>
  </way>
  <way id="16654219" version="3" timestamp="2010-09-19T11:20:57Z" uid="7617" user="Franc" changeset="5818777">
    <nd ref="172033309"/>
    <nd ref="604108289"/>
    <nd ref="604108290"/>
    <nd ref="172033332"/>
    <nd ref="172033361"/>
    <nd ref="172033387"/>
    <nd ref="172033406"/>
    <nd ref="172033432"/>
    <nd ref="172033461"/>
    <nd ref="172033476"/>
    <nd ref="172033495"/>
    <nd ref="172033524"/>
    <nd ref="172033547"/>
    <nd ref="918176176"/>
    <nd ref="604108288"/>
    <nd ref="604108287"/>
    <nd ref="172033565"/>
    <nd ref="172033309"/>
    <tag k="leisure" v="park"/>
  </way>
  <way id="16654222" version="1" timestamp="2007-12-16T01:47:35Z" uid="7617" user="Franc" changeset="319298">
    <nd ref="172033596"/>
    <nd ref="35365053"/>
    <nd ref="35365054"/>
    <nd ref="35365055"/>
    <tag k="created_by" v="Potlatch alpha"/>
    <tag k="highway" v="residential"/>
    <tag k="name" v="Ascot Street"/>
    <tag k="source" v="survey"/>
  </way>
  <way id="16654222" version="2" timestamp="2010-01-25T09:26:17Z" uid="7617" user="Franc" changeset="3709079">
    <nd ref="172033596"/>
    <nd ref="35365053"/>
    <nd ref="35365055"/>
    <tag k="highway" v="residential"/>
    <tag k="name" v="Ascot Street"/>
    <tag k="source" v="survey"/>
  </way>
  <way id="16654222" version="3" timestamp="2010-07-08T02:08:56Z" uid="74617" user="JohnSmith" changeset="5162525">
    <nd ref="172033596"/>
    <nd ref="35365053"/>
    <nd ref="35365055"/>
    <tag k="highway" v="residential"/>
    <tag k="maxspeed" v="50"/>
    <tag k="maxspeed:source" v="default residential speed limit in Australia"/>
    <tag k="name" v="Ascot Street"/>
    <tag k="source" v="survey"/>
  </way>
  <way id="16654222" version="4" timestamp="2012-01-15T16:15:58Z" uid="147510" user="woodpeck_fixbot" changeset="10398186">
    <nd ref="172033596"/>
    <nd ref="35365053"/>
    <nd ref="35365055"/>
    <tag k="highway" v="residential"/>
    <tag k="name" v="Ascot Street"/>
    <tag k="source" v="survey"/>
  </way>
  <way id="16654224" version="1" timestamp="2007-12-16T01:47:36Z" uid="7617" user="Franc" changeset="319298">
    <nd ref="172033618"/>
    <nd ref="172033629"/>
    <nd ref="35365047"/>
    <tag k="created_by" v="JOSM"/>
    <tag k="highway" v="service"/>
    <tag k="name" v="Harding Lane"/>
    <tag k="source" v="survey"/>
  </way>
  <way id="16654224" version="2" timestamp="2007-12-18T12:10:11Z" uid="7617" user="Franc" changeset="352342">
    <nd ref="172033618"/>
    <nd ref="172033629"/>
    <nd ref="35365047"/>
    <tag k="created_by" v="JOSM"/>
    <tag k="highway" v="service"/>
    <tag k="name" v="Harding Lane"/>
    <tag k="source" v="survey"/>
  </way>
  <way id="16654224" version="3" timestamp="2012-03-08T05:57:22Z" uid="7523" user="inas" changeset="10906275">
    <nd ref="172033618"/>
    <nd ref="172033629"/>
    <nd ref="35365047"/>
    <tag k="highway" v="service"/>
    <tag k="name" v="Harding Lane"/>
    <tag k="source" v="survey"/>
  </way>
  <way id="16654227" version="1" timestamp="2007-12-16T01:47:37Z" uid="7617" user="Franc" changeset="319298">
    <nd ref="172033709"/>
    <nd ref="172033682"/>
    <tag k="created_by" v="JOSM"/>
    <tag k="highway" v="service"/>
    <tag k="name" v="Gibbon Lane"/>
    <tag k="source" v="survey"/>
  </way>
  <way id="16654227" version="2" timestamp="2012-03-08T05:57:18Z" uid="7523" user="inas" changeset="10906275">
    <nd ref="172033709"/>
    <nd ref="172033682"/>
    <tag k="highway" v="service"/>
    <tag k="name" v="Gibbon Lane"/>
    <tag k="source" v="survey"/>
  </way>
  <way id="16654229" version="1" timestamp="2007-12-16T01:47:38Z" uid="7617" user="Franc" changeset="319298">
    <nd ref="31293684"/>
    <nd ref="31293683"/>
    <tag k="created_by" v="JOSM"/>
    <tag k="highway" v="unclassified"/>
    <tag k="source" v="survey"/>
  </way>
  <way id="16654229" version="2" timestamp="2008-03-03T07:24:57Z" uid="7617" user="Franc" changeset="257791">
    <nd ref="31293680"/>
    <nd ref="31293684"/>
    <nd ref="31293683"/>
    <nd ref="31293679"/>
    <tag k="created_by" v="JOSM"/>
    <tag k="highway" v="unclassified"/>
    <tag k="name" v="Argyle Street"/>
    <tag k="source" v="survey"/>
  </way>
  <way id="16654229" version="3" timestamp="2012-03-08T05:56:38Z" uid="7523" user="inas" changeset="10906275">
    <nd ref="31293680"/>
    <nd ref="31293684"/>
    <nd ref="31293683"/>
    <nd ref="31293679"/>
    <tag k="highway" v="unclassified"/>
    <tag k="name" v="Argyle Street"/>
    <tag k="source" v="survey"/>
  </way>
  <way id="16654232" version="1" timestamp="2007-12-16T01:47:38Z" uid="7617" user="Franc" changeset="319298">
    <nd ref="31293683"/>
    <nd ref="31293679"/>
    <tag k="created_by" v="JOSM"/>
    <tag k="highway" v="unclassified"/>
    <tag k="source" v="survey"/>
  </way>
  <way id="16654232" version="2" timestamp="2008-03-03T07:25:01Z" uid="7617" user="Franc" changeset="257791"/>
  <way id="16654236" version="1" timestamp="2007-12-16T01:47:39Z" uid="7617" user="Franc" changeset="319298">
    <nd ref="31293680"/>
    <nd ref="31293684"/>
    <tag k="created_by" v="JOSM"/>
    <tag k="highway" v="unclassified"/>
    <tag k="source" v="Yahoo Imagery"/>
  </way>
  <way id="16654236" version="2" timestamp="2008-03-03T07:25:00Z" uid="7617" user="Franc" changeset="257791"/>
  <way id="16654966" version="7" timestamp="2009-08-03T13:38:42Z" uid="4467" user="Rosscoe" changeset="2025590">
    <nd ref="172046443"/>
    <nd ref="172057823"/>
    <nd ref="172046444"/>
    <nd ref="172046445"/>
    <nd ref="172046447"/>
    <nd ref="172046448"/>
    <nd ref="172046450"/>
    <nd ref="172046451"/>
    <nd ref="172046453"/>
    <nd ref="172046454"/>
    <nd ref="172046456"/>
    <nd ref="172046457"/>
    <nd ref="172046458"/>
    <nd ref="172047638"/>
    <nd ref="172046443"/>
    <tag k="direction" v="clockwise"/>
    <tag k="highway" v="trunk"/>
    <tag k="junction" v="roundabout"/>
    <tag k="name" v="Pautahanui Roundabout"/>
    <tag k="ref" v="SH58"/>
  </way>
  <way id="16654966" version="8" timestamp="2010-01-10T07:41:37Z" uid="21778" user="Andrew McMillan" changeset="3584452">
    <nd ref="172046443"/>
    <nd ref="172057823"/>
    <nd ref="172046444"/>
    <nd ref="172046445"/>
    <nd ref="172046447"/>
    <nd ref="172046448"/>
    <nd ref="172046450"/>
    <nd ref="172046451"/>
    <nd ref="172046453"/>
    <nd ref="172046454"/>
    <nd ref="172046456"/>
    <nd ref="172046457"/>
    <nd ref="172046458"/>
    <nd ref="172047638"/>
    <nd ref="172046443"/>
    <tag k="direction" v="clockwise"/>
    <tag k="highway" v="primary"/>
    <tag k="junction" v="roundabout"/>
    <tag k="name" v="Pautahanui Roundabout"/>
    <tag k="oneway" v="yes"/>
    <tag k="ref" v="58"/>
  </way>
  <way id="16654966" version="9" timestamp="2010-10-30T13:31:38Z" uid="341519" user="lcmortensen" changeset="6227661">
    <nd ref="172046443"/>
    <nd ref="172057823"/>
    <nd ref="172046444"/>
    <nd ref="172046445"/>
    <nd ref="172046447"/>
    <nd ref="172046448"/>
    <nd ref="172046450"/>
    <nd ref="172046451"/>
    <nd ref="172046453"/>
    <nd ref="172046454"/>
    <nd ref="172046456"/>
    <nd ref="172046457"/>
    <nd ref="172046458"/>
    <nd ref="172047638"/>
    <nd ref="172046443"/>
    <tag k="direction" v="clockwise"/>
    <tag k="highway" v="trunk"/>
    <tag k="junction" v="roundabout"/>
    <tag k="name" v="Pautahanui Roundabout"/>
    <tag k="oneway" v="yes"/>
    <tag k="ref" v="58"/>
  </way>
  <way id="16654966" version="10" timestamp="2012-03-30T06:42:58Z" uid="341519" user="lcmortensen" changeset="11147495">
    <nd ref="172046443"/>
    <nd ref="172057823"/>
    <nd ref="172046444"/>
    <nd ref="172046445"/>
    <nd ref="172046447"/>
    <nd ref="172046448"/>
    <nd ref="172046450"/>
    <nd ref="172046451"/>
    <nd ref="172046453"/>
    <nd ref="172046454"/>
    <nd ref="172046456"/>
    <nd ref="172046457"/>
    <nd ref="172046458"/>
    <nd ref="172047638"/>
    <nd ref="172046443"/>
    <tag k="direction" v="clockwise"/>
    <tag k="highway" v="trunk"/>
    <tag k="junction" v="roundabout"/>
    <tag k="lanes" v="1"/>
    <tag k="maxspeed" v="80"/>
    <tag k="name" v="Pautahanui Roundabout"/>
    <tag k="oneway" v="yes"/>
    <tag k="ref" v="SH 58"/>
  </way>
  <way id="16654208" version="4" timestamp="2012-07-20T02:48:50Z" uid="722137" user="OSMF Redaction Account" changeset="12358665"/>
  <way id="16654211" version="3" timestamp="2012-07-20T02:48:55Z" uid="722137" user="OSMF Redaction Account" changeset="12358665"/>
  <way id="16654214" version="9" timestamp="2012-07-20T08:37:02Z" uid="722137" user="OSMF Redaction Account" changeset="12368532"/>
  <way id="16654217" version="4" timestamp="2012-07-15T20:52:18Z" uid="713671" user="auspod" changeset="12235871">
    <nd ref="172033255"/>
    <nd ref="1826925346"/>
    <tag k="highway" v="residential"/>
    <tag k="name" v="Smith Street"/>
    <tag k="source" v="survey"/>
  </way>
  <way id="16654217" version="5" timestamp="2012-07-20T08:37:06Z" uid="722137" user="OSMF Redaction Account" changeset="12368532"/>
  <way id="16654219" version="4" timestamp="2012-06-20T01:31:42Z" uid="7523" user="inas" changeset="11954178"/>
  <way id="16654222" version="5" timestamp="2012-07-20T08:37:07Z" uid="722137" user="OSMF Redaction Account" changeset="12368532"/>
  <way id="16654224" version="4" timestamp="2012-07-20T08:37:09Z" uid="722137" user="OSMF Redaction Account" changeset="12368532"/>
  <way id="16654227" version="3" timestamp="2012-07-15T20:52:19Z" uid="713671" user="auspod" changeset="12235871">
    <nd ref="172033709"/>
    <nd ref="1826925577"/>
    <tag k="highway" v="service"/>
    <tag k="name" v="Gibbon Lane"/>
    <tag k="source" v="survey"/>
  </way>
  <way id="16654227" version="4" timestamp="2012-07-20T02:49:08Z" uid="722137" user="OSMF Redaction Account" changeset="12358665"/>
  <way id="16654229" version="4" timestamp="2012-07-15T20:52:19Z" uid="713671" user="auspod" changeset="12235871">
    <nd ref="1826924937"/>
    <nd ref="1826925144"/>
    <nd ref="31293683"/>
    <nd ref="31293679"/>
    <tag k="highway" v="unclassified"/>
    <tag k="name" v="Argyle Street"/>
    <tag k="source" v="survey"/>
  </way>
  <way id="16654229" version="5" timestamp="2012-07-20T02:43:31Z" uid="722137" user="OSMF Redaction Account" changeset="12358498">
    <nd ref="1826924937"/>
    <nd ref="1826925144"/>
  </way>
  <way id="16654229" version="6" timestamp="2012-07-25T10:19:15Z" uid="462898" user="Alexander Wilms" changeset="12484751">
    <nd ref="1826924937"/>
    <nd ref="1826925144"/>
    <tag k="highway" v="residential"/>
  </way>
</osm>
