<?xml version='1.0' encoding='UTF-8'?>
<osm version="0.6" generator="libosmium/2.20.0">
  <way id="16665041" version="1" timestamp="2007-12-16T03:25:55Z" uid="7617" user="Franc" changeset="319733">
    <nd ref="164027848"/>
    <nd ref="10285249"/>
    <nd ref="32921777"/>
    <nd ref="33164721"/>
    <nd ref="20152922"/>
    <nd ref="33165292"/>
    <nd ref="20152918"/>
    <tag k="created_by" v="Potlatch alpha"/>
    <tag k="highway" v="secondary"/>
    <tag k="name" v="Collins Street"/>
    <tag k="source:name" v="DOL 1939"/>
    <tag k="source_ref" v="http://www.sl.nsw.gov.au/online/maps.cfm"/>
  </way>
  <way id="16665041" version="2" timestamp="2008-05-27T20:35:42Z" uid="20949" user="Ebenezer" changeset="534640">
    <nd ref="164027848"/>
    <nd ref="10285249"/>
    <nd ref="32921777"/>
    <nd ref="33164721"/>
    <nd ref="20152922"/>
    <nd ref="33165292"/>
    <nd ref="20152918"/>
    <tag k="created_by" v="Potlatch 0.9b"/>
    <tag k="highway" v="secondary"/>
    <tag k="lcn" v="yes"/>
    <tag k="name" v="Collins Street"/>
    <tag k="source" v="survey"/>
    <tag k="source:name" v="DOL 1939"/>
    <tag k="source_ref" v="http://www.sl.nsw.gov.au/online/maps.cfm"/>
  </way>
  <way id="16665041" version="3" timestamp="2010-01-04T22:16:31Z" uid="30201" user="rrankin" changeset="3541562">
    <nd ref="164027848"/>
    <nd ref="10285249"/>
    <nd ref="32921777"/>
    <nd ref="33164721"/>
    <nd ref="605032372"/>
    <tag k="highway" v="secondary"/>
    <tag k="lcn" v="yes"/>
    <tag k="name" v="Collins Street"/>
    <tag k="source" v="survey"/>
    <tag k="source:name" v="DOL 1939"/>
    <tag k="source_ref" v="http://www.sl.nsw.gov.au/online/maps.cfm"/>
  </way>
  <way id="16665060" version="5" timestamp="2010-07-07T22:15:19Z" uid="74617" user="JohnSmith" changeset="5161069">
    <nd ref="172206117"/>
    <nd ref="172206179"/>
    <nd ref="172206140"/>
    <nd ref="33219289"/>
    <tag k="highway" v="residential"/>
    <tag k="lcn" v="yes"/>
    <tag k="maxspeed" v="50"/>
    <tag k="maxspeed:source" v="default residential speed limit in Australia"/>
    <tag k="name" v="Caroline Street"/>
  </way>
  <way id="16665060" version="6" timestamp="2012-01-15T16:16:14Z" uid="147510" user="woodpeck_fixbot" changeset="10398186">
    <nd ref="172206117"/>
    <nd ref="172206179"/>
    <nd ref="172206140"/>
    <nd ref="33219289"/>
    <tag k="highway" v="residential"/>
    <tag k="lcn" v="yes"/>
    <tag k="name" v="Caroline Street"/>
  </way>
  <way id="16665064" version="6" timestamp="2010-07-07T22:15:39Z" uid="74617" user="JohnSmith" changeset="5161069">
    <nd ref="172206140"/>
    <nd ref="172300113"/>
    <nd ref="172206156"/>
    <tag k="highway" v="residential"/>
    <tag k="maxspeed" v="50"/>
    <tag k="maxspeed:source" v="default residential speed limit in Australia"/>
    <tag k="name" v="Caroline Lane"/>
  </way>
  <way id="16665064" version="7" timestamp="2012-01-15T16:16:18Z" uid="147510" user="woodpeck_fixbot" changeset="10398186">
    <nd ref="172206140"/>
    <nd ref="172300113"/>
    <nd ref="172206156"/>
    <tag k="highway" v="residential"/>
    <tag k="name" v="Caroline Lane"/>
  </way>
  <way id="16665066" version="3" timestamp="2011-04-03T07:49:56Z" uid="7617" user="Franc" changeset="7750988">
    <nd ref="172206179"/>
    <nd ref="172206194"/>
    <tag k="fixme:sign:no" v="2011-04-02"/>
    <tag k="highway" v="service"/>
  </way>
  <way id="16665348" version="2" timestamp="2009-11-08T05:07:33Z" uid="7617" user="Franc" changeset="3060901"/>
  <way id="16665402" version="1" timestamp="2007-12-16T03:31:19Z" uid="7617" user="Franc" changeset="319733">
    <nd ref="172213334"/>
    <nd ref="172213347"/>
    <tag k="created_by" v="JOSM"/>
    <tag k="highway" v="unclassified"/>
    <tag k="source" v="Yahoo Imagery"/>
  </way>
  <way id="16665402" version="2" timestamp="2009-11-14T12:13:59Z" uid="117890" user="Jonathan Trott" changeset="3112508">
    <nd ref="172213334"/>
    <nd ref="172213347"/>
    <tag k="highway" v="unclassified"/>
    <tag k="source" v="Yahoo Imagery"/>
  </way>
  <way id="16665402" version="3" timestamp="2010-04-13T12:36:02Z" uid="7617" user="Franc" changeset="4413359">
    <nd ref="172213334"/>
    <nd ref="172213347"/>
    <tag k="highway" v="unclassified"/>
    <tag k="source" v="nearmap"/>
  </way>
  <way id="16665402" version="4" timestamp="2010-04-15T12:55:37Z" uid="7617" user="Franc" changeset="4430672">
    <nd ref="172213334"/>
    <nd ref="172213347"/>
    <tag k="highway" v="unclassified"/>
    <tag k="name" v="Cuthbert Street"/>
    <tag k="source" v="nearmap"/>
    <tag k="source:name" v="survey"/>
  </way>
  <way id="16665448" version="5" timestamp="2010-07-07T22:15:35Z" uid="74617" user="JohnSmith" changeset="5161069">
    <nd ref="172214533"/>
    <nd ref="172214550"/>
    <nd ref="26410175"/>
    <tag k="highway" v="residential"/>
    <tag k="lcn" v="yes"/>
    <tag k="maxspeed" v="50"/>
    <tag k="maxspeed:source" v="default residential speed limit in Australia"/>
    <tag k="name" v="Wells Street"/>
  </way>
  <way id="16665448" version="6" timestamp="2010-10-23T09:59:53Z" uid="7617" user="Franc" changeset="6143418">
    <nd ref="172214533"/>
    <nd ref="961354142"/>
    <tag k="highway" v="residential"/>
    <tag k="lcn" v="yes"/>
    <tag k="maxspeed" v="50"/>
    <tag k="maxspeed:source" v="default residential speed limit in Australia"/>
    <tag k="name" v="Wells Street"/>
  </way>
  <way id="16665448" version="7" timestamp="2012-01-15T16:16:21Z" uid="147510" user="woodpeck_fixbot" changeset="10398186">
    <nd ref="172214533"/>
    <nd ref="961354142"/>
    <tag k="highway" v="residential"/>
    <tag k="lcn" v="yes"/>
    <tag k="name" v="Wells Street"/>
  </way>
  <way id="16665449" version="4" timestamp="2010-07-07T22:15:51Z" uid="74617" user="JohnSmith" changeset="5161069">
    <nd ref="172214568"/>
    <nd ref="172199714"/>
    <tag k="highway" v="residential"/>
    <tag k="maxspeed" v="50"/>
    <tag k="maxspeed:source" v="default residential speed limit in Australia"/>
    <tag k="name" v="Alexander Street"/>
  </way>
  <way id="16665449" version="5" timestamp="2012-01-15T16:16:23Z" uid="147510" user="woodpeck_fixbot" changeset="10398186">
    <nd ref="172214568"/>
    <nd ref="172199714"/>
    <tag k="highway" v="residential"/>
    <tag k="name" v="Alexander Street"/>
  </way>
  <way id="16665765" version="2" timestamp="2010-07-09T05:57:55Z" uid="74617" user="JohnSmith" changeset="5171128">
    <nd ref="29821724"/>
    <nd ref="29821739"/>
    <tag k="highway" v="residential"/>
    <tag k="maxspeed" v="50"/>
    <tag k="maxspeed:source" v="default residential speed limit in Australia"/>
    <tag k="name" v="Airlie Circuit"/>
  </way>
  <way id="16665765" version="3" timestamp="2012-01-15T16:16:26Z" uid="147510" user="woodpeck_fixbot" changeset="10398186">
    <nd ref="29821724"/>
    <nd ref="29821739"/>
    <tag k="highway" v="residential"/>
    <tag k="name" v="Airlie Circuit"/>
  </way>
  <way id="16665041" version="4" timestamp="2012-06-07T07:26:10Z" uid="20949" user="Ebenezer" changeset="11822407"/>
  <way id="16665060" version="7" timestamp="2012-07-19T23:08:12Z" uid="722137" user="OSMF Redaction Account" changeset="12351287">
    <nd ref="172206117"/>
    <nd ref="172206179"/>
    <nd ref="172206140"/>
    <tag k="highway" v="residential"/>
    <tag k="lcn" v="yes"/>
    <tag k="name" v="Caroline Street"/>
  </way>
  <way id="16665066" version="4" timestamp="2012-07-19T23:09:09Z" uid="722137" user="OSMF Redaction Account" changeset="12351313">
    <nd ref="172206179"/>
    <nd ref="172206194"/>
    <tag k="highway" v="service"/>
  </way>
  <way id="16665402" version="5" timestamp="2012-07-19T21:40:57Z" uid="722137" user="OSMF Redaction Account" changeset="12348758"/>
  <way id="16665448" version="8" timestamp="2012-07-19T23:15:02Z" uid="722137" user="OSMF Redaction Account" changeset="12351408"/>
</osm>
