<?xml version='1.0' encoding='UTF-8'?>
<osm version="0.6" generator="libosmium/2.20.0">
  <way id="16700493" version="2" timestamp="2010-07-08T09:19:19Z" uid="74617" user="JohnSmith" changeset="5164427">
    <nd ref="60689073"/>
    <nd ref="172652043"/>
    <nd ref="172652063"/>
    <nd ref="172652085"/>
    <nd ref="172652110"/>
    <nd ref="172652632"/>
    <nd ref="172652127"/>
    <nd ref="172652139"/>
    <nd ref="172652155"/>
    <nd ref="172652167"/>
    <nd ref="172652184"/>
    <nd ref="172652202"/>
    <nd ref="170777541"/>
    <tag k="highway" v="residential"/>
    <tag k="maxspeed" v="50"/>
    <tag k="maxspeed:source" v="default residential speed limit in Australia"/>
    <tag k="name" v="North Street"/>
    <tag k="source" v="survey"/>
  </way>
  <way id="16700493" version="3" timestamp="2012-01-15T16:19:40Z" uid="147510" user="woodpeck_fixbot" changeset="10398186">
    <nd ref="60689073"/>
    <nd ref="172652043"/>
    <nd ref="172652063"/>
    <nd ref="172652085"/>
    <nd ref="172652110"/>
    <nd ref="172652632"/>
    <nd ref="172652127"/>
    <nd ref="172652139"/>
    <nd ref="172652155"/>
    <nd ref="172652167"/>
    <nd ref="172652184"/>
    <nd ref="172652202"/>
    <nd ref="170777541"/>
    <tag k="highway" v="residential"/>
    <tag k="name" v="North Street"/>
    <tag k="source" v="survey"/>
  </way>
  <way id="16700496" version="2" timestamp="2008-06-21T13:28:46Z" uid="4467" user="Rosscoe" changeset="246542">
    <nd ref="172652202"/>
    <nd ref="172652211"/>
    <tag k="created_by" v="JOSM"/>
    <tag k="highway" v="service"/>
    <tag k="name" v="Quay Lane"/>
    <tag k="source" v="survey"/>
  </way>
  <way id="16700496" version="3" timestamp="2008-10-14T09:24:48Z" uid="10414" user="Dooghan" changeset="330197">
    <nd ref="172652202"/>
    <nd ref="304513491"/>
    <tag k="created_by" v="JOSM"/>
    <tag k="highway" v="service"/>
    <tag k="name" v="Quay Lane"/>
    <tag k="source" v="survey"/>
  </way>
  <way id="16700500" version="2" timestamp="2009-06-28T00:23:06Z" uid="4467" user="Rosscoe" changeset="1656004">
    <nd ref="172652184"/>
    <nd ref="60482672"/>
    <tag k="created_by" v="JOSM"/>
    <tag k="highway" v="tertiary"/>
    <tag k="name" v="Bolsover Street"/>
    <tag k="source" v="survey"/>
  </way>
  <way id="16700507" version="2" timestamp="2010-07-08T09:21:57Z" uid="74617" user="JohnSmith" changeset="5164427">
    <nd ref="172652155"/>
    <nd ref="172652238"/>
    <tag k="highway" v="residential"/>
    <tag k="maxspeed" v="50"/>
    <tag k="maxspeed:source" v="default residential speed limit in Australia"/>
    <tag k="name" v="Alma Street"/>
    <tag k="source" v="survey"/>
  </way>
  <way id="16700507" version="3" timestamp="2012-01-15T16:19:43Z" uid="147510" user="woodpeck_fixbot" changeset="10398186">
    <nd ref="172652155"/>
    <nd ref="172652238"/>
    <tag k="highway" v="residential"/>
    <tag k="name" v="Alma Street"/>
    <tag k="source" v="survey"/>
  </way>
  <way id="16700511" version="2" timestamp="2010-07-08T09:17:18Z" uid="74617" user="JohnSmith" changeset="5164427">
    <nd ref="172652127"/>
    <nd ref="172652279"/>
    <nd ref="172652291"/>
    <nd ref="172652319"/>
    <nd ref="172652336"/>
    <nd ref="172652358"/>
    <nd ref="172652392"/>
    <nd ref="172652409"/>
    <nd ref="172652432"/>
    <tag k="highway" v="residential"/>
    <tag k="maxspeed" v="50"/>
    <tag k="maxspeed:source" v="default residential speed limit in Australia"/>
    <tag k="name" v="Denison Street"/>
    <tag k="oneway" v="yes"/>
    <tag k="source" v="survey"/>
  </way>
  <way id="16700511" version="3" timestamp="2012-01-15T16:19:44Z" uid="147510" user="woodpeck_fixbot" changeset="10398186">
    <nd ref="172652127"/>
    <nd ref="172652279"/>
    <nd ref="172652291"/>
    <nd ref="172652319"/>
    <nd ref="172652336"/>
    <nd ref="172652358"/>
    <nd ref="172652392"/>
    <nd ref="172652409"/>
    <nd ref="172652432"/>
    <tag k="highway" v="residential"/>
    <tag k="name" v="Denison Street"/>
    <tag k="oneway" v="yes"/>
    <tag k="source" v="survey"/>
  </way>
  <way id="16700514" version="2" timestamp="2010-07-08T09:20:54Z" uid="74617" user="JohnSmith" changeset="5164427">
    <nd ref="172652455"/>
    <nd ref="172652110"/>
    <tag k="highway" v="residential"/>
    <tag k="maxspeed" v="50"/>
    <tag k="maxspeed:source" v="default residential speed limit in Australia"/>
    <tag k="name" v="Denison Street"/>
    <tag k="oneway" v="yes"/>
    <tag k="source" v="survey"/>
  </way>
  <way id="16700514" version="3" timestamp="2012-01-15T16:19:53Z" uid="147510" user="woodpeck_fixbot" changeset="10398186">
    <nd ref="172652455"/>
    <nd ref="172652110"/>
    <tag k="highway" v="residential"/>
    <tag k="name" v="Denison Street"/>
    <tag k="oneway" v="yes"/>
    <tag k="source" v="survey"/>
  </way>
  <way id="16700519" version="2" timestamp="2010-07-08T09:22:42Z" uid="74617" user="JohnSmith" changeset="5164427">
    <nd ref="172652063"/>
    <nd ref="172652730"/>
    <tag k="highway" v="residential"/>
    <tag k="maxspeed" v="50"/>
    <tag k="maxspeed:source" v="default residential speed limit in Australia"/>
    <tag k="name" v="Kent Street"/>
    <tag k="source" v="survey"/>
  </way>
  <way id="16700519" version="3" timestamp="2012-01-15T16:19:54Z" uid="147510" user="woodpeck_fixbot" changeset="10398186">
    <nd ref="172652063"/>
    <nd ref="172652730"/>
    <tag k="highway" v="residential"/>
    <tag k="name" v="Kent Street"/>
    <tag k="source" v="survey"/>
  </way>
  <way id="16700531" version="2" timestamp="2010-07-08T09:23:23Z" uid="74617" user="JohnSmith" changeset="5164427">
    <nd ref="60455574"/>
    <nd ref="172652800"/>
    <tag k="highway" v="residential"/>
    <tag k="maxspeed" v="50"/>
    <tag k="maxspeed:source" v="default residential speed limit in Australia"/>
    <tag k="name" v="George Street"/>
    <tag k="source" v="survey"/>
  </way>
  <way id="16700531" version="3" timestamp="2012-01-15T16:19:58Z" uid="147510" user="woodpeck_fixbot" changeset="10398186">
    <nd ref="60455574"/>
    <nd ref="172652800"/>
    <tag k="highway" v="residential"/>
    <tag k="name" v="George Street"/>
    <tag k="source" v="survey"/>
  </way>
  <way id="16700532" version="3" timestamp="2010-07-08T09:25:31Z" uid="74617" user="JohnSmith" changeset="5164427">
    <nd ref="172652845"/>
    <nd ref="172652824"/>
    <tag k="highway" v="residential"/>
    <tag k="maxspeed" v="50"/>
    <tag k="maxspeed:source" v="default residential speed limit in Australia"/>
    <tag k="name" v="Lennox Street"/>
    <tag k="source" v="survey"/>
  </way>
  <way id="16700532" version="4" timestamp="2012-01-15T16:20:00Z" uid="147510" user="woodpeck_fixbot" changeset="10398186">
    <nd ref="172652845"/>
    <nd ref="172652824"/>
    <tag k="highway" v="residential"/>
    <tag k="name" v="Lennox Street"/>
    <tag k="source" v="survey"/>
  </way>
  <way id="16700534" version="4" timestamp="2010-07-08T09:19:34Z" uid="74617" user="JohnSmith" changeset="5164427">
    <nd ref="172652877"/>
    <nd ref="172652865"/>
    <nd ref="60689060"/>
    <tag k="highway" v="residential"/>
    <tag k="maxspeed" v="50"/>
    <tag k="maxspeed:source" v="default residential speed limit in Australia"/>
    <tag k="name" v="Talford Street"/>
    <tag k="source" v="survey"/>
  </way>
  <way id="16700534" version="5" timestamp="2012-01-15T16:20:03Z" uid="147510" user="woodpeck_fixbot" changeset="10398186">
    <nd ref="172652877"/>
    <nd ref="172652865"/>
    <nd ref="60689060"/>
    <tag k="highway" v="residential"/>
    <tag k="name" v="Talford Street"/>
    <tag k="source" v="survey"/>
  </way>
  <way id="16700493" version="4" timestamp="2012-08-13T02:28:43Z" uid="714088" user="Aiyoux" changeset="12708814">
    <nd ref="60689073"/>
    <nd ref="172652043"/>
    <nd ref="172652063"/>
    <nd ref="172652085"/>
    <nd ref="1863806095"/>
    <nd ref="172652110"/>
    <nd ref="172652632"/>
    <nd ref="172652127"/>
    <nd ref="172652139"/>
    <nd ref="172652155"/>
    <nd ref="172652167"/>
    <nd ref="172652184"/>
    <nd ref="172652202"/>
    <nd ref="170777541"/>
    <tag k="highway" v="residential"/>
    <tag k="name" v="North Street"/>
    <tag k="source" v="survey"/>
  </way>
</osm>
