<?xml version='1.0' encoding='UTF-8'?>
<osm version="0.6" generator="libosmium/2.20.0">
  <way id="16734152" version="8" timestamp="2010-07-08T00:26:44Z" uid="74617" user="JohnSmith" changeset="5162525">
    <nd ref="173016372"/>
    <nd ref="173034276"/>
    <nd ref="276382179"/>
    <nd ref="173023929"/>
    <nd ref="173023931"/>
    <nd ref="239327035"/>
    <nd ref="239327158"/>
    <nd ref="173029883"/>
    <nd ref="173019032"/>
    <nd ref="173019033"/>
    <tag k="highway" v="residential"/>
    <tag k="maxspeed" v="50"/>
    <tag k="maxspeed:source" v="default residential speed limit in Australia"/>
    <tag k="name" v="Somerset Street"/>
  </way>
  <way id="16734152" version="9" timestamp="2010-10-21T08:56:44Z" uid="9477" user="NilbogAus" changeset="6122473">
    <nd ref="173016372"/>
    <nd ref="173034276"/>
    <nd ref="276382179"/>
    <nd ref="173023929"/>
    <nd ref="173023931"/>
    <nd ref="239327035"/>
    <nd ref="239327158"/>
    <nd ref="173029883"/>
    <nd ref="173019032"/>
    <nd ref="173019033"/>
    <tag k="highway" v="residential"/>
    <tag k="maxspeed" v="50"/>
    <tag k="maxspeed:source" v="default residential speed limit in Australia"/>
    <tag k="name" v="Somerset Street"/>
    <tag k="source" v="survey"/>
  </way>
  <way id="16734152" version="10" timestamp="2012-01-15T16:24:39Z" uid="147510" user="woodpeck_fixbot" changeset="10398186">
    <nd ref="173016372"/>
    <nd ref="173034276"/>
    <nd ref="276382179"/>
    <nd ref="173023929"/>
    <nd ref="173023931"/>
    <nd ref="239327035"/>
    <nd ref="239327158"/>
    <nd ref="173029883"/>
    <nd ref="173019032"/>
    <nd ref="173019033"/>
    <tag k="highway" v="residential"/>
    <tag k="name" v="Somerset Street"/>
    <tag k="source" v="survey"/>
  </way>
  <way id="16734294" version="2" timestamp="2010-03-27T22:52:01Z" uid="20587" user="balrog-kun" changeset="4250871">
    <nd ref="173020435"/>
    <nd ref="123170666"/>
    <tag k="created_by" v="JOSM"/>
    <tag k="highway" v="residential"/>
    <tag k="name" v="Ruberta Avenue"/>
    <tag k="tiger:cfcc" v="A41"/>
    <tag k="tiger:county" v="Los Angeles, CA"/>
    <tag k="tiger:name_base" v="Ruberta"/>
    <tag k="tiger:name_type" v="Ave"/>
    <tag k="tiger:separated" v="no"/>
    <tag k="tiger:source" v="tiger_import_dch_v0.6_20070809"/>
    <tag k="tiger:tlid" v="141596341:141596374"/>
    <tag k="tiger:zip_left" v="91201"/>
    <tag k="tiger:zip_right" v="91201"/>
  </way>
  <way id="16734610" version="2" timestamp="2009-08-03T19:29:47Z" uid="4467" user="Rosscoe" changeset="2029383">
    <nd ref="55125411"/>
    <nd ref="55125420"/>
    <tag k="bridge" v="yes"/>
    <tag k="highway" v="trunk"/>
    <tag k="layer" v="1"/>
    <tag k="name" v="Princes Highway"/>
    <tag k="ref" v="A1"/>
  </way>
  <way id="16734610" version="3" timestamp="2010-04-04T23:58:35Z" uid="74617" user="JohnSmith" changeset="4327637">
    <nd ref="55125411"/>
    <nd ref="55125420"/>
    <tag k="bridge" v="yes"/>
    <tag k="highway" v="trunk"/>
    <tag k="layer" v="1"/>
    <tag k="name" v="Princes Highway"/>
  </way>
  <way id="16734616" version="4" timestamp="2010-04-04T23:58:35Z" uid="74617" user="JohnSmith" changeset="4327637">
    <nd ref="55125420"/>
    <nd ref="55125427"/>
    <nd ref="55125439"/>
    <nd ref="55125454"/>
    <nd ref="55125466"/>
    <nd ref="400711514"/>
    <nd ref="55125481"/>
    <nd ref="412113240"/>
    <nd ref="412113248"/>
    <nd ref="55125487"/>
    <nd ref="79871966"/>
    <nd ref="55125503"/>
    <tag k="highway" v="trunk"/>
    <tag k="name" v="Princes Highway"/>
  </way>
  <way id="16734616" version="5" timestamp="2010-12-31T02:52:41Z" uid="72613" user="mark_rat" changeset="6816170">
    <nd ref="55125420"/>
    <nd ref="55125427"/>
    <nd ref="1074508097"/>
    <tag k="highway" v="trunk"/>
    <tag k="name" v="Princes Highway"/>
  </way>
  <way id="16734624" version="2" timestamp="2009-08-03T19:29:48Z" uid="4467" user="Rosscoe" changeset="2029383">
    <nd ref="173023094"/>
    <nd ref="154984307"/>
    <tag k="bridge" v="yes"/>
    <tag k="highway" v="unclassified"/>
    <tag k="layer" v="1"/>
    <tag k="name" v="Myrtlbank Road"/>
  </way>
  <way id="16734642" version="2" timestamp="2009-08-03T19:29:48Z" uid="4467" user="Rosscoe" changeset="2029383">
    <nd ref="59728777"/>
    <nd ref="173023120"/>
    <tag k="bridge" v="yes"/>
    <tag k="highway" v="secondary"/>
    <tag k="layer" v="1"/>
    <tag k="name" v="Traralgon - Maffra Road"/>
    <tag k="ref" v="C105"/>
  </way>
  <way id="16734651" version="3" timestamp="2009-08-03T19:29:48Z" uid="4467" user="Rosscoe" changeset="2029383">
    <nd ref="173023225"/>
    <nd ref="173023173"/>
    <tag k="bridge" v="yes"/>
    <tag k="highway" v="unclassified"/>
    <tag k="layer" v="1"/>
    <tag k="name" v="Cowwarr - Seaton Road"/>
    <tag k="source" v="surveyed"/>
    <tag k="surface" v="paved"/>
  </way>
  <way id="16734651" version="4" timestamp="2009-09-25T07:32:29Z" uid="4467" user="Rosscoe" changeset="2613595">
    <nd ref="173023225"/>
    <nd ref="173023173"/>
    <tag k="bridge" v="yes"/>
    <tag k="highway" v="unclassified"/>
    <tag k="layer" v="1"/>
    <tag k="name" v="Cowwarr - Seaton Road"/>
    <tag k="source" v="survey"/>
    <tag k="surface" v="paved"/>
  </way>
  <way id="16734660" version="4" timestamp="2009-09-25T07:32:29Z" uid="4467" user="Rosscoe" changeset="2613595">
    <nd ref="173023173"/>
    <nd ref="151074177"/>
    <nd ref="151074148"/>
    <nd ref="151074112"/>
    <nd ref="151074096"/>
    <nd ref="151074055"/>
    <nd ref="247411275"/>
    <nd ref="151074000"/>
    <nd ref="247411280"/>
    <nd ref="283594415"/>
    <nd ref="151073940"/>
    <nd ref="151073910"/>
    <nd ref="151073876"/>
    <nd ref="151073850"/>
    <nd ref="151073818"/>
    <nd ref="151073786"/>
    <nd ref="151073754"/>
    <nd ref="151073707"/>
    <nd ref="151073604"/>
    <tag k="highway" v="unclassified"/>
    <tag k="name" v="Cowwarr - Seaton Road"/>
    <tag k="source" v="survey"/>
    <tag k="surface" v="paved"/>
  </way>
  <way id="16734660" version="5" timestamp="2011-03-26T07:13:13Z" uid="22094" user="Chadzopkyo" changeset="7672508">
    <nd ref="173023173"/>
    <nd ref="151074177"/>
    <nd ref="151074148"/>
    <nd ref="151074112"/>
    <nd ref="151074096"/>
    <nd ref="151074055"/>
    <nd ref="247411275"/>
    <nd ref="151074000"/>
    <nd ref="247411280"/>
    <nd ref="1218596101"/>
    <nd ref="1218596103"/>
    <nd ref="283594415"/>
    <nd ref="1218596109"/>
    <nd ref="151073940"/>
    <nd ref="151073910"/>
    <nd ref="1218596117"/>
    <nd ref="151073876"/>
    <nd ref="1218596094"/>
    <nd ref="151073850"/>
    <nd ref="1218596102"/>
    <nd ref="1218596112"/>
    <nd ref="1218596120"/>
    <nd ref="151073818"/>
    <nd ref="1218596098"/>
    <nd ref="1218596104"/>
    <nd ref="151073786"/>
    <nd ref="151073754"/>
    <nd ref="1218596116"/>
    <nd ref="1218596121"/>
    <nd ref="1218596108"/>
    <nd ref="151073707"/>
    <nd ref="1218596115"/>
    <nd ref="151073604"/>
    <tag k="highway" v="unclassified"/>
    <tag k="name" v="Cowwarr - Seaton Road"/>
    <tag k="source" v="survey"/>
    <tag k="surface" v="paved"/>
  </way>
  <way id="16734660" version="6" timestamp="2011-11-27T00:15:27Z" uid="168136" user="goldfishxyz" changeset="9961910">
    <nd ref="173023173"/>
    <nd ref="151074177"/>
    <nd ref="151074148"/>
    <nd ref="151074112"/>
    <nd ref="151074096"/>
    <nd ref="151074055"/>
    <nd ref="247411275"/>
    <nd ref="151074000"/>
    <nd ref="247411280"/>
    <nd ref="1218596101"/>
    <nd ref="1218596103"/>
    <nd ref="283594415"/>
    <nd ref="1218596109"/>
    <nd ref="151073940"/>
    <nd ref="151073910"/>
    <nd ref="1218596117"/>
    <nd ref="151073876"/>
    <nd ref="1218596094"/>
    <nd ref="1518852017"/>
    <nd ref="151073850"/>
    <nd ref="1218596102"/>
    <nd ref="1218596112"/>
    <nd ref="1218596120"/>
    <nd ref="151073818"/>
    <nd ref="1218596098"/>
    <nd ref="1218596104"/>
    <nd ref="151073786"/>
    <nd ref="151073754"/>
    <nd ref="1218596116"/>
    <nd ref="1218596121"/>
    <nd ref="1218596108"/>
    <nd ref="151073707"/>
    <nd ref="1218596115"/>
    <nd ref="151073604"/>
    <tag k="highway" v="unclassified"/>
    <tag k="name" v="Cowwarr - Seaton Road"/>
    <tag k="source" v="survey"/>
    <tag k="surface" v="paved"/>
  </way>
  <way id="16734660" version="7" timestamp="2011-11-27T00:22:17Z" uid="168136" user="goldfishxyz" changeset="9961910">
    <nd ref="173023173"/>
    <nd ref="151074177"/>
    <nd ref="151074148"/>
    <nd ref="151074112"/>
    <nd ref="151074096"/>
    <nd ref="151074055"/>
    <nd ref="247411275"/>
    <nd ref="151074000"/>
    <nd ref="247411280"/>
    <nd ref="1218596101"/>
    <nd ref="1218596103"/>
    <nd ref="283594415"/>
    <nd ref="1218596109"/>
    <nd ref="151073940"/>
    <nd ref="151073910"/>
    <nd ref="1518856240"/>
    <nd ref="1218596117"/>
    <nd ref="151073876"/>
    <nd ref="1218596094"/>
    <nd ref="1518852017"/>
    <nd ref="151073850"/>
    <nd ref="1218596102"/>
    <nd ref="1218596112"/>
    <nd ref="1218596120"/>
    <nd ref="151073818"/>
    <nd ref="1218596098"/>
    <nd ref="1218596104"/>
    <nd ref="151073786"/>
    <nd ref="151073754"/>
    <nd ref="1218596116"/>
    <nd ref="1218596121"/>
    <nd ref="1218596108"/>
    <nd ref="151073707"/>
    <nd ref="1218596115"/>
    <nd ref="151073604"/>
    <tag k="highway" v="unclassified"/>
    <tag k="name" v="Cowwarr - Seaton Road"/>
    <tag k="source" v="survey"/>
    <tag k="surface" v="paved"/>
  </way>
  <way id="16734778" version="4" timestamp="2010-07-08T00:23:22Z" uid="74617" user="JohnSmith" changeset="5162525">
    <nd ref="173023929"/>
    <nd ref="173024786"/>
    <nd ref="173024788"/>
    <nd ref="173072282"/>
    <tag k="highway" v="residential"/>
    <tag k="maxspeed" v="50"/>
    <tag k="maxspeed:source" v="default residential speed limit in Australia"/>
    <tag k="name" v="Sunden Way"/>
  </way>
  <way id="16734778" version="5" timestamp="2012-01-15T16:24:41Z" uid="147510" user="woodpeck_fixbot" changeset="10398186">
    <nd ref="173023929"/>
    <nd ref="173024786"/>
    <nd ref="173024788"/>
    <nd ref="173072282"/>
    <tag k="highway" v="residential"/>
    <tag k="name" v="Sunden Way"/>
  </way>
  <way id="16734152" version="11" timestamp="2012-07-20T05:26:22Z" uid="722137" user="OSMF Redaction Account" changeset="12361944">
    <nd ref="173016372"/>
    <nd ref="173034276"/>
    <nd ref="173023929"/>
    <nd ref="173023931"/>
    <nd ref="239327035"/>
    <nd ref="239327158"/>
    <nd ref="173029883"/>
    <nd ref="173019032"/>
    <nd ref="173019033"/>
    <tag k="highway" v="residential"/>
    <tag k="name" v="Somerset Street"/>
    <tag k="source" v="survey"/>
  </way>
  <way id="16734152" version="12" timestamp="2012-07-23T08:32:03Z" uid="92387" user="SimonPoole" changeset="12446220">
    <nd ref="173016372"/>
    <nd ref="1835071848"/>
    <nd ref="173034276"/>
    <nd ref="173023929"/>
    <nd ref="173023931"/>
    <nd ref="239327035"/>
    <nd ref="239327158"/>
    <nd ref="173029883"/>
    <nd ref="173019032"/>
    <nd ref="173019033"/>
    <tag k="highway" v="residential"/>
    <tag k="name" v="Somerset Street"/>
    <tag k="source" v="survey"/>
  </way>
  <way id="16734152" version="13" timestamp="2012-08-05T08:18:51Z" uid="156866" user="bertboy" changeset="12617093">
    <nd ref="173016372"/>
    <nd ref="1835071848"/>
    <nd ref="173034276"/>
    <nd ref="1852481125"/>
    <nd ref="173023929"/>
    <nd ref="173023931"/>
    <nd ref="239327035"/>
    <nd ref="239327158"/>
    <nd ref="173029883"/>
    <nd ref="173019032"/>
    <nd ref="173019033"/>
    <tag k="highway" v="residential"/>
    <tag k="name" v="Somerset Street"/>
    <tag k="source" v="survey"/>
  </way>
  <way id="16734294" version="3" timestamp="2012-07-19T08:54:21Z" uid="722137" user="OSMF Redaction Account" changeset="12314763"/>
  <way id="16734610" version="4" timestamp="2012-06-15T14:13:56Z" uid="67896" user="mrpulley" changeset="11905302">
    <nd ref="55125411"/>
    <nd ref="55125420"/>
    <tag k="bridge" v="yes"/>
    <tag k="highway" v="trunk"/>
    <tag k="layer" v="1"/>
    <tag k="name" v="Princes Highway"/>
    <tag k="surface" v="paved"/>
  </way>
  <way id="16734610" version="5" timestamp="2012-07-19T07:57:32Z" uid="722137" user="OSMF Redaction Account" changeset="12312896">
    <nd ref="55125411"/>
    <nd ref="55125420"/>
    <tag k="bridge" v="true"/>
    <tag k="highway" v="trunk"/>
    <tag k="layer" v="1"/>
    <tag k="name" v="Princes Highway"/>
    <tag k="surface" v="paved"/>
  </way>
  <way id="16734610" version="6" timestamp="2012-07-31T07:21:14Z" uid="67896" user="mrpulley" changeset="12557007">
    <nd ref="55125411"/>
    <nd ref="55125420"/>
    <tag k="bridge" v="true"/>
    <tag k="highway" v="trunk"/>
    <tag k="layer" v="1"/>
    <tag k="name" v="Princes Highway"/>
    <tag k="ref" v="A1"/>
    <tag k="surface" v="paved"/>
  </way>
  <way id="16734616" version="6" timestamp="2012-06-15T14:17:43Z" uid="67896" user="mrpulley" changeset="11905302">
    <nd ref="55125420"/>
    <nd ref="1788569169"/>
    <nd ref="55125427"/>
    <nd ref="1074508097"/>
    <tag k="highway" v="trunk"/>
    <tag k="name" v="Princes Highway"/>
    <tag k="ref" v="A1"/>
    <tag k="surface" v="asphalt"/>
  </way>
  <way id="16734624" version="3" timestamp="2012-07-19T07:57:32Z" uid="722137" user="OSMF Redaction Account" changeset="12312896">
    <nd ref="173023094"/>
    <nd ref="154984307"/>
    <tag k="bridge" v="true"/>
    <tag k="highway" v="unclassified"/>
    <tag k="layer" v="1"/>
    <tag k="name" v="Myrtlbank Road"/>
  </way>
  <way id="16734624" version="4" timestamp="2012-08-21T00:39:50Z" uid="633429" user="Angyork" changeset="12802782">
    <nd ref="173023094"/>
    <nd ref="154984307"/>
    <tag k="bridge" v="true"/>
    <tag k="highway" v="unclassified"/>
    <tag k="layer" v="1"/>
    <tag k="name" v="Myrtlebank-Fulham Road"/>
  </way>
  <way id="16734642" version="3" timestamp="2012-07-19T04:04:05Z" uid="722137" user="OSMF Redaction Account" changeset="12307586">
    <nd ref="59728777"/>
    <nd ref="173023120"/>
    <tag k="bridge" v="true"/>
    <tag k="highway" v="secondary"/>
    <tag k="layer" v="1"/>
    <tag k="name" v="Traralgon - Maffra Road"/>
    <tag k="ref" v="C105"/>
  </way>
  <way id="16734651" version="5" timestamp="2012-07-19T04:10:09Z" uid="722137" user="OSMF Redaction Account" changeset="12307715">
    <nd ref="173023225"/>
    <nd ref="173023173"/>
    <tag k="bridge" v="true"/>
    <tag k="highway" v="unclassified"/>
    <tag k="layer" v="1"/>
    <tag k="name" v="Cowwarr - Seaton Road"/>
    <tag k="source" v="surveyed"/>
    <tag k="surface" v="paved"/>
  </way>
  <way id="16734660" version="8" timestamp="2012-07-19T04:10:10Z" uid="722137" user="OSMF Redaction Account" changeset="12307715">
    <nd ref="173023173"/>
    <nd ref="151074177"/>
    <nd ref="151074148"/>
    <nd ref="151074112"/>
    <nd ref="151074096"/>
    <nd ref="151074055"/>
    <nd ref="247411275"/>
    <nd ref="151074000"/>
    <nd ref="247411280"/>
    <nd ref="1218596101"/>
    <nd ref="1218596103"/>
    <nd ref="283594415"/>
    <nd ref="1218596109"/>
    <nd ref="151073940"/>
    <nd ref="151073910"/>
    <nd ref="1518856240"/>
    <nd ref="1218596117"/>
    <nd ref="151073876"/>
    <nd ref="1218596094"/>
    <nd ref="1518852017"/>
    <nd ref="151073850"/>
    <nd ref="1218596102"/>
    <nd ref="1218596112"/>
    <nd ref="1218596120"/>
    <nd ref="151073818"/>
    <nd ref="1218596098"/>
    <nd ref="1218596104"/>
    <nd ref="151073786"/>
    <nd ref="151073754"/>
    <nd ref="1218596116"/>
    <nd ref="1218596121"/>
    <nd ref="1218596108"/>
    <nd ref="151073707"/>
    <nd ref="1218596115"/>
    <nd ref="151073604"/>
    <tag k="highway" v="unclassified"/>
    <tag k="name" v="Cowwarr - Seaton Road"/>
    <tag k="source" v="surveyed"/>
    <tag k="surface" v="paved"/>
  </way>
</osm>
