<?xml version='1.0' encoding='UTF-8'?>
<osm version="0.6" generator="libosmium/2.20.0">
  <way id="17189499" version="2" timestamp="2008-01-07T00:41:19Z" uid="1066" user="pavel" changeset="565415">
    <nd ref="178428505"/>
    <nd ref="178428510"/>
    <nd ref="178428529"/>
    <nd ref="86045028"/>
    <nd ref="178428537"/>
    <nd ref="178428545"/>
    <tag k="created_by" v="JOSM"/>
    <tag k="highway" v="residential"/>
    <tag k="name" v="Příčná"/>
    <tag k="source" v="UHUL:ortofoto"/>
    <tag k="source:name" v="uir_adr"/>
  </way>
  <way id="17189499" version="3" timestamp="2008-09-29T21:45:01Z" uid="17615" user="Petr Dlouhý" changeset="720136">
    <nd ref="178428505"/>
    <nd ref="178428510"/>
    <nd ref="178428529"/>
    <nd ref="86045028"/>
    <nd ref="178428537"/>
    <nd ref="178428545"/>
    <tag k="highway" v="residential"/>
    <tag k="name" v="Příčná"/>
    <tag k="source" v="uhul:ortofoto"/>
    <tag k="source:name" v="uir_adr"/>
  </way>
  <way id="17189501" version="2" timestamp="2008-01-07T00:42:22Z" uid="1066" user="pavel" changeset="565415">
    <nd ref="178428510"/>
    <nd ref="178428513"/>
    <nd ref="109405751"/>
    <tag k="created_by" v="JOSM"/>
    <tag k="highway" v="residential"/>
    <tag k="name" v="5. Května"/>
    <tag k="source" v="UHUL:ortofoto"/>
    <tag k="source:name" v="uir_adr"/>
  </way>
  <way id="17189501" version="3" timestamp="2008-09-29T21:45:04Z" uid="17615" user="Petr Dlouhý" changeset="720136">
    <nd ref="178428510"/>
    <nd ref="178428513"/>
    <nd ref="109405751"/>
    <tag k="highway" v="residential"/>
    <tag k="name" v="5. Května"/>
    <tag k="source" v="uhul:ortofoto"/>
    <tag k="source:name" v="uir_adr"/>
  </way>
  <way id="17189503" version="2" timestamp="2008-01-07T00:42:51Z" uid="1066" user="pavel" changeset="565415">
    <nd ref="178428513"/>
    <nd ref="178428514"/>
    <nd ref="178428517"/>
    <nd ref="178428520"/>
    <nd ref="178428524"/>
    <tag k="created_by" v="JOSM"/>
    <tag k="highway" v="residential"/>
    <tag k="name" v="Kamenná"/>
    <tag k="source" v="UHUL:ortofoto"/>
    <tag k="source:name" v="uir_adr"/>
  </way>
  <way id="17189503" version="3" timestamp="2008-09-29T21:45:08Z" uid="17615" user="Petr Dlouhý" changeset="720136">
    <nd ref="178428513"/>
    <nd ref="178428514"/>
    <nd ref="178428517"/>
    <nd ref="178428520"/>
    <nd ref="178428524"/>
    <tag k="highway" v="residential"/>
    <tag k="name" v="Kamenná"/>
    <tag k="source" v="uhul:ortofoto"/>
    <tag k="source:name" v="uir_adr"/>
  </way>
  <way id="17189506" version="2" timestamp="2008-01-07T00:41:12Z" uid="1066" user="pavel" changeset="565415">
    <nd ref="109405746"/>
    <nd ref="178428533"/>
    <nd ref="178428514"/>
    <nd ref="178428529"/>
    <tag k="created_by" v="JOSM"/>
    <tag k="highway" v="residential"/>
    <tag k="name" v="Palackého"/>
    <tag k="source" v="UHUL:ortofoto"/>
    <tag k="source:name" v="uir_adr"/>
  </way>
  <way id="17189506" version="3" timestamp="2008-09-29T21:50:20Z" uid="17615" user="Petr Dlouhý" changeset="720136">
    <nd ref="109405746"/>
    <nd ref="178428533"/>
    <nd ref="178428514"/>
    <nd ref="178428529"/>
    <tag k="highway" v="residential"/>
    <tag k="name" v="Palackého"/>
    <tag k="source" v="uhul:ortofoto"/>
    <tag k="source:name" v="uir_adr"/>
  </way>
  <way id="17189509" version="2" timestamp="2008-01-07T00:40:40Z" uid="1066" user="pavel" changeset="565415">
    <nd ref="178428549"/>
    <nd ref="178428545"/>
    <nd ref="86042534"/>
    <tag k="created_by" v="JOSM"/>
    <tag k="highway" v="residential"/>
    <tag k="name" v="V Cihelně"/>
    <tag k="source" v="UHUL:ortofoto"/>
    <tag k="source:name" v="uir_adr"/>
  </way>
  <way id="17189509" version="3" timestamp="2008-09-29T21:50:17Z" uid="17615" user="Petr Dlouhý" changeset="720136">
    <nd ref="178428549"/>
    <nd ref="178428545"/>
    <nd ref="86042534"/>
    <tag k="highway" v="residential"/>
    <tag k="name" v="V Cihelně"/>
    <tag k="source" v="uhul:ortofoto"/>
    <tag k="source:name" v="uir_adr"/>
  </way>
  <way id="17189799" version="3" timestamp="2010-08-22T15:48:59Z" uid="4467" user="Rosscoe" changeset="5562396">
    <nd ref="178430231"/>
    <nd ref="178430233"/>
    <nd ref="871938677"/>
    <nd ref="871938678"/>
    <nd ref="871938679"/>
    <tag k="highway" v="residential"/>
    <tag k="name" v="Chase Hill Road"/>
    <tag k="tiger:cfcc" v="A41"/>
    <tag k="tiger:county" v="Litchfield, CT"/>
    <tag k="tiger:name_base" v="Chase Hill"/>
    <tag k="tiger:name_type" v="Rd"/>
    <tag k="tiger:reviewed" v="no"/>
    <tag k="tiger:separated" v="no"/>
    <tag k="tiger:source" v="tiger_import_dch_v0.6_20070809"/>
    <tag k="tiger:tlid" v="3122883"/>
    <tag k="tiger:upload_uuid" v="bulk_upload.pl-f24c1b8d-614c-45c7-9a2f-8ff80316b282"/>
    <tag k="tiger:zip_left" v="06757"/>
    <tag k="tiger:zip_right" v="06757"/>
  </way>
</osm>
