<?xml version='1.0' encoding='UTF-8'?>
<osm version="0.6" generator="libosmium/2.20.0">
  <way id="17234164" version="4" timestamp="2008-10-14T08:18:00Z" uid="9581" user="Lobelt" changeset="319935">
    <nd ref="157124370"/>
    <nd ref="157124393"/>
    <nd ref="157124409"/>
    <nd ref="157124415"/>
    <nd ref="286897295"/>
    <nd ref="157124444"/>
    <tag k="created_by" v="Potlatch 0.10b"/>
    <tag k="highway" v="tertiary"/>
    <tag k="name" v="Ortrander Straße"/>
    <tag k="ref" v="K 6607"/>
  </way>
  <way id="17234164" version="5" timestamp="2009-03-02T09:57:42Z" uid="16019" user="Thommse" changeset="721684">
    <nd ref="157124370"/>
    <nd ref="157124393"/>
    <nd ref="157124409"/>
    <nd ref="157124415"/>
    <nd ref="286897295"/>
    <nd ref="157124444"/>
    <tag k="created_by" v="Potlatch 0.10b"/>
    <tag k="highway" v="tertiary"/>
    <tag k="maxspeed" v="30"/>
    <tag k="name" v="Ortrander Straße"/>
    <tag k="ref" v="K 6607"/>
  </way>
  <way id="17234804" version="3" timestamp="2008-10-14T08:18:04Z" uid="9581" user="Lobelt" changeset="319935">
    <nd ref="151012644"/>
    <nd ref="151012648"/>
    <nd ref="151012654"/>
    <nd ref="151012657"/>
    <nd ref="151012658"/>
    <nd ref="151012659"/>
    <nd ref="151012660"/>
    <nd ref="151012661"/>
    <nd ref="151012663"/>
    <nd ref="151012665"/>
    <nd ref="151012673"/>
    <nd ref="151012674"/>
    <nd ref="157116944"/>
    <tag k="created_by" v="Potlatch 0.7b"/>
    <tag k="highway" v="residential"/>
    <tag k="name" v="Elsterwerdaer Straße"/>
  </way>
  <way id="17234804" version="4" timestamp="2009-02-14T12:37:30Z" uid="16019" user="Thommse" changeset="418054">
    <nd ref="151012644"/>
    <nd ref="151012648"/>
    <nd ref="151012654"/>
    <nd ref="151012657"/>
    <nd ref="151012658"/>
    <nd ref="151012659"/>
    <nd ref="151012660"/>
    <nd ref="151012661"/>
    <nd ref="151012663"/>
    <nd ref="151012665"/>
    <nd ref="151012673"/>
    <nd ref="151012674"/>
    <nd ref="157116944"/>
    <tag k="created_by" v="Potlatch 0.10f"/>
    <tag k="highway" v="residential"/>
    <tag k="name" v="Elsterwerdaer Straße"/>
  </way>
  <way id="17234804" version="5" timestamp="2009-03-02T09:55:56Z" uid="16019" user="Thommse" changeset="721684">
    <nd ref="151012644"/>
    <nd ref="151012648"/>
    <nd ref="151012654"/>
    <nd ref="354837174"/>
    <tag k="created_by" v="Potlatch 0.10f"/>
    <tag k="highway" v="residential"/>
    <tag k="name" v="Elsterwerdaer Straße"/>
  </way>
  <way id="17234804" version="6" timestamp="2010-06-04T09:43:16Z" uid="16019" user="Thommse" changeset="4899605">
    <nd ref="151012644"/>
    <nd ref="151012648"/>
    <nd ref="151012654"/>
    <nd ref="354837174"/>
    <tag k="highway" v="residential"/>
    <tag k="name" v="Elsterwerdaer Straße"/>
  </way>
  <way id="17234804" version="7" timestamp="2011-12-01T21:01:38Z" uid="413046" user="Suricata" changeset="10012089">
    <nd ref="151012644"/>
    <nd ref="151012648"/>
    <nd ref="151012654"/>
    <nd ref="354837174"/>
    <tag k="highway" v="residential"/>
    <tag k="name" v="Elsterwerdaer Straße"/>
    <tag k="surface" v="asphalt"/>
  </way>
  <way id="17234164" version="6" timestamp="2012-07-17T04:39:18Z" uid="722137" user="OSMF Redaction Account" changeset="12256978">
    <nd ref="157124370"/>
    <nd ref="157124393"/>
    <nd ref="157124409"/>
    <nd ref="157124415"/>
    <nd ref="157124444"/>
    <tag k="highway" v="tertiary"/>
    <tag k="maxspeed" v="30"/>
    <tag k="name" v="Ortrander Straße"/>
    <tag k="ref" v="K 6607"/>
  </way>
  <way id="17234164" version="7" timestamp="2012-08-12T16:38:12Z" uid="109035" user="Teddy80" changeset="12703827">
    <nd ref="157124370"/>
    <nd ref="157124393"/>
    <nd ref="157124409"/>
    <nd ref="157124415"/>
    <nd ref="1863236076"/>
    <nd ref="157124444"/>
    <tag k="highway" v="tertiary"/>
    <tag k="maxspeed" v="30"/>
    <tag k="name" v="Ortrander Straße"/>
    <tag k="ref" v="K 6607"/>
  </way>
  <way id="17234804" version="8" timestamp="2012-07-05T12:58:14Z" uid="222568" user="Pfad-Finder" changeset="12120220">
    <nd ref="151012644"/>
    <nd ref="151012648"/>
    <nd ref="1813770614"/>
    <nd ref="151012654"/>
    <nd ref="354837174"/>
    <tag k="highway" v="residential"/>
    <tag k="name" v="Elsterwerdaer Straße"/>
    <tag k="surface" v="asphalt"/>
  </way>
</osm>
