<?xml version='1.0' encoding='UTF-8'?>
<osm version="0.6" generator="libosmium/2.20.0">
  <way id="17300036" version="4" timestamp="2010-07-06T08:46:54Z" uid="74617" user="JohnSmith" changeset="5147679">
    <nd ref="179186864"/>
    <nd ref="179186865"/>
    <nd ref="179186867"/>
    <nd ref="179186869"/>
    <tag k="highway" v="residential"/>
    <tag k="maxspeed" v="50"/>
    <tag k="maxspeed:source" v="default residential speed limit in Australia"/>
    <tag k="name" v="Garden Street"/>
  </way>
  <way id="17300036" version="5" timestamp="2012-01-15T17:47:46Z" uid="147510" user="woodpeck_fixbot" changeset="10400850">
    <nd ref="179186864"/>
    <nd ref="179186865"/>
    <nd ref="179186867"/>
    <nd ref="179186869"/>
    <tag k="highway" v="residential"/>
    <tag k="name" v="Garden Street"/>
  </way>
  <way id="17300257" version="6" timestamp="2010-07-06T08:43:54Z" uid="74617" user="JohnSmith" changeset="5147679">
    <nd ref="179181621"/>
    <nd ref="179188977"/>
    <tag k="highway" v="residential"/>
    <tag k="maxspeed" v="50"/>
    <tag k="maxspeed:source" v="default residential speed limit in Australia"/>
    <tag k="name" v="Newdegate Street"/>
  </way>
  <way id="17300257" version="7" timestamp="2012-01-15T17:47:48Z" uid="147510" user="woodpeck_fixbot" changeset="10400850">
    <nd ref="179181621"/>
    <nd ref="179188977"/>
    <tag k="highway" v="residential"/>
    <tag k="name" v="Newdegate Street"/>
  </way>
  <way id="17300261" version="5" timestamp="2010-07-06T08:43:02Z" uid="74617" user="JohnSmith" changeset="5147679">
    <nd ref="179182567"/>
    <nd ref="179189021"/>
    <tag k="highway" v="residential"/>
    <tag k="maxspeed" v="50"/>
    <tag k="maxspeed:source" v="default residential speed limit in Australia"/>
    <tag k="name" v="Henry Street"/>
  </way>
  <way id="17300261" version="6" timestamp="2012-01-15T17:47:50Z" uid="147510" user="woodpeck_fixbot" changeset="10400850">
    <nd ref="179182567"/>
    <nd ref="179189021"/>
    <tag k="highway" v="residential"/>
    <tag k="name" v="Henry Street"/>
  </way>
  <way id="17300376" version="7" timestamp="2010-07-06T08:48:16Z" uid="74617" user="JohnSmith" changeset="5147679">
    <nd ref="179182787"/>
    <nd ref="179190957"/>
    <nd ref="179927066"/>
    <tag k="highway" v="residential"/>
    <tag k="maxspeed" v="50"/>
    <tag k="maxspeed:source" v="default residential speed limit in Australia"/>
    <tag k="name" v="Thomas Street"/>
  </way>
  <way id="17300376" version="8" timestamp="2012-01-15T17:47:53Z" uid="147510" user="woodpeck_fixbot" changeset="10400850">
    <nd ref="179182787"/>
    <nd ref="179190957"/>
    <nd ref="179927066"/>
    <tag k="highway" v="residential"/>
    <tag k="name" v="Thomas Street"/>
  </way>
  <way id="17300459" version="5" timestamp="2010-07-06T08:45:38Z" uid="74617" user="JohnSmith" changeset="5147679">
    <nd ref="179184603"/>
    <nd ref="179190954"/>
    <nd ref="181084405"/>
    <nd ref="179190957"/>
    <tag k="highway" v="residential"/>
    <tag k="maxspeed" v="50"/>
    <tag k="maxspeed:source" v="default residential speed limit in Australia"/>
    <tag k="name" v="Drummond Street"/>
  </way>
  <way id="17300459" version="6" timestamp="2012-01-15T17:47:55Z" uid="147510" user="woodpeck_fixbot" changeset="10400850">
    <nd ref="179184603"/>
    <nd ref="179190954"/>
    <nd ref="181084405"/>
    <nd ref="179190957"/>
    <tag k="highway" v="residential"/>
    <tag k="name" v="Drummond Street"/>
  </way>
  <way id="17300529" version="6" timestamp="2010-04-03T16:30:56Z" uid="20587" user="balrog-kun" changeset="4313610">
    <nd ref="179191522"/>
    <nd ref="179191523"/>
    <nd ref="179191524"/>
    <nd ref="179191526"/>
    <nd ref="179191528"/>
    <nd ref="179279907"/>
    <nd ref="179466785"/>
    <nd ref="179466803"/>
    <nd ref="179466805"/>
    <nd ref="179432247"/>
    <nd ref="179466808"/>
    <nd ref="179463284"/>
    <nd ref="179466810"/>
    <nd ref="179466813"/>
    <nd ref="179466235"/>
    <nd ref="179466815"/>
    <nd ref="179466817"/>
    <nd ref="179466821"/>
    <nd ref="179451053"/>
    <nd ref="179466825"/>
    <nd ref="179466827"/>
    <nd ref="179466830"/>
    <nd ref="179466831"/>
    <nd ref="179466833"/>
    <nd ref="179466834"/>
    <nd ref="179466837"/>
    <nd ref="179466838"/>
    <tag k="highway" v="unclassified"/>
    <tag k="name" v="Sheridan Road"/>
    <tag k="tiger:cfcc" v="A63; A41"/>
    <tag k="tiger:county" v="El Paso, TX"/>
    <tag k="tiger:name_base" v="Sheridan"/>
    <tag k="tiger:name_type" v="Rd"/>
    <tag k="tiger:reviewed" v="no"/>
    <tag k="tiger:separated" v="no"/>
    <tag k="tiger:source" v="tiger_import_dch_v0.6_20070829"/>
    <tag k="tiger:tlid" v="189424190:189424102:189424104:189424179; 189381111:189381112:189381076"/>
  </way>
  <way id="17300529" version="7" timestamp="2011-08-08T18:03:57Z" uid="207745" user="NE2" changeset="8959905">
    <nd ref="179191522"/>
    <nd ref="179191523"/>
    <nd ref="179191524"/>
    <nd ref="179191526"/>
    <nd ref="179191528"/>
    <tag k="highway" v="primary_link"/>
    <tag k="oneway" v="yes"/>
    <tag k="tiger:cfcc" v="A63; A41"/>
    <tag k="tiger:county" v="El Paso, TX"/>
    <tag k="tiger:name_base" v="Sheridan"/>
    <tag k="tiger:name_type" v="Rd"/>
    <tag k="tiger:reviewed" v="no"/>
    <tag k="tiger:separated" v="no"/>
    <tag k="tiger:source" v="tiger_import_dch_v0.6_20070829"/>
    <tag k="tiger:tlid" v="189424190:189424102:189424104:189424179; 189381111:189381112:189381076"/>
  </way>
  <way id="17300537" version="5" timestamp="2010-07-06T08:43:34Z" uid="74617" user="JohnSmith" changeset="5147679">
    <nd ref="179183145"/>
    <nd ref="179190954"/>
    <tag k="highway" v="residential"/>
    <tag k="maxspeed" v="50"/>
    <tag k="maxspeed:source" v="default residential speed limit in Australia"/>
    <tag k="name" v="Galway Street"/>
  </way>
  <way id="17300537" version="6" timestamp="2012-01-15T17:47:57Z" uid="147510" user="woodpeck_fixbot" changeset="10400850">
    <nd ref="179183145"/>
    <nd ref="179190954"/>
    <tag k="highway" v="residential"/>
    <tag k="name" v="Galway Street"/>
  </way>
  <way id="17300538" version="5" timestamp="2010-07-06T08:47:48Z" uid="74617" user="JohnSmith" changeset="5147679">
    <nd ref="179182379"/>
    <nd ref="179191588"/>
    <tag k="highway" v="residential"/>
    <tag k="maxspeed" v="50"/>
    <tag k="maxspeed:source" v="default residential speed limit in Australia"/>
    <tag k="name" v="Cedar Street"/>
  </way>
  <way id="17300538" version="6" timestamp="2012-01-15T17:47:58Z" uid="147510" user="woodpeck_fixbot" changeset="10400850">
    <nd ref="179182379"/>
    <nd ref="179191588"/>
    <tag k="highway" v="residential"/>
    <tag k="name" v="Cedar Street"/>
  </way>
  <way id="17300731" version="6" timestamp="2010-07-06T08:43:42Z" uid="74617" user="JohnSmith" changeset="5147679">
    <nd ref="179927066"/>
    <nd ref="179188977"/>
    <nd ref="179189021"/>
    <nd ref="179191588"/>
    <nd ref="179193418"/>
    <nd ref="179193419"/>
    <nd ref="179193420"/>
    <nd ref="179193422"/>
    <tag k="highway" v="residential"/>
    <tag k="maxspeed" v="50"/>
    <tag k="maxspeed:source" v="default residential speed limit in Australia"/>
    <tag k="name" v="Dunellan Street"/>
  </way>
  <way id="17300731" version="7" timestamp="2012-01-15T17:48:00Z" uid="147510" user="woodpeck_fixbot" changeset="10400850">
    <nd ref="179927066"/>
    <nd ref="179188977"/>
    <nd ref="179189021"/>
    <nd ref="179191588"/>
    <nd ref="179193418"/>
    <nd ref="179193419"/>
    <nd ref="179193420"/>
    <nd ref="179193422"/>
    <tag k="highway" v="residential"/>
    <tag k="name" v="Dunellan Street"/>
  </way>
  <way id="17300832" version="5" timestamp="2010-07-06T08:46:54Z" uid="74617" user="JohnSmith" changeset="5147679">
    <nd ref="179187570"/>
    <nd ref="179194195"/>
    <nd ref="179186869"/>
    <nd ref="179194196"/>
    <nd ref="179194198"/>
    <nd ref="179194200"/>
    <nd ref="179194201"/>
    <nd ref="179194203"/>
    <nd ref="179194204"/>
    <nd ref="179194205"/>
    <nd ref="179195527"/>
    <nd ref="179195529"/>
    <tag k="highway" v="unclassified"/>
    <tag k="maxspeed" v="50"/>
    <tag k="maxspeed:source" v="default residential speed limit in Australia"/>
    <tag k="name" v="Barnsdale Place"/>
  </way>
  <way id="17300832" version="6" timestamp="2012-01-15T17:48:02Z" uid="147510" user="woodpeck_fixbot" changeset="10400850">
    <nd ref="179187570"/>
    <nd ref="179194195"/>
    <nd ref="179186869"/>
    <nd ref="179194196"/>
    <nd ref="179194198"/>
    <nd ref="179194200"/>
    <nd ref="179194201"/>
    <nd ref="179194203"/>
    <nd ref="179194204"/>
    <nd ref="179194205"/>
    <nd ref="179195527"/>
    <nd ref="179195529"/>
    <tag k="highway" v="unclassified"/>
    <tag k="name" v="Barnsdale Place"/>
  </way>
  <way id="17300376" version="9" timestamp="2012-07-20T07:59:21Z" uid="722137" user="OSMF Redaction Account" changeset="12367209">
    <nd ref="179182787"/>
    <nd ref="179927066"/>
    <tag k="highway" v="residential"/>
    <tag k="name" v="Thomas Street"/>
  </way>
</osm>
