<?xml version='1.0' encoding='UTF-8'?>
<osm version="0.6" generator="libosmium/2.20.0">
  <way id="17484334" version="4" timestamp="2010-08-18T06:56:51Z" uid="4467" user="Rosscoe" changeset="5523794">
    <nd ref="181010637"/>
    <nd ref="460035938"/>
    <nd ref="460035941"/>
    <nd ref="460035944"/>
    <nd ref="460035950"/>
    <nd ref="460035953"/>
    <nd ref="460035956"/>
    <nd ref="460035959"/>
    <nd ref="460035963"/>
    <nd ref="460035967"/>
    <nd ref="460035969"/>
    <nd ref="460035973"/>
    <nd ref="460035977"/>
    <nd ref="460035981"/>
    <nd ref="460035986"/>
    <nd ref="460035990"/>
    <nd ref="460036000"/>
    <nd ref="460036004"/>
    <nd ref="460036008"/>
    <nd ref="460036011"/>
    <nd ref="460036014"/>
    <nd ref="460036016"/>
    <nd ref="460036019"/>
    <nd ref="460036021"/>
    <nd ref="460036024"/>
    <nd ref="460036027"/>
    <nd ref="460036030"/>
    <nd ref="460036036"/>
    <nd ref="460036037"/>
    <nd ref="863517033"/>
    <nd ref="460036038"/>
    <nd ref="460036040"/>
    <nd ref="460036043"/>
    <nd ref="460036045"/>
    <nd ref="460036048"/>
    <nd ref="181010675"/>
    <nd ref="181010745"/>
    <tag k="highway" v="residential"/>
    <tag k="name" v="Belle Union Drive"/>
    <tag k="tiger:cfcc" v="A41"/>
    <tag k="tiger:county" v="Marion, IN"/>
    <tag k="tiger:name_base" v="Belle Union"/>
    <tag k="tiger:name_type" v="Dr"/>
    <tag k="tiger:reviewed" v="no"/>
    <tag k="tiger:separated" v="no"/>
    <tag k="tiger:source" v="tiger_import_dch_v0.6_20070810"/>
    <tag k="tiger:tlid" v="108070143"/>
    <tag k="tiger:upload_uuid" v="bulk_upload.pl-ed0550aa-ad5a-428d-acd8-2d7fb7833f78"/>
    <tag k="tiger:zip_left" v="46113"/>
    <tag k="tiger:zip_right" v="46113"/>
  </way>
  <way id="17484848" version="6" timestamp="2010-07-06T08:48:20Z" uid="74617" user="JohnSmith" changeset="5147679">
    <nd ref="179185737"/>
    <nd ref="179185739"/>
    <nd ref="181116218"/>
    <nd ref="179193420"/>
    <nd ref="91793319"/>
    <tag k="highway" v="residential"/>
    <tag k="maxspeed" v="50"/>
    <tag k="maxspeed:source" v="default residential speed limit in Australia"/>
    <tag k="name" v="Pear Street"/>
  </way>
  <way id="17484848" version="7" timestamp="2012-01-15T18:11:38Z" uid="147510" user="woodpeck_fixbot" changeset="10400850">
    <nd ref="179185737"/>
    <nd ref="179185739"/>
    <nd ref="181116218"/>
    <nd ref="179193420"/>
    <nd ref="91793319"/>
    <tag k="highway" v="residential"/>
    <tag k="name" v="Pear Street"/>
  </way>
  <way id="17484870" version="5" timestamp="2010-07-06T08:43:39Z" uid="74617" user="JohnSmith" changeset="5147679">
    <nd ref="179180629"/>
    <nd ref="179181929"/>
    <nd ref="179193418"/>
    <tag k="highway" v="residential"/>
    <tag k="maxspeed" v="50"/>
    <tag k="maxspeed:source" v="default residential speed limit in Australia"/>
    <tag k="name" v="Bunya Street"/>
  </way>
  <way id="17484870" version="6" timestamp="2012-01-15T18:11:39Z" uid="147510" user="woodpeck_fixbot" changeset="10400850">
    <nd ref="179180629"/>
    <nd ref="179181929"/>
    <nd ref="179193418"/>
    <tag k="highway" v="residential"/>
    <tag k="name" v="Bunya Street"/>
  </way>
  <way id="17484927" version="4" timestamp="2010-07-06T08:43:16Z" uid="74617" user="JohnSmith" changeset="5147679">
    <nd ref="179191588"/>
    <nd ref="181017259"/>
    <tag k="highway" v="residential"/>
    <tag k="maxspeed" v="50"/>
    <tag k="maxspeed:source" v="default residential speed limit in Australia"/>
    <tag k="name" v="Cedar Street"/>
  </way>
  <way id="17484927" version="5" timestamp="2012-01-15T18:11:41Z" uid="147510" user="woodpeck_fixbot" changeset="10400850">
    <nd ref="179191588"/>
    <nd ref="181017259"/>
    <tag k="highway" v="residential"/>
    <tag k="name" v="Cedar Street"/>
  </way>
  <way id="17484967" version="4" timestamp="2010-07-06T08:45:30Z" uid="74617" user="JohnSmith" changeset="5147679">
    <nd ref="179193419"/>
    <nd ref="181017695"/>
    <tag k="highway" v="residential"/>
    <tag k="maxspeed" v="50"/>
    <tag k="maxspeed:source" v="default residential speed limit in Australia"/>
    <tag k="name" v="Peach Street"/>
  </way>
  <way id="17484967" version="5" timestamp="2012-01-15T18:11:44Z" uid="147510" user="woodpeck_fixbot" changeset="10400850">
    <nd ref="179193419"/>
    <nd ref="181017695"/>
    <tag k="highway" v="residential"/>
    <tag k="name" v="Peach Street"/>
  </way>
  <way id="17484980" version="4" timestamp="2010-07-06T08:46:50Z" uid="74617" user="JohnSmith" changeset="5147679">
    <nd ref="179189021"/>
    <nd ref="91795381"/>
    <tag k="highway" v="residential"/>
    <tag k="maxspeed" v="50"/>
    <tag k="maxspeed:source" v="default residential speed limit in Australia"/>
    <tag k="name" v="Henry Street"/>
  </way>
  <way id="17484980" version="5" timestamp="2012-01-15T18:11:45Z" uid="147510" user="woodpeck_fixbot" changeset="10400850">
    <nd ref="179189021"/>
    <nd ref="91795381"/>
    <tag k="highway" v="residential"/>
    <tag k="name" v="Henry Street"/>
  </way>
</osm>
