<?xml version='1.0' encoding='UTF-8'?>
<osm version="0.6" generator="libosmium/2.20.0">
  <way id="17493094" version="1" timestamp="2007-12-21T02:15:01Z" uid="7617" user="Franc" changeset="382153">
    <nd ref="28801780"/>
    <nd ref="181126876"/>
    <tag k="created_by" v="JOSM"/>
    <tag k="name" v="Ross Street"/>
    <tag k="source" v="survey"/>
  </way>
  <way id="17493094" version="2" timestamp="2007-12-21T02:15:31Z" uid="7617" user="Franc" changeset="382153">
    <nd ref="28801780"/>
    <nd ref="181126876"/>
    <tag k="created_by" v="JOSM"/>
    <tag k="highway" v="residential"/>
    <tag k="name" v="Ross Street"/>
    <tag k="source" v="survey"/>
  </way>
  <way id="17493094" version="3" timestamp="2010-07-08T02:37:52Z" uid="74617" user="JohnSmith" changeset="5163091">
    <nd ref="28801780"/>
    <nd ref="181126876"/>
    <tag k="highway" v="residential"/>
    <tag k="maxspeed" v="50"/>
    <tag k="maxspeed:source" v="default residential speed limit in Australia"/>
    <tag k="name" v="Ross Street"/>
    <tag k="source" v="survey"/>
  </way>
  <way id="17493094" version="4" timestamp="2012-01-15T18:12:40Z" uid="147510" user="woodpeck_fixbot" changeset="10400850">
    <nd ref="28801780"/>
    <nd ref="181126876"/>
    <tag k="highway" v="residential"/>
    <tag k="name" v="Ross Street"/>
    <tag k="source" v="survey"/>
  </way>
  <way id="17493348" version="6" timestamp="2010-07-06T08:47:37Z" uid="74617" user="JohnSmith" changeset="5147679">
    <nd ref="181130965"/>
    <nd ref="375718208"/>
    <nd ref="375718219"/>
    <nd ref="181130966"/>
    <nd ref="92306874"/>
    <tag k="highway" v="residential"/>
    <tag k="maxspeed" v="50"/>
    <tag k="maxspeed:source" v="default residential speed limit in Australia"/>
    <tag k="name" v="Victoria Terrace"/>
  </way>
  <way id="17493348" version="7" timestamp="2012-01-15T18:12:42Z" uid="147510" user="woodpeck_fixbot" changeset="10400850">
    <nd ref="181130965"/>
    <nd ref="375718208"/>
    <nd ref="375718219"/>
    <nd ref="181130966"/>
    <nd ref="92306874"/>
    <tag k="highway" v="residential"/>
    <tag k="name" v="Victoria Terrace"/>
  </way>
  <way id="17493377" version="4" timestamp="2010-07-06T08:48:05Z" uid="74617" user="JohnSmith" changeset="5147679">
    <nd ref="92306874"/>
    <nd ref="181131627"/>
    <tag k="highway" v="residential"/>
    <tag k="maxspeed" v="50"/>
    <tag k="maxspeed:source" v="default residential speed limit in Australia"/>
    <tag k="name" v="Victoria Terrace"/>
  </way>
  <way id="17493377" version="5" timestamp="2012-01-15T18:12:44Z" uid="147510" user="woodpeck_fixbot" changeset="10400850">
    <nd ref="92306874"/>
    <nd ref="181131627"/>
    <tag k="highway" v="residential"/>
    <tag k="name" v="Victoria Terrace"/>
  </way>
  <way id="17493382" version="3" timestamp="2010-07-06T08:46:04Z" uid="74617" user="JohnSmith" changeset="5147679">
    <nd ref="181131627"/>
    <nd ref="430545332"/>
    <nd ref="91786624"/>
    <tag k="access" v="no"/>
    <tag k="highway" v="unclassified"/>
    <tag k="maxspeed" v="50"/>
    <tag k="maxspeed:source" v="default residential speed limit in Australia"/>
    <tag k="name" v="South East Busway"/>
    <tag k="psv" v="permissive"/>
  </way>
  <way id="17493382" version="4" timestamp="2012-01-15T18:12:45Z" uid="147510" user="woodpeck_fixbot" changeset="10400850">
    <nd ref="181131627"/>
    <nd ref="430545332"/>
    <nd ref="91786624"/>
    <tag k="access" v="no"/>
    <tag k="highway" v="unclassified"/>
    <tag k="name" v="South East Busway"/>
    <tag k="psv" v="permissive"/>
  </way>
  <way id="17493094" version="5" timestamp="2012-06-09T22:33:51Z" uid="20949" user="Ebenezer" changeset="11849596">
    <nd ref="1782045227"/>
    <nd ref="181126876"/>
    <tag k="highway" v="residential"/>
    <tag k="name" v="Ross Street"/>
    <tag k="source" v="survey"/>
  </way>
  <way id="17493094" version="6" timestamp="2012-07-20T02:51:17Z" uid="722137" user="OSMF Redaction Account" changeset="12358696"/>
</osm>
