<?xml version='1.0' encoding='UTF-8'?>
<osm version="0.6" generator="libosmium/2.20.0">
  <way id="17512295" version="2" timestamp="2008-05-19T14:42:56Z" uid="27600" user="Islanit" changeset="481777">
    <nd ref="181396837"/>
    <nd ref="181396844"/>
    <nd ref="181396853"/>
    <nd ref="181396867"/>
    <nd ref="181396824"/>
    <tag k="created_by" v="JOSM"/>
    <tag k="highway" v="residential"/>
    <tag k="name" v="von-Dassel-Strasse"/>
    <tag k="oneway" v="true"/>
  </way>
  <way id="17512295" version="3" timestamp="2008-07-16T16:23:11Z" uid="25608" user="stephan75" changeset="504900">
    <nd ref="181396837"/>
    <nd ref="181396844"/>
    <nd ref="181396853"/>
    <nd ref="181396867"/>
    <nd ref="181396824"/>
    <tag k="created_by" v="JOSM"/>
    <tag k="highway" v="residential"/>
    <tag k="name" v="von-Dassel-Straße"/>
    <tag k="oneway" v="true"/>
  </way>
  <way id="17512295" version="4" timestamp="2008-09-07T23:01:19Z" uid="31059" user="DaBear" changeset="569608">
    <nd ref="181396837"/>
    <nd ref="181396844"/>
    <nd ref="181396853"/>
    <nd ref="181396867"/>
    <nd ref="181396824"/>
    <tag k="created_by" v="JOSM"/>
    <tag k="highway" v="residential"/>
    <tag k="name" v="Von-Dassel-Straße"/>
    <tag k="oneway" v="true"/>
  </way>
  <way id="17512295" version="5" timestamp="2008-09-14T13:53:17Z" uid="2566" user="Sven S_" changeset="631216">
    <nd ref="181396837"/>
    <nd ref="181396853"/>
    <nd ref="181396867"/>
    <nd ref="181396824"/>
    <tag k="created_by" v="JOSM"/>
    <tag k="highway" v="residential"/>
    <tag k="name" v="Von-Dassel-Straße"/>
    <tag k="oneway" v="true"/>
  </way>
  <way id="17512295" version="6" timestamp="2008-10-24T14:03:33Z" uid="43816" user="rundus" changeset="554216">
    <nd ref="181396837"/>
    <nd ref="181396853"/>
    <nd ref="181396867"/>
    <nd ref="181396824"/>
    <tag k="created_by" v="JOSM"/>
    <tag k="highway" v="residential"/>
    <tag k="name" v="Von-Dassel-Straße"/>
    <tag k="oneway" v="yes"/>
  </way>
  <way id="17512295" version="7" timestamp="2009-05-25T18:54:19Z" uid="93244" user="aven" changeset="1319633">
    <nd ref="181396837"/>
    <nd ref="181396853"/>
    <nd ref="181396867"/>
    <nd ref="181396824"/>
    <tag k="highway" v="residential"/>
    <tag k="maxspeed" v="50"/>
    <tag k="name" v="Von-Dassel-Straße"/>
    <tag k="oneway" v="yes"/>
  </way>
  <way id="17512295" version="8" timestamp="2010-12-02T22:52:25Z" uid="162161" user="holzheizer" changeset="6520798">
    <nd ref="181396837"/>
    <nd ref="1016842997"/>
    <nd ref="181396853"/>
    <nd ref="181396867"/>
    <nd ref="181396824"/>
    <tag k="highway" v="residential"/>
    <tag k="maxspeed" v="50"/>
    <tag k="name" v="Von-Dassel-Straße"/>
    <tag k="oneway" v="yes"/>
  </way>
  <way id="17512295" version="9" timestamp="2010-12-14T18:40:58Z" uid="162161" user="holzheizer" changeset="6661043">
    <nd ref="181396837"/>
    <nd ref="1038475546"/>
    <nd ref="1038475519"/>
    <nd ref="1038475538"/>
    <nd ref="1016842997"/>
    <nd ref="1038475506"/>
    <nd ref="1038475421"/>
    <nd ref="1038475399"/>
    <nd ref="1038475385"/>
    <nd ref="1038475534"/>
    <nd ref="1038475448"/>
    <nd ref="1038475409"/>
    <nd ref="1038475388"/>
    <nd ref="181396853"/>
    <nd ref="1038475408"/>
    <nd ref="1038475537"/>
    <nd ref="1038475557"/>
    <nd ref="1038475475"/>
    <nd ref="1038475485"/>
    <nd ref="181396867"/>
    <nd ref="1038475450"/>
    <nd ref="1038475410"/>
    <nd ref="1038475347"/>
    <nd ref="181396824"/>
    <tag k="highway" v="residential"/>
    <tag k="maxspeed" v="50"/>
    <tag k="name" v="Von-Dassel-Straße"/>
    <tag k="oneway" v="yes"/>
  </way>
</osm>
