<?xml version='1.0' encoding='UTF-8'?>
<osm version="0.6" generator="libosmium/2.20.0">
  <way id="17557163" version="4" timestamp="2010-07-07T07:39:16Z" uid="74617" user="JohnSmith" changeset="5156250">
    <nd ref="181795902"/>
    <nd ref="181797964"/>
    <nd ref="181796454"/>
    <nd ref="181796322"/>
    <tag k="highway" v="residential"/>
    <tag k="maxspeed" v="50"/>
    <tag k="maxspeed:source" v="default residential speed limit in Australia"/>
    <tag k="name" v="Dekalb Street"/>
    <tag k="source" v="survey"/>
  </way>
  <way id="17557163" version="5" timestamp="2012-01-15T18:17:11Z" uid="147510" user="woodpeck_fixbot" changeset="10400850">
    <nd ref="181795902"/>
    <nd ref="181797964"/>
    <nd ref="181796454"/>
    <nd ref="181796322"/>
    <tag k="highway" v="residential"/>
    <tag k="name" v="Dekalb Street"/>
    <tag k="source" v="survey"/>
  </way>
  <way id="17557319" version="3" timestamp="2010-07-07T07:39:02Z" uid="74617" user="JohnSmith" changeset="5156250">
    <nd ref="181797964"/>
    <nd ref="181797965"/>
    <tag k="highway" v="residential"/>
    <tag k="maxspeed" v="50"/>
    <tag k="maxspeed:source" v="default residential speed limit in Australia"/>
    <tag k="name" v="Errol Place"/>
    <tag k="source" v="survey"/>
  </way>
  <way id="17557319" version="4" timestamp="2011-01-07T08:25:43Z" uid="4467" user="Rosscoe" changeset="6890142">
    <nd ref="181797964"/>
    <nd ref="1087954771"/>
    <nd ref="1087955098"/>
    <nd ref="181797965"/>
    <tag k="highway" v="residential"/>
    <tag k="maxspeed" v="50"/>
    <tag k="maxspeed:source" v="default residential speed limit in Australia"/>
    <tag k="name" v="Errol Place"/>
    <tag k="source" v="survey"/>
  </way>
  <way id="17557319" version="5" timestamp="2012-01-15T18:17:13Z" uid="147510" user="woodpeck_fixbot" changeset="10400850">
    <nd ref="181797964"/>
    <nd ref="1087954771"/>
    <nd ref="1087955098"/>
    <nd ref="181797965"/>
    <tag k="highway" v="residential"/>
    <tag k="name" v="Errol Place"/>
    <tag k="source" v="survey"/>
  </way>
  <way id="17557442" version="2" timestamp="2010-07-07T07:39:15Z" uid="74617" user="JohnSmith" changeset="5156250">
    <nd ref="181798361"/>
    <nd ref="181798904"/>
    <tag k="highway" v="residential"/>
    <tag k="maxspeed" v="50"/>
    <tag k="maxspeed:source" v="default residential speed limit in Australia"/>
    <tag k="name" v="Victoria Street"/>
    <tag k="source" v="survey"/>
  </way>
  <way id="17557442" version="3" timestamp="2012-01-15T18:17:17Z" uid="147510" user="woodpeck_fixbot" changeset="10400850">
    <nd ref="181798361"/>
    <nd ref="181798904"/>
    <tag k="highway" v="residential"/>
    <tag k="name" v="Victoria Street"/>
    <tag k="source" v="survey"/>
  </way>
  <way id="17557545" version="7" timestamp="2010-07-07T07:41:31Z" uid="74617" user="JohnSmith" changeset="5156250">
    <nd ref="181799442"/>
    <nd ref="181800287"/>
    <nd ref="181800288"/>
    <nd ref="181800291"/>
    <nd ref="181800293"/>
    <nd ref="181800294"/>
    <nd ref="181800296"/>
    <nd ref="600695792"/>
    <nd ref="181875898"/>
    <nd ref="181800297"/>
    <nd ref="181805072"/>
    <nd ref="181800299"/>
    <tag k="highway" v="residential"/>
    <tag k="maxspeed" v="50"/>
    <tag k="maxspeed:source" v="default residential speed limit in Australia"/>
    <tag k="name" v="North Street"/>
    <tag k="source" v="survey"/>
  </way>
  <way id="17557545" version="8" timestamp="2011-01-07T06:34:13Z" uid="4467" user="Rosscoe" changeset="6889518">
    <nd ref="181799442"/>
    <nd ref="181800287"/>
    <nd ref="181800288"/>
    <nd ref="181800291"/>
    <nd ref="181800293"/>
    <nd ref="181800294"/>
    <nd ref="181800296"/>
    <nd ref="600695792"/>
    <nd ref="181875898"/>
    <nd ref="181800297"/>
    <nd ref="1087827858"/>
    <nd ref="181805072"/>
    <nd ref="181800299"/>
    <tag k="highway" v="residential"/>
    <tag k="maxspeed" v="50"/>
    <tag k="maxspeed:source" v="default residential speed limit in Australia"/>
    <tag k="name" v="North Street"/>
    <tag k="source" v="survey"/>
  </way>
  <way id="17557545" version="9" timestamp="2011-01-07T06:50:20Z" uid="4467" user="Rosscoe" changeset="6889518">
    <nd ref="181799442"/>
    <nd ref="181800287"/>
    <nd ref="181800288"/>
    <nd ref="181800291"/>
    <nd ref="181800293"/>
    <nd ref="181800294"/>
    <nd ref="181800296"/>
    <nd ref="600695792"/>
    <nd ref="181875898"/>
    <nd ref="1087834104"/>
    <tag k="highway" v="residential"/>
    <tag k="maxspeed" v="50"/>
    <tag k="maxspeed:source" v="default residential speed limit in Australia"/>
    <tag k="name" v="North Street"/>
    <tag k="oneway" v="yes"/>
  </way>
  <way id="17557545" version="10" timestamp="2012-01-15T18:17:19Z" uid="147510" user="woodpeck_fixbot" changeset="10400850">
    <nd ref="181799442"/>
    <nd ref="181800287"/>
    <nd ref="181800288"/>
    <nd ref="181800291"/>
    <nd ref="181800293"/>
    <nd ref="181800294"/>
    <nd ref="181800296"/>
    <nd ref="600695792"/>
    <nd ref="181875898"/>
    <nd ref="1087834104"/>
    <tag k="highway" v="residential"/>
    <tag k="name" v="North Street"/>
    <tag k="oneway" v="yes"/>
  </way>
  <way id="17557563" version="3" timestamp="2010-07-07T07:40:24Z" uid="74617" user="JohnSmith" changeset="5156250">
    <nd ref="181800299"/>
    <nd ref="181800300"/>
    <tag k="highway" v="residential"/>
    <tag k="maxspeed" v="50"/>
    <tag k="maxspeed:source" v="default residential speed limit in Australia"/>
    <tag k="name" v="Russell Street"/>
    <tag k="source" v="survey"/>
  </way>
  <way id="17557563" version="4" timestamp="2011-01-07T08:26:03Z" uid="4467" user="Rosscoe" changeset="6890142">
    <nd ref="181800299"/>
    <nd ref="1087954896"/>
    <nd ref="181800300"/>
    <tag k="highway" v="residential"/>
    <tag k="maxspeed" v="50"/>
    <tag k="maxspeed:source" v="default residential speed limit in Australia"/>
    <tag k="name" v="Russell Street"/>
    <tag k="source" v="survey"/>
  </way>
  <way id="17557563" version="5" timestamp="2012-01-15T18:17:23Z" uid="147510" user="woodpeck_fixbot" changeset="10400850">
    <nd ref="181800299"/>
    <nd ref="1087954896"/>
    <nd ref="181800300"/>
    <tag k="highway" v="residential"/>
    <tag k="name" v="Russell Street"/>
    <tag k="source" v="survey"/>
  </way>
  <way id="17557696" version="4" timestamp="2010-07-07T07:39:26Z" uid="74617" user="JohnSmith" changeset="5156250">
    <nd ref="181801328"/>
    <nd ref="181791293"/>
    <nd ref="181803115"/>
    <tag k="highway" v="residential"/>
    <tag k="maxspeed" v="50"/>
    <tag k="maxspeed:source" v="default residential speed limit in Australia"/>
    <tag k="name" v="Elizabeth Street"/>
    <tag k="source" v="survey"/>
  </way>
  <way id="17557696" version="5" timestamp="2012-01-15T18:17:25Z" uid="147510" user="woodpeck_fixbot" changeset="10400850">
    <nd ref="181801328"/>
    <nd ref="181791293"/>
    <nd ref="181803115"/>
    <tag k="highway" v="residential"/>
    <tag k="name" v="Elizabeth Street"/>
    <tag k="source" v="survey"/>
  </way>
  <way id="17557774" version="3" timestamp="2010-07-07T07:40:09Z" uid="74617" user="JohnSmith" changeset="5156250">
    <nd ref="181802122"/>
    <nd ref="181803115"/>
    <nd ref="181800296"/>
    <tag k="highway" v="residential"/>
    <tag k="maxspeed" v="50"/>
    <tag k="maxspeed:source" v="default residential speed limit in Australia"/>
    <tag k="name" v="Martin Street"/>
    <tag k="source" v="survey"/>
  </way>
  <way id="17557774" version="4" timestamp="2011-01-07T08:25:30Z" uid="4467" user="Rosscoe" changeset="6890142">
    <nd ref="181802122"/>
    <nd ref="181803115"/>
    <nd ref="181800296"/>
    <nd ref="1087955097"/>
    <tag k="highway" v="residential"/>
    <tag k="maxspeed" v="50"/>
    <tag k="maxspeed:source" v="default residential speed limit in Australia"/>
    <tag k="name" v="Martin Street"/>
    <tag k="source" v="survey"/>
  </way>
  <way id="17557774" version="5" timestamp="2012-01-15T18:17:26Z" uid="147510" user="woodpeck_fixbot" changeset="10400850">
    <nd ref="181802122"/>
    <nd ref="181803115"/>
    <nd ref="181800296"/>
    <nd ref="1087955097"/>
    <tag k="highway" v="residential"/>
    <tag k="name" v="Martin Street"/>
    <tag k="source" v="survey"/>
  </way>
  <way id="17557914" version="3" timestamp="2010-07-07T07:39:14Z" uid="74617" user="JohnSmith" changeset="5156250">
    <nd ref="181803195"/>
    <nd ref="186349022"/>
    <nd ref="181800293"/>
    <tag k="highway" v="residential"/>
    <tag k="maxspeed" v="50"/>
    <tag k="maxspeed:source" v="default residential speed limit in Australia"/>
    <tag k="name" v="Cohen Street"/>
    <tag k="source" v="survey"/>
  </way>
  <way id="17557914" version="4" timestamp="2011-01-07T08:25:47Z" uid="4467" user="Rosscoe" changeset="6890142">
    <nd ref="181803195"/>
    <nd ref="186349022"/>
    <nd ref="181800293"/>
    <nd ref="1087954755"/>
    <tag k="highway" v="residential"/>
    <tag k="maxspeed" v="50"/>
    <tag k="maxspeed:source" v="default residential speed limit in Australia"/>
    <tag k="name" v="Cohen Street"/>
    <tag k="source" v="survey"/>
  </way>
  <way id="17557914" version="5" timestamp="2012-01-15T18:17:27Z" uid="147510" user="woodpeck_fixbot" changeset="10400850">
    <nd ref="181803195"/>
    <nd ref="186349022"/>
    <nd ref="181800293"/>
    <nd ref="1087954755"/>
    <tag k="highway" v="residential"/>
    <tag k="name" v="Cohen Street"/>
    <tag k="source" v="survey"/>
  </way>
  <way id="17557978" version="2" timestamp="2010-07-07T07:38:33Z" uid="74617" user="JohnSmith" changeset="5156250">
    <nd ref="181804463"/>
    <nd ref="181805070"/>
    <nd ref="181805072"/>
    <tag k="highway" v="residential"/>
    <tag k="maxspeed" v="50"/>
    <tag k="maxspeed:source" v="default residential speed limit in Australia"/>
    <tag k="name" v="Patrick Street"/>
    <tag k="source" v="survey"/>
  </way>
  <way id="17557978" version="3" timestamp="2011-01-07T08:25:33Z" uid="4467" user="Rosscoe" changeset="6890142">
    <nd ref="181804463"/>
    <nd ref="181805070"/>
    <nd ref="1087954993"/>
    <nd ref="181805072"/>
    <tag k="highway" v="residential"/>
    <tag k="maxspeed" v="50"/>
    <tag k="maxspeed:source" v="default residential speed limit in Australia"/>
    <tag k="name" v="Patrick Street"/>
    <tag k="source" v="survey"/>
  </way>
  <way id="17557978" version="4" timestamp="2012-01-15T18:17:29Z" uid="147510" user="woodpeck_fixbot" changeset="10400850">
    <nd ref="181804463"/>
    <nd ref="181805070"/>
    <nd ref="1087954993"/>
    <nd ref="181805072"/>
    <tag k="highway" v="residential"/>
    <tag k="name" v="Patrick Street"/>
    <tag k="source" v="survey"/>
  </way>
  <way id="17557319" version="6" timestamp="2012-07-19T11:44:15Z" uid="722137" user="OSMF Redaction Account" changeset="12322466">
    <nd ref="181797964"/>
    <nd ref="181797965"/>
    <tag k="highway" v="residential"/>
    <tag k="name" v="Errol Place"/>
    <tag k="source" v="survey"/>
  </way>
  <way id="17557545" version="11" timestamp="2012-07-19T11:45:24Z" uid="722137" user="OSMF Redaction Account" changeset="12322466">
    <nd ref="181799442"/>
    <nd ref="181800287"/>
    <nd ref="181800288"/>
    <nd ref="181800291"/>
    <nd ref="181800293"/>
    <nd ref="181800294"/>
    <nd ref="181800296"/>
    <nd ref="600695792"/>
    <nd ref="181875898"/>
    <tag k="highway" v="residential"/>
    <tag k="name" v="North Street"/>
  </way>
  <way id="17557545" version="12" timestamp="2012-08-02T14:16:47Z" uid="67896" user="mrpulley" changeset="12586371">
    <nd ref="181799442"/>
    <nd ref="181800287"/>
    <nd ref="181800288"/>
    <nd ref="181800291"/>
    <nd ref="181800293"/>
    <nd ref="181800294"/>
    <nd ref="181800296"/>
    <nd ref="600695792"/>
    <nd ref="181875898"/>
    <tag k="highway" v="residential"/>
    <tag k="name" v="North Street"/>
    <tag k="oneway" v="yes"/>
  </way>
  <way id="17557563" version="6" timestamp="2012-04-11T09:53:10Z" uid="88085" user="bacco007" changeset="11262952">
    <nd ref="181800299"/>
    <nd ref="1711227218"/>
    <nd ref="1087954896"/>
    <nd ref="181800300"/>
    <tag k="highway" v="residential"/>
    <tag k="name" v="Russell Street"/>
    <tag k="source" v="survey"/>
  </way>
  <way id="17557563" version="7" timestamp="2012-07-19T11:37:42Z" uid="722137" user="OSMF Redaction Account" changeset="12322109">
    <nd ref="181800299"/>
    <nd ref="1711227218"/>
    <nd ref="181800300"/>
    <tag k="highway" v="residential"/>
    <tag k="name" v="Russell Street"/>
    <tag k="source" v="survey"/>
  </way>
  <way id="17557563" version="8" timestamp="2012-08-02T14:17:47Z" uid="67896" user="mrpulley" changeset="12586371">
    <nd ref="181800299"/>
    <nd ref="1711227218"/>
    <nd ref="1087954896"/>
    <nd ref="181800300"/>
    <tag k="highway" v="residential"/>
    <tag k="name" v="Russell Street"/>
    <tag k="source" v="survey"/>
  </way>
  <way id="17557774" version="6" timestamp="2012-07-19T11:45:26Z" uid="722137" user="OSMF Redaction Account" changeset="12322466">
    <nd ref="181802122"/>
    <nd ref="181803115"/>
    <nd ref="181800296"/>
    <tag k="highway" v="residential"/>
    <tag k="name" v="Martin Street"/>
    <tag k="source" v="survey"/>
  </way>
  <way id="17557914" version="6" timestamp="2012-07-19T11:45:26Z" uid="722137" user="OSMF Redaction Account" changeset="12322466">
    <nd ref="181803195"/>
    <nd ref="186349022"/>
    <nd ref="181800293"/>
    <tag k="highway" v="residential"/>
    <tag k="name" v="Cohen Street"/>
    <tag k="source" v="survey"/>
  </way>
  <way id="17557978" version="5" timestamp="2012-07-19T11:45:24Z" uid="722137" user="OSMF Redaction Account" changeset="12322466">
    <nd ref="181804463"/>
    <nd ref="181805070"/>
    <nd ref="181805072"/>
    <tag k="highway" v="residential"/>
    <tag k="name" v="Patrick Street"/>
    <tag k="source" v="survey"/>
  </way>
</osm>
