<?xml version='1.0' encoding='UTF-8'?>
<osm version="0.6" generator="libosmium/2.20.0">
  <way id="17591019" version="2" timestamp="2010-07-08T02:06:55Z" uid="74617" user="JohnSmith" changeset="5162525">
    <nd ref="182104537"/>
    <nd ref="182099973"/>
    <nd ref="182104996"/>
    <tag k="highway" v="residential"/>
    <tag k="maxspeed" v="50"/>
    <tag k="maxspeed:source" v="default residential speed limit in Australia"/>
    <tag k="name" v="Hancock Street"/>
  </way>
  <way id="17591019" version="3" timestamp="2012-01-15T18:19:34Z" uid="147510" user="woodpeck_fixbot" changeset="10400850">
    <nd ref="182104537"/>
    <nd ref="182099973"/>
    <nd ref="182104996"/>
    <tag k="highway" v="residential"/>
    <tag k="name" v="Hancock Street"/>
  </way>
  <way id="17591098" version="4" timestamp="2010-07-08T02:10:29Z" uid="74617" user="JohnSmith" changeset="5162525">
    <nd ref="182105851"/>
    <nd ref="182106165"/>
    <tag k="highway" v="residential"/>
    <tag k="maxspeed" v="50"/>
    <tag k="maxspeed:source" v="default residential speed limit in Australia"/>
    <tag k="name" v="John Street"/>
    <tag k="source" v="survey"/>
  </way>
  <way id="17591098" version="5" timestamp="2012-01-15T18:19:35Z" uid="147510" user="woodpeck_fixbot" changeset="10400850">
    <nd ref="182105851"/>
    <nd ref="182106165"/>
    <tag k="highway" v="residential"/>
    <tag k="name" v="John Street"/>
    <tag k="source" v="survey"/>
  </way>
  <way id="17591423" version="4" timestamp="2010-02-23T09:50:49Z" uid="7617" user="Franc" changeset="3951734">
    <nd ref="182109094"/>
    <nd ref="182109735"/>
    <nd ref="182109736"/>
    <nd ref="182125540"/>
    <nd ref="182113615"/>
    <nd ref="651305753"/>
    <nd ref="651305754"/>
    <nd ref="182109737"/>
    <tag k="highway" v="residential"/>
    <tag k="name" v="Albert Street"/>
  </way>
  <way id="17591423" version="5" timestamp="2010-07-08T02:13:11Z" uid="74617" user="JohnSmith" changeset="5162525">
    <nd ref="182109094"/>
    <nd ref="182109735"/>
    <nd ref="182109736"/>
    <nd ref="182125540"/>
    <nd ref="182113615"/>
    <nd ref="651305753"/>
    <nd ref="651305754"/>
    <nd ref="182109737"/>
    <tag k="highway" v="residential"/>
    <tag k="maxspeed" v="50"/>
    <tag k="maxspeed:source" v="default residential speed limit in Australia"/>
    <tag k="name" v="Albert Street"/>
  </way>
  <way id="17591423" version="6" timestamp="2012-01-15T18:19:36Z" uid="147510" user="woodpeck_fixbot" changeset="10400850">
    <nd ref="182109094"/>
    <nd ref="182109735"/>
    <nd ref="182109736"/>
    <nd ref="182125540"/>
    <nd ref="182113615"/>
    <nd ref="651305753"/>
    <nd ref="651305754"/>
    <nd ref="182109737"/>
    <tag k="highway" v="residential"/>
    <tag k="name" v="Albert Street"/>
  </way>
  <way id="17591582" version="7" timestamp="2010-07-09T02:59:32Z" uid="74617" user="JohnSmith" changeset="5170739">
    <nd ref="182110720"/>
    <nd ref="182110740"/>
    <nd ref="664863758"/>
    <nd ref="182110766"/>
    <nd ref="182110783"/>
    <tag k="highway" v="residential"/>
    <tag k="maxspeed" v="50"/>
    <tag k="maxspeed:source" v="default residential speed limit in Australia"/>
    <tag k="name" v="Little Gold Street"/>
  </way>
  <way id="17591582" version="8" timestamp="2012-01-15T18:19:38Z" uid="147510" user="woodpeck_fixbot" changeset="10400850">
    <nd ref="182110720"/>
    <nd ref="182110740"/>
    <nd ref="664863758"/>
    <nd ref="182110766"/>
    <nd ref="182110783"/>
    <tag k="highway" v="residential"/>
    <tag k="name" v="Little Gold Street"/>
  </way>
  <way id="17591624" version="3" timestamp="2010-02-23T07:39:30Z" uid="7617" user="Franc" changeset="3949884">
    <nd ref="182110738"/>
    <nd ref="651272566"/>
    <nd ref="182112543"/>
    <nd ref="651272568"/>
    <tag k="highway" v="residential"/>
    <tag k="name" v="Waratah Street"/>
    <tag k="restriction" v="school_zone"/>
  </way>
  <way id="17591624" version="4" timestamp="2010-07-08T02:09:29Z" uid="74617" user="JohnSmith" changeset="5162525">
    <nd ref="182110738"/>
    <nd ref="651272566"/>
    <nd ref="182112543"/>
    <nd ref="651272568"/>
    <tag k="highway" v="residential"/>
    <tag k="maxspeed" v="50"/>
    <tag k="maxspeed:source" v="default residential speed limit in Australia"/>
    <tag k="name" v="Waratah Street"/>
    <tag k="restriction" v="school_zone"/>
  </way>
  <way id="17591624" version="5" timestamp="2012-01-15T18:19:39Z" uid="147510" user="woodpeck_fixbot" changeset="10400850">
    <nd ref="182110738"/>
    <nd ref="651272566"/>
    <nd ref="182112543"/>
    <nd ref="651272568"/>
    <tag k="highway" v="residential"/>
    <tag k="name" v="Waratah Street"/>
    <tag k="restriction" v="school_zone"/>
  </way>
  <way id="17591624" version="6" timestamp="2012-03-07T05:23:42Z" uid="7523" user="inas" changeset="10896683">
    <nd ref="182110738"/>
    <nd ref="182112543"/>
    <nd ref="651272568"/>
    <tag k="highway" v="residential"/>
    <tag k="name" v="Waratah Street"/>
    <tag k="restriction" v="school_zone"/>
  </way>
  <way id="17591695" version="3" timestamp="2010-07-08T02:10:40Z" uid="74617" user="JohnSmith" changeset="5162525">
    <nd ref="175655457"/>
    <nd ref="182111853"/>
    <tag k="highway" v="residential"/>
    <tag k="maxspeed" v="50"/>
    <tag k="maxspeed:source" v="default residential speed limit in Australia"/>
    <tag k="name" v="Locksley Road"/>
    <tag k="oneway" v="yes"/>
  </way>
  <way id="17591695" version="4" timestamp="2012-01-15T18:19:40Z" uid="147510" user="woodpeck_fixbot" changeset="10400850">
    <nd ref="175655457"/>
    <nd ref="182111853"/>
    <tag k="highway" v="residential"/>
    <tag k="name" v="Locksley Road"/>
    <tag k="oneway" v="yes"/>
  </way>
  <way id="17591717" version="2" timestamp="2010-07-08T02:10:02Z" uid="74617" user="JohnSmith" changeset="5162525">
    <nd ref="182111853"/>
    <nd ref="182111088"/>
    <nd ref="182111679"/>
    <tag k="highway" v="residential"/>
    <tag k="maxspeed" v="50"/>
    <tag k="maxspeed:source" v="default residential speed limit in Australia"/>
    <tag k="name" v="Locksley Road"/>
  </way>
  <way id="17591717" version="3" timestamp="2012-01-15T18:19:42Z" uid="147510" user="woodpeck_fixbot" changeset="10400850">
    <nd ref="182111853"/>
    <nd ref="182111088"/>
    <nd ref="182111679"/>
    <tag k="highway" v="residential"/>
    <tag k="name" v="Locksley Road"/>
  </way>
  <way id="17591890" version="4" timestamp="2010-02-23T07:39:32Z" uid="7617" user="Franc" changeset="3949884">
    <nd ref="182112543"/>
    <nd ref="651272567"/>
    <tag k="highway" v="residential"/>
    <tag k="name" v="Westbourne Street"/>
    <tag k="restriction" v="school_zone"/>
  </way>
  <way id="17591890" version="5" timestamp="2010-07-08T02:12:02Z" uid="74617" user="JohnSmith" changeset="5162525">
    <nd ref="182112543"/>
    <nd ref="651272567"/>
    <tag k="highway" v="residential"/>
    <tag k="maxspeed" v="50"/>
    <tag k="maxspeed:source" v="default residential speed limit in Australia"/>
    <tag k="name" v="Westbourne Street"/>
    <tag k="restriction" v="school_zone"/>
  </way>
  <way id="17591890" version="6" timestamp="2012-01-15T18:19:43Z" uid="147510" user="woodpeck_fixbot" changeset="10400850">
    <nd ref="182112543"/>
    <nd ref="651272567"/>
    <tag k="highway" v="residential"/>
    <tag k="name" v="Westbourne Street"/>
    <tag k="restriction" v="school_zone"/>
  </way>
  <way id="17591019" version="4" timestamp="2012-08-01T21:48:09Z" uid="510836" user="Rub21" changeset="12579439">
    <nd ref="1847442837"/>
    <nd ref="182104537"/>
    <nd ref="182099973"/>
    <nd ref="182104996"/>
    <tag k="highway" v="residential"/>
    <tag k="name" v="Hancock Street"/>
  </way>
  <way id="17591423" version="7" timestamp="2012-07-20T08:30:00Z" uid="722137" user="OSMF Redaction Account" changeset="12368378">
    <nd ref="182109094"/>
    <nd ref="182109735"/>
    <nd ref="182109736"/>
    <nd ref="182125540"/>
    <nd ref="182113615"/>
    <nd ref="182109737"/>
    <tag k="highway" v="residential"/>
    <tag k="name" v="Albert Street"/>
  </way>
  <way id="17591423" version="8" timestamp="2012-08-01T21:48:06Z" uid="510836" user="Rub21" changeset="12579439">
    <nd ref="182109094"/>
    <nd ref="182109735"/>
    <nd ref="182109736"/>
    <nd ref="182125540"/>
    <nd ref="1847443184"/>
    <nd ref="182113615"/>
    <nd ref="182109737"/>
    <tag k="highway" v="residential"/>
    <tag k="name" v="Albert Street"/>
  </way>
  <way id="17591624" version="7" timestamp="2012-07-20T08:30:03Z" uid="722137" user="OSMF Redaction Account" changeset="12368378">
    <nd ref="182110738"/>
    <nd ref="182112543"/>
    <tag k="highway" v="residential"/>
    <tag k="name" v="Waratah Street"/>
  </way>
  <way id="17591717" version="4" timestamp="2012-08-01T22:20:50Z" uid="510836" user="Rub21" changeset="12579712">
    <nd ref="182111853"/>
    <nd ref="182111088"/>
    <nd ref="1847494658"/>
    <nd ref="182111679"/>
    <tag k="highway" v="residential"/>
    <tag k="name" v="Locksley Road"/>
  </way>
  <way id="17591890" version="7" timestamp="2012-07-20T08:36:50Z" uid="722137" user="OSMF Redaction Account" changeset="12368532"/>
</osm>
