<?xml version='1.0' encoding='UTF-8'?>
<osm version="0.6" generator="libosmium/2.20.0">
  <way id="17665192" version="5" timestamp="2010-02-14T17:08:51Z" uid="74617" user="JohnSmith" changeset="3875836">
    <nd ref="182929389"/>
    <nd ref="182952041"/>
    <tag k="highway" v="residential"/>
    <tag k="maxspeed" v="50"/>
    <tag k="name" v="Merton Road"/>
  </way>
  <way id="17665192" version="6" timestamp="2011-11-29T09:53:25Z" uid="103574" user="El Segundo can&apos;t win" changeset="9985937">
    <nd ref="1522953493"/>
    <nd ref="182952041"/>
    <tag k="highway" v="residential"/>
    <tag k="maxspeed" v="50"/>
    <tag k="name" v="Merton Road"/>
  </way>
  <way id="17665192" version="7" timestamp="2011-12-14T11:49:31Z" uid="103574" user="El Segundo can&apos;t win" changeset="10114906"/>
  <way id="17665405" version="6" timestamp="2010-02-14T17:08:51Z" uid="74617" user="JohnSmith" changeset="3875836">
    <nd ref="182929390"/>
    <nd ref="182955336"/>
    <tag k="highway" v="residential"/>
    <tag k="maxspeed" v="50"/>
    <tag k="name" v="Quarry Street"/>
  </way>
  <way id="17665405" version="7" timestamp="2011-11-29T09:53:25Z" uid="103574" user="El Segundo can&apos;t win" changeset="9985937">
    <nd ref="1522953491"/>
    <nd ref="182955336"/>
    <tag k="highway" v="residential"/>
    <tag k="maxspeed" v="50"/>
    <tag k="name" v="Quarry Street"/>
  </way>
  <way id="17665405" version="8" timestamp="2011-12-14T11:49:31Z" uid="103574" user="El Segundo can&apos;t win" changeset="10114906"/>
  <way id="17665532" version="5" timestamp="2010-02-14T17:08:12Z" uid="74617" user="JohnSmith" changeset="3875836">
    <nd ref="182929394"/>
    <nd ref="182957472"/>
    <nd ref="364859673"/>
    <nd ref="182957473"/>
    <tag k="highway" v="residential"/>
    <tag k="maxspeed" v="50"/>
    <tag k="name" v="Elliot Street"/>
  </way>
  <way id="17665532" version="6" timestamp="2011-11-29T09:53:25Z" uid="103574" user="El Segundo can&apos;t win" changeset="9985937">
    <nd ref="1522953483"/>
    <nd ref="182957472"/>
    <nd ref="364859673"/>
    <nd ref="182957473"/>
    <tag k="highway" v="residential"/>
    <tag k="maxspeed" v="50"/>
    <tag k="name" v="Elliot Street"/>
  </way>
  <way id="17665532" version="7" timestamp="2011-12-18T02:10:36Z" uid="103574" user="El Segundo can&apos;t win" changeset="10143368">
    <nd ref="1522953483"/>
    <nd ref="182957472"/>
    <nd ref="364859673"/>
    <nd ref="1551256446"/>
    <tag k="highway" v="residential"/>
    <tag k="maxspeed" v="50"/>
    <tag k="name" v="Elliot Street"/>
  </way>
  <way id="17665532" version="8" timestamp="2012-01-06T05:11:38Z" uid="103574" user="Here is the repulsant snozzcumber!" changeset="10307924"/>
</osm>
