<?xml version='1.0' encoding='UTF-8'?>
<osm version="0.6" generator="libosmium/2.20.0">
  <way id="1767203" version="1" timestamp="2007-08-06T18:48:01Z" uid="8328" user="benpre" changeset="193040">
    <nd ref="25375341"/>
    <nd ref="365141"/>
    <nd ref="21511610"/>
    <nd ref="365142"/>
    <nd ref="365143"/>
    <nd ref="365152"/>
    <nd ref="365153"/>
    <nd ref="365154"/>
    <nd ref="365155"/>
    <nd ref="365156"/>
    <nd ref="365157"/>
    <nd ref="365158"/>
    <nd ref="365159"/>
    <nd ref="365160"/>
    <nd ref="365170"/>
    <nd ref="365171"/>
    <nd ref="365172"/>
    <nd ref="365173"/>
    <nd ref="365174"/>
    <nd ref="365180"/>
    <nd ref="365181"/>
    <nd ref="365182"/>
    <nd ref="365183"/>
    <nd ref="365184"/>
    <nd ref="365185"/>
    <nd ref="25375703"/>
    <tag k="created_by" v="JOSM"/>
    <tag k="highway" v="motorway"/>
    <tag k="oneway" v="true"/>
    <tag k="ref" v="M5"/>
  </way>
  <way id="1767203" version="2" timestamp="2007-10-07T23:52:29Z" uid="3937" user="southglos" changeset="57204">
    <nd ref="25375341"/>
    <nd ref="60975770"/>
    <nd ref="365141"/>
    <nd ref="21511610"/>
    <nd ref="60975772"/>
    <nd ref="365142"/>
    <nd ref="365143"/>
    <nd ref="60975778"/>
    <nd ref="365152"/>
    <nd ref="365153"/>
    <nd ref="365154"/>
    <nd ref="365155"/>
    <nd ref="365156"/>
    <nd ref="365157"/>
    <nd ref="365158"/>
    <nd ref="60975780"/>
    <nd ref="365159"/>
    <nd ref="365160"/>
    <nd ref="365170"/>
    <nd ref="365171"/>
    <nd ref="365172"/>
    <nd ref="365173"/>
    <nd ref="365174"/>
    <nd ref="365180"/>
    <nd ref="365181"/>
    <nd ref="365182"/>
    <nd ref="365183"/>
    <nd ref="365184"/>
    <nd ref="365185"/>
    <nd ref="25375703"/>
    <tag k="created_by" v="JOSM"/>
    <tag k="highway" v="motorway"/>
    <tag k="oneway" v="true"/>
    <tag k="ref" v="M5"/>
  </way>
  <way id="1767203" version="3" timestamp="2008-08-21T20:12:29Z" uid="10983" user="Guy" changeset="363486">
    <nd ref="25375341"/>
    <nd ref="60975770"/>
    <nd ref="365141"/>
    <nd ref="21511610"/>
    <nd ref="60975772"/>
    <nd ref="365142"/>
    <nd ref="365143"/>
    <nd ref="60975778"/>
    <nd ref="365152"/>
    <nd ref="365153"/>
    <nd ref="365154"/>
    <nd ref="365155"/>
    <nd ref="365156"/>
    <tag k="created_by" v="Potlatch 0.10b"/>
    <tag k="highway" v="motorway"/>
    <tag k="oneway" v="true"/>
    <tag k="ref" v="M5"/>
  </way>
  <way id="1767203" version="4" timestamp="2008-10-12T21:30:47Z" uid="61216" user="UniEagle" changeset="291201">
    <nd ref="25375341"/>
    <nd ref="60975770"/>
    <nd ref="365141"/>
    <nd ref="21511610"/>
    <nd ref="60975772"/>
    <nd ref="365142"/>
    <nd ref="365143"/>
    <nd ref="60975778"/>
    <nd ref="365152"/>
    <nd ref="365153"/>
    <nd ref="365154"/>
    <tag k="created_by" v="Potlatch 0.10b"/>
    <tag k="highway" v="motorway"/>
    <tag k="oneway" v="true"/>
    <tag k="ref" v="M5"/>
  </way>
  <way id="1767203" version="5" timestamp="2008-10-27T16:24:25Z" uid="63284" user="Mark B" changeset="595543">
    <nd ref="25375341"/>
    <nd ref="60975770"/>
    <nd ref="365141"/>
    <nd ref="21511610"/>
    <nd ref="60975772"/>
    <nd ref="365142"/>
    <nd ref="365143"/>
    <nd ref="60975778"/>
    <nd ref="365152"/>
    <nd ref="365153"/>
    <nd ref="365154"/>
    <tag k="created_by" v="Potlatch 0.10e"/>
    <tag k="highway" v="motorway"/>
    <tag k="maxspeed" v="112"/>
    <tag k="oneway" v="true"/>
    <tag k="ref" v="M5"/>
  </way>
  <way id="1767203" version="6" timestamp="2010-01-14T13:44:01Z" uid="98682" user="Stéphane Péchard" changeset="3616576">
    <nd ref="25375341"/>
    <nd ref="60975770"/>
    <nd ref="365141"/>
    <nd ref="21511610"/>
    <nd ref="60975772"/>
    <nd ref="365142"/>
    <nd ref="365143"/>
    <nd ref="60975778"/>
    <nd ref="365152"/>
    <nd ref="365153"/>
    <nd ref="365154"/>
    <tag k="highway" v="motorway"/>
    <tag k="maxspeed" v="112"/>
    <tag k="oneway" v="yes"/>
    <tag k="ref" v="M5"/>
  </way>
  <way id="1767203" version="7" timestamp="2010-02-27T18:00:33Z" uid="91657" user="Pink Duck" changeset="3990785">
    <nd ref="25375341"/>
    <nd ref="60975770"/>
    <nd ref="365141"/>
    <nd ref="21511610"/>
    <nd ref="60975772"/>
    <nd ref="365142"/>
    <nd ref="365143"/>
    <nd ref="60975778"/>
    <nd ref="365152"/>
    <nd ref="365153"/>
    <nd ref="365154"/>
    <tag k="highway" v="motorway"/>
    <tag k="maxspeed" v="70 mph"/>
    <tag k="oneway" v="yes"/>
    <tag k="ref" v="M5"/>
  </way>
  <way id="1767203" version="8" timestamp="2010-02-27T19:14:54Z" uid="91657" user="Pink Duck" changeset="3990785">
    <nd ref="25375341"/>
    <nd ref="60975770"/>
    <nd ref="365141"/>
    <nd ref="21511610"/>
    <nd ref="60975772"/>
    <nd ref="365142"/>
    <nd ref="365143"/>
    <nd ref="60975778"/>
    <nd ref="365152"/>
    <nd ref="365153"/>
    <nd ref="365154"/>
    <tag k="highway" v="motorway"/>
    <tag k="maxspeed" v="70 mph"/>
    <tag k="oneway" v="yes"/>
    <tag k="ref" v="M5"/>
  </way>
  <way id="1767203" version="9" timestamp="2011-03-12T03:46:11Z" uid="8235" user="chriscf" changeset="7529455">
    <nd ref="25375341"/>
    <nd ref="60975770"/>
    <nd ref="365141"/>
    <nd ref="21511610"/>
    <nd ref="60975772"/>
    <nd ref="365142"/>
    <nd ref="365143"/>
    <nd ref="60975778"/>
    <nd ref="365152"/>
    <nd ref="365153"/>
    <nd ref="365154"/>
    <tag k="highway" v="motorway"/>
    <tag k="maxspeed" v="70 mph"/>
    <tag k="oneway" v="yes"/>
    <tag k="ref" v="M5"/>
    <tag k="source:maxspeed" v="UK:motorway"/>
  </way>
  <way id="1767203" version="10" timestamp="2011-10-08T14:50:07Z" uid="4951" user="PeterIto" changeset="9503299">
    <nd ref="25375341"/>
    <nd ref="60975770"/>
    <nd ref="365141"/>
    <nd ref="21511610"/>
    <nd ref="60975772"/>
    <nd ref="365142"/>
    <nd ref="365143"/>
    <nd ref="60975778"/>
    <nd ref="365152"/>
    <nd ref="365153"/>
    <nd ref="365154"/>
    <tag k="highway" v="motorway"/>
    <tag k="lanes" v="3"/>
    <tag k="maxspeed" v="70 mph"/>
    <tag k="oneway" v="yes"/>
    <tag k="ref" v="M5"/>
    <tag k="source:maxspeed" v="UK:motorway"/>
  </way>
  <way id="1767203" version="11" timestamp="2011-10-13T16:58:35Z" uid="4951" user="PeterIto" changeset="9548920">
    <nd ref="25375341"/>
    <nd ref="60975770"/>
    <nd ref="365141"/>
    <nd ref="21511610"/>
    <nd ref="60975772"/>
    <nd ref="365142"/>
    <nd ref="365143"/>
    <nd ref="60975778"/>
    <nd ref="365152"/>
    <nd ref="365153"/>
    <nd ref="365154"/>
    <tag k="highway" v="motorway"/>
    <tag k="lanes" v="3"/>
    <tag k="maxspeed" v="70 mph"/>
    <tag k="oneway" v="yes"/>
    <tag k="operator" v="highways agency"/>
    <tag k="ref" v="M5"/>
    <tag k="source:maxspeed" v="UK:motorway"/>
  </way>
  <way id="1767203" version="12" timestamp="2011-10-18T13:31:34Z" uid="524388" user="BCTransResearch" changeset="9591249">
    <nd ref="25375341"/>
    <nd ref="60975770"/>
    <nd ref="365141"/>
    <nd ref="21511610"/>
    <nd ref="60975772"/>
    <nd ref="365142"/>
    <nd ref="365143"/>
    <nd ref="60975778"/>
    <nd ref="365152"/>
    <nd ref="365153"/>
    <nd ref="365154"/>
    <tag k="highway" v="motorway"/>
    <tag k="highways_agency:area" v="1"/>
    <tag k="lanes" v="3"/>
    <tag k="maxspeed" v="70 mph"/>
    <tag k="oneway" v="yes"/>
    <tag k="operator" v="highways agency"/>
    <tag k="ref" v="M5"/>
    <tag k="source:maxspeed" v="UK:motorway"/>
  </way>
  <way id="1767203" version="13" timestamp="2011-10-19T09:00:38Z" uid="524388" user="BCTransResearch" changeset="9597831">
    <nd ref="25375341"/>
    <nd ref="60975770"/>
    <nd ref="365141"/>
    <nd ref="21511610"/>
    <nd ref="60975772"/>
    <nd ref="365142"/>
    <nd ref="365143"/>
    <nd ref="60975778"/>
    <nd ref="365152"/>
    <nd ref="365153"/>
    <nd ref="365154"/>
    <tag k="highway" v="motorway"/>
    <tag k="highways_agency:area" v="2"/>
    <tag k="lanes" v="3"/>
    <tag k="maxspeed" v="70 mph"/>
    <tag k="oneway" v="yes"/>
    <tag k="operator" v="highways agency"/>
    <tag k="ref" v="M5"/>
    <tag k="source:maxspeed" v="UK:motorway"/>
  </way>
  <way id="1767203" version="14" timestamp="2011-11-05T14:43:20Z" uid="38244" user="jamicu" changeset="9746948">
    <nd ref="25375341"/>
    <nd ref="60975770"/>
    <nd ref="365141"/>
    <nd ref="21511610"/>
    <nd ref="60975772"/>
    <nd ref="365142"/>
    <nd ref="365143"/>
    <tag k="highway" v="motorway"/>
    <tag k="highways_agency:area" v="2"/>
    <tag k="lanes" v="3"/>
    <tag k="lit" v="yes"/>
    <tag k="maxspeed" v="70 mph"/>
    <tag k="oneway" v="yes"/>
    <tag k="operator" v="highways agency"/>
    <tag k="ref" v="M5"/>
    <tag k="source:maxspeed" v="UK:motorway"/>
  </way>
  <way id="1767203" version="15" timestamp="2012-02-14T10:14:50Z" uid="61216" user="UniEagle" changeset="10681275"/>
</osm>
