<?xml version='1.0' encoding='UTF-8'?>
<osm version="0.6" generator="libosmium/2.20.0">
  <way id="17739158" version="4" timestamp="2009-02-23T13:33:54Z" uid="34428" user="usm78-gis" changeset="634299"/>
  <way id="17739203" version="6" timestamp="2010-02-14T17:08:49Z" uid="74617" user="JohnSmith" changeset="3875836">
    <nd ref="182932802"/>
    <nd ref="182951323"/>
    <nd ref="182946353"/>
    <nd ref="184639271"/>
    <tag k="highway" v="residential"/>
    <tag k="maxspeed" v="50"/>
    <tag k="name" v="School Street"/>
  </way>
  <way id="17739203" version="7" timestamp="2011-11-29T09:49:23Z" uid="103574" user="El Segundo can&apos;t win" changeset="9985937"/>
  <way id="17739359" version="6" timestamp="2010-02-14T17:08:30Z" uid="74617" user="JohnSmith" changeset="3875836">
    <nd ref="183847652"/>
    <nd ref="183847654"/>
    <tag k="highway" v="service"/>
    <tag k="maxspeed" v="50"/>
    <tag k="name" v="Grove Street"/>
  </way>
  <way id="17739359" version="7" timestamp="2011-11-22T10:54:58Z" uid="103574" user="El Segundo can&apos;t win" changeset="9906789"/>
  <way id="17739521" version="9" timestamp="2010-02-14T17:08:31Z" uid="74617" user="JohnSmith" changeset="3875836">
    <nd ref="79382425"/>
    <nd ref="79382980"/>
    <nd ref="79382981"/>
    <nd ref="79382982"/>
    <nd ref="76474398"/>
    <nd ref="79382984"/>
    <tag k="cycleway" v="lane"/>
    <tag k="highway" v="secondary"/>
    <tag k="name" v="Annerley Road"/>
    <tag k="rcn" v="yes"/>
  </way>
  <way id="17739521" version="10" timestamp="2010-03-09T05:33:47Z" uid="211951" user="Dr Paul Martin" changeset="4078221">
    <nd ref="79382425"/>
    <nd ref="79382980"/>
    <nd ref="79382981"/>
    <nd ref="79382982"/>
    <nd ref="76474398"/>
    <nd ref="79382984"/>
    <tag k="cycleway" v="lane"/>
    <tag k="highway" v="secondary"/>
    <tag k="lcn" v="yes"/>
    <tag k="name" v="Annerley Road"/>
  </way>
  <way id="17739521" version="11" timestamp="2011-12-13T06:23:40Z" uid="103574" user="El Segundo can&apos;t win" changeset="10105152">
    <nd ref="79382425"/>
    <nd ref="79382980"/>
    <nd ref="79382981"/>
    <nd ref="79382982"/>
    <nd ref="1543854524"/>
    <nd ref="79382984"/>
    <tag k="cycleway" v="lane"/>
    <tag k="highway" v="secondary"/>
    <tag k="lcn" v="yes"/>
    <tag k="name" v="Annerley Road"/>
  </way>
  <way id="17739521" version="12" timestamp="2011-12-13T06:25:19Z" uid="103574" user="El Segundo can&apos;t win" changeset="10105152">
    <nd ref="1543855556"/>
    <nd ref="1543855555"/>
    <nd ref="79382980"/>
    <nd ref="79382981"/>
    <nd ref="79382982"/>
    <nd ref="1543854524"/>
    <nd ref="79382984"/>
    <tag k="cycleway" v="lane"/>
    <tag k="highway" v="secondary"/>
    <tag k="lcn" v="yes"/>
    <tag k="name" v="Annerley Road"/>
  </way>
  <way id="17739521" version="13" timestamp="2011-12-13T06:29:42Z" uid="103574" user="El Segundo can&apos;t win" changeset="10105152">
    <nd ref="1543855556"/>
    <nd ref="1543855555"/>
    <nd ref="1543858372"/>
    <nd ref="79382981"/>
    <nd ref="79382982"/>
    <nd ref="1543854524"/>
    <nd ref="79382984"/>
    <tag k="cycleway" v="lane"/>
    <tag k="highway" v="secondary"/>
    <tag k="lcn" v="yes"/>
    <tag k="name" v="Annerley Road"/>
  </way>
  <way id="17739521" version="14" timestamp="2011-12-14T11:53:19Z" uid="103574" user="El Segundo can&apos;t win" changeset="10114906">
    <nd ref="1543855556"/>
    <nd ref="1543855555"/>
    <nd ref="1543858372"/>
    <nd ref="79382981"/>
    <nd ref="79382982"/>
    <nd ref="1543854524"/>
    <nd ref="1545686186"/>
    <tag k="cycleway" v="lane"/>
    <tag k="highway" v="secondary"/>
    <tag k="lcn" v="yes"/>
    <tag k="name" v="Annerley Road"/>
  </way>
  <way id="17739521" version="15" timestamp="2011-12-14T11:58:39Z" uid="103574" user="El Segundo can&apos;t win" changeset="10114906"/>
  <way id="17739635" version="10" timestamp="2010-09-29T16:37:04Z" uid="9581" user="Lobelt" changeset="5913189">
    <nd ref="24950422"/>
    <nd ref="24950423"/>
    <nd ref="930307509"/>
    <tag k="highway" v="motorway"/>
    <tag k="lanes" v="2"/>
    <tag k="maxspeed" v="130"/>
    <tag k="oneway" v="yes"/>
    <tag k="ref" v="A 650"/>
  </way>
  <way id="17739635" version="11" timestamp="2012-01-06T20:19:35Z" uid="136321" user="Teddy73" changeset="10314439"/>
</osm>
