<?xml version='1.0' encoding='UTF-8'?>
<osm version="0.6" generator="libosmium/2.20.0">
  <way id="17743457" version="1" timestamp="2007-12-22T22:31:22Z" uid="6975" user="ulfl" changeset="393940">
    <nd ref="56357123"/>
    <nd ref="56273746"/>
    <nd ref="56373005"/>
    <nd ref="56373002"/>
    <nd ref="56372995"/>
    <nd ref="56372987"/>
    <nd ref="56326460"/>
    <nd ref="56326449"/>
    <nd ref="56361248"/>
    <tag k="created_by" v="JOSM"/>
    <tag k="highway" v="tertiary"/>
    <tag k="name" v="Am Huxmühlenbach"/>
    <tag k="source" v="frida"/>
  </way>
  <way id="17743457" version="2" timestamp="2008-03-16T03:36:07Z" uid="26958" user="KAMiKAZOW" changeset="331185">
    <nd ref="56357123"/>
    <nd ref="56373005"/>
    <nd ref="56373002"/>
    <nd ref="56372995"/>
    <nd ref="56372987"/>
    <nd ref="56326460"/>
    <nd ref="56326449"/>
    <nd ref="56361248"/>
    <tag k="created_by" v="Potlatch 0.7b"/>
    <tag k="highway" v="tertiary"/>
    <tag k="name" v="Am Huxmühlenbach"/>
    <tag k="source" v="frida"/>
  </way>
  <way id="17743457" version="3" timestamp="2008-05-27T20:57:30Z" uid="26406" user="Kevin_Price" changeset="541412">
    <nd ref="56357123"/>
    <nd ref="56373005"/>
    <nd ref="56373002"/>
    <nd ref="56372995"/>
    <nd ref="56372987"/>
    <nd ref="56326460"/>
    <nd ref="56326449"/>
    <nd ref="56361248"/>
    <tag k="created_by" v="Potlatch 0.7b"/>
    <tag k="highway" v="residential"/>
    <tag k="name" v="Am Huxmühlenbach"/>
    <tag k="source" v="frida"/>
  </way>
  <way id="17743457" version="4" timestamp="2010-03-08T14:01:53Z" uid="39926" user="Henry Hurink" changeset="4072067">
    <nd ref="662870842"/>
    <nd ref="56373005"/>
    <nd ref="56373002"/>
    <nd ref="56372995"/>
    <nd ref="56372987"/>
    <nd ref="56326460"/>
    <nd ref="56326449"/>
    <nd ref="56361248"/>
    <tag k="highway" v="residential"/>
    <tag k="name" v="Am Huxmühlenbach"/>
    <tag k="source" v="frida"/>
  </way>
  <way id="17743457" version="5" timestamp="2011-02-25T13:12:54Z" uid="130175" user="Imp" changeset="7390343">
    <nd ref="554890697"/>
    <nd ref="1172148748"/>
    <nd ref="1172148743"/>
    <nd ref="1172148772"/>
    <nd ref="1172148803"/>
    <nd ref="1172148787"/>
    <nd ref="1172148789"/>
    <tag k="cycleway" v="lane"/>
    <tag k="highway" v="tertiary"/>
    <tag k="lanes" v="1"/>
    <tag k="maxspeed" v="50"/>
    <tag k="name" v="Meller Landstraße"/>
    <tag k="ref" v="K 228"/>
  </way>
  <way id="17743457" version="6" timestamp="2011-06-07T15:11:41Z" uid="130175" user="Imp" changeset="8371027">
    <nd ref="554890697"/>
    <nd ref="1172148748"/>
    <nd ref="1172148743"/>
    <nd ref="1172148772"/>
    <nd ref="1172148803"/>
    <nd ref="1172148787"/>
    <nd ref="1172148789"/>
    <tag k="cycleway" v="lane"/>
    <tag k="highway" v="tertiary"/>
    <tag k="lanes" v="1"/>
    <tag k="maxspeed" v="50"/>
    <tag k="name" v="Meller Landstraße"/>
    <tag k="oneway" v="yes"/>
    <tag k="ref" v="K 228"/>
  </way>
  <way id="17743457" version="7" timestamp="2012-03-26T12:30:17Z" uid="130175" user="Imp" changeset="11105470"/>
  <way id="17743459" version="1" timestamp="2007-12-22T22:31:23Z" uid="6975" user="ulfl" changeset="393940">
    <nd ref="56361248"/>
    <nd ref="56361242"/>
    <nd ref="56367759"/>
    <nd ref="56260144"/>
    <nd ref="56352969"/>
    <nd ref="56250819"/>
    <nd ref="56340102"/>
    <nd ref="56340079"/>
    <nd ref="56394042"/>
    <nd ref="56258431"/>
    <nd ref="56391957"/>
    <tag k="created_by" v="JOSM"/>
    <tag k="highway" v="residential"/>
    <tag k="name" v="Meller Straße"/>
    <tag k="source" v="frida"/>
  </way>
  <way id="17743459" version="2" timestamp="2008-03-22T12:49:49Z" uid="31396" user="marcos" changeset="369270">
    <nd ref="56361248"/>
    <nd ref="56361242"/>
    <nd ref="56367759"/>
    <nd ref="56260144"/>
    <nd ref="56352969"/>
    <nd ref="56250819"/>
    <nd ref="56340102"/>
    <nd ref="56340079"/>
    <nd ref="56258431"/>
    <nd ref="56391957"/>
    <tag k="created_by" v="Potlatch 0.7b"/>
    <tag k="highway" v="residential"/>
    <tag k="name" v="Meller Straße"/>
    <tag k="source" v="frida"/>
  </way>
  <way id="17743459" version="3" timestamp="2008-03-22T12:51:08Z" uid="31396" user="marcos" changeset="369270">
    <nd ref="56361248"/>
    <nd ref="56361242"/>
    <nd ref="56367759"/>
    <nd ref="56260144"/>
    <nd ref="56352969"/>
    <nd ref="56250819"/>
    <nd ref="56340102"/>
    <nd ref="56340079"/>
    <nd ref="253322498"/>
    <nd ref="56258431"/>
    <nd ref="56391957"/>
    <tag k="created_by" v="Potlatch 0.7b"/>
    <tag k="highway" v="residential"/>
    <tag k="name" v="Meller Straße"/>
    <tag k="source" v="frida"/>
  </way>
  <way id="17743459" version="4" timestamp="2009-12-12T05:59:51Z" uid="31231" user="Andre68" changeset="3353717">
    <nd ref="56361248"/>
    <nd ref="56367759"/>
    <nd ref="56352969"/>
    <nd ref="56340102"/>
    <nd ref="56340079"/>
    <nd ref="253322498"/>
    <nd ref="56391957"/>
    <tag k="highway" v="residential"/>
    <tag k="name" v="Meller Straße"/>
    <tag k="source" v="frida"/>
  </way>
  <way id="17743459" version="5" timestamp="2012-03-26T12:30:17Z" uid="130175" user="Imp" changeset="11105470"/>
  <way id="17743499" version="10" timestamp="2010-02-14T17:07:34Z" uid="74617" user="JohnSmith" changeset="3875836">
    <nd ref="79382425"/>
    <nd ref="358343866"/>
    <nd ref="183893490"/>
    <nd ref="183893492"/>
    <nd ref="358343501"/>
    <nd ref="74799855"/>
    <nd ref="331389455"/>
    <tag k="cycleway" v="lane"/>
    <tag k="highway" v="secondary"/>
    <tag k="name" v="Annerley Road"/>
    <tag k="oneway" v="yes"/>
    <tag k="rcn" v="yes"/>
  </way>
  <way id="17743499" version="11" timestamp="2010-03-09T05:33:34Z" uid="211951" user="Dr Paul Martin" changeset="4078221">
    <nd ref="79382425"/>
    <nd ref="358343866"/>
    <nd ref="183893490"/>
    <nd ref="183893492"/>
    <nd ref="358343501"/>
    <nd ref="74799855"/>
    <nd ref="331389455"/>
    <tag k="cycleway" v="lane"/>
    <tag k="highway" v="secondary"/>
    <tag k="lcn" v="yes"/>
    <tag k="name" v="Annerley Road"/>
    <tag k="oneway" v="yes"/>
  </way>
  <way id="17743499" version="12" timestamp="2010-07-08T06:16:01Z" uid="103574" user="El Segundo can&apos;t win" changeset="5163661">
    <nd ref="79382425"/>
    <nd ref="358343866"/>
    <nd ref="183893490"/>
    <nd ref="183893492"/>
    <nd ref="358343501"/>
    <nd ref="806292347"/>
    <nd ref="74799855"/>
    <nd ref="331389455"/>
    <tag k="cycleway" v="lane"/>
    <tag k="highway" v="secondary"/>
    <tag k="lcn" v="yes"/>
    <tag k="name" v="Annerley Road"/>
    <tag k="oneway" v="yes"/>
  </way>
  <way id="17743499" version="13" timestamp="2011-12-13T06:25:18Z" uid="103574" user="El Segundo can&apos;t win" changeset="10105152">
    <nd ref="1543855556"/>
    <nd ref="358343866"/>
    <nd ref="183893490"/>
    <nd ref="183893492"/>
    <nd ref="358343501"/>
    <nd ref="806292347"/>
    <nd ref="74799855"/>
    <nd ref="331389455"/>
    <tag k="cycleway" v="lane"/>
    <tag k="highway" v="secondary"/>
    <tag k="lcn" v="yes"/>
    <tag k="name" v="Annerley Road"/>
    <tag k="oneway" v="yes"/>
  </way>
  <way id="17743499" version="14" timestamp="2011-12-15T11:23:43Z" uid="103574" user="El Segundo can&apos;t win" changeset="10123306">
    <nd ref="1543855556"/>
    <nd ref="358343866"/>
    <nd ref="1547047825"/>
    <nd ref="183893492"/>
    <nd ref="358343501"/>
    <nd ref="806292347"/>
    <nd ref="74799855"/>
    <nd ref="331389455"/>
    <tag k="cycleway" v="lane"/>
    <tag k="highway" v="secondary"/>
    <tag k="lcn" v="yes"/>
    <tag k="name" v="Annerley Road"/>
    <tag k="oneway" v="yes"/>
  </way>
  <way id="17743499" version="15" timestamp="2011-12-18T01:32:37Z" uid="103574" user="El Segundo can&apos;t win" changeset="10143307"/>
  <way id="17743603" version="3" timestamp="2010-02-14T17:08:52Z" uid="74617" user="JohnSmith" changeset="3875836">
    <nd ref="183871956"/>
    <nd ref="183894825"/>
    <nd ref="183894826"/>
    <nd ref="183884795"/>
    <tag k="highway" v="residential"/>
    <tag k="maxspeed" v="50"/>
    <tag k="name" v="Hawthorne Street"/>
  </way>
  <way id="17743603" version="4" timestamp="2010-03-09T05:24:56Z" uid="211951" user="Dr Paul Martin" changeset="4078140">
    <nd ref="183871956"/>
    <nd ref="183894826"/>
    <nd ref="183884795"/>
    <tag k="highway" v="residential"/>
    <tag k="maxspeed" v="50"/>
    <tag k="name" v="Hawthorne Street"/>
  </way>
  <way id="17743603" version="5" timestamp="2010-06-13T19:50:33Z" uid="114230" user="danerikk" changeset="4981917">
    <nd ref="183871956"/>
    <nd ref="183894826"/>
    <nd ref="771932775"/>
    <nd ref="183884795"/>
    <tag k="highway" v="residential"/>
    <tag k="maxspeed" v="50"/>
    <tag k="name" v="Hawthorne Street"/>
  </way>
  <way id="17743603" version="6" timestamp="2011-11-29T09:49:22Z" uid="103574" user="El Segundo can&apos;t win" changeset="9985937">
    <nd ref="1522949882"/>
    <nd ref="183894826"/>
    <nd ref="771932775"/>
    <nd ref="183884795"/>
    <tag k="highway" v="residential"/>
    <tag k="maxspeed" v="50"/>
    <tag k="name" v="Hawthorne Street"/>
  </way>
  <way id="17743603" version="7" timestamp="2011-12-18T01:46:16Z" uid="103574" user="El Segundo can&apos;t win" changeset="10143307">
    <nd ref="1522949882"/>
    <nd ref="1551230329"/>
    <nd ref="771932775"/>
    <nd ref="183884795"/>
    <tag k="highway" v="residential"/>
    <tag k="maxspeed" v="50"/>
    <tag k="name" v="Hawthorne Street"/>
  </way>
  <way id="17743603" version="8" timestamp="2012-01-06T04:59:54Z" uid="103574" user="Here is the repulsant snozzcumber!" changeset="10307924"/>
  <way id="17743736" version="4" timestamp="2010-02-14T17:08:52Z" uid="74617" user="JohnSmith" changeset="3875836">
    <nd ref="183884795"/>
    <nd ref="183895916"/>
    <tag k="bridge" v="yes"/>
    <tag k="highway" v="residential"/>
    <tag k="layer" v="1"/>
    <tag k="maxspeed" v="50"/>
    <tag k="name" v="Hawthorne Street"/>
  </way>
  <way id="17743736" version="5" timestamp="2012-01-06T04:59:54Z" uid="103574" user="Here is the repulsant snozzcumber!" changeset="10307924"/>
</osm>
