<?xml version='1.0' encoding='UTF-8'?>
<osm version="0.6" generator="libosmium/2.20.0">
  <way id="17746069" version="7" timestamp="2010-02-14T17:08:51Z" uid="74617" user="JohnSmith" changeset="3875836">
    <nd ref="183913479"/>
    <nd ref="94673055"/>
    <nd ref="206135388"/>
    <nd ref="183911787"/>
    <tag k="highway" v="residential"/>
    <tag k="maxspeed" v="50"/>
    <tag k="name" v="Wilton Street"/>
  </way>
  <way id="17746069" version="8" timestamp="2012-01-15T18:21:35Z" uid="147510" user="woodpeck_fixbot" changeset="10400850">
    <nd ref="183913479"/>
    <nd ref="94673055"/>
    <nd ref="206135388"/>
    <nd ref="183911787"/>
    <tag k="highway" v="residential"/>
    <tag k="name" v="Wilton Street"/>
  </way>
  <way id="17746069" version="9" timestamp="2012-02-16T00:03:21Z" uid="103574" user="Here is the repulsant snozzcumber!" changeset="10697755">
    <nd ref="1634704160"/>
    <nd ref="94673055"/>
    <nd ref="206135388"/>
    <nd ref="183911787"/>
    <tag k="highway" v="residential"/>
    <tag k="name" v="Wilton Street"/>
  </way>
  <way id="17746349" version="2" timestamp="2010-02-14T17:08:53Z" uid="74617" user="JohnSmith" changeset="3875836">
    <nd ref="183911787"/>
    <nd ref="183921106"/>
    <nd ref="183921108"/>
    <nd ref="183921109"/>
    <nd ref="183921111"/>
    <nd ref="183921112"/>
    <nd ref="183921113"/>
    <nd ref="183921114"/>
    <tag k="foot" v="yes"/>
    <tag k="highway" v="footway"/>
  </way>
  <way id="17746349" version="3" timestamp="2012-02-28T04:49:27Z" uid="103574" user="Here is the repulsant snozzcumber!" changeset="10815545"/>
  <way id="17746522" version="7" timestamp="2009-08-11T11:04:13Z" uid="4467" user="Rosscoe" changeset="2107049">
    <nd ref="21478001"/>
    <nd ref="183922588"/>
    <tag k="highway" v="primary"/>
    <tag k="is_in" v="Brisbane, QLD, Queensland, Australia"/>
    <tag k="name" v="Ipswich Road"/>
  </way>
  <way id="17746522" version="8" timestamp="2010-02-14T17:07:38Z" uid="74617" user="JohnSmith" changeset="3875836">
    <nd ref="21478001"/>
    <nd ref="183922588"/>
    <tag k="highway" v="primary"/>
    <tag k="name" v="Ipswich Road"/>
  </way>
  <way id="17746522" version="9" timestamp="2010-03-21T15:14:56Z" uid="74617" user="JohnSmith" changeset="4192148">
    <nd ref="21478001"/>
    <nd ref="183922588"/>
    <tag k="highway" v="primary"/>
  </way>
  <way id="17746522" version="10" timestamp="2011-01-04T16:12:32Z" uid="103782" user="Jordan Anderson" changeset="6862402">
    <nd ref="21478001"/>
    <nd ref="183922588"/>
    <tag k="highway" v="primary"/>
    <tag k="name" v="Ipswich Road"/>
  </way>
  <way id="17746522" version="11" timestamp="2012-02-28T05:00:24Z" uid="103574" user="Here is the repulsant snozzcumber!" changeset="10815545"/>
  <way id="17746682" version="5" timestamp="2010-02-14T17:07:36Z" uid="74617" user="JohnSmith" changeset="3875836">
    <nd ref="183899108"/>
    <nd ref="183925586"/>
    <tag k="highway" v="residential"/>
    <tag k="maxspeed" v="50"/>
    <tag k="name" v="Gibbon Street"/>
  </way>
  <way id="17746682" version="6" timestamp="2012-01-15T18:21:37Z" uid="147510" user="woodpeck_fixbot" changeset="10400850">
    <nd ref="183899108"/>
    <nd ref="183925586"/>
    <tag k="highway" v="residential"/>
    <tag k="name" v="Gibbon Street"/>
  </way>
  <way id="17746682" version="7" timestamp="2012-02-28T04:59:35Z" uid="103574" user="Here is the repulsant snozzcumber!" changeset="10815545"/>
  <way id="17746821" version="4" timestamp="2010-02-14T17:10:28Z" uid="74617" user="JohnSmith" changeset="3875836">
    <nd ref="74799844"/>
    <nd ref="183925584"/>
    <nd ref="183925585"/>
    <nd ref="183925586"/>
    <nd ref="183925588"/>
    <nd ref="183925589"/>
    <nd ref="183925590"/>
    <nd ref="183925591"/>
    <tag k="highway" v="unclassified"/>
    <tag k="maxspeed" v="50"/>
    <tag k="name" v="Stanley Street"/>
  </way>
  <way id="17746821" version="5" timestamp="2010-03-09T05:26:36Z" uid="211951" user="Dr Paul Martin" changeset="4078140">
    <nd ref="74799844"/>
    <nd ref="183925584"/>
    <nd ref="183925585"/>
    <nd ref="183925586"/>
    <nd ref="183925588"/>
    <nd ref="183925589"/>
    <nd ref="183925590"/>
    <nd ref="183925591"/>
    <tag k="highway" v="unclassified"/>
    <tag k="maxspeed" v="50"/>
    <tag k="name" v="Stanley Street"/>
    <tag k="oneway" v="yes"/>
  </way>
  <way id="17746821" version="6" timestamp="2010-03-09T05:27:16Z" uid="211951" user="Dr Paul Martin" changeset="4078140">
    <nd ref="74799844"/>
    <nd ref="183925584"/>
    <nd ref="183925586"/>
    <nd ref="663132701"/>
    <nd ref="183925588"/>
    <nd ref="183925589"/>
    <nd ref="183925590"/>
    <nd ref="183925591"/>
    <tag k="highway" v="unclassified"/>
    <tag k="maxspeed" v="50"/>
    <tag k="name" v="Stanley Street"/>
    <tag k="oneway" v="yes"/>
  </way>
  <way id="17746821" version="7" timestamp="2010-03-09T05:27:28Z" uid="211951" user="Dr Paul Martin" changeset="4078140">
    <nd ref="74799844"/>
    <nd ref="183925584"/>
    <nd ref="183925586"/>
    <nd ref="663132701"/>
    <nd ref="183925588"/>
    <nd ref="183925589"/>
    <nd ref="183925590"/>
    <nd ref="183925591"/>
    <tag k="highway" v="unclassified"/>
    <tag k="lcn" v="yes"/>
    <tag k="maxspeed" v="50"/>
    <tag k="name" v="Stanley Street"/>
    <tag k="oneway" v="yes"/>
  </way>
  <way id="17746821" version="8" timestamp="2011-06-05T12:21:49Z" uid="22094" user="Chadzopkyo" changeset="8348479">
    <nd ref="74799844"/>
    <nd ref="183925584"/>
    <nd ref="183925586"/>
    <nd ref="183925588"/>
    <nd ref="183925590"/>
    <nd ref="183925591"/>
    <tag k="highway" v="unclassified"/>
    <tag k="lcn" v="yes"/>
    <tag k="maxspeed" v="50"/>
    <tag k="name" v="Stanley Street"/>
    <tag k="oneway" v="yes"/>
  </way>
  <way id="17746821" version="9" timestamp="2012-01-15T18:21:38Z" uid="147510" user="woodpeck_fixbot" changeset="10400850">
    <nd ref="74799844"/>
    <nd ref="183925584"/>
    <nd ref="183925586"/>
    <nd ref="183925588"/>
    <nd ref="183925590"/>
    <nd ref="183925591"/>
    <tag k="highway" v="unclassified"/>
    <tag k="lcn" v="yes"/>
    <tag k="name" v="Stanley Street"/>
    <tag k="oneway" v="yes"/>
  </way>
  <way id="17746879" version="1" timestamp="2007-12-22T22:50:57Z" uid="6454" user="B10xxx" changeset="403501">
    <nd ref="183926314"/>
    <nd ref="165508281"/>
    <nd ref="183926325"/>
    <tag k="created_by" v="JOSM"/>
    <tag k="highway" v="footway"/>
  </way>
  <way id="17746879" version="2" timestamp="2008-02-21T22:09:38Z" uid="17602" user="B10xyz" changeset="172037">
    <nd ref="183926314"/>
    <nd ref="165508281"/>
    <tag k="created_by" v="JOSM"/>
    <tag k="highway" v="footway"/>
    <tag k="name" v="CALLE DEL MEGIO"/>
  </way>
  <way id="17746879" version="3" timestamp="2008-03-03T22:51:58Z" uid="4526" user="EdoM" changeset="263534">
    <nd ref="183926314"/>
    <nd ref="165508281"/>
    <tag k="created_by" v="JOSM"/>
    <tag k="highway" v="footway"/>
    <tag k="name" v="Calle del Megio"/>
  </way>
  <way id="17746879" version="4" timestamp="2008-06-20T19:20:11Z" uid="17602" user="B10xyz" changeset="239848">
    <nd ref="183926314"/>
    <nd ref="165508281"/>
    <tag k="created_by" v="JOSM"/>
    <tag k="highway" v="footway"/>
    <tag k="name" v="CALLE DEL MEGIO"/>
  </way>
  <way id="17746879" version="5" timestamp="2008-06-21T10:09:19Z" uid="31450" user="sanna" changeset="239989">
    <nd ref="183926314"/>
    <nd ref="165508281"/>
    <tag k="highway" v="footway"/>
    <tag k="name" v="CALLE DEL MEGIO"/>
  </way>
  <way id="17746879" version="6" timestamp="2008-11-28T12:09:40Z" uid="17602" user="B10xyz" changeset="803657">
    <nd ref="165508281"/>
    <nd ref="183926314"/>
    <nd ref="257481056"/>
    <tag k="highway" v="footway"/>
    <tag k="name" v="CALLE DEL MEGIO"/>
    <tag k="note" v="1775 CS"/>
  </way>
  <way id="17746879" version="7" timestamp="2009-07-10T23:20:08Z" uid="17602" user="B10xyz" changeset="1793392">
    <nd ref="165508281"/>
    <nd ref="183926314"/>
    <nd ref="257481056"/>
    <tag k="highway" v="footway"/>
    <tag k="note" v="1775 CS"/>
    <tag k="visible_name" v="CALLE DEL MEGIO"/>
  </way>
  <way id="17746879" version="8" timestamp="2009-11-17T18:21:47Z" uid="17602" user="B10xyz" changeset="3143268">
    <nd ref="165508281"/>
    <nd ref="566316206"/>
    <nd ref="566316232"/>
    <nd ref="183926314"/>
    <nd ref="257481056"/>
    <tag k="highway" v="footway"/>
    <tag k="note" v="1775 CS"/>
    <tag k="visible_name" v="CALLE DEL MEGIO"/>
  </way>
  <way id="17746879" version="9" timestamp="2011-05-10T15:35:40Z" uid="451916" user="PamlynJ" changeset="8103331">
    <nd ref="165508281"/>
    <nd ref="566316206"/>
    <nd ref="566316232"/>
    <nd ref="183926314"/>
    <nd ref="257481056"/>
    <tag k="highway" v="footway"/>
    <tag k="name" v="c Megio"/>
    <tag k="note" v="1775 CS"/>
    <tag k="visible_name" v="CALLE DEL MEGIO"/>
  </way>
  <way id="17746879" version="10" timestamp="2011-05-12T14:19:48Z" uid="451916" user="PamlynJ" changeset="8122686">
    <nd ref="165508281"/>
    <nd ref="566316206"/>
    <nd ref="566316232"/>
    <nd ref="183926314"/>
    <nd ref="257481056"/>
    <tag k="highway" v="footway"/>
    <tag k="name" v="Calle del Megio"/>
    <tag k="note" v="1775 CS"/>
    <tag k="visible_name" v="CALLE DEL MEGIO"/>
  </way>
  <way id="17746879" version="11" timestamp="2011-07-14T13:09:21Z" uid="486260" user="Luca81" changeset="8721678">
    <nd ref="165508281"/>
    <nd ref="566316206"/>
    <nd ref="566316232"/>
    <nd ref="183926314"/>
    <nd ref="257481056"/>
    <tag k="highway" v="pedestrian"/>
    <tag k="name" v="Calle del Megio"/>
    <tag k="note" v="1775 CS"/>
    <tag k="visible_name" v="CALLE DEL MEGIO"/>
  </way>
  <way id="17746908" version="11" timestamp="2011-06-03T07:01:42Z" uid="34428" user="usm78-gis" changeset="8326444">
    <nd ref="176809110"/>
    <nd ref="482094428"/>
    <nd ref="183925967"/>
    <nd ref="183925976"/>
    <nd ref="287833506"/>
    <nd ref="209041874"/>
    <nd ref="183925982"/>
    <nd ref="282664876"/>
    <nd ref="183925990"/>
    <nd ref="183925995"/>
    <nd ref="1309819946"/>
    <tag k="highway" v="tertiary"/>
    <tag k="lanes" v="2"/>
    <tag k="lit" v="yes"/>
    <tag k="name" v="Satamatie"/>
    <tag k="oneway" v="no"/>
    <tag k="surface" v="paved"/>
  </way>
  <way id="17746953" version="7" timestamp="2010-02-14T17:07:38Z" uid="74617" user="JohnSmith" changeset="3875836">
    <nd ref="74799847"/>
    <nd ref="355543218"/>
    <nd ref="183927081"/>
    <nd ref="183895916"/>
    <tag k="highway" v="residential"/>
    <tag k="maxspeed" v="50"/>
    <tag k="name" v="Reid Street"/>
    <tag k="oneway" v="yes"/>
  </way>
  <way id="17746953" version="8" timestamp="2012-01-15T18:21:40Z" uid="147510" user="woodpeck_fixbot" changeset="10400850">
    <nd ref="74799847"/>
    <nd ref="355543218"/>
    <nd ref="183927081"/>
    <nd ref="183895916"/>
    <tag k="highway" v="residential"/>
    <tag k="name" v="Reid Street"/>
    <tag k="oneway" v="yes"/>
  </way>
  <way id="17746953" version="9" timestamp="2012-02-28T04:49:02Z" uid="103574" user="Here is the repulsant snozzcumber!" changeset="10815545"/>
  <way id="17746995" version="4" timestamp="2010-02-14T17:10:34Z" uid="74617" user="JohnSmith" changeset="3875836">
    <nd ref="331700700"/>
    <nd ref="183927375"/>
    <nd ref="183927376"/>
    <nd ref="94687151"/>
    <tag k="highway" v="motorway_link"/>
    <tag k="name" v="Pacific Motorway"/>
    <tag k="oneway" v="yes"/>
    <tag k="ref" v="MR3"/>
  </way>
  <way id="17746995" version="5" timestamp="2010-06-13T19:48:14Z" uid="114230" user="danerikk" changeset="4981917">
    <nd ref="771930024"/>
    <nd ref="771930050"/>
    <nd ref="771930053"/>
    <nd ref="771930056"/>
    <nd ref="771930059"/>
    <nd ref="183927375"/>
    <nd ref="183927376"/>
    <nd ref="771930067"/>
    <nd ref="94687151"/>
    <tag k="highway" v="motorway_link"/>
    <tag k="name" v="Pacific Motorway"/>
    <tag k="oneway" v="yes"/>
    <tag k="ref" v="MR3"/>
  </way>
  <way id="17746995" version="6" timestamp="2012-03-30T01:32:47Z" uid="349913" user="Peter W34" changeset="11146361"/>
  <way id="17746879" version="12" timestamp="2012-07-16T19:33:57Z" uid="722137" user="OSMF Redaction Account" changeset="12250384"/>
  <way id="17746908" version="12" timestamp="2012-04-27T10:23:17Z" uid="137246" user="Pikari" changeset="11431361">
    <nd ref="176809110"/>
    <nd ref="482094428"/>
    <nd ref="183925976"/>
    <nd ref="287833506"/>
    <nd ref="209041874"/>
    <nd ref="183925982"/>
    <nd ref="282664876"/>
    <nd ref="183925990"/>
    <nd ref="1732822080"/>
    <nd ref="1732822051"/>
    <nd ref="183925995"/>
    <nd ref="1309819946"/>
    <tag k="highway" v="tertiary"/>
    <tag k="lanes" v="2"/>
    <tag k="lit" v="yes"/>
    <tag k="name" v="Satamatie"/>
    <tag k="oneway" v="no"/>
    <tag k="surface" v="paved"/>
  </way>
  <way id="17746908" version="13" timestamp="2012-07-22T05:24:15Z" uid="722137" user="OSMF Redaction Account" changeset="12425823">
    <nd ref="176809110"/>
    <nd ref="482094428"/>
    <nd ref="183925976"/>
    <nd ref="287833506"/>
    <nd ref="209041874"/>
    <nd ref="183925982"/>
    <nd ref="282664876"/>
    <nd ref="183925990"/>
    <nd ref="1732822080"/>
    <nd ref="1732822051"/>
    <nd ref="183925995"/>
    <tag k="highway" v="tertiary"/>
    <tag k="lanes" v="2"/>
    <tag k="lit" v="yes"/>
    <tag k="name" v="Satamatie"/>
    <tag k="oneway" v="no"/>
    <tag k="surface" v="paved"/>
  </way>
  <way id="17746908" version="14" timestamp="2012-07-25T12:59:12Z" uid="137246" user="Pikari" changeset="12486690">
    <nd ref="176809110"/>
    <nd ref="482094428"/>
    <nd ref="183925976"/>
    <nd ref="287833506"/>
    <nd ref="209041874"/>
    <nd ref="183925982"/>
    <nd ref="282664876"/>
    <nd ref="183925990"/>
    <nd ref="1732822080"/>
    <nd ref="1732822051"/>
    <nd ref="183925995"/>
    <nd ref="1837613860"/>
    <nd ref="1309819946"/>
    <nd ref="183926007"/>
    <nd ref="183926013"/>
    <nd ref="1837613853"/>
    <nd ref="183926021"/>
    <nd ref="183926030"/>
    <nd ref="183926036"/>
    <nd ref="183926044"/>
    <nd ref="482094320"/>
    <nd ref="281677190"/>
    <nd ref="281677188"/>
    <nd ref="183926053"/>
    <nd ref="183926061"/>
    <nd ref="183926067"/>
    <nd ref="482094307"/>
    <nd ref="183926073"/>
    <nd ref="482094285"/>
    <nd ref="1837613850"/>
    <nd ref="183926076"/>
    <nd ref="183926084"/>
    <nd ref="183926089"/>
    <nd ref="1837613861"/>
    <nd ref="183926093"/>
    <nd ref="1837613876"/>
    <nd ref="1837613872"/>
    <nd ref="183926103"/>
    <nd ref="1837613865"/>
    <nd ref="183926106"/>
    <nd ref="1837613855"/>
    <nd ref="176809157"/>
    <nd ref="1837613862"/>
    <nd ref="1837613880"/>
    <nd ref="183926113"/>
    <nd ref="1837613866"/>
    <nd ref="183926120"/>
    <nd ref="1837613858"/>
    <nd ref="183926127"/>
    <nd ref="1837613846"/>
    <nd ref="183926136"/>
    <nd ref="183926140"/>
    <nd ref="302057675"/>
    <nd ref="183926276"/>
    <nd ref="1837613879"/>
    <nd ref="270228931"/>
    <nd ref="183926143"/>
    <tag k="highway" v="tertiary"/>
    <tag k="lanes" v="2"/>
    <tag k="lit" v="yes"/>
    <tag k="name" v="Satamatie"/>
    <tag k="surface" v="paved"/>
  </way>
</osm>
