<?xml version='1.0' encoding='UTF-8'?>
<osm version="0.6" generator="libosmium/2.20.0">
  <way id="17757110" version="4" timestamp="2010-02-14T17:08:33Z" uid="74617" user="JohnSmith" changeset="3875836">
    <nd ref="183875724"/>
    <nd ref="182936027"/>
    <tag k="highway" v="tertiary"/>
    <tag k="name" v="Stephens Road"/>
    <tag k="oneway" v="yes"/>
  </way>
  <way id="17757110" version="5" timestamp="2010-03-09T05:22:16Z" uid="211951" user="Dr Paul Martin" changeset="4078140"/>
  <way id="17757139" version="4" timestamp="2010-02-14T17:08:33Z" uid="74617" user="JohnSmith" changeset="3875836">
    <nd ref="79383487"/>
    <nd ref="358343886"/>
    <nd ref="183874203"/>
    <tag k="highway" v="tertiary"/>
    <tag k="name" v="Stephens Road"/>
    <tag k="oneway" v="yes"/>
  </way>
  <way id="17757139" version="5" timestamp="2011-12-13T06:23:42Z" uid="103574" user="El Segundo can&apos;t win" changeset="10105152">
    <nd ref="79383487"/>
    <nd ref="358343886"/>
    <nd ref="1543854554"/>
    <tag k="highway" v="tertiary"/>
    <tag k="name" v="Stephens Road"/>
    <tag k="oneway" v="yes"/>
  </way>
  <way id="17757139" version="6" timestamp="2011-12-14T11:53:23Z" uid="103574" user="El Segundo can&apos;t win" changeset="10114906"/>
  <way id="17757158" version="4" timestamp="2010-02-14T17:08:33Z" uid="74617" user="JohnSmith" changeset="3875836">
    <nd ref="183874203"/>
    <nd ref="184018683"/>
    <tag k="highway" v="residential"/>
    <tag k="maxspeed" v="50"/>
    <tag k="name" v="Athlone Street"/>
    <tag k="oneway" v="yes"/>
  </way>
  <way id="17757158" version="5" timestamp="2010-03-09T05:21:55Z" uid="211951" user="Dr Paul Martin" changeset="4078140">
    <nd ref="183874203"/>
    <nd ref="663132383"/>
    <nd ref="184018683"/>
    <tag k="highway" v="residential"/>
    <tag k="maxspeed" v="50"/>
    <tag k="name" v="Athlone Street"/>
    <tag k="oneway" v="yes"/>
  </way>
  <way id="17757158" version="6" timestamp="2011-12-13T06:23:43Z" uid="103574" user="El Segundo can&apos;t win" changeset="10105152"/>
  <way id="17757198" version="4" timestamp="2010-02-14T17:08:34Z" uid="74617" user="JohnSmith" changeset="3875836">
    <nd ref="184018683"/>
    <nd ref="184018960"/>
    <nd ref="183868931"/>
    <tag k="highway" v="residential"/>
    <tag k="maxspeed" v="50"/>
    <tag k="name" v="Athlone Street"/>
    <tag k="oneway" v="yes"/>
  </way>
  <way id="17757198" version="5" timestamp="2010-03-09T05:21:45Z" uid="211951" user="Dr Paul Martin" changeset="4078140">
    <nd ref="184018683"/>
    <nd ref="663132371"/>
    <nd ref="184018960"/>
    <nd ref="663132372"/>
    <nd ref="183868931"/>
    <tag k="highway" v="residential"/>
    <tag k="maxspeed" v="50"/>
    <tag k="name" v="Athlone Street"/>
    <tag k="oneway" v="yes"/>
  </way>
  <way id="17757198" version="6" timestamp="2011-12-13T06:23:42Z" uid="103574" user="El Segundo can&apos;t win" changeset="10105152"/>
  <way id="17757254" version="4" timestamp="2010-02-14T17:08:33Z" uid="74617" user="JohnSmith" changeset="3875836">
    <nd ref="184018683"/>
    <nd ref="184019293"/>
    <tag k="highway" v="residential"/>
    <tag k="maxspeed" v="50"/>
    <tag k="name" v="Athlone Street"/>
  </way>
  <way id="17757254" version="5" timestamp="2011-12-13T06:23:42Z" uid="103574" user="El Segundo can&apos;t win" changeset="10105152"/>
  <way id="17757347" version="4" timestamp="2010-02-14T17:08:32Z" uid="74617" user="JohnSmith" changeset="3875836">
    <nd ref="183863889"/>
    <nd ref="184020141"/>
    <tag k="highway" v="residential"/>
    <tag k="maxspeed" v="50"/>
    <tag k="name" v="Colin Street"/>
  </way>
  <way id="17757347" version="5" timestamp="2010-06-27T23:14:08Z" uid="103574" user="El Segundo can&apos;t win" changeset="5094016">
    <nd ref="183863889"/>
    <nd ref="793774622"/>
    <nd ref="184020141"/>
    <tag k="highway" v="residential"/>
    <tag k="maxspeed" v="50"/>
    <tag k="name" v="Colin Street"/>
  </way>
  <way id="17757347" version="6" timestamp="2011-12-13T06:23:42Z" uid="103574" user="El Segundo can&apos;t win" changeset="10105152"/>
</osm>
