<?xml version='1.0' encoding='UTF-8'?>
<osm version="0.6" generator="libosmium/2.20.0">
  <way id="17760482" version="6" timestamp="2010-02-14T17:08:14Z" uid="74617" user="JohnSmith" changeset="3875836">
    <nd ref="182877912"/>
    <nd ref="184046854"/>
    <nd ref="184046856"/>
    <tag k="highway" v="residential"/>
    <tag k="maxspeed" v="50"/>
    <tag k="name" v="Dutton Street"/>
  </way>
  <way id="17760482" version="7" timestamp="2011-11-19T11:20:10Z" uid="103574" user="El Segundo can&apos;t win" changeset="9871911"/>
  <way id="17760502" version="7" timestamp="2010-02-14T17:08:15Z" uid="74617" user="JohnSmith" changeset="3875836">
    <nd ref="182877919"/>
    <nd ref="503901901"/>
    <nd ref="79384530"/>
    <tag k="highway" v="residential"/>
    <tag k="maxspeed" v="50"/>
    <tag k="name" v="Rawnsley Street"/>
  </way>
  <way id="17760502" version="8" timestamp="2010-05-12T09:46:44Z" uid="103574" user="Fairfield" changeset="4675663">
    <nd ref="182877915"/>
    <nd ref="503901901"/>
    <nd ref="79384530"/>
    <tag k="highway" v="residential"/>
    <tag k="maxspeed" v="50"/>
    <tag k="name" v="Rawnsley Street"/>
  </way>
  <way id="17760502" version="9" timestamp="2010-11-05T01:37:32Z" uid="103574" user="El Segundo can&apos;t win" changeset="6292814">
    <nd ref="182877915"/>
    <nd ref="503901901"/>
    <tag k="highway" v="residential"/>
    <tag k="maxspeed" v="50"/>
    <tag k="name" v="Rawnsley Street"/>
  </way>
  <way id="17760502" version="10" timestamp="2011-11-22T09:46:41Z" uid="103574" user="El Segundo can&apos;t win" changeset="9906789"/>
  <way id="17760514" version="6" timestamp="2010-02-14T17:08:38Z" uid="74617" user="JohnSmith" changeset="3875836">
    <nd ref="182877919"/>
    <nd ref="184047002"/>
    <nd ref="184047004"/>
    <nd ref="184047009"/>
    <nd ref="184047014"/>
    <tag k="highway" v="residential"/>
    <tag k="maxspeed" v="50"/>
    <tag k="name" v="Railway Terrace"/>
    <tag k="source" v="nearmap"/>
  </way>
  <way id="17760514" version="7" timestamp="2010-05-12T09:46:51Z" uid="103574" user="Fairfield" changeset="4675663">
    <nd ref="182877915"/>
    <nd ref="184047004"/>
    <nd ref="184047009"/>
    <nd ref="184047014"/>
    <tag k="highway" v="residential"/>
    <tag k="maxspeed" v="50"/>
    <tag k="name" v="Railway Terrace"/>
    <tag k="source" v="nearmap"/>
  </way>
  <way id="17760514" version="8" timestamp="2011-11-22T09:47:35Z" uid="103574" user="El Segundo can&apos;t win" changeset="9906789"/>
  <way id="17760761" version="6" timestamp="2010-02-14T17:07:57Z" uid="74617" user="JohnSmith" changeset="3875836">
    <nd ref="87698189"/>
    <nd ref="184049212"/>
    <nd ref="184049213"/>
    <nd ref="184049232"/>
    <tag k="highway" v="residential"/>
    <tag k="maxspeed" v="50"/>
    <tag k="name" v="Princess Street"/>
    <tag k="oneway" v="yes"/>
  </way>
  <way id="17760761" version="7" timestamp="2011-11-19T09:53:16Z" uid="103574" user="El Segundo can&apos;t win" changeset="9871402"/>
  <way id="17760776" version="3" timestamp="2010-02-14T17:08:03Z" uid="74617" user="JohnSmith" changeset="3875836">
    <nd ref="87695020"/>
    <nd ref="184049326"/>
    <nd ref="184049327"/>
    <nd ref="184049328"/>
    <tag k="highway" v="secondary"/>
    <tag k="name" v="Cornwall Street"/>
    <tag k="oneway" v="yes"/>
  </way>
  <way id="17760776" version="4" timestamp="2010-11-05T01:26:22Z" uid="103574" user="El Segundo can&apos;t win" changeset="6292814">
    <nd ref="87695020"/>
    <nd ref="184049326"/>
    <nd ref="184049327"/>
    <nd ref="184049328"/>
    <tag k="foot" v="no"/>
    <tag k="highway" v="secondary"/>
    <tag k="name" v="Cornwall Street"/>
    <tag k="oneway" v="yes"/>
  </way>
  <way id="17760776" version="5" timestamp="2011-11-24T10:43:32Z" uid="103574" user="El Segundo can&apos;t win" changeset="9931635"/>
</osm>
