<?xml version='1.0' encoding='UTF-8'?>
<osm version="0.6" generator="libosmium/2.20.0">
  <way id="17911159" version="2" timestamp="2008-01-19T21:02:31Z" uid="9581" user="Lobelt" changeset="666934">
    <nd ref="121764669"/>
    <nd ref="150400745"/>
    <nd ref="145958211"/>
    <nd ref="31074608"/>
    <nd ref="185476640"/>
    <tag k="created_by" v="Potlatch 0.5a"/>
    <tag k="highway" v="secondary"/>
    <tag k="name" v="Pappelallee"/>
  </way>
  <way id="17911159" version="3" timestamp="2008-09-03T08:10:01Z" uid="9581" user="Lobelt" changeset="507332">
    <nd ref="121764669"/>
    <nd ref="150400745"/>
    <nd ref="293340876"/>
    <nd ref="293340875"/>
    <nd ref="145958211"/>
    <nd ref="31074608"/>
    <nd ref="185476640"/>
    <tag k="created_by" v="Potlatch 0.5a"/>
    <tag k="highway" v="secondary"/>
    <tag k="name" v="Pappelallee"/>
  </way>
  <way id="17911159" version="4" timestamp="2009-02-11T10:39:10Z" uid="9581" user="Lobelt" changeset="344494">
    <nd ref="121764669"/>
    <nd ref="150400745"/>
    <nd ref="293340876"/>
    <nd ref="293340875"/>
    <nd ref="145958211"/>
    <nd ref="31074608"/>
    <nd ref="185476640"/>
    <tag k="created_by" v="Potlatch 0.5a"/>
    <tag k="highway" v="secondary"/>
    <tag k="maxspeed" v="50"/>
    <tag k="name" v="Pappelallee"/>
  </way>
  <way id="17911159" version="5" timestamp="2009-02-19T13:53:10Z" uid="42123" user="Ropino" changeset="561981">
    <nd ref="121764669"/>
    <nd ref="150400745"/>
    <nd ref="293340876"/>
    <nd ref="293340875"/>
    <nd ref="145958211"/>
    <nd ref="347543962"/>
    <nd ref="31074608"/>
    <nd ref="185476640"/>
    <tag k="created_by" v="Potlatch 0.5a"/>
    <tag k="highway" v="secondary"/>
    <tag k="maxspeed" v="50"/>
    <tag k="name" v="Pappelallee"/>
  </way>
  <way id="17911159" version="6" timestamp="2009-12-07T13:06:56Z" uid="14029" user="MartinDornfelder" changeset="3315612">
    <nd ref="121764669"/>
    <nd ref="150400745"/>
    <nd ref="293340876"/>
    <nd ref="293340875"/>
    <nd ref="145958211"/>
    <nd ref="347543962"/>
    <tag k="highway" v="secondary"/>
    <tag k="maxspeed" v="50"/>
    <tag k="name" v="Waisenstraße"/>
  </way>
  <way id="17911159" version="7" timestamp="2011-06-17T01:34:04Z" uid="28234" user="derandi" changeset="8461268">
    <nd ref="121764669"/>
    <nd ref="150400745"/>
    <nd ref="293340876"/>
    <nd ref="293340875"/>
    <nd ref="145958211"/>
    <nd ref="214751497"/>
    <tag k="highway" v="secondary"/>
    <tag k="maxspeed" v="50"/>
    <tag k="name" v="Waisenstraße"/>
  </way>
  <way id="17911159" version="8" timestamp="2011-08-19T22:07:49Z" uid="28234" user="derandi" changeset="9069889">
    <nd ref="121764669"/>
    <nd ref="150400745"/>
    <nd ref="293340876"/>
    <nd ref="1404976700"/>
    <nd ref="293340875"/>
    <nd ref="1404976709"/>
    <nd ref="145958211"/>
    <nd ref="214751497"/>
    <tag k="highway" v="secondary"/>
    <tag k="maxspeed" v="50"/>
    <tag k="name" v="Waisenstraße"/>
  </way>
  <way id="17911159" version="9" timestamp="2011-09-01T21:22:15Z" uid="28234" user="derandi" changeset="9188720"/>
  <way id="17911161" version="2" timestamp="2008-01-19T21:02:33Z" uid="9581" user="Lobelt" changeset="666934">
    <nd ref="185476633"/>
    <nd ref="185476647"/>
    <nd ref="185476640"/>
    <tag k="created_by" v="JOSM"/>
    <tag k="highway" v="secondary"/>
    <tag k="oneway" v="yes"/>
  </way>
  <way id="17911161" version="3" timestamp="2008-07-24T08:24:26Z" uid="9581" user="Lobelt" changeset="583836">
    <nd ref="185476633"/>
    <nd ref="185476647"/>
    <nd ref="185476640"/>
    <tag k="created_by" v="JOSM"/>
    <tag k="highway" v="secondary"/>
    <tag k="name" v="Pappelallee"/>
    <tag k="oneway" v="yes"/>
  </way>
  <way id="17911161" version="4" timestamp="2009-02-11T10:39:09Z" uid="9581" user="Lobelt" changeset="344494">
    <nd ref="185476633"/>
    <nd ref="185476647"/>
    <nd ref="185476640"/>
    <tag k="created_by" v="JOSM"/>
    <tag k="highway" v="secondary"/>
    <tag k="maxspeed" v="50"/>
    <tag k="name" v="Pappelallee"/>
    <tag k="oneway" v="yes"/>
  </way>
  <way id="17911161" version="5" timestamp="2009-11-10T00:32:35Z" uid="190435" user="beneb" changeset="3079160">
    <nd ref="185476633"/>
    <nd ref="185476647"/>
    <nd ref="185476640"/>
    <tag k="highway" v="secondary"/>
    <tag k="maxspeed" v="50"/>
    <tag k="name" v="Pappelallee"/>
    <tag k="oneway" v="yes"/>
  </way>
  <way id="17911161" version="6" timestamp="2010-02-11T08:38:32Z" uid="5294" user="lutz" changeset="3846364">
    <nd ref="185476633"/>
    <nd ref="31074609"/>
    <nd ref="185476640"/>
    <tag k="highway" v="secondary"/>
    <tag k="maxspeed" v="50"/>
    <tag k="name" v="Pappelallee"/>
    <tag k="oneway" v="yes"/>
  </way>
  <way id="17911161" version="7" timestamp="2011-08-21T00:47:27Z" uid="28234" user="derandi" changeset="9080008">
    <nd ref="185476633"/>
    <nd ref="31074609"/>
    <nd ref="185476640"/>
    <tag k="highway" v="secondary"/>
    <tag k="maxspeed" v="50"/>
    <tag k="name" v="Pappelallee"/>
  </way>
  <way id="17911161" version="8" timestamp="2011-09-02T00:02:24Z" uid="28234" user="derandi" changeset="9189492"/>
  <way id="17911164" version="2" timestamp="2008-01-12T13:06:16Z" uid="9581" user="Lobelt" changeset="610726">
    <nd ref="185476633"/>
    <nd ref="220759284"/>
    <nd ref="31074610"/>
    <nd ref="31072929"/>
    <nd ref="121771731"/>
    <tag k="created_by" v="Potlatch 0.5a"/>
    <tag k="highway" v="secondary"/>
    <tag k="name" v="Pappelallee"/>
  </way>
  <way id="17911164" version="3" timestamp="2008-05-20T08:19:11Z" uid="9581" user="Lobelt" changeset="487439">
    <nd ref="185476633"/>
    <nd ref="220759284"/>
    <nd ref="31074610"/>
    <nd ref="31072929"/>
    <nd ref="265903443"/>
    <nd ref="121771731"/>
    <tag k="created_by" v="Potlatch 0.5a"/>
    <tag k="highway" v="secondary"/>
    <tag k="name" v="Pappelallee"/>
  </way>
  <way id="17911164" version="4" timestamp="2008-07-24T08:24:19Z" uid="9581" user="Lobelt" changeset="583836">
    <nd ref="185476633"/>
    <nd ref="220759284"/>
    <nd ref="31074610"/>
    <nd ref="280681024"/>
    <nd ref="31072929"/>
    <nd ref="265903443"/>
    <nd ref="121771731"/>
    <tag k="created_by" v="Potlatch 0.5a"/>
    <tag k="highway" v="secondary"/>
    <tag k="name" v="Pappelallee"/>
  </way>
  <way id="17911164" version="5" timestamp="2009-02-11T10:39:09Z" uid="9581" user="Lobelt" changeset="344494">
    <nd ref="185476633"/>
    <nd ref="220759284"/>
    <nd ref="31074610"/>
    <nd ref="280681024"/>
    <nd ref="31072929"/>
    <nd ref="265903443"/>
    <nd ref="121771731"/>
    <tag k="created_by" v="Potlatch 0.5a"/>
    <tag k="highway" v="secondary"/>
    <tag k="maxspeed" v="50"/>
    <tag k="name" v="Pappelallee"/>
  </way>
  <way id="17911164" version="6" timestamp="2009-11-10T00:32:34Z" uid="190435" user="beneb" changeset="3079160">
    <nd ref="185476633"/>
    <nd ref="220759284"/>
    <nd ref="31074610"/>
    <tag k="highway" v="secondary"/>
    <tag k="maxspeed" v="50"/>
    <tag k="name" v="Pappelallee"/>
  </way>
  <way id="17911164" version="7" timestamp="2011-09-02T00:02:24Z" uid="28234" user="derandi" changeset="9189492"/>
  <way id="17911166" version="2" timestamp="2009-02-11T10:39:09Z" uid="9581" user="Lobelt" changeset="344494">
    <nd ref="185476640"/>
    <nd ref="31074609"/>
    <nd ref="185476633"/>
    <tag k="created_by" v="Potlatch 0.5a"/>
    <tag k="highway" v="secondary"/>
    <tag k="maxspeed" v="50"/>
    <tag k="name" v="Pappelallee"/>
    <tag k="oneway" v="yes"/>
  </way>
  <way id="17911166" version="3" timestamp="2009-11-10T00:32:33Z" uid="190435" user="beneb" changeset="3079160">
    <nd ref="185476633"/>
    <nd ref="31074609"/>
    <nd ref="185476640"/>
    <tag k="highway" v="secondary"/>
    <tag k="maxspeed" v="50"/>
    <tag k="name" v="Pappelallee"/>
  </way>
  <way id="17911166" version="4" timestamp="2010-03-05T21:07:39Z" uid="95293" user="Nightdive" changeset="4044622"/>
  <way id="17911663" version="4" timestamp="2008-07-07T23:57:38Z" uid="6975" user="ulfl" changeset="429882">
    <nd ref="185480648"/>
    <nd ref="185480649"/>
    <nd ref="185480650"/>
    <nd ref="185480652"/>
    <nd ref="185480648"/>
    <tag k="sport" v="soccer"/>
  </way>
  <way id="17911663" version="5" timestamp="2009-03-25T20:24:00Z" uid="106615" user="matafumar" changeset="859506">
    <nd ref="185480648"/>
    <nd ref="185480649"/>
    <nd ref="185480650"/>
    <nd ref="185480652"/>
    <nd ref="185480648"/>
    <tag k="created_by" v="Potlatch 0.10f"/>
    <tag k="leisure" v="pitch"/>
    <tag k="sport" v="soccer"/>
  </way>
  <way id="17911663" version="6" timestamp="2009-03-25T20:26:55Z" uid="106615" user="matafumar" changeset="859506">
    <nd ref="185480648"/>
    <nd ref="185480649"/>
    <nd ref="185480650"/>
    <nd ref="185480652"/>
    <nd ref="185480648"/>
    <tag k="created_by" v="Potlatch 0.10f"/>
    <tag k="leisure" v="pitch"/>
    <tag k="name" v="TSV Großhadern"/>
    <tag k="sport" v="soccer"/>
  </way>
  <way id="17911663" version="7" timestamp="2009-06-20T18:14:26Z" uid="85761" user="klausis" changeset="1577174">
    <nd ref="185480648"/>
    <nd ref="185480649"/>
    <nd ref="185480650"/>
    <nd ref="185480652"/>
    <nd ref="185480648"/>
    <tag k="leisure" v="pitch"/>
    <tag k="name" v="TSV Großhadern"/>
    <tag k="sport" v="soccer"/>
  </way>
  <way id="17911663" version="8" timestamp="2009-09-04T21:20:00Z" uid="36809" user="pfoten_weg_!_" changeset="2374562">
    <nd ref="185480648"/>
    <nd ref="185480649"/>
    <nd ref="185480650"/>
    <nd ref="185480652"/>
    <nd ref="185480648"/>
    <tag k="leisure" v="pitch"/>
    <tag k="name" v="TSV Großhadern"/>
    <tag k="sport" v="soccer"/>
  </way>
  <way id="17911663" version="9" timestamp="2012-07-18T02:54:13Z" uid="722137" user="OSMF Redaction Account" changeset="12274251">
    <nd ref="185480648"/>
    <nd ref="185480649"/>
    <nd ref="185480650"/>
    <nd ref="185480652"/>
    <nd ref="185480648"/>
    <tag k="sport" v="soccer"/>
  </way>
  <way id="17911663" version="10" timestamp="2012-07-28T11:19:42Z" uid="8703" user="rolandg" changeset="12521777">
    <nd ref="185480648"/>
    <nd ref="185480649"/>
    <nd ref="185480650"/>
    <nd ref="185480652"/>
    <nd ref="185480648"/>
    <tag k="leisure" v="pitch"/>
    <tag k="sport" v="soccer"/>
  </way>
</osm>
