<?xml version='1.0' encoding='UTF-8'?>
<osm version="0.6" generator="libosmium/2.20.0">
  <way id="17922008" version="2" timestamp="2010-07-06T17:48:44Z" uid="74617" user="JohnSmith" changeset="5152225">
    <nd ref="185577025"/>
    <nd ref="185573152"/>
    <tag k="highway" v="residential"/>
    <tag k="maxspeed" v="50"/>
    <tag k="maxspeed:source" v="default residential speed limit in Australia"/>
    <tag k="name" v="Carnamah Lane"/>
  </way>
  <way id="17922008" version="3" timestamp="2012-01-15T18:27:04Z" uid="147510" user="woodpeck_fixbot" changeset="10400850">
    <nd ref="185577025"/>
    <nd ref="185573152"/>
    <tag k="highway" v="residential"/>
    <tag k="name" v="Carnamah Lane"/>
  </way>
  <way id="17922260" version="5" timestamp="2010-07-06T17:38:47Z" uid="74617" user="JohnSmith" changeset="5152225">
    <nd ref="185579649"/>
    <nd ref="677257196"/>
    <nd ref="677257199"/>
    <tag k="highway" v="residential"/>
    <tag k="maxspeed" v="50"/>
    <tag k="maxspeed:source" v="default residential speed limit in Australia"/>
    <tag k="name" v="Chairlift Avenue"/>
  </way>
  <way id="17922260" version="6" timestamp="2012-01-15T18:27:07Z" uid="147510" user="woodpeck_fixbot" changeset="10400850">
    <nd ref="185579649"/>
    <nd ref="677257196"/>
    <nd ref="677257199"/>
    <tag k="highway" v="residential"/>
    <tag k="name" v="Chairlift Avenue"/>
  </way>
  <way id="17922637" version="2" timestamp="2008-05-12T18:15:34Z" uid="36809" user="pfoten_weg_!_" changeset="433654">
    <nd ref="185583638"/>
    <nd ref="185582866"/>
    <nd ref="185583640"/>
    <tag k="created_by" v="Potlatch 0.9a"/>
    <tag k="highway" v="track"/>
    <tag k="motorcar" v="no"/>
  </way>
  <way id="17922637" version="3" timestamp="2008-05-13T22:03:02Z" uid="36809" user="pfoten_weg_!_" changeset="442681">
    <nd ref="185583638"/>
    <nd ref="185582866"/>
    <nd ref="185583640"/>
    <tag k="created_by" v="Potlatch 0.9a"/>
    <tag k="highway" v="track"/>
    <tag k="motorcar" v="no"/>
    <tag k="name" v="Ger채umt"/>
  </way>
  <way id="17922637" version="4" timestamp="2008-07-21T16:56:52Z" uid="37850" user="mawis" changeset="562788">
    <nd ref="185583638"/>
    <nd ref="185582866"/>
    <nd ref="280081582"/>
    <tag k="created_by" v="Potlatch 0.9a"/>
    <tag k="highway" v="track"/>
    <tag k="motorcar" v="no"/>
    <tag k="name" v="Ger채umt"/>
  </way>
  <way id="17922637" version="5" timestamp="2009-04-13T18:59:49Z" uid="106615" user="matafumar" changeset="505760">
    <nd ref="185583638"/>
    <nd ref="185582866"/>
    <nd ref="280081582"/>
    <tag k="created_by" v="Potlatch 0.10f"/>
    <tag k="highway" v="track"/>
    <tag k="motorcar" v="no"/>
    <tag k="name" v="Zyllnhardt ger채umt"/>
  </way>
  <way id="17922637" version="6" timestamp="2009-08-26T09:32:21Z" uid="36809" user="pfoten_weg_!_" changeset="2265170">
    <nd ref="185583638"/>
    <nd ref="185582866"/>
    <nd ref="280081582"/>
    <tag k="highway" v="track"/>
    <tag k="motorcar" v="no"/>
    <tag k="name" v="Zyllnhardt ger채umt"/>
  </way>
  <way id="17922637" version="7" timestamp="2012-03-10T17:08:29Z" uid="345715" user="USSEraser" changeset="10934269">
    <nd ref="453731112"/>
    <nd ref="1668924172"/>
    <nd ref="185583638"/>
    <tag k="highway" v="track"/>
    <tag k="motorcar" v="no"/>
    <tag k="surface" v="grass"/>
  </way>
  <way id="17922637" version="8" timestamp="2012-03-10T17:26:12Z" uid="345715" user="USSEraser" changeset="10934503">
    <nd ref="453731112"/>
    <nd ref="1668924172"/>
    <nd ref="185583638"/>
    <tag k="highway" v="track"/>
    <tag k="motorcar" v="no"/>
    <tag k="surface" v="grass"/>
    <tag k="tracktype" v="grade4"/>
  </way>
  <way id="17922717" version="4" timestamp="2010-07-06T17:41:01Z" uid="74617" user="JohnSmith" changeset="5152225">
    <nd ref="185584576"/>
    <nd ref="185586008"/>
    <nd ref="185584575"/>
    <tag k="highway" v="residential"/>
    <tag k="maxspeed" v="50"/>
    <tag k="maxspeed:source" v="default residential speed limit in Australia"/>
    <tag k="name" v="Nagle Avenue"/>
  </way>
  <way id="17922717" version="5" timestamp="2012-01-15T18:27:12Z" uid="147510" user="woodpeck_fixbot" changeset="10400850">
    <nd ref="185584576"/>
    <nd ref="185586008"/>
    <nd ref="185584575"/>
    <tag k="highway" v="residential"/>
    <tag k="name" v="Nagle Avenue"/>
  </way>
  <way id="17922771" version="2" timestamp="2010-07-06T17:38:23Z" uid="74617" user="JohnSmith" changeset="5152225">
    <nd ref="185585118"/>
    <nd ref="185585119"/>
    <tag k="highway" v="residential"/>
    <tag k="maxspeed" v="50"/>
    <tag k="maxspeed:source" v="default residential speed limit in Australia"/>
    <tag k="name" v="Fraser Avenue"/>
  </way>
  <way id="17922771" version="3" timestamp="2012-01-15T18:27:19Z" uid="147510" user="woodpeck_fixbot" changeset="10400850">
    <nd ref="185585118"/>
    <nd ref="185585119"/>
    <tag k="highway" v="residential"/>
    <tag k="name" v="Fraser Avenue"/>
  </way>
  <way id="17922852" version="3" timestamp="2010-07-06T17:38:41Z" uid="74617" user="JohnSmith" changeset="5152225">
    <nd ref="185586008"/>
    <nd ref="185586007"/>
    <nd ref="185586005"/>
    <tag k="highway" v="residential"/>
    <tag k="maxspeed" v="50"/>
    <tag k="maxspeed:source" v="default residential speed limit in Australia"/>
    <tag k="name" v="Nagle Avenue"/>
    <tag k="oneway" v="yes"/>
  </way>
  <way id="17922852" version="4" timestamp="2012-01-15T18:27:27Z" uid="147510" user="woodpeck_fixbot" changeset="10400850">
    <nd ref="185586008"/>
    <nd ref="185586007"/>
    <nd ref="185586005"/>
    <tag k="highway" v="residential"/>
    <tag k="name" v="Nagle Avenue"/>
    <tag k="oneway" v="yes"/>
  </way>
  <way id="17922922" version="3" timestamp="2008-10-08T18:44:29Z" uid="30632" user="antblant" changeset="169665">
    <nd ref="185586375"/>
    <nd ref="185586379"/>
    <tag k="bridge" v="true"/>
    <tag k="created_by" v="JOSM"/>
    <tag k="highway" v="primary"/>
    <tag k="layer" v="1"/>
    <tag k="name" v="Most Romana Dmowskiego"/>
    <tag k="oneway" v="true"/>
  </way>
  <way id="17922922" version="4" timestamp="2008-10-15T09:31:20Z" uid="53100" user="Jakub Klawiter" changeset="345211">
    <nd ref="185586375"/>
    <nd ref="185586379"/>
    <tag k="bridge" v="true"/>
    <tag k="created_by" v="JOSM"/>
    <tag k="highway" v="primary"/>
    <tag k="layer" v="1"/>
    <tag k="name" v="most Romana Dmowskiego"/>
    <tag k="oneway" v="true"/>
  </way>
  <way id="17922922" version="5" timestamp="2008-10-17T21:22:51Z" uid="53100" user="Jakub Klawiter" changeset="408627">
    <nd ref="185586375"/>
    <nd ref="185586379"/>
    <tag k="bridge" v="true"/>
    <tag k="created_by" v="JOSM"/>
    <tag k="highway" v="primary"/>
    <tag k="layer" v="1"/>
    <tag k="name" v="Most Romana Dmowskiego"/>
    <tag k="oneway" v="true"/>
  </way>
  <way id="17922922" version="6" timestamp="2009-02-27T23:15:08Z" uid="67434" user="Coven" changeset="692397">
    <nd ref="185586375"/>
    <nd ref="185586379"/>
    <tag k="bridge" v="true"/>
    <tag k="created_by" v="JOSM"/>
    <tag k="highway" v="tertiary"/>
    <tag k="layer" v="1"/>
    <tag k="name" v="Most Romana Dmowskiego"/>
    <tag k="oneway" v="true"/>
  </way>
  <way id="17922922" version="7" timestamp="2010-04-14T21:49:42Z" uid="117617" user="lms" changeset="4426883">
    <nd ref="185586375"/>
    <nd ref="185586379"/>
    <tag k="bridge" v="yes"/>
    <tag k="highway" v="tertiary"/>
    <tag k="layer" v="1"/>
    <tag k="name" v="Most Romana Dmowskiego"/>
    <tag k="oneway" v="yes"/>
  </way>
  <way id="17922922" version="8" timestamp="2011-05-19T16:36:51Z" uid="457054" user="Karol Stosiek" changeset="8191186">
    <nd ref="185586375"/>
    <nd ref="185586379"/>
    <tag k="bridge" v="yes"/>
    <tag k="highway" v="tertiary"/>
    <tag k="lanes" v="2"/>
    <tag k="layer" v="1"/>
    <tag k="name" v="Most Romana Dmowskiego"/>
    <tag k="oneway" v="yes"/>
  </way>
  <way id="17922924" version="3" timestamp="2008-10-08T18:44:30Z" uid="30632" user="antblant" changeset="169665">
    <nd ref="185586346"/>
    <nd ref="185586349"/>
    <tag k="bridge" v="true"/>
    <tag k="created_by" v="JOSM"/>
    <tag k="highway" v="primary"/>
    <tag k="layer" v="1"/>
    <tag k="name" v="Most Romana Dmowskiego"/>
    <tag k="oneway" v="true"/>
  </way>
  <way id="17922924" version="4" timestamp="2008-10-15T09:31:26Z" uid="53100" user="Jakub Klawiter" changeset="345211">
    <nd ref="185586346"/>
    <nd ref="185586349"/>
    <tag k="bridge" v="true"/>
    <tag k="created_by" v="JOSM"/>
    <tag k="highway" v="primary"/>
    <tag k="layer" v="1"/>
    <tag k="name" v="most Romana Dmowskiego"/>
    <tag k="oneway" v="true"/>
  </way>
  <way id="17922924" version="5" timestamp="2008-10-17T21:22:59Z" uid="53100" user="Jakub Klawiter" changeset="408627">
    <nd ref="185586346"/>
    <nd ref="185586349"/>
    <tag k="bridge" v="true"/>
    <tag k="created_by" v="JOSM"/>
    <tag k="highway" v="primary"/>
    <tag k="layer" v="1"/>
    <tag k="name" v="Most Romana Dmowskiego"/>
    <tag k="oneway" v="true"/>
  </way>
  <way id="17922924" version="6" timestamp="2009-02-27T23:15:05Z" uid="67434" user="Coven" changeset="692397">
    <nd ref="185586346"/>
    <nd ref="185586349"/>
    <tag k="bridge" v="true"/>
    <tag k="created_by" v="JOSM"/>
    <tag k="highway" v="tertiary"/>
    <tag k="layer" v="1"/>
    <tag k="name" v="Most Romana Dmowskiego"/>
    <tag k="oneway" v="true"/>
  </way>
  <way id="17922924" version="7" timestamp="2010-04-14T21:49:08Z" uid="117617" user="lms" changeset="4426883">
    <nd ref="185586346"/>
    <nd ref="185586349"/>
    <tag k="bridge" v="yes"/>
    <tag k="highway" v="tertiary"/>
    <tag k="layer" v="1"/>
    <tag k="name" v="Most Romana Dmowskiego"/>
    <tag k="oneway" v="yes"/>
  </way>
  <way id="17922924" version="8" timestamp="2011-05-19T16:36:51Z" uid="457054" user="Karol Stosiek" changeset="8191186">
    <nd ref="185586346"/>
    <nd ref="185586349"/>
    <tag k="bridge" v="yes"/>
    <tag k="highway" v="tertiary"/>
    <tag k="lanes" v="2"/>
    <tag k="layer" v="1"/>
    <tag k="name" v="Most Romana Dmowskiego"/>
    <tag k="oneway" v="yes"/>
  </way>
  <way id="17922637" version="9" timestamp="2012-04-04T18:07:51Z" uid="290723" user="sulagaloh" changeset="11179493"/>
</osm>
