<?xml version='1.0' encoding='UTF-8'?>
<osm version="0.6" generator="libosmium/2.20.0">
  <way id="18036377" version="5" timestamp="2010-07-06T08:45:39Z" uid="74617" user="JohnSmith" changeset="5147679">
    <nd ref="186497542"/>
    <nd ref="186497543"/>
    <nd ref="186497545"/>
    <nd ref="186497547"/>
    <tag k="highway" v="residential"/>
    <tag k="maxspeed" v="50"/>
    <tag k="maxspeed:source" v="default residential speed limit in Australia"/>
    <tag k="name" v="Cannes Street"/>
    <tag k="oneway" v="yes"/>
  </way>
  <way id="18036377" version="6" timestamp="2012-01-15T18:40:17Z" uid="147510" user="woodpeck_fixbot" changeset="10400850">
    <nd ref="186497542"/>
    <nd ref="186497543"/>
    <nd ref="186497545"/>
    <nd ref="186497547"/>
    <tag k="highway" v="residential"/>
    <tag k="name" v="Cannes Street"/>
    <tag k="oneway" v="yes"/>
  </way>
  <way id="18036531" version="4" timestamp="2010-07-06T08:47:53Z" uid="74617" user="JohnSmith" changeset="5147679">
    <nd ref="174222269"/>
    <nd ref="186499181"/>
    <nd ref="186499182"/>
    <nd ref="186499184"/>
    <nd ref="186499186"/>
    <nd ref="186499187"/>
    <nd ref="186497542"/>
    <tag k="highway" v="residential"/>
    <tag k="maxspeed" v="50"/>
    <tag k="maxspeed:source" v="default residential speed limit in Australia"/>
    <tag k="name" v="Cannes Street"/>
  </way>
  <way id="18036531" version="5" timestamp="2012-01-15T18:40:19Z" uid="147510" user="woodpeck_fixbot" changeset="10400850">
    <nd ref="174222269"/>
    <nd ref="186499181"/>
    <nd ref="186499182"/>
    <nd ref="186499184"/>
    <nd ref="186499186"/>
    <nd ref="186499187"/>
    <nd ref="186497542"/>
    <tag k="highway" v="residential"/>
    <tag k="name" v="Cannes Street"/>
  </way>
  <way id="18036647" version="4" timestamp="2009-09-29T03:31:56Z" uid="176107" user="Badapple" changeset="2672519">
    <nd ref="174225309"/>
    <nd ref="186500120"/>
    <nd ref="186500122"/>
    <tag k="highway" v="residential"/>
    <tag k="name" v="Monaco Street"/>
  </way>
  <way id="18036647" version="5" timestamp="2010-07-06T08:43:11Z" uid="74617" user="JohnSmith" changeset="5147679">
    <nd ref="174225309"/>
    <nd ref="186500120"/>
    <nd ref="186500122"/>
    <tag k="highway" v="residential"/>
    <tag k="maxspeed" v="50"/>
    <tag k="maxspeed:source" v="default residential speed limit in Australia"/>
    <tag k="name" v="Monaco Street"/>
  </way>
  <way id="18036647" version="6" timestamp="2012-01-15T18:40:21Z" uid="147510" user="woodpeck_fixbot" changeset="10400850">
    <nd ref="174225309"/>
    <nd ref="186500120"/>
    <nd ref="186500122"/>
    <tag k="highway" v="residential"/>
    <tag k="name" v="Monaco Street"/>
  </way>
  <way id="18036654" version="1" timestamp="2007-12-24T06:38:09Z" uid="7617" user="Franc" changeset="408635">
    <nd ref="31202010"/>
    <nd ref="186500153"/>
    <nd ref="31202011"/>
    <nd ref="31202012"/>
    <tag k="FIXME" v="one end of this this has &apos;street&apos; the other end has &apos;road&apos;"/>
    <tag k="created_by" v="Potlatch alpha"/>
    <tag k="highway" v="residential"/>
    <tag k="name" v="Baringa Street"/>
    <tag k="source" v="survey"/>
  </way>
  <way id="18036654" version="2" timestamp="2010-07-08T02:11:56Z" uid="74617" user="JohnSmith" changeset="5162525">
    <nd ref="31202010"/>
    <nd ref="186500153"/>
    <nd ref="31202011"/>
    <nd ref="31202012"/>
    <tag k="FIXME" v="one end of this this has &apos;street&apos; the other end has &apos;road&apos;"/>
    <tag k="highway" v="residential"/>
    <tag k="maxspeed" v="50"/>
    <tag k="maxspeed:source" v="default residential speed limit in Australia"/>
    <tag k="name" v="Baringa Street"/>
    <tag k="source" v="survey"/>
  </way>
  <way id="18036654" version="3" timestamp="2012-01-15T18:40:22Z" uid="147510" user="woodpeck_fixbot" changeset="10400850">
    <nd ref="31202010"/>
    <nd ref="186500153"/>
    <nd ref="31202011"/>
    <nd ref="31202012"/>
    <tag k="FIXME" v="one end of this this has &apos;street&apos; the other end has &apos;road&apos;"/>
    <tag k="highway" v="residential"/>
    <tag k="name" v="Baringa Street"/>
    <tag k="source" v="survey"/>
  </way>
  <way id="18036656" version="1" timestamp="2007-12-24T06:38:10Z" uid="7617" user="Franc" changeset="408635">
    <nd ref="31652613"/>
    <nd ref="31652371"/>
    <nd ref="31651858"/>
    <tag k="created_by" v="Potlatch alpha"/>
    <tag k="highway" v="residential"/>
    <tag k="name" v="Northcote Street"/>
    <tag k="source:name" v="extrapolation"/>
  </way>
  <way id="18036656" version="2" timestamp="2008-01-02T22:16:09Z" uid="7617" user="Franc" changeset="517874">
    <nd ref="31652613"/>
    <nd ref="31652371"/>
    <nd ref="204004073"/>
    <tag k="created_by" v="Potlatch alpha"/>
    <tag k="highway" v="residential"/>
    <tag k="name" v="Northcote Street"/>
    <tag k="source:name" v="extrapolation"/>
  </way>
  <way id="18036656" version="3" timestamp="2010-07-08T02:11:51Z" uid="74617" user="JohnSmith" changeset="5162525">
    <nd ref="31652613"/>
    <nd ref="31652371"/>
    <nd ref="204004073"/>
    <tag k="highway" v="residential"/>
    <tag k="maxspeed" v="50"/>
    <tag k="maxspeed:source" v="default residential speed limit in Australia"/>
    <tag k="name" v="Northcote Street"/>
    <tag k="source:name" v="extrapolation"/>
  </way>
  <way id="18036656" version="4" timestamp="2012-01-15T18:40:25Z" uid="147510" user="woodpeck_fixbot" changeset="10400850">
    <nd ref="31652613"/>
    <nd ref="31652371"/>
    <nd ref="204004073"/>
    <tag k="highway" v="residential"/>
    <tag k="name" v="Northcote Street"/>
    <tag k="source:name" v="extrapolation"/>
  </way>
  <way id="18036676" version="3" timestamp="2009-09-29T03:31:34Z" uid="176107" user="Badapple" changeset="2672519">
    <nd ref="174225311"/>
    <nd ref="186500441"/>
    <nd ref="186500442"/>
    <tag k="highway" v="residential"/>
    <tag k="name" v="Brescia Street"/>
  </way>
  <way id="18036676" version="4" timestamp="2010-07-06T08:42:53Z" uid="74617" user="JohnSmith" changeset="5147679">
    <nd ref="174225311"/>
    <nd ref="186500441"/>
    <nd ref="186500442"/>
    <tag k="highway" v="residential"/>
    <tag k="maxspeed" v="50"/>
    <tag k="maxspeed:source" v="default residential speed limit in Australia"/>
    <tag k="name" v="Brescia Street"/>
  </way>
  <way id="18036676" version="5" timestamp="2012-01-15T18:40:26Z" uid="147510" user="woodpeck_fixbot" changeset="10400850">
    <nd ref="174225311"/>
    <nd ref="186500441"/>
    <nd ref="186500442"/>
    <tag k="highway" v="residential"/>
    <tag k="name" v="Brescia Street"/>
  </way>
  <way id="18036707" version="3" timestamp="2009-09-29T03:31:15Z" uid="176107" user="Badapple" changeset="2672519">
    <nd ref="174225318"/>
    <nd ref="186500720"/>
    <nd ref="186500723"/>
    <tag k="highway" v="residential"/>
    <tag k="name" v="Rheims Street"/>
  </way>
  <way id="18036707" version="4" timestamp="2010-07-06T08:46:52Z" uid="74617" user="JohnSmith" changeset="5147679">
    <nd ref="174225318"/>
    <nd ref="186500720"/>
    <nd ref="186500723"/>
    <tag k="highway" v="residential"/>
    <tag k="maxspeed" v="50"/>
    <tag k="maxspeed:source" v="default residential speed limit in Australia"/>
    <tag k="name" v="Rheims Street"/>
  </way>
  <way id="18036707" version="5" timestamp="2012-01-15T18:40:29Z" uid="147510" user="woodpeck_fixbot" changeset="10400850">
    <nd ref="174225318"/>
    <nd ref="186500720"/>
    <nd ref="186500723"/>
    <tag k="highway" v="residential"/>
    <tag k="name" v="Rheims Street"/>
  </way>
  <way id="18036764" version="3" timestamp="2009-09-29T03:30:52Z" uid="176107" user="Badapple" changeset="2672519">
    <nd ref="174225321"/>
    <nd ref="186501198"/>
    <nd ref="186501199"/>
    <tag k="highway" v="residential"/>
    <tag k="name" v="Monza Street"/>
  </way>
  <way id="18036764" version="4" timestamp="2010-07-06T08:46:18Z" uid="74617" user="JohnSmith" changeset="5147679">
    <nd ref="174225321"/>
    <nd ref="186501198"/>
    <nd ref="186501199"/>
    <tag k="highway" v="residential"/>
    <tag k="maxspeed" v="50"/>
    <tag k="maxspeed:source" v="default residential speed limit in Australia"/>
    <tag k="name" v="Monza Street"/>
  </way>
  <way id="18036764" version="5" timestamp="2012-01-15T18:40:30Z" uid="147510" user="woodpeck_fixbot" changeset="10400850">
    <nd ref="174225321"/>
    <nd ref="186501198"/>
    <nd ref="186501199"/>
    <tag k="highway" v="residential"/>
    <tag k="name" v="Monza Street"/>
  </way>
  <way id="18036647" version="7" timestamp="2012-07-20T07:59:12Z" uid="722137" user="OSMF Redaction Account" changeset="12367209">
    <nd ref="174225309"/>
    <nd ref="186500120"/>
    <nd ref="186500122"/>
    <tag k="highway" v="residential"/>
  </way>
  <way id="18036654" version="4" timestamp="2012-07-20T08:37:47Z" uid="722137" user="OSMF Redaction Account" changeset="12368562"/>
  <way id="18036656" version="5" timestamp="2012-07-20T08:37:57Z" uid="722137" user="OSMF Redaction Account" changeset="12368562"/>
  <way id="18036676" version="6" timestamp="2012-07-20T07:59:13Z" uid="722137" user="OSMF Redaction Account" changeset="12367209">
    <nd ref="174225311"/>
    <nd ref="186500441"/>
    <nd ref="186500442"/>
    <tag k="highway" v="residential"/>
  </way>
  <way id="18036707" version="6" timestamp="2012-07-20T07:59:13Z" uid="722137" user="OSMF Redaction Account" changeset="12367209">
    <nd ref="174225318"/>
    <nd ref="186500720"/>
    <nd ref="186500723"/>
    <tag k="highway" v="residential"/>
  </way>
  <way id="18036764" version="6" timestamp="2012-07-20T07:59:14Z" uid="722137" user="OSMF Redaction Account" changeset="12367209">
    <nd ref="174225321"/>
    <nd ref="186501198"/>
    <nd ref="186501199"/>
    <tag k="highway" v="residential"/>
  </way>
</osm>
