<?xml version='1.0' encoding='UTF-8'?>
<osm version="0.6" generator="libosmium/2.20.0">
  <way id="18041389" version="9" timestamp="2009-06-25T03:49:34Z" uid="74617" user="JohnSmith" changeset="1618018">
    <nd ref="186538187"/>
    <nd ref="186538210"/>
    <nd ref="196699904"/>
    <nd ref="194629541"/>
    <nd ref="186538304"/>
    <nd ref="186538322"/>
    <nd ref="186538343"/>
    <nd ref="186538361"/>
    <nd ref="186538410"/>
    <nd ref="186538430"/>
    <tag k="highway" v="secondary"/>
    <tag k="name" v="Mt Pleasant Road"/>
  </way>
  <way id="18041389" version="10" timestamp="2009-07-09T07:46:40Z" uid="74617" user="JohnSmith" changeset="1778660">
    <nd ref="186538187"/>
    <nd ref="186538210"/>
    <nd ref="196699904"/>
    <nd ref="194629541"/>
    <nd ref="186538304"/>
    <nd ref="186538322"/>
    <nd ref="186538343"/>
    <nd ref="186538361"/>
    <nd ref="186538410"/>
    <nd ref="186538430"/>
    <tag k="highway" v="tertiary"/>
    <tag k="name" v="Mt Pleasant Road"/>
  </way>
  <way id="18041394" version="3" timestamp="2009-06-25T03:49:35Z" uid="74617" user="JohnSmith" changeset="1618018">
    <nd ref="186366090"/>
    <nd ref="186538884"/>
    <nd ref="186538954"/>
    <nd ref="186539017"/>
    <nd ref="186538187"/>
    <tag k="highway" v="tertiary"/>
    <tag k="name" v="Crown Road"/>
  </way>
  <way id="18041394" version="4" timestamp="2009-08-12T04:33:52Z" uid="74617" user="JohnSmith" changeset="2114560">
    <nd ref="190968680"/>
    <nd ref="189778603"/>
    <nd ref="189778589"/>
    <nd ref="196700786"/>
    <nd ref="189778564"/>
    <nd ref="230331018"/>
    <nd ref="186366090"/>
    <nd ref="186538884"/>
    <nd ref="186538954"/>
    <nd ref="186539017"/>
    <nd ref="186538187"/>
    <tag k="highway" v="tertiary"/>
    <tag k="name" v="Crown Road"/>
  </way>
  <way id="18041394" version="5" timestamp="2011-04-10T06:43:18Z" uid="4467" user="Rosscoe" changeset="7819615">
    <nd ref="190968680"/>
    <nd ref="189778603"/>
    <nd ref="189778589"/>
    <nd ref="196700786"/>
    <nd ref="189778564"/>
    <nd ref="230331018"/>
    <nd ref="1239481181"/>
    <nd ref="186366090"/>
    <nd ref="186538884"/>
    <nd ref="186538954"/>
    <nd ref="1239481186"/>
    <nd ref="186539017"/>
    <nd ref="186538187"/>
    <tag k="highway" v="tertiary"/>
    <tag k="name" v="Crown Road"/>
  </way>
  <way id="18041398" version="6" timestamp="2009-06-25T03:49:35Z" uid="74617" user="JohnSmith" changeset="1618018">
    <nd ref="243912838"/>
    <nd ref="186539054"/>
    <nd ref="186539075"/>
    <nd ref="205453797"/>
    <nd ref="186539100"/>
    <nd ref="423817624"/>
    <tag k="highway" v="tertiary"/>
    <tag k="name" v="Graham Street"/>
    <tag k="source" v="survey"/>
  </way>
  <way id="18041398" version="7" timestamp="2009-06-27T08:38:34Z" uid="74617" user="JohnSmith" changeset="1647761">
    <nd ref="243912838"/>
    <nd ref="186539054"/>
    <nd ref="186539075"/>
    <nd ref="429721742"/>
    <nd ref="205453797"/>
    <nd ref="186539100"/>
    <nd ref="423817624"/>
    <tag k="highway" v="tertiary"/>
    <tag k="name" v="Graham Street"/>
    <tag k="source" v="survey"/>
  </way>
  <way id="18041398" version="8" timestamp="2009-07-09T07:46:41Z" uid="74617" user="JohnSmith" changeset="1778660">
    <nd ref="243912838"/>
    <nd ref="186539054"/>
    <nd ref="186539075"/>
    <nd ref="429721742"/>
    <nd ref="205453797"/>
    <nd ref="186539100"/>
    <nd ref="423817624"/>
    <tag k="highway" v="secondary"/>
    <tag k="name" v="Graham Street"/>
    <tag k="source" v="survey"/>
  </way>
  <way id="18041398" version="9" timestamp="2009-08-12T04:33:59Z" uid="74617" user="JohnSmith" changeset="2114560">
    <nd ref="243912838"/>
    <nd ref="186539054"/>
    <nd ref="186539075"/>
    <nd ref="429721742"/>
    <nd ref="205453797"/>
    <nd ref="186539100"/>
    <nd ref="423817624"/>
    <tag k="highway" v="secondary"/>
    <tag k="maxspeed" v="60"/>
    <tag k="name" v="Graham Street"/>
    <tag k="source" v="survey"/>
  </way>
  <way id="18041398" version="10" timestamp="2012-01-15T18:40:53Z" uid="147510" user="woodpeck_fixbot" changeset="10400850">
    <nd ref="243912838"/>
    <nd ref="186539054"/>
    <nd ref="186539075"/>
    <nd ref="429721742"/>
    <nd ref="205453797"/>
    <nd ref="186539100"/>
    <nd ref="423817624"/>
    <tag k="highway" v="secondary"/>
    <tag k="name" v="Graham Street"/>
    <tag k="source" v="survey"/>
  </way>
  <way id="18041403" version="4" timestamp="2009-06-25T03:49:36Z" uid="74617" user="JohnSmith" changeset="1618018">
    <nd ref="186539155"/>
    <nd ref="186539200"/>
    <nd ref="186539220"/>
    <nd ref="186539237"/>
    <nd ref="238888962"/>
    <nd ref="186539271"/>
    <tag k="highway" v="residential"/>
    <tag k="name" v="Bent Street"/>
  </way>
  <way id="18041403" version="5" timestamp="2009-08-12T04:01:58Z" uid="74617" user="JohnSmith" changeset="2114476">
    <nd ref="186539155"/>
    <nd ref="186539200"/>
    <nd ref="186539220"/>
    <nd ref="186539237"/>
    <nd ref="238888962"/>
    <nd ref="186539271"/>
    <tag k="highway" v="residential"/>
    <tag k="maxspeed" v="50"/>
    <tag k="name" v="Bent Street"/>
  </way>
  <way id="18041403" version="6" timestamp="2011-04-10T06:43:18Z" uid="4467" user="Rosscoe" changeset="7819615">
    <nd ref="186539155"/>
    <nd ref="186539200"/>
    <nd ref="186539220"/>
    <nd ref="186539237"/>
    <nd ref="238888962"/>
    <nd ref="1239481188"/>
    <nd ref="186539271"/>
    <tag k="highway" v="residential"/>
    <tag k="maxspeed" v="50"/>
    <tag k="name" v="Bent Street"/>
  </way>
  <way id="18041403" version="7" timestamp="2012-01-15T18:40:55Z" uid="147510" user="woodpeck_fixbot" changeset="10400850">
    <nd ref="186539155"/>
    <nd ref="186539200"/>
    <nd ref="186539220"/>
    <nd ref="186539237"/>
    <nd ref="238888962"/>
    <nd ref="1239481188"/>
    <nd ref="186539271"/>
    <tag k="highway" v="residential"/>
    <tag k="name" v="Bent Street"/>
  </way>
  <way id="18041408" version="3" timestamp="2009-06-25T03:49:53Z" uid="74617" user="JohnSmith" changeset="1618018">
    <nd ref="243909713"/>
    <nd ref="243909708"/>
    <nd ref="186539321"/>
    <nd ref="186539368"/>
    <nd ref="186539380"/>
    <nd ref="186539397"/>
    <nd ref="186539410"/>
    <nd ref="186539443"/>
    <nd ref="186539480"/>
    <nd ref="186413094"/>
    <tag k="highway" v="residential"/>
    <tag k="name" v="Nicholls Road"/>
    <tag k="source" v="survey"/>
  </way>
  <way id="18041408" version="4" timestamp="2009-06-27T03:29:04Z" uid="74617" user="JohnSmith" changeset="1645834">
    <nd ref="429675377"/>
    <nd ref="243909708"/>
    <nd ref="186539321"/>
    <nd ref="186539368"/>
    <nd ref="186539380"/>
    <nd ref="186539397"/>
    <nd ref="186539410"/>
    <nd ref="186539443"/>
    <nd ref="186539480"/>
    <nd ref="186413094"/>
    <tag k="highway" v="residential"/>
    <tag k="name" v="Nicholls Road"/>
    <tag k="source" v="survey"/>
  </way>
  <way id="18041408" version="5" timestamp="2009-07-10T08:26:23Z" uid="74617" user="JohnSmith" changeset="1786952">
    <nd ref="429675377"/>
    <nd ref="243909708"/>
    <nd ref="186539321"/>
    <nd ref="186539368"/>
    <nd ref="186539380"/>
    <nd ref="186539397"/>
    <nd ref="186539410"/>
    <nd ref="186539443"/>
    <nd ref="186539480"/>
    <nd ref="186413094"/>
    <tag k="highway" v="residential"/>
    <tag k="maxspeed" v="50"/>
    <tag k="name" v="Nicholls Road"/>
    <tag k="source" v="survey"/>
    <tag k="surface" v="paved"/>
  </way>
  <way id="18041408" version="6" timestamp="2009-09-06T03:49:32Z" uid="74617" user="JohnSmith" changeset="2386718">
    <nd ref="429675377"/>
    <nd ref="243909708"/>
    <nd ref="186539321"/>
    <nd ref="186539368"/>
    <nd ref="186539380"/>
    <nd ref="186539397"/>
    <nd ref="186539410"/>
    <nd ref="186539443"/>
    <nd ref="186539480"/>
    <nd ref="186413094"/>
    <tag k="highway" v="residential"/>
    <tag k="maxspeed" v="50"/>
    <tag k="name" v="Nicholls Road"/>
    <tag k="source" v="survey"/>
  </way>
  <way id="18041408" version="7" timestamp="2012-01-15T18:40:57Z" uid="147510" user="woodpeck_fixbot" changeset="10400850">
    <nd ref="429675377"/>
    <nd ref="243909708"/>
    <nd ref="186539321"/>
    <nd ref="186539368"/>
    <nd ref="186539380"/>
    <nd ref="186539397"/>
    <nd ref="186539410"/>
    <nd ref="186539443"/>
    <nd ref="186539480"/>
    <nd ref="186413094"/>
    <tag k="highway" v="residential"/>
    <tag k="name" v="Nicholls Road"/>
    <tag k="source" v="survey"/>
  </way>
  <way id="18041894" version="1" timestamp="2007-12-24T07:10:17Z" uid="7617" user="Franc" changeset="408635">
    <nd ref="186542054"/>
    <nd ref="186542068"/>
    <nd ref="186542084"/>
    <nd ref="186542101"/>
    <tag k="created_by" v="JOSM"/>
    <tag k="highway" v="service"/>
    <tag k="name" v="Kerridge Place"/>
    <tag k="source" v="survey"/>
  </way>
  <way id="18041894" version="2" timestamp="2009-11-14T12:07:33Z" uid="117890" user="Jonathan Trott" changeset="3112508">
    <nd ref="186542054"/>
    <nd ref="186542068"/>
    <nd ref="186542084"/>
    <nd ref="186542101"/>
    <tag k="highway" v="service"/>
    <tag k="name" v="Kerridge Place"/>
    <tag k="source" v="survey"/>
  </way>
  <way id="18041894" version="3" timestamp="2009-12-06T04:00:30Z" uid="7617" user="Franc" changeset="3300392">
    <nd ref="186542054"/>
    <nd ref="186542068"/>
    <nd ref="186542101"/>
    <tag k="highway" v="service"/>
    <tag k="name" v="Kerridge Place"/>
    <tag k="source" v="survey"/>
  </way>
  <way id="18041898" version="1" timestamp="2007-12-24T07:10:18Z" uid="7617" user="Franc" changeset="408635">
    <nd ref="186542118"/>
    <nd ref="186542187"/>
    <nd ref="186542132"/>
    <nd ref="186542149"/>
    <tag k="created_by" v="JOSM"/>
    <tag k="highway" v="service"/>
    <tag k="name" v="Westmoreland Lane"/>
    <tag k="source" v="yahoo_imagery"/>
    <tag k="source:name" v="survey"/>
  </way>
  <way id="18041898" version="2" timestamp="2009-11-14T12:04:14Z" uid="117890" user="Jonathan Trott" changeset="3112508">
    <nd ref="186542118"/>
    <nd ref="186542187"/>
    <nd ref="186542132"/>
    <nd ref="186542149"/>
    <tag k="highway" v="service"/>
    <tag k="name" v="Westmoreland Lane"/>
    <tag k="source" v="yahoo_imagery"/>
    <tag k="source:name" v="survey"/>
  </way>
  <way id="18041902" version="1" timestamp="2007-12-24T07:10:19Z" uid="7617" user="Franc" changeset="408635">
    <nd ref="186542205"/>
    <nd ref="186542225"/>
    <tag k="created_by" v="JOSM"/>
    <tag k="name" v="David Lane"/>
    <tag k="oneway" v="yes"/>
    <tag k="source" v="survey"/>
  </way>
  <way id="18041902" version="2" timestamp="2008-05-19T12:29:34Z" uid="17425" user="jackb" changeset="481178">
    <nd ref="186542205"/>
    <nd ref="186542225"/>
    <tag k="created_by" v="JOSM"/>
    <tag k="highway" v="service"/>
    <tag k="name" v="David Lane"/>
    <tag k="oneway" v="yes"/>
    <tag k="source" v="survey"/>
  </way>
  <way id="18041902" version="3" timestamp="2009-11-14T12:07:21Z" uid="117890" user="Jonathan Trott" changeset="3112508">
    <nd ref="186542205"/>
    <nd ref="186542225"/>
    <tag k="highway" v="service"/>
    <tag k="name" v="David Lane"/>
    <tag k="oneway" v="yes"/>
    <tag k="source" v="survey"/>
  </way>
  <way id="18041904" version="1" timestamp="2007-12-24T07:10:20Z" uid="7617" user="Franc" changeset="408635">
    <nd ref="186542225"/>
    <nd ref="186542245"/>
    <tag k="created_by" v="JOSM"/>
    <tag k="highway" v="residential"/>
    <tag k="name" v="David Street"/>
    <tag k="oneway" v="yes"/>
    <tag k="source" v="survey"/>
  </way>
  <way id="18041904" version="2" timestamp="2009-11-14T12:07:22Z" uid="117890" user="Jonathan Trott" changeset="3112508">
    <nd ref="186542225"/>
    <nd ref="186542245"/>
    <tag k="highway" v="residential"/>
    <tag k="name" v="David Street"/>
    <tag k="oneway" v="yes"/>
    <tag k="source" v="survey"/>
  </way>
  <way id="18041904" version="3" timestamp="2010-07-07T22:11:36Z" uid="74617" user="JohnSmith" changeset="5161069">
    <nd ref="186542225"/>
    <nd ref="186542245"/>
    <tag k="highway" v="residential"/>
    <tag k="maxspeed" v="50"/>
    <tag k="maxspeed:source" v="default residential speed limit in Australia"/>
    <tag k="name" v="David Street"/>
    <tag k="oneway" v="yes"/>
    <tag k="source" v="survey"/>
  </way>
  <way id="18041904" version="4" timestamp="2012-01-15T18:40:59Z" uid="147510" user="woodpeck_fixbot" changeset="10400850">
    <nd ref="186542225"/>
    <nd ref="186542245"/>
    <tag k="highway" v="residential"/>
    <tag k="name" v="David Street"/>
    <tag k="oneway" v="yes"/>
    <tag k="source" v="survey"/>
  </way>
  <way id="18041907" version="1" timestamp="2007-12-24T07:10:20Z" uid="7617" user="Franc" changeset="408635">
    <nd ref="186542261"/>
    <nd ref="186542225"/>
    <tag k="created_by" v="JOSM"/>
    <tag k="highway" v="residential"/>
    <tag k="name" v="David Street"/>
    <tag k="source" v="survey"/>
  </way>
  <way id="18041907" version="2" timestamp="2009-11-14T12:07:22Z" uid="117890" user="Jonathan Trott" changeset="3112508">
    <nd ref="186542261"/>
    <nd ref="186542225"/>
    <tag k="highway" v="residential"/>
    <tag k="name" v="David Street"/>
    <tag k="source" v="survey"/>
  </way>
  <way id="18041907" version="3" timestamp="2010-07-07T22:10:19Z" uid="74617" user="JohnSmith" changeset="5161069">
    <nd ref="186542261"/>
    <nd ref="186542225"/>
    <tag k="highway" v="residential"/>
    <tag k="maxspeed" v="50"/>
    <tag k="maxspeed:source" v="default residential speed limit in Australia"/>
    <tag k="name" v="David Street"/>
    <tag k="source" v="survey"/>
  </way>
  <way id="18041907" version="4" timestamp="2012-01-15T18:41:01Z" uid="147510" user="woodpeck_fixbot" changeset="10400850">
    <nd ref="186542261"/>
    <nd ref="186542225"/>
    <tag k="highway" v="residential"/>
    <tag k="name" v="David Street"/>
    <tag k="source" v="survey"/>
  </way>
  <way id="18041911" version="1" timestamp="2007-12-24T07:10:21Z" uid="7617" user="Franc" changeset="408635">
    <nd ref="186542313"/>
    <nd ref="186542326"/>
    <tag k="created_by" v="JOSM"/>
    <tag k="highway" v="service"/>
    <tag k="name" v="Lock Lane"/>
    <tag k="source" v="survey"/>
  </way>
  <way id="18041911" version="2" timestamp="2009-11-14T12:07:22Z" uid="117890" user="Jonathan Trott" changeset="3112508">
    <nd ref="186542313"/>
    <nd ref="186542326"/>
    <tag k="highway" v="service"/>
    <tag k="name" v="Lock Lane"/>
    <tag k="source" v="survey"/>
  </way>
  <way id="18041913" version="1" timestamp="2007-12-24T07:10:22Z" uid="7617" user="Franc" changeset="408635">
    <nd ref="186542350"/>
    <nd ref="186542364"/>
    <tag k="created_by" v="JOSM"/>
    <tag k="highway" v="service"/>
    <tag k="name" v="Kimber Lane"/>
    <tag k="source" v="survey"/>
  </way>
  <way id="18041913" version="2" timestamp="2009-11-14T12:07:22Z" uid="117890" user="Jonathan Trott" changeset="3112508">
    <nd ref="186542350"/>
    <nd ref="186542364"/>
    <tag k="highway" v="service"/>
    <tag k="name" v="Kimber Lane"/>
    <tag k="source" v="survey"/>
  </way>
  <way id="18041389" version="11" timestamp="2012-07-19T13:21:16Z" uid="722137" user="OSMF Redaction Account" changeset="12328786">
    <nd ref="186538187"/>
    <nd ref="186538210"/>
    <nd ref="196699904"/>
    <nd ref="194629541"/>
    <nd ref="186538304"/>
    <nd ref="186538322"/>
    <nd ref="186538343"/>
    <nd ref="186538361"/>
    <nd ref="186538410"/>
    <nd ref="186538430"/>
    <tag k="highway" v="secondary"/>
    <tag k="name" v="Mt Pleasant Road"/>
  </way>
  <way id="18041389" version="12" timestamp="2012-07-26T10:24:45Z" uid="349913" user="Peter W34" changeset="12497252">
    <nd ref="186538187"/>
    <nd ref="186538210"/>
    <nd ref="196699904"/>
    <nd ref="194629541"/>
    <nd ref="186538304"/>
    <nd ref="186538322"/>
    <nd ref="186538343"/>
    <nd ref="186538361"/>
    <nd ref="186538410"/>
    <nd ref="186538430"/>
    <tag k="highway" v="secondary"/>
    <tag k="name" v="Mount Pleasant Road"/>
  </way>
  <way id="18041394" version="6" timestamp="2012-07-19T13:20:55Z" uid="722137" user="OSMF Redaction Account" changeset="12328786">
    <nd ref="186366090"/>
    <nd ref="186538884"/>
    <nd ref="186538954"/>
    <nd ref="186539017"/>
    <nd ref="186538187"/>
    <tag k="highway" v="tertiary"/>
    <tag k="name" v="Crown Road"/>
  </way>
  <way id="18041394" version="7" timestamp="2012-07-26T10:24:43Z" uid="349913" user="Peter W34" changeset="12497252">
    <nd ref="196700786"/>
    <nd ref="230331018"/>
    <nd ref="1838595612"/>
    <nd ref="186366090"/>
    <nd ref="186538884"/>
    <nd ref="186538954"/>
    <nd ref="186539017"/>
    <nd ref="186538187"/>
    <tag k="highway" v="tertiary"/>
    <tag k="name" v="Crown Road"/>
  </way>
  <way id="18041398" version="11" timestamp="2012-07-19T13:21:03Z" uid="722137" user="OSMF Redaction Account" changeset="12328786">
    <nd ref="243912838"/>
    <nd ref="186539054"/>
    <nd ref="186539075"/>
    <nd ref="205453797"/>
    <nd ref="186539100"/>
    <nd ref="423817624"/>
    <tag k="highway" v="tertiary"/>
    <tag k="name" v="Graham Street"/>
    <tag k="source" v="survey"/>
  </way>
  <way id="18041403" version="8" timestamp="2012-07-19T13:20:53Z" uid="722137" user="OSMF Redaction Account" changeset="12328786">
    <nd ref="186539155"/>
    <nd ref="186539200"/>
    <nd ref="186539220"/>
    <nd ref="186539237"/>
    <nd ref="238888962"/>
    <nd ref="186539271"/>
    <tag k="highway" v="residential"/>
    <tag k="name" v="Bent Street"/>
  </way>
  <way id="18041408" version="8" timestamp="2012-07-19T13:21:09Z" uid="722137" user="OSMF Redaction Account" changeset="12328786">
    <nd ref="243909708"/>
    <nd ref="186539321"/>
    <nd ref="186539368"/>
    <nd ref="186539380"/>
    <nd ref="186539397"/>
    <nd ref="186539410"/>
    <nd ref="186539443"/>
    <nd ref="186539480"/>
    <nd ref="186413094"/>
    <tag k="highway" v="residential"/>
    <tag k="name" v="Nicholls Road"/>
    <tag k="source" v="survey"/>
  </way>
  <way id="18041894" version="4" timestamp="2012-07-20T02:52:42Z" uid="722137" user="OSMF Redaction Account" changeset="12358726"/>
  <way id="18041898" version="3" timestamp="2012-07-20T01:02:15Z" uid="722137" user="OSMF Redaction Account" changeset="12354081"/>
  <way id="18041902" version="4" timestamp="2012-07-20T02:52:45Z" uid="722137" user="OSMF Redaction Account" changeset="12358726"/>
  <way id="18041904" version="5" timestamp="2012-07-20T02:52:46Z" uid="722137" user="OSMF Redaction Account" changeset="12358726"/>
  <way id="18041907" version="5" timestamp="2012-07-20T02:52:46Z" uid="722137" user="OSMF Redaction Account" changeset="12358726"/>
  <way id="18041911" version="3" timestamp="2012-07-20T02:52:46Z" uid="722137" user="OSMF Redaction Account" changeset="12358726"/>
  <way id="18041913" version="3" timestamp="2012-07-20T02:52:45Z" uid="722137" user="OSMF Redaction Account" changeset="12358726"/>
</osm>
