<?xml version='1.0' encoding='UTF-8'?>
<osm version="0.6" generator="libosmium/2.20.0">
  <way id="18068118" version="3" timestamp="2009-08-09T00:29:43Z" uid="4467" user="Rosscoe" changeset="2080668">
    <nd ref="186480277"/>
    <nd ref="186449909"/>
    <tag k="highway" v="residential"/>
    <tag k="name" v="Marieander"/>
  </way>
  <way id="18068118" version="4" timestamp="2009-11-06T14:07:19Z" uid="14505" user="David Dean" changeset="3048530">
    <nd ref="186480277"/>
    <nd ref="186449909"/>
    <tag k="highway" v="residential"/>
    <tag k="name" v="Marieander Street"/>
  </way>
  <way id="18068118" version="5" timestamp="2010-07-06T08:47:15Z" uid="74617" user="JohnSmith" changeset="5147679">
    <nd ref="186480277"/>
    <nd ref="186449909"/>
    <tag k="highway" v="residential"/>
    <tag k="maxspeed" v="50"/>
    <tag k="maxspeed:source" v="default residential speed limit in Australia"/>
    <tag k="name" v="Marieander Street"/>
  </way>
  <way id="18068118" version="6" timestamp="2012-01-15T18:46:09Z" uid="147510" user="woodpeck_fixbot" changeset="10400850">
    <nd ref="186480277"/>
    <nd ref="186449909"/>
    <tag k="highway" v="residential"/>
    <tag k="name" v="Marieander Street"/>
  </way>
  <way id="18068234" version="5" timestamp="2010-07-06T08:45:58Z" uid="74617" user="JohnSmith" changeset="5147679">
    <nd ref="186450067"/>
    <nd ref="186777887"/>
    <tag k="highway" v="residential"/>
    <tag k="maxspeed" v="50"/>
    <tag k="maxspeed:source" v="default residential speed limit in Australia"/>
    <tag k="name" v="Arunta Street"/>
  </way>
  <way id="18068234" version="6" timestamp="2012-01-15T18:46:11Z" uid="147510" user="woodpeck_fixbot" changeset="10400850">
    <nd ref="186450067"/>
    <nd ref="186777887"/>
    <tag k="highway" v="residential"/>
    <tag k="name" v="Arunta Street"/>
  </way>
  <way id="18068363" version="4" timestamp="2010-07-06T08:44:19Z" uid="74617" user="JohnSmith" changeset="5147679">
    <nd ref="186453089"/>
    <nd ref="186779335"/>
    <tag k="highway" v="residential"/>
    <tag k="maxspeed" v="50"/>
    <tag k="maxspeed:source" v="default residential speed limit in Australia"/>
    <tag k="name" v="Kara Street"/>
  </way>
  <way id="18068363" version="5" timestamp="2012-01-15T18:46:12Z" uid="147510" user="woodpeck_fixbot" changeset="10400850">
    <nd ref="186453089"/>
    <nd ref="186779335"/>
    <tag k="highway" v="residential"/>
    <tag k="name" v="Kara Street"/>
  </way>
  <way id="18068521" version="4" timestamp="2010-12-02T04:06:41Z" uid="4467" user="Rosscoe" changeset="6511028">
    <nd ref="186780787"/>
    <nd ref="186780921"/>
    <nd ref="186780947"/>
    <nd ref="186780859"/>
    <tag k="highway" v="residential"/>
    <tag k="maxspeed" v="50"/>
    <tag k="name" v="Corlette Street"/>
    <tag k="oneway" v="yes"/>
  </way>
  <way id="18068545" version="10" timestamp="2011-02-07T11:14:41Z" uid="4467" user="Rosscoe" changeset="7214726">
    <nd ref="872801750"/>
    <nd ref="35290096"/>
    <nd ref="35290095"/>
    <nd ref="885664868"/>
    <nd ref="35290094"/>
    <nd ref="35290093"/>
    <nd ref="186783225"/>
    <nd ref="35290138"/>
    <nd ref="885664865"/>
    <nd ref="35290134"/>
    <nd ref="186781174"/>
    <nd ref="186781173"/>
    <nd ref="885664813"/>
    <nd ref="885664820"/>
    <nd ref="186781172"/>
    <nd ref="186781171"/>
    <nd ref="186781679"/>
    <nd ref="186781678"/>
    <nd ref="186781677"/>
    <nd ref="186781676"/>
    <nd ref="186781675"/>
    <nd ref="186781672"/>
    <nd ref="186781671"/>
    <nd ref="186781670"/>
    <tag k="highway" v="secondary"/>
    <tag k="maxspeed" v="70"/>
    <tag k="name" v="Geelong Road"/>
    <tag k="ref" v="C294"/>
    <tag k="source:maxspeed" v="sign"/>
  </way>
  <way id="18068545" version="11" timestamp="2011-08-27T22:17:29Z" uid="379724" user="bugman" changeset="9142156">
    <nd ref="872801750"/>
    <nd ref="35290096"/>
    <nd ref="35290095"/>
    <nd ref="885664868"/>
    <nd ref="35290094"/>
    <nd ref="1415450729"/>
    <nd ref="35290093"/>
    <nd ref="186783225"/>
    <nd ref="35290138"/>
    <nd ref="885664865"/>
    <nd ref="35290134"/>
    <nd ref="186781174"/>
    <nd ref="186781173"/>
    <nd ref="885664813"/>
    <nd ref="885664820"/>
    <nd ref="186781172"/>
    <nd ref="186781171"/>
    <nd ref="186781679"/>
    <nd ref="186781678"/>
    <nd ref="186781677"/>
    <nd ref="186781676"/>
    <nd ref="186781675"/>
    <nd ref="186781672"/>
    <nd ref="186781671"/>
    <nd ref="186781670"/>
    <tag k="highway" v="secondary"/>
    <tag k="maxspeed" v="70"/>
    <tag k="name" v="Geelong Road"/>
    <tag k="ref" v="C294"/>
    <tag k="source:maxspeed" v="sign"/>
  </way>
  <way id="18068545" version="12" timestamp="2011-08-27T22:31:47Z" uid="379724" user="bugman" changeset="9142156">
    <nd ref="872801750"/>
    <nd ref="35290096"/>
    <nd ref="35290095"/>
    <nd ref="885664868"/>
    <nd ref="1415468784"/>
    <nd ref="35290094"/>
    <nd ref="1415468760"/>
    <nd ref="1415450729"/>
    <nd ref="1415468845"/>
    <nd ref="1415468811"/>
    <tag k="highway" v="secondary"/>
    <tag k="maxspeed" v="70"/>
    <tag k="name" v="Geelong Road"/>
    <tag k="ref" v="C294"/>
    <tag k="source:maxspeed" v="sign"/>
  </way>
  <way id="18068545" version="13" timestamp="2012-02-03T19:48:59Z" uid="379724" user="bugman" changeset="10578491">
    <nd ref="872801750"/>
    <nd ref="1616983787"/>
    <nd ref="35290096"/>
    <nd ref="35290095"/>
    <nd ref="885664868"/>
    <nd ref="1415468784"/>
    <nd ref="35290094"/>
    <nd ref="1415468760"/>
    <nd ref="1415450729"/>
    <nd ref="1415468845"/>
    <nd ref="1415468811"/>
    <tag k="highway" v="secondary"/>
    <tag k="maxspeed" v="70"/>
    <tag k="name" v="Geelong Road"/>
    <tag k="ref" v="C294"/>
    <tag k="source:maxspeed" v="sign"/>
  </way>
  <way id="18068600" version="7" timestamp="2011-02-07T11:13:29Z" uid="4467" user="Rosscoe" changeset="7214726">
    <nd ref="186780278"/>
    <nd ref="476372126"/>
    <nd ref="476372367"/>
    <nd ref="878115204"/>
    <nd ref="476372234"/>
    <nd ref="186781668"/>
    <nd ref="866403644"/>
    <nd ref="186781670"/>
    <tag k="highway" v="secondary"/>
    <tag k="maxspeed" v="60"/>
    <tag k="name" v="Warrenheip Street"/>
    <tag k="ref" v="C294"/>
    <tag k="source:maxspeed" v="sign"/>
  </way>
  <way id="18068765" version="5" timestamp="2010-12-02T04:06:48Z" uid="4467" user="Rosscoe" changeset="6511028">
    <nd ref="176632853"/>
    <nd ref="186783223"/>
    <nd ref="771402109"/>
    <nd ref="186783243"/>
    <nd ref="186783260"/>
    <nd ref="1015392622"/>
    <nd ref="186783290"/>
    <nd ref="186783304"/>
    <tag k="highway" v="residential"/>
    <tag k="maxspeed" v="50"/>
    <tag k="name" v="Bruce Street"/>
  </way>
  <way id="18068521" version="5" timestamp="2012-07-05T03:35:31Z" uid="6647" user="latch" changeset="12116384">
    <nd ref="186780787"/>
    <nd ref="186780921"/>
    <nd ref="186780947"/>
    <nd ref="186780859"/>
    <tag k="cycleway" v="lane"/>
    <tag k="highway" v="residential"/>
    <tag k="maxspeed" v="50"/>
    <tag k="name" v="Corlette Street"/>
    <tag k="oneway" v="yes"/>
  </way>
  <way id="18068521" version="6" timestamp="2012-07-08T06:14:16Z" uid="717576" user="samuelrussell" changeset="12146255">
    <nd ref="186780787"/>
    <nd ref="186780921"/>
    <nd ref="186780947"/>
    <nd ref="186780859"/>
    <tag k="cycleway" v="lane"/>
    <tag k="highway" v="residential"/>
    <tag k="maxspeed" v="50"/>
    <tag k="name" v="Corlette Street"/>
    <tag k="ncn" v="yes"/>
    <tag k="oneway" v="yes"/>
  </way>
  <way id="18068521" version="7" timestamp="2012-07-21T14:25:38Z" uid="722137" user="OSMF Redaction Account" changeset="12411730">
    <nd ref="186780787"/>
    <nd ref="186780921"/>
    <nd ref="186780947"/>
    <nd ref="186780859"/>
    <tag k="cycleway" v="lane"/>
    <tag k="highway" v="residential"/>
    <tag k="name" v="Corlette Street"/>
    <tag k="ncn" v="yes"/>
  </way>
  <way id="18068545" version="14" timestamp="2012-07-19T08:09:53Z" uid="722137" user="OSMF Redaction Account" changeset="12313276">
    <nd ref="872801750"/>
    <nd ref="1616983787"/>
    <nd ref="35290096"/>
    <nd ref="35290095"/>
    <nd ref="885664868"/>
    <nd ref="1415468784"/>
    <nd ref="35290094"/>
    <nd ref="1415468760"/>
    <nd ref="1415450729"/>
    <nd ref="1415468845"/>
    <nd ref="1415468811"/>
    <tag k="highway" v="secondary"/>
    <tag k="maxspeed" v="70"/>
    <tag k="maxspeed:source" v="sign"/>
    <tag k="name" v="Geelong Road"/>
    <tag k="ref" v="C294"/>
  </way>
  <way id="18068600" version="8" timestamp="2012-07-19T08:09:53Z" uid="722137" user="OSMF Redaction Account" changeset="12313276">
    <nd ref="186780278"/>
    <nd ref="476372126"/>
    <nd ref="476372367"/>
    <nd ref="878115204"/>
    <nd ref="476372234"/>
    <nd ref="186781668"/>
    <nd ref="866403644"/>
    <nd ref="186781670"/>
    <tag k="highway" v="secondary"/>
    <tag k="maxspeed" v="60"/>
    <tag k="maxspeed:source" v="sign"/>
    <tag k="name" v="Warrenheip Street"/>
    <tag k="ref" v="C294"/>
  </way>
  <way id="18068600" version="9" timestamp="2012-07-31T15:06:11Z" uid="379724" user="bugman" changeset="12562678">
    <nd ref="186780278"/>
    <nd ref="1845464237"/>
    <nd ref="476372126"/>
    <nd ref="476372367"/>
    <nd ref="878115204"/>
    <nd ref="476372234"/>
    <nd ref="186781668"/>
    <nd ref="866403644"/>
    <nd ref="186781670"/>
    <tag k="highway" v="secondary"/>
    <tag k="maxspeed" v="60"/>
    <tag k="maxspeed:source" v="sign"/>
    <tag k="name" v="Warrenheip Street"/>
    <tag k="ref" v="C294"/>
  </way>
  <way id="18068600" version="10" timestamp="2012-08-08T06:40:21Z" uid="288568" user="nickbarker" changeset="12653686">
    <nd ref="186780278"/>
    <nd ref="1845464237"/>
    <nd ref="1856708364"/>
    <tag k="highway" v="secondary"/>
    <tag k="maxspeed" v="60"/>
    <tag k="maxspeed:source" v="sign"/>
    <tag k="name" v="Warrenheip Street"/>
    <tag k="ref" v="C294"/>
  </way>
  <way id="18068765" version="6" timestamp="2012-07-21T14:25:13Z" uid="722137" user="OSMF Redaction Account" changeset="12411730">
    <nd ref="176632853"/>
    <nd ref="186783223"/>
    <nd ref="771402109"/>
    <nd ref="186783243"/>
    <nd ref="186783260"/>
    <nd ref="186783290"/>
    <nd ref="186783304"/>
    <tag k="highway" v="residential"/>
    <tag k="name" v="Bruce Street"/>
  </way>
</osm>
