<?xml version='1.0' encoding='UTF-8'?>
<osm version="0.6" generator="libosmium/2.20.0">
  <way id="18091395" version="4" timestamp="2010-07-06T08:45:01Z" uid="74617" user="JohnSmith" changeset="5147679">
    <nd ref="179170796"/>
    <nd ref="186963221"/>
    <nd ref="186963222"/>
    <nd ref="187093112"/>
    <nd ref="187093111"/>
    <nd ref="187093110"/>
    <nd ref="186966996"/>
    <tag k="highway" v="residential"/>
    <tag k="maxspeed" v="50"/>
    <tag k="maxspeed:source" v="default residential speed limit in Australia"/>
    <tag k="name" v="Jordan Street"/>
    <tag k="source" v="survey"/>
  </way>
  <way id="18091395" version="5" timestamp="2012-01-15T18:47:04Z" uid="147510" user="woodpeck_fixbot" changeset="10400850">
    <nd ref="179170796"/>
    <nd ref="186963221"/>
    <nd ref="186963222"/>
    <nd ref="187093112"/>
    <nd ref="187093111"/>
    <nd ref="187093110"/>
    <nd ref="186966996"/>
    <tag k="highway" v="residential"/>
    <tag k="name" v="Jordan Street"/>
    <tag k="source" v="survey"/>
  </way>
  <way id="18091418" version="2" timestamp="2010-02-04T08:14:01Z" uid="9719" user="dvaey" changeset="3788541">
    <nd ref="59711573"/>
    <nd ref="186963340"/>
    <nd ref="186963391"/>
    <nd ref="628617996"/>
    <nd ref="628618001"/>
    <nd ref="628618006"/>
    <nd ref="628618009"/>
    <nd ref="628618012"/>
    <nd ref="628618014"/>
    <nd ref="628618016"/>
    <nd ref="628618020"/>
    <tag k="highway" v="primary"/>
    <tag k="name" v="Tharwa Drive"/>
    <tag k="oneway" v="yes"/>
  </way>
  <way id="18091418" version="3" timestamp="2010-03-29T02:43:55Z" uid="79144" user="John H" changeset="4263542">
    <nd ref="59711573"/>
    <nd ref="186963340"/>
    <nd ref="186963391"/>
    <nd ref="628618001"/>
    <nd ref="628618006"/>
    <tag k="highway" v="primary"/>
    <tag k="name" v="Tharwa Drive"/>
    <tag k="oneway" v="yes"/>
  </way>
  <way id="18091418" version="4" timestamp="2010-09-11T13:43:10Z" uid="79475" user="AlexOnTheBus" changeset="5749931">
    <nd ref="59711573"/>
    <nd ref="186963340"/>
    <nd ref="186963391"/>
    <nd ref="628618001"/>
    <nd ref="628618006"/>
    <tag k="highway" v="secondary"/>
    <tag k="name" v="Tharwa Drive"/>
    <tag k="oneway" v="yes"/>
  </way>
  <way id="18091484" version="5" timestamp="2010-07-06T08:44:45Z" uid="74617" user="JohnSmith" changeset="5147679">
    <nd ref="186963222"/>
    <nd ref="186964665"/>
    <tag k="highway" v="residential"/>
    <tag k="maxspeed" v="50"/>
    <tag k="maxspeed:source" v="default residential speed limit in Australia"/>
    <tag k="name" v="Orde Street"/>
    <tag k="source" v="survey"/>
  </way>
  <way id="18091484" version="6" timestamp="2012-01-15T18:47:06Z" uid="147510" user="woodpeck_fixbot" changeset="10400850">
    <nd ref="186963222"/>
    <nd ref="186964665"/>
    <tag k="highway" v="residential"/>
    <tag k="name" v="Orde Street"/>
    <tag k="source" v="survey"/>
  </way>
  <way id="18091512" version="4" timestamp="2010-07-06T08:46:39Z" uid="74617" user="JohnSmith" changeset="5147679">
    <nd ref="186965110"/>
    <nd ref="186965108"/>
    <nd ref="186965106"/>
    <nd ref="186965104"/>
    <nd ref="186965103"/>
    <nd ref="186965102"/>
    <nd ref="186965100"/>
    <nd ref="186966985"/>
    <nd ref="186966987"/>
    <nd ref="186966988"/>
    <nd ref="186966990"/>
    <nd ref="186966991"/>
    <nd ref="186966993"/>
    <nd ref="186966994"/>
    <nd ref="186966995"/>
    <nd ref="186966996"/>
    <tag k="highway" v="residential"/>
    <tag k="maxspeed" v="50"/>
    <tag k="maxspeed:source" v="default residential speed limit in Australia"/>
    <tag k="name" v="Roseglen Street"/>
  </way>
  <way id="18091512" version="5" timestamp="2012-01-15T18:47:07Z" uid="147510" user="woodpeck_fixbot" changeset="10400850">
    <nd ref="186965110"/>
    <nd ref="186965108"/>
    <nd ref="186965106"/>
    <nd ref="186965104"/>
    <nd ref="186965103"/>
    <nd ref="186965102"/>
    <nd ref="186965100"/>
    <nd ref="186966985"/>
    <nd ref="186966987"/>
    <nd ref="186966988"/>
    <nd ref="186966990"/>
    <nd ref="186966991"/>
    <nd ref="186966993"/>
    <nd ref="186966994"/>
    <nd ref="186966995"/>
    <nd ref="186966996"/>
    <tag k="highway" v="residential"/>
    <tag k="name" v="Roseglen Street"/>
  </way>
  <way id="18091581" version="3" timestamp="2009-12-27T14:59:57Z" uid="4467" user="Rosscoe" changeset="3463569">
    <nd ref="600024949"/>
    <nd ref="197390672"/>
    <tag k="highway" v="residential"/>
    <tag k="name" v="James Street"/>
    <tag k="oneway" v="yes"/>
    <tag k="source" v="nearmap"/>
  </way>
  <way id="18091581" version="4" timestamp="2010-07-06T17:47:47Z" uid="74617" user="JohnSmith" changeset="5152225">
    <nd ref="600024949"/>
    <nd ref="197390672"/>
    <tag k="highway" v="residential"/>
    <tag k="maxspeed" v="50"/>
    <tag k="maxspeed:source" v="default residential speed limit in Australia"/>
    <tag k="name" v="James Street"/>
    <tag k="oneway" v="yes"/>
    <tag k="source" v="nearmap"/>
  </way>
  <way id="18091581" version="5" timestamp="2012-01-15T18:47:09Z" uid="147510" user="woodpeck_fixbot" changeset="10400850">
    <nd ref="600024949"/>
    <nd ref="197390672"/>
    <tag k="highway" v="residential"/>
    <tag k="name" v="James Street"/>
    <tag k="oneway" v="yes"/>
    <tag k="source" v="nearmap"/>
  </way>
  <way id="18091625" version="4" timestamp="2008-10-16T19:01:04Z" uid="49111" user="Markus B" changeset="380014">
    <nd ref="186966665"/>
    <nd ref="186966664"/>
    <nd ref="186966662"/>
    <nd ref="186966660"/>
    <nd ref="186966658"/>
    <nd ref="186966656"/>
    <nd ref="186966652"/>
    <nd ref="186979134"/>
    <nd ref="186979137"/>
    <nd ref="186979140"/>
    <nd ref="186979130"/>
    <nd ref="186979125"/>
    <nd ref="186979146"/>
    <nd ref="186979143"/>
    <nd ref="186979121"/>
    <nd ref="186979118"/>
    <nd ref="186973757"/>
    <nd ref="186973755"/>
    <nd ref="186973750"/>
    <nd ref="186966676"/>
    <nd ref="186973745"/>
    <nd ref="186973741"/>
    <nd ref="186973739"/>
    <nd ref="186966673"/>
    <nd ref="186966670"/>
    <nd ref="186966665"/>
    <tag k="created_by" v="Potlatch 0.10e"/>
    <tag k="landuse" v="forest"/>
  </way>
  <way id="18091625" version="5" timestamp="2010-07-31T11:01:09Z" uid="238266" user="bangla" changeset="5361673">
    <nd ref="186966665"/>
    <nd ref="186966664"/>
    <nd ref="186966662"/>
    <nd ref="186966660"/>
    <nd ref="186966658"/>
    <nd ref="186966656"/>
    <nd ref="186966652"/>
    <nd ref="186979134"/>
    <nd ref="186979137"/>
    <nd ref="186979140"/>
    <nd ref="186979130"/>
    <nd ref="186979125"/>
    <nd ref="186979146"/>
    <nd ref="186979143"/>
    <nd ref="186979121"/>
    <nd ref="186979118"/>
    <nd ref="186973757"/>
    <nd ref="186973755"/>
    <nd ref="186973750"/>
    <nd ref="186966676"/>
    <nd ref="186973745"/>
    <nd ref="186973741"/>
    <nd ref="186973739"/>
    <nd ref="186966673"/>
    <nd ref="186966670"/>
    <nd ref="186966665"/>
    <tag k="landuse" v="forest"/>
  </way>
  <way id="18091669" version="3" timestamp="2009-12-27T15:04:06Z" uid="4467" user="Rosscoe" changeset="3463613">
    <nd ref="187062317"/>
    <nd ref="187062321"/>
    <nd ref="187062322"/>
    <nd ref="186967190"/>
    <nd ref="186967192"/>
    <nd ref="186967193"/>
    <nd ref="175470444"/>
    <tag k="highway" v="residential"/>
    <tag k="name" v="Hill Avenue"/>
  </way>
  <way id="18091669" version="4" timestamp="2010-07-06T17:43:33Z" uid="74617" user="JohnSmith" changeset="5152225">
    <nd ref="187062317"/>
    <nd ref="187062321"/>
    <nd ref="187062322"/>
    <nd ref="186967190"/>
    <nd ref="186967192"/>
    <nd ref="186967193"/>
    <nd ref="175470444"/>
    <tag k="highway" v="residential"/>
    <tag k="maxspeed" v="50"/>
    <tag k="maxspeed:source" v="default residential speed limit in Australia"/>
    <tag k="name" v="Hill Avenue"/>
  </way>
  <way id="18091669" version="5" timestamp="2012-01-15T18:47:11Z" uid="147510" user="woodpeck_fixbot" changeset="10400850">
    <nd ref="187062317"/>
    <nd ref="187062321"/>
    <nd ref="187062322"/>
    <nd ref="186967190"/>
    <nd ref="186967192"/>
    <nd ref="186967193"/>
    <nd ref="175470444"/>
    <tag k="highway" v="residential"/>
    <tag k="name" v="Hill Avenue"/>
  </way>
  <way id="18091729" version="4" timestamp="2009-12-27T14:59:57Z" uid="4467" user="Rosscoe" changeset="3463569">
    <nd ref="600024943"/>
    <nd ref="186970739"/>
    <nd ref="186967812"/>
    <nd ref="186967813"/>
    <nd ref="186967815"/>
    <nd ref="600024963"/>
    <tag k="highway" v="residential"/>
    <tag k="name" v="Ewart Street"/>
    <tag k="oneway" v="yes"/>
    <tag k="source" v="nearmap"/>
  </way>
  <way id="18091729" version="5" timestamp="2010-07-06T17:39:54Z" uid="74617" user="JohnSmith" changeset="5152225">
    <nd ref="600024943"/>
    <nd ref="186970739"/>
    <nd ref="186967812"/>
    <nd ref="186967813"/>
    <nd ref="186967815"/>
    <nd ref="600024963"/>
    <tag k="highway" v="residential"/>
    <tag k="maxspeed" v="50"/>
    <tag k="maxspeed:source" v="default residential speed limit in Australia"/>
    <tag k="name" v="Ewart Street"/>
    <tag k="oneway" v="yes"/>
    <tag k="source" v="nearmap"/>
  </way>
  <way id="18091729" version="6" timestamp="2012-01-15T18:47:12Z" uid="147510" user="woodpeck_fixbot" changeset="10400850">
    <nd ref="600024943"/>
    <nd ref="186970739"/>
    <nd ref="186967812"/>
    <nd ref="186967813"/>
    <nd ref="186967815"/>
    <nd ref="600024963"/>
    <tag k="highway" v="residential"/>
    <tag k="name" v="Ewart Street"/>
    <tag k="oneway" v="yes"/>
    <tag k="source" v="nearmap"/>
  </way>
  <way id="18091756" version="3" timestamp="2009-12-27T14:59:57Z" uid="4467" user="Rosscoe" changeset="3463569">
    <nd ref="186968129"/>
    <nd ref="186968127"/>
    <nd ref="186968125"/>
    <tag k="highway" v="residential"/>
    <tag k="name" v="Ewart Street"/>
    <tag k="oneway" v="yes"/>
    <tag k="source" v="nearmap"/>
  </way>
  <way id="18091756" version="4" timestamp="2010-07-06T17:42:37Z" uid="74617" user="JohnSmith" changeset="5152225">
    <nd ref="186968129"/>
    <nd ref="186968127"/>
    <nd ref="186968125"/>
    <tag k="highway" v="residential"/>
    <tag k="maxspeed" v="50"/>
    <tag k="maxspeed:source" v="default residential speed limit in Australia"/>
    <tag k="name" v="Ewart Street"/>
    <tag k="oneway" v="yes"/>
    <tag k="source" v="nearmap"/>
  </way>
  <way id="18091756" version="5" timestamp="2012-01-15T18:47:13Z" uid="147510" user="woodpeck_fixbot" changeset="10400850">
    <nd ref="186968129"/>
    <nd ref="186968127"/>
    <nd ref="186968125"/>
    <tag k="highway" v="residential"/>
    <tag k="name" v="Ewart Street"/>
    <tag k="oneway" v="yes"/>
    <tag k="source" v="nearmap"/>
  </way>
  <way id="18091869" version="2" timestamp="2009-12-27T14:59:56Z" uid="4467" user="Rosscoe" changeset="3463569">
    <nd ref="186968709"/>
    <nd ref="600024959"/>
    <nd ref="186968711"/>
    <tag k="highway" v="residential"/>
    <tag k="name" v="Ewart Street"/>
  </way>
  <way id="18091869" version="3" timestamp="2010-07-06T17:43:09Z" uid="74617" user="JohnSmith" changeset="5152225">
    <nd ref="186968709"/>
    <nd ref="600024959"/>
    <nd ref="186968711"/>
    <tag k="highway" v="residential"/>
    <tag k="maxspeed" v="50"/>
    <tag k="maxspeed:source" v="default residential speed limit in Australia"/>
    <tag k="name" v="Ewart Street"/>
  </way>
  <way id="18091869" version="4" timestamp="2012-01-15T18:47:15Z" uid="147510" user="woodpeck_fixbot" changeset="10400850">
    <nd ref="186968709"/>
    <nd ref="600024959"/>
    <nd ref="186968711"/>
    <tag k="highway" v="residential"/>
    <tag k="name" v="Ewart Street"/>
  </way>
  <way id="18091919" version="2" timestamp="2009-12-27T14:59:58Z" uid="4467" user="Rosscoe" changeset="3463569">
    <nd ref="600024971"/>
    <nd ref="600024972"/>
    <nd ref="600024973"/>
    <nd ref="600024974"/>
    <tag k="highway" v="residential"/>
    <tag k="oneway" v="yes"/>
  </way>
  <way id="18091919" version="3" timestamp="2010-07-06T17:48:54Z" uid="74617" user="JohnSmith" changeset="5152225">
    <nd ref="600024971"/>
    <nd ref="600024972"/>
    <nd ref="600024973"/>
    <nd ref="600024974"/>
    <tag k="highway" v="residential"/>
    <tag k="maxspeed" v="50"/>
    <tag k="maxspeed:source" v="default residential speed limit in Australia"/>
    <tag k="oneway" v="yes"/>
  </way>
  <way id="18091919" version="4" timestamp="2012-01-15T18:47:16Z" uid="147510" user="woodpeck_fixbot" changeset="10400850">
    <nd ref="600024971"/>
    <nd ref="600024972"/>
    <nd ref="600024973"/>
    <nd ref="600024974"/>
    <tag k="highway" v="residential"/>
    <tag k="oneway" v="yes"/>
  </way>
  <way id="18091418" version="5" timestamp="2012-07-19T11:26:29Z" uid="722137" user="OSMF Redaction Account" changeset="12321505">
    <nd ref="59711573"/>
    <nd ref="186963340"/>
    <nd ref="186963391"/>
    <tag k="highway" v="secondary"/>
    <tag k="name" v="Tharwa Drive"/>
    <tag k="oneway" v="yes"/>
  </way>
  <way id="18091418" version="6" timestamp="2012-07-20T11:29:46Z" uid="9655" user="Maxious" changeset="12373302">
    <nd ref="59711573"/>
    <nd ref="186963340"/>
    <nd ref="186963391"/>
    <nd ref="628618006"/>
    <tag k="highway" v="secondary"/>
    <tag k="name" v="Tharwa Drive"/>
    <tag k="oneway" v="yes"/>
  </way>
  <way id="18091581" version="6" timestamp="2012-07-19T14:02:35Z" uid="722137" user="OSMF Redaction Account" changeset="12330797"/>
  <way id="18091669" version="6" timestamp="2012-07-19T14:01:43Z" uid="722137" user="OSMF Redaction Account" changeset="12330761">
    <nd ref="187062317"/>
    <nd ref="187062321"/>
    <nd ref="187062322"/>
    <nd ref="186967190"/>
    <nd ref="186967192"/>
    <nd ref="186967193"/>
    <nd ref="175470444"/>
    <tag k="highway" v="residential"/>
    <tag k="name" v="Hill Av"/>
  </way>
  <way id="18091729" version="7" timestamp="2012-07-19T14:01:19Z" uid="722137" user="OSMF Redaction Account" changeset="12330761">
    <nd ref="186970739"/>
    <nd ref="186967812"/>
    <nd ref="186967813"/>
    <nd ref="186967815"/>
    <tag k="highway" v="residential"/>
    <tag k="name" v="Ewart Street"/>
    <tag k="oneway" v="yes"/>
  </way>
  <way id="18091729" version="8" timestamp="2012-08-29T05:06:16Z" uid="38548" user="PesceVerde" changeset="12900609">
    <nd ref="1887787583"/>
    <nd ref="186970739"/>
    <nd ref="186967813"/>
    <nd ref="1887787591"/>
    <tag k="highway" v="residential"/>
    <tag k="name" v="Ewart Street"/>
    <tag k="oneway" v="yes"/>
  </way>
  <way id="18091756" version="6" timestamp="2012-07-19T14:01:43Z" uid="722137" user="OSMF Redaction Account" changeset="12330761">
    <nd ref="186968129"/>
    <nd ref="186968127"/>
    <nd ref="186968125"/>
    <tag k="highway" v="residential"/>
    <tag k="name" v="Ewart Street"/>
    <tag k="oneway" v="yes"/>
  </way>
  <way id="18091869" version="5" timestamp="2012-07-19T14:01:20Z" uid="722137" user="OSMF Redaction Account" changeset="12330761">
    <nd ref="186968709"/>
    <nd ref="186968711"/>
    <tag k="highway" v="residential"/>
    <tag k="name" v="Ewart Street"/>
  </way>
  <way id="18091869" version="6" timestamp="2012-08-29T05:06:15Z" uid="38548" user="PesceVerde" changeset="12900609">
    <nd ref="186968709"/>
    <nd ref="1887787599"/>
    <nd ref="186968129"/>
    <tag k="highway" v="residential"/>
    <tag k="name" v="Ewart Street"/>
  </way>
  <way id="18091919" version="5" timestamp="2012-07-19T14:02:33Z" uid="722137" user="OSMF Redaction Account" changeset="12330797"/>
</osm>
