<?xml version='1.0' encoding='UTF-8'?>
<osm version="0.6" generator="libosmium/2.20.0">
  <way id="18110557" version="2" timestamp="2008-08-14T14:37:23Z" uid="36809" user="pfoten_weg_!_" changeset="250529">
    <nd ref="187117430"/>
    <nd ref="187117434"/>
    <nd ref="187117439"/>
    <tag k="created_by" v="RambaZamba"/>
    <tag k="highway" v="residential"/>
    <tag k="name" v="Tränkweg"/>
  </way>
  <way id="18110557" version="3" timestamp="2008-08-14T15:24:45Z" uid="36809" user="pfoten_weg_!_" changeset="250529">
    <nd ref="187117430"/>
    <nd ref="187117434"/>
    <nd ref="187117439"/>
    <tag k="created_by" v="RambaZamba"/>
    <tag k="highway" v="residential"/>
    <tag k="name" v="Tränkweg"/>
  </way>
  <way id="18110557" version="4" timestamp="2008-08-30T16:42:21Z" uid="13203" user="bahnpirat" changeset="460912">
    <nd ref="187117430"/>
    <nd ref="187117434"/>
    <nd ref="187117439"/>
    <tag k="created_by" v="Potlatch 0.10b"/>
    <tag k="highway" v="residential"/>
    <tag k="name" v="Tränkweg"/>
    <tag k="postal_code" v="82069"/>
  </way>
  <way id="18110557" version="5" timestamp="2008-09-13T23:12:23Z" uid="36809" user="pfoten_weg_!_" changeset="629750"/>
  <way id="18110558" version="2" timestamp="2008-08-14T15:24:50Z" uid="36809" user="pfoten_weg_!_" changeset="250529"/>
</osm>
