<?xml version='1.0' encoding='UTF-8'?>
<osm version="0.6" generator="libosmium/2.20.0">
  <way id="18111274" version="1" timestamp="2007-12-24T14:41:07Z" uid="4667" user="MapZ" changeset="413468">
    <nd ref="500030"/>
    <nd ref="500031"/>
    <nd ref="500032"/>
    <nd ref="500033"/>
    <nd ref="500034"/>
    <nd ref="502954"/>
    <tag k="class" v="motorway"/>
    <tag k="created_by" v="JOSM"/>
    <tag k="direction" v="W"/>
    <tag k="highway" v="motorway"/>
    <tag k="layer" v="0"/>
    <tag k="name" v="Viernheimer Dreieck"/>
    <tag k="oneway" v="yes"/>
    <tag k="ref" v="A6"/>
  </way>
  <way id="18111274" version="2" timestamp="2008-04-24T21:40:11Z" uid="24920" user="Schusch" changeset="247714">
    <nd ref="500030"/>
    <nd ref="500031"/>
    <nd ref="500032"/>
    <nd ref="500033"/>
    <nd ref="500034"/>
    <nd ref="502954"/>
    <tag k="class" v="motorway"/>
    <tag k="created_by" v="JOSM"/>
    <tag k="direction" v="W"/>
    <tag k="highway" v="motorway"/>
    <tag k="layer" v="0"/>
    <tag k="name" v="Viernheimer Dreieck"/>
    <tag k="oneway" v="yes"/>
    <tag k="ref" v="A 6"/>
  </way>
  <way id="18111274" version="3" timestamp="2008-05-31T12:02:05Z" uid="28378" user="PHerison" changeset="559967">
    <nd ref="500030"/>
    <nd ref="500031"/>
    <nd ref="500032"/>
    <nd ref="500033"/>
    <nd ref="500034"/>
    <nd ref="502954"/>
    <tag k="class" v="motorway"/>
    <tag k="created_by" v="Potlatch 0.9c"/>
    <tag k="direction" v="W"/>
    <tag k="highway" v="motorway"/>
    <tag k="int_ref" v="E50"/>
    <tag k="layer" v="0"/>
    <tag k="name" v="Viernheimer Dreieck"/>
    <tag k="oneway" v="yes"/>
    <tag k="ref" v="A 6"/>
  </way>
  <way id="18111274" version="4" timestamp="2008-05-31T12:29:31Z" uid="24920" user="Schusch" changeset="559100">
    <nd ref="500030"/>
    <nd ref="500031"/>
    <nd ref="500032"/>
    <nd ref="500033"/>
    <nd ref="500034"/>
    <nd ref="502954"/>
    <tag k="class" v="motorway"/>
    <tag k="created_by" v="Potlatch 0.9c"/>
    <tag k="direction" v="W"/>
    <tag k="highway" v="motorway"/>
    <tag k="int_ref" v="E 50"/>
    <tag k="layer" v="0"/>
    <tag k="name" v="Viernheimer Dreieck"/>
    <tag k="oneway" v="yes"/>
    <tag k="ref" v="A 6"/>
  </way>
  <way id="18111274" version="5" timestamp="2008-08-11T00:54:40Z" uid="36694" user="neufeind" changeset="180514">
    <nd ref="500030"/>
    <nd ref="500031"/>
    <nd ref="500032"/>
    <nd ref="500033"/>
    <nd ref="500034"/>
    <nd ref="502954"/>
    <tag k="direction" v="W"/>
    <tag k="highway" v="motorway"/>
    <tag k="int_ref" v="E 50"/>
    <tag k="layer" v="0"/>
    <tag k="name" v="Viernheimer Dreieck"/>
    <tag k="oneway" v="yes"/>
    <tag k="ref" v="A 6"/>
  </way>
  <way id="18111274" version="6" timestamp="2009-12-14T22:32:31Z" uid="9581" user="Lobelt" changeset="3375986">
    <nd ref="500030"/>
    <nd ref="590960066"/>
    <nd ref="590960080"/>
    <nd ref="500031"/>
    <nd ref="590960012"/>
    <nd ref="500032"/>
    <nd ref="500033"/>
    <nd ref="500034"/>
    <nd ref="502954"/>
    <tag k="direction" v="W"/>
    <tag k="highway" v="motorway"/>
    <tag k="int_ref" v="E 50"/>
    <tag k="layer" v="0"/>
    <tag k="name" v="Viernheimer Dreieck"/>
    <tag k="oneway" v="yes"/>
    <tag k="ref" v="A 6"/>
  </way>
  <way id="18111274" version="7" timestamp="2010-09-03T15:11:25Z" uid="161619" user="FvGordon" changeset="5671451">
    <nd ref="500030"/>
    <nd ref="590960066"/>
    <nd ref="590960080"/>
    <nd ref="500031"/>
    <nd ref="590960012"/>
    <nd ref="500032"/>
    <nd ref="500033"/>
    <nd ref="500034"/>
    <nd ref="502954"/>
    <tag k="direction" v="W"/>
    <tag k="highway" v="motorway"/>
    <tag k="int_ref" v="E 50"/>
    <tag k="name" v="Viernheimer Dreieck"/>
    <tag k="oneway" v="yes"/>
    <tag k="ref" v="A 6"/>
  </way>
  <way id="18111274" version="8" timestamp="2010-11-28T19:36:42Z" uid="30077" user="ChristianW" changeset="6481235">
    <nd ref="500030"/>
    <nd ref="590960066"/>
    <nd ref="590960080"/>
    <nd ref="500031"/>
    <nd ref="590960012"/>
    <nd ref="500032"/>
    <nd ref="500033"/>
    <nd ref="500034"/>
    <nd ref="502954"/>
    <tag k="direction" v="W"/>
    <tag k="highway" v="motorway"/>
    <tag k="int_ref" v="E 50"/>
    <tag k="name" v="Viernheimer Dreieck"/>
    <tag k="oneway" v="yes"/>
    <tag k="ref" v="A 6"/>
    <tag k="reg_name" v="Via Carolina"/>
    <tag k="wikipedia:reg_name" v="de:Via Carolina"/>
  </way>
  <way id="18111274" version="9" timestamp="2010-11-29T16:42:07Z" uid="30077" user="ChristianW" changeset="6487695">
    <nd ref="500030"/>
    <nd ref="590960066"/>
    <nd ref="590960080"/>
    <nd ref="500031"/>
    <nd ref="590960012"/>
    <nd ref="500032"/>
    <nd ref="500033"/>
    <nd ref="500034"/>
    <nd ref="502954"/>
    <tag k="direction" v="W"/>
    <tag k="highway" v="motorway"/>
    <tag k="int_ref" v="E 50"/>
    <tag k="name" v="Viernheimer Dreieck"/>
    <tag k="note:name" v="Der reg_name, sowie ggf. der loc_name sind dem zugehörigen Wikipediaartikel entnommen."/>
    <tag k="oneway" v="yes"/>
    <tag k="ref" v="A 6"/>
    <tag k="reg_name" v="Via Carolina"/>
    <tag k="wikipedia:reg_name" v="de:Via Carolina"/>
  </way>
  <way id="18111274" version="10" timestamp="2011-03-21T16:46:59Z" uid="407804" user="Blesmol" changeset="7629058">
    <nd ref="500030"/>
    <nd ref="1212109668"/>
    <nd ref="590960066"/>
    <nd ref="590960080"/>
    <nd ref="500031"/>
    <nd ref="590960012"/>
    <nd ref="500032"/>
    <nd ref="500033"/>
    <nd ref="500034"/>
    <nd ref="502954"/>
    <tag k="direction" v="W"/>
    <tag k="highway" v="motorway"/>
    <tag k="int_ref" v="E 50"/>
    <tag k="name" v="Viernheimer Dreieck"/>
    <tag k="note:name" v="Der reg_name, sowie ggf. der loc_name sind dem zugehörigen Wikipediaartikel entnommen."/>
    <tag k="oneway" v="yes"/>
    <tag k="ref" v="A 6"/>
    <tag k="reg_name" v="Via Carolina"/>
    <tag k="wikipedia:reg_name" v="de:Via Carolina"/>
  </way>
  <way id="18111274" version="11" timestamp="2011-06-11T12:20:26Z" uid="30077" user="ChristianW" changeset="8405334">
    <nd ref="500030"/>
    <nd ref="1212109668"/>
    <nd ref="590960066"/>
    <nd ref="590960080"/>
    <nd ref="500031"/>
    <nd ref="590960012"/>
    <nd ref="500032"/>
    <nd ref="500033"/>
    <nd ref="500034"/>
    <nd ref="502954"/>
    <tag k="direction" v="W"/>
    <tag k="highway" v="motorway"/>
    <tag k="int_ref" v="E 50"/>
    <tag k="name" v="Viernheimer Dreieck"/>
    <tag k="oneway" v="yes"/>
    <tag k="ref" v="A 6"/>
    <tag k="wikipedia:reg_name" v="de:Via Carolina"/>
  </way>
  <way id="18111274" version="12" timestamp="2011-07-02T20:15:10Z" uid="110838" user="Bernhard W" changeset="8611628">
    <nd ref="500030"/>
    <nd ref="1212109668"/>
    <nd ref="590960066"/>
    <nd ref="590960080"/>
    <nd ref="500031"/>
    <nd ref="590960012"/>
    <nd ref="500032"/>
    <nd ref="500033"/>
    <nd ref="500034"/>
    <nd ref="502954"/>
    <tag k="access" v="yes"/>
    <tag k="bicycle" v="no"/>
    <tag k="cycleway" v="no"/>
    <tag k="direction" v="W"/>
    <tag k="foot" v="no"/>
    <tag k="highway" v="motorway"/>
    <tag k="int_ref" v="E 50"/>
    <tag k="lit" v="no"/>
    <tag k="name" v="Viernheimer Dreieck"/>
    <tag k="oneway" v="yes"/>
    <tag k="ref" v="A 6"/>
    <tag k="wikipedia:reg_name" v="de:Via Carolina"/>
  </way>
  <way id="18111274" version="13" timestamp="2011-09-11T15:25:42Z" uid="30077" user="ChristianW" changeset="9271742">
    <nd ref="500030"/>
    <nd ref="1212109668"/>
    <nd ref="590960066"/>
    <nd ref="590960080"/>
    <nd ref="500031"/>
    <nd ref="590960012"/>
    <nd ref="500032"/>
    <nd ref="500033"/>
    <nd ref="500034"/>
    <nd ref="502954"/>
    <tag k="access" v="yes"/>
    <tag k="bicycle" v="no"/>
    <tag k="cycleway" v="no"/>
    <tag k="direction" v="W"/>
    <tag k="foot" v="no"/>
    <tag k="highway" v="motorway"/>
    <tag k="int_ref" v="E 50"/>
    <tag k="lit" v="no"/>
    <tag k="name" v="Viernheimer Dreieck"/>
    <tag k="oneway" v="yes"/>
    <tag k="ref" v="A 6"/>
    <tag k="source:lit" v="http://www.autobahn-bilder.de"/>
    <tag k="surface" v="asphalt"/>
    <tag k="wikipedia:reg_name" v="de:Via Carolina"/>
  </way>
  <way id="18111274" version="14" timestamp="2011-09-18T21:48:11Z" uid="110838" user="Bernhard W" changeset="9337845">
    <nd ref="500030"/>
    <nd ref="1212109668"/>
    <nd ref="590960066"/>
    <nd ref="590960080"/>
    <nd ref="500031"/>
    <tag k="access" v="yes"/>
    <tag k="bicycle" v="no"/>
    <tag k="cycleway" v="no"/>
    <tag k="direction" v="W"/>
    <tag k="embankment" v="yes"/>
    <tag k="foot" v="no"/>
    <tag k="highway" v="motorway"/>
    <tag k="int_ref" v="E 50"/>
    <tag k="lanes" v="2"/>
    <tag k="lit" v="no"/>
    <tag k="name" v="Viernheimer Dreieck"/>
    <tag k="oneway" v="yes"/>
    <tag k="ref" v="A 6"/>
    <tag k="source:lit" v="http://www.autobahn-bilder.de"/>
    <tag k="surface" v="asphalt"/>
    <tag k="wikipedia:reg_name" v="de:Via Carolina"/>
  </way>
  <way id="18111274" version="15" timestamp="2011-10-07T08:05:04Z" uid="165061" user="keinname" changeset="9491651">
    <nd ref="500030"/>
    <nd ref="1212109668"/>
    <nd ref="590960066"/>
    <nd ref="590960080"/>
    <nd ref="500031"/>
    <tag k="access" v="yes"/>
    <tag k="bicycle" v="no"/>
    <tag k="cycleway" v="no"/>
    <tag k="direction" v="W"/>
    <tag k="embankment" v="yes"/>
    <tag k="foot" v="no"/>
    <tag k="highway" v="motorway_link"/>
    <tag k="int_ref" v="E 50"/>
    <tag k="lanes" v="2"/>
    <tag k="lit" v="no"/>
    <tag k="name" v="Viernheimer Dreieck"/>
    <tag k="oneway" v="yes"/>
    <tag k="ref" v="A 6"/>
    <tag k="source:lit" v="http://www.autobahn-bilder.de"/>
    <tag k="surface" v="asphalt"/>
    <tag k="wikipedia:reg_name" v="de:Via Carolina"/>
  </way>
  <way id="18111274" version="16" timestamp="2011-10-08T16:30:21Z" uid="475266" user="Lobelt_2" changeset="9504265">
    <nd ref="500030"/>
    <nd ref="1212109668"/>
    <nd ref="590960066"/>
    <nd ref="590960080"/>
    <nd ref="500031"/>
    <tag k="access" v="yes"/>
    <tag k="bicycle" v="no"/>
    <tag k="cycleway" v="no"/>
    <tag k="direction" v="W"/>
    <tag k="embankment" v="yes"/>
    <tag k="foot" v="no"/>
    <tag k="highway" v="motorway_link"/>
    <tag k="int_ref" v="E 50"/>
    <tag k="lanes" v="2"/>
    <tag k="lit" v="no"/>
    <tag k="maxspeed" v="none"/>
    <tag k="name" v="Viernheimer Dreieck"/>
    <tag k="oneway" v="yes"/>
    <tag k="ref" v="A 6"/>
    <tag k="source:lit" v="http://www.autobahn-bilder.de"/>
    <tag k="surface" v="asphalt"/>
    <tag k="wikipedia:reg_name" v="de:Via Carolina"/>
  </way>
  <way id="18111274" version="17" timestamp="2011-12-27T14:47:48Z" uid="136321" user="Teddy73" changeset="10216127"/>
  <way id="18111276" version="1" timestamp="2007-12-24T14:41:08Z" uid="4667" user="MapZ" changeset="413468">
    <nd ref="500023"/>
    <nd ref="500024"/>
    <nd ref="500025"/>
    <nd ref="500026"/>
    <nd ref="500027"/>
    <nd ref="500028"/>
    <nd ref="500029"/>
    <nd ref="500030"/>
    <tag k="bridge" v="yes"/>
    <tag k="class" v="motorway"/>
    <tag k="created_by" v="JOSM"/>
    <tag k="direction" v="W"/>
    <tag k="highway" v="motorway"/>
    <tag k="layer" v="1"/>
    <tag k="name" v="Viernheimer Dreieck"/>
    <tag k="oneway" v="yes"/>
    <tag k="ref" v="A6"/>
  </way>
  <way id="18111276" version="2" timestamp="2007-12-24T14:42:29Z" uid="4667" user="MapZ" changeset="413468">
    <nd ref="500023"/>
    <nd ref="500024"/>
    <nd ref="500025"/>
    <nd ref="500026"/>
    <nd ref="500027"/>
    <nd ref="500028"/>
    <nd ref="500029"/>
    <nd ref="500030"/>
    <tag k="bridge" v="yes"/>
    <tag k="class" v="motorway"/>
    <tag k="created_by" v="JOSM"/>
    <tag k="direction" v="W"/>
    <tag k="highway" v="motorway"/>
    <tag k="layer" v="1"/>
    <tag k="name" v="Viernheimer Dreieck"/>
    <tag k="oneway" v="yes"/>
    <tag k="ref" v="A6"/>
  </way>
  <way id="18111276" version="3" timestamp="2008-04-24T21:40:11Z" uid="24920" user="Schusch" changeset="247714">
    <nd ref="500023"/>
    <nd ref="500024"/>
    <nd ref="500025"/>
    <nd ref="500026"/>
    <nd ref="500027"/>
    <nd ref="500028"/>
    <nd ref="500029"/>
    <nd ref="500030"/>
    <tag k="bridge" v="yes"/>
    <tag k="class" v="motorway"/>
    <tag k="created_by" v="JOSM"/>
    <tag k="direction" v="W"/>
    <tag k="highway" v="motorway"/>
    <tag k="layer" v="1"/>
    <tag k="name" v="Viernheimer Dreieck"/>
    <tag k="oneway" v="yes"/>
    <tag k="ref" v="A 6"/>
  </way>
  <way id="18111276" version="4" timestamp="2008-04-29T23:29:08Z" uid="24920" user="Schusch" changeset="294897"/>
  <way id="18111277" version="1" timestamp="2007-12-24T14:41:08Z" uid="4667" user="MapZ" changeset="413468">
    <nd ref="501777"/>
    <nd ref="501778"/>
    <nd ref="501779"/>
    <nd ref="501780"/>
    <nd ref="501781"/>
    <nd ref="501782"/>
    <nd ref="501785"/>
    <nd ref="501786"/>
    <nd ref="501787"/>
    <tag k="class" v="motorway"/>
    <tag k="created_by" v="JOSM"/>
    <tag k="direction" v="A6O -&gt; A67N"/>
    <tag k="highway" v="motorway"/>
    <tag k="name" v="Viernheimer Dreieck"/>
    <tag k="oneway" v="yes"/>
    <tag k="ref" v="A6"/>
  </way>
  <way id="18111277" version="2" timestamp="2007-12-24T14:42:30Z" uid="4667" user="MapZ" changeset="413468">
    <nd ref="501777"/>
    <nd ref="501778"/>
    <nd ref="501779"/>
    <nd ref="501780"/>
    <nd ref="501781"/>
    <nd ref="501782"/>
    <nd ref="501785"/>
    <nd ref="501786"/>
    <nd ref="501787"/>
    <tag k="bridge" v="yes"/>
    <tag k="class" v="motorway"/>
    <tag k="created_by" v="JOSM"/>
    <tag k="direction" v="A6O -&gt; A67N"/>
    <tag k="highway" v="motorway"/>
    <tag k="layer" v="1"/>
    <tag k="name" v="Viernheimer Dreieck"/>
    <tag k="oneway" v="yes"/>
    <tag k="ref" v="A6"/>
  </way>
  <way id="18111277" version="3" timestamp="2008-04-24T21:40:11Z" uid="24920" user="Schusch" changeset="247714">
    <nd ref="501777"/>
    <nd ref="501778"/>
    <nd ref="501779"/>
    <nd ref="501780"/>
    <nd ref="501781"/>
    <nd ref="501782"/>
    <nd ref="501785"/>
    <nd ref="501786"/>
    <nd ref="501787"/>
    <tag k="bridge" v="yes"/>
    <tag k="class" v="motorway"/>
    <tag k="created_by" v="JOSM"/>
    <tag k="direction" v="A 6 O -&gt; A 67 N"/>
    <tag k="highway" v="motorway"/>
    <tag k="layer" v="1"/>
    <tag k="name" v="Viernheimer Dreieck"/>
    <tag k="oneway" v="yes"/>
    <tag k="ref" v="A 6"/>
  </way>
  <way id="18111277" version="4" timestamp="2008-04-29T23:29:07Z" uid="24920" user="Schusch" changeset="294897">
    <nd ref="501777"/>
    <nd ref="501778"/>
    <nd ref="501779"/>
    <nd ref="501780"/>
    <tag k="bridge" v="yes"/>
    <tag k="class" v="motorway"/>
    <tag k="created_by" v="JOSM"/>
    <tag k="direction" v="A 6 O -&gt; A 67 N"/>
    <tag k="highway" v="motorway"/>
    <tag k="layer" v="1"/>
    <tag k="name" v="Viernheimer Dreieck"/>
    <tag k="oneway" v="yes"/>
    <tag k="ref" v="A 6"/>
  </way>
  <way id="18111277" version="5" timestamp="2008-08-11T00:54:39Z" uid="36694" user="neufeind" changeset="180514">
    <nd ref="501777"/>
    <nd ref="501778"/>
    <nd ref="501779"/>
    <nd ref="501780"/>
    <tag k="bridge" v="yes"/>
    <tag k="direction" v="A 6 O -&amp;gt; A 67 N"/>
    <tag k="highway" v="motorway"/>
    <tag k="layer" v="1"/>
    <tag k="name" v="Viernheimer Dreieck"/>
    <tag k="oneway" v="yes"/>
    <tag k="ref" v="A 6"/>
  </way>
  <way id="18111277" version="6" timestamp="2008-11-19T21:27:36Z" uid="24920" user="Schusch" changeset="773002">
    <nd ref="501777"/>
    <nd ref="501778"/>
    <nd ref="501779"/>
    <nd ref="501780"/>
    <tag k="bridge" v="yes"/>
    <tag k="direction" v="A 6 O -&amp;gt; A 67 N"/>
    <tag k="highway" v="motorway"/>
    <tag k="layer" v="1"/>
    <tag k="maxspeed" v="100"/>
    <tag k="name" v="Viernheimer Dreieck"/>
    <tag k="oneway" v="yes"/>
    <tag k="ref" v="A 6"/>
  </way>
  <way id="18111277" version="7" timestamp="2008-11-19T21:54:17Z" uid="24920" user="Schusch" changeset="773002">
    <nd ref="501777"/>
    <nd ref="501778"/>
    <nd ref="501779"/>
    <nd ref="501780"/>
    <tag k="bridge" v="yes"/>
    <tag k="direction" v="A 6 O -&amp;gt; A 67 N"/>
    <tag k="highway" v="motorway"/>
    <tag k="lanes" v="2"/>
    <tag k="layer" v="1"/>
    <tag k="maxspeed" v="100"/>
    <tag k="name" v="Viernheimer Dreieck"/>
    <tag k="oneway" v="yes"/>
    <tag k="ref" v="A 6"/>
  </way>
  <way id="18111277" version="8" timestamp="2008-12-05T08:43:21Z" uid="49317" user="Gary68" changeset="136550">
    <nd ref="501777"/>
    <nd ref="501778"/>
    <nd ref="501779"/>
    <nd ref="501780"/>
    <tag k="bridge" v="yes"/>
    <tag k="direction" v="A 6 O -&amp;gt; A 67 N"/>
    <tag k="highway" v="motorway_link"/>
    <tag k="lanes" v="2"/>
    <tag k="layer" v="1"/>
    <tag k="maxspeed" v="100"/>
    <tag k="name" v="Viernheimer Dreieck"/>
    <tag k="oneway" v="yes"/>
    <tag k="ref" v="A 6"/>
  </way>
  <way id="18111277" version="9" timestamp="2009-05-23T11:03:37Z" uid="70696" user="xybot" changeset="1293006">
    <nd ref="501777"/>
    <nd ref="501778"/>
    <nd ref="501779"/>
    <nd ref="501780"/>
    <tag k="bridge" v="yes"/>
    <tag k="direction" v="A 6 O -&gt; A 67 N"/>
    <tag k="highway" v="motorway_link"/>
    <tag k="lanes" v="2"/>
    <tag k="layer" v="1"/>
    <tag k="maxspeed" v="100"/>
    <tag k="name" v="Viernheimer Dreieck"/>
    <tag k="oneway" v="yes"/>
    <tag k="ref" v="A 6"/>
  </way>
  <way id="18111277" version="10" timestamp="2010-01-02T15:29:43Z" uid="131670" user="Ana Luisa" changeset="3519323">
    <nd ref="501777"/>
    <nd ref="501778"/>
    <nd ref="501779"/>
    <nd ref="501780"/>
    <tag k="bridge" v="yes"/>
    <tag k="direction" v="A 6 O -&gt; A 67 N"/>
    <tag k="highway" v="motorway_link"/>
    <tag k="lanes" v="2"/>
    <tag k="layer" v="1"/>
    <tag k="maxspeed" v="100"/>
    <tag k="name" v="Viernheimer Dreieck"/>
    <tag k="oneway" v="yes"/>
    <tag k="ref" v="A 67"/>
  </way>
  <way id="18111277" version="11" timestamp="2010-05-03T20:05:31Z" uid="24920" user="Schusch" changeset="4598685">
    <nd ref="501777"/>
    <nd ref="501778"/>
    <nd ref="501779"/>
    <nd ref="501780"/>
    <tag k="access" v="no"/>
    <tag k="bridge" v="yes"/>
    <tag k="construction" v="yes"/>
    <tag k="direction" v="A 6 O -&gt; A 67 N"/>
    <tag k="highway" v="motorway_link"/>
    <tag k="lanes" v="2"/>
    <tag k="layer" v="1"/>
    <tag k="maxspeed" v="100"/>
    <tag k="name" v="Viernheimer Dreieck"/>
    <tag k="note" v="seit 2010-05-03 gesperrt für Brückenreparaturen"/>
    <tag k="oneway" v="yes"/>
    <tag k="ref" v="A 67"/>
  </way>
  <way id="18111277" version="12" timestamp="2011-03-09T17:25:23Z" uid="24920" user="Schusch" changeset="7506203">
    <nd ref="501777"/>
    <nd ref="501778"/>
    <nd ref="501779"/>
    <nd ref="501780"/>
    <tag k="bridge" v="yes"/>
    <tag k="direction" v="A 6 O -&gt; A 67 N"/>
    <tag k="highway" v="motorway_link"/>
    <tag k="lanes" v="2"/>
    <tag k="layer" v="1"/>
    <tag k="maxspeed" v="100"/>
    <tag k="name" v="Viernheimer Dreieck"/>
    <tag k="note" v="seit 2010-05-03 gesperrt für Brückenreparaturen; ab ca. 2011-03 wieder frei; diese Brücke wurde neu gebaut"/>
    <tag k="oneway" v="yes"/>
    <tag k="ref" v="A 67"/>
  </way>
  <way id="18111277" version="13" timestamp="2011-03-30T21:05:27Z" uid="24920" user="Schusch" changeset="7720726">
    <nd ref="501777"/>
    <nd ref="501778"/>
    <nd ref="501779"/>
    <nd ref="501780"/>
    <tag k="bridge" v="yes"/>
    <tag k="direction" v="A 6 O -&gt; A 67 N"/>
    <tag k="highway" v="motorway_link"/>
    <tag k="lanes" v="2"/>
    <tag k="layer" v="1"/>
    <tag k="maxspeed" v="80"/>
    <tag k="name" v="Viernheimer Dreieck"/>
    <tag k="note" v="seit 2010-05-03 gesperrt für Brückenreparaturen; ab ca. 2011-03 wieder frei; diese Brücke wurde neu gebaut"/>
    <tag k="oneway" v="yes"/>
    <tag k="ref" v="A 67"/>
  </way>
  <way id="18111277" version="14" timestamp="2011-04-13T20:21:50Z" uid="24920" user="Schusch" changeset="7855582">
    <nd ref="501777"/>
    <nd ref="501778"/>
    <nd ref="501779"/>
    <nd ref="501780"/>
    <tag k="bridge" v="yes"/>
    <tag k="direction" v="A 6 O -&gt; A 67 N"/>
    <tag k="highway" v="motorway_link"/>
    <tag k="lanes" v="2"/>
    <tag k="layer" v="1"/>
    <tag k="maxspeed" v="100"/>
    <tag k="name" v="Viernheimer Dreieck"/>
    <tag k="note" v="seit 2010-05-03 gesperrt für Brückenreparaturen; ab ca. 2011-03 wieder frei; diese Brücke wurde neu gebaut"/>
    <tag k="oneway" v="yes"/>
    <tag k="ref" v="A 67"/>
  </way>
  <way id="18111277" version="15" timestamp="2011-07-07T15:05:40Z" uid="110838" user="Bernhard W" changeset="8658037">
    <nd ref="501777"/>
    <nd ref="501778"/>
    <nd ref="501779"/>
    <nd ref="501780"/>
    <tag k="access" v="yes"/>
    <tag k="bicycle" v="no"/>
    <tag k="bridge" v="yes"/>
    <tag k="cycleway" v="no"/>
    <tag k="direction" v="A 6 O -&gt; A 67 N"/>
    <tag k="foot" v="no"/>
    <tag k="highway" v="motorway_link"/>
    <tag k="lanes" v="2"/>
    <tag k="layer" v="1"/>
    <tag k="lit" v="no"/>
    <tag k="maxspeed" v="100"/>
    <tag k="name" v="Viernheimer Dreieck"/>
    <tag k="note" v="seit 2010-05-03 gesperrt für Brückenreparaturen; ab ca. 2011-03 wieder frei; diese Brücke wurde neu gebaut"/>
    <tag k="oneway" v="yes"/>
    <tag k="ref" v="A 67"/>
  </way>
  <way id="18111277" version="16" timestamp="2011-12-26T14:50:22Z" uid="136321" user="Teddy73" changeset="10206045"/>
  <way id="18111811" version="3" timestamp="2010-06-01T14:03:23Z" uid="4467" user="Rosscoe" changeset="4874822">
    <nd ref="187129539"/>
    <nd ref="187129541"/>
    <nd ref="187129542"/>
    <nd ref="187129543"/>
    <nd ref="187209005"/>
    <tag k="created_by" v="Potlatch 0.5d"/>
    <tag k="highway" v="residential"/>
    <tag k="name" v="Stevenson Court"/>
  </way>
  <way id="18111811" version="4" timestamp="2010-07-06T18:05:42Z" uid="74617" user="JohnSmith" changeset="5152225">
    <nd ref="187129539"/>
    <nd ref="187129541"/>
    <nd ref="187129542"/>
    <nd ref="187129543"/>
    <nd ref="187209005"/>
    <tag k="highway" v="residential"/>
    <tag k="maxspeed" v="50"/>
    <tag k="maxspeed:source" v="default residential speed limit in Australia"/>
    <tag k="name" v="Stevenson Court"/>
  </way>
  <way id="18111811" version="5" timestamp="2012-01-15T18:48:59Z" uid="147510" user="woodpeck_fixbot" changeset="10400850">
    <nd ref="187129539"/>
    <nd ref="187129541"/>
    <nd ref="187129542"/>
    <nd ref="187129543"/>
    <nd ref="187209005"/>
    <tag k="highway" v="residential"/>
    <tag k="name" v="Stevenson Court"/>
  </way>
</osm>
