<?xml version='1.0' encoding='UTF-8'?>
<osm version="0.6" generator="libosmium/2.20.0">
  <way id="1819350" version="6" timestamp="2010-05-13T09:23:09Z" uid="58091" user="Andreas M" changeset="4683781">
    <nd ref="9921160"/>
    <nd ref="9921161"/>
    <nd ref="16055002"/>
    <nd ref="473176512"/>
    <nd ref="623411216"/>
    <nd ref="377989"/>
    <nd ref="623411207"/>
    <nd ref="473176513"/>
    <nd ref="7456943"/>
    <nd ref="33208085"/>
    <nd ref="398012"/>
    <nd ref="33208035"/>
    <nd ref="7456941"/>
    <nd ref="7456942"/>
    <tag k="highway" v="secondary"/>
    <tag k="maxspeed" v="50"/>
    <tag k="name" v="Johnstraße"/>
  </way>
  <way id="1819350" version="7" timestamp="2011-03-02T23:44:09Z" uid="290810" user="Humanist" changeset="7442307">
    <nd ref="9921160"/>
    <nd ref="9921161"/>
    <nd ref="16055002"/>
    <nd ref="473176512"/>
    <nd ref="1183685076"/>
    <nd ref="623411216"/>
    <nd ref="377989"/>
    <nd ref="623411207"/>
    <nd ref="1183685055"/>
    <nd ref="473176513"/>
    <nd ref="7456943"/>
    <nd ref="33208085"/>
    <nd ref="398012"/>
    <nd ref="33208035"/>
    <nd ref="7456941"/>
    <nd ref="7456942"/>
    <tag k="highway" v="secondary"/>
    <tag k="maxspeed" v="50"/>
    <tag k="name" v="Johnstraße"/>
  </way>
  <way id="1819350" version="8" timestamp="2011-03-31T19:32:56Z" uid="99800" user="wolfbert" changeset="7729201">
    <nd ref="9921160"/>
    <nd ref="9921161"/>
    <nd ref="16055002"/>
    <tag k="highway" v="secondary"/>
    <tag k="maxspeed" v="50"/>
    <tag k="name" v="Johnstraße"/>
  </way>
  <way id="1819359" version="4" timestamp="2010-05-13T09:23:14Z" uid="58091" user="Andreas M" changeset="4683781">
    <nd ref="7456942"/>
    <nd ref="7456963"/>
    <nd ref="7456960"/>
    <nd ref="7456959"/>
    <nd ref="7456957"/>
    <tag k="highway" v="residential"/>
    <tag k="maxspeed" v="30"/>
    <tag k="name" v="Fenzlgasse"/>
  </way>
  <way id="1819359" version="5" timestamp="2010-10-07T12:15:42Z" uid="41463" user="digitalhippie" changeset="5977638">
    <nd ref="7456942"/>
    <nd ref="7456963"/>
    <nd ref="7456960"/>
    <nd ref="7456959"/>
    <nd ref="7456957"/>
    <tag k="highway" v="residential"/>
    <tag k="maxspeed" v="30"/>
    <tag k="name" v="Fenzlgasse"/>
  </way>
  <way id="1819359" version="6" timestamp="2011-10-08T01:27:10Z" uid="229590" user="xificurk" changeset="9498852">
    <nd ref="7456942"/>
    <nd ref="7456963"/>
    <nd ref="7456960"/>
    <nd ref="7456959"/>
    <nd ref="7456957"/>
    <tag k="admin_level" v="9"/>
    <tag k="boundary" v="administrative"/>
    <tag k="highway" v="residential"/>
    <tag k="maxspeed" v="30"/>
    <tag k="name" v="Fenzlgasse"/>
  </way>
</osm>
