<?xml version='1.0' encoding='UTF-8'?>
<osm version="0.6" generator="libosmium/2.20.0">
  <way id="18322630" version="2" timestamp="2010-07-09T05:03:23Z" uid="74617" user="JohnSmith" changeset="5170986">
    <nd ref="147107170"/>
    <nd ref="147107173"/>
    <nd ref="147112138"/>
    <nd ref="130572880"/>
    <tag k="highway" v="residential"/>
    <tag k="maxspeed" v="50"/>
    <tag k="maxspeed:source" v="default residential speed limit in Australia"/>
    <tag k="name" v="Edna Court"/>
  </way>
  <way id="18322630" version="3" timestamp="2012-01-15T18:54:38Z" uid="147510" user="woodpeck_fixbot" changeset="10400850">
    <nd ref="147107170"/>
    <nd ref="147107173"/>
    <nd ref="147112138"/>
    <nd ref="130572880"/>
    <tag k="highway" v="residential"/>
    <tag k="name" v="Edna Court"/>
  </way>
  <way id="18322939" version="6" timestamp="2010-07-09T03:23:49Z" uid="74617" user="JohnSmith" changeset="5170713">
    <nd ref="30062625"/>
    <nd ref="30062626"/>
    <nd ref="30288085"/>
    <nd ref="30062627"/>
    <nd ref="30062628"/>
    <tag k="highway" v="residential"/>
    <tag k="maxspeed" v="50"/>
    <tag k="maxspeed:source" v="default residential speed limit in Australia"/>
    <tag k="name" v="Burbank Street"/>
    <tag k="source" v="survey"/>
  </way>
  <way id="18322939" version="7" timestamp="2010-07-22T10:30:18Z" uid="6513" user="Glen" changeset="5286013">
    <nd ref="30062625"/>
    <nd ref="30062626"/>
    <nd ref="30288085"/>
    <nd ref="30062627"/>
    <nd ref="828587313"/>
    <nd ref="30062628"/>
    <tag k="highway" v="residential"/>
    <tag k="maxspeed" v="50"/>
    <tag k="maxspeed:source" v="default residential speed limit in Australia"/>
    <tag k="name" v="Burbank Street"/>
    <tag k="source" v="survey"/>
  </way>
  <way id="18322939" version="8" timestamp="2012-01-15T18:54:39Z" uid="147510" user="woodpeck_fixbot" changeset="10400850">
    <nd ref="30062625"/>
    <nd ref="30062626"/>
    <nd ref="30288085"/>
    <nd ref="30062627"/>
    <nd ref="828587313"/>
    <nd ref="30062628"/>
    <tag k="highway" v="residential"/>
    <tag k="name" v="Burbank Street"/>
    <tag k="source" v="survey"/>
  </way>
</osm>
