<?xml version='1.0' encoding='UTF-8'?>
<osm version="0.6" generator="libosmium/2.20.0">
  <way id="18352474" version="8" timestamp="2010-10-07T18:42:04Z" uid="9581" user="Lobelt" changeset="5980318">
    <nd ref="145391489"/>
    <nd ref="145391488"/>
    <nd ref="145391487"/>
    <nd ref="145391486"/>
    <nd ref="145391485"/>
    <nd ref="189154595"/>
    <nd ref="189157406"/>
    <nd ref="145391484"/>
    <nd ref="189154594"/>
    <nd ref="189165974"/>
    <nd ref="189154216"/>
    <nd ref="145391482"/>
    <tag k="highway" v="unclassified"/>
    <tag k="name" v="Pfalzgraf-Otto-Straße"/>
    <tag k="oneway" v="yes"/>
  </way>
  <way id="18352474" version="9" timestamp="2010-11-21T17:48:16Z" uid="263596" user="Oberförster" changeset="6424783">
    <nd ref="145391489"/>
    <nd ref="145391488"/>
    <nd ref="145391487"/>
    <nd ref="145391486"/>
    <nd ref="145391485"/>
    <nd ref="189154595"/>
    <nd ref="189157406"/>
    <nd ref="145391484"/>
    <nd ref="189154594"/>
    <nd ref="189165974"/>
    <nd ref="189154216"/>
    <nd ref="145391482"/>
    <tag k="highway" v="tertiary"/>
    <tag k="name" v="Pfalzgraf-Otto-Straße"/>
    <tag k="oneway" v="yes"/>
  </way>
  <way id="18352474" version="10" timestamp="2010-11-21T20:12:30Z" uid="39504" user="malenki" changeset="6426353">
    <nd ref="145391489"/>
    <nd ref="145391488"/>
    <nd ref="145391487"/>
    <nd ref="145391486"/>
    <nd ref="145391485"/>
    <nd ref="189154595"/>
    <nd ref="189157406"/>
    <nd ref="145391484"/>
    <nd ref="189154594"/>
    <nd ref="189165974"/>
    <nd ref="189154216"/>
    <nd ref="145391482"/>
    <tag k="highway" v="unclassified"/>
    <tag k="name" v="Pfalzgraf-Otto-Straße"/>
    <tag k="oneway" v="yes"/>
  </way>
  <way id="18352474" version="11" timestamp="2012-01-13T10:28:01Z" uid="131968" user="changchun_1" changeset="10377133"/>
  <way id="18352575" version="10" timestamp="2010-05-02T14:35:19Z" uid="58091" user="Andreas M" changeset="4585780">
    <nd ref="338142495"/>
    <nd ref="338142497"/>
    <nd ref="338138697"/>
    <nd ref="623035787"/>
    <nd ref="338142499"/>
    <nd ref="189154145"/>
    <nd ref="189154147"/>
    <nd ref="188699838"/>
    <nd ref="197450531"/>
    <nd ref="197450533"/>
    <nd ref="189161668"/>
    <nd ref="189162322"/>
    <nd ref="189162323"/>
    <nd ref="189160823"/>
    <tag k="addr:postcode" v="2384"/>
    <tag k="highway" v="residential"/>
    <tag k="maxspeed" v="30"/>
    <tag k="name" v="Franz-Schubert-Gasse"/>
    <tag k="source" v="plan.at 2009"/>
  </way>
  <way id="18352575" version="11" timestamp="2010-07-23T21:08:27Z" uid="111529" user="ReinerMeyer" changeset="5298816">
    <nd ref="338142495"/>
    <nd ref="338142497"/>
    <nd ref="338138697"/>
    <nd ref="623035787"/>
    <nd ref="338142499"/>
    <tag k="addr:postcode" v="2384"/>
    <tag k="highway" v="residential"/>
    <tag k="maxspeed" v="30"/>
    <tag k="name" v="Franz-Schubert-Gasse"/>
    <tag k="source" v="plan.at 2009"/>
  </way>
  <way id="18352575" version="12" timestamp="2010-07-24T05:26:57Z" uid="111529" user="ReinerMeyer" changeset="5300846">
    <nd ref="338142495"/>
    <nd ref="338142497"/>
    <nd ref="338138697"/>
    <nd ref="623035787"/>
    <tag k="addr:postcode" v="2384"/>
    <tag k="highway" v="residential"/>
    <tag k="maxspeed" v="30"/>
    <tag k="name" v="Franz-Schubert-Gasse"/>
    <tag k="source" v="plan.at 2009"/>
  </way>
  <way id="18352575" version="13" timestamp="2011-07-27T07:41:08Z" uid="491845" user="data_at" changeset="8842342">
    <nd ref="338142495"/>
    <nd ref="338142497"/>
    <nd ref="338138697"/>
    <nd ref="623035787"/>
    <tag k="highway" v="residential"/>
    <tag k="maxspeed" v="30"/>
    <tag k="name" v="Franz-Schubert-Gasse"/>
    <tag k="source" v="plan.at 2009"/>
  </way>
  <way id="18352987" version="3" timestamp="2010-04-06T14:02:07Z" uid="20587" user="balrog-kun" changeset="4342997">
    <nd ref="189190676"/>
    <nd ref="189190678"/>
    <nd ref="189134719"/>
    <nd ref="189190680"/>
    <nd ref="189190682"/>
    <nd ref="189101816"/>
    <nd ref="189159103"/>
    <nd ref="189190684"/>
    <nd ref="189190686"/>
    <nd ref="189151371"/>
    <nd ref="189190688"/>
    <nd ref="189190690"/>
    <nd ref="189190692"/>
    <nd ref="189190694"/>
    <nd ref="189167287"/>
    <nd ref="189167289"/>
    <tag k="highway" v="secondary"/>
    <tag k="name" v="Frederick Avenue"/>
    <tag k="tiger:cfcc" v="A31"/>
    <tag k="tiger:county" v="Buchanan, MO"/>
    <tag k="tiger:name_base" v="Frederick"/>
    <tag k="tiger:name_type" v="Ave"/>
    <tag k="tiger:reviewed" v="no"/>
    <tag k="tiger:separated" v="no"/>
    <tag k="tiger:source" v="tiger_import_dch_v0.6_20070813"/>
    <tag k="tiger:tlid" v="15977815:15977816"/>
  </way>
  <way id="18352987" version="4" timestamp="2010-09-20T01:34:23Z" uid="262151" user="ToeBee" changeset="5825500">
    <nd ref="189190676"/>
    <nd ref="189190678"/>
    <nd ref="189134719"/>
    <nd ref="189190680"/>
    <nd ref="189190682"/>
    <nd ref="189101816"/>
    <nd ref="189159103"/>
    <nd ref="919282083"/>
    <tag k="highway" v="secondary"/>
    <tag k="name" v="Frederick Avenue"/>
    <tag k="tiger:cfcc" v="A31"/>
    <tag k="tiger:county" v="Buchanan, MO"/>
    <tag k="tiger:name_base" v="Frederick"/>
    <tag k="tiger:name_type" v="Ave"/>
    <tag k="tiger:reviewed" v="no"/>
    <tag k="tiger:separated" v="no"/>
    <tag k="tiger:source" v="tiger_import_dch_v0.6_20070813"/>
    <tag k="tiger:tlid" v="15977815:15977816"/>
  </way>
  <way id="18352987" version="5" timestamp="2011-02-18T23:55:38Z" uid="207745" user="NE2" changeset="7327805">
    <nd ref="189190676"/>
    <nd ref="189190678"/>
    <nd ref="189134719"/>
    <nd ref="189190680"/>
    <nd ref="189190682"/>
    <nd ref="189101816"/>
    <nd ref="189159103"/>
    <nd ref="919282083"/>
    <tag k="highway" v="secondary"/>
    <tag k="name" v="Frederick Avenue"/>
    <tag k="ref" v="6"/>
    <tag k="tiger:cfcc" v="A31"/>
    <tag k="tiger:county" v="Buchanan, MO"/>
    <tag k="tiger:name_base" v="Frederick"/>
    <tag k="tiger:name_type" v="Ave"/>
    <tag k="tiger:reviewed" v="no"/>
    <tag k="tiger:separated" v="no"/>
    <tag k="tiger:source" v="tiger_import_dch_v0.6_20070813"/>
    <tag k="tiger:tlid" v="15977815:15977816"/>
  </way>
  <way id="18352987" version="6" timestamp="2011-08-14T04:15:26Z" uid="207745" user="NE2" changeset="9011529">
    <nd ref="189190676"/>
    <nd ref="189190678"/>
    <nd ref="189134719"/>
    <nd ref="189190680"/>
    <nd ref="189190682"/>
    <nd ref="189101816"/>
    <nd ref="189159103"/>
    <nd ref="919282083"/>
    <tag k="highway" v="secondary"/>
    <tag k="name" v="Frederick Avenue"/>
    <tag k="old_ref" v="US 36"/>
    <tag k="ref" v="6"/>
    <tag k="tiger:cfcc" v="A31"/>
    <tag k="tiger:county" v="Buchanan, MO"/>
    <tag k="tiger:name_base" v="Frederick"/>
    <tag k="tiger:name_type" v="Ave"/>
    <tag k="tiger:reviewed" v="no"/>
    <tag k="tiger:separated" v="no"/>
    <tag k="tiger:source" v="tiger_import_dch_v0.6_20070813"/>
    <tag k="tiger:tlid" v="15977815:15977816"/>
  </way>
</osm>
