<?xml version='1.0' encoding='UTF-8'?>
<osm version="0.6" generator="libosmium/2.20.0">
  <way id="18368134" version="1" timestamp="2007-12-25T22:01:17Z" uid="1066" user="pavel" changeset="421816">
    <nd ref="21714168"/>
    <nd ref="189348639"/>
    <nd ref="189348648"/>
    <tag k="created_by" v="JOSM"/>
    <tag k="highway" v="residential"/>
  </way>
  <way id="18368134" version="2" timestamp="2008-09-16T10:32:53Z" uid="1066" user="pavel" changeset="646258">
    <nd ref="21714168"/>
    <nd ref="189348639"/>
    <nd ref="189348648"/>
    <tag k="created_by" v="JOSM"/>
    <tag k="highway" v="residential"/>
    <tag k="name" v="Lipského"/>
    <tag k="name:source" v="nameit/uir-adr"/>
  </way>
  <way id="18368134" version="3" timestamp="2009-03-14T21:23:06Z" uid="3516" user="BiIbo" changeset="807112">
    <nd ref="21714168"/>
    <nd ref="189348639"/>
    <nd ref="189348648"/>
    <tag k="highway" v="residential"/>
    <tag k="name" v="Lipského"/>
    <tag k="source:name" v="nameit/uir-adr"/>
  </way>
  <way id="18368134" version="4" timestamp="2009-05-05T19:56:06Z" uid="59236" user="iVir" changeset="1090629">
    <nd ref="189348648"/>
    <nd ref="189348639"/>
    <nd ref="21714168"/>
    <tag k="highway" v="residential"/>
    <tag k="name" v="Lipského"/>
    <tag k="source:name" v="nameit/uir-adr"/>
  </way>
  <way id="18368134" version="5" timestamp="2011-08-31T13:42:57Z" uid="449434" user="kungpao" changeset="9176445">
    <nd ref="189348648"/>
    <nd ref="1419194593"/>
    <nd ref="189348639"/>
    <nd ref="21714168"/>
    <tag k="highway" v="residential"/>
    <tag k="name" v="Lipského"/>
    <tag k="source:name" v="nameit/uir-adr"/>
  </way>
  <way id="18368134" version="6" timestamp="2011-10-29T14:18:18Z" uid="527259" user="Vratislav Filler" changeset="9684985">
    <nd ref="189348648"/>
    <nd ref="1419194593"/>
    <nd ref="189348639"/>
    <nd ref="1484733380"/>
    <nd ref="21714168"/>
    <tag k="highway" v="residential"/>
    <tag k="name" v="Lipského"/>
    <tag k="source:name" v="nameit/uir-adr"/>
  </way>
  <way id="18368137" version="1" timestamp="2007-12-25T22:01:18Z" uid="1066" user="pavel" changeset="421816">
    <nd ref="21714169"/>
    <nd ref="189348658"/>
    <tag k="created_by" v="JOSM"/>
    <tag k="highway" v="residential"/>
  </way>
  <way id="18368137" version="2" timestamp="2008-09-16T10:40:01Z" uid="1066" user="pavel" changeset="646258">
    <nd ref="21714169"/>
    <nd ref="189348658"/>
    <tag k="created_by" v="JOSM"/>
    <tag k="highway" v="residential"/>
    <tag k="name" v="Pražského"/>
    <tag k="name:source" v="nameit/uir-adr"/>
  </way>
  <way id="18368137" version="3" timestamp="2009-03-14T21:23:05Z" uid="3516" user="BiIbo" changeset="807112">
    <nd ref="21714169"/>
    <nd ref="189348658"/>
    <tag k="highway" v="residential"/>
    <tag k="name" v="Pražského"/>
    <tag k="source:name" v="nameit/uir-adr"/>
  </way>
  <way id="18368137" version="4" timestamp="2010-05-29T19:32:36Z" uid="3516" user="BiIbo" changeset="4844169">
    <nd ref="21714169"/>
    <nd ref="757311370"/>
    <nd ref="189348658"/>
    <tag k="highway" v="residential"/>
    <tag k="name" v="Pražského"/>
    <tag k="source:name" v="nameit/uir-adr"/>
  </way>
  <way id="18368140" version="1" timestamp="2007-12-25T22:01:19Z" uid="1066" user="pavel" changeset="421816">
    <nd ref="25376737"/>
    <nd ref="189348678"/>
    <tag k="created_by" v="JOSM"/>
    <tag k="highway" v="residential"/>
  </way>
  <way id="18368140" version="2" timestamp="2008-02-08T23:37:36Z" uid="3516" user="BiIbo" changeset="77731">
    <nd ref="25376737"/>
    <nd ref="189348678"/>
    <nd ref="246697934"/>
    <nd ref="246697935"/>
    <nd ref="246697936"/>
    <tag k="created_by" v="JOSM"/>
    <tag k="highway" v="residential"/>
  </way>
  <way id="18368140" version="3" timestamp="2008-09-16T10:33:42Z" uid="1066" user="pavel" changeset="646258">
    <nd ref="25376737"/>
    <nd ref="189348678"/>
    <nd ref="246697934"/>
    <nd ref="246697935"/>
    <nd ref="246697936"/>
    <tag k="created_by" v="JOSM"/>
    <tag k="highway" v="residential"/>
    <tag k="name" v="Wassermannova"/>
    <tag k="name:source" v="nameit/uir-adr"/>
  </way>
  <way id="18368140" version="4" timestamp="2009-03-12T00:43:03Z" uid="3516" user="BiIbo" changeset="792152">
    <nd ref="25376737"/>
    <nd ref="189348678"/>
    <nd ref="246697934"/>
    <nd ref="246697935"/>
    <nd ref="246697936"/>
    <tag k="highway" v="residential"/>
    <tag k="name" v="Wassermannova"/>
    <tag k="source:name" v="nameit/uir-adr"/>
  </way>
  <way id="18368140" version="5" timestamp="2010-05-29T23:59:49Z" uid="3516" user="BiIbo" changeset="4847550">
    <nd ref="25376737"/>
    <nd ref="757470298"/>
    <nd ref="757470299"/>
    <nd ref="189348678"/>
    <nd ref="246697934"/>
    <nd ref="246697935"/>
    <nd ref="246697936"/>
    <tag k="highway" v="residential"/>
    <tag k="name" v="Wassermannova"/>
    <tag k="source:name" v="nameit/uir-adr"/>
  </way>
  <way id="18368140" version="6" timestamp="2011-01-28T08:47:51Z" uid="162736" user="honzour" changeset="7110842">
    <nd ref="25376737"/>
    <nd ref="757470298"/>
    <nd ref="757470299"/>
    <nd ref="189348678"/>
    <nd ref="1124633711"/>
    <nd ref="246697934"/>
    <nd ref="246697935"/>
    <nd ref="246697936"/>
    <tag k="highway" v="residential"/>
    <tag k="name" v="Wassermannova"/>
    <tag k="source:name" v="nameit/uir-adr"/>
  </way>
  <way id="18368140" version="7" timestamp="2011-05-04T15:53:53Z" uid="449434" user="haisaul" changeset="8050052">
    <nd ref="25376737"/>
    <nd ref="757470298"/>
    <nd ref="1272140274"/>
    <nd ref="757470299"/>
    <nd ref="189348678"/>
    <nd ref="1124633711"/>
    <nd ref="246697934"/>
    <nd ref="246697935"/>
    <nd ref="246697936"/>
    <tag k="highway" v="residential"/>
    <tag k="name" v="Wassermannova"/>
    <tag k="source:name" v="nameit/uir-adr"/>
  </way>
  <way id="18368140" version="8" timestamp="2011-08-13T18:37:19Z" uid="449434" user="kungpao" changeset="9008143">
    <nd ref="25376737"/>
    <nd ref="757470298"/>
    <nd ref="1272140274"/>
    <nd ref="1397447093"/>
    <nd ref="757470299"/>
    <nd ref="189348678"/>
    <nd ref="1124633711"/>
    <nd ref="246697934"/>
    <nd ref="246697935"/>
    <nd ref="246697936"/>
    <tag k="highway" v="residential"/>
    <tag k="name" v="Wassermannova"/>
    <tag k="source:name" v="nameit/uir-adr"/>
  </way>
</osm>
