<?xml version='1.0' encoding='UTF-8'?>
<osm version="0.6" generator="libosmium/2.20.0">
  <way id="18385189" version="4" timestamp="2010-03-15T23:39:39Z" uid="163746" user="anti_bot-nonsense" changeset="4139871">
    <nd ref="189504970"/>
    <nd ref="447768010"/>
    <nd ref="447768011"/>
    <nd ref="189509928"/>
    <nd ref="365966951"/>
    <tag k="highway" v="service"/>
  </way>
  <way id="18385189" version="5" timestamp="2011-04-15T11:50:12Z" uid="338611" user="marek kleciak" changeset="7868951">
    <nd ref="189504970"/>
    <nd ref="447768010"/>
    <nd ref="447768011"/>
    <nd ref="1245452503"/>
    <nd ref="189509928"/>
    <nd ref="1245452502"/>
    <nd ref="365966951"/>
    <tag k="highway" v="service"/>
  </way>
  <way id="18385408" version="8" timestamp="2010-03-15T23:41:35Z" uid="163746" user="anti_bot-nonsense" changeset="4139871">
    <nd ref="189511906"/>
    <nd ref="189511905"/>
    <nd ref="355607288"/>
    <nd ref="189511904"/>
    <nd ref="189511903"/>
    <nd ref="189511622"/>
    <tag k="highway" v="tertiary"/>
    <tag k="name" v="Inflancka"/>
  </way>
  <way id="18385408" version="9" timestamp="2010-06-25T22:24:20Z" uid="19417" user="xjr" changeset="5077431">
    <nd ref="189511906"/>
    <nd ref="189511905"/>
    <nd ref="355607288"/>
    <nd ref="189511904"/>
    <nd ref="189511903"/>
    <nd ref="189511622"/>
    <tag k="highway" v="tertiary"/>
    <tag k="maxweight" v="16"/>
    <tag k="name" v="Inflancka"/>
  </way>
  <way id="18385505" version="9" timestamp="2010-03-15T23:39:57Z" uid="163746" user="anti_bot-nonsense" changeset="4139871">
    <nd ref="189504975"/>
    <nd ref="189513168"/>
    <nd ref="189513169"/>
    <nd ref="189516020"/>
    <tag k="highway" v="tertiary"/>
    <tag k="name" v="Inflancka"/>
    <tag k="oneway" v="yes"/>
  </way>
  <way id="18385505" version="10" timestamp="2010-06-22T14:47:39Z" uid="19417" user="xjr" changeset="5051743">
    <nd ref="189504975"/>
    <nd ref="189513168"/>
    <nd ref="781878030"/>
    <nd ref="189516020"/>
    <tag k="highway" v="tertiary"/>
    <tag k="name" v="Inflancka"/>
    <tag k="oneway" v="yes"/>
  </way>
  <way id="18385580" version="8" timestamp="2009-04-16T21:12:35Z" uid="30632" user="antblant" changeset="598077">
    <nd ref="189513861"/>
    <nd ref="364066188"/>
    <nd ref="158780895"/>
    <nd ref="355964735"/>
    <nd ref="158780896"/>
    <tag k="bridge" v="yes"/>
    <tag k="created_by" v="Potlatch 0.10f"/>
    <tag k="highway" v="primary"/>
    <tag k="layer" v="1"/>
    <tag k="name" v="Bolesława Krzywoustego"/>
    <tag k="oneway" v="yes"/>
  </way>
  <way id="18385580" version="9" timestamp="2010-03-15T23:39:57Z" uid="163746" user="anti_bot-nonsense" changeset="4139871">
    <nd ref="189513861"/>
    <nd ref="364066188"/>
    <nd ref="158780895"/>
    <nd ref="355964735"/>
    <nd ref="158780896"/>
    <tag k="bridge" v="yes"/>
    <tag k="highway" v="primary"/>
    <tag k="layer" v="1"/>
    <tag k="name" v="Bolesława Krzywoustego"/>
    <tag k="oneway" v="yes"/>
  </way>
  <way id="18385580" version="10" timestamp="2010-03-29T01:40:09Z" uid="88909" user="miko101" changeset="4263416">
    <nd ref="189513861"/>
    <nd ref="364066188"/>
    <nd ref="158780895"/>
    <nd ref="355964735"/>
    <nd ref="158780896"/>
    <tag k="bridge" v="yes"/>
    <tag k="highway" v="trunk"/>
    <tag k="layer" v="1"/>
    <tag k="name" v="Bolesława Krzywoustego"/>
    <tag k="oneway" v="yes"/>
    <tag k="ref" v="11"/>
    <tag k="source" v="WikiProject Poland/Klasyfikacja dróg"/>
  </way>
  <way id="18385580" version="11" timestamp="2010-06-25T22:24:18Z" uid="19417" user="xjr" changeset="5077431">
    <nd ref="189513861"/>
    <nd ref="364066188"/>
    <nd ref="158780895"/>
    <nd ref="355964735"/>
    <nd ref="158780896"/>
    <tag k="bridge" v="yes"/>
    <tag k="highway" v="trunk"/>
    <tag k="layer" v="1"/>
    <tag k="maxspeed" v="70"/>
    <tag k="name" v="Bolesława Krzywoustego"/>
    <tag k="oneway" v="yes"/>
    <tag k="ref" v="11"/>
    <tag k="source" v="WikiProject Poland/Klasyfikacja dróg"/>
  </way>
  <way id="18385580" version="12" timestamp="2011-01-06T20:13:46Z" uid="318486" user="tomaszko90" changeset="6886513">
    <nd ref="189513861"/>
    <nd ref="364066188"/>
    <nd ref="158780895"/>
    <nd ref="355964735"/>
    <nd ref="158780896"/>
    <tag k="bridge" v="yes"/>
    <tag k="highway" v="primary"/>
    <tag k="layer" v="1"/>
    <tag k="maxspeed" v="70"/>
    <tag k="name" v="Bolesława Krzywoustego"/>
    <tag k="oneway" v="yes"/>
    <tag k="ref" v="11"/>
    <tag k="source" v="WikiProject Poland/Klasyfikacja dróg"/>
  </way>
  <way id="18385580" version="13" timestamp="2011-06-17T11:19:38Z" uid="88909" user="miko101" changeset="8463732">
    <nd ref="189513861"/>
    <nd ref="364066188"/>
    <nd ref="158780895"/>
    <nd ref="355964735"/>
    <nd ref="158780896"/>
    <tag k="bridge" v="yes"/>
    <tag k="highway" v="trunk"/>
    <tag k="layer" v="1"/>
    <tag k="maxspeed" v="70"/>
    <tag k="name" v="Bolesława Krzywoustego"/>
    <tag k="oneway" v="yes"/>
    <tag k="ref" v="11"/>
    <tag k="source" v="WikiProject Poland/Klasyfikacja dróg"/>
  </way>
  <way id="18385586" version="4" timestamp="2009-04-16T21:13:03Z" uid="30632" user="antblant" changeset="598077">
    <nd ref="189513798"/>
    <nd ref="158780100"/>
    <nd ref="260417304"/>
    <nd ref="260417305"/>
    <nd ref="142458769"/>
    <nd ref="146644895"/>
    <tag k="created_by" v="Potlatch 0.10f"/>
    <tag k="highway" v="primary"/>
    <tag k="name" v="Bolesława Krzywoustego"/>
    <tag k="oneway" v="yes"/>
  </way>
  <way id="18385586" version="5" timestamp="2010-03-15T23:41:12Z" uid="163746" user="anti_bot-nonsense" changeset="4139871">
    <nd ref="189513798"/>
    <nd ref="158780100"/>
    <nd ref="260417304"/>
    <nd ref="260417305"/>
    <nd ref="142458769"/>
    <nd ref="146644895"/>
    <tag k="highway" v="primary"/>
    <tag k="name" v="Bolesława Krzywoustego"/>
    <tag k="oneway" v="yes"/>
  </way>
  <way id="18385586" version="6" timestamp="2010-03-29T01:39:14Z" uid="88909" user="miko101" changeset="4263416">
    <nd ref="189513798"/>
    <nd ref="158780100"/>
    <nd ref="260417304"/>
    <nd ref="260417305"/>
    <nd ref="142458769"/>
    <nd ref="146644895"/>
    <tag k="highway" v="trunk"/>
    <tag k="name" v="Bolesława Krzywoustego"/>
    <tag k="oneway" v="yes"/>
    <tag k="source" v="WikiProject Poland/Klasyfikacja dróg"/>
  </way>
  <way id="18385586" version="7" timestamp="2010-06-25T22:24:20Z" uid="19417" user="xjr" changeset="5077431">
    <nd ref="189513798"/>
    <nd ref="158780100"/>
    <nd ref="260417304"/>
    <nd ref="260417305"/>
    <nd ref="142458769"/>
    <nd ref="146644895"/>
    <tag k="highway" v="trunk"/>
    <tag k="maxspeed" v="70"/>
    <tag k="name" v="Bolesława Krzywoustego"/>
    <tag k="oneway" v="yes"/>
    <tag k="source" v="WikiProject Poland/Klasyfikacja dróg"/>
  </way>
  <way id="18385586" version="8" timestamp="2011-01-06T20:13:45Z" uid="318486" user="tomaszko90" changeset="6886513">
    <nd ref="189513798"/>
    <nd ref="158780100"/>
    <nd ref="260417304"/>
    <nd ref="260417305"/>
    <nd ref="142458769"/>
    <nd ref="146644895"/>
    <tag k="highway" v="primary"/>
    <tag k="maxspeed" v="70"/>
    <tag k="name" v="Bolesława Krzywoustego"/>
    <tag k="oneway" v="yes"/>
    <tag k="source" v="WikiProject Poland/Klasyfikacja dróg"/>
  </way>
  <way id="18385586" version="9" timestamp="2011-06-17T11:19:38Z" uid="88909" user="miko101" changeset="8463732">
    <nd ref="189513798"/>
    <nd ref="158780100"/>
    <nd ref="260417304"/>
    <nd ref="260417305"/>
    <nd ref="142458769"/>
    <nd ref="146644895"/>
    <tag k="highway" v="trunk"/>
    <tag k="maxspeed" v="70"/>
    <tag k="name" v="Bolesława Krzywoustego"/>
    <tag k="note" v="Droga ma same węzły bezkolizyjne!"/>
    <tag k="oneway" v="yes"/>
    <tag k="source" v="WikiProject Poland/Klasyfikacja dróg"/>
  </way>
  <way id="18385586" version="10" timestamp="2012-01-26T20:59:10Z" uid="88909" user="miko101" changeset="10507194">
    <nd ref="189513798"/>
    <nd ref="158780100"/>
    <nd ref="260417304"/>
    <nd ref="260417305"/>
    <nd ref="142458769"/>
    <nd ref="146644895"/>
    <tag k="highway" v="trunk"/>
    <tag k="maxspeed" v="70"/>
    <tag k="name" v="Bolesława Krzywoustego"/>
    <tag k="note" v="Droga ma same węzły bezkolizyjne!"/>
    <tag k="oneway" v="yes"/>
    <tag k="ref" v="11"/>
    <tag k="source" v="WikiProject Poland/Klasyfikacja dróg"/>
  </way>
  <way id="18385604" version="7" timestamp="2009-04-16T21:12:25Z" uid="30632" user="antblant" changeset="598077">
    <nd ref="158780098"/>
    <nd ref="355964683"/>
    <nd ref="158780099"/>
    <nd ref="364066190"/>
    <nd ref="189513798"/>
    <tag k="bridge" v="yes"/>
    <tag k="created_by" v="Potlatch 0.10f"/>
    <tag k="highway" v="primary"/>
    <tag k="layer" v="1"/>
    <tag k="name" v="Bolesława Krzywoustego"/>
    <tag k="oneway" v="yes"/>
    <tag k="ref" v="11"/>
  </way>
  <way id="18385604" version="8" timestamp="2010-03-15T23:39:57Z" uid="163746" user="anti_bot-nonsense" changeset="4139871">
    <nd ref="158780098"/>
    <nd ref="355964683"/>
    <nd ref="158780099"/>
    <nd ref="364066190"/>
    <nd ref="189513798"/>
    <tag k="bridge" v="yes"/>
    <tag k="highway" v="primary"/>
    <tag k="layer" v="1"/>
    <tag k="name" v="Bolesława Krzywoustego"/>
    <tag k="oneway" v="yes"/>
    <tag k="ref" v="11"/>
  </way>
  <way id="18385604" version="9" timestamp="2010-03-29T01:39:52Z" uid="88909" user="miko101" changeset="4263416">
    <nd ref="158780098"/>
    <nd ref="355964683"/>
    <nd ref="158780099"/>
    <nd ref="364066190"/>
    <nd ref="189513798"/>
    <tag k="bridge" v="yes"/>
    <tag k="highway" v="trunk"/>
    <tag k="layer" v="1"/>
    <tag k="name" v="Bolesława Krzywoustego"/>
    <tag k="oneway" v="yes"/>
    <tag k="ref" v="11"/>
    <tag k="source" v="WikiProject Poland/Klasyfikacja dróg"/>
  </way>
  <way id="18385604" version="10" timestamp="2010-06-25T22:24:21Z" uid="19417" user="xjr" changeset="5077431">
    <nd ref="158780098"/>
    <nd ref="355964683"/>
    <nd ref="158780099"/>
    <nd ref="364066190"/>
    <nd ref="189513798"/>
    <tag k="bridge" v="yes"/>
    <tag k="highway" v="trunk"/>
    <tag k="layer" v="1"/>
    <tag k="maxspeed" v="70"/>
    <tag k="name" v="Bolesława Krzywoustego"/>
    <tag k="oneway" v="yes"/>
    <tag k="ref" v="11"/>
    <tag k="source" v="WikiProject Poland/Klasyfikacja dróg"/>
  </way>
  <way id="18385604" version="11" timestamp="2011-01-06T20:13:44Z" uid="318486" user="tomaszko90" changeset="6886513">
    <nd ref="158780098"/>
    <nd ref="355964683"/>
    <nd ref="158780099"/>
    <nd ref="364066190"/>
    <nd ref="189513798"/>
    <tag k="bridge" v="yes"/>
    <tag k="highway" v="primary"/>
    <tag k="layer" v="1"/>
    <tag k="maxspeed" v="70"/>
    <tag k="name" v="Bolesława Krzywoustego"/>
    <tag k="oneway" v="yes"/>
    <tag k="ref" v="11"/>
    <tag k="source" v="WikiProject Poland/Klasyfikacja dróg"/>
  </way>
  <way id="18385604" version="12" timestamp="2011-06-17T11:19:37Z" uid="88909" user="miko101" changeset="8463732">
    <nd ref="158780098"/>
    <nd ref="355964683"/>
    <nd ref="158780099"/>
    <nd ref="364066190"/>
    <nd ref="189513798"/>
    <tag k="bridge" v="yes"/>
    <tag k="highway" v="trunk"/>
    <tag k="layer" v="1"/>
    <tag k="maxspeed" v="70"/>
    <tag k="name" v="Bolesława Krzywoustego"/>
    <tag k="oneway" v="yes"/>
    <tag k="ref" v="11"/>
    <tag k="source" v="WikiProject Poland/Klasyfikacja dróg"/>
  </way>
  <way id="18385606" version="6" timestamp="2009-04-16T21:11:08Z" uid="30632" user="antblant" changeset="598077">
    <nd ref="158780896"/>
    <nd ref="158780897"/>
    <nd ref="355964475"/>
    <nd ref="158780898"/>
    <nd ref="355964476"/>
    <nd ref="355964477"/>
    <nd ref="150603940"/>
    <tag k="created_by" v="Potlatch 0.10f"/>
    <tag k="highway" v="primary"/>
    <tag k="name" v="Bolesława Krzywoustego"/>
    <tag k="oneway" v="yes"/>
  </way>
  <way id="18385606" version="7" timestamp="2010-03-15T23:40:13Z" uid="163746" user="anti_bot-nonsense" changeset="4139871">
    <nd ref="158780896"/>
    <nd ref="158780897"/>
    <nd ref="355964475"/>
    <nd ref="158780898"/>
    <nd ref="355964476"/>
    <nd ref="355964477"/>
    <nd ref="150603940"/>
    <tag k="highway" v="primary"/>
    <tag k="name" v="Bolesława Krzywoustego"/>
    <tag k="oneway" v="yes"/>
  </way>
  <way id="18385606" version="8" timestamp="2010-06-25T22:24:17Z" uid="19417" user="xjr" changeset="5077431">
    <nd ref="158780896"/>
    <nd ref="158780897"/>
    <nd ref="355964475"/>
    <nd ref="158780898"/>
    <nd ref="790518516"/>
    <nd ref="355964476"/>
    <nd ref="355964477"/>
    <nd ref="150603940"/>
    <tag k="highway" v="primary"/>
    <tag k="maxspeed" v="70"/>
    <tag k="name" v="Bolesława Krzywoustego"/>
    <tag k="oneway" v="yes"/>
  </way>
  <way id="18385606" version="9" timestamp="2010-07-31T19:02:34Z" uid="113415" user="tomek-k" changeset="5365015">
    <nd ref="158780896"/>
    <nd ref="158780897"/>
    <nd ref="355964475"/>
    <nd ref="158780898"/>
    <nd ref="790518516"/>
    <nd ref="355964476"/>
    <nd ref="355964477"/>
    <nd ref="150603940"/>
    <tag k="highway" v="primary"/>
    <tag k="maxspeed" v="70"/>
    <tag k="name" v="Bolesława Krzywoustego"/>
    <tag k="oneway" v="yes"/>
    <tag k="ref" v="11"/>
  </way>
  <way id="18385606" version="10" timestamp="2011-04-20T10:43:05Z" uid="338611" user="marek kleciak" changeset="7914945">
    <nd ref="158780896"/>
    <nd ref="158780897"/>
    <nd ref="355964475"/>
    <nd ref="158780898"/>
    <nd ref="790518516"/>
    <nd ref="355964476"/>
    <nd ref="355964477"/>
    <nd ref="1252287231"/>
    <nd ref="150603940"/>
    <tag k="highway" v="primary"/>
    <tag k="maxspeed" v="70"/>
    <tag k="name" v="Bolesława Krzywoustego"/>
    <tag k="oneway" v="yes"/>
    <tag k="ref" v="11"/>
  </way>
  <way id="18385606" version="11" timestamp="2011-06-24T13:51:00Z" uid="338064" user="bombka190" changeset="8533046">
    <nd ref="158780896"/>
    <nd ref="1336894119"/>
    <tag k="highway" v="trunk"/>
    <tag k="maxspeed" v="70"/>
    <tag k="name" v="Bolesława Krzywoustego"/>
    <tag k="oneway" v="yes"/>
    <tag k="ref" v="S11"/>
  </way>
  <way id="18385606" version="12" timestamp="2012-01-26T20:59:10Z" uid="88909" user="miko101" changeset="10507194">
    <nd ref="158780896"/>
    <nd ref="1606914524"/>
    <nd ref="1336894119"/>
    <tag k="highway" v="trunk"/>
    <tag k="maxspeed" v="70"/>
    <tag k="name" v="Bolesława Krzywoustego"/>
    <tag k="oneway" v="yes"/>
    <tag k="ref" v="11"/>
  </way>
  <way id="18385580" version="14" timestamp="2012-05-01T22:17:53Z" uid="88909" user="miko101" changeset="11474969">
    <nd ref="189513861"/>
    <nd ref="364066188"/>
    <nd ref="158780895"/>
    <nd ref="355964735"/>
    <nd ref="158780896"/>
    <tag k="alt_name" v="Estakada Katowicka"/>
    <tag k="bridge" v="yes"/>
    <tag k="highway" v="trunk"/>
    <tag k="layer" v="1"/>
    <tag k="lit" v="yes"/>
    <tag k="maxspeed" v="70"/>
    <tag k="name" v="Bolesława Krzywoustego"/>
    <tag k="oneway" v="yes"/>
    <tag k="ref" v="11"/>
    <tag k="source" v="WikiProject Poland/Klasyfikacja dróg"/>
  </way>
  <way id="18385580" version="15" timestamp="2012-08-24T16:05:36Z" uid="88909" user="miko101" changeset="12846594">
    <nd ref="189513861"/>
    <nd ref="364066188"/>
    <nd ref="158780895"/>
    <nd ref="355964735"/>
    <nd ref="158780896"/>
    <tag k="alt_name" v="Estakada Katowicka; Estakada nad doliną Obrzycy"/>
    <tag k="bridge" v="yes"/>
    <tag k="highway" v="trunk"/>
    <tag k="layer" v="1"/>
    <tag k="lit" v="yes"/>
    <tag k="maxspeed" v="70"/>
    <tag k="name" v="Bolesława Krzywoustego"/>
    <tag k="oneway" v="yes"/>
    <tag k="ref" v="11"/>
    <tag k="source" v="WikiProject Poland/Klasyfikacja dróg"/>
  </way>
  <way id="18385586" version="11" timestamp="2012-05-01T22:17:47Z" uid="88909" user="miko101" changeset="11474969">
    <nd ref="189513798"/>
    <nd ref="158780100"/>
    <nd ref="260417304"/>
    <nd ref="260417305"/>
    <nd ref="142458769"/>
    <nd ref="146644895"/>
    <tag k="highway" v="trunk"/>
    <tag k="lit" v="yes"/>
    <tag k="maxspeed" v="70"/>
    <tag k="name" v="Bolesława Krzywoustego"/>
    <tag k="note" v="Droga ma same węzły bezkolizyjne!"/>
    <tag k="oneway" v="yes"/>
    <tag k="ref" v="11"/>
    <tag k="source" v="WikiProject Poland/Klasyfikacja dróg"/>
  </way>
  <way id="18385586" version="12" timestamp="2012-08-24T16:06:51Z" uid="88909" user="miko101" changeset="12846594">
    <nd ref="189513798"/>
    <nd ref="158780100"/>
    <nd ref="260417304"/>
    <nd ref="260417305"/>
    <nd ref="142458769"/>
    <nd ref="146644895"/>
    <tag k="highway" v="trunk"/>
    <tag k="lanes" v="3"/>
    <tag k="lit" v="yes"/>
    <tag k="maxspeed" v="70"/>
    <tag k="name" v="Bolesława Krzywoustego"/>
    <tag k="note" v="Droga ma same węzły bezkolizyjne!"/>
    <tag k="oneway" v="yes"/>
    <tag k="ref" v="11"/>
    <tag k="source" v="WikiProject Poland/Klasyfikacja dróg"/>
  </way>
  <way id="18385604" version="13" timestamp="2012-05-01T22:17:53Z" uid="88909" user="miko101" changeset="11474969">
    <nd ref="158780098"/>
    <nd ref="355964683"/>
    <nd ref="158780099"/>
    <nd ref="364066190"/>
    <nd ref="189513798"/>
    <tag k="alt_name" v="Estakada Katowicka"/>
    <tag k="bridge" v="yes"/>
    <tag k="highway" v="trunk"/>
    <tag k="layer" v="1"/>
    <tag k="lit" v="yes"/>
    <tag k="maxspeed" v="70"/>
    <tag k="name" v="Bolesława Krzywoustego"/>
    <tag k="oneway" v="yes"/>
    <tag k="ref" v="11"/>
    <tag k="source" v="WikiProject Poland/Klasyfikacja dróg"/>
  </way>
  <way id="18385604" version="14" timestamp="2012-08-24T16:05:37Z" uid="88909" user="miko101" changeset="12846594">
    <nd ref="158780098"/>
    <nd ref="355964683"/>
    <nd ref="158780099"/>
    <nd ref="364066190"/>
    <nd ref="189513798"/>
    <tag k="alt_name" v="Estakada Katowicka; Estakada nad doliną Obrzycy"/>
    <tag k="bridge" v="yes"/>
    <tag k="highway" v="trunk"/>
    <tag k="layer" v="1"/>
    <tag k="lit" v="yes"/>
    <tag k="maxspeed" v="70"/>
    <tag k="name" v="Bolesława Krzywoustego"/>
    <tag k="oneway" v="yes"/>
    <tag k="ref" v="11"/>
    <tag k="source" v="WikiProject Poland/Klasyfikacja dróg"/>
  </way>
  <way id="18385606" version="13" timestamp="2012-05-01T22:17:54Z" uid="88909" user="miko101" changeset="11474969">
    <nd ref="158780896"/>
    <nd ref="1606914524"/>
    <nd ref="1336894119"/>
    <tag k="highway" v="trunk"/>
    <tag k="lit" v="yes"/>
    <tag k="maxspeed" v="70"/>
    <tag k="name" v="Bolesława Krzywoustego"/>
    <tag k="oneway" v="yes"/>
    <tag k="ref" v="11"/>
  </way>
  <way id="18385606" version="14" timestamp="2012-08-24T16:06:51Z" uid="88909" user="miko101" changeset="12846594">
    <nd ref="158780896"/>
    <nd ref="1606914524"/>
    <nd ref="1336894119"/>
    <tag k="highway" v="trunk"/>
    <tag k="lanes" v="3"/>
    <tag k="lit" v="yes"/>
    <tag k="maxspeed" v="70"/>
    <tag k="name" v="Bolesława Krzywoustego"/>
    <tag k="oneway" v="yes"/>
    <tag k="ref" v="11"/>
  </way>
</osm>
