<?xml version='1.0' encoding='UTF-8'?>
<osm version="0.6" generator="libosmium/2.20.0">
  <way id="18403902" version="1" timestamp="2007-12-26T04:30:23Z" uid="18775" user="drlizau" changeset="432981">
    <nd ref="189703593"/>
    <nd ref="189626476"/>
    <nd ref="189626462"/>
    <nd ref="189626492"/>
    <nd ref="189626498"/>
    <nd ref="189626499"/>
    <nd ref="189626515"/>
    <tag k="created_by" v="JOSM"/>
    <tag k="highway" v="residential"/>
    <tag k="name" v="Alexander Street"/>
  </way>
  <way id="18403902" version="2" timestamp="2008-03-28T11:31:14Z" uid="19626" user="Swamp" changeset="413443">
    <nd ref="189703593"/>
    <nd ref="189626462"/>
    <nd ref="189626492"/>
    <nd ref="189626498"/>
    <nd ref="189626499"/>
    <nd ref="189626515"/>
    <tag k="created_by" v="JOSM"/>
    <tag k="highway" v="residential"/>
    <tag k="name" v="Alexander Street"/>
  </way>
  <way id="18403902" version="3" timestamp="2008-04-25T11:36:22Z" uid="19626" user="Swamp" changeset="254805">
    <nd ref="189703593"/>
    <nd ref="189626462"/>
    <nd ref="189626492"/>
    <nd ref="189626498"/>
    <nd ref="189626499"/>
    <nd ref="189626515"/>
    <tag k="created_by" v="JOSM"/>
    <tag k="highway" v="residential"/>
    <tag k="maxspeed" v="50"/>
    <tag k="name" v="Alexander Street"/>
  </way>
  <way id="18403902" version="4" timestamp="2008-11-16T11:00:23Z" uid="18775" user="drlizau" changeset="756879">
    <nd ref="189703593"/>
    <nd ref="189626462"/>
    <nd ref="189626492"/>
    <nd ref="189626498"/>
    <nd ref="189626499"/>
    <nd ref="189626515"/>
    <tag k="created_by" v="JOSM"/>
    <tag k="highway" v="residential"/>
    <tag k="maxspeed" v="50"/>
    <tag k="name" v="Alexander Street"/>
  </way>
  <way id="18403902" version="5" timestamp="2008-11-16T11:29:17Z" uid="18775" user="drlizau" changeset="756879">
    <nd ref="189703593"/>
    <nd ref="189626462"/>
    <nd ref="189626492"/>
    <nd ref="189626498"/>
    <nd ref="189626499"/>
    <nd ref="189626515"/>
    <tag k="created_by" v="JOSM"/>
    <tag k="highway" v="residential"/>
    <tag k="maxspeed" v="50"/>
    <tag k="name" v="Alexander Street"/>
    <tag k="source" v="survey"/>
  </way>
  <way id="18403905" version="1" timestamp="2007-12-26T04:30:24Z" uid="18775" user="drlizau" changeset="432981">
    <nd ref="189703593"/>
    <nd ref="189734413"/>
    <tag k="created_by" v="JOSM"/>
    <tag k="highway" v="residential"/>
    <tag k="name" v="Nicholls Street"/>
  </way>
  <way id="18403905" version="2" timestamp="2008-11-16T11:03:53Z" uid="18775" user="drlizau" changeset="756879">
    <nd ref="189703593"/>
    <nd ref="189734413"/>
    <tag k="created_by" v="JOSM"/>
    <tag k="highway" v="residential"/>
    <tag k="name" v="Nicholls Street"/>
  </way>
  <way id="18403905" version="3" timestamp="2008-11-16T11:32:26Z" uid="18775" user="drlizau" changeset="756879">
    <nd ref="189703593"/>
    <nd ref="189734413"/>
    <tag k="created_by" v="JOSM"/>
    <tag k="highway" v="residential"/>
    <tag k="name" v="Nicholls Street"/>
    <tag k="source" v="survey"/>
  </way>
  <way id="18403905" version="4" timestamp="2010-07-07T08:12:18Z" uid="74617" user="JohnSmith" changeset="5156250">
    <nd ref="189703593"/>
    <nd ref="189734413"/>
    <tag k="highway" v="residential"/>
    <tag k="maxspeed" v="50"/>
    <tag k="maxspeed:source" v="default residential speed limit in Australia"/>
    <tag k="name" v="Nicholls Street"/>
    <tag k="source" v="survey"/>
  </way>
  <way id="18403905" version="5" timestamp="2012-01-15T18:57:44Z" uid="147510" user="woodpeck_fixbot" changeset="10400850">
    <nd ref="189703593"/>
    <nd ref="189734413"/>
    <tag k="highway" v="residential"/>
    <tag k="name" v="Nicholls Street"/>
    <tag k="source" v="survey"/>
  </way>
  <way id="18403902" version="6" timestamp="2012-07-19T07:52:34Z" uid="722137" user="OSMF Redaction Account" changeset="12312712"/>
  <way id="18403905" version="6" timestamp="2012-07-19T07:52:34Z" uid="722137" user="OSMF Redaction Account" changeset="12312712"/>
</osm>
