<?xml version='1.0' encoding='UTF-8'?>
<osm version="0.6" generator="libosmium/2.20.0">
  <way id="18471422" version="3" timestamp="2008-12-14T19:51:54Z" uid="43863" user="Rundling" changeset="380886">
    <nd ref="168634531"/>
    <nd ref="168634540"/>
    <tag k="bridge" v="yes"/>
    <tag k="created_by" v="JOSM"/>
    <tag k="highway" v="secondary"/>
    <tag k="layer" v="1"/>
    <tag k="ref" v="L 203"/>
  </way>
  <way id="18471422" version="4" timestamp="2009-04-12T16:50:50Z" uid="65442" user="Trip Tucker" changeset="454848">
    <nd ref="168634531"/>
    <nd ref="168634540"/>
    <tag k="access" v="no"/>
    <tag k="bridge" v="yes"/>
    <tag k="created_by" v="Potlatch 0.10f"/>
    <tag k="description" v="closed"/>
    <tag k="highway" v="secondary"/>
    <tag k="layer" v="1"/>
    <tag k="ref" v="L 203"/>
  </way>
  <way id="18471422" version="5" timestamp="2009-10-28T22:12:22Z" uid="60345" user="Mirko KÃ¼ster" changeset="2977457">
    <nd ref="168634531"/>
    <nd ref="168634540"/>
    <tag k="access" v="no"/>
    <tag k="bridge" v="yes"/>
    <tag k="description" v="closed"/>
    <tag k="highway" v="secondary"/>
    <tag k="layer" v="1"/>
    <tag k="ref" v="L 203"/>
  </way>
  <way id="18471422" version="6" timestamp="2011-10-08T16:38:30Z" uid="321840" user="Natura" changeset="9504127">
    <nd ref="168634512"/>
    <nd ref="168634517"/>
    <nd ref="168634521"/>
    <nd ref="168634526"/>
    <nd ref="373359781"/>
    <nd ref="168634531"/>
    <nd ref="1459037054"/>
    <tag k="access" v="no"/>
    <tag k="description" v="closed"/>
    <tag k="highway" v="secondary"/>
    <tag k="layer" v="1"/>
    <tag k="ref" v="L 203"/>
  </way>
  <way id="18471422" version="7" timestamp="2012-02-04T17:16:59Z" uid="591546" user="downloader94" changeset="10586504">
    <nd ref="168634512"/>
    <nd ref="168634517"/>
    <nd ref="1617945588"/>
    <nd ref="168634521"/>
    <nd ref="1617945601"/>
    <nd ref="168634526"/>
    <nd ref="373359781"/>
    <nd ref="168634531"/>
    <nd ref="1459037054"/>
    <tag k="access" v="no"/>
    <tag k="description" v="closed"/>
    <tag k="highway" v="secondary"/>
    <tag k="layer" v="1"/>
    <tag k="ref" v="L 203"/>
  </way>
  <way id="18471893" version="8" timestamp="2010-07-08T20:17:07Z" uid="74617" user="JohnSmith" changeset="5168688">
    <nd ref="32313081"/>
    <nd ref="597974661"/>
    <nd ref="32313074"/>
    <nd ref="32313073"/>
    <nd ref="32313072"/>
    <nd ref="32313071"/>
    <nd ref="32313081"/>
    <tag k="highway" v="residential"/>
    <tag k="junction" v="roundabout"/>
    <tag k="maxspeed" v="50"/>
    <tag k="maxspeed:source" v="default residential speed limit in Australia"/>
    <tag k="name" v="Jessup Close"/>
  </way>
  <way id="18471893" version="9" timestamp="2012-01-15T19:13:17Z" uid="147510" user="woodpeck_fixbot" changeset="10400850">
    <nd ref="32313081"/>
    <nd ref="597974661"/>
    <nd ref="32313074"/>
    <nd ref="32313073"/>
    <nd ref="32313072"/>
    <nd ref="32313071"/>
    <nd ref="32313081"/>
    <tag k="highway" v="residential"/>
    <tag k="junction" v="roundabout"/>
    <tag k="name" v="Jessup Close"/>
  </way>
  <way id="18471894" version="8" timestamp="2010-07-08T20:19:07Z" uid="74617" user="JohnSmith" changeset="5168688">
    <nd ref="32313030"/>
    <nd ref="32313018"/>
    <nd ref="246947142"/>
    <tag k="highway" v="residential"/>
    <tag k="maxspeed" v="50"/>
    <tag k="maxspeed:source" v="default residential speed limit in Australia"/>
    <tag k="name" v="Lalor Close"/>
  </way>
  <way id="18471894" version="9" timestamp="2012-01-15T19:13:18Z" uid="147510" user="woodpeck_fixbot" changeset="10400850">
    <nd ref="32313030"/>
    <nd ref="32313018"/>
    <nd ref="246947142"/>
    <tag k="highway" v="residential"/>
    <tag k="name" v="Lalor Close"/>
  </way>
  <way id="18471422" version="8" timestamp="2012-05-14T20:15:26Z" uid="110639" user="aighes" changeset="11599604"/>
</osm>
