<?xml version='1.0' encoding='UTF-8'?>
<osm version="0.6" generator="libosmium/2.20.0">
  <way id="18479510" version="7" timestamp="2009-12-10T00:07:06Z" uid="200463" user="harmagedon" changeset="3338481">
    <nd ref="190618551"/>
    <nd ref="190619543"/>
    <nd ref="190619544"/>
    <nd ref="380368563"/>
    <nd ref="190619546"/>
    <nd ref="190619547"/>
    <nd ref="190619548"/>
    <nd ref="190619549"/>
    <nd ref="190619550"/>
    <nd ref="380368562"/>
    <nd ref="451688578"/>
    <tag k="highway" v="secondary"/>
    <tag k="ref" v="354"/>
  </way>
  <way id="18479510" version="8" timestamp="2011-12-20T20:53:15Z" uid="524053" user="k11" changeset="10166930">
    <nd ref="190618551"/>
    <nd ref="190619543"/>
    <nd ref="190619544"/>
    <nd ref="380368563"/>
    <nd ref="190619546"/>
    <nd ref="190619547"/>
    <nd ref="190619548"/>
    <nd ref="190619549"/>
    <nd ref="190619550"/>
    <nd ref="380368562"/>
    <nd ref="451688578"/>
    <tag k="highway" v="secondary"/>
    <tag k="name" v="Niemiecka"/>
    <tag k="ref" v="354"/>
  </way>
  <way id="18479808" version="8" timestamp="2009-12-10T00:06:50Z" uid="200463" user="harmagedon" changeset="3338481">
    <nd ref="190626081"/>
    <nd ref="190626082"/>
    <nd ref="264791312"/>
    <nd ref="264788220"/>
    <nd ref="264788234"/>
    <nd ref="190626083"/>
    <nd ref="116854220"/>
    <nd ref="116854222"/>
    <tag k="highway" v="secondary"/>
    <tag k="name" v="Leipziger Straße"/>
    <tag k="ref" v="S 146"/>
  </way>
  <way id="18479808" version="9" timestamp="2011-07-10T14:18:28Z" uid="139937" user="AlterSachse" changeset="8684026">
    <nd ref="190626081"/>
    <nd ref="190626082"/>
    <nd ref="264791312"/>
    <nd ref="264788220"/>
    <nd ref="264788234"/>
    <nd ref="190626083"/>
    <nd ref="1356574367"/>
    <nd ref="1356574364"/>
    <nd ref="116854220"/>
    <nd ref="116854222"/>
    <tag k="highway" v="secondary"/>
    <tag k="name" v="Leipziger Straße"/>
    <tag k="ref" v="S 146"/>
  </way>
  <way id="18479839" version="4" timestamp="2009-05-03T18:18:53Z" uid="9581" user="Lobelt" changeset="1065721">
    <nd ref="190625277"/>
    <nd ref="35305481"/>
    <nd ref="35305482"/>
    <nd ref="35305483"/>
    <nd ref="35305484"/>
    <nd ref="35305485"/>
    <nd ref="35305486"/>
    <nd ref="35305487"/>
    <nd ref="35305488"/>
    <nd ref="339307250"/>
    <nd ref="35305489"/>
    <nd ref="35305490"/>
    <nd ref="35305491"/>
    <nd ref="389928919"/>
    <tag k="created_by" v="Potlatch 0.10f"/>
    <tag k="highway" v="primary"/>
    <tag k="name" v="Saalfelder Straße"/>
    <tag k="ref" v="B 88"/>
  </way>
  <way id="18479839" version="5" timestamp="2010-03-21T10:20:52Z" uid="118134" user="scai" changeset="4188924">
    <nd ref="190625277"/>
    <nd ref="35305481"/>
    <nd ref="35305482"/>
    <nd ref="35305483"/>
    <nd ref="35305484"/>
    <nd ref="35305485"/>
    <nd ref="35305486"/>
    <nd ref="35305487"/>
    <nd ref="35305488"/>
    <nd ref="339307250"/>
    <nd ref="35305489"/>
    <nd ref="35305490"/>
    <nd ref="35305491"/>
    <nd ref="389928919"/>
    <tag k="highway" v="primary"/>
    <tag k="maxspeed" v="50"/>
    <tag k="name" v="Saalfelder Straße"/>
    <tag k="ref" v="B 88"/>
  </way>
  <way id="18479839" version="6" timestamp="2010-04-05T22:41:43Z" uid="5735" user="ColinMarquardt" changeset="4339662">
    <nd ref="190625277"/>
    <nd ref="35305481"/>
    <nd ref="35305482"/>
    <nd ref="35305483"/>
    <nd ref="35305484"/>
    <nd ref="35305485"/>
    <nd ref="35305486"/>
    <nd ref="35305487"/>
    <nd ref="35305488"/>
    <nd ref="339307250"/>
    <nd ref="35305489"/>
    <nd ref="685965734"/>
    <tag k="highway" v="primary"/>
    <tag k="lit" v="yes"/>
    <tag k="maxspeed" v="50"/>
    <tag k="name" v="Saalfelder Straße"/>
    <tag k="ref" v="B 88"/>
  </way>
  <way id="18479839" version="7" timestamp="2010-04-19T17:49:19Z" uid="118134" user="scai" changeset="4470194">
    <nd ref="190625277"/>
    <nd ref="35305481"/>
    <nd ref="35305482"/>
    <nd ref="35305483"/>
    <nd ref="35305484"/>
    <nd ref="35305485"/>
    <nd ref="35305486"/>
    <nd ref="35305487"/>
    <nd ref="35305488"/>
    <nd ref="339307250"/>
    <tag k="highway" v="primary"/>
    <tag k="lit" v="yes"/>
    <tag k="maxspeed" v="50"/>
    <tag k="name" v="Saalfelder Straße"/>
    <tag k="ref" v="B 88"/>
  </way>
  <way id="18479839" version="8" timestamp="2010-04-24T18:07:03Z" uid="118134" user="scai" changeset="4514162">
    <nd ref="190625277"/>
    <nd ref="35305481"/>
    <nd ref="35305482"/>
    <nd ref="35305483"/>
    <nd ref="35305484"/>
    <nd ref="35305485"/>
    <nd ref="35305486"/>
    <nd ref="35305487"/>
    <nd ref="35305488"/>
    <nd ref="705398712"/>
    <nd ref="339307250"/>
    <tag k="highway" v="primary"/>
    <tag k="lit" v="yes"/>
    <tag k="maxspeed" v="50"/>
    <tag k="name" v="Saalfelder Straße"/>
    <tag k="ref" v="B 88"/>
  </way>
  <way id="18479839" version="9" timestamp="2010-10-14T15:57:53Z" uid="192395" user="BBO" changeset="6040446">
    <nd ref="190625277"/>
    <nd ref="35305481"/>
    <nd ref="35305482"/>
    <nd ref="35305483"/>
    <nd ref="35305484"/>
    <nd ref="35305485"/>
    <nd ref="35305486"/>
    <nd ref="35305487"/>
    <nd ref="35305488"/>
    <nd ref="705398712"/>
    <nd ref="339307250"/>
    <tag k="highway" v="primary"/>
    <tag k="lit" v="yes"/>
    <tag k="maxspeed" v="50"/>
    <tag k="name" v="Saalfelder Straße"/>
    <tag k="ref" v="B 88"/>
    <tag k="source:maxspeed" v="DE:urban"/>
  </way>
  <way id="18479839" version="10" timestamp="2011-02-07T19:33:28Z" uid="118134" user="scai" changeset="7219805">
    <nd ref="190625277"/>
    <nd ref="1141153646"/>
    <nd ref="35305481"/>
    <nd ref="1141154102"/>
    <nd ref="35305482"/>
    <nd ref="35305483"/>
    <nd ref="35305484"/>
    <nd ref="35305485"/>
    <nd ref="35305486"/>
    <nd ref="35305487"/>
    <nd ref="35305488"/>
    <nd ref="705398712"/>
    <nd ref="339307250"/>
    <tag k="highway" v="primary"/>
    <tag k="lit" v="yes"/>
    <tag k="maxspeed" v="50"/>
    <tag k="name" v="Saalfelder Straße"/>
    <tag k="ref" v="B 88"/>
    <tag k="source:maxspeed" v="DE:urban"/>
  </way>
  <way id="18479839" version="11" timestamp="2011-08-31T11:50:52Z" uid="192395" user="BBO" changeset="9175637"/>
</osm>
