<?xml version='1.0' encoding='UTF-8'?>
<osm version="0.6" generator="libosmium/2.20.0">
  <way id="18550507" version="6" timestamp="2010-07-06T10:10:31Z" uid="74617" user="JohnSmith" changeset="5147679">
    <nd ref="119128181"/>
    <nd ref="119202160"/>
    <nd ref="191254176"/>
    <nd ref="191254141"/>
    <nd ref="191253628"/>
    <nd ref="191253661"/>
    <nd ref="778100098"/>
    <nd ref="191253758"/>
    <nd ref="191181947"/>
    <tag k="highway" v="residential"/>
    <tag k="maxspeed" v="50"/>
    <tag k="maxspeed:source" v="default residential speed limit in Australia"/>
    <tag k="name" v="Norfolk Street"/>
    <tag k="source" v="GPS"/>
    <tag k="surface" v="asphalt"/>
  </way>
  <way id="18550507" version="7" timestamp="2012-01-15T19:16:24Z" uid="147510" user="woodpeck_fixbot" changeset="10400850">
    <nd ref="119128181"/>
    <nd ref="119202160"/>
    <nd ref="191254176"/>
    <nd ref="191254141"/>
    <nd ref="191253628"/>
    <nd ref="191253661"/>
    <nd ref="778100098"/>
    <nd ref="191253758"/>
    <nd ref="191181947"/>
    <tag k="highway" v="residential"/>
    <tag k="name" v="Norfolk Street"/>
    <tag k="source" v="GPS"/>
    <tag k="surface" v="asphalt"/>
  </way>
  <way id="18550514" version="3" timestamp="2010-06-17T04:16:34Z" uid="4467" user="Rosscoe" changeset="5005916">
    <nd ref="191274121"/>
    <nd ref="191274123"/>
    <nd ref="191274125"/>
    <nd ref="191274126"/>
    <nd ref="191274127"/>
    <nd ref="191274130"/>
    <nd ref="191274131"/>
    <nd ref="191274134"/>
    <nd ref="774437951"/>
    <nd ref="191274137"/>
    <tag k="highway" v="residential"/>
  </way>
  <way id="18550514" version="4" timestamp="2010-07-06T19:47:30Z" uid="74617" user="JohnSmith" changeset="5152225">
    <nd ref="191274121"/>
    <nd ref="191274123"/>
    <nd ref="191274125"/>
    <nd ref="191274126"/>
    <nd ref="191274127"/>
    <nd ref="191274130"/>
    <nd ref="191274131"/>
    <nd ref="191274134"/>
    <nd ref="774437951"/>
    <nd ref="191274137"/>
    <tag k="highway" v="residential"/>
    <tag k="maxspeed" v="50"/>
    <tag k="maxspeed:source" v="default residential speed limit in Australia"/>
  </way>
  <way id="18550514" version="5" timestamp="2011-02-12T15:47:03Z" uid="335017" user="Tweeky" changeset="7266178">
    <nd ref="191274137"/>
    <nd ref="774437951"/>
    <nd ref="191274134"/>
    <nd ref="191274131"/>
    <nd ref="191274130"/>
    <nd ref="191274127"/>
    <nd ref="191274126"/>
    <nd ref="191274125"/>
    <nd ref="191274123"/>
    <nd ref="191274121"/>
    <nd ref="1149193083"/>
    <nd ref="1149193073"/>
    <nd ref="1149193085"/>
    <nd ref="1149193080"/>
    <nd ref="1149193078"/>
    <nd ref="1149193076"/>
    <tag k="highway" v="residential"/>
    <tag k="maxspeed" v="50"/>
    <tag k="maxspeed:source" v="default residential speed limit in Australia"/>
    <tag k="name" v="Quamby Place"/>
  </way>
  <way id="18550514" version="6" timestamp="2012-01-15T19:16:35Z" uid="147510" user="woodpeck_fixbot" changeset="10400850">
    <nd ref="191274137"/>
    <nd ref="774437951"/>
    <nd ref="191274134"/>
    <nd ref="191274131"/>
    <nd ref="191274130"/>
    <nd ref="191274127"/>
    <nd ref="191274126"/>
    <nd ref="191274125"/>
    <nd ref="191274123"/>
    <nd ref="191274121"/>
    <nd ref="1149193083"/>
    <nd ref="1149193073"/>
    <nd ref="1149193085"/>
    <nd ref="1149193080"/>
    <nd ref="1149193078"/>
    <nd ref="1149193076"/>
    <tag k="highway" v="residential"/>
    <tag k="name" v="Quamby Place"/>
  </way>
  <way id="18550593" version="3" timestamp="2010-07-06T10:07:07Z" uid="74617" user="JohnSmith" changeset="5147679">
    <nd ref="191266185"/>
    <nd ref="347214769"/>
    <nd ref="191254298"/>
    <tag k="highway" v="residential"/>
    <tag k="maxspeed" v="50"/>
    <tag k="maxspeed:source" v="default residential speed limit in Australia"/>
    <tag k="name" v="Verry Street"/>
  </way>
  <way id="18550593" version="4" timestamp="2012-01-15T19:16:39Z" uid="147510" user="woodpeck_fixbot" changeset="10400850">
    <nd ref="191266185"/>
    <nd ref="347214769"/>
    <nd ref="191254298"/>
    <tag k="highway" v="residential"/>
    <tag k="name" v="Verry Street"/>
  </way>
  <way id="18550600" version="3" timestamp="2010-07-06T10:13:08Z" uid="74617" user="JohnSmith" changeset="5147679">
    <nd ref="81971541"/>
    <nd ref="191195694"/>
    <nd ref="191254298"/>
    <nd ref="191254601"/>
    <nd ref="191256515"/>
    <nd ref="191256589"/>
    <nd ref="191256926"/>
    <nd ref="191257045"/>
    <nd ref="191259246"/>
    <nd ref="191259839"/>
    <nd ref="347214656"/>
    <tag k="highway" v="residential"/>
    <tag k="maxspeed" v="50"/>
    <tag k="maxspeed:source" v="default residential speed limit in Australia"/>
    <tag k="name" v="Mackay Street"/>
  </way>
  <way id="18550600" version="4" timestamp="2012-01-15T19:16:42Z" uid="147510" user="woodpeck_fixbot" changeset="10400850">
    <nd ref="81971541"/>
    <nd ref="191195694"/>
    <nd ref="191254298"/>
    <nd ref="191254601"/>
    <nd ref="191256515"/>
    <nd ref="191256589"/>
    <nd ref="191256926"/>
    <nd ref="191257045"/>
    <nd ref="191259246"/>
    <nd ref="191259839"/>
    <nd ref="347214656"/>
    <tag k="highway" v="residential"/>
    <tag k="name" v="Mackay Street"/>
  </way>
  <way id="18550605" version="3" timestamp="2010-07-06T10:09:26Z" uid="74617" user="JohnSmith" changeset="5147679">
    <nd ref="119230955"/>
    <nd ref="191261738"/>
    <nd ref="347214650"/>
    <tag k="highway" v="residential"/>
    <tag k="maxspeed" v="50"/>
    <tag k="maxspeed:source" v="default residential speed limit in Australia"/>
    <tag k="name" v="Hipwood Avenue"/>
  </way>
  <way id="18550605" version="4" timestamp="2010-08-16T01:56:02Z" uid="4467" user="Rosscoe" changeset="5505701">
    <nd ref="119230955"/>
    <nd ref="191261738"/>
    <nd ref="347214650"/>
    <tag k="highway" v="residential"/>
    <tag k="maxspeed" v="50"/>
    <tag k="name" v="Hipwood Avenue"/>
    <tag k="source:maxspeed" v="default residential speed limit in Australia"/>
  </way>
  <way id="18550605" version="5" timestamp="2012-01-15T19:16:45Z" uid="147510" user="woodpeck_fixbot" changeset="10400850">
    <nd ref="119230955"/>
    <nd ref="191261738"/>
    <nd ref="347214650"/>
    <tag k="highway" v="residential"/>
    <tag k="name" v="Hipwood Avenue"/>
    <tag k="source:maxspeed" v="default residential speed limit in Australia"/>
  </way>
  <way id="18550609" version="3" timestamp="2010-07-06T09:59:39Z" uid="74617" user="JohnSmith" changeset="5147679">
    <nd ref="191259246"/>
    <nd ref="191264717"/>
    <nd ref="119119411"/>
    <tag k="highway" v="residential"/>
    <tag k="maxspeed" v="50"/>
    <tag k="maxspeed:source" v="default residential speed limit in Australia"/>
    <tag k="name" v="Marian Street"/>
  </way>
  <way id="18550609" version="4" timestamp="2012-01-15T19:16:47Z" uid="147510" user="woodpeck_fixbot" changeset="10400850">
    <nd ref="191259246"/>
    <nd ref="191264717"/>
    <nd ref="119119411"/>
    <tag k="highway" v="residential"/>
    <tag k="name" v="Marian Street"/>
  </way>
  <way id="18550612" version="3" timestamp="2010-07-06T10:00:59Z" uid="74617" user="JohnSmith" changeset="5147679">
    <nd ref="119119418"/>
    <nd ref="191257138"/>
    <nd ref="191256589"/>
    <tag k="highway" v="residential"/>
    <tag k="maxspeed" v="50"/>
    <tag k="maxspeed:source" v="default residential speed limit in Australia"/>
    <tag k="name" v="Trundal Street"/>
  </way>
  <way id="18550612" version="4" timestamp="2012-01-15T19:16:48Z" uid="147510" user="woodpeck_fixbot" changeset="10400850">
    <nd ref="119119418"/>
    <nd ref="191257138"/>
    <nd ref="191256589"/>
    <tag k="highway" v="residential"/>
    <tag k="name" v="Trundal Street"/>
  </way>
  <way id="18550617" version="3" timestamp="2010-07-06T10:05:58Z" uid="74617" user="JohnSmith" changeset="5147679">
    <nd ref="119119422"/>
    <nd ref="191254989"/>
    <nd ref="191254601"/>
    <tag k="highway" v="residential"/>
    <tag k="maxspeed" v="50"/>
    <tag k="maxspeed:source" v="default residential speed limit in Australia"/>
    <tag k="name" v="Smeaton Street"/>
  </way>
  <way id="18550617" version="4" timestamp="2012-01-15T19:16:50Z" uid="147510" user="woodpeck_fixbot" changeset="10400850">
    <nd ref="119119422"/>
    <nd ref="191254989"/>
    <nd ref="191254601"/>
    <tag k="highway" v="residential"/>
    <tag k="name" v="Smeaton Street"/>
  </way>
  <way id="18550623" version="3" timestamp="2010-07-06T10:11:50Z" uid="74617" user="JohnSmith" changeset="5147679">
    <nd ref="191254298"/>
    <nd ref="191257937"/>
    <nd ref="119119428"/>
    <tag k="highway" v="residential"/>
    <tag k="maxspeed" v="50"/>
    <tag k="maxspeed:source" v="default residential speed limit in Australia"/>
    <tag k="name" v="Stirrat Street"/>
  </way>
  <way id="18550623" version="4" timestamp="2012-01-15T19:16:51Z" uid="147510" user="woodpeck_fixbot" changeset="10400850">
    <nd ref="191254298"/>
    <nd ref="191257937"/>
    <nd ref="119119428"/>
    <tag k="highway" v="residential"/>
    <tag k="name" v="Stirrat Street"/>
  </way>
  <way id="18550627" version="3" timestamp="2010-07-06T10:03:41Z" uid="74617" user="JohnSmith" changeset="5147679">
    <nd ref="81971539"/>
    <nd ref="191266237"/>
    <nd ref="191266185"/>
    <nd ref="191266261"/>
    <nd ref="191266289"/>
    <nd ref="119230936"/>
    <tag k="highway" v="residential"/>
    <tag k="maxspeed" v="50"/>
    <tag k="maxspeed:source" v="default residential speed limit in Australia"/>
    <tag k="name" v="Emlyn Street"/>
  </way>
  <way id="18550627" version="4" timestamp="2012-01-15T19:16:54Z" uid="147510" user="woodpeck_fixbot" changeset="10400850">
    <nd ref="81971539"/>
    <nd ref="191266237"/>
    <nd ref="191266185"/>
    <nd ref="191266261"/>
    <nd ref="191266289"/>
    <nd ref="119230936"/>
    <tag k="highway" v="residential"/>
    <tag k="name" v="Emlyn Street"/>
  </way>
  <way id="18550631" version="3" timestamp="2010-07-06T10:00:27Z" uid="74617" user="JohnSmith" changeset="5147679">
    <nd ref="191266237"/>
    <nd ref="191266388"/>
    <nd ref="191266416"/>
    <nd ref="191266447"/>
    <tag k="highway" v="residential"/>
    <tag k="maxspeed" v="50"/>
    <tag k="maxspeed:source" v="default residential speed limit in Australia"/>
    <tag k="name" v="Brae Street"/>
  </way>
  <way id="18550631" version="4" timestamp="2012-01-15T19:16:55Z" uid="147510" user="woodpeck_fixbot" changeset="10400850">
    <nd ref="191266237"/>
    <nd ref="191266388"/>
    <nd ref="191266416"/>
    <nd ref="191266447"/>
    <tag k="highway" v="residential"/>
    <tag k="name" v="Brae Street"/>
  </way>
  <way id="18550642" version="7" timestamp="2010-07-06T09:59:55Z" uid="74617" user="JohnSmith" changeset="5147679">
    <nd ref="81971533"/>
    <nd ref="191266748"/>
    <nd ref="191266797"/>
    <nd ref="191266654"/>
    <nd ref="778089782"/>
    <nd ref="191182068"/>
    <nd ref="247957782"/>
    <nd ref="247957783"/>
    <nd ref="247957784"/>
    <nd ref="247957785"/>
    <nd ref="247957786"/>
    <nd ref="119077818"/>
    <tag k="highway" v="residential"/>
    <tag k="maxspeed" v="50"/>
    <tag k="maxspeed:source" v="default residential speed limit in Australia"/>
    <tag k="name" v="York Street"/>
    <tag k="source" v="GPS"/>
    <tag k="surface" v="asphalt"/>
  </way>
  <way id="18550642" version="8" timestamp="2012-01-15T19:16:57Z" uid="147510" user="woodpeck_fixbot" changeset="10400850">
    <nd ref="81971533"/>
    <nd ref="191266748"/>
    <nd ref="191266797"/>
    <nd ref="191266654"/>
    <nd ref="778089782"/>
    <nd ref="191182068"/>
    <nd ref="247957782"/>
    <nd ref="247957783"/>
    <nd ref="247957784"/>
    <nd ref="247957785"/>
    <nd ref="247957786"/>
    <nd ref="119077818"/>
    <tag k="highway" v="residential"/>
    <tag k="name" v="York Street"/>
    <tag k="source" v="GPS"/>
    <tag k="surface" v="asphalt"/>
  </way>
  <way id="18550648" version="6" timestamp="2010-07-06T10:11:58Z" uid="74617" user="JohnSmith" changeset="5147679">
    <nd ref="191181996"/>
    <nd ref="191267029"/>
    <nd ref="191267111"/>
    <tag k="highway" v="residential"/>
    <tag k="maxspeed" v="50"/>
    <tag k="maxspeed:source" v="default residential speed limit in Australia"/>
    <tag k="name" v="Duhig Avenue"/>
    <tag k="source" v="GPS"/>
    <tag k="surface" v="asphalt"/>
  </way>
  <way id="18550648" version="7" timestamp="2012-01-15T19:17:00Z" uid="147510" user="woodpeck_fixbot" changeset="10400850">
    <nd ref="191181996"/>
    <nd ref="191267029"/>
    <nd ref="191267111"/>
    <tag k="highway" v="residential"/>
    <tag k="name" v="Duhig Avenue"/>
    <tag k="source" v="GPS"/>
    <tag k="surface" v="asphalt"/>
  </way>
  <way id="18550653" version="4" timestamp="2010-04-21T13:14:52Z" uid="4467" user="Rosscoe" changeset="4486342">
    <nd ref="703211845"/>
    <nd ref="191267661"/>
    <nd ref="191267739"/>
    <nd ref="191269130"/>
    <nd ref="191267810"/>
    <nd ref="191195529"/>
    <tag k="highway" v="residential"/>
    <tag k="name" v="Geera Street"/>
  </way>
  <way id="18550653" version="5" timestamp="2010-06-20T08:17:38Z" uid="22094" user="Chadzopkyo" changeset="5030529">
    <nd ref="191267334"/>
    <nd ref="191267391"/>
    <nd ref="191267534"/>
    <nd ref="778074813"/>
    <tag k="highway" v="residential"/>
    <tag k="name" v="Wellstead Avenue"/>
  </way>
  <way id="18550653" version="6" timestamp="2010-06-20T08:35:04Z" uid="22094" user="Chadzopkyo" changeset="5030659">
    <nd ref="191267334"/>
    <nd ref="191267391"/>
    <nd ref="778089785"/>
    <nd ref="778074813"/>
    <tag k="highway" v="residential"/>
    <tag k="name" v="Wellstead Avenue"/>
    <tag k="surface" v="asphalt"/>
  </way>
  <way id="18550653" version="7" timestamp="2010-06-20T14:21:53Z" uid="4467" user="Rosscoe" changeset="5033377">
    <nd ref="191267334"/>
    <nd ref="191267391"/>
    <nd ref="778252049"/>
    <tag k="highway" v="residential"/>
    <tag k="name" v="Wellstead Avenue"/>
    <tag k="surface" v="asphalt"/>
  </way>
  <way id="18550653" version="8" timestamp="2010-06-21T05:14:57Z" uid="22094" user="Chadzopkyo" changeset="5039368">
    <nd ref="191267334"/>
    <nd ref="191267391"/>
    <nd ref="778252049"/>
    <tag k="highway" v="residential"/>
    <tag k="name" v="Wellstead Avenue"/>
    <tag k="source" v="GPS"/>
    <tag k="surface" v="asphalt"/>
  </way>
  <way id="18550653" version="9" timestamp="2010-07-06T10:07:02Z" uid="74617" user="JohnSmith" changeset="5147679">
    <nd ref="191267334"/>
    <nd ref="191267391"/>
    <nd ref="778252049"/>
    <tag k="highway" v="residential"/>
    <tag k="maxspeed" v="50"/>
    <tag k="maxspeed:source" v="default residential speed limit in Australia"/>
    <tag k="name" v="Wellstead Avenue"/>
    <tag k="source" v="GPS"/>
    <tag k="surface" v="asphalt"/>
  </way>
  <way id="18550653" version="10" timestamp="2012-01-15T19:17:02Z" uid="147510" user="woodpeck_fixbot" changeset="10400850">
    <nd ref="191267334"/>
    <nd ref="191267391"/>
    <nd ref="778252049"/>
    <tag k="highway" v="residential"/>
    <tag k="name" v="Wellstead Avenue"/>
    <tag k="source" v="GPS"/>
    <tag k="surface" v="asphalt"/>
  </way>
  <way id="18550657" version="6" timestamp="2010-07-06T10:11:56Z" uid="74617" user="JohnSmith" changeset="5147679">
    <nd ref="191181908"/>
    <nd ref="191268045"/>
    <nd ref="119197846"/>
    <nd ref="119202155"/>
    <tag k="highway" v="residential"/>
    <tag k="maxspeed" v="50"/>
    <tag k="maxspeed:source" v="default residential speed limit in Australia"/>
    <tag k="name" v="Jackman Street"/>
    <tag k="source" v="GPS"/>
    <tag k="surface" v="asphalt"/>
  </way>
  <way id="18550657" version="7" timestamp="2012-01-15T19:17:03Z" uid="147510" user="woodpeck_fixbot" changeset="10400850">
    <nd ref="191181908"/>
    <nd ref="191268045"/>
    <nd ref="119197846"/>
    <nd ref="119202155"/>
    <tag k="highway" v="residential"/>
    <tag k="name" v="Jackman Street"/>
    <tag k="source" v="GPS"/>
    <tag k="surface" v="asphalt"/>
  </way>
  <way id="18550662" version="6" timestamp="2010-07-06T10:06:58Z" uid="74617" user="JohnSmith" changeset="5147679">
    <nd ref="191268045"/>
    <nd ref="191253628"/>
    <tag k="highway" v="residential"/>
    <tag k="maxspeed" v="50"/>
    <tag k="maxspeed:source" v="default residential speed limit in Australia"/>
    <tag k="name" v="Pollux Avenue"/>
    <tag k="source" v="GPS"/>
    <tag k="surface" v="asphalt"/>
  </way>
  <way id="18550662" version="7" timestamp="2012-01-15T19:17:05Z" uid="147510" user="woodpeck_fixbot" changeset="10400850">
    <nd ref="191268045"/>
    <nd ref="191253628"/>
    <tag k="highway" v="residential"/>
    <tag k="name" v="Pollux Avenue"/>
    <tag k="source" v="GPS"/>
    <tag k="surface" v="asphalt"/>
  </way>
  <way id="18550678" version="6" timestamp="2010-07-06T09:59:25Z" uid="74617" user="JohnSmith" changeset="5147679">
    <nd ref="191182021"/>
    <nd ref="191269420"/>
    <nd ref="191269530"/>
    <nd ref="191269567"/>
    <nd ref="191269599"/>
    <nd ref="191269663"/>
    <nd ref="191269747"/>
    <tag k="highway" v="residential"/>
    <tag k="maxspeed" v="50"/>
    <tag k="maxspeed:source" v="default residential speed limit in Australia"/>
    <tag k="name" v="Rugby Street"/>
    <tag k="source" v="GPS"/>
    <tag k="surface" v="asphalt"/>
  </way>
  <way id="18550678" version="7" timestamp="2012-01-15T19:17:06Z" uid="147510" user="woodpeck_fixbot" changeset="10400850">
    <nd ref="191182021"/>
    <nd ref="191269420"/>
    <nd ref="191269530"/>
    <nd ref="191269567"/>
    <nd ref="191269599"/>
    <nd ref="191269663"/>
    <nd ref="191269747"/>
    <tag k="highway" v="residential"/>
    <tag k="name" v="Rugby Street"/>
    <tag k="source" v="GPS"/>
    <tag k="surface" v="asphalt"/>
  </way>
  <way id="18550689" version="3" timestamp="2010-07-06T09:58:59Z" uid="74617" user="JohnSmith" changeset="5147679">
    <nd ref="191266289"/>
    <nd ref="191270318"/>
    <tag k="highway" v="residential"/>
    <tag k="maxspeed" v="50"/>
    <tag k="maxspeed:source" v="default residential speed limit in Australia"/>
    <tag k="name" v="Mona Street"/>
    <tag k="oneway" v="yes"/>
  </way>
  <way id="18550689" version="4" timestamp="2012-01-15T19:17:09Z" uid="147510" user="woodpeck_fixbot" changeset="10400850">
    <nd ref="191266289"/>
    <nd ref="191270318"/>
    <tag k="highway" v="residential"/>
    <tag k="name" v="Mona Street"/>
    <tag k="oneway" v="yes"/>
  </way>
  <way id="18550693" version="4" timestamp="2010-07-06T10:12:33Z" uid="74617" user="JohnSmith" changeset="5147679">
    <nd ref="119089350"/>
    <nd ref="191270961"/>
    <nd ref="191271141"/>
    <nd ref="191272829"/>
    <tag k="highway" v="residential"/>
    <tag k="maxspeed" v="50"/>
    <tag k="maxspeed:source" v="default residential speed limit in Australia"/>
    <tag k="name" v="West Street"/>
    <tag k="oneway" v="yes"/>
  </way>
  <way id="18550693" version="5" timestamp="2012-01-15T19:17:10Z" uid="147510" user="woodpeck_fixbot" changeset="10400850">
    <nd ref="119089350"/>
    <nd ref="191270961"/>
    <nd ref="191271141"/>
    <nd ref="191272829"/>
    <tag k="highway" v="residential"/>
    <tag k="name" v="West Street"/>
    <tag k="oneway" v="yes"/>
  </way>
  <way id="18550707" version="4" timestamp="2010-07-06T10:03:08Z" uid="74617" user="JohnSmith" changeset="5147679">
    <nd ref="119095924"/>
    <nd ref="191270318"/>
    <nd ref="191272829"/>
    <tag k="highway" v="residential"/>
    <tag k="maxspeed" v="50"/>
    <tag k="maxspeed:source" v="default residential speed limit in Australia"/>
    <tag k="name" v="Regal Street"/>
  </way>
  <way id="18550707" version="5" timestamp="2012-01-15T19:17:13Z" uid="147510" user="woodpeck_fixbot" changeset="10400850">
    <nd ref="119095924"/>
    <nd ref="191270318"/>
    <nd ref="191272829"/>
    <tag k="highway" v="residential"/>
    <tag k="name" v="Regal Street"/>
  </way>
  <way id="18550717" version="4" timestamp="2010-07-06T10:11:52Z" uid="74617" user="JohnSmith" changeset="5147679">
    <nd ref="191270775"/>
    <nd ref="191270961"/>
    <nd ref="191266447"/>
    <nd ref="191273125"/>
    <nd ref="81952725"/>
    <tag k="highway" v="residential"/>
    <tag k="maxspeed" v="50"/>
    <tag k="maxspeed:source" v="default residential speed limit in Australia"/>
    <tag k="name" v="Leigh Street"/>
  </way>
  <way id="18550717" version="5" timestamp="2012-01-15T19:17:14Z" uid="147510" user="woodpeck_fixbot" changeset="10400850">
    <nd ref="191270775"/>
    <nd ref="191270961"/>
    <nd ref="191266447"/>
    <nd ref="191273125"/>
    <nd ref="81952725"/>
    <tag k="highway" v="residential"/>
    <tag k="name" v="Leigh Street"/>
  </way>
  <way id="18550829" version="1" timestamp="2007-12-27T02:30:20Z" uid="4467" user="Rosscoe" changeset="434591">
    <nd ref="191275855"/>
    <nd ref="191275911"/>
    <nd ref="191275945"/>
    <nd ref="191276000"/>
    <nd ref="191275855"/>
    <tag k="created_by" v="JOSM"/>
    <tag k="name" v="Woolworths"/>
    <tag k="shop" v="supermarket"/>
  </way>
  <way id="18550829" version="2" timestamp="2007-12-31T00:47:31Z" uid="4467" user="Rosscoe" changeset="484538">
    <nd ref="191275855"/>
    <nd ref="191275911"/>
    <nd ref="191275945"/>
    <nd ref="191276000"/>
    <nd ref="191275855"/>
    <tag k="created_by" v="JOSM"/>
    <tag k="name" v="Woolworths"/>
    <tag k="shop" v="supermarket"/>
  </way>
  <way id="18550829" version="3" timestamp="2008-02-27T23:13:45Z" uid="4467" user="Rosscoe" changeset="222292">
    <nd ref="191275855"/>
    <nd ref="191275911"/>
    <nd ref="191275945"/>
    <nd ref="191276000"/>
    <nd ref="191275855"/>
    <tag k="created_by" v="Potlatch 0.7b"/>
    <tag k="shop" v="supermarket"/>
  </way>
  <way id="18550829" version="4" timestamp="2008-02-27T23:52:23Z" uid="4467" user="Rosscoe" changeset="222292">
    <nd ref="191275855"/>
    <nd ref="191275911"/>
    <nd ref="191275945"/>
    <nd ref="191276000"/>
    <nd ref="191275855"/>
    <tag k="area" v="yes"/>
    <tag k="created_by" v="Potlatch 0.7b"/>
    <tag k="landuse" v="retail"/>
    <tag k="name" v="Fresh Fields Shopping Centre"/>
  </way>
  <way id="18550829" version="5" timestamp="2008-03-05T22:33:00Z" uid="4467" user="Rosscoe" changeset="275098">
    <nd ref="191275855"/>
    <nd ref="191275911"/>
    <nd ref="191275945"/>
    <nd ref="191276000"/>
    <nd ref="191275855"/>
    <tag k="area" v="yes"/>
    <tag k="created_by" v="Potlatch 0.7b"/>
    <tag k="landuse" v="retail"/>
  </way>
  <way id="18550829" version="6" timestamp="2009-01-28T00:24:25Z" uid="4467" user="Rosscoe" changeset="848145">
    <nd ref="191275855"/>
    <nd ref="338506662"/>
    <nd ref="338506663"/>
    <nd ref="191275911"/>
    <nd ref="191275945"/>
    <nd ref="191276000"/>
    <nd ref="191275855"/>
    <tag k="area" v="yes"/>
    <tag k="created_by" v="Potlatch 0.7b"/>
    <tag k="landuse" v="retail"/>
  </way>
  <way id="18550829" version="7" timestamp="2011-01-02T04:32:22Z" uid="4467" user="Rosscoe" changeset="6835067">
    <nd ref="338506663"/>
    <nd ref="191275911"/>
    <nd ref="191275945"/>
    <nd ref="191276000"/>
    <nd ref="338506663"/>
    <tag k="area" v="yes"/>
    <tag k="landuse" v="retail"/>
  </way>
  <way id="18550829" version="8" timestamp="2011-01-02T09:41:20Z" uid="4467" user="Rosscoe" changeset="6836336">
    <nd ref="338506663"/>
    <nd ref="1078460580"/>
    <nd ref="191275911"/>
    <nd ref="191275945"/>
    <nd ref="191276000"/>
    <nd ref="338506663"/>
    <tag k="area" v="yes"/>
    <tag k="landuse" v="retail"/>
  </way>
  <way id="18550514" version="7" timestamp="2012-07-19T14:40:15Z" uid="722137" user="OSMF Redaction Account" changeset="12331785">
    <nd ref="191274137"/>
    <nd ref="191274134"/>
    <nd ref="191274131"/>
    <nd ref="191274130"/>
    <nd ref="191274127"/>
    <nd ref="191274126"/>
    <nd ref="191274125"/>
    <nd ref="191274123"/>
    <nd ref="191274121"/>
    <nd ref="1149193083"/>
    <nd ref="1149193073"/>
    <nd ref="1149193085"/>
    <nd ref="1149193080"/>
    <nd ref="1149193078"/>
    <nd ref="1149193076"/>
    <tag k="highway" v="residential"/>
    <tag k="name" v="Quamby Place"/>
  </way>
  <way id="18550605" version="6" timestamp="2012-07-20T07:59:22Z" uid="722137" user="OSMF Redaction Account" changeset="12367209">
    <nd ref="119230955"/>
    <nd ref="191261738"/>
    <nd ref="347214650"/>
    <tag k="highway" v="residential"/>
    <tag k="name" v="Hipwood Avenue"/>
  </way>
  <way id="18550653" version="11" timestamp="2012-07-20T07:25:12Z" uid="722137" user="OSMF Redaction Account" changeset="12366049">
    <nd ref="191267334"/>
    <nd ref="191267391"/>
    <tag k="highway" v="residential"/>
    <tag k="name" v="Wellstead Avenue"/>
    <tag k="source" v="GPS"/>
    <tag k="surface" v="asphalt"/>
  </way>
  <way id="18550829" version="9" timestamp="2012-07-19T20:17:59Z" uid="722137" user="OSMF Redaction Account" changeset="12345936"/>
</osm>
