<?xml version='1.0' encoding='UTF-8'?>
<osm version="0.6" generator="libosmium/2.20.0">
  <way id="18645521" version="1" timestamp="2007-12-27T18:09:05Z" uid="3451" user="sascha_silbe" changeset="439928">
    <nd ref="136924794"/>
    <nd ref="192391726"/>
    <nd ref="192391730"/>
    <nd ref="192391737"/>
    <nd ref="192391739"/>
    <nd ref="192391745"/>
    <nd ref="192391750"/>
    <nd ref="192391754"/>
    <nd ref="192391759"/>
    <nd ref="192391767"/>
    <nd ref="192391774"/>
    <nd ref="192391780"/>
    <nd ref="192391785"/>
    <nd ref="192391792"/>
    <nd ref="192391796"/>
    <nd ref="192391803"/>
    <nd ref="192391808"/>
    <nd ref="192391815"/>
    <nd ref="192391811"/>
    <tag k="created_by" v="JOSM"/>
    <tag k="highway" v="tertiary"/>
    <tag k="name" v="Nauborner Straße"/>
    <tag k="source" v="survey"/>
  </way>
  <way id="18645521" version="2" timestamp="2008-01-26T12:15:49Z" uid="18141" user="Hobby Navigator" changeset="697309">
    <nd ref="136924794"/>
    <nd ref="192391726"/>
    <nd ref="192391730"/>
    <nd ref="192391737"/>
    <nd ref="192391739"/>
    <nd ref="192391745"/>
    <nd ref="192391750"/>
    <nd ref="192391754"/>
    <nd ref="192391759"/>
    <nd ref="192391767"/>
    <nd ref="192391774"/>
    <nd ref="192391780"/>
    <nd ref="192391785"/>
    <nd ref="192391792"/>
    <nd ref="192391796"/>
    <nd ref="192391803"/>
    <nd ref="192391808"/>
    <nd ref="192391815"/>
    <nd ref="192391811"/>
    <tag k="created_by" v="Potlatch 0.6c"/>
    <tag k="highway" v="secondary"/>
    <tag k="name" v="Nauborner Straße"/>
    <tag k="ref" v="L3053"/>
    <tag k="source" v="survey"/>
  </way>
  <way id="18645521" version="3" timestamp="2008-02-07T18:38:58Z" uid="18141" user="Hobby Navigator" changeset="68097">
    <nd ref="136924794"/>
    <nd ref="192391726"/>
    <nd ref="192391730"/>
    <nd ref="192391737"/>
    <nd ref="192391739"/>
    <nd ref="192391745"/>
    <nd ref="192391750"/>
    <nd ref="192391754"/>
    <nd ref="192391759"/>
    <nd ref="192391767"/>
    <nd ref="192391774"/>
    <nd ref="192391780"/>
    <nd ref="192391785"/>
    <tag k="created_by" v="Potlatch 0.6c"/>
    <tag k="highway" v="secondary"/>
    <tag k="name" v="Nauborner Straße"/>
    <tag k="ref" v="L3053"/>
    <tag k="source" v="survey"/>
  </way>
  <way id="18645521" version="4" timestamp="2008-04-05T10:05:18Z" uid="18141" user="Hobby Navigator" changeset="51919">
    <nd ref="136924794"/>
    <nd ref="192391726"/>
    <nd ref="192391730"/>
    <nd ref="192391737"/>
    <nd ref="255843117"/>
    <nd ref="192391739"/>
    <nd ref="192391745"/>
    <nd ref="192391750"/>
    <nd ref="192391754"/>
    <nd ref="192391759"/>
    <nd ref="192391767"/>
    <nd ref="255843179"/>
    <nd ref="192391774"/>
    <nd ref="192391780"/>
    <nd ref="192391785"/>
    <tag k="created_by" v="Potlatch 0.6c"/>
    <tag k="highway" v="secondary"/>
    <tag k="name" v="Nauborner Straße"/>
    <tag k="ref" v="L3053"/>
    <tag k="source" v="survey"/>
  </way>
  <way id="18645521" version="5" timestamp="2008-07-25T14:02:04Z" uid="18141" user="Hobby Navigator" changeset="590009">
    <nd ref="136924794"/>
    <nd ref="192391726"/>
    <nd ref="192391730"/>
    <nd ref="192391737"/>
    <nd ref="255843117"/>
    <nd ref="192391739"/>
    <nd ref="192391745"/>
    <nd ref="192391750"/>
    <nd ref="192391754"/>
    <nd ref="192391759"/>
    <nd ref="192391767"/>
    <nd ref="255843179"/>
    <nd ref="192391774"/>
    <nd ref="192391780"/>
    <nd ref="192391785"/>
    <tag k="created_by" v="Potlatch 0.10"/>
    <tag k="highway" v="secondary"/>
    <tag k="name" v="Nauborner Straße"/>
    <tag k="ref" v="L 3053"/>
    <tag k="source" v="survey"/>
  </way>
  <way id="18645521" version="6" timestamp="2008-10-28T19:34:59Z" uid="18141" user="Hobby Navigator" changeset="610097">
    <nd ref="136924794"/>
    <nd ref="192391726"/>
    <nd ref="192391730"/>
    <nd ref="192391737"/>
    <nd ref="255843117"/>
    <nd ref="192391739"/>
    <nd ref="192391745"/>
    <nd ref="192391750"/>
    <nd ref="192391754"/>
    <nd ref="192391759"/>
    <nd ref="192391767"/>
    <nd ref="308303260"/>
    <nd ref="255843179"/>
    <nd ref="192391774"/>
    <nd ref="192391780"/>
    <nd ref="192391785"/>
    <tag k="created_by" v="Potlatch 0.10"/>
    <tag k="highway" v="secondary"/>
    <tag k="name" v="Nauborner Straße"/>
    <tag k="ref" v="L 3053"/>
    <tag k="source" v="survey"/>
  </way>
  <way id="18645521" version="7" timestamp="2010-05-05T14:47:10Z" uid="46169" user="wolter" changeset="4613560">
    <nd ref="136924794"/>
    <nd ref="192391726"/>
    <nd ref="192391730"/>
    <nd ref="192391737"/>
    <nd ref="255843117"/>
    <nd ref="192391739"/>
    <nd ref="192391745"/>
    <nd ref="192391750"/>
    <nd ref="192391754"/>
    <nd ref="192391759"/>
    <nd ref="192391767"/>
    <nd ref="308303260"/>
    <tag k="highway" v="secondary"/>
    <tag k="name" v="Nauborner Straße"/>
    <tag k="ref" v="L 3053"/>
    <tag k="source" v="survey"/>
  </way>
  <way id="18645521" version="8" timestamp="2010-05-25T20:05:44Z" uid="40821" user="Flairreisen" changeset="4807510">
    <nd ref="136924794"/>
    <nd ref="748277836"/>
    <nd ref="192391726"/>
    <nd ref="192391730"/>
    <nd ref="192391737"/>
    <nd ref="748277847"/>
    <nd ref="255843117"/>
    <nd ref="192391739"/>
    <nd ref="192391745"/>
    <nd ref="192391750"/>
    <nd ref="192391754"/>
    <nd ref="192391759"/>
    <nd ref="192391767"/>
    <nd ref="308303260"/>
    <tag k="highway" v="secondary"/>
    <tag k="name" v="Nauborner Straße"/>
    <tag k="ref" v="L 3053"/>
    <tag k="source" v="survey"/>
  </way>
  <way id="18645521" version="9" timestamp="2011-08-16T23:59:03Z" uid="402019" user="poltspost" changeset="9043703">
    <nd ref="136924794"/>
    <nd ref="748277836"/>
    <nd ref="192391726"/>
    <nd ref="192391730"/>
    <nd ref="192391737"/>
    <nd ref="748277847"/>
    <nd ref="255843117"/>
    <tag k="highway" v="secondary"/>
    <tag k="name" v="Nauborner Straße"/>
    <tag k="ref" v="L 3053"/>
    <tag k="source" v="survey"/>
  </way>
  <way id="18645521" version="10" timestamp="2012-03-10T15:24:54Z" uid="57645" user="KartoGrapHiti" changeset="10932950">
    <nd ref="136924794"/>
    <nd ref="748277836"/>
    <nd ref="192391726"/>
    <nd ref="192391730"/>
    <nd ref="192391737"/>
    <nd ref="748277847"/>
    <nd ref="255843117"/>
    <tag k="highway" v="secondary"/>
    <tag k="maxspeed" v="50"/>
    <tag k="name" v="Nauborner Straße"/>
    <tag k="ref" v="L 3053"/>
    <tag k="source" v="survey"/>
  </way>
  <way id="18645523" version="1" timestamp="2007-12-27T18:09:05Z" uid="3451" user="sascha_silbe" changeset="439928">
    <nd ref="192391815"/>
    <nd ref="192391824"/>
    <nd ref="192391831"/>
    <nd ref="192391840"/>
    <nd ref="192391847"/>
    <tag k="created_by" v="JOSM"/>
    <tag k="highway" v="residential"/>
    <tag k="name" v="Kolpingstraße"/>
    <tag k="source" v="survey"/>
  </way>
  <way id="18645523" version="2" timestamp="2008-10-28T19:34:52Z" uid="18141" user="Hobby Navigator" changeset="610097">
    <nd ref="192391815"/>
    <nd ref="308303352"/>
    <nd ref="192391824"/>
    <nd ref="192391831"/>
    <nd ref="192391840"/>
    <nd ref="192391847"/>
    <tag k="created_by" v="JOSM"/>
    <tag k="highway" v="residential"/>
    <tag k="name" v="Kolpingstraße"/>
    <tag k="source" v="survey"/>
  </way>
  <way id="18645523" version="3" timestamp="2011-05-19T21:34:52Z" uid="57645" user="KartoGrapHiti" changeset="8193815">
    <nd ref="192391815"/>
    <nd ref="308303352"/>
    <nd ref="192391824"/>
    <nd ref="192391831"/>
    <nd ref="192391840"/>
    <nd ref="192391847"/>
    <tag k="highway" v="residential"/>
    <tag k="name" v="Kolpingstraße"/>
    <tag k="source" v="survey"/>
  </way>
  <way id="18645524" version="1" timestamp="2007-12-27T18:09:06Z" uid="3451" user="sascha_silbe" changeset="439928">
    <nd ref="192391847"/>
    <nd ref="192391852"/>
    <nd ref="192391856"/>
    <nd ref="192391860"/>
    <nd ref="192391863"/>
    <nd ref="192391867"/>
    <nd ref="192391869"/>
    <nd ref="192391873"/>
    <nd ref="192391883"/>
    <nd ref="192391889"/>
    <nd ref="192391903"/>
    <nd ref="192391896"/>
    <tag k="created_by" v="JOSM"/>
    <tag k="highway" v="residential"/>
    <tag k="name" v="Langenbergstraße"/>
    <tag k="source" v="survey"/>
  </way>
  <way id="18645524" version="2" timestamp="2008-04-05T10:05:19Z" uid="18141" user="Hobby Navigator" changeset="51919">
    <nd ref="192391847"/>
    <nd ref="192391852"/>
    <nd ref="192391856"/>
    <nd ref="192391860"/>
    <nd ref="192391863"/>
    <nd ref="192391867"/>
    <nd ref="192391873"/>
    <nd ref="192391883"/>
    <nd ref="192391889"/>
    <nd ref="192391903"/>
    <nd ref="192391896"/>
    <nd ref="255843209"/>
    <nd ref="255843211"/>
    <nd ref="255843213"/>
    <nd ref="255843215"/>
    <nd ref="255843218"/>
    <nd ref="255843220"/>
    <nd ref="255843222"/>
    <nd ref="255843223"/>
    <nd ref="255843225"/>
    <nd ref="255843227"/>
    <nd ref="255843230"/>
    <nd ref="255843232"/>
    <tag k="created_by" v="JOSM"/>
    <tag k="highway" v="residential"/>
    <tag k="name" v="Langenbergstraße"/>
    <tag k="source" v="survey"/>
  </way>
  <way id="18645524" version="3" timestamp="2011-05-19T21:33:41Z" uid="57645" user="KartoGrapHiti" changeset="8193815">
    <nd ref="192391847"/>
    <nd ref="192391852"/>
    <nd ref="192391856"/>
    <nd ref="192391860"/>
    <nd ref="192391863"/>
    <nd ref="192391867"/>
    <nd ref="192391873"/>
    <nd ref="192391883"/>
    <nd ref="192391889"/>
    <nd ref="192391903"/>
    <nd ref="192391896"/>
    <nd ref="255843209"/>
    <nd ref="255843211"/>
    <nd ref="255843213"/>
    <nd ref="255843215"/>
    <nd ref="255843218"/>
    <nd ref="255843220"/>
    <nd ref="255843222"/>
    <nd ref="255843223"/>
    <nd ref="255843225"/>
    <nd ref="255843227"/>
    <nd ref="255843230"/>
    <nd ref="255843232"/>
    <tag k="highway" v="residential"/>
    <tag k="name" v="Langenbergstraße"/>
    <tag k="source" v="survey"/>
  </way>
  <way id="18645524" version="4" timestamp="2011-06-19T11:01:42Z" uid="57645" user="KartoGrapHiti" changeset="8482588">
    <nd ref="192391847"/>
    <nd ref="192391852"/>
    <nd ref="192391860"/>
    <nd ref="192391903"/>
    <nd ref="255843209"/>
    <nd ref="255843211"/>
    <nd ref="255843218"/>
    <nd ref="255843222"/>
    <nd ref="255843225"/>
    <nd ref="255843232"/>
    <tag k="highway" v="residential"/>
    <tag k="name" v="Langenbergstraße"/>
    <tag k="source" v="survey"/>
  </way>
  <way id="18645525" version="1" timestamp="2007-12-27T18:09:06Z" uid="3451" user="sascha_silbe" changeset="439928">
    <nd ref="192391903"/>
    <nd ref="192391906"/>
    <nd ref="192391913"/>
    <nd ref="192391921"/>
    <tag k="created_by" v="JOSM"/>
    <tag k="highway" v="residential"/>
    <tag k="name" v="Henkelsberg"/>
    <tag k="source" v="survey"/>
  </way>
  <way id="18645525" version="2" timestamp="2009-08-23T19:28:05Z" uid="57645" user="KartoGrapHiti" changeset="2235177">
    <nd ref="192391903"/>
    <nd ref="192391906"/>
    <nd ref="192391921"/>
    <tag k="created_by" v="JOSM"/>
    <tag k="highway" v="residential"/>
    <tag k="name" v="Henkelsberg"/>
    <tag k="source" v="survey"/>
  </way>
  <way id="18645525" version="3" timestamp="2011-05-19T21:35:00Z" uid="57645" user="KartoGrapHiti" changeset="8193815">
    <nd ref="192391903"/>
    <nd ref="192391906"/>
    <nd ref="192391921"/>
    <tag k="highway" v="residential"/>
    <tag k="name" v="Henkelsberg"/>
    <tag k="source" v="survey"/>
  </way>
  <way id="18645526" version="1" timestamp="2007-12-27T18:09:06Z" uid="3451" user="sascha_silbe" changeset="439928">
    <nd ref="192391921"/>
    <nd ref="192391926"/>
    <nd ref="192391931"/>
    <tag k="created_by" v="JOSM"/>
    <tag k="highway" v="residential"/>
    <tag k="name" v="Gartenstraße"/>
    <tag k="source" v="survey"/>
  </way>
  <way id="18645526" version="2" timestamp="2008-09-07T12:52:11Z" uid="66175" user="vtac" changeset="560544">
    <nd ref="192391921"/>
    <nd ref="192391931"/>
    <tag k="created_by" v="Potlatch 0.10b"/>
    <tag k="highway" v="residential"/>
    <tag k="name" v="Gartenstraße"/>
    <tag k="source" v="survey"/>
  </way>
  <way id="18645526" version="3" timestamp="2009-08-23T19:28:04Z" uid="57645" user="KartoGrapHiti" changeset="2235177">
    <nd ref="192391931"/>
    <nd ref="192391921"/>
    <nd ref="192391969"/>
    <nd ref="192391976"/>
    <tag k="created_by" v="Potlatch 0.10e"/>
    <tag k="highway" v="residential"/>
    <tag k="name" v="Gartenstraße"/>
    <tag k="source" v="survey"/>
  </way>
  <way id="18645526" version="4" timestamp="2011-05-19T21:34:10Z" uid="57645" user="KartoGrapHiti" changeset="8193815">
    <nd ref="192391931"/>
    <nd ref="192391921"/>
    <nd ref="192391969"/>
    <nd ref="192391976"/>
    <tag k="highway" v="residential"/>
    <tag k="name" v="Gartenstraße"/>
    <tag k="source" v="survey"/>
  </way>
  <way id="18645527" version="1" timestamp="2007-12-27T18:09:06Z" uid="3451" user="sascha_silbe" changeset="439928">
    <nd ref="192391931"/>
    <nd ref="192391934"/>
    <nd ref="192391939"/>
    <nd ref="192391946"/>
    <nd ref="192391952"/>
    <tag k="created_by" v="JOSM"/>
    <tag k="highway" v="residential"/>
    <tag k="name" v="Zur Heide"/>
    <tag k="source" v="survey"/>
  </way>
  <way id="18645527" version="2" timestamp="2009-08-26T22:18:43Z" uid="136597" user="dibo" changeset="2272735">
    <nd ref="192391931"/>
    <nd ref="192391934"/>
    <nd ref="192391939"/>
    <nd ref="474829519"/>
    <nd ref="192391946"/>
    <nd ref="192391952"/>
    <tag k="created_by" v="JOSM"/>
    <tag k="highway" v="residential"/>
    <tag k="name" v="Zur Heide"/>
    <tag k="source" v="survey"/>
  </way>
  <way id="18645527" version="3" timestamp="2010-12-07T21:03:13Z" uid="18141" user="Hobby Navigator" changeset="6579694">
    <nd ref="1027167602"/>
    <nd ref="1027167737"/>
    <nd ref="192391931"/>
    <nd ref="192391934"/>
    <nd ref="192391939"/>
    <nd ref="474829519"/>
    <nd ref="192391946"/>
    <nd ref="192391952"/>
    <tag k="highway" v="residential"/>
    <tag k="name" v="Zur Heide"/>
    <tag k="source" v="survey"/>
  </way>
  <way id="18645527" version="4" timestamp="2011-07-31T15:02:55Z" uid="418976" user="hahape" changeset="8881799">
    <nd ref="1027167602"/>
    <nd ref="1027167737"/>
    <nd ref="192391931"/>
    <tag k="highway" v="residential"/>
    <tag k="name" v="Gartenstraße"/>
    <tag k="source" v="survey"/>
  </way>
  <way id="18645528" version="1" timestamp="2007-12-27T18:09:07Z" uid="3451" user="sascha_silbe" changeset="439928">
    <nd ref="192391952"/>
    <nd ref="192391959"/>
    <nd ref="192391965"/>
    <tag k="created_by" v="JOSM"/>
    <tag k="highway" v="residential"/>
    <tag k="name" v="Zum Westerngrund"/>
    <tag k="source" v="survey"/>
  </way>
  <way id="18645528" version="2" timestamp="2011-05-19T21:35:00Z" uid="57645" user="KartoGrapHiti" changeset="8193815">
    <nd ref="192391952"/>
    <nd ref="192391959"/>
    <nd ref="192391965"/>
    <tag k="highway" v="residential"/>
    <tag k="name" v="Zum Westerngrund"/>
    <tag k="source" v="survey"/>
  </way>
  <way id="18645530" version="1" timestamp="2007-12-27T18:09:07Z" uid="3451" user="sascha_silbe" changeset="439928">
    <nd ref="192391965"/>
    <nd ref="192391969"/>
    <tag k="created_by" v="JOSM"/>
    <tag k="highway" v="residential"/>
    <tag k="name" v="Zum Westerngrund"/>
    <tag k="source" v="survey"/>
  </way>
  <way id="18645530" version="2" timestamp="2011-05-19T21:33:54Z" uid="57645" user="KartoGrapHiti" changeset="8193815">
    <nd ref="192391965"/>
    <nd ref="192391969"/>
    <tag k="highway" v="residential"/>
    <tag k="name" v="Zum Westerngrund"/>
    <tag k="source" v="survey"/>
  </way>
  <way id="18645531" version="1" timestamp="2007-12-27T18:09:07Z" uid="3451" user="sascha_silbe" changeset="439928">
    <nd ref="192391969"/>
    <nd ref="192391976"/>
    <tag k="created_by" v="JOSM"/>
    <tag k="highway" v="residential"/>
    <tag k="source" v="survey"/>
  </way>
  <way id="18645531" version="2" timestamp="2008-10-28T18:58:32Z" uid="18141" user="Hobby Navigator" changeset="610097">
    <nd ref="192391969"/>
    <nd ref="192391976"/>
    <tag k="created_by" v="Potlatch 0.10e"/>
    <tag k="highway" v="residential"/>
    <tag k="name" v="Gartenstraße"/>
    <tag k="source" v="survey"/>
  </way>
  <way id="18645531" version="3" timestamp="2009-08-23T19:28:05Z" uid="57645" user="KartoGrapHiti" changeset="2235177"/>
  <way id="18645532" version="1" timestamp="2007-12-27T18:09:07Z" uid="3451" user="sascha_silbe" changeset="439928">
    <nd ref="192391976"/>
    <nd ref="192391860"/>
    <tag k="created_by" v="JOSM"/>
    <tag k="highway" v="residential"/>
    <tag k="name" v="Josef-Schmidt-Straße"/>
    <tag k="source" v="survey"/>
  </way>
  <way id="18645532" version="2" timestamp="2009-08-31T06:20:26Z" uid="38191" user="GarKeiner" changeset="2322418">
    <nd ref="192391860"/>
    <nd ref="192391976"/>
    <nd ref="192391965"/>
    <tag k="created_by" v="JOSM"/>
    <tag k="highway" v="residential"/>
    <tag k="name" v="Josef-Schmidt-Straße"/>
  </way>
  <way id="18645532" version="3" timestamp="2009-09-08T13:30:24Z" uid="38191" user="GarKeiner" changeset="2414089">
    <nd ref="192391860"/>
    <nd ref="192391976"/>
    <nd ref="489573508"/>
    <nd ref="192391965"/>
    <tag k="highway" v="residential"/>
    <tag k="name" v="Josef-Schmidt-Straße"/>
  </way>
  <way id="18645532" version="4" timestamp="2010-05-06T19:11:32Z" uid="36894" user="rab" changeset="4624550">
    <nd ref="192391860"/>
    <nd ref="192391976"/>
    <nd ref="192391965"/>
    <tag k="highway" v="residential"/>
    <tag k="name" v="Josef-Schmidt-Straße"/>
  </way>
  <way id="18645532" version="5" timestamp="2011-06-19T09:48:02Z" uid="57645" user="KartoGrapHiti" changeset="8481840">
    <nd ref="192391860"/>
    <nd ref="192391976"/>
    <nd ref="1330571091"/>
    <nd ref="192391965"/>
    <tag k="highway" v="residential"/>
    <tag k="name" v="Josef-Schmidt-Straße"/>
  </way>
  <way id="18645521" version="11" timestamp="2012-04-15T06:03:46Z" uid="315015" user="WernerP" changeset="11306299"/>
  <way id="18645523" version="4" timestamp="2012-07-19T03:15:06Z" uid="722137" user="OSMF Redaction Account" changeset="12306330"/>
  <way id="18645524" version="5" timestamp="2012-04-24T18:12:00Z" uid="18141" user="Hobby Navigator" changeset="11407931">
    <nd ref="192391847"/>
    <nd ref="1729254318"/>
    <nd ref="192391860"/>
    <nd ref="192391903"/>
    <nd ref="255843209"/>
    <nd ref="255843211"/>
    <nd ref="255843218"/>
    <nd ref="255843222"/>
    <nd ref="255843225"/>
    <nd ref="255843232"/>
    <tag k="highway" v="residential"/>
    <tag k="name" v="Langenbergstraße"/>
    <tag k="source" v="survey"/>
  </way>
  <way id="18645524" version="6" timestamp="2012-07-19T03:14:47Z" uid="722137" user="OSMF Redaction Account" changeset="12306330">
    <nd ref="1729254318"/>
    <nd ref="255843209"/>
    <nd ref="255843211"/>
    <nd ref="255843218"/>
    <nd ref="255843222"/>
    <nd ref="255843225"/>
    <nd ref="255843232"/>
  </way>
  <way id="18645524" version="7" timestamp="2012-07-19T08:19:34Z" uid="18141" user="Hobby Navigator" changeset="12313617">
    <nd ref="1729254318"/>
    <nd ref="1830520183"/>
    <nd ref="1830520179"/>
    <nd ref="255843209"/>
    <nd ref="255843211"/>
    <nd ref="255843218"/>
    <nd ref="255843222"/>
    <nd ref="255843225"/>
    <nd ref="255843232"/>
    <tag k="highway" v="residential"/>
    <tag k="name" v="Langenbergstraße"/>
  </way>
  <way id="18645524" version="8" timestamp="2012-07-19T08:38:03Z" uid="18141" user="Hobby Navigator" changeset="12314228">
    <nd ref="192391860"/>
    <nd ref="1830520183"/>
    <nd ref="1830520179"/>
    <nd ref="255843209"/>
    <nd ref="255843211"/>
    <nd ref="255843218"/>
    <nd ref="255843222"/>
    <nd ref="255843225"/>
    <nd ref="255843232"/>
    <tag k="highway" v="residential"/>
    <tag k="name" v="Langenbergstraße"/>
  </way>
  <way id="18645525" version="4" timestamp="2012-07-19T03:15:06Z" uid="722137" user="OSMF Redaction Account" changeset="12306330"/>
  <way id="18645526" version="5" timestamp="2012-04-24T18:14:33Z" uid="18141" user="Hobby Navigator" changeset="11407951">
    <nd ref="192391931"/>
    <nd ref="1729254730"/>
    <nd ref="192391921"/>
    <nd ref="192391969"/>
    <nd ref="192391976"/>
    <tag k="highway" v="residential"/>
    <tag k="name" v="Gartenstraße"/>
    <tag k="source" v="survey"/>
  </way>
  <way id="18645526" version="6" timestamp="2012-07-19T03:14:31Z" uid="722137" user="OSMF Redaction Account" changeset="12306330">
    <nd ref="1729254730"/>
    <nd ref="192391969"/>
    <nd ref="192391976"/>
  </way>
  <way id="18645526" version="7" timestamp="2012-07-19T08:19:34Z" uid="18141" user="Hobby Navigator" changeset="12313617">
    <nd ref="1729254730"/>
    <nd ref="1830520181"/>
    <nd ref="192391969"/>
    <nd ref="192391976"/>
    <nd ref="1830520184"/>
    <tag k="highway" v="residential"/>
    <tag k="name" v="Gartenstraße"/>
  </way>
  <way id="18645527" version="5" timestamp="2012-04-24T18:14:33Z" uid="18141" user="Hobby Navigator" changeset="11407951">
    <nd ref="1027167602"/>
    <nd ref="1027167737"/>
    <nd ref="1729254729"/>
    <nd ref="192391931"/>
    <tag k="highway" v="residential"/>
    <tag k="name" v="Gartenstraße"/>
    <tag k="source" v="survey"/>
  </way>
  <way id="18645527" version="6" timestamp="2012-04-24T18:15:58Z" uid="18141" user="Hobby Navigator" changeset="11407960">
    <nd ref="1729255042"/>
    <nd ref="1729255043"/>
    <nd ref="1027167737"/>
    <nd ref="1729254729"/>
    <nd ref="192391931"/>
    <tag k="highway" v="residential"/>
    <tag k="name" v="Gartenstraße"/>
    <tag k="source" v="survey"/>
  </way>
  <way id="18645527" version="7" timestamp="2012-04-24T18:17:16Z" uid="18141" user="Hobby Navigator" changeset="11407976">
    <nd ref="1729255042"/>
    <nd ref="1729255043"/>
    <nd ref="1027167737"/>
    <nd ref="1729255771"/>
    <nd ref="1729254729"/>
    <nd ref="192391931"/>
    <tag k="highway" v="residential"/>
    <tag k="name" v="Gartenstraße"/>
    <tag k="source" v="survey"/>
  </way>
  <way id="18645527" version="8" timestamp="2012-07-19T03:14:32Z" uid="722137" user="OSMF Redaction Account" changeset="12306330">
    <nd ref="1729255042"/>
    <nd ref="1729255043"/>
    <nd ref="1027167737"/>
    <nd ref="1729255771"/>
    <nd ref="1729254729"/>
    <tag k="name" v="Gartenstraße"/>
  </way>
  <way id="18645527" version="9" timestamp="2012-07-19T08:19:34Z" uid="18141" user="Hobby Navigator" changeset="12313617">
    <nd ref="1729255042"/>
    <nd ref="1729255043"/>
    <nd ref="1027167737"/>
    <nd ref="1729255771"/>
    <nd ref="1729254729"/>
    <nd ref="1830520177"/>
    <nd ref="1729254730"/>
    <tag k="highway" v="residential"/>
    <tag k="name" v="Gartenstraße"/>
  </way>
  <way id="18645528" version="3" timestamp="2012-04-24T18:12:02Z" uid="18141" user="Hobby Navigator" changeset="11407931">
    <nd ref="192391952"/>
    <nd ref="192391959"/>
    <nd ref="1729254304"/>
    <nd ref="192391965"/>
    <tag k="highway" v="residential"/>
    <tag k="name" v="Zum Westerngrund"/>
    <tag k="source" v="survey"/>
  </way>
  <way id="18645528" version="4" timestamp="2012-07-19T03:15:05Z" uid="722137" user="OSMF Redaction Account" changeset="12306330"/>
  <way id="18645530" version="3" timestamp="2012-04-24T18:12:02Z" uid="18141" user="Hobby Navigator" changeset="11407931">
    <nd ref="192391965"/>
    <nd ref="1729254307"/>
    <nd ref="1729254309"/>
    <nd ref="192391969"/>
    <tag k="highway" v="residential"/>
    <tag k="name" v="Zum Westerngrund"/>
    <tag k="source" v="survey"/>
  </way>
  <way id="18645530" version="4" timestamp="2012-07-19T03:14:47Z" uid="722137" user="OSMF Redaction Account" changeset="12306330">
    <nd ref="1729254307"/>
    <nd ref="1729254309"/>
  </way>
  <way id="18645530" version="5" timestamp="2012-07-19T08:19:35Z" uid="18141" user="Hobby Navigator" changeset="12313617">
    <nd ref="1830520182"/>
    <nd ref="1729254307"/>
    <nd ref="1729254309"/>
    <nd ref="192391969"/>
    <tag k="highway" v="residential"/>
    <tag k="name" v="Zum Westerngrund"/>
  </way>
  <way id="18645532" version="6" timestamp="2012-04-24T18:11:59Z" uid="18141" user="Hobby Navigator" changeset="11407931">
    <nd ref="192391860"/>
    <nd ref="1729254317"/>
    <nd ref="192391976"/>
    <nd ref="1729254314"/>
    <nd ref="1729254312"/>
    <nd ref="1729254310"/>
    <nd ref="1330571091"/>
    <nd ref="1729254308"/>
    <nd ref="1729254305"/>
    <tag k="highway" v="residential"/>
    <tag k="name" v="Josef-Schmidt-Straße"/>
  </way>
  <way id="18645532" version="7" timestamp="2012-07-19T03:14:47Z" uid="722137" user="OSMF Redaction Account" changeset="12306330">
    <nd ref="1729254317"/>
    <nd ref="1729254314"/>
    <nd ref="1729254312"/>
    <nd ref="1729254310"/>
    <nd ref="1330571091"/>
    <nd ref="1729254308"/>
    <nd ref="1729254305"/>
  </way>
  <way id="18645532" version="8" timestamp="2012-07-19T08:19:34Z" uid="18141" user="Hobby Navigator" changeset="12313617">
    <nd ref="1729254317"/>
    <nd ref="1830520184"/>
    <nd ref="1729254314"/>
    <nd ref="1729254312"/>
    <nd ref="1729254310"/>
    <nd ref="1330571091"/>
    <nd ref="1729254308"/>
    <nd ref="1729254305"/>
    <tag k="highway" v="residential"/>
    <tag k="name" v="Josef-Schmidt-Straße"/>
  </way>
  <way id="18645532" version="9" timestamp="2012-07-19T08:37:55Z" uid="18141" user="Hobby Navigator" changeset="12314228">
    <nd ref="1830537974"/>
    <nd ref="1729254317"/>
    <nd ref="1830520184"/>
    <nd ref="1729254314"/>
    <nd ref="1729254312"/>
    <nd ref="1729254310"/>
    <nd ref="1330571091"/>
    <nd ref="1729254308"/>
    <nd ref="1729254305"/>
    <tag k="highway" v="residential"/>
    <tag k="name" v="Josef-Schmidt-Straße"/>
  </way>
  <way id="18645532" version="10" timestamp="2012-07-19T08:56:02Z" uid="18141" user="Hobby Navigator" changeset="12314834">
    <nd ref="192391847"/>
    <nd ref="1830548967"/>
    <nd ref="1830548965"/>
    <nd ref="1830537974"/>
    <tag k="highway" v="residential"/>
    <tag k="name" v="Langenbergstraße"/>
  </way>
</osm>
