<?xml version='1.0' encoding='UTF-8'?>
<osm version="0.6" generator="libosmium/2.20.0">
  <way id="18725203" version="9" timestamp="2010-05-01T20:18:53Z" uid="151899" user="Bikeman2000" changeset="4579010">
    <nd ref="158689276"/>
    <nd ref="715849152"/>
    <nd ref="715849155"/>
    <nd ref="193207632"/>
    <nd ref="410568143"/>
    <nd ref="253786699"/>
    <tag k="cycleway" v="lane"/>
    <tag k="highway" v="residential"/>
    <tag k="name" v="Himmelgeister Straße"/>
    <tag k="oneway" v="yes"/>
    <tag k="postal_code" v="40225"/>
  </way>
  <way id="18725203" version="10" timestamp="2011-07-28T14:17:22Z" uid="385765" user="gruensucher" changeset="8855096">
    <nd ref="158689276"/>
    <nd ref="715849152"/>
    <nd ref="715849155"/>
    <nd ref="193207632"/>
    <nd ref="410568143"/>
    <nd ref="1376735788"/>
    <nd ref="253786699"/>
    <tag k="cycleway" v="lane"/>
    <tag k="highway" v="residential"/>
    <tag k="name" v="Himmelgeister Straße"/>
    <tag k="oneway" v="yes"/>
    <tag k="postal_code" v="40225"/>
  </way>
  <way id="18725203" version="11" timestamp="2011-12-28T15:12:28Z" uid="12614" user="rabenkind" changeset="10226838">
    <nd ref="158689276"/>
    <nd ref="715849152"/>
    <nd ref="715849155"/>
    <nd ref="193207632"/>
    <nd ref="1565347868"/>
    <nd ref="1376735788"/>
    <nd ref="253786699"/>
    <tag k="cycleway" v="lane"/>
    <tag k="highway" v="residential"/>
    <tag k="name" v="Himmelgeister Straße"/>
    <tag k="oneway" v="yes"/>
    <tag k="postal_code" v="40225"/>
  </way>
  <way id="18725203" version="12" timestamp="2011-12-29T10:44:36Z" uid="12614" user="rabenkind" changeset="10233849"/>
  <way id="18725267" version="9" timestamp="2010-05-01T20:18:38Z" uid="151899" user="Bikeman2000" changeset="4579010">
    <nd ref="193207634"/>
    <nd ref="715849079"/>
    <nd ref="320607693"/>
    <nd ref="193208342"/>
    <nd ref="320607687"/>
    <nd ref="320607681"/>
    <tag k="cycleway" v="track"/>
    <tag k="highway" v="residential"/>
    <tag k="name" v="Ulenbergstraße"/>
    <tag k="oneway" v="yes"/>
  </way>
  <way id="18725267" version="10" timestamp="2011-12-28T12:22:08Z" uid="12614" user="rabenkind" changeset="10225252"/>
  <way id="18725502" version="11" timestamp="2010-05-01T20:29:02Z" uid="151899" user="Bikeman2000" changeset="4579089">
    <nd ref="193208348"/>
    <nd ref="715852339"/>
    <nd ref="193208350"/>
    <nd ref="715852340"/>
    <nd ref="193208351"/>
    <nd ref="715852342"/>
    <nd ref="253791429"/>
    <nd ref="715852343"/>
    <nd ref="193208352"/>
    <nd ref="193210428"/>
    <nd ref="715852345"/>
    <nd ref="193210433"/>
    <nd ref="715852347"/>
    <nd ref="193210435"/>
    <nd ref="715852348"/>
    <nd ref="193210436"/>
    <nd ref="715852350"/>
    <nd ref="715852351"/>
    <nd ref="193208344"/>
    <nd ref="715852353"/>
    <nd ref="193208348"/>
    <tag k="cycleway:right" v="track"/>
    <tag k="highway" v="residential"/>
    <tag k="junction" v="roundabout"/>
    <tag k="name" v="Merowingerplatz"/>
    <tag k="oneway" v="yes"/>
  </way>
  <way id="18725502" version="12" timestamp="2011-01-16T17:36:36Z" uid="378954" user="FrankXF" changeset="6990772">
    <nd ref="193208344"/>
    <nd ref="715852353"/>
    <nd ref="193208348"/>
    <nd ref="715852339"/>
    <nd ref="193208350"/>
    <tag k="cycleway:right" v="track"/>
    <tag k="highway" v="residential"/>
    <tag k="junction" v="roundabout"/>
    <tag k="name" v="Merowingerplatz"/>
    <tag k="oneway" v="yes"/>
  </way>
  <way id="18725502" version="13" timestamp="2011-12-28T12:04:58Z" uid="12614" user="rabenkind" changeset="10225107"/>
  <way id="18725728" version="15" timestamp="2010-05-01T23:22:08Z" uid="151899" user="Bikeman2000" changeset="4580399">
    <nd ref="262688498"/>
    <nd ref="715951566"/>
    <nd ref="26852251"/>
    <nd ref="285906866"/>
    <nd ref="26852254"/>
    <nd ref="193212345"/>
    <nd ref="285906093"/>
    <nd ref="193212346"/>
    <tag k="highway" v="secondary"/>
    <tag k="maxspeed" v="50"/>
    <tag k="name" v="Mecumstraße"/>
    <tag k="oneway" v="yes"/>
    <tag k="ref" v="L 52"/>
  </way>
  <way id="18725728" version="16" timestamp="2011-04-09T10:14:44Z" uid="385765" user="gruensucher" changeset="7811715">
    <nd ref="262688498"/>
    <nd ref="715951566"/>
    <nd ref="26852251"/>
    <nd ref="285906866"/>
    <nd ref="1238398374"/>
    <nd ref="26852254"/>
    <nd ref="193212345"/>
    <nd ref="285906093"/>
    <nd ref="193212346"/>
    <tag k="highway" v="secondary"/>
    <tag k="maxspeed" v="50"/>
    <tag k="name" v="Mecumstraße"/>
    <tag k="oneway" v="yes"/>
    <tag k="ref" v="L 52"/>
  </way>
  <way id="18725728" version="17" timestamp="2011-12-28T19:02:34Z" uid="12614" user="rabenkind" changeset="10229204">
    <nd ref="262688498"/>
    <nd ref="715951566"/>
    <nd ref="26852251"/>
    <nd ref="285906866"/>
    <nd ref="1238398374"/>
    <nd ref="26852254"/>
    <nd ref="193212345"/>
    <nd ref="1565843598"/>
    <nd ref="193212346"/>
    <tag k="highway" v="secondary"/>
    <tag k="maxspeed" v="50"/>
    <tag k="name" v="Mecumstraße"/>
    <tag k="oneway" v="yes"/>
    <tag k="ref" v="L 52"/>
  </way>
  <way id="18725728" version="18" timestamp="2011-12-31T14:44:49Z" uid="12614" user="rabenkind" changeset="10255397"/>
</osm>
