<?xml version='1.0' encoding='UTF-8'?>
<osm version="0.6" generator="libosmium/2.20.0">
  <way id="18727800" version="17" timestamp="2010-05-01T10:55:07Z" uid="151899" user="Bikeman2000" changeset="4573595">
    <nd ref="30368968"/>
    <nd ref="715195642"/>
    <nd ref="193235611"/>
    <nd ref="368890702"/>
    <nd ref="193235613"/>
    <nd ref="473713074"/>
    <tag k="highway" v="secondary"/>
    <tag k="name" v="Hofgartenstraße"/>
    <tag k="oneway" v="yes"/>
    <tag k="ref" v="L 55"/>
  </way>
  <way id="18727800" version="18" timestamp="2010-05-02T08:45:21Z" uid="151899" user="Bikeman2000" changeset="4582130">
    <nd ref="30368968"/>
    <nd ref="716674203"/>
    <nd ref="715195642"/>
    <nd ref="716674206"/>
    <nd ref="716674209"/>
    <nd ref="193235611"/>
    <nd ref="368890702"/>
    <nd ref="716674212"/>
    <nd ref="716674216"/>
    <nd ref="193235613"/>
    <nd ref="473713074"/>
    <tag k="highway" v="secondary"/>
    <tag k="name" v="Hofgartenstraße"/>
    <tag k="oneway" v="yes"/>
    <tag k="ref" v="L 55"/>
  </way>
  <way id="18727800" version="19" timestamp="2010-08-04T07:28:54Z" uid="311038" user="PStieler" changeset="5396317">
    <nd ref="30368968"/>
    <nd ref="716674203"/>
    <nd ref="715195642"/>
    <nd ref="716674206"/>
    <nd ref="716674209"/>
    <nd ref="193235611"/>
    <nd ref="845663911"/>
    <nd ref="716674212"/>
    <nd ref="716674216"/>
    <nd ref="193235613"/>
    <nd ref="473713074"/>
    <tag k="highway" v="secondary"/>
    <tag k="name" v="Hofgartenstraße"/>
    <tag k="oneway" v="yes"/>
    <tag k="ref" v="L 55"/>
  </way>
  <way id="18727800" version="20" timestamp="2010-08-13T05:06:04Z" uid="13712" user="TimG" changeset="5478636">
    <nd ref="30368968"/>
    <nd ref="716674203"/>
    <nd ref="715195642"/>
    <nd ref="716674206"/>
    <nd ref="716674209"/>
    <nd ref="193235611"/>
    <nd ref="845663911"/>
    <nd ref="716674212"/>
    <nd ref="716674216"/>
    <nd ref="193235613"/>
    <nd ref="854479524"/>
    <nd ref="473713074"/>
    <tag k="highway" v="secondary"/>
    <tag k="name" v="Hofgartenstraße"/>
    <tag k="oneway" v="yes"/>
    <tag k="ref" v="L 55"/>
  </way>
  <way id="18727800" version="21" timestamp="2011-01-12T19:24:15Z" uid="18130" user="black_bike" changeset="6950501">
    <nd ref="30368968"/>
    <nd ref="716674203"/>
    <nd ref="715195642"/>
    <nd ref="716674206"/>
    <nd ref="716674209"/>
    <nd ref="193235611"/>
    <nd ref="845663911"/>
    <nd ref="716674212"/>
    <nd ref="716674216"/>
    <nd ref="193235613"/>
    <nd ref="854479524"/>
    <nd ref="473713074"/>
    <tag k="highway" v="secondary"/>
    <tag k="lit" v="yes"/>
    <tag k="lit_by_gaslight" v="no"/>
    <tag k="name" v="Hofgartenstraße"/>
    <tag k="oneway" v="yes"/>
    <tag k="ref" v="L 55"/>
    <tag k="surface" v="asphalt"/>
  </way>
  <way id="18727800" version="22" timestamp="2011-06-08T20:54:36Z" uid="105839" user="jotzt" changeset="8383637">
    <nd ref="30368968"/>
    <nd ref="716674203"/>
    <nd ref="715195642"/>
    <nd ref="716674206"/>
    <nd ref="716674209"/>
    <nd ref="193235611"/>
    <nd ref="845663911"/>
    <nd ref="716674212"/>
    <nd ref="716674216"/>
    <nd ref="193235613"/>
    <nd ref="854479524"/>
    <nd ref="854479525"/>
    <nd ref="473713074"/>
    <tag k="highway" v="secondary"/>
    <tag k="lit" v="yes"/>
    <tag k="lit_by_gaslight" v="no"/>
    <tag k="name" v="Hofgartenstraße"/>
    <tag k="oneway" v="yes"/>
    <tag k="ref" v="L 55"/>
    <tag k="surface" v="asphalt"/>
  </way>
  <way id="18727800" version="23" timestamp="2011-06-08T21:12:14Z" uid="105839" user="jotzt" changeset="8383779">
    <nd ref="30368968"/>
    <nd ref="716674203"/>
    <nd ref="716674209"/>
    <nd ref="193235611"/>
    <nd ref="845663911"/>
    <nd ref="716674212"/>
    <nd ref="716674216"/>
    <nd ref="193235613"/>
    <nd ref="854479525"/>
    <nd ref="473713074"/>
    <tag k="highway" v="secondary"/>
    <tag k="lit" v="yes"/>
    <tag k="lit_by_gaslight" v="no"/>
    <tag k="name" v="Hofgartenstraße"/>
    <tag k="oneway" v="yes"/>
    <tag k="ref" v="L 55"/>
    <tag k="surface" v="asphalt"/>
  </way>
  <way id="18727800" version="24" timestamp="2012-01-14T06:53:03Z" uid="173844" user="Antikalk" changeset="10384997"/>
</osm>
