<?xml version='1.0' encoding='UTF-8'?>
<osm version="0.6" generator="libosmium/2.20.0">
  <way id="18780145" version="4" timestamp="2010-02-15T10:48:44Z" uid="74617" user="JohnSmith" changeset="3881940">
    <nd ref="193946998"/>
    <nd ref="193942827"/>
    <nd ref="193946999"/>
    <nd ref="193947000"/>
    <nd ref="193944931"/>
    <tag k="highway" v="residential"/>
    <tag k="maxspeed" v="50"/>
    <tag k="name" v="Resthaven Street"/>
  </way>
  <way id="18780145" version="5" timestamp="2012-01-15T19:25:27Z" uid="147510" user="woodpeck_fixbot" changeset="10400850">
    <nd ref="193946998"/>
    <nd ref="193942827"/>
    <nd ref="193946999"/>
    <nd ref="193947000"/>
    <nd ref="193944931"/>
    <tag k="highway" v="residential"/>
    <tag k="name" v="Resthaven Street"/>
  </way>
  <way id="18780258" version="4" timestamp="2008-08-14T21:04:31Z" uid="6975" user="ulfl" changeset="264731">
    <nd ref="193713599"/>
    <nd ref="193713602"/>
    <tag k="highway" v="unclassified"/>
    <tag k="name" v="route du Pavé de Meudon"/>
    <tag k="noexit" v="yes"/>
  </way>
  <way id="18780258" version="5" timestamp="2009-01-02T13:24:48Z" uid="81170" user="Beteille" changeset="708199">
    <nd ref="193713599"/>
    <nd ref="193713602"/>
    <tag k="created_by" v="Potlatch 0.10f"/>
    <tag k="highway" v="unclassified"/>
    <tag k="name" v="Route du Pavé de Meudon"/>
    <tag k="noexit" v="yes"/>
  </way>
  <way id="18780145" version="6" timestamp="2012-07-20T04:10:42Z" uid="722137" user="OSMF Redaction Account" changeset="12360191"/>
</osm>
