<?xml version='1.0' encoding='UTF-8'?>
<osm version="0.6" generator="libosmium/2.20.0">
  <way id="18816166" version="23" timestamp="2010-03-27T23:26:42Z" uid="20587" user="balrog-kun" changeset="4250871">
    <nd ref="123040245"/>
    <nd ref="338393309"/>
    <nd ref="430828011"/>
    <nd ref="338393310"/>
    <nd ref="430828014"/>
    <nd ref="338393117"/>
    <tag k="highway" v="trunk"/>
    <tag k="name" v="Pacific Coast Highway"/>
    <tag k="oneway" v="yes"/>
    <tag k="ref" v="CA 1"/>
    <tag k="tiger:cfcc" v="A15"/>
    <tag k="tiger:county" v="Los Angeles, CA"/>
    <tag k="tiger:name_base" v="I-10"/>
    <tag k="tiger:name_base_1" v="Santa Monica"/>
    <tag k="tiger:name_type_1" v="Fwy"/>
    <tag k="tiger:separated" v="yes"/>
    <tag k="tiger:source" v="tiger_import_dch_v0.6_20070809"/>
    <tag k="tiger:tlid" v="142455990:141569704:142674039:142449263:142449264:141764437:141764439:142674036:141764401:142449260:142449261:141568624:141802576:141802578:141569753:141806682:141570056:141570082:141817241:141570093:141806676:141806677:141570168:141570169:141570095:14244"/>
  </way>
  <way id="18816166" version="24" timestamp="2010-08-18T04:26:16Z" uid="82317" user="AM909" changeset="5523234">
    <nd ref="123040245"/>
    <nd ref="338393309"/>
    <nd ref="430828011"/>
    <tag k="alt_name" v="Pacific Coast Highway"/>
    <tag k="highway" v="trunk"/>
    <tag k="loc_name" v="PCH"/>
    <tag k="maxspeed" v="45 mph"/>
    <tag k="name" v="Palisades Beach Road"/>
    <tag k="oneway" v="yes"/>
    <tag k="ref" v="CA 1"/>
    <tag k="source" v="usgs_imagery"/>
    <tag k="source:maxspeed" v="survey;image"/>
    <tag k="source_ref:maxspeed" v="AM909_DSCS6371"/>
    <tag k="tiger:cfcc" v="A15"/>
    <tag k="tiger:county" v="Los Angeles, CA"/>
    <tag k="tiger:name_base" v="I-10"/>
    <tag k="tiger:name_base_1" v="Santa Monica"/>
    <tag k="tiger:name_type_1" v="Fwy"/>
    <tag k="tiger:separated" v="yes"/>
    <tag k="tiger:source" v="tiger_import_dch_v0.6_20070809"/>
    <tag k="tiger:tlid" v="142455990:141569704:142674039:142449263:142449264:141764437:141764439:142674036:141764401:142449260:142449261:141568624:141802576:141802578:141569753:141806682:141570056:141570082:141817241:141570093:141806676:141806677:141570168:141570169:141570095:14244"/>
  </way>
  <way id="18816166" version="25" timestamp="2010-08-19T01:51:24Z" uid="82317" user="AM909" changeset="5531975">
    <nd ref="123040245"/>
    <nd ref="338393309"/>
    <nd ref="430828011"/>
    <tag k="alt_name" v="Pacific Coast Highway"/>
    <tag k="highway" v="trunk"/>
    <tag k="lanes" v="3"/>
    <tag k="loc_name" v="PCH"/>
    <tag k="maxspeed" v="45 mph"/>
    <tag k="name" v="Palisades Beach Road"/>
    <tag k="official_name" v="Los Angeles County Vietnam Veterans Memorial Highway"/>
    <tag k="oneway" v="yes"/>
    <tag k="ref" v="CA 1"/>
    <tag k="source" v="usgs_imagery"/>
    <tag k="source:lanes" v="usgs_imagery"/>
    <tag k="source:maxspeed" v="survey;image"/>
    <tag k="source_ref:maxspeed" v="AM909_DSCS6371"/>
    <tag k="tiger:cfcc" v="A15"/>
    <tag k="tiger:county" v="Los Angeles, CA"/>
    <tag k="tiger:name_base" v="I-10"/>
    <tag k="tiger:name_base_1" v="Santa Monica"/>
    <tag k="tiger:name_type_1" v="Fwy"/>
    <tag k="tiger:separated" v="yes"/>
    <tag k="tiger:source" v="tiger_import_dch_v0.6_20070809"/>
    <tag k="tiger:tlid" v="142455990:141569704:142674039:142449263:142449264:141764437:141764439:142674036:141764401:142449260:142449261:141568624:141802576:141802578:141569753:141806682:141570056:141570082:141817241:141570093:141806676:141806677:141570168:141570169:141570095:14244"/>
  </way>
  <way id="18816166" version="26" timestamp="2011-05-29T01:23:58Z" uid="3392" user="SimMoonXP" changeset="8277017">
    <nd ref="123040245"/>
    <nd ref="338393309"/>
    <nd ref="430828011"/>
    <tag k="alt_name" v="Pacific Coast Highway"/>
    <tag k="highway" v="motorway"/>
    <tag k="lanes" v="3"/>
    <tag k="loc_name" v="PCH"/>
    <tag k="maxspeed" v="45 mph"/>
    <tag k="name" v="Palisades Beach Road"/>
    <tag k="official_name" v="Los Angeles County Vietnam Veterans Memorial Highway"/>
    <tag k="oneway" v="yes"/>
    <tag k="ref" v="CA 1"/>
    <tag k="source" v="usgs_imagery"/>
    <tag k="source:lanes" v="usgs_imagery"/>
    <tag k="source:maxspeed" v="survey;image"/>
    <tag k="source_ref:maxspeed" v="AM909_DSCS6371"/>
    <tag k="tiger:cfcc" v="A15"/>
    <tag k="tiger:county" v="Los Angeles, CA"/>
    <tag k="tiger:name_base" v="I-10"/>
    <tag k="tiger:name_base_1" v="Santa Monica"/>
    <tag k="tiger:name_type_1" v="Fwy"/>
    <tag k="tiger:separated" v="yes"/>
    <tag k="tiger:source" v="tiger_import_dch_v0.6_20070809"/>
    <tag k="tiger:tlid" v="142455990:141569704:142674039:142449263:142449264:141764437:141764439:142674036:141764401:142449260:142449261:141568624:141802576:141802578:141569753:141806682:141570056:141570082:141817241:141570093:141806676:141806677:141570168:141570169:141570095:14244"/>
  </way>
  <way id="18816166" version="27" timestamp="2012-01-31T21:30:25Z" uid="207745" user="NE2" changeset="10552097"/>
</osm>
