<?xml version='1.0' encoding='UTF-8'?>
<osm version="0.6" generator="libosmium/2.20.0">
  <way id="18825244" version="1" timestamp="2007-12-28T21:13:33Z" uid="6454" user="B10xxx" changeset="457846">
    <nd ref="194466715"/>
    <nd ref="194466720"/>
    <nd ref="194466726"/>
    <nd ref="194466730"/>
    <nd ref="194466715"/>
    <tag k="created_by" v="JOSM"/>
    <tag k="leisure" v="pitch"/>
  </way>
  <way id="18825244" version="2" timestamp="2008-01-16T02:50:58Z" uid="6454" user="B10xxx" changeset="648571">
    <nd ref="194466715"/>
    <nd ref="194466720"/>
    <nd ref="194466726"/>
    <nd ref="194466730"/>
    <nd ref="194466715"/>
    <tag k="created_by" v="Potlatch 0.6b"/>
    <tag k="leisure" v="pitch"/>
    <tag k="sport" v="soccer"/>
  </way>
  <way id="18825244" version="3" timestamp="2009-11-16T03:02:15Z" uid="16038" user="krysst" changeset="3128980">
    <nd ref="194466715"/>
    <nd ref="194466720"/>
    <nd ref="194466726"/>
    <nd ref="194466730"/>
    <nd ref="194466715"/>
    <tag k="leisure" v="pitch"/>
    <tag k="sport" v="soccer"/>
  </way>
  <way id="18825244" version="4" timestamp="2012-03-06T02:05:49Z" uid="99151" user="quicky" changeset="10886434"/>
  <way id="18825626" version="1" timestamp="2007-12-28T21:17:16Z" uid="3451" user="sascha_silbe" changeset="453094">
    <nd ref="28150362"/>
    <nd ref="28150390"/>
    <tag k="created_by" v="JOSM"/>
    <tag k="highway" v="secondary"/>
    <tag k="oneway" v="true"/>
    <tag k="source" v="survey"/>
  </way>
  <way id="18825626" version="2" timestamp="2009-01-07T15:31:51Z" uid="57645" user="KartoGrapHiti" changeset="754048">
    <nd ref="28150362"/>
    <nd ref="28150390"/>
    <tag k="created_by" v="Potlatch 0.10f"/>
    <tag k="highway" v="secondary"/>
    <tag k="oneway" v="true"/>
    <tag k="source" v="survey"/>
  </way>
  <way id="18825626" version="3" timestamp="2009-04-17T01:05:01Z" uid="103885" user="logicbot" changeset="603450">
    <nd ref="28150362"/>
    <nd ref="28150390"/>
    <tag k="created_by" v="Potlatch 0.10f"/>
    <tag k="highway" v="secondary"/>
    <tag k="oneway" v="yes"/>
    <tag k="source" v="survey"/>
  </way>
  <way id="18825626" version="4" timestamp="2010-11-12T13:04:30Z" uid="57645" user="KartoGrapHiti" changeset="6350595">
    <nd ref="28150362"/>
    <nd ref="28150390"/>
    <tag k="highway" v="secondary"/>
    <tag k="oneway" v="yes"/>
    <tag k="source" v="survey"/>
  </way>
  <way id="18825626" version="5" timestamp="2011-10-30T12:32:34Z" uid="57645" user="KartoGrapHiti" changeset="9693186">
    <nd ref="28150362"/>
    <nd ref="28150390"/>
    <tag k="footway" v="no"/>
    <tag k="highway" v="secondary"/>
    <tag k="oneway" v="yes"/>
    <tag k="source" v="survey"/>
  </way>
  <way id="18825629" version="1" timestamp="2007-12-28T21:17:18Z" uid="3451" user="sascha_silbe" changeset="453094">
    <nd ref="194471066"/>
    <nd ref="29526478"/>
    <tag k="created_by" v="JOSM"/>
    <tag k="highway" v="secondary"/>
    <tag k="maxspeed" v="70"/>
    <tag k="name" v="Heuchelheimer Straße"/>
    <tag k="oneway" v="true"/>
  </way>
  <way id="18825629" version="2" timestamp="2009-01-07T15:33:05Z" uid="57645" user="KartoGrapHiti" changeset="754048"/>
  <way id="18825969" version="1" timestamp="2007-12-28T21:20:49Z" uid="3451" user="sascha_silbe" changeset="453094">
    <nd ref="30006043"/>
    <nd ref="30006044"/>
    <nd ref="30401122"/>
    <nd ref="30006045"/>
    <nd ref="30006046"/>
    <nd ref="30006047"/>
    <nd ref="30006048"/>
    <nd ref="30006049"/>
    <nd ref="30006050"/>
    <nd ref="30006051"/>
    <nd ref="30006052"/>
    <nd ref="30272144"/>
    <nd ref="30006053"/>
    <nd ref="30006054"/>
    <nd ref="30006055"/>
    <nd ref="30007920"/>
    <tag k="created_by" v="JOSM"/>
    <tag k="highway" v="secondary"/>
    <tag k="name" v="Marktstraße"/>
    <tag k="ref" v="L3020"/>
  </way>
  <way id="18825969" version="2" timestamp="2008-05-14T16:51:36Z" uid="18141" user="Hobby Navigator" changeset="445262">
    <nd ref="30006043"/>
    <nd ref="30006044"/>
    <nd ref="30401122"/>
    <nd ref="30006047"/>
    <nd ref="30006048"/>
    <nd ref="30006050"/>
    <nd ref="30006052"/>
    <nd ref="30272144"/>
    <nd ref="30006053"/>
    <nd ref="30006054"/>
    <nd ref="30006055"/>
    <nd ref="30007920"/>
    <tag k="created_by" v="Potlatch 0.9a"/>
    <tag k="highway" v="secondary"/>
    <tag k="name" v="Marktstraße"/>
    <tag k="ref" v="L3020"/>
  </way>
  <way id="18825969" version="3" timestamp="2008-06-08T09:23:04Z" uid="42671" user="u_k" changeset="102799">
    <nd ref="30006043"/>
    <nd ref="30006044"/>
    <nd ref="269129493"/>
    <nd ref="30401122"/>
    <nd ref="30006047"/>
    <nd ref="30006048"/>
    <nd ref="30006050"/>
    <nd ref="30006052"/>
    <nd ref="30272144"/>
    <nd ref="30006053"/>
    <nd ref="30006054"/>
    <nd ref="30006055"/>
    <nd ref="30007920"/>
    <tag k="created_by" v="Potlatch 0.9a"/>
    <tag k="highway" v="secondary"/>
    <tag k="name" v="Marktstraße"/>
    <tag k="ref" v="L3020"/>
  </way>
  <way id="18825969" version="4" timestamp="2008-07-22T07:17:23Z" uid="18141" user="Hobby Navigator" changeset="565537">
    <nd ref="30006043"/>
    <nd ref="30006044"/>
    <nd ref="269129493"/>
    <nd ref="30401122"/>
    <nd ref="30006047"/>
    <nd ref="30006048"/>
    <nd ref="30006050"/>
    <nd ref="30006052"/>
    <nd ref="30272144"/>
    <nd ref="30006053"/>
    <nd ref="30006054"/>
    <nd ref="30006055"/>
    <nd ref="30007920"/>
    <tag k="created_by" v="Potlatch 0.10"/>
    <tag k="highway" v="secondary"/>
    <tag k="name" v="Marktstraße"/>
    <tag k="ref" v="L 3020"/>
  </way>
  <way id="18825969" version="5" timestamp="2008-10-12T16:00:07Z" uid="57645" user="KartoGrapHiti" changeset="290704">
    <nd ref="30006043"/>
    <nd ref="30006044"/>
    <nd ref="269129493"/>
    <nd ref="30401122"/>
    <nd ref="30006047"/>
    <nd ref="30006048"/>
    <nd ref="30006050"/>
    <nd ref="30006052"/>
    <nd ref="30272144"/>
    <nd ref="30006053"/>
    <nd ref="30006054"/>
    <nd ref="30006055"/>
    <nd ref="30007920"/>
    <tag k="created_by" v="Potlatch 0.10d"/>
    <tag k="highway" v="secondary"/>
    <tag k="name" v="Marktstraße"/>
    <tag k="ref" v="L 3020"/>
  </way>
  <way id="18825969" version="6" timestamp="2008-11-09T20:10:37Z" uid="57645" user="KartoGrapHiti" changeset="725766">
    <nd ref="30006043"/>
    <nd ref="30006044"/>
    <nd ref="269129493"/>
    <nd ref="30401122"/>
    <nd ref="30006047"/>
    <nd ref="30006048"/>
    <nd ref="310874251"/>
    <nd ref="30006050"/>
    <nd ref="30006052"/>
    <nd ref="30272144"/>
    <nd ref="30006053"/>
    <nd ref="30006054"/>
    <nd ref="30006055"/>
    <nd ref="30007920"/>
    <tag k="created_by" v="Potlatch 0.10f"/>
    <tag k="highway" v="secondary"/>
    <tag k="name" v="Marktstraße"/>
    <tag k="ref" v="L 3020"/>
  </way>
  <way id="18825969" version="7" timestamp="2009-02-13T17:33:35Z" uid="57645" user="KartoGrapHiti" changeset="397587">
    <nd ref="30006043"/>
    <nd ref="30006044"/>
    <nd ref="269129493"/>
    <nd ref="30401122"/>
    <nd ref="30006047"/>
    <nd ref="30006048"/>
    <nd ref="310874251"/>
    <tag k="created_by" v="Potlatch 0.10f"/>
    <tag k="highway" v="secondary"/>
    <tag k="name" v="Marktstraße"/>
    <tag k="ref" v="L 3020"/>
  </way>
  <way id="18825969" version="8" timestamp="2009-05-18T10:05:06Z" uid="57645" user="KartoGrapHiti" changeset="1234840">
    <nd ref="30006043"/>
    <nd ref="30006044"/>
    <nd ref="269129493"/>
    <nd ref="30401122"/>
    <nd ref="30006047"/>
    <nd ref="30006048"/>
    <nd ref="310874251"/>
    <tag k="created_by" v="Potlatch 0.10f"/>
    <tag k="highway" v="secondary"/>
    <tag k="name" v="Marktstraße"/>
    <tag k="ref" v="L 3020"/>
    <tag k="surface" v="asphalt"/>
  </way>
  <way id="18825969" version="9" timestamp="2010-09-28T15:30:02Z" uid="316582" user="Lurchi" changeset="5904789">
    <nd ref="30006043"/>
    <nd ref="30006044"/>
    <nd ref="269129493"/>
    <nd ref="30401122"/>
    <nd ref="30006047"/>
    <nd ref="30006048"/>
    <nd ref="310874251"/>
    <tag k="highway" v="secondary"/>
    <tag k="maxspeed" v="50"/>
    <tag k="name" v="Marktstraße"/>
    <tag k="ref" v="L 3020"/>
    <tag k="surface" v="asphalt"/>
  </way>
  <way id="18825969" version="10" timestamp="2011-02-26T16:54:08Z" uid="6879" user="Longbow4u" changeset="7401745">
    <nd ref="30006043"/>
    <nd ref="30006044"/>
    <nd ref="269129493"/>
    <nd ref="30401122"/>
    <nd ref="30006047"/>
    <nd ref="30006048"/>
    <nd ref="310874251"/>
    <tag k="highway" v="secondary"/>
    <tag k="maxspeed" v="50"/>
    <tag k="name" v="Marktstraße"/>
    <tag k="postal_code" v="35452"/>
    <tag k="postal_code:country" v="DE"/>
    <tag k="ref" v="L 3020"/>
    <tag k="surface" v="asphalt"/>
  </way>
  <way id="18825969" version="11" timestamp="2011-03-28T16:44:56Z" uid="57645" user="KartoGrapHiti" changeset="7698532">
    <nd ref="30006043"/>
    <nd ref="30006044"/>
    <nd ref="269129493"/>
    <nd ref="30006047"/>
    <nd ref="30006048"/>
    <nd ref="310874251"/>
    <tag k="highway" v="secondary"/>
    <tag k="maxspeed" v="50"/>
    <tag k="name" v="Marktstraße"/>
    <tag k="postal_code" v="35452"/>
    <tag k="postal_code:country" v="DE"/>
    <tag k="ref" v="L 3020"/>
    <tag k="surface" v="asphalt"/>
  </way>
  <way id="18825969" version="12" timestamp="2011-03-28T16:48:34Z" uid="57645" user="KartoGrapHiti" changeset="7698582">
    <nd ref="30006043"/>
    <nd ref="30006044"/>
    <nd ref="269129493"/>
    <nd ref="1223284749"/>
    <nd ref="30006047"/>
    <nd ref="30006048"/>
    <nd ref="310874251"/>
    <tag k="highway" v="secondary"/>
    <tag k="maxspeed" v="50"/>
    <tag k="name" v="Marktstraße"/>
    <tag k="postal_code" v="35452"/>
    <tag k="postal_code:country" v="DE"/>
    <tag k="ref" v="L 3020"/>
    <tag k="surface" v="asphalt"/>
  </way>
  <way id="18825969" version="13" timestamp="2011-10-31T07:53:52Z" uid="57645" user="KartoGrapHiti" changeset="9700782">
    <nd ref="30006043"/>
    <nd ref="30006044"/>
    <nd ref="269129493"/>
    <nd ref="1223284749"/>
    <nd ref="30006047"/>
    <nd ref="30006048"/>
    <nd ref="310874251"/>
    <tag k="highway" v="secondary"/>
    <tag k="lit" v="yes"/>
    <tag k="maxspeed" v="50"/>
    <tag k="name" v="Marktstraße"/>
    <tag k="postal_code" v="35452"/>
    <tag k="postal_code:country" v="DE"/>
    <tag k="ref" v="L 3020"/>
    <tag k="surface" v="asphalt"/>
  </way>
  <way id="18825969" version="14" timestamp="2012-01-27T21:05:44Z" uid="57645" user="KartoGrapHiti" changeset="10516366"/>
  <way id="18825626" version="6" timestamp="2012-04-15T06:04:59Z" uid="315015" user="WernerP" changeset="11306306"/>
</osm>
