<?xml version='1.0' encoding='UTF-8'?>
<osm version="0.6" generator="libosmium/2.20.0">
  <way id="18828634" version="2" timestamp="2008-09-14T22:35:48Z" uid="6975" user="ulfl" changeset="640534">
    <nd ref="95791474"/>
    <nd ref="95791476"/>
    <nd ref="95791477"/>
    <nd ref="95791478"/>
    <nd ref="95791479"/>
    <nd ref="95791480"/>
    <nd ref="95791481"/>
    <nd ref="95791483"/>
    <nd ref="44020070"/>
    <tag k="highway" v="road"/>
    <tag k="name" v="&amp;apos;t Spiek"/>
  </way>
  <way id="18828634" version="3" timestamp="2009-05-23T11:03:38Z" uid="70696" user="xybot" changeset="1293006">
    <nd ref="95791474"/>
    <nd ref="95791476"/>
    <nd ref="95791477"/>
    <nd ref="95791478"/>
    <nd ref="95791479"/>
    <nd ref="95791480"/>
    <nd ref="95791481"/>
    <nd ref="95791483"/>
    <nd ref="44020070"/>
    <tag k="highway" v="road"/>
    <tag k="name" v="&apos;t Spiek"/>
  </way>
  <way id="18828634" version="4" timestamp="2010-02-06T18:08:24Z" uid="200259" user="gpsfred" changeset="3807468">
    <nd ref="95791474"/>
    <nd ref="95791476"/>
    <nd ref="95791477"/>
    <nd ref="95791478"/>
    <nd ref="95791479"/>
    <nd ref="95791480"/>
    <nd ref="95791481"/>
    <nd ref="95791483"/>
    <nd ref="631794977"/>
    <tag k="highway" v="road"/>
    <tag k="name" v="&apos;t Spiek"/>
  </way>
  <way id="18828634" version="5" timestamp="2010-04-01T20:55:48Z" uid="236926" user="cpreuss" changeset="4298041">
    <nd ref="95791474"/>
    <nd ref="95791476"/>
    <nd ref="95791477"/>
    <nd ref="95791478"/>
    <nd ref="95791479"/>
    <nd ref="95791480"/>
    <nd ref="95791481"/>
    <nd ref="95791483"/>
    <nd ref="631794977"/>
    <tag k="highway" v="unclassified"/>
    <tag k="name" v="&apos;t Spiek"/>
  </way>
  <way id="18828634" version="6" timestamp="2010-04-06T11:33:43Z" uid="236926" user="cpreuss" changeset="4342957">
    <nd ref="95791474"/>
    <nd ref="95791476"/>
    <nd ref="95791477"/>
    <nd ref="95791478"/>
    <nd ref="95791479"/>
    <nd ref="95791480"/>
    <nd ref="95791481"/>
    <nd ref="95791483"/>
    <nd ref="631794977"/>
    <tag k="highway" v="unclassified"/>
    <tag k="name" v="Holl채nderdeich"/>
    <tag k="note" v="&apos;t Spiek ist keine offizielle Bezeichnung"/>
  </way>
  <way id="18828634" version="7" timestamp="2010-09-05T17:22:07Z" uid="181994" user="goppermann" changeset="5690138">
    <nd ref="95791474"/>
    <nd ref="95791476"/>
    <nd ref="95791477"/>
    <nd ref="897630346"/>
    <nd ref="897630197"/>
    <nd ref="897630273"/>
    <tag k="highway" v="unclassified"/>
    <tag k="name" v="Holl채nderdeich"/>
    <tag k="note" v="&apos;t Spiek ist keine offizielle Bezeichnung"/>
  </way>
  <way id="18828635" version="2" timestamp="2008-09-14T22:35:48Z" uid="6975" user="ulfl" changeset="640534">
    <nd ref="95791473"/>
    <nd ref="95791474"/>
    <tag k="bridge" v="true"/>
    <tag k="highway" v="road"/>
    <tag k="layer" v="1"/>
    <tag k="name" v="&amp;apos;t Spiek"/>
  </way>
  <way id="18828635" version="3" timestamp="2009-04-17T01:05:02Z" uid="103885" user="logicbot" changeset="603450">
    <nd ref="95791473"/>
    <nd ref="95791474"/>
    <tag k="bridge" v="yes"/>
    <tag k="highway" v="road"/>
    <tag k="layer" v="1"/>
    <tag k="name" v="&apos;t Spiek"/>
  </way>
  <way id="18828635" version="4" timestamp="2010-04-01T20:55:48Z" uid="236926" user="cpreuss" changeset="4298041">
    <nd ref="95791473"/>
    <nd ref="95791474"/>
    <tag k="bridge" v="yes"/>
    <tag k="highway" v="unclassified"/>
    <tag k="layer" v="1"/>
    <tag k="name" v="&apos;t Spiek"/>
  </way>
  <way id="18828635" version="5" timestamp="2010-04-06T11:25:28Z" uid="236926" user="cpreuss" changeset="4342886">
    <nd ref="95791473"/>
    <nd ref="95791474"/>
    <tag k="bridge" v="yes"/>
    <tag k="highway" v="unclassified"/>
    <tag k="layer" v="1"/>
    <tag k="name" v="Holl채nderdeich"/>
  </way>
  <way id="18828635" version="6" timestamp="2010-04-06T11:33:43Z" uid="236926" user="cpreuss" changeset="4342957">
    <nd ref="95791473"/>
    <nd ref="95791474"/>
    <tag k="bridge" v="yes"/>
    <tag k="highway" v="unclassified"/>
    <tag k="layer" v="1"/>
    <tag k="name" v="Holl채nderdeich"/>
    <tag k="note" v="&apos;t Spiek ist keine offizielle Bezeichnung"/>
  </way>
</osm>
