<?xml version='1.0' encoding='UTF-8'?>
<osm version="0.6" generator="libosmium/2.20.0">
  <way id="18835101" version="1" timestamp="2007-12-28T23:27:38Z" uid="3451" user="sascha_silbe" changeset="466066">
    <nd ref="31881413"/>
    <nd ref="191084308"/>
    <nd ref="194612183"/>
    <nd ref="194612330"/>
    <tag k="created_by" v="JOSM"/>
    <tag k="highway" v="residential"/>
    <tag k="source" v="survey"/>
  </way>
  <way id="18835101" version="2" timestamp="2008-07-17T18:13:43Z" uid="18141" user="Hobby Navigator" changeset="514554">
    <nd ref="31881413"/>
    <nd ref="191084308"/>
    <nd ref="194612183"/>
    <nd ref="194612330"/>
    <tag k="created_by" v="JOSM"/>
    <tag k="highway" v="residential"/>
    <tag k="name" v="Hollersberg"/>
    <tag k="source" v="survey"/>
  </way>
  <way id="18835101" version="3" timestamp="2011-11-20T19:19:59Z" uid="57645" user="KartoGrapHiti" changeset="9888634">
    <nd ref="31881413"/>
    <nd ref="191084308"/>
    <nd ref="194612183"/>
    <nd ref="194612330"/>
    <tag k="highway" v="residential"/>
    <tag k="name" v="Hollersberg"/>
    <tag k="source" v="survey"/>
  </way>
  <way id="18835101" version="4" timestamp="2011-11-25T01:29:51Z" uid="316582" user="Lurchi" changeset="9939463">
    <nd ref="31881413"/>
    <nd ref="1516059774"/>
    <nd ref="1516059787"/>
    <nd ref="194612330"/>
    <tag k="highway" v="residential"/>
    <tag k="name" v="Hollersberg"/>
    <tag k="source" v="survey"/>
  </way>
  <way id="18835101" version="5" timestamp="2011-11-29T17:47:35Z" uid="316582" user="Lurchi" changeset="9990166"/>
  <way id="18835102" version="1" timestamp="2007-12-28T23:27:38Z" uid="3451" user="sascha_silbe" changeset="466066">
    <nd ref="30471017"/>
    <nd ref="194612118"/>
    <tag k="created_by" v="JOSM"/>
    <tag k="highway" v="residential"/>
    <tag k="maxspeed" v="30"/>
    <tag k="name" v="Waldweg"/>
    <tag k="source" v="survey"/>
  </way>
  <way id="18835102" version="2" timestamp="2009-02-15T14:44:52Z" uid="57645" user="KartoGrapHiti" changeset="466776">
    <nd ref="30471017"/>
    <nd ref="194612118"/>
    <nd ref="194612298"/>
    <nd ref="194611843"/>
    <nd ref="194611994"/>
    <tag k="created_by" v="Potlatch 0.10f"/>
    <tag k="highway" v="residential"/>
    <tag k="maxspeed" v="30"/>
    <tag k="name" v="Waldweg"/>
    <tag k="source" v="survey"/>
  </way>
  <way id="18835102" version="3" timestamp="2009-02-15T14:45:01Z" uid="57645" user="KartoGrapHiti" changeset="466776"/>
  <way id="18835103" version="1" timestamp="2007-12-28T23:27:39Z" uid="3451" user="sascha_silbe" changeset="466066">
    <nd ref="194611994"/>
    <nd ref="194612153"/>
    <tag k="created_by" v="JOSM"/>
    <tag k="highway" v="residential"/>
    <tag k="name" v="Waldweg"/>
    <tag k="source" v="survey"/>
  </way>
  <way id="18835103" version="2" timestamp="2009-02-15T14:45:00Z" uid="57645" user="KartoGrapHiti" changeset="466776">
    <nd ref="30471017"/>
    <nd ref="194612118"/>
    <nd ref="194612298"/>
    <nd ref="194611843"/>
    <nd ref="194611994"/>
    <nd ref="194612153"/>
    <tag k="created_by" v="Potlatch 0.10f"/>
    <tag k="highway" v="residential"/>
    <tag k="maxspeed" v="30"/>
    <tag k="name" v="Waldweg"/>
    <tag k="source" v="survey"/>
  </way>
  <way id="18835103" version="3" timestamp="2009-04-02T14:45:47Z" uid="57645" user="KartoGrapHiti" changeset="81416">
    <nd ref="30471017"/>
    <nd ref="194611843"/>
    <nd ref="194612153"/>
    <tag k="created_by" v="Potlatch 0.10f"/>
    <tag k="highway" v="residential"/>
    <tag k="maxspeed" v="30"/>
    <tag k="name" v="Waldweg"/>
    <tag k="source" v="survey"/>
  </way>
  <way id="18835103" version="4" timestamp="2011-11-20T19:20:11Z" uid="57645" user="KartoGrapHiti" changeset="9888634">
    <nd ref="30471017"/>
    <nd ref="194611843"/>
    <nd ref="194612153"/>
    <tag k="highway" v="residential"/>
    <tag k="maxspeed" v="30"/>
    <tag k="name" v="Waldweg"/>
    <tag k="source" v="survey"/>
  </way>
  <way id="18835103" version="5" timestamp="2012-01-27T21:23:18Z" uid="57645" user="KartoGrapHiti" changeset="10516518"/>
  <way id="18835104" version="1" timestamp="2007-12-28T23:27:39Z" uid="3451" user="sascha_silbe" changeset="466066">
    <nd ref="30471017"/>
    <nd ref="30471028"/>
    <nd ref="30471029"/>
    <nd ref="30471031"/>
    <nd ref="30471032"/>
    <nd ref="30471034"/>
    <tag k="created_by" v="JOSM"/>
    <tag k="highway" v="secondary"/>
    <tag k="name" v="Kinzenbacher Straße"/>
    <tag k="ref" v="L3045"/>
  </way>
  <way id="18835104" version="2" timestamp="2008-05-14T17:02:59Z" uid="18141" user="Hobby Navigator" changeset="445262">
    <nd ref="30471017"/>
    <nd ref="30471028"/>
    <nd ref="30471029"/>
    <nd ref="30471032"/>
    <nd ref="30471034"/>
    <tag k="created_by" v="Potlatch 0.9a"/>
    <tag k="highway" v="secondary"/>
    <tag k="name" v="Kinzenbacher Straße"/>
    <tag k="ref" v="L3045"/>
  </way>
  <way id="18835104" version="3" timestamp="2008-06-13T16:04:18Z" uid="43615" user="bmcw" changeset="149466"/>
  <way id="18835105" version="1" timestamp="2007-12-28T23:27:39Z" uid="3451" user="sascha_silbe" changeset="466066">
    <nd ref="194612118"/>
    <nd ref="194612298"/>
    <tag k="created_by" v="JOSM"/>
    <tag k="highway" v="residential"/>
    <tag k="name" v="Waldweg"/>
    <tag k="source" v="survey"/>
  </way>
  <way id="18835105" version="2" timestamp="2009-02-15T14:44:53Z" uid="57645" user="KartoGrapHiti" changeset="466776"/>
  <way id="18835107" version="1" timestamp="2007-12-28T23:27:39Z" uid="3451" user="sascha_silbe" changeset="466066">
    <nd ref="194612344"/>
    <nd ref="194611825"/>
    <nd ref="194611973"/>
    <nd ref="194612122"/>
    <tag k="created_by" v="JOSM"/>
    <tag k="highway" v="residential"/>
    <tag k="name" v="Kantstraße"/>
    <tag k="source" v="survey"/>
  </way>
  <way id="18835107" version="2" timestamp="2011-08-23T14:10:43Z" uid="316582" user="Lurchi" changeset="9104045">
    <nd ref="194612344"/>
    <nd ref="194611825"/>
    <nd ref="194611973"/>
    <nd ref="194612122"/>
    <nd ref="1409942771"/>
    <tag k="highway" v="residential"/>
    <tag k="name" v="Kantstraße"/>
    <tag k="source" v="survey"/>
  </way>
  <way id="18835107" version="3" timestamp="2011-11-20T18:26:13Z" uid="57645" user="KartoGrapHiti" changeset="9887967">
    <nd ref="194612344"/>
    <nd ref="194611825"/>
    <nd ref="194611973"/>
    <nd ref="194612122"/>
    <nd ref="1409942771"/>
    <tag k="highway" v="residential"/>
    <tag k="maxspeed" v="50"/>
    <tag k="name" v="Kantstraße"/>
    <tag k="source" v="survey"/>
  </way>
  <way id="18835107" version="4" timestamp="2011-11-29T17:47:35Z" uid="316582" user="Lurchi" changeset="9990166"/>
  <way id="18835108" version="1" timestamp="2007-12-28T23:27:40Z" uid="3451" user="sascha_silbe" changeset="466066">
    <nd ref="194612022"/>
    <nd ref="194612233"/>
    <nd ref="194612346"/>
    <nd ref="194611937"/>
    <nd ref="194611941"/>
    <nd ref="194612265"/>
    <nd ref="194612104"/>
    <nd ref="194612280"/>
    <nd ref="194611813"/>
    <nd ref="194611963"/>
    <nd ref="194611968"/>
    <nd ref="194612138"/>
    <tag k="created_by" v="JOSM"/>
    <tag k="highway" v="residential"/>
    <tag k="name" v="Heckwiese"/>
    <tag k="source" v="survey"/>
  </way>
  <way id="18835108" version="2" timestamp="2008-05-14T15:58:16Z" uid="18141" user="Hobby Navigator" changeset="445262">
    <nd ref="194612022"/>
    <nd ref="194612233"/>
    <nd ref="194612346"/>
    <nd ref="194611941"/>
    <nd ref="194612265"/>
    <nd ref="194612104"/>
    <nd ref="194612280"/>
    <nd ref="194611813"/>
    <nd ref="194611963"/>
    <nd ref="194611968"/>
    <nd ref="194612138"/>
    <tag k="created_by" v="Potlatch 0.9a"/>
    <tag k="highway" v="residential"/>
    <tag k="name" v="Heckwiese"/>
    <tag k="source" v="survey"/>
  </way>
  <way id="18835108" version="3" timestamp="2008-05-14T17:02:28Z" uid="18141" user="Hobby Navigator" changeset="445262">
    <nd ref="194612022"/>
    <nd ref="194612346"/>
    <nd ref="194611941"/>
    <nd ref="194612265"/>
    <nd ref="194612104"/>
    <nd ref="194611963"/>
    <nd ref="194611968"/>
    <nd ref="194612138"/>
    <tag k="created_by" v="Potlatch 0.9a"/>
    <tag k="highway" v="residential"/>
    <tag k="name" v="Heckwiese"/>
    <tag k="source" v="survey"/>
  </way>
  <way id="18835108" version="4" timestamp="2008-05-14T17:05:11Z" uid="18141" user="Hobby Navigator" changeset="445262">
    <nd ref="194612022"/>
    <nd ref="194612346"/>
    <nd ref="194611941"/>
    <nd ref="194612265"/>
    <nd ref="194611963"/>
    <nd ref="194611968"/>
    <nd ref="194612138"/>
    <tag k="created_by" v="Potlatch 0.9a"/>
    <tag k="highway" v="residential"/>
    <tag k="name" v="Heckwiese"/>
    <tag k="source" v="survey"/>
  </way>
  <way id="18835108" version="5" timestamp="2011-11-20T18:57:22Z" uid="57645" user="KartoGrapHiti" changeset="9888352">
    <nd ref="194612022"/>
    <nd ref="194612346"/>
    <nd ref="194611941"/>
    <nd ref="194612265"/>
    <nd ref="194611963"/>
    <nd ref="194611968"/>
    <nd ref="194612138"/>
    <tag k="highway" v="residential"/>
    <tag k="lit" v="limited"/>
    <tag k="maxspeed" v="50"/>
    <tag k="name" v="Heckwiese"/>
    <tag k="source" v="survey"/>
  </way>
  <way id="18835108" version="6" timestamp="2011-11-20T19:19:58Z" uid="57645" user="KartoGrapHiti" changeset="9888634">
    <nd ref="194612022"/>
    <nd ref="194612346"/>
    <nd ref="194611941"/>
    <nd ref="194612265"/>
    <nd ref="194611963"/>
    <nd ref="194611968"/>
    <nd ref="194612138"/>
    <tag k="highway" v="residential"/>
    <tag k="lit" v="limited"/>
    <tag k="maxspeed" v="50"/>
    <tag k="name" v="Heckwiese"/>
    <tag k="source" v="survey"/>
  </way>
  <way id="18835108" version="7" timestamp="2012-01-27T21:23:06Z" uid="57645" user="KartoGrapHiti" changeset="10516518">
    <nd ref="194612022"/>
    <nd ref="194612346"/>
    <nd ref="194611941"/>
    <nd ref="194612265"/>
    <nd ref="194611963"/>
    <nd ref="194612138"/>
    <tag k="highway" v="residential"/>
    <tag k="lit" v="limited"/>
    <tag k="maxspeed" v="50"/>
    <tag k="name" v="Heckwiese"/>
    <tag k="source" v="survey"/>
  </way>
  <way id="18835109" version="1" timestamp="2007-12-28T23:27:41Z" uid="3451" user="sascha_silbe" changeset="466066">
    <nd ref="194612222"/>
    <nd ref="194612336"/>
    <nd ref="194611847"/>
    <nd ref="194611982"/>
    <tag k="created_by" v="JOSM"/>
    <tag k="highway" v="residential"/>
    <tag k="name" v="Kastanienweg"/>
    <tag k="source" v="survey"/>
  </way>
  <way id="18835109" version="2" timestamp="2008-06-13T14:22:59Z" uid="43615" user="bmcw" changeset="149466">
    <nd ref="191084321"/>
    <nd ref="194611999"/>
    <nd ref="191084317"/>
    <nd ref="194611978"/>
    <nd ref="194611840"/>
    <nd ref="194612016"/>
    <nd ref="194612028"/>
    <nd ref="194612316"/>
    <nd ref="194612354"/>
    <nd ref="194612222"/>
    <nd ref="194612336"/>
    <nd ref="194611847"/>
    <nd ref="194611982"/>
    <tag k="created_by" v="JOSM"/>
    <tag k="highway" v="residential"/>
    <tag k="name" v="Kastanienweg"/>
    <tag k="source" v="survey"/>
  </way>
  <way id="18835109" version="3" timestamp="2008-07-17T17:57:43Z" uid="18141" user="Hobby Navigator" changeset="514554">
    <nd ref="191084321"/>
    <nd ref="194611999"/>
    <nd ref="191084317"/>
    <nd ref="194611978"/>
    <nd ref="194611840"/>
    <nd ref="194612016"/>
    <nd ref="194612028"/>
    <nd ref="194612316"/>
    <nd ref="194612354"/>
    <nd ref="194612222"/>
    <tag k="created_by" v="Potlatch 0.9c"/>
    <tag k="highway" v="residential"/>
    <tag k="name" v="Kastanienweg"/>
    <tag k="source" v="survey"/>
  </way>
  <way id="18835109" version="4" timestamp="2010-09-20T16:13:23Z" uid="316582" user="Lurchi" changeset="5830316">
    <nd ref="191084321"/>
    <nd ref="194611999"/>
    <nd ref="191084317"/>
    <nd ref="194611978"/>
    <nd ref="194611840"/>
    <nd ref="194612016"/>
    <nd ref="194612028"/>
    <nd ref="194612316"/>
    <nd ref="194612354"/>
    <nd ref="194612222"/>
    <tag k="highway" v="residential"/>
    <tag k="name" v="Sudetenstraße"/>
    <tag k="source" v="survey"/>
  </way>
  <way id="18835109" version="5" timestamp="2010-09-22T01:16:32Z" uid="316582" user="Lurchi" changeset="5842058">
    <nd ref="191084321"/>
    <nd ref="194611999"/>
    <nd ref="191084317"/>
    <nd ref="194611978"/>
    <nd ref="194611840"/>
    <nd ref="194612016"/>
    <nd ref="194612028"/>
    <nd ref="194612316"/>
    <tag k="highway" v="residential"/>
    <tag k="name" v="Sudetenstraße"/>
    <tag k="source" v="survey"/>
  </way>
  <way id="18835109" version="6" timestamp="2011-08-23T14:10:45Z" uid="316582" user="Lurchi" changeset="9104045"/>
  <way id="18835110" version="1" timestamp="2007-12-28T23:27:41Z" uid="3451" user="sascha_silbe" changeset="466066">
    <nd ref="194612307"/>
    <nd ref="194611831"/>
    <tag k="created_by" v="JOSM"/>
    <tag k="highway" v="residential"/>
    <tag k="maxspeed" v="30"/>
    <tag k="name" v="Hohlweg"/>
    <tag k="source" v="survey"/>
  </way>
  <way id="18835110" version="2" timestamp="2011-11-20T19:19:58Z" uid="57645" user="KartoGrapHiti" changeset="9888634">
    <nd ref="194612307"/>
    <nd ref="194611831"/>
    <tag k="highway" v="residential"/>
    <tag k="maxspeed" v="30"/>
    <tag k="name" v="Hohlweg"/>
    <tag k="source" v="survey"/>
  </way>
  <way id="18835111" version="1" timestamp="2007-12-28T23:27:41Z" uid="3451" user="sascha_silbe" changeset="466066">
    <nd ref="194612291"/>
    <nd ref="194611808"/>
    <nd ref="194611954"/>
    <nd ref="194612113"/>
    <nd ref="194612275"/>
    <nd ref="194611905"/>
    <nd ref="194612291"/>
    <tag k="area" v="yes"/>
    <tag k="created_by" v="JOSM"/>
    <tag k="highway" v="residential"/>
    <tag k="name" v="Bettengraben"/>
    <tag k="source" v="survey"/>
  </way>
  <way id="18835111" version="2" timestamp="2009-03-11T19:10:19Z" uid="52362" user="Cschlote" changeset="789404"/>
  <way id="18835112" version="1" timestamp="2007-12-28T23:27:42Z" uid="3451" user="sascha_silbe" changeset="466066">
    <nd ref="194611876"/>
    <nd ref="194612002"/>
    <nd ref="194612128"/>
    <nd ref="194612176"/>
    <nd ref="194612316"/>
    <tag k="created_by" v="JOSM"/>
    <tag k="highway" v="residential"/>
    <tag k="maxspeed" v="30"/>
    <tag k="name" v="Bahnhofstraße"/>
    <tag k="source" v="survey"/>
  </way>
  <way id="18835112" version="2" timestamp="2008-05-08T17:47:11Z" uid="18141" user="Hobby Navigator" changeset="367558">
    <nd ref="194611876"/>
    <nd ref="262845191"/>
    <nd ref="194612002"/>
    <nd ref="194612128"/>
    <nd ref="194612176"/>
    <nd ref="194612316"/>
    <tag k="created_by" v="JOSM"/>
    <tag k="highway" v="residential"/>
    <tag k="maxspeed" v="30"/>
    <tag k="name" v="Bahnhofstraße"/>
    <tag k="source" v="survey"/>
  </way>
  <way id="18835112" version="3" timestamp="2008-06-13T20:02:52Z" uid="43615" user="bmcw" changeset="154126">
    <nd ref="194611876"/>
    <nd ref="262845191"/>
    <nd ref="194612002"/>
    <nd ref="194612128"/>
    <nd ref="270162584"/>
    <nd ref="194612176"/>
    <nd ref="194612316"/>
    <tag k="created_by" v="JOSM"/>
    <tag k="highway" v="residential"/>
    <tag k="maxspeed" v="30"/>
    <tag k="name" v="Bahnhofstraße"/>
    <tag k="source" v="survey"/>
  </way>
  <way id="18835112" version="4" timestamp="2008-11-05T17:37:43Z" uid="18141" user="Hobby Navigator" changeset="687417">
    <nd ref="262845191"/>
    <nd ref="194612002"/>
    <nd ref="194612128"/>
    <nd ref="270162584"/>
    <nd ref="194612176"/>
    <nd ref="194612316"/>
    <tag k="created_by" v="Potlatch 0.10f"/>
    <tag k="highway" v="residential"/>
    <tag k="maxspeed" v="30"/>
    <tag k="name" v="Bahnhofstraße"/>
    <tag k="source" v="survey"/>
  </way>
  <way id="18835112" version="5" timestamp="2009-03-10T18:35:26Z" uid="52362" user="Cschlote" changeset="778821">
    <nd ref="262845191"/>
    <nd ref="358475210"/>
    <nd ref="194612002"/>
    <nd ref="358475205"/>
    <nd ref="194612128"/>
    <nd ref="270162584"/>
    <nd ref="194612176"/>
    <nd ref="194612316"/>
    <tag k="created_by" v="Potlatch 0.10f"/>
    <tag k="highway" v="residential"/>
    <tag k="maxspeed" v="30"/>
    <tag k="name" v="Bahnhofstraße"/>
    <tag k="source" v="survey"/>
  </way>
  <way id="18835112" version="6" timestamp="2010-01-10T18:35:57Z" uid="52362" user="Cschlote" changeset="3589738">
    <nd ref="262845191"/>
    <nd ref="358475210"/>
    <nd ref="194612002"/>
    <nd ref="358475205"/>
    <nd ref="194612128"/>
    <nd ref="270162584"/>
    <nd ref="611107464"/>
    <nd ref="194612176"/>
    <nd ref="194612316"/>
    <tag k="highway" v="residential"/>
    <tag k="maxspeed" v="30"/>
    <tag k="name" v="Bahnhofstraße"/>
    <tag k="source" v="survey"/>
  </way>
  <way id="18835112" version="7" timestamp="2011-08-22T23:00:54Z" uid="316582" user="Lurchi" changeset="9099138">
    <nd ref="262845191"/>
    <nd ref="358475210"/>
    <nd ref="194612002"/>
    <nd ref="358475205"/>
    <nd ref="194612128"/>
    <nd ref="270162584"/>
    <nd ref="1409128705"/>
    <nd ref="611107464"/>
    <nd ref="194612176"/>
    <nd ref="194612316"/>
    <tag k="highway" v="residential"/>
    <tag k="maxspeed" v="30"/>
    <tag k="name" v="Bahnhofstraße"/>
    <tag k="source" v="survey"/>
  </way>
  <way id="18835112" version="8" timestamp="2011-08-23T14:10:42Z" uid="316582" user="Lurchi" changeset="9104045">
    <nd ref="262845191"/>
    <nd ref="358475210"/>
    <nd ref="194612002"/>
    <nd ref="358475205"/>
    <nd ref="194612128"/>
    <nd ref="270162584"/>
    <nd ref="1409128705"/>
    <nd ref="611107464"/>
    <nd ref="194612176"/>
    <nd ref="194612316"/>
    <nd ref="1409942767"/>
    <tag k="highway" v="residential"/>
    <tag k="maxspeed" v="30"/>
    <tag k="name" v="Bahnhofstraße"/>
    <tag k="source" v="survey"/>
  </way>
  <way id="18835112" version="9" timestamp="2011-11-25T01:29:59Z" uid="316582" user="Lurchi" changeset="9939463"/>
  <way id="18835113" version="1" timestamp="2007-12-28T23:27:42Z" uid="3451" user="sascha_silbe" changeset="466066">
    <nd ref="194612212"/>
    <nd ref="194612341"/>
    <nd ref="194611887"/>
    <nd ref="194612042"/>
    <nd ref="194612057"/>
    <nd ref="194611867"/>
    <nd ref="194612265"/>
    <tag k="created_by" v="JOSM"/>
    <tag k="highway" v="residential"/>
    <tag k="name" v="Klingelgärten"/>
    <tag k="source" v="survey"/>
  </way>
  <way id="18835113" version="2" timestamp="2008-05-14T17:02:41Z" uid="18141" user="Hobby Navigator" changeset="445262">
    <nd ref="194612212"/>
    <nd ref="194612341"/>
    <nd ref="194612042"/>
    <nd ref="194611867"/>
    <nd ref="194612265"/>
    <tag k="created_by" v="Potlatch 0.9a"/>
    <tag k="highway" v="residential"/>
    <tag k="name" v="Klingelgärten"/>
    <tag k="source" v="survey"/>
  </way>
  <way id="18835113" version="3" timestamp="2011-11-20T18:57:28Z" uid="57645" user="KartoGrapHiti" changeset="9888352">
    <nd ref="194612212"/>
    <nd ref="194612341"/>
    <nd ref="194612042"/>
    <nd ref="194611867"/>
    <nd ref="194612265"/>
    <tag k="highway" v="residential"/>
    <tag k="lit" v="limited"/>
    <tag k="maxspeed" v="50"/>
    <tag k="name" v="Klingelgärten"/>
    <tag k="source" v="survey"/>
  </way>
  <way id="18835113" version="4" timestamp="2011-11-20T19:20:03Z" uid="57645" user="KartoGrapHiti" changeset="9888634">
    <nd ref="194612212"/>
    <nd ref="194612341"/>
    <nd ref="194612042"/>
    <nd ref="194611867"/>
    <nd ref="194612265"/>
    <tag k="highway" v="residential"/>
    <tag k="lit" v="limited"/>
    <tag k="maxspeed" v="50"/>
    <tag k="name" v="Klingelgärten"/>
    <tag k="source" v="survey"/>
  </way>
  <way id="18835113" version="5" timestamp="2012-01-27T21:23:18Z" uid="57645" user="KartoGrapHiti" changeset="10516518"/>
  <way id="18835114" version="1" timestamp="2007-12-28T23:27:42Z" uid="3451" user="sascha_silbe" changeset="466066">
    <nd ref="194611831"/>
    <nd ref="194612159"/>
    <nd ref="194612325"/>
    <tag k="created_by" v="JOSM"/>
    <tag k="highway" v="residential"/>
    <tag k="maxspeed" v="30"/>
    <tag k="name" v="Dreihäuser Platz"/>
    <tag k="source" v="survey"/>
  </way>
  <way id="18835114" version="2" timestamp="2008-06-12T17:30:07Z" uid="43615" user="bmcw" changeset="145826"/>
  <way id="18835115" version="1" timestamp="2007-12-28T23:27:43Z" uid="3451" user="sascha_silbe" changeset="466066">
    <nd ref="194611835"/>
    <nd ref="194611978"/>
    <tag k="created_by" v="JOSM"/>
    <tag k="highway" v="residential"/>
    <tag k="name" v="Franz-Liszt-Straße"/>
    <tag k="source" v="survey"/>
  </way>
  <way id="18835115" version="2" timestamp="2011-08-23T14:10:45Z" uid="316582" user="Lurchi" changeset="9104045"/>
  <way id="18835116" version="1" timestamp="2007-12-28T23:27:43Z" uid="3451" user="sascha_silbe" changeset="466066">
    <nd ref="30471144"/>
    <nd ref="30471148"/>
    <nd ref="30471151"/>
    <nd ref="30471155"/>
    <nd ref="30471158"/>
    <nd ref="30471160"/>
    <nd ref="30471163"/>
    <nd ref="30471166"/>
    <nd ref="30471169"/>
    <nd ref="30471172"/>
    <nd ref="30471175"/>
    <nd ref="30471178"/>
    <tag k="created_by" v="JOSM"/>
    <tag k="highway" v="secondary"/>
    <tag k="maxspeed" v="30"/>
  </way>
  <way id="18835116" version="2" timestamp="2008-05-14T17:04:55Z" uid="18141" user="Hobby Navigator" changeset="445262">
    <nd ref="30471144"/>
    <nd ref="30471151"/>
    <nd ref="30471155"/>
    <nd ref="30471158"/>
    <nd ref="30471160"/>
    <nd ref="30471163"/>
    <nd ref="30471166"/>
    <nd ref="30471169"/>
    <nd ref="30471172"/>
    <nd ref="30471178"/>
    <tag k="created_by" v="Potlatch 0.9a"/>
    <tag k="highway" v="secondary"/>
    <tag k="maxspeed" v="30"/>
  </way>
  <way id="18835116" version="3" timestamp="2008-06-09T20:03:51Z" uid="31346" user="nitrox9" changeset="112916">
    <nd ref="30471144"/>
    <nd ref="30471151"/>
    <nd ref="30471155"/>
    <nd ref="30471158"/>
    <nd ref="30471160"/>
    <nd ref="30471163"/>
    <nd ref="30471166"/>
    <nd ref="30471169"/>
    <nd ref="30471172"/>
    <nd ref="269415118"/>
    <nd ref="30471178"/>
    <tag k="created_by" v="Potlatch 0.9a"/>
    <tag k="highway" v="secondary"/>
    <tag k="maxspeed" v="30"/>
  </way>
  <way id="18835116" version="4" timestamp="2008-06-21T07:37:50Z" uid="40801" user="friedemann2811" changeset="238832">
    <nd ref="30471144"/>
    <nd ref="30471151"/>
    <nd ref="30471155"/>
    <nd ref="30471158"/>
    <nd ref="30471160"/>
    <nd ref="30471163"/>
    <nd ref="30471166"/>
    <nd ref="30471169"/>
    <nd ref="30471172"/>
    <nd ref="269415118"/>
    <tag k="created_by" v="Potlatch 0.9c"/>
    <tag k="highway" v="secondary"/>
    <tag k="maxspeed" v="30"/>
  </way>
  <way id="18835116" version="5" timestamp="2009-04-02T14:44:01Z" uid="57645" user="KartoGrapHiti" changeset="81416">
    <nd ref="30471144"/>
    <nd ref="30471151"/>
    <nd ref="30471155"/>
    <tag k="created_by" v="Potlatch 0.10f"/>
    <tag k="highway" v="secondary"/>
    <tag k="maxspeed" v="30"/>
  </way>
  <way id="18835116" version="6" timestamp="2010-01-10T18:45:25Z" uid="52362" user="Cschlote" changeset="3589738">
    <nd ref="30471144"/>
    <nd ref="30471151"/>
    <nd ref="30471155"/>
    <tag k="highway" v="secondary"/>
    <tag k="maxspeed" v="30"/>
    <tag k="name" v="Gießen Umfahrung"/>
  </way>
  <way id="18835116" version="7" timestamp="2010-01-18T22:18:00Z" uid="52362" user="Cschlote" changeset="3654738">
    <nd ref="30471144"/>
    <nd ref="30471151"/>
    <nd ref="616478078"/>
    <nd ref="30471155"/>
    <tag k="highway" v="secondary"/>
    <tag k="maxspeed" v="30"/>
    <tag k="name" v="Gießen Umfahrung"/>
  </way>
  <way id="18835116" version="8" timestamp="2010-04-28T08:00:31Z" uid="167846" user="chrysophylax" changeset="4547272">
    <nd ref="30471144"/>
    <nd ref="30471151"/>
    <nd ref="616478078"/>
    <nd ref="30471155"/>
    <nd ref="30471158"/>
    <nd ref="30471160"/>
    <nd ref="30471163"/>
    <nd ref="30471166"/>
    <nd ref="269415118"/>
    <nd ref="30471178"/>
    <tag k="highway" v="secondary"/>
    <tag k="maxspeed" v="30"/>
    <tag k="name" v="Gießen Umfahrung"/>
    <tag k="ref" v="L 3020"/>
  </way>
  <way id="18835116" version="9" timestamp="2010-09-23T14:23:23Z" uid="316582" user="Lurchi" changeset="5854417">
    <nd ref="30471144"/>
    <nd ref="30471151"/>
    <nd ref="616478078"/>
    <nd ref="30471155"/>
    <nd ref="30471158"/>
    <nd ref="30471160"/>
    <nd ref="30471163"/>
    <nd ref="30471166"/>
    <nd ref="269415118"/>
    <nd ref="30471178"/>
    <tag k="highway" v="secondary"/>
    <tag k="maxspeed" v="30"/>
    <tag k="name" v="Gießener Straße"/>
    <tag k="ref" v="L 3020"/>
  </way>
  <way id="18835116" version="10" timestamp="2011-11-20T18:26:12Z" uid="57645" user="KartoGrapHiti" changeset="9887967">
    <nd ref="30471144"/>
    <nd ref="30471151"/>
    <nd ref="616478078"/>
    <nd ref="30471155"/>
    <nd ref="30471158"/>
    <nd ref="30471160"/>
    <nd ref="30471163"/>
    <nd ref="30471166"/>
    <nd ref="1510171414"/>
    <nd ref="269415118"/>
    <nd ref="30471178"/>
    <tag k="highway" v="secondary"/>
    <tag k="maxspeed" v="30"/>
    <tag k="name" v="Gießener Straße"/>
    <tag k="ref" v="L 3020"/>
  </way>
  <way id="18835116" version="11" timestamp="2011-11-20T18:57:20Z" uid="57645" user="KartoGrapHiti" changeset="9888352">
    <nd ref="30471144"/>
    <nd ref="30471151"/>
    <nd ref="616478078"/>
    <nd ref="30471155"/>
    <nd ref="30471158"/>
    <nd ref="30471160"/>
    <nd ref="30471163"/>
    <nd ref="30471166"/>
    <nd ref="1510171414"/>
    <nd ref="269415118"/>
    <nd ref="30471178"/>
    <tag k="highway" v="secondary"/>
    <tag k="lit" v="limited"/>
    <tag k="maxspeed" v="30"/>
    <tag k="name" v="Gießener Straße"/>
    <tag k="ref" v="L 3020"/>
  </way>
  <way id="18835116" version="12" timestamp="2011-11-20T19:19:55Z" uid="57645" user="KartoGrapHiti" changeset="9888634">
    <nd ref="30471144"/>
    <nd ref="30471151"/>
    <nd ref="616478078"/>
    <nd ref="30471155"/>
    <nd ref="30471158"/>
    <nd ref="30471160"/>
    <nd ref="30471163"/>
    <nd ref="30471166"/>
    <nd ref="1510171414"/>
    <nd ref="269415118"/>
    <nd ref="30471178"/>
    <tag k="footway" v="both"/>
    <tag k="highway" v="secondary"/>
    <tag k="lit" v="limited"/>
    <tag k="maxspeed" v="30"/>
    <tag k="name" v="Gießener Straße"/>
    <tag k="ref" v="L 3020"/>
  </way>
  <way id="18835116" version="13" timestamp="2011-11-25T01:29:59Z" uid="316582" user="Lurchi" changeset="9939463"/>
  <way id="18835118" version="1" timestamp="2007-12-28T23:27:43Z" uid="3451" user="sascha_silbe" changeset="466066">
    <nd ref="194611843"/>
    <nd ref="194612034"/>
    <nd ref="194612227"/>
    <nd ref="194612340"/>
    <nd ref="194611860"/>
    <nd ref="194612005"/>
    <nd ref="194612173"/>
    <nd ref="194612320"/>
    <nd ref="194611982"/>
    <tag k="created_by" v="JOSM"/>
    <tag k="highway" v="residential"/>
    <tag k="name" v="Am Flurscheid"/>
    <tag k="source" v="survey"/>
  </way>
  <way id="18835118" version="2" timestamp="2008-06-13T14:23:00Z" uid="43615" user="bmcw" changeset="149466"/>
  <way id="18835119" version="1" timestamp="2007-12-28T23:27:43Z" uid="3451" user="sascha_silbe" changeset="466066">
    <nd ref="194612183"/>
    <nd ref="194611840"/>
    <nd ref="194612183"/>
    <nd ref="194611991"/>
    <nd ref="194612313"/>
    <tag k="created_by" v="JOSM"/>
    <tag k="highway" v="residential"/>
    <tag k="name" v="Apfelberg"/>
    <tag k="source" v="survey"/>
  </way>
  <way id="18835119" version="2" timestamp="2009-12-10T13:26:14Z" uid="42123" user="Ropino" changeset="3341662">
    <nd ref="194611840"/>
    <nd ref="194612183"/>
    <nd ref="194611991"/>
    <nd ref="194612313"/>
    <tag k="highway" v="residential"/>
    <tag k="name" v="Apfelberg"/>
    <tag k="source" v="survey"/>
  </way>
  <way id="18835119" version="3" timestamp="2011-08-23T14:10:42Z" uid="316582" user="Lurchi" changeset="9104045">
    <nd ref="1409942762"/>
    <nd ref="194611840"/>
    <nd ref="194612183"/>
    <nd ref="194611991"/>
    <nd ref="194612313"/>
    <tag k="highway" v="residential"/>
    <tag k="name" v="Apfelberg"/>
    <tag k="source" v="survey"/>
  </way>
  <way id="18835119" version="4" timestamp="2011-11-25T01:29:59Z" uid="316582" user="Lurchi" changeset="9939463"/>
  <way id="18835120" version="1" timestamp="2007-12-28T23:27:44Z" uid="3451" user="sascha_silbe" changeset="466066">
    <nd ref="194612153"/>
    <nd ref="194611829"/>
    <nd ref="194611976"/>
    <nd ref="194612134"/>
    <nd ref="194612296"/>
    <nd ref="194611802"/>
    <nd ref="194611958"/>
    <nd ref="194612064"/>
    <nd ref="194612256"/>
    <tag k="created_by" v="JOSM"/>
    <tag k="highway" v="service"/>
    <tag k="maxspeed" v="30"/>
    <tag k="name" v="Waldweg"/>
    <tag k="source" v="survey"/>
  </way>
  <way id="18835120" version="2" timestamp="2008-06-13T14:38:03Z" uid="43615" user="bmcw" changeset="149466">
    <nd ref="194612153"/>
    <nd ref="194611829"/>
    <nd ref="194611976"/>
    <nd ref="194612134"/>
    <nd ref="194612296"/>
    <nd ref="194611802"/>
    <nd ref="270107823"/>
    <nd ref="194611958"/>
    <nd ref="194612064"/>
    <nd ref="194612256"/>
    <tag k="created_by" v="JOSM"/>
    <tag k="highway" v="service"/>
    <tag k="maxspeed" v="30"/>
    <tag k="name" v="Waldweg"/>
    <tag k="source" v="survey"/>
  </way>
  <way id="18835120" version="3" timestamp="2008-06-16T19:14:04Z" uid="43615" user="bmcw" changeset="189940">
    <nd ref="194612153"/>
    <nd ref="194611829"/>
    <nd ref="194611976"/>
    <nd ref="194612134"/>
    <nd ref="194612296"/>
    <nd ref="194611802"/>
    <nd ref="270780633"/>
    <nd ref="270107823"/>
    <nd ref="194611958"/>
    <nd ref="194612064"/>
    <nd ref="270780634"/>
    <nd ref="194612256"/>
    <tag k="created_by" v="JOSM"/>
    <tag k="highway" v="service"/>
    <tag k="maxspeed" v="30"/>
    <tag k="name" v="Waldweg"/>
    <tag k="source" v="survey"/>
  </way>
  <way id="18835120" version="4" timestamp="2008-06-25T21:29:01Z" uid="43615" user="bmcw" changeset="297074">
    <nd ref="194612153"/>
    <nd ref="194611829"/>
    <nd ref="194611976"/>
    <nd ref="194612134"/>
    <nd ref="194612296"/>
    <nd ref="194611802"/>
    <nd ref="270780633"/>
    <nd ref="270107823"/>
    <nd ref="194611958"/>
    <nd ref="194612064"/>
    <nd ref="270780634"/>
    <nd ref="273205073"/>
    <nd ref="194612256"/>
    <tag k="created_by" v="JOSM"/>
    <tag k="highway" v="service"/>
    <tag k="maxspeed" v="30"/>
    <tag k="name" v="Waldweg"/>
    <tag k="source" v="survey"/>
  </way>
  <way id="18835120" version="5" timestamp="2009-04-02T14:08:02Z" uid="57645" user="KartoGrapHiti" changeset="81416">
    <nd ref="194612153"/>
    <nd ref="194611829"/>
    <nd ref="194611976"/>
    <nd ref="194612134"/>
    <nd ref="194612296"/>
    <nd ref="194611802"/>
    <nd ref="270780633"/>
    <nd ref="270107823"/>
    <tag k="created_by" v="Potlatch 0.10f"/>
    <tag k="highway" v="service"/>
    <tag k="maxspeed" v="30"/>
    <tag k="name" v="Waldweg"/>
    <tag k="source" v="survey"/>
  </way>
  <way id="18835120" version="6" timestamp="2009-04-02T14:34:08Z" uid="57645" user="KartoGrapHiti" changeset="81416">
    <nd ref="194612153"/>
    <nd ref="194611829"/>
    <nd ref="194611976"/>
    <nd ref="194612134"/>
    <nd ref="194612296"/>
    <nd ref="194611802"/>
    <nd ref="270107823"/>
    <tag k="created_by" v="Potlatch 0.10f"/>
    <tag k="highway" v="service"/>
    <tag k="maxspeed" v="30"/>
    <tag k="name" v="Waldweg"/>
    <tag k="source" v="survey"/>
  </way>
  <way id="18835120" version="7" timestamp="2009-10-01T08:49:25Z" uid="57645" user="KartoGrapHiti" changeset="2697899">
    <nd ref="194612153"/>
    <nd ref="194611829"/>
    <nd ref="194611976"/>
    <nd ref="194612134"/>
    <nd ref="194612296"/>
    <nd ref="194611802"/>
    <nd ref="270107823"/>
    <tag k="highway" v="track"/>
    <tag k="maxspeed" v="30"/>
    <tag k="name" v="Waldweg"/>
    <tag k="source" v="survey"/>
    <tag k="tracktype" v="grade1"/>
  </way>
  <way id="18835120" version="8" timestamp="2009-10-18T19:58:50Z" uid="57645" user="KartoGrapHiti" changeset="2888416">
    <nd ref="194612153"/>
    <nd ref="194611829"/>
    <nd ref="194611976"/>
    <nd ref="194612134"/>
    <nd ref="534904272"/>
    <nd ref="534904269"/>
    <nd ref="194612296"/>
    <nd ref="194611802"/>
    <nd ref="270107823"/>
    <tag k="highway" v="track"/>
    <tag k="maxspeed" v="30"/>
    <tag k="name" v="Waldweg"/>
    <tag k="source" v="survey"/>
    <tag k="tracktype" v="grade1"/>
  </way>
  <way id="18835120" version="9" timestamp="2012-01-27T21:23:18Z" uid="57645" user="KartoGrapHiti" changeset="10516518"/>
  <way id="18835123" version="1" timestamp="2007-12-28T23:27:44Z" uid="3451" user="sascha_silbe" changeset="466066">
    <nd ref="194611819"/>
    <nd ref="194611785"/>
    <nd ref="194612046"/>
    <nd ref="194612239"/>
    <nd ref="194612344"/>
    <nd ref="194612330"/>
    <nd ref="194611881"/>
    <nd ref="194612016"/>
    <tag k="created_by" v="JOSM"/>
    <tag k="highway" v="residential"/>
    <tag k="name" v="Lessingstraße"/>
    <tag k="source" v="survey"/>
  </way>
  <way id="18835123" version="2" timestamp="2008-05-14T17:01:52Z" uid="18141" user="Hobby Navigator" changeset="445262">
    <nd ref="194611819"/>
    <nd ref="194611785"/>
    <nd ref="194612046"/>
    <nd ref="194612239"/>
    <nd ref="194612344"/>
    <nd ref="194612330"/>
    <nd ref="194612016"/>
    <tag k="created_by" v="Potlatch 0.9a"/>
    <tag k="highway" v="residential"/>
    <tag k="name" v="Lessingstraße"/>
    <tag k="source" v="survey"/>
  </way>
  <way id="18835123" version="3" timestamp="2008-06-13T14:47:23Z" uid="43615" user="bmcw" changeset="149466">
    <nd ref="194611819"/>
    <nd ref="194611785"/>
    <nd ref="194612046"/>
    <nd ref="194612239"/>
    <nd ref="194612344"/>
    <nd ref="194612330"/>
    <nd ref="194612016"/>
    <tag k="created_by" v="Potlatch 0.9a"/>
    <tag k="highway" v="residential;living_street"/>
    <tag k="name" v="Lessingstraße"/>
    <tag k="source" v="survey"/>
  </way>
  <way id="18835123" version="4" timestamp="2008-06-17T17:09:20Z" uid="43615" user="bmcw" changeset="195199">
    <nd ref="194611819"/>
    <nd ref="194611785"/>
    <nd ref="194612046"/>
    <nd ref="194612239"/>
    <nd ref="194612344"/>
    <nd ref="194612330"/>
    <nd ref="194612016"/>
    <tag k="created_by" v="Potlatch 0.9a"/>
    <tag k="highway" v="residential"/>
    <tag k="name" v="Lessingstraße"/>
    <tag k="source" v="survey"/>
  </way>
  <way id="18835123" version="5" timestamp="2008-06-18T06:34:48Z" uid="43615" user="bmcw" changeset="216472">
    <nd ref="194611819"/>
    <nd ref="194611785"/>
    <nd ref="194612046"/>
    <nd ref="194612239"/>
    <nd ref="194612344"/>
    <nd ref="194612330"/>
    <nd ref="194612016"/>
    <tag k="created_by" v="Potlatch 0.9c"/>
    <tag k="highway" v="residential"/>
    <tag k="name" v="Lessingstraße"/>
    <tag k="source" v="survey"/>
  </way>
  <way id="18835123" version="6" timestamp="2008-06-18T06:35:37Z" uid="43615" user="bmcw" changeset="216472">
    <nd ref="194611819"/>
    <nd ref="194611785"/>
    <nd ref="194612046"/>
    <nd ref="194612239"/>
    <nd ref="194612344"/>
    <nd ref="194612330"/>
    <nd ref="194612016"/>
    <tag k="created_by" v="Potlatch 0.9c"/>
    <tag k="highway" v="residential"/>
    <tag k="name" v="Lessingstraße"/>
    <tag k="source" v="survey"/>
  </way>
  <way id="18835123" version="7" timestamp="2008-07-17T17:54:16Z" uid="18141" user="Hobby Navigator" changeset="514554">
    <nd ref="194611819"/>
    <nd ref="194611785"/>
    <nd ref="194612046"/>
    <nd ref="194612344"/>
    <nd ref="194612330"/>
    <nd ref="194612016"/>
    <tag k="created_by" v="Potlatch 0.9c"/>
    <tag k="highway" v="residential"/>
    <tag k="name" v="Lessingstraße"/>
    <tag k="source" v="survey"/>
  </way>
  <way id="18835123" version="8" timestamp="2010-01-18T22:14:26Z" uid="52362" user="Cschlote" changeset="3654738">
    <nd ref="194611819"/>
    <nd ref="194611785"/>
    <nd ref="194612046"/>
    <nd ref="616476505"/>
    <nd ref="194612344"/>
    <nd ref="194612330"/>
    <nd ref="194612016"/>
    <tag k="highway" v="residential"/>
    <tag k="name" v="Lessingstraße"/>
    <tag k="source" v="survey"/>
  </way>
  <way id="18835123" version="9" timestamp="2011-08-23T14:10:43Z" uid="316582" user="Lurchi" changeset="9104045">
    <nd ref="194611819"/>
    <nd ref="194611785"/>
    <nd ref="194612046"/>
    <nd ref="616476505"/>
    <nd ref="194612344"/>
    <nd ref="194612330"/>
    <nd ref="194612016"/>
    <nd ref="1409942764"/>
    <tag k="highway" v="residential"/>
    <tag k="name" v="Lessingstraße"/>
    <tag k="source" v="survey"/>
  </way>
  <way id="18835123" version="10" timestamp="2011-11-20T18:26:19Z" uid="57645" user="KartoGrapHiti" changeset="9887967">
    <nd ref="194611819"/>
    <nd ref="194611785"/>
    <nd ref="194612046"/>
    <nd ref="616476505"/>
    <nd ref="194612344"/>
    <nd ref="194612330"/>
    <nd ref="194612016"/>
    <nd ref="1409942764"/>
    <tag k="highway" v="residential"/>
    <tag k="maxspeed" v="50"/>
    <tag k="name" v="Lessingstraße"/>
    <tag k="vehicle" v="destination"/>
  </way>
  <way id="18835123" version="11" timestamp="2011-11-25T01:30:00Z" uid="316582" user="Lurchi" changeset="9939463"/>
  <way id="18835124" version="1" timestamp="2007-12-28T23:27:44Z" uid="3451" user="sascha_silbe" changeset="466066">
    <nd ref="194612144"/>
    <nd ref="30471014"/>
    <nd ref="30471015"/>
    <nd ref="30471017"/>
    <tag k="created_by" v="JOSM"/>
    <tag k="highway" v="secondary"/>
    <tag k="maxspeed" v="30"/>
    <tag k="name" v="Kinzenbacher Straße"/>
    <tag k="ref" v="L3045"/>
  </way>
  <way id="18835124" version="2" timestamp="2008-05-14T17:02:54Z" uid="18141" user="Hobby Navigator" changeset="445262">
    <nd ref="194612144"/>
    <nd ref="30471014"/>
    <nd ref="30471017"/>
    <tag k="created_by" v="Potlatch 0.9a"/>
    <tag k="highway" v="secondary"/>
    <tag k="maxspeed" v="30"/>
    <tag k="name" v="Kinzenbacher Straße"/>
    <tag k="ref" v="L3045"/>
  </way>
  <way id="18835124" version="3" timestamp="2008-06-13T16:03:25Z" uid="43615" user="bmcw" changeset="149466">
    <nd ref="194612144"/>
    <nd ref="30471014"/>
    <nd ref="270117937"/>
    <nd ref="270117936"/>
    <nd ref="270117938"/>
    <nd ref="30471017"/>
    <tag k="created_by" v="Potlatch 0.9a"/>
    <tag k="highway" v="secondary"/>
    <tag k="maxspeed" v="30"/>
    <tag k="name" v="Kinzenbacher Straße"/>
    <tag k="ref" v="L3045"/>
  </way>
  <way id="18835124" version="4" timestamp="2008-06-13T16:04:16Z" uid="43615" user="bmcw" changeset="149466">
    <nd ref="30471000"/>
    <nd ref="270117934"/>
    <nd ref="270117931"/>
    <nd ref="270117933"/>
    <nd ref="270117932"/>
    <nd ref="30471003"/>
    <nd ref="30471005"/>
    <nd ref="194612022"/>
    <nd ref="194612144"/>
    <nd ref="30471014"/>
    <nd ref="270117937"/>
    <nd ref="270117936"/>
    <nd ref="270117938"/>
    <nd ref="30471017"/>
    <nd ref="30471028"/>
    <nd ref="30471029"/>
    <nd ref="30471032"/>
    <nd ref="30471034"/>
    <tag k="created_by" v="Potlatch 0.9a"/>
    <tag k="highway" v="secondary"/>
    <tag k="maxspeed" v="30"/>
    <tag k="name" v="Kinzenbacher Straße"/>
    <tag k="ref" v="L3045"/>
  </way>
  <way id="18835124" version="5" timestamp="2008-07-02T17:18:55Z" uid="43615" user="bmcw" changeset="373259">
    <nd ref="30471000"/>
    <nd ref="270117934"/>
    <nd ref="270117931"/>
    <nd ref="270117933"/>
    <nd ref="270117932"/>
    <nd ref="30471003"/>
    <nd ref="30471005"/>
    <nd ref="194612022"/>
    <nd ref="194612144"/>
    <nd ref="275641710"/>
    <nd ref="30471014"/>
    <nd ref="270117937"/>
    <nd ref="270117936"/>
    <nd ref="270117938"/>
    <nd ref="30471017"/>
    <nd ref="30471028"/>
    <nd ref="30471029"/>
    <nd ref="30471032"/>
    <nd ref="30471034"/>
    <tag k="created_by" v="Potlatch 0.9a"/>
    <tag k="highway" v="secondary"/>
    <tag k="maxspeed" v="30"/>
    <tag k="name" v="Kinzenbacher Straße"/>
    <tag k="ref" v="L3045"/>
  </way>
  <way id="18835124" version="6" timestamp="2008-07-22T07:16:21Z" uid="18141" user="Hobby Navigator" changeset="565537">
    <nd ref="30471000"/>
    <nd ref="270117934"/>
    <nd ref="270117931"/>
    <nd ref="270117933"/>
    <nd ref="270117932"/>
    <nd ref="30471003"/>
    <nd ref="30471005"/>
    <nd ref="194612022"/>
    <nd ref="194612144"/>
    <nd ref="275641710"/>
    <nd ref="30471014"/>
    <nd ref="270117937"/>
    <nd ref="270117936"/>
    <nd ref="270117938"/>
    <nd ref="30471017"/>
    <nd ref="30471028"/>
    <nd ref="30471029"/>
    <nd ref="30471032"/>
    <nd ref="30471034"/>
    <tag k="created_by" v="Potlatch 0.10"/>
    <tag k="highway" v="secondary"/>
    <tag k="maxspeed" v="30"/>
    <tag k="name" v="Kinzenbacher Straße"/>
    <tag k="ref" v="L 3045"/>
  </way>
  <way id="18835124" version="7" timestamp="2009-02-15T14:45:53Z" uid="57645" user="KartoGrapHiti" changeset="466776">
    <nd ref="30471000"/>
    <nd ref="270117934"/>
    <nd ref="270117931"/>
    <nd ref="270117933"/>
    <nd ref="270117932"/>
    <nd ref="30471003"/>
    <nd ref="30471005"/>
    <nd ref="194612022"/>
    <nd ref="194612144"/>
    <nd ref="275641710"/>
    <nd ref="30471014"/>
    <nd ref="270117937"/>
    <nd ref="270117936"/>
    <nd ref="270117938"/>
    <nd ref="30471017"/>
    <tag k="created_by" v="Potlatch 0.10f"/>
    <tag k="highway" v="secondary"/>
    <tag k="maxspeed" v="30"/>
    <tag k="name" v="Kinzenbacher Straße"/>
    <tag k="ref" v="L 3045"/>
  </way>
  <way id="18835124" version="8" timestamp="2009-02-15T14:45:58Z" uid="57645" user="KartoGrapHiti" changeset="466776">
    <nd ref="30471000"/>
    <nd ref="270117934"/>
    <nd ref="270117931"/>
    <nd ref="270117933"/>
    <nd ref="270117932"/>
    <nd ref="30471003"/>
    <nd ref="30471005"/>
    <nd ref="194612022"/>
    <nd ref="194612144"/>
    <nd ref="275641710"/>
    <tag k="created_by" v="Potlatch 0.10f"/>
    <tag k="highway" v="secondary"/>
    <tag k="maxspeed" v="30"/>
    <tag k="name" v="Kinzenbacher Straße"/>
    <tag k="ref" v="L 3045"/>
  </way>
  <way id="18835124" version="9" timestamp="2009-10-18T19:58:49Z" uid="57645" user="KartoGrapHiti" changeset="2888416">
    <nd ref="30471000"/>
    <nd ref="270117934"/>
    <nd ref="270117931"/>
    <nd ref="270117933"/>
    <nd ref="270117932"/>
    <nd ref="30471003"/>
    <nd ref="534904221"/>
    <nd ref="30471005"/>
    <nd ref="194612022"/>
    <nd ref="194612144"/>
    <nd ref="275641710"/>
    <tag k="highway" v="secondary"/>
    <tag k="maxspeed" v="30"/>
    <tag k="name" v="Kinzenbacher Straße"/>
    <tag k="ref" v="L 3045"/>
  </way>
  <way id="18835124" version="10" timestamp="2009-10-18T20:38:48Z" uid="57645" user="KartoGrapHiti" changeset="2888932">
    <nd ref="30471000"/>
    <nd ref="270117934"/>
    <nd ref="270117931"/>
    <nd ref="30471003"/>
    <nd ref="534904221"/>
    <nd ref="30471005"/>
    <nd ref="194612022"/>
    <nd ref="194612144"/>
    <nd ref="275641710"/>
    <tag k="highway" v="secondary"/>
    <tag k="maxspeed" v="30"/>
    <tag k="name" v="Kinzenbacher Straße"/>
    <tag k="ref" v="L 3045"/>
  </way>
  <way id="18835124" version="11" timestamp="2010-09-23T14:23:26Z" uid="316582" user="Lurchi" changeset="5854417">
    <nd ref="30471000"/>
    <nd ref="270117934"/>
    <nd ref="270117931"/>
    <nd ref="30471003"/>
    <nd ref="534904221"/>
    <nd ref="30471005"/>
    <nd ref="194612022"/>
    <nd ref="194612144"/>
    <nd ref="275641710"/>
    <tag k="highway" v="secondary"/>
    <tag k="maxspeed" v="50"/>
    <tag k="name" v="Kinzenbacher Straße"/>
    <tag k="ref" v="L 3045"/>
  </way>
  <way id="18835124" version="12" timestamp="2011-11-25T01:29:59Z" uid="316582" user="Lurchi" changeset="9939463"/>
  <way id="18835125" version="1" timestamp="2007-12-28T23:27:45Z" uid="3451" user="sascha_silbe" changeset="466066">
    <nd ref="194612287"/>
    <nd ref="194611797"/>
    <nd ref="194611947"/>
    <nd ref="194612053"/>
    <nd ref="194612348"/>
    <nd ref="194611973"/>
    <nd ref="194611895"/>
    <nd ref="194612028"/>
    <tag k="created_by" v="JOSM"/>
    <tag k="highway" v="residential"/>
    <tag k="name" v="Kegelbann"/>
    <tag k="source" v="survey"/>
  </way>
  <way id="18835125" version="2" timestamp="2008-05-14T17:01:47Z" uid="18141" user="Hobby Navigator" changeset="445262">
    <nd ref="194612287"/>
    <nd ref="194611947"/>
    <nd ref="194612053"/>
    <nd ref="194612348"/>
    <nd ref="194611973"/>
    <nd ref="194611895"/>
    <nd ref="194612028"/>
    <tag k="created_by" v="Potlatch 0.9a"/>
    <tag k="highway" v="residential"/>
    <tag k="name" v="Kegelbann"/>
    <tag k="source" v="survey"/>
  </way>
  <way id="18835125" version="3" timestamp="2008-06-13T20:19:17Z" uid="43615" user="bmcw" changeset="154126"/>
  <way id="18835128" version="1" timestamp="2007-12-28T23:27:45Z" uid="3451" user="sascha_silbe" changeset="466066">
    <nd ref="194612138"/>
    <nd ref="194612307"/>
    <tag k="created_by" v="JOSM"/>
    <tag k="highway" v="residential"/>
    <tag k="name" v="Hohlweg"/>
    <tag k="source" v="survey"/>
  </way>
  <way id="18835128" version="2" timestamp="2010-01-12T22:42:41Z" uid="52362" user="Cschlote" changeset="3606853">
    <nd ref="612594547"/>
    <nd ref="194612138"/>
    <nd ref="194612307"/>
    <tag k="highway" v="residential"/>
    <tag k="name" v="Hohlweg"/>
    <tag k="source" v="survey"/>
  </way>
  <way id="18835128" version="3" timestamp="2010-01-18T22:14:27Z" uid="52362" user="Cschlote" changeset="3654738">
    <nd ref="612594547"/>
    <nd ref="194612138"/>
    <nd ref="616476508"/>
    <nd ref="194612307"/>
    <tag k="highway" v="residential"/>
    <tag k="name" v="Hohlweg"/>
    <tag k="source" v="survey"/>
  </way>
  <way id="18835128" version="4" timestamp="2011-11-20T18:57:24Z" uid="57645" user="KartoGrapHiti" changeset="9888352">
    <nd ref="612594547"/>
    <nd ref="194612138"/>
    <nd ref="616476508"/>
    <nd ref="194612307"/>
    <tag k="highway" v="residential"/>
    <tag k="lit" v="limited"/>
    <tag k="maxspeed" v="50"/>
    <tag k="name" v="Hohlweg"/>
    <tag k="source" v="survey"/>
  </way>
  <way id="18835128" version="5" timestamp="2012-01-27T21:23:07Z" uid="57645" user="KartoGrapHiti" changeset="10516518">
    <nd ref="612594547"/>
    <nd ref="194612138"/>
    <nd ref="194612307"/>
    <tag k="highway" v="residential"/>
    <tag k="lit" v="limited"/>
    <tag k="maxspeed" v="50"/>
    <tag k="name" v="Hohlweg"/>
    <tag k="source" v="survey"/>
  </way>
  <way id="18835129" version="1" timestamp="2007-12-28T23:27:45Z" uid="3451" user="sascha_silbe" changeset="466066">
    <nd ref="194611999"/>
    <nd ref="194612149"/>
    <nd ref="194611835"/>
    <tag k="created_by" v="JOSM"/>
    <tag k="highway" v="residential"/>
    <tag k="name" v="Storchenweg"/>
    <tag k="source" v="survey"/>
  </way>
  <way id="18835129" version="2" timestamp="2011-08-23T14:10:45Z" uid="316582" user="Lurchi" changeset="9104045"/>
  <way id="18835131" version="1" timestamp="2007-12-28T23:27:46Z" uid="3451" user="sascha_silbe" changeset="466066">
    <nd ref="194611791"/>
    <nd ref="194612341"/>
    <nd ref="194611963"/>
    <tag k="created_by" v="JOSM"/>
    <tag k="highway" v="residential"/>
    <tag k="name" v="Am Wiesacker"/>
    <tag k="source" v="survey"/>
  </way>
  <way id="18835131" version="2" timestamp="2011-11-20T18:57:14Z" uid="57645" user="KartoGrapHiti" changeset="9888352">
    <nd ref="194611791"/>
    <nd ref="194612341"/>
    <nd ref="194611963"/>
    <tag k="highway" v="residential"/>
    <tag k="lit" v="limited"/>
    <tag k="maxspeed" v="50"/>
    <tag k="name" v="Am Wiesacker"/>
    <tag k="source" v="survey"/>
  </way>
  <way id="18835131" version="3" timestamp="2011-11-20T19:19:51Z" uid="57645" user="KartoGrapHiti" changeset="9888634">
    <nd ref="194611791"/>
    <nd ref="194612341"/>
    <nd ref="194611963"/>
    <tag k="highway" v="residential"/>
    <tag k="lit" v="limited"/>
    <tag k="maxspeed" v="50"/>
    <tag k="name" v="Am Wiesacker"/>
    <tag k="source" v="survey"/>
  </way>
  <way id="18835131" version="4" timestamp="2011-11-29T17:47:32Z" uid="316582" user="Lurchi" changeset="9990166">
    <nd ref="1523443302"/>
    <nd ref="194612341"/>
    <nd ref="194611963"/>
    <tag k="highway" v="residential"/>
    <tag k="lit" v="limited"/>
    <tag k="maxspeed" v="50"/>
    <tag k="name" v="Am Wiesacker"/>
    <tag k="source" v="survey"/>
  </way>
  <way id="18835133" version="1" timestamp="2007-12-28T23:27:46Z" uid="3451" user="sascha_silbe" changeset="466066">
    <nd ref="194612128"/>
    <nd ref="194612291"/>
    <tag k="created_by" v="JOSM"/>
    <tag k="highway" v="residential"/>
    <tag k="name" v="Bettengraben"/>
    <tag k="noexit" v="yes"/>
    <tag k="source" v="survey"/>
  </way>
  <way id="18835133" version="2" timestamp="2010-10-12T19:39:05Z" uid="316582" user="Lurchi" changeset="6024219">
    <nd ref="194612128"/>
    <nd ref="194612291"/>
    <tag k="highway" v="residential"/>
    <tag k="name" v="Bettengraben"/>
    <tag k="noexit" v="yes"/>
    <tag k="source" v="survey"/>
  </way>
  <way id="18835133" version="3" timestamp="2010-10-12T20:16:27Z" uid="316582" user="Lurchi" changeset="6024676">
    <nd ref="194612128"/>
    <nd ref="194612291"/>
    <tag k="highway" v="residential"/>
    <tag k="name" v="Bettengraben"/>
    <tag k="source" v="survey"/>
  </way>
  <way id="18835133" version="4" timestamp="2011-08-22T23:00:54Z" uid="316582" user="Lurchi" changeset="9099138">
    <nd ref="194612128"/>
    <nd ref="1409128694"/>
    <nd ref="194612291"/>
    <tag k="highway" v="residential"/>
    <tag k="name" v="Bettengraben"/>
    <tag k="source" v="survey"/>
  </way>
  <way id="18835133" version="5" timestamp="2011-11-25T01:29:59Z" uid="316582" user="Lurchi" changeset="9939463"/>
  <way id="18835135" version="1" timestamp="2007-12-28T23:27:46Z" uid="3451" user="sascha_silbe" changeset="466066">
    <nd ref="194612048"/>
    <nd ref="194612242"/>
    <nd ref="194612338"/>
    <nd ref="194611876"/>
    <tag k="created_by" v="JOSM"/>
    <tag k="highway" v="residential"/>
    <tag k="name" v="Bahnhofstraße"/>
    <tag k="source" v="survey"/>
  </way>
  <way id="18835135" version="2" timestamp="2008-11-05T17:37:49Z" uid="18141" user="Hobby Navigator" changeset="687417">
    <nd ref="194612048"/>
    <nd ref="194612242"/>
    <nd ref="194612338"/>
    <nd ref="262845191"/>
    <tag k="created_by" v="Potlatch 0.10f"/>
    <tag k="highway" v="residential"/>
    <tag k="name" v="Bahnhofstraße"/>
    <tag k="source" v="survey"/>
  </way>
  <way id="18835135" version="3" timestamp="2009-03-09T20:45:34Z" uid="52362" user="Cschlote" changeset="772230">
    <nd ref="194612048"/>
    <nd ref="358142803"/>
    <nd ref="194612242"/>
    <nd ref="194612338"/>
    <nd ref="262845191"/>
    <tag k="created_by" v="Potlatch 0.10f"/>
    <tag k="highway" v="residential"/>
    <tag k="name" v="Bahnhofstraße"/>
    <tag k="source" v="survey"/>
  </way>
  <way id="18835135" version="4" timestamp="2009-03-10T18:35:24Z" uid="52362" user="Cschlote" changeset="778821">
    <nd ref="194612048"/>
    <nd ref="358142803"/>
    <nd ref="358475192"/>
    <nd ref="194612242"/>
    <nd ref="194612338"/>
    <nd ref="262845191"/>
    <tag k="created_by" v="Potlatch 0.10f"/>
    <tag k="highway" v="residential"/>
    <tag k="name" v="Bahnhofstraße"/>
    <tag k="source" v="survey"/>
  </way>
  <way id="18835135" version="5" timestamp="2011-11-20T19:19:52Z" uid="57645" user="KartoGrapHiti" changeset="9888634">
    <nd ref="194612048"/>
    <nd ref="358142803"/>
    <nd ref="358475192"/>
    <nd ref="194612242"/>
    <nd ref="194612338"/>
    <nd ref="262845191"/>
    <tag k="highway" v="residential"/>
    <tag k="name" v="Bahnhofstraße"/>
    <tag k="source" v="survey"/>
  </way>
  <way id="18835135" version="6" timestamp="2011-11-25T01:29:59Z" uid="316582" user="Lurchi" changeset="9939463"/>
  <way id="18835136" version="1" timestamp="2007-12-28T23:27:46Z" uid="3451" user="sascha_silbe" changeset="466066">
    <nd ref="194612298"/>
    <nd ref="194611843"/>
    <nd ref="194611994"/>
    <tag k="created_by" v="JOSM"/>
    <tag k="highway" v="residential"/>
    <tag k="maxspeed" v="30"/>
    <tag k="name" v="Waldweg"/>
    <tag k="source" v="survey"/>
  </way>
  <way id="18835136" version="2" timestamp="2009-02-15T14:44:53Z" uid="57645" user="KartoGrapHiti" changeset="466776"/>
  <way id="18835137" version="1" timestamp="2007-12-28T23:27:49Z" uid="3451" user="sascha_silbe" changeset="466066">
    <nd ref="194611831"/>
    <nd ref="194612212"/>
    <tag k="created_by" v="JOSM"/>
    <tag k="highway" v="residential"/>
    <tag k="maxspeed" v="30"/>
    <tag k="name" v="Klingelgärten"/>
    <tag k="source" v="survey"/>
  </way>
  <way id="18835137" version="2" timestamp="2011-11-20T18:57:28Z" uid="57645" user="KartoGrapHiti" changeset="9888352">
    <nd ref="194611831"/>
    <nd ref="194612212"/>
    <tag k="highway" v="residential"/>
    <tag k="lit" v="limited"/>
    <tag k="maxspeed" v="30"/>
    <tag k="name" v="Klingelgärten"/>
    <tag k="source" v="survey"/>
  </way>
  <way id="18835137" version="3" timestamp="2011-11-20T19:20:03Z" uid="57645" user="KartoGrapHiti" changeset="9888634">
    <nd ref="194611831"/>
    <nd ref="194612212"/>
    <tag k="highway" v="residential"/>
    <tag k="lit" v="limited"/>
    <tag k="maxspeed" v="30"/>
    <tag k="name" v="Klingelgärten"/>
    <tag k="source" v="survey"/>
  </way>
  <way id="18835137" version="4" timestamp="2012-01-27T21:23:18Z" uid="57645" user="KartoGrapHiti" changeset="10516518"/>
  <way id="18835139" version="1" timestamp="2007-12-28T23:27:49Z" uid="3451" user="sascha_silbe" changeset="466066">
    <nd ref="194612222"/>
    <nd ref="194611839"/>
    <tag k="created_by" v="JOSM"/>
    <tag k="highway" v="residential"/>
    <tag k="name" v="Ostpreußenstraße"/>
    <tag k="source" v="survey"/>
  </way>
  <way id="18835139" version="2" timestamp="2008-06-13T14:23:00Z" uid="43615" user="bmcw" changeset="149466">
    <nd ref="194611839"/>
    <nd ref="270106526"/>
    <nd ref="194612222"/>
    <nd ref="270106511"/>
    <nd ref="270106512"/>
    <nd ref="270106513"/>
    <nd ref="270106514"/>
    <nd ref="270106515"/>
    <tag k="created_by" v="JOSM"/>
    <tag k="highway" v="residential"/>
    <tag k="name" v="Ostpreußenstraße"/>
    <tag k="source" v="survey"/>
  </way>
  <way id="18835139" version="3" timestamp="2008-06-13T20:02:52Z" uid="43615" user="bmcw" changeset="154126">
    <nd ref="194611839"/>
    <nd ref="270106526"/>
    <nd ref="194612222"/>
    <nd ref="270106511"/>
    <nd ref="270106512"/>
    <nd ref="270106513"/>
    <nd ref="270106514"/>
    <nd ref="270106515"/>
    <nd ref="270162581"/>
    <tag k="created_by" v="JOSM"/>
    <tag k="highway" v="residential"/>
    <tag k="name" v="Ostpreußenstraße"/>
    <tag k="source" v="survey"/>
  </way>
  <way id="18835139" version="4" timestamp="2008-06-13T20:10:12Z" uid="43615" user="bmcw" changeset="154126">
    <nd ref="194611839"/>
    <nd ref="270106526"/>
    <nd ref="270165371"/>
    <nd ref="270165365"/>
    <nd ref="270165359"/>
    <nd ref="194612222"/>
    <nd ref="270106511"/>
    <nd ref="270165354"/>
    <nd ref="270106512"/>
    <nd ref="270106513"/>
    <nd ref="270106514"/>
    <nd ref="270106515"/>
    <nd ref="270162581"/>
    <tag k="created_by" v="JOSM"/>
    <tag k="highway" v="residential"/>
    <tag k="name" v="Ostpreußenstraße"/>
    <tag k="source" v="survey"/>
  </way>
  <way id="18835139" version="5" timestamp="2008-07-17T17:54:07Z" uid="18141" user="Hobby Navigator" changeset="514554">
    <nd ref="194611839"/>
    <nd ref="270106526"/>
    <nd ref="270165371"/>
    <nd ref="270165365"/>
    <nd ref="270165359"/>
    <nd ref="194612222"/>
    <nd ref="270106511"/>
    <nd ref="270165354"/>
    <nd ref="270106513"/>
    <nd ref="270106514"/>
    <nd ref="270106515"/>
    <nd ref="270162581"/>
    <tag k="created_by" v="Potlatch 0.9c"/>
    <tag k="highway" v="residential"/>
    <tag k="name" v="Ostpreußenstraße"/>
    <tag k="source" v="survey"/>
  </way>
  <way id="18835139" version="6" timestamp="2009-03-09T20:42:38Z" uid="52362" user="Cschlote" changeset="772230">
    <nd ref="194611839"/>
    <nd ref="270106526"/>
    <nd ref="270165371"/>
    <nd ref="270165365"/>
    <nd ref="270165359"/>
    <nd ref="194612222"/>
    <nd ref="270165354"/>
    <nd ref="270106513"/>
    <nd ref="270106514"/>
    <nd ref="270106515"/>
    <nd ref="270162581"/>
    <tag k="created_by" v="Potlatch 0.9c"/>
    <tag k="highway" v="residential"/>
    <tag k="name" v="Ostpreußenstraße"/>
    <tag k="source" v="survey"/>
  </way>
  <way id="18835139" version="7" timestamp="2010-09-23T15:15:57Z" uid="316582" user="Lurchi" changeset="5854776">
    <nd ref="194611839"/>
    <nd ref="270106526"/>
    <nd ref="270165371"/>
    <nd ref="270165365"/>
    <nd ref="270165359"/>
    <nd ref="194612222"/>
    <nd ref="270165354"/>
    <nd ref="270106513"/>
    <nd ref="270106514"/>
    <nd ref="270106515"/>
    <nd ref="270162581"/>
    <tag k="highway" v="residential"/>
    <tag k="maxspeed" v="30"/>
    <tag k="name" v="Ostpreußenstraße"/>
    <tag k="source" v="survey"/>
  </way>
  <way id="18835139" version="8" timestamp="2011-11-25T01:30:00Z" uid="316582" user="Lurchi" changeset="9939463"/>
  <way id="18835141" version="1" timestamp="2007-12-28T23:27:49Z" uid="3451" user="sascha_silbe" changeset="466066">
    <nd ref="194612325"/>
    <nd ref="194611854"/>
    <tag k="created_by" v="JOSM"/>
    <tag k="highway" v="residential"/>
    <tag k="name" v="Dreihäuser Platz"/>
    <tag k="source" v="survey"/>
  </way>
  <way id="18835141" version="2" timestamp="2008-06-09T18:36:16Z" uid="18141" user="Hobby Navigator" changeset="111706"/>
  <way id="18835143" version="1" timestamp="2007-12-28T23:27:49Z" uid="3451" user="sascha_silbe" changeset="466066">
    <nd ref="30471178"/>
    <nd ref="30471180"/>
    <nd ref="30471183"/>
    <tag k="created_by" v="JOSM"/>
    <tag k="highway" v="secondary"/>
  </way>
  <way id="18835143" version="2" timestamp="2008-05-14T17:04:45Z" uid="18141" user="Hobby Navigator" changeset="445262">
    <nd ref="30471178"/>
    <nd ref="30471183"/>
    <tag k="created_by" v="Potlatch 0.9a"/>
    <tag k="highway" v="secondary"/>
  </way>
  <way id="18835143" version="3" timestamp="2008-11-05T17:42:31Z" uid="18141" user="Hobby Navigator" changeset="687417">
    <nd ref="30471189"/>
    <nd ref="30471186"/>
    <nd ref="30471183"/>
    <nd ref="30471178"/>
    <tag k="created_by" v="Potlatch 0.10f"/>
    <tag k="highway" v="secondary"/>
    <tag k="ref" v="L 3020"/>
  </way>
  <way id="18835143" version="4" timestamp="2009-04-26T19:51:05Z" uid="38824" user="Ausdemwald" changeset="980418">
    <nd ref="30471189"/>
    <nd ref="30471186"/>
    <nd ref="30471183"/>
    <nd ref="385541338"/>
    <nd ref="30471178"/>
    <tag k="created_by" v="Potlatch 0.10f"/>
    <tag k="highway" v="secondary"/>
    <tag k="ref" v="L 3020"/>
  </way>
  <way id="18835143" version="5" timestamp="2009-10-30T17:17:34Z" uid="57645" user="KartoGrapHiti" changeset="2990799">
    <nd ref="30471189"/>
    <nd ref="385541338"/>
    <nd ref="30471178"/>
    <tag k="highway" v="secondary"/>
    <tag k="ref" v="L 3020"/>
  </way>
  <way id="18835143" version="6" timestamp="2009-11-20T16:55:35Z" uid="57645" user="KartoGrapHiti" changeset="3169885">
    <nd ref="30471189"/>
    <nd ref="385541338"/>
    <nd ref="30471178"/>
    <tag k="highway" v="secondary"/>
    <tag k="maxspeed" v="50"/>
    <tag k="ref" v="L 3020"/>
  </way>
  <way id="18835143" version="7" timestamp="2011-11-25T01:30:00Z" uid="316582" user="Lurchi" changeset="9939463"/>
  <way id="18835144" version="1" timestamp="2007-12-28T23:27:50Z" uid="3451" user="sascha_silbe" changeset="466066">
    <nd ref="30471003"/>
    <nd ref="194611837"/>
    <nd ref="194611988"/>
    <nd ref="194612166"/>
    <nd ref="194612327"/>
    <nd ref="194611867"/>
    <tag k="created_by" v="JOSM"/>
    <tag k="highway" v="residential"/>
    <tag k="name" v="Am Bach"/>
    <tag k="source" v="survey"/>
  </way>
  <way id="18835144" version="2" timestamp="2008-06-13T16:03:25Z" uid="43615" user="bmcw" changeset="149466">
    <nd ref="30471003"/>
    <nd ref="270117935"/>
    <nd ref="194611837"/>
    <nd ref="194611988"/>
    <nd ref="194612166"/>
    <nd ref="194612327"/>
    <nd ref="194611867"/>
    <tag k="created_by" v="JOSM"/>
    <tag k="highway" v="residential"/>
    <tag k="name" v="Am Bach"/>
    <tag k="source" v="survey"/>
  </way>
  <way id="18835144" version="3" timestamp="2011-11-20T18:57:13Z" uid="57645" user="KartoGrapHiti" changeset="9888352">
    <nd ref="30471003"/>
    <nd ref="270117935"/>
    <nd ref="194611837"/>
    <nd ref="194611988"/>
    <nd ref="194612166"/>
    <nd ref="194612327"/>
    <nd ref="194611867"/>
    <tag k="highway" v="residential"/>
    <tag k="lit" v="limited"/>
    <tag k="maxspeed" v="50"/>
    <tag k="name" v="Am Bach"/>
    <tag k="source" v="survey"/>
  </way>
  <way id="18835144" version="4" timestamp="2011-11-20T19:19:50Z" uid="57645" user="KartoGrapHiti" changeset="9888634">
    <nd ref="30471003"/>
    <nd ref="270117935"/>
    <nd ref="194611837"/>
    <nd ref="194611988"/>
    <nd ref="194612166"/>
    <nd ref="194612327"/>
    <nd ref="194611867"/>
    <tag k="highway" v="residential"/>
    <tag k="lit" v="limited"/>
    <tag k="maxspeed" v="50"/>
    <tag k="name" v="Am Bach"/>
    <tag k="source" v="survey"/>
  </way>
  <way id="18835144" version="5" timestamp="2011-11-25T01:29:46Z" uid="316582" user="Lurchi" changeset="9939463">
    <nd ref="30471003"/>
    <nd ref="194611837"/>
    <nd ref="194611988"/>
    <nd ref="194612166"/>
    <nd ref="194612327"/>
    <nd ref="194611867"/>
    <tag k="highway" v="residential"/>
    <tag k="lit" v="limited"/>
    <tag k="maxspeed" v="50"/>
    <tag k="name" v="Am Bach"/>
    <tag k="source" v="survey"/>
  </way>
  <way id="18835144" version="6" timestamp="2012-01-27T21:23:04Z" uid="57645" user="KartoGrapHiti" changeset="10516518">
    <nd ref="30471003"/>
    <nd ref="1607868252"/>
    <nd ref="194612327"/>
    <nd ref="194611867"/>
    <tag k="highway" v="residential"/>
    <tag k="lit" v="limited"/>
    <tag k="maxspeed" v="50"/>
    <tag k="name" v="Am Bach"/>
    <tag k="source" v="survey"/>
  </way>
  <way id="18835145" version="1" timestamp="2007-12-28T23:27:50Z" uid="3451" user="sascha_silbe" changeset="466066">
    <nd ref="194612302"/>
    <nd ref="194611819"/>
    <nd ref="194611966"/>
    <nd ref="194612287"/>
    <nd ref="194612106"/>
    <nd ref="194612270"/>
    <tag k="created_by" v="JOSM"/>
    <tag k="highway" v="residential"/>
    <tag k="name" v="Heinestraße"/>
    <tag k="source" v="survey"/>
  </way>
  <way id="18835145" version="2" timestamp="2008-05-14T17:01:56Z" uid="18141" user="Hobby Navigator" changeset="445262">
    <nd ref="194612302"/>
    <nd ref="194611819"/>
    <nd ref="194612287"/>
    <nd ref="194612106"/>
    <nd ref="194612270"/>
    <tag k="created_by" v="Potlatch 0.9a"/>
    <tag k="highway" v="residential"/>
    <tag k="name" v="Heinestraße"/>
    <tag k="source" v="survey"/>
  </way>
  <way id="18835145" version="3" timestamp="2008-06-26T21:16:50Z" uid="43615" user="bmcw" changeset="305987">
    <nd ref="194612302"/>
    <nd ref="273510001"/>
    <nd ref="273510002"/>
    <nd ref="194611819"/>
    <nd ref="194612287"/>
    <nd ref="194612106"/>
    <nd ref="194612270"/>
    <tag k="created_by" v="Potlatch 0.9a"/>
    <tag k="highway" v="residential"/>
    <tag k="name" v="Heinestraße"/>
    <tag k="source" v="survey"/>
  </way>
  <way id="18835145" version="4" timestamp="2011-08-23T14:10:43Z" uid="316582" user="Lurchi" changeset="9104045">
    <nd ref="194612302"/>
    <nd ref="273510001"/>
    <nd ref="273510002"/>
    <nd ref="194611819"/>
    <nd ref="194612287"/>
    <nd ref="194612106"/>
    <nd ref="1409942772"/>
    <tag k="highway" v="residential"/>
    <tag k="name" v="Heinestraße"/>
    <tag k="source" v="survey"/>
  </way>
  <way id="18835145" version="5" timestamp="2011-11-20T18:26:12Z" uid="57645" user="KartoGrapHiti" changeset="9887967">
    <nd ref="194612302"/>
    <nd ref="273510001"/>
    <nd ref="273510002"/>
    <nd ref="194611819"/>
    <nd ref="194612287"/>
    <nd ref="194612106"/>
    <nd ref="1409942772"/>
    <tag k="highway" v="residential"/>
    <tag k="maxspeed" v="50"/>
    <tag k="name" v="Heinestraße"/>
    <tag k="source" v="survey"/>
  </way>
  <way id="18835145" version="6" timestamp="2011-11-20T18:57:23Z" uid="57645" user="KartoGrapHiti" changeset="9888352">
    <nd ref="194612302"/>
    <nd ref="273510001"/>
    <nd ref="273510002"/>
    <nd ref="194611819"/>
    <nd ref="194612287"/>
    <nd ref="194612106"/>
    <nd ref="1409942772"/>
    <tag k="highway" v="residential"/>
    <tag k="lit" v="limited"/>
    <tag k="maxspeed" v="50"/>
    <tag k="name" v="Heinestraße"/>
    <tag k="source" v="survey"/>
  </way>
  <way id="18835145" version="7" timestamp="2011-11-20T19:19:58Z" uid="57645" user="KartoGrapHiti" changeset="9888634">
    <nd ref="194612302"/>
    <nd ref="273510001"/>
    <nd ref="273510002"/>
    <nd ref="194611819"/>
    <nd ref="194612287"/>
    <nd ref="194612106"/>
    <nd ref="1409942772"/>
    <tag k="footway" v="both"/>
    <tag k="highway" v="residential"/>
    <tag k="lit" v="limited"/>
    <tag k="maxspeed" v="50"/>
    <tag k="name" v="Heinestraße"/>
    <tag k="source" v="survey"/>
  </way>
  <way id="18835145" version="8" timestamp="2011-11-25T01:29:51Z" uid="316582" user="Lurchi" changeset="9939463">
    <nd ref="194612302"/>
    <nd ref="194611819"/>
    <nd ref="194612287"/>
    <nd ref="194612106"/>
    <nd ref="1409942772"/>
    <tag k="footway" v="both"/>
    <tag k="highway" v="residential"/>
    <tag k="lit" v="limited"/>
    <tag k="maxspeed" v="50"/>
    <tag k="name" v="Heinestraße"/>
    <tag k="source" v="survey"/>
  </way>
  <way id="18835145" version="9" timestamp="2011-11-29T17:47:35Z" uid="316582" user="Lurchi" changeset="9990166"/>
  <way id="18835146" version="1" timestamp="2007-12-28T23:27:50Z" uid="3451" user="sascha_silbe" changeset="466066">
    <nd ref="194611839"/>
    <nd ref="194612350"/>
    <tag k="created_by" v="JOSM"/>
    <tag k="highway" v="residential"/>
    <tag k="source" v="survey"/>
  </way>
  <way id="18835146" version="2" timestamp="2008-06-12T17:30:06Z" uid="43615" user="bmcw" changeset="145826">
    <nd ref="194612159"/>
    <nd ref="269940463"/>
    <nd ref="269940462"/>
    <nd ref="269940461"/>
    <nd ref="269940459"/>
    <nd ref="269940458"/>
    <nd ref="194612350"/>
    <nd ref="194611839"/>
    <nd ref="194611860"/>
    <tag k="created_by" v="JOSM"/>
    <tag k="highway" v="residential"/>
    <tag k="source" v="survey"/>
  </way>
  <way id="18835146" version="3" timestamp="2008-06-13T20:19:16Z" uid="43615" user="bmcw" changeset="154126">
    <nd ref="194612159"/>
    <nd ref="270166292"/>
    <nd ref="269940463"/>
    <nd ref="269940462"/>
    <nd ref="269940461"/>
    <nd ref="269940459"/>
    <nd ref="269940458"/>
    <nd ref="270166322"/>
    <nd ref="194612350"/>
    <nd ref="270166327"/>
    <nd ref="194611839"/>
    <nd ref="194611860"/>
    <tag k="created_by" v="JOSM"/>
    <tag k="highway" v="residential"/>
    <tag k="source" v="survey"/>
  </way>
  <way id="18835146" version="4" timestamp="2008-07-17T18:13:45Z" uid="18141" user="Hobby Navigator" changeset="514554">
    <nd ref="194612159"/>
    <nd ref="270166292"/>
    <nd ref="269940463"/>
    <nd ref="269940462"/>
    <nd ref="269940461"/>
    <nd ref="269940459"/>
    <nd ref="269940458"/>
    <nd ref="270166322"/>
    <nd ref="194612350"/>
    <nd ref="270166327"/>
    <nd ref="194611839"/>
    <nd ref="194611860"/>
    <tag k="created_by" v="JOSM"/>
    <tag k="highway" v="residential"/>
    <tag k="name" v="Steinstraße"/>
    <tag k="source" v="survey"/>
  </way>
  <way id="18835146" version="5" timestamp="2009-10-18T20:38:51Z" uid="57645" user="KartoGrapHiti" changeset="2888932">
    <nd ref="194612159"/>
    <nd ref="270166292"/>
    <nd ref="269940462"/>
    <nd ref="269940461"/>
    <nd ref="269940459"/>
    <nd ref="269940458"/>
    <nd ref="270166322"/>
    <nd ref="194612350"/>
    <nd ref="270166327"/>
    <nd ref="194611839"/>
    <nd ref="194611860"/>
    <tag k="highway" v="residential"/>
    <tag k="name" v="Steinstraße"/>
    <tag k="source" v="survey"/>
  </way>
  <way id="18835146" version="6" timestamp="2010-09-23T15:16:06Z" uid="316582" user="Lurchi" changeset="5854776">
    <nd ref="194612159"/>
    <nd ref="270166292"/>
    <nd ref="269940462"/>
    <nd ref="269940461"/>
    <nd ref="269940459"/>
    <nd ref="269940458"/>
    <nd ref="270166322"/>
    <nd ref="194612350"/>
    <nd ref="270166327"/>
    <nd ref="194611839"/>
    <nd ref="194611860"/>
    <tag k="highway" v="residential"/>
    <tag k="maxspeed" v="30"/>
    <tag k="name" v="Steinstraße"/>
    <tag k="source" v="survey"/>
  </way>
  <way id="18835146" version="7" timestamp="2011-11-20T18:57:38Z" uid="57645" user="KartoGrapHiti" changeset="9888352">
    <nd ref="194612159"/>
    <nd ref="270166292"/>
    <nd ref="269940462"/>
    <nd ref="269940461"/>
    <nd ref="269940459"/>
    <nd ref="269940458"/>
    <nd ref="270166322"/>
    <nd ref="194612350"/>
    <nd ref="270166327"/>
    <nd ref="194611839"/>
    <nd ref="194611860"/>
    <tag k="highway" v="residential"/>
    <tag k="lit" v="limited"/>
    <tag k="maxspeed" v="30"/>
    <tag k="name" v="Steinstraße"/>
    <tag k="source" v="survey"/>
  </way>
  <way id="18835146" version="8" timestamp="2011-11-25T01:30:00Z" uid="316582" user="Lurchi" changeset="9939463"/>
  <way id="18835148" version="1" timestamp="2007-12-28T23:27:51Z" uid="3451" user="sascha_silbe" changeset="466066">
    <nd ref="194612350"/>
    <nd ref="194612270"/>
    <nd ref="194612122"/>
    <nd ref="194612354"/>
    <tag k="created_by" v="JOSM"/>
    <tag k="highway" v="residential"/>
    <tag k="name" v="Büchnerstraße"/>
    <tag k="source" v="survey"/>
  </way>
  <way id="18835148" version="2" timestamp="2008-06-13T20:19:17Z" uid="43615" user="bmcw" changeset="154126"/>
  <way id="18835414" version="3" timestamp="2008-06-12T20:43:04Z" uid="36803" user="Lords" changeset="144321">
    <nd ref="194617382"/>
    <nd ref="26942932"/>
    <nd ref="26942933"/>
    <nd ref="26942934"/>
    <nd ref="26942935"/>
    <nd ref="26942936"/>
    <nd ref="26942937"/>
    <nd ref="26942938"/>
    <nd ref="26942939"/>
    <nd ref="269975823"/>
    <tag k="created_by" v="fixbot"/>
    <tag k="highway" v="motorway"/>
    <tag k="oneway" v="yes"/>
    <tag k="ref" v="A14"/>
  </way>
  <way id="18835414" version="4" timestamp="2008-07-24T09:30:51Z" uid="42123" user="Ropino" changeset="582670">
    <nd ref="194617382"/>
    <nd ref="26942932"/>
    <nd ref="26942933"/>
    <nd ref="26942934"/>
    <nd ref="26942935"/>
    <nd ref="26942936"/>
    <nd ref="26942937"/>
    <nd ref="26942938"/>
    <nd ref="26942939"/>
    <nd ref="269975823"/>
    <tag k="created_by" v="fixbot"/>
    <tag k="highway" v="motorway"/>
    <tag k="lanes" v="2"/>
    <tag k="oneway" v="yes"/>
    <tag k="ref" v="A 14"/>
  </way>
  <way id="18835414" version="5" timestamp="2008-12-18T18:07:51Z" uid="13565" user="hadhuey" changeset="458099">
    <nd ref="194617382"/>
    <nd ref="26942932"/>
    <nd ref="319782489"/>
    <nd ref="319782464"/>
    <tag k="created_by" v="Potlatch 0.10f"/>
    <tag k="highway" v="motorway"/>
    <tag k="lanes" v="2"/>
    <tag k="oneway" v="yes"/>
    <tag k="ref" v="A 14"/>
  </way>
  <way id="18835414" version="6" timestamp="2008-12-18T18:07:54Z" uid="13565" user="hadhuey" changeset="458099">
    <nd ref="194617382"/>
    <nd ref="26942932"/>
    <nd ref="319782489"/>
    <tag k="created_by" v="Potlatch 0.10f"/>
    <tag k="highway" v="motorway"/>
    <tag k="lanes" v="2"/>
    <tag k="oneway" v="yes"/>
    <tag k="ref" v="A 14"/>
  </way>
  <way id="18835414" version="7" timestamp="2009-03-14T15:49:28Z" uid="9176" user="Maarten Deen" changeset="806070">
    <nd ref="194617382"/>
    <nd ref="26942932"/>
    <nd ref="319782489"/>
    <tag k="highway" v="motorway"/>
    <tag k="int_ref" v="E 49"/>
    <tag k="lanes" v="2"/>
    <tag k="oneway" v="yes"/>
    <tag k="ref" v="A 14"/>
  </way>
  <way id="18835414" version="8" timestamp="2010-11-27T14:10:56Z" uid="30077" user="ChristianW" changeset="6470107">
    <nd ref="194617382"/>
    <nd ref="26942932"/>
    <nd ref="319782489"/>
    <tag k="highway" v="motorway"/>
    <tag k="int_ref" v="E 49"/>
    <tag k="lanes" v="2"/>
    <tag k="lit" v="no"/>
    <tag k="oneway" v="yes"/>
    <tag k="ref" v="A 14"/>
    <tag k="surface" v="asphalt"/>
  </way>
  <way id="18835108" version="8" timestamp="2012-07-19T03:11:09Z" uid="722137" user="OSMF Redaction Account" changeset="12306241"/>
  <way id="18835110" version="3" timestamp="2012-07-19T03:11:08Z" uid="722137" user="OSMF Redaction Account" changeset="12306241"/>
  <way id="18835128" version="6" timestamp="2012-07-19T03:11:09Z" uid="722137" user="OSMF Redaction Account" changeset="12306241"/>
  <way id="18835131" version="5" timestamp="2012-07-19T03:11:08Z" uid="722137" user="OSMF Redaction Account" changeset="12306241"/>
  <way id="18835144" version="7" timestamp="2012-07-19T03:11:08Z" uid="722137" user="OSMF Redaction Account" changeset="12306241"/>
</osm>
