<?xml version='1.0' encoding='UTF-8'?>
<osm version="0.6" generator="libosmium/2.20.0">
  <way id="18862013" version="8" timestamp="2010-10-14T20:50:14Z" uid="164966" user="linuss1" changeset="6043081">
    <nd ref="194992801"/>
    <nd ref="305904148"/>
    <nd ref="194992806"/>
    <tag k="bicycle" v="yes"/>
    <tag k="highway" v="footway"/>
    <tag k="source" v="gps"/>
  </way>
  <way id="18862013" version="9" timestamp="2012-01-28T18:19:13Z" uid="454746" user="KrÃ¼mel71" changeset="10523390">
    <nd ref="194992801"/>
    <nd ref="305904148"/>
    <nd ref="194992806"/>
    <tag k="bicycle" v="yes"/>
    <tag k="highway" v="footway"/>
    <tag k="rcn" v="yes"/>
    <tag k="rcn_ref" v="rvnsh"/>
    <tag k="source" v="gps"/>
  </way>
  <way id="18862189" version="3" timestamp="2008-11-09T05:48:03Z" uid="30201" user="rrankin" changeset="719919">
    <nd ref="194995538"/>
    <nd ref="194995553"/>
    <nd ref="310730829"/>
    <nd ref="194995576"/>
    <nd ref="194995578"/>
    <nd ref="194995600"/>
    <nd ref="194995601"/>
    <nd ref="194995602"/>
    <nd ref="206222599"/>
    <nd ref="157279856"/>
    <tag k="created_by" v="Potlatch 0.6"/>
    <tag k="highway" v="secondary"/>
    <tag k="name" v="Old Junee Road"/>
  </way>
  <way id="18862189" version="4" timestamp="2011-09-21T10:19:25Z" uid="328538" user="o&apos;cholio" changeset="9359082">
    <nd ref="194995538"/>
    <nd ref="1439163179"/>
    <tag k="highway" v="secondary"/>
    <tag k="name" v="Old Junee Road"/>
  </way>
  <way id="18862216" version="2" timestamp="2008-11-09T03:21:50Z" uid="30201" user="rrankin" changeset="719829">
    <nd ref="194995887"/>
    <nd ref="194995538"/>
    <tag k="created_by" v="Potlatch 0.6"/>
    <tag k="highway" v="primary"/>
    <tag k="name" v="Gwynne Street"/>
    <tag k="ref" v="S85"/>
    <tag k="source" v="survey"/>
  </way>
  <way id="18862216" version="3" timestamp="2011-09-21T10:19:19Z" uid="328538" user="o&apos;cholio" changeset="9359082">
    <nd ref="194995887"/>
    <nd ref="1439163218"/>
    <nd ref="194995538"/>
    <tag k="highway" v="primary"/>
    <tag k="name" v="Gwynne Street"/>
    <tag k="ref" v="S85"/>
    <tag k="source" v="survey"/>
  </way>
  <way id="18862221" version="4" timestamp="2008-11-09T03:21:53Z" uid="30201" user="rrankin" changeset="719829">
    <nd ref="206222160"/>
    <nd ref="194995940"/>
    <nd ref="206222157"/>
    <nd ref="194995887"/>
    <tag k="created_by" v="Potlatch 0.6"/>
    <tag k="highway" v="primary"/>
    <tag k="name" v="Bolton Street"/>
    <tag k="ref" v="S85"/>
    <tag k="source" v="survey"/>
  </way>
  <way id="18862221" version="5" timestamp="2011-09-21T10:19:15Z" uid="328538" user="o&apos;cholio" changeset="9359082">
    <nd ref="206222160"/>
    <nd ref="194995940"/>
    <nd ref="1439163595"/>
    <tag k="highway" v="primary"/>
    <tag k="name" v="Bolton Street"/>
    <tag k="ref" v="S85"/>
    <tag k="source" v="survey"/>
  </way>
  <way id="18862465" version="1" timestamp="2007-12-29T05:52:17Z" uid="18775" user="drlizau" changeset="459672">
    <nd ref="195000080"/>
    <nd ref="195000114"/>
    <tag k="created_by" v="JOSM"/>
    <tag k="highway" v="residential"/>
    <tag k="name" v="Farronato Road"/>
  </way>
  <way id="18862465" version="2" timestamp="2008-03-03T22:02:57Z" uid="18775" user="drlizau" changeset="263253">
    <nd ref="195000080"/>
    <nd ref="250409605"/>
    <nd ref="195000114"/>
    <tag k="created_by" v="JOSM"/>
    <tag k="highway" v="residential"/>
    <tag k="name" v="Farronato Road"/>
  </way>
  <way id="18862465" version="3" timestamp="2008-11-16T11:10:08Z" uid="18775" user="drlizau" changeset="756879">
    <nd ref="195000080"/>
    <nd ref="250409605"/>
    <nd ref="195000114"/>
    <tag k="created_by" v="JOSM"/>
    <tag k="highway" v="residential"/>
    <tag k="name" v="Farronato Road"/>
  </way>
  <way id="18862465" version="4" timestamp="2008-11-16T11:37:29Z" uid="18775" user="drlizau" changeset="756879">
    <nd ref="195000080"/>
    <nd ref="250409605"/>
    <nd ref="195000114"/>
    <tag k="created_by" v="JOSM"/>
    <tag k="highway" v="residential"/>
    <tag k="name" v="Farronato Road"/>
    <tag k="source" v="survey"/>
  </way>
  <way id="18862465" version="5" timestamp="2010-07-07T08:12:13Z" uid="74617" user="JohnSmith" changeset="5156250">
    <nd ref="195000080"/>
    <nd ref="250409605"/>
    <nd ref="195000114"/>
    <tag k="highway" v="residential"/>
    <tag k="maxspeed" v="50"/>
    <tag k="maxspeed:source" v="default residential speed limit in Australia"/>
    <tag k="name" v="Farronato Road"/>
    <tag k="source" v="survey"/>
  </way>
  <way id="18862465" version="6" timestamp="2010-12-20T11:54:14Z" uid="19626" user="Swamp" changeset="6715173">
    <nd ref="195000080"/>
    <nd ref="250409605"/>
    <nd ref="195000114"/>
    <tag k="highway" v="residential"/>
    <tag k="maxspeed" v="50"/>
    <tag k="name" v="Farronato Road"/>
    <tag k="source" v="survey"/>
  </way>
  <way id="18862465" version="7" timestamp="2012-01-15T19:28:58Z" uid="147510" user="woodpeck_fixbot" changeset="10400850">
    <nd ref="195000080"/>
    <nd ref="250409605"/>
    <nd ref="195000114"/>
    <tag k="highway" v="residential"/>
    <tag k="name" v="Farronato Road"/>
    <tag k="source" v="survey"/>
  </way>
  <way id="18862468" version="1" timestamp="2007-12-29T05:52:18Z" uid="18775" user="drlizau" changeset="459672">
    <nd ref="195000132"/>
    <nd ref="195000114"/>
    <tag k="created_by" v="JOSM"/>
    <tag k="highway" v="service"/>
    <tag k="name" v="Riddle Lane"/>
    <tag k="surface" v="unpaved"/>
  </way>
  <way id="18862468" version="2" timestamp="2008-11-16T11:10:17Z" uid="18775" user="drlizau" changeset="756879">
    <nd ref="195000132"/>
    <nd ref="195000114"/>
    <tag k="created_by" v="JOSM"/>
    <tag k="highway" v="service"/>
    <tag k="name" v="Riddle Lane"/>
    <tag k="surface" v="unpaved"/>
  </way>
  <way id="18862468" version="3" timestamp="2008-11-16T11:37:34Z" uid="18775" user="drlizau" changeset="756879">
    <nd ref="195000132"/>
    <nd ref="195000114"/>
    <tag k="created_by" v="JOSM"/>
    <tag k="highway" v="service"/>
    <tag k="name" v="Riddle Lane"/>
    <tag k="source" v="survey"/>
    <tag k="surface" v="unpaved"/>
  </way>
  <way id="18862578" version="1" timestamp="2007-12-29T05:54:04Z" uid="18775" user="drlizau" changeset="459672">
    <nd ref="195001920"/>
    <nd ref="195001935"/>
    <nd ref="111328620"/>
    <tag k="created_by" v="JOSM"/>
    <tag k="highway" v="residential"/>
    <tag k="name" v="Kooyoo Street"/>
  </way>
  <way id="18862578" version="2" timestamp="2007-12-29T05:55:07Z" uid="18775" user="drlizau" changeset="459672">
    <nd ref="195001920"/>
    <nd ref="195001935"/>
    <nd ref="195003073"/>
    <nd ref="111328620"/>
    <tag k="created_by" v="JOSM"/>
    <tag k="highway" v="residential"/>
    <tag k="name" v="Kooyoo Street"/>
  </way>
  <way id="18862578" version="3" timestamp="2008-11-16T11:06:03Z" uid="18775" user="drlizau" changeset="756879">
    <nd ref="195001920"/>
    <nd ref="195001935"/>
    <nd ref="195003073"/>
    <nd ref="111328620"/>
    <tag k="created_by" v="JOSM"/>
    <tag k="highway" v="residential"/>
    <tag k="name" v="Kooyoo Street"/>
  </way>
  <way id="18862578" version="4" timestamp="2008-11-16T11:34:20Z" uid="18775" user="drlizau" changeset="756879">
    <nd ref="195001920"/>
    <nd ref="195001935"/>
    <nd ref="195003073"/>
    <nd ref="111328620"/>
    <tag k="created_by" v="JOSM"/>
    <tag k="highway" v="residential"/>
    <tag k="name" v="Kooyoo Street"/>
    <tag k="source" v="survey"/>
  </way>
  <way id="18862578" version="5" timestamp="2009-07-02T10:19:14Z" uid="18775" user="drlizau" changeset="1708844">
    <nd ref="195001920"/>
    <nd ref="432473304"/>
    <tag k="created_by" v="JOSM"/>
    <tag k="highway" v="residential"/>
    <tag k="name" v="Kooyoo Street"/>
    <tag k="source" v="survey"/>
  </way>
  <way id="18862578" version="6" timestamp="2009-07-25T04:19:24Z" uid="74617" user="JohnSmith" changeset="1930655">
    <nd ref="195001920"/>
    <nd ref="432473304"/>
    <tag k="highway" v="residential"/>
    <tag k="name" v="Kooyoo Street"/>
    <tag k="source" v="survey"/>
  </way>
  <way id="18862578" version="7" timestamp="2010-07-07T08:12:13Z" uid="74617" user="JohnSmith" changeset="5156250">
    <nd ref="195001920"/>
    <nd ref="432473304"/>
    <tag k="highway" v="residential"/>
    <tag k="maxspeed" v="50"/>
    <tag k="maxspeed:source" v="default residential speed limit in Australia"/>
    <tag k="name" v="Kooyoo Street"/>
    <tag k="source" v="survey"/>
  </way>
  <way id="18862578" version="8" timestamp="2012-01-15T19:29:01Z" uid="147510" user="woodpeck_fixbot" changeset="10400850">
    <nd ref="195001920"/>
    <nd ref="432473304"/>
    <tag k="highway" v="residential"/>
    <tag k="name" v="Kooyoo Street"/>
    <tag k="source" v="survey"/>
  </way>
  <way id="18862602" version="5" timestamp="2008-11-09T02:12:24Z" uid="30201" user="rrankin" changeset="719829">
    <nd ref="206221382"/>
    <nd ref="310719820"/>
    <nd ref="195002449"/>
    <nd ref="206221383"/>
    <nd ref="195002450"/>
    <nd ref="195002451"/>
    <nd ref="206221837"/>
    <nd ref="195002452"/>
    <nd ref="195002454"/>
    <nd ref="195002456"/>
    <nd ref="195002457"/>
    <nd ref="195002458"/>
    <nd ref="195002459"/>
    <nd ref="195002461"/>
    <nd ref="195002463"/>
    <nd ref="195002464"/>
    <nd ref="195002466"/>
    <nd ref="195002468"/>
    <nd ref="206221840"/>
    <nd ref="206221839"/>
    <nd ref="206221842"/>
    <nd ref="206221844"/>
    <nd ref="206221845"/>
    <nd ref="195002469"/>
    <nd ref="206221846"/>
    <nd ref="206221847"/>
    <nd ref="206221849"/>
    <nd ref="195002470"/>
    <nd ref="206221850"/>
    <nd ref="206221855"/>
    <nd ref="206221852"/>
    <nd ref="206221854"/>
    <nd ref="195002472"/>
    <nd ref="195002473"/>
    <nd ref="206221856"/>
    <nd ref="195002475"/>
    <nd ref="113664276"/>
    <nd ref="195002476"/>
    <nd ref="195002477"/>
    <nd ref="195002478"/>
    <nd ref="195002480"/>
    <nd ref="195002482"/>
    <nd ref="195002484"/>
    <nd ref="195002485"/>
    <nd ref="195002486"/>
    <nd ref="195002487"/>
    <nd ref="195002488"/>
    <nd ref="195002489"/>
    <nd ref="195002490"/>
    <nd ref="206222158"/>
    <nd ref="206222160"/>
    <tag k="created_by" v="Potlatch 0.6"/>
    <tag k="highway" v="secondary"/>
    <tag k="name" v="Coolamon Road"/>
  </way>
  <way id="18862602" version="6" timestamp="2011-09-21T10:19:15Z" uid="328538" user="o&apos;cholio" changeset="9359082">
    <nd ref="206221382"/>
    <nd ref="310719820"/>
    <nd ref="195002449"/>
    <nd ref="206221383"/>
    <nd ref="195002450"/>
    <nd ref="195002451"/>
    <nd ref="206221837"/>
    <nd ref="195002452"/>
    <nd ref="195002454"/>
    <nd ref="195002456"/>
    <nd ref="195002457"/>
    <nd ref="195002458"/>
    <nd ref="195002459"/>
    <nd ref="195002461"/>
    <nd ref="1439163504"/>
    <nd ref="195002463"/>
    <nd ref="195002464"/>
    <nd ref="195002466"/>
    <nd ref="195002468"/>
    <nd ref="206221840"/>
    <nd ref="1439163458"/>
    <nd ref="206221839"/>
    <nd ref="206221842"/>
    <nd ref="206221844"/>
    <nd ref="206221845"/>
    <nd ref="195002469"/>
    <nd ref="1439163453"/>
    <nd ref="206221846"/>
    <nd ref="1439163440"/>
    <nd ref="206221847"/>
    <nd ref="1439163423"/>
    <nd ref="1439163419"/>
    <nd ref="195002470"/>
    <nd ref="1439163402"/>
    <nd ref="206221850"/>
    <nd ref="1439163397"/>
    <nd ref="206221855"/>
    <nd ref="206221852"/>
    <nd ref="206221854"/>
    <nd ref="195002472"/>
    <nd ref="195002473"/>
    <nd ref="1439163264"/>
    <nd ref="1439163266"/>
    <nd ref="206221856"/>
    <nd ref="1439163274"/>
    <nd ref="195002475"/>
    <nd ref="1439163395"/>
    <nd ref="1439163418"/>
    <nd ref="1439163435"/>
    <nd ref="113664276"/>
    <nd ref="1439163460"/>
    <nd ref="1439163467"/>
    <nd ref="195002476"/>
    <nd ref="1439163476"/>
    <nd ref="1439163474"/>
    <nd ref="1439163465"/>
    <nd ref="195002477"/>
    <nd ref="195002478"/>
    <nd ref="195002480"/>
    <nd ref="1439163176"/>
    <nd ref="1439163175"/>
    <nd ref="1439163172"/>
    <nd ref="195002482"/>
    <nd ref="1439163164"/>
    <nd ref="1439163165"/>
    <nd ref="195002484"/>
    <nd ref="1439163187"/>
    <nd ref="195002485"/>
    <nd ref="1439163235"/>
    <nd ref="1439163243"/>
    <nd ref="195002486"/>
    <nd ref="1439163257"/>
    <nd ref="1439163278"/>
    <nd ref="195002487"/>
    <nd ref="1439163436"/>
    <nd ref="1439163459"/>
    <nd ref="195002488"/>
    <nd ref="1439163512"/>
    <nd ref="1439163523"/>
    <nd ref="1439163528"/>
    <nd ref="1439163532"/>
    <nd ref="1439163543"/>
    <nd ref="195002489"/>
    <nd ref="1439163564"/>
    <nd ref="1439163584"/>
    <nd ref="1439163606"/>
    <nd ref="1439163611"/>
    <nd ref="1439163616"/>
    <nd ref="1439163620"/>
    <nd ref="206222160"/>
    <tag k="highway" v="secondary"/>
    <tag k="name" v="Coolamon Road"/>
  </way>
  <way id="18862627" version="1" timestamp="2007-12-29T05:55:01Z" uid="18775" user="drlizau" changeset="459672">
    <nd ref="195003062"/>
    <nd ref="195003073"/>
    <nd ref="195003081"/>
    <tag k="created_by" v="JOSM"/>
    <tag k="highway" v="service"/>
    <tag k="name" v="Banna Lane"/>
    <tag k="oneway" v="true"/>
  </way>
  <way id="18862627" version="2" timestamp="2008-02-14T10:25:44Z" uid="19626" user="Swamp" changeset="121791">
    <nd ref="195003062"/>
    <nd ref="195003073"/>
    <tag k="created_by" v="JOSM"/>
    <tag k="highway" v="service"/>
    <tag k="name" v="Banna Lane"/>
    <tag k="oneway" v="true"/>
  </way>
  <way id="18862627" version="3" timestamp="2008-03-03T11:03:21Z" uid="18775" user="drlizau" changeset="259431">
    <nd ref="195003062"/>
    <nd ref="195003073"/>
    <nd ref="250292258"/>
    <tag k="created_by" v="JOSM"/>
    <tag k="highway" v="service"/>
    <tag k="name" v="Banna Lane"/>
    <tag k="oneway" v="true"/>
  </way>
  <way id="18862627" version="4" timestamp="2008-11-16T11:04:26Z" uid="18775" user="drlizau" changeset="756879">
    <nd ref="195003062"/>
    <nd ref="195003073"/>
    <nd ref="250292258"/>
    <tag k="created_by" v="JOSM"/>
    <tag k="highway" v="service"/>
    <tag k="name" v="Banna Lane"/>
    <tag k="oneway" v="true"/>
  </way>
  <way id="18862627" version="5" timestamp="2008-11-16T11:32:45Z" uid="18775" user="drlizau" changeset="756879">
    <nd ref="195003062"/>
    <nd ref="195003073"/>
    <nd ref="250292258"/>
    <tag k="created_by" v="JOSM"/>
    <tag k="highway" v="service"/>
    <tag k="name" v="Banna Lane"/>
    <tag k="oneway" v="true"/>
    <tag k="source" v="survey"/>
  </way>
  <way id="18862627" version="6" timestamp="2009-04-13T07:48:31Z" uid="18775" user="drlizau" changeset="467664">
    <nd ref="195003062"/>
    <nd ref="195003073"/>
    <nd ref="250292258"/>
    <tag k="created_by" v="JOSM"/>
    <tag k="highway" v="service"/>
    <tag k="name" v="Banna Lane"/>
    <tag k="oneway" v="yes"/>
    <tag k="source" v="survey"/>
  </way>
  <way id="18862627" version="7" timestamp="2009-07-25T04:16:15Z" uid="74617" user="JohnSmith" changeset="1930637">
    <nd ref="195003062"/>
    <nd ref="195003073"/>
    <nd ref="250292258"/>
    <tag k="highway" v="service"/>
    <tag k="name" v="Banna Lane"/>
    <tag k="oneway" v="yes"/>
    <tag k="source" v="survey"/>
  </way>
  <way id="18862663" version="1" timestamp="2007-12-29T05:56:02Z" uid="18775" user="drlizau" changeset="459672">
    <nd ref="195003734"/>
    <nd ref="195003760"/>
    <nd ref="195003783"/>
    <nd ref="195003081"/>
    <tag k="created_by" v="JOSM"/>
    <tag k="highway" v="service"/>
    <tag k="name" v="Banna Lane"/>
  </way>
  <way id="18862663" version="2" timestamp="2007-12-29T05:59:03Z" uid="18775" user="drlizau" changeset="459672">
    <nd ref="195003734"/>
    <nd ref="195003760"/>
    <nd ref="195007027"/>
    <nd ref="195003783"/>
    <nd ref="195003081"/>
    <tag k="created_by" v="JOSM"/>
    <tag k="highway" v="service"/>
    <tag k="name" v="Banna Lane"/>
  </way>
  <way id="18862663" version="3" timestamp="2007-12-29T06:03:29Z" uid="18775" user="drlizau" changeset="459672">
    <nd ref="195003734"/>
    <nd ref="195003760"/>
    <nd ref="195007027"/>
    <nd ref="195003783"/>
    <nd ref="195011473"/>
    <nd ref="195003081"/>
    <tag k="created_by" v="JOSM"/>
    <tag k="highway" v="service"/>
    <tag k="name" v="Banna Lane"/>
  </way>
  <way id="18862663" version="4" timestamp="2008-02-14T10:25:42Z" uid="19626" user="Swamp" changeset="121791">
    <nd ref="195003734"/>
    <nd ref="195003760"/>
    <nd ref="195007027"/>
    <nd ref="195011473"/>
    <tag k="created_by" v="JOSM"/>
    <tag k="highway" v="service"/>
    <tag k="name" v="Banna Lane"/>
  </way>
  <way id="18862663" version="5" timestamp="2008-03-03T11:03:23Z" uid="18775" user="drlizau" changeset="259431"/>
  <way id="18862833" version="1" timestamp="2007-12-29T05:59:01Z" uid="18775" user="drlizau" changeset="459672">
    <nd ref="195007027"/>
    <nd ref="195007050"/>
    <tag k="created_by" v="JOSM"/>
    <tag k="highway" v="service"/>
    <tag k="name" v="Fielder Lane"/>
  </way>
  <way id="18862833" version="2" timestamp="2008-11-16T11:06:34Z" uid="18775" user="drlizau" changeset="756879">
    <nd ref="195007027"/>
    <nd ref="195007050"/>
    <tag k="created_by" v="JOSM"/>
    <tag k="highway" v="service"/>
    <tag k="name" v="Fielder Lane"/>
  </way>
  <way id="18862833" version="3" timestamp="2008-11-16T11:34:45Z" uid="18775" user="drlizau" changeset="756879">
    <nd ref="195007027"/>
    <nd ref="195007050"/>
    <tag k="created_by" v="JOSM"/>
    <tag k="highway" v="service"/>
    <tag k="name" v="Fielder Lane"/>
    <tag k="source" v="survey"/>
  </way>
  <way id="18862833" version="4" timestamp="2009-07-25T04:16:25Z" uid="74617" user="JohnSmith" changeset="1930637">
    <nd ref="195007027"/>
    <nd ref="195007050"/>
    <tag k="highway" v="service"/>
    <tag k="name" v="Fielder Lane"/>
    <tag k="source" v="survey"/>
  </way>
  <way id="18862013" version="10" timestamp="2012-06-06T07:10:36Z" uid="66391" user="geozeisig" changeset="11812929">
    <nd ref="194992801"/>
    <nd ref="305904148"/>
    <nd ref="194992806"/>
    <tag k="bicycle" v="yes"/>
    <tag k="highway" v="footway"/>
    <tag k="source" v="gps"/>
  </way>
  <way id="18862216" version="4" timestamp="2012-07-19T11:28:01Z" uid="722137" user="OSMF Redaction Account" changeset="12321636">
    <nd ref="194995887"/>
    <nd ref="1439163218"/>
    <nd ref="194995538"/>
    <tag k="highway" v="secondary"/>
    <tag k="name" v="Gwynne Street"/>
  </way>
  <way id="18862216" version="5" timestamp="2012-07-23T11:30:51Z" uid="12434" user="nm7s9" changeset="12448942">
    <nd ref="194995887"/>
    <nd ref="1439163218"/>
    <nd ref="194995538"/>
    <tag k="highway" v="primary"/>
    <tag k="name" v="Gwynne Street"/>
  </way>
  <way id="18862221" version="6" timestamp="2012-07-19T11:28:01Z" uid="722137" user="OSMF Redaction Account" changeset="12321636">
    <nd ref="206222160"/>
    <nd ref="194995940"/>
    <nd ref="1439163595"/>
    <tag k="highway" v="secondary"/>
    <tag k="name" v="Bolton Street"/>
  </way>
  <way id="18862465" version="8" timestamp="2012-07-19T07:52:15Z" uid="722137" user="OSMF Redaction Account" changeset="12312712"/>
  <way id="18862468" version="4" timestamp="2012-07-19T07:52:15Z" uid="722137" user="OSMF Redaction Account" changeset="12312712"/>
  <way id="18862578" version="9" timestamp="2012-07-19T08:05:44Z" uid="722137" user="OSMF Redaction Account" changeset="12313149"/>
  <way id="18862602" version="7" timestamp="2012-07-19T11:33:57Z" uid="722137" user="OSMF Redaction Account" changeset="12321966">
    <nd ref="206221382"/>
    <nd ref="195002449"/>
    <nd ref="206221383"/>
    <nd ref="195002450"/>
    <nd ref="195002451"/>
    <nd ref="206221837"/>
    <nd ref="195002452"/>
    <nd ref="195002454"/>
    <nd ref="195002456"/>
    <nd ref="195002457"/>
    <nd ref="195002458"/>
    <nd ref="195002459"/>
    <nd ref="195002461"/>
    <nd ref="1439163504"/>
    <nd ref="195002463"/>
    <nd ref="195002464"/>
    <nd ref="195002466"/>
    <nd ref="195002468"/>
    <nd ref="206221840"/>
    <nd ref="1439163458"/>
    <nd ref="206221839"/>
    <nd ref="206221842"/>
    <nd ref="206221844"/>
    <nd ref="206221845"/>
    <nd ref="195002469"/>
    <nd ref="1439163453"/>
    <nd ref="206221846"/>
    <nd ref="1439163440"/>
    <nd ref="206221847"/>
    <nd ref="1439163423"/>
    <nd ref="1439163419"/>
    <nd ref="195002470"/>
    <nd ref="1439163402"/>
    <nd ref="206221850"/>
    <nd ref="1439163397"/>
    <nd ref="206221855"/>
    <nd ref="206221852"/>
    <nd ref="206221854"/>
    <nd ref="195002472"/>
    <nd ref="195002473"/>
    <nd ref="1439163264"/>
    <nd ref="1439163266"/>
    <nd ref="206221856"/>
    <nd ref="1439163274"/>
    <nd ref="195002475"/>
    <nd ref="1439163395"/>
    <nd ref="1439163418"/>
    <nd ref="1439163435"/>
    <nd ref="113664276"/>
    <nd ref="1439163460"/>
    <nd ref="1439163467"/>
    <nd ref="195002476"/>
    <nd ref="1439163476"/>
    <nd ref="1439163474"/>
    <nd ref="1439163465"/>
    <nd ref="195002477"/>
    <nd ref="195002478"/>
    <nd ref="195002480"/>
    <nd ref="1439163176"/>
    <nd ref="1439163175"/>
    <nd ref="1439163172"/>
    <nd ref="195002482"/>
    <nd ref="1439163164"/>
    <nd ref="1439163165"/>
    <nd ref="195002484"/>
    <nd ref="1439163187"/>
    <nd ref="195002485"/>
    <nd ref="1439163235"/>
    <nd ref="1439163243"/>
    <nd ref="195002486"/>
    <nd ref="1439163257"/>
    <nd ref="1439163278"/>
    <nd ref="195002487"/>
    <nd ref="1439163436"/>
    <nd ref="1439163459"/>
    <nd ref="195002488"/>
    <nd ref="1439163512"/>
    <nd ref="1439163523"/>
    <nd ref="1439163528"/>
    <nd ref="1439163532"/>
    <nd ref="1439163543"/>
    <nd ref="195002489"/>
    <nd ref="1439163564"/>
    <nd ref="1439163584"/>
    <nd ref="1439163606"/>
    <nd ref="1439163611"/>
    <nd ref="1439163616"/>
    <nd ref="1439163620"/>
    <nd ref="206222160"/>
    <tag k="highway" v="secondary"/>
    <tag k="name" v="Coolamon Road"/>
  </way>
  <way id="18862627" version="8" timestamp="2012-07-19T08:05:47Z" uid="722137" user="OSMF Redaction Account" changeset="12313149"/>
  <way id="18862833" version="5" timestamp="2012-07-19T08:05:51Z" uid="722137" user="OSMF Redaction Account" changeset="12313149"/>
</osm>
