<?xml version='1.0' encoding='UTF-8'?>
<osm version="0.6" generator="libosmium/2.20.0">
  <way id="18863011" version="1" timestamp="2007-12-29T06:01:40Z" uid="4467" user="Rosscoe" changeset="459654">
    <nd ref="148907506"/>
    <nd ref="184271784"/>
    <nd ref="129142886"/>
    <nd ref="148808708"/>
    <tag k="created_by" v="JOSM"/>
    <tag k="highway" v="trunk_link"/>
    <tag k="oneway" v="true"/>
    <tag k="source" v="gpsdrivetrack"/>
    <tag k="surface" v="paved"/>
  </way>
  <way id="18863011" version="2" timestamp="2008-01-10T02:41:43Z" uid="4467" user="Rosscoe" changeset="589280">
    <nd ref="148907506"/>
    <nd ref="184271784"/>
    <nd ref="129142886"/>
    <nd ref="148808708"/>
    <tag k="created_by" v="JOSM"/>
    <tag k="highway" v="trunk_link"/>
    <tag k="oneway" v="true"/>
    <tag k="source" v="gpsdrivetrack"/>
    <tag k="surface" v="paved"/>
  </way>
  <way id="18863011" version="3" timestamp="2008-12-24T13:41:47Z" uid="4467" user="Rosscoe" changeset="586186">
    <nd ref="148907506"/>
    <nd ref="184271784"/>
    <tag k="created_by" v="JOSM"/>
    <tag k="highway" v="trunk_link"/>
    <tag k="name" v="Bruce Highway"/>
    <tag k="oneway" v="true"/>
    <tag k="source" v="survey"/>
    <tag k="surface" v="paved"/>
  </way>
  <way id="18863011" version="4" timestamp="2008-12-24T13:43:39Z" uid="4467" user="Rosscoe" changeset="586186">
    <nd ref="148907506"/>
    <nd ref="184271784"/>
    <tag k="created_by" v="JOSM"/>
    <tag k="highway" v="trunk_link"/>
    <tag k="name" v="Bruce Highway"/>
    <tag k="oneway" v="true"/>
    <tag k="ref" v="A1"/>
    <tag k="source" v="survey"/>
    <tag k="surface" v="paved"/>
  </way>
  <way id="18863011" version="5" timestamp="2008-12-26T06:09:04Z" uid="4467" user="Rosscoe" changeset="607845">
    <nd ref="148907506"/>
    <nd ref="184271784"/>
    <tag k="created_by" v="JOSM"/>
    <tag k="highway" v="trunk_link"/>
    <tag k="name" v="Bruce Highway"/>
    <tag k="oneway" v="yes"/>
    <tag k="ref" v="A1"/>
    <tag k="source" v="survey"/>
    <tag k="surface" v="paved"/>
  </way>
  <way id="18863011" version="6" timestamp="2009-01-25T03:17:57Z" uid="4467" user="Rosscoe" changeset="835181">
    <nd ref="148907506"/>
    <nd ref="184271784"/>
    <tag k="created_by" v="JOSM"/>
    <tag k="highway" v="trunk_link"/>
    <tag k="maxspeed" v="60"/>
    <tag k="name" v="Bruce Highway"/>
    <tag k="oneway" v="yes"/>
    <tag k="osmarender:renderName" v="no"/>
    <tag k="osmarender:renderRef" v="no"/>
    <tag k="ref" v="A1"/>
    <tag k="source" v="survey"/>
    <tag k="surface" v="paved"/>
  </way>
  <way id="18863011" version="7" timestamp="2009-06-07T04:52:19Z" uid="4467" user="Rosscoe" changeset="1444185"/>
  <way id="18863105" version="1" timestamp="2007-12-29T06:03:22Z" uid="18775" user="drlizau" changeset="459672">
    <nd ref="149875975"/>
    <nd ref="195011474"/>
    <nd ref="195011472"/>
    <nd ref="195011473"/>
    <tag k="created_by" v="JOSM"/>
    <tag k="highway" v="residential"/>
    <tag k="name" v="Daines Street"/>
  </way>
  <way id="18863105" version="2" timestamp="2008-11-16T11:01:55Z" uid="18775" user="drlizau" changeset="756879">
    <nd ref="149875975"/>
    <nd ref="195011474"/>
    <nd ref="195011472"/>
    <nd ref="195011473"/>
    <tag k="created_by" v="JOSM"/>
    <tag k="highway" v="residential"/>
    <tag k="name" v="Daines Street"/>
  </way>
  <way id="18863105" version="3" timestamp="2008-11-16T11:30:40Z" uid="18775" user="drlizau" changeset="756879">
    <nd ref="149875975"/>
    <nd ref="195011474"/>
    <nd ref="195011472"/>
    <nd ref="195011473"/>
    <tag k="created_by" v="JOSM"/>
    <tag k="highway" v="residential"/>
    <tag k="name" v="Daines Street"/>
    <tag k="source" v="survey"/>
  </way>
  <way id="18863105" version="4" timestamp="2009-07-25T04:16:26Z" uid="74617" user="JohnSmith" changeset="1930637">
    <nd ref="149875975"/>
    <nd ref="195011474"/>
    <nd ref="195011472"/>
    <nd ref="195011473"/>
    <tag k="highway" v="residential"/>
    <tag k="name" v="Daines Street"/>
    <tag k="source" v="survey"/>
  </way>
  <way id="18863105" version="5" timestamp="2010-07-07T08:11:51Z" uid="74617" user="JohnSmith" changeset="5156250">
    <nd ref="149875975"/>
    <nd ref="195011474"/>
    <nd ref="195011472"/>
    <nd ref="195011473"/>
    <tag k="highway" v="residential"/>
    <tag k="maxspeed" v="50"/>
    <tag k="maxspeed:source" v="default residential speed limit in Australia"/>
    <tag k="name" v="Daines Street"/>
    <tag k="source" v="survey"/>
  </way>
  <way id="18863105" version="6" timestamp="2012-01-15T19:29:03Z" uid="147510" user="woodpeck_fixbot" changeset="10400850">
    <nd ref="149875975"/>
    <nd ref="195011474"/>
    <nd ref="195011472"/>
    <nd ref="195011473"/>
    <tag k="highway" v="residential"/>
    <tag k="name" v="Daines Street"/>
    <tag k="source" v="survey"/>
  </way>
  <way id="18863106" version="1" timestamp="2007-12-29T06:03:23Z" uid="18775" user="drlizau" changeset="459672">
    <nd ref="195011474"/>
    <nd ref="149875914"/>
    <tag k="created_by" v="JOSM"/>
    <tag k="highway" v="service"/>
    <tag k="name" v="Yambil Lane"/>
  </way>
  <way id="18863106" version="2" timestamp="2008-11-16T11:02:03Z" uid="18775" user="drlizau" changeset="756879">
    <nd ref="195011474"/>
    <nd ref="149875914"/>
    <tag k="created_by" v="JOSM"/>
    <tag k="highway" v="service"/>
    <tag k="name" v="Yambil Lane"/>
  </way>
  <way id="18863106" version="3" timestamp="2008-11-16T11:30:48Z" uid="18775" user="drlizau" changeset="756879">
    <nd ref="195011474"/>
    <nd ref="149875914"/>
    <tag k="created_by" v="JOSM"/>
    <tag k="highway" v="service"/>
    <tag k="name" v="Yambil Lane"/>
    <tag k="source" v="survey"/>
  </way>
  <way id="18863106" version="4" timestamp="2009-07-25T04:16:16Z" uid="74617" user="JohnSmith" changeset="1930637">
    <nd ref="195011474"/>
    <nd ref="149875914"/>
    <tag k="highway" v="service"/>
    <tag k="name" v="Yambil Lane"/>
    <tag k="source" v="survey"/>
  </way>
  <way id="18863107" version="1" timestamp="2007-12-29T06:03:24Z" uid="18775" user="drlizau" changeset="459672">
    <nd ref="134754249"/>
    <nd ref="195011476"/>
    <nd ref="195011477"/>
    <nd ref="195011478"/>
    <tag k="created_by" v="JOSM"/>
    <tag k="highway" v="residential"/>
    <tag k="name" v="Benerembah Lane"/>
    <tag k="oneway" v="true"/>
  </way>
  <way id="18863107" version="2" timestamp="2007-12-29T09:51:03Z" uid="18775" user="drlizau" changeset="468088">
    <nd ref="134754249"/>
    <nd ref="195011476"/>
    <nd ref="195011477"/>
    <nd ref="195011478"/>
    <tag k="created_by" v="JOSM"/>
    <tag k="highway" v="service"/>
    <tag k="name" v="Benerembah Lane"/>
    <tag k="oneway" v="true"/>
  </way>
  <way id="18863107" version="3" timestamp="2008-11-16T11:02:01Z" uid="18775" user="drlizau" changeset="756879">
    <nd ref="134754249"/>
    <nd ref="195011476"/>
    <nd ref="195011477"/>
    <nd ref="195011478"/>
    <tag k="created_by" v="JOSM"/>
    <tag k="highway" v="service"/>
    <tag k="name" v="Benerembah Lane"/>
    <tag k="oneway" v="true"/>
  </way>
  <way id="18863107" version="4" timestamp="2008-11-16T11:30:45Z" uid="18775" user="drlizau" changeset="756879">
    <nd ref="134754249"/>
    <nd ref="195011476"/>
    <nd ref="195011477"/>
    <nd ref="195011478"/>
    <tag k="created_by" v="JOSM"/>
    <tag k="highway" v="service"/>
    <tag k="name" v="Benerembah Lane"/>
    <tag k="oneway" v="true"/>
    <tag k="source" v="survey"/>
  </way>
  <way id="18863107" version="5" timestamp="2009-04-13T07:48:22Z" uid="18775" user="drlizau" changeset="467664">
    <nd ref="134754249"/>
    <nd ref="195011476"/>
    <nd ref="195011477"/>
    <nd ref="195011478"/>
    <tag k="created_by" v="JOSM"/>
    <tag k="highway" v="service"/>
    <tag k="name" v="Benerembah Lane"/>
    <tag k="oneway" v="yes"/>
    <tag k="source" v="survey"/>
  </way>
  <way id="18863107" version="6" timestamp="2009-07-25T04:16:14Z" uid="74617" user="JohnSmith" changeset="1930637">
    <nd ref="134754249"/>
    <nd ref="195011476"/>
    <nd ref="195011477"/>
    <nd ref="195011478"/>
    <tag k="highway" v="service"/>
    <tag k="name" v="Benerembah Lane"/>
    <tag k="oneway" v="yes"/>
    <tag k="source" v="survey"/>
  </way>
  <way id="18863139" version="1" timestamp="2007-12-29T06:04:12Z" uid="18775" user="drlizau" changeset="459672">
    <nd ref="118556096"/>
    <nd ref="195012590"/>
    <nd ref="195012592"/>
    <tag k="created_by" v="JOSM"/>
    <tag k="highway" v="service"/>
    <tag k="name" v="Griffin Lane"/>
  </way>
  <way id="18863139" version="2" timestamp="2008-11-16T11:00:05Z" uid="18775" user="drlizau" changeset="756879">
    <nd ref="118556096"/>
    <nd ref="195012590"/>
    <nd ref="195012592"/>
    <tag k="created_by" v="JOSM"/>
    <tag k="highway" v="service"/>
    <tag k="name" v="Griffin Lane"/>
  </way>
  <way id="18863139" version="3" timestamp="2008-11-16T11:29:02Z" uid="18775" user="drlizau" changeset="756879">
    <nd ref="118556096"/>
    <nd ref="195012590"/>
    <nd ref="195012592"/>
    <tag k="created_by" v="JOSM"/>
    <tag k="highway" v="service"/>
    <tag k="name" v="Griffin Lane"/>
    <tag k="source" v="survey"/>
  </way>
  <way id="18863139" version="4" timestamp="2009-07-25T04:16:27Z" uid="74617" user="JohnSmith" changeset="1930637">
    <nd ref="118556096"/>
    <nd ref="195012590"/>
    <nd ref="195012592"/>
    <tag k="highway" v="service"/>
    <tag k="name" v="Griffin Lane"/>
    <tag k="source" v="survey"/>
  </way>
  <way id="18863192" version="1" timestamp="2007-12-29T06:05:09Z" uid="18775" user="drlizau" changeset="459672">
    <nd ref="195012590"/>
    <nd ref="195013538"/>
    <nd ref="195013563"/>
    <nd ref="195013585"/>
    <nd ref="195013628"/>
    <nd ref="195013651"/>
    <nd ref="195013682"/>
    <nd ref="195013696"/>
    <nd ref="195013710"/>
    <nd ref="195013711"/>
    <nd ref="195013712"/>
    <nd ref="195011478"/>
    <tag k="created_by" v="JOSM"/>
    <tag k="highway" v="service"/>
    <tag k="name" v="Colla Lane"/>
  </way>
  <way id="18863192" version="2" timestamp="2007-12-30T06:53:54Z" uid="18775" user="drlizau" changeset="482858">
    <nd ref="195012590"/>
    <nd ref="195013538"/>
    <nd ref="195013563"/>
    <nd ref="195013585"/>
    <nd ref="196916208"/>
    <nd ref="195013628"/>
    <nd ref="195013651"/>
    <nd ref="195013682"/>
    <nd ref="195013696"/>
    <nd ref="196916150"/>
    <nd ref="195013710"/>
    <nd ref="195013711"/>
    <nd ref="195013712"/>
    <nd ref="195011478"/>
    <tag k="created_by" v="JOSM"/>
    <tag k="highway" v="service"/>
    <tag k="name" v="Colla Lane"/>
  </way>
  <way id="18863192" version="3" timestamp="2008-11-16T04:55:36Z" uid="18775" user="drlizau" changeset="754437">
    <nd ref="195012590"/>
    <nd ref="195013538"/>
    <nd ref="195013563"/>
    <nd ref="195013585"/>
    <nd ref="196916208"/>
    <nd ref="195013628"/>
    <nd ref="195013651"/>
    <nd ref="195013682"/>
    <nd ref="195013696"/>
    <nd ref="196916150"/>
    <nd ref="195013710"/>
    <nd ref="195013711"/>
    <nd ref="195013712"/>
    <nd ref="195011478"/>
    <tag k="created_by" v="JOSM"/>
    <tag k="highway" v="service"/>
    <tag k="name" v="Colla Lane"/>
    <tag k="source" v="survey"/>
  </way>
  <way id="18863192" version="4" timestamp="2008-11-16T11:03:50Z" uid="18775" user="drlizau" changeset="756879">
    <nd ref="195012590"/>
    <nd ref="195013538"/>
    <nd ref="195013563"/>
    <nd ref="195013585"/>
    <nd ref="196916208"/>
    <nd ref="195013628"/>
    <nd ref="195013651"/>
    <nd ref="195013682"/>
    <nd ref="195013696"/>
    <nd ref="196916150"/>
    <nd ref="195013710"/>
    <nd ref="195013711"/>
    <nd ref="195013712"/>
    <nd ref="195011478"/>
    <tag k="created_by" v="JOSM"/>
    <tag k="highway" v="service"/>
    <tag k="name" v="Colla Lane"/>
  </way>
  <way id="18863192" version="5" timestamp="2008-11-16T11:32:23Z" uid="18775" user="drlizau" changeset="756879">
    <nd ref="195012590"/>
    <nd ref="195013538"/>
    <nd ref="195013563"/>
    <nd ref="195013585"/>
    <nd ref="196916208"/>
    <nd ref="195013628"/>
    <nd ref="195013651"/>
    <nd ref="195013682"/>
    <nd ref="195013696"/>
    <nd ref="196916150"/>
    <nd ref="195013710"/>
    <nd ref="195013711"/>
    <nd ref="195013712"/>
    <nd ref="195011478"/>
    <tag k="created_by" v="JOSM"/>
    <tag k="highway" v="service"/>
    <tag k="name" v="Colla Lane"/>
    <tag k="source" v="survey"/>
  </way>
  <way id="18863192" version="6" timestamp="2009-07-25T04:16:10Z" uid="74617" user="JohnSmith" changeset="1930637">
    <nd ref="195012590"/>
    <nd ref="195013538"/>
    <nd ref="195013563"/>
    <nd ref="195013585"/>
    <nd ref="196916208"/>
    <nd ref="195013628"/>
    <nd ref="195013651"/>
    <nd ref="195013682"/>
    <nd ref="195013696"/>
    <nd ref="196916150"/>
    <nd ref="195013710"/>
    <nd ref="195013711"/>
    <nd ref="195013712"/>
    <nd ref="195011478"/>
    <tag k="highway" v="service"/>
    <tag k="name" v="Colla Lane"/>
    <tag k="source" v="survey"/>
  </way>
  <way id="18863337" version="4" timestamp="2010-03-27T23:26:48Z" uid="20587" user="balrog-kun" changeset="4250871">
    <nd ref="123067586"/>
    <nd ref="123167201"/>
    <tag k="created_by" v="Potlatch 0.10f"/>
    <tag k="highway" v="residential"/>
    <tag k="name" v="Walnut Avenue"/>
    <tag k="tiger:cfcc" v="A41"/>
    <tag k="tiger:county" v="Los Angeles, CA"/>
    <tag k="tiger:name_base" v="Walnut"/>
    <tag k="tiger:name_type" v="Ave"/>
    <tag k="tiger:reviewed" v="no"/>
    <tag k="tiger:source" v="tiger_import_dch_v0.6_20070809"/>
    <tag k="tiger:tlid" v="141577059"/>
  </way>
  <way id="18863337" version="5" timestamp="2010-04-25T07:29:20Z" uid="202256" user="Telecas" changeset="4518035">
    <nd ref="123067586"/>
    <nd ref="705797871"/>
    <nd ref="123167201"/>
    <tag k="highway" v="residential"/>
    <tag k="name" v="Walnut Avenue"/>
    <tag k="tiger:cfcc" v="A41"/>
    <tag k="tiger:county" v="Los Angeles, CA"/>
    <tag k="tiger:name_base" v="Walnut"/>
    <tag k="tiger:name_type" v="Ave"/>
    <tag k="tiger:reviewed" v="no"/>
    <tag k="tiger:source" v="tiger_import_dch_v0.6_20070809"/>
    <tag k="tiger:tlid" v="141577059"/>
  </way>
  <way id="18863341" version="2" timestamp="2010-03-27T23:26:49Z" uid="20587" user="balrog-kun" changeset="4250871">
    <nd ref="123067589"/>
    <nd ref="123638975"/>
    <nd ref="123212568"/>
    <tag k="created_by" v="JOSM"/>
    <tag k="highway" v="residential"/>
    <tag k="name" v="Penmar Avenue"/>
    <tag k="tiger:cfcc" v="A41"/>
    <tag k="tiger:county" v="Los Angeles, CA"/>
    <tag k="tiger:name_base" v="Penmar"/>
    <tag k="tiger:name_type" v="Ave"/>
    <tag k="tiger:reviewed" v="no"/>
    <tag k="tiger:source" v="tiger_import_dch_v0.6_20070809"/>
    <tag k="tiger:tlid" v="141577051:141577053:141577055:141577057:141569400:141569401:141569407:141569417:141569419:141569420:141569433:141569366:141569396:141569397:141569399:141576706:141569278:141569280:141569282"/>
    <tag k="tiger:zip_left" v="90291"/>
    <tag k="tiger:zip_right" v="90291"/>
  </way>
  <way id="18863341" version="3" timestamp="2010-04-25T07:29:21Z" uid="202256" user="Telecas" changeset="4518035">
    <nd ref="123067589"/>
    <nd ref="705797869"/>
    <nd ref="123638975"/>
    <nd ref="705797849"/>
    <nd ref="705797877"/>
    <nd ref="123212568"/>
    <tag k="highway" v="residential"/>
    <tag k="name" v="Penmar Avenue"/>
    <tag k="tiger:cfcc" v="A41"/>
    <tag k="tiger:county" v="Los Angeles, CA"/>
    <tag k="tiger:name_base" v="Penmar"/>
    <tag k="tiger:name_type" v="Ave"/>
    <tag k="tiger:reviewed" v="no"/>
    <tag k="tiger:source" v="tiger_import_dch_v0.6_20070809"/>
    <tag k="tiger:tlid" v="141577051:141577053:141577055:141577057:141569400:141569401:141569407:141569417:141569419:141569420:141569433:141569366:141569396:141569397:141569399:141576706:141569278:141569280:141569282"/>
    <tag k="tiger:zip_left" v="90291"/>
    <tag k="tiger:zip_right" v="90291"/>
  </way>
  <way id="18863356" version="2" timestamp="2010-03-27T23:26:49Z" uid="20587" user="balrog-kun" changeset="4250871">
    <nd ref="122809630"/>
    <nd ref="122809633"/>
    <nd ref="122809636"/>
    <nd ref="122397699"/>
    <tag k="created_by" v="JOSM"/>
    <tag k="highway" v="residential"/>
    <tag k="name" v="Tivoli Avenue"/>
    <tag k="tiger:cfcc" v="A41"/>
    <tag k="tiger:county" v="Los Angeles, CA"/>
    <tag k="tiger:name_base" v="Tivoli"/>
    <tag k="tiger:name_type" v="Ave"/>
    <tag k="tiger:source" v="tiger_import_dch_v0.6_20070809"/>
    <tag k="tiger:tlid" v="141577154:141577167:141577171:141577192:141577257:141577259"/>
    <tag k="tiger:zip_left" v="90066"/>
    <tag k="tiger:zip_right" v="90066"/>
  </way>
  <way id="18863356" version="3" timestamp="2010-04-24T08:25:59Z" uid="202256" user="Telecas" changeset="4509258">
    <nd ref="122809630"/>
    <nd ref="705022255"/>
    <nd ref="122809633"/>
    <nd ref="122809636"/>
    <nd ref="122397699"/>
    <tag k="highway" v="residential"/>
    <tag k="name" v="Tivoli Avenue"/>
    <tag k="tiger:cfcc" v="A41"/>
    <tag k="tiger:county" v="Los Angeles, CA"/>
    <tag k="tiger:name_base" v="Tivoli"/>
    <tag k="tiger:name_type" v="Ave"/>
    <tag k="tiger:source" v="tiger_import_dch_v0.6_20070809"/>
    <tag k="tiger:tlid" v="141577154:141577167:141577171:141577192:141577257:141577259"/>
    <tag k="tiger:zip_left" v="90066"/>
    <tag k="tiger:zip_right" v="90066"/>
  </way>
  <way id="18863360" version="2" timestamp="2010-03-27T23:26:50Z" uid="20587" user="balrog-kun" changeset="4250871">
    <nd ref="122677721"/>
    <nd ref="122677724"/>
    <nd ref="122677727"/>
    <nd ref="122677728"/>
    <tag k="created_by" v="JOSM"/>
    <tag k="highway" v="residential"/>
    <tag k="name" v="Michael Avenue"/>
    <tag k="tiger:cfcc" v="A41"/>
    <tag k="tiger:county" v="Los Angeles, CA"/>
    <tag k="tiger:name_base" v="Michael"/>
    <tag k="tiger:name_type" v="Ave"/>
    <tag k="tiger:source" v="tiger_import_dch_v0.6_20070809"/>
    <tag k="tiger:tlid" v="141577263:141577165:141577169:141577177:141577179:141577253"/>
    <tag k="tiger:zip_left" v="90066"/>
    <tag k="tiger:zip_right" v="90066"/>
  </way>
  <way id="18863360" version="3" timestamp="2010-04-24T08:25:59Z" uid="202256" user="Telecas" changeset="4509258">
    <nd ref="122677721"/>
    <nd ref="705022254"/>
    <nd ref="122677724"/>
    <nd ref="122677727"/>
    <nd ref="122677728"/>
    <tag k="highway" v="residential"/>
    <tag k="name" v="Michael Avenue"/>
    <tag k="tiger:cfcc" v="A41"/>
    <tag k="tiger:county" v="Los Angeles, CA"/>
    <tag k="tiger:name_base" v="Michael"/>
    <tag k="tiger:name_type" v="Ave"/>
    <tag k="tiger:source" v="tiger_import_dch_v0.6_20070809"/>
    <tag k="tiger:tlid" v="141577263:141577165:141577169:141577177:141577179:141577253"/>
    <tag k="tiger:zip_left" v="90066"/>
    <tag k="tiger:zip_right" v="90066"/>
  </way>
  <way id="18863105" version="7" timestamp="2012-07-19T08:05:47Z" uid="722137" user="OSMF Redaction Account" changeset="12313149"/>
  <way id="18863106" version="5" timestamp="2012-07-19T08:05:47Z" uid="722137" user="OSMF Redaction Account" changeset="12313149"/>
  <way id="18863107" version="7" timestamp="2012-07-19T08:05:54Z" uid="722137" user="OSMF Redaction Account" changeset="12313149"/>
  <way id="18863139" version="5" timestamp="2012-07-19T08:05:57Z" uid="722137" user="OSMF Redaction Account" changeset="12313149"/>
  <way id="18863192" version="7" timestamp="2012-07-19T08:05:57Z" uid="722137" user="OSMF Redaction Account" changeset="12313149"/>
  <way id="18863337" version="6" timestamp="2012-04-22T22:37:54Z" uid="104962" user="techlady" changeset="11389991"/>
  <way id="18863341" version="4" timestamp="2012-04-22T22:32:51Z" uid="104962" user="techlady" changeset="11389991"/>
  <way id="18863356" version="4" timestamp="2012-04-23T19:03:36Z" uid="104962" user="techlady" changeset="11398509"/>
  <way id="18863360" version="4" timestamp="2012-04-23T19:00:53Z" uid="104962" user="techlady" changeset="11398509"/>
</osm>
