<?xml version='1.0' encoding='UTF-8'?>
<osm version="0.6" generator="libosmium/2.20.0">
  <way id="18876892" version="2" timestamp="2008-09-14T21:46:26Z" uid="6975" user="ulfl" changeset="640534">
    <nd ref="195217368"/>
    <nd ref="195217370"/>
    <nd ref="195217373"/>
    <nd ref="195217375"/>
    <nd ref="195217376"/>
    <nd ref="195217377"/>
    <nd ref="195217378"/>
    <nd ref="195217379"/>
    <nd ref="195217368"/>
    <tag k="building" v="yes"/>
  </way>
  <way id="18876892" version="3" timestamp="2010-12-02T18:43:53Z" uid="378328" user="krz9000" changeset="6517869">
    <nd ref="195217368"/>
    <nd ref="195217370"/>
    <nd ref="195217373"/>
    <nd ref="195217375"/>
    <nd ref="195217376"/>
    <nd ref="195217377"/>
    <nd ref="195217378"/>
    <nd ref="195217379"/>
    <nd ref="195217368"/>
    <tag k="building" v="yes"/>
    <tag k="name" v="Tengelmann"/>
    <tag k="opening_hours" v="Mo-Fr 08:30-20:00"/>
    <tag k="shop" v="supermarket"/>
  </way>
  <way id="18876892" version="4" timestamp="2011-07-27T08:13:34Z" uid="482628" user="gumul" changeset="8842630">
    <nd ref="195217368"/>
    <nd ref="195217370"/>
    <nd ref="195217373"/>
    <nd ref="195217375"/>
    <nd ref="195217376"/>
    <nd ref="195217377"/>
    <nd ref="195217378"/>
    <nd ref="195217379"/>
    <nd ref="195217368"/>
    <tag k="addr:housenumber" v="10"/>
    <tag k="addr:street" v="Leutstettener Straße"/>
    <tag k="building" v="yes"/>
    <tag k="name" v="Tengelmann"/>
    <tag k="opening_hours" v="Mo-Fr 08:30-20:00"/>
    <tag k="shop" v="supermarket"/>
  </way>
  <way id="18876892" version="5" timestamp="2011-07-27T08:19:01Z" uid="482628" user="gumul" changeset="8842630">
    <nd ref="195217368"/>
    <nd ref="195217370"/>
    <nd ref="195217373"/>
    <nd ref="195217375"/>
    <nd ref="195217376"/>
    <nd ref="195217377"/>
    <nd ref="195217378"/>
    <nd ref="195217379"/>
    <nd ref="195217368"/>
    <tag k="addr:housenumber" v="17"/>
    <tag k="addr:street" v="Leutstettener Straße"/>
    <tag k="building" v="yes"/>
    <tag k="name" v="Tengelmann"/>
    <tag k="opening_hours" v="Mo-Fr 08:30-20:00"/>
    <tag k="shop" v="supermarket"/>
  </way>
  <way id="18876958" version="2" timestamp="2009-08-26T08:47:06Z" uid="36809" user="pfoten_weg_!_" changeset="2264896">
    <nd ref="195218698"/>
    <nd ref="195218699"/>
    <tag k="highway" v="service"/>
  </way>
  <way id="18876958" version="3" timestamp="2011-06-27T15:55:21Z" uid="473989" user="styro" changeset="8563046">
    <nd ref="195218698"/>
    <nd ref="195218699"/>
    <tag k="amenity" v="fuel"/>
    <tag k="highway" v="service"/>
  </way>
  <way id="18876958" version="4" timestamp="2012-06-22T15:50:45Z" uid="290723" user="sulagaloh" changeset="11980682"/>
</osm>
