<?xml version='1.0' encoding='UTF-8'?>
<osm version="0.6" generator="libosmium/2.20.0">
  <way id="18885331" version="2" timestamp="2008-02-01T16:04:33Z" uid="13367" user="nubok" changeset="7450">
    <nd ref="195358830"/>
    <nd ref="195358833"/>
    <tag k="bridge" v="yes"/>
    <tag k="created_by" v="Potlatch 0.6c"/>
    <tag k="highway" v="motorway"/>
    <tag k="int_ref" v="E30"/>
    <tag k="lanes" v="3"/>
    <tag k="layer" v="1"/>
    <tag k="name" v="A2"/>
    <tag k="oneway" v="yes"/>
    <tag k="ref" v="A2"/>
  </way>
  <way id="18885331" version="4" timestamp="2008-06-11T19:59:33Z" uid="24920" user="Schusch" changeset="137172">
    <nd ref="195358830"/>
    <nd ref="195358833"/>
    <tag k="bridge" v="yes"/>
    <tag k="created_by" v="Potlatch 0.9c"/>
    <tag k="highway" v="motorway"/>
    <tag k="int_ref" v="E 30"/>
    <tag k="lanes" v="3"/>
    <tag k="layer" v="1"/>
    <tag k="oneway" v="yes"/>
    <tag k="ref" v="A 2"/>
  </way>
  <way id="18885331" version="5" timestamp="2009-02-05T20:23:37Z" uid="9176" user="Maarten Deen" changeset="162917">
    <nd ref="195358830"/>
    <nd ref="195358833"/>
    <tag k="bridge" v="yes"/>
    <tag k="created_by" v="Potlatch 0.9c"/>
    <tag k="highway" v="motorway"/>
    <tag k="lanes" v="3"/>
    <tag k="layer" v="1"/>
    <tag k="oneway" v="yes"/>
    <tag k="ref" v="A 2"/>
  </way>
  <way id="18885331" version="6" timestamp="2009-02-14T12:45:54Z" uid="9176" user="Maarten Deen" changeset="428540">
    <nd ref="195358830"/>
    <nd ref="195358833"/>
    <tag k="bridge" v="yes"/>
    <tag k="created_by" v="Potlatch 0.9c"/>
    <tag k="highway" v="motorway"/>
    <tag k="int_ref" v="E 30"/>
    <tag k="lanes" v="3"/>
    <tag k="layer" v="1"/>
    <tag k="oneway" v="yes"/>
    <tag k="ref" v="A 2"/>
  </way>
  <way id="18885331" version="7" timestamp="2009-03-03T21:12:34Z" uid="13565" user="hadhuey" changeset="730254">
    <nd ref="195358830"/>
    <nd ref="195358833"/>
    <tag k="bridge" v="yes"/>
    <tag k="created_by" v="Potlatch 0.10f"/>
    <tag k="highway" v="motorway"/>
    <tag k="int_ref" v="E 30"/>
    <tag k="lanes" v="3"/>
    <tag k="layer" v="1"/>
    <tag k="maxspeed" v="variable"/>
    <tag k="oneway" v="yes"/>
    <tag k="ref" v="A 2"/>
  </way>
  <way id="18885331" version="8" timestamp="2010-09-13T01:17:51Z" uid="104779" user="ABRob" changeset="5765640">
    <nd ref="195358830"/>
    <nd ref="195358833"/>
    <tag k="bridge" v="yes"/>
    <tag k="highway" v="motorway"/>
    <tag k="int_ref" v="E 30"/>
    <tag k="lanes" v="3"/>
    <tag k="layer" v="1"/>
    <tag k="maxspeed" v="signals"/>
    <tag k="oneway" v="yes"/>
    <tag k="ref" v="A 2"/>
  </way>
  <way id="18885331" version="9" timestamp="2010-10-17T18:53:11Z" uid="81244" user="rurseekatze" changeset="6070406">
    <nd ref="195358830"/>
    <nd ref="195358833"/>
    <tag k="bridge" v="yes"/>
    <tag k="highway" v="motorway"/>
    <tag k="int_ref" v="E 30"/>
    <tag k="lanes" v="3"/>
    <tag k="layer" v="1"/>
    <tag k="lit" v="no"/>
    <tag k="maxspeed" v="signals"/>
    <tag k="oneway" v="yes"/>
    <tag k="ref" v="A 2"/>
  </way>
  <way id="18885331" version="10" timestamp="2010-11-28T19:37:05Z" uid="30077" user="ChristianW" changeset="6481235">
    <nd ref="195358830"/>
    <nd ref="195358833"/>
    <tag k="bridge" v="yes"/>
    <tag k="highway" v="motorway"/>
    <tag k="int_ref" v="E 30"/>
    <tag k="lanes" v="3"/>
    <tag k="layer" v="1"/>
    <tag k="lit" v="no"/>
    <tag k="maxspeed" v="signals"/>
    <tag k="oneway" v="yes"/>
    <tag k="ref" v="A 2"/>
    <tag k="reg_name" v="Warschauer Allee"/>
  </way>
  <way id="18885331" version="11" timestamp="2010-11-29T16:31:36Z" uid="30077" user="ChristianW" changeset="6487695">
    <nd ref="195358830"/>
    <nd ref="195358833"/>
    <tag k="bridge" v="yes"/>
    <tag k="highway" v="motorway"/>
    <tag k="int_ref" v="E 30"/>
    <tag k="lanes" v="3"/>
    <tag k="layer" v="1"/>
    <tag k="lit" v="no"/>
    <tag k="maxspeed" v="signals"/>
    <tag k="note:name" v="Der reg_name, sowie ggf. der loc_name sind dem zugehörigen Wikipediaartikel entnommen."/>
    <tag k="oneway" v="yes"/>
    <tag k="ref" v="A 2"/>
    <tag k="reg_name" v="Warschauer Allee"/>
  </way>
  <way id="18885557" version="4" timestamp="2010-04-20T05:05:03Z" uid="4467" user="Rosscoe" changeset="4474386">
    <nd ref="702352684"/>
    <nd ref="621432779"/>
    <nd ref="195360683"/>
    <tag k="highway" v="unclassified"/>
    <tag k="name" v="Main Street"/>
    <tag k="surface" v="paved"/>
  </way>
  <way id="18885557" version="5" timestamp="2010-08-25T13:50:17Z" uid="206929" user="Supt_of_Printing" changeset="5590003">
    <nd ref="702352684"/>
    <nd ref="621432779"/>
    <nd ref="195360683"/>
    <tag k="highway" v="unclassified"/>
    <tag k="name" v="Memorial Drive"/>
    <tag k="surface" v="paved"/>
  </way>
  <way id="18885671" version="5" timestamp="2008-09-14T18:11:37Z" uid="65847" user="LKK" changeset="630691">
    <nd ref="176701787"/>
    <nd ref="243194675"/>
    <nd ref="176701794"/>
    <nd ref="198838242"/>
    <nd ref="248761701"/>
    <nd ref="195361664"/>
    <tag k="created_by" v="Potlatch 0.10a"/>
    <tag k="highway" v="residential"/>
    <tag k="maxspeed" v="30"/>
    <tag k="name" v="Heidestück"/>
  </way>
  <way id="18885671" version="6" timestamp="2010-03-31T14:25:18Z" uid="28378" user="PHerison" changeset="4285754">
    <nd ref="176701787"/>
    <nd ref="243194675"/>
    <nd ref="176701794"/>
    <nd ref="198838242"/>
    <nd ref="248761701"/>
    <nd ref="195361664"/>
    <tag k="highway" v="residential"/>
    <tag k="maxspeed" v="30"/>
    <tag k="name" v="Heidestück"/>
  </way>
  <way id="18885331" version="12" timestamp="2012-07-18T11:07:08Z" uid="722137" user="OSMF Redaction Account" changeset="12279542">
    <nd ref="195358830"/>
    <nd ref="195358833"/>
    <tag k="bridge" v="yes"/>
    <tag k="highway" v="motorway"/>
    <tag k="int_ref" v="E 30"/>
    <tag k="lanes" v="3"/>
    <tag k="layer" v="1"/>
    <tag k="lit" v="no"/>
    <tag k="maxspeed" v="signals"/>
    <tag k="note:name" v="Der reg_name, sowie ggf. der loc_name sind dem zugehörigen Wikipediaartikel entnommen."/>
    <tag k="oneway" v="true"/>
    <tag k="ref" v="A 2"/>
    <tag k="reg_name" v="Warschauer Allee"/>
  </way>
  <way id="18885557" version="6" timestamp="2012-07-19T20:02:12Z" uid="722137" user="OSMF Redaction Account" changeset="12345654">
    <nd ref="621432779"/>
    <nd ref="195360683"/>
    <tag k="highway" v="unclassified"/>
    <tag k="name" v="Memorial Drive"/>
    <tag k="surface" v="paved"/>
  </way>
  <way id="18885557" version="7" timestamp="2012-08-02T03:23:38Z" uid="46482" user="Leon K" changeset="12580954">
    <nd ref="1847719239"/>
    <nd ref="621432779"/>
    <nd ref="195360683"/>
    <tag k="highway" v="unclassified"/>
    <tag k="name" v="Memorial Drive"/>
    <tag k="surface" v="paved"/>
  </way>
</osm>
