<?xml version='1.0' encoding='UTF-8'?>
<osm version="0.6" generator="libosmium/2.20.0">
  <way id="18940172" version="6" timestamp="2009-09-04T21:15:04Z" uid="36809" user="pfoten_weg_!_" changeset="2374562">
    <nd ref="195989395"/>
    <nd ref="195989397"/>
    <nd ref="195989398"/>
    <nd ref="195989399"/>
    <nd ref="195989395"/>
    <tag k="building" v="yes"/>
    <tag k="name" v="Gebäude A"/>
    <tag k="operator" v="Ludwig-Maximilians-Universität, Fakultät für Chemie und Pharmazie"/>
  </way>
  <way id="18940172" version="7" timestamp="2011-01-30T17:48:51Z" uid="402128" user="d65" changeset="7137164">
    <nd ref="195989395"/>
    <nd ref="195989397"/>
    <nd ref="195989398"/>
    <nd ref="195989399"/>
    <nd ref="195989395"/>
    <tag k="building" v="yes"/>
    <tag k="name" v="Gebäude A (Genzentrum)"/>
    <tag k="operator" v="Ludwig-Maximilians-Universität, Fakultät für Chemie und Pharmazie"/>
  </way>
  <way id="18940245" version="4" timestamp="2009-09-04T21:16:40Z" uid="36809" user="pfoten_weg_!_" changeset="2374562">
    <nd ref="195990431"/>
    <nd ref="195990433"/>
    <nd ref="195990434"/>
    <nd ref="195990435"/>
    <nd ref="195990436"/>
    <nd ref="195990438"/>
    <nd ref="195990431"/>
    <tag k="building" v="yes"/>
    <tag k="name" v="ZNP"/>
    <tag k="operator" v="Ludwig-Maximilians-Universität, Zentrum für Neuropathologie und Prionenforschung"/>
  </way>
  <way id="18940245" version="5" timestamp="2011-01-30T17:48:52Z" uid="402128" user="d65" changeset="7137164">
    <nd ref="195990431"/>
    <nd ref="195990433"/>
    <nd ref="195990434"/>
    <nd ref="195990435"/>
    <nd ref="195990436"/>
    <nd ref="195990438"/>
    <nd ref="195990431"/>
    <tag k="building" v="yes"/>
    <tag k="name" v="ZNP, Walter-Brendel-Zentrum, Pathologisches Institut"/>
    <tag k="operator" v="Ludwig-Maximilians-Universität, Zentrum für Neuropathologie und Prionenforschung"/>
  </way>
  <way id="18940245" version="6" timestamp="2011-02-05T19:22:48Z" uid="402128" user="d65" changeset="7196256">
    <nd ref="195990431"/>
    <nd ref="195990433"/>
    <nd ref="195990434"/>
    <nd ref="195990435"/>
    <nd ref="195990436"/>
    <nd ref="195990438"/>
    <nd ref="195990431"/>
    <tag k="addr:housenumber" v="27"/>
    <tag k="addr:postcode" v="81377"/>
    <tag k="addr:street" v="Marchioninistraße"/>
    <tag k="building" v="yes"/>
    <tag k="highway" v="primary"/>
    <tag k="name" v="ZNP, Walter-Brendel-Zentrum, Pathologisches Institut"/>
    <tag k="operator" v="Ludwig-Maximilians-Universität, Zentrum für Neuropathologie und Prionenforschung"/>
  </way>
  <way id="18940245" version="7" timestamp="2011-02-06T16:46:50Z" uid="402128" user="d65" changeset="7206036">
    <nd ref="195990431"/>
    <nd ref="195990433"/>
    <nd ref="195990434"/>
    <nd ref="195990435"/>
    <nd ref="195990436"/>
    <nd ref="195990438"/>
    <nd ref="195990431"/>
    <tag k="addr:housenumber" v="27"/>
    <tag k="addr:postcode" v="81377"/>
    <tag k="addr:street" v="Marchioninistraße"/>
    <tag k="building" v="yes"/>
    <tag k="name" v="ZNP, Walter-Brendel-Zentrum, Pathologisches Institut"/>
    <tag k="operator" v="Ludwig-Maximilians-Universität, Zentrum für Neuropathologie und Prionenforschung"/>
  </way>
  <way id="18940337" version="3" timestamp="2008-08-06T18:48:16Z" uid="43863" user="Rundling" changeset="109919">
    <nd ref="36289786"/>
    <nd ref="195991812"/>
    <nd ref="195991815"/>
    <tag k="created_by" v="Potlatch 0.10b"/>
    <tag k="highway" v="secondary"/>
    <tag k="maxspeed" v="50"/>
    <tag k="nat_ref" v="L 262"/>
    <tag k="ref" v="L 262"/>
  </way>
  <way id="18940337" version="5" timestamp="2008-12-23T14:21:36Z" uid="51324" user="OPerivar" changeset="565209">
    <nd ref="36289786"/>
    <nd ref="321252549"/>
    <nd ref="195991815"/>
    <tag k="created_by" v="Potlatch 0.10b"/>
    <tag k="highway" v="secondary"/>
    <tag k="maxspeed" v="50"/>
    <tag k="nat_ref" v="L 262"/>
    <tag k="ref" v="L 262"/>
  </way>
  <way id="18940337" version="6" timestamp="2009-02-17T15:27:13Z" uid="51324" user="OPerivar" changeset="504629">
    <nd ref="36289786"/>
    <nd ref="321252549"/>
    <nd ref="195991815"/>
    <tag k="created_by" v="Potlatch 0.10b"/>
    <tag k="highway" v="secondary"/>
    <tag k="maxspeed" v="50"/>
    <tag k="name" v="Mühlenstraße"/>
    <tag k="nat_ref" v="L 262"/>
    <tag k="ref" v="L 262"/>
  </way>
  <way id="18940337" version="7" timestamp="2011-04-12T22:42:14Z" uid="51324" user="OPerivar" changeset="7847607">
    <nd ref="36289786"/>
    <nd ref="1242618093"/>
    <nd ref="321252549"/>
    <nd ref="195991815"/>
    <tag k="highway" v="secondary"/>
    <tag k="maxspeed" v="50"/>
    <tag k="name" v="Mühlenstraße"/>
    <tag k="nat_ref" v="L 262"/>
    <tag k="ref" v="L 262"/>
  </way>
  <way id="18940337" version="8" timestamp="2011-12-12T10:33:10Z" uid="51324" user="OPerivar" changeset="10097622"/>
  <way id="18940339" version="5" timestamp="2008-08-06T18:41:57Z" uid="43863" user="Rundling" changeset="109919">
    <nd ref="205488279"/>
    <nd ref="205488278"/>
    <nd ref="205488277"/>
    <nd ref="205488276"/>
    <tag k="created_by" v="Potlatch 0.10b"/>
    <tag k="highway" v="secondary"/>
    <tag k="ref" v="L 261"/>
  </way>
  <way id="18940339" version="6" timestamp="2008-12-24T22:57:39Z" uid="51324" user="OPerivar" changeset="595087">
    <nd ref="321527294"/>
    <nd ref="280739311"/>
    <nd ref="205488279"/>
    <nd ref="205488278"/>
    <nd ref="205488277"/>
    <nd ref="205488276"/>
    <tag k="created_by" v="Potlatch 0.10b"/>
    <tag k="highway" v="secondary"/>
    <tag k="ref" v="L 261"/>
  </way>
  <way id="18940339" version="7" timestamp="2010-12-15T19:50:50Z" uid="51324" user="OPerivar" changeset="6670541">
    <nd ref="321527294"/>
    <nd ref="280739311"/>
    <nd ref="205488279"/>
    <nd ref="1039733367"/>
    <nd ref="205488278"/>
    <nd ref="1039733609"/>
    <nd ref="1039733669"/>
    <nd ref="205488276"/>
    <tag k="highway" v="secondary"/>
    <tag k="ref" v="L 261"/>
  </way>
  <way id="18940339" version="8" timestamp="2010-12-15T23:07:14Z" uid="51324" user="OPerivar" changeset="6670541">
    <nd ref="321527294"/>
    <nd ref="1040070574"/>
    <nd ref="280739311"/>
    <nd ref="205488279"/>
    <nd ref="1039733367"/>
    <nd ref="205488278"/>
    <nd ref="1039733609"/>
    <nd ref="1039733669"/>
    <nd ref="205488276"/>
    <tag k="highway" v="secondary"/>
    <tag k="ref" v="L 261"/>
  </way>
  <way id="18940339" version="9" timestamp="2011-12-14T09:24:05Z" uid="51324" user="OPerivar" changeset="10114044"/>
  <way id="18940340" version="3" timestamp="2009-08-26T09:59:34Z" uid="36809" user="pfoten_weg_!_" changeset="2265457">
    <nd ref="195992213"/>
    <nd ref="195992215"/>
    <nd ref="195992216"/>
    <nd ref="195992217"/>
    <nd ref="195992213"/>
    <tag k="building" v="yes"/>
  </way>
  <way id="18940340" version="4" timestamp="2010-10-30T13:03:43Z" uid="364931" user="RoccoGrande" changeset="6227235">
    <nd ref="195992213"/>
    <nd ref="195992215"/>
    <nd ref="195992216"/>
    <nd ref="195992217"/>
    <nd ref="195992213"/>
    <tag k="amenity" v="university"/>
    <tag k="building" v="yes"/>
    <tag k="name" v="Neurologisches Forschungshaus des Uniklinikums Großhadern"/>
  </way>
  <way id="18940340" version="5" timestamp="2012-05-29T09:08:16Z" uid="35394" user="708145" changeset="11735594">
    <nd ref="195992213"/>
    <nd ref="195992215"/>
    <nd ref="195992216"/>
    <nd ref="195992217"/>
    <nd ref="195992213"/>
    <tag k="addr:postcode" v="81377"/>
    <tag k="addr:street" v="Marchioninistraße"/>
    <tag k="amenity" v="university"/>
    <tag k="building" v="yes"/>
    <tag k="name" v="Neurologisches Forschungshaus des Uniklinikums Großhadern"/>
  </way>
</osm>
