<?xml version='1.0' encoding='UTF-8'?>
<osm version="0.6" generator="libosmium/2.20.0">
  <way id="18951759" version="6" timestamp="2009-02-14T01:20:08Z" uid="36809" user="pfoten_weg_!_" changeset="423851">
    <nd ref="471941"/>
    <nd ref="471940"/>
    <tag k="created_by" v="RambaZamba"/>
    <tag k="highway" v="trunk"/>
    <tag k="lanes" v="4"/>
    <tag k="name" v="Brudermühlstraße"/>
    <tag k="oneway" v="yes"/>
    <tag k="ref" v="B 2 R;B 11"/>
    <tag k="source" v="survey"/>
  </way>
  <way id="18951759" version="7" timestamp="2009-06-02T20:51:15Z" uid="118197" user="JosmJo" changeset="1408592">
    <nd ref="471941"/>
    <nd ref="471940"/>
    <tag k="created_by" v="RambaZamba"/>
    <tag k="highway" v="trunk"/>
    <tag k="lanes" v="4"/>
    <tag k="name" v="Brudermühlstraße"/>
    <tag k="oneway" v="yes"/>
    <tag k="ref" v="B 2R;B 11"/>
    <tag k="source" v="survey"/>
  </way>
  <way id="18951759" version="8" timestamp="2009-06-26T18:01:18Z" uid="129061" user="Singvogel" changeset="1643338">
    <nd ref="471941"/>
    <nd ref="471940"/>
    <tag k="created_by" v="RambaZamba"/>
    <tag k="highway" v="primary"/>
    <tag k="lanes" v="4"/>
    <tag k="motorroad" v="no"/>
    <tag k="name" v="Brudermühlstraße"/>
    <tag k="oneway" v="yes"/>
    <tag k="ref" v="B 2R;B 11"/>
    <tag k="source" v="survey"/>
  </way>
  <way id="18951759" version="9" timestamp="2009-08-28T19:53:56Z" uid="156995" user="HampelZamba" changeset="2294580">
    <nd ref="471941"/>
    <nd ref="471940"/>
    <tag k="highway" v="primary"/>
    <tag k="lanes" v="4"/>
    <tag k="motorroad" v="no"/>
    <tag k="name" v="Brudermühlstraße"/>
    <tag k="oneway" v="yes"/>
    <tag k="ref" v="B 2R;B 11"/>
    <tag k="source" v="survey"/>
  </way>
  <way id="18951759" version="10" timestamp="2009-09-05T10:45:23Z" uid="8748" user="ToniE" changeset="2379114">
    <nd ref="471941"/>
    <nd ref="471940"/>
    <tag k="highway" v="primary"/>
    <tag k="lanes" v="4"/>
    <tag k="maxspeed" v="60"/>
    <tag k="motorroad" v="no"/>
    <tag k="name" v="Brudermühlstraße"/>
    <tag k="oneway" v="yes"/>
    <tag k="ref" v="B 2R;B 11"/>
    <tag k="source" v="survey"/>
  </way>
  <way id="18951759" version="11" timestamp="2009-09-23T20:05:13Z" uid="118197" user="JosmJo" changeset="2599790">
    <nd ref="471941"/>
    <nd ref="471940"/>
    <tag k="highway" v="primary"/>
    <tag k="lanes" v="4"/>
    <tag k="maxspeed" v="60"/>
    <tag k="motorroad" v="no"/>
    <tag k="name" v="Brudermühlstraße"/>
    <tag k="oneway" v="yes"/>
    <tag k="ref" v="B 2R"/>
    <tag k="source" v="survey"/>
  </way>
  <way id="18951759" version="12" timestamp="2011-02-18T18:24:52Z" uid="81244" user="rurseekatze" changeset="7324919">
    <nd ref="471941"/>
    <nd ref="1159454044"/>
    <nd ref="1159453794"/>
    <nd ref="471940"/>
    <tag k="highway" v="primary"/>
    <tag k="lanes" v="4"/>
    <tag k="maxspeed" v="60"/>
    <tag k="motorroad" v="no"/>
    <tag k="name" v="Brudermühlstraße"/>
    <tag k="oneway" v="yes"/>
    <tag k="ref" v="B 2R"/>
    <tag k="source" v="survey"/>
  </way>
  <way id="18951759" version="13" timestamp="2012-03-29T17:16:49Z" uid="8748" user="ToniE" changeset="11141184">
    <nd ref="471941"/>
    <nd ref="1159454044"/>
    <nd ref="1159453794"/>
    <nd ref="471940"/>
    <tag k="highway" v="primary"/>
    <tag k="lanes" v="4"/>
    <tag k="maxspeed" v="60"/>
    <tag k="motorroad" v="no"/>
    <tag k="name" v="Brudermühlstraße"/>
    <tag k="odbl" v="clean"/>
    <tag k="oneway" v="yes"/>
    <tag k="ref" v="B 2R"/>
    <tag k="source" v="survey"/>
  </way>
  <way id="18951760" version="7" timestamp="2009-02-14T01:20:09Z" uid="36809" user="pfoten_weg_!_" changeset="423851">
    <nd ref="1956218"/>
    <nd ref="147058"/>
    <tag k="bridge" v="yes"/>
    <tag k="created_by" v="RambaZamba"/>
    <tag k="highway" v="trunk"/>
    <tag k="lanes" v="4"/>
    <tag k="layer" v="1"/>
    <tag k="name" v="Brudermühlbrücke"/>
    <tag k="oneway" v="yes"/>
    <tag k="osmarender:renderName" v="no"/>
    <tag k="ref" v="B 2 R;B 11"/>
    <tag k="source" v="survey"/>
    <tag k="svg:font-size" v="0"/>
  </way>
  <way id="18951760" version="8" timestamp="2009-03-04T11:52:37Z" uid="26299" user="uboot" changeset="733653">
    <nd ref="1956218"/>
    <nd ref="147058"/>
    <tag k="bridge" v="yes"/>
    <tag k="highway" v="trunk"/>
    <tag k="lanes" v="4"/>
    <tag k="layer" v="1"/>
    <tag k="name" v="Brudermühlbrücke"/>
    <tag k="oneway" v="yes"/>
    <tag k="osmarender:renderName" v="no"/>
    <tag k="ref" v="B 2 R;B 11"/>
    <tag k="source" v="survey"/>
  </way>
  <way id="18951760" version="9" timestamp="2009-06-02T20:51:15Z" uid="118197" user="JosmJo" changeset="1408592">
    <nd ref="1956218"/>
    <nd ref="147058"/>
    <tag k="bridge" v="yes"/>
    <tag k="highway" v="trunk"/>
    <tag k="lanes" v="4"/>
    <tag k="layer" v="1"/>
    <tag k="name" v="Brudermühlbrücke"/>
    <tag k="oneway" v="yes"/>
    <tag k="osmarender:renderName" v="no"/>
    <tag k="ref" v="B 2R;B 11"/>
    <tag k="source" v="survey"/>
  </way>
  <way id="18951760" version="10" timestamp="2009-06-26T18:01:18Z" uid="129061" user="Singvogel" changeset="1643338">
    <nd ref="1956218"/>
    <nd ref="147058"/>
    <tag k="bridge" v="yes"/>
    <tag k="highway" v="primary"/>
    <tag k="lanes" v="4"/>
    <tag k="layer" v="1"/>
    <tag k="motorroad" v="no"/>
    <tag k="name" v="Brudermühlbrücke"/>
    <tag k="oneway" v="yes"/>
    <tag k="osmarender:renderName" v="no"/>
    <tag k="ref" v="B 2R;B 11"/>
    <tag k="source" v="survey"/>
  </way>
  <way id="18951760" version="11" timestamp="2009-09-05T10:45:24Z" uid="8748" user="ToniE" changeset="2379114">
    <nd ref="1956218"/>
    <nd ref="147058"/>
    <tag k="bridge" v="yes"/>
    <tag k="highway" v="primary"/>
    <tag k="lanes" v="4"/>
    <tag k="layer" v="1"/>
    <tag k="maxspeed" v="60"/>
    <tag k="motorroad" v="no"/>
    <tag k="name" v="Brudermühlbrücke"/>
    <tag k="oneway" v="yes"/>
    <tag k="osmarender:renderName" v="no"/>
    <tag k="ref" v="B 2R;B 11"/>
    <tag k="source" v="survey"/>
  </way>
  <way id="18951760" version="12" timestamp="2009-09-23T20:05:15Z" uid="118197" user="JosmJo" changeset="2599790">
    <nd ref="1956218"/>
    <nd ref="147058"/>
    <tag k="bridge" v="yes"/>
    <tag k="highway" v="primary"/>
    <tag k="lanes" v="4"/>
    <tag k="layer" v="1"/>
    <tag k="maxspeed" v="60"/>
    <tag k="motorroad" v="no"/>
    <tag k="name" v="Brudermühlbrücke"/>
    <tag k="oneway" v="yes"/>
    <tag k="osmarender:renderName" v="no"/>
    <tag k="ref" v="B 2R"/>
    <tag k="source" v="survey"/>
  </way>
  <way id="18951760" version="13" timestamp="2011-09-01T02:07:33Z" uid="207745" user="NE2" changeset="9181205">
    <nd ref="1956218"/>
    <nd ref="147058"/>
    <tag k="bridge" v="yes"/>
    <tag k="highway" v="primary"/>
    <tag k="lanes" v="4"/>
    <tag k="layer" v="1"/>
    <tag k="maxspeed" v="60"/>
    <tag k="motorroad" v="no"/>
    <tag k="name" v="Brudermühlbrücke"/>
    <tag k="oneway" v="yes"/>
    <tag k="ref" v="B 2R"/>
    <tag k="source" v="survey"/>
  </way>
  <way id="18951760" version="14" timestamp="2011-12-26T10:09:06Z" uid="13832" user="Peter14" changeset="10205840">
    <nd ref="1562270758"/>
    <nd ref="147058"/>
    <tag k="bridge" v="yes"/>
    <tag k="highway" v="primary"/>
    <tag k="lanes" v="4"/>
    <tag k="layer" v="1"/>
    <tag k="maxspeed" v="60"/>
    <tag k="motorroad" v="no"/>
    <tag k="name" v="Brudermühlbrücke"/>
    <tag k="oneway" v="yes"/>
    <tag k="ref" v="B 2R"/>
    <tag k="source" v="survey"/>
  </way>
  <way id="18951760" version="15" timestamp="2012-03-29T17:16:48Z" uid="8748" user="ToniE" changeset="11141184">
    <nd ref="1562270758"/>
    <nd ref="147058"/>
    <tag k="bridge" v="yes"/>
    <tag k="highway" v="primary"/>
    <tag k="lanes" v="4"/>
    <tag k="layer" v="1"/>
    <tag k="maxspeed" v="60"/>
    <tag k="motorroad" v="no"/>
    <tag k="name" v="Brudermühlbrücke"/>
    <tag k="odbl" v="clean"/>
    <tag k="oneway" v="yes"/>
    <tag k="ref" v="B 2R"/>
    <tag k="source" v="survey"/>
  </way>
  <way id="18951764" version="4" timestamp="2010-07-09T02:43:32Z" uid="74617" user="JohnSmith" changeset="5170713">
    <nd ref="196155333"/>
    <nd ref="196156816"/>
    <tag k="highway" v="residential"/>
    <tag k="maxspeed" v="50"/>
    <tag k="maxspeed:source" v="default residential speed limit in Australia"/>
    <tag k="name" v="Yanigin Drive"/>
  </way>
  <way id="18951764" version="5" timestamp="2012-01-15T19:35:41Z" uid="147510" user="woodpeck_fixbot" changeset="10400850">
    <nd ref="196155333"/>
    <nd ref="196156816"/>
    <tag k="highway" v="residential"/>
    <tag k="name" v="Yanigin Drive"/>
  </way>
  <way id="18951764" version="6" timestamp="2012-01-17T08:58:09Z" uid="11111" user="melb_guy" changeset="10415558">
    <nd ref="196155333"/>
    <nd ref="196156816"/>
    <tag k="highway" v="residential"/>
    <tag k="maxspeed" v="50"/>
    <tag k="name" v="Yanigin Drive"/>
    <tag k="surface" v="asphalt"/>
  </way>
  <way id="18951759" version="14" timestamp="2012-05-17T09:23:09Z" uid="9176" user="Maarten Deen" changeset="11621518">
    <nd ref="471941"/>
    <nd ref="1159454044"/>
    <nd ref="1159453794"/>
    <nd ref="471940"/>
    <tag k="highway" v="primary"/>
    <tag k="int_ref" v="E 54"/>
    <tag k="lanes" v="4"/>
    <tag k="maxspeed" v="60"/>
    <tag k="motorroad" v="no"/>
    <tag k="name" v="Brudermühlstraße"/>
    <tag k="odbl" v="clean"/>
    <tag k="oneway" v="yes"/>
    <tag k="ref" v="B 2R"/>
    <tag k="source" v="survey"/>
  </way>
  <way id="18951759" version="15" timestamp="2012-07-22T11:36:41Z" uid="11374" user="q_un_go" changeset="12431087">
    <nd ref="471941"/>
    <nd ref="1159454044"/>
    <nd ref="1159453794"/>
    <nd ref="471940"/>
    <tag k="highway" v="trunk"/>
    <tag k="int_ref" v="E 54"/>
    <tag k="lanes" v="4"/>
    <tag k="maxspeed" v="60"/>
    <tag k="motorroad" v="no"/>
    <tag k="name" v="Brudermühlstraße"/>
    <tag k="odbl" v="clean"/>
    <tag k="oneway" v="yes"/>
    <tag k="ref" v="B 2R"/>
    <tag k="source" v="survey"/>
  </way>
  <way id="18951760" version="16" timestamp="2012-05-17T09:23:08Z" uid="9176" user="Maarten Deen" changeset="11621518">
    <nd ref="1562270758"/>
    <nd ref="147058"/>
    <tag k="bridge" v="yes"/>
    <tag k="highway" v="primary"/>
    <tag k="int_ref" v="E 54"/>
    <tag k="lanes" v="4"/>
    <tag k="layer" v="1"/>
    <tag k="maxspeed" v="60"/>
    <tag k="motorroad" v="no"/>
    <tag k="name" v="Brudermühlbrücke"/>
    <tag k="odbl" v="clean"/>
    <tag k="oneway" v="yes"/>
    <tag k="ref" v="B 2R"/>
    <tag k="source" v="survey"/>
  </way>
  <way id="18951760" version="17" timestamp="2012-07-22T11:36:40Z" uid="11374" user="q_un_go" changeset="12431087">
    <nd ref="1562270758"/>
    <nd ref="147058"/>
    <tag k="bridge" v="yes"/>
    <tag k="highway" v="trunk"/>
    <tag k="int_ref" v="E 54"/>
    <tag k="lanes" v="4"/>
    <tag k="layer" v="1"/>
    <tag k="maxspeed" v="60"/>
    <tag k="motorroad" v="no"/>
    <tag k="name" v="Brudermühlbrücke"/>
    <tag k="odbl" v="clean"/>
    <tag k="oneway" v="yes"/>
    <tag k="ref" v="B 2R"/>
    <tag k="source" v="survey"/>
  </way>
  <way id="18951760" version="18" timestamp="2012-07-29T09:25:19Z" uid="64536" user="Michael Forster" changeset="12532232">
    <nd ref="1562270758"/>
    <nd ref="1842434988"/>
    <nd ref="147058"/>
    <tag k="bridge" v="yes"/>
    <tag k="highway" v="trunk"/>
    <tag k="int_ref" v="E 54"/>
    <tag k="lanes" v="4"/>
    <tag k="layer" v="1"/>
    <tag k="maxspeed" v="60"/>
    <tag k="motorroad" v="no"/>
    <tag k="name" v="Brudermühlbrücke"/>
    <tag k="odbl" v="clean"/>
    <tag k="oneway" v="yes"/>
    <tag k="ref" v="B 2R"/>
    <tag k="source" v="survey"/>
  </way>
  <way id="18951760" version="19" timestamp="2012-08-17T15:41:58Z" uid="8748" user="ToniE" changeset="12763904">
    <nd ref="1562270758"/>
    <nd ref="147058"/>
    <tag k="bridge" v="yes"/>
    <tag k="highway" v="trunk"/>
    <tag k="int_ref" v="E 54"/>
    <tag k="lanes" v="4"/>
    <tag k="layer" v="1"/>
    <tag k="maxspeed" v="60"/>
    <tag k="motorroad" v="no"/>
    <tag k="name" v="Brudermühlbrücke"/>
    <tag k="odbl" v="clean"/>
    <tag k="oneway" v="yes"/>
    <tag k="ref" v="B 2R"/>
    <tag k="source" v="survey"/>
  </way>
  <way id="18951764" version="7" timestamp="2012-07-19T22:48:01Z" uid="722137" user="OSMF Redaction Account" changeset="12350895">
    <nd ref="196155333"/>
    <nd ref="196156816"/>
    <tag k="highway" v="residential"/>
    <tag k="name" v="Yanigin Drive"/>
    <tag k="surface" v="asphalt"/>
  </way>
</osm>
