<?xml version='1.0' encoding='UTF-8'?>
<osm version="0.6" generator="libosmium/2.20.0">
  <way id="18967237" version="4" timestamp="2009-12-30T12:52:08Z" uid="20587" user="balrog-kun" changeset="3489553">
    <nd ref="196363899"/>
    <nd ref="196363903"/>
    <nd ref="196363907"/>
    <nd ref="196363912"/>
    <nd ref="498739325"/>
    <nd ref="196363927"/>
    <nd ref="196363917"/>
    <nd ref="196363931"/>
    <nd ref="498739327"/>
    <nd ref="196363921"/>
    <nd ref="497509982"/>
    <nd ref="179870732"/>
    <nd ref="196363899"/>
    <tag k="name" v="35"/>
    <tag k="railway" v="tram"/>
    <tag k="source" v="survey"/>
  </way>
  <way id="18967237" version="5" timestamp="2010-01-12T10:40:01Z" uid="20587" user="balrog-kun" changeset="3602063">
    <nd ref="196363899"/>
    <nd ref="196363903"/>
    <nd ref="612073100"/>
    <nd ref="196363907"/>
    <nd ref="196363912"/>
    <nd ref="498739325"/>
    <nd ref="196363927"/>
    <nd ref="612073099"/>
    <nd ref="196363917"/>
    <nd ref="196363931"/>
    <nd ref="498739327"/>
    <nd ref="196363921"/>
    <nd ref="497509982"/>
    <nd ref="179870732"/>
    <nd ref="612073104"/>
    <nd ref="196363899"/>
    <tag k="name" v="35"/>
    <tag k="railway" v="tram"/>
    <tag k="source" v="survey"/>
  </way>
  <way id="18967237" version="6" timestamp="2011-06-12T12:51:26Z" uid="469094" user="wlv" changeset="8414757">
    <nd ref="196363899"/>
    <nd ref="196363903"/>
    <nd ref="612073100"/>
    <nd ref="196363907"/>
    <nd ref="196363912"/>
    <nd ref="498739325"/>
    <nd ref="196363927"/>
    <nd ref="612073099"/>
    <nd ref="196363917"/>
    <nd ref="196363931"/>
    <nd ref="498739327"/>
    <nd ref="196363921"/>
    <nd ref="497509982"/>
    <nd ref="179870732"/>
    <nd ref="612073104"/>
    <nd ref="196363899"/>
    <tag k="electrified" v="yes"/>
    <tag k="frequency" v="0"/>
    <tag k="name" v="15(out of service until fall &apos;11)"/>
    <tag k="railway" v="tram"/>
    <tag k="source" v="survey"/>
    <tag k="voltage" v="600"/>
  </way>
  <way id="18967237" version="7" timestamp="2011-10-07T23:07:43Z" uid="477744" user="hormel" changeset="9498393">
    <nd ref="196363899"/>
    <nd ref="196363903"/>
    <nd ref="612073100"/>
    <nd ref="196363907"/>
    <nd ref="196363912"/>
    <nd ref="498739325"/>
    <nd ref="196363927"/>
    <nd ref="612073099"/>
    <nd ref="196363917"/>
    <nd ref="196363931"/>
    <nd ref="498739327"/>
    <nd ref="196363921"/>
    <nd ref="497509982"/>
    <nd ref="179870732"/>
    <nd ref="612073104"/>
    <nd ref="196363899"/>
    <tag k="electrified" v="yes"/>
    <tag k="frequency" v="0"/>
    <tag k="name" v="15(out of service until fall &apos;11)"/>
    <tag k="railway" v="disused"/>
    <tag k="source" v="survey"/>
    <tag k="voltage" v="600"/>
  </way>
  <way id="18967237" version="8" timestamp="2011-10-09T21:40:10Z" uid="477744" user="hormel" changeset="9517682"/>
  <way id="18967239" version="3" timestamp="2008-03-28T22:33:50Z" uid="20587" user="balrog-kun" changeset="415330"/>
  <way id="18967241" version="2" timestamp="2008-03-28T22:33:47Z" uid="20587" user="balrog-kun" changeset="415330">
    <nd ref="86681120"/>
    <nd ref="254508172"/>
    <nd ref="86683348"/>
    <nd ref="254508178"/>
    <nd ref="38251387"/>
    <tag k="created_by" v="JOSM"/>
    <tag k="highway" v="primary"/>
    <tag k="name" v="Juliusza Słowackiego"/>
    <tag k="oneway" v="yes"/>
  </way>
  <way id="18967241" version="3" timestamp="2008-07-29T19:00:57Z" uid="39019" user="Maciej Piechotka" changeset="621000">
    <nd ref="86681117"/>
    <nd ref="86681120"/>
    <nd ref="254508172"/>
    <nd ref="86683348"/>
    <tag k="created_by" v="JOSM"/>
    <tag k="highway" v="primary"/>
    <tag k="name" v="Juliusza Słowackiego"/>
  </way>
  <way id="18967241" version="4" timestamp="2009-01-31T11:10:33Z" uid="91921" user="kwiecinski" changeset="860861">
    <nd ref="86681117"/>
    <nd ref="86681120"/>
    <nd ref="254508172"/>
    <nd ref="86683348"/>
    <tag k="created_by" v="Merkaartor 0.12"/>
    <tag k="highway" v="tertiary"/>
    <tag k="name" v="Juliusza Słowackiego"/>
  </way>
  <way id="18967241" version="5" timestamp="2009-09-15T14:23:18Z" uid="172736" user="JPool" changeset="2492692">
    <nd ref="86681117"/>
    <nd ref="86681120"/>
    <nd ref="497114207"/>
    <nd ref="497114179"/>
    <nd ref="254508172"/>
    <nd ref="86683348"/>
    <tag k="highway" v="tertiary"/>
    <tag k="name" v="Juliusza Słowackiego"/>
  </way>
  <way id="18967241" version="6" timestamp="2009-12-30T12:51:54Z" uid="20587" user="balrog-kun" changeset="3489553">
    <nd ref="86681117"/>
    <nd ref="86681120"/>
    <nd ref="497114207"/>
    <nd ref="497114179"/>
    <nd ref="497682520"/>
    <nd ref="501567193"/>
    <nd ref="497682514"/>
    <nd ref="254508172"/>
    <nd ref="86683348"/>
    <tag k="highway" v="tertiary"/>
    <tag k="name" v="Juliusza Słowackiego"/>
  </way>
  <way id="18967241" version="7" timestamp="2010-01-12T09:34:30Z" uid="20587" user="balrog-kun" changeset="3601699">
    <nd ref="86681117"/>
    <nd ref="86681120"/>
    <nd ref="497510017"/>
    <nd ref="497510038"/>
    <nd ref="612046583"/>
    <nd ref="497114179"/>
    <nd ref="612046582"/>
    <nd ref="497682520"/>
    <nd ref="501567193"/>
    <nd ref="612046595"/>
    <nd ref="497682514"/>
    <nd ref="612046574"/>
    <nd ref="254508172"/>
    <nd ref="86683348"/>
    <tag k="highway" v="tertiary"/>
    <tag k="name" v="Juliusza Słowackiego"/>
  </way>
  <way id="18967241" version="8" timestamp="2010-03-26T21:00:20Z" uid="156907" user="kububa" changeset="4241913">
    <nd ref="86681117"/>
    <nd ref="86681120"/>
    <nd ref="497510017"/>
    <nd ref="497510038"/>
    <nd ref="612046583"/>
    <nd ref="497114179"/>
    <nd ref="612046582"/>
    <nd ref="497682520"/>
    <nd ref="501567193"/>
    <nd ref="612046595"/>
    <nd ref="497682514"/>
    <nd ref="675115019"/>
    <nd ref="612046574"/>
    <nd ref="254508172"/>
    <nd ref="86683348"/>
    <tag k="highway" v="tertiary"/>
    <tag k="name" v="Juliusza Słowackiego"/>
  </way>
  <way id="18967244" version="2" timestamp="2008-03-28T23:10:28Z" uid="20587" user="balrog-kun" changeset="415330">
    <nd ref="196363965"/>
    <nd ref="196363967"/>
    <tag k="created_by" v="JOSM"/>
    <tag k="highway" v="residential"/>
    <tag k="name" v="Drohicka"/>
    <tag k="source" v="survey"/>
  </way>
  <way id="18967244" version="3" timestamp="2009-12-30T12:51:59Z" uid="20587" user="balrog-kun" changeset="3489553">
    <nd ref="196363965"/>
    <nd ref="601444726"/>
    <nd ref="196363967"/>
    <tag k="highway" v="residential"/>
    <tag k="name" v="Drohicka"/>
    <tag k="source" v="survey"/>
  </way>
  <way id="18967245" version="2" timestamp="2008-03-28T23:10:28Z" uid="20587" user="balrog-kun" changeset="415330">
    <nd ref="196363967"/>
    <nd ref="196363975"/>
    <nd ref="196363971"/>
    <nd ref="196363981"/>
    <nd ref="196363937"/>
    <tag k="created_by" v="JOSM"/>
    <tag k="highway" v="residential"/>
    <tag k="name" v="Mścisławska"/>
    <tag k="source" v="survey"/>
  </way>
  <way id="18967248" version="2" timestamp="2008-03-28T23:10:27Z" uid="20587" user="balrog-kun" changeset="415330">
    <nd ref="196363981"/>
    <nd ref="196364003"/>
    <tag k="created_by" v="JOSM"/>
    <tag k="highway" v="residential"/>
    <tag k="name" v="Bytomska"/>
    <tag k="source" v="survey"/>
  </way>
  <way id="18967251" version="3" timestamp="2009-12-30T12:51:51Z" uid="20587" user="balrog-kun" changeset="3489553">
    <nd ref="196363991"/>
    <nd ref="196364026"/>
    <nd ref="196364028"/>
    <nd ref="196364031"/>
    <nd ref="196364036"/>
    <nd ref="196364041"/>
    <nd ref="196364046"/>
    <nd ref="601444871"/>
    <nd ref="601444870"/>
    <nd ref="196364053"/>
    <tag k="highway" v="residential"/>
    <tag k="maxspeed" v="50"/>
    <tag k="name" v="Kazimierza Promyka"/>
    <tag k="note" v="TODO: oneway"/>
    <tag k="source" v="survey"/>
  </way>
  <way id="18967253" version="2" timestamp="2008-03-28T23:10:27Z" uid="20587" user="balrog-kun" changeset="415330">
    <nd ref="196364026"/>
    <nd ref="196364057"/>
    <nd ref="196364058"/>
    <nd ref="196364060"/>
    <tag k="created_by" v="JOSM"/>
    <tag k="highway" v="residential"/>
    <tag k="name" v="Mikołaja Gomółki"/>
    <tag k="source" v="survey"/>
  </way>
  <way id="18967257" version="2" timestamp="2008-03-28T23:10:27Z" uid="20587" user="balrog-kun" changeset="415330">
    <nd ref="196364046"/>
    <nd ref="196364124"/>
    <nd ref="196364105"/>
    <tag k="created_by" v="JOSM"/>
    <tag k="highway" v="residential"/>
    <tag k="name" v="Kajetana Koźmiana"/>
    <tag k="source" v="survey"/>
  </way>
  <way id="18967257" version="3" timestamp="2011-07-21T19:52:14Z" uid="441384" user="fjg" changeset="8792000">
    <nd ref="196364046"/>
    <nd ref="1369342053"/>
    <nd ref="196364124"/>
    <nd ref="196364105"/>
    <tag k="highway" v="residential"/>
    <tag k="name" v="Kajetana Koźmiana"/>
    <tag k="source" v="survey"/>
  </way>
  <way id="18967262" version="4" timestamp="2010-01-10T20:44:45Z" uid="20587" user="balrog-kun" changeset="3591381">
    <nd ref="196364081"/>
    <nd ref="196364086"/>
    <nd ref="611249638"/>
    <nd ref="196364071"/>
    <nd ref="196364076"/>
    <nd ref="196364058"/>
    <nd ref="196364127"/>
    <nd ref="216121973"/>
    <nd ref="196364124"/>
    <tag k="highway" v="residential"/>
    <tag k="name" v="Adolfa Dygasińskiego"/>
    <tag k="note" v="TODO: oneway"/>
    <tag k="source" v="survey"/>
  </way>
  <way id="18967262" version="5" timestamp="2011-07-12T07:18:44Z" uid="52087" user="kocio" changeset="8700347">
    <nd ref="196364081"/>
    <nd ref="196364086"/>
    <nd ref="611249638"/>
    <nd ref="196364071"/>
    <nd ref="1359017836"/>
    <nd ref="196364076"/>
    <nd ref="1359017826"/>
    <nd ref="196364058"/>
    <nd ref="1359017828"/>
    <nd ref="196364127"/>
    <nd ref="216121973"/>
    <nd ref="196364124"/>
    <tag k="highway" v="residential"/>
    <tag k="name" v="Adolfa Dygasińskiego"/>
    <tag k="note" v="TODO: oneway"/>
    <tag k="source" v="survey"/>
  </way>
  <way id="18967266" version="2" timestamp="2008-03-28T23:10:26Z" uid="20587" user="balrog-kun" changeset="415330">
    <nd ref="196364076"/>
    <nd ref="196364134"/>
    <tag k="created_by" v="JOSM"/>
    <tag k="highway" v="residential"/>
    <tag k="name" v="Czesława Rybińskiego"/>
    <tag k="source" v="survey"/>
  </way>
  <way id="18967268" version="2" timestamp="2008-03-28T23:10:26Z" uid="20587" user="balrog-kun" changeset="415330">
    <nd ref="196364003"/>
    <nd ref="196364089"/>
    <nd ref="196363986"/>
    <nd ref="196364153"/>
    <nd ref="196364150"/>
    <nd ref="196364143"/>
    <nd ref="196364139"/>
    <nd ref="196364118"/>
    <tag k="created_by" v="JOSM"/>
    <tag k="highway" v="residential"/>
    <tag k="name" v="Tucholska"/>
    <tag k="source" v="survey"/>
  </way>
  <way id="18967241" version="9" timestamp="2012-07-24T21:07:23Z" uid="722137" user="OSMF Redaction Account" changeset="12476546">
    <nd ref="86681117"/>
    <nd ref="86681120"/>
    <nd ref="497510017"/>
    <nd ref="497510038"/>
    <nd ref="612046583"/>
    <nd ref="497114179"/>
    <nd ref="612046582"/>
    <nd ref="497682520"/>
    <nd ref="501567193"/>
    <nd ref="612046595"/>
    <nd ref="497682514"/>
    <nd ref="675115019"/>
    <nd ref="612046574"/>
    <nd ref="254508172"/>
    <nd ref="86683348"/>
    <tag k="highway" v="primary"/>
    <tag k="name" v="Juliusza Słowackiego"/>
  </way>
  <way id="18967241" version="10" timestamp="2012-07-26T01:43:53Z" uid="165509" user="koszatek" changeset="12493846">
    <nd ref="86681117"/>
    <nd ref="86681120"/>
    <nd ref="497510017"/>
    <nd ref="497510038"/>
    <nd ref="612046583"/>
    <nd ref="497114179"/>
    <nd ref="612046582"/>
    <nd ref="497682520"/>
    <nd ref="501567193"/>
    <nd ref="612046595"/>
    <nd ref="497682514"/>
    <nd ref="675115019"/>
    <nd ref="612046574"/>
    <nd ref="254508172"/>
    <nd ref="86683348"/>
    <tag k="highway" v="secondary"/>
    <tag k="name" v="Juliusza Słowackiego"/>
  </way>
</osm>
