<?xml version='1.0' encoding='UTF-8'?>
<osm version="0.6" generator="libosmium/2.20.0">
  <way id="18985058" version="2" timestamp="2008-12-14T11:40:25Z" uid="7617" user="Franc" changeset="375809">
    <nd ref="196597761"/>
    <nd ref="196598306"/>
    <tag k="created_by" v="Potlatch 0.6"/>
    <tag k="highway" v="residential"/>
    <tag k="name" v="Hamilton Crescent West"/>
    <tag k="source" v="survey"/>
  </way>
  <way id="18985058" version="3" timestamp="2010-07-08T00:59:37Z" uid="74617" user="JohnSmith" changeset="5162525">
    <nd ref="196597761"/>
    <nd ref="196598306"/>
    <tag k="highway" v="residential"/>
    <tag k="maxspeed" v="50"/>
    <tag k="maxspeed:source" v="default residential speed limit in Australia"/>
    <tag k="name" v="Hamilton Crescent West"/>
    <tag k="source" v="survey"/>
  </way>
  <way id="18985058" version="4" timestamp="2012-01-15T19:36:49Z" uid="147510" user="woodpeck_fixbot" changeset="10400850">
    <nd ref="196597761"/>
    <nd ref="196598306"/>
    <tag k="highway" v="residential"/>
    <tag k="name" v="Hamilton Crescent West"/>
    <tag k="source" v="survey"/>
  </way>
  <way id="18985144" version="2" timestamp="2008-06-28T00:32:01Z" uid="30201" user="rrankin" changeset="318974">
    <nd ref="12219314"/>
    <nd ref="274142343"/>
    <nd ref="196598901"/>
    <tag k="created_by" v="Potlatch 0.6"/>
    <tag k="highway" v="residential"/>
  </way>
  <way id="18985144" version="3" timestamp="2008-06-28T05:32:11Z" uid="30201" user="rrankin" changeset="323262"/>
  <way id="18985151" version="2" timestamp="2008-02-12T03:19:25Z" uid="7617" user="Franc" changeset="104216">
    <nd ref="196598929"/>
    <nd ref="196598947"/>
    <tag k="created_by" v="Potlatch 0.6"/>
    <tag k="highway" v="residential"/>
  </way>
  <way id="18985151" version="3" timestamp="2008-06-13T05:26:40Z" uid="30201" user="rrankin" changeset="152574">
    <nd ref="196598929"/>
    <nd ref="270045522"/>
    <nd ref="196598947"/>
    <tag k="created_by" v="Potlatch 0.6"/>
    <tag k="highway" v="residential"/>
  </way>
  <way id="18985151" version="4" timestamp="2008-12-14T10:19:26Z" uid="7617" user="Franc" changeset="365738"/>
  <way id="18985154" version="7" timestamp="2009-11-28T06:19:28Z" uid="30201" user="rrankin" changeset="3233694">
    <nd ref="12219317"/>
    <nd ref="196641972"/>
    <nd ref="12219308"/>
    <tag k="highway" v="tertiary"/>
  </way>
  <way id="18985154" version="8" timestamp="2010-02-03T01:15:28Z" uid="30201" user="rrankin" changeset="3780262"/>
  <way id="18985335" version="6" timestamp="2010-08-16T08:51:12Z" uid="74617" user="JohnSmith" changeset="5507246"/>
  <way id="18985488" version="2" timestamp="2008-06-28T05:32:05Z" uid="30201" user="rrankin" changeset="323262">
    <nd ref="26400438"/>
    <nd ref="196601616"/>
    <tag k="created_by" v="Potlatch 0.6"/>
    <tag k="highway" v="residential"/>
    <tag k="name" v="Suttor Avenue"/>
  </way>
  <way id="18985488" version="3" timestamp="2010-07-08T00:58:32Z" uid="74617" user="JohnSmith" changeset="5162525">
    <nd ref="26400438"/>
    <nd ref="196601616"/>
    <tag k="highway" v="residential"/>
    <tag k="maxspeed" v="50"/>
    <tag k="maxspeed:source" v="default residential speed limit in Australia"/>
    <tag k="name" v="Suttor Avenue"/>
  </way>
  <way id="18985488" version="4" timestamp="2012-01-15T19:36:50Z" uid="147510" user="woodpeck_fixbot" changeset="10400850">
    <nd ref="26400438"/>
    <nd ref="196601616"/>
    <tag k="highway" v="residential"/>
    <tag k="name" v="Suttor Avenue"/>
  </way>
  <way id="18985493" version="4" timestamp="2010-02-14T15:50:04Z" uid="74617" user="JohnSmith" changeset="3874884">
    <nd ref="196596142"/>
    <nd ref="196601642"/>
    <nd ref="196601643"/>
    <nd ref="79861805"/>
    <tag k="highway" v="residential"/>
    <tag k="maxspeed" v="50"/>
    <tag k="name" v="Arnott Street"/>
  </way>
  <way id="18985493" version="5" timestamp="2010-08-16T08:51:02Z" uid="74617" user="JohnSmith" changeset="5507246">
    <nd ref="196596142"/>
    <nd ref="196601642"/>
    <nd ref="196601643"/>
    <nd ref="862940026"/>
    <tag k="highway" v="residential"/>
    <tag k="maxspeed" v="50"/>
    <tag k="name" v="Arnott Street"/>
  </way>
  <way id="18985493" version="6" timestamp="2012-01-15T19:36:50Z" uid="147510" user="woodpeck_fixbot" changeset="10400850">
    <nd ref="196596142"/>
    <nd ref="196601642"/>
    <nd ref="196601643"/>
    <nd ref="862940026"/>
    <tag k="highway" v="residential"/>
    <tag k="name" v="Arnott Street"/>
  </way>
  <way id="18985534" version="2" timestamp="2008-06-28T05:32:08Z" uid="30201" user="rrankin" changeset="323262">
    <nd ref="196601691"/>
    <nd ref="196601954"/>
    <nd ref="196601955"/>
    <tag k="created_by" v="Potlatch 0.6"/>
    <tag k="highway" v="residential"/>
    <tag k="name" v="Yerong Street"/>
  </way>
  <way id="18985534" version="3" timestamp="2010-07-08T01:00:01Z" uid="74617" user="JohnSmith" changeset="5162525">
    <nd ref="196601691"/>
    <nd ref="196601954"/>
    <nd ref="196601955"/>
    <tag k="highway" v="residential"/>
    <tag k="maxspeed" v="50"/>
    <tag k="maxspeed:source" v="default residential speed limit in Australia"/>
    <tag k="name" v="Yerong Street"/>
  </way>
  <way id="18985534" version="4" timestamp="2011-10-10T00:30:28Z" uid="162096" user="Daz" changeset="9518332">
    <nd ref="196601691"/>
    <nd ref="196601954"/>
    <tag k="highway" v="residential"/>
    <tag k="lcn" v="yes"/>
    <tag k="maxspeed" v="50"/>
    <tag k="maxspeed:source" v="default residential speed limit in Australia"/>
    <tag k="name" v="Yerong Street"/>
  </way>
  <way id="18985534" version="5" timestamp="2012-01-15T19:36:51Z" uid="147510" user="woodpeck_fixbot" changeset="10400850">
    <nd ref="196601691"/>
    <nd ref="196601954"/>
    <tag k="highway" v="residential"/>
    <tag k="lcn" v="yes"/>
    <tag k="name" v="Yerong Street"/>
  </way>
  <way id="18985617" version="4" timestamp="2008-06-28T05:32:04Z" uid="30201" user="rrankin" changeset="323262">
    <nd ref="196601954"/>
    <nd ref="196603455"/>
    <nd ref="196602676"/>
    <nd ref="196602427"/>
    <tag k="created_by" v="Potlatch 0.6"/>
    <tag k="highway" v="residential"/>
    <tag k="name" v="Sutherland Avenue"/>
  </way>
  <way id="18985617" version="5" timestamp="2010-02-27T03:11:37Z" uid="7617" user="Franc" changeset="3985431">
    <nd ref="196601954"/>
    <nd ref="196603455"/>
    <nd ref="196602676"/>
    <nd ref="196698320"/>
    <tag k="highway" v="residential"/>
    <tag k="name" v="Sutherland Avenue"/>
  </way>
  <way id="18985617" version="6" timestamp="2010-07-08T00:59:02Z" uid="74617" user="JohnSmith" changeset="5162525">
    <nd ref="196601954"/>
    <nd ref="196603455"/>
    <nd ref="196602676"/>
    <nd ref="196698320"/>
    <tag k="highway" v="residential"/>
    <tag k="maxspeed" v="50"/>
    <tag k="maxspeed:source" v="default residential speed limit in Australia"/>
    <tag k="name" v="Sutherland Avenue"/>
  </way>
  <way id="18985617" version="7" timestamp="2011-10-10T00:30:29Z" uid="162096" user="Daz" changeset="9518332">
    <nd ref="196601954"/>
    <nd ref="196603455"/>
    <tag k="highway" v="residential"/>
    <tag k="lcn" v="yes"/>
    <tag k="maxspeed" v="50"/>
    <tag k="maxspeed:source" v="default residential speed limit in Australia"/>
    <tag k="name" v="Sutherland Avenue"/>
  </way>
  <way id="18985617" version="8" timestamp="2012-01-15T19:36:52Z" uid="147510" user="woodpeck_fixbot" changeset="10400850">
    <nd ref="196601954"/>
    <nd ref="196603455"/>
    <tag k="highway" v="residential"/>
    <tag k="lcn" v="yes"/>
    <tag k="name" v="Sutherland Avenue"/>
  </way>
  <way id="18985665" version="2" timestamp="2008-06-28T05:31:53Z" uid="30201" user="rrankin" changeset="323262">
    <nd ref="196602482"/>
    <nd ref="196602676"/>
    <tag k="created_by" v="Potlatch 0.6"/>
    <tag k="highway" v="residential"/>
    <tag k="name" v="Thistle Street"/>
  </way>
  <way id="18985665" version="3" timestamp="2009-03-24T11:18:39Z" uid="110384" user="Jenna Fox" changeset="855325">
    <nd ref="196602482"/>
    <nd ref="365261649"/>
    <nd ref="196602676"/>
    <tag k="created_by" v="Potlatch 0.10f"/>
    <tag k="highway" v="residential"/>
    <tag k="name" v="Thistle Street"/>
  </way>
  <way id="18985665" version="4" timestamp="2009-08-15T12:27:24Z" uid="4467" user="Rosscoe" changeset="2153494">
    <nd ref="196602482"/>
    <nd ref="196602676"/>
    <tag k="highway" v="residential"/>
    <tag k="name" v="Thistle Street"/>
  </way>
  <way id="18985665" version="5" timestamp="2010-02-27T03:11:37Z" uid="7617" user="Franc" changeset="3985431">
    <nd ref="196602482"/>
    <nd ref="654595409"/>
    <tag k="highway" v="residential"/>
    <tag k="name" v="Thistle Street"/>
    <tag k="restriction" v="school_zone"/>
  </way>
  <way id="18985665" version="6" timestamp="2010-07-08T00:58:19Z" uid="74617" user="JohnSmith" changeset="5162525">
    <nd ref="196602482"/>
    <nd ref="654595409"/>
    <tag k="highway" v="residential"/>
    <tag k="maxspeed" v="50"/>
    <tag k="maxspeed:source" v="default residential speed limit in Australia"/>
    <tag k="name" v="Thistle Street"/>
    <tag k="restriction" v="school_zone"/>
  </way>
  <way id="18985665" version="7" timestamp="2012-01-15T19:36:53Z" uid="147510" user="woodpeck_fixbot" changeset="10400850">
    <nd ref="196602482"/>
    <nd ref="654595409"/>
    <tag k="highway" v="residential"/>
    <tag k="name" v="Thistle Street"/>
    <tag k="restriction" v="school_zone"/>
  </way>
  <way id="18985751" version="5" timestamp="2010-02-14T15:50:27Z" uid="74617" user="JohnSmith" changeset="3874884">
    <nd ref="80539483"/>
    <nd ref="196603224"/>
    <nd ref="196603225"/>
    <tag k="highway" v="residential"/>
    <tag k="maxspeed" v="50"/>
    <tag k="name" v="Sixth Avenue"/>
  </way>
  <way id="18985751" version="6" timestamp="2012-01-15T19:36:55Z" uid="147510" user="woodpeck_fixbot" changeset="10400850">
    <nd ref="80539483"/>
    <nd ref="196603224"/>
    <nd ref="196603225"/>
    <tag k="highway" v="residential"/>
    <tag k="name" v="Sixth Avenue"/>
  </way>
  <way id="18985794" version="2" timestamp="2008-06-28T05:32:00Z" uid="30201" user="rrankin" changeset="323262">
    <nd ref="196603091"/>
    <nd ref="196603454"/>
    <nd ref="196603455"/>
    <tag k="created_by" v="Potlatch 0.6"/>
    <tag k="highway" v="residential"/>
    <tag k="name" v="Squire Street"/>
  </way>
  <way id="18985794" version="3" timestamp="2010-05-09T08:46:35Z" uid="7617" user="Franc" changeset="4645856">
    <nd ref="727252028"/>
    <nd ref="196603454"/>
    <nd ref="196603455"/>
    <tag k="highway" v="residential"/>
    <tag k="name" v="Squire Street"/>
  </way>
  <way id="18985794" version="4" timestamp="2010-07-08T01:01:17Z" uid="74617" user="JohnSmith" changeset="5162525">
    <nd ref="727252028"/>
    <nd ref="196603454"/>
    <nd ref="196603455"/>
    <tag k="highway" v="residential"/>
    <tag k="maxspeed" v="50"/>
    <tag k="maxspeed:source" v="default residential speed limit in Australia"/>
    <tag k="name" v="Squire Street"/>
  </way>
  <way id="18985794" version="5" timestamp="2011-10-10T00:30:29Z" uid="162096" user="Daz" changeset="9518332">
    <nd ref="727252028"/>
    <nd ref="196603454"/>
    <nd ref="196603455"/>
    <tag k="highway" v="residential"/>
    <tag k="lcn" v="yes"/>
    <tag k="maxspeed" v="50"/>
    <tag k="maxspeed:source" v="default residential speed limit in Australia"/>
    <tag k="name" v="Squire Street"/>
  </way>
  <way id="18985794" version="6" timestamp="2012-01-15T19:36:56Z" uid="147510" user="woodpeck_fixbot" changeset="10400850">
    <nd ref="727252028"/>
    <nd ref="196603454"/>
    <nd ref="196603455"/>
    <tag k="highway" v="residential"/>
    <tag k="lcn" v="yes"/>
    <tag k="name" v="Squire Street"/>
  </way>
  <way id="18985794" version="7" timestamp="2012-02-05T06:53:07Z" uid="7523" user="inas" changeset="10590723">
    <nd ref="1618563847"/>
    <nd ref="196603454"/>
    <nd ref="196603455"/>
    <tag k="highway" v="residential"/>
    <tag k="lcn" v="yes"/>
    <tag k="name" v="Squire Street"/>
  </way>
  <way id="18985811" version="2" timestamp="2008-06-28T05:31:55Z" uid="30201" user="rrankin" changeset="323262">
    <nd ref="196603454"/>
    <nd ref="196603674"/>
    <tag k="created_by" v="Potlatch 0.6"/>
    <tag k="highway" v="residential"/>
    <tag k="name" v="Shepard Street"/>
  </way>
  <way id="18985811" version="3" timestamp="2010-07-08T01:00:27Z" uid="74617" user="JohnSmith" changeset="5162525">
    <nd ref="196603454"/>
    <nd ref="196603674"/>
    <tag k="highway" v="residential"/>
    <tag k="maxspeed" v="50"/>
    <tag k="maxspeed:source" v="default residential speed limit in Australia"/>
    <tag k="name" v="Shepard Street"/>
  </way>
  <way id="18985811" version="4" timestamp="2012-01-15T19:36:56Z" uid="147510" user="woodpeck_fixbot" changeset="10400850">
    <nd ref="196603454"/>
    <nd ref="196603674"/>
    <tag k="highway" v="residential"/>
    <tag k="name" v="Shepard Street"/>
  </way>
  <way id="18985815" version="4" timestamp="2010-02-14T15:50:27Z" uid="74617" user="JohnSmith" changeset="3874884">
    <nd ref="80539485"/>
    <nd ref="200083399"/>
    <nd ref="196603717"/>
    <tag k="highway" v="residential"/>
    <tag k="maxspeed" v="50"/>
    <tag k="name" v="Seventh Avenue"/>
  </way>
  <way id="18985815" version="5" timestamp="2012-01-15T19:36:57Z" uid="147510" user="woodpeck_fixbot" changeset="10400850">
    <nd ref="80539485"/>
    <nd ref="200083399"/>
    <nd ref="196603717"/>
    <tag k="highway" v="residential"/>
    <tag k="name" v="Seventh Avenue"/>
  </way>
  <way id="18985838" version="4" timestamp="2008-06-28T05:32:01Z" uid="30201" user="rrankin" changeset="323262">
    <nd ref="196603782"/>
    <nd ref="196604191"/>
    <nd ref="196604902"/>
    <nd ref="196698320"/>
    <nd ref="196602427"/>
    <tag k="created_by" v="Potlatch 0.6"/>
    <tag k="highway" v="residential"/>
    <tag k="name" v="Thorn Street"/>
  </way>
  <way id="18985838" version="5" timestamp="2010-02-27T03:11:36Z" uid="7617" user="Franc" changeset="3985431">
    <nd ref="196603782"/>
    <nd ref="196604191"/>
    <nd ref="196604902"/>
    <nd ref="196698320"/>
    <tag k="highway" v="residential"/>
    <tag k="name" v="Thorn Street"/>
  </way>
  <way id="18985838" version="6" timestamp="2010-07-08T01:00:10Z" uid="74617" user="JohnSmith" changeset="5162525">
    <nd ref="196603782"/>
    <nd ref="196604191"/>
    <nd ref="196604902"/>
    <nd ref="196698320"/>
    <tag k="highway" v="residential"/>
    <tag k="maxspeed" v="50"/>
    <tag k="maxspeed:source" v="default residential speed limit in Australia"/>
    <tag k="name" v="Thorn Street"/>
  </way>
  <way id="18985838" version="7" timestamp="2010-12-27T10:17:35Z" uid="7617" user="Franc" changeset="6775930">
    <nd ref="196603782"/>
    <nd ref="196604191"/>
    <nd ref="1067430049"/>
    <nd ref="1067430647"/>
    <nd ref="196604902"/>
    <nd ref="196698320"/>
    <tag k="highway" v="residential"/>
    <tag k="maxspeed" v="50"/>
    <tag k="maxspeed:source" v="default residential speed limit in Australia"/>
    <tag k="name" v="Thorn Street"/>
  </way>
  <way id="18985838" version="8" timestamp="2012-01-15T19:36:58Z" uid="147510" user="woodpeck_fixbot" changeset="10400850">
    <nd ref="196603782"/>
    <nd ref="196604191"/>
    <nd ref="1067430049"/>
    <nd ref="1067430647"/>
    <nd ref="196604902"/>
    <nd ref="196698320"/>
    <tag k="highway" v="residential"/>
    <tag k="name" v="Thorn Street"/>
  </way>
  <way id="18985911" version="2" timestamp="2008-06-28T05:32:07Z" uid="30201" user="rrankin" changeset="323262">
    <nd ref="196604191"/>
    <nd ref="196604892"/>
    <nd ref="196604893"/>
    <tag k="created_by" v="Potlatch 0.6"/>
    <tag k="highway" v="residential"/>
    <tag k="name" v="Robert Street"/>
  </way>
  <way id="18985911" version="3" timestamp="2010-07-08T00:58:21Z" uid="74617" user="JohnSmith" changeset="5162525">
    <nd ref="196604191"/>
    <nd ref="196604892"/>
    <nd ref="196604893"/>
    <tag k="highway" v="residential"/>
    <tag k="maxspeed" v="50"/>
    <tag k="maxspeed:source" v="default residential speed limit in Australia"/>
    <tag k="name" v="Robert Street"/>
  </way>
  <way id="18985911" version="4" timestamp="2010-12-27T10:17:37Z" uid="7617" user="Franc" changeset="6775930">
    <nd ref="196604191"/>
    <nd ref="196604892"/>
    <nd ref="1067430628"/>
    <nd ref="196604893"/>
    <tag k="highway" v="residential"/>
    <tag k="maxspeed" v="50"/>
    <tag k="maxspeed:source" v="default residential speed limit in Australia"/>
    <tag k="name" v="Robert Street"/>
  </way>
  <way id="18985911" version="5" timestamp="2012-01-15T19:36:59Z" uid="147510" user="woodpeck_fixbot" changeset="10400850">
    <nd ref="196604191"/>
    <nd ref="196604892"/>
    <nd ref="1067430628"/>
    <nd ref="196604893"/>
    <tag k="highway" v="residential"/>
    <tag k="name" v="Robert Street"/>
  </way>
  <way id="18985058" version="5" timestamp="2012-07-20T05:25:49Z" uid="722137" user="OSMF Redaction Account" changeset="12361944">
    <nd ref="196597761"/>
    <nd ref="196598306"/>
    <tag k="highway" v="residential"/>
  </way>
  <way id="18985488" version="5" timestamp="2012-07-09T22:31:16Z" uid="713671" user="auspod" changeset="12167823">
    <nd ref="26400438"/>
    <nd ref="1819513230"/>
    <tag k="highway" v="residential"/>
    <tag k="name" v="Suttor Avenue"/>
  </way>
  <way id="18985488" version="6" timestamp="2012-07-20T05:25:49Z" uid="722137" user="OSMF Redaction Account" changeset="12361944">
    <nd ref="26400438"/>
    <nd ref="1819513230"/>
    <tag k="highway" v="residential"/>
  </way>
  <way id="18985488" version="7" timestamp="2012-07-21T10:20:32Z" uid="47167" user="MCH" changeset="12405446">
    <nd ref="1832950237"/>
    <nd ref="1819513230"/>
    <tag k="highway" v="residential"/>
  </way>
  <way id="18985488" version="8" timestamp="2012-07-30T16:04:45Z" uid="2585" user="rw_" changeset="12549970">
    <nd ref="1844184826"/>
    <nd ref="1832950237"/>
    <nd ref="1819513230"/>
    <tag k="highway" v="residential"/>
  </way>
  <way id="18985493" version="7" timestamp="2012-07-20T03:35:19Z" uid="722137" user="OSMF Redaction Account" changeset="12359497">
    <nd ref="196596142"/>
    <nd ref="196601642"/>
    <nd ref="196601643"/>
    <tag k="highway" v="residential"/>
    <tag k="name" v="Arnott Street"/>
  </way>
  <way id="18985534" version="6" timestamp="2012-07-09T22:31:17Z" uid="713671" user="auspod" changeset="12167823">
    <nd ref="1819513047"/>
    <nd ref="1819512903"/>
    <tag k="highway" v="residential"/>
    <tag k="lcn" v="yes"/>
    <tag k="name" v="Yerong Street"/>
  </way>
  <way id="18985534" version="7" timestamp="2012-07-20T05:25:50Z" uid="722137" user="OSMF Redaction Account" changeset="12361944">
    <nd ref="1819513047"/>
    <nd ref="1819512903"/>
    <tag k="highway" v="residential"/>
    <tag k="lcn" v="yes"/>
  </way>
  <way id="18985617" version="9" timestamp="2012-07-09T22:31:19Z" uid="713671" user="auspod" changeset="12167823">
    <nd ref="1819512903"/>
    <nd ref="1819512975"/>
    <tag k="highway" v="residential"/>
    <tag k="lcn" v="yes"/>
    <tag k="name" v="Sutherland Avenue"/>
  </way>
  <way id="18985617" version="10" timestamp="2012-07-20T05:25:51Z" uid="722137" user="OSMF Redaction Account" changeset="12361944">
    <nd ref="1819512903"/>
    <nd ref="1819512975"/>
    <tag k="highway" v="residential"/>
    <tag k="lcn" v="yes"/>
  </way>
  <way id="18985665" version="8" timestamp="2012-07-09T22:31:20Z" uid="713671" user="auspod" changeset="12167823">
    <nd ref="1819513355"/>
    <nd ref="654595409"/>
    <tag k="highway" v="residential"/>
    <tag k="name" v="Thistle Street"/>
    <tag k="restriction" v="school_zone"/>
  </way>
  <way id="18985665" version="9" timestamp="2012-07-20T05:31:19Z" uid="722137" user="OSMF Redaction Account" changeset="12362128"/>
  <way id="18985794" version="8" timestamp="2012-07-09T22:31:21Z" uid="713671" user="auspod" changeset="12167823">
    <nd ref="1618563847"/>
    <nd ref="1819513010"/>
    <nd ref="1819512975"/>
    <tag k="highway" v="residential"/>
    <tag k="lcn" v="yes"/>
    <tag k="name" v="Squire Street"/>
  </way>
  <way id="18985794" version="9" timestamp="2012-07-20T05:25:53Z" uid="722137" user="OSMF Redaction Account" changeset="12361944">
    <nd ref="1618563847"/>
    <nd ref="1819513010"/>
    <nd ref="1819512975"/>
    <tag k="highway" v="residential"/>
    <tag k="lcn" v="yes"/>
  </way>
  <way id="18985811" version="5" timestamp="2012-07-09T22:31:22Z" uid="713671" user="auspod" changeset="12167823">
    <nd ref="1819513010"/>
    <nd ref="196603674"/>
    <tag k="highway" v="residential"/>
    <tag k="name" v="Shepard Street"/>
  </way>
  <way id="18985811" version="6" timestamp="2012-07-20T05:25:52Z" uid="722137" user="OSMF Redaction Account" changeset="12361944">
    <nd ref="1819513010"/>
    <nd ref="196603674"/>
    <tag k="highway" v="residential"/>
  </way>
  <way id="18985838" version="9" timestamp="2012-07-20T05:23:29Z" uid="722137" user="OSMF Redaction Account" changeset="12361807">
    <nd ref="196603782"/>
    <nd ref="196604191"/>
    <nd ref="196604902"/>
    <nd ref="196698320"/>
    <tag k="highway" v="residential"/>
  </way>
  <way id="18985838" version="10" timestamp="2012-07-30T16:04:46Z" uid="2585" user="rw_" changeset="12549970">
    <nd ref="196603782"/>
    <nd ref="196604191"/>
    <nd ref="1844184787"/>
    <nd ref="196604902"/>
    <nd ref="196698320"/>
    <tag k="highway" v="residential"/>
  </way>
  <way id="18985911" version="6" timestamp="2012-07-20T05:23:31Z" uid="722137" user="OSMF Redaction Account" changeset="12361807">
    <nd ref="196604191"/>
    <nd ref="196604892"/>
    <nd ref="196604893"/>
    <tag k="highway" v="residential"/>
  </way>
  <way id="18985911" version="7" timestamp="2012-07-30T16:04:44Z" uid="2585" user="rw_" changeset="12549970">
    <nd ref="196604191"/>
    <nd ref="196604892"/>
    <nd ref="1844184799"/>
    <tag k="highway" v="residential"/>
  </way>
</osm>
