<?xml version='1.0' encoding='UTF-8'?>
<osm version="0.6" generator="libosmium/2.20.0">
  <way id="19049184" version="4" timestamp="2009-07-13T11:29:05Z" uid="7617" user="Franc" changeset="1815910">
    <nd ref="197372904"/>
    <nd ref="197372905"/>
    <nd ref="441149763"/>
    <nd ref="441149768"/>
    <nd ref="441149792"/>
    <nd ref="441149793"/>
    <nd ref="441149769"/>
    <nd ref="441149770"/>
    <nd ref="441149782"/>
    <nd ref="441149772"/>
    <nd ref="441149783"/>
    <nd ref="441149773"/>
    <nd ref="441149784"/>
    <nd ref="441149785"/>
    <nd ref="441149787"/>
    <nd ref="441149776"/>
    <nd ref="441149788"/>
    <nd ref="441149791"/>
    <nd ref="441149790"/>
    <nd ref="441149789"/>
    <nd ref="197372904"/>
    <tag k="area" v="yes"/>
    <tag k="created_by" v="Potlatch 0.10e"/>
    <tag k="leisure" v="park"/>
    <tag k="name" v="Burleigh Noll Conservation Park"/>
  </way>
  <way id="19049202" version="1" timestamp="2007-12-30T12:24:22Z" uid="7617" user="Franc" changeset="479636">
    <nd ref="197373112"/>
    <nd ref="41897585"/>
    <tag k="created_by" v="Potlatch alpha"/>
    <tag k="highway" v="footway"/>
    <tag k="surface" v="paved"/>
  </way>
  <way id="19049232" version="2" timestamp="2010-07-06T17:48:19Z" uid="74617" user="JohnSmith" changeset="5152225">
    <nd ref="197373585"/>
    <nd ref="197373587"/>
    <nd ref="197373588"/>
    <nd ref="197373590"/>
    <nd ref="197373591"/>
    <tag k="highway" v="residential"/>
    <tag k="maxspeed" v="50"/>
    <tag k="maxspeed:source" v="default residential speed limit in Australia"/>
    <tag k="name" v="Comet Court"/>
  </way>
  <way id="19049232" version="3" timestamp="2012-01-15T19:46:06Z" uid="147510" user="woodpeck_fixbot" changeset="10400850">
    <nd ref="197373585"/>
    <nd ref="197373587"/>
    <nd ref="197373588"/>
    <nd ref="197373590"/>
    <nd ref="197373591"/>
    <tag k="highway" v="residential"/>
    <tag k="name" v="Comet Court"/>
  </way>
  <way id="19049282" version="3" timestamp="2010-07-06T17:44:16Z" uid="74617" user="JohnSmith" changeset="5152225">
    <nd ref="197374273"/>
    <nd ref="506065804"/>
    <tag k="highway" v="residential"/>
    <tag k="maxspeed" v="50"/>
    <tag k="maxspeed:source" v="default residential speed limit in Australia"/>
    <tag k="name" v="Coleto Cr"/>
  </way>
  <way id="19049282" version="4" timestamp="2011-01-16T05:08:11Z" uid="4467" user="Rosscoe" changeset="6984262">
    <nd ref="197374273"/>
    <nd ref="506065804"/>
    <tag k="highway" v="residential"/>
    <tag k="maxspeed" v="50"/>
    <tag k="maxspeed:source" v="default residential speed limit in Australia"/>
    <tag k="name" v="Coleto Crescent"/>
  </way>
  <way id="19049282" version="5" timestamp="2012-01-15T19:46:08Z" uid="147510" user="woodpeck_fixbot" changeset="10400850">
    <nd ref="197374273"/>
    <nd ref="506065804"/>
    <tag k="highway" v="residential"/>
    <tag k="name" v="Coleto Crescent"/>
  </way>
  <way id="19049360" version="3" timestamp="2009-12-27T14:04:35Z" uid="4467" user="Rosscoe" changeset="3463022">
    <nd ref="197375579"/>
    <nd ref="197375581"/>
    <nd ref="197375582"/>
    <nd ref="197375584"/>
    <nd ref="197375585"/>
    <nd ref="599995550"/>
    <nd ref="197375587"/>
    <tag k="highway" v="residential"/>
    <tag k="name" v="Diana Avenue"/>
  </way>
  <way id="19049360" version="4" timestamp="2010-07-06T17:38:16Z" uid="74617" user="JohnSmith" changeset="5152225">
    <nd ref="197375579"/>
    <nd ref="197375581"/>
    <nd ref="197375582"/>
    <nd ref="197375584"/>
    <nd ref="197375585"/>
    <nd ref="599995550"/>
    <nd ref="197375587"/>
    <tag k="highway" v="residential"/>
    <tag k="maxspeed" v="50"/>
    <tag k="maxspeed:source" v="default residential speed limit in Australia"/>
    <tag k="name" v="Diana Avenue"/>
  </way>
  <way id="19049360" version="5" timestamp="2012-01-15T19:46:09Z" uid="147510" user="woodpeck_fixbot" changeset="10400850">
    <nd ref="197375579"/>
    <nd ref="197375581"/>
    <nd ref="197375582"/>
    <nd ref="197375584"/>
    <nd ref="197375585"/>
    <nd ref="599995550"/>
    <nd ref="197375587"/>
    <tag k="highway" v="residential"/>
    <tag k="name" v="Diana Avenue"/>
  </way>
  <way id="19049756" version="1" timestamp="2007-12-30T12:30:29Z" uid="7617" user="Franc" changeset="479636">
    <nd ref="33681256"/>
    <nd ref="29938449"/>
    <nd ref="29938450"/>
    <nd ref="29938451"/>
    <nd ref="29938452"/>
    <nd ref="29938453"/>
    <nd ref="29938454"/>
    <nd ref="33660618"/>
    <nd ref="29938455"/>
    <nd ref="33660621"/>
    <nd ref="29938456"/>
    <nd ref="29938457"/>
    <nd ref="29938458"/>
    <nd ref="29938459"/>
    <nd ref="29938460"/>
    <nd ref="29938461"/>
    <tag k="created_by" v="Potlatch alpha"/>
    <tag k="cycleway" v="lane"/>
    <tag k="highway" v="residential"/>
    <tag k="name" v="Gordon Crescent"/>
  </way>
  <way id="19049756" version="2" timestamp="2008-02-19T06:16:54Z" uid="7617" user="Franc" changeset="153405">
    <nd ref="33681256"/>
    <nd ref="29938451"/>
    <nd ref="29938452"/>
    <nd ref="29938453"/>
    <nd ref="29938454"/>
    <nd ref="33660618"/>
    <nd ref="29938455"/>
    <nd ref="33660621"/>
    <nd ref="29938456"/>
    <nd ref="29938457"/>
    <nd ref="29938458"/>
    <nd ref="29938459"/>
    <nd ref="29938460"/>
    <nd ref="29938461"/>
    <tag k="created_by" v="Potlatch alpha"/>
    <tag k="cycleway" v="lane"/>
    <tag k="highway" v="residential"/>
    <tag k="name" v="Gordon Crescent"/>
  </way>
  <way id="19049756" version="3" timestamp="2008-02-19T06:20:55Z" uid="7617" user="Franc" changeset="153405">
    <nd ref="33681256"/>
    <nd ref="29938451"/>
    <nd ref="29938452"/>
    <nd ref="29938453"/>
    <nd ref="29938454"/>
    <nd ref="33660618"/>
    <nd ref="29938455"/>
    <nd ref="33660621"/>
    <nd ref="29938456"/>
    <nd ref="29938457"/>
    <nd ref="29938458"/>
    <nd ref="29938459"/>
    <nd ref="29938460"/>
    <nd ref="248265225"/>
    <nd ref="29938461"/>
    <tag k="created_by" v="Potlatch alpha"/>
    <tag k="cycleway" v="lane"/>
    <tag k="highway" v="residential"/>
    <tag k="name" v="Gordon Crescent"/>
  </way>
  <way id="19049756" version="4" timestamp="2008-05-07T11:04:49Z" uid="20949" user="Ebenezer" changeset="356108">
    <nd ref="33681256"/>
    <nd ref="29938451"/>
    <nd ref="29938452"/>
    <nd ref="29938453"/>
    <nd ref="29938454"/>
    <nd ref="33660618"/>
    <nd ref="29938455"/>
    <nd ref="33660621"/>
    <nd ref="29938456"/>
    <nd ref="29938457"/>
    <nd ref="29938458"/>
    <nd ref="29938459"/>
    <nd ref="29938460"/>
    <nd ref="248265225"/>
    <nd ref="29938461"/>
    <tag k="created_by" v="Potlatch 0.8c"/>
    <tag k="cycleway" v="lane"/>
    <tag k="highway" v="residential"/>
    <tag k="lcn" v="yes"/>
    <tag k="lcn_ref" v="L5a"/>
    <tag k="name" v="Gordon Crescent"/>
  </way>
  <way id="19049756" version="5" timestamp="2008-09-22T06:52:34Z" uid="7617" user="Franc" changeset="678348">
    <nd ref="33681256"/>
    <nd ref="29938451"/>
    <nd ref="29938452"/>
    <nd ref="29938453"/>
    <nd ref="29938454"/>
    <nd ref="33660618"/>
    <nd ref="29938455"/>
    <nd ref="33660621"/>
    <nd ref="29938456"/>
    <nd ref="29938457"/>
    <nd ref="29938458"/>
    <nd ref="29938459"/>
    <nd ref="29938460"/>
    <nd ref="248265225"/>
    <nd ref="29938461"/>
    <tag k="created_by" v="Potlatch 0.8c"/>
    <tag k="cycleway" v="lane"/>
    <tag k="highway" v="residential"/>
    <tag k="lcn" v="yes"/>
    <tag k="lcn_ref" v="L5a"/>
    <tag k="name" v="Gordon Crescent"/>
    <tag k="source" v="survey"/>
  </way>
  <way id="19049756" version="6" timestamp="2010-04-25T07:08:01Z" uid="7617" user="Franc" changeset="4518185">
    <nd ref="33681256"/>
    <nd ref="705792043"/>
    <nd ref="29938451"/>
    <nd ref="29938452"/>
    <nd ref="29938453"/>
    <nd ref="29938454"/>
    <nd ref="33660618"/>
    <nd ref="29938455"/>
    <nd ref="33660621"/>
    <nd ref="29938457"/>
    <nd ref="29938458"/>
    <nd ref="29938459"/>
    <nd ref="29938460"/>
    <nd ref="248265225"/>
    <nd ref="29938461"/>
    <tag k="cycleway" v="lane"/>
    <tag k="highway" v="residential"/>
    <tag k="lcn" v="yes"/>
    <tag k="lcn_ref" v="L5a"/>
    <tag k="name" v="Gordon Crescent"/>
    <tag k="source" v="survey"/>
  </way>
  <way id="19049756" version="7" timestamp="2010-05-09T11:28:11Z" uid="7617" user="Franc" changeset="4647357"/>
  <way id="19049967" version="13" timestamp="2009-11-29T22:45:15Z" uid="200463" user="harmagedon" changeset="3251061">
    <nd ref="268967752"/>
    <nd ref="411082347"/>
    <nd ref="17061305"/>
    <nd ref="17061306"/>
    <nd ref="17061308"/>
    <nd ref="17061310"/>
    <tag k="highway" v="secondary"/>
    <tag k="name" v="Stieberger Straße"/>
    <tag k="ref" v="DGF 22"/>
  </way>
  <way id="19049967" version="14" timestamp="2011-07-05T19:31:46Z" uid="295653" user="HomerJay" changeset="8642188">
    <nd ref="268967752"/>
    <nd ref="411082347"/>
    <nd ref="17061305"/>
    <nd ref="17061306"/>
    <nd ref="1350624102"/>
    <nd ref="17061308"/>
    <nd ref="1350624098"/>
    <nd ref="17061310"/>
    <tag k="highway" v="secondary"/>
    <tag k="name" v="Stieberger Straße"/>
    <tag k="ref" v="DGF 22"/>
  </way>
  <way id="19049967" version="15" timestamp="2012-03-25T22:40:51Z" uid="497849" user="pyram" changeset="11100772">
    <nd ref="268967752"/>
    <nd ref="411082347"/>
    <nd ref="1691250686"/>
    <nd ref="1691250682"/>
    <nd ref="1691250680"/>
    <nd ref="1350624102"/>
    <nd ref="1350624098"/>
    <tag k="highway" v="secondary"/>
    <tag k="name" v="Stieberger Straße"/>
    <tag k="ref" v="DGF 22"/>
  </way>
  <way id="19049184" version="5" timestamp="2012-07-19T14:01:10Z" uid="722137" user="OSMF Redaction Account" changeset="12330761">
    <nd ref="197372904"/>
    <nd ref="197372905"/>
    <nd ref="197372904"/>
    <tag k="area" v="yes"/>
    <tag k="leisure" v="park"/>
    <tag k="name" v="Burleigh Noll Conservation Park"/>
  </way>
  <way id="19049184" version="6" timestamp="2012-08-29T13:15:00Z" uid="38548" user="PesceVerde" changeset="12905264">
    <nd ref="197372904"/>
    <nd ref="197372905"/>
    <nd ref="1888179697"/>
    <nd ref="1888179691"/>
    <nd ref="1888179694"/>
    <nd ref="1888179699"/>
    <nd ref="1888179701"/>
    <nd ref="1888179703"/>
    <nd ref="1888179706"/>
    <nd ref="1888179708"/>
    <nd ref="1888179710"/>
    <nd ref="197372904"/>
    <tag k="area" v="yes"/>
    <tag k="leisure" v="park"/>
    <tag k="name" v="Burleigh Noll Conservation Park"/>
  </way>
  <way id="19049202" version="2" timestamp="2012-07-20T02:52:20Z" uid="722137" user="OSMF Redaction Account" changeset="12358726"/>
  <way id="19049360" version="6" timestamp="2012-07-19T14:01:13Z" uid="722137" user="OSMF Redaction Account" changeset="12330761">
    <nd ref="197375579"/>
    <nd ref="197375581"/>
    <nd ref="197375582"/>
    <nd ref="197375584"/>
    <nd ref="197375585"/>
    <nd ref="197375587"/>
    <tag k="highway" v="residential"/>
    <tag k="name" v="Diana Avenue"/>
  </way>
  <way id="19049360" version="7" timestamp="2012-08-29T13:15:00Z" uid="38548" user="PesceVerde" changeset="12905264">
    <nd ref="197375579"/>
    <nd ref="197375581"/>
    <nd ref="197375582"/>
    <nd ref="197375584"/>
    <nd ref="197375585"/>
    <nd ref="1888179721"/>
    <nd ref="197375587"/>
    <tag k="highway" v="residential"/>
    <tag k="name" v="Diana Avenue"/>
  </way>
  <way id="19049967" version="16" timestamp="2012-04-22T19:07:25Z" uid="117440" user="Obermadl" changeset="11387823">
    <nd ref="268967752"/>
    <nd ref="411082347"/>
    <nd ref="1691250686"/>
    <nd ref="1691250682"/>
    <nd ref="1691250680"/>
    <nd ref="1350624102"/>
    <nd ref="1726993098"/>
    <nd ref="1350624098"/>
    <tag k="highway" v="secondary"/>
    <tag k="name" v="Stieberger Straße"/>
    <tag k="ref" v="DGF 22"/>
  </way>
</osm>
