<?xml version='1.0' encoding='UTF-8'?>
<osm version="0.6" generator="libosmium/2.20.0">
  <way id="19094083" version="9" timestamp="2010-03-15T23:39:14Z" uid="163746" user="anti_bot-nonsense" changeset="4139871">
    <nd ref="151142321"/>
    <nd ref="197960194"/>
    <nd ref="197959003"/>
    <nd ref="197959007"/>
    <nd ref="197959008"/>
    <nd ref="197959010"/>
    <nd ref="451749533"/>
    <tag k="highway" v="residential"/>
  </way>
  <way id="19094083" version="10" timestamp="2010-06-21T15:51:49Z" uid="19417" user="xjr" changeset="5043773">
    <nd ref="151142321"/>
    <nd ref="197960194"/>
    <nd ref="197959003"/>
    <tag k="highway" v="residential"/>
  </way>
  <way id="19094083" version="11" timestamp="2010-09-23T19:52:14Z" uid="19417" user="xjr" changeset="5857309">
    <nd ref="151142321"/>
    <nd ref="197960194"/>
    <nd ref="197959003"/>
    <tag k="highway" v="residential"/>
    <tag k="name" v="Piastowska"/>
  </way>
  <way id="19094083" version="12" timestamp="2011-09-11T19:24:29Z" uid="91056" user="Yarl" changeset="9274350">
    <nd ref="151142321"/>
    <nd ref="1430432531"/>
    <nd ref="197959003"/>
    <tag k="highway" v="residential"/>
    <tag k="name" v="Piastowska"/>
  </way>
  <way id="19094245" version="10" timestamp="2010-03-14T20:51:27Z" uid="163746" user="anti_bot-nonsense" changeset="4128666">
    <nd ref="451749533"/>
    <nd ref="197963480"/>
    <nd ref="197962815"/>
    <nd ref="455992146"/>
    <nd ref="197962374"/>
    <nd ref="456825005"/>
    <nd ref="264772928"/>
    <tag k="highway" v="residential"/>
    <tag k="name" v="Św. Szczepana"/>
  </way>
  <way id="19094245" version="11" timestamp="2010-06-16T19:10:56Z" uid="19417" user="xjr" changeset="5003229">
    <nd ref="451749533"/>
    <nd ref="197963480"/>
    <nd ref="197962815"/>
    <nd ref="455992146"/>
    <nd ref="197962374"/>
    <nd ref="456825005"/>
    <nd ref="264772928"/>
    <tag k="highway" v="residential"/>
    <tag k="maxspeed" v="30"/>
    <tag k="name" v="Św. Szczepana"/>
  </way>
  <way id="19094297" version="4" timestamp="2010-03-15T23:39:15Z" uid="163746" user="anti_bot-nonsense" changeset="4139871">
    <nd ref="197963898"/>
    <nd ref="197963854"/>
    <nd ref="197963853"/>
    <nd ref="197963480"/>
    <tag k="highway" v="residential"/>
    <tag k="name" v="Konwaliowa"/>
    <tag k="oneway" v="yes"/>
  </way>
  <way id="19094297" version="5" timestamp="2010-06-23T17:28:55Z" uid="19417" user="xjr" changeset="5060413">
    <nd ref="197963898"/>
    <nd ref="197963854"/>
    <nd ref="197963853"/>
    <nd ref="197963480"/>
    <tag k="highway" v="residential"/>
    <tag k="maxspeed" v="30"/>
    <tag k="name" v="Konwaliowa"/>
    <tag k="oneway" v="yes"/>
  </way>
  <way id="19094325" version="4" timestamp="2010-03-14T20:52:10Z" uid="163746" user="anti_bot-nonsense" changeset="4128666">
    <nd ref="197963898"/>
    <nd ref="313738709"/>
    <tag k="highway" v="residential"/>
    <tag k="name" v="Konwaliowa"/>
  </way>
  <way id="19094325" version="5" timestamp="2010-06-23T17:28:54Z" uid="19417" user="xjr" changeset="5060413">
    <nd ref="197963898"/>
    <nd ref="313738709"/>
    <tag k="highway" v="residential"/>
    <tag k="maxspeed" v="30"/>
    <tag k="name" v="Konwaliowa"/>
    <tag k="noexit" v="yes"/>
  </way>
  <way id="19094541" version="4" timestamp="2010-03-31T21:21:28Z" uid="163746" user="anti_bot-nonsense" changeset="4289355">
    <nd ref="171208188"/>
    <nd ref="197969674"/>
    <nd ref="427595808"/>
    <nd ref="197969675"/>
    <nd ref="427595812"/>
    <nd ref="197969241"/>
    <tag k="highway" v="residential"/>
    <tag k="name" v="Plac Edmunda Bojanowskiego"/>
    <tag k="oneway" v="yes"/>
  </way>
  <way id="19094541" version="5" timestamp="2012-03-22T15:00:27Z" uid="631683" user="nbmx" changeset="11063684">
    <nd ref="171208188"/>
    <nd ref="197969674"/>
    <nd ref="427595808"/>
    <nd ref="197969675"/>
    <nd ref="427595812"/>
    <nd ref="197969241"/>
    <tag k="highway" v="residential"/>
    <tag k="name" v="Plac Edmunda Bojanowskiego"/>
    <tag k="oneway" v="yes"/>
    <tag k="surface" v="asphalt"/>
  </way>
  <way id="19094555" version="7" timestamp="2010-03-31T20:49:17Z" uid="163746" user="anti_bot-nonsense" changeset="4289355">
    <nd ref="197970062"/>
    <nd ref="321585680"/>
    <nd ref="197969675"/>
    <tag k="highway" v="residential"/>
    <tag k="name" v="Zielona"/>
  </way>
  <way id="19094555" version="8" timestamp="2012-03-22T15:00:28Z" uid="631683" user="nbmx" changeset="11063684"/>
  <way id="19094541" version="6" timestamp="2012-07-17T08:59:44Z" uid="722137" user="OSMF Redaction Account" changeset="12261038">
    <nd ref="171208188"/>
    <nd ref="197969674"/>
    <nd ref="197969675"/>
    <nd ref="197969241"/>
    <tag k="highway" v="residential"/>
    <tag k="name" v="Plac Bojanowskiego"/>
    <tag k="oneway" v="yes"/>
    <tag k="surface" v="asphalt"/>
  </way>
</osm>
