<?xml version='1.0' encoding='UTF-8'?>
<osm version="0.6" generator="libosmium/2.20.0">
  <way id="19097040" version="4" timestamp="2009-10-12T22:05:11Z" uid="36809" user="pfoten_weg_!_" changeset="2831291">
    <nd ref="160347076"/>
    <nd ref="160347077"/>
    <nd ref="281760236"/>
    <nd ref="160346361"/>
    <tag k="highway" v="residential"/>
    <tag k="name" v="Wessobrunner Straße"/>
  </way>
  <way id="19097040" version="5" timestamp="2012-02-07T08:21:19Z" uid="482628" user="gumul" changeset="10609899">
    <nd ref="160347076"/>
    <nd ref="160347077"/>
    <nd ref="281760236"/>
    <nd ref="160346361"/>
    <tag k="highway" v="residential"/>
    <tag k="maxspeed" v="30"/>
    <tag k="name" v="Wessobrunner Straße"/>
  </way>
  <way id="19097306" version="9" timestamp="2010-02-13T21:46:05Z" uid="123700" user="Mala" changeset="3868745">
    <nd ref="198001697"/>
    <nd ref="262598836"/>
    <nd ref="198003110"/>
    <nd ref="198011099"/>
    <tag k="highway" v="residential"/>
    <tag k="name" v="Gustawa Potworowskiego"/>
    <tag k="oneway" v="yes"/>
  </way>
  <way id="19097410" version="7" timestamp="2010-02-13T21:46:04Z" uid="123700" user="Mala" changeset="3868745">
    <nd ref="198003111"/>
    <nd ref="123961699"/>
    <nd ref="123961698"/>
    <tag k="highway" v="residential"/>
    <tag k="name" v="Klaudyny Potockiej"/>
  </way>
  <way id="19097410" version="8" timestamp="2010-06-02T19:16:36Z" uid="19417" user="xjr" changeset="4886863">
    <nd ref="198003111"/>
    <nd ref="123961699"/>
    <nd ref="123961698"/>
    <tag k="highway" v="residential"/>
    <tag k="maxspeed" v="40"/>
    <tag k="name" v="Klaudyny Potockiej"/>
  </way>
  <way id="19097847" version="11" timestamp="2010-03-14T20:55:05Z" uid="163746" user="anti_bot-nonsense" changeset="4128666">
    <nd ref="192817686"/>
    <nd ref="198007015"/>
    <nd ref="198007016"/>
    <nd ref="194760128"/>
    <tag k="highway" v="primary"/>
    <tag k="name" v="Hetmańska"/>
    <tag k="oneway" v="yes"/>
    <tag k="ref" v="5, 11"/>
  </way>
  <way id="19097847" version="12" timestamp="2010-07-31T18:56:41Z" uid="113415" user="tomek-k" changeset="5364977">
    <nd ref="192817686"/>
    <nd ref="198007015"/>
    <nd ref="198007016"/>
    <nd ref="194760128"/>
    <tag k="highway" v="primary"/>
    <tag k="name" v="Hetmańska"/>
    <tag k="oneway" v="yes"/>
    <tag k="ref" v="5;11"/>
  </way>
  <way id="19097847" version="13" timestamp="2011-02-10T17:12:16Z" uid="88909" user="miko101" changeset="7247197">
    <nd ref="192817686"/>
    <nd ref="198007015"/>
    <nd ref="1145569822"/>
    <nd ref="198007016"/>
    <nd ref="194760128"/>
    <tag k="highway" v="primary"/>
    <tag k="name" v="Hetmańska"/>
    <tag k="oneway" v="yes"/>
    <tag k="ref" v="5;11"/>
  </way>
  <way id="19097847" version="14" timestamp="2012-03-11T14:36:52Z" uid="113415" user="tomek-k" changeset="10943555">
    <nd ref="1670394432"/>
    <nd ref="1145569822"/>
    <nd ref="198007016"/>
    <nd ref="194760128"/>
    <tag k="highway" v="primary"/>
    <tag k="name" v="Hetmańska"/>
    <tag k="oneway" v="yes"/>
    <tag k="ref" v="5;11"/>
  </way>
  <way id="19097872" version="3" timestamp="2009-09-29T01:13:11Z" uid="36809" user="pfoten_weg_!_" changeset="2671973">
    <nd ref="160343153"/>
    <nd ref="160343154"/>
    <nd ref="160343155"/>
    <tag k="highway" v="residential"/>
    <tag k="name" v="Pütrichstraße"/>
  </way>
  <way id="19097872" version="4" timestamp="2011-12-09T16:31:28Z" uid="482628" user="gumul" changeset="10074308">
    <nd ref="160343153"/>
    <nd ref="1538371600"/>
    <nd ref="1538371616"/>
    <nd ref="160343154"/>
    <nd ref="160343155"/>
    <tag k="highway" v="residential"/>
    <tag k="name" v="Pütrichstraße"/>
  </way>
  <way id="19097872" version="5" timestamp="2012-02-07T08:21:20Z" uid="482628" user="gumul" changeset="10609899">
    <nd ref="160343153"/>
    <nd ref="1538371600"/>
    <nd ref="1538371616"/>
    <nd ref="160343154"/>
    <nd ref="160343155"/>
    <tag k="highway" v="residential"/>
    <tag k="maxspeed" v="30"/>
    <tag k="name" v="Pütrichstraße"/>
  </way>
  <way id="19097983" version="5" timestamp="2009-10-12T22:04:52Z" uid="36809" user="pfoten_weg_!_" changeset="2831291">
    <nd ref="160338037"/>
    <nd ref="160340986"/>
    <nd ref="281910800"/>
    <tag k="highway" v="residential"/>
    <tag k="name" v="Ligsalzstraße"/>
  </way>
  <way id="19097983" version="6" timestamp="2012-02-07T08:21:20Z" uid="482628" user="gumul" changeset="10609899">
    <nd ref="160338037"/>
    <nd ref="160340986"/>
    <nd ref="281910800"/>
    <tag k="highway" v="residential"/>
    <tag k="maxspeed" v="30"/>
    <tag k="name" v="Ligsalzstraße"/>
  </way>
  <way id="19097040" version="6" timestamp="2012-07-23T10:55:15Z" uid="482628" user="gumul" changeset="12447806">
    <nd ref="160347076"/>
    <nd ref="160347077"/>
    <nd ref="1835213741"/>
    <nd ref="281760236"/>
    <nd ref="160346361"/>
    <tag k="highway" v="residential"/>
    <tag k="maxspeed" v="30"/>
    <tag k="name" v="Wessobrunner Straße"/>
  </way>
  <way id="19097306" version="10" timestamp="2012-04-07T19:35:43Z" uid="641600" user="piottr" changeset="11217988">
    <nd ref="198001697"/>
    <nd ref="262598836"/>
    <nd ref="1706211409"/>
    <nd ref="198003110"/>
    <nd ref="198011099"/>
    <tag k="highway" v="residential"/>
    <tag k="name" v="Gustawa Potworowskiego"/>
    <tag k="oneway" v="yes"/>
  </way>
  <way id="19097847" version="15" timestamp="2012-06-03T21:26:01Z" uid="318486" user="tomaszko90" changeset="11791248">
    <nd ref="1670394432"/>
    <nd ref="1145569822"/>
    <nd ref="198007016"/>
    <nd ref="194760128"/>
    <tag k="highway" v="secondary"/>
    <tag k="name" v="Hetmańska"/>
    <tag k="oneway" v="yes"/>
  </way>
  <way id="19097847" version="16" timestamp="2012-06-04T20:08:14Z" uid="88909" user="miko101" changeset="11800366">
    <nd ref="1670394432"/>
    <nd ref="1145569822"/>
    <nd ref="198007016"/>
    <nd ref="194760128"/>
    <tag k="highway" v="primary"/>
    <tag k="name" v="Hetmańska"/>
    <tag k="oneway" v="yes"/>
    <tag k="ref" v="11"/>
  </way>
  <way id="19097847" version="17" timestamp="2012-06-18T11:23:55Z" uid="88909" user="miko101" changeset="11935785">
    <nd ref="1670394432"/>
    <nd ref="1145569822"/>
    <nd ref="198007016"/>
    <nd ref="194760128"/>
    <tag k="highway" v="primary"/>
    <tag k="maxspeed" v="70"/>
    <tag k="name" v="Hetmańska"/>
    <tag k="oneway" v="yes"/>
    <tag k="ref" v="11"/>
  </way>
  <way id="19097847" version="18" timestamp="2012-06-19T11:33:24Z" uid="641600" user="piottr" changeset="11947186">
    <nd ref="1670394432"/>
    <nd ref="1145569822"/>
    <nd ref="198007016"/>
    <nd ref="1794337562"/>
    <nd ref="194760128"/>
    <tag k="highway" v="primary"/>
    <tag k="maxspeed" v="70"/>
    <tag k="name" v="Hetmańska"/>
    <tag k="oneway" v="yes"/>
    <tag k="ref" v="11"/>
  </way>
</osm>
