<?xml version='1.0' encoding='UTF-8'?>
<osm version="0.6" generator="libosmium/2.20.0">
  <way id="19153285" version="13" timestamp="2011-02-06T12:44:33Z" uid="49111" user="Markus B" changeset="7203080">
    <nd ref="390442843"/>
    <nd ref="390442859"/>
    <nd ref="390444446"/>
    <nd ref="390444448"/>
    <nd ref="1138999367"/>
    <nd ref="390444454"/>
    <tag k="highway" v="tertiary"/>
    <tag k="name" v="שדרות ירושלים"/>
    <tag k="name:en" v="Sderot Yarushalayim"/>
    <tag k="oneway" v="yes"/>
  </way>
  <way id="19153285" version="14" timestamp="2011-06-30T14:54:20Z" uid="283988" user="Wikipod" changeset="8591413">
    <nd ref="1344711616"/>
    <nd ref="1344711685"/>
    <nd ref="390444446"/>
    <nd ref="390444448"/>
    <nd ref="1138999367"/>
    <nd ref="390444454"/>
    <tag k="highway" v="tertiary"/>
    <tag k="name" v="שדרות ירושלים"/>
    <tag k="name:en" v="Sderot Yarushalayim"/>
    <tag k="oneway" v="yes"/>
  </way>
  <way id="19153285" version="15" timestamp="2011-07-01T06:56:16Z" uid="90980" user="talkat" changeset="8596345">
    <nd ref="1344711616"/>
    <nd ref="1344711685"/>
    <nd ref="390444446"/>
    <nd ref="390444448"/>
    <nd ref="1138999367"/>
    <nd ref="390444454"/>
    <tag k="highway" v="tertiary"/>
    <tag k="name" v="שדרות ירושלים"/>
    <tag k="name:en" v="Sderot Yerushalayim"/>
    <tag k="oneway" v="yes"/>
  </way>
  <way id="19153285" version="16" timestamp="2011-07-29T13:38:17Z" uid="283988" user="Wikipod" changeset="8863506">
    <nd ref="1344711616"/>
    <nd ref="1344711685"/>
    <nd ref="390444446"/>
    <nd ref="390444448"/>
    <nd ref="1138999367"/>
    <nd ref="390444454"/>
    <nd ref="1345134659"/>
    <nd ref="390410349"/>
    <tag k="highway" v="tertiary"/>
    <tag k="name" v="שדרות ירושלים"/>
    <tag k="name:en" v="Sderot Yerushalayim"/>
    <tag k="oneway" v="yes"/>
  </way>
  <way id="19153285" version="17" timestamp="2011-08-02T15:42:51Z" uid="283988" user="Wikipod" changeset="8902239">
    <nd ref="1344711616"/>
    <nd ref="1344711685"/>
    <nd ref="390444446"/>
    <nd ref="390444448"/>
    <nd ref="1138999367"/>
    <nd ref="390444454"/>
    <nd ref="1383196321"/>
    <nd ref="1345134659"/>
    <nd ref="390410349"/>
    <tag k="highway" v="tertiary"/>
    <tag k="name" v="שדרות ירושלים"/>
    <tag k="name:en" v="Sderot Yerushalayim"/>
    <tag k="oneway" v="yes"/>
  </way>
  <way id="19153285" version="18" timestamp="2011-10-20T20:08:41Z" uid="283988" user="Wikipod" changeset="9611791">
    <nd ref="1344711616"/>
    <nd ref="1344711685"/>
    <nd ref="390444446"/>
    <nd ref="390444448"/>
    <nd ref="1138999367"/>
    <nd ref="390444454"/>
    <nd ref="1383196321"/>
    <nd ref="1345134659"/>
    <nd ref="1474519379"/>
    <nd ref="390410349"/>
    <tag k="highway" v="tertiary"/>
    <tag k="name" v="שדרות ירושלים"/>
    <tag k="name:en" v="Sderot Yerushalayim"/>
    <tag k="oneway" v="yes"/>
  </way>
  <way id="19153285" version="19" timestamp="2012-08-29T10:50:38Z" uid="22684" user="Mr_Israel" changeset="12903474">
    <nd ref="1344711616"/>
    <nd ref="1344711685"/>
    <nd ref="390444446"/>
    <nd ref="390444448"/>
    <nd ref="1138999367"/>
    <nd ref="390444454"/>
    <nd ref="1383196321"/>
    <nd ref="1345134659"/>
    <nd ref="1474519379"/>
    <nd ref="390410349"/>
    <tag k="highway" v="tertiary"/>
    <tag k="name" v="שדרות ירושלים"/>
    <tag k="name:en" v="Sderot Yerushalayim"/>
    <tag k="name:he" v="שדרות ירושלים"/>
    <tag k="oneway" v="yes"/>
  </way>
</osm>
