<?xml version='1.0' encoding='UTF-8'?>
<osm version="0.6" generator="libosmium/2.20.0">
  <way id="19161098" version="4" timestamp="2010-05-20T13:05:03Z" uid="4467" user="Rosscoe" changeset="4757260">
    <nd ref="740903257"/>
    <nd ref="198720145"/>
    <nd ref="198720815"/>
    <nd ref="198720605"/>
    <nd ref="198720606"/>
    <nd ref="198720607"/>
    <nd ref="198720608"/>
    <nd ref="198720609"/>
    <tag k="highway" v="residential"/>
    <tag k="name" v="Gaskin Road"/>
  </way>
  <way id="19161098" version="5" timestamp="2010-07-09T17:21:55Z" uid="74617" user="JohnSmith" changeset="5175333">
    <nd ref="740903257"/>
    <nd ref="198720145"/>
    <nd ref="198720815"/>
    <nd ref="198720605"/>
    <nd ref="198720606"/>
    <nd ref="198720607"/>
    <nd ref="198720608"/>
    <nd ref="198720609"/>
    <tag k="highway" v="residential"/>
    <tag k="maxspeed" v="50"/>
    <tag k="maxspeed:source" v="default residential speed limit in Australia"/>
    <tag k="name" v="Gaskin Road"/>
  </way>
  <way id="19161098" version="6" timestamp="2012-01-15T19:54:44Z" uid="147510" user="woodpeck_fixbot" changeset="10400850">
    <nd ref="740903257"/>
    <nd ref="198720145"/>
    <nd ref="198720815"/>
    <nd ref="198720605"/>
    <nd ref="198720606"/>
    <nd ref="198720607"/>
    <nd ref="198720608"/>
    <nd ref="198720609"/>
    <tag k="highway" v="residential"/>
    <tag k="name" v="Gaskin Road"/>
  </way>
  <way id="19161116" version="2" timestamp="2010-07-09T17:19:47Z" uid="74617" user="JohnSmith" changeset="5175333">
    <nd ref="198720606"/>
    <nd ref="198720719"/>
    <tag k="highway" v="residential"/>
    <tag k="maxspeed" v="50"/>
    <tag k="maxspeed:source" v="default residential speed limit in Australia"/>
  </way>
  <way id="19161116" version="3" timestamp="2012-01-15T19:54:45Z" uid="147510" user="woodpeck_fixbot" changeset="10400850">
    <nd ref="198720606"/>
    <nd ref="198720719"/>
    <tag k="highway" v="residential"/>
  </way>
  <way id="19161238" version="3" timestamp="2010-07-09T17:19:56Z" uid="74617" user="JohnSmith" changeset="5175333">
    <nd ref="198720815"/>
    <nd ref="198721568"/>
    <nd ref="198722704"/>
    <tag k="highway" v="residential"/>
    <tag k="maxspeed" v="50"/>
    <tag k="maxspeed:source" v="default residential speed limit in Australia"/>
    <tag k="name" v="Newman Place"/>
  </way>
  <way id="19161238" version="4" timestamp="2012-01-15T19:54:46Z" uid="147510" user="woodpeck_fixbot" changeset="10400850">
    <nd ref="198720815"/>
    <nd ref="198721568"/>
    <nd ref="198722704"/>
    <tag k="highway" v="residential"/>
    <tag k="name" v="Newman Place"/>
  </way>
  <way id="19161339" version="4" timestamp="2010-05-20T13:04:12Z" uid="4467" user="Rosscoe" changeset="4757260">
    <nd ref="198721570"/>
    <nd ref="198722321"/>
    <nd ref="198722323"/>
    <nd ref="198724947"/>
    <nd ref="198722324"/>
    <nd ref="740903134"/>
    <tag k="highway" v="residential"/>
    <tag k="name" v="Gilchrist Street"/>
  </way>
  <way id="19161339" version="5" timestamp="2010-07-09T17:24:32Z" uid="74617" user="JohnSmith" changeset="5175333">
    <nd ref="198721570"/>
    <nd ref="198722321"/>
    <nd ref="198722323"/>
    <nd ref="198724947"/>
    <nd ref="198722324"/>
    <nd ref="740903134"/>
    <tag k="highway" v="residential"/>
    <tag k="maxspeed" v="50"/>
    <tag k="maxspeed:source" v="default residential speed limit in Australia"/>
    <tag k="name" v="Gilchrist Street"/>
  </way>
  <way id="19161339" version="6" timestamp="2012-01-15T19:54:47Z" uid="147510" user="woodpeck_fixbot" changeset="10400850">
    <nd ref="198721570"/>
    <nd ref="198722321"/>
    <nd ref="198722323"/>
    <nd ref="198724947"/>
    <nd ref="198722324"/>
    <nd ref="740903134"/>
    <tag k="highway" v="residential"/>
    <tag k="name" v="Gilchrist Street"/>
  </way>
  <way id="19161344" version="3" timestamp="2010-07-09T17:26:01Z" uid="74617" user="JohnSmith" changeset="5175333">
    <nd ref="198721568"/>
    <nd ref="198722748"/>
    <nd ref="198721570"/>
    <nd ref="198720609"/>
    <nd ref="198721571"/>
    <nd ref="198721572"/>
    <tag k="highway" v="residential"/>
    <tag k="maxspeed" v="50"/>
    <tag k="maxspeed:source" v="default residential speed limit in Australia"/>
    <tag k="name" v="Short Street"/>
  </way>
  <way id="19161344" version="4" timestamp="2012-01-15T19:54:48Z" uid="147510" user="woodpeck_fixbot" changeset="10400850">
    <nd ref="198721568"/>
    <nd ref="198722748"/>
    <nd ref="198721570"/>
    <nd ref="198720609"/>
    <nd ref="198721571"/>
    <nd ref="198721572"/>
    <tag k="highway" v="residential"/>
    <tag k="name" v="Short Street"/>
  </way>
  <way id="19161459" version="2" timestamp="2010-07-09T17:24:25Z" uid="74617" user="JohnSmith" changeset="5175333">
    <nd ref="198722748"/>
    <nd ref="198723098"/>
    <tag k="highway" v="residential"/>
    <tag k="maxspeed" v="50"/>
    <tag k="maxspeed:source" v="default residential speed limit in Australia"/>
    <tag k="name" v="Short Place"/>
  </way>
  <way id="19161459" version="3" timestamp="2012-01-15T19:54:49Z" uid="147510" user="woodpeck_fixbot" changeset="10400850">
    <nd ref="198722748"/>
    <nd ref="198723098"/>
    <tag k="highway" v="residential"/>
    <tag k="name" v="Short Place"/>
  </way>
  <way id="19161721" version="2" timestamp="2010-07-09T17:25:06Z" uid="74617" user="JohnSmith" changeset="5175333">
    <nd ref="198723917"/>
    <nd ref="198724826"/>
    <nd ref="198724827"/>
    <nd ref="198724828"/>
    <nd ref="198724829"/>
    <nd ref="198724830"/>
    <tag k="highway" v="residential"/>
    <tag k="maxspeed" v="50"/>
    <tag k="maxspeed:source" v="default residential speed limit in Australia"/>
    <tag k="name" v="Belbridge Drive"/>
  </way>
  <way id="19161721" version="3" timestamp="2010-09-14T09:02:07Z" uid="346186" user="Cycle My City" changeset="5776402">
    <nd ref="198723917"/>
    <nd ref="198724826"/>
    <nd ref="198724827"/>
    <nd ref="198724828"/>
    <nd ref="198724829"/>
    <nd ref="198724830"/>
    <tag k="highway" v="residential"/>
    <tag k="maxspeed" v="50"/>
    <tag k="maxspeed:source" v="default residential speed limit in Australia"/>
    <tag k="name" v="Delbridge Drive"/>
  </way>
  <way id="19161721" version="4" timestamp="2012-01-15T19:54:51Z" uid="147510" user="woodpeck_fixbot" changeset="10400850">
    <nd ref="198723917"/>
    <nd ref="198724826"/>
    <nd ref="198724827"/>
    <nd ref="198724828"/>
    <nd ref="198724829"/>
    <nd ref="198724830"/>
    <tag k="highway" v="residential"/>
    <tag k="name" v="Delbridge Drive"/>
  </way>
  <way id="19161818" version="2" timestamp="2010-07-09T17:24:10Z" uid="74617" user="JohnSmith" changeset="5175333">
    <nd ref="198724947"/>
    <nd ref="198725540"/>
    <nd ref="198725542"/>
    <nd ref="198725543"/>
    <nd ref="198725544"/>
    <nd ref="198724827"/>
    <tag k="highway" v="residential"/>
    <tag k="maxspeed" v="50"/>
    <tag k="maxspeed:source" v="default residential speed limit in Australia"/>
    <tag k="name" v="Masters Street"/>
  </way>
  <way id="19161818" version="3" timestamp="2012-01-15T19:54:52Z" uid="147510" user="woodpeck_fixbot" changeset="10400850">
    <nd ref="198724947"/>
    <nd ref="198725540"/>
    <nd ref="198725542"/>
    <nd ref="198725543"/>
    <nd ref="198725544"/>
    <nd ref="198724827"/>
    <tag k="highway" v="residential"/>
    <tag k="name" v="Masters Street"/>
  </way>
  <way id="19161906" version="2" timestamp="2010-07-09T17:20:40Z" uid="74617" user="JohnSmith" changeset="5175333">
    <nd ref="198725540"/>
    <nd ref="198726198"/>
    <nd ref="198726200"/>
    <tag k="highway" v="residential"/>
    <tag k="maxspeed" v="50"/>
    <tag k="maxspeed:source" v="default residential speed limit in Australia"/>
    <tag k="name" v="Weero Place"/>
  </way>
  <way id="19161906" version="3" timestamp="2012-01-15T19:54:53Z" uid="147510" user="woodpeck_fixbot" changeset="10400850">
    <nd ref="198725540"/>
    <nd ref="198726198"/>
    <nd ref="198726200"/>
    <tag k="highway" v="residential"/>
    <tag k="name" v="Weero Place"/>
  </way>
  <way id="19161098" version="7" timestamp="2012-07-19T15:27:56Z" uid="722137" user="OSMF Redaction Account" changeset="12334707">
    <nd ref="198720145"/>
    <nd ref="198720815"/>
    <nd ref="198720605"/>
    <nd ref="198720606"/>
    <nd ref="198720607"/>
    <nd ref="198720608"/>
    <nd ref="198720609"/>
    <tag k="highway" v="residential"/>
    <tag k="name" v="Gaskin Road"/>
  </way>
  <way id="19161116" version="4" timestamp="2012-08-23T00:34:27Z" uid="418724" user="wintersportler" changeset="12827412">
    <nd ref="198720606"/>
    <nd ref="198720719"/>
    <tag k="fixme" v="name"/>
    <tag k="highway" v="residential"/>
  </way>
  <way id="19161339" version="7" timestamp="2012-07-19T15:27:56Z" uid="722137" user="OSMF Redaction Account" changeset="12334707">
    <nd ref="198721570"/>
    <nd ref="198722321"/>
    <nd ref="198722323"/>
    <nd ref="198724947"/>
    <nd ref="198722324"/>
    <tag k="highway" v="residential"/>
    <tag k="name" v="Gilchrist Street"/>
  </way>
  <way id="19161721" version="5" timestamp="2012-08-08T17:07:30Z" uid="142807" user="SDavies" changeset="12659380">
    <nd ref="198723917"/>
    <nd ref="1857458669"/>
    <nd ref="1857458671"/>
    <nd ref="198724826"/>
    <nd ref="198724827"/>
    <nd ref="1857458665"/>
    <nd ref="198724828"/>
    <nd ref="198724829"/>
    <nd ref="198724830"/>
    <tag k="highway" v="residential"/>
    <tag k="name" v="Delbridge Drive"/>
  </way>
  <way id="19161818" version="4" timestamp="2012-08-08T17:07:31Z" uid="142807" user="SDavies" changeset="12659380">
    <nd ref="198724947"/>
    <nd ref="198725540"/>
    <nd ref="198725544"/>
    <nd ref="1857458667"/>
    <nd ref="198724827"/>
    <tag k="highway" v="residential"/>
    <tag k="name" v="Masters Street"/>
  </way>
  <way id="19161906" version="4" timestamp="2012-08-08T17:07:32Z" uid="142807" user="SDavies" changeset="12659380">
    <nd ref="198725540"/>
    <nd ref="198726198"/>
    <nd ref="1857458663"/>
    <nd ref="198726200"/>
    <tag k="highway" v="residential"/>
    <tag k="name" v="Weero Place"/>
  </way>
</osm>
