<?xml version='1.0' encoding='UTF-8'?>
<osm version="0.6" generator="libosmium/2.20.0">
  <way id="19237109" version="2" timestamp="2008-09-27T05:09:03Z" uid="7617" user="Franc" changeset="703319">
    <nd ref="199705441"/>
    <nd ref="300215887"/>
    <tag k="created_by" v="Potlatch 0.6"/>
    <tag k="highway" v="residential"/>
    <tag k="name" v="Philip Street"/>
  </way>
  <way id="19237109" version="3" timestamp="2010-07-08T02:35:23Z" uid="74617" user="JohnSmith" changeset="5163091">
    <nd ref="199705441"/>
    <nd ref="300215887"/>
    <tag k="highway" v="residential"/>
    <tag k="maxspeed" v="50"/>
    <tag k="maxspeed:source" v="default residential speed limit in Australia"/>
    <tag k="name" v="Philip Street"/>
  </way>
  <way id="19237109" version="4" timestamp="2012-01-15T19:57:35Z" uid="147510" user="woodpeck_fixbot" changeset="10400850">
    <nd ref="199705441"/>
    <nd ref="300215887"/>
    <tag k="highway" v="residential"/>
    <tag k="name" v="Philip Street"/>
  </way>
  <way id="19237125" version="2" timestamp="2008-09-27T05:09:03Z" uid="7617" user="Franc" changeset="703319">
    <nd ref="199706126"/>
    <nd ref="300215880"/>
    <tag k="created_by" v="Potlatch 0.6"/>
    <tag k="highway" v="residential"/>
    <tag k="name" v="Roberts Street"/>
  </way>
  <way id="19237125" version="3" timestamp="2010-07-08T02:41:19Z" uid="74617" user="JohnSmith" changeset="5163091">
    <nd ref="199706126"/>
    <nd ref="300215880"/>
    <tag k="highway" v="residential"/>
    <tag k="maxspeed" v="50"/>
    <tag k="maxspeed:source" v="default residential speed limit in Australia"/>
    <tag k="name" v="Roberts Street"/>
  </way>
  <way id="19237125" version="4" timestamp="2012-01-15T19:57:44Z" uid="147510" user="woodpeck_fixbot" changeset="10400850">
    <nd ref="199706126"/>
    <nd ref="300215880"/>
    <tag k="highway" v="residential"/>
    <tag k="name" v="Roberts Street"/>
  </way>
  <way id="19237198" version="2" timestamp="2008-09-27T05:08:58Z" uid="7617" user="Franc" changeset="703319">
    <nd ref="199707318"/>
    <nd ref="199707692"/>
    <nd ref="300215840"/>
    <tag k="created_by" v="Potlatch 0.6"/>
    <tag k="highway" v="residential"/>
    <tag k="name" v="Manson Road"/>
  </way>
  <way id="19237198" version="3" timestamp="2010-07-08T02:38:17Z" uid="74617" user="JohnSmith" changeset="5163091">
    <nd ref="199707318"/>
    <nd ref="199707692"/>
    <nd ref="300215840"/>
    <tag k="highway" v="residential"/>
    <tag k="maxspeed" v="50"/>
    <tag k="maxspeed:source" v="default residential speed limit in Australia"/>
    <tag k="name" v="Manson Road"/>
  </way>
  <way id="19237198" version="4" timestamp="2012-01-15T19:57:47Z" uid="147510" user="woodpeck_fixbot" changeset="10400850">
    <nd ref="199707318"/>
    <nd ref="199707692"/>
    <nd ref="300215840"/>
    <tag k="highway" v="residential"/>
    <tag k="name" v="Manson Road"/>
  </way>
  <way id="19237224" version="2" timestamp="2010-07-08T02:36:40Z" uid="74617" user="JohnSmith" changeset="5163091">
    <nd ref="199707735"/>
    <nd ref="199708250"/>
    <tag k="highway" v="residential"/>
    <tag k="maxspeed" v="50"/>
    <tag k="maxspeed:source" v="default residential speed limit in Australia"/>
    <tag k="name" v="Swan Avenue"/>
  </way>
  <way id="19237224" version="3" timestamp="2012-01-15T19:57:49Z" uid="147510" user="woodpeck_fixbot" changeset="10400850">
    <nd ref="199707735"/>
    <nd ref="199708250"/>
    <tag k="highway" v="residential"/>
    <tag k="name" v="Swan Avenue"/>
  </way>
  <way id="19237274" version="2" timestamp="2010-12-26T11:13:54Z" uid="7617" user="Franc" changeset="6766987"/>
  <way id="19237416" version="2" timestamp="2010-07-27T05:05:08Z" uid="4467" user="Rosscoe" changeset="5326208">
    <nd ref="199711198"/>
    <nd ref="199711551"/>
    <nd ref="199711552"/>
    <tag k="highway" v="service"/>
    <tag k="name" v="Riley Lane"/>
  </way>
  <way id="19237478" version="3" timestamp="2010-07-08T02:37:47Z" uid="74617" user="JohnSmith" changeset="5163091">
    <nd ref="199712936"/>
    <nd ref="199712781"/>
    <nd ref="199714837"/>
    <nd ref="199712937"/>
    <tag k="highway" v="residential"/>
    <tag k="maxspeed" v="50"/>
    <tag k="maxspeed:source" v="default residential speed limit in Australia"/>
    <tag k="name" v="Escher Street"/>
  </way>
  <way id="19237478" version="4" timestamp="2012-01-15T19:57:54Z" uid="147510" user="woodpeck_fixbot" changeset="10400850">
    <nd ref="199712936"/>
    <nd ref="199712781"/>
    <nd ref="199714837"/>
    <nd ref="199712937"/>
    <tag k="highway" v="residential"/>
    <tag k="name" v="Escher Street"/>
  </way>
  <way id="19237517" version="2" timestamp="2008-09-27T05:09:10Z" uid="7617" user="Franc" changeset="703319">
    <nd ref="199713003"/>
    <nd ref="300215777"/>
    <nd ref="20146926"/>
    <tag k="created_by" v="Potlatch 0.6"/>
    <tag k="highway" v="residential"/>
    <tag k="name" v="Escher Street"/>
  </way>
  <way id="19237517" version="3" timestamp="2008-10-02T06:41:14Z" uid="7617" user="Franc" changeset="23906">
    <nd ref="199712936"/>
    <nd ref="199713003"/>
    <tag k="created_by" v="Potlatch 0.6"/>
    <tag k="highway" v="footway"/>
  </way>
  <way id="19237527" version="2" timestamp="2010-07-08T02:38:58Z" uid="74617" user="JohnSmith" changeset="5163091">
    <nd ref="199713365"/>
    <nd ref="199713793"/>
    <nd ref="199713794"/>
    <tag k="highway" v="residential"/>
    <tag k="maxspeed" v="50"/>
    <tag k="maxspeed:source" v="default residential speed limit in Australia"/>
    <tag k="name" v="Archer Street"/>
  </way>
  <way id="19237527" version="3" timestamp="2012-01-15T19:57:55Z" uid="147510" user="woodpeck_fixbot" changeset="10400850">
    <nd ref="199713365"/>
    <nd ref="199713793"/>
    <nd ref="199713794"/>
    <tag k="highway" v="residential"/>
    <tag k="name" v="Archer Street"/>
  </way>
  <way id="19237589" version="2" timestamp="2010-07-08T02:38:45Z" uid="74617" user="JohnSmith" changeset="5163091">
    <nd ref="199713793"/>
    <nd ref="199714837"/>
    <tag k="highway" v="residential"/>
    <tag k="maxspeed" v="50"/>
    <tag k="maxspeed:source" v="default residential speed limit in Australia"/>
    <tag k="name" v="New Street"/>
  </way>
  <way id="19237589" version="3" timestamp="2012-01-15T19:57:58Z" uid="147510" user="woodpeck_fixbot" changeset="10400850">
    <nd ref="199713793"/>
    <nd ref="199714837"/>
    <tag k="highway" v="residential"/>
    <tag k="name" v="New Street"/>
  </way>
  <way id="19237650" version="3" timestamp="2008-08-11T10:03:25Z" uid="7617" user="Franc" changeset="188546">
    <nd ref="37812314"/>
    <nd ref="37812315"/>
    <nd ref="199719781"/>
    <nd ref="31427758"/>
    <nd ref="286948223"/>
    <tag k="created_by" v="Potlatch 0.6"/>
    <tag k="highway" v="residential"/>
    <tag k="name" v="Victoria Street East"/>
    <tag k="source:name" v="survey"/>
  </way>
  <way id="19237650" version="4" timestamp="2010-01-13T10:17:01Z" uid="30201" user="rrankin" changeset="3608813">
    <nd ref="612865747"/>
    <nd ref="37812315"/>
    <nd ref="199719781"/>
    <nd ref="31427758"/>
    <nd ref="286948223"/>
    <tag k="highway" v="residential"/>
    <tag k="name" v="Victoria Street East"/>
    <tag k="source:name" v="survey"/>
  </way>
  <way id="19237650" version="5" timestamp="2010-07-08T02:39:17Z" uid="74617" user="JohnSmith" changeset="5163091">
    <nd ref="612865747"/>
    <nd ref="37812315"/>
    <nd ref="199719781"/>
    <nd ref="31427758"/>
    <nd ref="286948223"/>
    <tag k="highway" v="residential"/>
    <tag k="maxspeed" v="50"/>
    <tag k="maxspeed:source" v="default residential speed limit in Australia"/>
    <tag k="name" v="Victoria Street East"/>
    <tag k="source:name" v="survey"/>
  </way>
  <way id="19237650" version="6" timestamp="2011-10-17T21:03:33Z" uid="162096" user="Daz" changeset="9586423">
    <nd ref="612865747"/>
    <nd ref="37812315"/>
    <nd ref="199719781"/>
    <nd ref="31427758"/>
    <nd ref="1471217054"/>
    <tag k="highway" v="residential"/>
    <tag k="maxspeed" v="50"/>
    <tag k="maxspeed:source" v="default residential speed limit in Australia"/>
    <tag k="name" v="Victoria Street East"/>
    <tag k="source:name" v="survey"/>
  </way>
  <way id="19237650" version="7" timestamp="2012-01-15T19:58:02Z" uid="147510" user="woodpeck_fixbot" changeset="10400850">
    <nd ref="612865747"/>
    <nd ref="37812315"/>
    <nd ref="199719781"/>
    <nd ref="31427758"/>
    <nd ref="1471217054"/>
    <tag k="highway" v="residential"/>
    <tag k="name" v="Victoria Street East"/>
    <tag k="source:name" v="survey"/>
  </way>
  <way id="19237897" version="2" timestamp="2010-07-08T02:36:54Z" uid="74617" user="JohnSmith" changeset="5163091">
    <nd ref="199718414"/>
    <nd ref="199718786"/>
    <tag k="highway" v="residential"/>
    <tag k="maxspeed" v="50"/>
    <tag k="maxspeed:source" v="default residential speed limit in Australia"/>
    <tag k="name" v="Waima Street"/>
  </way>
  <way id="19237897" version="3" timestamp="2012-01-15T19:58:04Z" uid="147510" user="woodpeck_fixbot" changeset="10400850">
    <nd ref="199718414"/>
    <nd ref="199718786"/>
    <tag k="highway" v="residential"/>
    <tag k="name" v="Waima Street"/>
  </way>
  <way id="19237945" version="3" timestamp="2010-07-08T02:35:13Z" uid="74617" user="JohnSmith" changeset="5163091">
    <nd ref="199718814"/>
    <nd ref="199719362"/>
    <nd ref="199719363"/>
    <nd ref="199719364"/>
    <tag k="highway" v="residential"/>
    <tag k="lcn" v="yes"/>
    <tag k="maxspeed" v="50"/>
    <tag k="maxspeed:source" v="default residential speed limit in Australia"/>
    <tag k="name" v="Waima Street"/>
  </way>
  <way id="19237945" version="4" timestamp="2012-01-15T19:58:07Z" uid="147510" user="woodpeck_fixbot" changeset="10400850">
    <nd ref="199718814"/>
    <nd ref="199719362"/>
    <nd ref="199719363"/>
    <nd ref="199719364"/>
    <tag k="highway" v="residential"/>
    <tag k="lcn" v="yes"/>
    <tag k="name" v="Waima Street"/>
  </way>
  <way id="19237992" version="2" timestamp="2010-07-08T02:41:19Z" uid="74617" user="JohnSmith" changeset="5163091">
    <nd ref="199719362"/>
    <nd ref="199719781"/>
    <tag k="highway" v="residential"/>
    <tag k="maxspeed" v="50"/>
    <tag k="maxspeed:source" v="default residential speed limit in Australia"/>
    <tag k="name" v="Boronia Avenue"/>
  </way>
  <way id="19237992" version="3" timestamp="2012-01-15T19:58:09Z" uid="147510" user="woodpeck_fixbot" changeset="10400850">
    <nd ref="199719362"/>
    <nd ref="199719781"/>
    <tag k="highway" v="residential"/>
    <tag k="name" v="Boronia Avenue"/>
  </way>
  <way id="19237109" version="5" timestamp="2012-06-06T22:44:40Z" uid="20949" user="Ebenezer" changeset="11820613">
    <nd ref="199705441"/>
    <nd ref="1778546566"/>
    <tag k="highway" v="residential"/>
    <tag k="name" v="Philip Street"/>
  </way>
  <way id="19237109" version="6" timestamp="2012-07-02T08:07:40Z" uid="713671" user="auspod" changeset="12084255">
    <nd ref="1809693898"/>
    <nd ref="1778546566"/>
    <tag k="highway" v="residential"/>
    <tag k="name" v="Philip Street"/>
  </way>
  <way id="19237125" version="5" timestamp="2012-06-06T22:44:41Z" uid="20949" user="Ebenezer" changeset="11820613">
    <nd ref="199706126"/>
    <nd ref="1778546591"/>
    <tag k="highway" v="residential"/>
    <tag k="name" v="Roberts Street"/>
  </way>
  <way id="19237125" version="6" timestamp="2012-07-02T08:07:41Z" uid="713671" user="auspod" changeset="12084255">
    <nd ref="1809693936"/>
    <nd ref="1778546591"/>
    <tag k="highway" v="residential"/>
    <tag k="name" v="Roberts Street"/>
  </way>
  <way id="19237198" version="5" timestamp="2012-07-20T05:24:45Z" uid="722137" user="OSMF Redaction Account" changeset="12361889">
    <nd ref="199707318"/>
    <nd ref="199707692"/>
    <tag k="highway" v="residential"/>
    <tag k="name" v="Manson Road"/>
  </way>
  <way id="19237224" version="4" timestamp="2012-08-01T14:48:41Z" uid="510836" user="Rub21" changeset="12575272">
    <nd ref="199707735"/>
    <nd ref="199708250"/>
    <nd ref="1846916914"/>
    <tag k="highway" v="residential"/>
    <tag k="name" v="Swan Avenue"/>
  </way>
  <way id="19237224" version="5" timestamp="2012-08-04T13:33:01Z" uid="67896" user="mrpulley" changeset="12609447">
    <nd ref="199707735"/>
    <nd ref="199708250"/>
    <nd ref="1778546570"/>
    <tag k="highway" v="residential"/>
    <tag k="name" v="Swan Avenue"/>
  </way>
  <way id="19237416" version="3" timestamp="2012-08-01T15:09:36Z" uid="510836" user="Rub21" changeset="12575493">
    <nd ref="199711198"/>
    <nd ref="199711551"/>
    <nd ref="199711552"/>
    <nd ref="1778524644"/>
    <tag k="highway" v="service"/>
    <tag k="name" v="Riley Lane"/>
  </way>
  <way id="19237416" version="4" timestamp="2012-08-01T15:50:38Z" uid="510836" user="Rub21" changeset="12575897">
    <nd ref="199711198"/>
    <nd ref="1846985221"/>
    <nd ref="199711551"/>
    <nd ref="199711552"/>
    <nd ref="1778524644"/>
    <tag k="highway" v="service"/>
    <tag k="name" v="Riley Lane"/>
  </way>
  <way id="19237416" version="5" timestamp="2012-08-02T12:10:12Z" uid="11321" user="Pecisk" changeset="12585114">
    <nd ref="199711198"/>
    <nd ref="1846985221"/>
    <nd ref="199711552"/>
    <nd ref="1778524644"/>
    <tag k="highway" v="service"/>
    <tag k="name" v="Riley Lane"/>
  </way>
  <way id="19237478" version="5" timestamp="2012-08-01T15:50:36Z" uid="510836" user="Rub21" changeset="12575897">
    <nd ref="1778524646"/>
    <nd ref="1846985219"/>
    <nd ref="199712936"/>
    <nd ref="199712781"/>
    <nd ref="199714837"/>
    <nd ref="199712937"/>
    <tag k="highway" v="residential"/>
    <tag k="name" v="Escher Street"/>
  </way>
  <way id="19237478" version="6" timestamp="2012-08-02T12:10:30Z" uid="11321" user="Pecisk" changeset="12585114"/>
  <way id="19237517" version="4" timestamp="2012-07-20T05:30:14Z" uid="722137" user="OSMF Redaction Account" changeset="12362098"/>
  <way id="19237589" version="4" timestamp="2012-08-02T12:10:11Z" uid="11321" user="Pecisk" changeset="12585114">
    <nd ref="199713793"/>
    <nd ref="1848331935"/>
    <nd ref="1848331933"/>
    <nd ref="199714837"/>
    <tag k="highway" v="residential"/>
    <tag k="name" v="New Street"/>
  </way>
  <way id="19237650" version="8" timestamp="2012-07-08T21:17:21Z" uid="713671" user="auspod" changeset="12155383">
    <nd ref="1818224065"/>
    <nd ref="1818224109"/>
    <nd ref="1818224083"/>
    <nd ref="1818224105"/>
    <nd ref="1818224107"/>
    <nd ref="1471217054"/>
    <tag k="highway" v="residential"/>
    <tag k="name" v="Victoria Street East"/>
    <tag k="source:name" v="survey"/>
  </way>
  <way id="19237897" version="4" timestamp="2012-07-08T21:17:21Z" uid="713671" user="auspod" changeset="12155383">
    <nd ref="1818224070"/>
    <nd ref="1818224047"/>
    <tag k="highway" v="residential"/>
    <tag k="name" v="Waima Street"/>
  </way>
  <way id="19237945" version="5" timestamp="2012-07-08T21:17:21Z" uid="713671" user="auspod" changeset="12155383">
    <nd ref="1818224099"/>
    <nd ref="1818224091"/>
    <nd ref="1818224072"/>
    <nd ref="199719364"/>
    <tag k="highway" v="residential"/>
    <tag k="lcn" v="yes"/>
    <tag k="name" v="Waima Street"/>
  </way>
  <way id="19237945" version="6" timestamp="2012-08-01T14:35:14Z" uid="504708" user="HillWithSmallFields" changeset="12575170">
    <nd ref="1818224099"/>
    <nd ref="1818224091"/>
    <nd ref="1818224072"/>
    <nd ref="1846911431"/>
    <tag k="highway" v="residential"/>
    <tag k="lcn" v="yes"/>
    <tag k="name" v="Waima Street"/>
  </way>
  <way id="19237992" version="4" timestamp="2012-07-08T21:17:22Z" uid="713671" user="auspod" changeset="12155383">
    <nd ref="1818224091"/>
    <nd ref="1818224083"/>
    <tag k="highway" v="residential"/>
    <tag k="name" v="Boronia Avenue"/>
  </way>
</osm>
