<?xml version='1.0' encoding='UTF-8'?>
<osm version="0.6" generator="libosmium/2.20.0">
  <way id="19262705" version="6" timestamp="2010-07-06T09:49:34Z" uid="74617" user="JohnSmith" changeset="5147679">
    <nd ref="78014317"/>
    <nd ref="200043527"/>
    <tag k="highway" v="residential"/>
    <tag k="maxspeed" v="50"/>
    <tag k="maxspeed:source" v="default residential speed limit in Australia"/>
    <tag k="name" v="Norman Parade"/>
  </way>
  <way id="19262705" version="7" timestamp="2010-07-24T05:19:52Z" uid="4467" user="Rosscoe" changeset="5300812">
    <nd ref="200043527"/>
    <nd ref="830903948"/>
    <nd ref="78014317"/>
    <tag k="highway" v="residential"/>
    <tag k="maxspeed" v="50"/>
    <tag k="maxspeed:source" v="default residential speed limit in Australia"/>
    <tag k="name" v="Norman Parade"/>
  </way>
  <way id="19262705" version="8" timestamp="2012-01-15T19:59:01Z" uid="147510" user="woodpeck_fixbot" changeset="10400850">
    <nd ref="200043527"/>
    <nd ref="830903948"/>
    <nd ref="78014317"/>
    <tag k="highway" v="residential"/>
    <tag k="name" v="Norman Parade"/>
  </way>
  <way id="19262705" version="9" timestamp="2012-07-20T03:35:28Z" uid="722137" user="OSMF Redaction Account" changeset="12359497">
    <nd ref="78014317"/>
    <nd ref="200043527"/>
    <tag k="highway" v="residential"/>
    <tag k="name" v="Norman Parade"/>
  </way>
</osm>
