<?xml version='1.0' encoding='UTF-8'?>
<osm version="0.6" generator="libosmium/2.20.0">
  <way id="19312376" version="3" timestamp="2011-04-12T08:43:20Z" uid="7617" user="Franc" changeset="7840435">
    <nd ref="60090916"/>
    <nd ref="600325842"/>
    <nd ref="60090813"/>
    <nd ref="60090814"/>
    <nd ref="1241681412"/>
    <nd ref="60090727"/>
    <tag k="highway" v="secondary"/>
    <tag k="maxspeed" v="60"/>
    <tag k="name" v="Seven Hills Road"/>
    <tag k="oneway" v="yes"/>
  </way>
  <way id="19312384" version="4" timestamp="2010-05-31T01:05:42Z" uid="4467" user="Rosscoe" changeset="4858903">
    <nd ref="60090917"/>
    <nd ref="60090811"/>
    <nd ref="600325846"/>
    <nd ref="60288691"/>
    <nd ref="600325860"/>
    <nd ref="60288693"/>
    <nd ref="600325875"/>
    <nd ref="125077522"/>
    <nd ref="600325878"/>
    <tag k="highway" v="primary"/>
    <tag k="maxspeed" v="60"/>
    <tag k="name" v="Old Northern Road"/>
    <tag k="oneway" v="yes"/>
    <tag k="source" v="nearmap"/>
  </way>
  <way id="19312746" version="6" timestamp="2009-10-05T03:09:15Z" uid="61114" user="Trav" changeset="2745085">
    <nd ref="200652662"/>
    <nd ref="200653386"/>
    <nd ref="520983737"/>
    <nd ref="200663224"/>
    <nd ref="200653195"/>
    <nd ref="200661077"/>
    <nd ref="200660964"/>
    <nd ref="200653196"/>
    <tag k="highway" v="residential"/>
    <tag k="name" v="Railway Street"/>
  </way>
  <way id="19312746" version="7" timestamp="2009-10-10T02:36:22Z" uid="61114" user="Trav" changeset="2799556">
    <nd ref="200652662"/>
    <nd ref="527744676"/>
    <tag k="highway" v="residential"/>
    <tag k="name" v="Railway Street"/>
    <tag k="oneway" v="yes"/>
    <tag k="source:name" v="survey"/>
    <tag k="source:oneway" v="survey"/>
  </way>
  <way id="19312746" version="8" timestamp="2009-12-28T10:19:41Z" uid="12203" user="brainwad" changeset="3469979"/>
  <way id="19312801" version="2" timestamp="2009-10-05T03:08:01Z" uid="61114" user="Trav" changeset="2745085">
    <nd ref="200653386"/>
    <nd ref="200653900"/>
    <nd ref="200653902"/>
    <nd ref="200653903"/>
    <tag k="highway" v="service"/>
    <tag k="name" v="Raemot Lane"/>
    <tag k="source:name" v="survey"/>
  </way>
  <way id="19312801" version="3" timestamp="2009-12-28T10:19:18Z" uid="12203" user="brainwad" changeset="3469979">
    <nd ref="200653386"/>
    <nd ref="200653900"/>
    <nd ref="200653902"/>
    <nd ref="600325869"/>
    <tag k="highway" v="service"/>
    <tag k="name" v="Raemot Lane"/>
    <tag k="source:name" v="survey"/>
  </way>
  <way id="19312801" version="4" timestamp="2010-03-01T01:48:00Z" uid="7617" user="Franc" changeset="4005308">
    <nd ref="200653386"/>
    <nd ref="200653900"/>
    <nd ref="657067099"/>
    <nd ref="200653902"/>
    <nd ref="600325869"/>
    <tag k="highway" v="service"/>
    <tag k="name" v="Raemot Lane"/>
    <tag k="source:name" v="survey"/>
  </way>
  <way id="19312801" version="5" timestamp="2010-06-19T10:45:19Z" uid="299678" user="peteramjet" changeset="5022535">
    <nd ref="200653386"/>
    <nd ref="200653900"/>
    <nd ref="657067099"/>
    <nd ref="200653902"/>
    <nd ref="600325869"/>
    <tag k="highway" v="residential"/>
    <tag k="name" v="Raemot Lane"/>
    <tag k="source:name" v="survey"/>
  </way>
  <way id="19312801" version="6" timestamp="2010-07-06T22:08:48Z" uid="218917" user="Andrew S" changeset="5154928">
    <nd ref="200653386"/>
    <nd ref="200653900"/>
    <nd ref="657067099"/>
    <nd ref="200653902"/>
    <nd ref="600325869"/>
    <tag k="highway" v="residential"/>
    <tag k="maxspeed" v="50"/>
    <tag k="name" v="Raemot Lane"/>
    <tag k="source:name" v="survey"/>
  </way>
  <way id="19312854" version="3" timestamp="2009-10-05T03:08:02Z" uid="61114" user="Trav" changeset="2745085">
    <nd ref="200653195"/>
    <nd ref="200654657"/>
    <nd ref="200654658"/>
    <nd ref="200654660"/>
    <nd ref="200654661"/>
    <nd ref="200662227"/>
    <nd ref="200654662"/>
    <tag k="highway" v="residential"/>
    <tag k="name" v="Jenner Street"/>
    <tag k="source:name" v="survey"/>
  </way>
  <way id="19312854" version="4" timestamp="2010-03-01T02:06:20Z" uid="7617" user="Franc" changeset="4005354">
    <nd ref="200653195"/>
    <nd ref="200654657"/>
    <nd ref="657101225"/>
    <nd ref="200654658"/>
    <nd ref="200654660"/>
    <nd ref="200654661"/>
    <nd ref="200662227"/>
    <nd ref="200654662"/>
    <tag k="highway" v="residential"/>
    <tag k="name" v="Jenner Street"/>
    <tag k="source:name" v="survey"/>
  </way>
  <way id="19312854" version="5" timestamp="2010-03-18T05:48:38Z" uid="218917" user="Andrew S" changeset="4158737">
    <nd ref="200653195"/>
    <nd ref="200654657"/>
    <nd ref="668463886"/>
    <nd ref="657101225"/>
    <nd ref="200654658"/>
    <nd ref="200654660"/>
    <nd ref="200654661"/>
    <nd ref="200662227"/>
    <nd ref="200654662"/>
    <tag k="highway" v="residential"/>
    <tag k="name" v="Jenner Street"/>
    <tag k="source:name" v="survey"/>
  </way>
  <way id="19312854" version="6" timestamp="2010-03-29T03:08:53Z" uid="218917" user="Andrew S" changeset="4263592">
    <nd ref="200653195"/>
    <nd ref="200654657"/>
    <nd ref="668463886"/>
    <nd ref="657101225"/>
    <nd ref="200654658"/>
    <nd ref="200654660"/>
    <nd ref="200654661"/>
    <nd ref="200662227"/>
    <nd ref="200654662"/>
    <tag k="highway" v="residential"/>
    <tag k="name" v="Jenner Street"/>
    <tag k="source:name" v="survey"/>
    <tag k="traffic_calming" v="yes"/>
  </way>
  <way id="19312854" version="7" timestamp="2010-07-06T22:08:48Z" uid="218917" user="Andrew S" changeset="5154928">
    <nd ref="200653195"/>
    <nd ref="200654657"/>
    <nd ref="668463886"/>
    <nd ref="657101225"/>
    <nd ref="200654658"/>
    <nd ref="200654660"/>
    <nd ref="200654661"/>
    <nd ref="200662227"/>
    <nd ref="200654662"/>
    <tag k="highway" v="residential"/>
    <tag k="maxspeed" v="50"/>
    <tag k="name" v="Jenner Street"/>
    <tag k="source:name" v="survey"/>
    <tag k="traffic_calming" v="yes"/>
  </way>
  <way id="19312866" version="2" timestamp="2009-10-05T03:09:08Z" uid="61114" user="Trav" changeset="2745085">
    <nd ref="200654660"/>
    <nd ref="60288776"/>
    <tag k="highway" v="residential"/>
    <tag k="name" v="Hill Street"/>
    <tag k="source:name" v="survey"/>
  </way>
  <way id="19312866" version="3" timestamp="2010-03-01T01:48:01Z" uid="7617" user="Franc" changeset="4005308">
    <nd ref="200654660"/>
    <nd ref="657067102"/>
    <nd ref="60288776"/>
    <tag k="highway" v="residential"/>
    <tag k="name" v="Hill Street"/>
    <tag k="source:name" v="survey"/>
  </way>
  <way id="19312866" version="4" timestamp="2010-07-06T22:08:34Z" uid="218917" user="Andrew S" changeset="5154928">
    <nd ref="200654660"/>
    <nd ref="657067102"/>
    <nd ref="60288776"/>
    <tag k="highway" v="residential"/>
    <tag k="maxspeed" v="50"/>
    <tag k="name" v="Hill Street"/>
    <tag k="source:name" v="survey"/>
  </way>
  <way id="19312988" version="10" timestamp="2010-03-01T02:06:20Z" uid="7617" user="Franc" changeset="4005354">
    <nd ref="60288787"/>
    <nd ref="657101261"/>
    <nd ref="200656737"/>
    <nd ref="200658258"/>
    <nd ref="200654662"/>
    <nd ref="200653196"/>
    <nd ref="301689074"/>
    <nd ref="200660571"/>
    <nd ref="200656738"/>
    <nd ref="200656739"/>
    <nd ref="301689073"/>
    <tag k="highway" v="residential"/>
    <tag k="name" v="Cross Street"/>
  </way>
  <way id="19312988" version="11" timestamp="2010-07-06T22:08:36Z" uid="218917" user="Andrew S" changeset="5154928">
    <nd ref="60288787"/>
    <nd ref="657101261"/>
    <nd ref="200656737"/>
    <nd ref="200658258"/>
    <nd ref="200654662"/>
    <nd ref="200653196"/>
    <nd ref="301689074"/>
    <nd ref="200660571"/>
    <nd ref="200656738"/>
    <nd ref="200656739"/>
    <nd ref="301689073"/>
    <tag k="highway" v="residential"/>
    <tag k="maxspeed" v="50"/>
    <tag k="name" v="Cross Street"/>
  </way>
  <way id="19312376" version="4" timestamp="2012-07-22T01:14:35Z" uid="722137" user="OSMF Redaction Account" changeset="12423743">
    <nd ref="60090916"/>
    <nd ref="600325842"/>
    <nd ref="60090813"/>
    <nd ref="60090814"/>
    <nd ref="60090727"/>
    <tag k="highway" v="secondary"/>
    <tag k="maxspeed" v="60"/>
    <tag k="name" v="Seven Hills Road"/>
    <tag k="oneway" v="yes"/>
  </way>
  <way id="19312384" version="5" timestamp="2012-07-22T01:19:09Z" uid="722137" user="OSMF Redaction Account" changeset="12423792">
    <nd ref="60090917"/>
    <nd ref="60090811"/>
    <nd ref="600325846"/>
    <nd ref="60288691"/>
    <nd ref="600325860"/>
    <nd ref="60288693"/>
    <nd ref="600325875"/>
    <nd ref="600325878"/>
    <tag k="highway" v="primary"/>
    <tag k="maxspeed" v="60"/>
    <tag k="name" v="Old Northern Road"/>
    <tag k="oneway" v="yes"/>
  </way>
  <way id="19312384" version="6" timestamp="2012-07-23T10:31:38Z" uid="218917" user="Andrew S" changeset="12447567">
    <nd ref="60090917"/>
    <nd ref="60090811"/>
    <nd ref="600325846"/>
    <nd ref="60288691"/>
    <nd ref="600325860"/>
    <nd ref="60288693"/>
    <nd ref="600325875"/>
    <nd ref="1835193763"/>
    <nd ref="600325878"/>
    <tag k="highway" v="primary"/>
    <tag k="maxspeed" v="60"/>
    <tag k="name" v="Old Northern Road"/>
    <tag k="oneway" v="yes"/>
  </way>
  <way id="19312384" version="7" timestamp="2012-08-04T10:35:25Z" uid="2585" user="rw_" changeset="12607729">
    <nd ref="60090917"/>
    <nd ref="60090811"/>
    <nd ref="600325846"/>
    <nd ref="60288691"/>
    <nd ref="600325860"/>
    <nd ref="60288693"/>
    <nd ref="600325875"/>
    <nd ref="1835193763"/>
    <nd ref="1851320939"/>
    <nd ref="600325878"/>
    <tag k="highway" v="primary"/>
    <tag k="maxspeed" v="60"/>
    <tag k="name" v="Old Northern Road"/>
    <tag k="oneway" v="yes"/>
  </way>
  <way id="19312801" version="7" timestamp="2012-07-22T01:14:31Z" uid="722137" user="OSMF Redaction Account" changeset="12423743">
    <nd ref="200653386"/>
    <nd ref="200653900"/>
    <nd ref="200653902"/>
    <nd ref="600325869"/>
    <tag k="highway" v="residential"/>
    <tag k="maxspeed" v="50"/>
  </way>
  <way id="19312854" version="8" timestamp="2012-07-22T01:14:25Z" uid="722137" user="OSMF Redaction Account" changeset="12423743">
    <nd ref="200653195"/>
    <nd ref="200654657"/>
    <nd ref="668463886"/>
    <nd ref="200654658"/>
    <nd ref="200654660"/>
    <nd ref="200654661"/>
    <nd ref="200662227"/>
    <nd ref="200654662"/>
    <tag k="highway" v="residential"/>
    <tag k="maxspeed" v="50"/>
    <tag k="traffic_calming" v="yes"/>
  </way>
  <way id="19312854" version="9" timestamp="2012-07-23T10:21:46Z" uid="218917" user="Andrew S" changeset="12447567">
    <nd ref="200653195"/>
    <nd ref="200654657"/>
    <nd ref="668463886"/>
    <nd ref="200654658"/>
    <nd ref="200654660"/>
    <nd ref="200654661"/>
    <nd ref="200662227"/>
    <nd ref="200654662"/>
    <tag k="highway" v="residential"/>
    <tag k="maxspeed" v="50"/>
    <tag k="name" v="Jenner Street"/>
    <tag k="oneway" v="no"/>
    <tag k="traffic_calming" v="yes"/>
  </way>
  <way id="19312866" version="5" timestamp="2012-07-22T01:14:24Z" uid="722137" user="OSMF Redaction Account" changeset="12423743">
    <nd ref="200654660"/>
    <nd ref="60288776"/>
    <tag k="highway" v="residential"/>
    <tag k="maxspeed" v="50"/>
  </way>
  <way id="19312866" version="6" timestamp="2012-07-23T10:21:46Z" uid="218917" user="Andrew S" changeset="12447567">
    <nd ref="200654660"/>
    <nd ref="60288776"/>
    <tag k="highway" v="residential"/>
    <tag k="maxspeed" v="50"/>
    <tag k="name" v="Hill Street"/>
    <tag k="oneway" v="no"/>
  </way>
  <way id="19312988" version="12" timestamp="2012-07-22T01:14:15Z" uid="722137" user="OSMF Redaction Account" changeset="12423743">
    <nd ref="60288787"/>
    <nd ref="200656737"/>
    <nd ref="200658258"/>
    <nd ref="200654662"/>
    <nd ref="200653196"/>
    <nd ref="301689074"/>
    <nd ref="200660571"/>
    <nd ref="200656738"/>
    <nd ref="200656739"/>
    <nd ref="301689073"/>
    <tag k="highway" v="residential"/>
    <tag k="maxspeed" v="50"/>
    <tag k="name" v="Cross Street"/>
  </way>
  <way id="19312988" version="13" timestamp="2012-07-24T07:23:38Z" uid="92387" user="SimonPoole" changeset="12461122">
    <nd ref="60288787"/>
    <nd ref="200656737"/>
    <nd ref="200658258"/>
    <nd ref="200654662"/>
    <nd ref="200653196"/>
    <nd ref="301689074"/>
    <nd ref="200660571"/>
    <nd ref="200656738"/>
    <nd ref="200656739"/>
    <nd ref="301689073"/>
    <nd ref="1836207177"/>
    <tag k="highway" v="residential"/>
    <tag k="maxspeed" v="50"/>
    <tag k="name" v="Cross Street"/>
  </way>
</osm>
