<?xml version='1.0' encoding='UTF-8'?>
<osm version="0.6" generator="libosmium/2.20.0">
  <way id="19359036" version="3" timestamp="2009-10-12T21:50:22Z" uid="36809" user="pfoten_weg_!_" changeset="2831247">
    <nd ref="201233187"/>
    <nd ref="201233342"/>
    <nd ref="201233343"/>
    <nd ref="161598587"/>
    <tag k="highway" v="residential"/>
    <tag k="name" v="Augustenstraße"/>
  </way>
  <way id="19359079" version="6" timestamp="2009-10-12T21:50:10Z" uid="36809" user="pfoten_weg_!_" changeset="2831247">
    <nd ref="304770501"/>
    <nd ref="304770487"/>
    <nd ref="304770500"/>
    <nd ref="304770499"/>
    <nd ref="304770498"/>
    <nd ref="304770497"/>
    <nd ref="304770494"/>
    <nd ref="304770492"/>
    <nd ref="304770489"/>
    <nd ref="307927021"/>
    <nd ref="201233990"/>
    <tag k="highway" v="residential"/>
    <tag k="name" v="Brandstetterstraße"/>
    <tag k="surface" v="unpaved"/>
  </way>
  <way id="19359079" version="7" timestamp="2010-12-01T21:32:29Z" uid="378328" user="krz9000" changeset="6508921">
    <nd ref="1015084813"/>
    <nd ref="304770501"/>
    <nd ref="304770487"/>
    <nd ref="304770500"/>
    <nd ref="304770499"/>
    <nd ref="304770498"/>
    <nd ref="304770497"/>
    <nd ref="304770494"/>
    <nd ref="304770492"/>
    <nd ref="304770489"/>
    <nd ref="307927021"/>
    <nd ref="201233990"/>
    <tag k="highway" v="residential"/>
    <tag k="name" v="Brandstetterstraße"/>
    <tag k="surface" v="unpaved"/>
  </way>
  <way id="19359083" version="3" timestamp="2008-07-15T01:37:45Z" uid="6975" user="ulfl" changeset="496348">
    <nd ref="201132830"/>
    <nd ref="50101715"/>
    <nd ref="50101718"/>
    <tag k="highway" v="secondary"/>
    <tag k="maxspeed" v="64"/>
    <tag k="name" v="Pennys Lane"/>
    <tag k="rcn_ref" v="73"/>
    <tag k="ref" v="B5082"/>
  </way>
  <way id="19359083" version="4" timestamp="2010-02-27T18:14:54Z" uid="91657" user="Pink Duck" changeset="3990785">
    <nd ref="201132830"/>
    <nd ref="50101715"/>
    <nd ref="50101718"/>
    <tag k="highway" v="secondary"/>
    <tag k="maxspeed" v="40 mph"/>
    <tag k="name" v="Pennys Lane"/>
    <tag k="rcn_ref" v="73"/>
    <tag k="ref" v="B5082"/>
  </way>
  <way id="19359083" version="5" timestamp="2010-02-27T19:28:35Z" uid="91657" user="Pink Duck" changeset="3990785">
    <nd ref="201132830"/>
    <nd ref="50101715"/>
    <nd ref="50101718"/>
    <tag k="highway" v="secondary"/>
    <tag k="maxspeed" v="40 mph"/>
    <tag k="name" v="Pennys Lane"/>
    <tag k="rcn_ref" v="73"/>
    <tag k="ref" v="B5082"/>
  </way>
  <way id="19359123" version="2" timestamp="2009-10-12T21:50:22Z" uid="36809" user="pfoten_weg_!_" changeset="2831247">
    <nd ref="201234595"/>
    <nd ref="201234596"/>
    <nd ref="201234597"/>
    <nd ref="201234598"/>
    <nd ref="201234599"/>
    <nd ref="201234600"/>
    <tag k="highway" v="unclassified"/>
  </way>
  <way id="19359123" version="3" timestamp="2010-12-01T21:32:36Z" uid="378328" user="krz9000" changeset="6508921">
    <nd ref="201234595"/>
    <nd ref="201234596"/>
    <nd ref="201234597"/>
    <nd ref="201234598"/>
    <nd ref="1015084729"/>
    <nd ref="201234599"/>
    <nd ref="201234600"/>
    <tag k="highway" v="residential"/>
  </way>
  <way id="19359227" version="2" timestamp="2008-07-15T01:37:52Z" uid="6975" user="ulfl" changeset="496348">
    <nd ref="201132888"/>
    <nd ref="201132892"/>
    <nd ref="50101718"/>
    <tag k="highway" v="tertiary"/>
    <tag k="maxspeed" v="64"/>
    <tag k="name" v="Birches Lane"/>
    <tag k="source" v="GPX"/>
  </way>
  <way id="19359227" version="3" timestamp="2010-02-27T18:14:54Z" uid="91657" user="Pink Duck" changeset="3990785">
    <nd ref="201132888"/>
    <nd ref="201132892"/>
    <nd ref="50101718"/>
    <tag k="highway" v="tertiary"/>
    <tag k="maxspeed" v="40 mph"/>
    <tag k="name" v="Birches Lane"/>
    <tag k="source" v="GPX"/>
  </way>
  <way id="19359227" version="4" timestamp="2010-02-27T19:28:35Z" uid="91657" user="Pink Duck" changeset="3990785">
    <nd ref="201132888"/>
    <nd ref="201132892"/>
    <nd ref="50101718"/>
    <tag k="highway" v="tertiary"/>
    <tag k="maxspeed" v="40 mph"/>
    <tag k="name" v="Birches Lane"/>
    <tag k="source" v="GPX"/>
  </way>
  <way id="19359342" version="4" timestamp="2009-10-12T21:50:08Z" uid="36809" user="pfoten_weg_!_" changeset="2831247">
    <nd ref="201237344"/>
    <nd ref="307927020"/>
    <nd ref="307927019"/>
    <nd ref="307927018"/>
    <nd ref="307927017"/>
    <nd ref="206105842"/>
    <nd ref="307927016"/>
    <nd ref="307927015"/>
    <nd ref="307927014"/>
    <nd ref="201237343"/>
    <nd ref="201237344"/>
    <tag k="highway" v="pedestrian"/>
    <tag k="name" v="Kirchplatz"/>
    <tag k="surface" v="paved"/>
  </way>
  <way id="19359342" version="5" timestamp="2010-12-01T16:53:02Z" uid="378328" user="krz9000" changeset="6505771">
    <nd ref="201237344"/>
    <nd ref="307927020"/>
    <nd ref="307927019"/>
    <nd ref="307927018"/>
    <nd ref="307927017"/>
    <nd ref="1014761839"/>
    <nd ref="206105842"/>
    <nd ref="307927016"/>
    <nd ref="307927015"/>
    <nd ref="307927014"/>
    <nd ref="1014761890"/>
    <nd ref="201237343"/>
    <nd ref="1014761848"/>
    <nd ref="201237344"/>
    <tag k="highway" v="pedestrian"/>
    <tag k="name" v="Kirchplatz"/>
    <tag k="surface" v="paved"/>
  </way>
  <way id="19359342" version="6" timestamp="2010-12-01T18:09:34Z" uid="378328" user="krz9000" changeset="6506578">
    <nd ref="307927020"/>
    <nd ref="307927019"/>
    <nd ref="307927018"/>
    <nd ref="307927017"/>
    <nd ref="1014761839"/>
    <nd ref="1014840250"/>
    <nd ref="307927016"/>
    <nd ref="307927015"/>
    <nd ref="1014840570"/>
    <nd ref="1014761890"/>
    <nd ref="201237343"/>
    <nd ref="1014761848"/>
    <nd ref="1014840138"/>
    <nd ref="307927020"/>
    <tag k="highway" v="pedestrian"/>
    <tag k="name" v="Kirchplatz"/>
    <tag k="surface" v="paved"/>
  </way>
  <way id="19359342" version="7" timestamp="2010-12-01T22:11:55Z" uid="378328" user="krz9000" changeset="6509373">
    <nd ref="307927020"/>
    <nd ref="307927019"/>
    <nd ref="307927018"/>
    <nd ref="307927017"/>
    <nd ref="1014761839"/>
    <nd ref="1014840250"/>
    <nd ref="307927016"/>
    <nd ref="307927015"/>
    <nd ref="1014840570"/>
    <nd ref="1015130020"/>
    <nd ref="1014761890"/>
    <nd ref="1015130426"/>
    <nd ref="201237343"/>
    <nd ref="1015130718"/>
    <nd ref="1014761848"/>
    <nd ref="1014840138"/>
    <nd ref="307927020"/>
    <tag k="highway" v="pedestrian"/>
    <tag k="name" v="Kirchplatz"/>
    <tag k="surface" v="paved"/>
  </way>
  <way id="19359342" version="8" timestamp="2010-12-02T18:57:03Z" uid="378328" user="krz9000" changeset="6518034">
    <nd ref="307927020"/>
    <nd ref="307927019"/>
    <nd ref="307927018"/>
    <nd ref="307927017"/>
    <nd ref="1014761839"/>
    <nd ref="1014840250"/>
    <nd ref="307927016"/>
    <nd ref="307927015"/>
    <nd ref="1014840570"/>
    <nd ref="1015130020"/>
    <nd ref="1014761890"/>
    <nd ref="1015130426"/>
    <nd ref="201237343"/>
    <nd ref="1015130718"/>
    <nd ref="1014761848"/>
    <nd ref="1014840138"/>
    <nd ref="307927020"/>
    <tag k="highway" v="pedestrian"/>
    <tag k="layer" v="0"/>
    <tag k="leisure" v="common"/>
    <tag k="name" v="Kirchplatz"/>
    <tag k="surface" v="paving_stones"/>
  </way>
  <way id="19359342" version="9" timestamp="2010-12-02T18:57:43Z" uid="378328" user="krz9000" changeset="6518045">
    <nd ref="307927020"/>
    <nd ref="307927019"/>
    <nd ref="307927018"/>
    <nd ref="307927017"/>
    <nd ref="1014761839"/>
    <nd ref="1014840250"/>
    <nd ref="307927016"/>
    <nd ref="307927015"/>
    <nd ref="1014840570"/>
    <nd ref="1015130020"/>
    <nd ref="1014761890"/>
    <nd ref="1015130426"/>
    <nd ref="201237343"/>
    <nd ref="1015130718"/>
    <nd ref="1014761848"/>
    <nd ref="1014840138"/>
    <nd ref="307927020"/>
    <tag k="layer" v="0"/>
    <tag k="leisure" v="common"/>
    <tag k="name" v="Kirchplatz"/>
    <tag k="surface" v="paving_stones"/>
  </way>
  <way id="19359342" version="10" timestamp="2011-04-07T22:00:34Z" uid="205377" user="geoMILLImeter" changeset="7799190">
    <nd ref="307927020"/>
    <nd ref="307927019"/>
    <nd ref="1014840267"/>
    <nd ref="307927018"/>
    <nd ref="1236655696"/>
    <nd ref="1236655682"/>
    <nd ref="307927017"/>
    <nd ref="1014840046"/>
    <nd ref="1014761839"/>
    <nd ref="1014840250"/>
    <nd ref="1014840653"/>
    <nd ref="307927016"/>
    <nd ref="1014840802"/>
    <nd ref="307927015"/>
    <nd ref="304770504"/>
    <nd ref="1014840570"/>
    <nd ref="1014865913"/>
    <nd ref="1014866100"/>
    <nd ref="1015130020"/>
    <nd ref="1014761890"/>
    <nd ref="1014865850"/>
    <nd ref="1015130426"/>
    <nd ref="201237343"/>
    <nd ref="1014866094"/>
    <nd ref="1014761848"/>
    <nd ref="1014840138"/>
    <nd ref="1236655732"/>
    <nd ref="307927020"/>
    <tag k="highway" v="pedestrian"/>
    <tag k="name" v="Kirchplatz"/>
    <tag k="surface" v="paving_stones"/>
  </way>
  <way id="19359342" version="11" timestamp="2011-09-27T06:48:50Z" uid="482628" user="gumul" changeset="9407979">
    <nd ref="1014840267"/>
    <nd ref="307927018"/>
    <nd ref="1236655696"/>
    <nd ref="1236655682"/>
    <nd ref="307927017"/>
    <nd ref="1014840046"/>
    <nd ref="1014840653"/>
    <nd ref="307927016"/>
    <nd ref="1014840802"/>
    <nd ref="307927015"/>
    <nd ref="304770504"/>
    <nd ref="1014840570"/>
    <nd ref="1014865913"/>
    <nd ref="1014866100"/>
    <nd ref="1015130020"/>
    <nd ref="1014761890"/>
    <nd ref="1014865850"/>
    <nd ref="1015130426"/>
    <nd ref="201237343"/>
    <nd ref="1014866094"/>
    <nd ref="1014761848"/>
    <nd ref="1014840138"/>
    <nd ref="1446815582"/>
    <nd ref="1014840267"/>
    <tag k="highway" v="pedestrian"/>
    <tag k="name" v="Kirchplatz"/>
    <tag k="surface" v="paving_stones"/>
  </way>
  <way id="19359342" version="12" timestamp="2011-09-27T07:00:10Z" uid="482628" user="gumul" changeset="9408062">
    <nd ref="1014840267"/>
    <nd ref="307927018"/>
    <nd ref="1236655696"/>
    <nd ref="1236655682"/>
    <nd ref="307927017"/>
    <nd ref="1014840046"/>
    <nd ref="1014840653"/>
    <nd ref="307927016"/>
    <nd ref="1014840802"/>
    <nd ref="1446820337"/>
    <nd ref="1446820336"/>
    <nd ref="1014865913"/>
    <nd ref="1014866100"/>
    <nd ref="1015130020"/>
    <nd ref="1014761890"/>
    <nd ref="1014865850"/>
    <nd ref="1015130426"/>
    <nd ref="201237343"/>
    <nd ref="1014866094"/>
    <nd ref="1014761848"/>
    <nd ref="1014840138"/>
    <nd ref="1446815582"/>
    <nd ref="1014840267"/>
    <tag k="highway" v="pedestrian"/>
    <tag k="name" v="Kirchplatz"/>
    <tag k="surface" v="paving_stones"/>
  </way>
  <way id="19359491" version="4" timestamp="2009-10-12T21:50:24Z" uid="36809" user="pfoten_weg_!_" changeset="2831247">
    <nd ref="201239312"/>
    <nd ref="201239313"/>
    <nd ref="201239316"/>
    <nd ref="201239318"/>
    <tag k="highway" v="residential"/>
    <tag k="name" v="Hirschangerstraße"/>
  </way>
  <way id="19359508" version="4" timestamp="2009-10-12T21:50:24Z" uid="36809" user="pfoten_weg_!_" changeset="2831247">
    <nd ref="163126820"/>
    <nd ref="201239538"/>
    <nd ref="201239539"/>
    <nd ref="201239540"/>
    <tag k="highway" v="residential"/>
    <tag k="name" v="Hirschangerstraße"/>
  </way>
  <way id="19359512" version="8" timestamp="2010-02-14T17:17:11Z" uid="74617" user="JohnSmith" changeset="3875836">
    <nd ref="200788366"/>
    <nd ref="201239609"/>
    <nd ref="201239610"/>
    <nd ref="201239611"/>
    <nd ref="201239612"/>
    <nd ref="201239613"/>
    <nd ref="201239614"/>
    <nd ref="201239616"/>
    <nd ref="201239617"/>
    <nd ref="201239618"/>
    <nd ref="201239619"/>
    <nd ref="201239621"/>
    <nd ref="201239623"/>
    <nd ref="203237702"/>
    <nd ref="201239624"/>
    <nd ref="201239625"/>
    <nd ref="201239626"/>
    <nd ref="201194579"/>
    <tag k="highway" v="residential"/>
    <tag k="maxspeed" v="50"/>
    <tag k="name" v="Walker Avenue"/>
    <tag k="oneway" v="yes"/>
  </way>
  <way id="19359512" version="9" timestamp="2012-01-15T20:04:25Z" uid="147510" user="woodpeck_fixbot" changeset="10400850">
    <nd ref="200788366"/>
    <nd ref="201239609"/>
    <nd ref="201239610"/>
    <nd ref="201239611"/>
    <nd ref="201239612"/>
    <nd ref="201239613"/>
    <nd ref="201239614"/>
    <nd ref="201239616"/>
    <nd ref="201239617"/>
    <nd ref="201239618"/>
    <nd ref="201239619"/>
    <nd ref="201239621"/>
    <nd ref="201239623"/>
    <nd ref="203237702"/>
    <nd ref="201239624"/>
    <nd ref="201239625"/>
    <nd ref="201239626"/>
    <nd ref="201194579"/>
    <tag k="highway" v="residential"/>
    <tag k="name" v="Walker Avenue"/>
    <tag k="oneway" v="yes"/>
  </way>
  <way id="19359528" version="4" timestamp="2010-02-14T17:16:35Z" uid="74617" user="JohnSmith" changeset="3875836">
    <nd ref="152634457"/>
    <nd ref="200935082"/>
    <nd ref="451349515"/>
    <nd ref="200935937"/>
    <tag k="bridge" v="yes"/>
    <tag k="highway" v="motorway"/>
    <tag k="layer" v="1"/>
    <tag k="name" v="Inner City Bypass"/>
    <tag k="oneway" v="yes"/>
  </way>
  <way id="19359528" version="5" timestamp="2010-06-13T10:51:56Z" uid="114230" user="danerikk" changeset="4976998">
    <nd ref="152634457"/>
    <nd ref="771229087"/>
    <nd ref="771229089"/>
    <nd ref="200935082"/>
    <nd ref="771229094"/>
    <nd ref="451349515"/>
    <nd ref="200935937"/>
    <tag k="bridge" v="yes"/>
    <tag k="highway" v="motorway"/>
    <tag k="layer" v="1"/>
    <tag k="name" v="Inner City Bypass"/>
    <tag k="oneway" v="yes"/>
  </way>
  <way id="19359528" version="6" timestamp="2010-06-13T11:02:03Z" uid="114230" user="danerikk" changeset="4976998">
    <nd ref="152634457"/>
    <nd ref="771229087"/>
    <nd ref="771229089"/>
    <nd ref="200935082"/>
    <nd ref="771229094"/>
    <nd ref="771233250"/>
    <nd ref="200935937"/>
    <tag k="bridge" v="yes"/>
    <tag k="highway" v="motorway"/>
    <tag k="layer" v="1"/>
    <tag k="name" v="Inner City Bypass"/>
    <tag k="oneway" v="yes"/>
  </way>
  <way id="19359532" version="8" timestamp="2009-09-29T01:36:13Z" uid="36809" user="pfoten_weg_!_" changeset="2672113">
    <nd ref="201242396"/>
    <nd ref="201244863"/>
    <nd ref="201242397"/>
    <nd ref="201242399"/>
    <nd ref="279242604"/>
    <nd ref="201242400"/>
    <nd ref="201242402"/>
    <nd ref="201242403"/>
    <nd ref="201242404"/>
    <nd ref="201242406"/>
    <nd ref="278391123"/>
    <nd ref="201242407"/>
    <nd ref="201240000"/>
    <nd ref="201240001"/>
    <nd ref="201240003"/>
    <tag k="highway" v="residential"/>
    <tag k="name" v="Josef-Fischhaberstraße"/>
  </way>
  <way id="19359532" version="9" timestamp="2011-01-12T05:54:40Z" uid="323886" user="hermann51" changeset="6944191">
    <nd ref="201242396"/>
    <nd ref="201244863"/>
    <nd ref="201242397"/>
    <nd ref="201242399"/>
    <nd ref="279242604"/>
    <nd ref="201242400"/>
    <nd ref="201242402"/>
    <nd ref="201242403"/>
    <nd ref="201242404"/>
    <nd ref="201242406"/>
    <nd ref="278391123"/>
    <nd ref="201242407"/>
    <nd ref="201240000"/>
    <nd ref="201240001"/>
    <nd ref="201240003"/>
    <tag k="highway" v="residential"/>
    <tag k="name" v="Josef-Fischhaber-Straße"/>
  </way>
  <way id="19359551" version="5" timestamp="2009-10-12T21:50:25Z" uid="36809" user="pfoten_weg_!_" changeset="2831247">
    <nd ref="201240898"/>
    <nd ref="201240303"/>
    <nd ref="201240305"/>
    <nd ref="201240306"/>
    <tag k="highway" v="residential"/>
    <tag k="name" v="Giselastraße"/>
    <tag k="noexit" v="yes"/>
  </way>
  <way id="19359563" version="7" timestamp="2010-02-14T17:16:50Z" uid="74617" user="JohnSmith" changeset="3875836">
    <nd ref="21590247"/>
    <nd ref="200934539"/>
    <nd ref="21590248"/>
    <nd ref="21590249"/>
    <nd ref="21590250"/>
    <nd ref="369939975"/>
    <nd ref="369939976"/>
    <nd ref="369939977"/>
    <tag k="abutters" v="mixed"/>
    <tag k="highway" v="motorway"/>
    <tag k="layer" v="1"/>
    <tag k="name" v="Inner City Bypass"/>
    <tag k="oneway" v="yes"/>
  </way>
  <way id="19359563" version="8" timestamp="2010-06-13T10:46:29Z" uid="114230" user="danerikk" changeset="4976998">
    <nd ref="21590247"/>
    <nd ref="200934539"/>
    <nd ref="21590248"/>
    <nd ref="21590249"/>
    <nd ref="21590250"/>
    <nd ref="369939975"/>
    <nd ref="369939976"/>
    <nd ref="369939977"/>
    <tag k="abutters" v="mixed"/>
    <tag k="highway" v="motorway"/>
    <tag k="lanes" v="2"/>
    <tag k="layer" v="1"/>
    <tag k="name" v="Inner City Bypass"/>
    <tag k="oneway" v="yes"/>
  </way>
  <way id="19359563" version="9" timestamp="2010-06-13T10:48:48Z" uid="114230" user="danerikk" changeset="4976998">
    <nd ref="21590247"/>
    <nd ref="200934539"/>
    <nd ref="771228254"/>
    <nd ref="21590248"/>
    <nd ref="771228255"/>
    <nd ref="21590249"/>
    <nd ref="771228256"/>
    <nd ref="21590250"/>
    <nd ref="771228257"/>
    <nd ref="369939975"/>
    <nd ref="771228259"/>
    <nd ref="369939976"/>
    <nd ref="369939977"/>
    <tag k="abutters" v="mixed"/>
    <tag k="highway" v="motorway"/>
    <tag k="lanes" v="2"/>
    <tag k="layer" v="1"/>
    <tag k="name" v="Inner City Bypass"/>
    <tag k="oneway" v="yes"/>
  </way>
  <way id="19359563" version="10" timestamp="2011-09-30T05:29:59Z" uid="103574" user="El Segundo can&apos;t win" changeset="9432464">
    <nd ref="21590247"/>
    <nd ref="200934539"/>
    <nd ref="771228254"/>
    <nd ref="21590248"/>
    <nd ref="771228255"/>
    <nd ref="21590249"/>
    <nd ref="771228256"/>
    <nd ref="21590250"/>
    <nd ref="771228257"/>
    <nd ref="369939975"/>
    <nd ref="771228259"/>
    <nd ref="369939976"/>
    <nd ref="369939977"/>
    <tag k="highway" v="motorway"/>
    <tag k="lanes" v="2"/>
    <tag k="layer" v="1"/>
    <tag k="name" v="Inner City Bypass"/>
    <tag k="oneway" v="yes"/>
  </way>
  <way id="19359574" version="5" timestamp="2010-02-14T17:16:35Z" uid="74617" user="JohnSmith" changeset="3875836">
    <nd ref="21590245"/>
    <nd ref="21590246"/>
    <nd ref="451348879"/>
    <nd ref="21590247"/>
    <tag k="abutters" v="mixed"/>
    <tag k="bridge" v="yes"/>
    <tag k="highway" v="motorway"/>
    <tag k="layer" v="1"/>
    <tag k="name" v="Inner City Bypass"/>
    <tag k="oneway" v="yes"/>
  </way>
  <way id="19359574" version="6" timestamp="2010-06-13T10:49:56Z" uid="114230" user="danerikk" changeset="4976998">
    <nd ref="21590245"/>
    <nd ref="771228476"/>
    <nd ref="771228477"/>
    <nd ref="21590246"/>
    <nd ref="771228478"/>
    <nd ref="451348879"/>
    <nd ref="21590247"/>
    <tag k="abutters" v="mixed"/>
    <tag k="bridge" v="yes"/>
    <tag k="highway" v="motorway"/>
    <tag k="layer" v="1"/>
    <tag k="name" v="Inner City Bypass"/>
    <tag k="oneway" v="yes"/>
  </way>
  <way id="19359574" version="7" timestamp="2011-09-30T05:30:00Z" uid="103574" user="El Segundo can&apos;t win" changeset="9432464">
    <nd ref="21590245"/>
    <nd ref="771228476"/>
    <nd ref="771228477"/>
    <nd ref="21590246"/>
    <nd ref="771228478"/>
    <nd ref="451348879"/>
    <nd ref="21590247"/>
    <tag k="bridge" v="yes"/>
    <tag k="highway" v="motorway"/>
    <tag k="layer" v="1"/>
    <tag k="name" v="Inner City Bypass"/>
    <tag k="oneway" v="yes"/>
  </way>
  <way id="19359592" version="4" timestamp="2010-02-14T17:16:46Z" uid="74617" user="JohnSmith" changeset="3875836">
    <nd ref="200935937"/>
    <nd ref="200940627"/>
    <nd ref="200940629"/>
    <nd ref="152634458"/>
    <tag k="highway" v="motorway"/>
    <tag k="name" v="Inner City Bypass"/>
    <tag k="oneway" v="yes"/>
  </way>
  <way id="19359592" version="5" timestamp="2010-06-13T11:01:46Z" uid="114230" user="danerikk" changeset="4976998">
    <nd ref="200935937"/>
    <nd ref="200940627"/>
    <nd ref="200940629"/>
    <nd ref="771233179"/>
    <nd ref="152634458"/>
    <tag k="highway" v="motorway"/>
    <tag k="name" v="Inner City Bypass"/>
    <tag k="oneway" v="yes"/>
  </way>
  <way id="19359629" version="3" timestamp="2010-02-14T17:16:45Z" uid="74617" user="JohnSmith" changeset="3875836">
    <nd ref="21590243"/>
    <nd ref="200942581"/>
    <nd ref="21590244"/>
    <tag k="abutters" v="mixed"/>
    <tag k="bridge" v="yes"/>
    <tag k="highway" v="motorway"/>
    <tag k="layer" v="1"/>
    <tag k="name" v="Inner City Bypass"/>
    <tag k="oneway" v="yes"/>
  </way>
  <way id="19359629" version="4" timestamp="2010-06-13T11:01:04Z" uid="114230" user="danerikk" changeset="4976998">
    <nd ref="21590243"/>
    <nd ref="200942581"/>
    <nd ref="771233010"/>
    <nd ref="771233011"/>
    <nd ref="21590244"/>
    <tag k="abutters" v="mixed"/>
    <tag k="bridge" v="yes"/>
    <tag k="highway" v="motorway"/>
    <tag k="layer" v="1"/>
    <tag k="name" v="Inner City Bypass"/>
    <tag k="oneway" v="yes"/>
  </way>
  <way id="19359629" version="5" timestamp="2011-09-30T05:30:00Z" uid="103574" user="El Segundo can&apos;t win" changeset="9432464">
    <nd ref="21590243"/>
    <nd ref="200942581"/>
    <nd ref="771233010"/>
    <nd ref="771233011"/>
    <nd ref="21590244"/>
    <tag k="bridge" v="yes"/>
    <tag k="highway" v="motorway"/>
    <tag k="layer" v="1"/>
    <tag k="name" v="Inner City Bypass"/>
    <tag k="oneway" v="yes"/>
  </way>
  <way id="19359671" version="4" timestamp="2010-02-14T17:16:45Z" uid="74617" user="JohnSmith" changeset="3875836">
    <nd ref="21590244"/>
    <nd ref="200942583"/>
    <nd ref="200942584"/>
    <nd ref="21590245"/>
    <tag k="abutters" v="mixed"/>
    <tag k="highway" v="motorway"/>
    <tag k="name" v="Inner City Bypass"/>
    <tag k="oneway" v="yes"/>
  </way>
  <way id="19359671" version="5" timestamp="2010-06-13T11:01:29Z" uid="114230" user="danerikk" changeset="4976998">
    <nd ref="21590244"/>
    <nd ref="771233015"/>
    <nd ref="771233016"/>
    <nd ref="200942583"/>
    <nd ref="200942584"/>
    <nd ref="21590245"/>
    <tag k="abutters" v="mixed"/>
    <tag k="highway" v="motorway"/>
    <tag k="name" v="Inner City Bypass"/>
    <tag k="oneway" v="yes"/>
  </way>
  <way id="19359671" version="6" timestamp="2011-09-30T05:30:00Z" uid="103574" user="El Segundo can&apos;t win" changeset="9432464">
    <nd ref="21590244"/>
    <nd ref="771233015"/>
    <nd ref="771233016"/>
    <nd ref="200942583"/>
    <nd ref="200942584"/>
    <nd ref="21590245"/>
    <tag k="highway" v="motorway"/>
    <tag k="name" v="Inner City Bypass"/>
    <tag k="oneway" v="yes"/>
  </way>
  <way id="19359685" version="4" timestamp="2010-02-14T17:17:09Z" uid="74617" user="JohnSmith" changeset="3875836">
    <nd ref="201273130"/>
    <nd ref="201214373"/>
    <nd ref="201242302"/>
    <tag k="highway" v="residential"/>
    <tag k="maxspeed" v="50"/>
    <tag k="name" v="Ellis Street"/>
  </way>
  <way id="19359685" version="5" timestamp="2012-01-15T20:04:28Z" uid="147510" user="woodpeck_fixbot" changeset="10400850">
    <nd ref="201273130"/>
    <nd ref="201214373"/>
    <nd ref="201242302"/>
    <tag k="highway" v="residential"/>
    <tag k="name" v="Ellis Street"/>
  </way>
  <way id="19359695" version="3" timestamp="2010-02-14T17:16:44Z" uid="74617" user="JohnSmith" changeset="3875836">
    <nd ref="152634458"/>
    <nd ref="200940630"/>
    <nd ref="152634459"/>
    <tag k="bridge" v="yes"/>
    <tag k="highway" v="motorway"/>
    <tag k="layer" v="1"/>
    <tag k="name" v="Inner City Bypass"/>
    <tag k="oneway" v="yes"/>
  </way>
  <way id="19359695" version="4" timestamp="2010-06-13T11:03:42Z" uid="114230" user="danerikk" changeset="4976998">
    <nd ref="152634458"/>
    <nd ref="771233263"/>
    <nd ref="200940630"/>
    <nd ref="152634459"/>
    <tag k="bridge" v="yes"/>
    <tag k="highway" v="motorway"/>
    <tag k="layer" v="1"/>
    <tag k="name" v="Inner City Bypass"/>
    <tag k="oneway" v="yes"/>
  </way>
  <way id="19359722" version="5" timestamp="2010-02-14T17:16:45Z" uid="74617" user="JohnSmith" changeset="3875836">
    <nd ref="152634459"/>
    <nd ref="451722159"/>
    <tag k="highway" v="motorway"/>
    <tag k="name" v="Inner City Bypass"/>
    <tag k="oneway" v="yes"/>
  </way>
  <way id="19359747" version="7" timestamp="2010-02-14T17:17:03Z" uid="74617" user="JohnSmith" changeset="3875836">
    <nd ref="318843997"/>
    <nd ref="201239619"/>
    <nd ref="318625442"/>
    <nd ref="201243300"/>
    <nd ref="201243301"/>
    <nd ref="318843960"/>
    <nd ref="201243303"/>
    <tag k="highway" v="residential"/>
    <tag k="maxspeed" v="50"/>
    <tag k="name" v="Mackellar Street"/>
  </way>
  <way id="19359747" version="8" timestamp="2012-01-15T20:04:29Z" uid="147510" user="woodpeck_fixbot" changeset="10400850">
    <nd ref="318843997"/>
    <nd ref="201239619"/>
    <nd ref="318625442"/>
    <nd ref="201243300"/>
    <nd ref="201243301"/>
    <nd ref="318843960"/>
    <nd ref="201243303"/>
    <tag k="highway" v="residential"/>
    <tag k="name" v="Mackellar Street"/>
  </way>
  <way id="19359752" version="2" timestamp="2009-10-12T21:49:15Z" uid="36809" user="pfoten_weg_!_" changeset="2831247">
    <nd ref="201243384"/>
    <nd ref="201243385"/>
    <nd ref="201243386"/>
    <nd ref="201243387"/>
    <nd ref="201243389"/>
    <tag k="highway" v="residential"/>
  </way>
  <way id="19359781" version="6" timestamp="2009-10-12T21:49:25Z" uid="36809" user="pfoten_weg_!_" changeset="2831247">
    <nd ref="8699362"/>
    <nd ref="206102852"/>
    <nd ref="201243874"/>
    <nd ref="206102712"/>
    <nd ref="279249510"/>
    <nd ref="201243876"/>
    <nd ref="201243877"/>
    <nd ref="201243878"/>
    <nd ref="201243880"/>
    <nd ref="201243881"/>
    <tag k="highway" v="residential"/>
    <tag k="name" v="Oßwaldstraße"/>
  </way>
  <way id="19359839" version="5" timestamp="2009-10-12T21:49:26Z" uid="36809" user="pfoten_weg_!_" changeset="2831247">
    <nd ref="201244841"/>
    <nd ref="201244843"/>
    <nd ref="201243881"/>
    <nd ref="201244844"/>
    <nd ref="201244846"/>
    <nd ref="201244847"/>
    <tag k="highway" v="residential"/>
    <tag k="name" v="Zeppelinpromenade"/>
  </way>
  <way id="19359839" version="6" timestamp="2010-07-18T07:21:41Z" uid="42393" user="mawi42" changeset="5248425">
    <nd ref="201244841"/>
    <nd ref="201244843"/>
    <nd ref="201243881"/>
    <nd ref="201244844"/>
    <nd ref="201244846"/>
    <nd ref="201244847"/>
    <nd ref="201244848"/>
    <tag k="highway" v="residential"/>
    <tag k="name" v="Zeppelinpromenade"/>
  </way>
  <way id="19359839" version="7" timestamp="2011-09-23T11:12:58Z" uid="482628" user="gumul" changeset="9375725">
    <nd ref="201244841"/>
    <nd ref="201244843"/>
    <nd ref="201243881"/>
    <tag k="highway" v="residential"/>
    <tag k="name" v="Zeppelinpromenade"/>
  </way>
  <way id="19359848" version="5" timestamp="2010-02-14T17:17:03Z" uid="74617" user="JohnSmith" changeset="3875836">
    <nd ref="201239614"/>
    <nd ref="201245008"/>
    <nd ref="201245009"/>
    <tag k="highway" v="residential"/>
    <tag k="maxspeed" v="50"/>
    <tag k="name" v="Mole Street"/>
  </way>
  <way id="19359848" version="6" timestamp="2012-01-15T20:04:30Z" uid="147510" user="woodpeck_fixbot" changeset="10400850">
    <nd ref="201239614"/>
    <nd ref="201245008"/>
    <nd ref="201245009"/>
    <tag k="highway" v="residential"/>
    <tag k="name" v="Mole Street"/>
  </way>
  <way id="19359919" version="10" timestamp="2009-10-12T21:49:26Z" uid="36809" user="pfoten_weg_!_" changeset="2831247">
    <nd ref="201244844"/>
    <nd ref="201245971"/>
    <nd ref="201245972"/>
    <nd ref="304770536"/>
    <nd ref="206102406"/>
    <nd ref="201245973"/>
    <nd ref="206102154"/>
    <nd ref="206102155"/>
    <nd ref="201245974"/>
    <nd ref="201245975"/>
    <nd ref="206102156"/>
    <nd ref="201245977"/>
    <nd ref="206102157"/>
    <nd ref="201245978"/>
    <nd ref="206102158"/>
    <nd ref="201245979"/>
    <nd ref="206102177"/>
    <nd ref="206102159"/>
    <nd ref="201245980"/>
    <nd ref="201245981"/>
    <nd ref="201245982"/>
    <nd ref="201245983"/>
    <nd ref="304770547"/>
    <nd ref="201245985"/>
    <nd ref="201245987"/>
    <nd ref="201245988"/>
    <nd ref="201245990"/>
    <tag k="highway" v="residential"/>
    <tag k="name" v="Prinz-Karl-Straße"/>
  </way>
  <way id="19359079" version="8" timestamp="2012-07-17T11:09:07Z" uid="537104" user="Club80" changeset="12263789">
    <nd ref="1828436196"/>
    <nd ref="1828436197"/>
    <nd ref="1015084813"/>
    <nd ref="304770501"/>
    <nd ref="304770487"/>
    <nd ref="304770500"/>
    <nd ref="304770499"/>
    <nd ref="304770498"/>
    <nd ref="304770497"/>
    <nd ref="304770494"/>
    <nd ref="304770492"/>
    <nd ref="304770489"/>
    <nd ref="307927021"/>
    <nd ref="201233990"/>
    <tag k="highway" v="residential"/>
    <tag k="name" v="Vogelanger"/>
    <tag k="surface" v="unpaved"/>
  </way>
  <way id="19359227" version="5" timestamp="2012-04-19T09:14:03Z" uid="165" user="Richard" changeset="11351883"/>
  <way id="19359342" version="13" timestamp="2012-05-07T20:22:40Z" uid="382934" user="NepoMUC69" changeset="11533382">
    <nd ref="1014840267"/>
    <nd ref="307927018"/>
    <nd ref="1236655696"/>
    <nd ref="1236655682"/>
    <nd ref="307927017"/>
    <nd ref="1014840046"/>
    <nd ref="1014840653"/>
    <nd ref="307927016"/>
    <nd ref="1014840802"/>
    <nd ref="1446820337"/>
    <nd ref="1744682086"/>
    <nd ref="1446820336"/>
    <nd ref="1014865913"/>
    <nd ref="1014866100"/>
    <nd ref="1015130020"/>
    <nd ref="1014761890"/>
    <nd ref="1014865850"/>
    <nd ref="1015130426"/>
    <nd ref="201237343"/>
    <nd ref="1014866094"/>
    <nd ref="1014761848"/>
    <nd ref="1014840138"/>
    <nd ref="1446815582"/>
    <nd ref="1014840267"/>
    <tag k="highway" v="pedestrian"/>
    <tag k="name" v="Kirchplatz"/>
    <tag k="surface" v="paving_stones"/>
  </way>
  <way id="19359342" version="14" timestamp="2012-07-25T11:52:30Z" uid="51782" user="maxbe" changeset="12485849">
    <nd ref="1014840267"/>
    <nd ref="307927018"/>
    <nd ref="1236655696"/>
    <nd ref="1236655682"/>
    <nd ref="307927017"/>
    <nd ref="1014840046"/>
    <nd ref="1014840653"/>
    <nd ref="307927016"/>
    <nd ref="1014840802"/>
    <nd ref="1446820337"/>
    <nd ref="1446820336"/>
    <nd ref="1014865913"/>
    <nd ref="1014866100"/>
    <nd ref="1015130020"/>
    <nd ref="1014761890"/>
    <nd ref="1014865850"/>
    <nd ref="1015130426"/>
    <nd ref="201237343"/>
    <nd ref="1014866094"/>
    <nd ref="1014761848"/>
    <nd ref="1014840138"/>
    <nd ref="1446815582"/>
    <nd ref="1014840267"/>
    <tag k="highway" v="pedestrian"/>
    <tag k="name" v="Kirchplatz"/>
    <tag k="surface" v="paving_stones"/>
  </way>
  <way id="19359508" version="5" timestamp="2012-06-27T04:39:18Z" uid="290723" user="sulagaloh" changeset="12032787">
    <nd ref="163126820"/>
    <nd ref="201239538"/>
    <nd ref="1803566416"/>
    <nd ref="201239539"/>
    <nd ref="201239540"/>
    <tag k="highway" v="residential"/>
    <tag k="name" v="Hirschangerstraße"/>
  </way>
  <way id="19359528" version="7" timestamp="2012-09-04T02:13:57Z" uid="200557" user="Bushoi" changeset="12975885">
    <nd ref="152634457"/>
    <nd ref="771229087"/>
    <nd ref="771229089"/>
    <nd ref="200935082"/>
    <nd ref="771229094"/>
    <nd ref="771233250"/>
    <nd ref="200935937"/>
    <tag k="bridge" v="yes"/>
    <tag k="highway" v="motorway"/>
    <tag k="lanes" v="2"/>
    <tag k="layer" v="1"/>
    <tag k="name" v="Inner City Bypass"/>
    <tag k="oneway" v="yes"/>
  </way>
  <way id="19359551" version="6" timestamp="2012-07-18T05:55:27Z" uid="722137" user="OSMF Redaction Account" changeset="12274874">
    <nd ref="201240898"/>
    <nd ref="201240303"/>
    <nd ref="201240305"/>
    <nd ref="201240306"/>
    <tag k="highway" v="residential"/>
    <tag k="name" v="Giselastraße"/>
  </way>
  <way id="19359574" version="8" timestamp="2012-09-04T02:13:57Z" uid="200557" user="Bushoi" changeset="12975885">
    <nd ref="21590245"/>
    <nd ref="771228476"/>
    <nd ref="771228477"/>
    <nd ref="21590246"/>
    <nd ref="771228478"/>
    <nd ref="21590247"/>
    <tag k="bridge" v="yes"/>
    <tag k="highway" v="motorway"/>
    <tag k="lanes" v="2"/>
    <tag k="layer" v="1"/>
    <tag k="name" v="Inner City Bypass"/>
    <tag k="oneway" v="yes"/>
  </way>
  <way id="19359592" version="6" timestamp="2012-09-04T02:13:58Z" uid="200557" user="Bushoi" changeset="12975885">
    <nd ref="200935937"/>
    <nd ref="200940627"/>
    <nd ref="200940629"/>
    <nd ref="771233179"/>
    <nd ref="152634458"/>
    <tag k="highway" v="motorway"/>
    <tag k="lanes" v="2"/>
    <tag k="name" v="Inner City Bypass"/>
    <tag k="oneway" v="yes"/>
  </way>
  <way id="19359629" version="6" timestamp="2012-09-04T02:13:58Z" uid="200557" user="Bushoi" changeset="12975885">
    <nd ref="21590243"/>
    <nd ref="200942581"/>
    <nd ref="771233010"/>
    <nd ref="771233011"/>
    <nd ref="21590244"/>
    <tag k="bridge" v="yes"/>
    <tag k="highway" v="motorway"/>
    <tag k="lanes" v="2"/>
    <tag k="layer" v="1"/>
    <tag k="name" v="Inner City Bypass"/>
    <tag k="oneway" v="yes"/>
  </way>
  <way id="19359671" version="7" timestamp="2012-09-04T02:13:59Z" uid="200557" user="Bushoi" changeset="12975885">
    <nd ref="21590244"/>
    <nd ref="771233015"/>
    <nd ref="771233016"/>
    <nd ref="200942583"/>
    <nd ref="200942584"/>
    <nd ref="21590245"/>
    <tag k="highway" v="motorway"/>
    <tag k="lanes" v="2"/>
    <tag k="name" v="Inner City Bypass"/>
    <tag k="oneway" v="yes"/>
  </way>
  <way id="19359695" version="5" timestamp="2012-09-04T02:13:59Z" uid="200557" user="Bushoi" changeset="12975885">
    <nd ref="152634458"/>
    <nd ref="771233263"/>
    <nd ref="200940630"/>
    <nd ref="152634459"/>
    <tag k="bridge" v="yes"/>
    <tag k="highway" v="motorway"/>
    <tag k="lanes" v="2"/>
    <tag k="layer" v="1"/>
    <tag k="name" v="Inner City Bypass"/>
    <tag k="oneway" v="yes"/>
  </way>
  <way id="19359839" version="8" timestamp="2012-06-26T21:30:21Z" uid="378328" user="krz9000" changeset="12031205">
    <nd ref="201244841"/>
    <nd ref="1803287726"/>
    <nd ref="201244843"/>
    <nd ref="201243881"/>
    <tag k="highway" v="residential"/>
    <tag k="name" v="Zeppelinpromenade"/>
  </way>
</osm>
