<?xml version='1.0' encoding='UTF-8'?>
<osm version="0.6" generator="libosmium/2.20.0">
  <way id="19392182" version="5" timestamp="2009-10-21T23:00:29Z" uid="36809" user="pfoten_weg_!_" changeset="2917503">
    <nd ref="201649197"/>
    <nd ref="88405536"/>
    <nd ref="88411132"/>
    <nd ref="201651533"/>
    <nd ref="201651534"/>
    <nd ref="322010008"/>
    <nd ref="201666842"/>
    <tag k="highway" v="residential"/>
    <tag k="name" v="Parkstraße"/>
  </way>
  <way id="19392182" version="6" timestamp="2010-09-17T09:12:14Z" uid="85609" user="AndiFr" changeset="5801953">
    <nd ref="201649197"/>
    <nd ref="88405536"/>
    <nd ref="88411132"/>
    <nd ref="201651533"/>
    <nd ref="201651534"/>
    <nd ref="322010008"/>
    <nd ref="201666842"/>
    <tag k="highway" v="residential"/>
    <tag k="maxspeed" v="30"/>
    <tag k="name" v="Parkstraße"/>
  </way>
  <way id="19392182" version="7" timestamp="2012-03-09T16:26:46Z" uid="11374" user="q_un_go" changeset="10921982"/>
  <way id="19392555" version="6" timestamp="2009-10-21T22:58:05Z" uid="36809" user="pfoten_weg_!_" changeset="2917503">
    <nd ref="201672249"/>
    <nd ref="201641008"/>
    <nd ref="201641009"/>
    <nd ref="201641012"/>
    <nd ref="322009969"/>
    <nd ref="270853103"/>
    <tag k="highway" v="residential"/>
    <tag k="name" v="Schmiedstraße"/>
  </way>
  <way id="19392555" version="7" timestamp="2010-08-14T16:57:45Z" uid="85609" user="AndiFr" changeset="5492508">
    <nd ref="201672249"/>
    <nd ref="201641008"/>
    <nd ref="201641009"/>
    <nd ref="201641012"/>
    <nd ref="322009969"/>
    <nd ref="270853103"/>
    <tag k="highway" v="residential"/>
    <tag k="maxspeed" v="30"/>
    <tag k="motor_vehicle" v="destination"/>
    <tag k="name" v="Schmiedstraße"/>
    <tag k="zone:maxspeed" v="DE:30"/>
  </way>
  <way id="19392555" version="8" timestamp="2010-09-13T09:10:45Z" uid="104779" user="ABRob" changeset="5767671">
    <nd ref="201672249"/>
    <nd ref="201641008"/>
    <nd ref="201641009"/>
    <nd ref="201641012"/>
    <nd ref="322009969"/>
    <nd ref="270853103"/>
    <tag k="highway" v="residential"/>
    <tag k="maxspeed" v="30"/>
    <tag k="motor_vehicle" v="destination"/>
    <tag k="name" v="Schmiedstraße"/>
    <tag k="zone:maxspeed" v="DE:30"/>
    <tag k="zone:traffic" v="DE:urban"/>
  </way>
  <way id="19392555" version="9" timestamp="2012-03-09T16:26:47Z" uid="11374" user="q_un_go" changeset="10921982"/>
</osm>
