<?xml version='1.0' encoding='UTF-8'?>
<osm version="0.6" generator="libosmium/2.20.0">
  <way id="19455064" version="1" timestamp="2008-01-02T02:20:53Z" uid="7617" user="Franc" changeset="508648">
    <nd ref="30151603"/>
    <nd ref="30151479"/>
    <tag k="created_by" v="JOSM"/>
    <tag k="highway" v="pedestrian"/>
    <tag k="name" v="Clemton Place"/>
  </way>
  <way id="19455064" version="2" timestamp="2012-03-08T05:57:02Z" uid="7523" user="inas" changeset="10906275">
    <nd ref="30151603"/>
    <nd ref="30151479"/>
    <tag k="highway" v="pedestrian"/>
    <tag k="name" v="Clemton Place"/>
  </way>
  <way id="19455110" version="6" timestamp="2010-07-06T09:48:29Z" uid="74617" user="JohnSmith" changeset="5147679">
    <nd ref="170918157"/>
    <nd ref="428992568"/>
    <nd ref="202297913"/>
    <tag k="highway" v="residential"/>
    <tag k="maxspeed" v="50"/>
    <tag k="maxspeed:source" v="default residential speed limit in Australia"/>
    <tag k="name" v="Princess Street"/>
    <tag k="source" v="GPS"/>
    <tag k="surface" v="asphalt"/>
  </way>
  <way id="19455110" version="7" timestamp="2012-01-15T20:07:59Z" uid="147510" user="woodpeck_fixbot" changeset="10400850">
    <nd ref="170918157"/>
    <nd ref="428992568"/>
    <nd ref="202297913"/>
    <tag k="highway" v="residential"/>
    <tag k="name" v="Princess Street"/>
    <tag k="source" v="GPS"/>
    <tag k="surface" v="asphalt"/>
  </way>
  <way id="19455064" version="3" timestamp="2012-07-20T08:37:37Z" uid="722137" user="OSMF Redaction Account" changeset="12368562"/>
</osm>
