<?xml version='1.0' encoding='UTF-8'?>
<osm version="0.6" generator="libosmium/2.20.0">
  <way id="19452080" version="6" timestamp="2010-07-06T09:50:25Z" uid="74617" user="JohnSmith" changeset="5147679">
    <nd ref="170922362"/>
    <nd ref="202274425"/>
    <nd ref="202274427"/>
    <nd ref="202273798"/>
    <tag k="highway" v="residential"/>
    <tag k="maxspeed" v="50"/>
    <tag k="maxspeed:source" v="default residential speed limit in Australia"/>
    <tag k="name" v="Parry Street"/>
    <tag k="source" v="GPS"/>
    <tag k="surface" v="asphalt"/>
  </way>
  <way id="19452080" version="7" timestamp="2012-01-15T20:07:52Z" uid="147510" user="woodpeck_fixbot" changeset="10400850">
    <nd ref="170922362"/>
    <nd ref="202274425"/>
    <nd ref="202274427"/>
    <nd ref="202273798"/>
    <tag k="highway" v="residential"/>
    <tag k="name" v="Parry Street"/>
    <tag k="source" v="GPS"/>
    <tag k="surface" v="asphalt"/>
  </way>
  <way id="19452230" version="4" timestamp="2010-07-06T09:50:53Z" uid="74617" user="JohnSmith" changeset="5147679">
    <nd ref="202273799"/>
    <nd ref="202275807"/>
    <tag k="highway" v="residential"/>
    <tag k="maxspeed" v="50"/>
    <tag k="maxspeed:source" v="default residential speed limit in Australia"/>
    <tag k="name" v="Nuttall Street"/>
    <tag k="source" v="GPS"/>
    <tag k="surface" v="asphalt"/>
  </way>
  <way id="19452230" version="5" timestamp="2012-01-15T20:07:53Z" uid="147510" user="woodpeck_fixbot" changeset="10400850">
    <nd ref="202273799"/>
    <nd ref="202275807"/>
    <tag k="highway" v="residential"/>
    <tag k="name" v="Nuttall Street"/>
    <tag k="source" v="GPS"/>
    <tag k="surface" v="asphalt"/>
  </way>
  <way id="19452780" version="5" timestamp="2010-07-06T09:48:43Z" uid="74617" user="JohnSmith" changeset="5147679">
    <nd ref="170918159"/>
    <nd ref="202279823"/>
    <nd ref="202279826"/>
    <nd ref="170916891"/>
    <tag k="highway" v="residential"/>
    <tag k="maxspeed" v="50"/>
    <tag k="maxspeed:source" v="default residential speed limit in Australia"/>
    <tag k="name" v="Tennyson Street"/>
    <tag k="source" v="GPS"/>
    <tag k="surface" v="asphalt"/>
  </way>
  <way id="19452780" version="6" timestamp="2012-01-15T20:07:54Z" uid="147510" user="woodpeck_fixbot" changeset="10400850">
    <nd ref="170918159"/>
    <nd ref="202279823"/>
    <nd ref="202279826"/>
    <nd ref="170916891"/>
    <tag k="highway" v="residential"/>
    <tag k="name" v="Tennyson Street"/>
    <tag k="source" v="GPS"/>
    <tag k="surface" v="asphalt"/>
  </way>
  <way id="19452821" version="10" timestamp="2010-07-06T09:51:33Z" uid="74617" user="JohnSmith" changeset="5147679">
    <nd ref="170875741"/>
    <nd ref="779007222"/>
    <nd ref="170875742"/>
    <nd ref="170918161"/>
    <tag k="highway" v="residential"/>
    <tag k="maxspeed" v="50"/>
    <tag k="maxspeed:source" v="default residential speed limit in Australia"/>
    <tag k="name" v="Pine Street"/>
    <tag k="source" v="GPS"/>
    <tag k="surface" v="asphalt"/>
  </way>
  <way id="19452821" version="11" timestamp="2011-11-09T07:36:42Z" uid="22094" user="Chadzopkyo" changeset="9779207">
    <nd ref="170875741"/>
    <nd ref="779007222"/>
    <nd ref="170875742"/>
    <nd ref="1496121422"/>
    <nd ref="170918161"/>
    <tag k="highway" v="residential"/>
    <tag k="maxspeed" v="50"/>
    <tag k="maxspeed:source" v="default residential speed limit in Australia"/>
    <tag k="name" v="Pine Street"/>
    <tag k="source" v="GPS"/>
    <tag k="surface" v="asphalt"/>
  </way>
  <way id="19452821" version="12" timestamp="2012-01-15T20:07:55Z" uid="147510" user="woodpeck_fixbot" changeset="10400850">
    <nd ref="170875741"/>
    <nd ref="779007222"/>
    <nd ref="170875742"/>
    <nd ref="1496121422"/>
    <nd ref="170918161"/>
    <tag k="highway" v="residential"/>
    <tag k="name" v="Pine Street"/>
    <tag k="source" v="GPS"/>
    <tag k="surface" v="asphalt"/>
  </way>
  <way id="19452901" version="5" timestamp="2010-07-06T09:53:04Z" uid="74617" user="JohnSmith" changeset="5147679">
    <nd ref="202279823"/>
    <nd ref="170910780"/>
    <tag k="highway" v="residential"/>
    <tag k="maxspeed" v="50"/>
    <tag k="maxspeed:source" v="default residential speed limit in Australia"/>
    <tag k="name" v="Wordsworth Street"/>
    <tag k="source" v="GPS"/>
    <tag k="surface" v="asphalt"/>
  </way>
  <way id="19452901" version="6" timestamp="2012-01-15T20:07:56Z" uid="147510" user="woodpeck_fixbot" changeset="10400850">
    <nd ref="202279823"/>
    <nd ref="170910780"/>
    <tag k="highway" v="residential"/>
    <tag k="name" v="Wordsworth Street"/>
    <tag k="source" v="GPS"/>
    <tag k="surface" v="asphalt"/>
  </way>
  <way id="19452953" version="5" timestamp="2010-07-06T09:52:12Z" uid="74617" user="JohnSmith" changeset="5147679">
    <nd ref="202279826"/>
    <nd ref="202281353"/>
    <nd ref="202281355"/>
    <nd ref="170910782"/>
    <tag k="highway" v="residential"/>
    <tag k="maxspeed" v="50"/>
    <tag k="maxspeed:source" v="default residential speed limit in Australia"/>
    <tag k="name" v="Shakespeare Street"/>
    <tag k="source" v="GPS"/>
    <tag k="surface" v="asphalt"/>
  </way>
  <way id="19452953" version="6" timestamp="2012-01-15T20:07:57Z" uid="147510" user="woodpeck_fixbot" changeset="10400850">
    <nd ref="202279826"/>
    <nd ref="202281353"/>
    <nd ref="202281355"/>
    <nd ref="170910782"/>
    <tag k="highway" v="residential"/>
    <tag k="name" v="Shakespeare Street"/>
    <tag k="source" v="GPS"/>
    <tag k="surface" v="asphalt"/>
  </way>
</osm>
