<?xml version='1.0' encoding='UTF-8'?>
<osm version="0.6" generator="libosmium/2.20.0">
  <way id="19569275" version="2" timestamp="2010-02-14T17:17:12Z" uid="74617" user="JohnSmith" changeset="3875836">
    <nd ref="203237599"/>
    <nd ref="203237738"/>
    <tag k="highway" v="footway"/>
  </way>
  <way id="19569281" version="2" timestamp="2010-02-14T17:17:12Z" uid="74617" user="JohnSmith" changeset="3875836">
    <nd ref="26336344"/>
    <nd ref="203236624"/>
    <nd ref="203237533"/>
    <nd ref="203237438"/>
    <nd ref="203237644"/>
    <tag k="highway" v="footway"/>
    <tag k="name" v="Abercrombie Street"/>
  </way>
  <way id="19569305" version="2" timestamp="2010-02-14T17:17:08Z" uid="74617" user="JohnSmith" changeset="3875836">
    <nd ref="201294786"/>
    <nd ref="201294787"/>
    <nd ref="201294788"/>
    <nd ref="201294790"/>
    <nd ref="201294792"/>
    <nd ref="201283573"/>
    <tag k="highway" v="residential"/>
    <tag k="maxspeed" v="50"/>
    <tag k="name" v="Kingsholme Street"/>
    <tag k="oneway" v="yes"/>
  </way>
  <way id="19569305" version="3" timestamp="2012-01-15T20:09:39Z" uid="147510" user="woodpeck_fixbot" changeset="10400850">
    <nd ref="201294786"/>
    <nd ref="201294787"/>
    <nd ref="201294788"/>
    <nd ref="201294790"/>
    <nd ref="201294792"/>
    <nd ref="201283573"/>
    <tag k="highway" v="residential"/>
    <tag k="name" v="Kingsholme Street"/>
    <tag k="oneway" v="yes"/>
  </way>
  <way id="19569323" version="2" timestamp="2010-02-14T17:17:12Z" uid="74617" user="JohnSmith" changeset="3875836">
    <nd ref="203237702"/>
    <nd ref="201250600"/>
    <tag k="highway" v="steps"/>
  </way>
  <way id="19569335" version="3" timestamp="2010-02-14T17:13:26Z" uid="74617" user="JohnSmith" changeset="3875836">
    <nd ref="26336806"/>
    <nd ref="26336888"/>
    <nd ref="344809371"/>
    <nd ref="26336804"/>
    <nd ref="344809372"/>
    <nd ref="26336805"/>
    <nd ref="344809166"/>
    <nd ref="26336589"/>
    <tag k="highway" v="unclassified"/>
    <tag k="maxspeed" v="50"/>
    <tag k="name" v="Newstead Terrace"/>
  </way>
  <way id="19569335" version="4" timestamp="2010-03-29T10:32:42Z" uid="84644" user="Ash Kyd" changeset="4266060">
    <nd ref="26336806"/>
    <nd ref="26336888"/>
    <nd ref="344809371"/>
    <nd ref="26336804"/>
    <nd ref="344809372"/>
    <nd ref="26336805"/>
    <nd ref="344809166"/>
    <tag k="highway" v="unclassified"/>
    <tag k="maxspeed" v="50"/>
    <tag k="name" v="Newstead Terrace"/>
  </way>
  <way id="19569335" version="5" timestamp="2010-11-20T10:12:04Z" uid="211951" user="Dr Paul Martin" changeset="6412795">
    <nd ref="26336806"/>
    <nd ref="26336888"/>
    <nd ref="344809371"/>
    <nd ref="26336804"/>
    <nd ref="344809372"/>
    <nd ref="26336805"/>
    <nd ref="344809166"/>
    <tag k="highway" v="unclassified"/>
    <tag k="lcn" v="yes"/>
    <tag k="maxspeed" v="50"/>
    <tag k="name" v="Newstead Terrace"/>
  </way>
  <way id="19569335" version="6" timestamp="2011-06-16T06:02:16Z" uid="22094" user="Chadzopkyo" changeset="8453140">
    <nd ref="26336806"/>
    <nd ref="1327126790"/>
    <nd ref="26336888"/>
    <nd ref="344809371"/>
    <nd ref="26336804"/>
    <nd ref="344809372"/>
    <nd ref="26336805"/>
    <nd ref="344809166"/>
    <tag k="highway" v="unclassified"/>
    <tag k="lcn" v="yes"/>
    <tag k="maxspeed" v="50"/>
    <tag k="name" v="Newstead Terrace"/>
  </way>
  <way id="19569335" version="7" timestamp="2012-01-15T20:09:40Z" uid="147510" user="woodpeck_fixbot" changeset="10400850">
    <nd ref="26336806"/>
    <nd ref="1327126790"/>
    <nd ref="26336888"/>
    <nd ref="344809371"/>
    <nd ref="26336804"/>
    <nd ref="344809372"/>
    <nd ref="26336805"/>
    <nd ref="344809166"/>
    <tag k="highway" v="unclassified"/>
    <tag k="lcn" v="yes"/>
    <tag k="name" v="Newstead Terrace"/>
  </way>
  <way id="19569341" version="2" timestamp="2010-07-06T09:52:59Z" uid="74617" user="JohnSmith" changeset="5147679">
    <nd ref="198322190"/>
    <nd ref="198326524"/>
    <nd ref="198326523"/>
    <tag k="highway" v="residential"/>
    <tag k="maxspeed" v="50"/>
    <tag k="maxspeed:source" v="default residential speed limit in Australia"/>
    <tag k="name" v="Lynell Street"/>
  </way>
  <way id="19569341" version="3" timestamp="2012-01-15T20:09:42Z" uid="147510" user="woodpeck_fixbot" changeset="10400850">
    <nd ref="198322190"/>
    <nd ref="198326524"/>
    <nd ref="198326523"/>
    <tag k="highway" v="residential"/>
    <tag k="name" v="Lynell Street"/>
  </way>
  <way id="19569350" version="2" timestamp="2010-02-14T17:17:12Z" uid="74617" user="JohnSmith" changeset="3875836">
    <nd ref="203237599"/>
    <nd ref="203237644"/>
    <tag k="highway" v="steps"/>
  </way>
  <way id="19569381" version="3" timestamp="2010-02-14T17:13:47Z" uid="74617" user="JohnSmith" changeset="3875836">
    <nd ref="21616933"/>
    <nd ref="21616792"/>
    <nd ref="21616796"/>
    <tag k="highway" v="residential"/>
    <tag k="maxspeed" v="50"/>
    <tag k="name" v="Arthur Street"/>
  </way>
  <way id="19569381" version="4" timestamp="2011-11-16T00:20:40Z" uid="313448" user="ConsEbt" changeset="9840438">
    <nd ref="21616933"/>
    <nd ref="21616792"/>
    <nd ref="1504580365"/>
    <nd ref="21616796"/>
    <tag k="highway" v="residential"/>
    <tag k="maxspeed" v="50"/>
    <tag k="name" v="Arthur Street"/>
  </way>
  <way id="19569381" version="5" timestamp="2012-01-15T20:09:44Z" uid="147510" user="woodpeck_fixbot" changeset="10400850">
    <nd ref="21616933"/>
    <nd ref="21616792"/>
    <nd ref="1504580365"/>
    <nd ref="21616796"/>
    <tag k="highway" v="residential"/>
    <tag k="name" v="Arthur Street"/>
  </way>
  <way id="19569392" version="4" timestamp="2010-02-14T17:17:08Z" uid="74617" user="JohnSmith" changeset="3875836">
    <nd ref="201289579"/>
    <nd ref="201298418"/>
    <nd ref="201298419"/>
    <nd ref="201298421"/>
    <nd ref="203237869"/>
    <tag k="highway" v="service"/>
    <tag k="maxspeed" v="50"/>
  </way>
  <way id="19569392" version="5" timestamp="2012-01-15T20:09:46Z" uid="147510" user="woodpeck_fixbot" changeset="10400850">
    <nd ref="201289579"/>
    <nd ref="201298418"/>
    <nd ref="201298419"/>
    <nd ref="201298421"/>
    <nd ref="203237869"/>
    <tag k="highway" v="service"/>
  </way>
  <way id="19569406" version="2" timestamp="2010-02-14T17:17:03Z" uid="74617" user="JohnSmith" changeset="3875836">
    <nd ref="200799171"/>
    <nd ref="203237798"/>
    <nd ref="203237971"/>
    <tag k="highway" v="service"/>
    <tag k="maxspeed" v="50"/>
  </way>
  <way id="19569406" version="3" timestamp="2012-01-15T20:09:46Z" uid="147510" user="woodpeck_fixbot" changeset="10400850">
    <nd ref="200799171"/>
    <nd ref="203237798"/>
    <nd ref="203237971"/>
    <tag k="highway" v="service"/>
  </way>
  <way id="19569423" version="3" timestamp="2010-02-14T17:17:02Z" uid="74617" user="JohnSmith" changeset="3875836">
    <nd ref="201313805"/>
    <nd ref="201313808"/>
    <tag k="highway" v="residential"/>
    <tag k="maxspeed" v="50"/>
    <tag k="name" v="Hastings Street"/>
  </way>
  <way id="19569423" version="4" timestamp="2012-01-15T20:09:47Z" uid="147510" user="woodpeck_fixbot" changeset="10400850">
    <nd ref="201313805"/>
    <nd ref="201313808"/>
    <tag k="highway" v="residential"/>
    <tag k="name" v="Hastings Street"/>
  </way>
  <way id="19569428" version="3" timestamp="2010-02-14T17:03:04Z" uid="74617" user="JohnSmith" changeset="3875836">
    <nd ref="100927821"/>
    <nd ref="100928180"/>
    <nd ref="499943068"/>
    <nd ref="100928045"/>
    <tag k="highway" v="residential"/>
    <tag k="maxspeed" v="50"/>
    <tag k="name" v="Barker Street"/>
  </way>
  <way id="19569428" version="4" timestamp="2012-01-15T20:09:49Z" uid="147510" user="woodpeck_fixbot" changeset="10400850">
    <nd ref="100927821"/>
    <nd ref="100928180"/>
    <nd ref="499943068"/>
    <nd ref="100928045"/>
    <tag k="highway" v="residential"/>
    <tag k="name" v="Barker Street"/>
  </way>
</osm>
