<?xml version='1.0' encoding='UTF-8'?>
<osm version="0.6" generator="libosmium/2.20.0">
  <way id="19617130" version="2" timestamp="2009-09-14T21:14:55Z" uid="99207" user="Lar Kiesel" changeset="2486630">
    <nd ref="203692567"/>
    <nd ref="203692571"/>
    <nd ref="203692576"/>
    <nd ref="203692581"/>
    <nd ref="203692586"/>
    <nd ref="203692591"/>
    <nd ref="203692595"/>
    <nd ref="203692601"/>
    <nd ref="203692605"/>
    <nd ref="203692609"/>
    <nd ref="203692617"/>
    <nd ref="203692624"/>
    <nd ref="203692626"/>
    <tag k="highway" v="residential"/>
    <tag k="name" v="Double Springs Rd"/>
    <tag k="tiger:cfcc" v="A41"/>
    <tag k="tiger:county" v="Sullivan, TN"/>
    <tag k="tiger:name_base" v="Double Springs"/>
    <tag k="tiger:name_type" v="Rd"/>
    <tag k="tiger:reviewed" v="no"/>
    <tag k="tiger:separated" v="no"/>
    <tag k="tiger:source" v="tiger_import_dch_v0.6_20070829"/>
    <tag k="tiger:tlid" v="127852992:127852993:127834041"/>
    <tag k="tiger:upload_uuid" v="bulk_upload.pl-43a674d4-1641-4a71-a368-e3aff8fd844c"/>
    <tag k="tiger:zip_left" v="37659"/>
    <tag k="tiger:zip_right" v="37659"/>
  </way>
  <way id="19617159" version="2" timestamp="2009-09-15T01:42:07Z" uid="99207" user="Lar Kiesel" changeset="2487902">
    <nd ref="204052236"/>
    <nd ref="496694561"/>
    <nd ref="496694564"/>
    <nd ref="203692848"/>
    <nd ref="203692852"/>
    <nd ref="203672344"/>
    <tag k="highway" v="residential"/>
    <tag k="name" v="Bob Jobe Rd"/>
    <tag k="tiger:cfcc" v="A41"/>
    <tag k="tiger:county" v="Sullivan, TN"/>
    <tag k="tiger:name_base" v="Bob Jobe"/>
    <tag k="tiger:name_type" v="Rd"/>
    <tag k="tiger:reviewed" v="no"/>
    <tag k="tiger:separated" v="no"/>
    <tag k="tiger:source" v="tiger_import_dch_v0.6_20070829"/>
    <tag k="tiger:tlid" v="127834115"/>
    <tag k="tiger:upload_uuid" v="bulk_upload.pl-43a674d4-1641-4a71-a368-e3aff8fd844c"/>
  </way>
  <way id="19617159" version="3" timestamp="2011-10-11T15:46:34Z" uid="207745" user="NE2" changeset="9531596">
    <nd ref="204052236"/>
    <nd ref="496694561"/>
    <nd ref="496694564"/>
    <nd ref="203692848"/>
    <nd ref="203692852"/>
    <nd ref="203672344"/>
    <tag k="highway" v="tertiary"/>
    <tag k="name" v="Bob Jobe Rd"/>
    <tag k="tiger:cfcc" v="A41"/>
    <tag k="tiger:county" v="Sullivan, TN"/>
    <tag k="tiger:name_base" v="Bob Jobe"/>
    <tag k="tiger:name_type" v="Rd"/>
    <tag k="tiger:reviewed" v="no"/>
    <tag k="tiger:separated" v="no"/>
    <tag k="tiger:source" v="tiger_import_dch_v0.6_20070829"/>
    <tag k="tiger:tlid" v="127834115"/>
    <tag k="tiger:upload_uuid" v="bulk_upload.pl-43a674d4-1641-4a71-a368-e3aff8fd844c"/>
  </way>
  <way id="19617315" version="2" timestamp="2009-09-10T13:38:36Z" uid="99207" user="Lar Kiesel" changeset="2436264">
    <nd ref="203694749"/>
    <nd ref="492301294"/>
    <nd ref="203587977"/>
    <nd ref="203694754"/>
    <nd ref="203674297"/>
    <nd ref="203694760"/>
    <nd ref="203694763"/>
    <nd ref="203694773"/>
    <nd ref="203694778"/>
    <nd ref="203694780"/>
    <nd ref="203694781"/>
    <nd ref="203694784"/>
    <nd ref="203694787"/>
    <nd ref="203694792"/>
    <nd ref="203694799"/>
    <nd ref="203694804"/>
    <nd ref="203694808"/>
    <nd ref="203694812"/>
    <nd ref="203694825"/>
    <nd ref="203694832"/>
    <nd ref="203694837"/>
    <nd ref="203657670"/>
    <nd ref="203694843"/>
    <nd ref="203694848"/>
    <nd ref="203694855"/>
    <nd ref="203694860"/>
    <nd ref="203694865"/>
    <nd ref="203694870"/>
    <nd ref="203694875"/>
    <nd ref="203694881"/>
    <nd ref="203694885"/>
    <nd ref="203694889"/>
    <nd ref="203694892"/>
    <nd ref="203694895"/>
    <nd ref="203631353"/>
    <nd ref="203631192"/>
    <nd ref="203694898"/>
    <nd ref="203694906"/>
    <nd ref="203674425"/>
    <nd ref="203694911"/>
    <nd ref="203694920"/>
    <nd ref="203656712"/>
    <nd ref="203624395"/>
    <nd ref="203624179"/>
    <nd ref="203624376"/>
    <nd ref="203614758"/>
    <tag k="highway" v="residential"/>
    <tag k="name" v="Snyder Rd"/>
    <tag k="tiger:cfcc" v="A41"/>
    <tag k="tiger:county" v="Sevier, TN"/>
    <tag k="tiger:name_base" v="Snyder"/>
    <tag k="tiger:name_type" v="Rd"/>
    <tag k="tiger:reviewed" v="no"/>
    <tag k="tiger:separated" v="no"/>
    <tag k="tiger:source" v="tiger_import_dch_v0.6_20070829"/>
    <tag k="tiger:tlid" v="107554684:107554687:107554692:107554693"/>
    <tag k="tiger:upload_uuid" v="bulk_upload.pl-4049705f-83a1-4521-8ac2-96149a82e2a5"/>
  </way>
  <way id="19617315" version="3" timestamp="2010-02-26T07:12:13Z" uid="207745" user="NE2" changeset="3977936">
    <nd ref="203694749"/>
    <nd ref="492301294"/>
    <nd ref="203587977"/>
    <tag k="highway" v="trunk"/>
    <tag k="name" v="Snyder Rd"/>
    <tag k="ref" v="66"/>
    <tag k="tiger:cfcc" v="A41"/>
    <tag k="tiger:county" v="Sevier, TN"/>
    <tag k="tiger:name_base" v="Snyder"/>
    <tag k="tiger:name_type" v="Rd"/>
    <tag k="tiger:reviewed" v="no"/>
    <tag k="tiger:separated" v="no"/>
    <tag k="tiger:source" v="tiger_import_dch_v0.6_20070829"/>
    <tag k="tiger:tlid" v="107554684:107554687:107554692:107554693"/>
    <tag k="tiger:upload_uuid" v="bulk_upload.pl-4049705f-83a1-4521-8ac2-96149a82e2a5"/>
  </way>
  <way id="19617315" version="4" timestamp="2011-04-30T22:56:15Z" uid="207745" user="NE2" changeset="8016671">
    <nd ref="203587977"/>
    <nd ref="492301294"/>
    <nd ref="203694749"/>
    <tag k="highway" v="trunk"/>
    <tag k="name" v="Snyder Rd"/>
    <tag k="ref" v="SR 66"/>
    <tag k="tiger:cfcc" v="A41"/>
    <tag k="tiger:county" v="Sevier, TN"/>
    <tag k="tiger:name_base" v="Snyder"/>
    <tag k="tiger:name_type" v="Rd"/>
    <tag k="tiger:reviewed" v="no"/>
    <tag k="tiger:separated" v="no"/>
    <tag k="tiger:source" v="tiger_import_dch_v0.6_20070829"/>
    <tag k="tiger:tlid" v="107554684:107554687:107554692:107554693"/>
    <tag k="tiger:upload_uuid" v="bulk_upload.pl-4049705f-83a1-4521-8ac2-96149a82e2a5"/>
  </way>
  <way id="19617315" version="5" timestamp="2011-06-02T01:28:52Z" uid="207745" user="NE2" changeset="8315683">
    <nd ref="203587977"/>
    <nd ref="492301294"/>
    <nd ref="203694749"/>
    <tag k="highway" v="trunk"/>
    <tag k="lanes" v="4"/>
    <tag k="name" v="Snyder Rd"/>
    <tag k="ref" v="SR 66"/>
    <tag k="tiger:cfcc" v="A41"/>
    <tag k="tiger:county" v="Sevier, TN"/>
    <tag k="tiger:name_base" v="Snyder"/>
    <tag k="tiger:name_type" v="Rd"/>
    <tag k="tiger:reviewed" v="no"/>
    <tag k="tiger:separated" v="no"/>
    <tag k="tiger:source" v="tiger_import_dch_v0.6_20070829"/>
    <tag k="tiger:tlid" v="107554684:107554687:107554692:107554693"/>
    <tag k="tiger:upload_uuid" v="bulk_upload.pl-4049705f-83a1-4521-8ac2-96149a82e2a5"/>
  </way>
  <way id="19617315" version="6" timestamp="2011-07-09T03:03:01Z" uid="473471" user="NE3" changeset="8671203">
    <nd ref="203587977"/>
    <nd ref="492301294"/>
    <nd ref="203694749"/>
    <tag k="NHS" v="yes"/>
    <tag k="highway" v="trunk"/>
    <tag k="lanes" v="4"/>
    <tag k="name" v="Snyder Rd"/>
    <tag k="ref" v="SR 66"/>
    <tag k="tiger:cfcc" v="A41"/>
    <tag k="tiger:county" v="Sevier, TN"/>
    <tag k="tiger:name_base" v="Snyder"/>
    <tag k="tiger:name_type" v="Rd"/>
    <tag k="tiger:reviewed" v="no"/>
    <tag k="tiger:separated" v="no"/>
    <tag k="tiger:source" v="tiger_import_dch_v0.6_20070829"/>
    <tag k="tiger:tlid" v="107554684:107554687:107554692:107554693"/>
    <tag k="tiger:upload_uuid" v="bulk_upload.pl-4049705f-83a1-4521-8ac2-96149a82e2a5"/>
  </way>
  <way id="19617315" version="7" timestamp="2012-03-27T15:00:35Z" uid="38487" user="jumbanho" changeset="11117260">
    <nd ref="203587977"/>
    <nd ref="1693315517"/>
    <nd ref="203694749"/>
    <tag k="NHS" v="yes"/>
    <tag k="highway" v="trunk"/>
    <tag k="lanes" v="4"/>
    <tag k="name" v="Snyder Rd"/>
    <tag k="ref" v="SR 66"/>
    <tag k="tiger:cfcc" v="A41"/>
    <tag k="tiger:county" v="Sevier, TN"/>
    <tag k="tiger:name_base" v="Snyder"/>
    <tag k="tiger:name_type" v="Rd"/>
    <tag k="tiger:reviewed" v="no"/>
    <tag k="tiger:separated" v="no"/>
    <tag k="tiger:source" v="tiger_import_dch_v0.6_20070829"/>
    <tag k="tiger:tlid" v="107554684:107554687:107554692:107554693"/>
    <tag k="tiger:upload_uuid" v="bulk_upload.pl-4049705f-83a1-4521-8ac2-96149a82e2a5"/>
  </way>
  <way id="19617443" version="3" timestamp="2008-06-07T07:48:24Z" uid="27600" user="Islanit" changeset="80637">
    <nd ref="203696063"/>
    <nd ref="203696064"/>
    <nd ref="203696065"/>
    <nd ref="203696066"/>
    <nd ref="203696067"/>
    <nd ref="203696068"/>
    <nd ref="203696070"/>
    <nd ref="203696072"/>
    <nd ref="203696073"/>
    <nd ref="203696075"/>
    <nd ref="203696076"/>
    <nd ref="203696077"/>
    <nd ref="203696081"/>
    <nd ref="203696083"/>
    <nd ref="203696084"/>
    <nd ref="203696085"/>
    <nd ref="203696086"/>
    <nd ref="203696087"/>
    <nd ref="203696093"/>
    <nd ref="203696096"/>
    <nd ref="203696098"/>
    <nd ref="203696099"/>
    <nd ref="203696101"/>
    <nd ref="203696102"/>
    <nd ref="203696107"/>
    <nd ref="203696110"/>
    <nd ref="203696112"/>
    <nd ref="203696063"/>
    <tag k="amenity" v="public_building"/>
    <tag k="building" v="yes"/>
    <tag k="created_by" v="Potlatch 0.6c"/>
  </way>
  <way id="19617443" version="4" timestamp="2009-04-13T15:35:39Z" uid="11238" user="fahrrad" changeset="477649">
    <nd ref="203696063"/>
    <nd ref="203696064"/>
    <nd ref="203696065"/>
    <nd ref="203696066"/>
    <nd ref="203696067"/>
    <nd ref="203696068"/>
    <nd ref="203696070"/>
    <nd ref="203696072"/>
    <nd ref="203696073"/>
    <nd ref="203696075"/>
    <nd ref="203696076"/>
    <nd ref="203696077"/>
    <nd ref="203696081"/>
    <nd ref="203696083"/>
    <nd ref="203696084"/>
    <nd ref="203696085"/>
    <nd ref="203696086"/>
    <nd ref="203696087"/>
    <nd ref="203696093"/>
    <nd ref="203696096"/>
    <nd ref="203696098"/>
    <nd ref="203696099"/>
    <nd ref="203696101"/>
    <nd ref="203696102"/>
    <nd ref="203696107"/>
    <nd ref="203696110"/>
    <nd ref="203696112"/>
    <nd ref="203696063"/>
    <tag k="amenity" v="public_building"/>
    <tag k="building" v="yes"/>
    <tag k="created_by" v="Potlatch 0.10f"/>
    <tag k="leisure" v="stadium"/>
  </way>
  <way id="19617443" version="5" timestamp="2009-04-13T15:36:13Z" uid="11238" user="fahrrad" changeset="477649">
    <nd ref="203696063"/>
    <nd ref="203696064"/>
    <nd ref="203696065"/>
    <nd ref="203696066"/>
    <nd ref="203696067"/>
    <nd ref="203696068"/>
    <nd ref="203696070"/>
    <nd ref="203696072"/>
    <nd ref="203696073"/>
    <nd ref="203696075"/>
    <nd ref="203696076"/>
    <nd ref="203696077"/>
    <nd ref="203696081"/>
    <nd ref="203696083"/>
    <nd ref="203696084"/>
    <nd ref="203696085"/>
    <nd ref="203696086"/>
    <nd ref="203696087"/>
    <nd ref="203696093"/>
    <nd ref="203696096"/>
    <nd ref="203696098"/>
    <nd ref="203696099"/>
    <nd ref="203696101"/>
    <nd ref="203696102"/>
    <nd ref="203696107"/>
    <nd ref="203696110"/>
    <nd ref="203696112"/>
    <nd ref="203696063"/>
    <tag k="amenity" v="public_building"/>
    <tag k="building" v="yes"/>
    <tag k="created_by" v="Potlatch 0.10f"/>
    <tag k="leisure" v="stadium"/>
    <tag k="name" v="HSH-Nordbank-Arena (Volksparkstadion)"/>
    <tag k="old_name" v="Volksparkstadion"/>
  </way>
  <way id="19617443" version="6" timestamp="2009-05-08T07:09:44Z" uid="11238" user="fahrrad" changeset="1114081">
    <nd ref="203696063"/>
    <nd ref="203696064"/>
    <nd ref="203696065"/>
    <nd ref="203696066"/>
    <nd ref="203696067"/>
    <nd ref="203696068"/>
    <nd ref="203696070"/>
    <nd ref="203696072"/>
    <nd ref="203696073"/>
    <nd ref="203696075"/>
    <nd ref="203696076"/>
    <nd ref="203696077"/>
    <nd ref="203696081"/>
    <nd ref="203696083"/>
    <nd ref="203696084"/>
    <nd ref="203696085"/>
    <nd ref="203696086"/>
    <nd ref="203696087"/>
    <nd ref="203696093"/>
    <nd ref="203696096"/>
    <nd ref="203696098"/>
    <nd ref="203696099"/>
    <nd ref="203696101"/>
    <nd ref="203696102"/>
    <nd ref="203696107"/>
    <nd ref="203696110"/>
    <nd ref="203696112"/>
    <nd ref="203696063"/>
    <tag k="addr:city" v="Hamburg"/>
    <tag k="addr:country" v="DE"/>
    <tag k="addr:housenumber" v="7"/>
    <tag k="addr:postcode" v="22525"/>
    <tag k="addr:street" v="Sylvesterallee"/>
    <tag k="amenity" v="public_building"/>
    <tag k="building" v="yes"/>
    <tag k="created_by" v="Potlatch 0.10f"/>
    <tag k="leisure" v="stadium"/>
    <tag k="name" v="HSH-Nordbank-Arena (Volksparkstadion)"/>
    <tag k="old_name" v="Volksparkstadion"/>
    <tag k="phone" v="+49-01805-478478"/>
    <tag k="url" v="http://www.hsv-hshnordbank-arena.de"/>
  </way>
  <way id="19617443" version="7" timestamp="2010-01-14T19:19:17Z" uid="63375" user="Divjo" changeset="3619207">
    <nd ref="203696063"/>
    <nd ref="203696064"/>
    <nd ref="203696065"/>
    <nd ref="203696066"/>
    <nd ref="203696067"/>
    <nd ref="203696068"/>
    <nd ref="203696070"/>
    <nd ref="203696072"/>
    <nd ref="203696073"/>
    <nd ref="203696075"/>
    <nd ref="203696076"/>
    <nd ref="203696077"/>
    <nd ref="203696081"/>
    <nd ref="203696083"/>
    <nd ref="203696084"/>
    <nd ref="203696085"/>
    <nd ref="203696086"/>
    <nd ref="203696087"/>
    <nd ref="203696093"/>
    <nd ref="203696096"/>
    <nd ref="203696098"/>
    <nd ref="203696099"/>
    <nd ref="203696101"/>
    <nd ref="203696102"/>
    <nd ref="203696107"/>
    <nd ref="203696110"/>
    <nd ref="203696112"/>
    <nd ref="203696063"/>
    <tag k="addr:city" v="Hamburg"/>
    <tag k="addr:country" v="DE"/>
    <tag k="addr:housenumber" v="7"/>
    <tag k="addr:postcode" v="22525"/>
    <tag k="addr:street" v="Sylvesterallee"/>
    <tag k="amenity" v="public_building"/>
    <tag k="building" v="yes"/>
    <tag k="leisure" v="stadium"/>
    <tag k="name" v="HSH-Nordbank-Arena (Volksparkstadion)"/>
    <tag k="old_name" v="Volksparkstadion"/>
    <tag k="phone" v="+49-01805-478478"/>
    <tag k="url" v="http://www.hsv-hshnordbank-arena.de"/>
  </way>
  <way id="19617443" version="8" timestamp="2010-07-11T15:20:26Z" uid="119236" user="ToddyS" changeset="5191387">
    <nd ref="203696063"/>
    <nd ref="203696064"/>
    <nd ref="203696065"/>
    <nd ref="203696066"/>
    <nd ref="203696067"/>
    <nd ref="203696068"/>
    <nd ref="203696070"/>
    <nd ref="203696072"/>
    <nd ref="203696073"/>
    <nd ref="203696075"/>
    <nd ref="203696076"/>
    <nd ref="203696077"/>
    <nd ref="203696081"/>
    <nd ref="203696083"/>
    <nd ref="203696084"/>
    <nd ref="203696085"/>
    <nd ref="203696086"/>
    <nd ref="203696087"/>
    <nd ref="203696093"/>
    <nd ref="203696096"/>
    <nd ref="203696098"/>
    <nd ref="203696099"/>
    <nd ref="203696101"/>
    <nd ref="203696102"/>
    <nd ref="203696107"/>
    <nd ref="203696110"/>
    <nd ref="203696112"/>
    <nd ref="203696063"/>
    <tag k="addr:city" v="Hamburg"/>
    <tag k="addr:country" v="DE"/>
    <tag k="addr:housenumber" v="7"/>
    <tag k="addr:postcode" v="22525"/>
    <tag k="addr:street" v="Sylvesterallee"/>
    <tag k="amenity" v="public_building"/>
    <tag k="building" v="yes"/>
    <tag k="leisure" v="stadium"/>
    <tag k="name" v="Imtech Arena (Volksparkstadion)"/>
    <tag k="old_name" v="Volksparkstadion"/>
    <tag k="phone" v="+49-01805-478478"/>
    <tag k="url" v="http://www.imtech-arena.de/"/>
  </way>
  <way id="19617443" version="9" timestamp="2010-07-11T15:23:21Z" uid="119236" user="ToddyS" changeset="5191413">
    <nd ref="203696063"/>
    <nd ref="203696064"/>
    <nd ref="203696065"/>
    <nd ref="203696066"/>
    <nd ref="203696067"/>
    <nd ref="203696068"/>
    <nd ref="203696070"/>
    <nd ref="203696072"/>
    <nd ref="203696073"/>
    <nd ref="203696075"/>
    <nd ref="203696076"/>
    <nd ref="203696077"/>
    <nd ref="203696081"/>
    <nd ref="203696083"/>
    <nd ref="203696084"/>
    <nd ref="203696085"/>
    <nd ref="203696086"/>
    <nd ref="203696087"/>
    <nd ref="203696093"/>
    <nd ref="203696096"/>
    <nd ref="203696098"/>
    <nd ref="203696099"/>
    <nd ref="203696101"/>
    <nd ref="203696102"/>
    <nd ref="203696107"/>
    <nd ref="203696110"/>
    <nd ref="203696112"/>
    <nd ref="203696063"/>
    <tag k="addr:city" v="Hamburg"/>
    <tag k="addr:country" v="DE"/>
    <tag k="addr:housenumber" v="7"/>
    <tag k="addr:postcode" v="22525"/>
    <tag k="addr:street" v="Sylvesterallee"/>
    <tag k="amenity" v="public_building"/>
    <tag k="building" v="yes"/>
    <tag k="leisure" v="stadium"/>
    <tag k="name" v="Imtech Arena (Volksparkstadion)"/>
    <tag k="old_name" v="Volksparkstadion"/>
    <tag k="operator" v="HSV-Arena GmbH &amp; Co. KG"/>
    <tag k="phone" v="+49-01805-478478"/>
    <tag k="url" v="http://www.imtech-arena.de/"/>
  </way>
  <way id="19617443" version="10" timestamp="2011-07-25T18:23:12Z" uid="336460" user="robgeb" changeset="8828811">
    <nd ref="203696063"/>
    <nd ref="1374027056"/>
    <nd ref="203696064"/>
    <nd ref="1374027013"/>
    <nd ref="203696065"/>
    <nd ref="1374027044"/>
    <nd ref="203696066"/>
    <nd ref="1374027037"/>
    <nd ref="203696067"/>
    <nd ref="1374027031"/>
    <nd ref="203696068"/>
    <nd ref="1374027081"/>
    <nd ref="1374027066"/>
    <nd ref="1374027008"/>
    <nd ref="203696070"/>
    <nd ref="1374027047"/>
    <nd ref="1374027050"/>
    <nd ref="1374027039"/>
    <nd ref="203696072"/>
    <nd ref="1374027011"/>
    <nd ref="203696073"/>
    <nd ref="1374027074"/>
    <nd ref="203696075"/>
    <nd ref="1374027002"/>
    <nd ref="203696076"/>
    <nd ref="1374027058"/>
    <nd ref="203696077"/>
    <nd ref="1374027083"/>
    <nd ref="1374027068"/>
    <nd ref="1374027077"/>
    <nd ref="1374027000"/>
    <nd ref="1374027040"/>
    <nd ref="1374027075"/>
    <nd ref="1374027016"/>
    <nd ref="203696081"/>
    <nd ref="1374027067"/>
    <nd ref="203696083"/>
    <nd ref="1374026996"/>
    <nd ref="203696084"/>
    <nd ref="1374027038"/>
    <nd ref="203696085"/>
    <nd ref="1374027017"/>
    <nd ref="203696086"/>
    <nd ref="1374027072"/>
    <nd ref="203696087"/>
    <nd ref="1374027045"/>
    <nd ref="1374027049"/>
    <nd ref="1374027064"/>
    <nd ref="1374027046"/>
    <nd ref="1374027054"/>
    <nd ref="1374027021"/>
    <nd ref="1374027029"/>
    <nd ref="1374027080"/>
    <nd ref="1374026999"/>
    <nd ref="203696093"/>
    <nd ref="1374027014"/>
    <nd ref="1374027036"/>
    <nd ref="1374027052"/>
    <nd ref="203696096"/>
    <nd ref="1374027033"/>
    <nd ref="203696098"/>
    <nd ref="1374027063"/>
    <nd ref="203696099"/>
    <nd ref="1374027069"/>
    <nd ref="203696101"/>
    <nd ref="1374027042"/>
    <nd ref="203696102"/>
    <nd ref="1374027009"/>
    <nd ref="1374027004"/>
    <nd ref="1374027051"/>
    <nd ref="1374027006"/>
    <nd ref="1374027030"/>
    <nd ref="203696107"/>
    <nd ref="1374027015"/>
    <nd ref="1374027035"/>
    <nd ref="1374027070"/>
    <nd ref="203696110"/>
    <nd ref="1374027073"/>
    <nd ref="203696112"/>
    <nd ref="1374027026"/>
    <nd ref="203696063"/>
    <tag k="addr:city" v="Hamburg"/>
    <tag k="addr:country" v="DE"/>
    <tag k="addr:housenumber" v="7"/>
    <tag k="addr:postcode" v="22525"/>
    <tag k="addr:street" v="Sylvesterallee"/>
    <tag k="leisure" v="stadium"/>
    <tag k="name" v="Imtech Arena"/>
    <tag k="old_name" v="Volksparkstadion"/>
    <tag k="operator" v="HSV-Arena GmbH &amp; Co. KG"/>
    <tag k="phone" v="+49-01805-478478"/>
    <tag k="website" v="http://www.imtech-arena.de/"/>
    <tag k="wikipedia" v="de:Imtech Arena"/>
  </way>
  <way id="19617443" version="11" timestamp="2012-02-22T08:34:17Z" uid="174822" user="Canabis" changeset="10756939">
    <nd ref="203696063"/>
    <nd ref="1374027056"/>
    <nd ref="203696064"/>
    <nd ref="1374027013"/>
    <nd ref="203696065"/>
    <nd ref="1374027044"/>
    <nd ref="203696066"/>
    <nd ref="1374027037"/>
    <nd ref="203696067"/>
    <nd ref="1374027031"/>
    <nd ref="203696068"/>
    <nd ref="1374027081"/>
    <nd ref="1374027066"/>
    <nd ref="1374027008"/>
    <nd ref="203696070"/>
    <nd ref="1374027047"/>
    <nd ref="1374027050"/>
    <nd ref="1374027039"/>
    <nd ref="203696072"/>
    <nd ref="1374027011"/>
    <nd ref="203696073"/>
    <nd ref="1374027074"/>
    <nd ref="203696075"/>
    <nd ref="1374027002"/>
    <nd ref="203696076"/>
    <nd ref="1374027058"/>
    <nd ref="203696077"/>
    <nd ref="1374027083"/>
    <nd ref="1374027068"/>
    <nd ref="1374027077"/>
    <nd ref="1374027000"/>
    <nd ref="1374027040"/>
    <nd ref="1374027075"/>
    <nd ref="1374027016"/>
    <nd ref="203696081"/>
    <nd ref="1374027067"/>
    <nd ref="203696083"/>
    <nd ref="1374026996"/>
    <nd ref="203696084"/>
    <nd ref="1374027038"/>
    <nd ref="203696085"/>
    <nd ref="1374027017"/>
    <nd ref="203696086"/>
    <nd ref="1374027072"/>
    <nd ref="203696087"/>
    <nd ref="1374027045"/>
    <nd ref="1374027049"/>
    <nd ref="1374027064"/>
    <nd ref="1374027046"/>
    <nd ref="1374027054"/>
    <nd ref="1374027021"/>
    <nd ref="1374027029"/>
    <nd ref="1374027080"/>
    <nd ref="1374026999"/>
    <nd ref="203696093"/>
    <nd ref="1374027014"/>
    <nd ref="1374027036"/>
    <nd ref="1374027052"/>
    <nd ref="203696096"/>
    <nd ref="1374027033"/>
    <nd ref="203696098"/>
    <nd ref="1374027063"/>
    <nd ref="203696099"/>
    <nd ref="1374027069"/>
    <nd ref="203696101"/>
    <nd ref="1374027042"/>
    <nd ref="203696102"/>
    <nd ref="1374027009"/>
    <nd ref="1374027004"/>
    <nd ref="1374027051"/>
    <nd ref="1374027006"/>
    <nd ref="1374027030"/>
    <nd ref="203696107"/>
    <nd ref="1374027015"/>
    <nd ref="1374027035"/>
    <nd ref="1374027070"/>
    <nd ref="203696110"/>
    <nd ref="1374027073"/>
    <nd ref="203696112"/>
    <nd ref="1374027026"/>
    <nd ref="203696063"/>
    <tag k="addr:city" v="Hamburg"/>
    <tag k="addr:country" v="DE"/>
    <tag k="addr:housenumber" v="7"/>
    <tag k="addr:postcode" v="22525"/>
    <tag k="addr:street" v="Sylvesterallee"/>
    <tag k="leisure" v="stadium"/>
    <tag k="name" v="Imtech Arena"/>
    <tag k="name:ru" v="Имтех Арена"/>
    <tag k="old_name" v="Volksparkstadion"/>
    <tag k="operator" v="HSV-Arena GmbH &amp; Co. KG"/>
    <tag k="phone" v="+49-01805-478478"/>
    <tag k="website" v="http://www.imtech-arena.de/"/>
    <tag k="wikipedia" v="de:Imtech Arena"/>
  </way>
  <way id="19617684" version="2" timestamp="2009-09-14T23:45:50Z" uid="99207" user="Lar Kiesel" changeset="2487584">
    <nd ref="496601937"/>
    <nd ref="203697897"/>
    <nd ref="203697899"/>
    <nd ref="203697901"/>
    <nd ref="203697903"/>
    <nd ref="203697905"/>
    <nd ref="203697908"/>
    <nd ref="203691075"/>
    <nd ref="203647979"/>
    <tag k="highway" v="residential"/>
    <tag k="name" v="New Moore Rd"/>
    <tag k="tiger:cfcc" v="A41"/>
    <tag k="tiger:county" v="Sullivan, TN"/>
    <tag k="tiger:name_base" v="New Moore"/>
    <tag k="tiger:name_type" v="Rd"/>
    <tag k="tiger:reviewed" v="no"/>
    <tag k="tiger:separated" v="no"/>
    <tag k="tiger:source" v="tiger_import_dch_v0.6_20070829"/>
    <tag k="tiger:tlid" v="127829050"/>
    <tag k="tiger:upload_uuid" v="bulk_upload.pl-43a674d4-1641-4a71-a368-e3aff8fd844c"/>
    <tag k="tiger:zip_left" v="37660"/>
  </way>
  <way id="19617130" version="3" timestamp="2012-04-04T13:34:54Z" uid="252811" user="rickmastfan67" changeset="11176741">
    <nd ref="203692567"/>
    <nd ref="203692571"/>
    <nd ref="203692576"/>
    <nd ref="203692581"/>
    <nd ref="203692586"/>
    <nd ref="203692591"/>
    <nd ref="203692595"/>
    <nd ref="203692601"/>
    <nd ref="203692605"/>
    <nd ref="203692609"/>
    <nd ref="203692617"/>
    <nd ref="203692624"/>
    <nd ref="203692626"/>
    <tag k="highway" v="residential"/>
    <tag k="lanes" v="2"/>
    <tag k="name" v="Double Springs Road"/>
    <tag k="odbl" v="clean"/>
    <tag k="odbl:note" v="The &quot;Decliner&quot; only deleted a(some) node(s) from this way.  He didn&apos;t add anything else.  Thus, way can be considered clean."/>
    <tag k="tiger:cfcc" v="A41"/>
    <tag k="tiger:county" v="Sullivan, TN"/>
    <tag k="tiger:name_base" v="Double Springs"/>
    <tag k="tiger:name_type" v="Rd"/>
    <tag k="tiger:reviewed" v="no"/>
    <tag k="tiger:separated" v="no"/>
    <tag k="tiger:source" v="tiger_import_dch_v0.6_20070829"/>
    <tag k="tiger:tlid" v="127852992:127852993:127834041"/>
    <tag k="tiger:upload_uuid" v="bulk_upload.pl-43a674d4-1641-4a71-a368-e3aff8fd844c"/>
    <tag k="tiger:zip_left" v="37659"/>
    <tag k="tiger:zip_right" v="37659"/>
  </way>
  <way id="19617159" version="4" timestamp="2012-07-18T16:36:05Z" uid="722137" user="OSMF Redaction Account" changeset="12289072">
    <nd ref="203692848"/>
    <nd ref="203692852"/>
    <nd ref="203672344"/>
    <tag k="highway" v="tertiary"/>
    <tag k="name" v="Bob Jobe Rd"/>
    <tag k="tiger:cfcc" v="A41"/>
    <tag k="tiger:county" v="Sullivan, TN"/>
    <tag k="tiger:name_base" v="Bob Jobe"/>
    <tag k="tiger:name_type" v="Rd"/>
    <tag k="tiger:reviewed" v="no"/>
    <tag k="tiger:separated" v="no"/>
    <tag k="tiger:source" v="tiger_import_dch_v0.6_20070829"/>
    <tag k="tiger:tlid" v="127834115"/>
    <tag k="tiger:upload_uuid" v="bulk_upload.pl-43a674d4-1641-4a71-a368-e3aff8fd844c"/>
  </way>
  <way id="19617315" version="8" timestamp="2012-07-26T10:17:41Z" uid="36121" user="Chris Lawrence" changeset="12497154">
    <nd ref="203587977"/>
    <nd ref="1693315517"/>
    <tag k="FIXME" v="dual carriageway"/>
    <tag k="highway" v="trunk"/>
    <tag k="lanes" v="4"/>
    <tag k="name" v="Snyder Road"/>
    <tag k="NHS" v="yes"/>
    <tag k="ref" v="SR 66"/>
    <tag k="tiger:cfcc" v="A41"/>
    <tag k="tiger:county" v="Sevier, TN"/>
    <tag k="tiger:name_base" v="Snyder"/>
    <tag k="tiger:name_type" v="Rd"/>
    <tag k="tiger:reviewed" v="no"/>
    <tag k="tiger:separated" v="no"/>
    <tag k="tiger:source" v="tiger_import_dch_v0.6_20070829"/>
    <tag k="tiger:tlid" v="107554684:107554687:107554692:107554693"/>
    <tag k="tiger:upload_uuid" v="bulk_upload.pl-4049705f-83a1-4521-8ac2-96149a82e2a5"/>
  </way>
  <way id="19617684" version="3" timestamp="2012-07-18T16:33:49Z" uid="722137" user="OSMF Redaction Account" changeset="12289017">
    <nd ref="203697897"/>
    <nd ref="203697899"/>
    <nd ref="203697901"/>
    <nd ref="203697903"/>
    <nd ref="203697905"/>
    <nd ref="203697908"/>
    <nd ref="203691075"/>
    <nd ref="203647979"/>
    <tag k="highway" v="residential"/>
    <tag k="name" v="New Moore Rd"/>
    <tag k="tiger:cfcc" v="A41"/>
    <tag k="tiger:county" v="Sullivan, TN"/>
    <tag k="tiger:name_base" v="New Moore"/>
    <tag k="tiger:name_type" v="Rd"/>
    <tag k="tiger:reviewed" v="no"/>
    <tag k="tiger:separated" v="no"/>
    <tag k="tiger:source" v="tiger_import_dch_v0.6_20070829"/>
    <tag k="tiger:tlid" v="127829050"/>
    <tag k="tiger:upload_uuid" v="bulk_upload.pl-43a674d4-1641-4a71-a368-e3aff8fd844c"/>
    <tag k="tiger:zip_left" v="37660"/>
  </way>
  <way id="19617684" version="4" timestamp="2012-07-19T15:38:29Z" uid="252811" user="rickmastfan67" changeset="12335508">
    <nd ref="1831065680"/>
    <nd ref="1831065678"/>
    <nd ref="1831065677"/>
    <nd ref="1831065676"/>
    <nd ref="1831065674"/>
    <nd ref="1831065669"/>
    <nd ref="1831065665"/>
    <nd ref="1831065661"/>
    <nd ref="1831065659"/>
    <nd ref="203697897"/>
    <nd ref="203697899"/>
    <nd ref="203697901"/>
    <nd ref="203697903"/>
    <nd ref="203697905"/>
    <nd ref="203697908"/>
    <nd ref="203691075"/>
    <nd ref="203647979"/>
    <nd ref="1831065401"/>
    <nd ref="1831065394"/>
    <nd ref="1831065383"/>
    <nd ref="1831065379"/>
    <nd ref="1831065375"/>
    <nd ref="1831065374"/>
    <nd ref="1831065370"/>
    <nd ref="1831065368"/>
    <nd ref="1831065366"/>
    <nd ref="1831065364"/>
    <nd ref="1831065361"/>
    <nd ref="1831065350"/>
    <tag k="highway" v="tertiary"/>
    <tag k="lanes" v="2"/>
    <tag k="name" v="New Moore Road"/>
    <tag k="tiger:cfcc" v="A41"/>
    <tag k="tiger:county" v="Sullivan, TN"/>
    <tag k="tiger:name_base" v="New Moore"/>
    <tag k="tiger:name_type" v="Rd"/>
    <tag k="tiger:reviewed" v="no"/>
    <tag k="tiger:separated" v="no"/>
    <tag k="tiger:source" v="tiger_import_dch_v0.6_20070829"/>
    <tag k="tiger:tlid" v="127829050"/>
    <tag k="tiger:upload_uuid" v="bulk_upload.pl-43a674d4-1641-4a71-a368-e3aff8fd844c"/>
    <tag k="tiger:zip_left" v="37660"/>
  </way>
  <way id="19617684" version="5" timestamp="2012-08-10T03:01:42Z" uid="109362" user="rjhale1971" changeset="12675537">
    <nd ref="1831065680"/>
    <nd ref="1831065678"/>
    <nd ref="1831065677"/>
    <nd ref="1831065676"/>
    <nd ref="1831065674"/>
    <nd ref="1831065669"/>
    <nd ref="1831065665"/>
    <nd ref="1831065661"/>
    <nd ref="1831065659"/>
    <nd ref="203697897"/>
    <nd ref="203697899"/>
    <nd ref="1859674996"/>
    <nd ref="1859674995"/>
    <nd ref="1859674994"/>
    <nd ref="1859674992"/>
    <nd ref="1859674991"/>
    <nd ref="1859674990"/>
    <nd ref="203697901"/>
    <nd ref="1859674989"/>
    <nd ref="203697903"/>
    <nd ref="203697905"/>
    <nd ref="203697908"/>
    <nd ref="203691075"/>
    <nd ref="203647979"/>
    <nd ref="1831065401"/>
    <nd ref="1831065394"/>
    <nd ref="1831065383"/>
    <nd ref="1831065379"/>
    <nd ref="1831065375"/>
    <nd ref="1831065374"/>
    <nd ref="1831065370"/>
    <nd ref="1831065368"/>
    <nd ref="1831065366"/>
    <nd ref="1831065364"/>
    <nd ref="1831065361"/>
    <nd ref="1831065350"/>
    <tag k="highway" v="tertiary"/>
    <tag k="lanes" v="2"/>
    <tag k="name" v="New Moore Road"/>
    <tag k="tiger:cfcc" v="A41"/>
    <tag k="tiger:county" v="Sullivan, TN"/>
    <tag k="tiger:name_base" v="New Moore"/>
    <tag k="tiger:name_type" v="Rd"/>
    <tag k="tiger:reviewed" v="no"/>
    <tag k="tiger:separated" v="no"/>
    <tag k="tiger:source" v="tiger_import_dch_v0.6_20070829"/>
    <tag k="tiger:tlid" v="127829050"/>
    <tag k="tiger:upload_uuid" v="bulk_upload.pl-43a674d4-1641-4a71-a368-e3aff8fd844c"/>
    <tag k="tiger:zip_left" v="37660"/>
  </way>
</osm>
