<?xml version='1.0' encoding='UTF-8'?>
<osm version="0.6" generator="libosmium/2.20.0">
  <way id="19676258" version="1" timestamp="2008-01-02T23:59:21Z" uid="4467" user="Rosscoe" changeset="521818">
    <nd ref="204148487"/>
    <nd ref="204148542"/>
    <nd ref="204150282"/>
    <nd ref="204151110"/>
    <nd ref="204148783"/>
    <nd ref="204148895"/>
    <nd ref="204149160"/>
    <nd ref="204149343"/>
    <nd ref="204149432"/>
    <tag k="created_by" v="JOSM"/>
    <tag k="highway" v="trunk"/>
    <tag k="name" v="Warrego Highway; Murilla Street"/>
    <tag k="ref" v="A2"/>
    <tag k="source" v="gpsdrivetrack"/>
    <tag k="surface" v="paved"/>
  </way>
  <way id="19676258" version="2" timestamp="2008-02-06T06:38:53Z" uid="10359" user="swampwallaby" changeset="52150">
    <nd ref="204149432"/>
    <nd ref="204149343"/>
    <nd ref="204149160"/>
    <nd ref="204148895"/>
    <nd ref="204148783"/>
    <nd ref="204151110"/>
    <nd ref="204150282"/>
    <nd ref="204148542"/>
    <nd ref="204148487"/>
    <tag k="created_by" v="JOSM"/>
    <tag k="highway" v="trunk"/>
    <tag k="name" v="Warrego Highway; Murilla Street"/>
    <tag k="ref" v="A2"/>
    <tag k="source" v="gpsdrivetrack"/>
    <tag k="surface" v="paved"/>
  </way>
  <way id="19676258" version="3" timestamp="2008-05-15T02:34:52Z" uid="4467" user="Rosscoe" changeset="452476">
    <nd ref="204149432"/>
    <nd ref="204149343"/>
    <nd ref="204149160"/>
    <nd ref="204148895"/>
    <nd ref="204148783"/>
    <nd ref="204151110"/>
    <nd ref="204150282"/>
    <nd ref="204148542"/>
    <nd ref="204148487"/>
    <tag k="created_by" v="Potlatch 0.9a"/>
    <tag k="highway" v="trunk"/>
    <tag k="name" v="Warrego Highway; Murilla Street"/>
    <tag k="ref" v="A2"/>
    <tag k="source" v="survey"/>
    <tag k="surface" v="paved"/>
  </way>
  <way id="19676258" version="4" timestamp="2009-03-08T07:23:47Z" uid="62457" user="cybercrypt" changeset="754793">
    <nd ref="204149432"/>
    <nd ref="204149343"/>
    <nd ref="204149160"/>
    <nd ref="204148895"/>
    <nd ref="204148783"/>
    <nd ref="204151110"/>
    <nd ref="204150282"/>
    <nd ref="204148542"/>
    <nd ref="204148487"/>
    <tag k="created_by" v="Potlatch 0.10f"/>
    <tag k="highway" v="trunk"/>
    <tag k="name" v="Warrego Highway; Murilla Street"/>
    <tag k="ref" v="A2"/>
    <tag k="source" v="survey"/>
    <tag k="surface" v="paved"/>
  </way>
  <way id="19676258" version="5" timestamp="2009-03-08T08:52:06Z" uid="62457" user="cybercrypt" changeset="754793">
    <nd ref="204149432"/>
    <nd ref="204149343"/>
    <nd ref="204149160"/>
    <nd ref="204148895"/>
    <nd ref="204148783"/>
    <nd ref="204151110"/>
    <nd ref="204150282"/>
    <nd ref="204148542"/>
    <nd ref="204148487"/>
    <tag k="created_by" v="Potlatch 0.10f"/>
    <tag k="highway" v="trunk"/>
    <tag k="name" v="Warrego Highway; Murilla Street"/>
    <tag k="ref" v="A2"/>
    <tag k="source" v="survey"/>
    <tag k="surface" v="paved"/>
  </way>
  <way id="19676258" version="6" timestamp="2009-03-08T10:59:00Z" uid="62457" user="cybercrypt" changeset="755455">
    <nd ref="204149432"/>
    <nd ref="204149343"/>
    <nd ref="204149160"/>
    <nd ref="204148895"/>
    <nd ref="204148783"/>
    <nd ref="204151110"/>
    <nd ref="204150282"/>
    <nd ref="357149645"/>
    <nd ref="204148542"/>
    <nd ref="204148487"/>
    <tag k="created_by" v="Potlatch 0.10f"/>
    <tag k="highway" v="trunk"/>
    <tag k="name" v="Warrego Highway; Murilla Street"/>
    <tag k="ref" v="A2"/>
    <tag k="source" v="survey"/>
    <tag k="surface" v="paved"/>
  </way>
  <way id="19676258" version="7" timestamp="2009-03-08T10:59:12Z" uid="62457" user="cybercrypt" changeset="755455">
    <nd ref="204149432"/>
    <nd ref="204149343"/>
    <nd ref="204149160"/>
    <nd ref="204148895"/>
    <nd ref="204148783"/>
    <nd ref="204151110"/>
    <nd ref="204150282"/>
    <nd ref="357149645"/>
    <nd ref="204148542"/>
    <nd ref="357149673"/>
    <nd ref="204148487"/>
    <tag k="created_by" v="Potlatch 0.10f"/>
    <tag k="highway" v="trunk"/>
    <tag k="name" v="Warrego Highway; Murilla Street"/>
    <tag k="ref" v="A2"/>
    <tag k="source" v="survey"/>
    <tag k="surface" v="paved"/>
  </way>
  <way id="19676258" version="8" timestamp="2009-03-08T11:10:33Z" uid="62457" user="cybercrypt" changeset="755455">
    <nd ref="204149432"/>
    <nd ref="204149343"/>
    <nd ref="204149160"/>
    <nd ref="204148895"/>
    <nd ref="204148783"/>
    <nd ref="204151110"/>
    <nd ref="204150282"/>
    <nd ref="357149645"/>
    <nd ref="204148542"/>
    <nd ref="357149673"/>
    <nd ref="357154113"/>
    <nd ref="204148487"/>
    <tag k="created_by" v="Potlatch 0.10f"/>
    <tag k="highway" v="trunk"/>
    <tag k="name" v="Warrego Highway; Murilla Street"/>
    <tag k="ref" v="A2"/>
    <tag k="source" v="survey"/>
    <tag k="surface" v="paved"/>
  </way>
  <way id="19676258" version="9" timestamp="2009-03-23T09:34:02Z" uid="62457" user="cybercrypt" changeset="850149">
    <nd ref="204149432"/>
    <nd ref="204149343"/>
    <nd ref="204149160"/>
    <nd ref="204148895"/>
    <nd ref="204148783"/>
    <nd ref="204151110"/>
    <nd ref="364909864"/>
    <nd ref="204150282"/>
    <nd ref="357149645"/>
    <nd ref="204148542"/>
    <nd ref="357149673"/>
    <nd ref="357154113"/>
    <nd ref="204148487"/>
    <tag k="created_by" v="Potlatch 0.10f"/>
    <tag k="highway" v="trunk"/>
    <tag k="name" v="Warrego Highway; Murilla Street"/>
    <tag k="ref" v="A2"/>
    <tag k="source" v="survey"/>
    <tag k="surface" v="paved"/>
  </way>
  <way id="19676258" version="10" timestamp="2009-03-23T09:38:07Z" uid="62457" user="cybercrypt" changeset="850149">
    <nd ref="204149432"/>
    <nd ref="204149343"/>
    <nd ref="204149160"/>
    <nd ref="204148895"/>
    <nd ref="204148783"/>
    <nd ref="204151110"/>
    <nd ref="364909864"/>
    <nd ref="204150282"/>
    <nd ref="357149645"/>
    <nd ref="204148542"/>
    <nd ref="364910578"/>
    <nd ref="357149673"/>
    <nd ref="357154113"/>
    <nd ref="204148487"/>
    <tag k="created_by" v="Potlatch 0.10f"/>
    <tag k="highway" v="trunk"/>
    <tag k="name" v="Warrego Highway; Murilla Street"/>
    <tag k="ref" v="A2"/>
    <tag k="source" v="survey"/>
    <tag k="surface" v="paved"/>
  </way>
  <way id="19676258" version="11" timestamp="2009-07-12T12:15:12Z" uid="62457" user="cybercrypt" changeset="1806179">
    <nd ref="204149432"/>
    <nd ref="204149343"/>
    <nd ref="204149160"/>
    <nd ref="204148895"/>
    <nd ref="204148783"/>
    <nd ref="204151110"/>
    <nd ref="364909864"/>
    <nd ref="204150282"/>
    <nd ref="357149645"/>
    <nd ref="440701155"/>
    <nd ref="204148542"/>
    <nd ref="364910578"/>
    <nd ref="357149673"/>
    <nd ref="357154113"/>
    <nd ref="204148487"/>
    <tag k="created_by" v="Potlatch 0.10f"/>
    <tag k="highway" v="trunk"/>
    <tag k="name" v="Warrego Highway; Murilla Street"/>
    <tag k="ref" v="A2"/>
    <tag k="source" v="survey"/>
    <tag k="surface" v="paved"/>
  </way>
  <way id="19676258" version="12" timestamp="2009-07-12T12:16:00Z" uid="62457" user="cybercrypt" changeset="1806179">
    <nd ref="204149432"/>
    <nd ref="204149343"/>
    <nd ref="204149160"/>
    <nd ref="204148895"/>
    <nd ref="440701491"/>
    <nd ref="204148783"/>
    <nd ref="204151110"/>
    <nd ref="364909864"/>
    <nd ref="204150282"/>
    <nd ref="357149645"/>
    <nd ref="440701155"/>
    <nd ref="204148542"/>
    <nd ref="364910578"/>
    <nd ref="357149673"/>
    <nd ref="357154113"/>
    <nd ref="204148487"/>
    <tag k="created_by" v="Potlatch 0.10f"/>
    <tag k="highway" v="trunk"/>
    <tag k="name" v="Warrego Highway; Murilla Street"/>
    <tag k="ref" v="A2"/>
    <tag k="source" v="survey"/>
    <tag k="surface" v="paved"/>
  </way>
  <way id="19676258" version="13" timestamp="2009-07-17T09:34:31Z" uid="62457" user="cybercrypt" changeset="1852460">
    <nd ref="204149432"/>
    <nd ref="204149343"/>
    <nd ref="204149160"/>
    <nd ref="204148895"/>
    <nd ref="440701491"/>
    <nd ref="204148783"/>
    <nd ref="204151110"/>
    <nd ref="364909864"/>
    <nd ref="442903194"/>
    <nd ref="357149645"/>
    <nd ref="440701155"/>
    <nd ref="204148542"/>
    <nd ref="364910578"/>
    <nd ref="357149673"/>
    <nd ref="357154113"/>
    <nd ref="204148487"/>
    <tag k="created_by" v="Potlatch 0.10f"/>
    <tag k="highway" v="trunk"/>
    <tag k="name" v="Warrego Highway; Murilla Street"/>
    <tag k="ref" v="A2"/>
    <tag k="source" v="survey"/>
    <tag k="surface" v="paved"/>
  </way>
  <way id="19676258" version="14" timestamp="2009-07-17T09:34:51Z" uid="62457" user="cybercrypt" changeset="1852460">
    <nd ref="204149432"/>
    <nd ref="204149343"/>
    <nd ref="204149160"/>
    <nd ref="204148895"/>
    <nd ref="440701491"/>
    <nd ref="204148783"/>
    <nd ref="204151110"/>
    <nd ref="364909864"/>
    <nd ref="442903194"/>
    <nd ref="442903236"/>
    <nd ref="357149645"/>
    <nd ref="440701155"/>
    <nd ref="204148542"/>
    <nd ref="364910578"/>
    <nd ref="357149673"/>
    <nd ref="357154113"/>
    <nd ref="204148487"/>
    <tag k="created_by" v="Potlatch 0.10f"/>
    <tag k="highway" v="trunk"/>
    <tag k="name" v="Warrego Highway; Murilla Street"/>
    <tag k="ref" v="A2"/>
    <tag k="source" v="survey"/>
    <tag k="surface" v="paved"/>
  </way>
  <way id="19676258" version="15" timestamp="2009-07-17T09:37:55Z" uid="62457" user="cybercrypt" changeset="1852460">
    <nd ref="204149432"/>
    <nd ref="204149343"/>
    <nd ref="204149160"/>
    <nd ref="204148895"/>
    <nd ref="440701491"/>
    <nd ref="204148783"/>
    <nd ref="204151110"/>
    <nd ref="364909864"/>
    <nd ref="442903194"/>
    <nd ref="442903236"/>
    <nd ref="357149645"/>
    <nd ref="440701155"/>
    <nd ref="204148542"/>
    <nd ref="364910578"/>
    <nd ref="442904546"/>
    <nd ref="357149673"/>
    <nd ref="357154113"/>
    <nd ref="204148487"/>
    <tag k="created_by" v="Potlatch 0.10f"/>
    <tag k="highway" v="trunk"/>
    <tag k="name" v="Warrego Highway; Murilla Street"/>
    <tag k="ref" v="A2"/>
    <tag k="source" v="survey"/>
    <tag k="surface" v="paved"/>
  </way>
  <way id="19676258" version="16" timestamp="2009-07-17T09:38:24Z" uid="62457" user="cybercrypt" changeset="1852460">
    <nd ref="204149432"/>
    <nd ref="204149343"/>
    <nd ref="204149160"/>
    <nd ref="204148895"/>
    <nd ref="440701491"/>
    <nd ref="204148783"/>
    <nd ref="204151110"/>
    <nd ref="364909864"/>
    <nd ref="442903194"/>
    <nd ref="442903236"/>
    <nd ref="357149645"/>
    <nd ref="440701155"/>
    <nd ref="204148542"/>
    <nd ref="364910578"/>
    <nd ref="442904546"/>
    <tag k="created_by" v="Potlatch 0.10f"/>
    <tag k="highway" v="trunk"/>
    <tag k="name" v="Warrego Highway; Murilla Street"/>
    <tag k="ref" v="A2"/>
    <tag k="source" v="survey"/>
    <tag k="surface" v="paved"/>
  </way>
  <way id="19676258" version="17" timestamp="2009-07-17T09:39:56Z" uid="62457" user="cybercrypt" changeset="1852460">
    <nd ref="204149432"/>
    <nd ref="204149343"/>
    <nd ref="204149160"/>
    <nd ref="204148895"/>
    <nd ref="440701491"/>
    <nd ref="204148783"/>
    <nd ref="442905019"/>
    <nd ref="442905020"/>
    <nd ref="204151110"/>
    <nd ref="364909864"/>
    <nd ref="442903194"/>
    <nd ref="442903236"/>
    <nd ref="357149645"/>
    <nd ref="440701155"/>
    <nd ref="204148542"/>
    <nd ref="364910578"/>
    <nd ref="442904546"/>
    <tag k="created_by" v="Potlatch 0.10f"/>
    <tag k="highway" v="trunk"/>
    <tag k="name" v="Warrego Highway; Murilla Street"/>
    <tag k="ref" v="A2"/>
    <tag k="source" v="survey"/>
    <tag k="surface" v="paved"/>
  </way>
  <way id="19676258" version="18" timestamp="2009-07-17T09:41:44Z" uid="62457" user="cybercrypt" changeset="1852460">
    <nd ref="204149432"/>
    <nd ref="204149343"/>
    <nd ref="204149160"/>
    <nd ref="204148895"/>
    <nd ref="440701491"/>
    <nd ref="204148783"/>
    <nd ref="442905019"/>
    <nd ref="442905020"/>
    <nd ref="204151110"/>
    <nd ref="364909864"/>
    <nd ref="442903194"/>
    <nd ref="442903236"/>
    <nd ref="440701155"/>
    <nd ref="204148542"/>
    <nd ref="364910578"/>
    <nd ref="442904546"/>
    <tag k="created_by" v="Potlatch 0.10f"/>
    <tag k="highway" v="trunk"/>
    <tag k="name" v="Warrego Highway; Murilla Street"/>
    <tag k="ref" v="A2"/>
    <tag k="source" v="survey"/>
    <tag k="surface" v="paved"/>
  </way>
  <way id="19676258" version="19" timestamp="2009-07-17T09:43:17Z" uid="62457" user="cybercrypt" changeset="1852460">
    <nd ref="204149432"/>
    <nd ref="204149343"/>
    <nd ref="204149160"/>
    <nd ref="204148895"/>
    <nd ref="440701491"/>
    <tag k="created_by" v="Potlatch 0.10f"/>
    <tag k="highway" v="trunk"/>
    <tag k="name" v="Warrego Highway; Murilla Street"/>
    <tag k="ref" v="A2"/>
    <tag k="source" v="survey"/>
    <tag k="surface" v="paved"/>
  </way>
  <way id="19676258" version="20" timestamp="2009-08-19T11:28:35Z" uid="74617" user="JohnSmith" changeset="2200195">
    <nd ref="204149432"/>
    <nd ref="204149343"/>
    <nd ref="204149160"/>
    <nd ref="204148895"/>
    <nd ref="440701491"/>
    <tag k="highway" v="trunk"/>
    <tag k="name" v="Murilla Street"/>
    <tag k="source" v="survey"/>
  </way>
  <way id="19676258" version="21" timestamp="2011-12-22T13:09:59Z" uid="67896" user="mrpulley" changeset="10179456">
    <nd ref="204149432"/>
    <nd ref="204149343"/>
    <nd ref="204149160"/>
    <nd ref="204148895"/>
    <nd ref="440701491"/>
    <tag k="highway" v="trunk"/>
    <tag k="name" v="Murilla Street"/>
    <tag k="ref" v="A2"/>
    <tag k="source" v="survey"/>
    <tag k="surface" v="asphalt"/>
  </way>
  <way id="19676258" version="22" timestamp="2011-12-23T13:49:24Z" uid="67896" user="mrpulley" changeset="10187121">
    <nd ref="204149432"/>
    <nd ref="204149343"/>
    <nd ref="204149160"/>
    <nd ref="204148895"/>
    <nd ref="440701491"/>
    <tag k="highway" v="trunk"/>
    <tag k="maxspeed" v="60"/>
    <tag k="name" v="Murilla Street"/>
    <tag k="ref" v="A2"/>
    <tag k="source" v="survey"/>
    <tag k="source:maxspeed" v="sign"/>
    <tag k="surface" v="asphalt"/>
  </way>
  <way id="19676270" version="1" timestamp="2008-01-02T23:59:26Z" uid="4467" user="Rosscoe" changeset="521818">
    <nd ref="204149432"/>
    <nd ref="204149518"/>
    <tag k="bridge" v="true"/>
    <tag k="created_by" v="JOSM"/>
    <tag k="highway" v="trunk"/>
    <tag k="layer" v="1"/>
    <tag k="name" v="Warrego Highway"/>
    <tag k="ref" v="A2"/>
    <tag k="source" v="gpsdrivetrack"/>
  </way>
  <way id="19676270" version="2" timestamp="2008-02-06T06:38:53Z" uid="10359" user="swampwallaby" changeset="52150">
    <nd ref="204149518"/>
    <nd ref="204149432"/>
    <tag k="bridge" v="true"/>
    <tag k="created_by" v="JOSM"/>
    <tag k="highway" v="trunk"/>
    <tag k="layer" v="1"/>
    <tag k="name" v="Warrego Highway"/>
    <tag k="ref" v="A2"/>
    <tag k="source" v="gpsdrivetrack"/>
  </way>
  <way id="19676270" version="3" timestamp="2009-07-19T12:38:16Z" uid="4467" user="Rosscoe" changeset="1872881">
    <nd ref="204149518"/>
    <nd ref="204149432"/>
    <tag k="bridge" v="yes"/>
    <tag k="highway" v="trunk"/>
    <tag k="layer" v="1"/>
    <tag k="name" v="Warrego Highway"/>
    <tag k="ref" v="A2"/>
    <tag k="source" v="gpsdrivetrack"/>
  </way>
  <way id="19676270" version="4" timestamp="2009-08-06T12:43:17Z" uid="4467" user="Rosscoe" changeset="2055754">
    <nd ref="204149518"/>
    <nd ref="204149432"/>
    <tag k="bridge" v="yes"/>
    <tag k="highway" v="trunk"/>
    <tag k="layer" v="1"/>
    <tag k="name" v="Warrego Highway"/>
    <tag k="ref" v="A2"/>
    <tag k="source" v="survey"/>
  </way>
  <way id="19676270" version="5" timestamp="2009-08-19T11:28:35Z" uid="74617" user="JohnSmith" changeset="2200195">
    <nd ref="204149518"/>
    <nd ref="204149432"/>
    <tag k="bridge" v="yes"/>
    <tag k="highway" v="trunk"/>
    <tag k="layer" v="1"/>
    <tag k="source" v="survey"/>
  </way>
  <way id="19676270" version="6" timestamp="2011-12-23T13:49:27Z" uid="67896" user="mrpulley" changeset="10187121">
    <nd ref="204149518"/>
    <nd ref="204149432"/>
    <tag k="bridge" v="yes"/>
    <tag k="highway" v="trunk"/>
    <tag k="layer" v="1"/>
    <tag k="maxspeed" v="80"/>
    <tag k="name" v="Warrego Highway"/>
    <tag k="ref" v="A2"/>
    <tag k="source" v="survey"/>
    <tag k="source:maxspeed" v="sign"/>
  </way>
  <way id="19676281" version="1" timestamp="2008-01-02T23:59:31Z" uid="4467" user="Rosscoe" changeset="521818">
    <nd ref="204149518"/>
    <nd ref="204149590"/>
    <nd ref="204149690"/>
    <nd ref="204149828"/>
    <nd ref="204149954"/>
    <nd ref="134683267"/>
    <tag k="created_by" v="JOSM"/>
    <tag k="highway" v="trunk"/>
    <tag k="name" v="Warrego Highway"/>
    <tag k="ref" v="A2"/>
    <tag k="source" v="gpsdrivetrack"/>
    <tag k="surface" v="paved"/>
  </way>
  <way id="19676281" version="2" timestamp="2008-02-06T06:38:55Z" uid="10359" user="swampwallaby" changeset="52150"/>
  <way id="19676357" version="5" timestamp="2010-12-25T15:02:16Z" uid="151899" user="Bikeman2000" changeset="6761391">
    <nd ref="203790757"/>
    <nd ref="299159836"/>
    <nd ref="1064165515"/>
    <nd ref="1064165511"/>
    <nd ref="29528806"/>
    <nd ref="29528799"/>
    <tag k="highway" v="trunk"/>
    <tag k="layer" v="-1"/>
    <tag k="motorroad" v="yes"/>
    <tag k="name" v="Rheinalleetunnel"/>
    <tag k="oneway" v="yes"/>
    <tag k="tunnel" v="yes"/>
  </way>
  <way id="19676357" version="6" timestamp="2011-11-22T05:38:39Z" uid="173844" user="Antikalk" changeset="9905172">
    <nd ref="203790757"/>
    <nd ref="299159836"/>
    <nd ref="1064165515"/>
    <nd ref="29528806"/>
    <nd ref="29528799"/>
    <tag k="highway" v="trunk"/>
    <tag k="layer" v="-1"/>
    <tag k="motorroad" v="yes"/>
    <tag k="name" v="Rheinalleetunnel"/>
    <tag k="oneway" v="yes"/>
    <tag k="tunnel" v="yes"/>
  </way>
  <way id="19676357" version="7" timestamp="2011-12-21T22:10:25Z" uid="173844" user="Antikalk" changeset="10175826">
    <nd ref="203790757"/>
    <nd ref="299159836"/>
    <nd ref="29528806"/>
    <nd ref="29528799"/>
    <tag k="highway" v="trunk"/>
    <tag k="layer" v="-1"/>
    <tag k="motorroad" v="yes"/>
    <tag k="name" v="Rheinalleetunnel"/>
    <tag k="oneway" v="yes"/>
    <tag k="tunnel" v="yes"/>
  </way>
  <way id="19676374" version="6" timestamp="2010-05-02T18:46:10Z" uid="151899" user="Bikeman2000" changeset="4588576">
    <nd ref="203790573"/>
    <nd ref="717638289"/>
    <nd ref="73664701"/>
    <nd ref="717638282"/>
    <nd ref="73664703"/>
    <tag k="highway" v="trunk"/>
    <tag k="layer" v="-1"/>
    <tag k="motorroad" v="yes"/>
    <tag k="name" v="Rheinalleetunnel"/>
    <tag k="oneway" v="yes"/>
  </way>
  <way id="19676374" version="7" timestamp="2010-07-21T14:13:11Z" uid="141931" user="Sharlin" changeset="5279248"/>
  <way id="19676407" version="3" timestamp="2008-01-18T01:22:34Z" uid="6454" user="B10xxx" changeset="658570">
    <nd ref="21723117"/>
    <nd ref="204153279"/>
    <nd ref="204153282"/>
    <tag k="created_by" v="Potlatch 0.6c"/>
    <tag k="highway" v="residential"/>
  </way>
  <way id="19676407" version="4" timestamp="2008-02-11T21:35:39Z" uid="23157" user="nh147" changeset="103219">
    <nd ref="204153279"/>
    <nd ref="204153282"/>
    <tag k="created_by" v="Potlatch 0.7"/>
    <tag k="highway" v="residential"/>
  </way>
  <way id="19676407" version="5" timestamp="2008-02-11T21:35:47Z" uid="23157" user="nh147" changeset="103219">
    <nd ref="247273421"/>
    <nd ref="204153279"/>
    <nd ref="204153282"/>
    <tag k="created_by" v="Potlatch 0.7"/>
    <tag k="highway" v="residential"/>
  </way>
  <way id="19676407" version="6" timestamp="2008-02-11T21:35:50Z" uid="23157" user="nh147" changeset="103219">
    <nd ref="247273421"/>
    <nd ref="204153279"/>
    <tag k="created_by" v="Potlatch 0.7"/>
    <tag k="highway" v="residential"/>
  </way>
  <way id="19676407" version="7" timestamp="2008-02-11T21:35:58Z" uid="23157" user="nh147" changeset="103219">
    <nd ref="204153279"/>
    <nd ref="247273421"/>
    <tag k="created_by" v="Potlatch 0.7"/>
    <tag k="highway" v="residential"/>
    <tag k="oneway" v="yes"/>
  </way>
  <way id="19676407" version="8" timestamp="2008-07-26T16:16:17Z" uid="8764" user="egore911" changeset="599497">
    <nd ref="204153279"/>
    <nd ref="247273421"/>
    <tag k="created_by" v="Potlatch 0.7"/>
    <tag k="highway" v="primary_link"/>
    <tag k="oneway" v="yes"/>
  </way>
  <way id="19676407" version="9" timestamp="2009-09-16T21:30:58Z" uid="94353" user="Fips" changeset="2507176">
    <nd ref="204153279"/>
    <nd ref="247273421"/>
    <tag k="highway" v="primary_link"/>
    <tag k="oneway" v="yes"/>
  </way>
  <way id="19676407" version="10" timestamp="2010-05-19T01:37:03Z" uid="263596" user="Oberförster" changeset="4744350">
    <nd ref="204153279"/>
    <nd ref="247273421"/>
    <tag k="highway" v="trunk"/>
    <tag k="motorroad" v="no"/>
    <tag k="oneway" v="yes"/>
  </way>
  <way id="19676407" version="11" timestamp="2012-03-10T16:36:27Z" uid="132740" user="Creando" changeset="10933864">
    <nd ref="204153279"/>
    <nd ref="1668883867"/>
    <nd ref="1668883871"/>
    <nd ref="247273421"/>
    <tag k="highway" v="trunk"/>
    <tag k="motorroad" v="no"/>
    <tag k="oneway" v="yes"/>
  </way>
  <way id="19676668" version="4" timestamp="2008-01-18T01:24:02Z" uid="6454" user="B10xxx" changeset="658570">
    <nd ref="204155744"/>
    <nd ref="204155529"/>
    <nd ref="204155747"/>
    <nd ref="204155749"/>
    <nd ref="204155752"/>
    <nd ref="204155756"/>
    <nd ref="204155759"/>
    <nd ref="204155763"/>
    <nd ref="204155767"/>
    <tag k="created_by" v="Potlatch 0.6c"/>
    <tag k="highway" v="residential"/>
  </way>
  <way id="19676668" version="5" timestamp="2008-07-10T22:06:18Z" uid="51367" user="Legolaus" changeset="464083">
    <nd ref="204155744"/>
    <nd ref="204155529"/>
    <nd ref="204155747"/>
    <nd ref="204155749"/>
    <nd ref="204155752"/>
    <nd ref="204155756"/>
    <nd ref="204155759"/>
    <nd ref="204155763"/>
    <nd ref="204155767"/>
    <tag k="created_by" v="Potlatch 0.9c"/>
    <tag k="highway" v="residential"/>
  </way>
  <way id="19676668" version="6" timestamp="2008-07-10T22:14:34Z" uid="51367" user="Legolaus" changeset="464083">
    <nd ref="204155744"/>
    <nd ref="204155529"/>
    <nd ref="204155747"/>
    <nd ref="277646495"/>
    <nd ref="204155749"/>
    <nd ref="204155752"/>
    <nd ref="204155756"/>
    <nd ref="204155759"/>
    <nd ref="204155763"/>
    <nd ref="204155767"/>
    <tag k="created_by" v="Potlatch 0.9c"/>
    <tag k="highway" v="residential"/>
  </way>
  <way id="19676668" version="7" timestamp="2008-07-10T22:20:30Z" uid="51367" user="Legolaus" changeset="464083">
    <nd ref="204155744"/>
    <nd ref="204155529"/>
    <nd ref="204155747"/>
    <nd ref="204155749"/>
    <nd ref="204155756"/>
    <nd ref="204155759"/>
    <nd ref="204155763"/>
    <nd ref="204155767"/>
    <tag k="created_by" v="Potlatch 0.9c"/>
    <tag k="highway" v="residential"/>
  </way>
  <way id="19676668" version="8" timestamp="2008-07-10T22:20:48Z" uid="51367" user="Legolaus" changeset="464083">
    <nd ref="204155744"/>
    <nd ref="204155529"/>
    <nd ref="204155747"/>
    <nd ref="204155749"/>
    <nd ref="277647258"/>
    <nd ref="204155756"/>
    <nd ref="204155759"/>
    <nd ref="204155763"/>
    <nd ref="204155767"/>
    <tag k="created_by" v="Potlatch 0.9c"/>
    <tag k="highway" v="residential"/>
  </way>
  <way id="19676668" version="9" timestamp="2008-07-10T22:20:55Z" uid="51367" user="Legolaus" changeset="464083">
    <nd ref="204155744"/>
    <nd ref="204155529"/>
    <nd ref="204155747"/>
    <nd ref="204155749"/>
    <nd ref="204155756"/>
    <nd ref="204155759"/>
    <nd ref="204155763"/>
    <nd ref="204155767"/>
    <tag k="created_by" v="Potlatch 0.9c"/>
    <tag k="highway" v="residential"/>
  </way>
  <way id="19676668" version="10" timestamp="2008-07-10T22:22:03Z" uid="51367" user="Legolaus" changeset="464083">
    <nd ref="204155744"/>
    <nd ref="204155529"/>
    <nd ref="204155747"/>
    <nd ref="204155749"/>
    <nd ref="277647339"/>
    <tag k="created_by" v="Potlatch 0.9c"/>
    <tag k="highway" v="residential"/>
    <tag k="name" v="Haubenrisserstraße"/>
  </way>
  <way id="19676668" version="11" timestamp="2008-09-18T20:49:19Z" uid="67792" user="UncleBob" changeset="662039">
    <nd ref="204155744"/>
    <nd ref="204155529"/>
    <nd ref="204155747"/>
    <nd ref="204155749"/>
    <nd ref="277647339"/>
    <tag k="created_by" v="Potlatch 0.9c"/>
    <tag k="highway" v="residential"/>
    <tag k="name" v="Hauberrisserstraße"/>
  </way>
  <way id="19676668" version="12" timestamp="2008-09-18T21:09:31Z" uid="67792" user="UncleBob" changeset="662039">
    <nd ref="204155744"/>
    <nd ref="204155529"/>
    <nd ref="204155747"/>
    <nd ref="204155749"/>
    <nd ref="298009664"/>
    <nd ref="277647339"/>
    <tag k="created_by" v="Potlatch 0.9c"/>
    <tag k="highway" v="residential"/>
    <tag k="name" v="Hauberrisserstraße"/>
  </way>
  <way id="19676668" version="13" timestamp="2012-01-04T13:09:53Z" uid="328555" user="peb12345" changeset="10290638"/>
  <way id="19676713" version="2" timestamp="2008-01-18T01:23:46Z" uid="6454" user="B10xxx" changeset="658570">
    <nd ref="204155756"/>
    <nd ref="204156259"/>
    <nd ref="204156262"/>
    <nd ref="204156264"/>
    <nd ref="204156267"/>
    <nd ref="204156269"/>
    <tag k="created_by" v="Potlatch 0.6c"/>
    <tag k="highway" v="residential"/>
  </way>
  <way id="19676713" version="3" timestamp="2008-07-10T22:22:03Z" uid="51367" user="Legolaus" changeset="464083">
    <nd ref="204156259"/>
    <nd ref="204156262"/>
    <nd ref="204156264"/>
    <nd ref="204156267"/>
    <nd ref="204156269"/>
    <tag k="created_by" v="Potlatch 0.9c"/>
    <tag k="highway" v="residential"/>
  </way>
  <way id="19676713" version="4" timestamp="2008-07-10T22:23:35Z" uid="51367" user="Legolaus" changeset="464083">
    <nd ref="277647512"/>
    <nd ref="204156264"/>
    <nd ref="204156267"/>
    <nd ref="204156269"/>
    <tag k="created_by" v="Potlatch 0.9c"/>
    <tag k="highway" v="residential"/>
    <tag k="name" v="Sieglindeweg"/>
  </way>
  <way id="19676713" version="5" timestamp="2008-09-08T21:24:35Z" uid="59445" user="follow_me" changeset="578878">
    <nd ref="277647512"/>
    <nd ref="204156264"/>
    <nd ref="204156267"/>
    <nd ref="204156269"/>
    <tag k="access" v="destination"/>
    <tag k="created_by" v="Potlatch 0.9c"/>
    <tag k="highway" v="residential"/>
    <tag k="motorcar" v="destination"/>
    <tag k="motorcycle" v="destination"/>
    <tag k="name" v="Sieglindeweg"/>
  </way>
  <way id="19676713" version="6" timestamp="2012-01-05T14:30:58Z" uid="328555" user="peb12345" changeset="10301488">
    <nd ref="1578216299"/>
    <nd ref="204156264"/>
    <nd ref="204156267"/>
    <nd ref="204156269"/>
    <tag k="access" v="destination"/>
    <tag k="highway" v="residential"/>
    <tag k="motorcar" v="destination"/>
    <tag k="motorcycle" v="destination"/>
    <tag k="name" v="Sieglindeweg"/>
  </way>
  <way id="19676741" version="2" timestamp="2008-01-18T01:23:53Z" uid="6454" user="B10xxx" changeset="658570">
    <nd ref="204156530"/>
    <nd ref="204156262"/>
    <nd ref="204156531"/>
    <nd ref="204156532"/>
    <nd ref="204156533"/>
    <nd ref="204156534"/>
    <tag k="created_by" v="Potlatch 0.6c"/>
    <tag k="highway" v="residential"/>
  </way>
  <way id="19676741" version="3" timestamp="2008-07-10T22:05:01Z" uid="51367" user="Legolaus" changeset="464083">
    <nd ref="204156530"/>
    <nd ref="204156262"/>
    <nd ref="204156531"/>
    <nd ref="204156532"/>
    <nd ref="204156533"/>
    <nd ref="204156534"/>
    <tag k="created_by" v="Potlatch 0.9c"/>
    <tag k="highway" v="residential"/>
  </way>
  <way id="19676741" version="4" timestamp="2008-07-10T22:11:17Z" uid="51367" user="Legolaus" changeset="464083">
    <nd ref="204156530"/>
    <nd ref="204156262"/>
    <nd ref="204156531"/>
    <nd ref="204156532"/>
    <nd ref="204156533"/>
    <nd ref="204156534"/>
    <tag k="created_by" v="Potlatch 0.9c"/>
    <tag k="highway" v="unclassified"/>
    <tag k="name" v="Andreas-Schlüter-Straße"/>
  </way>
  <way id="19676741" version="5" timestamp="2008-07-10T22:23:35Z" uid="51367" user="Legolaus" changeset="464083">
    <nd ref="204156530"/>
    <nd ref="277647512"/>
    <nd ref="204156262"/>
    <nd ref="204156531"/>
    <nd ref="204156532"/>
    <nd ref="204156533"/>
    <nd ref="204156534"/>
    <tag k="created_by" v="Potlatch 0.9c"/>
    <tag k="highway" v="unclassified"/>
    <tag k="name" v="Andreas-Schlüter-Straße"/>
  </way>
  <way id="19676741" version="6" timestamp="2008-07-26T15:00:12Z" uid="8764" user="egore911" changeset="599497">
    <nd ref="69746833"/>
    <nd ref="277647512"/>
    <nd ref="204156262"/>
    <nd ref="204156531"/>
    <nd ref="204156532"/>
    <nd ref="204156533"/>
    <nd ref="204156534"/>
    <tag k="created_by" v="Potlatch 0.9c"/>
    <tag k="highway" v="unclassified"/>
    <tag k="name" v="Andreas-Schlüter-Straße"/>
  </way>
  <way id="19676741" version="7" timestamp="2008-09-06T13:52:15Z" uid="59445" user="follow_me" changeset="550000">
    <nd ref="291895171"/>
    <nd ref="294125018"/>
    <tag k="access" v="agricultural"/>
    <tag k="agricultural" v="yes"/>
    <tag k="created_by" v="Potlatch 0.9c"/>
    <tag k="highway" v="track"/>
    <tag k="motorcar" v="no"/>
    <tag k="motorcycle" v="no"/>
    <tag k="surface" v="gravel"/>
    <tag k="tracktype" v="grade2"/>
  </way>
  <way id="19676741" version="8" timestamp="2008-09-06T13:56:48Z" uid="59445" user="follow_me" changeset="550000">
    <nd ref="291895171"/>
    <nd ref="294125018"/>
    <tag k="access" v="agricultural"/>
    <tag k="agricultural" v="yes"/>
    <tag k="bicycle" v="yes"/>
    <tag k="created_by" v="Potlatch 0.9c"/>
    <tag k="foot" v="yes"/>
    <tag k="highway" v="track"/>
    <tag k="motorcar" v="no"/>
    <tag k="motorcycle" v="no"/>
    <tag k="surface" v="gravel"/>
    <tag k="tracktype" v="grade2"/>
  </way>
  <way id="19676741" version="9" timestamp="2008-09-08T21:24:34Z" uid="59445" user="follow_me" changeset="578878">
    <nd ref="291895171"/>
    <nd ref="295201682"/>
    <tag k="bicycle" v="yes"/>
    <tag k="created_by" v="Potlatch 0.9c"/>
    <tag k="highway" v="residential"/>
    <tag k="surface" v="paved"/>
  </way>
  <way id="19676741" version="10" timestamp="2009-01-08T01:21:37Z" uid="8764" user="egore911" changeset="757216">
    <nd ref="291895171"/>
    <nd ref="295201682"/>
    <tag k="bicycle" v="yes"/>
    <tag k="created_by" v="Potlatch 0.9c"/>
    <tag k="highway" v="residential"/>
    <tag k="name" v="Abraham-Lincoln-Park"/>
    <tag k="surface" v="paved"/>
  </way>
  <way id="19676741" version="11" timestamp="2009-08-14T12:48:15Z" uid="67792" user="UncleBob" changeset="2142529">
    <nd ref="291895171"/>
    <nd ref="465483467"/>
    <nd ref="295201682"/>
    <tag k="bicycle" v="yes"/>
    <tag k="highway" v="residential"/>
    <tag k="name" v="Abraham-Lincoln-Park"/>
    <tag k="surface" v="paved"/>
  </way>
  <way id="19676760" version="3" timestamp="2008-01-18T01:23:33Z" uid="6454" user="B10xxx" changeset="658570">
    <nd ref="204157083"/>
    <nd ref="204156737"/>
    <nd ref="204156740"/>
    <nd ref="204156269"/>
    <nd ref="204156744"/>
    <nd ref="204156531"/>
    <tag k="created_by" v="Potlatch 0.6c"/>
    <tag k="highway" v="residential"/>
  </way>
  <way id="19676760" version="4" timestamp="2008-08-01T21:03:07Z" uid="8764" user="egore911" changeset="9700">
    <nd ref="204157083"/>
    <nd ref="204156737"/>
    <nd ref="204156740"/>
    <nd ref="204156269"/>
    <nd ref="204156744"/>
    <nd ref="204156531"/>
    <tag k="created_by" v="Potlatch 0.6c"/>
    <tag k="highway" v="residential"/>
    <tag k="name" v="Etzelstraße"/>
  </way>
  <way id="19676760" version="5" timestamp="2008-08-26T19:41:31Z" uid="59445" user="follow_me" changeset="422042">
    <nd ref="204157083"/>
    <nd ref="204156737"/>
    <nd ref="291410694"/>
    <nd ref="204156740"/>
    <nd ref="204156269"/>
    <nd ref="204156744"/>
    <nd ref="204156531"/>
    <tag k="created_by" v="Potlatch 0.6c"/>
    <tag k="highway" v="residential"/>
    <tag k="name" v="Etzelstraße"/>
  </way>
  <way id="19676760" version="6" timestamp="2012-01-04T13:09:51Z" uid="328555" user="peb12345" changeset="10290638"/>
  <way id="19676769" version="4" timestamp="2008-01-18T01:23:18Z" uid="6454" user="B10xxx" changeset="658570">
    <nd ref="204156897"/>
    <nd ref="204156998"/>
    <nd ref="204156834"/>
    <nd ref="204156837"/>
    <nd ref="204156840"/>
    <nd ref="204156843"/>
    <nd ref="204156846"/>
    <nd ref="204156850"/>
    <nd ref="204156532"/>
    <tag k="created_by" v="Potlatch 0.6c"/>
    <tag k="highway" v="residential"/>
  </way>
  <way id="19676769" version="5" timestamp="2008-08-01T21:03:08Z" uid="8764" user="egore911" changeset="9700">
    <nd ref="204156897"/>
    <nd ref="204156998"/>
    <nd ref="204156834"/>
    <nd ref="204156837"/>
    <nd ref="204156840"/>
    <nd ref="204156843"/>
    <nd ref="204156846"/>
    <nd ref="204156850"/>
    <nd ref="204156532"/>
    <tag k="created_by" v="Potlatch 0.6c"/>
    <tag k="highway" v="residential"/>
    <tag k="name" v="Burgunderstraße"/>
  </way>
  <way id="19676769" version="6" timestamp="2008-08-26T19:41:32Z" uid="59445" user="follow_me" changeset="422042">
    <nd ref="204156897"/>
    <nd ref="204156998"/>
    <nd ref="204156834"/>
    <nd ref="204156837"/>
    <nd ref="291410695"/>
    <nd ref="204156840"/>
    <nd ref="204156843"/>
    <nd ref="204156846"/>
    <nd ref="204156850"/>
    <nd ref="204156532"/>
    <tag k="created_by" v="Potlatch 0.6c"/>
    <tag k="highway" v="residential"/>
    <tag k="name" v="Burgunderstraße"/>
  </way>
  <way id="19676769" version="7" timestamp="2012-01-04T13:09:51Z" uid="328555" user="peb12345" changeset="10290638"/>
  <way id="19676786" version="3" timestamp="2008-01-18T01:23:24Z" uid="6454" user="B10xxx" changeset="658570">
    <nd ref="204156533"/>
    <nd ref="204156987"/>
    <nd ref="204156991"/>
    <nd ref="204156995"/>
    <nd ref="204156997"/>
    <nd ref="204156998"/>
    <tag k="created_by" v="Potlatch 0.6c"/>
    <tag k="highway" v="residential"/>
  </way>
  <way id="19676786" version="4" timestamp="2008-01-18T01:24:53Z" uid="6454" user="B10xxx" changeset="658570">
    <nd ref="204155749"/>
    <nd ref="236174872"/>
    <nd ref="204155763"/>
    <nd ref="204156533"/>
    <nd ref="204156987"/>
    <nd ref="204156991"/>
    <nd ref="204156995"/>
    <nd ref="204156997"/>
    <nd ref="204156998"/>
    <tag k="created_by" v="Potlatch 0.6c"/>
    <tag k="highway" v="residential"/>
  </way>
  <way id="19676786" version="5" timestamp="2008-01-18T01:26:01Z" uid="6454" user="B10xxx" changeset="658570">
    <nd ref="204155749"/>
    <nd ref="236177023"/>
    <nd ref="236174872"/>
    <nd ref="204155763"/>
    <nd ref="204156533"/>
    <nd ref="204156987"/>
    <nd ref="204156991"/>
    <nd ref="204156995"/>
    <nd ref="204156997"/>
    <nd ref="204156998"/>
    <tag k="created_by" v="Potlatch 0.6c"/>
    <tag k="highway" v="residential"/>
  </way>
  <way id="19676786" version="6" timestamp="2008-05-10T10:27:02Z" uid="36678" user="vorbelastung" changeset="394753">
    <nd ref="204155749"/>
    <nd ref="236177023"/>
    <nd ref="236174872"/>
    <nd ref="204155763"/>
    <nd ref="204156533"/>
    <nd ref="204156987"/>
    <nd ref="204156991"/>
    <nd ref="204156995"/>
    <nd ref="204156997"/>
    <nd ref="204156998"/>
    <tag k="created_by" v="Potlatch 0.9"/>
    <tag k="highway" v="residential"/>
  </way>
  <way id="19676786" version="7" timestamp="2008-07-10T22:17:35Z" uid="51367" user="Legolaus" changeset="464083"/>
  <way id="19676258" version="23" timestamp="2012-05-31T05:22:18Z" uid="349913" user="Peter W34" changeset="11754757"/>
  <way id="19676270" version="7" timestamp="2012-05-31T05:22:18Z" uid="349913" user="Peter W34" changeset="11754757"/>
  <way id="19676713" version="7" timestamp="2012-07-19T11:47:35Z" uid="722137" user="OSMF Redaction Account" changeset="12322673">
    <nd ref="1578216299"/>
    <nd ref="204156264"/>
    <nd ref="204156267"/>
    <nd ref="204156269"/>
    <tag k="access" v="destination"/>
    <tag k="motorcar" v="destination"/>
    <tag k="motorcycle" v="destination"/>
  </way>
  <way id="19676741" version="12" timestamp="2012-07-19T11:47:35Z" uid="722137" user="OSMF Redaction Account" changeset="12322673">
    <nd ref="291895171"/>
    <nd ref="465483467"/>
    <nd ref="295201682"/>
    <tag k="bicycle" v="yes"/>
    <tag k="name" v="Abraham-Lincoln-Park"/>
    <tag k="surface" v="paved"/>
  </way>
</osm>
