<?xml version='1.0' encoding='UTF-8'?>
<osm version="0.6" generator="libosmium/2.20.0">
  <way id="19673037" version="2" timestamp="2010-07-08T00:00:18Z" uid="74617" user="JohnSmith" changeset="5162525">
    <nd ref="204123086"/>
    <nd ref="204123088"/>
    <nd ref="35724560"/>
    <tag k="highway" v="residential"/>
    <tag k="maxspeed" v="50"/>
    <tag k="maxspeed:source" v="default residential speed limit in Australia"/>
    <tag k="name" v="Jersey Street"/>
  </way>
  <way id="19673037" version="3" timestamp="2010-07-08T00:10:17Z" uid="74617" user="JohnSmith" changeset="5162525">
    <nd ref="204123086"/>
    <nd ref="204123088"/>
    <nd ref="35724560"/>
    <tag k="highway" v="residential"/>
    <tag k="maxspeed" v="50"/>
    <tag k="maxspeed:source" v="default residential speed limit in Australia"/>
    <tag k="name" v="Jersey Street"/>
  </way>
  <way id="19673037" version="4" timestamp="2012-01-15T20:10:28Z" uid="147510" user="woodpeck_fixbot" changeset="10400850">
    <nd ref="204123086"/>
    <nd ref="204123088"/>
    <nd ref="35724560"/>
    <tag k="highway" v="residential"/>
    <tag k="name" v="Jersey Street"/>
  </way>
  <way id="19673187" version="6" timestamp="2008-01-18T01:10:04Z" uid="6454" user="B10xxx" changeset="658570">
    <nd ref="204124532"/>
    <nd ref="204124534"/>
    <nd ref="204124535"/>
    <nd ref="204124536"/>
    <nd ref="236145701"/>
    <nd ref="204124537"/>
    <nd ref="204124539"/>
    <nd ref="204124541"/>
    <nd ref="27093565"/>
    <tag k="created_by" v="Potlatch 0.6c"/>
    <tag k="highway" v="residential"/>
    <tag k="name" v="Mainzer Straße"/>
    <tag k="oneway" v="yes"/>
  </way>
  <way id="19673187" version="7" timestamp="2008-04-01T23:00:07Z" uid="17602" user="B10xyz" changeset="11942"/>
  <way id="19673681" version="4" timestamp="2008-04-01T23:00:06Z" uid="17602" user="B10xyz" changeset="11942">
    <nd ref="28607096"/>
    <nd ref="204128809"/>
    <nd ref="204124532"/>
    <nd ref="204124534"/>
    <nd ref="204124535"/>
    <nd ref="204124536"/>
    <nd ref="236145701"/>
    <nd ref="204124537"/>
    <nd ref="204124539"/>
    <nd ref="204124541"/>
    <nd ref="27093565"/>
    <tag k="created_by" v="Potlatch 0.6"/>
    <tag k="highway" v="residential"/>
    <tag k="name" v="Mainzer Straße"/>
    <tag k="oneway" v="yes"/>
  </way>
  <way id="19673681" version="5" timestamp="2008-05-18T16:58:43Z" uid="28378" user="PHerison" changeset="472082">
    <nd ref="28607096"/>
    <nd ref="204124532"/>
    <nd ref="204124534"/>
    <nd ref="204124535"/>
    <nd ref="204124536"/>
    <nd ref="236145701"/>
    <nd ref="204124537"/>
    <nd ref="204124539"/>
    <nd ref="204124541"/>
    <nd ref="27093565"/>
    <tag k="created_by" v="Potlatch 0.6"/>
    <tag k="highway" v="residential"/>
    <tag k="name" v="Mainzer Straße"/>
    <tag k="oneway" v="yes"/>
  </way>
  <way id="19673681" version="6" timestamp="2008-07-26T15:39:18Z" uid="8764" user="egore911" changeset="599497">
    <nd ref="28607096"/>
    <nd ref="204124532"/>
    <nd ref="204124534"/>
    <nd ref="204124535"/>
    <nd ref="204124536"/>
    <nd ref="236145701"/>
    <nd ref="204124537"/>
    <nd ref="204124539"/>
    <nd ref="27093491"/>
    <nd ref="281228477"/>
    <nd ref="27093565"/>
    <nd ref="281228478"/>
    <nd ref="281228479"/>
    <nd ref="281228480"/>
    <tag k="created_by" v="Potlatch 0.6"/>
    <tag k="highway" v="residential"/>
    <tag k="name" v="Mainzer Straße"/>
    <tag k="oneway" v="yes"/>
  </way>
  <way id="19673681" version="7" timestamp="2009-03-01T17:43:09Z" uid="48641" user="bs5" changeset="717333">
    <nd ref="28607096"/>
    <nd ref="204124532"/>
    <tag k="created_by" v="Potlatch 0.6"/>
    <tag k="highway" v="residential"/>
    <tag k="name" v="Mainzer Straße"/>
    <tag k="oneway" v="yes"/>
  </way>
  <way id="19673681" version="8" timestamp="2009-08-21T07:44:15Z" uid="8464" user="MichaH" changeset="2220078">
    <nd ref="28607096"/>
    <nd ref="204124532"/>
    <tag k="highway" v="residential"/>
    <tag k="name" v="Mainzer Straße"/>
    <tag k="oneway" v="yes"/>
  </way>
  <way id="19673681" version="9" timestamp="2010-02-24T17:27:42Z" uid="94353" user="Fips" changeset="3964787">
    <nd ref="28607096"/>
    <nd ref="652696769"/>
    <nd ref="2387208"/>
    <tag k="highway" v="primary"/>
    <tag k="name" v="Gustav-Streesemann-Ring"/>
    <tag k="oneway" v="yes"/>
  </way>
  <way id="19673681" version="10" timestamp="2010-02-24T17:52:01Z" uid="94353" user="Fips" changeset="3964980">
    <nd ref="652706280"/>
    <nd ref="652706285"/>
    <nd ref="652696769"/>
    <nd ref="652706290"/>
    <nd ref="652706277"/>
    <tag k="highway" v="primary"/>
    <tag k="name" v="Gustav-Streesemann-Ring"/>
    <tag k="oneway" v="yes"/>
  </way>
  <way id="19673681" version="11" timestamp="2010-03-29T08:55:05Z" uid="94353" user="Fips" changeset="4265331">
    <nd ref="652706280"/>
    <nd ref="652706285"/>
    <nd ref="652696769"/>
    <tag k="highway" v="primary"/>
    <tag k="name" v="Gustav-Streesemann-Ring"/>
    <tag k="oneway" v="yes"/>
  </way>
  <way id="19673681" version="12" timestamp="2010-05-30T09:12:52Z" uid="94353" user="Fips" changeset="4849718">
    <nd ref="652706280"/>
    <nd ref="652706285"/>
    <nd ref="652696769"/>
    <tag k="highway" v="primary"/>
    <tag k="lit" v="yes"/>
    <tag k="name" v="Gustav-Streesemann-Ring"/>
    <tag k="oneway" v="yes"/>
  </way>
  <way id="19673681" version="13" timestamp="2012-01-24T01:08:27Z" uid="328555" user="peb12345" changeset="10480749"/>
  <way id="19673037" version="5" timestamp="2012-07-19T19:15:55Z" uid="722137" user="OSMF Redaction Account" changeset="12344619"/>
</osm>
