<?xml version='1.0' encoding='UTF-8'?>
<osm version="0.6" generator="libosmium/2.20.0">
  <way id="19709011" version="4" timestamp="2010-07-09T03:38:49Z" uid="74617" user="JohnSmith" changeset="5170825">
    <nd ref="204754193"/>
    <nd ref="204754194"/>
    <nd ref="204754196"/>
    <nd ref="204754197"/>
    <tag k="highway" v="residential"/>
    <tag k="maxspeed" v="50"/>
    <tag k="maxspeed:source" v="default residential speed limit in Australia"/>
    <tag k="name" v="Paul Avenue"/>
    <tag k="source" v="yahoo"/>
    <tag k="source:name" v="survey"/>
  </way>
  <way id="19709011" version="5" timestamp="2012-01-15T20:16:50Z" uid="147510" user="woodpeck_fixbot" changeset="10400850">
    <nd ref="204754193"/>
    <nd ref="204754194"/>
    <nd ref="204754196"/>
    <nd ref="204754197"/>
    <tag k="highway" v="residential"/>
    <tag k="name" v="Paul Avenue"/>
    <tag k="source" v="yahoo"/>
    <tag k="source:name" v="survey"/>
  </way>
  <way id="19709357" version="6" timestamp="2010-07-09T03:37:30Z" uid="74617" user="JohnSmith" changeset="5170825">
    <nd ref="204842259"/>
    <nd ref="204759723"/>
    <nd ref="204759724"/>
    <nd ref="204759725"/>
    <nd ref="204759726"/>
    <nd ref="204759728"/>
    <tag k="highway" v="residential"/>
    <tag k="maxspeed" v="50"/>
    <tag k="maxspeed:source" v="default residential speed limit in Australia"/>
    <tag k="name" v="David Avenue"/>
    <tag k="source" v="yahoo"/>
    <tag k="source:name" v="survey"/>
  </way>
  <way id="19709357" version="7" timestamp="2012-01-15T20:16:53Z" uid="147510" user="woodpeck_fixbot" changeset="10400850">
    <nd ref="204842259"/>
    <nd ref="204759723"/>
    <nd ref="204759724"/>
    <nd ref="204759725"/>
    <nd ref="204759726"/>
    <nd ref="204759728"/>
    <tag k="highway" v="residential"/>
    <tag k="name" v="David Avenue"/>
    <tag k="source" v="yahoo"/>
    <tag k="source:name" v="survey"/>
  </way>
  <way id="19709378" version="8" timestamp="2010-07-09T03:37:59Z" uid="74617" user="JohnSmith" changeset="5170825">
    <nd ref="204760292"/>
    <nd ref="204761083"/>
    <nd ref="204852653"/>
    <nd ref="204852652"/>
    <tag k="highway" v="residential"/>
    <tag k="maxspeed" v="50"/>
    <tag k="maxspeed:source" v="default residential speed limit in Australia"/>
    <tag k="name" v="Neal Street"/>
    <tag k="source" v="yahoo"/>
    <tag k="source:name" v="survey"/>
  </way>
  <way id="19709378" version="9" timestamp="2012-01-15T20:16:55Z" uid="147510" user="woodpeck_fixbot" changeset="10400850">
    <nd ref="204760292"/>
    <nd ref="204761083"/>
    <nd ref="204852653"/>
    <nd ref="204852652"/>
    <tag k="highway" v="residential"/>
    <tag k="name" v="Neal Street"/>
    <tag k="source" v="yahoo"/>
    <tag k="source:name" v="survey"/>
  </way>
  <way id="19709384" version="9" timestamp="2010-07-09T03:38:19Z" uid="74617" user="JohnSmith" changeset="5170825">
    <nd ref="204760463"/>
    <nd ref="715420943"/>
    <tag k="highway" v="residential"/>
    <tag k="maxspeed" v="50"/>
    <tag k="maxspeed:source" v="default residential speed limit in Australia"/>
    <tag k="name" v="Lincoln Drive"/>
    <tag k="source" v="yahoo"/>
    <tag k="source:name" v="survey"/>
  </way>
  <way id="19709384" version="10" timestamp="2012-01-15T20:16:56Z" uid="147510" user="woodpeck_fixbot" changeset="10400850">
    <nd ref="204760463"/>
    <nd ref="715420943"/>
    <tag k="highway" v="residential"/>
    <tag k="name" v="Lincoln Drive"/>
    <tag k="source" v="yahoo"/>
    <tag k="source:name" v="survey"/>
  </way>
  <way id="19709406" version="9" timestamp="2010-07-09T03:39:17Z" uid="74617" user="JohnSmith" changeset="5170825">
    <nd ref="204766089"/>
    <nd ref="204795580"/>
    <nd ref="204795582"/>
    <nd ref="204795583"/>
    <nd ref="204854505"/>
    <nd ref="204854499"/>
    <nd ref="204854494"/>
    <tag k="highway" v="residential"/>
    <tag k="maxspeed" v="50"/>
    <tag k="maxspeed:source" v="default residential speed limit in Australia"/>
    <tag k="name" v="Heather Avenue"/>
    <tag k="source" v="yahoo"/>
    <tag k="source:name" v="survey"/>
  </way>
  <way id="19709406" version="10" timestamp="2012-01-15T20:16:57Z" uid="147510" user="woodpeck_fixbot" changeset="10400850">
    <nd ref="204766089"/>
    <nd ref="204795580"/>
    <nd ref="204795582"/>
    <nd ref="204795583"/>
    <nd ref="204854505"/>
    <nd ref="204854499"/>
    <nd ref="204854494"/>
    <tag k="highway" v="residential"/>
    <tag k="name" v="Heather Avenue"/>
    <tag k="source" v="yahoo"/>
    <tag k="source:name" v="survey"/>
  </way>
  <way id="19709423" version="6" timestamp="2010-07-06T09:49:23Z" uid="74617" user="JohnSmith" changeset="5147679">
    <nd ref="26343106"/>
    <nd ref="204765182"/>
    <nd ref="204765183"/>
    <nd ref="204765179"/>
    <tag k="highway" v="residential"/>
    <tag k="maxspeed" v="50"/>
    <tag k="maxspeed:source" v="default residential speed limit in Australia"/>
    <tag k="name" v="Bennison Street"/>
  </way>
  <way id="19709423" version="7" timestamp="2012-01-15T20:16:59Z" uid="147510" user="woodpeck_fixbot" changeset="10400850">
    <nd ref="26343106"/>
    <nd ref="204765182"/>
    <nd ref="204765183"/>
    <nd ref="204765179"/>
    <tag k="highway" v="residential"/>
    <tag k="name" v="Bennison Street"/>
  </way>
  <way id="19709458" version="7" timestamp="2010-07-09T03:37:00Z" uid="74617" user="JohnSmith" changeset="5170825">
    <nd ref="204763304"/>
    <nd ref="715421139"/>
    <nd ref="715421141"/>
    <nd ref="715421144"/>
    <nd ref="715421147"/>
    <nd ref="204763306"/>
    <nd ref="715421151"/>
    <nd ref="715421154"/>
    <nd ref="204763309"/>
    <nd ref="715421158"/>
    <nd ref="715421161"/>
    <nd ref="715421165"/>
    <nd ref="715421168"/>
    <nd ref="204763311"/>
    <nd ref="715421172"/>
    <nd ref="715421173"/>
    <nd ref="715421174"/>
    <nd ref="204763304"/>
    <tag k="highway" v="residential"/>
    <tag k="junction" v="roundabout"/>
    <tag k="maxspeed" v="50"/>
    <tag k="maxspeed:source" v="default residential speed limit in Australia"/>
    <tag k="source" v="yahoo"/>
  </way>
  <way id="19709458" version="8" timestamp="2012-01-15T20:17:00Z" uid="147510" user="woodpeck_fixbot" changeset="10400850">
    <nd ref="204763304"/>
    <nd ref="715421139"/>
    <nd ref="715421141"/>
    <nd ref="715421144"/>
    <nd ref="715421147"/>
    <nd ref="204763306"/>
    <nd ref="715421151"/>
    <nd ref="715421154"/>
    <nd ref="204763309"/>
    <nd ref="715421158"/>
    <nd ref="715421161"/>
    <nd ref="715421165"/>
    <nd ref="715421168"/>
    <nd ref="204763311"/>
    <nd ref="715421172"/>
    <nd ref="715421173"/>
    <nd ref="715421174"/>
    <nd ref="204763304"/>
    <tag k="highway" v="residential"/>
    <tag k="junction" v="roundabout"/>
    <tag k="source" v="yahoo"/>
  </way>
  <way id="19709459" version="7" timestamp="2010-07-09T03:39:17Z" uid="74617" user="JohnSmith" changeset="5170825">
    <nd ref="204763311"/>
    <nd ref="204753825"/>
    <nd ref="204743396"/>
    <nd ref="204753826"/>
    <nd ref="204760292"/>
    <nd ref="204751736"/>
    <nd ref="292808822"/>
    <tag k="highway" v="residential"/>
    <tag k="maxspeed" v="50"/>
    <tag k="maxspeed:source" v="default residential speed limit in Australia"/>
    <tag k="name" v="Noga Avenue"/>
    <tag k="source" v="yahoo"/>
    <tag k="source:name" v="survey"/>
  </way>
  <way id="19709459" version="8" timestamp="2012-01-15T20:17:01Z" uid="147510" user="woodpeck_fixbot" changeset="10400850">
    <nd ref="204763311"/>
    <nd ref="204753825"/>
    <nd ref="204743396"/>
    <nd ref="204753826"/>
    <nd ref="204760292"/>
    <nd ref="204751736"/>
    <nd ref="292808822"/>
    <tag k="highway" v="residential"/>
    <tag k="name" v="Noga Avenue"/>
    <tag k="source" v="yahoo"/>
    <tag k="source:name" v="survey"/>
  </way>
  <way id="19709474" version="6" timestamp="2010-07-09T03:38:46Z" uid="74617" user="JohnSmith" changeset="5170825">
    <nd ref="204763309"/>
    <nd ref="204759726"/>
    <nd ref="204746390"/>
    <tag k="highway" v="residential"/>
    <tag k="maxspeed" v="50"/>
    <tag k="maxspeed:source" v="default residential speed limit in Australia"/>
    <tag k="name" v="Quinn Grove"/>
    <tag k="source" v="yahoo"/>
    <tag k="source:name" v="survey"/>
  </way>
  <way id="19709474" version="7" timestamp="2012-01-15T20:17:02Z" uid="147510" user="woodpeck_fixbot" changeset="10400850">
    <nd ref="204763309"/>
    <nd ref="204759726"/>
    <nd ref="204746390"/>
    <tag k="highway" v="residential"/>
    <tag k="name" v="Quinn Grove"/>
    <tag k="source" v="yahoo"/>
    <tag k="source:name" v="survey"/>
  </way>
  <way id="19709504" version="5" timestamp="2010-07-06T09:48:38Z" uid="74617" user="JohnSmith" changeset="5147679">
    <nd ref="26343100"/>
    <nd ref="204765179"/>
    <nd ref="204764263"/>
    <tag k="highway" v="residential"/>
    <tag k="maxspeed" v="50"/>
    <tag k="maxspeed:source" v="default residential speed limit in Australia"/>
    <tag k="name" v="Wattle Street"/>
  </way>
  <way id="19709504" version="6" timestamp="2012-01-15T20:17:04Z" uid="147510" user="woodpeck_fixbot" changeset="10400850">
    <nd ref="26343100"/>
    <nd ref="204765179"/>
    <nd ref="204764263"/>
    <tag k="highway" v="residential"/>
    <tag k="name" v="Wattle Street"/>
  </way>
  <way id="19709557" version="5" timestamp="2010-07-09T03:37:06Z" uid="74617" user="JohnSmith" changeset="5170825">
    <nd ref="204765405"/>
    <nd ref="715421378"/>
    <nd ref="204746390"/>
    <nd ref="715421380"/>
    <nd ref="715421381"/>
    <nd ref="204765407"/>
    <nd ref="715421383"/>
    <nd ref="204765408"/>
    <nd ref="715421384"/>
    <nd ref="204765409"/>
    <nd ref="715421385"/>
    <nd ref="204746391"/>
    <nd ref="715421387"/>
    <nd ref="204765410"/>
    <nd ref="715421388"/>
    <nd ref="715421389"/>
    <nd ref="204765411"/>
    <nd ref="715421390"/>
    <nd ref="204765405"/>
    <tag k="highway" v="residential"/>
    <tag k="junction" v="roundabout"/>
    <tag k="maxspeed" v="50"/>
    <tag k="maxspeed:source" v="default residential speed limit in Australia"/>
    <tag k="source" v="yahoo"/>
  </way>
  <way id="19709557" version="6" timestamp="2012-01-15T20:17:05Z" uid="147510" user="woodpeck_fixbot" changeset="10400850">
    <nd ref="204765405"/>
    <nd ref="715421378"/>
    <nd ref="204746390"/>
    <nd ref="715421380"/>
    <nd ref="715421381"/>
    <nd ref="204765407"/>
    <nd ref="715421383"/>
    <nd ref="204765408"/>
    <nd ref="715421384"/>
    <nd ref="204765409"/>
    <nd ref="715421385"/>
    <nd ref="204746391"/>
    <nd ref="715421387"/>
    <nd ref="204765410"/>
    <nd ref="715421388"/>
    <nd ref="715421389"/>
    <nd ref="204765411"/>
    <nd ref="715421390"/>
    <nd ref="204765405"/>
    <tag k="highway" v="residential"/>
    <tag k="junction" v="roundabout"/>
    <tag k="source" v="yahoo"/>
  </way>
  <way id="19709560" version="8" timestamp="2010-07-09T03:39:17Z" uid="74617" user="JohnSmith" changeset="5170825">
    <nd ref="204765408"/>
    <nd ref="204764540"/>
    <nd ref="204796083"/>
    <nd ref="204826021"/>
    <tag k="highway" v="residential"/>
    <tag k="maxspeed" v="50"/>
    <tag k="maxspeed:source" v="default residential speed limit in Australia"/>
    <tag k="name" v="Lincoln Drive"/>
    <tag k="source" v="yahoo"/>
    <tag k="source:name" v="survey"/>
  </way>
  <way id="19709560" version="9" timestamp="2012-01-15T20:17:07Z" uid="147510" user="woodpeck_fixbot" changeset="10400850">
    <nd ref="204765408"/>
    <nd ref="204764540"/>
    <nd ref="204796083"/>
    <nd ref="204826021"/>
    <tag k="highway" v="residential"/>
    <tag k="name" v="Lincoln Drive"/>
    <tag k="source" v="yahoo"/>
    <tag k="source:name" v="survey"/>
  </way>
  <way id="19709566" version="6" timestamp="2010-07-09T03:38:34Z" uid="74617" user="JohnSmith" changeset="5170825">
    <nd ref="204746391"/>
    <nd ref="204746392"/>
    <tag k="highway" v="residential"/>
    <tag k="maxspeed" v="50"/>
    <tag k="maxspeed:source" v="default residential speed limit in Australia"/>
    <tag k="name" v="Quinn Grove"/>
    <tag k="source" v="yahoo"/>
    <tag k="source:name" v="survey"/>
  </way>
  <way id="19709566" version="7" timestamp="2012-01-15T20:17:09Z" uid="147510" user="woodpeck_fixbot" changeset="10400850">
    <nd ref="204746391"/>
    <nd ref="204746392"/>
    <tag k="highway" v="residential"/>
    <tag k="name" v="Quinn Grove"/>
    <tag k="source" v="yahoo"/>
    <tag k="source:name" v="survey"/>
  </way>
  <way id="19709612" version="5" timestamp="2010-07-09T03:39:16Z" uid="74617" user="JohnSmith" changeset="5170825">
    <nd ref="204766087"/>
    <nd ref="715421396"/>
    <nd ref="204746392"/>
    <nd ref="715421397"/>
    <nd ref="204766088"/>
    <nd ref="715421399"/>
    <nd ref="204766089"/>
    <nd ref="715421400"/>
    <nd ref="204766090"/>
    <nd ref="715421401"/>
    <nd ref="204746393"/>
    <nd ref="715421402"/>
    <nd ref="715421403"/>
    <nd ref="204766092"/>
    <nd ref="715421405"/>
    <nd ref="204766093"/>
    <nd ref="715421407"/>
    <nd ref="715421408"/>
    <nd ref="204766087"/>
    <tag k="highway" v="residential"/>
    <tag k="junction" v="roundabout"/>
    <tag k="maxspeed" v="50"/>
    <tag k="maxspeed:source" v="default residential speed limit in Australia"/>
    <tag k="source" v="yahoo"/>
  </way>
  <way id="19709612" version="6" timestamp="2012-01-15T20:17:10Z" uid="147510" user="woodpeck_fixbot" changeset="10400850">
    <nd ref="204766087"/>
    <nd ref="715421396"/>
    <nd ref="204746392"/>
    <nd ref="715421397"/>
    <nd ref="204766088"/>
    <nd ref="715421399"/>
    <nd ref="204766089"/>
    <nd ref="715421400"/>
    <nd ref="204766090"/>
    <nd ref="715421401"/>
    <nd ref="204746393"/>
    <nd ref="715421402"/>
    <nd ref="715421403"/>
    <nd ref="204766092"/>
    <nd ref="715421405"/>
    <nd ref="204766093"/>
    <nd ref="715421407"/>
    <nd ref="715421408"/>
    <nd ref="204766087"/>
    <tag k="highway" v="residential"/>
    <tag k="junction" v="roundabout"/>
    <tag k="source" v="yahoo"/>
  </way>
  <way id="19709616" version="4" timestamp="2010-07-09T03:38:39Z" uid="74617" user="JohnSmith" changeset="5170825">
    <nd ref="204766093"/>
    <nd ref="204761208"/>
    <tag k="highway" v="residential"/>
    <tag k="maxspeed" v="50"/>
    <tag k="maxspeed:source" v="default residential speed limit in Australia"/>
    <tag k="name" v="Heather Avenue"/>
    <tag k="source" v="yahoo"/>
    <tag k="source:name" v="survey"/>
  </way>
  <way id="19709616" version="5" timestamp="2012-01-15T20:17:11Z" uid="147510" user="woodpeck_fixbot" changeset="10400850">
    <nd ref="204766093"/>
    <nd ref="204761208"/>
    <tag k="highway" v="residential"/>
    <tag k="name" v="Heather Avenue"/>
    <tag k="source" v="yahoo"/>
    <tag k="source:name" v="survey"/>
  </way>
  <way id="19709622" version="17" timestamp="2010-07-09T03:37:49Z" uid="74617" user="JohnSmith" changeset="5170825">
    <nd ref="204746393"/>
    <nd ref="708302504"/>
    <tag k="highway" v="residential"/>
    <tag k="maxspeed" v="50"/>
    <tag k="maxspeed:source" v="default residential speed limit in Australia"/>
    <tag k="name" v="Quinn Grove"/>
    <tag k="source" v="yahoo"/>
    <tag k="source:name" v="survey"/>
  </way>
  <way id="19709622" version="18" timestamp="2012-01-15T20:17:12Z" uid="147510" user="woodpeck_fixbot" changeset="10400850">
    <nd ref="204746393"/>
    <nd ref="708302504"/>
    <tag k="highway" v="residential"/>
    <tag k="name" v="Quinn Grove"/>
    <tag k="source" v="yahoo"/>
    <tag k="source:name" v="survey"/>
  </way>
  <way id="19709794" version="4" timestamp="2008-05-31T11:40:28Z" uid="17602" user="B10xyz" changeset="559609">
    <nd ref="204770822"/>
    <nd ref="204770713"/>
    <nd ref="204770714"/>
    <nd ref="267656044"/>
    <nd ref="266805381"/>
    <tag k="created_by" v="Potlatch 0.9c"/>
    <tag k="highway" v="residential"/>
  </way>
  <way id="19709794" version="5" timestamp="2009-03-03T13:14:46Z" uid="40801" user="friedemann2811" changeset="730946">
    <nd ref="204770822"/>
    <nd ref="204770713"/>
    <nd ref="204770714"/>
    <tag k="created_by" v="Potlatch 0.10f"/>
    <tag k="highway" v="residential"/>
  </way>
  <way id="19709794" version="6" timestamp="2009-03-03T13:15:05Z" uid="40801" user="friedemann2811" changeset="730946">
    <nd ref="204770822"/>
    <nd ref="204770713"/>
    <nd ref="204770714"/>
    <tag k="addr:postcode" v="65199"/>
    <tag k="created_by" v="Potlatch 0.10f"/>
    <tag k="highway" v="residential"/>
    <tag k="name" v="Weher Köppel"/>
  </way>
  <way id="19709794" version="7" timestamp="2010-03-01T19:06:20Z" uid="28378" user="PHerison" changeset="4011167">
    <nd ref="204770822"/>
    <nd ref="204770713"/>
    <nd ref="204770714"/>
    <tag k="addr:postcode" v="65199"/>
    <tag k="highway" v="residential"/>
    <tag k="name" v="Weher Köppel"/>
  </way>
  <way id="19709794" version="8" timestamp="2011-05-08T23:54:41Z" uid="201359" user="wambacher" changeset="8088719">
    <nd ref="204770822"/>
    <nd ref="1277762432"/>
    <nd ref="204770714"/>
    <tag k="addr:postcode" v="65199"/>
    <tag k="highway" v="residential"/>
    <tag k="name" v="Weher Köppel"/>
  </way>
  <way id="19709794" version="9" timestamp="2011-12-30T21:01:01Z" uid="328555" user="peb12345" changeset="10249660"/>
  <way id="19709802" version="6" timestamp="2008-05-31T11:37:39Z" uid="17602" user="B10xyz" changeset="559609">
    <nd ref="204770713"/>
    <nd ref="204771968"/>
    <nd ref="204771518"/>
    <nd ref="204771052"/>
    <nd ref="267655106"/>
    <nd ref="267655107"/>
    <tag k="created_by" v="Potlatch 0.9c"/>
    <tag k="highway" v="residential"/>
  </way>
  <way id="19709802" version="7" timestamp="2008-05-31T19:02:17Z" uid="42233" user="Leipnizkeks" changeset="565780">
    <nd ref="204770713"/>
    <nd ref="204771968"/>
    <nd ref="204771518"/>
    <nd ref="204771052"/>
    <nd ref="267655106"/>
    <nd ref="267655107"/>
    <tag k="created_by" v="Potlatch 0.9c"/>
    <tag k="highway" v="residential"/>
  </way>
  <way id="19709802" version="8" timestamp="2009-03-02T08:28:56Z" uid="40801" user="friedemann2811" changeset="725924">
    <nd ref="204770713"/>
    <nd ref="204771968"/>
    <nd ref="204771518"/>
    <nd ref="204771052"/>
    <tag k="created_by" v="Potlatch 0.10f"/>
    <tag k="highway" v="residential"/>
  </way>
  <way id="19709802" version="9" timestamp="2009-03-02T08:29:30Z" uid="40801" user="friedemann2811" changeset="725924">
    <nd ref="204770713"/>
    <nd ref="204771968"/>
    <nd ref="204771518"/>
    <nd ref="204771052"/>
    <tag k="created_by" v="Potlatch 0.10f"/>
    <tag k="highway" v="residential"/>
    <tag k="name" v="Sperberweg"/>
  </way>
  <way id="19709802" version="10" timestamp="2009-03-03T13:15:55Z" uid="40801" user="friedemann2811" changeset="730946">
    <nd ref="204770713"/>
    <nd ref="204771968"/>
    <nd ref="204771518"/>
    <nd ref="204771052"/>
    <tag k="addr:postcode" v="65199"/>
    <tag k="created_by" v="Potlatch 0.10f"/>
    <tag k="highway" v="residential"/>
    <tag k="name" v="Sperberweg"/>
  </way>
  <way id="19709802" version="11" timestamp="2011-04-15T22:24:40Z" uid="157940" user="kmaufrath" changeset="7874319">
    <nd ref="204771968"/>
    <nd ref="204770713"/>
    <nd ref="204771968"/>
    <tag k="addr:postcode" v="65199"/>
    <tag k="highway" v="residential"/>
    <tag k="name" v="Sperberweg"/>
  </way>
  <way id="19709802" version="12" timestamp="2011-05-08T23:54:42Z" uid="201359" user="wambacher" changeset="8088719"/>
  <way id="19709832" version="3" timestamp="2008-05-31T11:41:20Z" uid="17602" user="B10xyz" changeset="559609">
    <nd ref="204771968"/>
    <nd ref="204771969"/>
    <nd ref="204771970"/>
    <nd ref="204771971"/>
    <nd ref="266805381"/>
    <nd ref="204771972"/>
    <nd ref="267656222"/>
    <nd ref="204771973"/>
    <nd ref="204771975"/>
    <nd ref="204771976"/>
    <nd ref="204771977"/>
    <nd ref="204771979"/>
    <nd ref="204771980"/>
    <nd ref="204771981"/>
    <tag k="created_by" v="Potlatch 0.9c"/>
    <tag k="highway" v="residential"/>
  </way>
  <way id="19709832" version="4" timestamp="2009-03-03T13:18:05Z" uid="40801" user="friedemann2811" changeset="730946">
    <nd ref="204771968"/>
    <nd ref="204771969"/>
    <nd ref="204771970"/>
    <nd ref="204771971"/>
    <nd ref="266805381"/>
    <nd ref="204771972"/>
    <nd ref="267656222"/>
    <nd ref="204771973"/>
    <nd ref="204771975"/>
    <nd ref="204771976"/>
    <nd ref="204771977"/>
    <nd ref="204771979"/>
    <nd ref="204771980"/>
    <nd ref="204771981"/>
    <tag k="created_by" v="Potlatch 0.10f"/>
    <tag k="highway" v="residential"/>
    <tag k="name" v="Greifstraße"/>
  </way>
  <way id="19709832" version="5" timestamp="2009-03-03T13:19:06Z" uid="40801" user="friedemann2811" changeset="730946">
    <nd ref="204771968"/>
    <nd ref="204771969"/>
    <nd ref="204771970"/>
    <nd ref="204771971"/>
    <nd ref="266805381"/>
    <nd ref="204771972"/>
    <nd ref="267656222"/>
    <nd ref="204771973"/>
    <nd ref="204771975"/>
    <nd ref="204771976"/>
    <nd ref="204771977"/>
    <nd ref="204771979"/>
    <nd ref="204771980"/>
    <nd ref="204771981"/>
    <tag k="addr:postcode" v="65199"/>
    <tag k="created_by" v="Potlatch 0.10f"/>
    <tag k="highway" v="residential"/>
    <tag k="name" v="Greifstraße"/>
  </way>
  <way id="19709832" version="6" timestamp="2011-04-15T21:19:21Z" uid="157940" user="kmaufrath" changeset="7873811">
    <nd ref="204771968"/>
    <nd ref="204771969"/>
    <nd ref="204771970"/>
    <nd ref="1246265942"/>
    <nd ref="204771971"/>
    <nd ref="266805381"/>
    <nd ref="204771972"/>
    <nd ref="267656222"/>
    <nd ref="204771973"/>
    <nd ref="204771975"/>
    <nd ref="1246265949"/>
    <nd ref="204771976"/>
    <nd ref="204771977"/>
    <nd ref="204771979"/>
    <nd ref="204771980"/>
    <nd ref="204771981"/>
    <tag k="addr:postcode" v="65199"/>
    <tag k="highway" v="residential"/>
    <tag k="name" v="Greifstraße"/>
  </way>
  <way id="19709832" version="7" timestamp="2011-04-15T22:25:09Z" uid="157940" user="kmaufrath" changeset="7874319">
    <nd ref="204771968"/>
    <nd ref="204771969"/>
    <nd ref="204771970"/>
    <nd ref="1246265942"/>
    <nd ref="204771971"/>
    <nd ref="266805381"/>
    <nd ref="204771972"/>
    <nd ref="267656222"/>
    <nd ref="204771973"/>
    <nd ref="204771975"/>
    <nd ref="1246265949"/>
    <nd ref="204771976"/>
    <nd ref="204771977"/>
    <tag k="addr:postcode" v="65199"/>
    <tag k="highway" v="residential"/>
    <tag k="name" v="Greifstraße"/>
  </way>
  <way id="19709832" version="8" timestamp="2011-04-19T08:02:19Z" uid="157940" user="kmaufrath" changeset="7904016">
    <nd ref="204771968"/>
    <nd ref="1250859680"/>
    <nd ref="204771969"/>
    <nd ref="204771970"/>
    <nd ref="1246265942"/>
    <nd ref="204771971"/>
    <nd ref="1250859707"/>
    <nd ref="266805381"/>
    <nd ref="204771972"/>
    <nd ref="267656222"/>
    <nd ref="204771973"/>
    <nd ref="204771975"/>
    <nd ref="1246265949"/>
    <nd ref="204771976"/>
    <nd ref="204771977"/>
    <tag k="addr:postcode" v="65199"/>
    <tag k="highway" v="residential"/>
    <tag k="name" v="Greifstraße"/>
  </way>
  <way id="19709832" version="9" timestamp="2011-05-08T23:54:42Z" uid="201359" user="wambacher" changeset="8088719">
    <nd ref="1277762434"/>
    <nd ref="1250859680"/>
    <nd ref="204771969"/>
    <nd ref="204771970"/>
    <nd ref="1246265942"/>
    <nd ref="204771971"/>
    <nd ref="1250859707"/>
    <nd ref="266805381"/>
    <nd ref="204771972"/>
    <nd ref="267656222"/>
    <nd ref="204771973"/>
    <nd ref="204771975"/>
    <nd ref="1246265949"/>
    <nd ref="204771976"/>
    <nd ref="204771977"/>
    <tag k="addr:postcode" v="65199"/>
    <tag k="highway" v="residential"/>
    <tag k="name" v="Greifstraße"/>
  </way>
  <way id="19709832" version="10" timestamp="2011-12-30T21:00:59Z" uid="328555" user="peb12345" changeset="10249660"/>
  <way id="19709842" version="4" timestamp="2010-07-06T09:52:39Z" uid="74617" user="JohnSmith" changeset="5147679">
    <nd ref="26342953"/>
    <nd ref="204772573"/>
    <tag k="highway" v="residential"/>
    <tag k="maxspeed" v="50"/>
    <tag k="maxspeed:source" v="default residential speed limit in Australia"/>
    <tag k="name" v="Haig Street"/>
  </way>
  <way id="19709842" version="5" timestamp="2012-01-15T20:17:13Z" uid="147510" user="woodpeck_fixbot" changeset="10400850">
    <nd ref="26342953"/>
    <nd ref="204772573"/>
    <tag k="highway" v="residential"/>
    <tag k="name" v="Haig Street"/>
  </way>
</osm>
