<?xml version='1.0' encoding='UTF-8'?>
<osm version="0.6" generator="libosmium/2.20.0">
  <way id="19751117" version="2" timestamp="2008-07-19T14:33:49Z" uid="4667" user="MapZ" changeset="539737">
    <nd ref="205428813"/>
    <nd ref="205428846"/>
    <nd ref="205428819"/>
    <nd ref="205428816"/>
    <tag k="created_by" v="JOSM"/>
    <tag k="highway" v="residential"/>
    <tag k="name" v="Lettengasse"/>
    <tag k="postal_code" v="69469"/>
  </way>
  <way id="19751117" version="3" timestamp="2008-07-19T14:45:23Z" uid="4667" user="MapZ" changeset="539737">
    <nd ref="205428813"/>
    <nd ref="205428846"/>
    <nd ref="205428819"/>
    <nd ref="205428816"/>
    <tag k="created_by" v="JOSM"/>
    <tag k="highway" v="residential"/>
    <tag k="name" v="Lettengasse"/>
    <tag k="postal_code" v="69493"/>
  </way>
  <way id="19751117" version="4" timestamp="2011-10-23T15:23:19Z" uid="475266" user="Lobelt_2" changeset="9634216">
    <nd ref="205428813"/>
    <nd ref="205428846"/>
    <nd ref="205428819"/>
    <nd ref="205428816"/>
    <tag k="highway" v="residential"/>
    <tag k="name" v="Lettengasse"/>
    <tag k="postal_code" v="69493"/>
  </way>
  <way id="19751118" version="2" timestamp="2008-07-19T14:33:50Z" uid="4667" user="MapZ" changeset="539737">
    <nd ref="25778421"/>
    <nd ref="205428858"/>
    <tag k="created_by" v="JOSM"/>
    <tag k="highway" v="residential"/>
    <tag k="name" v="Im Scheibling"/>
    <tag k="postal_code" v="69469"/>
  </way>
  <way id="19751118" version="3" timestamp="2008-07-19T14:45:24Z" uid="4667" user="MapZ" changeset="539737">
    <nd ref="25778421"/>
    <nd ref="205428858"/>
    <tag k="created_by" v="JOSM"/>
    <tag k="highway" v="residential"/>
    <tag k="name" v="Im Scheibling"/>
    <tag k="postal_code" v="69493"/>
  </way>
  <way id="19751118" version="4" timestamp="2011-10-23T15:24:44Z" uid="475266" user="Lobelt_2" changeset="9634216">
    <nd ref="25778421"/>
    <nd ref="205428858"/>
    <tag k="highway" v="residential"/>
    <tag k="name" v="Im Scheibling"/>
    <tag k="postal_code" v="69493"/>
  </way>
  <way id="19751119" version="2" timestamp="2008-07-19T14:45:24Z" uid="4667" user="MapZ" changeset="539737">
    <nd ref="24914627"/>
    <nd ref="205428896"/>
    <nd ref="205428892"/>
    <nd ref="205428889"/>
    <nd ref="205428887"/>
    <nd ref="205428885"/>
    <nd ref="205428881"/>
    <nd ref="205428871"/>
    <nd ref="205428868"/>
    <nd ref="205428865"/>
    <tag k="created_by" v="JOSM"/>
    <tag k="highway" v="residential"/>
    <tag k="name" v="Brunnengasse"/>
  </way>
  <way id="19751119" version="3" timestamp="2009-10-27T14:26:42Z" uid="66458" user="dkick" changeset="2965591">
    <nd ref="24914627"/>
    <nd ref="205428896"/>
    <nd ref="205428892"/>
    <nd ref="205428889"/>
    <nd ref="205428887"/>
    <nd ref="205428885"/>
    <tag k="highway" v="residential"/>
    <tag k="name" v="Brunnengasse"/>
  </way>
  <way id="19751117" version="5" timestamp="2012-04-16T08:20:27Z" uid="604523" user="673a" changeset="11319129">
    <nd ref="205428813"/>
    <nd ref="205428846"/>
    <nd ref="205428819"/>
    <nd ref="205428816"/>
    <tag k="access" v="destination"/>
    <tag k="highway" v="residential"/>
    <tag k="name" v="Lettengasse"/>
    <tag k="postal_code" v="69493"/>
  </way>
  <way id="19751117" version="6" timestamp="2012-07-17T02:16:29Z" uid="722137" user="OSMF Redaction Account" changeset="12255249">
    <nd ref="205428813"/>
    <nd ref="205428846"/>
    <nd ref="205428819"/>
    <nd ref="205428816"/>
    <tag k="access" v="destination"/>
    <tag k="highway" v="residential"/>
    <tag k="name" v="Lettengasse"/>
  </way>
  <way id="19751118" version="5" timestamp="2012-07-17T02:16:30Z" uid="722137" user="OSMF Redaction Account" changeset="12255249">
    <nd ref="25778421"/>
    <nd ref="205428858"/>
    <tag k="highway" v="residential"/>
    <tag k="name" v="Im Scheibling"/>
  </way>
  <way id="19751119" version="4" timestamp="2012-07-20T00:06:33Z" uid="604523" user="673a" changeset="12351710">
    <nd ref="24914627"/>
    <nd ref="205428892"/>
    <nd ref="205428889"/>
    <nd ref="205428887"/>
    <nd ref="205428885"/>
    <tag k="highway" v="residential"/>
    <tag k="name" v="Brunnengasse"/>
  </way>
</osm>
