<?xml version='1.0' encoding='UTF-8'?>
<osm version="0.6" generator="libosmium/2.20.0">
  <way id="19821497" version="12" timestamp="2010-01-08T20:24:07Z" uid="33382" user="de_muur" changeset="3573271">
    <nd ref="30391977"/>
    <nd ref="30391978"/>
    <nd ref="207137329"/>
    <nd ref="30391981"/>
    <nd ref="30391944"/>
    <tag k="cycleway" v="track"/>
    <tag k="highway" v="primary"/>
    <tag k="lanes" v="2"/>
    <tag k="maxspeed" v="50"/>
    <tag k="name" v="Sebaldsbrücker Heerstraße"/>
    <tag k="oneway" v="yes"/>
    <tag k="ref" v="B 75"/>
    <tag k="surface" v="paved"/>
  </way>
  <way id="19821497" version="13" timestamp="2010-06-20T13:50:38Z" uid="4473" user="EtricCeline" changeset="5033148">
    <nd ref="30391977"/>
    <nd ref="30391978"/>
    <nd ref="207137329"/>
    <nd ref="778237573"/>
    <nd ref="30391981"/>
    <nd ref="30391944"/>
    <tag k="cycleway" v="track"/>
    <tag k="highway" v="primary"/>
    <tag k="lanes" v="2"/>
    <tag k="maxspeed" v="50"/>
    <tag k="name" v="Sebaldsbrücker Heerstraße"/>
    <tag k="oneway" v="yes"/>
    <tag k="ref" v="B 75"/>
    <tag k="surface" v="paved"/>
  </way>
  <way id="19821497" version="14" timestamp="2010-07-10T12:00:28Z" uid="142331" user="bytesqueezer" changeset="5181972">
    <nd ref="30391977"/>
    <nd ref="30391978"/>
    <nd ref="809967679"/>
    <nd ref="207137329"/>
    <nd ref="778237573"/>
    <nd ref="30391981"/>
    <nd ref="30391944"/>
    <tag k="cycleway" v="track"/>
    <tag k="highway" v="primary"/>
    <tag k="lanes" v="2"/>
    <tag k="maxspeed" v="50"/>
    <tag k="name" v="Sebaldsbrücker Heerstraße"/>
    <tag k="oneway" v="yes"/>
    <tag k="ref" v="B 75"/>
    <tag k="surface" v="paved"/>
  </way>
  <way id="19821498" version="7" timestamp="2010-01-13T15:49:00Z" uid="33382" user="de_muur" changeset="3610882">
    <nd ref="30398378"/>
    <nd ref="411894760"/>
    <nd ref="30398379"/>
    <tag k="highway" v="tertiary"/>
    <tag k="maxspeed" v="50"/>
    <tag k="name" v="Hans-Bredow-Straße"/>
    <tag k="oneway" v="yes"/>
    <tag k="osmarender:renderName" v="no"/>
    <tag k="surface" v="paved"/>
  </way>
  <way id="19821498" version="8" timestamp="2011-09-01T02:17:27Z" uid="207745" user="NE2" changeset="9181205">
    <nd ref="30398378"/>
    <nd ref="411894760"/>
    <nd ref="30398379"/>
    <tag k="highway" v="tertiary"/>
    <tag k="maxspeed" v="50"/>
    <tag k="name" v="Hans-Bredow-Straße"/>
    <tag k="oneway" v="yes"/>
    <tag k="surface" v="paved"/>
  </way>
  <way id="19821890" version="6" timestamp="2010-03-27T23:27:46Z" uid="20587" user="balrog-kun" changeset="4250871">
    <nd ref="206884945"/>
    <nd ref="54583865"/>
    <nd ref="54910032"/>
    <nd ref="54797486"/>
    <tag k="created_by" v="Potlatch 0.10f"/>
    <tag k="highway" v="residential"/>
    <tag k="name" v="Brookside Avenue"/>
    <tag k="tiger:cfcc" v="A41"/>
    <tag k="tiger:county" v="San Bernardino, CA"/>
  </way>
  <way id="19821935" version="3" timestamp="2009-10-20T14:23:33Z" uid="36809" user="pfoten_weg_!_" changeset="2903434">
    <nd ref="206885400"/>
    <nd ref="206885406"/>
    <nd ref="206885451"/>
    <nd ref="206885411"/>
    <nd ref="206885417"/>
    <nd ref="206885420"/>
    <nd ref="206885425"/>
    <nd ref="206885430"/>
    <nd ref="206885435"/>
    <nd ref="206885439"/>
    <nd ref="206885446"/>
    <nd ref="206885411"/>
    <tag k="highway" v="living_street"/>
    <tag k="name" v="Arberweg"/>
  </way>
  <way id="19821937" version="3" timestamp="2009-10-20T14:23:34Z" uid="36809" user="pfoten_weg_!_" changeset="2903434">
    <nd ref="206885417"/>
    <nd ref="206885456"/>
    <tag k="highway" v="living_street"/>
    <tag k="name" v="Arberweg"/>
  </way>
  <way id="19821938" version="5" timestamp="2009-10-20T14:23:33Z" uid="36809" user="pfoten_weg_!_" changeset="2903434">
    <nd ref="370898349"/>
    <nd ref="370898395"/>
    <nd ref="370898394"/>
    <nd ref="370898393"/>
    <nd ref="370898392"/>
    <nd ref="370898391"/>
    <nd ref="206885461"/>
    <nd ref="206885465"/>
    <nd ref="206885470"/>
    <nd ref="206885476"/>
    <nd ref="206885480"/>
    <tag k="highway" v="residential"/>
    <tag k="maxspeed" v="30"/>
    <tag k="name" v="Schubertweg"/>
    <tag k="source" v="survey"/>
  </way>
  <way id="19821938" version="6" timestamp="2009-10-22T21:41:53Z" uid="36809" user="pfoten_weg_!_" changeset="2925750">
    <nd ref="370898349"/>
    <nd ref="370898395"/>
    <nd ref="370898394"/>
    <nd ref="370898393"/>
    <nd ref="370898392"/>
    <nd ref="370898391"/>
    <nd ref="206885461"/>
    <nd ref="206885465"/>
    <nd ref="206885470"/>
    <nd ref="206885476"/>
    <nd ref="206885480"/>
    <tag k="highway" v="residential"/>
    <tag k="maxspeed" v="30"/>
    <tag k="name" v="Schubertweg"/>
  </way>
  <way id="19821938" version="7" timestamp="2011-08-25T08:21:23Z" uid="478790" user="Roland Brandl" changeset="9119100">
    <nd ref="370898349"/>
    <nd ref="370898395"/>
    <nd ref="370898394"/>
    <nd ref="370898393"/>
    <nd ref="370898392"/>
    <nd ref="370898391"/>
    <nd ref="206885461"/>
    <nd ref="206885465"/>
    <nd ref="206885470"/>
    <nd ref="206885476"/>
    <nd ref="206885480"/>
    <tag k="highway" v="residential"/>
    <tag k="maxspeed" v="30"/>
    <tag k="name" v="Schubertweg"/>
  </way>
  <way id="19821940" version="2" timestamp="2008-08-11T20:06:57Z" uid="36809" user="pfoten_weg_!_" changeset="186229">
    <nd ref="206885482"/>
    <nd ref="206885485"/>
    <nd ref="206885486"/>
    <nd ref="206885488"/>
    <nd ref="206885493"/>
    <nd ref="206885497"/>
    <nd ref="206885501"/>
    <nd ref="287107934"/>
    <nd ref="206885504"/>
    <nd ref="206885509"/>
    <nd ref="206885514"/>
    <nd ref="206885517"/>
    <tag k="created_by" v="Potlatch 0.10b"/>
    <tag k="highway" v="unclassified"/>
  </way>
  <way id="19821940" version="3" timestamp="2008-08-11T20:17:37Z" uid="36809" user="pfoten_weg_!_" changeset="186229">
    <nd ref="206885482"/>
    <nd ref="206885485"/>
    <nd ref="206885486"/>
    <nd ref="206885488"/>
    <nd ref="206885493"/>
    <nd ref="206885497"/>
    <nd ref="206885501"/>
    <nd ref="287107934"/>
    <nd ref="206885504"/>
    <nd ref="206885509"/>
    <nd ref="206885514"/>
    <nd ref="206885517"/>
    <tag k="created_by" v="Potlatch 0.10b"/>
    <tag k="highway" v="unclassified"/>
  </way>
  <way id="19821940" version="4" timestamp="2009-07-21T17:48:20Z" uid="71041" user="TomRadfahrer" changeset="1897481">
    <nd ref="206885482"/>
    <nd ref="206885485"/>
    <nd ref="206885486"/>
    <nd ref="206885488"/>
    <nd ref="206885493"/>
    <nd ref="206885497"/>
    <nd ref="206885501"/>
    <nd ref="287107934"/>
    <tag k="created_by" v="Potlatch 0.10b"/>
    <tag k="highway" v="residential"/>
    <tag k="name" v="Graf-Ruepp-Straße"/>
  </way>
  <way id="19821940" version="5" timestamp="2009-08-26T14:15:41Z" uid="36809" user="pfoten_weg_!_" changeset="2267796">
    <nd ref="206885482"/>
    <nd ref="206885485"/>
    <nd ref="206885486"/>
    <nd ref="206885488"/>
    <nd ref="206885493"/>
    <nd ref="206885497"/>
    <nd ref="206885501"/>
    <nd ref="287107934"/>
    <tag k="highway" v="residential"/>
    <tag k="name" v="Graf-Ruepp-Straße"/>
  </way>
  <way id="19821940" version="6" timestamp="2011-11-14T13:17:51Z" uid="28519" user="Glücki" changeset="9824486">
    <nd ref="206885482"/>
    <nd ref="206885485"/>
    <nd ref="1502815229"/>
    <nd ref="206885486"/>
    <nd ref="206885488"/>
    <nd ref="206885493"/>
    <nd ref="206885497"/>
    <nd ref="206885501"/>
    <nd ref="287107934"/>
    <tag k="highway" v="residential"/>
    <tag k="name" v="Graf-Ruepp-Straße"/>
  </way>
  <way id="19821497" version="15" timestamp="2012-07-17T11:52:45Z" uid="722137" user="OSMF Redaction Account" changeset="12264539">
    <nd ref="30391977"/>
    <nd ref="30391978"/>
    <nd ref="809967679"/>
    <nd ref="207137329"/>
    <nd ref="778237573"/>
    <nd ref="30391981"/>
    <nd ref="30391944"/>
    <tag k="cycleway" v="track"/>
    <tag k="highway" v="primary"/>
    <tag k="lanes" v="2"/>
    <tag k="name" v="Sebaldsbrücker Heerstraße"/>
    <tag k="oneway" v="yes"/>
  </way>
  <way id="19821498" version="9" timestamp="2012-07-17T11:28:48Z" uid="722137" user="OSMF Redaction Account" changeset="12264157">
    <nd ref="30398378"/>
    <nd ref="411894760"/>
    <nd ref="30398379"/>
    <tag k="highway" v="tertiary"/>
    <tag k="name" v="Hans-Bredow-Straße"/>
    <tag k="oneway" v="yes"/>
  </way>
  <way id="19821940" version="7" timestamp="2012-06-14T20:06:30Z" uid="290723" user="sulagaloh" changeset="11898830">
    <nd ref="206885482"/>
    <nd ref="206885485"/>
    <nd ref="1502815229"/>
    <nd ref="206885486"/>
    <nd ref="206885488"/>
    <nd ref="206885493"/>
    <nd ref="206885497"/>
    <nd ref="206885501"/>
    <nd ref="1787763912"/>
    <nd ref="1787763907"/>
    <tag k="highway" v="residential"/>
    <tag k="name" v="Graf-Ruepp-Straße"/>
  </way>
</osm>
