<?xml version='1.0' encoding='UTF-8'?>
<osm version="0.6" generator="libosmium/2.20.0">
  <way id="19848007" version="9" timestamp="2008-10-14T19:06:01Z" uid="65847" user="LKK" changeset="339169">
    <nd ref="207539634"/>
    <nd ref="260229288"/>
    <nd ref="247878363"/>
    <nd ref="247877630"/>
    <nd ref="244044113"/>
    <tag k="created_by" v="Potlatch 0.8b"/>
    <tag k="highway" v="residential"/>
    <tag k="name" v="ул. Ами Буе"/>
    <tag k="oneway" v="yes"/>
  </way>
  <way id="19848007" version="10" timestamp="2010-07-11T11:43:24Z" uid="110263" user="werner2101" changeset="5189510">
    <nd ref="207539634"/>
    <nd ref="260229288"/>
    <nd ref="247878363"/>
    <nd ref="247877630"/>
    <nd ref="678455477"/>
    <nd ref="244044113"/>
    <tag k="highway" v="residential"/>
    <tag k="name" v="ул. Ами Буе"/>
    <tag k="oneway" v="yes"/>
  </way>
  <way id="19848044" version="11" timestamp="2008-10-11T19:15:17Z" uid="65847" user="LKK" changeset="265008">
    <nd ref="207541696"/>
    <nd ref="207545570"/>
    <nd ref="247878959"/>
    <nd ref="247878779"/>
    <tag k="created_by" v="Potlatch 0.7b"/>
    <tag k="highway" v="residential"/>
    <tag k="name" v="ул. Здраве"/>
  </way>
  <way id="19848044" version="12" timestamp="2008-10-11T19:49:46Z" uid="65847" user="LKK" changeset="265008">
    <nd ref="207541696"/>
    <nd ref="247878989"/>
    <nd ref="303819332"/>
    <nd ref="207545570"/>
    <nd ref="247878959"/>
    <nd ref="247878779"/>
    <tag k="created_by" v="Potlatch 0.7b"/>
    <tag k="highway" v="residential"/>
    <tag k="name" v="ул. Здраве"/>
  </way>
  <way id="19848044" version="13" timestamp="2009-10-02T04:58:35Z" uid="17831" user="djadala" changeset="2708406">
    <nd ref="207541696"/>
    <nd ref="247878989"/>
    <tag k="highway" v="residential"/>
    <tag k="name" v="ул. Здраве"/>
  </way>
  <way id="19848068" version="4" timestamp="2009-10-11T02:40:15Z" uid="20587" user="balrog-kun" changeset="2809762">
    <nd ref="207540351"/>
    <nd ref="207540352"/>
    <nd ref="207540356"/>
    <nd ref="207540357"/>
    <nd ref="207540359"/>
    <nd ref="528524469"/>
    <nd ref="207540361"/>
    <nd ref="207540363"/>
    <nd ref="207540365"/>
    <nd ref="207540366"/>
    <nd ref="207540368"/>
    <nd ref="207540370"/>
    <nd ref="207540372"/>
    <nd ref="207540374"/>
    <nd ref="207540375"/>
    <nd ref="207540377"/>
    <nd ref="207540379"/>
    <nd ref="207540382"/>
    <nd ref="528524470"/>
    <nd ref="207540383"/>
    <nd ref="207540385"/>
    <nd ref="207540387"/>
    <nd ref="207540389"/>
    <nd ref="207540390"/>
    <nd ref="207540392"/>
    <nd ref="207540394"/>
    <nd ref="207540395"/>
    <nd ref="207540397"/>
    <nd ref="207540399"/>
    <nd ref="207540401"/>
    <nd ref="207540403"/>
    <nd ref="528524471"/>
    <nd ref="207543103"/>
    <tag k="highway" v="primary"/>
    <tag k="name" v="Karola Marcinkowskiego"/>
    <tag k="ref" v="11"/>
  </way>
  <way id="19848077" version="10" timestamp="2008-10-10T16:57:05Z" uid="65847" user="LKK" changeset="235948">
    <nd ref="207543439"/>
    <nd ref="247878988"/>
    <nd ref="207543441"/>
    <nd ref="247879119"/>
    <nd ref="207545570"/>
    <tag k="created_by" v="Potlatch 0.7b"/>
    <tag k="highway" v="residential"/>
    <tag k="name" v="Никола Славков"/>
  </way>
  <way id="19848077" version="11" timestamp="2008-10-11T09:45:30Z" uid="65847" user="LKK" changeset="247438">
    <nd ref="207543439"/>
    <nd ref="247878988"/>
    <nd ref="207543441"/>
    <nd ref="247879119"/>
    <nd ref="207545570"/>
    <tag k="created_by" v="Potlatch 0.7b"/>
    <tag k="highway" v="residential"/>
    <tag k="name" v="ул. Никола Славков"/>
  </way>
  <way id="19848137" version="1" timestamp="2008-01-06T20:38:14Z" uid="8619" user="cetest" changeset="557361">
    <nd ref="44915908"/>
    <nd ref="44916727"/>
    <nd ref="207544778"/>
    <nd ref="207544784"/>
    <nd ref="207544789"/>
    <nd ref="207544793"/>
    <nd ref="207544803"/>
    <nd ref="44923945"/>
    <nd ref="207544809"/>
    <nd ref="44928516"/>
    <tag k="AND:importance_level" v="4"/>
    <tag k="AND_nosr_r" v="15137720"/>
    <tag k="created_by" v="JOSM"/>
    <tag k="highway" v="secondary"/>
    <tag k="name" v="Brasserskade"/>
  </way>
  <way id="19848137" version="2" timestamp="2009-07-18T15:37:26Z" uid="67958" user="West Erop" changeset="1864845">
    <nd ref="44915908"/>
    <nd ref="44916727"/>
    <nd ref="207544778"/>
    <nd ref="207544784"/>
    <tag k="AND:importance_level" v="4"/>
    <tag k="AND_nosr_r" v="15137720"/>
    <tag k="created_by" v="JOSM"/>
    <tag k="highway" v="secondary"/>
    <tag k="name" v="Brasserskade"/>
  </way>
  <way id="19848137" version="3" timestamp="2009-08-23T21:27:26Z" uid="105512" user="datalogg" changeset="2237009">
    <nd ref="44915908"/>
    <nd ref="207544778"/>
    <nd ref="207544784"/>
    <tag k="AND:importance_level" v="4"/>
    <tag k="AND_nosr_r" v="15137720"/>
    <tag k="highway" v="secondary"/>
    <tag k="name" v="Brasserskade"/>
  </way>
  <way id="19848137" version="4" timestamp="2009-10-07T23:09:55Z" uid="161542" user="textlijn" changeset="2777423"/>
  <way id="19848138" version="1" timestamp="2008-01-06T20:38:15Z" uid="8619" user="cetest" changeset="557361">
    <nd ref="207544784"/>
    <nd ref="44919566"/>
    <nd ref="207544814"/>
    <nd ref="44920458"/>
    <nd ref="44921293"/>
    <nd ref="44925040"/>
    <tag k="AND:importance_level" v="4"/>
    <tag k="AND_nosr_r" v="15137722"/>
    <tag k="created_by" v="JOSM"/>
    <tag k="foot" v="yes"/>
    <tag k="hgv" v="no"/>
    <tag k="highway" v="tertiary"/>
    <tag k="motorcar" v="no"/>
    <tag k="motorcycle" v="no"/>
    <tag k="name" v="Brasserskade"/>
  </way>
  <way id="19848138" version="2" timestamp="2009-07-18T15:37:57Z" uid="67958" user="West Erop" changeset="1864845">
    <nd ref="207544784"/>
    <nd ref="44919566"/>
    <nd ref="207544814"/>
    <nd ref="44920458"/>
    <nd ref="44921293"/>
    <nd ref="44925040"/>
    <tag k="AND:importance_level" v="4"/>
    <tag k="AND_nosr_r" v="15137722"/>
    <tag k="created_by" v="JOSM"/>
    <tag k="foot" v="yes"/>
    <tag k="hgv" v="no"/>
    <tag k="highway" v="unclassified"/>
    <tag k="motorcar" v="no"/>
    <tag k="motorcycle" v="no"/>
    <tag k="name" v="Brasserskade"/>
  </way>
  <way id="19848138" version="3" timestamp="2009-10-07T23:09:51Z" uid="161542" user="textlijn" changeset="2777423">
    <nd ref="207544784"/>
    <nd ref="524832512"/>
    <nd ref="44919566"/>
    <nd ref="207544814"/>
    <nd ref="44920458"/>
    <nd ref="44921293"/>
    <nd ref="44925040"/>
    <tag k="AND:importance_level" v="4"/>
    <tag k="AND_nosr_r" v="15137722"/>
    <tag k="foot" v="yes"/>
    <tag k="hgv" v="no"/>
    <tag k="highway" v="unclassified"/>
    <tag k="motorcar" v="no"/>
    <tag k="motorcycle" v="no"/>
    <tag k="name" v="Brasserskade"/>
  </way>
  <way id="19848138" version="4" timestamp="2009-10-08T21:04:43Z" uid="161542" user="textlijn" changeset="2787902">
    <nd ref="207544784"/>
    <nd ref="524832512"/>
    <nd ref="44919566"/>
    <nd ref="207544814"/>
    <nd ref="44920458"/>
    <nd ref="44921293"/>
    <nd ref="490244954"/>
    <tag k="highway" v="unclassified"/>
    <tag k="name" v="Brasserskade"/>
  </way>
  <way id="19848138" version="5" timestamp="2010-05-05T19:01:44Z" uid="36080" user="polderrunner" changeset="4615710">
    <nd ref="207544784"/>
    <nd ref="524832512"/>
    <nd ref="44919566"/>
    <nd ref="207544814"/>
    <nd ref="44920458"/>
    <nd ref="44921293"/>
    <nd ref="722792533"/>
    <nd ref="490244954"/>
    <tag k="highway" v="unclassified"/>
    <tag k="name" v="Brasserskade"/>
  </way>
  <way id="19848138" version="6" timestamp="2011-08-17T18:58:20Z" uid="385787" user="Tourepel" changeset="9050711"/>
  <way id="19848250" version="3" timestamp="2009-04-16T21:39:57Z" uid="30632" user="antblant" changeset="598077">
    <nd ref="207543103"/>
    <nd ref="207547598"/>
    <tag k="created_by" v="Potlatch 0.10f"/>
    <tag k="highway" v="primary"/>
    <tag k="name" v="Poznańska"/>
    <tag k="ref" v="11, 12"/>
  </way>
  <way id="19848250" version="4" timestamp="2009-10-11T02:41:50Z" uid="20587" user="balrog-kun" changeset="2809762"/>
  <way id="19848321" version="8" timestamp="2009-10-11T02:41:55Z" uid="20587" user="balrog-kun" changeset="2809762"/>
  <way id="19848444" version="3" timestamp="2009-04-16T21:39:53Z" uid="30632" user="antblant" changeset="598077">
    <nd ref="207547598"/>
    <nd ref="207547599"/>
    <nd ref="207564137"/>
    <nd ref="207564140"/>
    <nd ref="207564141"/>
    <nd ref="207564144"/>
    <nd ref="207564146"/>
    <nd ref="207564147"/>
    <nd ref="207564148"/>
    <nd ref="207564149"/>
    <nd ref="207564150"/>
    <nd ref="207564152"/>
    <nd ref="207564154"/>
    <nd ref="207564156"/>
    <nd ref="207564158"/>
    <tag k="created_by" v="Potlatch 0.10f"/>
    <tag k="highway" v="primary"/>
    <tag k="ref" v="11, 12"/>
  </way>
  <way id="19848444" version="4" timestamp="2009-09-30T11:11:49Z" uid="153833" user="rye212" changeset="2687111">
    <nd ref="207547598"/>
    <nd ref="207547599"/>
    <nd ref="207564137"/>
    <nd ref="207564140"/>
    <nd ref="207564141"/>
    <nd ref="207564144"/>
    <nd ref="207564146"/>
    <nd ref="207564147"/>
    <nd ref="207564148"/>
    <nd ref="207564149"/>
    <nd ref="207564150"/>
    <nd ref="207564152"/>
    <nd ref="207564154"/>
    <nd ref="207564156"/>
    <nd ref="207558588"/>
    <tag k="highway" v="primary"/>
    <tag k="ref" v="11, 12"/>
  </way>
  <way id="19848444" version="5" timestamp="2009-10-11T02:39:45Z" uid="20587" user="balrog-kun" changeset="2809762">
    <nd ref="207547598"/>
    <nd ref="207547599"/>
    <nd ref="207564137"/>
    <nd ref="207564140"/>
    <nd ref="207564141"/>
    <nd ref="207564144"/>
    <nd ref="207564146"/>
    <nd ref="207564147"/>
    <nd ref="207564148"/>
    <nd ref="207564149"/>
    <nd ref="207564150"/>
    <nd ref="207564152"/>
    <nd ref="207564154"/>
    <nd ref="207564156"/>
    <nd ref="207558588"/>
    <tag k="highway" v="primary"/>
    <tag k="ref" v="11;12"/>
  </way>
  <way id="19848444" version="6" timestamp="2011-12-14T16:26:03Z" uid="551979" user="Wojas93" changeset="10117265">
    <nd ref="207547598"/>
    <nd ref="207547599"/>
    <nd ref="1545954187"/>
    <nd ref="207564137"/>
    <nd ref="207564140"/>
    <nd ref="207564141"/>
    <nd ref="207564144"/>
    <nd ref="207564146"/>
    <nd ref="207564147"/>
    <nd ref="207564148"/>
    <nd ref="207564149"/>
    <nd ref="207564150"/>
    <nd ref="207564152"/>
    <nd ref="207564154"/>
    <nd ref="207564156"/>
    <nd ref="207558588"/>
    <tag k="highway" v="primary"/>
    <tag k="ref" v="11;12"/>
  </way>
  <way id="19848444" version="7" timestamp="2011-12-15T03:01:57Z" uid="467703" user="Zbigniew Czernik" changeset="10120956">
    <nd ref="207547598"/>
    <nd ref="207547599"/>
    <nd ref="1545954187"/>
    <nd ref="207564137"/>
    <nd ref="207564140"/>
    <nd ref="207564141"/>
    <nd ref="207564144"/>
    <nd ref="207564146"/>
    <nd ref="207564147"/>
    <nd ref="207564148"/>
    <nd ref="207564149"/>
    <nd ref="207564150"/>
    <nd ref="207564152"/>
    <nd ref="207564154"/>
    <nd ref="207564156"/>
    <nd ref="1546649569"/>
    <nd ref="207558588"/>
    <tag k="highway" v="primary"/>
    <tag k="ref" v="11;12"/>
  </way>
  <way id="19848540" version="13" timestamp="2008-10-10T08:01:14Z" uid="65847" user="LKK" changeset="209907">
    <nd ref="207551802"/>
    <nd ref="207598621"/>
    <nd ref="207574138"/>
    <nd ref="207559104"/>
    <nd ref="207553211"/>
    <nd ref="207593020"/>
    <nd ref="303492204"/>
    <nd ref="207553214"/>
    <nd ref="207558782"/>
    <nd ref="257888139"/>
    <tag k="created_by" v="Potlatch 0.8a"/>
    <tag k="highway" v="residential"/>
    <tag k="name" v="Gladstone"/>
    <tag k="oneway" v="yes"/>
  </way>
  <way id="19848540" version="14" timestamp="2008-10-10T14:31:01Z" uid="65847" user="LKK" changeset="215651">
    <nd ref="257888139"/>
    <nd ref="207558782"/>
    <nd ref="207553214"/>
    <nd ref="303492204"/>
    <nd ref="207593020"/>
    <nd ref="207553211"/>
    <nd ref="207559104"/>
    <nd ref="207574138"/>
    <nd ref="207598621"/>
    <nd ref="207551802"/>
    <tag k="created_by" v="Potlatch 0.8a"/>
    <tag k="highway" v="residential"/>
    <tag k="name" v="Gladstone"/>
    <tag k="oneway" v="yes"/>
  </way>
  <way id="19848540" version="15" timestamp="2008-10-10T14:43:50Z" uid="65847" user="LKK" changeset="215651">
    <nd ref="257888139"/>
    <nd ref="207558782"/>
    <nd ref="207553214"/>
    <nd ref="303492204"/>
    <nd ref="207593020"/>
    <nd ref="207553211"/>
    <nd ref="207559104"/>
    <nd ref="207574138"/>
    <nd ref="207598621"/>
    <nd ref="207551802"/>
    <tag k="created_by" v="Potlatch 0.8a"/>
    <tag k="highway" v="residential"/>
    <tag k="name" v="Уилиам Гладстон"/>
    <tag k="oneway" v="yes"/>
  </way>
  <way id="19848540" version="16" timestamp="2008-10-11T09:38:46Z" uid="65847" user="LKK" changeset="247438">
    <nd ref="257888139"/>
    <nd ref="207558782"/>
    <nd ref="207553214"/>
    <nd ref="303492204"/>
    <nd ref="207593020"/>
    <nd ref="207553211"/>
    <tag k="created_by" v="Potlatch 0.8a"/>
    <tag k="highway" v="residential"/>
    <tag k="name" v="Уилиам Гладстон"/>
    <tag k="oneway" v="yes"/>
  </way>
  <way id="19848540" version="17" timestamp="2008-10-11T09:45:00Z" uid="65847" user="LKK" changeset="247438">
    <nd ref="257888139"/>
    <nd ref="207558782"/>
    <nd ref="207553214"/>
    <nd ref="303492204"/>
    <nd ref="207593020"/>
    <nd ref="207553211"/>
    <tag k="created_by" v="Potlatch 0.8a"/>
    <tag k="highway" v="residential"/>
    <tag k="name" v="ул. Уилиам Гладстон"/>
    <tag k="oneway" v="yes"/>
  </way>
  <way id="19848540" version="18" timestamp="2010-05-10T15:35:39Z" uid="94353" user="Fips" changeset="4659950">
    <nd ref="257888139"/>
    <nd ref="207558782"/>
    <nd ref="207553214"/>
    <nd ref="303492204"/>
    <nd ref="207593020"/>
    <nd ref="728623370"/>
    <nd ref="207553211"/>
    <tag k="highway" v="residential"/>
    <tag k="name" v="ул. Уилиам Гладстон"/>
    <tag k="oneway" v="yes"/>
  </way>
  <way id="19848540" version="19" timestamp="2011-01-23T18:20:28Z" uid="94353" user="Fips" changeset="7065157">
    <nd ref="257888139"/>
    <nd ref="207558782"/>
    <nd ref="207553214"/>
    <nd ref="303492204"/>
    <nd ref="207593020"/>
    <nd ref="728623370"/>
    <nd ref="1117288077"/>
    <nd ref="1117288122"/>
    <nd ref="1117288336"/>
    <nd ref="1117288178"/>
    <nd ref="728623399"/>
    <nd ref="207559104"/>
    <nd ref="207574138"/>
    <nd ref="303566787"/>
    <nd ref="303566788"/>
    <nd ref="207551802"/>
    <tag k="highway" v="residential"/>
    <tag k="name" v="ул. Уилиам Гладстон"/>
    <tag k="oneway" v="yes"/>
  </way>
  <way id="19848540" version="20" timestamp="2011-01-23T22:27:00Z" uid="94353" user="Fips" changeset="7068144">
    <nd ref="257888139"/>
    <nd ref="207558782"/>
    <nd ref="207553214"/>
    <nd ref="303492204"/>
    <nd ref="207593020"/>
    <nd ref="728623370"/>
    <nd ref="1117288077"/>
    <nd ref="1117288122"/>
    <nd ref="1117288336"/>
    <nd ref="1117288178"/>
    <nd ref="728623399"/>
    <nd ref="207559104"/>
    <nd ref="207574138"/>
    <nd ref="303566787"/>
    <nd ref="303566788"/>
    <nd ref="207551802"/>
    <nd ref="1117754343"/>
    <nd ref="1117754193"/>
    <nd ref="1117754203"/>
    <tag k="highway" v="residential"/>
    <tag k="name" v="ул. Уилиам Гладстон"/>
    <tag k="oneway" v="yes"/>
  </way>
  <way id="19848691" version="3" timestamp="2008-10-11T11:03:24Z" uid="65847" user="LKK" changeset="247438">
    <nd ref="207553214"/>
    <nd ref="148915939"/>
    <tag k="created_by" v="Potlatch 0.6a"/>
    <tag k="highway" v="residential"/>
    <tag k="name" v="ул. Рачо Димчев"/>
  </way>
  <way id="19848777" version="6" timestamp="2008-10-10T08:01:13Z" uid="65847" user="LKK" changeset="209907">
    <nd ref="207557396"/>
    <nd ref="303492208"/>
    <nd ref="303492205"/>
    <nd ref="303492200"/>
    <nd ref="303492204"/>
    <nd ref="207598426"/>
    <nd ref="207598674"/>
    <tag k="created_by" v="Potlatch 0.8a"/>
    <tag k="highway" v="residential"/>
    <tag k="name" v="Ангел Кънчев"/>
    <tag k="oneway" v="yes"/>
  </way>
  <way id="19848777" version="7" timestamp="2008-10-10T08:08:35Z" uid="65847" user="LKK" changeset="209907">
    <nd ref="207557396"/>
    <nd ref="303492208"/>
    <nd ref="303492205"/>
    <nd ref="303492200"/>
    <nd ref="303492204"/>
    <nd ref="303493374"/>
    <nd ref="207598426"/>
    <nd ref="207598674"/>
    <tag k="created_by" v="Potlatch 0.8a"/>
    <tag k="highway" v="residential"/>
    <tag k="name" v="Ангел Кънчев"/>
    <tag k="oneway" v="yes"/>
  </way>
  <way id="19848777" version="8" timestamp="2008-10-11T10:51:58Z" uid="65847" user="LKK" changeset="247438">
    <nd ref="207557396"/>
    <nd ref="303492208"/>
    <nd ref="303492205"/>
    <nd ref="303492200"/>
    <nd ref="303492204"/>
    <nd ref="303720688"/>
    <nd ref="303493374"/>
    <nd ref="207598426"/>
    <nd ref="207598674"/>
    <tag k="created_by" v="Potlatch 0.8a"/>
    <tag k="highway" v="residential"/>
    <tag k="name" v="Ангел Кънчев"/>
    <tag k="oneway" v="yes"/>
  </way>
  <way id="19848777" version="9" timestamp="2008-10-11T11:03:28Z" uid="65847" user="LKK" changeset="247438">
    <nd ref="207557396"/>
    <nd ref="303492208"/>
    <nd ref="303492205"/>
    <nd ref="303492200"/>
    <nd ref="303492204"/>
    <nd ref="303720688"/>
    <nd ref="303493374"/>
    <nd ref="207598426"/>
    <nd ref="207598674"/>
    <tag k="created_by" v="Potlatch 0.8a"/>
    <tag k="highway" v="residential"/>
    <tag k="name" v="ул. Ангел Кънчев"/>
    <tag k="oneway" v="yes"/>
  </way>
  <way id="19848777" version="10" timestamp="2008-10-14T15:55:40Z" uid="65847" user="LKK" changeset="325656">
    <nd ref="207557396"/>
    <nd ref="303492208"/>
    <nd ref="303492205"/>
    <nd ref="303722152"/>
    <nd ref="303722154"/>
    <nd ref="303492204"/>
    <nd ref="303720688"/>
    <nd ref="303493374"/>
    <nd ref="303493389"/>
    <nd ref="207598674"/>
    <tag k="created_by" v="Potlatch 0.8a"/>
    <tag k="highway" v="residential"/>
    <tag k="name" v="ул. Ангел Кънчев"/>
    <tag k="oneway" v="yes"/>
  </way>
  <way id="19848777" version="11" timestamp="2010-06-30T17:24:50Z" uid="94353" user="Fips" changeset="5114017">
    <nd ref="207557396"/>
    <nd ref="303492208"/>
    <nd ref="303492205"/>
    <nd ref="797311402"/>
    <nd ref="303492204"/>
    <nd ref="303720688"/>
    <nd ref="303493374"/>
    <nd ref="303493389"/>
    <nd ref="207598674"/>
    <tag k="highway" v="residential"/>
    <tag k="name" v="ул. Ангел Кънчев"/>
    <tag k="oneway" v="yes"/>
  </way>
  <way id="19848777" version="12" timestamp="2010-07-22T17:23:52Z" uid="94353" user="Fips" changeset="5289401">
    <nd ref="207557396"/>
    <nd ref="303492208"/>
    <nd ref="303492205"/>
    <nd ref="797311402"/>
    <nd ref="303492204"/>
    <nd ref="303720688"/>
    <nd ref="303493374"/>
    <nd ref="303493389"/>
    <nd ref="207598674"/>
    <tag k="highway" v="residential"/>
    <tag k="name" v="ул. Ангел Кънчев"/>
    <tag k="oneway" v="yes"/>
    <tag k="surface" v="cobblestone"/>
  </way>
  <way id="19848782" version="5" timestamp="2009-04-16T21:39:58Z" uid="30632" user="antblant" changeset="598077">
    <nd ref="207558588"/>
    <nd ref="207558589"/>
    <nd ref="207558590"/>
    <nd ref="207558591"/>
    <nd ref="207558592"/>
    <nd ref="207558593"/>
    <nd ref="207558594"/>
    <nd ref="207559566"/>
    <nd ref="207559568"/>
    <nd ref="207559569"/>
    <nd ref="207559570"/>
    <nd ref="207559571"/>
    <nd ref="207559572"/>
    <nd ref="207559573"/>
    <nd ref="207559574"/>
    <nd ref="207559575"/>
    <nd ref="207559998"/>
    <nd ref="207559999"/>
    <nd ref="207560000"/>
    <nd ref="207560002"/>
    <nd ref="207560003"/>
    <nd ref="207560004"/>
    <nd ref="207560005"/>
    <nd ref="207560006"/>
    <nd ref="207560007"/>
    <nd ref="207560008"/>
    <nd ref="207560010"/>
    <nd ref="207560011"/>
    <nd ref="207560012"/>
    <nd ref="207560013"/>
    <tag k="created_by" v="Potlatch 0.10f"/>
    <tag k="highway" v="primary"/>
    <tag k="ref" v="11, 12"/>
  </way>
  <way id="19848782" version="6" timestamp="2011-03-29T20:42:02Z" uid="163896" user="Zbigniew Czernik" changeset="7710778">
    <nd ref="207558588"/>
    <nd ref="207558589"/>
    <nd ref="207558590"/>
    <nd ref="207558591"/>
    <nd ref="207558592"/>
    <nd ref="207558593"/>
    <nd ref="207558594"/>
    <nd ref="207559566"/>
    <nd ref="207559568"/>
    <nd ref="207559569"/>
    <nd ref="207559570"/>
    <nd ref="207559571"/>
    <nd ref="207559572"/>
    <nd ref="207559573"/>
    <nd ref="207559574"/>
    <nd ref="207559575"/>
    <nd ref="207559998"/>
    <nd ref="207559999"/>
    <nd ref="207560000"/>
    <nd ref="207560002"/>
    <nd ref="207560003"/>
    <nd ref="207560004"/>
    <nd ref="207560005"/>
    <nd ref="207560006"/>
    <nd ref="1224672267"/>
    <tag k="highway" v="primary"/>
    <tag k="ref" v="11, 12"/>
  </way>
  <way id="19848782" version="7" timestamp="2011-12-13T23:56:30Z" uid="467703" user="Zbigniew Czernik" changeset="10112288">
    <nd ref="207558588"/>
    <nd ref="207558589"/>
    <nd ref="207558590"/>
    <nd ref="207558591"/>
    <nd ref="207558592"/>
    <nd ref="207558593"/>
    <nd ref="207558594"/>
    <nd ref="207559566"/>
    <nd ref="207559568"/>
    <nd ref="207559569"/>
    <nd ref="207559570"/>
    <nd ref="207559571"/>
    <nd ref="207559572"/>
    <nd ref="207559573"/>
    <nd ref="207559574"/>
    <nd ref="207559575"/>
    <nd ref="207559998"/>
    <nd ref="207559999"/>
    <nd ref="207560000"/>
    <nd ref="207560002"/>
    <nd ref="207560003"/>
    <nd ref="207560004"/>
    <nd ref="1545167085"/>
    <nd ref="207560005"/>
    <nd ref="207560006"/>
    <nd ref="1224672267"/>
    <tag k="highway" v="primary"/>
    <tag k="ref" v="11, 12"/>
  </way>
  <way id="19848782" version="8" timestamp="2011-12-14T00:03:51Z" uid="467703" user="Zbigniew Czernik" changeset="10112288">
    <nd ref="207558588"/>
    <nd ref="207558589"/>
    <nd ref="207558590"/>
    <nd ref="207558591"/>
    <nd ref="207558592"/>
    <nd ref="207558593"/>
    <nd ref="207558594"/>
    <nd ref="207559566"/>
    <nd ref="1545178802"/>
    <nd ref="207559568"/>
    <nd ref="207559569"/>
    <nd ref="207559570"/>
    <nd ref="207559571"/>
    <nd ref="207559572"/>
    <nd ref="207559573"/>
    <nd ref="207559574"/>
    <nd ref="207559575"/>
    <nd ref="207559998"/>
    <nd ref="207559999"/>
    <nd ref="207560000"/>
    <nd ref="207560002"/>
    <nd ref="207560003"/>
    <nd ref="207560004"/>
    <nd ref="1545167085"/>
    <nd ref="207560005"/>
    <nd ref="207560006"/>
    <nd ref="1224672267"/>
    <tag k="highway" v="primary"/>
    <tag k="ref" v="11, 12"/>
  </way>
  <way id="19848800" version="9" timestamp="2008-10-10T16:50:13Z" uid="65847" user="LKK" changeset="235948">
    <nd ref="207558839"/>
    <nd ref="207562640"/>
    <nd ref="207561946"/>
    <nd ref="207558916"/>
    <tag k="created_by" v="Potlatch 0.7b"/>
    <tag k="highway" v="residential"/>
    <tag k="name" v="бул. Ген. Михаил Скобелев"/>
    <tag k="oneway" v="yes"/>
  </way>
  <way id="19848800" version="10" timestamp="2010-06-07T16:18:34Z" uid="41176" user="Veso" changeset="4929467">
    <nd ref="207558839"/>
    <nd ref="207562640"/>
    <nd ref="207561946"/>
    <tag k="highway" v="residential"/>
    <tag k="name" v="бул. Ген. Михаил Скобелев"/>
    <tag k="oneway" v="yes"/>
  </way>
  <way id="19848800" version="11" timestamp="2010-07-19T15:07:41Z" uid="134327" user="Antzi" changeset="5261920">
    <nd ref="207558839"/>
    <nd ref="207562640"/>
    <nd ref="824545246"/>
    <nd ref="207561946"/>
    <tag k="highway" v="residential"/>
    <tag k="name" v="бул. Ген. Михаил Скобелев"/>
    <tag k="oneway" v="yes"/>
  </way>
  <way id="19848813" version="10" timestamp="2008-10-10T08:01:12Z" uid="65847" user="LKK" changeset="209907">
    <nd ref="207562640"/>
    <nd ref="207572630"/>
    <nd ref="207559100"/>
    <nd ref="207590065"/>
    <nd ref="207559101"/>
    <nd ref="207559102"/>
    <nd ref="207559103"/>
    <nd ref="303492197"/>
    <nd ref="207559104"/>
    <nd ref="207598423"/>
    <nd ref="249315454"/>
    <nd ref="207598671"/>
    <nd ref="207559105"/>
    <tag k="created_by" v="Potlatch 0.7b"/>
    <tag k="highway" v="residential"/>
    <tag k="name" v="Цар Асен"/>
    <tag k="oneway" v="yes"/>
  </way>
  <way id="19848813" version="11" timestamp="2008-10-10T08:08:25Z" uid="65847" user="LKK" changeset="209907">
    <nd ref="207562640"/>
    <nd ref="207572630"/>
    <nd ref="207559100"/>
    <nd ref="207590065"/>
    <nd ref="207559101"/>
    <nd ref="207559102"/>
    <nd ref="207559103"/>
    <nd ref="303492197"/>
    <nd ref="207559104"/>
    <nd ref="303493430"/>
    <nd ref="303493608"/>
    <nd ref="207598423"/>
    <nd ref="249315454"/>
    <nd ref="207598671"/>
    <nd ref="207559105"/>
    <tag k="created_by" v="Potlatch 0.7b"/>
    <tag k="highway" v="residential"/>
    <tag k="name" v="Цар Асен"/>
    <tag k="oneway" v="yes"/>
  </way>
  <way id="19848813" version="12" timestamp="2008-10-10T16:26:01Z" uid="65847" user="LKK" changeset="235948">
    <nd ref="207562907"/>
    <nd ref="207568422"/>
    <nd ref="207562906"/>
    <nd ref="207562905"/>
    <nd ref="207565623"/>
    <nd ref="207562640"/>
    <nd ref="207572630"/>
    <nd ref="207559100"/>
    <nd ref="207590065"/>
    <nd ref="207559101"/>
    <nd ref="207559102"/>
    <nd ref="207559103"/>
    <nd ref="303492197"/>
    <nd ref="207559104"/>
    <nd ref="303493430"/>
    <nd ref="303493608"/>
    <nd ref="207598423"/>
    <nd ref="249315454"/>
    <nd ref="207598671"/>
    <nd ref="207559105"/>
    <tag k="created_by" v="Potlatch 0.7b"/>
    <tag k="highway" v="residential"/>
    <tag k="name" v="Цар Асен"/>
    <tag k="oneway" v="yes"/>
  </way>
  <way id="19848813" version="13" timestamp="2008-10-11T09:37:17Z" uid="65847" user="LKK" changeset="247438">
    <nd ref="207562907"/>
    <nd ref="207568422"/>
    <nd ref="207562906"/>
    <nd ref="207562905"/>
    <nd ref="207565623"/>
    <nd ref="207562640"/>
    <tag k="created_by" v="Potlatch 0.7b"/>
    <tag k="highway" v="residential"/>
    <tag k="name" v="Цар Асен"/>
    <tag k="oneway" v="yes"/>
  </way>
  <way id="19848813" version="14" timestamp="2008-10-11T09:45:43Z" uid="65847" user="LKK" changeset="247438">
    <nd ref="207562907"/>
    <nd ref="207568422"/>
    <nd ref="207562906"/>
    <nd ref="207562905"/>
    <nd ref="207565623"/>
    <nd ref="207562640"/>
    <tag k="created_by" v="Potlatch 0.7b"/>
    <tag k="highway" v="residential"/>
    <tag k="name" v="ул. Цар Асен"/>
    <tag k="oneway" v="yes"/>
  </way>
  <way id="19848814" version="1" timestamp="2008-01-06T20:52:39Z" uid="8619" user="cetest" changeset="557361">
    <nd ref="207558943"/>
    <nd ref="207558946"/>
    <nd ref="207558949"/>
    <nd ref="207558954"/>
    <nd ref="207558964"/>
    <nd ref="207558966"/>
    <nd ref="207558969"/>
    <nd ref="207558977"/>
    <nd ref="207559005"/>
    <nd ref="207559049"/>
    <tag k="created_by" v="JOSM"/>
    <tag k="highway" v="residential"/>
    <tag k="name" v="Rijsbes"/>
  </way>
  <way id="19848814" version="2" timestamp="2008-01-07T06:19:21Z" uid="8619" user="cetest" changeset="564138">
    <nd ref="207558943"/>
    <nd ref="207558946"/>
    <nd ref="207558949"/>
    <nd ref="207558954"/>
    <nd ref="207558964"/>
    <nd ref="207771402"/>
    <nd ref="207558966"/>
    <nd ref="207558969"/>
    <nd ref="207558977"/>
    <nd ref="207559005"/>
    <nd ref="207559049"/>
    <tag k="created_by" v="JOSM"/>
    <tag k="highway" v="residential"/>
    <tag k="name" v="Rijsbes"/>
  </way>
  <way id="19848814" version="3" timestamp="2010-03-16T20:22:13Z" uid="36080" user="polderrunner" changeset="4146429">
    <nd ref="207558943"/>
    <nd ref="207558946"/>
    <nd ref="207558949"/>
    <nd ref="207558954"/>
    <nd ref="207558964"/>
    <nd ref="207771402"/>
    <nd ref="207558966"/>
    <nd ref="207558969"/>
    <nd ref="207558977"/>
    <nd ref="207559005"/>
    <nd ref="207559049"/>
    <tag k="highway" v="living_street"/>
    <tag k="name" v="Rijsbes"/>
  </way>
  <way id="19848814" version="4" timestamp="2011-09-10T22:27:09Z" uid="191979" user="It&apos;s so funny" changeset="9266529"/>
  <way id="19848815" version="1" timestamp="2008-01-06T20:52:39Z" uid="8619" user="cetest" changeset="557361">
    <nd ref="207501089"/>
    <nd ref="207559053"/>
    <nd ref="207559054"/>
    <nd ref="207559057"/>
    <nd ref="207559058"/>
    <nd ref="207559059"/>
    <nd ref="207559060"/>
    <nd ref="207501114"/>
    <nd ref="207501227"/>
    <tag k="created_by" v="JOSM"/>
    <tag k="highway" v="residential"/>
    <tag k="name" v="Berkebroeklaan"/>
  </way>
  <way id="19848815" version="2" timestamp="2008-01-27T09:23:55Z" uid="8619" user="cetest" changeset="700989">
    <nd ref="207501089"/>
    <nd ref="207559053"/>
    <nd ref="207559054"/>
    <nd ref="207559057"/>
    <nd ref="207559058"/>
    <nd ref="207559059"/>
    <nd ref="207559060"/>
    <nd ref="243661985"/>
    <nd ref="207501114"/>
    <nd ref="207501227"/>
    <tag k="created_by" v="JOSM"/>
    <tag k="highway" v="residential"/>
    <tag k="name" v="Berkebroeklaan"/>
  </way>
  <way id="19848815" version="3" timestamp="2009-10-07T22:43:01Z" uid="161542" user="textlijn" changeset="2777272">
    <nd ref="207501089"/>
    <nd ref="207559053"/>
    <nd ref="207559054"/>
    <nd ref="207559057"/>
    <nd ref="207559058"/>
    <nd ref="207559059"/>
    <nd ref="207559060"/>
    <nd ref="243661985"/>
    <nd ref="207501114"/>
    <nd ref="207501227"/>
    <tag k="highway" v="residential"/>
    <tag k="name" v="Berkebroeklaan"/>
  </way>
  <way id="19848815" version="4" timestamp="2009-10-08T22:29:23Z" uid="161542" user="textlijn" changeset="2788574">
    <nd ref="207501089"/>
    <nd ref="207559053"/>
    <nd ref="207559054"/>
    <nd ref="207559057"/>
    <tag k="highway" v="residential"/>
    <tag k="name" v="Berkebroeklaan"/>
  </way>
  <way id="19848815" version="5" timestamp="2010-03-16T20:22:15Z" uid="36080" user="polderrunner" changeset="4146429">
    <nd ref="207501089"/>
    <nd ref="207559053"/>
    <nd ref="207559054"/>
    <nd ref="207559057"/>
    <tag k="highway" v="living_street"/>
    <tag k="name" v="Berkebroeklaan"/>
  </way>
  <way id="19848815" version="6" timestamp="2011-09-10T22:27:06Z" uid="191979" user="It&apos;s so funny" changeset="9266529"/>
  <way id="19848816" version="1" timestamp="2008-01-06T20:52:39Z" uid="8619" user="cetest" changeset="557361">
    <nd ref="207559082"/>
    <nd ref="207559083"/>
    <nd ref="207559084"/>
    <nd ref="207559085"/>
    <nd ref="207559086"/>
    <nd ref="207559087"/>
    <nd ref="207559089"/>
    <nd ref="207559090"/>
    <nd ref="207559091"/>
    <nd ref="207559092"/>
    <nd ref="207559093"/>
    <nd ref="207559094"/>
    <tag k="created_by" v="JOSM"/>
    <tag k="highway" v="residential"/>
    <tag k="name" v="Cypergras"/>
  </way>
  <way id="19848816" version="2" timestamp="2008-01-07T06:00:04Z" uid="8619" user="cetest" changeset="564138">
    <nd ref="207559082"/>
    <nd ref="207559083"/>
    <nd ref="207559084"/>
    <nd ref="207559085"/>
    <nd ref="207559086"/>
    <nd ref="207559087"/>
    <nd ref="207559089"/>
    <nd ref="207559090"/>
    <nd ref="207559091"/>
    <nd ref="207559092"/>
    <nd ref="207559093"/>
    <nd ref="207559094"/>
    <nd ref="207735304"/>
    <tag k="created_by" v="JOSM"/>
    <tag k="highway" v="residential"/>
    <tag k="name" v="Cypergras"/>
  </way>
  <way id="19848816" version="3" timestamp="2008-01-07T06:19:21Z" uid="8619" user="cetest" changeset="564138">
    <nd ref="207559092"/>
    <nd ref="207559091"/>
    <nd ref="207559090"/>
    <nd ref="207559089"/>
    <nd ref="207559087"/>
    <nd ref="207559086"/>
    <nd ref="207559085"/>
    <nd ref="207559084"/>
    <nd ref="207559083"/>
    <nd ref="207559082"/>
    <tag k="created_by" v="JOSM"/>
    <tag k="highway" v="residential"/>
    <tag k="name" v="Cypergras"/>
    <tag k="oneway" v="true"/>
  </way>
  <way id="19848816" version="4" timestamp="2009-09-29T23:08:58Z" uid="161542" user="textlijn" changeset="2683261">
    <nd ref="207559092"/>
    <nd ref="207559091"/>
    <nd ref="207559090"/>
    <nd ref="207559089"/>
    <nd ref="207559087"/>
    <nd ref="207559086"/>
    <nd ref="207559085"/>
    <nd ref="207559084"/>
    <nd ref="207559083"/>
    <nd ref="207559082"/>
    <tag k="cycleway" v="opposite"/>
    <tag k="highway" v="residential"/>
    <tag k="name" v="Cypergras"/>
    <tag k="oneway" v="true"/>
  </way>
  <way id="19848816" version="5" timestamp="2010-02-01T22:55:55Z" uid="204153" user="mfvl" changeset="3772463">
    <nd ref="207559092"/>
    <nd ref="207559091"/>
    <nd ref="207559090"/>
    <nd ref="207559089"/>
    <nd ref="207559087"/>
    <nd ref="207559086"/>
    <nd ref="207559085"/>
    <nd ref="207559084"/>
    <nd ref="207559083"/>
    <nd ref="207559082"/>
    <tag k="cycleway" v="opposite"/>
    <tag k="highway" v="residential"/>
    <tag k="name" v="Cypergras"/>
    <tag k="oneway" v="yes"/>
  </way>
  <way id="19848816" version="6" timestamp="2010-03-16T20:22:14Z" uid="36080" user="polderrunner" changeset="4146429">
    <nd ref="207559092"/>
    <nd ref="207559091"/>
    <nd ref="207559090"/>
    <nd ref="207559089"/>
    <nd ref="207559087"/>
    <nd ref="207559086"/>
    <nd ref="207559085"/>
    <nd ref="207559084"/>
    <nd ref="207559083"/>
    <nd ref="207559082"/>
    <tag k="cycleway" v="opposite"/>
    <tag k="highway" v="living_street"/>
    <tag k="name" v="Cypergras"/>
    <tag k="oneway" v="yes"/>
  </way>
  <way id="19848816" version="7" timestamp="2011-09-10T22:27:07Z" uid="191979" user="It&apos;s so funny" changeset="9266529"/>
  <way id="19848817" version="1" timestamp="2008-01-06T20:52:39Z" uid="8619" user="cetest" changeset="557361">
    <nd ref="207559095"/>
    <nd ref="207559096"/>
    <nd ref="207559097"/>
    <nd ref="207190273"/>
    <nd ref="207559098"/>
    <nd ref="207559106"/>
    <nd ref="207559107"/>
    <nd ref="207559108"/>
    <nd ref="207559109"/>
    <nd ref="207559110"/>
    <tag k="created_by" v="JOSM"/>
    <tag k="highway" v="residential"/>
    <tag k="name" v="Wollegras"/>
  </way>
  <way id="19848817" version="2" timestamp="2010-03-16T20:22:13Z" uid="36080" user="polderrunner" changeset="4146429">
    <nd ref="207559095"/>
    <nd ref="207559096"/>
    <nd ref="207559097"/>
    <nd ref="207190273"/>
    <nd ref="207559098"/>
    <nd ref="207559106"/>
    <nd ref="207559107"/>
    <nd ref="207559108"/>
    <nd ref="207559109"/>
    <nd ref="207559110"/>
    <tag k="highway" v="living_street"/>
    <tag k="name" v="Wollegras"/>
  </way>
  <way id="19848817" version="3" timestamp="2011-09-10T22:27:10Z" uid="191979" user="It&apos;s so funny" changeset="9266529"/>
  <way id="19848831" version="7" timestamp="2009-02-23T13:03:17Z" uid="34428" user="usm78-gis" changeset="634299"/>
  <way id="19848834" version="3" timestamp="2009-02-23T12:59:47Z" uid="34428" user="usm78-gis" changeset="634299"/>
  <way id="19848853" version="11" timestamp="2008-10-10T16:57:08Z" uid="65847" user="LKK" changeset="235948">
    <nd ref="207559874"/>
    <nd ref="207560284"/>
    <nd ref="245966361"/>
    <nd ref="245966401"/>
    <nd ref="245966164"/>
    <nd ref="245966216"/>
    <nd ref="207559206"/>
    <nd ref="207560642"/>
    <nd ref="207560590"/>
    <nd ref="207562189"/>
    <nd ref="207562905"/>
    <nd ref="303589237"/>
    <nd ref="207559875"/>
    <tag k="created_by" v="Potlatch 0.7"/>
    <tag k="highway" v="residential"/>
    <tag k="name" v="Шандор Петьофи"/>
  </way>
  <way id="19848853" version="12" timestamp="2008-10-10T17:01:02Z" uid="65847" user="LKK" changeset="235948">
    <nd ref="207559874"/>
    <nd ref="207560284"/>
    <nd ref="245966361"/>
    <nd ref="245966401"/>
    <nd ref="245966164"/>
    <nd ref="245966216"/>
    <nd ref="207559206"/>
    <nd ref="207560642"/>
    <nd ref="207560590"/>
    <nd ref="207562189"/>
    <nd ref="303590190"/>
    <nd ref="207562905"/>
    <nd ref="303589237"/>
    <nd ref="207559875"/>
    <tag k="created_by" v="Potlatch 0.7"/>
    <tag k="highway" v="residential"/>
    <tag k="name" v="Шандор Петьофи"/>
  </way>
  <way id="19848853" version="13" timestamp="2008-10-11T09:37:16Z" uid="65847" user="LKK" changeset="247438">
    <nd ref="207559874"/>
    <nd ref="207560284"/>
    <nd ref="245966361"/>
    <nd ref="245966401"/>
    <nd ref="245966164"/>
    <nd ref="245966216"/>
    <nd ref="207559206"/>
    <tag k="created_by" v="Potlatch 0.7"/>
    <tag k="highway" v="residential"/>
    <tag k="name" v="Шандор Петьофи"/>
  </way>
  <way id="19848853" version="14" timestamp="2008-10-11T09:45:40Z" uid="65847" user="LKK" changeset="247438">
    <nd ref="207559874"/>
    <nd ref="207560284"/>
    <nd ref="245966361"/>
    <nd ref="245966401"/>
    <nd ref="245966164"/>
    <nd ref="245966216"/>
    <nd ref="207559206"/>
    <tag k="created_by" v="Potlatch 0.7"/>
    <tag k="highway" v="residential"/>
    <tag k="name" v="ул. Шандор Петьофи"/>
  </way>
  <way id="19848853" version="15" timestamp="2008-10-14T18:47:33Z" uid="65847" user="LKK" changeset="339169">
    <nd ref="207559874"/>
    <nd ref="207560284"/>
    <nd ref="245966361"/>
    <nd ref="245966401"/>
    <nd ref="245966164"/>
    <nd ref="245966216"/>
    <nd ref="303498147"/>
    <tag k="created_by" v="Potlatch 0.7"/>
    <tag k="highway" v="residential"/>
    <tag k="name" v="ул. Шандор Петьофи"/>
  </way>
  <way id="19848855" version="2" timestamp="2008-10-09T09:38:13Z" uid="49111" user="Markus B" changeset="184818">
    <nd ref="207559905"/>
    <nd ref="207559906"/>
    <nd ref="207559918"/>
    <nd ref="207559922"/>
    <nd ref="207559942"/>
    <nd ref="207559943"/>
    <nd ref="207559944"/>
    <nd ref="207559945"/>
    <nd ref="207559946"/>
    <nd ref="207559947"/>
    <nd ref="207559949"/>
    <nd ref="207559952"/>
    <nd ref="207559956"/>
    <nd ref="207559959"/>
    <nd ref="207559962"/>
    <nd ref="207559965"/>
    <nd ref="207559968"/>
    <nd ref="207559905"/>
    <tag k="created_by" v="Potlatch 0.10d"/>
    <tag k="landuse" v="forest"/>
    <tag k="source" v="landsat"/>
  </way>
  <way id="19848856" version="12" timestamp="2008-10-10T08:31:47Z" uid="65847" user="LKK" changeset="209907">
    <nd ref="207560022"/>
    <nd ref="207562906"/>
    <nd ref="207562190"/>
    <nd ref="207560589"/>
    <nd ref="207560660"/>
    <nd ref="303498154"/>
    <nd ref="207560023"/>
    <nd ref="245966515"/>
    <nd ref="245966217"/>
    <nd ref="245966163"/>
    <nd ref="245966360"/>
    <nd ref="207560024"/>
    <tag k="created_by" v="Potlatch 0.7b"/>
    <tag k="highway" v="residential"/>
    <tag k="name" v="Доспат"/>
  </way>
  <way id="19848856" version="13" timestamp="2008-10-10T16:57:04Z" uid="65847" user="LKK" changeset="235948">
    <nd ref="207560022"/>
    <nd ref="303589238"/>
    <nd ref="207562906"/>
    <nd ref="207562190"/>
    <nd ref="207560589"/>
    <nd ref="207560660"/>
    <nd ref="303498154"/>
    <nd ref="207560023"/>
    <nd ref="245966515"/>
    <nd ref="245966217"/>
    <nd ref="245966163"/>
    <nd ref="245966360"/>
    <nd ref="207560024"/>
    <tag k="created_by" v="Potlatch 0.7b"/>
    <tag k="highway" v="residential"/>
    <tag k="name" v="Доспат"/>
  </way>
  <way id="19848856" version="14" timestamp="2008-10-10T17:00:59Z" uid="65847" user="LKK" changeset="235948">
    <nd ref="207560022"/>
    <nd ref="303589238"/>
    <nd ref="207562906"/>
    <nd ref="303590192"/>
    <nd ref="207562190"/>
    <nd ref="207560589"/>
    <nd ref="207560660"/>
    <nd ref="303498154"/>
    <nd ref="207560023"/>
    <nd ref="245966515"/>
    <nd ref="245966217"/>
    <nd ref="245966163"/>
    <nd ref="245966360"/>
    <nd ref="207560024"/>
    <tag k="created_by" v="Potlatch 0.7b"/>
    <tag k="highway" v="residential"/>
    <tag k="name" v="Доспат"/>
  </way>
  <way id="19848856" version="15" timestamp="2008-10-10T17:07:10Z" uid="65847" user="LKK" changeset="235948">
    <nd ref="207560023"/>
    <nd ref="303498154"/>
    <nd ref="207560660"/>
    <nd ref="207560589"/>
    <nd ref="207562190"/>
    <nd ref="303590192"/>
    <nd ref="207562906"/>
    <nd ref="303589238"/>
    <nd ref="207560022"/>
    <tag k="created_by" v="Potlatch 0.7b"/>
    <tag k="highway" v="residential"/>
    <tag k="name" v="Доспат"/>
    <tag k="oneway" v="yes"/>
  </way>
  <way id="19848856" version="16" timestamp="2008-10-11T09:45:10Z" uid="65847" user="LKK" changeset="247438">
    <nd ref="207560023"/>
    <nd ref="303498154"/>
    <nd ref="207560660"/>
    <nd ref="207560589"/>
    <nd ref="207562190"/>
    <nd ref="303590192"/>
    <nd ref="207562906"/>
    <nd ref="303589238"/>
    <nd ref="207560022"/>
    <tag k="created_by" v="Potlatch 0.7b"/>
    <tag k="highway" v="residential"/>
    <tag k="name" v="ул. Доспат"/>
    <tag k="oneway" v="yes"/>
  </way>
  <way id="19848856" version="17" timestamp="2008-10-14T18:47:40Z" uid="65847" user="LKK" changeset="339169">
    <nd ref="303498149"/>
    <nd ref="303498154"/>
    <nd ref="207560660"/>
    <nd ref="303498150"/>
    <nd ref="207562190"/>
    <nd ref="303590192"/>
    <nd ref="207562906"/>
    <nd ref="303589238"/>
    <nd ref="207560022"/>
    <tag k="created_by" v="Potlatch 0.7b"/>
    <tag k="highway" v="residential"/>
    <tag k="name" v="ул. Доспат"/>
    <tag k="oneway" v="yes"/>
  </way>
  <way id="19848856" version="18" timestamp="2010-07-19T10:20:17Z" uid="134327" user="Antzi" changeset="5259554">
    <nd ref="303498149"/>
    <nd ref="303498154"/>
    <nd ref="207560660"/>
    <nd ref="303498150"/>
    <nd ref="207562190"/>
    <nd ref="303590192"/>
    <nd ref="207562906"/>
    <nd ref="303589238"/>
    <nd ref="824281906"/>
    <tag k="highway" v="residential"/>
    <tag k="name" v="ул. Доспат"/>
    <tag k="oneway" v="yes"/>
  </way>
  <way id="19848860" version="9" timestamp="2011-05-16T20:08:27Z" uid="23543" user="jkjk" changeset="8166131">
    <nd ref="28587059"/>
    <nd ref="240731433"/>
    <nd ref="28587099"/>
    <nd ref="130074839"/>
    <nd ref="28587119"/>
    <nd ref="28587153"/>
    <nd ref="1288191846"/>
    <nd ref="1018233696"/>
    <nd ref="1288191870"/>
    <nd ref="206214628"/>
    <tag k="hgv" v="no"/>
    <tag k="highway" v="tertiary"/>
    <tag k="name" v="Tupolevova"/>
    <tag k="oneway" v="yes"/>
  </way>
  <way id="19848860" version="10" timestamp="2011-09-02T09:21:32Z" uid="17615" user="Petr Dlouhý" changeset="9191477">
    <nd ref="28587059"/>
    <nd ref="240731433"/>
    <nd ref="28587099"/>
    <nd ref="130074839"/>
    <nd ref="28587119"/>
    <nd ref="28587153"/>
    <nd ref="1420772993"/>
    <nd ref="1288191846"/>
    <nd ref="1018233696"/>
    <nd ref="1288191870"/>
    <nd ref="206214628"/>
    <tag k="hgv" v="no"/>
    <tag k="highway" v="tertiary"/>
    <tag k="name" v="Tupolevova"/>
    <tag k="oneway" v="yes"/>
  </way>
  <way id="19848860" version="11" timestamp="2011-09-06T07:48:08Z" uid="17615" user="Petr Dlouhý" changeset="9224884">
    <nd ref="28587059"/>
    <nd ref="240731433"/>
    <nd ref="28587099"/>
    <nd ref="130074839"/>
    <nd ref="28587119"/>
    <nd ref="28587153"/>
    <nd ref="1420772993"/>
    <nd ref="1288191846"/>
    <nd ref="1018233696"/>
    <tag k="hgv" v="no"/>
    <tag k="highway" v="tertiary"/>
    <tag k="name" v="Tupolevova"/>
    <tag k="oneway" v="yes"/>
  </way>
  <way id="19848860" version="12" timestamp="2011-09-30T18:43:39Z" uid="527259" user="Vratislav Filler" changeset="9437677">
    <nd ref="28587059"/>
    <nd ref="240731433"/>
    <nd ref="28587099"/>
    <nd ref="130074839"/>
    <nd ref="28587119"/>
    <nd ref="28587153"/>
    <nd ref="1420772993"/>
    <nd ref="1288191846"/>
    <tag k="hgv" v="no"/>
    <tag k="highway" v="secondary"/>
    <tag k="name" v="Tupolevova"/>
    <tag k="oneway" v="yes"/>
  </way>
  <way id="19848870" version="10" timestamp="2008-10-11T09:51:10Z" uid="65847" user="LKK" changeset="247438"/>
  <way id="19848873" version="2" timestamp="2009-04-16T21:39:47Z" uid="30632" user="antblant" changeset="598077">
    <nd ref="207560013"/>
    <nd ref="207560531"/>
    <nd ref="207560532"/>
    <nd ref="207560533"/>
    <nd ref="207560534"/>
    <nd ref="207560535"/>
    <nd ref="207560536"/>
    <nd ref="207560537"/>
    <nd ref="207560538"/>
    <nd ref="207560539"/>
    <nd ref="207560540"/>
    <nd ref="207560541"/>
    <nd ref="207560542"/>
    <nd ref="207560543"/>
    <nd ref="207560544"/>
    <tag k="created_by" v="Potlatch 0.10f"/>
    <tag k="highway" v="primary"/>
    <tag k="ref" v="11, 12"/>
  </way>
  <way id="19848876" version="3" timestamp="2008-10-10T17:07:11Z" uid="65847" user="LKK" changeset="235948">
    <nd ref="207560490"/>
    <nd ref="207568424"/>
    <nd ref="207560589"/>
    <nd ref="207560590"/>
    <tag k="created_by" v="Potlatch 0.6a"/>
    <tag k="highway" v="residential"/>
    <tag k="name" v="ул. Христо Станчев"/>
  </way>
  <way id="19848876" version="4" timestamp="2008-10-10T17:20:56Z" uid="65847" user="LKK" changeset="235948">
    <nd ref="207560490"/>
    <nd ref="207568424"/>
    <nd ref="207560589"/>
    <nd ref="207560590"/>
    <tag k="created_by" v="Potlatch 0.6a"/>
    <tag k="highway" v="residential"/>
    <tag k="name" v="ул. Христо Станчев"/>
  </way>
  <way id="19848876" version="5" timestamp="2008-10-11T19:49:45Z" uid="65847" user="LKK" changeset="265008">
    <nd ref="303819311"/>
    <nd ref="207560490"/>
    <tag k="created_by" v="JOSM"/>
    <tag k="highway" v="service"/>
  </way>
  <way id="19848876" version="6" timestamp="2008-10-11T19:55:18Z" uid="65847" user="LKK" changeset="265008">
    <nd ref="303819311"/>
    <nd ref="303820537"/>
    <nd ref="207560490"/>
    <tag k="created_by" v="JOSM"/>
    <tag k="highway" v="service"/>
  </way>
  <way id="19848884" version="4" timestamp="2008-10-10T17:07:05Z" uid="65847" user="LKK" changeset="235948">
    <nd ref="207560642"/>
    <nd ref="207565953"/>
    <nd ref="207558916"/>
    <tag k="created_by" v="Potlatch 0.6a"/>
    <tag k="highway" v="residential"/>
    <tag k="name" v="Цар Петър"/>
    <tag k="oneway" v="yes"/>
  </way>
  <way id="19848884" version="5" timestamp="2008-10-10T17:20:55Z" uid="65847" user="LKK" changeset="235948">
    <nd ref="207560660"/>
    <nd ref="303594974"/>
    <nd ref="207560642"/>
    <tag k="highway" v="footway"/>
  </way>
  <way id="19848959" version="3" timestamp="2008-12-28T18:18:34Z" uid="20587" user="balrog-kun" changeset="645581">
    <nd ref="206760492"/>
    <nd ref="322615526"/>
    <nd ref="206358276"/>
    <nd ref="206358278"/>
    <nd ref="209093995"/>
    <nd ref="206358281"/>
    <tag k="created_by" v="JOSM"/>
    <tag k="highway" v="tertiary"/>
    <tag k="name" v="Marywilska"/>
  </way>
  <way id="19848959" version="4" timestamp="2009-10-28T14:30:30Z" uid="20587" user="balrog-kun" changeset="2973663">
    <nd ref="206760492"/>
    <nd ref="322615526"/>
    <nd ref="206358276"/>
    <nd ref="206358278"/>
    <nd ref="209093995"/>
    <nd ref="206358281"/>
    <tag k="highway" v="tertiary"/>
    <tag k="name" v="Marywilska"/>
    <tag k="wikipedia" v="pl:Ulica Marywilska w Warszawie"/>
  </way>
  <way id="19848959" version="5" timestamp="2011-01-28T22:05:30Z" uid="277387" user="rogal" changeset="7117685">
    <nd ref="206760492"/>
    <nd ref="322615526"/>
    <nd ref="1125497897"/>
    <nd ref="206358276"/>
    <nd ref="206358278"/>
    <nd ref="209093995"/>
    <nd ref="206358281"/>
    <tag k="highway" v="tertiary"/>
    <tag k="name" v="Marywilska"/>
    <tag k="wikipedia" v="pl:Ulica Marywilska w Warszawie"/>
  </way>
  <way id="19848959" version="6" timestamp="2011-03-01T19:30:42Z" uid="20587" user="balrog-kun" changeset="7432112">
    <nd ref="206760492"/>
    <nd ref="322615526"/>
    <nd ref="1125497897"/>
    <nd ref="206358276"/>
    <nd ref="1181146589"/>
    <nd ref="1181146367"/>
    <nd ref="1181143699"/>
    <nd ref="1181144427"/>
    <nd ref="1181144487"/>
    <nd ref="206358278"/>
    <nd ref="209093995"/>
    <nd ref="1181146601"/>
    <nd ref="1181144453"/>
    <nd ref="206358281"/>
    <tag k="highway" v="tertiary"/>
    <tag k="name" v="Marywilska"/>
    <tag k="wikipedia" v="pl:Ulica Marywilska w Warszawie"/>
  </way>
  <way id="19848960" version="6" timestamp="2008-03-29T02:11:19Z" uid="20587" user="balrog-kun" changeset="415518">
    <nd ref="207561485"/>
    <nd ref="252339703"/>
    <nd ref="207561490"/>
    <nd ref="216205643"/>
    <nd ref="254526075"/>
    <nd ref="207561511"/>
    <nd ref="254526059"/>
    <nd ref="254526133"/>
    <nd ref="207561513"/>
    <nd ref="254526087"/>
    <nd ref="254526089"/>
    <nd ref="207561516"/>
    <tag k="created_by" v="Potlatch 0.7b"/>
    <tag k="highway" v="tertiary"/>
    <tag k="name" v="Piotra Wysockiego"/>
    <tag k="oneway" v="yes"/>
  </way>
  <way id="19848960" version="7" timestamp="2008-06-16T22:37:53Z" uid="20587" user="balrog-kun" changeset="191141">
    <nd ref="207561485"/>
    <nd ref="252339703"/>
    <nd ref="207561490"/>
    <nd ref="216205643"/>
    <nd ref="254526075"/>
    <nd ref="207561511"/>
    <nd ref="254526059"/>
    <nd ref="254526133"/>
    <nd ref="207561513"/>
    <nd ref="270830853"/>
    <nd ref="254526087"/>
    <nd ref="254526089"/>
    <nd ref="207561516"/>
    <tag k="created_by" v="Potlatch 0.7b"/>
    <tag k="highway" v="tertiary"/>
    <tag k="name" v="Piotra Wysockiego"/>
    <tag k="oneway" v="yes"/>
  </way>
  <way id="19848960" version="8" timestamp="2008-12-28T18:18:27Z" uid="20587" user="balrog-kun" changeset="645581">
    <nd ref="207561485"/>
    <nd ref="252339703"/>
    <nd ref="207561490"/>
    <nd ref="216205643"/>
    <nd ref="254526075"/>
    <nd ref="207561511"/>
    <nd ref="254526059"/>
    <nd ref="322614974"/>
    <nd ref="254526133"/>
    <nd ref="207561513"/>
    <nd ref="270830853"/>
    <nd ref="254526087"/>
    <nd ref="254526089"/>
    <nd ref="207561516"/>
    <tag k="created_by" v="Potlatch 0.7b"/>
    <tag k="highway" v="tertiary"/>
    <tag k="name" v="Piotra Wysockiego"/>
    <tag k="oneway" v="yes"/>
  </way>
  <way id="19848960" version="9" timestamp="2009-01-13T20:07:24Z" uid="81829" user="BartT78" changeset="783109">
    <nd ref="207561485"/>
    <nd ref="252339703"/>
    <nd ref="207561490"/>
    <nd ref="216205643"/>
    <nd ref="254526075"/>
    <nd ref="207561511"/>
    <nd ref="322614974"/>
    <nd ref="254526133"/>
    <nd ref="207561513"/>
    <nd ref="270830853"/>
    <nd ref="254526087"/>
    <nd ref="254526089"/>
    <nd ref="207561516"/>
    <tag k="created_by" v="Potlatch 0.7b"/>
    <tag k="highway" v="tertiary"/>
    <tag k="name" v="Piotra Wysockiego"/>
    <tag k="oneway" v="yes"/>
  </way>
  <way id="19848960" version="10" timestamp="2009-07-23T05:32:48Z" uid="98542" user="wajak" changeset="1911444">
    <nd ref="207561485"/>
    <nd ref="252339703"/>
    <nd ref="207561490"/>
    <nd ref="446001518"/>
    <nd ref="216205643"/>
    <nd ref="254526075"/>
    <nd ref="207561511"/>
    <nd ref="322614974"/>
    <nd ref="254526133"/>
    <nd ref="207561513"/>
    <nd ref="270830853"/>
    <nd ref="254526087"/>
    <nd ref="254526089"/>
    <nd ref="207561516"/>
    <tag k="highway" v="tertiary"/>
    <tag k="name" v="Piotra Wysockiego"/>
    <tag k="oneway" v="yes"/>
  </way>
  <way id="19848960" version="11" timestamp="2010-01-11T00:48:57Z" uid="20587" user="balrog-kun" changeset="3593007">
    <nd ref="207561485"/>
    <nd ref="252339703"/>
    <nd ref="207561490"/>
    <nd ref="446001518"/>
    <nd ref="216205643"/>
    <nd ref="254526075"/>
    <nd ref="207561511"/>
    <nd ref="322614974"/>
    <nd ref="254526133"/>
    <nd ref="207561513"/>
    <nd ref="270830853"/>
    <nd ref="611443826"/>
    <nd ref="611443801"/>
    <nd ref="254526087"/>
    <nd ref="254526089"/>
    <nd ref="207561516"/>
    <tag k="highway" v="tertiary"/>
    <tag k="name" v="Piotra Wysockiego"/>
    <tag k="oneway" v="yes"/>
  </way>
  <way id="19848960" version="12" timestamp="2010-12-31T20:36:32Z" uid="20587" user="balrog-kun" changeset="6823385">
    <nd ref="207561485"/>
    <nd ref="252339703"/>
    <nd ref="207561490"/>
    <nd ref="446001518"/>
    <nd ref="216205643"/>
    <nd ref="254526075"/>
    <nd ref="207561511"/>
    <nd ref="322614974"/>
    <nd ref="254526133"/>
    <nd ref="207561513"/>
    <nd ref="270830853"/>
    <nd ref="611443826"/>
    <nd ref="611443801"/>
    <nd ref="254526087"/>
    <nd ref="1075952741"/>
    <nd ref="254526089"/>
    <nd ref="207561516"/>
    <tag k="highway" v="tertiary"/>
    <tag k="name" v="Piotra Wysockiego"/>
    <tag k="oneway" v="yes"/>
  </way>
  <way id="19848960" version="13" timestamp="2011-06-14T13:50:26Z" uid="165509" user="koszatek" changeset="8437626">
    <nd ref="207561485"/>
    <nd ref="252339703"/>
    <nd ref="1325031569"/>
    <nd ref="207561490"/>
    <nd ref="446001518"/>
    <nd ref="216205643"/>
    <nd ref="254526075"/>
    <nd ref="207561511"/>
    <nd ref="322614974"/>
    <nd ref="254526133"/>
    <nd ref="207561513"/>
    <nd ref="270830853"/>
    <nd ref="611443826"/>
    <nd ref="611443801"/>
    <nd ref="254526087"/>
    <nd ref="1075952741"/>
    <nd ref="254526089"/>
    <nd ref="207561516"/>
    <tag k="highway" v="tertiary"/>
    <tag k="name" v="Piotra Wysockiego"/>
    <tag k="oneway" v="yes"/>
  </way>
  <way id="19848960" version="14" timestamp="2011-06-30T00:04:27Z" uid="165509" user="koszatek" changeset="8586203">
    <nd ref="207561485"/>
    <nd ref="252339703"/>
    <nd ref="1325031569"/>
    <nd ref="207561490"/>
    <nd ref="446001518"/>
    <nd ref="216205643"/>
    <nd ref="254526075"/>
    <nd ref="207561511"/>
    <nd ref="322614974"/>
    <nd ref="254526133"/>
    <nd ref="207561513"/>
    <nd ref="270830853"/>
    <nd ref="611443826"/>
    <nd ref="611443801"/>
    <nd ref="254526087"/>
    <nd ref="1075952741"/>
    <nd ref="254526089"/>
    <nd ref="207561516"/>
    <tag k="highway" v="secondary"/>
    <tag k="name" v="Piotra Wysockiego"/>
    <tag k="oneway" v="yes"/>
  </way>
  <way id="19848960" version="15" timestamp="2011-07-14T12:59:12Z" uid="487944" user="Voitcus" changeset="8721579">
    <nd ref="207561485"/>
    <nd ref="252339703"/>
    <nd ref="1325031569"/>
    <nd ref="207561490"/>
    <nd ref="446001518"/>
    <nd ref="216205643"/>
    <nd ref="254526075"/>
    <nd ref="207561511"/>
    <nd ref="322614974"/>
    <nd ref="254526133"/>
    <tag k="highway" v="secondary"/>
    <tag k="name" v="Piotra Wysockiego"/>
    <tag k="oneway" v="yes"/>
  </way>
  <way id="19848961" version="6" timestamp="2008-06-17T01:33:20Z" uid="20587" user="balrog-kun" changeset="199295">
    <nd ref="207561573"/>
    <nd ref="207561624"/>
    <nd ref="207561626"/>
    <nd ref="207561630"/>
    <nd ref="206358281"/>
    <tag k="created_by" v="Potlatch 0.7b"/>
    <tag k="highway" v="tertiary"/>
    <tag k="name" v="Marywilska"/>
    <tag k="oneway" v="yes"/>
  </way>
  <way id="19848961" version="7" timestamp="2009-10-28T14:30:31Z" uid="20587" user="balrog-kun" changeset="2973663">
    <nd ref="207561573"/>
    <nd ref="207561624"/>
    <nd ref="207561626"/>
    <nd ref="207561630"/>
    <nd ref="206358281"/>
    <tag k="highway" v="tertiary"/>
    <tag k="name" v="Marywilska"/>
    <tag k="oneway" v="yes"/>
    <tag k="wikipedia" v="pl:Ulica Marywilska w Warszawie"/>
  </way>
  <way id="19848961" version="8" timestamp="2011-01-28T22:05:06Z" uid="277387" user="rogal" changeset="7117685">
    <nd ref="207561573"/>
    <nd ref="207561624"/>
    <nd ref="207561626"/>
    <nd ref="1125497938"/>
    <nd ref="207561630"/>
    <nd ref="206358281"/>
    <tag k="highway" v="tertiary"/>
    <tag k="name" v="Marywilska"/>
    <tag k="oneway" v="yes"/>
    <tag k="wikipedia" v="pl:Ulica Marywilska w Warszawie"/>
  </way>
  <way id="19848961" version="9" timestamp="2011-03-01T19:30:31Z" uid="20587" user="balrog-kun" changeset="7432112">
    <nd ref="207561573"/>
    <nd ref="207561624"/>
    <nd ref="207561626"/>
    <nd ref="1125497938"/>
    <nd ref="207561630"/>
    <nd ref="1181144834"/>
    <nd ref="206358281"/>
    <tag k="highway" v="tertiary"/>
    <tag k="name" v="Marywilska"/>
    <tag k="oneway" v="yes"/>
    <tag k="wikipedia" v="pl:Ulica Marywilska w Warszawie"/>
  </way>
  <way id="19848962" version="6" timestamp="2009-10-28T14:30:18Z" uid="20587" user="balrog-kun" changeset="2973663">
    <nd ref="206358281"/>
    <nd ref="206358283"/>
    <nd ref="206358287"/>
    <nd ref="206358290"/>
    <nd ref="207561485"/>
    <tag k="highway" v="tertiary"/>
    <tag k="name" v="Marywilska"/>
    <tag k="oneway" v="yes"/>
    <tag k="wikipedia" v="pl:Ulica Marywilska w Warszawie"/>
  </way>
  <way id="19848962" version="7" timestamp="2011-01-28T22:05:29Z" uid="277387" user="rogal" changeset="7117685">
    <nd ref="206358281"/>
    <nd ref="206358283"/>
    <nd ref="1125497931"/>
    <nd ref="206358287"/>
    <nd ref="206358290"/>
    <nd ref="207561485"/>
    <tag k="highway" v="tertiary"/>
    <tag k="name" v="Marywilska"/>
    <tag k="oneway" v="yes"/>
    <tag k="wikipedia" v="pl:Ulica Marywilska w Warszawie"/>
  </way>
  <way id="19848962" version="8" timestamp="2011-03-01T19:31:01Z" uid="20587" user="balrog-kun" changeset="7432112">
    <nd ref="206358281"/>
    <nd ref="1181143466"/>
    <nd ref="206358283"/>
    <nd ref="1125497931"/>
    <nd ref="206358287"/>
    <nd ref="206358290"/>
    <nd ref="207561485"/>
    <tag k="highway" v="tertiary"/>
    <tag k="name" v="Marywilska"/>
    <tag k="oneway" v="yes"/>
    <tag k="wikipedia" v="pl:Ulica Marywilska w Warszawie"/>
  </way>
  <way id="19848963" version="2" timestamp="2008-03-29T02:11:19Z" uid="20587" user="balrog-kun" changeset="415518">
    <nd ref="207561516"/>
    <nd ref="207561518"/>
    <nd ref="207561521"/>
    <nd ref="207561524"/>
    <nd ref="207561529"/>
    <nd ref="207561533"/>
    <nd ref="34524012"/>
    <nd ref="34523993"/>
    <nd ref="34523923"/>
    <tag k="created_by" v="JOSM"/>
    <tag k="highway" v="tertiary"/>
    <tag k="name" v="Jacka Odrowąża"/>
    <tag k="oneway" v="yes"/>
  </way>
  <way id="19848963" version="3" timestamp="2008-06-17T01:33:20Z" uid="20587" user="balrog-kun" changeset="199295">
    <nd ref="207561516"/>
    <nd ref="270850881"/>
    <nd ref="207561518"/>
    <nd ref="207561521"/>
    <nd ref="207561524"/>
    <nd ref="207561529"/>
    <nd ref="270850890"/>
    <nd ref="207561533"/>
    <nd ref="34524012"/>
    <nd ref="34523993"/>
    <nd ref="34523923"/>
    <tag k="created_by" v="JOSM"/>
    <tag k="highway" v="tertiary"/>
    <tag k="name" v="Jacka Odrowąża"/>
    <tag k="oneway" v="yes"/>
  </way>
  <way id="19848963" version="4" timestamp="2010-01-10T23:08:08Z" uid="20587" user="balrog-kun" changeset="3592526">
    <nd ref="207561516"/>
    <nd ref="270850881"/>
    <nd ref="207561518"/>
    <nd ref="207561521"/>
    <nd ref="207561524"/>
    <nd ref="207561529"/>
    <nd ref="270850890"/>
    <nd ref="207561533"/>
    <nd ref="34524012"/>
    <nd ref="34523993"/>
    <nd ref="611373445"/>
    <nd ref="34523923"/>
    <tag k="highway" v="tertiary"/>
    <tag k="name" v="Jacka Odrowąża"/>
    <tag k="oneway" v="yes"/>
  </way>
  <way id="19848963" version="5" timestamp="2010-01-11T00:48:48Z" uid="20587" user="balrog-kun" changeset="3593007">
    <nd ref="207561516"/>
    <nd ref="270850881"/>
    <nd ref="207561518"/>
    <nd ref="207561521"/>
    <nd ref="207561524"/>
    <nd ref="207561529"/>
    <nd ref="611443872"/>
    <nd ref="270850890"/>
    <nd ref="207561533"/>
    <nd ref="34524012"/>
    <nd ref="34523993"/>
    <nd ref="611373445"/>
    <nd ref="34523923"/>
    <tag k="highway" v="tertiary"/>
    <tag k="lanes" v="1"/>
    <tag k="name" v="Jacka Odrowąża"/>
    <tag k="oneway" v="yes"/>
  </way>
  <way id="19848963" version="6" timestamp="2011-06-30T00:04:26Z" uid="165509" user="koszatek" changeset="8586203">
    <nd ref="207561516"/>
    <nd ref="270850881"/>
    <nd ref="207561518"/>
    <nd ref="207561521"/>
    <nd ref="207561524"/>
    <nd ref="207561529"/>
    <nd ref="611443872"/>
    <nd ref="270850890"/>
    <nd ref="207561533"/>
    <nd ref="34524012"/>
    <nd ref="34523993"/>
    <nd ref="611373445"/>
    <nd ref="34523923"/>
    <tag k="highway" v="secondary"/>
    <tag k="lanes" v="1"/>
    <tag k="name" v="Jacka Odrowąża"/>
    <tag k="oneway" v="yes"/>
  </way>
  <way id="19848963" version="7" timestamp="2011-07-14T12:59:13Z" uid="487944" user="Voitcus" changeset="8721579">
    <nd ref="207561516"/>
    <nd ref="270850881"/>
    <nd ref="207561518"/>
    <nd ref="207561521"/>
    <nd ref="207561524"/>
    <tag k="highway" v="secondary"/>
    <tag k="lanes" v="1"/>
    <tag k="name" v="Jacka Odrowąża"/>
    <tag k="oneway" v="yes"/>
  </way>
  <way id="19848964" version="6" timestamp="2008-03-29T02:11:20Z" uid="20587" user="balrog-kun" changeset="415518">
    <nd ref="207561552"/>
    <nd ref="254526082"/>
    <nd ref="254526086"/>
    <nd ref="207561555"/>
    <nd ref="254526134"/>
    <nd ref="254526127"/>
    <nd ref="207561561"/>
    <nd ref="254526076"/>
    <nd ref="216205636"/>
    <nd ref="207561568"/>
    <nd ref="207561573"/>
    <tag k="created_by" v="Potlatch 0.7b"/>
    <tag k="highway" v="tertiary"/>
    <tag k="name" v="Piotra Wysockiego"/>
    <tag k="oneway" v="yes"/>
  </way>
  <way id="19848964" version="7" timestamp="2008-06-16T22:37:54Z" uid="20587" user="balrog-kun" changeset="191141">
    <nd ref="207561552"/>
    <nd ref="254526082"/>
    <nd ref="254526086"/>
    <nd ref="270830856"/>
    <nd ref="207561555"/>
    <nd ref="254526134"/>
    <nd ref="254526127"/>
    <nd ref="207561561"/>
    <nd ref="254526076"/>
    <nd ref="216205636"/>
    <nd ref="207561568"/>
    <nd ref="207561573"/>
    <tag k="created_by" v="Potlatch 0.7b"/>
    <tag k="highway" v="tertiary"/>
    <tag k="name" v="Piotra Wysockiego"/>
    <tag k="oneway" v="yes"/>
  </way>
  <way id="19848964" version="8" timestamp="2009-01-13T20:07:25Z" uid="81829" user="BartT78" changeset="783109">
    <nd ref="207561552"/>
    <nd ref="254526082"/>
    <nd ref="254526086"/>
    <nd ref="270830856"/>
    <nd ref="207561555"/>
    <nd ref="254526134"/>
    <nd ref="254526127"/>
    <nd ref="254526076"/>
    <nd ref="216205636"/>
    <nd ref="207561568"/>
    <nd ref="207561573"/>
    <tag k="created_by" v="Potlatch 0.7b"/>
    <tag k="highway" v="tertiary"/>
    <tag k="name" v="Piotra Wysockiego"/>
    <tag k="oneway" v="yes"/>
  </way>
  <way id="19848964" version="9" timestamp="2009-07-23T05:32:48Z" uid="98542" user="wajak" changeset="1911444">
    <nd ref="207561552"/>
    <nd ref="254526082"/>
    <nd ref="254526086"/>
    <nd ref="270830856"/>
    <nd ref="207561555"/>
    <nd ref="254526134"/>
    <nd ref="254526127"/>
    <nd ref="254526076"/>
    <nd ref="216205636"/>
    <nd ref="446001519"/>
    <nd ref="207561568"/>
    <nd ref="207561573"/>
    <tag k="highway" v="tertiary"/>
    <tag k="name" v="Piotra Wysockiego"/>
    <tag k="oneway" v="yes"/>
  </way>
  <way id="19848964" version="10" timestamp="2010-01-11T00:48:46Z" uid="20587" user="balrog-kun" changeset="3593007">
    <nd ref="207561552"/>
    <nd ref="611443808"/>
    <nd ref="254526082"/>
    <nd ref="254526086"/>
    <nd ref="611443813"/>
    <nd ref="611443828"/>
    <nd ref="270830856"/>
    <nd ref="207561555"/>
    <nd ref="254526134"/>
    <nd ref="254526127"/>
    <nd ref="254526076"/>
    <nd ref="216205636"/>
    <nd ref="446001519"/>
    <nd ref="207561568"/>
    <nd ref="207561573"/>
    <tag k="highway" v="tertiary"/>
    <tag k="name" v="Piotra Wysockiego"/>
    <tag k="oneway" v="yes"/>
  </way>
  <way id="19848964" version="11" timestamp="2010-12-31T20:37:05Z" uid="20587" user="balrog-kun" changeset="6823385">
    <nd ref="207561552"/>
    <nd ref="611443808"/>
    <nd ref="1075952623"/>
    <nd ref="254526082"/>
    <nd ref="254526086"/>
    <nd ref="611443813"/>
    <nd ref="611443828"/>
    <nd ref="270830856"/>
    <nd ref="207561555"/>
    <nd ref="254526134"/>
    <nd ref="254526127"/>
    <nd ref="254526076"/>
    <nd ref="216205636"/>
    <nd ref="446001519"/>
    <nd ref="207561568"/>
    <nd ref="207561573"/>
    <tag k="highway" v="tertiary"/>
    <tag k="name" v="Piotra Wysockiego"/>
    <tag k="oneway" v="yes"/>
  </way>
  <way id="19848964" version="12" timestamp="2011-06-14T13:50:26Z" uid="165509" user="koszatek" changeset="8437626">
    <nd ref="207561552"/>
    <nd ref="611443808"/>
    <nd ref="1075952623"/>
    <nd ref="254526082"/>
    <nd ref="254526086"/>
    <nd ref="611443813"/>
    <nd ref="611443828"/>
    <nd ref="270830856"/>
    <nd ref="207561555"/>
    <nd ref="254526134"/>
    <nd ref="254526127"/>
    <nd ref="254526076"/>
    <nd ref="216205636"/>
    <nd ref="446001519"/>
    <nd ref="207561568"/>
    <nd ref="1325031577"/>
    <nd ref="207561573"/>
    <tag k="highway" v="tertiary"/>
    <tag k="name" v="Piotra Wysockiego"/>
    <tag k="oneway" v="yes"/>
  </way>
  <way id="19848964" version="13" timestamp="2011-06-30T00:04:27Z" uid="165509" user="koszatek" changeset="8586203">
    <nd ref="207561552"/>
    <nd ref="611443808"/>
    <nd ref="1075952623"/>
    <nd ref="254526082"/>
    <nd ref="254526086"/>
    <nd ref="611443813"/>
    <nd ref="611443828"/>
    <nd ref="270830856"/>
    <nd ref="207561555"/>
    <nd ref="254526134"/>
    <nd ref="254526127"/>
    <nd ref="254526076"/>
    <nd ref="216205636"/>
    <nd ref="446001519"/>
    <nd ref="207561568"/>
    <nd ref="1325031577"/>
    <nd ref="207561573"/>
    <tag k="highway" v="secondary"/>
    <tag k="name" v="Piotra Wysockiego"/>
    <tag k="oneway" v="yes"/>
  </way>
  <way id="19848964" version="14" timestamp="2011-07-14T12:59:13Z" uid="487944" user="Voitcus" changeset="8721579">
    <nd ref="207561552"/>
    <nd ref="611443808"/>
    <nd ref="1075952623"/>
    <nd ref="254526082"/>
    <nd ref="254526086"/>
    <nd ref="611443813"/>
    <nd ref="611443828"/>
    <nd ref="270830856"/>
    <nd ref="207561555"/>
    <nd ref="254526134"/>
    <nd ref="254526127"/>
    <nd ref="254526076"/>
    <nd ref="216205636"/>
    <nd ref="446001519"/>
    <tag k="highway" v="secondary"/>
    <tag k="name" v="Piotra Wysockiego"/>
    <tag k="oneway" v="yes"/>
  </way>
  <way id="19848965" version="3" timestamp="2008-03-29T02:11:19Z" uid="20587" user="balrog-kun" changeset="415518">
    <nd ref="207561632"/>
    <nd ref="248071063"/>
    <nd ref="36311406"/>
    <nd ref="253044202"/>
    <nd ref="207561635"/>
    <tag k="created_by" v="Potlatch 0.7b"/>
    <tag k="highway" v="tertiary"/>
    <tag k="name" v="Inżynierska"/>
  </way>
  <way id="19848965" version="4" timestamp="2009-01-21T14:22:19Z" uid="20587" user="balrog-kun" changeset="821206">
    <nd ref="207561632"/>
    <nd ref="248071063"/>
    <nd ref="36311406"/>
    <nd ref="334556658"/>
    <nd ref="253044202"/>
    <nd ref="207561635"/>
    <tag k="created_by" v="Potlatch 0.7b"/>
    <tag k="highway" v="tertiary"/>
    <tag k="name" v="Inżynierska"/>
  </way>
  <way id="19848965" version="5" timestamp="2009-10-04T03:08:23Z" uid="20587" user="balrog-kun" changeset="2731066">
    <nd ref="207561632"/>
    <nd ref="248071063"/>
    <nd ref="36311406"/>
    <nd ref="334556658"/>
    <nd ref="253044202"/>
    <nd ref="519555837"/>
    <nd ref="207561635"/>
    <tag k="highway" v="tertiary"/>
    <tag k="name" v="Inżynierska"/>
  </way>
  <way id="19848965" version="6" timestamp="2010-01-16T02:02:30Z" uid="20587" user="balrog-kun" changeset="3628910">
    <nd ref="207561632"/>
    <nd ref="248071063"/>
    <nd ref="614496631"/>
    <nd ref="36311406"/>
    <nd ref="334556658"/>
    <nd ref="614496629"/>
    <nd ref="253044202"/>
    <nd ref="519555837"/>
    <nd ref="207561635"/>
    <tag k="highway" v="tertiary"/>
    <tag k="name" v="Inżynierska"/>
  </way>
  <way id="19848965" version="7" timestamp="2010-10-05T13:37:17Z" uid="20587" user="balrog-kun" changeset="5961352">
    <nd ref="207561632"/>
    <nd ref="248071063"/>
    <nd ref="614496631"/>
    <nd ref="36311406"/>
    <nd ref="334556658"/>
    <nd ref="614496629"/>
    <nd ref="253044202"/>
    <nd ref="938504864"/>
    <nd ref="519555837"/>
    <nd ref="207561635"/>
    <tag k="highway" v="tertiary"/>
    <tag k="name" v="Inżynierska"/>
  </way>
  <way id="19848965" version="8" timestamp="2011-06-23T19:28:27Z" uid="98542" user="wajak" changeset="8525939">
    <nd ref="207561632"/>
    <nd ref="248071063"/>
    <nd ref="614496631"/>
    <nd ref="36311406"/>
    <nd ref="334556658"/>
    <nd ref="614496629"/>
    <nd ref="253044202"/>
    <nd ref="938504864"/>
    <nd ref="519555837"/>
    <nd ref="207561635"/>
    <tag k="highway" v="residential"/>
    <tag k="name" v="Inżynierska"/>
  </way>
  <way id="19848966" version="5" timestamp="2009-01-21T14:22:19Z" uid="20587" user="balrog-kun" changeset="821206">
    <nd ref="253043871"/>
    <nd ref="253043872"/>
    <nd ref="334556717"/>
    <nd ref="334556715"/>
    <nd ref="253043873"/>
    <nd ref="253043874"/>
    <nd ref="253043875"/>
    <nd ref="207561635"/>
    <nd ref="36311401"/>
    <nd ref="36311393"/>
    <tag k="created_by" v="Potlatch 0.7b"/>
    <tag k="highway" v="residential"/>
    <tag k="name" v="Wileńska"/>
  </way>
  <way id="19848966" version="6" timestamp="2009-10-04T03:08:23Z" uid="20587" user="balrog-kun" changeset="2731066">
    <nd ref="253043871"/>
    <nd ref="519555840"/>
    <nd ref="253043872"/>
    <nd ref="334556717"/>
    <nd ref="334556715"/>
    <nd ref="253043873"/>
    <nd ref="253043874"/>
    <nd ref="253043875"/>
    <nd ref="519555836"/>
    <nd ref="207561635"/>
    <nd ref="36311401"/>
    <nd ref="36311393"/>
    <tag k="highway" v="residential"/>
    <tag k="name" v="Wileńska"/>
  </way>
  <way id="19848966" version="7" timestamp="2010-08-07T04:11:54Z" uid="20587" user="balrog-kun" changeset="5421907">
    <nd ref="253043871"/>
    <nd ref="519555840"/>
    <nd ref="253043872"/>
    <nd ref="334556717"/>
    <nd ref="334556715"/>
    <nd ref="253043873"/>
    <nd ref="253043874"/>
    <nd ref="253043875"/>
    <nd ref="519555836"/>
    <nd ref="207561635"/>
    <nd ref="36311401"/>
    <nd ref="36311393"/>
    <tag k="highway" v="residential"/>
    <tag k="maxspeed" v="50"/>
    <tag k="name" v="Wileńska"/>
  </way>
  <way id="19848966" version="8" timestamp="2010-10-05T13:37:20Z" uid="20587" user="balrog-kun" changeset="5961352">
    <nd ref="253043871"/>
    <nd ref="519555840"/>
    <nd ref="253043872"/>
    <nd ref="334556717"/>
    <nd ref="334556715"/>
    <nd ref="253043873"/>
    <nd ref="938505172"/>
    <nd ref="938504939"/>
    <nd ref="253043874"/>
    <nd ref="938505021"/>
    <nd ref="938504878"/>
    <nd ref="938505389"/>
    <nd ref="938504750"/>
    <nd ref="253043875"/>
    <nd ref="519555836"/>
    <nd ref="207561635"/>
    <nd ref="36311401"/>
    <nd ref="36311393"/>
    <tag k="highway" v="residential"/>
    <tag k="maxspeed" v="50"/>
    <tag k="name" v="Wileńska"/>
  </way>
  <way id="19848966" version="9" timestamp="2011-07-15T10:28:42Z" uid="487944" user="Voitcus" changeset="8729854">
    <nd ref="253043871"/>
    <nd ref="519555840"/>
    <nd ref="253043872"/>
    <nd ref="334556717"/>
    <nd ref="334556715"/>
    <nd ref="253043873"/>
    <nd ref="938505172"/>
    <nd ref="938504939"/>
    <nd ref="253043874"/>
    <nd ref="938505021"/>
    <nd ref="938504878"/>
    <nd ref="938505389"/>
    <nd ref="938504750"/>
    <nd ref="253043875"/>
    <nd ref="519555836"/>
    <nd ref="207561635"/>
    <tag k="highway" v="residential"/>
    <tag k="maxspeed" v="50"/>
    <tag k="name" v="Wileńska"/>
  </way>
  <way id="19848966" version="10" timestamp="2012-02-11T16:46:26Z" uid="373244" user="Tomekg" changeset="10654704">
    <nd ref="253043871"/>
    <nd ref="519555840"/>
    <nd ref="253043872"/>
    <nd ref="334556717"/>
    <nd ref="334556715"/>
    <nd ref="253043873"/>
    <nd ref="938505172"/>
    <nd ref="938504939"/>
    <nd ref="253043874"/>
    <nd ref="938505021"/>
    <tag k="highway" v="residential"/>
    <tag k="maxspeed" v="50"/>
    <tag k="name" v="Wileńska"/>
  </way>
  <way id="19848966" version="11" timestamp="2012-02-14T21:56:54Z" uid="489358" user="poktam" changeset="10687769">
    <nd ref="253043871"/>
    <nd ref="519555840"/>
    <nd ref="253043872"/>
    <nd ref="334556717"/>
    <nd ref="334556715"/>
    <nd ref="253043873"/>
    <nd ref="938505172"/>
    <nd ref="938504939"/>
    <nd ref="253043874"/>
    <tag k="highway" v="residential"/>
    <tag k="maxspeed" v="50"/>
    <tag k="name" v="Wileńska"/>
  </way>
  <way id="19848967" version="2" timestamp="2008-03-29T00:07:44Z" uid="20587" user="balrog-kun" changeset="415330">
    <nd ref="207561637"/>
    <nd ref="254518036"/>
    <nd ref="207561639"/>
    <tag k="created_by" v="JOSM"/>
    <tag k="highway" v="primary_link"/>
    <tag k="name" v="Grochowska"/>
  </way>
  <way id="19848967" version="3" timestamp="2010-01-15T23:44:58Z" uid="20587" user="balrog-kun" changeset="3628425">
    <nd ref="207561637"/>
    <nd ref="614473707"/>
    <nd ref="254518036"/>
    <nd ref="207561639"/>
    <tag k="highway" v="primary_link"/>
    <tag k="name" v="Grochowska"/>
  </way>
  <way id="19848967" version="4" timestamp="2010-02-26T12:47:48Z" uid="20587" user="balrog-kun" changeset="3979892">
    <nd ref="207561637"/>
    <nd ref="614473707"/>
    <nd ref="254518036"/>
    <nd ref="207561639"/>
    <tag k="highway" v="primary_link"/>
    <tag k="maxheight" v="3.5"/>
    <tag k="name" v="Grochowska"/>
  </way>
  <way id="19848967" version="5" timestamp="2011-01-02T23:49:46Z" uid="165509" user="koszatek" changeset="6845151">
    <nd ref="207561637"/>
    <nd ref="614473707"/>
    <nd ref="254518036"/>
    <nd ref="207561639"/>
    <tag k="highway" v="secondary"/>
    <tag k="maxheight" v="3.5"/>
    <tag k="name" v="Grochowska"/>
  </way>
  <way id="19848967" version="6" timestamp="2011-10-07T11:16:57Z" uid="373244" user="Tomekg" changeset="9492727"/>
  <way id="19848969" version="2" timestamp="2008-03-29T00:07:41Z" uid="20587" user="balrog-kun" changeset="415330">
    <nd ref="111534787"/>
    <nd ref="254518035"/>
    <nd ref="111534804"/>
    <nd ref="111534815"/>
    <tag k="created_by" v="JOSM"/>
    <tag k="highway" v="tertiary"/>
    <tag k="name" v="Podskarbińska"/>
  </way>
  <way id="19848969" version="3" timestamp="2008-04-08T00:45:37Z" uid="20587" user="balrog-kun" changeset="88411">
    <nd ref="111534787"/>
    <nd ref="254518035"/>
    <nd ref="111534804"/>
    <nd ref="111534815"/>
    <nd ref="256349123"/>
    <nd ref="256349129"/>
    <tag k="created_by" v="JOSM"/>
    <tag k="highway" v="tertiary"/>
    <tag k="name" v="Podskarbińska"/>
  </way>
  <way id="19848969" version="4" timestamp="2008-06-17T02:08:21Z" uid="20587" user="balrog-kun" changeset="199295">
    <nd ref="111534787"/>
    <nd ref="254518035"/>
    <nd ref="111534804"/>
    <nd ref="270852124"/>
    <nd ref="111534815"/>
    <nd ref="256349123"/>
    <nd ref="256349129"/>
    <tag k="created_by" v="JOSM"/>
    <tag k="highway" v="tertiary"/>
    <tag k="name" v="Podskarbińska"/>
  </way>
  <way id="19848969" version="5" timestamp="2008-08-10T12:29:53Z" uid="20587" user="balrog-kun" changeset="165773">
    <nd ref="111534787"/>
    <nd ref="254518035"/>
    <nd ref="111534804"/>
    <nd ref="270852124"/>
    <nd ref="111534815"/>
    <nd ref="256349123"/>
    <nd ref="286697571"/>
    <nd ref="256349129"/>
    <tag k="created_by" v="JOSM"/>
    <tag k="highway" v="tertiary"/>
    <tag k="name" v="Podskarbińska"/>
  </way>
  <way id="19848969" version="6" timestamp="2009-01-07T14:25:00Z" uid="20587" user="balrog-kun" changeset="752764">
    <nd ref="111534787"/>
    <nd ref="254518035"/>
    <nd ref="111534804"/>
    <nd ref="270852124"/>
    <nd ref="111534815"/>
    <nd ref="256349123"/>
    <nd ref="286697571"/>
    <nd ref="256349129"/>
    <tag k="created_by" v="JOSM"/>
    <tag k="highway" v="tertiary"/>
    <tag k="name" v="Podskarbińska"/>
    <tag k="wikipedia" v="pl:Ulica Podskarbińska w Warszawie"/>
  </way>
  <way id="19848969" version="7" timestamp="2009-05-13T22:07:29Z" uid="20587" user="balrog-kun" changeset="1181113">
    <nd ref="111534787"/>
    <nd ref="254518035"/>
    <nd ref="111534804"/>
    <nd ref="396146223"/>
    <nd ref="270852124"/>
    <nd ref="111534815"/>
    <nd ref="256349123"/>
    <nd ref="286697571"/>
    <nd ref="256349129"/>
    <tag k="created_by" v="JOSM"/>
    <tag k="highway" v="tertiary"/>
    <tag k="name" v="Podskarbińska"/>
    <tag k="wikipedia" v="pl:Ulica Podskarbińska w Warszawie"/>
  </way>
  <way id="19848969" version="8" timestamp="2009-10-04T02:54:32Z" uid="20587" user="balrog-kun" changeset="2731046">
    <nd ref="111534787"/>
    <nd ref="254518035"/>
    <nd ref="111534804"/>
    <nd ref="396146223"/>
    <nd ref="270852124"/>
    <nd ref="111534815"/>
    <nd ref="519551927"/>
    <nd ref="256349123"/>
    <nd ref="519551942"/>
    <nd ref="286697571"/>
    <nd ref="256349129"/>
    <tag k="highway" v="tertiary"/>
    <tag k="name" v="Podskarbińska"/>
    <tag k="wikipedia" v="pl:Ulica Podskarbińska w Warszawie"/>
  </way>
  <way id="19848969" version="9" timestamp="2010-01-15T23:44:56Z" uid="20587" user="balrog-kun" changeset="3628425">
    <nd ref="111534787"/>
    <nd ref="614473724"/>
    <nd ref="254518035"/>
    <nd ref="111534804"/>
    <nd ref="396146223"/>
    <nd ref="270852124"/>
    <nd ref="111534815"/>
    <nd ref="519551927"/>
    <nd ref="256349123"/>
    <nd ref="519551942"/>
    <nd ref="286697571"/>
    <nd ref="256349129"/>
    <tag k="highway" v="tertiary"/>
    <tag k="name" v="Podskarbińska"/>
    <tag k="wikipedia" v="pl:Ulica Podskarbińska w Warszawie"/>
  </way>
  <way id="19848969" version="10" timestamp="2010-06-19T03:55:39Z" uid="20587" user="balrog-kun" changeset="5020735">
    <nd ref="111534787"/>
    <nd ref="614473724"/>
    <nd ref="254518035"/>
    <nd ref="111534804"/>
    <nd ref="396146223"/>
    <nd ref="775917333"/>
    <nd ref="270852124"/>
    <nd ref="775917295"/>
    <nd ref="775917261"/>
    <nd ref="775917270"/>
    <nd ref="775917338"/>
    <nd ref="775917133"/>
    <nd ref="111534815"/>
    <nd ref="519551927"/>
    <nd ref="256349123"/>
    <nd ref="519551942"/>
    <nd ref="286697571"/>
    <nd ref="256349129"/>
    <tag k="highway" v="tertiary"/>
    <tag k="name" v="Podskarbińska"/>
    <tag k="wikipedia" v="pl:Ulica Podskarbińska w Warszawie"/>
  </way>
  <way id="19848969" version="11" timestamp="2010-10-17T19:15:42Z" uid="20587" user="balrog-kun" changeset="6070622">
    <nd ref="111534787"/>
    <nd ref="614473724"/>
    <nd ref="254518035"/>
    <nd ref="111534804"/>
    <nd ref="396146223"/>
    <nd ref="775917333"/>
    <nd ref="270852124"/>
    <nd ref="775917295"/>
    <nd ref="775917261"/>
    <nd ref="775917270"/>
    <nd ref="775917338"/>
    <nd ref="775917133"/>
    <nd ref="111534815"/>
    <nd ref="519551927"/>
    <nd ref="256349123"/>
    <nd ref="519551942"/>
    <nd ref="954986604"/>
    <nd ref="286697571"/>
    <nd ref="256349129"/>
    <tag k="highway" v="tertiary"/>
    <tag k="name" v="Podskarbińska"/>
    <tag k="wikipedia" v="pl:Ulica Podskarbińska w Warszawie"/>
  </way>
  <way id="19848969" version="12" timestamp="2011-06-19T15:06:42Z" uid="165509" user="koszatek" changeset="8484974">
    <nd ref="111534787"/>
    <nd ref="614473724"/>
    <nd ref="254518035"/>
    <nd ref="111534804"/>
    <nd ref="396146223"/>
    <nd ref="775917333"/>
    <nd ref="270852124"/>
    <nd ref="775917295"/>
    <nd ref="775917261"/>
    <nd ref="775917270"/>
    <nd ref="775917338"/>
    <nd ref="775917133"/>
    <nd ref="111534815"/>
    <tag k="highway" v="tertiary"/>
    <tag k="name" v="Podskarbińska"/>
    <tag k="wikipedia" v="pl:Ulica Podskarbińska w Warszawie"/>
  </way>
  <way id="19848971" version="2" timestamp="2008-04-08T00:45:37Z" uid="20587" user="balrog-kun" changeset="88411">
    <nd ref="207561639"/>
    <nd ref="207561642"/>
    <nd ref="207561644"/>
    <nd ref="207561647"/>
    <nd ref="256349108"/>
    <nd ref="207561649"/>
    <nd ref="207561651"/>
    <nd ref="207561652"/>
    <tag k="created_by" v="JOSM"/>
    <tag k="highway" v="tertiary"/>
    <tag k="name" v="Gocławska"/>
  </way>
  <way id="19848971" version="3" timestamp="2008-06-16T22:37:53Z" uid="20587" user="balrog-kun" changeset="191141">
    <nd ref="207561639"/>
    <nd ref="207561642"/>
    <nd ref="270830365"/>
    <nd ref="207561644"/>
    <nd ref="207561647"/>
    <nd ref="256349108"/>
    <nd ref="207561649"/>
    <nd ref="207561652"/>
    <tag k="created_by" v="JOSM"/>
    <tag k="highway" v="tertiary"/>
    <tag k="name" v="Gocławska"/>
  </way>
  <way id="19848971" version="4" timestamp="2008-09-27T19:30:56Z" uid="20587" user="balrog-kun" changeset="706490">
    <nd ref="207561639"/>
    <nd ref="270830365"/>
    <nd ref="207561644"/>
    <nd ref="207561647"/>
    <nd ref="256349108"/>
    <nd ref="207561649"/>
    <nd ref="207561652"/>
    <tag k="created_by" v="JOSM"/>
    <tag k="highway" v="tertiary"/>
    <tag k="name" v="Gocławska"/>
  </way>
  <way id="19848971" version="5" timestamp="2009-01-07T14:24:59Z" uid="20587" user="balrog-kun" changeset="752764">
    <nd ref="207561639"/>
    <nd ref="270830365"/>
    <nd ref="330011120"/>
    <nd ref="207561644"/>
    <nd ref="207561647"/>
    <nd ref="256349108"/>
    <nd ref="207561649"/>
    <nd ref="207561652"/>
    <tag k="created_by" v="JOSM"/>
    <tag k="highway" v="tertiary"/>
    <tag k="name" v="Gocławska"/>
    <tag k="wikipedia" v="pl:Ulica Gocławska w Warszawie"/>
  </way>
  <way id="19848971" version="6" timestamp="2010-06-19T02:58:45Z" uid="20587" user="balrog-kun" changeset="5020735">
    <nd ref="207561639"/>
    <nd ref="775914490"/>
    <nd ref="270830365"/>
    <nd ref="775914395"/>
    <nd ref="330011120"/>
    <nd ref="207561644"/>
    <nd ref="207561647"/>
    <nd ref="256349108"/>
    <nd ref="207561649"/>
    <nd ref="207561652"/>
    <tag k="highway" v="tertiary"/>
    <tag k="lanes" v="1.5"/>
    <tag k="name" v="Gocławska"/>
    <tag k="wikipedia" v="pl:Ulica Gocławska w Warszawie"/>
  </way>
  <way id="19848971" version="7" timestamp="2010-08-22T12:37:59Z" uid="20587" user="balrog-kun" changeset="5560667">
    <nd ref="207561639"/>
    <nd ref="775914490"/>
    <nd ref="270830365"/>
    <nd ref="775914395"/>
    <nd ref="330011120"/>
    <nd ref="207561644"/>
    <nd ref="207561647"/>
    <nd ref="256349108"/>
    <nd ref="207561649"/>
    <nd ref="207561652"/>
    <tag k="highway" v="residential"/>
    <tag k="lanes" v="1.5"/>
    <tag k="name" v="Gocławska"/>
    <tag k="wikipedia" v="pl:Ulica Gocławska w Warszawie"/>
  </way>
  <way id="19848971" version="8" timestamp="2011-10-07T11:16:57Z" uid="373244" user="Tomekg" changeset="9492727"/>
  <way id="19848972" version="3" timestamp="2009-10-04T02:54:32Z" uid="20587" user="balrog-kun" changeset="2731046">
    <nd ref="207561656"/>
    <nd ref="207561657"/>
    <nd ref="207561659"/>
    <nd ref="519551924"/>
    <nd ref="209167495"/>
    <nd ref="207561660"/>
    <nd ref="519551926"/>
    <nd ref="207561661"/>
    <nd ref="111534815"/>
    <tag k="highway" v="tertiary"/>
    <tag k="name" v="Stanisławowska"/>
  </way>
  <way id="19848972" version="4" timestamp="2010-06-19T03:55:39Z" uid="20587" user="balrog-kun" changeset="5020735">
    <nd ref="207561656"/>
    <nd ref="207561657"/>
    <nd ref="775917667"/>
    <nd ref="207561659"/>
    <nd ref="519551924"/>
    <nd ref="209167495"/>
    <nd ref="207561660"/>
    <nd ref="519551926"/>
    <nd ref="775917377"/>
    <nd ref="207561661"/>
    <nd ref="775917748"/>
    <nd ref="775917801"/>
    <nd ref="111534815"/>
    <tag k="highway" v="tertiary"/>
    <tag k="name" v="Stanisławowska"/>
  </way>
  <way id="19848972" version="5" timestamp="2010-06-19T04:10:37Z" uid="20587" user="balrog-kun" changeset="5020735">
    <nd ref="207561656"/>
    <nd ref="207561657"/>
    <nd ref="775917667"/>
    <nd ref="207561659"/>
    <nd ref="519551924"/>
    <nd ref="209167495"/>
    <nd ref="207561660"/>
    <nd ref="519551926"/>
    <nd ref="775917377"/>
    <nd ref="207561661"/>
    <nd ref="775917748"/>
    <nd ref="775917801"/>
    <nd ref="775927464"/>
    <nd ref="111534815"/>
    <tag k="highway" v="tertiary"/>
    <tag k="name" v="Stanisławowska"/>
  </way>
  <way id="19848973" version="5" timestamp="2008-08-07T22:24:39Z" uid="20587" user="balrog-kun" changeset="141256">
    <nd ref="207561665"/>
    <nd ref="286065066"/>
    <nd ref="207561666"/>
    <nd ref="207561671"/>
    <nd ref="209148261"/>
    <nd ref="207561686"/>
    <nd ref="207561687"/>
    <nd ref="207561688"/>
    <nd ref="207561690"/>
    <nd ref="207561692"/>
    <nd ref="207561693"/>
    <nd ref="207561697"/>
    <nd ref="209094273"/>
    <nd ref="209094203"/>
    <nd ref="209094194"/>
    <nd ref="209094188"/>
    <nd ref="209094185"/>
    <nd ref="209094182"/>
    <tag k="created_by" v="JOSM"/>
    <tag k="highway" v="service"/>
  </way>
  <way id="19848973" version="6" timestamp="2008-08-10T12:29:54Z" uid="20587" user="balrog-kun" changeset="165773">
    <nd ref="207561665"/>
    <nd ref="286065066"/>
    <nd ref="207561666"/>
    <nd ref="207561671"/>
    <nd ref="209148261"/>
    <nd ref="207561686"/>
    <nd ref="207561687"/>
    <nd ref="207561688"/>
    <nd ref="207561690"/>
    <nd ref="207561692"/>
    <nd ref="207561693"/>
    <nd ref="286697597"/>
    <nd ref="209094273"/>
    <tag k="created_by" v="JOSM"/>
    <tag k="highway" v="service"/>
  </way>
  <way id="19848973" version="7" timestamp="2009-05-15T20:35:14Z" uid="20587" user="balrog-kun" changeset="1204290">
    <nd ref="207561665"/>
    <nd ref="286065066"/>
    <nd ref="207561666"/>
    <tag k="created_by" v="JOSM"/>
    <tag k="highway" v="service"/>
  </way>
  <way id="19848973" version="8" timestamp="2010-06-19T14:03:25Z" uid="20587" user="balrog-kun" changeset="5024239">
    <nd ref="207561665"/>
    <nd ref="776330264"/>
    <nd ref="286065066"/>
    <nd ref="207561666"/>
    <tag k="highway" v="service"/>
  </way>
  <way id="19848974" version="2" timestamp="2008-08-07T22:24:39Z" uid="20587" user="balrog-kun" changeset="141256">
    <nd ref="207561697"/>
    <nd ref="207561698"/>
    <nd ref="207561700"/>
    <nd ref="207561692"/>
    <nd ref="207561693"/>
    <nd ref="207561697"/>
    <tag k="amenity" v="parking"/>
    <tag k="created_by" v="JOSM"/>
  </way>
  <way id="19848974" version="3" timestamp="2008-08-10T12:29:53Z" uid="20587" user="balrog-kun" changeset="165773">
    <nd ref="207561697"/>
    <nd ref="207561698"/>
    <nd ref="207561700"/>
    <nd ref="207561692"/>
    <nd ref="207561693"/>
    <nd ref="286697597"/>
    <nd ref="207561697"/>
    <tag k="amenity" v="parking"/>
    <tag k="created_by" v="JOSM"/>
  </way>
  <way id="19848978" version="3" timestamp="2008-10-10T17:07:08Z" uid="65847" user="LKK" changeset="235948">
    <nd ref="207560660"/>
    <nd ref="207568425"/>
    <nd ref="207561775"/>
    <tag k="created_by" v="Potlatch 0.6a"/>
    <tag k="highway" v="residential"/>
    <tag k="name" v="Цар Петър"/>
    <tag k="oneway" v="yes"/>
  </way>
  <way id="19848978" version="4" timestamp="2008-10-11T09:45:01Z" uid="65847" user="LKK" changeset="247438">
    <nd ref="207560660"/>
    <nd ref="207568425"/>
    <nd ref="207561775"/>
    <tag k="created_by" v="Potlatch 0.6a"/>
    <tag k="highway" v="residential"/>
    <tag k="name" v="ул. Цар Петър"/>
    <tag k="oneway" v="yes"/>
  </way>
  <way id="19848978" version="5" timestamp="2008-10-11T19:18:28Z" uid="65847" user="LKK" changeset="265008">
    <nd ref="207560660"/>
    <nd ref="207568425"/>
    <nd ref="303812564"/>
    <nd ref="207561775"/>
    <tag k="created_by" v="Potlatch 0.6a"/>
    <tag k="highway" v="residential"/>
    <tag k="name" v="ул. Цар Петър"/>
    <tag k="oneway" v="yes"/>
  </way>
  <way id="19848983" version="3" timestamp="2008-10-16T17:47:29Z" uid="49111" user="Markus B" changeset="380014">
    <nd ref="207561822"/>
    <nd ref="207561823"/>
    <nd ref="207561825"/>
    <nd ref="207561826"/>
    <nd ref="207561827"/>
    <nd ref="207561828"/>
    <nd ref="207561829"/>
    <nd ref="207561832"/>
    <nd ref="207561834"/>
    <nd ref="207561835"/>
    <nd ref="207561836"/>
    <nd ref="207561838"/>
    <nd ref="207561839"/>
    <nd ref="207561840"/>
    <nd ref="207561842"/>
    <nd ref="207561844"/>
    <nd ref="207561846"/>
    <nd ref="207561847"/>
    <nd ref="207561848"/>
    <nd ref="207561849"/>
    <nd ref="207561852"/>
    <nd ref="207561853"/>
    <nd ref="207561854"/>
    <nd ref="207561822"/>
    <tag k="created_by" v="Potlatch 0.10e"/>
    <tag k="landuse" v="recreation_ground"/>
    <tag k="source" v="landsat"/>
  </way>
  <way id="19848983" version="4" timestamp="2009-03-09T21:25:23Z" uid="17099" user="matmai" changeset="771120">
    <nd ref="207561822"/>
    <nd ref="207561823"/>
    <nd ref="207561825"/>
    <nd ref="207561826"/>
    <nd ref="207561827"/>
    <nd ref="207561828"/>
    <nd ref="207561829"/>
    <nd ref="207561832"/>
    <nd ref="207561834"/>
    <nd ref="207561835"/>
    <nd ref="207561836"/>
    <nd ref="207561838"/>
    <nd ref="207561839"/>
    <nd ref="207561840"/>
    <nd ref="207561842"/>
    <nd ref="207561844"/>
    <nd ref="207561846"/>
    <nd ref="207561847"/>
    <nd ref="207561848"/>
    <nd ref="207561849"/>
    <nd ref="207561852"/>
    <nd ref="207561853"/>
    <nd ref="207561854"/>
    <nd ref="207561822"/>
    <tag k="created_by" v="Potlatch 0.10e"/>
    <tag k="landuse" v="recreation_ground"/>
    <tag k="layer" v="-5"/>
    <tag k="source" v="landsat"/>
  </way>
  <way id="19848983" version="5" timestamp="2009-09-22T19:33:13Z" uid="44457" user="cMorty" changeset="2575963">
    <nd ref="207561822"/>
    <nd ref="207561823"/>
    <nd ref="207561825"/>
    <nd ref="505811573"/>
    <nd ref="207561826"/>
    <nd ref="505811570"/>
    <nd ref="207561827"/>
    <nd ref="505811558"/>
    <nd ref="505811563"/>
    <nd ref="207561828"/>
    <nd ref="505811550"/>
    <nd ref="207561829"/>
    <nd ref="207561832"/>
    <nd ref="207561834"/>
    <nd ref="207561835"/>
    <nd ref="207561836"/>
    <nd ref="207561838"/>
    <nd ref="207561839"/>
    <nd ref="207561840"/>
    <nd ref="207561842"/>
    <nd ref="207561844"/>
    <nd ref="207561846"/>
    <nd ref="207561847"/>
    <nd ref="207561848"/>
    <nd ref="207561849"/>
    <nd ref="207561852"/>
    <nd ref="207561853"/>
    <nd ref="207561854"/>
    <nd ref="207561822"/>
    <tag k="landuse" v="meadow"/>
    <tag k="layer" v="-5"/>
    <tag k="name" v="Wiesengrund"/>
    <tag k="source" v="landsat"/>
  </way>
  <way id="19848983" version="6" timestamp="2009-11-23T17:45:00Z" uid="56597" user="Oberaffe" changeset="3197647">
    <nd ref="207561822"/>
    <nd ref="207561823"/>
    <nd ref="207561825"/>
    <nd ref="505811573"/>
    <nd ref="207561826"/>
    <nd ref="505811570"/>
    <nd ref="207561827"/>
    <nd ref="505811558"/>
    <nd ref="505811563"/>
    <nd ref="207561828"/>
    <nd ref="505811550"/>
    <nd ref="207561829"/>
    <nd ref="207561832"/>
    <nd ref="207561834"/>
    <nd ref="207561835"/>
    <nd ref="207561836"/>
    <nd ref="207561838"/>
    <nd ref="207561839"/>
    <nd ref="207561840"/>
    <nd ref="207561842"/>
    <nd ref="569501344"/>
    <nd ref="207561844"/>
    <nd ref="207561846"/>
    <nd ref="569501377"/>
    <nd ref="207561847"/>
    <nd ref="207561848"/>
    <nd ref="207561849"/>
    <nd ref="207561852"/>
    <nd ref="207561853"/>
    <nd ref="207561854"/>
    <nd ref="207561822"/>
    <tag k="landuse" v="meadow"/>
    <tag k="layer" v="-5"/>
    <tag k="name" v="Wiesengrund"/>
    <tag k="source" v="landsat"/>
  </way>
  <way id="19848983" version="7" timestamp="2010-01-08T11:38:09Z" uid="56597" user="Oberaffe" changeset="3569456">
    <nd ref="207561822"/>
    <nd ref="207561823"/>
    <nd ref="207561825"/>
    <nd ref="505811573"/>
    <nd ref="207561826"/>
    <nd ref="505811570"/>
    <nd ref="207561827"/>
    <nd ref="505811558"/>
    <nd ref="505811563"/>
    <nd ref="207561828"/>
    <nd ref="505811550"/>
    <nd ref="207561829"/>
    <nd ref="207561832"/>
    <nd ref="207561834"/>
    <nd ref="207561835"/>
    <nd ref="207561836"/>
    <nd ref="207561838"/>
    <nd ref="207561839"/>
    <nd ref="207561840"/>
    <nd ref="207561842"/>
    <nd ref="569501344"/>
    <nd ref="207561844"/>
    <nd ref="207561846"/>
    <nd ref="569501377"/>
    <nd ref="207561847"/>
    <nd ref="207561848"/>
    <nd ref="207561849"/>
    <nd ref="207561852"/>
    <nd ref="609061953"/>
    <nd ref="207561853"/>
    <nd ref="207561854"/>
    <nd ref="207561822"/>
    <tag k="landuse" v="meadow"/>
    <tag k="layer" v="-5"/>
    <tag k="name" v="Wiesengrund"/>
    <tag k="source" v="landsat"/>
  </way>
  <way id="19848068" version="5" timestamp="2012-07-17T12:14:01Z" uid="722137" user="OSMF Redaction Account" changeset="12264920">
    <nd ref="207540351"/>
    <nd ref="207540352"/>
    <nd ref="207540356"/>
    <nd ref="207540357"/>
    <nd ref="207540359"/>
    <nd ref="207540361"/>
    <nd ref="207540363"/>
    <nd ref="207540365"/>
    <nd ref="207540366"/>
    <nd ref="207540368"/>
    <nd ref="207540370"/>
    <nd ref="207540372"/>
    <nd ref="207540374"/>
    <nd ref="207540375"/>
    <nd ref="207540377"/>
    <nd ref="207540379"/>
    <nd ref="207540382"/>
    <nd ref="207540383"/>
    <nd ref="207540385"/>
    <nd ref="207540387"/>
    <nd ref="207540389"/>
    <nd ref="207540390"/>
    <nd ref="207540392"/>
    <nd ref="207540394"/>
    <nd ref="207540395"/>
    <nd ref="207540397"/>
    <nd ref="207540399"/>
    <nd ref="207540401"/>
    <nd ref="207540403"/>
    <nd ref="207543103"/>
    <tag k="highway" v="primary"/>
    <tag k="name" v="Karola Marcinkowskiego"/>
    <tag k="ref" v="11"/>
  </way>
  <way id="19848068" version="6" timestamp="2012-07-18T01:54:28Z" uid="740427" user="Redaction Account Bugfix" changeset="12274066">
    <nd ref="207540351"/>
    <nd ref="207540352"/>
    <nd ref="207540356"/>
    <nd ref="207540357"/>
    <nd ref="207540359"/>
    <nd ref="528524469"/>
    <nd ref="207540361"/>
    <nd ref="207540363"/>
    <nd ref="207540365"/>
    <nd ref="207540366"/>
    <nd ref="207540368"/>
    <nd ref="207540370"/>
    <nd ref="207540372"/>
    <nd ref="207540374"/>
    <nd ref="207540375"/>
    <nd ref="207540377"/>
    <nd ref="207540379"/>
    <nd ref="207540382"/>
    <nd ref="528524470"/>
    <nd ref="207540383"/>
    <nd ref="207540385"/>
    <nd ref="207540387"/>
    <nd ref="207540389"/>
    <nd ref="207540390"/>
    <nd ref="207540392"/>
    <nd ref="207540394"/>
    <nd ref="207540395"/>
    <nd ref="207540397"/>
    <nd ref="207540399"/>
    <nd ref="207540401"/>
    <nd ref="207540403"/>
    <nd ref="528524471"/>
    <nd ref="207543103"/>
    <tag k="highway" v="primary"/>
    <tag k="name" v="Karola Marcinkowskiego"/>
    <tag k="ref" v="11"/>
  </way>
  <way id="19848068" version="7" timestamp="2012-07-21T23:16:35Z" uid="467703" user="Zbigniew_Czernik" changeset="12421142">
    <nd ref="207540351"/>
    <nd ref="207540352"/>
    <nd ref="1833668560"/>
    <nd ref="207540356"/>
    <nd ref="207540357"/>
    <nd ref="207540359"/>
    <nd ref="528524469"/>
    <nd ref="207540361"/>
    <nd ref="207540363"/>
    <nd ref="207540365"/>
    <nd ref="207540366"/>
    <nd ref="207540368"/>
    <nd ref="207540370"/>
    <nd ref="207540372"/>
    <nd ref="207540374"/>
    <nd ref="207540375"/>
    <nd ref="207540377"/>
    <nd ref="207540379"/>
    <nd ref="207540382"/>
    <nd ref="528524470"/>
    <nd ref="207540383"/>
    <nd ref="207540385"/>
    <nd ref="207540387"/>
    <nd ref="207540389"/>
    <nd ref="207540390"/>
    <nd ref="207540392"/>
    <nd ref="207540394"/>
    <nd ref="207540395"/>
    <nd ref="207540397"/>
    <nd ref="207540399"/>
    <nd ref="207540401"/>
    <nd ref="207540403"/>
    <nd ref="528524471"/>
    <nd ref="207543103"/>
    <tag k="highway" v="primary"/>
    <tag k="name" v="Karola Marcinkowskiego"/>
    <tag k="ref" v="11"/>
  </way>
  <way id="19848068" version="8" timestamp="2012-07-21T23:33:50Z" uid="467703" user="Zbigniew_Czernik" changeset="12421142">
    <nd ref="207540351"/>
    <nd ref="207540352"/>
    <nd ref="1833668560"/>
    <nd ref="207540356"/>
    <nd ref="207540357"/>
    <nd ref="207540359"/>
    <nd ref="528524469"/>
    <nd ref="207540361"/>
    <nd ref="207540363"/>
    <nd ref="207540365"/>
    <nd ref="207540366"/>
    <nd ref="207540368"/>
    <nd ref="207540370"/>
    <nd ref="207540372"/>
    <nd ref="207540374"/>
    <nd ref="207540375"/>
    <nd ref="207540377"/>
    <nd ref="207540379"/>
    <nd ref="207540382"/>
    <nd ref="528524470"/>
    <nd ref="207540383"/>
    <nd ref="207540385"/>
    <nd ref="207540387"/>
    <nd ref="207540389"/>
    <nd ref="207540390"/>
    <nd ref="207540392"/>
    <nd ref="207540394"/>
    <nd ref="207540395"/>
    <nd ref="207540397"/>
    <nd ref="207540399"/>
    <nd ref="207540401"/>
    <nd ref="207540403"/>
    <nd ref="528524471"/>
    <nd ref="1833676197"/>
    <tag k="highway" v="primary"/>
    <tag k="name" v="Karola Marcinkowskiego"/>
    <tag k="ref" v="11"/>
  </way>
  <way id="19848444" version="8" timestamp="2012-07-20T19:01:23Z" uid="147230" user="SQ9NIT" changeset="12387841">
    <nd ref="207543103"/>
    <nd ref="528546706"/>
    <nd ref="207547598"/>
    <nd ref="207547599"/>
    <nd ref="1545954187"/>
    <nd ref="207564137"/>
    <nd ref="207564140"/>
    <nd ref="207564141"/>
    <nd ref="207564144"/>
    <nd ref="207564146"/>
    <nd ref="207564147"/>
    <nd ref="207564148"/>
    <nd ref="207564149"/>
    <nd ref="207564150"/>
    <nd ref="207564152"/>
    <nd ref="207564154"/>
    <nd ref="207564156"/>
    <nd ref="1546649569"/>
    <nd ref="207558588"/>
    <tag k="highway" v="primary"/>
    <tag k="ref" v="11;12"/>
  </way>
  <way id="19848444" version="9" timestamp="2012-07-21T23:33:57Z" uid="467703" user="Zbigniew_Czernik" changeset="12421142">
    <nd ref="207543103"/>
    <nd ref="528546706"/>
    <nd ref="1833676222"/>
    <tag k="highway" v="primary"/>
    <tag k="oneway" v="yes"/>
    <tag k="ref" v="11;12"/>
  </way>
  <way id="19848691" version="4" timestamp="2012-07-20T03:14:01Z" uid="722137" user="OSMF Redaction Account" changeset="12359156">
    <nd ref="207553214"/>
    <nd ref="148915939"/>
    <tag k="highway" v="residential"/>
  </way>
  <way id="19848800" version="12" timestamp="2012-07-20T03:13:57Z" uid="722137" user="OSMF Redaction Account" changeset="12359156">
    <nd ref="207558839"/>
    <nd ref="207562640"/>
    <nd ref="824545246"/>
    <nd ref="207561946"/>
    <tag k="highway" v="residential"/>
    <tag k="name" v="Скобелев (дясно локално)"/>
  </way>
  <way id="19848860" version="13" timestamp="2012-07-24T11:08:17Z" uid="722137" user="OSMF Redaction Account" changeset="12463975">
    <nd ref="28587059"/>
    <nd ref="240731433"/>
    <nd ref="28587099"/>
    <nd ref="130074839"/>
    <nd ref="28587119"/>
    <nd ref="28587153"/>
    <nd ref="1420772993"/>
    <tag k="hgv" v="no"/>
    <tag k="highway" v="secondary"/>
    <tag k="name" v="Tupolevova"/>
  </way>
  <way id="19848860" version="14" timestamp="2012-07-26T17:54:57Z" uid="527259" user="Vratislav Filler" changeset="12502060">
    <nd ref="28587059"/>
    <nd ref="240731433"/>
    <nd ref="28587099"/>
    <nd ref="130074839"/>
    <nd ref="28587119"/>
    <nd ref="28587153"/>
    <nd ref="1838986167"/>
    <nd ref="1420772993"/>
    <nd ref="1288191768"/>
    <nd ref="1826081850"/>
    <nd ref="1288191806"/>
    <nd ref="1838986155"/>
    <nd ref="1838986153"/>
    <tag k="hgv" v="no"/>
    <tag k="highway" v="secondary"/>
    <tag k="name" v="Tupolevova"/>
    <tag k="oneway" v="yes"/>
  </way>
  <way id="19848873" version="3" timestamp="2012-07-27T20:00:21Z" uid="626371" user="serekmedia" changeset="12515972">
    <nd ref="207560013"/>
    <nd ref="207560531"/>
    <nd ref="207560532"/>
    <nd ref="207560533"/>
    <nd ref="207560534"/>
    <nd ref="207560535"/>
    <nd ref="207560536"/>
    <nd ref="207560537"/>
    <nd ref="1840381745"/>
    <nd ref="207560538"/>
    <nd ref="207560539"/>
    <nd ref="207560540"/>
    <nd ref="207560541"/>
    <nd ref="207560542"/>
    <nd ref="207560543"/>
    <nd ref="207560544"/>
    <tag k="highway" v="primary"/>
    <tag k="ref" v="11, 12"/>
  </way>
  <way id="19848959" version="7" timestamp="2012-07-24T19:11:00Z" uid="722137" user="OSMF Redaction Account" changeset="12474218">
    <nd ref="322615526"/>
    <nd ref="1125497897"/>
    <nd ref="1181146589"/>
    <nd ref="1181146367"/>
    <nd ref="1181143699"/>
    <nd ref="1181144427"/>
    <nd ref="1181144487"/>
    <nd ref="1181146601"/>
    <nd ref="1181144453"/>
    <tag k="wikipedia" v="pl:Ulica Marywilska w Warszawie"/>
  </way>
  <way id="19848959" version="8" timestamp="2012-07-25T09:27:03Z" uid="99386" user="masti" changeset="12484059">
    <nd ref="322615526"/>
    <nd ref="1125497897"/>
    <nd ref="1181146589"/>
    <nd ref="1181146367"/>
    <nd ref="1181143699"/>
    <nd ref="1181144427"/>
    <nd ref="1181144487"/>
    <nd ref="1181146601"/>
    <nd ref="1181144453"/>
    <tag k="highway" v="tertiary"/>
    <tag k="wikipedia" v="pl:Ulica Marywilska w Warszawie"/>
  </way>
  <way id="19848959" version="9" timestamp="2012-07-26T07:57:49Z" uid="19002" user="ajank" changeset="12495645">
    <nd ref="322615526"/>
    <nd ref="1125497897"/>
    <nd ref="1181146589"/>
    <nd ref="1181146367"/>
    <nd ref="1181143699"/>
    <nd ref="1181144427"/>
    <nd ref="1181144487"/>
    <nd ref="1181146601"/>
    <nd ref="1181144453"/>
    <nd ref="1838467619"/>
    <tag k="highway" v="tertiary"/>
    <tag k="name" v="Marywilska"/>
    <tag k="wikipedia" v="pl:Ulica Marywilska w Warszawie"/>
  </way>
  <way id="19848959" version="10" timestamp="2012-07-27T17:32:39Z" uid="323284" user="Javnik" changeset="12514372">
    <nd ref="322615526"/>
    <nd ref="1125497897"/>
    <nd ref="1181146589"/>
    <nd ref="1181146367"/>
    <nd ref="1181143699"/>
    <nd ref="1181144427"/>
    <nd ref="1181144487"/>
    <nd ref="1840118133"/>
    <nd ref="1181146601"/>
    <nd ref="1181144453"/>
    <nd ref="1838467619"/>
    <tag k="highway" v="tertiary"/>
    <tag k="name" v="Marywilska"/>
    <tag k="wikipedia" v="pl:Ulica Marywilska w Warszawie"/>
  </way>
  <way id="19848960" version="16" timestamp="2012-04-20T15:16:48Z" uid="550476" user="fishcrosser" changeset="11365210">
    <nd ref="207561485"/>
    <nd ref="252339703"/>
    <nd ref="1325031569"/>
    <tag k="highway" v="secondary"/>
    <tag k="name" v="Piotra Wysockiego"/>
    <tag k="oneway" v="yes"/>
  </way>
  <way id="19848960" version="17" timestamp="2012-07-24T19:11:35Z" uid="722137" user="OSMF Redaction Account" changeset="12474218">
    <nd ref="252339703"/>
    <nd ref="1325031569"/>
    <tag k="highway" v="secondary"/>
    <tag k="name" v="Piotra Wysockiego"/>
  </way>
  <way id="19848960" version="18" timestamp="2012-07-26T07:57:49Z" uid="19002" user="ajank" changeset="12495645">
    <nd ref="207561485"/>
    <nd ref="252339703"/>
    <nd ref="1325031569"/>
    <tag k="highway" v="secondary"/>
    <tag k="name" v="Piotra Wysockiego"/>
    <tag k="oneway" v="yes"/>
  </way>
  <way id="19848961" version="10" timestamp="2012-07-16T16:41:04Z" uid="323284" user="Javnik" changeset="12247877">
    <nd ref="207561573"/>
    <nd ref="1827694015"/>
    <nd ref="207561624"/>
    <nd ref="207561626"/>
    <nd ref="1125497938"/>
    <nd ref="207561630"/>
    <nd ref="1181144834"/>
    <nd ref="206358281"/>
    <tag k="highway" v="tertiary"/>
    <tag k="name" v="Marywilska"/>
    <tag k="oneway" v="yes"/>
    <tag k="wikipedia" v="pl:Ulica Marywilska w Warszawie"/>
  </way>
  <way id="19848961" version="11" timestamp="2012-07-24T19:11:05Z" uid="722137" user="OSMF Redaction Account" changeset="12474218">
    <nd ref="1827694015"/>
    <nd ref="1125497938"/>
    <nd ref="1181144834"/>
    <tag k="name" v="Marywilska"/>
    <tag k="wikipedia" v="pl:Ulica Marywilska w Warszawie"/>
  </way>
  <way id="19848961" version="12" timestamp="2012-07-26T07:57:49Z" uid="19002" user="ajank" changeset="12495645">
    <nd ref="207561573"/>
    <nd ref="1827694015"/>
    <nd ref="1838467618"/>
    <nd ref="1125497938"/>
    <nd ref="1181144834"/>
    <nd ref="1838467619"/>
    <tag k="highway" v="tertiary"/>
    <tag k="name" v="Marywilska"/>
    <tag k="oneway" v="yes"/>
    <tag k="wikipedia" v="pl:Ulica Marywilska w Warszawie"/>
  </way>
  <way id="19848962" version="9" timestamp="2012-05-17T20:08:46Z" uid="165509" user="koszatek" changeset="11627219">
    <nd ref="206358281"/>
    <nd ref="1181143466"/>
    <nd ref="206358283"/>
    <nd ref="1125497931"/>
    <nd ref="206358287"/>
    <nd ref="206358290"/>
    <nd ref="1756558333"/>
    <nd ref="207561485"/>
    <tag k="highway" v="tertiary"/>
    <tag k="name" v="Marywilska"/>
    <tag k="oneway" v="yes"/>
    <tag k="wikipedia" v="pl:Ulica Marywilska w Warszawie"/>
  </way>
  <way id="19848962" version="10" timestamp="2012-07-16T16:41:05Z" uid="323284" user="Javnik" changeset="12247877">
    <nd ref="206358281"/>
    <nd ref="1181143466"/>
    <nd ref="206358283"/>
    <nd ref="1125497931"/>
    <nd ref="206358287"/>
    <nd ref="206358290"/>
    <nd ref="1756558333"/>
    <nd ref="1827694013"/>
    <nd ref="207561485"/>
    <tag k="highway" v="tertiary"/>
    <tag k="name" v="Marywilska"/>
    <tag k="oneway" v="yes"/>
    <tag k="wikipedia" v="pl:Ulica Marywilska w Warszawie"/>
  </way>
  <way id="19848962" version="11" timestamp="2012-07-24T19:11:05Z" uid="722137" user="OSMF Redaction Account" changeset="12474218">
    <nd ref="1181143466"/>
    <nd ref="1125497931"/>
    <nd ref="1756558333"/>
    <nd ref="1827694013"/>
    <tag k="wikipedia" v="pl:Ulica Marywilska w Warszawie"/>
  </way>
  <way id="19848962" version="12" timestamp="2012-07-26T07:57:49Z" uid="19002" user="ajank" changeset="12495645">
    <nd ref="1838467619"/>
    <nd ref="1181143466"/>
    <nd ref="1125497931"/>
    <nd ref="1838467617"/>
    <nd ref="1756558333"/>
    <nd ref="1827694013"/>
    <nd ref="207561485"/>
    <tag k="highway" v="tertiary"/>
    <tag k="name" v="Marywilska"/>
    <tag k="oneway" v="yes"/>
    <tag k="wikipedia" v="pl:Ulica Marywilska w Warszawie"/>
  </way>
  <way id="19848963" version="8" timestamp="2012-07-24T19:12:23Z" uid="722137" user="OSMF Redaction Account" changeset="12474256"/>
  <way id="19848964" version="15" timestamp="2012-06-11T09:03:36Z" uid="99386" user="masti" changeset="11862712">
    <nd ref="207561552"/>
    <nd ref="611443808"/>
    <nd ref="1075952623"/>
    <nd ref="254526082"/>
    <nd ref="254526086"/>
    <nd ref="611443813"/>
    <nd ref="611443828"/>
    <nd ref="270830856"/>
    <nd ref="207561555"/>
    <nd ref="254526134"/>
    <nd ref="254526127"/>
    <nd ref="1783326051"/>
    <nd ref="254526076"/>
    <nd ref="216205636"/>
    <nd ref="446001519"/>
    <tag k="highway" v="secondary"/>
    <tag k="name" v="Piotra Wysockiego"/>
    <tag k="oneway" v="yes"/>
  </way>
  <way id="19848964" version="16" timestamp="2012-06-11T09:26:10Z" uid="99386" user="masti" changeset="11862881">
    <nd ref="207561552"/>
    <nd ref="611443808"/>
    <nd ref="1075952623"/>
    <nd ref="254526082"/>
    <nd ref="254526086"/>
    <nd ref="611443813"/>
    <nd ref="611443828"/>
    <nd ref="270830856"/>
    <nd ref="207561555"/>
    <nd ref="254526134"/>
    <nd ref="254526127"/>
    <nd ref="1783359393"/>
    <nd ref="1783326051"/>
    <nd ref="254526076"/>
    <nd ref="216205636"/>
    <nd ref="446001519"/>
    <tag k="highway" v="secondary"/>
    <tag k="name" v="Piotra Wysockiego"/>
    <tag k="oneway" v="yes"/>
  </way>
  <way id="19848964" version="17" timestamp="2012-07-24T19:11:11Z" uid="722137" user="OSMF Redaction Account" changeset="12474218">
    <nd ref="611443808"/>
    <nd ref="1075952623"/>
    <nd ref="254526082"/>
    <nd ref="254526086"/>
    <nd ref="611443813"/>
    <nd ref="611443828"/>
    <nd ref="270830856"/>
    <nd ref="254526134"/>
    <nd ref="254526127"/>
    <nd ref="1783359393"/>
    <nd ref="1783326051"/>
    <nd ref="254526076"/>
    <nd ref="446001519"/>
    <tag k="highway" v="secondary"/>
    <tag k="name" v="Piotra Wysockiego"/>
  </way>
  <way id="19848965" version="9" timestamp="2012-05-29T23:17:58Z" uid="373244" user="Tomekg" changeset="11743632"/>
  <way id="19848966" version="12" timestamp="2012-05-21T17:47:28Z" uid="475943" user="sir-mapalot" changeset="11664321">
    <nd ref="253043871"/>
    <nd ref="519555840"/>
    <nd ref="1761217570"/>
    <nd ref="253043872"/>
    <nd ref="334556717"/>
    <nd ref="334556715"/>
    <nd ref="253043873"/>
    <nd ref="938505172"/>
    <nd ref="938504939"/>
    <nd ref="253043874"/>
    <tag k="highway" v="residential"/>
    <tag k="maxspeed" v="50"/>
    <tag k="name" v="Wileńska"/>
  </way>
  <way id="19848966" version="13" timestamp="2012-05-30T20:33:48Z" uid="373244" user="Tomekg" changeset="11752053">
    <nd ref="253043871"/>
    <nd ref="519555840"/>
    <nd ref="1761217570"/>
    <nd ref="253043872"/>
    <nd ref="1770771080"/>
    <nd ref="253043873"/>
    <nd ref="938505172"/>
    <nd ref="938504939"/>
    <nd ref="253043874"/>
    <tag k="highway" v="residential"/>
    <tag k="maxspeed" v="50"/>
    <tag k="name" v="Wileńska"/>
  </way>
  <way id="19848966" version="14" timestamp="2012-07-24T19:11:25Z" uid="722137" user="OSMF Redaction Account" changeset="12474218">
    <nd ref="253043871"/>
    <nd ref="519555840"/>
    <nd ref="1761217570"/>
    <nd ref="253043872"/>
    <nd ref="1770771080"/>
    <nd ref="253043873"/>
    <nd ref="938505172"/>
    <nd ref="938504939"/>
    <nd ref="253043874"/>
    <tag k="maxspeed" v="50"/>
  </way>
  <way id="19848966" version="15" timestamp="2012-07-29T12:32:18Z" uid="373244" user="Tomekg" changeset="12534433">
    <nd ref="253043871"/>
    <nd ref="519555840"/>
    <nd ref="1761217570"/>
    <nd ref="253043872"/>
    <nd ref="1770771080"/>
    <nd ref="253043873"/>
    <nd ref="938505172"/>
    <nd ref="938504939"/>
    <nd ref="253043874"/>
    <tag k="highway" v="residential"/>
    <tag k="maxspeed" v="50"/>
    <tag k="name" v="Wileńska"/>
  </way>
  <way id="19848969" version="13" timestamp="2012-04-04T19:18:30Z" uid="550476" user="fishcrosser" changeset="11180813">
    <nd ref="111534787"/>
    <nd ref="614473724"/>
    <nd ref="254518035"/>
    <nd ref="111534804"/>
    <tag k="highway" v="tertiary"/>
    <tag k="name" v="Podskarbińska"/>
    <tag k="wikipedia" v="pl:Ulica Podskarbińska w Warszawie"/>
  </way>
  <way id="19848969" version="14" timestamp="2012-07-24T19:48:24Z" uid="722137" user="OSMF Redaction Account" changeset="12474994">
    <nd ref="614473724"/>
    <nd ref="254518035"/>
    <tag k="wikipedia" v="pl:Ulica Podskarbińska w Warszawie"/>
  </way>
  <way id="19848972" version="6" timestamp="2012-07-24T18:58:57Z" uid="722137" user="OSMF Redaction Account" changeset="12473903">
    <nd ref="775917667"/>
    <nd ref="519551924"/>
    <nd ref="519551926"/>
    <nd ref="775917377"/>
    <nd ref="775917748"/>
    <nd ref="775917801"/>
    <nd ref="775927464"/>
  </way>
  <way id="19848972" version="7" timestamp="2012-07-25T20:09:20Z" uid="475943" user="sir-mapalot" changeset="12491418">
    <nd ref="775917667"/>
    <nd ref="207561659"/>
    <nd ref="519551924"/>
    <nd ref="209167495"/>
    <nd ref="519551926"/>
    <nd ref="775917377"/>
    <nd ref="775917748"/>
    <nd ref="775917801"/>
    <nd ref="775927464"/>
    <nd ref="111534815"/>
    <tag k="highway" v="tertiary"/>
    <tag k="name" v="Józefa Dwernickiego"/>
  </way>
  <way id="19848973" version="9" timestamp="2012-07-24T18:58:57Z" uid="722137" user="OSMF Redaction Account" changeset="12473903">
    <nd ref="776330264"/>
    <nd ref="286065066"/>
  </way>
  <way id="19848973" version="10" timestamp="2012-07-24T23:19:06Z" uid="475943" user="sir-mapalot" changeset="12478465">
    <nd ref="207561665"/>
    <nd ref="776330264"/>
    <nd ref="286065066"/>
    <nd ref="207561666"/>
    <tag k="highway" v="service"/>
  </way>
  <way id="19848974" version="4" timestamp="2012-07-24T18:58:59Z" uid="722137" user="OSMF Redaction Account" changeset="12473903">
    <nd ref="207561693"/>
    <nd ref="286697597"/>
    <nd ref="207561697"/>
  </way>
</osm>
