<?xml version='1.0' encoding='UTF-8'?>
<osm version="0.6" generator="libosmium/2.20.0">
  <way id="19934719" version="4" timestamp="2010-07-06T08:32:55Z" uid="74617" user="JohnSmith" changeset="5147679">
    <nd ref="166273349"/>
    <nd ref="209335252"/>
    <nd ref="209335254"/>
    <tag k="highway" v="residential"/>
    <tag k="maxspeed" v="50"/>
    <tag k="maxspeed:source" v="default residential speed limit in Australia"/>
    <tag k="name" v="Robbins Street"/>
  </way>
  <way id="19934719" version="5" timestamp="2012-01-15T20:43:21Z" uid="147510" user="woodpeck_fixbot" changeset="10402983">
    <nd ref="166273349"/>
    <nd ref="209335252"/>
    <nd ref="209335254"/>
    <tag k="highway" v="residential"/>
    <tag k="name" v="Robbins Street"/>
  </way>
  <way id="19934774" version="4" timestamp="2010-07-06T08:33:27Z" uid="74617" user="JohnSmith" changeset="5147679">
    <nd ref="209242917"/>
    <nd ref="209336137"/>
    <nd ref="209336138"/>
    <nd ref="209336140"/>
    <tag k="highway" v="residential"/>
    <tag k="maxspeed" v="50"/>
    <tag k="maxspeed:source" v="default residential speed limit in Australia"/>
    <tag k="name" v="Probyn Street"/>
  </way>
  <way id="19934774" version="5" timestamp="2012-01-15T20:43:22Z" uid="147510" user="woodpeck_fixbot" changeset="10402983">
    <nd ref="209242917"/>
    <nd ref="209336137"/>
    <nd ref="209336138"/>
    <nd ref="209336140"/>
    <tag k="highway" v="residential"/>
    <tag k="name" v="Probyn Street"/>
  </way>
  <way id="19934859" version="2" timestamp="2010-03-27T23:28:06Z" uid="20587" user="balrog-kun" changeset="4250871">
    <nd ref="209337659"/>
    <nd ref="122601730"/>
    <tag k="created_by" v="JOSM"/>
    <tag k="highway" v="residential"/>
    <tag k="name" v="Brynhurst Avenue"/>
    <tag k="tiger:cfcc" v="A41"/>
    <tag k="tiger:county" v="Los Angeles, CA"/>
    <tag k="tiger:name_base" v="Brynhurst"/>
    <tag k="tiger:name_type" v="Ave"/>
    <tag k="tiger:separated" v="no"/>
    <tag k="tiger:source" v="tiger_import_dch_v0.6_20070809"/>
    <tag k="tiger:tlid" v="141654959:141654960:141654966:141654971:141654974"/>
    <tag k="tiger:zip_left" v="90043"/>
    <tag k="tiger:zip_right" v="90043"/>
  </way>
  <way id="19934867" version="5" timestamp="2010-07-06T08:34:56Z" uid="74617" user="JohnSmith" changeset="5147679">
    <nd ref="209311555"/>
    <nd ref="209334230"/>
    <nd ref="209334229"/>
    <nd ref="166273351"/>
    <nd ref="209336985"/>
    <nd ref="209336987"/>
    <nd ref="209336989"/>
    <nd ref="209337978"/>
    <nd ref="209337977"/>
    <nd ref="166135218"/>
    <tag k="highway" v="residential"/>
    <tag k="maxspeed" v="50"/>
    <tag k="maxspeed:source" v="default residential speed limit in Australia"/>
    <tag k="name" v="Gray Avenue"/>
  </way>
  <way id="19934867" version="6" timestamp="2011-02-20T07:03:45Z" uid="4467" user="Rosscoe" changeset="7339089">
    <nd ref="209311555"/>
    <nd ref="209334230"/>
    <nd ref="209334229"/>
    <nd ref="166273351"/>
    <nd ref="209336985"/>
    <nd ref="209336987"/>
    <nd ref="209336989"/>
    <nd ref="209337978"/>
    <nd ref="166135218"/>
    <tag k="highway" v="residential"/>
    <tag k="maxspeed" v="50"/>
    <tag k="maxspeed:source" v="default residential speed limit in Australia"/>
    <tag k="name" v="Gray Avenue"/>
  </way>
  <way id="19934867" version="7" timestamp="2012-01-15T20:43:25Z" uid="147510" user="woodpeck_fixbot" changeset="10402983">
    <nd ref="209311555"/>
    <nd ref="209334230"/>
    <nd ref="209334229"/>
    <nd ref="166273351"/>
    <nd ref="209336985"/>
    <nd ref="209336987"/>
    <nd ref="209336989"/>
    <nd ref="209337978"/>
    <nd ref="166135218"/>
    <tag k="highway" v="residential"/>
    <tag k="name" v="Gray Avenue"/>
  </way>
  <way id="19934859" version="3" timestamp="2012-07-18T17:59:20Z" uid="722137" user="OSMF Redaction Account" changeset="12291343"/>
</osm>
