<?xml version='1.0' encoding='UTF-8'?>
<osm version="0.6" generator="libosmium/2.20.0">
  <way id="19933111" version="4" timestamp="2010-07-06T08:32:34Z" uid="74617" user="JohnSmith" changeset="5147679">
    <nd ref="158080926"/>
    <nd ref="209301626"/>
    <nd ref="209301627"/>
    <tag k="highway" v="residential"/>
    <tag k="maxspeed" v="50"/>
    <tag k="maxspeed:source" v="default residential speed limit in Australia"/>
    <tag k="name" v="Hassal Street"/>
  </way>
  <way id="19933111" version="5" timestamp="2012-01-15T20:43:08Z" uid="147510" user="woodpeck_fixbot" changeset="10402983">
    <nd ref="158080926"/>
    <nd ref="209301626"/>
    <nd ref="209301627"/>
    <tag k="highway" v="residential"/>
    <tag k="name" v="Hassal Street"/>
  </way>
  <way id="19933255" version="5" timestamp="2010-07-06T08:32:21Z" uid="74617" user="JohnSmith" changeset="5147679">
    <nd ref="166269719"/>
    <nd ref="209304983"/>
    <nd ref="209312260"/>
    <nd ref="158076164"/>
    <tag k="highway" v="residential"/>
    <tag k="maxspeed" v="50"/>
    <tag k="maxspeed:source" v="default residential speed limit in Australia"/>
    <tag k="name" v="Scott Street"/>
  </way>
  <way id="19933255" version="6" timestamp="2012-01-15T20:43:12Z" uid="147510" user="woodpeck_fixbot" changeset="10402983">
    <nd ref="166269719"/>
    <nd ref="209304983"/>
    <nd ref="209312260"/>
    <nd ref="158076164"/>
    <tag k="highway" v="residential"/>
    <tag k="name" v="Scott Street"/>
  </way>
  <way id="19933268" version="4" timestamp="2010-06-01T08:12:55Z" uid="4467" user="Rosscoe" changeset="4872534">
    <nd ref="166269722"/>
    <nd ref="209305287"/>
    <tag k="highway" v="residential"/>
    <tag k="name" v="Gosfield Street"/>
  </way>
  <way id="19933268" version="5" timestamp="2010-07-06T08:35:21Z" uid="74617" user="JohnSmith" changeset="5147679">
    <nd ref="166269722"/>
    <nd ref="209305287"/>
    <tag k="highway" v="residential"/>
    <tag k="maxspeed" v="50"/>
    <tag k="maxspeed:source" v="default residential speed limit in Australia"/>
    <tag k="name" v="Gosfield Street"/>
  </way>
  <way id="19933268" version="6" timestamp="2012-01-15T20:43:13Z" uid="147510" user="woodpeck_fixbot" changeset="10402983">
    <nd ref="166269722"/>
    <nd ref="209305287"/>
    <tag k="highway" v="residential"/>
    <tag k="name" v="Gosfield Street"/>
  </way>
  <way id="19933324" version="5" timestamp="2010-07-06T08:35:55Z" uid="74617" user="JohnSmith" changeset="5147679">
    <nd ref="166269374"/>
    <nd ref="209306744"/>
    <nd ref="209306746"/>
    <nd ref="209311349"/>
    <nd ref="166269706"/>
    <tag k="highway" v="residential"/>
    <tag k="maxspeed" v="50"/>
    <tag k="maxspeed:source" v="default residential speed limit in Australia"/>
    <tag k="name" v="Balderstone Street"/>
  </way>
  <way id="19933324" version="6" timestamp="2012-01-15T20:43:15Z" uid="147510" user="woodpeck_fixbot" changeset="10402983">
    <nd ref="166269374"/>
    <nd ref="209306744"/>
    <nd ref="209306746"/>
    <nd ref="209311349"/>
    <nd ref="166269706"/>
    <tag k="highway" v="residential"/>
    <tag k="name" v="Balderstone Street"/>
  </way>
  <way id="19933442" version="5" timestamp="2010-07-06T08:33:36Z" uid="74617" user="JohnSmith" changeset="5147679">
    <nd ref="209306744"/>
    <nd ref="166270772"/>
    <tag k="highway" v="residential"/>
    <tag k="maxspeed" v="50"/>
    <tag k="maxspeed:source" v="default residential speed limit in Australia"/>
    <tag k="name" v="Ruth Street"/>
  </way>
  <way id="19933442" version="6" timestamp="2012-01-15T20:43:18Z" uid="147510" user="woodpeck_fixbot" changeset="10402983">
    <nd ref="209306744"/>
    <nd ref="166270772"/>
    <tag k="highway" v="residential"/>
    <tag k="name" v="Ruth Street"/>
  </way>
  <way id="19933522" version="4" timestamp="2010-07-06T08:35:49Z" uid="74617" user="JohnSmith" changeset="5147679">
    <nd ref="209306746"/>
    <nd ref="166270771"/>
    <tag k="highway" v="residential"/>
    <tag k="maxspeed" v="50"/>
    <tag k="maxspeed:source" v="default residential speed limit in Australia"/>
    <tag k="name" v="Yarrie Street"/>
  </way>
  <way id="19933522" version="5" timestamp="2012-01-15T20:43:20Z" uid="147510" user="woodpeck_fixbot" changeset="10402983">
    <nd ref="209306746"/>
    <nd ref="166270771"/>
    <tag k="highway" v="residential"/>
    <tag k="name" v="Yarrie Street"/>
  </way>
</osm>
