<?xml version='1.0' encoding='UTF-8'?>
<osm version="0.6" generator="libosmium/2.20.0">
  <way id="19977023" version="2" timestamp="2009-01-25T15:34:17Z" uid="85955" user="Gerd Höweler" changeset="837424">
    <nd ref="210300129"/>
    <nd ref="336361508"/>
    <nd ref="210300133"/>
    <nd ref="210300137"/>
    <nd ref="210300139"/>
    <nd ref="210300141"/>
    <nd ref="210300143"/>
    <nd ref="210300145"/>
    <nd ref="210296817"/>
    <tag k="created_by" v="Potlatch 0.6a"/>
    <tag k="highway" v="residential"/>
    <tag k="name" v="Großes Holz"/>
  </way>
  <way id="19977023" version="3" timestamp="2009-10-24T14:38:24Z" uid="85955" user="Gerd Höweler" changeset="2938378">
    <nd ref="210300129"/>
    <nd ref="336361508"/>
    <nd ref="210300133"/>
    <tag k="highway" v="residential"/>
    <tag k="name" v="Großes Holz"/>
  </way>
  <way id="19977023" version="4" timestamp="2012-02-16T18:56:50Z" uid="479529" user="flodbl" changeset="10704563">
    <nd ref="210300129"/>
    <nd ref="336361508"/>
    <nd ref="210300133"/>
    <tag k="highway" v="residential"/>
    <tag k="name" v="Großes Holz"/>
  </way>
  <way id="19977490" version="6" timestamp="2009-06-21T16:59:55Z" uid="85955" user="Gerd Höweler" changeset="1585489">
    <nd ref="305026519"/>
    <nd ref="294209652"/>
    <nd ref="294209653"/>
    <nd ref="210309443"/>
    <nd ref="210305104"/>
    <tag k="created_by" v="Potlatch 0.10b"/>
    <tag k="highway" v="residential"/>
    <tag k="name" v="Meckauerstraße"/>
  </way>
  <way id="19977490" version="7" timestamp="2010-07-07T14:23:30Z" uid="111106" user="westfa" changeset="5158933">
    <nd ref="305026519"/>
    <nd ref="294209652"/>
    <nd ref="294209653"/>
    <nd ref="210309443"/>
    <nd ref="210305104"/>
    <tag k="highway" v="residential"/>
    <tag k="name" v="Meckauerstraße"/>
  </way>
  <way id="19977490" version="8" timestamp="2010-10-13T16:48:53Z" uid="87187" user="rottrunner" changeset="6030642">
    <nd ref="305026519"/>
    <nd ref="294209652"/>
    <nd ref="294209653"/>
    <nd ref="210309443"/>
    <nd ref="210305104"/>
    <tag k="highway" v="residential"/>
    <tag k="name" v="Meckauerstraße"/>
  </way>
  <way id="19977023" version="5" timestamp="2012-04-14T12:55:13Z" uid="12448" user="Hartmut Holzgraefe" changeset="11298268">
    <nd ref="210300129"/>
    <nd ref="336361508"/>
    <nd ref="210300133"/>
    <tag k="highway" v="residential"/>
    <tag k="name" v="Großes Holz"/>
    <tag k="odbl" v="clean"/>
    <tag k="odbl:reason" v="split of previously clean way"/>
  </way>
</osm>
