<?xml version='1.0' encoding='UTF-8'?>
<osm version="0.6" generator="libosmium/2.20.0">
  <way id="20116045" version="4" timestamp="2010-07-06T08:35:17Z" uid="74617" user="JohnSmith" changeset="5147679">
    <nd ref="212684500"/>
    <nd ref="212689283"/>
    <nd ref="212685143"/>
    <tag k="highway" v="residential"/>
    <tag k="maxspeed" v="50"/>
    <tag k="maxspeed:source" v="default residential speed limit in Australia"/>
    <tag k="name" v="Fawkner Street"/>
  </way>
  <way id="20116045" version="5" timestamp="2011-09-16T09:52:49Z" uid="22094" user="Chadzopkyo" changeset="9314600">
    <nd ref="212684500"/>
    <nd ref="1434119736"/>
    <nd ref="212689283"/>
    <nd ref="212685143"/>
    <tag k="highway" v="residential"/>
    <tag k="maxspeed" v="50"/>
    <tag k="maxspeed:source" v="default residential speed limit in Australia"/>
    <tag k="name" v="Fawkner Street"/>
  </way>
  <way id="20116045" version="6" timestamp="2012-01-15T20:58:04Z" uid="147510" user="woodpeck_fixbot" changeset="10402983">
    <nd ref="212684500"/>
    <nd ref="1434119736"/>
    <nd ref="212689283"/>
    <nd ref="212685143"/>
    <tag k="highway" v="residential"/>
    <tag k="name" v="Fawkner Street"/>
  </way>
  <way id="20116060" version="2" timestamp="2010-07-09T06:21:17Z" uid="74617" user="JohnSmith" changeset="5171128">
    <nd ref="212689442"/>
    <nd ref="212689444"/>
    <tag k="highway" v="residential"/>
    <tag k="maxspeed" v="50"/>
    <tag k="maxspeed:source" v="default residential speed limit in Australia"/>
    <tag k="name" v="Liam Street"/>
  </way>
  <way id="20116060" version="3" timestamp="2011-04-17T15:02:52Z" uid="4467" user="Rosscoe" changeset="7887587">
    <nd ref="212689442"/>
    <nd ref="212689444"/>
    <tag k="highway" v="residential"/>
    <tag k="maxspeed" v="50"/>
    <tag k="name" v="Liam Street"/>
    <tag k="source:maxspeed" v="default residential speed limit in Australia"/>
  </way>
  <way id="20116060" version="4" timestamp="2012-01-15T20:58:04Z" uid="147510" user="woodpeck_fixbot" changeset="10402983">
    <nd ref="212689442"/>
    <nd ref="212689444"/>
    <tag k="highway" v="residential"/>
    <tag k="name" v="Liam Street"/>
    <tag k="source:maxspeed" v="default residential speed limit in Australia"/>
  </way>
  <way id="20116063" version="4" timestamp="2010-07-06T08:31:31Z" uid="74617" user="JohnSmith" changeset="5147679">
    <nd ref="54624092"/>
    <nd ref="212689557"/>
    <nd ref="212689558"/>
    <nd ref="212689559"/>
    <tag k="highway" v="residential"/>
    <tag k="maxspeed" v="50"/>
    <tag k="maxspeed:source" v="default residential speed limit in Australia"/>
    <tag k="name" v="Winking Street"/>
  </way>
  <way id="20116063" version="5" timestamp="2011-09-16T09:52:54Z" uid="22094" user="Chadzopkyo" changeset="9314600">
    <nd ref="54624092"/>
    <nd ref="212689559"/>
    <tag k="highway" v="residential"/>
    <tag k="maxspeed" v="50"/>
    <tag k="maxspeed:source" v="default residential speed limit in Australia"/>
    <tag k="name" v="Winking Street"/>
  </way>
  <way id="20116063" version="6" timestamp="2012-01-15T20:58:05Z" uid="147510" user="woodpeck_fixbot" changeset="10402983">
    <nd ref="54624092"/>
    <nd ref="212689559"/>
    <tag k="highway" v="residential"/>
    <tag k="name" v="Winking Street"/>
  </way>
  <way id="20116101" version="3" timestamp="2010-07-09T06:22:27Z" uid="74617" user="JohnSmith" changeset="5171128">
    <nd ref="212688108"/>
    <nd ref="212690174"/>
    <nd ref="212690177"/>
    <nd ref="212690178"/>
    <nd ref="212690179"/>
    <nd ref="726347373"/>
    <nd ref="726347382"/>
    <nd ref="726347389"/>
    <tag k="highway" v="residential"/>
    <tag k="maxspeed" v="50"/>
    <tag k="maxspeed:source" v="default residential speed limit in Australia"/>
    <tag k="name" v="Coote Place"/>
  </way>
  <way id="20116101" version="4" timestamp="2012-01-15T20:58:06Z" uid="147510" user="woodpeck_fixbot" changeset="10402983">
    <nd ref="212688108"/>
    <nd ref="212690174"/>
    <nd ref="212690177"/>
    <nd ref="212690178"/>
    <nd ref="212690179"/>
    <nd ref="726347373"/>
    <nd ref="726347382"/>
    <nd ref="726347389"/>
    <tag k="highway" v="residential"/>
    <tag k="name" v="Coote Place"/>
  </way>
  <way id="20116295" version="5" timestamp="2010-07-06T08:36:09Z" uid="74617" user="JohnSmith" changeset="5147679">
    <nd ref="212745809"/>
    <nd ref="212745811"/>
    <nd ref="212745812"/>
    <nd ref="212745813"/>
    <nd ref="212745814"/>
    <nd ref="212689559"/>
    <nd ref="212693925"/>
    <nd ref="212693926"/>
    <nd ref="212693927"/>
    <nd ref="212693928"/>
    <nd ref="212693929"/>
    <nd ref="212693930"/>
    <nd ref="212693932"/>
    <nd ref="212693935"/>
    <tag k="highway" v="residential"/>
    <tag k="maxspeed" v="50"/>
    <tag k="maxspeed:source" v="default residential speed limit in Australia"/>
    <tag k="name" v="Lant Street"/>
  </way>
  <way id="20116295" version="6" timestamp="2012-01-15T20:58:19Z" uid="147510" user="woodpeck_fixbot" changeset="10402983">
    <nd ref="212745809"/>
    <nd ref="212745811"/>
    <nd ref="212745812"/>
    <nd ref="212745813"/>
    <nd ref="212745814"/>
    <nd ref="212689559"/>
    <nd ref="212693925"/>
    <nd ref="212693926"/>
    <nd ref="212693927"/>
    <nd ref="212693928"/>
    <nd ref="212693929"/>
    <nd ref="212693930"/>
    <nd ref="212693932"/>
    <nd ref="212693935"/>
    <tag k="highway" v="residential"/>
    <tag k="name" v="Lant Street"/>
  </way>
  <way id="20116376" version="4" timestamp="2009-07-27T12:45:47Z" uid="74617" user="JohnSmith" changeset="1955184">
    <nd ref="58770742"/>
    <nd ref="212696775"/>
    <nd ref="58770743"/>
    <tag k="bridge" v="yes"/>
    <tag k="highway" v="tertiary"/>
    <tag k="layer" v="1"/>
    <tag k="name" v="Jerrang Street"/>
  </way>
  <way id="20116376" version="5" timestamp="2010-03-16T06:08:05Z" uid="74617" user="JohnSmith" changeset="4140839">
    <nd ref="58770742"/>
    <nd ref="667236987"/>
    <nd ref="212696775"/>
    <nd ref="667236988"/>
    <nd ref="58770743"/>
    <tag k="bridge" v="yes"/>
    <tag k="highway" v="tertiary"/>
    <tag k="layer" v="1"/>
    <tag k="name" v="Jerrang Street"/>
  </way>
  <way id="20116642" version="3" timestamp="2010-07-09T06:16:10Z" uid="74617" user="JohnSmith" changeset="5171128">
    <nd ref="212680272"/>
    <nd ref="212699996"/>
    <nd ref="726347241"/>
    <nd ref="726347245"/>
    <nd ref="726347250"/>
    <nd ref="726347253"/>
    <tag k="highway" v="residential"/>
    <tag k="maxspeed" v="50"/>
    <tag k="maxspeed:source" v="default residential speed limit in Australia"/>
    <tag k="name" v="O&apos;Meehan Green"/>
  </way>
  <way id="20116642" version="4" timestamp="2012-01-15T20:58:21Z" uid="147510" user="woodpeck_fixbot" changeset="10402983">
    <nd ref="212680272"/>
    <nd ref="212699996"/>
    <nd ref="726347241"/>
    <nd ref="726347245"/>
    <nd ref="726347250"/>
    <nd ref="726347253"/>
    <tag k="highway" v="residential"/>
    <tag k="name" v="O&apos;Meehan Green"/>
  </way>
  <way id="20116771" version="3" timestamp="2010-07-09T06:24:30Z" uid="74617" user="JohnSmith" changeset="5171128">
    <nd ref="212700777"/>
    <nd ref="212702169"/>
    <nd ref="212702171"/>
    <nd ref="212702172"/>
    <nd ref="212702173"/>
    <nd ref="726350981"/>
    <tag k="highway" v="residential"/>
    <tag k="maxspeed" v="50"/>
    <tag k="maxspeed:source" v="default residential speed limit in Australia"/>
    <tag k="name" v="Mawson Place"/>
  </way>
  <way id="20116771" version="4" timestamp="2012-01-15T20:58:22Z" uid="147510" user="woodpeck_fixbot" changeset="10402983">
    <nd ref="212700777"/>
    <nd ref="212702169"/>
    <nd ref="212702171"/>
    <nd ref="212702172"/>
    <nd ref="212702173"/>
    <nd ref="726350981"/>
    <tag k="highway" v="residential"/>
    <tag k="name" v="Mawson Place"/>
  </way>
  <way id="20116060" version="5" timestamp="2012-07-19T09:52:39Z" uid="722137" user="OSMF Redaction Account" changeset="12316987">
    <nd ref="212689442"/>
    <nd ref="212689444"/>
    <tag k="highway" v="residential"/>
    <tag k="name" v="Liam Street"/>
  </way>
  <way id="20116376" version="6" timestamp="2012-07-19T20:41:14Z" uid="722137" user="OSMF Redaction Account" changeset="12346679">
    <nd ref="58770742"/>
    <nd ref="212696775"/>
    <nd ref="58770743"/>
    <tag k="bridge" v="yes"/>
    <tag k="highway" v="tertiary"/>
    <tag k="layer" v="1"/>
    <tag k="name" v="Jerrang Street"/>
  </way>
  <way id="20116642" version="5" timestamp="2012-07-25T09:24:08Z" uid="261730" user="Davoz" changeset="12484008">
    <nd ref="212680272"/>
    <nd ref="212699996"/>
    <nd ref="726347241"/>
    <nd ref="726347245"/>
    <nd ref="726347253"/>
    <tag k="highway" v="residential"/>
    <tag k="name" v="O&apos;Meehan Green"/>
  </way>
  <way id="20116771" version="5" timestamp="2012-07-25T11:24:50Z" uid="261730" user="Davoz" changeset="12485307">
    <nd ref="212700777"/>
    <nd ref="212702169"/>
    <nd ref="212702171"/>
    <nd ref="1837527703"/>
    <nd ref="212702172"/>
    <nd ref="212702173"/>
    <nd ref="726350981"/>
    <tag k="highway" v="residential"/>
    <tag k="name" v="Mawson Place"/>
  </way>
</osm>
