<?xml version='1.0' encoding='UTF-8'?>
<osm version="0.6" generator="libosmium/2.20.0">
  <way id="20113042" version="3" timestamp="2010-07-09T06:18:52Z" uid="74617" user="JohnSmith" changeset="5171128">
    <nd ref="212644016"/>
    <nd ref="212645317"/>
    <nd ref="212645319"/>
    <nd ref="212642076"/>
    <nd ref="212645322"/>
    <nd ref="726351188"/>
    <tag k="highway" v="residential"/>
    <tag k="maxspeed" v="50"/>
    <tag k="maxspeed:source" v="default residential speed limit in Australia"/>
    <tag k="name" v="Murray Drive"/>
  </way>
  <way id="20113042" version="4" timestamp="2011-01-16T04:40:30Z" uid="4467" user="Rosscoe" changeset="6984203">
    <nd ref="212644016"/>
    <nd ref="212645317"/>
    <nd ref="212645319"/>
    <nd ref="1105773264"/>
    <nd ref="212642076"/>
    <nd ref="212645322"/>
    <nd ref="726351188"/>
    <tag k="highway" v="residential"/>
    <tag k="maxspeed" v="50"/>
    <tag k="maxspeed:source" v="default residential speed limit in Australia"/>
    <tag k="name" v="Murray Drive"/>
  </way>
  <way id="20113042" version="5" timestamp="2012-01-15T20:56:35Z" uid="147510" user="woodpeck_fixbot" changeset="10402983">
    <nd ref="212644016"/>
    <nd ref="212645317"/>
    <nd ref="212645319"/>
    <nd ref="1105773264"/>
    <nd ref="212642076"/>
    <nd ref="212645322"/>
    <nd ref="726351188"/>
    <tag k="highway" v="residential"/>
    <tag k="name" v="Murray Drive"/>
  </way>
  <way id="20113101" version="3" timestamp="2010-07-09T06:24:29Z" uid="74617" user="JohnSmith" changeset="5171128">
    <nd ref="212645317"/>
    <nd ref="212646358"/>
    <nd ref="212646359"/>
    <nd ref="726348318"/>
    <tag k="highway" v="residential"/>
    <tag k="maxspeed" v="50"/>
    <tag k="maxspeed:source" v="default residential speed limit in Australia"/>
    <tag k="name" v="Lewis Place"/>
  </way>
  <way id="20113101" version="4" timestamp="2011-01-16T04:40:25Z" uid="4467" user="Rosscoe" changeset="6984203">
    <nd ref="212645317"/>
    <nd ref="1105773280"/>
    <nd ref="212646358"/>
    <nd ref="212646359"/>
    <nd ref="726348318"/>
    <tag k="highway" v="residential"/>
    <tag k="maxspeed" v="50"/>
    <tag k="maxspeed:source" v="default residential speed limit in Australia"/>
    <tag k="name" v="Lewis Place"/>
  </way>
  <way id="20113101" version="5" timestamp="2012-01-15T20:56:39Z" uid="147510" user="woodpeck_fixbot" changeset="10402983">
    <nd ref="212645317"/>
    <nd ref="1105773280"/>
    <nd ref="212646358"/>
    <nd ref="212646359"/>
    <nd ref="726348318"/>
    <tag k="highway" v="residential"/>
    <tag k="name" v="Lewis Place"/>
  </way>
  <way id="20113157" version="3" timestamp="2010-07-09T06:24:06Z" uid="74617" user="JohnSmith" changeset="5171128">
    <nd ref="212646358"/>
    <nd ref="212647274"/>
    <nd ref="212647275"/>
    <nd ref="212647277"/>
    <tag k="highway" v="residential"/>
    <tag k="maxspeed" v="50"/>
    <tag k="maxspeed:source" v="default residential speed limit in Australia"/>
    <tag k="name" v="Benjamin Street"/>
  </way>
  <way id="20113157" version="4" timestamp="2012-01-15T20:56:44Z" uid="147510" user="woodpeck_fixbot" changeset="10402983">
    <nd ref="212646358"/>
    <nd ref="212647274"/>
    <nd ref="212647275"/>
    <nd ref="212647277"/>
    <tag k="highway" v="residential"/>
    <tag k="name" v="Benjamin Street"/>
  </way>
  <way id="20113213" version="3" timestamp="2010-07-09T06:24:44Z" uid="74617" user="JohnSmith" changeset="5171128">
    <nd ref="212647274"/>
    <nd ref="212648125"/>
    <nd ref="212648126"/>
    <nd ref="726348428"/>
    <tag k="highway" v="residential"/>
    <tag k="maxspeed" v="50"/>
    <tag k="maxspeed:source" v="default residential speed limit in Australia"/>
    <tag k="name" v="Canning Street"/>
  </way>
  <way id="20113213" version="4" timestamp="2012-01-15T20:56:52Z" uid="147510" user="woodpeck_fixbot" changeset="10402983">
    <nd ref="212647274"/>
    <nd ref="212648125"/>
    <nd ref="212648126"/>
    <nd ref="726348428"/>
    <tag k="highway" v="residential"/>
    <tag k="name" v="Canning Street"/>
  </way>
  <way id="20113276" version="3" timestamp="2010-07-09T06:21:40Z" uid="74617" user="JohnSmith" changeset="5171128">
    <nd ref="212648125"/>
    <nd ref="212649071"/>
    <nd ref="726348186"/>
    <tag k="highway" v="residential"/>
    <tag k="maxspeed" v="50"/>
    <tag k="maxspeed:source" v="default residential speed limit in Australia"/>
    <tag k="name" v="Tasman Place"/>
  </way>
  <way id="20113276" version="4" timestamp="2012-01-15T20:56:55Z" uid="147510" user="woodpeck_fixbot" changeset="10402983">
    <nd ref="212648125"/>
    <nd ref="212649071"/>
    <nd ref="726348186"/>
    <tag k="highway" v="residential"/>
    <tag k="name" v="Tasman Place"/>
  </way>
  <way id="20113347" version="4" timestamp="2010-05-09T03:53:41Z" uid="4467" user="Rosscoe" changeset="4644620">
    <nd ref="726954073"/>
    <nd ref="726954075"/>
    <nd ref="212650029"/>
    <nd ref="212650030"/>
    <nd ref="212650031"/>
    <nd ref="212652672"/>
    <nd ref="212650035"/>
    <tag k="highway" v="residential"/>
    <tag k="name" v="Naturaliste Avenue"/>
  </way>
  <way id="20113347" version="5" timestamp="2010-07-09T06:17:16Z" uid="74617" user="JohnSmith" changeset="5171128">
    <nd ref="726954073"/>
    <nd ref="726954075"/>
    <nd ref="212650029"/>
    <nd ref="212650030"/>
    <nd ref="212650031"/>
    <nd ref="212652672"/>
    <nd ref="212650035"/>
    <tag k="highway" v="residential"/>
    <tag k="maxspeed" v="50"/>
    <tag k="maxspeed:source" v="default residential speed limit in Australia"/>
    <tag k="name" v="Naturaliste Avenue"/>
  </way>
  <way id="20113347" version="6" timestamp="2011-01-16T04:40:22Z" uid="4467" user="Rosscoe" changeset="6984203">
    <nd ref="726954073"/>
    <nd ref="726954075"/>
    <nd ref="1105773277"/>
    <nd ref="212650029"/>
    <nd ref="212650030"/>
    <nd ref="212650031"/>
    <nd ref="1105773260"/>
    <nd ref="1105773289"/>
    <tag k="highway" v="residential"/>
    <tag k="maxspeed" v="50"/>
    <tag k="maxspeed:source" v="default residential speed limit in Australia"/>
    <tag k="name" v="Naturaliste Avenue"/>
  </way>
  <way id="20113347" version="7" timestamp="2012-01-15T20:57:03Z" uid="147510" user="woodpeck_fixbot" changeset="10402983">
    <nd ref="726954073"/>
    <nd ref="726954075"/>
    <nd ref="1105773277"/>
    <nd ref="212650029"/>
    <nd ref="212650030"/>
    <nd ref="212650031"/>
    <nd ref="1105773260"/>
    <nd ref="1105773289"/>
    <tag k="highway" v="residential"/>
    <tag k="name" v="Naturaliste Avenue"/>
  </way>
  <way id="20113375" version="2" timestamp="2010-07-09T06:18:43Z" uid="74617" user="JohnSmith" changeset="5171128">
    <nd ref="212650030"/>
    <nd ref="212650544"/>
    <tag k="highway" v="residential"/>
    <tag k="maxspeed" v="50"/>
    <tag k="maxspeed:source" v="default residential speed limit in Australia"/>
    <tag k="name" v="Crimp Way"/>
  </way>
  <way id="20113375" version="3" timestamp="2012-01-15T20:57:10Z" uid="147510" user="woodpeck_fixbot" changeset="10402983">
    <nd ref="212650030"/>
    <nd ref="212650544"/>
    <tag k="highway" v="residential"/>
    <tag k="name" v="Crimp Way"/>
  </way>
  <way id="20113435" version="3" timestamp="2010-07-09T06:20:06Z" uid="74617" user="JohnSmith" changeset="5171128">
    <nd ref="212650544"/>
    <nd ref="212651598"/>
    <nd ref="726348544"/>
    <tag k="highway" v="residential"/>
    <tag k="maxspeed" v="50"/>
    <tag k="maxspeed:source" v="default residential speed limit in Australia"/>
    <tag k="name" v="Slee Place"/>
  </way>
  <way id="20113435" version="4" timestamp="2012-01-15T20:57:13Z" uid="147510" user="woodpeck_fixbot" changeset="10402983">
    <nd ref="212650544"/>
    <nd ref="212651598"/>
    <nd ref="726348544"/>
    <tag k="highway" v="residential"/>
    <tag k="name" v="Slee Place"/>
  </way>
  <way id="20113529" version="2" timestamp="2010-07-09T06:16:49Z" uid="74617" user="JohnSmith" changeset="5171128">
    <nd ref="212652672"/>
    <nd ref="212653200"/>
    <tag k="highway" v="residential"/>
    <tag k="maxspeed" v="50"/>
    <tag k="maxspeed:source" v="default residential speed limit in Australia"/>
    <tag k="name" v="Tobin Place"/>
  </way>
  <way id="20113529" version="3" timestamp="2011-01-16T04:40:23Z" uid="4467" user="Rosscoe" changeset="6984203">
    <nd ref="1105773273"/>
    <nd ref="212653200"/>
    <tag k="highway" v="residential"/>
    <tag k="maxspeed" v="50"/>
    <tag k="maxspeed:source" v="default residential speed limit in Australia"/>
    <tag k="name" v="Tobin Place"/>
  </way>
  <way id="20113529" version="4" timestamp="2012-01-15T20:57:18Z" uid="147510" user="woodpeck_fixbot" changeset="10402983">
    <nd ref="1105773273"/>
    <nd ref="212653200"/>
    <tag k="highway" v="residential"/>
    <tag k="name" v="Tobin Place"/>
  </way>
  <way id="20113639" version="2" timestamp="2010-07-09T06:18:53Z" uid="74617" user="JohnSmith" changeset="5171128">
    <nd ref="212652672"/>
    <nd ref="212655321"/>
    <tag k="highway" v="residential"/>
    <tag k="maxspeed" v="50"/>
    <tag k="maxspeed:source" v="default residential speed limit in Australia"/>
    <tag k="name" v="Keen Court"/>
  </way>
  <way id="20113639" version="3" timestamp="2011-01-16T04:40:21Z" uid="4467" user="Rosscoe" changeset="6984203">
    <nd ref="1105773286"/>
    <nd ref="212655321"/>
    <tag k="highway" v="residential"/>
    <tag k="maxspeed" v="50"/>
    <tag k="maxspeed:source" v="default residential speed limit in Australia"/>
    <tag k="name" v="Keen Court"/>
  </way>
  <way id="20113639" version="4" timestamp="2012-01-15T20:57:22Z" uid="147510" user="woodpeck_fixbot" changeset="10402983">
    <nd ref="1105773286"/>
    <nd ref="212655321"/>
    <tag k="highway" v="residential"/>
    <tag k="name" v="Keen Court"/>
  </way>
  <way id="20113676" version="3" timestamp="2010-07-09T06:20:50Z" uid="74617" user="JohnSmith" changeset="5171128">
    <nd ref="726347959"/>
    <nd ref="726347964"/>
    <nd ref="212656141"/>
    <nd ref="212656142"/>
    <nd ref="212650035"/>
    <tag k="highway" v="residential"/>
    <tag k="maxspeed" v="50"/>
    <tag k="maxspeed:source" v="default residential speed limit in Australia"/>
    <tag k="name" v="Lefroy Place"/>
  </way>
  <way id="20113676" version="4" timestamp="2012-01-15T20:57:28Z" uid="147510" user="woodpeck_fixbot" changeset="10402983">
    <nd ref="726347959"/>
    <nd ref="726347964"/>
    <nd ref="212656141"/>
    <nd ref="212656142"/>
    <nd ref="212650035"/>
    <tag k="highway" v="residential"/>
    <tag k="name" v="Lefroy Place"/>
  </way>
  <way id="20113687" version="2" timestamp="2010-07-09T06:23:43Z" uid="74617" user="JohnSmith" changeset="5171128">
    <nd ref="212650035"/>
    <nd ref="212656581"/>
    <tag k="highway" v="residential"/>
    <tag k="maxspeed" v="50"/>
    <tag k="maxspeed:source" v="default residential speed limit in Australia"/>
    <tag k="name" v="Sloan Court"/>
  </way>
  <way id="20113687" version="3" timestamp="2012-01-15T20:57:30Z" uid="147510" user="woodpeck_fixbot" changeset="10402983">
    <nd ref="212650035"/>
    <nd ref="212656581"/>
    <tag k="highway" v="residential"/>
    <tag k="name" v="Sloan Court"/>
  </way>
  <way id="20113720" version="3" timestamp="2010-06-01T02:56:10Z" uid="4467" user="Rosscoe" changeset="4871118">
    <nd ref="212656581"/>
    <nd ref="212653200"/>
    <nd ref="212650544"/>
    <tag k="highway" v="residential"/>
    <tag k="name" v="Slee Place"/>
  </way>
  <way id="20113720" version="4" timestamp="2010-07-09T06:16:30Z" uid="74617" user="JohnSmith" changeset="5171128">
    <nd ref="212656581"/>
    <nd ref="212653200"/>
    <nd ref="212650544"/>
    <tag k="highway" v="residential"/>
    <tag k="maxspeed" v="50"/>
    <tag k="maxspeed:source" v="default residential speed limit in Australia"/>
    <tag k="name" v="Slee Place"/>
  </way>
  <way id="20113720" version="5" timestamp="2011-01-16T04:40:32Z" uid="4467" user="Rosscoe" changeset="6984203">
    <nd ref="212656581"/>
    <nd ref="1105773276"/>
    <nd ref="1105773283"/>
    <nd ref="212653200"/>
    <nd ref="1105773292"/>
    <nd ref="1105773268"/>
    <nd ref="212650544"/>
    <tag k="highway" v="residential"/>
    <tag k="maxspeed" v="50"/>
    <tag k="maxspeed:source" v="default residential speed limit in Australia"/>
    <tag k="name" v="Slee Place"/>
  </way>
  <way id="20113720" version="6" timestamp="2012-01-15T20:57:34Z" uid="147510" user="woodpeck_fixbot" changeset="10402983">
    <nd ref="212656581"/>
    <nd ref="1105773276"/>
    <nd ref="1105773283"/>
    <nd ref="212653200"/>
    <nd ref="1105773292"/>
    <nd ref="1105773268"/>
    <nd ref="212650544"/>
    <tag k="highway" v="residential"/>
    <tag k="name" v="Slee Place"/>
  </way>
  <way id="20113750" version="3" timestamp="2010-07-09T06:20:13Z" uid="74617" user="JohnSmith" changeset="5171128">
    <nd ref="212650031"/>
    <nd ref="212657670"/>
    <nd ref="212657671"/>
    <nd ref="726347916"/>
    <nd ref="726347920"/>
    <tag k="highway" v="residential"/>
    <tag k="maxspeed" v="50"/>
    <tag k="maxspeed:source" v="default residential speed limit in Australia"/>
    <tag k="name" v="Costello Court"/>
  </way>
  <way id="20113750" version="4" timestamp="2012-01-15T20:57:37Z" uid="147510" user="woodpeck_fixbot" changeset="10402983">
    <nd ref="212650031"/>
    <nd ref="212657670"/>
    <nd ref="212657671"/>
    <nd ref="726347916"/>
    <nd ref="726347920"/>
    <tag k="highway" v="residential"/>
    <tag k="name" v="Costello Court"/>
  </way>
  <way id="20113777" version="4" timestamp="2010-07-09T06:21:42Z" uid="74617" user="JohnSmith" changeset="5171128">
    <nd ref="212650029"/>
    <nd ref="212658171"/>
    <nd ref="212658136"/>
    <tag k="highway" v="residential"/>
    <tag k="maxspeed" v="50"/>
    <tag k="maxspeed:source" v="default residential speed limit in Australia"/>
    <tag k="name" v="Collinsville Way"/>
  </way>
  <way id="20113777" version="5" timestamp="2012-01-15T20:57:41Z" uid="147510" user="woodpeck_fixbot" changeset="10402983">
    <nd ref="212650029"/>
    <nd ref="212658171"/>
    <nd ref="212658136"/>
    <tag k="highway" v="residential"/>
    <tag k="name" v="Collinsville Way"/>
  </way>
  <way id="20113822" version="3" timestamp="2010-07-09T06:23:44Z" uid="74617" user="JohnSmith" changeset="5171128">
    <nd ref="212658171"/>
    <nd ref="212659203"/>
    <nd ref="212659204"/>
    <nd ref="726347593"/>
    <nd ref="726347599"/>
    <nd ref="726347603"/>
    <tag k="highway" v="residential"/>
    <tag k="maxspeed" v="50"/>
    <tag k="maxspeed:source" v="default residential speed limit in Australia"/>
    <tag k="name" v="Dermer Place"/>
  </way>
  <way id="20113822" version="4" timestamp="2012-01-15T20:57:42Z" uid="147510" user="woodpeck_fixbot" changeset="10402983">
    <nd ref="212658171"/>
    <nd ref="212659203"/>
    <nd ref="212659204"/>
    <nd ref="726347593"/>
    <nd ref="726347599"/>
    <nd ref="726347603"/>
    <tag k="highway" v="residential"/>
    <tag k="name" v="Dermer Place"/>
  </way>
  <way id="20113042" version="6" timestamp="2012-07-19T09:54:11Z" uid="722137" user="OSMF Redaction Account" changeset="12317055">
    <nd ref="212644016"/>
    <nd ref="212645317"/>
    <nd ref="212645319"/>
    <nd ref="212642076"/>
    <nd ref="212645322"/>
    <nd ref="726351188"/>
    <tag k="highway" v="residential"/>
    <tag k="name" v="Murray Drive"/>
  </way>
  <way id="20113042" version="7" timestamp="2012-07-25T09:24:08Z" uid="261730" user="Davoz" changeset="12484008">
    <nd ref="212644016"/>
    <nd ref="212645317"/>
    <nd ref="212645319"/>
    <nd ref="1837409258"/>
    <nd ref="212645322"/>
    <nd ref="726351188"/>
    <tag k="highway" v="residential"/>
    <tag k="name" v="Murray Drive"/>
  </way>
  <way id="20113042" version="8" timestamp="2012-07-25T09:30:51Z" uid="261730" user="Davoz" changeset="12484008">
    <nd ref="212644016"/>
    <nd ref="212645317"/>
    <nd ref="212645319"/>
    <nd ref="1837413646"/>
    <nd ref="1837409258"/>
    <nd ref="212645322"/>
    <nd ref="726351188"/>
    <tag k="highway" v="residential"/>
    <tag k="name" v="Murray Drive"/>
  </way>
  <way id="20113101" version="6" timestamp="2012-07-19T09:54:10Z" uid="722137" user="OSMF Redaction Account" changeset="12317055">
    <nd ref="212645317"/>
    <nd ref="212646358"/>
    <nd ref="212646359"/>
    <nd ref="726348318"/>
    <tag k="highway" v="residential"/>
    <tag k="name" v="Lewis Place"/>
  </way>
  <way id="20113101" version="7" timestamp="2012-07-25T09:24:08Z" uid="261730" user="Davoz" changeset="12484008">
    <nd ref="212645317"/>
    <nd ref="212646358"/>
    <nd ref="212646359"/>
    <nd ref="726348318"/>
    <nd ref="1837409293"/>
    <tag k="highway" v="residential"/>
    <tag k="name" v="Lewis Place"/>
  </way>
  <way id="20113157" version="5" timestamp="2012-05-24T12:42:18Z" uid="261730" user="Davoz" changeset="11688769"/>
  <way id="20113347" version="8" timestamp="2012-05-24T12:42:16Z" uid="261730" user="Davoz" changeset="11688769">
    <nd ref="726954073"/>
    <nd ref="726954075"/>
    <nd ref="1105773277"/>
    <nd ref="212650029"/>
    <nd ref="212650030"/>
    <nd ref="212650031"/>
    <nd ref="1105773260"/>
    <nd ref="1105773289"/>
    <tag k="highway" v="residential"/>
    <tag k="name" v="Naturaliste Avenue"/>
  </way>
  <way id="20113347" version="9" timestamp="2012-07-19T09:40:58Z" uid="722137" user="OSMF Redaction Account" changeset="12316567">
    <nd ref="212650029"/>
    <nd ref="212650030"/>
    <nd ref="212650031"/>
    <tag k="highway" v="residential"/>
    <tag k="name" v="Naturaliste Avenue"/>
  </way>
  <way id="20113347" version="10" timestamp="2012-07-25T09:24:09Z" uid="261730" user="Davoz" changeset="12484008">
    <nd ref="212650029"/>
    <nd ref="212650030"/>
    <nd ref="212650031"/>
    <nd ref="1837409234"/>
    <nd ref="1837409207"/>
    <tag k="highway" v="residential"/>
    <tag k="name" v="Naturaliste Avenue"/>
  </way>
  <way id="20113347" version="11" timestamp="2012-07-25T11:04:56Z" uid="261730" user="Davoz" changeset="12485307">
    <nd ref="726954073"/>
    <nd ref="1837510522"/>
    <nd ref="1837510428"/>
    <nd ref="1837510440"/>
    <nd ref="1837510472"/>
    <nd ref="212650029"/>
    <nd ref="212650030"/>
    <nd ref="212650031"/>
    <nd ref="1837409234"/>
    <nd ref="1837409207"/>
    <tag k="highway" v="residential"/>
    <tag k="name" v="Naturaliste Avenue"/>
  </way>
  <way id="20113529" version="5" timestamp="2012-07-19T09:54:17Z" uid="722137" user="OSMF Redaction Account" changeset="12317055"/>
  <way id="20113639" version="5" timestamp="2012-07-19T09:54:17Z" uid="722137" user="OSMF Redaction Account" changeset="12317055"/>
  <way id="20113676" version="5" timestamp="2012-05-24T12:42:16Z" uid="261730" user="Davoz" changeset="11688769">
    <nd ref="1764202466"/>
    <nd ref="1764202474"/>
    <nd ref="1764202461"/>
    <nd ref="1764202470"/>
    <nd ref="1764202480"/>
    <nd ref="1764202459"/>
    <nd ref="726347964"/>
    <nd ref="212656141"/>
    <nd ref="212656142"/>
    <nd ref="212650035"/>
    <tag k="highway" v="residential"/>
    <tag k="name" v="Lefroy Place"/>
  </way>
  <way id="20113687" version="4" timestamp="2012-05-24T12:42:18Z" uid="261730" user="Davoz" changeset="11688769"/>
  <way id="20113720" version="7" timestamp="2012-07-19T09:54:11Z" uid="722137" user="OSMF Redaction Account" changeset="12317055">
    <nd ref="212656581"/>
    <nd ref="212653200"/>
    <nd ref="212650544"/>
    <tag k="highway" v="residential"/>
    <tag k="name" v="Slee Place"/>
  </way>
  <way id="20113720" version="8" timestamp="2012-07-25T09:24:09Z" uid="261730" user="Davoz" changeset="12484008">
    <nd ref="212656581"/>
    <nd ref="1837409211"/>
    <nd ref="212653200"/>
    <nd ref="1837409199"/>
    <nd ref="1837409197"/>
    <nd ref="212650544"/>
    <tag k="highway" v="residential"/>
    <tag k="name" v="Slee Place"/>
  </way>
  <way id="20113750" version="5" timestamp="2012-05-24T12:42:17Z" uid="261730" user="Davoz" changeset="11688769">
    <nd ref="212650031"/>
    <nd ref="212657670"/>
    <nd ref="212657671"/>
    <nd ref="726347916"/>
    <nd ref="726347920"/>
    <tag k="highway" v="residential"/>
    <tag k="name" v="Costello Court"/>
  </way>
  <way id="20113822" version="5" timestamp="2012-05-24T12:22:38Z" uid="261730" user="Davoz" changeset="11688769">
    <nd ref="212658171"/>
    <nd ref="212659203"/>
    <nd ref="212659204"/>
    <nd ref="726347593"/>
    <nd ref="726347599"/>
    <nd ref="1764183075"/>
    <nd ref="1764183072"/>
    <tag k="highway" v="residential"/>
    <tag k="name" v="Dermer Place"/>
  </way>
</osm>
