<?xml version='1.0' encoding='UTF-8'?>
<osm version="0.6" generator="libosmium/2.20.0">
  <way id="20126013" version="5" timestamp="2010-04-28T17:21:45Z" uid="74617" user="JohnSmith" changeset="4551298"/>
  <way id="20126017" version="4" timestamp="2009-12-31T13:42:35Z" uid="4467" user="Rosscoe" changeset="3500796">
    <nd ref="602133661"/>
    <nd ref="212799600"/>
    <tag k="highway" v="residential"/>
    <tag k="name" v="Lockwood Road"/>
  </way>
  <way id="20126017" version="5" timestamp="2010-02-13T22:39:31Z" uid="46482" user="Leon K" changeset="3869114">
    <nd ref="602133661"/>
    <nd ref="638762850"/>
    <nd ref="212799600"/>
    <tag k="highway" v="residential"/>
    <tag k="name" v="Lockwood Road"/>
  </way>
  <way id="20126017" version="6" timestamp="2010-02-13T22:40:06Z" uid="46482" user="Leon K" changeset="3869114">
    <nd ref="602133661"/>
    <nd ref="638762850"/>
    <nd ref="638763644"/>
    <nd ref="638763649"/>
    <nd ref="638763654"/>
    <nd ref="212799600"/>
    <tag k="highway" v="residential"/>
    <tag k="name" v="Lockwood Road"/>
  </way>
  <way id="20126017" version="7" timestamp="2010-02-14T06:06:33Z" uid="115684" user="jVviJ11dNx" changeset="3870596">
    <nd ref="602133661"/>
    <nd ref="638891502"/>
    <nd ref="638891500"/>
    <nd ref="638762850"/>
    <nd ref="638763644"/>
    <nd ref="638763649"/>
    <nd ref="638763654"/>
    <nd ref="638891496"/>
    <nd ref="212799600"/>
    <tag k="highway" v="residential"/>
    <tag k="name" v="Lockwood Road"/>
    <tag k="source" v="nearmap"/>
  </way>
  <way id="20126017" version="8" timestamp="2010-03-12T00:27:20Z" uid="11111" user="lakeyboy" changeset="4102543">
    <nd ref="602133661"/>
    <nd ref="638891502"/>
    <nd ref="638891500"/>
    <nd ref="638762850"/>
    <nd ref="638763644"/>
    <nd ref="638763649"/>
    <nd ref="638763654"/>
    <nd ref="638891496"/>
    <nd ref="212799600"/>
    <tag k="highway" v="tertiary"/>
    <tag k="name" v="Lockwood Road"/>
    <tag k="source" v="nearmap"/>
  </way>
  <way id="20126017" version="9" timestamp="2010-03-12T00:30:58Z" uid="11111" user="lakeyboy" changeset="4102543">
    <nd ref="664307217"/>
    <nd ref="638891502"/>
    <nd ref="638891500"/>
    <nd ref="638762850"/>
    <nd ref="638763644"/>
    <nd ref="638763649"/>
    <nd ref="638763654"/>
    <nd ref="638891496"/>
    <nd ref="212799600"/>
    <tag k="highway" v="tertiary"/>
    <tag k="name" v="Lockwood Road"/>
    <tag k="source" v="nearmap"/>
  </way>
  <way id="20126017" version="10" timestamp="2010-04-28T17:21:38Z" uid="74617" user="JohnSmith" changeset="4551298">
    <nd ref="664307217"/>
    <nd ref="638891502"/>
    <nd ref="638891500"/>
    <nd ref="638762850"/>
    <nd ref="638763644"/>
    <nd ref="638763649"/>
    <nd ref="638763654"/>
    <nd ref="638891496"/>
    <nd ref="212799600"/>
    <nd ref="530313488"/>
    <tag k="highway" v="tertiary"/>
    <tag k="name" v="Lockwood Road"/>
    <tag k="source" v="nearmap"/>
  </way>
  <way id="20126017" version="11" timestamp="2011-10-19T05:07:00Z" uid="11111" user="melb_guy" changeset="9596521">
    <nd ref="664307217"/>
    <nd ref="638891502"/>
    <nd ref="638891500"/>
    <nd ref="638762850"/>
    <nd ref="638763644"/>
    <nd ref="638763649"/>
    <nd ref="638763654"/>
    <nd ref="638891496"/>
    <nd ref="212799600"/>
    <nd ref="530313488"/>
    <tag k="highway" v="tertiary"/>
    <tag k="maxspeed" v="60"/>
    <tag k="name" v="Lockwood Road"/>
    <tag k="source" v="nearmap"/>
  </way>
  <way id="20126017" version="12" timestamp="2011-10-21T12:46:47Z" uid="11111" user="melb_guy" changeset="9616059">
    <nd ref="664307217"/>
    <nd ref="638891502"/>
    <nd ref="638891500"/>
    <nd ref="638762850"/>
    <nd ref="638763644"/>
    <nd ref="638763649"/>
    <nd ref="638763654"/>
    <nd ref="638891496"/>
    <nd ref="212799600"/>
    <nd ref="530313488"/>
    <tag k="highway" v="tertiary"/>
    <tag k="maxspeed" v="60"/>
    <tag k="name" v="Lockwood Road"/>
    <tag k="source" v="nearmap"/>
    <tag k="surface" v="asphalt"/>
  </way>
  <way id="20126033" version="2" timestamp="2010-07-09T06:23:58Z" uid="74617" user="JohnSmith" changeset="5171128">
    <nd ref="212799125"/>
    <nd ref="212799782"/>
    <nd ref="212799784"/>
    <nd ref="212799785"/>
    <tag k="highway" v="residential"/>
    <tag k="maxspeed" v="50"/>
    <tag k="maxspeed:source" v="default residential speed limit in Australia"/>
    <tag k="name" v="Clara Court"/>
  </way>
  <way id="20126033" version="3" timestamp="2012-01-15T20:59:36Z" uid="147510" user="woodpeck_fixbot" changeset="10402983">
    <nd ref="212799125"/>
    <nd ref="212799782"/>
    <nd ref="212799784"/>
    <nd ref="212799785"/>
    <tag k="highway" v="residential"/>
    <tag k="name" v="Clara Court"/>
  </way>
  <way id="20126148" version="2" timestamp="2010-07-09T06:19:30Z" uid="74617" user="JohnSmith" changeset="5171128">
    <nd ref="212799848"/>
    <nd ref="212801248"/>
    <nd ref="212801249"/>
    <nd ref="212801251"/>
    <nd ref="212801252"/>
    <nd ref="212801253"/>
    <tag k="highway" v="residential"/>
    <tag k="maxspeed" v="50"/>
    <tag k="maxspeed:source" v="default residential speed limit in Australia"/>
    <tag k="name" v="Stonesfield Court"/>
  </way>
  <way id="20126148" version="3" timestamp="2012-01-15T20:59:37Z" uid="147510" user="woodpeck_fixbot" changeset="10402983">
    <nd ref="212799848"/>
    <nd ref="212801248"/>
    <nd ref="212801249"/>
    <nd ref="212801251"/>
    <nd ref="212801252"/>
    <nd ref="212801253"/>
    <tag k="highway" v="residential"/>
    <tag k="name" v="Stonesfield Court"/>
  </way>
  <way id="20126204" version="2" timestamp="2010-07-09T06:20:11Z" uid="74617" user="JohnSmith" changeset="5171128">
    <nd ref="212801249"/>
    <nd ref="212801855"/>
    <nd ref="212801857"/>
    <tag k="highway" v="residential"/>
    <tag k="maxspeed" v="50"/>
    <tag k="maxspeed:source" v="default residential speed limit in Australia"/>
    <tag k="name" v="Maryanne Place"/>
  </way>
  <way id="20126204" version="3" timestamp="2011-05-15T14:25:48Z" uid="10340" user="Phillip Jubb" changeset="8152436">
    <nd ref="212801249"/>
    <nd ref="212801855"/>
    <nd ref="212801857"/>
    <tag k="highway" v="residential"/>
    <tag k="maxspeed" v="50"/>
    <tag k="maxspeed:source" v="default residential speed limit in Australia"/>
    <tag k="name" v="Maryanne Place"/>
    <tag k="oneway" v="no"/>
  </way>
  <way id="20126204" version="4" timestamp="2012-01-15T20:59:39Z" uid="147510" user="woodpeck_fixbot" changeset="10402983">
    <nd ref="212801249"/>
    <nd ref="212801855"/>
    <nd ref="212801857"/>
    <tag k="highway" v="residential"/>
    <tag k="name" v="Maryanne Place"/>
    <tag k="oneway" v="no"/>
  </way>
  <way id="20126790" version="1" timestamp="2008-01-09T12:07:57Z" uid="7617" user="Franc" changeset="585394">
    <nd ref="212808807"/>
    <nd ref="33889272"/>
    <tag k="created_by" v="JOSM"/>
    <tag k="highway" v="service"/>
    <tag k="source" v="yahoo_imagery"/>
  </way>
  <way id="20126790" version="2" timestamp="2010-06-09T10:29:24Z" uid="7617" user="Franc" changeset="4944099">
    <nd ref="212808807"/>
    <nd ref="33889272"/>
    <tag k="fixme:sign:no" v="2010-06-09"/>
    <tag k="highway" v="service"/>
    <tag k="source" v="nearmap"/>
  </way>
  <way id="20126790" version="3" timestamp="2010-11-15T07:37:51Z" uid="7617" user="Franc" changeset="6375308">
    <nd ref="212808807"/>
    <nd ref="33889272"/>
    <tag k="fixme:sign:no" v="2010-11-15"/>
    <tag k="highway" v="service"/>
    <tag k="source" v="nearmap"/>
  </way>
  <way id="20126796" version="1" timestamp="2008-01-09T12:07:58Z" uid="7617" user="Franc" changeset="585394">
    <nd ref="212808828"/>
    <nd ref="212808845"/>
    <tag k="created_by" v="JOSM"/>
    <tag k="highway" v="service"/>
    <tag k="source" v="yahoo_imagery"/>
  </way>
  <way id="20126796" version="2" timestamp="2010-06-09T10:29:23Z" uid="7617" user="Franc" changeset="4944099">
    <nd ref="212808828"/>
    <nd ref="212808845"/>
    <tag k="fixme:sign:no" v="2010-06-09"/>
    <tag k="highway" v="service"/>
    <tag k="source" v="nearmap"/>
  </way>
  <way id="20126796" version="3" timestamp="2010-11-15T07:37:49Z" uid="7617" user="Franc" changeset="6375308">
    <nd ref="212808828"/>
    <nd ref="212808845"/>
    <tag k="fixme:sign:no" v="2010-11-15"/>
    <tag k="highway" v="service"/>
    <tag k="source" v="nearmap"/>
  </way>
  <way id="20126938" version="2" timestamp="2010-07-09T06:19:57Z" uid="74617" user="JohnSmith" changeset="5171128">
    <nd ref="212801897"/>
    <nd ref="212810574"/>
    <tag k="highway" v="residential"/>
    <tag k="maxspeed" v="50"/>
    <tag k="maxspeed:source" v="default residential speed limit in Australia"/>
    <tag k="name" v="Travencore Place"/>
  </way>
  <way id="20126938" version="3" timestamp="2012-01-15T20:59:40Z" uid="147510" user="woodpeck_fixbot" changeset="10402983">
    <nd ref="212801897"/>
    <nd ref="212810574"/>
    <tag k="highway" v="residential"/>
    <tag k="name" v="Travencore Place"/>
  </way>
  <way id="20126017" version="13" timestamp="2012-07-19T09:00:43Z" uid="722137" user="OSMF Redaction Account" changeset="12315008">
    <nd ref="664307217"/>
    <nd ref="638762850"/>
    <nd ref="638763644"/>
    <nd ref="638763649"/>
    <nd ref="638763654"/>
    <nd ref="212799600"/>
    <tag k="highway" v="tertiary"/>
    <tag k="maxspeed" v="60"/>
    <tag k="name" v="Lockwood Road"/>
    <tag k="surface" v="asphalt"/>
  </way>
  <way id="20126033" version="4" timestamp="2012-09-08T10:59:12Z" uid="261730" user="Davoz" changeset="13032186">
    <nd ref="212799125"/>
    <nd ref="212799782"/>
    <nd ref="212799784"/>
    <nd ref="212799785"/>
    <nd ref="1905414464"/>
    <nd ref="1905414466"/>
    <nd ref="1905414469"/>
    <tag k="highway" v="residential"/>
    <tag k="name" v="Clara Court"/>
    <tag k="oneway" v="-1"/>
  </way>
  <way id="20126148" version="4" timestamp="2012-05-23T11:14:35Z" uid="261730" user="Davoz" changeset="11679717">
    <nd ref="212799848"/>
    <nd ref="212801248"/>
    <nd ref="212801249"/>
    <nd ref="212801251"/>
    <nd ref="212801252"/>
    <nd ref="212801253"/>
    <nd ref="1763014901"/>
    <nd ref="1763014867"/>
    <nd ref="1763014879"/>
    <tag k="highway" v="residential"/>
    <tag k="name" v="Stonesfield Court"/>
  </way>
  <way id="20126148" version="5" timestamp="2012-09-08T10:59:13Z" uid="261730" user="Davoz" changeset="13032186">
    <nd ref="212799848"/>
    <nd ref="212801248"/>
    <nd ref="212801249"/>
    <nd ref="212801251"/>
    <nd ref="212801252"/>
    <nd ref="212801253"/>
    <nd ref="1763014901"/>
    <nd ref="1763014867"/>
    <nd ref="1763014879"/>
    <tag k="highway" v="residential"/>
    <tag k="maxspeed" v="50"/>
    <tag k="name" v="Stonesfield Court"/>
    <tag k="oneway" v="no"/>
  </way>
  <way id="20126204" version="5" timestamp="2012-05-23T11:14:35Z" uid="261730" user="Davoz" changeset="11679717">
    <nd ref="212801249"/>
    <nd ref="212801855"/>
    <nd ref="212801857"/>
    <nd ref="1763014874"/>
    <nd ref="1763014899"/>
    <nd ref="1763014861"/>
    <nd ref="1763014872"/>
    <tag k="highway" v="residential"/>
    <tag k="name" v="Maryanne Place"/>
    <tag k="oneway" v="no"/>
  </way>
  <way id="20126204" version="6" timestamp="2012-08-11T14:49:01Z" uid="418724" user="wintersportler" changeset="12692107">
    <nd ref="212801249"/>
    <nd ref="212801855"/>
    <nd ref="212801857"/>
    <nd ref="1763014874"/>
    <nd ref="1763014899"/>
    <nd ref="1763014861"/>
    <nd ref="1763014872"/>
    <tag k="highway" v="residential"/>
    <tag k="name" v="Maryanne Place"/>
  </way>
  <way id="20126204" version="7" timestamp="2012-09-08T10:59:13Z" uid="261730" user="Davoz" changeset="13032186">
    <nd ref="212801249"/>
    <nd ref="212801855"/>
    <nd ref="212801857"/>
    <nd ref="1763014874"/>
    <nd ref="1763014899"/>
    <nd ref="1763014861"/>
    <nd ref="1763014872"/>
    <tag k="highway" v="residential"/>
    <tag k="name" v="Maryanne Place"/>
    <tag k="oneway" v="no"/>
  </way>
  <way id="20126790" version="4" timestamp="2012-07-20T02:52:38Z" uid="722137" user="OSMF Redaction Account" changeset="12358726"/>
  <way id="20126796" version="4" timestamp="2012-07-20T02:52:36Z" uid="722137" user="OSMF Redaction Account" changeset="12358726"/>
  <way id="20126938" version="4" timestamp="2012-05-23T11:14:35Z" uid="261730" user="Davoz" changeset="11679717">
    <nd ref="212801897"/>
    <nd ref="212810574"/>
    <tag k="highway" v="residential"/>
    <tag k="name" v="Travencore Place"/>
  </way>
  <way id="20126938" version="5" timestamp="2012-09-08T10:59:12Z" uid="261730" user="Davoz" changeset="13032186">
    <nd ref="212801897"/>
    <nd ref="212810574"/>
    <tag k="highway" v="residential"/>
    <tag k="name" v="Travencore Place"/>
    <tag k="oneway" v="no"/>
  </way>
</osm>
