<?xml version='1.0' encoding='UTF-8'?>
<osm version="0.6" generator="libosmium/2.20.0">
  <way id="20131637" version="4" timestamp="2009-02-01T18:48:54Z" uid="34428" user="usm78-gis" changeset="31975">
    <nd ref="60901658"/>
    <nd ref="80280349"/>
    <nd ref="60901660"/>
    <tag k="created_by" v="Potlatch 0.6a"/>
    <tag k="highway" v="secondary"/>
    <tag k="oneway" v="yes"/>
  </way>
  <way id="20131637" version="5" timestamp="2009-07-12T20:51:09Z" uid="136937" user="Kodimir" changeset="1811841">
    <nd ref="60901658"/>
    <nd ref="80280349"/>
    <nd ref="60901660"/>
    <tag k="cladr:name" v="Энгельса"/>
    <tag k="cladr:suffix" v="Проспект"/>
    <tag k="created_by" v="Potlatch 0.6a"/>
    <tag k="highway" v="secondary"/>
    <tag k="name" v="Энгельса пр."/>
    <tag k="oneway" v="yes"/>
  </way>
  <way id="20131637" version="6" timestamp="2009-07-13T16:57:33Z" uid="136937" user="Kodimir" changeset="1818925">
    <nd ref="60901658"/>
    <nd ref="80280349"/>
    <nd ref="60901660"/>
    <tag k="cladr:code" v="78000000000154800"/>
    <tag k="cladr:name" v="Энгельса"/>
    <tag k="cladr:suffix" v="Проспект"/>
    <tag k="created_by" v="Potlatch 0.6a"/>
    <tag k="highway" v="secondary"/>
    <tag k="name" v="Энгельса пр."/>
    <tag k="oneway" v="yes"/>
  </way>
  <way id="20131637" version="7" timestamp="2009-09-03T15:13:22Z" uid="69864" user="Ivan Komarov" changeset="2360722">
    <nd ref="60901658"/>
    <nd ref="80280349"/>
    <nd ref="60901660"/>
    <tag k="cladr:code" v="78000000000154800"/>
    <tag k="cladr:name" v="Энгельса"/>
    <tag k="cladr:suffix" v="Проспект"/>
    <tag k="highway" v="secondary"/>
    <tag k="name" v="Энгельса пр."/>
    <tag k="oneway" v="yes"/>
  </way>
  <way id="20131637" version="8" timestamp="2009-11-19T07:46:37Z" uid="24305" user="ZCC" changeset="3157420">
    <nd ref="60901658"/>
    <nd ref="80280349"/>
    <nd ref="60901660"/>
    <tag k="cladr:code" v="78000000000154800"/>
    <tag k="cladr:name" v="Энгельса"/>
    <tag k="cladr:suffix" v="Проспект"/>
    <tag k="highway" v="trunk"/>
    <tag k="name" v="Энгельса пр."/>
    <tag k="oneway" v="yes"/>
  </way>
  <way id="20131637" version="9" timestamp="2010-05-24T16:18:24Z" uid="24305" user="ZCC" changeset="4795250">
    <nd ref="60901658"/>
    <nd ref="80280349"/>
    <nd ref="60901660"/>
    <tag k="highway" v="trunk"/>
    <tag k="oneway" v="yes"/>
  </way>
  <way id="20131637" version="10" timestamp="2010-07-29T14:31:15Z" uid="136198" user="tmprec" changeset="5347248">
    <nd ref="60901658"/>
    <nd ref="80280349"/>
    <nd ref="60901660"/>
    <tag k="highway" v="secondary"/>
    <tag k="oneway" v="yes"/>
  </way>
  <way id="20131637" version="11" timestamp="2010-08-05T14:54:44Z" uid="24305" user="ZCC" changeset="5408905">
    <nd ref="60901658"/>
    <nd ref="80280349"/>
    <nd ref="60901660"/>
    <tag k="highway" v="primary"/>
    <tag k="oneway" v="yes"/>
  </way>
  <way id="20131637" version="12" timestamp="2010-09-24T14:40:09Z" uid="290271" user="Zverik" changeset="5863350">
    <nd ref="60901658"/>
    <nd ref="80280349"/>
    <nd ref="60901660"/>
    <tag k="highway" v="primary"/>
    <tag k="oneway" v="yes"/>
    <tag k="surface" v="asphalt"/>
  </way>
  <way id="20131637" version="13" timestamp="2010-11-25T20:58:51Z" uid="24305" user="ZCC" changeset="6457624">
    <nd ref="60901658"/>
    <nd ref="80280349"/>
    <nd ref="60901660"/>
    <tag k="highway" v="primary"/>
    <tag k="name" v="Сортавала"/>
    <tag k="oneway" v="yes"/>
    <tag k="ref" v="А-121"/>
    <tag k="surface" v="asphalt"/>
  </way>
  <way id="20131637" version="14" timestamp="2011-04-22T15:22:10Z" uid="392109" user="GaM" changeset="7935209">
    <nd ref="60901658"/>
    <nd ref="80280349"/>
    <nd ref="60901660"/>
    <tag k="highway" v="primary"/>
    <tag k="name" v="Сортавала"/>
    <tag k="oneway" v="yes"/>
    <tag k="ref" v="А121"/>
    <tag k="surface" v="asphalt"/>
  </way>
  <way id="20131637" version="15" timestamp="2011-09-05T11:27:40Z" uid="24305" user="ZCC" changeset="9216749">
    <nd ref="60901658"/>
    <nd ref="80280349"/>
    <nd ref="60901660"/>
    <tag k="highway" v="primary"/>
    <tag k="maxspeed" v="RU:rural"/>
    <tag k="name" v="Сортавала"/>
    <tag k="oneway" v="yes"/>
    <tag k="ref" v="А121"/>
    <tag k="source:maxspeed" v="implicit"/>
    <tag k="surface" v="asphalt"/>
  </way>
  <way id="20131637" version="16" timestamp="2011-09-23T15:37:58Z" uid="217346" user="Shatics" changeset="9377698">
    <nd ref="60901658"/>
    <nd ref="80280349"/>
    <nd ref="60901660"/>
    <tag k="highway" v="trunk"/>
    <tag k="maxspeed" v="RU:rural"/>
    <tag k="name" v="Сортавала"/>
    <tag k="oneway" v="yes"/>
    <tag k="ref" v="А121"/>
    <tag k="source:maxspeed" v="implicit"/>
    <tag k="surface" v="asphalt"/>
  </way>
  <way id="20131637" version="17" timestamp="2011-09-27T06:21:11Z" uid="24305" user="ZCC" changeset="9407811">
    <nd ref="60901658"/>
    <nd ref="80280349"/>
    <nd ref="60901660"/>
    <tag k="highway" v="primary"/>
    <tag k="maxspeed" v="RU:rural"/>
    <tag k="name" v="Сортавала"/>
    <tag k="oneway" v="yes"/>
    <tag k="ref" v="А121"/>
    <tag k="source:maxspeed" v="implicit"/>
    <tag k="surface" v="asphalt"/>
  </way>
  <way id="20131637" version="18" timestamp="2012-02-22T02:04:20Z" uid="39040" user="Dinamik" changeset="10755564">
    <nd ref="60901658"/>
    <nd ref="80280349"/>
    <nd ref="60901660"/>
    <tag k="highway" v="trunk"/>
    <tag k="maxspeed" v="RU:rural"/>
    <tag k="name" v="Сортавала"/>
    <tag k="oneway" v="yes"/>
    <tag k="ref" v="А121"/>
    <tag k="source:maxspeed" v="implicit"/>
    <tag k="surface" v="asphalt"/>
  </way>
  <way id="20131637" version="19" timestamp="2012-07-20T23:11:03Z" uid="722137" user="OSMF Redaction Account" changeset="12395724">
    <nd ref="60901658"/>
    <nd ref="80280349"/>
    <nd ref="60901660"/>
    <tag k="highway" v="trunk"/>
    <tag k="maxspeed" v="RU:rural"/>
    <tag k="name" v="Сортавала"/>
    <tag k="oneway" v="true"/>
    <tag k="ref" v="А121"/>
    <tag k="source:maxspeed" v="implicit"/>
    <tag k="surface" v="asphalt"/>
  </way>
</osm>
