<?xml version='1.0' encoding='UTF-8'?>
<osm version="0.6" generator="libosmium/2.20.0">
  <way id="20134007" version="4" timestamp="2009-02-12T00:45:46Z" uid="20587" user="balrog-kun" changeset="365293">
    <nd ref="212881065"/>
    <nd ref="344560776"/>
    <nd ref="212886303"/>
    <nd ref="212886306"/>
    <nd ref="212886310"/>
    <nd ref="212886314"/>
    <nd ref="212886319"/>
    <nd ref="212894137"/>
    <nd ref="212894127"/>
    <nd ref="212897072"/>
    <nd ref="212894143"/>
    <tag k="created_by" v="JOSM"/>
    <tag k="highway" v="residential"/>
    <tag k="name" v="Długa"/>
  </way>
  <way id="20134007" version="5" timestamp="2009-05-14T13:07:01Z" uid="20587" user="balrog-kun" changeset="1187910">
    <nd ref="212881065"/>
    <nd ref="344560776"/>
    <nd ref="212886303"/>
    <nd ref="212886306"/>
    <nd ref="212886310"/>
    <nd ref="212886314"/>
    <nd ref="212886319"/>
    <nd ref="398906981"/>
    <nd ref="212894137"/>
    <nd ref="398906983"/>
    <nd ref="212894127"/>
    <nd ref="212897072"/>
    <nd ref="212894143"/>
    <tag k="created_by" v="JOSM"/>
    <tag k="highway" v="residential"/>
    <tag k="name" v="Długa"/>
  </way>
  <way id="20134007" version="6" timestamp="2010-08-22T12:38:02Z" uid="20587" user="balrog-kun" changeset="5560667">
    <nd ref="212881065"/>
    <nd ref="344560776"/>
    <nd ref="212886303"/>
    <nd ref="212886306"/>
    <nd ref="212886310"/>
    <nd ref="212886314"/>
    <nd ref="212886319"/>
    <nd ref="398906981"/>
    <nd ref="212894137"/>
    <nd ref="398906983"/>
    <nd ref="212894127"/>
    <nd ref="212897072"/>
    <nd ref="212894143"/>
    <tag k="highway" v="residential"/>
    <tag k="maxspeed" v="50"/>
    <tag k="maxweight" v="2.5"/>
    <tag k="name" v="Długa"/>
  </way>
  <way id="20134007" version="7" timestamp="2010-11-19T00:44:04Z" uid="20587" user="balrog-kun" changeset="6404193">
    <nd ref="212881065"/>
    <nd ref="344560776"/>
    <nd ref="212886303"/>
    <nd ref="212886306"/>
    <nd ref="212886310"/>
    <nd ref="212886314"/>
    <nd ref="212886319"/>
    <nd ref="398906981"/>
    <nd ref="212894137"/>
    <nd ref="398906983"/>
    <nd ref="212894127"/>
    <nd ref="212897072"/>
    <nd ref="212894143"/>
    <tag k="highway" v="residential"/>
    <tag k="maxspeed" v="50"/>
    <tag k="maxweight" v="2.5"/>
    <tag k="name" v="Długa"/>
    <tag k="wikipedia" v="pl:Ulica Długa w Warszawie"/>
  </way>
  <way id="20134007" version="8" timestamp="2011-01-24T13:48:35Z" uid="20587" user="balrog-kun" changeset="7073235">
    <nd ref="212881065"/>
    <nd ref="344560776"/>
    <nd ref="212886303"/>
    <nd ref="212886306"/>
    <nd ref="212886310"/>
    <nd ref="212886314"/>
    <nd ref="212886319"/>
    <nd ref="398906981"/>
    <nd ref="212894137"/>
    <nd ref="398906983"/>
    <nd ref="212894127"/>
    <nd ref="1118690619"/>
    <nd ref="212897072"/>
    <nd ref="212894143"/>
    <tag k="highway" v="residential"/>
    <tag k="maxspeed" v="50"/>
    <tag k="maxweight" v="2.5"/>
    <tag k="name" v="Długa"/>
    <tag k="wikipedia" v="pl:Ulica Długa w Warszawie"/>
  </way>
  <way id="20134007" version="9" timestamp="2011-08-03T18:46:45Z" uid="98542" user="wajak" changeset="8913009">
    <nd ref="212881065"/>
    <nd ref="344560776"/>
    <nd ref="212886303"/>
    <nd ref="212886306"/>
    <nd ref="212886310"/>
    <nd ref="212886314"/>
    <nd ref="212886319"/>
    <nd ref="398906981"/>
    <nd ref="212894137"/>
    <nd ref="398906983"/>
    <nd ref="212894127"/>
    <nd ref="1118690619"/>
    <nd ref="212897072"/>
    <nd ref="212894143"/>
    <tag k="highway" v="residential"/>
    <tag k="maxspeed" v="50"/>
    <tag k="maxweight" v="2.5"/>
    <tag k="name" v="Długa"/>
    <tag k="surface" v="cobblestone"/>
    <tag k="wikipedia" v="pl:Ulica Długa w Warszawie"/>
  </way>
  <way id="20134007" version="10" timestamp="2011-10-04T01:48:15Z" uid="373244" user="Tomekg" changeset="9465805">
    <nd ref="212881065"/>
    <nd ref="344560776"/>
    <nd ref="212886303"/>
    <nd ref="212886306"/>
    <nd ref="212886310"/>
    <nd ref="212886314"/>
    <nd ref="212886319"/>
    <nd ref="398906981"/>
    <nd ref="212894137"/>
    <nd ref="398906983"/>
    <nd ref="212894127"/>
    <nd ref="1118690619"/>
    <nd ref="212897072"/>
    <nd ref="1454537268"/>
    <nd ref="212894143"/>
    <tag k="highway" v="residential"/>
    <tag k="maxspeed" v="50"/>
    <tag k="maxweight" v="2.5"/>
    <tag k="name" v="Długa"/>
    <tag k="surface" v="cobblestone"/>
    <tag k="wikipedia" v="pl:Ulica Długa w Warszawie"/>
  </way>
  <way id="20134007" version="11" timestamp="2012-01-31T13:18:46Z" uid="550476" user="fishcrosser" changeset="10549202">
    <nd ref="212881065"/>
    <nd ref="344560776"/>
    <nd ref="212886303"/>
    <nd ref="212886306"/>
    <nd ref="212886310"/>
    <nd ref="212886314"/>
    <nd ref="212886319"/>
    <tag k="highway" v="residential"/>
    <tag k="maxspeed" v="50"/>
    <tag k="maxweight" v="2.5"/>
    <tag k="name" v="Długa"/>
    <tag k="surface" v="cobblestone"/>
    <tag k="wikipedia" v="pl:Ulica Długa w Warszawie"/>
  </way>
  <way id="20134827" version="3" timestamp="2008-06-17T02:42:58Z" uid="20587" user="balrog-kun" changeset="199295">
    <nd ref="212894117"/>
    <nd ref="212894119"/>
    <nd ref="212894122"/>
    <nd ref="212894127"/>
    <nd ref="270855238"/>
    <nd ref="270855239"/>
    <tag k="created_by" v="JOSM"/>
    <tag k="highway" v="residential"/>
    <tag k="name" v="Bielańska"/>
  </way>
  <way id="20134827" version="4" timestamp="2010-11-19T00:44:52Z" uid="20587" user="balrog-kun" changeset="6404193">
    <nd ref="212894117"/>
    <nd ref="212894119"/>
    <nd ref="212894122"/>
    <nd ref="212894127"/>
    <nd ref="270855238"/>
    <nd ref="270855239"/>
    <tag k="highway" v="residential"/>
    <tag k="name" v="Bielańska"/>
    <tag k="wikipedia" v="pl:Ulica Bielańska w Warszawie"/>
  </way>
  <way id="20134827" version="5" timestamp="2011-01-24T13:48:19Z" uid="20587" user="balrog-kun" changeset="7073235">
    <nd ref="212894117"/>
    <nd ref="1118690550"/>
    <nd ref="212894119"/>
    <nd ref="212894122"/>
    <nd ref="212894127"/>
    <nd ref="1118690526"/>
    <nd ref="270855238"/>
    <nd ref="270855239"/>
    <tag k="highway" v="residential"/>
    <tag k="name" v="Bielańska"/>
    <tag k="wikipedia" v="pl:Ulica Bielańska w Warszawie"/>
  </way>
  <way id="20134827" version="6" timestamp="2011-06-06T19:43:28Z" uid="98542" user="wajak" changeset="8363817">
    <nd ref="212894117"/>
    <nd ref="1118690550"/>
    <nd ref="212894119"/>
    <nd ref="212894122"/>
    <nd ref="212894127"/>
    <tag k="highway" v="residential"/>
    <tag k="name" v="Bielańska"/>
    <tag k="wikipedia" v="pl:Ulica Bielańska w Warszawie"/>
  </way>
  <way id="20134827" version="7" timestamp="2011-10-03T19:17:21Z" uid="373244" user="Tomekg" changeset="9463377">
    <nd ref="212894117"/>
    <nd ref="1118690550"/>
    <nd ref="212894127"/>
    <tag k="highway" v="residential"/>
    <tag k="name" v="Bielańska"/>
    <tag k="wikipedia" v="pl:Ulica Bielańska w Warszawie"/>
  </way>
</osm>
