<?xml version='1.0' encoding='UTF-8'?>
<osm version="0.6" generator="libosmium/2.20.0">
  <way id="20183166" version="21" timestamp="2009-09-30T15:32:43Z" uid="36809" user="pfoten_weg_!_" changeset="2689684">
    <nd ref="213419384"/>
    <nd ref="223571160"/>
    <nd ref="263223112"/>
    <nd ref="263223051"/>
    <nd ref="223571175"/>
    <nd ref="279102786"/>
    <nd ref="223571184"/>
    <nd ref="279102787"/>
    <nd ref="223571193"/>
    <nd ref="213419527"/>
    <tag k="highway" v="residential"/>
    <tag k="name" v="Karl-Zanger-Straße"/>
  </way>
  <way id="20183166" version="22" timestamp="2011-06-14T22:15:47Z" uid="439111" user="Hafelekar" changeset="8442738">
    <nd ref="213419384"/>
    <nd ref="223571160"/>
    <nd ref="1325792057"/>
    <nd ref="263223112"/>
    <nd ref="263223051"/>
    <nd ref="223571175"/>
    <nd ref="279102786"/>
    <nd ref="223571184"/>
    <nd ref="279102787"/>
    <nd ref="223571193"/>
    <nd ref="213419527"/>
    <tag k="highway" v="residential"/>
    <tag k="name" v="Karl-Zanger-Straße"/>
  </way>
  <way id="20183166" version="23" timestamp="2011-10-10T22:55:41Z" uid="439111" user="Hafelekar" changeset="9526943">
    <nd ref="213419384"/>
    <nd ref="223571160"/>
    <nd ref="1461930326"/>
    <nd ref="1325792057"/>
    <nd ref="263223112"/>
    <nd ref="263223051"/>
    <nd ref="223571175"/>
    <nd ref="1461930303"/>
    <nd ref="279102786"/>
    <nd ref="223571184"/>
    <nd ref="279102787"/>
    <nd ref="223571193"/>
    <nd ref="213419527"/>
    <tag k="highway" v="residential"/>
    <tag k="name" v="Karl-Zanger-Straße"/>
  </way>
  <way id="20183166" version="24" timestamp="2012-01-30T11:06:08Z" uid="45481" user="borisC" changeset="10538708"/>
  <way id="20183290" version="2" timestamp="2010-07-07T21:33:40Z" uid="74617" user="JohnSmith" changeset="5161069">
    <nd ref="213424745"/>
    <nd ref="213425074"/>
    <tag k="highway" v="residential"/>
    <tag k="maxspeed" v="50"/>
    <tag k="maxspeed:source" v="default residential speed limit in Australia"/>
    <tag k="name" v="Matthew Street"/>
  </way>
  <way id="20183290" version="3" timestamp="2012-01-15T21:02:25Z" uid="147510" user="woodpeck_fixbot" changeset="10402983">
    <nd ref="213424745"/>
    <nd ref="213425074"/>
    <tag k="highway" v="residential"/>
    <tag k="name" v="Matthew Street"/>
  </way>
  <way id="20183359" version="9" timestamp="2009-09-30T15:37:00Z" uid="36809" user="pfoten_weg_!_" changeset="2689684">
    <nd ref="263229236"/>
    <nd ref="359735153"/>
    <nd ref="213419714"/>
    <nd ref="213419720"/>
    <nd ref="213419723"/>
    <tag k="highway" v="residential"/>
    <tag k="name" v="Sewerstraße"/>
  </way>
  <way id="20183359" version="10" timestamp="2011-06-02T15:35:21Z" uid="19763" user="leofranz" changeset="8321046">
    <nd ref="263229236"/>
    <nd ref="359735153"/>
    <nd ref="213419714"/>
    <nd ref="1309208286"/>
    <nd ref="213419720"/>
    <nd ref="213419723"/>
    <tag k="highway" v="residential"/>
    <tag k="name" v="Sewerstraße"/>
  </way>
  <way id="20183359" version="11" timestamp="2012-01-17T16:54:40Z" uid="45481" user="borisC" changeset="10419497"/>
  <way id="20183369" version="2" timestamp="2010-07-07T21:32:00Z" uid="74617" user="JohnSmith" changeset="5161069">
    <nd ref="213425187"/>
    <nd ref="213425471"/>
    <tag k="highway" v="residential"/>
    <tag k="maxspeed" v="50"/>
    <tag k="maxspeed:source" v="default residential speed limit in Australia"/>
    <tag k="name" v="Bayview Street"/>
  </way>
  <way id="20183369" version="3" timestamp="2012-01-15T21:02:26Z" uid="147510" user="woodpeck_fixbot" changeset="10402983">
    <nd ref="213425187"/>
    <nd ref="213425471"/>
    <tag k="highway" v="residential"/>
    <tag k="name" v="Bayview Street"/>
  </way>
  <way id="20183457" version="2" timestamp="2010-07-07T21:36:43Z" uid="74617" user="JohnSmith" changeset="5161069">
    <nd ref="213425508"/>
    <nd ref="213425841"/>
    <tag k="highway" v="residential"/>
    <tag k="maxspeed" v="50"/>
    <tag k="maxspeed:source" v="default residential speed limit in Australia"/>
    <tag k="name" v="Glenview Street"/>
  </way>
  <way id="20183457" version="3" timestamp="2012-01-15T21:02:27Z" uid="147510" user="woodpeck_fixbot" changeset="10402983">
    <nd ref="213425508"/>
    <nd ref="213425841"/>
    <tag k="highway" v="residential"/>
    <tag k="name" v="Glenview Street"/>
  </way>
  <way id="20183567" version="2" timestamp="2010-07-07T21:27:36Z" uid="74617" user="JohnSmith" changeset="5161069">
    <nd ref="213425926"/>
    <nd ref="213426413"/>
    <tag k="highway" v="residential"/>
    <tag k="maxspeed" v="50"/>
    <tag k="maxspeed:source" v="default residential speed limit in Australia"/>
    <tag k="name" v="Merton Street"/>
  </way>
  <way id="20183567" version="3" timestamp="2012-01-15T21:02:28Z" uid="147510" user="woodpeck_fixbot" changeset="10402983">
    <nd ref="213425926"/>
    <nd ref="213426413"/>
    <tag k="highway" v="residential"/>
    <tag k="name" v="Merton Street"/>
  </way>
  <way id="20183650" version="2" timestamp="2010-07-07T21:35:21Z" uid="74617" user="JohnSmith" changeset="5161069">
    <nd ref="213426460"/>
    <nd ref="213426894"/>
    <tag k="highway" v="residential"/>
    <tag k="maxspeed" v="50"/>
    <tag k="maxspeed:source" v="default residential speed limit in Australia"/>
    <tag k="name" v="Brighton Street"/>
  </way>
  <way id="20183650" version="3" timestamp="2012-01-15T21:02:28Z" uid="147510" user="woodpeck_fixbot" changeset="10402983">
    <nd ref="213426460"/>
    <nd ref="213426894"/>
    <tag k="highway" v="residential"/>
    <tag k="name" v="Brighton Street"/>
  </way>
  <way id="20183744" version="2" timestamp="2010-07-08T02:08:50Z" uid="74617" user="JohnSmith" changeset="5162525">
    <nd ref="213427421"/>
    <nd ref="28374268"/>
    <tag k="highway" v="residential"/>
    <tag k="maxspeed" v="50"/>
    <tag k="maxspeed:source" v="default residential speed limit in Australia"/>
    <tag k="name" v="Sybil Street"/>
  </way>
  <way id="20183744" version="3" timestamp="2012-01-15T21:02:30Z" uid="147510" user="woodpeck_fixbot" changeset="10402983">
    <nd ref="213427421"/>
    <nd ref="28374268"/>
    <tag k="highway" v="residential"/>
    <tag k="name" v="Sybil Street"/>
  </way>
  <way id="20183769" version="2" timestamp="2010-07-08T02:09:05Z" uid="74617" user="JohnSmith" changeset="5162525">
    <nd ref="213427473"/>
    <nd ref="213427588"/>
    <tag k="highway" v="residential"/>
    <tag k="maxspeed" v="50"/>
    <tag k="maxspeed:source" v="default residential speed limit in Australia"/>
    <tag k="name" v="Wyuna Street"/>
  </way>
  <way id="20183769" version="3" timestamp="2012-01-15T21:02:30Z" uid="147510" user="woodpeck_fixbot" changeset="10402983">
    <nd ref="213427473"/>
    <nd ref="213427588"/>
    <tag k="highway" v="residential"/>
    <tag k="name" v="Wyuna Street"/>
  </way>
  <way id="20183913" version="2" timestamp="2009-11-30T09:37:21Z" uid="7617" user="Franc" changeset="3254049">
    <nd ref="213427945"/>
    <nd ref="575727167"/>
    <nd ref="213428266"/>
    <tag k="highway" v="residential"/>
    <tag k="name" v="Poulton Avenue"/>
  </way>
  <way id="20183913" version="3" timestamp="2010-07-08T02:07:43Z" uid="74617" user="JohnSmith" changeset="5162525">
    <nd ref="213427945"/>
    <nd ref="575727167"/>
    <nd ref="213428266"/>
    <tag k="highway" v="residential"/>
    <tag k="maxspeed" v="50"/>
    <tag k="maxspeed:source" v="default residential speed limit in Australia"/>
    <tag k="name" v="Poulton Avenue"/>
  </way>
  <way id="20183913" version="4" timestamp="2012-01-15T21:02:32Z" uid="147510" user="woodpeck_fixbot" changeset="10402983">
    <nd ref="213427945"/>
    <nd ref="575727167"/>
    <nd ref="213428266"/>
    <tag k="highway" v="residential"/>
    <tag k="name" v="Poulton Avenue"/>
  </way>
  <way id="20183929" version="8" timestamp="2009-09-30T15:31:04Z" uid="36809" user="pfoten_weg_!_" changeset="2689684">
    <nd ref="213419252"/>
    <nd ref="213419262"/>
    <nd ref="213419275"/>
    <tag k="highway" v="residential"/>
    <tag k="name" v="Sparberegg"/>
    <tag k="oneway" v="yes"/>
  </way>
  <way id="20183929" version="9" timestamp="2011-08-07T16:55:13Z" uid="19763" user="leofranz" changeset="8949300">
    <nd ref="213419252"/>
    <nd ref="1389919200"/>
    <nd ref="213419262"/>
    <nd ref="213419275"/>
    <tag k="highway" v="residential"/>
    <tag k="name" v="Sparberegg"/>
    <tag k="oneway" v="yes"/>
  </way>
  <way id="20183929" version="10" timestamp="2012-02-07T23:56:39Z" uid="45481" user="borisC" changeset="10618583"/>
  <way id="20183979" version="2" timestamp="2010-07-08T02:08:06Z" uid="74617" user="JohnSmith" changeset="5162525">
    <nd ref="213427588"/>
    <nd ref="213428639"/>
    <tag k="highway" v="residential"/>
    <tag k="maxspeed" v="50"/>
    <tag k="maxspeed:source" v="default residential speed limit in Australia"/>
    <tag k="name" v="John Street"/>
  </way>
  <way id="20183979" version="3" timestamp="2012-01-15T21:02:33Z" uid="147510" user="woodpeck_fixbot" changeset="10402983">
    <nd ref="213427588"/>
    <nd ref="213428639"/>
    <tag k="highway" v="residential"/>
    <tag k="name" v="John Street"/>
  </way>
  <way id="20183913" version="5" timestamp="2012-07-20T02:44:13Z" uid="722137" user="OSMF Redaction Account" changeset="12358530">
    <nd ref="213427945"/>
    <nd ref="213428266"/>
    <tag k="highway" v="residential"/>
    <tag k="name" v="Poulton Avenue"/>
  </way>
</osm>
