<?xml version='1.0' encoding='UTF-8'?>
<osm version="0.6" generator="libosmium/2.20.0">
  <way id="20277455" version="14" timestamp="2008-10-10T16:43:20Z" uid="65847" user="LKK" changeset="235948">
    <nd ref="148876019"/>
    <nd ref="248903490"/>
    <nd ref="148871467"/>
    <tag k="created_by" v="Potlatch 0.9c"/>
    <tag k="highway" v="secondary"/>
    <tag k="name" v="бул. Княгиня Мария Луиза"/>
    <tag k="railway" v="tram"/>
  </way>
  <way id="20277455" version="15" timestamp="2010-04-05T19:20:49Z" uid="94353" user="Fips" changeset="4337577">
    <nd ref="148876019"/>
    <nd ref="248903490"/>
    <nd ref="148871467"/>
    <tag k="highway" v="secondary"/>
    <tag k="name" v="бул. Княгиня Мария Луиза"/>
  </way>
  <way id="20277455" version="16" timestamp="2010-04-29T06:36:40Z" uid="41176" user="Veso" changeset="4555461">
    <nd ref="148876019"/>
    <nd ref="248903490"/>
    <nd ref="148871467"/>
    <tag k="construction" v="yes"/>
    <tag k="highway" v="secondary"/>
    <tag k="name" v="бул. Княгиня Мария Луиза"/>
  </way>
  <way id="20277455" version="17" timestamp="2010-05-04T12:38:21Z" uid="41176" user="Veso" changeset="4603918">
    <nd ref="148876019"/>
    <nd ref="248903490"/>
    <nd ref="148871467"/>
    <tag k="highway" v="construction"/>
    <tag k="name" v="бул. Княгиня Мария Луиза"/>
  </way>
  <way id="20277455" version="18" timestamp="2010-05-09T16:57:20Z" uid="94353" user="Fips" changeset="4650396">
    <nd ref="148876019"/>
    <nd ref="248903490"/>
    <nd ref="148871467"/>
    <tag k="construction" v="secondary"/>
    <tag k="highway" v="construction"/>
    <tag k="name" v="бул. Княгиня Мария Луиза"/>
  </way>
  <way id="20277455" version="19" timestamp="2011-01-24T20:20:56Z" uid="94353" user="Fips" changeset="7077443">
    <nd ref="148876019"/>
    <nd ref="1119210340"/>
    <nd ref="1119209961"/>
    <nd ref="248903490"/>
    <nd ref="1119209802"/>
    <nd ref="148871467"/>
    <tag k="construction" v="secondary"/>
    <tag k="highway" v="construction"/>
    <tag k="name" v="бул. Княгиня Мария Луиза"/>
  </way>
  <way id="20277456" version="8" timestamp="2008-10-10T16:43:22Z" uid="65847" user="LKK" changeset="235948">
    <nd ref="148871464"/>
    <nd ref="148876019"/>
    <tag k="bridge" v="yes"/>
    <tag k="created_by" v="Potlatch 0.8a"/>
    <tag k="highway" v="secondary"/>
    <tag k="layer" v="1"/>
    <tag k="name" v="бул. Княгиня Мария Луиза"/>
    <tag k="railway" v="tram"/>
  </way>
  <way id="20277456" version="9" timestamp="2009-03-17T05:21:31Z" uid="28427" user="skunk" changeset="822753">
    <nd ref="148871464"/>
    <nd ref="148876019"/>
    <tag k="bridge" v="yes"/>
    <tag k="created_by" v="Potlatch 0.8a"/>
    <tag k="highway" v="secondary"/>
    <tag k="layer" v="1"/>
    <tag k="name" v="Лъвов мост"/>
    <tag k="name:en" v="Lion&apos;s Bridge"/>
    <tag k="railway" v="tram"/>
    <tag k="wikipedia:bg" v="yes"/>
    <tag k="wikipedia:de" v="Lavov Most"/>
  </way>
  <way id="20277456" version="10" timestamp="2010-04-05T19:20:46Z" uid="94353" user="Fips" changeset="4337577">
    <nd ref="148871464"/>
    <nd ref="148876019"/>
    <tag k="bridge" v="yes"/>
    <tag k="highway" v="secondary"/>
    <tag k="layer" v="1"/>
    <tag k="name" v="Лъвов мост"/>
    <tag k="name:en" v="Lion&apos;s Bridge"/>
    <tag k="wikipedia:bg" v="Лъвов мост"/>
    <tag k="wikipedia:de" v="Lavov Most"/>
  </way>
  <way id="20277456" version="11" timestamp="2011-01-24T20:19:44Z" uid="94353" user="Fips" changeset="7077443">
    <nd ref="148871464"/>
    <nd ref="1119209209"/>
    <tag k="highway" v="secondary"/>
    <tag k="name" v="Лъвов мост"/>
    <tag k="name:en" v="Lion&apos;s Bridge"/>
    <tag k="oneway" v="yes"/>
    <tag k="wikipedia:bg" v="Лъвов мост"/>
    <tag k="wikipedia:de" v="Lavov Most"/>
  </way>
  <way id="20277473" version="8" timestamp="2010-07-25T08:46:54Z" uid="4467" user="Rosscoe" changeset="5309813"/>
  <way id="20277954" version="13" timestamp="2008-10-11T15:25:15Z" uid="65847" user="LKK" changeset="251067">
    <nd ref="243069961"/>
    <nd ref="243074007"/>
    <nd ref="243073636"/>
    <nd ref="243074462"/>
    <nd ref="214887874"/>
    <tag k="created_by" v="Potlatch 0.9c"/>
    <tag k="foot" v="yes"/>
    <tag k="highway" v="pedestrian"/>
    <tag k="name" v="ул. Пиротска"/>
  </way>
  <way id="20277954" version="14" timestamp="2011-01-23T21:27:00Z" uid="94353" user="Fips" changeset="7067566">
    <nd ref="1117636598"/>
    <nd ref="243074007"/>
    <nd ref="243073636"/>
    <nd ref="243074462"/>
    <nd ref="214887874"/>
    <tag k="foot" v="yes"/>
    <tag k="highway" v="pedestrian"/>
    <tag k="name" v="ул. Пиротска"/>
  </way>
  <way id="20277954" version="15" timestamp="2011-05-26T10:20:27Z" uid="460730" user="usmiv4o" changeset="8252026">
    <nd ref="1117636598"/>
    <nd ref="243074007"/>
    <nd ref="243073636"/>
    <nd ref="243074462"/>
    <nd ref="214887874"/>
    <tag k="foot" v="yes"/>
    <tag k="highway" v="pedestrian"/>
    <tag k="name" v="ул. Пиротска"/>
    <tag k="oneway" v="no"/>
  </way>
  <way id="20277455" version="20" timestamp="2012-05-28T11:08:00Z" uid="41176" user="Veso" changeset="11725366">
    <nd ref="148876019"/>
    <nd ref="1119210340"/>
    <nd ref="1119209961"/>
    <nd ref="248903490"/>
    <nd ref="1119209802"/>
    <nd ref="148871467"/>
    <tag k="highway" v="secondary"/>
    <tag k="name" v="бул. Княгиня Мария Луиза"/>
    <tag k="oneway" v="yes"/>
  </way>
</osm>
