<?xml version='1.0' encoding='UTF-8'?>
<osm version="0.6" generator="libosmium/2.20.0">
  <way id="20308158" version="4" timestamp="2010-02-14T17:11:48Z" uid="74617" user="JohnSmith" changeset="3875836">
    <nd ref="96275323"/>
    <nd ref="21478943"/>
    <nd ref="21478950"/>
    <tag k="highway" v="pedestrian"/>
    <tag k="name" v="Albert Street Mall"/>
  </way>
  <way id="20308158" version="5" timestamp="2011-06-21T11:22:27Z" uid="84937" user="Neil Penman" changeset="8503666">
    <nd ref="96275323"/>
    <nd ref="21478943"/>
    <nd ref="1333503687"/>
    <nd ref="21478950"/>
    <tag k="highway" v="pedestrian"/>
    <tag k="name" v="Albert Street Mall"/>
  </way>
  <way id="20308158" version="6" timestamp="2011-12-15T02:32:55Z" uid="103574" user="El Segundo can&apos;t win" changeset="10120466">
    <nd ref="1546627050"/>
    <nd ref="21478943"/>
    <nd ref="1333503687"/>
    <nd ref="21478950"/>
    <tag k="highway" v="pedestrian"/>
    <tag k="name" v="Albert Street Mall"/>
  </way>
  <way id="20308158" version="7" timestamp="2012-01-17T10:24:33Z" uid="103574" user="Here is the repulsant snozzcumber!" changeset="10416130"/>
  <way id="20308274" version="4" timestamp="2009-02-14T18:12:58Z" uid="65847" user="LKK" changeset="435966">
    <nd ref="181757282"/>
    <nd ref="181765710"/>
    <nd ref="181765712"/>
    <nd ref="181765714"/>
    <nd ref="181765715"/>
    <nd ref="181765716"/>
    <tag k="created_by" v="Potlatch 0.6a"/>
    <tag k="layer" v="-1"/>
    <tag k="name" v="р. Перловска"/>
    <tag k="tunnel" v="yes"/>
    <tag k="waterway" v="stream"/>
  </way>
  <way id="20308287" version="5" timestamp="2009-02-14T18:12:55Z" uid="65847" user="LKK" changeset="435966">
    <nd ref="181765716"/>
    <nd ref="181765717"/>
    <tag k="created_by" v="Potlatch 0.7b"/>
    <tag k="layer" v="-1"/>
    <tag k="name" v="р. Перловска"/>
    <tag k="waterway" v="stream"/>
  </way>
  <way id="20308323" version="5" timestamp="2009-02-14T18:12:56Z" uid="65847" user="LKK" changeset="435966">
    <nd ref="181765717"/>
    <nd ref="215441462"/>
    <nd ref="181765719"/>
    <tag k="created_by" v="Potlatch 0.7b"/>
    <tag k="layer" v="-1"/>
    <tag k="name" v="р. Перловска"/>
    <tag k="tunnel" v="yes"/>
    <tag k="waterway" v="stream"/>
  </way>
  <way id="20308329" version="4" timestamp="2009-02-14T18:12:53Z" uid="65847" user="LKK" changeset="435966">
    <nd ref="181765719"/>
    <nd ref="181765720"/>
    <nd ref="181765721"/>
    <nd ref="181765722"/>
    <nd ref="181765723"/>
    <tag k="created_by" v="Potlatch 0.7b"/>
    <tag k="layer" v="-1"/>
    <tag k="name" v="р. Перловска"/>
    <tag k="waterway" v="stream"/>
  </way>
  <way id="20308440" version="6" timestamp="2008-10-10T08:31:44Z" uid="65847" user="LKK" changeset="209907">
    <nd ref="150467606"/>
    <nd ref="207611764"/>
    <nd ref="303498172"/>
    <nd ref="207601832"/>
    <nd ref="148915941"/>
    <nd ref="207598428"/>
    <nd ref="207598675"/>
    <nd ref="152618236"/>
    <tag k="created_by" v="Potlatch 0.8a"/>
    <tag k="highway" v="tertiary"/>
    <tag k="motorcar" v="no"/>
    <tag k="name" v="ул. Граф Игнатиев"/>
    <tag k="railway" v="tram"/>
  </way>
  <way id="20308440" version="7" timestamp="2008-10-14T20:48:29Z" uid="65847" user="LKK" changeset="339169">
    <nd ref="150467606"/>
    <nd ref="303722599"/>
    <nd ref="207611764"/>
    <nd ref="303498172"/>
    <nd ref="207601832"/>
    <nd ref="148915941"/>
    <nd ref="207598428"/>
    <nd ref="207598675"/>
    <nd ref="152618236"/>
    <tag k="created_by" v="Potlatch 0.8a"/>
    <tag k="highway" v="tertiary"/>
    <tag k="motorcar" v="no"/>
    <tag k="name" v="ул. Граф Игнатиев"/>
    <tag k="railway" v="tram"/>
  </way>
  <way id="20308440" version="8" timestamp="2009-03-17T05:21:32Z" uid="28427" user="skunk" changeset="822753">
    <nd ref="150467606"/>
    <nd ref="303722599"/>
    <nd ref="207611764"/>
    <nd ref="303498172"/>
    <nd ref="207601832"/>
    <nd ref="148915941"/>
    <nd ref="207598428"/>
    <nd ref="207598675"/>
    <nd ref="152618236"/>
    <tag k="created_by" v="Potlatch 0.8a"/>
    <tag k="highway" v="tertiary"/>
    <tag k="motorcar" v="no"/>
    <tag k="name" v="ул. Граф Игнатиев"/>
    <tag k="name:en" v="Graf Ignatiev Street"/>
    <tag k="railway" v="tram"/>
    <tag k="wikipedia:bg" v="Граф Игнатиев (улица в София)"/>
    <tag k="wikipedia:en" v="Graf Ignatiev Street"/>
  </way>
  <way id="20308440" version="9" timestamp="2009-04-14T04:23:27Z" uid="28427" user="skunk" changeset="528131">
    <nd ref="150467606"/>
    <nd ref="303722599"/>
    <nd ref="375330394"/>
    <nd ref="207611764"/>
    <nd ref="303498172"/>
    <nd ref="207601832"/>
    <nd ref="148915941"/>
    <nd ref="207598428"/>
    <nd ref="207598675"/>
    <nd ref="152618236"/>
    <tag k="created_by" v="Potlatch 0.8a"/>
    <tag k="highway" v="tertiary"/>
    <tag k="motorcar" v="no"/>
    <tag k="name" v="ул. Граф Игнатиев"/>
    <tag k="name:en" v="Graf Ignatiev Street"/>
    <tag k="railway" v="tram"/>
    <tag k="wikipedia:bg" v="Граф Игнатиев (улица в София)"/>
    <tag k="wikipedia:en" v="Graf Ignatiev Street"/>
  </way>
  <way id="20308440" version="10" timestamp="2009-08-07T19:00:24Z" uid="27370" user="skamp" changeset="2069134">
    <nd ref="150467606"/>
    <nd ref="303722599"/>
    <nd ref="375330394"/>
    <nd ref="207611764"/>
    <nd ref="303498172"/>
    <nd ref="207601832"/>
    <nd ref="148915941"/>
    <nd ref="207598428"/>
    <nd ref="207598675"/>
    <nd ref="458403890"/>
    <nd ref="152618236"/>
    <tag k="highway" v="tertiary"/>
    <tag k="motorcar" v="no"/>
    <tag k="name" v="ул. Граф Игнатиев"/>
    <tag k="name:en" v="Graf Ignatiev Street"/>
    <tag k="railway" v="tram"/>
    <tag k="wikipedia:bg" v="Граф Игнатиев (улица в София)"/>
    <tag k="wikipedia:en" v="Graf Ignatiev Street"/>
  </way>
  <way id="20308440" version="11" timestamp="2010-04-05T19:20:54Z" uid="94353" user="Fips" changeset="4337577">
    <nd ref="150467606"/>
    <nd ref="685747524"/>
    <nd ref="375330394"/>
    <nd ref="207611764"/>
    <nd ref="303498172"/>
    <nd ref="207601832"/>
    <nd ref="148915941"/>
    <nd ref="207598428"/>
    <nd ref="207598675"/>
    <nd ref="458403890"/>
    <nd ref="152618236"/>
    <tag k="access" v="no"/>
    <tag k="bicycle" v="yes"/>
    <tag k="foot" v="yes"/>
    <tag k="highway" v="service"/>
    <tag k="motorcar" v="no"/>
    <tag k="name" v="ул. Граф Игнатиев"/>
    <tag k="name:en" v="Graf Ignatiev Street"/>
    <tag k="psv" v="yes"/>
    <tag k="railway" v="tram"/>
    <tag k="wikipedia:bg" v="Граф Игнатиев (улица в София)"/>
    <tag k="wikipedia:en" v="Graf Ignatiev Street"/>
  </way>
  <way id="20308440" version="12" timestamp="2011-01-23T17:27:20Z" uid="94353" user="Fips" changeset="7064370">
    <nd ref="685747524"/>
    <nd ref="375330394"/>
    <nd ref="207611764"/>
    <nd ref="303498172"/>
    <nd ref="207601832"/>
    <nd ref="148915941"/>
    <nd ref="207598428"/>
    <nd ref="207598675"/>
    <nd ref="458403890"/>
    <nd ref="152618236"/>
    <tag k="access" v="no"/>
    <tag k="bicycle" v="yes"/>
    <tag k="foot" v="yes"/>
    <tag k="highway" v="service"/>
    <tag k="motorcar" v="no"/>
    <tag k="name" v="ул. Граф Игнатиев"/>
    <tag k="name:en" v="Graf Ignatiev Street"/>
    <tag k="psv" v="yes"/>
    <tag k="railway" v="tram"/>
    <tag k="wikipedia:bg" v="Граф Игнатиев (улица в София)"/>
    <tag k="wikipedia:en" v="Graf Ignatiev Street"/>
  </way>
  <way id="20308440" version="13" timestamp="2011-01-23T17:48:00Z" uid="94353" user="Fips" changeset="7064686"/>
  <way id="20308274" version="5" timestamp="2012-07-20T03:14:03Z" uid="722137" user="OSMF Redaction Account" changeset="12359156">
    <nd ref="181757282"/>
    <nd ref="181765710"/>
    <nd ref="181765712"/>
    <nd ref="181765714"/>
    <nd ref="181765715"/>
    <nd ref="181765716"/>
    <tag k="layer" v="-1"/>
    <tag k="name" v="р. Перловска"/>
    <tag k="tunnel" v="yes"/>
    <tag k="waterway" v="canal"/>
  </way>
  <way id="20308287" version="6" timestamp="2012-07-20T03:14:07Z" uid="722137" user="OSMF Redaction Account" changeset="12359156">
    <nd ref="181765716"/>
    <nd ref="181765717"/>
    <tag k="layer" v="-1"/>
    <tag k="name" v="р. Перловска"/>
    <tag k="waterway" v="canal"/>
  </way>
  <way id="20308323" version="6" timestamp="2012-07-20T03:14:08Z" uid="722137" user="OSMF Redaction Account" changeset="12359156">
    <nd ref="181765717"/>
    <nd ref="215441462"/>
    <nd ref="181765719"/>
    <tag k="layer" v="-1"/>
    <tag k="name" v="р. Перловска"/>
    <tag k="tunnel" v="yes"/>
    <tag k="waterway" v="canal"/>
  </way>
  <way id="20308329" version="5" timestamp="2012-07-20T03:14:08Z" uid="722137" user="OSMF Redaction Account" changeset="12359156">
    <nd ref="181765719"/>
    <nd ref="181765720"/>
    <nd ref="181765721"/>
    <nd ref="181765722"/>
    <nd ref="181765723"/>
    <tag k="layer" v="-1"/>
    <tag k="name" v="р. Перловска"/>
    <tag k="waterway" v="canal"/>
  </way>
</osm>
