<?xml version='1.0' encoding='UTF-8'?>
<osm version="0.6" generator="libosmium/2.20.0">
  <way id="20318023" version="11" timestamp="2008-10-10T16:43:23Z" uid="65847" user="LKK" changeset="235948">
    <nd ref="109357397"/>
    <nd ref="214887874"/>
    <nd ref="215151325"/>
    <nd ref="204756410"/>
    <nd ref="257016255"/>
    <nd ref="214875391"/>
    <nd ref="214875329"/>
    <nd ref="148871464"/>
    <tag k="created_by" v="Potlatch 0.9c"/>
    <tag k="highway" v="secondary"/>
    <tag k="name" v="бул. Княгиня Мария Луиза"/>
    <tag k="railway" v="tram"/>
  </way>
  <way id="20318023" version="12" timestamp="2009-05-16T16:23:42Z" uid="41176" user="Veso" changeset="1212201">
    <nd ref="109357397"/>
    <nd ref="214887874"/>
    <nd ref="215151325"/>
    <nd ref="204756410"/>
    <nd ref="257016255"/>
    <nd ref="214875391"/>
    <nd ref="214875329"/>
    <nd ref="401655933"/>
    <nd ref="148871464"/>
    <tag k="created_by" v="Potlatch 0.9c"/>
    <tag k="highway" v="secondary"/>
    <tag k="name" v="бул. Княгиня Мария Луиза"/>
    <tag k="railway" v="tram"/>
  </way>
  <way id="20318023" version="13" timestamp="2010-04-05T19:20:43Z" uid="94353" user="Fips" changeset="4337577">
    <nd ref="109357397"/>
    <nd ref="214887874"/>
    <nd ref="215151325"/>
    <nd ref="204756410"/>
    <nd ref="257016255"/>
    <nd ref="214875391"/>
    <nd ref="214875329"/>
    <nd ref="401655933"/>
    <nd ref="148871464"/>
    <tag k="highway" v="secondary"/>
    <tag k="name" v="бул. Княгиня Мария Луиза"/>
  </way>
  <way id="20318023" version="14" timestamp="2010-04-28T16:26:49Z" uid="41176" user="Veso" changeset="4550799">
    <nd ref="109357397"/>
    <nd ref="214887874"/>
    <tag k="highway" v="secondary"/>
    <tag k="name" v="бул. Княгиня Мария Луиза"/>
  </way>
  <way id="20318023" version="15" timestamp="2010-04-28T16:27:04Z" uid="41176" user="Veso" changeset="4550799">
    <nd ref="109357397"/>
    <nd ref="214887874"/>
    <tag k="construction" v="yes"/>
    <tag k="highway" v="secondary"/>
    <tag k="name" v="бул. Княгиня Мария Луиза"/>
  </way>
  <way id="20318023" version="16" timestamp="2010-05-04T14:51:14Z" uid="41176" user="Veso" changeset="4604816">
    <nd ref="109357397"/>
    <nd ref="214887874"/>
    <tag k="highway" v="construction"/>
    <tag k="name" v="бул. Княгиня Мария Луиза"/>
  </way>
  <way id="20318560" version="10" timestamp="2010-10-26T01:56:50Z" uid="4467" user="Rosscoe" changeset="6178718">
    <nd ref="32950024"/>
    <nd ref="84335560"/>
    <nd ref="279092901"/>
    <nd ref="79621517"/>
    <nd ref="79589575"/>
    <nd ref="79642739"/>
    <nd ref="79589225"/>
    <nd ref="79588656"/>
    <nd ref="84336104"/>
    <nd ref="79590868"/>
    <tag k="cycleway" v="lane"/>
    <tag k="highway" v="tertiary"/>
    <tag k="name" v="Kent Street"/>
    <tag k="oneway" v="yes"/>
    <tag k="source" v="yahoo"/>
    <tag k="source:name" v="survey"/>
  </way>
  <way id="20318955" version="2" timestamp="2009-02-23T13:08:45Z" uid="34428" user="usm78-gis" changeset="634299"/>
  <way id="20318560" version="11" timestamp="2012-07-21T13:40:16Z" uid="46482" user="Leon K" changeset="12410422">
    <nd ref="32950024"/>
    <nd ref="84335560"/>
    <nd ref="279092901"/>
    <nd ref="79621517"/>
    <nd ref="79589575"/>
    <nd ref="79642739"/>
    <nd ref="79589225"/>
    <nd ref="79588656"/>
    <nd ref="84336104"/>
    <nd ref="79590868"/>
    <nd ref="1833140368"/>
    <tag k="cycleway" v="lane"/>
    <tag k="highway" v="tertiary"/>
    <tag k="name" v="Kent Street"/>
    <tag k="oneway" v="yes"/>
    <tag k="source" v="yahoo"/>
    <tag k="source:name" v="survey"/>
  </way>
</osm>
