<?xml version='1.0' encoding='UTF-8'?>
<osm version="0.6" generator="libosmium/2.20.0">
  <way id="20328030" version="3" timestamp="2008-11-13T00:54:11Z" uid="7617" user="Franc" changeset="741681">
    <nd ref="215862894"/>
    <nd ref="311670456"/>
    <nd ref="215863388"/>
    <nd ref="215863390"/>
    <nd ref="215865970"/>
    <nd ref="215863392"/>
    <tag k="created_by" v="Potlatch 0.6a"/>
    <tag k="highway" v="residential"/>
    <tag k="name" v="Norman Street"/>
  </way>
  <way id="20328030" version="4" timestamp="2010-07-08T02:10:34Z" uid="74617" user="JohnSmith" changeset="5162525">
    <nd ref="215862894"/>
    <nd ref="311670456"/>
    <nd ref="215863388"/>
    <nd ref="215863390"/>
    <nd ref="215865970"/>
    <nd ref="215863392"/>
    <tag k="highway" v="residential"/>
    <tag k="maxspeed" v="50"/>
    <tag k="maxspeed:source" v="default residential speed limit in Australia"/>
    <tag k="name" v="Norman Street"/>
  </way>
  <way id="20328030" version="5" timestamp="2012-01-15T21:10:29Z" uid="147510" user="woodpeck_fixbot" changeset="10402983">
    <nd ref="215862894"/>
    <nd ref="311670456"/>
    <nd ref="215863388"/>
    <nd ref="215863390"/>
    <nd ref="215865970"/>
    <nd ref="215863392"/>
    <tag k="highway" v="residential"/>
    <tag k="name" v="Norman Street"/>
  </way>
  <way id="20328053" version="2" timestamp="2008-11-12T21:37:06Z" uid="7617" user="Franc" changeset="738861">
    <nd ref="215863388"/>
    <nd ref="215863874"/>
    <tag k="created_by" v="Potlatch 0.6a"/>
    <tag k="highway" v="service"/>
    <tag k="name" v="Norman Street"/>
  </way>
  <way id="20328053" version="3" timestamp="2008-11-13T00:54:14Z" uid="7617" user="Franc" changeset="741681">
    <nd ref="215863388"/>
    <nd ref="311670457"/>
    <nd ref="215863874"/>
    <tag k="created_by" v="Potlatch 0.6a"/>
    <tag k="highway" v="service"/>
    <tag k="name" v="Norman Street"/>
    <tag k="source" v="survey"/>
  </way>
  <way id="20328053" version="4" timestamp="2012-03-08T05:57:52Z" uid="7523" user="inas" changeset="10906275">
    <nd ref="215863388"/>
    <nd ref="311670457"/>
    <nd ref="215863874"/>
    <tag k="highway" v="service"/>
    <tag k="name" v="Norman Street"/>
    <tag k="source" v="survey"/>
  </way>
  <way id="20328139" version="3" timestamp="2010-07-08T02:12:32Z" uid="74617" user="JohnSmith" changeset="5162525">
    <nd ref="215864536"/>
    <nd ref="215865969"/>
    <nd ref="215866966"/>
    <nd ref="215865970"/>
    <nd ref="215865971"/>
    <nd ref="215865972"/>
    <tag k="highway" v="residential"/>
    <tag k="maxspeed" v="50"/>
    <tag k="maxspeed:source" v="default residential speed limit in Australia"/>
    <tag k="name" v="Illawarra Street"/>
  </way>
  <way id="20328139" version="4" timestamp="2010-09-01T11:47:24Z" uid="237525" user="aharvey" changeset="5653319">
    <nd ref="215864536"/>
    <nd ref="215865969"/>
    <nd ref="215866966"/>
    <nd ref="215865970"/>
    <nd ref="891759648"/>
    <nd ref="215865971"/>
    <nd ref="215865972"/>
    <tag k="highway" v="residential"/>
    <tag k="maxspeed" v="50"/>
    <tag k="maxspeed:source" v="default residential speed limit in Australia"/>
    <tag k="name" v="Illawarra Street"/>
  </way>
  <way id="20328139" version="5" timestamp="2012-01-15T21:10:31Z" uid="147510" user="woodpeck_fixbot" changeset="10402983">
    <nd ref="215864536"/>
    <nd ref="215865969"/>
    <nd ref="215866966"/>
    <nd ref="215865970"/>
    <nd ref="891759648"/>
    <nd ref="215865971"/>
    <nd ref="215865972"/>
    <tag k="highway" v="residential"/>
    <tag k="name" v="Illawarra Street"/>
  </way>
  <way id="20328201" version="2" timestamp="2010-02-23T07:39:36Z" uid="7617" user="Franc" changeset="3949884"/>
  <way id="20328336" version="4" timestamp="2008-02-16T14:41:14Z" uid="6269" user="Mueck" changeset="133678">
    <nd ref="215869415"/>
    <nd ref="210980043"/>
    <tag k="created_by" v="Potlatch 0.7b"/>
    <tag k="highway" v="residential"/>
    <tag k="maxspeed" v="30"/>
    <tag k="name" v="Schillerstraße"/>
  </way>
  <way id="20328336" version="5" timestamp="2008-02-16T14:45:06Z" uid="6269" user="Mueck" changeset="133678">
    <nd ref="215869415"/>
    <nd ref="210980043"/>
    <tag k="created_by" v="Potlatch 0.7b"/>
    <tag k="hgv" v="private"/>
    <tag k="highway" v="residential"/>
    <tag k="maxspeed" v="30"/>
    <tag k="name" v="Schillerstraße"/>
  </way>
  <way id="20328336" version="6" timestamp="2008-05-16T13:23:15Z" uid="6269" user="Mueck" changeset="459212">
    <nd ref="215869415"/>
    <nd ref="264899355"/>
    <nd ref="210980043"/>
    <tag k="created_by" v="Potlatch 0.9a"/>
    <tag k="hgv" v="private"/>
    <tag k="highway" v="residential"/>
    <tag k="maxspeed" v="30"/>
    <tag k="name" v="Schillerstraße"/>
  </way>
  <way id="20328336" version="7" timestamp="2008-06-06T21:29:57Z" uid="6269" user="Mueck" changeset="71980">
    <nd ref="215869415"/>
    <nd ref="268872147"/>
    <nd ref="264899355"/>
    <nd ref="210980043"/>
    <tag k="created_by" v="Potlatch 0.9c"/>
    <tag k="hgv" v="private"/>
    <tag k="highway" v="residential"/>
    <tag k="maxspeed" v="30"/>
    <tag k="name" v="Schillerstraße"/>
  </way>
  <way id="20328336" version="8" timestamp="2008-07-23T00:00:41Z" uid="6269" user="Mueck" changeset="576156">
    <nd ref="215869415"/>
    <nd ref="268872147"/>
    <nd ref="264899355"/>
    <nd ref="210980043"/>
    <tag k="created_by" v="Potlatch 0.10"/>
    <tag k="hgv" v="destination"/>
    <tag k="highway" v="residential"/>
    <tag k="maxspeed" v="30"/>
    <tag k="name" v="Schillerstraße"/>
  </way>
  <way id="20328336" version="9" timestamp="2008-09-07T17:14:27Z" uid="6269" user="Mueck" changeset="562196">
    <nd ref="215869415"/>
    <nd ref="268872147"/>
    <nd ref="264899355"/>
    <nd ref="210980043"/>
    <tag k="created_by" v="Potlatch 0.10b"/>
    <tag k="goods" v="destination"/>
    <tag k="hgv" v="destination"/>
    <tag k="highway" v="residential"/>
    <tag k="maxspeed" v="30"/>
    <tag k="name" v="Schillerstraße"/>
  </way>
  <way id="20328336" version="10" timestamp="2009-01-31T00:48:56Z" uid="6269" user="Mueck" changeset="859135">
    <nd ref="215869415"/>
    <nd ref="268872147"/>
    <nd ref="264899355"/>
    <nd ref="210980043"/>
    <tag k="created_by" v="Potlatch 0.10f"/>
    <tag k="hgv" v="destination"/>
    <tag k="highway" v="residential"/>
    <tag k="maxspeed" v="30"/>
    <tag k="name" v="Schillerstraße"/>
  </way>
  <way id="20328336" version="11" timestamp="2009-08-12T19:23:36Z" uid="65364" user="Harry99" changeset="2122985">
    <nd ref="215869415"/>
    <nd ref="268872147"/>
    <nd ref="264899355"/>
    <nd ref="210980043"/>
    <tag k="hgv" v="destination"/>
    <tag k="highway" v="residential"/>
    <tag k="maxspeed" v="30"/>
    <tag k="name" v="Schillerstraße"/>
  </way>
  <way id="20328336" version="12" timestamp="2010-05-18T12:47:17Z" uid="263596" user="Oberförster" changeset="4738437">
    <nd ref="215869415"/>
    <nd ref="268872147"/>
    <nd ref="264899355"/>
    <nd ref="210980043"/>
    <tag k="hgv" v="destination"/>
    <tag k="highway" v="tertiary"/>
    <tag k="maxspeed" v="30"/>
    <tag k="name" v="Schillerstraße"/>
  </way>
  <way id="20328336" version="13" timestamp="2010-12-30T10:43:55Z" uid="18110" user="MVekony" changeset="6807543">
    <nd ref="215869415"/>
    <nd ref="268872147"/>
    <nd ref="264899355"/>
    <nd ref="1072617056"/>
    <nd ref="210980043"/>
    <tag k="hgv" v="destination"/>
    <tag k="highway" v="tertiary"/>
    <tag k="maxspeed" v="30"/>
    <tag k="name" v="Schillerstraße"/>
  </way>
  <way id="20328336" version="14" timestamp="2012-01-01T14:28:29Z" uid="65364" user="Harry99" changeset="10260767">
    <nd ref="268872147"/>
    <nd ref="264899355"/>
    <nd ref="1072617056"/>
    <nd ref="210980043"/>
    <tag k="hgv" v="destination"/>
    <tag k="highway" v="tertiary"/>
    <tag k="maxspeed" v="30"/>
    <tag k="name" v="Schillerstraße"/>
  </way>
  <way id="20328336" version="15" timestamp="2012-01-01T15:01:49Z" uid="65364" user="Harry99" changeset="10260767"/>
  <way id="20328337" version="3" timestamp="2008-02-16T14:41:12Z" uid="6269" user="Mueck" changeset="133678">
    <nd ref="210980043"/>
    <nd ref="210980052"/>
    <nd ref="211360123"/>
    <nd ref="245781996"/>
    <tag k="created_by" v="Potlatch 0.7b"/>
    <tag k="highway" v="residential"/>
    <tag k="maxspeed" v="30"/>
  </way>
  <way id="20328337" version="4" timestamp="2008-02-16T14:46:00Z" uid="6269" user="Mueck" changeset="133678">
    <nd ref="210980043"/>
    <nd ref="210980052"/>
    <nd ref="211360123"/>
    <nd ref="245781996"/>
    <tag k="created_by" v="Potlatch 0.7b"/>
    <tag k="hgv" v="private"/>
    <tag k="highway" v="residential"/>
    <tag k="maxspeed" v="30"/>
  </way>
  <way id="20328337" version="5" timestamp="2008-06-12T21:05:42Z" uid="6269" user="Mueck" changeset="141110">
    <nd ref="210980043"/>
    <nd ref="210980052"/>
    <nd ref="211360123"/>
    <nd ref="245781996"/>
    <tag k="created_by" v="Potlatch 0.9c"/>
    <tag k="hgv" v="private"/>
    <tag k="highway" v="residential"/>
    <tag k="maxspeed" v="30"/>
    <tag k="name" v="Schillerstraße"/>
  </way>
  <way id="20328337" version="6" timestamp="2008-07-23T00:01:13Z" uid="6269" user="Mueck" changeset="576156">
    <nd ref="210980043"/>
    <nd ref="210980052"/>
    <nd ref="211360123"/>
    <nd ref="245781996"/>
    <tag k="created_by" v="Potlatch 0.10"/>
    <tag k="hgv" v="destination"/>
    <tag k="highway" v="residential"/>
    <tag k="maxspeed" v="30"/>
    <tag k="name" v="Schillerstraße"/>
  </way>
  <way id="20328337" version="7" timestamp="2008-09-07T17:15:35Z" uid="6269" user="Mueck" changeset="562196">
    <nd ref="210980043"/>
    <nd ref="210980052"/>
    <nd ref="211360123"/>
    <nd ref="245781996"/>
    <tag k="created_by" v="Potlatch 0.10b"/>
    <tag k="goods" v="destination"/>
    <tag k="hgv" v="destination"/>
    <tag k="highway" v="residential"/>
    <tag k="maxspeed" v="30"/>
    <tag k="name" v="Schillerstraße"/>
  </way>
  <way id="20328337" version="8" timestamp="2009-01-31T00:33:20Z" uid="6269" user="Mueck" changeset="859135">
    <nd ref="210980043"/>
    <nd ref="210980052"/>
    <nd ref="211360123"/>
    <nd ref="245781996"/>
    <tag k="created_by" v="Potlatch 0.10f"/>
    <tag k="hgv" v="destination"/>
    <tag k="highway" v="residential"/>
    <tag k="maxspeed" v="30"/>
    <tag k="name" v="Schillerstraße"/>
  </way>
  <way id="20328337" version="9" timestamp="2009-09-14T19:52:48Z" uid="65364" user="Harry99" changeset="2486165">
    <nd ref="210980043"/>
    <nd ref="210980052"/>
    <nd ref="211360123"/>
    <nd ref="245781996"/>
    <tag k="hgv" v="destination"/>
    <tag k="highway" v="residential"/>
    <tag k="maxspeed" v="30"/>
    <tag k="name" v="Schillerstraße"/>
  </way>
  <way id="20328337" version="10" timestamp="2010-05-18T12:47:18Z" uid="263596" user="Oberförster" changeset="4738437">
    <nd ref="210980043"/>
    <nd ref="210980052"/>
    <nd ref="211360123"/>
    <nd ref="245781996"/>
    <tag k="hgv" v="destination"/>
    <tag k="highway" v="tertiary"/>
    <tag k="maxspeed" v="30"/>
    <tag k="name" v="Schillerstraße"/>
  </way>
  <way id="20328337" version="11" timestamp="2011-04-15T21:20:24Z" uid="107674" user="GeoCounter" changeset="7873826">
    <nd ref="210980043"/>
    <nd ref="210980052"/>
    <nd ref="211360123"/>
    <nd ref="245781996"/>
    <tag k="hgv" v="destination"/>
    <tag k="highway" v="residential"/>
    <tag k="maxspeed" v="30"/>
    <tag k="name" v="Schillerstraße"/>
  </way>
  <way id="20328337" version="12" timestamp="2012-01-01T15:01:49Z" uid="65364" user="Harry99" changeset="10260767"/>
  <way id="20328338" version="3" timestamp="2008-03-08T12:41:04Z" uid="6269" user="Mueck" changeset="286610">
    <nd ref="210980043"/>
    <nd ref="211360116"/>
    <nd ref="208661758"/>
    <tag k="created_by" v="Potlatch 0.7b"/>
    <tag k="highway" v="residential"/>
  </way>
  <way id="20328338" version="4" timestamp="2008-06-12T21:06:08Z" uid="6269" user="Mueck" changeset="141110">
    <nd ref="210980043"/>
    <nd ref="211360116"/>
    <nd ref="208661758"/>
    <tag k="created_by" v="Potlatch 0.9c"/>
    <tag k="highway" v="residential"/>
    <tag k="name" v="Friedrich-Ebert-Straße"/>
  </way>
  <way id="20328338" version="5" timestamp="2010-03-09T08:16:27Z" uid="46169" user="wolter" changeset="4078838">
    <nd ref="210980043"/>
    <nd ref="33377434"/>
    <nd ref="208661758"/>
    <tag k="highway" v="residential"/>
    <tag k="name" v="Friedrich-Ebert-Straße"/>
  </way>
  <way id="20328338" version="6" timestamp="2011-03-06T02:01:53Z" uid="212553" user="ARWIE" changeset="7469466">
    <nd ref="210980043"/>
    <nd ref="1188462139"/>
    <nd ref="33377434"/>
    <nd ref="208661758"/>
    <tag k="highway" v="residential"/>
    <tag k="name" v="Friedrich-Ebert-Straße"/>
  </way>
  <way id="20328338" version="7" timestamp="2011-04-15T21:20:25Z" uid="107674" user="GeoCounter" changeset="7873826">
    <nd ref="210980043"/>
    <nd ref="1188462139"/>
    <nd ref="33377434"/>
    <nd ref="208661758"/>
    <tag k="highway" v="tertiary"/>
    <tag k="name" v="Friedrich-Ebert-Straße"/>
  </way>
  <way id="20328338" version="8" timestamp="2012-01-01T15:01:46Z" uid="65364" user="Harry99" changeset="10260767">
    <nd ref="1572693706"/>
    <nd ref="1188462139"/>
    <nd ref="33377434"/>
    <nd ref="208661758"/>
    <tag k="highway" v="tertiary"/>
    <tag k="name" v="Friedrich-Ebert-Straße"/>
  </way>
  <way id="20328338" version="9" timestamp="2012-01-05T10:33:56Z" uid="65364" user="Harry99" changeset="10299221"/>
  <way id="20328339" version="3" timestamp="2008-02-10T00:12:06Z" uid="6269" user="Mueck" changeset="88956">
    <nd ref="215869415"/>
    <nd ref="215869422"/>
    <nd ref="245641805"/>
    <nd ref="246863542"/>
    <nd ref="245641810"/>
    <nd ref="245641815"/>
    <nd ref="245412451"/>
    <tag k="created_by" v="Potlatch 0.7"/>
    <tag k="highway" v="residential"/>
    <tag k="name" v="Lessingstraße"/>
  </way>
  <way id="20328339" version="4" timestamp="2008-02-16T14:40:34Z" uid="6269" user="Mueck" changeset="133678">
    <nd ref="215869415"/>
    <nd ref="215869422"/>
    <nd ref="245641805"/>
    <nd ref="246863542"/>
    <nd ref="245641810"/>
    <nd ref="245641815"/>
    <nd ref="245412451"/>
    <tag k="created_by" v="Potlatch 0.7b"/>
    <tag k="highway" v="residential"/>
    <tag k="maxspeed" v="30"/>
    <tag k="name" v="Lessingstraße"/>
  </way>
  <way id="20328339" version="5" timestamp="2008-02-16T14:45:10Z" uid="6269" user="Mueck" changeset="133678">
    <nd ref="215869415"/>
    <nd ref="215869422"/>
    <nd ref="245641805"/>
    <nd ref="246863542"/>
    <nd ref="245641810"/>
    <nd ref="245641815"/>
    <nd ref="245412451"/>
    <tag k="created_by" v="Potlatch 0.7b"/>
    <tag k="hgv" v="private"/>
    <tag k="highway" v="residential"/>
    <tag k="maxspeed" v="30"/>
    <tag k="name" v="Lessingstraße"/>
  </way>
  <way id="20328339" version="6" timestamp="2008-02-16T14:49:41Z" uid="6269" user="Mueck" changeset="133678"/>
  <way id="20328417" version="4" timestamp="2010-02-23T07:39:25Z" uid="7617" user="Franc" changeset="3949884">
    <nd ref="215870033"/>
    <nd ref="651272534"/>
    <nd ref="215872209"/>
    <nd ref="215866967"/>
    <nd ref="215920835"/>
    <nd ref="215863392"/>
    <nd ref="215870969"/>
    <tag k="highway" v="residential"/>
    <tag k="name" v="Noble Street"/>
  </way>
  <way id="20328417" version="5" timestamp="2010-07-08T02:07:46Z" uid="74617" user="JohnSmith" changeset="5162525">
    <nd ref="215870033"/>
    <nd ref="651272534"/>
    <nd ref="215872209"/>
    <nd ref="215866967"/>
    <nd ref="215920835"/>
    <nd ref="215863392"/>
    <nd ref="215870969"/>
    <tag k="highway" v="residential"/>
    <tag k="maxspeed" v="50"/>
    <tag k="maxspeed:source" v="default residential speed limit in Australia"/>
    <tag k="name" v="Noble Street"/>
  </way>
  <way id="20328417" version="6" timestamp="2012-01-15T21:10:32Z" uid="147510" user="woodpeck_fixbot" changeset="10402983">
    <nd ref="215870033"/>
    <nd ref="651272534"/>
    <nd ref="215872209"/>
    <nd ref="215866967"/>
    <nd ref="215920835"/>
    <nd ref="215863392"/>
    <nd ref="215870969"/>
    <tag k="highway" v="residential"/>
    <tag k="name" v="Noble Street"/>
  </way>
  <way id="20328466" version="6" timestamp="2010-02-23T08:00:22Z" uid="7617" user="Franc" changeset="3950111">
    <nd ref="32658323"/>
    <nd ref="215872209"/>
    <nd ref="215873543"/>
    <nd ref="215874858"/>
    <nd ref="651276650"/>
    <tag k="highway" v="residential"/>
    <tag k="name" v="First Avenue"/>
  </way>
  <way id="20328466" version="7" timestamp="2010-07-08T02:11:11Z" uid="74617" user="JohnSmith" changeset="5162525">
    <nd ref="32658323"/>
    <nd ref="215872209"/>
    <nd ref="215873543"/>
    <nd ref="215874858"/>
    <nd ref="651276650"/>
    <tag k="highway" v="residential"/>
    <tag k="maxspeed" v="50"/>
    <tag k="maxspeed:source" v="default residential speed limit in Australia"/>
    <tag k="name" v="First Avenue"/>
  </way>
  <way id="20328466" version="8" timestamp="2012-01-15T21:10:34Z" uid="147510" user="woodpeck_fixbot" changeset="10402983">
    <nd ref="32658323"/>
    <nd ref="215872209"/>
    <nd ref="215873543"/>
    <nd ref="215874858"/>
    <nd ref="651276650"/>
    <tag k="highway" v="residential"/>
    <tag k="name" v="First Avenue"/>
  </way>
  <way id="20328561" version="4" timestamp="2010-02-23T07:39:25Z" uid="7617" user="Franc" changeset="3949884">
    <nd ref="215872258"/>
    <nd ref="215875719"/>
    <nd ref="215873543"/>
    <nd ref="651272515"/>
    <tag k="highway" v="residential"/>
    <tag k="name" v="Woids Avenue"/>
  </way>
  <way id="20328561" version="5" timestamp="2010-07-08T02:08:37Z" uid="74617" user="JohnSmith" changeset="5162525">
    <nd ref="215872258"/>
    <nd ref="215875719"/>
    <nd ref="215873543"/>
    <nd ref="651272515"/>
    <tag k="highway" v="residential"/>
    <tag k="maxspeed" v="50"/>
    <tag k="maxspeed:source" v="default residential speed limit in Australia"/>
    <tag k="name" v="Woids Avenue"/>
  </way>
  <way id="20328561" version="6" timestamp="2012-01-15T21:10:35Z" uid="147510" user="woodpeck_fixbot" changeset="10402983">
    <nd ref="215872258"/>
    <nd ref="215875719"/>
    <nd ref="215873543"/>
    <nd ref="651272515"/>
    <tag k="highway" v="residential"/>
    <tag k="name" v="Woids Avenue"/>
  </way>
  <way id="20328603" version="5" timestamp="2008-07-05T19:24:33Z" uid="6975" user="ulfl" changeset="398437">
    <nd ref="243760091"/>
    <nd ref="215845513"/>
    <nd ref="215874285"/>
    <nd ref="215874286"/>
    <nd ref="215874288"/>
    <nd ref="215874290"/>
    <nd ref="215874293"/>
    <nd ref="215874295"/>
    <nd ref="215874297"/>
    <nd ref="215874298"/>
    <nd ref="215874300"/>
    <nd ref="215874302"/>
    <nd ref="215874303"/>
    <nd ref="243760269"/>
    <nd ref="243760268"/>
    <tag k="bridge" v="no"/>
    <tag k="highway" v="motorway_link"/>
    <tag k="oneway" v="yes"/>
  </way>
  <way id="20328603" version="6" timestamp="2009-11-29T17:04:51Z" uid="17286" user="Pieren" changeset="3247613">
    <nd ref="243760091"/>
    <nd ref="215845513"/>
    <nd ref="215874285"/>
    <nd ref="215874286"/>
    <nd ref="215874288"/>
    <nd ref="215874290"/>
    <nd ref="215874293"/>
    <nd ref="215874295"/>
    <nd ref="215874297"/>
    <nd ref="215874298"/>
    <nd ref="215874300"/>
    <nd ref="215874302"/>
    <nd ref="215874303"/>
    <nd ref="243760269"/>
    <nd ref="243760268"/>
    <tag k="bridge" v="no"/>
    <tag k="highway" v="motorway_link"/>
    <tag k="oneway" v="yes"/>
    <tag k="source" v="v2; cadastre-dgi-fr source : Direction Générale des Impôts - Cadastre ; mise à jour : 2009"/>
  </way>
  <way id="20328603" version="7" timestamp="2009-12-09T20:00:02Z" uid="17286" user="Pieren" changeset="3336166">
    <nd ref="243760091"/>
    <nd ref="215845513"/>
    <nd ref="215874285"/>
    <nd ref="215874286"/>
    <nd ref="215874288"/>
    <nd ref="215874290"/>
    <nd ref="215874293"/>
    <nd ref="215874295"/>
    <nd ref="215874297"/>
    <nd ref="215874298"/>
    <nd ref="215874300"/>
    <nd ref="215874302"/>
    <nd ref="215874303"/>
    <nd ref="243760269"/>
    <nd ref="243760268"/>
    <tag k="bridge" v="no"/>
    <tag k="highway" v="motorway_link"/>
    <tag k="oneway" v="yes"/>
    <tag k="source" v="cadastre-dgi-fr source : Direction Générale des Impôts - Cadastre ; mise à jour : 2009"/>
  </way>
  <way id="20328603" version="8" timestamp="2011-08-07T19:44:20Z" uid="158826" user="cquest" changeset="8950993">
    <nd ref="243760091"/>
    <nd ref="215845513"/>
    <nd ref="1390080512"/>
    <nd ref="215874285"/>
    <nd ref="215874286"/>
    <nd ref="215874288"/>
    <nd ref="215874290"/>
    <nd ref="215874293"/>
    <nd ref="215874295"/>
    <nd ref="215874297"/>
    <nd ref="215874298"/>
    <nd ref="215874300"/>
    <nd ref="215874302"/>
    <nd ref="215874303"/>
    <nd ref="243760269"/>
    <nd ref="243760268"/>
    <tag k="bridge" v="no"/>
    <tag k="highway" v="motorway_link"/>
    <tag k="oneway" v="yes"/>
    <tag k="source" v="cadastre-dgi-fr source : Direction Générale des Impôts - Cadastre ; mise à jour : 2009"/>
  </way>
  <way id="20328603" version="9" timestamp="2011-08-14T17:40:21Z" uid="466374" user="rando67" changeset="9018713">
    <nd ref="243760091"/>
    <nd ref="215845513"/>
    <nd ref="1398875118"/>
    <nd ref="1390080512"/>
    <nd ref="215874285"/>
    <nd ref="215874286"/>
    <nd ref="215874288"/>
    <nd ref="215874290"/>
    <nd ref="215874293"/>
    <nd ref="215874295"/>
    <nd ref="215874297"/>
    <nd ref="215874298"/>
    <nd ref="215874300"/>
    <nd ref="215874302"/>
    <nd ref="243760269"/>
    <nd ref="243760268"/>
    <tag k="bridge" v="no"/>
    <tag k="highway" v="motorway_link"/>
    <tag k="lanes" v="1"/>
    <tag k="oneway" v="yes"/>
    <tag k="source" v="cadastre-dgi-fr source : Direction Générale des Impôts - Cadastre ; mise à jour : 2009"/>
  </way>
  <way id="20328627" version="3" timestamp="2010-02-23T07:39:25Z" uid="7617" user="Franc" changeset="3949884">
    <nd ref="215873845"/>
    <nd ref="215875325"/>
    <nd ref="215874858"/>
    <tag k="highway" v="service"/>
    <tag k="name" v="Bogie Lane"/>
  </way>
  <way id="20328714" version="2" timestamp="2010-02-20T15:24:14Z" uid="103576" user="DiverCTH" changeset="3924452">
    <nd ref="215876493"/>
    <nd ref="215876496"/>
    <nd ref="215876499"/>
    <nd ref="215876504"/>
    <nd ref="215876508"/>
    <nd ref="215876512"/>
    <nd ref="215876516"/>
    <nd ref="215876519"/>
    <nd ref="215876523"/>
    <nd ref="215876528"/>
    <nd ref="215876534"/>
    <nd ref="215876538"/>
    <nd ref="215876539"/>
    <nd ref="215876542"/>
    <nd ref="215876547"/>
    <nd ref="215876551"/>
    <nd ref="215876556"/>
    <nd ref="215876559"/>
    <nd ref="215876563"/>
    <nd ref="215876567"/>
    <nd ref="215876571"/>
    <nd ref="215876574"/>
    <nd ref="215876579"/>
    <nd ref="215876583"/>
    <nd ref="215876588"/>
    <nd ref="215876593"/>
    <nd ref="215876597"/>
    <nd ref="215876601"/>
    <nd ref="215876606"/>
    <nd ref="215876611"/>
    <nd ref="215876615"/>
    <nd ref="215876618"/>
    <nd ref="215876621"/>
    <nd ref="215876624"/>
    <nd ref="215876627"/>
    <nd ref="215876631"/>
    <nd ref="215876635"/>
    <nd ref="215876640"/>
    <nd ref="215876645"/>
    <nd ref="215876648"/>
    <nd ref="215876652"/>
    <nd ref="215876657"/>
    <nd ref="215876661"/>
    <nd ref="215876667"/>
    <nd ref="215829902"/>
    <nd ref="215876671"/>
    <nd ref="215876676"/>
    <nd ref="215876680"/>
    <nd ref="215876685"/>
    <nd ref="215876688"/>
    <nd ref="215876692"/>
    <nd ref="215876697"/>
    <nd ref="215876703"/>
    <nd ref="215876708"/>
    <nd ref="215876713"/>
    <nd ref="215876717"/>
    <nd ref="215817719"/>
    <tag k="highway" v="residential"/>
    <tag k="name" v="Wessex Hundred"/>
    <tag k="tiger:cfcc" v="A41"/>
    <tag k="tiger:county" v="James City, VA"/>
    <tag k="tiger:name_base" v="Wessex Hundred"/>
    <tag k="tiger:separated" v="no"/>
    <tag k="tiger:source" v="tiger_import_dch_v0.6_20070830"/>
    <tag k="tiger:tlid" v="103773800:103773801"/>
    <tag k="tiger:upload_uuid" v="bulk_upload.pl-1d7339a4-d01a-4de6-a4a2-ed7c943c098c"/>
    <tag k="tiger:zip_left" v="23185"/>
    <tag k="tiger:zip_right" v="23185"/>
  </way>
  <way id="20328841" version="7" timestamp="2008-10-25T02:34:12Z" uid="7617" user="Franc" changeset="561636">
    <nd ref="32658332"/>
    <nd ref="215873844"/>
    <nd ref="215872211"/>
    <nd ref="215879448"/>
    <nd ref="215902703"/>
    <nd ref="215879451"/>
    <nd ref="215903937"/>
    <nd ref="215879454"/>
    <nd ref="215907705"/>
    <nd ref="215904928"/>
    <nd ref="307341540"/>
    <nd ref="215878494"/>
    <tag k="created_by" v="Potlatch 0.6a"/>
    <tag k="highway" v="residential"/>
    <tag k="name" v="Bellevue Parade"/>
  </way>
  <way id="20328841" version="8" timestamp="2010-02-23T07:39:25Z" uid="7617" user="Franc" changeset="3949884">
    <nd ref="32658332"/>
    <nd ref="215873844"/>
    <nd ref="215872211"/>
    <nd ref="651272508"/>
    <tag k="highway" v="residential"/>
    <tag k="name" v="Bellevue Parade"/>
  </way>
  <way id="20328841" version="9" timestamp="2010-02-23T08:00:22Z" uid="7617" user="Franc" changeset="3950111">
    <nd ref="32658332"/>
    <nd ref="215873844"/>
    <nd ref="651276648"/>
    <tag k="highway" v="residential"/>
    <tag k="name" v="Bellevue Parade"/>
  </way>
  <way id="20328841" version="10" timestamp="2010-07-08T02:08:40Z" uid="74617" user="JohnSmith" changeset="5162525">
    <nd ref="32658332"/>
    <nd ref="215873844"/>
    <nd ref="651276648"/>
    <tag k="highway" v="residential"/>
    <tag k="maxspeed" v="50"/>
    <tag k="maxspeed:source" v="default residential speed limit in Australia"/>
    <tag k="name" v="Bellevue Parade"/>
  </way>
  <way id="20328841" version="11" timestamp="2012-01-15T21:10:36Z" uid="147510" user="woodpeck_fixbot" changeset="10402983">
    <nd ref="32658332"/>
    <nd ref="215873844"/>
    <nd ref="651276648"/>
    <tag k="highway" v="residential"/>
    <tag k="name" v="Bellevue Parade"/>
  </way>
  <way id="20328926" version="3" timestamp="2010-02-23T07:39:26Z" uid="7617" user="Franc" changeset="3949884">
    <nd ref="215880974"/>
    <nd ref="215881749"/>
    <nd ref="215881752"/>
    <nd ref="651272516"/>
    <tag k="highway" v="residential"/>
    <tag k="name" v="St George&apos;s Parade"/>
  </way>
  <way id="20328926" version="4" timestamp="2010-07-08T02:12:21Z" uid="74617" user="JohnSmith" changeset="5162525">
    <nd ref="215880974"/>
    <nd ref="215881749"/>
    <nd ref="215881752"/>
    <nd ref="651272516"/>
    <tag k="highway" v="residential"/>
    <tag k="maxspeed" v="50"/>
    <tag k="maxspeed:source" v="default residential speed limit in Australia"/>
    <tag k="name" v="St George&apos;s Parade"/>
  </way>
  <way id="20328926" version="5" timestamp="2011-02-11T09:20:00Z" uid="237525" user="aharvey" changeset="7253218">
    <nd ref="215880974"/>
    <nd ref="215881749"/>
    <nd ref="215881752"/>
    <nd ref="1146939688"/>
    <nd ref="651272516"/>
    <tag k="highway" v="residential"/>
    <tag k="maxspeed" v="50"/>
    <tag k="maxspeed:source" v="default residential speed limit in Australia"/>
    <tag k="name" v="St George&apos;s Parade"/>
  </way>
  <way id="20328926" version="6" timestamp="2012-01-15T21:10:37Z" uid="147510" user="woodpeck_fixbot" changeset="10402983">
    <nd ref="215880974"/>
    <nd ref="215881749"/>
    <nd ref="215881752"/>
    <nd ref="1146939688"/>
    <nd ref="651272516"/>
    <tag k="highway" v="residential"/>
    <tag k="name" v="St George&apos;s Parade"/>
  </way>
  <way id="20328930" version="6" timestamp="2008-02-18T22:15:53Z" uid="6269" user="Mueck" changeset="149542">
    <nd ref="208661740"/>
    <nd ref="208661763"/>
    <nd ref="208661771"/>
    <nd ref="208661775"/>
    <tag k="created_by" v="Potlatch 0.7b"/>
    <tag k="highway" v="residential"/>
  </way>
  <way id="20328930" version="7" timestamp="2008-02-18T22:17:53Z" uid="6269" user="Mueck" changeset="149542">
    <nd ref="208661740"/>
    <nd ref="208661763"/>
    <nd ref="208661771"/>
    <nd ref="208661775"/>
    <tag k="created_by" v="Potlatch 0.7b"/>
    <tag k="highway" v="residential"/>
    <tag k="name" v="Eisenbahnstraße"/>
  </way>
  <way id="20328930" version="8" timestamp="2008-03-13T00:36:11Z" uid="6269" user="Mueck" changeset="313357">
    <nd ref="208661740"/>
    <nd ref="251836417"/>
    <nd ref="208661763"/>
    <nd ref="208661771"/>
    <nd ref="208661775"/>
    <tag k="created_by" v="Potlatch 0.7b"/>
    <tag k="highway" v="residential"/>
    <tag k="name" v="Eisenbahnstraße"/>
  </way>
  <way id="20328930" version="9" timestamp="2008-06-12T19:45:04Z" uid="6269" user="Mueck" changeset="141110">
    <nd ref="208661740"/>
    <nd ref="251836417"/>
    <nd ref="269963580"/>
    <nd ref="208661763"/>
    <nd ref="208661771"/>
    <nd ref="208661775"/>
    <tag k="created_by" v="Potlatch 0.9c"/>
    <tag k="highway" v="residential"/>
    <tag k="name" v="Eisenbahnstraße"/>
  </way>
  <way id="20328930" version="10" timestamp="2008-06-12T19:45:56Z" uid="6269" user="Mueck" changeset="141110">
    <nd ref="208661740"/>
    <nd ref="251836417"/>
    <nd ref="269963832"/>
    <nd ref="269963580"/>
    <nd ref="208661763"/>
    <nd ref="208661771"/>
    <nd ref="208661775"/>
    <tag k="created_by" v="Potlatch 0.9c"/>
    <tag k="highway" v="residential"/>
    <tag k="name" v="Eisenbahnstraße"/>
  </way>
  <way id="20328930" version="11" timestamp="2008-09-07T18:23:16Z" uid="6269" user="Mueck" changeset="562196">
    <nd ref="208661740"/>
    <nd ref="251836417"/>
    <nd ref="269963832"/>
    <nd ref="269963580"/>
    <nd ref="208661763"/>
    <nd ref="208661771"/>
    <nd ref="208661775"/>
    <tag k="created_by" v="Potlatch 0.10b"/>
    <tag k="goods" v="destination"/>
    <tag k="hgv" v="destination"/>
    <tag k="highway" v="residential"/>
    <tag k="name" v="Eisenbahnstraße"/>
  </way>
  <way id="20328930" version="12" timestamp="2009-01-31T00:47:00Z" uid="6269" user="Mueck" changeset="859135">
    <nd ref="208661740"/>
    <nd ref="251836417"/>
    <nd ref="269963832"/>
    <nd ref="269963580"/>
    <nd ref="208661763"/>
    <nd ref="208661771"/>
    <nd ref="208661775"/>
    <tag k="created_by" v="Potlatch 0.10f"/>
    <tag k="hgv" v="destination"/>
    <tag k="highway" v="residential"/>
    <tag k="name" v="Eisenbahnstraße"/>
  </way>
  <way id="20328930" version="13" timestamp="2009-07-30T14:36:43Z" uid="65364" user="Harry99" changeset="1985675">
    <nd ref="208661740"/>
    <nd ref="251836417"/>
    <nd ref="269963832"/>
    <nd ref="269963580"/>
    <nd ref="451822888"/>
    <nd ref="208661763"/>
    <nd ref="451822887"/>
    <nd ref="208661771"/>
    <nd ref="451822915"/>
    <nd ref="208661775"/>
    <tag k="footway" v="both"/>
    <tag k="hgv" v="destination"/>
    <tag k="highway" v="residential"/>
    <tag k="name" v="Eisenbahnstraße"/>
  </way>
  <way id="20328930" version="14" timestamp="2012-01-03T16:59:43Z" uid="65364" user="Harry99" changeset="10283199"/>
  <way id="20328932" version="3" timestamp="2008-02-10T00:28:46Z" uid="6269" user="Mueck" changeset="88956">
    <nd ref="208661758"/>
    <nd ref="208661752"/>
    <nd ref="211360130"/>
    <nd ref="208661748"/>
    <nd ref="208661740"/>
    <tag k="created_by" v="Potlatch 0.7"/>
    <tag k="highway" v="residential"/>
    <tag k="name" v="Eisenbahnstraße"/>
  </way>
  <way id="20328932" version="4" timestamp="2008-03-11T00:10:45Z" uid="6269" user="Mueck" changeset="302742">
    <nd ref="208661758"/>
    <nd ref="208661752"/>
    <nd ref="211360130"/>
    <nd ref="208661748"/>
    <nd ref="208661740"/>
    <tag k="created_by" v="Potlatch 0.7b"/>
    <tag k="highway" v="residential"/>
    <tag k="maxspeed" v="30"/>
    <tag k="name" v="Eisenbahnstraße"/>
  </way>
  <way id="20328932" version="5" timestamp="2008-03-11T00:11:25Z" uid="6269" user="Mueck" changeset="302742">
    <nd ref="246863990"/>
    <nd ref="246864931"/>
    <nd ref="215881895"/>
    <nd ref="208661758"/>
    <nd ref="208661752"/>
    <nd ref="211360130"/>
    <nd ref="208661748"/>
    <nd ref="208661740"/>
    <tag k="created_by" v="Potlatch 0.7b"/>
    <tag k="highway" v="residential"/>
    <tag k="maxspeed" v="30"/>
    <tag k="name" v="Eisenbahnstraße"/>
  </way>
  <way id="20328932" version="6" timestamp="2008-05-16T13:22:56Z" uid="6269" user="Mueck" changeset="459212">
    <nd ref="246863990"/>
    <nd ref="264899280"/>
    <nd ref="246864931"/>
    <nd ref="215881895"/>
    <nd ref="208661758"/>
    <nd ref="208661752"/>
    <nd ref="211360130"/>
    <nd ref="208661748"/>
    <nd ref="208661740"/>
    <tag k="created_by" v="Potlatch 0.9a"/>
    <tag k="highway" v="residential"/>
    <tag k="maxspeed" v="30"/>
    <tag k="name" v="Eisenbahnstraße"/>
  </way>
  <way id="20328932" version="7" timestamp="2008-09-07T18:16:22Z" uid="6269" user="Mueck" changeset="562196">
    <nd ref="246863990"/>
    <nd ref="264899280"/>
    <nd ref="246864931"/>
    <nd ref="215881895"/>
    <nd ref="208661758"/>
    <nd ref="208661752"/>
    <nd ref="211360130"/>
    <nd ref="208661748"/>
    <nd ref="208661740"/>
    <tag k="created_by" v="Potlatch 0.10b"/>
    <tag k="goods" v="destination"/>
    <tag k="hgv" v="destination"/>
    <tag k="highway" v="residential"/>
    <tag k="maxspeed" v="30"/>
    <tag k="name" v="Eisenbahnstraße"/>
  </way>
  <way id="20328932" version="8" timestamp="2009-01-31T00:34:07Z" uid="6269" user="Mueck" changeset="859135">
    <nd ref="246863990"/>
    <nd ref="264899280"/>
    <nd ref="246864931"/>
    <nd ref="215881895"/>
    <nd ref="208661758"/>
    <nd ref="208661752"/>
    <nd ref="211360130"/>
    <nd ref="208661748"/>
    <nd ref="208661740"/>
    <tag k="created_by" v="Potlatch 0.10f"/>
    <tag k="hgv" v="destination"/>
    <tag k="highway" v="residential"/>
    <tag k="maxspeed" v="30"/>
    <tag k="name" v="Eisenbahnstraße"/>
  </way>
  <way id="20328932" version="9" timestamp="2011-04-15T21:20:26Z" uid="107674" user="GeoCounter" changeset="7873826">
    <nd ref="246863990"/>
    <nd ref="264899280"/>
    <nd ref="246864931"/>
    <nd ref="215881895"/>
    <nd ref="208661758"/>
    <tag k="hgv" v="destination"/>
    <tag k="highway" v="residential"/>
    <tag k="maxspeed" v="30"/>
    <tag k="name" v="Eisenbahnstraße"/>
  </way>
  <way id="20328932" version="10" timestamp="2012-01-01T14:39:09Z" uid="65364" user="Harry99" changeset="10260767">
    <nd ref="246863990"/>
    <nd ref="264899280"/>
    <nd ref="1572707336"/>
    <nd ref="1572707351"/>
    <nd ref="215881895"/>
    <nd ref="208661758"/>
    <tag k="hgv" v="destination"/>
    <tag k="highway" v="residential"/>
    <tag k="maxspeed" v="30"/>
    <tag k="name" v="Eisenbahnstraße"/>
  </way>
  <way id="20328932" version="11" timestamp="2012-01-05T10:32:53Z" uid="65364" user="Harry99" changeset="10299221">
    <nd ref="246863990"/>
    <nd ref="264899280"/>
    <nd ref="1572707336"/>
    <nd ref="1572707351"/>
    <nd ref="215881895"/>
    <nd ref="1577924982"/>
    <tag k="hgv" v="destination"/>
    <tag k="highway" v="residential"/>
    <tag k="maxspeed" v="30"/>
    <tag k="name" v="Eisenbahnstraße"/>
  </way>
  <way id="20328932" version="12" timestamp="2012-01-05T21:39:06Z" uid="65364" user="Harry99" changeset="10305824"/>
  <way id="20328030" version="6" timestamp="2012-07-20T08:30:28Z" uid="722137" user="OSMF Redaction Account" changeset="12368378">
    <nd ref="215862894"/>
    <nd ref="215863388"/>
    <nd ref="215863390"/>
    <nd ref="215865970"/>
    <nd ref="215863392"/>
    <tag k="highway" v="residential"/>
    <tag k="name" v="Norman Street"/>
  </way>
  <way id="20328030" version="7" timestamp="2012-07-25T03:52:27Z" uid="44938" user="ianlopez1115" changeset="12480500">
    <nd ref="215862894"/>
    <nd ref="215863388"/>
    <nd ref="1837218253"/>
    <nd ref="215863390"/>
    <nd ref="215865970"/>
    <nd ref="215863392"/>
    <tag k="highway" v="residential"/>
    <tag k="name" v="Norman Street"/>
  </way>
  <way id="20328053" version="5" timestamp="2012-07-20T08:30:28Z" uid="722137" user="OSMF Redaction Account" changeset="12368378">
    <nd ref="215863388"/>
    <nd ref="215863874"/>
    <tag k="highway" v="service"/>
  </way>
  <way id="20328053" version="6" timestamp="2012-07-25T03:52:32Z" uid="44938" user="ianlopez1115" changeset="12480500">
    <nd ref="215863388"/>
    <nd ref="215863874"/>
    <nd ref="1837218252"/>
    <nd ref="215863875"/>
    <tag k="highway" v="service"/>
  </way>
  <way id="20328139" version="6" timestamp="2012-08-15T20:07:38Z" uid="18675" user="JeLuF" changeset="12743473">
    <nd ref="215864536"/>
    <nd ref="215865969"/>
    <nd ref="1867805108"/>
    <nd ref="215866966"/>
    <nd ref="215865970"/>
    <nd ref="891759648"/>
    <nd ref="215865971"/>
    <nd ref="215865972"/>
    <tag k="highway" v="residential"/>
    <tag k="name" v="Illawarra Street"/>
  </way>
  <way id="20328417" version="7" timestamp="2012-07-20T08:30:21Z" uid="722137" user="OSMF Redaction Account" changeset="12368378">
    <nd ref="215870033"/>
    <nd ref="215872209"/>
    <nd ref="215866967"/>
    <nd ref="215920835"/>
    <nd ref="215863392"/>
    <nd ref="215870969"/>
    <tag k="highway" v="residential"/>
    <tag k="name" v="Noble Street"/>
  </way>
  <way id="20328417" version="8" timestamp="2012-08-15T20:07:40Z" uid="18675" user="JeLuF" changeset="12743473">
    <nd ref="215870033"/>
    <nd ref="215872209"/>
    <nd ref="1867805160"/>
    <nd ref="215866967"/>
    <nd ref="215920835"/>
    <nd ref="215863392"/>
    <nd ref="215870969"/>
    <tag k="highway" v="residential"/>
    <tag k="name" v="Noble Street"/>
  </way>
  <way id="20328466" version="9" timestamp="2012-07-20T08:30:22Z" uid="722137" user="OSMF Redaction Account" changeset="12368378">
    <nd ref="215872209"/>
    <nd ref="215873543"/>
    <nd ref="215874858"/>
    <tag k="highway" v="residential"/>
    <tag k="name" v="First Avenue"/>
  </way>
  <way id="20328561" version="7" timestamp="2012-07-20T08:30:25Z" uid="722137" user="OSMF Redaction Account" changeset="12368378">
    <nd ref="215872258"/>
    <nd ref="215875719"/>
    <nd ref="215873543"/>
    <tag k="highway" v="residential"/>
    <tag k="name" v="Woids Avenue"/>
  </way>
  <way id="20328627" version="4" timestamp="2012-08-15T19:57:16Z" uid="18675" user="JeLuF" changeset="12743352">
    <nd ref="215873845"/>
    <nd ref="215875325"/>
    <nd ref="215874858"/>
    <nd ref="1867780149"/>
    <tag k="highway" v="service"/>
    <tag k="name" v="Bogie Lane"/>
  </way>
  <way id="20328841" version="12" timestamp="2012-07-20T08:30:25Z" uid="722137" user="OSMF Redaction Account" changeset="12368378">
    <nd ref="32658332"/>
    <nd ref="215873844"/>
    <tag k="highway" v="residential"/>
    <tag k="name" v="Bellevue Parade"/>
  </way>
  <way id="20328841" version="13" timestamp="2012-07-25T03:52:25Z" uid="44938" user="ianlopez1115" changeset="12480500">
    <nd ref="32658332"/>
    <nd ref="215873844"/>
    <nd ref="1837218246"/>
    <nd ref="1837218251"/>
    <nd ref="1837218260"/>
    <nd ref="1837218261"/>
    <tag k="highway" v="residential"/>
    <tag k="name" v="Bellevue Parade"/>
  </way>
  <way id="20328926" version="7" timestamp="2012-07-20T08:30:31Z" uid="722137" user="OSMF Redaction Account" changeset="12368378">
    <nd ref="215880974"/>
    <nd ref="215881749"/>
    <nd ref="215881752"/>
    <nd ref="1146939688"/>
    <tag k="highway" v="residential"/>
    <tag k="name" v="St George&apos;s Parade"/>
  </way>
  <way id="20328926" version="8" timestamp="2012-08-17T19:19:55Z" uid="44938" user="ianlopez1115" changeset="12766134">
    <nd ref="215880974"/>
    <nd ref="215881749"/>
    <nd ref="1870491509"/>
    <nd ref="1146939688"/>
    <tag k="highway" v="residential"/>
    <tag k="name" v="St George&apos;s Parade"/>
  </way>
</osm>
