<?xml version='1.0' encoding='UTF-8'?>
<osm version="0.6" generator="libosmium/2.20.0">
  <way id="20330001" version="4" timestamp="2010-07-08T02:08:41Z" uid="74617" user="JohnSmith" changeset="5162525">
    <nd ref="215905992"/>
    <nd ref="215908709"/>
    <nd ref="215906457"/>
    <nd ref="215907010"/>
    <nd ref="215906458"/>
    <tag k="highway" v="residential"/>
    <tag k="maxspeed" v="50"/>
    <tag k="maxspeed:source" v="default residential speed limit in Australia"/>
    <tag k="name" v="Bibby Street"/>
  </way>
  <way id="20330001" version="5" timestamp="2012-01-15T21:10:49Z" uid="147510" user="woodpeck_fixbot" changeset="10402983">
    <nd ref="215905992"/>
    <nd ref="215908709"/>
    <nd ref="215906457"/>
    <nd ref="215907010"/>
    <nd ref="215906458"/>
    <tag k="highway" v="residential"/>
    <tag k="name" v="Bibby Street"/>
  </way>
  <way id="20330027" version="2" timestamp="2010-07-07T21:35:54Z" uid="74617" user="JohnSmith" changeset="5161069">
    <nd ref="215906457"/>
    <nd ref="215906958"/>
    <tag k="highway" v="residential"/>
    <tag k="maxspeed" v="50"/>
    <tag k="maxspeed:source" v="default residential speed limit in Australia"/>
    <tag k="name" v="Paris Street"/>
  </way>
  <way id="20330027" version="3" timestamp="2012-01-15T21:10:50Z" uid="147510" user="woodpeck_fixbot" changeset="10402983">
    <nd ref="215906457"/>
    <nd ref="215906958"/>
    <tag k="highway" v="residential"/>
    <tag k="name" v="Paris Street"/>
  </way>
  <way id="20330027" version="4" timestamp="2012-03-21T02:44:02Z" uid="7523" user="inas" changeset="11047827">
    <nd ref="215906457"/>
    <nd ref="1684145989"/>
    <tag k="highway" v="residential"/>
    <tag k="name" v="Paris Street"/>
  </way>
  <way id="20330041" version="2" timestamp="2010-07-08T02:07:29Z" uid="74617" user="JohnSmith" changeset="5162525">
    <nd ref="215907010"/>
    <nd ref="215907456"/>
    <tag k="highway" v="residential"/>
    <tag k="maxspeed" v="50"/>
    <tag k="maxspeed:source" v="default residential speed limit in Australia"/>
    <tag k="name" v="Plant Street"/>
  </way>
  <way id="20330041" version="3" timestamp="2012-01-15T21:10:51Z" uid="147510" user="woodpeck_fixbot" changeset="10402983">
    <nd ref="215907010"/>
    <nd ref="215907456"/>
    <tag k="highway" v="residential"/>
    <tag k="name" v="Plant Street"/>
  </way>
  <way id="20330041" version="4" timestamp="2012-03-21T02:44:03Z" uid="7523" user="inas" changeset="11047827">
    <nd ref="215907010"/>
    <nd ref="1684145987"/>
    <tag k="highway" v="residential"/>
    <tag k="name" v="Plant Street"/>
  </way>
  <way id="20330096" version="3" timestamp="2010-02-23T10:59:15Z" uid="7617" user="Franc" changeset="3952179">
    <nd ref="215907705"/>
    <nd ref="651376549"/>
    <nd ref="215908309"/>
    <nd ref="215909153"/>
    <nd ref="181199473"/>
    <tag k="highway" v="residential"/>
    <tag k="name" v="Waterview Street"/>
  </way>
  <way id="20330096" version="4" timestamp="2010-07-08T02:08:07Z" uid="74617" user="JohnSmith" changeset="5162525">
    <nd ref="215907705"/>
    <nd ref="651376549"/>
    <nd ref="215908309"/>
    <nd ref="215909153"/>
    <nd ref="181199473"/>
    <tag k="highway" v="residential"/>
    <tag k="maxspeed" v="50"/>
    <tag k="maxspeed:source" v="default residential speed limit in Australia"/>
    <tag k="name" v="Waterview Street"/>
  </way>
  <way id="20330096" version="5" timestamp="2012-01-15T21:10:52Z" uid="147510" user="woodpeck_fixbot" changeset="10402983">
    <nd ref="215907705"/>
    <nd ref="651376549"/>
    <nd ref="215908309"/>
    <nd ref="215909153"/>
    <nd ref="181199473"/>
    <tag k="highway" v="residential"/>
    <tag k="name" v="Waterview Street"/>
  </way>
  <way id="20330165" version="3" timestamp="2010-07-08T02:08:19Z" uid="74617" user="JohnSmith" changeset="5162525">
    <nd ref="215908709"/>
    <nd ref="215909153"/>
    <nd ref="215909758"/>
    <nd ref="215909156"/>
    <tag k="highway" v="residential"/>
    <tag k="maxspeed" v="50"/>
    <tag k="maxspeed:source" v="default residential speed limit in Australia"/>
    <tag k="name" v="Woids Avenue"/>
  </way>
  <way id="20330165" version="4" timestamp="2012-01-15T21:10:53Z" uid="147510" user="woodpeck_fixbot" changeset="10402983">
    <nd ref="215908709"/>
    <nd ref="215909153"/>
    <nd ref="215909758"/>
    <nd ref="215909156"/>
    <tag k="highway" v="residential"/>
    <tag k="name" v="Woids Avenue"/>
  </way>
  <way id="20330424" version="2" timestamp="2010-02-23T07:39:27Z" uid="7617" user="Franc" changeset="3949884">
    <nd ref="215913024"/>
    <nd ref="651272496"/>
    <tag k="highway" v="residential"/>
    <tag k="name" v="King Street"/>
    <tag k="restriction" v="school_zone"/>
  </way>
  <way id="20330424" version="3" timestamp="2010-07-08T02:12:47Z" uid="74617" user="JohnSmith" changeset="5162525">
    <nd ref="215913024"/>
    <nd ref="651272496"/>
    <tag k="highway" v="residential"/>
    <tag k="maxspeed" v="50"/>
    <tag k="maxspeed:source" v="default residential speed limit in Australia"/>
    <tag k="name" v="King Street"/>
    <tag k="restriction" v="school_zone"/>
  </way>
  <way id="20330424" version="4" timestamp="2012-01-15T21:10:53Z" uid="147510" user="woodpeck_fixbot" changeset="10402983">
    <nd ref="215913024"/>
    <nd ref="651272496"/>
    <tag k="highway" v="residential"/>
    <tag k="name" v="King Street"/>
    <tag k="restriction" v="school_zone"/>
  </way>
  <way id="20330480" version="2" timestamp="2010-07-08T02:09:35Z" uid="74617" user="JohnSmith" changeset="5162525">
    <nd ref="215914483"/>
    <nd ref="215914485"/>
    <nd ref="215914486"/>
    <tag k="highway" v="residential"/>
    <tag k="maxspeed" v="50"/>
    <tag k="maxspeed:source" v="default residential speed limit in Australia"/>
    <tag k="name" v="Rena Street"/>
  </way>
  <way id="20330480" version="3" timestamp="2012-01-15T21:10:55Z" uid="147510" user="woodpeck_fixbot" changeset="10402983">
    <nd ref="215914483"/>
    <nd ref="215914485"/>
    <nd ref="215914486"/>
    <tag k="highway" v="residential"/>
    <tag k="name" v="Rena Street"/>
  </way>
  <way id="20330545" version="4" timestamp="2009-11-30T09:37:23Z" uid="7617" user="Franc" changeset="3254049">
    <nd ref="215915233"/>
    <nd ref="215916224"/>
    <nd ref="215915704"/>
    <tag k="highway" v="residential"/>
    <tag k="name" v="Forster Stret"/>
  </way>
  <way id="20330545" version="5" timestamp="2010-02-23T10:59:14Z" uid="7617" user="Franc" changeset="3952179">
    <nd ref="215915233"/>
    <nd ref="215916224"/>
    <nd ref="651376361"/>
    <tag k="highway" v="residential"/>
    <tag k="name" v="Forster Stret"/>
    <tag k="restriction" v="school_zone"/>
  </way>
  <way id="20330545" version="6" timestamp="2010-06-02T13:34:12Z" uid="4467" user="Rosscoe" changeset="4884139">
    <nd ref="215915233"/>
    <nd ref="215916224"/>
    <nd ref="651376361"/>
    <tag k="highway" v="residential"/>
    <tag k="name" v="Forster Street"/>
    <tag k="restriction" v="school_zone"/>
  </way>
  <way id="20330545" version="7" timestamp="2010-07-07T21:29:24Z" uid="74617" user="JohnSmith" changeset="5161069">
    <nd ref="215915233"/>
    <nd ref="215916224"/>
    <nd ref="651376361"/>
    <tag k="highway" v="residential"/>
    <tag k="maxspeed" v="50"/>
    <tag k="maxspeed:source" v="default residential speed limit in Australia"/>
    <tag k="name" v="Forster Street"/>
    <tag k="restriction" v="school_zone"/>
  </way>
  <way id="20330545" version="8" timestamp="2012-01-15T21:10:56Z" uid="147510" user="woodpeck_fixbot" changeset="10402983">
    <nd ref="215915233"/>
    <nd ref="215916224"/>
    <nd ref="651376361"/>
    <tag k="highway" v="residential"/>
    <tag k="name" v="Forster Street"/>
    <tag k="restriction" v="school_zone"/>
  </way>
  <way id="20330569" version="2" timestamp="2010-07-07T21:27:56Z" uid="74617" user="JohnSmith" changeset="5161069">
    <nd ref="215915704"/>
    <nd ref="215916182"/>
    <tag k="highway" v="residential"/>
    <tag k="maxspeed" v="50"/>
    <tag k="maxspeed:source" v="default residential speed limit in Australia"/>
    <tag k="name" v="Betts Avenue"/>
  </way>
  <way id="20330569" version="3" timestamp="2012-01-15T21:10:57Z" uid="147510" user="woodpeck_fixbot" changeset="10402983">
    <nd ref="215915704"/>
    <nd ref="215916182"/>
    <tag k="highway" v="residential"/>
    <tag k="name" v="Betts Avenue"/>
  </way>
  <way id="20330615" version="3" timestamp="2009-11-30T09:37:23Z" uid="7617" user="Franc" changeset="3254049">
    <nd ref="215916224"/>
    <nd ref="215918443"/>
    <nd ref="575727075"/>
    <tag k="highway" v="residential"/>
    <tag k="name" v="Dwyer Avenue"/>
  </way>
  <way id="20330615" version="4" timestamp="2010-07-07T21:31:19Z" uid="74617" user="JohnSmith" changeset="5161069">
    <nd ref="215916224"/>
    <nd ref="215918443"/>
    <nd ref="575727075"/>
    <tag k="highway" v="residential"/>
    <tag k="maxspeed" v="50"/>
    <tag k="maxspeed:source" v="default residential speed limit in Australia"/>
    <tag k="name" v="Dwyer Avenue"/>
  </way>
  <way id="20330615" version="5" timestamp="2012-01-15T21:10:58Z" uid="147510" user="woodpeck_fixbot" changeset="10402983">
    <nd ref="215916224"/>
    <nd ref="215918443"/>
    <nd ref="575727075"/>
    <tag k="highway" v="residential"/>
    <tag k="name" v="Dwyer Avenue"/>
  </way>
  <way id="20330695" version="2" timestamp="2008-10-25T02:34:13Z" uid="7617" user="Franc" changeset="561636"/>
  <way id="20330764" version="2" timestamp="2009-11-30T09:37:26Z" uid="7617" user="Franc" changeset="3254049"/>
  <way id="20330853" version="2" timestamp="2010-07-08T02:13:25Z" uid="74617" user="JohnSmith" changeset="5162525">
    <nd ref="215920475"/>
    <nd ref="215920835"/>
    <tag k="highway" v="residential"/>
    <tag k="maxspeed" v="50"/>
    <tag k="maxspeed:source" v="default residential speed limit in Australia"/>
    <tag k="name" v="Meade Street"/>
  </way>
  <way id="20330853" version="3" timestamp="2012-01-15T21:10:59Z" uid="147510" user="woodpeck_fixbot" changeset="10402983">
    <nd ref="215920475"/>
    <nd ref="215920835"/>
    <tag k="highway" v="residential"/>
    <tag k="name" v="Meade Street"/>
  </way>
  <way id="20330883" version="4" timestamp="2010-04-22T13:39:39Z" uid="43967" user="railsnail" changeset="4495286">
    <nd ref="207147180"/>
    <nd ref="207147182"/>
    <tag k="bridge" v="true"/>
    <tag k="cycleway" v="track"/>
    <tag k="highway" v="tertiary"/>
    <tag k="layer" v="1"/>
    <tag k="name" v="Grafenbachstraße"/>
  </way>
  <way id="20330883" version="5" timestamp="2010-07-21T23:17:00Z" uid="45481" user="borisC" changeset="5283273">
    <nd ref="207147180"/>
    <nd ref="207147182"/>
    <tag k="bridge" v="true"/>
    <tag k="cycleway" v="track"/>
    <tag k="highway" v="tertiary"/>
    <tag k="layer" v="1"/>
    <tag k="name" v="Grafenbachstraße"/>
    <tag k="ref" v="L318"/>
  </way>
  <way id="20330883" version="6" timestamp="2010-10-16T15:50:39Z" uid="78656" user="Walter Schlögl" changeset="6058857">
    <nd ref="207147180"/>
    <nd ref="207147182"/>
    <tag k="bridge" v="yes"/>
    <tag k="cycleway" v="track"/>
    <tag k="highway" v="tertiary"/>
    <tag k="layer" v="1"/>
    <tag k="name" v="Grafenbachstraße"/>
    <tag k="ref" v="L318"/>
  </way>
  <way id="20330883" version="7" timestamp="2012-02-15T11:34:35Z" uid="45481" user="borisC" changeset="10691150"/>
  <way id="20330885" version="2" timestamp="2008-06-19T07:14:34Z" uid="43967" user="railsnail" changeset="227214">
    <nd ref="207147180"/>
    <nd ref="207147017"/>
    <nd ref="207147011"/>
    <nd ref="271280374"/>
    <nd ref="207147021"/>
    <nd ref="207147015"/>
    <nd ref="207147008"/>
    <nd ref="207147002"/>
    <nd ref="207147012"/>
    <nd ref="207145996"/>
    <nd ref="207147006"/>
    <nd ref="20824908"/>
    <tag k="created_by" v="Potlatch 0.9c"/>
    <tag k="highway" v="residential"/>
    <tag k="name" v="Grafenbachstraße"/>
  </way>
  <way id="20330885" version="3" timestamp="2008-08-22T18:51:54Z" uid="45481" user="borisC" changeset="370795">
    <nd ref="207147180"/>
    <nd ref="207147017"/>
    <nd ref="207147011"/>
    <nd ref="271280374"/>
    <nd ref="207147021"/>
    <nd ref="207147015"/>
    <nd ref="207147008"/>
    <nd ref="207147002"/>
    <nd ref="207147012"/>
    <nd ref="207145996"/>
    <nd ref="207147006"/>
    <nd ref="20824908"/>
    <tag k="created_by" v="Potlatch 0.10b"/>
    <tag k="highway" v="tertiary"/>
    <tag k="name" v="Grafenbachstraße"/>
    <tag k="ref" v="L318"/>
  </way>
  <way id="20330885" version="4" timestamp="2009-03-18T17:03:53Z" uid="43967" user="railsnail" changeset="827132">
    <nd ref="207147180"/>
    <nd ref="207147017"/>
    <nd ref="207147011"/>
    <nd ref="271280374"/>
    <nd ref="207147021"/>
    <nd ref="207147015"/>
    <nd ref="207147008"/>
    <nd ref="207147002"/>
    <nd ref="207147012"/>
    <tag k="created_by" v="Potlatch 0.10f"/>
    <tag k="highway" v="tertiary"/>
    <tag k="name" v="Grafenbachstraße"/>
    <tag k="ref" v="L318"/>
  </way>
  <way id="20330885" version="5" timestamp="2009-03-18T17:03:56Z" uid="43967" user="railsnail" changeset="827132">
    <nd ref="207147180"/>
    <nd ref="207147017"/>
    <nd ref="207147011"/>
    <nd ref="271280374"/>
    <nd ref="207147021"/>
    <nd ref="207147015"/>
    <nd ref="207147008"/>
    <tag k="created_by" v="Potlatch 0.10f"/>
    <tag k="highway" v="tertiary"/>
    <tag k="name" v="Grafenbachstraße"/>
    <tag k="ref" v="L318"/>
  </way>
  <way id="20330885" version="6" timestamp="2009-11-20T16:51:19Z" uid="45481" user="borisC" changeset="3169841">
    <nd ref="207147180"/>
    <nd ref="207147017"/>
    <nd ref="207147011"/>
    <nd ref="271280374"/>
    <nd ref="207147021"/>
    <tag k="cycleway" v="track"/>
    <tag k="highway" v="tertiary"/>
    <tag k="name" v="Grafenbachstraße"/>
    <tag k="ref" v="L318"/>
  </way>
  <way id="20330885" version="7" timestamp="2012-02-15T11:34:35Z" uid="45481" user="borisC" changeset="10691150"/>
  <way id="20330886" version="2" timestamp="2008-07-31T20:17:32Z" uid="43967" user="railsnail" changeset="638362">
    <nd ref="33793742"/>
    <nd ref="282553904"/>
    <nd ref="33793748"/>
    <tag k="bridge" v="true"/>
    <tag k="created_by" v="Potlatch 0.10a"/>
    <tag k="highway" v="primary"/>
    <tag k="layer" v="1"/>
    <tag k="name" v="Felbertauernstraße"/>
    <tag k="ref" v="B108"/>
  </way>
  <way id="20330886" version="3" timestamp="2009-10-16T16:32:50Z" uid="43967" user="railsnail" changeset="2866192">
    <nd ref="33793742"/>
    <nd ref="282553904"/>
    <nd ref="533796035"/>
    <nd ref="33793748"/>
    <tag k="bridge" v="true"/>
    <tag k="highway" v="primary"/>
    <tag k="layer" v="1"/>
    <tag k="name" v="Felbertauernstraße"/>
    <tag k="ref" v="B108"/>
  </way>
  <way id="20330886" version="4" timestamp="2010-10-16T15:50:45Z" uid="78656" user="Walter Schlögl" changeset="6058857">
    <nd ref="33793742"/>
    <nd ref="282553904"/>
    <nd ref="533796035"/>
    <nd ref="33793748"/>
    <tag k="bridge" v="yes"/>
    <tag k="highway" v="primary"/>
    <tag k="layer" v="1"/>
    <tag k="name" v="Felbertauernstraße"/>
    <tag k="ref" v="B108"/>
  </way>
  <way id="20330886" version="5" timestamp="2011-07-16T17:34:14Z" uid="28378" user="PHerison" changeset="8741455">
    <nd ref="33793742"/>
    <nd ref="282553904"/>
    <nd ref="533796035"/>
    <tag k="highway" v="primary"/>
    <tag k="name" v="Felbertauernstraße"/>
    <tag k="ref" v="B108"/>
  </way>
  <way id="20330886" version="6" timestamp="2011-08-18T14:26:36Z" uid="81244" user="rurseekatze" changeset="9057386">
    <nd ref="33793742"/>
    <nd ref="1403398144"/>
    <nd ref="282553904"/>
    <nd ref="533796035"/>
    <tag k="highway" v="primary"/>
    <tag k="maxspeed" v="80"/>
    <tag k="name" v="Felbertauernstraße"/>
    <tag k="ref" v="B108"/>
  </way>
  <way id="20330886" version="7" timestamp="2011-08-18T16:02:25Z" uid="81244" user="rurseekatze" changeset="9058141">
    <nd ref="33793742"/>
    <nd ref="1403398144"/>
    <nd ref="282553904"/>
    <nd ref="533796035"/>
    <tag k="highway" v="primary"/>
    <tag k="lit" v="no"/>
    <tag k="maxspeed" v="80"/>
    <tag k="name" v="Felbertauernstraße"/>
    <tag k="ref" v="B108"/>
  </way>
  <way id="20330886" version="8" timestamp="2012-02-13T18:01:40Z" uid="597314" user="joe123" changeset="10675481">
    <nd ref="33793742"/>
    <nd ref="1403398144"/>
    <nd ref="282553904"/>
    <nd ref="533796035"/>
    <tag k="highway" v="primary"/>
    <tag k="lit" v="no"/>
    <tag k="maxspeed" v="80"/>
    <tag k="name" v="Felbertauernstraße"/>
    <tag k="ref" v="B108"/>
  </way>
  <way id="20330888" version="2" timestamp="2008-07-24T15:42:52Z" uid="43967" user="railsnail" changeset="582127">
    <nd ref="33793748"/>
    <nd ref="33793751"/>
    <nd ref="33793755"/>
    <nd ref="280745196"/>
    <nd ref="33793757"/>
    <nd ref="207149763"/>
    <nd ref="33793761"/>
    <nd ref="33793764"/>
    <nd ref="33793767"/>
    <nd ref="33793770"/>
    <nd ref="33793772"/>
    <nd ref="33793776"/>
    <tag k="created_by" v="Potlatch 0.10"/>
    <tag k="highway" v="primary"/>
    <tag k="name" v="Felbertauernstraße"/>
    <tag k="ref" v="B108"/>
  </way>
  <way id="20330888" version="3" timestamp="2009-01-09T19:26:48Z" uid="43967" user="railsnail" changeset="763383">
    <nd ref="33793748"/>
    <nd ref="33793751"/>
    <nd ref="33793755"/>
    <nd ref="280745196"/>
    <nd ref="33793757"/>
    <nd ref="207149763"/>
    <nd ref="33793761"/>
    <nd ref="33793764"/>
    <nd ref="33793767"/>
    <nd ref="33793770"/>
    <nd ref="33793772"/>
    <nd ref="33793776"/>
    <tag k="created_by" v="Potlatch 0.10f"/>
    <tag k="highway" v="primary"/>
    <tag k="is_in" v="...,Bezirk Lienz,Tirol,Österreich,Europa"/>
    <tag k="name" v="Felbertauern Bundesstraße"/>
    <tag k="note" v="imported from plan.at; (C)=CC-by-sa or oDBL; feel free to change if necessary"/>
    <tag k="plan_at:acad_id" v="lz6E5"/>
    <tag k="ref" v="108"/>
    <tag k="source" v="plan.at 2008"/>
    <tag k="uploaded_by" v="Wolfgang W. Wasserburger"/>
  </way>
  <way id="20330888" version="4" timestamp="2009-01-10T16:32:44Z" uid="43967" user="railsnail" changeset="767996">
    <nd ref="33793748"/>
    <nd ref="33793751"/>
    <nd ref="33793755"/>
    <nd ref="280745196"/>
    <nd ref="33793757"/>
    <nd ref="207149763"/>
    <nd ref="33793761"/>
    <nd ref="33793764"/>
    <nd ref="33793767"/>
    <nd ref="33793770"/>
    <nd ref="33793772"/>
    <nd ref="33793776"/>
    <tag k="addr:postcode" v="9900"/>
    <tag k="at:maxspeed" v="Ortsgebiet"/>
    <tag k="created_by" v="Potlatch 0.10f"/>
    <tag k="highway" v="primary"/>
    <tag k="is_in" v="...,Bezirk Lienz,Tirol,Österreich,Europa"/>
    <tag k="name" v="Iseltaler Straße"/>
    <tag k="note" v="imported from plan.at; (C)=CC-by-sa or oDBL; feel free to change if necessary"/>
    <tag k="plan_at:acad_id" v="lzE2"/>
    <tag k="ref" v="108"/>
    <tag k="source" v="plan.at 2008"/>
    <tag k="uploaded_by" v="Wolfgang W. Wasserburger"/>
  </way>
  <way id="20330888" version="5" timestamp="2009-01-10T16:32:51Z" uid="43967" user="railsnail" changeset="767996">
    <nd ref="33793748"/>
    <nd ref="33793751"/>
    <nd ref="33793755"/>
    <nd ref="280745196"/>
    <nd ref="33793757"/>
    <nd ref="207149763"/>
    <nd ref="33793761"/>
    <nd ref="33793764"/>
    <nd ref="33793767"/>
    <nd ref="33793770"/>
    <nd ref="33793772"/>
    <nd ref="33793776"/>
    <tag k="addr:postcode" v="9900"/>
    <tag k="at:maxspeed" v="Ortsgebiet"/>
    <tag k="created_by" v="Potlatch 0.10f"/>
    <tag k="highway" v="primary"/>
    <tag k="is_in" v="...,Bezirk Lienz,Tirol,Österreich,Europa"/>
    <tag k="name" v="Iseltaler Straße"/>
    <tag k="note" v="imported from plan.at; (C)=CC-by-sa or oDBL; feel free to change if necessary"/>
    <tag k="plan_at:acad_id" v="lzE2"/>
    <tag k="ref" v="108"/>
    <tag k="source" v="plan.at 2008"/>
    <tag k="uploaded_by" v="Wolfgang W. Wasserburger"/>
  </way>
  <way id="20330888" version="6" timestamp="2009-01-10T16:41:33Z" uid="43967" user="railsnail" changeset="767996">
    <nd ref="33793748"/>
    <nd ref="330925426"/>
    <nd ref="33793751"/>
    <nd ref="33793755"/>
    <nd ref="280745196"/>
    <nd ref="33793757"/>
    <nd ref="207149763"/>
    <nd ref="33793761"/>
    <nd ref="33793764"/>
    <nd ref="33793767"/>
    <nd ref="33793770"/>
    <nd ref="33793772"/>
    <nd ref="33793776"/>
    <tag k="addr:postcode" v="9900"/>
    <tag k="at:maxspeed" v="Ortsgebiet"/>
    <tag k="created_by" v="Potlatch 0.10f"/>
    <tag k="highway" v="primary"/>
    <tag k="is_in" v="...,Bezirk Lienz,Tirol,Österreich,Europa"/>
    <tag k="name" v="Iseltaler Straße"/>
    <tag k="note" v="imported from plan.at; (C)=CC-by-sa or oDBL; feel free to change if necessary"/>
    <tag k="plan_at:acad_id" v="lzE2"/>
    <tag k="ref" v="108"/>
    <tag k="source" v="plan.at 2008"/>
    <tag k="uploaded_by" v="Wolfgang W. Wasserburger"/>
  </way>
  <way id="20330888" version="7" timestamp="2009-01-10T16:42:03Z" uid="43967" user="railsnail" changeset="767996">
    <nd ref="33793748"/>
    <nd ref="330925426"/>
    <nd ref="33793751"/>
    <nd ref="330925634"/>
    <nd ref="33793755"/>
    <nd ref="280745196"/>
    <nd ref="33793757"/>
    <nd ref="207149763"/>
    <nd ref="33793761"/>
    <nd ref="33793764"/>
    <nd ref="33793767"/>
    <nd ref="33793770"/>
    <nd ref="33793772"/>
    <nd ref="33793776"/>
    <tag k="addr:postcode" v="9900"/>
    <tag k="at:maxspeed" v="Ortsgebiet"/>
    <tag k="created_by" v="Potlatch 0.10f"/>
    <tag k="highway" v="primary"/>
    <tag k="is_in" v="...,Bezirk Lienz,Tirol,Österreich,Europa"/>
    <tag k="name" v="Iseltaler Straße"/>
    <tag k="note" v="imported from plan.at; (C)=CC-by-sa or oDBL; feel free to change if necessary"/>
    <tag k="plan_at:acad_id" v="lzE2"/>
    <tag k="ref" v="108"/>
    <tag k="source" v="plan.at 2008"/>
    <tag k="uploaded_by" v="Wolfgang W. Wasserburger"/>
  </way>
  <way id="20330888" version="8" timestamp="2009-03-14T21:16:18Z" uid="43967" user="railsnail" changeset="808202">
    <nd ref="33793748"/>
    <nd ref="360430711"/>
    <nd ref="330925426"/>
    <nd ref="33793751"/>
    <nd ref="330925634"/>
    <nd ref="33793755"/>
    <nd ref="280745196"/>
    <nd ref="33793757"/>
    <nd ref="207149763"/>
    <nd ref="33793761"/>
    <nd ref="33793764"/>
    <nd ref="33793767"/>
    <nd ref="33793770"/>
    <nd ref="33793772"/>
    <nd ref="33793776"/>
    <tag k="addr:postcode" v="9900"/>
    <tag k="at:maxspeed" v="Ortsgebiet"/>
    <tag k="created_by" v="Potlatch 0.10f"/>
    <tag k="highway" v="primary"/>
    <tag k="is_in" v="...,Bezirk Lienz,Tirol,Österreich,Europa"/>
    <tag k="name" v="Iseltaler Straße"/>
    <tag k="note" v="imported from plan.at; (C)=CC-by-sa or oDBL; feel free to change if necessary"/>
    <tag k="plan_at:acad_id" v="lzE2"/>
    <tag k="ref" v="108"/>
    <tag k="source" v="plan.at 2008"/>
    <tag k="uploaded_by" v="Wolfgang W. Wasserburger"/>
  </way>
  <way id="20330888" version="9" timestamp="2009-04-07T11:40:50Z" uid="45481" user="borisC" changeset="302494">
    <nd ref="33793748"/>
    <nd ref="360430711"/>
    <nd ref="330925426"/>
    <nd ref="33793751"/>
    <nd ref="330925634"/>
    <nd ref="33793755"/>
    <nd ref="280745196"/>
    <nd ref="33793757"/>
    <nd ref="207149763"/>
    <nd ref="33793761"/>
    <nd ref="33793764"/>
    <nd ref="33793767"/>
    <nd ref="33793770"/>
    <nd ref="33793772"/>
    <nd ref="33793776"/>
    <tag k="addr:postcode" v="9900"/>
    <tag k="at:maxspeed" v="Ortsgebiet"/>
    <tag k="created_by" v="Potlatch 0.10f"/>
    <tag k="highway" v="primary"/>
    <tag k="is_in" v="...,Bezirk Lienz,Tirol,Österreich,Europa"/>
    <tag k="name" v="Iseltaler Straße"/>
    <tag k="note" v="imported from plan.at; (C)=CC-by-sa or oDBL; feel free to change if necessary"/>
    <tag k="plan_at:acad_id" v="lzE2"/>
    <tag k="ref" v="B108"/>
    <tag k="source" v="plan.at 2008"/>
    <tag k="uploaded_by" v="Wolfgang W. Wasserburger"/>
  </way>
  <way id="20330888" version="10" timestamp="2009-10-16T16:16:10Z" uid="43967" user="railsnail" changeset="2866192">
    <nd ref="33793748"/>
    <nd ref="360430711"/>
    <nd ref="330925426"/>
    <nd ref="33793751"/>
    <nd ref="330925634"/>
    <nd ref="33793755"/>
    <nd ref="280745196"/>
    <nd ref="33793757"/>
    <nd ref="207149763"/>
    <nd ref="33793761"/>
    <nd ref="33793764"/>
    <nd ref="33793767"/>
    <nd ref="33793770"/>
    <nd ref="33793772"/>
    <nd ref="33793776"/>
    <tag k="addr:postcode" v="9900"/>
    <tag k="at:maxspeed" v="Ortsgebiet"/>
    <tag k="highway" v="primary"/>
    <tag k="is_in" v="...,Bezirk Lienz,Tirol,Österreich,Europa"/>
    <tag k="name" v="Iseltaler Straße"/>
    <tag k="note" v="imported from plan.at; (C)=CC-by-sa or oDBL; feel free to change if necessary"/>
    <tag k="plan_at:acad_id" v="lzE2"/>
    <tag k="ref" v="B108"/>
    <tag k="source" v="plan.at 2008"/>
    <tag k="uploaded_by" v="Wolfgang W. Wasserburger"/>
  </way>
  <way id="20330888" version="11" timestamp="2010-03-22T20:54:25Z" uid="43967" user="railsnail" changeset="4206822">
    <nd ref="33793748"/>
    <nd ref="360430711"/>
    <nd ref="330925426"/>
    <nd ref="33793751"/>
    <nd ref="330925634"/>
    <nd ref="33793755"/>
    <nd ref="280745196"/>
    <nd ref="33793757"/>
    <nd ref="207149763"/>
    <nd ref="33793764"/>
    <nd ref="33793767"/>
    <nd ref="33793770"/>
    <nd ref="33793772"/>
    <nd ref="33793776"/>
    <tag k="addr:postcode" v="9900"/>
    <tag k="at:maxspeed" v="Ortsgebiet"/>
    <tag k="highway" v="primary"/>
    <tag k="is_in" v="...,Bezirk Lienz,Tirol,Österreich,Europa"/>
    <tag k="name" v="Iseltaler Straße"/>
    <tag k="note" v="imported from plan.at; (C)=CC-by-sa or oDBL; feel free to change if necessary"/>
    <tag k="plan_at:acad_id" v="lzE2"/>
    <tag k="ref" v="B108"/>
    <tag k="source" v="plan.at 2008"/>
    <tag k="uploaded_by" v="Wolfgang W. Wasserburger"/>
  </way>
  <way id="20330888" version="12" timestamp="2010-06-11T16:39:13Z" uid="95813" user="stefan_hochstoeger" changeset="4963764">
    <nd ref="33793748"/>
    <nd ref="360430711"/>
    <nd ref="330925426"/>
    <nd ref="33793751"/>
    <nd ref="330925634"/>
    <nd ref="33793755"/>
    <nd ref="280745196"/>
    <nd ref="33793757"/>
    <nd ref="207149763"/>
    <nd ref="33793764"/>
    <nd ref="33793767"/>
    <nd ref="33793770"/>
    <nd ref="33793772"/>
    <nd ref="33793776"/>
    <tag k="addr:postcode" v="9900"/>
    <tag k="at:maxspeed" v="Ortsgebiet"/>
    <tag k="highway" v="primary"/>
    <tag k="is_in" v="...,Bezirk Lienz,Tirol,Österreich,Europa"/>
    <tag k="name" v="Iseltaler Straße"/>
    <tag k="note" v="imported from plan.at; (C)=CC-by-sa or oDBL; feel free to change if necessary"/>
    <tag k="ref" v="B108"/>
    <tag k="source" v="plan.at 2008"/>
  </way>
  <way id="20330888" version="13" timestamp="2011-04-29T04:56:59Z" uid="45347" user="eriosw" changeset="8000389">
    <nd ref="33793748"/>
    <nd ref="360430711"/>
    <nd ref="330925426"/>
    <nd ref="33793751"/>
    <nd ref="330925634"/>
    <nd ref="33793755"/>
    <nd ref="280745196"/>
    <nd ref="33793757"/>
    <nd ref="207149763"/>
    <nd ref="33793764"/>
    <nd ref="33793767"/>
    <nd ref="33793770"/>
    <nd ref="33793772"/>
    <nd ref="33793776"/>
    <tag k="addr:postcode" v="9900"/>
    <tag k="highway" v="primary"/>
    <tag k="is_in" v="Lienz,Lienz,Tirol,Österreich,Europe"/>
    <tag k="name" v="Iseltaler Straße"/>
    <tag k="note" v="imported from plan.at; (C)=CC-by-sa or oDBL; feel free to change if necessary"/>
    <tag k="ref" v="B108"/>
    <tag k="source" v="plan.at 2008"/>
  </way>
  <way id="20330888" version="14" timestamp="2011-05-12T17:42:49Z" uid="45347" user="eriosw" changeset="8124505">
    <nd ref="33793748"/>
    <nd ref="360430711"/>
    <nd ref="330925426"/>
    <nd ref="33793751"/>
    <nd ref="330925634"/>
    <nd ref="33793755"/>
    <nd ref="280745196"/>
    <nd ref="33793757"/>
    <nd ref="207149763"/>
    <nd ref="33793764"/>
    <nd ref="33793767"/>
    <nd ref="33793770"/>
    <nd ref="33793772"/>
    <nd ref="33793776"/>
    <tag k="addr:postcode" v="9900"/>
    <tag k="highway" v="primary"/>
    <tag k="is_in" v="Lienz,Lienz,Tirol,Österreich,Europe"/>
    <tag k="name" v="Iseltaler Straße"/>
    <tag k="ref" v="B108"/>
    <tag k="source" v="plan.at 2008"/>
  </way>
  <way id="20330888" version="15" timestamp="2011-05-12T18:15:54Z" uid="45347" user="eriosw" changeset="8124781">
    <nd ref="33793748"/>
    <nd ref="360430711"/>
    <nd ref="330925426"/>
    <nd ref="33793751"/>
    <nd ref="330925634"/>
    <nd ref="33793755"/>
    <nd ref="1281887242"/>
    <nd ref="280745196"/>
    <nd ref="33793757"/>
    <nd ref="207149763"/>
    <nd ref="33793764"/>
    <nd ref="33793767"/>
    <nd ref="33793770"/>
    <nd ref="33793772"/>
    <nd ref="33793776"/>
    <tag k="addr:postcode" v="9900"/>
    <tag k="highway" v="primary"/>
    <tag k="is_in" v="Lienz,Lienz,Tirol,Österreich,Europe"/>
    <tag k="name" v="Iseltaler Straße"/>
    <tag k="ref" v="B108"/>
    <tag k="source" v="plan.at 2008"/>
  </way>
  <way id="20330888" version="16" timestamp="2011-07-16T17:34:14Z" uid="28378" user="PHerison" changeset="8741455">
    <nd ref="33793748"/>
    <nd ref="330925426"/>
    <nd ref="33793751"/>
    <nd ref="330925634"/>
    <nd ref="33793755"/>
    <nd ref="1281887242"/>
    <nd ref="280745196"/>
    <nd ref="33793757"/>
    <nd ref="207149763"/>
    <nd ref="33793764"/>
    <nd ref="33793767"/>
    <nd ref="33793770"/>
    <nd ref="33793772"/>
    <nd ref="33793776"/>
    <tag k="addr:postcode" v="9900"/>
    <tag k="highway" v="primary"/>
    <tag k="is_in" v="Lienz,Lienz,Tirol,Österreich,Europe"/>
    <tag k="name" v="Iseltaler Straße"/>
    <tag k="ref" v="B108"/>
    <tag k="source" v="plan.at 2008"/>
  </way>
  <way id="20330888" version="17" timestamp="2011-07-27T07:43:05Z" uid="491845" user="data_at" changeset="8842342">
    <nd ref="33793748"/>
    <nd ref="330925426"/>
    <nd ref="33793751"/>
    <nd ref="330925634"/>
    <nd ref="33793755"/>
    <nd ref="1281887242"/>
    <nd ref="280745196"/>
    <nd ref="33793757"/>
    <nd ref="207149763"/>
    <nd ref="33793764"/>
    <nd ref="33793767"/>
    <nd ref="33793770"/>
    <nd ref="33793772"/>
    <nd ref="33793776"/>
    <tag k="highway" v="primary"/>
    <tag k="is_in" v="Lienz,Lienz,Tirol,Österreich,Europe"/>
    <tag k="name" v="Iseltaler Straße"/>
    <tag k="ref" v="B108"/>
    <tag k="source" v="plan.at 2008"/>
  </way>
  <way id="20330888" version="18" timestamp="2011-08-18T14:55:11Z" uid="81244" user="rurseekatze" changeset="9057609">
    <nd ref="33793748"/>
    <nd ref="330925426"/>
    <nd ref="33793751"/>
    <tag k="highway" v="primary"/>
    <tag k="is_in" v="Lienz,Lienz,Tirol,Österreich,Europe"/>
    <tag k="maxspeed" v="80"/>
    <tag k="name" v="Iseltaler Straße"/>
    <tag k="ref" v="B108"/>
    <tag k="source" v="plan.at 2008"/>
  </way>
  <way id="20330888" version="19" timestamp="2011-08-18T16:02:26Z" uid="81244" user="rurseekatze" changeset="9058141">
    <nd ref="33793748"/>
    <nd ref="330925426"/>
    <nd ref="33793751"/>
    <tag k="highway" v="primary"/>
    <tag k="is_in" v="Lienz,Lienz,Tirol,Österreich,Europe"/>
    <tag k="lit" v="yes"/>
    <tag k="maxspeed" v="80"/>
    <tag k="name" v="Iseltaler Straße"/>
    <tag k="ref" v="B108"/>
    <tag k="source" v="plan.at 2008"/>
  </way>
  <way id="20330888" version="20" timestamp="2012-01-27T10:27:09Z" uid="45481" user="borisC" changeset="10510939"/>
  <way id="20330892" version="2" timestamp="2008-11-12T21:36:55Z" uid="7617" user="Franc" changeset="738861">
    <nd ref="215921391"/>
    <nd ref="215921393"/>
    <nd ref="215921394"/>
    <nd ref="311635778"/>
    <nd ref="215921396"/>
    <nd ref="215921391"/>
    <tag k="created_by" v="Potlatch 0.6a"/>
    <tag k="leisure" v="park"/>
  </way>
  <way id="20330892" version="3" timestamp="2010-09-01T11:48:06Z" uid="237525" user="aharvey" changeset="5653325">
    <nd ref="215921391"/>
    <nd ref="215921393"/>
    <nd ref="215921394"/>
    <nd ref="311635778"/>
    <nd ref="215921396"/>
    <nd ref="215921391"/>
    <tag k="leisure" v="park"/>
    <tag k="name" v="Meade Park"/>
    <tag k="source:name" v="survey"/>
  </way>
  <way id="20330893" version="2" timestamp="2010-02-23T14:11:50Z" uid="43967" user="railsnail" changeset="3953762">
    <nd ref="207148040"/>
    <nd ref="207148037"/>
    <nd ref="207148031"/>
    <nd ref="207148079"/>
    <nd ref="207148078"/>
    <nd ref="207147589"/>
    <tag k="highway" v="residential"/>
  </way>
  <way id="20330893" version="3" timestamp="2010-03-20T16:44:58Z" uid="29765" user="Glg11" changeset="4181853">
    <nd ref="207148040"/>
    <nd ref="207148037"/>
    <nd ref="207148079"/>
    <nd ref="207147589"/>
    <tag k="highway" v="residential"/>
  </way>
  <way id="20330893" version="4" timestamp="2010-05-28T12:43:38Z" uid="43967" user="railsnail" changeset="4830439">
    <nd ref="207148040"/>
    <nd ref="207148037"/>
    <nd ref="207148079"/>
    <nd ref="207147589"/>
    <tag k="cycleway" v="track"/>
    <tag k="foot" v="yes"/>
    <tag k="highway" v="residential"/>
    <tag k="name" v="Drautal-Radweg"/>
  </way>
  <way id="20330893" version="5" timestamp="2012-02-12T10:34:01Z" uid="40843" user="Bene" changeset="10661254">
    <nd ref="207148040"/>
    <nd ref="1629471429"/>
    <nd ref="207148037"/>
    <nd ref="207148079"/>
    <nd ref="207147589"/>
    <tag k="cycleway" v="track"/>
    <tag k="foot" v="yes"/>
    <tag k="highway" v="residential"/>
    <tag k="name" v="Drautal-Radweg"/>
  </way>
  <way id="20330896" version="2" timestamp="2008-06-11T19:40:43Z" uid="43967" user="railsnail" changeset="136009">
    <nd ref="20824282"/>
    <nd ref="269755463"/>
    <nd ref="206376946"/>
    <tag k="bridge" v="true"/>
    <tag k="created_by" v="Potlatch 0.9c"/>
    <tag k="highway" v="residential"/>
    <tag k="layer" v="1"/>
  </way>
  <way id="20330896" version="3" timestamp="2009-01-09T19:50:46Z" uid="43967" user="railsnail" changeset="763383">
    <nd ref="20824282"/>
    <nd ref="269755463"/>
    <nd ref="206376946"/>
    <tag k="bridge" v="yes"/>
    <tag k="created_by" v="Potlatch 0.10f"/>
    <tag k="highway" v="residential"/>
    <tag k="layer" v="1"/>
  </way>
  <way id="20330896" version="4" timestamp="2009-01-09T19:51:18Z" uid="43967" user="railsnail" changeset="763383">
    <nd ref="20824282"/>
    <nd ref="269755463"/>
    <nd ref="206376946"/>
    <tag k="addr:postcode" v="9900"/>
    <tag k="at:maxspeed" v="Ortsgebiet"/>
    <tag k="bridge" v="yes"/>
    <tag k="created_by" v="Potlatch 0.10f"/>
    <tag k="fixme" v="check import"/>
    <tag k="highway" v="residential"/>
    <tag k="is_in" v="...,Bezirk Lienz,Tirol,Österreich,Europa"/>
    <tag k="layer" v="1"/>
    <tag k="name" v="Spitalsbrücke"/>
    <tag k="note" v="imported from plan.at; (C)=CC-by-sa or oDBL; feel free to change if necessary"/>
    <tag k="plan_at:acad_id" v="lz343"/>
    <tag k="source" v="plan.at 2008"/>
    <tag k="uploaded_by" v="Wolfgang W. Wasserburger"/>
  </way>
  <way id="20330896" version="5" timestamp="2009-01-09T19:51:48Z" uid="43967" user="railsnail" changeset="763383"/>
  <way id="20330897" version="2" timestamp="2010-05-28T12:47:12Z" uid="43967" user="railsnail" changeset="4830439">
    <nd ref="207147767"/>
    <nd ref="752777755"/>
    <nd ref="207147743"/>
    <nd ref="207147749"/>
    <nd ref="207147776"/>
    <nd ref="207147748"/>
    <tag k="highway" v="unclassified"/>
  </way>
  <way id="20330897" version="3" timestamp="2012-02-09T11:02:49Z" uid="45481" user="borisC" changeset="10632678">
    <nd ref="207147767"/>
    <nd ref="752777755"/>
    <nd ref="207147743"/>
    <nd ref="207147776"/>
    <nd ref="207147748"/>
    <tag k="highway" v="unclassified"/>
  </way>
  <way id="20330897" version="4" timestamp="2012-02-12T10:35:16Z" uid="40843" user="Bene" changeset="10661254">
    <nd ref="207147767"/>
    <nd ref="752777755"/>
    <nd ref="207147743"/>
    <nd ref="207147776"/>
    <nd ref="207147748"/>
    <tag k="highway" v="unclassified"/>
    <tag k="name" v="Gries"/>
  </way>
  <way id="20330899" version="2" timestamp="2009-07-17T18:00:06Z" uid="43967" user="railsnail" changeset="1856726"/>
  <way id="20330952" version="2" timestamp="2010-07-08T02:10:54Z" uid="74617" user="JohnSmith" changeset="5162525">
    <nd ref="215863390"/>
    <nd ref="215922308"/>
    <tag k="highway" v="residential"/>
    <tag k="maxspeed" v="50"/>
    <tag k="maxspeed:source" v="default residential speed limit in Australia"/>
    <tag k="name" v="Augusta Street"/>
  </way>
  <way id="20330952" version="3" timestamp="2012-01-15T21:11:00Z" uid="147510" user="woodpeck_fixbot" changeset="10402983">
    <nd ref="215863390"/>
    <nd ref="215922308"/>
    <tag k="highway" v="residential"/>
    <tag k="name" v="Augusta Street"/>
  </way>
  <way id="20330096" version="6" timestamp="2012-07-20T08:30:40Z" uid="722137" user="OSMF Redaction Account" changeset="12368378">
    <nd ref="215907705"/>
    <nd ref="215908309"/>
    <nd ref="215909153"/>
    <nd ref="181199473"/>
    <tag k="highway" v="residential"/>
    <tag k="name" v="Waterview Street"/>
  </way>
  <way id="20330424" version="5" timestamp="2012-07-20T08:36:35Z" uid="722137" user="OSMF Redaction Account" changeset="12368516"/>
  <way id="20330545" version="9" timestamp="2012-07-20T08:30:46Z" uid="722137" user="OSMF Redaction Account" changeset="12368378">
    <nd ref="215915233"/>
    <nd ref="215916224"/>
    <tag k="highway" v="residential"/>
    <tag k="name" v="Forster Street"/>
  </way>
  <way id="20330615" version="6" timestamp="2012-07-20T08:31:22Z" uid="722137" user="OSMF Redaction Account" changeset="12368378">
    <nd ref="215916224"/>
    <nd ref="215918443"/>
    <tag k="highway" v="residential"/>
    <tag k="name" v="Dwyer Avenue"/>
  </way>
  <way id="20330615" version="7" timestamp="2012-08-06T12:54:29Z" uid="2585" user="rw_" changeset="12632945">
    <nd ref="215916224"/>
    <nd ref="215918443"/>
    <nd ref="575727075"/>
    <tag k="highway" v="residential"/>
    <tag k="name" v="Dwyer Avenue"/>
  </way>
  <way id="20330886" version="9" timestamp="2012-07-17T02:52:51Z" uid="722137" user="OSMF Redaction Account" changeset="12255699">
    <nd ref="33793742"/>
    <nd ref="1403398144"/>
    <tag k="highway" v="primary"/>
    <tag k="lit" v="no"/>
    <tag k="maxspeed" v="80"/>
    <tag k="name" v="Felbertauernstraße"/>
    <tag k="ref" v="B108"/>
  </way>
  <way id="20330886" version="10" timestamp="2012-07-19T22:21:19Z" uid="45481" user="borisC" changeset="12350219">
    <nd ref="33793742"/>
    <nd ref="1403398144"/>
    <nd ref="282553904"/>
    <nd ref="533796035"/>
    <tag k="highway" v="primary"/>
    <tag k="lit" v="no"/>
    <tag k="maxspeed" v="80"/>
    <tag k="name" v="Felbertauernstraße"/>
    <tag k="ref" v="B108"/>
  </way>
  <way id="20330892" version="4" timestamp="2012-07-20T08:30:28Z" uid="722137" user="OSMF Redaction Account" changeset="12368378">
    <nd ref="215921391"/>
    <nd ref="215921393"/>
    <nd ref="215921394"/>
    <nd ref="215921396"/>
    <nd ref="215921391"/>
    <tag k="leisure" v="park"/>
    <tag k="name" v="Meade Park"/>
    <tag k="source:name" v="survey"/>
  </way>
  <way id="20330893" version="6" timestamp="2012-05-12T13:06:01Z" uid="45481" user="borisC" changeset="11576359">
    <nd ref="207148040"/>
    <nd ref="1629471429"/>
    <nd ref="207148037"/>
    <tag k="highway" v="residential"/>
  </way>
  <way id="20330893" version="7" timestamp="2012-05-12T13:42:54Z" uid="45481" user="borisC" changeset="11576666">
    <nd ref="207148040"/>
    <nd ref="1629471429"/>
    <nd ref="207148037"/>
    <nd ref="1749648564"/>
    <nd ref="207148079"/>
    <nd ref="207147589"/>
    <tag k="highway" v="residential"/>
  </way>
  <way id="20330897" version="5" timestamp="2012-05-12T13:06:09Z" uid="45481" user="borisC" changeset="11576359"/>
</osm>
