<?xml version='1.0' encoding='UTF-8'?>
<osm version="0.6" generator="libosmium/2.20.0">
  <way id="20339168" version="3" timestamp="2008-07-14T08:55:21Z" uid="6975" user="ulfl" changeset="486169">
    <nd ref="216081227"/>
    <nd ref="216081238"/>
    <nd ref="216081249"/>
    <nd ref="27233446"/>
    <nd ref="216081047"/>
    <nd ref="216081059"/>
    <nd ref="216081227"/>
    <tag k="amenity" v="kindergarten"/>
    <tag k="name" v="Waldkindergarten"/>
  </way>
  <way id="20339168" version="4" timestamp="2009-04-04T19:01:27Z" uid="8748" user="ToniE" changeset="177433">
    <nd ref="216081227"/>
    <nd ref="216081238"/>
    <nd ref="216081249"/>
    <nd ref="27233446"/>
    <nd ref="216081047"/>
    <nd ref="216081059"/>
    <nd ref="216081227"/>
    <tag k="amenity" v="kindergarten"/>
    <tag k="name" v="Abenteuerland der Waldmäuse"/>
    <tag k="source" v="survey"/>
  </way>
  <way id="20339168" version="5" timestamp="2009-04-05T13:17:19Z" uid="8748" user="ToniE" changeset="213561">
    <nd ref="216081227"/>
    <nd ref="216081249"/>
    <nd ref="27233446"/>
    <nd ref="216081059"/>
    <nd ref="216081227"/>
    <tag k="amenity" v="kindergarten"/>
    <tag k="area" v="yes"/>
    <tag k="name" v="Abenteuerland der Waldmäuse"/>
    <tag k="source" v="survey"/>
  </way>
  <way id="20339168" version="6" timestamp="2010-06-20T15:10:45Z" uid="8748" user="ToniE" changeset="5033832">
    <nd ref="216081227"/>
    <nd ref="778268942"/>
    <nd ref="778268998"/>
    <nd ref="216081059"/>
    <nd ref="216081227"/>
    <tag k="amenity" v="kindergarten"/>
    <tag k="area" v="yes"/>
    <tag k="name" v="Abenteuerland der Waldmäuse"/>
    <tag k="source" v="survey"/>
  </way>
  <way id="20339302" version="5" timestamp="2008-10-23T16:43:01Z" uid="6975" user="ulfl" changeset="530870">
    <nd ref="216083940"/>
    <nd ref="19879917"/>
    <nd ref="19879915"/>
    <nd ref="15915202"/>
    <tag k="cycleway" v="track"/>
    <tag k="highway" v="secondary"/>
    <tag k="lanes" v="2"/>
    <tag k="name" v="Eppendorfer Baum"/>
    <tag k="postal_code" v="20249"/>
  </way>
  <way id="20339302" version="6" timestamp="2009-01-05T07:52:05Z" uid="63375" user="Divjo" changeset="735423">
    <nd ref="216083940"/>
    <nd ref="326784470"/>
    <nd ref="19879917"/>
    <nd ref="19879915"/>
    <nd ref="15915202"/>
    <tag k="created_by" v="Potlatch 0.10f"/>
    <tag k="cycleway" v="track"/>
    <tag k="highway" v="secondary"/>
    <tag k="lanes" v="2"/>
    <tag k="name" v="Eppendorfer Baum"/>
    <tag k="postal_code" v="20249"/>
  </way>
  <way id="20339302" version="7" timestamp="2009-08-19T07:07:42Z" uid="63375" user="Divjo" changeset="2197788">
    <nd ref="216083940"/>
    <nd ref="326784470"/>
    <nd ref="19879917"/>
    <nd ref="19879915"/>
    <nd ref="15915202"/>
    <tag k="cycleway" v="track"/>
    <tag k="highway" v="secondary"/>
    <tag k="lanes" v="2"/>
    <tag k="name" v="Eppendorfer Baum"/>
    <tag k="postal_code" v="20249"/>
  </way>
  <way id="20339302" version="8" timestamp="2009-11-06T17:04:10Z" uid="51916" user="Max B" changeset="3049991">
    <nd ref="216083940"/>
    <nd ref="326784470"/>
    <nd ref="19879917"/>
    <nd ref="558512644"/>
    <nd ref="19879915"/>
    <nd ref="15915202"/>
    <tag k="cycleway" v="track"/>
    <tag k="highway" v="secondary"/>
    <tag k="lanes" v="2"/>
    <tag k="name" v="Eppendorfer Baum"/>
    <tag k="postal_code" v="20249"/>
  </way>
  <way id="20339302" version="9" timestamp="2009-11-22T23:16:49Z" uid="167616" user="ajeba" changeset="3191951">
    <nd ref="216083940"/>
    <nd ref="326784470"/>
    <nd ref="19879917"/>
    <tag k="cycleway" v="track"/>
    <tag k="highway" v="secondary"/>
    <tag k="lanes" v="2"/>
    <tag k="name" v="Eppendorfer Baum"/>
    <tag k="postal_code" v="20249"/>
  </way>
  <way id="20339302" version="10" timestamp="2011-11-16T18:55:29Z" uid="63375" user="Divjo" changeset="9847561"/>
</osm>
