<?xml version='1.0' encoding='UTF-8'?>
<osm version="0.6" generator="libosmium/2.20.0">
  <way id="20343094" version="9" timestamp="2010-02-16T18:40:00Z" uid="34428" user="usm78-gis" changeset="3894755"/>
  <way id="20343116" version="1" timestamp="2008-01-10T21:00:46Z" uid="6454" user="B10xxx" changeset="605879">
    <nd ref="216159095"/>
    <nd ref="203433787"/>
    <nd ref="216159080"/>
    <tag k="created_by" v="JOSM"/>
    <tag k="highway" v="residential"/>
  </way>
  <way id="20343116" version="2" timestamp="2008-09-01T07:04:18Z" uid="12448" user="Hartmut Holzgraefe" changeset="481310">
    <nd ref="292799901"/>
    <nd ref="292799902"/>
    <nd ref="292799903"/>
    <nd ref="216159095"/>
    <nd ref="203433787"/>
    <nd ref="216159080"/>
    <tag k="created_by" v="Potlatch 0.10b"/>
    <tag k="highway" v="residential"/>
  </way>
  <way id="20343116" version="3" timestamp="2008-09-01T07:06:13Z" uid="12448" user="Hartmut Holzgraefe" changeset="481310">
    <nd ref="292800080"/>
    <nd ref="292799902"/>
    <nd ref="292799903"/>
    <nd ref="292800079"/>
    <nd ref="216159095"/>
    <nd ref="203433787"/>
    <nd ref="216159080"/>
    <tag k="created_by" v="Potlatch 0.10b"/>
    <tag k="highway" v="residential"/>
  </way>
  <way id="20343116" version="4" timestamp="2008-09-01T07:07:11Z" uid="12448" user="Hartmut Holzgraefe" changeset="481310">
    <nd ref="292800145"/>
    <nd ref="292799902"/>
    <nd ref="292799903"/>
    <nd ref="292800079"/>
    <nd ref="216159095"/>
    <nd ref="203433787"/>
    <nd ref="216159080"/>
    <tag k="created_by" v="Potlatch 0.10b"/>
    <tag k="highway" v="residential"/>
  </way>
  <way id="20343116" version="5" timestamp="2008-12-30T14:57:26Z" uid="87187" user="rottrunner" changeset="670241">
    <nd ref="292800145"/>
    <nd ref="292799902"/>
    <nd ref="292799903"/>
    <nd ref="292800079"/>
    <nd ref="216159095"/>
    <nd ref="203433787"/>
    <nd ref="216159080"/>
    <tag k="created_by" v="Potlatch 0.10b"/>
    <tag k="highway" v="residential"/>
    <tag k="name" v="Am Kampkotten"/>
  </way>
  <way id="20343116" version="6" timestamp="2008-12-30T15:08:47Z" uid="87187" user="rottrunner" changeset="670241">
    <nd ref="292800145"/>
    <nd ref="292799902"/>
    <nd ref="292799903"/>
    <nd ref="292800079"/>
    <nd ref="216159095"/>
    <nd ref="203433787"/>
    <nd ref="216159080"/>
    <tag k="created_by" v="Potlatch 0.10b"/>
    <tag k="highway" v="residential"/>
  </way>
  <way id="20343116" version="7" timestamp="2008-12-30T16:51:22Z" uid="87187" user="rottrunner" changeset="679035">
    <nd ref="292800145"/>
    <nd ref="292799902"/>
    <nd ref="292799903"/>
    <nd ref="292800079"/>
    <nd ref="216159095"/>
    <nd ref="203433787"/>
    <tag k="created_by" v="Potlatch 0.10b"/>
    <tag k="highway" v="residential"/>
    <tag k="name" v="Am Kampkotten"/>
  </way>
  <way id="20343116" version="8" timestamp="2011-09-09T20:20:26Z" uid="461103" user="nomatrix" changeset="9257624">
    <nd ref="292800145"/>
    <nd ref="292799902"/>
    <nd ref="292799903"/>
    <nd ref="292800079"/>
    <nd ref="216159095"/>
    <nd ref="203433787"/>
    <tag k="highway" v="residential"/>
    <tag k="name" v="Am Kampkotten"/>
  </way>
  <way id="20343118" version="1" timestamp="2008-01-10T21:00:46Z" uid="6454" user="B10xxx" changeset="605879">
    <nd ref="216159080"/>
    <nd ref="216159072"/>
    <nd ref="216159089"/>
    <tag k="created_by" v="JOSM"/>
    <tag k="highway" v="residential"/>
    <tag k="name" v="Kahmannshof"/>
  </way>
  <way id="20343118" version="2" timestamp="2011-09-09T18:28:06Z" uid="461103" user="nomatrix" changeset="9256612">
    <nd ref="216159080"/>
    <nd ref="216159072"/>
    <nd ref="216159089"/>
    <tag k="highway" v="residential"/>
    <tag k="name" v="Kahmannshof"/>
  </way>
  <way id="20343673" version="7" timestamp="2009-02-09T09:13:31Z" uid="9581" user="Lobelt" changeset="292607">
    <nd ref="33322023"/>
    <nd ref="250141933"/>
    <nd ref="33322024"/>
    <nd ref="343628348"/>
    <tag k="created_by" v="Potlatch 0.10f"/>
    <tag k="highway" v="primary"/>
    <tag k="maxspeed" v="50"/>
    <tag k="ref" v="B 85"/>
  </way>
  <way id="20343673" version="8" timestamp="2009-04-05T11:16:21Z" uid="46862" user="Mayer" changeset="229771">
    <nd ref="33322023"/>
    <nd ref="250141933"/>
    <nd ref="33322024"/>
    <nd ref="343628348"/>
    <tag k="created_by" v="Potlatch 0.10f"/>
    <tag k="highway" v="primary"/>
    <tag k="maxspeed" v="50"/>
    <tag k="name" v="Legefelder Hauptstraße"/>
    <tag k="ref" v="B 85"/>
  </way>
  <way id="20343673" version="9" timestamp="2009-05-21T09:55:03Z" uid="46862" user="Mayer" changeset="1273672">
    <nd ref="33322023"/>
    <nd ref="250141933"/>
    <nd ref="33322024"/>
    <nd ref="343628348"/>
    <tag k="created_by" v="Potlatch 0.10f"/>
    <tag k="highway" v="primary"/>
    <tag k="name" v="Legefelder Hauptstraße"/>
    <tag k="ref" v="B 85"/>
  </way>
  <way id="20343673" version="10" timestamp="2010-09-11T20:42:02Z" uid="110639" user="aighes" changeset="5753577">
    <nd ref="33322023"/>
    <nd ref="250141933"/>
    <nd ref="33322024"/>
    <nd ref="343628348"/>
    <tag k="highway" v="primary"/>
    <tag k="name" v="Legefelder Hauptstraße"/>
    <tag k="ref" v="B 85"/>
  </way>
  <way id="20343673" version="11" timestamp="2011-11-16T21:20:28Z" uid="445671" user="flierfy" changeset="9848949">
    <nd ref="33322023"/>
    <nd ref="250141933"/>
    <nd ref="33322024"/>
    <nd ref="343628348"/>
    <tag k="highway" v="primary"/>
    <tag k="lanes" v="2"/>
    <tag k="name" v="Legefelder Hauptstraße"/>
    <tag k="oneway" v="no"/>
    <tag k="ref" v="B 85"/>
  </way>
  <way id="20343673" version="12" timestamp="2012-02-09T19:17:05Z" uid="195713" user="_torsten_" changeset="10637095"/>
  <way id="20343116" version="9" timestamp="2012-07-17T07:59:22Z" uid="722137" user="OSMF Redaction Account" changeset="12259967">
    <nd ref="292800145"/>
    <nd ref="292799902"/>
    <nd ref="292799903"/>
    <nd ref="292800079"/>
    <tag k="name" v="Am Kampkotten"/>
  </way>
  <way id="20343116" version="10" timestamp="2012-07-17T13:23:20Z" uid="12448" user="Hartmut Holzgraefe" changeset="12266427">
    <nd ref="292800145"/>
    <nd ref="292799902"/>
    <nd ref="292799903"/>
    <nd ref="292800079"/>
    <nd ref="216159095"/>
    <nd ref="203433787"/>
    <tag k="highway" v="residential"/>
    <tag k="name" v="Am Kampkotten"/>
  </way>
  <way id="20343116" version="11" timestamp="2012-08-13T18:31:40Z" uid="12448" user="Hartmut Holzgraefe" changeset="12717725">
    <nd ref="292800145"/>
    <nd ref="292799902"/>
    <nd ref="292799903"/>
    <tag k="highway" v="residential"/>
    <tag k="name" v="Am Kampkotten"/>
  </way>
  <way id="20343118" version="3" timestamp="2012-07-17T06:54:10Z" uid="722137" user="OSMF Redaction Account" changeset="12258895"/>
</osm>
