<?xml version='1.0' encoding='UTF-8'?>
<osm version="0.6" generator="libosmium/2.20.0">
  <way id="20398597" version="4" timestamp="2010-07-06T09:59:40Z" uid="74617" user="JohnSmith" changeset="5147679">
    <nd ref="81964650"/>
    <nd ref="217325529"/>
    <nd ref="217325530"/>
    <nd ref="217325531"/>
    <nd ref="217342232"/>
    <nd ref="217319260"/>
    <tag k="highway" v="residential"/>
    <tag k="maxspeed" v="50"/>
    <tag k="maxspeed:source" v="default residential speed limit in Australia"/>
    <tag k="name" v="Jellicoe Street"/>
  </way>
  <way id="20398597" version="5" timestamp="2012-01-15T21:12:05Z" uid="147510" user="woodpeck_fixbot" changeset="10402983">
    <nd ref="81964650"/>
    <nd ref="217325529"/>
    <nd ref="217325530"/>
    <nd ref="217325531"/>
    <nd ref="217342232"/>
    <nd ref="217319260"/>
    <tag k="highway" v="residential"/>
    <tag k="name" v="Jellicoe Street"/>
  </way>
  <way id="20398652" version="4" timestamp="2010-07-06T10:06:46Z" uid="74617" user="JohnSmith" changeset="5147679">
    <nd ref="217319537"/>
    <nd ref="217344488"/>
    <nd ref="81964652"/>
    <tag k="highway" v="residential"/>
    <tag k="maxspeed" v="50"/>
    <tag k="maxspeed:source" v="default residential speed limit in Australia"/>
    <tag k="name" v="Joffre Street"/>
  </way>
  <way id="20398652" version="5" timestamp="2012-01-15T21:12:06Z" uid="147510" user="woodpeck_fixbot" changeset="10402983">
    <nd ref="217319537"/>
    <nd ref="217344488"/>
    <nd ref="81964652"/>
    <tag k="highway" v="residential"/>
    <tag k="name" v="Joffre Street"/>
  </way>
  <way id="20398737" version="4" timestamp="2010-07-06T10:11:24Z" uid="74617" user="JohnSmith" changeset="5147679">
    <nd ref="217294702"/>
    <nd ref="385281494"/>
    <nd ref="81940674"/>
    <nd ref="217347559"/>
    <tag k="highway" v="residential"/>
    <tag k="maxspeed" v="50"/>
    <tag k="maxspeed:source" v="default residential speed limit in Australia"/>
    <tag k="name" v="Gladstone Lane"/>
  </way>
  <way id="20398737" version="5" timestamp="2012-01-15T21:12:07Z" uid="147510" user="woodpeck_fixbot" changeset="10402983">
    <nd ref="217294702"/>
    <nd ref="385281494"/>
    <nd ref="81940674"/>
    <nd ref="217347559"/>
    <tag k="highway" v="residential"/>
    <tag k="name" v="Gladstone Lane"/>
  </way>
  <way id="20398912" version="4" timestamp="2010-07-06T10:11:48Z" uid="74617" user="JohnSmith" changeset="5147679">
    <nd ref="81953105"/>
    <nd ref="217353934"/>
    <tag k="highway" v="residential"/>
    <tag k="maxspeed" v="50"/>
    <tag k="maxspeed:source" v="default residential speed limit in Australia"/>
    <tag k="name" v="Yarrabin Street"/>
  </way>
  <way id="20398912" version="5" timestamp="2012-01-15T21:12:09Z" uid="147510" user="woodpeck_fixbot" changeset="10402983">
    <nd ref="81953105"/>
    <nd ref="217353934"/>
    <tag k="highway" v="residential"/>
    <tag k="name" v="Yarrabin Street"/>
  </way>
</osm>
