<?xml version='1.0' encoding='UTF-8'?>
<osm version="0.6" generator="libosmium/2.20.0">
  <way id="20403027" version="4" timestamp="2010-07-06T10:09:35Z" uid="74617" user="JohnSmith" changeset="5147679">
    <nd ref="128539163"/>
    <nd ref="217475946"/>
    <nd ref="217475947"/>
    <tag k="highway" v="residential"/>
    <tag k="maxspeed" v="50"/>
    <tag k="maxspeed:source" v="default residential speed limit in Australia"/>
    <tag k="name" v="The Corso"/>
    <tag k="oneway" v="yes"/>
  </way>
  <way id="20403027" version="5" timestamp="2010-07-13T09:49:00Z" uid="22094" user="Chadzopkyo" changeset="5206317"/>
  <way id="20403068" version="4" timestamp="2010-07-06T10:09:51Z" uid="74617" user="JohnSmith" changeset="5147679">
    <nd ref="128535896"/>
    <nd ref="217477162"/>
    <tag k="highway" v="residential"/>
    <tag k="maxspeed" v="50"/>
    <tag k="maxspeed:source" v="default residential speed limit in Australia"/>
    <tag k="name" v="Marshall Avenue"/>
  </way>
  <way id="20403068" version="5" timestamp="2010-07-13T09:48:47Z" uid="22094" user="Chadzopkyo" changeset="5206317">
    <nd ref="128535896"/>
    <nd ref="217477162"/>
    <tag k="highway" v="residential"/>
    <tag k="maxspeed" v="50"/>
    <tag k="name" v="Marshall Avenue"/>
    <tag k="source" v="GPS"/>
    <tag k="surface" v="asphalt"/>
  </way>
  <way id="20403068" version="6" timestamp="2012-01-15T21:12:37Z" uid="147510" user="woodpeck_fixbot" changeset="10402983">
    <nd ref="128535896"/>
    <nd ref="217477162"/>
    <tag k="highway" v="residential"/>
    <tag k="name" v="Marshall Avenue"/>
    <tag k="source" v="GPS"/>
    <tag k="surface" v="asphalt"/>
  </way>
  <way id="20403113" version="4" timestamp="2010-07-06T10:04:48Z" uid="74617" user="JohnSmith" changeset="5147679">
    <nd ref="217475947"/>
    <nd ref="217478603"/>
    <nd ref="128543516"/>
    <tag k="highway" v="residential"/>
    <tag k="maxspeed" v="50"/>
    <tag k="maxspeed:source" v="default residential speed limit in Australia"/>
    <tag k="name" v="The Corso"/>
    <tag k="oneway" v="yes"/>
  </way>
  <way id="20403113" version="5" timestamp="2010-07-13T09:49:01Z" uid="22094" user="Chadzopkyo" changeset="5206317"/>
  <way id="20403132" version="4" timestamp="2010-07-06T10:13:11Z" uid="74617" user="JohnSmith" changeset="5147679">
    <nd ref="217474873"/>
    <nd ref="217479407"/>
    <nd ref="128543521"/>
    <tag k="highway" v="residential"/>
    <tag k="maxspeed" v="50"/>
    <tag k="maxspeed:source" v="default residential speed limit in Australia"/>
    <tag k="name" v="D&apos;Arcy Road"/>
    <tag k="oneway" v="yes"/>
  </way>
  <way id="20403132" version="5" timestamp="2010-07-13T09:49:01Z" uid="22094" user="Chadzopkyo" changeset="5206317"/>
  <way id="20403237" version="6" timestamp="2010-07-06T10:13:05Z" uid="74617" user="JohnSmith" changeset="5147679">
    <nd ref="217474873"/>
    <nd ref="249760471"/>
    <nd ref="217482097"/>
    <nd ref="217482098"/>
    <nd ref="217482100"/>
    <tag k="highway" v="residential"/>
    <tag k="maxspeed" v="50"/>
    <tag k="maxspeed:source" v="default residential speed limit in Australia"/>
    <tag k="name" v="D&apos;Arcy Road"/>
  </way>
  <way id="20403237" version="7" timestamp="2010-07-13T08:57:12Z" uid="22094" user="Chadzopkyo" changeset="5205907"/>
  <way id="20403253" version="5" timestamp="2010-07-06T10:08:56Z" uid="74617" user="JohnSmith" changeset="5147679">
    <nd ref="217482100"/>
    <nd ref="217482101"/>
    <nd ref="217482103"/>
    <nd ref="217482104"/>
    <nd ref="217482105"/>
    <nd ref="217482106"/>
    <nd ref="217482109"/>
    <nd ref="217482112"/>
    <nd ref="217482114"/>
    <nd ref="222486080"/>
    <tag k="highway" v="residential"/>
    <tag k="maxspeed" v="50"/>
    <tag k="maxspeed:source" v="default residential speed limit in Australia"/>
    <tag k="name" v="D&apos;Arcy Road"/>
  </way>
  <way id="20403253" version="6" timestamp="2010-07-13T08:57:13Z" uid="22094" user="Chadzopkyo" changeset="5205907"/>
  <way id="20403323" version="6" timestamp="2010-07-06T10:01:47Z" uid="74617" user="JohnSmith" changeset="5147679">
    <nd ref="217475947"/>
    <nd ref="217484523"/>
    <tag k="highway" v="residential"/>
    <tag k="maxspeed" v="50"/>
    <tag k="maxspeed:source" v="default residential speed limit in Australia"/>
    <tag k="name" v="The Corso"/>
  </way>
  <way id="20403323" version="7" timestamp="2010-07-13T09:48:41Z" uid="22094" user="Chadzopkyo" changeset="5206317">
    <nd ref="128539163"/>
    <nd ref="217475947"/>
    <tag k="highway" v="residential"/>
    <tag k="maxspeed" v="50"/>
    <tag k="name" v="The Corso"/>
    <tag k="oneway" v="yes"/>
  </way>
  <way id="20403323" version="8" timestamp="2012-01-15T21:12:38Z" uid="147510" user="woodpeck_fixbot" changeset="10402983">
    <nd ref="128539163"/>
    <nd ref="217475947"/>
    <tag k="highway" v="residential"/>
    <tag k="name" v="The Corso"/>
    <tag k="oneway" v="yes"/>
  </way>
  <way id="20403414" version="3" timestamp="2010-03-27T23:28:55Z" uid="20587" user="balrog-kun" changeset="4250871">
    <nd ref="217487580"/>
    <nd ref="53093316"/>
    <nd ref="53097351"/>
    <nd ref="53107566"/>
    <nd ref="53107568"/>
    <nd ref="53105043"/>
    <nd ref="53102897"/>
    <nd ref="53107569"/>
    <tag k="created_by" v="Potlatch 0.6a"/>
    <tag k="highway" v="residential"/>
    <tag k="name" v="Laurel Avenue"/>
    <tag k="tiger:cfcc" v="A41"/>
    <tag k="tiger:county" v="Alameda, CA"/>
    <tag k="tiger:name_base" v="Laurel"/>
    <tag k="tiger:name_type" v="Ave"/>
    <tag k="tiger:separated" v="no"/>
    <tag k="tiger:source" v="tiger_import_dch_v0.6_20070809"/>
    <tag k="tiger:tlid" v="125004153:125004155:125004157:125041466:125041467:125004162:125004366:125004368:125004138:125004142"/>
    <tag k="tiger:zip_left" v="94602"/>
  </way>
  <way id="20403480" version="4" timestamp="2010-07-06T10:12:04Z" uid="74617" user="JohnSmith" changeset="5147679">
    <nd ref="217493071"/>
    <nd ref="217493072"/>
    <nd ref="217493073"/>
    <nd ref="217493074"/>
    <nd ref="217474378"/>
    <nd ref="217489780"/>
    <nd ref="106469565"/>
    <tag k="highway" v="residential"/>
    <tag k="maxspeed" v="50"/>
    <tag k="maxspeed:source" v="default residential speed limit in Australia"/>
    <tag k="name" v="Hall Avenue"/>
  </way>
  <way id="20403480" version="5" timestamp="2010-07-13T08:56:20Z" uid="22094" user="Chadzopkyo" changeset="5205907">
    <nd ref="217493071"/>
    <nd ref="217493073"/>
    <nd ref="217493074"/>
    <nd ref="217474378"/>
    <nd ref="106469565"/>
    <tag k="highway" v="residential"/>
    <tag k="maxspeed" v="50"/>
    <tag k="name" v="Hall Avenue"/>
    <tag k="source" v="GPS"/>
    <tag k="surface" v="asphalt"/>
  </way>
  <way id="20403480" version="6" timestamp="2011-12-12T03:59:04Z" uid="22094" user="Chadzopkyo" changeset="10095783">
    <nd ref="217493071"/>
    <nd ref="217493073"/>
    <nd ref="217493074"/>
    <nd ref="217474378"/>
    <nd ref="1541843556"/>
    <nd ref="106469565"/>
    <nd ref="777879876"/>
    <tag k="highway" v="residential"/>
    <tag k="maxspeed" v="50"/>
    <tag k="name" v="Hall Avenue"/>
    <tag k="source" v="GPS"/>
    <tag k="surface" v="asphalt"/>
  </way>
  <way id="20403480" version="7" timestamp="2012-01-15T21:12:39Z" uid="147510" user="woodpeck_fixbot" changeset="10402983">
    <nd ref="217493071"/>
    <nd ref="217493073"/>
    <nd ref="217493074"/>
    <nd ref="217474378"/>
    <nd ref="1541843556"/>
    <nd ref="106469565"/>
    <nd ref="777879876"/>
    <tag k="highway" v="residential"/>
    <tag k="name" v="Hall Avenue"/>
    <tag k="source" v="GPS"/>
    <tag k="surface" v="asphalt"/>
  </way>
  <way id="20403540" version="4" timestamp="2010-07-06T10:12:52Z" uid="74617" user="JohnSmith" changeset="5147679">
    <nd ref="217474373"/>
    <nd ref="222442174"/>
    <nd ref="222442172"/>
    <nd ref="222421155"/>
    <nd ref="222422594"/>
    <nd ref="222422590"/>
    <nd ref="222422589"/>
    <nd ref="222422584"/>
    <nd ref="217506652"/>
    <tag k="highway" v="residential"/>
    <tag k="maxspeed" v="50"/>
    <tag k="maxspeed:source" v="default residential speed limit in Australia"/>
    <tag k="name" v="Ferguson Road"/>
  </way>
  <way id="20403540" version="5" timestamp="2010-07-13T08:57:13Z" uid="22094" user="Chadzopkyo" changeset="5205907"/>
  <way id="20403648" version="5" timestamp="2010-07-06T10:05:49Z" uid="74617" user="JohnSmith" changeset="5147679">
    <nd ref="217482100"/>
    <nd ref="217494460"/>
    <nd ref="217494462"/>
    <nd ref="217494463"/>
    <nd ref="217477162"/>
    <nd ref="217494465"/>
    <nd ref="217494468"/>
    <nd ref="128535918"/>
    <tag k="highway" v="residential"/>
    <tag k="maxspeed" v="50"/>
    <tag k="maxspeed:source" v="default residential speed limit in Australia"/>
    <tag k="name" v="Walker Avenue"/>
  </way>
  <way id="20403648" version="6" timestamp="2010-07-13T08:56:52Z" uid="22094" user="Chadzopkyo" changeset="5205907">
    <nd ref="217482100"/>
    <nd ref="217494462"/>
    <nd ref="217477162"/>
    <nd ref="217494465"/>
    <nd ref="217494468"/>
    <nd ref="128535918"/>
    <tag k="highway" v="residential"/>
    <tag k="maxspeed" v="50"/>
    <tag k="maxspeed:source" v="default residential speed limit in Australia"/>
    <tag k="name" v="Walker Avenue"/>
  </way>
  <way id="20403648" version="7" timestamp="2010-07-13T09:48:53Z" uid="22094" user="Chadzopkyo" changeset="5206317">
    <nd ref="217482100"/>
    <nd ref="217494462"/>
    <nd ref="814754815"/>
    <nd ref="217477162"/>
    <nd ref="217494465"/>
    <nd ref="128535918"/>
    <tag k="highway" v="residential"/>
    <tag k="maxspeed" v="50"/>
    <tag k="name" v="Walker Avenue"/>
    <tag k="source" v="GPS"/>
    <tag k="surface" v="asphalt"/>
  </way>
  <way id="20403648" version="8" timestamp="2012-01-15T21:12:40Z" uid="147510" user="woodpeck_fixbot" changeset="10402983">
    <nd ref="217482100"/>
    <nd ref="217494462"/>
    <nd ref="814754815"/>
    <nd ref="217477162"/>
    <nd ref="217494465"/>
    <nd ref="128535918"/>
    <tag k="highway" v="residential"/>
    <tag k="name" v="Walker Avenue"/>
    <tag k="source" v="GPS"/>
    <tag k="surface" v="asphalt"/>
  </way>
  <way id="20403680" version="5" timestamp="2010-07-06T10:09:04Z" uid="74617" user="JohnSmith" changeset="5147679">
    <nd ref="128535920"/>
    <nd ref="217495598"/>
    <nd ref="217495599"/>
    <nd ref="249761318"/>
    <nd ref="217495600"/>
    <nd ref="217495601"/>
    <nd ref="217495602"/>
    <nd ref="217495603"/>
    <tag k="highway" v="residential"/>
    <tag k="maxspeed" v="50"/>
    <tag k="maxspeed:source" v="default residential speed limit in Australia"/>
    <tag k="name" v="Walker Avenue"/>
    <tag k="note" v="no standing"/>
  </way>
  <way id="20403680" version="6" timestamp="2010-07-13T08:06:54Z" uid="22094" user="Chadzopkyo" changeset="5205554">
    <nd ref="128535920"/>
    <nd ref="217495599"/>
    <nd ref="814689222"/>
    <nd ref="217495600"/>
    <nd ref="217495601"/>
    <nd ref="217495603"/>
    <tag k="highway" v="residential"/>
    <tag k="maxspeed" v="50"/>
    <tag k="name" v="Walker Avenue"/>
    <tag k="note" v="no standing"/>
    <tag k="source" v="GPS"/>
    <tag k="surface" v="asphalt"/>
  </way>
  <way id="20403680" version="7" timestamp="2012-01-15T21:12:42Z" uid="147510" user="woodpeck_fixbot" changeset="10402983">
    <nd ref="128535920"/>
    <nd ref="217495599"/>
    <nd ref="814689222"/>
    <nd ref="217495600"/>
    <nd ref="217495601"/>
    <nd ref="217495603"/>
    <tag k="highway" v="residential"/>
    <tag k="name" v="Walker Avenue"/>
    <tag k="note" v="no standing"/>
    <tag k="source" v="GPS"/>
    <tag k="surface" v="asphalt"/>
  </way>
  <way id="20403715" version="3" timestamp="2010-07-06T10:12:23Z" uid="74617" user="JohnSmith" changeset="5147679">
    <nd ref="217494462"/>
    <nd ref="217496656"/>
    <nd ref="217496657"/>
    <tag k="highway" v="residential"/>
    <tag k="maxspeed" v="50"/>
    <tag k="maxspeed:source" v="default residential speed limit in Australia"/>
    <tag k="name" v="Fitzgerald Street"/>
  </way>
  <way id="20403715" version="4" timestamp="2010-07-13T08:57:01Z" uid="22094" user="Chadzopkyo" changeset="5205907">
    <nd ref="217494462"/>
    <nd ref="217496657"/>
    <tag k="highway" v="residential"/>
    <tag k="maxspeed" v="50"/>
    <tag k="maxspeed:source" v="default residential speed limit in Australia"/>
    <tag k="name" v="Fitzgerald Street"/>
  </way>
  <way id="20403715" version="5" timestamp="2010-07-13T09:48:56Z" uid="22094" user="Chadzopkyo" changeset="5206317">
    <nd ref="217494462"/>
    <nd ref="217496657"/>
    <tag k="highway" v="residential"/>
    <tag k="maxspeed" v="50"/>
    <tag k="name" v="Fitzgerald Street"/>
    <tag k="source" v="GPS"/>
    <tag k="surface" v="asphalt"/>
  </way>
  <way id="20403715" version="6" timestamp="2012-01-15T21:12:43Z" uid="147510" user="woodpeck_fixbot" changeset="10402983">
    <nd ref="217494462"/>
    <nd ref="217496657"/>
    <tag k="highway" v="residential"/>
    <tag k="name" v="Fitzgerald Street"/>
    <tag k="source" v="GPS"/>
    <tag k="surface" v="asphalt"/>
  </way>
  <way id="20403790" version="5" timestamp="2010-07-06T10:11:44Z" uid="74617" user="JohnSmith" changeset="5147679">
    <nd ref="217482097"/>
    <nd ref="217486570"/>
    <nd ref="217486572"/>
    <nd ref="217498694"/>
    <tag k="highway" v="residential"/>
    <tag k="maxspeed" v="50"/>
    <tag k="maxspeed:source" v="default residential speed limit in Australia"/>
    <tag k="name" v="Appia Avenue"/>
  </way>
  <way id="20403790" version="6" timestamp="2010-07-13T10:58:05Z" uid="22094" user="Chadzopkyo" changeset="5206876">
    <nd ref="217482097"/>
    <nd ref="814790685"/>
    <nd ref="217486570"/>
    <nd ref="217486572"/>
    <nd ref="217498694"/>
    <tag k="highway" v="residential"/>
    <tag k="maxspeed" v="50"/>
    <tag k="name" v="Appia Avenue"/>
    <tag k="source" v="GPS"/>
    <tag k="surface" v="asphalt"/>
  </way>
  <way id="20403790" version="7" timestamp="2011-12-12T03:21:11Z" uid="22094" user="Chadzopkyo" changeset="10095724">
    <nd ref="217482097"/>
    <nd ref="217486570"/>
    <nd ref="217486572"/>
    <nd ref="217498694"/>
    <tag k="highway" v="residential"/>
    <tag k="maxspeed" v="50"/>
    <tag k="name" v="Appia Avenue"/>
    <tag k="source" v="GPS"/>
    <tag k="surface" v="asphalt"/>
  </way>
  <way id="20403790" version="8" timestamp="2012-01-15T21:12:45Z" uid="147510" user="woodpeck_fixbot" changeset="10402983">
    <nd ref="217482097"/>
    <nd ref="217486570"/>
    <nd ref="217486572"/>
    <nd ref="217498694"/>
    <tag k="highway" v="residential"/>
    <tag k="name" v="Appia Avenue"/>
    <tag k="source" v="GPS"/>
    <tag k="surface" v="asphalt"/>
  </way>
  <way id="20403846" version="6" timestamp="2010-07-06T10:12:01Z" uid="74617" user="JohnSmith" changeset="5147679">
    <nd ref="217486572"/>
    <nd ref="217500322"/>
    <tag k="highway" v="residential"/>
    <tag k="maxspeed" v="50"/>
    <tag k="maxspeed:source" v="default residential speed limit in Australia"/>
    <tag k="name" v="Aemilia Avenue"/>
  </way>
  <way id="20403846" version="7" timestamp="2010-07-13T10:57:54Z" uid="22094" user="Chadzopkyo" changeset="5206876">
    <nd ref="217486572"/>
    <nd ref="217500322"/>
    <tag k="highway" v="residential"/>
    <tag k="maxspeed" v="50"/>
    <tag k="name" v="Aemilia Avenue"/>
    <tag k="source" v="GPS"/>
    <tag k="surface" v="asphalt"/>
  </way>
  <way id="20403846" version="8" timestamp="2012-01-15T21:12:45Z" uid="147510" user="woodpeck_fixbot" changeset="10402983">
    <nd ref="217486572"/>
    <nd ref="217500322"/>
    <tag k="highway" v="residential"/>
    <tag k="name" v="Aemilia Avenue"/>
    <tag k="source" v="GPS"/>
    <tag k="surface" v="asphalt"/>
  </way>
  <way id="20403905" version="8" timestamp="2010-07-06T10:11:25Z" uid="74617" user="JohnSmith" changeset="5147679">
    <nd ref="128551927"/>
    <nd ref="217538348"/>
    <nd ref="217538352"/>
    <nd ref="217538354"/>
    <nd ref="217502107"/>
    <nd ref="217502111"/>
    <nd ref="456029455"/>
    <nd ref="217484523"/>
    <nd ref="217502118"/>
    <tag k="highway" v="residential"/>
    <tag k="maxspeed" v="50"/>
    <tag k="maxspeed:source" v="default residential speed limit in Australia"/>
    <tag k="name" v="Quirinal Crescent"/>
  </way>
  <way id="20403905" version="9" timestamp="2010-07-13T10:58:02Z" uid="22094" user="Chadzopkyo" changeset="5206876">
    <nd ref="128551927"/>
    <nd ref="217538348"/>
    <nd ref="814790683"/>
    <nd ref="814790699"/>
    <nd ref="217538352"/>
    <nd ref="217538354"/>
    <nd ref="814790714"/>
    <nd ref="814790688"/>
    <nd ref="217502107"/>
    <nd ref="814790718"/>
    <nd ref="217502111"/>
    <nd ref="456029455"/>
    <nd ref="814790694"/>
    <nd ref="217484523"/>
    <nd ref="217502118"/>
    <tag k="highway" v="residential"/>
    <tag k="maxspeed" v="50"/>
    <tag k="name" v="Quirinal Crescent"/>
    <tag k="source" v="GPS"/>
    <tag k="surface" v="asphalt"/>
  </way>
  <way id="20403905" version="10" timestamp="2011-12-12T03:59:06Z" uid="22094" user="Chadzopkyo" changeset="10095783">
    <nd ref="128551927"/>
    <nd ref="217538348"/>
    <nd ref="814790683"/>
    <nd ref="814790699"/>
    <nd ref="217538352"/>
    <nd ref="1541843574"/>
    <nd ref="217538354"/>
    <nd ref="217502107"/>
    <nd ref="1541843568"/>
    <nd ref="217502111"/>
    <nd ref="456029455"/>
    <nd ref="217484523"/>
    <nd ref="217502118"/>
    <tag k="highway" v="residential"/>
    <tag k="maxspeed" v="50"/>
    <tag k="name" v="Quirinal Crescent"/>
    <tag k="source" v="GPS"/>
    <tag k="surface" v="asphalt"/>
  </way>
  <way id="20403905" version="11" timestamp="2012-01-15T21:12:46Z" uid="147510" user="woodpeck_fixbot" changeset="10402983">
    <nd ref="128551927"/>
    <nd ref="217538348"/>
    <nd ref="814790683"/>
    <nd ref="814790699"/>
    <nd ref="217538352"/>
    <nd ref="1541843574"/>
    <nd ref="217538354"/>
    <nd ref="217502107"/>
    <nd ref="1541843568"/>
    <nd ref="217502111"/>
    <nd ref="456029455"/>
    <nd ref="217484523"/>
    <nd ref="217502118"/>
    <tag k="highway" v="residential"/>
    <tag k="name" v="Quirinal Crescent"/>
    <tag k="source" v="GPS"/>
    <tag k="surface" v="asphalt"/>
  </way>
</osm>
