<?xml version='1.0' encoding='UTF-8'?>
<osm version="0.6" generator="libosmium/2.20.0">
  <way id="20421162" version="7" timestamp="2011-02-27T10:18:02Z" uid="4467" user="Rosscoe" changeset="7408633"/>
  <way id="20421166" version="13" timestamp="2011-03-03T01:30:39Z" uid="4467" user="Rosscoe" changeset="7442582">
    <nd ref="217904845"/>
    <nd ref="1183816736"/>
    <tag k="highway" v="secondary"/>
    <tag k="name" v="Blackburn Road"/>
  </way>
  <way id="20421170" version="5" timestamp="2010-05-31T08:30:50Z" uid="4467" user="Rosscoe" changeset="4860766">
    <nd ref="217904845"/>
    <nd ref="217904873"/>
    <nd ref="217904922"/>
    <tag k="highway" v="secondary"/>
    <tag k="is_in" v="East Doncaster,Victoria,Australia"/>
    <tag k="maxspeed" v="60"/>
    <tag k="name" v="Blackburn Road"/>
    <tag k="oneway" v="yes"/>
    <tag k="postal_code" v="3109"/>
    <tag k="source" v="knowledge"/>
  </way>
  <way id="20421173" version="4" timestamp="2010-05-31T08:30:29Z" uid="4467" user="Rosscoe" changeset="4860766">
    <nd ref="217904922"/>
    <nd ref="527871267"/>
    <nd ref="217904952"/>
    <nd ref="217905035"/>
    <nd ref="99919060"/>
    <nd ref="99927600"/>
    <nd ref="99934492"/>
    <nd ref="217905081"/>
    <nd ref="217905109"/>
    <nd ref="217905135"/>
    <tag k="highway" v="primary"/>
    <tag k="is_in" v="East Doncaster,Victoria,Australia"/>
    <tag k="maxspeed" v="60"/>
    <tag k="name" v="Blackburn Road"/>
    <tag k="oneway" v="yes"/>
    <tag k="postal_code" v="3109"/>
    <tag k="ref" v="S13"/>
    <tag k="source" v="knowledge"/>
  </way>
  <way id="20421173" version="5" timestamp="2010-07-03T13:08:42Z" uid="79475" user="AlexOnTheBus" changeset="5124658">
    <nd ref="217904922"/>
    <nd ref="527871267"/>
    <nd ref="217904952"/>
    <nd ref="217905035"/>
    <nd ref="99919060"/>
    <nd ref="99927600"/>
    <nd ref="99934492"/>
    <nd ref="217905081"/>
    <nd ref="217905109"/>
    <nd ref="217905135"/>
    <tag k="highway" v="secondary"/>
    <tag k="is_in" v="East Doncaster,Victoria,Australia"/>
    <tag k="maxspeed" v="60"/>
    <tag k="name" v="Blackburn Road"/>
    <tag k="oneway" v="yes"/>
    <tag k="postal_code" v="3109"/>
    <tag k="ref" v="S 13"/>
    <tag k="source" v="knowledge"/>
  </way>
  <way id="20421173" version="6" timestamp="2011-02-27T10:17:57Z" uid="4467" user="Rosscoe" changeset="7408633">
    <nd ref="217904922"/>
    <nd ref="527871267"/>
    <nd ref="217904952"/>
    <nd ref="217905035"/>
    <nd ref="99919060"/>
    <nd ref="99927600"/>
    <nd ref="1176878975"/>
    <nd ref="99934492"/>
    <nd ref="217905135"/>
    <tag k="highway" v="secondary"/>
    <tag k="is_in" v="East Doncaster,Victoria,Australia"/>
    <tag k="maxspeed" v="60"/>
    <tag k="name" v="Blackburn Road"/>
    <tag k="oneway" v="yes"/>
    <tag k="postal_code" v="3109"/>
    <tag k="ref" v="S 13"/>
    <tag k="source" v="knowledge"/>
  </way>
  <way id="20421175" version="3" timestamp="2011-02-27T10:16:53Z" uid="4467" user="Rosscoe" changeset="7408633">
    <nd ref="217905135"/>
    <nd ref="89085218"/>
    <nd ref="267196132"/>
    <nd ref="315421383"/>
    <nd ref="315421356"/>
    <nd ref="143838992"/>
    <nd ref="315421340"/>
    <tag k="highway" v="tertiary"/>
    <tag k="is_in" v="East Doncaster,Victoria,Australia"/>
    <tag k="maxspeed" v="40"/>
    <tag k="name" v="George Street"/>
    <tag k="postal_code" v="3109"/>
    <tag k="source" v="survey"/>
  </way>
  <way id="20421179" version="3" timestamp="2011-02-27T10:18:05Z" uid="4467" user="Rosscoe" changeset="7408633"/>
  <way id="20421180" version="3" timestamp="2011-02-27T10:18:05Z" uid="4467" user="Rosscoe" changeset="7408633"/>
  <way id="20421183" version="3" timestamp="2010-05-31T08:31:38Z" uid="4467" user="Rosscoe" changeset="4860766">
    <nd ref="99927596"/>
    <nd ref="99927597"/>
    <nd ref="99927598"/>
    <nd ref="99927599"/>
    <nd ref="99927600"/>
    <nd ref="217904612"/>
    <tag k="highway" v="residential"/>
    <tag k="maxspeed" v="50"/>
    <tag k="name" v="Canopus Drive"/>
  </way>
  <way id="20421183" version="4" timestamp="2010-07-03T13:09:08Z" uid="79475" user="AlexOnTheBus" changeset="5124658">
    <nd ref="99927596"/>
    <nd ref="99927597"/>
    <nd ref="99927598"/>
    <nd ref="99927599"/>
    <nd ref="99927600"/>
    <tag k="highway" v="residential"/>
    <tag k="maxspeed" v="50"/>
    <tag k="name" v="Canopus Drive"/>
  </way>
  <way id="20421183" version="5" timestamp="2011-02-27T10:18:05Z" uid="4467" user="Rosscoe" changeset="7408633"/>
  <way id="20421185" version="3" timestamp="2010-05-31T08:32:06Z" uid="4467" user="Rosscoe" changeset="4860766"/>
  <way id="20421191" version="3" timestamp="2010-05-31T08:32:07Z" uid="4467" user="Rosscoe" changeset="4860766"/>
  <way id="20421197" version="3" timestamp="2010-05-31T08:30:23Z" uid="4467" user="Rosscoe" changeset="4860766">
    <nd ref="217904758"/>
    <nd ref="217904922"/>
    <nd ref="217905169"/>
    <nd ref="217905227"/>
    <nd ref="99689690"/>
    <tag k="highway" v="primary"/>
    <tag k="is_in" v="East Doncaster,Victoria,Australia"/>
    <tag k="maxspeed" v="60"/>
    <tag k="name" v="Andersons Creek Road"/>
    <tag k="oneway" v="yes"/>
    <tag k="postal_code" v="3109"/>
    <tag k="ref" v="S13"/>
    <tag k="source" v="nearmap"/>
  </way>
  <way id="20421197" version="4" timestamp="2010-07-03T13:08:37Z" uid="79475" user="AlexOnTheBus" changeset="5124658">
    <nd ref="217904758"/>
    <nd ref="217904922"/>
    <nd ref="217905169"/>
    <nd ref="217905227"/>
    <nd ref="99689690"/>
    <tag k="highway" v="secondary"/>
    <tag k="is_in" v="East Doncaster,Victoria,Australia"/>
    <tag k="maxspeed" v="60"/>
    <tag k="name" v="Andersons Creek Road"/>
    <tag k="oneway" v="yes"/>
    <tag k="postal_code" v="3109"/>
    <tag k="ref" v="S 13"/>
    <tag k="source" v="nearmap"/>
  </way>
  <way id="20421199" version="4" timestamp="2010-05-31T08:32:10Z" uid="4467" user="Rosscoe" changeset="4860766"/>
  <way id="20421206" version="7" timestamp="2011-02-27T10:16:31Z" uid="4467" user="Rosscoe" changeset="7408633">
    <nd ref="217905135"/>
    <nd ref="217905376"/>
    <nd ref="217905409"/>
    <nd ref="217905441"/>
    <nd ref="1176878882"/>
    <nd ref="29964498"/>
    <nd ref="217905494"/>
    <nd ref="118469672"/>
    <nd ref="217905523"/>
    <nd ref="587864943"/>
    <nd ref="277351236"/>
    <nd ref="118472870"/>
    <nd ref="217905558"/>
    <nd ref="118473486"/>
    <nd ref="217905586"/>
    <nd ref="29964468"/>
    <tag k="highway" v="secondary"/>
    <tag k="is_in" v="East Doncaster,Victoria,Australia"/>
    <tag k="lanes" v="2"/>
    <tag k="maxspeed" v="60"/>
    <tag k="name" v="Blackburn Road"/>
    <tag k="oneway" v="yes"/>
    <tag k="postal_code" v="3109"/>
    <tag k="ref" v="S 13"/>
    <tag k="source" v="survey"/>
  </way>
  <way id="20421391" version="4" timestamp="2008-06-18T21:20:45Z" uid="27600" user="Islanit" changeset="213984">
    <nd ref="197556060"/>
    <nd ref="197556061"/>
    <nd ref="8091333"/>
    <nd ref="8091334"/>
    <nd ref="60473420"/>
    <nd ref="60473211"/>
    <nd ref="197572620"/>
    <nd ref="197554724"/>
    <tag k="created_by" v="Potlatch 0.6a"/>
    <tag k="layer" v="-1"/>
    <tag k="railway" v="rail"/>
    <tag k="ref" v="S45"/>
    <tag k="tunnel" v="yes"/>
  </way>
  <way id="20421391" version="5" timestamp="2008-08-05T12:44:00Z" uid="28205" user="kelvan" changeset="71426">
    <nd ref="197556060"/>
    <nd ref="197556061"/>
    <nd ref="8091333"/>
    <tag k="created_by" v="Potlatch 0.6a"/>
    <tag k="layer" v="1"/>
    <tag k="railway" v="rail"/>
    <tag k="ref" v="S45"/>
    <tag k="tunnel" v="yes"/>
  </way>
  <way id="20421391" version="6" timestamp="2008-08-11T09:54:38Z" uid="28205" user="kelvan" changeset="183218">
    <nd ref="197556060"/>
    <nd ref="197556061"/>
    <nd ref="8091333"/>
    <tag k="bridge" v="yes"/>
    <tag k="created_by" v="Potlatch 0.6a"/>
    <tag k="layer" v="1"/>
    <tag k="railway" v="rail"/>
    <tag k="ref" v="S45"/>
  </way>
  <way id="20421391" version="7" timestamp="2009-05-11T19:35:38Z" uid="43577" user="dorni74" changeset="1157272">
    <nd ref="197556060"/>
    <nd ref="197556061"/>
    <nd ref="8091333"/>
    <tag k="bridge" v="yes"/>
    <tag k="created_by" v="Potlatch 0.6a"/>
    <tag k="layer" v="1"/>
    <tag k="railway" v="rail"/>
  </way>
  <way id="20421391" version="8" timestamp="2009-05-28T19:30:19Z" uid="56501" user="Rudolf_H" changeset="1345974">
    <nd ref="197556060"/>
    <nd ref="197556061"/>
    <nd ref="8091333"/>
    <tag k="bridge" v="yes"/>
    <tag k="layer" v="1"/>
    <tag k="operator" v="ÖBB"/>
    <tag k="railway" v="rail"/>
    <tag k="tracks" v="2"/>
  </way>
  <way id="20421391" version="9" timestamp="2009-10-14T04:27:15Z" uid="56501" user="Rudolf_H" changeset="2841937">
    <nd ref="197556060"/>
    <nd ref="197556061"/>
    <nd ref="8091333"/>
    <tag k="bridge" v="yes"/>
    <tag k="electrified" v="contact_line"/>
    <tag k="layer" v="1"/>
    <tag k="operator" v="ÖBB"/>
    <tag k="railway" v="rail"/>
    <tag k="tracks" v="2"/>
    <tag k="usage" v="main"/>
  </way>
  <way id="20421391" version="10" timestamp="2010-03-24T19:35:02Z" uid="129531" user="almich" changeset="4223920">
    <nd ref="197556060"/>
    <nd ref="197556061"/>
    <nd ref="8091333"/>
    <tag k="bridge" v="yes"/>
    <tag k="electrified" v="contact_line"/>
    <tag k="frequency" v="16.7"/>
    <tag k="layer" v="1"/>
    <tag k="operator" v="ÖBB"/>
    <tag k="railway" v="rail"/>
    <tag k="tracks" v="2"/>
    <tag k="usage" v="main"/>
    <tag k="voltage" v="15000"/>
  </way>
  <way id="20421391" version="11" timestamp="2011-02-13T15:00:11Z" uid="28427" user="skunk" changeset="7276241">
    <nd ref="197556060"/>
    <nd ref="197556061"/>
    <nd ref="8091333"/>
    <tag k="bridge" v="yes"/>
    <tag k="electrified" v="contact_line"/>
    <tag k="frequency" v="16.7"/>
    <tag k="layer" v="1"/>
    <tag k="name" v="Vorortelinie"/>
    <tag k="operator" v="ÖBB"/>
    <tag k="railway" v="rail"/>
    <tag k="tracks" v="2"/>
    <tag k="usage" v="main"/>
    <tag k="voltage" v="15000"/>
  </way>
  <way id="20421391" version="12" timestamp="2011-04-05T18:26:06Z" uid="164833" user="reclaM" changeset="7777657">
    <nd ref="197556060"/>
    <nd ref="197556061"/>
    <nd ref="8091333"/>
    <tag k="bridge" v="yes"/>
    <tag k="electrified" v="contact_line"/>
    <tag k="frequency" v="16.7"/>
    <tag k="layer" v="1"/>
    <tag k="name" v="Vorortelinie"/>
    <tag k="operator" v="ÖBB"/>
    <tag k="railway" v="rail"/>
    <tag k="tracks" v="2"/>
    <tag k="usage" v="main"/>
    <tag k="voltage" v="15000"/>
  </way>
  <way id="20421391" version="13" timestamp="2011-08-19T15:50:51Z" uid="56501" user="Rudolf_H" changeset="9066877">
    <nd ref="197556060"/>
    <nd ref="1404626730"/>
    <nd ref="197556061"/>
    <nd ref="1404626740"/>
    <nd ref="1404626741"/>
    <nd ref="1404626742"/>
    <nd ref="8091333"/>
    <tag k="bridge" v="yes"/>
    <tag k="electrified" v="contact_line"/>
    <tag k="frequency" v="16.7"/>
    <tag k="layer" v="1"/>
    <tag k="name" v="Vorortelinie"/>
    <tag k="operator" v="ÖBB"/>
    <tag k="railway" v="rail"/>
    <tag k="tracks" v="2"/>
    <tag k="usage" v="main"/>
    <tag k="voltage" v="15000"/>
  </way>
  <way id="20421391" version="14" timestamp="2011-08-30T18:27:08Z" uid="129531" user="almich" changeset="9169859">
    <nd ref="197556060"/>
    <nd ref="1404626730"/>
    <nd ref="197556061"/>
    <nd ref="1404626740"/>
    <nd ref="1404626741"/>
    <nd ref="1404626742"/>
    <nd ref="8091333"/>
    <tag k="bridge" v="yes"/>
    <tag k="electrified" v="contact_line"/>
    <tag k="frequency" v="16.7"/>
    <tag k="layer" v="1"/>
    <tag k="name" v="Vorortelinie"/>
    <tag k="operator" v="ÖBB"/>
    <tag k="railway" v="rail"/>
    <tag k="tracks" v="1"/>
    <tag k="usage" v="main"/>
    <tag k="voltage" v="15000"/>
  </way>
  <way id="20421391" version="15" timestamp="2011-11-08T00:01:31Z" uid="129531" user="almich" changeset="9770029">
    <nd ref="197556060"/>
    <nd ref="1404626730"/>
    <nd ref="197556061"/>
    <nd ref="1404626740"/>
    <nd ref="1404626741"/>
    <nd ref="1404626742"/>
    <nd ref="8091333"/>
    <tag k="bridge" v="yes"/>
    <tag k="electrified" v="contact_line"/>
    <tag k="frequency" v="16.7"/>
    <tag k="gauge" v="1435"/>
    <tag k="layer" v="1"/>
    <tag k="name" v="Vorortelinie"/>
    <tag k="operator" v="ÖBB"/>
    <tag k="railway" v="rail"/>
    <tag k="tracks" v="1"/>
    <tag k="usage" v="main"/>
    <tag k="voltage" v="15000"/>
  </way>
  <way id="20421951" version="7" timestamp="2011-02-27T10:17:34Z" uid="4467" user="Rosscoe" changeset="7408633">
    <nd ref="217920043"/>
    <nd ref="1176879153"/>
    <nd ref="217920081"/>
    <nd ref="217920129"/>
    <nd ref="217920104"/>
    <tag k="highway" v="secondary"/>
    <tag k="is_in" v="East Doncaster,Victoria,Australia"/>
    <tag k="lanes" v="2"/>
    <tag k="maxspeed" v="60"/>
    <tag k="name" v="Blackburn Road"/>
    <tag k="oneway" v="yes"/>
    <tag k="postal_code" v="3109"/>
    <tag k="ref" v="S 13"/>
    <tag k="source" v="knowledge"/>
  </way>
  <way id="20421953" version="4" timestamp="2011-02-27T10:16:45Z" uid="4467" user="Rosscoe" changeset="7408633">
    <nd ref="217920129"/>
    <nd ref="217920153"/>
    <nd ref="217920202"/>
    <tag k="highway" v="primary_link"/>
    <tag k="oneway" v="yes"/>
    <tag k="source" v="nearmap"/>
  </way>
  <way id="20421956" version="4" timestamp="2011-02-27T10:17:40Z" uid="4467" user="Rosscoe" changeset="7408633">
    <nd ref="217920222"/>
    <nd ref="217920290"/>
    <nd ref="217905672"/>
    <tag k="highway" v="primary_link"/>
    <tag k="oneway" v="yes"/>
    <tag k="source" v="nearmap"/>
  </way>
  <way id="20421959" version="6" timestamp="2011-02-27T10:17:52Z" uid="4467" user="Rosscoe" changeset="7408633">
    <nd ref="217905586"/>
    <nd ref="217920349"/>
    <nd ref="217920420"/>
    <tag k="highway" v="primary_link"/>
    <tag k="oneway" v="yes"/>
    <tag k="source" v="nearmap"/>
  </way>
  <way id="20421166" version="14" timestamp="2012-07-19T22:51:54Z" uid="722137" user="OSMF Redaction Account" changeset="12351024"/>
  <way id="20421170" version="6" timestamp="2012-08-13T07:27:22Z" uid="69319" user="Rhubarb" changeset="12710093">
    <nd ref="217904845"/>
    <nd ref="217904873"/>
    <nd ref="1863970467"/>
    <nd ref="217904922"/>
    <nd ref="527871267"/>
    <tag k="highway" v="secondary"/>
    <tag k="is_in" v="East Doncaster,Victoria,Australia"/>
    <tag k="maxspeed" v="60"/>
    <tag k="name" v="Blackburn Road"/>
    <tag k="oneway" v="yes"/>
    <tag k="postal_code" v="3109"/>
    <tag k="source" v="knowledge"/>
  </way>
  <way id="20421173" version="7" timestamp="2012-07-19T22:46:33Z" uid="722137" user="OSMF Redaction Account" changeset="12350895">
    <nd ref="217904952"/>
    <nd ref="217905035"/>
    <nd ref="99919060"/>
    <nd ref="99927600"/>
    <nd ref="99934492"/>
    <nd ref="217905135"/>
    <tag k="highway" v="secondary"/>
    <tag k="is_in" v="East Doncaster,Victoria,Australia"/>
    <tag k="maxspeed" v="60"/>
    <tag k="name" v="Blackburn Road"/>
    <tag k="postal_code" v="3109"/>
    <tag k="ref" v="S 13"/>
    <tag k="source" v="knowledge"/>
  </way>
  <way id="20421173" version="8" timestamp="2012-08-13T07:27:22Z" uid="69319" user="Rhubarb" changeset="12710093">
    <nd ref="527871267"/>
    <nd ref="217904952"/>
    <nd ref="1863970471"/>
    <nd ref="217905035"/>
    <nd ref="99919060"/>
    <nd ref="99927600"/>
    <tag k="highway" v="secondary"/>
    <tag k="is_in" v="East Doncaster,Victoria,Australia"/>
    <tag k="maxspeed" v="60"/>
    <tag k="name" v="Blackburn Road"/>
    <tag k="oneway" v="yes"/>
    <tag k="postal_code" v="3109"/>
    <tag k="ref" v="S 13"/>
    <tag k="source" v="knowledge"/>
  </way>
  <way id="20421173" version="9" timestamp="2012-09-04T13:19:40Z" uid="67896" user="mrpulley" changeset="12981864">
    <nd ref="527871267"/>
    <nd ref="217904952"/>
    <nd ref="1863970471"/>
    <nd ref="217905035"/>
    <nd ref="99919060"/>
    <nd ref="99927600"/>
    <tag k="highway" v="secondary"/>
    <tag k="is_in" v="East Doncaster,Victoria,Australia"/>
    <tag k="maxspeed" v="60"/>
    <tag k="name" v="Blackburn Road"/>
    <tag k="network" v="S"/>
    <tag k="oneway" v="yes"/>
    <tag k="postal_code" v="3109"/>
    <tag k="ref" v="13"/>
    <tag k="source" v="knowledge"/>
  </way>
  <way id="20421175" version="4" timestamp="2012-07-19T22:49:16Z" uid="722137" user="OSMF Redaction Account" changeset="12350979">
    <nd ref="89085218"/>
    <nd ref="217905135"/>
    <tag k="highway" v="secondary"/>
  </way>
  <way id="20421175" version="5" timestamp="2012-08-13T07:27:25Z" uid="69319" user="Rhubarb" changeset="12710093">
    <nd ref="217905135"/>
    <nd ref="89085218"/>
    <nd ref="267196132"/>
    <nd ref="315421383"/>
    <nd ref="315421356"/>
    <nd ref="143838992"/>
    <nd ref="315421340"/>
    <nd ref="217841738"/>
    <nd ref="315421282"/>
    <nd ref="143845730"/>
    <tag k="cycleway" v="lane"/>
    <tag k="highway" v="tertiary"/>
    <tag k="is_in" v="East Doncaster,Victoria,Australia"/>
    <tag k="maxspeed" v="40"/>
    <tag k="name" v="George Street"/>
    <tag k="postal_code" v="3109"/>
    <tag k="source" v="survey"/>
  </way>
  <way id="20421197" version="5" timestamp="2012-07-19T22:49:19Z" uid="722137" user="OSMF Redaction Account" changeset="12350979">
    <nd ref="217904922"/>
    <nd ref="217905169"/>
    <nd ref="217905227"/>
    <nd ref="99689690"/>
    <tag k="highway" v="secondary"/>
    <tag k="is_in" v="East Doncaster,Victoria,Australia"/>
    <tag k="maxspeed" v="60"/>
    <tag k="name" v="Andersons Creek Road"/>
    <tag k="oneway" v="yes"/>
    <tag k="postal_code" v="3109"/>
    <tag k="ref" v="S 13"/>
    <tag k="source" v="knowledge"/>
  </way>
  <way id="20421197" version="6" timestamp="2012-08-13T07:27:21Z" uid="69319" user="Rhubarb" changeset="12710093">
    <nd ref="1863970470"/>
    <nd ref="1863970469"/>
    <tag k="highway" v="secondary"/>
    <tag k="is_in" v="East Doncaster,Victoria,Australia"/>
    <tag k="maxspeed" v="60"/>
    <tag k="name" v="Andersons Creek Road"/>
    <tag k="oneway" v="yes"/>
    <tag k="postal_code" v="3109"/>
    <tag k="ref" v="S 13"/>
    <tag k="source" v="knowledge"/>
  </way>
  <way id="20421197" version="7" timestamp="2012-09-04T13:19:25Z" uid="67896" user="mrpulley" changeset="12981864">
    <nd ref="1863970470"/>
    <nd ref="1863970469"/>
    <tag k="highway" v="secondary"/>
    <tag k="is_in" v="East Doncaster,Victoria,Australia"/>
    <tag k="maxspeed" v="60"/>
    <tag k="name" v="Andersons Creek Road"/>
    <tag k="network" v="S"/>
    <tag k="oneway" v="yes"/>
    <tag k="postal_code" v="3109"/>
    <tag k="ref" v="13"/>
    <tag k="source" v="knowledge"/>
  </way>
  <way id="20421206" version="8" timestamp="2012-07-19T22:46:35Z" uid="722137" user="OSMF Redaction Account" changeset="12350895">
    <nd ref="217905135"/>
    <nd ref="217905376"/>
    <nd ref="217905409"/>
    <nd ref="217905441"/>
    <nd ref="29964498"/>
    <nd ref="217905494"/>
    <nd ref="118469672"/>
    <nd ref="217905523"/>
    <nd ref="587864943"/>
    <nd ref="277351236"/>
    <nd ref="118472870"/>
    <nd ref="217905558"/>
    <nd ref="118473486"/>
    <nd ref="217905586"/>
    <nd ref="29964468"/>
    <tag k="highway" v="secondary"/>
    <tag k="is_in" v="East Doncaster,Victoria,Australia"/>
    <tag k="lanes" v="2"/>
    <tag k="maxspeed" v="60"/>
    <tag k="name" v="Blackburn Road"/>
    <tag k="oneway" v="yes"/>
    <tag k="postal_code" v="3109"/>
    <tag k="ref" v="S 13"/>
    <tag k="source" v="survey"/>
  </way>
  <way id="20421206" version="9" timestamp="2012-09-04T13:19:35Z" uid="67896" user="mrpulley" changeset="12981864">
    <nd ref="217905135"/>
    <nd ref="217905376"/>
    <nd ref="217905409"/>
    <nd ref="217905441"/>
    <nd ref="29964498"/>
    <nd ref="217905494"/>
    <nd ref="118469672"/>
    <nd ref="217905523"/>
    <nd ref="587864943"/>
    <nd ref="277351236"/>
    <nd ref="118472870"/>
    <nd ref="217905558"/>
    <nd ref="118473486"/>
    <nd ref="217905586"/>
    <nd ref="29964468"/>
    <tag k="highway" v="secondary"/>
    <tag k="is_in" v="East Doncaster,Victoria,Australia"/>
    <tag k="lanes" v="2"/>
    <tag k="maxspeed" v="60"/>
    <tag k="name" v="Blackburn Road"/>
    <tag k="network" v="S"/>
    <tag k="oneway" v="yes"/>
    <tag k="postal_code" v="3109"/>
    <tag k="ref" v="13"/>
    <tag k="source" v="survey"/>
  </way>
  <way id="20421391" version="16" timestamp="2012-07-12T09:11:13Z" uid="57945" user="simon04" changeset="12193684">
    <nd ref="197556060"/>
    <nd ref="1404626730"/>
    <nd ref="197556061"/>
    <nd ref="1404626740"/>
    <nd ref="1404626741"/>
    <nd ref="1404626742"/>
    <nd ref="8091333"/>
    <tag k="bridge" v="yes"/>
    <tag k="electrified" v="contact_line"/>
    <tag k="frequency" v="16.7"/>
    <tag k="gauge" v="1435"/>
    <tag k="layer" v="1"/>
    <tag k="name" v="Vorortelinie"/>
    <tag k="operator" v="ÖBB"/>
    <tag k="railway" v="rail"/>
    <tag k="tracks" v="1"/>
    <tag k="usage" v="main"/>
    <tag k="voltage" v="15000"/>
    <tag k="wikipedia" v="de:Vorortelinie"/>
  </way>
  <way id="20421951" version="9" timestamp="2012-07-19T22:46:44Z" uid="722137" user="OSMF Redaction Account" changeset="12350895">
    <nd ref="217920043"/>
    <nd ref="217920081"/>
    <nd ref="217920129"/>
    <nd ref="1700569715"/>
    <tag k="highway" v="secondary"/>
    <tag k="is_in" v="East Doncaster,Victoria,Australia"/>
    <tag k="lanes" v="2"/>
    <tag k="maxspeed" v="60"/>
    <tag k="name" v="Blackburn Road"/>
    <tag k="oneway" v="yes"/>
    <tag k="postal_code" v="3109"/>
    <tag k="ref" v="S 13"/>
    <tag k="source" v="knowledge"/>
  </way>
  <way id="20421951" version="10" timestamp="2012-09-04T13:19:40Z" uid="67896" user="mrpulley" changeset="12981864">
    <nd ref="217920043"/>
    <nd ref="217920081"/>
    <nd ref="217920129"/>
    <nd ref="1700569715"/>
    <tag k="highway" v="secondary"/>
    <tag k="is_in" v="East Doncaster,Victoria,Australia"/>
    <tag k="lanes" v="2"/>
    <tag k="maxspeed" v="60"/>
    <tag k="name" v="Blackburn Road"/>
    <tag k="network" v="S"/>
    <tag k="oneway" v="yes"/>
    <tag k="postal_code" v="3109"/>
    <tag k="ref" v="13"/>
    <tag k="source" v="knowledge"/>
  </way>
  <way id="20421953" version="5" timestamp="2012-07-19T22:49:12Z" uid="722137" user="OSMF Redaction Account" changeset="12350979">
    <nd ref="217920129"/>
    <nd ref="217920153"/>
    <nd ref="217920202"/>
    <tag k="highway" v="secondary"/>
    <tag k="oneway" v="yes"/>
  </way>
  <way id="20421956" version="5" timestamp="2012-07-19T22:49:12Z" uid="722137" user="OSMF Redaction Account" changeset="12350979">
    <nd ref="217920222"/>
    <nd ref="217920290"/>
    <nd ref="217905672"/>
    <tag k="highway" v="secondary"/>
    <tag k="oneway" v="yes"/>
  </way>
  <way id="20421959" version="7" timestamp="2012-07-19T22:49:13Z" uid="722137" user="OSMF Redaction Account" changeset="12350979">
    <nd ref="217905586"/>
    <nd ref="217920349"/>
    <nd ref="217920420"/>
    <tag k="highway" v="secondary"/>
    <tag k="oneway" v="yes"/>
    <tag k="source" v="survey"/>
  </way>
</osm>
