<?xml version='1.0' encoding='UTF-8'?>
<osm version="0.6" generator="libosmium/2.20.0">
  <way id="20462935" version="1" timestamp="2008-01-11T18:31:04Z" uid="9581" user="Lobelt" changeset="606174">
    <nd ref="218696079"/>
    <nd ref="218696083"/>
    <nd ref="218696088"/>
    <nd ref="218696090"/>
    <nd ref="218696079"/>
    <tag k="building" v="yes"/>
    <tag k="created_by" v="JOSM"/>
    <tag k="name" v="Gebäude 10"/>
  </way>
  <way id="20462935" version="2" timestamp="2009-12-17T00:56:50Z" uid="60345" user="Mirko Küster" changeset="3390877">
    <nd ref="218696079"/>
    <nd ref="218696083"/>
    <nd ref="218696088"/>
    <nd ref="218696090"/>
    <nd ref="218696079"/>
    <tag k="building" v="yes"/>
    <tag k="name" v="Gebäude 10"/>
  </way>
  <way id="20462935" version="3" timestamp="2011-08-17T22:13:04Z" uid="28234" user="derandi" changeset="9052477">
    <nd ref="218696079"/>
    <nd ref="218696083"/>
    <nd ref="218696088"/>
    <nd ref="218696090"/>
    <nd ref="1402776942"/>
    <nd ref="218696079"/>
    <tag k="addr:city" v="Cottbus"/>
    <tag k="addr:country" v="DE"/>
    <tag k="addr:housename" v="Gebäude 10"/>
    <tag k="addr:postcode" v="03048"/>
    <tag k="addr:street" v="Lipezker Straße"/>
    <tag k="building" v="yes"/>
    <tag k="name" v="Lehrgebäude Sozialwesen"/>
    <tag k="wheelchair" v="yes"/>
  </way>
  <way id="20462935" version="4" timestamp="2011-12-16T15:44:15Z" uid="28234" user="derandi" changeset="10131872"/>
  <way id="20462936" version="1" timestamp="2008-01-11T18:31:04Z" uid="9581" user="Lobelt" changeset="606174">
    <nd ref="218696094"/>
    <nd ref="218696098"/>
    <nd ref="218696104"/>
    <nd ref="218696107"/>
    <nd ref="218696094"/>
    <tag k="building" v="yes"/>
    <tag k="created_by" v="JOSM"/>
    <tag k="name" v="Gebäude 9"/>
  </way>
  <way id="20462936" version="2" timestamp="2009-12-17T00:56:50Z" uid="60345" user="Mirko Küster" changeset="3390877">
    <nd ref="218696094"/>
    <nd ref="218696098"/>
    <nd ref="218696104"/>
    <nd ref="218696107"/>
    <nd ref="218696094"/>
    <tag k="building" v="yes"/>
    <tag k="name" v="Gebäude 9"/>
  </way>
  <way id="20462936" version="3" timestamp="2011-08-17T22:13:03Z" uid="28234" user="derandi" changeset="9052477">
    <nd ref="218696094"/>
    <nd ref="218696098"/>
    <nd ref="218696104"/>
    <nd ref="218696107"/>
    <nd ref="218696094"/>
    <tag k="addr:city" v="Cottbus"/>
    <tag k="addr:country" v="DE"/>
    <tag k="addr:housename" v="Gebäude 9"/>
    <tag k="addr:postcode" v="03048"/>
    <tag k="addr:street" v="Lipezker Straße"/>
    <tag k="building" v="yes"/>
    <tag k="name" v="Lehrgebäude Betriebswirtschaftslehre"/>
    <tag k="wheelchair" v="yes"/>
  </way>
  <way id="20462936" version="4" timestamp="2011-12-16T15:44:15Z" uid="28234" user="derandi" changeset="10131872"/>
  <way id="20462937" version="1" timestamp="2008-01-11T18:31:05Z" uid="9581" user="Lobelt" changeset="606174">
    <nd ref="218696111"/>
    <nd ref="218696116"/>
    <nd ref="218696120"/>
    <nd ref="218696127"/>
    <nd ref="218696111"/>
    <tag k="building" v="yes"/>
    <tag k="created_by" v="JOSM"/>
    <tag k="name" v="Gebäude 11"/>
  </way>
  <way id="20462937" version="2" timestamp="2009-12-17T00:56:50Z" uid="60345" user="Mirko Küster" changeset="3390877">
    <nd ref="218696111"/>
    <nd ref="218696116"/>
    <nd ref="218696120"/>
    <nd ref="218696127"/>
    <nd ref="218696111"/>
    <tag k="building" v="yes"/>
    <tag k="name" v="Gebäude 11"/>
  </way>
  <way id="20462937" version="3" timestamp="2011-08-17T22:13:03Z" uid="28234" user="derandi" changeset="9052477">
    <nd ref="218696111"/>
    <nd ref="218696116"/>
    <nd ref="218696120"/>
    <nd ref="218696127"/>
    <nd ref="1402776867"/>
    <nd ref="218696111"/>
    <tag k="addr:city" v="Cottbus"/>
    <tag k="addr:country" v="DE"/>
    <tag k="addr:housename" v="Gebäude 11"/>
    <tag k="addr:postcode" v="03048"/>
    <tag k="addr:street" v="Lipezker Straße"/>
    <tag k="building" v="yes"/>
    <tag k="name" v="Lehrgebäude Bauningenieurwesen Architektur"/>
    <tag k="wheelchair" v="yes"/>
  </way>
  <way id="20462937" version="4" timestamp="2011-12-16T15:44:15Z" uid="28234" user="derandi" changeset="10131872"/>
  <way id="20462938" version="1" timestamp="2008-01-11T18:31:05Z" uid="9581" user="Lobelt" changeset="606174">
    <nd ref="218696132"/>
    <nd ref="218696138"/>
    <nd ref="218696144"/>
    <nd ref="218696146"/>
    <nd ref="218696132"/>
    <tag k="building" v="yes"/>
    <tag k="created_by" v="JOSM"/>
    <tag k="name" v="Gebäude 12"/>
  </way>
  <way id="20462938" version="2" timestamp="2009-12-17T00:56:45Z" uid="60345" user="Mirko Küster" changeset="3390877">
    <nd ref="218696132"/>
    <nd ref="218696138"/>
    <nd ref="218696144"/>
    <nd ref="218696146"/>
    <nd ref="218696132"/>
    <tag k="building" v="yes"/>
    <tag k="name" v="Gebäude 12"/>
  </way>
  <way id="20462938" version="3" timestamp="2011-12-16T15:44:14Z" uid="28234" user="derandi" changeset="10131872"/>
  <way id="20462939" version="1" timestamp="2008-01-11T18:31:06Z" uid="9581" user="Lobelt" changeset="606174">
    <nd ref="218696149"/>
    <nd ref="218696153"/>
    <nd ref="218696158"/>
    <nd ref="218696162"/>
    <nd ref="218696149"/>
    <tag k="building" v="yes"/>
    <tag k="created_by" v="JOSM"/>
    <tag k="name" v="Mensa"/>
  </way>
  <way id="20462939" version="2" timestamp="2009-12-17T00:56:49Z" uid="60345" user="Mirko Küster" changeset="3390877">
    <nd ref="218696149"/>
    <nd ref="218696153"/>
    <nd ref="218696158"/>
    <nd ref="218696162"/>
    <nd ref="218696149"/>
    <tag k="building" v="yes"/>
    <tag k="name" v="Mensa"/>
  </way>
  <way id="20462939" version="3" timestamp="2011-08-17T22:13:00Z" uid="28234" user="derandi" changeset="9052477">
    <nd ref="218696149"/>
    <nd ref="218696153"/>
    <nd ref="218696158"/>
    <nd ref="1402776804"/>
    <nd ref="1402776772"/>
    <nd ref="218696162"/>
    <nd ref="218696149"/>
    <tag k="addr:city" v="Cottbus"/>
    <tag k="addr:country" v="DE"/>
    <tag k="addr:housenumber" v="47"/>
    <tag k="addr:postcode" v="03048"/>
    <tag k="addr:street" v="Lipezker Straße"/>
    <tag k="amenity" v="public_building"/>
    <tag k="building" v="yes"/>
    <tag k="name" v="Cafeteria HL"/>
    <tag k="opening_hours" v="Mo-Fr 08:00-14:30"/>
    <tag k="phone" v="03554867116"/>
    <tag k="website" v="http://www.studentenwerk-frankfurt.de/2011/index.php?lg=de&amp;rt=Cottbus&amp;ct=Gastronomie&amp;sct=Home&amp;city=Cottbus&amp;style=&amp;lk=CafeteriaHL"/>
    <tag k="wheelchair" v="yes"/>
  </way>
  <way id="20462939" version="4" timestamp="2011-12-16T15:44:14Z" uid="28234" user="derandi" changeset="10131872"/>
  <way id="20462940" version="1" timestamp="2008-01-11T18:31:06Z" uid="9581" user="Lobelt" changeset="606174">
    <nd ref="218696166"/>
    <nd ref="218696169"/>
    <nd ref="218696176"/>
    <nd ref="218696179"/>
    <nd ref="218696166"/>
    <tag k="building" v="yes"/>
    <tag k="created_by" v="JOSM"/>
    <tag k="name" v="Gebäude 7"/>
  </way>
  <way id="20462940" version="2" timestamp="2009-12-17T00:56:47Z" uid="60345" user="Mirko Küster" changeset="3390877">
    <nd ref="218696166"/>
    <nd ref="218696169"/>
    <nd ref="218696176"/>
    <nd ref="218696179"/>
    <nd ref="218696166"/>
    <tag k="building" v="yes"/>
    <tag k="name" v="Gebäude 7"/>
  </way>
  <way id="20462940" version="3" timestamp="2011-08-17T22:13:19Z" uid="28234" user="derandi" changeset="9052477"/>
  <way id="20462941" version="1" timestamp="2008-01-11T18:31:07Z" uid="9581" user="Lobelt" changeset="606174">
    <nd ref="218696181"/>
    <nd ref="218696184"/>
    <nd ref="218696190"/>
    <nd ref="218696197"/>
    <nd ref="218696203"/>
    <nd ref="218696208"/>
    <nd ref="218696213"/>
    <nd ref="218696218"/>
    <nd ref="218696181"/>
    <tag k="building" v="yes"/>
    <tag k="created_by" v="JOSM"/>
    <tag k="name" v="Wohnheim 1"/>
  </way>
  <way id="20462941" version="2" timestamp="2009-12-17T00:56:48Z" uid="60345" user="Mirko Küster" changeset="3390877">
    <nd ref="218696181"/>
    <nd ref="218696184"/>
    <nd ref="218696190"/>
    <nd ref="218696197"/>
    <nd ref="218696203"/>
    <nd ref="218696208"/>
    <nd ref="218696213"/>
    <nd ref="218696218"/>
    <nd ref="218696181"/>
    <tag k="building" v="yes"/>
    <tag k="name" v="Wohnheim 1"/>
  </way>
  <way id="20462941" version="3" timestamp="2011-08-17T22:13:10Z" uid="28234" user="derandi" changeset="9052477">
    <nd ref="218696181"/>
    <nd ref="218696184"/>
    <nd ref="218696190"/>
    <nd ref="218696197"/>
    <nd ref="218696203"/>
    <nd ref="218696208"/>
    <nd ref="218696213"/>
    <nd ref="1402776636"/>
    <nd ref="218696218"/>
    <nd ref="1402776605"/>
    <nd ref="218696181"/>
    <tag k="addr:city" v="Cottbus"/>
    <tag k="addr:country" v="DE"/>
    <tag k="addr:housenumber" v="46"/>
    <tag k="addr:postcode" v="03048"/>
    <tag k="addr:street" v="Lipezker Straße"/>
    <tag k="building" v="yes"/>
    <tag k="name" v="Wohnheim 1"/>
  </way>
  <way id="20462941" version="4" timestamp="2011-12-16T15:44:18Z" uid="28234" user="derandi" changeset="10131872"/>
  <way id="20462942" version="1" timestamp="2008-01-11T18:31:07Z" uid="9581" user="Lobelt" changeset="606174">
    <nd ref="218696223"/>
    <nd ref="218696228"/>
    <nd ref="218696235"/>
    <nd ref="218696240"/>
    <nd ref="218696247"/>
    <nd ref="218696253"/>
    <nd ref="218696260"/>
    <nd ref="218696264"/>
    <nd ref="218696223"/>
    <tag k="building" v="yes"/>
    <tag k="created_by" v="JOSM"/>
    <tag k="name" v="Gebäude 14"/>
  </way>
  <way id="20462942" version="2" timestamp="2009-12-17T00:56:49Z" uid="60345" user="Mirko Küster" changeset="3390877">
    <nd ref="218696223"/>
    <nd ref="218696228"/>
    <nd ref="218696235"/>
    <nd ref="218696240"/>
    <nd ref="218696247"/>
    <nd ref="218696253"/>
    <nd ref="218696260"/>
    <nd ref="218696264"/>
    <nd ref="218696223"/>
    <tag k="building" v="yes"/>
    <tag k="name" v="Gebäude 14"/>
  </way>
  <way id="20462942" version="3" timestamp="2011-08-17T22:13:01Z" uid="28234" user="derandi" changeset="9052477">
    <nd ref="218696223"/>
    <nd ref="218696228"/>
    <nd ref="218696235"/>
    <nd ref="218696240"/>
    <nd ref="218696247"/>
    <nd ref="218696253"/>
    <nd ref="218696260"/>
    <nd ref="218696264"/>
    <nd ref="218696223"/>
    <tag k="addr:city" v="Cottbus"/>
    <tag k="addr:country" v="DE"/>
    <tag k="addr:housenumber" v="46"/>
    <tag k="addr:postcode" v="03048"/>
    <tag k="addr:street" v="Lipezker Straße"/>
    <tag k="building" v="yes"/>
    <tag k="name" v="Gebäude 14"/>
  </way>
  <way id="20462942" version="4" timestamp="2011-12-16T15:44:14Z" uid="28234" user="derandi" changeset="10131872"/>
  <way id="20462946" version="1" timestamp="2008-01-11T18:31:08Z" uid="9581" user="Lobelt" changeset="606174">
    <nd ref="218696268"/>
    <nd ref="218696270"/>
    <nd ref="218696275"/>
    <nd ref="218696278"/>
    <nd ref="218696284"/>
    <nd ref="218696290"/>
    <nd ref="218696295"/>
    <nd ref="218696300"/>
    <nd ref="218696304"/>
    <nd ref="218696310"/>
    <nd ref="218696315"/>
    <nd ref="218696320"/>
    <nd ref="218696322"/>
    <nd ref="218696330"/>
    <nd ref="218696334"/>
    <nd ref="218696337"/>
    <nd ref="218696341"/>
    <nd ref="218696346"/>
    <nd ref="218696351"/>
    <nd ref="218696357"/>
    <nd ref="218696360"/>
    <nd ref="218696366"/>
    <nd ref="218696369"/>
    <nd ref="218696373"/>
    <nd ref="218696380"/>
    <nd ref="218696387"/>
    <nd ref="218696268"/>
    <tag k="building" v="yes"/>
    <tag k="created_by" v="JOSM"/>
    <tag k="name" v="Gebäude 15"/>
  </way>
  <way id="20462946" version="2" timestamp="2009-12-17T00:56:44Z" uid="60345" user="Mirko Küster" changeset="3390877">
    <nd ref="218696268"/>
    <nd ref="218696270"/>
    <nd ref="218696275"/>
    <nd ref="218696278"/>
    <nd ref="218696284"/>
    <nd ref="218696290"/>
    <nd ref="218696295"/>
    <nd ref="218696300"/>
    <nd ref="218696304"/>
    <nd ref="218696310"/>
    <nd ref="218696315"/>
    <nd ref="218696320"/>
    <nd ref="218696322"/>
    <nd ref="218696330"/>
    <nd ref="218696334"/>
    <nd ref="218696337"/>
    <nd ref="218696341"/>
    <nd ref="218696346"/>
    <nd ref="218696351"/>
    <nd ref="218696357"/>
    <nd ref="218696360"/>
    <nd ref="218696366"/>
    <nd ref="218696369"/>
    <nd ref="218696373"/>
    <nd ref="218696380"/>
    <nd ref="218696387"/>
    <nd ref="218696268"/>
    <tag k="building" v="yes"/>
    <tag k="name" v="Gebäude 15"/>
  </way>
  <way id="20462946" version="3" timestamp="2011-08-17T22:13:01Z" uid="28234" user="derandi" changeset="9052477">
    <nd ref="218696268"/>
    <nd ref="218696270"/>
    <nd ref="218696275"/>
    <nd ref="218696278"/>
    <nd ref="218696284"/>
    <nd ref="218696290"/>
    <nd ref="218696295"/>
    <nd ref="218696300"/>
    <nd ref="218696304"/>
    <nd ref="218696310"/>
    <nd ref="218696315"/>
    <nd ref="218696320"/>
    <nd ref="218696322"/>
    <nd ref="218696330"/>
    <nd ref="218696334"/>
    <nd ref="218696337"/>
    <nd ref="218696341"/>
    <nd ref="218696346"/>
    <nd ref="218696351"/>
    <nd ref="218696357"/>
    <nd ref="218696360"/>
    <nd ref="218696366"/>
    <nd ref="218696369"/>
    <nd ref="218696373"/>
    <nd ref="218696380"/>
    <nd ref="218696387"/>
    <nd ref="218696268"/>
    <tag k="addr:city" v="Cottbus"/>
    <tag k="addr:country" v="DE"/>
    <tag k="addr:housename" v="Gebäude 15"/>
    <tag k="addr:postcode" v="03048"/>
    <tag k="addr:street" v="Lipezker Straße"/>
    <tag k="building" v="yes"/>
    <tag k="name" v="Laborgebäude Bauingenieurwesen Verfahrenstechnik"/>
    <tag k="wheelchair" v="yes"/>
  </way>
  <way id="20462946" version="4" timestamp="2011-12-16T15:44:15Z" uid="28234" user="derandi" changeset="10131872"/>
  <way id="20462947" version="1" timestamp="2008-01-11T18:31:08Z" uid="9581" user="Lobelt" changeset="606174">
    <nd ref="218696393"/>
    <nd ref="218696396"/>
    <nd ref="218696404"/>
    <nd ref="218696408"/>
    <nd ref="218696393"/>
    <tag k="building" v="yes"/>
    <tag k="created_by" v="JOSM"/>
  </way>
  <way id="20462947" version="2" timestamp="2008-01-18T14:52:05Z" uid="14029" user="MartinDornfelder" changeset="660995">
    <nd ref="218696393"/>
    <nd ref="218696396"/>
    <nd ref="218696404"/>
    <nd ref="218696408"/>
    <nd ref="218696393"/>
    <tag k="building" v="yes"/>
    <tag k="created_by" v="Potlatch 0.6c"/>
    <tag k="name" v="Haus3"/>
  </way>
  <way id="20462947" version="3" timestamp="2008-01-18T14:52:36Z" uid="14029" user="MartinDornfelder" changeset="660995">
    <nd ref="218696393"/>
    <nd ref="218696396"/>
    <nd ref="218696404"/>
    <nd ref="218696408"/>
    <nd ref="218696393"/>
    <tag k="building" v="yes"/>
    <tag k="created_by" v="Potlatch 0.6c"/>
    <tag k="name" v="Haus 3"/>
  </way>
  <way id="20462947" version="4" timestamp="2008-03-07T09:08:21Z" uid="14029" user="MartinDornfelder" changeset="278717">
    <nd ref="218696393"/>
    <nd ref="218696396"/>
    <nd ref="218696404"/>
    <nd ref="218696408"/>
    <nd ref="218696393"/>
    <tag k="building" v="yes"/>
    <tag k="created_by" v="Potlatch 0.7b"/>
    <tag k="name" v="Brandenbrugischr Landesbetrieb für Liegenschaften"/>
  </way>
  <way id="20462947" version="5" timestamp="2008-04-30T09:08:34Z" uid="14029" user="MartinDornfelder" changeset="290283">
    <nd ref="218696393"/>
    <nd ref="218696396"/>
    <nd ref="218696404"/>
    <nd ref="218696408"/>
    <nd ref="218696393"/>
    <tag k="building" v="yes"/>
    <tag k="created_by" v="Potlatch 0.8b"/>
    <tag k="name" v="Brandenburgischer Landesbetrieb für Liegenschaften"/>
  </way>
  <way id="20462947" version="6" timestamp="2008-05-13T09:12:12Z" uid="14029" user="MartinDornfelder" changeset="435150">
    <nd ref="218696393"/>
    <nd ref="218696396"/>
    <nd ref="218696404"/>
    <nd ref="218696408"/>
    <nd ref="218696393"/>
    <tag k="building" v="yes"/>
    <tag k="created_by" v="Potlatch 0.9a"/>
    <tag k="name" v="Landesbetrieb für Liegenschaften"/>
  </way>
  <way id="20462947" version="7" timestamp="2008-11-20T17:49:58Z" uid="77025" user="tecs" changeset="771676">
    <nd ref="218696393"/>
    <nd ref="218696396"/>
    <nd ref="218696404"/>
    <nd ref="218696408"/>
    <nd ref="218696393"/>
    <tag k="building" v="yes"/>
    <tag k="created_by" v="Merkaartor 0.12"/>
    <tag k="name" v="Landesbetrieb für Liegenschaften / Ministerium der Finanzen/ ZBB"/>
  </way>
  <way id="20462947" version="8" timestamp="2008-11-25T14:39:54Z" uid="77025" user="tecs" changeset="794392">
    <nd ref="218696393"/>
    <nd ref="218696396"/>
    <nd ref="218696404"/>
    <nd ref="218696408"/>
    <nd ref="218696393"/>
    <tag k="building" v="yes"/>
    <tag k="created_by" v="Merkaartor 0.12"/>
    <tag k="name" v="Landesbetrieb für Liegenschaften"/>
  </way>
  <way id="20462947" version="9" timestamp="2009-12-17T00:56:46Z" uid="60345" user="Mirko Küster" changeset="3390877">
    <nd ref="218696393"/>
    <nd ref="218696396"/>
    <nd ref="218696404"/>
    <nd ref="218696408"/>
    <nd ref="218696393"/>
    <tag k="building" v="yes"/>
    <tag k="name" v="Landesbetrieb für Liegenschaften"/>
  </way>
  <way id="20462947" version="10" timestamp="2011-08-17T22:13:02Z" uid="28234" user="derandi" changeset="9052477">
    <nd ref="218696393"/>
    <nd ref="218696396"/>
    <nd ref="218696404"/>
    <nd ref="218696408"/>
    <nd ref="218696393"/>
    <tag k="building" v="yes"/>
    <tag k="name" v="Landesbetrieb für Liegenschaften"/>
    <tag k="office" v="goverment"/>
  </way>
  <way id="20462947" version="11" timestamp="2011-12-15T23:47:48Z" uid="77590" user="Hendrik75" changeset="10128080"/>
  <way id="20462950" version="1" timestamp="2008-01-11T18:31:09Z" uid="9581" user="Lobelt" changeset="606174">
    <nd ref="218696411"/>
    <nd ref="218696415"/>
    <nd ref="218696419"/>
    <nd ref="218696425"/>
    <nd ref="218696411"/>
    <tag k="building" v="yes"/>
    <tag k="created_by" v="JOSM"/>
  </way>
  <way id="20462950" version="2" timestamp="2008-01-18T14:51:53Z" uid="14029" user="MartinDornfelder" changeset="660995">
    <nd ref="218696411"/>
    <nd ref="218696415"/>
    <nd ref="218696419"/>
    <nd ref="218696425"/>
    <nd ref="218696411"/>
    <tag k="building" v="yes"/>
    <tag k="created_by" v="Potlatch 0.6c"/>
    <tag k="name" v="Haus2"/>
  </way>
  <way id="20462950" version="3" timestamp="2008-01-18T14:52:33Z" uid="14029" user="MartinDornfelder" changeset="660995">
    <nd ref="218696411"/>
    <nd ref="218696415"/>
    <nd ref="218696419"/>
    <nd ref="218696425"/>
    <nd ref="218696411"/>
    <tag k="building" v="yes"/>
    <tag k="created_by" v="Potlatch 0.6c"/>
    <tag k="name" v="Haus 2"/>
  </way>
  <way id="20462950" version="4" timestamp="2008-01-19T17:34:18Z" uid="14029" user="MartinDornfelder" changeset="667223">
    <nd ref="218696411"/>
    <nd ref="218696415"/>
    <nd ref="218696419"/>
    <nd ref="218696425"/>
    <nd ref="218696411"/>
    <tag k="building" v="yes"/>
    <tag k="created_by" v="Potlatch 0.6c"/>
    <tag k="name" v="Haus 2 Technisches Finanzamt"/>
  </way>
  <way id="20462950" version="5" timestamp="2008-01-24T14:44:28Z" uid="14029" user="MartinDornfelder" changeset="689619">
    <nd ref="218696411"/>
    <nd ref="218696415"/>
    <nd ref="218696419"/>
    <nd ref="218696425"/>
    <nd ref="218696411"/>
    <tag k="building" v="yes"/>
    <tag k="created_by" v="Potlatch 0.6c"/>
    <tag k="name" v="Technisches Finanzamt"/>
  </way>
  <way id="20462950" version="6" timestamp="2008-11-20T17:49:57Z" uid="77025" user="tecs" changeset="771676">
    <nd ref="218696411"/>
    <nd ref="218696415"/>
    <nd ref="218696419"/>
    <nd ref="218696425"/>
    <nd ref="218696411"/>
    <tag k="building" v="yes"/>
    <tag k="created_by" v="Merkaartor 0.12"/>
    <tag k="name" v="Technisches Finanzamt Cottbus"/>
  </way>
  <way id="20462950" version="7" timestamp="2008-11-25T14:39:54Z" uid="77025" user="tecs" changeset="794392">
    <nd ref="218696411"/>
    <nd ref="218696415"/>
    <nd ref="218696419"/>
    <nd ref="218696425"/>
    <nd ref="218696411"/>
    <tag k="building" v="yes"/>
    <tag k="created_by" v="Merkaartor 0.12"/>
    <tag k="name" v="Technisches Finanzamt"/>
  </way>
  <way id="20462950" version="8" timestamp="2009-06-12T12:49:47Z" uid="132805" user="NoKurth" changeset="1496183">
    <nd ref="218696411"/>
    <nd ref="218696415"/>
    <nd ref="218696419"/>
    <nd ref="218696425"/>
    <nd ref="218696411"/>
    <tag k="addr:housenumber" v="45, Haus 2"/>
    <tag k="addr:street" v="Lipezker Straße"/>
    <tag k="building" v="yes"/>
    <tag k="created_by" v="Merkaartor 0.12"/>
    <tag k="name" v="Technisches Finanzamt"/>
  </way>
  <way id="20462950" version="9" timestamp="2009-12-17T00:56:47Z" uid="60345" user="Mirko Küster" changeset="3390877">
    <nd ref="218696411"/>
    <nd ref="218696415"/>
    <nd ref="218696419"/>
    <nd ref="218696425"/>
    <nd ref="218696411"/>
    <tag k="addr:housenumber" v="45, Haus 2"/>
    <tag k="addr:street" v="Lipezker Straße"/>
    <tag k="building" v="yes"/>
    <tag k="name" v="Technisches Finanzamt"/>
  </way>
  <way id="20462950" version="10" timestamp="2011-08-17T22:13:09Z" uid="28234" user="derandi" changeset="9052477">
    <nd ref="218696411"/>
    <nd ref="218696415"/>
    <nd ref="218696419"/>
    <nd ref="218696425"/>
    <nd ref="218696411"/>
    <tag k="addr:city" v="Cottbus"/>
    <tag k="addr:country" v="DE"/>
    <tag k="addr:housename" v="Haus 2"/>
    <tag k="addr:housenumber" v="45"/>
    <tag k="addr:postcode" v="030"/>
    <tag k="addr:street" v="Lipezker Straße"/>
    <tag k="building" v="yes"/>
    <tag k="name" v="Technisches Finanzamt"/>
    <tag k="office" v="goverment"/>
  </way>
  <way id="20462950" version="11" timestamp="2011-09-09T18:23:49Z" uid="5359" user="user_5359" changeset="9256592">
    <nd ref="218696411"/>
    <nd ref="218696415"/>
    <nd ref="218696419"/>
    <nd ref="218696425"/>
    <nd ref="218696411"/>
    <tag k="addr:city" v="Cottbus"/>
    <tag k="addr:country" v="DE"/>
    <tag k="addr:housename" v="Haus 2"/>
    <tag k="addr:housenumber" v="45"/>
    <tag k="addr:postcode" v="03048"/>
    <tag k="addr:street" v="Lipezker Straße"/>
    <tag k="building" v="yes"/>
    <tag k="name" v="Technisches Finanzamt"/>
    <tag k="office" v="goverment"/>
  </way>
  <way id="20462950" version="12" timestamp="2011-12-15T23:47:48Z" uid="77590" user="Hendrik75" changeset="10128080"/>
  <way id="20462951" version="1" timestamp="2008-01-11T18:31:09Z" uid="9581" user="Lobelt" changeset="606174">
    <nd ref="218696430"/>
    <nd ref="218696433"/>
    <nd ref="218696437"/>
    <nd ref="218696446"/>
    <nd ref="218696430"/>
    <tag k="building" v="yes"/>
    <tag k="created_by" v="JOSM"/>
  </way>
  <way id="20462951" version="2" timestamp="2008-01-18T14:51:32Z" uid="14029" user="MartinDornfelder" changeset="660995">
    <nd ref="218696430"/>
    <nd ref="218696433"/>
    <nd ref="218696437"/>
    <nd ref="218696446"/>
    <nd ref="218696430"/>
    <tag k="building" v="yes"/>
    <tag k="created_by" v="Potlatch 0.6c"/>
    <tag k="name" v="Haus1"/>
  </way>
  <way id="20462951" version="3" timestamp="2008-01-18T14:52:30Z" uid="14029" user="MartinDornfelder" changeset="660995">
    <nd ref="218696430"/>
    <nd ref="218696433"/>
    <nd ref="218696437"/>
    <nd ref="218696446"/>
    <nd ref="218696430"/>
    <tag k="building" v="yes"/>
    <tag k="created_by" v="Potlatch 0.6c"/>
    <tag k="name" v="Haus 1"/>
  </way>
  <way id="20462951" version="4" timestamp="2008-01-19T17:34:19Z" uid="14029" user="MartinDornfelder" changeset="667223">
    <nd ref="218696430"/>
    <nd ref="218696433"/>
    <nd ref="218696437"/>
    <nd ref="218696446"/>
    <nd ref="218696430"/>
    <tag k="building" v="yes"/>
    <tag k="created_by" v="Potlatch 0.6c"/>
    <tag k="name" v="Haus 1 Zentrale Bezügestelle"/>
  </way>
  <way id="20462951" version="5" timestamp="2008-01-24T14:44:24Z" uid="14029" user="MartinDornfelder" changeset="689619">
    <nd ref="218696430"/>
    <nd ref="218696433"/>
    <nd ref="218696437"/>
    <nd ref="218696446"/>
    <nd ref="218696430"/>
    <tag k="building" v="yes"/>
    <tag k="created_by" v="Potlatch 0.6c"/>
    <tag k="name" v="Zentrale Bezügestelle"/>
  </way>
  <way id="20462951" version="6" timestamp="2008-03-07T09:08:59Z" uid="14029" user="MartinDornfelder" changeset="278717">
    <nd ref="218696430"/>
    <nd ref="218696433"/>
    <nd ref="218696437"/>
    <nd ref="218696446"/>
    <nd ref="218696430"/>
    <tag k="building" v="yes"/>
    <tag k="created_by" v="Potlatch 0.7b"/>
    <tag k="name" v="Zentrale Bezügestelle"/>
  </way>
  <way id="20462951" version="7" timestamp="2008-11-20T17:49:57Z" uid="77025" user="tecs" changeset="771676">
    <nd ref="218696430"/>
    <nd ref="218696433"/>
    <nd ref="218696437"/>
    <nd ref="218696446"/>
    <nd ref="218696430"/>
    <tag k="building" v="yes"/>
    <tag k="created_by" v="Merkaartor 0.12"/>
    <tag k="name" v="Zentrale Bezügestelle des Landes Brandenburg (ZBB)"/>
  </way>
  <way id="20462951" version="8" timestamp="2008-11-25T14:39:53Z" uid="77025" user="tecs" changeset="794392">
    <nd ref="218696430"/>
    <nd ref="218696433"/>
    <nd ref="218696437"/>
    <nd ref="218696446"/>
    <nd ref="218696430"/>
    <tag k="building" v="yes"/>
    <tag k="created_by" v="Merkaartor 0.12"/>
    <tag k="name" v="Zentrale Bezügestelle"/>
  </way>
  <way id="20462951" version="9" timestamp="2009-06-12T12:49:47Z" uid="132805" user="NoKurth" changeset="1496183">
    <nd ref="218696430"/>
    <nd ref="218696433"/>
    <nd ref="218696437"/>
    <nd ref="218696446"/>
    <nd ref="218696430"/>
    <tag k="addr:housenumber" v="45, Haus 1"/>
    <tag k="addr:street" v="Lipezker Straße"/>
    <tag k="building" v="yes"/>
    <tag k="created_by" v="Merkaartor 0.12"/>
    <tag k="name" v="Zentrale Bezügestelle"/>
  </way>
  <way id="20462951" version="10" timestamp="2011-08-17T22:13:10Z" uid="28234" user="derandi" changeset="9052477">
    <nd ref="218696430"/>
    <nd ref="218696433"/>
    <nd ref="218696437"/>
    <nd ref="218696446"/>
    <nd ref="218696430"/>
    <tag k="addr:city" v="Cottbus"/>
    <tag k="addr:country" v="DE"/>
    <tag k="addr:housename" v="Haus 1"/>
    <tag k="addr:housenumber" v="45"/>
    <tag k="addr:postcode" v="030"/>
    <tag k="addr:street" v="Lipezker Straße"/>
    <tag k="building" v="yes"/>
    <tag k="name" v="Zentrale Bezügestelle"/>
    <tag k="office" v="goverment"/>
  </way>
  <way id="20462951" version="11" timestamp="2011-09-09T18:23:50Z" uid="5359" user="user_5359" changeset="9256592">
    <nd ref="218696430"/>
    <nd ref="218696433"/>
    <nd ref="218696437"/>
    <nd ref="218696446"/>
    <nd ref="218696430"/>
    <tag k="addr:city" v="Cottbus"/>
    <tag k="addr:country" v="DE"/>
    <tag k="addr:housename" v="Haus 1"/>
    <tag k="addr:housenumber" v="45"/>
    <tag k="addr:postcode" v="03048"/>
    <tag k="addr:street" v="Lipezker Straße"/>
    <tag k="building" v="yes"/>
    <tag k="name" v="Zentrale Bezügestelle"/>
    <tag k="office" v="goverment"/>
  </way>
  <way id="20462951" version="12" timestamp="2011-12-15T23:47:48Z" uid="77590" user="Hendrik75" changeset="10128080"/>
  <way id="20462953" version="1" timestamp="2008-01-11T18:31:09Z" uid="9581" user="Lobelt" changeset="606174">
    <nd ref="218696461"/>
    <nd ref="218696468"/>
    <nd ref="218696479"/>
    <nd ref="218696482"/>
    <nd ref="218696461"/>
    <tag k="building" v="yes"/>
    <tag k="created_by" v="JOSM"/>
  </way>
  <way id="20462953" version="2" timestamp="2008-01-18T14:52:26Z" uid="14029" user="MartinDornfelder" changeset="660995">
    <nd ref="218696461"/>
    <nd ref="218696468"/>
    <nd ref="218696479"/>
    <nd ref="218696482"/>
    <nd ref="218696461"/>
    <tag k="building" v="yes"/>
    <tag k="created_by" v="Potlatch 0.6c"/>
    <tag k="name" v="Haus 5"/>
  </way>
  <way id="20462953" version="3" timestamp="2008-01-19T17:34:19Z" uid="14029" user="MartinDornfelder" changeset="667223">
    <nd ref="218696461"/>
    <nd ref="218696468"/>
    <nd ref="218696479"/>
    <nd ref="218696482"/>
    <nd ref="218696461"/>
    <tag k="building" v="yes"/>
    <tag k="created_by" v="Potlatch 0.6c"/>
    <tag k="name" v="Haus 5 Amt für Soziales"/>
  </way>
  <way id="20462953" version="4" timestamp="2008-01-24T08:42:50Z" uid="14029" user="MartinDornfelder" changeset="687137">
    <nd ref="218696461"/>
    <nd ref="218696468"/>
    <nd ref="218696479"/>
    <nd ref="218696482"/>
    <nd ref="218696461"/>
    <tag k="building" v="yes"/>
    <tag k="created_by" v="Potlatch 0.6c"/>
    <tag k="name" v="Haus 5 \nAmt für Soziales"/>
  </way>
  <way id="20462953" version="5" timestamp="2008-01-24T12:06:53Z" uid="14029" user="MartinDornfelder" changeset="687343">
    <nd ref="218696461"/>
    <nd ref="218696468"/>
    <nd ref="218696479"/>
    <nd ref="218696482"/>
    <nd ref="218696461"/>
    <tag k="building" v="yes"/>
    <tag k="created_by" v="Potlatch 0.6c"/>
    <tag k="name" v="Haus 5 Amt für Soziales"/>
  </way>
  <way id="20462953" version="6" timestamp="2008-01-24T12:08:03Z" uid="14029" user="MartinDornfelder" changeset="687343">
    <nd ref="218696461"/>
    <nd ref="218696468"/>
    <nd ref="218696479"/>
    <nd ref="218696482"/>
    <nd ref="218696461"/>
    <tag k="building" v="yes"/>
    <tag k="created_by" v="Potlatch 0.6c"/>
    <tag k="name" v="Haus 5 Amt für Soziales und Versorgung"/>
  </way>
  <way id="20462953" version="7" timestamp="2008-01-24T14:44:17Z" uid="14029" user="MartinDornfelder" changeset="689619">
    <nd ref="218696461"/>
    <nd ref="218696468"/>
    <nd ref="218696479"/>
    <nd ref="218696482"/>
    <nd ref="218696461"/>
    <tag k="building" v="yes"/>
    <tag k="created_by" v="Potlatch 0.6c"/>
    <tag k="name" v="Amt für Soziales und Versorgung"/>
  </way>
  <way id="20462953" version="8" timestamp="2008-03-07T09:08:52Z" uid="14029" user="MartinDornfelder" changeset="278717">
    <nd ref="218696461"/>
    <nd ref="218696468"/>
    <nd ref="218696479"/>
    <nd ref="218696482"/>
    <nd ref="218696461"/>
    <tag k="building" v="yes"/>
    <tag k="created_by" v="Potlatch 0.7b"/>
    <tag k="name" v="Amt für Soziales"/>
  </way>
  <way id="20462953" version="9" timestamp="2008-11-20T17:49:58Z" uid="77025" user="tecs" changeset="771676">
    <nd ref="218696461"/>
    <nd ref="218696468"/>
    <nd ref="218696479"/>
    <nd ref="218696482"/>
    <nd ref="218696461"/>
    <tag k="building" v="yes"/>
    <tag k="created_by" v="Merkaartor 0.12"/>
    <tag k="name" v="Landesamt für Soziales und Versorgung/ OVSt"/>
  </way>
  <way id="20462953" version="10" timestamp="2008-11-25T14:39:55Z" uid="77025" user="tecs" changeset="794392">
    <nd ref="218696461"/>
    <nd ref="218696468"/>
    <nd ref="218696479"/>
    <nd ref="218696482"/>
    <nd ref="218696461"/>
    <tag k="building" v="yes"/>
    <tag k="created_by" v="Merkaartor 0.12"/>
    <tag k="name" v="Amt für Soziales"/>
  </way>
  <way id="20462953" version="11" timestamp="2009-12-17T00:56:41Z" uid="60345" user="Mirko Küster" changeset="3390877">
    <nd ref="218696461"/>
    <nd ref="218696468"/>
    <nd ref="218696479"/>
    <nd ref="218696482"/>
    <nd ref="218696461"/>
    <tag k="building" v="yes"/>
    <tag k="name" v="Amt für Soziales"/>
  </way>
  <way id="20462953" version="12" timestamp="2011-08-17T22:13:00Z" uid="28234" user="derandi" changeset="9052477">
    <nd ref="218696461"/>
    <nd ref="218696468"/>
    <nd ref="218696479"/>
    <nd ref="218696482"/>
    <nd ref="218696461"/>
    <tag k="building" v="yes"/>
    <tag k="name" v="Amt für Soziales"/>
    <tag k="office" v="goverment"/>
  </way>
  <way id="20462953" version="13" timestamp="2011-12-15T23:47:48Z" uid="77590" user="Hendrik75" changeset="10128080"/>
  <way id="20462954" version="1" timestamp="2008-01-11T18:31:09Z" uid="9581" user="Lobelt" changeset="606174">
    <nd ref="218696487"/>
    <nd ref="218696490"/>
    <nd ref="218696506"/>
    <nd ref="218696510"/>
    <nd ref="218696487"/>
    <tag k="building" v="yes"/>
    <tag k="created_by" v="JOSM"/>
  </way>
  <way id="20462954" version="2" timestamp="2008-03-07T09:09:58Z" uid="14029" user="MartinDornfelder" changeset="278717">
    <nd ref="218696487"/>
    <nd ref="218696490"/>
    <nd ref="218696506"/>
    <nd ref="218696510"/>
    <nd ref="218696487"/>
    <tag k="building" v="yes"/>
    <tag k="created_by" v="Potlatch 0.7b"/>
  </way>
  <way id="20462954" version="3" timestamp="2009-12-17T00:56:41Z" uid="60345" user="Mirko Küster" changeset="3390877">
    <nd ref="218696487"/>
    <nd ref="218696490"/>
    <nd ref="218696506"/>
    <nd ref="218696510"/>
    <nd ref="218696487"/>
    <tag k="building" v="yes"/>
  </way>
  <way id="20462954" version="4" timestamp="2011-08-17T22:13:11Z" uid="28234" user="derandi" changeset="9052477">
    <nd ref="218696487"/>
    <nd ref="218696490"/>
    <nd ref="218696506"/>
    <nd ref="218696510"/>
    <nd ref="218696487"/>
    <tag k="building" v="yes"/>
    <tag k="office" v="goverment"/>
  </way>
  <way id="20462954" version="5" timestamp="2011-12-15T23:47:48Z" uid="77590" user="Hendrik75" changeset="10128080"/>
</osm>
