<?xml version='1.0' encoding='UTF-8'?>
<osm version="0.6" generator="libosmium/2.20.0">
  <way id="20478520" version="6" timestamp="2009-02-23T12:43:43Z" uid="34428" user="usm78-gis" changeset="634299"/>
  <way id="20478549" version="2" timestamp="2008-07-08T23:29:23Z" uid="6975" user="ulfl" changeset="443284">
    <nd ref="219035227"/>
    <nd ref="219035980"/>
    <nd ref="219035981"/>
    <tag k="highway" v="residential"/>
    <tag k="noexit" v="yes"/>
  </way>
  <way id="20478549" version="3" timestamp="2008-08-30T12:30:59Z" uid="27109" user="Ewi" changeset="460591">
    <nd ref="219035227"/>
    <nd ref="292261035"/>
    <nd ref="292261037"/>
    <nd ref="292261038"/>
    <nd ref="292261039"/>
    <nd ref="292261040"/>
    <tag k="created_by" v="Potlatch 0.10b"/>
    <tag k="highway" v="residential"/>
    <tag k="noexit" v="yes"/>
  </way>
  <way id="20478549" version="4" timestamp="2008-08-30T12:31:35Z" uid="27109" user="Ewi" changeset="460591">
    <nd ref="219035227"/>
    <nd ref="292261035"/>
    <nd ref="292261077"/>
    <nd ref="292261038"/>
    <nd ref="292261078"/>
    <nd ref="292261040"/>
    <tag k="created_by" v="Potlatch 0.10b"/>
    <tag k="highway" v="residential"/>
    <tag k="name" v="Südring"/>
    <tag k="noexit" v="yes"/>
  </way>
  <way id="20478549" version="5" timestamp="2009-01-31T21:46:09Z" uid="40149" user="Harock" changeset="859889">
    <nd ref="219035227"/>
    <nd ref="292261035"/>
    <nd ref="292261077"/>
    <nd ref="292261038"/>
    <nd ref="292261078"/>
    <nd ref="292261040"/>
    <nd ref="11253642"/>
    <tag k="created_by" v="Potlatch 0.10f"/>
    <tag k="highway" v="residential"/>
    <tag k="name" v="Südring"/>
    <tag k="noexit" v="yes"/>
  </way>
  <way id="20478549" version="6" timestamp="2009-01-31T21:46:40Z" uid="40149" user="Harock" changeset="859889">
    <nd ref="219035227"/>
    <nd ref="292261035"/>
    <nd ref="292261077"/>
    <nd ref="292261038"/>
    <nd ref="292261078"/>
    <nd ref="292261040"/>
    <nd ref="11253642"/>
    <tag k="created_by" v="Potlatch 0.10f"/>
    <tag k="highway" v="residential"/>
    <tag k="name" v="Südring"/>
    <tag k="noexit" v="yes"/>
  </way>
  <way id="20478549" version="7" timestamp="2009-02-23T17:35:35Z" uid="7186" user="Joerg Fischer" changeset="638471">
    <nd ref="219035227"/>
    <nd ref="292261035"/>
    <nd ref="292261077"/>
    <nd ref="292261038"/>
    <nd ref="292261078"/>
    <nd ref="292261040"/>
    <nd ref="11253642"/>
    <tag k="created_by" v="Potlatch 0.10f"/>
    <tag k="highway" v="tertiary"/>
    <tag k="maxspeed" v="30"/>
    <tag k="name" v="Südring"/>
    <tag k="noexit" v="yes"/>
  </way>
  <way id="20478549" version="8" timestamp="2009-03-23T12:08:47Z" uid="69628" user="vsandre" changeset="847696">
    <nd ref="219035227"/>
    <nd ref="292261035"/>
    <nd ref="292261077"/>
    <nd ref="292261038"/>
    <nd ref="292261078"/>
    <nd ref="292261040"/>
    <tag k="created_by" v="Potlatch 0.10f"/>
    <tag k="highway" v="tertiary"/>
    <tag k="maxspeed" v="30"/>
    <tag k="name" v="Südring"/>
    <tag k="noexit" v="yes"/>
  </way>
  <way id="20478549" version="9" timestamp="2009-07-14T18:27:58Z" uid="39504" user="malenki" changeset="1829379">
    <nd ref="219035227"/>
    <nd ref="292261035"/>
    <nd ref="292261077"/>
    <nd ref="292261038"/>
    <nd ref="292261078"/>
    <nd ref="292261040"/>
    <tag k="highway" v="tertiary"/>
    <tag k="maxspeed" v="30"/>
    <tag k="name" v="Südring"/>
    <tag k="noexit" v="yes"/>
  </way>
  <way id="20478549" version="10" timestamp="2009-11-19T13:11:49Z" uid="69628" user="vsandre" changeset="3159743">
    <nd ref="219035227"/>
    <nd ref="292261035"/>
    <nd ref="292261077"/>
    <nd ref="292261038"/>
    <nd ref="292261078"/>
    <nd ref="292261040"/>
    <tag k="highway" v="tertiary"/>
    <tag k="maxspeed" v="30"/>
    <tag k="name" v="Südring"/>
    <tag k="noexit" v="yes"/>
  </way>
  <way id="20478549" version="11" timestamp="2010-02-10T14:52:30Z" uid="17889" user="rrissiek" changeset="3840773"/>
  <way id="20478549" version="12" timestamp="2010-02-18T15:33:50Z" uid="7186" user="Joerg Fischer" changeset="3909815">
    <nd ref="219035227"/>
    <nd ref="292261035"/>
    <nd ref="292261077"/>
    <nd ref="292261038"/>
    <nd ref="292261078"/>
    <nd ref="292261040"/>
    <tag k="highway" v="tertiary"/>
    <tag k="maxspeed" v="30"/>
    <tag k="name" v="Südring"/>
  </way>
  <way id="20478549" version="13" timestamp="2010-03-16T23:32:33Z" uid="67020" user="Nibbler" changeset="4148119">
    <nd ref="219035227"/>
    <nd ref="292261035"/>
    <nd ref="292261040"/>
    <tag k="highway" v="tertiary"/>
    <tag k="maxspeed" v="30"/>
    <tag k="name" v="Südring"/>
  </way>
  <way id="20478574" version="2" timestamp="2008-07-08T23:29:18Z" uid="6975" user="ulfl" changeset="443284">
    <nd ref="219032256"/>
    <nd ref="219032257"/>
    <nd ref="219032258"/>
    <tag k="highway" v="residential"/>
    <tag k="name" v="Bahnstraße"/>
    <tag k="noexit" v="yes"/>
  </way>
  <way id="20478679" version="4" timestamp="2009-02-23T13:12:49Z" uid="34428" user="usm78-gis" changeset="634299"/>
  <way id="20478549" version="14" timestamp="2012-05-06T06:06:35Z" uid="458641" user="uvi" changeset="11514567">
    <nd ref="219035227"/>
    <nd ref="1742494947"/>
    <nd ref="1742494936"/>
    <nd ref="292261040"/>
    <tag k="highway" v="tertiary"/>
    <tag k="maxspeed" v="30"/>
    <tag k="name" v="Südring"/>
  </way>
  <way id="20478549" version="15" timestamp="2012-06-10T13:38:55Z" uid="7186" user="Joerg Fischer" changeset="11854361">
    <nd ref="219035227"/>
    <nd ref="1742494947"/>
    <nd ref="1742494936"/>
    <nd ref="292261040"/>
    <tag k="bicycle" v="yes"/>
    <tag k="highway" v="tertiary"/>
    <tag k="maxspeed" v="30"/>
    <tag k="name" v="Südring"/>
  </way>
  <way id="20478549" version="16" timestamp="2012-08-29T12:09:03Z" uid="40397" user="Zartbitter" changeset="12904048">
    <nd ref="219035227"/>
    <nd ref="1742494947"/>
    <nd ref="1742494936"/>
    <nd ref="292261040"/>
    <tag k="highway" v="tertiary"/>
    <tag k="maxspeed" v="30"/>
    <tag k="name" v="Südring"/>
  </way>
  <way id="20478574" version="3" timestamp="2012-07-19T04:18:38Z" uid="722137" user="OSMF Redaction Account" changeset="12307868">
    <nd ref="219032256"/>
    <nd ref="219032257"/>
    <nd ref="219032258"/>
    <tag k="highway" v="residential"/>
    <tag k="name" v="Bahnstraße"/>
  </way>
</osm>
