<?xml version='1.0' encoding='UTF-8'?>
<osm version="0.6" generator="libosmium/2.20.0">
  <way id="20628124" version="2" timestamp="2008-12-23T21:08:54Z" uid="12295" user="mapper_07" changeset="571680">
    <nd ref="221435876"/>
    <nd ref="221435878"/>
    <nd ref="71193428"/>
    <nd ref="221435879"/>
    <tag k="created_by" v="Potlatch 0.6a"/>
    <tag k="highway" v="residential"/>
    <tag k="name" v="Mayerbeergasse"/>
  </way>
  <way id="20628124" version="3" timestamp="2008-12-25T08:03:33Z" uid="58091" user="Andreas M" changeset="603373">
    <nd ref="221435876"/>
    <nd ref="221435878"/>
    <nd ref="71193428"/>
    <nd ref="221435879"/>
    <tag k="created_by" v="Potlatch 0.6a"/>
    <tag k="highway" v="residential"/>
    <tag k="name" v="Meyerbeergasse"/>
  </way>
  <way id="20628163" version="2" timestamp="2008-12-23T21:08:53Z" uid="12295" user="mapper_07" changeset="571680">
    <nd ref="221436459"/>
    <nd ref="221436456"/>
    <nd ref="221436453"/>
    <tag k="created_by" v="Potlatch 0.6a"/>
    <tag k="highway" v="residential"/>
    <tag k="name" v="Mayerbeergasse"/>
    <tag k="oneway" v="yes"/>
  </way>
  <way id="20628163" version="3" timestamp="2008-12-25T08:03:33Z" uid="58091" user="Andreas M" changeset="603373">
    <nd ref="221436459"/>
    <nd ref="221436456"/>
    <nd ref="221436453"/>
    <tag k="created_by" v="Potlatch 0.6a"/>
    <tag k="highway" v="residential"/>
    <tag k="name" v="Meyerbeergasse"/>
    <tag k="oneway" v="yes"/>
  </way>
</osm>
