<?xml version='1.0' encoding='UTF-8'?>
<osm version="0.6" generator="libosmium/2.20.0">
  <way id="20648598" version="7" timestamp="2009-09-30T13:51:52Z" uid="36809" user="pfoten_weg_!_" changeset="2688655">
    <nd ref="221676342"/>
    <nd ref="221680629"/>
    <nd ref="221680630"/>
    <nd ref="369761976"/>
    <nd ref="221680631"/>
    <nd ref="221680632"/>
    <nd ref="221680633"/>
    <nd ref="221680635"/>
    <tag k="highway" v="residential"/>
    <tag k="name" v="Am Oberfeld"/>
  </way>
  <way id="20648598" version="8" timestamp="2009-12-27T09:40:01Z" uid="94149" user="markusri" changeset="3460918">
    <nd ref="221676342"/>
    <nd ref="221680629"/>
    <nd ref="221680630"/>
    <nd ref="369761976"/>
    <nd ref="221680631"/>
    <nd ref="221680632"/>
    <nd ref="221680633"/>
    <nd ref="221680635"/>
    <tag k="highway" v="residential"/>
    <tag k="name" v="Am Oberfeld"/>
    <tag k="surface" v="paved"/>
  </way>
  <way id="20648628" version="4" timestamp="2009-09-30T13:51:40Z" uid="36809" user="pfoten_weg_!_" changeset="2688655">
    <nd ref="221680811"/>
    <nd ref="221680812"/>
    <nd ref="221680813"/>
    <nd ref="221680814"/>
    <tag k="highway" v="unclassified"/>
    <tag k="name" v="Am Fischberg"/>
  </way>
  <way id="20648628" version="5" timestamp="2009-10-31T17:16:26Z" uid="94149" user="markusri" changeset="2999001">
    <nd ref="221680811"/>
    <nd ref="549064574"/>
    <nd ref="221680812"/>
    <nd ref="221680813"/>
    <nd ref="221680814"/>
    <tag k="highway" v="unclassified"/>
    <tag k="name" v="Am Fischberg"/>
  </way>
  <way id="20648628" version="6" timestamp="2009-12-21T17:06:15Z" uid="94149" user="markusri" changeset="3421610">
    <nd ref="221680811"/>
    <nd ref="549064574"/>
    <nd ref="221680812"/>
    <nd ref="221680813"/>
    <nd ref="221680814"/>
    <tag k="highway" v="unclassified"/>
    <tag k="name" v="Am Fischberg"/>
    <tag k="surface" v="paved"/>
  </way>
  <way id="20648669" version="2" timestamp="2009-09-30T13:52:22Z" uid="36809" user="pfoten_weg_!_" changeset="2688655">
    <nd ref="221681244"/>
    <nd ref="221681245"/>
    <nd ref="221681248"/>
    <nd ref="221676342"/>
    <tag k="highway" v="unclassified"/>
  </way>
  <way id="20648669" version="3" timestamp="2009-12-27T09:41:13Z" uid="94149" user="markusri" changeset="3460918">
    <nd ref="221681244"/>
    <nd ref="221681245"/>
    <nd ref="221681248"/>
    <nd ref="221676342"/>
    <tag k="highway" v="unclassified"/>
    <tag k="surface" v="paved"/>
  </way>
  <way id="20648802" version="6" timestamp="2009-09-30T13:51:12Z" uid="36809" user="pfoten_weg_!_" changeset="2688655">
    <nd ref="221682480"/>
    <nd ref="221682483"/>
    <nd ref="221682485"/>
    <tag k="highway" v="residential"/>
    <tag k="name" v="Kohlstattstraße"/>
  </way>
  <way id="20648802" version="7" timestamp="2009-10-31T17:16:38Z" uid="94149" user="markusri" changeset="2999001">
    <nd ref="221682480"/>
    <nd ref="549064954"/>
    <nd ref="221682483"/>
    <nd ref="221682485"/>
    <tag k="highway" v="residential"/>
    <tag k="name" v="Kohlstattstraße"/>
  </way>
  <way id="20648802" version="8" timestamp="2009-12-21T17:08:34Z" uid="94149" user="markusri" changeset="3421610">
    <nd ref="221682480"/>
    <nd ref="549064954"/>
    <nd ref="221682483"/>
    <nd ref="221682485"/>
    <tag k="highway" v="residential"/>
    <tag k="name" v="Kohlstattstraße"/>
    <tag k="surface" v="paved"/>
  </way>
  <way id="20648802" version="9" timestamp="2010-09-12T17:09:06Z" uid="7596" user="ck3d" changeset="5761802">
    <nd ref="221682480"/>
    <nd ref="221682485"/>
    <tag k="highway" v="unclassified"/>
    <tag k="name" v="Kohlstattstraße"/>
    <tag k="surface" v="paved"/>
  </way>
  <way id="20648802" version="10" timestamp="2011-05-08T14:56:48Z" uid="7596" user="ck3d" changeset="8083517">
    <nd ref="221682480"/>
    <nd ref="221682485"/>
    <tag k="highway" v="unclassified"/>
    <tag k="name" v="Kohlstattstraße"/>
    <tag k="surface" v="paved"/>
    <tag k="zone:traffic" v="DE:urban"/>
  </way>
  <way id="20648845" version="7" timestamp="2009-09-30T13:49:59Z" uid="36809" user="pfoten_weg_!_" changeset="2688655">
    <nd ref="221682485"/>
    <nd ref="221682828"/>
    <nd ref="221682830"/>
    <nd ref="345620779"/>
    <nd ref="221682838"/>
    <tag k="highway" v="residential"/>
    <tag k="name" v="Mitterfeldstraße"/>
  </way>
  <way id="20648845" version="8" timestamp="2009-10-31T17:16:34Z" uid="94149" user="markusri" changeset="2999001">
    <nd ref="221682485"/>
    <nd ref="221682828"/>
    <nd ref="221682830"/>
    <nd ref="345620779"/>
    <nd ref="549064718"/>
    <nd ref="221682838"/>
    <tag k="highway" v="residential"/>
    <tag k="name" v="Mitterfeldstraße"/>
  </way>
  <way id="20648845" version="9" timestamp="2009-12-21T17:06:49Z" uid="94149" user="markusri" changeset="3421610">
    <nd ref="221682485"/>
    <nd ref="221682828"/>
    <nd ref="221682830"/>
    <nd ref="345620779"/>
    <nd ref="549064718"/>
    <nd ref="221682838"/>
    <tag k="highway" v="residential"/>
    <tag k="name" v="Mitterfeldstraße"/>
    <tag k="surface" v="paved"/>
  </way>
  <way id="20648845" version="10" timestamp="2011-05-08T14:56:49Z" uid="7596" user="ck3d" changeset="8083517">
    <nd ref="221682485"/>
    <nd ref="221682828"/>
    <nd ref="345620779"/>
    <nd ref="221682838"/>
    <tag k="highway" v="residential"/>
    <tag k="name" v="Mitterfeldstraße"/>
    <tag k="surface" v="paved"/>
    <tag k="zone:traffic" v="DE:urban"/>
  </way>
  <way id="20648871" version="7" timestamp="2009-09-30T13:49:22Z" uid="36809" user="pfoten_weg_!_" changeset="2688655">
    <nd ref="221683067"/>
    <nd ref="221682838"/>
    <nd ref="221683072"/>
    <tag k="highway" v="residential"/>
    <tag k="name" v="Kreuzstraße"/>
  </way>
  <way id="20648871" version="8" timestamp="2009-10-31T17:16:35Z" uid="94149" user="markusri" changeset="2999001">
    <nd ref="221683067"/>
    <nd ref="221682838"/>
    <nd ref="549064798"/>
    <nd ref="221683072"/>
    <tag k="highway" v="residential"/>
    <tag k="name" v="Kreuzstraße"/>
  </way>
  <way id="20648871" version="9" timestamp="2009-12-21T17:07:03Z" uid="94149" user="markusri" changeset="3421610">
    <nd ref="221683067"/>
    <nd ref="221682838"/>
    <nd ref="549064798"/>
    <nd ref="221683072"/>
    <tag k="highway" v="residential"/>
    <tag k="name" v="Kreuzstraße"/>
    <tag k="surface" v="paved"/>
  </way>
  <way id="20648871" version="10" timestamp="2011-05-08T14:56:49Z" uid="7596" user="ck3d" changeset="8083517">
    <nd ref="221683067"/>
    <nd ref="221682838"/>
    <nd ref="221683072"/>
    <tag k="highway" v="residential"/>
    <tag k="name" v="Kreuzstraße"/>
    <tag k="surface" v="paved"/>
    <tag k="zone:traffic" v="DE:urban"/>
  </way>
</osm>
