<?xml version='1.0' encoding='UTF-8'?>
<osm version="0.6" generator="libosmium/2.20.0">
  <way id="20656017" version="2" timestamp="2010-07-07T21:35:34Z" uid="74617" user="JohnSmith" changeset="5161069">
    <nd ref="221754060"/>
    <nd ref="221754450"/>
    <tag k="highway" v="residential"/>
    <tag k="maxspeed" v="50"/>
    <tag k="maxspeed:source" v="default residential speed limit in Australia"/>
    <tag k="name" v="Stuart Crescent"/>
  </way>
  <way id="20656017" version="3" timestamp="2010-10-04T04:15:37Z" uid="7617" user="Franc" changeset="5950232">
    <nd ref="221754060"/>
    <nd ref="937426142"/>
    <nd ref="221754450"/>
    <tag k="highway" v="residential"/>
    <tag k="maxspeed" v="50"/>
    <tag k="maxspeed:source" v="default residential speed limit in Australia"/>
    <tag k="name" v="Stuart Crescent"/>
  </way>
  <way id="20656017" version="4" timestamp="2012-01-15T21:19:48Z" uid="147510" user="woodpeck_fixbot" changeset="10402983">
    <nd ref="221754060"/>
    <nd ref="937426142"/>
    <nd ref="221754450"/>
    <tag k="highway" v="residential"/>
    <tag k="name" v="Stuart Crescent"/>
  </way>
  <way id="20656062" version="2" timestamp="2010-07-07T21:27:14Z" uid="74617" user="JohnSmith" changeset="5161069">
    <nd ref="221754482"/>
    <nd ref="221755052"/>
    <tag k="highway" v="residential"/>
    <tag k="maxspeed" v="50"/>
    <tag k="maxspeed:source" v="default residential speed limit in Australia"/>
    <tag k="name" v="River Street"/>
  </way>
  <way id="20656062" version="3" timestamp="2012-01-15T21:19:49Z" uid="147510" user="woodpeck_fixbot" changeset="10402983">
    <nd ref="221754482"/>
    <nd ref="221755052"/>
    <tag k="highway" v="residential"/>
    <tag k="name" v="River Street"/>
  </way>
  <way id="20656103" version="2" timestamp="2010-07-07T21:27:32Z" uid="74617" user="JohnSmith" changeset="5161069">
    <nd ref="221755089"/>
    <nd ref="221755658"/>
    <tag k="highway" v="residential"/>
    <tag k="maxspeed" v="50"/>
    <tag k="maxspeed:source" v="default residential speed limit in Australia"/>
    <tag k="name" v="Sunnyside Place"/>
  </way>
  <way id="20656103" version="3" timestamp="2012-01-15T21:19:50Z" uid="147510" user="woodpeck_fixbot" changeset="10402983">
    <nd ref="221755089"/>
    <nd ref="221755658"/>
    <tag k="highway" v="residential"/>
    <tag k="name" v="Sunnyside Place"/>
  </way>
  <way id="20656182" version="2" timestamp="2010-07-07T21:34:02Z" uid="74617" user="JohnSmith" changeset="5161069">
    <nd ref="60296087"/>
    <nd ref="221756531"/>
    <nd ref="221756533"/>
    <nd ref="221756535"/>
    <tag k="highway" v="residential"/>
    <tag k="maxspeed" v="50"/>
    <tag k="maxspeed:source" v="default residential speed limit in Australia"/>
    <tag k="name" v="Pacific Street"/>
  </way>
  <way id="20656182" version="3" timestamp="2012-01-15T21:19:51Z" uid="147510" user="woodpeck_fixbot" changeset="10402983">
    <nd ref="60296087"/>
    <nd ref="221756531"/>
    <nd ref="221756533"/>
    <nd ref="221756535"/>
    <tag k="highway" v="residential"/>
    <tag k="name" v="Pacific Street"/>
  </way>
  <way id="20656229" version="3" timestamp="2010-07-07T21:36:57Z" uid="74617" user="JohnSmith" changeset="5161069">
    <nd ref="221753253"/>
    <nd ref="221758532"/>
    <nd ref="221757110"/>
    <nd ref="221757111"/>
    <nd ref="221757113"/>
    <nd ref="221757115"/>
    <nd ref="221757117"/>
    <tag k="highway" v="residential"/>
    <tag k="maxspeed" v="50"/>
    <tag k="maxspeed:source" v="default residential speed limit in Australia"/>
    <tag k="name" v="Pleasant Way"/>
  </way>
  <way id="20656229" version="4" timestamp="2010-10-04T04:15:35Z" uid="7617" user="Franc" changeset="5950232">
    <nd ref="221753253"/>
    <nd ref="221758532"/>
    <nd ref="221757110"/>
    <nd ref="221757111"/>
    <nd ref="221757113"/>
    <nd ref="937426173"/>
    <nd ref="221757115"/>
    <nd ref="221757117"/>
    <tag k="highway" v="residential"/>
    <tag k="maxspeed" v="50"/>
    <tag k="maxspeed:source" v="default residential speed limit in Australia"/>
    <tag k="name" v="Pleasant Way"/>
  </way>
  <way id="20656229" version="5" timestamp="2012-01-15T21:19:53Z" uid="147510" user="woodpeck_fixbot" changeset="10402983">
    <nd ref="221753253"/>
    <nd ref="221758532"/>
    <nd ref="221757110"/>
    <nd ref="221757111"/>
    <nd ref="221757113"/>
    <nd ref="937426173"/>
    <nd ref="221757115"/>
    <nd ref="221757117"/>
    <tag k="highway" v="residential"/>
    <tag k="name" v="Pleasant Way"/>
  </way>
  <way id="20656234" version="4" timestamp="2010-03-27T23:29:04Z" uid="20587" user="balrog-kun" changeset="4250871">
    <nd ref="165574072"/>
    <nd ref="165574070"/>
    <nd ref="165574069"/>
    <nd ref="165574068"/>
    <nd ref="165178347"/>
    <nd ref="221757003"/>
    <tag k="highway" v="secondary"/>
    <tag k="name" v="North Los Carneros Road"/>
    <tag k="oneway" v="yes"/>
    <tag k="tiger:cfcc" v="A45"/>
    <tag k="tiger:county" v="Santa Barbara, CA"/>
    <tag k="tiger:name_base" v="Los Carneros"/>
    <tag k="tiger:name_direction_prefix" v="N"/>
    <tag k="tiger:name_type" v="Rd"/>
    <tag k="tiger:reviewed" v="no"/>
    <tag k="tiger:separated" v="yes"/>
    <tag k="tiger:source" v="tiger_import_dch_v0.6_20070809"/>
    <tag k="tiger:tlid" v="108671210:108672028:108670593:108670595:108670535:108670679"/>
  </way>
  <way id="20656237" version="4" timestamp="2010-03-27T23:29:04Z" uid="20587" user="balrog-kun" changeset="4250871">
    <nd ref="221757038"/>
    <nd ref="165437546"/>
    <nd ref="522033125"/>
    <tag k="bridge" v="yes"/>
    <tag k="highway" v="secondary"/>
    <tag k="name" v="North Los Carneros Road"/>
    <tag k="oneway" v="true"/>
    <tag k="tiger:cfcc" v="A41"/>
    <tag k="tiger:county" v="Santa Barbara, CA"/>
    <tag k="tiger:name_base" v="Los Carneros"/>
    <tag k="tiger:name_direction_prefix" v="N"/>
    <tag k="tiger:name_type" v="Rd"/>
    <tag k="tiger:reviewed" v="no"/>
    <tag k="tiger:separated" v="no"/>
    <tag k="tiger:source" v="tiger_import_dch_v0.6_20070809"/>
    <tag k="tiger:tlid" v="108694112:108600914:108659020:108659021:108600917:108600922"/>
    <tag k="tiger:zip_left" v="93117"/>
    <tag k="tiger:zip_right" v="93117"/>
  </way>
  <way id="20656239" version="4" timestamp="2010-03-27T23:29:05Z" uid="20587" user="balrog-kun" changeset="4250871">
    <nd ref="221757003"/>
    <nd ref="522033140"/>
    <tag k="bridge" v="yes"/>
    <tag k="highway" v="secondary"/>
    <tag k="layer" v="1"/>
    <tag k="name" v="North Los Carneros Road"/>
    <tag k="oneway" v="yes"/>
    <tag k="tiger:cfcc" v="A45"/>
    <tag k="tiger:county" v="Santa Barbara, CA"/>
    <tag k="tiger:name_base" v="Los Carneros"/>
    <tag k="tiger:name_direction_prefix" v="N"/>
    <tag k="tiger:name_type" v="Rd"/>
    <tag k="tiger:reviewed" v="no"/>
    <tag k="tiger:separated" v="yes"/>
    <tag k="tiger:source" v="tiger_import_dch_v0.6_20070809"/>
    <tag k="tiger:tlid" v="108671210:108672028:108670593:108670595:108670535:108670679"/>
    <tag k="tiger:zip_left" v="93117"/>
  </way>
  <way id="20656395" version="2" timestamp="2009-12-19T12:42:50Z" uid="74617" user="JohnSmith" changeset="3406531"/>
  <way id="20656400" version="2" timestamp="2009-12-19T12:42:51Z" uid="74617" user="JohnSmith" changeset="3406531"/>
  <way id="20656402" version="2" timestamp="2009-12-19T12:42:50Z" uid="74617" user="JohnSmith" changeset="3406531"/>
  <way id="20656403" version="2" timestamp="2009-12-19T12:42:50Z" uid="74617" user="JohnSmith" changeset="3406531"/>
  <way id="20656406" version="2" timestamp="2009-12-19T12:42:50Z" uid="74617" user="JohnSmith" changeset="3406531"/>
  <way id="20656529" version="2" timestamp="2010-07-07T21:35:13Z" uid="74617" user="JohnSmith" changeset="5161069">
    <nd ref="221759434"/>
    <nd ref="221760097"/>
    <nd ref="221760099"/>
    <nd ref="221760101"/>
    <tag k="highway" v="residential"/>
    <tag k="maxspeed" v="50"/>
    <tag k="maxspeed:source" v="default residential speed limit in Australia"/>
    <tag k="name" v="Colleen Street"/>
  </way>
  <way id="20656529" version="3" timestamp="2012-01-15T21:19:54Z" uid="147510" user="woodpeck_fixbot" changeset="10402983">
    <nd ref="221759434"/>
    <nd ref="221760097"/>
    <nd ref="221760099"/>
    <nd ref="221760101"/>
    <tag k="highway" v="residential"/>
    <tag k="name" v="Colleen Street"/>
  </way>
  <way id="20656558" version="2" timestamp="2010-07-07T21:31:18Z" uid="74617" user="JohnSmith" changeset="5161069">
    <nd ref="221760133"/>
    <nd ref="221760371"/>
    <nd ref="221760372"/>
    <tag k="highway" v="residential"/>
    <tag k="maxspeed" v="50"/>
    <tag k="maxspeed:source" v="default residential speed limit in Australia"/>
    <tag k="name" v="Crawford Street"/>
  </way>
  <way id="20656558" version="3" timestamp="2012-01-15T21:19:55Z" uid="147510" user="woodpeck_fixbot" changeset="10402983">
    <nd ref="221760133"/>
    <nd ref="221760371"/>
    <nd ref="221760372"/>
    <tag k="highway" v="residential"/>
    <tag k="name" v="Crawford Street"/>
  </way>
  <way id="20656640" version="2" timestamp="2010-04-01T12:12:41Z" uid="74617" user="JohnSmith" changeset="4293399"/>
  <way id="20656707" version="3" timestamp="2010-04-01T12:12:38Z" uid="74617" user="JohnSmith" changeset="4293399">
    <nd ref="221761130"/>
    <nd ref="588140744"/>
    <nd ref="221762103"/>
    <nd ref="221761820"/>
    <tag k="highway" v="residential"/>
    <tag k="name" v="Phillip Street"/>
  </way>
  <way id="20656707" version="4" timestamp="2010-07-07T21:35:50Z" uid="74617" user="JohnSmith" changeset="5161069">
    <nd ref="221761130"/>
    <nd ref="588140744"/>
    <nd ref="221762103"/>
    <nd ref="221761820"/>
    <tag k="highway" v="residential"/>
    <tag k="maxspeed" v="50"/>
    <tag k="maxspeed:source" v="default residential speed limit in Australia"/>
    <tag k="name" v="Phillip Street"/>
  </way>
  <way id="20656707" version="5" timestamp="2012-01-15T21:19:56Z" uid="147510" user="woodpeck_fixbot" changeset="10402983">
    <nd ref="221761130"/>
    <nd ref="588140744"/>
    <nd ref="221762103"/>
    <nd ref="221761820"/>
    <tag k="highway" v="residential"/>
    <tag k="name" v="Phillip Street"/>
  </way>
  <way id="20656758" version="2" timestamp="2009-12-19T12:42:51Z" uid="74617" user="JohnSmith" changeset="3406531"/>
  <way id="20656762" version="2" timestamp="2009-12-19T12:42:51Z" uid="74617" user="JohnSmith" changeset="3406531"/>
  <way id="20656806" version="5" timestamp="2009-12-12T22:54:53Z" uid="7617" user="Franc" changeset="3359436">
    <nd ref="221762103"/>
    <nd ref="588140743"/>
    <nd ref="588140742"/>
    <nd ref="221762771"/>
    <nd ref="221786510"/>
    <nd ref="221785172"/>
    <nd ref="221762772"/>
    <nd ref="221762773"/>
    <tag k="highway" v="residential"/>
    <tag k="name" v="Lynwood Street"/>
  </way>
  <way id="20656806" version="6" timestamp="2009-12-13T21:57:08Z" uid="7617" user="Franc" changeset="3367625">
    <nd ref="221762103"/>
    <nd ref="588140743"/>
    <nd ref="588140742"/>
    <nd ref="221762771"/>
    <nd ref="221786510"/>
    <nd ref="221785172"/>
    <nd ref="221762772"/>
    <nd ref="589043624"/>
    <nd ref="221762773"/>
    <tag k="highway" v="residential"/>
    <tag k="name" v="Lynwood Street"/>
  </way>
  <way id="20656806" version="7" timestamp="2010-07-07T21:29:41Z" uid="74617" user="JohnSmith" changeset="5161069">
    <nd ref="221762103"/>
    <nd ref="588140743"/>
    <nd ref="588140742"/>
    <nd ref="221762771"/>
    <nd ref="221786510"/>
    <nd ref="221785172"/>
    <nd ref="221762772"/>
    <nd ref="589043624"/>
    <nd ref="221762773"/>
    <tag k="highway" v="residential"/>
    <tag k="maxspeed" v="50"/>
    <tag k="maxspeed:source" v="default residential speed limit in Australia"/>
    <tag k="name" v="Lynwood Street"/>
  </way>
  <way id="20656806" version="8" timestamp="2011-04-30T04:55:50Z" uid="20949" user="Ebenezer" changeset="8008513">
    <nd ref="221762103"/>
    <nd ref="588140743"/>
    <nd ref="588140742"/>
    <nd ref="221762771"/>
    <nd ref="221786510"/>
    <nd ref="221785172"/>
    <tag k="highway" v="residential"/>
    <tag k="maxspeed" v="50"/>
    <tag k="maxspeed:source" v="default residential speed limit in Australia"/>
    <tag k="name" v="Lynwood Street"/>
  </way>
  <way id="20656806" version="9" timestamp="2012-01-15T21:19:57Z" uid="147510" user="woodpeck_fixbot" changeset="10402983">
    <nd ref="221762103"/>
    <nd ref="588140743"/>
    <nd ref="588140742"/>
    <nd ref="221762771"/>
    <nd ref="221786510"/>
    <nd ref="221785172"/>
    <tag k="highway" v="residential"/>
    <tag k="name" v="Lynwood Street"/>
  </way>
  <way id="20656806" version="10" timestamp="2012-03-07T05:51:26Z" uid="7523" user="inas" changeset="10896767">
    <nd ref="221762103"/>
    <nd ref="221762771"/>
    <nd ref="221786510"/>
    <nd ref="221785172"/>
    <tag k="highway" v="residential"/>
    <tag k="name" v="Lynwood Street"/>
  </way>
  <way id="20656932" version="2" timestamp="2009-12-13T21:45:33Z" uid="7617" user="Franc" changeset="3367497">
    <nd ref="221763252"/>
    <nd ref="221763921"/>
    <nd ref="221760372"/>
    <nd ref="589027852"/>
    <nd ref="221763923"/>
    <nd ref="221763925"/>
    <nd ref="589027851"/>
    <nd ref="589027850"/>
    <nd ref="221763927"/>
    <tag k="highway" v="residential"/>
    <tag k="name" v="Nellella Street"/>
  </way>
  <way id="20656932" version="3" timestamp="2010-07-07T21:35:23Z" uid="74617" user="JohnSmith" changeset="5161069">
    <nd ref="221763252"/>
    <nd ref="221763921"/>
    <nd ref="221760372"/>
    <nd ref="589027852"/>
    <nd ref="221763923"/>
    <nd ref="221763925"/>
    <nd ref="589027851"/>
    <nd ref="589027850"/>
    <nd ref="221763927"/>
    <tag k="highway" v="residential"/>
    <tag k="maxspeed" v="50"/>
    <tag k="maxspeed:source" v="default residential speed limit in Australia"/>
    <tag k="name" v="Nellella Street"/>
  </way>
  <way id="20656932" version="4" timestamp="2012-01-15T21:19:59Z" uid="147510" user="woodpeck_fixbot" changeset="10402983">
    <nd ref="221763252"/>
    <nd ref="221763921"/>
    <nd ref="221760372"/>
    <nd ref="589027852"/>
    <nd ref="221763923"/>
    <nd ref="221763925"/>
    <nd ref="589027851"/>
    <nd ref="589027850"/>
    <nd ref="221763927"/>
    <tag k="highway" v="residential"/>
    <tag k="name" v="Nellella Street"/>
  </way>
  <way id="20656970" version="2" timestamp="2008-05-17T15:53:37Z" uid="27600" user="Islanit" changeset="468393">
    <nd ref="221762839"/>
    <nd ref="221763415"/>
    <nd ref="221763343"/>
    <nd ref="221763254"/>
    <nd ref="221763138"/>
    <nd ref="221763058"/>
    <nd ref="221762968"/>
    <nd ref="221763506"/>
    <nd ref="221762912"/>
    <nd ref="221762839"/>
    <tag k="created_by" v="JOSM"/>
    <tag k="natural" v="water"/>
  </way>
  <way id="20656970" version="3" timestamp="2008-08-02T17:40:56Z" uid="55480" user="wemm22" changeset="22373">
    <nd ref="221762839"/>
    <nd ref="221763415"/>
    <nd ref="221763343"/>
    <nd ref="221763254"/>
    <nd ref="221763138"/>
    <nd ref="221763058"/>
    <nd ref="221762968"/>
    <nd ref="221763506"/>
    <nd ref="221762839"/>
    <tag k="created_by" v="Potlatch 0.10b"/>
    <tag k="natural" v="water"/>
  </way>
  <way id="20656017" version="5" timestamp="2012-07-20T08:31:16Z" uid="722137" user="OSMF Redaction Account" changeset="12368378">
    <nd ref="221754060"/>
    <nd ref="221754450"/>
    <tag k="highway" v="residential"/>
    <tag k="name" v="Stuart Crescent"/>
  </way>
  <way id="20656229" version="6" timestamp="2012-07-20T08:31:11Z" uid="722137" user="OSMF Redaction Account" changeset="12368378">
    <nd ref="221753253"/>
    <nd ref="221758532"/>
    <nd ref="221757110"/>
    <nd ref="221757111"/>
    <nd ref="221757113"/>
    <nd ref="221757115"/>
    <nd ref="221757117"/>
    <tag k="highway" v="residential"/>
    <tag k="name" v="Pleasant Way"/>
  </way>
  <way id="20656707" version="6" timestamp="2012-07-20T08:31:21Z" uid="722137" user="OSMF Redaction Account" changeset="12368378">
    <nd ref="221761130"/>
    <nd ref="221762103"/>
    <nd ref="221761820"/>
    <tag k="highway" v="residential"/>
    <tag k="name" v="Phillip Street"/>
  </way>
  <way id="20656707" version="7" timestamp="2012-08-06T12:54:31Z" uid="2585" user="rw_" changeset="12632945">
    <nd ref="221761130"/>
    <nd ref="588140744"/>
    <nd ref="221762103"/>
    <nd ref="221761820"/>
    <tag k="highway" v="residential"/>
    <tag k="name" v="Phillip Street"/>
  </way>
  <way id="20656932" version="5" timestamp="2012-07-20T08:30:59Z" uid="722137" user="OSMF Redaction Account" changeset="12368378">
    <nd ref="221763252"/>
    <nd ref="221763921"/>
    <nd ref="221760372"/>
    <nd ref="221763923"/>
    <nd ref="221763925"/>
    <nd ref="221763927"/>
    <tag k="highway" v="residential"/>
    <tag k="name" v="Nellella Street"/>
  </way>
</osm>
