<?xml version='1.0' encoding='UTF-8'?>
<osm version="0.6" generator="libosmium/2.20.0">
  <way id="20655021" version="3" timestamp="2010-07-07T21:33:37Z" uid="74617" user="JohnSmith" changeset="5161069">
    <nd ref="221743650"/>
    <nd ref="221744458"/>
    <nd ref="221745118"/>
    <nd ref="221740731"/>
    <tag k="highway" v="residential"/>
    <tag k="maxspeed" v="50"/>
    <tag k="maxspeed:source" v="default residential speed limit in Australia"/>
    <tag k="name" v="Taro Street"/>
  </way>
  <way id="20655021" version="4" timestamp="2012-01-15T21:19:29Z" uid="147510" user="woodpeck_fixbot" changeset="10402983">
    <nd ref="221743650"/>
    <nd ref="221744458"/>
    <nd ref="221745118"/>
    <nd ref="221740731"/>
    <tag k="highway" v="residential"/>
    <tag k="name" v="Taro Street"/>
  </way>
  <way id="20655092" version="2" timestamp="2010-07-07T21:29:13Z" uid="74617" user="JohnSmith" changeset="5161069">
    <nd ref="221744482"/>
    <nd ref="221745117"/>
    <nd ref="221745118"/>
    <nd ref="221742177"/>
    <tag k="highway" v="residential"/>
    <tag k="maxspeed" v="50"/>
    <tag k="maxspeed:source" v="default residential speed limit in Australia"/>
    <tag k="name" v="East Street"/>
  </way>
  <way id="20655092" version="3" timestamp="2012-01-15T21:19:31Z" uid="147510" user="woodpeck_fixbot" changeset="10402983">
    <nd ref="221744482"/>
    <nd ref="221745117"/>
    <nd ref="221745118"/>
    <nd ref="221742177"/>
    <tag k="highway" v="residential"/>
    <tag k="name" v="East Street"/>
  </way>
  <way id="20655126" version="2" timestamp="2010-07-07T21:32:09Z" uid="74617" user="JohnSmith" changeset="5161069">
    <nd ref="221745176"/>
    <nd ref="221745538"/>
    <tag k="highway" v="residential"/>
    <tag k="maxspeed" v="50"/>
    <tag k="maxspeed:source" v="default residential speed limit in Australia"/>
    <tag k="name" v="East Street"/>
  </way>
  <way id="20655126" version="3" timestamp="2010-10-04T04:15:33Z" uid="7617" user="Franc" changeset="5950232">
    <nd ref="221745176"/>
    <nd ref="937426168"/>
    <tag k="highway" v="residential"/>
    <tag k="maxspeed" v="50"/>
    <tag k="maxspeed:source" v="default residential speed limit in Australia"/>
    <tag k="name" v="East Street"/>
  </way>
  <way id="20655126" version="4" timestamp="2012-01-15T21:19:35Z" uid="147510" user="woodpeck_fixbot" changeset="10402983">
    <nd ref="221745176"/>
    <nd ref="937426168"/>
    <tag k="highway" v="residential"/>
    <tag k="name" v="East Street"/>
  </way>
  <way id="20655234" version="2" timestamp="2010-07-07T21:34:01Z" uid="74617" user="JohnSmith" changeset="5161069">
    <nd ref="221746023"/>
    <nd ref="60296085"/>
    <nd ref="221746773"/>
    <tag k="highway" v="residential"/>
    <tag k="maxspeed" v="50"/>
    <tag k="maxspeed:source" v="default residential speed limit in Australia"/>
    <tag k="name" v="Coogarah Street"/>
  </way>
  <way id="20655234" version="3" timestamp="2010-10-04T04:15:34Z" uid="7617" user="Franc" changeset="5950232">
    <nd ref="221746023"/>
    <nd ref="937426174"/>
    <nd ref="60296085"/>
    <nd ref="221746773"/>
    <tag k="highway" v="residential"/>
    <tag k="maxspeed" v="50"/>
    <tag k="maxspeed:source" v="default residential speed limit in Australia"/>
    <tag k="name" v="Coogarah Street"/>
  </way>
  <way id="20655234" version="4" timestamp="2012-01-15T21:19:36Z" uid="147510" user="woodpeck_fixbot" changeset="10402983">
    <nd ref="221746023"/>
    <nd ref="937426174"/>
    <nd ref="60296085"/>
    <nd ref="221746773"/>
    <tag k="highway" v="residential"/>
    <tag k="name" v="Coogarah Street"/>
  </way>
  <way id="20655280" version="2" timestamp="2010-07-07T21:33:33Z" uid="74617" user="JohnSmith" changeset="5161069">
    <nd ref="221745538"/>
    <nd ref="221747263"/>
    <nd ref="221747265"/>
    <nd ref="221747267"/>
    <nd ref="221747269"/>
    <tag k="highway" v="residential"/>
    <tag k="maxspeed" v="50"/>
    <tag k="maxspeed:source" v="default residential speed limit in Australia"/>
    <tag k="name" v="Marie Dodo Crescent"/>
  </way>
  <way id="20655280" version="3" timestamp="2010-10-04T04:15:36Z" uid="7617" user="Franc" changeset="5950232">
    <nd ref="221745538"/>
    <nd ref="221747263"/>
    <nd ref="937426161"/>
    <nd ref="221747265"/>
    <nd ref="221747267"/>
    <nd ref="221747269"/>
    <tag k="highway" v="residential"/>
    <tag k="maxspeed" v="50"/>
    <tag k="maxspeed:source" v="default residential speed limit in Australia"/>
    <tag k="name" v="Marie Dodo Crescent"/>
  </way>
  <way id="20655280" version="4" timestamp="2012-01-15T21:19:39Z" uid="147510" user="woodpeck_fixbot" changeset="10402983">
    <nd ref="221745538"/>
    <nd ref="221747263"/>
    <nd ref="937426161"/>
    <nd ref="221747265"/>
    <nd ref="221747267"/>
    <nd ref="221747269"/>
    <tag k="highway" v="residential"/>
    <tag k="name" v="Marie Dodo Crescent"/>
  </way>
  <way id="20655391" version="2" timestamp="2010-07-07T21:35:17Z" uid="74617" user="JohnSmith" changeset="5161069">
    <nd ref="221747550"/>
    <nd ref="221748357"/>
    <nd ref="221748360"/>
    <tag k="highway" v="residential"/>
    <tag k="maxspeed" v="50"/>
    <tag k="maxspeed:source" v="default residential speed limit in Australia"/>
    <tag k="name" v="Raleigh Street"/>
  </way>
  <way id="20655391" version="3" timestamp="2012-01-15T21:19:40Z" uid="147510" user="woodpeck_fixbot" changeset="10402983">
    <nd ref="221747550"/>
    <nd ref="221748357"/>
    <nd ref="221748360"/>
    <tag k="highway" v="residential"/>
    <tag k="name" v="Raleigh Street"/>
  </way>
  <way id="20655528" version="3" timestamp="2010-06-29T19:17:15Z" uid="74617" user="JohnSmith" changeset="5108182">
    <nd ref="221749594"/>
    <nd ref="221749596"/>
    <nd ref="221749598"/>
    <nd ref="221749600"/>
    <nd ref="221749594"/>
    <tag k="fixme" v="sport=football is ambiguous, see http://wiki.osm.org/wiki/Football for more details"/>
    <tag k="leisure" v="stadium"/>
    <tag k="name" v="Stade de Billancourt"/>
    <tag k="sport" v="football"/>
  </way>
  <way id="20655528" version="4" timestamp="2010-12-15T17:57:39Z" uid="150619" user="Mawie" changeset="6669805">
    <nd ref="221749594"/>
    <nd ref="221749596"/>
    <nd ref="221749598"/>
    <nd ref="221749600"/>
    <nd ref="1039496579"/>
    <nd ref="221749594"/>
    <tag k="fixme" v="sport=football is ambiguous, see http://wiki.osm.org/wiki/Football for more details"/>
    <tag k="leisure" v="stadium"/>
    <tag k="name" v="Stade de Billancourt"/>
    <tag k="sport" v="football"/>
  </way>
  <way id="20655528" version="5" timestamp="2010-12-15T18:43:50Z" uid="150619" user="Mawie" changeset="6670262">
    <nd ref="221749594"/>
    <nd ref="221749596"/>
    <nd ref="221749598"/>
    <nd ref="1039587843"/>
    <nd ref="221749600"/>
    <nd ref="1039496579"/>
    <nd ref="221749594"/>
    <tag k="fixme" v="sport=football is ambiguous, see http://wiki.osm.org/wiki/Football for more details"/>
    <tag k="leisure" v="stadium"/>
    <tag k="name" v="Stade de Billancourt"/>
    <tag k="sport" v="football"/>
  </way>
  <way id="20655625" version="3" timestamp="2010-07-07T21:28:10Z" uid="74617" user="JohnSmith" changeset="5161069">
    <nd ref="221750720"/>
    <nd ref="221751763"/>
    <nd ref="221750721"/>
    <nd ref="221750724"/>
    <tag k="highway" v="residential"/>
    <tag k="maxspeed" v="50"/>
    <tag k="maxspeed:source" v="default residential speed limit in Australia"/>
    <tag k="name" v="Gold Street"/>
  </way>
  <way id="20655625" version="4" timestamp="2012-01-15T21:19:42Z" uid="147510" user="woodpeck_fixbot" changeset="10402983">
    <nd ref="221750720"/>
    <nd ref="221751763"/>
    <nd ref="221750721"/>
    <nd ref="221750724"/>
    <tag k="highway" v="residential"/>
    <tag k="name" v="Gold Street"/>
  </way>
  <way id="20655660" version="2" timestamp="2010-07-07T21:29:48Z" uid="74617" user="JohnSmith" changeset="5161069">
    <nd ref="221750955"/>
    <nd ref="221751242"/>
    <tag k="highway" v="residential"/>
    <tag k="maxspeed" v="50"/>
    <tag k="maxspeed:source" v="default residential speed limit in Australia"/>
    <tag k="name" v="Fletcher Street"/>
  </way>
  <way id="20655660" version="3" timestamp="2012-01-15T21:19:44Z" uid="147510" user="woodpeck_fixbot" changeset="10402983">
    <nd ref="221750955"/>
    <nd ref="221751242"/>
    <tag k="highway" v="residential"/>
    <tag k="name" v="Fletcher Street"/>
  </way>
  <way id="20655717" version="2" timestamp="2010-07-07T21:37:14Z" uid="74617" user="JohnSmith" changeset="5161069">
    <nd ref="221751762"/>
    <nd ref="221751242"/>
    <nd ref="221751763"/>
    <tag k="highway" v="residential"/>
    <tag k="maxspeed" v="50"/>
    <tag k="maxspeed:source" v="default residential speed limit in Australia"/>
    <tag k="name" v="Woodlands Avenue"/>
  </way>
  <way id="20655717" version="3" timestamp="2012-01-15T21:19:45Z" uid="147510" user="woodpeck_fixbot" changeset="10402983">
    <nd ref="221751762"/>
    <nd ref="221751242"/>
    <nd ref="221751763"/>
    <tag k="highway" v="residential"/>
    <tag k="name" v="Woodlands Avenue"/>
  </way>
  <way id="20655890" version="7" timestamp="2010-07-07T21:32:46Z" uid="74617" user="JohnSmith" changeset="5161069">
    <nd ref="60296071"/>
    <nd ref="221753250"/>
    <nd ref="221753251"/>
    <nd ref="221753253"/>
    <nd ref="221753255"/>
    <nd ref="221757181"/>
    <nd ref="221756535"/>
    <nd ref="221755089"/>
    <nd ref="221753256"/>
    <nd ref="221753257"/>
    <nd ref="221750724"/>
    <nd ref="221754060"/>
    <nd ref="221753258"/>
    <nd ref="221753260"/>
    <nd ref="221753261"/>
    <nd ref="221753262"/>
    <tag k="highway" v="residential"/>
    <tag k="maxspeed" v="50"/>
    <tag k="maxspeed:source" v="default residential speed limit in Australia"/>
    <tag k="name" v="Stuart Street"/>
  </way>
  <way id="20655890" version="8" timestamp="2010-10-04T04:15:37Z" uid="7617" user="Franc" changeset="5950232">
    <nd ref="60296071"/>
    <nd ref="937426162"/>
    <nd ref="221753250"/>
    <nd ref="937426184"/>
    <nd ref="221753251"/>
    <nd ref="221753253"/>
    <nd ref="937426143"/>
    <nd ref="221753255"/>
    <nd ref="221757181"/>
    <nd ref="221756535"/>
    <nd ref="221755089"/>
    <nd ref="937426145"/>
    <tag k="highway" v="residential"/>
    <tag k="maxspeed" v="50"/>
    <tag k="maxspeed:source" v="default residential speed limit in Australia"/>
    <tag k="name" v="Stuart Street"/>
  </way>
  <way id="20655890" version="9" timestamp="2012-01-15T21:19:47Z" uid="147510" user="woodpeck_fixbot" changeset="10402983">
    <nd ref="60296071"/>
    <nd ref="937426162"/>
    <nd ref="221753250"/>
    <nd ref="937426184"/>
    <nd ref="221753251"/>
    <nd ref="221753253"/>
    <nd ref="937426143"/>
    <nd ref="221753255"/>
    <nd ref="221757181"/>
    <nd ref="221756535"/>
    <nd ref="221755089"/>
    <nd ref="937426145"/>
    <tag k="highway" v="residential"/>
    <tag k="name" v="Stuart Street"/>
  </way>
  <way id="20655126" version="5" timestamp="2012-07-20T08:36:21Z" uid="722137" user="OSMF Redaction Account" changeset="12368516"/>
  <way id="20655234" version="5" timestamp="2012-07-20T08:31:12Z" uid="722137" user="OSMF Redaction Account" changeset="12368378">
    <nd ref="221746023"/>
    <nd ref="60296085"/>
    <nd ref="221746773"/>
    <tag k="highway" v="residential"/>
    <tag k="name" v="Coogarah Street"/>
  </way>
  <way id="20655280" version="5" timestamp="2012-07-20T08:31:13Z" uid="722137" user="OSMF Redaction Account" changeset="12368378">
    <nd ref="221745538"/>
    <nd ref="221747263"/>
    <nd ref="221747265"/>
    <nd ref="221747267"/>
    <nd ref="221747269"/>
    <tag k="highway" v="residential"/>
    <tag k="name" v="Marie Dodo Crescent"/>
  </way>
  <way id="20655528" version="6" timestamp="2012-07-18T10:08:38Z" uid="722137" user="OSMF Redaction Account" changeset="12277212">
    <nd ref="221749594"/>
    <nd ref="221749596"/>
    <nd ref="221749598"/>
    <nd ref="1039587843"/>
    <nd ref="221749600"/>
    <nd ref="1039496579"/>
    <nd ref="221749594"/>
    <tag k="leisure" v="stadium"/>
    <tag k="name" v="Stade de Billancourt"/>
    <tag k="sport" v="football"/>
  </way>
  <way id="20655890" version="10" timestamp="2012-07-20T08:31:12Z" uid="722137" user="OSMF Redaction Account" changeset="12368378">
    <nd ref="60296071"/>
    <nd ref="221753250"/>
    <nd ref="221753251"/>
    <nd ref="221753253"/>
    <nd ref="221753255"/>
    <nd ref="221757181"/>
    <nd ref="221756535"/>
    <nd ref="221755089"/>
    <tag k="highway" v="residential"/>
    <tag k="name" v="Stuart Street"/>
  </way>
</osm>
