<?xml version='1.0' encoding='UTF-8'?>
<osm version="0.6" generator="libosmium/2.20.0">
  <way id="20930172" version="4" timestamp="2011-01-24T01:19:03Z" uid="20587" user="balrog-kun" changeset="7069126">
    <nd ref="32627301"/>
    <nd ref="32627300"/>
    <nd ref="1118030713"/>
    <nd ref="1118030717"/>
    <nd ref="32627299"/>
    <tag k="highway" v="secondary"/>
    <tag k="name" v="Zajęcza"/>
    <tag k="oneway" v="yes"/>
    <tag k="ref" v="719"/>
  </way>
  <way id="20930182" version="2" timestamp="2008-05-08T16:40:23Z" uid="20587" user="balrog-kun" changeset="365483">
    <nd ref="32627303"/>
    <nd ref="32627344"/>
    <nd ref="32627343"/>
    <nd ref="262833548"/>
    <nd ref="32627342"/>
    <tag k="created_by" v="Potlatch 0.6a"/>
    <tag k="highway" v="tertiary"/>
    <tag k="name" v="Dobra"/>
    <tag k="oneway" v="yes"/>
  </way>
  <way id="20930182" version="3" timestamp="2008-08-01T14:12:49Z" uid="52087" user="kocio" changeset="16051">
    <nd ref="32627303"/>
    <nd ref="282698808"/>
    <nd ref="32627344"/>
    <nd ref="32627343"/>
    <nd ref="262833548"/>
    <nd ref="32627342"/>
    <tag k="created_by" v="Potlatch 0.10b"/>
    <tag k="highway" v="tertiary"/>
    <tag k="name" v="Dobra"/>
    <tag k="oneway" v="yes"/>
  </way>
  <way id="20930182" version="4" timestamp="2009-02-15T06:27:37Z" uid="20587" user="balrog-kun" changeset="446565">
    <nd ref="32627303"/>
    <nd ref="282698808"/>
    <nd ref="32627344"/>
    <nd ref="32627343"/>
    <nd ref="262833548"/>
    <nd ref="32627342"/>
    <tag k="created_by" v="Potlatch 0.10b"/>
    <tag k="highway" v="tertiary"/>
    <tag k="name" v="Dobra"/>
    <tag k="oneway" v="yes"/>
    <tag k="wikipedia" v="pl:Ulica Dobra w Warszawie"/>
  </way>
  <way id="20930182" version="5" timestamp="2009-04-02T16:19:46Z" uid="20587" user="balrog-kun" changeset="73521">
    <nd ref="32627303"/>
    <nd ref="282698808"/>
    <nd ref="32627344"/>
    <nd ref="32627343"/>
    <nd ref="262833548"/>
    <nd ref="368939314"/>
    <nd ref="32627342"/>
    <tag k="created_by" v="Potlatch 0.10b"/>
    <tag k="highway" v="tertiary"/>
    <tag k="name" v="Dobra"/>
    <tag k="oneway" v="yes"/>
    <tag k="wikipedia" v="pl:Ulica Dobra w Warszawie"/>
  </way>
  <way id="20930182" version="6" timestamp="2009-10-01T05:43:57Z" uid="98542" user="wajak" changeset="2696405">
    <nd ref="32627342"/>
    <nd ref="368939314"/>
    <nd ref="262833548"/>
    <nd ref="32627343"/>
    <nd ref="32627344"/>
    <nd ref="282698808"/>
    <nd ref="32627303"/>
    <nd ref="32627301"/>
    <tag k="highway" v="tertiary"/>
    <tag k="name" v="Dobra"/>
    <tag k="oneway" v="yes"/>
    <tag k="wikipedia" v="pl:Ulica Dobra w Warszawie"/>
  </way>
  <way id="20930182" version="7" timestamp="2010-11-06T21:04:26Z" uid="20587" user="balrog-kun" changeset="6306362">
    <nd ref="32627342"/>
    <nd ref="979671610"/>
    <nd ref="262833548"/>
    <nd ref="32627343"/>
    <nd ref="32627344"/>
    <nd ref="282698808"/>
    <nd ref="32627303"/>
    <nd ref="32627301"/>
    <tag k="highway" v="tertiary"/>
    <tag k="name" v="Dobra"/>
    <tag k="oneway" v="yes"/>
    <tag k="wikipedia" v="pl:Ulica Dobra w Warszawie"/>
  </way>
  <way id="20930182" version="8" timestamp="2011-01-20T19:00:44Z" uid="20587" user="balrog-kun" changeset="7033402">
    <nd ref="32627342"/>
    <nd ref="979671610"/>
    <nd ref="262833548"/>
    <nd ref="32627343"/>
    <nd ref="32627344"/>
    <nd ref="282698808"/>
    <nd ref="1111953575"/>
    <nd ref="32627303"/>
    <nd ref="1111952543"/>
    <nd ref="32627301"/>
    <tag k="highway" v="tertiary"/>
    <tag k="name" v="Dobra"/>
    <tag k="oneway" v="yes"/>
    <tag k="wikipedia" v="pl:Ulica Dobra w Warszawie"/>
  </way>
  <way id="20930182" version="9" timestamp="2011-04-30T23:10:28Z" uid="20587" user="balrog-kun" changeset="8016788">
    <nd ref="32627342"/>
    <nd ref="979671610"/>
    <nd ref="262833548"/>
    <nd ref="32627343"/>
    <nd ref="1268253908"/>
    <nd ref="32627344"/>
    <nd ref="282698808"/>
    <nd ref="1111953575"/>
    <nd ref="32627303"/>
    <nd ref="1111952543"/>
    <nd ref="32627301"/>
    <tag k="highway" v="tertiary"/>
    <tag k="name" v="Dobra"/>
    <tag k="oneway" v="yes"/>
    <tag k="wikipedia" v="pl:Ulica Dobra w Warszawie"/>
  </way>
  <way id="20930182" version="10" timestamp="2011-09-25T20:53:55Z" uid="94364" user="Marcin Zajączkowski" changeset="9396982">
    <nd ref="32627342"/>
    <nd ref="979671610"/>
    <nd ref="262833548"/>
    <nd ref="32627343"/>
    <nd ref="1268253908"/>
    <nd ref="32627344"/>
    <nd ref="282698808"/>
    <nd ref="1111953575"/>
    <nd ref="32627303"/>
    <nd ref="1111952543"/>
    <nd ref="32627301"/>
    <tag k="highway" v="tertiary"/>
    <tag k="name" v="Dobra"/>
    <tag k="oneway" v="no"/>
    <tag k="wikipedia" v="pl:Ulica Dobra w Warszawie"/>
  </way>
  <way id="20930182" version="11" timestamp="2011-11-08T12:20:34Z" uid="551124" user="Jacek Baran" changeset="9772528">
    <nd ref="32627342"/>
    <nd ref="979671610"/>
    <nd ref="262833548"/>
    <nd ref="32627343"/>
    <nd ref="1268253908"/>
    <nd ref="32627344"/>
    <nd ref="282698808"/>
    <nd ref="1111953575"/>
    <nd ref="32627303"/>
    <nd ref="1111952543"/>
    <nd ref="32627301"/>
    <tag k="bicycle" v="yes"/>
    <tag k="cycleway" v="no"/>
    <tag k="foot" v="yes"/>
    <tag k="highway" v="tertiary"/>
    <tag k="maxspeed" v="50"/>
    <tag k="name" v="Dobra"/>
    <tag k="oneway" v="no"/>
    <tag k="wikipedia" v="pl:Ulica Dobra w Warszawie"/>
  </way>
  <way id="20930183" version="4" timestamp="2009-02-15T06:27:38Z" uid="20587" user="balrog-kun" changeset="446565">
    <nd ref="32627301"/>
    <nd ref="32627303"/>
    <tag k="created_by" v="Potlatch 0.6a"/>
    <tag k="highway" v="tertiary"/>
    <tag k="name" v="Dobra"/>
    <tag k="wikipedia" v="pl:Ulica Dobra w Warszawie"/>
  </way>
  <way id="20930183" version="5" timestamp="2009-10-01T05:43:58Z" uid="98542" user="wajak" changeset="2696405"/>
  <way id="20930302" version="2" timestamp="2008-12-07T00:53:12Z" uid="20587" user="balrog-kun" changeset="238679">
    <nd ref="32627299"/>
    <nd ref="224831149"/>
    <nd ref="317095646"/>
    <nd ref="224831150"/>
    <nd ref="224760594"/>
    <tag k="created_by" v="Potlatch 0.6a"/>
    <tag k="highway" v="tertiary"/>
    <tag k="name" v="Topiel"/>
  </way>
  <way id="20930302" version="3" timestamp="2010-06-20T16:58:49Z" uid="20587" user="balrog-kun" changeset="5034788">
    <nd ref="32627299"/>
    <nd ref="224831149"/>
    <nd ref="317095646"/>
    <nd ref="224831150"/>
    <nd ref="778326727"/>
    <nd ref="224760594"/>
    <tag k="highway" v="tertiary"/>
    <tag k="name" v="Topiel"/>
  </way>
  <way id="20930302" version="4" timestamp="2011-01-24T01:19:05Z" uid="20587" user="balrog-kun" changeset="7069126">
    <nd ref="32627299"/>
    <nd ref="1118030739"/>
    <nd ref="224831149"/>
    <nd ref="317095646"/>
    <nd ref="224831150"/>
    <nd ref="778326727"/>
    <nd ref="224760594"/>
    <tag k="highway" v="tertiary"/>
    <tag k="name" v="Topiel"/>
  </way>
  <way id="20930497" version="3" timestamp="2008-10-28T09:49:31Z" uid="20587" user="balrog-kun" changeset="609926">
    <nd ref="32528270"/>
    <nd ref="308199684"/>
    <nd ref="224752224"/>
    <nd ref="224752222"/>
    <tag k="created_by" v="Potlatch 0.6a"/>
    <tag k="highway" v="residential"/>
    <tag k="name" v="Mikołaja Kopernika"/>
  </way>
  <way id="20930497" version="4" timestamp="2009-02-15T06:17:28Z" uid="20587" user="balrog-kun" changeset="446565">
    <nd ref="32528270"/>
    <nd ref="308199684"/>
    <nd ref="224752224"/>
    <nd ref="224752222"/>
    <tag k="created_by" v="Potlatch 0.6a"/>
    <tag k="highway" v="residential"/>
    <tag k="name" v="Mikołaja Kopernika"/>
    <tag k="wikipedia" v="pl:Ulica Mikołaja Kopernika w Warszawie"/>
  </way>
  <way id="20930497" version="5" timestamp="2010-06-04T12:06:30Z" uid="20587" user="balrog-kun" changeset="4900606">
    <nd ref="32528270"/>
    <nd ref="308199684"/>
    <nd ref="224752224"/>
    <nd ref="764342851"/>
    <nd ref="224752222"/>
    <tag k="highway" v="residential"/>
    <tag k="name" v="Mikołaja Kopernika"/>
    <tag k="wikipedia" v="pl:Ulica Mikołaja Kopernika w Warszawie"/>
  </way>
  <way id="20930497" version="6" timestamp="2010-10-01T19:39:44Z" uid="20587" user="balrog-kun" changeset="5930868">
    <nd ref="32528270"/>
    <nd ref="308199684"/>
    <nd ref="933737741"/>
    <nd ref="224752224"/>
    <nd ref="764342851"/>
    <nd ref="224752222"/>
    <tag k="highway" v="residential"/>
    <tag k="name" v="Mikołaja Kopernika"/>
    <tag k="wikipedia" v="pl:Ulica Mikołaja Kopernika w Warszawie"/>
  </way>
  <way id="20930508" version="4" timestamp="2008-12-07T00:53:11Z" uid="20587" user="balrog-kun" changeset="238679">
    <nd ref="32528272"/>
    <nd ref="32528271"/>
    <nd ref="317095528"/>
    <nd ref="32528270"/>
    <tag k="created_by" v="Potlatch 0.6a"/>
    <tag k="highway" v="secondary"/>
    <tag k="name" v="Mikołaja Kopernika"/>
    <tag k="ref" v="719"/>
  </way>
  <way id="20930508" version="5" timestamp="2009-11-27T13:44:28Z" uid="20587" user="balrog-kun" changeset="3228126">
    <nd ref="32528272"/>
    <nd ref="32528271"/>
    <nd ref="317095528"/>
    <nd ref="32528270"/>
    <tag k="highway" v="secondary"/>
    <tag k="name" v="Mikołaja Kopernika"/>
    <tag k="ref" v="719"/>
    <tag k="wikipedia" v="pl:Ulica Mikołaja Kopernika w Warszawie"/>
  </way>
  <way id="20930508" version="6" timestamp="2010-05-23T15:04:21Z" uid="20587" user="balrog-kun" changeset="4784060">
    <nd ref="32528272"/>
    <nd ref="317095528"/>
    <nd ref="32528271"/>
    <nd ref="32528270"/>
    <tag k="highway" v="secondary"/>
    <tag k="lanes" v="3"/>
    <tag k="maxspeed" v="50"/>
    <tag k="name" v="Mikołaja Kopernika"/>
    <tag k="ref" v="719"/>
    <tag k="wikipedia" v="pl:Ulica Mikołaja Kopernika w Warszawie"/>
  </way>
  <way id="20930508" version="7" timestamp="2010-10-01T19:39:42Z" uid="20587" user="balrog-kun" changeset="5930868">
    <nd ref="32528272"/>
    <nd ref="317095528"/>
    <nd ref="32528271"/>
    <nd ref="32528270"/>
    <tag k="highway" v="secondary"/>
    <tag k="lanes" v="3"/>
    <tag k="maxspeed" v="50"/>
    <tag k="name" v="Mikołaja Kopernika"/>
    <tag k="ref" v="719"/>
    <tag k="wikipedia" v="pl:Ulica Mikołaja Kopernika w Warszawie"/>
  </way>
  <way id="20930563" version="3" timestamp="2010-06-20T16:58:43Z" uid="20587" user="balrog-kun" changeset="5034788">
    <nd ref="224829887"/>
    <nd ref="778329141"/>
    <nd ref="778326802"/>
    <nd ref="224843575"/>
    <tag k="highway" v="residential"/>
    <tag k="name" v="Radna"/>
  </way>
  <way id="20930779" version="2" timestamp="2010-06-20T16:58:45Z" uid="20587" user="balrog-kun" changeset="5034788">
    <nd ref="224845215"/>
    <nd ref="778329203"/>
    <nd ref="778326463"/>
    <nd ref="778327672"/>
    <nd ref="224845610"/>
    <tag k="highway" v="residential"/>
    <tag k="name" v="Wiślana"/>
  </way>
  <way id="20930853" version="2" timestamp="2008-07-24T18:48:38Z" uid="20587" user="balrog-kun" changeset="584565">
    <nd ref="224871023"/>
    <nd ref="280796933"/>
    <nd ref="280796931"/>
    <nd ref="224827788"/>
    <tag k="highway" v="footway"/>
    <tag k="name" v="Ścieżka księdza Bronka Bozowskiego"/>
  </way>
  <way id="20930853" version="3" timestamp="2010-04-24T00:22:43Z" uid="274081" user="smyrwa" changeset="4508573">
    <nd ref="224871023"/>
    <nd ref="280796933"/>
    <tag k="highway" v="steps"/>
    <tag k="name" v="Ścieżka księdza Bronka Bozowskiego"/>
  </way>
  <way id="20930883" version="2" timestamp="2010-04-07T12:38:26Z" uid="20587" user="balrog-kun" changeset="4353576">
    <nd ref="224846462"/>
    <nd ref="224846465"/>
    <nd ref="224826631"/>
    <tag k="highway" v="residential"/>
    <tag k="name" v="Grove Street"/>
    <tag k="tiger:cfcc" v="A41"/>
    <tag k="tiger:county" v="Hale, TX"/>
    <tag k="tiger:name_base" v="Grove"/>
    <tag k="tiger:name_type" v="St"/>
    <tag k="tiger:reviewed" v="no"/>
    <tag k="tiger:separated" v="no"/>
    <tag k="tiger:source" v="tiger_import_dch_v0.6_20070829"/>
    <tag k="tiger:tlid" v="185698106:185705309"/>
  </way>
  <way id="20930883" version="3" timestamp="2010-07-04T06:35:42Z" uid="92286" user="Paul Johnson" changeset="5129931">
    <nd ref="224869027"/>
    <nd ref="224846465"/>
    <nd ref="224826631"/>
    <tag k="highway" v="residential"/>
    <tag k="name" v="Grove Street"/>
    <tag k="tiger:cfcc" v="A41"/>
    <tag k="tiger:county" v="Hale, TX"/>
    <tag k="tiger:name_base" v="Grove"/>
    <tag k="tiger:name_type" v="St"/>
    <tag k="tiger:reviewed" v="no"/>
    <tag k="tiger:separated" v="no"/>
    <tag k="tiger:source" v="tiger_import_dch_v0.6_20070829"/>
    <tag k="tiger:tlid" v="185698106:185705309"/>
  </way>
  <way id="20930886" version="2" timestamp="2010-04-07T12:38:26Z" uid="20587" user="balrog-kun" changeset="4353576">
    <nd ref="224846475"/>
    <nd ref="224846482"/>
    <tag k="highway" v="residential"/>
    <tag k="name" v="Grove Street"/>
    <tag k="tiger:cfcc" v="A41"/>
    <tag k="tiger:county" v="Hale, TX"/>
    <tag k="tiger:name_base" v="Grove"/>
    <tag k="tiger:name_type" v="St"/>
    <tag k="tiger:reviewed" v="no"/>
    <tag k="tiger:separated" v="no"/>
    <tag k="tiger:source" v="tiger_import_dch_v0.6_20070829"/>
    <tag k="tiger:tlid" v="185696971"/>
    <tag k="tiger:zip_left" v="79072"/>
    <tag k="tiger:zip_right" v="79072"/>
  </way>
  <way id="20930888" version="2" timestamp="2010-04-07T12:38:26Z" uid="20587" user="balrog-kun" changeset="4353576">
    <nd ref="224846491"/>
    <nd ref="224846494"/>
    <nd ref="224826038"/>
    <tag k="highway" v="residential"/>
    <tag k="name" v="Grove Street"/>
    <tag k="tiger:cfcc" v="A41"/>
    <tag k="tiger:county" v="Hale, TX"/>
    <tag k="tiger:name_base" v="Grove"/>
    <tag k="tiger:name_type" v="St"/>
    <tag k="tiger:reviewed" v="no"/>
    <tag k="tiger:separated" v="no"/>
    <tag k="tiger:source" v="tiger_import_dch_v0.6_20070829"/>
    <tag k="tiger:tlid" v="185696309:185696224"/>
  </way>
  <way id="20930889" version="2" timestamp="2010-04-07T12:38:27Z" uid="20587" user="balrog-kun" changeset="4353576">
    <nd ref="224846503"/>
    <nd ref="224846507"/>
    <nd ref="224846511"/>
    <tag k="highway" v="residential"/>
    <tag k="name" v="Grove Street"/>
    <tag k="tiger:cfcc" v="A41"/>
    <tag k="tiger:county" v="Hale, TX"/>
    <tag k="tiger:name_base" v="Grove"/>
    <tag k="tiger:name_type" v="St"/>
    <tag k="tiger:reviewed" v="no"/>
    <tag k="tiger:separated" v="no"/>
    <tag k="tiger:source" v="tiger_import_dch_v0.6_20070829"/>
    <tag k="tiger:tlid" v="185698096:185698098"/>
  </way>
  <way id="20930889" version="3" timestamp="2010-07-04T06:34:43Z" uid="92286" user="Paul Johnson" changeset="5129931">
    <nd ref="224846503"/>
    <nd ref="224866856"/>
    <nd ref="224846511"/>
    <tag k="highway" v="residential"/>
    <tag k="name" v="Grove Street"/>
    <tag k="tiger:cfcc" v="A41"/>
    <tag k="tiger:county" v="Hale, TX"/>
    <tag k="tiger:name_base" v="Grove"/>
    <tag k="tiger:name_type" v="St"/>
    <tag k="tiger:reviewed" v="no"/>
    <tag k="tiger:separated" v="no"/>
    <tag k="tiger:source" v="tiger_import_dch_v0.6_20070829"/>
    <tag k="tiger:tlid" v="185698096:185698098"/>
  </way>
  <way id="20930905" version="2" timestamp="2010-04-07T12:38:27Z" uid="20587" user="balrog-kun" changeset="4353576">
    <nd ref="224846688"/>
    <nd ref="224846692"/>
    <nd ref="224846694"/>
    <nd ref="224846697"/>
    <tag k="highway" v="residential"/>
    <tag k="name" v="West Mann Street"/>
    <tag k="name_1" v="Mann"/>
    <tag k="tiger:cfcc" v="A41"/>
    <tag k="tiger:county" v="Hale, TX"/>
    <tag k="tiger:name_base" v="Mann"/>
    <tag k="tiger:name_base_1" v="Mann"/>
    <tag k="tiger:name_direction_prefix" v="W"/>
    <tag k="tiger:name_type" v="St"/>
    <tag k="tiger:reviewed" v="no"/>
    <tag k="tiger:separated" v="no"/>
    <tag k="tiger:source" v="tiger_import_dch_v0.6_20070829"/>
    <tag k="tiger:tlid" v="185695621"/>
    <tag k="tiger:zip_left" v="79072"/>
  </way>
  <way id="20930907" version="2" timestamp="2010-04-07T12:38:27Z" uid="20587" user="balrog-kun" changeset="4353576">
    <nd ref="224846706"/>
    <nd ref="224846709"/>
    <nd ref="224846713"/>
    <nd ref="224846717"/>
    <tag k="highway" v="residential"/>
    <tag k="name" v="25th Street"/>
    <tag k="tiger:cfcc" v="A41"/>
    <tag k="tiger:county" v="Hale, TX"/>
    <tag k="tiger:name_base" v="25th"/>
    <tag k="tiger:name_type" v="St"/>
    <tag k="tiger:reviewed" v="no"/>
    <tag k="tiger:separated" v="no"/>
    <tag k="tiger:source" v="tiger_import_dch_v0.6_20070829"/>
    <tag k="tiger:tlid" v="185697970"/>
    <tag k="tiger:zip_left" v="79072"/>
  </way>
  <way id="20930908" version="2" timestamp="2010-04-07T12:38:27Z" uid="20587" user="balrog-kun" changeset="4353576">
    <nd ref="224846727"/>
    <nd ref="224846731"/>
    <tag k="highway" v="residential"/>
    <tag k="name" v="25th Street"/>
    <tag k="tiger:cfcc" v="A41"/>
    <tag k="tiger:county" v="Hale, TX"/>
    <tag k="tiger:name_base" v="25th"/>
    <tag k="tiger:name_type" v="St"/>
    <tag k="tiger:reviewed" v="no"/>
    <tag k="tiger:separated" v="no"/>
    <tag k="tiger:source" v="tiger_import_dch_v0.6_20070829"/>
    <tag k="tiger:tlid" v="185697888"/>
  </way>
  <way id="20930911" version="2" timestamp="2010-04-07T12:38:27Z" uid="20587" user="balrog-kun" changeset="4353576">
    <nd ref="224846741"/>
    <nd ref="224846743"/>
    <tag k="highway" v="residential"/>
    <tag k="name" v="25th Street"/>
    <tag k="tiger:cfcc" v="A41"/>
    <tag k="tiger:county" v="Hale, TX"/>
    <tag k="tiger:name_base" v="25th"/>
    <tag k="tiger:name_type" v="St"/>
    <tag k="tiger:reviewed" v="no"/>
    <tag k="tiger:separated" v="no"/>
    <tag k="tiger:source" v="tiger_import_dch_v0.6_20070829"/>
    <tag k="tiger:tlid" v="185695737"/>
  </way>
  <way id="20930912" version="2" timestamp="2010-04-07T12:38:28Z" uid="20587" user="balrog-kun" changeset="4353576">
    <nd ref="224846751"/>
    <nd ref="224846754"/>
    <nd ref="224846758"/>
    <tag k="highway" v="residential"/>
    <tag k="name" v="25th Street"/>
    <tag k="tiger:cfcc" v="A41"/>
    <tag k="tiger:county" v="Hale, TX"/>
    <tag k="tiger:name_base" v="25th"/>
    <tag k="tiger:name_type" v="St"/>
    <tag k="tiger:reviewed" v="no"/>
    <tag k="tiger:separated" v="no"/>
    <tag k="tiger:source" v="tiger_import_dch_v0.6_20070829"/>
    <tag k="tiger:tlid" v="185695720:185695717"/>
  </way>
  <way id="20930915" version="2" timestamp="2010-04-07T12:38:28Z" uid="20587" user="balrog-kun" changeset="4353576">
    <nd ref="224846767"/>
    <nd ref="224846771"/>
    <nd ref="224846773"/>
    <nd ref="224846776"/>
    <nd ref="224846780"/>
    <tag k="highway" v="residential"/>
    <tag k="name" v="Cleveland Avenue"/>
    <tag k="tiger:cfcc" v="A41"/>
    <tag k="tiger:county" v="Hale, TX"/>
    <tag k="tiger:name_base" v="Cleveland"/>
    <tag k="tiger:name_type" v="Ave"/>
    <tag k="tiger:reviewed" v="no"/>
    <tag k="tiger:separated" v="no"/>
    <tag k="tiger:source" v="tiger_import_dch_v0.6_20070829"/>
    <tag k="tiger:tlid" v="185700000:185699851:185699853:185699854"/>
  </way>
  <way id="20930918" version="4" timestamp="2010-04-07T12:38:28Z" uid="20587" user="balrog-kun" changeset="4353576">
    <nd ref="224855045"/>
    <nd ref="224846789"/>
    <nd ref="224846793"/>
    <nd ref="224846796"/>
    <tag k="created_by" v="Potlatch 0.10f"/>
    <tag k="highway" v="residential"/>
    <tag k="name" v="Cleveland Avenue"/>
    <tag k="name_1" v="Farm-to-Market Road 1914"/>
    <tag k="tiger:cfcc" v="A41"/>
    <tag k="tiger:county" v="Hale, TX"/>
    <tag k="tiger:name_base" v="Cleveland"/>
    <tag k="tiger:name_base_1" v="Farm-to-Market Road 1914"/>
    <tag k="tiger:name_type" v="Ave"/>
    <tag k="tiger:reviewed" v="no"/>
    <tag k="tiger:separated" v="no"/>
    <tag k="tiger:source" v="tiger_import_dch_v0.6_20070829"/>
    <tag k="tiger:tlid" v="185699330:185699331:185699333"/>
  </way>
  <way id="20930918" version="5" timestamp="2010-08-23T11:42:55Z" uid="66904" user="OSchlüter" changeset="5570405">
    <nd ref="224855045"/>
    <nd ref="875681463"/>
    <tag k="highway" v="residential"/>
    <tag k="name" v="Cleveland Avenue"/>
    <tag k="name_1" v="Farm-to-Market Road 1914"/>
    <tag k="tiger:cfcc" v="A41"/>
    <tag k="tiger:county" v="Hale, TX"/>
    <tag k="tiger:name_base" v="Cleveland"/>
    <tag k="tiger:name_base_1" v="Farm-to-Market Road 1914"/>
    <tag k="tiger:name_type" v="Ave"/>
    <tag k="tiger:reviewed" v="no"/>
    <tag k="tiger:separated" v="no"/>
    <tag k="tiger:source" v="tiger_import_dch_v0.6_20070829"/>
    <tag k="tiger:tlid" v="185699330:185699331:185699333"/>
  </way>
  <way id="20930918" version="6" timestamp="2011-02-11T05:11:03Z" uid="193314" user="mdroads" changeset="7252049">
    <nd ref="224855045"/>
    <nd ref="875681463"/>
    <tag k="highway" v="tertiary"/>
    <tag k="name" v="Cleveland Avenue"/>
    <tag k="name_1" v="Farm-to-Market Road 1914"/>
    <tag k="ref" v="FM 1914"/>
    <tag k="tiger:cfcc" v="A41"/>
    <tag k="tiger:county" v="Hale, TX"/>
    <tag k="tiger:name_base" v="Cleveland"/>
    <tag k="tiger:name_base_1" v="Farm-to-Market Road 1914"/>
    <tag k="tiger:name_type" v="Ave"/>
    <tag k="tiger:reviewed" v="no"/>
    <tag k="tiger:separated" v="no"/>
    <tag k="tiger:source" v="tiger_import_dch_v0.6_20070829"/>
    <tag k="tiger:tlid" v="185699330:185699331:185699333"/>
  </way>
  <way id="20930919" version="2" timestamp="2010-04-07T12:38:28Z" uid="20587" user="balrog-kun" changeset="4353576">
    <nd ref="224846803"/>
    <nd ref="224846663"/>
    <nd ref="224809685"/>
    <tag k="highway" v="residential"/>
    <tag k="name" v="Cleveland Avenue"/>
    <tag k="tiger:cfcc" v="A41"/>
    <tag k="tiger:county" v="Hale, TX"/>
    <tag k="tiger:name_base" v="Cleveland"/>
    <tag k="tiger:name_type" v="Ave"/>
    <tag k="tiger:reviewed" v="no"/>
    <tag k="tiger:separated" v="no"/>
    <tag k="tiger:source" v="tiger_import_dch_v0.6_20070829"/>
    <tag k="tiger:tlid" v="185699336:185699337"/>
  </way>
  <way id="20930943" version="2" timestamp="2010-04-07T12:38:28Z" uid="20587" user="balrog-kun" changeset="4353576">
    <nd ref="224847006"/>
    <nd ref="224847011"/>
    <nd ref="224847014"/>
    <nd ref="224847018"/>
    <nd ref="224847022"/>
    <nd ref="224847026"/>
    <nd ref="224847030"/>
    <nd ref="224847034"/>
    <nd ref="224847038"/>
    <tag k="highway" v="residential"/>
    <tag k="name" v="Baltimore Street"/>
    <tag k="tiger:cfcc" v="A41"/>
    <tag k="tiger:county" v="Hale, TX"/>
    <tag k="tiger:name_base" v="Baltimore"/>
    <tag k="tiger:name_type" v="St"/>
    <tag k="tiger:reviewed" v="no"/>
    <tag k="tiger:separated" v="no"/>
    <tag k="tiger:source" v="tiger_import_dch_v0.6_20070829"/>
    <tag k="tiger:tlid" v="185696554:185696700:185696604:185696750:185696973:185697000:185696908:185696829"/>
    <tag k="tiger:zip_left" v="79072"/>
    <tag k="tiger:zip_right" v="79072"/>
  </way>
  <way id="20930944" version="2" timestamp="2010-04-07T12:38:29Z" uid="20587" user="balrog-kun" changeset="4353576">
    <nd ref="224847046"/>
    <nd ref="224847050"/>
    <nd ref="224847054"/>
    <nd ref="224847058"/>
    <tag k="highway" v="residential"/>
    <tag k="name" v="Baltimore Street"/>
    <tag k="tiger:cfcc" v="A41"/>
    <tag k="tiger:county" v="Hale, TX"/>
    <tag k="tiger:name_base" v="Baltimore"/>
    <tag k="tiger:name_type" v="St"/>
    <tag k="tiger:reviewed" v="no"/>
    <tag k="tiger:separated" v="no"/>
    <tag k="tiger:source" v="tiger_import_dch_v0.6_20070829"/>
    <tag k="tiger:tlid" v="185696445:185696345:185697656"/>
    <tag k="tiger:zip_left" v="79072"/>
    <tag k="tiger:zip_right" v="79072"/>
  </way>
  <way id="20930944" version="3" timestamp="2010-07-04T06:31:32Z" uid="92286" user="Paul Johnson" changeset="5129931">
    <nd ref="224847046"/>
    <nd ref="224847050"/>
    <nd ref="224869101"/>
    <nd ref="224847058"/>
    <tag k="highway" v="residential"/>
    <tag k="name" v="Baltimore Street"/>
    <tag k="tiger:cfcc" v="A41"/>
    <tag k="tiger:county" v="Hale, TX"/>
    <tag k="tiger:name_base" v="Baltimore"/>
    <tag k="tiger:name_type" v="St"/>
    <tag k="tiger:reviewed" v="no"/>
    <tag k="tiger:separated" v="no"/>
    <tag k="tiger:source" v="tiger_import_dch_v0.6_20070829"/>
    <tag k="tiger:tlid" v="185696445:185696345:185697656"/>
    <tag k="tiger:zip_left" v="79072"/>
    <tag k="tiger:zip_right" v="79072"/>
  </way>
  <way id="20930945" version="2" timestamp="2010-04-07T12:38:29Z" uid="20587" user="balrog-kun" changeset="4353576">
    <nd ref="224847067"/>
    <nd ref="224847069"/>
    <nd ref="224847073"/>
    <tag k="highway" v="residential"/>
    <tag k="name" v="Baltimore Street"/>
    <tag k="tiger:cfcc" v="A41"/>
    <tag k="tiger:county" v="Hale, TX"/>
    <tag k="tiger:name_base" v="Baltimore"/>
    <tag k="tiger:name_type" v="St"/>
    <tag k="tiger:reviewed" v="no"/>
    <tag k="tiger:separated" v="no"/>
    <tag k="tiger:source" v="tiger_import_dch_v0.6_20070829"/>
    <tag k="tiger:tlid" v="185697210"/>
  </way>
  <way id="20930955" version="2" timestamp="2010-04-07T12:38:29Z" uid="20587" user="balrog-kun" changeset="4353576">
    <nd ref="224847220"/>
    <nd ref="224847224"/>
    <nd ref="224847228"/>
    <tag k="highway" v="residential"/>
    <tag k="name" v="McKinley Street"/>
    <tag k="tiger:cfcc" v="A41"/>
    <tag k="tiger:county" v="Hale, TX"/>
    <tag k="tiger:name_base" v="McKinley"/>
    <tag k="tiger:name_type" v="St"/>
    <tag k="tiger:reviewed" v="no"/>
    <tag k="tiger:separated" v="no"/>
    <tag k="tiger:source" v="tiger_import_dch_v0.6_20070829"/>
    <tag k="tiger:tlid" v="185707404"/>
  </way>
  <way id="20930969" version="2" timestamp="2010-04-07T12:38:29Z" uid="20587" user="balrog-kun" changeset="4353576">
    <nd ref="224804628"/>
    <nd ref="224847386"/>
    <tag k="highway" v="residential"/>
    <tag k="name" v="Arbor Avenue"/>
    <tag k="tiger:cfcc" v="A41"/>
    <tag k="tiger:county" v="Hale, TX"/>
    <tag k="tiger:name_base" v="Arbor"/>
    <tag k="tiger:name_type" v="Ave"/>
    <tag k="tiger:reviewed" v="no"/>
    <tag k="tiger:separated" v="no"/>
    <tag k="tiger:source" v="tiger_import_dch_v0.6_20070829"/>
    <tag k="tiger:tlid" v="185705855"/>
    <tag k="tiger:zip_left" v="79072"/>
    <tag k="tiger:zip_right" v="79072"/>
  </way>
  <way id="20930971" version="2" timestamp="2010-04-07T12:38:30Z" uid="20587" user="balrog-kun" changeset="4353576">
    <nd ref="224847396"/>
    <nd ref="224847403"/>
    <nd ref="224847406"/>
    <nd ref="224847412"/>
    <nd ref="224835805"/>
    <nd ref="224847415"/>
    <nd ref="224804529"/>
    <tag k="highway" v="residential"/>
    <tag k="name" v="Lancaster Street"/>
    <tag k="tiger:cfcc" v="A41"/>
    <tag k="tiger:county" v="Hale, TX"/>
    <tag k="tiger:name_base" v="Lancaster"/>
    <tag k="tiger:name_type" v="St"/>
    <tag k="tiger:reviewed" v="no"/>
    <tag k="tiger:separated" v="no"/>
    <tag k="tiger:source" v="tiger_import_dch_v0.6_20070829"/>
    <tag k="tiger:tlid" v="185695440:185706130:185707390"/>
  </way>
  <way id="20930973" version="2" timestamp="2010-04-07T12:38:30Z" uid="20587" user="balrog-kun" changeset="4353576">
    <nd ref="224847425"/>
    <nd ref="224847428"/>
    <nd ref="224847430"/>
    <nd ref="224847434"/>
    <nd ref="224819452"/>
    <nd ref="224823208"/>
    <nd ref="224825069"/>
    <nd ref="224829073"/>
    <nd ref="224822978"/>
    <nd ref="224847438"/>
    <nd ref="224847442"/>
    <tag k="highway" v="residential"/>
    <tag k="name" v="County Road 280"/>
    <tag k="name_1" v="Amigo Road"/>
    <tag k="tiger:cfcc" v="A41"/>
    <tag k="tiger:county" v="Hale, TX"/>
    <tag k="tiger:name_base" v="County Road 280"/>
    <tag k="tiger:name_base_1" v="Amigo"/>
    <tag k="tiger:name_type_1" v="Rd"/>
    <tag k="tiger:reviewed" v="no"/>
    <tag k="tiger:separated" v="no"/>
    <tag k="tiger:source" v="tiger_import_dch_v0.6_20070829"/>
    <tag k="tiger:tlid" v="185692571:185692573:185692746:185692574:185692666:185692575:185692578:185692703:185705221"/>
    <tag k="tiger:zip_left" v="79072"/>
    <tag k="tiger:zip_right" v="79072"/>
  </way>
  <way id="20930973" version="3" timestamp="2010-07-04T06:28:26Z" uid="92286" user="Paul Johnson" changeset="5129931">
    <nd ref="224847425"/>
    <nd ref="224832391"/>
    <nd ref="224847430"/>
    <nd ref="224847434"/>
    <nd ref="224819452"/>
    <nd ref="224823208"/>
    <nd ref="224825069"/>
    <nd ref="224829073"/>
    <nd ref="224822978"/>
    <nd ref="224847438"/>
    <nd ref="224847442"/>
    <tag k="highway" v="residential"/>
    <tag k="name" v="County Road 280"/>
    <tag k="name_1" v="Amigo Road"/>
    <tag k="tiger:cfcc" v="A41"/>
    <tag k="tiger:county" v="Hale, TX"/>
    <tag k="tiger:name_base" v="County Road 280"/>
    <tag k="tiger:name_base_1" v="Amigo"/>
    <tag k="tiger:name_type_1" v="Rd"/>
    <tag k="tiger:reviewed" v="no"/>
    <tag k="tiger:separated" v="no"/>
    <tag k="tiger:source" v="tiger_import_dch_v0.6_20070829"/>
    <tag k="tiger:tlid" v="185692571:185692573:185692746:185692574:185692666:185692575:185692578:185692703:185705221"/>
    <tag k="tiger:zip_left" v="79072"/>
    <tag k="tiger:zip_right" v="79072"/>
  </way>
  <way id="20930978" version="2" timestamp="2010-04-07T12:38:30Z" uid="20587" user="balrog-kun" changeset="4353576">
    <nd ref="224847492"/>
    <nd ref="224847500"/>
    <tag k="highway" v="residential"/>
    <tag k="name" v="Mulberry Lane"/>
    <tag k="tiger:cfcc" v="A41"/>
    <tag k="tiger:county" v="Hale, TX"/>
    <tag k="tiger:name_base" v="Mulberry"/>
    <tag k="tiger:name_type" v="Ln"/>
    <tag k="tiger:reviewed" v="no"/>
    <tag k="tiger:separated" v="no"/>
    <tag k="tiger:source" v="tiger_import_dch_v0.6_20070829"/>
    <tag k="tiger:tlid" v="185706102"/>
    <tag k="tiger:zip_left" v="79072"/>
  </way>
  <way id="20930984" version="2" timestamp="2010-04-07T12:38:30Z" uid="20587" user="balrog-kun" changeset="4353576">
    <nd ref="224847510"/>
    <nd ref="224840236"/>
    <nd ref="224847514"/>
    <nd ref="224847517"/>
    <nd ref="224840661"/>
    <nd ref="224847522"/>
    <nd ref="224847524"/>
    <nd ref="224847525"/>
    <nd ref="224847527"/>
    <nd ref="224804691"/>
    <nd ref="224847528"/>
    <nd ref="224847532"/>
    <nd ref="224847396"/>
    <nd ref="224844515"/>
    <nd ref="224847220"/>
    <nd ref="224847535"/>
    <tag k="highway" v="residential"/>
    <tag k="name" v="East 24th Street"/>
    <tag k="tiger:cfcc" v="A41"/>
    <tag k="tiger:county" v="Hale, TX"/>
    <tag k="tiger:name_base" v="24th"/>
    <tag k="tiger:name_direction_prefix" v="E"/>
    <tag k="tiger:name_type" v="St"/>
    <tag k="tiger:reviewed" v="no"/>
    <tag k="tiger:separated" v="no"/>
    <tag k="tiger:source" v="tiger_import_dch_v0.6_20070829"/>
    <tag k="tiger:tlid" v="185695770:185695771:185695762"/>
  </way>
  <way id="20930984" version="3" timestamp="2012-01-15T13:24:41Z" uid="207745" user="NE2" changeset="10397796">
    <nd ref="224847510"/>
    <nd ref="224840236"/>
    <nd ref="224847514"/>
    <nd ref="224847517"/>
    <nd ref="1590734568"/>
    <tag k="highway" v="tertiary"/>
    <tag k="name" v="East 24th Street"/>
    <tag k="tiger:cfcc" v="A41"/>
    <tag k="tiger:county" v="Hale, TX"/>
    <tag k="tiger:name_base" v="24th"/>
    <tag k="tiger:name_direction_prefix" v="E"/>
    <tag k="tiger:name_type" v="St"/>
    <tag k="tiger:reviewed" v="no"/>
    <tag k="tiger:separated" v="no"/>
    <tag k="tiger:source" v="tiger_import_dch_v0.6_20070829"/>
    <tag k="tiger:tlid" v="185695770:185695771:185695762"/>
  </way>
  <way id="20930986" version="2" timestamp="2010-04-07T12:38:31Z" uid="20587" user="balrog-kun" changeset="4353576">
    <nd ref="224847542"/>
    <nd ref="224847546"/>
    <nd ref="224847549"/>
    <tag k="highway" v="residential"/>
    <tag k="name" v="East 24th Street"/>
    <tag k="tiger:cfcc" v="A41"/>
    <tag k="tiger:county" v="Hale, TX"/>
    <tag k="tiger:name_base" v="24th"/>
    <tag k="tiger:name_direction_prefix" v="E"/>
    <tag k="tiger:name_type" v="St"/>
    <tag k="tiger:reviewed" v="no"/>
    <tag k="tiger:separated" v="no"/>
    <tag k="tiger:source" v="tiger_import_dch_v0.6_20070829"/>
    <tag k="tiger:tlid" v="185695775:185697539"/>
  </way>
  <way id="20930986" version="3" timestamp="2012-01-15T13:24:40Z" uid="207745" user="NE2" changeset="10397796">
    <nd ref="224847542"/>
    <nd ref="224847546"/>
    <nd ref="224847549"/>
    <tag k="highway" v="tertiary"/>
    <tag k="name" v="East 24th Street"/>
    <tag k="tiger:cfcc" v="A41"/>
    <tag k="tiger:county" v="Hale, TX"/>
    <tag k="tiger:name_base" v="24th"/>
    <tag k="tiger:name_direction_prefix" v="E"/>
    <tag k="tiger:name_type" v="St"/>
    <tag k="tiger:reviewed" v="no"/>
    <tag k="tiger:separated" v="no"/>
    <tag k="tiger:source" v="tiger_import_dch_v0.6_20070829"/>
    <tag k="tiger:tlid" v="185695775:185697539"/>
  </way>
  <way id="20930182" version="12" timestamp="2012-04-04T19:18:29Z" uid="550476" user="fishcrosser" changeset="11180813">
    <nd ref="32627342"/>
    <nd ref="979671610"/>
    <nd ref="262833548"/>
    <nd ref="32627343"/>
    <nd ref="1268253908"/>
    <nd ref="32627344"/>
    <nd ref="282698808"/>
    <nd ref="1111953575"/>
    <nd ref="32627303"/>
    <tag k="bicycle" v="yes"/>
    <tag k="cycleway" v="no"/>
    <tag k="foot" v="yes"/>
    <tag k="highway" v="tertiary"/>
    <tag k="maxspeed" v="50"/>
    <tag k="name" v="Dobra"/>
    <tag k="oneway" v="no"/>
    <tag k="wikipedia" v="pl:Ulica Dobra w Warszawie"/>
  </way>
  <way id="20930182" version="13" timestamp="2012-09-10T13:38:24Z" uid="99386" user="masti" changeset="13057128"/>
  <way id="20930563" version="4" timestamp="2012-08-31T11:11:51Z" uid="99386" user="masti" changeset="12929526">
    <nd ref="224829887"/>
    <nd ref="778329141"/>
    <nd ref="778326802"/>
    <nd ref="1891334639"/>
    <nd ref="1891334643"/>
    <nd ref="224843575"/>
    <tag k="highway" v="residential"/>
    <tag k="name" v="Radna"/>
  </way>
  <way id="20930563" version="5" timestamp="2012-09-10T13:47:20Z" uid="99386" user="masti" changeset="13057223">
    <nd ref="224829887"/>
    <nd ref="778329141"/>
    <nd ref="778326802"/>
    <nd ref="1891334639"/>
    <nd ref="1891334643"/>
    <nd ref="224843575"/>
    <tag k="highway" v="residential"/>
    <tag k="name" v="Radna"/>
    <tag k="oneway" v="yes"/>
  </way>
  <way id="20930853" version="4" timestamp="2012-07-24T20:06:05Z" uid="722137" user="OSMF Redaction Account" changeset="12475329">
    <nd ref="224871023"/>
    <nd ref="280796933"/>
    <tag k="highway" v="footway"/>
    <tag k="name" v="Ścieżka księdza Bronka Bozowskiego"/>
  </way>
</osm>
