<?xml version='1.0' encoding='UTF-8'?>
<osm version="0.6" generator="libosmium/2.20.0">
  <way id="21310026" version="4" timestamp="2008-05-17T16:12:36Z" uid="27600" user="Islanit" changeset="468393">
    <nd ref="229221683"/>
    <nd ref="229203598"/>
    <nd ref="229218899"/>
    <nd ref="229203600"/>
    <nd ref="229203603"/>
    <nd ref="229203605"/>
    <nd ref="21420515"/>
    <nd ref="21420516"/>
    <nd ref="21420517"/>
    <nd ref="21420518"/>
    <nd ref="21420519"/>
    <nd ref="21420521"/>
    <nd ref="21420520"/>
    <nd ref="21420522"/>
    <nd ref="21420524"/>
    <tag k="created_by" v="Potlatch 0.6b"/>
    <tag k="highway" v="primary"/>
    <tag k="name" v="Zeppelinstraße"/>
    <tag k="nat_name" v="B433"/>
    <tag k="oneway" v="yes"/>
  </way>
  <way id="21310026" version="5" timestamp="2008-07-06T19:10:12Z" uid="3450" user="Stephan Schildberg" changeset="410411">
    <nd ref="229221683"/>
    <nd ref="229203598"/>
    <nd ref="229218899"/>
    <nd ref="229203600"/>
    <nd ref="229203603"/>
    <nd ref="229203605"/>
    <nd ref="21420515"/>
    <nd ref="21420516"/>
    <nd ref="21420517"/>
    <nd ref="21420518"/>
    <nd ref="21420519"/>
    <nd ref="21420521"/>
    <nd ref="21420520"/>
    <nd ref="21420522"/>
    <nd ref="21420524"/>
    <tag k="bicycle" v="no"/>
    <tag k="created_by" v="Potlatch 0.6b"/>
    <tag k="highway" v="primary"/>
    <tag k="name" v="Zeppelinstraße"/>
    <tag k="nat_name" v="B433"/>
    <tag k="oneway" v="yes"/>
  </way>
  <way id="21310026" version="6" timestamp="2008-08-21T22:31:23Z" uid="24920" user="Schusch" changeset="362788">
    <nd ref="229221683"/>
    <nd ref="229203598"/>
    <nd ref="229218899"/>
    <nd ref="229203600"/>
    <nd ref="229203603"/>
    <nd ref="229203605"/>
    <nd ref="21420515"/>
    <nd ref="21420516"/>
    <nd ref="21420517"/>
    <nd ref="21420518"/>
    <nd ref="21420519"/>
    <nd ref="21420521"/>
    <nd ref="21420520"/>
    <nd ref="21420522"/>
    <nd ref="21420524"/>
    <tag k="bicycle" v="no"/>
    <tag k="created_by" v="Potlatch 0.6b"/>
    <tag k="highway" v="primary"/>
    <tag k="name" v="Zeppelinstraße"/>
    <tag k="oneway" v="yes"/>
    <tag k="ref" v="B 433"/>
  </way>
  <way id="21310026" version="7" timestamp="2008-09-01T10:29:55Z" uid="51441" user="hanslh" changeset="491947">
    <nd ref="229221683"/>
    <nd ref="229203598"/>
    <nd ref="229218899"/>
    <nd ref="229203600"/>
    <nd ref="229203603"/>
    <nd ref="229203605"/>
    <nd ref="21420515"/>
    <nd ref="21420516"/>
    <nd ref="21420517"/>
    <nd ref="292832951"/>
    <nd ref="21420518"/>
    <nd ref="292832952"/>
    <nd ref="21420519"/>
    <nd ref="292832953"/>
    <nd ref="21420521"/>
    <nd ref="292832954"/>
    <nd ref="21420520"/>
    <nd ref="292832955"/>
    <nd ref="21420522"/>
    <nd ref="21420524"/>
    <tag k="bicycle" v="no"/>
    <tag k="created_by" v="Potlatch 0.10b"/>
    <tag k="highway" v="primary"/>
    <tag k="name" v="Zeppelinstraße"/>
    <tag k="oneway" v="yes"/>
    <tag k="ref" v="B 433"/>
  </way>
  <way id="21310026" version="8" timestamp="2008-09-01T10:31:35Z" uid="51441" user="hanslh" changeset="491947">
    <nd ref="229221683"/>
    <nd ref="229203598"/>
    <nd ref="229218899"/>
    <nd ref="229203600"/>
    <nd ref="292833026"/>
    <nd ref="229203603"/>
    <nd ref="229203605"/>
    <nd ref="292833027"/>
    <nd ref="292833028"/>
    <nd ref="21420515"/>
    <nd ref="21420516"/>
    <nd ref="21420517"/>
    <nd ref="292832951"/>
    <nd ref="21420518"/>
    <nd ref="292832952"/>
    <nd ref="21420519"/>
    <nd ref="292833029"/>
    <nd ref="21420521"/>
    <nd ref="292832954"/>
    <nd ref="21420520"/>
    <nd ref="292833030"/>
    <nd ref="21420522"/>
    <nd ref="21420524"/>
    <tag k="bicycle" v="no"/>
    <tag k="created_by" v="Potlatch 0.10b"/>
    <tag k="highway" v="primary"/>
    <tag k="name" v="Zeppelinstraße"/>
    <tag k="oneway" v="yes"/>
    <tag k="ref" v="B 433"/>
  </way>
  <way id="21310026" version="9" timestamp="2009-04-10T10:33:53Z" uid="55462" user="Lübeck" changeset="375802">
    <nd ref="229221683"/>
    <nd ref="371427693"/>
    <nd ref="229203598"/>
    <nd ref="229218899"/>
    <nd ref="229203600"/>
    <nd ref="292833026"/>
    <nd ref="229203603"/>
    <nd ref="229203605"/>
    <nd ref="292833027"/>
    <nd ref="292833028"/>
    <nd ref="21420515"/>
    <nd ref="21420516"/>
    <nd ref="21420517"/>
    <nd ref="292832951"/>
    <nd ref="21420518"/>
    <nd ref="292832952"/>
    <nd ref="21420519"/>
    <nd ref="292833029"/>
    <nd ref="21420521"/>
    <nd ref="292832954"/>
    <nd ref="21420520"/>
    <nd ref="292833030"/>
    <nd ref="21420522"/>
    <nd ref="21420524"/>
    <tag k="bicycle" v="no"/>
    <tag k="created_by" v="Potlatch 0.10b"/>
    <tag k="highway" v="primary"/>
    <tag k="name" v="Zeppelinstraße"/>
    <tag k="oneway" v="yes"/>
    <tag k="ref" v="B 433"/>
  </way>
  <way id="21310026" version="10" timestamp="2009-09-10T13:16:50Z" uid="51991" user="Wolfgang H" changeset="2436212">
    <nd ref="229221683"/>
    <nd ref="371427693"/>
    <nd ref="229203598"/>
    <nd ref="229218899"/>
    <nd ref="229203600"/>
    <nd ref="292833026"/>
    <nd ref="229203603"/>
    <nd ref="229203605"/>
    <nd ref="292833027"/>
    <nd ref="292833028"/>
    <nd ref="21420515"/>
    <nd ref="21420516"/>
    <nd ref="21420517"/>
    <nd ref="292832951"/>
    <nd ref="21420518"/>
    <nd ref="292832952"/>
    <nd ref="21420519"/>
    <nd ref="292833029"/>
    <nd ref="21420521"/>
    <nd ref="292832954"/>
    <nd ref="21420520"/>
    <nd ref="292833030"/>
    <nd ref="21420522"/>
    <nd ref="21420524"/>
    <tag k="bicycle" v="no"/>
    <tag k="highway" v="primary"/>
    <tag k="maxspeed" v="50"/>
    <tag k="name" v="Zeppelinstraße"/>
    <tag k="oneway" v="yes"/>
    <tag k="ref" v="B 433"/>
  </way>
  <way id="21310026" version="11" timestamp="2009-10-12T00:27:10Z" uid="51991" user="Wolfgang H" changeset="2821376">
    <nd ref="229221683"/>
    <nd ref="371427693"/>
    <nd ref="229203598"/>
    <nd ref="229218899"/>
    <nd ref="229203600"/>
    <nd ref="292833026"/>
    <nd ref="229203603"/>
    <nd ref="229203605"/>
    <nd ref="292833027"/>
    <nd ref="292833028"/>
    <nd ref="21420515"/>
    <tag k="bicycle" v="no"/>
    <tag k="highway" v="primary"/>
    <tag k="lanes" v="2"/>
    <tag k="maxspeed" v="50"/>
    <tag k="name" v="Zeppelinstraße"/>
    <tag k="oneway" v="yes"/>
    <tag k="ref" v="B 433"/>
  </way>
  <way id="21310026" version="12" timestamp="2010-01-23T15:59:41Z" uid="51916" user="Max B" changeset="3692949">
    <nd ref="229221683"/>
    <nd ref="371427693"/>
    <nd ref="229203598"/>
    <nd ref="229218899"/>
    <nd ref="229203600"/>
    <nd ref="292833026"/>
    <nd ref="229203603"/>
    <nd ref="229203605"/>
    <nd ref="292833027"/>
    <nd ref="292833028"/>
    <nd ref="21420515"/>
    <tag k="bicycle" v="no"/>
    <tag k="highway" v="trunk"/>
    <tag k="lanes" v="2"/>
    <tag k="maxspeed" v="50"/>
    <tag k="name" v="Zeppelinstraße"/>
    <tag k="oneway" v="yes"/>
    <tag k="ref" v="B 433"/>
  </way>
  <way id="21310026" version="13" timestamp="2010-06-05T17:42:37Z" uid="77551" user="Progger" changeset="4910751">
    <nd ref="229221683"/>
    <nd ref="765255267"/>
    <nd ref="371427693"/>
    <nd ref="229203598"/>
    <nd ref="229218899"/>
    <nd ref="229203600"/>
    <nd ref="292833026"/>
    <nd ref="229203603"/>
    <nd ref="229203605"/>
    <nd ref="292833027"/>
    <nd ref="292833028"/>
    <nd ref="21420515"/>
    <tag k="bicycle" v="no"/>
    <tag k="highway" v="trunk"/>
    <tag k="lanes" v="2"/>
    <tag k="maxspeed" v="50"/>
    <tag k="name" v="Zeppelinstraße"/>
    <tag k="oneway" v="yes"/>
    <tag k="ref" v="B 433"/>
  </way>
  <way id="21310026" version="14" timestamp="2010-06-05T17:46:37Z" uid="77551" user="Progger" changeset="4910751">
    <nd ref="229221683"/>
    <nd ref="765255267"/>
    <nd ref="765256942"/>
    <nd ref="371427693"/>
    <nd ref="229203598"/>
    <nd ref="229218899"/>
    <nd ref="229203600"/>
    <nd ref="292833026"/>
    <nd ref="229203603"/>
    <nd ref="229203605"/>
    <nd ref="292833027"/>
    <nd ref="292833028"/>
    <nd ref="21420515"/>
    <tag k="bicycle" v="no"/>
    <tag k="highway" v="trunk"/>
    <tag k="lanes" v="2"/>
    <tag k="maxspeed" v="50"/>
    <tag k="name" v="Zeppelinstraße"/>
    <tag k="oneway" v="yes"/>
    <tag k="ref" v="B 433"/>
  </way>
  <way id="21310026" version="15" timestamp="2012-01-24T09:27:12Z" uid="349191" user="Glühwürmchen" changeset="10482622"/>
</osm>
