<?xml version='1.0' encoding='UTF-8'?>
<osm version="0.6" generator="libosmium/2.20.0">
  <way id="21355000" version="2" timestamp="2010-04-07T13:36:48Z" uid="20587" user="balrog-kun" changeset="4353711">
    <nd ref="229572345"/>
    <nd ref="229563659"/>
    <nd ref="229645962"/>
    <nd ref="229600144"/>
    <nd ref="229503296"/>
    <nd ref="229638870"/>
    <tag k="highway" v="residential"/>
    <tag k="name" v="School Street"/>
    <tag k="tiger:cfcc" v="A41"/>
    <tag k="tiger:county" v="Wilson, TX"/>
    <tag k="tiger:name_base" v="School"/>
    <tag k="tiger:name_type" v="St"/>
    <tag k="tiger:reviewed" v="no"/>
    <tag k="tiger:separated" v="no"/>
    <tag k="tiger:source" v="tiger_import_dch_v0.6_20070830"/>
    <tag k="tiger:tlid" v="54874903:54874909"/>
  </way>
  <way id="21355036" version="2" timestamp="2010-04-07T13:36:48Z" uid="20587" user="balrog-kun" changeset="4353711">
    <nd ref="229617946"/>
    <nd ref="229688713"/>
    <nd ref="229688720"/>
    <nd ref="229688726"/>
    <nd ref="229688731"/>
    <nd ref="229688734"/>
    <nd ref="229688738"/>
    <nd ref="229608239"/>
    <tag k="highway" v="residential"/>
    <tag k="name" v="Telegraph Drive"/>
    <tag k="tiger:cfcc" v="A41"/>
    <tag k="tiger:county" v="Wilson, TX"/>
    <tag k="tiger:name_base" v="Telegraph"/>
    <tag k="tiger:name_type" v="Dr"/>
    <tag k="tiger:reviewed" v="no"/>
    <tag k="tiger:separated" v="no"/>
    <tag k="tiger:source" v="tiger_import_dch_v0.6_20070830"/>
    <tag k="tiger:tlid" v="54892188:54899881:54899882"/>
  </way>
  <way id="21355037" version="2" timestamp="2010-04-07T13:36:48Z" uid="20587" user="balrog-kun" changeset="4353711">
    <nd ref="229617694"/>
    <nd ref="229586631"/>
    <nd ref="229688752"/>
    <tag k="highway" v="residential"/>
    <tag k="name" v="Shenandoah Street"/>
    <tag k="tiger:cfcc" v="A41"/>
    <tag k="tiger:county" v="Wilson, TX"/>
    <tag k="tiger:name_base" v="Shenandoah"/>
    <tag k="tiger:name_type" v="St"/>
    <tag k="tiger:reviewed" v="no"/>
    <tag k="tiger:separated" v="no"/>
    <tag k="tiger:source" v="tiger_import_dch_v0.6_20070830"/>
    <tag k="tiger:tlid" v="54886366:54886367"/>
    <tag k="tiger:zip_left" v="78147"/>
    <tag k="tiger:zip_right" v="78147"/>
  </way>
  <way id="21355039" version="2" timestamp="2010-04-07T13:36:48Z" uid="20587" user="balrog-kun" changeset="4353711">
    <nd ref="229610816"/>
    <nd ref="229688761"/>
    <tag k="highway" v="residential"/>
    <tag k="name" v="Lorenz Street"/>
    <tag k="tiger:cfcc" v="A41"/>
    <tag k="tiger:county" v="Wilson, TX"/>
    <tag k="tiger:name_base" v="Lorenz"/>
    <tag k="tiger:name_type" v="St"/>
    <tag k="tiger:reviewed" v="no"/>
    <tag k="tiger:separated" v="no"/>
    <tag k="tiger:source" v="tiger_import_dch_v0.6_20070830"/>
    <tag k="tiger:tlid" v="54889905"/>
    <tag k="tiger:zip_left" v="78160"/>
    <tag k="tiger:zip_right" v="78160"/>
  </way>
  <way id="21355043" version="2" timestamp="2010-04-07T13:36:48Z" uid="20587" user="balrog-kun" changeset="4353711">
    <nd ref="229594421"/>
    <nd ref="229688771"/>
    <nd ref="229688777"/>
    <nd ref="229688779"/>
    <nd ref="229601413"/>
    <nd ref="229601425"/>
    <nd ref="229688782"/>
    <nd ref="229621666"/>
    <nd ref="229688784"/>
    <tag k="highway" v="residential"/>
    <tag k="name" v="Creekview Drive"/>
    <tag k="tiger:cfcc" v="A41"/>
    <tag k="tiger:county" v="Wilson, TX"/>
    <tag k="tiger:name_base" v="Creekview"/>
    <tag k="tiger:name_type" v="Dr"/>
    <tag k="tiger:reviewed" v="no"/>
    <tag k="tiger:separated" v="no"/>
    <tag k="tiger:source" v="tiger_import_dch_v0.6_20070830"/>
    <tag k="tiger:tlid" v="54886203"/>
  </way>
  <way id="21355046" version="2" timestamp="2010-04-07T13:36:49Z" uid="20587" user="balrog-kun" changeset="4353711">
    <nd ref="229688790"/>
    <nd ref="229602354"/>
    <nd ref="229688792"/>
    <nd ref="229688796"/>
    <nd ref="229688800"/>
    <nd ref="229688804"/>
    <tag k="highway" v="residential"/>
    <tag k="name" v="Brown Lane"/>
    <tag k="tiger:cfcc" v="A41"/>
    <tag k="tiger:county" v="Wilson, TX"/>
    <tag k="tiger:name_base" v="Brown"/>
    <tag k="tiger:name_type" v="Ln"/>
    <tag k="tiger:reviewed" v="no"/>
    <tag k="tiger:separated" v="no"/>
    <tag k="tiger:source" v="tiger_import_dch_v0.6_20070830"/>
    <tag k="tiger:tlid" v="54892498:54892851"/>
    <tag k="tiger:zip_left" v="78114"/>
    <tag k="tiger:zip_right" v="78114"/>
  </way>
  <way id="21355051" version="2" timestamp="2010-04-07T13:36:49Z" uid="20587" user="balrog-kun" changeset="4353711">
    <nd ref="229665513"/>
    <nd ref="229688813"/>
    <nd ref="229688816"/>
    <nd ref="229688820"/>
    <nd ref="229688824"/>
    <nd ref="229688827"/>
    <nd ref="229688832"/>
    <nd ref="229688834"/>
    <nd ref="229688837"/>
    <nd ref="229688840"/>
    <nd ref="229688842"/>
    <nd ref="229688845"/>
    <nd ref="229632154"/>
    <tag k="highway" v="residential"/>
    <tag k="name" v="Muirfield Lane"/>
    <tag k="tiger:cfcc" v="A41"/>
    <tag k="tiger:county" v="Wilson, TX"/>
    <tag k="tiger:name_base" v="Muirfield"/>
    <tag k="tiger:name_type" v="Ln"/>
    <tag k="tiger:reviewed" v="no"/>
    <tag k="tiger:separated" v="no"/>
    <tag k="tiger:source" v="tiger_import_dch_v0.6_20070830"/>
    <tag k="tiger:tlid" v="54906905:54906782"/>
  </way>
  <way id="21355053" version="2" timestamp="2010-04-07T13:36:50Z" uid="20587" user="balrog-kun" changeset="4353711">
    <nd ref="229502801"/>
    <nd ref="229688851"/>
    <nd ref="229688853"/>
    <nd ref="229688857"/>
    <nd ref="229608986"/>
    <tag k="highway" v="residential"/>
    <tag k="name" v="Muirfield Lane"/>
    <tag k="tiger:cfcc" v="A41"/>
    <tag k="tiger:county" v="Wilson, TX"/>
    <tag k="tiger:name_base" v="Muirfield"/>
    <tag k="tiger:name_type" v="Ln"/>
    <tag k="tiger:reviewed" v="no"/>
    <tag k="tiger:separated" v="no"/>
    <tag k="tiger:source" v="tiger_import_dch_v0.6_20070830"/>
    <tag k="tiger:tlid" v="54895360:54895362"/>
  </way>
  <way id="21355055" version="2" timestamp="2010-04-07T13:36:50Z" uid="20587" user="balrog-kun" changeset="4353711">
    <nd ref="229688857"/>
    <nd ref="229688866"/>
    <nd ref="229502790"/>
    <tag k="highway" v="residential"/>
    <tag k="name" v="Muirfield Lane"/>
    <tag k="tiger:cfcc" v="A41"/>
    <tag k="tiger:county" v="Wilson, TX"/>
    <tag k="tiger:name_base" v="Muirfield"/>
    <tag k="tiger:name_type" v="Ln"/>
    <tag k="tiger:reviewed" v="no"/>
    <tag k="tiger:separated" v="no"/>
    <tag k="tiger:source" v="tiger_import_dch_v0.6_20070830"/>
    <tag k="tiger:tlid" v="54895361"/>
  </way>
  <way id="21355071" version="3" timestamp="2011-02-28T11:59:38Z" uid="30632" user="antblant" changeset="7419857">
    <nd ref="229689025"/>
    <nd ref="229689027"/>
    <tag k="highway" v="residential"/>
    <tag k="name" v="Adama Mickiewicza"/>
  </way>
  <way id="21355095" version="4" timestamp="2010-07-08T02:12:50Z" uid="74617" user="JohnSmith" changeset="5162525">
    <nd ref="229688636"/>
    <nd ref="229689198"/>
    <nd ref="229690901"/>
    <nd ref="229691503"/>
    <nd ref="229689199"/>
    <tag k="highway" v="residential"/>
    <tag k="maxspeed" v="50"/>
    <tag k="maxspeed:source" v="default residential speed limit in Australia"/>
    <tag k="name" v="Dudley Street"/>
  </way>
  <way id="21355095" version="5" timestamp="2010-12-25T21:41:12Z" uid="7617" user="Franc" changeset="6763901">
    <nd ref="229688636"/>
    <nd ref="1064601388"/>
    <tag k="highway" v="residential"/>
    <tag k="maxspeed" v="50"/>
    <tag k="maxspeed:source" v="default residential speed limit in Australia"/>
    <tag k="name" v="Dudley Street"/>
    <tag k="restriction" v="school_zone"/>
  </way>
  <way id="21355095" version="6" timestamp="2012-01-15T21:34:03Z" uid="147510" user="woodpeck_fixbot" changeset="10402983">
    <nd ref="229688636"/>
    <nd ref="1064601388"/>
    <tag k="highway" v="residential"/>
    <tag k="name" v="Dudley Street"/>
    <tag k="restriction" v="school_zone"/>
  </way>
  <way id="21355153" version="2" timestamp="2010-07-08T02:13:13Z" uid="74617" user="JohnSmith" changeset="5162525">
    <nd ref="229689198"/>
    <nd ref="229689707"/>
    <nd ref="229689708"/>
    <tag k="highway" v="residential"/>
    <tag k="maxspeed" v="50"/>
    <tag k="maxspeed:source" v="default residential speed limit in Australia"/>
    <tag k="name" v="MacLaurin Street"/>
  </way>
  <way id="21355153" version="3" timestamp="2011-03-19T03:58:11Z" uid="7617" user="Franc" changeset="7601286">
    <nd ref="229689198"/>
    <nd ref="229689707"/>
    <nd ref="1208257655"/>
    <tag k="highway" v="residential"/>
    <tag k="maxspeed" v="50"/>
    <tag k="maxspeed:source" v="default residential speed limit in Australia"/>
    <tag k="name" v="MacLaurin Street"/>
  </way>
  <way id="21355153" version="4" timestamp="2012-01-15T21:34:04Z" uid="147510" user="woodpeck_fixbot" changeset="10402983">
    <nd ref="229689198"/>
    <nd ref="229689707"/>
    <nd ref="1208257655"/>
    <tag k="highway" v="residential"/>
    <tag k="name" v="MacLaurin Street"/>
  </way>
  <way id="21355218" version="2" timestamp="2010-07-08T02:10:47Z" uid="74617" user="JohnSmith" changeset="5162525">
    <nd ref="229689707"/>
    <nd ref="229690326"/>
    <nd ref="229690329"/>
    <nd ref="229690333"/>
    <nd ref="229690335"/>
    <nd ref="229690337"/>
    <nd ref="229690338"/>
    <tag k="highway" v="residential"/>
    <tag k="maxspeed" v="50"/>
    <tag k="maxspeed:source" v="default residential speed limit in Australia"/>
    <tag k="name" v="Caloola Crescent"/>
  </way>
  <way id="21355218" version="3" timestamp="2012-01-15T21:34:05Z" uid="147510" user="woodpeck_fixbot" changeset="10402983">
    <nd ref="229689707"/>
    <nd ref="229690326"/>
    <nd ref="229690329"/>
    <nd ref="229690333"/>
    <nd ref="229690335"/>
    <nd ref="229690337"/>
    <nd ref="229690338"/>
    <tag k="highway" v="residential"/>
    <tag k="name" v="Caloola Crescent"/>
  </way>
  <way id="21355273" version="2" timestamp="2010-07-08T02:11:32Z" uid="74617" user="JohnSmith" changeset="5162525">
    <nd ref="229690369"/>
    <nd ref="229690899"/>
    <nd ref="229690901"/>
    <tag k="highway" v="residential"/>
    <tag k="maxspeed" v="50"/>
    <tag k="maxspeed:source" v="default residential speed limit in Australia"/>
    <tag k="name" v="Crown Avenue"/>
  </way>
  <way id="21355273" version="3" timestamp="2011-02-17T11:53:55Z" uid="389517" user="good2010" changeset="7312380">
    <nd ref="229690369"/>
    <nd ref="229690899"/>
    <nd ref="229690901"/>
    <tag k="highway" v="residential"/>
    <tag k="maxspeed" v="50"/>
    <tag k="maxspeed:source" v="default residential speed limit in Australia"/>
    <tag k="name" v="Crown Avenue"/>
    <tag k="source" v="nearmap"/>
  </way>
  <way id="21355273" version="4" timestamp="2012-01-15T21:34:07Z" uid="147510" user="woodpeck_fixbot" changeset="10402983">
    <nd ref="229690369"/>
    <nd ref="229690899"/>
    <nd ref="229690901"/>
    <tag k="highway" v="residential"/>
    <tag k="name" v="Crown Avenue"/>
    <tag k="source" v="nearmap"/>
  </way>
  <way id="21355360" version="2" timestamp="2010-07-08T02:08:29Z" uid="74617" user="JohnSmith" changeset="5162525">
    <nd ref="229690899"/>
    <nd ref="229691469"/>
    <nd ref="229691470"/>
    <nd ref="229691472"/>
    <tag k="highway" v="residential"/>
    <tag k="maxspeed" v="50"/>
    <tag k="maxspeed:source" v="default residential speed limit in Australia"/>
    <tag k="name" v="Beverly Crescent"/>
  </way>
  <way id="21355360" version="3" timestamp="2012-01-15T21:34:08Z" uid="147510" user="woodpeck_fixbot" changeset="10402983">
    <nd ref="229690899"/>
    <nd ref="229691469"/>
    <nd ref="229691470"/>
    <nd ref="229691472"/>
    <tag k="highway" v="residential"/>
    <tag k="name" v="Beverly Crescent"/>
  </way>
  <way id="21355478" version="2" timestamp="2010-07-08T02:11:20Z" uid="74617" user="JohnSmith" changeset="5162525">
    <nd ref="229691503"/>
    <nd ref="229692355"/>
    <tag k="highway" v="residential"/>
    <tag k="maxspeed" v="50"/>
    <tag k="maxspeed:source" v="default residential speed limit in Australia"/>
    <tag k="name" v="Denison Street"/>
  </way>
  <way id="21355478" version="3" timestamp="2012-01-15T21:34:09Z" uid="147510" user="woodpeck_fixbot" changeset="10402983">
    <nd ref="229691503"/>
    <nd ref="229692355"/>
    <tag k="highway" v="residential"/>
    <tag k="name" v="Denison Street"/>
  </way>
  <way id="21355557" version="2" timestamp="2010-07-08T02:12:34Z" uid="74617" user="JohnSmith" changeset="5162525">
    <nd ref="229692391"/>
    <nd ref="229693018"/>
    <nd ref="229693019"/>
    <nd ref="229693021"/>
    <nd ref="229693023"/>
    <tag k="highway" v="residential"/>
    <tag k="maxspeed" v="50"/>
    <tag k="maxspeed:source" v="default residential speed limit in Australia"/>
    <tag k="name" v="Belmont Avenue"/>
  </way>
  <way id="21355557" version="3" timestamp="2012-01-15T21:34:11Z" uid="147510" user="woodpeck_fixbot" changeset="10402983">
    <nd ref="229692391"/>
    <nd ref="229693018"/>
    <nd ref="229693019"/>
    <nd ref="229693021"/>
    <nd ref="229693023"/>
    <tag k="highway" v="residential"/>
    <tag k="name" v="Belmont Avenue"/>
  </way>
  <way id="21355595" version="2" timestamp="2010-07-08T02:07:44Z" uid="74617" user="JohnSmith" changeset="5162525">
    <nd ref="229693019"/>
    <nd ref="229693552"/>
    <tag k="highway" v="residential"/>
    <tag k="maxspeed" v="50"/>
    <tag k="maxspeed:source" v="default residential speed limit in Australia"/>
    <tag k="name" v="Havendale Avenue"/>
  </way>
  <way id="21355595" version="3" timestamp="2011-03-19T03:58:02Z" uid="7617" user="Franc" changeset="7601286">
    <nd ref="229693019"/>
    <nd ref="1208257499"/>
    <nd ref="229693552"/>
    <tag k="highway" v="residential"/>
    <tag k="maxspeed" v="50"/>
    <tag k="maxspeed:source" v="default residential speed limit in Australia"/>
    <tag k="name" v="Havendale Avenue"/>
  </way>
  <way id="21355595" version="4" timestamp="2012-01-15T21:34:12Z" uid="147510" user="woodpeck_fixbot" changeset="10402983">
    <nd ref="229693019"/>
    <nd ref="1208257499"/>
    <nd ref="229693552"/>
    <tag k="highway" v="residential"/>
    <tag k="name" v="Havendale Avenue"/>
  </way>
  <way id="21355715" version="3" timestamp="2010-07-08T02:10:42Z" uid="74617" user="JohnSmith" changeset="5162525">
    <nd ref="229693552"/>
    <nd ref="229694637"/>
    <nd ref="229694639"/>
    <nd ref="229694640"/>
    <nd ref="229694642"/>
    <nd ref="229694644"/>
    <nd ref="229694646"/>
    <nd ref="229693552"/>
    <tag k="highway" v="residential"/>
    <tag k="junction" v="roundabout"/>
    <tag k="maxspeed" v="50"/>
    <tag k="maxspeed:source" v="default residential speed limit in Australia"/>
    <tag k="name" v="Havendale Avenue"/>
  </way>
  <way id="21355715" version="4" timestamp="2011-03-19T03:58:06Z" uid="7617" user="Franc" changeset="7601286">
    <nd ref="229693552"/>
    <nd ref="229694637"/>
    <nd ref="1208257701"/>
    <nd ref="229694639"/>
    <nd ref="229694640"/>
    <nd ref="1208257653"/>
    <nd ref="229694642"/>
    <nd ref="1208257460"/>
    <nd ref="229694644"/>
    <nd ref="1208257588"/>
    <nd ref="229694646"/>
    <nd ref="1208257523"/>
    <nd ref="229693552"/>
    <tag k="highway" v="residential"/>
    <tag k="junction" v="roundabout"/>
    <tag k="maxspeed" v="50"/>
    <tag k="maxspeed:source" v="default residential speed limit in Australia"/>
    <tag k="name" v="Havendale Avenue"/>
  </way>
  <way id="21355715" version="5" timestamp="2012-01-15T21:34:13Z" uid="147510" user="woodpeck_fixbot" changeset="10402983">
    <nd ref="229693552"/>
    <nd ref="229694637"/>
    <nd ref="1208257701"/>
    <nd ref="229694639"/>
    <nd ref="229694640"/>
    <nd ref="1208257653"/>
    <nd ref="229694642"/>
    <nd ref="1208257460"/>
    <nd ref="229694644"/>
    <nd ref="1208257588"/>
    <nd ref="229694646"/>
    <nd ref="1208257523"/>
    <nd ref="229693552"/>
    <tag k="highway" v="residential"/>
    <tag k="junction" v="roundabout"/>
    <tag k="name" v="Havendale Avenue"/>
  </way>
  <way id="21355791" version="3" timestamp="2010-02-09T12:50:17Z" uid="74617" user="JohnSmith" changeset="3831866">
    <nd ref="229694681"/>
    <nd ref="634203758"/>
    <nd ref="634203748"/>
    <nd ref="229695340"/>
    <nd ref="229695343"/>
    <nd ref="229695345"/>
    <nd ref="229695348"/>
    <nd ref="229696180"/>
    <nd ref="229695349"/>
    <tag k="highway" v="residential"/>
    <tag k="name" v="Penshurst Avenue"/>
  </way>
  <way id="21355791" version="4" timestamp="2010-07-08T02:09:06Z" uid="74617" user="JohnSmith" changeset="5162525">
    <nd ref="229694681"/>
    <nd ref="634203758"/>
    <nd ref="634203748"/>
    <nd ref="229695340"/>
    <nd ref="229695343"/>
    <nd ref="229695345"/>
    <nd ref="229695348"/>
    <nd ref="229696180"/>
    <nd ref="229695349"/>
    <tag k="highway" v="residential"/>
    <tag k="maxspeed" v="50"/>
    <tag k="maxspeed:source" v="default residential speed limit in Australia"/>
    <tag k="name" v="Penshurst Avenue"/>
  </way>
  <way id="21355791" version="5" timestamp="2010-12-25T21:40:08Z" uid="7617" user="Franc" changeset="6763901">
    <nd ref="229694681"/>
    <nd ref="634203758"/>
    <nd ref="634203748"/>
    <nd ref="229695340"/>
    <nd ref="229695343"/>
    <nd ref="1064601634"/>
    <nd ref="1064601671"/>
    <nd ref="1064601733"/>
    <nd ref="1064601403"/>
    <nd ref="229695345"/>
    <nd ref="229695348"/>
    <nd ref="229696180"/>
    <nd ref="1064601444"/>
    <tag k="highway" v="residential"/>
    <tag k="maxspeed" v="50"/>
    <tag k="maxspeed:source" v="default residential speed limit in Australia"/>
    <tag k="name" v="Penshurst Avenue"/>
  </way>
  <way id="21355791" version="6" timestamp="2010-12-28T09:32:44Z" uid="333194" user="happyOOO" changeset="6786007">
    <nd ref="229694681"/>
    <nd ref="1068874801"/>
    <nd ref="634203748"/>
    <nd ref="229695340"/>
    <nd ref="229695343"/>
    <nd ref="1064601634"/>
    <nd ref="1064601671"/>
    <nd ref="1064601733"/>
    <nd ref="1064601403"/>
    <nd ref="229695345"/>
    <nd ref="229695348"/>
    <nd ref="229696180"/>
    <nd ref="1064601444"/>
    <tag k="highway" v="residential"/>
    <tag k="maxspeed" v="50"/>
    <tag k="maxspeed:source" v="default residential speed limit in Australia"/>
    <tag k="name" v="Penshurst Avenue"/>
  </way>
  <way id="21355791" version="7" timestamp="2010-12-31T02:37:13Z" uid="389517" user="good2010" changeset="6816141">
    <nd ref="1068874801"/>
    <nd ref="634203748"/>
    <nd ref="229695340"/>
    <nd ref="229695343"/>
    <nd ref="1064601634"/>
    <nd ref="1064601671"/>
    <nd ref="1064601733"/>
    <nd ref="1064601403"/>
    <nd ref="229695345"/>
    <nd ref="229695348"/>
    <nd ref="229696180"/>
    <nd ref="1064601444"/>
    <tag k="highway" v="residential"/>
    <tag k="maxspeed" v="50"/>
    <tag k="maxspeed:source" v="default residential speed limit in Australia"/>
    <tag k="name" v="Penshurst Avenue"/>
  </way>
  <way id="21355791" version="8" timestamp="2011-02-17T11:53:56Z" uid="389517" user="good2010" changeset="7312380">
    <nd ref="1064601444"/>
    <nd ref="229696180"/>
    <nd ref="229695348"/>
    <nd ref="229695345"/>
    <nd ref="1064601403"/>
    <nd ref="1064601733"/>
    <nd ref="1064601671"/>
    <nd ref="1064601634"/>
    <nd ref="229695343"/>
    <nd ref="229695340"/>
    <nd ref="634203748"/>
    <tag k="highway" v="residential"/>
    <tag k="maxspeed" v="50"/>
    <tag k="maxspeed:source" v="default residential speed limit in Australia"/>
    <tag k="name" v="Penshurst Avenue"/>
  </way>
  <way id="21355791" version="9" timestamp="2012-01-15T21:34:15Z" uid="147510" user="woodpeck_fixbot" changeset="10402983">
    <nd ref="1064601444"/>
    <nd ref="229696180"/>
    <nd ref="229695348"/>
    <nd ref="229695345"/>
    <nd ref="1064601403"/>
    <nd ref="1064601733"/>
    <nd ref="1064601671"/>
    <nd ref="1064601634"/>
    <nd ref="229695343"/>
    <nd ref="229695340"/>
    <nd ref="634203748"/>
    <tag k="highway" v="residential"/>
    <tag k="name" v="Penshurst Avenue"/>
  </way>
  <way id="21355791" version="10" timestamp="2012-02-15T02:39:12Z" uid="7523" user="inas" changeset="10688954">
    <nd ref="1633458754"/>
    <nd ref="229696180"/>
    <nd ref="229695348"/>
    <nd ref="229695345"/>
    <nd ref="1064601403"/>
    <nd ref="1064601733"/>
    <nd ref="1064601671"/>
    <nd ref="1064601634"/>
    <nd ref="229695343"/>
    <nd ref="229695340"/>
    <nd ref="634203748"/>
    <tag k="highway" v="residential"/>
    <tag k="maxspeed" v="50"/>
    <tag k="maxweight" v="3"/>
    <tag k="name" v="Penshurst Avenue"/>
    <tag k="source:maxspeed" v="sign"/>
    <tag k="source:maxweight" v="sign"/>
  </way>
  <way id="21355791" version="11" timestamp="2012-03-06T23:25:04Z" uid="7523" user="inas" changeset="10895623">
    <nd ref="1633458754"/>
    <nd ref="229696180"/>
    <nd ref="229695348"/>
    <nd ref="229695345"/>
    <nd ref="229695343"/>
    <nd ref="229695340"/>
    <nd ref="1663378689"/>
    <tag k="highway" v="residential"/>
    <tag k="maxspeed" v="50"/>
    <tag k="maxweight" v="3"/>
    <tag k="name" v="Penshurst Avenue"/>
    <tag k="source:maxspeed" v="sign"/>
    <tag k="source:maxweight" v="sign"/>
  </way>
  <way id="21355835" version="2" timestamp="2010-07-08T02:08:58Z" uid="74617" user="JohnSmith" changeset="5162525">
    <nd ref="229695348"/>
    <nd ref="229693023"/>
    <nd ref="229695779"/>
    <tag k="highway" v="residential"/>
    <tag k="maxspeed" v="50"/>
    <tag k="maxspeed:source" v="default residential speed limit in Australia"/>
    <tag k="name" v="Days Avenue"/>
  </way>
  <way id="21355835" version="3" timestamp="2011-03-19T03:58:07Z" uid="7617" user="Franc" changeset="7601286">
    <nd ref="229695348"/>
    <nd ref="229693023"/>
    <nd ref="1208257677"/>
    <nd ref="229695779"/>
    <tag k="highway" v="residential"/>
    <tag k="maxspeed" v="50"/>
    <tag k="maxspeed:source" v="default residential speed limit in Australia"/>
    <tag k="name" v="Days Avenue"/>
  </way>
  <way id="21355835" version="4" timestamp="2012-01-15T21:34:16Z" uid="147510" user="woodpeck_fixbot" changeset="10402983">
    <nd ref="229695348"/>
    <nd ref="229693023"/>
    <nd ref="1208257677"/>
    <nd ref="229695779"/>
    <tag k="highway" v="residential"/>
    <tag k="name" v="Days Avenue"/>
  </way>
  <way id="21355883" version="2" timestamp="2010-07-08T02:13:33Z" uid="74617" user="JohnSmith" changeset="5162525">
    <nd ref="229695779"/>
    <nd ref="229696128"/>
    <tag k="highway" v="residential"/>
    <tag k="maxspeed" v="50"/>
    <tag k="maxspeed:source" v="default residential speed limit in Australia"/>
    <tag k="name" v="Braeside Avenue"/>
  </way>
  <way id="21355883" version="3" timestamp="2011-03-19T03:58:18Z" uid="7617" user="Franc" changeset="7601286">
    <nd ref="229695779"/>
    <nd ref="1208257483"/>
    <nd ref="229696128"/>
    <tag k="highway" v="residential"/>
    <tag k="maxspeed" v="50"/>
    <tag k="maxspeed:source" v="default residential speed limit in Australia"/>
    <tag k="name" v="Braeside Avenue"/>
  </way>
  <way id="21355883" version="4" timestamp="2012-01-15T21:34:17Z" uid="147510" user="woodpeck_fixbot" changeset="10402983">
    <nd ref="229695779"/>
    <nd ref="1208257483"/>
    <nd ref="229696128"/>
    <tag k="highway" v="residential"/>
    <tag k="name" v="Braeside Avenue"/>
  </way>
  <way id="21355948" version="2" timestamp="2010-07-08T02:13:43Z" uid="74617" user="JohnSmith" changeset="5162525">
    <nd ref="229696180"/>
    <nd ref="229696715"/>
    <tag k="highway" v="residential"/>
    <tag k="maxspeed" v="50"/>
    <tag k="maxspeed:source" v="default residential speed limit in Australia"/>
    <tag k="name" v="Edna Avenue"/>
  </way>
  <way id="21355948" version="3" timestamp="2012-01-15T21:34:19Z" uid="147510" user="woodpeck_fixbot" changeset="10402983">
    <nd ref="229696180"/>
    <nd ref="229696715"/>
    <tag k="highway" v="residential"/>
    <tag k="name" v="Edna Avenue"/>
  </way>
  <way id="21355996" version="2" timestamp="2010-07-08T02:11:28Z" uid="74617" user="JohnSmith" changeset="5162525">
    <nd ref="229696751"/>
    <nd ref="229697106"/>
    <tag k="highway" v="residential"/>
    <tag k="maxspeed" v="50"/>
    <tag k="maxspeed:source" v="default residential speed limit in Australia"/>
    <tag k="name" v="Leeder Avenue"/>
  </way>
  <way id="21355996" version="3" timestamp="2012-01-15T21:34:20Z" uid="147510" user="woodpeck_fixbot" changeset="10402983">
    <nd ref="229696751"/>
    <nd ref="229697106"/>
    <tag k="highway" v="residential"/>
    <tag k="name" v="Leeder Avenue"/>
  </way>
  <way id="21355071" version="4" timestamp="2012-07-26T14:47:09Z" uid="660205" user="greentaxi" changeset="12500195">
    <nd ref="229689025"/>
    <nd ref="229689027"/>
    <tag k="addr:city" v="Olsztyn"/>
    <tag k="highway" v="residential"/>
    <tag k="name" v="Adama Mickiewicza"/>
  </way>
  <way id="21355095" version="7" timestamp="2012-07-20T08:36:39Z" uid="722137" user="OSMF Redaction Account" changeset="12368516"/>
  <way id="21355153" version="5" timestamp="2012-07-20T08:30:26Z" uid="722137" user="OSMF Redaction Account" changeset="12368378">
    <nd ref="229689198"/>
    <nd ref="229689707"/>
    <tag k="highway" v="residential"/>
    <tag k="name" v="MacLaurin Street"/>
  </way>
  <way id="21355595" version="5" timestamp="2012-07-20T08:30:18Z" uid="722137" user="OSMF Redaction Account" changeset="12368378">
    <nd ref="229693019"/>
    <nd ref="229693552"/>
    <tag k="highway" v="residential"/>
    <tag k="name" v="Havendale Avenue"/>
  </way>
  <way id="21355715" version="6" timestamp="2012-07-20T08:30:19Z" uid="722137" user="OSMF Redaction Account" changeset="12368378">
    <nd ref="229693552"/>
    <nd ref="229694637"/>
    <nd ref="229694639"/>
    <nd ref="229694640"/>
    <nd ref="229694642"/>
    <nd ref="229694644"/>
    <nd ref="229694646"/>
    <nd ref="229693552"/>
    <tag k="highway" v="residential"/>
    <tag k="junction" v="roundabout"/>
    <tag k="name" v="Havendale Avenue"/>
  </way>
  <way id="21355791" version="12" timestamp="2012-07-20T08:31:31Z" uid="722137" user="OSMF Redaction Account" changeset="12368378">
    <nd ref="1633458754"/>
    <nd ref="229696180"/>
    <nd ref="229695348"/>
    <nd ref="229695345"/>
    <nd ref="229695343"/>
    <nd ref="229695340"/>
    <nd ref="1663378689"/>
    <tag k="highway" v="residential"/>
    <tag k="maxweight" v="3"/>
    <tag k="name" v="Penshurst Avenue"/>
    <tag k="source:maxspeed" v="sign"/>
    <tag k="source:maxweight" v="sign"/>
  </way>
  <way id="21355791" version="13" timestamp="2012-08-11T23:48:41Z" uid="7523" user="inas" changeset="12696911">
    <nd ref="1633458754"/>
    <nd ref="229696180"/>
    <nd ref="229695348"/>
    <nd ref="1862317060"/>
    <nd ref="229695345"/>
    <nd ref="1862317059"/>
    <nd ref="1862317058"/>
    <nd ref="229695343"/>
    <nd ref="229695340"/>
    <nd ref="1663378689"/>
    <tag k="highway" v="residential"/>
    <tag k="maxweight" v="3"/>
    <tag k="name" v="Penshurst Avenue"/>
    <tag k="source:maxspeed" v="sign"/>
    <tag k="source:maxweight" v="sign"/>
  </way>
  <way id="21355835" version="5" timestamp="2012-07-20T08:30:20Z" uid="722137" user="OSMF Redaction Account" changeset="12368378">
    <nd ref="229695348"/>
    <nd ref="229693023"/>
    <nd ref="229695779"/>
    <tag k="highway" v="residential"/>
    <tag k="name" v="Days Avenue"/>
  </way>
  <way id="21355883" version="5" timestamp="2012-07-20T08:30:21Z" uid="722137" user="OSMF Redaction Account" changeset="12368378">
    <nd ref="229695779"/>
    <nd ref="229696128"/>
    <tag k="highway" v="residential"/>
    <tag k="name" v="Braeside Avenue"/>
  </way>
</osm>
