<?xml version='1.0' encoding='UTF-8'?>
<osm version="0.6" generator="libosmium/2.20.0">
  <way id="21417045" version="5" timestamp="2010-07-09T05:01:25Z" uid="74617" user="JohnSmith" changeset="5170972">
    <nd ref="230362073"/>
    <nd ref="582462372"/>
    <nd ref="582462379"/>
    <nd ref="582462382"/>
    <nd ref="230362095"/>
    <tag k="highway" v="residential"/>
    <tag k="maxspeed" v="50"/>
    <tag k="maxspeed:source" v="default residential speed limit in Australia"/>
    <tag k="name" v="Gordon Street"/>
    <tag k="oneway" v="yes"/>
    <tag k="source" v="yahoo"/>
    <tag k="source:name" v="Collins 1936"/>
  </way>
  <way id="21417045" version="6" timestamp="2012-01-15T21:35:07Z" uid="147510" user="woodpeck_fixbot" changeset="10402983">
    <nd ref="230362073"/>
    <nd ref="582462372"/>
    <nd ref="582462379"/>
    <nd ref="582462382"/>
    <nd ref="230362095"/>
    <tag k="highway" v="residential"/>
    <tag k="name" v="Gordon Street"/>
    <tag k="oneway" v="yes"/>
    <tag k="source" v="yahoo"/>
    <tag k="source:name" v="Collins 1936"/>
  </way>
  <way id="21417048" version="8" timestamp="2010-07-09T04:53:53Z" uid="74617" user="JohnSmith" changeset="5170972">
    <nd ref="230362121"/>
    <nd ref="582462381"/>
    <nd ref="582462370"/>
    <nd ref="582462369"/>
    <nd ref="230362113"/>
    <tag k="highway" v="residential"/>
    <tag k="maxspeed" v="50"/>
    <tag k="maxspeed:source" v="default residential speed limit in Australia"/>
    <tag k="name" v="Myrtle Street"/>
    <tag k="oneway" v="yes"/>
    <tag k="source" v="yahoo"/>
    <tag k="source:name" v="Collins 1936"/>
  </way>
  <way id="21417048" version="9" timestamp="2012-01-15T21:35:09Z" uid="147510" user="woodpeck_fixbot" changeset="10402983">
    <nd ref="230362121"/>
    <nd ref="582462381"/>
    <nd ref="582462370"/>
    <nd ref="582462369"/>
    <nd ref="230362113"/>
    <tag k="highway" v="residential"/>
    <tag k="name" v="Myrtle Street"/>
    <tag k="oneway" v="yes"/>
    <tag k="source" v="yahoo"/>
    <tag k="source:name" v="Collins 1936"/>
  </way>
  <way id="21417050" version="5" timestamp="2010-07-09T04:58:15Z" uid="74617" user="JohnSmith" changeset="5170972">
    <nd ref="230362134"/>
    <nd ref="582462380"/>
    <nd ref="230362177"/>
    <nd ref="573270998"/>
    <nd ref="230362123"/>
    <tag k="highway" v="residential"/>
    <tag k="maxspeed" v="50"/>
    <tag k="maxspeed:source" v="default residential speed limit in Australia"/>
    <tag k="name" v="Clifton Avenue"/>
    <tag k="oneway" v="yes"/>
    <tag k="source" v="yahoo"/>
    <tag k="source:name" v="Collins 1936"/>
  </way>
  <way id="21417050" version="6" timestamp="2012-01-15T21:35:13Z" uid="147510" user="woodpeck_fixbot" changeset="10402983">
    <nd ref="230362134"/>
    <nd ref="582462380"/>
    <nd ref="230362177"/>
    <nd ref="573270998"/>
    <nd ref="230362123"/>
    <tag k="highway" v="residential"/>
    <tag k="name" v="Clifton Avenue"/>
    <tag k="oneway" v="yes"/>
    <tag k="source" v="yahoo"/>
    <tag k="source:name" v="Collins 1936"/>
  </way>
  <way id="21417054" version="7" timestamp="2010-07-09T05:00:09Z" uid="74617" user="JohnSmith" changeset="5170972">
    <nd ref="230362154"/>
    <nd ref="573270972"/>
    <nd ref="230362178"/>
    <nd ref="332340757"/>
    <nd ref="230366604"/>
    <nd ref="230366635"/>
    <tag k="highway" v="residential"/>
    <tag k="maxspeed" v="50"/>
    <tag k="maxspeed:source" v="default residential speed limit in Australia"/>
    <tag k="name" v="Kiewa Street"/>
    <tag k="source" v="yahoo"/>
    <tag k="source:name" v="Collins 1936"/>
  </way>
  <way id="21417054" version="8" timestamp="2011-11-29T17:29:04Z" uid="338866" user="tiger" changeset="9989100">
    <nd ref="230362154"/>
    <nd ref="573270972"/>
    <nd ref="230362178"/>
    <nd ref="332340757"/>
    <nd ref="230366604"/>
    <nd ref="1523399051"/>
    <nd ref="230366635"/>
    <tag k="highway" v="residential"/>
    <tag k="maxspeed" v="50"/>
    <tag k="maxspeed:source" v="default residential speed limit in Australia"/>
    <tag k="name" v="Kiewa Street"/>
    <tag k="source" v="yahoo"/>
    <tag k="source:name" v="Collins 1936"/>
  </way>
  <way id="21417054" version="9" timestamp="2012-01-15T21:35:15Z" uid="147510" user="woodpeck_fixbot" changeset="10402983">
    <nd ref="230362154"/>
    <nd ref="573270972"/>
    <nd ref="230362178"/>
    <nd ref="332340757"/>
    <nd ref="230366604"/>
    <nd ref="1523399051"/>
    <nd ref="230366635"/>
    <tag k="highway" v="residential"/>
    <tag k="name" v="Kiewa Street"/>
    <tag k="source" v="yahoo"/>
    <tag k="source:name" v="Collins 1936"/>
  </way>
  <way id="21417058" version="4" timestamp="2010-07-09T05:03:23Z" uid="74617" user="JohnSmith" changeset="5170972">
    <nd ref="230362178"/>
    <nd ref="230362177"/>
    <tag k="highway" v="residential"/>
    <tag k="maxspeed" v="50"/>
    <tag k="maxspeed:source" v="default residential speed limit in Australia"/>
    <tag k="name" v="Dally Street"/>
    <tag k="source" v="yahoo"/>
    <tag k="source:name" v="Collins 1936"/>
  </way>
  <way id="21417058" version="5" timestamp="2012-01-15T21:35:17Z" uid="147510" user="woodpeck_fixbot" changeset="10402983">
    <nd ref="230362178"/>
    <nd ref="230362177"/>
    <tag k="highway" v="residential"/>
    <tag k="name" v="Dally Street"/>
    <tag k="source" v="yahoo"/>
    <tag k="source:name" v="Collins 1936"/>
  </way>
  <way id="21417060" version="13" timestamp="2010-07-09T05:00:45Z" uid="74617" user="JohnSmith" changeset="5170972">
    <nd ref="230362192"/>
    <nd ref="230362205"/>
    <tag k="highway" v="residential"/>
    <tag k="maxspeed" v="50"/>
    <tag k="maxspeed:source" v="default residential speed limit in Australia"/>
    <tag k="name" v="Brockenshire Street"/>
    <tag k="source" v="yahoo"/>
    <tag k="source:name" v="Collins 1936"/>
  </way>
  <way id="21417060" version="14" timestamp="2012-01-15T21:35:19Z" uid="147510" user="woodpeck_fixbot" changeset="10402983">
    <nd ref="230362192"/>
    <nd ref="230362205"/>
    <tag k="highway" v="residential"/>
    <tag k="name" v="Brockenshire Street"/>
    <tag k="source" v="yahoo"/>
    <tag k="source:name" v="Collins 1936"/>
  </way>
  <way id="21417063" version="4" timestamp="2010-07-09T04:56:40Z" uid="74617" user="JohnSmith" changeset="5170972">
    <nd ref="230362223"/>
    <nd ref="230362264"/>
    <nd ref="230362226"/>
    <tag k="highway" v="residential"/>
    <tag k="maxspeed" v="50"/>
    <tag k="maxspeed:source" v="default residential speed limit in Australia"/>
    <tag k="name" v="Horne Street"/>
    <tag k="source" v="yahoo"/>
    <tag k="source:name" v="Collins 1936"/>
  </way>
  <way id="21417063" version="5" timestamp="2012-01-15T21:35:23Z" uid="147510" user="woodpeck_fixbot" changeset="10402983">
    <nd ref="230362223"/>
    <nd ref="230362264"/>
    <nd ref="230362226"/>
    <tag k="highway" v="residential"/>
    <tag k="name" v="Horne Street"/>
    <tag k="source" v="yahoo"/>
    <tag k="source:name" v="Collins 1936"/>
  </way>
  <way id="21417065" version="4" timestamp="2010-07-09T04:57:51Z" uid="74617" user="JohnSmith" changeset="5170972">
    <nd ref="230362239"/>
    <nd ref="573274547"/>
    <nd ref="573274550"/>
    <nd ref="230362264"/>
    <tag k="highway" v="residential"/>
    <tag k="maxspeed" v="50"/>
    <tag k="maxspeed:source" v="default residential speed limit in Australia"/>
    <tag k="name" v="Ford Street"/>
    <tag k="source" v="yahoo"/>
    <tag k="source:name" v="Collins 1936"/>
  </way>
  <way id="21417065" version="5" timestamp="2012-01-15T21:35:25Z" uid="147510" user="woodpeck_fixbot" changeset="10402983">
    <nd ref="230362239"/>
    <nd ref="573274547"/>
    <nd ref="573274550"/>
    <nd ref="230362264"/>
    <tag k="highway" v="residential"/>
    <tag k="name" v="Ford Street"/>
    <tag k="source" v="yahoo"/>
    <tag k="source:name" v="Collins 1936"/>
  </way>
  <way id="21417069" version="9" timestamp="2010-07-09T04:59:24Z" uid="74617" user="JohnSmith" changeset="5170972">
    <nd ref="230362343"/>
    <nd ref="612691619"/>
    <nd ref="612691621"/>
    <nd ref="230366680"/>
    <nd ref="230366660"/>
    <nd ref="266077074"/>
    <nd ref="723818068"/>
    <nd ref="230362314"/>
    <nd ref="230362284"/>
    <tag k="highway" v="residential"/>
    <tag k="maxspeed" v="50"/>
    <tag k="maxspeed:source" v="default residential speed limit in Australia"/>
    <tag k="name" v="Alexandra Parade"/>
  </way>
  <way id="21417069" version="10" timestamp="2012-01-15T21:35:28Z" uid="147510" user="woodpeck_fixbot" changeset="10402983">
    <nd ref="230362343"/>
    <nd ref="612691619"/>
    <nd ref="612691621"/>
    <nd ref="230366680"/>
    <nd ref="230366660"/>
    <nd ref="266077074"/>
    <nd ref="723818068"/>
    <nd ref="230362314"/>
    <nd ref="230362284"/>
    <tag k="highway" v="residential"/>
    <tag k="name" v="Alexandra Parade"/>
  </way>
  <way id="21417069" version="11" timestamp="2012-03-20T22:26:23Z" uid="634785" user="sbearzatto" changeset="11046558">
    <nd ref="230362343"/>
    <nd ref="612691619"/>
    <nd ref="612691621"/>
    <nd ref="230366680"/>
    <nd ref="230366660"/>
    <nd ref="1684020326"/>
    <nd ref="1684020298"/>
    <nd ref="266077074"/>
    <nd ref="723818068"/>
    <nd ref="230362314"/>
    <nd ref="230362284"/>
    <tag k="highway" v="residential"/>
    <tag k="name" v="Alexandra Parade"/>
  </way>
  <way id="21417072" version="3" timestamp="2010-07-09T04:55:01Z" uid="74617" user="JohnSmith" changeset="5170972">
    <nd ref="230362314"/>
    <nd ref="230362369"/>
    <nd ref="230362331"/>
    <tag k="highway" v="residential"/>
    <tag k="maxspeed" v="50"/>
    <tag k="maxspeed:source" v="default residential speed limit in Australia"/>
    <tag k="name" v="Groom Street"/>
  </way>
  <way id="21417072" version="4" timestamp="2012-01-15T21:35:30Z" uid="147510" user="woodpeck_fixbot" changeset="10402983">
    <nd ref="230362314"/>
    <nd ref="230362369"/>
    <nd ref="230362331"/>
    <tag k="highway" v="residential"/>
    <tag k="name" v="Groom Street"/>
  </way>
  <way id="21417075" version="6" timestamp="2010-07-09T05:01:50Z" uid="74617" user="JohnSmith" changeset="5170972">
    <nd ref="230362343"/>
    <nd ref="723806436"/>
    <nd ref="151452152"/>
    <tag k="highway" v="residential"/>
    <tag k="maxspeed" v="50"/>
    <tag k="maxspeed:source" v="default residential speed limit in Australia"/>
    <tag k="name" v="Gray Street"/>
  </way>
  <way id="21417075" version="7" timestamp="2012-01-15T21:35:31Z" uid="147510" user="woodpeck_fixbot" changeset="10402983">
    <nd ref="230362343"/>
    <nd ref="723806436"/>
    <nd ref="151452152"/>
    <tag k="highway" v="residential"/>
    <tag k="name" v="Gray Street"/>
  </way>
  <way id="21417814" version="1" timestamp="2008-01-16T00:37:00Z" uid="6454" user="B10xxx" changeset="644665">
    <nd ref="31425401"/>
    <nd ref="230375570"/>
    <nd ref="230375573"/>
    <tag k="created_by" v="Potlatch 0.6b"/>
    <tag k="highway" v="residential"/>
  </way>
  <way id="21417814" version="2" timestamp="2008-01-28T16:32:59Z" uid="6669" user="Elwood" changeset="704762">
    <nd ref="31425401"/>
    <nd ref="230375570"/>
    <nd ref="230375573"/>
    <tag k="created_by" v="Potlatch 0.6b"/>
    <tag k="highway" v="footway"/>
  </way>
  <way id="21417814" version="3" timestamp="2009-04-12T14:17:20Z" uid="6669" user="Elwood" changeset="446860">
    <nd ref="31425401"/>
    <nd ref="230375570"/>
    <nd ref="230375573"/>
    <tag k="created_by" v="Potlatch 0.6b"/>
    <tag k="highway" v="footway"/>
    <tag k="postal_code" v="14163"/>
  </way>
  <way id="21417814" version="4" timestamp="2010-10-01T17:06:09Z" uid="66391" user="geozeisig" changeset="5929644">
    <nd ref="31425401"/>
    <nd ref="230375570"/>
    <tag k="highway" v="footway"/>
    <tag k="postal_code" v="14163"/>
  </way>
  <way id="21417814" version="5" timestamp="2012-02-09T11:37:12Z" uid="66391" user="geozeisig" changeset="10632930"/>
  <way id="21417848" version="2" timestamp="2009-02-23T13:19:54Z" uid="34428" user="usm78-gis" changeset="634299"/>
  <way id="21417854" version="2" timestamp="2009-07-25T10:52:47Z" uid="74617" user="JohnSmith" changeset="1932998">
    <nd ref="229708434"/>
    <nd ref="447792384"/>
    <nd ref="230376198"/>
    <nd ref="447792358"/>
    <nd ref="230376206"/>
    <nd ref="447792359"/>
    <nd ref="447792360"/>
    <nd ref="447792361"/>
    <nd ref="447792385"/>
    <nd ref="229708445"/>
    <tag k="highway" v="residential"/>
    <tag k="name" v="High School Drive"/>
    <tag k="source" v="yahoo"/>
  </way>
  <way id="21417926" version="1" timestamp="2008-01-16T00:37:49Z" uid="6454" user="B10xxx" changeset="644665">
    <nd ref="31425401"/>
    <nd ref="230377484"/>
    <tag k="created_by" v="Potlatch 0.6b"/>
    <tag k="highway" v="residential"/>
  </way>
  <way id="21417926" version="2" timestamp="2008-01-28T16:33:01Z" uid="6669" user="Elwood" changeset="704762">
    <nd ref="31425401"/>
    <nd ref="230377484"/>
    <tag k="created_by" v="Potlatch 0.6b"/>
    <tag k="highway" v="residential"/>
    <tag k="name" v="Robert-von-Ostertag-Straße"/>
  </way>
  <way id="21417926" version="3" timestamp="2009-04-12T14:16:22Z" uid="6669" user="Elwood" changeset="446860">
    <nd ref="31425401"/>
    <nd ref="230377484"/>
    <tag k="created_by" v="Potlatch 0.6b"/>
    <tag k="highway" v="residential"/>
    <tag k="name" v="Robert-von-Ostertag-Straße"/>
    <tag k="postal_code" v="14163"/>
  </way>
  <way id="21417926" version="4" timestamp="2010-02-02T10:11:38Z" uid="66391" user="geozeisig" changeset="3774037">
    <nd ref="31425401"/>
    <nd ref="626437877"/>
    <nd ref="626437944"/>
    <nd ref="230377484"/>
    <tag k="highway" v="residential"/>
    <tag k="name" v="Robert-von-Ostertag-Straße"/>
    <tag k="postal_code" v="14163"/>
  </way>
  <way id="21417926" version="5" timestamp="2010-10-01T17:06:06Z" uid="66391" user="geozeisig" changeset="5929644">
    <nd ref="31425401"/>
    <nd ref="933555400"/>
    <nd ref="933555514"/>
    <nd ref="626437877"/>
    <nd ref="626437944"/>
    <nd ref="230377484"/>
    <tag k="highway" v="residential"/>
    <tag k="name" v="Robert-von-Ostertag-Straße"/>
    <tag k="postal_code" v="14163"/>
  </way>
  <way id="21417926" version="6" timestamp="2012-02-09T11:37:12Z" uid="66391" user="geozeisig" changeset="10632930"/>
  <way id="21417075" version="8" timestamp="2012-08-12T02:49:40Z" uid="796294" user="osmosist" changeset="12697471">
    <nd ref="230362343"/>
    <nd ref="723806436"/>
    <nd ref="151452152"/>
    <tag k="highway" v="residential"/>
    <tag k="name" v="Gray Street"/>
    <tag k="oneway" v="yes"/>
  </way>
  <way id="21417075" version="9" timestamp="2012-08-12T03:13:40Z" uid="796294" user="osmosist" changeset="12697539">
    <nd ref="230362343"/>
    <nd ref="723806436"/>
    <tag k="highway" v="residential"/>
    <tag k="name" v="Gray Street"/>
    <tag k="oneway" v="yes"/>
  </way>
  <way id="21417075" version="10" timestamp="2012-08-12T03:38:45Z" uid="796294" user="osmosist" changeset="12697591">
    <nd ref="230362343"/>
    <nd ref="723806436"/>
    <tag k="bicycle" v="yes"/>
    <tag k="cycleway" v="opposite_lane"/>
    <tag k="highway" v="residential"/>
    <tag k="name" v="Gray Street"/>
    <tag k="oneway" v="yes"/>
  </way>
  <way id="21417854" version="3" timestamp="2012-06-26T04:39:59Z" uid="83725" user="Vid the Kid" changeset="12018299"/>
</osm>
