<?xml version='1.0' encoding='UTF-8'?>
<osm version="0.6" generator="libosmium/2.20.0">
  <way id="21529171" version="8" timestamp="2010-03-07T08:48:02Z" uid="58091" user="Andreas M" changeset="4058292">
    <nd ref="31273912"/>
    <nd ref="231736829"/>
    <nd ref="231736830"/>
    <nd ref="231736831"/>
    <nd ref="231736832"/>
    <tag k="highway" v="pedestrian"/>
    <tag k="is_in:city" v="Stockerau"/>
    <tag k="is_in:country_code" v="AT"/>
    <tag k="name" v="Mühlgasse"/>
    <tag k="postal_code" v="2000"/>
  </way>
  <way id="21529171" version="9" timestamp="2010-10-29T19:37:03Z" uid="362390" user="AndiPersti" changeset="6221620">
    <nd ref="31273912"/>
    <nd ref="231736829"/>
    <tag k="highway" v="service"/>
    <tag k="name" v="Mühlgasse"/>
  </way>
  <way id="21529230" version="4" timestamp="2010-03-07T08:48:26Z" uid="58091" user="Andreas M" changeset="4058292">
    <nd ref="231736832"/>
    <nd ref="231737593"/>
    <tag k="highway" v="residential"/>
    <tag k="is_in:city" v="Stockerau"/>
    <tag k="is_in:country_code" v="AT"/>
    <tag k="name" v="Kochplatz"/>
    <tag k="postal_code" v="2000"/>
  </way>
  <way id="21529230" version="5" timestamp="2010-10-29T19:37:15Z" uid="362390" user="AndiPersti" changeset="6221620"/>
  <way id="21529348" version="7" timestamp="2010-03-07T08:48:27Z" uid="58091" user="Andreas M" changeset="4058292">
    <nd ref="231737731"/>
    <nd ref="298890642"/>
    <nd ref="231738808"/>
    <nd ref="231737593"/>
    <nd ref="31258261"/>
    <tag k="highway" v="residential"/>
    <tag k="is_in:city" v="Stockerau"/>
    <tag k="is_in:country_code" v="AT"/>
    <tag k="name" v="Kirchengasse"/>
    <tag k="postal_code" v="2000"/>
  </way>
  <way id="21529348" version="8" timestamp="2010-10-29T19:37:10Z" uid="362390" user="AndiPersti" changeset="6221620">
    <nd ref="231737731"/>
    <nd ref="298890642"/>
    <nd ref="231738808"/>
    <tag k="highway" v="residential"/>
    <tag k="name" v="Kirchengasse"/>
  </way>
  <way id="21529348" version="9" timestamp="2010-10-30T19:25:03Z" uid="362390" user="AndiPersti" changeset="6232371">
    <nd ref="231737731"/>
    <nd ref="298890642"/>
    <nd ref="970970741"/>
    <nd ref="970970781"/>
    <tag k="highway" v="residential"/>
    <tag k="name" v="Kirchengasse"/>
  </way>
  <way id="21529348" version="10" timestamp="2010-11-11T20:33:46Z" uid="362390" user="AndiPersti" changeset="6346691">
    <nd ref="231737731"/>
    <nd ref="298890642"/>
    <tag k="highway" v="footway"/>
    <tag k="name" v="Kirchengasse"/>
  </way>
  <way id="21529758" version="4" timestamp="2010-07-06T08:46:25Z" uid="74617" user="JohnSmith" changeset="5147679">
    <nd ref="231729779"/>
    <nd ref="231738601"/>
    <nd ref="231738602"/>
    <nd ref="231738603"/>
    <nd ref="231736878"/>
    <nd ref="231730692"/>
    <tag k="highway" v="residential"/>
    <tag k="maxspeed" v="50"/>
    <tag k="maxspeed:source" v="default residential speed limit in Australia"/>
    <tag k="name" v="Heaslop Terrace"/>
    <tag k="oneway" v="yes"/>
  </way>
  <way id="21529758" version="5" timestamp="2011-11-19T11:06:43Z" uid="103574" user="El Segundo can&apos;t win" changeset="9871911"/>
  <way id="21529896" version="6" timestamp="2010-03-07T08:48:34Z" uid="58091" user="Andreas M" changeset="4058292">
    <nd ref="31330393"/>
    <nd ref="31273817"/>
    <tag k="highway" v="residential"/>
    <tag k="is_in:city" v="Stockerau"/>
    <tag k="is_in:country_code" v="AT"/>
    <tag k="name" v="Holzhof"/>
    <tag k="oneway" v="yes"/>
    <tag k="postal_code" v="2000"/>
  </way>
  <way id="21529896" version="7" timestamp="2011-01-30T09:52:57Z" uid="362390" user="AndiPersti" changeset="7131768">
    <nd ref="31330393"/>
    <nd ref="31273817"/>
    <tag k="highway" v="residential"/>
    <tag k="name" v="Holzhof"/>
    <tag k="oneway" v="yes"/>
  </way>
  <way id="21529171" version="10" timestamp="2012-07-17T01:26:21Z" uid="722137" user="OSMF Redaction Account" changeset="12254723">
    <nd ref="31273912"/>
    <nd ref="231736829"/>
    <tag k="addr:city" v="Stockerau"/>
    <tag k="addr:country" v="AT"/>
    <tag k="addr:postcode" v="2000"/>
    <tag k="addr:street" v="Mühlgasse"/>
    <tag k="highway" v="service"/>
  </way>
  <way id="21529171" version="11" timestamp="2012-08-11T17:25:37Z" uid="109152" user="rfuegen" changeset="12693632">
    <nd ref="31273912"/>
    <nd ref="231736829"/>
    <tag k="addr:city" v="Stockerau"/>
    <tag k="addr:country" v="AT"/>
    <tag k="addr:postcode" v="2000"/>
    <tag k="addr:street" v="Mühlgasse"/>
    <tag k="highway" v="service"/>
    <tag k="name" v="Mühlgasse"/>
  </way>
  <way id="21529348" version="11" timestamp="2012-07-17T01:26:29Z" uid="722137" user="OSMF Redaction Account" changeset="12254723">
    <nd ref="231737731"/>
    <nd ref="298890642"/>
    <tag k="addr:city" v="Stockerau"/>
    <tag k="addr:country" v="AT"/>
    <tag k="addr:postcode" v="2000"/>
    <tag k="addr:street" v="Kirchengasse"/>
    <tag k="highway" v="footway"/>
  </way>
  <way id="21529896" version="8" timestamp="2012-04-05T15:41:17Z" uid="19261" user="QEDquid" changeset="11190903">
    <nd ref="31330393"/>
    <nd ref="1702886594"/>
    <nd ref="1702886587"/>
    <nd ref="31273817"/>
    <tag k="highway" v="residential"/>
    <tag k="name" v="Holzhof"/>
    <tag k="oneway" v="yes"/>
  </way>
  <way id="21529896" version="9" timestamp="2012-04-05T15:50:33Z" uid="19261" user="QEDquid" changeset="11191022">
    <nd ref="31330393"/>
    <nd ref="1702886594"/>
    <nd ref="1702910609"/>
    <nd ref="1702886587"/>
    <nd ref="31273817"/>
    <tag k="highway" v="residential"/>
    <tag k="name" v="Holzhof"/>
    <tag k="oneway" v="yes"/>
    <tag k="source" v="geoimage.at hires"/>
  </way>
  <way id="21529896" version="10" timestamp="2012-07-17T01:26:28Z" uid="722137" user="OSMF Redaction Account" changeset="12254723">
    <nd ref="31330393"/>
    <nd ref="1702886594"/>
    <nd ref="1702910609"/>
    <nd ref="1702886587"/>
    <nd ref="31273817"/>
    <tag k="addr:city" v="Stockerau"/>
    <tag k="addr:country" v="AT"/>
    <tag k="addr:postcode" v="2000"/>
    <tag k="addr:street" v="Holzhof"/>
    <tag k="highway" v="residential"/>
    <tag k="oneway" v="yes"/>
    <tag k="source" v="geoimage.at hires"/>
  </way>
  <way id="21529896" version="11" timestamp="2012-08-11T17:25:30Z" uid="109152" user="rfuegen" changeset="12693632">
    <nd ref="31330393"/>
    <nd ref="1702886594"/>
    <nd ref="1702910609"/>
    <nd ref="1702886587"/>
    <nd ref="31273817"/>
    <tag k="addr:city" v="Stockerau"/>
    <tag k="addr:country" v="AT"/>
    <tag k="addr:postcode" v="2000"/>
    <tag k="addr:street" v="Holzhof"/>
    <tag k="highway" v="residential"/>
    <tag k="name" v="Holzhof"/>
    <tag k="oneway" v="yes"/>
    <tag k="source" v="geoimage.at hires"/>
  </way>
</osm>
