<?xml version='1.0' encoding='UTF-8'?>
<osm version="0.6" generator="libosmium/2.20.0">
  <way id="21530213" version="5" timestamp="2010-03-07T08:48:27Z" uid="58091" user="Andreas M" changeset="4058292">
    <nd ref="31258176"/>
    <nd ref="251618289"/>
    <nd ref="231750559"/>
    <nd ref="231750562"/>
    <tag k="highway" v="residential"/>
    <tag k="is_in:city" v="Stockerau"/>
    <tag k="is_in:country_code" v="AT"/>
    <tag k="name" v="Judithastraße"/>
    <tag k="postal_code" v="2000"/>
  </way>
  <way id="21530213" version="6" timestamp="2010-11-11T20:33:45Z" uid="362390" user="AndiPersti" changeset="6346691">
    <nd ref="31258176"/>
    <nd ref="985972114"/>
    <nd ref="251618289"/>
    <nd ref="231750559"/>
    <nd ref="231750562"/>
    <tag k="access" v="delivery"/>
    <tag k="highway" v="service"/>
    <tag k="name" v="Judithastraße"/>
  </way>
  <way id="21530213" version="7" timestamp="2011-01-07T16:45:16Z" uid="362390" user="AndiPersti" changeset="6894718">
    <nd ref="31258176"/>
    <nd ref="985972114"/>
    <nd ref="1088725264"/>
    <nd ref="1088725274"/>
    <nd ref="1088725444"/>
    <nd ref="1088725436"/>
    <nd ref="1088725315"/>
    <nd ref="251618289"/>
    <nd ref="1088725348"/>
    <nd ref="1088725353"/>
    <nd ref="1088725296"/>
    <nd ref="1088725277"/>
    <nd ref="231750559"/>
    <tag k="bicycle" v="yes"/>
    <tag k="highway" v="pedestrian"/>
    <tag k="motor_vehicle" v="destination"/>
    <tag k="name" v="Judithastraße"/>
  </way>
  <way id="21530213" version="8" timestamp="2011-01-10T11:00:34Z" uid="362390" user="AndiPersti" changeset="6925011">
    <nd ref="31258176"/>
    <nd ref="985972114"/>
    <nd ref="1088725264"/>
    <nd ref="1088725274"/>
    <nd ref="1088725444"/>
    <nd ref="1088725436"/>
    <nd ref="1088725315"/>
    <nd ref="251618289"/>
    <nd ref="1088725348"/>
    <nd ref="1088725353"/>
    <nd ref="1088725296"/>
    <nd ref="1088725277"/>
    <nd ref="231750559"/>
    <tag k="bicycle" v="yes"/>
    <tag k="highway" v="living_street"/>
    <tag k="motor_vehicle" v="destination"/>
    <tag k="name" v="Judithastraße"/>
  </way>
  <way id="21530428" version="7" timestamp="2010-03-07T08:48:16Z" uid="58091" user="Andreas M" changeset="4058292">
    <nd ref="144350818"/>
    <nd ref="31274246"/>
    <nd ref="31274247"/>
    <nd ref="501775209"/>
    <nd ref="31274248"/>
    <nd ref="444390414"/>
    <nd ref="31274249"/>
    <nd ref="334062775"/>
    <nd ref="31274250"/>
    <nd ref="31274251"/>
    <nd ref="31274252"/>
    <nd ref="31274253"/>
    <nd ref="31274254"/>
    <tag k="highway" v="tertiary"/>
    <tag k="is_in:city" v="Stockerau"/>
    <tag k="is_in:country_code" v="AT"/>
    <tag k="name" v="Franz-Blabolil-Promenade"/>
    <tag k="postal_code" v="2000"/>
  </way>
  <way id="21530428" version="8" timestamp="2010-06-25T10:34:26Z" uid="19261" user="QEDquid" changeset="5072506">
    <nd ref="144350818"/>
    <nd ref="31274246"/>
    <nd ref="31274247"/>
    <nd ref="501775209"/>
    <nd ref="31274248"/>
    <nd ref="444390414"/>
    <nd ref="31274249"/>
    <nd ref="334062775"/>
    <nd ref="31274250"/>
    <nd ref="31274251"/>
    <nd ref="31274252"/>
    <nd ref="31274253"/>
    <nd ref="31274254"/>
    <tag k="highway" v="residential"/>
    <tag k="is_in:city" v="Stockerau"/>
    <tag k="is_in:country_code" v="AT"/>
    <tag k="name" v="Franz-Blabolil-Promenade"/>
    <tag k="postal_code" v="2000"/>
  </way>
  <way id="21530428" version="9" timestamp="2010-10-26T20:46:43Z" uid="362390" user="AndiPersti" changeset="6186638">
    <nd ref="144350818"/>
    <nd ref="31274246"/>
    <nd ref="31274247"/>
    <nd ref="501775209"/>
    <nd ref="444390414"/>
    <nd ref="31274249"/>
    <nd ref="334062775"/>
    <nd ref="31274250"/>
    <nd ref="31274251"/>
    <nd ref="31274252"/>
    <nd ref="31274253"/>
    <nd ref="31274254"/>
    <tag k="highway" v="residential"/>
    <tag k="is_in:city" v="Stockerau"/>
    <tag k="is_in:country_code" v="AT"/>
    <tag k="name" v="Franz-Blabolil-Promenade"/>
    <tag k="postal_code" v="2000"/>
  </way>
  <way id="21530428" version="10" timestamp="2010-11-05T10:27:08Z" uid="362390" user="AndiPersti" changeset="6294240">
    <nd ref="144350818"/>
    <nd ref="31274246"/>
    <nd ref="31274247"/>
    <nd ref="501775209"/>
    <nd ref="444390414"/>
    <nd ref="334062775"/>
    <nd ref="31274250"/>
    <nd ref="31274251"/>
    <nd ref="31274252"/>
    <nd ref="31274253"/>
    <nd ref="31274254"/>
    <tag k="highway" v="residential"/>
    <tag k="is_in:city" v="Stockerau"/>
    <tag k="is_in:country_code" v="AT"/>
    <tag k="name" v="Franz-Blabolil-Promenade"/>
    <tag k="postal_code" v="2000"/>
  </way>
  <way id="21530428" version="11" timestamp="2010-12-19T19:30:53Z" uid="362390" user="AndiPersti" changeset="6709629">
    <nd ref="144350818"/>
    <nd ref="31274246"/>
    <nd ref="31274247"/>
    <nd ref="501775209"/>
    <nd ref="444390414"/>
    <nd ref="334062775"/>
    <nd ref="31274250"/>
    <nd ref="31274251"/>
    <nd ref="31274252"/>
    <nd ref="31274253"/>
    <nd ref="31274254"/>
    <tag k="highway" v="residential"/>
    <tag k="name" v="Unter den Linden"/>
  </way>
  <way id="21530428" version="12" timestamp="2010-12-21T08:32:55Z" uid="362390" user="AndiPersti" changeset="6722949"/>
  <way id="21530620" version="6" timestamp="2010-07-06T08:43:18Z" uid="74617" user="JohnSmith" changeset="5147679">
    <nd ref="181237511"/>
    <nd ref="231755767"/>
    <tag k="highway" v="residential"/>
    <tag k="maxspeed" v="50"/>
    <tag k="maxspeed:source" v="default residential speed limit in Australia"/>
    <tag k="name" v="Emperor Street"/>
  </way>
  <way id="21530620" version="7" timestamp="2012-01-11T00:44:33Z" uid="103574" user="Here is the repulsant snozzcumber!" changeset="10356826"/>
  <way id="21530641" version="6" timestamp="2010-03-07T08:48:22Z" uid="58091" user="Andreas M" changeset="4058292">
    <nd ref="31274376"/>
    <nd ref="255894135"/>
    <nd ref="231755959"/>
    <tag k="highway" v="residential"/>
    <tag k="is_in:city" v="Stockerau"/>
    <tag k="is_in:country_code" v="AT"/>
    <tag k="name" v="Ernst-Vogel-Straße"/>
    <tag k="postal_code" v="2000"/>
  </way>
  <way id="21530641" version="7" timestamp="2010-11-05T10:26:59Z" uid="362390" user="AndiPersti" changeset="6294240">
    <nd ref="31274376"/>
    <nd ref="255894135"/>
    <nd ref="231755959"/>
    <tag k="highway" v="residential"/>
    <tag k="name" v="Ernst-Vogel-Straße"/>
  </way>
  <way id="21530641" version="8" timestamp="2012-03-26T14:35:51Z" uid="19261" user="QEDquid" changeset="11106710">
    <nd ref="31274376"/>
    <nd ref="1691982904"/>
    <nd ref="1691982902"/>
    <nd ref="255894135"/>
    <nd ref="231755959"/>
    <tag k="highway" v="residential"/>
    <tag k="name" v="Ernst-Vogel-Straße"/>
  </way>
  <way id="21530641" version="9" timestamp="2012-03-26T14:46:05Z" uid="19261" user="QEDquid" changeset="11106815"/>
  <way id="21530821" version="6" timestamp="2010-03-07T08:48:20Z" uid="58091" user="Andreas M" changeset="4058292">
    <nd ref="31273694"/>
    <nd ref="31273695"/>
    <nd ref="31273696"/>
    <nd ref="31273699"/>
    <tag k="highway" v="residential"/>
    <tag k="is_in:city" v="Stockerau"/>
    <tag k="is_in:country_code" v="AT"/>
    <tag k="name" v="Leopold-Scheidl-Gasse"/>
    <tag k="postal_code" v="2000"/>
  </way>
  <way id="21530821" version="7" timestamp="2010-10-29T19:36:13Z" uid="362390" user="AndiPersti" changeset="6221620">
    <nd ref="31273695"/>
    <nd ref="31273696"/>
    <nd ref="31273699"/>
    <tag k="highway" v="residential"/>
    <tag k="is_in:city" v="Stockerau"/>
    <tag k="is_in:country_code" v="AT"/>
    <tag k="name" v="Leopold-Scheidl-Gasse"/>
    <tag k="postal_code" v="2000"/>
  </way>
  <way id="21530821" version="8" timestamp="2010-10-30T19:25:03Z" uid="362390" user="AndiPersti" changeset="6232371">
    <nd ref="31273695"/>
    <nd ref="31273696"/>
    <nd ref="31273699"/>
    <tag k="highway" v="residential"/>
    <tag k="name" v="Leopold-Scheidl-Gasse"/>
  </way>
  <way id="21530821" version="9" timestamp="2010-12-13T13:58:07Z" uid="362390" user="AndiPersti" changeset="6647926">
    <nd ref="31273695"/>
    <nd ref="31273696"/>
    <nd ref="31273699"/>
    <tag k="highway" v="residential"/>
    <tag k="maxspeed" v="30"/>
    <tag k="name" v="Leopold-Scheidl-Gasse"/>
  </way>
  <way id="21530826" version="6" timestamp="2010-03-07T08:48:20Z" uid="58091" user="Andreas M" changeset="4058292">
    <nd ref="31274467"/>
    <nd ref="31275264"/>
    <nd ref="31273693"/>
    <nd ref="31273794"/>
    <nd ref="31273701"/>
    <nd ref="31273694"/>
    <tag k="highway" v="residential"/>
    <tag k="is_in:city" v="Stockerau"/>
    <tag k="is_in:country_code" v="AT"/>
    <tag k="name" v="Theresia-Pampichler-Straße"/>
    <tag k="postal_code" v="2000"/>
  </way>
  <way id="21530826" version="7" timestamp="2010-10-29T19:37:03Z" uid="362390" user="AndiPersti" changeset="6221620">
    <nd ref="31274467"/>
    <nd ref="969081663"/>
    <nd ref="31275264"/>
    <nd ref="31273693"/>
    <nd ref="31273794"/>
    <nd ref="31273701"/>
    <tag k="highway" v="residential"/>
    <tag k="is_in:city" v="Stockerau"/>
    <tag k="is_in:country_code" v="AT"/>
    <tag k="name" v="Theresia-Pampichler-Straße"/>
    <tag k="postal_code" v="2000"/>
  </way>
  <way id="21530826" version="8" timestamp="2010-11-23T12:24:57Z" uid="362390" user="AndiPersti" changeset="6439041">
    <nd ref="31274467"/>
    <nd ref="969081663"/>
    <nd ref="31275264"/>
    <nd ref="31273693"/>
    <nd ref="31273794"/>
    <nd ref="31273701"/>
    <nd ref="31273695"/>
    <tag k="highway" v="residential"/>
    <tag k="name" v="Theresia-Pampichler-Straße"/>
  </way>
  <way id="21530826" version="9" timestamp="2010-12-13T13:58:07Z" uid="362390" user="AndiPersti" changeset="6647926">
    <nd ref="31274467"/>
    <nd ref="969081663"/>
    <nd ref="31275264"/>
    <nd ref="31273693"/>
    <nd ref="31273794"/>
    <tag k="highway" v="residential"/>
    <tag k="name" v="Theresia-Pampichler-Straße"/>
  </way>
  <way id="21530826" version="10" timestamp="2011-01-30T07:50:51Z" uid="362390" user="AndiPersti" changeset="7130813">
    <nd ref="31274467"/>
    <nd ref="969081663"/>
    <nd ref="1127526781"/>
    <nd ref="31275264"/>
    <nd ref="31273693"/>
    <nd ref="31273794"/>
    <tag k="highway" v="residential"/>
    <tag k="name" v="Theresia-Pampichler-Straße"/>
  </way>
  <way id="21530826" version="11" timestamp="2012-03-27T15:35:08Z" uid="19261" user="QEDquid" changeset="11117549">
    <nd ref="31274467"/>
    <nd ref="1693354456"/>
    <nd ref="969081663"/>
    <nd ref="1127526781"/>
    <nd ref="31275264"/>
    <nd ref="31273693"/>
    <nd ref="31273794"/>
    <tag k="highway" v="residential"/>
    <tag k="name" v="Theresia-Pampichler-Straße"/>
  </way>
  <way id="21530213" version="9" timestamp="2012-07-17T01:26:36Z" uid="722137" user="OSMF Redaction Account" changeset="12254723">
    <nd ref="31258176"/>
    <nd ref="985972114"/>
    <nd ref="1088725264"/>
    <nd ref="1088725274"/>
    <nd ref="1088725444"/>
    <nd ref="1088725436"/>
    <nd ref="1088725315"/>
    <nd ref="251618289"/>
    <nd ref="1088725348"/>
    <nd ref="1088725353"/>
    <nd ref="1088725296"/>
    <nd ref="1088725277"/>
    <nd ref="231750559"/>
    <tag k="addr:city" v="Stockerau"/>
    <tag k="addr:country" v="AT"/>
    <tag k="addr:postcode" v="2000"/>
    <tag k="addr:street" v="Judithastraße"/>
    <tag k="bicycle" v="yes"/>
    <tag k="highway" v="living_street"/>
    <tag k="motor_vehicle" v="destination"/>
  </way>
  <way id="21530821" version="10" timestamp="2012-07-17T01:26:50Z" uid="722137" user="OSMF Redaction Account" changeset="12254723">
    <nd ref="31273695"/>
    <nd ref="31273696"/>
    <nd ref="31273699"/>
    <tag k="addr:city" v="Stockerau"/>
    <tag k="addr:country" v="AT"/>
    <tag k="addr:postcode" v="2000"/>
    <tag k="addr:street" v="Leopold-Scheidl-Gasse"/>
    <tag k="highway" v="residential"/>
    <tag k="maxspeed" v="30"/>
  </way>
  <way id="21530821" version="11" timestamp="2012-08-11T17:25:36Z" uid="109152" user="rfuegen" changeset="12693632">
    <nd ref="31273695"/>
    <nd ref="31273696"/>
    <nd ref="31273699"/>
    <tag k="addr:city" v="Stockerau"/>
    <tag k="addr:country" v="AT"/>
    <tag k="addr:postcode" v="2000"/>
    <tag k="addr:street" v="Leopold-Scheidl-Gasse"/>
    <tag k="highway" v="residential"/>
    <tag k="maxspeed" v="30"/>
    <tag k="name" v="Leopold-Scheidl-Gasse"/>
  </way>
  <way id="21530826" version="12" timestamp="2012-07-17T01:26:30Z" uid="722137" user="OSMF Redaction Account" changeset="12254723">
    <nd ref="31274467"/>
    <nd ref="1693354456"/>
    <nd ref="969081663"/>
    <nd ref="1127526781"/>
    <nd ref="31275264"/>
    <nd ref="31273693"/>
    <nd ref="31273794"/>
    <tag k="addr:city" v="Stockerau"/>
    <tag k="addr:country" v="AT"/>
    <tag k="addr:postcode" v="2000"/>
    <tag k="addr:street" v="Theresia-Pampichler-Straße"/>
    <tag k="highway" v="residential"/>
  </way>
  <way id="21530826" version="13" timestamp="2012-08-11T17:25:45Z" uid="109152" user="rfuegen" changeset="12693632">
    <nd ref="31274467"/>
    <nd ref="1693354456"/>
    <nd ref="969081663"/>
    <nd ref="1127526781"/>
    <nd ref="31275264"/>
    <nd ref="31273693"/>
    <nd ref="31273794"/>
    <tag k="highway" v="residential"/>
    <tag k="name" v="Theresia-Pampichler-Straße"/>
  </way>
</osm>
