<?xml version='1.0' encoding='UTF-8'?>
<osm version="0.6" generator="libosmium/2.20.0">
  <way id="21532407" version="4" timestamp="2010-03-07T08:48:37Z" uid="58091" user="Andreas M" changeset="4058292">
    <nd ref="31915796"/>
    <nd ref="231777147"/>
    <tag k="highway" v="residential"/>
    <tag k="is_in:city" v="Stockerau"/>
    <tag k="is_in:country_code" v="AT"/>
    <tag k="name" v="Am Damm"/>
    <tag k="postal_code" v="2000"/>
  </way>
  <way id="21532407" version="5" timestamp="2011-01-30T09:52:44Z" uid="362390" user="AndiPersti" changeset="7131768">
    <nd ref="31915796"/>
    <nd ref="231777147"/>
    <tag k="highway" v="residential"/>
    <tag k="name" v="Am Damm"/>
  </way>
  <way id="21532407" version="6" timestamp="2011-02-24T19:35:11Z" uid="362390" user="AndiPersti" changeset="7384585">
    <nd ref="31915796"/>
    <nd ref="231777147"/>
    <tag k="access" v="private"/>
    <tag k="highway" v="service"/>
    <tag k="service" v="driveway"/>
  </way>
  <way id="21532407" version="7" timestamp="2012-07-17T01:27:02Z" uid="722137" user="OSMF Redaction Account" changeset="12254723">
    <nd ref="31915796"/>
    <nd ref="231777147"/>
    <tag k="access" v="private"/>
    <tag k="addr:city" v="Stockerau"/>
    <tag k="addr:country" v="AT"/>
    <tag k="addr:postcode" v="2000"/>
    <tag k="addr:street" v="Am Damm"/>
    <tag k="highway" v="service"/>
    <tag k="service" v="driveway"/>
  </way>
  <way id="21532407" version="8" timestamp="2012-08-11T17:25:16Z" uid="109152" user="rfuegen" changeset="12693632">
    <nd ref="31915796"/>
    <nd ref="231777147"/>
    <tag k="access" v="private"/>
    <tag k="highway" v="service"/>
    <tag k="name" v="Am Damm"/>
    <tag k="service" v="driveway"/>
  </way>
</osm>
