<?xml version='1.0' encoding='UTF-8'?>
<osm version="0.6" generator="libosmium/2.20.0">
  <way id="21560218" version="4" timestamp="2010-04-05T09:03:18Z" uid="74617" user="JohnSmith" changeset="4330247">
    <nd ref="26032548"/>
    <nd ref="26032549"/>
    <nd ref="26032550"/>
    <tag k="highway" v="motorway"/>
    <tag k="lanes" v="3"/>
    <tag k="maxspeed" v="80"/>
    <tag k="name" v="Calder Freeway"/>
    <tag k="oneway" v="yes"/>
    <tag k="ref" v="M40"/>
    <tag k="source" v="survey"/>
  </way>
  <way id="21560218" version="5" timestamp="2010-04-05T09:46:09Z" uid="74617" user="JohnSmith" changeset="4330839">
    <nd ref="26032548"/>
    <nd ref="26032549"/>
    <nd ref="26032550"/>
    <tag k="highway" v="motorway"/>
    <tag k="lanes" v="3"/>
    <tag k="maxspeed" v="80"/>
    <tag k="name" v="Calder Freeway"/>
    <tag k="oneway" v="yes"/>
    <tag k="source" v="survey"/>
  </way>
  <way id="21560218" version="6" timestamp="2011-01-03T05:09:13Z" uid="371324" user="Rudi Heitbaum" changeset="6846187">
    <nd ref="26032548"/>
    <nd ref="26032549"/>
    <nd ref="1080119901"/>
    <nd ref="26032550"/>
    <tag k="highway" v="motorway"/>
    <tag k="lanes" v="3"/>
    <tag k="maxspeed" v="80"/>
    <tag k="name" v="Calder Freeway"/>
    <tag k="oneway" v="yes"/>
    <tag k="source" v="survey"/>
  </way>
  <way id="21560218" version="7" timestamp="2011-11-21T10:11:55Z" uid="11111" user="melb_guy" changeset="9895355">
    <nd ref="26032548"/>
    <nd ref="26032549"/>
    <nd ref="1080119901"/>
    <nd ref="26032550"/>
    <tag k="highway" v="motorway"/>
    <tag k="lanes" v="3"/>
    <tag k="maxspeed" v="100"/>
    <tag k="name" v="Calder Freeway"/>
    <tag k="note:maxspeed" v="100 Limit 8pm-5am. 80 Limit 5am - 8pm"/>
    <tag k="oneway" v="yes"/>
    <tag k="surface" v="asphalt"/>
  </way>
  <way id="21560218" version="8" timestamp="2011-12-30T23:23:48Z" uid="46482" user="Leon K" changeset="10250812">
    <nd ref="26032548"/>
    <nd ref="26032549"/>
    <nd ref="1080119901"/>
    <nd ref="26032550"/>
    <tag k="highway" v="motorway"/>
    <tag k="lanes" v="3"/>
    <tag k="maxspeed" v="100"/>
    <tag k="name" v="Calder Freeway"/>
    <tag k="note:maxspeed" v="100 Limit 8pm-5am. 80 Limit 5am - 8pm"/>
    <tag k="oneway" v="yes"/>
    <tag k="ref" v="M79"/>
    <tag k="surface" v="asphalt"/>
  </way>
  <way id="21560222" version="8" timestamp="2009-08-03T13:34:33Z" uid="4467" user="Rosscoe" changeset="2025552">
    <nd ref="30928585"/>
    <nd ref="303684898"/>
    <nd ref="26120868"/>
    <nd ref="232079432"/>
    <tag k="highway" v="motorway"/>
    <tag k="is_in" v="Keilor,Victoria,Australia"/>
    <tag k="lanes" v="3"/>
    <tag k="maxspeed" v="80"/>
    <tag k="name" v="Calder Freeway"/>
    <tag k="oneway" v="yes"/>
    <tag k="ref" v="M79"/>
    <tag k="source" v="knowledge"/>
  </way>
  <way id="21560222" version="9" timestamp="2010-04-04T21:55:30Z" uid="74617" user="JohnSmith" changeset="4327637">
    <nd ref="30928585"/>
    <nd ref="303684898"/>
    <nd ref="26120868"/>
    <nd ref="232079432"/>
    <tag k="highway" v="motorway"/>
    <tag k="lanes" v="3"/>
    <tag k="maxspeed" v="80"/>
    <tag k="name" v="Calder Freeway"/>
    <tag k="oneway" v="yes"/>
    <tag k="source" v="knowledge"/>
  </way>
  <way id="21560222" version="10" timestamp="2011-11-21T10:11:55Z" uid="11111" user="melb_guy" changeset="9895355">
    <nd ref="30928585"/>
    <nd ref="1511360171"/>
    <nd ref="303684898"/>
    <nd ref="1511360299"/>
    <nd ref="26120868"/>
    <nd ref="1511360161"/>
    <nd ref="232079432"/>
    <tag k="highway" v="motorway"/>
    <tag k="lanes" v="3"/>
    <tag k="maxspeed" v="80"/>
    <tag k="name" v="Calder Freeway"/>
    <tag k="oneway" v="yes"/>
    <tag k="source" v="knowledge"/>
  </way>
  <way id="21560222" version="11" timestamp="2011-11-21T10:20:00Z" uid="11111" user="melb_guy" changeset="9895355"/>
  <way id="21560232" version="4" timestamp="2009-07-26T13:13:00Z" uid="4467" user="Rosscoe" changeset="1944574">
    <nd ref="26032546"/>
    <nd ref="232079459"/>
    <tag k="bridge" v="yes"/>
    <tag k="highway" v="motorway"/>
    <tag k="is_in" v="Keilor,Victoria,Australia"/>
    <tag k="lanes" v="3"/>
    <tag k="layer" v="1"/>
    <tag k="maxspeed" v="80"/>
    <tag k="name" v="Calder Freeway"/>
    <tag k="oneway" v="true"/>
    <tag k="ref" v="M79"/>
    <tag k="source" v="knowledge"/>
  </way>
  <way id="21560232" version="5" timestamp="2009-08-03T13:34:34Z" uid="4467" user="Rosscoe" changeset="2025552">
    <nd ref="26032546"/>
    <nd ref="232079459"/>
    <tag k="bridge" v="yes"/>
    <tag k="highway" v="motorway"/>
    <tag k="is_in" v="Keilor,Victoria,Australia"/>
    <tag k="lanes" v="3"/>
    <tag k="layer" v="1"/>
    <tag k="maxspeed" v="80"/>
    <tag k="name" v="Calder Freeway"/>
    <tag k="oneway" v="yes"/>
    <tag k="ref" v="M79"/>
    <tag k="source" v="knowledge"/>
  </way>
  <way id="21560232" version="6" timestamp="2010-04-04T21:55:30Z" uid="74617" user="JohnSmith" changeset="4327637">
    <nd ref="26032546"/>
    <nd ref="232079459"/>
    <tag k="bridge" v="yes"/>
    <tag k="highway" v="motorway"/>
    <tag k="lanes" v="3"/>
    <tag k="layer" v="1"/>
    <tag k="maxspeed" v="80"/>
    <tag k="name" v="Calder Freeway"/>
    <tag k="oneway" v="yes"/>
    <tag k="source" v="knowledge"/>
  </way>
  <way id="21560232" version="7" timestamp="2011-11-21T10:11:56Z" uid="11111" user="melb_guy" changeset="9895355">
    <nd ref="26032546"/>
    <nd ref="232079459"/>
    <tag k="bridge" v="yes"/>
    <tag k="highway" v="motorway"/>
    <tag k="lanes" v="2"/>
    <tag k="layer" v="1"/>
    <tag k="maxspeed" v="100"/>
    <tag k="name" v="Calder Freeway"/>
    <tag k="note:maxspeed" v="100 Limit 8pm-5am. 80 Limit 5am - 8pm"/>
    <tag k="oneway" v="yes"/>
  </way>
  <way id="21560236" version="8" timestamp="2009-07-31T14:28:21Z" uid="4467" user="Rosscoe" changeset="1995211">
    <nd ref="26120867"/>
    <nd ref="26120866"/>
    <nd ref="26120865"/>
    <nd ref="26120863"/>
    <nd ref="303684850"/>
    <nd ref="26118445"/>
    <nd ref="26118442"/>
    <nd ref="26118437"/>
    <nd ref="36047423"/>
    <tag k="highway" v="motorway"/>
    <tag k="lanes" v="3"/>
    <tag k="maxspeed" v="80"/>
    <tag k="name" v="Calder Freeway"/>
    <tag k="oneway" v="yes"/>
    <tag k="ref" v="M79"/>
  </way>
  <way id="21560236" version="9" timestamp="2009-11-11T09:19:44Z" uid="9261" user="Craig Feuerherdt" changeset="3088352">
    <nd ref="26120867"/>
    <nd ref="26120866"/>
    <nd ref="560685761"/>
    <nd ref="26120865"/>
    <nd ref="26120863"/>
    <nd ref="303684850"/>
    <nd ref="26118445"/>
    <nd ref="26118442"/>
    <nd ref="26118437"/>
    <nd ref="36047423"/>
    <tag k="highway" v="motorway"/>
    <tag k="lanes" v="3"/>
    <tag k="maxspeed" v="80"/>
    <tag k="name" v="Calder Freeway"/>
    <tag k="oneway" v="yes"/>
    <tag k="ref" v="M79"/>
  </way>
  <way id="21560236" version="10" timestamp="2010-04-04T21:55:29Z" uid="74617" user="JohnSmith" changeset="4327637">
    <nd ref="26120867"/>
    <nd ref="26120866"/>
    <nd ref="560685761"/>
    <nd ref="26120865"/>
    <nd ref="26120863"/>
    <nd ref="303684850"/>
    <nd ref="26118445"/>
    <nd ref="26118442"/>
    <nd ref="26118437"/>
    <nd ref="36047423"/>
    <tag k="highway" v="motorway"/>
    <tag k="lanes" v="3"/>
    <tag k="maxspeed" v="80"/>
    <tag k="name" v="Calder Freeway"/>
    <tag k="oneway" v="yes"/>
  </way>
  <way id="21560236" version="11" timestamp="2011-11-13T04:46:07Z" uid="11111" user="melb_guy" changeset="9810559">
    <nd ref="26120867"/>
    <nd ref="26120866"/>
    <nd ref="560685761"/>
    <nd ref="26120865"/>
    <nd ref="26120863"/>
    <nd ref="303684850"/>
    <nd ref="26118445"/>
    <nd ref="26118442"/>
    <nd ref="26118437"/>
    <nd ref="36047423"/>
    <tag k="highway" v="motorway"/>
    <tag k="lanes" v="3"/>
    <tag k="maxspeed" v="100"/>
    <tag k="name" v="Calder Freeway"/>
    <tag k="oneway" v="yes"/>
    <tag k="surface" v="asphalt"/>
  </way>
  <way id="21560236" version="12" timestamp="2011-11-21T10:11:56Z" uid="11111" user="melb_guy" changeset="9895355">
    <nd ref="26120867"/>
    <nd ref="26120866"/>
    <nd ref="1511360297"/>
    <nd ref="560685761"/>
    <nd ref="26120865"/>
    <nd ref="26120863"/>
    <nd ref="303684850"/>
    <nd ref="26118445"/>
    <nd ref="26118442"/>
    <nd ref="26118437"/>
    <nd ref="36047423"/>
    <tag k="highway" v="motorway"/>
    <tag k="lanes" v="3"/>
    <tag k="maxspeed" v="100"/>
    <tag k="name" v="Calder Freeway"/>
    <tag k="oneway" v="yes"/>
    <tag k="surface" v="asphalt"/>
  </way>
  <way id="21560236" version="13" timestamp="2011-12-30T23:23:49Z" uid="46482" user="Leon K" changeset="10250812">
    <nd ref="26120867"/>
    <nd ref="26120866"/>
    <nd ref="1511360297"/>
    <nd ref="560685761"/>
    <nd ref="26120865"/>
    <nd ref="26120863"/>
    <nd ref="303684850"/>
    <nd ref="26118445"/>
    <nd ref="26118442"/>
    <nd ref="26118437"/>
    <nd ref="36047423"/>
    <tag k="highway" v="motorway"/>
    <tag k="lanes" v="3"/>
    <tag k="maxspeed" v="100"/>
    <tag k="name" v="Calder Freeway"/>
    <tag k="oneway" v="yes"/>
    <tag k="ref" v="M79"/>
    <tag k="surface" v="asphalt"/>
  </way>
  <way id="21560240" version="3" timestamp="2009-07-26T13:13:00Z" uid="4467" user="Rosscoe" changeset="1944574">
    <nd ref="232079432"/>
    <nd ref="26120867"/>
    <tag k="bridge" v="yes"/>
    <tag k="highway" v="motorway"/>
    <tag k="is_in" v="Keilor,Victoria,Australia"/>
    <tag k="lanes" v="3"/>
    <tag k="layer" v="1"/>
    <tag k="maxspeed" v="80"/>
    <tag k="name" v="Calder Freeway"/>
    <tag k="oneway" v="true"/>
    <tag k="ref" v="M79"/>
    <tag k="source" v="knowledge"/>
  </way>
  <way id="21560240" version="4" timestamp="2009-08-03T13:34:34Z" uid="4467" user="Rosscoe" changeset="2025552">
    <nd ref="232079432"/>
    <nd ref="26120867"/>
    <tag k="bridge" v="yes"/>
    <tag k="highway" v="motorway"/>
    <tag k="is_in" v="Keilor,Victoria,Australia"/>
    <tag k="lanes" v="3"/>
    <tag k="layer" v="1"/>
    <tag k="maxspeed" v="80"/>
    <tag k="name" v="Calder Freeway"/>
    <tag k="oneway" v="yes"/>
    <tag k="ref" v="M79"/>
    <tag k="source" v="knowledge"/>
  </way>
  <way id="21560240" version="5" timestamp="2010-04-04T21:55:28Z" uid="74617" user="JohnSmith" changeset="4327637">
    <nd ref="232079432"/>
    <nd ref="26120867"/>
    <tag k="bridge" v="yes"/>
    <tag k="highway" v="motorway"/>
    <tag k="lanes" v="3"/>
    <tag k="layer" v="1"/>
    <tag k="maxspeed" v="80"/>
    <tag k="name" v="Calder Freeway"/>
    <tag k="oneway" v="yes"/>
    <tag k="source" v="knowledge"/>
  </way>
  <way id="21560240" version="6" timestamp="2011-11-21T10:11:57Z" uid="11111" user="melb_guy" changeset="9895355">
    <nd ref="232079432"/>
    <nd ref="26120867"/>
    <tag k="bridge" v="yes"/>
    <tag k="highway" v="motorway"/>
    <tag k="lanes" v="3"/>
    <tag k="layer" v="1"/>
    <tag k="maxspeed" v="100"/>
    <tag k="name" v="Calder Freeway"/>
    <tag k="note:maxspeed" v="100 Limit 8pm-5am. 80 Limit 5am - 8pm"/>
    <tag k="oneway" v="yes"/>
  </way>
  <way id="21560244" version="6" timestamp="2009-08-03T13:34:33Z" uid="4467" user="Rosscoe" changeset="2025552">
    <nd ref="232079459"/>
    <nd ref="26032547"/>
    <nd ref="303684865"/>
    <nd ref="303684866"/>
    <nd ref="26032548"/>
    <tag k="highway" v="motorway"/>
    <tag k="is_in" v="Keilor,Victoria,Australia"/>
    <tag k="lanes" v="3"/>
    <tag k="maxspeed" v="80"/>
    <tag k="name" v="Calder Freeway"/>
    <tag k="oneway" v="yes"/>
    <tag k="ref" v="M79"/>
    <tag k="source" v="knowledge"/>
  </way>
  <way id="21560244" version="7" timestamp="2010-04-04T21:55:27Z" uid="74617" user="JohnSmith" changeset="4327637">
    <nd ref="232079459"/>
    <nd ref="26032547"/>
    <nd ref="303684865"/>
    <nd ref="303684866"/>
    <nd ref="26032548"/>
    <tag k="highway" v="motorway"/>
    <tag k="lanes" v="3"/>
    <tag k="maxspeed" v="80"/>
    <tag k="name" v="Calder Freeway"/>
    <tag k="oneway" v="yes"/>
    <tag k="source" v="knowledge"/>
  </way>
  <way id="21560244" version="8" timestamp="2011-01-03T05:09:12Z" uid="371324" user="Rudi Heitbaum" changeset="6846187">
    <nd ref="232079459"/>
    <nd ref="26032547"/>
    <nd ref="303684865"/>
    <nd ref="303684866"/>
    <nd ref="1080119899"/>
    <nd ref="26032548"/>
    <tag k="highway" v="motorway"/>
    <tag k="lanes" v="3"/>
    <tag k="maxspeed" v="80"/>
    <tag k="name" v="Calder Freeway"/>
    <tag k="oneway" v="yes"/>
    <tag k="source" v="knowledge"/>
  </way>
  <way id="21560244" version="9" timestamp="2011-11-21T10:11:57Z" uid="11111" user="melb_guy" changeset="9895355">
    <nd ref="232079459"/>
    <nd ref="26032547"/>
    <nd ref="303684865"/>
    <nd ref="303684866"/>
    <nd ref="1080119899"/>
    <nd ref="1511360337"/>
    <nd ref="1511360115"/>
    <nd ref="26032548"/>
    <tag k="highway" v="motorway"/>
    <tag k="lanes" v="2"/>
    <tag k="maxspeed" v="100"/>
    <tag k="name" v="Calder Freeway"/>
    <tag k="note:maxspeed" v="100 Limit 8pm-5am. 80 Limit 5am - 8pm"/>
    <tag k="oneway" v="yes"/>
  </way>
  <way id="21560244" version="10" timestamp="2011-12-30T23:23:49Z" uid="46482" user="Leon K" changeset="10250812">
    <nd ref="232079459"/>
    <nd ref="26032547"/>
    <nd ref="303684865"/>
    <nd ref="303684866"/>
    <nd ref="1080119899"/>
    <nd ref="1511360337"/>
    <nd ref="1511360115"/>
    <nd ref="26032548"/>
    <tag k="highway" v="motorway"/>
    <tag k="lanes" v="2"/>
    <tag k="maxspeed" v="100"/>
    <tag k="name" v="Calder Freeway"/>
    <tag k="note:maxspeed" v="100 Limit 8pm-5am. 80 Limit 5am - 8pm"/>
    <tag k="oneway" v="yes"/>
    <tag k="ref" v="M79"/>
  </way>
  <way id="21560218" version="9" timestamp="2012-06-11T01:25:29Z" uid="2675" user="Eckhart Wörner" changeset="11860856">
    <nd ref="26032548"/>
    <nd ref="26032549"/>
    <nd ref="1080119901"/>
    <nd ref="26032550"/>
    <tag k="highway" v="motorway"/>
    <tag k="lanes" v="3"/>
    <tag k="maxspeed" v="100"/>
    <tag k="maxspeed:(05:00-20:00)" v="80"/>
    <tag k="name" v="Calder Freeway"/>
    <tag k="oneway" v="yes"/>
    <tag k="ref" v="M79"/>
    <tag k="surface" v="asphalt"/>
  </way>
  <way id="21560218" version="10" timestamp="2012-06-24T06:36:56Z" uid="637652" user="steve91" changeset="11995978">
    <nd ref="26032548"/>
    <nd ref="26032549"/>
    <nd ref="1080119901"/>
    <nd ref="26032550"/>
    <tag k="highway" v="motorway"/>
    <tag k="lanes" v="3"/>
    <tag k="maxspeed" v="80"/>
    <tag k="name" v="Calder Freeway"/>
    <tag k="oneway" v="yes"/>
    <tag k="ref" v="M79"/>
    <tag k="surface" v="asphalt"/>
  </way>
  <way id="21560218" version="11" timestamp="2012-08-12T13:53:03Z" uid="67896" user="mrpulley" changeset="12701897">
    <nd ref="26032548"/>
    <nd ref="26032549"/>
    <nd ref="1080119901"/>
    <nd ref="26032550"/>
    <tag k="highway" v="motorway"/>
    <tag k="lanes" v="3"/>
    <tag k="maxspeed" v="80"/>
    <tag k="name" v="Calder Freeway"/>
    <tag k="oneway" v="yes"/>
    <tag k="ref" v="M79;S40"/>
    <tag k="surface" v="asphalt"/>
  </way>
  <way id="21560232" version="8" timestamp="2012-06-11T01:25:27Z" uid="2675" user="Eckhart Wörner" changeset="11860856">
    <nd ref="26032546"/>
    <nd ref="232079459"/>
    <tag k="bridge" v="yes"/>
    <tag k="highway" v="motorway"/>
    <tag k="lanes" v="2"/>
    <tag k="layer" v="1"/>
    <tag k="maxspeed" v="100"/>
    <tag k="maxspeed:(05:00-20:00)" v="80"/>
    <tag k="name" v="Calder Freeway"/>
    <tag k="oneway" v="yes"/>
  </way>
  <way id="21560232" version="9" timestamp="2012-06-24T06:36:55Z" uid="637652" user="steve91" changeset="11995978">
    <nd ref="26032546"/>
    <nd ref="232079459"/>
    <tag k="bridge" v="yes"/>
    <tag k="highway" v="motorway"/>
    <tag k="lanes" v="2"/>
    <tag k="layer" v="1"/>
    <tag k="maxspeed" v="80"/>
    <tag k="name" v="Calder Freeway"/>
    <tag k="oneway" v="yes"/>
  </way>
  <way id="21560232" version="10" timestamp="2012-07-19T11:11:49Z" uid="722137" user="OSMF Redaction Account" changeset="12320817">
    <nd ref="26032546"/>
    <nd ref="232079459"/>
    <tag k="bridge" v="yes"/>
    <tag k="highway" v="motorway"/>
    <tag k="lanes" v="2"/>
    <tag k="layer" v="1"/>
    <tag k="maxspeed" v="80"/>
    <tag k="name" v="Calder Freeway"/>
    <tag k="oneway" v="true"/>
  </way>
  <way id="21560236" version="14" timestamp="2012-06-24T06:36:54Z" uid="637652" user="steve91" changeset="11995978">
    <nd ref="26120867"/>
    <nd ref="26120866"/>
    <nd ref="1511360297"/>
    <nd ref="560685761"/>
    <nd ref="26120865"/>
    <nd ref="26120863"/>
    <nd ref="303684850"/>
    <nd ref="26118445"/>
    <nd ref="26118442"/>
    <nd ref="26118437"/>
    <nd ref="36047423"/>
    <tag k="highway" v="motorway"/>
    <tag k="lanes" v="3"/>
    <tag k="maxspeed" v="80"/>
    <tag k="name" v="Calder Freeway"/>
    <tag k="oneway" v="yes"/>
    <tag k="ref" v="M79"/>
    <tag k="surface" v="asphalt"/>
  </way>
  <way id="21560236" version="15" timestamp="2012-07-19T11:11:21Z" uid="722137" user="OSMF Redaction Account" changeset="12320817">
    <nd ref="26120867"/>
    <nd ref="26120866"/>
    <nd ref="1511360297"/>
    <nd ref="26120865"/>
    <nd ref="26120863"/>
    <nd ref="303684850"/>
    <nd ref="26118445"/>
    <nd ref="26118442"/>
    <nd ref="26118437"/>
    <nd ref="36047423"/>
    <tag k="highway" v="motorway"/>
    <tag k="lanes" v="3"/>
    <tag k="maxspeed" v="80"/>
    <tag k="name" v="Calder Freeway"/>
    <tag k="oneway" v="true"/>
    <tag k="ref" v="M79"/>
    <tag k="surface" v="asphalt"/>
  </way>
  <way id="21560240" version="7" timestamp="2012-06-11T01:25:28Z" uid="2675" user="Eckhart Wörner" changeset="11860856">
    <nd ref="232079432"/>
    <nd ref="26120867"/>
    <tag k="bridge" v="yes"/>
    <tag k="highway" v="motorway"/>
    <tag k="lanes" v="3"/>
    <tag k="layer" v="1"/>
    <tag k="maxspeed" v="100"/>
    <tag k="maxspeed:(05:00-20:00)" v="80"/>
    <tag k="name" v="Calder Freeway"/>
    <tag k="oneway" v="yes"/>
  </way>
  <way id="21560240" version="8" timestamp="2012-06-24T06:36:55Z" uid="637652" user="steve91" changeset="11995978">
    <nd ref="232079432"/>
    <nd ref="26120867"/>
    <tag k="bridge" v="yes"/>
    <tag k="highway" v="motorway"/>
    <tag k="lanes" v="3"/>
    <tag k="layer" v="1"/>
    <tag k="maxspeed" v="80"/>
    <tag k="name" v="Calder Freeway"/>
    <tag k="oneway" v="yes"/>
  </way>
  <way id="21560240" version="9" timestamp="2012-07-19T11:11:48Z" uid="722137" user="OSMF Redaction Account" changeset="12320817">
    <nd ref="232079432"/>
    <nd ref="26120867"/>
    <tag k="bridge" v="yes"/>
    <tag k="highway" v="motorway"/>
    <tag k="lanes" v="3"/>
    <tag k="layer" v="1"/>
    <tag k="maxspeed" v="80"/>
    <tag k="name" v="Calder Freeway"/>
    <tag k="oneway" v="true"/>
  </way>
  <way id="21560244" version="11" timestamp="2012-06-11T01:25:29Z" uid="2675" user="Eckhart Wörner" changeset="11860856">
    <nd ref="232079459"/>
    <nd ref="26032547"/>
    <nd ref="303684865"/>
    <nd ref="303684866"/>
    <nd ref="1080119899"/>
    <nd ref="1511360337"/>
    <nd ref="1511360115"/>
    <nd ref="26032548"/>
    <tag k="highway" v="motorway"/>
    <tag k="lanes" v="2"/>
    <tag k="maxspeed" v="100"/>
    <tag k="maxspeed:(05:00-20:00)" v="80"/>
    <tag k="name" v="Calder Freeway"/>
    <tag k="oneway" v="yes"/>
    <tag k="ref" v="M79"/>
  </way>
  <way id="21560244" version="12" timestamp="2012-06-24T06:36:56Z" uid="637652" user="steve91" changeset="11995978">
    <nd ref="232079459"/>
    <nd ref="26032547"/>
    <nd ref="303684865"/>
    <nd ref="303684866"/>
    <nd ref="1080119899"/>
    <nd ref="1511360337"/>
    <nd ref="1511360115"/>
    <nd ref="26032548"/>
    <tag k="highway" v="motorway"/>
    <tag k="lanes" v="2"/>
    <tag k="maxspeed" v="80"/>
    <tag k="name" v="Calder Freeway"/>
    <tag k="oneway" v="yes"/>
    <tag k="ref" v="M79"/>
  </way>
  <way id="21560244" version="13" timestamp="2012-07-19T11:11:49Z" uid="722137" user="OSMF Redaction Account" changeset="12320817">
    <nd ref="232079459"/>
    <nd ref="26032547"/>
    <nd ref="303684865"/>
    <nd ref="303684866"/>
    <nd ref="1080119899"/>
    <nd ref="1511360337"/>
    <nd ref="1511360115"/>
    <nd ref="26032548"/>
    <tag k="highway" v="motorway"/>
    <tag k="lanes" v="2"/>
    <tag k="maxspeed" v="80"/>
    <tag k="name" v="Calder Freeway"/>
    <tag k="oneway" v="true"/>
    <tag k="ref" v="M79"/>
  </way>
</osm>
