<?xml version='1.0' encoding='UTF-8'?>
<osm version="0.6" generator="libosmium/2.20.0">
  <way id="21640044" version="6" timestamp="2009-02-14T18:38:29Z" uid="34428" user="usm78-gis" changeset="423562">
    <nd ref="233092209"/>
    <nd ref="233093494"/>
    <tag k="created_by" v="Potlatch 0.7"/>
    <tag k="highway" v="residential"/>
    <tag k="name" v="ул. Металлургов"/>
  </way>
  <way id="21640044" version="7" timestamp="2009-07-14T18:02:28Z" uid="13502" user="Alexander Leschinsky" changeset="1829240">
    <nd ref="233092209"/>
    <nd ref="233093494"/>
    <tag k="created_by" v="Potlatch 0.7"/>
    <tag k="highway" v="residential"/>
    <tag k="name" v="Металлургов ул."/>
  </way>
  <way id="21640044" version="8" timestamp="2009-07-29T03:43:55Z" uid="30590" user="KekcuHa" changeset="1971588">
    <nd ref="233092209"/>
    <nd ref="233093494"/>
    <tag k="addr:postcode" v="196657"/>
    <tag k="cladr:code" v="78000003000005300"/>
    <tag k="cladr:name" v="Металлургов"/>
    <tag k="cladr:suffix" v="Улица"/>
    <tag k="highway" v="residential"/>
    <tag k="name" v="Металлургов ул."/>
  </way>
  <way id="21640044" version="9" timestamp="2009-09-09T08:39:48Z" uid="169046" user="riewe" changeset="2422792">
    <nd ref="233092209"/>
    <nd ref="490671325"/>
    <nd ref="233093494"/>
    <tag k="addr:postcode" v="196657"/>
    <tag k="cladr:code" v="78000003000005300"/>
    <tag k="cladr:name" v="Металлургов"/>
    <tag k="cladr:suffix" v="Улица"/>
    <tag k="highway" v="residential"/>
    <tag k="name" v="Металлургов ул."/>
  </way>
  <way id="21640044" version="10" timestamp="2009-12-10T18:56:37Z" uid="166005" user="Mikado" changeset="3344074">
    <nd ref="233092209"/>
    <nd ref="490671325"/>
    <nd ref="585244157"/>
    <nd ref="233093494"/>
    <tag k="addr:postcode" v="196657"/>
    <tag k="cladr:code" v="78000003000005300"/>
    <tag k="cladr:name" v="Металлургов"/>
    <tag k="cladr:suffix" v="Улица"/>
    <tag k="highway" v="residential"/>
    <tag k="name" v="Металлургов ул."/>
  </way>
  <way id="21640044" version="11" timestamp="2010-06-17T14:59:40Z" uid="127299" user="Batareikin" changeset="5009385">
    <nd ref="233092209"/>
    <nd ref="490671325"/>
    <nd ref="585244157"/>
    <nd ref="233093494"/>
    <tag k="addr:postcode" v="196657"/>
    <tag k="cladr:code" v="78000003000005300"/>
    <tag k="cladr:name" v="Металлургов"/>
    <tag k="cladr:suffix" v="Улица"/>
    <tag k="highway" v="residential"/>
    <tag k="name" v="улица Металлургов"/>
  </way>
  <way id="21640044" version="12" timestamp="2010-12-14T23:15:33Z" uid="383781" user="shambler" changeset="6663671">
    <nd ref="233092209"/>
    <nd ref="490671325"/>
    <nd ref="585244157"/>
    <nd ref="1038748573"/>
    <nd ref="233093494"/>
    <tag k="addr:postcode" v="196657"/>
    <tag k="cladr:code" v="78000003000005300"/>
    <tag k="cladr:name" v="Металлургов"/>
    <tag k="cladr:suffix" v="Улица"/>
    <tag k="highway" v="residential"/>
    <tag k="name" v="улица Металлургов"/>
  </way>
  <way id="21640044" version="13" timestamp="2011-03-03T23:03:50Z" uid="373123" user="serge56" changeset="7450700">
    <nd ref="233092209"/>
    <nd ref="490671325"/>
    <nd ref="585244157"/>
    <nd ref="1038748573"/>
    <nd ref="1185222355"/>
    <nd ref="233093494"/>
    <tag k="addr:postcode" v="196657"/>
    <tag k="cladr:code" v="78000003000005300"/>
    <tag k="cladr:name" v="Металлургов"/>
    <tag k="cladr:suffix" v="Улица"/>
    <tag k="highway" v="residential"/>
    <tag k="name" v="улица Металлургов"/>
  </way>
  <way id="21640044" version="14" timestamp="2011-08-17T22:57:43Z" uid="507989" user="AlexeyM" changeset="9052781">
    <nd ref="233092209"/>
    <nd ref="490671325"/>
    <nd ref="585244157"/>
    <nd ref="1402802165"/>
    <nd ref="1038748573"/>
    <nd ref="1185222355"/>
    <nd ref="233093494"/>
    <tag k="addr:postcode" v="196657"/>
    <tag k="cladr:code" v="78000003000005300"/>
    <tag k="cladr:name" v="Металлургов"/>
    <tag k="cladr:suffix" v="Улица"/>
    <tag k="highway" v="residential"/>
    <tag k="name" v="улица Металлургов"/>
  </way>
  <way id="21640044" version="15" timestamp="2011-09-27T21:46:59Z" uid="143266" user="Sergey Astakhov" changeset="9415123">
    <nd ref="233092209"/>
    <nd ref="490671325"/>
    <nd ref="585244157"/>
    <nd ref="1402802165"/>
    <nd ref="1038748573"/>
    <nd ref="1185222355"/>
    <nd ref="233093494"/>
    <tag k="addr:postcode" v="196657"/>
    <tag k="highway" v="residential"/>
    <tag k="name" v="улица Металлургов"/>
  </way>
  <way id="21640090" version="5" timestamp="2008-06-22T17:25:56Z" uid="34428" user="usm78-gis" changeset="256935">
    <nd ref="60080505"/>
    <nd ref="233096095"/>
    <nd ref="233096096"/>
    <nd ref="233096097"/>
    <nd ref="233096098"/>
    <nd ref="233096100"/>
    <nd ref="233096103"/>
    <nd ref="16819280"/>
    <nd ref="271959583"/>
    <tag k="created_by" v="Potlatch 0.9c"/>
    <tag k="highway" v="residential"/>
  </way>
  <way id="21640090" version="6" timestamp="2008-10-13T01:39:55Z" uid="29918" user="Mirt" changeset="295976">
    <nd ref="304154511"/>
    <nd ref="60080504"/>
    <nd ref="60080505"/>
    <nd ref="233096095"/>
    <nd ref="304154512"/>
    <tag k="created_by" v="Potlatch 0.9c"/>
    <tag k="highway" v="residential"/>
    <tag k="name" v="бул. Победы"/>
  </way>
  <way id="21640090" version="7" timestamp="2009-02-23T12:18:01Z" uid="34428" user="usm78-gis" changeset="634299"/>
  <way id="21640099" version="4" timestamp="2010-07-09T02:45:23Z" uid="74617" user="JohnSmith" changeset="5170713">
    <nd ref="233085484"/>
    <nd ref="357138733"/>
    <nd ref="233085438"/>
    <nd ref="233096470"/>
    <nd ref="233096472"/>
    <nd ref="233096473"/>
    <nd ref="233096474"/>
    <tag k="highway" v="residential"/>
    <tag k="maxspeed" v="50"/>
    <tag k="maxspeed:source" v="default residential speed limit in Australia"/>
    <tag k="name" v="Feathertop Chase"/>
  </way>
  <way id="21640099" version="5" timestamp="2011-01-03T15:05:18Z" uid="4467" user="Rosscoe" changeset="6850694">
    <nd ref="1080564377"/>
    <nd ref="357138733"/>
    <nd ref="233085438"/>
    <nd ref="233096470"/>
    <nd ref="233096472"/>
    <nd ref="233096473"/>
    <nd ref="233096474"/>
    <tag k="highway" v="residential"/>
    <tag k="maxspeed" v="50"/>
    <tag k="maxspeed:source" v="default residential speed limit in Australia"/>
    <tag k="name" v="Feathertop Chase"/>
  </way>
  <way id="21640099" version="6" timestamp="2011-10-16T06:02:48Z" uid="472067" user="pringle" changeset="9569226">
    <nd ref="1080564377"/>
    <nd ref="357138733"/>
    <nd ref="233085438"/>
    <nd ref="1468916614"/>
    <nd ref="233096470"/>
    <nd ref="233096472"/>
    <nd ref="233096473"/>
    <nd ref="233096474"/>
    <tag k="highway" v="residential"/>
    <tag k="maxspeed" v="50"/>
    <tag k="maxspeed:source" v="default residential speed limit in Australia"/>
    <tag k="name" v="Feathertop Chase"/>
  </way>
  <way id="21640099" version="7" timestamp="2012-01-15T21:43:17Z" uid="147510" user="woodpeck_fixbot" changeset="10402983">
    <nd ref="1080564377"/>
    <nd ref="357138733"/>
    <nd ref="233085438"/>
    <nd ref="1468916614"/>
    <nd ref="233096470"/>
    <nd ref="233096472"/>
    <nd ref="233096473"/>
    <nd ref="233096474"/>
    <tag k="highway" v="residential"/>
    <tag k="name" v="Feathertop Chase"/>
  </way>
  <way id="21640156" version="7" timestamp="2010-07-09T02:45:10Z" uid="74617" user="JohnSmith" changeset="5170713">
    <nd ref="233097262"/>
    <nd ref="530289163"/>
    <nd ref="233097263"/>
    <nd ref="233097265"/>
    <nd ref="230153497"/>
    <tag k="highway" v="residential"/>
    <tag k="maxspeed" v="50"/>
    <tag k="maxspeed:source" v="default residential speed limit in Australia"/>
    <tag k="name" v="Cam Street"/>
  </way>
  <way id="21640156" version="8" timestamp="2011-10-16T06:02:48Z" uid="472067" user="pringle" changeset="9569226">
    <nd ref="1468916546"/>
    <nd ref="1468916576"/>
    <nd ref="233097262"/>
    <nd ref="530289163"/>
    <nd ref="233097263"/>
    <nd ref="233097265"/>
    <nd ref="230153497"/>
    <tag k="highway" v="residential"/>
    <tag k="maxspeed" v="50"/>
    <tag k="maxspeed:source" v="default residential speed limit in Australia"/>
    <tag k="name" v="Cam Street"/>
  </way>
  <way id="21640156" version="9" timestamp="2012-01-15T21:43:19Z" uid="147510" user="woodpeck_fixbot" changeset="10402983">
    <nd ref="1468916546"/>
    <nd ref="1468916576"/>
    <nd ref="233097262"/>
    <nd ref="530289163"/>
    <nd ref="233097263"/>
    <nd ref="233097265"/>
    <nd ref="230153497"/>
    <tag k="highway" v="residential"/>
    <tag k="name" v="Cam Street"/>
  </way>
  <way id="21640159" version="4" timestamp="2010-07-09T02:42:50Z" uid="74617" user="JohnSmith" changeset="5170713">
    <nd ref="233096502"/>
    <nd ref="357138858"/>
    <nd ref="233097262"/>
    <tag k="highway" v="residential"/>
    <tag k="maxspeed" v="50"/>
    <tag k="maxspeed:source" v="default residential speed limit in Australia"/>
    <tag k="name" v="Narmara Street"/>
  </way>
  <way id="21640159" version="5" timestamp="2011-01-03T15:05:04Z" uid="4467" user="Rosscoe" changeset="6850694">
    <nd ref="1080564399"/>
    <nd ref="357138858"/>
    <nd ref="233097262"/>
    <tag k="highway" v="residential"/>
    <tag k="maxspeed" v="50"/>
    <tag k="maxspeed:source" v="default residential speed limit in Australia"/>
    <tag k="name" v="Narmara Street"/>
  </way>
  <way id="21640159" version="6" timestamp="2011-10-16T06:02:48Z" uid="472067" user="pringle" changeset="9569226">
    <nd ref="1080564399"/>
    <nd ref="357138858"/>
    <nd ref="1468916599"/>
    <nd ref="233097262"/>
    <tag k="highway" v="residential"/>
    <tag k="maxspeed" v="50"/>
    <tag k="maxspeed:source" v="default residential speed limit in Australia"/>
    <tag k="name" v="Narmara Street"/>
  </way>
  <way id="21640159" version="7" timestamp="2012-01-15T21:43:20Z" uid="147510" user="woodpeck_fixbot" changeset="10402983">
    <nd ref="1080564399"/>
    <nd ref="357138858"/>
    <nd ref="1468916599"/>
    <nd ref="233097262"/>
    <tag k="highway" v="residential"/>
    <tag k="name" v="Narmara Street"/>
  </way>
  <way id="21640252" version="6" timestamp="2009-02-23T13:20:53Z" uid="34428" user="usm78-gis" changeset="634299"/>
  <way id="21640276" version="5" timestamp="2009-02-23T11:38:29Z" uid="34428" user="usm78-gis" changeset="634299"/>
  <way id="21640327" version="4" timestamp="2008-06-20T22:25:44Z" uid="34428" user="usm78-gis" changeset="250112">
    <nd ref="233101416"/>
    <nd ref="233101417"/>
    <nd ref="233101418"/>
    <nd ref="233101419"/>
    <nd ref="233101420"/>
    <nd ref="95045701"/>
    <tag k="created_by" v="Potlatch 0.9c"/>
    <tag k="highway" v="unclassified"/>
  </way>
  <way id="21640327" version="5" timestamp="2011-02-07T20:29:15Z" uid="373123" user="serge56" changeset="7220506">
    <nd ref="233101416"/>
    <nd ref="233101417"/>
    <nd ref="233101418"/>
    <nd ref="233101419"/>
    <nd ref="233101420"/>
    <nd ref="1141222928"/>
    <nd ref="95045701"/>
    <tag k="highway" v="unclassified"/>
  </way>
  <way id="21640522" version="11" timestamp="2010-07-09T03:37:44Z" uid="74617" user="JohnSmith" changeset="5170838">
    <nd ref="42453340"/>
    <nd ref="259146664"/>
    <nd ref="259146238"/>
    <nd ref="259146074"/>
    <nd ref="259146678"/>
    <nd ref="259146122"/>
    <nd ref="259146339"/>
    <nd ref="259146312"/>
    <nd ref="259146073"/>
    <nd ref="32476598"/>
    <nd ref="32476586"/>
    <tag k="highway" v="residential"/>
    <tag k="maxspeed" v="50"/>
    <tag k="maxspeed:source" v="default residential speed limit in Australia"/>
    <tag k="name" v="Paterson Road"/>
  </way>
  <way id="21640522" version="12" timestamp="2010-07-18T05:20:50Z" uid="4467" user="Rosscoe" changeset="5247951">
    <nd ref="42453340"/>
    <nd ref="259146664"/>
    <nd ref="259146238"/>
    <nd ref="259146074"/>
    <nd ref="259146678"/>
    <nd ref="259146122"/>
    <nd ref="259146339"/>
    <nd ref="259146312"/>
    <nd ref="259146073"/>
    <nd ref="32476598"/>
    <tag k="highway" v="residential"/>
    <tag k="maxspeed" v="50"/>
    <tag k="maxspeed:source" v="default residential speed limit in Australia"/>
    <tag k="name" v="Paterson Road"/>
  </way>
  <way id="21640522" version="13" timestamp="2012-01-15T21:43:22Z" uid="147510" user="woodpeck_fixbot" changeset="10402983">
    <nd ref="42453340"/>
    <nd ref="259146664"/>
    <nd ref="259146238"/>
    <nd ref="259146074"/>
    <nd ref="259146678"/>
    <nd ref="259146122"/>
    <nd ref="259146339"/>
    <nd ref="259146312"/>
    <nd ref="259146073"/>
    <nd ref="32476598"/>
    <tag k="highway" v="residential"/>
    <tag k="name" v="Paterson Road"/>
  </way>
  <way id="21640044" version="16" timestamp="2012-07-20T08:23:35Z" uid="722137" user="OSMF Redaction Account" changeset="12368193">
    <nd ref="585244157"/>
    <nd ref="1402802165"/>
    <nd ref="1038748573"/>
    <nd ref="1185222355"/>
    <tag k="addr:postcode" v="196657"/>
    <tag k="name" v="улица Металлургов"/>
  </way>
  <way id="21640044" version="17" timestamp="2012-07-24T17:11:00Z" uid="143266" user="Sergey Astakhov" changeset="12471489">
    <nd ref="1836577729"/>
    <nd ref="1836577731"/>
    <nd ref="585244157"/>
    <nd ref="1402802165"/>
    <nd ref="1038748573"/>
    <nd ref="233093494"/>
    <tag k="highway" v="residential"/>
    <tag k="name" v="улица Металлургов"/>
  </way>
  <way id="21640099" version="8" timestamp="2012-07-19T22:47:42Z" uid="722137" user="OSMF Redaction Account" changeset="12350895">
    <nd ref="357138733"/>
    <nd ref="233085438"/>
    <nd ref="1468916614"/>
    <nd ref="233096470"/>
    <nd ref="233096472"/>
    <nd ref="233096473"/>
    <nd ref="233096474"/>
    <tag k="highway" v="residential"/>
    <tag k="name" v="Feathertop Chase"/>
  </way>
  <way id="21640099" version="9" timestamp="2012-09-07T09:40:46Z" uid="714293" user="nqndwc" changeset="13019812">
    <nd ref="357138733"/>
    <nd ref="233085438"/>
    <nd ref="1468916614"/>
    <nd ref="233096470"/>
    <nd ref="233096472"/>
    <nd ref="1903894363"/>
    <nd ref="233096473"/>
    <nd ref="233096474"/>
    <tag k="highway" v="residential"/>
    <tag k="name" v="Feathertop Chase"/>
  </way>
  <way id="21640156" version="10" timestamp="2012-09-07T09:40:46Z" uid="714293" user="nqndwc" changeset="13019812">
    <nd ref="1468916546"/>
    <nd ref="1468916576"/>
    <nd ref="233097262"/>
    <nd ref="1903894365"/>
    <nd ref="530289163"/>
    <nd ref="233097263"/>
    <nd ref="233097265"/>
    <nd ref="230153497"/>
    <tag k="highway" v="residential"/>
    <tag k="name" v="Cam Street"/>
  </way>
  <way id="21640159" version="8" timestamp="2012-07-19T22:47:41Z" uid="722137" user="OSMF Redaction Account" changeset="12350895">
    <nd ref="357138858"/>
    <nd ref="1468916599"/>
    <nd ref="233097262"/>
    <tag k="highway" v="residential"/>
    <tag k="name" v="Narmara Street"/>
  </way>
  <way id="21640327" version="6" timestamp="2012-07-20T08:19:49Z" uid="722137" user="OSMF Redaction Account" changeset="12368055">
    <nd ref="233101416"/>
    <nd ref="233101420"/>
    <nd ref="1141222928"/>
    <nd ref="95045701"/>
    <tag k="highway" v="unclassified"/>
  </way>
  <way id="21640327" version="7" timestamp="2012-07-20T08:21:27Z" uid="722137" user="OSMF Redaction Account" changeset="12368119"/>
</osm>
