<?xml version='1.0' encoding='UTF-8'?>
<osm version="0.6" generator="libosmium/2.20.0">
  <way id="21712590" version="4" timestamp="2010-02-15T05:07:55Z" uid="74617" user="JohnSmith" changeset="3880242">
    <nd ref="234051808"/>
    <nd ref="206808400"/>
    <nd ref="234051810"/>
    <nd ref="234051811"/>
    <nd ref="234051812"/>
    <nd ref="234051813"/>
    <nd ref="234051814"/>
    <nd ref="234051815"/>
    <nd ref="234051816"/>
    <tag k="highway" v="residential"/>
    <tag k="maxspeed" v="50"/>
    <tag k="name" v="Barrabooka Drive"/>
  </way>
  <way id="21712590" version="5" timestamp="2012-01-15T21:44:20Z" uid="147510" user="woodpeck_fixbot" changeset="10402983">
    <nd ref="234051808"/>
    <nd ref="206808400"/>
    <nd ref="234051810"/>
    <nd ref="234051811"/>
    <nd ref="234051812"/>
    <nd ref="234051813"/>
    <nd ref="234051814"/>
    <nd ref="234051815"/>
    <nd ref="234051816"/>
    <tag k="highway" v="residential"/>
    <tag k="name" v="Barrabooka Drive"/>
  </way>
  <way id="21712639" version="3" timestamp="2010-02-15T05:07:55Z" uid="74617" user="JohnSmith" changeset="3880242">
    <nd ref="206762479"/>
    <nd ref="234052283"/>
    <nd ref="234052284"/>
    <nd ref="234052286"/>
    <nd ref="234052288"/>
    <nd ref="234052289"/>
    <tag k="highway" v="residential"/>
    <tag k="maxspeed" v="50"/>
    <tag k="name" v="Alton Terrace"/>
  </way>
  <way id="21712639" version="4" timestamp="2012-01-15T21:44:22Z" uid="147510" user="woodpeck_fixbot" changeset="10402983">
    <nd ref="206762479"/>
    <nd ref="234052283"/>
    <nd ref="234052284"/>
    <nd ref="234052286"/>
    <nd ref="234052288"/>
    <nd ref="234052289"/>
    <tag k="highway" v="residential"/>
    <tag k="name" v="Alton Terrace"/>
  </way>
  <way id="21712739" version="6" timestamp="2010-02-15T05:07:43Z" uid="74617" user="JohnSmith" changeset="3880242">
    <nd ref="150398553"/>
    <nd ref="234053065"/>
    <nd ref="234052289"/>
    <nd ref="234053067"/>
    <nd ref="234053068"/>
    <nd ref="234053069"/>
    <nd ref="234053071"/>
    <nd ref="234053072"/>
    <nd ref="601103392"/>
    <tag k="highway" v="residential"/>
    <tag k="maxspeed" v="50"/>
    <tag k="name" v="D&apos;Aguilar Road"/>
  </way>
  <way id="21712739" version="7" timestamp="2010-12-04T03:16:12Z" uid="22094" user="Chadzopkyo" changeset="6534090">
    <nd ref="150398553"/>
    <nd ref="234052289"/>
    <nd ref="234053067"/>
    <nd ref="234053068"/>
    <nd ref="234053069"/>
    <nd ref="234053071"/>
    <nd ref="234053072"/>
    <nd ref="601103392"/>
    <tag k="highway" v="residential"/>
    <tag k="maxspeed" v="50"/>
    <tag k="name" v="D&apos;Aguilar Road"/>
  </way>
  <way id="21712739" version="8" timestamp="2012-01-15T21:44:23Z" uid="147510" user="woodpeck_fixbot" changeset="10402983">
    <nd ref="150398553"/>
    <nd ref="234052289"/>
    <nd ref="234053067"/>
    <nd ref="234053068"/>
    <nd ref="234053069"/>
    <nd ref="234053071"/>
    <nd ref="234053072"/>
    <nd ref="601103392"/>
    <tag k="highway" v="residential"/>
    <tag k="name" v="D&apos;Aguilar Road"/>
  </way>
  <way id="21712784" version="3" timestamp="2010-02-15T05:07:54Z" uid="74617" user="JohnSmith" changeset="3880242">
    <nd ref="234053067"/>
    <nd ref="234051816"/>
    <nd ref="206808232"/>
    <tag k="highway" v="residential"/>
    <tag k="maxspeed" v="50"/>
    <tag k="name" v="Kalimna Street"/>
  </way>
  <way id="21712784" version="4" timestamp="2012-01-15T21:44:24Z" uid="147510" user="woodpeck_fixbot" changeset="10402983">
    <nd ref="234053067"/>
    <nd ref="234051816"/>
    <nd ref="206808232"/>
    <tag k="highway" v="residential"/>
    <tag k="name" v="Kalimna Street"/>
  </way>
  <way id="21712829" version="4" timestamp="2010-02-15T05:07:57Z" uid="74617" user="JohnSmith" changeset="3880242">
    <nd ref="150395479"/>
    <nd ref="234054588"/>
    <nd ref="234054218"/>
    <nd ref="234053068"/>
    <nd ref="234051814"/>
    <tag k="highway" v="residential"/>
    <tag k="maxspeed" v="50"/>
    <tag k="name" v="Glen Road"/>
  </way>
  <way id="21712829" version="5" timestamp="2012-01-15T21:44:28Z" uid="147510" user="woodpeck_fixbot" changeset="10402983">
    <nd ref="150395479"/>
    <nd ref="234054588"/>
    <nd ref="234054218"/>
    <nd ref="234053068"/>
    <nd ref="234051814"/>
    <tag k="highway" v="residential"/>
    <tag k="name" v="Glen Road"/>
  </way>
  <way id="21712867" version="4" timestamp="2010-02-15T05:07:43Z" uid="74617" user="JohnSmith" changeset="3880242">
    <nd ref="234054588"/>
    <nd ref="601104413"/>
    <nd ref="234054712"/>
    <tag k="highway" v="residential"/>
    <tag k="maxspeed" v="50"/>
    <tag k="name" v="Payne Road"/>
    <tag k="oneway" v="yes"/>
  </way>
  <way id="21712867" version="5" timestamp="2012-01-15T21:44:30Z" uid="147510" user="woodpeck_fixbot" changeset="10402983">
    <nd ref="234054588"/>
    <nd ref="601104413"/>
    <nd ref="234054712"/>
    <tag k="highway" v="residential"/>
    <tag k="name" v="Payne Road"/>
    <tag k="oneway" v="yes"/>
  </way>
  <way id="21712898" version="3" timestamp="2010-02-15T05:07:57Z" uid="74617" user="JohnSmith" changeset="3880242">
    <nd ref="234054218"/>
    <nd ref="234054977"/>
    <nd ref="234054978"/>
    <tag k="highway" v="residential"/>
    <tag k="maxspeed" v="50"/>
    <tag k="name" v="Buckara Street"/>
  </way>
  <way id="21712898" version="4" timestamp="2012-01-15T21:44:31Z" uid="147510" user="woodpeck_fixbot" changeset="10402983">
    <nd ref="234054218"/>
    <nd ref="234054977"/>
    <nd ref="234054978"/>
    <tag k="highway" v="residential"/>
    <tag k="name" v="Buckara Street"/>
  </way>
  <way id="21712933" version="4" timestamp="2010-02-15T05:07:54Z" uid="74617" user="JohnSmith" changeset="3880242">
    <nd ref="234053069"/>
    <nd ref="234051812"/>
    <tag k="highway" v="residential"/>
    <tag k="maxspeed" v="50"/>
    <tag k="name" v="Kendi Street"/>
  </way>
  <way id="21712933" version="5" timestamp="2012-01-15T21:44:32Z" uid="147510" user="woodpeck_fixbot" changeset="10402983">
    <nd ref="234053069"/>
    <nd ref="234051812"/>
    <tag k="highway" v="residential"/>
    <tag k="name" v="Kendi Street"/>
  </way>
  <way id="21712968" version="3" timestamp="2010-02-15T05:07:56Z" uid="74617" user="JohnSmith" changeset="3880242">
    <nd ref="234051811"/>
    <nd ref="234055623"/>
    <tag k="highway" v="residential"/>
    <tag k="maxspeed" v="50"/>
    <tag k="name" v="Tallawong Place"/>
  </way>
  <way id="21712968" version="4" timestamp="2012-01-15T21:44:33Z" uid="147510" user="woodpeck_fixbot" changeset="10402983">
    <nd ref="234051811"/>
    <nd ref="234055623"/>
    <tag k="highway" v="residential"/>
    <tag k="name" v="Tallawong Place"/>
  </way>
  <way id="21712975" version="4" timestamp="2010-02-15T05:07:56Z" uid="74617" user="JohnSmith" changeset="3880242">
    <nd ref="234051810"/>
    <nd ref="234055732"/>
    <tag k="highway" v="residential"/>
    <tag k="maxspeed" v="50"/>
    <tag k="name" v="Kimmuli Place"/>
  </way>
  <way id="21712975" version="5" timestamp="2012-01-15T21:44:35Z" uid="147510" user="woodpeck_fixbot" changeset="10402983">
    <nd ref="234051810"/>
    <nd ref="234055732"/>
    <tag k="highway" v="residential"/>
    <tag k="name" v="Kimmuli Place"/>
  </way>
</osm>
