<?xml version='1.0' encoding='UTF-8'?>
<osm version="0.6" generator="libosmium/2.20.0">
  <way id="21819874" version="2" timestamp="2008-10-26T17:06:03Z" uid="31056" user="vctos" changeset="585553">
    <nd ref="235209496"/>
    <nd ref="235209517"/>
    <nd ref="235209539"/>
    <nd ref="235209563"/>
    <nd ref="235209577"/>
    <nd ref="235209584"/>
    <nd ref="235209606"/>
    <nd ref="235209627"/>
    <nd ref="235209638"/>
    <nd ref="235209657"/>
    <nd ref="235209675"/>
    <nd ref="235209691"/>
    <nd ref="235209709"/>
    <nd ref="235209730"/>
    <nd ref="235209751"/>
    <nd ref="235209775"/>
    <nd ref="235209790"/>
    <nd ref="235209809"/>
    <nd ref="235209828"/>
    <nd ref="235209865"/>
    <nd ref="235209496"/>
    <tag k="created_by" v="Potlatch 0.10e"/>
    <tag k="is_in" v="Solares,Medio Cudeyo,Cantabria,España"/>
    <tag k="landuse" v="industrial"/>
    <tag k="name" v="Agua de Solares"/>
  </way>
  <way id="21819874" version="3" timestamp="2009-02-13T09:42:19Z" uid="6389" user="Jesús Gómez" changeset="388345">
    <nd ref="235209496"/>
    <nd ref="235209517"/>
    <nd ref="235209539"/>
    <nd ref="235209563"/>
    <nd ref="235209577"/>
    <nd ref="235209584"/>
    <nd ref="235209606"/>
    <nd ref="235209627"/>
    <nd ref="235209638"/>
    <nd ref="235209657"/>
    <nd ref="235209675"/>
    <nd ref="235209691"/>
    <nd ref="235209709"/>
    <nd ref="235209730"/>
    <nd ref="235209751"/>
    <nd ref="235209775"/>
    <nd ref="235209790"/>
    <nd ref="235209809"/>
    <nd ref="235209828"/>
    <nd ref="235209865"/>
    <nd ref="235209496"/>
    <tag k="building" v="yes"/>
    <tag k="created_by" v="Potlatch 0.10e"/>
    <tag k="is_in" v="Solares,Medio Cudeyo,Cantabria,España"/>
    <tag k="landuse" v="industrial"/>
    <tag k="name" v="Agua de Solares"/>
  </way>
  <way id="21819874" version="4" timestamp="2009-02-28T09:56:18Z" uid="2904" user="Emilio Gomez" changeset="693015">
    <nd ref="235209496"/>
    <nd ref="235209517"/>
    <nd ref="235209539"/>
    <nd ref="235209563"/>
    <nd ref="235209577"/>
    <nd ref="235209584"/>
    <nd ref="235209606"/>
    <nd ref="235209627"/>
    <nd ref="235209638"/>
    <nd ref="235209657"/>
    <nd ref="235209675"/>
    <nd ref="235209691"/>
    <nd ref="235209709"/>
    <nd ref="235209730"/>
    <nd ref="235209751"/>
    <nd ref="235209775"/>
    <nd ref="235209790"/>
    <nd ref="235209809"/>
    <nd ref="235209828"/>
    <nd ref="235209865"/>
    <nd ref="235209496"/>
    <tag k="addr:country" v="ES"/>
    <tag k="building" v="yes"/>
    <tag k="created_by" v="Potlatch 0.10e"/>
    <tag k="is_in" v="Solares,Medio Cudeyo,Cantabria,España"/>
    <tag k="landuse" v="industrial"/>
    <tag k="name" v="Agua de Solares"/>
  </way>
  <way id="21819874" version="5" timestamp="2009-03-26T18:04:14Z" uid="6389" user="Jesús Gómez" changeset="861289">
    <nd ref="235209496"/>
    <nd ref="235209517"/>
    <nd ref="235209539"/>
    <nd ref="235209563"/>
    <nd ref="235209577"/>
    <nd ref="235209584"/>
    <nd ref="235209606"/>
    <nd ref="235209627"/>
    <nd ref="235209638"/>
    <nd ref="235209657"/>
    <nd ref="235209675"/>
    <nd ref="235209691"/>
    <nd ref="235209709"/>
    <nd ref="235209730"/>
    <nd ref="235209751"/>
    <nd ref="235209775"/>
    <nd ref="235209790"/>
    <nd ref="235209809"/>
    <nd ref="235209828"/>
    <nd ref="235209865"/>
    <nd ref="235209496"/>
    <tag k="addr:country" v="ES"/>
    <tag k="building" v="yes"/>
    <tag k="created_by" v="Potlatch 0.10e"/>
    <tag k="is_in" v="Solares,Medio Cudeyo,Cantabria,España"/>
    <tag k="landuse" v="industrial"/>
    <tag k="man_made" v="works"/>
    <tag k="name" v="Agua de Solares"/>
  </way>
  <way id="21819874" version="6" timestamp="2009-11-28T21:14:42Z" uid="26599" user="cdavila" changeset="3240498">
    <nd ref="235209496"/>
    <nd ref="235209517"/>
    <nd ref="235209539"/>
    <nd ref="235209563"/>
    <nd ref="235209577"/>
    <nd ref="235209584"/>
    <nd ref="235209606"/>
    <nd ref="235209627"/>
    <nd ref="235209638"/>
    <nd ref="235209657"/>
    <nd ref="235209675"/>
    <nd ref="235209691"/>
    <nd ref="235209709"/>
    <nd ref="235209730"/>
    <nd ref="235209751"/>
    <nd ref="235209775"/>
    <nd ref="235209790"/>
    <nd ref="235209809"/>
    <nd ref="235209828"/>
    <nd ref="235209865"/>
    <nd ref="235209496"/>
    <tag k="addr:country" v="ES"/>
    <tag k="building" v="yes"/>
    <tag k="is_in" v="Solares,Medio Cudeyo,Cantabria,España"/>
    <tag k="is_in:continent" v="Europe"/>
    <tag k="is_in:country" v="España"/>
    <tag k="is_in:municipality" v="Medio Cudeyo"/>
    <tag k="is_in:province" v="Cantabria"/>
    <tag k="is_in:region" v="Cantabria"/>
    <tag k="landuse" v="industrial"/>
    <tag k="man_made" v="works"/>
    <tag k="name" v="Agua de Solares"/>
  </way>
  <way id="21819874" version="7" timestamp="2009-11-28T21:29:49Z" uid="26599" user="cdavila" changeset="3240645">
    <nd ref="235209496"/>
    <nd ref="235209517"/>
    <nd ref="235209539"/>
    <nd ref="235209563"/>
    <nd ref="235209577"/>
    <nd ref="235209584"/>
    <nd ref="235209606"/>
    <nd ref="235209627"/>
    <nd ref="235209638"/>
    <nd ref="235209657"/>
    <nd ref="235209675"/>
    <nd ref="235209691"/>
    <nd ref="235209709"/>
    <nd ref="235209730"/>
    <nd ref="235209751"/>
    <nd ref="235209775"/>
    <nd ref="235209790"/>
    <nd ref="235209809"/>
    <nd ref="235209828"/>
    <nd ref="235209865"/>
    <nd ref="235209496"/>
    <tag k="addr:country" v="ES"/>
    <tag k="building" v="yes"/>
    <tag k="is_in" v="Solares;Medio Cudeyo;Cantabria;Cantabria;España;Europe"/>
    <tag k="is_in:continent" v="Europe"/>
    <tag k="is_in:country" v="España"/>
    <tag k="is_in:municipality" v="Medio Cudeyo"/>
    <tag k="is_in:province" v="Cantabria"/>
    <tag k="is_in:region" v="Cantabria"/>
    <tag k="landuse" v="industrial"/>
    <tag k="man_made" v="works"/>
    <tag k="name" v="Agua de Solares"/>
  </way>
  <way id="21819874" version="8" timestamp="2011-03-25T09:53:55Z" uid="2904" user="Emilio Gomez" changeset="7664031">
    <nd ref="235209496"/>
    <nd ref="235209517"/>
    <nd ref="235209539"/>
    <nd ref="235209563"/>
    <nd ref="235209577"/>
    <nd ref="235209584"/>
    <nd ref="235209606"/>
    <nd ref="235209627"/>
    <nd ref="235209638"/>
    <nd ref="235209657"/>
    <nd ref="235209675"/>
    <nd ref="235209691"/>
    <nd ref="235209709"/>
    <nd ref="235209730"/>
    <nd ref="235209751"/>
    <nd ref="235209775"/>
    <nd ref="235209790"/>
    <nd ref="235209809"/>
    <nd ref="235209828"/>
    <nd ref="235209865"/>
    <nd ref="235209496"/>
    <tag k="addr:city" v="Solares"/>
    <tag k="addr:country" v="ES"/>
    <tag k="addr:postcode" v="39710"/>
    <tag k="addr:street" v="Paseo de la Virgen del Pilar"/>
    <tag k="building" v="yes"/>
    <tag k="is_in" v="Solares;Medio Cudeyo;Cantabria;Cantabria;España;Europe"/>
    <tag k="is_in:continent" v="Europe"/>
    <tag k="is_in:country" v="España"/>
    <tag k="is_in:municipality" v="Medio Cudeyo"/>
    <tag k="is_in:province" v="Cantabria"/>
    <tag k="is_in:region" v="Cantabria"/>
    <tag k="landuse" v="industrial"/>
    <tag k="man_made" v="works"/>
    <tag k="name" v="Agua de Solares"/>
  </way>
</osm>
