<?xml version='1.0' encoding='UTF-8'?>
<osm version="0.6" generator="libosmium/2.20.0">
  <way id="21962179" version="14" timestamp="2010-04-05T09:03:16Z" uid="74617" user="JohnSmith" changeset="4330247">
    <nd ref="232043082"/>
    <nd ref="26032551"/>
    <nd ref="26032552"/>
    <nd ref="236890877"/>
    <nd ref="236890957"/>
    <nd ref="236890956"/>
    <nd ref="236890955"/>
    <nd ref="236890954"/>
    <nd ref="236890952"/>
    <nd ref="236890951"/>
    <nd ref="236890950"/>
    <nd ref="236890948"/>
    <nd ref="236861370"/>
    <nd ref="236861369"/>
    <nd ref="236861368"/>
    <nd ref="236861367"/>
    <nd ref="236861366"/>
    <nd ref="236861365"/>
    <nd ref="236861364"/>
    <nd ref="236861363"/>
    <nd ref="236861359"/>
    <nd ref="236861358"/>
    <nd ref="236861356"/>
    <nd ref="236861354"/>
    <nd ref="236861352"/>
    <nd ref="236861350"/>
    <nd ref="236678392"/>
    <nd ref="236678391"/>
    <nd ref="236678390"/>
    <nd ref="236678389"/>
    <nd ref="236675557"/>
    <nd ref="236675556"/>
    <tag k="highway" v="motorway"/>
    <tag k="lanes" v="3"/>
    <tag k="maxspeed" v="100"/>
    <tag k="name" v="Calder Freeway"/>
    <tag k="oneway" v="yes"/>
    <tag k="ref" v="M40"/>
    <tag k="source" v="yahoo"/>
    <tag k="source:name" v="survey"/>
  </way>
  <way id="21962179" version="15" timestamp="2010-04-05T09:45:57Z" uid="74617" user="JohnSmith" changeset="4330839">
    <nd ref="232043082"/>
    <nd ref="26032551"/>
    <nd ref="26032552"/>
    <nd ref="236890877"/>
    <nd ref="236890957"/>
    <nd ref="236890956"/>
    <nd ref="236890955"/>
    <nd ref="236890954"/>
    <nd ref="236890952"/>
    <nd ref="236890951"/>
    <nd ref="236890950"/>
    <nd ref="236890948"/>
    <nd ref="236861370"/>
    <nd ref="236861369"/>
    <nd ref="236861368"/>
    <nd ref="236861367"/>
    <nd ref="236861366"/>
    <nd ref="236861365"/>
    <nd ref="236861364"/>
    <nd ref="236861363"/>
    <nd ref="236861359"/>
    <nd ref="236861358"/>
    <nd ref="236861356"/>
    <nd ref="236861354"/>
    <nd ref="236861352"/>
    <nd ref="236861350"/>
    <nd ref="236678392"/>
    <nd ref="236678391"/>
    <nd ref="236678390"/>
    <nd ref="236678389"/>
    <nd ref="236675557"/>
    <nd ref="236675556"/>
    <tag k="highway" v="motorway"/>
    <tag k="lanes" v="3"/>
    <tag k="maxspeed" v="100"/>
    <tag k="name" v="Calder Freeway"/>
    <tag k="oneway" v="yes"/>
    <tag k="source" v="yahoo"/>
    <tag k="source:name" v="survey"/>
  </way>
  <way id="21962179" version="16" timestamp="2011-11-21T10:11:59Z" uid="11111" user="melb_guy" changeset="9895355">
    <nd ref="232043082"/>
    <nd ref="1511360292"/>
    <nd ref="1511360325"/>
    <nd ref="26032551"/>
    <nd ref="26032552"/>
    <nd ref="236890877"/>
    <nd ref="236890954"/>
    <nd ref="1511360168"/>
    <nd ref="236890952"/>
    <nd ref="236890951"/>
    <nd ref="1511360237"/>
    <nd ref="236890950"/>
    <nd ref="1511360209"/>
    <nd ref="236890948"/>
    <nd ref="236861370"/>
    <nd ref="236861369"/>
    <nd ref="236861368"/>
    <nd ref="236861367"/>
    <nd ref="236861366"/>
    <nd ref="1511360316"/>
    <nd ref="236861365"/>
    <nd ref="236861364"/>
    <nd ref="1511360172"/>
    <nd ref="236861363"/>
    <nd ref="1511360249"/>
    <tag k="highway" v="motorway"/>
    <tag k="lanes" v="3"/>
    <tag k="maxspeed" v="100"/>
    <tag k="name" v="Calder Freeway"/>
    <tag k="note:maxspeed" v="100 Limit 8pm-5am. 80 Limit 5am - 8pm"/>
    <tag k="oneway" v="yes"/>
    <tag k="surface" v="asphalt"/>
  </way>
  <way id="21962179" version="17" timestamp="2011-12-30T23:23:51Z" uid="46482" user="Leon K" changeset="10250812">
    <nd ref="232043082"/>
    <nd ref="1511360292"/>
    <nd ref="1511360325"/>
    <nd ref="26032551"/>
    <nd ref="26032552"/>
    <nd ref="236890877"/>
    <nd ref="236890954"/>
    <nd ref="1511360168"/>
    <nd ref="236890952"/>
    <nd ref="236890951"/>
    <nd ref="1511360237"/>
    <nd ref="236890950"/>
    <nd ref="1511360209"/>
    <nd ref="236890948"/>
    <nd ref="236861370"/>
    <nd ref="236861369"/>
    <nd ref="236861368"/>
    <nd ref="236861367"/>
    <nd ref="236861366"/>
    <nd ref="1511360316"/>
    <nd ref="236861365"/>
    <nd ref="236861364"/>
    <nd ref="1511360172"/>
    <nd ref="236861363"/>
    <nd ref="1511360249"/>
    <tag k="highway" v="motorway"/>
    <tag k="lanes" v="3"/>
    <tag k="maxspeed" v="100"/>
    <tag k="name" v="Calder Freeway"/>
    <tag k="note:maxspeed" v="100 Limit 8pm-5am. 80 Limit 5am - 8pm"/>
    <tag k="oneway" v="yes"/>
    <tag k="ref" v="M79"/>
    <tag k="surface" v="asphalt"/>
  </way>
  <way id="21962181" version="7" timestamp="2010-04-05T09:03:20Z" uid="74617" user="JohnSmith" changeset="4330247">
    <nd ref="236675556"/>
    <nd ref="236675554"/>
    <tag k="bridge" v="yes"/>
    <tag k="highway" v="motorway"/>
    <tag k="layer" v="1"/>
    <tag k="maxspeed" v="100"/>
    <tag k="oneway" v="yes"/>
    <tag k="ref" v="M40"/>
    <tag k="source" v="yahoo"/>
    <tag k="source:name" v="survey"/>
  </way>
  <way id="21962181" version="8" timestamp="2010-04-05T09:46:13Z" uid="74617" user="JohnSmith" changeset="4330839">
    <nd ref="236675556"/>
    <nd ref="236675554"/>
    <tag k="bridge" v="yes"/>
    <tag k="highway" v="motorway"/>
    <tag k="layer" v="1"/>
    <tag k="maxspeed" v="100"/>
    <tag k="oneway" v="yes"/>
    <tag k="source" v="yahoo"/>
    <tag k="source:name" v="survey"/>
  </way>
  <way id="21962181" version="9" timestamp="2011-07-05T12:15:17Z" uid="46482" user="Leon K" changeset="8638516">
    <nd ref="236675556"/>
    <nd ref="236675554"/>
    <tag k="bridge" v="yes"/>
    <tag k="highway" v="motorway"/>
    <tag k="layer" v="1"/>
    <tag k="maxspeed" v="100"/>
    <tag k="name" v="Calder Freeway"/>
    <tag k="oneway" v="yes"/>
    <tag k="source" v="yahoo"/>
    <tag k="source:name" v="survey"/>
  </way>
  <way id="21962181" version="10" timestamp="2011-12-30T23:23:52Z" uid="46482" user="Leon K" changeset="10250812">
    <nd ref="236675556"/>
    <nd ref="236675554"/>
    <tag k="bridge" v="yes"/>
    <tag k="highway" v="motorway"/>
    <tag k="layer" v="1"/>
    <tag k="maxspeed" v="100"/>
    <tag k="name" v="Calder Freeway"/>
    <tag k="oneway" v="yes"/>
    <tag k="ref" v="M79"/>
    <tag k="source" v="yahoo"/>
    <tag k="source:name" v="survey"/>
  </way>
  <way id="21962184" version="8" timestamp="2010-04-05T09:03:20Z" uid="74617" user="JohnSmith" changeset="4330247">
    <nd ref="236675554"/>
    <nd ref="236675552"/>
    <tag k="highway" v="motorway"/>
    <tag k="maxspeed" v="100"/>
    <tag k="oneway" v="yes"/>
    <tag k="ref" v="M40"/>
    <tag k="source" v="yahoo"/>
    <tag k="source:name" v="survey"/>
  </way>
  <way id="21962184" version="9" timestamp="2010-04-05T09:46:14Z" uid="74617" user="JohnSmith" changeset="4330839">
    <nd ref="236675554"/>
    <nd ref="236675552"/>
    <tag k="highway" v="motorway"/>
    <tag k="maxspeed" v="100"/>
    <tag k="oneway" v="yes"/>
    <tag k="source" v="yahoo"/>
    <tag k="source:name" v="survey"/>
  </way>
  <way id="21962184" version="10" timestamp="2011-07-05T12:15:17Z" uid="46482" user="Leon K" changeset="8638516">
    <nd ref="236675554"/>
    <nd ref="236675552"/>
    <tag k="highway" v="motorway"/>
    <tag k="maxspeed" v="100"/>
    <tag k="name" v="Calder Freeway"/>
    <tag k="oneway" v="yes"/>
    <tag k="source" v="yahoo"/>
    <tag k="source:name" v="survey"/>
  </way>
  <way id="21962184" version="11" timestamp="2011-12-30T23:23:52Z" uid="46482" user="Leon K" changeset="10250812">
    <nd ref="236675554"/>
    <nd ref="236675552"/>
    <tag k="highway" v="motorway"/>
    <tag k="maxspeed" v="100"/>
    <tag k="name" v="Calder Freeway"/>
    <tag k="oneway" v="yes"/>
    <tag k="ref" v="M79"/>
    <tag k="source" v="yahoo"/>
    <tag k="source:name" v="survey"/>
  </way>
  <way id="21962193" version="8" timestamp="2010-04-05T09:03:20Z" uid="74617" user="JohnSmith" changeset="4330247">
    <nd ref="236675552"/>
    <nd ref="236674778"/>
    <tag k="bridge" v="yes"/>
    <tag k="highway" v="motorway"/>
    <tag k="layer" v="1"/>
    <tag k="maxspeed" v="100"/>
    <tag k="oneway" v="yes"/>
    <tag k="ref" v="M40"/>
    <tag k="source" v="yahoo"/>
    <tag k="source:name" v="survey"/>
  </way>
  <way id="21962193" version="9" timestamp="2010-04-05T09:46:14Z" uid="74617" user="JohnSmith" changeset="4330839">
    <nd ref="236675552"/>
    <nd ref="236674778"/>
    <tag k="bridge" v="yes"/>
    <tag k="highway" v="motorway"/>
    <tag k="layer" v="1"/>
    <tag k="maxspeed" v="100"/>
    <tag k="oneway" v="yes"/>
    <tag k="source" v="yahoo"/>
    <tag k="source:name" v="survey"/>
  </way>
  <way id="21962193" version="10" timestamp="2011-07-05T12:15:17Z" uid="46482" user="Leon K" changeset="8638516">
    <nd ref="236675552"/>
    <nd ref="236674778"/>
    <tag k="bridge" v="yes"/>
    <tag k="highway" v="motorway"/>
    <tag k="layer" v="1"/>
    <tag k="maxspeed" v="100"/>
    <tag k="name" v="Calder Freeway"/>
    <tag k="oneway" v="yes"/>
    <tag k="source" v="yahoo"/>
    <tag k="source:name" v="survey"/>
  </way>
  <way id="21962204" version="6" timestamp="2010-04-05T09:03:21Z" uid="74617" user="JohnSmith" changeset="4330247">
    <nd ref="236674778"/>
    <nd ref="236674776"/>
    <tag k="highway" v="motorway"/>
    <tag k="maxspeed" v="100"/>
    <tag k="oneway" v="yes"/>
    <tag k="ref" v="M40"/>
    <tag k="source" v="yahoo"/>
    <tag k="source:name" v="survey"/>
  </way>
  <way id="21962204" version="7" timestamp="2010-04-05T09:46:15Z" uid="74617" user="JohnSmith" changeset="4330839">
    <nd ref="236674778"/>
    <nd ref="236674776"/>
    <tag k="highway" v="motorway"/>
    <tag k="maxspeed" v="100"/>
    <tag k="oneway" v="yes"/>
    <tag k="source" v="yahoo"/>
    <tag k="source:name" v="survey"/>
  </way>
  <way id="21962204" version="8" timestamp="2011-07-05T12:15:18Z" uid="46482" user="Leon K" changeset="8638516">
    <nd ref="236674778"/>
    <nd ref="236674776"/>
    <tag k="highway" v="motorway"/>
    <tag k="maxspeed" v="100"/>
    <tag k="name" v="Calder Freeway"/>
    <tag k="oneway" v="yes"/>
    <tag k="source" v="yahoo"/>
    <tag k="source:name" v="survey"/>
  </way>
  <way id="21962204" version="9" timestamp="2011-12-30T23:23:53Z" uid="46482" user="Leon K" changeset="10250812">
    <nd ref="236674778"/>
    <nd ref="236674776"/>
    <tag k="highway" v="motorway"/>
    <tag k="maxspeed" v="100"/>
    <tag k="name" v="Calder Freeway"/>
    <tag k="oneway" v="yes"/>
    <tag k="ref" v="M79"/>
    <tag k="source" v="yahoo"/>
    <tag k="source:name" v="survey"/>
  </way>
  <way id="21962212" version="6" timestamp="2010-04-05T09:03:21Z" uid="74617" user="JohnSmith" changeset="4330247">
    <nd ref="236674776"/>
    <nd ref="236674774"/>
    <tag k="bridge" v="yes"/>
    <tag k="highway" v="motorway"/>
    <tag k="layer" v="1"/>
    <tag k="maxspeed" v="100"/>
    <tag k="oneway" v="yes"/>
    <tag k="ref" v="M40"/>
    <tag k="source" v="yahoo"/>
    <tag k="source:name" v="survey"/>
  </way>
  <way id="21962212" version="7" timestamp="2010-04-05T09:46:13Z" uid="74617" user="JohnSmith" changeset="4330839">
    <nd ref="236674776"/>
    <nd ref="236674774"/>
    <tag k="bridge" v="yes"/>
    <tag k="highway" v="motorway"/>
    <tag k="layer" v="1"/>
    <tag k="maxspeed" v="100"/>
    <tag k="oneway" v="yes"/>
    <tag k="source" v="yahoo"/>
    <tag k="source:name" v="survey"/>
  </way>
  <way id="21962212" version="8" timestamp="2011-07-05T12:15:18Z" uid="46482" user="Leon K" changeset="8638516">
    <nd ref="236674776"/>
    <nd ref="236674774"/>
    <tag k="bridge" v="yes"/>
    <tag k="highway" v="motorway"/>
    <tag k="layer" v="1"/>
    <tag k="maxspeed" v="100"/>
    <tag k="name" v="Calder Freeway"/>
    <tag k="oneway" v="yes"/>
    <tag k="source" v="yahoo"/>
    <tag k="source:name" v="survey"/>
  </way>
  <way id="21962212" version="9" timestamp="2011-12-30T23:23:53Z" uid="46482" user="Leon K" changeset="10250812">
    <nd ref="236674776"/>
    <nd ref="236674774"/>
    <tag k="bridge" v="yes"/>
    <tag k="highway" v="motorway"/>
    <tag k="layer" v="1"/>
    <tag k="maxspeed" v="100"/>
    <tag k="name" v="Calder Freeway"/>
    <tag k="oneway" v="yes"/>
    <tag k="ref" v="M79"/>
    <tag k="source" v="yahoo"/>
    <tag k="source:name" v="survey"/>
  </way>
  <way id="21962179" version="18" timestamp="2012-06-11T01:25:28Z" uid="2675" user="Eckhart WÃ¶rner" changeset="11860856">
    <nd ref="232043082"/>
    <nd ref="1511360292"/>
    <nd ref="1511360325"/>
    <nd ref="26032551"/>
    <nd ref="26032552"/>
    <nd ref="236890877"/>
    <nd ref="236890954"/>
    <nd ref="1511360168"/>
    <nd ref="236890952"/>
    <nd ref="236890951"/>
    <nd ref="1511360237"/>
    <nd ref="236890950"/>
    <nd ref="1511360209"/>
    <nd ref="236890948"/>
    <nd ref="236861370"/>
    <nd ref="236861369"/>
    <nd ref="236861368"/>
    <nd ref="236861367"/>
    <nd ref="236861366"/>
    <nd ref="1511360316"/>
    <nd ref="236861365"/>
    <nd ref="236861364"/>
    <nd ref="1511360172"/>
    <nd ref="236861363"/>
    <nd ref="1511360249"/>
    <tag k="highway" v="motorway"/>
    <tag k="lanes" v="3"/>
    <tag k="maxspeed" v="100"/>
    <tag k="maxspeed:(05:00-20:00)" v="80"/>
    <tag k="name" v="Calder Freeway"/>
    <tag k="oneway" v="yes"/>
    <tag k="ref" v="M79"/>
    <tag k="surface" v="asphalt"/>
  </way>
  <way id="21962179" version="19" timestamp="2012-06-24T06:36:56Z" uid="637652" user="steve91" changeset="11995978">
    <nd ref="232043082"/>
    <nd ref="1511360292"/>
    <nd ref="1511360325"/>
    <nd ref="26032551"/>
    <nd ref="26032552"/>
    <nd ref="236890877"/>
    <nd ref="236890954"/>
    <nd ref="1511360168"/>
    <nd ref="236890952"/>
    <nd ref="236890951"/>
    <nd ref="1511360237"/>
    <nd ref="236890950"/>
    <nd ref="1511360209"/>
    <nd ref="236890948"/>
    <nd ref="236861370"/>
    <nd ref="236861369"/>
    <nd ref="236861368"/>
    <nd ref="236861367"/>
    <nd ref="236861366"/>
    <nd ref="1511360316"/>
    <nd ref="236861365"/>
    <nd ref="236861364"/>
    <nd ref="1511360172"/>
    <nd ref="236861363"/>
    <nd ref="1511360249"/>
    <tag k="highway" v="motorway"/>
    <tag k="lanes" v="3"/>
    <tag k="maxspeed" v="80"/>
    <tag k="name" v="Calder Freeway"/>
    <tag k="oneway" v="yes"/>
    <tag k="ref" v="M79"/>
    <tag k="surface" v="asphalt"/>
  </way>
  <way id="21962179" version="20" timestamp="2012-08-12T13:53:01Z" uid="67896" user="mrpulley" changeset="12701897">
    <nd ref="232043082"/>
    <nd ref="1511360292"/>
    <nd ref="1511360325"/>
    <nd ref="26032551"/>
    <nd ref="26032552"/>
    <nd ref="236890877"/>
    <nd ref="236890954"/>
    <nd ref="1511360168"/>
    <nd ref="236890952"/>
    <nd ref="236890951"/>
    <nd ref="1511360237"/>
    <nd ref="236890950"/>
    <nd ref="1511360209"/>
    <nd ref="236890948"/>
    <nd ref="236861370"/>
    <nd ref="236861369"/>
    <nd ref="236861368"/>
    <nd ref="236861367"/>
    <nd ref="236861366"/>
    <nd ref="1511360316"/>
    <nd ref="236861365"/>
    <nd ref="236861364"/>
    <nd ref="1511360172"/>
    <nd ref="236861363"/>
    <nd ref="1511360249"/>
    <tag k="highway" v="motorway"/>
    <tag k="lanes" v="3"/>
    <tag k="maxspeed" v="80"/>
    <tag k="name" v="Calder Freeway"/>
    <tag k="oneway" v="yes"/>
    <tag k="ref" v="M79;S40"/>
    <tag k="surface" v="asphalt"/>
  </way>
  <way id="21962181" version="11" timestamp="2012-08-12T13:52:59Z" uid="67896" user="mrpulley" changeset="12701897">
    <nd ref="236675556"/>
    <nd ref="236675554"/>
    <tag k="bridge" v="yes"/>
    <tag k="highway" v="motorway"/>
    <tag k="layer" v="1"/>
    <tag k="maxspeed" v="100"/>
    <tag k="name" v="Calder Freeway"/>
    <tag k="oneway" v="yes"/>
    <tag k="ref" v="M79;S40"/>
    <tag k="source" v="yahoo"/>
    <tag k="source:name" v="survey"/>
  </way>
  <way id="21962184" version="12" timestamp="2012-08-12T13:52:54Z" uid="67896" user="mrpulley" changeset="12701897">
    <nd ref="236675554"/>
    <nd ref="236675552"/>
    <tag k="highway" v="motorway"/>
    <tag k="maxspeed" v="100"/>
    <tag k="name" v="Calder Freeway"/>
    <tag k="oneway" v="yes"/>
    <tag k="ref" v="M79;S40"/>
    <tag k="source" v="yahoo"/>
    <tag k="source:name" v="survey"/>
  </way>
  <way id="21962193" version="11" timestamp="2012-07-31T06:35:31Z" uid="67896" user="mrpulley" changeset="12557007">
    <nd ref="236675552"/>
    <nd ref="236674778"/>
    <tag k="bridge" v="yes"/>
    <tag k="highway" v="motorway"/>
    <tag k="layer" v="1"/>
    <tag k="maxspeed" v="100"/>
    <tag k="name" v="Calder Freeway"/>
    <tag k="network" v="S"/>
    <tag k="oneway" v="yes"/>
    <tag k="ref" v="40"/>
    <tag k="source" v="yahoo"/>
    <tag k="source:name" v="survey"/>
  </way>
  <way id="21962193" version="12" timestamp="2012-08-12T13:52:59Z" uid="67896" user="mrpulley" changeset="12701897">
    <nd ref="236675552"/>
    <nd ref="236674778"/>
    <tag k="bridge" v="yes"/>
    <tag k="highway" v="motorway"/>
    <tag k="layer" v="1"/>
    <tag k="maxspeed" v="100"/>
    <tag k="name" v="Calder Freeway"/>
    <tag k="network" v="S"/>
    <tag k="oneway" v="yes"/>
    <tag k="ref" v="M79;S40"/>
    <tag k="source" v="yahoo"/>
    <tag k="source:name" v="survey"/>
  </way>
  <way id="21962204" version="10" timestamp="2012-08-12T13:52:58Z" uid="67896" user="mrpulley" changeset="12701897">
    <nd ref="236674778"/>
    <nd ref="236674776"/>
    <tag k="highway" v="motorway"/>
    <tag k="maxspeed" v="100"/>
    <tag k="name" v="Calder Freeway"/>
    <tag k="oneway" v="yes"/>
    <tag k="ref" v="M79;S40"/>
    <tag k="source" v="yahoo"/>
    <tag k="source:name" v="survey"/>
  </way>
  <way id="21962212" version="10" timestamp="2012-08-12T13:52:55Z" uid="67896" user="mrpulley" changeset="12701897">
    <nd ref="236674776"/>
    <nd ref="236674774"/>
    <tag k="bridge" v="yes"/>
    <tag k="highway" v="motorway"/>
    <tag k="layer" v="1"/>
    <tag k="maxspeed" v="100"/>
    <tag k="name" v="Calder Freeway"/>
    <tag k="oneway" v="yes"/>
    <tag k="ref" v="M79;S40"/>
    <tag k="source" v="yahoo"/>
    <tag k="source:name" v="survey"/>
  </way>
</osm>
