<?xml version='1.0' encoding='UTF-8'?>
<osm version="0.6" generator="libosmium/2.20.0">
  <way id="22042042" version="14" timestamp="2010-07-07T22:53:48Z" uid="74617" user="JohnSmith" changeset="5162525">
    <nd ref="388475118"/>
    <nd ref="247009668"/>
    <nd ref="388476957"/>
    <tag k="highway" v="residential"/>
    <tag k="maxspeed" v="50"/>
    <tag k="maxspeed:source" v="default residential speed limit in Australia"/>
    <tag k="name" v="Fletcher Street"/>
  </way>
  <way id="22042042" version="15" timestamp="2012-01-15T21:53:48Z" uid="147510" user="woodpeck_fixbot" changeset="10402983">
    <nd ref="388475118"/>
    <nd ref="247009668"/>
    <nd ref="388476957"/>
    <tag k="highway" v="residential"/>
    <tag k="name" v="Fletcher Street"/>
  </way>
  <way id="22042361" version="13" timestamp="2010-07-07T22:46:32Z" uid="74617" user="JohnSmith" changeset="5162525">
    <nd ref="223680078"/>
    <nd ref="600758402"/>
    <nd ref="388487687"/>
    <nd ref="237309474"/>
    <nd ref="627586135"/>
    <nd ref="60458658"/>
    <tag k="highway" v="residential"/>
    <tag k="maxspeed" v="50"/>
    <tag k="maxspeed:source" v="default residential speed limit in Australia"/>
    <tag k="name" v="King Street"/>
  </way>
  <way id="22042361" version="14" timestamp="2012-01-15T21:53:49Z" uid="147510" user="woodpeck_fixbot" changeset="10402983">
    <nd ref="223680078"/>
    <nd ref="600758402"/>
    <nd ref="388487687"/>
    <nd ref="237309474"/>
    <nd ref="627586135"/>
    <nd ref="60458658"/>
    <tag k="highway" v="residential"/>
    <tag k="name" v="King Street"/>
  </way>
  <way id="22042361" version="15" timestamp="2012-06-09T07:16:51Z" uid="47167" user="MCH" changeset="11841755">
    <nd ref="223680078"/>
    <nd ref="388487687"/>
    <nd ref="237309474"/>
    <tag k="highway" v="residential"/>
    <tag k="name" v="King Street"/>
  </way>
</osm>
