<?xml version='1.0' encoding='UTF-8'?>
<osm version="0.6" generator="libosmium/2.20.0">
  <way id="22041308" version="7" timestamp="2010-07-07T22:53:00Z" uid="74617" user="JohnSmith" changeset="5162525">
    <nd ref="237301113"/>
    <nd ref="237301105"/>
    <nd ref="632267535"/>
    <nd ref="632267539"/>
    <nd ref="632267542"/>
    <nd ref="632267544"/>
    <nd ref="632267548"/>
    <nd ref="237301101"/>
    <tag k="highway" v="residential"/>
    <tag k="maxspeed" v="50"/>
    <tag k="maxspeed:source" v="default residential speed limit in Australia"/>
    <tag k="name" v="Richards Street"/>
  </way>
  <way id="22041308" version="8" timestamp="2012-01-15T21:53:43Z" uid="147510" user="woodpeck_fixbot" changeset="10402983">
    <nd ref="237301113"/>
    <nd ref="237301105"/>
    <nd ref="632267535"/>
    <nd ref="632267539"/>
    <nd ref="632267542"/>
    <nd ref="632267544"/>
    <nd ref="632267548"/>
    <nd ref="237301101"/>
    <tag k="highway" v="residential"/>
    <tag k="name" v="Richards Street"/>
  </way>
  <way id="22041431" version="7" timestamp="2010-07-07T22:46:40Z" uid="74617" user="JohnSmith" changeset="5162525">
    <nd ref="237304825"/>
    <nd ref="237301957"/>
    <tag k="highway" v="residential"/>
    <tag k="maxspeed" v="50"/>
    <tag k="maxspeed:source" v="default residential speed limit in Australia"/>
    <tag k="name" v="Cathy Street"/>
  </way>
  <way id="22041431" version="8" timestamp="2012-01-15T21:53:44Z" uid="147510" user="woodpeck_fixbot" changeset="10402983">
    <nd ref="237304825"/>
    <nd ref="237301957"/>
    <tag k="highway" v="residential"/>
    <tag k="name" v="Cathy Street"/>
  </way>
  <way id="22041856" version="6" timestamp="2010-07-07T22:53:43Z" uid="74617" user="JohnSmith" changeset="5162525">
    <nd ref="237305303"/>
    <nd ref="237305306"/>
    <tag k="highway" v="residential"/>
    <tag k="maxspeed" v="50"/>
    <tag k="maxspeed:source" v="default residential speed limit in Australia"/>
    <tag k="name" v="Husselbee Street"/>
  </way>
  <way id="22041856" version="7" timestamp="2012-01-15T21:53:45Z" uid="147510" user="woodpeck_fixbot" changeset="10402983">
    <nd ref="237305303"/>
    <nd ref="237305306"/>
    <tag k="highway" v="residential"/>
    <tag k="name" v="Husselbee Street"/>
  </way>
  <way id="22041973" version="6" timestamp="2010-07-07T22:47:05Z" uid="74617" user="JohnSmith" changeset="5162525">
    <nd ref="237306207"/>
    <nd ref="237305306"/>
    <tag k="highway" v="residential"/>
    <tag k="maxspeed" v="50"/>
    <tag k="maxspeed:source" v="default residential speed limit in Australia"/>
    <tag k="name" v="Hersey Street"/>
  </way>
  <way id="22041973" version="7" timestamp="2012-01-15T21:53:46Z" uid="147510" user="woodpeck_fixbot" changeset="10402983">
    <nd ref="237306207"/>
    <nd ref="237305306"/>
    <tag k="highway" v="residential"/>
    <tag k="name" v="Hersey Street"/>
  </way>
</osm>
