<?xml version='1.0' encoding='UTF-8'?>
<osm version="0.6" generator="libosmium/2.20.0">
  <way id="22060951" version="2" timestamp="2008-05-11T10:59:30Z" uid="36809" user="pfoten_weg_!_" changeset="411494">
    <nd ref="237489091"/>
    <nd ref="237489101"/>
    <nd ref="237489111"/>
    <nd ref="237489120"/>
    <tag k="created_by" v="Potlatch 0.9"/>
    <tag k="highway" v="unclassified"/>
    <tag k="name" v="Leitenstraße"/>
  </way>
  <way id="22060951" version="3" timestamp="2008-06-14T20:26:18Z" uid="3427" user="sigi55" changeset="159418">
    <nd ref="237489091"/>
    <nd ref="237489101"/>
    <nd ref="237489111"/>
    <tag k="created_by" v="Potlatch 0.9"/>
    <tag k="highway" v="residential"/>
    <tag k="name" v="Leitenstraße"/>
  </way>
  <way id="22060951" version="4" timestamp="2008-10-03T20:37:01Z" uid="43593" user="mobotter" changeset="48829">
    <nd ref="237489091"/>
    <nd ref="301870241"/>
    <nd ref="237489101"/>
    <nd ref="237489111"/>
    <tag k="created_by" v="Potlatch 0.10c"/>
    <tag k="highway" v="residential"/>
    <tag k="name" v="Leitenstraße"/>
  </way>
  <way id="22060951" version="5" timestamp="2008-10-03T20:40:10Z" uid="43593" user="mobotter" changeset="48829">
    <nd ref="237489091"/>
    <nd ref="301871009"/>
    <nd ref="301870241"/>
    <nd ref="237489101"/>
    <nd ref="237489111"/>
    <tag k="created_by" v="Potlatch 0.10c"/>
    <tag k="highway" v="residential"/>
    <tag k="name" v="Leitenstraße"/>
  </way>
  <way id="22060951" version="6" timestamp="2009-09-30T15:18:56Z" uid="36809" user="pfoten_weg_!_" changeset="2689341">
    <nd ref="237489091"/>
    <nd ref="301871009"/>
    <nd ref="301870241"/>
    <nd ref="237489101"/>
    <nd ref="237489111"/>
    <tag k="highway" v="residential"/>
    <tag k="name" v="Leitenstraße"/>
  </way>
  <way id="22060951" version="7" timestamp="2011-10-05T12:36:59Z" uid="301486" user="occam11" changeset="9477711">
    <nd ref="237489091"/>
    <nd ref="301871009"/>
    <tag k="bridge" v="yes"/>
    <tag k="highway" v="residential"/>
    <tag k="name" v="Leitenstraße"/>
  </way>
  <way id="22060953" version="2" timestamp="2008-05-11T10:59:21Z" uid="36809" user="pfoten_weg_!_" changeset="411494">
    <nd ref="237489111"/>
    <nd ref="237489131"/>
    <tag k="created_by" v="Potlatch 0.9"/>
    <tag k="highway" v="residential"/>
    <tag k="name" v="Filmstraße"/>
  </way>
  <way id="22060953" version="3" timestamp="2009-09-30T15:18:57Z" uid="36809" user="pfoten_weg_!_" changeset="2689341">
    <nd ref="237489111"/>
    <nd ref="237489131"/>
    <tag k="highway" v="residential"/>
    <tag k="name" v="Filmstraße"/>
  </way>
  <way id="22060955" version="2" timestamp="2009-09-30T15:18:57Z" uid="36809" user="pfoten_weg_!_" changeset="2689341">
    <nd ref="237489131"/>
    <nd ref="237489138"/>
    <nd ref="237489149"/>
    <tag k="highway" v="residential"/>
    <tag k="name" v="Atelierstraße"/>
  </way>
  <way id="22060955" version="3" timestamp="2011-10-05T12:36:56Z" uid="301486" user="occam11" changeset="9477711">
    <nd ref="237489131"/>
    <nd ref="1455869587"/>
    <nd ref="237489138"/>
    <nd ref="237489149"/>
    <tag k="highway" v="residential"/>
    <tag k="name" v="Atelierstraße"/>
  </way>
  <way id="22060957" version="2" timestamp="2009-09-30T15:18:58Z" uid="36809" user="pfoten_weg_!_" changeset="2689341">
    <nd ref="237489159"/>
    <nd ref="237489131"/>
    <tag k="highway" v="residential"/>
    <tag k="name" v="An der Leite"/>
  </way>
</osm>
