<?xml version='1.0' encoding='UTF-8'?>
<osm version="0.6" generator="libosmium/2.20.0">
  <way id="22093468" version="4" timestamp="2010-08-22T15:48:13Z" uid="4467" user="Rosscoe" changeset="5562393">
    <nd ref="237733463"/>
    <nd ref="388171021"/>
    <nd ref="237761853"/>
    <nd ref="237761856"/>
    <nd ref="872280734"/>
    <tag k="highway" v="residential"/>
    <tag k="name" v="Mill Gate Lane"/>
    <tag k="tiger:cfcc" v="A41"/>
    <tag k="tiger:county" v="DuPage, IL"/>
    <tag k="tiger:name_base" v="Mill Gate"/>
    <tag k="tiger:name_type" v="Ln"/>
    <tag k="tiger:reviewed" v="no"/>
    <tag k="tiger:separated" v="no"/>
    <tag k="tiger:source" v="tiger_import_dch_v0.6_20070809"/>
    <tag k="tiger:tlid" v="112678958:112702662:112702664:112702665"/>
    <tag k="tiger:upload_uuid" v="bulk_upload.pl-3f69f4e1-b66c-4277-9b2a-1347f8f5e03c"/>
  </way>
  <way id="22093568" version="10" timestamp="2008-08-19T01:07:11Z" uid="36809" user="pfoten_weg_!_" changeset="323871">
    <nd ref="237792549"/>
    <nd ref="50809980"/>
    <nd ref="237753312"/>
    <nd ref="237753313"/>
    <tag k="created_by" v="RambaZamba"/>
    <tag k="highway" v="residential"/>
    <tag k="name" v="Paulastraße"/>
  </way>
  <way id="22093568" version="11" timestamp="2008-09-21T21:22:27Z" uid="36809" user="pfoten_weg_!_" changeset="676192">
    <nd ref="237792549"/>
    <nd ref="50809980"/>
    <nd ref="237753312"/>
    <nd ref="237753313"/>
    <tag k="created_by" v="RambaZamba"/>
    <tag k="highway" v="residential"/>
    <tag k="name" v="Paulastraße"/>
    <tag k="source" v="survey"/>
  </way>
  <way id="22093568" version="12" timestamp="2008-10-01T02:05:28Z" uid="36809" user="pfoten_weg_!_" changeset="5644">
    <nd ref="237792549"/>
    <nd ref="50809980"/>
    <nd ref="237753312"/>
    <nd ref="237753313"/>
    <tag k="created_by" v="RambaZamba"/>
    <tag k="highway" v="residential"/>
    <tag k="name" v="Paulastraße"/>
    <tag k="source" v="survey"/>
  </way>
  <way id="22093568" version="13" timestamp="2008-10-14T13:31:17Z" uid="36809" user="pfoten_weg_!_" changeset="325072">
    <nd ref="237792549"/>
    <nd ref="50809980"/>
    <nd ref="237753312"/>
    <nd ref="304569222"/>
    <nd ref="237753313"/>
    <tag k="created_by" v="RambaZamba"/>
    <tag k="highway" v="residential"/>
    <tag k="name" v="Paulastraße"/>
    <tag k="source" v="survey"/>
  </way>
  <way id="22093568" version="14" timestamp="2009-05-15T11:53:06Z" uid="36809" user="pfoten_weg_!_" changeset="1198371">
    <nd ref="237792549"/>
    <nd ref="50809980"/>
    <nd ref="237753312"/>
    <nd ref="400923200"/>
    <nd ref="304569222"/>
    <nd ref="237753313"/>
    <tag k="created_by" v="RambaZamba"/>
    <tag k="highway" v="residential"/>
    <tag k="name" v="Paulastraße"/>
    <tag k="source" v="survey"/>
  </way>
  <way id="22093568" version="15" timestamp="2009-06-08T12:02:55Z" uid="132988" user="ich-liebe-euch" changeset="1457959">
    <nd ref="237792549"/>
    <nd ref="50809980"/>
    <nd ref="237753312"/>
    <nd ref="400923200"/>
    <nd ref="304569222"/>
    <nd ref="237753313"/>
    <tag k="highway" v="residential"/>
    <tag k="name" v="Paulastraße"/>
    <tag k="source" v="survey"/>
  </way>
  <way id="22093568" version="16" timestamp="2009-06-08T13:20:45Z" uid="36809" user="pfoten_weg_!_" changeset="1458721">
    <nd ref="237792549"/>
    <nd ref="50809980"/>
    <nd ref="237753312"/>
    <nd ref="400923200"/>
    <nd ref="304569222"/>
    <nd ref="237753313"/>
    <tag k="created_by" v="RambaZamba"/>
    <tag k="highway" v="residential"/>
    <tag k="name" v="Paulastraße"/>
    <tag k="source" v="survey"/>
  </way>
  <way id="22093568" version="17" timestamp="2009-06-09T08:30:50Z" uid="36809" user="pfoten_weg_!_" changeset="1466149"/>
  <way id="22093735" version="4" timestamp="2008-05-04T05:20:46Z" uid="36809" user="pfoten_weg_!_" changeset="326538">
    <nd ref="237761983"/>
    <nd ref="237763404"/>
    <nd ref="237941702"/>
    <nd ref="237762458"/>
    <nd ref="237941702"/>
    <tag k="created_by" v="Potlatch 0.8c"/>
    <tag k="highway" v="residential"/>
    <tag k="name" v="Carusoweg"/>
  </way>
  <way id="22093735" version="5" timestamp="2008-07-14T17:09:43Z" uid="36809" user="pfoten_weg_!_" changeset="491006">
    <nd ref="237762458"/>
    <nd ref="237941702"/>
    <tag k="created_by" v="Potlatch 0.9c"/>
    <tag k="highway" v="residential"/>
    <tag k="name" v="Carusoweg"/>
  </way>
  <way id="22093735" version="6" timestamp="2008-07-14T17:22:35Z" uid="36809" user="pfoten_weg_!_" changeset="491006"/>
</osm>
