<?xml version='1.0' encoding='UTF-8'?>
<osm version="0.6" generator="libosmium/2.20.0">
  <way id="22210305" version="30" timestamp="2010-05-12T08:14:37Z" uid="4467" user="Rosscoe" changeset="4675117">
    <nd ref="238799191"/>
    <nd ref="238803452"/>
    <nd ref="238803481"/>
    <nd ref="238803512"/>
    <nd ref="257522277"/>
    <nd ref="238803550"/>
    <nd ref="238803582"/>
    <nd ref="238803612"/>
    <nd ref="238803646"/>
    <nd ref="238803670"/>
    <nd ref="257522118"/>
    <nd ref="238803692"/>
    <nd ref="730588918"/>
    <tag k="highway" v="tertiary"/>
    <tag k="name" v="Allunga Road"/>
  </way>
  <way id="22210305" version="31" timestamp="2010-06-26T14:08:14Z" uid="1649" user="Chuq" changeset="5081300">
    <nd ref="238799191"/>
    <nd ref="238803452"/>
    <nd ref="238803481"/>
    <nd ref="238803512"/>
    <nd ref="257522277"/>
    <nd ref="238803550"/>
    <nd ref="791175883"/>
    <nd ref="238803582"/>
    <nd ref="791175872"/>
    <nd ref="238803612"/>
    <nd ref="238803646"/>
    <nd ref="238803670"/>
    <nd ref="257522118"/>
    <nd ref="238803692"/>
    <nd ref="730588918"/>
    <tag k="highway" v="tertiary"/>
    <tag k="name" v="Allunga Road"/>
  </way>
  <way id="22210322" version="3" timestamp="2010-07-12T22:09:01Z" uid="4467" user="Rosscoe" changeset="5203415">
    <nd ref="238827875"/>
    <nd ref="238827907"/>
    <tag k="bridge" v="yes"/>
    <tag k="highway" v="motorway"/>
    <tag k="layer" v="1"/>
    <tag k="name" v="Brooker Highway"/>
    <tag k="oneway" v="yes"/>
    <tag k="ref" v="NH1"/>
  </way>
  <way id="22210325" version="3" timestamp="2010-07-12T22:08:59Z" uid="4467" user="Rosscoe" changeset="5203415">
    <nd ref="238827938"/>
    <nd ref="49714596"/>
    <tag k="bridge" v="yes"/>
    <tag k="highway" v="motorway"/>
    <tag k="layer" v="1"/>
    <tag k="name" v="Brooker Highway"/>
    <tag k="oneway" v="yes"/>
    <tag k="ref" v="NH1"/>
  </way>
  <way id="22210328" version="8" timestamp="2010-03-20T10:02:29Z" uid="4467" user="Rosscoe" changeset="4177784">
    <nd ref="49714596"/>
    <nd ref="49714597"/>
    <nd ref="49714599"/>
    <nd ref="670264239"/>
    <nd ref="144904166"/>
    <nd ref="670264242"/>
    <nd ref="670264241"/>
    <nd ref="670264240"/>
    <nd ref="252362363"/>
    <nd ref="49714602"/>
    <tag k="highway" v="motorway"/>
    <tag k="name" v="Brooker Highway"/>
    <tag k="oneway" v="yes"/>
    <tag k="ref" v="NH1"/>
  </way>
  <way id="22210328" version="9" timestamp="2010-07-15T23:38:34Z" uid="4467" user="Rosscoe" changeset="5231277">
    <nd ref="49714596"/>
    <nd ref="49714597"/>
    <nd ref="49714599"/>
    <nd ref="670264239"/>
    <nd ref="144904166"/>
    <nd ref="670264242"/>
    <nd ref="670264241"/>
    <nd ref="670264240"/>
    <nd ref="252362363"/>
    <nd ref="49714602"/>
    <nd ref="819871129"/>
    <tag k="highway" v="motorway"/>
    <tag k="name" v="Brooker Highway"/>
    <tag k="oneway" v="yes"/>
    <tag k="ref" v="NH1"/>
  </way>
  <way id="22210342" version="2" timestamp="2010-03-20T10:02:29Z" uid="4467" user="Rosscoe" changeset="4177784">
    <nd ref="238827809"/>
    <nd ref="238828159"/>
    <nd ref="670264235"/>
    <nd ref="238828192"/>
    <nd ref="238828223"/>
    <nd ref="670264238"/>
    <nd ref="49714599"/>
    <tag k="highway" v="motorway_link"/>
  </way>
  <way id="22210305" version="32" timestamp="2012-07-19T13:53:52Z" uid="722137" user="OSMF Redaction Account" changeset="12330559">
    <nd ref="238799191"/>
    <nd ref="238803452"/>
    <nd ref="238803481"/>
    <nd ref="238803512"/>
    <nd ref="238803550"/>
    <nd ref="791175883"/>
    <nd ref="238803582"/>
    <nd ref="791175872"/>
    <nd ref="238803612"/>
    <nd ref="238803646"/>
    <nd ref="238803670"/>
    <nd ref="238803692"/>
    <tag k="highway" v="tertiary"/>
    <tag k="name" v="Allunga Road"/>
  </way>
  <way id="22210305" version="33" timestamp="2012-08-15T05:35:38Z" uid="262151" user="ToeBee" changeset="12734620">
    <nd ref="238799191"/>
    <nd ref="238803452"/>
    <nd ref="238803481"/>
    <nd ref="238803512"/>
    <nd ref="238803550"/>
    <nd ref="791175883"/>
    <nd ref="238803582"/>
    <nd ref="791175872"/>
    <nd ref="238803612"/>
    <nd ref="238803646"/>
    <nd ref="238803670"/>
    <nd ref="238803692"/>
    <nd ref="1866828399"/>
    <nd ref="1866828398"/>
    <tag k="highway" v="tertiary"/>
    <tag k="name" v="Allunga Road"/>
  </way>
  <way id="22210305" version="34" timestamp="2012-08-21T12:39:19Z" uid="408202" user="BFX" changeset="12806942">
    <nd ref="238799191"/>
    <nd ref="238803452"/>
    <nd ref="238803481"/>
    <nd ref="238803512"/>
    <nd ref="1875984710"/>
    <nd ref="238803550"/>
    <nd ref="791175883"/>
    <nd ref="238803582"/>
    <nd ref="791175872"/>
    <nd ref="238803612"/>
    <nd ref="238803646"/>
    <nd ref="238803670"/>
    <nd ref="238803692"/>
    <nd ref="1866828399"/>
    <nd ref="1866828398"/>
    <tag k="highway" v="tertiary"/>
    <tag k="name" v="Allunga Road"/>
  </way>
  <way id="22210322" version="4" timestamp="2012-07-19T13:53:55Z" uid="722137" user="OSMF Redaction Account" changeset="12330559">
    <nd ref="238827875"/>
    <nd ref="238827907"/>
    <tag k="bridge" v="yes"/>
    <tag k="highway" v="motorway"/>
    <tag k="name" v="Brooker Highway"/>
    <tag k="oneway" v="yes"/>
    <tag k="ref" v="NH1"/>
  </way>
  <way id="22210322" version="5" timestamp="2012-07-31T06:32:13Z" uid="67896" user="mrpulley" changeset="12557007">
    <nd ref="238827875"/>
    <nd ref="238827907"/>
    <tag k="bridge" v="yes"/>
    <tag k="highway" v="motorway"/>
    <tag k="name" v="Brooker Highway"/>
    <tag k="network" v="NH"/>
    <tag k="oneway" v="yes"/>
    <tag k="ref" v="1"/>
  </way>
  <way id="22210325" version="4" timestamp="2012-07-19T13:53:55Z" uid="722137" user="OSMF Redaction Account" changeset="12330559">
    <nd ref="238827938"/>
    <nd ref="49714596"/>
    <tag k="bridge" v="yes"/>
    <tag k="highway" v="motorway"/>
    <tag k="name" v="Brooker Highway"/>
    <tag k="oneway" v="yes"/>
    <tag k="ref" v="NH1"/>
  </way>
  <way id="22210325" version="5" timestamp="2012-07-31T06:32:14Z" uid="67896" user="mrpulley" changeset="12557007">
    <nd ref="238827938"/>
    <nd ref="49714596"/>
    <tag k="bridge" v="yes"/>
    <tag k="highway" v="motorway"/>
    <tag k="name" v="Brooker Highway"/>
    <tag k="network" v="NH"/>
    <tag k="oneway" v="yes"/>
    <tag k="ref" v="1"/>
  </way>
  <way id="22210328" version="10" timestamp="2012-07-19T13:53:51Z" uid="722137" user="OSMF Redaction Account" changeset="12330559">
    <nd ref="49714596"/>
    <nd ref="49714597"/>
    <nd ref="49714599"/>
    <nd ref="144904166"/>
    <nd ref="252362363"/>
    <nd ref="49714602"/>
    <tag k="highway" v="motorway"/>
    <tag k="name" v="Brooker Highway"/>
    <tag k="oneway" v="yes"/>
    <tag k="ref" v="NH1"/>
  </way>
  <way id="22210328" version="11" timestamp="2012-07-31T06:32:21Z" uid="67896" user="mrpulley" changeset="12557007">
    <nd ref="49714596"/>
    <nd ref="49714597"/>
    <nd ref="49714599"/>
    <nd ref="144904166"/>
    <nd ref="252362363"/>
    <nd ref="49714602"/>
    <tag k="highway" v="motorway"/>
    <tag k="name" v="Brooker Highway"/>
    <tag k="network" v="NH"/>
    <tag k="oneway" v="yes"/>
    <tag k="ref" v="1"/>
  </way>
  <way id="22210328" version="12" timestamp="2012-08-13T22:58:39Z" uid="67896" user="mrpulley" changeset="12720829">
    <nd ref="49714596"/>
    <nd ref="49714597"/>
    <nd ref="49714599"/>
    <nd ref="144904166"/>
    <nd ref="252362363"/>
    <nd ref="49714602"/>
    <nd ref="1865055966"/>
    <tag k="highway" v="motorway"/>
    <tag k="name" v="Brooker Highway"/>
    <tag k="network" v="NH"/>
    <tag k="oneway" v="yes"/>
    <tag k="ref" v="1"/>
  </way>
  <way id="22210342" version="3" timestamp="2012-07-19T13:53:52Z" uid="722137" user="OSMF Redaction Account" changeset="12330559">
    <nd ref="238827809"/>
    <nd ref="238828159"/>
    <nd ref="238828192"/>
    <nd ref="238828223"/>
    <nd ref="49714599"/>
    <tag k="highway" v="motorway_link"/>
  </way>
  <way id="22210342" version="4" timestamp="2012-08-21T00:04:41Z" uid="820296" user="TassieJon" changeset="12802688">
    <nd ref="238827809"/>
    <nd ref="238828159"/>
    <nd ref="1875310112"/>
    <nd ref="238828192"/>
    <nd ref="238828223"/>
    <nd ref="49714599"/>
    <tag k="highway" v="motorway_link"/>
  </way>
  <way id="22210342" version="5" timestamp="2012-08-30T12:47:27Z" uid="46482" user="Leon K" changeset="12917587">
    <nd ref="238827809"/>
    <nd ref="238828159"/>
    <nd ref="1875310112"/>
    <nd ref="238828192"/>
    <nd ref="238828223"/>
    <nd ref="49714599"/>
    <tag k="highway" v="motorway_link"/>
    <tag k="oneway" v="yes"/>
  </way>
</osm>
