<?xml version='1.0' encoding='UTF-8'?>
<osm version="0.6" generator="libosmium/2.20.0">
  <way id="22256433" version="2" timestamp="2010-07-08T00:23:38Z" uid="74617" user="JohnSmith" changeset="5162525">
    <nd ref="172998994"/>
    <nd ref="239241594"/>
    <nd ref="239241470"/>
    <nd ref="239241269"/>
    <tag k="highway" v="residential"/>
    <tag k="maxspeed" v="50"/>
    <tag k="maxspeed:source" v="default residential speed limit in Australia"/>
    <tag k="name" v="Devlin Road"/>
  </way>
  <way id="22256433" version="3" timestamp="2012-01-15T21:55:21Z" uid="147510" user="woodpeck_fixbot" changeset="10402983">
    <nd ref="172998994"/>
    <nd ref="239241594"/>
    <nd ref="239241470"/>
    <nd ref="239241269"/>
    <tag k="highway" v="residential"/>
    <tag k="name" v="Devlin Road"/>
  </way>
  <way id="22256436" version="3" timestamp="2010-07-08T00:27:55Z" uid="74617" user="JohnSmith" changeset="5162525">
    <nd ref="239241305"/>
    <nd ref="239241350"/>
    <nd ref="239241388"/>
    <nd ref="239241429"/>
    <nd ref="239241470"/>
    <tag k="highway" v="residential"/>
    <tag k="maxspeed" v="50"/>
    <tag k="maxspeed:source" v="default residential speed limit in Australia"/>
    <tag k="name" v="Kirkwood Avenue"/>
  </way>
  <way id="22256436" version="4" timestamp="2012-01-15T21:55:23Z" uid="147510" user="woodpeck_fixbot" changeset="10402983">
    <nd ref="239241305"/>
    <nd ref="239241350"/>
    <nd ref="239241388"/>
    <nd ref="239241429"/>
    <nd ref="239241470"/>
    <tag k="highway" v="residential"/>
    <tag k="name" v="Kirkwood Avenue"/>
  </way>
  <way id="22256438" version="3" timestamp="2010-07-08T00:25:02Z" uid="74617" user="JohnSmith" changeset="5162525">
    <nd ref="239241269"/>
    <nd ref="567475656"/>
    <nd ref="239241516"/>
    <nd ref="567475660"/>
    <nd ref="239241554"/>
    <tag k="highway" v="residential"/>
    <tag k="maxspeed" v="50"/>
    <tag k="maxspeed:source" v="default residential speed limit in Australia"/>
    <tag k="name" v="Highview Close"/>
  </way>
  <way id="22256438" version="4" timestamp="2012-01-15T21:55:25Z" uid="147510" user="woodpeck_fixbot" changeset="10402983">
    <nd ref="239241269"/>
    <nd ref="567475656"/>
    <nd ref="239241516"/>
    <nd ref="567475660"/>
    <nd ref="239241554"/>
    <tag k="highway" v="residential"/>
    <tag k="name" v="Highview Close"/>
  </way>
  <way id="22256440" version="2" timestamp="2010-07-08T00:26:57Z" uid="74617" user="JohnSmith" changeset="5162525">
    <nd ref="239241594"/>
    <nd ref="239241722"/>
    <nd ref="239241804"/>
    <nd ref="239241644"/>
    <nd ref="239241684"/>
    <tag k="highway" v="residential"/>
    <tag k="maxspeed" v="50"/>
    <tag k="maxspeed:source" v="default residential speed limit in Australia"/>
    <tag k="name" v="Valley View Crescent"/>
  </way>
  <way id="22256440" version="3" timestamp="2012-01-15T21:55:26Z" uid="147510" user="woodpeck_fixbot" changeset="10402983">
    <nd ref="239241594"/>
    <nd ref="239241722"/>
    <nd ref="239241804"/>
    <nd ref="239241644"/>
    <nd ref="239241684"/>
    <tag k="highway" v="residential"/>
    <tag k="name" v="Valley View Crescent"/>
  </way>
  <way id="22256443" version="3" timestamp="2010-07-08T00:25:24Z" uid="74617" user="JohnSmith" changeset="5162525">
    <nd ref="239241722"/>
    <nd ref="239241760"/>
    <tag k="highway" v="residential"/>
    <tag k="maxspeed" v="50"/>
    <tag k="maxspeed:source" v="default residential speed limit in Australia"/>
    <tag k="name" v="Durham Street"/>
  </way>
  <way id="22256443" version="4" timestamp="2012-01-15T21:55:31Z" uid="147510" user="woodpeck_fixbot" changeset="10402983">
    <nd ref="239241722"/>
    <nd ref="239241760"/>
    <tag k="highway" v="residential"/>
    <tag k="name" v="Durham Street"/>
  </way>
  <way id="22256447" version="3" timestamp="2010-07-08T00:24:26Z" uid="74617" user="JohnSmith" changeset="5162525">
    <nd ref="239241804"/>
    <nd ref="239241840"/>
    <nd ref="239241882"/>
    <nd ref="239241914"/>
    <nd ref="239241963"/>
    <nd ref="239241992"/>
    <nd ref="239242031"/>
    <nd ref="239242070"/>
    <nd ref="239242112"/>
    <nd ref="239242154"/>
    <nd ref="239242192"/>
    <tag k="highway" v="residential"/>
    <tag k="maxspeed" v="50"/>
    <tag k="maxspeed:source" v="default residential speed limit in Australia"/>
    <tag k="name" v="Belinda Crescent"/>
  </way>
  <way id="22256447" version="4" timestamp="2011-05-06T03:26:35Z" uid="156866" user="bertboy" changeset="8062239">
    <nd ref="239241804"/>
    <nd ref="239241840"/>
    <nd ref="239241882"/>
    <nd ref="239241914"/>
    <nd ref="239241963"/>
    <nd ref="239241992"/>
    <nd ref="1273990895"/>
    <nd ref="239242031"/>
    <nd ref="239242070"/>
    <nd ref="239242112"/>
    <nd ref="239242154"/>
    <nd ref="239242192"/>
    <tag k="highway" v="residential"/>
    <tag k="maxspeed" v="50"/>
    <tag k="maxspeed:source" v="default residential speed limit in Australia"/>
    <tag k="name" v="Belinda Crescent"/>
  </way>
  <way id="22256447" version="5" timestamp="2012-01-15T21:55:32Z" uid="147510" user="woodpeck_fixbot" changeset="10402983">
    <nd ref="239241804"/>
    <nd ref="239241840"/>
    <nd ref="239241882"/>
    <nd ref="239241914"/>
    <nd ref="239241963"/>
    <nd ref="239241992"/>
    <nd ref="1273990895"/>
    <nd ref="239242031"/>
    <nd ref="239242070"/>
    <nd ref="239242112"/>
    <nd ref="239242154"/>
    <nd ref="239242192"/>
    <tag k="highway" v="residential"/>
    <tag k="name" v="Belinda Crescent"/>
  </way>
  <way id="22256449" version="3" timestamp="2010-07-08T00:27:49Z" uid="74617" user="JohnSmith" changeset="5162525">
    <nd ref="239241963"/>
    <nd ref="239242238"/>
    <nd ref="567475664"/>
    <tag k="highway" v="residential"/>
    <tag k="maxspeed" v="50"/>
    <tag k="maxspeed:source" v="default residential speed limit in Australia"/>
    <tag k="name" v="Merle Street"/>
  </way>
  <way id="22256449" version="4" timestamp="2012-01-15T21:55:35Z" uid="147510" user="woodpeck_fixbot" changeset="10402983">
    <nd ref="239241963"/>
    <nd ref="239242238"/>
    <nd ref="567475664"/>
    <tag k="highway" v="residential"/>
    <tag k="name" v="Merle Street"/>
  </way>
  <way id="22256454" version="2" timestamp="2010-07-08T00:22:25Z" uid="74617" user="JohnSmith" changeset="5162525">
    <nd ref="239242322"/>
    <nd ref="239242360"/>
    <tag k="highway" v="residential"/>
    <tag k="maxspeed" v="50"/>
    <tag k="maxspeed:source" v="default residential speed limit in Australia"/>
    <tag k="name" v="Malton Road"/>
  </way>
  <way id="22256454" version="3" timestamp="2012-01-15T21:55:37Z" uid="147510" user="woodpeck_fixbot" changeset="10402983">
    <nd ref="239242322"/>
    <nd ref="239242360"/>
    <tag k="highway" v="residential"/>
    <tag k="name" v="Malton Road"/>
  </way>
  <way id="22256456" version="2" timestamp="2010-07-08T00:24:17Z" uid="74617" user="JohnSmith" changeset="5162525">
    <nd ref="239241644"/>
    <nd ref="239242405"/>
    <nd ref="239242452"/>
    <nd ref="239242496"/>
    <nd ref="239242541"/>
    <nd ref="239242578"/>
    <nd ref="239242619"/>
    <nd ref="239242662"/>
    <nd ref="239242701"/>
    <nd ref="239242746"/>
    <nd ref="239242789"/>
    <nd ref="239242322"/>
    <tag k="highway" v="residential"/>
    <tag k="maxspeed" v="50"/>
    <tag k="maxspeed:source" v="default residential speed limit in Australia"/>
    <tag k="name" v="Marcella Street"/>
  </way>
  <way id="22256456" version="3" timestamp="2012-01-15T21:55:39Z" uid="147510" user="woodpeck_fixbot" changeset="10402983">
    <nd ref="239241644"/>
    <nd ref="239242405"/>
    <nd ref="239242452"/>
    <nd ref="239242496"/>
    <nd ref="239242541"/>
    <nd ref="239242578"/>
    <nd ref="239242619"/>
    <nd ref="239242662"/>
    <nd ref="239242701"/>
    <nd ref="239242746"/>
    <nd ref="239242789"/>
    <nd ref="239242322"/>
    <tag k="highway" v="residential"/>
    <tag k="name" v="Marcella Street"/>
  </way>
  <way id="22256457" version="5" timestamp="2010-06-22T09:39:25Z" uid="61114" user="Trav" changeset="5049663">
    <nd ref="239242823"/>
    <nd ref="239242895"/>
    <nd ref="239243317"/>
    <nd ref="172998996"/>
    <nd ref="239243496"/>
    <nd ref="239243610"/>
    <nd ref="239325474"/>
    <nd ref="781320987"/>
    <nd ref="239325939"/>
    <nd ref="239326035"/>
    <nd ref="239326163"/>
    <nd ref="283040547"/>
    <nd ref="239326504"/>
    <nd ref="239326286"/>
    <nd ref="239242856"/>
    <tag k="highway" v="residential"/>
    <tag k="name" v="Boundary Road"/>
  </way>
  <way id="22256457" version="6" timestamp="2010-06-22T09:53:12Z" uid="61114" user="Trav" changeset="5049754">
    <nd ref="239242823"/>
    <nd ref="239242895"/>
    <nd ref="239243317"/>
    <nd ref="172998996"/>
    <nd ref="239243496"/>
    <nd ref="239243610"/>
    <nd ref="781352736"/>
    <nd ref="239325474"/>
    <nd ref="781320987"/>
    <nd ref="239325939"/>
    <nd ref="239326035"/>
    <nd ref="239326163"/>
    <nd ref="283040547"/>
    <nd ref="239326504"/>
    <nd ref="239326286"/>
    <nd ref="239242856"/>
    <tag k="highway" v="residential"/>
    <tag k="name" v="Boundary Road"/>
  </way>
  <way id="22256457" version="7" timestamp="2010-07-08T00:25:39Z" uid="74617" user="JohnSmith" changeset="5162525">
    <nd ref="239242823"/>
    <nd ref="239242895"/>
    <nd ref="239243317"/>
    <nd ref="172998996"/>
    <nd ref="239243496"/>
    <nd ref="239243610"/>
    <nd ref="781352736"/>
    <nd ref="239325474"/>
    <nd ref="781320987"/>
    <nd ref="239325939"/>
    <nd ref="239326035"/>
    <nd ref="239326163"/>
    <nd ref="283040547"/>
    <nd ref="239326504"/>
    <nd ref="239326286"/>
    <nd ref="239242856"/>
    <tag k="highway" v="residential"/>
    <tag k="maxspeed" v="50"/>
    <tag k="maxspeed:source" v="default residential speed limit in Australia"/>
    <tag k="name" v="Boundary Road"/>
  </way>
  <way id="22256457" version="8" timestamp="2010-10-20T10:03:12Z" uid="9477" user="NilbogAus" changeset="6110169">
    <nd ref="239242823"/>
    <nd ref="239242895"/>
    <nd ref="239243317"/>
    <nd ref="172998996"/>
    <nd ref="239243496"/>
    <nd ref="239243610"/>
    <nd ref="781352736"/>
    <nd ref="239325474"/>
    <nd ref="781320987"/>
    <nd ref="239325939"/>
    <nd ref="239326035"/>
    <nd ref="239326163"/>
    <nd ref="283040547"/>
    <nd ref="239326504"/>
    <nd ref="239326286"/>
    <nd ref="239242856"/>
    <tag k="highway" v="residential"/>
    <tag k="maxspeed" v="50"/>
    <tag k="maxspeed:source" v="default residential speed limit in Australia"/>
    <tag k="name" v="Boundary Road"/>
    <tag k="source" v="survey"/>
  </way>
  <way id="22256457" version="9" timestamp="2012-01-15T21:55:40Z" uid="147510" user="woodpeck_fixbot" changeset="10402983">
    <nd ref="239242823"/>
    <nd ref="239242895"/>
    <nd ref="239243317"/>
    <nd ref="172998996"/>
    <nd ref="239243496"/>
    <nd ref="239243610"/>
    <nd ref="781352736"/>
    <nd ref="239325474"/>
    <nd ref="781320987"/>
    <nd ref="239325939"/>
    <nd ref="239326035"/>
    <nd ref="239326163"/>
    <nd ref="283040547"/>
    <nd ref="239326504"/>
    <nd ref="239326286"/>
    <nd ref="239242856"/>
    <tag k="highway" v="residential"/>
    <tag k="name" v="Boundary Road"/>
    <tag k="source" v="survey"/>
  </way>
  <way id="22256466" version="3" timestamp="2010-07-08T00:27:41Z" uid="74617" user="JohnSmith" changeset="5162525">
    <nd ref="239243317"/>
    <nd ref="239243360"/>
    <nd ref="239243407"/>
    <nd ref="239243455"/>
    <tag k="highway" v="residential"/>
    <tag k="maxspeed" v="50"/>
    <tag k="maxspeed:source" v="default residential speed limit in Australia"/>
    <tag k="name" v="Braidwood Avenue"/>
  </way>
  <way id="22256466" version="4" timestamp="2012-01-15T21:55:43Z" uid="147510" user="woodpeck_fixbot" changeset="10402983">
    <nd ref="239243317"/>
    <nd ref="239243360"/>
    <nd ref="239243407"/>
    <nd ref="239243455"/>
    <tag k="highway" v="residential"/>
    <tag k="name" v="Braidwood Avenue"/>
  </way>
  <way id="22256469" version="2" timestamp="2010-06-22T09:39:27Z" uid="61114" user="Trav" changeset="5049663">
    <nd ref="239243496"/>
    <nd ref="781321048"/>
    <nd ref="781321049"/>
    <nd ref="239243536"/>
    <nd ref="239243568"/>
    <tag k="created_by" v="JOSM"/>
    <tag k="highway" v="residential"/>
    <tag k="name" v="Bailey Crescent"/>
  </way>
  <way id="22256469" version="3" timestamp="2010-07-08T00:24:08Z" uid="74617" user="JohnSmith" changeset="5162525">
    <nd ref="239243496"/>
    <nd ref="781321048"/>
    <nd ref="781321049"/>
    <nd ref="239243536"/>
    <nd ref="239243568"/>
    <tag k="highway" v="residential"/>
    <tag k="maxspeed" v="50"/>
    <tag k="maxspeed:source" v="default residential speed limit in Australia"/>
    <tag k="name" v="Bailey Crescent"/>
  </way>
  <way id="22256469" version="4" timestamp="2012-01-15T21:55:44Z" uid="147510" user="woodpeck_fixbot" changeset="10402983">
    <nd ref="239243496"/>
    <nd ref="781321048"/>
    <nd ref="781321049"/>
    <nd ref="239243536"/>
    <nd ref="239243568"/>
    <tag k="highway" v="residential"/>
    <tag k="name" v="Bailey Crescent"/>
  </way>
  <way id="22256474" version="2" timestamp="2010-06-22T09:39:27Z" uid="61114" user="Trav" changeset="5049663">
    <nd ref="239243610"/>
    <nd ref="781321058"/>
    <nd ref="239243649"/>
    <tag k="created_by" v="JOSM"/>
    <tag k="highway" v="residential"/>
    <tag k="name" v="Walker Place"/>
  </way>
  <way id="22256474" version="3" timestamp="2010-07-08T00:25:31Z" uid="74617" user="JohnSmith" changeset="5162525">
    <nd ref="239243610"/>
    <nd ref="781321058"/>
    <nd ref="239243649"/>
    <tag k="highway" v="residential"/>
    <tag k="maxspeed" v="50"/>
    <tag k="maxspeed:source" v="default residential speed limit in Australia"/>
    <tag k="name" v="Walker Place"/>
  </way>
  <way id="22256474" version="4" timestamp="2012-01-15T21:55:45Z" uid="147510" user="woodpeck_fixbot" changeset="10402983">
    <nd ref="239243610"/>
    <nd ref="781321058"/>
    <nd ref="239243649"/>
    <tag k="highway" v="residential"/>
    <tag k="name" v="Walker Place"/>
  </way>
  <way id="22256542" version="2" timestamp="2010-07-07T08:26:40Z" uid="74617" user="JohnSmith" changeset="5156250">
    <nd ref="239245741"/>
    <nd ref="239225881"/>
    <tag k="highway" v="residential"/>
    <tag k="maxspeed" v="50"/>
    <tag k="maxspeed:source" v="default residential speed limit in Australia"/>
    <tag k="name" v="Daniels Street"/>
  </way>
  <way id="22256542" version="3" timestamp="2012-01-15T21:55:46Z" uid="147510" user="woodpeck_fixbot" changeset="10402983">
    <nd ref="239245741"/>
    <nd ref="239225881"/>
    <tag k="highway" v="residential"/>
    <tag k="name" v="Daniels Street"/>
  </way>
  <way id="22256545" version="2" timestamp="2010-07-07T08:24:47Z" uid="74617" user="JohnSmith" changeset="5156250">
    <nd ref="239225944"/>
    <nd ref="239226003"/>
    <tag k="highway" v="residential"/>
    <tag k="maxspeed" v="50"/>
    <tag k="maxspeed:source" v="default residential speed limit in Australia"/>
    <tag k="name" v="Daniels Street"/>
  </way>
  <way id="22256545" version="3" timestamp="2012-01-15T21:55:48Z" uid="147510" user="woodpeck_fixbot" changeset="10402983">
    <nd ref="239225944"/>
    <nd ref="239226003"/>
    <tag k="highway" v="residential"/>
    <tag k="name" v="Daniels Street"/>
  </way>
  <way id="22256548" version="4" timestamp="2010-07-07T08:25:20Z" uid="74617" user="JohnSmith" changeset="5156250">
    <nd ref="239226063"/>
    <nd ref="667212994"/>
    <nd ref="239245591"/>
    <tag k="highway" v="residential"/>
    <tag k="maxspeed" v="50"/>
    <tag k="maxspeed:source" v="default residential speed limit in Australia"/>
    <tag k="name" v="Daniels Street"/>
  </way>
  <way id="22256548" version="5" timestamp="2012-01-15T21:55:49Z" uid="147510" user="woodpeck_fixbot" changeset="10402983">
    <nd ref="239226063"/>
    <nd ref="667212994"/>
    <nd ref="239245591"/>
    <tag k="highway" v="residential"/>
    <tag k="name" v="Daniels Street"/>
  </way>
  <way id="22256550" version="3" timestamp="2010-07-07T08:26:15Z" uid="74617" user="JohnSmith" changeset="5156250">
    <nd ref="239245528"/>
    <nd ref="239245708"/>
    <tag k="highway" v="residential"/>
    <tag k="maxspeed" v="50"/>
    <tag k="maxspeed:source" v="default residential speed limit in Australia"/>
    <tag k="name" v="Daniels Street"/>
  </way>
  <way id="22256550" version="4" timestamp="2012-01-15T21:55:50Z" uid="147510" user="woodpeck_fixbot" changeset="10402983">
    <nd ref="239245528"/>
    <nd ref="239245708"/>
    <tag k="highway" v="residential"/>
    <tag k="name" v="Daniels Street"/>
  </way>
  <way id="22256457" version="10" timestamp="2012-07-20T05:21:58Z" uid="722137" user="OSMF Redaction Account" changeset="12361807">
    <nd ref="239242823"/>
    <nd ref="239242895"/>
    <nd ref="239243317"/>
    <nd ref="172998996"/>
    <nd ref="239243496"/>
    <nd ref="239243610"/>
    <nd ref="239325474"/>
    <nd ref="239325939"/>
    <nd ref="239326035"/>
    <nd ref="239326163"/>
    <nd ref="283040547"/>
    <nd ref="239326504"/>
    <nd ref="239326286"/>
    <nd ref="239242856"/>
    <tag k="highway" v="residential"/>
    <tag k="name" v="Boundary Road"/>
    <tag k="source" v="survey"/>
  </way>
  <way id="22256469" version="5" timestamp="2012-07-20T05:21:59Z" uid="722137" user="OSMF Redaction Account" changeset="12361807">
    <nd ref="239243496"/>
    <nd ref="239243536"/>
    <nd ref="239243568"/>
    <tag k="highway" v="residential"/>
    <tag k="name" v="Bailey Crescent"/>
  </way>
  <way id="22256474" version="5" timestamp="2012-07-20T05:21:59Z" uid="722137" user="OSMF Redaction Account" changeset="12361807">
    <nd ref="239243610"/>
    <nd ref="239243649"/>
    <tag k="highway" v="residential"/>
    <tag k="name" v="Walker Place"/>
  </way>
  <way id="22256548" version="6" timestamp="2012-06-06T04:12:56Z" uid="235098" user="rubai" changeset="11812121">
    <nd ref="239226063"/>
    <nd ref="667212994"/>
    <nd ref="239245591"/>
    <nd ref="1777707753"/>
    <tag k="highway" v="residential"/>
    <tag k="name" v="Daniels Street"/>
  </way>
  <way id="22256550" version="5" timestamp="2012-06-06T04:12:56Z" uid="235098" user="rubai" changeset="11812121">
    <nd ref="1777707753"/>
    <nd ref="239245528"/>
    <nd ref="239245708"/>
    <nd ref="1777707743"/>
    <tag k="highway" v="residential"/>
    <tag k="name" v="Daniels Street"/>
  </way>
</osm>
