<?xml version='1.0' encoding='UTF-8'?>
<osm version="0.6" generator="libosmium/2.20.0">
  <way id="22276603" version="4" timestamp="2010-07-07T08:33:18Z" uid="74617" user="JohnSmith" changeset="5156250">
    <nd ref="239505904"/>
    <nd ref="239515962"/>
    <nd ref="239515998"/>
    <nd ref="239516011"/>
    <nd ref="239516024"/>
    <tag k="highway" v="residential"/>
    <tag k="maxspeed" v="50"/>
    <tag k="maxspeed:source" v="default residential speed limit in Australia"/>
    <tag k="name" v="Connelly Place"/>
  </way>
  <way id="22276603" version="5" timestamp="2012-01-15T21:57:52Z" uid="147510" user="woodpeck_fixbot" changeset="10402983">
    <nd ref="239505904"/>
    <nd ref="239515962"/>
    <nd ref="239515998"/>
    <nd ref="239516011"/>
    <nd ref="239516024"/>
    <tag k="highway" v="residential"/>
    <tag k="name" v="Connelly Place"/>
  </way>
  <way id="22276604" version="4" timestamp="2010-07-07T08:32:56Z" uid="74617" user="JohnSmith" changeset="5156250">
    <nd ref="239505953"/>
    <nd ref="239516077"/>
    <nd ref="239516103"/>
    <nd ref="664202553"/>
    <nd ref="239516130"/>
    <tag k="highway" v="residential"/>
    <tag k="maxspeed" v="50"/>
    <tag k="maxspeed:source" v="default residential speed limit in Australia"/>
    <tag k="name" v="Osborne Place"/>
  </way>
  <way id="22276604" version="5" timestamp="2012-01-15T21:57:53Z" uid="147510" user="woodpeck_fixbot" changeset="10402983">
    <nd ref="239505953"/>
    <nd ref="239516077"/>
    <nd ref="239516103"/>
    <nd ref="664202553"/>
    <nd ref="239516130"/>
    <tag k="highway" v="residential"/>
    <tag k="name" v="Osborne Place"/>
  </way>
  <way id="22276605" version="4" timestamp="2010-07-07T08:38:30Z" uid="74617" user="JohnSmith" changeset="5156250">
    <nd ref="239505982"/>
    <nd ref="239516182"/>
    <nd ref="239516233"/>
    <nd ref="239516247"/>
    <nd ref="239516261"/>
    <tag k="highway" v="residential"/>
    <tag k="maxspeed" v="50"/>
    <tag k="maxspeed:source" v="default residential speed limit in Australia"/>
    <tag k="name" v="Greene Place"/>
  </way>
  <way id="22276605" version="5" timestamp="2012-01-15T21:57:54Z" uid="147510" user="woodpeck_fixbot" changeset="10402983">
    <nd ref="239505982"/>
    <nd ref="239516182"/>
    <nd ref="239516233"/>
    <nd ref="239516247"/>
    <nd ref="239516261"/>
    <tag k="highway" v="residential"/>
    <tag k="name" v="Greene Place"/>
  </way>
  <way id="22276606" version="3" timestamp="2010-07-07T08:34:25Z" uid="74617" user="JohnSmith" changeset="5156250">
    <nd ref="239506014"/>
    <nd ref="239516322"/>
    <nd ref="239516334"/>
    <nd ref="239516349"/>
    <tag k="highway" v="residential"/>
    <tag k="maxspeed" v="50"/>
    <tag k="maxspeed:source" v="default residential speed limit in Australia"/>
    <tag k="name" v="Playfair Place"/>
  </way>
  <way id="22276606" version="4" timestamp="2012-01-15T21:57:56Z" uid="147510" user="woodpeck_fixbot" changeset="10402983">
    <nd ref="239506014"/>
    <nd ref="239516322"/>
    <nd ref="239516334"/>
    <nd ref="239516349"/>
    <tag k="highway" v="residential"/>
    <tag k="name" v="Playfair Place"/>
  </way>
  <way id="22276607" version="4" timestamp="2010-07-07T08:39:29Z" uid="74617" user="JohnSmith" changeset="5156250">
    <nd ref="239506043"/>
    <nd ref="239516396"/>
    <nd ref="239516433"/>
    <nd ref="239516458"/>
    <nd ref="239516475"/>
    <tag k="highway" v="residential"/>
    <tag k="maxspeed" v="50"/>
    <tag k="maxspeed:source" v="default residential speed limit in Australia"/>
    <tag k="name" v="Pigdon Place"/>
  </way>
  <way id="22276607" version="5" timestamp="2012-01-15T21:57:57Z" uid="147510" user="woodpeck_fixbot" changeset="10402983">
    <nd ref="239506043"/>
    <nd ref="239516396"/>
    <nd ref="239516433"/>
    <nd ref="239516458"/>
    <nd ref="239516475"/>
    <tag k="highway" v="residential"/>
    <tag k="name" v="Pigdon Place"/>
  </way>
  <way id="22276621" version="6" timestamp="2008-09-06T16:18:43Z" uid="58091" user="Andreas M" changeset="549614">
    <nd ref="24950483"/>
    <nd ref="61671061"/>
    <nd ref="24950485"/>
    <nd ref="24950486"/>
    <nd ref="24950487"/>
    <tag k="created_by" v="Potlatch 0.7b"/>
    <tag k="highway" v="primary"/>
    <tag k="lanes" v="3"/>
    <tag k="maxspeed" v="50"/>
    <tag k="name" v="Heiligenstädter Straße"/>
    <tag k="ref" v="B221"/>
  </way>
  <way id="22276621" version="7" timestamp="2008-12-18T16:12:06Z" uid="80849" user="mond" changeset="467124">
    <nd ref="24950483"/>
    <nd ref="61671061"/>
    <nd ref="24950485"/>
    <nd ref="24950486"/>
    <nd ref="319755267"/>
    <nd ref="24950487"/>
    <tag k="created_by" v="Potlatch 0.7b"/>
    <tag k="highway" v="primary"/>
    <tag k="lanes" v="3"/>
    <tag k="maxspeed" v="50"/>
    <tag k="name" v="Heiligenstädter Straße"/>
    <tag k="ref" v="B221"/>
  </way>
  <way id="22276621" version="8" timestamp="2009-01-03T10:12:11Z" uid="58091" user="Andreas M" changeset="718986">
    <nd ref="24950483"/>
    <nd ref="61671061"/>
    <tag k="created_by" v="Potlatch 0.7b"/>
    <tag k="highway" v="primary"/>
    <tag k="lanes" v="3"/>
    <tag k="maxspeed" v="50"/>
    <tag k="name" v="Heiligenstädter Straße"/>
    <tag k="ref" v="B221"/>
  </way>
  <way id="22276629" version="4" timestamp="2010-07-07T08:34:09Z" uid="74617" user="JohnSmith" changeset="5156250">
    <nd ref="239506121"/>
    <nd ref="239521451"/>
    <nd ref="239521514"/>
    <nd ref="239521536"/>
    <nd ref="239521556"/>
    <tag k="highway" v="residential"/>
    <tag k="maxspeed" v="50"/>
    <tag k="maxspeed:source" v="default residential speed limit in Australia"/>
    <tag k="name" v="Crick Place"/>
  </way>
  <way id="22276629" version="5" timestamp="2012-01-15T21:58:00Z" uid="147510" user="woodpeck_fixbot" changeset="10402983">
    <nd ref="239506121"/>
    <nd ref="239521451"/>
    <nd ref="239521514"/>
    <nd ref="239521536"/>
    <nd ref="239521556"/>
    <tag k="highway" v="residential"/>
    <tag k="name" v="Crick Place"/>
  </way>
  <way id="22276630" version="3" timestamp="2010-07-07T08:39:14Z" uid="74617" user="JohnSmith" changeset="5156250">
    <nd ref="239506214"/>
    <nd ref="239521638"/>
    <nd ref="239521659"/>
    <nd ref="239521682"/>
    <nd ref="239521704"/>
    <nd ref="239521718"/>
    <nd ref="239521732"/>
    <nd ref="239521741"/>
    <nd ref="239521755"/>
    <nd ref="239521779"/>
    <tag k="highway" v="residential"/>
    <tag k="maxspeed" v="50"/>
    <tag k="maxspeed:source" v="default residential speed limit in Australia"/>
    <tag k="name" v="Strong Place"/>
  </way>
  <way id="22276630" version="4" timestamp="2012-01-15T21:58:01Z" uid="147510" user="woodpeck_fixbot" changeset="10402983">
    <nd ref="239506214"/>
    <nd ref="239521638"/>
    <nd ref="239521659"/>
    <nd ref="239521682"/>
    <nd ref="239521704"/>
    <nd ref="239521718"/>
    <nd ref="239521732"/>
    <nd ref="239521741"/>
    <nd ref="239521755"/>
    <nd ref="239521779"/>
    <tag k="highway" v="residential"/>
    <tag k="name" v="Strong Place"/>
  </way>
  <way id="22276631" version="4" timestamp="2010-07-07T08:35:37Z" uid="74617" user="JohnSmith" changeset="5156250">
    <nd ref="239506228"/>
    <nd ref="239521874"/>
    <nd ref="239521897"/>
    <nd ref="239521918"/>
    <tag k="highway" v="residential"/>
    <tag k="maxspeed" v="50"/>
    <tag k="maxspeed:source" v="default residential speed limit in Australia"/>
    <tag k="name" v="Solly Place"/>
  </way>
  <way id="22276631" version="5" timestamp="2012-01-15T21:58:02Z" uid="147510" user="woodpeck_fixbot" changeset="10402983">
    <nd ref="239506228"/>
    <nd ref="239521874"/>
    <nd ref="239521897"/>
    <nd ref="239521918"/>
    <tag k="highway" v="residential"/>
    <tag k="name" v="Solly Place"/>
  </way>
  <way id="22276641" version="3" timestamp="2010-07-07T08:39:35Z" uid="74617" user="JohnSmith" changeset="5156250">
    <nd ref="239506260"/>
    <nd ref="239526832"/>
    <nd ref="239526851"/>
    <nd ref="239526864"/>
    <nd ref="239526881"/>
    <nd ref="239526904"/>
    <nd ref="239526924"/>
    <nd ref="239526932"/>
    <tag k="highway" v="residential"/>
    <tag k="maxspeed" v="50"/>
    <tag k="maxspeed:source" v="default residential speed limit in Australia"/>
    <tag k="name" v="Fenwick Place"/>
  </way>
  <way id="22276641" version="4" timestamp="2012-01-15T21:58:03Z" uid="147510" user="woodpeck_fixbot" changeset="10402983">
    <nd ref="239506260"/>
    <nd ref="239526832"/>
    <nd ref="239526851"/>
    <nd ref="239526864"/>
    <nd ref="239526881"/>
    <nd ref="239526904"/>
    <nd ref="239526924"/>
    <nd ref="239526932"/>
    <tag k="highway" v="residential"/>
    <tag k="name" v="Fenwick Place"/>
  </way>
  <way id="22276642" version="4" timestamp="2010-07-07T08:36:04Z" uid="74617" user="JohnSmith" changeset="5156250">
    <nd ref="239506289"/>
    <nd ref="239527006"/>
    <nd ref="239527055"/>
    <nd ref="239527078"/>
    <tag k="highway" v="residential"/>
    <tag k="maxspeed" v="50"/>
    <tag k="maxspeed:source" v="default residential speed limit in Australia"/>
    <tag k="name" v="Hagon Place"/>
  </way>
  <way id="22276642" version="5" timestamp="2012-01-15T21:58:04Z" uid="147510" user="woodpeck_fixbot" changeset="10402983">
    <nd ref="239506289"/>
    <nd ref="239527006"/>
    <nd ref="239527055"/>
    <nd ref="239527078"/>
    <tag k="highway" v="residential"/>
    <tag k="name" v="Hagon Place"/>
  </way>
  <way id="22276649" version="8" timestamp="2011-05-05T13:13:24Z" uid="115477" user="wowik" changeset="8056985">
    <nd ref="80260470"/>
    <nd ref="644014417"/>
    <nd ref="1161553952"/>
    <nd ref="239529308"/>
    <nd ref="1161551225"/>
    <nd ref="644014408"/>
    <nd ref="644014416"/>
    <nd ref="644014410"/>
    <nd ref="1161552681"/>
    <nd ref="239529310"/>
    <nd ref="1161553710"/>
    <nd ref="644014411"/>
    <nd ref="1161550919"/>
    <nd ref="239529311"/>
    <nd ref="1161552332"/>
    <nd ref="239529314"/>
    <nd ref="1161553465"/>
    <nd ref="1161553219"/>
    <nd ref="239529315"/>
    <nd ref="644014414"/>
    <nd ref="1161554236"/>
    <nd ref="239529317"/>
    <nd ref="1161551543"/>
    <nd ref="644014383"/>
    <nd ref="1161552938"/>
    <nd ref="264445099"/>
    <tag k="highway" v="motorway_link"/>
    <tag k="lanes" v="1"/>
    <tag k="lit" v="yes"/>
    <tag k="oneway" v="yes"/>
  </way>
  <way id="22276649" version="9" timestamp="2012-03-22T07:25:41Z" uid="336354" user="esaulenka" changeset="11059887"/>
  <way id="22276652" version="8" timestamp="2011-05-05T13:13:24Z" uid="115477" user="wowik" changeset="8056985">
    <nd ref="239530273"/>
    <nd ref="239530274"/>
    <nd ref="1161554523"/>
    <nd ref="644014378"/>
    <nd ref="1161553394"/>
    <nd ref="239530275"/>
    <nd ref="311844923"/>
    <nd ref="1161553294"/>
    <nd ref="239530278"/>
    <nd ref="1161552090"/>
    <nd ref="644014370"/>
    <nd ref="1161554711"/>
    <nd ref="239530280"/>
    <nd ref="1161553524"/>
    <nd ref="644014390"/>
    <nd ref="1161552425"/>
    <nd ref="1161550996"/>
    <nd ref="1161553777"/>
    <nd ref="644014392"/>
    <nd ref="644014394"/>
    <nd ref="1161552788"/>
    <nd ref="239530284"/>
    <nd ref="644014396"/>
    <nd ref="1161551333"/>
    <nd ref="644014397"/>
    <nd ref="1161554022"/>
    <nd ref="644014399"/>
    <nd ref="264445096"/>
    <tag k="highway" v="motorway_link"/>
    <tag k="lanes" v="1"/>
    <tag k="lit" v="yes"/>
    <tag k="oneway" v="yes"/>
  </way>
  <way id="22276652" version="9" timestamp="2012-03-22T07:25:44Z" uid="336354" user="esaulenka" changeset="11059887"/>
  <way id="22276681" version="3" timestamp="2010-07-07T08:37:37Z" uid="74617" user="JohnSmith" changeset="5156250">
    <nd ref="239506337"/>
    <nd ref="239537572"/>
    <nd ref="239537647"/>
    <nd ref="239537671"/>
    <nd ref="239537695"/>
    <nd ref="239537719"/>
    <nd ref="239537647"/>
    <tag k="highway" v="residential"/>
    <tag k="maxspeed" v="50"/>
    <tag k="maxspeed:source" v="default residential speed limit in Australia"/>
    <tag k="name" v="Pleasance Place"/>
  </way>
  <way id="22276681" version="4" timestamp="2012-01-15T21:58:05Z" uid="147510" user="woodpeck_fixbot" changeset="10402983">
    <nd ref="239506337"/>
    <nd ref="239537572"/>
    <nd ref="239537647"/>
    <nd ref="239537671"/>
    <nd ref="239537695"/>
    <nd ref="239537719"/>
    <nd ref="239537647"/>
    <tag k="highway" v="residential"/>
    <tag k="name" v="Pleasance Place"/>
  </way>
  <way id="22276682" version="4" timestamp="2010-07-07T08:33:42Z" uid="74617" user="JohnSmith" changeset="5156250">
    <nd ref="239506406"/>
    <nd ref="239537741"/>
    <nd ref="239537764"/>
    <nd ref="664202459"/>
    <nd ref="239537783"/>
    <tag k="highway" v="residential"/>
    <tag k="maxspeed" v="50"/>
    <tag k="maxspeed:source" v="default residential speed limit in Australia"/>
    <tag k="name" v="Gatehouse Place"/>
  </way>
  <way id="22276682" version="5" timestamp="2012-01-15T21:58:07Z" uid="147510" user="woodpeck_fixbot" changeset="10402983">
    <nd ref="239506406"/>
    <nd ref="239537741"/>
    <nd ref="239537764"/>
    <nd ref="664202459"/>
    <nd ref="239537783"/>
    <tag k="highway" v="residential"/>
    <tag k="name" v="Gatehouse Place"/>
  </way>
  <way id="22276683" version="3" timestamp="2010-07-07T08:38:55Z" uid="74617" user="JohnSmith" changeset="5156250">
    <nd ref="239506447"/>
    <nd ref="239537901"/>
    <nd ref="239537923"/>
    <nd ref="239537946"/>
    <tag k="highway" v="residential"/>
    <tag k="maxspeed" v="50"/>
    <tag k="maxspeed:source" v="default residential speed limit in Australia"/>
    <tag k="name" v="Buik Place"/>
  </way>
  <way id="22276683" version="4" timestamp="2012-01-15T21:58:08Z" uid="147510" user="woodpeck_fixbot" changeset="10402983">
    <nd ref="239506447"/>
    <nd ref="239537901"/>
    <nd ref="239537923"/>
    <nd ref="239537946"/>
    <tag k="highway" v="residential"/>
    <tag k="name" v="Buik Place"/>
  </way>
  <way id="22276868" version="4" timestamp="2010-07-07T08:32:19Z" uid="74617" user="JohnSmith" changeset="5156250">
    <nd ref="239506478"/>
    <nd ref="239545787"/>
    <nd ref="239545873"/>
    <nd ref="239545922"/>
    <tag k="highway" v="residential"/>
    <tag k="maxspeed" v="50"/>
    <tag k="maxspeed:source" v="default residential speed limit in Australia"/>
    <tag k="name" v="Allott Place"/>
  </way>
  <way id="22276868" version="5" timestamp="2012-01-15T21:58:09Z" uid="147510" user="woodpeck_fixbot" changeset="10402983">
    <nd ref="239506478"/>
    <nd ref="239545787"/>
    <nd ref="239545873"/>
    <nd ref="239545922"/>
    <tag k="highway" v="residential"/>
    <tag k="name" v="Allott Place"/>
  </way>
  <way id="22276870" version="4" timestamp="2010-07-07T08:33:47Z" uid="74617" user="JohnSmith" changeset="5156250">
    <nd ref="239506524"/>
    <nd ref="239546024"/>
    <nd ref="239546050"/>
    <nd ref="239546076"/>
    <nd ref="239546101"/>
    <nd ref="239546126"/>
    <nd ref="239546152"/>
    <nd ref="239546178"/>
    <nd ref="239546202"/>
    <nd ref="239546230"/>
    <nd ref="239546286"/>
    <nd ref="239546303"/>
    <tag k="highway" v="residential"/>
    <tag k="maxspeed" v="50"/>
    <tag k="maxspeed:source" v="default residential speed limit in Australia"/>
    <tag k="name" v="Renny Place"/>
  </way>
  <way id="22276870" version="5" timestamp="2012-01-15T21:58:10Z" uid="147510" user="woodpeck_fixbot" changeset="10402983">
    <nd ref="239506524"/>
    <nd ref="239546024"/>
    <nd ref="239546050"/>
    <nd ref="239546076"/>
    <nd ref="239546101"/>
    <nd ref="239546126"/>
    <nd ref="239546152"/>
    <nd ref="239546178"/>
    <nd ref="239546202"/>
    <nd ref="239546230"/>
    <nd ref="239546286"/>
    <nd ref="239546303"/>
    <tag k="highway" v="residential"/>
    <tag k="name" v="Renny Place"/>
  </way>
  <way id="22276969" version="3" timestamp="2010-06-29T19:06:43Z" uid="74617" user="JohnSmith" changeset="5108182">
    <nd ref="239564256"/>
    <nd ref="239564259"/>
    <nd ref="239564266"/>
    <nd ref="239564276"/>
    <nd ref="239564256"/>
    <tag k="fixme" v="sport=football is ambiguous, see http://wiki.osm.org/wiki/Football for more details"/>
    <tag k="name" v="Garganes"/>
    <tag k="sport" v="football"/>
  </way>
  <way id="22276969" version="4" timestamp="2011-07-26T14:51:45Z" uid="179581" user="Geofreund1" changeset="8836605">
    <nd ref="239564256"/>
    <nd ref="239564259"/>
    <nd ref="239564266"/>
    <nd ref="239564276"/>
    <nd ref="239564256"/>
    <tag k="leisure" v="pitch"/>
    <tag k="name" v="Garganes"/>
    <tag k="sport" v="soccer"/>
  </way>
  <way id="22276621" version="9" timestamp="2012-07-17T00:23:59Z" uid="722137" user="OSMF Redaction Account" changeset="12254135"/>
</osm>
