<?xml version='1.0' encoding='UTF-8'?>
<osm version="0.6" generator="libosmium/2.20.0">
  <way id="22307237" version="11" timestamp="2010-07-14T23:50:07Z" uid="4467" user="Rosscoe" changeset="5222858">
    <nd ref="57238979"/>
    <nd ref="237474303"/>
    <nd ref="260146811"/>
    <nd ref="259993619"/>
    <nd ref="260146941"/>
    <nd ref="599605303"/>
    <nd ref="237474009"/>
    <nd ref="363078671"/>
    <tag k="highway" v="trunk"/>
    <tag k="is_in" v="Parkside,South Australia,Australia"/>
    <tag k="lanes" v="3"/>
    <tag k="maxspeed" v="60"/>
    <tag k="name" v="Greenhill Road"/>
    <tag k="oneway" v="yes"/>
    <tag k="postal_code" v="5063"/>
    <tag k="ref" v="A21"/>
    <tag k="source" v="survey"/>
  </way>
  <way id="22307237" version="12" timestamp="2010-08-16T05:46:06Z" uid="4467" user="Rosscoe" changeset="5506276">
    <nd ref="132446450"/>
    <nd ref="237498935"/>
    <nd ref="260148271"/>
    <nd ref="260148148"/>
    <nd ref="57238979"/>
    <nd ref="237474303"/>
    <nd ref="260146811"/>
    <nd ref="259993619"/>
    <nd ref="260146941"/>
    <nd ref="599605303"/>
    <nd ref="237474009"/>
    <nd ref="363078671"/>
    <tag k="highway" v="trunk"/>
    <tag k="is_in" v="Parkside,South Australia,Australia"/>
    <tag k="lanes" v="3"/>
    <tag k="maxspeed" v="60"/>
    <tag k="name" v="Greenhill Road"/>
    <tag k="oneway" v="yes"/>
    <tag k="postal_code" v="5063"/>
    <tag k="ref" v="A21"/>
    <tag k="source" v="survey"/>
  </way>
  <way id="22307237" version="13" timestamp="2010-09-15T12:01:36Z" uid="10145" user="kizza" changeset="5786488">
    <nd ref="132446450"/>
    <nd ref="237498935"/>
    <nd ref="260148271"/>
    <nd ref="260148148"/>
    <nd ref="57238979"/>
    <nd ref="237474303"/>
    <nd ref="260146811"/>
    <nd ref="259993619"/>
    <nd ref="260146941"/>
    <nd ref="599605303"/>
    <nd ref="237474009"/>
    <nd ref="363078671"/>
    <tag k="cycleway" v="lane"/>
    <tag k="highway" v="trunk"/>
    <tag k="is_in" v="Parkside,South Australia,Australia"/>
    <tag k="lanes" v="3"/>
    <tag k="maxspeed" v="60"/>
    <tag k="name" v="Greenhill Road"/>
    <tag k="oneway" v="yes"/>
    <tag k="postal_code" v="5063"/>
    <tag k="ref" v="A21"/>
    <tag k="source" v="survey"/>
  </way>
  <way id="22307237" version="14" timestamp="2010-09-27T03:51:35Z" uid="79475" user="AlexOnTheBus" changeset="5888740">
    <nd ref="132446450"/>
    <nd ref="237498935"/>
    <nd ref="260148271"/>
    <nd ref="260148148"/>
    <nd ref="57238979"/>
    <nd ref="237474303"/>
    <nd ref="260146811"/>
    <nd ref="259993619"/>
    <nd ref="260146941"/>
    <nd ref="599605303"/>
    <nd ref="237474009"/>
    <nd ref="363078671"/>
    <tag k="cycleway" v="lane"/>
    <tag k="highway" v="primary"/>
    <tag k="is_in" v="Parkside,South Australia,Australia"/>
    <tag k="lanes" v="3"/>
    <tag k="maxspeed" v="60"/>
    <tag k="name" v="Greenhill Road"/>
    <tag k="oneway" v="yes"/>
    <tag k="postal_code" v="5063"/>
    <tag k="ref" v="A21"/>
    <tag k="source" v="survey"/>
  </way>
  <way id="22307237" version="15" timestamp="2012-06-13T13:08:19Z" uid="328538" user="o&apos;cholio" changeset="11884814">
    <nd ref="1785991927"/>
    <nd ref="260148271"/>
    <nd ref="260148148"/>
    <nd ref="57238979"/>
    <nd ref="237474303"/>
    <nd ref="260146811"/>
    <nd ref="259993619"/>
    <nd ref="260146941"/>
    <nd ref="599605303"/>
    <nd ref="237474009"/>
    <nd ref="363078671"/>
    <tag k="cycleway" v="lane"/>
    <tag k="highway" v="primary"/>
    <tag k="is_in" v="Parkside,South Australia,Australia"/>
    <tag k="lanes" v="3"/>
    <tag k="maxspeed" v="60"/>
    <tag k="name" v="Greenhill Road"/>
    <tag k="oneway" v="yes"/>
    <tag k="postal_code" v="5063"/>
    <tag k="ref" v="A21"/>
    <tag k="source" v="survey"/>
  </way>
  <way id="22307237" version="16" timestamp="2012-07-19T22:50:02Z" uid="722137" user="OSMF Redaction Account" changeset="12351002">
    <nd ref="1785991927"/>
    <nd ref="57238979"/>
    <nd ref="237474303"/>
    <nd ref="260146811"/>
    <nd ref="259993619"/>
    <nd ref="260146941"/>
    <nd ref="599605303"/>
    <nd ref="237474009"/>
    <tag k="cycleway" v="lane"/>
    <tag k="highway" v="primary"/>
    <tag k="is_in" v="Parkside,South Australia,Australia"/>
    <tag k="maxspeed" v="60"/>
    <tag k="name" v="Greenhill Road"/>
    <tag k="oneway" v="yes"/>
    <tag k="postal_code" v="5063"/>
    <tag k="source" v="survey"/>
  </way>
</osm>
