<?xml version='1.0' encoding='UTF-8'?>
<osm version="0.6" generator="libosmium/2.20.0">
  <way id="22379313" version="3" timestamp="2008-10-09T18:25:45Z" uid="67142" user="zottel" changeset="190132">
    <nd ref="105578035"/>
    <nd ref="240638724"/>
    <nd ref="303358083"/>
    <nd ref="303358084"/>
    <nd ref="240638728"/>
    <nd ref="294308668"/>
    <nd ref="240638732"/>
    <tag k="created_by" v="JOSM"/>
    <tag k="highway" v="residential"/>
    <tag k="maxspeed" v="30"/>
    <tag k="name" v="Waldstraße"/>
  </way>
  <way id="22379313" version="4" timestamp="2008-10-09T19:18:52Z" uid="67142" user="zottel" changeset="190132"/>
  <way id="22379314" version="4" timestamp="2008-10-09T18:25:45Z" uid="67142" user="zottel" changeset="190132">
    <nd ref="294303235"/>
    <nd ref="294308665"/>
    <nd ref="294308662"/>
    <nd ref="294308661"/>
    <nd ref="294308660"/>
    <nd ref="294308659"/>
    <nd ref="294308658"/>
    <nd ref="294308657"/>
    <nd ref="303358210"/>
    <nd ref="294308656"/>
    <nd ref="240638742"/>
    <nd ref="240638745"/>
    <nd ref="294308679"/>
    <nd ref="240638749"/>
    <nd ref="240638753"/>
    <nd ref="303357914"/>
    <nd ref="105578024"/>
    <tag k="created_by" v="JOSM"/>
    <tag k="highway" v="residential"/>
    <tag k="maxspeed" v="30"/>
    <tag k="name" v="Hohenwarter Straße"/>
  </way>
  <way id="22379314" version="5" timestamp="2008-10-09T19:18:50Z" uid="67142" user="zottel" changeset="190132">
    <nd ref="294303235"/>
    <nd ref="294308665"/>
    <nd ref="294308662"/>
    <nd ref="294308661"/>
    <nd ref="294308660"/>
    <nd ref="294308659"/>
    <nd ref="294308658"/>
    <nd ref="303368982"/>
    <tag k="created_by" v="JOSM"/>
    <tag k="highway" v="residential"/>
    <tag k="maxweight" v="3"/>
    <tag k="name" v="Hohenwarter Straße"/>
  </way>
  <way id="22379314" version="6" timestamp="2008-10-23T17:23:45Z" uid="63384" user="iaby" changeset="539305">
    <nd ref="294303235"/>
    <nd ref="294308665"/>
    <nd ref="294308662"/>
    <nd ref="294308661"/>
    <nd ref="294308660"/>
    <nd ref="294308659"/>
    <nd ref="294308658"/>
    <nd ref="303368982"/>
    <tag k="created_by" v="JOSM"/>
    <tag k="highway" v="unclassified"/>
    <tag k="maxweight" v="3"/>
    <tag k="name" v="Hohenwarter Straße"/>
  </way>
  <way id="22379314" version="7" timestamp="2009-04-06T15:11:14Z" uid="63384" user="iaby" changeset="273665">
    <nd ref="294303235"/>
    <nd ref="370343366"/>
    <nd ref="294308665"/>
    <nd ref="294308662"/>
    <nd ref="294308661"/>
    <nd ref="294308660"/>
    <nd ref="294308659"/>
    <nd ref="294308658"/>
    <nd ref="303368982"/>
    <tag k="created_by" v="JOSM"/>
    <tag k="highway" v="unclassified"/>
    <tag k="maxweight" v="3"/>
    <tag k="name" v="Hohenwarter Straße"/>
  </way>
  <way id="22379314" version="8" timestamp="2009-05-26T13:26:43Z" uid="85761" user="klausis" changeset="1325782">
    <nd ref="294303235"/>
    <nd ref="370343366"/>
    <nd ref="294308665"/>
    <nd ref="294308662"/>
    <nd ref="294308661"/>
    <nd ref="294308660"/>
    <nd ref="294308659"/>
    <nd ref="294308658"/>
    <nd ref="303368982"/>
    <tag k="highway" v="unclassified"/>
    <tag k="maxweight" v="3"/>
    <tag k="name" v="Hohenwarter Straße"/>
  </way>
  <way id="22379314" version="9" timestamp="2009-10-04T14:38:11Z" uid="16330" user="aluka" changeset="2737841">
    <nd ref="294303235"/>
    <nd ref="370343366"/>
    <tag k="highway" v="unclassified"/>
    <tag k="maxweight" v="3"/>
    <tag k="name" v="Hohenwarter Straße"/>
  </way>
  <way id="22379316" version="2" timestamp="2008-10-09T19:56:30Z" uid="67142" user="zottel" changeset="190132">
    <nd ref="240638732"/>
    <nd ref="303380479"/>
    <nd ref="240638737"/>
    <nd ref="240638742"/>
    <tag k="created_by" v="JOSM"/>
    <tag k="highway" v="residential"/>
    <tag k="maxspeed" v="30"/>
    <tag k="name" v="Ritterstraße"/>
  </way>
  <way id="22379316" version="3" timestamp="2008-10-12T13:15:07Z" uid="63384" user="iaby" changeset="291370">
    <nd ref="240638732"/>
    <nd ref="303380479"/>
    <nd ref="240638737"/>
    <nd ref="240638742"/>
    <tag k="created_by" v="JOSM"/>
    <tag k="highway" v="residential"/>
    <tag k="maxspeed" v="30"/>
    <tag k="name" v="Ritterstraße"/>
  </way>
  <way id="22379316" version="4" timestamp="2008-10-29T09:14:58Z" uid="67142" user="zottel" changeset="619025">
    <nd ref="240638732"/>
    <nd ref="303380479"/>
    <nd ref="240638742"/>
    <tag k="created_by" v="JOSM"/>
    <tag k="highway" v="residential"/>
    <tag k="maxspeed" v="30"/>
    <tag k="name" v="Ritterstraße"/>
  </way>
  <way id="22379316" version="5" timestamp="2011-11-18T12:30:36Z" uid="442210" user="dwausr" changeset="9863299">
    <nd ref="240638732"/>
    <nd ref="303380479"/>
    <nd ref="240638742"/>
    <tag k="highway" v="residential"/>
    <tag k="maxspeed" v="30"/>
    <tag k="name" v="Ritterstraße"/>
  </way>
  <way id="22379316" version="6" timestamp="2011-11-18T13:51:45Z" uid="442210" user="dwausr" changeset="9864031">
    <nd ref="240638732"/>
    <nd ref="303380479"/>
    <nd ref="1507304859"/>
    <tag k="highway" v="residential"/>
    <tag k="maxspeed" v="30"/>
    <tag k="name" v="Ritterstraße"/>
  </way>
  <way id="22379316" version="7" timestamp="2012-02-07T16:02:45Z" uid="442210" user="dwausr" changeset="10613475"/>
  <way id="22379314" version="10" timestamp="2012-07-19T16:06:14Z" uid="722137" user="OSMF Redaction Account" changeset="12337680">
    <nd ref="294303235"/>
    <nd ref="370343366"/>
    <tag k="highway" v="unclassified"/>
    <tag k="name" v="Hohenwarter Straße"/>
  </way>
</osm>
