<?xml version='1.0' encoding='UTF-8'?>
<osm version="0.6" generator="libosmium/2.20.0">
  <way id="22416138" version="3" timestamp="2008-07-05T20:06:09Z" uid="6975" user="ulfl" changeset="398437">
    <nd ref="240943976"/>
    <nd ref="240964889"/>
    <nd ref="240943984"/>
    <nd ref="240943987"/>
    <tag k="highway" v="unclassified"/>
    <tag k="name" v="Marshalls Court"/>
    <tag k="surface" v="cobblestone"/>
  </way>
  <way id="22416138" version="4" timestamp="2010-06-12T09:33:59Z" uid="69853" user="Central America" changeset="4968768">
    <nd ref="240943976"/>
    <nd ref="240964889"/>
    <nd ref="240943984"/>
    <nd ref="240943987"/>
    <tag k="fixme" v="name"/>
    <tag k="highway" v="unclassified"/>
    <tag k="name" v="Marshalls Court"/>
    <tag k="not" v="Marshall&apos;s Court"/>
    <tag k="note" v="this needs checked with the council"/>
    <tag k="surface" v="cobblestone"/>
  </way>
  <way id="22416138" version="5" timestamp="2010-08-29T13:46:25Z" uid="69853" user="Central America" changeset="5625873">
    <nd ref="240943976"/>
    <nd ref="240964889"/>
    <nd ref="240943984"/>
    <nd ref="240943987"/>
    <tag k="fixme" v="name"/>
    <tag k="highway" v="unclassified"/>
    <tag k="name" v="Marshalls Court"/>
    <tag k="not" v="Marshall&apos;s Court"/>
    <tag k="note" v="Edinburgh Council name is Marshall&apos;s Court"/>
    <tag k="surface" v="cobblestone"/>
  </way>
  <way id="22416138" version="6" timestamp="2010-09-01T16:03:23Z" uid="69853" user="Central America" changeset="5654958">
    <nd ref="240943976"/>
    <nd ref="240964889"/>
    <nd ref="240943984"/>
    <nd ref="240943987"/>
    <tag k="highway" v="service"/>
    <tag k="name" v="Marshall&apos;s Court"/>
    <tag k="note" v="Edinburgh Council name is Marshall&apos;s Court"/>
    <tag k="source" v="survey"/>
    <tag k="surface" v="cobblestone"/>
  </way>
  <way id="22416138" version="7" timestamp="2012-06-06T15:50:26Z" uid="27824" user="phut" changeset="11816950">
    <nd ref="240943976"/>
    <nd ref="240943984"/>
    <nd ref="240943987"/>
    <tag k="highway" v="service"/>
    <tag k="name" v="Marshall&apos;s Court"/>
    <tag k="note" v="Edinburgh Council name is Marshall&apos;s Court"/>
    <tag k="source" v="survey"/>
    <tag k="surface" v="cobblestone"/>
  </way>
</osm>
