<?xml version='1.0' encoding='UTF-8'?>
<osm version="0.6" generator="libosmium/2.20.0">
  <way id="22483218" version="5" timestamp="2010-07-07T10:31:47Z" uid="74617" user="JohnSmith" changeset="5157498">
    <nd ref="241278241"/>
    <nd ref="241278716"/>
    <nd ref="241278242"/>
    <tag k="highway" v="residential"/>
    <tag k="maxspeed" v="50"/>
    <tag k="maxspeed:source" v="default residential speed limit in Australia"/>
    <tag k="name" v="Hoffman Drive"/>
    <tag k="source" v="yahoo"/>
  </way>
  <way id="22483218" version="6" timestamp="2012-01-15T22:09:14Z" uid="147510" user="woodpeck_fixbot" changeset="10402983">
    <nd ref="241278241"/>
    <nd ref="241278716"/>
    <nd ref="241278242"/>
    <tag k="highway" v="residential"/>
    <tag k="name" v="Hoffman Drive"/>
    <tag k="source" v="yahoo"/>
  </way>
  <way id="22483263" version="4" timestamp="2010-07-07T10:31:56Z" uid="74617" user="JohnSmith" changeset="5157498">
    <nd ref="241278295"/>
    <nd ref="241278296"/>
    <tag k="highway" v="residential"/>
    <tag k="maxspeed" v="50"/>
    <tag k="maxspeed:source" v="default residential speed limit in Australia"/>
    <tag k="name" v="The Springs Avenue"/>
    <tag k="source" v="yahoo"/>
  </way>
  <way id="22483263" version="5" timestamp="2012-01-15T22:09:16Z" uid="147510" user="woodpeck_fixbot" changeset="10402983">
    <nd ref="241278295"/>
    <nd ref="241278296"/>
    <tag k="highway" v="residential"/>
    <tag k="name" v="The Springs Avenue"/>
    <tag k="source" v="yahoo"/>
  </way>
  <way id="22483357" version="5" timestamp="2010-07-07T10:30:18Z" uid="74617" user="JohnSmith" changeset="5157498">
    <nd ref="241278406"/>
    <nd ref="635744498"/>
    <nd ref="241278241"/>
    <tag k="highway" v="residential"/>
    <tag k="maxspeed" v="50"/>
    <tag k="maxspeed:source" v="default residential speed limit in Australia"/>
    <tag k="name" v="Lake Drive"/>
    <tag k="source" v="yahoo"/>
  </way>
  <way id="22483357" version="6" timestamp="2012-01-15T22:09:16Z" uid="147510" user="woodpeck_fixbot" changeset="10402983">
    <nd ref="241278406"/>
    <nd ref="635744498"/>
    <nd ref="241278241"/>
    <tag k="highway" v="residential"/>
    <tag k="name" v="Lake Drive"/>
    <tag k="source" v="yahoo"/>
  </way>
  <way id="22483628" version="3" timestamp="2008-04-17T23:39:33Z" uid="30201" user="rrankin" changeset="177600">
    <nd ref="241278406"/>
    <nd ref="241278715"/>
    <tag k="created_by" v="Potlatch 0.8a"/>
    <tag k="highway" v="residential"/>
    <tag k="name" v="Yaroma Avenue"/>
    <tag k="source" v="yahoo"/>
  </way>
  <way id="22483628" version="4" timestamp="2008-04-17T23:39:52Z" uid="30201" user="rrankin" changeset="177600">
    <nd ref="241278406"/>
    <nd ref="241278715"/>
    <tag k="created_by" v="Potlatch 0.8a"/>
    <tag k="highway" v="residential"/>
    <tag k="name" v="Sunset Avenue"/>
    <tag k="source" v="yahoo"/>
  </way>
  <way id="22483628" version="5" timestamp="2010-02-11T09:44:34Z" uid="85802" user="Matthew Geier" changeset="3846774">
    <nd ref="241278406"/>
    <nd ref="241278715"/>
    <tag k="highway" v="residential"/>
    <tag k="name" v="Yaroma Avenue"/>
    <tag k="source" v="yahoo"/>
  </way>
  <way id="22483628" version="6" timestamp="2010-07-07T10:30:55Z" uid="74617" user="JohnSmith" changeset="5157498">
    <nd ref="241278406"/>
    <nd ref="241278715"/>
    <tag k="highway" v="residential"/>
    <tag k="maxspeed" v="50"/>
    <tag k="maxspeed:source" v="default residential speed limit in Australia"/>
    <tag k="name" v="Yaroma Avenue"/>
    <tag k="source" v="yahoo"/>
  </way>
  <way id="22483628" version="7" timestamp="2012-01-15T22:09:17Z" uid="147510" user="woodpeck_fixbot" changeset="10402983">
    <nd ref="241278406"/>
    <nd ref="241278715"/>
    <tag k="highway" v="residential"/>
    <tag k="name" v="Yaroma Avenue"/>
    <tag k="source" v="yahoo"/>
  </way>
  <way id="22483733" version="3" timestamp="2010-07-07T10:32:15Z" uid="74617" user="JohnSmith" changeset="5157498">
    <nd ref="241278296"/>
    <nd ref="241278840"/>
    <nd ref="241278841"/>
    <nd ref="241278842"/>
    <nd ref="241278843"/>
    <nd ref="241278844"/>
    <nd ref="241278841"/>
    <tag k="highway" v="residential"/>
    <tag k="maxspeed" v="50"/>
    <tag k="maxspeed:source" v="default residential speed limit in Australia"/>
    <tag k="name" v="Sunset Avenue"/>
    <tag k="source" v="yahoo"/>
  </way>
  <way id="22483733" version="4" timestamp="2012-01-15T22:09:18Z" uid="147510" user="woodpeck_fixbot" changeset="10402983">
    <nd ref="241278296"/>
    <nd ref="241278840"/>
    <nd ref="241278841"/>
    <nd ref="241278842"/>
    <nd ref="241278843"/>
    <nd ref="241278844"/>
    <nd ref="241278841"/>
    <tag k="highway" v="residential"/>
    <tag k="name" v="Sunset Avenue"/>
    <tag k="source" v="yahoo"/>
  </way>
</osm>
