<?xml version='1.0' encoding='UTF-8'?>
<osm version="0.6" generator="libosmium/2.20.0">
  <way id="22498189" version="4" timestamp="2008-05-26T07:45:54Z" uid="30201" user="rrankin" changeset="523263">
    <nd ref="241522309"/>
    <nd ref="241528620"/>
    <nd ref="241528622"/>
    <nd ref="241528624"/>
    <nd ref="241523313"/>
    <tag k="created_by" v="Potlatch 0.6c"/>
    <tag k="highway" v="residential"/>
    <tag k="name" v="The Close"/>
  </way>
  <way id="22498189" version="5" timestamp="2010-02-15T13:38:41Z" uid="7617" user="Franc" changeset="3883208">
    <nd ref="241522309"/>
    <nd ref="639650502"/>
    <nd ref="241528620"/>
    <nd ref="241528622"/>
    <nd ref="639650499"/>
    <nd ref="241528624"/>
    <nd ref="241523313"/>
    <tag k="highway" v="residential"/>
    <tag k="name" v="The Close"/>
  </way>
  <way id="22498189" version="6" timestamp="2010-07-08T02:40:16Z" uid="74617" user="JohnSmith" changeset="5163091">
    <nd ref="241522309"/>
    <nd ref="639650502"/>
    <nd ref="241528620"/>
    <nd ref="241528622"/>
    <nd ref="639650499"/>
    <nd ref="241528624"/>
    <nd ref="241523313"/>
    <tag k="highway" v="residential"/>
    <tag k="maxspeed" v="50"/>
    <tag k="maxspeed:source" v="default residential speed limit in Australia"/>
    <tag k="name" v="The Close"/>
  </way>
  <way id="22498189" version="7" timestamp="2012-01-15T22:13:31Z" uid="147510" user="woodpeck_fixbot" changeset="10402983">
    <nd ref="241522309"/>
    <nd ref="639650502"/>
    <nd ref="241528620"/>
    <nd ref="241528622"/>
    <nd ref="639650499"/>
    <nd ref="241528624"/>
    <nd ref="241523313"/>
    <tag k="highway" v="residential"/>
    <tag k="name" v="The Close"/>
  </way>
  <way id="22498373" version="6" timestamp="2008-05-25T06:52:43Z" uid="30201" user="rrankin" changeset="514784">
    <nd ref="241529994"/>
    <nd ref="241529991"/>
    <nd ref="241529397"/>
    <tag k="created_by" v="Potlatch 0.9a"/>
    <tag k="highway" v="residential"/>
    <tag k="name" v="Loftus Crescent"/>
  </way>
  <way id="22498373" version="7" timestamp="2010-01-05T12:47:26Z" uid="30201" user="rrankin" changeset="3544973"/>
  <way id="22498375" version="4" timestamp="2008-05-25T06:52:45Z" uid="30201" user="rrankin" changeset="514784">
    <nd ref="241530251"/>
    <nd ref="241529991"/>
    <tag k="created_by" v="Potlatch 0.6c"/>
    <tag k="highway" v="residential"/>
    <tag k="name" v="Knight Street"/>
  </way>
  <way id="22498375" version="5" timestamp="2010-07-08T02:34:17Z" uid="74617" user="JohnSmith" changeset="5163091">
    <nd ref="241530251"/>
    <nd ref="241529991"/>
    <tag k="highway" v="residential"/>
    <tag k="maxspeed" v="50"/>
    <tag k="maxspeed:source" v="default residential speed limit in Australia"/>
    <tag k="name" v="Knight Street"/>
  </way>
  <way id="22498375" version="6" timestamp="2010-11-13T09:41:44Z" uid="7617" user="Franc" changeset="6356736">
    <nd ref="241530251"/>
    <nd ref="987448535"/>
    <nd ref="987448557"/>
    <tag k="highway" v="residential"/>
    <tag k="maxspeed" v="50"/>
    <tag k="maxspeed:source" v="default residential speed limit in Australia"/>
    <tag k="name" v="Knight Street"/>
  </way>
  <way id="22498375" version="7" timestamp="2012-01-15T22:13:32Z" uid="147510" user="woodpeck_fixbot" changeset="10402983">
    <nd ref="241530251"/>
    <nd ref="987448535"/>
    <nd ref="987448557"/>
    <tag k="highway" v="residential"/>
    <tag k="name" v="Knight Street"/>
  </way>
  <way id="22498375" version="8" timestamp="2012-02-15T20:08:02Z" uid="7523" user="inas" changeset="10695906">
    <nd ref="241530251"/>
    <nd ref="987448535"/>
    <nd ref="1634465488"/>
    <tag k="highway" v="residential"/>
    <tag k="name" v="Knight Street"/>
  </way>
  <way id="22498384" version="3" timestamp="2008-09-27T05:09:16Z" uid="7617" user="Franc" changeset="703319"/>
  <way id="22498389" version="2" timestamp="2008-07-05T11:26:04Z" uid="6975" user="ulfl" changeset="398437">
    <nd ref="241532031"/>
    <nd ref="241532032"/>
    <nd ref="241532033"/>
    <nd ref="241532034"/>
    <nd ref="241532035"/>
    <nd ref="241532037"/>
    <nd ref="241532039"/>
    <nd ref="241532041"/>
    <nd ref="241532031"/>
    <tag k="leisure" v="park"/>
  </way>
  <way id="22498395" version="5" timestamp="2010-01-05T12:47:26Z" uid="30201" user="rrankin" changeset="3544973"/>
  <way id="22498467" version="2" timestamp="2010-03-31T10:13:29Z" uid="74617" user="JohnSmith" changeset="4283972">
    <nd ref="241535794"/>
    <nd ref="241535796"/>
    <nd ref="241535797"/>
    <nd ref="241535798"/>
    <nd ref="241535799"/>
    <nd ref="241535800"/>
    <nd ref="241535801"/>
    <nd ref="241535802"/>
    <nd ref="241535803"/>
    <nd ref="241535804"/>
    <nd ref="241535805"/>
    <nd ref="241535806"/>
    <nd ref="241535807"/>
    <nd ref="241535808"/>
    <nd ref="241535809"/>
    <nd ref="241535794"/>
    <tag k="layer" v="-1"/>
    <tag k="leisure" v="park"/>
  </way>
  <way id="22498467" version="3" timestamp="2011-02-04T13:36:42Z" uid="4467" user="Rosscoe" changeset="7183265">
    <nd ref="241535794"/>
    <nd ref="241535796"/>
    <nd ref="241535797"/>
    <nd ref="241535798"/>
    <nd ref="241535799"/>
    <nd ref="241535800"/>
    <nd ref="241535801"/>
    <nd ref="241535802"/>
    <nd ref="241535803"/>
    <nd ref="1135626436"/>
    <nd ref="241535804"/>
    <nd ref="241535805"/>
    <nd ref="241535806"/>
    <nd ref="241535807"/>
    <nd ref="241535808"/>
    <nd ref="241535809"/>
    <nd ref="241535794"/>
    <tag k="layer" v="-1"/>
    <tag k="leisure" v="park"/>
  </way>
  <way id="22498467" version="4" timestamp="2012-02-16T19:28:07Z" uid="7523" user="inas" changeset="10704830">
    <nd ref="241535794"/>
    <nd ref="241535796"/>
    <nd ref="241535797"/>
    <nd ref="241535798"/>
    <nd ref="241535799"/>
    <nd ref="241535800"/>
    <nd ref="241535801"/>
    <nd ref="241535802"/>
    <nd ref="241535803"/>
    <nd ref="1635594749"/>
    <nd ref="241535804"/>
    <nd ref="241535805"/>
    <nd ref="241535806"/>
    <nd ref="241535807"/>
    <nd ref="241535808"/>
    <nd ref="241535809"/>
    <nd ref="241535794"/>
    <tag k="layer" v="-1"/>
    <tag k="leisure" v="park"/>
  </way>
  <way id="22498551" version="5" timestamp="2008-05-28T01:32:32Z" uid="30201" user="rrankin" changeset="537299">
    <nd ref="241541216"/>
    <nd ref="241541269"/>
    <nd ref="241543535"/>
    <nd ref="241541270"/>
    <tag k="created_by" v="Potlatch 0.6c"/>
    <tag k="highway" v="residential"/>
    <tag k="name" v="Park Road"/>
  </way>
  <way id="22498551" version="6" timestamp="2010-07-08T02:33:26Z" uid="74617" user="JohnSmith" changeset="5163091">
    <nd ref="241541216"/>
    <nd ref="241541269"/>
    <nd ref="241543535"/>
    <nd ref="241541270"/>
    <tag k="highway" v="residential"/>
    <tag k="maxspeed" v="50"/>
    <tag k="maxspeed:source" v="default residential speed limit in Australia"/>
    <tag k="name" v="Park Road"/>
  </way>
  <way id="22498551" version="7" timestamp="2010-11-13T09:41:44Z" uid="7617" user="Franc" changeset="6356736">
    <nd ref="241541216"/>
    <nd ref="987448514"/>
    <nd ref="241541269"/>
    <nd ref="241543535"/>
    <nd ref="987448523"/>
    <nd ref="241541270"/>
    <tag k="highway" v="residential"/>
    <tag k="maxspeed" v="50"/>
    <tag k="maxspeed:source" v="default residential speed limit in Australia"/>
    <tag k="name" v="Park Road"/>
  </way>
  <way id="22498551" version="8" timestamp="2012-01-15T22:13:33Z" uid="147510" user="woodpeck_fixbot" changeset="10402983">
    <nd ref="241541216"/>
    <nd ref="987448514"/>
    <nd ref="241541269"/>
    <nd ref="241543535"/>
    <nd ref="987448523"/>
    <nd ref="241541270"/>
    <tag k="highway" v="residential"/>
    <tag k="name" v="Park Road"/>
  </way>
  <way id="22498552" version="6" timestamp="2008-05-25T06:39:02Z" uid="30201" user="rrankin" changeset="514784">
    <nd ref="241541270"/>
    <nd ref="241541838"/>
    <tag k="created_by" v="Potlatch 0.6c"/>
    <tag k="highway" v="residential"/>
    <tag k="name" v="Park Road"/>
  </way>
  <way id="22498552" version="7" timestamp="2010-07-08T02:34:11Z" uid="74617" user="JohnSmith" changeset="5163091">
    <nd ref="241541270"/>
    <nd ref="241541838"/>
    <tag k="highway" v="residential"/>
    <tag k="maxspeed" v="50"/>
    <tag k="maxspeed:source" v="default residential speed limit in Australia"/>
    <tag k="name" v="Park Road"/>
  </way>
  <way id="22498552" version="8" timestamp="2012-01-15T22:13:34Z" uid="147510" user="woodpeck_fixbot" changeset="10402983">
    <nd ref="241541270"/>
    <nd ref="241541838"/>
    <tag k="highway" v="residential"/>
    <tag k="name" v="Park Road"/>
  </way>
  <way id="22498552" version="9" timestamp="2012-02-16T19:28:05Z" uid="7523" user="inas" changeset="10704830">
    <nd ref="241541270"/>
    <nd ref="241541838"/>
    <tag k="highway" v="residential"/>
    <tag k="maxspeed" v="50"/>
    <tag k="maxspeed:source" v="default residential speed limit in Australia"/>
    <tag k="name" v="Park Road"/>
  </way>
  <way id="22498553" version="3" timestamp="2009-04-24T23:58:00Z" uid="7617" user="Franc" changeset="935084">
    <nd ref="241541274"/>
    <nd ref="241541277"/>
    <nd ref="241541275"/>
    <tag k="created_by" v="Potlatch 0.6c"/>
    <tag k="highway" v="unclassified"/>
    <tag k="name" v="Park Road"/>
    <tag k="source" v="survey"/>
  </way>
  <way id="22498556" version="2" timestamp="2009-04-24T23:58:00Z" uid="7617" user="Franc" changeset="935084">
    <nd ref="241541275"/>
    <nd ref="241541276"/>
    <tag k="created_by" v="Potlatch 0.6c"/>
    <tag k="highway" v="unclassified"/>
    <tag k="name" v="Flemington Road"/>
    <tag k="source" v="survey"/>
  </way>
  <way id="22498557" version="2" timestamp="2009-04-24T23:58:00Z" uid="7617" user="Franc" changeset="935084">
    <nd ref="241541277"/>
    <nd ref="241541278"/>
    <tag k="created_by" v="Potlatch 0.6c"/>
    <tag k="highway" v="unclassified"/>
    <tag k="name" v="Bedford Road"/>
    <tag k="source" v="survey"/>
  </way>
  <way id="22498559" version="3" timestamp="2009-05-31T13:06:25Z" uid="7617" user="Franc" changeset="1368823">
    <nd ref="241541279"/>
    <nd ref="413469103"/>
    <tag k="created_by" v="Potlatch 0.6c"/>
    <tag k="highway" v="residential"/>
    <tag k="name" v="Kanoona Avenue"/>
  </way>
  <way id="22498559" version="4" timestamp="2010-07-08T02:39:53Z" uid="74617" user="JohnSmith" changeset="5163091">
    <nd ref="241541279"/>
    <nd ref="413469103"/>
    <tag k="highway" v="residential"/>
    <tag k="maxspeed" v="50"/>
    <tag k="maxspeed:source" v="default residential speed limit in Australia"/>
    <tag k="name" v="Kanoona Avenue"/>
  </way>
  <way id="22498559" version="5" timestamp="2012-01-15T22:13:36Z" uid="147510" user="woodpeck_fixbot" changeset="10402983">
    <nd ref="241541279"/>
    <nd ref="413469103"/>
    <tag k="highway" v="residential"/>
    <tag k="name" v="Kanoona Avenue"/>
  </way>
  <way id="22498560" version="3" timestamp="2009-05-31T13:06:25Z" uid="7617" user="Franc" changeset="1368823">
    <nd ref="241541783"/>
    <nd ref="413469105"/>
    <tag k="created_by" v="Potlatch 0.6c"/>
    <tag k="highway" v="residential"/>
    <tag k="name" v="Derowie Avenue"/>
  </way>
  <way id="22498560" version="4" timestamp="2010-07-08T02:34:27Z" uid="74617" user="JohnSmith" changeset="5163091">
    <nd ref="241541783"/>
    <nd ref="413469105"/>
    <tag k="highway" v="residential"/>
    <tag k="maxspeed" v="50"/>
    <tag k="maxspeed:source" v="default residential speed limit in Australia"/>
    <tag k="name" v="Derowie Avenue"/>
  </way>
  <way id="22498560" version="5" timestamp="2012-01-15T22:13:36Z" uid="147510" user="woodpeck_fixbot" changeset="10402983">
    <nd ref="241541783"/>
    <nd ref="413469105"/>
    <tag k="highway" v="residential"/>
    <tag k="name" v="Derowie Avenue"/>
  </way>
  <way id="22498561" version="3" timestamp="2008-05-25T06:38:56Z" uid="30201" user="rrankin" changeset="514784">
    <nd ref="241541838"/>
    <nd ref="266733804"/>
    <tag k="created_by" v="Potlatch 0.6c"/>
    <tag k="highway" v="residential"/>
    <tag k="name" v="Hillcrest Road"/>
    <tag k="rcn" v="yes"/>
    <tag k="rcn_ref" v="Cook River Cycleway"/>
  </way>
  <way id="22498561" version="4" timestamp="2010-07-08T02:36:39Z" uid="74617" user="JohnSmith" changeset="5163091">
    <nd ref="241541838"/>
    <nd ref="266733804"/>
    <tag k="highway" v="residential"/>
    <tag k="maxspeed" v="50"/>
    <tag k="maxspeed:source" v="default residential speed limit in Australia"/>
    <tag k="name" v="Hillcrest Road"/>
    <tag k="rcn" v="yes"/>
    <tag k="rcn_ref" v="Cook River Cycleway"/>
  </way>
  <way id="22498561" version="5" timestamp="2011-09-04T20:53:58Z" uid="7523" user="inas" changeset="9212467">
    <nd ref="241541838"/>
    <nd ref="1423411310"/>
    <nd ref="1423411313"/>
    <nd ref="1423411314"/>
    <tag k="highway" v="residential"/>
    <tag k="maxspeed" v="50"/>
    <tag k="maxspeed:source" v="default residential speed limit in Australia"/>
    <tag k="name" v="Hillcrest Road"/>
    <tag k="rcn" v="yes"/>
    <tag k="rcn_ref" v="Cook River Cycleway"/>
  </way>
  <way id="22498561" version="6" timestamp="2012-01-15T22:13:38Z" uid="147510" user="woodpeck_fixbot" changeset="10402983">
    <nd ref="241541838"/>
    <nd ref="1423411310"/>
    <nd ref="1423411313"/>
    <nd ref="1423411314"/>
    <tag k="highway" v="residential"/>
    <tag k="name" v="Hillcrest Road"/>
    <tag k="rcn" v="yes"/>
    <tag k="rcn_ref" v="Cook River Cycleway"/>
  </way>
  <way id="22498564" version="2" timestamp="2010-07-08T02:32:29Z" uid="74617" user="JohnSmith" changeset="5163091">
    <nd ref="241542050"/>
    <nd ref="241542368"/>
    <nd ref="241542369"/>
    <nd ref="241530004"/>
    <tag k="highway" v="residential"/>
    <tag k="maxspeed" v="50"/>
    <tag k="maxspeed:source" v="default residential speed limit in Australia"/>
    <tag k="name" v="Smallwood Avenue"/>
  </way>
  <way id="22498564" version="3" timestamp="2012-01-15T22:13:39Z" uid="147510" user="woodpeck_fixbot" changeset="10402983">
    <nd ref="241542050"/>
    <nd ref="241542368"/>
    <nd ref="241542369"/>
    <nd ref="241530004"/>
    <tag k="highway" v="residential"/>
    <tag k="name" v="Smallwood Avenue"/>
  </way>
  <way id="22498564" version="4" timestamp="2012-02-15T20:50:50Z" uid="7523" user="inas" changeset="10696321">
    <nd ref="241542050"/>
    <nd ref="241542368"/>
    <nd ref="241542369"/>
    <nd ref="1634511310"/>
    <tag k="highway" v="residential"/>
    <tag k="name" v="Smallwood Avenue"/>
  </way>
  <way id="22498569" version="3" timestamp="2010-11-13T09:41:51Z" uid="7617" user="Franc" changeset="6356736">
    <nd ref="241543535"/>
    <nd ref="987448475"/>
    <nd ref="987448499"/>
    <nd ref="241543653"/>
    <nd ref="82446362"/>
    <tag k="highway" v="unclassified"/>
    <tag k="name" v="Powell Street"/>
  </way>
  <way id="22498572" version="6" timestamp="2010-04-01T07:51:07Z" uid="74617" user="JohnSmith" changeset="4291360">
    <nd ref="241544196"/>
    <nd ref="241544197"/>
    <tag k="bridge" v="yes"/>
    <tag k="highway" v="motorway"/>
    <tag k="lanes" v="2"/>
    <tag k="layer" v="1"/>
    <tag k="maxspeed" v="signals"/>
    <tag k="oneway" v="yes"/>
  </way>
  <way id="22498572" version="7" timestamp="2010-06-19T03:08:44Z" uid="299678" user="peteramjet" changeset="5020744">
    <nd ref="241544196"/>
    <nd ref="241544197"/>
    <tag k="bridge" v="yes"/>
    <tag k="highway" v="motorway"/>
    <tag k="lanes" v="2"/>
    <tag k="layer" v="1"/>
    <tag k="maxspeed" v="signals"/>
    <tag k="name" v="M4 Western Motorway"/>
    <tag k="oneway" v="yes"/>
  </way>
  <way id="22498572" version="8" timestamp="2010-06-30T08:05:29Z" uid="299678" user="peteramjet" changeset="5111489">
    <nd ref="241544196"/>
    <nd ref="241544197"/>
    <tag k="bridge" v="yes"/>
    <tag k="highway" v="motorway"/>
    <tag k="lanes" v="2"/>
    <tag k="layer" v="1"/>
    <tag k="maxspeed" v="signals"/>
    <tag k="name" v="M4 Western Motorway"/>
    <tag k="oneway" v="yes"/>
    <tag k="ref" v="MR4"/>
  </way>
  <way id="22498572" version="9" timestamp="2010-07-09T23:04:24Z" uid="299678" user="peteramjet" changeset="5177814">
    <nd ref="241544196"/>
    <nd ref="241544197"/>
    <tag k="bridge" v="yes"/>
    <tag k="highway" v="motorway"/>
    <tag k="lanes" v="2"/>
    <tag k="layer" v="1"/>
    <tag k="maxspeed" v="signals"/>
    <tag k="name" v="M4 Western Motorway"/>
    <tag k="oneway" v="yes"/>
  </way>
  <way id="22498572" version="10" timestamp="2011-07-01T08:45:31Z" uid="479985" user="Adutchoz" changeset="8597179">
    <nd ref="241544196"/>
    <nd ref="241544197"/>
    <tag k="bridge" v="yes"/>
    <tag k="highway" v="motorway"/>
    <tag k="lanes" v="2"/>
    <tag k="layer" v="1"/>
    <tag k="maxspeed" v="90"/>
    <tag k="name" v="M4 Western Motorway"/>
    <tag k="oneway" v="yes"/>
  </way>
  <way id="22498572" version="11" timestamp="2012-01-31T05:36:50Z" uid="54784" user="Tom Hollander" changeset="10546288">
    <nd ref="241544196"/>
    <nd ref="241544197"/>
    <tag k="bridge" v="yes"/>
    <tag k="highway" v="motorway"/>
    <tag k="lanes" v="2"/>
    <tag k="layer" v="1"/>
    <tag k="maxspeed" v="90"/>
    <tag k="name" v="M4 Western Motorway"/>
    <tag k="oneway" v="yes"/>
    <tag k="ref" v="M4"/>
  </way>
  <way id="22498573" version="4" timestamp="2010-04-01T07:51:08Z" uid="74617" user="JohnSmith" changeset="4291360">
    <nd ref="241544197"/>
    <nd ref="31428463"/>
    <nd ref="31428464"/>
    <nd ref="31428465"/>
    <nd ref="26399869"/>
    <nd ref="26399864"/>
    <nd ref="26399870"/>
    <nd ref="36611323"/>
    <nd ref="26399871"/>
    <nd ref="26399872"/>
    <nd ref="26399862"/>
    <nd ref="26399863"/>
    <nd ref="36611324"/>
    <nd ref="26399843"/>
    <tag k="highway" v="motorway"/>
    <tag k="lanes" v="2"/>
    <tag k="maxspeed" v="signals"/>
    <tag k="oneway" v="yes"/>
  </way>
  <way id="22498573" version="5" timestamp="2010-06-19T03:08:47Z" uid="299678" user="peteramjet" changeset="5020744">
    <nd ref="241544197"/>
    <nd ref="31428463"/>
    <nd ref="31428464"/>
    <nd ref="31428465"/>
    <nd ref="26399869"/>
    <nd ref="26399864"/>
    <nd ref="26399870"/>
    <nd ref="36611323"/>
    <nd ref="26399871"/>
    <nd ref="26399872"/>
    <nd ref="26399862"/>
    <nd ref="26399863"/>
    <nd ref="36611324"/>
    <nd ref="26399843"/>
    <tag k="highway" v="motorway"/>
    <tag k="lanes" v="2"/>
    <tag k="maxspeed" v="signals"/>
    <tag k="name" v="M4 Western Motorway"/>
    <tag k="oneway" v="yes"/>
  </way>
  <way id="22498573" version="6" timestamp="2010-06-30T08:06:16Z" uid="299678" user="peteramjet" changeset="5111489">
    <nd ref="241544197"/>
    <nd ref="31428463"/>
    <nd ref="31428464"/>
    <nd ref="31428465"/>
    <nd ref="26399869"/>
    <nd ref="26399864"/>
    <nd ref="26399870"/>
    <nd ref="36611323"/>
    <nd ref="26399871"/>
    <nd ref="26399872"/>
    <nd ref="26399862"/>
    <nd ref="26399863"/>
    <nd ref="36611324"/>
    <nd ref="26399843"/>
    <tag k="highway" v="motorway"/>
    <tag k="lanes" v="2"/>
    <tag k="maxspeed" v="signals"/>
    <tag k="name" v="M4 Western Motorway"/>
    <tag k="oneway" v="yes"/>
    <tag k="ref" v="MR4"/>
  </way>
  <way id="22498573" version="7" timestamp="2010-07-09T23:04:23Z" uid="299678" user="peteramjet" changeset="5177814">
    <nd ref="241544197"/>
    <nd ref="31428463"/>
    <nd ref="31428464"/>
    <nd ref="31428465"/>
    <nd ref="26399869"/>
    <nd ref="26399864"/>
    <nd ref="26399870"/>
    <nd ref="36611323"/>
    <nd ref="26399871"/>
    <nd ref="26399872"/>
    <nd ref="26399862"/>
    <nd ref="26399863"/>
    <nd ref="36611324"/>
    <nd ref="26399843"/>
    <tag k="highway" v="motorway"/>
    <tag k="lanes" v="2"/>
    <tag k="maxspeed" v="signals"/>
    <tag k="name" v="M4 Western Motorway"/>
    <tag k="oneway" v="yes"/>
  </way>
  <way id="22498573" version="8" timestamp="2010-07-14T08:59:21Z" uid="4467" user="Rosscoe" changeset="5215069">
    <nd ref="241544197"/>
    <nd ref="31428463"/>
    <nd ref="31428464"/>
    <nd ref="31428465"/>
    <nd ref="26399869"/>
    <nd ref="26399864"/>
    <nd ref="26399870"/>
    <nd ref="36611323"/>
    <nd ref="26399871"/>
    <nd ref="26399872"/>
    <nd ref="26399862"/>
    <nd ref="26399863"/>
    <nd ref="36611324"/>
    <nd ref="816679869"/>
    <nd ref="26399843"/>
    <tag k="highway" v="motorway"/>
    <tag k="lanes" v="2"/>
    <tag k="maxspeed" v="signals"/>
    <tag k="name" v="M4 Western Motorway"/>
    <tag k="oneway" v="yes"/>
  </way>
  <way id="22498573" version="9" timestamp="2011-07-01T08:45:31Z" uid="479985" user="Adutchoz" changeset="8597179">
    <nd ref="241544197"/>
    <nd ref="31428463"/>
    <nd ref="31428464"/>
    <nd ref="31428465"/>
    <nd ref="26399869"/>
    <nd ref="26399864"/>
    <nd ref="26399870"/>
    <nd ref="36611323"/>
    <nd ref="26399871"/>
    <nd ref="26399872"/>
    <nd ref="26399862"/>
    <nd ref="26399863"/>
    <nd ref="36611324"/>
    <nd ref="816679869"/>
    <nd ref="26399843"/>
    <tag k="highway" v="motorway"/>
    <tag k="lanes" v="2"/>
    <tag k="maxspeed" v="90"/>
    <tag k="name" v="M4 Western Motorway"/>
    <tag k="oneway" v="yes"/>
  </way>
  <way id="22498573" version="10" timestamp="2012-01-31T05:22:25Z" uid="54784" user="Tom Hollander" changeset="10546288">
    <nd ref="241544197"/>
    <nd ref="31428463"/>
    <nd ref="31428464"/>
    <nd ref="31428465"/>
    <nd ref="26399869"/>
    <nd ref="26399864"/>
    <nd ref="26399870"/>
    <nd ref="36611323"/>
    <nd ref="26399871"/>
    <nd ref="26399872"/>
    <nd ref="26399862"/>
    <nd ref="26399863"/>
    <nd ref="36611324"/>
    <nd ref="816679869"/>
    <nd ref="26399843"/>
    <tag k="highway" v="motorway"/>
    <tag k="lanes" v="2"/>
    <tag k="maxspeed" v="90"/>
    <tag k="name" v="M4 Western Motorway"/>
    <tag k="oneway" v="yes"/>
    <tag k="ref" v="M4"/>
  </way>
  <way id="22498574" version="6" timestamp="2010-04-01T07:51:07Z" uid="74617" user="JohnSmith" changeset="4291360">
    <nd ref="241544154"/>
    <nd ref="241544303"/>
    <tag k="bridge" v="yes"/>
    <tag k="highway" v="motorway"/>
    <tag k="lanes" v="2"/>
    <tag k="layer" v="1"/>
    <tag k="maxspeed" v="signals"/>
    <tag k="oneway" v="yes"/>
  </way>
  <way id="22498574" version="7" timestamp="2010-06-19T03:08:43Z" uid="299678" user="peteramjet" changeset="5020744">
    <nd ref="241544154"/>
    <nd ref="241544303"/>
    <tag k="bridge" v="yes"/>
    <tag k="highway" v="motorway"/>
    <tag k="lanes" v="2"/>
    <tag k="layer" v="1"/>
    <tag k="maxspeed" v="signals"/>
    <tag k="name" v="M4 Western Motorway"/>
    <tag k="oneway" v="yes"/>
  </way>
  <way id="22498574" version="8" timestamp="2010-06-30T08:05:28Z" uid="299678" user="peteramjet" changeset="5111489">
    <nd ref="241544154"/>
    <nd ref="241544303"/>
    <tag k="bridge" v="yes"/>
    <tag k="highway" v="motorway"/>
    <tag k="lanes" v="2"/>
    <tag k="layer" v="1"/>
    <tag k="maxspeed" v="signals"/>
    <tag k="name" v="M4 Western Motorway"/>
    <tag k="oneway" v="yes"/>
    <tag k="ref" v="MR4"/>
  </way>
  <way id="22498574" version="9" timestamp="2010-07-09T23:04:24Z" uid="299678" user="peteramjet" changeset="5177814">
    <nd ref="241544154"/>
    <nd ref="241544303"/>
    <tag k="bridge" v="yes"/>
    <tag k="highway" v="motorway"/>
    <tag k="lanes" v="2"/>
    <tag k="layer" v="1"/>
    <tag k="maxspeed" v="signals"/>
    <tag k="name" v="M4 Western Motorway"/>
    <tag k="oneway" v="yes"/>
  </way>
  <way id="22498574" version="10" timestamp="2011-07-01T08:45:31Z" uid="479985" user="Adutchoz" changeset="8597179">
    <nd ref="241544154"/>
    <nd ref="241544303"/>
    <tag k="bridge" v="yes"/>
    <tag k="highway" v="motorway"/>
    <tag k="lanes" v="2"/>
    <tag k="layer" v="1"/>
    <tag k="maxspeed" v="90"/>
    <tag k="name" v="M4 Western Motorway"/>
    <tag k="oneway" v="yes"/>
  </way>
  <way id="22498574" version="11" timestamp="2012-01-31T05:36:50Z" uid="54784" user="Tom Hollander" changeset="10546288">
    <nd ref="241544154"/>
    <nd ref="241544303"/>
    <tag k="bridge" v="yes"/>
    <tag k="highway" v="motorway"/>
    <tag k="lanes" v="2"/>
    <tag k="layer" v="1"/>
    <tag k="maxspeed" v="90"/>
    <tag k="name" v="M4 Western Motorway"/>
    <tag k="oneway" v="yes"/>
    <tag k="ref" v="M5"/>
  </way>
  <way id="22498575" version="4" timestamp="2010-04-01T07:51:09Z" uid="74617" user="JohnSmith" changeset="4291360">
    <nd ref="241544303"/>
    <nd ref="36611445"/>
    <nd ref="101999459"/>
    <tag k="highway" v="motorway"/>
    <tag k="lanes" v="2"/>
    <tag k="maxspeed" v="signals"/>
    <tag k="oneway" v="yes"/>
  </way>
  <way id="22498575" version="5" timestamp="2010-06-19T03:08:47Z" uid="299678" user="peteramjet" changeset="5020744">
    <nd ref="241544303"/>
    <nd ref="36611445"/>
    <nd ref="101999459"/>
    <tag k="highway" v="motorway"/>
    <tag k="lanes" v="2"/>
    <tag k="maxspeed" v="signals"/>
    <tag k="name" v="M4 Western Motorway"/>
    <tag k="oneway" v="yes"/>
  </way>
  <way id="22498575" version="6" timestamp="2010-06-30T08:05:28Z" uid="299678" user="peteramjet" changeset="5111489">
    <nd ref="241544303"/>
    <nd ref="36611445"/>
    <nd ref="101999459"/>
    <tag k="highway" v="motorway"/>
    <tag k="lanes" v="2"/>
    <tag k="maxspeed" v="signals"/>
    <tag k="name" v="M4 Western Motorway"/>
    <tag k="oneway" v="yes"/>
    <tag k="ref" v="MR4"/>
  </way>
  <way id="22498575" version="7" timestamp="2010-07-09T23:04:26Z" uid="299678" user="peteramjet" changeset="5177814">
    <nd ref="241544303"/>
    <nd ref="36611445"/>
    <nd ref="101999459"/>
    <tag k="highway" v="motorway"/>
    <tag k="lanes" v="2"/>
    <tag k="maxspeed" v="signals"/>
    <tag k="name" v="M4 Western Motorway"/>
    <tag k="oneway" v="yes"/>
  </way>
  <way id="22498575" version="8" timestamp="2011-07-01T08:45:31Z" uid="479985" user="Adutchoz" changeset="8597179">
    <nd ref="241544303"/>
    <nd ref="36611445"/>
    <nd ref="101999459"/>
    <tag k="highway" v="motorway"/>
    <tag k="lanes" v="2"/>
    <tag k="maxspeed" v="90"/>
    <tag k="name" v="M4 Western Motorway"/>
    <tag k="oneway" v="yes"/>
  </way>
  <way id="22498575" version="9" timestamp="2012-01-31T05:36:51Z" uid="54784" user="Tom Hollander" changeset="10546288">
    <nd ref="241544303"/>
    <nd ref="36611445"/>
    <nd ref="101999459"/>
    <tag k="highway" v="motorway"/>
    <tag k="lanes" v="2"/>
    <tag k="maxspeed" v="90"/>
    <tag k="name" v="M4 Western Motorway"/>
    <tag k="oneway" v="yes"/>
    <tag k="ref" v="M4"/>
  </way>
  <way id="22498581" version="6" timestamp="2010-01-05T12:47:21Z" uid="30201" user="rrankin" changeset="3544973">
    <nd ref="36611567"/>
    <nd ref="605335969"/>
    <nd ref="36611569"/>
    <nd ref="36611570"/>
    <nd ref="36611571"/>
    <nd ref="31428006"/>
    <nd ref="31428459"/>
    <nd ref="31428460"/>
    <tag k="highway" v="motorway"/>
    <tag k="lanes" v="2"/>
    <tag k="maxspeed" v="60"/>
    <tag k="name" v="Western Motorway"/>
    <tag k="oneway" v="yes"/>
    <tag k="ref" v="MR4"/>
  </way>
  <way id="22498581" version="7" timestamp="2010-04-01T07:53:44Z" uid="74617" user="JohnSmith" changeset="4291360">
    <nd ref="36611567"/>
    <nd ref="605335969"/>
    <nd ref="36611569"/>
    <nd ref="36611570"/>
    <nd ref="36611571"/>
    <nd ref="31428006"/>
    <nd ref="31428459"/>
    <nd ref="679661737"/>
    <nd ref="31428460"/>
    <tag k="highway" v="motorway"/>
    <tag k="lanes" v="2"/>
    <tag k="maxspeed" v="60"/>
    <tag k="oneway" v="yes"/>
  </way>
  <way id="22498581" version="8" timestamp="2010-06-19T03:08:50Z" uid="299678" user="peteramjet" changeset="5020744">
    <nd ref="36611567"/>
    <nd ref="605335969"/>
    <nd ref="36611569"/>
    <nd ref="36611570"/>
    <nd ref="36611571"/>
    <nd ref="31428006"/>
    <nd ref="31428459"/>
    <nd ref="679661737"/>
    <nd ref="31428460"/>
    <tag k="highway" v="motorway"/>
    <tag k="lanes" v="2"/>
    <tag k="maxspeed" v="60"/>
    <tag k="name" v="M4 Western Motorway"/>
    <tag k="oneway" v="yes"/>
  </way>
  <way id="22498581" version="9" timestamp="2010-06-30T08:05:00Z" uid="299678" user="peteramjet" changeset="5111489">
    <nd ref="36611567"/>
    <nd ref="605335969"/>
    <nd ref="36611569"/>
    <nd ref="36611570"/>
    <nd ref="36611571"/>
    <nd ref="31428006"/>
    <nd ref="31428459"/>
    <nd ref="679661737"/>
    <nd ref="31428460"/>
    <tag k="highway" v="motorway"/>
    <tag k="lanes" v="2"/>
    <tag k="maxspeed" v="60"/>
    <tag k="name" v="M4 Western Motorway"/>
    <tag k="oneway" v="yes"/>
    <tag k="ref" v="MR4"/>
  </way>
  <way id="22498581" version="10" timestamp="2010-07-09T23:00:56Z" uid="299678" user="peteramjet" changeset="5177814">
    <nd ref="36611567"/>
    <nd ref="605335969"/>
    <nd ref="36611569"/>
    <nd ref="36611570"/>
    <nd ref="36611571"/>
    <nd ref="31428006"/>
    <nd ref="31428459"/>
    <nd ref="679661737"/>
    <nd ref="31428460"/>
    <tag k="highway" v="motorway"/>
    <tag k="lanes" v="2"/>
    <tag k="maxspeed" v="60"/>
    <tag k="name" v="M4 Western Motorway"/>
    <tag k="oneway" v="yes"/>
  </way>
  <way id="22498581" version="11" timestamp="2012-01-31T05:36:51Z" uid="54784" user="Tom Hollander" changeset="10546288">
    <nd ref="36611567"/>
    <nd ref="605335969"/>
    <nd ref="36611569"/>
    <nd ref="36611570"/>
    <nd ref="36611571"/>
    <nd ref="31428006"/>
    <nd ref="31428459"/>
    <nd ref="679661737"/>
    <nd ref="31428460"/>
    <tag k="highway" v="motorway"/>
    <tag k="lanes" v="2"/>
    <tag k="maxspeed" v="60"/>
    <tag k="name" v="M4 Western Motorway"/>
    <tag k="oneway" v="yes"/>
    <tag k="ref" v="M4"/>
  </way>
  <way id="22498583" version="3" timestamp="2009-12-17T00:21:41Z" uid="30201" user="rrankin" changeset="3390791">
    <nd ref="26769172"/>
    <nd ref="26769173"/>
    <nd ref="26769174"/>
    <nd ref="26769175"/>
    <nd ref="26769176"/>
    <nd ref="26769177"/>
    <nd ref="26769178"/>
    <nd ref="26769179"/>
    <nd ref="26769180"/>
    <nd ref="20146956"/>
    <tag k="highway" v="motorway"/>
    <tag k="lanes" v="3"/>
    <tag k="maxspeed" v="60"/>
    <tag k="name" v="Western Motorway"/>
    <tag k="oneway" v="yes"/>
    <tag k="ref" v="MR4"/>
  </way>
  <way id="22498583" version="4" timestamp="2010-01-05T12:47:21Z" uid="30201" user="rrankin" changeset="3544973">
    <nd ref="26769172"/>
    <nd ref="26769173"/>
    <nd ref="26769174"/>
    <nd ref="26769175"/>
    <nd ref="26769176"/>
    <nd ref="26769177"/>
    <nd ref="605335966"/>
    <nd ref="26769178"/>
    <nd ref="26769179"/>
    <nd ref="26769180"/>
    <nd ref="20146956"/>
    <tag k="highway" v="motorway"/>
    <tag k="lanes" v="3"/>
    <tag k="maxspeed" v="60"/>
    <tag k="name" v="Western Motorway"/>
    <tag k="oneway" v="yes"/>
    <tag k="ref" v="MR4"/>
  </way>
  <way id="22498583" version="5" timestamp="2010-04-01T07:53:44Z" uid="74617" user="JohnSmith" changeset="4291360">
    <nd ref="26769172"/>
    <nd ref="26769173"/>
    <nd ref="26769174"/>
    <nd ref="26769175"/>
    <nd ref="26769176"/>
    <nd ref="26769177"/>
    <nd ref="605335966"/>
    <nd ref="26769178"/>
    <nd ref="26769179"/>
    <nd ref="26769180"/>
    <nd ref="20146956"/>
    <tag k="highway" v="motorway"/>
    <tag k="lanes" v="3"/>
    <tag k="maxspeed" v="60"/>
    <tag k="oneway" v="yes"/>
  </way>
  <way id="22498583" version="6" timestamp="2010-06-19T03:08:49Z" uid="299678" user="peteramjet" changeset="5020744">
    <nd ref="26769172"/>
    <nd ref="26769173"/>
    <nd ref="26769174"/>
    <nd ref="26769175"/>
    <nd ref="26769176"/>
    <nd ref="26769177"/>
    <nd ref="605335966"/>
    <nd ref="26769178"/>
    <nd ref="26769179"/>
    <nd ref="26769180"/>
    <nd ref="20146956"/>
    <tag k="highway" v="motorway"/>
    <tag k="lanes" v="3"/>
    <tag k="maxspeed" v="60"/>
    <tag k="name" v="M4 Western Motorway"/>
    <tag k="oneway" v="yes"/>
  </way>
  <way id="22498583" version="7" timestamp="2010-06-30T08:04:27Z" uid="299678" user="peteramjet" changeset="5111489">
    <nd ref="26769172"/>
    <nd ref="26769173"/>
    <nd ref="26769174"/>
    <nd ref="26769175"/>
    <nd ref="26769176"/>
    <nd ref="26769177"/>
    <nd ref="605335966"/>
    <nd ref="26769178"/>
    <nd ref="26769179"/>
    <nd ref="26769180"/>
    <nd ref="20146956"/>
    <tag k="highway" v="motorway"/>
    <tag k="lanes" v="3"/>
    <tag k="maxspeed" v="60"/>
    <tag k="name" v="M4 Western Motorway"/>
    <tag k="oneway" v="yes"/>
    <tag k="ref" v="MR4"/>
  </way>
  <way id="22498583" version="8" timestamp="2010-07-09T23:00:59Z" uid="299678" user="peteramjet" changeset="5177814">
    <nd ref="26769172"/>
    <nd ref="26769173"/>
    <nd ref="26769174"/>
    <nd ref="26769175"/>
    <nd ref="26769176"/>
    <nd ref="26769177"/>
    <nd ref="605335966"/>
    <nd ref="26769178"/>
    <nd ref="26769179"/>
    <nd ref="26769180"/>
    <nd ref="20146956"/>
    <tag k="highway" v="motorway"/>
    <tag k="lanes" v="3"/>
    <tag k="maxspeed" v="60"/>
    <tag k="name" v="M4 Western Motorway"/>
    <tag k="oneway" v="yes"/>
  </way>
  <way id="22498583" version="9" timestamp="2011-06-19T12:54:57Z" uid="7617" user="Franc" changeset="8483675">
    <nd ref="26769172"/>
    <nd ref="26769173"/>
    <nd ref="26769174"/>
    <nd ref="26769175"/>
    <nd ref="1330770700"/>
    <nd ref="26769176"/>
    <nd ref="1330770619"/>
    <nd ref="26769177"/>
    <nd ref="605335966"/>
    <nd ref="26769178"/>
    <nd ref="26769179"/>
    <nd ref="26769180"/>
    <nd ref="20146956"/>
    <tag k="highway" v="motorway"/>
    <tag k="lanes" v="3"/>
    <tag k="maxspeed" v="60"/>
    <tag k="name" v="M4 Western Motorway"/>
    <tag k="oneway" v="yes"/>
  </way>
  <way id="22498583" version="10" timestamp="2012-01-31T05:36:52Z" uid="54784" user="Tom Hollander" changeset="10546288">
    <nd ref="26769172"/>
    <nd ref="26769173"/>
    <nd ref="26769174"/>
    <nd ref="26769175"/>
    <nd ref="1330770700"/>
    <nd ref="26769176"/>
    <nd ref="1330770619"/>
    <nd ref="26769177"/>
    <nd ref="605335966"/>
    <nd ref="26769178"/>
    <nd ref="26769179"/>
    <nd ref="26769180"/>
    <nd ref="20146956"/>
    <tag k="highway" v="motorway"/>
    <tag k="lanes" v="3"/>
    <tag k="maxspeed" v="60"/>
    <tag k="name" v="M4 Western Motorway"/>
    <tag k="oneway" v="yes"/>
    <tag k="ref" v="M4"/>
  </way>
  <way id="22498587" version="4" timestamp="2008-06-07T05:44:43Z" uid="30201" user="rrankin" changeset="81397">
    <nd ref="26399843"/>
    <nd ref="26399858"/>
    <nd ref="26399859"/>
    <nd ref="26399860"/>
    <nd ref="26399861"/>
    <nd ref="37533990"/>
    <tag k="created_by" v="Potlatch 0.6c"/>
    <tag k="highway" v="motorway"/>
    <tag k="lanes" v="3"/>
    <tag k="name" v="Western Motorway"/>
    <tag k="oneway" v="yes"/>
    <tag k="ref" v="MR4"/>
  </way>
  <way id="22498587" version="5" timestamp="2008-06-10T12:26:57Z" uid="30201" user="rrankin" changeset="119911">
    <nd ref="26399843"/>
    <nd ref="26399858"/>
    <tag k="created_by" v="Potlatch 0.6c"/>
    <tag k="highway" v="motorway"/>
    <tag k="lanes" v="3"/>
    <tag k="name" v="Western Motorway"/>
    <tag k="oneway" v="yes"/>
    <tag k="ref" v="MR4"/>
  </way>
  <way id="22498587" version="6" timestamp="2009-12-26T16:39:15Z" uid="12203" user="brainwad" changeset="3455356">
    <nd ref="26399843"/>
    <nd ref="26399858"/>
    <tag k="highway" v="motorway"/>
    <tag k="lanes" v="3"/>
    <tag k="maxspeed" v="signals"/>
    <tag k="name" v="Western Motorway"/>
    <tag k="oneway" v="yes"/>
    <tag k="ref" v="MR4"/>
  </way>
  <way id="22498587" version="7" timestamp="2010-04-01T07:51:08Z" uid="74617" user="JohnSmith" changeset="4291360">
    <nd ref="26399843"/>
    <nd ref="26399858"/>
    <tag k="highway" v="motorway"/>
    <tag k="lanes" v="3"/>
    <tag k="maxspeed" v="signals"/>
    <tag k="oneway" v="yes"/>
  </way>
  <way id="22498587" version="8" timestamp="2010-06-19T03:13:12Z" uid="299678" user="peteramjet" changeset="5020744">
    <nd ref="26399843"/>
    <nd ref="26399858"/>
    <tag k="highway" v="motorway"/>
    <tag k="lanes" v="3"/>
    <tag k="maxspeed" v="signals"/>
    <tag k="name" v="M4 Western Motorway"/>
    <tag k="oneway" v="yes"/>
  </way>
  <way id="22498587" version="9" timestamp="2010-06-30T08:06:15Z" uid="299678" user="peteramjet" changeset="5111489">
    <nd ref="26399843"/>
    <nd ref="26399858"/>
    <tag k="highway" v="motorway"/>
    <tag k="lanes" v="3"/>
    <tag k="maxspeed" v="signals"/>
    <tag k="name" v="M4 Western Motorway"/>
    <tag k="oneway" v="yes"/>
    <tag k="ref" v="MR4"/>
  </way>
  <way id="22498587" version="10" timestamp="2010-07-09T23:04:21Z" uid="299678" user="peteramjet" changeset="5177814">
    <nd ref="26399843"/>
    <nd ref="26399858"/>
    <tag k="highway" v="motorway"/>
    <tag k="lanes" v="3"/>
    <tag k="maxspeed" v="signals"/>
    <tag k="name" v="M4 Western Motorway"/>
    <tag k="oneway" v="yes"/>
  </way>
  <way id="22498587" version="11" timestamp="2010-07-14T08:58:53Z" uid="4467" user="Rosscoe" changeset="5215069">
    <nd ref="26399843"/>
    <nd ref="816679262"/>
    <nd ref="816679995"/>
    <nd ref="26399858"/>
    <tag k="highway" v="motorway"/>
    <tag k="lanes" v="3"/>
    <tag k="maxspeed" v="signals"/>
    <tag k="name" v="M4 Western Motorway"/>
    <tag k="oneway" v="yes"/>
  </way>
  <way id="22498587" version="12" timestamp="2011-07-01T08:45:32Z" uid="479985" user="Adutchoz" changeset="8597179">
    <nd ref="26399843"/>
    <nd ref="816679262"/>
    <nd ref="816679995"/>
    <nd ref="26399858"/>
    <tag k="highway" v="motorway"/>
    <tag k="lanes" v="3"/>
    <tag k="maxspeed" v="90"/>
    <tag k="name" v="M4 Western Motorway"/>
    <tag k="oneway" v="yes"/>
  </way>
  <way id="22498587" version="13" timestamp="2012-01-31T05:22:26Z" uid="54784" user="Tom Hollander" changeset="10546288">
    <nd ref="26399843"/>
    <nd ref="816679262"/>
    <nd ref="816679995"/>
    <nd ref="26399858"/>
    <tag k="highway" v="motorway"/>
    <tag k="lanes" v="3"/>
    <tag k="maxspeed" v="90"/>
    <tag k="name" v="M4 Western Motorway"/>
    <tag k="oneway" v="yes"/>
    <tag k="ref" v="M4"/>
  </way>
  <way id="22498587" version="14" timestamp="2012-03-28T23:21:30Z" uid="7523" user="inas" changeset="11132320">
    <nd ref="26399843"/>
    <nd ref="26399858"/>
    <tag k="highway" v="motorway"/>
    <tag k="lanes" v="3"/>
    <tag k="maxspeed" v="90"/>
    <tag k="name" v="M4 Western Motorway"/>
    <tag k="oneway" v="yes"/>
    <tag k="ref" v="M4"/>
  </way>
  <way id="22498588" version="2" timestamp="2008-04-06T09:48:56Z" uid="30201" user="rrankin" changeset="64490">
    <nd ref="25630035"/>
    <nd ref="25630036"/>
    <nd ref="33093690"/>
    <nd ref="26769170"/>
    <nd ref="241544154"/>
    <tag k="created_by" v="Potlatch 0.6c"/>
    <tag k="highway" v="motorway"/>
    <tag k="lanes" v="2"/>
    <tag k="name" v="Western Motorway"/>
    <tag k="oneway" v="yes"/>
    <tag k="ref" v="MR4"/>
  </way>
  <way id="22498588" version="3" timestamp="2009-12-06T21:36:13Z" uid="30201" user="rrankin" changeset="3310249">
    <nd ref="25630035"/>
    <nd ref="582727742"/>
    <nd ref="25630036"/>
    <nd ref="33093690"/>
    <nd ref="26769170"/>
    <nd ref="241544154"/>
    <tag k="highway" v="motorway"/>
    <tag k="lanes" v="2"/>
    <tag k="name" v="Western Motorway"/>
    <tag k="oneway" v="yes"/>
    <tag k="ref" v="MR4"/>
  </way>
  <way id="22498588" version="4" timestamp="2009-12-26T16:44:06Z" uid="12203" user="brainwad" changeset="3455356">
    <nd ref="25630035"/>
    <nd ref="582727742"/>
    <nd ref="25630036"/>
    <nd ref="33093690"/>
    <nd ref="26769170"/>
    <nd ref="241544154"/>
    <tag k="highway" v="motorway"/>
    <tag k="lanes" v="2"/>
    <tag k="maxspeed" v="signals"/>
    <tag k="name" v="Western Motorway"/>
    <tag k="oneway" v="yes"/>
    <tag k="ref" v="MR4"/>
  </way>
  <way id="22498588" version="5" timestamp="2010-04-01T07:51:08Z" uid="74617" user="JohnSmith" changeset="4291360">
    <nd ref="25630035"/>
    <nd ref="582727742"/>
    <nd ref="25630036"/>
    <nd ref="33093690"/>
    <nd ref="26769170"/>
    <nd ref="241544154"/>
    <tag k="highway" v="motorway"/>
    <tag k="lanes" v="2"/>
    <tag k="maxspeed" v="signals"/>
    <tag k="oneway" v="yes"/>
  </way>
  <way id="22498588" version="6" timestamp="2010-06-19T03:08:40Z" uid="299678" user="peteramjet" changeset="5020744">
    <nd ref="25630035"/>
    <nd ref="582727742"/>
    <nd ref="25630036"/>
    <nd ref="33093690"/>
    <nd ref="26769170"/>
    <nd ref="241544154"/>
    <tag k="highway" v="motorway"/>
    <tag k="lanes" v="2"/>
    <tag k="maxspeed" v="signals"/>
    <tag k="name" v="M4 Western Motorway"/>
    <tag k="oneway" v="yes"/>
  </way>
  <way id="22498588" version="7" timestamp="2010-06-30T08:06:16Z" uid="299678" user="peteramjet" changeset="5111489">
    <nd ref="25630035"/>
    <nd ref="582727742"/>
    <nd ref="25630036"/>
    <nd ref="33093690"/>
    <nd ref="26769170"/>
    <nd ref="241544154"/>
    <tag k="highway" v="motorway"/>
    <tag k="lanes" v="2"/>
    <tag k="maxspeed" v="signals"/>
    <tag k="name" v="M4 Western Motorway"/>
    <tag k="oneway" v="yes"/>
    <tag k="ref" v="MR4"/>
  </way>
  <way id="22498588" version="8" timestamp="2010-07-09T23:04:26Z" uid="299678" user="peteramjet" changeset="5177814">
    <nd ref="25630035"/>
    <nd ref="582727742"/>
    <nd ref="25630036"/>
    <nd ref="33093690"/>
    <nd ref="26769170"/>
    <nd ref="241544154"/>
    <tag k="highway" v="motorway"/>
    <tag k="lanes" v="2"/>
    <tag k="maxspeed" v="signals"/>
    <tag k="name" v="M4 Western Motorway"/>
    <tag k="oneway" v="yes"/>
  </way>
  <way id="22498588" version="9" timestamp="2011-07-01T08:45:32Z" uid="479985" user="Adutchoz" changeset="8597179">
    <nd ref="25630035"/>
    <nd ref="582727742"/>
    <nd ref="25630036"/>
    <nd ref="33093690"/>
    <nd ref="26769170"/>
    <nd ref="241544154"/>
    <tag k="highway" v="motorway"/>
    <tag k="lanes" v="2"/>
    <tag k="maxspeed" v="90"/>
    <tag k="name" v="M4 Western Motorway"/>
    <tag k="oneway" v="yes"/>
  </way>
  <way id="22498588" version="10" timestamp="2012-01-31T05:36:52Z" uid="54784" user="Tom Hollander" changeset="10546288">
    <nd ref="25630035"/>
    <nd ref="582727742"/>
    <nd ref="25630036"/>
    <nd ref="33093690"/>
    <nd ref="26769170"/>
    <nd ref="241544154"/>
    <tag k="highway" v="motorway"/>
    <tag k="lanes" v="2"/>
    <tag k="maxspeed" v="90"/>
    <tag k="name" v="M4 Western Motorway"/>
    <tag k="oneway" v="yes"/>
    <tag k="ref" v="M4"/>
  </way>
  <way id="22498588" version="11" timestamp="2012-03-08T22:54:24Z" uid="7523" user="inas" changeset="10914785">
    <nd ref="25630035"/>
    <nd ref="25630036"/>
    <nd ref="33093690"/>
    <nd ref="26769170"/>
    <nd ref="241544154"/>
    <tag k="highway" v="motorway"/>
    <tag k="lanes" v="2"/>
    <tag k="maxspeed" v="90"/>
    <tag k="name" v="M4 Western Motorway"/>
    <tag k="oneway" v="yes"/>
    <tag k="ref" v="M4"/>
  </way>
  <way id="22498591" version="5" timestamp="2010-03-07T06:18:34Z" uid="7617" user="Franc" changeset="4057533">
    <nd ref="26399123"/>
    <nd ref="31428468"/>
    <tag k="bicycle" v="no"/>
    <tag k="highway" v="motorway"/>
    <tag k="lanes" v="4"/>
    <tag k="maxspeed" v="signals"/>
    <tag k="name" v="Western Motorway"/>
    <tag k="oneway" v="yes"/>
    <tag k="ref" v="MR4"/>
  </way>
  <way id="22498591" version="6" timestamp="2010-04-01T07:41:41Z" uid="74617" user="JohnSmith" changeset="4291360">
    <nd ref="26399123"/>
    <nd ref="31428468"/>
    <tag k="bicycle" v="no"/>
    <tag k="highway" v="motorway"/>
    <tag k="lanes" v="4"/>
    <tag k="maxspeed" v="signals"/>
    <tag k="name" v="Western Motorway"/>
    <tag k="oneway" v="yes"/>
  </way>
  <way id="22498591" version="7" timestamp="2010-04-01T07:51:08Z" uid="74617" user="JohnSmith" changeset="4291360">
    <nd ref="26399123"/>
    <nd ref="31428468"/>
    <tag k="bicycle" v="no"/>
    <tag k="highway" v="motorway"/>
    <tag k="lanes" v="4"/>
    <tag k="maxspeed" v="signals"/>
    <tag k="oneway" v="yes"/>
  </way>
  <way id="22498591" version="8" timestamp="2010-06-19T03:20:06Z" uid="299678" user="peteramjet" changeset="5020744">
    <nd ref="26399123"/>
    <nd ref="31428468"/>
    <tag k="bicycle" v="no"/>
    <tag k="highway" v="motorway"/>
    <tag k="lanes" v="4"/>
    <tag k="maxspeed" v="signals"/>
    <tag k="name" v="M4 Western Motorway"/>
    <tag k="oneway" v="yes"/>
  </way>
  <way id="22498591" version="9" timestamp="2010-06-30T08:08:31Z" uid="299678" user="peteramjet" changeset="5111489">
    <nd ref="26399123"/>
    <nd ref="31428468"/>
    <tag k="bicycle" v="no"/>
    <tag k="highway" v="motorway"/>
    <tag k="lanes" v="4"/>
    <tag k="maxspeed" v="signals"/>
    <tag k="name" v="M4 Western Motorway"/>
    <tag k="oneway" v="yes"/>
    <tag k="ref" v="MR4"/>
  </way>
  <way id="22498591" version="10" timestamp="2010-07-09T23:06:53Z" uid="299678" user="peteramjet" changeset="5177814">
    <nd ref="26399123"/>
    <nd ref="31428468"/>
    <tag k="bicycle" v="no"/>
    <tag k="highway" v="motorway"/>
    <tag k="lanes" v="4"/>
    <tag k="maxspeed" v="signals"/>
    <tag k="name" v="M4 Western Motorway"/>
    <tag k="oneway" v="yes"/>
  </way>
  <way id="22498591" version="11" timestamp="2011-07-01T08:45:32Z" uid="479985" user="Adutchoz" changeset="8597179">
    <nd ref="26399123"/>
    <nd ref="31428468"/>
    <tag k="bicycle" v="no"/>
    <tag k="highway" v="motorway"/>
    <tag k="lanes" v="4"/>
    <tag k="maxspeed" v="90"/>
    <tag k="name" v="M4 Western Motorway"/>
    <tag k="oneway" v="yes"/>
  </way>
  <way id="22498591" version="12" timestamp="2012-01-31T05:22:26Z" uid="54784" user="Tom Hollander" changeset="10546288">
    <nd ref="26399123"/>
    <nd ref="31428468"/>
    <tag k="bicycle" v="no"/>
    <tag k="highway" v="motorway"/>
    <tag k="lanes" v="4"/>
    <tag k="maxspeed" v="90"/>
    <tag k="name" v="M4 Western Motorway"/>
    <tag k="oneway" v="yes"/>
    <tag k="ref" v="M4"/>
  </way>
  <way id="22498611" version="8" timestamp="2010-04-01T07:39:41Z" uid="74617" user="JohnSmith" changeset="4291360">
    <nd ref="26398885"/>
    <nd ref="26398879"/>
    <nd ref="26398880"/>
    <nd ref="26398881"/>
    <nd ref="26398882"/>
    <tag k="bicycle" v="no"/>
    <tag k="highway" v="motorway"/>
    <tag k="lanes" v="3"/>
    <tag k="maxspeed" v="signals"/>
    <tag k="name" v="Western Motorway"/>
    <tag k="oneway" v="yes"/>
  </way>
  <way id="22498611" version="9" timestamp="2010-04-01T07:51:10Z" uid="74617" user="JohnSmith" changeset="4291360">
    <nd ref="26398885"/>
    <nd ref="26398879"/>
    <nd ref="26398880"/>
    <nd ref="26398881"/>
    <nd ref="26398882"/>
    <tag k="bicycle" v="no"/>
    <tag k="highway" v="motorway"/>
    <tag k="lanes" v="3"/>
    <tag k="maxspeed" v="signals"/>
    <tag k="oneway" v="yes"/>
  </way>
  <way id="22498611" version="10" timestamp="2010-06-19T03:34:46Z" uid="299678" user="peteramjet" changeset="5020744">
    <nd ref="26398885"/>
    <nd ref="26398879"/>
    <nd ref="26398880"/>
    <nd ref="26398881"/>
    <nd ref="26398882"/>
    <tag k="bicycle" v="no"/>
    <tag k="highway" v="motorway"/>
    <tag k="lanes" v="3"/>
    <tag k="maxspeed" v="signals"/>
    <tag k="name" v="M4 Western Motorway"/>
    <tag k="oneway" v="yes"/>
  </way>
  <way id="22498611" version="11" timestamp="2010-06-30T08:08:56Z" uid="299678" user="peteramjet" changeset="5111489">
    <nd ref="26398885"/>
    <nd ref="26398879"/>
    <nd ref="26398880"/>
    <nd ref="26398881"/>
    <nd ref="26398882"/>
    <tag k="bicycle" v="no"/>
    <tag k="highway" v="motorway"/>
    <tag k="lanes" v="3"/>
    <tag k="maxspeed" v="signals"/>
    <tag k="name" v="M4 Western Motorway"/>
    <tag k="oneway" v="yes"/>
    <tag k="ref" v="MR4"/>
  </way>
  <way id="22498611" version="12" timestamp="2010-07-09T23:06:54Z" uid="299678" user="peteramjet" changeset="5177814">
    <nd ref="26398885"/>
    <nd ref="26398879"/>
    <nd ref="26398880"/>
    <nd ref="26398881"/>
    <nd ref="26398882"/>
    <tag k="bicycle" v="no"/>
    <tag k="highway" v="motorway"/>
    <tag k="lanes" v="3"/>
    <tag k="maxspeed" v="signals"/>
    <tag k="name" v="M4 Western Motorway"/>
    <tag k="oneway" v="yes"/>
  </way>
  <way id="22498611" version="13" timestamp="2011-07-01T08:45:33Z" uid="479985" user="Adutchoz" changeset="8597179">
    <nd ref="26398885"/>
    <nd ref="26398879"/>
    <nd ref="26398880"/>
    <nd ref="26398881"/>
    <nd ref="26398882"/>
    <tag k="bicycle" v="no"/>
    <tag k="highway" v="motorway"/>
    <tag k="lanes" v="3"/>
    <tag k="maxspeed" v="90"/>
    <tag k="name" v="M4 Western Motorway"/>
    <tag k="oneway" v="yes"/>
  </way>
  <way id="22498611" version="14" timestamp="2012-01-31T05:22:27Z" uid="54784" user="Tom Hollander" changeset="10546288">
    <nd ref="26398885"/>
    <nd ref="26398882"/>
    <tag k="bicycle" v="no"/>
    <tag k="highway" v="motorway"/>
    <tag k="lanes" v="3"/>
    <tag k="maxspeed" v="90"/>
    <tag k="name" v="M4 Western Motorway"/>
    <tag k="oneway" v="yes"/>
    <tag k="ref" v="M4"/>
  </way>
  <way id="22498612" version="3" timestamp="2008-06-07T08:49:50Z" uid="30201" user="rrankin" changeset="81397"/>
  <way id="22498613" version="7" timestamp="2010-03-07T06:18:35Z" uid="7617" user="Franc" changeset="4057533">
    <nd ref="21703141"/>
    <nd ref="36811013"/>
    <nd ref="21703142"/>
    <nd ref="21703143"/>
    <tag k="bicycle" v="no"/>
    <tag k="bridge" v="yes"/>
    <tag k="highway" v="motorway"/>
    <tag k="lanes" v="2"/>
    <tag k="layer" v="1"/>
    <tag k="maxspeed" v="signals"/>
    <tag k="name" v="Western Motorway"/>
    <tag k="oneway" v="yes"/>
    <tag k="ref" v="MR4"/>
  </way>
  <way id="22498613" version="8" timestamp="2010-04-01T07:39:40Z" uid="74617" user="JohnSmith" changeset="4291360">
    <nd ref="21703141"/>
    <nd ref="36811013"/>
    <nd ref="21703142"/>
    <nd ref="21703143"/>
    <tag k="bicycle" v="no"/>
    <tag k="bridge" v="yes"/>
    <tag k="highway" v="motorway"/>
    <tag k="lanes" v="2"/>
    <tag k="layer" v="1"/>
    <tag k="maxspeed" v="signals"/>
    <tag k="name" v="Western Motorway"/>
    <tag k="oneway" v="yes"/>
  </way>
  <way id="22498613" version="9" timestamp="2010-04-01T07:51:10Z" uid="74617" user="JohnSmith" changeset="4291360">
    <nd ref="21703141"/>
    <nd ref="36811013"/>
    <nd ref="21703142"/>
    <nd ref="21703143"/>
    <tag k="bicycle" v="no"/>
    <tag k="bridge" v="yes"/>
    <tag k="highway" v="motorway"/>
    <tag k="lanes" v="2"/>
    <tag k="layer" v="1"/>
    <tag k="maxspeed" v="signals"/>
    <tag k="oneway" v="yes"/>
  </way>
  <way id="22498613" version="10" timestamp="2010-06-19T03:34:40Z" uid="299678" user="peteramjet" changeset="5020744">
    <nd ref="21703141"/>
    <nd ref="36811013"/>
    <nd ref="21703142"/>
    <nd ref="21703143"/>
    <tag k="bicycle" v="no"/>
    <tag k="bridge" v="yes"/>
    <tag k="highway" v="motorway"/>
    <tag k="lanes" v="2"/>
    <tag k="layer" v="1"/>
    <tag k="maxspeed" v="signals"/>
    <tag k="name" v="M4 Western Motorway"/>
    <tag k="oneway" v="yes"/>
  </way>
  <way id="22498613" version="11" timestamp="2010-06-30T08:10:43Z" uid="299678" user="peteramjet" changeset="5111489">
    <nd ref="21703141"/>
    <nd ref="36811013"/>
    <nd ref="21703142"/>
    <nd ref="21703143"/>
    <tag k="bicycle" v="no"/>
    <tag k="bridge" v="yes"/>
    <tag k="highway" v="motorway"/>
    <tag k="lanes" v="2"/>
    <tag k="layer" v="1"/>
    <tag k="maxspeed" v="signals"/>
    <tag k="name" v="M4 Western Motorway"/>
    <tag k="oneway" v="yes"/>
    <tag k="ref" v="MR4"/>
  </way>
  <way id="22498613" version="12" timestamp="2010-07-09T23:06:47Z" uid="299678" user="peteramjet" changeset="5177814">
    <nd ref="21703141"/>
    <nd ref="36811013"/>
    <nd ref="21703142"/>
    <nd ref="21703143"/>
    <tag k="bicycle" v="no"/>
    <tag k="bridge" v="yes"/>
    <tag k="highway" v="motorway"/>
    <tag k="lanes" v="2"/>
    <tag k="layer" v="1"/>
    <tag k="maxspeed" v="signals"/>
    <tag k="name" v="M4 Western Motorway"/>
    <tag k="oneway" v="yes"/>
  </way>
  <way id="22498613" version="13" timestamp="2010-12-24T06:08:33Z" uid="385194" user="sydmapper" changeset="6751838">
    <nd ref="21703141"/>
    <nd ref="36811013"/>
    <nd ref="21703142"/>
    <nd ref="21703143"/>
    <tag k="bicycle" v="no"/>
    <tag k="bridge" v="yes"/>
    <tag k="highway" v="motorway"/>
    <tag k="lanes" v="2"/>
    <tag k="layer" v="2"/>
    <tag k="maxspeed" v="signals"/>
    <tag k="name" v="M4 Western Motorway"/>
    <tag k="oneway" v="yes"/>
  </way>
  <way id="22498618" version="5" timestamp="2010-04-01T07:35:01Z" uid="74617" user="JohnSmith" changeset="4291360">
    <nd ref="26398307"/>
    <nd ref="26398308"/>
    <nd ref="137029353"/>
    <nd ref="26398309"/>
    <nd ref="26398310"/>
    <nd ref="26398311"/>
    <nd ref="26398195"/>
    <nd ref="55735663"/>
    <nd ref="679656301"/>
    <nd ref="679656302"/>
    <nd ref="26397947"/>
    <tag k="bicycle" v="yes"/>
    <tag k="cycleway" v="lane"/>
    <tag k="highway" v="motorway"/>
    <tag k="lanes" v="4"/>
    <tag k="maxspeed" v="90"/>
    <tag k="name" v="Western Motorway"/>
    <tag k="oneway" v="yes"/>
  </way>
  <way id="22498618" version="6" timestamp="2010-04-01T07:51:05Z" uid="74617" user="JohnSmith" changeset="4291360">
    <nd ref="26398307"/>
    <nd ref="26398308"/>
    <nd ref="137029353"/>
    <nd ref="26398309"/>
    <nd ref="26398310"/>
    <nd ref="26398311"/>
    <nd ref="26398195"/>
    <nd ref="55735663"/>
    <nd ref="679656301"/>
    <nd ref="679656302"/>
    <nd ref="26397947"/>
    <tag k="bicycle" v="yes"/>
    <tag k="cycleway" v="lane"/>
    <tag k="highway" v="motorway"/>
    <tag k="lanes" v="4"/>
    <tag k="maxspeed" v="90"/>
    <tag k="oneway" v="yes"/>
  </way>
  <way id="22498618" version="7" timestamp="2010-06-19T03:34:25Z" uid="299678" user="peteramjet" changeset="5020744">
    <nd ref="26398307"/>
    <nd ref="26398308"/>
    <nd ref="137029353"/>
    <nd ref="26398309"/>
    <nd ref="26398310"/>
    <nd ref="26398311"/>
    <nd ref="26398195"/>
    <nd ref="55735663"/>
    <nd ref="679656301"/>
    <nd ref="679656302"/>
    <nd ref="26397947"/>
    <tag k="bicycle" v="yes"/>
    <tag k="cycleway" v="lane"/>
    <tag k="highway" v="motorway"/>
    <tag k="lanes" v="4"/>
    <tag k="maxspeed" v="90"/>
    <tag k="name" v="M4 Western Motorway"/>
    <tag k="oneway" v="yes"/>
  </way>
  <way id="22498618" version="8" timestamp="2010-06-30T08:11:56Z" uid="299678" user="peteramjet" changeset="5111489">
    <nd ref="26398307"/>
    <nd ref="26398308"/>
    <nd ref="137029353"/>
    <nd ref="26398309"/>
    <nd ref="26398310"/>
    <nd ref="26398311"/>
    <nd ref="26398195"/>
    <nd ref="55735663"/>
    <nd ref="679656301"/>
    <nd ref="679656302"/>
    <nd ref="26397947"/>
    <tag k="bicycle" v="yes"/>
    <tag k="cycleway" v="lane"/>
    <tag k="highway" v="motorway"/>
    <tag k="lanes" v="4"/>
    <tag k="maxspeed" v="90"/>
    <tag k="name" v="M4 Western Motorway"/>
    <tag k="oneway" v="yes"/>
    <tag k="ref" v="MR4"/>
  </way>
  <way id="22498618" version="9" timestamp="2010-07-09T23:08:05Z" uid="299678" user="peteramjet" changeset="5177814">
    <nd ref="26398307"/>
    <nd ref="26398308"/>
    <nd ref="137029353"/>
    <nd ref="26398309"/>
    <nd ref="26398310"/>
    <nd ref="26398311"/>
    <nd ref="26398195"/>
    <nd ref="55735663"/>
    <nd ref="679656301"/>
    <nd ref="679656302"/>
    <nd ref="26397947"/>
    <tag k="bicycle" v="yes"/>
    <tag k="cycleway" v="lane"/>
    <tag k="highway" v="motorway"/>
    <tag k="lanes" v="4"/>
    <tag k="maxspeed" v="90"/>
    <tag k="name" v="M4 Western Motorway"/>
    <tag k="oneway" v="yes"/>
  </way>
  <way id="22498618" version="10" timestamp="2012-01-31T05:22:27Z" uid="54784" user="Tom Hollander" changeset="10546288">
    <nd ref="26398307"/>
    <nd ref="26398308"/>
    <nd ref="137029353"/>
    <nd ref="26398309"/>
    <nd ref="26398310"/>
    <nd ref="26398311"/>
    <nd ref="26398195"/>
    <nd ref="55735663"/>
    <nd ref="679656301"/>
    <nd ref="679656302"/>
    <nd ref="26397947"/>
    <tag k="bicycle" v="yes"/>
    <tag k="cycleway" v="lane"/>
    <tag k="highway" v="motorway"/>
    <tag k="lanes" v="4"/>
    <tag k="maxspeed" v="90"/>
    <tag k="name" v="M4 Western Motorway"/>
    <tag k="oneway" v="yes"/>
    <tag k="ref" v="M4"/>
  </way>
  <way id="22498618" version="11" timestamp="2012-03-28T22:39:24Z" uid="7523" user="inas" changeset="11132114">
    <nd ref="26398307"/>
    <nd ref="26398308"/>
    <nd ref="137029353"/>
    <nd ref="26398309"/>
    <nd ref="26398310"/>
    <nd ref="26398311"/>
    <nd ref="26398195"/>
    <nd ref="55735663"/>
    <nd ref="26397947"/>
    <tag k="bicycle" v="yes"/>
    <tag k="cycleway" v="lane"/>
    <tag k="highway" v="motorway"/>
    <tag k="lanes" v="4"/>
    <tag k="maxspeed" v="90"/>
    <tag k="name" v="M4 Western Motorway"/>
    <tag k="oneway" v="yes"/>
    <tag k="ref" v="M4"/>
  </way>
  <way id="22498624" version="5" timestamp="2008-07-29T06:24:32Z" uid="30201" user="rrankin" changeset="619035">
    <nd ref="241550351"/>
    <nd ref="26397950"/>
    <nd ref="26397951"/>
    <nd ref="26397952"/>
    <nd ref="26397924"/>
    <nd ref="36420704"/>
    <nd ref="36420705"/>
    <nd ref="36420706"/>
    <nd ref="36420707"/>
    <nd ref="36420708"/>
    <nd ref="36420709"/>
    <nd ref="36420710"/>
    <nd ref="145863144"/>
    <nd ref="36420711"/>
    <nd ref="36420712"/>
    <nd ref="36420713"/>
    <nd ref="36420714"/>
    <nd ref="36420715"/>
    <nd ref="36420716"/>
    <nd ref="36420717"/>
    <nd ref="36420718"/>
    <nd ref="36420719"/>
    <nd ref="36420720"/>
    <nd ref="36420721"/>
    <nd ref="36420722"/>
    <nd ref="36420723"/>
    <nd ref="36420724"/>
    <nd ref="36420725"/>
    <nd ref="36420726"/>
    <nd ref="36420727"/>
    <nd ref="36420728"/>
    <nd ref="26397382"/>
    <nd ref="26397381"/>
    <nd ref="60284445"/>
    <nd ref="26397378"/>
    <nd ref="59962564"/>
    <nd ref="281872950"/>
    <tag k="created_by" v="Potlatch 0.6c"/>
    <tag k="highway" v="motorway"/>
    <tag k="lanes" v="3"/>
    <tag k="maxspeed" v="100"/>
    <tag k="name" v="Western Motorway"/>
    <tag k="oneway" v="yes"/>
    <tag k="ref" v="MR4"/>
  </way>
  <way id="22498624" version="6" timestamp="2009-12-11T03:49:55Z" uid="30201" user="rrankin" changeset="3346504">
    <nd ref="241550351"/>
    <nd ref="26397950"/>
    <nd ref="26397951"/>
    <nd ref="26397952"/>
    <nd ref="26397924"/>
    <nd ref="36420704"/>
    <nd ref="36420705"/>
    <nd ref="36420706"/>
    <nd ref="585771595"/>
    <nd ref="36420707"/>
    <nd ref="36420708"/>
    <nd ref="36420709"/>
    <nd ref="36420710"/>
    <nd ref="145863144"/>
    <nd ref="36420711"/>
    <nd ref="36420712"/>
    <nd ref="36420713"/>
    <nd ref="36420714"/>
    <nd ref="36420715"/>
    <nd ref="36420716"/>
    <nd ref="36420717"/>
    <nd ref="36420718"/>
    <nd ref="36420719"/>
    <nd ref="36420720"/>
    <nd ref="36420721"/>
    <nd ref="36420722"/>
    <nd ref="36420723"/>
    <nd ref="36420724"/>
    <nd ref="36420725"/>
    <nd ref="36420726"/>
    <nd ref="36420727"/>
    <nd ref="36420728"/>
    <nd ref="26397382"/>
    <nd ref="26397381"/>
    <nd ref="60284445"/>
    <nd ref="26397378"/>
    <nd ref="59962564"/>
    <nd ref="281872950"/>
    <tag k="highway" v="motorway"/>
    <tag k="lanes" v="3"/>
    <tag k="maxspeed" v="100"/>
    <tag k="name" v="Western Motorway"/>
    <tag k="oneway" v="yes"/>
    <tag k="ref" v="MR4"/>
  </way>
  <way id="22498624" version="7" timestamp="2009-12-27T15:14:52Z" uid="12203" user="brainwad" changeset="3463581">
    <nd ref="241550351"/>
    <nd ref="26397950"/>
    <nd ref="26397951"/>
    <nd ref="26397952"/>
    <nd ref="26397924"/>
    <nd ref="36420704"/>
    <nd ref="36420705"/>
    <nd ref="36420706"/>
    <nd ref="585771595"/>
    <nd ref="36420707"/>
    <nd ref="36420708"/>
    <nd ref="36420709"/>
    <nd ref="36420710"/>
    <nd ref="145863144"/>
    <nd ref="36420711"/>
    <nd ref="36420712"/>
    <nd ref="600028263"/>
    <tag k="highway" v="motorway"/>
    <tag k="lanes" v="3"/>
    <tag k="maxspeed" v="90"/>
    <tag k="name" v="Western Motorway"/>
    <tag k="oneway" v="yes"/>
    <tag k="ref" v="MR4"/>
  </way>
  <way id="22498624" version="8" timestamp="2010-01-26T13:45:23Z" uid="12203" user="brainwad" changeset="3719539">
    <nd ref="241550351"/>
    <nd ref="26397950"/>
    <nd ref="26397951"/>
    <nd ref="26397952"/>
    <nd ref="26397924"/>
    <nd ref="36420704"/>
    <nd ref="36420705"/>
    <nd ref="36420706"/>
    <nd ref="585771595"/>
    <nd ref="36420707"/>
    <nd ref="36420708"/>
    <nd ref="36420709"/>
    <nd ref="36420710"/>
    <nd ref="145863144"/>
    <nd ref="36420711"/>
    <nd ref="36420712"/>
    <nd ref="600028263"/>
    <tag k="bicycle" v="yes"/>
    <tag k="cycleway" v="lane"/>
    <tag k="highway" v="motorway"/>
    <tag k="lanes" v="3"/>
    <tag k="maxspeed" v="90"/>
    <tag k="name" v="Western Motorway"/>
    <tag k="oneway" v="yes"/>
    <tag k="ref" v="MR4"/>
  </way>
  <way id="22498624" version="9" timestamp="2010-04-01T07:31:42Z" uid="74617" user="JohnSmith" changeset="4291360">
    <nd ref="241550351"/>
    <nd ref="26397950"/>
    <nd ref="26397951"/>
    <nd ref="26397952"/>
    <nd ref="26397924"/>
    <nd ref="36420704"/>
    <nd ref="36420705"/>
    <nd ref="36420706"/>
    <nd ref="585771595"/>
    <nd ref="36420707"/>
    <nd ref="679655935"/>
    <tag k="bicycle" v="yes"/>
    <tag k="cycleway" v="lane"/>
    <tag k="highway" v="motorway"/>
    <tag k="lanes" v="3"/>
    <tag k="maxspeed" v="90"/>
    <tag k="name" v="Western Motorway"/>
    <tag k="oneway" v="yes"/>
  </way>
  <way id="22498624" version="10" timestamp="2010-04-01T07:51:06Z" uid="74617" user="JohnSmith" changeset="4291360">
    <nd ref="241550351"/>
    <nd ref="26397950"/>
    <nd ref="26397951"/>
    <nd ref="26397952"/>
    <nd ref="26397924"/>
    <nd ref="36420704"/>
    <nd ref="36420705"/>
    <nd ref="36420706"/>
    <nd ref="585771595"/>
    <nd ref="36420707"/>
    <nd ref="679655935"/>
    <tag k="bicycle" v="yes"/>
    <tag k="cycleway" v="lane"/>
    <tag k="highway" v="motorway"/>
    <tag k="lanes" v="3"/>
    <tag k="maxspeed" v="90"/>
    <tag k="oneway" v="yes"/>
  </way>
  <way id="22498624" version="11" timestamp="2010-06-19T03:36:56Z" uid="299678" user="peteramjet" changeset="5020744">
    <nd ref="241550351"/>
    <nd ref="26397950"/>
    <nd ref="26397951"/>
    <nd ref="26397952"/>
    <nd ref="26397924"/>
    <nd ref="36420704"/>
    <nd ref="36420705"/>
    <nd ref="36420706"/>
    <nd ref="585771595"/>
    <nd ref="36420707"/>
    <nd ref="679655935"/>
    <tag k="bicycle" v="yes"/>
    <tag k="cycleway" v="lane"/>
    <tag k="highway" v="motorway"/>
    <tag k="lanes" v="3"/>
    <tag k="maxspeed" v="90"/>
    <tag k="name" v="M4 Western Motorway"/>
    <tag k="oneway" v="yes"/>
  </way>
  <way id="22498624" version="12" timestamp="2010-06-30T08:12:50Z" uid="299678" user="peteramjet" changeset="5111489">
    <nd ref="241550351"/>
    <nd ref="26397950"/>
    <nd ref="26397951"/>
    <nd ref="26397952"/>
    <nd ref="26397924"/>
    <nd ref="36420704"/>
    <nd ref="36420705"/>
    <nd ref="36420706"/>
    <nd ref="585771595"/>
    <nd ref="36420707"/>
    <nd ref="679655935"/>
    <tag k="bicycle" v="yes"/>
    <tag k="cycleway" v="lane"/>
    <tag k="highway" v="motorway"/>
    <tag k="lanes" v="3"/>
    <tag k="maxspeed" v="90"/>
    <tag k="name" v="M4 Western Motorway"/>
    <tag k="oneway" v="yes"/>
    <tag k="ref" v="MR4"/>
  </way>
  <way id="22498624" version="13" timestamp="2010-07-09T23:11:08Z" uid="299678" user="peteramjet" changeset="5177814">
    <nd ref="241550351"/>
    <nd ref="26397950"/>
    <nd ref="26397951"/>
    <nd ref="26397952"/>
    <nd ref="26397924"/>
    <nd ref="36420704"/>
    <nd ref="36420705"/>
    <nd ref="36420706"/>
    <nd ref="585771595"/>
    <nd ref="36420707"/>
    <nd ref="679655935"/>
    <tag k="bicycle" v="yes"/>
    <tag k="cycleway" v="lane"/>
    <tag k="highway" v="motorway"/>
    <tag k="lanes" v="3"/>
    <tag k="maxspeed" v="90"/>
    <tag k="name" v="M4 Western Motorway"/>
    <tag k="oneway" v="yes"/>
  </way>
  <way id="22498624" version="14" timestamp="2012-01-31T05:22:28Z" uid="54784" user="Tom Hollander" changeset="10546288">
    <nd ref="241550351"/>
    <nd ref="26397950"/>
    <nd ref="26397951"/>
    <nd ref="26397952"/>
    <nd ref="26397924"/>
    <nd ref="36420704"/>
    <nd ref="36420705"/>
    <nd ref="36420706"/>
    <nd ref="585771595"/>
    <nd ref="36420707"/>
    <nd ref="679655935"/>
    <tag k="bicycle" v="yes"/>
    <tag k="cycleway" v="lane"/>
    <tag k="highway" v="motorway"/>
    <tag k="lanes" v="3"/>
    <tag k="maxspeed" v="90"/>
    <tag k="name" v="M4 Western Motorway"/>
    <tag k="oneway" v="yes"/>
    <tag k="ref" v="M4"/>
  </way>
  <way id="22498626" version="4" timestamp="2010-04-01T07:31:42Z" uid="74617" user="JohnSmith" changeset="4291360">
    <nd ref="600028258"/>
    <nd ref="36420422"/>
    <nd ref="36420423"/>
    <nd ref="145863763"/>
    <nd ref="679655930"/>
    <nd ref="36420552"/>
    <nd ref="36420553"/>
    <nd ref="679655932"/>
    <nd ref="36715884"/>
    <tag k="bicycle" v="yes"/>
    <tag k="cycleway" v="lane"/>
    <tag k="highway" v="motorway"/>
    <tag k="lanes" v="3"/>
    <tag k="maxspeed" v="90"/>
    <tag k="name" v="Western Motorway"/>
    <tag k="oneway" v="yes"/>
  </way>
  <way id="22498626" version="5" timestamp="2010-04-01T07:51:06Z" uid="74617" user="JohnSmith" changeset="4291360">
    <nd ref="600028258"/>
    <nd ref="36420422"/>
    <nd ref="36420423"/>
    <nd ref="145863763"/>
    <nd ref="679655930"/>
    <nd ref="36420552"/>
    <nd ref="36420553"/>
    <nd ref="679655932"/>
    <nd ref="36715884"/>
    <tag k="bicycle" v="yes"/>
    <tag k="cycleway" v="lane"/>
    <tag k="highway" v="motorway"/>
    <tag k="lanes" v="3"/>
    <tag k="maxspeed" v="90"/>
    <tag k="oneway" v="yes"/>
  </way>
  <way id="22498626" version="6" timestamp="2010-06-19T03:42:55Z" uid="299678" user="peteramjet" changeset="5020744">
    <nd ref="600028258"/>
    <nd ref="36420422"/>
    <nd ref="36420423"/>
    <nd ref="145863763"/>
    <nd ref="679655930"/>
    <nd ref="36420552"/>
    <nd ref="36420553"/>
    <nd ref="679655932"/>
    <nd ref="36715884"/>
    <tag k="bicycle" v="yes"/>
    <tag k="cycleway" v="lane"/>
    <tag k="highway" v="motorway"/>
    <tag k="lanes" v="3"/>
    <tag k="maxspeed" v="90"/>
    <tag k="name" v="M4 Western Motorway"/>
    <tag k="oneway" v="yes"/>
  </way>
  <way id="22498626" version="7" timestamp="2010-06-30T08:13:54Z" uid="299678" user="peteramjet" changeset="5111489">
    <nd ref="600028258"/>
    <nd ref="36420422"/>
    <nd ref="36420423"/>
    <nd ref="145863763"/>
    <nd ref="679655930"/>
    <nd ref="36420552"/>
    <nd ref="36420553"/>
    <nd ref="679655932"/>
    <nd ref="36715884"/>
    <tag k="bicycle" v="yes"/>
    <tag k="cycleway" v="lane"/>
    <tag k="highway" v="motorway"/>
    <tag k="lanes" v="3"/>
    <tag k="maxspeed" v="90"/>
    <tag k="name" v="M4 Western Motorway"/>
    <tag k="oneway" v="yes"/>
    <tag k="ref" v="MR4"/>
  </way>
  <way id="22498626" version="8" timestamp="2010-07-09T23:11:09Z" uid="299678" user="peteramjet" changeset="5177814">
    <nd ref="600028258"/>
    <nd ref="36420422"/>
    <nd ref="36420423"/>
    <nd ref="145863763"/>
    <nd ref="679655930"/>
    <nd ref="36420552"/>
    <nd ref="36420553"/>
    <nd ref="679655932"/>
    <nd ref="36715884"/>
    <tag k="bicycle" v="yes"/>
    <tag k="cycleway" v="lane"/>
    <tag k="highway" v="motorway"/>
    <tag k="lanes" v="3"/>
    <tag k="maxspeed" v="90"/>
    <tag k="name" v="M4 Western Motorway"/>
    <tag k="oneway" v="yes"/>
  </way>
  <way id="22498626" version="9" timestamp="2012-01-31T05:10:09Z" uid="54784" user="Tom Hollander" changeset="10546288">
    <nd ref="600028258"/>
    <nd ref="36420422"/>
    <nd ref="36420423"/>
    <nd ref="145863763"/>
    <nd ref="679655930"/>
    <nd ref="36420552"/>
    <nd ref="36420553"/>
    <nd ref="679655932"/>
    <nd ref="36715884"/>
    <tag k="bicycle" v="yes"/>
    <tag k="cycleway" v="lane"/>
    <tag k="highway" v="motorway"/>
    <tag k="lanes" v="3"/>
    <tag k="maxspeed" v="90"/>
    <tag k="name" v="M4 Western Motorway"/>
    <tag k="oneway" v="yes"/>
    <tag k="ref" v="M4"/>
  </way>
  <way id="22498639" version="4" timestamp="2010-01-11T04:44:29Z" uid="7617" user="Franc" changeset="3593524">
    <nd ref="33122078"/>
    <nd ref="31674281"/>
    <nd ref="31674282"/>
    <nd ref="31674283"/>
    <nd ref="31674284"/>
    <nd ref="611547219"/>
    <nd ref="31674285"/>
    <nd ref="31674286"/>
    <nd ref="31674287"/>
    <nd ref="31674288"/>
    <nd ref="31674289"/>
    <nd ref="31674290"/>
    <nd ref="34632380"/>
    <nd ref="31674291"/>
    <nd ref="31674292"/>
    <nd ref="31659663"/>
    <tag k="highway" v="motorway"/>
    <tag k="lanes" v="3"/>
    <tag k="maxspeed" v="110"/>
    <tag k="name" v="Western Motorway"/>
    <tag k="oneway" v="yes"/>
    <tag k="ref" v="MR4"/>
  </way>
  <way id="22498639" version="5" timestamp="2010-04-01T07:18:18Z" uid="74617" user="JohnSmith" changeset="4291360">
    <nd ref="33122078"/>
    <nd ref="31674281"/>
    <nd ref="31674282"/>
    <nd ref="31674283"/>
    <nd ref="31674284"/>
    <nd ref="611547219"/>
    <nd ref="31674285"/>
    <nd ref="31674286"/>
    <nd ref="31674287"/>
    <nd ref="31674288"/>
    <nd ref="31674289"/>
    <nd ref="31674290"/>
    <nd ref="34632380"/>
    <nd ref="31674291"/>
    <nd ref="31674292"/>
    <nd ref="31659663"/>
    <tag k="highway" v="motorway"/>
    <tag k="lanes" v="3"/>
    <tag k="maxspeed" v="110"/>
    <tag k="name" v="Western Motorway"/>
    <tag k="oneway" v="yes"/>
  </way>
  <way id="22498639" version="6" timestamp="2010-04-01T07:51:04Z" uid="74617" user="JohnSmith" changeset="4291360">
    <nd ref="33122078"/>
    <nd ref="31674281"/>
    <nd ref="31674282"/>
    <nd ref="31674283"/>
    <nd ref="31674284"/>
    <nd ref="611547219"/>
    <nd ref="31674285"/>
    <nd ref="31674286"/>
    <nd ref="31674287"/>
    <nd ref="31674288"/>
    <nd ref="31674289"/>
    <nd ref="31674290"/>
    <nd ref="34632380"/>
    <nd ref="31674291"/>
    <nd ref="31674292"/>
    <nd ref="31659663"/>
    <tag k="highway" v="motorway"/>
    <tag k="lanes" v="3"/>
    <tag k="maxspeed" v="110"/>
    <tag k="oneway" v="yes"/>
  </way>
  <way id="22498639" version="7" timestamp="2010-06-19T03:53:28Z" uid="299678" user="peteramjet" changeset="5020744">
    <nd ref="33122078"/>
    <nd ref="31674281"/>
    <nd ref="31674282"/>
    <nd ref="31674283"/>
    <nd ref="31674284"/>
    <nd ref="611547219"/>
    <nd ref="31674285"/>
    <nd ref="31674286"/>
    <nd ref="31674287"/>
    <nd ref="31674288"/>
    <nd ref="31674289"/>
    <nd ref="31674290"/>
    <nd ref="34632380"/>
    <nd ref="31674291"/>
    <nd ref="31674292"/>
    <nd ref="31659663"/>
    <tag k="highway" v="motorway"/>
    <tag k="lanes" v="3"/>
    <tag k="maxspeed" v="110"/>
    <tag k="name" v="M4 Western Motorway"/>
    <tag k="oneway" v="yes"/>
  </way>
  <way id="22498639" version="8" timestamp="2010-06-30T08:16:50Z" uid="299678" user="peteramjet" changeset="5111489">
    <nd ref="33122078"/>
    <nd ref="31674281"/>
    <nd ref="31674282"/>
    <nd ref="31674283"/>
    <nd ref="31674284"/>
    <nd ref="611547219"/>
    <nd ref="31674285"/>
    <nd ref="31674286"/>
    <nd ref="31674287"/>
    <nd ref="31674288"/>
    <nd ref="31674289"/>
    <nd ref="31674290"/>
    <nd ref="34632380"/>
    <nd ref="31674291"/>
    <nd ref="31674292"/>
    <nd ref="31659663"/>
    <tag k="highway" v="motorway"/>
    <tag k="lanes" v="3"/>
    <tag k="maxspeed" v="110"/>
    <tag k="name" v="M4 Western Motorway"/>
    <tag k="oneway" v="yes"/>
    <tag k="ref" v="MR4"/>
  </way>
  <way id="22498639" version="9" timestamp="2010-07-09T23:20:06Z" uid="299678" user="peteramjet" changeset="5177814">
    <nd ref="33122078"/>
    <nd ref="31674281"/>
    <nd ref="31674282"/>
    <nd ref="31674283"/>
    <nd ref="31674284"/>
    <nd ref="611547219"/>
    <nd ref="31674285"/>
    <nd ref="31674286"/>
    <nd ref="31674287"/>
    <nd ref="31674288"/>
    <nd ref="31674289"/>
    <nd ref="31674290"/>
    <nd ref="34632380"/>
    <nd ref="31674291"/>
    <nd ref="31674292"/>
    <nd ref="31659663"/>
    <tag k="highway" v="motorway"/>
    <tag k="lanes" v="3"/>
    <tag k="maxspeed" v="110"/>
    <tag k="name" v="M4 Western Motorway"/>
    <tag k="oneway" v="yes"/>
  </way>
  <way id="22498639" version="10" timestamp="2012-01-31T05:10:10Z" uid="54784" user="Tom Hollander" changeset="10546288">
    <nd ref="33122078"/>
    <nd ref="31674281"/>
    <nd ref="31674282"/>
    <nd ref="31674283"/>
    <nd ref="31674284"/>
    <nd ref="611547219"/>
    <nd ref="31674285"/>
    <nd ref="31674286"/>
    <nd ref="31674287"/>
    <nd ref="31674288"/>
    <nd ref="31674289"/>
    <nd ref="31674290"/>
    <nd ref="34632380"/>
    <nd ref="31674291"/>
    <nd ref="31674292"/>
    <nd ref="31659663"/>
    <tag k="highway" v="motorway"/>
    <tag k="lanes" v="3"/>
    <tag k="maxspeed" v="110"/>
    <tag k="name" v="M4 Western Motorway"/>
    <tag k="oneway" v="yes"/>
    <tag k="ref" v="M4"/>
  </way>
  <way id="22498645" version="9" timestamp="2009-06-17T08:37:00Z" uid="11308" user="samc" changeset="1542988">
    <nd ref="241555800"/>
    <nd ref="60459763"/>
    <nd ref="60459761"/>
    <nd ref="60459751"/>
    <nd ref="60459750"/>
    <nd ref="60459748"/>
    <nd ref="60459746"/>
    <nd ref="60459744"/>
    <nd ref="60459742"/>
    <nd ref="60459741"/>
    <nd ref="60459739"/>
    <nd ref="60459737"/>
    <nd ref="60459735"/>
    <nd ref="60459733"/>
    <nd ref="66397258"/>
    <nd ref="60459732"/>
    <nd ref="60459730"/>
    <nd ref="36393449"/>
    <nd ref="60459723"/>
    <nd ref="60459722"/>
    <nd ref="60459720"/>
    <nd ref="60459718"/>
    <nd ref="60459716"/>
    <nd ref="60459715"/>
    <tag k="created_by" v="Potlatch 0.10f"/>
    <tag k="highway" v="trunk"/>
    <tag k="lanes" v="2"/>
    <tag k="maxspeed" v="70"/>
    <tag k="name" v="Great Western Highway"/>
    <tag k="oneway" v="true"/>
    <tag k="ref" v="NR32"/>
  </way>
  <way id="22498645" version="10" timestamp="2009-08-03T19:36:25Z" uid="4467" user="Rosscoe" changeset="2029470">
    <nd ref="241555800"/>
    <nd ref="60459763"/>
    <nd ref="60459761"/>
    <nd ref="60459751"/>
    <nd ref="60459750"/>
    <nd ref="60459748"/>
    <nd ref="60459746"/>
    <nd ref="60459744"/>
    <nd ref="60459742"/>
    <nd ref="60459741"/>
    <nd ref="60459739"/>
    <nd ref="60459737"/>
    <nd ref="60459735"/>
    <nd ref="60459733"/>
    <nd ref="66397258"/>
    <nd ref="60459732"/>
    <nd ref="60459730"/>
    <nd ref="36393449"/>
    <nd ref="60459723"/>
    <nd ref="60459722"/>
    <nd ref="60459720"/>
    <nd ref="60459718"/>
    <nd ref="60459716"/>
    <nd ref="60459715"/>
    <tag k="highway" v="trunk"/>
    <tag k="lanes" v="2"/>
    <tag k="maxspeed" v="70"/>
    <tag k="name" v="Great Western Highway"/>
    <tag k="oneway" v="yes"/>
    <tag k="ref" v="NR32"/>
  </way>
  <way id="22498645" version="11" timestamp="2009-09-18T13:11:09Z" uid="67896" user="mrpulley" changeset="2524280">
    <nd ref="241555800"/>
    <nd ref="60459763"/>
    <nd ref="60459761"/>
    <nd ref="60459751"/>
    <nd ref="60459750"/>
    <nd ref="60459748"/>
    <nd ref="60459746"/>
    <nd ref="60459744"/>
    <nd ref="60459742"/>
    <nd ref="60459741"/>
    <nd ref="60459739"/>
    <nd ref="60459737"/>
    <nd ref="60459735"/>
    <nd ref="60459733"/>
    <nd ref="66397258"/>
    <nd ref="60459732"/>
    <nd ref="60459730"/>
    <nd ref="36393449"/>
    <nd ref="60459723"/>
    <nd ref="60459722"/>
    <nd ref="60459720"/>
    <nd ref="60459718"/>
    <nd ref="60459716"/>
    <nd ref="60459715"/>
    <tag k="highway" v="trunk"/>
    <tag k="lanes" v="2"/>
    <tag k="maxspeed" v="70"/>
    <tag k="oneway" v="yes"/>
    <tag k="ref" v="NR32"/>
  </way>
  <way id="22498645" version="12" timestamp="2009-09-18T13:17:50Z" uid="67896" user="mrpulley" changeset="2524280">
    <nd ref="241555800"/>
    <nd ref="60459763"/>
    <nd ref="60459761"/>
    <nd ref="60459751"/>
    <nd ref="60459750"/>
    <nd ref="60459748"/>
    <nd ref="60459746"/>
    <nd ref="60459744"/>
    <nd ref="60459742"/>
    <nd ref="60459741"/>
    <nd ref="60459739"/>
    <nd ref="60459737"/>
    <nd ref="60459735"/>
    <nd ref="60459733"/>
    <nd ref="66397258"/>
    <nd ref="60459732"/>
    <nd ref="60459730"/>
    <nd ref="36393449"/>
    <nd ref="60459723"/>
    <nd ref="60459722"/>
    <nd ref="60459720"/>
    <nd ref="60459718"/>
    <nd ref="60459716"/>
    <nd ref="60459715"/>
    <tag k="highway" v="trunk"/>
    <tag k="lanes" v="2"/>
    <tag k="maxspeed" v="70"/>
    <tag k="oneway" v="yes"/>
  </way>
  <way id="22498645" version="13" timestamp="2009-09-27T02:30:15Z" uid="9477" user="NilbogAus" changeset="2647785">
    <nd ref="241555800"/>
    <nd ref="60459763"/>
    <nd ref="60459761"/>
    <nd ref="60459751"/>
    <nd ref="60459750"/>
    <nd ref="60459748"/>
    <nd ref="60459746"/>
    <nd ref="60459744"/>
    <nd ref="60459742"/>
    <nd ref="60459741"/>
    <nd ref="60459739"/>
    <nd ref="60459737"/>
    <nd ref="60459735"/>
    <nd ref="60459733"/>
    <nd ref="66397258"/>
    <nd ref="60459732"/>
    <nd ref="509902770"/>
    <nd ref="60459730"/>
    <nd ref="36393449"/>
    <nd ref="60459723"/>
    <nd ref="60459722"/>
    <nd ref="60459720"/>
    <nd ref="60459718"/>
    <nd ref="60459716"/>
    <nd ref="60459715"/>
    <tag k="highway" v="trunk"/>
    <tag k="lanes" v="2"/>
    <tag k="maxspeed" v="70"/>
    <tag k="oneway" v="yes"/>
  </way>
  <way id="22498645" version="14" timestamp="2009-09-27T02:38:26Z" uid="9477" user="NilbogAus" changeset="2647807">
    <nd ref="241555800"/>
    <nd ref="60459763"/>
    <nd ref="60459761"/>
    <nd ref="60459751"/>
    <nd ref="60459750"/>
    <nd ref="60459748"/>
    <nd ref="60459746"/>
    <nd ref="60459744"/>
    <nd ref="60459742"/>
    <nd ref="60459741"/>
    <nd ref="60459739"/>
    <nd ref="60459737"/>
    <nd ref="60459735"/>
    <nd ref="60459733"/>
    <nd ref="66397258"/>
    <nd ref="60459732"/>
    <nd ref="509902770"/>
    <nd ref="60459730"/>
    <nd ref="36393449"/>
    <nd ref="60459723"/>
    <nd ref="60459722"/>
    <nd ref="60459720"/>
    <nd ref="60459718"/>
    <nd ref="60459716"/>
    <nd ref="60459715"/>
    <tag k="highway" v="trunk"/>
    <tag k="lanes" v="2"/>
    <tag k="maxspeed" v="70"/>
    <tag k="oneway" v="yes"/>
  </way>
  <way id="22498645" version="15" timestamp="2010-02-04T06:33:12Z" uid="47167" user="MCH" changeset="3788070">
    <nd ref="241555800"/>
    <nd ref="60459763"/>
    <nd ref="60459761"/>
    <nd ref="60459751"/>
    <nd ref="60459750"/>
    <nd ref="60459748"/>
    <nd ref="60459746"/>
    <nd ref="60459744"/>
    <nd ref="60459742"/>
    <nd ref="60459741"/>
    <nd ref="60459739"/>
    <nd ref="60459737"/>
    <nd ref="60459735"/>
    <nd ref="60459733"/>
    <nd ref="66397258"/>
    <nd ref="60459732"/>
    <nd ref="509902770"/>
    <nd ref="60459730"/>
    <nd ref="628583021"/>
    <nd ref="628583022"/>
    <nd ref="36393449"/>
    <nd ref="60459723"/>
    <nd ref="628583023"/>
    <nd ref="60459722"/>
    <nd ref="628583024"/>
    <nd ref="60459720"/>
    <nd ref="60459718"/>
    <nd ref="628583025"/>
    <nd ref="60459716"/>
    <nd ref="628583026"/>
    <nd ref="60459715"/>
    <tag k="highway" v="trunk"/>
    <tag k="lanes" v="2"/>
    <tag k="maxspeed" v="70"/>
    <tag k="oneway" v="yes"/>
  </way>
  <way id="22498645" version="16" timestamp="2010-02-10T12:22:39Z" uid="47167" user="MCH" changeset="3839160">
    <nd ref="241555800"/>
    <nd ref="60459763"/>
    <nd ref="634914827"/>
    <nd ref="634914828"/>
    <nd ref="634914829"/>
    <nd ref="60459761"/>
    <nd ref="634914830"/>
    <nd ref="634914831"/>
    <nd ref="60459751"/>
    <nd ref="634914832"/>
    <nd ref="634914833"/>
    <nd ref="60459750"/>
    <nd ref="634914834"/>
    <nd ref="634914835"/>
    <nd ref="60459748"/>
    <nd ref="634914836"/>
    <nd ref="634914837"/>
    <nd ref="634914838"/>
    <nd ref="634914839"/>
    <nd ref="60459746"/>
    <nd ref="60459744"/>
    <nd ref="634914840"/>
    <nd ref="60459742"/>
    <nd ref="634914841"/>
    <nd ref="634914842"/>
    <nd ref="634914843"/>
    <nd ref="634914844"/>
    <nd ref="60459741"/>
    <nd ref="634914845"/>
    <nd ref="634914846"/>
    <nd ref="60459739"/>
    <nd ref="634914847"/>
    <nd ref="634914848"/>
    <nd ref="634914849"/>
    <nd ref="60459737"/>
    <nd ref="634914850"/>
    <nd ref="634914851"/>
    <nd ref="60459735"/>
    <nd ref="634914852"/>
    <nd ref="60459733"/>
    <nd ref="66397258"/>
    <nd ref="60459732"/>
    <nd ref="509902770"/>
    <nd ref="60459730"/>
    <nd ref="628583021"/>
    <nd ref="628583022"/>
    <nd ref="36393449"/>
    <nd ref="60459723"/>
    <nd ref="628583023"/>
    <nd ref="60459722"/>
    <nd ref="628583024"/>
    <nd ref="60459720"/>
    <nd ref="60459718"/>
    <nd ref="628583025"/>
    <nd ref="60459716"/>
    <nd ref="628583026"/>
    <nd ref="60459715"/>
    <tag k="highway" v="trunk"/>
    <tag k="lanes" v="2"/>
    <tag k="maxspeed" v="70"/>
    <tag k="oneway" v="yes"/>
  </way>
  <way id="22498645" version="17" timestamp="2010-02-11T12:14:49Z" uid="47167" user="MCH" changeset="3847185">
    <nd ref="241555800"/>
    <nd ref="60459763"/>
    <nd ref="634914827"/>
    <nd ref="634914828"/>
    <nd ref="634914829"/>
    <nd ref="60459761"/>
    <nd ref="634914830"/>
    <nd ref="634914831"/>
    <nd ref="60459751"/>
    <nd ref="634914832"/>
    <nd ref="634914833"/>
    <nd ref="60459750"/>
    <nd ref="634914834"/>
    <nd ref="634914835"/>
    <nd ref="60459748"/>
    <nd ref="634914836"/>
    <nd ref="634914837"/>
    <nd ref="634914838"/>
    <nd ref="634914839"/>
    <nd ref="60459746"/>
    <nd ref="60459744"/>
    <nd ref="634914840"/>
    <nd ref="635793878"/>
    <nd ref="60459742"/>
    <nd ref="634914841"/>
    <nd ref="634914842"/>
    <nd ref="634914843"/>
    <nd ref="634914844"/>
    <nd ref="60459741"/>
    <nd ref="634914845"/>
    <nd ref="634914846"/>
    <nd ref="60459739"/>
    <nd ref="634914847"/>
    <nd ref="634914848"/>
    <nd ref="634914849"/>
    <nd ref="60459737"/>
    <nd ref="634914850"/>
    <nd ref="634914851"/>
    <nd ref="60459735"/>
    <nd ref="634914852"/>
    <nd ref="60459733"/>
    <nd ref="66397258"/>
    <nd ref="60459732"/>
    <nd ref="509902770"/>
    <nd ref="635793879"/>
    <nd ref="635793880"/>
    <nd ref="635793881"/>
    <nd ref="635793882"/>
    <nd ref="60459730"/>
    <nd ref="628583021"/>
    <nd ref="628583022"/>
    <nd ref="36393449"/>
    <nd ref="60459723"/>
    <nd ref="628583023"/>
    <nd ref="60459722"/>
    <nd ref="628583024"/>
    <nd ref="60459720"/>
    <nd ref="60459718"/>
    <nd ref="628583025"/>
    <nd ref="60459716"/>
    <nd ref="628583026"/>
    <nd ref="60459715"/>
    <tag k="highway" v="trunk"/>
    <tag k="lanes" v="2"/>
    <tag k="maxspeed" v="70"/>
    <tag k="oneway" v="yes"/>
  </way>
  <way id="22498645" version="18" timestamp="2010-02-11T12:22:12Z" uid="47167" user="MCH" changeset="3847185">
    <nd ref="241555800"/>
    <nd ref="60459763"/>
    <nd ref="634914827"/>
    <nd ref="634914828"/>
    <nd ref="634914829"/>
    <nd ref="60459761"/>
    <nd ref="634914830"/>
    <nd ref="634914831"/>
    <nd ref="60459751"/>
    <nd ref="634914832"/>
    <nd ref="634914833"/>
    <nd ref="60459750"/>
    <nd ref="634914834"/>
    <nd ref="634914835"/>
    <nd ref="60459748"/>
    <nd ref="634914836"/>
    <nd ref="634914837"/>
    <nd ref="634914838"/>
    <nd ref="634914839"/>
    <nd ref="60459746"/>
    <nd ref="60459744"/>
    <nd ref="634914840"/>
    <nd ref="635793878"/>
    <nd ref="60459742"/>
    <nd ref="634914841"/>
    <nd ref="634914842"/>
    <nd ref="634914843"/>
    <nd ref="634914844"/>
    <nd ref="60459741"/>
    <nd ref="634914845"/>
    <nd ref="634914846"/>
    <nd ref="60459739"/>
    <nd ref="634914847"/>
    <nd ref="634914848"/>
    <nd ref="634914849"/>
    <nd ref="60459737"/>
    <nd ref="634914850"/>
    <nd ref="634914851"/>
    <nd ref="60459735"/>
    <nd ref="634914852"/>
    <nd ref="60459733"/>
    <nd ref="66397258"/>
    <nd ref="60459732"/>
    <nd ref="509902770"/>
    <nd ref="635793879"/>
    <nd ref="635793880"/>
    <nd ref="635793881"/>
    <nd ref="635793882"/>
    <nd ref="60459730"/>
    <nd ref="628583021"/>
    <nd ref="635795414"/>
    <nd ref="628583022"/>
    <nd ref="36393449"/>
    <nd ref="635795415"/>
    <nd ref="635795416"/>
    <nd ref="635795417"/>
    <nd ref="60459723"/>
    <nd ref="635795418"/>
    <nd ref="635795419"/>
    <nd ref="628583023"/>
    <nd ref="635795420"/>
    <nd ref="60459722"/>
    <nd ref="635795421"/>
    <nd ref="628583024"/>
    <nd ref="635795422"/>
    <nd ref="60459720"/>
    <nd ref="635795423"/>
    <nd ref="635795424"/>
    <nd ref="60459718"/>
    <nd ref="635795425"/>
    <nd ref="628583025"/>
    <nd ref="635795426"/>
    <nd ref="60459716"/>
    <nd ref="628583026"/>
    <nd ref="60459715"/>
    <tag k="highway" v="trunk"/>
    <tag k="lanes" v="2"/>
    <tag k="maxspeed" v="70"/>
    <tag k="oneway" v="yes"/>
  </way>
  <way id="22498645" version="19" timestamp="2010-02-14T08:44:06Z" uid="47167" user="MCH" changeset="3871170">
    <nd ref="241555800"/>
    <nd ref="638915997"/>
    <nd ref="60459763"/>
    <nd ref="634914827"/>
    <nd ref="634914828"/>
    <nd ref="634914829"/>
    <nd ref="60459761"/>
    <nd ref="634914830"/>
    <nd ref="634914831"/>
    <nd ref="60459751"/>
    <nd ref="634914832"/>
    <nd ref="634914833"/>
    <nd ref="60459750"/>
    <nd ref="634914834"/>
    <nd ref="634914835"/>
    <nd ref="60459748"/>
    <nd ref="634914836"/>
    <nd ref="634914837"/>
    <nd ref="634914838"/>
    <nd ref="634914839"/>
    <nd ref="60459746"/>
    <nd ref="60459744"/>
    <nd ref="634914840"/>
    <nd ref="635793878"/>
    <nd ref="60459742"/>
    <nd ref="634914841"/>
    <nd ref="634914842"/>
    <nd ref="634914843"/>
    <nd ref="634914844"/>
    <nd ref="60459741"/>
    <nd ref="634914845"/>
    <nd ref="634914846"/>
    <nd ref="60459739"/>
    <nd ref="634914847"/>
    <nd ref="634914848"/>
    <nd ref="634914849"/>
    <nd ref="60459737"/>
    <nd ref="634914850"/>
    <nd ref="634914851"/>
    <nd ref="60459735"/>
    <nd ref="634914852"/>
    <nd ref="60459733"/>
    <nd ref="66397258"/>
    <nd ref="60459732"/>
    <nd ref="509902770"/>
    <nd ref="635793879"/>
    <nd ref="635793880"/>
    <nd ref="635793881"/>
    <nd ref="635793882"/>
    <nd ref="60459730"/>
    <nd ref="628583021"/>
    <nd ref="635795414"/>
    <nd ref="628583022"/>
    <nd ref="36393449"/>
    <nd ref="635795415"/>
    <nd ref="635795416"/>
    <nd ref="635795417"/>
    <nd ref="60459723"/>
    <nd ref="635795418"/>
    <nd ref="635795419"/>
    <nd ref="628583023"/>
    <nd ref="635795420"/>
    <nd ref="60459722"/>
    <nd ref="635795421"/>
    <nd ref="628583024"/>
    <nd ref="635795422"/>
    <nd ref="60459720"/>
    <nd ref="635795423"/>
    <nd ref="635795424"/>
    <nd ref="60459718"/>
    <nd ref="635795425"/>
    <nd ref="628583025"/>
    <nd ref="635795426"/>
    <nd ref="60459716"/>
    <nd ref="628583026"/>
    <nd ref="60459715"/>
    <tag k="highway" v="trunk"/>
    <tag k="lanes" v="2"/>
    <tag k="maxspeed" v="70"/>
    <tag k="oneway" v="yes"/>
  </way>
  <way id="22498645" version="20" timestamp="2010-06-30T08:21:43Z" uid="299678" user="peteramjet" changeset="5111661">
    <nd ref="241555800"/>
    <nd ref="638915997"/>
    <nd ref="60459763"/>
    <nd ref="634914827"/>
    <nd ref="634914828"/>
    <nd ref="634914829"/>
    <nd ref="60459761"/>
    <nd ref="634914830"/>
    <nd ref="634914831"/>
    <nd ref="60459751"/>
    <nd ref="634914832"/>
    <nd ref="634914833"/>
    <nd ref="60459750"/>
    <nd ref="634914834"/>
    <nd ref="634914835"/>
    <nd ref="60459748"/>
    <nd ref="634914836"/>
    <nd ref="634914837"/>
    <nd ref="634914838"/>
    <nd ref="634914839"/>
    <nd ref="60459746"/>
    <nd ref="60459744"/>
    <nd ref="634914840"/>
    <nd ref="635793878"/>
    <nd ref="60459742"/>
    <nd ref="634914841"/>
    <nd ref="634914842"/>
    <nd ref="634914843"/>
    <nd ref="634914844"/>
    <nd ref="60459741"/>
    <nd ref="634914845"/>
    <nd ref="634914846"/>
    <nd ref="60459739"/>
    <nd ref="634914847"/>
    <nd ref="634914848"/>
    <nd ref="634914849"/>
    <nd ref="60459737"/>
    <nd ref="634914850"/>
    <nd ref="634914851"/>
    <nd ref="60459735"/>
    <nd ref="634914852"/>
    <nd ref="60459733"/>
    <nd ref="66397258"/>
    <nd ref="60459732"/>
    <nd ref="509902770"/>
    <nd ref="635793879"/>
    <nd ref="635793880"/>
    <nd ref="635793881"/>
    <nd ref="635793882"/>
    <nd ref="60459730"/>
    <nd ref="628583021"/>
    <nd ref="635795414"/>
    <nd ref="628583022"/>
    <nd ref="36393449"/>
    <nd ref="635795415"/>
    <nd ref="635795416"/>
    <nd ref="635795417"/>
    <nd ref="60459723"/>
    <nd ref="635795418"/>
    <nd ref="635795419"/>
    <nd ref="628583023"/>
    <nd ref="635795420"/>
    <nd ref="60459722"/>
    <nd ref="635795421"/>
    <nd ref="628583024"/>
    <nd ref="635795422"/>
    <nd ref="60459720"/>
    <nd ref="635795423"/>
    <nd ref="635795424"/>
    <nd ref="60459718"/>
    <nd ref="635795425"/>
    <nd ref="628583025"/>
    <nd ref="635795426"/>
    <nd ref="60459716"/>
    <nd ref="628583026"/>
    <nd ref="60459715"/>
    <tag k="highway" v="trunk"/>
    <tag k="lanes" v="2"/>
    <tag k="maxspeed" v="70"/>
    <tag k="name" v="Great Western Highway"/>
    <tag k="oneway" v="yes"/>
    <tag k="ref" v="NR32"/>
  </way>
  <way id="22498645" version="21" timestamp="2010-07-06T09:32:19Z" uid="299678" user="peteramjet" changeset="5148742">
    <nd ref="241555800"/>
    <nd ref="638915997"/>
    <nd ref="60459763"/>
    <nd ref="634914827"/>
    <nd ref="634914828"/>
    <nd ref="634914829"/>
    <nd ref="60459761"/>
    <nd ref="634914830"/>
    <nd ref="634914831"/>
    <nd ref="60459751"/>
    <nd ref="634914832"/>
    <nd ref="634914833"/>
    <nd ref="60459750"/>
    <nd ref="634914834"/>
    <nd ref="634914835"/>
    <nd ref="60459748"/>
    <nd ref="634914836"/>
    <nd ref="634914837"/>
    <nd ref="634914838"/>
    <nd ref="634914839"/>
    <nd ref="60459746"/>
    <nd ref="60459744"/>
    <nd ref="634914840"/>
    <nd ref="635793878"/>
    <nd ref="60459742"/>
    <nd ref="634914841"/>
    <nd ref="634914842"/>
    <nd ref="634914843"/>
    <nd ref="634914844"/>
    <nd ref="60459741"/>
    <nd ref="634914845"/>
    <nd ref="634914846"/>
    <nd ref="60459739"/>
    <nd ref="634914847"/>
    <nd ref="634914848"/>
    <nd ref="634914849"/>
    <nd ref="60459737"/>
    <nd ref="634914850"/>
    <nd ref="634914851"/>
    <nd ref="60459735"/>
    <nd ref="634914852"/>
    <nd ref="60459733"/>
    <nd ref="66397258"/>
    <nd ref="60459732"/>
    <nd ref="509902770"/>
    <nd ref="635793879"/>
    <nd ref="635793880"/>
    <nd ref="635793881"/>
    <nd ref="635793882"/>
    <nd ref="60459730"/>
    <nd ref="628583021"/>
    <nd ref="635795414"/>
    <nd ref="628583022"/>
    <nd ref="36393449"/>
    <nd ref="635795415"/>
    <nd ref="635795416"/>
    <nd ref="635795417"/>
    <nd ref="60459723"/>
    <nd ref="635795418"/>
    <nd ref="635795419"/>
    <nd ref="628583023"/>
    <nd ref="635795420"/>
    <nd ref="60459722"/>
    <nd ref="635795421"/>
    <nd ref="628583024"/>
    <nd ref="635795422"/>
    <nd ref="60459720"/>
    <nd ref="635795423"/>
    <nd ref="635795424"/>
    <nd ref="60459718"/>
    <nd ref="635795425"/>
    <nd ref="628583025"/>
    <nd ref="635795426"/>
    <nd ref="60459716"/>
    <nd ref="628583026"/>
    <nd ref="60459715"/>
    <tag k="highway" v="trunk"/>
    <tag k="lanes" v="2"/>
    <tag k="maxspeed" v="70"/>
    <tag k="name" v="Great Western Highway"/>
    <tag k="oneway" v="yes"/>
  </way>
  <way id="22498728" version="4" timestamp="2009-02-23T13:19:27Z" uid="34428" user="usm78-gis" changeset="634299"/>
  <way id="22498730" version="2" timestamp="2008-06-09T00:59:04Z" uid="34428" user="usm78-gis" changeset="113273">
    <nd ref="241572838"/>
    <nd ref="241573015"/>
    <nd ref="241573016"/>
    <nd ref="224892300"/>
    <tag k="created_by" v="Potlatch 0.9c"/>
    <tag k="highway" v="unclassified"/>
  </way>
  <way id="22498730" version="3" timestamp="2008-10-16T17:17:00Z" uid="52583" user="Bedouin" changeset="381319">
    <nd ref="241572838"/>
    <nd ref="241573015"/>
    <nd ref="241573016"/>
    <nd ref="305009121"/>
    <nd ref="224892300"/>
    <tag k="highway" v="unclassified"/>
  </way>
  <way id="22498730" version="4" timestamp="2009-02-23T13:28:14Z" uid="34428" user="usm78-gis" changeset="634299"/>
  <way id="22498733" version="3" timestamp="2009-02-23T12:22:17Z" uid="34428" user="usm78-gis" changeset="634299"/>
  <way id="22498737" version="2" timestamp="2009-02-23T13:00:04Z" uid="34428" user="usm78-gis" changeset="634299"/>
  <way id="22498738" version="2" timestamp="2009-02-23T11:57:36Z" uid="34428" user="usm78-gis" changeset="634299"/>
  <way id="22498739" version="3" timestamp="2009-02-23T12:42:24Z" uid="34428" user="usm78-gis" changeset="634299"/>
  <way id="22498791" version="3" timestamp="2008-05-20T15:09:26Z" uid="34428" user="usm78-gis" changeset="485514">
    <nd ref="241582649"/>
    <nd ref="252913844"/>
    <nd ref="252913858"/>
    <nd ref="97558470"/>
    <tag k="created_by" v="Potlatch 0.6c"/>
    <tag k="highway" v="residential"/>
    <tag k="name" v=" ."/>
  </way>
  <way id="22498791" version="4" timestamp="2009-02-23T12:41:10Z" uid="34428" user="usm78-gis" changeset="634299"/>
  <way id="22498803" version="3" timestamp="2008-06-01T00:03:35Z" uid="34428" user="usm78-gis" changeset="8158">
    <nd ref="187592989"/>
    <nd ref="194430727"/>
    <nd ref="18476915"/>
    <nd ref="27024564"/>
    <nd ref="194432515"/>
    <nd ref="18476924"/>
    <nd ref="194417599"/>
    <nd ref="194418022"/>
    <nd ref="16820408"/>
    <nd ref="16820412"/>
    <tag k="created_by" v="Potlatch 0.6c"/>
    <tag k="highway" v="secondary"/>
  </way>
  <way id="22498803" version="4" timestamp="2008-06-01T21:37:14Z" uid="34428" user="usm78-gis" changeset="13262">
    <nd ref="187592989"/>
    <nd ref="194430727"/>
    <nd ref="18476915"/>
    <nd ref="27024564"/>
    <nd ref="194432515"/>
    <nd ref="18476924"/>
    <nd ref="194417599"/>
    <nd ref="194418022"/>
    <nd ref="16820408"/>
    <nd ref="16820412"/>
    <tag k="created_by" v="Potlatch 0.6c"/>
    <tag k="highway" v="secondary"/>
  </way>
  <way id="22498803" version="5" timestamp="2009-02-23T12:51:29Z" uid="34428" user="usm78-gis" changeset="634299"/>
  <way id="22498189" version="8" timestamp="2012-07-20T05:24:51Z" uid="722137" user="OSMF Redaction Account" changeset="12361889">
    <nd ref="241522309"/>
    <nd ref="241528620"/>
    <nd ref="241528622"/>
    <nd ref="241528624"/>
    <nd ref="241523313"/>
    <tag k="highway" v="residential"/>
  </way>
  <way id="22498375" version="9" timestamp="2012-07-20T05:24:43Z" uid="722137" user="OSMF Redaction Account" changeset="12361889">
    <nd ref="241530251"/>
    <nd ref="1634465488"/>
    <tag k="highway" v="residential"/>
    <tag k="name" v="Knight Street"/>
  </way>
  <way id="22498375" version="10" timestamp="2012-08-01T17:12:09Z" uid="19492" user="rw__" changeset="12576806">
    <nd ref="1847119093"/>
    <nd ref="241530251"/>
    <nd ref="1634465488"/>
    <tag k="highway" v="residential"/>
    <tag k="name" v="Knight Street"/>
  </way>
  <way id="22498467" version="5" timestamp="2012-07-24T00:34:32Z" uid="7523" user="inas" changeset="12459003">
    <nd ref="241535794"/>
    <nd ref="241535796"/>
    <nd ref="241535797"/>
    <nd ref="241535798"/>
    <nd ref="241535799"/>
    <nd ref="241535800"/>
    <nd ref="241535801"/>
    <nd ref="241535802"/>
    <nd ref="241535803"/>
    <nd ref="1635594749"/>
    <nd ref="241535804"/>
    <nd ref="241535805"/>
    <nd ref="241535806"/>
    <nd ref="1836018984"/>
    <nd ref="241535807"/>
    <nd ref="241535808"/>
    <nd ref="241535809"/>
    <nd ref="241535794"/>
    <tag k="layer" v="-1"/>
    <tag k="leisure" v="park"/>
  </way>
  <way id="22498551" version="9" timestamp="2012-07-20T05:24:39Z" uid="722137" user="OSMF Redaction Account" changeset="12361889">
    <nd ref="241541216"/>
    <nd ref="241541269"/>
    <nd ref="241543535"/>
    <nd ref="241541270"/>
    <tag k="highway" v="residential"/>
  </way>
  <way id="22498551" version="10" timestamp="2012-07-28T23:58:33Z" uid="2585" user="rw_" changeset="12529597">
    <nd ref="1842082428"/>
    <nd ref="1842082427"/>
    <nd ref="1842082426"/>
    <nd ref="241541269"/>
    <nd ref="241543535"/>
    <nd ref="241541270"/>
    <tag k="highway" v="residential"/>
  </way>
  <way id="22498551" version="11" timestamp="2012-07-31T12:28:33Z" uid="504708" user="HillWithSmallFields" changeset="12560603">
    <nd ref="1842082428"/>
    <nd ref="1842082427"/>
    <nd ref="1842082426"/>
    <nd ref="241541269"/>
    <nd ref="241543535"/>
    <nd ref="1845268949"/>
    <nd ref="241541270"/>
    <tag k="highway" v="residential"/>
  </way>
  <way id="22498552" version="10" timestamp="2012-07-20T05:25:09Z" uid="722137" user="OSMF Redaction Account" changeset="12361889">
    <nd ref="241541270"/>
    <nd ref="241541838"/>
    <tag k="highway" v="residential"/>
    <tag k="name" v="Park Road"/>
  </way>
  <way id="22498553" version="4" timestamp="2012-07-20T05:25:11Z" uid="722137" user="OSMF Redaction Account" changeset="12361889">
    <nd ref="241541274"/>
    <nd ref="241541277"/>
    <nd ref="241541275"/>
    <tag k="highway" v="unclassified"/>
  </way>
  <way id="22498556" version="3" timestamp="2012-07-20T05:25:12Z" uid="722137" user="OSMF Redaction Account" changeset="12361889">
    <nd ref="241541275"/>
    <nd ref="241541276"/>
    <tag k="highway" v="unclassified"/>
  </way>
  <way id="22498556" version="4" timestamp="2012-07-28T23:58:31Z" uid="2585" user="rw_" changeset="12529597">
    <nd ref="241541275"/>
    <nd ref="241541276"/>
    <nd ref="1842082408"/>
    <tag k="highway" v="unclassified"/>
  </way>
  <way id="22498556" version="5" timestamp="2012-07-31T12:28:33Z" uid="504708" user="HillWithSmallFields" changeset="12560603">
    <nd ref="241541275"/>
    <nd ref="241541276"/>
    <nd ref="1842082408"/>
    <nd ref="1845268920"/>
    <tag k="highway" v="residential"/>
  </way>
  <way id="22498556" version="6" timestamp="2012-07-31T12:34:01Z" uid="504708" user="HillWithSmallFields" changeset="12560603">
    <nd ref="241541275"/>
    <nd ref="1845276714"/>
    <nd ref="241541276"/>
    <nd ref="1842082408"/>
    <nd ref="1845268920"/>
    <tag k="highway" v="residential"/>
  </way>
  <way id="22498557" version="3" timestamp="2012-07-20T05:25:11Z" uid="722137" user="OSMF Redaction Account" changeset="12361889">
    <nd ref="241541277"/>
    <nd ref="241541278"/>
    <tag k="highway" v="unclassified"/>
  </way>
  <way id="22498557" version="4" timestamp="2012-07-28T23:58:31Z" uid="2585" user="rw_" changeset="12529597">
    <nd ref="241541277"/>
    <nd ref="241541278"/>
    <nd ref="1842082415"/>
    <tag k="highway" v="unclassified"/>
  </way>
  <way id="22498559" version="6" timestamp="2012-07-20T05:30:26Z" uid="722137" user="OSMF Redaction Account" changeset="12362098"/>
  <way id="22498560" version="6" timestamp="2012-07-20T05:30:26Z" uid="722137" user="OSMF Redaction Account" changeset="12362098"/>
  <way id="22498561" version="7" timestamp="2012-07-20T05:25:09Z" uid="722137" user="OSMF Redaction Account" changeset="12361889">
    <nd ref="241541838"/>
    <nd ref="1423411310"/>
    <nd ref="1423411313"/>
    <nd ref="1423411314"/>
    <tag k="highway" v="residential"/>
    <tag k="name" v="Hillcrest Road"/>
  </way>
  <way id="22498561" version="8" timestamp="2012-07-28T23:58:25Z" uid="2585" user="rw_" changeset="12529597">
    <nd ref="241541838"/>
    <nd ref="1423411310"/>
    <nd ref="1423411313"/>
    <nd ref="1423411314"/>
    <nd ref="1842082421"/>
    <nd ref="1842082422"/>
    <tag k="highway" v="residential"/>
    <tag k="name" v="Hillcrest Road"/>
  </way>
  <way id="22498564" version="5" timestamp="2012-07-20T10:23:56Z" uid="47167" user="MCH" changeset="12371109">
    <nd ref="1831914438"/>
    <nd ref="241542368"/>
    <nd ref="1831914410"/>
    <nd ref="1634511310"/>
    <tag k="highway" v="residential"/>
    <tag k="name" v="Smallwood Avenue"/>
  </way>
  <way id="22498569" version="4" timestamp="2012-05-23T04:56:00Z" uid="7523" user="inas" changeset="11677589">
    <nd ref="241543535"/>
    <nd ref="241543653"/>
    <nd ref="82446362"/>
    <tag k="highway" v="unclassified"/>
    <tag k="name" v="Powell Street"/>
  </way>
  <way id="22498569" version="5" timestamp="2012-06-30T16:15:29Z" uid="99476" user="spod" changeset="12067426">
    <nd ref="241543535"/>
    <nd ref="241543653"/>
    <nd ref="1807651046"/>
    <tag k="highway" v="unclassified"/>
    <tag k="name" v="Powell Street"/>
  </way>
  <way id="22498572" version="12" timestamp="2012-05-23T04:37:34Z" uid="7523" user="inas" changeset="11677571">
    <nd ref="241544196"/>
    <nd ref="241544197"/>
    <tag k="bridge" v="yes"/>
    <tag k="highway" v="motorway"/>
    <tag k="lanes" v="2"/>
    <tag k="layer" v="1"/>
    <tag k="maxspeed" v="90"/>
    <tag k="name" v="M4 Western Motorway"/>
    <tag k="oneway" v="yes"/>
  </way>
  <way id="22498572" version="13" timestamp="2012-06-06T23:17:24Z" uid="20949" user="Ebenezer" changeset="11820613">
    <nd ref="241544196"/>
    <nd ref="1778577592"/>
    <tag k="bridge" v="yes"/>
    <tag k="highway" v="motorway"/>
    <tag k="lanes" v="2"/>
    <tag k="layer" v="1"/>
    <tag k="maxspeed" v="90"/>
    <tag k="name" v="M4 Western Motorway"/>
    <tag k="oneway" v="yes"/>
  </way>
  <way id="22498572" version="14" timestamp="2012-06-06T23:20:09Z" uid="20949" user="Ebenezer" changeset="11820824">
    <nd ref="241544196"/>
    <nd ref="1778577592"/>
    <tag k="bridge" v="yes"/>
    <tag k="highway" v="motorway"/>
    <tag k="lanes" v="2"/>
    <tag k="layer" v="1"/>
    <tag k="maxspeed" v="90"/>
    <tag k="name" v="M4 Western Motorway"/>
    <tag k="oneway" v="yes"/>
    <tag k="ref" v="4"/>
  </way>
  <way id="22498573" version="11" timestamp="2012-05-23T04:37:33Z" uid="7523" user="inas" changeset="11677571">
    <nd ref="241544197"/>
    <nd ref="31428463"/>
    <nd ref="31428464"/>
    <nd ref="31428465"/>
    <nd ref="26399869"/>
    <nd ref="26399864"/>
    <nd ref="26399870"/>
    <nd ref="36611323"/>
    <nd ref="26399871"/>
    <nd ref="26399872"/>
    <nd ref="26399862"/>
    <nd ref="26399863"/>
    <nd ref="36611324"/>
    <nd ref="816679869"/>
    <nd ref="26399843"/>
    <tag k="highway" v="motorway"/>
    <tag k="lanes" v="2"/>
    <tag k="maxspeed" v="90"/>
    <tag k="name" v="M4 Western Motorway"/>
    <tag k="network" v="MR"/>
    <tag k="oneway" v="yes"/>
    <tag k="ref" v="4"/>
  </way>
  <way id="22498573" version="12" timestamp="2012-05-23T04:56:00Z" uid="7523" user="inas" changeset="11677589">
    <nd ref="241544197"/>
    <nd ref="31428463"/>
    <nd ref="31428464"/>
    <nd ref="31428465"/>
    <nd ref="26399869"/>
    <nd ref="26399864"/>
    <nd ref="26399870"/>
    <nd ref="36611323"/>
    <nd ref="26399871"/>
    <nd ref="26399872"/>
    <nd ref="26399862"/>
    <nd ref="26399863"/>
    <nd ref="36611324"/>
    <nd ref="26399843"/>
    <tag k="highway" v="motorway"/>
    <tag k="lanes" v="2"/>
    <tag k="maxspeed" v="90"/>
    <tag k="name" v="M4 Western Motorway"/>
    <tag k="network" v="MR"/>
    <tag k="oneway" v="yes"/>
    <tag k="ref" v="4"/>
  </way>
  <way id="22498573" version="13" timestamp="2012-06-06T23:17:24Z" uid="20949" user="Ebenezer" changeset="11820613">
    <nd ref="1778577592"/>
    <nd ref="31428463"/>
    <nd ref="31428464"/>
    <nd ref="31428465"/>
    <nd ref="26399869"/>
    <nd ref="26399864"/>
    <nd ref="1778577589"/>
    <nd ref="26399870"/>
    <nd ref="36611323"/>
    <nd ref="26399871"/>
    <nd ref="26399862"/>
    <nd ref="26399863"/>
    <nd ref="1778577591"/>
    <nd ref="1778577598"/>
    <nd ref="1778577593"/>
    <tag k="highway" v="motorway"/>
    <tag k="lanes" v="2"/>
    <tag k="maxspeed" v="90"/>
    <tag k="name" v="M4 Western Motorway"/>
    <tag k="network" v="MR"/>
    <tag k="oneway" v="yes"/>
    <tag k="ref" v="4"/>
  </way>
  <way id="22498573" version="14" timestamp="2012-07-21T00:38:49Z" uid="47167" user="MCH" changeset="12396995">
    <nd ref="1778577592"/>
    <nd ref="31428463"/>
    <nd ref="31428464"/>
    <nd ref="31428465"/>
    <nd ref="26399869"/>
    <nd ref="26399864"/>
    <nd ref="1778577589"/>
    <nd ref="26399870"/>
    <nd ref="36611323"/>
    <nd ref="26399871"/>
    <nd ref="1832673032"/>
    <nd ref="26399862"/>
    <nd ref="26399863"/>
    <nd ref="1832673030"/>
    <nd ref="1778577591"/>
    <nd ref="1778577598"/>
    <nd ref="1778577593"/>
    <tag k="highway" v="motorway"/>
    <tag k="lanes" v="2"/>
    <tag k="maxspeed" v="90"/>
    <tag k="name" v="M4 Western Motorway"/>
    <tag k="network" v="MR"/>
    <tag k="oneway" v="yes"/>
    <tag k="ref" v="4"/>
  </way>
  <way id="22498573" version="15" timestamp="2012-07-26T11:54:23Z" uid="705018" user="woftam" changeset="12496531">
    <nd ref="1778577592"/>
    <nd ref="31428463"/>
    <nd ref="31428464"/>
    <nd ref="31428465"/>
    <nd ref="26399869"/>
    <nd ref="26399864"/>
    <nd ref="1838670590"/>
    <nd ref="1778577589"/>
    <nd ref="26399870"/>
    <nd ref="36611323"/>
    <nd ref="26399871"/>
    <nd ref="1832673032"/>
    <nd ref="26399862"/>
    <nd ref="26399863"/>
    <nd ref="1832673030"/>
    <nd ref="1778577591"/>
    <nd ref="1778577598"/>
    <nd ref="1778577593"/>
    <tag k="highway" v="motorway"/>
    <tag k="lanes" v="2"/>
    <tag k="maxspeed" v="90"/>
    <tag k="name" v="M4 Western Motorway"/>
    <tag k="network" v="MR"/>
    <tag k="oneway" v="yes"/>
    <tag k="ref" v="4"/>
  </way>
  <way id="22498574" version="12" timestamp="2012-06-06T23:17:24Z" uid="20949" user="Ebenezer" changeset="11820613">
    <nd ref="1778577600"/>
    <nd ref="1778577616"/>
    <tag k="bridge" v="yes"/>
    <tag k="highway" v="motorway"/>
    <tag k="lanes" v="2"/>
    <tag k="layer" v="1"/>
    <tag k="maxspeed" v="90"/>
    <tag k="name" v="M4 Western Motorway"/>
    <tag k="oneway" v="yes"/>
    <tag k="ref" v="M5"/>
  </way>
  <way id="22498574" version="13" timestamp="2012-06-06T23:20:10Z" uid="20949" user="Ebenezer" changeset="11820824">
    <nd ref="1778577600"/>
    <nd ref="1778577616"/>
    <tag k="bridge" v="yes"/>
    <tag k="highway" v="motorway"/>
    <tag k="lanes" v="2"/>
    <tag k="layer" v="1"/>
    <tag k="maxspeed" v="90"/>
    <tag k="name" v="M4 Western Motorway"/>
    <tag k="oneway" v="yes"/>
    <tag k="ref" v="4"/>
  </way>
  <way id="22498575" version="10" timestamp="2012-06-06T23:10:56Z" uid="20949" user="Ebenezer" changeset="11820613">
    <nd ref="241544303"/>
    <nd ref="36611445"/>
    <nd ref="1778571481"/>
    <tag k="highway" v="motorway"/>
    <tag k="lanes" v="2"/>
    <tag k="maxspeed" v="90"/>
    <tag k="name" v="M4 Western Motorway"/>
    <tag k="oneway" v="yes"/>
    <tag k="ref" v="M4"/>
  </way>
  <way id="22498575" version="11" timestamp="2012-06-06T23:17:24Z" uid="20949" user="Ebenezer" changeset="11820613">
    <nd ref="1778577616"/>
    <nd ref="1778577608"/>
    <nd ref="1778571481"/>
    <tag k="highway" v="motorway"/>
    <tag k="lanes" v="2"/>
    <tag k="maxspeed" v="90"/>
    <tag k="name" v="M4 Western Motorway"/>
    <tag k="oneway" v="yes"/>
    <tag k="ref" v="M4"/>
  </way>
  <way id="22498575" version="12" timestamp="2012-06-06T23:20:10Z" uid="20949" user="Ebenezer" changeset="11820824">
    <nd ref="1778577616"/>
    <nd ref="1778577608"/>
    <nd ref="1778571481"/>
    <tag k="highway" v="motorway"/>
    <tag k="lanes" v="2"/>
    <tag k="maxspeed" v="90"/>
    <tag k="name" v="M4 Western Motorway"/>
    <tag k="oneway" v="yes"/>
    <tag k="ref" v="4"/>
  </way>
  <way id="22498581" version="12" timestamp="2012-06-06T23:04:20Z" uid="20949" user="Ebenezer" changeset="11820613"/>
  <way id="22498583" version="11" timestamp="2012-06-06T22:59:56Z" uid="20949" user="Ebenezer" changeset="11820613">
    <nd ref="26769172"/>
    <nd ref="26769173"/>
    <nd ref="26769174"/>
    <nd ref="26769175"/>
    <nd ref="1330770700"/>
    <nd ref="26769176"/>
    <nd ref="1330770619"/>
    <nd ref="26769177"/>
    <nd ref="605335966"/>
    <nd ref="26769178"/>
    <nd ref="26769179"/>
    <nd ref="26769180"/>
    <nd ref="1778566726"/>
    <nd ref="1778566727"/>
    <tag k="highway" v="motorway"/>
    <tag k="lanes" v="3"/>
    <tag k="maxspeed" v="60"/>
    <tag k="name" v="M4 Western Motorway"/>
    <tag k="oneway" v="yes"/>
    <tag k="ref" v="M4"/>
  </way>
  <way id="22498583" version="12" timestamp="2012-06-06T23:10:57Z" uid="20949" user="Ebenezer" changeset="11820613"/>
  <way id="22498587" version="15" timestamp="2012-05-20T06:55:27Z" uid="156866" user="bertboy" changeset="11648518">
    <nd ref="26399843"/>
    <nd ref="26399858"/>
    <nd ref="1759360515"/>
    <nd ref="1759360509"/>
    <nd ref="1759360518"/>
    <nd ref="1759360504"/>
    <nd ref="1759360503"/>
    <nd ref="1336345838"/>
    <tag k="highway" v="motorway"/>
    <tag k="lanes" v="3"/>
    <tag k="maxspeed" v="90"/>
    <tag k="name" v="M4 Western Motorway"/>
    <tag k="oneway" v="yes"/>
    <tag k="ref" v="M4"/>
  </way>
  <way id="22498587" version="16" timestamp="2012-05-23T04:37:39Z" uid="7523" user="inas" changeset="11677571">
    <nd ref="26399843"/>
    <nd ref="26399858"/>
    <nd ref="1759360515"/>
    <nd ref="1759360509"/>
    <nd ref="1759360518"/>
    <nd ref="1759360504"/>
    <nd ref="1759360503"/>
    <nd ref="1336345838"/>
    <tag k="highway" v="motorway"/>
    <tag k="lanes" v="3"/>
    <tag k="maxspeed" v="90"/>
    <tag k="name" v="M4 Western Motorway"/>
    <tag k="network" v="MR"/>
    <tag k="oneway" v="yes"/>
    <tag k="ref" v="4"/>
  </way>
  <way id="22498587" version="17" timestamp="2012-06-06T23:17:25Z" uid="20949" user="Ebenezer" changeset="11820613">
    <nd ref="1778577593"/>
    <nd ref="26399858"/>
    <nd ref="1759360515"/>
    <nd ref="1759360509"/>
    <nd ref="1759360518"/>
    <nd ref="1759360504"/>
    <nd ref="1759360503"/>
    <nd ref="1336345838"/>
    <tag k="highway" v="motorway"/>
    <tag k="lanes" v="3"/>
    <tag k="maxspeed" v="90"/>
    <tag k="name" v="M4 Western Motorway"/>
    <tag k="network" v="MR"/>
    <tag k="oneway" v="yes"/>
    <tag k="ref" v="4"/>
  </way>
  <way id="22498587" version="18" timestamp="2012-07-21T01:04:55Z" uid="47167" user="MCH" changeset="12396995">
    <nd ref="1778577593"/>
    <nd ref="1832682851"/>
    <nd ref="1832682889"/>
    <tag k="highway" v="motorway"/>
    <tag k="lanes" v="3"/>
    <tag k="maxspeed" v="90"/>
    <tag k="name" v="M4 Western Motorway"/>
    <tag k="network" v="MR"/>
    <tag k="oneway" v="yes"/>
    <tag k="ref" v="4"/>
  </way>
  <way id="22498588" version="12" timestamp="2012-05-20T06:55:27Z" uid="156866" user="bertboy" changeset="11648518">
    <nd ref="268906230"/>
    <nd ref="1759360514"/>
    <nd ref="1759360501"/>
    <nd ref="1759360508"/>
    <nd ref="1759360506"/>
    <nd ref="1759360520"/>
    <nd ref="1759360516"/>
    <nd ref="1759360507"/>
    <nd ref="1759360513"/>
    <nd ref="1759360519"/>
    <nd ref="1759360500"/>
    <nd ref="1759360505"/>
    <nd ref="1759360510"/>
    <nd ref="1759360502"/>
    <nd ref="1759360511"/>
    <nd ref="25630035"/>
    <nd ref="25630036"/>
    <nd ref="33093690"/>
    <nd ref="26769170"/>
    <nd ref="241544154"/>
    <tag k="highway" v="motorway"/>
    <tag k="lanes" v="2"/>
    <tag k="maxspeed" v="90"/>
    <tag k="name" v="M4 Western Motorway"/>
    <tag k="oneway" v="yes"/>
    <tag k="ref" v="M4"/>
  </way>
  <way id="22498588" version="13" timestamp="2012-06-06T23:17:25Z" uid="20949" user="Ebenezer" changeset="11820613">
    <nd ref="268906230"/>
    <nd ref="1759360514"/>
    <nd ref="1759360501"/>
    <nd ref="1759360508"/>
    <nd ref="1759360506"/>
    <nd ref="1759360520"/>
    <nd ref="1759360516"/>
    <nd ref="1759360507"/>
    <nd ref="1759360513"/>
    <nd ref="1759360519"/>
    <nd ref="1759360500"/>
    <nd ref="1759360505"/>
    <nd ref="1759360510"/>
    <nd ref="1759360502"/>
    <nd ref="1759360511"/>
    <nd ref="1778577594"/>
    <nd ref="1778577610"/>
    <nd ref="1778577597"/>
    <nd ref="1778577596"/>
    <nd ref="1778577606"/>
    <nd ref="1778577600"/>
    <tag k="highway" v="motorway"/>
    <tag k="lanes" v="2"/>
    <tag k="maxspeed" v="90"/>
    <tag k="name" v="M4 Western Motorway"/>
    <tag k="oneway" v="yes"/>
    <tag k="ref" v="M4"/>
  </way>
  <way id="22498588" version="14" timestamp="2012-06-06T23:20:10Z" uid="20949" user="Ebenezer" changeset="11820824">
    <nd ref="268906230"/>
    <nd ref="1759360514"/>
    <nd ref="1759360501"/>
    <nd ref="1759360508"/>
    <nd ref="1759360506"/>
    <nd ref="1759360520"/>
    <nd ref="1759360516"/>
    <nd ref="1759360507"/>
    <nd ref="1759360513"/>
    <nd ref="1759360519"/>
    <nd ref="1759360500"/>
    <nd ref="1759360505"/>
    <nd ref="1759360510"/>
    <nd ref="1759360502"/>
    <nd ref="1759360511"/>
    <nd ref="1778577594"/>
    <nd ref="1778577610"/>
    <nd ref="1778577597"/>
    <nd ref="1778577596"/>
    <nd ref="1778577606"/>
    <nd ref="1778577600"/>
    <tag k="highway" v="motorway"/>
    <tag k="lanes" v="2"/>
    <tag k="maxspeed" v="90"/>
    <tag k="name" v="M4 Western Motorway"/>
    <tag k="oneway" v="yes"/>
    <tag k="ref" v="4"/>
  </way>
  <way id="22498588" version="15" timestamp="2012-07-21T00:30:40Z" uid="47167" user="MCH" changeset="12396995">
    <nd ref="268906230"/>
    <nd ref="1759360514"/>
    <nd ref="1759360501"/>
    <nd ref="1759360508"/>
    <nd ref="1759360506"/>
    <nd ref="1759360520"/>
    <nd ref="1759360516"/>
    <nd ref="1759360507"/>
    <nd ref="1759360513"/>
    <nd ref="1759360519"/>
    <nd ref="1759360500"/>
    <nd ref="1759360505"/>
    <nd ref="1759360510"/>
    <nd ref="1759360502"/>
    <nd ref="1759360511"/>
    <nd ref="1778577594"/>
    <nd ref="1778577610"/>
    <nd ref="1778577597"/>
    <nd ref="1778577596"/>
    <nd ref="1832669481"/>
    <nd ref="1778577606"/>
    <nd ref="1778577600"/>
    <tag k="highway" v="motorway"/>
    <tag k="lanes" v="2"/>
    <tag k="maxspeed" v="90"/>
    <tag k="name" v="M4 Western Motorway"/>
    <tag k="oneway" v="yes"/>
    <tag k="ref" v="4"/>
  </way>
  <way id="22498588" version="16" timestamp="2012-07-21T00:43:49Z" uid="47167" user="MCH" changeset="12396995">
    <nd ref="268906230"/>
    <nd ref="1759360514"/>
    <nd ref="1759360501"/>
    <nd ref="1759360508"/>
    <nd ref="1759360506"/>
    <nd ref="1759360520"/>
    <nd ref="1759360516"/>
    <nd ref="1759360507"/>
    <nd ref="1832674155"/>
    <nd ref="1759360513"/>
    <nd ref="1759360519"/>
    <nd ref="1759360500"/>
    <nd ref="1759360505"/>
    <nd ref="1759360510"/>
    <nd ref="1759360502"/>
    <nd ref="1759360511"/>
    <nd ref="1778577594"/>
    <nd ref="1778577610"/>
    <nd ref="1778577597"/>
    <nd ref="1778577596"/>
    <nd ref="1832669481"/>
    <nd ref="1778577606"/>
    <nd ref="1778577600"/>
    <tag k="highway" v="motorway"/>
    <tag k="lanes" v="2"/>
    <tag k="maxspeed" v="90"/>
    <tag k="name" v="M4 Western Motorway"/>
    <tag k="oneway" v="yes"/>
    <tag k="ref" v="4"/>
  </way>
  <way id="22498588" version="17" timestamp="2012-07-21T01:04:55Z" uid="47167" user="MCH" changeset="12396995">
    <nd ref="268906230"/>
    <nd ref="1759360514"/>
    <nd ref="1759360501"/>
    <nd ref="1832682953"/>
    <tag k="highway" v="motorway"/>
    <tag k="lanes" v="2"/>
    <tag k="maxspeed" v="90"/>
    <tag k="name" v="M4 Western Motorway"/>
    <tag k="oneway" v="yes"/>
    <tag k="ref" v="4"/>
  </way>
  <way id="22498591" version="13" timestamp="2012-05-23T04:37:35Z" uid="7523" user="inas" changeset="11677571">
    <nd ref="26399123"/>
    <nd ref="31428468"/>
    <tag k="bicycle" v="no"/>
    <tag k="highway" v="motorway"/>
    <tag k="lanes" v="4"/>
    <tag k="maxspeed" v="90"/>
    <tag k="name" v="M4 Western Motorway"/>
    <tag k="network" v="MR"/>
    <tag k="oneway" v="yes"/>
    <tag k="ref" v="4"/>
  </way>
  <way id="22498591" version="14" timestamp="2012-07-21T01:04:55Z" uid="47167" user="MCH" changeset="12396995">
    <nd ref="1832682894"/>
    <nd ref="31428468"/>
    <tag k="bicycle" v="no"/>
    <tag k="highway" v="motorway"/>
    <tag k="lanes" v="4"/>
    <tag k="maxspeed" v="90"/>
    <tag k="name" v="M4 Western Motorway"/>
    <tag k="network" v="MR"/>
    <tag k="oneway" v="yes"/>
    <tag k="ref" v="4"/>
  </way>
  <way id="22498611" version="15" timestamp="2012-05-23T01:31:18Z" uid="7523" user="inas" changeset="11677202">
    <nd ref="26398885"/>
    <nd ref="26398882"/>
    <tag k="bicycle" v="no"/>
    <tag k="highway" v="motorway"/>
    <tag k="lanes" v="3"/>
    <tag k="maxspeed" v="90"/>
    <tag k="name" v="M4 Western Motorway"/>
    <tag k="oneway" v="yes"/>
  </way>
  <way id="22498611" version="16" timestamp="2012-05-23T04:37:34Z" uid="7523" user="inas" changeset="11677571">
    <nd ref="26398885"/>
    <nd ref="26398882"/>
    <tag k="bicycle" v="no"/>
    <tag k="highway" v="motorway"/>
    <tag k="lanes" v="3"/>
    <tag k="maxspeed" v="90"/>
    <tag k="name" v="M4 Western Motorway"/>
    <tag k="network" v="MR"/>
    <tag k="oneway" v="yes"/>
    <tag k="ref" v="4"/>
  </way>
  <way id="22498611" version="17" timestamp="2012-07-21T01:04:56Z" uid="47167" user="MCH" changeset="12396995">
    <nd ref="26398885"/>
    <nd ref="1832682959"/>
    <tag k="bicycle" v="no"/>
    <tag k="highway" v="motorway"/>
    <tag k="lanes" v="3"/>
    <tag k="maxspeed" v="90"/>
    <tag k="name" v="M4 Western Motorway"/>
    <tag k="network" v="MR"/>
    <tag k="oneway" v="yes"/>
    <tag k="ref" v="4"/>
  </way>
  <way id="22498613" version="14" timestamp="2012-05-23T04:12:01Z" uid="7523" user="inas" changeset="11677516">
    <nd ref="21703141"/>
    <nd ref="36811013"/>
    <nd ref="21703142"/>
    <nd ref="21703143"/>
    <tag k="bicycle" v="no"/>
    <tag k="bridge" v="yes"/>
    <tag k="highway" v="motorway"/>
    <tag k="lanes" v="2"/>
    <tag k="layer" v="2"/>
    <tag k="maxspeed" v="signals"/>
    <tag k="name" v="M4 Western Motorway"/>
    <tag k="network" v="MR"/>
    <tag k="oneway" v="yes"/>
    <tag k="ref" v="4"/>
  </way>
  <way id="22498613" version="15" timestamp="2012-07-21T01:27:19Z" uid="47167" user="MCH" changeset="12396995">
    <nd ref="1832692633"/>
    <nd ref="36811013"/>
    <nd ref="21703142"/>
    <nd ref="21703143"/>
    <tag k="bicycle" v="no"/>
    <tag k="bridge" v="yes"/>
    <tag k="highway" v="motorway"/>
    <tag k="lanes" v="2"/>
    <tag k="layer" v="2"/>
    <tag k="maxspeed" v="signals"/>
    <tag k="name" v="M4 Western Motorway"/>
    <tag k="network" v="MR"/>
    <tag k="oneway" v="yes"/>
    <tag k="ref" v="4"/>
  </way>
  <way id="22498618" version="12" timestamp="2012-05-22T12:34:28Z" uid="47167" user="MCH" changeset="11671126">
    <nd ref="26398307"/>
    <nd ref="26398308"/>
    <nd ref="137029353"/>
    <nd ref="26398309"/>
    <nd ref="1762124128"/>
    <nd ref="1762124111"/>
    <nd ref="26398310"/>
    <nd ref="1762124120"/>
    <nd ref="26398311"/>
    <nd ref="26398195"/>
    <nd ref="55735663"/>
    <nd ref="1762124135"/>
    <nd ref="1762124083"/>
    <nd ref="26397947"/>
    <tag k="bicycle" v="yes"/>
    <tag k="cycleway" v="lane"/>
    <tag k="highway" v="motorway"/>
    <tag k="lanes" v="4"/>
    <tag k="maxspeed" v="90"/>
    <tag k="name" v="M4 Western Motorway"/>
    <tag k="oneway" v="yes"/>
    <tag k="ref" v="M4"/>
  </way>
  <way id="22498618" version="13" timestamp="2012-05-23T04:37:32Z" uid="7523" user="inas" changeset="11677571">
    <nd ref="26398307"/>
    <nd ref="26398308"/>
    <nd ref="137029353"/>
    <nd ref="26398309"/>
    <nd ref="1762124128"/>
    <nd ref="1762124111"/>
    <nd ref="26398310"/>
    <nd ref="1762124120"/>
    <nd ref="26398311"/>
    <nd ref="26398195"/>
    <nd ref="55735663"/>
    <nd ref="1762124135"/>
    <nd ref="1762124083"/>
    <nd ref="26397947"/>
    <tag k="bicycle" v="yes"/>
    <tag k="cycleway" v="lane"/>
    <tag k="highway" v="motorway"/>
    <tag k="lanes" v="4"/>
    <tag k="maxspeed" v="90"/>
    <tag k="name" v="M4 Western Motorway"/>
    <tag k="network" v="MR"/>
    <tag k="oneway" v="yes"/>
    <tag k="ref" v="4"/>
  </way>
  <way id="22498618" version="14" timestamp="2012-07-22T07:58:28Z" uid="47167" user="MCH" changeset="12427505">
    <nd ref="26398307"/>
    <nd ref="26398308"/>
    <nd ref="137029353"/>
    <nd ref="26398309"/>
    <nd ref="1762124128"/>
    <nd ref="1762124111"/>
    <nd ref="26398310"/>
    <nd ref="1762124120"/>
    <nd ref="26398311"/>
    <nd ref="26398195"/>
    <nd ref="1833874250"/>
    <nd ref="55735663"/>
    <nd ref="1762124135"/>
    <nd ref="1833874259"/>
    <tag k="bicycle" v="yes"/>
    <tag k="cycleway" v="lane"/>
    <tag k="highway" v="motorway"/>
    <tag k="lanes" v="4"/>
    <tag k="maxspeed" v="90"/>
    <tag k="name" v="M4 Western Motorway"/>
    <tag k="network" v="MR"/>
    <tag k="oneway" v="yes"/>
    <tag k="ref" v="4"/>
  </way>
  <way id="22498624" version="15" timestamp="2012-05-23T04:37:32Z" uid="7523" user="inas" changeset="11677571">
    <nd ref="241550351"/>
    <nd ref="26397950"/>
    <nd ref="26397951"/>
    <nd ref="26397952"/>
    <nd ref="26397924"/>
    <nd ref="36420704"/>
    <nd ref="36420705"/>
    <nd ref="36420706"/>
    <nd ref="585771595"/>
    <nd ref="36420707"/>
    <nd ref="679655935"/>
    <tag k="bicycle" v="yes"/>
    <tag k="cycleway" v="lane"/>
    <tag k="highway" v="motorway"/>
    <tag k="lanes" v="3"/>
    <tag k="maxspeed" v="90"/>
    <tag k="name" v="M4 Western Motorway"/>
    <tag k="network" v="MR"/>
    <tag k="oneway" v="yes"/>
    <tag k="ref" v="4"/>
  </way>
  <way id="22498624" version="16" timestamp="2012-07-22T01:16:27Z" uid="722137" user="OSMF Redaction Account" changeset="12423762">
    <nd ref="241550351"/>
    <nd ref="26397950"/>
    <nd ref="26397951"/>
    <nd ref="26397952"/>
    <nd ref="36420705"/>
    <nd ref="36420706"/>
    <nd ref="36420707"/>
    <tag k="bicycle" v="yes"/>
    <tag k="cycleway" v="lane"/>
    <tag k="highway" v="motorway"/>
    <tag k="lanes" v="3"/>
    <tag k="maxspeed" v="90"/>
    <tag k="name" v="M4 Western Motorway"/>
    <tag k="network" v="MR"/>
    <tag k="oneway" v="yes"/>
    <tag k="ref" v="4"/>
  </way>
  <way id="22498624" version="17" timestamp="2012-07-22T07:58:32Z" uid="47167" user="MCH" changeset="12427505"/>
  <way id="22498626" version="10" timestamp="2012-05-23T04:12:02Z" uid="7523" user="inas" changeset="11677516">
    <nd ref="600028258"/>
    <nd ref="36420422"/>
    <nd ref="36420423"/>
    <nd ref="145863763"/>
    <nd ref="679655930"/>
    <nd ref="36420552"/>
    <nd ref="36420553"/>
    <nd ref="679655932"/>
    <nd ref="36715884"/>
    <tag k="bicycle" v="yes"/>
    <tag k="cycleway" v="lane"/>
    <tag k="highway" v="motorway"/>
    <tag k="lanes" v="3"/>
    <tag k="maxspeed" v="90"/>
    <tag k="name" v="M4 Western Motorway"/>
    <tag k="network" v="MR"/>
    <tag k="oneway" v="yes"/>
    <tag k="ref" v="4"/>
  </way>
  <way id="22498626" version="11" timestamp="2012-07-22T01:16:25Z" uid="722137" user="OSMF Redaction Account" changeset="12423762">
    <nd ref="600028258"/>
    <nd ref="36420422"/>
    <nd ref="36420423"/>
    <nd ref="145863763"/>
    <nd ref="36420552"/>
    <nd ref="36420553"/>
    <nd ref="36715884"/>
    <tag k="bicycle" v="yes"/>
    <tag k="cycleway" v="lane"/>
    <tag k="highway" v="motorway"/>
    <tag k="lanes" v="3"/>
    <tag k="maxspeed" v="90"/>
    <tag k="name" v="M4 Western Motorway"/>
    <tag k="network" v="MR"/>
    <tag k="oneway" v="yes"/>
    <tag k="ref" v="4"/>
  </way>
  <way id="22498626" version="12" timestamp="2012-07-22T08:12:08Z" uid="47167" user="MCH" changeset="12427505">
    <nd ref="600028258"/>
    <nd ref="36420422"/>
    <nd ref="36420423"/>
    <nd ref="1833885842"/>
    <nd ref="36420552"/>
    <nd ref="36420553"/>
    <nd ref="1833885858"/>
    <nd ref="1833885915"/>
    <tag k="bicycle" v="yes"/>
    <tag k="cycleway" v="lane"/>
    <tag k="highway" v="motorway"/>
    <tag k="lanes" v="3"/>
    <tag k="maxspeed" v="90"/>
    <tag k="name" v="M4 Western Motorway"/>
    <tag k="network" v="MR"/>
    <tag k="oneway" v="yes"/>
    <tag k="ref" v="4"/>
  </way>
  <way id="22498626" version="13" timestamp="2012-07-22T09:25:22Z" uid="47167" user="MCH" changeset="12428778"/>
  <way id="22498639" version="11" timestamp="2012-07-22T08:34:55Z" uid="722137" user="OSMF Redaction Account" changeset="12427980">
    <nd ref="33122078"/>
    <nd ref="31674281"/>
    <nd ref="31674282"/>
    <nd ref="31674283"/>
    <nd ref="31674284"/>
    <nd ref="611547219"/>
    <nd ref="31674285"/>
    <nd ref="31674286"/>
    <nd ref="34632380"/>
    <nd ref="31659663"/>
    <tag k="highway" v="motorway"/>
    <tag k="lanes" v="3"/>
    <tag k="maxspeed" v="110"/>
    <tag k="name" v="M4 Western Motorway"/>
    <tag k="oneway" v="yes"/>
    <tag k="ref" v="M4"/>
  </way>
  <way id="22498639" version="12" timestamp="2012-07-22T08:56:27Z" uid="722137" user="OSMF Redaction Account" changeset="12428269">
    <nd ref="33122078"/>
    <nd ref="34632380"/>
    <nd ref="31659663"/>
    <tag k="highway" v="motorway"/>
    <tag k="lanes" v="3"/>
    <tag k="maxspeed" v="110"/>
    <tag k="name" v="M4 Western Motorway"/>
    <tag k="oneway" v="yes"/>
    <tag k="ref" v="M4"/>
  </way>
  <way id="22498639" version="13" timestamp="2012-07-22T12:41:45Z" uid="92387" user="SimonPoole" changeset="12432184">
    <nd ref="33122078"/>
    <nd ref="1834120549"/>
    <nd ref="1834120550"/>
    <nd ref="1834120552"/>
    <nd ref="1834120554"/>
    <nd ref="1834120556"/>
    <nd ref="1834120557"/>
    <nd ref="1834120559"/>
    <nd ref="1834120561"/>
    <nd ref="1834120563"/>
    <nd ref="1834120565"/>
    <nd ref="1834120567"/>
    <nd ref="1834120569"/>
    <nd ref="1834120583"/>
    <nd ref="1834120596"/>
    <nd ref="1834120602"/>
    <nd ref="34632380"/>
    <nd ref="1834120624"/>
    <nd ref="31659663"/>
    <nd ref="1834120636"/>
    <nd ref="1834120637"/>
    <nd ref="1834120634"/>
    <nd ref="1834120632"/>
    <nd ref="1834120629"/>
    <nd ref="1834120625"/>
    <nd ref="1834120621"/>
    <nd ref="1834120618"/>
    <nd ref="1834120613"/>
    <nd ref="1834120611"/>
    <nd ref="1834120604"/>
    <nd ref="1834120598"/>
    <nd ref="1834120590"/>
    <nd ref="1834120587"/>
    <nd ref="1834120579"/>
    <nd ref="1834120573"/>
    <nd ref="31659681"/>
    <nd ref="1834120570"/>
    <nd ref="1834120571"/>
    <nd ref="1834120572"/>
    <nd ref="1834120574"/>
    <nd ref="1834120584"/>
    <nd ref="1834120592"/>
    <nd ref="30732637"/>
    <nd ref="1834120600"/>
    <nd ref="1834120607"/>
    <nd ref="36416648"/>
    <nd ref="1834120615"/>
    <nd ref="1834120626"/>
    <nd ref="1834120644"/>
    <nd ref="1834120647"/>
    <nd ref="1834120648"/>
    <nd ref="1834120651"/>
    <nd ref="1834120654"/>
    <nd ref="1834120655"/>
    <nd ref="30456515"/>
    <tag k="highway" v="motorway"/>
    <tag k="lanes" v="3"/>
    <tag k="maxspeed" v="110"/>
    <tag k="name" v="M4 Western Motorway"/>
    <tag k="oneway" v="yes"/>
    <tag k="ref" v="M4"/>
  </way>
  <way id="22498639" version="14" timestamp="2012-07-23T00:14:15Z" uid="47167" user="MCH" changeset="12442438">
    <nd ref="33122078"/>
    <nd ref="1834120549"/>
    <nd ref="1834120550"/>
    <nd ref="1834120552"/>
    <nd ref="1834120554"/>
    <nd ref="1834120556"/>
    <nd ref="1834120557"/>
    <nd ref="1834120559"/>
    <nd ref="1834120561"/>
    <nd ref="1834120563"/>
    <nd ref="1834120565"/>
    <nd ref="1834120567"/>
    <nd ref="1834120569"/>
    <nd ref="1834120583"/>
    <nd ref="1834120596"/>
    <nd ref="1834120602"/>
    <nd ref="34632380"/>
    <nd ref="1834833922"/>
    <nd ref="1834120624"/>
    <nd ref="1834833921"/>
    <nd ref="1834833964"/>
    <nd ref="31659663"/>
    <nd ref="1834120636"/>
    <nd ref="1834120637"/>
    <nd ref="1834120634"/>
    <nd ref="1834120632"/>
    <nd ref="1834120629"/>
    <nd ref="1834120625"/>
    <nd ref="1834120621"/>
    <nd ref="1834120618"/>
    <nd ref="1834120613"/>
    <nd ref="1834120611"/>
    <nd ref="1834120604"/>
    <nd ref="1834120598"/>
    <nd ref="1834120590"/>
    <nd ref="1834120587"/>
    <nd ref="1834120579"/>
    <nd ref="1834120573"/>
    <nd ref="31659681"/>
    <nd ref="1834120570"/>
    <nd ref="1834120571"/>
    <nd ref="1834120572"/>
    <nd ref="1834120574"/>
    <nd ref="1834120584"/>
    <nd ref="1834120592"/>
    <nd ref="30732637"/>
    <nd ref="1834120600"/>
    <nd ref="1834120607"/>
    <nd ref="36416648"/>
    <nd ref="1834120615"/>
    <nd ref="1834120626"/>
    <nd ref="1834120644"/>
    <nd ref="1834120647"/>
    <nd ref="1834120648"/>
    <nd ref="1834120651"/>
    <nd ref="1834120654"/>
    <nd ref="1834120655"/>
    <nd ref="30456515"/>
    <tag k="highway" v="motorway"/>
    <tag k="lanes" v="3"/>
    <tag k="maxspeed" v="110"/>
    <tag k="name" v="M4 Western Motorway"/>
    <tag k="oneway" v="yes"/>
    <tag k="ref" v="M4"/>
  </way>
  <way id="22498645" version="22" timestamp="2012-07-22T08:57:43Z" uid="722137" user="OSMF Redaction Account" changeset="12428269">
    <nd ref="241555800"/>
    <nd ref="638915997"/>
    <nd ref="60459763"/>
    <nd ref="634914827"/>
    <nd ref="634914828"/>
    <nd ref="634914829"/>
    <nd ref="60459761"/>
    <nd ref="634914830"/>
    <nd ref="634914831"/>
    <nd ref="60459751"/>
    <nd ref="634914832"/>
    <nd ref="634914833"/>
    <nd ref="60459750"/>
    <nd ref="634914834"/>
    <nd ref="634914835"/>
    <nd ref="60459748"/>
    <nd ref="634914836"/>
    <nd ref="634914837"/>
    <nd ref="634914838"/>
    <nd ref="634914839"/>
    <nd ref="60459746"/>
    <nd ref="60459744"/>
    <nd ref="634914840"/>
    <nd ref="635793878"/>
    <nd ref="60459742"/>
    <nd ref="634914841"/>
    <nd ref="634914842"/>
    <nd ref="634914843"/>
    <nd ref="634914844"/>
    <nd ref="60459741"/>
    <nd ref="634914845"/>
    <nd ref="634914846"/>
    <nd ref="60459739"/>
    <nd ref="634914847"/>
    <nd ref="634914848"/>
    <nd ref="634914849"/>
    <nd ref="60459737"/>
    <nd ref="634914850"/>
    <nd ref="634914851"/>
    <nd ref="60459735"/>
    <nd ref="634914852"/>
    <nd ref="60459733"/>
    <nd ref="66397258"/>
    <nd ref="60459732"/>
    <nd ref="509902770"/>
    <nd ref="635793879"/>
    <nd ref="635793880"/>
    <nd ref="635793881"/>
    <nd ref="635793882"/>
    <nd ref="60459730"/>
    <nd ref="628583021"/>
    <nd ref="635795414"/>
    <nd ref="628583022"/>
    <nd ref="36393449"/>
    <nd ref="635795415"/>
    <nd ref="635795416"/>
    <nd ref="635795417"/>
    <nd ref="60459723"/>
    <nd ref="635795418"/>
    <nd ref="635795419"/>
    <nd ref="628583023"/>
    <nd ref="635795420"/>
    <nd ref="60459722"/>
    <nd ref="635795421"/>
    <nd ref="628583024"/>
    <nd ref="635795422"/>
    <nd ref="60459720"/>
    <nd ref="635795423"/>
    <nd ref="635795424"/>
    <nd ref="60459718"/>
    <nd ref="635795425"/>
    <nd ref="628583025"/>
    <nd ref="635795426"/>
    <nd ref="60459716"/>
    <nd ref="628583026"/>
    <nd ref="60459715"/>
    <tag k="highway" v="trunk"/>
    <tag k="lanes" v="2"/>
    <tag k="maxspeed" v="70"/>
    <tag k="name" v="Great Western Highway"/>
    <tag k="oneway" v="true"/>
  </way>
  <way id="22498645" version="23" timestamp="2012-07-26T14:09:02Z" uid="67896" user="mrpulley" changeset="12499660">
    <nd ref="241555800"/>
    <nd ref="638915997"/>
    <nd ref="60459763"/>
    <nd ref="634914827"/>
    <nd ref="634914828"/>
    <nd ref="634914829"/>
    <nd ref="60459761"/>
    <nd ref="634914830"/>
    <nd ref="634914831"/>
    <nd ref="60459751"/>
    <nd ref="634914832"/>
    <nd ref="634914833"/>
    <nd ref="60459750"/>
    <nd ref="634914834"/>
    <nd ref="634914835"/>
    <nd ref="60459748"/>
    <nd ref="634914836"/>
    <nd ref="634914837"/>
    <nd ref="634914838"/>
    <nd ref="634914839"/>
    <nd ref="60459746"/>
    <nd ref="60459744"/>
    <nd ref="634914840"/>
    <nd ref="635793878"/>
    <nd ref="60459742"/>
    <nd ref="634914841"/>
    <nd ref="634914842"/>
    <nd ref="634914843"/>
    <nd ref="634914844"/>
    <nd ref="60459741"/>
    <nd ref="634914845"/>
    <nd ref="634914846"/>
    <nd ref="60459739"/>
    <nd ref="634914847"/>
    <nd ref="634914848"/>
    <nd ref="634914849"/>
    <nd ref="60459737"/>
    <nd ref="634914850"/>
    <nd ref="634914851"/>
    <nd ref="60459735"/>
    <nd ref="634914852"/>
    <nd ref="60459733"/>
    <nd ref="66397258"/>
    <nd ref="60459732"/>
    <nd ref="509902770"/>
    <nd ref="635793879"/>
    <nd ref="635793880"/>
    <nd ref="635793881"/>
    <nd ref="635793882"/>
    <nd ref="60459730"/>
    <nd ref="628583021"/>
    <nd ref="635795414"/>
    <nd ref="628583022"/>
    <nd ref="36393449"/>
    <nd ref="635795415"/>
    <nd ref="635795416"/>
    <nd ref="635795417"/>
    <nd ref="60459723"/>
    <nd ref="635795418"/>
    <nd ref="635795419"/>
    <nd ref="628583023"/>
    <nd ref="635795420"/>
    <nd ref="60459722"/>
    <nd ref="635795421"/>
    <nd ref="628583024"/>
    <nd ref="635795422"/>
    <nd ref="60459720"/>
    <nd ref="635795423"/>
    <nd ref="635795424"/>
    <nd ref="60459718"/>
    <nd ref="635795425"/>
    <nd ref="628583025"/>
    <nd ref="635795426"/>
    <nd ref="60459716"/>
    <nd ref="628583026"/>
    <nd ref="60459715"/>
    <tag k="highway" v="trunk"/>
    <tag k="lanes" v="2"/>
    <tag k="maxspeed" v="70"/>
    <tag k="name" v="Great Western Highway"/>
    <tag k="network" v="NR"/>
    <tag k="oneway" v="true"/>
    <tag k="ref" v="32"/>
  </way>
</osm>
