<?xml version='1.0' encoding='UTF-8'?>
<osm version="0.6" generator="libosmium/2.20.0">
  <way id="22496033" version="2" timestamp="2010-07-09T17:27:52Z" uid="74617" user="JohnSmith" changeset="5175333">
    <nd ref="241517242"/>
    <nd ref="241517243"/>
    <nd ref="241517244"/>
    <tag k="highway" v="residential"/>
    <tag k="maxspeed" v="50"/>
    <tag k="maxspeed:source" v="default residential speed limit in Australia"/>
    <tag k="name" v="Esteven Way"/>
  </way>
  <way id="22496033" version="3" timestamp="2012-01-15T22:13:09Z" uid="147510" user="woodpeck_fixbot" changeset="10402983">
    <nd ref="241517242"/>
    <nd ref="241517243"/>
    <nd ref="241517244"/>
    <tag k="highway" v="residential"/>
    <tag k="name" v="Esteven Way"/>
  </way>
  <way id="22496035" version="2" timestamp="2010-07-09T17:23:25Z" uid="74617" user="JohnSmith" changeset="5175333">
    <nd ref="241516699"/>
    <nd ref="241517244"/>
    <nd ref="241517247"/>
    <nd ref="241517242"/>
    <tag k="highway" v="residential"/>
    <tag k="maxspeed" v="50"/>
    <tag k="maxspeed:source" v="default residential speed limit in Australia"/>
    <tag k="name" v="Esteven Way"/>
  </way>
  <way id="22496035" version="3" timestamp="2012-01-15T22:13:11Z" uid="147510" user="woodpeck_fixbot" changeset="10402983">
    <nd ref="241516699"/>
    <nd ref="241517244"/>
    <nd ref="241517247"/>
    <nd ref="241517242"/>
    <tag k="highway" v="residential"/>
    <tag k="name" v="Esteven Way"/>
  </way>
  <way id="22496071" version="4" timestamp="2008-05-25T06:01:11Z" uid="30201" user="rrankin" changeset="514784">
    <nd ref="241202219"/>
    <nd ref="241517455"/>
    <nd ref="241500938"/>
    <nd ref="241501012"/>
    <nd ref="241515486"/>
    <nd ref="241517906"/>
    <tag k="created_by" v="Potlatch 0.6c"/>
    <tag k="highway" v="residential"/>
    <tag k="lcn" v="yes"/>
    <tag k="name" v="Mackenzie Street"/>
  </way>
  <way id="22496071" version="5" timestamp="2008-05-28T00:51:43Z" uid="30201" user="rrankin" changeset="537299">
    <nd ref="241202219"/>
    <nd ref="241517455"/>
    <nd ref="267190588"/>
    <nd ref="241500938"/>
    <nd ref="241501012"/>
    <nd ref="241515486"/>
    <nd ref="241517906"/>
    <tag k="created_by" v="Potlatch 0.6c"/>
    <tag k="highway" v="residential"/>
    <tag k="lcn" v="yes"/>
    <tag k="name" v="Mackenzie Street"/>
  </way>
  <way id="22496071" version="6" timestamp="2010-01-05T12:47:26Z" uid="30201" user="rrankin" changeset="3544973"/>
  <way id="22496262" version="3" timestamp="2008-05-25T06:01:08Z" uid="30201" user="rrankin" changeset="514784">
    <nd ref="241517906"/>
    <nd ref="241501871"/>
    <nd ref="241502149"/>
    <nd ref="241502580"/>
    <tag k="created_by" v="Potlatch 0.6c"/>
    <tag k="highway" v="residential"/>
    <tag k="lcn" v="yes"/>
    <tag k="name" v="Bridge Road"/>
  </way>
  <way id="22496262" version="4" timestamp="2010-02-15T13:38:44Z" uid="7617" user="Franc" changeset="3883208">
    <nd ref="241517906"/>
    <nd ref="639650609"/>
    <nd ref="639650618"/>
    <tag k="highway" v="residential"/>
    <tag k="lcn" v="yes"/>
    <tag k="name" v="Bridge Road"/>
  </way>
  <way id="22496262" version="5" timestamp="2010-07-08T02:41:18Z" uid="74617" user="JohnSmith" changeset="5163091">
    <nd ref="241517906"/>
    <nd ref="639650609"/>
    <nd ref="639650618"/>
    <tag k="highway" v="residential"/>
    <tag k="lcn" v="yes"/>
    <tag k="maxspeed" v="50"/>
    <tag k="maxspeed:source" v="default residential speed limit in Australia"/>
    <tag k="name" v="Bridge Road"/>
  </way>
  <way id="22496262" version="6" timestamp="2012-01-15T22:13:11Z" uid="147510" user="woodpeck_fixbot" changeset="10402983">
    <nd ref="241517906"/>
    <nd ref="639650609"/>
    <nd ref="639650618"/>
    <tag k="highway" v="residential"/>
    <tag k="lcn" v="yes"/>
    <tag k="name" v="Bridge Road"/>
  </way>
  <way id="22496345" version="3" timestamp="2008-05-25T06:38:51Z" uid="30201" user="rrankin" changeset="514784">
    <nd ref="241502580"/>
    <nd ref="241518890"/>
    <nd ref="241518888"/>
    <tag k="created_by" v="Potlatch 0.6c"/>
    <tag k="highway" v="tertiary"/>
    <tag k="name" v="Bridge Road"/>
    <tag k="rcn" v="yes"/>
    <tag k="rcn_ref" v="Cook River Cycleway"/>
  </way>
  <way id="22496345" version="4" timestamp="2008-06-12T21:21:41Z" uid="30201" user="rrankin" changeset="143798">
    <nd ref="241502580"/>
    <nd ref="241518890"/>
    <nd ref="241518888"/>
    <tag k="created_by" v="Potlatch 0.6c"/>
    <tag k="highway" v="tertiary"/>
    <tag k="layer" v="1"/>
    <tag k="name" v="Bridge Road"/>
    <tag k="rcn" v="yes"/>
    <tag k="rcn_ref" v="Cook River Cycleway"/>
  </way>
  <way id="22496345" version="5" timestamp="2010-01-05T12:47:18Z" uid="30201" user="rrankin" changeset="3544973">
    <nd ref="241502580"/>
    <nd ref="241518890"/>
    <tag k="highway" v="tertiary"/>
    <tag k="layer" v="1"/>
    <tag k="name" v="Bridge Road"/>
    <tag k="rcn" v="yes"/>
    <tag k="rcn_ref" v="Cook River Cycleway"/>
  </way>
  <way id="22496358" version="3" timestamp="2008-05-25T06:39:05Z" uid="30201" user="rrankin" changeset="514784">
    <nd ref="241518888"/>
    <nd ref="241530001"/>
    <nd ref="241518825"/>
    <nd ref="241518827"/>
    <tag k="created_by" v="Potlatch 0.6c"/>
    <tag k="highway" v="tertiary"/>
    <tag k="name" v="Bridge Road"/>
    <tag k="rcn" v="yes"/>
    <tag k="rcn_ref" v="Cook River Cycleway"/>
  </way>
  <way id="22496358" version="4" timestamp="2010-11-13T09:41:49Z" uid="7617" user="Franc" changeset="6356736">
    <nd ref="241518888"/>
    <nd ref="241530001"/>
    <nd ref="987448460"/>
    <nd ref="241518825"/>
    <nd ref="241518827"/>
    <tag k="highway" v="tertiary"/>
    <tag k="name" v="Bridge Road"/>
    <tag k="rcn" v="yes"/>
    <tag k="rcn_ref" v="Cook River Cycleway"/>
  </way>
  <way id="22496358" version="5" timestamp="2011-09-06T05:42:02Z" uid="7523" user="inas" changeset="9224224">
    <nd ref="241518888"/>
    <nd ref="241530001"/>
    <nd ref="987448460"/>
    <nd ref="241518825"/>
    <tag k="highway" v="tertiary"/>
    <tag k="name" v="Bridge Road"/>
    <tag k="rcn" v="yes"/>
    <tag k="rcn_ref" v="Cook River Cycleway"/>
  </way>
  <way id="22496358" version="6" timestamp="2012-02-15T20:08:00Z" uid="7523" user="inas" changeset="10695906">
    <nd ref="241518888"/>
    <nd ref="241530001"/>
    <nd ref="241518825"/>
    <tag k="highway" v="tertiary"/>
    <tag k="name" v="Bridge Road"/>
    <tag k="rcn" v="yes"/>
    <tag k="rcn_ref" v="Cook River Cycleway"/>
  </way>
  <way id="22496358" version="7" timestamp="2012-02-15T20:50:48Z" uid="7523" user="inas" changeset="10696321">
    <nd ref="241518888"/>
    <nd ref="1634511309"/>
    <nd ref="241518825"/>
    <tag k="highway" v="tertiary"/>
    <tag k="name" v="Bridge Road"/>
    <tag k="rcn" v="yes"/>
    <tag k="rcn_ref" v="Cook River Cycleway"/>
  </way>
  <way id="22496363" version="3" timestamp="2008-04-06T11:34:04Z" uid="30201" user="rrankin" changeset="64490"/>
  <way id="22496585" version="2" timestamp="2010-07-08T02:34:50Z" uid="74617" user="JohnSmith" changeset="5163091">
    <nd ref="241519544"/>
    <nd ref="241519995"/>
    <nd ref="241501870"/>
    <nd ref="241519996"/>
    <nd ref="241519997"/>
    <tag k="highway" v="residential"/>
    <tag k="maxspeed" v="50"/>
    <tag k="maxspeed:source" v="default residential speed limit in Australia"/>
    <tag k="name" v="Meredith Street"/>
  </way>
  <way id="22496585" version="3" timestamp="2012-01-15T22:13:16Z" uid="147510" user="woodpeck_fixbot" changeset="10402983">
    <nd ref="241519544"/>
    <nd ref="241519995"/>
    <nd ref="241501870"/>
    <nd ref="241519996"/>
    <nd ref="241519997"/>
    <tag k="highway" v="residential"/>
    <tag k="name" v="Meredith Street"/>
  </way>
  <way id="22496623" version="2" timestamp="2008-05-28T01:46:31Z" uid="30201" user="rrankin" changeset="537299">
    <nd ref="241520194"/>
    <nd ref="241520195"/>
    <tag k="created_by" v="Potlatch 0.6c"/>
    <tag k="highway" v="residential"/>
    <tag k="name" v="Mirrabooka Avenue"/>
  </way>
  <way id="22496623" version="3" timestamp="2010-07-08T02:40:19Z" uid="74617" user="JohnSmith" changeset="5163091">
    <nd ref="241520194"/>
    <nd ref="241520195"/>
    <tag k="highway" v="residential"/>
    <tag k="maxspeed" v="50"/>
    <tag k="maxspeed:source" v="default residential speed limit in Australia"/>
    <tag k="name" v="Mirrabooka Avenue"/>
  </way>
  <way id="22496623" version="4" timestamp="2012-01-15T22:13:17Z" uid="147510" user="woodpeck_fixbot" changeset="10402983">
    <nd ref="241520194"/>
    <nd ref="241520195"/>
    <tag k="highway" v="residential"/>
    <tag k="name" v="Mirrabooka Avenue"/>
  </way>
  <way id="22496686" version="2" timestamp="2010-07-08T02:34:40Z" uid="74617" user="JohnSmith" changeset="5163091">
    <nd ref="241520317"/>
    <nd ref="241520517"/>
    <tag k="highway" v="residential"/>
    <tag k="maxspeed" v="50"/>
    <tag k="maxspeed:source" v="default residential speed limit in Australia"/>
    <tag k="name" v="Melrose Street"/>
  </way>
  <way id="22496686" version="3" timestamp="2012-01-15T22:13:18Z" uid="147510" user="woodpeck_fixbot" changeset="10402983">
    <nd ref="241520317"/>
    <nd ref="241520517"/>
    <tag k="highway" v="residential"/>
    <tag k="name" v="Melrose Street"/>
  </way>
  <way id="22496812" version="2" timestamp="2008-05-25T06:01:10Z" uid="30201" user="rrankin" changeset="514784">
    <nd ref="241520873"/>
    <nd ref="241521166"/>
    <tag k="created_by" v="Potlatch 0.6c"/>
    <tag k="highway" v="residential"/>
    <tag k="lcn" v="yes"/>
    <tag k="name" v="Heyde Avenue"/>
  </way>
  <way id="22496812" version="3" timestamp="2010-07-08T02:40:53Z" uid="74617" user="JohnSmith" changeset="5163091">
    <nd ref="241520873"/>
    <nd ref="241521166"/>
    <tag k="highway" v="residential"/>
    <tag k="lcn" v="yes"/>
    <tag k="maxspeed" v="50"/>
    <tag k="maxspeed:source" v="default residential speed limit in Australia"/>
    <tag k="name" v="Heyde Avenue"/>
  </way>
  <way id="22496812" version="4" timestamp="2012-01-15T22:13:18Z" uid="147510" user="woodpeck_fixbot" changeset="10402983">
    <nd ref="241520873"/>
    <nd ref="241521166"/>
    <tag k="highway" v="residential"/>
    <tag k="lcn" v="yes"/>
    <tag k="name" v="Heyde Avenue"/>
  </way>
  <way id="22496899" version="2" timestamp="2010-02-15T13:38:43Z" uid="7617" user="Franc" changeset="3883208">
    <nd ref="241516087"/>
    <nd ref="639650561"/>
    <nd ref="639650562"/>
    <tag k="highway" v="residential"/>
    <tag k="name" v="Merley Street"/>
    <tag k="restriction" v="school_zone"/>
  </way>
  <way id="22496899" version="3" timestamp="2010-07-08T02:32:42Z" uid="74617" user="JohnSmith" changeset="5163091">
    <nd ref="241516087"/>
    <nd ref="639650561"/>
    <nd ref="639650562"/>
    <tag k="highway" v="residential"/>
    <tag k="maxspeed" v="50"/>
    <tag k="maxspeed:source" v="default residential speed limit in Australia"/>
    <tag k="name" v="Merley Street"/>
    <tag k="restriction" v="school_zone"/>
  </way>
  <way id="22496899" version="4" timestamp="2012-01-15T22:13:19Z" uid="147510" user="woodpeck_fixbot" changeset="10402983">
    <nd ref="241516087"/>
    <nd ref="639650561"/>
    <nd ref="639650562"/>
    <tag k="highway" v="residential"/>
    <tag k="name" v="Merley Street"/>
    <tag k="restriction" v="school_zone"/>
  </way>
  <way id="22496975" version="2" timestamp="2010-02-15T13:38:53Z" uid="7617" user="Franc" changeset="3883208"/>
  <way id="22496977" version="17" timestamp="2009-09-30T15:46:08Z" uid="36809" user="pfoten_weg_!_" changeset="2689684">
    <nd ref="241521979"/>
    <nd ref="51165616"/>
    <nd ref="333240318"/>
    <nd ref="51165611"/>
    <nd ref="312748693"/>
    <nd ref="51165606"/>
    <nd ref="51165538"/>
    <tag k="highway" v="tertiary"/>
    <tag k="name" v="Murstraße"/>
  </way>
  <way id="22496977" version="18" timestamp="2012-01-17T00:28:43Z" uid="45481" user="borisC" changeset="10413823"/>
  <way id="22496979" version="6" timestamp="2009-09-30T15:46:09Z" uid="36809" user="pfoten_weg_!_" changeset="2689684">
    <nd ref="241521979"/>
    <nd ref="241522023"/>
    <nd ref="241522027"/>
    <nd ref="241522030"/>
    <nd ref="241522041"/>
    <tag k="highway" v="residential"/>
    <tag k="name" v="Schulstraße"/>
  </way>
  <way id="22496979" version="7" timestamp="2012-01-17T00:28:44Z" uid="45481" user="borisC" changeset="10413823"/>
  <way id="22496262" version="7" timestamp="2012-07-01T20:42:45Z" uid="713671" user="auspod" changeset="12080827">
    <nd ref="1809309835"/>
    <nd ref="1809309829"/>
    <nd ref="639650618"/>
    <tag k="highway" v="residential"/>
    <tag k="lcn" v="yes"/>
    <tag k="name" v="Bridge Road"/>
  </way>
  <way id="22496262" version="8" timestamp="2012-07-20T05:25:01Z" uid="722137" user="OSMF Redaction Account" changeset="12361889">
    <nd ref="1809309835"/>
    <nd ref="1809309829"/>
    <tag k="highway" v="residential"/>
    <tag k="name" v="Bridge Road"/>
  </way>
  <way id="22496262" version="9" timestamp="2012-08-15T23:44:49Z" uid="152074" user="beweta" changeset="12745525">
    <nd ref="1809309770"/>
    <nd ref="1809309838"/>
    <nd ref="1809309780"/>
    <nd ref="1809309769"/>
    <nd ref="1809309835"/>
    <nd ref="1809309829"/>
    <nd ref="1809309832"/>
    <nd ref="1809309886"/>
    <nd ref="1809309759"/>
    <tag k="highway" v="tertiary"/>
    <tag k="name" v="Bridge Road"/>
  </way>
  <way id="22496345" version="6" timestamp="2012-07-01T20:42:46Z" uid="713671" user="auspod" changeset="12080827">
    <nd ref="1809309759"/>
    <nd ref="1809309878"/>
    <tag k="highway" v="tertiary"/>
    <tag k="layer" v="1"/>
    <tag k="name" v="Bridge Road"/>
    <tag k="rcn" v="yes"/>
    <tag k="rcn_ref" v="Cook River Cycleway"/>
  </way>
  <way id="22496345" version="7" timestamp="2012-07-20T05:25:04Z" uid="722137" user="OSMF Redaction Account" changeset="12361889">
    <nd ref="1809309759"/>
    <nd ref="1809309878"/>
    <tag k="highway" v="tertiary"/>
    <tag k="name" v="Bridge Road"/>
  </way>
  <way id="22496358" version="8" timestamp="2012-07-01T20:42:46Z" uid="713671" user="auspod" changeset="12080827">
    <nd ref="1809309880"/>
    <nd ref="1634511309"/>
    <nd ref="241518825"/>
    <tag k="highway" v="tertiary"/>
    <tag k="name" v="Bridge Road"/>
    <tag k="rcn" v="yes"/>
    <tag k="rcn_ref" v="Cook River Cycleway"/>
  </way>
  <way id="22496358" version="9" timestamp="2012-07-20T05:25:06Z" uid="722137" user="OSMF Redaction Account" changeset="12361889">
    <nd ref="1809309880"/>
    <nd ref="1634511309"/>
    <nd ref="241518825"/>
    <tag k="highway" v="tertiary"/>
    <tag k="name" v="Bridge Road"/>
  </way>
  <way id="22496585" version="4" timestamp="2012-07-01T20:42:50Z" uid="713671" user="auspod" changeset="12080827">
    <nd ref="241519544"/>
    <nd ref="241519995"/>
    <nd ref="241501870"/>
    <nd ref="1809309896"/>
    <nd ref="1809309778"/>
    <tag k="highway" v="residential"/>
    <tag k="name" v="Meredith Street"/>
  </way>
  <way id="22496623" version="5" timestamp="2012-07-01T20:42:51Z" uid="713671" user="auspod" changeset="12080827">
    <nd ref="1809309890"/>
    <nd ref="1809309793"/>
    <tag k="highway" v="residential"/>
    <tag k="name" v="Mirrabooka Avenue"/>
  </way>
  <way id="22496623" version="6" timestamp="2012-07-20T05:24:59Z" uid="722137" user="OSMF Redaction Account" changeset="12361889">
    <nd ref="1809309890"/>
    <nd ref="1809309793"/>
    <tag k="highway" v="residential"/>
  </way>
  <way id="22496623" version="7" timestamp="2012-08-02T10:40:57Z" uid="11321" user="Pecisk" changeset="12584143">
    <nd ref="1809309890"/>
    <nd ref="1848251799"/>
    <nd ref="1809309793"/>
    <tag k="highway" v="residential"/>
  </way>
  <way id="22496686" version="4" timestamp="2012-07-01T20:56:08Z" uid="713671" user="auspod" changeset="12080827">
    <nd ref="241520317"/>
    <nd ref="1809326867"/>
    <tag k="highway" v="residential"/>
    <tag k="name" v="Melrose Street"/>
  </way>
  <way id="22496812" version="5" timestamp="2012-07-01T20:42:45Z" uid="713671" user="auspod" changeset="12080827">
    <nd ref="1809309811"/>
    <nd ref="241521166"/>
    <tag k="highway" v="residential"/>
    <tag k="lcn" v="yes"/>
    <tag k="name" v="Heyde Avenue"/>
  </way>
  <way id="22496812" version="6" timestamp="2012-07-20T08:32:11Z" uid="722137" user="OSMF Redaction Account" changeset="12368415">
    <nd ref="1809309811"/>
    <nd ref="241521166"/>
    <tag k="highway" v="residential"/>
    <tag k="name" v="Heyde Avenue"/>
  </way>
  <way id="22496812" version="7" timestamp="2012-07-31T12:24:26Z" uid="504708" user="HillWithSmallFields" changeset="12560603">
    <nd ref="1809309811"/>
    <nd ref="1845264102"/>
    <nd ref="241521166"/>
    <tag k="highway" v="residential"/>
    <tag k="name" v="Heyde Avenue"/>
  </way>
  <way id="22496812" version="8" timestamp="2012-08-03T14:20:22Z" uid="67896" user="mrpulley" changeset="12598774">
    <nd ref="1809309811"/>
    <nd ref="241521166"/>
    <tag k="highway" v="residential"/>
    <tag k="name" v="Heyde Avenue"/>
  </way>
  <way id="22496899" version="5" timestamp="2012-07-01T20:29:30Z" uid="713671" user="auspod" changeset="12080827">
    <nd ref="1809298959"/>
    <nd ref="1809299007"/>
    <nd ref="1809298980"/>
    <nd ref="639650562"/>
    <tag k="highway" v="residential"/>
    <tag k="name" v="Merley Street"/>
    <tag k="restriction" v="school_zone"/>
  </way>
  <way id="22496899" version="6" timestamp="2012-07-20T05:24:56Z" uid="722137" user="OSMF Redaction Account" changeset="12361889">
    <nd ref="1809298959"/>
    <nd ref="1809299007"/>
    <nd ref="1809298980"/>
    <tag k="highway" v="residential"/>
    <tag k="name" v="Merley Street"/>
  </way>
  <way id="22496899" version="7" timestamp="2012-08-02T10:40:52Z" uid="11321" user="Pecisk" changeset="12584143">
    <nd ref="1809298959"/>
    <nd ref="1809299007"/>
    <nd ref="1809298980"/>
    <nd ref="1848251846"/>
    <nd ref="1848251844"/>
    <nd ref="1848251843"/>
    <nd ref="1848251839"/>
    <nd ref="1848251829"/>
    <nd ref="1809309785"/>
    <tag k="highway" v="residential"/>
    <tag k="name" v="Merley Street"/>
  </way>
</osm>
