<?xml version='1.0' encoding='UTF-8'?>
<osm version="0.6" generator="libosmium/2.20.0">
  <way id="22533969" version="3" timestamp="2009-11-06T00:59:34Z" uid="36809" user="pfoten_weg_!_" changeset="3044956">
    <nd ref="241772113"/>
    <nd ref="27262950"/>
    <tag k="highway" v="residential"/>
    <tag k="name" v="Logenstraße"/>
    <tag k="oneway" v="yes"/>
  </way>
  <way id="22533969" version="4" timestamp="2009-12-09T10:40:38Z" uid="163437" user="r-michael" changeset="3332464">
    <nd ref="241772113"/>
    <nd ref="583515017"/>
    <nd ref="27262950"/>
    <tag k="highway" v="residential"/>
    <tag k="name" v="Logenstraße"/>
    <tag k="oneway" v="yes"/>
  </way>
  <way id="22533969" version="5" timestamp="2010-03-01T16:10:45Z" uid="163437" user="r-michael" changeset="4009675">
    <nd ref="658440180"/>
    <nd ref="658440193"/>
    <nd ref="241770818"/>
    <nd ref="27262951"/>
    <nd ref="241772113"/>
    <nd ref="583515017"/>
    <nd ref="27262950"/>
    <tag k="highway" v="residential"/>
    <tag k="name" v="Logenstraße"/>
    <tag k="oneway" v="yes"/>
  </way>
  <way id="22533969" version="6" timestamp="2010-11-28T17:31:23Z" uid="163437" user="r-michael" changeset="6480330">
    <nd ref="658440180"/>
    <nd ref="658440193"/>
    <nd ref="241770818"/>
    <nd ref="1011236073"/>
    <nd ref="27262951"/>
    <nd ref="241772113"/>
    <nd ref="583515017"/>
    <nd ref="27262950"/>
    <tag k="highway" v="residential"/>
    <tag k="name" v="Logenstraße"/>
    <tag k="oneway" v="yes"/>
  </way>
  <way id="22533969" version="7" timestamp="2011-01-08T10:51:19Z" uid="163437" user="r-michael" changeset="6902020">
    <nd ref="462011362"/>
    <nd ref="658440193"/>
    <nd ref="241770818"/>
    <nd ref="1011236073"/>
    <nd ref="27262951"/>
    <nd ref="241772113"/>
    <nd ref="583515017"/>
    <nd ref="27262950"/>
    <tag k="highway" v="residential"/>
    <tag k="name" v="Logenstraße"/>
    <tag k="oneway" v="yes"/>
  </way>
  <way id="22533972" version="8" timestamp="2009-11-06T01:00:02Z" uid="36809" user="pfoten_weg_!_" changeset="3044956">
    <nd ref="241770807"/>
    <nd ref="327428086"/>
    <nd ref="311566684"/>
    <nd ref="311566693"/>
    <nd ref="305014922"/>
    <nd ref="291222856"/>
    <nd ref="241770809"/>
    <tag k="highway" v="residential"/>
    <tag k="maxspeed" v="30"/>
    <tag k="name" v="Kleine Oderstraße"/>
    <tag k="surface" v="paved"/>
  </way>
  <way id="22533972" version="9" timestamp="2012-03-04T09:17:31Z" uid="163437" user="r-michael" changeset="10866020">
    <nd ref="241770807"/>
    <nd ref="327428086"/>
    <nd ref="311566693"/>
    <nd ref="305014922"/>
    <nd ref="291222856"/>
    <nd ref="241770809"/>
    <tag k="highway" v="residential"/>
    <tag k="maxspeed" v="30"/>
    <tag k="name" v="Kleine Oderstraße"/>
    <tag k="surface" v="paved"/>
  </way>
  <way id="22533969" version="8" timestamp="2012-09-05T01:44:35Z" uid="28234" user="derandi" changeset="12989671"/>
  <way id="22533969" version="9" timestamp="2012-09-05T07:25:14Z" uid="163437" user="r-michael" changeset="12991854">
    <nd ref="462011362"/>
    <nd ref="658440193"/>
    <nd ref="241770818"/>
    <nd ref="1011236073"/>
    <nd ref="27262951"/>
    <nd ref="241772113"/>
    <nd ref="583515017"/>
    <nd ref="27262950"/>
    <tag k="highway" v="residential"/>
    <tag k="name" v="Logenstraße"/>
    <tag k="oneway" v="yes"/>
  </way>
</osm>
