<?xml version='1.0' encoding='UTF-8'?>
<osm version="0.6" generator="libosmium/2.20.0">
  <way id="22633071" version="3" timestamp="2010-02-01T12:09:59Z" uid="7617" user="Franc" changeset="3766993">
    <nd ref="242700523"/>
    <nd ref="625393836"/>
    <nd ref="242700528"/>
    <nd ref="242700525"/>
    <tag k="highway" v="service"/>
    <tag k="name" v="Giles Lane"/>
  </way>
  <way id="22633071" version="4" timestamp="2011-03-25T15:05:42Z" uid="4467" user="Rosscoe" changeset="7666311">
    <nd ref="242700523"/>
    <nd ref="974577865"/>
    <nd ref="625393836"/>
    <nd ref="242700528"/>
    <nd ref="242700525"/>
    <tag k="highway" v="service"/>
    <tag k="name" v="Giles Lane"/>
  </way>
  <way id="22633072" version="2" timestamp="2010-11-28T10:49:35Z" uid="7617" user="Franc" changeset="6476735">
    <nd ref="242700528"/>
    <nd ref="242700529"/>
    <tag k="highway" v="service"/>
    <tag k="name" v="Gillies Lane"/>
    <tag k="source" v="nearmap"/>
    <tag k="source:name" v="survey"/>
  </way>
  <way id="22633074" version="3" timestamp="2010-01-26T02:33:17Z" uid="30201" user="rrankin" changeset="3716457">
    <nd ref="242696330"/>
    <nd ref="242700536"/>
    <nd ref="242700537"/>
    <nd ref="242700538"/>
    <nd ref="620345153"/>
    <tag k="highway" v="residential"/>
    <tag k="name" v="Dennis Street"/>
  </way>
  <way id="22633074" version="4" timestamp="2010-07-08T02:10:55Z" uid="74617" user="JohnSmith" changeset="5162525">
    <nd ref="242696330"/>
    <nd ref="242700536"/>
    <nd ref="242700537"/>
    <nd ref="242700538"/>
    <nd ref="620345153"/>
    <tag k="highway" v="residential"/>
    <tag k="maxspeed" v="50"/>
    <tag k="maxspeed:source" v="default residential speed limit in Australia"/>
    <tag k="name" v="Dennis Street"/>
  </way>
  <way id="22633074" version="5" timestamp="2010-11-28T10:50:18Z" uid="7617" user="Franc" changeset="6476735">
    <nd ref="242696330"/>
    <nd ref="242700536"/>
    <nd ref="242700537"/>
    <nd ref="242700538"/>
    <nd ref="1010550859"/>
    <nd ref="1010551131"/>
    <nd ref="1010552306"/>
    <nd ref="620345153"/>
    <tag k="highway" v="residential"/>
    <tag k="maxspeed" v="50"/>
    <tag k="maxspeed:source" v="default residential speed limit in Australia"/>
    <tag k="name" v="Dennis Street"/>
  </way>
  <way id="22633074" version="6" timestamp="2012-01-15T22:33:21Z" uid="147510" user="woodpeck_fixbot" changeset="10402983">
    <nd ref="242696330"/>
    <nd ref="242700536"/>
    <nd ref="242700537"/>
    <nd ref="242700538"/>
    <nd ref="1010550859"/>
    <nd ref="1010551131"/>
    <nd ref="1010552306"/>
    <nd ref="620345153"/>
    <tag k="highway" v="residential"/>
    <tag k="name" v="Dennis Street"/>
  </way>
  <way id="22633077" version="2" timestamp="2010-07-08T02:10:43Z" uid="74617" user="JohnSmith" changeset="5162525">
    <nd ref="242700542"/>
    <nd ref="242700566"/>
    <nd ref="242700567"/>
    <nd ref="242700568"/>
    <nd ref="242700569"/>
    <tag k="highway" v="residential"/>
    <tag k="maxspeed" v="50"/>
    <tag k="maxspeed:source" v="default residential speed limit in Australia"/>
    <tag k="name" v="Taylor Street"/>
  </way>
  <way id="22633077" version="3" timestamp="2012-01-15T22:33:23Z" uid="147510" user="woodpeck_fixbot" changeset="10402983">
    <nd ref="242700542"/>
    <nd ref="242700566"/>
    <nd ref="242700567"/>
    <nd ref="242700568"/>
    <nd ref="242700569"/>
    <tag k="highway" v="residential"/>
    <tag k="name" v="Taylor Street"/>
  </way>
  <way id="22633081" version="6" timestamp="2010-01-26T02:33:18Z" uid="30201" user="rrankin" changeset="3716457">
    <nd ref="242700570"/>
    <nd ref="242700577"/>
    <nd ref="620345139"/>
    <tag k="highway" v="residential"/>
    <tag k="name" v="Chambers Street"/>
  </way>
  <way id="22633081" version="7" timestamp="2010-07-08T02:08:35Z" uid="74617" user="JohnSmith" changeset="5162525">
    <nd ref="242700570"/>
    <nd ref="242700577"/>
    <nd ref="620345139"/>
    <tag k="highway" v="residential"/>
    <tag k="maxspeed" v="50"/>
    <tag k="maxspeed:source" v="default residential speed limit in Australia"/>
    <tag k="name" v="Chambers Street"/>
  </way>
  <way id="22633081" version="8" timestamp="2010-11-02T13:09:21Z" uid="7617" user="Franc" changeset="6267578">
    <nd ref="974577932"/>
    <nd ref="242700577"/>
    <nd ref="620345139"/>
    <tag k="highway" v="residential"/>
    <tag k="maxspeed" v="50"/>
    <tag k="maxspeed:source" v="default residential speed limit in Australia"/>
    <tag k="name" v="Chambers Street"/>
  </way>
  <way id="22633081" version="9" timestamp="2012-01-15T22:33:23Z" uid="147510" user="woodpeck_fixbot" changeset="10402983">
    <nd ref="974577932"/>
    <nd ref="242700577"/>
    <nd ref="620345139"/>
    <tag k="highway" v="residential"/>
    <tag k="name" v="Chambers Street"/>
  </way>
  <way id="22633083" version="4" timestamp="2008-06-21T23:35:07Z" uid="27600" user="Islanit" changeset="254720">
    <nd ref="242700559"/>
    <nd ref="242700586"/>
    <nd ref="242700587"/>
    <nd ref="269967686"/>
    <nd ref="242700588"/>
    <nd ref="242700589"/>
    <nd ref="242700590"/>
    <nd ref="242700591"/>
    <nd ref="242700559"/>
    <tag k="area" v="yes"/>
    <tag k="created_by" v="Potlatch 0.9c"/>
    <tag k="foot" v="yes"/>
    <tag k="highway" v="pedestrian"/>
  </way>
  <way id="22633083" version="5" timestamp="2010-02-19T14:49:19Z" uid="109035" user="Teddy80" changeset="3916041">
    <nd ref="242700559"/>
    <nd ref="242700586"/>
    <nd ref="242700587"/>
    <nd ref="269967686"/>
    <nd ref="242700588"/>
    <nd ref="242700589"/>
    <nd ref="242700590"/>
    <nd ref="242700591"/>
    <nd ref="242700559"/>
    <tag k="area" v="yes"/>
    <tag k="foot" v="yes"/>
    <tag k="highway" v="pedestrian"/>
  </way>
  <way id="22633083" version="6" timestamp="2010-08-22T08:06:22Z" uid="43566" user="anbr" changeset="5558502">
    <nd ref="242700559"/>
    <nd ref="242700586"/>
    <nd ref="242700587"/>
    <nd ref="269967686"/>
    <nd ref="242700588"/>
    <nd ref="242700589"/>
    <nd ref="242700590"/>
    <nd ref="242700591"/>
    <nd ref="242700559"/>
    <tag k="area" v="yes"/>
    <tag k="foot" v="yes"/>
    <tag k="highway" v="footway"/>
  </way>
  <way id="22633083" version="7" timestamp="2011-04-12T07:23:40Z" uid="66391" user="geozeisig" changeset="7839840"/>
  <way id="22633088" version="3" timestamp="2010-11-03T18:36:16Z" uid="7617" user="Franc" changeset="6278346">
    <nd ref="242700601"/>
    <nd ref="975929576"/>
    <nd ref="242700602"/>
    <nd ref="242700603"/>
    <nd ref="242700604"/>
    <nd ref="242700605"/>
    <nd ref="242700601"/>
    <tag k="leisure" v="park"/>
    <tag k="name" v="Harold Bull Reserve"/>
  </way>
  <way id="22633094" version="4" timestamp="2010-07-08T02:10:25Z" uid="74617" user="JohnSmith" changeset="5162525">
    <nd ref="242700606"/>
    <nd ref="242703375"/>
    <nd ref="242700613"/>
    <nd ref="242700579"/>
    <tag k="highway" v="residential"/>
    <tag k="maxspeed" v="50"/>
    <tag k="maxspeed:source" v="default residential speed limit in Australia"/>
    <tag k="name" v="Moreton Street"/>
  </way>
  <way id="22633094" version="5" timestamp="2010-11-03T18:36:10Z" uid="7617" user="Franc" changeset="6278346">
    <nd ref="242700606"/>
    <nd ref="242703375"/>
    <nd ref="242700613"/>
    <nd ref="975929471"/>
    <nd ref="975929409"/>
    <nd ref="975929649"/>
    <tag k="highway" v="residential"/>
    <tag k="maxspeed" v="50"/>
    <tag k="maxspeed:source" v="default residential speed limit in Australia"/>
    <tag k="name" v="Moreton Street"/>
  </way>
  <way id="22633094" version="6" timestamp="2012-01-15T22:33:25Z" uid="147510" user="woodpeck_fixbot" changeset="10402983">
    <nd ref="242700606"/>
    <nd ref="242703375"/>
    <nd ref="242700613"/>
    <nd ref="975929471"/>
    <nd ref="975929409"/>
    <nd ref="975929649"/>
    <tag k="highway" v="residential"/>
    <tag k="name" v="Moreton Street"/>
  </way>
  <way id="22633096" version="4" timestamp="2010-01-10T06:40:25Z" uid="30201" user="rrankin" changeset="3584320">
    <nd ref="242700611"/>
    <nd ref="242705444"/>
    <nd ref="610745833"/>
    <tag k="highway" v="tertiary"/>
    <tag k="name" v="Moreton Street"/>
  </way>
  <way id="22633096" version="5" timestamp="2010-02-01T12:10:00Z" uid="7617" user="Franc" changeset="3766993">
    <nd ref="242700611"/>
    <nd ref="625393895"/>
    <nd ref="242705444"/>
    <nd ref="610745833"/>
    <tag k="highway" v="tertiary"/>
    <tag k="name" v="Moreton Street"/>
  </way>
  <way id="22633098" version="4" timestamp="2010-02-01T12:09:58Z" uid="7617" user="Franc" changeset="3766993">
    <nd ref="242700579"/>
    <nd ref="242700614"/>
    <nd ref="625393845"/>
    <nd ref="242700411"/>
    <nd ref="242696331"/>
    <nd ref="242700610"/>
    <tag k="highway" v="tertiary"/>
    <tag k="name" v="Moreton Street"/>
  </way>
  <way id="22633098" version="5" timestamp="2010-04-27T00:33:11Z" uid="4467" user="Rosscoe" changeset="4537449">
    <nd ref="242700579"/>
    <nd ref="708285685"/>
    <tag k="highway" v="tertiary"/>
    <tag k="name" v="Moreton Street"/>
  </way>
  <way id="22633098" version="6" timestamp="2010-11-03T18:36:16Z" uid="7617" user="Franc" changeset="6278346">
    <nd ref="975929591"/>
    <nd ref="975929482"/>
    <nd ref="708285685"/>
    <tag k="highway" v="tertiary"/>
    <tag k="name" v="Moreton Street"/>
  </way>
  <way id="22633106" version="7" timestamp="2008-10-11T10:51:59Z" uid="65847" user="LKK" changeset="247438">
    <nd ref="152618236"/>
    <nd ref="207599210"/>
    <nd ref="148916165"/>
    <tag k="created_by" v="Potlatch 0.8a"/>
    <tag k="highway" v="residential"/>
    <tag k="name" v="ул. Алабин"/>
  </way>
  <way id="22633106" version="8" timestamp="2008-10-14T15:46:31Z" uid="65847" user="LKK" changeset="325656">
    <nd ref="152618236"/>
    <nd ref="207599210"/>
    <nd ref="303983606"/>
    <nd ref="148916165"/>
    <tag k="created_by" v="Potlatch 0.8a"/>
    <tag k="highway" v="residential"/>
    <tag k="name" v="ул. Алабин"/>
  </way>
  <way id="22633106" version="9" timestamp="2009-08-07T19:00:24Z" uid="27370" user="skamp" changeset="2069134">
    <nd ref="152618236"/>
    <nd ref="207599210"/>
    <nd ref="458403892"/>
    <nd ref="303983606"/>
    <nd ref="148916165"/>
    <tag k="highway" v="residential"/>
    <tag k="name" v="ул. Алабин"/>
  </way>
  <way id="22633106" version="10" timestamp="2011-01-23T18:20:18Z" uid="94353" user="Fips" changeset="7065157">
    <nd ref="152618236"/>
    <nd ref="458403892"/>
    <nd ref="303983606"/>
    <nd ref="148916165"/>
    <tag k="highway" v="residential"/>
    <tag k="name" v="ул. Алабин"/>
  </way>
  <way id="22633107" version="5" timestamp="2010-02-01T12:09:58Z" uid="7617" user="Franc" changeset="3766993">
    <nd ref="242696333"/>
    <nd ref="625393899"/>
    <nd ref="242701175"/>
    <nd ref="242701803"/>
    <nd ref="242701984"/>
    <nd ref="242700412"/>
    <nd ref="242702380"/>
    <nd ref="242701176"/>
    <tag k="highway" v="residential"/>
    <tag k="name" v="Peel Street"/>
  </way>
  <way id="22633107" version="6" timestamp="2010-07-08T02:10:05Z" uid="74617" user="JohnSmith" changeset="5162525">
    <nd ref="242696333"/>
    <nd ref="625393899"/>
    <nd ref="242701175"/>
    <nd ref="242701803"/>
    <nd ref="242701984"/>
    <nd ref="242700412"/>
    <nd ref="242702380"/>
    <nd ref="242701176"/>
    <tag k="highway" v="residential"/>
    <tag k="maxspeed" v="50"/>
    <tag k="maxspeed:source" v="default residential speed limit in Australia"/>
    <tag k="name" v="Peel Street"/>
  </way>
  <way id="22633107" version="7" timestamp="2012-01-15T22:33:25Z" uid="147510" user="woodpeck_fixbot" changeset="10402983">
    <nd ref="242696333"/>
    <nd ref="625393899"/>
    <nd ref="242701175"/>
    <nd ref="242701803"/>
    <nd ref="242701984"/>
    <nd ref="242700412"/>
    <nd ref="242702380"/>
    <nd ref="242701176"/>
    <tag k="highway" v="residential"/>
    <tag k="name" v="Peel Street"/>
  </way>
  <way id="22633111" version="10" timestamp="2010-01-31T03:41:28Z" uid="7617" user="Franc" changeset="3756241">
    <nd ref="242700614"/>
    <nd ref="242703353"/>
    <nd ref="242701176"/>
    <nd ref="242703512"/>
    <nd ref="242701683"/>
    <nd ref="242703526"/>
    <nd ref="242703534"/>
    <nd ref="242703527"/>
    <nd ref="242703604"/>
    <nd ref="242703530"/>
    <nd ref="623808156"/>
    <nd ref="623808155"/>
    <nd ref="242701685"/>
    <nd ref="242701687"/>
    <tag k="highway" v="tertiary"/>
    <tag k="name" v="Leylands Street"/>
  </way>
  <way id="22633111" version="11" timestamp="2010-02-01T12:10:01Z" uid="7617" user="Franc" changeset="3766993">
    <nd ref="242700614"/>
    <nd ref="242703353"/>
    <nd ref="242701176"/>
    <nd ref="242703512"/>
    <nd ref="625393913"/>
    <nd ref="242701683"/>
    <nd ref="242703526"/>
    <nd ref="242703534"/>
    <nd ref="242703527"/>
    <nd ref="242703604"/>
    <nd ref="242703530"/>
    <nd ref="623808156"/>
    <nd ref="623808155"/>
    <nd ref="242701685"/>
    <nd ref="242701687"/>
    <tag k="highway" v="tertiary"/>
    <tag k="name" v="Leylands Street"/>
  </way>
  <way id="22633111" version="12" timestamp="2010-04-27T00:33:07Z" uid="4467" user="Rosscoe" changeset="4537449">
    <nd ref="708285426"/>
    <nd ref="242703353"/>
    <nd ref="242701176"/>
    <nd ref="242703512"/>
    <nd ref="625393913"/>
    <nd ref="242701683"/>
    <nd ref="242703526"/>
    <nd ref="242703534"/>
    <nd ref="242703527"/>
    <nd ref="242703604"/>
    <nd ref="242703530"/>
    <nd ref="623808156"/>
    <nd ref="623808155"/>
    <nd ref="242701685"/>
    <nd ref="242701687"/>
    <tag k="highway" v="tertiary"/>
    <tag k="name" v="Leylands Street"/>
  </way>
  <way id="22633111" version="13" timestamp="2010-10-01T00:28:26Z" uid="353481" user="zaa" changeset="5924517">
    <nd ref="708285426"/>
    <nd ref="242703353"/>
    <nd ref="242701176"/>
    <nd ref="242703512"/>
    <nd ref="625393913"/>
    <nd ref="242701683"/>
    <nd ref="242703526"/>
    <nd ref="242703534"/>
    <nd ref="242703527"/>
    <nd ref="242703604"/>
    <nd ref="242703530"/>
    <nd ref="623808156"/>
    <nd ref="623808155"/>
    <nd ref="242701685"/>
    <nd ref="242701687"/>
    <tag k="highway" v="tertiary"/>
    <tag k="name" v="Leylands Parade"/>
  </way>
  <way id="22633115" version="3" timestamp="2010-01-31T03:41:25Z" uid="7617" user="Franc" changeset="3756241">
    <nd ref="242701803"/>
    <nd ref="242701980"/>
    <nd ref="623808124"/>
    <nd ref="242702879"/>
    <nd ref="242701981"/>
    <tag k="highway" v="residential"/>
    <tag k="name" v="Bridge Road"/>
  </way>
  <way id="22633115" version="4" timestamp="2010-07-08T02:12:39Z" uid="74617" user="JohnSmith" changeset="5162525">
    <nd ref="242701803"/>
    <nd ref="242701980"/>
    <nd ref="623808124"/>
    <nd ref="242702879"/>
    <nd ref="242701981"/>
    <tag k="highway" v="residential"/>
    <tag k="maxspeed" v="50"/>
    <tag k="maxspeed:source" v="default residential speed limit in Australia"/>
    <tag k="name" v="Bridge Road"/>
  </way>
  <way id="22633115" version="5" timestamp="2010-11-28T10:49:55Z" uid="7617" user="Franc" changeset="6476735">
    <nd ref="242701803"/>
    <nd ref="242701980"/>
    <nd ref="1010551843"/>
    <nd ref="623808124"/>
    <nd ref="242702879"/>
    <nd ref="242701981"/>
    <tag k="highway" v="residential"/>
    <tag k="maxspeed" v="50"/>
    <tag k="maxspeed:source" v="default residential speed limit in Australia"/>
    <tag k="name" v="Bridge Road"/>
  </way>
  <way id="22633115" version="6" timestamp="2012-01-15T22:33:27Z" uid="147510" user="woodpeck_fixbot" changeset="10402983">
    <nd ref="242701803"/>
    <nd ref="242701980"/>
    <nd ref="1010551843"/>
    <nd ref="623808124"/>
    <nd ref="242702879"/>
    <nd ref="242701981"/>
    <tag k="highway" v="residential"/>
    <tag k="name" v="Bridge Road"/>
  </way>
  <way id="22633121" version="5" timestamp="2010-07-08T02:10:36Z" uid="74617" user="JohnSmith" changeset="5162525">
    <nd ref="242701984"/>
    <nd ref="242702598"/>
    <nd ref="242702894"/>
    <nd ref="242702353"/>
    <tag k="highway" v="residential"/>
    <tag k="maxspeed" v="50"/>
    <tag k="maxspeed:source" v="default residential speed limit in Australia"/>
    <tag k="name" v="Gladstone Street"/>
  </way>
  <way id="22633121" version="6" timestamp="2012-01-15T22:33:28Z" uid="147510" user="woodpeck_fixbot" changeset="10402983">
    <nd ref="242701984"/>
    <nd ref="242702598"/>
    <nd ref="242702894"/>
    <nd ref="242702353"/>
    <tag k="highway" v="residential"/>
    <tag k="name" v="Gladstone Street"/>
  </way>
  <way id="22633122" version="3" timestamp="2010-07-08T02:08:43Z" uid="74617" user="JohnSmith" changeset="5162525">
    <nd ref="242702380"/>
    <nd ref="242702470"/>
    <nd ref="242702661"/>
    <nd ref="242702471"/>
    <tag k="highway" v="residential"/>
    <tag k="maxspeed" v="50"/>
    <tag k="maxspeed:source" v="default residential speed limit in Australia"/>
    <tag k="name" v="Collins Street"/>
  </way>
  <way id="22633122" version="4" timestamp="2012-01-15T22:33:29Z" uid="147510" user="woodpeck_fixbot" changeset="10402983">
    <nd ref="242702380"/>
    <nd ref="242702470"/>
    <nd ref="242702661"/>
    <nd ref="242702471"/>
    <tag k="highway" v="residential"/>
    <tag k="name" v="Collins Street"/>
  </way>
  <way id="22633124" version="2" timestamp="2010-07-08T02:12:21Z" uid="74617" user="JohnSmith" changeset="5162525">
    <nd ref="242702470"/>
    <nd ref="242702598"/>
    <tag k="highway" v="residential"/>
    <tag k="maxspeed" v="50"/>
    <tag k="maxspeed:source" v="default residential speed limit in Australia"/>
    <tag k="name" v="Marie Street"/>
  </way>
  <way id="22633124" version="3" timestamp="2012-01-15T22:33:30Z" uid="147510" user="woodpeck_fixbot" changeset="10402983">
    <nd ref="242702470"/>
    <nd ref="242702598"/>
    <tag k="highway" v="residential"/>
    <tag k="name" v="Marie Street"/>
  </way>
  <way id="22633125" version="2" timestamp="2010-11-28T10:50:25Z" uid="7617" user="Franc" changeset="6476735"/>
  <way id="22633126" version="2" timestamp="2010-02-01T12:10:02Z" uid="7617" user="Franc" changeset="3766993">
    <nd ref="242702894"/>
    <nd ref="625393912"/>
    <nd ref="242701980"/>
    <tag k="highway" v="service"/>
  </way>
  <way id="22633126" version="3" timestamp="2010-11-28T10:50:15Z" uid="7617" user="Franc" changeset="6476735">
    <nd ref="242702894"/>
    <nd ref="625393912"/>
    <nd ref="242701980"/>
    <tag k="highway" v="service"/>
    <tag k="name" v="Marie Lane"/>
    <tag k="source" v="nearmap"/>
    <tag k="source:name" v="survey"/>
  </way>
  <way id="22633127" version="3" timestamp="2010-02-01T12:10:02Z" uid="7617" user="Franc" changeset="3766993">
    <nd ref="242702353"/>
    <nd ref="242702354"/>
    <nd ref="625393910"/>
    <tag k="highway" v="service"/>
    <tag k="name" v="Gladstone Street"/>
  </way>
  <way id="22633127" version="4" timestamp="2010-11-28T10:50:25Z" uid="7617" user="Franc" changeset="6476735"/>
  <way id="22633132" version="3" timestamp="2010-07-08T02:08:09Z" uid="74617" user="JohnSmith" changeset="5162525">
    <nd ref="242700580"/>
    <nd ref="242703495"/>
    <nd ref="242700581"/>
    <tag k="highway" v="residential"/>
    <tag k="maxspeed" v="50"/>
    <tag k="maxspeed:source" v="default residential speed limit in Australia"/>
    <tag k="name" v="Chambers Street"/>
  </way>
  <way id="22633132" version="4" timestamp="2010-11-03T18:36:18Z" uid="7617" user="Franc" changeset="6278346">
    <nd ref="975929477"/>
    <nd ref="242703495"/>
    <nd ref="242700581"/>
    <tag k="highway" v="residential"/>
    <tag k="maxspeed" v="50"/>
    <tag k="maxspeed:source" v="default residential speed limit in Australia"/>
    <tag k="name" v="Chambers Street"/>
  </way>
  <way id="22633132" version="5" timestamp="2012-01-15T22:33:31Z" uid="147510" user="woodpeck_fixbot" changeset="10402983">
    <nd ref="975929477"/>
    <nd ref="242703495"/>
    <nd ref="242700581"/>
    <tag k="highway" v="residential"/>
    <tag k="name" v="Chambers Street"/>
  </way>
  <way id="22633133" version="3" timestamp="2010-11-03T18:36:13Z" uid="7617" user="Franc" changeset="6278346">
    <nd ref="975929426"/>
    <nd ref="975929452"/>
    <tag k="highway" v="tertiary"/>
    <tag k="name" v="Chambers Street"/>
  </way>
  <way id="22633136" version="4" timestamp="2008-05-28T06:53:55Z" uid="30201" user="rrankin" changeset="541674">
    <nd ref="242703353"/>
    <nd ref="242703520"/>
    <nd ref="242700580"/>
    <tag k="created_by" v="Potlatch 0.6c"/>
    <tag k="highway" v="residential"/>
    <tag k="name" v="Chapel Street"/>
  </way>
  <way id="22633136" version="5" timestamp="2010-07-08T02:09:14Z" uid="74617" user="JohnSmith" changeset="5162525">
    <nd ref="242703353"/>
    <nd ref="242703520"/>
    <nd ref="242700580"/>
    <tag k="highway" v="residential"/>
    <tag k="maxspeed" v="50"/>
    <tag k="maxspeed:source" v="default residential speed limit in Australia"/>
    <tag k="name" v="Chapel Street"/>
  </way>
  <way id="22633136" version="6" timestamp="2010-11-03T18:36:12Z" uid="7617" user="Franc" changeset="6278346">
    <nd ref="242703353"/>
    <nd ref="242703520"/>
    <nd ref="975929313"/>
    <tag k="highway" v="residential"/>
    <tag k="maxspeed" v="50"/>
    <tag k="maxspeed:source" v="default residential speed limit in Australia"/>
    <tag k="name" v="Chapel Street"/>
  </way>
  <way id="22633136" version="7" timestamp="2012-01-15T22:33:32Z" uid="147510" user="woodpeck_fixbot" changeset="10402983">
    <nd ref="242703353"/>
    <nd ref="242703520"/>
    <nd ref="975929313"/>
    <tag k="highway" v="residential"/>
    <tag k="name" v="Chapel Street"/>
  </way>
  <way id="22633137" version="4" timestamp="2008-02-23T13:38:52Z" uid="7617" user="Franc" changeset="184727">
    <nd ref="242700580"/>
    <nd ref="242703450"/>
    <nd ref="242703360"/>
    <nd ref="26429114"/>
    <tag k="created_by" v="Potlatch 0.6c"/>
    <tag k="highway" v="tertiary"/>
    <tag k="name" v="Chapel Street"/>
  </way>
  <way id="22633137" version="5" timestamp="2008-05-28T06:53:54Z" uid="30201" user="rrankin" changeset="541674">
    <nd ref="242700580"/>
    <nd ref="242703450"/>
    <nd ref="242703360"/>
    <nd ref="26429114"/>
    <tag k="created_by" v="Potlatch 0.6c"/>
    <tag k="highway" v="tertiary"/>
    <tag k="name" v="Chapel Street"/>
  </way>
  <way id="22633137" version="6" timestamp="2010-11-03T18:36:16Z" uid="7617" user="Franc" changeset="6278346">
    <nd ref="975929663"/>
    <nd ref="975929579"/>
    <nd ref="242703450"/>
    <nd ref="242703360"/>
    <nd ref="26429114"/>
    <tag k="highway" v="tertiary"/>
    <tag k="name" v="Chapel Street"/>
  </way>
  <way id="22633143" version="2" timestamp="2010-11-03T18:36:17Z" uid="7617" user="Franc" changeset="6278346">
    <nd ref="242703415"/>
    <nd ref="975929543"/>
    <nd ref="975929302"/>
    <nd ref="975929379"/>
    <nd ref="975929463"/>
    <nd ref="242703416"/>
    <nd ref="975929326"/>
    <nd ref="975929455"/>
    <nd ref="975929514"/>
    <nd ref="975929656"/>
    <nd ref="242703417"/>
    <nd ref="242703415"/>
    <tag k="leisure" v="park"/>
    <tag k="name" v="Hunt Park"/>
  </way>
  <way id="22633148" version="2" timestamp="2010-07-08T02:09:49Z" uid="74617" user="JohnSmith" changeset="5162525">
    <nd ref="242703450"/>
    <nd ref="242703474"/>
    <tag k="highway" v="residential"/>
    <tag k="maxspeed" v="50"/>
    <tag k="maxspeed:source" v="default residential speed limit in Australia"/>
    <tag k="name" v="Wilson Avenue"/>
  </way>
  <way id="22633148" version="3" timestamp="2012-01-15T22:33:33Z" uid="147510" user="woodpeck_fixbot" changeset="10402983">
    <nd ref="242703450"/>
    <nd ref="242703474"/>
    <tag k="highway" v="residential"/>
    <tag k="name" v="Wilson Avenue"/>
  </way>
  <way id="22633156" version="3" timestamp="2010-07-08T02:08:39Z" uid="74617" user="JohnSmith" changeset="5162525">
    <nd ref="242703495"/>
    <nd ref="242703513"/>
    <nd ref="242703512"/>
    <tag k="highway" v="residential"/>
    <tag k="maxspeed" v="50"/>
    <tag k="maxspeed:source" v="default residential speed limit in Australia"/>
    <tag k="name" v="Kent Street"/>
  </way>
  <way id="22633156" version="4" timestamp="2012-01-15T22:33:34Z" uid="147510" user="woodpeck_fixbot" changeset="10402983">
    <nd ref="242703495"/>
    <nd ref="242703513"/>
    <nd ref="242703512"/>
    <tag k="highway" v="residential"/>
    <tag k="name" v="Kent Street"/>
  </way>
  <way id="22633158" version="2" timestamp="2010-07-08T02:09:45Z" uid="74617" user="JohnSmith" changeset="5162525">
    <nd ref="242703513"/>
    <nd ref="242703520"/>
    <tag k="highway" v="residential"/>
    <tag k="maxspeed" v="50"/>
    <tag k="maxspeed:source" v="default residential speed limit in Australia"/>
    <tag k="name" v="York Street"/>
  </way>
  <way id="22633158" version="3" timestamp="2012-01-15T22:33:35Z" uid="147510" user="woodpeck_fixbot" changeset="10402983">
    <nd ref="242703513"/>
    <nd ref="242703520"/>
    <tag k="highway" v="residential"/>
    <tag k="name" v="York Street"/>
  </way>
  <way id="22633163" version="2" timestamp="2010-07-08T02:10:34Z" uid="74617" user="JohnSmith" changeset="5162525">
    <nd ref="242703527"/>
    <nd ref="242703529"/>
    <tag k="highway" v="residential"/>
    <tag k="maxspeed" v="50"/>
    <tag k="maxspeed:source" v="default residential speed limit in Australia"/>
    <tag k="name" v="Acacia Street"/>
  </way>
  <way id="22633163" version="3" timestamp="2012-01-15T22:33:36Z" uid="147510" user="woodpeck_fixbot" changeset="10402983">
    <nd ref="242703527"/>
    <nd ref="242703529"/>
    <tag k="highway" v="residential"/>
    <tag k="name" v="Acacia Street"/>
  </way>
  <way id="22633164" version="3" timestamp="2010-01-31T03:41:28Z" uid="7617" user="Franc" changeset="3756241">
    <nd ref="242703530"/>
    <nd ref="242703533"/>
    <tag k="highway" v="residential"/>
    <tag k="name" v="Myall Street"/>
  </way>
  <way id="22633164" version="4" timestamp="2010-07-08T02:11:17Z" uid="74617" user="JohnSmith" changeset="5162525">
    <nd ref="242703530"/>
    <nd ref="242703533"/>
    <tag k="highway" v="residential"/>
    <tag k="maxspeed" v="50"/>
    <tag k="maxspeed:source" v="default residential speed limit in Australia"/>
    <tag k="name" v="Myall Street"/>
  </way>
  <way id="22633164" version="5" timestamp="2012-01-15T22:33:37Z" uid="147510" user="woodpeck_fixbot" changeset="10402983">
    <nd ref="242703530"/>
    <nd ref="242703533"/>
    <tag k="highway" v="residential"/>
    <tag k="name" v="Myall Street"/>
  </way>
  <way id="22633165" version="3" timestamp="2010-07-08T02:07:16Z" uid="74617" user="JohnSmith" changeset="5162525">
    <nd ref="242703534"/>
    <nd ref="242703539"/>
    <nd ref="242703537"/>
    <tag k="highway" v="residential"/>
    <tag k="maxspeed" v="50"/>
    <tag k="maxspeed:source" v="default residential speed limit in Australia"/>
    <tag k="name" v="Drummond Street"/>
  </way>
  <way id="22633165" version="4" timestamp="2010-11-28T10:49:49Z" uid="7617" user="Franc" changeset="6476735">
    <nd ref="242703534"/>
    <nd ref="1010551544"/>
    <tag k="highway" v="residential"/>
    <tag k="maxspeed" v="50"/>
    <tag k="maxspeed:source" v="default residential speed limit in Australia"/>
    <tag k="name" v="Drummond Street"/>
  </way>
  <way id="22633165" version="5" timestamp="2012-01-15T22:33:38Z" uid="147510" user="woodpeck_fixbot" changeset="10402983">
    <nd ref="242703534"/>
    <nd ref="1010551544"/>
    <tag k="highway" v="residential"/>
    <tag k="name" v="Drummond Street"/>
  </way>
  <way id="22633166" version="3" timestamp="2010-07-08T02:12:18Z" uid="74617" user="JohnSmith" changeset="5162525">
    <nd ref="242703538"/>
    <nd ref="242703539"/>
    <nd ref="242703603"/>
    <nd ref="242703540"/>
    <tag k="highway" v="residential"/>
    <tag k="maxspeed" v="50"/>
    <tag k="maxspeed:source" v="default residential speed limit in Australia"/>
    <tag k="name" v="Reginald Avenue"/>
  </way>
  <way id="22633166" version="4" timestamp="2010-11-28T10:50:18Z" uid="7617" user="Franc" changeset="6476735">
    <nd ref="242703538"/>
    <nd ref="1010551754"/>
    <tag k="highway" v="residential"/>
    <tag k="maxspeed" v="50"/>
    <tag k="maxspeed:source" v="default residential speed limit in Australia"/>
    <tag k="name" v="Reginald Avenue"/>
  </way>
  <way id="22633166" version="5" timestamp="2012-01-15T22:33:39Z" uid="147510" user="woodpeck_fixbot" changeset="10402983">
    <nd ref="242703538"/>
    <nd ref="1010551754"/>
    <tag k="highway" v="residential"/>
    <tag k="name" v="Reginald Avenue"/>
  </way>
  <way id="22633179" version="2" timestamp="2010-07-08T02:12:00Z" uid="74617" user="JohnSmith" changeset="5162525">
    <nd ref="242703601"/>
    <nd ref="242703603"/>
    <nd ref="242703604"/>
    <tag k="highway" v="residential"/>
    <tag k="maxspeed" v="50"/>
    <tag k="maxspeed:source" v="default residential speed limit in Australia"/>
    <tag k="name" v="Anderson Street"/>
  </way>
  <way id="22633179" version="3" timestamp="2010-11-28T10:49:22Z" uid="7617" user="Franc" changeset="6476735">
    <nd ref="242703601"/>
    <nd ref="1010551079"/>
    <nd ref="1010551936"/>
    <tag k="highway" v="residential"/>
    <tag k="maxspeed" v="50"/>
    <tag k="maxspeed:source" v="default residential speed limit in Australia"/>
    <tag k="name" v="Anderson Street"/>
  </way>
  <way id="22633179" version="4" timestamp="2012-01-15T22:33:40Z" uid="147510" user="woodpeck_fixbot" changeset="10402983">
    <nd ref="242703601"/>
    <nd ref="1010551079"/>
    <nd ref="1010551936"/>
    <tag k="highway" v="residential"/>
    <tag k="name" v="Anderson Street"/>
  </way>
  <way id="22633183" version="7" timestamp="2010-04-27T00:33:19Z" uid="4467" user="Rosscoe" changeset="4537449">
    <nd ref="26429108"/>
    <nd ref="242703893"/>
    <nd ref="242703891"/>
    <nd ref="242703540"/>
    <nd ref="242703889"/>
    <nd ref="708285473"/>
    <tag k="highway" v="residential"/>
    <tag k="name" v="Sharp Street"/>
  </way>
  <way id="22633183" version="8" timestamp="2010-07-08T02:09:58Z" uid="74617" user="JohnSmith" changeset="5162525">
    <nd ref="26429108"/>
    <nd ref="242703893"/>
    <nd ref="242703891"/>
    <nd ref="242703540"/>
    <nd ref="242703889"/>
    <nd ref="708285473"/>
    <tag k="highway" v="residential"/>
    <tag k="maxspeed" v="50"/>
    <tag k="maxspeed:source" v="default residential speed limit in Australia"/>
    <tag k="name" v="Sharp Street"/>
  </way>
  <way id="22633183" version="9" timestamp="2010-11-28T10:49:35Z" uid="7617" user="Franc" changeset="6476735">
    <nd ref="26429108"/>
    <nd ref="1010551311"/>
    <nd ref="242703893"/>
    <nd ref="242703891"/>
    <nd ref="242703540"/>
    <nd ref="242703889"/>
    <nd ref="708285473"/>
    <tag k="highway" v="residential"/>
    <tag k="maxspeed" v="50"/>
    <tag k="maxspeed:source" v="default residential speed limit in Australia"/>
    <tag k="name" v="Sharp Street"/>
  </way>
  <way id="22633183" version="10" timestamp="2012-01-15T22:33:41Z" uid="147510" user="woodpeck_fixbot" changeset="10402983">
    <nd ref="26429108"/>
    <nd ref="1010551311"/>
    <nd ref="242703893"/>
    <nd ref="242703891"/>
    <nd ref="242703540"/>
    <nd ref="242703889"/>
    <nd ref="708285473"/>
    <tag k="highway" v="residential"/>
    <tag k="name" v="Sharp Street"/>
  </way>
  <way id="22633202" version="3" timestamp="2010-04-27T00:33:10Z" uid="4467" user="Rosscoe" changeset="4537449">
    <nd ref="708285644"/>
    <nd ref="242703674"/>
    <tag k="highway" v="tertiary"/>
    <tag k="name" v="Edison Street"/>
  </way>
  <way id="22633203" version="3" timestamp="2010-04-27T00:33:22Z" uid="4467" user="Rosscoe" changeset="4537449">
    <nd ref="708285640"/>
    <nd ref="242701687"/>
    <tag k="highway" v="tertiary"/>
    <tag k="name" v="Sharp Street"/>
  </way>
  <way id="22633210" version="8" timestamp="2010-07-08T02:12:11Z" uid="74617" user="JohnSmith" changeset="5162525">
    <nd ref="242703888"/>
    <nd ref="242703953"/>
    <tag k="highway" v="residential"/>
    <tag k="maxspeed" v="50"/>
    <tag k="maxspeed:source" v="default residential speed limit in Australia"/>
    <tag k="name" v="Waverly Street"/>
  </way>
  <way id="22633210" version="9" timestamp="2012-01-15T22:33:41Z" uid="147510" user="woodpeck_fixbot" changeset="10402983">
    <nd ref="242703888"/>
    <nd ref="242703953"/>
    <tag k="highway" v="residential"/>
    <tag k="name" v="Waverly Street"/>
  </way>
  <way id="22633213" version="3" timestamp="2010-07-08T02:11:56Z" uid="74617" user="JohnSmith" changeset="5162525">
    <nd ref="242703889"/>
    <nd ref="242703921"/>
    <nd ref="242703890"/>
    <tag k="highway" v="residential"/>
    <tag k="maxspeed" v="50"/>
    <tag k="maxspeed:source" v="default residential speed limit in Australia"/>
    <tag k="name" v="Rydge Street"/>
  </way>
  <way id="22633213" version="4" timestamp="2012-01-15T22:33:42Z" uid="147510" user="woodpeck_fixbot" changeset="10402983">
    <nd ref="242703889"/>
    <nd ref="242703921"/>
    <nd ref="242703890"/>
    <tag k="highway" v="residential"/>
    <tag k="name" v="Rydge Street"/>
  </way>
  <way id="22633214" version="2" timestamp="2010-07-08T02:10:09Z" uid="74617" user="JohnSmith" changeset="5162525">
    <nd ref="242703891"/>
    <nd ref="242703892"/>
    <tag k="highway" v="residential"/>
    <tag k="maxspeed" v="50"/>
    <tag k="maxspeed:source" v="default residential speed limit in Australia"/>
    <tag k="name" v="Cobden Street"/>
  </way>
  <way id="22633214" version="3" timestamp="2012-01-15T22:33:43Z" uid="147510" user="woodpeck_fixbot" changeset="10402983">
    <nd ref="242703891"/>
    <nd ref="242703892"/>
    <tag k="highway" v="residential"/>
    <tag k="name" v="Cobden Street"/>
  </way>
  <way id="22633217" version="2" timestamp="2010-07-08T02:11:28Z" uid="74617" user="JohnSmith" changeset="5162525">
    <nd ref="242703893"/>
    <nd ref="242703895"/>
    <nd ref="242703896"/>
    <tag k="highway" v="residential"/>
    <tag k="maxspeed" v="50"/>
    <tag k="maxspeed:source" v="default residential speed limit in Australia"/>
    <tag k="name" v="Plimsol Street"/>
  </way>
  <way id="22633217" version="3" timestamp="2010-11-28T10:49:58Z" uid="7617" user="Franc" changeset="6476735">
    <nd ref="242703893"/>
    <nd ref="242703895"/>
    <nd ref="242703896"/>
    <tag k="highway" v="residential"/>
    <tag k="maxspeed" v="50"/>
    <tag k="maxspeed:source" v="default residential speed limit in Australia"/>
    <tag k="name" v="Plimsoll Street"/>
  </way>
  <way id="22633217" version="4" timestamp="2012-01-15T22:33:44Z" uid="147510" user="woodpeck_fixbot" changeset="10402983">
    <nd ref="242703893"/>
    <nd ref="242703895"/>
    <nd ref="242703896"/>
    <tag k="highway" v="residential"/>
    <tag k="name" v="Plimsoll Street"/>
  </way>
  <way id="22633218" version="2" timestamp="2010-11-28T10:49:19Z" uid="7617" user="Franc" changeset="6476735">
    <nd ref="242703895"/>
    <nd ref="242703897"/>
    <nd ref="1010552009"/>
    <tag k="highway" v="service"/>
    <tag k="name" v="Waverly Lane"/>
    <tag k="source" v="nearmap"/>
    <tag k="source:name" v="survey"/>
  </way>
  <way id="22633221" version="2" timestamp="2010-11-28T10:50:22Z" uid="7617" user="Franc" changeset="6476735">
    <nd ref="242703895"/>
    <nd ref="242703912"/>
    <nd ref="242703913"/>
    <tag k="highway" v="service"/>
    <tag k="name" v="Plimsoll Lane"/>
  </way>
  <way id="22633224" version="2" timestamp="2010-11-28T10:50:16Z" uid="7617" user="Franc" changeset="6476735">
    <nd ref="242703919"/>
    <nd ref="242703920"/>
    <nd ref="242703921"/>
    <tag k="highway" v="service"/>
    <tag k="name" v="Cobden Lane"/>
    <tag k="source" v="nearmap"/>
    <tag k="source:name" v="survey"/>
  </way>
  <way id="22633228" version="3" timestamp="2010-11-28T10:49:25Z" uid="7617" user="Franc" changeset="6476735">
    <nd ref="242703921"/>
    <nd ref="242703927"/>
    <tag k="highway" v="service"/>
    <tag k="name" v="Ridge Lane"/>
    <tag k="source" v="nearmap"/>
    <tag k="source:name" v="survey"/>
  </way>
  <way id="22633233" version="3" timestamp="2008-03-05T22:11:31Z" uid="7617" user="Franc" changeset="270970">
    <nd ref="242703953"/>
    <nd ref="246201841"/>
    <nd ref="250761263"/>
    <nd ref="69855771"/>
    <tag k="created_by" v="Potlatch 0.7"/>
    <tag k="highway" v="tertiary"/>
    <tag k="name" v="Palmer Street"/>
  </way>
  <way id="22633233" version="4" timestamp="2009-03-25T21:47:16Z" uid="20949" user="Ebenezer" changeset="857779">
    <nd ref="242703953"/>
    <nd ref="246201841"/>
    <nd ref="250761263"/>
    <nd ref="69855771"/>
    <tag k="created_by" v="Potlatch 0.10f"/>
    <tag k="highway" v="tertiary"/>
    <tag k="name" v="Palmer Street"/>
    <tag k="source" v="survey"/>
  </way>
  <way id="22633233" version="5" timestamp="2009-03-27T20:04:56Z" uid="20949" user="Ebenezer" changeset="863463">
    <nd ref="242703953"/>
    <nd ref="246201841"/>
    <tag k="created_by" v="Potlatch 0.10f"/>
    <tag k="highway" v="tertiary"/>
    <tag k="name" v="Palmer Street"/>
    <tag k="source" v="survey"/>
  </way>
  <way id="22633235" version="2" timestamp="2010-07-08T02:07:09Z" uid="74617" user="JohnSmith" changeset="5162525">
    <nd ref="242703674"/>
    <nd ref="242703890"/>
    <nd ref="242703892"/>
    <nd ref="242703896"/>
    <nd ref="242703898"/>
    <nd ref="242703848"/>
    <tag k="highway" v="residential"/>
    <tag k="maxspeed" v="50"/>
    <tag k="maxspeed:source" v="default residential speed limit in Australia"/>
    <tag k="name" v="Waverly Street"/>
  </way>
  <way id="22633235" version="3" timestamp="2012-01-15T22:33:45Z" uid="147510" user="woodpeck_fixbot" changeset="10402983">
    <nd ref="242703674"/>
    <nd ref="242703890"/>
    <nd ref="242703892"/>
    <nd ref="242703896"/>
    <nd ref="242703898"/>
    <nd ref="242703848"/>
    <tag k="highway" v="residential"/>
    <tag k="name" v="Waverly Street"/>
  </way>
  <way id="22633251" version="2" timestamp="2010-01-31T03:41:28Z" uid="7617" user="Franc" changeset="3756241">
    <nd ref="242704639"/>
    <nd ref="242704640"/>
    <nd ref="242704641"/>
    <nd ref="623808178"/>
    <nd ref="242704642"/>
    <nd ref="623808188"/>
    <nd ref="242704644"/>
    <nd ref="623808194"/>
    <nd ref="623808195"/>
    <nd ref="242704645"/>
    <nd ref="242704646"/>
    <nd ref="242704647"/>
    <nd ref="623808154"/>
    <nd ref="242704649"/>
    <nd ref="242704639"/>
    <tag k="layer" v="-1"/>
    <tag k="leisure" v="park"/>
    <tag k="name" v="Belmore Sportsground"/>
  </way>
  <way id="22633282" version="28" timestamp="2010-07-08T02:08:59Z" uid="74617" user="JohnSmith" changeset="5162525">
    <nd ref="252699346"/>
    <nd ref="252699374"/>
    <nd ref="60282118"/>
    <tag k="highway" v="residential"/>
    <tag k="maxspeed" v="50"/>
    <tag k="maxspeed:source" v="default residential speed limit in Australia"/>
    <tag k="name" v="Lakemba Street"/>
  </way>
  <way id="22633282" version="29" timestamp="2012-01-15T22:33:46Z" uid="147510" user="woodpeck_fixbot" changeset="10402983">
    <nd ref="252699346"/>
    <nd ref="252699374"/>
    <nd ref="60282118"/>
    <tag k="highway" v="residential"/>
    <tag k="name" v="Lakemba Street"/>
  </way>
  <way id="22633286" version="2" timestamp="2008-05-02T17:30:52Z" uid="6269" user="Mueck" changeset="312006">
    <nd ref="242705211"/>
    <nd ref="242705212"/>
    <nd ref="242705213"/>
    <nd ref="261632406"/>
    <nd ref="242705216"/>
    <tag k="created_by" v="Potlatch 0.8c"/>
    <tag k="highway" v="service"/>
  </way>
  <way id="22633286" version="3" timestamp="2008-05-02T17:32:28Z" uid="6269" user="Mueck" changeset="312006">
    <nd ref="242705211"/>
    <nd ref="242705212"/>
    <nd ref="242705213"/>
    <nd ref="261632542"/>
    <nd ref="261632406"/>
    <nd ref="242705216"/>
    <tag k="created_by" v="Potlatch 0.8c"/>
    <tag k="highway" v="service"/>
  </way>
  <way id="22633286" version="4" timestamp="2011-11-13T03:25:26Z" uid="128941" user="Oliver Kiddle" changeset="9810427">
    <nd ref="242705211"/>
    <nd ref="242705212"/>
    <nd ref="242705213"/>
    <nd ref="261632542"/>
    <tag k="highway" v="service"/>
  </way>
  <way id="22633288" version="2" timestamp="2008-05-02T17:38:06Z" uid="6269" user="Mueck" changeset="312006">
    <nd ref="242705215"/>
    <nd ref="242705217"/>
    <nd ref="242705218"/>
    <nd ref="242705219"/>
    <nd ref="242705220"/>
    <nd ref="242705221"/>
    <nd ref="242705222"/>
    <nd ref="242705223"/>
    <nd ref="242705224"/>
    <nd ref="242705225"/>
    <nd ref="242705226"/>
    <nd ref="242705227"/>
    <nd ref="242705228"/>
    <nd ref="242705231"/>
    <nd ref="242705233"/>
    <nd ref="242705235"/>
    <tag k="created_by" v="Potlatch 0.8c"/>
    <tag k="highway" v="footway"/>
  </way>
  <way id="22633288" version="3" timestamp="2008-05-02T17:38:14Z" uid="6269" user="Mueck" changeset="312006">
    <nd ref="242705215"/>
    <nd ref="242705217"/>
    <nd ref="242705218"/>
    <nd ref="242705219"/>
    <nd ref="242705220"/>
    <nd ref="242705221"/>
    <nd ref="242705222"/>
    <nd ref="242705223"/>
    <nd ref="242705224"/>
    <nd ref="242705225"/>
    <nd ref="242705226"/>
    <nd ref="242705227"/>
    <nd ref="242705228"/>
    <nd ref="242705231"/>
    <nd ref="242705233"/>
    <nd ref="242705235"/>
    <tag k="created_by" v="Potlatch 0.8c"/>
    <tag k="highway" v="cycleway"/>
  </way>
  <way id="22633288" version="4" timestamp="2010-08-18T19:38:56Z" uid="39304" user="tuts" changeset="5529862">
    <nd ref="242705215"/>
    <nd ref="242705217"/>
    <nd ref="242705218"/>
    <nd ref="242705219"/>
    <nd ref="867318522"/>
    <nd ref="242705220"/>
    <nd ref="242705221"/>
    <nd ref="242705222"/>
    <nd ref="242705223"/>
    <nd ref="242705224"/>
    <nd ref="242705225"/>
    <nd ref="242705226"/>
    <nd ref="242705227"/>
    <nd ref="242705228"/>
    <nd ref="242705231"/>
    <nd ref="242705233"/>
    <nd ref="242705235"/>
    <tag k="created_by" v="Potlatch 0.8c"/>
    <tag k="highway" v="cycleway"/>
  </way>
  <way id="22633288" version="5" timestamp="2010-08-19T08:17:26Z" uid="157967" user="roema" changeset="5533391">
    <nd ref="242705215"/>
    <nd ref="242705217"/>
    <nd ref="242705218"/>
    <nd ref="242705219"/>
    <nd ref="867318522"/>
    <nd ref="242705220"/>
    <nd ref="242705221"/>
    <nd ref="868151184"/>
    <nd ref="242705222"/>
    <nd ref="242705223"/>
    <nd ref="242705224"/>
    <nd ref="242705225"/>
    <nd ref="242705226"/>
    <nd ref="242705227"/>
    <nd ref="242705228"/>
    <nd ref="242705231"/>
    <nd ref="242705233"/>
    <nd ref="242705235"/>
    <tag k="highway" v="cycleway"/>
  </way>
  <way id="22633288" version="6" timestamp="2010-08-20T15:21:19Z" uid="212553" user="ARWIE" changeset="5544752">
    <nd ref="242705215"/>
    <nd ref="242705217"/>
    <nd ref="242705218"/>
    <nd ref="242705219"/>
    <nd ref="867318522"/>
    <nd ref="242705220"/>
    <nd ref="242705221"/>
    <nd ref="868151184"/>
    <nd ref="242705222"/>
    <nd ref="242705223"/>
    <nd ref="242705224"/>
    <nd ref="242705225"/>
    <nd ref="242705226"/>
    <nd ref="242705227"/>
    <nd ref="242705228"/>
    <nd ref="242705233"/>
    <tag k="highway" v="cycleway"/>
  </way>
  <way id="22633288" version="7" timestamp="2010-08-26T06:22:36Z" uid="157967" user="roema" changeset="5595995">
    <nd ref="242705215"/>
    <nd ref="242705217"/>
    <nd ref="242705218"/>
    <nd ref="242705219"/>
    <nd ref="867318522"/>
    <nd ref="242705220"/>
    <nd ref="242705221"/>
    <nd ref="868151184"/>
    <nd ref="242705222"/>
    <nd ref="242705223"/>
    <nd ref="242705224"/>
    <nd ref="242705225"/>
    <nd ref="242705226"/>
    <nd ref="242705227"/>
    <nd ref="242705228"/>
    <nd ref="880178654"/>
    <nd ref="242705233"/>
    <tag k="highway" v="cycleway"/>
  </way>
  <way id="22633291" version="2" timestamp="2010-07-08T02:07:36Z" uid="74617" user="JohnSmith" changeset="5162525">
    <nd ref="242705254"/>
    <nd ref="242705346"/>
    <nd ref="242705347"/>
    <tag k="highway" v="residential"/>
    <tag k="maxspeed" v="50"/>
    <tag k="maxspeed:source" v="default residential speed limit in Australia"/>
    <tag k="name" v="Alice Street North"/>
  </way>
  <way id="22633291" version="3" timestamp="2012-01-15T22:33:46Z" uid="147510" user="woodpeck_fixbot" changeset="10402983">
    <nd ref="242705254"/>
    <nd ref="242705346"/>
    <nd ref="242705347"/>
    <tag k="highway" v="residential"/>
    <tag k="name" v="Alice Street North"/>
  </way>
  <way id="22633295" version="5" timestamp="2010-01-26T02:33:17Z" uid="30201" user="rrankin" changeset="3716457">
    <nd ref="242705347"/>
    <nd ref="242705434"/>
    <nd ref="242705435"/>
    <nd ref="242705436"/>
    <nd ref="242705437"/>
    <nd ref="242705438"/>
    <nd ref="242705439"/>
    <nd ref="242705440"/>
    <nd ref="242705441"/>
    <nd ref="242705442"/>
    <nd ref="620345181"/>
    <nd ref="620345179"/>
    <nd ref="242705443"/>
    <nd ref="242707935"/>
    <nd ref="242708050"/>
    <nd ref="242708128"/>
    <nd ref="242705444"/>
    <tag k="highway" v="residential"/>
    <tag k="name" v="Railway Parade"/>
  </way>
  <way id="22633295" version="6" timestamp="2010-02-01T12:10:00Z" uid="7617" user="Franc" changeset="3766993">
    <nd ref="242705347"/>
    <nd ref="242705434"/>
    <nd ref="242705435"/>
    <nd ref="242705436"/>
    <nd ref="242705437"/>
    <nd ref="242705438"/>
    <nd ref="242705439"/>
    <nd ref="242705440"/>
    <nd ref="242705441"/>
    <nd ref="625393851"/>
    <nd ref="242705442"/>
    <nd ref="620345181"/>
    <nd ref="620345179"/>
    <nd ref="242705443"/>
    <nd ref="242707935"/>
    <nd ref="242708050"/>
    <nd ref="242708128"/>
    <nd ref="242705444"/>
    <tag k="highway" v="residential"/>
    <tag k="name" v="Railway Parade"/>
  </way>
  <way id="22633295" version="7" timestamp="2010-07-08T02:12:23Z" uid="74617" user="JohnSmith" changeset="5162525">
    <nd ref="242705347"/>
    <nd ref="242705434"/>
    <nd ref="242705435"/>
    <nd ref="242705436"/>
    <nd ref="242705437"/>
    <nd ref="242705438"/>
    <nd ref="242705439"/>
    <nd ref="242705440"/>
    <nd ref="242705441"/>
    <nd ref="625393851"/>
    <nd ref="242705442"/>
    <nd ref="620345181"/>
    <nd ref="620345179"/>
    <nd ref="242705443"/>
    <nd ref="242707935"/>
    <nd ref="242708050"/>
    <nd ref="242708128"/>
    <nd ref="242705444"/>
    <tag k="highway" v="residential"/>
    <tag k="maxspeed" v="50"/>
    <tag k="maxspeed:source" v="default residential speed limit in Australia"/>
    <tag k="name" v="Railway Parade"/>
  </way>
  <way id="22633295" version="8" timestamp="2012-01-15T22:33:47Z" uid="147510" user="woodpeck_fixbot" changeset="10402983">
    <nd ref="242705347"/>
    <nd ref="242705434"/>
    <nd ref="242705435"/>
    <nd ref="242705436"/>
    <nd ref="242705437"/>
    <nd ref="242705438"/>
    <nd ref="242705439"/>
    <nd ref="242705440"/>
    <nd ref="242705441"/>
    <nd ref="625393851"/>
    <nd ref="242705442"/>
    <nd ref="620345181"/>
    <nd ref="620345179"/>
    <nd ref="242705443"/>
    <nd ref="242707935"/>
    <nd ref="242708050"/>
    <nd ref="242708128"/>
    <nd ref="242705444"/>
    <tag k="highway" v="residential"/>
    <tag k="name" v="Railway Parade"/>
  </way>
  <way id="22633295" version="9" timestamp="2012-03-28T04:14:57Z" uid="7523" user="inas" changeset="11122604">
    <nd ref="242705347"/>
    <nd ref="242705434"/>
    <nd ref="242705435"/>
    <nd ref="242705436"/>
    <nd ref="242705437"/>
    <nd ref="242705438"/>
    <nd ref="242705439"/>
    <nd ref="242705440"/>
    <nd ref="242705441"/>
    <nd ref="242705442"/>
    <nd ref="620345181"/>
    <nd ref="620345179"/>
    <nd ref="242705443"/>
    <nd ref="242707935"/>
    <nd ref="242708050"/>
    <nd ref="242708128"/>
    <nd ref="242705444"/>
    <tag k="highway" v="residential"/>
    <tag k="name" v="Railway Parade"/>
  </way>
  <way id="22633296" version="2" timestamp="2010-07-08T02:09:30Z" uid="74617" user="JohnSmith" changeset="5162525">
    <nd ref="242705436"/>
    <nd ref="242705478"/>
    <tag k="highway" v="residential"/>
    <tag k="maxspeed" v="50"/>
    <tag k="maxspeed:source" v="default residential speed limit in Australia"/>
    <tag k="name" v="Ernest Street North"/>
  </way>
  <way id="22633296" version="3" timestamp="2012-01-15T22:33:49Z" uid="147510" user="woodpeck_fixbot" changeset="10402983">
    <nd ref="242705436"/>
    <nd ref="242705478"/>
    <tag k="highway" v="residential"/>
    <tag k="name" v="Ernest Street North"/>
  </way>
  <way id="22633297" version="2" timestamp="2008-08-17T14:38:27Z" uid="20587" user="balrog-kun" changeset="290382">
    <nd ref="242705481"/>
    <nd ref="26413769"/>
    <nd ref="26414071"/>
    <nd ref="17494550"/>
    <nd ref="26617383"/>
    <nd ref="288787108"/>
    <tag k="bridge" v="no"/>
    <tag k="created_by" v="Potlatch 0.6c"/>
    <tag k="layer" v="1"/>
    <tag k="name" v="Midland Main Line"/>
    <tag k="railway" v="rail"/>
  </way>
  <way id="22633297" version="3" timestamp="2011-03-12T23:10:06Z" uid="4951" user="PeterIto" changeset="7539396">
    <nd ref="242705481"/>
    <nd ref="26413769"/>
    <nd ref="26414071"/>
    <nd ref="17494550"/>
    <nd ref="26617383"/>
    <nd ref="288787108"/>
    <tag k="bridge" v="no"/>
    <tag k="name" v="Midland Main Line"/>
    <tag k="railway" v="rail"/>
  </way>
  <way id="22633297" version="4" timestamp="2011-04-07T10:51:27Z" uid="4951" user="PeterIto" changeset="7793354">
    <nd ref="242705481"/>
    <nd ref="26413769"/>
    <nd ref="26414071"/>
    <nd ref="17494550"/>
    <nd ref="26617383"/>
    <nd ref="288787108"/>
    <tag k="name" v="Midland Main Line"/>
    <tag k="railway" v="rail"/>
  </way>
  <way id="22633297" version="5" timestamp="2011-10-23T08:28:49Z" uid="458747" user="The Islander" changeset="9630252">
    <nd ref="242705481"/>
    <nd ref="26413769"/>
    <nd ref="26414071"/>
    <nd ref="17494550"/>
    <nd ref="26617383"/>
    <nd ref="288787108"/>
    <tag k="electrified" v="contact_line"/>
    <tag k="name" v="Midland Main Line"/>
    <tag k="railway" v="rail"/>
  </way>
  <way id="22633297" version="6" timestamp="2011-10-30T12:08:30Z" uid="42429" user="FK270673" changeset="9692950">
    <nd ref="242705481"/>
    <nd ref="26413769"/>
    <nd ref="26414071"/>
    <nd ref="17494550"/>
    <nd ref="26617383"/>
    <nd ref="288787108"/>
    <tag k="electrified" v="contact_line"/>
    <tag k="frequency" v="50"/>
    <tag k="gauge" v="1435"/>
    <tag k="name" v="Midland Main Line"/>
    <tag k="railway" v="rail"/>
    <tag k="voltage" v="25000"/>
  </way>
  <way id="22633297" version="7" timestamp="2011-12-01T22:07:14Z" uid="1337" user="OJW" changeset="10012718">
    <nd ref="242705481"/>
    <nd ref="26413769"/>
    <nd ref="26414071"/>
    <nd ref="17494550"/>
    <nd ref="1527239153"/>
    <nd ref="26617383"/>
    <nd ref="288787108"/>
    <tag k="electrified" v="contact_line"/>
    <tag k="frequency" v="50"/>
    <tag k="gauge" v="1435"/>
    <tag k="name" v="Midland Main Line"/>
    <tag k="railway" v="rail"/>
    <tag k="voltage" v="25000"/>
  </way>
  <way id="22633300" version="4" timestamp="2009-06-25T03:43:03Z" uid="74617" user="JohnSmith" changeset="1618009">
    <nd ref="254517832"/>
    <nd ref="242705485"/>
    <nd ref="242705487"/>
    <nd ref="242705490"/>
    <nd ref="242705492"/>
    <nd ref="249342458"/>
    <nd ref="242705496"/>
    <nd ref="242705498"/>
    <nd ref="242705501"/>
    <nd ref="242705503"/>
    <nd ref="242705505"/>
    <nd ref="242705507"/>
    <tag k="highway" v="tertiary"/>
    <tag k="name" v="Cooinda Street"/>
  </way>
  <way id="22633300" version="5" timestamp="2009-06-26T07:27:36Z" uid="74617" user="JohnSmith" changeset="1636262">
    <nd ref="254517832"/>
    <nd ref="242705485"/>
    <nd ref="242705487"/>
    <nd ref="242705490"/>
    <nd ref="242705492"/>
    <nd ref="249342458"/>
    <nd ref="429429613"/>
    <nd ref="242705496"/>
    <nd ref="242705498"/>
    <nd ref="242705501"/>
    <nd ref="242705503"/>
    <nd ref="242705505"/>
    <nd ref="242705507"/>
    <tag k="highway" v="tertiary"/>
    <tag k="name" v="Cooinda Street"/>
  </way>
  <way id="22633300" version="6" timestamp="2009-07-22T05:46:28Z" uid="74617" user="JohnSmith" changeset="1901351">
    <nd ref="254517832"/>
    <nd ref="242705485"/>
    <nd ref="242705487"/>
    <nd ref="242705490"/>
    <nd ref="242705492"/>
    <nd ref="249342458"/>
    <nd ref="429429613"/>
    <nd ref="242705496"/>
    <nd ref="242705498"/>
    <nd ref="242705501"/>
    <nd ref="242705503"/>
    <nd ref="242705505"/>
    <nd ref="242705507"/>
    <tag k="highway" v="tertiary"/>
    <tag k="name" v="Cooinda Street"/>
    <tag k="surface" v="paved"/>
  </way>
  <way id="22633300" version="7" timestamp="2009-07-22T05:49:09Z" uid="74617" user="JohnSmith" changeset="1901361">
    <nd ref="254517832"/>
    <nd ref="242705485"/>
    <nd ref="242705487"/>
    <nd ref="242705490"/>
    <nd ref="242705492"/>
    <nd ref="249342458"/>
    <nd ref="429429613"/>
    <nd ref="242705496"/>
    <nd ref="445309044"/>
    <tag k="highway" v="tertiary"/>
    <tag k="maxspeed" v="50"/>
    <tag k="name" v="Cooinda Street"/>
    <tag k="source" v="survey"/>
    <tag k="surface" v="paved"/>
  </way>
  <way id="22633300" version="8" timestamp="2012-01-15T22:33:50Z" uid="147510" user="woodpeck_fixbot" changeset="10402983">
    <nd ref="254517832"/>
    <nd ref="242705485"/>
    <nd ref="242705487"/>
    <nd ref="242705490"/>
    <nd ref="242705492"/>
    <nd ref="249342458"/>
    <nd ref="429429613"/>
    <nd ref="242705496"/>
    <nd ref="445309044"/>
    <tag k="highway" v="tertiary"/>
    <tag k="name" v="Cooinda Street"/>
    <tag k="source" v="survey"/>
    <tag k="surface" v="paved"/>
  </way>
  <way id="22633301" version="2" timestamp="2010-07-08T02:10:19Z" uid="74617" user="JohnSmith" changeset="5162525">
    <nd ref="242705439"/>
    <nd ref="242705520"/>
    <tag k="highway" v="residential"/>
    <tag k="maxspeed" v="50"/>
    <tag k="maxspeed:source" v="default residential speed limit in Australia"/>
    <tag k="name" v="Bellevue Avenue"/>
  </way>
  <way id="22633301" version="3" timestamp="2012-01-15T22:33:51Z" uid="147510" user="woodpeck_fixbot" changeset="10402983">
    <nd ref="242705439"/>
    <nd ref="242705520"/>
    <tag k="highway" v="residential"/>
    <tag k="name" v="Bellevue Avenue"/>
  </way>
  <way id="22633309" version="2" timestamp="2010-07-08T02:12:52Z" uid="74617" user="JohnSmith" changeset="5162525">
    <nd ref="242705572"/>
    <nd ref="242705442"/>
    <tag k="highway" v="residential"/>
    <tag k="maxspeed" v="50"/>
    <tag k="maxspeed:source" v="default residential speed limit in Australia"/>
    <tag k="name" v="Croydon Street North"/>
  </way>
  <way id="22633309" version="3" timestamp="2012-01-15T22:33:51Z" uid="147510" user="woodpeck_fixbot" changeset="10402983">
    <nd ref="242705572"/>
    <nd ref="242705442"/>
    <tag k="highway" v="residential"/>
    <tag k="name" v="Croydon Street North"/>
  </way>
  <way id="22633319" version="2" timestamp="2010-07-08T02:12:48Z" uid="74617" user="JohnSmith" changeset="5162525">
    <nd ref="242705685"/>
    <nd ref="242705790"/>
    <tag k="highway" v="residential"/>
    <tag k="maxspeed" v="50"/>
    <tag k="maxspeed:source" v="default residential speed limit in Australia"/>
    <tag k="name" v="Hillard Street"/>
  </way>
  <way id="22633319" version="3" timestamp="2012-01-15T22:33:52Z" uid="147510" user="woodpeck_fixbot" changeset="10402983">
    <nd ref="242705685"/>
    <nd ref="242705790"/>
    <tag k="highway" v="residential"/>
    <tag k="name" v="Hillard Street"/>
  </way>
  <way id="22633330" version="2" timestamp="2010-07-08T02:13:35Z" uid="74617" user="JohnSmith" changeset="5162525">
    <nd ref="242705254"/>
    <nd ref="242705943"/>
    <tag k="highway" v="residential"/>
    <tag k="maxspeed" v="50"/>
    <tag k="maxspeed:source" v="default residential speed limit in Australia"/>
    <tag k="name" v="McCourtStreet"/>
  </way>
  <way id="22633330" version="3" timestamp="2011-02-17T05:15:38Z" uid="389517" user="good2010" changeset="7309896">
    <nd ref="242705254"/>
    <nd ref="1157165055"/>
    <nd ref="242705943"/>
    <tag k="highway" v="residential"/>
    <tag k="maxspeed" v="50"/>
    <tag k="maxspeed:source" v="default residential speed limit in Australia"/>
    <tag k="name" v="McCourtStreet"/>
  </way>
  <way id="22633330" version="4" timestamp="2012-01-15T22:33:53Z" uid="147510" user="woodpeck_fixbot" changeset="10402983">
    <nd ref="242705254"/>
    <nd ref="1157165055"/>
    <nd ref="242705943"/>
    <tag k="highway" v="residential"/>
    <tag k="name" v="McCourtStreet"/>
  </way>
  <way id="22633340" version="2" timestamp="2010-07-08T02:13:03Z" uid="74617" user="JohnSmith" changeset="5162525">
    <nd ref="242705951"/>
    <nd ref="242706125"/>
    <nd ref="242706126"/>
    <tag k="highway" v="residential"/>
    <tag k="maxspeed" v="50"/>
    <tag k="maxspeed:source" v="default residential speed limit in Australia"/>
    <tag k="name" v="Fairmount Street"/>
  </way>
  <way id="22633340" version="3" timestamp="2012-01-15T22:33:54Z" uid="147510" user="woodpeck_fixbot" changeset="10402983">
    <nd ref="242705951"/>
    <nd ref="242706125"/>
    <nd ref="242706126"/>
    <tag k="highway" v="residential"/>
    <tag k="name" v="Fairmount Street"/>
  </way>
  <way id="22633348" version="2" timestamp="2010-07-08T02:11:59Z" uid="74617" user="JohnSmith" changeset="5162525">
    <nd ref="242706145"/>
    <nd ref="242706252"/>
    <nd ref="242706254"/>
    <tag k="highway" v="residential"/>
    <tag k="maxspeed" v="50"/>
    <tag k="maxspeed:source" v="default residential speed limit in Australia"/>
    <tag k="name" v="Colin Street"/>
  </way>
  <way id="22633348" version="3" timestamp="2012-01-15T22:33:55Z" uid="147510" user="woodpeck_fixbot" changeset="10402983">
    <nd ref="242706145"/>
    <nd ref="242706252"/>
    <nd ref="242706254"/>
    <tag k="highway" v="residential"/>
    <tag k="name" v="Colin Street"/>
  </way>
  <way id="22633350" version="2" timestamp="2010-07-08T02:13:01Z" uid="74617" user="JohnSmith" changeset="5162525">
    <nd ref="242706252"/>
    <nd ref="242706327"/>
    <tag k="highway" v="residential"/>
    <tag k="maxspeed" v="50"/>
    <tag k="maxspeed:source" v="default residential speed limit in Australia"/>
    <tag k="name" v="Emma Street"/>
  </way>
  <way id="22633350" version="3" timestamp="2012-01-15T22:33:56Z" uid="147510" user="woodpeck_fixbot" changeset="10402983">
    <nd ref="242706252"/>
    <nd ref="242706327"/>
    <tag k="highway" v="residential"/>
    <tag k="name" v="Emma Street"/>
  </way>
  <way id="22633355" version="2" timestamp="2010-07-08T02:06:50Z" uid="74617" user="JohnSmith" changeset="5162525">
    <nd ref="242706387"/>
    <nd ref="242706519"/>
    <nd ref="242706520"/>
    <tag k="highway" v="residential"/>
    <tag k="maxspeed" v="50"/>
    <tag k="maxspeed:source" v="default residential speed limit in Australia"/>
    <tag k="name" v="MacDonald Street"/>
  </way>
  <way id="22633355" version="3" timestamp="2012-01-15T22:33:56Z" uid="147510" user="woodpeck_fixbot" changeset="10402983">
    <nd ref="242706387"/>
    <nd ref="242706519"/>
    <nd ref="242706520"/>
    <tag k="highway" v="residential"/>
    <tag k="name" v="MacDonald Street"/>
  </way>
  <way id="22633357" version="2" timestamp="2010-07-08T02:10:45Z" uid="74617" user="JohnSmith" changeset="5162525">
    <nd ref="242706519"/>
    <nd ref="242706629"/>
    <nd ref="242706630"/>
    <tag k="highway" v="residential"/>
    <tag k="maxspeed" v="50"/>
    <tag k="maxspeed:source" v="default residential speed limit in Australia"/>
    <tag k="name" v="Holland Place"/>
  </way>
  <way id="22633357" version="3" timestamp="2012-01-15T22:33:57Z" uid="147510" user="woodpeck_fixbot" changeset="10402983">
    <nd ref="242706519"/>
    <nd ref="242706629"/>
    <nd ref="242706630"/>
    <tag k="highway" v="residential"/>
    <tag k="name" v="Holland Place"/>
  </way>
  <way id="22633358" version="3" timestamp="2010-07-08T02:08:51Z" uid="74617" user="JohnSmith" changeset="5162525">
    <nd ref="242706639"/>
    <nd ref="242707308"/>
    <nd ref="242706776"/>
    <tag k="highway" v="residential"/>
    <tag k="maxspeed" v="50"/>
    <tag k="maxspeed:source" v="default residential speed limit in Australia"/>
    <tag k="name" v="Hampden Road"/>
  </way>
  <way id="22633358" version="4" timestamp="2011-05-01T11:08:21Z" uid="7617" user="Franc" changeset="8019962">
    <nd ref="242706639"/>
    <nd ref="1268688832"/>
    <tag k="highway" v="residential"/>
    <tag k="maxspeed" v="50"/>
    <tag k="maxspeed:source" v="default residential speed limit in Australia"/>
    <tag k="name" v="Hampden Road"/>
  </way>
  <way id="22633358" version="5" timestamp="2012-01-15T22:33:58Z" uid="147510" user="woodpeck_fixbot" changeset="10402983">
    <nd ref="242706639"/>
    <nd ref="1268688832"/>
    <tag k="highway" v="residential"/>
    <tag k="name" v="Hampden Road"/>
  </way>
  <way id="22633366" version="2" timestamp="2011-05-01T11:08:20Z" uid="7617" user="Franc" changeset="8019962">
    <nd ref="242707216"/>
    <nd ref="242707217"/>
    <nd ref="242707218"/>
    <nd ref="1268688797"/>
    <nd ref="1268688827"/>
    <nd ref="242707219"/>
    <nd ref="242707220"/>
    <nd ref="242707221"/>
    <nd ref="242707216"/>
    <tag k="amenity" v="school"/>
    <tag k="layer" v="-1"/>
    <tag k="name" v="Hampden Park Primary"/>
  </way>
  <way id="22633376" version="4" timestamp="2010-02-01T13:48:02Z" uid="7617" user="Franc" changeset="3767712">
    <nd ref="242707418"/>
    <nd ref="242707782"/>
    <nd ref="625581381"/>
    <nd ref="625581383"/>
    <nd ref="26428516"/>
    <tag k="highway" v="tertiary"/>
    <tag k="lcn" v="yes"/>
    <tag k="name" v="Wangee Road"/>
    <tag k="source" v="survey"/>
  </way>
  <way id="22633376" version="5" timestamp="2011-05-01T11:08:19Z" uid="7617" user="Franc" changeset="8019962">
    <nd ref="242707418"/>
    <nd ref="1268688845"/>
    <tag k="highway" v="tertiary"/>
    <tag k="lcn" v="yes"/>
    <tag k="name" v="Wangee Road"/>
    <tag k="source" v="survey"/>
  </way>
  <way id="22633380" version="2" timestamp="2010-07-08T02:08:14Z" uid="74617" user="JohnSmith" changeset="5162525">
    <nd ref="242707935"/>
    <nd ref="242708031"/>
    <tag k="highway" v="residential"/>
    <tag k="maxspeed" v="50"/>
    <tag k="maxspeed:source" v="default residential speed limit in Australia"/>
    <tag k="name" v="Quigg Street North"/>
  </way>
  <way id="22633380" version="3" timestamp="2012-01-15T22:33:59Z" uid="147510" user="woodpeck_fixbot" changeset="10402983">
    <nd ref="242707935"/>
    <nd ref="242708031"/>
    <tag k="highway" v="residential"/>
    <tag k="name" v="Quigg Street North"/>
  </way>
  <way id="22633384" version="2" timestamp="2010-07-08T02:12:56Z" uid="74617" user="JohnSmith" changeset="5162525">
    <nd ref="242708050"/>
    <nd ref="242708110"/>
    <tag k="highway" v="residential"/>
    <tag k="maxspeed" v="50"/>
    <tag k="maxspeed:source" v="default residential speed limit in Australia"/>
    <tag k="name" v="Dennis Street"/>
  </way>
  <way id="22633384" version="3" timestamp="2012-01-15T22:34:00Z" uid="147510" user="woodpeck_fixbot" changeset="10402983">
    <nd ref="242708050"/>
    <nd ref="242708110"/>
    <tag k="highway" v="residential"/>
    <tag k="name" v="Dennis Street"/>
  </way>
  <way id="22633388" version="2" timestamp="2010-07-08T02:10:54Z" uid="74617" user="JohnSmith" changeset="5162525">
    <nd ref="242708128"/>
    <nd ref="242708258"/>
    <tag k="highway" v="residential"/>
    <tag k="maxspeed" v="50"/>
    <tag k="maxspeed:source" v="default residential speed limit in Australia"/>
    <tag k="name" v="Taylor Street"/>
  </way>
  <way id="22633388" version="3" timestamp="2012-01-15T22:34:01Z" uid="147510" user="woodpeck_fixbot" changeset="10402983">
    <nd ref="242708128"/>
    <nd ref="242708258"/>
    <tag k="highway" v="residential"/>
    <tag k="name" v="Taylor Street"/>
  </way>
  <way id="22633392" version="5" timestamp="2009-02-23T13:35:09Z" uid="34428" user="usm78-gis" changeset="634299"/>
  <way id="22633405" version="2" timestamp="2008-05-20T15:09:34Z" uid="34428" user="usm78-gis" changeset="485514">
    <nd ref="242708007"/>
    <nd ref="242708008"/>
    <tag k="created_by" v="Potlatch 0.6a"/>
    <tag k="highway" v="residential"/>
    <tag k="name" v="Копорского полка ул."/>
  </way>
  <way id="22633405" version="3" timestamp="2009-04-30T08:42:10Z" uid="23255" user="mea_john" changeset="1024246"/>
  <way id="22633412" version="2" timestamp="2008-05-20T15:09:31Z" uid="34428" user="usm78-gis" changeset="485514">
    <nd ref="242158130"/>
    <nd ref="242158131"/>
    <tag k="created_by" v="Potlatch 0.6a"/>
    <tag k="highway" v="residential"/>
    <tag k="name" v="Молодежная ул."/>
  </way>
  <way id="22633412" version="3" timestamp="2009-04-30T08:42:05Z" uid="23255" user="mea_john" changeset="1024246">
    <nd ref="242708403"/>
    <nd ref="241915271"/>
    <nd ref="217305305"/>
    <nd ref="217305304"/>
    <nd ref="217305303"/>
    <nd ref="217305302"/>
    <nd ref="217305299"/>
    <nd ref="217305298"/>
    <nd ref="242708051"/>
    <nd ref="242708049"/>
    <nd ref="217619092"/>
    <nd ref="217619094"/>
    <nd ref="221399760"/>
    <nd ref="217619096"/>
    <nd ref="217619097"/>
    <nd ref="253893594"/>
    <nd ref="217620717"/>
    <nd ref="217620719"/>
    <nd ref="221402471"/>
    <nd ref="217620722"/>
    <nd ref="217620726"/>
    <nd ref="217620731"/>
    <nd ref="221396086"/>
    <nd ref="217620738"/>
    <nd ref="217620740"/>
    <nd ref="219090662"/>
    <nd ref="217620744"/>
    <nd ref="242158130"/>
    <nd ref="242158131"/>
    <nd ref="217620746"/>
    <nd ref="217620750"/>
    <nd ref="243071461"/>
    <nd ref="217620753"/>
    <nd ref="217620756"/>
    <nd ref="217620758"/>
    <nd ref="250475761"/>
    <nd ref="217620762"/>
    <nd ref="217620764"/>
    <nd ref="217620767"/>
    <nd ref="217620769"/>
    <nd ref="217620771"/>
    <nd ref="242708021"/>
    <nd ref="242708012"/>
    <nd ref="217620773"/>
    <nd ref="217620774"/>
    <nd ref="217620775"/>
    <nd ref="217620777"/>
    <nd ref="217620778"/>
    <nd ref="217620940"/>
    <nd ref="219081655"/>
    <nd ref="219081656"/>
    <nd ref="219081657"/>
    <nd ref="219081658"/>
    <nd ref="219081660"/>
    <nd ref="219081661"/>
    <nd ref="219084770"/>
    <nd ref="219084777"/>
    <nd ref="219084779"/>
    <tag k="created_by" v="Potlatch 0.6a"/>
    <tag k="highway" v="secondary"/>
    <tag k="name" v="Молодежная ул."/>
  </way>
  <way id="22633412" version="4" timestamp="2009-04-30T09:08:56Z" uid="23255" user="mea_john" changeset="1024477">
    <nd ref="242708403"/>
    <nd ref="241915271"/>
    <nd ref="217305305"/>
    <nd ref="217305304"/>
    <nd ref="217305303"/>
    <nd ref="217305302"/>
    <nd ref="217305299"/>
    <nd ref="217305298"/>
    <nd ref="242708051"/>
    <nd ref="242708049"/>
    <nd ref="217619092"/>
    <nd ref="217619094"/>
    <nd ref="221399760"/>
    <nd ref="217619096"/>
    <nd ref="217619097"/>
    <nd ref="253893594"/>
    <nd ref="217620717"/>
    <nd ref="217620719"/>
    <nd ref="221402471"/>
    <nd ref="217620722"/>
    <nd ref="217620726"/>
    <nd ref="217620731"/>
    <nd ref="221396086"/>
    <nd ref="217620738"/>
    <nd ref="217620740"/>
    <nd ref="219090662"/>
    <nd ref="217620744"/>
    <nd ref="242158130"/>
    <nd ref="242158131"/>
    <nd ref="217620746"/>
    <nd ref="217620750"/>
    <nd ref="243071461"/>
    <nd ref="217620753"/>
    <nd ref="217620756"/>
    <nd ref="217620758"/>
    <nd ref="250475761"/>
    <nd ref="217620762"/>
    <nd ref="217620764"/>
    <nd ref="217620767"/>
    <nd ref="217620769"/>
    <nd ref="217620771"/>
    <nd ref="242708021"/>
    <nd ref="242708012"/>
    <nd ref="217620773"/>
    <nd ref="217620774"/>
    <nd ref="217620775"/>
    <nd ref="217620777"/>
    <nd ref="217620778"/>
    <nd ref="217620940"/>
    <nd ref="219081655"/>
    <nd ref="219081656"/>
    <nd ref="219081657"/>
    <nd ref="219081658"/>
    <nd ref="219081660"/>
    <nd ref="219081661"/>
    <nd ref="219084770"/>
    <nd ref="219084777"/>
    <nd ref="219084779"/>
    <tag k="created_by" v="Potlatch 0.6a"/>
    <tag k="highway" v="residential"/>
    <tag k="name" v="Молодежная ул."/>
  </way>
  <way id="22633412" version="5" timestamp="2009-05-07T11:14:58Z" uid="23255" user="mea_john" changeset="1106065">
    <nd ref="242708403"/>
    <nd ref="241915271"/>
    <nd ref="217305305"/>
    <nd ref="217305304"/>
    <nd ref="217305303"/>
    <nd ref="217305302"/>
    <nd ref="217305299"/>
    <nd ref="217305298"/>
    <nd ref="242708051"/>
    <nd ref="242708049"/>
    <nd ref="217619092"/>
    <nd ref="217619094"/>
    <nd ref="221399760"/>
    <nd ref="217619096"/>
    <nd ref="217619097"/>
    <nd ref="253893594"/>
    <nd ref="217620717"/>
    <nd ref="217620719"/>
    <nd ref="221402471"/>
    <nd ref="217620722"/>
    <nd ref="217620726"/>
    <nd ref="217620731"/>
    <nd ref="221396086"/>
    <nd ref="217620738"/>
    <nd ref="217620740"/>
    <nd ref="219090662"/>
    <nd ref="217620744"/>
    <nd ref="242158130"/>
    <nd ref="242158131"/>
    <nd ref="217620746"/>
    <nd ref="217620750"/>
    <nd ref="243071461"/>
    <nd ref="217620753"/>
    <nd ref="217620756"/>
    <nd ref="217620758"/>
    <nd ref="250475761"/>
    <nd ref="217620762"/>
    <nd ref="217620764"/>
    <nd ref="217620767"/>
    <nd ref="217620769"/>
    <nd ref="217620771"/>
    <nd ref="242708021"/>
    <nd ref="242708012"/>
    <nd ref="217620773"/>
    <nd ref="217620774"/>
    <nd ref="217620775"/>
    <nd ref="217620777"/>
    <nd ref="217620940"/>
    <nd ref="219081655"/>
    <nd ref="219081656"/>
    <nd ref="219081657"/>
    <nd ref="219081658"/>
    <nd ref="219081660"/>
    <nd ref="219081661"/>
    <nd ref="219084770"/>
    <nd ref="219084777"/>
    <nd ref="219084779"/>
    <tag k="created_by" v="Potlatch 0.6a"/>
    <tag k="highway" v="residential"/>
    <tag k="name" v="Молодежная ул."/>
  </way>
  <way id="22633412" version="6" timestamp="2009-07-17T11:44:46Z" uid="23255" user="mea_john" changeset="1853532">
    <nd ref="242708403"/>
    <nd ref="241915271"/>
    <nd ref="217305305"/>
    <nd ref="217305304"/>
    <nd ref="217305303"/>
    <nd ref="217305302"/>
    <nd ref="217305299"/>
    <nd ref="217305298"/>
    <nd ref="242708051"/>
    <nd ref="242708049"/>
    <nd ref="217619092"/>
    <nd ref="217619094"/>
    <nd ref="221399760"/>
    <nd ref="217619096"/>
    <nd ref="217619097"/>
    <nd ref="253893594"/>
    <nd ref="217620717"/>
    <nd ref="217620719"/>
    <nd ref="221402471"/>
    <nd ref="217620722"/>
    <nd ref="217620726"/>
    <nd ref="217620731"/>
    <nd ref="221396086"/>
    <nd ref="217620738"/>
    <nd ref="217620740"/>
    <nd ref="219090662"/>
    <nd ref="217620744"/>
    <nd ref="242158130"/>
    <tag k="highway" v="residential"/>
    <tag k="name" v="Молодежная ул."/>
  </way>
  <way id="22633412" version="7" timestamp="2009-07-24T09:56:56Z" uid="23255" user="mea_john" changeset="1923543">
    <nd ref="242708403"/>
    <nd ref="241915271"/>
    <nd ref="217305305"/>
    <nd ref="217305304"/>
    <nd ref="217305303"/>
    <nd ref="217305302"/>
    <nd ref="217305299"/>
    <nd ref="217305298"/>
    <nd ref="242708051"/>
    <nd ref="242708049"/>
    <nd ref="217619092"/>
    <nd ref="217619094"/>
    <nd ref="221399760"/>
    <nd ref="217619096"/>
    <nd ref="217619097"/>
    <nd ref="253893594"/>
    <nd ref="217620717"/>
    <nd ref="217620719"/>
    <nd ref="221402471"/>
    <nd ref="217620722"/>
    <nd ref="217620726"/>
    <nd ref="217620731"/>
    <nd ref="221396086"/>
    <nd ref="217620738"/>
    <nd ref="217620740"/>
    <nd ref="219090662"/>
    <nd ref="217620744"/>
    <nd ref="242158130"/>
    <tag k="highway" v="secondary"/>
    <tag k="name" v="Молодежная ул."/>
  </way>
  <way id="22633412" version="8" timestamp="2009-07-31T02:50:54Z" uid="30590" user="KekcuHa" changeset="1990571">
    <nd ref="242708403"/>
    <nd ref="241915271"/>
    <nd ref="217305305"/>
    <nd ref="217305304"/>
    <nd ref="217305303"/>
    <nd ref="217305302"/>
    <nd ref="217305299"/>
    <nd ref="217305298"/>
    <nd ref="242708051"/>
    <nd ref="242708049"/>
    <nd ref="217619092"/>
    <nd ref="217619094"/>
    <nd ref="221399760"/>
    <nd ref="217619096"/>
    <nd ref="217619097"/>
    <nd ref="253893594"/>
    <nd ref="217620717"/>
    <nd ref="217620719"/>
    <nd ref="221402471"/>
    <nd ref="217620722"/>
    <nd ref="217620726"/>
    <nd ref="217620731"/>
    <nd ref="221396086"/>
    <nd ref="217620738"/>
    <nd ref="217620740"/>
    <nd ref="219090662"/>
    <nd ref="217620744"/>
    <nd ref="242158130"/>
    <tag k="addr:postcode" v="188544"/>
    <tag k="cladr:code" v="47000004000002000"/>
    <tag k="cladr:name" v="Молодежная"/>
    <tag k="cladr:suffix" v="Улица"/>
    <tag k="highway" v="secondary"/>
    <tag k="name" v="Молодежная ул."/>
  </way>
  <way id="22633412" version="9" timestamp="2009-10-22T04:05:23Z" uid="23255" user="mea_john" changeset="2918183">
    <nd ref="538153879"/>
    <nd ref="538153880"/>
    <nd ref="538153881"/>
    <nd ref="538153882"/>
    <nd ref="538153883"/>
    <nd ref="538153884"/>
    <nd ref="538153885"/>
    <nd ref="538153886"/>
    <nd ref="538153887"/>
    <nd ref="242708403"/>
    <tag k="highway" v="construction"/>
  </way>
  <way id="22633412" version="10" timestamp="2009-12-08T05:43:59Z" uid="23255" user="mea_john" changeset="3321949">
    <nd ref="538153879"/>
    <nd ref="538153880"/>
    <nd ref="538153881"/>
    <nd ref="538153882"/>
    <nd ref="538153883"/>
    <nd ref="538153884"/>
    <nd ref="538153885"/>
    <nd ref="538153886"/>
    <nd ref="538153887"/>
    <nd ref="242708403"/>
    <tag k="highway" v="secondary"/>
  </way>
  <way id="22633412" version="11" timestamp="2012-02-24T09:20:39Z" uid="433058" user="russianin" changeset="10776062">
    <nd ref="538153879"/>
    <nd ref="538153881"/>
    <nd ref="538153882"/>
    <tag k="highway" v="secondary"/>
  </way>
  <way id="22633413" version="3" timestamp="2009-02-23T13:09:48Z" uid="34428" user="usm78-gis" changeset="634299"/>
  <way id="22633414" version="4" timestamp="2009-02-23T13:25:18Z" uid="34428" user="usm78-gis" changeset="634299"/>
  <way id="22633415" version="5" timestamp="2009-02-23T12:35:59Z" uid="34428" user="usm78-gis" changeset="634299"/>
  <way id="22633416" version="4" timestamp="2009-02-23T13:18:15Z" uid="34428" user="usm78-gis" changeset="634299"/>
  <way id="22633417" version="4" timestamp="2009-02-23T12:31:24Z" uid="34428" user="usm78-gis" changeset="634299"/>
  <way id="22633418" version="6" timestamp="2009-02-23T12:47:37Z" uid="34428" user="usm78-gis" changeset="634299"/>
  <way id="22633423" version="4" timestamp="2010-01-26T04:02:38Z" uid="30201" user="rrankin" changeset="3716588">
    <nd ref="242708437"/>
    <nd ref="242708438"/>
    <nd ref="246186827"/>
    <nd ref="246187202"/>
    <nd ref="242708440"/>
    <tag k="highway" v="residential"/>
    <tag k="name" v="Railway Parade"/>
  </way>
  <way id="22633423" version="5" timestamp="2010-02-01T12:09:58Z" uid="7617" user="Franc" changeset="3766993">
    <nd ref="242708437"/>
    <nd ref="625393898"/>
    <nd ref="242708438"/>
    <nd ref="246186827"/>
    <nd ref="246187202"/>
    <nd ref="242708440"/>
    <tag k="highway" v="residential"/>
    <tag k="name" v="Railway Parade"/>
  </way>
  <way id="22633423" version="6" timestamp="2010-07-08T02:11:04Z" uid="74617" user="JohnSmith" changeset="5162525">
    <nd ref="242708437"/>
    <nd ref="625393898"/>
    <nd ref="242708438"/>
    <nd ref="246186827"/>
    <nd ref="246187202"/>
    <nd ref="242708440"/>
    <tag k="highway" v="residential"/>
    <tag k="maxspeed" v="50"/>
    <tag k="maxspeed:source" v="default residential speed limit in Australia"/>
    <tag k="name" v="Railway Parade"/>
  </way>
  <way id="22633423" version="7" timestamp="2012-01-15T22:34:02Z" uid="147510" user="woodpeck_fixbot" changeset="10402983">
    <nd ref="242708437"/>
    <nd ref="625393898"/>
    <nd ref="242708438"/>
    <nd ref="246186827"/>
    <nd ref="246187202"/>
    <nd ref="242708440"/>
    <tag k="highway" v="residential"/>
    <tag k="name" v="Railway Parade"/>
  </way>
  <way id="22633429" version="3" timestamp="2010-07-08T02:08:55Z" uid="74617" user="JohnSmith" changeset="5162525">
    <nd ref="242708438"/>
    <nd ref="246187094"/>
    <nd ref="242708472"/>
    <tag k="highway" v="residential"/>
    <tag k="maxspeed" v="50"/>
    <tag k="maxspeed:source" v="default residential speed limit in Australia"/>
    <tag k="name" v="Peel Street"/>
  </way>
  <way id="22633429" version="4" timestamp="2012-01-15T22:34:03Z" uid="147510" user="woodpeck_fixbot" changeset="10402983">
    <nd ref="242708438"/>
    <nd ref="246187094"/>
    <nd ref="242708472"/>
    <tag k="highway" v="residential"/>
    <tag k="name" v="Peel Street"/>
  </way>
  <way id="22633460" version="2" timestamp="2009-06-25T03:58:13Z" uid="74617" user="JohnSmith" changeset="1618025">
    <nd ref="238316457"/>
    <nd ref="242710177"/>
    <nd ref="242710189"/>
    <nd ref="242710200"/>
    <nd ref="242710211"/>
    <nd ref="242710223"/>
    <nd ref="242710233"/>
    <nd ref="242710242"/>
    <nd ref="242710253"/>
    <nd ref="242710265"/>
    <nd ref="242710277"/>
    <nd ref="242710288"/>
    <nd ref="242710300"/>
    <nd ref="242710312"/>
    <nd ref="242710323"/>
    <nd ref="242710336"/>
    <nd ref="242710346"/>
    <nd ref="242710358"/>
    <nd ref="242710371"/>
    <nd ref="242710383"/>
    <nd ref="242710397"/>
    <nd ref="242710410"/>
    <nd ref="242710423"/>
    <nd ref="242710435"/>
    <nd ref="242710448"/>
    <nd ref="242710459"/>
    <tag k="highway" v="residential"/>
    <tag k="name" v="Ces Rivers Road"/>
  </way>
  <way id="22633460" version="3" timestamp="2009-06-26T07:36:34Z" uid="74617" user="JohnSmith" changeset="1636426">
    <nd ref="238316457"/>
    <nd ref="242710177"/>
    <nd ref="242710189"/>
    <nd ref="242710200"/>
    <nd ref="242710211"/>
    <nd ref="242710223"/>
    <nd ref="242710233"/>
    <nd ref="242710242"/>
    <nd ref="242710253"/>
    <nd ref="242710265"/>
    <nd ref="242710277"/>
    <nd ref="242710288"/>
    <nd ref="242710300"/>
    <nd ref="242710312"/>
    <nd ref="242710323"/>
    <nd ref="242710336"/>
    <nd ref="429432061"/>
    <nd ref="242710346"/>
    <nd ref="242710358"/>
    <nd ref="242710371"/>
    <nd ref="242710383"/>
    <nd ref="242710397"/>
    <nd ref="242710410"/>
    <nd ref="242710423"/>
    <nd ref="242710435"/>
    <nd ref="242710448"/>
    <nd ref="242710459"/>
    <tag k="highway" v="residential"/>
    <tag k="name" v="Ces Rivers Road"/>
  </way>
  <way id="22633460" version="4" timestamp="2009-08-12T04:01:58Z" uid="74617" user="JohnSmith" changeset="2114476">
    <nd ref="238316457"/>
    <nd ref="242710177"/>
    <nd ref="242710189"/>
    <nd ref="242710200"/>
    <nd ref="242710211"/>
    <nd ref="242710223"/>
    <nd ref="242710233"/>
    <nd ref="242710242"/>
    <nd ref="242710253"/>
    <nd ref="242710265"/>
    <nd ref="242710277"/>
    <nd ref="242710288"/>
    <nd ref="242710300"/>
    <nd ref="242710312"/>
    <nd ref="242710323"/>
    <nd ref="242710336"/>
    <nd ref="429432061"/>
    <nd ref="242710346"/>
    <nd ref="242710358"/>
    <nd ref="242710371"/>
    <nd ref="242710383"/>
    <nd ref="242710397"/>
    <nd ref="242710410"/>
    <nd ref="242710423"/>
    <nd ref="242710435"/>
    <nd ref="242710448"/>
    <nd ref="242710459"/>
    <tag k="highway" v="residential"/>
    <tag k="maxspeed" v="50"/>
    <tag k="name" v="Ces Rivers Road"/>
  </way>
  <way id="22633460" version="5" timestamp="2012-01-15T22:34:04Z" uid="147510" user="woodpeck_fixbot" changeset="10402983">
    <nd ref="238316457"/>
    <nd ref="242710177"/>
    <nd ref="242710189"/>
    <nd ref="242710200"/>
    <nd ref="242710211"/>
    <nd ref="242710223"/>
    <nd ref="242710233"/>
    <nd ref="242710242"/>
    <nd ref="242710253"/>
    <nd ref="242710265"/>
    <nd ref="242710277"/>
    <nd ref="242710288"/>
    <nd ref="242710300"/>
    <nd ref="242710312"/>
    <nd ref="242710323"/>
    <nd ref="242710336"/>
    <nd ref="429432061"/>
    <nd ref="242710346"/>
    <nd ref="242710358"/>
    <nd ref="242710371"/>
    <nd ref="242710383"/>
    <nd ref="242710397"/>
    <nd ref="242710410"/>
    <nd ref="242710423"/>
    <nd ref="242710435"/>
    <nd ref="242710448"/>
    <nd ref="242710459"/>
    <tag k="highway" v="residential"/>
    <tag k="name" v="Ces Rivers Road"/>
  </way>
  <way id="22633555" version="2" timestamp="2010-06-29T19:14:05Z" uid="74617" user="JohnSmith" changeset="5108182">
    <nd ref="242553788"/>
    <nd ref="242553546"/>
    <nd ref="242552368"/>
    <nd ref="242554625"/>
    <nd ref="242553995"/>
    <nd ref="242553788"/>
    <tag k="fixme" v="sport=football is ambiguous, see http://wiki.osm.org/wiki/Football for more details"/>
    <tag k="sport" v="football"/>
  </way>
  <way id="22633623" version="3" timestamp="2008-07-04T21:38:26Z" uid="6975" user="ulfl" changeset="395915">
    <nd ref="242716554"/>
    <nd ref="242716557"/>
    <nd ref="242716560"/>
    <nd ref="242716565"/>
    <nd ref="242716569"/>
    <nd ref="242716572"/>
    <nd ref="242716577"/>
    <tag k="layer" v="0"/>
    <tag k="waterway" v="stream"/>
  </way>
  <way id="22633691" version="6" timestamp="2011-02-15T21:17:30Z" uid="9581" user="Lobelt" changeset="7299115">
    <nd ref="185446157"/>
    <nd ref="185446159"/>
    <tag k="highway" v="tertiary"/>
    <tag k="layer" v="-1"/>
    <tag k="ref" v="K 60"/>
    <tag k="tunnel" v="yes"/>
  </way>
  <way id="22633691" version="7" timestamp="2011-11-22T17:08:07Z" uid="429794" user="SennaHB" changeset="9911025"/>
  <way id="22633700" version="5" timestamp="2011-02-15T21:17:45Z" uid="9581" user="Lobelt" changeset="7299115">
    <nd ref="185446154"/>
    <nd ref="185446156"/>
    <tag k="highway" v="tertiary"/>
    <tag k="layer" v="-1"/>
    <tag k="ref" v="K 60"/>
    <tag k="tunnel" v="yes"/>
  </way>
  <way id="22633700" version="6" timestamp="2012-01-21T18:32:31Z" uid="302852" user="be-ju" changeset="10458364"/>
  <way id="22633705" version="9" timestamp="2011-02-15T21:17:32Z" uid="9581" user="Lobelt" changeset="7299115">
    <nd ref="12453432"/>
    <nd ref="1155187867"/>
    <nd ref="1155187849"/>
    <nd ref="1155187862"/>
    <nd ref="32011401"/>
    <nd ref="1155187884"/>
    <nd ref="1155187876"/>
    <tag k="highway" v="motorway"/>
    <tag k="int_ref" v="E 45"/>
    <tag k="maxspeed" v="no"/>
    <tag k="oneway" v="yes"/>
    <tag k="ref" v="A 7"/>
  </way>
  <way id="22633705" version="10" timestamp="2011-09-23T15:02:45Z" uid="30077" user="ChristianW" changeset="9377434">
    <nd ref="12453432"/>
    <nd ref="1155187867"/>
    <nd ref="1155187849"/>
    <nd ref="1155187862"/>
    <nd ref="32011401"/>
    <nd ref="1155187884"/>
    <nd ref="1155187876"/>
    <tag k="highway" v="motorway"/>
    <tag k="int_ref" v="E 45"/>
    <tag k="lit" v="no"/>
    <tag k="maxspeed" v="no"/>
    <tag k="oneway" v="yes"/>
    <tag k="ref" v="A 7"/>
    <tag k="source:lit" v="http://www.autobahn-bilder.de"/>
  </way>
  <way id="22633705" version="11" timestamp="2011-12-18T00:38:34Z" uid="445671" user="flierfy" changeset="10143176">
    <nd ref="12453432"/>
    <nd ref="1155187867"/>
    <nd ref="1155187849"/>
    <nd ref="1155187862"/>
    <nd ref="32011401"/>
    <nd ref="1155187884"/>
    <nd ref="1155187876"/>
    <tag k="highway" v="motorway"/>
    <tag k="int_ref" v="E 45"/>
    <tag k="lanes" v="2"/>
    <tag k="lit" v="no"/>
    <tag k="maxspeed" v="no"/>
    <tag k="oneway" v="yes"/>
    <tag k="ref" v="A 7"/>
    <tag k="source:lit" v="http://www.autobahn-bilder.de"/>
  </way>
  <way id="22633705" version="12" timestamp="2012-01-21T18:32:29Z" uid="302852" user="be-ju" changeset="10458364"/>
  <way id="22633707" version="8" timestamp="2011-02-15T21:17:44Z" uid="9581" user="Lobelt" changeset="7299115">
    <nd ref="242720329"/>
    <nd ref="1155187855"/>
    <nd ref="21464481"/>
    <nd ref="228495104"/>
    <nd ref="32011392"/>
    <nd ref="1155187850"/>
    <nd ref="21464483"/>
    <nd ref="228495078"/>
    <nd ref="32011393"/>
    <nd ref="228477943"/>
    <nd ref="32011395"/>
    <nd ref="825185092"/>
    <nd ref="21464484"/>
    <nd ref="825185047"/>
    <nd ref="825185071"/>
    <nd ref="825185045"/>
    <nd ref="32011399"/>
    <nd ref="1155187894"/>
    <nd ref="21464485"/>
    <nd ref="1155187893"/>
    <tag k="highway" v="motorway"/>
    <tag k="int_ref" v="E 45"/>
    <tag k="maxspeed" v="no"/>
    <tag k="oneway" v="yes"/>
    <tag k="ref" v="A 7"/>
  </way>
  <way id="22633707" version="9" timestamp="2011-09-23T15:04:47Z" uid="30077" user="ChristianW" changeset="9377434">
    <nd ref="242720329"/>
    <nd ref="1155187855"/>
    <nd ref="21464481"/>
    <nd ref="228495104"/>
    <nd ref="32011392"/>
    <nd ref="1155187850"/>
    <nd ref="21464483"/>
    <nd ref="228495078"/>
    <nd ref="32011393"/>
    <nd ref="228477943"/>
    <nd ref="32011395"/>
    <nd ref="825185092"/>
    <nd ref="21464484"/>
    <nd ref="825185047"/>
    <nd ref="825185071"/>
    <nd ref="825185045"/>
    <nd ref="32011399"/>
    <nd ref="1155187894"/>
    <nd ref="21464485"/>
    <nd ref="1155187893"/>
    <tag k="highway" v="motorway"/>
    <tag k="int_ref" v="E 45"/>
    <tag k="lit" v="no"/>
    <tag k="maxspeed" v="no"/>
    <tag k="oneway" v="yes"/>
    <tag k="ref" v="A 7"/>
    <tag k="source:lit" v="http://www.autobahn-bilder.de"/>
  </way>
  <way id="22633707" version="10" timestamp="2011-12-18T00:38:35Z" uid="445671" user="flierfy" changeset="10143176">
    <nd ref="242720329"/>
    <nd ref="1155187855"/>
    <nd ref="21464481"/>
    <nd ref="228495104"/>
    <nd ref="32011392"/>
    <nd ref="1155187850"/>
    <nd ref="21464483"/>
    <nd ref="228495078"/>
    <nd ref="32011393"/>
    <nd ref="228477943"/>
    <nd ref="32011395"/>
    <nd ref="825185092"/>
    <nd ref="21464484"/>
    <nd ref="825185047"/>
    <nd ref="825185071"/>
    <nd ref="825185045"/>
    <nd ref="32011399"/>
    <nd ref="1155187894"/>
    <nd ref="21464485"/>
    <nd ref="1155187893"/>
    <tag k="highway" v="motorway"/>
    <tag k="int_ref" v="E 45"/>
    <tag k="lanes" v="2"/>
    <tag k="lit" v="no"/>
    <tag k="maxspeed" v="no"/>
    <tag k="oneway" v="yes"/>
    <tag k="ref" v="A 7"/>
    <tag k="source:lit" v="http://www.autobahn-bilder.de"/>
  </way>
  <way id="22633707" version="11" timestamp="2012-01-21T18:32:28Z" uid="302852" user="be-ju" changeset="10458364"/>
  <way id="22633708" version="7" timestamp="2011-02-15T21:13:31Z" uid="9581" user="Lobelt" changeset="7299115">
    <nd ref="218604005"/>
    <nd ref="242720329"/>
    <tag k="highway" v="motorway"/>
    <tag k="int_ref" v="E 45"/>
    <tag k="layer" v="1"/>
    <tag k="maxspeed" v="no"/>
    <tag k="oneway" v="yes"/>
    <tag k="ref" v="A 7"/>
  </way>
  <way id="22633708" version="8" timestamp="2011-09-23T15:05:59Z" uid="30077" user="ChristianW" changeset="9377434">
    <nd ref="218604005"/>
    <nd ref="242720329"/>
    <tag k="highway" v="motorway"/>
    <tag k="int_ref" v="E 45"/>
    <tag k="layer" v="1"/>
    <tag k="lit" v="no"/>
    <tag k="maxspeed" v="no"/>
    <tag k="oneway" v="yes"/>
    <tag k="ref" v="A 7"/>
    <tag k="source:lit" v="http://www.autobahn-bilder.de"/>
  </way>
  <way id="22633708" version="9" timestamp="2011-12-18T00:38:35Z" uid="445671" user="flierfy" changeset="10143176">
    <nd ref="218604005"/>
    <nd ref="242720329"/>
    <tag k="highway" v="motorway"/>
    <tag k="int_ref" v="E 45"/>
    <tag k="lanes" v="2"/>
    <tag k="layer" v="1"/>
    <tag k="lit" v="no"/>
    <tag k="maxspeed" v="no"/>
    <tag k="oneway" v="yes"/>
    <tag k="ref" v="A 7"/>
    <tag k="source:lit" v="http://www.autobahn-bilder.de"/>
  </way>
  <way id="22633708" version="10" timestamp="2012-01-21T18:32:28Z" uid="302852" user="be-ju" changeset="10458364"/>
  <way id="22633772" version="6" timestamp="2008-08-17T14:31:36Z" uid="20587" user="balrog-kun" changeset="290382">
    <nd ref="242723727"/>
    <nd ref="242723946"/>
    <nd ref="242723154"/>
    <nd ref="242723155"/>
    <tag k="bridge" v="true"/>
    <tag k="created_by" v="Potlatch 0.6c"/>
    <tag k="highway" v="primary"/>
    <tag k="layer" v="1"/>
    <tag k="name" v="Station Road"/>
    <tag k="note" v="SPCE Bridge 47"/>
    <tag k="ref" v="A504"/>
  </way>
  <way id="22633772" version="7" timestamp="2010-03-23T16:44:35Z" uid="118262" user="Wynndale" changeset="4213747">
    <nd ref="242723727"/>
    <nd ref="242723946"/>
    <nd ref="242723154"/>
    <nd ref="242723155"/>
    <tag k="bridge" v="yes"/>
    <tag k="highway" v="primary"/>
    <tag k="layer" v="1"/>
    <tag k="name" v="Station Road"/>
    <tag k="note" v="SPCE Bridge 47"/>
    <tag k="ref" v="A504"/>
  </way>
  <way id="22633868" version="2" timestamp="2009-06-25T03:58:21Z" uid="74617" user="JohnSmith" changeset="1618025">
    <nd ref="242732939"/>
    <nd ref="242732949"/>
    <nd ref="242732960"/>
    <nd ref="242732971"/>
    <nd ref="242732983"/>
    <nd ref="242732994"/>
    <nd ref="242733005"/>
    <nd ref="242733016"/>
    <nd ref="242733026"/>
    <nd ref="242733035"/>
    <nd ref="242733044"/>
    <nd ref="242733057"/>
    <nd ref="242733068"/>
    <nd ref="242733081"/>
    <nd ref="242733092"/>
    <nd ref="242733102"/>
    <nd ref="242733110"/>
    <nd ref="242733120"/>
    <nd ref="242733127"/>
    <nd ref="242733135"/>
    <nd ref="242733144"/>
    <nd ref="242733153"/>
    <nd ref="242733161"/>
    <nd ref="242733171"/>
    <nd ref="242733181"/>
    <nd ref="242733190"/>
    <nd ref="242733199"/>
    <nd ref="242733210"/>
    <nd ref="242733221"/>
    <nd ref="242733232"/>
    <nd ref="242733246"/>
    <nd ref="242733260"/>
    <nd ref="242733274"/>
    <nd ref="242733289"/>
    <nd ref="242733305"/>
    <nd ref="242733319"/>
    <nd ref="242733334"/>
    <nd ref="242733345"/>
    <nd ref="242733355"/>
    <nd ref="242733366"/>
    <nd ref="242733376"/>
    <nd ref="242733425"/>
    <nd ref="242733436"/>
    <tag k="highway" v="tertiary"/>
    <tag k="name" v="Tamaree Road"/>
  </way>
  <way id="22633868" version="3" timestamp="2009-06-27T08:08:51Z" uid="74617" user="JohnSmith" changeset="1647531">
    <nd ref="242732939"/>
    <nd ref="242732949"/>
    <nd ref="242732960"/>
    <nd ref="242732971"/>
    <nd ref="242732983"/>
    <nd ref="242732994"/>
    <nd ref="242733005"/>
    <nd ref="242733016"/>
    <nd ref="242733026"/>
    <nd ref="242733035"/>
    <nd ref="242733044"/>
    <nd ref="242733057"/>
    <nd ref="242733068"/>
    <nd ref="242733081"/>
    <nd ref="242733092"/>
    <nd ref="242733102"/>
    <nd ref="242733110"/>
    <nd ref="242733120"/>
    <nd ref="429711234"/>
    <nd ref="242733127"/>
    <nd ref="242733135"/>
    <nd ref="242733144"/>
    <nd ref="242733153"/>
    <nd ref="242733161"/>
    <nd ref="242733171"/>
    <nd ref="242733181"/>
    <nd ref="242733190"/>
    <nd ref="242733199"/>
    <nd ref="242733210"/>
    <nd ref="242733221"/>
    <nd ref="242733232"/>
    <nd ref="242733246"/>
    <nd ref="242733260"/>
    <nd ref="242733274"/>
    <nd ref="242733289"/>
    <nd ref="242733305"/>
    <nd ref="242733319"/>
    <nd ref="242733334"/>
    <nd ref="242733345"/>
    <nd ref="242733355"/>
    <nd ref="242733366"/>
    <nd ref="242733376"/>
    <nd ref="242733425"/>
    <nd ref="242733436"/>
    <tag k="highway" v="tertiary"/>
    <tag k="name" v="Tamaree Road"/>
  </way>
  <way id="22633868" version="4" timestamp="2009-06-27T09:42:45Z" uid="74617" user="JohnSmith" changeset="1648287">
    <nd ref="242732939"/>
    <nd ref="242732949"/>
    <nd ref="242732960"/>
    <nd ref="242732971"/>
    <nd ref="242732983"/>
    <nd ref="242732994"/>
    <nd ref="242733005"/>
    <nd ref="242733016"/>
    <nd ref="242733035"/>
    <nd ref="242733044"/>
    <nd ref="242733057"/>
    <nd ref="242733068"/>
    <nd ref="242733081"/>
    <nd ref="242733092"/>
    <nd ref="242733102"/>
    <nd ref="242733110"/>
    <nd ref="242733120"/>
    <nd ref="429711234"/>
    <nd ref="242733127"/>
    <nd ref="242733135"/>
    <nd ref="242733144"/>
    <nd ref="242733153"/>
    <nd ref="242733161"/>
    <nd ref="242733171"/>
    <nd ref="242733181"/>
    <nd ref="242733190"/>
    <nd ref="242733199"/>
    <nd ref="242733210"/>
    <nd ref="242733221"/>
    <nd ref="242733232"/>
    <nd ref="242733246"/>
    <nd ref="242733260"/>
    <nd ref="242733274"/>
    <nd ref="242733289"/>
    <nd ref="242733305"/>
    <nd ref="242733319"/>
    <nd ref="242733334"/>
    <nd ref="242733345"/>
    <nd ref="242733355"/>
    <nd ref="242733366"/>
    <nd ref="242733376"/>
    <nd ref="242733425"/>
    <nd ref="242733436"/>
    <tag k="highway" v="tertiary"/>
    <tag k="name" v="Tamaree Road"/>
  </way>
  <way id="22633868" version="5" timestamp="2009-07-10T04:55:39Z" uid="74617" user="JohnSmith" changeset="1785697">
    <nd ref="242732939"/>
    <nd ref="242732949"/>
    <nd ref="242732960"/>
    <nd ref="242732971"/>
    <nd ref="242732983"/>
    <nd ref="242732994"/>
    <nd ref="439171065"/>
    <tag k="highway" v="tertiary"/>
    <tag k="maxspeed" v="70"/>
    <tag k="name" v="Tamaree Road"/>
    <tag k="surface" v="paved"/>
  </way>
  <way id="22633868" version="6" timestamp="2012-01-15T22:34:06Z" uid="147510" user="woodpeck_fixbot" changeset="10402983">
    <nd ref="242732939"/>
    <nd ref="242732949"/>
    <nd ref="242732960"/>
    <nd ref="242732971"/>
    <nd ref="242732983"/>
    <nd ref="242732994"/>
    <nd ref="439171065"/>
    <tag k="highway" v="tertiary"/>
    <tag k="name" v="Tamaree Road"/>
  </way>
  <way id="22633869" version="2" timestamp="2009-06-25T03:58:22Z" uid="74617" user="JohnSmith" changeset="1618025">
    <nd ref="242732931"/>
    <nd ref="242732939"/>
    <tag k="highway" v="tertiary"/>
    <tag k="name" v="Tamaree Road"/>
  </way>
  <way id="22633869" version="3" timestamp="2009-06-27T08:04:32Z" uid="74617" user="JohnSmith" changeset="1647486">
    <nd ref="242732931"/>
    <nd ref="429709916"/>
    <nd ref="242732939"/>
    <tag k="highway" v="tertiary"/>
    <tag k="name" v="Tamaree Road"/>
  </way>
  <way id="22633869" version="4" timestamp="2009-07-10T04:55:40Z" uid="74617" user="JohnSmith" changeset="1785697">
    <nd ref="242732931"/>
    <nd ref="429709916"/>
    <nd ref="242732939"/>
    <tag k="highway" v="tertiary"/>
    <tag k="maxspeed" v="70"/>
    <tag k="name" v="Tamaree Road"/>
  </way>
  <way id="22633869" version="5" timestamp="2012-01-15T22:34:07Z" uid="147510" user="woodpeck_fixbot" changeset="10402983">
    <nd ref="242732931"/>
    <nd ref="429709916"/>
    <nd ref="242732939"/>
    <tag k="highway" v="tertiary"/>
    <tag k="name" v="Tamaree Road"/>
  </way>
  <way id="22633905" version="5" timestamp="2008-08-17T14:28:03Z" uid="20587" user="balrog-kun" changeset="290382">
    <nd ref="242736691"/>
    <nd ref="242736692"/>
    <tag k="bridge" v="yes"/>
    <tag k="created_by" v="Potlatch 0.6c"/>
    <tag k="layer" v="1"/>
    <tag k="name" v="Midland Main Line"/>
    <tag k="note" v="SPCE Bridge 62"/>
    <tag k="railway" v="rail"/>
    <tag k="source" v="NPE"/>
    <tag k="tracks" v="4"/>
  </way>
  <way id="22633905" version="6" timestamp="2011-10-23T08:33:26Z" uid="458747" user="The Islander" changeset="9630252">
    <nd ref="242736691"/>
    <nd ref="242736692"/>
    <tag k="bridge" v="yes"/>
    <tag k="electrified" v="contact_line"/>
    <tag k="layer" v="1"/>
    <tag k="name" v="Midland Main Line"/>
    <tag k="note" v="SPCE Bridge 62"/>
    <tag k="railway" v="rail"/>
    <tag k="source" v="NPE"/>
    <tag k="tracks" v="4"/>
  </way>
  <way id="22633905" version="7" timestamp="2011-10-30T12:07:42Z" uid="42429" user="FK270673" changeset="9692950">
    <nd ref="242736691"/>
    <nd ref="242736692"/>
    <tag k="bridge" v="yes"/>
    <tag k="electrified" v="contact_line"/>
    <tag k="frequency" v="50"/>
    <tag k="gauge" v="1435"/>
    <tag k="layer" v="1"/>
    <tag k="name" v="Midland Main Line"/>
    <tag k="note" v="SPCE Bridge 62"/>
    <tag k="railway" v="rail"/>
    <tag k="source" v="NPE"/>
    <tag k="tracks" v="4"/>
    <tag k="voltage" v="25000"/>
  </way>
  <way id="22633906" version="2" timestamp="2008-08-17T14:27:41Z" uid="20587" user="balrog-kun" changeset="290382">
    <nd ref="242736692"/>
    <nd ref="13884199"/>
    <nd ref="288784642"/>
    <tag k="created_by" v="Potlatch 0.6c"/>
    <tag k="layer" v="1"/>
    <tag k="name" v="Midland Main Line"/>
    <tag k="railway" v="rail"/>
    <tag k="source" v="NPE"/>
    <tag k="tracks" v="4"/>
  </way>
  <way id="22633906" version="3" timestamp="2010-08-05T14:47:45Z" uid="33036" user="Alexa" changeset="5408858">
    <nd ref="242736692"/>
    <nd ref="13884199"/>
    <nd ref="288784642"/>
    <tag k="layer" v="1"/>
    <tag k="name" v="Midland Main Line"/>
    <tag k="railway" v="rail"/>
    <tag k="source" v="NPE"/>
    <tag k="tracks" v="4"/>
  </way>
  <way id="22633906" version="4" timestamp="2011-03-12T23:16:31Z" uid="4951" user="PeterIto" changeset="7539433">
    <nd ref="242736692"/>
    <nd ref="13884199"/>
    <nd ref="288784642"/>
    <tag k="name" v="Midland Main Line"/>
    <tag k="railway" v="rail"/>
    <tag k="source" v="NPE"/>
    <tag k="tracks" v="4"/>
  </way>
  <way id="22633906" version="5" timestamp="2011-10-23T08:33:12Z" uid="458747" user="The Islander" changeset="9630252">
    <nd ref="242736692"/>
    <nd ref="13884199"/>
    <nd ref="288784642"/>
    <tag k="electrified" v="contact_line"/>
    <tag k="name" v="Midland Main Line"/>
    <tag k="railway" v="rail"/>
    <tag k="source" v="NPE"/>
    <tag k="tracks" v="4"/>
  </way>
  <way id="22633906" version="6" timestamp="2011-10-30T12:08:09Z" uid="42429" user="FK270673" changeset="9692950">
    <nd ref="242736692"/>
    <nd ref="13884199"/>
    <nd ref="288784642"/>
    <tag k="electrified" v="contact_line"/>
    <tag k="frequency" v="50"/>
    <tag k="gauge" v="1435"/>
    <tag k="name" v="Midland Main Line"/>
    <tag k="railway" v="rail"/>
    <tag k="source" v="NPE"/>
    <tag k="tracks" v="4"/>
    <tag k="voltage" v="25000"/>
  </way>
  <way id="22633071" version="5" timestamp="2012-07-20T08:29:05Z" uid="722137" user="OSMF Redaction Account" changeset="12368329">
    <nd ref="242700523"/>
    <nd ref="242700528"/>
    <nd ref="242700525"/>
    <tag k="highway" v="service"/>
    <tag k="name" v="Giles Lane"/>
  </way>
  <way id="22633072" version="3" timestamp="2012-07-20T08:31:53Z" uid="722137" user="OSMF Redaction Account" changeset="12368415">
    <nd ref="242700528"/>
    <nd ref="242700529"/>
    <tag k="highway" v="service"/>
  </way>
  <way id="22633074" version="7" timestamp="2012-07-20T08:29:09Z" uid="722137" user="OSMF Redaction Account" changeset="12368329">
    <nd ref="242696330"/>
    <nd ref="242700536"/>
    <nd ref="242700537"/>
    <nd ref="242700538"/>
    <tag k="highway" v="residential"/>
    <tag k="name" v="Dennis Street"/>
  </way>
  <way id="22633074" version="8" timestamp="2012-08-01T17:21:47Z" uid="510836" user="Rub21" changeset="12576912">
    <nd ref="242696330"/>
    <nd ref="1847131625"/>
    <nd ref="242700536"/>
    <nd ref="242700537"/>
    <nd ref="242700538"/>
    <tag k="highway" v="residential"/>
    <tag k="name" v="Dennis Street"/>
  </way>
  <way id="22633077" version="4" timestamp="2012-08-01T17:21:48Z" uid="510836" user="Rub21" changeset="12576912">
    <nd ref="242700542"/>
    <nd ref="1847131585"/>
    <nd ref="242700566"/>
    <nd ref="242700567"/>
    <nd ref="242700568"/>
    <nd ref="1847131745"/>
    <tag k="highway" v="residential"/>
    <tag k="name" v="Taylor Street"/>
  </way>
  <way id="22633081" version="10" timestamp="2012-07-20T08:37:48Z" uid="722137" user="OSMF Redaction Account" changeset="12368562"/>
  <way id="22633088" version="4" timestamp="2012-07-20T08:29:10Z" uid="722137" user="OSMF Redaction Account" changeset="12368329">
    <nd ref="242700601"/>
    <nd ref="242700602"/>
    <nd ref="242700603"/>
    <nd ref="242700604"/>
    <nd ref="242700605"/>
    <nd ref="242700601"/>
    <tag k="leisure" v="park"/>
    <tag k="name" v="Harold Bull Reserve"/>
  </way>
  <way id="22633094" version="7" timestamp="2012-06-09T22:10:49Z" uid="20949" user="Ebenezer" changeset="11849596">
    <nd ref="1782030330"/>
    <nd ref="242703375"/>
    <nd ref="242700613"/>
    <nd ref="975929471"/>
    <nd ref="975929409"/>
    <nd ref="975929649"/>
    <tag k="highway" v="residential"/>
    <tag k="name" v="Moreton Street"/>
  </way>
  <way id="22633094" version="8" timestamp="2012-07-20T08:29:10Z" uid="722137" user="OSMF Redaction Account" changeset="12368329">
    <nd ref="1782030330"/>
    <nd ref="242703375"/>
    <nd ref="242700613"/>
    <tag k="highway" v="residential"/>
    <tag k="name" v="Moreton Street"/>
  </way>
  <way id="22633096" version="6" timestamp="2012-07-20T08:29:02Z" uid="722137" user="OSMF Redaction Account" changeset="12368329">
    <nd ref="242700611"/>
    <nd ref="242705444"/>
    <tag k="highway" v="tertiary"/>
    <tag k="name" v="Moreton Street"/>
  </way>
  <way id="22633098" version="7" timestamp="2012-07-20T08:37:51Z" uid="722137" user="OSMF Redaction Account" changeset="12368562"/>
  <way id="22633107" version="8" timestamp="2012-07-20T08:29:04Z" uid="722137" user="OSMF Redaction Account" changeset="12368329">
    <nd ref="242696333"/>
    <nd ref="242701175"/>
    <nd ref="242701803"/>
    <nd ref="242701984"/>
    <nd ref="242700412"/>
    <nd ref="242702380"/>
    <nd ref="242701176"/>
    <tag k="highway" v="residential"/>
    <tag k="name" v="Peel Street"/>
  </way>
  <way id="22633107" version="9" timestamp="2012-08-01T17:21:48Z" uid="510836" user="Rub21" changeset="12576912">
    <nd ref="1847131493"/>
    <nd ref="1847131484"/>
    <nd ref="1847131483"/>
    <nd ref="242696333"/>
    <nd ref="242701175"/>
    <nd ref="242701803"/>
    <nd ref="242701984"/>
    <nd ref="1847131536"/>
    <nd ref="242700412"/>
    <nd ref="242702380"/>
    <nd ref="242701176"/>
    <tag k="highway" v="residential"/>
    <tag k="name" v="Peel Street"/>
  </way>
  <way id="22633111" version="14" timestamp="2012-07-20T08:29:04Z" uid="722137" user="OSMF Redaction Account" changeset="12368329">
    <nd ref="242703353"/>
    <nd ref="242701176"/>
    <nd ref="242703512"/>
    <nd ref="242701683"/>
    <nd ref="242703526"/>
    <nd ref="242703534"/>
    <nd ref="242703527"/>
    <nd ref="242703604"/>
    <nd ref="242703530"/>
    <nd ref="242701685"/>
    <nd ref="242701687"/>
    <tag k="highway" v="tertiary"/>
    <tag k="name" v="Leylands Parade"/>
  </way>
  <way id="22633111" version="15" timestamp="2012-08-01T17:21:47Z" uid="510836" user="Rub21" changeset="12576912">
    <nd ref="242703353"/>
    <nd ref="242701176"/>
    <nd ref="242703512"/>
    <nd ref="242701683"/>
    <nd ref="1847131531"/>
    <nd ref="1847131530"/>
    <nd ref="242703526"/>
    <nd ref="242703534"/>
    <nd ref="242703527"/>
    <nd ref="242703604"/>
    <nd ref="242703530"/>
    <nd ref="242701685"/>
    <nd ref="242701687"/>
    <nd ref="1847131505"/>
    <nd ref="1847131510"/>
    <tag k="highway" v="tertiary"/>
    <tag k="name" v="Leylands Parade"/>
  </way>
  <way id="22633115" version="7" timestamp="2012-07-20T08:29:04Z" uid="722137" user="OSMF Redaction Account" changeset="12368329">
    <nd ref="242701803"/>
    <nd ref="242701980"/>
    <nd ref="242702879"/>
    <nd ref="242701981"/>
    <tag k="highway" v="residential"/>
    <tag k="name" v="Bridge Road"/>
  </way>
  <way id="22633115" version="8" timestamp="2012-08-01T17:21:45Z" uid="510836" user="Rub21" changeset="12576912">
    <nd ref="242701803"/>
    <nd ref="242701980"/>
    <nd ref="242702879"/>
    <nd ref="1847131480"/>
    <nd ref="242701981"/>
    <tag k="highway" v="residential"/>
    <tag k="name" v="Bridge Road"/>
  </way>
  <way id="22633126" version="4" timestamp="2012-07-20T08:29:04Z" uid="722137" user="OSMF Redaction Account" changeset="12368329">
    <nd ref="242702894"/>
    <nd ref="242701980"/>
    <tag k="highway" v="service"/>
  </way>
  <way id="22633132" version="6" timestamp="2012-07-20T08:29:10Z" uid="722137" user="OSMF Redaction Account" changeset="12368329">
    <nd ref="242703495"/>
    <nd ref="242700581"/>
    <tag k="highway" v="residential"/>
    <tag k="name" v="Chambers Street"/>
  </way>
  <way id="22633132" version="7" timestamp="2012-08-01T17:21:47Z" uid="510836" user="Rub21" changeset="12576912">
    <nd ref="242703495"/>
    <nd ref="242700581"/>
    <nd ref="1847131652"/>
    <tag k="highway" v="residential"/>
    <tag k="name" v="Chambers Street"/>
  </way>
  <way id="22633133" version="4" timestamp="2012-07-20T08:37:51Z" uid="722137" user="OSMF Redaction Account" changeset="12368562"/>
  <way id="22633136" version="8" timestamp="2012-07-20T08:29:09Z" uid="722137" user="OSMF Redaction Account" changeset="12368329">
    <nd ref="242703353"/>
    <nd ref="242703520"/>
    <tag k="highway" v="residential"/>
    <tag k="name" v="Chapel Stree"/>
  </way>
  <way id="22633137" version="7" timestamp="2012-06-09T22:10:50Z" uid="20949" user="Ebenezer" changeset="11849596">
    <nd ref="975929663"/>
    <nd ref="975929579"/>
    <nd ref="242703450"/>
    <nd ref="242703360"/>
    <nd ref="1782030281"/>
    <tag k="highway" v="tertiary"/>
    <tag k="name" v="Chapel Street"/>
  </way>
  <way id="22633137" version="8" timestamp="2012-07-20T08:29:10Z" uid="722137" user="OSMF Redaction Account" changeset="12368329">
    <nd ref="242703450"/>
    <nd ref="242703360"/>
    <nd ref="1782030281"/>
    <tag k="highway" v="tertiary"/>
    <tag k="name" v="Chapel Stree"/>
  </way>
  <way id="22633143" version="3" timestamp="2012-07-20T08:29:10Z" uid="722137" user="OSMF Redaction Account" changeset="12368329">
    <nd ref="242703415"/>
    <nd ref="242703416"/>
    <nd ref="242703417"/>
    <nd ref="242703415"/>
    <tag k="leisure" v="park"/>
    <tag k="name" v="Hunt Park"/>
  </way>
  <way id="22633148" version="4" timestamp="2012-08-01T17:21:49Z" uid="510836" user="Rub21" changeset="12576912">
    <nd ref="242703450"/>
    <nd ref="242703474"/>
    <nd ref="1847131699"/>
    <tag k="highway" v="residential"/>
    <tag k="name" v="Wilson Avenue"/>
  </way>
  <way id="22633165" version="6" timestamp="2012-07-20T08:37:59Z" uid="722137" user="OSMF Redaction Account" changeset="12368562"/>
  <way id="22633166" version="6" timestamp="2012-07-20T08:37:55Z" uid="722137" user="OSMF Redaction Account" changeset="12368562"/>
  <way id="22633179" version="5" timestamp="2012-06-09T22:10:51Z" uid="20949" user="Ebenezer" changeset="11849596">
    <nd ref="1782030269"/>
    <nd ref="1010551079"/>
    <nd ref="1010551936"/>
    <tag k="highway" v="residential"/>
    <tag k="name" v="Anderson Street"/>
  </way>
  <way id="22633179" version="6" timestamp="2012-07-20T08:37:53Z" uid="722137" user="OSMF Redaction Account" changeset="12368562"/>
  <way id="22633183" version="11" timestamp="2012-06-09T22:10:52Z" uid="20949" user="Ebenezer" changeset="11849596">
    <nd ref="1782030315"/>
    <nd ref="1010551311"/>
    <nd ref="242703893"/>
    <nd ref="242703891"/>
    <nd ref="242703540"/>
    <nd ref="242703889"/>
    <nd ref="708285473"/>
    <tag k="highway" v="residential"/>
    <tag k="name" v="Sharp Street"/>
  </way>
  <way id="22633183" version="12" timestamp="2012-07-20T08:29:04Z" uid="722137" user="OSMF Redaction Account" changeset="12368329">
    <nd ref="1782030315"/>
    <nd ref="242703893"/>
    <nd ref="242703891"/>
    <nd ref="242703540"/>
    <nd ref="242703889"/>
    <tag k="highway" v="residential"/>
    <tag k="name" v="Sharp Street"/>
  </way>
  <way id="22633183" version="13" timestamp="2012-08-01T17:21:48Z" uid="510836" user="Rub21" changeset="12576912">
    <nd ref="1782030315"/>
    <nd ref="242703893"/>
    <nd ref="242703891"/>
    <nd ref="242703540"/>
    <nd ref="1847131537"/>
    <nd ref="242703889"/>
    <tag k="highway" v="residential"/>
    <tag k="name" v="Sharp Street"/>
  </way>
  <way id="22633202" version="4" timestamp="2012-07-20T08:38:00Z" uid="722137" user="OSMF Redaction Account" changeset="12368562"/>
  <way id="22633203" version="4" timestamp="2012-07-20T08:38:00Z" uid="722137" user="OSMF Redaction Account" changeset="12368562"/>
  <way id="22633218" version="3" timestamp="2012-07-20T08:29:06Z" uid="722137" user="OSMF Redaction Account" changeset="12368329">
    <nd ref="242703895"/>
    <nd ref="242703897"/>
    <tag k="highway" v="service"/>
  </way>
  <way id="22633221" version="3" timestamp="2012-07-20T08:31:53Z" uid="722137" user="OSMF Redaction Account" changeset="12368415">
    <nd ref="242703895"/>
    <nd ref="242703912"/>
    <nd ref="242703913"/>
    <tag k="highway" v="service"/>
  </way>
  <way id="22633224" version="3" timestamp="2012-07-20T08:31:54Z" uid="722137" user="OSMF Redaction Account" changeset="12368415">
    <nd ref="242703919"/>
    <nd ref="242703920"/>
    <nd ref="242703921"/>
    <tag k="highway" v="service"/>
  </way>
  <way id="22633228" version="4" timestamp="2012-07-20T08:31:54Z" uid="722137" user="OSMF Redaction Account" changeset="12368415">
    <nd ref="242703921"/>
    <nd ref="242703927"/>
    <tag k="highway" v="service"/>
  </way>
  <way id="22633235" version="4" timestamp="2012-06-09T22:10:53Z" uid="20949" user="Ebenezer" changeset="11849596">
    <nd ref="242703674"/>
    <nd ref="242703890"/>
    <nd ref="242703892"/>
    <nd ref="242703896"/>
    <nd ref="242703898"/>
    <nd ref="1782030273"/>
    <tag k="highway" v="residential"/>
    <tag k="name" v="Waverly Street"/>
  </way>
  <way id="22633251" version="3" timestamp="2012-07-20T08:29:01Z" uid="722137" user="OSMF Redaction Account" changeset="12368329">
    <nd ref="242704639"/>
    <nd ref="242704640"/>
    <nd ref="242704641"/>
    <nd ref="242704642"/>
    <nd ref="242704644"/>
    <nd ref="242704645"/>
    <nd ref="242704646"/>
    <nd ref="242704647"/>
    <nd ref="242704649"/>
    <nd ref="242704639"/>
    <tag k="layer" v="-1"/>
    <tag k="leisure" v="park"/>
    <tag k="name" v="Belmore Sportsground"/>
  </way>
  <way id="22633286" version="5" timestamp="2012-05-26T20:23:54Z" uid="530529" user="Der Rad fährt" changeset="11710046">
    <nd ref="242705211"/>
    <nd ref="242705212"/>
    <nd ref="242705213"/>
    <tag k="highway" v="service"/>
  </way>
  <way id="22633286" version="6" timestamp="2012-07-21T09:48:47Z" uid="233422" user="abbst" changeset="12405105">
    <nd ref="242705211"/>
    <nd ref="1832917957"/>
    <nd ref="242705212"/>
    <nd ref="242705213"/>
    <tag k="highway" v="service"/>
  </way>
  <way id="22633288" version="8" timestamp="2012-07-19T04:53:33Z" uid="722137" user="OSMF Redaction Account" changeset="12308583">
    <nd ref="242705215"/>
    <nd ref="242705217"/>
    <nd ref="242705218"/>
    <nd ref="242705219"/>
    <nd ref="867318522"/>
    <nd ref="242705220"/>
    <nd ref="242705221"/>
    <nd ref="868151184"/>
    <nd ref="242705222"/>
    <nd ref="242705223"/>
    <nd ref="242705224"/>
    <nd ref="242705225"/>
    <nd ref="242705226"/>
    <nd ref="242705227"/>
    <nd ref="242705228"/>
    <nd ref="880178654"/>
    <nd ref="242705233"/>
    <tag k="highway" v="footway"/>
  </way>
  <way id="22633288" version="9" timestamp="2012-07-26T07:59:19Z" uid="8464" user="MichaH" changeset="12495647">
    <nd ref="242705215"/>
    <nd ref="242705217"/>
    <nd ref="242705218"/>
    <nd ref="242705219"/>
    <nd ref="867318522"/>
    <nd ref="242705220"/>
    <nd ref="242705221"/>
    <nd ref="868151184"/>
    <nd ref="242705222"/>
    <nd ref="242705223"/>
    <nd ref="242705224"/>
    <nd ref="242705225"/>
    <nd ref="242705226"/>
    <nd ref="242705227"/>
    <nd ref="242705228"/>
    <nd ref="880178654"/>
    <nd ref="242705233"/>
    <tag k="foot" v="yes"/>
    <tag k="highway" v="cycleway"/>
  </way>
  <way id="22633291" version="4" timestamp="2012-06-29T14:44:49Z" uid="713671" user="auspod" changeset="12057309">
    <nd ref="1806185231"/>
    <nd ref="242705346"/>
    <nd ref="1806185164"/>
    <nd ref="242705347"/>
    <tag k="highway" v="residential"/>
    <tag k="name" v="Alice Street North"/>
  </way>
  <way id="22633295" version="10" timestamp="2012-07-20T08:29:05Z" uid="722137" user="OSMF Redaction Account" changeset="12368329">
    <nd ref="242705347"/>
    <nd ref="242705434"/>
    <nd ref="242705435"/>
    <nd ref="242705436"/>
    <nd ref="242705437"/>
    <nd ref="242705438"/>
    <nd ref="242705439"/>
    <nd ref="242705440"/>
    <nd ref="242705441"/>
    <nd ref="242705442"/>
    <nd ref="242705443"/>
    <nd ref="242707935"/>
    <nd ref="242708050"/>
    <nd ref="242708128"/>
    <nd ref="242705444"/>
    <tag k="highway" v="residential"/>
    <tag k="name" v="Railway Parade"/>
  </way>
  <way id="22633297" version="8" timestamp="2012-08-07T11:20:53Z" uid="74570" user="Richard Mann" changeset="12644126">
    <nd ref="242705481"/>
    <nd ref="26413769"/>
    <nd ref="26414071"/>
    <nd ref="17494550"/>
    <nd ref="1527239153"/>
    <nd ref="26617383"/>
    <nd ref="288787108"/>
    <tag k="electrified" v="contact_line"/>
    <tag k="frequency" v="50"/>
    <tag k="gauge" v="1435"/>
    <tag k="name" v="Midland Main Line"/>
    <tag k="railway" v="rail"/>
    <tag k="tracks" v="4"/>
    <tag k="voltage" v="25000"/>
  </way>
  <way id="22633297" version="9" timestamp="2012-08-08T22:17:40Z" uid="74570" user="Richard Mann" changeset="12662730">
    <nd ref="242705481"/>
    <nd ref="26413769"/>
    <nd ref="26414071"/>
    <nd ref="17494550"/>
    <nd ref="1527239153"/>
    <nd ref="26617383"/>
    <nd ref="288787108"/>
    <tag k="electrified" v="contact_line"/>
    <tag k="frequency" v="50"/>
    <tag k="gauge" v="1435"/>
    <tag k="name" v="Midland Main Line"/>
    <tag k="passenger_lines" v="4"/>
    <tag k="railway" v="rail"/>
    <tag k="tracks" v="4"/>
    <tag k="voltage" v="25000"/>
  </way>
  <way id="22633297" version="10" timestamp="2012-08-10T19:25:39Z" uid="74570" user="Richard Mann" changeset="12683844">
    <nd ref="242705481"/>
    <nd ref="26413769"/>
    <nd ref="26414071"/>
    <nd ref="17494550"/>
    <nd ref="1527239153"/>
    <nd ref="26617383"/>
    <nd ref="288787108"/>
    <tag k="electrified" v="contact_line"/>
    <tag k="frequency" v="50"/>
    <tag k="gauge" v="1435"/>
    <tag k="name" v="Midland Main Line"/>
    <tag k="passenger_lines" v="4"/>
    <tag k="railway" v="rail"/>
    <tag k="track_detail" v="yes"/>
    <tag k="tracks" v="4"/>
    <tag k="voltage" v="25000"/>
  </way>
  <way id="22633300" version="9" timestamp="2012-07-19T13:20:39Z" uid="722137" user="OSMF Redaction Account" changeset="12328786">
    <nd ref="254517832"/>
    <nd ref="242705485"/>
    <nd ref="242705487"/>
    <nd ref="242705490"/>
    <nd ref="242705492"/>
    <nd ref="249342458"/>
    <nd ref="242705496"/>
    <tag k="highway" v="residential"/>
    <tag k="name" v="Cooinda Street"/>
  </way>
  <way id="22633300" version="10" timestamp="2012-07-26T12:55:11Z" uid="349913" user="Peter W34" changeset="12498950">
    <nd ref="254517832"/>
    <nd ref="242705485"/>
    <nd ref="242705487"/>
    <nd ref="242705490"/>
    <nd ref="242705492"/>
    <nd ref="249342458"/>
    <nd ref="1838715427"/>
    <nd ref="242705496"/>
    <nd ref="242705498"/>
    <nd ref="242705501"/>
    <nd ref="242705507"/>
    <tag k="highway" v="residential"/>
    <tag k="name" v="Cooinda Street"/>
  </way>
  <way id="22633319" version="4" timestamp="2012-06-29T14:44:49Z" uid="713671" user="auspod" changeset="12057309">
    <nd ref="1806185174"/>
    <nd ref="242705790"/>
    <tag k="highway" v="residential"/>
    <tag k="name" v="Hillard Street"/>
  </way>
  <way id="22633330" version="5" timestamp="2012-06-09T07:45:33Z" uid="20949" user="Ebenezer" changeset="11842069">
    <nd ref="242705254"/>
    <nd ref="1157165055"/>
    <nd ref="1781323525"/>
    <tag k="highway" v="residential"/>
    <tag k="name" v="McCourtStreet"/>
  </way>
  <way id="22633330" version="6" timestamp="2012-06-29T14:44:49Z" uid="713671" user="auspod" changeset="12057309">
    <nd ref="1806185161"/>
    <nd ref="1157165055"/>
    <nd ref="1781323525"/>
    <tag k="highway" v="residential"/>
    <tag k="name" v="McCourtStreet"/>
  </way>
  <way id="22633340" version="4" timestamp="2012-06-09T07:43:51Z" uid="20949" user="Ebenezer" changeset="11842069">
    <nd ref="242705951"/>
    <nd ref="242706125"/>
    <nd ref="1781322900"/>
    <tag k="highway" v="residential"/>
    <tag k="name" v="Fairmount Street"/>
  </way>
  <way id="22633340" version="5" timestamp="2012-06-29T14:44:49Z" uid="713671" user="auspod" changeset="12057309">
    <nd ref="242705951"/>
    <nd ref="1806185162"/>
    <nd ref="1806185205"/>
    <nd ref="1806185239"/>
    <nd ref="1806185228"/>
    <nd ref="1806185186"/>
    <nd ref="1781322900"/>
    <tag k="highway" v="residential"/>
    <tag k="name" v="Fairmount Street"/>
  </way>
  <way id="22633348" version="4" timestamp="2012-06-09T07:43:51Z" uid="20949" user="Ebenezer" changeset="11842069">
    <nd ref="242706145"/>
    <nd ref="242706252"/>
    <nd ref="1781322743"/>
    <nd ref="1781322813"/>
    <tag k="highway" v="residential"/>
    <tag k="name" v="Colin Street"/>
  </way>
  <way id="22633355" version="4" timestamp="2012-06-09T07:43:51Z" uid="20949" user="Ebenezer" changeset="11842069">
    <nd ref="242706387"/>
    <nd ref="242706519"/>
    <nd ref="1781322808"/>
    <tag k="highway" v="residential"/>
    <tag k="name" v="MacDonald Street"/>
  </way>
  <way id="22633358" version="6" timestamp="2012-06-09T07:43:52Z" uid="20949" user="Ebenezer" changeset="11842069">
    <nd ref="1781322871"/>
    <nd ref="1268688832"/>
    <tag k="highway" v="residential"/>
    <tag k="name" v="Hampden Road"/>
  </way>
  <way id="22633358" version="7" timestamp="2012-07-20T08:38:12Z" uid="722137" user="OSMF Redaction Account" changeset="12368586"/>
  <way id="22633366" version="3" timestamp="2012-07-20T08:29:02Z" uid="722137" user="OSMF Redaction Account" changeset="12368329">
    <nd ref="242707216"/>
    <nd ref="242707217"/>
    <nd ref="242707218"/>
    <nd ref="242707219"/>
    <nd ref="242707220"/>
    <nd ref="242707221"/>
    <nd ref="242707216"/>
    <tag k="amenity" v="school"/>
    <tag k="layer" v="-1"/>
    <tag k="name" v="Hampden Park Primary"/>
  </way>
  <way id="22633376" version="6" timestamp="2012-06-29T14:44:50Z" uid="713671" user="auspod" changeset="12057309">
    <nd ref="1806185157"/>
    <nd ref="1806185226"/>
    <tag k="highway" v="tertiary"/>
    <tag k="lcn" v="yes"/>
    <tag k="name" v="Wangee Road"/>
    <tag k="source" v="survey"/>
  </way>
  <way id="22633423" version="8" timestamp="2012-07-20T08:29:03Z" uid="722137" user="OSMF Redaction Account" changeset="12368329">
    <nd ref="242708437"/>
    <nd ref="242708438"/>
    <nd ref="246186827"/>
    <nd ref="246187202"/>
    <nd ref="242708440"/>
    <tag k="highway" v="residential"/>
    <tag k="name" v="Railway Parade"/>
  </way>
  <way id="22633460" version="6" timestamp="2012-07-19T13:20:33Z" uid="722137" user="OSMF Redaction Account" changeset="12328786">
    <nd ref="238316457"/>
    <nd ref="242710177"/>
    <nd ref="242710189"/>
    <nd ref="242710200"/>
    <nd ref="242710211"/>
    <nd ref="242710223"/>
    <nd ref="242710233"/>
    <nd ref="242710242"/>
    <nd ref="242710253"/>
    <nd ref="242710265"/>
    <nd ref="242710277"/>
    <nd ref="242710288"/>
    <nd ref="242710300"/>
    <nd ref="242710312"/>
    <nd ref="242710323"/>
    <nd ref="242710336"/>
    <nd ref="242710346"/>
    <nd ref="242710358"/>
    <nd ref="242710371"/>
    <nd ref="242710383"/>
    <nd ref="242710397"/>
    <nd ref="242710410"/>
    <nd ref="242710423"/>
    <nd ref="242710435"/>
    <nd ref="242710448"/>
    <nd ref="242710459"/>
    <tag k="highway" v="residential"/>
    <tag k="name" v="Ces Rivers Road"/>
  </way>
  <way id="22633555" version="3" timestamp="2012-07-19T16:46:46Z" uid="722137" user="OSMF Redaction Account" changeset="12340382">
    <nd ref="242553788"/>
    <nd ref="242553546"/>
    <nd ref="242552368"/>
    <nd ref="242554625"/>
    <nd ref="242553995"/>
    <nd ref="242553788"/>
    <tag k="sport" v="football"/>
  </way>
  <way id="22633868" version="7" timestamp="2012-07-19T13:20:32Z" uid="722137" user="OSMF Redaction Account" changeset="12328786">
    <nd ref="242732939"/>
    <nd ref="242732949"/>
    <nd ref="242732960"/>
    <nd ref="242732971"/>
    <nd ref="242732983"/>
    <nd ref="242732994"/>
    <tag k="highway" v="tertiary"/>
    <tag k="name" v="Tamaree Road"/>
  </way>
  <way id="22633868" version="8" timestamp="2012-07-26T12:55:18Z" uid="349913" user="Peter W34" changeset="12498950">
    <nd ref="242732939"/>
    <nd ref="242732949"/>
    <nd ref="242732960"/>
    <nd ref="242732971"/>
    <nd ref="242732983"/>
    <nd ref="242732994"/>
    <nd ref="242733005"/>
    <nd ref="242733016"/>
    <nd ref="242733035"/>
    <nd ref="242733044"/>
    <nd ref="242733057"/>
    <nd ref="242733068"/>
    <nd ref="242733081"/>
    <nd ref="242733092"/>
    <nd ref="242733102"/>
    <nd ref="242733110"/>
    <nd ref="242733120"/>
    <nd ref="242733127"/>
    <nd ref="242733135"/>
    <nd ref="242733144"/>
    <nd ref="242733153"/>
    <nd ref="242733161"/>
    <nd ref="242733171"/>
    <nd ref="242733181"/>
    <nd ref="242733190"/>
    <nd ref="242733199"/>
    <nd ref="242733210"/>
    <nd ref="242733221"/>
    <nd ref="242733232"/>
    <nd ref="242733246"/>
    <nd ref="242733260"/>
    <nd ref="242733274"/>
    <nd ref="242733289"/>
    <nd ref="242733305"/>
    <nd ref="1838715249"/>
    <nd ref="242733319"/>
    <nd ref="242733334"/>
    <nd ref="242733345"/>
    <nd ref="242733355"/>
    <nd ref="242733376"/>
    <nd ref="1838715246"/>
    <nd ref="242733425"/>
    <nd ref="242733436"/>
    <tag k="highway" v="tertiary"/>
    <tag k="name" v="Tamaree Road"/>
  </way>
  <way id="22633869" version="6" timestamp="2012-07-19T13:20:32Z" uid="722137" user="OSMF Redaction Account" changeset="12328786">
    <nd ref="242732931"/>
    <nd ref="242732939"/>
    <tag k="highway" v="tertiary"/>
    <tag k="name" v="Tamaree Road"/>
  </way>
  <way id="22633869" version="7" timestamp="2012-07-26T12:55:19Z" uid="349913" user="Peter W34" changeset="12498950">
    <nd ref="242710471"/>
    <nd ref="242732881"/>
    <nd ref="242732891"/>
    <nd ref="242732901"/>
    <nd ref="242732912"/>
    <nd ref="242732923"/>
    <nd ref="242732931"/>
    <tag k="highway" v="tertiary"/>
    <tag k="name" v="Tamaree Road"/>
  </way>
  <way id="22633905" version="8" timestamp="2012-08-08T22:17:27Z" uid="74570" user="Richard Mann" changeset="12662730">
    <nd ref="242736691"/>
    <nd ref="242736692"/>
    <tag k="bridge" v="yes"/>
    <tag k="electrified" v="contact_line"/>
    <tag k="frequency" v="50"/>
    <tag k="gauge" v="1435"/>
    <tag k="layer" v="1"/>
    <tag k="name" v="Midland Main Line"/>
    <tag k="note" v="SPCE Bridge 62"/>
    <tag k="passenger_lines" v="4"/>
    <tag k="railway" v="rail"/>
    <tag k="source" v="NPE"/>
    <tag k="tracks" v="4"/>
    <tag k="voltage" v="25000"/>
  </way>
  <way id="22633905" version="9" timestamp="2012-08-10T19:25:25Z" uid="74570" user="Richard Mann" changeset="12683844">
    <nd ref="242736691"/>
    <nd ref="242736692"/>
    <tag k="bridge" v="yes"/>
    <tag k="electrified" v="contact_line"/>
    <tag k="frequency" v="50"/>
    <tag k="gauge" v="1435"/>
    <tag k="layer" v="1"/>
    <tag k="name" v="Midland Main Line"/>
    <tag k="note" v="SPCE Bridge 62"/>
    <tag k="passenger_lines" v="4"/>
    <tag k="railway" v="rail"/>
    <tag k="source" v="NPE"/>
    <tag k="track_detail" v="yes"/>
    <tag k="tracks" v="4"/>
    <tag k="voltage" v="25000"/>
  </way>
  <way id="22633906" version="7" timestamp="2012-05-14T20:33:23Z" uid="165061" user="mapper999" changeset="11598378">
    <nd ref="242736692"/>
    <nd ref="1752994672"/>
    <nd ref="13884199"/>
    <nd ref="1752994647"/>
    <nd ref="1752994634"/>
    <nd ref="288784642"/>
    <tag k="electrified" v="contact_line"/>
    <tag k="frequency" v="50"/>
    <tag k="gauge" v="1435"/>
    <tag k="name" v="Midland Main Line"/>
    <tag k="railway" v="rail"/>
    <tag k="source" v="NPE"/>
    <tag k="tracks" v="4"/>
    <tag k="voltage" v="25000"/>
  </way>
  <way id="22633906" version="8" timestamp="2012-08-08T22:17:40Z" uid="74570" user="Richard Mann" changeset="12662730">
    <nd ref="242736692"/>
    <nd ref="1752994672"/>
    <nd ref="13884199"/>
    <nd ref="1752994647"/>
    <nd ref="1752994634"/>
    <nd ref="288784642"/>
    <tag k="electrified" v="contact_line"/>
    <tag k="frequency" v="50"/>
    <tag k="gauge" v="1435"/>
    <tag k="name" v="Midland Main Line"/>
    <tag k="passenger_lines" v="4"/>
    <tag k="railway" v="rail"/>
    <tag k="source" v="NPE"/>
    <tag k="tracks" v="4"/>
    <tag k="voltage" v="25000"/>
  </way>
  <way id="22633906" version="9" timestamp="2012-08-10T19:25:39Z" uid="74570" user="Richard Mann" changeset="12683844">
    <nd ref="242736692"/>
    <nd ref="1752994672"/>
    <nd ref="13884199"/>
    <nd ref="1752994647"/>
    <nd ref="1752994634"/>
    <nd ref="288784642"/>
    <tag k="electrified" v="contact_line"/>
    <tag k="frequency" v="50"/>
    <tag k="gauge" v="1435"/>
    <tag k="name" v="Midland Main Line"/>
    <tag k="passenger_lines" v="4"/>
    <tag k="railway" v="rail"/>
    <tag k="source" v="NPE"/>
    <tag k="track_detail" v="yes"/>
    <tag k="tracks" v="4"/>
    <tag k="voltage" v="25000"/>
  </way>
</osm>
