<?xml version='1.0' encoding='UTF-8'?>
<osm version="0.6" generator="libosmium/2.20.0">
  <way id="22751000" version="2" timestamp="2010-07-08T04:55:07Z" uid="74617" user="JohnSmith" changeset="5163091">
    <nd ref="244117850"/>
    <nd ref="244117851"/>
    <nd ref="244117852"/>
    <nd ref="244117853"/>
    <nd ref="244117856"/>
    <nd ref="244117859"/>
    <nd ref="244117908"/>
    <nd ref="244117850"/>
    <nd ref="244117909"/>
    <nd ref="244117923"/>
    <nd ref="244117924"/>
    <nd ref="244117925"/>
    <nd ref="244117926"/>
    <nd ref="244117927"/>
    <tag k="highway" v="residential"/>
    <tag k="lanes" v="1"/>
    <tag k="maxspeed" v="50"/>
    <tag k="maxspeed:source" v="default residential speed limit in Australia"/>
    <tag k="name" v="Samuelson Crescent"/>
    <tag k="source" v="survey"/>
    <tag k="surface" v="paved"/>
  </way>
  <way id="22751000" version="3" timestamp="2012-01-15T23:03:36Z" uid="147510" user="woodpeck_fixbot" changeset="10404406">
    <nd ref="244117850"/>
    <nd ref="244117851"/>
    <nd ref="244117852"/>
    <nd ref="244117853"/>
    <nd ref="244117856"/>
    <nd ref="244117859"/>
    <nd ref="244117908"/>
    <nd ref="244117850"/>
    <nd ref="244117909"/>
    <nd ref="244117923"/>
    <nd ref="244117924"/>
    <nd ref="244117925"/>
    <nd ref="244117926"/>
    <nd ref="244117927"/>
    <tag k="highway" v="residential"/>
    <tag k="lanes" v="1"/>
    <tag k="name" v="Samuelson Crescent"/>
    <tag k="source" v="survey"/>
    <tag k="surface" v="paved"/>
  </way>
  <way id="22751001" version="2" timestamp="2010-07-08T04:54:56Z" uid="74617" user="JohnSmith" changeset="5163091">
    <nd ref="244117928"/>
    <nd ref="244117929"/>
    <nd ref="244117930"/>
    <nd ref="244117931"/>
    <nd ref="244117933"/>
    <nd ref="244117934"/>
    <nd ref="244117935"/>
    <nd ref="244117937"/>
    <nd ref="244117940"/>
    <nd ref="244117941"/>
    <nd ref="244117943"/>
    <nd ref="244117944"/>
    <tag k="highway" v="residential"/>
    <tag k="lanes" v="1"/>
    <tag k="maxspeed" v="50"/>
    <tag k="maxspeed:source" v="default residential speed limit in Australia"/>
    <tag k="name" v="Evangelene Crescent"/>
    <tag k="source" v="survey"/>
    <tag k="surface" v="paved"/>
  </way>
  <way id="22751001" version="3" timestamp="2012-01-15T23:03:38Z" uid="147510" user="woodpeck_fixbot" changeset="10404406">
    <nd ref="244117928"/>
    <nd ref="244117929"/>
    <nd ref="244117930"/>
    <nd ref="244117931"/>
    <nd ref="244117933"/>
    <nd ref="244117934"/>
    <nd ref="244117935"/>
    <nd ref="244117937"/>
    <nd ref="244117940"/>
    <nd ref="244117941"/>
    <nd ref="244117943"/>
    <nd ref="244117944"/>
    <tag k="highway" v="residential"/>
    <tag k="lanes" v="1"/>
    <tag k="name" v="Evangelene Crescent"/>
    <tag k="source" v="survey"/>
    <tag k="surface" v="paved"/>
  </way>
  <way id="22751002" version="2" timestamp="2010-07-08T04:55:30Z" uid="74617" user="JohnSmith" changeset="5163091">
    <nd ref="244117949"/>
    <nd ref="244117955"/>
    <nd ref="244117956"/>
    <nd ref="244117944"/>
    <nd ref="244117959"/>
    <nd ref="244117960"/>
    <nd ref="244117961"/>
    <nd ref="244117973"/>
    <nd ref="244117974"/>
    <nd ref="244117975"/>
    <nd ref="244117928"/>
    <nd ref="244117976"/>
    <tag k="highway" v="residential"/>
    <tag k="lanes" v="1"/>
    <tag k="maxspeed" v="50"/>
    <tag k="maxspeed:source" v="default residential speed limit in Australia"/>
    <tag k="name" v="Alahna Drive"/>
    <tag k="source" v="survey"/>
    <tag k="surface" v="paved"/>
  </way>
  <way id="22751002" version="3" timestamp="2012-01-15T23:03:39Z" uid="147510" user="woodpeck_fixbot" changeset="10404406">
    <nd ref="244117949"/>
    <nd ref="244117955"/>
    <nd ref="244117956"/>
    <nd ref="244117944"/>
    <nd ref="244117959"/>
    <nd ref="244117960"/>
    <nd ref="244117961"/>
    <nd ref="244117973"/>
    <nd ref="244117974"/>
    <nd ref="244117975"/>
    <nd ref="244117928"/>
    <nd ref="244117976"/>
    <tag k="highway" v="residential"/>
    <tag k="lanes" v="1"/>
    <tag k="name" v="Alahna Drive"/>
    <tag k="source" v="survey"/>
    <tag k="surface" v="paved"/>
  </way>
  <way id="22751003" version="3" timestamp="2010-07-08T04:55:21Z" uid="74617" user="JohnSmith" changeset="5163091">
    <nd ref="244118016"/>
    <nd ref="244118015"/>
    <nd ref="244118013"/>
    <nd ref="244117987"/>
    <nd ref="244118012"/>
    <nd ref="244117988"/>
    <nd ref="244117996"/>
    <nd ref="244117997"/>
    <tag k="highway" v="residential"/>
    <tag k="lanes" v="1"/>
    <tag k="maxspeed" v="50"/>
    <tag k="maxspeed:source" v="default residential speed limit in Australia"/>
    <tag k="name" v="Coningdale Crescent"/>
    <tag k="source" v="survey"/>
    <tag k="surface" v="paved"/>
  </way>
  <way id="22751003" version="4" timestamp="2012-01-15T23:03:40Z" uid="147510" user="woodpeck_fixbot" changeset="10404406">
    <nd ref="244118016"/>
    <nd ref="244118015"/>
    <nd ref="244118013"/>
    <nd ref="244117987"/>
    <nd ref="244118012"/>
    <nd ref="244117988"/>
    <nd ref="244117996"/>
    <nd ref="244117997"/>
    <tag k="highway" v="residential"/>
    <tag k="lanes" v="1"/>
    <tag k="name" v="Coningdale Crescent"/>
    <tag k="source" v="survey"/>
    <tag k="surface" v="paved"/>
  </way>
  <way id="22751004" version="2" timestamp="2010-07-08T04:55:37Z" uid="74617" user="JohnSmith" changeset="5163091">
    <nd ref="244117988"/>
    <nd ref="244117989"/>
    <nd ref="244117990"/>
    <nd ref="244117991"/>
    <nd ref="244117993"/>
    <nd ref="244117994"/>
    <nd ref="244117995"/>
    <nd ref="244117989"/>
    <tag k="highway" v="residential"/>
    <tag k="lanes" v="1"/>
    <tag k="maxspeed" v="50"/>
    <tag k="maxspeed:source" v="default residential speed limit in Australia"/>
    <tag k="name" v="Kilcoy Close"/>
    <tag k="source" v="survey"/>
    <tag k="surface" v="paved"/>
  </way>
  <way id="22751004" version="3" timestamp="2012-01-15T23:03:42Z" uid="147510" user="woodpeck_fixbot" changeset="10404406">
    <nd ref="244117988"/>
    <nd ref="244117989"/>
    <nd ref="244117990"/>
    <nd ref="244117991"/>
    <nd ref="244117993"/>
    <nd ref="244117994"/>
    <nd ref="244117995"/>
    <nd ref="244117989"/>
    <tag k="highway" v="residential"/>
    <tag k="lanes" v="1"/>
    <tag k="name" v="Kilcoy Close"/>
    <tag k="source" v="survey"/>
    <tag k="surface" v="paved"/>
  </way>
  <way id="22751005" version="2" timestamp="2010-07-08T04:55:26Z" uid="74617" user="JohnSmith" changeset="5163091">
    <nd ref="244117977"/>
    <nd ref="244117980"/>
    <nd ref="244117982"/>
    <nd ref="244117983"/>
    <nd ref="244117984"/>
    <nd ref="244117986"/>
    <nd ref="244117977"/>
    <nd ref="244117987"/>
    <tag k="highway" v="residential"/>
    <tag k="lanes" v="1"/>
    <tag k="maxspeed" v="50"/>
    <tag k="maxspeed:source" v="default residential speed limit in Australia"/>
    <tag k="name" v="Pointsfield Place"/>
    <tag k="source" v="survey"/>
    <tag k="surface" v="paved"/>
  </way>
  <way id="22751005" version="3" timestamp="2012-01-15T23:03:43Z" uid="147510" user="woodpeck_fixbot" changeset="10404406">
    <nd ref="244117977"/>
    <nd ref="244117980"/>
    <nd ref="244117982"/>
    <nd ref="244117983"/>
    <nd ref="244117984"/>
    <nd ref="244117986"/>
    <nd ref="244117977"/>
    <nd ref="244117987"/>
    <tag k="highway" v="residential"/>
    <tag k="lanes" v="1"/>
    <tag k="name" v="Pointsfield Place"/>
    <tag k="source" v="survey"/>
    <tag k="surface" v="paved"/>
  </way>
  <way id="22751007" version="2" timestamp="2010-07-08T04:55:49Z" uid="74617" user="JohnSmith" changeset="5163091">
    <nd ref="244118017"/>
    <nd ref="244118019"/>
    <nd ref="244118021"/>
    <nd ref="244118028"/>
    <nd ref="244118041"/>
    <nd ref="244118030"/>
    <nd ref="244118032"/>
    <nd ref="244118034"/>
    <nd ref="244118035"/>
    <nd ref="244118036"/>
    <nd ref="244118037"/>
    <nd ref="244118041"/>
    <tag k="highway" v="residential"/>
    <tag k="lanes" v="1"/>
    <tag k="maxspeed" v="50"/>
    <tag k="maxspeed:source" v="default residential speed limit in Australia"/>
    <tag k="name" v="Phyllis Crescent"/>
    <tag k="source" v="survey"/>
    <tag k="surface" v="paved"/>
  </way>
  <way id="22751007" version="3" timestamp="2011-02-01T14:39:11Z" uid="4467" user="Rosscoe" changeset="7155308">
    <nd ref="244118017"/>
    <nd ref="244118021"/>
    <nd ref="1131014955"/>
    <nd ref="244118028"/>
    <nd ref="244118030"/>
    <tag k="highway" v="residential"/>
    <tag k="lanes" v="1"/>
    <tag k="maxspeed" v="50"/>
    <tag k="maxspeed:source" v="default residential speed limit in Australia"/>
    <tag k="name" v="Phyllis Crescent"/>
    <tag k="source" v="survey"/>
    <tag k="surface" v="paved"/>
  </way>
  <way id="22751007" version="4" timestamp="2012-01-15T23:03:45Z" uid="147510" user="woodpeck_fixbot" changeset="10404406">
    <nd ref="244118017"/>
    <nd ref="244118021"/>
    <nd ref="1131014955"/>
    <nd ref="244118028"/>
    <nd ref="244118030"/>
    <tag k="highway" v="residential"/>
    <tag k="lanes" v="1"/>
    <tag k="name" v="Phyllis Crescent"/>
    <tag k="source" v="survey"/>
    <tag k="surface" v="paved"/>
  </way>
  <way id="22751008" version="2" timestamp="2010-07-08T04:55:57Z" uid="74617" user="JohnSmith" changeset="5163091">
    <nd ref="244118042"/>
    <nd ref="244118043"/>
    <tag k="highway" v="residential"/>
    <tag k="lanes" v="1"/>
    <tag k="maxspeed" v="50"/>
    <tag k="maxspeed:source" v="default residential speed limit in Australia"/>
    <tag k="name" v="Pheonix Lane"/>
    <tag k="source" v="survey"/>
    <tag k="surface" v="paved"/>
  </way>
  <way id="22751008" version="3" timestamp="2012-01-15T23:03:46Z" uid="147510" user="woodpeck_fixbot" changeset="10404406">
    <nd ref="244118042"/>
    <nd ref="244118043"/>
    <tag k="highway" v="residential"/>
    <tag k="lanes" v="1"/>
    <tag k="name" v="Pheonix Lane"/>
    <tag k="source" v="survey"/>
    <tag k="surface" v="paved"/>
  </way>
  <way id="22751011" version="2" timestamp="2010-07-08T04:54:55Z" uid="74617" user="JohnSmith" changeset="5163091">
    <nd ref="244118049"/>
    <nd ref="244118050"/>
    <tag k="highway" v="residential"/>
    <tag k="lanes" v="1"/>
    <tag k="maxspeed" v="50"/>
    <tag k="maxspeed:source" v="default residential speed limit in Australia"/>
    <tag k="name" v="Oliver Avenue"/>
    <tag k="source" v="survey"/>
    <tag k="surface" v="paved"/>
  </way>
  <way id="22751011" version="3" timestamp="2012-01-15T23:03:47Z" uid="147510" user="woodpeck_fixbot" changeset="10404406">
    <nd ref="244118049"/>
    <nd ref="244118050"/>
    <tag k="highway" v="residential"/>
    <tag k="lanes" v="1"/>
    <tag k="name" v="Oliver Avenue"/>
    <tag k="source" v="survey"/>
    <tag k="surface" v="paved"/>
  </way>
  <way id="22751012" version="4" timestamp="2010-07-08T04:55:12Z" uid="74617" user="JohnSmith" changeset="5163091">
    <nd ref="246440074"/>
    <nd ref="246440047"/>
    <nd ref="211535113"/>
    <nd ref="211536468"/>
    <nd ref="244118054"/>
    <nd ref="204888686"/>
    <nd ref="217782568"/>
    <nd ref="211536472"/>
    <nd ref="244118050"/>
    <nd ref="204889518"/>
    <nd ref="244118052"/>
    <nd ref="208102974"/>
    <nd ref="208102528"/>
    <tag k="highway" v="residential"/>
    <tag k="maxspeed" v="50"/>
    <tag k="maxspeed:source" v="default residential speed limit in Australia"/>
    <tag k="name" v="Douglas Street"/>
    <tag k="source" v="survey"/>
    <tag k="surface" v="asphalt"/>
  </way>
  <way id="22751012" version="5" timestamp="2011-02-01T10:46:17Z" uid="4467" user="Rosscoe" changeset="7153417">
    <nd ref="246440074"/>
    <nd ref="246440047"/>
    <nd ref="211535113"/>
    <nd ref="211536468"/>
    <nd ref="244118054"/>
    <nd ref="204888686"/>
    <nd ref="217782568"/>
    <nd ref="211536472"/>
    <nd ref="244118050"/>
    <nd ref="204889518"/>
    <nd ref="244118052"/>
    <nd ref="208102974"/>
    <nd ref="1130831801"/>
    <nd ref="1130831812"/>
    <tag k="highway" v="residential"/>
    <tag k="maxspeed" v="50"/>
    <tag k="maxspeed:source" v="default residential speed limit in Australia"/>
    <tag k="name" v="Douglas Street"/>
    <tag k="source" v="survey"/>
    <tag k="surface" v="asphalt"/>
  </way>
  <way id="22751012" version="6" timestamp="2012-01-15T23:03:48Z" uid="147510" user="woodpeck_fixbot" changeset="10404406">
    <nd ref="246440074"/>
    <nd ref="246440047"/>
    <nd ref="211535113"/>
    <nd ref="211536468"/>
    <nd ref="244118054"/>
    <nd ref="204888686"/>
    <nd ref="217782568"/>
    <nd ref="211536472"/>
    <nd ref="244118050"/>
    <nd ref="204889518"/>
    <nd ref="244118052"/>
    <nd ref="208102974"/>
    <nd ref="1130831801"/>
    <nd ref="1130831812"/>
    <tag k="highway" v="residential"/>
    <tag k="name" v="Douglas Street"/>
    <tag k="source" v="survey"/>
    <tag k="surface" v="asphalt"/>
  </way>
  <way id="22751018" version="2" timestamp="2010-07-08T04:56:02Z" uid="74617" user="JohnSmith" changeset="5163091">
    <nd ref="244118052"/>
    <nd ref="244118053"/>
    <tag k="highway" v="residential"/>
    <tag k="lanes" v="1"/>
    <tag k="maxspeed" v="50"/>
    <tag k="maxspeed:source" v="default residential speed limit in Australia"/>
    <tag k="name" v="Holloway Avenue"/>
    <tag k="source" v="survey"/>
    <tag k="surface" v="paved"/>
  </way>
  <way id="22751018" version="3" timestamp="2012-01-15T23:03:50Z" uid="147510" user="woodpeck_fixbot" changeset="10404406">
    <nd ref="244118052"/>
    <nd ref="244118053"/>
    <tag k="highway" v="residential"/>
    <tag k="lanes" v="1"/>
    <tag k="name" v="Holloway Avenue"/>
    <tag k="source" v="survey"/>
    <tag k="surface" v="paved"/>
  </way>
  <way id="22751019" version="2" timestamp="2010-07-08T04:55:52Z" uid="74617" user="JohnSmith" changeset="5163091">
    <nd ref="244118054"/>
    <nd ref="244118055"/>
    <tag k="highway" v="residential"/>
    <tag k="lanes" v="1"/>
    <tag k="maxspeed" v="50"/>
    <tag k="maxspeed:source" v="default residential speed limit in Australia"/>
    <tag k="name" v="Speare Avenue"/>
    <tag k="source" v="survey"/>
    <tag k="surface" v="paved"/>
  </way>
  <way id="22751019" version="3" timestamp="2012-01-15T23:03:51Z" uid="147510" user="woodpeck_fixbot" changeset="10404406">
    <nd ref="244118054"/>
    <nd ref="244118055"/>
    <tag k="highway" v="residential"/>
    <tag k="lanes" v="1"/>
    <tag k="name" v="Speare Avenue"/>
    <tag k="source" v="survey"/>
    <tag k="surface" v="paved"/>
  </way>
  <way id="22751020" version="3" timestamp="2010-07-08T04:54:55Z" uid="74617" user="JohnSmith" changeset="5163091">
    <nd ref="214986361"/>
    <nd ref="214986473"/>
    <nd ref="214986591"/>
    <nd ref="214986689"/>
    <nd ref="214986793"/>
    <nd ref="214987006"/>
    <nd ref="214987111"/>
    <nd ref="244118063"/>
    <nd ref="244118062"/>
    <nd ref="214987972"/>
    <tag k="highway" v="residential"/>
    <tag k="lanes" v="1"/>
    <tag k="maxspeed" v="50"/>
    <tag k="maxspeed:source" v="default residential speed limit in Australia"/>
    <tag k="name" v="Elizabeth Street"/>
    <tag k="source" v="survey"/>
    <tag k="surface" v="paved"/>
  </way>
  <way id="22751020" version="4" timestamp="2012-01-15T23:03:52Z" uid="147510" user="woodpeck_fixbot" changeset="10404406">
    <nd ref="214986361"/>
    <nd ref="214986473"/>
    <nd ref="214986591"/>
    <nd ref="214986689"/>
    <nd ref="214986793"/>
    <nd ref="214987006"/>
    <nd ref="214987111"/>
    <nd ref="244118063"/>
    <nd ref="244118062"/>
    <nd ref="214987972"/>
    <tag k="highway" v="residential"/>
    <tag k="lanes" v="1"/>
    <tag k="name" v="Elizabeth Street"/>
    <tag k="source" v="survey"/>
    <tag k="surface" v="paved"/>
  </way>
  <way id="22751021" version="2" timestamp="2010-07-08T04:55:57Z" uid="74617" user="JohnSmith" changeset="5163091">
    <nd ref="244118086"/>
    <nd ref="244118087"/>
    <nd ref="244118091"/>
    <nd ref="244118092"/>
    <nd ref="244118093"/>
    <nd ref="244118094"/>
    <tag k="highway" v="residential"/>
    <tag k="lanes" v="1"/>
    <tag k="maxspeed" v="50"/>
    <tag k="maxspeed:source" v="default residential speed limit in Australia"/>
    <tag k="name" v="Grafton Road"/>
    <tag k="source" v="survey"/>
    <tag k="surface" v="paved"/>
  </way>
  <way id="22751021" version="3" timestamp="2012-01-15T23:03:54Z" uid="147510" user="woodpeck_fixbot" changeset="10404406">
    <nd ref="244118086"/>
    <nd ref="244118087"/>
    <nd ref="244118091"/>
    <nd ref="244118092"/>
    <nd ref="244118093"/>
    <nd ref="244118094"/>
    <tag k="highway" v="residential"/>
    <tag k="lanes" v="1"/>
    <tag k="name" v="Grafton Road"/>
    <tag k="source" v="survey"/>
    <tag k="surface" v="paved"/>
  </way>
  <way id="22751022" version="2" timestamp="2010-07-08T04:55:20Z" uid="74617" user="JohnSmith" changeset="5163091">
    <nd ref="214987111"/>
    <nd ref="244118065"/>
    <nd ref="244118069"/>
    <nd ref="244118072"/>
    <nd ref="244118080"/>
    <nd ref="244118081"/>
    <nd ref="244118085"/>
    <tag k="highway" v="residential"/>
    <tag k="lanes" v="1"/>
    <tag k="maxspeed" v="50"/>
    <tag k="maxspeed:source" v="default residential speed limit in Australia"/>
    <tag k="name" v="Phillip Street"/>
    <tag k="source" v="survey"/>
    <tag k="surface" v="paved"/>
  </way>
  <way id="22751022" version="3" timestamp="2012-01-15T23:03:55Z" uid="147510" user="woodpeck_fixbot" changeset="10404406">
    <nd ref="214987111"/>
    <nd ref="244118065"/>
    <nd ref="244118069"/>
    <nd ref="244118072"/>
    <nd ref="244118080"/>
    <nd ref="244118081"/>
    <nd ref="244118085"/>
    <tag k="highway" v="residential"/>
    <tag k="lanes" v="1"/>
    <tag k="name" v="Phillip Street"/>
    <tag k="source" v="survey"/>
    <tag k="surface" v="paved"/>
  </way>
  <way id="22751023" version="4" timestamp="2010-07-08T04:55:06Z" uid="74617" user="JohnSmith" changeset="5163091">
    <nd ref="618029107"/>
    <nd ref="246048779"/>
    <nd ref="618029094"/>
    <nd ref="217775807"/>
    <nd ref="618029114"/>
    <tag k="highway" v="residential"/>
    <tag k="lanes" v="1"/>
    <tag k="maxspeed" v="50"/>
    <tag k="maxspeed:source" v="default residential speed limit in Australia"/>
    <tag k="name" v="Beardy Street"/>
    <tag k="source" v="survey"/>
    <tag k="surface" v="paved"/>
  </way>
  <way id="22751023" version="5" timestamp="2012-01-15T23:03:57Z" uid="147510" user="woodpeck_fixbot" changeset="10404406">
    <nd ref="618029107"/>
    <nd ref="246048779"/>
    <nd ref="618029094"/>
    <nd ref="217775807"/>
    <nd ref="618029114"/>
    <tag k="highway" v="residential"/>
    <tag k="lanes" v="1"/>
    <tag k="name" v="Beardy Street"/>
    <tag k="source" v="survey"/>
    <tag k="surface" v="paved"/>
  </way>
  <way id="22751088" version="13" timestamp="2011-03-09T04:51:27Z" uid="4467" user="Rosscoe" changeset="7500625">
    <nd ref="96330273"/>
    <nd ref="726932607"/>
    <nd ref="243436284"/>
    <nd ref="248235562"/>
    <nd ref="331387541"/>
    <nd ref="248235564"/>
    <nd ref="331387834"/>
    <nd ref="248235568"/>
    <nd ref="331386482"/>
    <nd ref="248235570"/>
    <nd ref="256842040"/>
    <nd ref="575455188"/>
    <nd ref="30002189"/>
    <tag k="highway" v="primary"/>
    <tag k="name" v="Williams Road"/>
    <tag k="ref" v="25"/>
  </way>
  <way id="22751088" version="14" timestamp="2011-03-31T03:41:16Z" uid="11111" user="melb_guy" changeset="7722101">
    <nd ref="96330273"/>
    <nd ref="1226374925"/>
    <nd ref="726932607"/>
    <nd ref="243436284"/>
    <tag k="highway" v="trunk_link"/>
    <tag k="lanes" v="4"/>
    <tag k="maxspeed" v="60"/>
    <tag k="source" v="nearmap"/>
  </way>
  <way id="22751089" version="6" timestamp="2010-07-09T04:58:53Z" uid="74617" user="JohnSmith" changeset="5170972">
    <nd ref="244118618"/>
    <nd ref="244118620"/>
    <nd ref="246377957"/>
    <nd ref="246376496"/>
    <nd ref="246378038"/>
    <nd ref="246378028"/>
    <nd ref="244118619"/>
    <tag k="highway" v="residential"/>
    <tag k="maxspeed" v="50"/>
    <tag k="maxspeed:source" v="default residential speed limit in Australia"/>
    <tag k="name" v="Bruce Street"/>
  </way>
  <way id="22751089" version="7" timestamp="2011-03-15T04:49:00Z" uid="288568" user="nickbarker" changeset="7563206">
    <nd ref="244118618"/>
    <nd ref="244118620"/>
    <nd ref="246377957"/>
    <nd ref="246376496"/>
    <nd ref="246378038"/>
    <nd ref="246378028"/>
    <nd ref="1202677848"/>
    <nd ref="244118619"/>
    <tag k="highway" v="residential"/>
    <tag k="maxspeed" v="50"/>
    <tag k="maxspeed:source" v="default residential speed limit in Australia"/>
    <tag k="name" v="Bruce Street"/>
  </way>
  <way id="22751089" version="8" timestamp="2011-04-11T05:18:20Z" uid="4467" user="Rosscoe" changeset="7829404">
    <nd ref="1240510987"/>
    <nd ref="1240511041"/>
    <nd ref="244118620"/>
    <nd ref="246377957"/>
    <nd ref="246376496"/>
    <nd ref="246378038"/>
    <nd ref="246378028"/>
    <nd ref="1202677848"/>
    <nd ref="244118619"/>
    <tag k="highway" v="residential"/>
    <tag k="maxspeed" v="50"/>
    <tag k="maxspeed:source" v="default residential speed limit in Australia"/>
    <tag k="name" v="Bruce Street"/>
  </way>
  <way id="22751089" version="9" timestamp="2011-04-15T06:34:36Z" uid="288568" user="nickbarker" changeset="7866985">
    <nd ref="1240510987"/>
    <nd ref="1240511041"/>
    <nd ref="244118620"/>
    <nd ref="246377957"/>
    <nd ref="246376496"/>
    <nd ref="246378038"/>
    <nd ref="246378028"/>
    <nd ref="1202677848"/>
    <nd ref="244118619"/>
    <tag k="highway" v="residential"/>
    <tag k="maxspeed" v="50"/>
    <tag k="maxspeed:source" v="default residential speed limit in Australia"/>
    <tag k="name" v="Bruce Street"/>
    <tag k="surface" v="asphalt"/>
  </way>
  <way id="22751089" version="10" timestamp="2011-08-16T05:09:26Z" uid="288568" user="nickbarker" changeset="9033208">
    <nd ref="1240510987"/>
    <nd ref="1240511041"/>
    <nd ref="1400601247"/>
    <nd ref="244118620"/>
    <nd ref="246377957"/>
    <nd ref="246376496"/>
    <nd ref="246378038"/>
    <nd ref="246378028"/>
    <nd ref="1202677848"/>
    <nd ref="244118619"/>
    <tag k="highway" v="residential"/>
    <tag k="maxspeed" v="50"/>
    <tag k="maxspeed:source" v="default residential speed limit in Australia"/>
    <tag k="name" v="Bruce Street"/>
    <tag k="surface" v="asphalt"/>
  </way>
  <way id="22751089" version="11" timestamp="2012-01-15T23:03:59Z" uid="147510" user="woodpeck_fixbot" changeset="10404406">
    <nd ref="1240510987"/>
    <nd ref="1240511041"/>
    <nd ref="1400601247"/>
    <nd ref="244118620"/>
    <nd ref="246377957"/>
    <nd ref="246376496"/>
    <nd ref="246378038"/>
    <nd ref="246378028"/>
    <nd ref="1202677848"/>
    <nd ref="244118619"/>
    <tag k="highway" v="residential"/>
    <tag k="name" v="Bruce Street"/>
    <tag k="surface" v="asphalt"/>
  </way>
  <way id="22751090" version="4" timestamp="2010-07-09T05:01:36Z" uid="74617" user="JohnSmith" changeset="5170972">
    <nd ref="244118620"/>
    <nd ref="244118621"/>
    <nd ref="628471359"/>
    <nd ref="244118622"/>
    <nd ref="244118623"/>
    <nd ref="244118604"/>
    <tag k="highway" v="residential"/>
    <tag k="maxspeed" v="50"/>
    <tag k="maxspeed:source" v="default residential speed limit in Australia"/>
    <tag k="name" v="Verdant Avenue"/>
  </way>
  <way id="22751090" version="5" timestamp="2011-04-15T06:34:36Z" uid="288568" user="nickbarker" changeset="7866985">
    <nd ref="244118620"/>
    <nd ref="244118621"/>
    <nd ref="628471359"/>
    <nd ref="244118622"/>
    <nd ref="244118623"/>
    <nd ref="244118604"/>
    <tag k="highway" v="residential"/>
    <tag k="maxspeed" v="50"/>
    <tag k="maxspeed:source" v="default residential speed limit in Australia"/>
    <tag k="name" v="Verdant Avenue"/>
    <tag k="surface" v="asphalt"/>
  </way>
  <way id="22751090" version="6" timestamp="2012-01-15T23:04:00Z" uid="147510" user="woodpeck_fixbot" changeset="10404406">
    <nd ref="244118620"/>
    <nd ref="244118621"/>
    <nd ref="628471359"/>
    <nd ref="244118622"/>
    <nd ref="244118623"/>
    <nd ref="244118604"/>
    <tag k="highway" v="residential"/>
    <tag k="name" v="Verdant Avenue"/>
    <tag k="surface" v="asphalt"/>
  </way>
  <way id="22751091" version="3" timestamp="2010-07-07T08:49:05Z" uid="74617" user="JohnSmith" changeset="5156250">
    <nd ref="244118628"/>
    <nd ref="244118629"/>
    <nd ref="244118630"/>
    <nd ref="244118631"/>
    <nd ref="244118632"/>
    <nd ref="244118633"/>
    <nd ref="244118634"/>
    <nd ref="244118635"/>
    <nd ref="244118636"/>
    <tag k="highway" v="residential"/>
    <tag k="maxspeed" v="50"/>
    <tag k="maxspeed:source" v="default residential speed limit in Australia"/>
    <tag k="name" v="Macumba Place"/>
    <tag k="source" v="image"/>
  </way>
  <way id="22751091" version="4" timestamp="2011-12-22T04:34:08Z" uid="12434" user="nm7s9" changeset="10176894"/>
  <way id="22751100" version="5" timestamp="2010-07-07T08:21:45Z" uid="74617" user="JohnSmith" changeset="5156250">
    <nd ref="244118683"/>
    <nd ref="244118684"/>
    <nd ref="244118685"/>
    <nd ref="244118686"/>
    <tag k="highway" v="residential"/>
    <tag k="maxspeed" v="50"/>
    <tag k="maxspeed:source" v="default residential speed limit in Australia"/>
    <tag k="name" v="Nassau Place"/>
  </way>
  <way id="22751100" version="6" timestamp="2011-12-22T04:34:08Z" uid="12434" user="nm7s9" changeset="10176894"/>
  <way id="22751101" version="3" timestamp="2008-08-15T00:04:53Z" uid="6975" user="ulfl" changeset="264731">
    <nd ref="244118687"/>
    <nd ref="244118688"/>
    <nd ref="244118689"/>
    <nd ref="244118690"/>
    <nd ref="244118687"/>
    <tag k="amenity" v="place_of_worship"/>
    <tag k="building" v="yes"/>
    <tag k="denomination" v="church_of_england"/>
    <tag k="name" v="St Stephens"/>
    <tag k="religion" v="christian"/>
  </way>
  <way id="22751101" version="4" timestamp="2009-03-27T14:52:38Z" uid="8235" user="chriscf" changeset="863323">
    <nd ref="244118687"/>
    <nd ref="244118688"/>
    <nd ref="244118689"/>
    <nd ref="244118690"/>
    <nd ref="244118687"/>
    <tag k="amenity" v="place_of_worship"/>
    <tag k="building" v="yes"/>
    <tag k="created_by" v="Potlatch 0.10f"/>
    <tag k="denomination" v="church_of_england"/>
    <tag k="name" v="Saint Stephen"/>
    <tag k="religion" v="christian"/>
  </way>
  <way id="22751101" version="5" timestamp="2010-01-18T16:22:08Z" uid="220669" user="Phil M" changeset="3651388">
    <nd ref="244118687"/>
    <nd ref="244118688"/>
    <nd ref="244118689"/>
    <nd ref="244118690"/>
    <nd ref="244118687"/>
    <tag k="amenity" v="place_of_worship"/>
    <tag k="building" v="yes"/>
    <tag k="denomination" v="church_of_england"/>
    <tag k="name" v="Saint Stephen&apos;s"/>
    <tag k="religion" v="christian"/>
  </way>
  <way id="22751101" version="6" timestamp="2010-10-28T14:59:30Z" uid="2160" user="Laurence" changeset="6209415">
    <nd ref="244118687"/>
    <nd ref="244118688"/>
    <nd ref="244118689"/>
    <nd ref="244118690"/>
    <nd ref="244118687"/>
    <tag k="addr:housenumber" v="21"/>
    <tag k="addr:postcode" v="BS1 1EQ"/>
    <tag k="addr:street" v="Saint Stephen&apos;s Street"/>
    <tag k="amenity" v="place_of_worship"/>
    <tag k="building" v="yes"/>
    <tag k="denomination" v="church_of_england"/>
    <tag k="email" v="info@saint-stephens.com"/>
    <tag k="facebook" v="http://www.hs.facebook.com/pages/Saint-Stephens/107145032663850"/>
    <tag k="name" v="Saint Stephen&apos;s"/>
    <tag k="phone" v="0117 927 7977"/>
    <tag k="religion" v="christian"/>
    <tag k="twitter" v="SaintStephensBS"/>
    <tag k="website" v="http://www.saint-stephens.com/"/>
  </way>
  <way id="22751101" version="7" timestamp="2011-07-31T22:11:06Z" uid="189782" user="Norfolkadam" changeset="8885504"/>
  <way id="22751178" version="7" timestamp="2010-07-09T03:19:50Z" uid="74617" user="JohnSmith" changeset="5170713">
    <nd ref="304888344"/>
    <nd ref="304890762"/>
    <tag k="highway" v="residential"/>
    <tag k="maxspeed" v="50"/>
    <tag k="maxspeed:source" v="default residential speed limit in Australia"/>
    <tag k="name" v="Orange Grove"/>
  </way>
  <way id="22751178" version="8" timestamp="2012-01-15T23:04:01Z" uid="147510" user="woodpeck_fixbot" changeset="10404406">
    <nd ref="304888344"/>
    <nd ref="304890762"/>
    <tag k="highway" v="residential"/>
    <tag k="name" v="Orange Grove"/>
  </way>
  <way id="22751706" version="2" timestamp="2010-07-09T22:20:55Z" uid="74617" user="JohnSmith" changeset="5176956">
    <nd ref="244128342"/>
    <nd ref="244128344"/>
    <nd ref="225976409"/>
    <nd ref="225976444"/>
    <nd ref="223620294"/>
    <tag k="highway" v="residential"/>
    <tag k="maxspeed" v="50"/>
    <tag k="maxspeed:source" v="default residential speed limit in Australia"/>
    <tag k="name" v="Woodlake Boulevard"/>
  </way>
  <way id="22751706" version="3" timestamp="2010-11-10T10:32:08Z" uid="189263" user="wildmyron" changeset="6334819">
    <nd ref="244128342"/>
    <nd ref="244128344"/>
    <nd ref="225976409"/>
    <nd ref="225976444"/>
    <nd ref="984103040"/>
    <nd ref="223620294"/>
    <tag k="highway" v="residential"/>
    <tag k="maxspeed" v="50"/>
    <tag k="maxspeed:source" v="default residential speed limit in Australia"/>
    <tag k="name" v="Woodlake Boulevard"/>
  </way>
  <way id="22751706" version="4" timestamp="2011-09-20T15:08:45Z" uid="142807" user="SDavies" changeset="9352039">
    <nd ref="244128342"/>
    <nd ref="244128344"/>
    <nd ref="225976409"/>
    <nd ref="1438386818"/>
    <nd ref="225976444"/>
    <nd ref="984103040"/>
    <nd ref="223620294"/>
    <tag k="highway" v="residential"/>
    <tag k="maxspeed" v="50"/>
    <tag k="maxspeed:source" v="default residential speed limit in Australia"/>
    <tag k="name" v="Woodlake Boulevard"/>
  </way>
  <way id="22751706" version="5" timestamp="2011-09-20T15:10:32Z" uid="142807" user="SDavies" changeset="9352039">
    <nd ref="244128342"/>
    <nd ref="244128344"/>
    <nd ref="225976409"/>
    <nd ref="1438386818"/>
    <nd ref="225976444"/>
    <nd ref="1438387382"/>
    <nd ref="984103040"/>
    <nd ref="223620294"/>
    <tag k="highway" v="residential"/>
    <tag k="maxspeed" v="50"/>
    <tag k="maxspeed:source" v="default residential speed limit in Australia"/>
    <tag k="name" v="Woodlake Boulevard"/>
  </way>
  <way id="22751706" version="6" timestamp="2012-01-15T23:04:02Z" uid="147510" user="woodpeck_fixbot" changeset="10404406">
    <nd ref="244128342"/>
    <nd ref="244128344"/>
    <nd ref="225976409"/>
    <nd ref="1438386818"/>
    <nd ref="225976444"/>
    <nd ref="1438387382"/>
    <nd ref="984103040"/>
    <nd ref="223620294"/>
    <tag k="highway" v="residential"/>
    <tag k="name" v="Woodlake Boulevard"/>
  </way>
  <way id="22751794" version="4" timestamp="2010-07-07T22:14:14Z" uid="74617" user="JohnSmith" changeset="5161069">
    <nd ref="244128680"/>
    <nd ref="377872304"/>
    <nd ref="77626632"/>
    <tag k="highway" v="residential"/>
    <tag k="maxspeed" v="50"/>
    <tag k="maxspeed:source" v="default residential speed limit in Australia"/>
    <tag k="name" v="Joseph Street"/>
  </way>
  <way id="22751794" version="5" timestamp="2012-01-15T23:04:03Z" uid="147510" user="woodpeck_fixbot" changeset="10404406">
    <nd ref="244128680"/>
    <nd ref="377872304"/>
    <nd ref="77626632"/>
    <tag k="highway" v="residential"/>
    <tag k="name" v="Joseph Street"/>
  </way>
  <way id="22751795" version="3" timestamp="2010-07-07T22:14:30Z" uid="74617" user="JohnSmith" changeset="5161069">
    <nd ref="244128681"/>
    <nd ref="244128679"/>
    <tag k="highway" v="residential"/>
    <tag k="maxspeed" v="50"/>
    <tag k="maxspeed:source" v="default residential speed limit in Australia"/>
    <tag k="name" v="Starling Street"/>
  </way>
  <way id="22751795" version="4" timestamp="2012-01-15T23:04:04Z" uid="147510" user="woodpeck_fixbot" changeset="10404406">
    <nd ref="244128681"/>
    <nd ref="244128679"/>
    <tag k="highway" v="residential"/>
    <tag k="name" v="Starling Street"/>
  </way>
  <way id="22751796" version="3" timestamp="2010-02-14T01:33:22Z" uid="7617" user="Franc" changeset="3870065">
    <nd ref="638844969"/>
    <nd ref="244128683"/>
    <nd ref="638844967"/>
    <nd ref="638844968"/>
    <nd ref="638844969"/>
    <tag k="leisure" v="park"/>
    <tag k="name" v="Stimson Reserve"/>
  </way>
  <way id="22751797" version="3" timestamp="2010-07-07T22:14:22Z" uid="74617" user="JohnSmith" changeset="5161069">
    <nd ref="244128685"/>
    <nd ref="77626805"/>
    <tag k="highway" v="residential"/>
    <tag k="maxspeed" v="50"/>
    <tag k="maxspeed:source" v="default residential speed limit in Australia"/>
    <tag k="name" v="Merton Street"/>
  </way>
  <way id="22751797" version="4" timestamp="2012-01-15T23:04:04Z" uid="147510" user="woodpeck_fixbot" changeset="10404406">
    <nd ref="244128685"/>
    <nd ref="77626805"/>
    <tag k="highway" v="residential"/>
    <tag k="name" v="Merton Street"/>
  </way>
  <way id="22751798" version="3" timestamp="2010-07-07T22:15:20Z" uid="74617" user="JohnSmith" changeset="5161069">
    <nd ref="244128686"/>
    <nd ref="244128688"/>
    <nd ref="244128687"/>
    <tag k="highway" v="residential"/>
    <tag k="maxspeed" v="50"/>
    <tag k="maxspeed:source" v="default residential speed limit in Australia"/>
    <tag k="name" v="Napoleon Street"/>
  </way>
  <way id="22751798" version="4" timestamp="2012-01-15T23:04:05Z" uid="147510" user="woodpeck_fixbot" changeset="10404406">
    <nd ref="244128686"/>
    <nd ref="244128688"/>
    <nd ref="244128687"/>
    <tag k="highway" v="residential"/>
    <tag k="name" v="Napoleon Street"/>
  </way>
  <way id="22751799" version="3" timestamp="2010-07-07T22:15:40Z" uid="74617" user="JohnSmith" changeset="5161069">
    <nd ref="244128688"/>
    <nd ref="244128689"/>
    <tag k="highway" v="residential"/>
    <tag k="maxspeed" v="50"/>
    <tag k="maxspeed:source" v="default residential speed limit in Australia"/>
    <tag k="name" v="Cross Street"/>
  </way>
  <way id="22751799" version="4" timestamp="2012-01-15T23:04:06Z" uid="147510" user="woodpeck_fixbot" changeset="10404406">
    <nd ref="244128688"/>
    <nd ref="244128689"/>
    <tag k="highway" v="residential"/>
    <tag k="name" v="Cross Street"/>
  </way>
  <way id="22751800" version="3" timestamp="2010-02-14T01:33:21Z" uid="7617" user="Franc" changeset="3870065">
    <nd ref="244128690"/>
    <nd ref="244128693"/>
    <tag k="highway" v="residential"/>
    <tag k="name" v="National Street"/>
    <tag k="restriction" v="school_zone"/>
  </way>
  <way id="22751800" version="4" timestamp="2010-05-02T10:49:45Z" uid="7617" user="Franc" changeset="4583441">
    <nd ref="244128690"/>
    <nd ref="716871493"/>
    <tag k="highway" v="residential"/>
    <tag k="name" v="National Street"/>
    <tag k="restriction" v="school_zone"/>
  </way>
  <way id="22751800" version="5" timestamp="2010-07-07T22:14:23Z" uid="74617" user="JohnSmith" changeset="5161069">
    <nd ref="244128690"/>
    <nd ref="716871493"/>
    <tag k="highway" v="residential"/>
    <tag k="maxspeed" v="50"/>
    <tag k="maxspeed:source" v="default residential speed limit in Australia"/>
    <tag k="name" v="National Street"/>
    <tag k="restriction" v="school_zone"/>
  </way>
  <way id="22751800" version="6" timestamp="2012-01-15T23:04:07Z" uid="147510" user="woodpeck_fixbot" changeset="10404406">
    <nd ref="244128690"/>
    <nd ref="716871493"/>
    <tag k="highway" v="residential"/>
    <tag k="name" v="National Street"/>
    <tag k="restriction" v="school_zone"/>
  </way>
  <way id="22751801" version="3" timestamp="2010-05-02T10:49:45Z" uid="7617" user="Franc" changeset="4583441">
    <nd ref="244128691"/>
    <nd ref="716871489"/>
    <nd ref="244128687"/>
    <tag k="highway" v="pedestrian"/>
  </way>
  <way id="22751802" version="3" timestamp="2010-05-02T10:49:41Z" uid="7617" user="Franc" changeset="4583441">
    <nd ref="244128687"/>
    <nd ref="244128692"/>
    <nd ref="244128696"/>
    <tag k="highway" v="service"/>
    <tag k="name" v="National Lane"/>
    <tag k="oneway" v="yes"/>
  </way>
  <way id="22751803" version="3" timestamp="2010-05-02T10:49:45Z" uid="7617" user="Franc" changeset="4583441">
    <nd ref="244128693"/>
    <nd ref="244128694"/>
    <nd ref="244128696"/>
    <tag k="highway" v="service"/>
    <tag k="name" v="National Lane"/>
  </way>
  <way id="22751804" version="3" timestamp="2010-05-02T10:49:45Z" uid="7617" user="Franc" changeset="4583441">
    <nd ref="244128696"/>
    <nd ref="244128685"/>
    <tag k="highway" v="service"/>
    <tag k="service" v="parking_aisle"/>
  </way>
  <way id="22751805" version="3" timestamp="2010-07-07T22:15:48Z" uid="74617" user="JohnSmith" changeset="5161069">
    <nd ref="244128697"/>
    <nd ref="244128698"/>
    <tag k="highway" v="residential"/>
    <tag k="maxspeed" v="50"/>
    <tag k="maxspeed:source" v="default residential speed limit in Australia"/>
    <tag k="name" v="Coulson Street"/>
  </way>
  <way id="22751805" version="4" timestamp="2012-01-15T23:04:08Z" uid="147510" user="woodpeck_fixbot" changeset="10404406">
    <nd ref="244128697"/>
    <nd ref="244128698"/>
    <tag k="highway" v="residential"/>
    <tag k="name" v="Coulson Street"/>
  </way>
  <way id="22751806" version="4" timestamp="2010-07-07T22:14:54Z" uid="74617" user="JohnSmith" changeset="5161069">
    <nd ref="244128699"/>
    <nd ref="377573485"/>
    <nd ref="244128700"/>
    <nd ref="244128701"/>
    <nd ref="244128698"/>
    <tag k="highway" v="residential"/>
    <tag k="maxspeed" v="50"/>
    <tag k="maxspeed:source" v="default residential speed limit in Australia"/>
    <tag k="name" v="Prosper Street"/>
  </way>
  <way id="22751806" version="5" timestamp="2011-03-26T07:37:32Z" uid="7617" user="Franc" changeset="7672617">
    <nd ref="244128699"/>
    <nd ref="377573485"/>
    <nd ref="244128700"/>
    <nd ref="244128701"/>
    <nd ref="1218606915"/>
    <nd ref="244128698"/>
    <tag k="highway" v="residential"/>
    <tag k="maxspeed" v="50"/>
    <tag k="maxspeed:source" v="default residential speed limit in Australia"/>
    <tag k="name" v="Prosper Street"/>
  </way>
  <way id="22751806" version="6" timestamp="2012-01-15T23:04:08Z" uid="147510" user="woodpeck_fixbot" changeset="10404406">
    <nd ref="244128699"/>
    <nd ref="377573485"/>
    <nd ref="244128700"/>
    <nd ref="244128701"/>
    <nd ref="1218606915"/>
    <nd ref="244128698"/>
    <tag k="highway" v="residential"/>
    <tag k="name" v="Prosper Street"/>
  </way>
  <way id="22751807" version="3" timestamp="2011-03-26T07:37:48Z" uid="7617" user="Franc" changeset="7672617">
    <nd ref="244128702"/>
    <nd ref="244128698"/>
    <tag k="highway" v="service"/>
    <tag k="name" v="Coulson Street"/>
  </way>
  <way id="22751808" version="3" timestamp="2011-03-26T07:37:46Z" uid="7617" user="Franc" changeset="7672617">
    <nd ref="244128703"/>
    <nd ref="244128698"/>
    <tag k="highway" v="service"/>
    <tag k="name" v="Prosper Street"/>
  </way>
  <way id="22751809" version="3" timestamp="2011-03-26T07:37:12Z" uid="7617" user="Franc" changeset="7672617">
    <nd ref="244128700"/>
    <nd ref="1218606540"/>
    <nd ref="244128704"/>
    <nd ref="1218606725"/>
    <nd ref="244128705"/>
    <nd ref="244128706"/>
    <tag k="highway" v="service"/>
    <tag k="name" v="Prosper Lane"/>
    <tag k="oneway" v="yes"/>
  </way>
  <way id="22751811" version="3" timestamp="2010-05-02T10:50:02Z" uid="7617" user="Franc" changeset="4583441">
    <nd ref="244128708"/>
    <nd ref="244128709"/>
    <nd ref="244128710"/>
    <tag k="fixme:sign:no" v="2010-05-02"/>
    <tag k="highway" v="service"/>
  </way>
  <way id="22751812" version="4" timestamp="2010-05-02T10:49:41Z" uid="7617" user="Franc" changeset="4583441">
    <nd ref="244128711"/>
    <nd ref="377872474"/>
    <nd ref="244128712"/>
    <nd ref="244128710"/>
    <tag k="fixme:sign:no" v="2010-05-02"/>
    <tag k="highway" v="residential"/>
  </way>
  <way id="22751812" version="5" timestamp="2010-07-07T22:15:16Z" uid="74617" user="JohnSmith" changeset="5161069">
    <nd ref="244128711"/>
    <nd ref="377872474"/>
    <nd ref="244128712"/>
    <nd ref="244128710"/>
    <tag k="fixme:sign:no" v="2010-05-02"/>
    <tag k="highway" v="residential"/>
    <tag k="maxspeed" v="50"/>
    <tag k="maxspeed:source" v="default residential speed limit in Australia"/>
  </way>
  <way id="22751812" version="6" timestamp="2011-03-26T07:37:07Z" uid="7617" user="Franc" changeset="7672617">
    <nd ref="244128711"/>
    <nd ref="377872474"/>
    <nd ref="244128712"/>
    <nd ref="244128710"/>
    <tag k="highway" v="residential"/>
    <tag k="maxspeed" v="50"/>
    <tag k="maxspeed:source" v="default residential speed limit in Australia"/>
    <tag k="name" v="Ellen Street"/>
  </way>
  <way id="22751812" version="7" timestamp="2012-01-15T23:04:10Z" uid="147510" user="woodpeck_fixbot" changeset="10404406">
    <nd ref="244128711"/>
    <nd ref="377872474"/>
    <nd ref="244128712"/>
    <nd ref="244128710"/>
    <tag k="highway" v="residential"/>
    <tag k="name" v="Ellen Street"/>
  </way>
  <way id="22751813" version="3" timestamp="2010-05-02T10:49:41Z" uid="7617" user="Franc" changeset="4583441">
    <nd ref="244128712"/>
    <nd ref="244128713"/>
    <nd ref="244128714"/>
    <nd ref="244128710"/>
    <tag k="fixme:sign:no" v="2010-05-02"/>
    <tag k="highway" v="service"/>
  </way>
  <way id="22751813" version="4" timestamp="2011-03-26T07:37:24Z" uid="7617" user="Franc" changeset="7672617">
    <nd ref="244128712"/>
    <nd ref="244128713"/>
    <nd ref="244128714"/>
    <nd ref="244128710"/>
    <tag k="fixme:sign:no" v="2011-03-25"/>
    <tag k="highway" v="service"/>
  </way>
  <way id="22751814" version="3" timestamp="2010-05-02T10:50:02Z" uid="7617" user="Franc" changeset="4583441">
    <nd ref="244128715"/>
    <nd ref="716871721"/>
    <nd ref="244128714"/>
    <tag k="highway" v="footway"/>
  </way>
  <way id="22751815" version="3" timestamp="2010-07-07T22:14:57Z" uid="74617" user="JohnSmith" changeset="5161069">
    <nd ref="244128716"/>
    <nd ref="77626826"/>
    <tag k="highway" v="residential"/>
    <tag k="maxspeed" v="50"/>
    <tag k="maxspeed:source" v="default residential speed limit in Australia"/>
    <tag k="name" v="Bruce Street"/>
  </way>
  <way id="22751815" version="4" timestamp="2012-01-15T23:04:10Z" uid="147510" user="woodpeck_fixbot" changeset="10404406">
    <nd ref="244128716"/>
    <nd ref="77626826"/>
    <tag k="highway" v="residential"/>
    <tag k="name" v="Bruce Street"/>
  </way>
  <way id="22751817" version="3" timestamp="2010-07-07T22:15:52Z" uid="74617" user="JohnSmith" changeset="5161069">
    <nd ref="244128717"/>
    <nd ref="244128718"/>
    <tag k="highway" v="residential"/>
    <tag k="maxspeed" v="50"/>
    <tag k="maxspeed:source" v="default residential speed limit in Australia"/>
    <tag k="name" v="Clare Street"/>
  </way>
  <way id="22751817" version="4" timestamp="2012-01-15T23:04:15Z" uid="147510" user="woodpeck_fixbot" changeset="10404406">
    <nd ref="244128717"/>
    <nd ref="244128718"/>
    <tag k="highway" v="residential"/>
    <tag k="name" v="Clare Street"/>
  </way>
  <way id="22751819" version="3" timestamp="2010-07-07T22:15:17Z" uid="74617" user="JohnSmith" changeset="5161069">
    <nd ref="244128720"/>
    <nd ref="244128738"/>
    <nd ref="244128722"/>
    <nd ref="244128721"/>
    <tag k="highway" v="residential"/>
    <tag k="maxspeed" v="50"/>
    <tag k="maxspeed:source" v="default residential speed limit in Australia"/>
    <tag k="name" v="Slade Street"/>
  </way>
  <way id="22751819" version="4" timestamp="2012-01-15T23:04:15Z" uid="147510" user="woodpeck_fixbot" changeset="10404406">
    <nd ref="244128720"/>
    <nd ref="244128738"/>
    <nd ref="244128722"/>
    <nd ref="244128721"/>
    <tag k="highway" v="residential"/>
    <tag k="name" v="Slade Street"/>
  </way>
  <way id="22751823" version="3" timestamp="2010-07-07T22:14:34Z" uid="74617" user="JohnSmith" changeset="5161069">
    <nd ref="244128742"/>
    <nd ref="244128743"/>
    <tag k="highway" v="residential"/>
    <tag k="maxspeed" v="50"/>
    <tag k="maxspeed:source" v="default residential speed limit in Australia"/>
    <tag k="name" v="Isabella Street"/>
    <tag k="oneway" v="yes"/>
  </way>
  <way id="22751823" version="4" timestamp="2012-01-15T23:04:17Z" uid="147510" user="woodpeck_fixbot" changeset="10404406">
    <nd ref="244128742"/>
    <nd ref="244128743"/>
    <tag k="highway" v="residential"/>
    <tag k="name" v="Isabella Street"/>
    <tag k="oneway" v="yes"/>
  </way>
  <way id="22751824" version="3" timestamp="2010-07-07T22:14:55Z" uid="74617" user="JohnSmith" changeset="5161069">
    <nd ref="244128743"/>
    <nd ref="244128744"/>
    <nd ref="244128745"/>
    <tag k="highway" v="residential"/>
    <tag k="maxspeed" v="50"/>
    <tag k="maxspeed:source" v="default residential speed limit in Australia"/>
    <tag k="name" v="Isabella Street"/>
    <tag k="oneway" v="yes"/>
  </way>
  <way id="22751824" version="4" timestamp="2012-01-15T23:04:18Z" uid="147510" user="woodpeck_fixbot" changeset="10404406">
    <nd ref="244128743"/>
    <nd ref="244128744"/>
    <nd ref="244128745"/>
    <tag k="highway" v="residential"/>
    <tag k="name" v="Isabella Street"/>
    <tag k="oneway" v="yes"/>
  </way>
  <way id="22751826" version="4" timestamp="2010-07-07T22:14:25Z" uid="74617" user="JohnSmith" changeset="5161069">
    <nd ref="244128746"/>
    <nd ref="244128747"/>
    <tag k="highway" v="residential"/>
    <tag k="maxspeed" v="50"/>
    <tag k="maxspeed:source" v="default residential speed limit in Australia"/>
    <tag k="name" v="Barr Street"/>
    <tag k="oneway" v="yes"/>
  </way>
  <way id="22751826" version="5" timestamp="2012-01-15T23:04:18Z" uid="147510" user="woodpeck_fixbot" changeset="10404406">
    <nd ref="244128746"/>
    <nd ref="244128747"/>
    <tag k="highway" v="residential"/>
    <tag k="name" v="Barr Street"/>
    <tag k="oneway" v="yes"/>
  </way>
  <way id="22751827" version="3" timestamp="2010-07-07T22:14:38Z" uid="74617" user="JohnSmith" changeset="5161069">
    <nd ref="244128747"/>
    <nd ref="244128748"/>
    <nd ref="244128749"/>
    <tag k="highway" v="residential"/>
    <tag k="maxspeed" v="50"/>
    <tag k="maxspeed:source" v="default residential speed limit in Australia"/>
    <tag k="name" v="Barr Street"/>
    <tag k="oneway" v="yes"/>
  </way>
  <way id="22751827" version="4" timestamp="2012-01-15T23:04:20Z" uid="147510" user="woodpeck_fixbot" changeset="10404406">
    <nd ref="244128747"/>
    <nd ref="244128748"/>
    <nd ref="244128749"/>
    <tag k="highway" v="residential"/>
    <tag k="name" v="Barr Street"/>
    <tag k="oneway" v="yes"/>
  </way>
  <way id="22751000" version="4" timestamp="2012-07-21T14:25:44Z" uid="67896" user="mrpulley" changeset="12411461">
    <nd ref="244117927"/>
    <nd ref="244117926"/>
    <nd ref="244117925"/>
    <nd ref="244117924"/>
    <nd ref="244117923"/>
    <nd ref="244117909"/>
    <nd ref="244117850"/>
    <nd ref="244117851"/>
    <nd ref="244117859"/>
    <tag k="highway" v="residential"/>
    <tag k="lanes" v="1"/>
    <tag k="name" v="Samuelson Crescent"/>
    <tag k="source" v="survey"/>
    <tag k="surface" v="paved"/>
  </way>
  <way id="22751004" version="4" timestamp="2012-07-21T14:24:43Z" uid="67896" user="mrpulley" changeset="12411461">
    <nd ref="244117988"/>
    <nd ref="244117989"/>
    <nd ref="244117993"/>
    <tag k="highway" v="residential"/>
    <tag k="lanes" v="1"/>
    <tag k="name" v="Kilcoy Close"/>
    <tag k="source" v="survey"/>
    <tag k="surface" v="paved"/>
  </way>
  <way id="22751005" version="4" timestamp="2012-07-21T14:25:33Z" uid="67896" user="mrpulley" changeset="12411461">
    <nd ref="244117987"/>
    <nd ref="244117977"/>
    <nd ref="244117980"/>
    <nd ref="244117983"/>
    <tag k="highway" v="residential"/>
    <tag k="lanes" v="1"/>
    <tag k="name" v="Pointsfield Place"/>
    <tag k="source" v="survey"/>
    <tag k="surface" v="paved"/>
  </way>
  <way id="22751007" version="5" timestamp="2012-07-19T16:59:27Z" uid="722137" user="OSMF Redaction Account" changeset="12341039">
    <nd ref="244118017"/>
    <nd ref="244118021"/>
    <nd ref="244118028"/>
    <nd ref="244118030"/>
    <tag k="highway" v="residential"/>
    <tag k="lanes" v="1"/>
    <tag k="name" v="Phyllis Crescent"/>
    <tag k="source" v="survey"/>
    <tag k="surface" v="paved"/>
  </way>
  <way id="22751012" version="7" timestamp="2012-07-19T16:59:31Z" uid="722137" user="OSMF Redaction Account" changeset="12341039">
    <nd ref="246440074"/>
    <nd ref="246440047"/>
    <nd ref="211535113"/>
    <nd ref="211536468"/>
    <nd ref="244118054"/>
    <nd ref="204888686"/>
    <nd ref="217782568"/>
    <nd ref="211536472"/>
    <nd ref="244118050"/>
    <nd ref="204889518"/>
    <nd ref="244118052"/>
    <nd ref="208102974"/>
    <tag k="highway" v="residential"/>
    <tag k="name" v="Douglas Street"/>
    <tag k="source" v="survey"/>
    <tag k="surface" v="asphalt"/>
  </way>
  <way id="22751012" version="8" timestamp="2012-07-21T14:24:05Z" uid="67896" user="mrpulley" changeset="12411461">
    <nd ref="246440074"/>
    <nd ref="246440047"/>
    <nd ref="211535113"/>
    <nd ref="211536468"/>
    <nd ref="244118054"/>
    <nd ref="204888686"/>
    <nd ref="217782568"/>
    <nd ref="211536472"/>
    <nd ref="244118050"/>
    <nd ref="204889518"/>
    <nd ref="244118052"/>
    <nd ref="208102974"/>
    <nd ref="1833177619"/>
    <nd ref="1833177613"/>
    <tag k="highway" v="residential"/>
    <tag k="name" v="Douglas Street"/>
    <tag k="source" v="survey"/>
    <tag k="surface" v="asphalt"/>
  </way>
  <way id="22751020" version="5" timestamp="2012-07-21T14:24:15Z" uid="67896" user="mrpulley" changeset="12411461">
    <nd ref="214986361"/>
    <nd ref="214986473"/>
    <nd ref="214986689"/>
    <nd ref="214986793"/>
    <nd ref="214987006"/>
    <nd ref="214987111"/>
    <nd ref="244118063"/>
    <nd ref="244118062"/>
    <nd ref="214987972"/>
    <tag k="highway" v="residential"/>
    <tag k="lanes" v="1"/>
    <tag k="name" v="Elizabeth Street"/>
    <tag k="source" v="survey"/>
    <tag k="surface" v="paved"/>
  </way>
  <way id="22751021" version="4" timestamp="2012-07-21T14:24:26Z" uid="67896" user="mrpulley" changeset="12411461">
    <nd ref="244118086"/>
    <nd ref="244118092"/>
    <tag k="highway" v="residential"/>
    <tag k="lanes" v="1"/>
    <tag k="name" v="Grafton Road"/>
    <tag k="source" v="survey"/>
    <tag k="surface" v="asphalt"/>
  </way>
  <way id="22751022" version="4" timestamp="2012-07-21T14:25:32Z" uid="67896" user="mrpulley" changeset="12411461">
    <nd ref="214987111"/>
    <nd ref="244118069"/>
    <nd ref="244118072"/>
    <nd ref="244118080"/>
    <nd ref="244118081"/>
    <nd ref="244118085"/>
    <tag k="highway" v="residential"/>
    <tag k="lanes" v="1"/>
    <tag k="name" v="Phillip Street"/>
    <tag k="source" v="survey"/>
    <tag k="surface" v="paved"/>
  </way>
  <way id="22751088" version="15" timestamp="2012-09-05T13:04:25Z" uid="67896" user="mrpulley" changeset="12995823">
    <nd ref="96330273"/>
    <nd ref="1226374925"/>
    <nd ref="726932607"/>
    <nd ref="243436284"/>
    <tag k="highway" v="trunk_link"/>
    <tag k="lanes" v="4"/>
    <tag k="maxspeed" v="60"/>
    <tag k="network" v="S"/>
    <tag k="ref" v="25"/>
    <tag k="source" v="nearmap"/>
  </way>
  <way id="22751089" version="12" timestamp="2012-07-20T00:22:15Z" uid="722137" user="OSMF Redaction Account" changeset="12352151">
    <nd ref="1400601247"/>
    <nd ref="244118620"/>
    <nd ref="246377957"/>
    <nd ref="246376496"/>
    <nd ref="246378038"/>
    <nd ref="246378028"/>
    <nd ref="1202677848"/>
    <nd ref="244118619"/>
    <tag k="highway" v="residential"/>
    <tag k="name" v="Bruce Street"/>
    <tag k="surface" v="asphalt"/>
  </way>
  <way id="22751794" version="6" timestamp="2012-05-28T21:49:52Z" uid="20949" user="Ebenezer" changeset="11732303">
    <nd ref="244128680"/>
    <nd ref="1769017691"/>
    <nd ref="77626632"/>
    <tag k="highway" v="residential"/>
    <tag k="name" v="Joseph Street"/>
  </way>
  <way id="22751794" version="7" timestamp="2012-07-20T20:45:34Z" uid="105255" user="Sven L" changeset="12391017">
    <nd ref="1832490549"/>
    <nd ref="1769017691"/>
    <nd ref="77626632"/>
    <tag k="highway" v="residential"/>
    <tag k="name" v="Joseph Street"/>
  </way>
  <way id="22751796" version="4" timestamp="2012-07-19T23:14:48Z" uid="722137" user="OSMF Redaction Account" changeset="12351408"/>
  <way id="22751797" version="5" timestamp="2012-05-19T01:24:26Z" uid="20949" user="Ebenezer" changeset="11638703">
    <nd ref="244128685"/>
    <nd ref="1757844896"/>
    <tag k="highway" v="residential"/>
    <tag k="name" v="Merton Street"/>
  </way>
  <way id="22751800" version="7" timestamp="2012-05-19T01:24:26Z" uid="20949" user="Ebenezer" changeset="11638703">
    <nd ref="1757844904"/>
    <nd ref="716871493"/>
    <tag k="highway" v="residential"/>
    <tag k="name" v="National Street"/>
    <tag k="restriction" v="school_zone"/>
  </way>
  <way id="22751800" version="8" timestamp="2012-07-19T23:14:50Z" uid="722137" user="OSMF Redaction Account" changeset="12351408"/>
  <way id="22751801" version="4" timestamp="2012-07-19T23:08:31Z" uid="722137" user="OSMF Redaction Account" changeset="12351287">
    <nd ref="244128691"/>
    <nd ref="244128687"/>
    <tag k="highway" v="footway"/>
  </way>
  <way id="22751802" version="4" timestamp="2012-07-19T23:09:06Z" uid="722137" user="OSMF Redaction Account" changeset="12351313">
    <nd ref="244128687"/>
    <nd ref="244128692"/>
    <tag k="highway" v="service"/>
    <tag k="name" v="National Lane"/>
    <tag k="oneway" v="yes"/>
  </way>
  <way id="22751804" version="4" timestamp="2012-07-19T23:09:06Z" uid="722137" user="OSMF Redaction Account" changeset="12351313">
    <nd ref="244128696"/>
    <nd ref="244128685"/>
    <tag k="highway" v="service"/>
  </way>
  <way id="22751806" version="7" timestamp="2012-05-28T21:49:53Z" uid="20949" user="Ebenezer" changeset="11732303">
    <nd ref="244128699"/>
    <nd ref="1769017686"/>
    <nd ref="244128700"/>
    <nd ref="244128701"/>
    <nd ref="1218606915"/>
    <nd ref="244128698"/>
    <tag k="highway" v="residential"/>
    <tag k="name" v="Prosper Street"/>
  </way>
  <way id="22751806" version="8" timestamp="2012-07-19T23:08:32Z" uid="722137" user="OSMF Redaction Account" changeset="12351287">
    <nd ref="244128699"/>
    <nd ref="1769017686"/>
    <nd ref="244128700"/>
    <nd ref="244128701"/>
    <nd ref="244128698"/>
    <tag k="highway" v="residential"/>
    <tag k="name" v="Prosper Street"/>
  </way>
  <way id="22751807" version="4" timestamp="2012-07-19T23:09:05Z" uid="722137" user="OSMF Redaction Account" changeset="12351313">
    <nd ref="244128702"/>
    <nd ref="244128698"/>
    <tag k="highway" v="service"/>
  </way>
  <way id="22751808" version="4" timestamp="2012-07-19T23:09:05Z" uid="722137" user="OSMF Redaction Account" changeset="12351313">
    <nd ref="244128703"/>
    <nd ref="244128698"/>
    <tag k="highway" v="service"/>
  </way>
  <way id="22751809" version="4" timestamp="2012-07-19T23:08:33Z" uid="722137" user="OSMF Redaction Account" changeset="12351287">
    <nd ref="244128700"/>
    <nd ref="244128704"/>
    <nd ref="244128705"/>
    <nd ref="244128706"/>
    <tag k="highway" v="service"/>
    <tag k="name" v="Prosper Lane"/>
    <tag k="oneway" v="yes"/>
  </way>
  <way id="22751811" version="4" timestamp="2012-07-19T23:09:05Z" uid="722137" user="OSMF Redaction Account" changeset="12351313">
    <nd ref="244128708"/>
    <nd ref="244128709"/>
    <nd ref="244128710"/>
    <tag k="highway" v="service"/>
  </way>
  <way id="22751812" version="8" timestamp="2012-05-28T21:49:53Z" uid="20949" user="Ebenezer" changeset="11732303">
    <nd ref="244128711"/>
    <nd ref="1769017648"/>
    <nd ref="244128712"/>
    <nd ref="244128710"/>
    <tag k="highway" v="residential"/>
    <tag k="name" v="Ellen Street"/>
  </way>
  <way id="22751812" version="9" timestamp="2012-07-19T23:09:04Z" uid="722137" user="OSMF Redaction Account" changeset="12351313">
    <nd ref="244128711"/>
    <nd ref="1769017648"/>
    <nd ref="244128712"/>
    <nd ref="244128710"/>
    <tag k="highway" v="residential"/>
  </way>
  <way id="22751813" version="5" timestamp="2012-07-19T23:09:05Z" uid="722137" user="OSMF Redaction Account" changeset="12351313">
    <nd ref="244128712"/>
    <nd ref="244128713"/>
    <nd ref="244128714"/>
    <nd ref="244128710"/>
    <tag k="highway" v="service"/>
  </way>
  <way id="22751814" version="4" timestamp="2012-07-19T23:08:33Z" uid="722137" user="OSMF Redaction Account" changeset="12351287">
    <nd ref="244128715"/>
    <nd ref="244128714"/>
    <tag k="highway" v="footway"/>
  </way>
</osm>
