<?xml version='1.0' encoding='UTF-8'?>
<osm version="0.6" generator="libosmium/2.20.0">
  <way id="2290993" version="7" timestamp="2010-05-13T09:23:10Z" uid="58091" user="Andreas M" changeset="4683781">
    <nd ref="9697702"/>
    <nd ref="9921177"/>
    <nd ref="437260267"/>
    <nd ref="731933072"/>
    <tag k="highway" v="tertiary"/>
    <tag k="maxspeed" v="30"/>
    <tag k="name" v="Sporckplatz"/>
  </way>
  <way id="2290993" version="8" timestamp="2011-10-08T01:27:58Z" uid="229590" user="xificurk" changeset="9498852">
    <nd ref="9697702"/>
    <nd ref="9921177"/>
    <nd ref="437260267"/>
    <nd ref="731933072"/>
    <tag k="admin_level" v="9"/>
    <tag k="boundary" v="administrative"/>
    <tag k="highway" v="tertiary"/>
    <tag k="maxspeed" v="30"/>
    <tag k="name" v="Sporckplatz"/>
  </way>
  <way id="2290993" version="9" timestamp="2012-01-16T19:30:02Z" uid="129531" user="almich" changeset="10411218">
    <nd ref="9697702"/>
    <nd ref="9921177"/>
    <nd ref="437260267"/>
    <nd ref="1593458332"/>
    <tag k="admin_level" v="9"/>
    <tag k="boundary" v="administrative"/>
    <tag k="highway" v="tertiary"/>
    <tag k="maxspeed" v="30"/>
    <tag k="name" v="Sporckplatz"/>
  </way>
  <way id="2290993" version="10" timestamp="2012-05-18T12:18:22Z" uid="473925" user="caigner" changeset="11632524">
    <nd ref="9697702"/>
    <nd ref="9921177"/>
    <nd ref="1757141638"/>
    <nd ref="1757141635"/>
    <nd ref="1593458332"/>
    <tag k="admin_level" v="9"/>
    <tag k="boundary" v="administrative"/>
    <tag k="highway" v="tertiary"/>
    <tag k="maxspeed" v="30"/>
    <tag k="name" v="Sporckplatz"/>
  </way>
</osm>
