<?xml version='1.0' encoding='UTF-8'?>
<osm version="0.6" generator="libosmium/2.20.0">
  <way id="22914079" version="2" timestamp="2010-02-25T22:28:53Z" uid="171838" user="argrath" changeset="3976507">
    <nd ref="246695229"/>
    <nd ref="246562633"/>
    <nd ref="246563209"/>
    <nd ref="246563004"/>
    <nd ref="246563118"/>
    <nd ref="246563695"/>
    <nd ref="246563534"/>
    <nd ref="246564510"/>
    <nd ref="246564313"/>
    <nd ref="246564946"/>
    <nd ref="246564801"/>
    <nd ref="246565373"/>
    <nd ref="246565188"/>
    <nd ref="246562406"/>
    <nd ref="246561910"/>
    <nd ref="246562920"/>
    <nd ref="246562701"/>
    <nd ref="246563314"/>
    <nd ref="246563218"/>
    <nd ref="246563451"/>
    <nd ref="246563625"/>
    <nd ref="246563862"/>
    <nd ref="246564144"/>
    <nd ref="246563990"/>
    <nd ref="246564262"/>
    <nd ref="246564634"/>
    <tag k="note" v="old_coastline"/>
    <tag k="source" v="PGS"/>
  </way>
  <way id="22914079" version="3" timestamp="2011-06-06T21:15:59Z" uid="169442" user="SN74LS00" changeset="8365026"/>
  <way id="22914241" version="2" timestamp="2009-09-18T11:39:35Z" uid="20587" user="balrog-kun" changeset="2523165">
    <nd ref="246696763"/>
    <nd ref="182092168"/>
    <nd ref="182092174"/>
    <nd ref="246567529"/>
    <nd ref="182092180"/>
    <nd ref="246567531"/>
    <nd ref="182092186"/>
    <tag k="highway" v="residential"/>
    <tag k="source" v="survey"/>
  </way>
  <way id="22914251" version="2" timestamp="2008-09-30T21:06:30Z" uid="1066" user="pavel" changeset="721761">
    <nd ref="246696805"/>
    <nd ref="246696806"/>
    <nd ref="246696807"/>
    <tag k="created_by" v="JOSM"/>
    <tag k="highway" v="residential"/>
    <tag k="name" v="Pod Belvederem"/>
    <tag k="name:source" v="nameit/uir-adr"/>
  </way>
  <way id="22914251" version="3" timestamp="2009-03-03T02:42:42Z" uid="3516" user="BiIbo" changeset="727972">
    <nd ref="246696805"/>
    <nd ref="246696806"/>
    <nd ref="246696807"/>
    <tag k="created_by" v="JOSM"/>
    <tag k="highway" v="residential"/>
    <tag k="name" v="Pod Belvederem"/>
    <tag k="source:name" v="nameit/uir-adr"/>
  </way>
  <way id="22914252" version="2" timestamp="2008-09-30T21:07:38Z" uid="1066" user="pavel" changeset="721761">
    <nd ref="246696807"/>
    <nd ref="25919179"/>
    <nd ref="246696808"/>
    <nd ref="246696809"/>
    <tag k="created_by" v="JOSM"/>
    <tag k="highway" v="residential"/>
    <tag k="name" v="Houbařská"/>
    <tag k="name:source" v="nameit/uir-adr"/>
  </way>
  <way id="22914252" version="3" timestamp="2009-03-03T02:42:41Z" uid="3516" user="BiIbo" changeset="727972">
    <nd ref="246696807"/>
    <nd ref="25919179"/>
    <nd ref="246696808"/>
    <nd ref="246696809"/>
    <tag k="created_by" v="JOSM"/>
    <tag k="highway" v="residential"/>
    <tag k="name" v="Houbařská"/>
    <tag k="source:name" v="nameit/uir-adr"/>
  </way>
  <way id="22914252" version="4" timestamp="2009-10-19T17:25:29Z" uid="3516" user="BiIbo" changeset="2896163">
    <nd ref="246696807"/>
    <nd ref="25919179"/>
    <nd ref="246696808"/>
    <nd ref="535570222"/>
    <nd ref="246696809"/>
    <tag k="highway" v="residential"/>
    <tag k="name" v="Houbařská"/>
    <tag k="source:name" v="nameit/uir-adr"/>
  </way>
  <way id="22914252" version="5" timestamp="2011-05-18T22:07:34Z" uid="3516" user="BiIbo" changeset="8185451">
    <nd ref="246696807"/>
    <nd ref="25919179"/>
    <nd ref="246696808"/>
    <nd ref="535570222"/>
    <nd ref="1291052540"/>
    <nd ref="246696809"/>
    <tag k="highway" v="residential"/>
    <tag k="name" v="Houbařská"/>
    <tag k="source:name" v="nameit/uir-adr"/>
  </way>
  <way id="22914252" version="6" timestamp="2011-08-13T20:27:54Z" uid="17615" user="Petr Dlouhý" changeset="9009317">
    <nd ref="246696807"/>
    <nd ref="1397586895"/>
    <nd ref="25919179"/>
    <nd ref="246696808"/>
    <nd ref="535570222"/>
    <nd ref="1291052540"/>
    <nd ref="246696809"/>
    <tag k="highway" v="residential"/>
    <tag k="name" v="Houbařská"/>
    <tag k="source:name" v="nameit/uir-adr"/>
  </way>
  <way id="22914253" version="2" timestamp="2008-09-30T21:08:25Z" uid="1066" user="pavel" changeset="721761">
    <nd ref="246696806"/>
    <nd ref="246696810"/>
    <nd ref="246696804"/>
    <nd ref="246696811"/>
    <nd ref="246696812"/>
    <nd ref="246696813"/>
    <tag k="created_by" v="JOSM"/>
    <tag k="highway" v="residential"/>
    <tag k="name" v="Pod Belvederem"/>
    <tag k="name:source" v="nameit/uir-adr"/>
  </way>
  <way id="22914253" version="3" timestamp="2009-03-03T02:42:41Z" uid="3516" user="BiIbo" changeset="727972">
    <nd ref="246696806"/>
    <nd ref="246696810"/>
    <nd ref="246696804"/>
    <nd ref="246696811"/>
    <nd ref="246696812"/>
    <nd ref="246696813"/>
    <tag k="created_by" v="JOSM"/>
    <tag k="highway" v="residential"/>
    <tag k="name" v="Pod Belvederem"/>
    <tag k="source:name" v="nameit/uir-adr"/>
  </way>
  <way id="22914254" version="2" timestamp="2008-09-30T21:04:31Z" uid="1066" user="pavel" changeset="721761">
    <nd ref="246696814"/>
    <nd ref="246696815"/>
    <nd ref="246696813"/>
    <tag k="created_by" v="JOSM"/>
    <tag k="highway" v="residential"/>
    <tag k="name" v="Nad Belvederem"/>
    <tag k="name:source" v="nameit/uir-adr"/>
  </way>
  <way id="22914254" version="3" timestamp="2009-03-03T02:42:41Z" uid="3516" user="BiIbo" changeset="727972">
    <nd ref="246696814"/>
    <nd ref="246696815"/>
    <nd ref="246696813"/>
    <tag k="created_by" v="JOSM"/>
    <tag k="highway" v="residential"/>
    <tag k="name" v="Nad Belvederem"/>
    <tag k="source:name" v="nameit/uir-adr"/>
  </way>
  <way id="22914254" version="4" timestamp="2011-05-18T22:07:33Z" uid="3516" user="BiIbo" changeset="8185451">
    <nd ref="246696814"/>
    <nd ref="1291052508"/>
    <nd ref="246696815"/>
    <nd ref="246696813"/>
    <tag k="highway" v="residential"/>
    <tag k="name" v="Nad Belvederem"/>
    <tag k="source:name" v="nameit/uir-adr"/>
  </way>
  <way id="22914255" version="2" timestamp="2008-09-30T21:06:34Z" uid="1066" user="pavel" changeset="721761">
    <nd ref="246696816"/>
    <nd ref="246696817"/>
    <nd ref="246696818"/>
    <nd ref="246696819"/>
    <nd ref="246696820"/>
    <nd ref="246696809"/>
    <nd ref="246696814"/>
    <nd ref="246696821"/>
    <nd ref="246696822"/>
    <tag k="created_by" v="JOSM"/>
    <tag k="highway" v="residential"/>
    <tag k="name" v="Na lhotech"/>
    <tag k="name:source" v="nameit/uir-adr"/>
  </way>
  <way id="22914255" version="3" timestamp="2008-10-01T20:29:07Z" uid="10345" user="Mormegil" changeset="13722">
    <nd ref="246696816"/>
    <nd ref="246696817"/>
    <nd ref="246696818"/>
    <nd ref="246696819"/>
    <nd ref="246696820"/>
    <nd ref="246696809"/>
    <nd ref="246696814"/>
    <nd ref="246696821"/>
    <nd ref="246696822"/>
    <tag k="created_by" v="Potlatch 0.10c"/>
    <tag k="highway" v="residential"/>
    <tag k="name" v="Na Lhotech"/>
    <tag k="name:source" v="nameit/uir-adr"/>
  </way>
  <way id="22914255" version="4" timestamp="2009-03-03T02:42:41Z" uid="3516" user="BiIbo" changeset="727972">
    <nd ref="246696816"/>
    <nd ref="246696817"/>
    <nd ref="246696818"/>
    <nd ref="246696819"/>
    <nd ref="246696820"/>
    <nd ref="246696809"/>
    <nd ref="246696814"/>
    <nd ref="246696821"/>
    <nd ref="246696822"/>
    <tag k="created_by" v="Potlatch 0.10c"/>
    <tag k="highway" v="residential"/>
    <tag k="name" v="Na Lhotech"/>
    <tag k="source:name" v="nameit/uir-adr"/>
  </way>
  <way id="22914255" version="5" timestamp="2009-10-19T17:25:30Z" uid="3516" user="BiIbo" changeset="2896163">
    <nd ref="246696816"/>
    <nd ref="246696817"/>
    <nd ref="246696818"/>
    <nd ref="246696819"/>
    <nd ref="246696820"/>
    <nd ref="246696809"/>
    <nd ref="246696814"/>
    <nd ref="246696821"/>
    <nd ref="535570207"/>
    <nd ref="246696822"/>
    <tag k="highway" v="residential"/>
    <tag k="name" v="Na Lhotech"/>
    <tag k="source:name" v="nameit/uir-adr"/>
  </way>
  <way id="22914255" version="6" timestamp="2011-05-18T22:07:28Z" uid="3516" user="BiIbo" changeset="8185451">
    <nd ref="246696816"/>
    <nd ref="1291052504"/>
    <nd ref="246696817"/>
    <nd ref="1291052502"/>
    <nd ref="246696820"/>
    <nd ref="1291052525"/>
    <nd ref="246696809"/>
    <nd ref="1291052532"/>
    <nd ref="246696814"/>
    <nd ref="535570207"/>
    <nd ref="246696822"/>
    <tag k="highway" v="residential"/>
    <tag k="name" v="Na Lhotech"/>
    <tag k="source:name" v="nameit/uir-adr"/>
  </way>
  <way id="22914255" version="7" timestamp="2011-08-13T20:27:58Z" uid="17615" user="Petr Dlouhý" changeset="9009317">
    <nd ref="246696816"/>
    <nd ref="1291052504"/>
    <nd ref="246696817"/>
    <nd ref="1291052502"/>
    <nd ref="246696820"/>
    <nd ref="1291052525"/>
    <nd ref="246696809"/>
    <nd ref="1291052532"/>
    <nd ref="246696814"/>
    <nd ref="1397586916"/>
    <nd ref="535570207"/>
    <nd ref="246696822"/>
    <tag k="highway" v="residential"/>
    <tag k="name" v="Na Lhotech"/>
    <tag k="source:name" v="nameit/uir-adr"/>
  </way>
  <way id="22914256" version="2" timestamp="2008-09-30T21:07:13Z" uid="1066" user="pavel" changeset="721761">
    <nd ref="246696813"/>
    <nd ref="246696823"/>
    <nd ref="246696824"/>
    <nd ref="246696825"/>
    <nd ref="246696826"/>
    <nd ref="246696827"/>
    <nd ref="246696822"/>
    <tag k="created_by" v="JOSM"/>
    <tag k="highway" v="residential"/>
    <tag k="name" v="Ke hrádku"/>
    <tag k="name:source" v="nameit/uir-adr"/>
  </way>
  <way id="22914256" version="3" timestamp="2008-10-01T20:28:54Z" uid="10345" user="Mormegil" changeset="13722">
    <nd ref="246696813"/>
    <nd ref="246696823"/>
    <nd ref="246696824"/>
    <nd ref="246696825"/>
    <nd ref="246696826"/>
    <nd ref="246696827"/>
    <nd ref="246696822"/>
    <tag k="created_by" v="Potlatch 0.10c"/>
    <tag k="highway" v="residential"/>
    <tag k="name" v="Ke Hrádku"/>
    <tag k="name:source" v="nameit/uir-adr"/>
  </way>
  <way id="22914256" version="4" timestamp="2009-03-03T02:42:40Z" uid="3516" user="BiIbo" changeset="727972">
    <nd ref="246696813"/>
    <nd ref="246696823"/>
    <nd ref="246696824"/>
    <nd ref="246696825"/>
    <nd ref="246696826"/>
    <nd ref="246696827"/>
    <nd ref="246696822"/>
    <tag k="created_by" v="Potlatch 0.10c"/>
    <tag k="highway" v="residential"/>
    <tag k="name" v="Ke Hrádku"/>
    <tag k="source:name" v="nameit/uir-adr"/>
  </way>
  <way id="22914256" version="5" timestamp="2009-10-19T17:25:29Z" uid="3516" user="BiIbo" changeset="2896163">
    <nd ref="246696813"/>
    <nd ref="246696823"/>
    <nd ref="246696824"/>
    <nd ref="246696825"/>
    <nd ref="246696826"/>
    <nd ref="246696827"/>
    <nd ref="535570204"/>
    <nd ref="246696822"/>
    <tag k="highway" v="residential"/>
    <tag k="name" v="Ke Hrádku"/>
    <tag k="source:name" v="nameit/uir-adr"/>
  </way>
  <way id="22914257" version="2" timestamp="2008-09-30T21:03:46Z" uid="1066" user="pavel" changeset="721761">
    <nd ref="246696820"/>
    <nd ref="246696828"/>
    <nd ref="246696829"/>
    <nd ref="246696830"/>
    <nd ref="246696831"/>
    <nd ref="246696817"/>
    <tag k="created_by" v="JOSM"/>
    <tag k="highway" v="residential"/>
    <tag k="name" v="U želivky"/>
    <tag k="name:source" v="nameit/uir-adr"/>
  </way>
  <way id="22914257" version="3" timestamp="2008-10-01T20:28:36Z" uid="10345" user="Mormegil" changeset="13722">
    <nd ref="246696820"/>
    <nd ref="246696828"/>
    <nd ref="246696829"/>
    <nd ref="246696830"/>
    <nd ref="246696831"/>
    <nd ref="246696817"/>
    <tag k="created_by" v="Potlatch 0.10c"/>
    <tag k="highway" v="residential"/>
    <tag k="name" v="U Želivky"/>
    <tag k="name:source" v="nameit/uir-adr"/>
  </way>
  <way id="22914257" version="4" timestamp="2009-03-03T02:42:40Z" uid="3516" user="BiIbo" changeset="727972">
    <nd ref="246696820"/>
    <nd ref="246696828"/>
    <nd ref="246696829"/>
    <nd ref="246696830"/>
    <nd ref="246696831"/>
    <nd ref="246696817"/>
    <tag k="created_by" v="Potlatch 0.10c"/>
    <tag k="highway" v="residential"/>
    <tag k="name" v="U Želivky"/>
    <tag k="source:name" v="nameit/uir-adr"/>
  </way>
  <way id="22914257" version="5" timestamp="2011-05-18T22:07:33Z" uid="3516" user="BiIbo" changeset="8185451">
    <nd ref="246696820"/>
    <nd ref="1291052517"/>
    <nd ref="246696828"/>
    <nd ref="246696829"/>
    <nd ref="246696830"/>
    <nd ref="1291052534"/>
    <nd ref="246696831"/>
    <nd ref="246696817"/>
    <tag k="highway" v="residential"/>
    <tag k="name" v="U Želivky"/>
    <tag k="source:name" v="nameit/uir-adr"/>
  </way>
  <way id="22914259" version="8" timestamp="2008-07-06T21:06:01Z" uid="6975" user="ulfl" changeset="415781">
    <nd ref="246696853"/>
    <nd ref="246696854"/>
    <nd ref="246696855"/>
    <nd ref="246696856"/>
    <nd ref="246696857"/>
    <nd ref="246696858"/>
    <nd ref="246696853"/>
    <tag k="building" v="yes"/>
    <tag k="landuse" v="retail"/>
  </way>
  <way id="22914259" version="9" timestamp="2012-01-28T15:03:05Z" uid="17857" user="marscot" changeset="10521621"/>
  <way id="22914295" version="2" timestamp="2008-09-16T10:37:46Z" uid="1066" user="pavel" changeset="646258">
    <nd ref="25376725"/>
    <nd ref="30930146"/>
    <tag k="created_by" v="Potlatch alpha"/>
    <tag k="highway" v="residential"/>
    <tag k="name" v="Peškova"/>
    <tag k="name:source" v="nameit/uir-adr"/>
  </way>
  <way id="22914295" version="3" timestamp="2008-11-03T11:15:14Z" uid="5021" user="Johny99" changeset="667792">
    <nd ref="25376725"/>
    <nd ref="309633863"/>
    <tag k="created_by" v="Potlatch 0.10f"/>
    <tag k="highway" v="residential"/>
    <tag k="name" v="Peškova"/>
    <tag k="name:source" v="nameit/uir-adr"/>
  </way>
  <way id="22914295" version="4" timestamp="2008-11-03T11:17:40Z" uid="5021" user="Johny99" changeset="667792">
    <nd ref="25376725"/>
    <nd ref="309633863"/>
    <nd ref="309633944"/>
    <tag k="created_by" v="Potlatch 0.10f"/>
    <tag k="highway" v="residential"/>
    <tag k="name" v="Peškova"/>
    <tag k="name:source" v="nameit/uir-adr"/>
  </way>
  <way id="22914295" version="5" timestamp="2009-03-12T00:43:05Z" uid="3516" user="BiIbo" changeset="792152">
    <nd ref="25376725"/>
    <nd ref="309633863"/>
    <nd ref="309633944"/>
    <tag k="highway" v="residential"/>
    <tag k="name" v="Peškova"/>
    <tag k="source:name" v="nameit/uir-adr"/>
  </way>
  <way id="22914295" version="6" timestamp="2010-05-29T20:36:11Z" uid="3516" user="BiIbo" changeset="4844169">
    <nd ref="25376725"/>
    <nd ref="757390666"/>
    <nd ref="309633863"/>
    <nd ref="309633944"/>
    <tag k="highway" v="residential"/>
    <tag k="name" v="Peškova"/>
    <tag k="source:name" v="nameit/uir-adr"/>
  </way>
  <way id="22914295" version="7" timestamp="2010-05-29T21:39:59Z" uid="3516" user="BiIbo" changeset="4844169">
    <nd ref="25376725"/>
    <nd ref="757390666"/>
    <nd ref="309633863"/>
    <nd ref="309633943"/>
    <tag k="highway" v="residential"/>
    <tag k="name" v="Peškova"/>
    <tag k="source:name" v="nameit/uir-adr"/>
  </way>
  <way id="22914296" version="2" timestamp="2008-09-16T10:33:09Z" uid="1066" user="pavel" changeset="646258">
    <nd ref="246697552"/>
    <nd ref="246697553"/>
    <nd ref="246697554"/>
    <nd ref="246697555"/>
    <nd ref="246697556"/>
    <tag k="created_by" v="JOSM"/>
    <tag k="highway" v="residential"/>
    <tag k="name" v="Pod třešněmi"/>
    <tag k="name:source" v="nameit/uir-adr"/>
  </way>
  <way id="22914296" version="3" timestamp="2009-03-12T00:43:04Z" uid="3516" user="BiIbo" changeset="792152">
    <nd ref="246697552"/>
    <nd ref="246697553"/>
    <nd ref="246697554"/>
    <nd ref="246697555"/>
    <nd ref="246697556"/>
    <tag k="highway" v="residential"/>
    <tag k="name" v="Pod Třešněmi"/>
    <tag k="source:name" v="nameit/uir-adr"/>
  </way>
  <way id="22914297" version="2" timestamp="2008-09-16T10:38:02Z" uid="1066" user="pavel" changeset="646258">
    <nd ref="30930261"/>
    <nd ref="246697558"/>
    <tag k="created_by" v="JOSM"/>
    <tag k="highway" v="residential"/>
    <tag k="name" v="Šejbalové"/>
    <tag k="name:source" v="nameit/uir-adr"/>
  </way>
  <way id="22914297" version="3" timestamp="2009-03-12T00:43:05Z" uid="3516" user="BiIbo" changeset="792152">
    <nd ref="30930261"/>
    <nd ref="246697558"/>
    <tag k="highway" v="residential"/>
    <tag k="name" v="Šejbalové"/>
    <tag k="source:name" v="nameit/uir-adr"/>
  </way>
  <way id="22914297" version="4" timestamp="2010-05-29T20:36:13Z" uid="3516" user="BiIbo" changeset="4844169">
    <nd ref="30930261"/>
    <nd ref="757390347"/>
    <nd ref="246697558"/>
    <tag k="highway" v="residential"/>
    <tag k="name" v="Šejbalové"/>
    <tag k="source:name" v="nameit/uir-adr"/>
  </way>
  <way id="22914328" version="2" timestamp="2008-09-16T10:39:56Z" uid="1066" user="pavel" changeset="646258">
    <nd ref="246697930"/>
    <nd ref="246697931"/>
    <tag k="created_by" v="JOSM"/>
    <tag k="highway" v="residential"/>
    <tag k="name" v="Tyrkysová"/>
    <tag k="name:source" v="nameit/uir-adr"/>
  </way>
  <way id="22914328" version="3" timestamp="2009-03-12T00:43:30Z" uid="3516" user="BiIbo" changeset="792152">
    <nd ref="246697930"/>
    <nd ref="246697931"/>
    <tag k="highway" v="residential"/>
    <tag k="name" v="Tyrkysová"/>
    <tag k="source:name" v="nameit/uir-adr"/>
  </way>
  <way id="22914329" version="2" timestamp="2008-09-16T10:36:37Z" uid="1066" user="pavel" changeset="646258">
    <nd ref="246697937"/>
    <nd ref="246697959"/>
    <nd ref="246697949"/>
    <nd ref="246697939"/>
    <nd ref="246697938"/>
    <tag k="created_by" v="JOSM"/>
    <tag k="highway" v="residential"/>
    <tag k="name" v="U akátů"/>
    <tag k="name:source" v="nameit/uir-adr"/>
  </way>
  <way id="22914329" version="3" timestamp="2009-03-12T00:43:30Z" uid="3516" user="BiIbo" changeset="792152">
    <nd ref="246697937"/>
    <nd ref="246697959"/>
    <nd ref="246697949"/>
    <nd ref="246697939"/>
    <nd ref="246697938"/>
    <tag k="highway" v="residential"/>
    <tag k="name" v="U Akátů"/>
    <tag k="source:name" v="nameit/uir-adr"/>
  </way>
  <way id="22914330" version="2" timestamp="2008-09-16T10:39:03Z" uid="1066" user="pavel" changeset="646258">
    <nd ref="246697939"/>
    <nd ref="246697940"/>
    <nd ref="246697941"/>
    <nd ref="246697942"/>
    <nd ref="246697943"/>
    <nd ref="246697948"/>
    <nd ref="246697944"/>
    <nd ref="246697946"/>
    <tag k="created_by" v="JOSM"/>
    <tag k="highway" v="residential"/>
    <tag k="name" v="U sídliště"/>
    <tag k="name:source" v="nameit/uir-adr"/>
  </way>
  <way id="22914330" version="3" timestamp="2009-03-12T00:43:28Z" uid="3516" user="BiIbo" changeset="792152">
    <nd ref="246697939"/>
    <nd ref="246697940"/>
    <nd ref="246697941"/>
    <nd ref="246697942"/>
    <nd ref="246697943"/>
    <nd ref="246697948"/>
    <nd ref="246697944"/>
    <nd ref="246697946"/>
    <tag k="highway" v="residential"/>
    <tag k="name" v="U Sídliště"/>
    <tag k="source:name" v="nameit/uir-adr"/>
  </way>
  <way id="22914331" version="2" timestamp="2008-09-16T10:35:57Z" uid="1066" user="pavel" changeset="646258">
    <nd ref="246697947"/>
    <nd ref="246697948"/>
    <tag k="created_by" v="JOSM"/>
    <tag k="highway" v="residential"/>
    <tag k="name" v="U sídliště"/>
    <tag k="name:source" v="nameit/uir-adr"/>
  </way>
  <way id="22914331" version="3" timestamp="2009-03-12T00:43:26Z" uid="3516" user="BiIbo" changeset="792152">
    <nd ref="246697947"/>
    <nd ref="246697948"/>
    <tag k="highway" v="residential"/>
    <tag k="name" v="U Sídliště"/>
    <tag k="source:name" v="nameit/uir-adr"/>
  </way>
  <way id="22914331" version="4" timestamp="2010-05-29T20:36:09Z" uid="3516" user="BiIbo" changeset="4844169">
    <nd ref="246697947"/>
    <nd ref="757390469"/>
    <nd ref="246697948"/>
    <tag k="highway" v="residential"/>
    <tag k="name" v="U Sídliště"/>
    <tag k="source:name" v="nameit/uir-adr"/>
  </way>
  <way id="22914332" version="2" timestamp="2008-09-16T10:40:38Z" uid="1066" user="pavel" changeset="646258">
    <nd ref="246697949"/>
    <nd ref="246697950"/>
    <nd ref="246697951"/>
    <nd ref="246697952"/>
    <nd ref="30930148"/>
    <tag k="created_by" v="JOSM"/>
    <tag k="highway" v="residential"/>
    <tag k="name" v="Lipová alej"/>
    <tag k="name:source" v="nameit/uir-adr"/>
  </way>
  <way id="22914332" version="3" timestamp="2009-03-12T00:43:33Z" uid="3516" user="BiIbo" changeset="792152">
    <nd ref="246697949"/>
    <nd ref="246697950"/>
    <nd ref="246697951"/>
    <nd ref="246697952"/>
    <nd ref="30930148"/>
    <tag k="highway" v="residential"/>
    <tag k="name" v="Lipová alej"/>
    <tag k="source:name" v="nameit/uir-adr"/>
  </way>
  <way id="22914333" version="2" timestamp="2008-09-16T10:35:17Z" uid="1066" user="pavel" changeset="646258">
    <nd ref="246697953"/>
    <nd ref="246697954"/>
    <nd ref="246697955"/>
    <nd ref="246697956"/>
    <nd ref="246697959"/>
    <tag k="created_by" v="JOSM"/>
    <tag k="highway" v="residential"/>
    <tag k="name" v="Lipová alej"/>
    <tag k="name:source" v="nameit/uir-adr"/>
  </way>
  <way id="22914333" version="3" timestamp="2009-03-12T00:43:33Z" uid="3516" user="BiIbo" changeset="792152">
    <nd ref="246697953"/>
    <nd ref="246697954"/>
    <nd ref="246697955"/>
    <nd ref="246697956"/>
    <nd ref="246697959"/>
    <tag k="highway" v="residential"/>
    <tag k="name" v="Lipová alej"/>
    <tag k="source:name" v="nameit/uir-adr"/>
  </way>
  <way id="22914334" version="2" timestamp="2008-09-16T10:38:55Z" uid="1066" user="pavel" changeset="646258">
    <nd ref="25376617"/>
    <nd ref="246697969"/>
    <nd ref="246697977"/>
    <nd ref="246697978"/>
    <tag k="created_by" v="JOSM"/>
    <tag k="highway" v="residential"/>
    <tag k="name" v="Kurandové"/>
    <tag k="name:source" v="nameit/uir-adr"/>
  </way>
  <way id="22914334" version="3" timestamp="2009-03-12T00:43:32Z" uid="3516" user="BiIbo" changeset="792152">
    <nd ref="25376617"/>
    <nd ref="246697969"/>
    <nd ref="246697977"/>
    <nd ref="246697978"/>
    <tag k="highway" v="residential"/>
    <tag k="name" v="Kurandové"/>
    <tag k="source:name" v="nameit/uir-adr"/>
  </way>
  <way id="22914334" version="4" timestamp="2010-05-29T20:36:15Z" uid="3516" user="BiIbo" changeset="4844169">
    <nd ref="25376617"/>
    <nd ref="757390567"/>
    <nd ref="757390818"/>
    <nd ref="246697969"/>
    <nd ref="246697977"/>
    <nd ref="246697978"/>
    <tag k="highway" v="residential"/>
    <tag k="name" v="Kurandové"/>
    <tag k="source:name" v="nameit/uir-adr"/>
  </way>
  <way id="22914334" version="5" timestamp="2011-11-10T07:20:39Z" uid="449434" user="kungpao" changeset="9786744">
    <nd ref="25376617"/>
    <nd ref="757390567"/>
    <nd ref="757390818"/>
    <nd ref="246697969"/>
    <nd ref="246697977"/>
    <nd ref="246697978"/>
    <nd ref="1497032997"/>
    <tag k="highway" v="residential"/>
    <tag k="name" v="Kurandové"/>
    <tag k="source:name" v="nameit/uir-adr"/>
  </way>
  <way id="22914369" version="2" timestamp="2008-09-16T10:36:03Z" uid="1066" user="pavel" changeset="646258">
    <nd ref="246698398"/>
    <nd ref="246698399"/>
    <tag k="created_by" v="JOSM"/>
    <tag k="highway" v="residential"/>
    <tag k="name" v="Geologická"/>
    <tag k="name:source" v="nameit/uir-adr"/>
  </way>
  <way id="22914369" version="3" timestamp="2009-03-14T21:23:14Z" uid="3516" user="BiIbo" changeset="807112">
    <nd ref="246698398"/>
    <nd ref="246698399"/>
    <tag k="highway" v="residential"/>
    <tag k="name" v="Geologická"/>
    <tag k="source:name" v="nameit/uir-adr"/>
  </way>
  <way id="22914369" version="4" timestamp="2010-03-27T10:31:34Z" uid="39109" user="Aleš Janda" changeset="4245182">
    <nd ref="246698398"/>
    <nd ref="675631702"/>
    <nd ref="246698399"/>
    <nd ref="675631716"/>
    <nd ref="675631688"/>
    <nd ref="675631689"/>
    <nd ref="675631690"/>
    <nd ref="675631691"/>
    <nd ref="675631679"/>
    <nd ref="675631680"/>
    <nd ref="675631682"/>
    <tag k="highway" v="residential"/>
    <tag k="name" v="Geologická"/>
    <tag k="source:name" v="nameit/uir-adr"/>
  </way>
  <way id="22914369" version="5" timestamp="2011-09-10T22:41:51Z" uid="520092" user="Michal Nusko" changeset="9266652">
    <nd ref="246698398"/>
    <nd ref="675631702"/>
    <nd ref="246698399"/>
    <nd ref="675631716"/>
    <nd ref="675631688"/>
    <nd ref="675631689"/>
    <nd ref="675631690"/>
    <nd ref="675631691"/>
    <nd ref="675631679"/>
    <nd ref="675631680"/>
    <nd ref="675631682"/>
    <tag k="highway" v="residential"/>
    <tag k="name" v="Devonská"/>
    <tag k="source:name" v="nameit/uir-adr"/>
  </way>
  <way id="22914369" version="6" timestamp="2011-09-11T00:22:43Z" uid="520092" user="Michal Nusko" changeset="9266993">
    <nd ref="246698398"/>
    <nd ref="675631702"/>
    <nd ref="1429442500"/>
    <nd ref="246698399"/>
    <nd ref="1429442497"/>
    <nd ref="675631716"/>
    <tag k="highway" v="residential"/>
    <tag k="lanes" v="2"/>
    <tag k="name" v="Devonská"/>
    <tag k="source:name" v="nameit/uir-adr"/>
    <tag k="surface" v="asphalt"/>
  </way>
  <way id="22914370" version="2" timestamp="2008-09-16T10:40:06Z" uid="1066" user="pavel" changeset="646258">
    <nd ref="246698400"/>
    <nd ref="246698401"/>
    <tag k="created_by" v="JOSM"/>
    <tag k="highway" v="residential"/>
    <tag k="name" v="Silurská"/>
    <tag k="name:source" v="nameit/uir-adr"/>
  </way>
  <way id="22914370" version="3" timestamp="2009-03-14T21:23:11Z" uid="3516" user="BiIbo" changeset="807112">
    <nd ref="246698400"/>
    <nd ref="246698401"/>
    <tag k="highway" v="residential"/>
    <tag k="name" v="Silurská"/>
    <tag k="source:name" v="nameit/uir-adr"/>
  </way>
  <way id="22914370" version="4" timestamp="2010-05-29T19:08:05Z" uid="3516" user="BiIbo" changeset="4844169">
    <nd ref="246698400"/>
    <nd ref="757244953"/>
    <nd ref="757244799"/>
    <nd ref="246698401"/>
    <tag k="highway" v="residential"/>
    <tag k="name" v="Silurská"/>
    <tag k="source:name" v="nameit/uir-adr"/>
  </way>
  <way id="22914370" version="5" timestamp="2011-10-04T10:55:46Z" uid="520092" user="Michal Nusko" changeset="9468041">
    <nd ref="246698400"/>
    <nd ref="1454746781"/>
    <nd ref="757244953"/>
    <nd ref="757244799"/>
    <nd ref="246698401"/>
    <tag k="highway" v="residential"/>
    <tag k="name" v="Silurská"/>
    <tag k="source:name" v="nameit/uir-adr"/>
  </way>
  <way id="22914389" version="2" timestamp="2008-09-16T10:38:24Z" uid="1066" user="pavel" changeset="646258">
    <nd ref="246698759"/>
    <nd ref="246698760"/>
    <nd ref="30930118"/>
    <tag k="created_by" v="JOSM"/>
    <tag k="highway" v="residential"/>
    <tag k="name" v="Kosořská"/>
    <tag k="name:source" v="nameit/uir-adr"/>
  </way>
  <way id="22914389" version="3" timestamp="2009-03-14T21:23:17Z" uid="3516" user="BiIbo" changeset="807112">
    <nd ref="246698759"/>
    <nd ref="246698760"/>
    <nd ref="30930118"/>
    <tag k="highway" v="residential"/>
    <tag k="name" v="Kosořská"/>
    <tag k="source:name" v="nameit/uir-adr"/>
  </way>
  <way id="22914416" version="9" timestamp="2009-09-24T09:39:30Z" uid="115477" user="wowik" changeset="2603794">
    <nd ref="246699289"/>
    <nd ref="246699147"/>
    <nd ref="246699148"/>
    <nd ref="246699674"/>
    <nd ref="246698702"/>
    <tag k="cladr:code" v="77000000000317800"/>
    <tag k="cladr:name" v="Щипок"/>
    <tag k="cladr:suffix" v="Улица"/>
    <tag k="highway" v="residential"/>
    <tag k="name" v="ул. Щипок"/>
  </way>
  <way id="22914416" version="10" timestamp="2009-11-01T06:21:59Z" uid="30590" user="KekcuHa" changeset="3003577">
    <nd ref="246699289"/>
    <nd ref="246699147"/>
    <nd ref="246699674"/>
    <nd ref="246698702"/>
    <tag k="cladr:code" v="77000000000317800"/>
    <tag k="cladr:name" v="Щипок"/>
    <tag k="cladr:suffix" v="Улица"/>
    <tag k="highway" v="residential"/>
    <tag k="name" v="ул. Щипок"/>
  </way>
  <way id="22914416" version="11" timestamp="2009-11-11T19:14:27Z" uid="11132" user="liosha" changeset="3092781">
    <nd ref="246699289"/>
    <nd ref="246699147"/>
    <nd ref="246699674"/>
    <nd ref="246698702"/>
    <tag k="cladr:code" v="77000000000317800"/>
    <tag k="cladr:name" v="Щипок"/>
    <tag k="cladr:suffix" v="Улица"/>
    <tag k="highway" v="residential"/>
    <tag k="name" v="улица Щипок"/>
    <tag k="omkum:code" v="31900"/>
    <tag k="sorting_name" v="Щипок  улица"/>
  </way>
  <way id="22914416" version="12" timestamp="2010-03-18T17:14:51Z" uid="30590" user="KekcuHa" changeset="4163021">
    <nd ref="246699289"/>
    <nd ref="246699147"/>
    <nd ref="246699674"/>
    <nd ref="668974889"/>
    <nd ref="246698702"/>
    <tag k="cladr:code" v="77000000000317800"/>
    <tag k="cladr:name" v="Щипок"/>
    <tag k="cladr:suffix" v="Улица"/>
    <tag k="highway" v="unclassified"/>
    <tag k="name" v="улица Щипок"/>
    <tag k="omkum:code" v="31900"/>
    <tag k="sorting_name" v="Щипок  улица"/>
  </way>
  <way id="22914416" version="13" timestamp="2010-07-17T17:10:25Z" uid="25188" user="Lito" changeset="5244231">
    <nd ref="246699289"/>
    <nd ref="246699147"/>
    <nd ref="822025743"/>
    <nd ref="246699674"/>
    <nd ref="668974889"/>
    <nd ref="246698702"/>
    <tag k="cladr:code" v="77000000000317800"/>
    <tag k="cladr:name" v="Щипок"/>
    <tag k="cladr:suffix" v="Улица"/>
    <tag k="highway" v="unclassified"/>
    <tag k="name" v="улица Щипок"/>
    <tag k="omkum:code" v="31900"/>
    <tag k="sorting_name" v="Щипок  улица"/>
  </way>
  <way id="22914416" version="14" timestamp="2010-10-26T09:02:50Z" uid="233639" user="Cyantooth" changeset="6180330">
    <nd ref="246699289"/>
    <nd ref="246699147"/>
    <nd ref="822025743"/>
    <nd ref="246699674"/>
    <nd ref="668974889"/>
    <nd ref="965856973"/>
    <nd ref="965856968"/>
    <nd ref="246698702"/>
    <tag k="cladr:code" v="77000000000317800"/>
    <tag k="cladr:name" v="Щипок"/>
    <tag k="cladr:suffix" v="Улица"/>
    <tag k="highway" v="unclassified"/>
    <tag k="name" v="улица Щипок"/>
    <tag k="omkum:code" v="31900"/>
    <tag k="sorting_name" v="Щипок  улица"/>
  </way>
  <way id="22914416" version="15" timestamp="2012-03-28T21:35:03Z" uid="336354" user="esaulenka" changeset="11131620"/>
  <way id="22914427" version="5" timestamp="2008-07-11T08:13:39Z" uid="6975" user="ulfl" changeset="459439">
    <nd ref="61271526"/>
    <nd ref="246699424"/>
    <nd ref="246699425"/>
    <nd ref="246699426"/>
    <nd ref="246699427"/>
    <nd ref="246699428"/>
    <nd ref="246699429"/>
    <nd ref="246699430"/>
    <nd ref="246699431"/>
    <nd ref="246699432"/>
    <nd ref="246699433"/>
    <nd ref="246699434"/>
    <nd ref="266296251"/>
    <nd ref="246699435"/>
    <nd ref="246699436"/>
    <tag k="highway" v="secondary"/>
    <tag k="name" v="Freiburger Straße"/>
    <tag k="ref" v="B 3"/>
  </way>
  <way id="22914427" version="6" timestamp="2008-08-08T07:59:36Z" uid="51757" user="kolibri" changeset="135341">
    <nd ref="61271526"/>
    <nd ref="246699424"/>
    <nd ref="246699425"/>
    <nd ref="246699426"/>
    <nd ref="246699427"/>
    <nd ref="246699428"/>
    <nd ref="286106209"/>
    <nd ref="246699429"/>
    <nd ref="246699430"/>
    <nd ref="246699431"/>
    <nd ref="246699432"/>
    <nd ref="246699433"/>
    <nd ref="246699434"/>
    <nd ref="266296251"/>
    <nd ref="246699435"/>
    <nd ref="286106225"/>
    <nd ref="246699436"/>
    <tag k="highway" v="secondary"/>
    <tag k="name" v="Freiburger Straße"/>
    <tag k="ref" v="B 3"/>
  </way>
  <way id="22914427" version="7" timestamp="2008-08-09T14:09:15Z" uid="51757" user="kolibri" changeset="151915">
    <nd ref="61271526"/>
    <nd ref="246699424"/>
    <nd ref="246699425"/>
    <nd ref="246699426"/>
    <nd ref="246699427"/>
    <nd ref="246699428"/>
    <nd ref="286106209"/>
    <nd ref="246699429"/>
    <nd ref="246699430"/>
    <nd ref="246699431"/>
    <nd ref="246699432"/>
    <nd ref="246699433"/>
    <nd ref="246699434"/>
    <nd ref="266296251"/>
    <nd ref="246699435"/>
    <nd ref="286106225"/>
    <nd ref="286471336"/>
    <nd ref="246699436"/>
    <tag k="highway" v="secondary"/>
    <tag k="name" v="Freiburger Straße"/>
    <tag k="ref" v="B 3"/>
  </way>
  <way id="22914427" version="8" timestamp="2008-08-17T23:34:01Z" uid="55178" user="azzurro1971" changeset="315769">
    <nd ref="61271526"/>
    <nd ref="246699424"/>
    <nd ref="246699425"/>
    <nd ref="246699426"/>
    <nd ref="246699427"/>
    <nd ref="246699428"/>
    <nd ref="286106209"/>
    <nd ref="246699429"/>
    <nd ref="246699430"/>
    <nd ref="246699431"/>
    <nd ref="246699432"/>
    <nd ref="246699433"/>
    <nd ref="246699434"/>
    <nd ref="266296251"/>
    <nd ref="246699435"/>
    <nd ref="286106225"/>
    <nd ref="286471336"/>
    <nd ref="246699436"/>
    <tag k="created_by" v="Potlatch 0.10b"/>
    <tag k="highway" v="secondary"/>
    <tag k="name" v="Freiburger Straße"/>
    <tag k="ref" v="B 3"/>
  </way>
  <way id="22914427" version="9" timestamp="2008-09-21T06:49:35Z" uid="51757" user="kolibri" changeset="676785">
    <nd ref="61271526"/>
    <nd ref="246699424"/>
    <nd ref="246699425"/>
    <nd ref="246699426"/>
    <nd ref="246699427"/>
    <nd ref="246699428"/>
    <nd ref="286106209"/>
    <nd ref="246699429"/>
    <nd ref="246699430"/>
    <nd ref="246699431"/>
    <nd ref="246699432"/>
    <nd ref="246699433"/>
    <nd ref="246699434"/>
    <nd ref="266296251"/>
    <nd ref="246699435"/>
    <nd ref="286106225"/>
    <nd ref="286471336"/>
    <nd ref="246699436"/>
    <nd ref="298605879"/>
    <tag k="created_by" v="Potlatch 0.10b"/>
    <tag k="highway" v="primary"/>
    <tag k="name" v="Freiburger Straße"/>
    <tag k="ref" v="B 3;B33"/>
  </way>
  <way id="22914427" version="10" timestamp="2008-10-09T08:51:35Z" uid="36745" user="Gluko" changeset="182911">
    <nd ref="61271526"/>
    <nd ref="246699424"/>
    <nd ref="246699425"/>
    <nd ref="246699426"/>
    <nd ref="246699427"/>
    <nd ref="246699428"/>
    <nd ref="286106209"/>
    <nd ref="246699429"/>
    <nd ref="246699430"/>
    <nd ref="246699431"/>
    <nd ref="246699432"/>
    <nd ref="246699433"/>
    <nd ref="246699434"/>
    <nd ref="266296251"/>
    <nd ref="246699435"/>
    <nd ref="286106225"/>
    <nd ref="286471336"/>
    <nd ref="246699436"/>
    <nd ref="298605879"/>
    <tag k="created_by" v="Potlatch 0.10d"/>
    <tag k="highway" v="primary"/>
    <tag k="name" v="Freiburger Straße"/>
    <tag k="ref" v="B 3; B33"/>
  </way>
  <way id="22914427" version="11" timestamp="2008-10-09T08:54:20Z" uid="36745" user="Gluko" changeset="182911">
    <nd ref="61271526"/>
    <nd ref="246699424"/>
    <nd ref="246699425"/>
    <nd ref="246699426"/>
    <nd ref="246699427"/>
    <nd ref="246699428"/>
    <nd ref="286106209"/>
    <nd ref="246699429"/>
    <nd ref="246699430"/>
    <nd ref="246699431"/>
    <nd ref="246699432"/>
    <nd ref="246699433"/>
    <nd ref="246699434"/>
    <nd ref="266296251"/>
    <nd ref="246699435"/>
    <nd ref="286106225"/>
    <nd ref="286471336"/>
    <nd ref="246699436"/>
    <nd ref="298605879"/>
    <tag k="created_by" v="Potlatch 0.10d"/>
    <tag k="highway" v="primary"/>
    <tag k="name" v="Freiburger Straße"/>
    <tag k="ref" v="B 3; B 33"/>
  </way>
  <way id="22914427" version="12" timestamp="2008-10-24T20:43:09Z" uid="64913" user="Wkg" changeset="573210">
    <nd ref="61271526"/>
    <nd ref="246699424"/>
    <nd ref="246699425"/>
    <nd ref="246699426"/>
    <nd ref="246699427"/>
    <nd ref="246699428"/>
    <nd ref="286106209"/>
    <nd ref="246699429"/>
    <nd ref="307130761"/>
    <nd ref="246699430"/>
    <nd ref="246699431"/>
    <nd ref="246699432"/>
    <nd ref="246699433"/>
    <nd ref="246699434"/>
    <nd ref="266296251"/>
    <nd ref="246699435"/>
    <nd ref="286106225"/>
    <nd ref="286471336"/>
    <nd ref="246699436"/>
    <nd ref="298605879"/>
    <tag k="created_by" v="Potlatch 0.10d"/>
    <tag k="highway" v="primary"/>
    <tag k="name" v="Freiburger Straße"/>
    <tag k="ref" v="B 3; B 33"/>
  </way>
  <way id="22914427" version="13" timestamp="2008-10-27T19:01:56Z" uid="51757" user="kolibri" changeset="602664">
    <nd ref="61271526"/>
    <nd ref="246699424"/>
    <nd ref="246699425"/>
    <nd ref="246699426"/>
    <nd ref="246699427"/>
    <nd ref="246699428"/>
    <nd ref="286106209"/>
    <nd ref="246699429"/>
    <nd ref="307130761"/>
    <nd ref="246699430"/>
    <nd ref="246699431"/>
    <nd ref="246699432"/>
    <nd ref="246699433"/>
    <nd ref="246699434"/>
    <nd ref="266296251"/>
    <nd ref="246699435"/>
    <nd ref="308046670"/>
    <nd ref="286106225"/>
    <nd ref="286471336"/>
    <nd ref="246699436"/>
    <nd ref="298605879"/>
    <tag k="created_by" v="Potlatch 0.10d"/>
    <tag k="highway" v="primary"/>
    <tag k="name" v="Freiburger Straße"/>
    <tag k="ref" v="B 3; B 33"/>
  </way>
  <way id="22914427" version="14" timestamp="2008-12-22T11:49:09Z" uid="37055" user="MapperOG" changeset="540399">
    <nd ref="61271526"/>
    <nd ref="246699424"/>
    <nd ref="246699425"/>
    <nd ref="246699426"/>
    <nd ref="320875616"/>
    <nd ref="246699427"/>
    <nd ref="246699428"/>
    <nd ref="286106209"/>
    <nd ref="246699429"/>
    <nd ref="307130761"/>
    <nd ref="246699430"/>
    <nd ref="246699431"/>
    <nd ref="246699432"/>
    <nd ref="246699433"/>
    <nd ref="246699434"/>
    <nd ref="266296251"/>
    <nd ref="246699435"/>
    <nd ref="308046670"/>
    <nd ref="286106225"/>
    <nd ref="286471336"/>
    <nd ref="246699436"/>
    <nd ref="298605879"/>
    <tag k="created_by" v="Potlatch 0.10d"/>
    <tag k="highway" v="primary"/>
    <tag k="name" v="Freiburger Straße"/>
    <tag k="ref" v="B 3; B 33"/>
  </way>
  <way id="22914427" version="15" timestamp="2009-01-18T18:37:35Z" uid="37055" user="MapperOG" changeset="805516">
    <nd ref="61271526"/>
    <nd ref="246699424"/>
    <nd ref="246699425"/>
    <nd ref="246699426"/>
    <nd ref="320875616"/>
    <nd ref="246699427"/>
    <nd ref="246699428"/>
    <nd ref="286106209"/>
    <nd ref="246699429"/>
    <nd ref="307130761"/>
    <nd ref="246699430"/>
    <nd ref="246699431"/>
    <nd ref="333178906"/>
    <nd ref="246699432"/>
    <nd ref="246699433"/>
    <nd ref="246699434"/>
    <nd ref="266296251"/>
    <nd ref="246699435"/>
    <nd ref="308046670"/>
    <nd ref="286106225"/>
    <nd ref="286471336"/>
    <nd ref="246699436"/>
    <nd ref="298605879"/>
    <tag k="created_by" v="Potlatch 0.10d"/>
    <tag k="highway" v="primary"/>
    <tag k="name" v="Freiburger Straße"/>
    <tag k="ref" v="B 3; B 33"/>
  </way>
  <way id="22914427" version="16" timestamp="2009-06-14T18:35:27Z" uid="85761" user="klausis" changeset="1517885">
    <nd ref="61271526"/>
    <nd ref="246699424"/>
    <nd ref="246699425"/>
    <nd ref="246699426"/>
    <nd ref="320875616"/>
    <nd ref="246699427"/>
    <nd ref="246699428"/>
    <nd ref="286106209"/>
    <nd ref="246699429"/>
    <nd ref="307130761"/>
    <nd ref="246699430"/>
    <nd ref="246699431"/>
    <nd ref="333178906"/>
    <nd ref="246699432"/>
    <nd ref="246699433"/>
    <nd ref="246699434"/>
    <nd ref="266296251"/>
    <nd ref="246699435"/>
    <nd ref="308046670"/>
    <nd ref="286106225"/>
    <nd ref="286471336"/>
    <nd ref="246699436"/>
    <nd ref="298605879"/>
    <tag k="highway" v="primary"/>
    <tag k="name" v="Freiburger Straße"/>
    <tag k="ref" v="B 3; B 33"/>
  </way>
  <way id="22914427" version="17" timestamp="2009-12-28T20:11:51Z" uid="35560" user="HeikoE" changeset="3475424">
    <nd ref="61271526"/>
    <nd ref="246699424"/>
    <nd ref="246699425"/>
    <nd ref="246699426"/>
    <nd ref="320875616"/>
    <nd ref="246699427"/>
    <nd ref="246699428"/>
    <nd ref="286106209"/>
    <nd ref="246699429"/>
    <nd ref="307130761"/>
    <nd ref="246699430"/>
    <nd ref="246699431"/>
    <nd ref="333178906"/>
    <nd ref="246699432"/>
    <nd ref="246699433"/>
    <nd ref="246699434"/>
    <nd ref="266296251"/>
    <nd ref="246699435"/>
    <nd ref="308046670"/>
    <nd ref="286106225"/>
    <nd ref="286471336"/>
    <nd ref="246699436"/>
    <nd ref="298605879"/>
    <tag k="highway" v="primary"/>
    <tag k="name" v="Freiburger Straße"/>
    <tag k="ref" v="B 3;B 33"/>
  </way>
  <way id="22914427" version="18" timestamp="2010-01-27T22:19:21Z" uid="119543" user="Johni" changeset="3732097">
    <nd ref="61271526"/>
    <nd ref="246699424"/>
    <nd ref="246699425"/>
    <nd ref="246699426"/>
    <nd ref="320875616"/>
    <nd ref="246699427"/>
    <nd ref="246699428"/>
    <nd ref="286106209"/>
    <nd ref="246699429"/>
    <nd ref="307130761"/>
    <nd ref="246699430"/>
    <nd ref="246699431"/>
    <nd ref="333178906"/>
    <nd ref="246699432"/>
    <nd ref="246699433"/>
    <nd ref="246699434"/>
    <nd ref="266296251"/>
    <nd ref="246699435"/>
    <nd ref="308046670"/>
    <nd ref="286106225"/>
    <nd ref="621483621"/>
    <nd ref="286471336"/>
    <nd ref="246699436"/>
    <nd ref="298605879"/>
    <tag k="highway" v="primary"/>
    <tag k="name" v="Freiburger Straße"/>
    <tag k="ref" v="B 3;B 33"/>
  </way>
  <way id="22914427" version="19" timestamp="2010-04-18T09:16:19Z" uid="37055" user="MapperOG" changeset="4455571">
    <nd ref="61271526"/>
    <nd ref="246699424"/>
    <nd ref="246699425"/>
    <nd ref="246699426"/>
    <nd ref="320875616"/>
    <nd ref="246699427"/>
    <nd ref="700761786"/>
    <nd ref="246699428"/>
    <nd ref="286106209"/>
    <nd ref="246699429"/>
    <nd ref="307130761"/>
    <nd ref="246699430"/>
    <nd ref="246699431"/>
    <nd ref="333178906"/>
    <nd ref="246699432"/>
    <nd ref="246699433"/>
    <nd ref="246699434"/>
    <nd ref="266296251"/>
    <nd ref="246699435"/>
    <nd ref="308046670"/>
    <nd ref="286106225"/>
    <nd ref="621483621"/>
    <nd ref="286471336"/>
    <nd ref="246699436"/>
    <nd ref="298605879"/>
    <tag k="highway" v="primary"/>
    <tag k="name" v="Freiburger Straße"/>
    <tag k="ref" v="B 3;B 33"/>
  </way>
  <way id="22914427" version="20" timestamp="2010-04-25T15:39:22Z" uid="37055" user="MapperOG" changeset="4522787">
    <nd ref="61271526"/>
    <nd ref="246699424"/>
    <nd ref="246699425"/>
    <nd ref="246699426"/>
    <nd ref="320875616"/>
    <nd ref="246699427"/>
    <nd ref="700761786"/>
    <nd ref="706259218"/>
    <nd ref="706259212"/>
    <nd ref="246699428"/>
    <nd ref="286106209"/>
    <nd ref="246699429"/>
    <nd ref="307130761"/>
    <nd ref="246699430"/>
    <nd ref="246699431"/>
    <nd ref="333178906"/>
    <nd ref="246699432"/>
    <nd ref="246699433"/>
    <nd ref="246699434"/>
    <nd ref="266296251"/>
    <nd ref="246699435"/>
    <nd ref="308046670"/>
    <nd ref="286106225"/>
    <nd ref="621483621"/>
    <nd ref="286471336"/>
    <nd ref="246699436"/>
    <nd ref="298605879"/>
    <tag k="highway" v="primary"/>
    <tag k="name" v="Freiburger Straße"/>
    <tag k="ref" v="B 3;B 33"/>
  </way>
  <way id="22914427" version="21" timestamp="2010-06-05T21:15:01Z" uid="152744" user="skyper" changeset="4912574">
    <nd ref="61271526"/>
    <nd ref="246699424"/>
    <nd ref="246699425"/>
    <nd ref="246699426"/>
    <nd ref="320875616"/>
    <nd ref="246699427"/>
    <nd ref="700761786"/>
    <nd ref="706259218"/>
    <nd ref="706259212"/>
    <nd ref="246699428"/>
    <nd ref="286106209"/>
    <nd ref="246699429"/>
    <nd ref="307130761"/>
    <nd ref="246699430"/>
    <nd ref="246699431"/>
    <nd ref="333178906"/>
    <nd ref="246699432"/>
    <nd ref="246699433"/>
    <nd ref="246699434"/>
    <nd ref="266296251"/>
    <nd ref="246699435"/>
    <nd ref="308046670"/>
    <nd ref="286106225"/>
    <nd ref="621483621"/>
    <nd ref="286471336"/>
    <nd ref="246699436"/>
    <tag k="highway" v="primary"/>
    <tag k="name" v="Freiburger Straße"/>
    <tag k="ref" v="B 3;B 33"/>
  </way>
  <way id="22914427" version="22" timestamp="2010-10-27T15:05:58Z" uid="352976" user="ralfhergert" changeset="6197062">
    <nd ref="61271526"/>
    <nd ref="246699424"/>
    <nd ref="246699425"/>
    <nd ref="246699426"/>
    <nd ref="320875616"/>
    <nd ref="246699427"/>
    <nd ref="700761786"/>
    <nd ref="706259218"/>
    <nd ref="706259212"/>
    <nd ref="246699428"/>
    <nd ref="286106209"/>
    <nd ref="246699429"/>
    <nd ref="307130761"/>
    <nd ref="246699430"/>
    <nd ref="246699431"/>
    <nd ref="966851433"/>
    <nd ref="966851435"/>
    <nd ref="333178906"/>
    <nd ref="246699432"/>
    <nd ref="246699433"/>
    <nd ref="266296251"/>
    <nd ref="246699435"/>
    <nd ref="966851434"/>
    <nd ref="308046670"/>
    <nd ref="286106225"/>
    <nd ref="621483621"/>
    <nd ref="286471336"/>
    <nd ref="966851427"/>
    <nd ref="246699436"/>
    <tag k="highway" v="primary"/>
    <tag k="name" v="Freiburger Straße"/>
    <tag k="ref" v="B 3;B 33"/>
  </way>
  <way id="22914427" version="23" timestamp="2010-12-12T17:58:35Z" uid="37055" user="MapperOG" changeset="6639415">
    <nd ref="61271526"/>
    <nd ref="246699424"/>
    <nd ref="246699425"/>
    <nd ref="1036106431"/>
    <nd ref="246699426"/>
    <nd ref="320875616"/>
    <nd ref="246699427"/>
    <nd ref="700761786"/>
    <nd ref="706259218"/>
    <nd ref="706259212"/>
    <nd ref="246699428"/>
    <nd ref="286106209"/>
    <nd ref="246699429"/>
    <nd ref="307130761"/>
    <nd ref="246699430"/>
    <nd ref="246699431"/>
    <nd ref="966851433"/>
    <nd ref="966851435"/>
    <nd ref="333178906"/>
    <nd ref="246699432"/>
    <nd ref="246699433"/>
    <nd ref="266296251"/>
    <nd ref="246699435"/>
    <nd ref="966851434"/>
    <nd ref="308046670"/>
    <nd ref="286106225"/>
    <nd ref="621483621"/>
    <nd ref="286471336"/>
    <nd ref="966851427"/>
    <nd ref="246699436"/>
    <tag k="highway" v="primary"/>
    <tag k="name" v="Freiburger Straße"/>
    <tag k="ref" v="B 3;B 33"/>
  </way>
  <way id="22914427" version="24" timestamp="2011-07-21T15:24:59Z" uid="338664" user="geflechtmeister" changeset="8789637">
    <nd ref="61271526"/>
    <nd ref="246699424"/>
    <nd ref="246699425"/>
    <nd ref="1036106431"/>
    <nd ref="246699426"/>
    <nd ref="320875616"/>
    <nd ref="246699427"/>
    <nd ref="700761786"/>
    <nd ref="706259218"/>
    <nd ref="706259212"/>
    <nd ref="246699428"/>
    <nd ref="286106209"/>
    <nd ref="246699429"/>
    <nd ref="307130761"/>
    <tag k="highway" v="primary"/>
    <tag k="name" v="Freiburger Straße"/>
    <tag k="ref" v="B 3;B 33"/>
  </way>
  <way id="22914437" version="4" timestamp="2010-07-07T22:49:53Z" uid="74617" user="JohnSmith" changeset="5162525">
    <nd ref="246699573"/>
    <nd ref="246699574"/>
    <nd ref="631532436"/>
    <nd ref="631532438"/>
    <nd ref="631532445"/>
    <nd ref="246699576"/>
    <nd ref="246699577"/>
    <nd ref="246699567"/>
    <tag k="highway" v="residential"/>
    <tag k="maxspeed" v="50"/>
    <tag k="maxspeed:source" v="default residential speed limit in Australia"/>
    <tag k="name" v="Bunyan Lane"/>
  </way>
  <way id="22914437" version="5" timestamp="2012-01-15T23:47:46Z" uid="147510" user="woodpeck_fixbot" changeset="10404406">
    <nd ref="246699573"/>
    <nd ref="246699574"/>
    <nd ref="631532436"/>
    <nd ref="631532438"/>
    <nd ref="631532445"/>
    <nd ref="246699576"/>
    <nd ref="246699577"/>
    <nd ref="246699567"/>
    <tag k="highway" v="residential"/>
    <tag k="name" v="Bunyan Lane"/>
  </way>
  <way id="22914438" version="3" timestamp="2008-06-24T02:34:56Z" uid="30201" user="rrankin" changeset="278974">
    <nd ref="244318354"/>
    <nd ref="244318352"/>
    <nd ref="247010058"/>
    <nd ref="247010061"/>
    <nd ref="247010045"/>
    <nd ref="246611047"/>
    <nd ref="246610808"/>
    <tag k="created_by" v="Potlatch 0.7"/>
    <tag k="highway" v="residential"/>
    <tag k="name" v="Coughlan Road"/>
  </way>
  <way id="22914438" version="4" timestamp="2010-02-05T07:27:11Z" uid="47167" user="MCH" changeset="3795916">
    <nd ref="244318354"/>
    <nd ref="244318352"/>
    <nd ref="247010058"/>
    <nd ref="247010061"/>
    <nd ref="247010045"/>
    <nd ref="630354582"/>
    <nd ref="246611047"/>
    <nd ref="246610808"/>
    <tag k="highway" v="residential"/>
    <tag k="name" v="Coughlan Road"/>
  </way>
  <way id="22914438" version="5" timestamp="2010-07-07T22:53:46Z" uid="74617" user="JohnSmith" changeset="5162525">
    <nd ref="244318354"/>
    <nd ref="244318352"/>
    <nd ref="247010058"/>
    <nd ref="247010061"/>
    <nd ref="247010045"/>
    <nd ref="630354582"/>
    <nd ref="246611047"/>
    <nd ref="246610808"/>
    <tag k="highway" v="residential"/>
    <tag k="maxspeed" v="50"/>
    <tag k="maxspeed:source" v="default residential speed limit in Australia"/>
    <tag k="name" v="Coughlan Road"/>
  </way>
  <way id="22914438" version="6" timestamp="2012-01-15T23:47:46Z" uid="147510" user="woodpeck_fixbot" changeset="10404406">
    <nd ref="244318354"/>
    <nd ref="244318352"/>
    <nd ref="247010058"/>
    <nd ref="247010061"/>
    <nd ref="247010045"/>
    <nd ref="630354582"/>
    <nd ref="246611047"/>
    <nd ref="246610808"/>
    <tag k="highway" v="residential"/>
    <tag k="name" v="Coughlan Road"/>
  </way>
  <way id="22914439" version="3" timestamp="2010-07-07T22:45:33Z" uid="74617" user="JohnSmith" changeset="5162525">
    <nd ref="246699579"/>
    <nd ref="246699581"/>
    <nd ref="247009628"/>
    <tag k="highway" v="residential"/>
    <tag k="maxspeed" v="50"/>
    <tag k="maxspeed:source" v="default residential speed limit in Australia"/>
    <tag k="name" v="Thomas Telford Place"/>
  </way>
  <way id="22914439" version="4" timestamp="2012-01-15T23:47:47Z" uid="147510" user="woodpeck_fixbot" changeset="10404406">
    <nd ref="246699579"/>
    <nd ref="246699581"/>
    <nd ref="247009628"/>
    <tag k="highway" v="residential"/>
    <tag k="name" v="Thomas Telford Place"/>
  </way>
  <way id="22914440" version="2" timestamp="2010-07-07T22:46:18Z" uid="74617" user="JohnSmith" changeset="5162525">
    <nd ref="246699587"/>
    <nd ref="246699581"/>
    <tag k="highway" v="residential"/>
    <tag k="maxspeed" v="50"/>
    <tag k="maxspeed:source" v="default residential speed limit in Australia"/>
    <tag k="name" v="Thomas Telford Place"/>
  </way>
  <way id="22914440" version="3" timestamp="2012-01-15T23:47:48Z" uid="147510" user="woodpeck_fixbot" changeset="10404406">
    <nd ref="246699587"/>
    <nd ref="246699581"/>
    <tag k="highway" v="residential"/>
    <tag k="name" v="Thomas Telford Place"/>
  </way>
  <way id="22914441" version="6" timestamp="2009-12-21T05:49:55Z" uid="30201" user="rrankin" changeset="3418403">
    <nd ref="243433311"/>
    <nd ref="246699589"/>
    <nd ref="386534747"/>
    <tag k="foot" v="yes"/>
    <tag k="highway" v="track"/>
  </way>
  <way id="22914441" version="7" timestamp="2010-02-03T12:46:51Z" uid="47167" user="MCH" changeset="3781311">
    <nd ref="243433311"/>
    <nd ref="386534747"/>
    <tag k="foot" v="yes"/>
    <tag k="highway" v="track"/>
  </way>
  <way id="22914441" version="8" timestamp="2010-02-06T13:09:47Z" uid="47167" user="MCH" changeset="3804903">
    <nd ref="243433311"/>
    <nd ref="631519539"/>
    <nd ref="386534747"/>
    <tag k="foot" v="yes"/>
    <tag k="highway" v="track"/>
  </way>
  <way id="22914441" version="9" timestamp="2010-08-28T02:42:19Z" uid="47167" user="MCH" changeset="5612745">
    <nd ref="243433311"/>
    <nd ref="631519539"/>
    <nd ref="386534747"/>
    <tag k="bicycle" v="yes"/>
    <tag k="foot" v="yes"/>
    <tag k="highway" v="track"/>
    <tag k="source" v="survey"/>
    <tag k="surface" v="dirt"/>
    <tag k="tracktype" v="grade2"/>
  </way>
  <way id="22914441" version="10" timestamp="2010-08-29T05:27:21Z" uid="47167" user="MCH" changeset="5622157">
    <nd ref="243433311"/>
    <nd ref="631519539"/>
    <nd ref="386534747"/>
    <tag k="bicycle" v="yes"/>
    <tag k="foot" v="yes"/>
    <tag k="highway" v="track"/>
    <tag k="source" v="survey"/>
    <tag k="surface" v="unpaved"/>
    <tag k="tracktype" v="grade2"/>
  </way>
  <way id="22914441" version="11" timestamp="2012-03-04T09:37:41Z" uid="47167" user="MCH" changeset="10865623"/>
  <way id="22914443" version="2" timestamp="2008-06-24T02:35:14Z" uid="30201" user="rrankin" changeset="278974"/>
  <way id="22914444" version="2" timestamp="2008-06-24T02:35:12Z" uid="30201" user="rrankin" changeset="278974"/>
  <way id="22914445" version="2" timestamp="2008-06-24T02:35:12Z" uid="30201" user="rrankin" changeset="278974"/>
  <way id="22914446" version="2" timestamp="2008-06-24T02:35:13Z" uid="30201" user="rrankin" changeset="278974"/>
  <way id="22914449" version="2" timestamp="2008-06-24T02:35:11Z" uid="30201" user="rrankin" changeset="278974"/>
  <way id="22914450" version="5" timestamp="2009-12-21T05:49:55Z" uid="30201" user="rrankin" changeset="3418403"/>
  <way id="22914451" version="5" timestamp="2009-08-04T01:55:55Z" uid="4467" user="Rosscoe" changeset="2031354">
    <nd ref="388484649"/>
    <nd ref="428339212"/>
    <nd ref="428339214"/>
    <nd ref="246699609"/>
    <tag k="highway" v="unclassified"/>
    <tag k="name" v="Boyd Lane"/>
    <tag k="surface" v="unpaved"/>
  </way>
  <way id="22914451" version="6" timestamp="2010-02-07T09:04:26Z" uid="47167" user="MCH" changeset="3811774">
    <nd ref="388484649"/>
    <nd ref="428339212"/>
    <nd ref="428339214"/>
    <nd ref="246699609"/>
    <tag k="highway" v="service"/>
    <tag k="name" v="Boyd Lane"/>
    <tag k="surface" v="unpaved"/>
  </way>
  <way id="22914461" version="8" timestamp="2010-07-07T22:53:12Z" uid="74617" user="JohnSmith" changeset="5162525">
    <nd ref="237305306"/>
    <nd ref="393146675"/>
    <nd ref="627585671"/>
    <nd ref="237306213"/>
    <nd ref="627585675"/>
    <nd ref="393146676"/>
    <nd ref="393146622"/>
    <nd ref="627585679"/>
    <nd ref="237306217"/>
    <tag k="highway" v="residential"/>
    <tag k="maxspeed" v="50"/>
    <tag k="maxspeed:source" v="default residential speed limit in Australia"/>
    <tag k="name" v="Waterview Crescent"/>
  </way>
  <way id="22914461" version="9" timestamp="2012-01-15T23:47:49Z" uid="147510" user="woodpeck_fixbot" changeset="10404406">
    <nd ref="237305306"/>
    <nd ref="393146675"/>
    <nd ref="627585671"/>
    <nd ref="237306213"/>
    <nd ref="627585675"/>
    <nd ref="393146676"/>
    <nd ref="393146622"/>
    <nd ref="627585679"/>
    <nd ref="237306217"/>
    <tag k="highway" v="residential"/>
    <tag k="name" v="Waterview Crescent"/>
  </way>
  <way id="22914462" version="8" timestamp="2010-07-07T22:46:45Z" uid="74617" user="JohnSmith" changeset="5162525">
    <nd ref="237306217"/>
    <nd ref="393146618"/>
    <nd ref="627585588"/>
    <nd ref="627585591"/>
    <nd ref="237306222"/>
    <nd ref="627585602"/>
    <nd ref="237306223"/>
    <nd ref="627585606"/>
    <nd ref="393147598"/>
    <nd ref="627585610"/>
    <nd ref="237306224"/>
    <nd ref="237306228"/>
    <tag k="highway" v="residential"/>
    <tag k="maxspeed" v="50"/>
    <tag k="maxspeed:source" v="default residential speed limit in Australia"/>
    <tag k="name" v="Lagoon Drive"/>
  </way>
  <way id="22914462" version="9" timestamp="2012-01-15T23:47:50Z" uid="147510" user="woodpeck_fixbot" changeset="10404406">
    <nd ref="237306217"/>
    <nd ref="393146618"/>
    <nd ref="627585588"/>
    <nd ref="627585591"/>
    <nd ref="237306222"/>
    <nd ref="627585602"/>
    <nd ref="237306223"/>
    <nd ref="627585606"/>
    <nd ref="393147598"/>
    <nd ref="627585610"/>
    <nd ref="237306224"/>
    <nd ref="237306228"/>
    <tag k="highway" v="residential"/>
    <tag k="name" v="Lagoon Drive"/>
  </way>
  <way id="22914464" version="9" timestamp="2009-09-24T09:18:35Z" uid="115477" user="wowik" changeset="2603682">
    <nd ref="246699674"/>
    <nd ref="246699675"/>
    <nd ref="246699676"/>
    <nd ref="506513866"/>
    <nd ref="506513857"/>
    <tag k="cladr:code" v="77000000000281600"/>
    <tag k="cladr:name" v="Строченовский Б."/>
    <tag k="cladr:suffix" v="Переулок"/>
    <tag k="highway" v="residential"/>
    <tag k="name" v="Большой Строченовский пер."/>
  </way>
  <way id="22914464" version="10" timestamp="2009-09-24T09:53:05Z" uid="115477" user="wowik" changeset="2603940">
    <nd ref="246699674"/>
    <nd ref="246699675"/>
    <nd ref="246699676"/>
    <nd ref="506513857"/>
    <tag k="cladr:code" v="77000000000281600"/>
    <tag k="cladr:name" v="Строченовский Б."/>
    <tag k="cladr:suffix" v="Переулок"/>
    <tag k="highway" v="residential"/>
    <tag k="name" v="Большой Строченовский пер."/>
  </way>
  <way id="22914464" version="11" timestamp="2009-11-11T19:14:17Z" uid="11132" user="liosha" changeset="3092781">
    <nd ref="246699674"/>
    <nd ref="246699675"/>
    <nd ref="246699676"/>
    <nd ref="506513857"/>
    <tag k="cladr:code" v="77000000000281600"/>
    <tag k="cladr:name" v="Строченовский Б."/>
    <tag k="cladr:suffix" v="Переулок"/>
    <tag k="highway" v="residential"/>
    <tag k="name" v="Большой Строченовский переулок"/>
    <tag k="omkum:code" v="26950"/>
    <tag k="sorting_name" v="Строченовский  Большой  переулок"/>
  </way>
  <way id="22914464" version="12" timestamp="2010-03-18T17:14:46Z" uid="30590" user="KekcuHa" changeset="4163021">
    <nd ref="246699674"/>
    <nd ref="668974899"/>
    <nd ref="246699675"/>
    <nd ref="246699676"/>
    <nd ref="506513857"/>
    <tag k="cladr:code" v="77000000000281600"/>
    <tag k="cladr:name" v="Строченовский Б."/>
    <tag k="cladr:suffix" v="Переулок"/>
    <tag k="highway" v="unclassified"/>
    <tag k="name" v="Большой Строченовский переулок"/>
    <tag k="omkum:code" v="26950"/>
    <tag k="sorting_name" v="Строченовский  Большой  переулок"/>
  </way>
  <way id="22914464" version="13" timestamp="2010-09-30T12:32:59Z" uid="115477" user="wowik" changeset="5919603">
    <nd ref="246699674"/>
    <nd ref="931687646"/>
    <nd ref="668974899"/>
    <nd ref="246699675"/>
    <nd ref="246699676"/>
    <nd ref="506513857"/>
    <tag k="cladr:code" v="77000000000281600"/>
    <tag k="cladr:name" v="Строченовский Б."/>
    <tag k="cladr:suffix" v="Переулок"/>
    <tag k="highway" v="unclassified"/>
    <tag k="name" v="Большой Строченовский переулок"/>
    <tag k="omkum:code" v="26950"/>
    <tag k="sorting_name" v="Строченовский  Большой  переулок"/>
  </way>
  <way id="22914464" version="14" timestamp="2011-03-05T11:27:40Z" uid="316868" user="LexIgnatov" changeset="7462073">
    <nd ref="246699674"/>
    <nd ref="931687646"/>
    <nd ref="668974899"/>
    <nd ref="246699675"/>
    <nd ref="246699676"/>
    <nd ref="1187075980"/>
    <nd ref="506513857"/>
    <tag k="cladr:code" v="77000000000281600"/>
    <tag k="cladr:name" v="Строченовский Б."/>
    <tag k="cladr:suffix" v="Переулок"/>
    <tag k="highway" v="unclassified"/>
    <tag k="name" v="Большой Строченовский переулок"/>
    <tag k="omkum:code" v="26950"/>
    <tag k="sorting_name" v="Строченовский  Большой  переулок"/>
  </way>
  <way id="22914464" version="15" timestamp="2011-03-05T14:04:47Z" uid="316868" user="LexIgnatov" changeset="7463531">
    <nd ref="246699674"/>
    <nd ref="931687646"/>
    <nd ref="668974899"/>
    <nd ref="246699675"/>
    <nd ref="246699676"/>
    <nd ref="1187075980"/>
    <nd ref="1187250314"/>
    <nd ref="250638701"/>
    <tag k="cladr:code" v="77000000000281600"/>
    <tag k="cladr:name" v="Строченовский Б."/>
    <tag k="cladr:suffix" v="Переулок"/>
    <tag k="highway" v="unclassified"/>
    <tag k="name" v="Большой Строченовский переулок"/>
    <tag k="omkum:code" v="26950"/>
    <tag k="sorting_name" v="Строченовский  Большой  переулок"/>
  </way>
  <way id="22914464" version="16" timestamp="2011-03-28T08:30:08Z" uid="385324" user="SerViT" changeset="7694343">
    <nd ref="246699674"/>
    <nd ref="931687646"/>
    <nd ref="668974899"/>
    <nd ref="246699675"/>
    <nd ref="246699676"/>
    <nd ref="1187075980"/>
    <nd ref="1187250314"/>
    <nd ref="1222861201"/>
    <tag k="cladr:code" v="77000000000281600"/>
    <tag k="cladr:name" v="Строченовский Б."/>
    <tag k="cladr:suffix" v="Переулок"/>
    <tag k="highway" v="unclassified"/>
    <tag k="name" v="Большой Строченовский переулок"/>
    <tag k="omkum:code" v="26950"/>
    <tag k="sorting_name" v="Строченовский  Большой  переулок"/>
  </way>
  <way id="22914464" version="17" timestamp="2011-05-14T09:31:45Z" uid="275821" user="Ramzes" changeset="8138793">
    <nd ref="246699674"/>
    <nd ref="931687646"/>
    <nd ref="668974899"/>
    <nd ref="246699675"/>
    <nd ref="246699676"/>
    <nd ref="1187075980"/>
    <nd ref="1187250314"/>
    <nd ref="250638701"/>
    <tag k="cladr:code" v="77000000000281600"/>
    <tag k="cladr:name" v="Строченовский Б."/>
    <tag k="cladr:suffix" v="Переулок"/>
    <tag k="highway" v="unclassified"/>
    <tag k="name" v="Большой Строченовский переулок"/>
    <tag k="omkum:code" v="26950"/>
    <tag k="sorting_name" v="Строченовский  Большой  переулок"/>
  </way>
  <way id="22914464" version="18" timestamp="2011-10-13T18:27:22Z" uid="385324" user="SerViT" changeset="9549665">
    <nd ref="246699674"/>
    <nd ref="931687646"/>
    <nd ref="668974899"/>
    <nd ref="246699675"/>
    <nd ref="246699676"/>
    <nd ref="1187075980"/>
    <nd ref="1465594890"/>
    <tag k="cladr:code" v="77000000000281600"/>
    <tag k="cladr:name" v="Строченовский Б."/>
    <tag k="cladr:suffix" v="Переулок"/>
    <tag k="highway" v="unclassified"/>
    <tag k="name" v="Большой Строченовский переулок"/>
    <tag k="omkum:code" v="26950"/>
    <tag k="sorting_name" v="Строченовский  Большой  переулок"/>
  </way>
  <way id="22914464" version="19" timestamp="2012-03-28T21:34:49Z" uid="336354" user="esaulenka" changeset="11131620"/>
  <way id="22914523" version="12" timestamp="2010-05-01T22:07:17Z" uid="151899" user="Bikeman2000" changeset="4579939">
    <nd ref="246701723"/>
    <nd ref="253802118"/>
    <nd ref="339505030"/>
    <nd ref="274960464"/>
    <nd ref="411312951"/>
    <nd ref="715908331"/>
    <nd ref="246701725"/>
    <nd ref="715908332"/>
    <nd ref="246701558"/>
    <tag k="cycleway" v="track"/>
    <tag k="highway" v="tertiary"/>
    <tag k="name" v="Fährstraße"/>
    <tag k="oneway" v="yes"/>
    <tag k="ref" v="L 85"/>
  </way>
  <way id="22914523" version="13" timestamp="2011-12-30T10:54:44Z" uid="12614" user="rabenkind" changeset="10243848">
    <nd ref="246701723"/>
    <nd ref="253802118"/>
    <nd ref="339505030"/>
    <nd ref="274960464"/>
    <nd ref="1569014771"/>
    <nd ref="715908331"/>
    <nd ref="246701725"/>
    <nd ref="715908332"/>
    <nd ref="246701558"/>
    <tag k="cycleway" v="track"/>
    <tag k="highway" v="tertiary"/>
    <tag k="name" v="Fährstraße"/>
    <tag k="oneway" v="yes"/>
    <tag k="ref" v="L 85"/>
  </way>
  <way id="22914523" version="14" timestamp="2012-01-13T14:07:16Z" uid="12614" user="rabenkind" changeset="10378784"/>
  <way id="22914786" version="7" timestamp="2011-03-21T08:50:43Z" uid="4467" user="Rosscoe" changeset="7625026">
    <nd ref="246707171"/>
    <nd ref="1211681416"/>
    <nd ref="246707198"/>
    <nd ref="1211681409"/>
    <nd ref="246707199"/>
    <nd ref="1211681414"/>
    <nd ref="246707200"/>
    <nd ref="1211681410"/>
    <nd ref="246707171"/>
    <tag k="highway" v="residential"/>
    <tag k="junction" v="roundabout"/>
    <tag k="maxspeed" v="50"/>
    <tag k="source" v="survey"/>
  </way>
  <way id="22914930" version="13" timestamp="2010-07-09T05:02:09Z" uid="74617" user="JohnSmith" changeset="5170972">
    <nd ref="304713362"/>
    <nd ref="304716660"/>
    <nd ref="304715835"/>
    <nd ref="304715880"/>
    <nd ref="730616971"/>
    <nd ref="246707306"/>
    <nd ref="730616992"/>
    <nd ref="730617012"/>
    <nd ref="304715730"/>
    <nd ref="730617045"/>
    <nd ref="304715485"/>
    <nd ref="246707787"/>
    <nd ref="617554062"/>
    <nd ref="246707521"/>
    <tag k="highway" v="residential"/>
    <tag k="maxspeed" v="50"/>
    <tag k="maxspeed:source" v="default residential speed limit in Australia"/>
    <tag k="name" v="Liddiard Street"/>
  </way>
  <way id="22914930" version="14" timestamp="2012-01-15T23:47:52Z" uid="147510" user="woodpeck_fixbot" changeset="10404406">
    <nd ref="304713362"/>
    <nd ref="304716660"/>
    <nd ref="304715835"/>
    <nd ref="304715880"/>
    <nd ref="730616971"/>
    <nd ref="246707306"/>
    <nd ref="730616992"/>
    <nd ref="730617012"/>
    <nd ref="304715730"/>
    <nd ref="730617045"/>
    <nd ref="304715485"/>
    <nd ref="246707787"/>
    <nd ref="617554062"/>
    <nd ref="246707521"/>
    <tag k="highway" v="residential"/>
    <tag k="name" v="Liddiard Street"/>
  </way>
  <way id="22914252" version="7" timestamp="2012-07-25T14:05:33Z" uid="190711" user="Zulu" changeset="12487445">
    <nd ref="246696807"/>
    <nd ref="1397586895"/>
    <nd ref="25919179"/>
    <tag k="highway" v="residential"/>
    <tag k="name" v="Houbařská"/>
    <tag k="source:name" v="nameit/uir-adr"/>
  </way>
  <way id="22914254" version="5" timestamp="2012-07-25T14:05:34Z" uid="190711" user="Zulu" changeset="12487445">
    <nd ref="246696813"/>
    <nd ref="246696815"/>
    <nd ref="1291052508"/>
    <nd ref="246696814"/>
    <tag k="highway" v="residential"/>
    <tag k="name" v="Nad Belvederem"/>
    <tag k="oneway" v="yes"/>
    <tag k="source:name" v="nameit/uir-adr"/>
  </way>
  <way id="22914255" version="8" timestamp="2012-04-22T20:14:21Z" uid="17615" user="Petr Dlouhý" changeset="11388637">
    <nd ref="246696816"/>
    <nd ref="1291052504"/>
    <nd ref="246696817"/>
    <nd ref="1291052502"/>
    <nd ref="246696820"/>
    <nd ref="1291052525"/>
    <nd ref="246696809"/>
    <nd ref="1291052532"/>
    <nd ref="246696814"/>
    <nd ref="1397586916"/>
    <nd ref="535570207"/>
    <nd ref="1727062799"/>
    <nd ref="246696822"/>
    <tag k="highway" v="residential"/>
    <tag k="name" v="Na Lhotech"/>
    <tag k="source:name" v="nameit/uir-adr"/>
  </way>
  <way id="22914256" version="6" timestamp="2012-04-22T20:14:19Z" uid="17615" user="Petr Dlouhý" changeset="11388637">
    <nd ref="246696813"/>
    <nd ref="246696823"/>
    <nd ref="246696824"/>
    <nd ref="246696825"/>
    <nd ref="246696826"/>
    <nd ref="246696827"/>
    <nd ref="1727062797"/>
    <nd ref="1727062798"/>
    <nd ref="535570204"/>
    <nd ref="246696822"/>
    <tag k="highway" v="residential"/>
    <tag k="name" v="Ke Hrádku"/>
    <tag k="source:name" v="nameit/uir-adr"/>
  </way>
  <way id="22914257" version="6" timestamp="2012-07-25T14:05:35Z" uid="190711" user="Zulu" changeset="12487445">
    <nd ref="246696817"/>
    <nd ref="246696831"/>
    <nd ref="1291052534"/>
    <nd ref="246696830"/>
    <nd ref="246696829"/>
    <nd ref="246696828"/>
    <nd ref="1291052517"/>
    <nd ref="246696820"/>
    <tag k="highway" v="residential"/>
    <tag k="name" v="U Želivky"/>
    <tag k="oneway" v="yes"/>
    <tag k="source:name" v="nameit/uir-adr"/>
  </way>
  <way id="22914427" version="25" timestamp="2012-04-08T07:14:18Z" uid="90689" user="HansJ" changeset="11221423"/>
  <way id="22914438" version="7" timestamp="2012-06-10T09:10:56Z" uid="47167" user="MCH" changeset="11852021">
    <nd ref="244318354"/>
    <nd ref="244318352"/>
    <nd ref="247010058"/>
    <nd ref="247010061"/>
    <nd ref="247010045"/>
    <nd ref="630354582"/>
    <nd ref="246611047"/>
    <nd ref="1782393755"/>
    <tag k="highway" v="residential"/>
    <tag k="name" v="Coughlan Road"/>
  </way>
  <way id="22914451" version="7" timestamp="2012-07-22T09:29:14Z" uid="722137" user="OSMF Redaction Account" changeset="12428832">
    <nd ref="388484649"/>
    <nd ref="428339212"/>
    <nd ref="428339214"/>
    <nd ref="246699609"/>
    <tag k="highway" v="service"/>
    <tag k="name" v="Boyd Lane"/>
  </way>
  <way id="22914451" version="8" timestamp="2012-07-22T11:20:15Z" uid="47167" user="MCH" changeset="12430602"/>
  <way id="22914786" version="8" timestamp="2012-07-19T16:07:16Z" uid="722137" user="OSMF Redaction Account" changeset="12337737"/>
  <way id="22914930" version="15" timestamp="2012-07-20T00:23:25Z" uid="722137" user="OSMF Redaction Account" changeset="12352151">
    <nd ref="304713362"/>
    <nd ref="304716660"/>
    <nd ref="304715835"/>
    <nd ref="304715880"/>
    <nd ref="730616971"/>
    <nd ref="246707306"/>
    <nd ref="730616992"/>
    <nd ref="730617012"/>
    <nd ref="304715730"/>
    <nd ref="730617045"/>
    <nd ref="304715485"/>
    <nd ref="246707787"/>
    <nd ref="617554062"/>
  </way>
  <way id="22914930" version="16" timestamp="2012-08-22T04:00:18Z" uid="95583" user="Geodes" changeset="12815917">
    <nd ref="304713362"/>
    <nd ref="304716660"/>
    <nd ref="304715835"/>
    <nd ref="304715880"/>
    <nd ref="730616971"/>
    <nd ref="246707306"/>
    <nd ref="730616992"/>
    <nd ref="730617012"/>
    <nd ref="304715730"/>
    <nd ref="730617045"/>
    <nd ref="304715485"/>
    <nd ref="246707787"/>
    <nd ref="617554062"/>
    <nd ref="246707521"/>
    <tag k="highway" v="residential"/>
    <tag k="name" v="Liddiard Street"/>
  </way>
</osm>
