<?xml version='1.0' encoding='UTF-8'?>
<osm version="0.6" generator="libosmium/2.20.0">
  <way id="2291006" version="29" timestamp="2010-05-13T09:23:15Z" uid="58091" user="Andreas M" changeset="4683781">
    <nd ref="378618"/>
    <nd ref="731933088"/>
    <tag k="highway" v="primary"/>
    <tag k="lanes" v="2"/>
    <tag k="maxspeed" v="50"/>
    <tag k="name" v="Gablenzgasse"/>
    <tag k="oneway" v="yes"/>
    <tag k="ref" v="B223"/>
  </way>
  <way id="2291035" version="17" timestamp="2008-12-14T15:06:04Z" uid="6975" user="ulfl" changeset="375714">
    <nd ref="223804"/>
    <nd ref="223803"/>
    <nd ref="280773623"/>
    <nd ref="280773624"/>
    <nd ref="223802"/>
    <nd ref="280773625"/>
    <nd ref="9921422"/>
    <nd ref="293081045"/>
    <tag k="highway" v="trunk"/>
    <tag k="name" v="Valtatie 6, 13"/>
  </way>
  <way id="2291035" version="18" timestamp="2009-09-01T15:02:32Z" uid="4660" user="alv" changeset="2338611">
    <nd ref="293081045"/>
    <nd ref="9921422"/>
    <nd ref="280773625"/>
    <nd ref="223802"/>
    <nd ref="280773624"/>
    <nd ref="280773623"/>
    <nd ref="223803"/>
    <nd ref="223804"/>
    <tag k="highway" v="trunk"/>
    <tag k="lit" v="yes"/>
    <tag k="name" v="Valtatie 6, 13"/>
    <tag k="oneway" v="yes"/>
    <tag k="surface" v="paved"/>
  </way>
  <way id="2291035" version="19" timestamp="2010-10-06T23:21:08Z" uid="344002" user="Apalsola" changeset="5974371">
    <nd ref="293081045"/>
    <nd ref="9921422"/>
    <nd ref="280773625"/>
    <nd ref="223802"/>
    <nd ref="280773624"/>
    <nd ref="280773623"/>
    <nd ref="223803"/>
    <nd ref="223804"/>
    <tag k="highway" v="trunk"/>
    <tag k="lit" v="yes"/>
    <tag k="name" v="Valtatie 6, 13"/>
    <tag k="oneway" v="yes"/>
    <tag k="ref" v="6; 13"/>
    <tag k="surface" v="paved"/>
  </way>
  <way id="2291241" version="8" timestamp="2008-12-14T15:05:49Z" uid="6975" user="ulfl" changeset="375714">
    <nd ref="223835"/>
    <nd ref="21632570"/>
    <nd ref="9922657"/>
    <nd ref="9922663"/>
    <nd ref="9922664"/>
    <nd ref="263666924"/>
    <nd ref="9922668"/>
    <nd ref="9922671"/>
    <tag k="highway" v="trunk"/>
    <tag k="name" v="Valtatie 6"/>
    <tag k="ref" v="6"/>
  </way>
  <way id="2291241" version="9" timestamp="2009-08-30T20:43:20Z" uid="4660" user="alv" changeset="2319694">
    <nd ref="223835"/>
    <nd ref="478051625"/>
    <nd ref="478051622"/>
    <nd ref="21632570"/>
    <nd ref="478051620"/>
    <nd ref="9922657"/>
    <nd ref="478051618"/>
    <nd ref="478051616"/>
    <nd ref="478051614"/>
    <nd ref="478051612"/>
    <nd ref="9922663"/>
    <nd ref="478051610"/>
    <nd ref="9922664"/>
    <nd ref="263666924"/>
    <nd ref="9922668"/>
    <nd ref="9922671"/>
    <tag k="highway" v="trunk"/>
    <tag k="maxspeed" v="50"/>
    <tag k="name" v="Valtatie 6"/>
    <tag k="note" v="tietyöt muuttavat linjausta vielä"/>
    <tag k="ref" v="6"/>
  </way>
  <way id="2291241" version="10" timestamp="2010-09-05T11:37:50Z" uid="188279" user="tepuh" changeset="5686753">
    <nd ref="223835"/>
    <nd ref="478051625"/>
    <nd ref="478051612"/>
    <nd ref="9922663"/>
    <nd ref="478051610"/>
    <nd ref="9922664"/>
    <nd ref="263666924"/>
    <nd ref="9922668"/>
    <nd ref="9922671"/>
    <tag k="highway" v="trunk"/>
    <tag k="maxspeed" v="50"/>
    <tag k="name" v="Valtatie 6"/>
    <tag k="note" v="tietyöt muuttavat linjausta vielä"/>
    <tag k="ref" v="6"/>
  </way>
  <way id="2291241" version="11" timestamp="2010-09-05T19:11:08Z" uid="188279" user="tepuh" changeset="5691433"/>
  <way id="2291626" version="3" timestamp="2008-06-15T19:24:52Z" uid="34428" user="usm78-gis" changeset="171943">
    <nd ref="226073"/>
    <nd ref="226074"/>
    <nd ref="226075"/>
    <nd ref="226076"/>
    <tag k="class" v="primary"/>
    <tag k="created_by" v="Potlatch 0.9c"/>
    <tag k="highway" v="trunk"/>
    <tag k="is_in" v="Russia"/>
    <tag k="name" v="E18"/>
    <tag k="ref" v="M10"/>
  </way>
  <way id="2291626" version="4" timestamp="2008-06-20T23:23:42Z" uid="34428" user="usm78-gis" changeset="250112">
    <nd ref="226073"/>
    <nd ref="226074"/>
    <nd ref="271484644"/>
    <nd ref="226075"/>
    <nd ref="226076"/>
    <tag k="class" v="primary"/>
    <tag k="created_by" v="Potlatch 0.9c"/>
    <tag k="highway" v="trunk"/>
    <tag k="is_in" v="Russia"/>
    <tag k="name" v="E18"/>
    <tag k="ref" v="M10"/>
  </way>
  <way id="2291626" version="5" timestamp="2008-09-02T06:53:03Z" uid="11132" user="liosha" changeset="496112"/>
  <way id="2291006" version="30" timestamp="2012-07-17T00:23:46Z" uid="722137" user="OSMF Redaction Account" changeset="12254135"/>
</osm>
