<?xml version='1.0' encoding='UTF-8'?>
<osm version="0.6" generator="libosmium/2.20.0">
  <way id="23052031" version="2" timestamp="2008-05-20T16:23:51Z" uid="34428" user="usm78-gis" changeset="486008">
    <nd ref="27479076"/>
    <nd ref="27479077"/>
    <tag k="created_by" v="Potlatch 0.7b"/>
    <tag k="highway" v="secondary"/>
    <tag k="name" v="P-33"/>
    <tag k="ref" v="P-33"/>
  </way>
  <way id="23052031" version="3" timestamp="2008-07-29T22:47:45Z" uid="34428" user="usm78-gis" changeset="630050">
    <nd ref="27479076"/>
    <nd ref="27479077"/>
    <tag k="created_by" v="Potlatch 0.10a"/>
    <tag k="highway" v="unclassified"/>
    <tag k="name" v="P-33"/>
  </way>
  <way id="23052031" version="4" timestamp="2008-07-29T22:47:52Z" uid="34428" user="usm78-gis" changeset="630050">
    <nd ref="27479076"/>
    <nd ref="27479077"/>
    <tag k="created_by" v="Potlatch 0.10a"/>
    <tag k="highway" v="unclassified"/>
  </way>
  <way id="23052031" version="5" timestamp="2009-03-29T13:55:21Z" uid="34428" user="usm78-gis" changeset="867422"/>
  <way id="23052032" version="2" timestamp="2009-03-29T13:55:42Z" uid="34428" user="usm78-gis" changeset="867422">
    <nd ref="366909994"/>
    <nd ref="366909997"/>
    <nd ref="366910000"/>
    <nd ref="248747795"/>
    <nd ref="27479076"/>
    <tag k="created_by" v="Potlatch 0.10f"/>
    <tag k="highway" v="unclassified"/>
  </way>
  <way id="23052032" version="3" timestamp="2010-03-17T15:14:33Z" uid="80305" user="kd75" changeset="4153884"/>
  <way id="23052039" version="7" timestamp="2008-12-18T17:21:37Z" uid="58091" user="Andreas M" changeset="457257">
    <nd ref="65025551"/>
    <nd ref="65025552"/>
    <nd ref="254077701"/>
    <nd ref="254077700"/>
    <nd ref="254077699"/>
    <nd ref="65025555"/>
    <nd ref="254077698"/>
    <nd ref="254077697"/>
    <nd ref="254077696"/>
    <nd ref="254077695"/>
    <nd ref="254077694"/>
    <nd ref="65025556"/>
    <tag k="created_by" v="Potlatch 0.8a"/>
    <tag k="highway" v="service"/>
    <tag k="lanes" v="1"/>
    <tag k="loc_name" v="Währinger Gürtelweg"/>
    <tag k="oneway" v="yes"/>
  </way>
  <way id="23052039" version="8" timestamp="2008-12-21T18:34:17Z" uid="54806" user="_al" changeset="519017">
    <nd ref="65025551"/>
    <nd ref="65025552"/>
    <nd ref="254077701"/>
    <nd ref="254077700"/>
    <nd ref="254077699"/>
    <nd ref="65025555"/>
    <nd ref="254077698"/>
    <nd ref="254077697"/>
    <nd ref="254077696"/>
    <nd ref="254077695"/>
    <nd ref="254077694"/>
    <nd ref="65025556"/>
    <tag k="created_by" v="Potlatch 0.10f"/>
    <tag k="highway" v="service"/>
    <tag k="lanes" v="1"/>
    <tag k="name" v="Währinger Gürtelweg"/>
    <tag k="oneway" v="yes"/>
  </way>
  <way id="23052039" version="9" timestamp="2011-07-29T08:57:53Z" uid="494207" user="ckschwoedi" changeset="8861319">
    <nd ref="65025551"/>
    <nd ref="65025552"/>
    <nd ref="254077701"/>
    <nd ref="254077700"/>
    <nd ref="254077699"/>
    <nd ref="254077698"/>
    <nd ref="254077697"/>
    <nd ref="65025556"/>
    <tag k="highway" v="service"/>
    <tag k="lanes" v="1"/>
    <tag k="name" v="Währinger Gürtelweg"/>
    <tag k="oneway" v="yes"/>
  </way>
  <way id="23052197" version="6" timestamp="2009-07-26T00:05:22Z" uid="4467" user="Rosscoe" changeset="1939644">
    <nd ref="248750447"/>
    <nd ref="248750446"/>
    <nd ref="248750445"/>
    <nd ref="248750444"/>
    <nd ref="248750443"/>
    <nd ref="248750548"/>
    <nd ref="281162826"/>
    <nd ref="281159763"/>
    <nd ref="281159760"/>
    <nd ref="281162825"/>
    <tag k="created_by" v="Potlatch 0.7b"/>
    <tag k="highway" v="residential"/>
    <tag k="name" v="Johnson Street"/>
  </way>
  <way id="23052197" version="7" timestamp="2010-07-07T19:24:28Z" uid="74617" user="JohnSmith" changeset="5161069">
    <nd ref="248750447"/>
    <nd ref="248750446"/>
    <nd ref="248750445"/>
    <nd ref="248750444"/>
    <nd ref="248750443"/>
    <nd ref="248750548"/>
    <nd ref="281162826"/>
    <nd ref="281159763"/>
    <nd ref="281159760"/>
    <nd ref="281162825"/>
    <tag k="highway" v="residential"/>
    <tag k="maxspeed" v="50"/>
    <tag k="maxspeed:source" v="default residential speed limit in Australia"/>
    <tag k="name" v="Johnson Street"/>
  </way>
  <way id="23052197" version="8" timestamp="2012-01-16T00:46:11Z" uid="147510" user="woodpeck_fixbot" changeset="10404406">
    <nd ref="248750447"/>
    <nd ref="248750446"/>
    <nd ref="248750445"/>
    <nd ref="248750444"/>
    <nd ref="248750443"/>
    <nd ref="248750548"/>
    <nd ref="281162826"/>
    <nd ref="281159763"/>
    <nd ref="281159760"/>
    <nd ref="281162825"/>
    <tag k="highway" v="residential"/>
    <tag k="name" v="Johnson Street"/>
  </way>
  <way id="23052198" version="2" timestamp="2008-09-21T23:22:01Z" uid="7617" user="Franc" changeset="678118">
    <nd ref="32108997"/>
    <nd ref="248750552"/>
    <nd ref="248750553"/>
    <nd ref="298920018"/>
    <nd ref="248750554"/>
    <nd ref="298920015"/>
    <nd ref="298920014"/>
    <tag k="created_by" v="Potlatch 0.7b"/>
    <tag k="highway" v="residential"/>
  </way>
  <way id="23052198" version="3" timestamp="2008-11-01T07:59:40Z" uid="8807" user="brendanpuck" changeset="649796">
    <nd ref="32108997"/>
    <nd ref="248750552"/>
    <nd ref="248750553"/>
    <nd ref="298920018"/>
    <nd ref="248750554"/>
    <nd ref="298920015"/>
    <nd ref="298920014"/>
    <tag k="abutters" v="residential"/>
    <tag k="highway" v="residential"/>
    <tag k="is_in" v="Australia, New South Wales, Thornleigh"/>
    <tag k="name" v="Morgan Street"/>
    <tag k="source" v="survey"/>
  </way>
  <way id="23052198" version="4" timestamp="2009-10-10T06:52:39Z" uid="9477" user="NilbogAus" changeset="2800391"/>
  <way id="23052199" version="2" timestamp="2008-09-21T23:22:02Z" uid="7617" user="Franc" changeset="678118">
    <nd ref="248750552"/>
    <nd ref="248750555"/>
    <tag k="created_by" v="Potlatch 0.7b"/>
    <tag k="highway" v="residential"/>
    <tag k="name" v="Dale Close"/>
    <tag k="source" v="survey"/>
  </way>
  <way id="23052199" version="3" timestamp="2010-01-19T02:04:34Z" uid="30201" user="rrankin" changeset="3655734">
    <nd ref="248750552"/>
    <nd ref="616540602"/>
    <nd ref="248750555"/>
    <tag k="highway" v="residential"/>
    <tag k="name" v="Dale Close"/>
    <tag k="source" v="survey"/>
  </way>
  <way id="23052199" version="4" timestamp="2010-07-08T00:03:05Z" uid="74617" user="JohnSmith" changeset="5162525">
    <nd ref="248750552"/>
    <nd ref="616540602"/>
    <nd ref="248750555"/>
    <tag k="highway" v="residential"/>
    <tag k="maxspeed" v="50"/>
    <tag k="maxspeed:source" v="default residential speed limit in Australia"/>
    <tag k="name" v="Dale Close"/>
    <tag k="source" v="survey"/>
  </way>
  <way id="23052199" version="5" timestamp="2010-07-08T00:13:19Z" uid="74617" user="JohnSmith" changeset="5162525">
    <nd ref="248750552"/>
    <nd ref="616540602"/>
    <nd ref="248750555"/>
    <tag k="highway" v="residential"/>
    <tag k="maxspeed" v="50"/>
    <tag k="maxspeed:source" v="default residential speed limit in Australia"/>
    <tag k="name" v="Dale Close"/>
    <tag k="source" v="survey"/>
  </way>
  <way id="23052199" version="6" timestamp="2011-01-16T03:59:04Z" uid="4467" user="Rosscoe" changeset="6984097">
    <nd ref="248750552"/>
    <nd ref="616540602"/>
    <nd ref="248750555"/>
    <tag k="highway" v="residential"/>
    <tag k="maxspeed" v="50"/>
    <tag k="maxspeed:source" v="default residential speed limit in Australia"/>
    <tag k="name" v="Dale Close"/>
    <tag k="source" v="survey"/>
  </way>
  <way id="23052199" version="7" timestamp="2012-01-16T00:46:13Z" uid="147510" user="woodpeck_fixbot" changeset="10404406">
    <nd ref="248750552"/>
    <nd ref="616540602"/>
    <nd ref="248750555"/>
    <tag k="highway" v="residential"/>
    <tag k="name" v="Dale Close"/>
    <tag k="source" v="survey"/>
  </way>
  <way id="23052201" version="3" timestamp="2008-09-21T23:22:00Z" uid="7617" user="Franc" changeset="678118">
    <nd ref="248750566"/>
    <nd ref="298920036"/>
    <nd ref="248750597"/>
    <nd ref="248750596"/>
    <tag k="created_by" v="Potlatch 0.7b"/>
    <tag k="highway" v="residential"/>
    <tag k="name" v="Eddy Street"/>
    <tag k="source" v="survey"/>
  </way>
  <way id="23052201" version="4" timestamp="2010-07-08T00:04:30Z" uid="74617" user="JohnSmith" changeset="5162525">
    <nd ref="248750566"/>
    <nd ref="298920036"/>
    <nd ref="248750597"/>
    <nd ref="248750596"/>
    <tag k="highway" v="residential"/>
    <tag k="maxspeed" v="50"/>
    <tag k="maxspeed:source" v="default residential speed limit in Australia"/>
    <tag k="name" v="Eddy Street"/>
    <tag k="source" v="survey"/>
  </way>
  <way id="23052201" version="5" timestamp="2010-07-08T00:15:06Z" uid="74617" user="JohnSmith" changeset="5162525">
    <nd ref="248750566"/>
    <nd ref="298920036"/>
    <nd ref="248750597"/>
    <nd ref="248750596"/>
    <tag k="highway" v="residential"/>
    <tag k="maxspeed" v="50"/>
    <tag k="maxspeed:source" v="default residential speed limit in Australia"/>
    <tag k="name" v="Eddy Street"/>
    <tag k="source" v="survey"/>
  </way>
  <way id="23052201" version="6" timestamp="2012-01-16T00:46:14Z" uid="147510" user="woodpeck_fixbot" changeset="10404406">
    <nd ref="248750566"/>
    <nd ref="298920036"/>
    <nd ref="248750597"/>
    <nd ref="248750596"/>
    <tag k="highway" v="residential"/>
    <tag k="name" v="Eddy Street"/>
    <tag k="source" v="survey"/>
  </way>
  <way id="23052206" version="3" timestamp="2008-09-21T23:21:59Z" uid="7617" user="Franc" changeset="678118">
    <nd ref="248750597"/>
    <nd ref="248750610"/>
    <nd ref="248750611"/>
    <nd ref="248750612"/>
    <nd ref="248750617"/>
    <nd ref="248750613"/>
    <nd ref="298920042"/>
    <nd ref="248750614"/>
    <nd ref="248750615"/>
    <nd ref="248750616"/>
    <tag k="created_by" v="Potlatch 0.7b"/>
    <tag k="highway" v="residential"/>
  </way>
  <way id="23052206" version="4" timestamp="2008-09-21T23:37:55Z" uid="7617" user="Franc" changeset="678118">
    <nd ref="248750597"/>
    <nd ref="248750610"/>
    <nd ref="248750611"/>
    <nd ref="298921380"/>
    <nd ref="248750612"/>
    <nd ref="298921383"/>
    <nd ref="298921388"/>
    <nd ref="248750617"/>
    <nd ref="248750613"/>
    <nd ref="298920042"/>
    <nd ref="248750614"/>
    <nd ref="248750615"/>
    <nd ref="248750616"/>
    <tag k="created_by" v="Potlatch 0.7b"/>
    <tag k="highway" v="residential"/>
    <tag k="name" v="Janet Avenue"/>
    <tag k="source" v="survey"/>
  </way>
  <way id="23052206" version="5" timestamp="2008-09-22T04:47:53Z" uid="7617" user="Franc" changeset="678206">
    <nd ref="248750597"/>
    <nd ref="248750610"/>
    <nd ref="298940010"/>
    <nd ref="248750611"/>
    <nd ref="298921380"/>
    <nd ref="248750612"/>
    <nd ref="298921383"/>
    <nd ref="298921388"/>
    <nd ref="248750617"/>
    <nd ref="248750613"/>
    <nd ref="298920042"/>
    <nd ref="248750614"/>
    <nd ref="248750615"/>
    <nd ref="248750616"/>
    <tag k="created_by" v="Potlatch 0.7b"/>
    <tag k="highway" v="residential"/>
    <tag k="name" v="Janet Avenue"/>
    <tag k="source" v="survey"/>
  </way>
  <way id="23052206" version="6" timestamp="2010-07-08T00:00:09Z" uid="74617" user="JohnSmith" changeset="5162525">
    <nd ref="248750597"/>
    <nd ref="248750610"/>
    <nd ref="298940010"/>
    <nd ref="248750611"/>
    <nd ref="298921380"/>
    <nd ref="248750612"/>
    <nd ref="298921383"/>
    <nd ref="298921388"/>
    <nd ref="248750617"/>
    <nd ref="248750613"/>
    <nd ref="298920042"/>
    <nd ref="248750614"/>
    <nd ref="248750615"/>
    <nd ref="248750616"/>
    <tag k="highway" v="residential"/>
    <tag k="maxspeed" v="50"/>
    <tag k="maxspeed:source" v="default residential speed limit in Australia"/>
    <tag k="name" v="Janet Avenue"/>
    <tag k="source" v="survey"/>
  </way>
  <way id="23052206" version="7" timestamp="2010-07-08T00:10:07Z" uid="74617" user="JohnSmith" changeset="5162525">
    <nd ref="248750597"/>
    <nd ref="248750610"/>
    <nd ref="298940010"/>
    <nd ref="248750611"/>
    <nd ref="298921380"/>
    <nd ref="248750612"/>
    <nd ref="298921383"/>
    <nd ref="298921388"/>
    <nd ref="248750617"/>
    <nd ref="248750613"/>
    <nd ref="298920042"/>
    <nd ref="248750614"/>
    <nd ref="248750615"/>
    <nd ref="248750616"/>
    <tag k="highway" v="residential"/>
    <tag k="maxspeed" v="50"/>
    <tag k="maxspeed:source" v="default residential speed limit in Australia"/>
    <tag k="name" v="Janet Avenue"/>
    <tag k="source" v="survey"/>
  </way>
  <way id="23052206" version="8" timestamp="2012-01-16T00:46:16Z" uid="147510" user="woodpeck_fixbot" changeset="10404406">
    <nd ref="248750597"/>
    <nd ref="248750610"/>
    <nd ref="298940010"/>
    <nd ref="248750611"/>
    <nd ref="298921380"/>
    <nd ref="248750612"/>
    <nd ref="298921383"/>
    <nd ref="298921388"/>
    <nd ref="248750617"/>
    <nd ref="248750613"/>
    <nd ref="298920042"/>
    <nd ref="248750614"/>
    <nd ref="248750615"/>
    <nd ref="248750616"/>
    <tag k="highway" v="residential"/>
    <tag k="name" v="Janet Avenue"/>
    <tag k="source" v="survey"/>
  </way>
  <way id="23052207" version="2" timestamp="2008-09-22T04:28:33Z" uid="7617" user="Franc" changeset="678206">
    <nd ref="248750617"/>
    <nd ref="248750618"/>
    <nd ref="248750619"/>
    <nd ref="248750620"/>
    <tag k="created_by" v="Potlatch 0.7b"/>
    <tag k="highway" v="residential"/>
    <tag k="name" v="Amber Close"/>
  </way>
  <way id="23052207" version="3" timestamp="2010-07-08T00:01:24Z" uid="74617" user="JohnSmith" changeset="5162525">
    <nd ref="248750617"/>
    <nd ref="248750618"/>
    <nd ref="248750619"/>
    <nd ref="248750620"/>
    <tag k="highway" v="residential"/>
    <tag k="maxspeed" v="50"/>
    <tag k="maxspeed:source" v="default residential speed limit in Australia"/>
    <tag k="name" v="Amber Close"/>
  </way>
  <way id="23052207" version="4" timestamp="2010-07-08T00:11:31Z" uid="74617" user="JohnSmith" changeset="5162525">
    <nd ref="248750617"/>
    <nd ref="248750618"/>
    <nd ref="248750619"/>
    <nd ref="248750620"/>
    <tag k="highway" v="residential"/>
    <tag k="maxspeed" v="50"/>
    <tag k="maxspeed:source" v="default residential speed limit in Australia"/>
    <tag k="name" v="Amber Close"/>
  </way>
  <way id="23052207" version="5" timestamp="2012-01-16T00:46:17Z" uid="147510" user="woodpeck_fixbot" changeset="10404406">
    <nd ref="248750617"/>
    <nd ref="248750618"/>
    <nd ref="248750619"/>
    <nd ref="248750620"/>
    <tag k="highway" v="residential"/>
    <tag k="name" v="Amber Close"/>
  </way>
  <way id="23052209" version="2" timestamp="2008-09-21T23:21:58Z" uid="7617" user="Franc" changeset="678118">
    <nd ref="248750634"/>
    <nd ref="248750635"/>
    <nd ref="248750636"/>
    <nd ref="298920041"/>
    <nd ref="248750637"/>
    <nd ref="248750638"/>
    <nd ref="298920038"/>
    <nd ref="298920039"/>
    <nd ref="248750639"/>
    <nd ref="248750640"/>
    <tag k="created_by" v="Potlatch 0.7b"/>
    <tag k="highway" v="residential"/>
  </way>
  <way id="23052209" version="3" timestamp="2008-11-01T06:01:21Z" uid="8807" user="brendanpuck" changeset="645569">
    <nd ref="248750634"/>
    <nd ref="248750635"/>
    <nd ref="248750636"/>
    <nd ref="298920041"/>
    <nd ref="248750637"/>
    <nd ref="248750638"/>
    <nd ref="298920038"/>
    <nd ref="298920039"/>
    <nd ref="248750639"/>
    <nd ref="248750640"/>
    <tag k="abutters" v="residential"/>
    <tag k="highway" v="residential"/>
    <tag k="is_in" v="Australia, NSW, New South Wales, Pennant Hills"/>
    <tag k="name" v="Westwood Street"/>
    <tag k="source" v="survey"/>
  </way>
  <way id="23052209" version="4" timestamp="2009-04-12T15:11:10Z" uid="7617" user="Franc" changeset="438166"/>
  <way id="23052210" version="2" timestamp="2009-04-12T15:11:02Z" uid="7617" user="Franc" changeset="438166">
    <nd ref="248750642"/>
    <nd ref="248750641"/>
    <nd ref="373286273"/>
    <nd ref="248750660"/>
    <tag k="created_by" v="Potlatch 0.7b"/>
    <tag k="highway" v="residential"/>
    <tag k="name" v="Werona Street"/>
  </way>
  <way id="23052210" version="3" timestamp="2009-04-12T16:21:02Z" uid="7617" user="Franc" changeset="447252">
    <nd ref="248750642"/>
    <nd ref="248750641"/>
    <nd ref="373286273"/>
    <nd ref="248750660"/>
    <tag k="created_by" v="Potlatch 0.7b"/>
    <tag k="highway" v="residential"/>
    <tag k="name" v="Werona Street"/>
    <tag k="source" v="survey"/>
  </way>
  <way id="23052210" version="4" timestamp="2010-01-19T02:04:32Z" uid="30201" user="rrankin" changeset="3655734">
    <nd ref="248750642"/>
    <nd ref="616540598"/>
    <tag k="highway" v="residential"/>
    <tag k="name" v="Werona Street"/>
    <tag k="source" v="survey"/>
  </way>
  <way id="23052210" version="5" timestamp="2010-07-08T00:00:35Z" uid="74617" user="JohnSmith" changeset="5162525">
    <nd ref="248750642"/>
    <nd ref="616540598"/>
    <tag k="highway" v="residential"/>
    <tag k="maxspeed" v="50"/>
    <tag k="maxspeed:source" v="default residential speed limit in Australia"/>
    <tag k="name" v="Werona Street"/>
    <tag k="source" v="survey"/>
  </way>
  <way id="23052210" version="6" timestamp="2010-07-08T00:10:36Z" uid="74617" user="JohnSmith" changeset="5162525">
    <nd ref="248750642"/>
    <nd ref="616540598"/>
    <tag k="highway" v="residential"/>
    <tag k="maxspeed" v="50"/>
    <tag k="maxspeed:source" v="default residential speed limit in Australia"/>
    <tag k="name" v="Werona Street"/>
    <tag k="source" v="survey"/>
  </way>
  <way id="23052210" version="7" timestamp="2012-01-16T00:46:18Z" uid="147510" user="woodpeck_fixbot" changeset="10404406">
    <nd ref="248750642"/>
    <nd ref="616540598"/>
    <tag k="highway" v="residential"/>
    <tag k="name" v="Werona Street"/>
    <tag k="source" v="survey"/>
  </way>
  <way id="23052211" version="2" timestamp="2009-04-12T15:10:57Z" uid="7617" user="Franc" changeset="438166">
    <nd ref="248750643"/>
    <nd ref="248750646"/>
    <nd ref="373286235"/>
    <nd ref="373286250"/>
    <nd ref="248750647"/>
    <nd ref="373286261"/>
    <nd ref="248750648"/>
    <tag k="created_by" v="Potlatch 0.7b"/>
    <tag k="highway" v="residential"/>
    <tag k="name" v="Fulbourne Avenue"/>
  </way>
  <way id="23052211" version="3" timestamp="2009-12-31T02:32:35Z" uid="1679" user="andrewpmk" changeset="3495743">
    <nd ref="248750643"/>
    <nd ref="248750646"/>
    <nd ref="373286235"/>
    <nd ref="373286250"/>
    <nd ref="248750647"/>
    <nd ref="373286261"/>
    <nd ref="248750648"/>
    <tag k="highway" v="residential"/>
    <tag k="name" v="Fulbourne Avenue"/>
  </way>
  <way id="23052211" version="4" timestamp="2010-07-08T00:01:48Z" uid="74617" user="JohnSmith" changeset="5162525">
    <nd ref="248750643"/>
    <nd ref="248750646"/>
    <nd ref="373286235"/>
    <nd ref="373286250"/>
    <nd ref="248750647"/>
    <nd ref="373286261"/>
    <nd ref="248750648"/>
    <tag k="highway" v="residential"/>
    <tag k="maxspeed" v="50"/>
    <tag k="maxspeed:source" v="default residential speed limit in Australia"/>
    <tag k="name" v="Fulbourne Avenue"/>
  </way>
  <way id="23052211" version="5" timestamp="2010-07-08T00:11:59Z" uid="74617" user="JohnSmith" changeset="5162525">
    <nd ref="248750643"/>
    <nd ref="248750646"/>
    <nd ref="373286235"/>
    <nd ref="373286250"/>
    <nd ref="248750647"/>
    <nd ref="373286261"/>
    <nd ref="248750648"/>
    <tag k="highway" v="residential"/>
    <tag k="maxspeed" v="50"/>
    <tag k="maxspeed:source" v="default residential speed limit in Australia"/>
    <tag k="name" v="Fulbourne Avenue"/>
  </way>
  <way id="23052211" version="6" timestamp="2012-01-16T00:46:19Z" uid="147510" user="woodpeck_fixbot" changeset="10404406">
    <nd ref="248750643"/>
    <nd ref="248750646"/>
    <nd ref="373286235"/>
    <nd ref="373286250"/>
    <nd ref="248750647"/>
    <nd ref="373286261"/>
    <nd ref="248750648"/>
    <tag k="highway" v="residential"/>
    <tag k="name" v="Fulbourne Avenue"/>
  </way>
  <way id="23052212" version="18" timestamp="2009-07-26T00:05:38Z" uid="4467" user="Rosscoe" changeset="1939644">
    <nd ref="248750557"/>
    <nd ref="248750558"/>
    <nd ref="248750559"/>
    <nd ref="248750560"/>
    <nd ref="248751526"/>
    <nd ref="248751522"/>
    <nd ref="248750561"/>
    <nd ref="248751421"/>
    <nd ref="248750562"/>
    <nd ref="248751309"/>
    <nd ref="248751348"/>
    <nd ref="248750563"/>
    <nd ref="248751247"/>
    <nd ref="248751176"/>
    <nd ref="248751161"/>
    <nd ref="248750705"/>
    <nd ref="248750565"/>
    <nd ref="248750632"/>
    <nd ref="248750633"/>
    <tag k="created_by" v="Potlatch 0.7b"/>
    <tag k="highway" v="residential"/>
    <tag k="name" v="Charles Avenue"/>
  </way>
  <way id="23052212" version="19" timestamp="2010-07-07T19:26:02Z" uid="74617" user="JohnSmith" changeset="5161069">
    <nd ref="248750557"/>
    <nd ref="248750558"/>
    <nd ref="248750559"/>
    <nd ref="248750560"/>
    <nd ref="248751526"/>
    <nd ref="248751522"/>
    <nd ref="248750561"/>
    <nd ref="248751421"/>
    <nd ref="248750562"/>
    <nd ref="248751309"/>
    <nd ref="248751348"/>
    <nd ref="248750563"/>
    <nd ref="248751247"/>
    <nd ref="248751176"/>
    <nd ref="248751161"/>
    <nd ref="248750705"/>
    <nd ref="248750565"/>
    <nd ref="248750632"/>
    <nd ref="248750633"/>
    <tag k="highway" v="residential"/>
    <tag k="maxspeed" v="50"/>
    <tag k="maxspeed:source" v="default residential speed limit in Australia"/>
    <tag k="name" v="Charles Avenue"/>
  </way>
  <way id="23052212" version="20" timestamp="2012-01-16T00:46:20Z" uid="147510" user="woodpeck_fixbot" changeset="10404406">
    <nd ref="248750557"/>
    <nd ref="248750558"/>
    <nd ref="248750559"/>
    <nd ref="248750560"/>
    <nd ref="248751526"/>
    <nd ref="248751522"/>
    <nd ref="248750561"/>
    <nd ref="248751421"/>
    <nd ref="248750562"/>
    <nd ref="248751309"/>
    <nd ref="248751348"/>
    <nd ref="248750563"/>
    <nd ref="248751247"/>
    <nd ref="248751176"/>
    <nd ref="248751161"/>
    <nd ref="248750705"/>
    <nd ref="248750565"/>
    <nd ref="248750632"/>
    <nd ref="248750633"/>
    <tag k="highway" v="residential"/>
    <tag k="name" v="Charles Avenue"/>
  </way>
  <way id="23052214" version="2" timestamp="2009-04-12T15:11:12Z" uid="7617" user="Franc" changeset="438166"/>
  <way id="23052216" version="4" timestamp="2010-02-28T04:23:34Z" uid="7617" user="Franc" changeset="3994626">
    <nd ref="31909249"/>
    <nd ref="248750687"/>
    <nd ref="248750688"/>
    <nd ref="655673098"/>
    <nd ref="655673087"/>
    <nd ref="248750689"/>
    <tag k="highway" v="residential"/>
    <tag k="name" v="Binomea Place"/>
  </way>
  <way id="23052216" version="5" timestamp="2010-07-08T00:23:26Z" uid="74617" user="JohnSmith" changeset="5162525">
    <nd ref="31909249"/>
    <nd ref="248750687"/>
    <nd ref="248750688"/>
    <nd ref="655673098"/>
    <nd ref="655673087"/>
    <nd ref="248750689"/>
    <tag k="highway" v="residential"/>
    <tag k="maxspeed" v="50"/>
    <tag k="maxspeed:source" v="default residential speed limit in Australia"/>
    <tag k="name" v="Binomea Place"/>
  </way>
  <way id="23052216" version="6" timestamp="2012-01-16T00:46:22Z" uid="147510" user="woodpeck_fixbot" changeset="10404406">
    <nd ref="31909249"/>
    <nd ref="248750687"/>
    <nd ref="248750688"/>
    <nd ref="655673098"/>
    <nd ref="655673087"/>
    <nd ref="248750689"/>
    <tag k="highway" v="residential"/>
    <tag k="name" v="Binomea Place"/>
  </way>
  <way id="23052217" version="3" timestamp="2010-02-28T04:09:28Z" uid="7617" user="Franc" changeset="3994605">
    <nd ref="248750690"/>
    <nd ref="655657099"/>
    <nd ref="248750691"/>
    <tag k="highway" v="residential"/>
    <tag k="name" v="Cladden Close"/>
  </way>
  <way id="23052217" version="4" timestamp="2010-07-08T00:24:51Z" uid="74617" user="JohnSmith" changeset="5162525">
    <nd ref="248750690"/>
    <nd ref="655657099"/>
    <nd ref="248750691"/>
    <tag k="highway" v="residential"/>
    <tag k="maxspeed" v="50"/>
    <tag k="maxspeed:source" v="default residential speed limit in Australia"/>
    <tag k="name" v="Cladden Close"/>
  </way>
  <way id="23052217" version="5" timestamp="2012-01-16T00:46:24Z" uid="147510" user="woodpeck_fixbot" changeset="10404406">
    <nd ref="248750690"/>
    <nd ref="655657099"/>
    <nd ref="248750691"/>
    <tag k="highway" v="residential"/>
    <tag k="name" v="Cladden Close"/>
  </way>
  <way id="23052218" version="9" timestamp="2009-07-26T00:19:18Z" uid="4467" user="Rosscoe" changeset="1939703">
    <nd ref="248750633"/>
    <nd ref="248750704"/>
    <nd ref="248751160"/>
    <nd ref="248751175"/>
    <nd ref="248750651"/>
    <tag k="highway" v="residential"/>
    <tag k="name" v="Charles Avenue"/>
  </way>
  <way id="23052218" version="10" timestamp="2010-07-07T19:25:07Z" uid="74617" user="JohnSmith" changeset="5161069">
    <nd ref="248750633"/>
    <nd ref="248750704"/>
    <nd ref="248751160"/>
    <nd ref="248751175"/>
    <nd ref="248750651"/>
    <tag k="highway" v="residential"/>
    <tag k="maxspeed" v="50"/>
    <tag k="maxspeed:source" v="default residential speed limit in Australia"/>
    <tag k="name" v="Charles Avenue"/>
  </way>
  <way id="23052218" version="11" timestamp="2012-01-16T00:46:25Z" uid="147510" user="woodpeck_fixbot" changeset="10404406">
    <nd ref="248750633"/>
    <nd ref="248750704"/>
    <nd ref="248751160"/>
    <nd ref="248751175"/>
    <nd ref="248750651"/>
    <tag k="highway" v="residential"/>
    <tag k="name" v="Charles Avenue"/>
  </way>
  <way id="23052219" version="4" timestamp="2009-05-03T11:40:05Z" uid="7617" user="Franc" changeset="1059773">
    <nd ref="248610599"/>
    <nd ref="248750693"/>
    <nd ref="248750695"/>
    <nd ref="248750696"/>
    <nd ref="330188120"/>
    <nd ref="248750943"/>
    <nd ref="330188121"/>
    <tag k="created_by" v="Potlatch 0.10f"/>
    <tag k="highway" v="residential"/>
    <tag k="name" v="Malton Road"/>
  </way>
  <way id="23052219" version="5" timestamp="2010-07-08T00:21:55Z" uid="74617" user="JohnSmith" changeset="5162525">
    <nd ref="248610599"/>
    <nd ref="248750693"/>
    <nd ref="248750695"/>
    <nd ref="248750696"/>
    <nd ref="330188120"/>
    <nd ref="248750943"/>
    <nd ref="330188121"/>
    <tag k="highway" v="residential"/>
    <tag k="maxspeed" v="50"/>
    <tag k="maxspeed:source" v="default residential speed limit in Australia"/>
    <tag k="name" v="Malton Road"/>
  </way>
  <way id="23052219" version="6" timestamp="2012-01-16T00:46:26Z" uid="147510" user="woodpeck_fixbot" changeset="10404406">
    <nd ref="248610599"/>
    <nd ref="248750693"/>
    <nd ref="248750695"/>
    <nd ref="248750696"/>
    <nd ref="330188120"/>
    <nd ref="248750943"/>
    <nd ref="330188121"/>
    <tag k="highway" v="residential"/>
    <tag k="name" v="Malton Road"/>
  </way>
  <way id="23052220" version="2" timestamp="2009-05-03T11:40:05Z" uid="7617" user="Franc" changeset="1059773">
    <nd ref="248750693"/>
    <nd ref="248750697"/>
    <tag k="created_by" v="Potlatch 0.7b"/>
    <tag k="highway" v="residential"/>
    <tag k="name" v="Seale Close"/>
    <tag k="source" v="survey"/>
  </way>
  <way id="23052220" version="3" timestamp="2010-07-08T00:22:20Z" uid="74617" user="JohnSmith" changeset="5162525">
    <nd ref="248750693"/>
    <nd ref="248750697"/>
    <tag k="highway" v="residential"/>
    <tag k="maxspeed" v="50"/>
    <tag k="maxspeed:source" v="default residential speed limit in Australia"/>
    <tag k="name" v="Seale Close"/>
    <tag k="source" v="survey"/>
  </way>
  <way id="23052220" version="4" timestamp="2012-01-16T00:46:27Z" uid="147510" user="woodpeck_fixbot" changeset="10404406">
    <nd ref="248750693"/>
    <nd ref="248750697"/>
    <tag k="highway" v="residential"/>
    <tag k="name" v="Seale Close"/>
    <tag k="source" v="survey"/>
  </way>
  <way id="23052223" version="7" timestamp="2009-07-26T00:19:15Z" uid="4467" user="Rosscoe" changeset="1939703">
    <nd ref="248750704"/>
    <nd ref="248750705"/>
    <tag k="highway" v="residential"/>
    <tag k="name" v="Boyd Street"/>
  </way>
  <way id="23052223" version="8" timestamp="2010-07-07T19:24:08Z" uid="74617" user="JohnSmith" changeset="5161069">
    <nd ref="248750704"/>
    <nd ref="248750705"/>
    <tag k="highway" v="residential"/>
    <tag k="maxspeed" v="50"/>
    <tag k="maxspeed:source" v="default residential speed limit in Australia"/>
    <tag k="name" v="Boyd Street"/>
  </way>
  <way id="23052223" version="9" timestamp="2012-01-16T00:46:28Z" uid="147510" user="woodpeck_fixbot" changeset="10404406">
    <nd ref="248750704"/>
    <nd ref="248750705"/>
    <tag k="highway" v="residential"/>
    <tag k="name" v="Boyd Street"/>
  </way>
  <way id="23052224" version="5" timestamp="2009-05-03T11:40:07Z" uid="7617" user="Franc" changeset="1059773">
    <nd ref="248610393"/>
    <nd ref="248750707"/>
    <nd ref="248750708"/>
    <nd ref="248750709"/>
    <nd ref="248750710"/>
    <nd ref="389521384"/>
    <nd ref="248750711"/>
    <nd ref="248750712"/>
    <nd ref="248750716"/>
    <nd ref="288441923"/>
    <nd ref="288441940"/>
    <nd ref="288442027"/>
    <tag k="created_by" v="Potlatch 0.10f"/>
    <tag k="highway" v="residential"/>
    <tag k="name" v="Sutherland Road"/>
    <tag k="source" v="survey"/>
  </way>
  <way id="23052224" version="6" timestamp="2010-07-08T00:22:54Z" uid="74617" user="JohnSmith" changeset="5162525">
    <nd ref="248610393"/>
    <nd ref="248750707"/>
    <nd ref="248750708"/>
    <nd ref="248750709"/>
    <nd ref="248750710"/>
    <nd ref="389521384"/>
    <nd ref="248750711"/>
    <nd ref="248750712"/>
    <nd ref="248750716"/>
    <nd ref="288441923"/>
    <nd ref="288441940"/>
    <nd ref="288442027"/>
    <tag k="highway" v="residential"/>
    <tag k="maxspeed" v="50"/>
    <tag k="maxspeed:source" v="default residential speed limit in Australia"/>
    <tag k="name" v="Sutherland Road"/>
    <tag k="source" v="survey"/>
  </way>
  <way id="23052224" version="7" timestamp="2012-01-16T00:46:30Z" uid="147510" user="woodpeck_fixbot" changeset="10404406">
    <nd ref="248610393"/>
    <nd ref="248750707"/>
    <nd ref="248750708"/>
    <nd ref="248750709"/>
    <nd ref="248750710"/>
    <nd ref="389521384"/>
    <nd ref="248750711"/>
    <nd ref="248750712"/>
    <nd ref="248750716"/>
    <nd ref="288441923"/>
    <nd ref="288441940"/>
    <nd ref="288442027"/>
    <tag k="highway" v="residential"/>
    <tag k="name" v="Sutherland Road"/>
    <tag k="source" v="survey"/>
  </way>
  <way id="23052227" version="3" timestamp="2009-05-03T11:40:07Z" uid="7617" user="Franc" changeset="1059773">
    <nd ref="248750716"/>
    <nd ref="389521387"/>
    <nd ref="248750873"/>
    <tag k="created_by" v="Potlatch 0.10f"/>
    <tag k="highway" v="residential"/>
    <tag k="name" v="Narena Close"/>
    <tag k="source" v="survey"/>
  </way>
  <way id="23052227" version="4" timestamp="2010-07-08T00:21:15Z" uid="74617" user="JohnSmith" changeset="5162525">
    <nd ref="248750716"/>
    <nd ref="389521387"/>
    <nd ref="248750873"/>
    <tag k="highway" v="residential"/>
    <tag k="maxspeed" v="50"/>
    <tag k="maxspeed:source" v="default residential speed limit in Australia"/>
    <tag k="name" v="Narena Close"/>
    <tag k="source" v="survey"/>
  </way>
  <way id="23052227" version="5" timestamp="2012-01-16T00:46:31Z" uid="147510" user="woodpeck_fixbot" changeset="10404406">
    <nd ref="248750716"/>
    <nd ref="389521387"/>
    <nd ref="248750873"/>
    <tag k="highway" v="residential"/>
    <tag k="name" v="Narena Close"/>
    <tag k="source" v="survey"/>
  </way>
  <way id="23052233" version="2" timestamp="2009-05-03T11:40:06Z" uid="7617" user="Franc" changeset="1059773">
    <nd ref="248610611"/>
    <nd ref="389521453"/>
    <nd ref="248750943"/>
    <tag k="created_by" v="Potlatch 0.7b"/>
    <tag k="highway" v="residential"/>
    <tag k="name" v="Kethel Road"/>
    <tag k="source" v="survey"/>
  </way>
  <way id="23052233" version="3" timestamp="2010-07-08T00:22:10Z" uid="74617" user="JohnSmith" changeset="5162525">
    <nd ref="248610611"/>
    <nd ref="389521453"/>
    <nd ref="248750943"/>
    <tag k="highway" v="residential"/>
    <tag k="maxspeed" v="50"/>
    <tag k="maxspeed:source" v="default residential speed limit in Australia"/>
    <tag k="name" v="Kethel Road"/>
    <tag k="source" v="survey"/>
  </way>
  <way id="23052233" version="4" timestamp="2012-01-16T00:46:33Z" uid="147510" user="woodpeck_fixbot" changeset="10404406">
    <nd ref="248610611"/>
    <nd ref="389521453"/>
    <nd ref="248750943"/>
    <tag k="highway" v="residential"/>
    <tag k="name" v="Kethel Road"/>
    <tag k="source" v="survey"/>
  </way>
  <way id="23052238" version="3" timestamp="2009-05-20T10:50:13Z" uid="61114" user="Trav" changeset="1263064">
    <nd ref="248610617"/>
    <nd ref="248751145"/>
    <nd ref="248751146"/>
    <nd ref="248751147"/>
    <nd ref="248751148"/>
    <nd ref="248751149"/>
    <nd ref="248751150"/>
    <nd ref="248751151"/>
    <nd ref="248751152"/>
    <nd ref="248751153"/>
    <tag k="highway" v="residential"/>
    <tag k="name" v="Cobran Road"/>
  </way>
  <way id="23052238" version="4" timestamp="2009-07-26T11:51:04Z" uid="7617" user="Franc" changeset="1943719">
    <nd ref="248610617"/>
    <nd ref="248751145"/>
    <nd ref="248751146"/>
    <nd ref="448212790"/>
    <nd ref="248751147"/>
    <nd ref="248751148"/>
    <nd ref="448212793"/>
    <nd ref="248751149"/>
    <nd ref="248751150"/>
    <nd ref="248751151"/>
    <nd ref="448212796"/>
    <nd ref="248751152"/>
    <nd ref="448212798"/>
    <nd ref="448212799"/>
    <nd ref="448212803"/>
    <nd ref="248751153"/>
    <tag k="highway" v="residential"/>
    <tag k="name" v="Cobran Road"/>
    <tag k="source" v="survey"/>
  </way>
  <way id="23052238" version="5" timestamp="2010-07-08T00:23:39Z" uid="74617" user="JohnSmith" changeset="5162525">
    <nd ref="248610617"/>
    <nd ref="248751145"/>
    <nd ref="248751146"/>
    <nd ref="448212790"/>
    <nd ref="248751147"/>
    <nd ref="248751148"/>
    <nd ref="448212793"/>
    <nd ref="248751149"/>
    <nd ref="248751150"/>
    <nd ref="248751151"/>
    <nd ref="448212796"/>
    <nd ref="248751152"/>
    <nd ref="448212798"/>
    <nd ref="448212799"/>
    <nd ref="448212803"/>
    <nd ref="248751153"/>
    <tag k="highway" v="residential"/>
    <tag k="maxspeed" v="50"/>
    <tag k="maxspeed:source" v="default residential speed limit in Australia"/>
    <tag k="name" v="Cobran Road"/>
    <tag k="source" v="survey"/>
  </way>
  <way id="23052238" version="6" timestamp="2012-01-16T00:46:34Z" uid="147510" user="woodpeck_fixbot" changeset="10404406">
    <nd ref="248610617"/>
    <nd ref="248751145"/>
    <nd ref="248751146"/>
    <nd ref="448212790"/>
    <nd ref="248751147"/>
    <nd ref="248751148"/>
    <nd ref="448212793"/>
    <nd ref="248751149"/>
    <nd ref="248751150"/>
    <nd ref="248751151"/>
    <nd ref="448212796"/>
    <nd ref="248751152"/>
    <nd ref="448212798"/>
    <nd ref="448212799"/>
    <nd ref="448212803"/>
    <nd ref="248751153"/>
    <tag k="highway" v="residential"/>
    <tag k="name" v="Cobran Road"/>
    <tag k="source" v="survey"/>
  </way>
  <way id="23052242" version="5" timestamp="2009-07-26T00:19:18Z" uid="4467" user="Rosscoe" changeset="1939703">
    <nd ref="248751160"/>
    <nd ref="248751161"/>
    <tag k="highway" v="residential"/>
    <tag k="name" v="River Street"/>
  </way>
  <way id="23052242" version="6" timestamp="2010-07-07T19:27:05Z" uid="74617" user="JohnSmith" changeset="5161069">
    <nd ref="248751160"/>
    <nd ref="248751161"/>
    <tag k="highway" v="residential"/>
    <tag k="maxspeed" v="50"/>
    <tag k="maxspeed:source" v="default residential speed limit in Australia"/>
    <tag k="name" v="River Street"/>
  </way>
  <way id="23052242" version="7" timestamp="2012-01-16T00:46:35Z" uid="147510" user="woodpeck_fixbot" changeset="10404406">
    <nd ref="248751160"/>
    <nd ref="248751161"/>
    <tag k="highway" v="residential"/>
    <tag k="name" v="River Street"/>
  </way>
  <way id="23052243" version="2" timestamp="2009-07-26T11:51:03Z" uid="7617" user="Franc" changeset="1943719">
    <nd ref="26940290"/>
    <nd ref="248751162"/>
    <nd ref="448212828"/>
    <nd ref="248751163"/>
    <nd ref="248751164"/>
    <tag k="created_by" v="Potlatch 0.7b"/>
    <tag k="highway" v="residential"/>
    <tag k="name" v="Old Beecroft Road"/>
  </way>
  <way id="23052243" version="3" timestamp="2010-07-08T00:25:32Z" uid="74617" user="JohnSmith" changeset="5162525">
    <nd ref="26940290"/>
    <nd ref="248751162"/>
    <nd ref="448212828"/>
    <nd ref="248751163"/>
    <nd ref="248751164"/>
    <tag k="highway" v="residential"/>
    <tag k="maxspeed" v="50"/>
    <tag k="maxspeed:source" v="default residential speed limit in Australia"/>
    <tag k="name" v="Old Beecroft Road"/>
  </way>
  <way id="23052243" version="4" timestamp="2012-01-16T00:46:36Z" uid="147510" user="woodpeck_fixbot" changeset="10404406">
    <nd ref="26940290"/>
    <nd ref="248751162"/>
    <nd ref="448212828"/>
    <nd ref="248751163"/>
    <nd ref="248751164"/>
    <tag k="highway" v="residential"/>
    <tag k="name" v="Old Beecroft Road"/>
  </way>
  <way id="23052244" version="7" timestamp="2009-07-26T00:19:18Z" uid="4467" user="Rosscoe" changeset="1939703">
    <nd ref="248751175"/>
    <nd ref="248751176"/>
    <tag k="highway" v="residential"/>
    <tag k="name" v="Beach Street"/>
  </way>
  <way id="23052244" version="8" timestamp="2010-07-07T19:26:39Z" uid="74617" user="JohnSmith" changeset="5161069">
    <nd ref="248751175"/>
    <nd ref="248751176"/>
    <tag k="highway" v="residential"/>
    <tag k="maxspeed" v="50"/>
    <tag k="maxspeed:source" v="default residential speed limit in Australia"/>
    <tag k="name" v="Beach Street"/>
  </way>
  <way id="23052244" version="9" timestamp="2012-01-16T00:46:38Z" uid="147510" user="woodpeck_fixbot" changeset="10404406">
    <nd ref="248751175"/>
    <nd ref="248751176"/>
    <tag k="highway" v="residential"/>
    <tag k="name" v="Beach Street"/>
  </way>
  <way id="23052246" version="2" timestamp="2009-07-04T13:25:08Z" uid="7617" user="Franc" changeset="1729755">
    <nd ref="60984514"/>
    <nd ref="173044104"/>
    <nd ref="248751178"/>
    <tag k="created_by" v="Potlatch 0.7b"/>
    <tag k="highway" v="residential"/>
    <tag k="name" v="Maida Road"/>
    <tag k="source" v="survey"/>
  </way>
  <way id="23052246" version="3" timestamp="2010-07-08T00:23:10Z" uid="74617" user="JohnSmith" changeset="5162525">
    <nd ref="60984514"/>
    <nd ref="173044104"/>
    <nd ref="248751178"/>
    <tag k="highway" v="residential"/>
    <tag k="maxspeed" v="50"/>
    <tag k="maxspeed:source" v="default residential speed limit in Australia"/>
    <tag k="name" v="Maida Road"/>
    <tag k="source" v="survey"/>
  </way>
  <way id="23052246" version="4" timestamp="2012-01-16T00:46:39Z" uid="147510" user="woodpeck_fixbot" changeset="10404406">
    <nd ref="60984514"/>
    <nd ref="173044104"/>
    <nd ref="248751178"/>
    <tag k="highway" v="residential"/>
    <tag k="name" v="Maida Road"/>
    <tag k="source" v="survey"/>
  </way>
  <way id="23052250" version="3" timestamp="2009-04-05T07:17:19Z" uid="7617" user="Franc" changeset="199118">
    <nd ref="248751179"/>
    <nd ref="369930667"/>
    <nd ref="248751230"/>
    <tag k="created_by" v="Potlatch 0.10"/>
    <tag k="highway" v="residential"/>
    <tag k="name" v="Brucedale Avenue"/>
  </way>
  <way id="23052250" version="4" timestamp="2010-07-08T00:22:01Z" uid="74617" user="JohnSmith" changeset="5162525">
    <nd ref="248751179"/>
    <nd ref="369930667"/>
    <nd ref="248751230"/>
    <tag k="highway" v="residential"/>
    <tag k="maxspeed" v="50"/>
    <tag k="maxspeed:source" v="default residential speed limit in Australia"/>
    <tag k="name" v="Brucedale Avenue"/>
  </way>
  <way id="23052250" version="5" timestamp="2012-01-16T00:46:40Z" uid="147510" user="woodpeck_fixbot" changeset="10404406">
    <nd ref="248751179"/>
    <nd ref="369930667"/>
    <nd ref="248751230"/>
    <tag k="highway" v="residential"/>
    <tag k="name" v="Brucedale Avenue"/>
  </way>
  <way id="23052253" version="5" timestamp="2009-07-26T00:19:18Z" uid="4467" user="Rosscoe" changeset="1939703">
    <nd ref="248750651"/>
    <nd ref="248751247"/>
    <tag k="highway" v="residential"/>
    <tag k="name" v="Links Street"/>
  </way>
  <way id="23052253" version="6" timestamp="2010-07-07T19:26:11Z" uid="74617" user="JohnSmith" changeset="5161069">
    <nd ref="248750651"/>
    <nd ref="248751247"/>
    <tag k="highway" v="residential"/>
    <tag k="maxspeed" v="50"/>
    <tag k="maxspeed:source" v="default residential speed limit in Australia"/>
    <tag k="name" v="Links Street"/>
  </way>
  <way id="23052253" version="7" timestamp="2012-01-16T00:46:41Z" uid="147510" user="woodpeck_fixbot" changeset="10404406">
    <nd ref="248750651"/>
    <nd ref="248751247"/>
    <tag k="highway" v="residential"/>
    <tag k="name" v="Links Street"/>
  </way>
  <way id="23052254" version="2" timestamp="2009-04-05T07:17:20Z" uid="7617" user="Franc" changeset="199118">
    <nd ref="248751232"/>
    <nd ref="248751248"/>
    <nd ref="248751249"/>
    <nd ref="248751250"/>
    <nd ref="248751251"/>
    <tag k="created_by" v="Potlatch 0.7b"/>
    <tag k="highway" v="residential"/>
    <tag k="name" v="Ormonde Avenue"/>
    <tag k="source" v="survey"/>
  </way>
  <way id="23052254" version="3" timestamp="2010-07-08T00:27:50Z" uid="74617" user="JohnSmith" changeset="5162525">
    <nd ref="248751232"/>
    <nd ref="248751248"/>
    <nd ref="248751249"/>
    <nd ref="248751250"/>
    <nd ref="248751251"/>
    <tag k="highway" v="residential"/>
    <tag k="maxspeed" v="50"/>
    <tag k="maxspeed:source" v="default residential speed limit in Australia"/>
    <tag k="name" v="Ormonde Avenue"/>
    <tag k="source" v="survey"/>
  </way>
  <way id="23052254" version="4" timestamp="2012-01-16T00:46:42Z" uid="147510" user="woodpeck_fixbot" changeset="10404406">
    <nd ref="248751232"/>
    <nd ref="248751248"/>
    <nd ref="248751249"/>
    <nd ref="248751250"/>
    <nd ref="248751251"/>
    <tag k="highway" v="residential"/>
    <tag k="name" v="Ormonde Avenue"/>
    <tag k="source" v="survey"/>
  </way>
  <way id="23052257" version="6" timestamp="2010-02-27T13:39:13Z" uid="7617" user="Franc" changeset="3988585">
    <nd ref="276380713"/>
    <nd ref="276380712"/>
    <nd ref="276380708"/>
    <nd ref="655167538"/>
    <nd ref="276380698"/>
    <nd ref="655167539"/>
    <nd ref="276380694"/>
    <tag k="highway" v="residential"/>
    <tag k="name" v="Davis Avenue"/>
  </way>
  <way id="23052257" version="7" timestamp="2010-07-08T00:25:46Z" uid="74617" user="JohnSmith" changeset="5162525">
    <nd ref="276380713"/>
    <nd ref="276380712"/>
    <nd ref="276380708"/>
    <nd ref="655167538"/>
    <nd ref="276380698"/>
    <nd ref="655167539"/>
    <nd ref="276380694"/>
    <tag k="highway" v="residential"/>
    <tag k="maxspeed" v="50"/>
    <tag k="maxspeed:source" v="default residential speed limit in Australia"/>
    <tag k="name" v="Davis Avenue"/>
  </way>
  <way id="23052257" version="8" timestamp="2012-01-16T00:46:44Z" uid="147510" user="woodpeck_fixbot" changeset="10404406">
    <nd ref="276380713"/>
    <nd ref="276380712"/>
    <nd ref="276380708"/>
    <nd ref="655167538"/>
    <nd ref="276380698"/>
    <nd ref="655167539"/>
    <nd ref="276380694"/>
    <tag k="highway" v="residential"/>
    <tag k="name" v="Davis Avenue"/>
  </way>
  <way id="23052259" version="3" timestamp="2008-03-02T08:35:42Z" uid="7617" user="Franc" changeset="252259">
    <nd ref="248751271"/>
    <nd ref="248751276"/>
    <nd ref="248751298"/>
    <nd ref="60984512"/>
    <tag k="created_by" v="Potlatch 0.7b"/>
    <tag k="highway" v="residential"/>
  </way>
  <way id="23052259" version="4" timestamp="2008-07-25T07:15:29Z" uid="39521" user="Biogenesis_" changeset="593361">
    <nd ref="248751271"/>
    <nd ref="248751276"/>
    <nd ref="248751298"/>
    <nd ref="60984512"/>
    <tag k="created_by" v="Potlatch 0.10"/>
    <tag k="highway" v="residential"/>
    <tag k="name" v="Brigg Road"/>
  </way>
  <way id="23052259" version="5" timestamp="2009-04-05T07:17:32Z" uid="7617" user="Franc" changeset="199118">
    <nd ref="248751271"/>
    <nd ref="248751276"/>
    <nd ref="369930666"/>
    <nd ref="248751298"/>
    <nd ref="60984512"/>
    <tag k="created_by" v="Potlatch 0.10"/>
    <tag k="highway" v="residential"/>
    <tag k="name" v="Brigg Road"/>
  </way>
  <way id="23052259" version="6" timestamp="2010-07-08T00:23:00Z" uid="74617" user="JohnSmith" changeset="5162525">
    <nd ref="248751271"/>
    <nd ref="248751276"/>
    <nd ref="369930666"/>
    <nd ref="248751298"/>
    <nd ref="60984512"/>
    <tag k="highway" v="residential"/>
    <tag k="maxspeed" v="50"/>
    <tag k="maxspeed:source" v="default residential speed limit in Australia"/>
    <tag k="name" v="Brigg Road"/>
  </way>
  <way id="23052259" version="7" timestamp="2012-01-16T00:46:48Z" uid="147510" user="woodpeck_fixbot" changeset="10404406">
    <nd ref="248751271"/>
    <nd ref="248751276"/>
    <nd ref="369930666"/>
    <nd ref="248751298"/>
    <nd ref="60984512"/>
    <tag k="highway" v="residential"/>
    <tag k="name" v="Brigg Road"/>
  </way>
  <way id="23052264" version="2" timestamp="2009-04-05T07:17:30Z" uid="7617" user="Franc" changeset="199118">
    <nd ref="248751298"/>
    <nd ref="248751310"/>
    <nd ref="248751311"/>
    <nd ref="248751312"/>
    <nd ref="369930663"/>
    <nd ref="248751313"/>
    <tag k="created_by" v="Potlatch 0.7b"/>
    <tag k="highway" v="residential"/>
    <tag k="name" v="Brigadoon Court"/>
    <tag k="source" v="survey"/>
  </way>
  <way id="23052264" version="3" timestamp="2010-07-08T00:22:16Z" uid="74617" user="JohnSmith" changeset="5162525">
    <nd ref="248751298"/>
    <nd ref="248751310"/>
    <nd ref="248751311"/>
    <nd ref="248751312"/>
    <nd ref="369930663"/>
    <nd ref="248751313"/>
    <tag k="highway" v="residential"/>
    <tag k="maxspeed" v="50"/>
    <tag k="maxspeed:source" v="default residential speed limit in Australia"/>
    <tag k="name" v="Brigadoon Court"/>
    <tag k="source" v="survey"/>
  </way>
  <way id="23052264" version="4" timestamp="2012-01-16T00:46:49Z" uid="147510" user="woodpeck_fixbot" changeset="10404406">
    <nd ref="248751298"/>
    <nd ref="248751310"/>
    <nd ref="248751311"/>
    <nd ref="248751312"/>
    <nd ref="369930663"/>
    <nd ref="248751313"/>
    <tag k="highway" v="residential"/>
    <tag k="name" v="Brigadoon Court"/>
    <tag k="source" v="survey"/>
  </way>
  <way id="23052266" version="2" timestamp="2009-07-04T13:25:09Z" uid="7617" user="Franc" changeset="1729755">
    <nd ref="60984510"/>
    <nd ref="248751337"/>
    <tag k="created_by" v="Potlatch 0.7b"/>
    <tag k="highway" v="residential"/>
    <tag k="name" v="Pearl Avenue"/>
    <tag k="source" v="survey"/>
  </way>
  <way id="23052266" version="3" timestamp="2010-07-08T00:26:10Z" uid="74617" user="JohnSmith" changeset="5162525">
    <nd ref="60984510"/>
    <nd ref="248751337"/>
    <tag k="highway" v="residential"/>
    <tag k="maxspeed" v="50"/>
    <tag k="maxspeed:source" v="default residential speed limit in Australia"/>
    <tag k="name" v="Pearl Avenue"/>
    <tag k="source" v="survey"/>
  </way>
  <way id="23052266" version="4" timestamp="2012-01-16T00:46:51Z" uid="147510" user="woodpeck_fixbot" changeset="10404406">
    <nd ref="60984510"/>
    <nd ref="248751337"/>
    <tag k="highway" v="residential"/>
    <tag k="name" v="Pearl Avenue"/>
    <tag k="source" v="survey"/>
  </way>
  <way id="23052268" version="3" timestamp="2010-02-27T13:39:13Z" uid="7617" user="Franc" changeset="3988585">
    <nd ref="276380694"/>
    <nd ref="655167540"/>
    <nd ref="248751342"/>
    <nd ref="248751338"/>
    <tag k="highway" v="residential"/>
    <tag k="name" v="Albuera Road"/>
  </way>
  <way id="23052268" version="4" timestamp="2010-03-23T03:34:33Z" uid="156866" user="Bob Sault" changeset="4208938">
    <nd ref="276380694"/>
    <nd ref="655167540"/>
    <nd ref="672572745"/>
    <nd ref="248751342"/>
    <nd ref="248751338"/>
    <tag k="highway" v="residential"/>
    <tag k="name" v="Albuera Road"/>
  </way>
  <way id="23052268" version="5" timestamp="2010-07-08T00:28:02Z" uid="74617" user="JohnSmith" changeset="5162525">
    <nd ref="276380694"/>
    <nd ref="655167540"/>
    <nd ref="672572745"/>
    <nd ref="248751342"/>
    <nd ref="248751338"/>
    <tag k="highway" v="residential"/>
    <tag k="maxspeed" v="50"/>
    <tag k="maxspeed:source" v="default residential speed limit in Australia"/>
    <tag k="name" v="Albuera Road"/>
  </way>
  <way id="23052268" version="6" timestamp="2011-10-09T11:40:56Z" uid="162096" user="Daz" changeset="9511068">
    <nd ref="276380694"/>
    <nd ref="655167540"/>
    <nd ref="672572745"/>
    <nd ref="248751342"/>
    <tag k="highway" v="residential"/>
    <tag k="lcn" v="yes"/>
    <tag k="maxspeed" v="50"/>
    <tag k="maxspeed:source" v="default residential speed limit in Australia"/>
    <tag k="name" v="Essex Street"/>
  </way>
  <way id="23052268" version="7" timestamp="2012-01-16T00:46:52Z" uid="147510" user="woodpeck_fixbot" changeset="10404406">
    <nd ref="276380694"/>
    <nd ref="655167540"/>
    <nd ref="672572745"/>
    <nd ref="248751342"/>
    <tag k="highway" v="residential"/>
    <tag k="lcn" v="yes"/>
    <tag k="name" v="Essex Street"/>
  </way>
  <way id="23052269" version="2" timestamp="2009-04-05T07:17:31Z" uid="7617" user="Franc" changeset="199118">
    <nd ref="248751344"/>
    <nd ref="248751345"/>
    <tag k="created_by" v="Potlatch 0.7b"/>
    <tag k="highway" v="residential"/>
    <tag k="name" v="Duignan Close"/>
    <tag k="source" v="survey"/>
  </way>
  <way id="23052269" version="3" timestamp="2010-07-08T00:22:44Z" uid="74617" user="JohnSmith" changeset="5162525">
    <nd ref="248751344"/>
    <nd ref="248751345"/>
    <tag k="highway" v="residential"/>
    <tag k="maxspeed" v="50"/>
    <tag k="maxspeed:source" v="default residential speed limit in Australia"/>
    <tag k="name" v="Duignan Close"/>
    <tag k="source" v="survey"/>
  </way>
  <way id="23052269" version="4" timestamp="2012-01-16T00:46:54Z" uid="147510" user="woodpeck_fixbot" changeset="10404406">
    <nd ref="248751344"/>
    <nd ref="248751345"/>
    <tag k="highway" v="residential"/>
    <tag k="name" v="Duignan Close"/>
    <tag k="source" v="survey"/>
  </way>
  <way id="23052271" version="4" timestamp="2009-07-26T00:19:20Z" uid="4467" user="Rosscoe" changeset="1939703">
    <nd ref="248751348"/>
    <nd ref="248751349"/>
    <tag k="highway" v="residential"/>
    <tag k="name" v="North Street"/>
  </way>
  <way id="23052271" version="5" timestamp="2010-07-07T19:27:42Z" uid="74617" user="JohnSmith" changeset="5161069">
    <nd ref="248751348"/>
    <nd ref="248751349"/>
    <tag k="highway" v="residential"/>
    <tag k="maxspeed" v="50"/>
    <tag k="maxspeed:source" v="default residential speed limit in Australia"/>
    <tag k="name" v="North Street"/>
  </way>
  <way id="23052271" version="6" timestamp="2012-01-16T00:46:55Z" uid="147510" user="woodpeck_fixbot" changeset="10404406">
    <nd ref="248751348"/>
    <nd ref="248751349"/>
    <tag k="highway" v="residential"/>
    <tag k="name" v="North Street"/>
  </way>
  <way id="23052272" version="3" timestamp="2010-07-08T00:21:38Z" uid="74617" user="JohnSmith" changeset="5162525">
    <nd ref="248751350"/>
    <nd ref="248751351"/>
    <nd ref="248751352"/>
    <nd ref="248751353"/>
    <nd ref="248751354"/>
    <tag k="highway" v="residential"/>
    <tag k="maxspeed" v="50"/>
    <tag k="maxspeed:source" v="default residential speed limit in Australia"/>
    <tag k="name" v="Knox Avenue"/>
  </way>
  <way id="23052272" version="4" timestamp="2012-01-16T00:46:56Z" uid="147510" user="woodpeck_fixbot" changeset="10404406">
    <nd ref="248751350"/>
    <nd ref="248751351"/>
    <nd ref="248751352"/>
    <nd ref="248751353"/>
    <nd ref="248751354"/>
    <tag k="highway" v="residential"/>
    <tag k="name" v="Knox Avenue"/>
  </way>
  <way id="23052273" version="5" timestamp="2009-04-05T07:17:26Z" uid="7617" user="Franc" changeset="199118">
    <nd ref="248751272"/>
    <nd ref="248751388"/>
    <nd ref="248751358"/>
    <nd ref="248751392"/>
    <nd ref="248751356"/>
    <nd ref="248751357"/>
    <tag k="created_by" v="Potlatch 0.7b"/>
    <tag k="highway" v="residential"/>
    <tag k="name" v="Abuklea Road"/>
    <tag k="source" v="survey"/>
  </way>
  <way id="23052273" version="6" timestamp="2010-07-08T00:23:14Z" uid="74617" user="JohnSmith" changeset="5162525">
    <nd ref="248751272"/>
    <nd ref="248751388"/>
    <nd ref="248751358"/>
    <nd ref="248751392"/>
    <nd ref="248751356"/>
    <nd ref="248751357"/>
    <tag k="highway" v="residential"/>
    <tag k="maxspeed" v="50"/>
    <tag k="maxspeed:source" v="default residential speed limit in Australia"/>
    <tag k="name" v="Abuklea Road"/>
    <tag k="source" v="survey"/>
  </way>
  <way id="23052273" version="7" timestamp="2012-01-16T00:46:58Z" uid="147510" user="woodpeck_fixbot" changeset="10404406">
    <nd ref="248751272"/>
    <nd ref="248751388"/>
    <nd ref="248751358"/>
    <nd ref="248751392"/>
    <nd ref="248751356"/>
    <nd ref="248751357"/>
    <tag k="highway" v="residential"/>
    <tag k="name" v="Abuklea Road"/>
    <tag k="source" v="survey"/>
  </way>
  <way id="23052276" version="2" timestamp="2009-04-05T07:17:29Z" uid="7617" user="Franc" changeset="199118">
    <nd ref="248751358"/>
    <nd ref="248751383"/>
    <tag k="created_by" v="Potlatch 0.7b"/>
    <tag k="highway" v="residential"/>
    <tag k="name" v="Muriel Avenue"/>
    <tag k="source" v="survey"/>
  </way>
  <way id="23052276" version="3" timestamp="2010-07-08T00:27:34Z" uid="74617" user="JohnSmith" changeset="5162525">
    <nd ref="248751358"/>
    <nd ref="248751383"/>
    <tag k="highway" v="residential"/>
    <tag k="maxspeed" v="50"/>
    <tag k="maxspeed:source" v="default residential speed limit in Australia"/>
    <tag k="name" v="Muriel Avenue"/>
    <tag k="source" v="survey"/>
  </way>
  <way id="23052276" version="4" timestamp="2012-01-16T00:47:00Z" uid="147510" user="woodpeck_fixbot" changeset="10404406">
    <nd ref="248751358"/>
    <nd ref="248751383"/>
    <tag k="highway" v="residential"/>
    <tag k="name" v="Muriel Avenue"/>
    <tag k="source" v="survey"/>
  </way>
  <way id="23052277" version="5" timestamp="2009-07-26T00:19:17Z" uid="4467" user="Rosscoe" changeset="1939703">
    <nd ref="248751349"/>
    <nd ref="248751390"/>
    <nd ref="248751391"/>
    <tag k="highway" v="residential"/>
    <tag k="name" v="Railway Street"/>
  </way>
  <way id="23052277" version="6" timestamp="2010-07-07T19:27:39Z" uid="74617" user="JohnSmith" changeset="5161069">
    <nd ref="248751349"/>
    <nd ref="248751390"/>
    <nd ref="248751391"/>
    <tag k="highway" v="residential"/>
    <tag k="maxspeed" v="50"/>
    <tag k="maxspeed:source" v="default residential speed limit in Australia"/>
    <tag k="name" v="Railway Street"/>
  </way>
  <way id="23052277" version="7" timestamp="2012-01-16T00:47:01Z" uid="147510" user="woodpeck_fixbot" changeset="10404406">
    <nd ref="248751349"/>
    <nd ref="248751390"/>
    <nd ref="248751391"/>
    <tag k="highway" v="residential"/>
    <tag k="name" v="Railway Street"/>
  </way>
  <way id="23052279" version="2" timestamp="2009-04-05T07:17:28Z" uid="7617" user="Franc" changeset="199118">
    <nd ref="248751392"/>
    <nd ref="369930620"/>
    <nd ref="248751393"/>
    <tag k="created_by" v="Potlatch 0.7b"/>
    <tag k="highway" v="residential"/>
    <tag k="name" v="Stanley Road"/>
    <tag k="source" v="survey"/>
  </way>
  <way id="23052279" version="3" timestamp="2010-07-08T00:26:02Z" uid="74617" user="JohnSmith" changeset="5162525">
    <nd ref="248751392"/>
    <nd ref="369930620"/>
    <nd ref="248751393"/>
    <tag k="highway" v="residential"/>
    <tag k="maxspeed" v="50"/>
    <tag k="maxspeed:source" v="default residential speed limit in Australia"/>
    <tag k="name" v="Stanley Road"/>
    <tag k="source" v="survey"/>
  </way>
  <way id="23052279" version="4" timestamp="2012-01-16T00:47:02Z" uid="147510" user="woodpeck_fixbot" changeset="10404406">
    <nd ref="248751392"/>
    <nd ref="369930620"/>
    <nd ref="248751393"/>
    <tag k="highway" v="residential"/>
    <tag k="name" v="Stanley Road"/>
    <tag k="source" v="survey"/>
  </way>
  <way id="23052282" version="2" timestamp="2009-02-08T13:48:57Z" uid="7617" user="Franc" changeset="273652">
    <nd ref="248751411"/>
    <nd ref="248751412"/>
    <nd ref="248751413"/>
    <nd ref="343389452"/>
    <nd ref="248751414"/>
    <nd ref="248751415"/>
    <tag k="created_by" v="Potlatch 0.7b"/>
    <tag k="highway" v="residential"/>
  </way>
  <way id="23052282" version="3" timestamp="2009-04-05T07:17:23Z" uid="7617" user="Franc" changeset="199118">
    <nd ref="248751411"/>
    <nd ref="248751412"/>
    <nd ref="248751413"/>
    <nd ref="343389452"/>
    <nd ref="248751414"/>
    <nd ref="248751415"/>
    <tag k="created_by" v="Potlatch 0.7b"/>
    <tag k="highway" v="residential"/>
    <tag k="name" v="Munro Street"/>
    <tag k="source" v="survey"/>
  </way>
  <way id="23052282" version="4" timestamp="2010-07-08T00:23:35Z" uid="74617" user="JohnSmith" changeset="5162525">
    <nd ref="248751411"/>
    <nd ref="248751412"/>
    <nd ref="248751413"/>
    <nd ref="343389452"/>
    <nd ref="248751414"/>
    <nd ref="248751415"/>
    <tag k="highway" v="residential"/>
    <tag k="maxspeed" v="50"/>
    <tag k="maxspeed:source" v="default residential speed limit in Australia"/>
    <tag k="name" v="Munro Street"/>
    <tag k="source" v="survey"/>
  </way>
  <way id="23052282" version="5" timestamp="2012-01-16T00:47:04Z" uid="147510" user="woodpeck_fixbot" changeset="10404406">
    <nd ref="248751411"/>
    <nd ref="248751412"/>
    <nd ref="248751413"/>
    <nd ref="343389452"/>
    <nd ref="248751414"/>
    <nd ref="248751415"/>
    <tag k="highway" v="residential"/>
    <tag k="name" v="Munro Street"/>
    <tag k="source" v="survey"/>
  </way>
  <way id="23052284" version="6" timestamp="2009-07-26T00:19:17Z" uid="4467" user="Rosscoe" changeset="1939703">
    <nd ref="248751391"/>
    <nd ref="248751513"/>
    <nd ref="248751421"/>
    <nd ref="248751422"/>
    <tag k="highway" v="residential"/>
    <tag k="name" v="Rangoon Road"/>
  </way>
  <way id="23052284" version="7" timestamp="2010-07-07T19:25:47Z" uid="74617" user="JohnSmith" changeset="5161069">
    <nd ref="248751391"/>
    <nd ref="248751513"/>
    <nd ref="248751421"/>
    <nd ref="248751422"/>
    <tag k="highway" v="residential"/>
    <tag k="maxspeed" v="50"/>
    <tag k="maxspeed:source" v="default residential speed limit in Australia"/>
    <tag k="name" v="Rangoon Road"/>
  </way>
  <way id="23052284" version="8" timestamp="2012-01-16T00:47:05Z" uid="147510" user="woodpeck_fixbot" changeset="10404406">
    <nd ref="248751391"/>
    <nd ref="248751513"/>
    <nd ref="248751421"/>
    <nd ref="248751422"/>
    <tag k="highway" v="residential"/>
    <tag k="name" v="Rangoon Road"/>
  </way>
  <way id="23052285" version="2" timestamp="2009-04-05T07:17:24Z" uid="7617" user="Franc" changeset="199118">
    <nd ref="248751416"/>
    <nd ref="248751423"/>
    <nd ref="248751424"/>
    <tag k="created_by" v="Potlatch 0.7b"/>
    <tag k="highway" v="residential"/>
    <tag k="name" v="Jupp Place"/>
  </way>
  <way id="23052285" version="3" timestamp="2009-12-16T03:02:43Z" uid="1679" user="andrewpmk" changeset="3384281">
    <nd ref="248751416"/>
    <nd ref="248751423"/>
    <nd ref="248751424"/>
    <tag k="highway" v="residential"/>
    <tag k="name" v="Jupp Place"/>
  </way>
  <way id="23052285" version="4" timestamp="2010-07-08T00:26:54Z" uid="74617" user="JohnSmith" changeset="5162525">
    <nd ref="248751416"/>
    <nd ref="248751423"/>
    <nd ref="248751424"/>
    <tag k="highway" v="residential"/>
    <tag k="maxspeed" v="50"/>
    <tag k="maxspeed:source" v="default residential speed limit in Australia"/>
    <tag k="name" v="Jupp Place"/>
  </way>
  <way id="23052285" version="5" timestamp="2012-01-16T00:47:06Z" uid="147510" user="woodpeck_fixbot" changeset="10404406">
    <nd ref="248751416"/>
    <nd ref="248751423"/>
    <nd ref="248751424"/>
    <tag k="highway" v="residential"/>
    <tag k="name" v="Jupp Place"/>
  </way>
  <way id="23052295" version="5" timestamp="2009-07-26T00:19:15Z" uid="4467" user="Rosscoe" changeset="1939703">
    <nd ref="248751513"/>
    <nd ref="248751514"/>
    <nd ref="248751515"/>
    <nd ref="248751516"/>
    <tag k="highway" v="residential"/>
    <tag k="name" v="Austin Avenue"/>
  </way>
  <way id="23052295" version="6" timestamp="2010-07-07T19:27:39Z" uid="74617" user="JohnSmith" changeset="5161069">
    <nd ref="248751513"/>
    <nd ref="248751514"/>
    <nd ref="248751515"/>
    <nd ref="248751516"/>
    <tag k="highway" v="residential"/>
    <tag k="maxspeed" v="50"/>
    <tag k="maxspeed:source" v="default residential speed limit in Australia"/>
    <tag k="name" v="Austin Avenue"/>
  </way>
  <way id="23052295" version="7" timestamp="2012-01-16T00:47:07Z" uid="147510" user="woodpeck_fixbot" changeset="10404406">
    <nd ref="248751513"/>
    <nd ref="248751514"/>
    <nd ref="248751515"/>
    <nd ref="248751516"/>
    <tag k="highway" v="residential"/>
    <tag k="name" v="Austin Avenue"/>
  </way>
  <way id="23052297" version="5" timestamp="2009-07-26T00:19:19Z" uid="4467" user="Rosscoe" changeset="1939703">
    <nd ref="248751522"/>
    <nd ref="248751523"/>
    <nd ref="248751524"/>
    <nd ref="248751525"/>
    <tag k="highway" v="unclassified"/>
  </way>
  <way id="23052305" version="2" timestamp="2008-06-28T05:31:54Z" uid="30201" user="rrankin" changeset="323262">
    <nd ref="248751566"/>
    <nd ref="33088909"/>
    <tag k="created_by" v="Potlatch 0.7b"/>
    <tag k="highway" v="residential"/>
    <tag k="name" v="Morrison Road"/>
  </way>
  <way id="23052305" version="3" timestamp="2009-01-14T11:56:33Z" uid="17425" user="jackb" changeset="786158">
    <nd ref="248751566"/>
    <nd ref="26400439"/>
    <tag k="created_by" v="Potlatch 0.7b"/>
    <tag k="highway" v="residential"/>
    <tag k="name" v="Morrison Road"/>
  </way>
  <way id="23052305" version="4" timestamp="2010-03-31T10:13:31Z" uid="74617" user="JohnSmith" changeset="4283972">
    <nd ref="248751566"/>
    <nd ref="26400439"/>
    <tag k="highway" v="residential"/>
    <tag k="name" v="Morrison Road"/>
  </way>
  <way id="23052305" version="5" timestamp="2010-05-09T08:46:36Z" uid="7617" user="Franc" changeset="4645856">
    <nd ref="727252015"/>
    <nd ref="26400439"/>
    <tag k="highway" v="residential"/>
    <tag k="name" v="Morrison Road"/>
  </way>
  <way id="23052305" version="6" timestamp="2010-07-08T01:00:54Z" uid="74617" user="JohnSmith" changeset="5162525">
    <nd ref="727252015"/>
    <nd ref="26400439"/>
    <tag k="highway" v="residential"/>
    <tag k="maxspeed" v="50"/>
    <tag k="maxspeed:source" v="default residential speed limit in Australia"/>
    <tag k="name" v="Morrison Road"/>
  </way>
  <way id="23052305" version="7" timestamp="2011-10-10T00:30:27Z" uid="162096" user="Daz" changeset="9518332">
    <nd ref="727252015"/>
    <nd ref="26400439"/>
    <tag k="highway" v="residential"/>
    <tag k="lcn" v="yes"/>
    <tag k="maxspeed" v="50"/>
    <tag k="maxspeed:source" v="default residential speed limit in Australia"/>
    <tag k="name" v="Morrison Road"/>
  </way>
  <way id="23052305" version="8" timestamp="2012-01-16T00:47:08Z" uid="147510" user="woodpeck_fixbot" changeset="10404406">
    <nd ref="727252015"/>
    <nd ref="26400439"/>
    <tag k="highway" v="residential"/>
    <tag k="lcn" v="yes"/>
    <tag k="name" v="Morrison Road"/>
  </way>
  <way id="23052308" version="2" timestamp="2009-07-04T13:25:13Z" uid="7617" user="Franc" changeset="1729755">
    <nd ref="248751625"/>
    <nd ref="248751626"/>
    <nd ref="248751627"/>
    <nd ref="433818667"/>
    <tag k="created_by" v="Potlatch 0.7b"/>
    <tag k="highway" v="residential"/>
    <tag k="name" v="Willandra Street"/>
    <tag k="source" v="survey"/>
  </way>
  <way id="23052308" version="3" timestamp="2010-02-27T01:29:55Z" uid="7617" user="Franc" changeset="3985180">
    <nd ref="248751625"/>
    <nd ref="248751626"/>
    <nd ref="248751627"/>
    <nd ref="654585677"/>
    <nd ref="433818667"/>
    <tag k="highway" v="residential"/>
    <tag k="name" v="Willandra Street"/>
    <tag k="source" v="survey"/>
  </way>
  <way id="23052308" version="4" timestamp="2010-07-08T00:59:15Z" uid="74617" user="JohnSmith" changeset="5162525">
    <nd ref="248751625"/>
    <nd ref="248751626"/>
    <nd ref="248751627"/>
    <nd ref="654585677"/>
    <nd ref="433818667"/>
    <tag k="highway" v="residential"/>
    <tag k="maxspeed" v="50"/>
    <tag k="maxspeed:source" v="default residential speed limit in Australia"/>
    <tag k="name" v="Willandra Street"/>
    <tag k="source" v="survey"/>
  </way>
  <way id="23052308" version="5" timestamp="2012-01-16T00:47:10Z" uid="147510" user="woodpeck_fixbot" changeset="10404406">
    <nd ref="248751625"/>
    <nd ref="248751626"/>
    <nd ref="248751627"/>
    <nd ref="654585677"/>
    <nd ref="433818667"/>
    <tag k="highway" v="residential"/>
    <tag k="name" v="Willandra Street"/>
    <tag k="source" v="survey"/>
  </way>
  <way id="23052309" version="6" timestamp="2009-07-26T00:19:18Z" uid="4467" user="Rosscoe" changeset="1939703">
    <nd ref="248751630"/>
    <nd ref="248750560"/>
    <nd ref="248751516"/>
    <nd ref="248751631"/>
    <nd ref="248751632"/>
    <nd ref="248751633"/>
    <tag k="highway" v="residential"/>
    <tag k="name" v="Federal Street"/>
  </way>
  <way id="23052309" version="7" timestamp="2009-07-26T00:36:18Z" uid="4467" user="Rosscoe" changeset="1939764">
    <nd ref="248750560"/>
    <nd ref="248751516"/>
    <nd ref="248751631"/>
    <nd ref="248751632"/>
    <nd ref="248751633"/>
    <tag k="highway" v="residential"/>
    <tag k="name" v="Federal Street"/>
  </way>
  <way id="23052309" version="8" timestamp="2010-07-07T19:26:41Z" uid="74617" user="JohnSmith" changeset="5161069">
    <nd ref="248750560"/>
    <nd ref="248751516"/>
    <nd ref="248751631"/>
    <nd ref="248751632"/>
    <nd ref="248751633"/>
    <tag k="highway" v="residential"/>
    <tag k="maxspeed" v="50"/>
    <tag k="maxspeed:source" v="default residential speed limit in Australia"/>
    <tag k="name" v="Federal Street"/>
  </way>
  <way id="23052309" version="9" timestamp="2012-01-16T00:47:11Z" uid="147510" user="woodpeck_fixbot" changeset="10404406">
    <nd ref="248750560"/>
    <nd ref="248751516"/>
    <nd ref="248751631"/>
    <nd ref="248751632"/>
    <nd ref="248751633"/>
    <tag k="highway" v="residential"/>
    <tag k="name" v="Federal Street"/>
  </way>
  <way id="23052315" version="1" timestamp="2008-02-22T07:12:43Z" uid="7617" user="Franc" changeset="176304">
    <nd ref="248751648"/>
    <nd ref="29376107"/>
    <tag k="created_by" v="JOSM"/>
    <tag k="highway" v="service"/>
    <tag k="name" v="Roberts Lane"/>
    <tag k="note" v="FCC: check street name"/>
  </way>
  <way id="23052315" version="2" timestamp="2010-05-12T12:25:33Z" uid="7617" user="Franc" changeset="4676779">
    <nd ref="248751648"/>
    <nd ref="29376107"/>
    <tag k="highway" v="service"/>
    <tag k="name" v="Roberts Lane"/>
  </way>
  <way id="23052316" version="1" timestamp="2008-02-22T07:12:44Z" uid="7617" user="Franc" changeset="176304">
    <nd ref="139319411"/>
    <nd ref="248751649"/>
    <nd ref="29376104"/>
    <nd ref="33447433"/>
    <nd ref="54481998"/>
    <nd ref="10283057"/>
    <nd ref="248751667"/>
    <nd ref="29800843"/>
    <nd ref="26410293"/>
    <nd ref="15081894"/>
    <tag k="created_by" v="Potlatch alpha"/>
    <tag k="highway" v="primary"/>
    <tag k="name" v="Princes Highway"/>
    <tag k="oneway" v="yes"/>
    <tag k="ref" v="S66"/>
  </way>
  <way id="23052316" version="2" timestamp="2008-06-29T07:12:38Z" uid="12203" user="brainwad" changeset="336547">
    <nd ref="139319411"/>
    <nd ref="248751649"/>
    <nd ref="29376104"/>
    <nd ref="33447433"/>
    <nd ref="54481998"/>
    <nd ref="10283057"/>
    <nd ref="248751667"/>
    <nd ref="29800843"/>
    <nd ref="26410293"/>
    <nd ref="15081894"/>
    <tag k="created_by" v="Potlatch 0.9c"/>
    <tag k="highway" v="primary"/>
    <tag k="name" v="Princes Highway"/>
    <tag k="oneway" v="yes"/>
  </way>
  <way id="23052316" version="3" timestamp="2009-12-27T06:14:48Z" uid="12203" user="brainwad" changeset="3460242">
    <nd ref="139319411"/>
    <nd ref="248751649"/>
    <nd ref="29376104"/>
    <nd ref="33447433"/>
    <nd ref="54481998"/>
    <nd ref="10283057"/>
    <nd ref="248751667"/>
    <nd ref="29800843"/>
    <nd ref="26410293"/>
    <nd ref="15081894"/>
    <tag k="highway" v="primary"/>
    <tag k="maxspeed" v="60"/>
    <tag k="name" v="Princes Highway"/>
    <tag k="oneway" v="yes"/>
  </way>
  <way id="23052316" version="4" timestamp="2010-04-01T10:40:11Z" uid="7617" user="Franc" changeset="4292890">
    <nd ref="139319411"/>
    <nd ref="248751649"/>
    <nd ref="29376104"/>
    <nd ref="33447433"/>
    <nd ref="679719730"/>
    <nd ref="54481998"/>
    <nd ref="10283057"/>
    <nd ref="248751667"/>
    <nd ref="29800843"/>
    <nd ref="26410293"/>
    <nd ref="15081894"/>
    <tag k="highway" v="primary"/>
    <tag k="maxspeed" v="60"/>
    <tag k="name" v="Princes Highway"/>
    <tag k="oneway" v="yes"/>
  </way>
  <way id="23052316" version="5" timestamp="2010-09-12T01:30:34Z" uid="7617" user="Franc" changeset="5755261">
    <nd ref="139319411"/>
    <nd ref="248751649"/>
    <nd ref="29376104"/>
    <nd ref="907693520"/>
    <nd ref="33447433"/>
    <nd ref="679719730"/>
    <nd ref="54481998"/>
    <nd ref="10283057"/>
    <nd ref="248751667"/>
    <nd ref="29800843"/>
    <nd ref="26410293"/>
    <nd ref="15081894"/>
    <tag k="highway" v="primary"/>
    <tag k="maxspeed" v="60"/>
    <tag k="name" v="Princes Highway"/>
    <tag k="oneway" v="yes"/>
  </way>
  <way id="23052316" version="6" timestamp="2011-04-20T13:11:21Z" uid="7617" user="Franc" changeset="7916137">
    <nd ref="139319411"/>
    <nd ref="248751649"/>
    <nd ref="29376104"/>
    <nd ref="907693520"/>
    <nd ref="33447433"/>
    <nd ref="679719730"/>
    <nd ref="54481998"/>
    <nd ref="10283057"/>
    <tag k="highway" v="primary"/>
    <tag k="maxspeed" v="60"/>
    <tag k="name" v="Princes Highway"/>
    <tag k="oneway" v="yes"/>
  </way>
  <way id="23052316" version="7" timestamp="2011-05-22T09:08:05Z" uid="7617" user="Franc" changeset="8213765">
    <nd ref="139319411"/>
    <nd ref="248751649"/>
    <nd ref="29376104"/>
    <nd ref="907693520"/>
    <nd ref="33447433"/>
    <nd ref="679719730"/>
    <nd ref="54481998"/>
    <nd ref="1295823512"/>
    <nd ref="10283057"/>
    <tag k="highway" v="primary"/>
    <tag k="maxspeed" v="60"/>
    <tag k="name" v="Princes Highway"/>
    <tag k="oneway" v="yes"/>
  </way>
  <way id="23052317" version="1" timestamp="2008-02-22T07:12:45Z" uid="7617" user="Franc" changeset="176304">
    <nd ref="28449234"/>
    <nd ref="248751652"/>
    <tag k="created_by" v="JOSM"/>
    <tag k="highway" v="primary"/>
    <tag k="name" v="King Street"/>
    <tag k="oneway" v="yes"/>
    <tag k="ref" v="S66"/>
  </way>
  <way id="23052317" version="2" timestamp="2009-11-14T12:05:21Z" uid="117890" user="Jonathan Trott" changeset="3112508">
    <nd ref="28449234"/>
    <nd ref="248751652"/>
    <tag k="highway" v="primary"/>
    <tag k="name" v="King Street"/>
    <tag k="oneway" v="yes"/>
    <tag k="ref" v="S66"/>
  </way>
  <way id="23052317" version="3" timestamp="2009-12-27T06:14:53Z" uid="12203" user="brainwad" changeset="3460242">
    <nd ref="28449234"/>
    <nd ref="248751652"/>
    <tag k="highway" v="primary"/>
    <tag k="maxspeed" v="50"/>
    <tag k="name" v="King Street"/>
    <tag k="oneway" v="yes"/>
    <tag k="ref" v="S66"/>
  </way>
  <way id="23052317" version="4" timestamp="2010-07-07T07:46:23Z" uid="299678" user="peteramjet" changeset="5156520">
    <nd ref="28449234"/>
    <nd ref="248751652"/>
    <tag k="highway" v="primary"/>
    <tag k="maxspeed" v="50"/>
    <tag k="name" v="King Street"/>
    <tag k="oneway" v="yes"/>
  </way>
  <way id="23052318" version="1" timestamp="2008-02-22T07:12:46Z" uid="7617" user="Franc" changeset="176304">
    <nd ref="248751655"/>
    <nd ref="248751656"/>
    <nd ref="248751657"/>
    <nd ref="248751658"/>
    <nd ref="248751668"/>
    <nd ref="248751659"/>
    <nd ref="248751660"/>
    <nd ref="248751661"/>
    <tag k="created_by" v="JOSM"/>
    <tag k="highway" v="primary"/>
    <tag k="name" v="Princes Highway"/>
    <tag k="oneway" v="yes"/>
    <tag k="ref" v="S66"/>
  </way>
  <way id="23052318" version="2" timestamp="2008-06-29T07:12:54Z" uid="12203" user="brainwad" changeset="336547">
    <nd ref="248751655"/>
    <nd ref="248751656"/>
    <nd ref="248751657"/>
    <nd ref="248751658"/>
    <nd ref="248751668"/>
    <nd ref="248751659"/>
    <nd ref="248751660"/>
    <nd ref="248751661"/>
    <tag k="created_by" v="Potlatch 0.9c"/>
    <tag k="highway" v="primary"/>
    <tag k="name" v="Princes Highway"/>
    <tag k="oneway" v="yes"/>
  </way>
  <way id="23052318" version="3" timestamp="2009-11-14T12:05:07Z" uid="117890" user="Jonathan Trott" changeset="3112508">
    <nd ref="248751655"/>
    <nd ref="248751656"/>
    <nd ref="248751657"/>
    <nd ref="248751658"/>
    <nd ref="248751668"/>
    <nd ref="248751659"/>
    <nd ref="248751660"/>
    <nd ref="248751661"/>
    <tag k="highway" v="primary"/>
    <tag k="name" v="Princes Highway"/>
    <tag k="oneway" v="yes"/>
  </way>
  <way id="23052318" version="4" timestamp="2009-12-27T06:14:52Z" uid="12203" user="brainwad" changeset="3460242">
    <nd ref="248751655"/>
    <nd ref="599901556"/>
    <nd ref="248751656"/>
    <nd ref="599901554"/>
    <tag k="highway" v="primary"/>
    <tag k="maxspeed" v="50"/>
    <tag k="name" v="Princes Highway"/>
    <tag k="oneway" v="yes"/>
  </way>
  <way id="23052318" version="5" timestamp="2010-04-01T10:40:13Z" uid="7617" user="Franc" changeset="4292890">
    <nd ref="248751655"/>
    <nd ref="679719752"/>
    <nd ref="599901556"/>
    <nd ref="248751656"/>
    <nd ref="599901554"/>
    <tag k="highway" v="primary"/>
    <tag k="maxspeed" v="50"/>
    <tag k="name" v="Princes Highway"/>
    <tag k="oneway" v="yes"/>
  </way>
  <way id="23052318" version="6" timestamp="2011-04-20T13:11:43Z" uid="7617" user="Franc" changeset="7916137">
    <nd ref="248751655"/>
    <nd ref="679719752"/>
    <tag k="highway" v="primary"/>
    <tag k="maxspeed" v="50"/>
    <tag k="name" v="Princes Highway"/>
    <tag k="oneway" v="yes"/>
  </way>
  <way id="23052319" version="1" timestamp="2008-02-22T07:12:47Z" uid="7617" user="Franc" changeset="176304">
    <nd ref="248751652"/>
    <nd ref="248751653"/>
    <nd ref="248751654"/>
    <tag k="bridge" v="yes"/>
    <tag k="created_by" v="JOSM"/>
    <tag k="highway" v="primary"/>
    <tag k="layer" v="1"/>
    <tag k="oneway" v="yes"/>
  </way>
  <way id="23052319" version="2" timestamp="2009-03-11T19:31:34Z" uid="20949" user="Ebenezer" changeset="788405">
    <nd ref="248751652"/>
    <nd ref="248751653"/>
    <nd ref="248751654"/>
    <tag k="bridge" v="yes"/>
    <tag k="created_by" v="Potlatch 0.10f"/>
    <tag k="highway" v="primary"/>
    <tag k="layer" v="1"/>
    <tag k="name" v="King Street"/>
    <tag k="oneway" v="yes"/>
  </way>
  <way id="23052319" version="3" timestamp="2009-11-14T12:05:21Z" uid="117890" user="Jonathan Trott" changeset="3112508">
    <nd ref="248751652"/>
    <nd ref="248751653"/>
    <nd ref="248751654"/>
    <tag k="bridge" v="yes"/>
    <tag k="highway" v="primary"/>
    <tag k="layer" v="1"/>
    <tag k="name" v="King Street"/>
    <tag k="oneway" v="yes"/>
  </way>
  <way id="23052319" version="4" timestamp="2009-12-27T06:14:53Z" uid="12203" user="brainwad" changeset="3460242">
    <nd ref="248751652"/>
    <nd ref="248751653"/>
    <nd ref="248751654"/>
    <tag k="bridge" v="yes"/>
    <tag k="highway" v="primary"/>
    <tag k="layer" v="1"/>
    <tag k="maxspeed" v="50"/>
    <tag k="name" v="King Street"/>
    <tag k="oneway" v="yes"/>
  </way>
  <way id="23052319" version="5" timestamp="2012-01-05T05:24:50Z" uid="77586" user="wolftracker" changeset="10297630">
    <nd ref="248751652"/>
    <nd ref="248751653"/>
    <nd ref="248751654"/>
    <tag k="highway" v="primary"/>
    <tag k="maxspeed" v="50"/>
    <tag k="name" v="King Street"/>
    <tag k="oneway" v="yes"/>
  </way>
  <way id="23052320" version="1" timestamp="2008-02-22T07:12:48Z" uid="7617" user="Franc" changeset="176304">
    <nd ref="248751654"/>
    <nd ref="248751655"/>
    <tag k="created_by" v="JOSM"/>
    <tag k="highway" v="primary"/>
    <tag k="name" v="King Street"/>
    <tag k="oneway" v="yes"/>
    <tag k="ref" v="S66"/>
  </way>
  <way id="23052320" version="2" timestamp="2008-06-29T07:13:22Z" uid="12203" user="brainwad" changeset="336547">
    <nd ref="248751654"/>
    <nd ref="248751655"/>
    <tag k="created_by" v="Potlatch 0.9c"/>
    <tag k="highway" v="primary"/>
    <tag k="name" v="King Street"/>
  </way>
  <way id="23052320" version="3" timestamp="2009-11-14T12:05:22Z" uid="117890" user="Jonathan Trott" changeset="3112508">
    <nd ref="248751654"/>
    <nd ref="248751655"/>
    <tag k="highway" v="primary"/>
    <tag k="name" v="King Street"/>
  </way>
  <way id="23052320" version="4" timestamp="2009-12-27T06:14:53Z" uid="12203" user="brainwad" changeset="3460242">
    <nd ref="248751654"/>
    <nd ref="248751655"/>
    <tag k="highway" v="primary"/>
    <tag k="maxspeed" v="50"/>
    <tag k="name" v="King Street"/>
  </way>
  <way id="23052320" version="5" timestamp="2010-04-01T10:40:14Z" uid="7617" user="Franc" changeset="4292890">
    <nd ref="248751654"/>
    <nd ref="679719753"/>
    <nd ref="248751655"/>
    <tag k="highway" v="primary"/>
    <tag k="maxspeed" v="50"/>
    <tag k="name" v="King Street"/>
  </way>
  <way id="23052320" version="6" timestamp="2010-07-14T02:14:15Z" uid="30201" user="rrankin" changeset="5213661">
    <nd ref="248751654"/>
    <nd ref="248751655"/>
    <tag k="highway" v="primary"/>
    <tag k="maxspeed" v="50"/>
    <tag k="name" v="King Street"/>
  </way>
  <way id="23052321" version="1" timestamp="2008-02-22T07:12:48Z" uid="7617" user="Franc" changeset="176304">
    <nd ref="28449234"/>
    <nd ref="10283578"/>
    <nd ref="29782287"/>
    <nd ref="26410190"/>
    <nd ref="29782320"/>
    <nd ref="29782182"/>
    <tag k="created_by" v="Potlatch alpha"/>
    <tag k="highway" v="primary"/>
    <tag k="name" v="King Street"/>
  </way>
  <way id="23052321" version="2" timestamp="2008-04-28T20:04:34Z" uid="20949" user="Ebenezer" changeset="279118">
    <nd ref="28449234"/>
    <nd ref="10283578"/>
    <tag k="created_by" v="Potlatch 0.8b"/>
    <tag k="highway" v="primary"/>
    <tag k="name" v="King Street"/>
  </way>
  <way id="23052321" version="3" timestamp="2008-04-28T20:04:47Z" uid="20949" user="Ebenezer" changeset="279118">
    <nd ref="28449234"/>
    <nd ref="10283578"/>
    <tag k="created_by" v="Potlatch 0.8b"/>
    <tag k="highway" v="primary"/>
    <tag k="lcn" v="yes"/>
    <tag k="lcn_ref" v="L10"/>
    <tag k="name" v="King Street"/>
  </way>
  <way id="23052321" version="4" timestamp="2009-11-14T12:05:13Z" uid="117890" user="Jonathan Trott" changeset="3112508">
    <nd ref="28449234"/>
    <nd ref="10283578"/>
    <tag k="highway" v="primary"/>
    <tag k="lcn" v="yes"/>
    <tag k="lcn_ref" v="L10"/>
    <tag k="name" v="King Street"/>
  </way>
  <way id="23052321" version="5" timestamp="2009-12-27T06:14:51Z" uid="12203" user="brainwad" changeset="3460242">
    <nd ref="28449234"/>
    <nd ref="10283578"/>
    <tag k="highway" v="primary"/>
    <tag k="lcn" v="yes"/>
    <tag k="lcn_ref" v="L10"/>
    <tag k="maxspeed" v="50"/>
    <tag k="name" v="King Street"/>
  </way>
  <way id="23052322" version="1" timestamp="2008-02-22T07:12:49Z" uid="7617" user="Franc" changeset="176304">
    <nd ref="248751661"/>
    <nd ref="248751650"/>
    <nd ref="248751662"/>
    <nd ref="248751663"/>
    <nd ref="248751664"/>
    <nd ref="248751665"/>
    <nd ref="248751666"/>
    <nd ref="139319411"/>
    <tag k="created_by" v="JOSM"/>
    <tag k="highway" v="primary"/>
    <tag k="name" v="Princes Highway"/>
    <tag k="oneway" v="yes"/>
    <tag k="ref" v="S66"/>
  </way>
  <way id="23052322" version="2" timestamp="2008-03-19T09:24:04Z" uid="7617" user="Franc" changeset="349597">
    <nd ref="248751661"/>
    <nd ref="248751650"/>
    <nd ref="252853323"/>
    <nd ref="248751662"/>
    <nd ref="248751663"/>
    <nd ref="248751664"/>
    <nd ref="248751665"/>
    <nd ref="248751666"/>
    <nd ref="139319411"/>
    <tag k="created_by" v="JOSM"/>
    <tag k="highway" v="primary"/>
    <tag k="name" v="Princes Highway"/>
    <tag k="oneway" v="yes"/>
    <tag k="ref" v="S66"/>
  </way>
  <way id="23052322" version="3" timestamp="2008-06-29T07:12:44Z" uid="12203" user="brainwad" changeset="336547">
    <nd ref="248751661"/>
    <nd ref="248751650"/>
    <nd ref="252853323"/>
    <nd ref="248751662"/>
    <nd ref="248751663"/>
    <nd ref="248751664"/>
    <nd ref="248751665"/>
    <nd ref="248751666"/>
    <nd ref="139319411"/>
    <tag k="created_by" v="Potlatch 0.9c"/>
    <tag k="highway" v="primary"/>
    <tag k="name" v="Princes Highway"/>
    <tag k="oneway" v="yes"/>
  </way>
  <way id="23052322" version="4" timestamp="2009-12-27T06:14:48Z" uid="12203" user="brainwad" changeset="3460242">
    <nd ref="248751661"/>
    <nd ref="248751650"/>
    <nd ref="252853323"/>
    <nd ref="248751662"/>
    <nd ref="248751663"/>
    <nd ref="248751664"/>
    <nd ref="248751665"/>
    <nd ref="248751666"/>
    <nd ref="139319411"/>
    <tag k="highway" v="primary"/>
    <tag k="maxspeed" v="60"/>
    <tag k="name" v="Princes Highway"/>
    <tag k="oneway" v="yes"/>
  </way>
  <way id="23052322" version="5" timestamp="2010-04-01T10:40:12Z" uid="7617" user="Franc" changeset="4292890">
    <nd ref="248751661"/>
    <nd ref="248751650"/>
    <nd ref="252853323"/>
    <nd ref="248751662"/>
    <nd ref="248751663"/>
    <nd ref="248751664"/>
    <nd ref="679719731"/>
    <nd ref="248751665"/>
    <nd ref="248751666"/>
    <nd ref="139319411"/>
    <tag k="highway" v="primary"/>
    <tag k="maxspeed" v="60"/>
    <tag k="name" v="Princes Highway"/>
    <tag k="oneway" v="yes"/>
  </way>
  <way id="23052322" version="6" timestamp="2010-09-12T01:30:34Z" uid="7617" user="Franc" changeset="5755261">
    <nd ref="248751661"/>
    <nd ref="248751650"/>
    <nd ref="252853323"/>
    <nd ref="248751662"/>
    <nd ref="248751663"/>
    <nd ref="248751664"/>
    <nd ref="679719731"/>
    <nd ref="248751665"/>
    <nd ref="907693519"/>
    <nd ref="248751666"/>
    <nd ref="139319411"/>
    <tag k="highway" v="primary"/>
    <tag k="maxspeed" v="60"/>
    <tag k="name" v="Princes Highway"/>
    <tag k="oneway" v="yes"/>
  </way>
  <way id="23052322" version="7" timestamp="2011-04-20T13:11:45Z" uid="7617" user="Franc" changeset="7916137">
    <nd ref="248751661"/>
    <nd ref="248751650"/>
    <nd ref="252853323"/>
    <nd ref="248751662"/>
    <nd ref="248751663"/>
    <tag k="highway" v="primary"/>
    <tag k="maxspeed" v="60"/>
    <tag k="name" v="Princes Highway"/>
    <tag k="oneway" v="yes"/>
  </way>
  <way id="23052323" version="1" timestamp="2008-02-22T07:12:50Z" uid="7617" user="Franc" changeset="176304">
    <nd ref="248751658"/>
    <nd ref="248751651"/>
    <tag k="created_by" v="JOSM"/>
    <tag k="highway" v="unclassified"/>
    <tag k="name" v="Barwon Park Road"/>
    <tag k="oneway" v="yes"/>
  </way>
  <way id="23052323" version="2" timestamp="2009-11-14T12:05:08Z" uid="117890" user="Jonathan Trott" changeset="3112508">
    <nd ref="248751658"/>
    <nd ref="248751651"/>
    <tag k="highway" v="unclassified"/>
    <tag k="name" v="Barwon Park Road"/>
    <tag k="oneway" v="yes"/>
  </way>
  <way id="23052323" version="3" timestamp="2011-02-11T06:30:43Z" uid="389517" user="good2010" changeset="7252239">
    <nd ref="248751658"/>
    <nd ref="1146760639"/>
    <nd ref="248751651"/>
    <tag k="highway" v="unclassified"/>
    <tag k="maxspeed" v="50"/>
    <tag k="name" v="Barwon Park Road"/>
    <tag k="oneway" v="yes"/>
  </way>
  <way id="23052323" version="4" timestamp="2011-04-20T13:11:20Z" uid="7617" user="Franc" changeset="7916137">
    <nd ref="248751658"/>
    <nd ref="1252392505"/>
    <nd ref="1146760639"/>
    <nd ref="248751651"/>
    <tag k="highway" v="unclassified"/>
    <tag k="maxspeed" v="50"/>
    <tag k="name" v="Barwon Park Road"/>
    <tag k="oneway" v="yes"/>
  </way>
  <way id="23052324" version="1" timestamp="2008-02-22T07:12:51Z" uid="7617" user="Franc" changeset="176304">
    <nd ref="248751669"/>
    <nd ref="248751670"/>
    <tag k="created_by" v="JOSM"/>
    <tag k="highway" v="service"/>
    <tag k="source" v="yahoo_imagery"/>
  </way>
  <way id="23052324" version="2" timestamp="2009-11-25T06:06:15Z" uid="7617" user="Franc" changeset="3209722">
    <nd ref="248751669"/>
    <nd ref="570577070"/>
    <nd ref="248751670"/>
    <tag k="highway" v="service"/>
    <tag k="source" v="yahoo_imagery"/>
  </way>
  <way id="23052324" version="3" timestamp="2010-09-12T01:30:35Z" uid="7617" user="Franc" changeset="5755261">
    <nd ref="248751669"/>
    <nd ref="570577070"/>
    <nd ref="248751670"/>
    <tag k="highway" v="service"/>
    <tag k="name" v="Edith Lane"/>
    <tag k="source" v="nearmap"/>
    <tag k="source:name" v="survey"/>
  </way>
  <way id="23052335" version="1" timestamp="2008-02-22T07:16:02Z" uid="7617" user="Franc" changeset="176304">
    <nd ref="248752102"/>
    <nd ref="248752103"/>
    <nd ref="248752104"/>
    <nd ref="248752105"/>
    <nd ref="248752106"/>
    <nd ref="248752107"/>
    <nd ref="248752108"/>
    <nd ref="248752109"/>
    <nd ref="248752110"/>
    <nd ref="248752111"/>
    <nd ref="248752112"/>
    <nd ref="248752113"/>
    <nd ref="248752114"/>
    <nd ref="248752115"/>
    <nd ref="248752116"/>
    <nd ref="248752117"/>
    <nd ref="248752118"/>
    <nd ref="248752119"/>
    <nd ref="248752102"/>
    <tag k="amenity" v="parking"/>
    <tag k="created_by" v="JOSM"/>
  </way>
  <way id="23052335" version="2" timestamp="2009-11-14T12:05:07Z" uid="117890" user="Jonathan Trott" changeset="3112508">
    <nd ref="248752102"/>
    <nd ref="248752103"/>
    <nd ref="248752104"/>
    <nd ref="248752105"/>
    <nd ref="248752106"/>
    <nd ref="248752107"/>
    <nd ref="248752108"/>
    <nd ref="248752109"/>
    <nd ref="248752110"/>
    <nd ref="248752111"/>
    <nd ref="248752112"/>
    <nd ref="248752113"/>
    <nd ref="248752114"/>
    <nd ref="248752115"/>
    <nd ref="248752116"/>
    <nd ref="248752117"/>
    <nd ref="248752118"/>
    <nd ref="248752119"/>
    <nd ref="248752102"/>
    <tag k="amenity" v="parking"/>
  </way>
  <way id="23052336" version="1" timestamp="2008-02-22T07:16:03Z" uid="7617" user="Franc" changeset="176304">
    <nd ref="15081855"/>
    <nd ref="248751657"/>
    <tag k="created_by" v="JOSM"/>
    <tag k="highway" v="service"/>
    <tag k="source" v="yahoo_imagery"/>
  </way>
  <way id="23052336" version="2" timestamp="2009-11-14T12:05:20Z" uid="117890" user="Jonathan Trott" changeset="3112508">
    <nd ref="15081855"/>
    <nd ref="248751657"/>
    <tag k="highway" v="service"/>
    <tag k="source" v="yahoo_imagery"/>
  </way>
  <way id="23052336" version="3" timestamp="2010-06-10T09:19:11Z" uid="7617" user="Franc" changeset="4952369">
    <nd ref="15081855"/>
    <nd ref="248751657"/>
    <tag k="highway" v="service"/>
    <tag k="service" v="parking_aisle"/>
    <tag k="source" v="yahoo_imagery"/>
  </way>
  <way id="23052362" version="1" timestamp="2008-02-22T07:22:39Z" uid="7617" user="Franc" changeset="176304">
    <nd ref="248752370"/>
    <nd ref="248752371"/>
    <nd ref="248752372"/>
    <nd ref="248752373"/>
    <nd ref="248752370"/>
    <tag k="created_by" v="JOSM"/>
    <tag k="leisure" v="park"/>
    <tag k="source" v="yahoo_imagery"/>
  </way>
  <way id="23052396" version="3" timestamp="2008-05-25T11:45:43Z" uid="18775" user="drlizau" changeset="520012">
    <nd ref="248753259"/>
    <nd ref="248753260"/>
    <tag k="created_by" v="Potlatch 0.7b"/>
    <tag k="highway" v="residential"/>
    <tag k="name" v="Croome Lane"/>
  </way>
  <way id="23052396" version="4" timestamp="2010-07-07T19:30:57Z" uid="74617" user="JohnSmith" changeset="5161069">
    <nd ref="248753259"/>
    <nd ref="248753260"/>
    <tag k="highway" v="residential"/>
    <tag k="maxspeed" v="50"/>
    <tag k="maxspeed:source" v="default residential speed limit in Australia"/>
    <tag k="name" v="Croome Lane"/>
  </way>
  <way id="23052396" version="5" timestamp="2012-01-16T00:47:13Z" uid="147510" user="woodpeck_fixbot" changeset="10404406">
    <nd ref="248753259"/>
    <nd ref="248753260"/>
    <tag k="highway" v="residential"/>
    <tag k="name" v="Croome Lane"/>
  </way>
  <way id="23052406" version="7" timestamp="2008-08-22T04:28:39Z" uid="30201" user="rrankin" changeset="369548">
    <nd ref="248753412"/>
    <nd ref="33024916"/>
    <tag k="created_by" v="Potlatch 0.7b"/>
    <tag k="highway" v="trunk"/>
    <tag k="name" v="Princes Highway"/>
    <tag k="oneway" v="yes"/>
    <tag k="ref" v="NR1"/>
  </way>
  <way id="23052406" version="8" timestamp="2010-03-30T09:42:54Z" uid="74617" user="JohnSmith" changeset="4274898">
    <nd ref="248753412"/>
    <nd ref="678344295"/>
    <nd ref="678344293"/>
    <nd ref="33024916"/>
    <tag k="highway" v="trunk"/>
    <tag k="maxspeed" v="70"/>
    <tag k="name" v="Princes Highway"/>
    <tag k="oneway" v="yes"/>
  </way>
  <way id="23052406" version="9" timestamp="2010-06-16T14:45:55Z" uid="280711" user="kbosward" changeset="5001210">
    <nd ref="248753412"/>
    <nd ref="678344295"/>
    <nd ref="678344293"/>
    <nd ref="33024916"/>
    <tag k="highway" v="trunk_link"/>
    <tag k="maxspeed" v="70"/>
    <tag k="name" v="Princes Highway"/>
    <tag k="oneway" v="yes"/>
  </way>
  <way id="23052406" version="10" timestamp="2010-09-02T11:09:00Z" uid="79475" user="AlexOnTheBus" changeset="5661297">
    <nd ref="248753412"/>
    <nd ref="678344295"/>
    <nd ref="678344293"/>
    <nd ref="33024916"/>
    <tag k="highway" v="motorway_link"/>
    <tag k="maxspeed" v="70"/>
    <tag k="name" v="Princes Highway"/>
    <tag k="oneway" v="yes"/>
  </way>
  <way id="23052406" version="11" timestamp="2010-09-19T11:01:01Z" uid="79475" user="AlexOnTheBus" changeset="5818567">
    <nd ref="248753412"/>
    <nd ref="678344295"/>
    <nd ref="678344293"/>
    <nd ref="33024916"/>
    <tag k="highway" v="trunk_link"/>
    <tag k="maxspeed" v="70"/>
    <tag k="oneway" v="yes"/>
  </way>
  <way id="23052406" version="12" timestamp="2012-01-16T00:47:14Z" uid="147510" user="woodpeck_fixbot" changeset="10404406">
    <nd ref="248753412"/>
    <nd ref="678344295"/>
    <nd ref="678344293"/>
    <nd ref="33024916"/>
    <tag k="highway" v="trunk_link"/>
    <tag k="oneway" v="yes"/>
  </way>
  <way id="23052409" version="4" timestamp="2010-03-30T09:42:56Z" uid="74617" user="JohnSmith" changeset="4274898"/>
  <way id="23052426" version="6" timestamp="2008-08-23T04:47:23Z" uid="30201" user="rrankin" changeset="373650">
    <nd ref="248753515"/>
    <nd ref="248753516"/>
    <nd ref="248753517"/>
    <nd ref="248753518"/>
    <nd ref="248753519"/>
    <nd ref="276370224"/>
    <nd ref="248753520"/>
    <tag k="created_by" v="Potlatch 0.7b"/>
    <tag k="highway" v="residential"/>
    <tag k="name" v="Wollamai Crescent"/>
  </way>
  <way id="23052426" version="7" timestamp="2008-10-25T06:14:25Z" uid="26313" user="wombass" changeset="570341">
    <nd ref="248753515"/>
    <nd ref="248753516"/>
    <nd ref="248753517"/>
    <nd ref="307352610"/>
    <nd ref="248753518"/>
    <nd ref="248753519"/>
    <nd ref="276370224"/>
    <nd ref="248753520"/>
    <tag k="created_by" v="Potlatch 0.7b"/>
    <tag k="highway" v="residential"/>
    <tag k="name" v="Wollamai Crescent"/>
  </way>
  <way id="23052426" version="8" timestamp="2010-07-07T19:37:54Z" uid="74617" user="JohnSmith" changeset="5161069">
    <nd ref="248753515"/>
    <nd ref="248753516"/>
    <nd ref="248753517"/>
    <nd ref="307352610"/>
    <nd ref="248753518"/>
    <nd ref="248753519"/>
    <nd ref="276370224"/>
    <nd ref="248753520"/>
    <tag k="highway" v="residential"/>
    <tag k="maxspeed" v="50"/>
    <tag k="maxspeed:source" v="default residential speed limit in Australia"/>
    <tag k="name" v="Wollamai Crescent"/>
  </way>
  <way id="23052426" version="9" timestamp="2012-01-16T00:47:16Z" uid="147510" user="woodpeck_fixbot" changeset="10404406">
    <nd ref="248753515"/>
    <nd ref="248753516"/>
    <nd ref="248753517"/>
    <nd ref="307352610"/>
    <nd ref="248753518"/>
    <nd ref="248753519"/>
    <nd ref="276370224"/>
    <nd ref="248753520"/>
    <tag k="highway" v="residential"/>
    <tag k="name" v="Wollamai Crescent"/>
  </way>
  <way id="23052433" version="12" timestamp="2010-03-22T23:43:41Z" uid="30201" user="rrankin" changeset="4208344">
    <nd ref="248753567"/>
    <nd ref="248753566"/>
    <nd ref="248753565"/>
    <nd ref="248753564"/>
    <nd ref="248753563"/>
    <nd ref="248753840"/>
    <nd ref="248753889"/>
    <nd ref="672546883"/>
    <nd ref="291543876"/>
    <tag k="highway" v="service"/>
  </way>
  <way id="23052454" version="6" timestamp="2011-03-18T20:17:35Z" uid="9581" user="Lobelt" changeset="7598945">
    <nd ref="259714393"/>
    <nd ref="259714391"/>
    <nd ref="259714390"/>
    <nd ref="259714388"/>
    <nd ref="279820023"/>
    <nd ref="1207748628"/>
    <nd ref="1207748560"/>
    <nd ref="279820337"/>
    <nd ref="259714387"/>
    <nd ref="1207748583"/>
    <nd ref="259714386"/>
    <nd ref="1207748626"/>
    <nd ref="1207748590"/>
    <nd ref="1207748627"/>
    <nd ref="1207748545"/>
    <nd ref="259714385"/>
    <tag k="highway" v="tertiary"/>
    <tag k="ref" v="K 30"/>
  </way>
  <way id="23052454" version="7" timestamp="2011-06-27T16:01:57Z" uid="245137" user="maurice2010" changeset="8563490">
    <nd ref="259714393"/>
    <nd ref="1341268496"/>
    <nd ref="1341266937"/>
    <nd ref="1341268269"/>
    <nd ref="1341267603"/>
    <nd ref="1341267617"/>
    <nd ref="1341267614"/>
    <nd ref="1341268589"/>
    <nd ref="1341267232"/>
    <nd ref="1341267832"/>
    <nd ref="1341267317"/>
    <nd ref="1341268567"/>
    <nd ref="1341268150"/>
    <nd ref="1341268539"/>
    <nd ref="1341268448"/>
    <nd ref="1341267704"/>
    <nd ref="1341268504"/>
    <nd ref="1341268370"/>
    <nd ref="1341268421"/>
    <nd ref="1341267961"/>
    <nd ref="1341268343"/>
    <nd ref="1341267477"/>
    <nd ref="1341268288"/>
    <nd ref="1341267862"/>
    <nd ref="1341267126"/>
    <nd ref="1341267808"/>
    <nd ref="1341267576"/>
    <nd ref="1341267628"/>
    <nd ref="1341267657"/>
    <nd ref="1341268373"/>
    <nd ref="1341268032"/>
    <nd ref="1341268029"/>
    <nd ref="1341267985"/>
    <nd ref="1341267690"/>
    <nd ref="1341267273"/>
    <nd ref="1341267269"/>
    <nd ref="1341268084"/>
    <nd ref="1341267920"/>
    <nd ref="1341268436"/>
    <nd ref="1341267018"/>
    <nd ref="1341267068"/>
    <nd ref="1341268517"/>
    <nd ref="1341267768"/>
    <nd ref="1341267850"/>
    <nd ref="1341268244"/>
    <nd ref="1341267443"/>
    <nd ref="1341267794"/>
    <nd ref="1341268617"/>
    <nd ref="1341267493"/>
    <nd ref="1341266934"/>
    <nd ref="1341268218"/>
    <nd ref="1341267378"/>
    <nd ref="1341267135"/>
    <nd ref="1341268564"/>
    <nd ref="1341268268"/>
    <nd ref="1341268525"/>
    <nd ref="1341268464"/>
    <nd ref="1341268430"/>
    <nd ref="1341268512"/>
    <nd ref="1341268470"/>
    <nd ref="1341268406"/>
    <nd ref="1341267320"/>
    <nd ref="1341268477"/>
    <nd ref="1341268524"/>
    <nd ref="1341268453"/>
    <nd ref="1341268479"/>
    <nd ref="1341268547"/>
    <nd ref="1341268362"/>
    <nd ref="1341267813"/>
    <nd ref="1341268235"/>
    <nd ref="1341267396"/>
    <nd ref="1341268177"/>
    <nd ref="1341267921"/>
    <nd ref="1341267322"/>
    <nd ref="1341267354"/>
    <nd ref="1341268381"/>
    <nd ref="1341267779"/>
    <nd ref="1341267860"/>
    <nd ref="1341268545"/>
    <nd ref="1341267726"/>
    <nd ref="1341267471"/>
    <nd ref="1341267923"/>
    <nd ref="1341267383"/>
    <nd ref="1341267422"/>
    <nd ref="259714385"/>
    <tag k="highway" v="tertiary"/>
    <tag k="ref" v="K 30"/>
  </way>
  <way id="23052475" version="6" timestamp="2010-03-23T00:28:28Z" uid="30201" user="rrankin" changeset="4208534">
    <nd ref="248753840"/>
    <nd ref="672553937"/>
    <nd ref="248753844"/>
    <nd ref="248753885"/>
    <nd ref="248753841"/>
    <nd ref="248753842"/>
    <nd ref="248753843"/>
    <nd ref="248753844"/>
    <tag k="highway" v="service"/>
  </way>
  <way id="23052476" version="6" timestamp="2009-06-11T09:36:39Z" uid="27600" user="Islanit" changeset="1485228">
    <nd ref="14886726"/>
    <nd ref="14886725"/>
    <nd ref="91761568"/>
    <nd ref="418692933"/>
    <nd ref="26729251"/>
    <tag k="created_by" v="Potlatch 0.9c"/>
    <tag k="highway" v="unclassified"/>
    <tag k="maxspeed" v="30"/>
    <tag k="name" v="Schultzweg"/>
    <tag k="oneway" v="yes"/>
    <tag k="postal_code" v="20097"/>
  </way>
  <way id="23052476" version="7" timestamp="2009-12-12T13:15:56Z" uid="161619" user="FvGordon" changeset="3355637">
    <nd ref="14886726"/>
    <nd ref="14886725"/>
    <nd ref="91761568"/>
    <tag k="highway" v="unclassified"/>
    <tag k="maxspeed" v="30"/>
    <tag k="name" v="Schultzweg"/>
    <tag k="oneway" v="yes"/>
    <tag k="postal_code" v="20097"/>
  </way>
  <way id="23052476" version="8" timestamp="2010-06-20T13:43:02Z" uid="63375" user="Divjo" changeset="5033078">
    <nd ref="583203501"/>
    <nd ref="14886725"/>
    <nd ref="91761568"/>
    <tag k="highway" v="unclassified"/>
    <tag k="maxspeed" v="30"/>
    <tag k="name" v="Schultzweg"/>
    <tag k="oneway" v="yes"/>
    <tag k="postal_code" v="20097"/>
  </way>
  <way id="23052476" version="9" timestamp="2011-12-31T15:30:34Z" uid="63375" user="Divjo" changeset="10255794"/>
  <way id="23052515" version="3" timestamp="2008-08-21T01:30:57Z" uid="30201" user="rrankin" changeset="356651">
    <nd ref="248754742"/>
    <nd ref="248754743"/>
    <tag k="created_by" v="Potlatch 0.7b"/>
    <tag k="highway" v="residential"/>
    <tag k="name" v="Normanby Place"/>
  </way>
  <way id="23052515" version="4" timestamp="2010-06-04T14:03:29Z" uid="280711" user="kbosward" changeset="4901054">
    <nd ref="248754742"/>
    <nd ref="248754743"/>
    <tag k="highway" v="residential"/>
    <tag k="name" v="Normanby Place"/>
  </way>
  <way id="23052515" version="5" timestamp="2010-07-07T19:31:12Z" uid="74617" user="JohnSmith" changeset="5161069">
    <nd ref="248754742"/>
    <nd ref="248754743"/>
    <tag k="highway" v="residential"/>
    <tag k="maxspeed" v="50"/>
    <tag k="maxspeed:source" v="default residential speed limit in Australia"/>
    <tag k="name" v="Normanby Place"/>
  </way>
  <way id="23052515" version="6" timestamp="2012-01-16T00:47:17Z" uid="147510" user="woodpeck_fixbot" changeset="10404406">
    <nd ref="248754742"/>
    <nd ref="248754743"/>
    <tag k="highway" v="residential"/>
    <tag k="name" v="Normanby Place"/>
  </way>
  <way id="23052519" version="7" timestamp="2008-08-21T01:30:59Z" uid="30201" user="rrankin" changeset="356651">
    <nd ref="248754852"/>
    <nd ref="248754853"/>
    <nd ref="248754868"/>
    <nd ref="248754854"/>
    <nd ref="248754855"/>
    <nd ref="248754856"/>
    <nd ref="248754857"/>
    <nd ref="248754858"/>
    <nd ref="248754859"/>
    <nd ref="248754860"/>
    <nd ref="248754861"/>
    <nd ref="248754862"/>
    <nd ref="248754863"/>
    <nd ref="248754864"/>
    <nd ref="248754865"/>
    <nd ref="248754866"/>
    <nd ref="248754867"/>
    <nd ref="248754868"/>
    <tag k="created_by" v="Potlatch 0.7b"/>
    <tag k="highway" v="residential"/>
    <tag k="name" v="Roper Road"/>
  </way>
  <way id="23052519" version="8" timestamp="2010-06-04T14:03:24Z" uid="280711" user="kbosward" changeset="4901054">
    <nd ref="248754852"/>
    <nd ref="248754853"/>
    <nd ref="248754868"/>
    <nd ref="248754854"/>
    <nd ref="248754855"/>
    <nd ref="248754856"/>
    <nd ref="248754857"/>
    <nd ref="248754858"/>
    <nd ref="248754859"/>
    <nd ref="248754860"/>
    <nd ref="248754861"/>
    <nd ref="248754862"/>
    <nd ref="248754863"/>
    <nd ref="248754864"/>
    <nd ref="248754865"/>
    <nd ref="248754866"/>
    <nd ref="248754867"/>
    <nd ref="248754868"/>
    <tag k="highway" v="residential"/>
    <tag k="name" v="Roper Road"/>
  </way>
  <way id="23052519" version="9" timestamp="2010-07-07T19:33:21Z" uid="74617" user="JohnSmith" changeset="5161069">
    <nd ref="248754852"/>
    <nd ref="248754853"/>
    <nd ref="248754868"/>
    <nd ref="248754854"/>
    <nd ref="248754855"/>
    <nd ref="248754856"/>
    <nd ref="248754857"/>
    <nd ref="248754858"/>
    <nd ref="248754859"/>
    <nd ref="248754860"/>
    <nd ref="248754861"/>
    <nd ref="248754862"/>
    <nd ref="248754863"/>
    <nd ref="248754864"/>
    <nd ref="248754865"/>
    <nd ref="248754866"/>
    <nd ref="248754867"/>
    <nd ref="248754868"/>
    <tag k="highway" v="residential"/>
    <tag k="maxspeed" v="50"/>
    <tag k="maxspeed:source" v="default residential speed limit in Australia"/>
    <tag k="name" v="Roper Road"/>
  </way>
  <way id="23052519" version="10" timestamp="2010-08-08T07:37:36Z" uid="280711" user="kbosward" changeset="5430051">
    <nd ref="248754852"/>
    <nd ref="248754853"/>
    <nd ref="248754868"/>
    <nd ref="248754854"/>
    <nd ref="849322402"/>
    <nd ref="248754855"/>
    <nd ref="849322407"/>
    <nd ref="248754856"/>
    <nd ref="248754857"/>
    <nd ref="248754858"/>
    <nd ref="248754859"/>
    <nd ref="248754860"/>
    <nd ref="248754861"/>
    <nd ref="248754862"/>
    <nd ref="849322422"/>
    <nd ref="248754863"/>
    <nd ref="248754864"/>
    <nd ref="248754865"/>
    <nd ref="248754866"/>
    <nd ref="248754867"/>
    <nd ref="248754868"/>
    <tag k="highway" v="residential"/>
    <tag k="maxspeed" v="50"/>
    <tag k="maxspeed:source" v="default residential speed limit in Australia"/>
    <tag k="name" v="Roper Road"/>
  </way>
  <way id="23052519" version="11" timestamp="2012-01-16T00:47:19Z" uid="147510" user="woodpeck_fixbot" changeset="10404406">
    <nd ref="248754852"/>
    <nd ref="248754853"/>
    <nd ref="248754868"/>
    <nd ref="248754854"/>
    <nd ref="849322402"/>
    <nd ref="248754855"/>
    <nd ref="849322407"/>
    <nd ref="248754856"/>
    <nd ref="248754857"/>
    <nd ref="248754858"/>
    <nd ref="248754859"/>
    <nd ref="248754860"/>
    <nd ref="248754861"/>
    <nd ref="248754862"/>
    <nd ref="849322422"/>
    <nd ref="248754863"/>
    <nd ref="248754864"/>
    <nd ref="248754865"/>
    <nd ref="248754866"/>
    <nd ref="248754867"/>
    <nd ref="248754868"/>
    <tag k="highway" v="residential"/>
    <tag k="name" v="Roper Road"/>
  </way>
  <way id="23052536" version="4" timestamp="2008-08-21T01:30:54Z" uid="30201" user="rrankin" changeset="356651">
    <nd ref="248755062"/>
    <nd ref="248755063"/>
    <nd ref="248755064"/>
    <nd ref="248755065"/>
    <nd ref="248755066"/>
    <nd ref="248755067"/>
    <nd ref="248755104"/>
    <nd ref="248755068"/>
    <nd ref="248755069"/>
    <nd ref="248755070"/>
    <nd ref="248755071"/>
    <nd ref="247707293"/>
    <tag k="created_by" v="Potlatch 0.7b"/>
    <tag k="highway" v="residential"/>
    <tag k="name" v="Barcoo Circuit"/>
  </way>
  <way id="23052536" version="5" timestamp="2010-07-07T19:32:31Z" uid="74617" user="JohnSmith" changeset="5161069">
    <nd ref="248755062"/>
    <nd ref="248755063"/>
    <nd ref="248755064"/>
    <nd ref="248755065"/>
    <nd ref="248755066"/>
    <nd ref="248755067"/>
    <nd ref="248755104"/>
    <nd ref="248755068"/>
    <nd ref="248755069"/>
    <nd ref="248755070"/>
    <nd ref="248755071"/>
    <nd ref="247707293"/>
    <tag k="highway" v="residential"/>
    <tag k="maxspeed" v="50"/>
    <tag k="maxspeed:source" v="default residential speed limit in Australia"/>
    <tag k="name" v="Barcoo Circuit"/>
  </way>
  <way id="23052536" version="6" timestamp="2010-08-08T07:37:35Z" uid="280711" user="kbosward" changeset="5430051">
    <nd ref="248755062"/>
    <nd ref="248755063"/>
    <nd ref="248755064"/>
    <nd ref="248755065"/>
    <nd ref="849322389"/>
    <nd ref="849322390"/>
    <nd ref="248755066"/>
    <nd ref="248755067"/>
    <nd ref="248755104"/>
    <nd ref="248755068"/>
    <nd ref="248755069"/>
    <nd ref="248755070"/>
    <nd ref="248755071"/>
    <nd ref="247707293"/>
    <tag k="highway" v="residential"/>
    <tag k="maxspeed" v="50"/>
    <tag k="maxspeed:source" v="default residential speed limit in Australia"/>
    <tag k="name" v="Barcoo Circuit"/>
  </way>
  <way id="23052536" version="7" timestamp="2012-01-16T00:47:21Z" uid="147510" user="woodpeck_fixbot" changeset="10404406">
    <nd ref="248755062"/>
    <nd ref="248755063"/>
    <nd ref="248755064"/>
    <nd ref="248755065"/>
    <nd ref="849322389"/>
    <nd ref="849322390"/>
    <nd ref="248755066"/>
    <nd ref="248755067"/>
    <nd ref="248755104"/>
    <nd ref="248755068"/>
    <nd ref="248755069"/>
    <nd ref="248755070"/>
    <nd ref="248755071"/>
    <nd ref="247707293"/>
    <tag k="highway" v="residential"/>
    <tag k="name" v="Barcoo Circuit"/>
  </way>
  <way id="23052541" version="3" timestamp="2010-07-07T19:31:45Z" uid="74617" user="JohnSmith" changeset="5161069">
    <nd ref="248755103"/>
    <nd ref="248755104"/>
    <tag k="highway" v="residential"/>
    <tag k="maxspeed" v="50"/>
    <tag k="maxspeed:source" v="default residential speed limit in Australia"/>
    <tag k="name" v="Cooper Place"/>
  </way>
  <way id="23052541" version="4" timestamp="2012-01-16T00:47:22Z" uid="147510" user="woodpeck_fixbot" changeset="10404406">
    <nd ref="248755103"/>
    <nd ref="248755104"/>
    <tag k="highway" v="residential"/>
    <tag k="name" v="Cooper Place"/>
  </way>
  <way id="23052548" version="4" timestamp="2008-08-21T01:28:32Z" uid="30201" user="rrankin" changeset="356651">
    <nd ref="248755187"/>
    <nd ref="248755188"/>
    <nd ref="248755189"/>
    <nd ref="248755190"/>
    <nd ref="248755191"/>
    <nd ref="248755192"/>
    <nd ref="248755193"/>
    <nd ref="248755194"/>
    <tag k="created_by" v="Potlatch 0.7b"/>
    <tag k="highway" v="residential"/>
    <tag k="name" v="Fleet Crescent"/>
  </way>
  <way id="23052548" version="5" timestamp="2010-06-04T13:36:25Z" uid="280711" user="kbosward" changeset="4901054">
    <nd ref="248755187"/>
    <nd ref="248755188"/>
    <nd ref="764406381"/>
    <nd ref="248755189"/>
    <nd ref="248755190"/>
    <nd ref="248755191"/>
    <nd ref="764406375"/>
    <nd ref="248755192"/>
    <nd ref="248755193"/>
    <nd ref="248755194"/>
    <tag k="highway" v="residential"/>
    <tag k="name" v="Fleet Crescent"/>
  </way>
  <way id="23052548" version="6" timestamp="2010-07-07T19:31:30Z" uid="74617" user="JohnSmith" changeset="5161069">
    <nd ref="248755187"/>
    <nd ref="248755188"/>
    <nd ref="764406381"/>
    <nd ref="248755189"/>
    <nd ref="248755190"/>
    <nd ref="248755191"/>
    <nd ref="764406375"/>
    <nd ref="248755192"/>
    <nd ref="248755193"/>
    <nd ref="248755194"/>
    <tag k="highway" v="residential"/>
    <tag k="maxspeed" v="50"/>
    <tag k="maxspeed:source" v="default residential speed limit in Australia"/>
    <tag k="name" v="Fleet Crescent"/>
  </way>
  <way id="23052548" version="7" timestamp="2012-01-16T00:47:23Z" uid="147510" user="woodpeck_fixbot" changeset="10404406">
    <nd ref="248755187"/>
    <nd ref="248755188"/>
    <nd ref="764406381"/>
    <nd ref="248755189"/>
    <nd ref="248755190"/>
    <nd ref="248755191"/>
    <nd ref="764406375"/>
    <nd ref="248755192"/>
    <nd ref="248755193"/>
    <nd ref="248755194"/>
    <tag k="highway" v="residential"/>
    <tag k="name" v="Fleet Crescent"/>
  </way>
  <way id="23052559" version="4" timestamp="2008-08-21T01:28:29Z" uid="30201" user="rrankin" changeset="356651">
    <nd ref="248755264"/>
    <nd ref="248755296"/>
    <nd ref="248755265"/>
    <tag k="created_by" v="Potlatch 0.7b"/>
    <tag k="highway" v="residential"/>
    <tag k="name" v="Farmer Place"/>
  </way>
  <way id="23052559" version="5" timestamp="2010-06-04T13:36:21Z" uid="280711" user="kbosward" changeset="4901054">
    <nd ref="248755264"/>
    <nd ref="248755296"/>
    <nd ref="248755265"/>
    <tag k="highway" v="residential"/>
    <tag k="name" v="Farmer Place"/>
  </way>
  <way id="23052559" version="6" timestamp="2010-07-07T19:33:44Z" uid="74617" user="JohnSmith" changeset="5161069">
    <nd ref="248755264"/>
    <nd ref="248755296"/>
    <nd ref="248755265"/>
    <tag k="highway" v="residential"/>
    <tag k="maxspeed" v="50"/>
    <tag k="maxspeed:source" v="default residential speed limit in Australia"/>
    <tag k="name" v="Farmer Place"/>
  </way>
  <way id="23052559" version="7" timestamp="2012-01-16T00:47:24Z" uid="147510" user="woodpeck_fixbot" changeset="10404406">
    <nd ref="248755264"/>
    <nd ref="248755296"/>
    <nd ref="248755265"/>
    <tag k="highway" v="residential"/>
    <tag k="name" v="Farmer Place"/>
  </way>
  <way id="23052562" version="4" timestamp="2008-08-21T01:28:43Z" uid="30201" user="rrankin" changeset="356651">
    <nd ref="248755295"/>
    <nd ref="248755296"/>
    <tag k="created_by" v="Potlatch 0.7b"/>
    <tag k="highway" v="residential"/>
    <tag k="name" v="Farmer Place"/>
  </way>
  <way id="23052562" version="5" timestamp="2010-06-04T13:36:22Z" uid="280711" user="kbosward" changeset="4901054">
    <nd ref="248755295"/>
    <nd ref="248755296"/>
    <tag k="highway" v="residential"/>
    <tag k="name" v="Farmer Place"/>
  </way>
  <way id="23052562" version="6" timestamp="2010-07-07T19:33:20Z" uid="74617" user="JohnSmith" changeset="5161069">
    <nd ref="248755295"/>
    <nd ref="248755296"/>
    <tag k="highway" v="residential"/>
    <tag k="maxspeed" v="50"/>
    <tag k="maxspeed:source" v="default residential speed limit in Australia"/>
    <tag k="name" v="Farmer Place"/>
  </way>
  <way id="23052562" version="7" timestamp="2012-01-16T00:47:25Z" uid="147510" user="woodpeck_fixbot" changeset="10404406">
    <nd ref="248755295"/>
    <nd ref="248755296"/>
    <tag k="highway" v="residential"/>
    <tag k="name" v="Farmer Place"/>
  </way>
  <way id="23052568" version="7" timestamp="2008-08-21T01:28:40Z" uid="30201" user="rrankin" changeset="356651">
    <nd ref="248755345"/>
    <nd ref="248755521"/>
    <nd ref="248755346"/>
    <nd ref="248755350"/>
    <nd ref="248755351"/>
    <nd ref="248755352"/>
    <nd ref="248755353"/>
    <nd ref="248755354"/>
    <nd ref="248755355"/>
    <nd ref="248755356"/>
    <nd ref="248755357"/>
    <nd ref="248755358"/>
    <nd ref="248755359"/>
    <nd ref="248755360"/>
    <nd ref="248755350"/>
    <tag k="created_by" v="Potlatch 0.7b"/>
    <tag k="highway" v="residential"/>
    <tag k="name" v="Stubbs Road"/>
  </way>
  <way id="23052568" version="8" timestamp="2010-03-11T01:28:04Z" uid="30201" user="rrankin" changeset="4094882">
    <nd ref="248755345"/>
    <nd ref="663904980"/>
    <nd ref="248755521"/>
    <nd ref="248755346"/>
    <nd ref="248755350"/>
    <nd ref="248755351"/>
    <nd ref="248755352"/>
    <nd ref="248755353"/>
    <nd ref="248755354"/>
    <nd ref="248755355"/>
    <nd ref="248755356"/>
    <nd ref="248755357"/>
    <nd ref="248755358"/>
    <nd ref="248755359"/>
    <nd ref="248755360"/>
    <nd ref="248755350"/>
    <tag k="highway" v="residential"/>
    <tag k="name" v="Stubbs Road"/>
  </way>
  <way id="23052568" version="9" timestamp="2010-06-04T13:36:19Z" uid="280711" user="kbosward" changeset="4901054">
    <nd ref="248755345"/>
    <nd ref="764406301"/>
    <nd ref="663904980"/>
    <nd ref="248755521"/>
    <nd ref="248755346"/>
    <nd ref="248755350"/>
    <nd ref="248755351"/>
    <nd ref="248755352"/>
    <nd ref="248755353"/>
    <nd ref="248755354"/>
    <nd ref="248755355"/>
    <nd ref="248755356"/>
    <nd ref="248755357"/>
    <nd ref="248755358"/>
    <nd ref="248755359"/>
    <nd ref="248755360"/>
    <nd ref="248755350"/>
    <tag k="highway" v="residential"/>
    <tag k="name" v="Stubbs Road"/>
  </way>
  <way id="23052568" version="10" timestamp="2010-07-07T19:33:42Z" uid="74617" user="JohnSmith" changeset="5161069">
    <nd ref="248755345"/>
    <nd ref="764406301"/>
    <nd ref="663904980"/>
    <nd ref="248755521"/>
    <nd ref="248755346"/>
    <nd ref="248755350"/>
    <nd ref="248755351"/>
    <nd ref="248755352"/>
    <nd ref="248755353"/>
    <nd ref="248755354"/>
    <nd ref="248755355"/>
    <nd ref="248755356"/>
    <nd ref="248755357"/>
    <nd ref="248755358"/>
    <nd ref="248755359"/>
    <nd ref="248755360"/>
    <nd ref="248755350"/>
    <tag k="highway" v="residential"/>
    <tag k="maxspeed" v="50"/>
    <tag k="maxspeed:source" v="default residential speed limit in Australia"/>
    <tag k="name" v="Stubbs Road"/>
  </way>
  <way id="23052568" version="11" timestamp="2010-10-14T19:18:40Z" uid="7617" user="Franc" changeset="6042240">
    <nd ref="248755345"/>
    <nd ref="764406301"/>
    <nd ref="663904980"/>
    <nd ref="248755521"/>
    <nd ref="948522568"/>
    <nd ref="948523643"/>
    <nd ref="948522787"/>
    <nd ref="248755346"/>
    <nd ref="248755350"/>
    <nd ref="248755351"/>
    <nd ref="948523870"/>
    <nd ref="248755352"/>
    <nd ref="948522107"/>
    <nd ref="948522267"/>
    <nd ref="248755353"/>
    <nd ref="248755354"/>
    <nd ref="948522964"/>
    <nd ref="948522918"/>
    <nd ref="948523828"/>
    <nd ref="248755355"/>
    <nd ref="948523980"/>
    <nd ref="248755356"/>
    <nd ref="948522231"/>
    <nd ref="948522391"/>
    <nd ref="248755357"/>
    <nd ref="248755358"/>
    <nd ref="948523074"/>
    <nd ref="948523368"/>
    <nd ref="248755359"/>
    <nd ref="948523282"/>
    <nd ref="948522524"/>
    <nd ref="948522336"/>
    <nd ref="948524101"/>
    <nd ref="948524202"/>
    <nd ref="248755360"/>
    <nd ref="248755350"/>
    <tag k="highway" v="residential"/>
    <tag k="maxspeed" v="50"/>
    <tag k="maxspeed:source" v="default residential speed limit in Australia"/>
    <tag k="name" v="Stubbs Road"/>
  </way>
  <way id="23052568" version="12" timestamp="2012-01-16T00:47:26Z" uid="147510" user="woodpeck_fixbot" changeset="10404406">
    <nd ref="248755345"/>
    <nd ref="764406301"/>
    <nd ref="663904980"/>
    <nd ref="248755521"/>
    <nd ref="948522568"/>
    <nd ref="948523643"/>
    <nd ref="948522787"/>
    <nd ref="248755346"/>
    <nd ref="248755350"/>
    <nd ref="248755351"/>
    <nd ref="948523870"/>
    <nd ref="248755352"/>
    <nd ref="948522107"/>
    <nd ref="948522267"/>
    <nd ref="248755353"/>
    <nd ref="248755354"/>
    <nd ref="948522964"/>
    <nd ref="948522918"/>
    <nd ref="948523828"/>
    <nd ref="248755355"/>
    <nd ref="948523980"/>
    <nd ref="248755356"/>
    <nd ref="948522231"/>
    <nd ref="948522391"/>
    <nd ref="248755357"/>
    <nd ref="248755358"/>
    <nd ref="948523074"/>
    <nd ref="948523368"/>
    <nd ref="248755359"/>
    <nd ref="948523282"/>
    <nd ref="948522524"/>
    <nd ref="948522336"/>
    <nd ref="948524101"/>
    <nd ref="948524202"/>
    <nd ref="248755360"/>
    <nd ref="248755350"/>
    <tag k="highway" v="residential"/>
    <tag k="name" v="Stubbs Road"/>
  </way>
  <way id="23052586" version="3" timestamp="2009-07-26T00:20:05Z" uid="4467" user="Rosscoe" changeset="1939703">
    <nd ref="248755520"/>
    <nd ref="248755521"/>
    <tag k="highway" v="residential"/>
    <tag k="name" v="Walsh Place"/>
  </way>
  <way id="23052586" version="4" timestamp="2010-07-07T19:31:20Z" uid="74617" user="JohnSmith" changeset="5161069">
    <nd ref="248755520"/>
    <nd ref="248755521"/>
    <tag k="highway" v="residential"/>
    <tag k="maxspeed" v="50"/>
    <tag k="maxspeed:source" v="default residential speed limit in Australia"/>
    <tag k="name" v="Walsh Place"/>
  </way>
  <way id="23052586" version="5" timestamp="2012-01-16T00:47:28Z" uid="147510" user="woodpeck_fixbot" changeset="10404406">
    <nd ref="248755520"/>
    <nd ref="248755521"/>
    <tag k="highway" v="residential"/>
    <tag k="name" v="Walsh Place"/>
  </way>
  <way id="23052602" version="4" timestamp="2010-07-07T19:32:53Z" uid="74617" user="JohnSmith" changeset="5161069">
    <nd ref="248755889"/>
    <nd ref="248755890"/>
    <nd ref="248755902"/>
    <nd ref="248755891"/>
    <tag k="highway" v="residential"/>
    <tag k="maxspeed" v="50"/>
    <tag k="maxspeed:source" v="default residential speed limit in Australia"/>
    <tag k="name" v="Richmond Place"/>
  </way>
  <way id="23052602" version="5" timestamp="2012-01-16T00:47:30Z" uid="147510" user="woodpeck_fixbot" changeset="10404406">
    <nd ref="248755889"/>
    <nd ref="248755890"/>
    <nd ref="248755902"/>
    <nd ref="248755891"/>
    <tag k="highway" v="residential"/>
    <tag k="name" v="Richmond Place"/>
  </way>
  <way id="23052604" version="2" timestamp="2010-07-07T19:32:36Z" uid="74617" user="JohnSmith" changeset="5161069">
    <nd ref="248755901"/>
    <nd ref="248755902"/>
    <tag k="highway" v="residential"/>
    <tag k="maxspeed" v="50"/>
    <tag k="maxspeed:source" v="default residential speed limit in Australia"/>
    <tag k="name" v="Colo Place"/>
  </way>
  <way id="23052604" version="3" timestamp="2012-01-16T00:47:31Z" uid="147510" user="woodpeck_fixbot" changeset="10404406">
    <nd ref="248755901"/>
    <nd ref="248755902"/>
    <tag k="highway" v="residential"/>
    <tag k="name" v="Colo Place"/>
  </way>
  <way id="23052610" version="7" timestamp="2010-07-07T19:32:28Z" uid="74617" user="JohnSmith" changeset="5161069">
    <nd ref="248755922"/>
    <nd ref="248755923"/>
    <nd ref="248755978"/>
    <nd ref="248755998"/>
    <nd ref="248755924"/>
    <nd ref="248755925"/>
    <tag k="highway" v="residential"/>
    <tag k="maxspeed" v="50"/>
    <tag k="maxspeed:source" v="default residential speed limit in Australia"/>
    <tag k="name" v="Nepean Place"/>
  </way>
  <way id="23052610" version="8" timestamp="2010-08-08T08:25:07Z" uid="280711" user="kbosward" changeset="5430340">
    <nd ref="248755922"/>
    <nd ref="248755923"/>
    <nd ref="248755978"/>
    <nd ref="248755998"/>
    <nd ref="248755924"/>
    <nd ref="849341880"/>
    <nd ref="248755925"/>
    <tag k="highway" v="residential"/>
    <tag k="maxspeed" v="50"/>
    <tag k="maxspeed:source" v="default residential speed limit in Australia"/>
    <tag k="name" v="Nepean Place"/>
  </way>
  <way id="23052610" version="9" timestamp="2012-01-16T00:47:32Z" uid="147510" user="woodpeck_fixbot" changeset="10404406">
    <nd ref="248755922"/>
    <nd ref="248755923"/>
    <nd ref="248755978"/>
    <nd ref="248755998"/>
    <nd ref="248755924"/>
    <nd ref="849341880"/>
    <nd ref="248755925"/>
    <tag k="highway" v="residential"/>
    <tag k="name" v="Nepean Place"/>
  </way>
  <way id="23052612" version="2" timestamp="2010-07-07T19:32:12Z" uid="74617" user="JohnSmith" changeset="5161069">
    <nd ref="248755975"/>
    <nd ref="248755976"/>
    <nd ref="248755977"/>
    <nd ref="248755978"/>
    <tag k="highway" v="residential"/>
    <tag k="maxspeed" v="50"/>
    <tag k="maxspeed:source" v="default residential speed limit in Australia"/>
    <tag k="name" v="Burnett Place"/>
  </way>
  <way id="23052612" version="3" timestamp="2012-01-16T00:47:33Z" uid="147510" user="woodpeck_fixbot" changeset="10404406">
    <nd ref="248755975"/>
    <nd ref="248755976"/>
    <nd ref="248755977"/>
    <nd ref="248755978"/>
    <tag k="highway" v="residential"/>
    <tag k="name" v="Burnett Place"/>
  </way>
  <way id="23052613" version="2" timestamp="2010-07-07T19:32:41Z" uid="74617" user="JohnSmith" changeset="5161069">
    <nd ref="248755995"/>
    <nd ref="248755996"/>
    <nd ref="248755997"/>
    <nd ref="248755998"/>
    <tag k="highway" v="residential"/>
    <tag k="maxspeed" v="50"/>
    <tag k="maxspeed:source" v="default residential speed limit in Australia"/>
    <tag k="name" v="Murray Close"/>
  </way>
  <way id="23052613" version="3" timestamp="2012-01-16T00:47:34Z" uid="147510" user="woodpeck_fixbot" changeset="10404406">
    <nd ref="248755995"/>
    <nd ref="248755996"/>
    <nd ref="248755997"/>
    <nd ref="248755998"/>
    <tag k="highway" v="residential"/>
    <tag k="name" v="Murray Close"/>
  </way>
  <way id="23052622" version="2" timestamp="2010-07-07T19:33:53Z" uid="74617" user="JohnSmith" changeset="5161069">
    <nd ref="248756020"/>
    <nd ref="248756021"/>
    <nd ref="248756022"/>
    <nd ref="248756023"/>
    <nd ref="248756024"/>
    <tag k="highway" v="residential"/>
    <tag k="maxspeed" v="50"/>
    <tag k="maxspeed:source" v="default residential speed limit in Australia"/>
    <tag k="name" v="Macleay Place"/>
  </way>
  <way id="23052622" version="3" timestamp="2012-01-16T00:47:36Z" uid="147510" user="woodpeck_fixbot" changeset="10404406">
    <nd ref="248756020"/>
    <nd ref="248756021"/>
    <nd ref="248756022"/>
    <nd ref="248756023"/>
    <nd ref="248756024"/>
    <tag k="highway" v="residential"/>
    <tag k="name" v="Macleay Place"/>
  </way>
  <way id="23052624" version="5" timestamp="2010-07-07T19:31:38Z" uid="74617" user="JohnSmith" changeset="5161069">
    <nd ref="248756049"/>
    <nd ref="247629830"/>
    <tag k="highway" v="residential"/>
    <tag k="maxspeed" v="50"/>
    <tag k="maxspeed:source" v="default residential speed limit in Australia"/>
    <tag k="name" v="Yarra Close"/>
  </way>
  <way id="23052624" version="6" timestamp="2012-01-16T00:47:37Z" uid="147510" user="woodpeck_fixbot" changeset="10404406">
    <nd ref="248756049"/>
    <nd ref="247629830"/>
    <tag k="highway" v="residential"/>
    <tag k="name" v="Yarra Close"/>
  </way>
  <way id="23052649" version="1" timestamp="2008-02-22T08:27:55Z" uid="7617" user="Franc" changeset="176531">
    <nd ref="248756581"/>
    <nd ref="199993237"/>
    <tag k="created_by" v="JOSM"/>
    <tag k="highway" v="steps"/>
  </way>
  <way id="23052649" version="2" timestamp="2009-01-22T09:32:23Z" uid="7617" user="Franc" changeset="823284">
    <nd ref="68232025"/>
    <nd ref="335164119"/>
    <nd ref="335164117"/>
    <nd ref="335164151"/>
    <nd ref="335164116"/>
    <nd ref="335164146"/>
    <tag k="created_by" v="JOSM"/>
    <tag k="highway" v="residential"/>
    <tag k="source" v="yahoo_imagery"/>
  </way>
  <way id="23052649" version="3" timestamp="2009-04-12T02:11:43Z" uid="7617" user="Franc" changeset="437175">
    <nd ref="335164146"/>
    <nd ref="335164116"/>
    <nd ref="335164151"/>
    <nd ref="335164117"/>
    <nd ref="335164119"/>
    <nd ref="68232025"/>
    <tag k="created_by" v="JOSM"/>
    <tag k="highway" v="residential"/>
    <tag k="name" v="Macpherson Street"/>
    <tag k="oneway" v="yes"/>
    <tag k="source" v="survey"/>
  </way>
  <way id="23052649" version="4" timestamp="2010-07-07T21:49:53Z" uid="74617" user="JohnSmith" changeset="5161069">
    <nd ref="335164146"/>
    <nd ref="335164116"/>
    <nd ref="335164151"/>
    <nd ref="335164117"/>
    <nd ref="335164119"/>
    <nd ref="68232025"/>
    <tag k="highway" v="residential"/>
    <tag k="maxspeed" v="50"/>
    <tag k="maxspeed:source" v="default residential speed limit in Australia"/>
    <tag k="name" v="Macpherson Street"/>
    <tag k="oneway" v="yes"/>
    <tag k="source" v="survey"/>
  </way>
  <way id="23052649" version="5" timestamp="2011-01-01T12:13:07Z" uid="7617" user="Franc" changeset="6827223"/>
  <way id="23052652" version="3" timestamp="2010-07-07T19:31:46Z" uid="74617" user="JohnSmith" changeset="5161069">
    <nd ref="248756614"/>
    <nd ref="248756615"/>
    <nd ref="248756616"/>
    <nd ref="248756617"/>
    <tag k="highway" v="residential"/>
    <tag k="maxspeed" v="50"/>
    <tag k="maxspeed:source" v="default residential speed limit in Australia"/>
    <tag k="name" v="Huon Crescent"/>
  </way>
  <way id="23052652" version="4" timestamp="2012-01-16T00:47:38Z" uid="147510" user="woodpeck_fixbot" changeset="10404406">
    <nd ref="248756614"/>
    <nd ref="248756615"/>
    <nd ref="248756616"/>
    <nd ref="248756617"/>
    <tag k="highway" v="residential"/>
    <tag k="name" v="Huon Crescent"/>
  </way>
  <way id="23052656" version="3" timestamp="2010-07-07T19:32:00Z" uid="74617" user="JohnSmith" changeset="5161069">
    <nd ref="248756687"/>
    <nd ref="248756615"/>
    <tag k="highway" v="residential"/>
    <tag k="maxspeed" v="50"/>
    <tag k="maxspeed:source" v="default residential speed limit in Australia"/>
    <tag k="name" v="Avoca Place"/>
  </way>
  <way id="23052656" version="4" timestamp="2012-01-16T00:47:39Z" uid="147510" user="woodpeck_fixbot" changeset="10404406">
    <nd ref="248756687"/>
    <nd ref="248756615"/>
    <tag k="highway" v="residential"/>
    <tag k="name" v="Avoca Place"/>
  </way>
  <way id="23052659" version="4" timestamp="2010-07-07T19:31:26Z" uid="74617" user="JohnSmith" changeset="5161069">
    <nd ref="248756718"/>
    <nd ref="248756616"/>
    <tag k="highway" v="residential"/>
    <tag k="maxspeed" v="50"/>
    <tag k="maxspeed:source" v="default residential speed limit in Australia"/>
    <tag k="name" v="Hawkesbury Place"/>
  </way>
  <way id="23052659" version="5" timestamp="2012-01-16T00:47:40Z" uid="147510" user="woodpeck_fixbot" changeset="10404406">
    <nd ref="248756718"/>
    <nd ref="248756616"/>
    <tag k="highway" v="residential"/>
    <tag k="name" v="Hawkesbury Place"/>
  </way>
  <way id="23052660" version="2" timestamp="2010-07-07T19:34:10Z" uid="74617" user="JohnSmith" changeset="5161069">
    <nd ref="248756722"/>
    <nd ref="248756718"/>
    <nd ref="248756723"/>
    <tag k="highway" v="residential"/>
    <tag k="maxspeed" v="50"/>
    <tag k="maxspeed:source" v="default residential speed limit in Australia"/>
    <tag k="name" v="Hawkesbury Place"/>
  </way>
  <way id="23052660" version="3" timestamp="2012-01-16T00:47:41Z" uid="147510" user="woodpeck_fixbot" changeset="10404406">
    <nd ref="248756722"/>
    <nd ref="248756718"/>
    <nd ref="248756723"/>
    <tag k="highway" v="residential"/>
    <tag k="name" v="Hawkesbury Place"/>
  </way>
  <way id="23052661" version="3" timestamp="2010-07-07T19:31:07Z" uid="74617" user="JohnSmith" changeset="5161069">
    <nd ref="248756727"/>
    <nd ref="248756687"/>
    <nd ref="248756728"/>
    <tag k="highway" v="residential"/>
    <tag k="maxspeed" v="50"/>
    <tag k="maxspeed:source" v="default residential speed limit in Australia"/>
    <tag k="name" v="Avoca Place"/>
  </way>
  <way id="23052661" version="4" timestamp="2012-01-16T00:47:42Z" uid="147510" user="woodpeck_fixbot" changeset="10404406">
    <nd ref="248756727"/>
    <nd ref="248756687"/>
    <nd ref="248756728"/>
    <tag k="highway" v="residential"/>
    <tag k="name" v="Avoca Place"/>
  </way>
  <way id="23052664" version="3" timestamp="2010-07-07T19:31:09Z" uid="74617" user="JohnSmith" changeset="5161069">
    <nd ref="248756743"/>
    <nd ref="248756744"/>
    <nd ref="248756745"/>
    <nd ref="248756746"/>
    <nd ref="248756747"/>
    <tag k="highway" v="residential"/>
    <tag k="maxspeed" v="50"/>
    <tag k="maxspeed:source" v="default residential speed limit in Australia"/>
    <tag k="name" v="Dawson Place"/>
  </way>
  <way id="23052664" version="4" timestamp="2012-01-16T00:47:43Z" uid="147510" user="woodpeck_fixbot" changeset="10404406">
    <nd ref="248756743"/>
    <nd ref="248756744"/>
    <nd ref="248756745"/>
    <nd ref="248756746"/>
    <nd ref="248756747"/>
    <tag k="highway" v="residential"/>
    <tag k="name" v="Dawson Place"/>
  </way>
  <way id="23052669" version="2" timestamp="2010-07-07T19:33:56Z" uid="74617" user="JohnSmith" changeset="5161069">
    <nd ref="248756773"/>
    <nd ref="248756774"/>
    <tag k="highway" v="residential"/>
    <tag k="maxspeed" v="50"/>
    <tag k="maxspeed:source" v="default residential speed limit in Australia"/>
    <tag k="name" v="Manning Place"/>
  </way>
  <way id="23052669" version="3" timestamp="2012-01-16T00:47:44Z" uid="147510" user="woodpeck_fixbot" changeset="10404406">
    <nd ref="248756773"/>
    <nd ref="248756774"/>
    <tag k="highway" v="residential"/>
    <tag k="name" v="Manning Place"/>
  </way>
  <way id="23052677" version="10" timestamp="2010-07-07T19:34:14Z" uid="74617" user="JohnSmith" changeset="5161069">
    <nd ref="248756876"/>
    <nd ref="248756891"/>
    <nd ref="248756877"/>
    <nd ref="248756878"/>
    <nd ref="248757041"/>
    <nd ref="248756880"/>
    <nd ref="248756918"/>
    <nd ref="248756881"/>
    <nd ref="248756882"/>
    <nd ref="248756883"/>
    <nd ref="248756884"/>
    <nd ref="248756885"/>
    <nd ref="248756919"/>
    <nd ref="248756886"/>
    <nd ref="248756887"/>
    <nd ref="248756888"/>
    <nd ref="248756889"/>
    <nd ref="248757043"/>
    <nd ref="248756891"/>
    <tag k="highway" v="residential"/>
    <tag k="maxspeed" v="50"/>
    <tag k="maxspeed:source" v="default residential speed limit in Australia"/>
    <tag k="name" v="Campaspe Circuit"/>
  </way>
  <way id="23052677" version="11" timestamp="2010-08-08T08:24:55Z" uid="280711" user="kbosward" changeset="5430340">
    <nd ref="248756876"/>
    <nd ref="248756891"/>
    <nd ref="248756877"/>
    <nd ref="248756878"/>
    <nd ref="849341619"/>
    <nd ref="248757041"/>
    <nd ref="849341621"/>
    <nd ref="248756880"/>
    <nd ref="248756918"/>
    <nd ref="248756881"/>
    <nd ref="248756882"/>
    <nd ref="248756883"/>
    <nd ref="248756884"/>
    <nd ref="248756885"/>
    <nd ref="849341629"/>
    <nd ref="849341631"/>
    <nd ref="248756919"/>
    <nd ref="248756886"/>
    <nd ref="248756887"/>
    <nd ref="248756888"/>
    <nd ref="248756889"/>
    <nd ref="849341551"/>
    <nd ref="248757043"/>
    <nd ref="248756891"/>
    <tag k="highway" v="residential"/>
    <tag k="maxspeed" v="50"/>
    <tag k="maxspeed:source" v="default residential speed limit in Australia"/>
    <tag k="name" v="Campaspe Circuit"/>
  </way>
  <way id="23052677" version="12" timestamp="2012-01-16T00:47:45Z" uid="147510" user="woodpeck_fixbot" changeset="10404406">
    <nd ref="248756876"/>
    <nd ref="248756891"/>
    <nd ref="248756877"/>
    <nd ref="248756878"/>
    <nd ref="849341619"/>
    <nd ref="248757041"/>
    <nd ref="849341621"/>
    <nd ref="248756880"/>
    <nd ref="248756918"/>
    <nd ref="248756881"/>
    <nd ref="248756882"/>
    <nd ref="248756883"/>
    <nd ref="248756884"/>
    <nd ref="248756885"/>
    <nd ref="849341629"/>
    <nd ref="849341631"/>
    <nd ref="248756919"/>
    <nd ref="248756886"/>
    <nd ref="248756887"/>
    <nd ref="248756888"/>
    <nd ref="248756889"/>
    <nd ref="849341551"/>
    <nd ref="248757043"/>
    <nd ref="248756891"/>
    <tag k="highway" v="residential"/>
    <tag k="name" v="Campaspe Circuit"/>
  </way>
  <way id="23052681" version="5" timestamp="2010-07-07T19:31:12Z" uid="74617" user="JohnSmith" changeset="5161069">
    <nd ref="248756918"/>
    <nd ref="248756923"/>
    <nd ref="248756919"/>
    <tag k="highway" v="residential"/>
    <tag k="maxspeed" v="50"/>
    <tag k="maxspeed:source" v="default residential speed limit in Australia"/>
    <tag k="name" v="Todd Link"/>
  </way>
  <way id="23052681" version="6" timestamp="2012-01-16T00:47:47Z" uid="147510" user="woodpeck_fixbot" changeset="10404406">
    <nd ref="248756918"/>
    <nd ref="248756923"/>
    <nd ref="248756919"/>
    <tag k="highway" v="residential"/>
    <tag k="name" v="Todd Link"/>
  </way>
  <way id="23052689" version="4" timestamp="2010-07-07T19:33:40Z" uid="74617" user="JohnSmith" changeset="5161069">
    <nd ref="248757041"/>
    <nd ref="248757042"/>
    <nd ref="248757043"/>
    <tag k="highway" v="residential"/>
    <tag k="maxspeed" v="50"/>
    <tag k="maxspeed:source" v="default residential speed limit in Australia"/>
    <tag k="name" v="Tweed Link"/>
  </way>
  <way id="23052689" version="5" timestamp="2012-01-16T00:47:48Z" uid="147510" user="woodpeck_fixbot" changeset="10404406">
    <nd ref="248757041"/>
    <nd ref="248757042"/>
    <nd ref="248757043"/>
    <tag k="highway" v="residential"/>
    <tag k="name" v="Tweed Link"/>
  </way>
  <way id="23052698" version="1" timestamp="2008-02-22T08:37:51Z" uid="7617" user="Franc" changeset="176531">
    <nd ref="200570814"/>
    <nd ref="248757074"/>
    <tag k="created_by" v="JOSM"/>
    <tag k="highway" v="residential"/>
    <tag k="source" v="yahoo_imagery"/>
  </way>
  <way id="23052698" version="2" timestamp="2009-01-22T09:13:01Z" uid="7617" user="Franc" changeset="823284">
    <nd ref="200570814"/>
    <nd ref="248757074"/>
    <nd ref="200570054"/>
    <nd ref="248757062"/>
    <tag k="created_by" v="JOSM"/>
    <tag k="highway" v="residential"/>
    <tag k="name" v="Salisbury Street"/>
    <tag k="source" v="yahoo_imagery"/>
    <tag k="source:name" v="survey"/>
    <tag k="source:oneway" v="survey"/>
  </way>
  <way id="23052698" version="3" timestamp="2009-11-09T10:12:15Z" uid="30201" user="rrankin" changeset="3071998">
    <nd ref="200570814"/>
    <nd ref="248757074"/>
    <nd ref="200570054"/>
    <nd ref="248757062"/>
    <tag k="highway" v="residential"/>
    <tag k="name" v="Salisbury Street"/>
    <tag k="source" v="yahoo_imagery"/>
    <tag k="source:name" v="survey"/>
  </way>
  <way id="23052698" version="4" timestamp="2009-11-14T12:10:43Z" uid="117890" user="Jonathan Trott" changeset="3112508">
    <nd ref="200570814"/>
    <nd ref="248757074"/>
    <nd ref="200570054"/>
    <nd ref="248757062"/>
    <tag k="highway" v="residential"/>
    <tag k="name" v="Salisbury Street"/>
    <tag k="source" v="yahoo_imagery"/>
    <tag k="source:name" v="survey"/>
  </way>
  <way id="23052698" version="5" timestamp="2010-07-07T21:47:28Z" uid="74617" user="JohnSmith" changeset="5161069">
    <nd ref="200570814"/>
    <nd ref="248757074"/>
    <nd ref="200570054"/>
    <nd ref="248757062"/>
    <tag k="highway" v="residential"/>
    <tag k="maxspeed" v="50"/>
    <tag k="maxspeed:source" v="default residential speed limit in Australia"/>
    <tag k="name" v="Salisbury Street"/>
    <tag k="source" v="yahoo_imagery"/>
    <tag k="source:name" v="survey"/>
  </way>
  <way id="23052698" version="6" timestamp="2010-10-16T02:42:27Z" uid="7617" user="Franc" changeset="6053967">
    <nd ref="200570814"/>
    <nd ref="248757074"/>
    <nd ref="200570054"/>
    <nd ref="248757062"/>
    <tag k="highway" v="residential"/>
    <tag k="maxspeed" v="50"/>
    <tag k="maxspeed:source" v="default residential speed limit in Australia"/>
    <tag k="name" v="Salisbury Street"/>
    <tag k="oneway" v="yes"/>
    <tag k="source" v="yahoo_imagery"/>
    <tag k="source:name" v="survey"/>
  </way>
  <way id="23052698" version="7" timestamp="2012-01-16T00:47:49Z" uid="147510" user="woodpeck_fixbot" changeset="10404406">
    <nd ref="200570814"/>
    <nd ref="248757074"/>
    <nd ref="200570054"/>
    <nd ref="248757062"/>
    <tag k="highway" v="residential"/>
    <tag k="name" v="Salisbury Street"/>
    <tag k="oneway" v="yes"/>
    <tag k="source" v="yahoo_imagery"/>
    <tag k="source:name" v="survey"/>
  </way>
  <way id="23052699" version="1" timestamp="2008-02-22T08:37:53Z" uid="7617" user="Franc" changeset="176531">
    <nd ref="248757064"/>
    <nd ref="248757066"/>
    <nd ref="248757067"/>
    <nd ref="248757068"/>
    <nd ref="248757070"/>
    <nd ref="248757071"/>
    <nd ref="248757072"/>
    <nd ref="248757078"/>
    <nd ref="248757073"/>
    <tag k="created_by" v="JOSM"/>
    <tag k="highway" v="residential"/>
    <tag k="source" v="yahoo_imagery"/>
  </way>
  <way id="23052699" version="2" timestamp="2009-01-21T11:45:28Z" uid="7617" user="Franc" changeset="820928">
    <nd ref="248757064"/>
    <nd ref="248757066"/>
    <nd ref="248757067"/>
    <nd ref="248757068"/>
    <nd ref="248757070"/>
    <nd ref="248757071"/>
    <nd ref="248757072"/>
    <nd ref="248757078"/>
    <tag k="created_by" v="JOSM"/>
    <tag k="highway" v="residential"/>
    <tag k="name" v="Zarita Avenue"/>
    <tag k="oneway" v="yes"/>
    <tag k="source" v="survey"/>
  </way>
  <way id="23052699" version="3" timestamp="2009-11-14T12:10:38Z" uid="117890" user="Jonathan Trott" changeset="3112508">
    <nd ref="248757064"/>
    <nd ref="248757066"/>
    <nd ref="248757067"/>
    <nd ref="248757068"/>
    <nd ref="248757070"/>
    <nd ref="248757071"/>
    <nd ref="248757072"/>
    <nd ref="248757078"/>
    <tag k="highway" v="residential"/>
    <tag k="name" v="Zarita Avenue"/>
    <tag k="oneway" v="yes"/>
    <tag k="source" v="survey"/>
  </way>
  <way id="23052699" version="4" timestamp="2010-07-07T21:51:27Z" uid="74617" user="JohnSmith" changeset="5161069">
    <nd ref="248757064"/>
    <nd ref="248757066"/>
    <nd ref="248757067"/>
    <nd ref="248757068"/>
    <nd ref="248757070"/>
    <nd ref="248757071"/>
    <nd ref="248757072"/>
    <nd ref="248757078"/>
    <tag k="highway" v="residential"/>
    <tag k="maxspeed" v="50"/>
    <tag k="maxspeed:source" v="default residential speed limit in Australia"/>
    <tag k="name" v="Zarita Avenue"/>
    <tag k="oneway" v="yes"/>
    <tag k="source" v="survey"/>
  </way>
  <way id="23052699" version="5" timestamp="2012-01-16T00:47:51Z" uid="147510" user="woodpeck_fixbot" changeset="10404406">
    <nd ref="248757064"/>
    <nd ref="248757066"/>
    <nd ref="248757067"/>
    <nd ref="248757068"/>
    <nd ref="248757070"/>
    <nd ref="248757071"/>
    <nd ref="248757072"/>
    <nd ref="248757078"/>
    <tag k="highway" v="residential"/>
    <tag k="name" v="Zarita Avenue"/>
    <tag k="oneway" v="yes"/>
    <tag k="source" v="survey"/>
  </way>
  <way id="23052700" version="1" timestamp="2008-02-22T08:37:53Z" uid="7617" user="Franc" changeset="176531">
    <nd ref="248757074"/>
    <nd ref="248757075"/>
    <nd ref="248757076"/>
    <nd ref="248757077"/>
    <nd ref="248757078"/>
    <tag k="created_by" v="JOSM"/>
    <tag k="highway" v="residential"/>
    <tag k="source" v="yahoo_imagery"/>
  </way>
  <way id="23052700" version="2" timestamp="2009-01-21T11:45:23Z" uid="7617" user="Franc" changeset="820928">
    <nd ref="248757074"/>
    <nd ref="248757075"/>
    <nd ref="248757076"/>
    <nd ref="248757077"/>
    <nd ref="248757078"/>
    <tag k="created_by" v="JOSM"/>
    <tag k="highway" v="residential"/>
    <tag k="name" v="Campbell Street"/>
    <tag k="source" v="survey"/>
  </way>
  <way id="23052700" version="3" timestamp="2009-11-14T12:10:28Z" uid="117890" user="Jonathan Trott" changeset="3112508">
    <nd ref="248757074"/>
    <nd ref="248757075"/>
    <nd ref="248757076"/>
    <nd ref="248757077"/>
    <nd ref="248757078"/>
    <tag k="highway" v="residential"/>
    <tag k="name" v="Campbell Street"/>
    <tag k="source" v="survey"/>
  </way>
  <way id="23052700" version="4" timestamp="2010-07-07T21:50:43Z" uid="74617" user="JohnSmith" changeset="5161069">
    <nd ref="248757074"/>
    <nd ref="248757075"/>
    <nd ref="248757076"/>
    <nd ref="248757077"/>
    <nd ref="248757078"/>
    <tag k="highway" v="residential"/>
    <tag k="maxspeed" v="50"/>
    <tag k="maxspeed:source" v="default residential speed limit in Australia"/>
    <tag k="name" v="Campbell Street"/>
    <tag k="source" v="survey"/>
  </way>
  <way id="23052700" version="5" timestamp="2012-01-16T00:47:52Z" uid="147510" user="woodpeck_fixbot" changeset="10404406">
    <nd ref="248757074"/>
    <nd ref="248757075"/>
    <nd ref="248757076"/>
    <nd ref="248757077"/>
    <nd ref="248757078"/>
    <tag k="highway" v="residential"/>
    <tag k="name" v="Campbell Street"/>
    <tag k="source" v="survey"/>
  </way>
  <way id="23052701" version="1" timestamp="2008-02-22T08:37:56Z" uid="7617" user="Franc" changeset="176531">
    <nd ref="248757074"/>
    <nd ref="200570054"/>
    <nd ref="248757062"/>
    <tag k="created_by" v="JOSM"/>
    <tag k="highway" v="residential"/>
    <tag k="name" v="Salisbury Street"/>
    <tag k="source" v="yahoo_imagery"/>
    <tag k="source:name" v="survey"/>
    <tag k="source:oneway" v="survey"/>
  </way>
  <way id="23052701" version="2" timestamp="2009-01-22T09:13:02Z" uid="7617" user="Franc" changeset="823284"/>
  <way id="23052703" version="1" timestamp="2008-02-22T08:38:05Z" uid="7617" user="Franc" changeset="176531">
    <nd ref="248757079"/>
    <nd ref="248757080"/>
    <nd ref="248757081"/>
    <nd ref="248757082"/>
    <nd ref="248757079"/>
    <tag k="amenity" v="school"/>
    <tag k="created_by" v="JOSM"/>
    <tag k="source" v="yahoo_imagery &amp; survey"/>
  </way>
  <way id="23052703" version="2" timestamp="2009-11-14T12:10:46Z" uid="117890" user="Jonathan Trott" changeset="3112508">
    <nd ref="248757079"/>
    <nd ref="248757080"/>
    <nd ref="248757081"/>
    <nd ref="248757082"/>
    <nd ref="248757079"/>
    <tag k="amenity" v="school"/>
    <tag k="source" v="yahoo_imagery &amp; survey"/>
  </way>
  <way id="23052703" version="3" timestamp="2010-10-23T02:44:35Z" uid="7617" user="Franc" changeset="6141823">
    <nd ref="248757079"/>
    <nd ref="248757080"/>
    <nd ref="248757081"/>
    <nd ref="248757082"/>
    <nd ref="248757079"/>
    <tag k="amenity" v="school"/>
    <tag k="name" v="Waverley College"/>
    <tag k="source" v="yahoo_imagery &amp; survey"/>
  </way>
  <way id="23052704" version="11" timestamp="2010-01-03T15:41:15Z" uid="9719" user="dvaey" changeset="3529177">
    <nd ref="603696698"/>
    <nd ref="603696704"/>
    <tag k="highway" v="residential"/>
    <tag k="name" v="Ashburton Drive"/>
    <tag k="oneway" v="yes"/>
  </way>
  <way id="23052704" version="12" timestamp="2010-07-07T19:31:51Z" uid="74617" user="JohnSmith" changeset="5161069">
    <nd ref="603696698"/>
    <nd ref="603696704"/>
    <tag k="highway" v="residential"/>
    <tag k="maxspeed" v="50"/>
    <tag k="maxspeed:source" v="default residential speed limit in Australia"/>
    <tag k="name" v="Ashburton Drive"/>
    <tag k="oneway" v="yes"/>
  </way>
  <way id="23052704" version="13" timestamp="2010-10-13T13:26:15Z" uid="7617" user="Franc" changeset="6029199">
    <nd ref="603696698"/>
    <nd ref="603696704"/>
    <tag k="highway" v="residential"/>
    <tag k="maxspeed" v="50"/>
    <tag k="maxspeed:source" v="default residential speed limit in Australia"/>
    <tag k="name" v="Ashburton Drive"/>
    <tag k="oneway" v="yes"/>
    <tag k="restriction" v="school_zone"/>
  </way>
  <way id="23052704" version="14" timestamp="2012-01-16T00:47:54Z" uid="147510" user="woodpeck_fixbot" changeset="10404406">
    <nd ref="603696698"/>
    <nd ref="603696704"/>
    <tag k="highway" v="residential"/>
    <tag k="name" v="Ashburton Drive"/>
    <tag k="oneway" v="yes"/>
    <tag k="restriction" v="school_zone"/>
  </way>
  <way id="23052706" version="8" timestamp="2010-01-03T15:41:15Z" uid="9719" user="dvaey" changeset="3529177">
    <nd ref="603696697"/>
    <nd ref="603696688"/>
    <tag k="highway" v="residential"/>
    <tag k="name" v="Ashburton Road"/>
    <tag k="oneway" v="yes"/>
  </way>
  <way id="23052706" version="9" timestamp="2010-07-07T19:34:26Z" uid="74617" user="JohnSmith" changeset="5161069">
    <nd ref="603696697"/>
    <nd ref="603696688"/>
    <tag k="highway" v="residential"/>
    <tag k="maxspeed" v="50"/>
    <tag k="maxspeed:source" v="default residential speed limit in Australia"/>
    <tag k="name" v="Ashburton Road"/>
    <tag k="oneway" v="yes"/>
  </way>
  <way id="23052706" version="10" timestamp="2010-10-13T13:26:19Z" uid="7617" user="Franc" changeset="6029199">
    <nd ref="603696697"/>
    <nd ref="603696688"/>
    <tag k="highway" v="residential"/>
    <tag k="maxspeed" v="50"/>
    <tag k="maxspeed:source" v="default residential speed limit in Australia"/>
    <tag k="name" v="Ashburton Road"/>
    <tag k="oneway" v="yes"/>
    <tag k="restriction" v="school_zone"/>
  </way>
  <way id="23052706" version="11" timestamp="2012-01-16T00:47:55Z" uid="147510" user="woodpeck_fixbot" changeset="10404406">
    <nd ref="603696697"/>
    <nd ref="603696688"/>
    <tag k="highway" v="residential"/>
    <tag k="name" v="Ashburton Road"/>
    <tag k="oneway" v="yes"/>
    <tag k="restriction" v="school_zone"/>
  </way>
  <way id="23052727" version="1" timestamp="2008-02-22T08:43:34Z" uid="7617" user="Franc" changeset="176531">
    <nd ref="200569876"/>
    <nd ref="65842025"/>
    <tag k="created_by" v="JOSM"/>
    <tag k="highway" v="residential"/>
    <tag k="name" v="FIXME"/>
  </way>
  <way id="23052727" version="2" timestamp="2009-01-21T11:45:54Z" uid="7617" user="Franc" changeset="820928"/>
  <way id="23052728" version="1" timestamp="2008-02-22T08:43:35Z" uid="7617" user="Franc" changeset="176531">
    <nd ref="199993117"/>
    <nd ref="248757363"/>
    <tag k="created_by" v="JOSM"/>
    <tag k="highway" v="residential"/>
    <tag k="name" v="Paul Street"/>
    <tag k="oneway" v="yes"/>
    <tag k="source" v="yahoo_imagery"/>
    <tag k="source:name" v="survey &amp; Extrapolation"/>
  </way>
  <way id="23052728" version="2" timestamp="2009-11-14T12:09:38Z" uid="117890" user="Jonathan Trott" changeset="3112508">
    <nd ref="199993117"/>
    <nd ref="248757363"/>
    <tag k="highway" v="residential"/>
    <tag k="name" v="Paul Street"/>
    <tag k="oneway" v="yes"/>
    <tag k="source" v="yahoo_imagery"/>
    <tag k="source:name" v="survey &amp; Extrapolation"/>
  </way>
  <way id="23052728" version="3" timestamp="2010-07-07T21:52:38Z" uid="74617" user="JohnSmith" changeset="5161069">
    <nd ref="199993117"/>
    <nd ref="248757363"/>
    <tag k="highway" v="residential"/>
    <tag k="maxspeed" v="50"/>
    <tag k="maxspeed:source" v="default residential speed limit in Australia"/>
    <tag k="name" v="Paul Street"/>
    <tag k="oneway" v="yes"/>
    <tag k="source" v="yahoo_imagery"/>
    <tag k="source:name" v="survey &amp; Extrapolation"/>
  </way>
  <way id="23052728" version="4" timestamp="2012-01-16T00:47:56Z" uid="147510" user="woodpeck_fixbot" changeset="10404406">
    <nd ref="199993117"/>
    <nd ref="248757363"/>
    <tag k="highway" v="residential"/>
    <tag k="name" v="Paul Street"/>
    <tag k="oneway" v="yes"/>
    <tag k="source" v="yahoo_imagery"/>
    <tag k="source:name" v="survey &amp; Extrapolation"/>
  </way>
  <way id="23052770" version="5" timestamp="2011-03-21T08:50:49Z" uid="4467" user="Rosscoe" changeset="7625026">
    <nd ref="248758238"/>
    <nd ref="248758239"/>
    <nd ref="248758241"/>
    <nd ref="248758242"/>
    <nd ref="268020241"/>
    <nd ref="268020239"/>
    <nd ref="248758243"/>
    <nd ref="248758244"/>
    <nd ref="248758246"/>
    <nd ref="248758238"/>
    <tag k="landuse" v="recreation_ground"/>
    <tag k="name" v="Davey Oval"/>
    <tag k="source" v="yahoo"/>
    <tag k="source:name" v="survey"/>
  </way>
  <way id="23052771" version="4" timestamp="2010-06-29T18:31:38Z" uid="74617" user="JohnSmith" changeset="5107971">
    <nd ref="248758250"/>
    <nd ref="248758252"/>
    <nd ref="248758254"/>
    <nd ref="248758256"/>
    <nd ref="248758250"/>
    <tag k="fixme" v="sport=football is ambiguous, please use sport=[soccer|rugby_league|rugby_union|australian_football|etc] instead, see http://wiki.osm.org/wiki/Football for more details"/>
    <tag k="leisure" v="pitch"/>
    <tag k="source" v="yahoo"/>
    <tag k="sport" v="football"/>
  </way>
  <way id="23052772" version="4" timestamp="2010-06-29T18:31:32Z" uid="74617" user="JohnSmith" changeset="5107971">
    <nd ref="248758261"/>
    <nd ref="248758259"/>
    <nd ref="248758263"/>
    <nd ref="248758265"/>
    <nd ref="248758261"/>
    <tag k="building" v="yes"/>
    <tag k="fixme" v="sport=football is ambiguous, please use sport=[soccer|rugby_league|rugby_union|australian_football|etc] instead, see http://wiki.osm.org/wiki/Football for more details"/>
    <tag k="leisure" v="sports_centre"/>
    <tag k="name" v="Salisbury East Junior Soccer Club"/>
    <tag k="source" v="yahoo"/>
    <tag k="source:name" v="survey"/>
    <tag k="sport" v="football"/>
  </way>
  <way id="23052773" version="1" timestamp="2008-02-22T08:50:13Z" uid="7617" user="Franc" changeset="176531">
    <nd ref="248758245"/>
    <nd ref="248758247"/>
    <nd ref="248758249"/>
    <nd ref="248758251"/>
    <nd ref="248758253"/>
    <nd ref="248758255"/>
    <nd ref="248758257"/>
    <nd ref="248758258"/>
    <nd ref="248758260"/>
    <nd ref="248758245"/>
    <tag k="amenity" v="school"/>
    <tag k="created_by" v="JOSM"/>
    <tag k="name" v="Bellevue Hill Public School"/>
    <tag k="source" v="yahoo_imagery &amp; survey"/>
  </way>
  <way id="23052773" version="2" timestamp="2009-11-14T12:04:25Z" uid="117890" user="Jonathan Trott" changeset="3112508">
    <nd ref="248758245"/>
    <nd ref="248758247"/>
    <nd ref="248758249"/>
    <nd ref="248758251"/>
    <nd ref="248758253"/>
    <nd ref="248758255"/>
    <nd ref="248758257"/>
    <nd ref="248758258"/>
    <nd ref="248758260"/>
    <nd ref="248758245"/>
    <tag k="amenity" v="school"/>
    <tag k="name" v="Bellevue Hill Public School"/>
    <tag k="source" v="yahoo_imagery &amp; survey"/>
  </way>
  <way id="23052773" version="3" timestamp="2010-07-04T03:26:48Z" uid="20949" user="Ebenezer" changeset="5129430">
    <nd ref="248758245"/>
    <nd ref="248758247"/>
    <nd ref="248758249"/>
    <nd ref="248758251"/>
    <nd ref="248758253"/>
    <nd ref="248758255"/>
    <nd ref="248758257"/>
    <nd ref="248758258"/>
    <nd ref="248758260"/>
    <nd ref="799928309"/>
    <nd ref="248758245"/>
    <tag k="amenity" v="school"/>
    <tag k="name" v="Bellevue Hill Public School"/>
    <tag k="source" v="yahoo_imagery &amp; survey"/>
  </way>
  <way id="23052774" version="1" timestamp="2008-02-22T08:50:13Z" uid="7617" user="Franc" changeset="176531">
    <nd ref="248758262"/>
    <nd ref="248758264"/>
    <nd ref="248758266"/>
    <nd ref="248758267"/>
    <nd ref="248758268"/>
    <nd ref="248758269"/>
    <nd ref="248758270"/>
    <nd ref="248758271"/>
    <nd ref="248758272"/>
    <nd ref="248758273"/>
    <nd ref="248758274"/>
    <nd ref="248758277"/>
    <nd ref="248758278"/>
    <nd ref="248758279"/>
    <nd ref="248758280"/>
    <nd ref="248758262"/>
    <tag k="created_by" v="JOSM"/>
    <tag k="leisure" v="park"/>
    <tag k="source" v="yahoo_imagery"/>
  </way>
  <way id="23052774" version="2" timestamp="2009-11-09T06:25:52Z" uid="30201" user="rrankin" changeset="3070916">
    <nd ref="248758262"/>
    <nd ref="248758264"/>
    <nd ref="248758266"/>
    <nd ref="248758267"/>
    <nd ref="248758268"/>
    <nd ref="559875775"/>
    <nd ref="248758269"/>
    <nd ref="248758270"/>
    <nd ref="248758271"/>
    <nd ref="248758272"/>
    <nd ref="248758273"/>
    <nd ref="248758274"/>
    <nd ref="248758277"/>
    <nd ref="248758278"/>
    <nd ref="248758279"/>
    <nd ref="248758280"/>
    <nd ref="248758262"/>
    <tag k="leisure" v="park"/>
    <tag k="name" v="Bellevue Park"/>
    <tag k="source" v="yahoo_imagery"/>
  </way>
  <way id="23052774" version="3" timestamp="2009-11-14T12:16:14Z" uid="117890" user="Jonathan Trott" changeset="3112508">
    <nd ref="248758262"/>
    <nd ref="248758264"/>
    <nd ref="248758266"/>
    <nd ref="248758267"/>
    <nd ref="248758268"/>
    <nd ref="559875775"/>
    <nd ref="248758269"/>
    <nd ref="248758270"/>
    <nd ref="248758271"/>
    <nd ref="248758272"/>
    <nd ref="248758273"/>
    <nd ref="248758274"/>
    <nd ref="248758277"/>
    <nd ref="248758278"/>
    <nd ref="248758279"/>
    <nd ref="248758280"/>
    <nd ref="248758262"/>
    <tag k="leisure" v="park"/>
    <tag k="name" v="Bellevue Park"/>
    <tag k="source" v="yahoo_imagery"/>
  </way>
  <way id="23052776" version="1" timestamp="2008-02-22T08:52:00Z" uid="7617" user="Franc" changeset="176531">
    <nd ref="248758282"/>
    <nd ref="248758283"/>
    <nd ref="248758284"/>
    <tag k="created_by" v="JOSM"/>
    <tag k="highway" v="residential"/>
    <tag k="source" v="yahoo_imagery"/>
  </way>
  <way id="23052776" version="2" timestamp="2009-11-09T06:25:52Z" uid="30201" user="rrankin" changeset="3070916">
    <nd ref="559875772"/>
    <nd ref="559875771"/>
    <nd ref="559875769"/>
    <nd ref="559875768"/>
    <nd ref="559875767"/>
    <nd ref="559875759"/>
    <nd ref="248758282"/>
    <tag k="highway" v="footway"/>
    <tag k="source" v="survey"/>
    <tag k="surface" v="paved"/>
  </way>
  <way id="23052776" version="3" timestamp="2009-11-14T12:16:14Z" uid="117890" user="Jonathan Trott" changeset="3112508">
    <nd ref="559875772"/>
    <nd ref="559875771"/>
    <nd ref="559875769"/>
    <nd ref="559875768"/>
    <nd ref="559875767"/>
    <nd ref="559875759"/>
    <nd ref="248758282"/>
    <tag k="highway" v="footway"/>
    <tag k="source" v="survey"/>
    <tag k="surface" v="paved"/>
  </way>
  <way id="23052782" version="1" timestamp="2008-02-22T08:54:27Z" uid="7617" user="Franc" changeset="176531">
    <nd ref="248758294"/>
    <nd ref="248758295"/>
    <tag k="created_by" v="JOSM"/>
    <tag k="highway" v="steps"/>
    <tag k="source" v="survey"/>
  </way>
  <way id="23052782" version="2" timestamp="2011-05-22T09:07:42Z" uid="7617" user="Franc" changeset="8213765">
    <nd ref="248758294"/>
    <nd ref="248758295"/>
    <nd ref="1295823781"/>
    <tag k="highway" v="steps"/>
    <tag k="source" v="survey"/>
  </way>
  <way id="23052869" version="1" timestamp="2008-02-22T09:04:01Z" uid="7617" user="Franc" changeset="176531">
    <nd ref="87725874"/>
    <nd ref="248758746"/>
    <nd ref="248758747"/>
    <tag k="created_by" v="JOSM"/>
    <tag k="highway" v="pes"/>
    <tag k="note" v="location based on photo while surveying and yahoo imagery - might not be correct"/>
    <tag k="source" v="yahoo_imagery &amp; survey"/>
  </way>
  <way id="23052869" version="2" timestamp="2009-03-16T04:32:36Z" uid="103574" user="Fairfield" changeset="819577">
    <nd ref="87725874"/>
    <nd ref="248758746"/>
    <nd ref="248758747"/>
    <tag k="created_by" v="Potlatch 0.10f"/>
    <tag k="highway" v="steps"/>
    <tag k="note" v="location based on photo while surveying and yahoo imagery - might not be correct"/>
    <tag k="source" v="yahoo_imagery &amp; survey"/>
  </way>
  <way id="23052969" version="1" timestamp="2008-02-22T09:21:22Z" uid="7617" user="Franc" changeset="176531">
    <nd ref="248759310"/>
    <nd ref="248759330"/>
    <nd ref="248759311"/>
    <nd ref="248759313"/>
    <nd ref="248759314"/>
    <nd ref="248759324"/>
    <nd ref="248759326"/>
    <nd ref="248759327"/>
    <nd ref="248759328"/>
    <nd ref="19172582"/>
    <tag k="created_by" v="JOSM"/>
    <tag k="highway" v="residential"/>
    <tag k="source" v="yahoo_imagery"/>
  </way>
  <way id="23052969" version="2" timestamp="2009-01-21T11:45:22Z" uid="7617" user="Franc" changeset="820928">
    <nd ref="248759313"/>
    <nd ref="248759311"/>
    <nd ref="248759330"/>
    <tag k="created_by" v="JOSM"/>
    <tag k="highway" v="residential"/>
    <tag k="name" v="John Street"/>
    <tag k="source" v="survey"/>
  </way>
  <way id="23052969" version="3" timestamp="2009-11-14T12:10:38Z" uid="117890" user="Jonathan Trott" changeset="3112508">
    <nd ref="248759313"/>
    <nd ref="248759311"/>
    <nd ref="248759330"/>
    <tag k="highway" v="residential"/>
    <tag k="name" v="John Street"/>
    <tag k="source" v="survey"/>
  </way>
  <way id="23052969" version="4" timestamp="2010-07-07T21:49:02Z" uid="74617" user="JohnSmith" changeset="5161069">
    <nd ref="248759313"/>
    <nd ref="248759311"/>
    <nd ref="248759330"/>
    <tag k="highway" v="residential"/>
    <tag k="maxspeed" v="50"/>
    <tag k="maxspeed:source" v="default residential speed limit in Australia"/>
    <tag k="name" v="John Street"/>
    <tag k="source" v="survey"/>
  </way>
  <way id="23052969" version="5" timestamp="2012-01-16T00:47:58Z" uid="147510" user="woodpeck_fixbot" changeset="10404406">
    <nd ref="248759313"/>
    <nd ref="248759311"/>
    <nd ref="248759330"/>
    <tag k="highway" v="residential"/>
    <tag k="name" v="John Street"/>
    <tag k="source" v="survey"/>
  </way>
  <way id="23052970" version="1" timestamp="2008-02-22T09:21:23Z" uid="7617" user="Franc" changeset="176531">
    <nd ref="248759329"/>
    <nd ref="248759330"/>
    <tag k="created_by" v="JOSM"/>
    <tag k="highway" v="residential"/>
    <tag k="source" v="yahoo_imagery"/>
  </way>
  <way id="23052970" version="2" timestamp="2009-01-21T12:42:14Z" uid="7617" user="Franc" changeset="820928">
    <nd ref="248759329"/>
    <nd ref="248759330"/>
    <tag k="created_by" v="JOSM"/>
    <tag k="highway" v="residential"/>
    <tag k="source" v="survey"/>
  </way>
  <way id="23052970" version="3" timestamp="2009-01-22T09:13:01Z" uid="7617" user="Franc" changeset="823284">
    <nd ref="248759329"/>
    <nd ref="248759330"/>
    <tag k="created_by" v="JOSM"/>
    <tag k="highway" v="residential"/>
    <tag k="name" v="Edmund Street"/>
    <tag k="source" v="survey"/>
  </way>
  <way id="23052970" version="4" timestamp="2009-11-14T12:10:38Z" uid="117890" user="Jonathan Trott" changeset="3112508">
    <nd ref="248759329"/>
    <nd ref="248759330"/>
    <tag k="highway" v="residential"/>
    <tag k="name" v="Edmund Street"/>
    <tag k="source" v="survey"/>
  </way>
  <way id="23052970" version="5" timestamp="2010-07-07T21:50:55Z" uid="74617" user="JohnSmith" changeset="5161069">
    <nd ref="248759329"/>
    <nd ref="248759330"/>
    <tag k="highway" v="residential"/>
    <tag k="maxspeed" v="50"/>
    <tag k="maxspeed:source" v="default residential speed limit in Australia"/>
    <tag k="name" v="Edmund Street"/>
    <tag k="source" v="survey"/>
  </way>
  <way id="23052970" version="6" timestamp="2012-01-16T00:47:59Z" uid="147510" user="woodpeck_fixbot" changeset="10404406">
    <nd ref="248759329"/>
    <nd ref="248759330"/>
    <tag k="highway" v="residential"/>
    <tag k="name" v="Edmund Street"/>
    <tag k="source" v="survey"/>
  </way>
  <way id="23052971" version="1" timestamp="2008-02-22T09:21:24Z" uid="7617" user="Franc" changeset="176531">
    <nd ref="19172524"/>
    <nd ref="248759329"/>
    <nd ref="248759326"/>
    <nd ref="19172662"/>
    <tag k="created_by" v="JOSM"/>
    <tag k="highway" v="residential"/>
    <tag k="name" v="Victoria Street"/>
    <tag k="note" v="FIXME previously unwayed segment"/>
  </way>
  <way id="23052971" version="2" timestamp="2009-01-24T12:55:37Z" uid="7617" user="Franc" changeset="830203">
    <nd ref="19172524"/>
    <nd ref="248759329"/>
    <nd ref="248759326"/>
    <nd ref="19172662"/>
    <tag k="created_by" v="JOSM"/>
    <tag k="highway" v="residential"/>
    <tag k="name" v="Victoria Street"/>
  </way>
  <way id="23052971" version="3" timestamp="2009-11-14T12:10:40Z" uid="117890" user="Jonathan Trott" changeset="3112508">
    <nd ref="19172524"/>
    <nd ref="248759329"/>
    <nd ref="248759326"/>
    <nd ref="19172662"/>
    <tag k="highway" v="residential"/>
    <tag k="name" v="Victoria Street"/>
  </way>
  <way id="23052971" version="4" timestamp="2010-05-29T22:58:15Z" uid="20949" user="Ebenezer" changeset="4847294">
    <nd ref="19172524"/>
    <nd ref="757457004"/>
    <nd ref="248759329"/>
    <nd ref="248759326"/>
    <nd ref="19172662"/>
    <tag k="cycleway" v="lane"/>
    <tag k="highway" v="residential"/>
    <tag k="lcn" v="yes"/>
    <tag k="name" v="Victoria Street"/>
  </way>
  <way id="23052971" version="5" timestamp="2010-07-07T21:47:59Z" uid="74617" user="JohnSmith" changeset="5161069">
    <nd ref="19172524"/>
    <nd ref="757457004"/>
    <nd ref="248759329"/>
    <nd ref="248759326"/>
    <nd ref="19172662"/>
    <tag k="cycleway" v="lane"/>
    <tag k="highway" v="residential"/>
    <tag k="lcn" v="yes"/>
    <tag k="maxspeed" v="50"/>
    <tag k="maxspeed:source" v="default residential speed limit in Australia"/>
    <tag k="name" v="Victoria Street"/>
  </way>
  <way id="23052971" version="6" timestamp="2010-10-16T02:42:39Z" uid="7617" user="Franc" changeset="6053967">
    <nd ref="19172524"/>
    <nd ref="951024855"/>
    <nd ref="757457004"/>
    <nd ref="248759329"/>
    <nd ref="248759326"/>
    <nd ref="19172662"/>
    <tag k="cycleway" v="lane"/>
    <tag k="highway" v="residential"/>
    <tag k="lcn" v="yes"/>
    <tag k="maxspeed" v="50"/>
    <tag k="maxspeed:source" v="default residential speed limit in Australia"/>
    <tag k="name" v="Victoria Street"/>
  </way>
  <way id="23052971" version="7" timestamp="2012-01-16T00:48:00Z" uid="147510" user="woodpeck_fixbot" changeset="10404406">
    <nd ref="19172524"/>
    <nd ref="951024855"/>
    <nd ref="757457004"/>
    <nd ref="248759329"/>
    <nd ref="248759326"/>
    <nd ref="19172662"/>
    <tag k="cycleway" v="lane"/>
    <tag k="highway" v="residential"/>
    <tag k="lcn" v="yes"/>
    <tag k="name" v="Victoria Street"/>
  </way>
  <way id="23052972" version="1" timestamp="2008-02-22T09:21:24Z" uid="7617" user="Franc" changeset="176531">
    <nd ref="19172524"/>
    <nd ref="248759310"/>
    <nd ref="19172692"/>
    <nd ref="14698313"/>
    <nd ref="14698314"/>
    <nd ref="18811075"/>
    <tag k="created_by" v="JOSM"/>
    <tag k="highway" v="primary"/>
    <tag k="name" v="Carrington Road"/>
  </way>
  <way id="23052972" version="2" timestamp="2008-04-12T06:27:18Z" uid="7617" user="Franc" changeset="122422">
    <nd ref="19172524"/>
    <nd ref="248759310"/>
    <nd ref="19172692"/>
    <nd ref="14698313"/>
    <nd ref="14698314"/>
    <nd ref="257005242"/>
    <nd ref="257005246"/>
    <nd ref="257005474"/>
    <nd ref="257005470"/>
    <nd ref="257005494"/>
    <nd ref="18811075"/>
    <tag k="created_by" v="JOSM"/>
    <tag k="highway" v="primary"/>
    <tag k="name" v="Carrington Road"/>
  </way>
  <way id="23052972" version="3" timestamp="2008-04-12T06:44:42Z" uid="7617" user="Franc" changeset="122422">
    <nd ref="19172524"/>
    <nd ref="248759310"/>
    <nd ref="19172692"/>
    <nd ref="14698313"/>
    <nd ref="257006209"/>
    <nd ref="257006212"/>
    <nd ref="14698314"/>
    <nd ref="257005242"/>
    <nd ref="257005246"/>
    <nd ref="257005474"/>
    <nd ref="257005470"/>
    <nd ref="257005494"/>
    <nd ref="18811075"/>
    <tag k="created_by" v="JOSM"/>
    <tag k="highway" v="primary"/>
    <tag k="name" v="Carrington Road"/>
  </way>
  <way id="23052972" version="4" timestamp="2009-11-14T12:04:51Z" uid="117890" user="Jonathan Trott" changeset="3112508">
    <nd ref="19172524"/>
    <nd ref="248759310"/>
    <nd ref="19172692"/>
    <nd ref="14698313"/>
    <nd ref="257006209"/>
    <nd ref="257006212"/>
    <nd ref="14698314"/>
    <nd ref="257005242"/>
    <nd ref="257005246"/>
    <nd ref="257005474"/>
    <nd ref="257005470"/>
    <nd ref="257005494"/>
    <nd ref="18811075"/>
    <tag k="highway" v="primary"/>
    <tag k="name" v="Carrington Road"/>
  </way>
  <way id="23052972" version="5" timestamp="2009-12-27T03:35:28Z" uid="12203" user="brainwad" changeset="3460027">
    <nd ref="19172524"/>
    <nd ref="248759310"/>
    <nd ref="19172692"/>
    <nd ref="14698313"/>
    <nd ref="257006209"/>
    <nd ref="257006212"/>
    <nd ref="14698314"/>
    <tag k="highway" v="primary"/>
    <tag k="maxspeed" v="60"/>
    <tag k="name" v="Carrington Road"/>
  </way>
  <way id="23052973" version="1" timestamp="2008-02-22T09:21:25Z" uid="7617" user="Franc" changeset="176531">
    <nd ref="248759333"/>
    <nd ref="248759334"/>
    <tag k="car" v="no"/>
    <tag k="created_by" v="JOSM"/>
    <tag k="highway" v="pedestrian"/>
  </way>
  <way id="23052973" version="2" timestamp="2009-09-22T04:59:30Z" uid="4467" user="Rosscoe" changeset="2564527">
    <nd ref="248759333"/>
    <nd ref="248759334"/>
    <tag k="highway" v="pedestrian"/>
    <tag k="motorcar" v="no"/>
  </way>
  <way id="23052973" version="3" timestamp="2009-11-14T12:09:21Z" uid="117890" user="Jonathan Trott" changeset="3112508">
    <nd ref="248759333"/>
    <nd ref="248759334"/>
    <tag k="highway" v="pedestrian"/>
    <tag k="motorcar" v="no"/>
  </way>
  <way id="23052974" version="5" timestamp="2008-10-10T08:01:23Z" uid="65847" user="LKK" changeset="209907">
    <nd ref="248759312"/>
    <nd ref="248759363"/>
    <tag k="created_by" v="Potlatch 0.7b"/>
    <tag k="highway" v="service"/>
  </way>
  <way id="23052996" version="3" timestamp="2008-10-10T08:01:25Z" uid="65847" user="LKK" changeset="209907">
    <nd ref="248759443"/>
    <nd ref="248759446"/>
    <tag k="created_by" v="Potlatch 0.7b"/>
    <tag k="highway" v="service"/>
  </way>
  <way id="23052039" version="10" timestamp="2012-07-22T23:03:43Z" uid="298560" user="evod" changeset="12441816">
    <nd ref="65025551"/>
    <nd ref="254077700"/>
    <nd ref="254077699"/>
    <nd ref="65025556"/>
    <tag k="highway" v="service"/>
    <tag k="lanes" v="1"/>
    <tag k="name" v="Währinger Gürtelweg"/>
    <tag k="oneway" v="yes"/>
  </way>
  <way id="23052199" version="8" timestamp="2012-07-19T20:07:14Z" uid="722137" user="OSMF Redaction Account" changeset="12345715">
    <nd ref="248750552"/>
    <nd ref="248750555"/>
    <tag k="highway" v="residential"/>
  </way>
  <way id="23052201" version="7" timestamp="2012-07-19T20:07:15Z" uid="722137" user="OSMF Redaction Account" changeset="12345715">
    <nd ref="248750566"/>
    <nd ref="248750597"/>
    <nd ref="248750596"/>
    <tag k="highway" v="residential"/>
  </way>
  <way id="23052206" version="9" timestamp="2012-07-19T20:07:12Z" uid="722137" user="OSMF Redaction Account" changeset="12345715">
    <nd ref="248750597"/>
    <nd ref="248750610"/>
    <nd ref="248750611"/>
    <nd ref="248750612"/>
    <nd ref="248750617"/>
    <nd ref="248750613"/>
    <nd ref="248750614"/>
    <nd ref="248750615"/>
    <nd ref="248750616"/>
    <tag k="highway" v="residential"/>
  </way>
  <way id="23052207" version="6" timestamp="2012-07-19T20:07:48Z" uid="722137" user="OSMF Redaction Account" changeset="12345715">
    <nd ref="248750617"/>
    <nd ref="248750618"/>
    <nd ref="248750619"/>
    <nd ref="248750620"/>
    <tag k="highway" v="residential"/>
  </way>
  <way id="23052210" version="8" timestamp="2012-07-19T20:10:34Z" uid="722137" user="OSMF Redaction Account" changeset="12345801"/>
  <way id="23052211" version="7" timestamp="2012-07-19T20:07:20Z" uid="722137" user="OSMF Redaction Account" changeset="12345715">
    <nd ref="248750643"/>
    <nd ref="248750646"/>
    <nd ref="248750647"/>
    <nd ref="248750648"/>
    <tag k="highway" v="residential"/>
  </way>
  <way id="23052212" version="21" timestamp="2012-07-29T10:25:02Z" uid="8296" user="kuede" changeset="12533022">
    <nd ref="248750557"/>
    <nd ref="1842521062"/>
    <nd ref="248750558"/>
    <nd ref="248750559"/>
    <nd ref="1842521006"/>
    <nd ref="248750560"/>
    <nd ref="248751526"/>
    <nd ref="248751522"/>
    <nd ref="248750561"/>
    <nd ref="248751421"/>
    <nd ref="248750562"/>
    <nd ref="248751309"/>
    <nd ref="248751348"/>
    <nd ref="248750563"/>
    <nd ref="248751247"/>
    <nd ref="248751176"/>
    <nd ref="248751161"/>
    <nd ref="248750705"/>
    <nd ref="248750565"/>
    <nd ref="248750632"/>
    <nd ref="248750633"/>
    <tag k="highway" v="residential"/>
    <tag k="name" v="Charles Avenue"/>
  </way>
  <way id="23052212" version="22" timestamp="2012-09-04T01:21:21Z" uid="104101" user="swanilli" changeset="12975674">
    <nd ref="248750557"/>
    <nd ref="1842521062"/>
    <nd ref="248750558"/>
    <nd ref="248750559"/>
    <nd ref="1842521006"/>
    <nd ref="248750560"/>
    <nd ref="248751526"/>
    <nd ref="248751522"/>
    <nd ref="1897458732"/>
    <nd ref="248750561"/>
    <nd ref="248751421"/>
    <nd ref="248750562"/>
    <nd ref="248751309"/>
    <nd ref="248751348"/>
    <nd ref="248750563"/>
    <nd ref="248751247"/>
    <nd ref="248751176"/>
    <nd ref="248751161"/>
    <nd ref="248750705"/>
    <nd ref="248750565"/>
    <nd ref="248750632"/>
    <nd ref="248750633"/>
    <tag k="highway" v="residential"/>
    <tag k="name" v="Charles Avenue"/>
  </way>
  <way id="23052216" version="7" timestamp="2012-07-19T20:07:30Z" uid="722137" user="OSMF Redaction Account" changeset="12345715">
    <nd ref="248750687"/>
    <nd ref="248750688"/>
    <nd ref="248750689"/>
    <tag k="highway" v="residential"/>
    <tag k="name" v="Binomea Place"/>
  </way>
  <way id="23052216" version="8" timestamp="2012-08-08T13:52:26Z" uid="510836" user="Rub21" changeset="12657455">
    <nd ref="1857195678"/>
    <nd ref="1857195676"/>
    <nd ref="248750687"/>
    <nd ref="248750688"/>
    <nd ref="248750689"/>
    <tag k="highway" v="residential"/>
    <tag k="name" v="Binomea Place"/>
  </way>
  <way id="23052217" version="6" timestamp="2012-07-19T20:07:31Z" uid="722137" user="OSMF Redaction Account" changeset="12345715">
    <nd ref="248750690"/>
    <nd ref="248750691"/>
    <tag k="highway" v="residential"/>
    <tag k="name" v="Cladden Close"/>
  </way>
  <way id="23052219" version="7" timestamp="2012-08-19T01:12:31Z" uid="156866" user="bertboy" changeset="12778814">
    <nd ref="248610599"/>
    <nd ref="248750693"/>
    <nd ref="248750695"/>
    <nd ref="248750696"/>
    <nd ref="330188120"/>
    <nd ref="248750943"/>
    <nd ref="1872079056"/>
    <tag k="highway" v="residential"/>
    <tag k="name" v="Malton Road"/>
  </way>
  <way id="23052220" version="5" timestamp="2012-07-19T20:07:44Z" uid="722137" user="OSMF Redaction Account" changeset="12345715">
    <nd ref="248750693"/>
    <nd ref="248750697"/>
    <tag k="highway" v="residential"/>
  </way>
  <way id="23052224" version="8" timestamp="2012-07-19T20:07:32Z" uid="722137" user="OSMF Redaction Account" changeset="12345715">
    <nd ref="248610393"/>
    <nd ref="248750707"/>
    <nd ref="248750708"/>
    <nd ref="248750709"/>
    <nd ref="248750710"/>
    <nd ref="248750711"/>
    <nd ref="248750712"/>
    <nd ref="248750716"/>
    <tag k="highway" v="residential"/>
    <tag k="name" v="Sutherland Road"/>
  </way>
  <way id="23052224" version="9" timestamp="2012-08-02T13:24:37Z" uid="510679" user="klo" changeset="12585607"/>
  <way id="23052227" version="6" timestamp="2012-07-19T20:07:34Z" uid="722137" user="OSMF Redaction Account" changeset="12345715">
    <nd ref="248750716"/>
    <nd ref="248750873"/>
    <tag k="highway" v="residential"/>
    <tag k="name" v="Narena Close"/>
  </way>
  <way id="23052233" version="5" timestamp="2012-07-20T05:21:54Z" uid="722137" user="OSMF Redaction Account" changeset="12361807">
    <nd ref="248610611"/>
    <nd ref="248750943"/>
    <tag k="highway" v="residential"/>
  </way>
  <way id="23052238" version="7" timestamp="2012-07-20T05:21:57Z" uid="722137" user="OSMF Redaction Account" changeset="12361807">
    <nd ref="248610617"/>
    <nd ref="248751145"/>
    <nd ref="248751146"/>
    <nd ref="248751147"/>
    <nd ref="248751148"/>
    <nd ref="248751149"/>
    <nd ref="248751150"/>
    <nd ref="248751151"/>
    <nd ref="248751152"/>
    <nd ref="248751153"/>
    <tag k="highway" v="residential"/>
    <tag k="name" v="Cobran Road"/>
  </way>
  <way id="23052238" version="8" timestamp="2012-08-19T01:12:31Z" uid="156866" user="bertboy" changeset="12778814">
    <nd ref="248610617"/>
    <nd ref="248751145"/>
    <nd ref="248751146"/>
    <nd ref="248751147"/>
    <nd ref="248751148"/>
    <nd ref="248751149"/>
    <nd ref="248751150"/>
    <nd ref="248751151"/>
    <nd ref="248751152"/>
    <nd ref="248751153"/>
    <nd ref="1872079055"/>
    <tag k="highway" v="residential"/>
    <tag k="name" v="Cobran Road"/>
  </way>
  <way id="23052243" version="5" timestamp="2012-07-20T05:22:03Z" uid="722137" user="OSMF Redaction Account" changeset="12361807">
    <nd ref="248751162"/>
    <nd ref="248751163"/>
    <nd ref="248751164"/>
    <tag k="highway" v="residential"/>
  </way>
  <way id="23052243" version="6" timestamp="2012-08-19T06:31:14Z" uid="156866" user="bertboy" changeset="12779847">
    <nd ref="1872274708"/>
    <nd ref="248751162"/>
    <nd ref="1872274704"/>
    <nd ref="248751163"/>
    <nd ref="248751164"/>
    <nd ref="1872274709"/>
    <tag k="highway" v="residential"/>
    <tag k="name" v="Old Beecroft Road"/>
  </way>
  <way id="23052246" version="5" timestamp="2012-07-20T05:26:15Z" uid="722137" user="OSMF Redaction Account" changeset="12361944">
    <nd ref="60984514"/>
    <nd ref="173044104"/>
    <nd ref="248751178"/>
    <tag k="highway" v="residential"/>
  </way>
  <way id="23052250" version="6" timestamp="2012-07-20T05:22:29Z" uid="722137" user="OSMF Redaction Account" changeset="12361807">
    <nd ref="248751179"/>
    <nd ref="248751230"/>
    <tag k="highway" v="residential"/>
  </way>
  <way id="23052250" version="7" timestamp="2012-07-31T07:11:21Z" uid="25154" user="GeoffC" changeset="12557417">
    <nd ref="248751179"/>
    <nd ref="248751230"/>
    <nd ref="1844950684"/>
    <nd ref="1844950686"/>
    <nd ref="248751231"/>
    <tag k="highway" v="residential"/>
  </way>
  <way id="23052250" version="8" timestamp="2012-08-04T08:00:25Z" uid="156866" user="bertboy" changeset="12605920">
    <nd ref="248751179"/>
    <nd ref="248751230"/>
    <nd ref="1844950684"/>
    <nd ref="1844950686"/>
    <nd ref="1851200673"/>
    <nd ref="248751231"/>
    <tag k="highway" v="residential"/>
  </way>
  <way id="23052254" version="5" timestamp="2012-07-20T05:26:16Z" uid="722137" user="OSMF Redaction Account" changeset="12361944">
    <nd ref="248751232"/>
    <nd ref="248751248"/>
    <nd ref="248751249"/>
    <nd ref="248751250"/>
    <nd ref="248751251"/>
    <tag k="highway" v="residential"/>
  </way>
  <way id="23052257" version="9" timestamp="2012-07-20T05:32:29Z" uid="722137" user="OSMF Redaction Account" changeset="12362157"/>
  <way id="23052259" version="8" timestamp="2012-07-20T05:22:37Z" uid="722137" user="OSMF Redaction Account" changeset="12361807">
    <nd ref="248751271"/>
    <nd ref="248751298"/>
    <nd ref="60984512"/>
    <tag k="highway" v="residential"/>
  </way>
  <way id="23052264" version="5" timestamp="2012-07-20T05:22:37Z" uid="722137" user="OSMF Redaction Account" changeset="12361807">
    <nd ref="248751298"/>
    <nd ref="248751310"/>
    <nd ref="248751311"/>
    <nd ref="248751312"/>
    <nd ref="248751313"/>
    <tag k="highway" v="residential"/>
  </way>
  <way id="23052266" version="5" timestamp="2012-07-20T05:26:13Z" uid="722137" user="OSMF Redaction Account" changeset="12361944">
    <nd ref="60984510"/>
    <nd ref="248751337"/>
    <tag k="highway" v="residential"/>
  </way>
  <way id="23052268" version="8" timestamp="2012-07-20T05:22:41Z" uid="722137" user="OSMF Redaction Account" changeset="12361807">
    <nd ref="672572745"/>
    <nd ref="248751342"/>
    <tag k="highway" v="residential"/>
    <tag k="lcn" v="yes"/>
    <tag k="name" v="Essex Street"/>
  </way>
  <way id="23052269" version="5" timestamp="2012-07-20T05:26:14Z" uid="722137" user="OSMF Redaction Account" changeset="12361944">
    <nd ref="248751344"/>
    <nd ref="248751345"/>
    <tag k="highway" v="residential"/>
  </way>
  <way id="23052271" version="7" timestamp="2012-09-04T01:21:24Z" uid="104101" user="swanilli" changeset="12975674">
    <nd ref="1897458704"/>
    <nd ref="248751348"/>
    <nd ref="248751349"/>
    <tag k="highway" v="residential"/>
    <tag k="name" v="North Street"/>
  </way>
  <way id="23052272" version="5" timestamp="2012-07-20T05:26:14Z" uid="722137" user="OSMF Redaction Account" changeset="12361944">
    <nd ref="248751350"/>
    <nd ref="248751351"/>
    <nd ref="248751352"/>
    <nd ref="248751353"/>
    <nd ref="248751354"/>
    <tag k="highway" v="residential"/>
  </way>
  <way id="23052273" version="8" timestamp="2012-07-20T05:26:14Z" uid="722137" user="OSMF Redaction Account" changeset="12361944">
    <nd ref="248751272"/>
    <nd ref="248751388"/>
    <nd ref="248751358"/>
    <nd ref="248751392"/>
    <nd ref="248751356"/>
    <nd ref="248751357"/>
    <tag k="highway" v="residential"/>
  </way>
  <way id="23052276" version="5" timestamp="2012-07-20T05:26:14Z" uid="722137" user="OSMF Redaction Account" changeset="12361944">
    <nd ref="248751358"/>
    <nd ref="248751383"/>
    <tag k="highway" v="residential"/>
  </way>
  <way id="23052276" version="6" timestamp="2012-07-31T06:47:32Z" uid="25154" user="GeoffC" changeset="12557237">
    <nd ref="248751358"/>
    <nd ref="248751383"/>
    <nd ref="248751384"/>
    <nd ref="1844940172"/>
    <nd ref="248751385"/>
    <nd ref="248751386"/>
    <nd ref="1844940170"/>
    <nd ref="248751387"/>
    <nd ref="1844940171"/>
    <nd ref="248751388"/>
    <tag k="highway" v="residential"/>
  </way>
  <way id="23052279" version="5" timestamp="2012-07-20T05:22:34Z" uid="722137" user="OSMF Redaction Account" changeset="12361807">
    <nd ref="248751392"/>
    <nd ref="248751393"/>
    <tag k="highway" v="residential"/>
  </way>
  <way id="23052282" version="6" timestamp="2012-07-20T05:22:44Z" uid="722137" user="OSMF Redaction Account" changeset="12361807">
    <nd ref="248751411"/>
    <nd ref="248751412"/>
    <nd ref="248751413"/>
    <nd ref="248751414"/>
    <nd ref="248751415"/>
    <tag k="highway" v="residential"/>
  </way>
  <way id="23052285" version="6" timestamp="2012-07-20T05:26:13Z" uid="722137" user="OSMF Redaction Account" changeset="12361944">
    <nd ref="248751416"/>
    <nd ref="248751423"/>
    <nd ref="248751424"/>
    <tag k="highway" v="residential"/>
  </way>
  <way id="23052297" version="6" timestamp="2012-09-04T01:21:22Z" uid="104101" user="swanilli" changeset="12975674">
    <nd ref="248751522"/>
    <nd ref="248751523"/>
    <nd ref="248751524"/>
    <nd ref="248751525"/>
    <nd ref="1897458734"/>
    <nd ref="1897458737"/>
    <nd ref="1897458741"/>
    <nd ref="1897458744"/>
    <nd ref="1897458747"/>
    <nd ref="1897458750"/>
    <nd ref="1897458753"/>
    <nd ref="1897458755"/>
    <nd ref="1897458754"/>
    <nd ref="1897458748"/>
    <nd ref="1897458743"/>
    <nd ref="1897458739"/>
    <nd ref="1897458736"/>
    <nd ref="1897458730"/>
    <nd ref="1897458735"/>
    <nd ref="1897458740"/>
    <nd ref="1897458746"/>
    <nd ref="1897458751"/>
    <nd ref="1897458757"/>
    <nd ref="1897458759"/>
    <nd ref="1897458763"/>
    <nd ref="1897458765"/>
    <nd ref="1897458767"/>
    <nd ref="1897458768"/>
    <nd ref="1897458771"/>
    <nd ref="1897458776"/>
    <nd ref="1897458790"/>
    <tag k="foot" v="yes"/>
    <tag k="highway" v="path"/>
    <tag k="name" v="Kiama Coast Walk"/>
    <tag k="surface" v="unpaved"/>
  </way>
  <way id="23052305" version="9" timestamp="2012-07-09T22:31:11Z" uid="713671" user="auspod" changeset="12167823">
    <nd ref="1819513031"/>
    <nd ref="26400439"/>
    <tag k="highway" v="residential"/>
    <tag k="lcn" v="yes"/>
    <tag k="name" v="Morrison Road"/>
  </way>
  <way id="23052305" version="10" timestamp="2012-07-20T05:25:50Z" uid="722137" user="OSMF Redaction Account" changeset="12361944">
    <nd ref="1819513031"/>
    <nd ref="26400439"/>
    <tag k="highway" v="residential"/>
    <tag k="lcn" v="yes"/>
  </way>
  <way id="23052305" version="11" timestamp="2012-07-21T10:20:31Z" uid="47167" user="MCH" changeset="12405446">
    <nd ref="1819513031"/>
    <nd ref="1832950281"/>
    <tag k="highway" v="residential"/>
    <tag k="lcn" v="yes"/>
  </way>
  <way id="23052305" version="12" timestamp="2012-07-25T00:08:04Z" uid="7523" user="inas" changeset="12478956">
    <nd ref="1819513031"/>
    <nd ref="1832950281"/>
    <nd ref="1832950216"/>
    <tag k="highway" v="residential"/>
    <tag k="lcn" v="yes"/>
    <tag k="maxspeed" v="50"/>
    <tag k="name" v="Morrison Road"/>
  </way>
  <way id="23052308" version="6" timestamp="2012-07-09T22:31:12Z" uid="713671" user="auspod" changeset="12167823">
    <nd ref="1819513005"/>
    <nd ref="248751626"/>
    <nd ref="248751627"/>
    <nd ref="654585677"/>
    <nd ref="433818667"/>
    <tag k="highway" v="residential"/>
    <tag k="name" v="Willandra Street"/>
    <tag k="source" v="survey"/>
  </way>
  <way id="23052308" version="7" timestamp="2012-07-20T05:23:31Z" uid="722137" user="OSMF Redaction Account" changeset="12361807">
    <nd ref="1819513005"/>
    <nd ref="248751626"/>
    <nd ref="248751627"/>
    <tag k="highway" v="residential"/>
  </way>
  <way id="23052308" version="8" timestamp="2012-07-30T16:04:47Z" uid="2585" user="rw_" changeset="12549970">
    <nd ref="1819513005"/>
    <nd ref="248751626"/>
    <nd ref="248751627"/>
    <nd ref="1844184791"/>
    <nd ref="1844184793"/>
    <nd ref="1844184790"/>
    <nd ref="1844184783"/>
    <nd ref="1819512835"/>
    <nd ref="1844184773"/>
    <tag k="highway" v="residential"/>
  </way>
  <way id="23052315" version="3" timestamp="2012-07-20T02:50:22Z" uid="722137" user="OSMF Redaction Account" changeset="12358683"/>
  <way id="23052316" version="8" timestamp="2012-07-20T02:50:18Z" uid="722137" user="OSMF Redaction Account" changeset="12358683"/>
  <way id="23052317" version="5" timestamp="2012-07-20T02:51:09Z" uid="722137" user="OSMF Redaction Account" changeset="12358696"/>
  <way id="23052318" version="7" timestamp="2012-07-20T02:51:06Z" uid="722137" user="OSMF Redaction Account" changeset="12358696"/>
  <way id="23052319" version="6" timestamp="2012-07-20T02:51:08Z" uid="722137" user="OSMF Redaction Account" changeset="12358696"/>
  <way id="23052320" version="7" timestamp="2012-07-20T02:51:07Z" uid="722137" user="OSMF Redaction Account" changeset="12358696"/>
  <way id="23052321" version="6" timestamp="2012-07-20T02:51:09Z" uid="722137" user="OSMF Redaction Account" changeset="12358696"/>
  <way id="23052322" version="8" timestamp="2012-07-20T02:50:36Z" uid="722137" user="OSMF Redaction Account" changeset="12358683"/>
  <way id="23052323" version="5" timestamp="2012-07-20T02:50:57Z" uid="722137" user="OSMF Redaction Account" changeset="12358696"/>
  <way id="23052324" version="4" timestamp="2012-07-20T02:50:25Z" uid="722137" user="OSMF Redaction Account" changeset="12358683"/>
  <way id="23052335" version="3" timestamp="2012-07-20T02:51:01Z" uid="722137" user="OSMF Redaction Account" changeset="12358696"/>
  <way id="23052336" version="4" timestamp="2012-07-20T02:50:58Z" uid="722137" user="OSMF Redaction Account" changeset="12358696"/>
  <way id="23052362" version="2" timestamp="2012-07-20T02:50:40Z" uid="722137" user="OSMF Redaction Account" changeset="12358683"/>
  <way id="23052396" version="6" timestamp="2012-07-21T19:07:51Z" uid="722137" user="OSMF Redaction Account" changeset="12418004">
    <nd ref="248753259"/>
    <nd ref="248753260"/>
    <tag k="highway" v="residential"/>
    <tag k="name" v="Croom Road"/>
  </way>
  <way id="23052406" version="13" timestamp="2012-06-13T14:01:23Z" uid="67896" user="mrpulley" changeset="11885290">
    <nd ref="248753412"/>
    <nd ref="678344295"/>
    <nd ref="678344293"/>
    <nd ref="33024916"/>
    <tag k="highway" v="trunk_link"/>
    <tag k="maxspeed" v="70"/>
    <tag k="oneway" v="yes"/>
  </way>
  <way id="23052406" version="14" timestamp="2012-07-21T19:07:11Z" uid="722137" user="OSMF Redaction Account" changeset="12418004">
    <nd ref="248753412"/>
    <nd ref="33024916"/>
    <tag k="highway" v="trunk_link"/>
    <tag k="oneway" v="yes"/>
  </way>
  <way id="23052406" version="15" timestamp="2012-07-23T12:28:22Z" uid="288333" user="RM87" changeset="12449754">
    <nd ref="12234186"/>
    <nd ref="12234187"/>
    <nd ref="678344293"/>
    <nd ref="33024916"/>
    <tag k="highway" v="trunk_link"/>
    <tag k="oneway" v="yes"/>
  </way>
  <way id="23052406" version="16" timestamp="2012-08-11T13:15:06Z" uid="67896" user="mrpulley" changeset="12691105">
    <nd ref="12234186"/>
    <nd ref="12234187"/>
    <nd ref="678344293"/>
    <nd ref="33024916"/>
    <tag k="highway" v="trunk_link"/>
    <tag k="name" v="Princes Highway"/>
    <tag k="network" v="NR"/>
    <tag k="oneway" v="yes"/>
    <tag k="ref" v="1"/>
  </way>
  <way id="23052433" version="13" timestamp="2012-07-21T17:12:06Z" uid="722137" user="OSMF Redaction Account" changeset="12415662">
    <nd ref="248753567"/>
    <nd ref="248753566"/>
    <nd ref="248753565"/>
    <nd ref="248753564"/>
    <nd ref="248753563"/>
    <nd ref="248753840"/>
    <nd ref="248753889"/>
    <nd ref="291543876"/>
    <tag k="highway" v="service"/>
  </way>
  <way id="23052475" version="7" timestamp="2012-07-21T17:12:06Z" uid="722137" user="OSMF Redaction Account" changeset="12415662">
    <nd ref="248753840"/>
    <nd ref="248753844"/>
    <nd ref="248753885"/>
    <nd ref="248753841"/>
    <nd ref="248753842"/>
    <nd ref="248753843"/>
    <nd ref="248753844"/>
    <tag k="highway" v="service"/>
  </way>
  <way id="23052568" version="13" timestamp="2012-07-21T19:07:32Z" uid="722137" user="OSMF Redaction Account" changeset="12418004">
    <nd ref="248755345"/>
    <nd ref="764406301"/>
    <nd ref="248755521"/>
    <nd ref="248755346"/>
    <nd ref="248755350"/>
    <nd ref="248755351"/>
    <nd ref="248755352"/>
    <nd ref="248755353"/>
    <nd ref="248755354"/>
    <nd ref="248755355"/>
    <nd ref="248755356"/>
    <nd ref="248755357"/>
    <nd ref="248755358"/>
    <nd ref="248755359"/>
    <nd ref="248755360"/>
    <nd ref="248755350"/>
    <tag k="highway" v="residential"/>
    <tag k="name" v="Stubbs Road"/>
  </way>
  <way id="23052698" version="8" timestamp="2012-07-19T17:36:01Z" uid="722137" user="OSMF Redaction Account" changeset="12342011"/>
  <way id="23052699" version="6" timestamp="2012-07-19T17:36:01Z" uid="722137" user="OSMF Redaction Account" changeset="12342011"/>
  <way id="23052700" version="6" timestamp="2012-07-19T17:36:02Z" uid="722137" user="OSMF Redaction Account" changeset="12342011"/>
  <way id="23052703" version="4" timestamp="2012-07-19T17:36:03Z" uid="722137" user="OSMF Redaction Account" changeset="12342011"/>
  <way id="23052704" version="15" timestamp="2012-07-21T19:08:45Z" uid="722137" user="OSMF Redaction Account" changeset="12418047"/>
  <way id="23052706" version="12" timestamp="2012-07-21T19:08:45Z" uid="722137" user="OSMF Redaction Account" changeset="12418047"/>
  <way id="23052728" version="5" timestamp="2012-07-19T17:36:08Z" uid="722137" user="OSMF Redaction Account" changeset="12342011"/>
  <way id="23052770" version="6" timestamp="2012-07-19T16:07:25Z" uid="722137" user="OSMF Redaction Account" changeset="12337802"/>
  <way id="23052771" version="5" timestamp="2012-04-13T06:14:53Z" uid="238041" user="marquisite" changeset="11283894">
    <nd ref="248758250"/>
    <nd ref="248758252"/>
    <nd ref="248758254"/>
    <nd ref="248758256"/>
    <nd ref="248758250"/>
    <tag k="leisure" v="pitch"/>
    <tag k="source" v="yahoo"/>
    <tag k="sport" v="soccer"/>
  </way>
  <way id="23052771" version="6" timestamp="2012-07-19T16:07:25Z" uid="722137" user="OSMF Redaction Account" changeset="12337802"/>
  <way id="23052772" version="5" timestamp="2012-04-13T06:14:52Z" uid="238041" user="marquisite" changeset="11283894">
    <nd ref="248758261"/>
    <nd ref="248758259"/>
    <nd ref="1713852528"/>
    <nd ref="1713852517"/>
    <nd ref="1713852486"/>
    <nd ref="1713852491"/>
    <nd ref="248758263"/>
    <nd ref="248758265"/>
    <nd ref="248758261"/>
    <tag k="building" v="yes"/>
    <tag k="fixme" v="sport=football is ambiguous, please use sport=[soccer|rugby_league|rugby_union|australian_football|etc] instead, see http://wiki.osm.org/wiki/Football for more details"/>
    <tag k="leisure" v="sports_centre"/>
    <tag k="name" v="Salisbury East Junior Soccer Club"/>
    <tag k="source" v="yahoo"/>
    <tag k="source:name" v="survey"/>
    <tag k="sport" v="football"/>
  </way>
  <way id="23052772" version="6" timestamp="2012-07-19T16:01:18Z" uid="722137" user="OSMF Redaction Account" changeset="12337349">
    <nd ref="1713852528"/>
    <nd ref="1713852517"/>
    <nd ref="1713852486"/>
    <nd ref="1713852491"/>
  </way>
  <way id="23052772" version="7" timestamp="2012-08-28T22:08:35Z" uid="238041" user="marquisite" changeset="12898875">
    <nd ref="1713852491"/>
    <nd ref="1887573617"/>
    <nd ref="1887573618"/>
    <nd ref="1887573625"/>
    <nd ref="1887573623"/>
    <nd ref="1713852528"/>
    <nd ref="1713852517"/>
    <nd ref="1713852486"/>
    <nd ref="1713852491"/>
    <tag k="building" v="yes"/>
  </way>
  <way id="23052773" version="4" timestamp="2012-07-19T17:36:16Z" uid="722137" user="OSMF Redaction Account" changeset="12342011"/>
  <way id="23052774" version="4" timestamp="2012-07-19T17:36:19Z" uid="722137" user="OSMF Redaction Account" changeset="12342034"/>
  <way id="23052776" version="4" timestamp="2012-07-19T17:36:17Z" uid="722137" user="OSMF Redaction Account" changeset="12342011"/>
  <way id="23052782" version="3" timestamp="2012-07-11T08:20:55Z" uid="713671" user="auspod" changeset="12183020">
    <nd ref="248758294"/>
    <nd ref="1821178732"/>
    <nd ref="1821178676"/>
    <tag k="highway" v="steps"/>
    <tag k="source" v="survey"/>
  </way>
  <way id="23052782" version="4" timestamp="2012-07-19T17:33:06Z" uid="722137" user="OSMF Redaction Account" changeset="12341917">
    <nd ref="1821178732"/>
    <nd ref="1821178676"/>
  </way>
  <way id="23052782" version="5" timestamp="2012-07-31T19:04:21Z" uid="510836" user="Rub21" changeset="12565615">
    <nd ref="1821178732"/>
    <nd ref="1821178676"/>
    <tag k="highway" v="service"/>
  </way>
  <way id="23052869" version="3" timestamp="2012-07-11T08:20:55Z" uid="713671" user="auspod" changeset="12183020">
    <nd ref="87725874"/>
    <nd ref="248758746"/>
    <nd ref="1821178783"/>
    <tag k="highway" v="steps"/>
    <tag k="note" v="location based on photo while surveying and yahoo imagery - might not be correct"/>
    <tag k="source" v="yahoo_imagery &amp; survey"/>
  </way>
  <way id="23052869" version="4" timestamp="2012-07-19T17:36:20Z" uid="722137" user="OSMF Redaction Account" changeset="12342034"/>
  <way id="23052969" version="6" timestamp="2012-07-19T17:35:56Z" uid="722137" user="OSMF Redaction Account" changeset="12342011"/>
  <way id="23052970" version="7" timestamp="2012-07-19T17:35:59Z" uid="722137" user="OSMF Redaction Account" changeset="12342011"/>
  <way id="23052971" version="8" timestamp="2012-07-13T20:47:15Z" uid="713671" user="auspod" changeset="12211124">
    <nd ref="19172524"/>
    <nd ref="1824761486"/>
    <nd ref="1824761491"/>
    <nd ref="757457004"/>
    <nd ref="248759329"/>
    <nd ref="248759326"/>
    <nd ref="19172662"/>
    <tag k="cycleway" v="lane"/>
    <tag k="highway" v="residential"/>
    <tag k="lcn" v="yes"/>
    <tag k="name" v="Victoria Street"/>
  </way>
  <way id="23052971" version="9" timestamp="2012-07-19T17:33:24Z" uid="722137" user="OSMF Redaction Account" changeset="12341917">
    <nd ref="1824761486"/>
    <nd ref="1824761491"/>
    <nd ref="757457004"/>
    <tag k="cycleway" v="lane"/>
    <tag k="lcn" v="yes"/>
  </way>
  <way id="23052971" version="10" timestamp="2012-07-24T14:40:15Z" uid="462898" user="Alexander Wilms" changeset="12468144">
    <nd ref="19172524"/>
    <nd ref="1824761491"/>
    <nd ref="757457004"/>
    <tag k="cycleway" v="lane"/>
    <tag k="lcn" v="yes"/>
  </way>
  <way id="23052971" version="11" timestamp="2012-07-31T15:35:25Z" uid="510836" user="Rub21" changeset="12563025"/>
  <way id="23052972" version="6" timestamp="2012-07-13T20:47:16Z" uid="713671" user="auspod" changeset="12211124">
    <nd ref="19172524"/>
    <nd ref="248759310"/>
    <nd ref="19172692"/>
    <nd ref="14698313"/>
    <nd ref="257006209"/>
    <nd ref="1824761572"/>
    <nd ref="14698314"/>
    <tag k="highway" v="primary"/>
    <tag k="maxspeed" v="60"/>
    <tag k="name" v="Carrington Road"/>
  </way>
  <way id="23052972" version="7" timestamp="2012-07-19T17:35:58Z" uid="722137" user="OSMF Redaction Account" changeset="12342011"/>
  <way id="23052973" version="4" timestamp="2012-07-20T01:04:12Z" uid="722137" user="OSMF Redaction Account" changeset="12354149"/>
</osm>
