<?xml version='1.0' encoding='UTF-8'?>
<osm version="0.6" generator="libosmium/2.20.0">
  <way id="23174028" version="5" timestamp="2010-07-11T11:35:25Z" uid="4467" user="Rosscoe" changeset="5189414">
    <nd ref="178376342"/>
    <nd ref="178376433"/>
    <nd ref="178376463"/>
    <nd ref="178376493"/>
    <nd ref="178376566"/>
    <nd ref="178376649"/>
    <nd ref="601524927"/>
    <nd ref="178376901"/>
    <nd ref="178376927"/>
    <nd ref="178376943"/>
    <nd ref="178376955"/>
    <nd ref="178376970"/>
    <nd ref="178376981"/>
    <nd ref="178376993"/>
    <nd ref="178377013"/>
    <nd ref="178377031"/>
    <nd ref="178377037"/>
    <tag k="highway" v="trunk"/>
    <tag k="is_in" v="Lockleys,South Australia,Australia"/>
    <tag k="lanes" v="2"/>
    <tag k="maxspeed" v="60"/>
    <tag k="name" v="Sir Donald Bradman Drive"/>
    <tag k="old_name" v="Burbridge Road"/>
    <tag k="oneway" v="yes"/>
    <tag k="postal_code" v="5032"/>
    <tag k="ref" v="A6"/>
    <tag k="source" v="survey"/>
  </way>
  <way id="23174028" version="6" timestamp="2010-09-24T23:07:24Z" uid="79475" user="AlexOnTheBus" changeset="5867331">
    <nd ref="178376342"/>
    <nd ref="178376433"/>
    <nd ref="178376463"/>
    <nd ref="178376493"/>
    <nd ref="178376566"/>
    <nd ref="178376649"/>
    <nd ref="601524927"/>
    <nd ref="178376901"/>
    <nd ref="178376927"/>
    <nd ref="178376943"/>
    <nd ref="178376955"/>
    <nd ref="178376970"/>
    <nd ref="178376981"/>
    <nd ref="178376993"/>
    <nd ref="178377013"/>
    <nd ref="178377031"/>
    <nd ref="178377037"/>
    <tag k="highway" v="primary"/>
    <tag k="is_in" v="Lockleys,South Australia,Australia"/>
    <tag k="lanes" v="2"/>
    <tag k="maxspeed" v="60"/>
    <tag k="name" v="Sir Donald Bradman Drive"/>
    <tag k="old_name" v="Burbridge Road"/>
    <tag k="oneway" v="yes"/>
    <tag k="postal_code" v="5032"/>
    <tag k="ref" v="A6"/>
    <tag k="source" v="survey"/>
  </way>
  <way id="23174028" version="7" timestamp="2010-10-10T03:45:05Z" uid="151053" user="Didz" changeset="5998651">
    <nd ref="178376342"/>
    <nd ref="178376433"/>
    <nd ref="178376463"/>
    <nd ref="178376493"/>
    <nd ref="178376566"/>
    <nd ref="178376649"/>
    <nd ref="601524927"/>
    <nd ref="178376901"/>
    <nd ref="178376927"/>
    <nd ref="178376943"/>
    <nd ref="178376955"/>
    <nd ref="178376970"/>
    <nd ref="178376981"/>
    <nd ref="178376993"/>
    <nd ref="178377013"/>
    <nd ref="178377031"/>
    <nd ref="178377037"/>
    <tag k="highway" v="primary"/>
    <tag k="is_in" v="Lockleys,South Australia,Australia"/>
    <tag k="lanes" v="2"/>
    <tag k="maxspeed" v="60"/>
    <tag k="name" v="Sir Donald Bradman Drive"/>
    <tag k="old_name" v="Burbridge Road"/>
    <tag k="oneway" v="yes"/>
    <tag k="postal_code" v="5032"/>
    <tag k="ref" v="A6"/>
    <tag k="smoothness" v="good"/>
    <tag k="source" v="survey"/>
    <tag k="surface" v="asphalt"/>
  </way>
  <way id="23174028" version="8" timestamp="2011-04-24T11:07:23Z" uid="21143" user="hryciuk" changeset="7951646">
    <nd ref="178376342"/>
    <nd ref="178376433"/>
    <nd ref="178376463"/>
    <nd ref="178376493"/>
    <nd ref="178376566"/>
    <nd ref="178376649"/>
    <nd ref="1257847438"/>
    <tag k="cycleway" v="no"/>
    <tag k="highway" v="primary"/>
    <tag k="is_in" v="Lockleys,South Australia,Australia"/>
    <tag k="lanes" v="2"/>
    <tag k="maxspeed" v="60"/>
    <tag k="name" v="Sir Donald Bradman Drive"/>
    <tag k="old_name" v="Burbridge Road"/>
    <tag k="oneway" v="yes"/>
    <tag k="postal_code" v="5032"/>
    <tag k="ref" v="A6"/>
    <tag k="smoothness" v="good"/>
    <tag k="source" v="survey"/>
    <tag k="surface" v="asphalt"/>
  </way>
  <way id="23174048" version="2" timestamp="2008-10-28T13:38:49Z" uid="9581" user="Lobelt" changeset="612164">
    <nd ref="250558665"/>
    <nd ref="308231278"/>
    <nd ref="143857895"/>
    <nd ref="143857896"/>
    <nd ref="143857897"/>
    <nd ref="143856844"/>
    <tag k="created_by" v="Potlatch 0.5d"/>
    <tag k="cycleway" v="track"/>
    <tag k="highway" v="cycleway"/>
  </way>
  <way id="23174048" version="3" timestamp="2009-03-15T17:03:56Z" uid="16019" user="Thommse" changeset="812871">
    <nd ref="250558665"/>
    <nd ref="308231278"/>
    <nd ref="143857895"/>
    <nd ref="143857896"/>
    <nd ref="143857897"/>
    <nd ref="360772815"/>
    <nd ref="360772818"/>
    <nd ref="143856844"/>
    <tag k="created_by" v="Potlatch 0.5d"/>
    <tag k="cycleway" v="track"/>
    <tag k="highway" v="cycleway"/>
  </way>
  <way id="23174048" version="4" timestamp="2009-04-15T14:43:21Z" uid="16019" user="Thommse" changeset="561153">
    <nd ref="250558665"/>
    <nd ref="376608170"/>
    <nd ref="308231278"/>
    <nd ref="376608187"/>
    <nd ref="143857895"/>
    <nd ref="143857896"/>
    <nd ref="143857897"/>
    <nd ref="360772815"/>
    <nd ref="360772818"/>
    <nd ref="143856844"/>
    <tag k="created_by" v="Potlatch 0.5d"/>
    <tag k="cycleway" v="track"/>
    <tag k="highway" v="cycleway"/>
  </way>
  <way id="23174048" version="5" timestamp="2009-09-10T19:10:32Z" uid="43566" user="anbr" changeset="2440009">
    <nd ref="250558665"/>
    <nd ref="376608170"/>
    <nd ref="308231278"/>
    <nd ref="376608187"/>
    <nd ref="143857895"/>
    <nd ref="143857896"/>
    <nd ref="143857897"/>
    <nd ref="360772815"/>
    <nd ref="360772818"/>
    <nd ref="143856844"/>
    <tag k="cycleway" v="track"/>
    <tag k="highway" v="cycleway"/>
  </way>
  <way id="23174051" version="4" timestamp="2008-10-28T13:38:48Z" uid="9581" user="Lobelt" changeset="612164">
    <nd ref="143578597"/>
    <nd ref="98711987"/>
    <tag k="created_by" v="Potlatch 0.10b"/>
    <tag k="highway" v="primary"/>
    <tag k="ref" v="B 156"/>
  </way>
  <way id="23174051" version="5" timestamp="2009-09-10T19:10:31Z" uid="43566" user="anbr" changeset="2440009">
    <nd ref="143578597"/>
    <nd ref="98711987"/>
    <tag k="highway" v="primary"/>
    <tag k="ref" v="B 156"/>
  </way>
  <way id="23174051" version="6" timestamp="2011-12-31T00:16:39Z" uid="218309" user="mizimbz" changeset="10251110">
    <nd ref="143578597"/>
    <nd ref="98711987"/>
    <tag k="highway" v="primary"/>
    <tag k="maxspeed" v="100"/>
    <tag k="ref" v="B 156"/>
  </way>
  <way id="23174051" version="7" timestamp="2012-02-25T20:39:24Z" uid="28234" user="derandi" changeset="10791921"/>
  <way id="23174053" version="5" timestamp="2008-10-28T13:38:49Z" uid="9581" user="Lobelt" changeset="612164">
    <nd ref="98711991"/>
    <nd ref="304348198"/>
    <nd ref="304348196"/>
    <nd ref="308231238"/>
    <nd ref="308231242"/>
    <nd ref="283316738"/>
    <nd ref="98711992"/>
    <nd ref="98711993"/>
    <nd ref="98711994"/>
    <nd ref="98711995"/>
    <nd ref="98711996"/>
    <nd ref="98711997"/>
    <nd ref="304348192"/>
    <nd ref="36599500"/>
    <tag k="created_by" v="Potlatch 0.10b"/>
    <tag k="highway" v="primary"/>
    <tag k="ref" v="B 156"/>
  </way>
  <way id="23174053" version="6" timestamp="2009-02-23T16:50:56Z" uid="81603" user="René Mettke" changeset="633626">
    <nd ref="98711991"/>
    <nd ref="304348198"/>
    <nd ref="304348196"/>
    <nd ref="308231238"/>
    <nd ref="308231242"/>
    <nd ref="283316738"/>
    <nd ref="98711992"/>
    <nd ref="98711993"/>
    <nd ref="98711994"/>
    <nd ref="350232109"/>
    <nd ref="98711995"/>
    <nd ref="98711996"/>
    <nd ref="98711997"/>
    <nd ref="304348192"/>
    <nd ref="36599500"/>
    <tag k="created_by" v="Potlatch 0.10b"/>
    <tag k="highway" v="primary"/>
    <tag k="ref" v="B 156"/>
  </way>
  <way id="23174053" version="7" timestamp="2009-04-15T15:01:26Z" uid="16019" user="Thommse" changeset="561153">
    <nd ref="98711991"/>
    <nd ref="304348198"/>
    <nd ref="304348196"/>
    <nd ref="308231238"/>
    <nd ref="308231242"/>
    <nd ref="283316738"/>
    <nd ref="98711992"/>
    <nd ref="98711993"/>
    <nd ref="98711994"/>
    <tag k="created_by" v="Potlatch 0.10b"/>
    <tag k="highway" v="primary"/>
    <tag k="ref" v="B 156"/>
  </way>
  <way id="23174053" version="8" timestamp="2009-04-15T15:03:37Z" uid="16019" user="Thommse" changeset="561153">
    <nd ref="98711991"/>
    <nd ref="304348198"/>
    <nd ref="304348196"/>
    <nd ref="308231238"/>
    <nd ref="308231242"/>
    <nd ref="283316738"/>
    <nd ref="98711992"/>
    <nd ref="98711993"/>
    <nd ref="98711994"/>
    <tag k="created_by" v="Potlatch 0.10b"/>
    <tag k="highway" v="primary"/>
    <tag k="name" v="Hauptstraße"/>
    <tag k="ref" v="B 156"/>
  </way>
  <way id="23174053" version="9" timestamp="2009-11-26T10:28:34Z" uid="189684" user="mondial" changeset="3219099">
    <nd ref="98711991"/>
    <nd ref="304348198"/>
    <nd ref="304348196"/>
    <nd ref="308231238"/>
    <nd ref="571398341"/>
    <nd ref="308231242"/>
    <nd ref="283316738"/>
    <nd ref="98711992"/>
    <nd ref="98711993"/>
    <nd ref="98711994"/>
    <tag k="highway" v="primary"/>
    <tag k="name" v="Hauptstraße"/>
    <tag k="ref" v="B 156"/>
  </way>
  <way id="23174053" version="10" timestamp="2010-11-23T10:08:46Z" uid="15720" user="J budissin" changeset="6438173">
    <nd ref="98711991"/>
    <nd ref="304348198"/>
    <nd ref="304348196"/>
    <nd ref="308231238"/>
    <nd ref="571398341"/>
    <nd ref="308231242"/>
    <nd ref="283316738"/>
    <nd ref="98711992"/>
    <nd ref="98711993"/>
    <nd ref="98711994"/>
    <tag k="highway" v="primary"/>
    <tag k="name" v="Hauptstraße"/>
    <tag k="name:hsb" v="Hłowna"/>
    <tag k="ref" v="B 156"/>
  </way>
  <way id="23174053" version="11" timestamp="2011-04-18T12:05:34Z" uid="218309" user="mizimbz" changeset="7896342">
    <nd ref="98711991"/>
    <nd ref="304348198"/>
    <nd ref="304348196"/>
    <nd ref="308231238"/>
    <nd ref="571398341"/>
    <nd ref="308231242"/>
    <nd ref="283316738"/>
    <nd ref="98711992"/>
    <nd ref="1249809277"/>
    <nd ref="98711993"/>
    <nd ref="98711994"/>
    <tag k="highway" v="primary"/>
    <tag k="name" v="Hauptstraße"/>
    <tag k="name:hsb" v="Hłowna"/>
    <tag k="ref" v="B 156"/>
  </way>
  <way id="23174053" version="12" timestamp="2011-08-31T19:14:53Z" uid="109035" user="Teddy80" changeset="9179011">
    <nd ref="98711991"/>
    <nd ref="304348198"/>
    <nd ref="304348196"/>
    <nd ref="308231238"/>
    <nd ref="571398341"/>
    <nd ref="308231242"/>
    <nd ref="283316738"/>
    <nd ref="98711992"/>
    <nd ref="1249809277"/>
    <nd ref="98711993"/>
    <nd ref="98711994"/>
    <tag k="highway" v="primary"/>
    <tag k="maxspeed" v="50"/>
    <tag k="name" v="Hauptstraße"/>
    <tag k="name:hsb" v="Hłowna"/>
    <tag k="ref" v="B 156"/>
  </way>
  <way id="23174053" version="13" timestamp="2012-02-26T10:01:03Z" uid="40116" user="FilO" changeset="10796050">
    <nd ref="98711991"/>
    <nd ref="304348198"/>
    <nd ref="304348196"/>
    <nd ref="1648257835"/>
    <nd ref="571398341"/>
    <nd ref="308231242"/>
    <nd ref="283316738"/>
    <nd ref="98711992"/>
    <nd ref="1249809277"/>
    <nd ref="98711993"/>
    <nd ref="98711994"/>
    <tag k="highway" v="primary"/>
    <tag k="maxspeed" v="50"/>
    <tag k="name" v="Hauptstraße"/>
    <tag k="name:hsb" v="Hłowna"/>
    <tag k="ref" v="B 156"/>
  </way>
  <way id="23174054" version="2" timestamp="2008-06-09T06:55:53Z" uid="9581" user="Lobelt" changeset="105018">
    <nd ref="143728472"/>
    <nd ref="143576711"/>
    <nd ref="143576713"/>
    <nd ref="269300992"/>
    <nd ref="143576714"/>
    <nd ref="98711991"/>
    <tag k="created_by" v="Potlatch 0.6b"/>
    <tag k="highway" v="tertiary"/>
  </way>
  <way id="23174054" version="3" timestamp="2008-10-13T19:39:02Z" uid="30398" user="vaust" changeset="310128">
    <nd ref="143728472"/>
    <nd ref="143576711"/>
    <nd ref="304348194"/>
    <nd ref="143576713"/>
    <nd ref="269300992"/>
    <nd ref="304348195"/>
    <nd ref="143576714"/>
    <nd ref="98711991"/>
    <tag k="created_by" v="Potlatch 0.6b"/>
    <tag k="highway" v="tertiary"/>
  </way>
  <way id="23174054" version="4" timestamp="2008-10-28T13:38:52Z" uid="9581" user="Lobelt" changeset="612164">
    <nd ref="143728472"/>
    <nd ref="308231290"/>
    <nd ref="308231279"/>
    <nd ref="143576711"/>
    <nd ref="304348194"/>
    <nd ref="143576713"/>
    <nd ref="269300992"/>
    <nd ref="304348195"/>
    <nd ref="143576714"/>
    <nd ref="98711991"/>
    <tag k="created_by" v="Potlatch 0.6b"/>
    <tag k="highway" v="tertiary"/>
  </way>
  <way id="23174054" version="5" timestamp="2009-02-03T09:48:18Z" uid="81603" user="René Mettke" changeset="91476">
    <nd ref="143728472"/>
    <nd ref="308231290"/>
    <nd ref="308231279"/>
    <nd ref="143576711"/>
    <nd ref="304348194"/>
    <nd ref="143576713"/>
    <nd ref="269300992"/>
    <nd ref="304348195"/>
    <nd ref="143576714"/>
    <nd ref="98711991"/>
    <tag k="created_by" v="Potlatch 0.6b"/>
    <tag k="highway" v="tertiary"/>
    <tag k="name" v="Bautzener Straße"/>
  </way>
  <way id="23174054" version="6" timestamp="2009-02-23T16:50:51Z" uid="81603" user="René Mettke" changeset="633626">
    <nd ref="143728472"/>
    <nd ref="308231290"/>
    <nd ref="308231279"/>
    <nd ref="143576711"/>
    <nd ref="304348194"/>
    <nd ref="143576713"/>
    <nd ref="269300992"/>
    <nd ref="350232185"/>
    <nd ref="304348195"/>
    <nd ref="143576714"/>
    <nd ref="98711991"/>
    <tag k="created_by" v="Potlatch 0.6b"/>
    <tag k="highway" v="tertiary"/>
    <tag k="name" v="Bautzener Straße"/>
  </way>
  <way id="23174054" version="7" timestamp="2009-09-10T19:10:31Z" uid="43566" user="anbr" changeset="2440009">
    <nd ref="143728472"/>
    <nd ref="308231290"/>
    <nd ref="308231279"/>
    <nd ref="143576711"/>
    <nd ref="304348194"/>
    <nd ref="143576713"/>
    <nd ref="269300992"/>
    <nd ref="350232185"/>
    <nd ref="304348195"/>
    <nd ref="143576714"/>
    <nd ref="98711991"/>
    <tag k="highway" v="tertiary"/>
    <tag k="name" v="Bautzener Straße"/>
  </way>
  <way id="23174054" version="8" timestamp="2010-11-23T10:05:39Z" uid="15720" user="J budissin" changeset="6438173">
    <nd ref="143728472"/>
    <nd ref="308231290"/>
    <nd ref="308231279"/>
    <nd ref="143576711"/>
    <nd ref="304348194"/>
    <nd ref="143576713"/>
    <nd ref="269300992"/>
    <nd ref="350232185"/>
    <nd ref="304348195"/>
    <nd ref="143576714"/>
    <nd ref="98711991"/>
    <tag k="highway" v="tertiary"/>
    <tag k="name" v="Bautzener Straße"/>
    <tag k="name:hsb" v="Budyska"/>
  </way>
  <way id="23174057" version="3" timestamp="2008-10-28T13:48:22Z" uid="9581" user="Lobelt" changeset="612164">
    <nd ref="143575197"/>
    <nd ref="98711950"/>
    <tag k="bridge" v="yes"/>
    <tag k="created_by" v="fixbot"/>
    <tag k="highway" v="primary"/>
    <tag k="layer" v="1"/>
    <tag k="ref" v="B 156"/>
  </way>
  <way id="23174057" version="4" timestamp="2009-09-10T19:10:30Z" uid="43566" user="anbr" changeset="2440009">
    <nd ref="143575197"/>
    <nd ref="98711950"/>
    <tag k="bridge" v="yes"/>
    <tag k="highway" v="primary"/>
    <tag k="layer" v="1"/>
    <tag k="ref" v="B 156"/>
  </way>
  <way id="23174057" version="5" timestamp="2010-04-13T11:37:37Z" uid="67020" user="Nibbler" changeset="4412871">
    <nd ref="143575197"/>
    <nd ref="695162788"/>
    <tag k="bridge" v="yes"/>
    <tag k="highway" v="primary"/>
    <tag k="layer" v="1"/>
    <tag k="ref" v="B 156"/>
  </way>
  <way id="23174057" version="6" timestamp="2011-06-19T18:32:49Z" uid="157347" user="Pirolina" changeset="8487452">
    <nd ref="143575197"/>
    <nd ref="695162788"/>
    <tag k="bridge" v="yes"/>
    <tag k="cycleway" v="track"/>
    <tag k="highway" v="primary"/>
    <tag k="layer" v="1"/>
    <tag k="ref" v="B 156"/>
  </way>
  <way id="23174057" version="7" timestamp="2011-12-31T00:16:39Z" uid="218309" user="mizimbz" changeset="10251110">
    <nd ref="143575197"/>
    <nd ref="695162788"/>
    <tag k="bridge" v="yes"/>
    <tag k="cycleway" v="track"/>
    <tag k="highway" v="primary"/>
    <tag k="layer" v="1"/>
    <tag k="maxspeed" v="50"/>
    <tag k="ref" v="B 156"/>
  </way>
  <way id="23174057" version="8" timestamp="2012-02-12T10:38:09Z" uid="40116" user="FilO" changeset="10661313"/>
  <way id="23174059" version="4" timestamp="2008-10-28T13:48:23Z" uid="9581" user="Lobelt" changeset="612164">
    <nd ref="248776478"/>
    <nd ref="248776326"/>
    <nd ref="248776333"/>
    <nd ref="248776334"/>
    <nd ref="248776339"/>
    <nd ref="248776340"/>
    <nd ref="248776353"/>
    <nd ref="248776354"/>
    <nd ref="248776799"/>
    <tag k="created_by" v="Potlatch 0.9c"/>
    <tag k="highway" v="tertiary"/>
    <tag k="ref" v="K 7211"/>
  </way>
  <way id="23174059" version="5" timestamp="2009-09-10T19:10:29Z" uid="43566" user="anbr" changeset="2440009">
    <nd ref="248776478"/>
    <nd ref="248776326"/>
    <nd ref="248776333"/>
    <nd ref="248776334"/>
    <nd ref="248776339"/>
    <nd ref="248776340"/>
    <nd ref="248776353"/>
    <nd ref="248776354"/>
    <nd ref="248776799"/>
    <tag k="highway" v="tertiary"/>
    <tag k="ref" v="K 7211"/>
  </way>
  <way id="23174059" version="6" timestamp="2010-03-29T18:53:32Z" uid="30398" user="vaust" changeset="4270365">
    <nd ref="248776478"/>
    <nd ref="248776326"/>
    <nd ref="248776333"/>
    <nd ref="248776334"/>
    <nd ref="677619610"/>
    <nd ref="248776339"/>
    <nd ref="248776340"/>
    <nd ref="248776353"/>
    <nd ref="248776354"/>
    <nd ref="248776799"/>
    <tag k="highway" v="tertiary"/>
    <tag k="ref" v="K 7211"/>
  </way>
  <way id="23174059" version="7" timestamp="2010-11-05T22:32:35Z" uid="30398" user="vaust" changeset="6298930">
    <nd ref="248776478"/>
    <nd ref="248776326"/>
    <nd ref="248776333"/>
    <nd ref="248776334"/>
    <nd ref="677619610"/>
    <nd ref="248776339"/>
    <nd ref="248776340"/>
    <nd ref="248776353"/>
    <nd ref="248776354"/>
    <nd ref="248776799"/>
    <tag k="highway" v="tertiary"/>
    <tag k="ref" v="K 7211"/>
  </way>
  <way id="23174059" version="8" timestamp="2010-11-06T17:45:20Z" uid="30398" user="vaust" changeset="6304506">
    <nd ref="248776478"/>
    <nd ref="248776326"/>
    <nd ref="248776333"/>
    <nd ref="979320424"/>
    <nd ref="248776334"/>
    <nd ref="677619610"/>
    <nd ref="248776339"/>
    <nd ref="248776340"/>
    <nd ref="248776353"/>
    <nd ref="248776354"/>
    <nd ref="248776799"/>
    <tag k="highway" v="tertiary"/>
    <tag k="ref" v="K 7211"/>
  </way>
  <way id="23174125" version="7" timestamp="2010-12-24T23:14:13Z" uid="9581" user="Lobelt" changeset="6757933">
    <nd ref="250564768"/>
    <nd ref="250564772"/>
    <nd ref="250564766"/>
    <tag k="destination" v="Bamberg;Schweinfurt;Werneck;Erfurt"/>
    <tag k="highway" v="motorway_link"/>
    <tag k="maxspeed" v="none"/>
    <tag k="oneway" v="yes"/>
    <tag k="ref" v="A 70"/>
  </way>
  <way id="23174125" version="8" timestamp="2011-02-01T19:55:48Z" uid="11566" user="hwb" changeset="7158313">
    <nd ref="250564768"/>
    <nd ref="250564772"/>
    <nd ref="1131376046"/>
    <nd ref="250564766"/>
    <tag k="destination" v="Bamberg;Schweinfurt;Werneck;Erfurt"/>
    <tag k="highway" v="motorway_link"/>
    <tag k="maxspeed" v="none"/>
    <tag k="oneway" v="yes"/>
    <tag k="ref" v="A 70"/>
  </way>
  <way id="23174125" version="9" timestamp="2011-12-18T01:00:16Z" uid="445671" user="flierfy" changeset="10143176">
    <nd ref="250564768"/>
    <nd ref="250564772"/>
    <nd ref="1131376046"/>
    <nd ref="250564766"/>
    <nd ref="250564764"/>
    <nd ref="27367151"/>
    <nd ref="27367152"/>
    <nd ref="546292741"/>
    <nd ref="198305721"/>
    <nd ref="546292742"/>
    <nd ref="27367153"/>
    <nd ref="27367154"/>
    <nd ref="546292748"/>
    <nd ref="198305725"/>
    <nd ref="27367156"/>
    <nd ref="198305728"/>
    <nd ref="27367159"/>
    <nd ref="198305709"/>
    <nd ref="250564753"/>
    <nd ref="250564755"/>
    <nd ref="279292168"/>
    <tag k="destination" v="Bamberg;Schweinfurt;Werneck;Erfurt"/>
    <tag k="highway" v="motorway_link"/>
    <tag k="lanes" v="1"/>
    <tag k="maxspeed" v="none; 80; 60"/>
    <tag k="oneway" v="yes"/>
    <tag k="ref" v="A 70"/>
  </way>
  <way id="23174125" version="10" timestamp="2012-03-10T12:02:05Z" uid="418724" user="wintersportler" changeset="10930819"/>
  <way id="23174243" version="6" timestamp="2009-02-13T13:15:01Z" uid="9581" user="Lobelt" changeset="399324">
    <nd ref="11715951"/>
    <nd ref="250566746"/>
    <nd ref="250566747"/>
    <nd ref="250566751"/>
    <nd ref="250566752"/>
    <nd ref="250566753"/>
    <nd ref="250566754"/>
    <nd ref="250566755"/>
    <nd ref="250566756"/>
    <nd ref="250566757"/>
    <nd ref="250566760"/>
    <nd ref="250566762"/>
    <nd ref="250566765"/>
    <nd ref="296901612"/>
    <nd ref="296901573"/>
    <tag k="created_by" v="JOSM"/>
    <tag k="highway" v="tertiary"/>
  </way>
  <way id="23174243" version="7" timestamp="2009-09-10T19:11:26Z" uid="43566" user="anbr" changeset="2440009">
    <nd ref="11715951"/>
    <nd ref="250566746"/>
    <nd ref="250566747"/>
    <nd ref="250566751"/>
    <nd ref="250566752"/>
    <nd ref="250566753"/>
    <nd ref="250566754"/>
    <nd ref="250566755"/>
    <nd ref="250566756"/>
    <nd ref="250566757"/>
    <nd ref="250566760"/>
    <nd ref="250566762"/>
    <nd ref="250566765"/>
    <nd ref="296901612"/>
    <nd ref="296901573"/>
    <tag k="highway" v="tertiary"/>
  </way>
  <way id="23174243" version="8" timestamp="2010-03-29T21:12:41Z" uid="15720" user="J budissin" changeset="4270605">
    <nd ref="11715951"/>
    <nd ref="250566746"/>
    <nd ref="250566747"/>
    <nd ref="250566751"/>
    <nd ref="250566752"/>
    <nd ref="250566753"/>
    <nd ref="250566754"/>
    <nd ref="250566755"/>
    <nd ref="250566756"/>
    <nd ref="250566757"/>
    <nd ref="250566760"/>
    <nd ref="250566762"/>
    <nd ref="250566765"/>
    <nd ref="296901612"/>
    <nd ref="296901573"/>
    <tag k="highway" v="tertiary"/>
    <tag k="name" v="Neuteichnitzer Straße"/>
    <tag k="name:hsb" v="Nowoćichońska"/>
  </way>
  <way id="23174243" version="9" timestamp="2010-04-08T20:44:13Z" uid="30398" user="vaust" changeset="4367807">
    <nd ref="11715951"/>
    <nd ref="250566746"/>
    <nd ref="250566747"/>
    <nd ref="250566751"/>
    <nd ref="250566752"/>
    <nd ref="689365690"/>
    <nd ref="250566753"/>
    <nd ref="250566754"/>
    <tag k="highway" v="tertiary"/>
    <tag k="name" v="Neuteichnitzer Straße"/>
    <tag k="name:hsb" v="Nowoćichońska"/>
  </way>
  <way id="23174243" version="10" timestamp="2010-11-24T22:09:08Z" uid="30398" user="vaust" changeset="6450722">
    <nd ref="11715951"/>
    <nd ref="1003103068"/>
    <nd ref="250566746"/>
    <nd ref="250566747"/>
    <nd ref="1003102942"/>
    <nd ref="1003102965"/>
    <nd ref="250566751"/>
    <nd ref="250566752"/>
    <nd ref="689365690"/>
    <nd ref="250566753"/>
    <nd ref="1003103081"/>
    <nd ref="250566754"/>
    <tag k="highway" v="tertiary"/>
    <tag k="name" v="Neuteichnitzer Straße"/>
    <tag k="name:hsb" v="Nowoćichońska"/>
  </way>
  <way id="23174243" version="11" timestamp="2010-11-25T16:42:43Z" uid="30398" user="vaust" changeset="6455863">
    <nd ref="11715951"/>
    <nd ref="1004002858"/>
    <nd ref="1003103068"/>
    <nd ref="250566746"/>
    <nd ref="250566747"/>
    <nd ref="1003102942"/>
    <nd ref="1003102965"/>
    <nd ref="250566751"/>
    <nd ref="1003102977"/>
    <nd ref="250566752"/>
    <nd ref="689365690"/>
    <nd ref="250566753"/>
    <nd ref="1003103081"/>
    <nd ref="250566754"/>
    <tag k="highway" v="tertiary"/>
    <tag k="name" v="Neuteichnitzer Straße"/>
    <tag k="name:hsb" v="Nowoćichońska"/>
  </way>
  <way id="23174243" version="12" timestamp="2011-07-09T01:45:40Z" uid="218309" user="mizimbz" changeset="8671043">
    <nd ref="11715951"/>
    <nd ref="1004002858"/>
    <nd ref="1003103068"/>
    <nd ref="250566746"/>
    <nd ref="250566747"/>
    <nd ref="1003102942"/>
    <nd ref="1003102965"/>
    <nd ref="250566751"/>
    <nd ref="1003102977"/>
    <nd ref="250566752"/>
    <nd ref="689365690"/>
    <nd ref="250566753"/>
    <nd ref="1003103081"/>
    <nd ref="250566754"/>
    <tag k="highway" v="unclassified"/>
    <tag k="name" v="Neuteichnitzer Straße"/>
    <tag k="name:hsb" v="Nowoćichońska"/>
  </way>
  <way id="23174244" version="5" timestamp="2009-02-13T13:14:57Z" uid="9581" user="Lobelt" changeset="399324">
    <nd ref="250566777"/>
    <nd ref="250566778"/>
    <tag k="created_by" v="JOSM"/>
    <tag k="highway" v="cycleway"/>
  </way>
  <way id="23174244" version="6" timestamp="2009-09-10T19:11:26Z" uid="43566" user="anbr" changeset="2440009">
    <nd ref="250566777"/>
    <nd ref="250566778"/>
    <tag k="highway" v="cycleway"/>
  </way>
  <way id="23174244" version="7" timestamp="2010-01-09T15:57:52Z" uid="214394" user="Strehla 01" changeset="3578798">
    <nd ref="250566777"/>
    <nd ref="250566778"/>
    <tag k="highway" v="tertiary"/>
  </way>
  <way id="23174244" version="8" timestamp="2010-05-06T20:09:50Z" uid="30398" user="vaust" changeset="4625175"/>
  <way id="23174469" version="3" timestamp="2008-07-07T02:17:44Z" uid="6975" user="ulfl" changeset="415781">
    <nd ref="250569987"/>
    <nd ref="250569988"/>
    <nd ref="250569989"/>
    <nd ref="250569990"/>
    <nd ref="250569991"/>
    <nd ref="250569992"/>
    <nd ref="250569993"/>
    <nd ref="250569994"/>
    <nd ref="250569995"/>
    <nd ref="250569996"/>
    <nd ref="250569997"/>
    <nd ref="250569998"/>
    <nd ref="250569999"/>
    <nd ref="250570000"/>
    <nd ref="250570001"/>
    <nd ref="250570002"/>
    <nd ref="250570003"/>
    <nd ref="250570004"/>
    <nd ref="250570005"/>
    <nd ref="250570006"/>
    <nd ref="250570007"/>
    <nd ref="250570008"/>
    <nd ref="250570009"/>
    <nd ref="250570010"/>
    <nd ref="250570011"/>
    <nd ref="250570012"/>
    <nd ref="250570013"/>
    <nd ref="250570014"/>
    <nd ref="250570015"/>
    <nd ref="250570016"/>
    <nd ref="250570017"/>
    <nd ref="250570018"/>
    <nd ref="250570019"/>
    <nd ref="250570020"/>
    <nd ref="250570021"/>
    <nd ref="250570022"/>
    <nd ref="250570023"/>
    <nd ref="250569987"/>
    <tag k="name" v="Siggeforsasjön"/>
    <tag k="natural" v="water"/>
  </way>
  <way id="23174469" version="4" timestamp="2010-11-07T20:34:20Z" uid="151123" user="knarF" changeset="6315188">
    <nd ref="250569987"/>
    <nd ref="250569988"/>
    <nd ref="250569989"/>
    <nd ref="250569990"/>
    <nd ref="250569991"/>
    <nd ref="250569992"/>
    <nd ref="250569993"/>
    <nd ref="250569994"/>
    <nd ref="250569995"/>
    <nd ref="250569996"/>
    <nd ref="250569997"/>
    <nd ref="250569998"/>
    <nd ref="250569999"/>
    <nd ref="250570000"/>
    <nd ref="250570001"/>
    <nd ref="250570002"/>
    <nd ref="250570003"/>
    <nd ref="250570004"/>
    <nd ref="250570005"/>
    <nd ref="250570006"/>
    <nd ref="250570007"/>
    <nd ref="250570008"/>
    <nd ref="250570009"/>
    <nd ref="250570010"/>
    <nd ref="250570011"/>
    <nd ref="250570012"/>
    <nd ref="250570013"/>
    <nd ref="250570014"/>
    <nd ref="250570015"/>
    <nd ref="250570016"/>
    <nd ref="250570017"/>
    <nd ref="250570018"/>
    <nd ref="250570019"/>
    <nd ref="250570020"/>
    <nd ref="250570021"/>
    <nd ref="250570022"/>
    <nd ref="250570023"/>
    <nd ref="250569987"/>
    <tag k="depth" v="11m"/>
    <tag k="depth:mean" v="4.2m"/>
    <tag k="ele" v="74"/>
    <tag k="name" v="Siggeforsasjön"/>
    <tag k="natural" v="water"/>
    <tag k="note" v="Apparently one of the best bathing lakes in Uppsala län, probably due to the depth"/>
    <tag k="ref" v="665177-157556"/>
    <tag k="reflow" v="180days"/>
  </way>
  <way id="23174470" version="3" timestamp="2008-07-07T02:43:27Z" uid="6975" user="ulfl" changeset="415781">
    <nd ref="250570024"/>
    <nd ref="250570025"/>
    <nd ref="250570026"/>
    <nd ref="250570027"/>
    <nd ref="250570029"/>
    <nd ref="250570040"/>
    <nd ref="250570043"/>
    <nd ref="250570044"/>
    <nd ref="250570045"/>
    <nd ref="250570046"/>
    <nd ref="250570047"/>
    <nd ref="250570048"/>
    <nd ref="250570050"/>
    <nd ref="250570051"/>
    <nd ref="250570052"/>
    <nd ref="250570053"/>
    <nd ref="250570054"/>
    <nd ref="250570055"/>
    <nd ref="250570056"/>
    <nd ref="250570057"/>
    <nd ref="250570058"/>
    <nd ref="250570059"/>
    <nd ref="250570060"/>
    <nd ref="250570061"/>
    <nd ref="250570062"/>
    <nd ref="250570063"/>
    <nd ref="250570064"/>
    <nd ref="250570065"/>
    <nd ref="250570066"/>
    <nd ref="250570067"/>
    <nd ref="250570068"/>
    <nd ref="250570069"/>
    <nd ref="250570070"/>
    <nd ref="250570071"/>
    <nd ref="250570072"/>
    <nd ref="250570073"/>
    <nd ref="250570074"/>
    <nd ref="250570075"/>
    <nd ref="250570076"/>
    <nd ref="250570077"/>
    <nd ref="250570078"/>
    <nd ref="250570079"/>
    <nd ref="250570080"/>
    <nd ref="250570081"/>
    <nd ref="250570082"/>
    <nd ref="250570083"/>
    <nd ref="250570084"/>
    <nd ref="250570085"/>
    <nd ref="250570024"/>
    <tag k="name" v="Tarmlången"/>
    <tag k="natural" v="water"/>
  </way>
  <way id="23174470" version="4" timestamp="2010-11-07T20:34:16Z" uid="151123" user="knarF" changeset="6315188">
    <nd ref="250570024"/>
    <nd ref="250570025"/>
    <nd ref="250570026"/>
    <nd ref="250570027"/>
    <nd ref="250570029"/>
    <nd ref="250570040"/>
    <nd ref="250570043"/>
    <nd ref="250570044"/>
    <nd ref="250570045"/>
    <nd ref="250570046"/>
    <nd ref="250570047"/>
    <nd ref="250570048"/>
    <nd ref="250570050"/>
    <nd ref="250570051"/>
    <nd ref="250570052"/>
    <nd ref="250570053"/>
    <nd ref="250570054"/>
    <nd ref="250570055"/>
    <nd ref="250570056"/>
    <nd ref="250570057"/>
    <nd ref="250570058"/>
    <nd ref="250570059"/>
    <nd ref="250570060"/>
    <nd ref="250570061"/>
    <nd ref="250570062"/>
    <nd ref="250570063"/>
    <nd ref="250570064"/>
    <nd ref="250570065"/>
    <nd ref="250570066"/>
    <nd ref="250570067"/>
    <nd ref="250570068"/>
    <nd ref="250570069"/>
    <nd ref="250570070"/>
    <nd ref="250570071"/>
    <nd ref="250570072"/>
    <nd ref="250570073"/>
    <nd ref="250570074"/>
    <nd ref="250570075"/>
    <nd ref="250570076"/>
    <nd ref="250570077"/>
    <nd ref="250570078"/>
    <nd ref="250570079"/>
    <nd ref="250570080"/>
    <nd ref="250570081"/>
    <nd ref="250570082"/>
    <nd ref="250570083"/>
    <nd ref="250570084"/>
    <nd ref="250570085"/>
    <nd ref="250570024"/>
    <tag k="depth" v="2.2m"/>
    <tag k="depth:mean" v="1.2m"/>
    <tag k="ele" v="74.2"/>
    <tag k="name" v="Tarmlången"/>
    <tag k="natural" v="water"/>
    <tag k="ref" v="665148-157307"/>
    <tag k="reflow" v="243days"/>
  </way>
  <way id="23174490" version="5" timestamp="2010-06-24T13:08:55Z" uid="4467" user="Rosscoe" changeset="5066035">
    <nd ref="149007872"/>
    <nd ref="250570819"/>
    <nd ref="250570821"/>
    <nd ref="250570822"/>
    <nd ref="250570823"/>
    <tag k="highway" v="tertiary"/>
    <tag k="maxspeed" v="50"/>
    <tag k="name" v="Sir Richard Williams Avenue"/>
    <tag k="oneway" v="yes"/>
    <tag k="source" v="survey"/>
  </way>
  <way id="23174490" version="6" timestamp="2010-07-11T07:55:23Z" uid="4467" user="Rosscoe" changeset="5187590">
    <nd ref="149007872"/>
    <nd ref="250570819"/>
    <nd ref="250570821"/>
    <nd ref="811035030"/>
    <nd ref="250570823"/>
    <tag k="highway" v="tertiary"/>
    <tag k="maxspeed" v="50"/>
    <tag k="name" v="Sir Richard Williams Avenue"/>
    <tag k="oneway" v="yes"/>
    <tag k="source" v="survey"/>
  </way>
  <way id="23174490" version="7" timestamp="2010-09-21T11:28:50Z" uid="79475" user="AlexOnTheBus" changeset="5836292">
    <nd ref="149007872"/>
    <nd ref="250570819"/>
    <nd ref="250570821"/>
    <nd ref="811035030"/>
    <nd ref="250570823"/>
    <tag k="highway" v="trunk"/>
    <tag k="maxspeed" v="50"/>
    <tag k="name" v="Sir Richard Williams Avenue"/>
    <tag k="oneway" v="yes"/>
    <tag k="source" v="survey"/>
  </way>
  <way id="23174490" version="8" timestamp="2011-07-30T22:08:25Z" uid="428465" user="markinspace" changeset="8876256">
    <nd ref="149007872"/>
    <nd ref="250570819"/>
    <nd ref="250570821"/>
    <nd ref="811035030"/>
    <nd ref="250570823"/>
    <tag k="highway" v="trunk"/>
    <tag k="lanes" v="1"/>
    <tag k="maxspeed" v="50"/>
    <tag k="name" v="Sir Richard Williams Avenue"/>
    <tag k="oneway" v="yes"/>
    <tag k="source" v="survey"/>
  </way>
  <way id="23174492" version="7" timestamp="2010-07-11T07:56:05Z" uid="4467" user="Rosscoe" changeset="5187590">
    <nd ref="149007862"/>
    <nd ref="250570830"/>
    <nd ref="250570832"/>
    <nd ref="250570833"/>
    <nd ref="250570819"/>
    <tag k="highway" v="trunk_link"/>
    <tag k="oneway" v="yes"/>
    <tag k="source" v="survey"/>
  </way>
  <way id="23174494" version="5" timestamp="2010-07-11T07:55:53Z" uid="4467" user="Rosscoe" changeset="5187590">
    <nd ref="250570827"/>
    <nd ref="250570838"/>
    <nd ref="250570839"/>
    <nd ref="250570840"/>
    <nd ref="178377461"/>
    <tag k="highway" v="trunk_link"/>
    <tag k="oneway" v="yes"/>
  </way>
  <way id="23174494" version="6" timestamp="2010-09-24T23:07:05Z" uid="79475" user="AlexOnTheBus" changeset="5867331">
    <nd ref="250570827"/>
    <nd ref="250570838"/>
    <nd ref="250570839"/>
    <nd ref="250570840"/>
    <nd ref="178377461"/>
    <tag k="highway" v="primary_link"/>
    <tag k="oneway" v="yes"/>
  </way>
  <way id="23174494" version="7" timestamp="2011-03-28T11:10:44Z" uid="4467" user="Rosscoe" changeset="7695557">
    <nd ref="250570827"/>
    <nd ref="250570838"/>
    <nd ref="250570839"/>
    <nd ref="250570840"/>
    <nd ref="178377461"/>
    <tag k="highway" v="trunk_link"/>
    <tag k="oneway" v="yes"/>
  </way>
  <way id="23174495" version="2" timestamp="2010-07-11T07:54:39Z" uid="4467" user="Rosscoe" changeset="5187590">
    <nd ref="811035077"/>
    <nd ref="250570841"/>
    <nd ref="250570842"/>
    <nd ref="250570821"/>
    <nd ref="811035058"/>
    <nd ref="811035072"/>
    <tag k="highway" v="service"/>
    <tag k="oneway" v="yes"/>
    <tag k="source" v="nearmap"/>
  </way>
  <way id="23174495" version="3" timestamp="2010-08-01T22:26:36Z" uid="151053" user="Didz" changeset="5375752">
    <nd ref="811035077"/>
    <nd ref="250570841"/>
    <nd ref="250570842"/>
    <nd ref="250570821"/>
    <nd ref="811035058"/>
    <nd ref="811035072"/>
    <tag k="highway" v="residential"/>
    <tag k="oneway" v="yes"/>
    <tag k="source" v="nearmap"/>
  </way>
  <way id="23174495" version="4" timestamp="2010-09-21T11:29:51Z" uid="79475" user="AlexOnTheBus" changeset="5836292">
    <nd ref="811035077"/>
    <nd ref="250570841"/>
    <nd ref="250570842"/>
    <nd ref="250570821"/>
    <tag k="highway" v="residential"/>
    <tag k="oneway" v="yes"/>
    <tag k="source" v="nearmap"/>
  </way>
  <way id="23174495" version="5" timestamp="2010-09-21T11:29:58Z" uid="79475" user="AlexOnTheBus" changeset="5836292">
    <nd ref="811035077"/>
    <nd ref="250570841"/>
    <nd ref="250570842"/>
    <nd ref="250570821"/>
    <tag k="highway" v="trunk"/>
    <tag k="oneway" v="yes"/>
    <tag k="source" v="nearmap"/>
  </way>
  <way id="23174495" version="6" timestamp="2011-03-28T11:10:47Z" uid="4467" user="Rosscoe" changeset="7695557"/>
  <way id="23174496" version="2" timestamp="2010-06-24T13:09:24Z" uid="4467" user="Rosscoe" changeset="5066035"/>
  <way id="23174497" version="5" timestamp="2010-06-24T13:09:18Z" uid="4467" user="Rosscoe" changeset="5066035">
    <nd ref="250570823"/>
    <nd ref="250570846"/>
    <nd ref="378998137"/>
    <nd ref="250570847"/>
    <nd ref="378998138"/>
    <nd ref="250570848"/>
    <nd ref="291567470"/>
    <nd ref="378998141"/>
    <nd ref="291567473"/>
    <nd ref="378998188"/>
    <nd ref="378998190"/>
    <nd ref="378998192"/>
    <nd ref="250570861"/>
    <tag k="highway" v="tertiary"/>
    <tag k="oneway" v="yes"/>
    <tag k="source" v="survey"/>
  </way>
  <way id="23174497" version="6" timestamp="2010-07-11T07:56:15Z" uid="4467" user="Rosscoe" changeset="5187590">
    <nd ref="250570823"/>
    <nd ref="250570846"/>
    <nd ref="811035052"/>
    <nd ref="378998137"/>
    <nd ref="250570847"/>
    <nd ref="811035064"/>
    <nd ref="378998138"/>
    <nd ref="250570848"/>
    <nd ref="291567470"/>
    <nd ref="378998141"/>
    <nd ref="291567473"/>
    <nd ref="378998188"/>
    <nd ref="378998190"/>
    <nd ref="378998192"/>
    <nd ref="250570861"/>
    <tag k="highway" v="tertiary"/>
    <tag k="oneway" v="yes"/>
    <tag k="source" v="survey"/>
  </way>
  <way id="23174497" version="7" timestamp="2011-01-03T06:57:16Z" uid="390787" user="_pseudonym" changeset="6846586">
    <nd ref="250570823"/>
    <nd ref="250570846"/>
    <nd ref="811035052"/>
    <nd ref="378998137"/>
    <nd ref="250570847"/>
    <nd ref="811035064"/>
    <nd ref="378998138"/>
    <nd ref="250570848"/>
    <nd ref="291567470"/>
    <nd ref="378998141"/>
    <nd ref="291567473"/>
    <nd ref="378998188"/>
    <nd ref="378998190"/>
    <nd ref="378998192"/>
    <nd ref="250570861"/>
    <tag k="highway" v="tertiary"/>
    <tag k="name" v="Andy Thomas Circuit"/>
    <tag k="oneway" v="yes"/>
    <tag k="source" v="survey"/>
  </way>
  <way id="23174497" version="8" timestamp="2011-05-28T11:40:08Z" uid="238041" user="marquisite" changeset="8270849">
    <nd ref="250570823"/>
    <nd ref="250570846"/>
    <nd ref="811035052"/>
    <nd ref="378998137"/>
    <nd ref="250570847"/>
    <nd ref="811035064"/>
    <nd ref="378998138"/>
    <nd ref="250570848"/>
    <nd ref="291567470"/>
    <nd ref="1303394046"/>
    <tag k="highway" v="tertiary"/>
    <tag k="name" v="Andy Thomas Circuit"/>
    <tag k="oneway" v="yes"/>
    <tag k="source" v="survey"/>
  </way>
  <way id="23174497" version="9" timestamp="2011-07-30T22:08:27Z" uid="428465" user="markinspace" changeset="8876256">
    <nd ref="250570823"/>
    <nd ref="250570846"/>
    <nd ref="811035052"/>
    <nd ref="378998137"/>
    <nd ref="250570847"/>
    <nd ref="811035064"/>
    <nd ref="378998138"/>
    <nd ref="250570848"/>
    <nd ref="291567470"/>
    <nd ref="1303394046"/>
    <tag k="highway" v="tertiary"/>
    <tag k="lanes" v="2"/>
    <tag k="name" v="Andy Thomas Circuit"/>
    <tag k="oneway" v="yes"/>
    <tag k="source" v="survey"/>
  </way>
  <way id="23174692" version="2" timestamp="2010-03-27T23:32:21Z" uid="20587" user="balrog-kun" changeset="4250871">
    <nd ref="123280296"/>
    <nd ref="122735409"/>
    <nd ref="123172073"/>
    <nd ref="123726575"/>
    <tag k="created_by" v="JOSM"/>
    <tag k="highway" v="residential"/>
    <tag k="name" v="West 2nd Street"/>
    <tag k="tiger:cfcc" v="A41"/>
    <tag k="tiger:county" v="Los Angeles, CA"/>
    <tag k="tiger:name_base" v="2nd"/>
    <tag k="tiger:name_direction_prefix" v="W"/>
    <tag k="tiger:name_type" v="St"/>
    <tag k="tiger:reviewed" v="no"/>
    <tag k="tiger:separated" v="no"/>
    <tag k="tiger:source" v="tiger_import_dch_v0.6_20070809"/>
    <tag k="tiger:tlid" v="141605208:141605254:141605257:141605259"/>
    <tag k="tiger:zip_left" v="90057"/>
    <tag k="tiger:zip_right" v="90057"/>
  </way>
  <way id="23174767" version="3" timestamp="2010-07-11T07:56:24Z" uid="4467" user="Rosscoe" changeset="5187590">
    <nd ref="93816061"/>
    <nd ref="93816096"/>
    <nd ref="93816160"/>
    <nd ref="93816217"/>
    <nd ref="93816284"/>
    <nd ref="93816328"/>
    <nd ref="93816335"/>
    <nd ref="93816420"/>
    <nd ref="93816436"/>
    <nd ref="93816454"/>
    <nd ref="93816474"/>
    <nd ref="93816490"/>
    <nd ref="93816505"/>
    <nd ref="93816519"/>
    <nd ref="93816539"/>
    <nd ref="93816552"/>
    <nd ref="93816580"/>
    <tag k="highway" v="trunk"/>
    <tag k="is_in" v="Cowandilla, South Australia,Australia"/>
    <tag k="lanes" v="2"/>
    <tag k="maxspeed" v="60"/>
    <tag k="name" v="Sir Donald Bradman Drive"/>
    <tag k="old_name" v="Burrbridge Road"/>
    <tag k="oneway" v="yes"/>
    <tag k="postal_code" v="5033"/>
    <tag k="ref" v="A6"/>
    <tag k="source" v="survey"/>
  </way>
  <way id="23174767" version="4" timestamp="2010-07-12T02:59:38Z" uid="4467" user="Rosscoe" changeset="5195509">
    <nd ref="93816061"/>
    <nd ref="93816096"/>
    <nd ref="93816160"/>
    <nd ref="93816217"/>
    <nd ref="93816284"/>
    <nd ref="93816328"/>
    <nd ref="93816335"/>
    <nd ref="93816420"/>
    <nd ref="93816436"/>
    <nd ref="93816454"/>
    <nd ref="93816474"/>
    <nd ref="93816519"/>
    <nd ref="93816580"/>
    <tag k="highway" v="trunk"/>
    <tag k="is_in" v="Cowandilla, South Australia,Australia"/>
    <tag k="lanes" v="2"/>
    <tag k="maxspeed" v="60"/>
    <tag k="name" v="Sir Donald Bradman Drive"/>
    <tag k="old_name" v="Burrbridge Road"/>
    <tag k="oneway" v="yes"/>
    <tag k="postal_code" v="5033"/>
    <tag k="ref" v="A6"/>
    <tag k="source" v="survey"/>
  </way>
  <way id="23174767" version="5" timestamp="2011-04-24T11:07:30Z" uid="21143" user="hryciuk" changeset="7951646">
    <nd ref="93816061"/>
    <nd ref="93816096"/>
    <nd ref="93816160"/>
    <tag k="cycleway" v="no"/>
    <tag k="highway" v="trunk"/>
    <tag k="is_in" v="Cowandilla, South Australia,Australia"/>
    <tag k="lanes" v="2"/>
    <tag k="maxspeed" v="60"/>
    <tag k="name" v="Sir Donald Bradman Drive"/>
    <tag k="old_name" v="Burrbridge Road"/>
    <tag k="oneway" v="yes"/>
    <tag k="postal_code" v="5033"/>
    <tag k="ref" v="A6"/>
    <tag k="source" v="survey"/>
  </way>
  <way id="23174835" version="2" timestamp="2010-03-27T23:32:22Z" uid="20587" user="balrog-kun" changeset="4250871">
    <nd ref="250580212"/>
    <nd ref="122982217"/>
    <nd ref="60946380"/>
    <tag k="created_by" v="JOSM"/>
    <tag k="highway" v="residential"/>
    <tag k="name" v="Dawson Street"/>
    <tag k="tiger:cfcc" v="A41"/>
    <tag k="tiger:county" v="Los Angeles, CA"/>
    <tag k="tiger:name_base" v="Dawson"/>
    <tag k="tiger:name_type" v="St"/>
    <tag k="tiger:separated" v="no"/>
    <tag k="tiger:source" v="tiger_import_dch_v0.6_20070809"/>
    <tag k="tiger:tlid" v="141616541:141616542:141616580:141616586"/>
    <tag k="tiger:zip_left" v="90026"/>
    <tag k="tiger:zip_right" v="90026"/>
  </way>
  <way id="23174028" version="9" timestamp="2012-09-08T08:48:31Z" uid="418724" user="wintersportler" changeset="13031315">
    <nd ref="178376342"/>
    <nd ref="178376433"/>
    <nd ref="178376493"/>
    <nd ref="178376566"/>
    <nd ref="178376649"/>
    <nd ref="1257847438"/>
    <tag k="cycleway" v="no"/>
    <tag k="highway" v="primary"/>
    <tag k="is_in" v="Lockleys,South Australia,Australia"/>
    <tag k="lanes" v="2"/>
    <tag k="maxspeed" v="60"/>
    <tag k="name" v="Sir Donald Bradman Drive"/>
    <tag k="old_name" v="Burbridge Road"/>
    <tag k="oneway" v="yes"/>
    <tag k="postal_code" v="5032"/>
    <tag k="ref" v="A6"/>
    <tag k="smoothness" v="good"/>
    <tag k="source" v="survey"/>
    <tag k="surface" v="asphalt"/>
  </way>
  <way id="23174048" version="6" timestamp="2012-07-17T09:55:06Z" uid="722137" user="OSMF Redaction Account" changeset="12262322">
    <nd ref="376608170"/>
    <nd ref="376608187"/>
    <nd ref="143857895"/>
    <nd ref="143857896"/>
    <nd ref="143857897"/>
    <nd ref="360772815"/>
    <nd ref="360772818"/>
    <nd ref="143856844"/>
    <tag k="cycleway" v="track"/>
    <tag k="highway" v="cycleway"/>
  </way>
  <way id="23174048" version="7" timestamp="2012-07-25T07:04:07Z" uid="67020" user="Nibbler" changeset="12482195">
    <nd ref="250558665"/>
    <nd ref="308231278"/>
    <nd ref="376608187"/>
    <nd ref="143857895"/>
    <nd ref="143857896"/>
    <nd ref="143857897"/>
    <nd ref="360772815"/>
    <nd ref="360772818"/>
    <nd ref="143856844"/>
    <tag k="cycleway" v="track"/>
    <tag k="highway" v="cycleway"/>
  </way>
  <way id="23174048" version="8" timestamp="2012-07-25T17:18:11Z" uid="269223" user="ddgb" changeset="12488060">
    <nd ref="250558665"/>
    <nd ref="308231278"/>
    <nd ref="376608187"/>
    <nd ref="143857895"/>
    <nd ref="143857896"/>
    <nd ref="143857897"/>
    <nd ref="360772815"/>
    <nd ref="360772818"/>
    <nd ref="143856844"/>
    <tag k="highway" v="cycleway"/>
  </way>
  <way id="23174053" version="14" timestamp="2012-04-25T16:36:46Z" uid="269223" user="ddgb" changeset="11416678">
    <nd ref="98711991"/>
    <nd ref="304348198"/>
    <nd ref="304348196"/>
    <nd ref="1648257835"/>
    <nd ref="571398341"/>
    <nd ref="1730835076"/>
    <nd ref="283316738"/>
    <nd ref="98711992"/>
    <nd ref="1249809277"/>
    <nd ref="98711993"/>
    <nd ref="98711994"/>
    <tag k="highway" v="primary"/>
    <tag k="maxspeed" v="50"/>
    <tag k="name" v="Hauptstraße"/>
    <tag k="name:hsb" v="Hłowna"/>
    <tag k="ref" v="B 156"/>
  </way>
  <way id="23174054" version="9" timestamp="2012-04-25T16:36:44Z" uid="269223" user="ddgb" changeset="11416678">
    <nd ref="1730834780"/>
    <nd ref="1730834835"/>
    <nd ref="1730834889"/>
    <nd ref="143576711"/>
    <nd ref="304348194"/>
    <nd ref="1730834958"/>
    <nd ref="1697448580"/>
    <nd ref="350232185"/>
    <nd ref="304348195"/>
    <nd ref="1730835021"/>
    <nd ref="1730835035"/>
    <nd ref="98711991"/>
    <tag k="highway" v="tertiary"/>
    <tag k="name" v="Bautzener Straße"/>
    <tag k="name:hsb" v="Budyska"/>
  </way>
  <way id="23174469" version="5" timestamp="2012-08-21T20:01:47Z" uid="90728" user="huven" changeset="12812847">
    <nd ref="250569987"/>
    <nd ref="250569988"/>
    <nd ref="250569989"/>
    <nd ref="250569990"/>
    <nd ref="250569991"/>
    <nd ref="250569992"/>
    <nd ref="250569993"/>
    <nd ref="250569994"/>
    <nd ref="250569995"/>
    <nd ref="250569996"/>
    <nd ref="250569997"/>
    <nd ref="250569998"/>
    <nd ref="250569999"/>
    <nd ref="250570000"/>
    <nd ref="250570001"/>
    <nd ref="250570002"/>
    <nd ref="250570003"/>
    <nd ref="250570004"/>
    <nd ref="250570005"/>
    <nd ref="250570006"/>
    <nd ref="250570007"/>
    <nd ref="250570008"/>
    <nd ref="250570009"/>
    <nd ref="250570010"/>
    <nd ref="250570011"/>
    <nd ref="250570012"/>
    <nd ref="250570013"/>
    <nd ref="250570014"/>
    <nd ref="250570015"/>
    <nd ref="250570016"/>
    <nd ref="250570017"/>
    <nd ref="250570018"/>
    <nd ref="250570019"/>
    <nd ref="250570020"/>
    <nd ref="250570021"/>
    <nd ref="250570022"/>
    <nd ref="1876643749"/>
    <nd ref="1876643688"/>
    <nd ref="250570023"/>
    <nd ref="250569987"/>
    <tag k="depth" v="11m"/>
    <tag k="depth:mean" v="4.2m"/>
    <tag k="ele" v="74"/>
    <tag k="name" v="Siggeforsasjön"/>
    <tag k="natural" v="water"/>
    <tag k="note" v="Apparently one of the best bathing lakes in Uppsala län, probably due to the depth"/>
    <tag k="ref" v="665177-157556"/>
    <tag k="reflow" v="180days"/>
  </way>
  <way id="23174490" version="9" timestamp="2012-07-20T11:04:17Z" uid="722137" user="OSMF Redaction Account" changeset="12372240">
    <nd ref="149007872"/>
    <nd ref="250570819"/>
    <nd ref="250570821"/>
    <nd ref="250570823"/>
    <tag k="highway" v="trunk"/>
    <tag k="lanes" v="1"/>
    <tag k="name" v="Sir Richard Williams Avenue"/>
    <tag k="oneway" v="yes"/>
    <tag k="source" v="survey;Yahoo"/>
  </way>
  <way id="23174490" version="10" timestamp="2012-07-27T15:30:18Z" uid="328538" user="o&apos;cholio" changeset="12512942">
    <nd ref="149007872"/>
    <nd ref="250570819"/>
    <nd ref="250570821"/>
    <nd ref="250570823"/>
    <tag k="highway" v="secondary"/>
    <tag k="lanes" v="1"/>
    <tag k="name" v="Sir Richard Williams Avenue"/>
    <tag k="oneway" v="yes"/>
    <tag k="source" v="survey;Yahoo"/>
  </way>
  <way id="23174492" version="8" timestamp="2012-07-20T11:06:37Z" uid="722137" user="OSMF Redaction Account" changeset="12372361">
    <nd ref="149007862"/>
    <nd ref="250570830"/>
    <nd ref="250570832"/>
    <nd ref="250570833"/>
    <nd ref="250570819"/>
    <tag k="highway" v="primary_link"/>
    <tag k="oneway" v="yes"/>
    <tag k="source" v="survey;Yahoo"/>
  </way>
  <way id="23174492" version="9" timestamp="2012-07-27T15:31:04Z" uid="328538" user="o&apos;cholio" changeset="12512942">
    <nd ref="149007862"/>
    <nd ref="250570830"/>
    <nd ref="1839949414"/>
    <nd ref="1839949415"/>
    <nd ref="250570832"/>
    <nd ref="250570833"/>
    <nd ref="250570819"/>
    <tag k="highway" v="primary_link"/>
    <tag k="oneway" v="yes"/>
    <tag k="source" v="survey;Yahoo"/>
  </way>
  <way id="23174492" version="10" timestamp="2012-09-09T16:16:44Z" uid="418724" user="wintersportler" changeset="13046338">
    <nd ref="149007862"/>
    <nd ref="250570830"/>
    <nd ref="1839949414"/>
    <nd ref="1839949415"/>
    <nd ref="250570832"/>
    <nd ref="1907091347"/>
    <nd ref="250570833"/>
    <nd ref="250570819"/>
    <tag k="highway" v="secondary_link"/>
    <tag k="oneway" v="yes"/>
    <tag k="source" v="survey;Yahoo"/>
  </way>
  <way id="23174494" version="8" timestamp="2012-07-20T11:06:33Z" uid="722137" user="OSMF Redaction Account" changeset="12372361">
    <nd ref="250570827"/>
    <nd ref="250570838"/>
    <nd ref="250570839"/>
    <nd ref="250570840"/>
    <nd ref="178377461"/>
    <tag k="highway" v="primary_link"/>
    <tag k="oneway" v="yes"/>
  </way>
  <way id="23174494" version="9" timestamp="2012-09-09T16:16:42Z" uid="418724" user="wintersportler" changeset="13046338">
    <nd ref="250570827"/>
    <nd ref="250570838"/>
    <nd ref="250570839"/>
    <nd ref="250570840"/>
    <nd ref="178377461"/>
    <tag k="highway" v="secondary_link"/>
    <tag k="oneway" v="yes"/>
  </way>
  <way id="23174497" version="10" timestamp="2012-07-20T11:04:20Z" uid="722137" user="OSMF Redaction Account" changeset="12372240">
    <nd ref="250570823"/>
    <nd ref="250570846"/>
    <nd ref="250570847"/>
    <nd ref="250570848"/>
    <nd ref="291567470"/>
    <nd ref="1303394046"/>
    <tag k="highway" v="tertiary"/>
    <tag k="lanes" v="2"/>
    <tag k="name" v="Andy Thomas Circuit"/>
    <tag k="oneway" v="yes"/>
    <tag k="source" v="survey"/>
  </way>
  <way id="23174497" version="11" timestamp="2012-07-27T15:28:31Z" uid="328538" user="o&apos;cholio" changeset="12512942">
    <nd ref="250570823"/>
    <nd ref="1839949435"/>
    <nd ref="250570846"/>
    <nd ref="250570847"/>
    <nd ref="250570848"/>
    <nd ref="291567470"/>
    <nd ref="1303394046"/>
    <tag k="highway" v="tertiary"/>
    <tag k="lanes" v="2"/>
    <tag k="name" v="Andy Thomas Circuit"/>
    <tag k="oneway" v="yes"/>
    <tag k="source" v="survey"/>
  </way>
  <way id="23174497" version="12" timestamp="2012-08-06T08:31:04Z" uid="238041" user="marquisite" changeset="12630093">
    <nd ref="250570823"/>
    <nd ref="1853951506"/>
    <nd ref="1839949435"/>
    <nd ref="250570846"/>
    <nd ref="1853951510"/>
    <nd ref="1853951514"/>
    <nd ref="250570847"/>
    <nd ref="1853951525"/>
    <nd ref="1853951529"/>
    <nd ref="1853951549"/>
    <nd ref="1853951552"/>
    <nd ref="1853951554"/>
    <nd ref="1853951556"/>
    <nd ref="250570848"/>
    <nd ref="291567470"/>
    <nd ref="1303394046"/>
    <tag k="highway" v="tertiary"/>
    <tag k="lanes" v="2"/>
    <tag k="name" v="Andy Thomas Circuit"/>
    <tag k="oneway" v="yes"/>
    <tag k="source" v="survey"/>
  </way>
  <way id="23174692" version="3" timestamp="2012-04-30T19:55:07Z" uid="104962" user="techlady" changeset="11463408">
    <nd ref="123280296"/>
    <nd ref="122735409"/>
    <tag k="highway" v="residential"/>
    <tag k="name" v="West 2nd Street"/>
    <tag k="tiger:cfcc" v="A41"/>
    <tag k="tiger:county" v="Los Angeles, CA"/>
    <tag k="tiger:name_base" v="2nd"/>
    <tag k="tiger:name_direction_prefix" v="W"/>
    <tag k="tiger:name_type" v="St"/>
    <tag k="tiger:reviewed" v="no"/>
    <tag k="tiger:separated" v="no"/>
    <tag k="tiger:source" v="tiger_import_dch_v0.6_20070809"/>
    <tag k="tiger:tlid" v="141605208:141605254:141605257:141605259"/>
    <tag k="tiger:zip_left" v="90057"/>
    <tag k="tiger:zip_right" v="90057"/>
  </way>
  <way id="23174692" version="4" timestamp="2012-06-15T03:25:21Z" uid="104962" user="techlady" changeset="11900771"/>
  <way id="23174767" version="6" timestamp="2012-06-15T11:48:31Z" uid="328538" user="o&apos;cholio" changeset="11904036">
    <nd ref="93816061"/>
    <nd ref="1788455723"/>
    <nd ref="93816096"/>
    <nd ref="93816160"/>
    <tag k="cycleway" v="no"/>
    <tag k="highway" v="trunk"/>
    <tag k="is_in" v="Cowandilla, South Australia,Australia"/>
    <tag k="lanes" v="2"/>
    <tag k="maxspeed" v="60"/>
    <tag k="name" v="Sir Donald Bradman Drive"/>
    <tag k="old_name" v="Burrbridge Road"/>
    <tag k="oneway" v="yes"/>
    <tag k="postal_code" v="5033"/>
    <tag k="ref" v="A6"/>
    <tag k="source" v="survey"/>
  </way>
  <way id="23174767" version="7" timestamp="2012-07-20T11:06:37Z" uid="722137" user="OSMF Redaction Account" changeset="12372361">
    <nd ref="93816061"/>
    <nd ref="1788455723"/>
    <nd ref="93816096"/>
    <nd ref="93816160"/>
    <tag k="cycleway" v="no"/>
    <tag k="highway" v="primary"/>
    <tag k="is_in" v="Cowandilla, South Australia,Australia"/>
    <tag k="lanes" v="2"/>
    <tag k="maxspeed" v="60"/>
    <tag k="name" v="Sir Donald Bradman Drive"/>
    <tag k="old_name" v="Burrbridge Road"/>
    <tag k="oneway" v="yes"/>
    <tag k="postal_code" v="5033"/>
    <tag k="ref" v="A6"/>
    <tag k="source" v="survey"/>
  </way>
  <way id="23174767" version="8" timestamp="2012-09-09T13:48:52Z" uid="418724" user="wintersportler" changeset="13044619">
    <nd ref="93816061"/>
    <nd ref="1788455723"/>
    <nd ref="93816160"/>
    <tag k="cycleway" v="no"/>
    <tag k="highway" v="primary"/>
    <tag k="is_in" v="Cowandilla, South Australia,Australia"/>
    <tag k="lanes" v="2"/>
    <tag k="maxspeed" v="60"/>
    <tag k="name" v="Sir Donald Bradman Drive"/>
    <tag k="old_name" v="Burrbridge Road"/>
    <tag k="oneway" v="yes"/>
    <tag k="postal_code" v="5033"/>
    <tag k="ref" v="A6"/>
    <tag k="source" v="survey"/>
  </way>
  <way id="23174835" version="3" timestamp="2012-07-19T09:55:29Z" uid="722137" user="OSMF Redaction Account" changeset="12317089"/>
</osm>
