<?xml version='1.0' encoding='UTF-8'?>
<osm version="0.6" generator="libosmium/2.20.0">
  <way id="23239022" version="4" timestamp="2009-03-08T18:29:06Z" uid="34428" user="usm78-gis" changeset="760921">
    <nd ref="306272719"/>
    <nd ref="21597090"/>
    <tag k="highway" v="unclassified"/>
  </way>
  <way id="23239022" version="5" timestamp="2009-05-12T22:04:33Z" uid="29918" user="Mirt" changeset="1170181"/>
  <way id="23239046" version="2" timestamp="2010-01-17T18:38:25Z" uid="34428" user="usm78-gis" changeset="3644292">
    <nd ref="251442105"/>
    <nd ref="251442106"/>
    <nd ref="251442107"/>
    <nd ref="251442108"/>
    <nd ref="251442105"/>
    <tag k="addr:housenumber" v="4"/>
    <tag k="building" v="yes"/>
  </way>
  <way id="23239046" version="3" timestamp="2010-07-27T21:16:47Z" uid="127299" user="Batareikin" changeset="5333610">
    <nd ref="251442105"/>
    <nd ref="251442106"/>
    <nd ref="251442107"/>
    <nd ref="251442108"/>
    <nd ref="251442105"/>
    <tag k="addr:city" v="Санкт-Петербург"/>
    <tag k="addr:country" v="RU"/>
    <tag k="addr:housenumber" v="4"/>
    <tag k="addr:street" v="Большеохтинский проспект"/>
    <tag k="building" v="yes"/>
    <tag k="name" v="Охтинская"/>
    <tag k="tourism" v="hotel"/>
  </way>
  <way id="23239046" version="4" timestamp="2011-06-20T22:53:03Z" uid="143266" user="Sergey Astakhov" changeset="8500098">
    <nd ref="251442105"/>
    <nd ref="251442106"/>
    <nd ref="251442107"/>
    <nd ref="251442108"/>
    <nd ref="251442105"/>
    <tag k="addr:city" v="Санкт-Петербург"/>
    <tag k="addr:country" v="RU"/>
    <tag k="addr:housenumber" v="4"/>
    <tag k="addr:street" v="Большеохтинский проспект"/>
    <tag k="building" v="yes"/>
    <tag k="name" v="Охтинская"/>
    <tag k="tourism" v="hotel"/>
    <tag k="website" v="http://www.okhtinskaya.com/"/>
  </way>
  <way id="23239092" version="6" timestamp="2010-07-09T04:54:32Z" uid="74617" user="JohnSmith" changeset="5170972">
    <nd ref="251443243"/>
    <nd ref="251442958"/>
    <nd ref="251442959"/>
    <nd ref="251442960"/>
    <nd ref="251442961"/>
    <nd ref="251442962"/>
    <nd ref="251442963"/>
    <tag k="highway" v="residential"/>
    <tag k="maxspeed" v="50"/>
    <tag k="maxspeed:source" v="default residential speed limit in Australia"/>
    <tag k="name" v="Tower Avenue"/>
  </way>
  <way id="23239092" version="7" timestamp="2010-08-29T09:22:57Z" uid="4467" user="Rosscoe" changeset="5623367">
    <nd ref="885882524"/>
    <nd ref="885882724"/>
    <nd ref="251442958"/>
    <nd ref="251442959"/>
    <nd ref="251442960"/>
    <nd ref="251442961"/>
    <nd ref="251442962"/>
    <nd ref="251442963"/>
    <tag k="highway" v="residential"/>
    <tag k="maxspeed" v="50"/>
    <tag k="maxspeed:source" v="default residential speed limit in Australia"/>
    <tag k="name" v="Tower Avenue"/>
  </way>
  <way id="23239092" version="8" timestamp="2012-01-16T02:09:05Z" uid="147510" user="woodpeck_fixbot" changeset="10404959">
    <nd ref="885882524"/>
    <nd ref="885882724"/>
    <nd ref="251442958"/>
    <nd ref="251442959"/>
    <nd ref="251442960"/>
    <nd ref="251442961"/>
    <nd ref="251442962"/>
    <nd ref="251442963"/>
    <tag k="highway" v="residential"/>
    <tag k="name" v="Tower Avenue"/>
  </way>
  <way id="23239092" version="9" timestamp="2012-03-25T23:57:58Z" uid="211804" user="KenS" changeset="11101185">
    <nd ref="1691294368"/>
    <nd ref="885882724"/>
    <nd ref="251442958"/>
    <nd ref="251442959"/>
    <nd ref="251442960"/>
    <nd ref="251442961"/>
    <nd ref="251442962"/>
    <nd ref="251442963"/>
    <tag k="highway" v="residential"/>
    <tag k="name" v="Tower Avenue"/>
  </way>
  <way id="23239092" version="10" timestamp="2012-03-26T00:28:39Z" uid="211804" user="KenS" changeset="11101286"/>
  <way id="23239094" version="5" timestamp="2010-07-09T04:58:44Z" uid="74617" user="JohnSmith" changeset="5170972">
    <nd ref="251443099"/>
    <nd ref="251442963"/>
    <nd ref="251443173"/>
    <tag k="highway" v="residential"/>
    <tag k="maxspeed" v="50"/>
    <tag k="maxspeed:source" v="default residential speed limit in Australia"/>
    <tag k="name" v="Margaret Grove"/>
    <tag k="source" v="Yahoo"/>
    <tag k="source:name" v="Collins 1936"/>
  </way>
  <way id="23239094" version="6" timestamp="2012-01-16T02:09:07Z" uid="147510" user="woodpeck_fixbot" changeset="10404959">
    <nd ref="251443099"/>
    <nd ref="251442963"/>
    <nd ref="251443173"/>
    <tag k="highway" v="residential"/>
    <tag k="name" v="Margaret Grove"/>
    <tag k="source" v="Yahoo"/>
    <tag k="source:name" v="Collins 1936"/>
  </way>
  <way id="23239094" version="7" timestamp="2012-03-26T00:28:38Z" uid="211804" user="KenS" changeset="11101286"/>
  <way id="23239096" version="6" timestamp="2010-07-09T05:00:14Z" uid="74617" user="JohnSmith" changeset="5170972">
    <nd ref="251443261"/>
    <nd ref="251443173"/>
    <nd ref="251443174"/>
    <tag k="highway" v="residential"/>
    <tag k="maxspeed" v="50"/>
    <tag k="maxspeed:source" v="default residential speed limit in Australia"/>
    <tag k="name" v="Perry Street"/>
  </way>
  <way id="23239096" version="7" timestamp="2010-08-29T09:21:09Z" uid="4467" user="Rosscoe" changeset="5623367">
    <nd ref="251443261"/>
    <nd ref="251443173"/>
    <nd ref="251443174"/>
    <tag k="highway" v="residential"/>
    <tag k="maxspeed" v="50"/>
    <tag k="maxspeed:source" v="default residential speed limit in Australia"/>
    <tag k="name" v="Perry Street"/>
  </way>
  <way id="23239096" version="8" timestamp="2012-01-16T02:09:09Z" uid="147510" user="woodpeck_fixbot" changeset="10404959">
    <nd ref="251443261"/>
    <nd ref="251443173"/>
    <nd ref="251443174"/>
    <tag k="highway" v="residential"/>
    <tag k="name" v="Perry Street"/>
  </way>
  <way id="23239096" version="9" timestamp="2012-03-26T00:28:38Z" uid="211804" user="KenS" changeset="11101286"/>
  <way id="23239110" version="8" timestamp="2010-07-09T05:00:50Z" uid="74617" user="JohnSmith" changeset="5170972">
    <nd ref="251443349"/>
    <nd ref="251444531"/>
    <nd ref="631477279"/>
    <tag k="highway" v="residential"/>
    <tag k="maxspeed" v="50"/>
    <tag k="maxspeed:source" v="default residential speed limit in Australia"/>
    <tag k="name" v="Alphington Street"/>
  </way>
  <way id="23239110" version="9" timestamp="2012-01-16T02:09:11Z" uid="147510" user="woodpeck_fixbot" changeset="10404959">
    <nd ref="251443349"/>
    <nd ref="251444531"/>
    <nd ref="631477279"/>
    <tag k="highway" v="residential"/>
    <tag k="name" v="Alphington Street"/>
  </way>
  <way id="23239110" version="10" timestamp="2012-03-25T23:57:56Z" uid="211804" user="KenS" changeset="11101185">
    <nd ref="251443349"/>
    <nd ref="1691294373"/>
    <nd ref="631477279"/>
    <tag k="highway" v="residential"/>
    <tag k="name" v="Alphington Street"/>
  </way>
  <way id="23239110" version="11" timestamp="2012-03-26T00:28:38Z" uid="211804" user="KenS" changeset="11101286"/>
  <way id="23239120" version="6" timestamp="2010-07-09T05:01:19Z" uid="74617" user="JohnSmith" changeset="5170972">
    <nd ref="251443487"/>
    <nd ref="251443488"/>
    <tag k="highway" v="residential"/>
    <tag k="maxspeed" v="50"/>
    <tag k="maxspeed:source" v="default residential speed limit in Australia"/>
    <tag k="name" v="Yarraford Avenue"/>
  </way>
  <way id="23239120" version="7" timestamp="2010-08-29T09:23:56Z" uid="4467" user="Rosscoe" changeset="5623367">
    <nd ref="251443487"/>
    <nd ref="885882865"/>
    <nd ref="251443488"/>
    <tag k="highway" v="residential"/>
    <tag k="maxspeed" v="50"/>
    <tag k="maxspeed:source" v="default residential speed limit in Australia"/>
    <tag k="name" v="Yarraford Avenue"/>
  </way>
  <way id="23239120" version="8" timestamp="2012-01-16T02:09:23Z" uid="147510" user="woodpeck_fixbot" changeset="10404959">
    <nd ref="251443487"/>
    <nd ref="885882865"/>
    <nd ref="251443488"/>
    <tag k="highway" v="residential"/>
    <tag k="name" v="Yarraford Avenue"/>
  </way>
  <way id="23239120" version="9" timestamp="2012-03-26T00:28:39Z" uid="211804" user="KenS" changeset="11101286"/>
  <way id="23239125" version="5" timestamp="2010-07-09T04:54:12Z" uid="74617" user="JohnSmith" changeset="5170972">
    <nd ref="251443555"/>
    <nd ref="251443556"/>
    <tag k="highway" v="residential"/>
    <tag k="maxspeed" v="50"/>
    <tag k="maxspeed:source" v="default residential speed limit in Australia"/>
    <tag k="name" v="Austin Street"/>
  </way>
  <way id="23239125" version="6" timestamp="2012-01-16T02:09:26Z" uid="147510" user="woodpeck_fixbot" changeset="10404959">
    <nd ref="251443555"/>
    <nd ref="251443556"/>
    <tag k="highway" v="residential"/>
    <tag k="name" v="Austin Street"/>
  </way>
  <way id="23239125" version="7" timestamp="2012-03-25T23:58:00Z" uid="211804" user="KenS" changeset="11101185"/>
  <way id="23239150" version="6" timestamp="2010-07-09T04:55:21Z" uid="74617" user="JohnSmith" changeset="5170972">
    <nd ref="251443994"/>
    <nd ref="792695094"/>
    <nd ref="266086294"/>
    <nd ref="251443995"/>
    <tag k="highway" v="residential"/>
    <tag k="maxspeed" v="50"/>
    <tag k="maxspeed:source" v="default residential speed limit in Australia"/>
    <tag k="name" v="Station Street"/>
  </way>
  <way id="23239150" version="7" timestamp="2012-01-16T02:09:34Z" uid="147510" user="woodpeck_fixbot" changeset="10404959">
    <nd ref="251443994"/>
    <nd ref="792695094"/>
    <nd ref="266086294"/>
    <nd ref="251443995"/>
    <tag k="highway" v="residential"/>
    <tag k="name" v="Station Street"/>
  </way>
  <way id="23239150" version="8" timestamp="2012-03-23T20:34:23Z" uid="211804" user="KenS" changeset="11078123"/>
  <way id="23239152" version="5" timestamp="2010-07-09T04:58:25Z" uid="74617" user="JohnSmith" changeset="5170972">
    <nd ref="251444045"/>
    <nd ref="266086097"/>
    <nd ref="251444046"/>
    <tag k="highway" v="residential"/>
    <tag k="maxspeed" v="50"/>
    <tag k="maxspeed:source" v="default residential speed limit in Australia"/>
    <tag k="name" v="Arthur Street"/>
  </way>
  <way id="23239152" version="6" timestamp="2012-01-16T02:09:37Z" uid="147510" user="woodpeck_fixbot" changeset="10404959">
    <nd ref="251444045"/>
    <nd ref="266086097"/>
    <nd ref="251444046"/>
    <tag k="highway" v="residential"/>
    <tag k="name" v="Arthur Street"/>
  </way>
  <way id="23239152" version="7" timestamp="2012-03-25T23:57:59Z" uid="211804" user="KenS" changeset="11101185"/>
  <way id="23239158" version="3" timestamp="2010-07-28T06:29:38Z" uid="4467" user="Rosscoe" changeset="5335298"/>
  <way id="23239159" version="4" timestamp="2010-07-28T06:28:44Z" uid="4467" user="Rosscoe" changeset="5335298">
    <nd ref="141335012"/>
    <nd ref="836067334"/>
    <nd ref="251443709"/>
    <nd ref="836067529"/>
    <nd ref="251443710"/>
    <tag k="highway" v="primary_link"/>
    <tag k="lanes" v="1"/>
    <tag k="maxspeed" v="70"/>
    <tag k="source" v="yahoo"/>
  </way>
  <way id="23239159" version="5" timestamp="2010-09-23T11:23:58Z" uid="79475" user="AlexOnTheBus" changeset="5853193">
    <nd ref="141335012"/>
    <nd ref="836067334"/>
    <nd ref="251443709"/>
    <nd ref="836067529"/>
    <nd ref="251443710"/>
    <tag k="highway" v="secondary_link"/>
    <tag k="lanes" v="1"/>
    <tag k="maxspeed" v="70"/>
    <tag k="oneway" v="yes"/>
    <tag k="source" v="yahoo"/>
  </way>
  <way id="23239161" version="6" timestamp="2010-07-28T06:27:09Z" uid="4467" user="Rosscoe" changeset="5335298">
    <nd ref="251443700"/>
    <nd ref="251443706"/>
    <nd ref="57418181"/>
    <nd ref="251443711"/>
    <nd ref="251443713"/>
    <nd ref="251443714"/>
    <nd ref="251443718"/>
    <nd ref="251443766"/>
    <nd ref="251443734"/>
    <nd ref="251443741"/>
    <nd ref="251443742"/>
    <nd ref="251443744"/>
    <nd ref="251443746"/>
    <nd ref="251443747"/>
    <nd ref="251443749"/>
    <nd ref="251443751"/>
    <nd ref="251443752"/>
    <nd ref="251443755"/>
    <nd ref="251443768"/>
    <nd ref="251443770"/>
    <nd ref="251443771"/>
    <nd ref="251443773"/>
    <nd ref="251443786"/>
    <nd ref="251443787"/>
    <nd ref="251443789"/>
    <nd ref="251443791"/>
    <nd ref="251443792"/>
    <nd ref="251443794"/>
    <nd ref="294051071"/>
    <nd ref="251443796"/>
    <nd ref="251443802"/>
    <nd ref="251443797"/>
    <nd ref="251443799"/>
    <nd ref="251443807"/>
    <nd ref="251443809"/>
    <nd ref="251443810"/>
    <nd ref="251443812"/>
    <nd ref="251443820"/>
    <nd ref="251443825"/>
    <nd ref="251443826"/>
    <nd ref="251443828"/>
    <nd ref="251443830"/>
    <nd ref="251443833"/>
    <nd ref="251443835"/>
    <nd ref="251443838"/>
    <nd ref="251443840"/>
    <tag k="highway" v="primary"/>
    <tag k="maxspeed" v="70"/>
    <tag k="name" v="The Golden Way"/>
    <tag k="oneway" v="yes"/>
    <tag k="source" v="survey"/>
    <tag k="source_ref:name" v="http://osm.beldin.org/2009/03/dscf7946.jpg"/>
    <tag k="source_ref:speed" v="http://osm.beldin.org/2009/03/dscf7947.jpg"/>
  </way>
  <way id="23239161" version="7" timestamp="2010-09-23T11:23:36Z" uid="79475" user="AlexOnTheBus" changeset="5853193">
    <nd ref="251443700"/>
    <nd ref="251443706"/>
    <nd ref="57418181"/>
    <nd ref="251443711"/>
    <nd ref="251443713"/>
    <nd ref="251443714"/>
    <nd ref="251443718"/>
    <nd ref="251443766"/>
    <nd ref="251443734"/>
    <nd ref="251443741"/>
    <nd ref="251443742"/>
    <nd ref="251443744"/>
    <nd ref="251443746"/>
    <nd ref="251443747"/>
    <nd ref="251443749"/>
    <nd ref="251443751"/>
    <nd ref="251443752"/>
    <nd ref="251443755"/>
    <nd ref="251443768"/>
    <nd ref="251443770"/>
    <nd ref="251443771"/>
    <nd ref="251443773"/>
    <nd ref="251443786"/>
    <nd ref="251443787"/>
    <nd ref="251443789"/>
    <nd ref="251443791"/>
    <nd ref="251443792"/>
    <nd ref="251443794"/>
    <nd ref="294051071"/>
    <nd ref="251443796"/>
    <nd ref="251443802"/>
    <nd ref="251443797"/>
    <nd ref="251443799"/>
    <nd ref="251443807"/>
    <nd ref="251443809"/>
    <nd ref="251443810"/>
    <nd ref="251443812"/>
    <nd ref="251443820"/>
    <nd ref="251443825"/>
    <nd ref="251443826"/>
    <nd ref="251443828"/>
    <nd ref="251443830"/>
    <nd ref="251443833"/>
    <nd ref="251443835"/>
    <nd ref="251443838"/>
    <nd ref="251443840"/>
    <tag k="highway" v="secondary"/>
    <tag k="maxspeed" v="70"/>
    <tag k="name" v="The Golden Way"/>
    <tag k="oneway" v="yes"/>
    <tag k="source" v="survey"/>
    <tag k="source_ref:name" v="http://osm.beldin.org/2009/03/dscf7946.jpg"/>
    <tag k="source_ref:speed" v="http://osm.beldin.org/2009/03/dscf7947.jpg"/>
  </way>
  <way id="23239161" version="8" timestamp="2011-08-25T12:02:37Z" uid="428465" user="markinspace" changeset="9120733">
    <nd ref="251443700"/>
    <nd ref="251443706"/>
    <nd ref="57418181"/>
    <nd ref="251443711"/>
    <nd ref="251443713"/>
    <nd ref="251443714"/>
    <nd ref="251443718"/>
    <nd ref="251443766"/>
    <nd ref="251443734"/>
    <nd ref="251443741"/>
    <nd ref="251443742"/>
    <nd ref="251443744"/>
    <nd ref="251443746"/>
    <nd ref="251443747"/>
    <nd ref="251443749"/>
    <nd ref="251443751"/>
    <nd ref="251443752"/>
    <nd ref="251443755"/>
    <nd ref="251443768"/>
    <nd ref="251443770"/>
    <nd ref="251443771"/>
    <nd ref="251443773"/>
    <nd ref="251443786"/>
    <nd ref="251443787"/>
    <nd ref="251443789"/>
    <nd ref="251443791"/>
    <nd ref="251443792"/>
    <nd ref="251443794"/>
    <nd ref="294051071"/>
    <nd ref="251443796"/>
    <nd ref="251443802"/>
    <nd ref="251443797"/>
    <nd ref="251443799"/>
    <nd ref="251443807"/>
    <nd ref="251443809"/>
    <nd ref="251443810"/>
    <nd ref="251443812"/>
    <nd ref="251443820"/>
    <nd ref="251443825"/>
    <nd ref="251443826"/>
    <nd ref="251443828"/>
    <nd ref="251443830"/>
    <nd ref="251443833"/>
    <nd ref="251443835"/>
    <nd ref="251443838"/>
    <nd ref="251443840"/>
    <tag k="highway" v="secondary"/>
    <tag k="lanes" v="2"/>
    <tag k="maxspeed" v="70"/>
    <tag k="name" v="The Golden Way"/>
    <tag k="oneway" v="yes"/>
    <tag k="source" v="survey"/>
    <tag k="source_ref:name" v="http://osm.beldin.org/2009/03/dscf7946.jpg"/>
    <tag k="source_ref:speed" v="http://osm.beldin.org/2009/03/dscf7947.jpg"/>
  </way>
  <way id="23239201" version="4" timestamp="2011-03-21T09:52:18Z" uid="4467" user="Rosscoe" changeset="7625449">
    <nd ref="251444089"/>
    <nd ref="141335070"/>
    <nd ref="251444087"/>
    <nd ref="141335069"/>
    <nd ref="251444086"/>
    <nd ref="141335067"/>
    <nd ref="257275861"/>
    <nd ref="251444084"/>
    <nd ref="251444065"/>
    <tag k="highway" v="secondary"/>
    <tag k="maxspeed" v="60"/>
    <tag k="name" v="The Golden Way"/>
    <tag k="source" v="survey"/>
  </way>
  <way id="23239204" version="5" timestamp="2011-04-21T16:56:52Z" uid="4467" user="Rosscoe" changeset="7927151">
    <nd ref="1254157191"/>
    <nd ref="251444146"/>
    <nd ref="251444126"/>
    <nd ref="251444128"/>
    <tag k="highway" v="secondary"/>
    <tag k="lanes" v="2"/>
    <tag k="maxspeed" v="60"/>
    <tag k="name" v="Yatala Vale Road"/>
    <tag k="oneway" v="yes"/>
    <tag k="source" v="survey"/>
  </way>
  <way id="23239205" version="5" timestamp="2011-04-21T16:57:23Z" uid="4467" user="Rosscoe" changeset="7927151">
    <nd ref="251444128"/>
    <nd ref="251444132"/>
    <nd ref="1254157106"/>
    <tag k="highway" v="secondary"/>
    <tag k="lanes" v="2"/>
    <tag k="maxspeed" v="60"/>
    <tag k="name" v="Yatala Vale Road"/>
    <tag k="oneway" v="yes"/>
    <tag k="source" v="survey"/>
  </way>
  <way id="23239206" version="4" timestamp="2011-04-21T16:55:51Z" uid="4467" user="Rosscoe" changeset="7927151">
    <nd ref="251444135"/>
    <nd ref="1254156906"/>
    <nd ref="251444136"/>
    <nd ref="251444138"/>
    <nd ref="251444140"/>
    <tag k="highway" v="secondary_link"/>
    <tag k="maxspeed" v="60"/>
    <tag k="oneway" v="yes"/>
    <tag k="source" v="survey"/>
  </way>
  <way id="23239207" version="3" timestamp="2011-04-21T16:56:20Z" uid="4467" user="Rosscoe" changeset="7927151">
    <nd ref="1254156790"/>
    <nd ref="251444145"/>
    <nd ref="251444146"/>
    <tag k="highway" v="secondary_link"/>
    <tag k="oneway" v="yes"/>
  </way>
  <way id="23239213" version="6" timestamp="2010-07-09T04:54:29Z" uid="74617" user="JohnSmith" changeset="5170972">
    <nd ref="251440451"/>
    <nd ref="251435128"/>
    <nd ref="251440912"/>
    <nd ref="251440452"/>
    <tag k="highway" v="residential"/>
    <tag k="maxspeed" v="50"/>
    <tag k="maxspeed:source" v="default residential speed limit in Australia"/>
    <tag k="name" v="Adams Street"/>
  </way>
  <way id="23239213" version="7" timestamp="2012-01-16T02:09:38Z" uid="147510" user="woodpeck_fixbot" changeset="10404959">
    <nd ref="251440451"/>
    <nd ref="251435128"/>
    <nd ref="251440912"/>
    <nd ref="251440452"/>
    <tag k="highway" v="residential"/>
    <tag k="name" v="Adams Street"/>
  </way>
  <way id="23239213" version="8" timestamp="2012-03-29T10:57:13Z" uid="211804" user="KenS" changeset="11136570"/>
  <way id="23239215" version="4" timestamp="2010-07-09T04:58:42Z" uid="74617" user="JohnSmith" changeset="5170972">
    <nd ref="251440452"/>
    <nd ref="251440453"/>
    <tag k="highway" v="residential"/>
    <tag k="maxspeed" v="50"/>
    <tag k="maxspeed:source" v="default residential speed limit in Australia"/>
    <tag k="name" v="Phillips Street"/>
  </way>
  <way id="23239215" version="5" timestamp="2012-01-16T02:09:43Z" uid="147510" user="woodpeck_fixbot" changeset="10404959">
    <nd ref="251440452"/>
    <nd ref="251440453"/>
    <tag k="highway" v="residential"/>
    <tag k="name" v="Phillips Street"/>
  </way>
  <way id="23239215" version="6" timestamp="2012-03-23T11:44:28Z" uid="211804" user="KenS" changeset="11072932">
    <nd ref="251440452"/>
    <nd ref="1687058663"/>
    <tag k="highway" v="residential"/>
    <tag k="name" v="Phillips Street"/>
  </way>
  <way id="23239215" version="7" timestamp="2012-03-29T10:57:15Z" uid="211804" user="KenS" changeset="11136570"/>
  <way id="23239217" version="6" timestamp="2010-07-09T05:02:34Z" uid="74617" user="JohnSmith" changeset="5170972">
    <nd ref="251435094"/>
    <nd ref="251435091"/>
    <nd ref="473400422"/>
    <nd ref="251434933"/>
    <tag k="highway" v="residential"/>
    <tag k="maxspeed" v="50"/>
    <tag k="maxspeed:source" v="default residential speed limit in Australia"/>
    <tag k="name" v="View Street"/>
  </way>
  <way id="23239217" version="7" timestamp="2010-07-10T00:48:35Z" uid="201443" user="stevage" changeset="5178312">
    <nd ref="251435094"/>
    <nd ref="251435091"/>
    <nd ref="809037703"/>
    <nd ref="473400422"/>
    <nd ref="251434933"/>
    <tag k="highway" v="residential"/>
    <tag k="maxspeed" v="50"/>
    <tag k="maxspeed:source" v="default residential speed limit in Australia"/>
    <tag k="name" v="View Street"/>
  </way>
  <way id="23239217" version="8" timestamp="2011-06-04T22:59:30Z" uid="38021" user="TrevorN" changeset="8344095">
    <nd ref="251435094"/>
    <nd ref="251435091"/>
    <nd ref="809037703"/>
    <nd ref="473400422"/>
    <nd ref="1312419339"/>
    <nd ref="251434933"/>
    <tag k="highway" v="residential"/>
    <tag k="maxspeed" v="50"/>
    <tag k="maxspeed:source" v="default residential speed limit in Australia"/>
    <tag k="name" v="View Street"/>
  </way>
  <way id="23239217" version="9" timestamp="2012-01-16T02:09:48Z" uid="147510" user="woodpeck_fixbot" changeset="10404959">
    <nd ref="251435094"/>
    <nd ref="251435091"/>
    <nd ref="809037703"/>
    <nd ref="473400422"/>
    <nd ref="1312419339"/>
    <nd ref="251434933"/>
    <tag k="highway" v="residential"/>
    <tag k="name" v="View Street"/>
  </way>
  <way id="23239217" version="10" timestamp="2012-03-29T10:57:16Z" uid="211804" user="KenS" changeset="11136570"/>
  <way id="23239234" version="5" timestamp="2010-07-09T04:56:04Z" uid="74617" user="JohnSmith" changeset="5170972">
    <nd ref="251440845"/>
    <nd ref="251440846"/>
    <nd ref="251440847"/>
    <tag k="highway" v="residential"/>
    <tag k="maxspeed" v="50"/>
    <tag k="maxspeed:source" v="default residential speed limit in Australia"/>
    <tag k="name" v="Latrobe Avenue"/>
  </way>
  <way id="23239234" version="6" timestamp="2012-01-16T02:09:51Z" uid="147510" user="woodpeck_fixbot" changeset="10404959">
    <nd ref="251440845"/>
    <nd ref="251440846"/>
    <nd ref="251440847"/>
    <tag k="highway" v="residential"/>
    <tag k="name" v="Latrobe Avenue"/>
  </way>
  <way id="23239234" version="7" timestamp="2012-03-23T11:44:26Z" uid="211804" user="KenS" changeset="11072932">
    <nd ref="251440845"/>
    <nd ref="251440846"/>
    <nd ref="1687058656"/>
    <tag k="highway" v="residential"/>
    <tag k="name" v="Latrobe Avenue"/>
  </way>
  <way id="23239234" version="8" timestamp="2012-03-23T20:34:21Z" uid="211804" user="KenS" changeset="11078123"/>
  <way id="23239243" version="4" timestamp="2010-07-09T04:55:04Z" uid="74617" user="JohnSmith" changeset="5170972">
    <nd ref="251444530"/>
    <nd ref="251444531"/>
    <tag k="highway" v="residential"/>
    <tag k="maxspeed" v="50"/>
    <tag k="maxspeed:source" v="default residential speed limit in Australia"/>
    <tag k="name" v="The Esplanade"/>
  </way>
  <way id="23239243" version="5" timestamp="2012-01-16T02:09:52Z" uid="147510" user="woodpeck_fixbot" changeset="10404959">
    <nd ref="251444530"/>
    <nd ref="251444531"/>
    <tag k="highway" v="residential"/>
    <tag k="name" v="The Esplanade"/>
  </way>
  <way id="23239243" version="6" timestamp="2012-03-25T23:58:02Z" uid="211804" user="KenS" changeset="11101185"/>
  <way id="23239271" version="7" timestamp="2010-06-29T20:49:09Z" uid="74617" user="JohnSmith" changeset="5109183">
    <nd ref="251444910"/>
    <nd ref="251444763"/>
    <nd ref="250428726"/>
    <nd ref="251444760"/>
    <nd ref="251444910"/>
    <tag k="area" v="yes"/>
    <tag k="fixme" v="sport=rugby is ambiguous, see http://wiki.osm.org/wiki/Tag:sport%3Drugby for more details"/>
    <tag k="leisure" v="pitch"/>
    <tag k="name" v="Rammell Field"/>
    <tag k="sport" v="rugby"/>
  </way>
  <way id="23239271" version="8" timestamp="2012-01-14T21:50:13Z" uid="7511" user="retselkim" changeset="10392870">
    <nd ref="251444910"/>
    <nd ref="251444763"/>
    <nd ref="250428726"/>
    <nd ref="251444760"/>
    <nd ref="251444910"/>
    <tag k="area" v="yes"/>
    <tag k="fixme" v="sport=rugby is ambiguous, see http://wiki.osm.org/wiki/Tag:sport%3Drugby for more details"/>
    <tag k="leisure" v="pitch"/>
    <tag k="name" v="Rammell Field"/>
    <tag k="sport" v="rugby_union"/>
  </way>
  <way id="23239355" version="1" timestamp="2008-03-09T23:25:22Z" uid="30201" user="rrankin" changeset="297242">
    <nd ref="251445708"/>
    <nd ref="251445709"/>
    <tag k="bicycle" v="yes"/>
    <tag k="created_by" v="Potlatch 0.7b"/>
    <tag k="highway" v="footway"/>
  </way>
  <way id="23239355" version="2" timestamp="2008-04-22T05:45:21Z" uid="20949" user="Ebenezer" changeset="219930">
    <nd ref="33168537"/>
    <nd ref="251445709"/>
    <tag k="bicycle" v="yes"/>
    <tag k="created_by" v="Potlatch 0.8a"/>
    <tag k="highway" v="footway"/>
    <tag k="lcn" v="yes"/>
    <tag k="lcn_ref" v="L5a"/>
  </way>
  <way id="23239355" version="3" timestamp="2008-04-22T09:32:15Z" uid="20949" user="Ebenezer" changeset="222719">
    <nd ref="33168537"/>
    <nd ref="259161863"/>
    <nd ref="259161864"/>
    <nd ref="259161865"/>
    <nd ref="251445709"/>
    <tag k="bicycle" v="yes"/>
    <tag k="created_by" v="Potlatch 0.8a"/>
    <tag k="highway" v="footway"/>
    <tag k="lcn" v="yes"/>
    <tag k="lcn_ref" v="L5a"/>
    <tag k="source" v="survey"/>
  </way>
  <way id="23239355" version="4" timestamp="2009-12-02T04:10:38Z" uid="30201" user="rrankin" changeset="3269319">
    <nd ref="33168537"/>
    <nd ref="577464799"/>
    <nd ref="259161863"/>
    <nd ref="259161864"/>
    <nd ref="259161865"/>
    <nd ref="251445709"/>
    <tag k="bicycle" v="yes"/>
    <tag k="highway" v="footway"/>
    <tag k="lcn" v="yes"/>
    <tag k="lcn_ref" v="L5a"/>
    <tag k="source" v="survey"/>
  </way>
  <way id="23239360" version="7" timestamp="2010-07-09T05:03:01Z" uid="74617" user="JohnSmith" changeset="5170972">
    <nd ref="251445724"/>
    <nd ref="251445725"/>
    <nd ref="251445726"/>
    <nd ref="251445730"/>
    <nd ref="251445727"/>
    <tag k="highway" v="residential"/>
    <tag k="maxspeed" v="50"/>
    <tag k="maxspeed:source" v="default residential speed limit in Australia"/>
    <tag k="name" v="Arbor Street"/>
  </way>
  <way id="23239360" version="8" timestamp="2012-01-16T02:09:55Z" uid="147510" user="woodpeck_fixbot" changeset="10404959">
    <nd ref="251445724"/>
    <nd ref="251445725"/>
    <nd ref="251445726"/>
    <nd ref="251445730"/>
    <nd ref="251445727"/>
    <tag k="highway" v="residential"/>
    <tag k="name" v="Arbor Street"/>
  </way>
  <way id="23239360" version="9" timestamp="2012-03-23T11:44:29Z" uid="211804" user="KenS" changeset="11072932"/>
  <way id="23239372" version="5" timestamp="2010-07-09T05:01:42Z" uid="74617" user="JohnSmith" changeset="5170972">
    <nd ref="251445751"/>
    <nd ref="251445752"/>
    <nd ref="251445794"/>
    <tag k="highway" v="residential"/>
    <tag k="maxspeed" v="50"/>
    <tag k="maxspeed:source" v="default residential speed limit in Australia"/>
    <tag k="name" v="Lowther Street"/>
  </way>
  <way id="23239372" version="6" timestamp="2012-01-16T02:09:59Z" uid="147510" user="woodpeck_fixbot" changeset="10404959">
    <nd ref="251445751"/>
    <nd ref="251445752"/>
    <nd ref="251445794"/>
    <tag k="highway" v="residential"/>
    <tag k="name" v="Lowther Street"/>
  </way>
  <way id="23239372" version="7" timestamp="2012-03-23T11:30:35Z" uid="211804" user="KenS" changeset="11072811"/>
  <way id="23239377" version="4" timestamp="2010-07-09T05:01:29Z" uid="74617" user="JohnSmith" changeset="5170972">
    <nd ref="251445791"/>
    <nd ref="251445792"/>
    <nd ref="251445793"/>
    <tag k="highway" v="residential"/>
    <tag k="maxspeed" v="50"/>
    <tag k="maxspeed:source" v="default residential speed limit in Australia"/>
    <tag k="name" v="Harker Street"/>
  </way>
  <way id="23239377" version="5" timestamp="2012-01-16T02:10:00Z" uid="147510" user="woodpeck_fixbot" changeset="10404959">
    <nd ref="251445791"/>
    <nd ref="251445792"/>
    <nd ref="251445793"/>
    <tag k="highway" v="residential"/>
    <tag k="name" v="Harker Street"/>
  </way>
  <way id="23239377" version="6" timestamp="2012-03-23T11:30:35Z" uid="211804" user="KenS" changeset="11072811"/>
  <way id="23239389" version="17" timestamp="2009-08-09T06:41:44Z" uid="4467" user="Rosscoe" changeset="2081733">
    <nd ref="251449656"/>
    <nd ref="251449657"/>
    <nd ref="251452477"/>
    <nd ref="251449658"/>
    <nd ref="251449659"/>
    <nd ref="251449660"/>
    <nd ref="251449661"/>
    <nd ref="251449662"/>
    <nd ref="251449663"/>
    <nd ref="251452422"/>
    <nd ref="251447473"/>
    <nd ref="251447474"/>
    <tag k="highway" v="residential"/>
    <tag k="name" v="Wingrove Street"/>
    <tag k="source" v="Yahoo"/>
    <tag k="source:name" v="Collins 1936"/>
  </way>
  <way id="23239389" version="18" timestamp="2009-08-29T11:02:24Z" uid="38021" user="TrevorN" changeset="2299933">
    <nd ref="476447507"/>
    <nd ref="251452477"/>
    <nd ref="251449658"/>
    <nd ref="251449659"/>
    <nd ref="251449660"/>
    <nd ref="251449661"/>
    <nd ref="251449662"/>
    <nd ref="251449663"/>
    <nd ref="251452422"/>
    <nd ref="251447473"/>
    <nd ref="251447474"/>
    <tag k="highway" v="residential"/>
    <tag k="name" v="Wingrove Street"/>
    <tag k="source" v="Yahoo"/>
    <tag k="source:name" v="Collins 1936"/>
  </way>
  <way id="23239389" version="19" timestamp="2010-07-09T04:59:23Z" uid="74617" user="JohnSmith" changeset="5170972">
    <nd ref="476447507"/>
    <nd ref="251452477"/>
    <nd ref="251449658"/>
    <nd ref="251449659"/>
    <nd ref="251449660"/>
    <nd ref="251449661"/>
    <nd ref="251449662"/>
    <nd ref="251449663"/>
    <nd ref="251452422"/>
    <nd ref="251447473"/>
    <nd ref="251447474"/>
    <tag k="highway" v="residential"/>
    <tag k="maxspeed" v="50"/>
    <tag k="maxspeed:source" v="default residential speed limit in Australia"/>
    <tag k="name" v="Wingrove Street"/>
    <tag k="source" v="Yahoo"/>
    <tag k="source:name" v="Collins 1936"/>
  </way>
  <way id="23239389" version="20" timestamp="2010-07-10T00:54:21Z" uid="201443" user="stevage" changeset="5178312">
    <nd ref="476447507"/>
    <nd ref="251452477"/>
    <nd ref="251449658"/>
    <nd ref="251449659"/>
    <nd ref="251449660"/>
    <nd ref="251449661"/>
    <nd ref="251449662"/>
    <nd ref="251449663"/>
    <nd ref="251452422"/>
    <nd ref="251447473"/>
    <nd ref="251447474"/>
    <tag k="cycleway" v="lane"/>
    <tag k="highway" v="residential"/>
    <tag k="maxspeed" v="50"/>
    <tag k="maxspeed:source" v="default residential speed limit in Australia"/>
    <tag k="name" v="Wingrove Street"/>
    <tag k="source" v="Yahoo"/>
    <tag k="source:name" v="Collins 1936"/>
  </way>
  <way id="23239389" version="21" timestamp="2010-10-22T20:55:23Z" uid="320632" user="Zulu99" changeset="6140315">
    <nd ref="476447507"/>
    <nd ref="251452477"/>
    <tag k="highway" v="residential"/>
    <tag k="maxspeed" v="50"/>
    <tag k="maxspeed:source" v="default residential speed limit in Australia"/>
    <tag k="name" v="Wingrove Street"/>
    <tag k="source" v="Yahoo"/>
    <tag k="source:name" v="Collins 1936"/>
  </way>
  <way id="23239389" version="22" timestamp="2012-01-16T02:10:01Z" uid="147510" user="woodpeck_fixbot" changeset="10404959">
    <nd ref="476447507"/>
    <nd ref="251452477"/>
    <tag k="highway" v="residential"/>
    <tag k="name" v="Wingrove Street"/>
    <tag k="source" v="Yahoo"/>
    <tag k="source:name" v="Collins 1936"/>
  </way>
  <way id="23239389" version="23" timestamp="2012-03-23T20:45:33Z" uid="211804" user="KenS" changeset="11078261"/>
  <way id="23239391" version="8" timestamp="2010-05-12T07:40:32Z" uid="4467" user="Rosscoe" changeset="4674937">
    <nd ref="251445911"/>
    <nd ref="730567055"/>
    <nd ref="730567051"/>
    <tag k="highway" v="residential"/>
    <tag k="name" v="Rowe Street"/>
  </way>
  <way id="23239391" version="9" timestamp="2010-07-09T04:53:15Z" uid="74617" user="JohnSmith" changeset="5170972">
    <nd ref="251445911"/>
    <nd ref="730567055"/>
    <nd ref="730567051"/>
    <tag k="highway" v="residential"/>
    <tag k="maxspeed" v="50"/>
    <tag k="maxspeed:source" v="default residential speed limit in Australia"/>
    <tag k="name" v="Rowe Street"/>
  </way>
  <way id="23239391" version="10" timestamp="2012-01-16T02:10:03Z" uid="147510" user="woodpeck_fixbot" changeset="10404959">
    <nd ref="251445911"/>
    <nd ref="730567055"/>
    <nd ref="730567051"/>
    <tag k="highway" v="residential"/>
    <tag k="name" v="Rowe Street"/>
  </way>
  <way id="23239391" version="11" timestamp="2012-03-23T11:30:36Z" uid="211804" user="KenS" changeset="11072811"/>
  <way id="23239393" version="4" timestamp="2010-07-09T05:02:51Z" uid="74617" user="JohnSmith" changeset="5170972">
    <nd ref="251445729"/>
    <nd ref="251445730"/>
    <tag k="highway" v="residential"/>
    <tag k="maxspeed" v="50"/>
    <tag k="maxspeed:source" v="default residential speed limit in Australia"/>
    <tag k="name" v="Bank Street"/>
  </way>
  <way id="23239393" version="5" timestamp="2012-01-16T02:10:04Z" uid="147510" user="woodpeck_fixbot" changeset="10404959">
    <nd ref="251445729"/>
    <nd ref="251445730"/>
    <tag k="highway" v="residential"/>
    <tag k="name" v="Bank Street"/>
  </way>
  <way id="23239393" version="6" timestamp="2012-03-23T11:44:29Z" uid="211804" user="KenS" changeset="11072932"/>
  <way id="23239408" version="7" timestamp="2010-07-09T04:56:32Z" uid="74617" user="JohnSmith" changeset="5170972">
    <nd ref="251445911"/>
    <nd ref="604310428"/>
    <nd ref="604310705"/>
    <nd ref="251445912"/>
    <tag k="highway" v="residential"/>
    <tag k="maxspeed" v="50"/>
    <tag k="maxspeed:source" v="default residential speed limit in Australia"/>
    <tag k="name" v="Miller Street"/>
  </way>
  <way id="23239408" version="8" timestamp="2011-01-06T22:38:11Z" uid="201443" user="stevage" changeset="6887999">
    <nd ref="251445911"/>
    <nd ref="604310428"/>
    <nd ref="604310705"/>
    <nd ref="1086968252"/>
    <nd ref="251445912"/>
    <tag k="highway" v="residential"/>
    <tag k="maxspeed" v="50"/>
    <tag k="maxspeed:source" v="default residential speed limit in Australia"/>
    <tag k="name" v="Miller Street"/>
  </way>
  <way id="23239408" version="9" timestamp="2012-01-16T02:10:05Z" uid="147510" user="woodpeck_fixbot" changeset="10404959">
    <nd ref="251445911"/>
    <nd ref="604310428"/>
    <nd ref="604310705"/>
    <nd ref="1086968252"/>
    <nd ref="251445912"/>
    <tag k="highway" v="residential"/>
    <tag k="name" v="Miller Street"/>
  </way>
  <way id="23239408" version="10" timestamp="2012-03-23T11:30:36Z" uid="211804" user="KenS" changeset="11072811"/>
  <way id="23239434" version="5" timestamp="2010-07-09T04:55:41Z" uid="74617" user="JohnSmith" changeset="5170972">
    <nd ref="251446230"/>
    <nd ref="251446231"/>
    <nd ref="251446232"/>
    <tag k="highway" v="residential"/>
    <tag k="maxspeed" v="50"/>
    <tag k="maxspeed:source" v="default residential speed limit in Australia"/>
    <tag k="name" v="Clive Street"/>
  </way>
  <way id="23239434" version="6" timestamp="2012-01-16T02:10:06Z" uid="147510" user="woodpeck_fixbot" changeset="10404959">
    <nd ref="251446230"/>
    <nd ref="251446231"/>
    <nd ref="251446232"/>
    <tag k="highway" v="residential"/>
    <tag k="name" v="Clive Street"/>
  </way>
  <way id="23239434" version="7" timestamp="2012-03-23T11:30:34Z" uid="211804" user="KenS" changeset="11072811"/>
  <way id="23239437" version="5" timestamp="2010-07-09T04:54:50Z" uid="74617" user="JohnSmith" changeset="5170972">
    <nd ref="251446242"/>
    <nd ref="251446243"/>
    <tag k="highway" v="residential"/>
    <tag k="maxspeed" v="50"/>
    <tag k="maxspeed:source" v="default residential speed limit in Australia"/>
    <tag k="name" v="Ravinscourt Place"/>
  </way>
  <way id="23239437" version="6" timestamp="2012-01-16T02:10:07Z" uid="147510" user="woodpeck_fixbot" changeset="10404959">
    <nd ref="251446242"/>
    <nd ref="251446243"/>
    <tag k="highway" v="residential"/>
    <tag k="name" v="Ravinscourt Place"/>
  </way>
  <way id="23239437" version="7" timestamp="2012-03-23T20:34:22Z" uid="211804" user="KenS" changeset="11078123"/>
  <way id="23239440" version="6" timestamp="2010-07-09T05:00:46Z" uid="74617" user="JohnSmith" changeset="5170972">
    <nd ref="251446242"/>
    <nd ref="251446246"/>
    <tag k="highway" v="residential"/>
    <tag k="maxspeed" v="50"/>
    <tag k="maxspeed:source" v="default residential speed limit in Australia"/>
    <tag k="name" v="Fulham Road"/>
  </way>
  <way id="23239440" version="7" timestamp="2012-01-16T02:10:09Z" uid="147510" user="woodpeck_fixbot" changeset="10404959">
    <nd ref="251446242"/>
    <nd ref="251446246"/>
    <tag k="highway" v="residential"/>
    <tag k="name" v="Fulham Road"/>
  </way>
  <way id="23239440" version="8" timestamp="2012-03-23T20:34:20Z" uid="211804" user="KenS" changeset="11078123"/>
  <way id="23239470" version="2" timestamp="2008-08-30T09:41:17Z" uid="6975" user="ulfl" changeset="458086">
    <nd ref="251446777"/>
    <nd ref="251446778"/>
    <nd ref="251446779"/>
    <nd ref="251446780"/>
    <nd ref="251446782"/>
    <nd ref="251446783"/>
    <nd ref="251446784"/>
    <nd ref="251446785"/>
    <nd ref="251446787"/>
    <nd ref="292225274"/>
    <nd ref="292225275"/>
    <nd ref="292225276"/>
    <tag k="created_by" v="JOSM"/>
    <tag k="highway" v="unclassified"/>
    <tag k="source" v="motorcycle"/>
  </way>
  <way id="23239470" version="3" timestamp="2011-03-21T23:45:14Z" uid="122327" user="werthtobi" changeset="7632947">
    <nd ref="251446777"/>
    <nd ref="251446778"/>
    <nd ref="251446779"/>
    <nd ref="251446780"/>
    <nd ref="251446782"/>
    <nd ref="251446783"/>
    <nd ref="251446784"/>
    <nd ref="251446785"/>
    <nd ref="251446787"/>
    <nd ref="292225274"/>
    <nd ref="292225275"/>
    <nd ref="1212675593"/>
    <nd ref="292225276"/>
    <nd ref="1212675635"/>
    <nd ref="1212675636"/>
    <nd ref="1212675614"/>
    <nd ref="1212675622"/>
    <nd ref="1212675600"/>
    <nd ref="1212675633"/>
    <nd ref="1212675634"/>
    <nd ref="1212675594"/>
    <nd ref="1212675640"/>
    <nd ref="1212675627"/>
    <nd ref="1212675598"/>
    <nd ref="1212675630"/>
    <nd ref="1212675604"/>
    <nd ref="1212622879"/>
    <tag k="highway" v="unclassified"/>
    <tag k="source" v="motorcycle"/>
  </way>
  <way id="23239470" version="4" timestamp="2011-12-11T17:13:37Z" uid="86130" user="Stefano Salvador" changeset="10091872">
    <nd ref="251446777"/>
    <nd ref="251446778"/>
    <nd ref="251446779"/>
    <nd ref="251446780"/>
    <nd ref="251446782"/>
    <nd ref="251446783"/>
    <nd ref="251446784"/>
    <nd ref="251446785"/>
    <nd ref="251446787"/>
    <nd ref="1541164214"/>
    <nd ref="292225274"/>
    <nd ref="1541164213"/>
    <nd ref="1541164210"/>
    <nd ref="1541164207"/>
    <nd ref="292225275"/>
    <nd ref="1541164203"/>
    <nd ref="1212675593"/>
    <nd ref="292225276"/>
    <nd ref="1541164197"/>
    <nd ref="1541164191"/>
    <nd ref="1212675635"/>
    <nd ref="1212675636"/>
    <nd ref="1541164189"/>
    <nd ref="1541164186"/>
    <nd ref="1212675614"/>
    <nd ref="1212675622"/>
    <nd ref="1212675600"/>
    <nd ref="1541164184"/>
    <nd ref="1541164167"/>
    <nd ref="1541164165"/>
    <nd ref="1541164160"/>
    <nd ref="1212675633"/>
    <nd ref="1541164157"/>
    <nd ref="1541164155"/>
    <nd ref="1212675634"/>
    <nd ref="1212675594"/>
    <nd ref="1212675640"/>
    <nd ref="1541164152"/>
    <nd ref="1212675627"/>
    <nd ref="1541164132"/>
    <nd ref="1541164128"/>
    <nd ref="1541164123"/>
    <nd ref="1212675598"/>
    <nd ref="1541164083"/>
    <nd ref="1541164069"/>
    <nd ref="1541164060"/>
    <nd ref="1212675630"/>
    <nd ref="1212675604"/>
    <nd ref="1212622879"/>
    <tag k="highway" v="unclassified"/>
  </way>
  <way id="23239470" version="5" timestamp="2011-12-11T17:30:27Z" uid="86130" user="Stefano Salvador" changeset="10092057">
    <nd ref="251446777"/>
    <nd ref="251446778"/>
    <nd ref="251446779"/>
    <nd ref="251446780"/>
    <nd ref="251446782"/>
    <nd ref="251446783"/>
    <nd ref="251446784"/>
    <nd ref="251446785"/>
    <nd ref="251446787"/>
    <nd ref="1541164214"/>
    <nd ref="292225274"/>
    <nd ref="1541164213"/>
    <nd ref="1541164210"/>
    <nd ref="1541164207"/>
    <nd ref="292225275"/>
    <nd ref="1541164203"/>
    <nd ref="1212675593"/>
    <nd ref="292225276"/>
    <nd ref="1541164197"/>
    <nd ref="1541164191"/>
    <nd ref="1212675635"/>
    <nd ref="1212675636"/>
    <nd ref="1541164189"/>
    <nd ref="1541164186"/>
    <nd ref="1212675614"/>
    <nd ref="1212675622"/>
    <nd ref="1212675600"/>
    <nd ref="1541164184"/>
    <nd ref="1541164167"/>
    <nd ref="1541164165"/>
    <nd ref="1541164160"/>
    <nd ref="1212675633"/>
    <nd ref="1541164157"/>
    <nd ref="1541164155"/>
    <nd ref="1212675634"/>
    <nd ref="1212675594"/>
    <nd ref="1212675640"/>
    <nd ref="1541164152"/>
    <nd ref="1212675627"/>
    <nd ref="1541164132"/>
    <nd ref="1541164128"/>
    <nd ref="1541164123"/>
    <nd ref="1212675598"/>
    <nd ref="1541164083"/>
    <nd ref="1541164069"/>
    <nd ref="1541164060"/>
    <nd ref="1212675630"/>
    <nd ref="1212675604"/>
    <nd ref="1212622879"/>
    <tag k="highway" v="unclassified"/>
    <tag k="name" v="Via Priesnig"/>
  </way>
  <way id="23239498" version="2" timestamp="2010-11-01T00:09:00Z" uid="34428" user="usm78-gis" changeset="6249816">
    <nd ref="251446992"/>
    <nd ref="973131865"/>
    <nd ref="251446993"/>
    <nd ref="251446994"/>
    <nd ref="251446995"/>
    <nd ref="251446996"/>
    <nd ref="251446997"/>
    <nd ref="251446998"/>
    <nd ref="251446999"/>
    <nd ref="251447000"/>
    <nd ref="251447001"/>
    <nd ref="251447002"/>
    <nd ref="251447003"/>
    <nd ref="251446992"/>
    <tag k="leisure" v="park"/>
  </way>
  <way id="23239498" version="3" timestamp="2011-03-26T21:21:11Z" uid="34428" user="usm78-gis" changeset="7680240">
    <nd ref="251446992"/>
    <nd ref="973131865"/>
    <nd ref="251446993"/>
    <nd ref="251446994"/>
    <nd ref="251446995"/>
    <nd ref="251446996"/>
    <nd ref="251446997"/>
    <nd ref="251446998"/>
    <nd ref="251446999"/>
    <nd ref="251447000"/>
    <nd ref="1219708179"/>
    <nd ref="251447001"/>
    <nd ref="251447002"/>
    <nd ref="251447003"/>
    <nd ref="251446992"/>
    <tag k="leisure" v="park"/>
  </way>
  <way id="23239498" version="4" timestamp="2012-01-02T12:14:50Z" uid="392109" user="GaM" changeset="10270021">
    <nd ref="251447003"/>
    <nd ref="251446992"/>
    <nd ref="973131865"/>
    <nd ref="251446993"/>
    <nd ref="251446994"/>
    <nd ref="251447003"/>
    <tag k="leisure" v="park"/>
  </way>
  <way id="23239502" version="3" timestamp="2011-03-26T21:20:45Z" uid="34428" user="usm78-gis" changeset="7680240">
    <nd ref="251447011"/>
    <nd ref="1219706731"/>
    <nd ref="251447012"/>
    <nd ref="251447013"/>
    <nd ref="251447014"/>
    <nd ref="251447015"/>
    <nd ref="251447016"/>
    <nd ref="251447017"/>
    <nd ref="251447018"/>
    <nd ref="251447019"/>
    <nd ref="251447020"/>
    <nd ref="251447011"/>
    <tag k="leisure" v="park"/>
  </way>
  <way id="23239502" version="4" timestamp="2012-01-02T12:14:51Z" uid="392109" user="GaM" changeset="10270021">
    <nd ref="251447011"/>
    <nd ref="1219706731"/>
    <nd ref="251447012"/>
    <nd ref="251447013"/>
    <nd ref="251447014"/>
    <nd ref="251447015"/>
    <nd ref="251447016"/>
    <nd ref="251447017"/>
    <nd ref="251447018"/>
    <nd ref="251447019"/>
    <nd ref="251447020"/>
    <nd ref="251447011"/>
  </way>
  <way id="23239530" version="6" timestamp="2010-07-09T04:58:35Z" uid="74617" user="JohnSmith" changeset="5170972">
    <nd ref="599433832"/>
    <nd ref="251447298"/>
    <nd ref="251447299"/>
    <nd ref="251447302"/>
    <nd ref="251447300"/>
    <tag k="highway" v="residential"/>
    <tag k="maxspeed" v="50"/>
    <tag k="maxspeed:source" v="default residential speed limit in Australia"/>
    <tag k="name" v="Tuckett Street"/>
  </way>
  <way id="23239530" version="7" timestamp="2012-01-16T02:10:10Z" uid="147510" user="woodpeck_fixbot" changeset="10404959">
    <nd ref="599433832"/>
    <nd ref="251447298"/>
    <nd ref="251447299"/>
    <nd ref="251447302"/>
    <nd ref="251447300"/>
    <tag k="highway" v="residential"/>
    <tag k="name" v="Tuckett Street"/>
  </way>
  <way id="23239530" version="8" timestamp="2012-03-26T00:28:39Z" uid="211804" user="KenS" changeset="11101286"/>
  <way id="23239531" version="5" timestamp="2010-07-09T05:01:18Z" uid="74617" user="JohnSmith" changeset="5170972">
    <nd ref="251447301"/>
    <nd ref="251447302"/>
    <nd ref="251443174"/>
    <tag k="highway" v="residential"/>
    <tag k="maxspeed" v="50"/>
    <tag k="maxspeed:source" v="default residential speed limit in Australia"/>
    <tag k="name" v="Perry Street"/>
  </way>
  <way id="23239531" version="6" timestamp="2010-08-29T09:23:54Z" uid="4467" user="Rosscoe" changeset="5623367">
    <nd ref="251447301"/>
    <nd ref="251447302"/>
    <nd ref="251443174"/>
    <tag k="highway" v="residential"/>
    <tag k="maxspeed" v="50"/>
    <tag k="maxspeed:source" v="default residential speed limit in Australia"/>
    <tag k="name" v="Perry Street"/>
  </way>
  <way id="23239531" version="7" timestamp="2012-01-16T02:10:11Z" uid="147510" user="woodpeck_fixbot" changeset="10404959">
    <nd ref="251447301"/>
    <nd ref="251447302"/>
    <nd ref="251443174"/>
    <tag k="highway" v="residential"/>
    <tag k="name" v="Perry Street"/>
  </way>
  <way id="23239531" version="8" timestamp="2012-03-26T00:28:39Z" uid="211804" user="KenS" changeset="11101286"/>
  <way id="23239533" version="6" timestamp="2010-07-09T04:57:59Z" uid="74617" user="JohnSmith" changeset="5170972">
    <nd ref="537522456"/>
    <nd ref="251447300"/>
    <nd ref="251443488"/>
    <tag k="highway" v="residential"/>
    <tag k="maxspeed" v="50"/>
    <tag k="maxspeed:source" v="default residential speed limit in Australia"/>
    <tag k="name" v="Hanslope Avenue"/>
  </way>
  <way id="23239533" version="7" timestamp="2010-08-29T09:21:42Z" uid="4467" user="Rosscoe" changeset="5623367">
    <nd ref="537522456"/>
    <nd ref="251447300"/>
    <nd ref="251443488"/>
    <tag k="highway" v="residential"/>
    <tag k="maxspeed" v="50"/>
    <tag k="maxspeed:source" v="default residential speed limit in Australia"/>
    <tag k="name" v="Hanslope Avenue"/>
  </way>
  <way id="23239533" version="8" timestamp="2012-01-16T02:10:13Z" uid="147510" user="woodpeck_fixbot" changeset="10404959">
    <nd ref="537522456"/>
    <nd ref="251447300"/>
    <nd ref="251443488"/>
    <tag k="highway" v="residential"/>
    <tag k="name" v="Hanslope Avenue"/>
  </way>
  <way id="23239533" version="9" timestamp="2012-03-26T00:28:38Z" uid="211804" user="KenS" changeset="11101286"/>
  <way id="23239559" version="5" timestamp="2010-07-09T05:03:25Z" uid="74617" user="JohnSmith" changeset="5170972">
    <nd ref="251447550"/>
    <nd ref="251447551"/>
    <tag k="highway" v="residential"/>
    <tag k="maxspeed" v="50"/>
    <tag k="maxspeed:source" v="default residential speed limit in Australia"/>
    <tag k="name" v="Yarana Road"/>
  </way>
  <way id="23239559" version="6" timestamp="2012-01-16T02:10:14Z" uid="147510" user="woodpeck_fixbot" changeset="10404959">
    <nd ref="251447550"/>
    <nd ref="251447551"/>
    <tag k="highway" v="residential"/>
    <tag k="name" v="Yarana Road"/>
  </way>
  <way id="23239559" version="7" timestamp="2012-03-19T12:03:12Z" uid="211804" user="KenS" changeset="11028948"/>
  <way id="23239561" version="14" timestamp="2010-07-09T04:53:59Z" uid="74617" user="JohnSmith" changeset="5170972">
    <nd ref="251447839"/>
    <nd ref="251449343"/>
    <nd ref="251447660"/>
    <tag k="highway" v="residential"/>
    <tag k="maxspeed" v="50"/>
    <tag k="maxspeed:source" v="default residential speed limit in Australia"/>
    <tag k="name" v="Mercil Road"/>
  </way>
  <way id="23239561" version="15" timestamp="2012-01-16T02:10:15Z" uid="147510" user="woodpeck_fixbot" changeset="10404959">
    <nd ref="251447839"/>
    <nd ref="251449343"/>
    <nd ref="251447660"/>
    <tag k="highway" v="residential"/>
    <tag k="name" v="Mercil Road"/>
  </way>
  <way id="23239561" version="16" timestamp="2012-03-19T12:03:10Z" uid="211804" user="KenS" changeset="11028948">
    <nd ref="251447839"/>
    <nd ref="251449343"/>
    <nd ref="251447660"/>
    <tag k="highway" v="residential"/>
    <tag k="name" v="Mercil Road"/>
  </way>
  <way id="23239561" version="17" timestamp="2012-03-23T11:30:35Z" uid="211804" user="KenS" changeset="11072811"/>
  <way id="23239568" version="7" timestamp="2010-07-09T05:01:52Z" uid="74617" user="JohnSmith" changeset="5170972">
    <nd ref="251447894"/>
    <nd ref="251447476"/>
    <tag k="highway" v="residential"/>
    <tag k="maxspeed" v="50"/>
    <tag k="maxspeed:source" v="default residential speed limit in Australia"/>
    <tag k="name" v="Naroon Road"/>
  </way>
  <way id="23239568" version="8" timestamp="2012-01-16T02:10:16Z" uid="147510" user="woodpeck_fixbot" changeset="10404959">
    <nd ref="251447894"/>
    <nd ref="251447476"/>
    <tag k="highway" v="residential"/>
    <tag k="name" v="Naroon Road"/>
  </way>
  <way id="23239568" version="9" timestamp="2012-03-23T11:30:36Z" uid="211804" user="KenS" changeset="11072811"/>
  <way id="23239569" version="7" timestamp="2010-07-09T05:03:57Z" uid="74617" user="JohnSmith" changeset="5170972">
    <nd ref="251447883"/>
    <nd ref="251447845"/>
    <tag k="highway" v="residential"/>
    <tag k="maxspeed" v="50"/>
    <tag k="maxspeed:source" v="default residential speed limit in Australia"/>
    <tag k="name" v="Toolangi Road"/>
  </way>
  <way id="23239569" version="8" timestamp="2012-01-16T02:10:18Z" uid="147510" user="woodpeck_fixbot" changeset="10404959">
    <nd ref="251447883"/>
    <nd ref="251447845"/>
    <tag k="highway" v="residential"/>
    <tag k="name" v="Toolangi Road"/>
  </way>
  <way id="23239569" version="9" timestamp="2012-03-23T11:30:36Z" uid="211804" user="KenS" changeset="11072811"/>
  <way id="23239574" version="7" timestamp="2010-07-09T04:57:08Z" uid="74617" user="JohnSmith" changeset="5170972">
    <nd ref="251447882"/>
    <nd ref="718672753"/>
    <tag k="highway" v="residential"/>
    <tag k="maxspeed" v="50"/>
    <tag k="maxspeed:source" v="default residential speed limit in Australia"/>
    <tag k="name" v="Kelvin Road"/>
  </way>
  <way id="23239574" version="8" timestamp="2012-01-16T02:10:19Z" uid="147510" user="woodpeck_fixbot" changeset="10404959">
    <nd ref="251447882"/>
    <nd ref="718672753"/>
    <tag k="highway" v="residential"/>
    <tag k="name" v="Kelvin Road"/>
  </way>
  <way id="23239574" version="9" timestamp="2012-03-23T11:30:35Z" uid="211804" user="KenS" changeset="11072811"/>
  <way id="23239591" version="3" timestamp="2008-07-05T11:24:04Z" uid="6975" user="ulfl" changeset="398437">
    <nd ref="251448000"/>
    <nd ref="251448001"/>
    <nd ref="251448002"/>
    <nd ref="251448003"/>
    <nd ref="251448004"/>
    <nd ref="251448323"/>
    <nd ref="251448005"/>
    <nd ref="251448006"/>
    <nd ref="251448013"/>
    <nd ref="251448021"/>
    <nd ref="251448032"/>
    <nd ref="251448042"/>
    <nd ref="251448044"/>
    <nd ref="251448000"/>
    <tag k="building" v="yes"/>
    <tag k="name" v="Farington Lodge Hotel"/>
    <tag k="tourism" v="hotel"/>
  </way>
  <way id="23239611" version="9" timestamp="2010-07-09T05:02:44Z" uid="74617" user="JohnSmith" changeset="5170972">
    <nd ref="251447660"/>
    <nd ref="718672583"/>
    <nd ref="251447894"/>
    <nd ref="251448712"/>
    <nd ref="251447883"/>
    <nd ref="251448770"/>
    <nd ref="251447882"/>
    <nd ref="251448803"/>
    <nd ref="251447550"/>
    <tag k="highway" v="residential"/>
    <tag k="maxspeed" v="50"/>
    <tag k="maxspeed:source" v="default residential speed limit in Australia"/>
    <tag k="name" v="Parklands Avenue"/>
  </way>
  <way id="23239611" version="10" timestamp="2012-01-16T02:10:21Z" uid="147510" user="woodpeck_fixbot" changeset="10404959">
    <nd ref="251447660"/>
    <nd ref="718672583"/>
    <nd ref="251447894"/>
    <nd ref="251448712"/>
    <nd ref="251447883"/>
    <nd ref="251448770"/>
    <nd ref="251447882"/>
    <nd ref="251448803"/>
    <nd ref="251447550"/>
    <tag k="highway" v="residential"/>
    <tag k="name" v="Parklands Avenue"/>
  </way>
  <way id="23239611" version="11" timestamp="2012-03-19T12:03:12Z" uid="211804" user="KenS" changeset="11028948"/>
  <way id="23239648" version="6" timestamp="2010-07-09T04:58:23Z" uid="74617" user="JohnSmith" changeset="5170972">
    <nd ref="251448765"/>
    <nd ref="251448713"/>
    <nd ref="251448712"/>
    <tag k="highway" v="residential"/>
    <tag k="maxspeed" v="50"/>
    <tag k="maxspeed:source" v="default residential speed limit in Australia"/>
    <tag k="name" v="Keith Street"/>
  </way>
  <way id="23239648" version="7" timestamp="2012-01-16T02:10:23Z" uid="147510" user="woodpeck_fixbot" changeset="10404959">
    <nd ref="251448765"/>
    <nd ref="251448713"/>
    <nd ref="251448712"/>
    <tag k="highway" v="residential"/>
    <tag k="name" v="Keith Street"/>
  </way>
  <way id="23239648" version="8" timestamp="2012-03-23T11:30:35Z" uid="211804" user="KenS" changeset="11072811"/>
  <way id="23239656" version="7" timestamp="2010-07-09T04:55:40Z" uid="74617" user="JohnSmith" changeset="5170972">
    <nd ref="251448770"/>
    <nd ref="445720604"/>
    <nd ref="251448767"/>
    <tag k="highway" v="residential"/>
    <tag k="maxspeed" v="50"/>
    <tag k="maxspeed:source" v="default residential speed limit in Australia"/>
    <tag k="name" v="Shiers Street"/>
  </way>
  <way id="23239656" version="8" timestamp="2012-01-16T02:10:24Z" uid="147510" user="woodpeck_fixbot" changeset="10404959">
    <nd ref="251448770"/>
    <nd ref="445720604"/>
    <nd ref="251448767"/>
    <tag k="highway" v="residential"/>
    <tag k="name" v="Shiers Street"/>
  </way>
  <way id="23239656" version="9" timestamp="2012-03-23T11:30:36Z" uid="211804" user="KenS" changeset="11072811"/>
  <way id="23239673" version="5" timestamp="2010-07-09T04:53:15Z" uid="74617" user="JohnSmith" changeset="5170972">
    <nd ref="251448802"/>
    <nd ref="52490872"/>
    <nd ref="251448803"/>
    <tag k="highway" v="residential"/>
    <tag k="maxspeed" v="50"/>
    <tag k="maxspeed:source" v="default residential speed limit in Australia"/>
    <tag k="name" v="Bennett Street"/>
  </way>
  <way id="23239673" version="6" timestamp="2012-01-16T02:10:26Z" uid="147510" user="woodpeck_fixbot" changeset="10404959">
    <nd ref="251448802"/>
    <nd ref="52490872"/>
    <nd ref="251448803"/>
    <tag k="highway" v="residential"/>
    <tag k="name" v="Bennett Street"/>
  </way>
  <way id="23239673" version="7" timestamp="2012-03-19T12:03:11Z" uid="211804" user="KenS" changeset="11028948"/>
  <way id="23239678" version="6" timestamp="2010-07-09T04:57:17Z" uid="74617" user="JohnSmith" changeset="5170972">
    <nd ref="251448926"/>
    <nd ref="251448925"/>
    <tag k="highway" v="residential"/>
    <tag k="maxspeed" v="50"/>
    <tag k="maxspeed:source" v="default residential speed limit in Australia"/>
    <tag k="name" v="Ross Street"/>
  </way>
  <way id="23239678" version="7" timestamp="2012-01-16T02:10:27Z" uid="147510" user="woodpeck_fixbot" changeset="10404959">
    <nd ref="251448926"/>
    <nd ref="251448925"/>
    <tag k="highway" v="residential"/>
    <tag k="name" v="Ross Street"/>
  </way>
  <way id="23239678" version="8" timestamp="2012-03-23T11:30:36Z" uid="211804" user="KenS" changeset="11072811"/>
  <way id="23239696" version="7" timestamp="2010-07-09T04:53:52Z" uid="74617" user="JohnSmith" changeset="5170972">
    <nd ref="251449355"/>
    <nd ref="251449343"/>
    <tag k="highway" v="residential"/>
    <tag k="maxspeed" v="50"/>
    <tag k="maxspeed:source" v="default residential speed limit in Australia"/>
    <tag k="name" v="Mercil Street"/>
  </way>
  <way id="23239696" version="8" timestamp="2012-01-16T02:10:28Z" uid="147510" user="woodpeck_fixbot" changeset="10404959">
    <nd ref="251449355"/>
    <nd ref="251449343"/>
    <tag k="highway" v="residential"/>
    <tag k="name" v="Mercil Street"/>
  </way>
  <way id="23239696" version="9" timestamp="2012-03-23T11:30:36Z" uid="211804" user="KenS" changeset="11072811"/>
  <way id="23239699" version="9" timestamp="2009-08-09T06:41:44Z" uid="4467" user="Rosscoe" changeset="2081733">
    <nd ref="251449391"/>
    <nd ref="459455668"/>
    <nd ref="251878055"/>
    <nd ref="251452456"/>
    <nd ref="251449378"/>
    <nd ref="251449379"/>
    <nd ref="251878223"/>
    <nd ref="251449380"/>
    <tag k="highway" v="residential"/>
    <tag k="name" v="Darling Street"/>
  </way>
  <way id="23239699" version="10" timestamp="2010-07-09T05:00:54Z" uid="74617" user="JohnSmith" changeset="5170972">
    <nd ref="251449391"/>
    <nd ref="459455668"/>
    <nd ref="251878055"/>
    <nd ref="251452456"/>
    <nd ref="251449378"/>
    <nd ref="251449379"/>
    <nd ref="251878223"/>
    <nd ref="251449380"/>
    <tag k="highway" v="residential"/>
    <tag k="maxspeed" v="50"/>
    <tag k="maxspeed:source" v="default residential speed limit in Australia"/>
    <tag k="name" v="Darling Street"/>
  </way>
  <way id="23239699" version="11" timestamp="2012-01-16T02:10:30Z" uid="147510" user="woodpeck_fixbot" changeset="10404959">
    <nd ref="251449391"/>
    <nd ref="459455668"/>
    <nd ref="251878055"/>
    <nd ref="251452456"/>
    <nd ref="251449378"/>
    <nd ref="251449379"/>
    <nd ref="251878223"/>
    <nd ref="251449380"/>
    <tag k="highway" v="residential"/>
    <tag k="name" v="Darling Street"/>
  </way>
  <way id="23239699" version="12" timestamp="2012-03-23T11:30:35Z" uid="211804" user="KenS" changeset="11072811"/>
  <way id="23239702" version="8" timestamp="2009-12-09T21:19:00Z" uid="200463" user="harmagedon" changeset="3336909">
    <nd ref="251449449"/>
    <nd ref="251449182"/>
    <nd ref="251449183"/>
    <nd ref="251449184"/>
    <nd ref="251449185"/>
    <nd ref="251449188"/>
    <nd ref="251449190"/>
    <nd ref="251449191"/>
    <nd ref="251449193"/>
    <nd ref="251449194"/>
    <nd ref="251449196"/>
    <nd ref="251449197"/>
    <nd ref="251449199"/>
    <nd ref="251449200"/>
    <nd ref="251449202"/>
    <nd ref="251449203"/>
    <nd ref="251449204"/>
    <nd ref="251449205"/>
    <nd ref="251449206"/>
    <nd ref="251449207"/>
    <nd ref="251449209"/>
    <tag k="highway" v="footway"/>
    <tag k="note" v="check and delete this note if correct; object was imported from http://www.wandern-saechsische-schweiz.de/"/>
  </way>
  <way id="23239702" version="9" timestamp="2010-04-28T20:33:14Z" uid="30398" user="vaust" changeset="4553452">
    <nd ref="251449449"/>
    <nd ref="251449182"/>
    <nd ref="251449183"/>
    <nd ref="251449184"/>
    <nd ref="251449185"/>
    <nd ref="251449188"/>
    <nd ref="251449190"/>
    <nd ref="251449191"/>
    <nd ref="251449193"/>
    <nd ref="251449194"/>
    <nd ref="251449196"/>
    <nd ref="251449197"/>
    <nd ref="251449199"/>
    <nd ref="251449200"/>
    <nd ref="251449202"/>
    <nd ref="251449203"/>
    <nd ref="251449204"/>
    <nd ref="251449205"/>
    <nd ref="251449206"/>
    <nd ref="251449207"/>
    <nd ref="251449209"/>
    <tag k="foot" v="yes"/>
    <tag k="highway" v="path"/>
    <tag k="note" v="check and delete this note if correct; object was imported from http://www.wandern-saechsische-schweiz.de/"/>
  </way>
  <way id="23239702" version="10" timestamp="2011-04-13T16:37:10Z" uid="30398" user="vaust" changeset="7853437">
    <nd ref="251449449"/>
    <nd ref="1243438770"/>
    <nd ref="251449182"/>
    <nd ref="1243438483"/>
    <nd ref="1243438744"/>
    <tag k="foot" v="yes"/>
    <tag k="highway" v="residential"/>
  </way>
  <way id="23239702" version="11" timestamp="2011-06-06T18:38:33Z" uid="175063" user="woelffchen91" changeset="8363051">
    <nd ref="251449449"/>
    <nd ref="1243438770"/>
    <nd ref="251449182"/>
    <nd ref="1243438483"/>
    <nd ref="1243438744"/>
    <tag k="foot" v="yes"/>
    <tag k="highway" v="residential"/>
    <tag k="name" v="Martin-May-Straße"/>
  </way>
  <way id="23239702" version="12" timestamp="2012-02-14T19:29:22Z" uid="71557" user="Taroc" changeset="10686324">
    <nd ref="251449449"/>
    <nd ref="1243438770"/>
    <nd ref="1633097675"/>
    <nd ref="1633097676"/>
    <nd ref="251449182"/>
    <nd ref="1243438483"/>
    <nd ref="1243438744"/>
    <tag k="foot" v="yes"/>
    <tag k="highway" v="residential"/>
    <tag k="name" v="Martin-May-Straße"/>
  </way>
  <way id="23239717" version="22" timestamp="2009-08-09T06:41:44Z" uid="4467" user="Rosscoe" changeset="2081733">
    <nd ref="266085849"/>
    <nd ref="266085850"/>
    <nd ref="251456193"/>
    <nd ref="251449736"/>
    <nd ref="251449737"/>
    <nd ref="251446243"/>
    <nd ref="276838887"/>
    <nd ref="251447473"/>
    <nd ref="251449720"/>
    <nd ref="459455668"/>
    <nd ref="251452436"/>
    <nd ref="251452448"/>
    <nd ref="445720599"/>
    <nd ref="251449721"/>
    <nd ref="251874378"/>
    <nd ref="251456054"/>
    <nd ref="251456050"/>
    <nd ref="445895437"/>
    <nd ref="251449727"/>
    <nd ref="459455667"/>
    <nd ref="251451476"/>
    <nd ref="251450280"/>
    <tag k="highway" v="primary"/>
    <tag k="name" v="Grange Road"/>
    <tag k="ref" v="S21"/>
  </way>
  <way id="23239717" version="23" timestamp="2009-08-10T10:49:30Z" uid="1679" user="andrewpmk" changeset="2095996">
    <nd ref="266085849"/>
    <nd ref="266085850"/>
    <nd ref="251456193"/>
    <nd ref="251449736"/>
    <nd ref="251449737"/>
    <nd ref="251446243"/>
    <nd ref="276838887"/>
    <nd ref="251447473"/>
    <nd ref="251449720"/>
    <nd ref="459455668"/>
    <nd ref="251452436"/>
    <nd ref="251452448"/>
    <nd ref="445720599"/>
    <nd ref="251449721"/>
    <nd ref="251874378"/>
    <nd ref="251456054"/>
    <nd ref="251456050"/>
    <nd ref="445895437"/>
    <nd ref="460408938"/>
    <nd ref="251449727"/>
    <nd ref="459455667"/>
    <nd ref="251451476"/>
    <nd ref="251450280"/>
    <tag k="highway" v="primary"/>
    <tag k="name" v="Grange Road"/>
    <tag k="ref" v="S21"/>
  </way>
  <way id="23239717" version="24" timestamp="2009-10-21T07:18:16Z" uid="11111" user="lakeyboy" changeset="2909450">
    <nd ref="266085849"/>
    <nd ref="266085850"/>
    <nd ref="251456193"/>
    <nd ref="251449736"/>
    <nd ref="251449737"/>
    <nd ref="251446243"/>
    <nd ref="276838887"/>
    <nd ref="251447473"/>
    <nd ref="251449720"/>
    <nd ref="459455668"/>
    <nd ref="251452436"/>
    <nd ref="251452448"/>
    <nd ref="445720599"/>
    <nd ref="251449721"/>
    <nd ref="251874378"/>
    <nd ref="251456054"/>
    <nd ref="251456050"/>
    <nd ref="445895437"/>
    <nd ref="460408938"/>
    <nd ref="251449727"/>
    <nd ref="459455667"/>
    <nd ref="251451476"/>
    <nd ref="251450280"/>
    <tag k="highway" v="primary"/>
    <tag k="name" v="Grange Road"/>
  </way>
  <way id="23239717" version="25" timestamp="2009-12-03T09:20:57Z" uid="46482" user="Leon K" changeset="3279011">
    <nd ref="266085849"/>
    <nd ref="266085850"/>
    <nd ref="251456193"/>
    <nd ref="251449736"/>
    <nd ref="251449737"/>
    <nd ref="251446243"/>
    <nd ref="276838887"/>
    <nd ref="579372444"/>
    <nd ref="251447473"/>
    <nd ref="251449720"/>
    <nd ref="459455668"/>
    <nd ref="251452436"/>
    <nd ref="251452448"/>
    <nd ref="445720599"/>
    <nd ref="251449721"/>
    <nd ref="251874378"/>
    <nd ref="251456054"/>
    <nd ref="251456050"/>
    <nd ref="445895437"/>
    <nd ref="460408938"/>
    <nd ref="251449727"/>
    <nd ref="459455667"/>
    <nd ref="251451476"/>
    <nd ref="251450280"/>
    <tag k="highway" v="primary"/>
    <tag k="name" v="Grange Road"/>
  </way>
  <way id="23239717" version="26" timestamp="2010-07-10T01:01:22Z" uid="201443" user="stevage" changeset="5178312">
    <nd ref="266085849"/>
    <nd ref="266085850"/>
    <nd ref="251456193"/>
    <nd ref="251449736"/>
    <nd ref="251449737"/>
    <nd ref="251446243"/>
    <nd ref="276838887"/>
    <nd ref="579372444"/>
    <nd ref="251447473"/>
    <nd ref="251449720"/>
    <nd ref="809066620"/>
    <nd ref="459455668"/>
    <nd ref="251452436"/>
    <nd ref="251452448"/>
    <nd ref="445720599"/>
    <nd ref="251449721"/>
    <nd ref="251874378"/>
    <nd ref="251456054"/>
    <nd ref="251456050"/>
    <nd ref="445895437"/>
    <nd ref="460408938"/>
    <nd ref="251449727"/>
    <nd ref="459455667"/>
    <nd ref="251451476"/>
    <nd ref="251450280"/>
    <tag k="highway" v="primary"/>
    <tag k="name" v="Grange Road"/>
  </way>
  <way id="23239717" version="27" timestamp="2010-08-29T09:23:30Z" uid="4467" user="Rosscoe" changeset="5623367">
    <nd ref="266085849"/>
    <nd ref="251456193"/>
    <nd ref="251446243"/>
    <nd ref="276838887"/>
    <nd ref="579372444"/>
    <nd ref="251447473"/>
    <nd ref="809066620"/>
    <nd ref="459455668"/>
    <nd ref="251452436"/>
    <nd ref="251452448"/>
    <nd ref="445720599"/>
    <nd ref="251449721"/>
    <nd ref="251874378"/>
    <nd ref="251456054"/>
    <nd ref="251456050"/>
    <nd ref="445895437"/>
    <nd ref="460408938"/>
    <nd ref="251449727"/>
    <nd ref="459455667"/>
    <nd ref="251451476"/>
    <nd ref="251450280"/>
    <tag k="highway" v="primary"/>
    <tag k="name" v="Grange Road"/>
  </way>
  <way id="23239717" version="28" timestamp="2011-08-07T21:43:43Z" uid="320632" user="Zulu99" changeset="8952319">
    <nd ref="266085849"/>
    <nd ref="251456193"/>
    <nd ref="251446243"/>
    <nd ref="1390223505"/>
    <nd ref="276838887"/>
    <nd ref="579372444"/>
    <nd ref="251447473"/>
    <nd ref="809066620"/>
    <nd ref="459455668"/>
    <nd ref="251452436"/>
    <nd ref="251452448"/>
    <nd ref="445720599"/>
    <nd ref="251449721"/>
    <nd ref="251874378"/>
    <nd ref="251456054"/>
    <nd ref="251456050"/>
    <nd ref="445895437"/>
    <nd ref="460408938"/>
    <nd ref="251449727"/>
    <nd ref="459455667"/>
    <nd ref="251451476"/>
    <nd ref="251450280"/>
    <tag k="highway" v="primary"/>
    <tag k="name" v="Grange Road"/>
  </way>
  <way id="23239717" version="29" timestamp="2012-03-23T11:30:35Z" uid="211804" user="KenS" changeset="11072811"/>
  <way id="23239773" version="42" timestamp="2009-07-25T08:04:36Z" uid="74617" user="JohnSmith" changeset="1931648">
    <nd ref="60651254"/>
    <nd ref="280867021"/>
    <nd ref="280868550"/>
    <nd ref="280866955"/>
    <nd ref="280868379"/>
    <nd ref="262086732"/>
    <nd ref="280866924"/>
    <nd ref="280868285"/>
    <nd ref="262086734"/>
    <nd ref="280866766"/>
    <nd ref="280866664"/>
    <nd ref="280873832"/>
    <nd ref="280873857"/>
    <nd ref="280866226"/>
    <nd ref="262086815"/>
    <nd ref="280863760"/>
    <nd ref="280863698"/>
    <nd ref="280863496"/>
    <nd ref="262086537"/>
    <nd ref="127349932"/>
    <tag k="highway" v="primary"/>
    <tag k="name" v="Darebin Road"/>
  </way>
  <way id="23239773" version="43" timestamp="2009-08-19T12:47:15Z" uid="79475" user="AlexOnTheBus" changeset="2201007">
    <nd ref="60651254"/>
    <nd ref="280867021"/>
    <nd ref="280868550"/>
    <nd ref="280866955"/>
    <nd ref="280868379"/>
    <nd ref="262086732"/>
    <nd ref="280866924"/>
    <nd ref="280868285"/>
    <nd ref="262086734"/>
    <nd ref="280866766"/>
    <nd ref="280866664"/>
    <nd ref="280873832"/>
    <nd ref="280873857"/>
    <nd ref="280866226"/>
    <nd ref="262086815"/>
    <nd ref="280863760"/>
    <nd ref="280863698"/>
    <nd ref="280863496"/>
    <nd ref="262086537"/>
    <nd ref="127349932"/>
    <tag k="highway" v="secondary"/>
    <tag k="name" v="Darebin Road"/>
  </way>
  <way id="23239773" version="44" timestamp="2010-02-01T12:11:45Z" uid="57437" user="Canley" changeset="3766883">
    <nd ref="60651254"/>
    <nd ref="280867021"/>
    <nd ref="280868550"/>
    <nd ref="280866955"/>
    <nd ref="280868379"/>
    <nd ref="280866924"/>
    <nd ref="280868285"/>
    <nd ref="280866766"/>
    <nd ref="280866664"/>
    <nd ref="280873832"/>
    <nd ref="280873857"/>
    <nd ref="280866226"/>
    <nd ref="262086815"/>
    <nd ref="280863760"/>
    <nd ref="280863698"/>
    <nd ref="280863496"/>
    <nd ref="262086537"/>
    <nd ref="127349932"/>
    <tag k="highway" v="secondary"/>
    <tag k="name" v="Darebin Road"/>
  </way>
  <way id="23239773" version="45" timestamp="2012-03-24T06:45:29Z" uid="211804" user="KenS" changeset="11081091"/>
  <way id="23239781" version="9" timestamp="2010-07-09T04:54:54Z" uid="74617" user="JohnSmith" changeset="5170972">
    <nd ref="251450386"/>
    <nd ref="251450494"/>
    <nd ref="52490910"/>
    <tag k="highway" v="residential"/>
    <tag k="maxspeed" v="50"/>
    <tag k="maxspeed:source" v="default residential speed limit in Australia"/>
    <tag k="name" v="Abercorn Avenue"/>
    <tag k="source:name" v="Collins 1936"/>
  </way>
  <way id="23239781" version="10" timestamp="2011-12-27T12:51:08Z" uid="211804" user="KenS" changeset="10215394">
    <nd ref="251450386"/>
    <nd ref="251450494"/>
    <tag k="highway" v="residential"/>
    <tag k="maxspeed" v="50"/>
    <tag k="maxspeed:source" v="default residential speed limit in Australia"/>
    <tag k="name" v="Abercorn Avenue"/>
    <tag k="source:name" v="Collins 1936"/>
  </way>
  <way id="23239781" version="11" timestamp="2012-01-16T02:10:31Z" uid="147510" user="woodpeck_fixbot" changeset="10404959">
    <nd ref="251450386"/>
    <nd ref="251450494"/>
    <tag k="highway" v="residential"/>
    <tag k="name" v="Abercorn Avenue"/>
    <tag k="source:name" v="Collins 1936"/>
  </way>
  <way id="23239781" version="12" timestamp="2012-03-19T11:36:55Z" uid="211804" user="KenS" changeset="11028709"/>
  <way id="23239783" version="7" timestamp="2009-08-09T06:38:40Z" uid="4467" user="Rosscoe" changeset="2081717">
    <nd ref="251450395"/>
    <nd ref="459455342"/>
    <nd ref="251450497"/>
    <nd ref="251450396"/>
    <tag k="highway" v="residential"/>
    <tag k="name" v="Belmont Road"/>
  </way>
  <way id="23239783" version="8" timestamp="2010-07-09T04:06:20Z" uid="74617" user="JohnSmith" changeset="5170825">
    <nd ref="251450395"/>
    <nd ref="459455342"/>
    <nd ref="251450497"/>
    <nd ref="251450396"/>
    <tag k="highway" v="residential"/>
    <tag k="maxspeed" v="50"/>
    <tag k="maxspeed:source" v="default residential speed limit in Australia"/>
    <tag k="name" v="Belmont Road"/>
  </way>
  <way id="23239783" version="9" timestamp="2012-01-16T02:10:32Z" uid="147510" user="woodpeck_fixbot" changeset="10404959">
    <nd ref="251450395"/>
    <nd ref="459455342"/>
    <nd ref="251450497"/>
    <nd ref="251450396"/>
    <tag k="highway" v="residential"/>
    <tag k="name" v="Belmont Road"/>
  </way>
  <way id="23239783" version="10" timestamp="2012-03-19T11:36:55Z" uid="211804" user="KenS" changeset="11028709"/>
  <way id="23239784" version="7" timestamp="2010-07-09T04:58:05Z" uid="74617" user="JohnSmith" changeset="5170972">
    <nd ref="251450397"/>
    <nd ref="251450398"/>
    <tag k="highway" v="residential"/>
    <tag k="maxspeed" v="50"/>
    <tag k="maxspeed:source" v="default residential speed limit in Australia"/>
    <tag k="name" v="Mandall Avenue"/>
    <tag k="source:name" v="Collins 1936"/>
  </way>
  <way id="23239784" version="8" timestamp="2012-01-16T02:10:33Z" uid="147510" user="woodpeck_fixbot" changeset="10404959">
    <nd ref="251450397"/>
    <nd ref="251450398"/>
    <tag k="highway" v="residential"/>
    <tag k="name" v="Mandall Avenue"/>
    <tag k="source:name" v="Collins 1936"/>
  </way>
  <way id="23239784" version="9" timestamp="2012-03-19T11:36:56Z" uid="211804" user="KenS" changeset="11028709"/>
  <way id="23239785" version="7" timestamp="2010-07-09T05:00:42Z" uid="74617" user="JohnSmith" changeset="5170972">
    <nd ref="251450428"/>
    <nd ref="718580399"/>
    <nd ref="251450429"/>
    <tag k="highway" v="residential"/>
    <tag k="maxspeed" v="50"/>
    <tag k="maxspeed:source" v="default residential speed limit in Australia"/>
    <tag k="name" v="McDonald Avenue"/>
    <tag k="source:name" v="Collins 1936"/>
  </way>
  <way id="23239785" version="8" timestamp="2012-01-16T02:10:34Z" uid="147510" user="woodpeck_fixbot" changeset="10404959">
    <nd ref="251450428"/>
    <nd ref="718580399"/>
    <nd ref="251450429"/>
    <tag k="highway" v="residential"/>
    <tag k="name" v="McDonald Avenue"/>
    <tag k="source:name" v="Collins 1936"/>
  </way>
  <way id="23239785" version="9" timestamp="2012-03-19T08:26:40Z" uid="211804" user="KenS" changeset="11027300"/>
  <way id="23239794" version="14" timestamp="2010-07-09T05:02:06Z" uid="74617" user="JohnSmith" changeset="5170972">
    <nd ref="251450494"/>
    <nd ref="251450396"/>
    <nd ref="251450398"/>
    <nd ref="251450486"/>
    <nd ref="251450429"/>
    <nd ref="251450452"/>
    <nd ref="251450453"/>
    <nd ref="251450454"/>
    <nd ref="251450455"/>
    <nd ref="251451466"/>
    <tag k="highway" v="residential"/>
    <tag k="maxspeed" v="50"/>
    <tag k="maxspeed:source" v="default residential speed limit in Australia"/>
    <tag k="name" v="Della Torre Crescent"/>
  </way>
  <way id="23239794" version="15" timestamp="2011-12-27T12:51:09Z" uid="211804" user="KenS" changeset="10215394">
    <nd ref="251450494"/>
    <nd ref="251450396"/>
    <nd ref="251450398"/>
    <nd ref="251450486"/>
    <tag k="highway" v="residential"/>
    <tag k="maxspeed" v="50"/>
    <tag k="maxspeed:source" v="default residential speed limit in Australia"/>
    <tag k="name" v="Della Torre Crescent"/>
  </way>
  <way id="23239794" version="16" timestamp="2012-01-16T02:10:35Z" uid="147510" user="woodpeck_fixbot" changeset="10404959">
    <nd ref="251450494"/>
    <nd ref="251450396"/>
    <nd ref="251450398"/>
    <nd ref="251450486"/>
    <tag k="highway" v="residential"/>
    <tag k="name" v="Della Torre Crescent"/>
  </way>
  <way id="23239794" version="17" timestamp="2012-03-19T11:36:55Z" uid="211804" user="KenS" changeset="11028709"/>
  <way id="23239796" version="5" timestamp="2010-07-09T04:58:50Z" uid="74617" user="JohnSmith" changeset="5170972">
    <nd ref="251450466"/>
    <nd ref="251450467"/>
    <tag k="highway" v="residential"/>
    <tag k="maxspeed" v="50"/>
    <tag k="maxspeed:source" v="default residential speed limit in Australia"/>
    <tag k="name" v="Maud Street"/>
  </way>
  <way id="23239796" version="6" timestamp="2012-01-16T02:10:37Z" uid="147510" user="woodpeck_fixbot" changeset="10404959">
    <nd ref="251450466"/>
    <nd ref="251450467"/>
    <tag k="highway" v="residential"/>
    <tag k="name" v="Maud Street"/>
  </way>
  <way id="23239796" version="7" timestamp="2012-03-19T08:26:40Z" uid="211804" user="KenS" changeset="11027300"/>
  <way id="23239797" version="7" timestamp="2010-07-09T05:01:34Z" uid="74617" user="JohnSmith" changeset="5170972">
    <nd ref="251450486"/>
    <nd ref="251450469"/>
    <tag k="highway" v="residential"/>
    <tag k="maxspeed" v="50"/>
    <tag k="maxspeed:source" v="default residential speed limit in Australia"/>
    <tag k="name" v="Miles Street"/>
  </way>
  <way id="23239797" version="8" timestamp="2012-01-16T02:10:38Z" uid="147510" user="woodpeck_fixbot" changeset="10404959">
    <nd ref="251450486"/>
    <nd ref="251450469"/>
    <tag k="highway" v="residential"/>
    <tag k="name" v="Miles Street"/>
  </way>
  <way id="23239797" version="9" timestamp="2012-03-19T11:36:56Z" uid="211804" user="KenS" changeset="11028709"/>
  <way id="23239801" version="5" timestamp="2010-07-09T04:56:26Z" uid="74617" user="JohnSmith" changeset="5170972">
    <nd ref="251450497"/>
    <nd ref="364643343"/>
    <tag k="highway" v="residential"/>
    <tag k="maxspeed" v="50"/>
    <tag k="maxspeed:source" v="default residential speed limit in Australia"/>
    <tag k="name" v="Edward Court"/>
  </way>
  <way id="23239801" version="6" timestamp="2012-01-16T02:10:39Z" uid="147510" user="woodpeck_fixbot" changeset="10404959">
    <nd ref="251450497"/>
    <nd ref="364643343"/>
    <tag k="highway" v="residential"/>
    <tag k="name" v="Edward Court"/>
  </way>
  <way id="23239801" version="7" timestamp="2012-03-21T10:24:52Z" uid="211804" user="KenS" changeset="11050522"/>
  <way id="23239820" version="3" timestamp="2010-07-09T04:57:29Z" uid="74617" user="JohnSmith" changeset="5170972">
    <nd ref="251451090"/>
    <nd ref="251451091"/>
    <tag k="highway" v="residential"/>
    <tag k="maxspeed" v="50"/>
    <tag k="maxspeed:source" v="default residential speed limit in Australia"/>
    <tag k="name" v="Abbotsford Grove"/>
  </way>
  <way id="23239820" version="4" timestamp="2012-01-16T02:10:40Z" uid="147510" user="woodpeck_fixbot" changeset="10404959">
    <nd ref="251451090"/>
    <nd ref="251451091"/>
    <tag k="highway" v="residential"/>
    <tag k="name" v="Abbotsford Grove"/>
  </way>
  <way id="23239820" version="5" timestamp="2012-03-19T11:36:55Z" uid="211804" user="KenS" changeset="11028709"/>
  <way id="23239826" version="5" timestamp="2010-07-09T04:59:21Z" uid="74617" user="JohnSmith" changeset="5170972">
    <nd ref="251451162"/>
    <nd ref="251451098"/>
    <tag k="highway" v="residential"/>
    <tag k="maxspeed" v="50"/>
    <tag k="maxspeed:source" v="default residential speed limit in Australia"/>
    <tag k="name" v="Rocke Street"/>
  </way>
  <way id="23239826" version="6" timestamp="2012-01-16T02:10:42Z" uid="147510" user="woodpeck_fixbot" changeset="10404959">
    <nd ref="251451162"/>
    <nd ref="251451098"/>
    <tag k="highway" v="residential"/>
    <tag k="name" v="Rocke Street"/>
  </way>
  <way id="23239826" version="7" timestamp="2012-03-19T11:49:33Z" uid="211804" user="KenS" changeset="11028825"/>
  <way id="23239828" version="5" timestamp="2010-07-09T04:56:38Z" uid="74617" user="JohnSmith" changeset="5170972">
    <nd ref="251451160"/>
    <nd ref="251451102"/>
    <tag k="highway" v="residential"/>
    <tag k="maxspeed" v="50"/>
    <tag k="maxspeed:source" v="default residential speed limit in Australia"/>
    <tag k="name" v="Buchanan Street"/>
  </way>
  <way id="23239828" version="6" timestamp="2012-01-16T02:10:44Z" uid="147510" user="woodpeck_fixbot" changeset="10404959">
    <nd ref="251451160"/>
    <nd ref="251451102"/>
    <tag k="highway" v="residential"/>
    <tag k="name" v="Buchanan Street"/>
  </way>
  <way id="23239828" version="7" timestamp="2012-03-19T11:49:33Z" uid="211804" user="KenS" changeset="11028825"/>
  <way id="23239829" version="5" timestamp="2010-07-09T04:58:42Z" uid="74617" user="JohnSmith" changeset="5170972">
    <nd ref="251451103"/>
    <nd ref="688382096"/>
    <tag k="highway" v="residential"/>
    <tag k="maxspeed" v="50"/>
    <tag k="maxspeed:source" v="default residential speed limit in Australia"/>
    <tag k="name" v="Rose Street"/>
  </way>
  <way id="23239829" version="6" timestamp="2012-01-16T02:10:45Z" uid="147510" user="woodpeck_fixbot" changeset="10404959">
    <nd ref="251451103"/>
    <nd ref="688382096"/>
    <tag k="highway" v="residential"/>
    <tag k="name" v="Rose Street"/>
  </way>
  <way id="23239829" version="7" timestamp="2012-03-19T11:49:34Z" uid="211804" user="KenS" changeset="11028825"/>
  <way id="23239831" version="1" timestamp="2008-03-10T00:50:56Z" uid="30201" user="rrankin" changeset="297311">
    <nd ref="251451133"/>
    <nd ref="251451134"/>
    <tag k="created_by" v="Potlatch 0.7b"/>
  </way>
  <way id="23239831" version="2" timestamp="2008-03-15T23:31:52Z" uid="30201" user="rrankin" changeset="330697"/>
  <way id="23239832" version="2" timestamp="2010-07-09T05:31:26Z" uid="74617" user="JohnSmith" changeset="5170972">
    <nd ref="50868129"/>
    <nd ref="50868130"/>
    <nd ref="50868131"/>
    <nd ref="50868132"/>
    <nd ref="250035057"/>
    <nd ref="50868133"/>
    <nd ref="50868134"/>
    <nd ref="50868135"/>
    <nd ref="50868136"/>
    <nd ref="50868138"/>
    <nd ref="50868139"/>
    <nd ref="50868140"/>
    <nd ref="50868141"/>
    <nd ref="50868142"/>
    <nd ref="50868143"/>
    <nd ref="50868144"/>
    <nd ref="97081767"/>
    <nd ref="97277057"/>
    <nd ref="50871363"/>
    <nd ref="50869776"/>
    <nd ref="60285925"/>
    <nd ref="59164249"/>
    <tag k="highway" v="residential"/>
    <tag k="maxspeed" v="50"/>
    <tag k="maxspeed:source" v="default residential speed limit in Australia"/>
    <tag k="name" v="Queens Walk"/>
  </way>
  <way id="23239832" version="3" timestamp="2010-07-09T05:38:59Z" uid="74617" user="JohnSmith" changeset="5170972">
    <nd ref="50868129"/>
    <nd ref="50868130"/>
    <nd ref="50868131"/>
    <nd ref="50868132"/>
    <nd ref="250035057"/>
    <nd ref="50868133"/>
    <nd ref="50868134"/>
    <nd ref="50868135"/>
    <nd ref="50868136"/>
    <nd ref="50868138"/>
    <nd ref="50868139"/>
    <nd ref="50868140"/>
    <nd ref="50868141"/>
    <nd ref="50868142"/>
    <nd ref="50868143"/>
    <nd ref="50868144"/>
    <nd ref="97081767"/>
    <nd ref="97277057"/>
    <nd ref="50871363"/>
    <nd ref="50869776"/>
    <nd ref="60285925"/>
    <nd ref="59164249"/>
    <tag k="highway" v="residential"/>
    <tag k="maxspeed" v="50"/>
    <tag k="maxspeed:source" v="default residential speed limit in Australia"/>
    <tag k="name" v="Queens Walk"/>
  </way>
  <way id="23239832" version="4" timestamp="2010-12-22T00:24:28Z" uid="46482" user="Leon K" changeset="6731489">
    <nd ref="50868129"/>
    <nd ref="1055631834"/>
    <nd ref="50868130"/>
    <nd ref="50868131"/>
    <nd ref="50868132"/>
    <nd ref="250035057"/>
    <nd ref="50868133"/>
    <nd ref="50868134"/>
    <nd ref="50868135"/>
    <nd ref="50868136"/>
    <nd ref="50868138"/>
    <nd ref="50868139"/>
    <nd ref="50868140"/>
    <nd ref="50868141"/>
    <nd ref="50868142"/>
    <nd ref="50868143"/>
    <nd ref="50868144"/>
    <nd ref="97081767"/>
    <nd ref="97277057"/>
    <nd ref="50871363"/>
    <nd ref="50869776"/>
    <nd ref="60285925"/>
    <nd ref="59164249"/>
    <tag k="highway" v="residential"/>
    <tag k="maxspeed" v="50"/>
    <tag k="maxspeed:source" v="default residential speed limit in Australia"/>
    <tag k="name" v="Queens Walk"/>
  </way>
  <way id="23239832" version="5" timestamp="2012-01-16T02:10:46Z" uid="147510" user="woodpeck_fixbot" changeset="10404959">
    <nd ref="50868129"/>
    <nd ref="1055631834"/>
    <nd ref="50868130"/>
    <nd ref="50868131"/>
    <nd ref="50868132"/>
    <nd ref="250035057"/>
    <nd ref="50868133"/>
    <nd ref="50868134"/>
    <nd ref="50868135"/>
    <nd ref="50868136"/>
    <nd ref="50868138"/>
    <nd ref="50868139"/>
    <nd ref="50868140"/>
    <nd ref="50868141"/>
    <nd ref="50868142"/>
    <nd ref="50868143"/>
    <nd ref="50868144"/>
    <nd ref="97081767"/>
    <nd ref="97277057"/>
    <nd ref="50871363"/>
    <nd ref="50869776"/>
    <nd ref="60285925"/>
    <nd ref="59164249"/>
    <tag k="highway" v="residential"/>
    <tag k="name" v="Queens Walk"/>
  </way>
  <way id="23239834" version="7" timestamp="2010-07-09T04:56:20Z" uid="74617" user="JohnSmith" changeset="5170972">
    <nd ref="251451139"/>
    <nd ref="251451098"/>
    <nd ref="251451102"/>
    <nd ref="251451103"/>
    <nd ref="688382540"/>
    <nd ref="251451140"/>
    <nd ref="251451141"/>
    <nd ref="688382365"/>
    <nd ref="251451142"/>
    <nd ref="251451143"/>
    <nd ref="251451144"/>
    <nd ref="251451145"/>
    <tag k="highway" v="residential"/>
    <tag k="maxspeed" v="50"/>
    <tag k="maxspeed:source" v="default residential speed limit in Australia"/>
    <tag k="name" v="Sailsbury Avenue"/>
  </way>
  <way id="23239834" version="8" timestamp="2012-01-16T02:10:48Z" uid="147510" user="woodpeck_fixbot" changeset="10404959">
    <nd ref="251451139"/>
    <nd ref="251451098"/>
    <nd ref="251451102"/>
    <nd ref="251451103"/>
    <nd ref="688382540"/>
    <nd ref="251451140"/>
    <nd ref="251451141"/>
    <nd ref="688382365"/>
    <nd ref="251451142"/>
    <nd ref="251451143"/>
    <nd ref="251451144"/>
    <nd ref="251451145"/>
    <tag k="highway" v="residential"/>
    <tag k="name" v="Sailsbury Avenue"/>
  </way>
  <way id="23239834" version="9" timestamp="2012-03-19T11:49:34Z" uid="211804" user="KenS" changeset="11028825"/>
  <way id="23239867" version="1" timestamp="2008-03-10T00:56:18Z" uid="28160" user="Jesper" changeset="301885">
    <nd ref="251451376"/>
    <nd ref="251451377"/>
    <nd ref="251451378"/>
    <nd ref="249639589"/>
    <tag k="created_by" v="Potlatch 0.7b"/>
    <tag k="highway" v="secondary"/>
    <tag k="name" v="Beihuan Donglu"/>
  </way>
  <way id="23239867" version="2" timestamp="2008-03-10T01:04:10Z" uid="28160" user="Jesper" changeset="301885">
    <nd ref="251451376"/>
    <nd ref="251451377"/>
    <nd ref="251451378"/>
    <nd ref="251451499"/>
    <nd ref="249639589"/>
    <tag k="created_by" v="Potlatch 0.7b"/>
    <tag k="highway" v="secondary"/>
    <tag k="name" v="Beihuan Donglu"/>
  </way>
  <way id="23239867" version="3" timestamp="2008-03-16T01:23:27Z" uid="28160" user="Jesper" changeset="331009">
    <nd ref="251451376"/>
    <nd ref="251451377"/>
    <nd ref="251451378"/>
    <nd ref="252340068"/>
    <nd ref="251451499"/>
    <nd ref="249639589"/>
    <tag k="created_by" v="Potlatch 0.7b"/>
    <tag k="highway" v="secondary"/>
    <tag k="name" v="Beihuan Donglu"/>
  </way>
  <way id="23239867" version="4" timestamp="2008-12-26T07:03:10Z" uid="68934" user="_kendell" changeset="607194">
    <nd ref="251451376"/>
    <nd ref="251451377"/>
    <nd ref="251451378"/>
    <nd ref="252340068"/>
    <nd ref="251451499"/>
    <nd ref="321712211"/>
    <nd ref="249639589"/>
    <tag k="created_by" v="Potlatch 0.10f"/>
    <tag k="highway" v="secondary"/>
    <tag k="name" v="Beihuan Donglu"/>
  </way>
  <way id="23239868" version="1" timestamp="2008-03-10T00:57:00Z" uid="28160" user="Jesper" changeset="301885">
    <nd ref="251451379"/>
    <nd ref="251451376"/>
    <nd ref="249438262"/>
    <nd ref="249438483"/>
    <nd ref="249438482"/>
    <nd ref="249438481"/>
    <nd ref="249438480"/>
    <tag k="created_by" v="Potlatch 0.7b"/>
    <tag k="highway" v="secondary"/>
    <tag k="name" v="Donghuan Beilu"/>
  </way>
  <way id="23239868" version="2" timestamp="2009-10-16T05:43:54Z" uid="83557" user="Esperanza36" changeset="2860954">
    <nd ref="330999863"/>
    <nd ref="251451379"/>
    <nd ref="251451376"/>
    <nd ref="249438262"/>
    <nd ref="249438483"/>
    <nd ref="249438482"/>
    <nd ref="249438481"/>
    <nd ref="249438480"/>
    <tag k="highway" v="secondary"/>
    <tag k="name" v="Donghuan Beilu"/>
  </way>
  <way id="23239869" version="1" timestamp="2008-03-10T00:57:17Z" uid="28160" user="Jesper" changeset="301885">
    <nd ref="251451380"/>
    <nd ref="251451379"/>
    <tag k="created_by" v="Potlatch 0.7b"/>
  </way>
  <way id="23239869" version="2" timestamp="2008-03-21T05:38:24Z" uid="12032" user="Snny" changeset="362008"/>
  <way id="23239875" version="1" timestamp="2008-03-10T00:58:04Z" uid="28160" user="Jesper" changeset="301885">
    <nd ref="251451426"/>
    <nd ref="251451379"/>
    <tag k="created_by" v="Potlatch 0.7b"/>
    <tag k="highway" v="secondary"/>
    <tag k="name" v="Wenhuayuan Donglu"/>
  </way>
  <way id="23239875" version="2" timestamp="2008-03-10T01:00:34Z" uid="28160" user="Jesper" changeset="301885">
    <nd ref="249779977"/>
    <nd ref="251451426"/>
    <nd ref="251451379"/>
    <tag k="created_by" v="Potlatch 0.7b"/>
    <tag k="highway" v="secondary"/>
    <tag k="name" v="Wenhuayuan Donglu"/>
  </way>
  <way id="23239875" version="3" timestamp="2009-01-10T19:26:39Z" uid="68934" user="_kendell" changeset="768741">
    <nd ref="249779977"/>
    <nd ref="330999162"/>
    <nd ref="251451426"/>
    <nd ref="251451379"/>
    <tag k="created_by" v="Potlatch 0.10f"/>
    <tag k="highway" v="secondary"/>
    <tag k="name" v="Wenhuayuan Donglu"/>
  </way>
  <way id="23239875" version="4" timestamp="2009-01-10T19:29:27Z" uid="68934" user="_kendell" changeset="768741">
    <nd ref="249779977"/>
    <nd ref="330999162"/>
    <nd ref="251451426"/>
    <nd ref="251451379"/>
    <tag k="created_by" v="Potlatch 0.10f"/>
    <tag k="highway" v="secondary"/>
    <tag k="name" v="Wenhuayuan Donglu"/>
  </way>
  <way id="23239875" version="5" timestamp="2009-01-10T19:29:31Z" uid="68934" user="_kendell" changeset="768741">
    <nd ref="249779977"/>
    <nd ref="330999162"/>
    <nd ref="251451426"/>
    <nd ref="251451379"/>
    <tag k="created_by" v="Potlatch 0.10f"/>
    <tag k="highway" v="secondary"/>
    <tag k="name" v="Wenhuayuan Donglu"/>
  </way>
  <way id="23239880" version="7" timestamp="2010-07-09T05:01:55Z" uid="74617" user="JohnSmith" changeset="5170972">
    <nd ref="251451466"/>
    <nd ref="251451449"/>
    <nd ref="251451450"/>
    <nd ref="251451451"/>
    <nd ref="251451452"/>
    <nd ref="251451453"/>
    <nd ref="251451428"/>
    <nd ref="251451427"/>
    <nd ref="251451092"/>
    <nd ref="718632666"/>
    <nd ref="251451472"/>
    <nd ref="718632667"/>
    <nd ref="479800838"/>
    <nd ref="251451093"/>
    <tag k="highway" v="residential"/>
    <tag k="maxspeed" v="50"/>
    <tag k="maxspeed:source" v="default residential speed limit in Australia"/>
    <tag k="name" v="Kenilworth Parade"/>
  </way>
  <way id="23239880" version="8" timestamp="2011-02-01T20:56:53Z" uid="320632" user="Zulu99" changeset="7159252">
    <nd ref="251451466"/>
    <nd ref="251451449"/>
    <nd ref="251451450"/>
    <nd ref="251451451"/>
    <nd ref="1131481608"/>
    <nd ref="251451452"/>
    <nd ref="251451453"/>
    <nd ref="251451428"/>
    <nd ref="251451427"/>
    <nd ref="251451092"/>
    <nd ref="718632666"/>
    <nd ref="251451472"/>
    <nd ref="718632667"/>
    <nd ref="479800838"/>
    <nd ref="251451093"/>
    <tag k="highway" v="residential"/>
    <tag k="maxspeed" v="50"/>
    <tag k="maxspeed:source" v="default residential speed limit in Australia"/>
    <tag k="name" v="Kenilworth Parade"/>
  </way>
  <way id="23239880" version="9" timestamp="2011-12-27T12:51:09Z" uid="211804" user="KenS" changeset="10215394">
    <nd ref="251451466"/>
    <nd ref="251451449"/>
    <nd ref="251451450"/>
    <nd ref="251451451"/>
    <nd ref="1131481608"/>
    <nd ref="251451452"/>
    <nd ref="251451453"/>
    <tag k="highway" v="residential"/>
    <tag k="maxspeed" v="50"/>
    <tag k="maxspeed:source" v="default residential speed limit in Australia"/>
    <tag k="name" v="Kenilworth Parade"/>
  </way>
  <way id="23239880" version="10" timestamp="2012-01-16T02:10:50Z" uid="147510" user="woodpeck_fixbot" changeset="10404959">
    <nd ref="251451466"/>
    <nd ref="251451449"/>
    <nd ref="251451450"/>
    <nd ref="251451451"/>
    <nd ref="1131481608"/>
    <nd ref="251451452"/>
    <nd ref="251451453"/>
    <tag k="highway" v="residential"/>
    <tag k="name" v="Kenilworth Parade"/>
  </way>
  <way id="23239880" version="11" timestamp="2012-03-19T08:26:40Z" uid="211804" user="KenS" changeset="11027300"/>
  <way id="23239881" version="6" timestamp="2010-07-09T05:04:08Z" uid="74617" user="JohnSmith" changeset="5170972">
    <nd ref="251451472"/>
    <nd ref="322718902"/>
    <nd ref="251451471"/>
    <tag k="highway" v="residential"/>
    <tag k="maxspeed" v="50"/>
    <tag k="maxspeed:source" v="default residential speed limit in Australia"/>
    <tag k="name" v="Wallace Street"/>
  </way>
  <way id="23239881" version="7" timestamp="2012-01-16T02:10:52Z" uid="147510" user="woodpeck_fixbot" changeset="10404959">
    <nd ref="251451472"/>
    <nd ref="322718902"/>
    <nd ref="251451471"/>
    <tag k="highway" v="residential"/>
    <tag k="name" v="Wallace Street"/>
  </way>
  <way id="23239881" version="8" timestamp="2012-03-19T08:26:41Z" uid="211804" user="KenS" changeset="11027300"/>
  <way id="23239883" version="9" timestamp="2010-07-09T04:57:45Z" uid="74617" user="JohnSmith" changeset="5170972">
    <nd ref="251451475"/>
    <nd ref="251451681"/>
    <nd ref="251451476"/>
    <nd ref="251455904"/>
    <nd ref="251455971"/>
    <tag k="highway" v="residential"/>
    <tag k="maxspeed" v="50"/>
    <tag k="maxspeed:source" v="default residential speed limit in Australia"/>
    <tag k="name" v="Steane Street"/>
  </way>
  <way id="23239883" version="10" timestamp="2012-01-16T02:10:53Z" uid="147510" user="woodpeck_fixbot" changeset="10404959">
    <nd ref="251451475"/>
    <nd ref="251451681"/>
    <nd ref="251451476"/>
    <nd ref="251455904"/>
    <nd ref="251455971"/>
    <tag k="highway" v="residential"/>
    <tag k="name" v="Steane Street"/>
  </way>
  <way id="23239883" version="11" timestamp="2012-03-23T11:30:36Z" uid="211804" user="KenS" changeset="11072811"/>
  <way id="23239884" version="9" timestamp="2010-07-09T05:03:19Z" uid="74617" user="JohnSmith" changeset="5170972">
    <nd ref="364643044"/>
    <nd ref="251451481"/>
    <nd ref="251451478"/>
    <tag k="highway" v="residential"/>
    <tag k="maxspeed" v="50"/>
    <tag k="maxspeed:source" v="default residential speed limit in Australia"/>
    <tag k="name" v="Abbott Street"/>
  </way>
  <way id="23239884" version="10" timestamp="2012-01-16T02:10:55Z" uid="147510" user="woodpeck_fixbot" changeset="10404959">
    <nd ref="364643044"/>
    <nd ref="251451481"/>
    <nd ref="251451478"/>
    <tag k="highway" v="residential"/>
    <tag k="name" v="Abbott Street"/>
  </way>
  <way id="23239884" version="11" timestamp="2012-03-19T12:03:11Z" uid="211804" user="KenS" changeset="11028948"/>
  <way id="23239885" version="6" timestamp="2010-07-09T04:55:17Z" uid="74617" user="JohnSmith" changeset="5170972">
    <nd ref="251451479"/>
    <nd ref="251451480"/>
    <nd ref="251451481"/>
    <tag k="highway" v="residential"/>
    <tag k="maxspeed" v="50"/>
    <tag k="maxspeed:source" v="default residential speed limit in Australia"/>
    <tag k="name" v="Mc Kay Crescent"/>
  </way>
  <way id="23239885" version="7" timestamp="2012-01-16T02:10:56Z" uid="147510" user="woodpeck_fixbot" changeset="10404959">
    <nd ref="251451479"/>
    <nd ref="251451480"/>
    <nd ref="251451481"/>
    <tag k="highway" v="residential"/>
    <tag k="name" v="Mc Kay Crescent"/>
  </way>
  <way id="23239885" version="8" timestamp="2012-03-19T12:03:11Z" uid="211804" user="KenS" changeset="11028948"/>
  <way id="23239887" version="1" timestamp="2008-03-10T01:03:01Z" uid="28160" user="Jesper" changeset="301885">
    <nd ref="251451486"/>
    <nd ref="251451487"/>
    <nd ref="249780111"/>
    <tag k="created_by" v="Potlatch 0.7b"/>
    <tag k="highway" v="primary"/>
    <tag k="name" v="Xihuan Beilu"/>
  </way>
  <way id="23239887" version="2" timestamp="2008-06-22T08:27:50Z" uid="40984" user="anlayne" changeset="263744">
    <nd ref="253885924"/>
    <nd ref="253885936"/>
    <nd ref="251451486"/>
    <nd ref="251451487"/>
    <nd ref="249780111"/>
    <tag k="created_by" v="Potlatch 0.9c"/>
    <tag k="highway" v="primary"/>
    <tag k="name" v="Xihuan Beilu"/>
  </way>
  <way id="23239887" version="3" timestamp="2008-10-05T07:22:15Z" uid="68934" user="_kendell" changeset="75610">
    <nd ref="300238708"/>
    <nd ref="302211987"/>
    <nd ref="302211988"/>
    <nd ref="302211989"/>
    <nd ref="302211990"/>
    <nd ref="302211991"/>
    <nd ref="302211992"/>
    <nd ref="302211993"/>
    <nd ref="302211994"/>
    <nd ref="253885924"/>
    <nd ref="253885936"/>
    <nd ref="251451486"/>
    <nd ref="251451487"/>
    <nd ref="249780111"/>
    <tag k="created_by" v="Potlatch 0.10c"/>
    <tag k="highway" v="primary"/>
    <tag k="name" v="Xihuan Beilu"/>
  </way>
  <way id="23239887" version="4" timestamp="2008-10-25T14:57:02Z" uid="68934" user="_kendell" changeset="565923">
    <nd ref="300238708"/>
    <nd ref="302211987"/>
    <nd ref="302211988"/>
    <nd ref="302211989"/>
    <nd ref="302211990"/>
    <nd ref="302211991"/>
    <nd ref="302211992"/>
    <nd ref="302211993"/>
    <nd ref="302211994"/>
    <nd ref="307435574"/>
    <nd ref="253885924"/>
    <nd ref="253885936"/>
    <nd ref="251451486"/>
    <nd ref="251451487"/>
    <nd ref="249780111"/>
    <tag k="created_by" v="Potlatch 0.10e"/>
    <tag k="highway" v="primary"/>
    <tag k="name" v="Xihuan Beilu"/>
  </way>
  <way id="23239887" version="5" timestamp="2008-10-25T14:57:29Z" uid="68934" user="_kendell" changeset="565923">
    <nd ref="300238708"/>
    <nd ref="302211987"/>
    <nd ref="302211988"/>
    <nd ref="302211989"/>
    <nd ref="302211990"/>
    <nd ref="307435584"/>
    <nd ref="302211991"/>
    <nd ref="302211992"/>
    <nd ref="302211993"/>
    <nd ref="302211994"/>
    <nd ref="307435574"/>
    <nd ref="253885924"/>
    <nd ref="253885936"/>
    <nd ref="251451486"/>
    <nd ref="251451487"/>
    <nd ref="249780111"/>
    <tag k="created_by" v="Potlatch 0.10e"/>
    <tag k="highway" v="primary"/>
    <tag k="name" v="Xihuan Beilu"/>
  </way>
  <way id="23239887" version="6" timestamp="2008-10-25T14:59:34Z" uid="68934" user="_kendell" changeset="565923">
    <nd ref="300238708"/>
    <nd ref="302211987"/>
    <nd ref="307436009"/>
    <nd ref="302211988"/>
    <nd ref="302211989"/>
    <nd ref="302211990"/>
    <nd ref="307435584"/>
    <nd ref="302211991"/>
    <nd ref="302211992"/>
    <nd ref="302211993"/>
    <nd ref="302211994"/>
    <nd ref="307435574"/>
    <nd ref="253885924"/>
    <nd ref="253885936"/>
    <nd ref="251451486"/>
    <nd ref="251451487"/>
    <nd ref="249780111"/>
    <tag k="created_by" v="Potlatch 0.10e"/>
    <tag k="highway" v="primary"/>
    <tag k="name" v="Xihuan Beilu"/>
  </way>
  <way id="23239887" version="7" timestamp="2008-12-21T09:52:31Z" uid="68934" user="_kendell" changeset="511705">
    <nd ref="300238708"/>
    <nd ref="302211987"/>
    <nd ref="307436009"/>
    <nd ref="302211988"/>
    <nd ref="302211989"/>
    <nd ref="302211990"/>
    <nd ref="307435584"/>
    <nd ref="302211991"/>
    <nd ref="302211992"/>
    <nd ref="302211993"/>
    <nd ref="302211994"/>
    <nd ref="307435574"/>
    <nd ref="253885924"/>
    <nd ref="253885936"/>
    <nd ref="320468864"/>
    <nd ref="251451486"/>
    <nd ref="251451487"/>
    <nd ref="249780111"/>
    <tag k="created_by" v="Potlatch 0.10f"/>
    <tag k="highway" v="primary"/>
    <tag k="name" v="Xihuan Beilu"/>
  </way>
  <way id="23239887" version="8" timestamp="2009-01-10T19:31:17Z" uid="68934" user="_kendell" changeset="768741">
    <nd ref="300238708"/>
    <nd ref="302211987"/>
    <nd ref="307436009"/>
    <nd ref="302211988"/>
    <nd ref="302211989"/>
    <nd ref="302211990"/>
    <nd ref="307435584"/>
    <nd ref="302211991"/>
    <nd ref="302211992"/>
    <nd ref="302211993"/>
    <nd ref="302211994"/>
    <nd ref="307435574"/>
    <nd ref="253885924"/>
    <nd ref="253885936"/>
    <nd ref="320468864"/>
    <nd ref="251451486"/>
    <nd ref="251451487"/>
    <nd ref="249780111"/>
    <tag k="created_by" v="Potlatch 0.10f"/>
    <tag k="highway" v="primary"/>
    <tag k="name" v="Xihuan Beilu"/>
  </way>
  <way id="23239887" version="9" timestamp="2009-01-10T19:33:23Z" uid="68934" user="_kendell" changeset="768741">
    <nd ref="249780111"/>
    <nd ref="251451487"/>
    <nd ref="251451486"/>
    <nd ref="320468864"/>
    <nd ref="253885936"/>
    <nd ref="253885924"/>
    <nd ref="307435574"/>
    <nd ref="302211994"/>
    <nd ref="302211993"/>
    <nd ref="302211992"/>
    <nd ref="302211991"/>
    <nd ref="307435584"/>
    <nd ref="302211990"/>
    <nd ref="302211989"/>
    <nd ref="302211988"/>
    <nd ref="307436009"/>
    <nd ref="302211987"/>
    <nd ref="300238708"/>
    <tag k="created_by" v="Potlatch 0.10f"/>
    <tag k="highway" v="primary"/>
    <tag k="name" v="Xihuan Beilu"/>
    <tag k="oneway" v="yes"/>
  </way>
  <way id="23239887" version="10" timestamp="2009-01-10T19:37:17Z" uid="68934" user="_kendell" changeset="768741">
    <nd ref="249780111"/>
    <nd ref="251451487"/>
    <nd ref="251451486"/>
    <nd ref="320468864"/>
    <nd ref="253885936"/>
    <nd ref="253885924"/>
    <nd ref="307435574"/>
    <nd ref="302211994"/>
    <nd ref="302211993"/>
    <nd ref="302211992"/>
    <nd ref="302211991"/>
    <nd ref="307435584"/>
    <nd ref="302211990"/>
    <nd ref="302211989"/>
    <nd ref="302211988"/>
    <nd ref="307436009"/>
    <nd ref="302211987"/>
    <nd ref="300238708"/>
    <tag k="created_by" v="Potlatch 0.10f"/>
    <tag k="highway" v="primary"/>
    <tag k="name" v="Xihuan Beilu"/>
    <tag k="oneway" v="yes"/>
  </way>
  <way id="23239887" version="11" timestamp="2009-01-10T19:37:25Z" uid="68934" user="_kendell" changeset="768741">
    <nd ref="249780111"/>
    <nd ref="251451487"/>
    <nd ref="251451486"/>
    <nd ref="320468864"/>
    <nd ref="253885936"/>
    <nd ref="253885924"/>
    <nd ref="307435574"/>
    <nd ref="302211994"/>
    <nd ref="302211993"/>
    <nd ref="302211992"/>
    <nd ref="302211991"/>
    <nd ref="307435584"/>
    <nd ref="302211990"/>
    <nd ref="302211989"/>
    <nd ref="302211988"/>
    <nd ref="307436009"/>
    <nd ref="302211987"/>
    <nd ref="300238708"/>
    <tag k="created_by" v="Potlatch 0.10f"/>
    <tag k="highway" v="primary"/>
    <tag k="name" v="Xihuan Beilu"/>
    <tag k="oneway" v="yes"/>
  </way>
  <way id="23239887" version="12" timestamp="2009-01-10T19:38:37Z" uid="68934" user="_kendell" changeset="768741">
    <nd ref="249780111"/>
    <nd ref="251451487"/>
    <nd ref="251451486"/>
    <nd ref="320468864"/>
    <nd ref="253885936"/>
    <nd ref="253885924"/>
    <nd ref="307435574"/>
    <nd ref="302211994"/>
    <nd ref="302211993"/>
    <nd ref="302211992"/>
    <nd ref="302211991"/>
    <nd ref="307435584"/>
    <nd ref="302211990"/>
    <nd ref="302211989"/>
    <nd ref="302211988"/>
    <nd ref="307436009"/>
    <nd ref="302211987"/>
    <nd ref="300238708"/>
    <tag k="created_by" v="Potlatch 0.10f"/>
    <tag k="highway" v="primary"/>
    <tag k="name" v="Xihuan Beilu"/>
    <tag k="oneway" v="yes"/>
  </way>
  <way id="23239893" version="12" timestamp="2010-05-02T16:50:09Z" uid="151899" user="Bikeman2000" changeset="4587272">
    <nd ref="89146817"/>
    <nd ref="89146818"/>
    <nd ref="717535156"/>
    <nd ref="89146819"/>
    <tag k="cycleway" v="track"/>
    <tag k="embankment" v="yes"/>
    <tag k="foot" v="yes"/>
    <tag k="highway" v="trunk"/>
    <tag k="maxspeed" v="80"/>
    <tag k="name" v="Südring"/>
    <tag k="oneway" v="yes"/>
    <tag k="ref" v="B 1"/>
  </way>
  <way id="23239893" version="13" timestamp="2010-09-12T17:44:23Z" uid="109925" user="WanMil" changeset="5762213">
    <nd ref="89146817"/>
    <nd ref="89146818"/>
    <nd ref="908837769"/>
    <tag k="cycleway" v="track"/>
    <tag k="embankment" v="yes"/>
    <tag k="foot" v="yes"/>
    <tag k="highway" v="trunk"/>
    <tag k="maxspeed" v="80"/>
    <tag k="name" v="Südring"/>
    <tag k="oneway" v="yes"/>
    <tag k="ref" v="B 1"/>
  </way>
  <way id="23239893" version="14" timestamp="2012-02-19T17:57:22Z" uid="173844" user="Antikalk" changeset="10732801">
    <nd ref="89146817"/>
    <nd ref="1639434515"/>
    <nd ref="1639434519"/>
    <nd ref="89146818"/>
    <nd ref="908837769"/>
    <tag k="cycleway" v="track"/>
    <tag k="embankment" v="yes"/>
    <tag k="foot" v="yes"/>
    <tag k="highway" v="trunk"/>
    <tag k="maxspeed" v="80"/>
    <tag k="name" v="Südring"/>
    <tag k="oneway" v="yes"/>
    <tag k="ref" v="B 1"/>
  </way>
  <way id="23239893" version="15" timestamp="2012-03-29T11:28:21Z" uid="152520" user="Rainer_Driesen" changeset="11136961">
    <nd ref="89146817"/>
    <nd ref="1639434515"/>
    <nd ref="1639434519"/>
    <nd ref="89146818"/>
    <nd ref="908837769"/>
    <tag k="cycleway" v="track"/>
    <tag k="embankment" v="yes"/>
    <tag k="foot" v="yes"/>
    <tag k="highway" v="trunk"/>
    <tag k="maxspeed" v="80"/>
    <tag k="motorcycle" v="yes"/>
    <tag k="motorroad" v="no"/>
    <tag k="name" v="Südring"/>
    <tag k="oneway" v="yes"/>
    <tag k="ref" v="B 1"/>
  </way>
  <way id="23239902" version="11" timestamp="2010-07-09T05:03:42Z" uid="74617" user="JohnSmith" changeset="5170972">
    <nd ref="276838930"/>
    <nd ref="251451681"/>
    <nd ref="251455987"/>
    <nd ref="251451479"/>
    <nd ref="251451478"/>
    <nd ref="251451682"/>
    <nd ref="251451683"/>
    <nd ref="251451684"/>
    <nd ref="52490746"/>
    <nd ref="52490754"/>
    <nd ref="251449214"/>
    <nd ref="445720603"/>
    <nd ref="251452390"/>
    <nd ref="251449391"/>
    <nd ref="251449355"/>
    <nd ref="251447474"/>
    <tag k="highway" v="residential"/>
    <tag k="maxspeed" v="50"/>
    <tag k="maxspeed:source" v="default residential speed limit in Australia"/>
    <tag k="name" v="Fulham Road"/>
  </way>
  <way id="23239902" version="12" timestamp="2012-01-16T02:10:58Z" uid="147510" user="woodpeck_fixbot" changeset="10404959">
    <nd ref="276838930"/>
    <nd ref="251451681"/>
    <nd ref="251455987"/>
    <nd ref="251451479"/>
    <nd ref="251451478"/>
    <nd ref="251451682"/>
    <nd ref="251451683"/>
    <nd ref="251451684"/>
    <nd ref="52490746"/>
    <nd ref="52490754"/>
    <nd ref="251449214"/>
    <nd ref="445720603"/>
    <nd ref="251452390"/>
    <nd ref="251449391"/>
    <nd ref="251449355"/>
    <nd ref="251447474"/>
    <tag k="highway" v="residential"/>
    <tag k="name" v="Fulham Road"/>
  </way>
  <way id="23239902" version="13" timestamp="2012-03-23T11:30:35Z" uid="211804" user="KenS" changeset="11072811"/>
  <way id="23239915" version="1" timestamp="2008-03-10T01:18:41Z" uid="30201" user="rrankin" changeset="297311">
    <nd ref="251451784"/>
    <nd ref="251451785"/>
    <nd ref="251451786"/>
    <nd ref="251451787"/>
    <nd ref="251451788"/>
    <nd ref="251451784"/>
    <tag k="created_by" v="Potlatch 0.7b"/>
    <tag k="name" v="Woodstack Comminity Centre"/>
  </way>
  <way id="23239915" version="2" timestamp="2008-03-10T01:21:33Z" uid="30201" user="rrankin" changeset="297311">
    <nd ref="251451784"/>
    <nd ref="251451785"/>
    <nd ref="251451786"/>
    <nd ref="251451787"/>
    <nd ref="251451788"/>
    <nd ref="251451784"/>
    <tag k="created_by" v="Potlatch 0.7b"/>
    <tag k="name" v="Woodstack Comminity Centre"/>
  </way>
  <way id="23239915" version="3" timestamp="2008-03-10T01:22:35Z" uid="30201" user="rrankin" changeset="297311">
    <nd ref="251451784"/>
    <nd ref="251451785"/>
    <nd ref="251451786"/>
    <nd ref="251451787"/>
    <nd ref="251451788"/>
    <nd ref="251451784"/>
    <tag k="amenity" v="public_building"/>
    <tag k="created_by" v="Potlatch 0.7b"/>
    <tag k="name" v="Woodstack Comminity Centre"/>
  </way>
  <way id="23239915" version="4" timestamp="2008-04-09T02:37:08Z" uid="30201" user="rrankin" changeset="90892">
    <nd ref="251451784"/>
    <nd ref="251451785"/>
    <nd ref="251451786"/>
    <nd ref="251451787"/>
    <nd ref="251451788"/>
    <nd ref="251451784"/>
    <tag k="amenity" v="public_building"/>
    <tag k="created_by" v="Potlatch 0.8a"/>
    <tag k="name" v="Woodstock Comminity Centre"/>
  </way>
  <way id="23239915" version="5" timestamp="2008-04-09T02:37:43Z" uid="30201" user="rrankin" changeset="90892">
    <nd ref="251451784"/>
    <nd ref="251451785"/>
    <nd ref="251451786"/>
    <nd ref="251451787"/>
    <nd ref="251451788"/>
    <nd ref="251451784"/>
    <tag k="amenity" v="public_building"/>
    <tag k="created_by" v="Potlatch 0.8a"/>
    <tag k="name" v="Woodstock Comminity Centre"/>
  </way>
  <way id="23239915" version="6" timestamp="2008-04-09T02:39:26Z" uid="30201" user="rrankin" changeset="90892">
    <nd ref="251451784"/>
    <nd ref="251451785"/>
    <nd ref="251451786"/>
    <nd ref="251451787"/>
    <nd ref="251451788"/>
    <nd ref="251451784"/>
    <tag k="amenity" v="public_building"/>
    <tag k="created_by" v="Potlatch 0.8a"/>
    <tag k="name" v="Woodstock Community Centre"/>
  </way>
  <way id="23239915" version="7" timestamp="2008-09-24T20:46:20Z" uid="30201" user="rrankin" changeset="691374">
    <nd ref="251451784"/>
    <nd ref="251451785"/>
    <nd ref="251451786"/>
    <nd ref="251451787"/>
    <nd ref="251451788"/>
    <nd ref="251451784"/>
    <tag k="amenity" v="public_building"/>
    <tag k="created_by" v="Potlatch 0.8a"/>
    <tag k="leisure" v="park"/>
    <tag k="name" v="Woodstock Community Centre"/>
  </way>
  <way id="23239915" version="8" timestamp="2009-12-16T05:08:31Z" uid="30201" user="rrankin" changeset="3384509">
    <nd ref="251451784"/>
    <nd ref="251451786"/>
    <nd ref="251451787"/>
    <nd ref="251451788"/>
    <nd ref="251451784"/>
    <tag k="amenity" v="public_building"/>
    <tag k="leisure" v="park"/>
    <tag k="name" v="Woodstock Community Centre"/>
  </way>
  <way id="23239930" version="4" timestamp="2008-07-05T18:43:59Z" uid="6975" user="ulfl" changeset="398437">
    <nd ref="251451864"/>
    <nd ref="251451865"/>
    <nd ref="251451866"/>
    <nd ref="251451867"/>
    <nd ref="251451868"/>
    <nd ref="251451869"/>
    <nd ref="251451870"/>
    <nd ref="251451920"/>
    <nd ref="251451872"/>
    <nd ref="251451873"/>
    <nd ref="251451874"/>
    <nd ref="251451875"/>
    <nd ref="251451876"/>
    <nd ref="251451877"/>
    <nd ref="251451864"/>
    <tag k="leisure" v="track"/>
  </way>
  <way id="23239951" version="9" timestamp="2010-07-09T05:01:26Z" uid="74617" user="JohnSmith" changeset="5170972">
    <nd ref="251452389"/>
    <nd ref="251452485"/>
    <nd ref="251455887"/>
    <nd ref="251452457"/>
    <nd ref="251878054"/>
    <nd ref="445720599"/>
    <nd ref="251452390"/>
    <tag k="highway" v="residential"/>
    <tag k="maxspeed" v="50"/>
    <tag k="maxspeed:source" v="default residential speed limit in Australia"/>
    <tag k="name" v="Rayment Street"/>
  </way>
  <way id="23239951" version="10" timestamp="2012-01-16T02:10:59Z" uid="147510" user="woodpeck_fixbot" changeset="10404959">
    <nd ref="251452389"/>
    <nd ref="251452485"/>
    <nd ref="251455887"/>
    <nd ref="251452457"/>
    <nd ref="251878054"/>
    <nd ref="445720599"/>
    <nd ref="251452390"/>
    <tag k="highway" v="residential"/>
    <tag k="name" v="Rayment Street"/>
  </way>
  <way id="23239951" version="11" timestamp="2012-03-23T11:30:36Z" uid="211804" user="KenS" changeset="11072811"/>
  <way id="23239955" version="15" timestamp="2010-07-09T04:58:26Z" uid="74617" user="JohnSmith" changeset="5170972">
    <nd ref="251452408"/>
    <nd ref="251878053"/>
    <nd ref="251456049"/>
    <nd ref="251456052"/>
    <nd ref="445680260"/>
    <nd ref="251878054"/>
    <nd ref="251452453"/>
    <nd ref="251452454"/>
    <nd ref="251878055"/>
    <nd ref="251452431"/>
    <nd ref="251452572"/>
    <nd ref="251452429"/>
    <nd ref="251452472"/>
    <nd ref="251452434"/>
    <nd ref="251452577"/>
    <nd ref="251449662"/>
    <tag k="highway" v="residential"/>
    <tag k="maxspeed" v="50"/>
    <tag k="maxspeed:source" v="default residential speed limit in Australia"/>
    <tag k="name" v="Perry Street"/>
  </way>
  <way id="23239955" version="16" timestamp="2012-01-16T02:11:01Z" uid="147510" user="woodpeck_fixbot" changeset="10404959">
    <nd ref="251452408"/>
    <nd ref="251878053"/>
    <nd ref="251456049"/>
    <nd ref="251456052"/>
    <nd ref="445680260"/>
    <nd ref="251878054"/>
    <nd ref="251452453"/>
    <nd ref="251452454"/>
    <nd ref="251878055"/>
    <nd ref="251452431"/>
    <nd ref="251452572"/>
    <nd ref="251452429"/>
    <nd ref="251452472"/>
    <nd ref="251452434"/>
    <nd ref="251452577"/>
    <nd ref="251449662"/>
    <tag k="highway" v="residential"/>
    <tag k="name" v="Perry Street"/>
  </way>
  <way id="23239955" version="17" timestamp="2012-03-23T11:30:31Z" uid="211804" user="KenS" changeset="11072811">
    <nd ref="1687047182"/>
    <nd ref="1687047183"/>
    <nd ref="251456049"/>
    <nd ref="251456052"/>
    <nd ref="445680260"/>
    <nd ref="1687047197"/>
    <nd ref="251452453"/>
    <nd ref="251452454"/>
    <nd ref="1687047206"/>
    <nd ref="251452431"/>
    <nd ref="251452572"/>
    <nd ref="251452429"/>
    <nd ref="251452472"/>
    <nd ref="251452434"/>
    <nd ref="251452577"/>
    <nd ref="251449662"/>
    <tag k="highway" v="residential"/>
    <tag k="name" v="Perry Street"/>
  </way>
  <way id="23239955" version="18" timestamp="2012-03-23T20:34:22Z" uid="211804" user="KenS" changeset="11078123"/>
  <way id="23239958" version="3" timestamp="2010-07-09T04:57:55Z" uid="74617" user="JohnSmith" changeset="5170972">
    <nd ref="251452421"/>
    <nd ref="251452422"/>
    <tag k="highway" v="residential"/>
    <tag k="maxspeed" v="50"/>
    <tag k="maxspeed:source" v="default residential speed limit in Australia"/>
    <tag k="name" v="Martin Court"/>
  </way>
  <way id="23239958" version="4" timestamp="2012-01-16T02:11:02Z" uid="147510" user="woodpeck_fixbot" changeset="10404959">
    <nd ref="251452421"/>
    <nd ref="251452422"/>
    <tag k="highway" v="residential"/>
    <tag k="name" v="Martin Court"/>
  </way>
  <way id="23239958" version="5" timestamp="2012-03-23T20:34:21Z" uid="211804" user="KenS" changeset="11078123"/>
  <way id="23239960" version="3" timestamp="2010-07-09T04:59:05Z" uid="74617" user="JohnSmith" changeset="5170972">
    <nd ref="251452428"/>
    <nd ref="251452429"/>
    <tag k="highway" v="residential"/>
    <tag k="maxspeed" v="50"/>
    <tag k="maxspeed:source" v="default residential speed limit in Australia"/>
    <tag k="name" v="Monamores Street"/>
  </way>
  <way id="23239960" version="4" timestamp="2012-01-16T02:11:03Z" uid="147510" user="woodpeck_fixbot" changeset="10404959">
    <nd ref="251452428"/>
    <nd ref="251452429"/>
    <tag k="highway" v="residential"/>
    <tag k="name" v="Monamores Street"/>
  </way>
  <way id="23239960" version="5" timestamp="2012-03-23T20:34:21Z" uid="211804" user="KenS" changeset="11078123"/>
  <way id="23239961" version="3" timestamp="2010-07-09T05:01:46Z" uid="74617" user="JohnSmith" changeset="5170972">
    <nd ref="251452430"/>
    <nd ref="251452431"/>
    <tag k="highway" v="residential"/>
    <tag k="maxspeed" v="50"/>
    <tag k="maxspeed:source" v="default residential speed limit in Australia"/>
    <tag k="name" v="Lily Street"/>
  </way>
  <way id="23239961" version="4" timestamp="2012-01-16T02:11:05Z" uid="147510" user="woodpeck_fixbot" changeset="10404959">
    <nd ref="251452430"/>
    <nd ref="251452431"/>
    <tag k="highway" v="residential"/>
    <tag k="name" v="Lily Street"/>
  </way>
  <way id="23239961" version="5" timestamp="2012-03-23T20:34:21Z" uid="211804" user="KenS" changeset="11078123"/>
  <way id="23239964" version="3" timestamp="2010-07-09T05:01:09Z" uid="74617" user="JohnSmith" changeset="5170972">
    <nd ref="251452433"/>
    <nd ref="251452434"/>
    <tag k="highway" v="residential"/>
    <tag k="maxspeed" v="50"/>
    <tag k="maxspeed:source" v="default residential speed limit in Australia"/>
    <tag k="name" v="Bellinamona Street"/>
  </way>
  <way id="23239964" version="4" timestamp="2012-01-16T02:11:06Z" uid="147510" user="woodpeck_fixbot" changeset="10404959">
    <nd ref="251452433"/>
    <nd ref="251452434"/>
    <tag k="highway" v="residential"/>
    <tag k="name" v="Bellinamona Street"/>
  </way>
  <way id="23239964" version="5" timestamp="2012-03-23T20:34:20Z" uid="211804" user="KenS" changeset="11078123"/>
  <way id="23239965" version="5" timestamp="2010-07-09T05:03:06Z" uid="74617" user="JohnSmith" changeset="5170972">
    <nd ref="251452454"/>
    <nd ref="251452436"/>
    <tag k="highway" v="residential"/>
    <tag k="maxspeed" v="50"/>
    <tag k="maxspeed:source" v="default residential speed limit in Australia"/>
    <tag k="name" v="Evans Street"/>
  </way>
  <way id="23239965" version="6" timestamp="2012-01-16T02:11:07Z" uid="147510" user="woodpeck_fixbot" changeset="10404959">
    <nd ref="251452454"/>
    <nd ref="251452436"/>
    <tag k="highway" v="residential"/>
    <tag k="name" v="Evans Street"/>
  </way>
  <way id="23239965" version="7" timestamp="2012-03-23T11:30:29Z" uid="211804" user="KenS" changeset="11072811">
    <nd ref="251452454"/>
    <nd ref="1687047200"/>
    <tag k="highway" v="residential"/>
    <tag k="name" v="Evans Street"/>
  </way>
  <way id="23239965" version="8" timestamp="2012-03-23T20:34:20Z" uid="211804" user="KenS" changeset="11078123"/>
  <way id="23239967" version="6" timestamp="2010-07-09T04:56:59Z" uid="74617" user="JohnSmith" changeset="5170972">
    <nd ref="251452453"/>
    <nd ref="251452448"/>
    <tag k="highway" v="residential"/>
    <tag k="maxspeed" v="50"/>
    <tag k="maxspeed:source" v="default residential speed limit in Australia"/>
    <tag k="name" v="Kennedy Street"/>
  </way>
  <way id="23239967" version="7" timestamp="2012-01-16T02:11:08Z" uid="147510" user="woodpeck_fixbot" changeset="10404959">
    <nd ref="251452453"/>
    <nd ref="251452448"/>
    <tag k="highway" v="residential"/>
    <tag k="name" v="Kennedy Street"/>
  </way>
  <way id="23239967" version="8" timestamp="2012-03-23T11:30:30Z" uid="211804" user="KenS" changeset="11072811">
    <nd ref="251452453"/>
    <nd ref="1687047199"/>
    <tag k="highway" v="residential"/>
    <tag k="name" v="Kennedy Street"/>
  </way>
  <way id="23239967" version="9" timestamp="2012-03-23T20:34:20Z" uid="211804" user="KenS" changeset="11078123"/>
  <way id="23239969" version="7" timestamp="2010-07-09T04:56:03Z" uid="74617" user="JohnSmith" changeset="5170972">
    <nd ref="251452457"/>
    <nd ref="251452490"/>
    <nd ref="251452492"/>
    <nd ref="251452456"/>
    <tag k="highway" v="residential"/>
    <tag k="maxspeed" v="50"/>
    <tag k="maxspeed:source" v="default residential speed limit in Australia"/>
    <tag k="name" v="White Street"/>
  </way>
  <way id="23239969" version="8" timestamp="2012-01-16T02:11:09Z" uid="147510" user="woodpeck_fixbot" changeset="10404959">
    <nd ref="251452457"/>
    <nd ref="251452490"/>
    <nd ref="251452492"/>
    <nd ref="251452456"/>
    <tag k="highway" v="residential"/>
    <tag k="name" v="White Street"/>
  </way>
  <way id="23239969" version="9" timestamp="2012-03-23T11:30:32Z" uid="211804" user="KenS" changeset="11072811">
    <nd ref="1687047195"/>
    <nd ref="251452490"/>
    <nd ref="251452492"/>
    <nd ref="1687047202"/>
    <tag k="highway" v="residential"/>
    <tag k="name" v="White Street"/>
  </way>
  <way id="23239969" version="10" timestamp="2012-03-23T20:45:32Z" uid="211804" user="KenS" changeset="11078261"/>
  <way id="23239972" version="12" timestamp="2010-07-09T04:55:37Z" uid="74617" user="JohnSmith" changeset="5170972">
    <nd ref="251452465"/>
    <nd ref="445680256"/>
    <nd ref="251452389"/>
    <nd ref="356973739"/>
    <nd ref="251449380"/>
    <nd ref="251452471"/>
    <nd ref="356973896"/>
    <nd ref="251449656"/>
    <nd ref="476447504"/>
    <tag k="highway" v="residential"/>
    <tag k="maxspeed" v="50"/>
    <tag k="maxspeed:source" v="default residential speed limit in Australia"/>
    <tag k="name" v="Arthur Street"/>
  </way>
  <way id="23239972" version="13" timestamp="2012-01-16T02:11:11Z" uid="147510" user="woodpeck_fixbot" changeset="10404959">
    <nd ref="251452465"/>
    <nd ref="445680256"/>
    <nd ref="251452389"/>
    <nd ref="356973739"/>
    <nd ref="251449380"/>
    <nd ref="251452471"/>
    <nd ref="356973896"/>
    <nd ref="251449656"/>
    <nd ref="476447504"/>
    <tag k="highway" v="residential"/>
    <tag k="name" v="Arthur Street"/>
  </way>
  <way id="23239972" version="14" timestamp="2012-03-23T20:45:31Z" uid="211804" user="KenS" changeset="11078261"/>
  <way id="23239973" version="6" timestamp="2010-07-09T04:57:28Z" uid="74617" user="JohnSmith" changeset="5170972">
    <nd ref="251452472"/>
    <nd ref="251878056"/>
    <nd ref="251452471"/>
    <tag k="highway" v="residential"/>
    <tag k="maxspeed" v="50"/>
    <tag k="maxspeed:source" v="default residential speed limit in Australia"/>
    <tag k="name" v="Gordons Street"/>
  </way>
  <way id="23239973" version="7" timestamp="2012-01-16T02:11:13Z" uid="147510" user="woodpeck_fixbot" changeset="10404959">
    <nd ref="251452472"/>
    <nd ref="251878056"/>
    <nd ref="251452471"/>
    <tag k="highway" v="residential"/>
    <tag k="name" v="Gordons Street"/>
  </way>
  <way id="23239973" version="8" timestamp="2012-03-23T20:34:12Z" uid="211804" user="KenS" changeset="11078123">
    <nd ref="1687654656"/>
    <nd ref="251878056"/>
    <nd ref="251452471"/>
    <tag k="highway" v="residential"/>
    <tag k="name" v="Gordons Street"/>
  </way>
  <way id="23239973" version="9" timestamp="2012-03-23T20:45:31Z" uid="211804" user="KenS" changeset="11078261"/>
  <way id="23239975" version="15" timestamp="2010-07-09T05:02:09Z" uid="74617" user="JohnSmith" changeset="5170972">
    <nd ref="251452485"/>
    <nd ref="251452570"/>
    <nd ref="251452546"/>
    <nd ref="251878223"/>
    <nd ref="251452573"/>
    <nd ref="251878056"/>
    <nd ref="251452578"/>
    <nd ref="251452477"/>
    <tag k="highway" v="residential"/>
    <tag k="maxspeed" v="50"/>
    <tag k="maxspeed:source" v="default residential speed limit in Australia"/>
    <tag k="name" v="Fairfield Road"/>
  </way>
  <way id="23239975" version="16" timestamp="2012-01-16T02:11:14Z" uid="147510" user="woodpeck_fixbot" changeset="10404959">
    <nd ref="251452485"/>
    <nd ref="251452570"/>
    <nd ref="251452546"/>
    <nd ref="251878223"/>
    <nd ref="251452573"/>
    <nd ref="251878056"/>
    <nd ref="251452578"/>
    <nd ref="251452477"/>
    <tag k="highway" v="residential"/>
    <tag k="name" v="Fairfield Road"/>
  </way>
  <way id="23239975" version="17" timestamp="2012-03-23T20:45:31Z" uid="211804" user="KenS" changeset="11078261"/>
  <way id="23239981" version="4" timestamp="2010-07-09T04:54:10Z" uid="74617" user="JohnSmith" changeset="5170972">
    <nd ref="251452570"/>
    <nd ref="251452490"/>
    <tag k="highway" v="residential"/>
    <tag k="maxspeed" v="50"/>
    <tag k="maxspeed:source" v="default residential speed limit in Australia"/>
    <tag k="name" v="Hall Street"/>
  </way>
  <way id="23239981" version="5" timestamp="2010-07-10T01:00:44Z" uid="201443" user="stevage" changeset="5178312">
    <nd ref="251452570"/>
    <nd ref="809066006"/>
    <nd ref="251452490"/>
    <tag k="highway" v="residential"/>
    <tag k="maxspeed" v="50"/>
    <tag k="maxspeed:source" v="default residential speed limit in Australia"/>
    <tag k="name" v="Hall Street"/>
  </way>
  <way id="23239981" version="6" timestamp="2012-01-16T02:11:15Z" uid="147510" user="woodpeck_fixbot" changeset="10404959">
    <nd ref="251452570"/>
    <nd ref="809066006"/>
    <nd ref="251452490"/>
    <tag k="highway" v="residential"/>
    <tag k="name" v="Hall Street"/>
  </way>
  <way id="23239981" version="7" timestamp="2012-03-23T20:45:32Z" uid="211804" user="KenS" changeset="11078261"/>
  <way id="23239982" version="6" timestamp="2010-07-09T04:56:27Z" uid="74617" user="JohnSmith" changeset="5170972">
    <nd ref="251452546"/>
    <nd ref="251452492"/>
    <tag k="highway" v="residential"/>
    <tag k="maxspeed" v="50"/>
    <tag k="maxspeed:source" v="default residential speed limit in Australia"/>
    <tag k="name" v="Plimsoll Grove"/>
  </way>
  <way id="23239982" version="7" timestamp="2010-07-10T01:00:32Z" uid="201443" user="stevage" changeset="5178312">
    <nd ref="251452546"/>
    <nd ref="809065975"/>
    <nd ref="251452492"/>
    <tag k="highway" v="residential"/>
    <tag k="maxspeed" v="50"/>
    <tag k="maxspeed:source" v="default residential speed limit in Australia"/>
    <tag k="name" v="Plimsoll Grove"/>
  </way>
  <way id="23239982" version="8" timestamp="2012-01-16T02:11:17Z" uid="147510" user="woodpeck_fixbot" changeset="10404959">
    <nd ref="251452546"/>
    <nd ref="809065975"/>
    <nd ref="251452492"/>
    <tag k="highway" v="residential"/>
    <tag k="name" v="Plimsoll Grove"/>
  </way>
  <way id="23239982" version="9" timestamp="2012-03-23T20:45:32Z" uid="211804" user="KenS" changeset="11078261"/>
  <way id="23239988" version="4" timestamp="2010-07-09T05:01:58Z" uid="74617" user="JohnSmith" changeset="5170972">
    <nd ref="251452573"/>
    <nd ref="251452572"/>
    <tag k="highway" v="residential"/>
    <tag k="maxspeed" v="50"/>
    <tag k="maxspeed:source" v="default residential speed limit in Australia"/>
    <tag k="name" v="Rushall Street"/>
  </way>
  <way id="23239988" version="5" timestamp="2012-01-16T02:11:18Z" uid="147510" user="woodpeck_fixbot" changeset="10404959">
    <nd ref="251452573"/>
    <nd ref="251452572"/>
    <tag k="highway" v="residential"/>
    <tag k="name" v="Rushall Street"/>
  </way>
  <way id="23239988" version="6" timestamp="2012-03-23T20:34:15Z" uid="211804" user="KenS" changeset="11078123">
    <nd ref="251452573"/>
    <nd ref="1687654650"/>
    <tag k="highway" v="residential"/>
    <tag k="name" v="Rushall Street"/>
  </way>
  <way id="23239988" version="7" timestamp="2012-03-23T20:45:32Z" uid="211804" user="KenS" changeset="11078261"/>
  <way id="23239989" version="4" timestamp="2010-07-09T05:04:14Z" uid="74617" user="JohnSmith" changeset="5170972">
    <nd ref="251452578"/>
    <nd ref="251452577"/>
    <tag k="highway" v="residential"/>
    <tag k="maxspeed" v="50"/>
    <tag k="maxspeed:source" v="default residential speed limit in Australia"/>
    <tag k="name" v="Langridge Street"/>
  </way>
  <way id="23239989" version="5" timestamp="2012-01-16T02:11:19Z" uid="147510" user="woodpeck_fixbot" changeset="10404959">
    <nd ref="251452578"/>
    <nd ref="251452577"/>
    <tag k="highway" v="residential"/>
    <tag k="name" v="Langridge Street"/>
  </way>
  <way id="23239989" version="6" timestamp="2012-03-23T20:34:14Z" uid="211804" user="KenS" changeset="11078123">
    <nd ref="251452578"/>
    <nd ref="1687654676"/>
    <tag k="highway" v="residential"/>
    <tag k="name" v="Langridge Street"/>
  </way>
  <way id="23239989" version="7" timestamp="2012-03-23T20:45:32Z" uid="211804" user="KenS" changeset="11078261"/>
  <way id="23239046" version="5" timestamp="2012-05-21T18:12:38Z" uid="136198" user="tmprec" changeset="11664561">
    <nd ref="251442105"/>
    <nd ref="251442106"/>
    <nd ref="251442107"/>
    <nd ref="251442108"/>
    <nd ref="251442105"/>
    <tag k="addr:city" v="Санкт-Петербург"/>
    <tag k="addr:country" v="RU"/>
    <tag k="addr:housenumber" v="4"/>
    <tag k="addr:street" v="Большеохтинский проспект"/>
    <tag k="building" v="yes"/>
    <tag k="name" v="Охтинская"/>
    <tag k="stars" v="3"/>
    <tag k="tourism" v="hotel"/>
    <tag k="website" v="http://www.okhtinskaya.com/"/>
  </way>
  <way id="23239046" version="6" timestamp="2012-07-20T08:56:52Z" uid="722137" user="OSMF Redaction Account" changeset="12369114">
    <nd ref="251442105"/>
    <nd ref="251442106"/>
    <nd ref="251442107"/>
    <nd ref="251442108"/>
    <nd ref="251442105"/>
    <tag k="addr:city" v="Санкт-Петербург"/>
    <tag k="addr:country" v="RU"/>
    <tag k="addr:street" v="Большеохтинский проспект"/>
    <tag k="building" v="yes"/>
    <tag k="name" v="Охтинская"/>
    <tag k="stars" v="3"/>
    <tag k="tourism" v="hotel"/>
    <tag k="website" v="http://www.okhtinskaya.com/"/>
  </way>
  <way id="23239159" version="6" timestamp="2012-05-26T07:50:15Z" uid="328538" user="o&apos;cholio" changeset="11704271"/>
  <way id="23239161" version="9" timestamp="2012-05-26T07:50:14Z" uid="328538" user="o&apos;cholio" changeset="11704271"/>
  <way id="23239201" version="5" timestamp="2012-07-19T15:08:58Z" uid="722137" user="OSMF Redaction Account" changeset="12333377"/>
  <way id="23239204" version="6" timestamp="2012-05-27T05:44:45Z" uid="328538" user="o&apos;cholio" changeset="11712526"/>
  <way id="23239205" version="6" timestamp="2012-05-27T05:44:45Z" uid="328538" user="o&apos;cholio" changeset="11712526"/>
  <way id="23239206" version="5" timestamp="2012-04-08T02:28:55Z" uid="328538" user="o&apos;cholio" changeset="11220422">
    <nd ref="1706559724"/>
    <nd ref="1254156906"/>
    <nd ref="251444136"/>
    <nd ref="251444138"/>
    <nd ref="251444140"/>
    <tag k="highway" v="secondary_link"/>
    <tag k="maxspeed" v="60"/>
    <tag k="oneway" v="yes"/>
    <tag k="source" v="survey"/>
  </way>
  <way id="23239206" version="6" timestamp="2012-05-27T05:44:45Z" uid="328538" user="o&apos;cholio" changeset="11712526"/>
  <way id="23239207" version="4" timestamp="2012-05-27T05:44:46Z" uid="328538" user="o&apos;cholio" changeset="11712526"/>
  <way id="23239271" version="9" timestamp="2012-06-13T11:44:59Z" uid="24572" user="sly" changeset="11883989">
    <nd ref="251444910"/>
    <nd ref="251444763"/>
    <nd ref="250428726"/>
    <nd ref="251444760"/>
    <nd ref="251444910"/>
    <tag k="area" v="yes"/>
    <tag k="leisure" v="pitch"/>
    <tag k="name" v="Rammell Field"/>
    <tag k="sport" v="rugby_union"/>
  </way>
  <way id="23239271" version="10" timestamp="2012-06-13T15:54:54Z" uid="8235" user="chriscf" changeset="11886459">
    <nd ref="251444910"/>
    <nd ref="251444763"/>
    <nd ref="250428726"/>
    <nd ref="251444760"/>
    <nd ref="251444910"/>
    <tag k="area" v="yes"/>
    <tag k="fixme" v="sport=rugby is ambiguous, see http://wiki.osm.org/wiki/Tag:sport%3Drugby for more details"/>
    <tag k="leisure" v="pitch"/>
    <tag k="name" v="Rammell Field"/>
    <tag k="sport" v="rugby_union"/>
  </way>
  <way id="23239271" version="11" timestamp="2012-07-13T17:36:02Z" uid="722137" user="OSMF Redaction Account" changeset="12209172">
    <nd ref="251444910"/>
    <nd ref="251444763"/>
    <nd ref="250428726"/>
    <nd ref="251444760"/>
    <nd ref="251444910"/>
    <tag k="area" v="yes"/>
    <tag k="leisure" v="pitch"/>
    <tag k="name" v="Rammell Field"/>
    <tag k="sport" v="rugby_union"/>
  </way>
  <way id="23239355" version="5" timestamp="2012-07-20T02:42:47Z" uid="722137" user="OSMF Redaction Account" changeset="12358498">
    <nd ref="259161863"/>
    <nd ref="259161864"/>
    <nd ref="259161865"/>
    <tag k="lcn" v="yes"/>
    <tag k="lcn_ref" v="L5a"/>
    <tag k="source" v="survey"/>
  </way>
  <way id="23239355" version="6" timestamp="2012-07-30T14:53:08Z" uid="410812" user="beardfear" changeset="12548840">
    <nd ref="1844090568"/>
    <nd ref="259161864"/>
    <nd ref="259161865"/>
    <nd ref="1844090354"/>
    <tag k="bicycle" v="yes"/>
    <tag k="highway" v="cycleway"/>
    <tag k="lcn" v="yes"/>
    <tag k="lcn_ref" v="L5a"/>
    <tag k="segregated" v="no"/>
    <tag k="source" v="survey"/>
  </way>
  <way id="23239355" version="7" timestamp="2012-08-03T22:50:40Z" uid="669896" user="rinsemesocks" changeset="12603839">
    <nd ref="1844090568"/>
    <nd ref="1850726822"/>
    <nd ref="259161864"/>
    <nd ref="259161865"/>
    <nd ref="1844090354"/>
    <tag k="bicycle" v="yes"/>
    <tag k="highway" v="cycleway"/>
    <tag k="lcn" v="yes"/>
    <tag k="lcn_ref" v="L5a"/>
    <tag k="segregated" v="no"/>
    <tag k="source" v="survey"/>
  </way>
  <way id="23239470" version="6" timestamp="2012-07-16T12:52:11Z" uid="722137" user="OSMF Redaction Account" changeset="12244521">
    <nd ref="251446777"/>
    <nd ref="251446778"/>
    <nd ref="251446779"/>
    <nd ref="251446780"/>
    <nd ref="251446782"/>
    <nd ref="251446783"/>
    <nd ref="251446784"/>
    <nd ref="251446785"/>
    <nd ref="251446787"/>
    <nd ref="1541164214"/>
    <nd ref="1541164213"/>
    <nd ref="1541164210"/>
    <nd ref="1541164207"/>
    <nd ref="1541164203"/>
    <nd ref="1212675593"/>
    <nd ref="1541164197"/>
    <nd ref="1541164191"/>
    <nd ref="1212675635"/>
    <nd ref="1212675636"/>
    <nd ref="1541164189"/>
    <nd ref="1541164186"/>
    <nd ref="1212675614"/>
    <nd ref="1212675622"/>
    <nd ref="1212675600"/>
    <nd ref="1541164184"/>
    <nd ref="1541164167"/>
    <nd ref="1541164165"/>
    <nd ref="1541164160"/>
    <nd ref="1212675633"/>
    <nd ref="1541164157"/>
    <nd ref="1541164155"/>
    <nd ref="1212675634"/>
    <nd ref="1212675594"/>
    <nd ref="1212675640"/>
    <nd ref="1541164152"/>
    <nd ref="1212675627"/>
    <nd ref="1541164132"/>
    <nd ref="1541164128"/>
    <nd ref="1541164123"/>
    <nd ref="1212675598"/>
    <nd ref="1541164083"/>
    <nd ref="1541164069"/>
    <nd ref="1541164060"/>
    <nd ref="1212675630"/>
    <nd ref="1212675604"/>
    <nd ref="1212622879"/>
    <tag k="name" v="Via Priesnig"/>
  </way>
  <way id="23239470" version="7" timestamp="2012-08-09T09:09:05Z" uid="86130" user="Stefano Salvador" changeset="12666037">
    <nd ref="251446777"/>
    <nd ref="251446778"/>
    <nd ref="251446779"/>
    <nd ref="251446780"/>
    <nd ref="251446782"/>
    <nd ref="251446783"/>
    <nd ref="251446784"/>
    <nd ref="251446785"/>
    <nd ref="251446787"/>
    <nd ref="1541164214"/>
    <nd ref="1541164213"/>
    <nd ref="1541164210"/>
    <nd ref="1541164207"/>
    <nd ref="1541164203"/>
    <nd ref="1212675593"/>
    <nd ref="1541164197"/>
    <nd ref="1541164191"/>
    <nd ref="1212675635"/>
    <nd ref="1212675636"/>
    <nd ref="1541164189"/>
    <nd ref="1541164186"/>
    <nd ref="1212675614"/>
    <nd ref="1212675622"/>
    <nd ref="1212675600"/>
    <nd ref="1541164184"/>
    <nd ref="1858287236"/>
    <nd ref="1541164167"/>
    <nd ref="1541164165"/>
    <nd ref="1541164160"/>
    <nd ref="1212675633"/>
    <nd ref="1541164157"/>
    <nd ref="1541164155"/>
    <nd ref="1212675634"/>
    <nd ref="1212675594"/>
    <nd ref="1212675640"/>
    <nd ref="1541164152"/>
    <nd ref="1212675627"/>
    <nd ref="1541164132"/>
    <nd ref="1541164128"/>
    <nd ref="1541164123"/>
    <nd ref="1212675598"/>
    <nd ref="1541164083"/>
    <nd ref="1541164069"/>
    <nd ref="1541164060"/>
    <nd ref="1212675630"/>
    <nd ref="1212675604"/>
    <nd ref="1212622879"/>
    <tag k="highway" v="unclassified"/>
    <tag k="name" v="Via Priesnig"/>
  </way>
  <way id="23239498" version="5" timestamp="2012-07-20T08:56:43Z" uid="722137" user="OSMF Redaction Account" changeset="12369114">
    <nd ref="251447003"/>
    <nd ref="251446992"/>
    <nd ref="251446993"/>
    <nd ref="251446994"/>
    <nd ref="251447003"/>
    <tag k="leisure" v="park"/>
  </way>
  <way id="23239502" version="5" timestamp="2012-07-20T08:56:46Z" uid="722137" user="OSMF Redaction Account" changeset="12369114">
    <nd ref="251447011"/>
    <nd ref="251447012"/>
    <nd ref="251447013"/>
    <nd ref="251447014"/>
    <nd ref="251447015"/>
    <nd ref="251447016"/>
    <nd ref="251447017"/>
    <nd ref="251447018"/>
    <nd ref="251447019"/>
    <nd ref="251447020"/>
    <nd ref="251447011"/>
  </way>
  <way id="23239832" version="6" timestamp="2012-07-03T13:03:50Z" uid="631120" user="Antsiscool" changeset="12099938">
    <nd ref="50868129"/>
    <nd ref="1055631834"/>
    <nd ref="50868130"/>
    <nd ref="50868131"/>
    <nd ref="50868132"/>
    <nd ref="250035057"/>
    <nd ref="50868133"/>
    <nd ref="50868134"/>
    <nd ref="50868135"/>
    <nd ref="50868136"/>
    <nd ref="50868138"/>
    <nd ref="50868139"/>
    <nd ref="50868140"/>
    <nd ref="50868141"/>
    <nd ref="50868142"/>
    <nd ref="50868143"/>
    <nd ref="50868144"/>
    <nd ref="50871363"/>
    <nd ref="50869776"/>
    <nd ref="60285925"/>
    <nd ref="59164249"/>
    <tag k="highway" v="residential"/>
    <tag k="name" v="Queens Walk"/>
  </way>
  <way id="23239867" version="5" timestamp="2012-07-20T21:14:45Z" uid="722137" user="OSMF Redaction Account" changeset="12392300"/>
  <way id="23239868" version="3" timestamp="2012-07-20T21:14:45Z" uid="722137" user="OSMF Redaction Account" changeset="12392300"/>
  <way id="23239875" version="6" timestamp="2012-07-20T21:14:39Z" uid="722137" user="OSMF Redaction Account" changeset="12392300">
    <nd ref="249779977"/>
    <nd ref="330999162"/>
    <nd ref="251451426"/>
    <tag k="created_by" v="Potlatch 0.10f"/>
    <tag k="highway" v="secondary"/>
    <tag k="name" v="Wenhuayuan Donglu"/>
  </way>
  <way id="23239875" version="7" timestamp="2012-07-20T21:52:49Z" uid="722137" user="OSMF Redaction Account" changeset="12393871"/>
  <way id="23239887" version="13" timestamp="2012-07-20T21:52:44Z" uid="722137" user="OSMF Redaction Account" changeset="12393871">
    <nd ref="320468864"/>
    <nd ref="253885924"/>
    <nd ref="307435574"/>
    <nd ref="302211994"/>
    <nd ref="302211993"/>
    <nd ref="302211992"/>
    <nd ref="302211991"/>
    <nd ref="307435584"/>
    <nd ref="302211990"/>
    <nd ref="302211989"/>
    <nd ref="302211988"/>
    <nd ref="307436009"/>
    <nd ref="302211987"/>
    <nd ref="300238708"/>
    <tag k="oneway" v="yes"/>
  </way>
  <way id="23239893" version="16" timestamp="2012-04-16T19:52:53Z" uid="152520" user="Rainer_Driesen" changeset="11326337">
    <nd ref="89146817"/>
    <nd ref="1639434515"/>
    <nd ref="1639434519"/>
    <nd ref="89146818"/>
    <nd ref="908837769"/>
    <tag k="cycleway" v="track"/>
    <tag k="embankment" v="yes"/>
    <tag k="foot" v="yes"/>
    <tag k="highway" v="primary"/>
    <tag k="maxspeed" v="80"/>
    <tag k="motorcycle" v="yes"/>
    <tag k="motorroad" v="no"/>
    <tag k="name" v="Südring"/>
    <tag k="oneway" v="yes"/>
    <tag k="ref" v="B 1"/>
  </way>
  <way id="23239915" version="9" timestamp="2012-07-20T08:39:04Z" uid="722137" user="OSMF Redaction Account" changeset="12368619"/>
  <way id="23239930" version="5" timestamp="2012-06-08T22:43:32Z" uid="134582" user="Juergenaxel" changeset="11840274">
    <nd ref="251451864"/>
    <nd ref="251451865"/>
    <nd ref="251451866"/>
    <nd ref="251451867"/>
    <nd ref="251451868"/>
    <nd ref="251451869"/>
    <nd ref="251451870"/>
    <nd ref="251451920"/>
    <nd ref="251451872"/>
    <nd ref="251451873"/>
    <nd ref="251451874"/>
    <nd ref="251451875"/>
    <nd ref="251451876"/>
    <nd ref="251451877"/>
    <nd ref="251451864"/>
    <tag k="leisure" v="track"/>
    <tag k="name" v="Toni-Turek-Stadion"/>
    <tag k="sport" v="athletics"/>
  </way>
</osm>
