<?xml version='1.0' encoding='UTF-8'?>
<osm version="0.6" generator="libosmium/2.20.0">
  <way id="23374247" version="1" timestamp="2008-03-20T21:08:46Z" uid="6269" user="Mueck" changeset="357826">
    <nd ref="253084294"/>
    <nd ref="253084295"/>
    <nd ref="253084296"/>
    <nd ref="253084298"/>
    <tag k="created_by" v="Potlatch 0.7b"/>
    <tag k="highway" v="track"/>
    <tag k="tracktype" v="grade1"/>
  </way>
  <way id="23374247" version="2" timestamp="2008-03-20T21:10:25Z" uid="6269" user="Mueck" changeset="357826">
    <nd ref="253084294"/>
    <nd ref="253084295"/>
    <nd ref="253085419"/>
    <nd ref="253084296"/>
    <nd ref="253084298"/>
    <tag k="created_by" v="Potlatch 0.7b"/>
    <tag k="highway" v="track"/>
    <tag k="tracktype" v="grade1"/>
  </way>
  <way id="23374247" version="3" timestamp="2008-03-20T22:01:31Z" uid="6269" user="Mueck" changeset="357826">
    <nd ref="253084294"/>
    <nd ref="253084295"/>
    <nd ref="253090367"/>
    <nd ref="253085419"/>
    <nd ref="253084296"/>
    <nd ref="253084298"/>
    <tag k="created_by" v="Potlatch 0.7b"/>
    <tag k="highway" v="track"/>
    <tag k="tracktype" v="grade1"/>
  </way>
  <way id="23374247" version="4" timestamp="2008-03-20T22:05:59Z" uid="6269" user="Mueck" changeset="357826">
    <nd ref="253084294"/>
    <nd ref="253084295"/>
    <nd ref="253090367"/>
    <nd ref="253085419"/>
    <nd ref="253084298"/>
    <tag k="created_by" v="Potlatch 0.7b"/>
    <tag k="highway" v="track"/>
    <tag k="tracktype" v="grade1"/>
  </way>
  <way id="23374247" version="5" timestamp="2008-03-20T22:09:24Z" uid="6269" user="Mueck" changeset="357826">
    <nd ref="253084294"/>
    <nd ref="253084295"/>
    <nd ref="253091070"/>
    <nd ref="253090367"/>
    <nd ref="253085419"/>
    <nd ref="253084298"/>
    <tag k="created_by" v="Potlatch 0.7b"/>
    <tag k="highway" v="track"/>
    <tag k="tracktype" v="grade1"/>
  </way>
  <way id="23374247" version="6" timestamp="2008-03-20T22:15:11Z" uid="6269" user="Mueck" changeset="357826">
    <nd ref="253084294"/>
    <nd ref="253084295"/>
    <nd ref="253091070"/>
    <nd ref="253091784"/>
    <nd ref="253090367"/>
    <nd ref="253085419"/>
    <nd ref="253084298"/>
    <tag k="created_by" v="Potlatch 0.7b"/>
    <tag k="highway" v="track"/>
    <tag k="tracktype" v="grade1"/>
  </way>
  <way id="23374247" version="7" timestamp="2008-03-20T22:24:00Z" uid="6269" user="Mueck" changeset="357826">
    <nd ref="253092595"/>
    <nd ref="253084295"/>
    <nd ref="253091070"/>
    <nd ref="253091784"/>
    <nd ref="253090367"/>
    <nd ref="253085419"/>
    <nd ref="253084298"/>
    <tag k="created_by" v="Potlatch 0.7b"/>
    <tag k="highway" v="track"/>
    <tag k="tracktype" v="grade1"/>
  </way>
  <way id="23374247" version="8" timestamp="2008-07-10T13:30:45Z" uid="6269" user="Mueck" changeset="452756">
    <nd ref="253092595"/>
    <nd ref="253084295"/>
    <nd ref="253091070"/>
    <nd ref="253091784"/>
    <nd ref="253090367"/>
    <nd ref="253085419"/>
    <nd ref="277549432"/>
    <nd ref="253084298"/>
    <tag k="created_by" v="Potlatch 0.9c"/>
    <tag k="highway" v="track"/>
    <tag k="tracktype" v="grade1"/>
  </way>
  <way id="23374247" version="9" timestamp="2008-07-10T13:42:55Z" uid="6269" user="Mueck" changeset="452756">
    <nd ref="253092595"/>
    <nd ref="253084295"/>
    <nd ref="253091070"/>
    <nd ref="253091784"/>
    <nd ref="253090367"/>
    <nd ref="253085419"/>
    <nd ref="277549432"/>
    <tag k="created_by" v="Potlatch 0.9c"/>
    <tag k="highway" v="track"/>
    <tag k="tracktype" v="grade1"/>
  </way>
  <way id="23374247" version="10" timestamp="2009-05-19T14:04:35Z" uid="107674" user="GeoCounter" changeset="1249718">
    <nd ref="253092595"/>
    <nd ref="253084295"/>
    <nd ref="253091070"/>
    <nd ref="253091784"/>
    <nd ref="253090367"/>
    <nd ref="253085419"/>
    <nd ref="277549432"/>
    <nd ref="253084298"/>
    <tag k="created_by" v="Potlatch 0.9c"/>
    <tag k="highway" v="track"/>
    <tag k="tracktype" v="grade1"/>
  </way>
  <way id="23374247" version="11" timestamp="2012-01-03T12:15:38Z" uid="91490" user="Heinz_V" changeset="10280528">
    <nd ref="253092595"/>
    <nd ref="253084295"/>
    <nd ref="253091070"/>
    <nd ref="253091784"/>
    <nd ref="253090367"/>
    <nd ref="253085419"/>
    <nd ref="277549432"/>
    <nd ref="253084298"/>
    <tag k="highway" v="track"/>
    <tag k="odbl" v="clean"/>
    <tag k="tracktype" v="grade1"/>
  </way>
  <way id="23374247" version="12" timestamp="2012-01-19T19:31:55Z" uid="91490" user="Heinz_V" changeset="10440356">
    <nd ref="253092595"/>
    <nd ref="253084295"/>
    <nd ref="253091070"/>
    <nd ref="253091784"/>
    <nd ref="253090367"/>
    <nd ref="253085419"/>
    <nd ref="277549432"/>
    <nd ref="1597978324"/>
    <tag k="highway" v="track"/>
    <tag k="odbl" v="clean"/>
    <tag k="tracktype" v="grade1"/>
  </way>
  <way id="23374247" version="13" timestamp="2012-01-19T19:35:37Z" uid="91490" user="Heinz_V" changeset="10440399">
    <nd ref="253092595"/>
    <nd ref="253084295"/>
    <nd ref="253091070"/>
    <nd ref="253091784"/>
    <nd ref="253090367"/>
    <nd ref="253085419"/>
    <nd ref="1597984847"/>
    <nd ref="1597978324"/>
    <tag k="highway" v="track"/>
    <tag k="odbl" v="clean"/>
    <tag k="tracktype" v="grade1"/>
  </way>
  <way id="23374247" version="14" timestamp="2012-01-19T21:13:13Z" uid="91490" user="Heinz_V" changeset="10441318">
    <nd ref="253092595"/>
    <nd ref="253084295"/>
    <nd ref="1598134522"/>
    <nd ref="1598134516"/>
    <nd ref="253090367"/>
    <nd ref="253085419"/>
    <nd ref="1597984847"/>
    <nd ref="1597978324"/>
    <tag k="highway" v="track"/>
    <tag k="odbl" v="clean"/>
    <tag k="tracktype" v="grade1"/>
  </way>
  <way id="23374247" version="15" timestamp="2012-01-21T07:20:40Z" uid="91490" user="Heinz_V" changeset="10452983">
    <nd ref="1599565051"/>
    <nd ref="1599565047"/>
    <nd ref="1599565046"/>
    <nd ref="1599565045"/>
    <nd ref="1598134522"/>
    <nd ref="1598134516"/>
    <nd ref="1599565036"/>
    <nd ref="1599565034"/>
    <nd ref="1599565032"/>
    <nd ref="1599565029"/>
    <tag k="highway" v="track"/>
    <tag k="odbl" v="clean"/>
    <tag k="tracktype" v="grade1"/>
  </way>
  <way id="23374255" version="1" timestamp="2008-03-20T21:09:51Z" uid="6269" user="Mueck" changeset="357826">
    <nd ref="253085025"/>
    <nd ref="253085026"/>
    <nd ref="253085027"/>
    <tag k="created_by" v="Potlatch 0.7b"/>
    <tag k="highway" v="track"/>
    <tag k="tracktype" v="grade3"/>
  </way>
  <way id="23374255" version="2" timestamp="2008-03-20T21:10:07Z" uid="6269" user="Mueck" changeset="357826">
    <nd ref="253085025"/>
    <nd ref="253085026"/>
    <nd ref="253085027"/>
    <tag k="created_by" v="Potlatch 0.7b"/>
    <tag k="highway" v="track"/>
    <tag k="tracktype" v="grade3"/>
  </way>
  <way id="23374255" version="3" timestamp="2008-03-20T21:10:45Z" uid="6269" user="Mueck" changeset="357826">
    <nd ref="253085025"/>
    <nd ref="253085579"/>
    <nd ref="253085026"/>
    <nd ref="253085027"/>
    <tag k="created_by" v="Potlatch 0.7b"/>
    <tag k="highway" v="track"/>
    <tag k="tracktype" v="grade3"/>
  </way>
  <way id="23374255" version="4" timestamp="2008-03-20T22:02:43Z" uid="6269" user="Mueck" changeset="357826">
    <nd ref="253085025"/>
    <nd ref="253090504"/>
    <nd ref="253085579"/>
    <nd ref="253085026"/>
    <nd ref="253085027"/>
    <tag k="created_by" v="Potlatch 0.7b"/>
    <tag k="highway" v="track"/>
    <tag k="tracktype" v="grade3"/>
  </way>
  <way id="23374255" version="5" timestamp="2008-03-20T22:05:56Z" uid="6269" user="Mueck" changeset="357826">
    <nd ref="253085025"/>
    <nd ref="253090504"/>
    <nd ref="253085579"/>
    <nd ref="253085027"/>
    <tag k="created_by" v="Potlatch 0.7b"/>
    <tag k="highway" v="track"/>
    <tag k="tracktype" v="grade3"/>
  </way>
  <way id="23374255" version="6" timestamp="2008-07-10T13:30:45Z" uid="6269" user="Mueck" changeset="452756">
    <nd ref="253085025"/>
    <nd ref="253090504"/>
    <nd ref="253085579"/>
    <nd ref="277549431"/>
    <nd ref="253085027"/>
    <tag k="created_by" v="Potlatch 0.9c"/>
    <tag k="highway" v="track"/>
    <tag k="tracktype" v="grade3"/>
  </way>
  <way id="23374255" version="7" timestamp="2008-07-10T13:36:17Z" uid="6269" user="Mueck" changeset="452756">
    <nd ref="253085025"/>
    <nd ref="253090504"/>
    <nd ref="253085579"/>
    <nd ref="277549431"/>
    <tag k="created_by" v="Potlatch 0.9c"/>
    <tag k="highway" v="track"/>
    <tag k="tracktype" v="grade3"/>
  </way>
  <way id="23374255" version="8" timestamp="2009-05-19T14:04:34Z" uid="107674" user="GeoCounter" changeset="1249718">
    <nd ref="253085025"/>
    <nd ref="253090504"/>
    <nd ref="253085579"/>
    <nd ref="277549431"/>
    <nd ref="253085027"/>
    <tag k="created_by" v="Potlatch 0.9c"/>
    <tag k="highway" v="track"/>
    <tag k="tracktype" v="grade3"/>
  </way>
  <way id="23374255" version="9" timestamp="2012-01-03T12:08:38Z" uid="91490" user="Heinz_V" changeset="10280528">
    <nd ref="253085025"/>
    <nd ref="253090504"/>
    <nd ref="253085579"/>
    <nd ref="277549431"/>
    <nd ref="253085027"/>
    <tag k="highway" v="track"/>
    <tag k="odbl" v="clean"/>
    <tag k="tracktype" v="grade3"/>
  </way>
  <way id="23374255" version="10" timestamp="2012-01-19T19:31:54Z" uid="91490" user="Heinz_V" changeset="10440356">
    <nd ref="253085025"/>
    <nd ref="253090504"/>
    <nd ref="253085579"/>
    <nd ref="277549431"/>
    <nd ref="1597978289"/>
    <tag k="highway" v="track"/>
    <tag k="odbl" v="clean"/>
    <tag k="tracktype" v="grade3"/>
  </way>
  <way id="23374255" version="11" timestamp="2012-01-19T19:35:36Z" uid="91490" user="Heinz_V" changeset="10440399">
    <nd ref="253085025"/>
    <nd ref="253090504"/>
    <nd ref="253085579"/>
    <nd ref="1597984825"/>
    <nd ref="1597978289"/>
    <tag k="highway" v="track"/>
    <tag k="odbl" v="clean"/>
    <tag k="tracktype" v="grade3"/>
  </way>
  <way id="23374255" version="12" timestamp="2012-01-19T19:37:26Z" uid="91490" user="Heinz_V" changeset="10440415">
    <nd ref="253085025"/>
    <nd ref="253090504"/>
    <nd ref="253085579"/>
    <nd ref="1597984825"/>
    <nd ref="1597986950"/>
    <nd ref="1597986948"/>
    <nd ref="1597986947"/>
    <nd ref="1597986944"/>
    <nd ref="1597986943"/>
    <nd ref="1597986942"/>
    <nd ref="1597986941"/>
    <nd ref="1576514142"/>
    <tag k="highway" v="track"/>
    <tag k="tracktype" v="grade1"/>
  </way>
  <way id="23374255" version="13" timestamp="2012-01-21T07:15:35Z" uid="91490" user="Heinz_V" changeset="10452968"/>
  <way id="23374269" version="1" timestamp="2008-03-20T21:10:45Z" uid="6269" user="Mueck" changeset="357826">
    <nd ref="253085419"/>
    <nd ref="253085579"/>
    <nd ref="253085580"/>
    <nd ref="253077328"/>
    <tag k="created_by" v="Potlatch 0.7b"/>
  </way>
  <way id="23374269" version="2" timestamp="2008-03-20T21:11:16Z" uid="6269" user="Mueck" changeset="357826">
    <nd ref="253085419"/>
    <nd ref="253085579"/>
    <nd ref="253085580"/>
    <nd ref="253077328"/>
    <tag k="created_by" v="Potlatch 0.7b"/>
    <tag k="highway" v="track"/>
    <tag k="tracktype" v="grade2"/>
  </way>
  <way id="23374269" version="3" timestamp="2008-03-20T22:05:01Z" uid="6269" user="Mueck" changeset="357826">
    <nd ref="253085419"/>
    <nd ref="253085579"/>
    <nd ref="253085580"/>
    <nd ref="253090632"/>
    <nd ref="253077328"/>
    <tag k="created_by" v="Potlatch 0.7b"/>
    <tag k="highway" v="track"/>
    <tag k="tracktype" v="grade2"/>
  </way>
  <way id="23374269" version="4" timestamp="2008-07-11T11:46:39Z" uid="6269" user="Mueck" changeset="458863">
    <nd ref="253085419"/>
    <nd ref="253085579"/>
    <nd ref="277719549"/>
    <nd ref="253085580"/>
    <nd ref="253090632"/>
    <nd ref="253077328"/>
    <tag k="created_by" v="Potlatch 0.9c"/>
    <tag k="highway" v="track"/>
    <tag k="tracktype" v="grade2"/>
  </way>
  <way id="23374269" version="5" timestamp="2008-07-11T11:46:40Z" uid="6269" user="Mueck" changeset="458863">
    <nd ref="253085419"/>
    <nd ref="253085579"/>
    <nd ref="277719549"/>
    <tag k="created_by" v="Potlatch 0.9c"/>
    <tag k="highway" v="track"/>
    <tag k="tracktype" v="grade2"/>
  </way>
  <way id="23374269" version="6" timestamp="2012-01-19T21:13:16Z" uid="91490" user="Heinz_V" changeset="10441318"/>
  <way id="23374345" version="2" timestamp="2010-07-08T02:10:34Z" uid="74617" user="JohnSmith" changeset="5162525">
    <nd ref="253086246"/>
    <nd ref="253086247"/>
    <nd ref="253086248"/>
    <nd ref="253086249"/>
    <tag k="highway" v="residential"/>
    <tag k="maxspeed" v="50"/>
    <tag k="maxspeed:source" v="default residential speed limit in Australia"/>
    <tag k="name" v="Wolaroi Crescent"/>
  </way>
  <way id="23374345" version="3" timestamp="2012-01-16T03:24:06Z" uid="147510" user="woodpeck_fixbot" changeset="10405303">
    <nd ref="253086246"/>
    <nd ref="253086247"/>
    <nd ref="253086248"/>
    <nd ref="253086249"/>
    <tag k="highway" v="residential"/>
    <tag k="name" v="Wolaroi Crescent"/>
  </way>
  <way id="23374346" version="2" timestamp="2010-07-08T02:08:39Z" uid="74617" user="JohnSmith" changeset="5162525">
    <nd ref="253086251"/>
    <nd ref="253086252"/>
    <tag k="highway" v="residential"/>
    <tag k="maxspeed" v="50"/>
    <tag k="maxspeed:source" v="default residential speed limit in Australia"/>
    <tag k="name" v="Mackenzie Street"/>
  </way>
  <way id="23374346" version="3" timestamp="2011-02-17T03:13:58Z" uid="74275" user="behemoth14" changeset="7309625">
    <nd ref="253086251"/>
    <nd ref="1157125430"/>
    <nd ref="253086252"/>
    <tag k="highway" v="residential"/>
    <tag k="maxspeed" v="50"/>
    <tag k="maxspeed:source" v="default residential speed limit in Australia"/>
    <tag k="name" v="Mackenzie Street"/>
  </way>
  <way id="23374346" version="4" timestamp="2012-01-16T03:24:08Z" uid="147510" user="woodpeck_fixbot" changeset="10405303">
    <nd ref="253086251"/>
    <nd ref="1157125430"/>
    <nd ref="253086252"/>
    <tag k="highway" v="residential"/>
    <tag k="name" v="Mackenzie Street"/>
  </way>
  <way id="23374390" version="2" timestamp="2010-07-08T02:08:32Z" uid="74617" user="JohnSmith" changeset="5162525">
    <nd ref="253086420"/>
    <nd ref="253086431"/>
    <nd ref="253086432"/>
    <tag k="highway" v="residential"/>
    <tag k="maxspeed" v="50"/>
    <tag k="maxspeed:source" v="default residential speed limit in Australia"/>
    <tag k="name" v="Snowsill Avenue"/>
  </way>
  <way id="23374390" version="3" timestamp="2012-01-16T03:24:10Z" uid="147510" user="woodpeck_fixbot" changeset="10405303">
    <nd ref="253086420"/>
    <nd ref="253086431"/>
    <nd ref="253086432"/>
    <tag k="highway" v="residential"/>
    <tag k="name" v="Snowsill Avenue"/>
  </way>
  <way id="23374397" version="2" timestamp="2010-07-08T02:12:59Z" uid="74617" user="JohnSmith" changeset="5162525">
    <nd ref="253086433"/>
    <nd ref="253086458"/>
    <nd ref="253086459"/>
    <nd ref="253086460"/>
    <tag k="highway" v="residential"/>
    <tag k="maxspeed" v="50"/>
    <tag k="maxspeed:source" v="default residential speed limit in Australia"/>
    <tag k="name" v="Atkinson Avenue"/>
  </way>
  <way id="23374397" version="3" timestamp="2012-01-16T03:24:11Z" uid="147510" user="woodpeck_fixbot" changeset="10405303">
    <nd ref="253086433"/>
    <nd ref="253086458"/>
    <nd ref="253086459"/>
    <nd ref="253086460"/>
    <tag k="highway" v="residential"/>
    <tag k="name" v="Atkinson Avenue"/>
  </way>
  <way id="23374401" version="2" timestamp="2010-07-08T02:07:05Z" uid="74617" user="JohnSmith" changeset="5162525">
    <nd ref="253086461"/>
    <nd ref="253086462"/>
    <tag k="highway" v="residential"/>
    <tag k="maxspeed" v="50"/>
    <tag k="maxspeed:source" v="default residential speed limit in Australia"/>
    <tag k="name" v="Stiles Avenue"/>
  </way>
  <way id="23374401" version="3" timestamp="2012-01-16T03:24:12Z" uid="147510" user="woodpeck_fixbot" changeset="10405303">
    <nd ref="253086461"/>
    <nd ref="253086462"/>
    <tag k="highway" v="residential"/>
    <tag k="name" v="Stiles Avenue"/>
  </way>
  <way id="23374406" version="2" timestamp="2010-07-08T02:10:06Z" uid="74617" user="JohnSmith" changeset="5162525">
    <nd ref="253086463"/>
    <nd ref="253086477"/>
    <nd ref="253086432"/>
    <nd ref="253086478"/>
    <nd ref="253086479"/>
    <nd ref="253086480"/>
    <tag k="highway" v="residential"/>
    <tag k="maxspeed" v="50"/>
    <tag k="maxspeed:source" v="default residential speed limit in Australia"/>
    <tag k="name" v="Napoli Street"/>
  </way>
  <way id="23374406" version="3" timestamp="2012-01-16T03:24:13Z" uid="147510" user="woodpeck_fixbot" changeset="10405303">
    <nd ref="253086463"/>
    <nd ref="253086477"/>
    <nd ref="253086432"/>
    <nd ref="253086478"/>
    <nd ref="253086479"/>
    <nd ref="253086480"/>
    <tag k="highway" v="residential"/>
    <tag k="name" v="Napoli Street"/>
  </way>
  <way id="23374408" version="3" timestamp="2010-07-08T02:13:46Z" uid="74617" user="JohnSmith" changeset="5162525">
    <nd ref="253086488"/>
    <nd ref="253086480"/>
    <nd ref="253086523"/>
    <nd ref="253086489"/>
    <tag k="highway" v="residential"/>
    <tag k="maxspeed" v="50"/>
    <tag k="maxspeed:source" v="default residential speed limit in Australia"/>
    <tag k="name" v="Lachlan Street"/>
  </way>
  <way id="23374408" version="4" timestamp="2012-01-16T03:24:17Z" uid="147510" user="woodpeck_fixbot" changeset="10405303">
    <nd ref="253086488"/>
    <nd ref="253086480"/>
    <nd ref="253086523"/>
    <nd ref="253086489"/>
    <tag k="highway" v="residential"/>
    <tag k="name" v="Lachlan Street"/>
  </way>
  <way id="23374415" version="2" timestamp="2008-04-06T06:14:49Z" uid="30201" user="rrankin" changeset="64490">
    <nd ref="253086523"/>
    <nd ref="253086571"/>
    <tag k="created_by" v="Potlatch 0.7b"/>
    <tag k="highway" v="residential"/>
    <tag k="name" v="Lachlan Street"/>
  </way>
  <way id="23374415" version="3" timestamp="2010-07-08T02:08:47Z" uid="74617" user="JohnSmith" changeset="5162525">
    <nd ref="253086523"/>
    <nd ref="253086571"/>
    <tag k="highway" v="residential"/>
    <tag k="maxspeed" v="50"/>
    <tag k="maxspeed:source" v="default residential speed limit in Australia"/>
    <tag k="name" v="Lachlan Street"/>
  </way>
  <way id="23374415" version="4" timestamp="2012-01-16T03:24:18Z" uid="147510" user="woodpeck_fixbot" changeset="10405303">
    <nd ref="253086523"/>
    <nd ref="253086571"/>
    <tag k="highway" v="residential"/>
    <tag k="name" v="Lachlan Street"/>
  </way>
  <way id="23374432" version="2" timestamp="2010-01-18T12:12:20Z" uid="30201" user="rrankin" changeset="3649712">
    <nd ref="253086733"/>
    <nd ref="616194540"/>
    <nd ref="253086740"/>
    <nd ref="253086741"/>
    <nd ref="253086742"/>
    <tag k="highway" v="residential"/>
    <tag k="name" v="Mavis Street"/>
  </way>
  <way id="23374432" version="3" timestamp="2010-07-08T02:07:17Z" uid="74617" user="JohnSmith" changeset="5162525">
    <nd ref="253086733"/>
    <nd ref="616194540"/>
    <nd ref="253086740"/>
    <nd ref="253086741"/>
    <nd ref="253086742"/>
    <tag k="highway" v="residential"/>
    <tag k="maxspeed" v="50"/>
    <tag k="maxspeed:source" v="default residential speed limit in Australia"/>
    <tag k="name" v="Mavis Street"/>
  </way>
  <way id="23374432" version="4" timestamp="2012-01-16T03:24:20Z" uid="147510" user="woodpeck_fixbot" changeset="10405303">
    <nd ref="253086733"/>
    <nd ref="616194540"/>
    <nd ref="253086740"/>
    <nd ref="253086741"/>
    <nd ref="253086742"/>
    <tag k="highway" v="residential"/>
    <tag k="name" v="Mavis Street"/>
  </way>
  <way id="23374446" version="4" timestamp="2010-01-18T12:12:22Z" uid="30201" user="rrankin" changeset="3649712">
    <nd ref="253086805"/>
    <nd ref="616194548"/>
    <nd ref="253086817"/>
    <nd ref="253088106"/>
    <nd ref="253088044"/>
    <nd ref="253086818"/>
    <tag k="highway" v="residential"/>
    <tag k="name" v="Claribel Street"/>
  </way>
  <way id="23374446" version="5" timestamp="2010-07-08T02:08:58Z" uid="74617" user="JohnSmith" changeset="5162525">
    <nd ref="253086805"/>
    <nd ref="616194548"/>
    <nd ref="253086817"/>
    <nd ref="253088106"/>
    <nd ref="253088044"/>
    <nd ref="253086818"/>
    <tag k="highway" v="residential"/>
    <tag k="maxspeed" v="50"/>
    <tag k="maxspeed:source" v="default residential speed limit in Australia"/>
    <tag k="name" v="Claribel Street"/>
  </way>
  <way id="23374446" version="6" timestamp="2012-01-16T03:24:21Z" uid="147510" user="woodpeck_fixbot" changeset="10405303">
    <nd ref="253086805"/>
    <nd ref="616194548"/>
    <nd ref="253086817"/>
    <nd ref="253088106"/>
    <nd ref="253088044"/>
    <nd ref="253086818"/>
    <tag k="highway" v="residential"/>
    <tag k="name" v="Claribel Street"/>
  </way>
  <way id="23374453" version="2" timestamp="2010-01-13T05:37:58Z" uid="30201" user="rrankin" changeset="3607827">
    <nd ref="253086873"/>
    <nd ref="253086818"/>
    <nd ref="612764896"/>
    <tag k="highway" v="residential"/>
    <tag k="name" v="Gallipoli Street"/>
  </way>
  <way id="23374453" version="3" timestamp="2010-07-08T02:09:46Z" uid="74617" user="JohnSmith" changeset="5162525">
    <nd ref="253086873"/>
    <nd ref="253086818"/>
    <nd ref="612764896"/>
    <tag k="highway" v="residential"/>
    <tag k="maxspeed" v="50"/>
    <tag k="maxspeed:source" v="default residential speed limit in Australia"/>
    <tag k="name" v="Gallipoli Street"/>
  </way>
  <way id="23374453" version="4" timestamp="2012-01-16T03:24:23Z" uid="147510" user="woodpeck_fixbot" changeset="10405303">
    <nd ref="253086873"/>
    <nd ref="253086818"/>
    <nd ref="612764896"/>
    <tag k="highway" v="residential"/>
    <tag k="name" v="Gallipoli Street"/>
  </way>
  <way id="23374557" version="11" timestamp="2009-11-27T22:58:06Z" uid="30201" user="rrankin" changeset="3232479">
    <nd ref="26429344"/>
    <nd ref="253088325"/>
    <nd ref="253087601"/>
    <nd ref="253088073"/>
    <nd ref="253087602"/>
    <nd ref="253086874"/>
    <nd ref="253087603"/>
    <nd ref="253087604"/>
    <nd ref="253087605"/>
    <nd ref="253087606"/>
    <nd ref="253087607"/>
    <nd ref="253087608"/>
    <nd ref="253824218"/>
    <nd ref="253087609"/>
    <nd ref="253087610"/>
    <nd ref="253824670"/>
    <nd ref="253824118"/>
    <nd ref="253824628"/>
    <nd ref="35681181"/>
    <nd ref="35681164"/>
    <tag k="highway" v="tertiary"/>
    <tag k="name" v="Elridge Road"/>
  </way>
  <way id="23374557" version="12" timestamp="2010-01-13T05:37:58Z" uid="30201" user="rrankin" changeset="3607827">
    <nd ref="26429344"/>
    <nd ref="253088325"/>
    <nd ref="612764913"/>
    <tag k="highway" v="tertiary"/>
    <tag k="name" v="Elridge Road"/>
  </way>
  <way id="23374595" version="2" timestamp="2010-06-02T13:33:57Z" uid="4467" user="Rosscoe" changeset="4884139">
    <nd ref="253088044"/>
    <nd ref="253088073"/>
    <tag k="created_by" v="Potlatch 0.7b"/>
    <tag k="highway" v="residential"/>
    <tag k="name" v="Artegall Street"/>
  </way>
  <way id="23374595" version="3" timestamp="2010-07-08T02:11:32Z" uid="74617" user="JohnSmith" changeset="5162525">
    <nd ref="253088044"/>
    <nd ref="253088073"/>
    <tag k="highway" v="residential"/>
    <tag k="maxspeed" v="50"/>
    <tag k="maxspeed:source" v="default residential speed limit in Australia"/>
    <tag k="name" v="Artegall Street"/>
  </way>
  <way id="23374595" version="4" timestamp="2012-01-16T03:24:24Z" uid="147510" user="woodpeck_fixbot" changeset="10405303">
    <nd ref="253088044"/>
    <nd ref="253088073"/>
    <tag k="highway" v="residential"/>
    <tag k="name" v="Artegall Street"/>
  </way>
  <way id="23374603" version="6" timestamp="2010-01-13T05:37:58Z" uid="30201" user="rrankin" changeset="3607827">
    <nd ref="253088105"/>
    <nd ref="253088106"/>
    <nd ref="253088179"/>
    <nd ref="253088107"/>
    <nd ref="612764918"/>
    <tag k="highway" v="residential"/>
    <tag k="name" v="Northam Avenue"/>
  </way>
  <way id="23374603" version="7" timestamp="2010-07-08T02:07:18Z" uid="74617" user="JohnSmith" changeset="5162525">
    <nd ref="253088105"/>
    <nd ref="253088106"/>
    <nd ref="253088179"/>
    <nd ref="253088107"/>
    <nd ref="612764918"/>
    <tag k="highway" v="residential"/>
    <tag k="maxspeed" v="50"/>
    <tag k="maxspeed:source" v="default residential speed limit in Australia"/>
    <tag k="name" v="Northam Avenue"/>
  </way>
  <way id="23374603" version="8" timestamp="2012-01-16T03:24:25Z" uid="147510" user="woodpeck_fixbot" changeset="10405303">
    <nd ref="253088105"/>
    <nd ref="253088106"/>
    <nd ref="253088179"/>
    <nd ref="253088107"/>
    <nd ref="612764918"/>
    <tag k="highway" v="residential"/>
    <tag k="name" v="Northam Avenue"/>
  </way>
  <way id="23374607" version="8" timestamp="2010-05-12T07:59:39Z" uid="4467" user="Rosscoe" changeset="4675041">
    <nd ref="253087601"/>
    <nd ref="253088386"/>
    <nd ref="253088108"/>
    <nd ref="730577854"/>
    <tag k="highway" v="tertiary"/>
    <tag k="name" v="Northam Avenue"/>
  </way>
  <way id="23374609" version="6" timestamp="2008-04-06T08:32:36Z" uid="30201" user="rrankin" changeset="64490">
    <nd ref="253088110"/>
    <nd ref="255962654"/>
    <nd ref="253088111"/>
    <nd ref="255963060"/>
    <nd ref="255962640"/>
    <nd ref="253088112"/>
    <nd ref="255963589"/>
    <nd ref="256006389"/>
    <tag k="created_by" v="Potlatch 0.8a"/>
    <tag k="highway" v="residential"/>
    <tag k="name" v="Northam Avenue"/>
  </way>
  <way id="23374609" version="7" timestamp="2010-07-08T02:12:03Z" uid="74617" user="JohnSmith" changeset="5162525">
    <nd ref="253088110"/>
    <nd ref="255962654"/>
    <nd ref="253088111"/>
    <nd ref="255963060"/>
    <nd ref="255962640"/>
    <nd ref="253088112"/>
    <nd ref="255963589"/>
    <nd ref="256006389"/>
    <tag k="highway" v="residential"/>
    <tag k="maxspeed" v="50"/>
    <tag k="maxspeed:source" v="default residential speed limit in Australia"/>
    <tag k="name" v="Northam Avenue"/>
  </way>
  <way id="23374609" version="8" timestamp="2010-12-17T22:54:34Z" uid="7617" user="Franc" changeset="6691712">
    <nd ref="253088110"/>
    <nd ref="255962654"/>
    <nd ref="253088111"/>
    <nd ref="255963060"/>
    <nd ref="255962640"/>
    <nd ref="253088112"/>
    <nd ref="1043940751"/>
    <nd ref="255963589"/>
    <nd ref="256006389"/>
    <tag k="highway" v="residential"/>
    <tag k="maxspeed" v="50"/>
    <tag k="maxspeed:source" v="default residential speed limit in Australia"/>
    <tag k="name" v="Northam Avenue"/>
  </way>
  <way id="23374609" version="9" timestamp="2010-12-18T01:23:03Z" uid="7617" user="Franc" changeset="6692439">
    <nd ref="1044160342"/>
    <nd ref="255962654"/>
    <nd ref="253088111"/>
    <nd ref="255963060"/>
    <nd ref="255962640"/>
    <nd ref="253088112"/>
    <nd ref="1043940751"/>
    <nd ref="255963589"/>
    <nd ref="256006389"/>
    <tag k="highway" v="residential"/>
    <tag k="maxspeed" v="50"/>
    <tag k="maxspeed:source" v="default residential speed limit in Australia"/>
    <tag k="name" v="Northam Avenue"/>
  </way>
  <way id="23374609" version="10" timestamp="2010-12-18T01:54:32Z" uid="7617" user="Franc" changeset="6692530">
    <nd ref="1044160342"/>
    <nd ref="255962654"/>
    <nd ref="253088111"/>
    <nd ref="255963060"/>
    <nd ref="255962640"/>
    <nd ref="253088112"/>
    <nd ref="1043940751"/>
    <nd ref="255963589"/>
    <tag k="highway" v="residential"/>
    <tag k="maxspeed" v="50"/>
    <tag k="maxspeed:source" v="default residential speed limit in Australia"/>
    <tag k="name" v="Northam Avenue"/>
  </way>
  <way id="23374609" version="11" timestamp="2012-01-16T03:24:27Z" uid="147510" user="woodpeck_fixbot" changeset="10405303">
    <nd ref="1044160342"/>
    <nd ref="255962654"/>
    <nd ref="253088111"/>
    <nd ref="255963060"/>
    <nd ref="255962640"/>
    <nd ref="253088112"/>
    <nd ref="1043940751"/>
    <nd ref="255963589"/>
    <tag k="highway" v="residential"/>
    <tag k="name" v="Northam Avenue"/>
  </way>
  <way id="23374610" version="2" timestamp="2010-01-18T12:12:26Z" uid="30201" user="rrankin" changeset="3649712"/>
  <way id="23374626" version="2" timestamp="2010-12-28T11:27:57Z" uid="7617" user="Franc" changeset="6787101">
    <nd ref="253088178"/>
    <nd ref="1069008104"/>
    <nd ref="253088239"/>
    <tag k="highway" v="service"/>
    <tag k="name" v="Calidore Lane"/>
  </way>
  <way id="23374630" version="2" timestamp="2010-01-13T05:37:58Z" uid="30201" user="rrankin" changeset="3607827">
    <nd ref="612764905"/>
    <nd ref="253088262"/>
    <tag k="highway" v="residential"/>
    <tag k="name" v="Antwerp Street"/>
  </way>
  <way id="23374630" version="3" timestamp="2010-02-27T23:39:04Z" uid="152043" user="elieb" changeset="3993759">
    <nd ref="612764905"/>
    <nd ref="655433947"/>
    <nd ref="655433948"/>
    <nd ref="253088262"/>
    <tag k="highway" v="residential"/>
    <tag k="name" v="Antwerp Street"/>
  </way>
  <way id="23374630" version="4" timestamp="2010-07-08T02:09:44Z" uid="74617" user="JohnSmith" changeset="5162525">
    <nd ref="612764905"/>
    <nd ref="655433947"/>
    <nd ref="655433948"/>
    <nd ref="253088262"/>
    <tag k="highway" v="residential"/>
    <tag k="maxspeed" v="50"/>
    <tag k="maxspeed:source" v="default residential speed limit in Australia"/>
    <tag k="name" v="Antwerp Street"/>
  </way>
  <way id="23374630" version="5" timestamp="2010-12-18T01:54:28Z" uid="7617" user="Franc" changeset="6692530">
    <nd ref="612764905"/>
    <nd ref="1044186794"/>
    <tag k="highway" v="residential"/>
    <tag k="maxspeed" v="50"/>
    <tag k="maxspeed:source" v="default residential speed limit in Australia"/>
    <tag k="name" v="Antwerp Street"/>
    <tag k="restriction" v="school_zone"/>
  </way>
  <way id="23374630" version="6" timestamp="2012-01-16T03:24:30Z" uid="147510" user="woodpeck_fixbot" changeset="10405303">
    <nd ref="612764905"/>
    <nd ref="1044186794"/>
    <tag k="highway" v="residential"/>
    <tag k="name" v="Antwerp Street"/>
    <tag k="restriction" v="school_zone"/>
  </way>
  <way id="23374633" version="15" timestamp="2008-11-26T02:02:06Z" uid="6975" user="ulfl" changeset="794829">
    <nd ref="253088275"/>
    <nd ref="253088278"/>
    <nd ref="253088279"/>
    <nd ref="253088280"/>
    <nd ref="253088281"/>
    <nd ref="303903661"/>
    <nd ref="253088282"/>
    <nd ref="253088283"/>
    <nd ref="269152396"/>
    <tag k="highway" v="secondary"/>
    <tag k="name" v="Route de Préverenges"/>
    <tag k="nat_ref" v="135"/>
    <tag k="rcrc_ref" v="79b"/>
  </way>
  <way id="23374633" version="16" timestamp="2009-07-24T20:22:09Z" uid="108245" user="Daniel Ribagnac" changeset="1929086">
    <nd ref="253088275"/>
    <nd ref="253088278"/>
    <nd ref="253088279"/>
    <nd ref="253088280"/>
    <nd ref="253088281"/>
    <nd ref="303903661"/>
    <nd ref="253088282"/>
    <nd ref="253088283"/>
    <nd ref="447545469"/>
    <nd ref="269152396"/>
    <tag k="highway" v="secondary"/>
    <tag k="name" v="Route de Préverenges"/>
    <tag k="nat_ref" v="135"/>
    <tag k="rcrc_ref" v="79b"/>
  </way>
  <way id="23374633" version="17" timestamp="2009-09-28T13:30:56Z" uid="178986" user="refbotCH" changeset="2664658">
    <nd ref="253088275"/>
    <nd ref="253088278"/>
    <nd ref="253088279"/>
    <nd ref="253088280"/>
    <nd ref="253088281"/>
    <nd ref="303903661"/>
    <nd ref="253088282"/>
    <nd ref="253088283"/>
    <nd ref="447545469"/>
    <nd ref="269152396"/>
    <tag k="highway" v="secondary"/>
    <tag k="name" v="Route de Préverenges"/>
    <tag k="rcrc_ref" v="79b"/>
    <tag k="ref" v="135"/>
  </way>
  <way id="23374633" version="18" timestamp="2011-02-03T22:53:47Z" uid="74847" user="Marc Mongenet" changeset="7178924">
    <nd ref="253088275"/>
    <nd ref="253088278"/>
    <nd ref="253088279"/>
    <nd ref="1134585639"/>
    <nd ref="253088280"/>
    <nd ref="253088281"/>
    <nd ref="303903661"/>
    <nd ref="253088282"/>
    <nd ref="253088283"/>
    <nd ref="447545469"/>
    <nd ref="269152396"/>
    <tag k="highway" v="secondary"/>
    <tag k="name" v="Route de Préverenges"/>
    <tag k="rcrc_ref" v="79b"/>
    <tag k="ref" v="135"/>
  </way>
  <way id="23374633" version="19" timestamp="2011-10-19T21:08:23Z" uid="74847" user="Marc Mongenet" changeset="9604043">
    <nd ref="253088275"/>
    <nd ref="253088278"/>
    <nd ref="253088279"/>
    <nd ref="1134585639"/>
    <nd ref="253088280"/>
    <nd ref="1473431804"/>
    <nd ref="253088281"/>
    <nd ref="303903661"/>
    <nd ref="1473431785"/>
    <nd ref="253088282"/>
    <nd ref="1473431767"/>
    <nd ref="253088283"/>
    <nd ref="447545469"/>
    <nd ref="269152396"/>
    <tag k="highway" v="secondary"/>
    <tag k="name" v="Route de Préverenges"/>
    <tag k="rcrc_ref" v="79b"/>
    <tag k="ref" v="135"/>
  </way>
  <way id="23374638" version="4" timestamp="2010-12-18T01:22:46Z" uid="7617" user="Franc" changeset="6692439">
    <nd ref="253088302"/>
    <nd ref="253088303"/>
    <nd ref="253088304"/>
    <nd ref="253088305"/>
    <nd ref="1044160420"/>
    <nd ref="1044160567"/>
    <nd ref="655435602"/>
    <nd ref="1044160314"/>
    <nd ref="253088306"/>
    <nd ref="253088307"/>
    <nd ref="253088308"/>
    <nd ref="253088309"/>
    <nd ref="253088310"/>
    <nd ref="253088311"/>
    <nd ref="253088302"/>
    <tag k="layer" v="-2"/>
    <tag k="leisure" v="park"/>
    <tag k="name" v="Bankstown City Sports Complex"/>
  </way>
  <way id="23374641" version="14" timestamp="2008-11-26T02:01:21Z" uid="6975" user="ulfl" changeset="794829">
    <nd ref="253088275"/>
    <nd ref="281648649"/>
    <nd ref="312469233"/>
    <nd ref="253088313"/>
    <nd ref="253088314"/>
    <nd ref="289467872"/>
    <nd ref="253088315"/>
    <nd ref="289467979"/>
    <nd ref="252989646"/>
    <tag k="highway" v="secondary"/>
    <tag k="name" v="Route de la Gare"/>
    <tag k="nat_ref" v="135"/>
    <tag k="rcrc_ref" v="79b"/>
  </way>
  <way id="23374641" version="15" timestamp="2009-06-04T06:37:00Z" uid="9733" user="stedewa" changeset="1418902">
    <nd ref="253088275"/>
    <nd ref="281648649"/>
    <nd ref="312469233"/>
    <nd ref="253088313"/>
    <nd ref="253088314"/>
    <nd ref="415551607"/>
    <nd ref="415551597"/>
    <nd ref="289467872"/>
    <nd ref="253088315"/>
    <nd ref="289467979"/>
    <nd ref="252989646"/>
    <tag k="highway" v="secondary"/>
    <tag k="name" v="Route de la Gare"/>
    <tag k="nat_ref" v="135"/>
    <tag k="rcrc_ref" v="79b"/>
  </way>
  <way id="23374641" version="16" timestamp="2009-09-28T13:30:56Z" uid="178986" user="refbotCH" changeset="2664658">
    <nd ref="253088275"/>
    <nd ref="281648649"/>
    <nd ref="312469233"/>
    <nd ref="253088313"/>
    <nd ref="253088314"/>
    <nd ref="415551607"/>
    <nd ref="415551597"/>
    <nd ref="289467872"/>
    <nd ref="253088315"/>
    <nd ref="289467979"/>
    <nd ref="252989646"/>
    <tag k="highway" v="secondary"/>
    <tag k="name" v="Route de la Gare"/>
    <tag k="rcrc_ref" v="79b"/>
    <tag k="ref" v="135"/>
  </way>
  <way id="23374642" version="3" timestamp="2010-05-12T07:59:38Z" uid="4467" user="Rosscoe" changeset="4675041">
    <nd ref="253088312"/>
    <nd ref="253088332"/>
    <nd ref="730577860"/>
    <nd ref="730577851"/>
    <tag k="highway" v="residential"/>
    <tag k="name" v="Irvine Street"/>
  </way>
  <way id="23374642" version="4" timestamp="2010-07-08T02:13:16Z" uid="74617" user="JohnSmith" changeset="5162525">
    <nd ref="253088312"/>
    <nd ref="253088332"/>
    <nd ref="730577860"/>
    <nd ref="730577851"/>
    <tag k="highway" v="residential"/>
    <tag k="maxspeed" v="50"/>
    <tag k="maxspeed:source" v="default residential speed limit in Australia"/>
    <tag k="name" v="Irvine Street"/>
  </way>
  <way id="23374642" version="5" timestamp="2012-01-16T03:24:32Z" uid="147510" user="woodpeck_fixbot" changeset="10405303">
    <nd ref="253088312"/>
    <nd ref="253088332"/>
    <nd ref="730577860"/>
    <nd ref="730577851"/>
    <tag k="highway" v="residential"/>
    <tag k="name" v="Irvine Street"/>
  </way>
  <way id="23374644" version="2" timestamp="2010-07-08T02:10:12Z" uid="74617" user="JohnSmith" changeset="5162525">
    <nd ref="253088325"/>
    <nd ref="253088331"/>
    <nd ref="253088332"/>
    <tag k="highway" v="residential"/>
    <tag k="maxspeed" v="50"/>
    <tag k="maxspeed:source" v="default residential speed limit in Australia"/>
    <tag k="name" v="Herbert Street"/>
  </way>
  <way id="23374644" version="3" timestamp="2012-01-16T03:24:35Z" uid="147510" user="woodpeck_fixbot" changeset="10405303">
    <nd ref="253088325"/>
    <nd ref="253088331"/>
    <nd ref="253088332"/>
    <tag k="highway" v="residential"/>
    <tag k="name" v="Herbert Street"/>
  </way>
  <way id="23374653" version="2" timestamp="2010-07-08T02:08:52Z" uid="74617" user="JohnSmith" changeset="5162525">
    <nd ref="253088331"/>
    <nd ref="253088386"/>
    <tag k="highway" v="residential"/>
    <tag k="maxspeed" v="50"/>
    <tag k="maxspeed:source" v="default residential speed limit in Australia"/>
    <tag k="name" v="Arthur Street"/>
  </way>
  <way id="23374653" version="3" timestamp="2012-01-16T03:24:38Z" uid="147510" user="woodpeck_fixbot" changeset="10405303">
    <nd ref="253088331"/>
    <nd ref="253088386"/>
    <tag k="highway" v="residential"/>
    <tag k="name" v="Arthur Street"/>
  </way>
  <way id="23374654" version="2" timestamp="2010-07-08T02:06:53Z" uid="74617" user="JohnSmith" changeset="5162525">
    <nd ref="26429342"/>
    <nd ref="253088388"/>
    <nd ref="253088389"/>
    <tag k="highway" v="residential"/>
    <tag k="maxspeed" v="50"/>
    <tag k="maxspeed:source" v="default residential speed limit in Australia"/>
    <tag k="name" v="Edward Street"/>
  </way>
  <way id="23374654" version="3" timestamp="2012-01-16T03:24:40Z" uid="147510" user="woodpeck_fixbot" changeset="10405303">
    <nd ref="26429342"/>
    <nd ref="253088388"/>
    <nd ref="253088389"/>
    <tag k="highway" v="residential"/>
    <tag k="name" v="Edward Street"/>
  </way>
  <way id="23374656" version="2" timestamp="2010-07-08T02:06:47Z" uid="74617" user="JohnSmith" changeset="5162525">
    <nd ref="253088400"/>
    <nd ref="253088401"/>
    <tag k="highway" v="residential"/>
    <tag k="maxspeed" v="50"/>
    <tag k="maxspeed:source" v="default residential speed limit in Australia"/>
    <tag k="name" v="High Street"/>
  </way>
  <way id="23374656" version="3" timestamp="2010-12-18T01:23:01Z" uid="7617" user="Franc" changeset="6692439">
    <nd ref="253088400"/>
    <nd ref="1044160441"/>
    <nd ref="253088401"/>
    <tag k="highway" v="residential"/>
    <tag k="maxspeed" v="50"/>
    <tag k="maxspeed:source" v="default residential speed limit in Australia"/>
    <tag k="name" v="High Street"/>
  </way>
  <way id="23374656" version="4" timestamp="2012-01-16T03:24:42Z" uid="147510" user="woodpeck_fixbot" changeset="10405303">
    <nd ref="253088400"/>
    <nd ref="1044160441"/>
    <nd ref="253088401"/>
    <tag k="highway" v="residential"/>
    <tag k="name" v="High Street"/>
  </way>
  <way id="23374700" version="8" timestamp="2008-11-26T02:00:28Z" uid="6975" user="ulfl" changeset="794829">
    <nd ref="252986198"/>
    <nd ref="252986174"/>
    <tag k="highway" v="secondary"/>
    <tag k="name" v="Tir Fédéral"/>
    <tag k="nat_ref" v="136"/>
    <tag k="rcrc_ref" v="82b"/>
  </way>
  <way id="23374700" version="9" timestamp="2008-12-19T18:42:57Z" uid="74847" user="Marc Mongenet" changeset="477972">
    <nd ref="260554642"/>
    <nd ref="252986198"/>
    <nd ref="252986174"/>
    <tag k="highway" v="secondary"/>
    <tag k="name" v="Tir Fédéral"/>
    <tag k="nat_ref" v="136"/>
    <tag k="rcrc_ref" v="82b"/>
  </way>
  <way id="23374700" version="10" timestamp="2008-12-19T18:43:28Z" uid="74847" user="Marc Mongenet" changeset="477972">
    <nd ref="260554642"/>
    <nd ref="252986174"/>
    <tag k="highway" v="secondary"/>
    <tag k="name" v="Tir Fédéral"/>
    <tag k="nat_ref" v="136"/>
    <tag k="rcrc_ref" v="82b"/>
  </way>
  <way id="23374700" version="11" timestamp="2009-03-20T12:27:01Z" uid="17835" user="Stéphane Brunner" changeset="834955">
    <nd ref="260554642"/>
    <nd ref="364060353"/>
    <nd ref="364060458"/>
    <nd ref="252986174"/>
    <tag k="highway" v="secondary"/>
    <tag k="name" v="Tir Fédéral"/>
    <tag k="nat_ref" v="136"/>
    <tag k="rcrc_ref" v="82b"/>
  </way>
  <way id="23374700" version="12" timestamp="2009-08-14T11:11:09Z" uid="17835" user="Stéphane Brunner" changeset="2141489">
    <nd ref="260554642"/>
    <nd ref="364060353"/>
    <nd ref="452425357"/>
    <nd ref="364060458"/>
    <nd ref="252986174"/>
    <tag k="highway" v="secondary"/>
    <tag k="name" v="Tir Fédéral"/>
    <tag k="nat_ref" v="136"/>
    <tag k="rcrc_ref" v="82b"/>
  </way>
  <way id="23374700" version="13" timestamp="2009-09-28T13:30:57Z" uid="178986" user="refbotCH" changeset="2664658">
    <nd ref="260554642"/>
    <nd ref="364060353"/>
    <nd ref="452425357"/>
    <nd ref="364060458"/>
    <nd ref="252986174"/>
    <tag k="highway" v="secondary"/>
    <tag k="name" v="Tir Fédéral"/>
    <tag k="rcrc_ref" v="82b"/>
    <tag k="ref" v="136"/>
  </way>
  <way id="23374700" version="14" timestamp="2010-05-06T09:12:31Z" uid="17835" user="Stéphane Brunner" changeset="4619739">
    <nd ref="260554642"/>
    <nd ref="364060353"/>
    <nd ref="452425357"/>
    <nd ref="364060458"/>
    <nd ref="252986174"/>
    <tag k="highway" v="primary"/>
    <tag k="name" v="Tir Fédéral"/>
    <tag k="rcrc_ref" v="82b"/>
    <tag k="ref" v="136"/>
  </way>
  <way id="23374700" version="15" timestamp="2010-10-05T16:42:56Z" uid="17835" user="Stéphane Brunner" changeset="5962832">
    <nd ref="260554642"/>
    <nd ref="364060353"/>
    <nd ref="452425357"/>
    <nd ref="364060458"/>
    <nd ref="252986174"/>
    <tag k="highway" v="primary"/>
    <tag k="name" v="Avenue du Tir Fédéral"/>
    <tag k="rcrc_ref" v="82b"/>
    <tag k="ref" v="136"/>
  </way>
  <way id="23374700" version="16" timestamp="2011-03-08T21:03:06Z" uid="103273" user="HB9DTX" changeset="7498453">
    <nd ref="260554642"/>
    <nd ref="364060353"/>
    <nd ref="452425357"/>
    <nd ref="364060458"/>
    <nd ref="252986174"/>
    <tag k="highway" v="primary"/>
    <tag k="lit" v="yes"/>
    <tag k="name" v="Avenue du Tir Fédéral"/>
    <tag k="rcrc_ref" v="82b"/>
    <tag k="ref" v="136"/>
  </way>
  <way id="23374700" version="17" timestamp="2011-10-21T22:41:27Z" uid="74847" user="Marc Mongenet" changeset="9620509">
    <nd ref="260554642"/>
    <nd ref="1475413663"/>
    <nd ref="364060353"/>
    <nd ref="452425357"/>
    <nd ref="364060458"/>
    <nd ref="252986174"/>
    <tag k="highway" v="primary"/>
    <tag k="lit" v="yes"/>
    <tag k="name" v="Avenue du Tir Fédéral"/>
    <tag k="rcrc_ref" v="82b"/>
    <tag k="ref" v="136"/>
  </way>
  <way id="23374700" version="18" timestamp="2012-02-21T21:53:41Z" uid="178186" user="mdk" changeset="10754424">
    <nd ref="260554642"/>
    <nd ref="1475413663"/>
    <nd ref="1642346252"/>
    <nd ref="364060353"/>
    <nd ref="452425357"/>
    <nd ref="364060458"/>
    <nd ref="252986174"/>
    <tag k="highway" v="primary"/>
    <tag k="lit" v="yes"/>
    <tag k="name" v="Avenue du Tir Fédéral"/>
    <tag k="rcrc_ref" v="82b"/>
    <tag k="ref" v="136"/>
  </way>
  <way id="23374701" version="10" timestamp="2008-11-26T02:00:26Z" uid="6975" user="ulfl" changeset="794829">
    <nd ref="252986197"/>
    <nd ref="260554642"/>
    <nd ref="252986198"/>
    <tag k="bridge" v="yes"/>
    <tag k="highway" v="secondary"/>
    <tag k="layer" v="1"/>
    <tag k="name" v="Tir Fédéral"/>
    <tag k="nat_ref" v="136"/>
    <tag k="rcrc_ref" v="82b"/>
  </way>
  <way id="23374701" version="11" timestamp="2008-12-19T18:42:57Z" uid="74847" user="Marc Mongenet" changeset="477972">
    <nd ref="252986197"/>
    <nd ref="260554642"/>
    <tag k="bridge" v="yes"/>
    <tag k="highway" v="secondary"/>
    <tag k="layer" v="1"/>
    <tag k="name" v="Tir Fédéral"/>
    <tag k="nat_ref" v="136"/>
    <tag k="rcrc_ref" v="82b"/>
  </way>
  <way id="23374701" version="12" timestamp="2009-09-28T13:30:58Z" uid="178986" user="refbotCH" changeset="2664658">
    <nd ref="252986197"/>
    <nd ref="260554642"/>
    <tag k="bridge" v="yes"/>
    <tag k="highway" v="secondary"/>
    <tag k="layer" v="1"/>
    <tag k="name" v="Tir Fédéral"/>
    <tag k="rcrc_ref" v="82b"/>
    <tag k="ref" v="136"/>
  </way>
  <way id="23374701" version="13" timestamp="2010-05-06T09:12:28Z" uid="17835" user="Stéphane Brunner" changeset="4619739">
    <nd ref="252986197"/>
    <nd ref="260554642"/>
    <tag k="bridge" v="yes"/>
    <tag k="highway" v="primary"/>
    <tag k="layer" v="1"/>
    <tag k="name" v="Tir Fédéral"/>
    <tag k="rcrc_ref" v="82b"/>
    <tag k="ref" v="136"/>
  </way>
  <way id="23374701" version="14" timestamp="2010-10-05T16:42:55Z" uid="17835" user="Stéphane Brunner" changeset="5962832">
    <nd ref="252986197"/>
    <nd ref="260554642"/>
    <tag k="bridge" v="yes"/>
    <tag k="highway" v="primary"/>
    <tag k="layer" v="1"/>
    <tag k="name" v="Avenue du Tir Fédéral"/>
    <tag k="rcrc_ref" v="82b"/>
    <tag k="ref" v="136"/>
  </way>
  <way id="23374701" version="15" timestamp="2011-03-08T21:03:13Z" uid="103273" user="HB9DTX" changeset="7498453">
    <nd ref="252986197"/>
    <nd ref="260554642"/>
    <tag k="bridge" v="yes"/>
    <tag k="highway" v="primary"/>
    <tag k="layer" v="1"/>
    <tag k="lit" v="yes"/>
    <tag k="name" v="Avenue du Tir Fédéral"/>
    <tag k="rcrc_ref" v="82b"/>
    <tag k="ref" v="136"/>
  </way>
  <way id="23374726" version="10" timestamp="2008-11-26T01:59:39Z" uid="6975" user="ulfl" changeset="794829">
    <nd ref="20934832"/>
    <nd ref="20934833"/>
    <nd ref="253088695"/>
    <nd ref="252986197"/>
    <tag k="highway" v="secondary"/>
    <tag k="name" v="Route de Pont-Bleu"/>
    <tag k="nat_ref" v="136"/>
    <tag k="rcrc_ref" v="82b"/>
  </way>
  <way id="23374726" version="11" timestamp="2009-02-01T17:50:55Z" uid="9733" user="stedewa" changeset="28281">
    <nd ref="20934832"/>
    <nd ref="20934833"/>
    <nd ref="339790852"/>
    <nd ref="253088695"/>
    <nd ref="252986197"/>
    <tag k="created_by" v="Potlatch 0.10f"/>
    <tag k="highway" v="secondary"/>
    <tag k="name" v="Route de Pont-Bleu"/>
    <tag k="nat_ref" v="136"/>
    <tag k="rcrc_ref" v="82b"/>
  </way>
  <way id="23374726" version="12" timestamp="2009-02-01T17:54:19Z" uid="9733" user="stedewa" changeset="28281">
    <nd ref="20934832"/>
    <nd ref="20934833"/>
    <nd ref="339793321"/>
    <nd ref="339790852"/>
    <nd ref="253088695"/>
    <nd ref="252986197"/>
    <tag k="created_by" v="Potlatch 0.10f"/>
    <tag k="highway" v="secondary"/>
    <tag k="name" v="Route de Pont-Bleu"/>
    <tag k="nat_ref" v="136"/>
    <tag k="rcrc_ref" v="82b"/>
  </way>
  <way id="23374726" version="13" timestamp="2009-03-03T20:24:08Z" uid="17835" user="Stéphane Brunner" changeset="730362">
    <nd ref="319404161"/>
    <nd ref="20934832"/>
    <nd ref="20934833"/>
    <nd ref="339793321"/>
    <nd ref="339790852"/>
    <nd ref="253088695"/>
    <nd ref="252986197"/>
    <tag k="created_by" v="Potlatch 0.10f"/>
    <tag k="highway" v="secondary"/>
    <tag k="name" v="Route de Pont-Bleu"/>
    <tag k="nat_ref" v="136"/>
    <tag k="rcrc_ref" v="82b"/>
  </way>
  <way id="23374726" version="14" timestamp="2009-05-01T21:42:19Z" uid="74847" user="Marc Mongenet" changeset="1042744">
    <nd ref="319404161"/>
    <nd ref="388419943"/>
    <nd ref="20934832"/>
    <nd ref="388419944"/>
    <nd ref="20934833"/>
    <nd ref="339793321"/>
    <nd ref="339790852"/>
    <nd ref="253088695"/>
    <nd ref="252986197"/>
    <tag k="created_by" v="Potlatch 0.10f"/>
    <tag k="highway" v="secondary"/>
    <tag k="name" v="Route de Pont-Bleu"/>
    <tag k="nat_ref" v="136"/>
    <tag k="rcrc_ref" v="82b"/>
  </way>
  <way id="23374726" version="15" timestamp="2009-09-18T18:15:35Z" uid="17835" user="Stéphane Brunner" changeset="2526999">
    <nd ref="319404161"/>
    <nd ref="500856155"/>
    <nd ref="388419943"/>
    <nd ref="20934832"/>
    <nd ref="388419944"/>
    <nd ref="20934833"/>
    <nd ref="339793321"/>
    <nd ref="339790852"/>
    <nd ref="253088695"/>
    <nd ref="252986197"/>
    <tag k="highway" v="secondary"/>
    <tag k="name" v="Route de Pont-Bleu"/>
    <tag k="nat_ref" v="136"/>
    <tag k="rcrc_ref" v="82b"/>
  </way>
  <way id="23374726" version="16" timestamp="2009-09-28T13:30:59Z" uid="178986" user="refbotCH" changeset="2664658">
    <nd ref="319404161"/>
    <nd ref="500856155"/>
    <nd ref="388419943"/>
    <nd ref="20934832"/>
    <nd ref="388419944"/>
    <nd ref="20934833"/>
    <nd ref="339793321"/>
    <nd ref="339790852"/>
    <nd ref="253088695"/>
    <nd ref="252986197"/>
    <tag k="highway" v="secondary"/>
    <tag k="name" v="Route de Pont-Bleu"/>
    <tag k="rcrc_ref" v="82b"/>
    <tag k="ref" v="136"/>
  </way>
  <way id="23374726" version="17" timestamp="2010-05-06T09:12:28Z" uid="17835" user="Stéphane Brunner" changeset="4619739">
    <nd ref="319404161"/>
    <nd ref="500856155"/>
    <nd ref="388419943"/>
    <nd ref="20934832"/>
    <nd ref="388419944"/>
    <nd ref="20934833"/>
    <nd ref="339793321"/>
    <nd ref="339790852"/>
    <nd ref="253088695"/>
    <nd ref="252986197"/>
    <tag k="highway" v="primary"/>
    <tag k="name" v="Route de Pont-Bleu"/>
    <tag k="rcrc_ref" v="82b"/>
    <tag k="ref" v="136"/>
  </way>
  <way id="23374726" version="18" timestamp="2011-02-06T19:16:00Z" uid="74847" user="Marc Mongenet" changeset="7208311">
    <nd ref="319404161"/>
    <nd ref="500856155"/>
    <nd ref="388419943"/>
    <nd ref="20934832"/>
    <tag k="bridge" v="yes"/>
    <tag k="highway" v="primary"/>
    <tag k="layer" v="1"/>
    <tag k="name" v="Route de Pont-Bleu"/>
    <tag k="rcrc_ref" v="82b"/>
    <tag k="ref" v="136"/>
  </way>
  <way id="23374785" version="4" timestamp="2010-03-27T23:33:16Z" uid="20587" user="balrog-kun" changeset="4250871">
    <nd ref="253089392"/>
    <nd ref="253089391"/>
    <tag k="bridge" v="yes"/>
    <tag k="bridge_ref" v="710/LA/53-1154/UC"/>
    <tag k="highway" v="secondary"/>
    <tag k="is_in:county" v="Los Angeles"/>
    <tag k="is_in:state_code" v="CA"/>
    <tag k="layer" v="2"/>
    <tag k="milepost:county" v="24.97"/>
    <tag k="name" v="Cesar E Chavez Avenue"/>
    <tag k="source" v="survey;image;usgs_imagery"/>
    <tag k="source_ref" v="AM909_DSCS6258"/>
  </way>
  <way id="23374785" version="5" timestamp="2010-07-09T08:35:44Z" uid="82317" user="AM909" changeset="5171928">
    <nd ref="253089392"/>
    <nd ref="253089391"/>
    <tag k="bridge" v="yes"/>
    <tag k="bridge_name" v="Cesar Chavez Ave OC"/>
    <tag k="bridge_ref" v="710/LA/53-1154"/>
    <tag k="highway" v="secondary"/>
    <tag k="is_in:county" v="Los Angeles"/>
    <tag k="is_in:state_code" v="CA"/>
    <tag k="layer" v="2"/>
    <tag k="milepost:county" v="24.97"/>
    <tag k="name" v="Cesar E Chavez Avenue"/>
    <tag k="note" v="Bridge ref pic from I-710 North"/>
    <tag k="source" v="survey;image;usgs_imagery"/>
    <tag k="source:bridge" v="usgs_imagery;survey;image;CDOT"/>
    <tag k="source_ref" v="AM909_DSCS6258"/>
    <tag k="source_ref:bridge" v="AM909_DSCV1709"/>
  </way>
  <way id="23374785" version="6" timestamp="2011-06-26T21:58:01Z" uid="4951" user="PeterIto" changeset="8556991">
    <nd ref="253089392"/>
    <nd ref="253089391"/>
    <tag k="bridge" v="yes"/>
    <tag k="bridge_name" v="Cesar Chavez Ave OC"/>
    <tag k="bridge_ref" v="710/LA/53-1154"/>
    <tag k="highway" v="secondary"/>
    <tag k="is_in:county" v="Los Angeles"/>
    <tag k="is_in:state_code" v="CA"/>
    <tag k="layer" v="1"/>
    <tag k="milepost:county" v="24.97"/>
    <tag k="name" v="Cesar E Chavez Avenue"/>
    <tag k="note" v="Bridge ref pic from I-710 North"/>
    <tag k="source" v="survey;image;usgs_imagery"/>
    <tag k="source:bridge" v="usgs_imagery;survey;image;CDOT"/>
    <tag k="source_ref" v="AM909_DSCS6258"/>
    <tag k="source_ref:bridge" v="AM909_DSCV1709"/>
  </way>
  <way id="23374786" version="7" timestamp="2010-03-27T23:33:16Z" uid="20587" user="balrog-kun" changeset="4250871">
    <nd ref="253089391"/>
    <nd ref="76460270"/>
    <nd ref="123022169"/>
    <nd ref="36220523"/>
    <nd ref="123489564"/>
    <nd ref="253089394"/>
    <nd ref="122843189"/>
    <nd ref="123489563"/>
    <nd ref="123489561"/>
    <nd ref="123489560"/>
    <nd ref="253080112"/>
    <nd ref="123254666"/>
    <nd ref="123144596"/>
    <nd ref="123489559"/>
    <nd ref="122749470"/>
    <nd ref="123489557"/>
    <nd ref="123489554"/>
    <nd ref="123209541"/>
    <nd ref="123489551"/>
    <nd ref="123363234"/>
    <nd ref="604117941"/>
    <nd ref="21507165"/>
    <nd ref="21507166"/>
    <nd ref="250233047"/>
    <nd ref="604117940"/>
    <nd ref="123070522"/>
    <nd ref="123455962"/>
    <nd ref="122953712"/>
    <nd ref="122704529"/>
    <nd ref="122996281"/>
    <nd ref="604238536"/>
    <tag k="highway" v="secondary"/>
    <tag k="name" v="Cesar E Chavez Avenue"/>
    <tag k="old_name" v="Brooklyn Ave"/>
    <tag k="source" v="survey;image;usgs_imagery"/>
    <tag k="source_ref" v="AM909_DSCQ2211"/>
  </way>
  <way id="23374787" version="2" timestamp="2010-03-27T23:33:17Z" uid="20587" user="balrog-kun" changeset="4250871">
    <nd ref="122843189"/>
    <nd ref="122843196"/>
    <tag k="created_by" v="JOSM"/>
    <tag k="highway" v="residential"/>
    <tag k="name" v="Gifford Avenue"/>
    <tag k="tiger:cfcc" v="A41"/>
    <tag k="tiger:county" v="Los Angeles, CA"/>
    <tag k="tiger:name_base" v="Gifford"/>
    <tag k="tiger:name_type" v="Ave"/>
    <tag k="tiger:separated" v="no"/>
    <tag k="tiger:source" v="tiger_import_dch_v0.6_20070809"/>
    <tag k="tiger:tlid" v="141625794:141625796"/>
    <tag k="tiger:zip_left" v="90063"/>
    <tag k="tiger:zip_right" v="90063"/>
  </way>
  <way id="23374787" version="3" timestamp="2011-11-17T23:44:10Z" uid="555738" user="Ginandpop2" changeset="9859194"/>
  <way id="23374789" version="3" timestamp="2010-03-27T23:33:17Z" uid="20587" user="balrog-kun" changeset="4250871">
    <nd ref="122468966"/>
    <nd ref="123480173"/>
    <tag k="bridge" v="yes"/>
    <tag k="highway" v="tertiary"/>
    <tag k="layer" v="2"/>
    <tag k="name" v="East 1st Street"/>
    <tag k="tiger:cfcc" v="A41"/>
    <tag k="tiger:county" v="Los Angeles, CA"/>
    <tag k="tiger:name_base" v="1st"/>
    <tag k="tiger:name_direction_prefix" v="E"/>
    <tag k="tiger:name_type" v="St"/>
    <tag k="tiger:separated" v="no"/>
    <tag k="tiger:source" v="tiger_import_dch_v0.6_20070809"/>
    <tag k="tiger:tlid" v="141637675"/>
  </way>
  <way id="23374789" version="4" timestamp="2010-06-22T12:35:49Z" uid="82317" user="AM909" changeset="5050875">
    <nd ref="122468966"/>
    <nd ref="123480173"/>
    <tag k="bridge" v="yes"/>
    <tag k="bridge_name" v="First Street OC"/>
    <tag k="bridge_ref" v="710/LA/53-1153"/>
    <tag k="highway" v="tertiary"/>
    <tag k="is_in:state_code" v="CA"/>
    <tag k="layer" v="2"/>
    <tag k="milepost:county" v="24.73"/>
    <tag k="name" v="East 1st Street"/>
    <tag k="note" v="Bridge ref pic from I-710 South"/>
    <tag k="source:bridge" v="usgs_imagery;survey;image;CDOT"/>
    <tag k="source_ref:bridge" v="AM909_DSCV1395"/>
    <tag k="tiger:cfcc" v="A41"/>
    <tag k="tiger:county" v="Los Angeles, CA"/>
    <tag k="tiger:name_base" v="1st"/>
    <tag k="tiger:name_direction_prefix" v="E"/>
    <tag k="tiger:name_type" v="St"/>
    <tag k="tiger:separated" v="no"/>
    <tag k="tiger:source" v="tiger_import_dch_v0.6_20070809"/>
    <tag k="tiger:tlid" v="141637675"/>
  </way>
  <way id="23374789" version="5" timestamp="2010-07-09T08:36:06Z" uid="82317" user="AM909" changeset="5171928">
    <nd ref="122468966"/>
    <nd ref="123480173"/>
    <tag k="bridge" v="yes"/>
    <tag k="bridge_name" v="First Street OC"/>
    <tag k="bridge_ref" v="710/LA/53-1153"/>
    <tag k="highway" v="tertiary"/>
    <tag k="is_in:state_code" v="CA"/>
    <tag k="layer" v="2"/>
    <tag k="milepost:county" v="24.73;24.72"/>
    <tag k="name" v="East 1st Street"/>
    <tag k="note" v="Bridge ref pic from I-710 South;Bridge ref pic from I-710 North"/>
    <tag k="source:bridge" v="usgs_imagery;survey;image;CDOT"/>
    <tag k="source_ref:bridge" v="AM909_DSCV1395;AM909_DSCV1706"/>
    <tag k="tiger:cfcc" v="A41"/>
    <tag k="tiger:county" v="Los Angeles, CA"/>
    <tag k="tiger:name_base" v="1st"/>
    <tag k="tiger:name_direction_prefix" v="E"/>
    <tag k="tiger:name_type" v="St"/>
    <tag k="tiger:separated" v="no"/>
    <tag k="tiger:source" v="tiger_import_dch_v0.6_20070809"/>
    <tag k="tiger:tlid" v="141637675"/>
  </way>
  <way id="23374789" version="6" timestamp="2011-07-01T05:07:38Z" uid="4951" user="PeterIto" changeset="8595901">
    <nd ref="122468966"/>
    <nd ref="123480173"/>
    <tag k="bridge" v="yes"/>
    <tag k="bridge_name" v="First Street OC"/>
    <tag k="bridge_ref" v="710/LA/53-1153"/>
    <tag k="highway" v="tertiary"/>
    <tag k="is_in:state_code" v="CA"/>
    <tag k="layer" v="1"/>
    <tag k="milepost:county" v="24.73;24.72"/>
    <tag k="name" v="East 1st Street"/>
    <tag k="note" v="Bridge ref pic from I-710 South;Bridge ref pic from I-710 North"/>
    <tag k="source:bridge" v="usgs_imagery;survey;image;CDOT"/>
    <tag k="source_ref:bridge" v="AM909_DSCV1395;AM909_DSCV1706"/>
    <tag k="tiger:cfcc" v="A41"/>
    <tag k="tiger:county" v="Los Angeles, CA"/>
    <tag k="tiger:name_base" v="1st"/>
    <tag k="tiger:name_direction_prefix" v="E"/>
    <tag k="tiger:name_type" v="St"/>
    <tag k="tiger:separated" v="no"/>
    <tag k="tiger:source" v="tiger_import_dch_v0.6_20070809"/>
    <tag k="tiger:tlid" v="141637675"/>
  </way>
  <way id="23374790" version="14" timestamp="2010-03-27T23:33:17Z" uid="20587" user="balrog-kun" changeset="4250871">
    <nd ref="123480173"/>
    <nd ref="122682741"/>
    <nd ref="122797519"/>
    <nd ref="122585565"/>
    <nd ref="604117944"/>
    <nd ref="604117946"/>
    <nd ref="253089408"/>
    <nd ref="604117947"/>
    <nd ref="123480177"/>
    <nd ref="122998023"/>
    <nd ref="122937047"/>
    <nd ref="589970423"/>
    <nd ref="253080139"/>
    <nd ref="589970422"/>
    <nd ref="589970420"/>
    <nd ref="253080138"/>
    <nd ref="123246815"/>
    <nd ref="253080137"/>
    <nd ref="589970419"/>
    <nd ref="253080136"/>
    <nd ref="589970418"/>
    <nd ref="123117583"/>
    <nd ref="123144593"/>
    <nd ref="123480181"/>
    <nd ref="122726452"/>
    <nd ref="122813655"/>
    <nd ref="123480183"/>
    <nd ref="122817075"/>
    <nd ref="122603618"/>
    <nd ref="269608965"/>
    <nd ref="269608929"/>
    <tag k="highway" v="tertiary"/>
    <tag k="name" v="East 1st Street"/>
    <tag k="source" v="survey;image;usgs_imagery"/>
    <tag k="source_ref" v="AM909_DSCQ2204"/>
    <tag k="tiger:cfcc" v="A41"/>
    <tag k="tiger:county" v="Los Angeles, CA"/>
    <tag k="tiger:name_base" v="1st"/>
    <tag k="tiger:name_direction_prefix" v="E"/>
    <tag k="tiger:name_type" v="St"/>
    <tag k="tiger:separated" v="no"/>
    <tag k="tiger:source" v="tiger_import_dch_v0.6_20070809"/>
    <tag k="tiger:tlid" v="141637675"/>
  </way>
  <way id="23374797" version="16" timestamp="2009-02-14T10:25:01Z" uid="65847" user="LKK" changeset="420352">
    <nd ref="303027708"/>
    <nd ref="253090131"/>
    <nd ref="253090132"/>
    <nd ref="253090133"/>
    <nd ref="253090134"/>
    <nd ref="345130316"/>
    <tag k="created_by" v="Potlatch 0.7b"/>
    <tag k="highway" v="tertiary"/>
    <tag k="oneway" v="no"/>
  </way>
  <way id="23374797" version="17" timestamp="2010-03-25T13:35:20Z" uid="251413" user="Dobrin Alexandrow" changeset="4229239">
    <nd ref="303027708"/>
    <nd ref="674038727"/>
    <nd ref="253090131"/>
    <nd ref="253090132"/>
    <nd ref="253090133"/>
    <nd ref="253090134"/>
    <nd ref="345130316"/>
    <tag k="highway" v="tertiary"/>
    <tag k="oneway" v="no"/>
  </way>
  <way id="23374797" version="18" timestamp="2011-01-30T22:01:31Z" uid="94353" user="Fips" changeset="7140346">
    <nd ref="303027708"/>
    <nd ref="674038727"/>
    <nd ref="253090131"/>
    <nd ref="253090132"/>
    <nd ref="253090133"/>
    <nd ref="253090134"/>
    <nd ref="345130316"/>
    <nd ref="345130318"/>
    <nd ref="253090135"/>
    <tag k="highway" v="tertiary"/>
  </way>
  <way id="23374797" version="19" timestamp="2011-01-30T22:23:01Z" uid="94353" user="Fips" changeset="7140567">
    <nd ref="303027708"/>
    <nd ref="674038727"/>
    <nd ref="253090131"/>
    <nd ref="253090132"/>
    <nd ref="253090133"/>
    <nd ref="253090134"/>
    <nd ref="345130316"/>
    <nd ref="345130318"/>
    <nd ref="253090135"/>
    <nd ref="253090136"/>
    <nd ref="255030847"/>
    <nd ref="255030851"/>
    <nd ref="253089479"/>
    <nd ref="253089480"/>
    <nd ref="253089481"/>
    <nd ref="253090158"/>
    <nd ref="253089482"/>
    <tag k="highway" v="tertiary"/>
  </way>
  <way id="23374835" version="4" timestamp="2008-09-23T08:01:40Z" uid="9581" user="Lobelt" changeset="685371">
    <nd ref="253089631"/>
    <nd ref="253089634"/>
    <tag k="created_by" v="Potlatch 0.8"/>
    <tag k="highway" v="living_street"/>
    <tag k="maxspeed" v="30"/>
    <tag k="name" v="Siedlungsweg"/>
  </way>
  <way id="23374836" version="4" timestamp="2008-09-23T08:01:42Z" uid="9581" user="Lobelt" changeset="685371">
    <nd ref="253089634"/>
    <nd ref="253089635"/>
    <nd ref="253089637"/>
    <tag k="created_by" v="JOSM"/>
    <tag k="highway" v="living_street"/>
    <tag k="maxspeed" v="30"/>
    <tag k="name" v="Siedlungsweg"/>
  </way>
  <way id="23374837" version="3" timestamp="2008-09-23T08:01:19Z" uid="9581" user="Lobelt" changeset="685371">
    <nd ref="253089637"/>
    <nd ref="253089638"/>
    <nd ref="253089643"/>
    <nd ref="253089639"/>
    <nd ref="253089641"/>
    <nd ref="253089640"/>
    <tag k="created_by" v="JOSM"/>
    <tag k="highway" v="living_street"/>
    <tag k="maxspeed" v="7"/>
    <tag k="name" v="Weidenweg"/>
  </way>
  <way id="23374837" version="4" timestamp="2010-09-13T03:06:37Z" uid="104779" user="ABRob" changeset="5765845">
    <nd ref="253089637"/>
    <nd ref="253089638"/>
    <nd ref="253089643"/>
    <nd ref="253089639"/>
    <nd ref="253089641"/>
    <nd ref="253089640"/>
    <tag k="highway" v="living_street"/>
    <tag k="name" v="Weidenweg"/>
  </way>
  <way id="23374837" version="5" timestamp="2011-05-17T11:07:28Z" uid="28234" user="derandi" changeset="8170525">
    <nd ref="253089637"/>
    <nd ref="253089638"/>
    <nd ref="253089643"/>
    <nd ref="253089639"/>
    <nd ref="253089641"/>
    <nd ref="33627617"/>
    <tag k="highway" v="living_street"/>
    <tag k="name" v="Weidenweg"/>
  </way>
  <way id="23374837" version="6" timestamp="2011-05-17T11:11:23Z" uid="28234" user="derandi" changeset="8170568">
    <nd ref="253089637"/>
    <nd ref="253089638"/>
    <nd ref="1288919772"/>
    <nd ref="253089643"/>
    <nd ref="253089639"/>
    <nd ref="253089641"/>
    <nd ref="33627617"/>
    <tag k="highway" v="living_street"/>
    <tag k="name" v="Weidenweg"/>
  </way>
  <way id="23374837" version="7" timestamp="2011-05-17T11:27:31Z" uid="28234" user="derandi" changeset="8170708">
    <nd ref="253089637"/>
    <nd ref="253089638"/>
    <nd ref="1288919772"/>
    <nd ref="253089643"/>
    <nd ref="253089639"/>
    <nd ref="1288925805"/>
    <nd ref="253089641"/>
    <nd ref="33627617"/>
    <tag k="highway" v="living_street"/>
    <tag k="name" v="Weidenweg"/>
  </way>
  <way id="23374838" version="2" timestamp="2008-09-23T08:01:38Z" uid="9581" user="Lobelt" changeset="685371">
    <nd ref="253089641"/>
    <nd ref="253089642"/>
    <nd ref="253089643"/>
    <tag k="created_by" v="JOSM"/>
    <tag k="highway" v="living_street"/>
    <tag k="name" v="Weidenweg"/>
  </way>
  <way id="23374839" version="11" timestamp="2008-09-23T08:01:40Z" uid="9581" user="Lobelt" changeset="685371">
    <nd ref="33627552"/>
    <nd ref="33627555"/>
    <nd ref="33627556"/>
    <nd ref="33627557"/>
    <nd ref="33627558"/>
    <nd ref="33627559"/>
    <nd ref="33627560"/>
    <nd ref="33627562"/>
    <nd ref="33627564"/>
    <nd ref="271412014"/>
    <nd ref="33627566"/>
    <nd ref="271412008"/>
    <nd ref="271407966"/>
    <nd ref="33627568"/>
    <nd ref="33627569"/>
    <nd ref="271402473"/>
    <nd ref="33627571"/>
    <nd ref="33627572"/>
    <nd ref="33627573"/>
    <nd ref="33627575"/>
    <nd ref="33627576"/>
    <nd ref="33627577"/>
    <nd ref="33627579"/>
    <nd ref="273196595"/>
    <nd ref="273182623"/>
    <nd ref="33627582"/>
    <nd ref="33627583"/>
    <nd ref="33627584"/>
    <tag k="created_by" v="JOSM"/>
    <tag k="highway" v="tertiary"/>
  </way>
  <way id="23374839" version="12" timestamp="2010-12-24T11:33:35Z" uid="43566" user="anbr" changeset="6753681">
    <nd ref="33627552"/>
    <nd ref="1061622871"/>
    <nd ref="33627555"/>
    <nd ref="33627556"/>
    <nd ref="33627557"/>
    <nd ref="33627558"/>
    <nd ref="33627559"/>
    <nd ref="1061623141"/>
    <nd ref="33627560"/>
    <nd ref="1061622679"/>
    <nd ref="33627562"/>
    <nd ref="33627564"/>
    <nd ref="271412014"/>
    <nd ref="33627566"/>
    <nd ref="271412008"/>
    <nd ref="271407966"/>
    <nd ref="33627568"/>
    <nd ref="33627569"/>
    <nd ref="271402473"/>
    <nd ref="33627571"/>
    <nd ref="33627572"/>
    <nd ref="33627573"/>
    <nd ref="33627575"/>
    <nd ref="33627576"/>
    <nd ref="33627577"/>
    <nd ref="33627579"/>
    <nd ref="273196595"/>
    <nd ref="273182623"/>
    <nd ref="33627582"/>
    <nd ref="33627583"/>
    <nd ref="33627584"/>
    <tag k="highway" v="tertiary"/>
  </way>
  <way id="23374839" version="13" timestamp="2011-05-17T12:24:32Z" uid="28234" user="derandi" changeset="8171186">
    <nd ref="1288975590"/>
    <nd ref="1061622871"/>
    <nd ref="33627555"/>
    <nd ref="33627556"/>
    <nd ref="33627557"/>
    <nd ref="33627558"/>
    <nd ref="33627559"/>
    <nd ref="1061623141"/>
    <nd ref="33627560"/>
    <nd ref="1061622679"/>
    <nd ref="33627562"/>
    <nd ref="33627564"/>
    <nd ref="271412014"/>
    <nd ref="33627566"/>
    <nd ref="271412008"/>
    <nd ref="271407966"/>
    <nd ref="33627568"/>
    <nd ref="33627569"/>
    <nd ref="271402473"/>
    <nd ref="33627571"/>
    <nd ref="33627572"/>
    <nd ref="33627573"/>
    <nd ref="33627575"/>
    <nd ref="33627576"/>
    <nd ref="33627577"/>
    <nd ref="33627579"/>
    <nd ref="273196595"/>
    <nd ref="273182623"/>
    <nd ref="33627582"/>
    <nd ref="33627583"/>
    <nd ref="33627584"/>
    <tag k="highway" v="tertiary"/>
  </way>
  <way id="23374839" version="14" timestamp="2011-05-17T13:27:00Z" uid="28234" user="derandi" changeset="8171672">
    <nd ref="1288975590"/>
    <nd ref="1061622871"/>
    <nd ref="1289026137"/>
    <nd ref="33627555"/>
    <nd ref="33627556"/>
    <nd ref="33627557"/>
    <nd ref="33627558"/>
    <nd ref="33627559"/>
    <nd ref="1061623141"/>
    <nd ref="33627560"/>
    <nd ref="1061622679"/>
    <nd ref="33627562"/>
    <nd ref="33627564"/>
    <nd ref="271412014"/>
    <nd ref="33627566"/>
    <nd ref="271412008"/>
    <nd ref="271407966"/>
    <nd ref="33627568"/>
    <nd ref="33627569"/>
    <nd ref="271402473"/>
    <nd ref="33627571"/>
    <nd ref="33627572"/>
    <nd ref="33627573"/>
    <nd ref="33627575"/>
    <nd ref="33627576"/>
    <nd ref="33627577"/>
    <nd ref="33627579"/>
    <nd ref="273196595"/>
    <nd ref="273182623"/>
    <nd ref="33627582"/>
    <nd ref="33627583"/>
    <nd ref="33627584"/>
    <tag k="highway" v="tertiary"/>
  </way>
  <way id="23374839" version="15" timestamp="2011-05-17T16:20:53Z" uid="28234" user="derandi" changeset="8173325">
    <nd ref="1288975590"/>
    <nd ref="1061622871"/>
    <nd ref="1289026137"/>
    <nd ref="1289176361"/>
    <nd ref="1289176394"/>
    <nd ref="1289176380"/>
    <nd ref="1289176378"/>
    <nd ref="1289176387"/>
    <nd ref="1289176381"/>
    <nd ref="1289176364"/>
    <nd ref="1289176384"/>
    <nd ref="33627559"/>
    <nd ref="1061623141"/>
    <nd ref="33627560"/>
    <nd ref="1061622679"/>
    <nd ref="33627562"/>
    <nd ref="33627564"/>
    <nd ref="271412014"/>
    <nd ref="33627566"/>
    <nd ref="271412008"/>
    <nd ref="271407966"/>
    <nd ref="33627568"/>
    <nd ref="33627569"/>
    <nd ref="271402473"/>
    <nd ref="33627571"/>
    <nd ref="33627572"/>
    <nd ref="33627573"/>
    <nd ref="33627575"/>
    <nd ref="33627576"/>
    <nd ref="33627577"/>
    <nd ref="33627579"/>
    <nd ref="273196595"/>
    <nd ref="273182623"/>
    <nd ref="33627582"/>
    <nd ref="33627583"/>
    <nd ref="33627584"/>
    <tag k="highway" v="tertiary"/>
  </way>
  <way id="23374839" version="16" timestamp="2011-05-17T16:31:41Z" uid="28234" user="derandi" changeset="8173433">
    <nd ref="1288975590"/>
    <nd ref="1061622871"/>
    <nd ref="1289026137"/>
    <nd ref="1289176361"/>
    <nd ref="1289176394"/>
    <nd ref="1289176380"/>
    <nd ref="1289176378"/>
    <nd ref="1289176387"/>
    <nd ref="1289176381"/>
    <nd ref="1289176364"/>
    <nd ref="1289176384"/>
    <nd ref="1289184889"/>
    <nd ref="33627559"/>
    <nd ref="1289184844"/>
    <nd ref="1289184935"/>
    <nd ref="1289184880"/>
    <nd ref="1061623141"/>
    <nd ref="33627560"/>
    <nd ref="1061622679"/>
    <nd ref="33627562"/>
    <nd ref="33627564"/>
    <nd ref="271412014"/>
    <nd ref="33627566"/>
    <nd ref="271412008"/>
    <nd ref="271407966"/>
    <nd ref="33627568"/>
    <nd ref="33627569"/>
    <nd ref="271402473"/>
    <nd ref="33627571"/>
    <nd ref="33627572"/>
    <nd ref="33627573"/>
    <nd ref="33627575"/>
    <nd ref="33627576"/>
    <nd ref="33627577"/>
    <nd ref="33627579"/>
    <nd ref="273196595"/>
    <nd ref="273182623"/>
    <nd ref="33627582"/>
    <nd ref="33627583"/>
    <nd ref="33627584"/>
    <tag k="highway" v="tertiary"/>
  </way>
  <way id="23374839" version="17" timestamp="2011-05-24T00:42:44Z" uid="28234" user="derandi" changeset="8231505">
    <nd ref="1288975590"/>
    <nd ref="1061622871"/>
    <nd ref="1289026137"/>
    <nd ref="1289176361"/>
    <nd ref="1289176394"/>
    <nd ref="1289176380"/>
    <nd ref="1289176378"/>
    <nd ref="1289176387"/>
    <nd ref="1289176381"/>
    <nd ref="1289176364"/>
    <nd ref="1289176384"/>
    <nd ref="1289184889"/>
    <nd ref="33627559"/>
    <nd ref="1289184844"/>
    <nd ref="1289184935"/>
    <nd ref="1289184880"/>
    <nd ref="1061623141"/>
    <nd ref="33627560"/>
    <nd ref="1061622679"/>
    <nd ref="1297906279"/>
    <nd ref="1297906260"/>
    <nd ref="1297906249"/>
    <nd ref="33627562"/>
    <nd ref="1297906273"/>
    <nd ref="1297906283"/>
    <nd ref="33627564"/>
    <nd ref="271412014"/>
    <nd ref="33627566"/>
    <nd ref="271412008"/>
    <nd ref="271407966"/>
    <nd ref="33627568"/>
    <nd ref="33627569"/>
    <nd ref="271402473"/>
    <nd ref="33627571"/>
    <nd ref="33627572"/>
    <nd ref="33627573"/>
    <nd ref="33627575"/>
    <nd ref="33627576"/>
    <nd ref="33627577"/>
    <nd ref="33627579"/>
    <nd ref="273196595"/>
    <nd ref="273182623"/>
    <nd ref="33627582"/>
    <nd ref="33627583"/>
    <nd ref="33627584"/>
    <tag k="highway" v="tertiary"/>
  </way>
  <way id="23374839" version="18" timestamp="2011-11-20T17:23:47Z" uid="15997" user="Müscha" changeset="9887089">
    <nd ref="1288975590"/>
    <nd ref="1061622871"/>
    <nd ref="1289026137"/>
    <nd ref="1289176361"/>
    <nd ref="1289176394"/>
    <nd ref="1289176380"/>
    <nd ref="1289176378"/>
    <nd ref="1289176387"/>
    <nd ref="1289176381"/>
    <nd ref="1289176364"/>
    <nd ref="1289176384"/>
    <nd ref="1289184889"/>
    <nd ref="33627559"/>
    <nd ref="1289184844"/>
    <nd ref="1289184935"/>
    <nd ref="1289184880"/>
    <nd ref="1061623141"/>
    <nd ref="33627560"/>
    <nd ref="1061622679"/>
    <nd ref="1297906279"/>
    <nd ref="1297906260"/>
    <nd ref="1297906249"/>
    <nd ref="33627562"/>
    <nd ref="1297906273"/>
    <nd ref="1297906283"/>
    <nd ref="33627564"/>
    <nd ref="271412014"/>
    <nd ref="33627566"/>
    <nd ref="271412008"/>
    <nd ref="271407966"/>
    <nd ref="33627568"/>
    <nd ref="33627569"/>
    <nd ref="271402473"/>
    <nd ref="33627571"/>
    <nd ref="33627572"/>
    <nd ref="33627573"/>
    <nd ref="33627575"/>
    <nd ref="33627576"/>
    <nd ref="33627577"/>
    <nd ref="1510079942"/>
    <nd ref="1510079959"/>
    <nd ref="1510079997"/>
    <nd ref="1510080061"/>
    <nd ref="33627579"/>
    <nd ref="273196595"/>
    <nd ref="273182623"/>
    <nd ref="33627582"/>
    <nd ref="33627583"/>
    <nd ref="1510080369"/>
    <nd ref="33627584"/>
    <tag k="highway" v="tertiary"/>
  </way>
  <way id="23374840" version="6" timestamp="2008-09-15T00:11:25Z" uid="6975" user="ulfl" changeset="640534">
    <nd ref="253816300"/>
    <nd ref="33627616"/>
    <tag k="highway" v="cycleway"/>
  </way>
  <way id="23374840" version="7" timestamp="2011-05-17T11:27:31Z" uid="28234" user="derandi" changeset="8170708">
    <nd ref="253816300"/>
    <nd ref="1288925788"/>
    <nd ref="33627616"/>
    <tag k="highway" v="cycleway"/>
  </way>
  <way id="23374841" version="5" timestamp="2008-04-03T14:15:14Z" uid="9581" user="Lobelt" changeset="33645">
    <nd ref="33627373"/>
    <nd ref="253804670"/>
    <nd ref="253804735"/>
    <nd ref="253804734"/>
    <nd ref="33627374"/>
    <nd ref="253147344"/>
    <nd ref="253804705"/>
    <nd ref="33627375"/>
    <nd ref="33627376"/>
    <nd ref="33627377"/>
    <nd ref="33627378"/>
    <nd ref="33627379"/>
    <nd ref="33627380"/>
    <nd ref="33627381"/>
    <nd ref="33627382"/>
    <nd ref="33627383"/>
    <nd ref="33627384"/>
    <nd ref="33627385"/>
    <nd ref="33627386"/>
    <nd ref="33627387"/>
    <nd ref="33627388"/>
    <nd ref="33627389"/>
    <nd ref="33627390"/>
    <nd ref="33627391"/>
    <nd ref="33627392"/>
    <nd ref="33627393"/>
    <nd ref="33627394"/>
    <nd ref="33627395"/>
    <nd ref="33627396"/>
    <tag k="created_by" v="Potlatch 0.7b"/>
    <tag k="highway" v="service"/>
  </way>
  <way id="23374841" version="6" timestamp="2008-04-18T14:44:56Z" uid="17889" user="rrissiek" changeset="181892">
    <nd ref="33627373"/>
    <nd ref="258352594"/>
    <tag k="created_by" v="Potlatch 0.7b"/>
    <tag k="highway" v="service"/>
  </way>
  <way id="23374841" version="7" timestamp="2008-05-20T11:52:48Z" uid="28234" user="derandi" changeset="488582">
    <nd ref="33627373"/>
    <nd ref="258352594"/>
    <tag k="created_by" v="Potlatch 0.7b"/>
    <tag k="highway" v="track"/>
  </way>
  <way id="23374841" version="8" timestamp="2008-05-20T13:11:51Z" uid="28234" user="derandi" changeset="488582"/>
  <way id="23374843" version="3" timestamp="2008-04-03T14:15:12Z" uid="9581" user="Lobelt" changeset="33645">
    <nd ref="31148370"/>
    <nd ref="253089645"/>
    <nd ref="31148371"/>
    <nd ref="31148372"/>
    <nd ref="31148374"/>
    <nd ref="253089673"/>
    <nd ref="33627363"/>
    <tag k="created_by" v="fixbot"/>
    <tag k="highway" v="secondary"/>
    <tag k="name" v="Lübbener Straße"/>
    <tag k="ref" v="B320"/>
  </way>
  <way id="23374843" version="4" timestamp="2008-05-15T16:18:19Z" uid="9967" user="ihmchen" changeset="452919">
    <nd ref="31148370"/>
    <nd ref="253089645"/>
    <nd ref="31148371"/>
    <nd ref="31148372"/>
    <nd ref="31148374"/>
    <nd ref="253089673"/>
    <nd ref="33627363"/>
    <tag k="created_by" v="Potlatch 0.9a"/>
    <tag k="highway" v="secondary"/>
    <tag k="name" v="Lübbener Straße"/>
    <tag k="ref" v="L44"/>
  </way>
  <way id="23374843" version="5" timestamp="2008-05-15T16:20:09Z" uid="9967" user="ihmchen" changeset="452919">
    <nd ref="31148370"/>
    <nd ref="253089645"/>
    <nd ref="31148371"/>
    <nd ref="31148372"/>
    <nd ref="31148374"/>
    <nd ref="253089673"/>
    <nd ref="33627363"/>
    <tag k="created_by" v="Potlatch 0.9a"/>
    <tag k="highway" v="secondary"/>
    <tag k="maxspeed" v="50"/>
    <tag k="name" v="Lübbener Straße"/>
    <tag k="ref" v="L44"/>
  </way>
  <way id="23374843" version="6" timestamp="2008-05-19T10:57:41Z" uid="28234" user="derandi" changeset="479083">
    <nd ref="31148370"/>
    <nd ref="253089645"/>
    <nd ref="31148371"/>
    <nd ref="31148372"/>
    <nd ref="31148374"/>
    <nd ref="253089673"/>
    <nd ref="33627363"/>
    <tag k="created_by" v="fixbot"/>
    <tag k="highway" v="primary"/>
    <tag k="name" v="Lübbener Straße"/>
    <tag k="ref" v="B320"/>
  </way>
  <way id="23374843" version="7" timestamp="2008-05-20T10:53:01Z" uid="28234" user="derandi" changeset="488582">
    <nd ref="31148370"/>
    <nd ref="253089645"/>
    <nd ref="31148371"/>
    <nd ref="31148372"/>
    <tag k="created_by" v="fixbot"/>
    <tag k="highway" v="primary"/>
    <tag k="name" v="Lübbener Straße"/>
    <tag k="ref" v="B320"/>
  </way>
  <way id="23374843" version="8" timestamp="2008-05-20T12:19:58Z" uid="28234" user="derandi" changeset="488582"/>
  <way id="23374844" version="5" timestamp="2008-04-03T14:15:11Z" uid="9581" user="Lobelt" changeset="33645">
    <nd ref="33627363"/>
    <nd ref="253089719"/>
    <nd ref="253372554"/>
    <nd ref="253372548"/>
    <nd ref="33627362"/>
    <nd ref="33627361"/>
    <nd ref="253372555"/>
    <nd ref="33627360"/>
    <nd ref="253372563"/>
    <nd ref="33627359"/>
    <nd ref="253067099"/>
    <nd ref="253067098"/>
    <nd ref="33627358"/>
    <nd ref="253089664"/>
    <nd ref="33627357"/>
    <nd ref="33627356"/>
    <nd ref="33627355"/>
    <nd ref="253373043"/>
    <nd ref="33627354"/>
    <nd ref="253089653"/>
    <tag k="created_by" v="Potlatch 0.7b"/>
    <tag k="highway" v="secondary"/>
    <tag k="name" v="Bahnhofstraße"/>
    <tag k="ref" v="B320"/>
  </way>
  <way id="23374844" version="6" timestamp="2008-04-18T14:44:55Z" uid="17889" user="rrissiek" changeset="181892">
    <nd ref="33627363"/>
    <nd ref="253089719"/>
    <nd ref="253372554"/>
    <nd ref="253372548"/>
    <nd ref="33627362"/>
    <nd ref="33627361"/>
    <nd ref="253372555"/>
    <nd ref="33627360"/>
    <nd ref="33627359"/>
    <nd ref="253067099"/>
    <nd ref="253067098"/>
    <nd ref="33627358"/>
    <nd ref="253089664"/>
    <nd ref="33627357"/>
    <nd ref="33627356"/>
    <nd ref="33627355"/>
    <nd ref="253373043"/>
    <nd ref="33627354"/>
    <nd ref="253089653"/>
    <tag k="created_by" v="Potlatch 0.7b"/>
    <tag k="highway" v="secondary"/>
    <tag k="name" v="Bahnhofstraße"/>
    <tag k="ref" v="B320"/>
  </way>
  <way id="23374844" version="7" timestamp="2008-05-15T16:18:32Z" uid="9967" user="ihmchen" changeset="452919">
    <nd ref="33627363"/>
    <nd ref="253089719"/>
    <nd ref="253372554"/>
    <nd ref="253372548"/>
    <nd ref="33627362"/>
    <nd ref="33627361"/>
    <nd ref="253372555"/>
    <nd ref="33627360"/>
    <nd ref="33627359"/>
    <nd ref="253067099"/>
    <nd ref="253067098"/>
    <nd ref="33627358"/>
    <nd ref="253089664"/>
    <nd ref="33627357"/>
    <nd ref="33627356"/>
    <nd ref="33627355"/>
    <nd ref="253373043"/>
    <nd ref="33627354"/>
    <nd ref="253089653"/>
    <tag k="created_by" v="Potlatch 0.9a"/>
    <tag k="highway" v="secondary"/>
    <tag k="name" v="Bahnhofstraße"/>
    <tag k="ref" v="L44"/>
  </way>
  <way id="23374844" version="8" timestamp="2008-05-15T16:19:56Z" uid="9967" user="ihmchen" changeset="452919">
    <nd ref="33627363"/>
    <nd ref="253089719"/>
    <nd ref="253372554"/>
    <nd ref="253372548"/>
    <nd ref="33627362"/>
    <nd ref="33627361"/>
    <nd ref="253372555"/>
    <nd ref="33627360"/>
    <nd ref="33627359"/>
    <nd ref="253067099"/>
    <nd ref="253067098"/>
    <nd ref="33627358"/>
    <nd ref="253089664"/>
    <nd ref="33627357"/>
    <nd ref="33627356"/>
    <nd ref="33627355"/>
    <nd ref="253373043"/>
    <nd ref="33627354"/>
    <nd ref="253089653"/>
    <tag k="created_by" v="Potlatch 0.9a"/>
    <tag k="highway" v="secondary"/>
    <tag k="maxspeed" v="50"/>
    <tag k="name" v="Bahnhofstraße"/>
    <tag k="ref" v="L44"/>
  </way>
  <way id="23374844" version="9" timestamp="2008-05-19T10:57:39Z" uid="28234" user="derandi" changeset="479083">
    <nd ref="33627363"/>
    <nd ref="253089719"/>
    <nd ref="253372554"/>
    <nd ref="253372548"/>
    <nd ref="33627362"/>
    <nd ref="33627361"/>
    <nd ref="253372555"/>
    <nd ref="33627359"/>
    <nd ref="253067098"/>
    <nd ref="33627358"/>
    <nd ref="253089664"/>
    <nd ref="33627357"/>
    <nd ref="33627356"/>
    <nd ref="33627355"/>
    <nd ref="253373043"/>
    <nd ref="253089653"/>
    <tag k="created_by" v="Potlatch 0.7b"/>
    <tag k="highway" v="primary"/>
    <tag k="name" v="Bahnhofstraße"/>
    <tag k="ref" v="B320"/>
  </way>
  <way id="23374844" version="10" timestamp="2008-05-20T10:53:07Z" uid="28234" user="derandi" changeset="488582"/>
  <way id="23374845" version="21" timestamp="2009-01-07T15:59:30Z" uid="9581" user="Lobelt" changeset="752375">
    <nd ref="33627638"/>
    <nd ref="31148370"/>
    <nd ref="253089645"/>
    <nd ref="265958973"/>
    <nd ref="295058317"/>
    <tag k="created_by" v="Potlatch 0.10f"/>
    <tag k="highway" v="secondary"/>
    <tag k="lanes" v="2"/>
    <tag k="maxspeed" v="50"/>
    <tag k="name" v="Lübbener Straße"/>
    <tag k="surface" v="paved"/>
  </way>
  <way id="23374845" version="22" timestamp="2009-04-23T19:21:34Z" uid="9967" user="ihmchen" changeset="917995">
    <nd ref="33627638"/>
    <nd ref="382493674"/>
    <nd ref="31148370"/>
    <nd ref="253089645"/>
    <nd ref="265958973"/>
    <nd ref="295058317"/>
    <tag k="created_by" v="Potlatch 0.10f"/>
    <tag k="highway" v="secondary"/>
    <tag k="lanes" v="2"/>
    <tag k="maxspeed" v="50"/>
    <tag k="name" v="Lübbener Straße"/>
    <tag k="surface" v="paved"/>
  </way>
  <way id="23374845" version="23" timestamp="2009-07-24T17:04:19Z" uid="28234" user="derandi" changeset="1927274">
    <nd ref="33627638"/>
    <nd ref="382493674"/>
    <nd ref="31148370"/>
    <nd ref="253089645"/>
    <nd ref="265958973"/>
    <nd ref="295058317"/>
    <tag k="highway" v="primary"/>
    <tag k="maxspeed" v="50"/>
    <tag k="name" v="Lübbener Straße"/>
    <tag k="surface" v="paved"/>
  </way>
  <way id="23374845" version="24" timestamp="2009-07-24T17:21:43Z" uid="28234" user="derandi" changeset="1927444">
    <nd ref="33627638"/>
    <nd ref="382493674"/>
    <nd ref="31148370"/>
    <nd ref="253089645"/>
    <nd ref="265958973"/>
    <nd ref="295058317"/>
    <tag k="highway" v="secondary"/>
    <tag k="maxspeed" v="50"/>
    <tag k="name" v="Lübbener Straße"/>
    <tag k="surface" v="paved"/>
  </way>
  <way id="23374845" version="25" timestamp="2010-01-30T12:33:05Z" uid="28234" user="derandi" changeset="3750542">
    <nd ref="33627638"/>
    <nd ref="382493674"/>
    <nd ref="31148370"/>
    <nd ref="623057914"/>
    <nd ref="253089645"/>
    <nd ref="265958973"/>
    <nd ref="295058317"/>
    <tag k="highway" v="secondary"/>
    <tag k="maxspeed" v="50"/>
    <tag k="name" v="Lübbener Straße"/>
    <tag k="surface" v="paved"/>
  </way>
  <way id="23374845" version="26" timestamp="2010-02-01T09:31:09Z" uid="28234" user="derandi" changeset="3765891">
    <nd ref="33627638"/>
    <nd ref="382493674"/>
    <nd ref="31148370"/>
    <nd ref="623057914"/>
    <nd ref="253089645"/>
    <nd ref="625186864"/>
    <nd ref="265958973"/>
    <nd ref="295058317"/>
    <tag k="highway" v="secondary"/>
    <tag k="maxspeed" v="50"/>
    <tag k="name" v="Lübbener Straße"/>
    <tag k="surface" v="paved"/>
  </way>
  <way id="23374845" version="27" timestamp="2010-02-01T09:36:33Z" uid="28234" user="derandi" changeset="3765923">
    <nd ref="625194359"/>
    <nd ref="625194386"/>
    <nd ref="625194388"/>
    <nd ref="623057914"/>
    <nd ref="253089645"/>
    <nd ref="625186864"/>
    <nd ref="265958973"/>
    <nd ref="295058317"/>
    <tag k="highway" v="secondary"/>
    <tag k="maxspeed" v="50"/>
    <tag k="name" v="Lübbener Straße"/>
    <tag k="surface" v="paved"/>
  </way>
  <way id="23374845" version="28" timestamp="2010-02-01T09:43:21Z" uid="28234" user="derandi" changeset="3765971">
    <nd ref="625203773"/>
    <nd ref="625194386"/>
    <nd ref="625194388"/>
    <nd ref="623057914"/>
    <nd ref="253089645"/>
    <nd ref="625186864"/>
    <nd ref="265958973"/>
    <nd ref="295058317"/>
    <tag k="highway" v="secondary"/>
    <tag k="maxspeed" v="50"/>
    <tag k="name" v="Lübbener Straße"/>
    <tag k="surface" v="paved"/>
  </way>
  <way id="23374845" version="29" timestamp="2010-10-03T12:15:08Z" uid="43566" user="anbr" changeset="5943481">
    <nd ref="625203773"/>
    <nd ref="625194386"/>
    <nd ref="625194388"/>
    <nd ref="623057914"/>
    <nd ref="253089645"/>
    <nd ref="625186864"/>
    <nd ref="265958973"/>
    <nd ref="295058317"/>
    <tag k="highway" v="primary"/>
    <tag k="maxspeed" v="50"/>
    <tag k="name" v="Lübbener Straße"/>
    <tag k="ref" v="B 320"/>
    <tag k="surface" v="paved"/>
  </way>
  <way id="23374845" version="30" timestamp="2010-10-03T12:19:37Z" uid="43566" user="anbr" changeset="5943564">
    <nd ref="625203773"/>
    <nd ref="625194386"/>
    <nd ref="625194388"/>
    <nd ref="623057914"/>
    <nd ref="253089645"/>
    <nd ref="625186864"/>
    <nd ref="265958973"/>
    <nd ref="295058317"/>
    <tag k="highway" v="secondary"/>
    <tag k="maxspeed" v="50"/>
    <tag k="name" v="Lübbener Straße"/>
    <tag k="surface" v="paved"/>
  </way>
  <way id="23374845" version="31" timestamp="2010-12-24T11:33:22Z" uid="43566" user="anbr" changeset="6753681">
    <nd ref="625203773"/>
    <nd ref="625194386"/>
    <nd ref="625194388"/>
    <nd ref="623057914"/>
    <nd ref="253089645"/>
    <nd ref="625186864"/>
    <nd ref="265958973"/>
    <nd ref="295058317"/>
    <tag k="highway" v="secondary"/>
    <tag k="maxspeed" v="50"/>
    <tag k="name" v="Lübbener Straße"/>
    <tag k="ref" v="L 44"/>
    <tag k="surface" v="paved"/>
  </way>
  <way id="23374845" version="32" timestamp="2011-05-22T11:07:49Z" uid="28234" user="derandi" changeset="8214868">
    <nd ref="625203773"/>
    <nd ref="625194386"/>
    <nd ref="625194388"/>
    <nd ref="623057914"/>
    <nd ref="253089645"/>
    <nd ref="625186864"/>
    <nd ref="1295906943"/>
    <nd ref="1295906948"/>
    <tag k="highway" v="secondary"/>
    <tag k="maxspeed" v="50"/>
    <tag k="name" v="Lübbener Straße"/>
    <tag k="ref" v="L 44"/>
    <tag k="surface" v="paved"/>
  </way>
  <way id="23374845" version="33" timestamp="2011-05-22T11:11:05Z" uid="28234" user="derandi" changeset="8214899">
    <nd ref="625203773"/>
    <nd ref="625194386"/>
    <nd ref="625194388"/>
    <nd ref="623057914"/>
    <nd ref="1295913338"/>
    <nd ref="253089645"/>
    <nd ref="625186864"/>
    <nd ref="1295906948"/>
    <tag k="highway" v="secondary"/>
    <tag k="maxspeed" v="50"/>
    <tag k="name" v="Lübbener Straße"/>
    <tag k="ref" v="L 44"/>
    <tag k="surface" v="paved"/>
  </way>
  <way id="23374861" version="11" timestamp="2008-11-26T01:59:43Z" uid="6975" user="ulfl" changeset="794829">
    <nd ref="253089675"/>
    <nd ref="20934822"/>
    <nd ref="286030615"/>
    <nd ref="20934823"/>
    <tag k="highway" v="secondary"/>
    <tag k="name" v="Tir Fédéral"/>
    <tag k="nat_ref" v="137"/>
    <tag k="rcrc_ref" v="151b"/>
  </way>
  <way id="23374861" version="12" timestamp="2009-09-18T18:15:38Z" uid="17835" user="Stéphane Brunner" changeset="2526999">
    <nd ref="253089675"/>
    <nd ref="20934822"/>
    <nd ref="286030615"/>
    <nd ref="20934823"/>
    <tag k="highway" v="secondary"/>
    <tag k="name" v="Tir Fédéral"/>
    <tag k="nat_ref" v="137"/>
    <tag k="oneway" v="yes"/>
    <tag k="rcrc_ref" v="151b"/>
  </way>
  <way id="23374861" version="13" timestamp="2009-09-28T13:30:59Z" uid="178986" user="refbotCH" changeset="2664658">
    <nd ref="253089675"/>
    <nd ref="20934822"/>
    <nd ref="286030615"/>
    <nd ref="20934823"/>
    <tag k="highway" v="secondary"/>
    <tag k="name" v="Tir Fédéral"/>
    <tag k="oneway" v="yes"/>
    <tag k="rcrc_ref" v="151b"/>
    <tag k="ref" v="137"/>
  </way>
  <way id="23374861" version="14" timestamp="2010-05-06T09:12:05Z" uid="17835" user="Stéphane Brunner" changeset="4619739">
    <nd ref="253089675"/>
    <nd ref="20934822"/>
    <nd ref="286030615"/>
    <nd ref="20934823"/>
    <tag k="highway" v="primary"/>
    <tag k="name" v="Tir Fédéral"/>
    <tag k="oneway" v="yes"/>
    <tag k="rcrc_ref" v="151b"/>
    <tag k="ref" v="137"/>
  </way>
  <way id="23374861" version="15" timestamp="2011-06-27T15:23:22Z" uid="195875" user="inisheer" changeset="8563206">
    <nd ref="253089675"/>
    <nd ref="1341242073"/>
    <nd ref="20934822"/>
    <nd ref="286030615"/>
    <nd ref="20934823"/>
    <tag k="highway" v="primary"/>
    <tag k="name" v="Tir Fédéral"/>
    <tag k="oneway" v="yes"/>
    <tag k="rcrc_ref" v="151b"/>
    <tag k="ref" v="137"/>
  </way>
  <way id="23374861" version="16" timestamp="2011-09-24T13:36:21Z" uid="17835" user="Stéphane Brunner" changeset="9384153">
    <nd ref="253089675"/>
    <nd ref="1444557644"/>
    <nd ref="1341242073"/>
    <nd ref="20934822"/>
    <nd ref="1444557662"/>
    <nd ref="286030615"/>
    <nd ref="1444557671"/>
    <nd ref="253089797"/>
    <tag k="highway" v="primary"/>
    <tag k="name" v="Tir Fédéral"/>
    <tag k="oneway" v="yes"/>
    <tag k="rcrc_ref" v="151b"/>
    <tag k="ref" v="137"/>
  </way>
  <way id="23374861" version="17" timestamp="2012-02-02T15:27:56Z" uid="178186" user="mdk" changeset="10568491"/>
  <way id="23374868" version="2" timestamp="2010-07-08T02:09:51Z" uid="74617" user="JohnSmith" changeset="5162525">
    <nd ref="253089799"/>
    <nd ref="253089800"/>
    <tag k="highway" v="residential"/>
    <tag k="maxspeed" v="50"/>
    <tag k="maxspeed:source" v="default residential speed limit in Australia"/>
    <tag k="name" v="Tumut Close"/>
  </way>
  <way id="23374868" version="3" timestamp="2012-01-16T03:24:44Z" uid="147510" user="woodpeck_fixbot" changeset="10405303">
    <nd ref="253089799"/>
    <nd ref="253089800"/>
    <tag k="highway" v="residential"/>
    <tag k="name" v="Tumut Close"/>
  </way>
  <way id="23374869" version="3" timestamp="2010-12-18T01:22:40Z" uid="7617" user="Franc" changeset="6692439">
    <nd ref="1044160306"/>
    <nd ref="253089801"/>
    <tag k="highway" v="tertiary"/>
    <tag k="name" v="Shenton Avenue"/>
  </way>
  <way id="23374870" version="3" timestamp="2010-07-08T02:10:51Z" uid="74617" user="JohnSmith" changeset="5162525">
    <nd ref="445971932"/>
    <nd ref="253088110"/>
    <tag k="highway" v="residential"/>
    <tag k="maxspeed" v="50"/>
    <tag k="maxspeed:source" v="default residential speed limit in Australia"/>
    <tag k="name" v="Shenton Avenue"/>
  </way>
  <way id="23374870" version="4" timestamp="2010-12-18T01:22:50Z" uid="7617" user="Franc" changeset="6692439">
    <nd ref="445971932"/>
    <nd ref="1044160561"/>
    <tag k="highway" v="residential"/>
    <tag k="maxspeed" v="50"/>
    <tag k="maxspeed:source" v="default residential speed limit in Australia"/>
    <tag k="name" v="Shenton Avenue"/>
  </way>
  <way id="23374870" version="5" timestamp="2012-01-16T03:24:45Z" uid="147510" user="woodpeck_fixbot" changeset="10405303">
    <nd ref="445971932"/>
    <nd ref="1044160561"/>
    <tag k="highway" v="residential"/>
    <tag k="name" v="Shenton Avenue"/>
  </way>
  <way id="23374873" version="9" timestamp="2008-04-06T08:32:36Z" uid="30201" user="rrankin" changeset="64490">
    <nd ref="253089810"/>
    <nd ref="253089811"/>
    <nd ref="255963591"/>
    <nd ref="253089812"/>
    <nd ref="255587427"/>
    <nd ref="256006387"/>
    <tag k="created_by" v="Potlatch 0.8a"/>
    <tag k="highway" v="tertiary"/>
    <tag k="name" v="Chapel Road South"/>
  </way>
  <way id="23374873" version="10" timestamp="2008-04-06T08:41:42Z" uid="20949" user="Ebenezer" changeset="67405">
    <nd ref="253089810"/>
    <nd ref="256007771"/>
    <nd ref="253089811"/>
    <nd ref="255963591"/>
    <nd ref="253089812"/>
    <nd ref="255587427"/>
    <nd ref="256006387"/>
    <tag k="created_by" v="Potlatch 0.8a"/>
    <tag k="highway" v="tertiary"/>
    <tag k="name" v="Chapel Road South"/>
  </way>
  <way id="23374873" version="11" timestamp="2008-04-06T08:42:05Z" uid="20949" user="Ebenezer" changeset="67405">
    <nd ref="253089810"/>
    <nd ref="256007771"/>
    <nd ref="253089811"/>
    <nd ref="255963591"/>
    <tag k="created_by" v="Potlatch 0.8a"/>
    <tag k="highway" v="tertiary"/>
    <tag k="name" v="Chapel Road South"/>
  </way>
  <way id="23374873" version="12" timestamp="2008-04-06T08:42:14Z" uid="20949" user="Ebenezer" changeset="67405">
    <nd ref="253089810"/>
    <nd ref="256007771"/>
    <nd ref="253089811"/>
    <nd ref="255963591"/>
    <tag k="created_by" v="Potlatch 0.8a"/>
    <tag k="highway" v="residential"/>
    <tag k="name" v="Chapel Road South"/>
  </way>
  <way id="23374873" version="13" timestamp="2008-04-06T08:42:27Z" uid="20949" user="Ebenezer" changeset="67405">
    <nd ref="256007786"/>
    <nd ref="253089810"/>
    <nd ref="256007771"/>
    <tag k="created_by" v="Potlatch 0.8a"/>
    <tag k="highway" v="residential"/>
    <tag k="name" v="Chapel Road South"/>
  </way>
  <way id="23374873" version="14" timestamp="2008-04-06T08:42:37Z" uid="20949" user="Ebenezer" changeset="67405">
    <nd ref="256007786"/>
    <nd ref="253089810"/>
    <nd ref="256007771"/>
    <tag k="created_by" v="Potlatch 0.8a"/>
    <tag k="highway" v="residential"/>
    <tag k="name" v="Chapel Road South"/>
    <tag k="oneway" v="yes"/>
  </way>
  <way id="23374873" version="15" timestamp="2008-04-06T08:51:38Z" uid="20949" user="Ebenezer" changeset="67405"/>
  <way id="23374883" version="14" timestamp="2008-11-26T02:00:55Z" uid="6975" user="ulfl" changeset="794829">
    <nd ref="253089798"/>
    <nd ref="253089854"/>
    <nd ref="253089856"/>
    <nd ref="286030731"/>
    <nd ref="253089857"/>
    <nd ref="253089858"/>
    <tag k="highway" v="secondary"/>
    <tag k="name" v="Route du Jura"/>
    <tag k="nat_ref" v="137"/>
    <tag k="oneway" v="yes"/>
    <tag k="rcrc_ref" v="151b"/>
  </way>
  <way id="23374883" version="15" timestamp="2009-09-28T13:31:00Z" uid="178986" user="refbotCH" changeset="2664658">
    <nd ref="253089798"/>
    <nd ref="253089854"/>
    <nd ref="253089856"/>
    <nd ref="286030731"/>
    <nd ref="253089857"/>
    <nd ref="253089858"/>
    <tag k="highway" v="secondary"/>
    <tag k="name" v="Route du Jura"/>
    <tag k="oneway" v="yes"/>
    <tag k="rcrc_ref" v="151b"/>
    <tag k="ref" v="137"/>
  </way>
  <way id="23374883" version="16" timestamp="2010-05-06T09:12:06Z" uid="17835" user="Stéphane Brunner" changeset="4619739">
    <nd ref="253089798"/>
    <nd ref="253089854"/>
    <nd ref="253089856"/>
    <nd ref="286030731"/>
    <nd ref="253089857"/>
    <nd ref="253089858"/>
    <tag k="highway" v="primary"/>
    <tag k="name" v="Route du Jura"/>
    <tag k="oneway" v="yes"/>
    <tag k="rcrc_ref" v="151b"/>
    <tag k="ref" v="137"/>
  </way>
  <way id="23374883" version="17" timestamp="2010-08-12T16:45:05Z" uid="4786" user="Romain Aviolat [Xens]" changeset="5474588">
    <nd ref="253089798"/>
    <nd ref="253089854"/>
    <nd ref="857159720"/>
    <nd ref="253089856"/>
    <nd ref="286030731"/>
    <nd ref="253089857"/>
    <nd ref="253089858"/>
    <tag k="highway" v="primary"/>
    <tag k="name" v="Route du Jura"/>
    <tag k="oneway" v="yes"/>
    <tag k="rcrc_ref" v="151b"/>
    <tag k="ref" v="137"/>
  </way>
  <way id="23374883" version="18" timestamp="2011-09-24T13:36:14Z" uid="17835" user="Stéphane Brunner" changeset="9384153">
    <nd ref="253089798"/>
    <nd ref="253089854"/>
    <nd ref="1444557717"/>
    <nd ref="857159720"/>
    <nd ref="253089856"/>
    <nd ref="286030731"/>
    <nd ref="253089857"/>
    <nd ref="253089858"/>
    <tag k="highway" v="primary"/>
    <tag k="name" v="Route du Jura"/>
    <tag k="oneway" v="yes"/>
    <tag k="rcrc_ref" v="151b"/>
    <tag k="ref" v="137"/>
  </way>
  <way id="23374883" version="19" timestamp="2011-10-17T20:51:10Z" uid="74847" user="Marc Mongenet" changeset="9586307">
    <nd ref="253089798"/>
    <nd ref="253089854"/>
    <nd ref="1444557717"/>
    <nd ref="857159720"/>
    <nd ref="253089856"/>
    <nd ref="286030731"/>
    <nd ref="253089857"/>
    <nd ref="1471206351"/>
    <nd ref="253089858"/>
    <tag k="highway" v="primary"/>
    <tag k="name" v="Route du Jura"/>
    <tag k="oneway" v="yes"/>
    <tag k="rcrc_ref" v="151b"/>
    <tag k="ref" v="137"/>
  </way>
  <way id="23374883" version="20" timestamp="2012-02-02T15:27:55Z" uid="178186" user="mdk" changeset="10568491"/>
  <way id="23374885" version="11" timestamp="2008-11-26T02:00:54Z" uid="6975" user="ulfl" changeset="794829">
    <nd ref="504028"/>
    <nd ref="289469551"/>
    <nd ref="504026"/>
    <nd ref="504027"/>
    <nd ref="289469567"/>
    <nd ref="289469553"/>
    <nd ref="504030"/>
    <nd ref="289469566"/>
    <nd ref="286030824"/>
    <nd ref="504031"/>
    <nd ref="504032"/>
    <tag k="highway" v="secondary"/>
    <tag k="layer" v="-1"/>
    <tag k="name" v="Route de Bussigny"/>
    <tag k="nat_ref" v="137"/>
    <tag k="oneway" v="true"/>
    <tag k="rcrc_ref" v="151b"/>
  </way>
  <way id="23374885" version="12" timestamp="2008-12-04T09:26:16Z" uid="74847" user="Marc Mongenet" changeset="116112">
    <nd ref="504028"/>
    <nd ref="289469551"/>
    <nd ref="504026"/>
    <nd ref="504027"/>
    <nd ref="289469567"/>
    <nd ref="289469553"/>
    <nd ref="504030"/>
    <nd ref="289469566"/>
    <nd ref="286030824"/>
    <nd ref="504031"/>
    <nd ref="504032"/>
    <tag k="highway" v="secondary"/>
    <tag k="name" v="Route de Bussigny"/>
    <tag k="nat_ref" v="137"/>
    <tag k="oneway" v="true"/>
    <tag k="rcrc_ref" v="151b"/>
  </way>
  <way id="23374885" version="13" timestamp="2009-09-28T13:31:01Z" uid="178986" user="refbotCH" changeset="2664658">
    <nd ref="504028"/>
    <nd ref="289469551"/>
    <nd ref="504026"/>
    <nd ref="504027"/>
    <nd ref="289469567"/>
    <nd ref="289469553"/>
    <nd ref="504030"/>
    <nd ref="289469566"/>
    <nd ref="286030824"/>
    <nd ref="504031"/>
    <nd ref="504032"/>
    <tag k="highway" v="secondary"/>
    <tag k="name" v="Route de Bussigny"/>
    <tag k="oneway" v="true"/>
    <tag k="rcrc_ref" v="151b"/>
    <tag k="ref" v="137"/>
  </way>
  <way id="23374885" version="14" timestamp="2009-12-05T10:38:01Z" uid="178186" user="Michael Kleidt" changeset="3294130">
    <nd ref="504028"/>
    <nd ref="289469551"/>
    <nd ref="504026"/>
    <nd ref="504027"/>
    <nd ref="289469567"/>
    <nd ref="289469553"/>
    <nd ref="504030"/>
    <nd ref="289469566"/>
    <nd ref="286030824"/>
    <nd ref="504031"/>
    <nd ref="504032"/>
    <tag k="highway" v="secondary"/>
    <tag k="name" v="Route de Bussigny"/>
    <tag k="oneway" v="yes"/>
    <tag k="rcrc_ref" v="151b"/>
    <tag k="ref" v="137"/>
  </way>
  <way id="23374885" version="15" timestamp="2011-10-17T20:51:08Z" uid="74847" user="Marc Mongenet" changeset="9586307">
    <nd ref="504028"/>
    <nd ref="289469551"/>
    <nd ref="504026"/>
    <nd ref="504027"/>
    <nd ref="289469567"/>
    <nd ref="289469553"/>
    <nd ref="504030"/>
    <nd ref="289469566"/>
    <nd ref="286030824"/>
    <nd ref="1471206333"/>
    <nd ref="504031"/>
    <nd ref="1471206330"/>
    <nd ref="1471206317"/>
    <nd ref="504032"/>
    <tag k="highway" v="secondary"/>
    <tag k="name" v="Route de Bussigny"/>
    <tag k="oneway" v="yes"/>
    <tag k="rcrc_ref" v="151b"/>
    <tag k="ref" v="137"/>
  </way>
  <way id="23374885" version="16" timestamp="2012-02-02T15:27:54Z" uid="178186" user="mdk" changeset="10568491"/>
  <way id="23374886" version="3" timestamp="2010-07-08T02:01:43Z" uid="74617" user="JohnSmith" changeset="5162525">
    <nd ref="253089853"/>
    <nd ref="253089868"/>
    <nd ref="253089869"/>
    <nd ref="253089870"/>
    <nd ref="253089871"/>
    <nd ref="253089943"/>
    <nd ref="253089944"/>
    <nd ref="253089872"/>
    <nd ref="253089873"/>
    <nd ref="253089874"/>
    <nd ref="253089875"/>
    <nd ref="253089964"/>
    <nd ref="253089876"/>
    <nd ref="253089877"/>
    <nd ref="253089878"/>
    <nd ref="253089879"/>
    <tag k="highway" v="residential"/>
    <tag k="maxspeed" v="50"/>
    <tag k="maxspeed:source" v="default residential speed limit in Australia"/>
    <tag k="name" v="Gordon Parker Street"/>
  </way>
  <way id="23374886" version="4" timestamp="2012-01-16T03:24:46Z" uid="147510" user="woodpeck_fixbot" changeset="10405303">
    <nd ref="253089853"/>
    <nd ref="253089868"/>
    <nd ref="253089869"/>
    <nd ref="253089870"/>
    <nd ref="253089871"/>
    <nd ref="253089943"/>
    <nd ref="253089944"/>
    <nd ref="253089872"/>
    <nd ref="253089873"/>
    <nd ref="253089874"/>
    <nd ref="253089875"/>
    <nd ref="253089964"/>
    <nd ref="253089876"/>
    <nd ref="253089877"/>
    <nd ref="253089878"/>
    <nd ref="253089879"/>
    <tag k="highway" v="residential"/>
    <tag k="name" v="Gordon Parker Street"/>
  </way>
  <way id="23374887" version="3" timestamp="2009-08-02T06:42:11Z" uid="7617" user="Franc" changeset="2010205">
    <nd ref="253089879"/>
    <nd ref="253089988"/>
    <nd ref="454089513"/>
    <nd ref="253089935"/>
    <tag k="created_by" v="Potlatch 0.7b"/>
    <tag k="highway" v="residential"/>
    <tag k="name" v="Carrington Street"/>
  </way>
  <way id="23374887" version="4" timestamp="2010-07-08T01:53:12Z" uid="74617" user="JohnSmith" changeset="5162525">
    <nd ref="253089879"/>
    <nd ref="253089988"/>
    <nd ref="454089513"/>
    <nd ref="253089935"/>
    <tag k="highway" v="residential"/>
    <tag k="maxspeed" v="50"/>
    <tag k="maxspeed:source" v="default residential speed limit in Australia"/>
    <tag k="name" v="Carrington Street"/>
  </way>
  <way id="23374887" version="5" timestamp="2012-01-16T03:24:48Z" uid="147510" user="woodpeck_fixbot" changeset="10405303">
    <nd ref="253089879"/>
    <nd ref="253089988"/>
    <nd ref="454089513"/>
    <nd ref="253089935"/>
    <tag k="highway" v="residential"/>
    <tag k="name" v="Carrington Street"/>
  </way>
  <way id="23374889" version="3" timestamp="2010-07-08T01:56:03Z" uid="74617" user="JohnSmith" changeset="5162525">
    <nd ref="253089935"/>
    <nd ref="253089880"/>
    <nd ref="253089881"/>
    <tag k="highway" v="residential"/>
    <tag k="maxspeed" v="50"/>
    <tag k="maxspeed:source" v="default residential speed limit in Australia"/>
    <tag k="name" v="Green Street"/>
  </way>
  <way id="23374889" version="4" timestamp="2011-02-03T03:42:40Z" uid="74275" user="behemoth14" changeset="7170768">
    <nd ref="253089935"/>
    <nd ref="1133342409"/>
    <nd ref="1133342381"/>
    <nd ref="253089880"/>
    <nd ref="1133342419"/>
    <nd ref="253089881"/>
    <tag k="highway" v="residential"/>
    <tag k="maxspeed" v="50"/>
    <tag k="maxspeed:source" v="default residential speed limit in Australia"/>
    <tag k="name" v="Green Street"/>
  </way>
  <way id="23374889" version="5" timestamp="2012-01-16T03:24:50Z" uid="147510" user="woodpeck_fixbot" changeset="10405303">
    <nd ref="253089935"/>
    <nd ref="1133342409"/>
    <nd ref="1133342381"/>
    <nd ref="253089880"/>
    <nd ref="1133342419"/>
    <nd ref="253089881"/>
    <tag k="highway" v="residential"/>
    <tag k="name" v="Green Street"/>
  </way>
  <way id="23374890" version="2" timestamp="2008-04-06T06:14:48Z" uid="30201" user="rrankin" changeset="64490">
    <nd ref="253089871"/>
    <nd ref="26429358"/>
    <tag k="created_by" v="Potlatch 0.7b"/>
    <tag k="highway" v="residential"/>
    <tag k="name" v="Albert Street"/>
  </way>
  <way id="23374890" version="3" timestamp="2010-07-08T01:59:53Z" uid="74617" user="JohnSmith" changeset="5162525">
    <nd ref="253089871"/>
    <nd ref="26429358"/>
    <tag k="highway" v="residential"/>
    <tag k="maxspeed" v="50"/>
    <tag k="maxspeed:source" v="default residential speed limit in Australia"/>
    <tag k="name" v="Albert Street"/>
  </way>
  <way id="23374890" version="4" timestamp="2012-01-16T03:24:51Z" uid="147510" user="woodpeck_fixbot" changeset="10405303">
    <nd ref="253089871"/>
    <nd ref="26429358"/>
    <tag k="highway" v="residential"/>
    <tag k="name" v="Albert Street"/>
  </way>
  <way id="23374891" version="2" timestamp="2010-07-08T02:02:14Z" uid="74617" user="JohnSmith" changeset="5162525">
    <nd ref="253089943"/>
    <nd ref="26429359"/>
    <tag k="highway" v="residential"/>
    <tag k="maxspeed" v="50"/>
    <tag k="maxspeed:source" v="default residential speed limit in Australia"/>
    <tag k="name" v="Sherwood Street"/>
  </way>
  <way id="23374891" version="3" timestamp="2012-01-16T03:24:53Z" uid="147510" user="woodpeck_fixbot" changeset="10405303">
    <nd ref="253089943"/>
    <nd ref="26429359"/>
    <tag k="highway" v="residential"/>
    <tag k="name" v="Sherwood Street"/>
  </way>
  <way id="23374892" version="2" timestamp="2010-07-08T01:51:57Z" uid="74617" user="JohnSmith" changeset="5162525">
    <nd ref="253089944"/>
    <nd ref="26429360"/>
    <tag k="highway" v="residential"/>
    <tag k="maxspeed" v="50"/>
    <tag k="maxspeed:source" v="default residential speed limit in Australia"/>
    <tag k="name" v="Ely Street"/>
  </way>
  <way id="23374892" version="3" timestamp="2012-01-16T03:24:54Z" uid="147510" user="woodpeck_fixbot" changeset="10405303">
    <nd ref="253089944"/>
    <nd ref="26429360"/>
    <tag k="highway" v="residential"/>
    <tag k="name" v="Ely Street"/>
  </way>
  <way id="23374895" version="2" timestamp="2010-07-08T02:00:39Z" uid="74617" user="JohnSmith" changeset="5162525">
    <nd ref="253089964"/>
    <nd ref="253089965"/>
    <tag k="highway" v="residential"/>
    <tag k="maxspeed" v="50"/>
    <tag k="maxspeed:source" v="default residential speed limit in Australia"/>
    <tag k="name" v="Daisy Street"/>
  </way>
  <way id="23374895" version="3" timestamp="2012-01-16T03:24:56Z" uid="147510" user="woodpeck_fixbot" changeset="10405303">
    <nd ref="253089964"/>
    <nd ref="253089965"/>
    <tag k="highway" v="residential"/>
    <tag k="name" v="Daisy Street"/>
  </way>
  <way id="23374899" version="2" timestamp="2010-07-08T02:01:25Z" uid="74617" user="JohnSmith" changeset="5162525">
    <nd ref="253089988"/>
    <nd ref="253089989"/>
    <tag k="highway" v="residential"/>
    <tag k="maxspeed" v="50"/>
    <tag k="maxspeed:source" v="default residential speed limit in Australia"/>
    <tag k="name" v="Violet Street"/>
  </way>
  <way id="23374899" version="3" timestamp="2012-01-16T03:24:57Z" uid="147510" user="woodpeck_fixbot" changeset="10405303">
    <nd ref="253089988"/>
    <nd ref="253089989"/>
    <tag k="highway" v="residential"/>
    <tag k="name" v="Violet Street"/>
  </way>
  <way id="23374904" version="3" timestamp="2008-04-06T06:14:50Z" uid="30201" user="rrankin" changeset="64490">
    <nd ref="253090025"/>
    <nd ref="253089935"/>
    <nd ref="253090589"/>
    <nd ref="253090034"/>
    <tag k="created_by" v="Potlatch 0.7b"/>
    <tag k="highway" v="residential"/>
    <tag k="name" v="Marigold Street"/>
  </way>
  <way id="23374904" version="4" timestamp="2009-12-08T01:50:59Z" uid="30201" user="rrankin" changeset="3321521">
    <nd ref="253090025"/>
    <nd ref="253089935"/>
    <nd ref="253090589"/>
    <nd ref="253090034"/>
    <nd ref="583076268"/>
    <tag k="highway" v="residential"/>
    <tag k="name" v="Marigold Street"/>
  </way>
  <way id="23374904" version="5" timestamp="2010-07-08T02:00:20Z" uid="74617" user="JohnSmith" changeset="5162525">
    <nd ref="253090025"/>
    <nd ref="253089935"/>
    <nd ref="253090589"/>
    <nd ref="253090034"/>
    <nd ref="583076268"/>
    <tag k="highway" v="residential"/>
    <tag k="maxspeed" v="50"/>
    <tag k="maxspeed:source" v="default residential speed limit in Australia"/>
    <tag k="name" v="Marigold Street"/>
  </way>
  <way id="23374904" version="6" timestamp="2011-01-11T03:18:00Z" uid="74275" user="behemoth14" changeset="6933229">
    <nd ref="253090025"/>
    <nd ref="1097631987"/>
    <nd ref="253089935"/>
    <nd ref="253090589"/>
    <nd ref="253090034"/>
    <nd ref="583076268"/>
    <tag k="highway" v="residential"/>
    <tag k="maxspeed" v="50"/>
    <tag k="maxspeed:source" v="default residential speed limit in Australia"/>
    <tag k="name" v="Marigold Street"/>
  </way>
  <way id="23374904" version="7" timestamp="2012-01-16T03:24:58Z" uid="147510" user="woodpeck_fixbot" changeset="10405303">
    <nd ref="253090025"/>
    <nd ref="1097631987"/>
    <nd ref="253089935"/>
    <nd ref="253090589"/>
    <nd ref="253090034"/>
    <nd ref="583076268"/>
    <tag k="highway" v="residential"/>
    <tag k="name" v="Marigold Street"/>
  </way>
  <way id="23374905" version="2" timestamp="2009-12-08T01:50:59Z" uid="30201" user="rrankin" changeset="3321521">
    <nd ref="253090035"/>
    <nd ref="583076266"/>
    <nd ref="253090036"/>
    <tag k="highway" v="residential"/>
    <tag k="name" v="Woorang Street"/>
  </way>
  <way id="23374905" version="3" timestamp="2010-07-08T02:02:34Z" uid="74617" user="JohnSmith" changeset="5162525">
    <nd ref="253090035"/>
    <nd ref="583076266"/>
    <nd ref="253090036"/>
    <tag k="highway" v="residential"/>
    <tag k="maxspeed" v="50"/>
    <tag k="maxspeed:source" v="default residential speed limit in Australia"/>
    <tag k="name" v="Woorang Street"/>
  </way>
  <way id="23374905" version="4" timestamp="2012-01-16T03:24:59Z" uid="147510" user="woodpeck_fixbot" changeset="10405303">
    <nd ref="253090035"/>
    <nd ref="583076266"/>
    <nd ref="253090036"/>
    <tag k="highway" v="residential"/>
    <tag k="name" v="Woorang Street"/>
  </way>
  <way id="23374907" version="2" timestamp="2009-12-08T01:51:02Z" uid="30201" user="rrankin" changeset="3321521"/>
  <way id="23374929" version="24" timestamp="2008-11-26T02:02:07Z" uid="6975" user="ulfl" changeset="794829">
    <nd ref="253090369"/>
    <nd ref="253090370"/>
    <nd ref="312776339"/>
    <nd ref="312776336"/>
    <nd ref="253090421"/>
    <tag k="highway" v="secondary"/>
    <tag k="name" v="Route de Crissier"/>
    <tag k="nat_ref" v="135;137"/>
    <tag k="oneway" v="yes"/>
    <tag k="rcrc_ref" v="151a"/>
  </way>
  <way id="23374929" version="25" timestamp="2009-01-05T12:19:48Z" uid="52683" user="zittix" changeset="736113">
    <nd ref="253090369"/>
    <nd ref="253090370"/>
    <nd ref="312776339"/>
    <nd ref="312776336"/>
    <nd ref="327059972"/>
    <nd ref="253090421"/>
    <tag k="highway" v="secondary"/>
    <tag k="name" v="Route de Crissier"/>
    <tag k="nat_ref" v="135;137"/>
    <tag k="oneway" v="yes"/>
    <tag k="rcrc_ref" v="151a"/>
  </way>
  <way id="23374929" version="26" timestamp="2009-04-29T11:29:51Z" uid="17835" user="Stéphane Brunner" changeset="1014548">
    <nd ref="253090369"/>
    <nd ref="253090370"/>
    <nd ref="312776339"/>
    <nd ref="312776336"/>
    <nd ref="327059972"/>
    <tag k="highway" v="secondary"/>
    <tag k="name" v="Route de Crissier"/>
    <tag k="nat_ref" v="135;137"/>
    <tag k="oneway" v="yes"/>
    <tag k="rcrc_ref" v="151a"/>
  </way>
  <way id="23374929" version="27" timestamp="2009-05-06T17:48:16Z" uid="111123" user="Nicolas Korber" changeset="1099686">
    <nd ref="253090369"/>
    <nd ref="253090370"/>
    <nd ref="312776339"/>
    <nd ref="312776336"/>
    <nd ref="327059972"/>
    <tag k="highway" v="primary"/>
    <tag k="name" v="Route de Crissier"/>
    <tag k="nat_ref" v="135;137"/>
    <tag k="oneway" v="yes"/>
    <tag k="rcrc_ref" v="151a"/>
  </way>
  <way id="23374929" version="28" timestamp="2009-05-07T21:21:33Z" uid="74847" user="Marc Mongenet" changeset="1112271">
    <nd ref="253090369"/>
    <nd ref="253090370"/>
    <nd ref="312776339"/>
    <nd ref="312776336"/>
    <nd ref="327059972"/>
    <tag k="highway" v="secondary"/>
    <tag k="name" v="Route de Crissier"/>
    <tag k="nat_ref" v="135;137"/>
    <tag k="oneway" v="yes"/>
    <tag k="rcrc_ref" v="151a"/>
  </way>
  <way id="23374929" version="29" timestamp="2009-05-07T21:31:52Z" uid="74847" user="Marc Mongenet" changeset="1112332">
    <nd ref="253090369"/>
    <nd ref="392136826"/>
    <nd ref="253090370"/>
    <nd ref="312776339"/>
    <nd ref="327059972"/>
    <tag k="highway" v="secondary"/>
    <tag k="name" v="Route de Crissier"/>
    <tag k="nat_ref" v="135;137"/>
    <tag k="oneway" v="yes"/>
    <tag k="rcrc_ref" v="151a"/>
  </way>
  <way id="23374929" version="30" timestamp="2009-07-20T20:12:53Z" uid="17835" user="Stéphane Brunner" changeset="1889104">
    <nd ref="253090369"/>
    <nd ref="392136826"/>
    <nd ref="253090370"/>
    <nd ref="312776339"/>
    <nd ref="327059972"/>
    <tag k="highway" v="secondary"/>
    <tag k="maxspeed" v="80"/>
    <tag k="name" v="Route de Crissier"/>
    <tag k="nat_ref" v="135;137"/>
    <tag k="oneway" v="yes"/>
    <tag k="rcrc_ref" v="151a"/>
  </way>
  <way id="23374929" version="31" timestamp="2009-11-29T18:07:56Z" uid="111123" user="Nicolas Korber" changeset="3248697"/>
  <way id="23374977" version="1" timestamp="2008-03-20T22:02:43Z" uid="6269" user="Mueck" changeset="357826">
    <nd ref="253090367"/>
    <nd ref="253090501"/>
    <nd ref="253090502"/>
    <nd ref="253090503"/>
    <nd ref="253090504"/>
    <nd ref="253090505"/>
    <nd ref="253090506"/>
    <nd ref="253090507"/>
    <nd ref="253090508"/>
    <nd ref="253090509"/>
    <nd ref="253090510"/>
    <nd ref="253090511"/>
    <nd ref="253090512"/>
    <nd ref="253090513"/>
    <tag k="created_by" v="Potlatch 0.7b"/>
    <tag k="highway" v="footway"/>
    <tag k="tracktype" v="grade2"/>
  </way>
  <way id="23374977" version="2" timestamp="2008-07-11T11:46:45Z" uid="6269" user="Mueck" changeset="458863">
    <nd ref="253090367"/>
    <nd ref="253090501"/>
    <nd ref="253090502"/>
    <nd ref="253090503"/>
    <nd ref="253090504"/>
    <nd ref="253090505"/>
    <nd ref="253090506"/>
    <nd ref="253090507"/>
    <tag k="created_by" v="Potlatch 0.9c"/>
    <tag k="highway" v="footway"/>
    <tag k="tracktype" v="grade2"/>
  </way>
  <way id="23374977" version="3" timestamp="2010-11-21T19:32:11Z" uid="11008" user="spacer1971" changeset="6425952">
    <nd ref="253090367"/>
    <nd ref="253090501"/>
    <nd ref="253090502"/>
    <nd ref="253090503"/>
    <nd ref="253090504"/>
    <nd ref="253090505"/>
    <nd ref="253090506"/>
    <nd ref="253090507"/>
    <nd ref="253090508"/>
    <tag k="highway" v="footway"/>
    <tag k="tracktype" v="grade2"/>
  </way>
  <way id="23374977" version="4" timestamp="2012-01-19T21:13:16Z" uid="91490" user="Heinz_V" changeset="10441318"/>
  <way id="23374997" version="4" timestamp="2008-04-06T07:44:54Z" uid="30201" user="rrankin" changeset="64490">
    <nd ref="253090436"/>
    <nd ref="256001273"/>
    <tag k="created_by" v="Potlatch 0.7b"/>
    <tag k="highway" v="tertiary"/>
    <tag k="name" v="Horsley Road"/>
  </way>
  <way id="23374390" version="4" timestamp="2012-08-15T21:55:30Z" uid="18675" user="JeLuF" changeset="12744820">
    <nd ref="253086420"/>
    <nd ref="253086431"/>
    <nd ref="1867984986"/>
    <nd ref="253086432"/>
    <tag k="highway" v="residential"/>
    <tag k="name" v="Snowsill Avenue"/>
  </way>
  <way id="23374406" version="4" timestamp="2012-08-02T12:39:19Z" uid="19492" user="rw__" changeset="12585479">
    <nd ref="253086463"/>
    <nd ref="253086477"/>
    <nd ref="253086432"/>
    <nd ref="253086478"/>
    <nd ref="1848369636"/>
    <nd ref="253086479"/>
    <nd ref="1848369634"/>
    <nd ref="253086480"/>
    <tag k="highway" v="residential"/>
    <tag k="name" v="Napoli Street"/>
  </way>
  <way id="23374408" version="5" timestamp="2012-08-02T12:39:18Z" uid="19492" user="rw__" changeset="12585479">
    <nd ref="253086488"/>
    <nd ref="253086480"/>
    <nd ref="1848369626"/>
    <nd ref="253086523"/>
    <nd ref="253086489"/>
    <tag k="highway" v="residential"/>
    <tag k="name" v="Lachlan Street"/>
  </way>
  <way id="23374415" version="5" timestamp="2012-07-20T10:13:52Z" uid="722137" user="OSMF Redaction Account" changeset="12370908"/>
  <way id="23374432" version="5" timestamp="2012-07-20T10:07:27Z" uid="722137" user="OSMF Redaction Account" changeset="12370653">
    <nd ref="253086733"/>
    <nd ref="253086740"/>
    <nd ref="253086741"/>
    <nd ref="253086742"/>
    <tag k="highway" v="residential"/>
    <tag k="name" v="Mavis Street"/>
  </way>
  <way id="23374432" version="6" timestamp="2012-07-21T15:56:21Z" uid="120989" user="aromatiker" changeset="12414063">
    <nd ref="253086733"/>
    <nd ref="1833290699"/>
    <nd ref="253086740"/>
    <nd ref="253086741"/>
    <nd ref="253086742"/>
    <tag k="highway" v="residential"/>
    <tag k="name" v="Mavis Street"/>
  </way>
  <way id="23374446" version="7" timestamp="2012-07-07T10:09:12Z" uid="713671" user="auspod" changeset="12138510">
    <nd ref="253086805"/>
    <nd ref="616194548"/>
    <nd ref="253086817"/>
    <nd ref="1815701153"/>
    <nd ref="253088044"/>
    <nd ref="1815701123"/>
    <tag k="highway" v="residential"/>
    <tag k="name" v="Claribel Street"/>
  </way>
  <way id="23374446" version="8" timestamp="2012-07-20T10:07:23Z" uid="722137" user="OSMF Redaction Account" changeset="12370653">
    <nd ref="253086805"/>
    <nd ref="253086817"/>
    <nd ref="1815701153"/>
    <nd ref="253088044"/>
    <nd ref="1815701123"/>
    <tag k="highway" v="residential"/>
    <tag k="name" v="Claribel Street"/>
  </way>
  <way id="23374453" version="5" timestamp="2012-07-07T10:09:11Z" uid="713671" user="auspod" changeset="12138510">
    <nd ref="1815701069"/>
    <nd ref="1815701123"/>
    <nd ref="1815701087"/>
    <tag k="highway" v="residential"/>
    <tag k="name" v="Gallipoli Street"/>
  </way>
  <way id="23374557" version="13" timestamp="2012-07-07T10:09:13Z" uid="713671" user="auspod" changeset="12138510">
    <nd ref="1815701076"/>
    <nd ref="1815701135"/>
    <nd ref="1815701067"/>
    <tag k="highway" v="tertiary"/>
    <tag k="name" v="Elridge Road"/>
  </way>
  <way id="23374557" version="14" timestamp="2012-08-18T08:46:05Z" uid="408202" user="BFX" changeset="12769739">
    <nd ref="1815701076"/>
    <nd ref="1815701135"/>
    <nd ref="1871038839"/>
    <nd ref="1815701067"/>
    <tag k="highway" v="tertiary"/>
    <tag k="name" v="Elridge Road"/>
  </way>
  <way id="23374595" version="5" timestamp="2012-07-07T10:09:13Z" uid="713671" user="auspod" changeset="12138510">
    <nd ref="253088044"/>
    <nd ref="1815701080"/>
    <tag k="highway" v="residential"/>
    <tag k="name" v="Artegall Street"/>
  </way>
  <way id="23374603" version="9" timestamp="2012-07-07T10:09:13Z" uid="713671" user="auspod" changeset="12138510">
    <nd ref="1815701099"/>
    <nd ref="1815701153"/>
    <nd ref="1815701145"/>
    <nd ref="1815701070"/>
    <nd ref="1815701136"/>
    <nd ref="1815701134"/>
    <nd ref="1815701094"/>
    <tag k="highway" v="residential"/>
    <tag k="name" v="Northam Avenue"/>
  </way>
  <way id="23374607" version="9" timestamp="2012-07-07T08:52:56Z" uid="713671" user="auspod" changeset="12137958">
    <nd ref="253087601"/>
    <nd ref="1815636191"/>
    <nd ref="1815636285"/>
    <nd ref="1815636508"/>
    <tag k="highway" v="tertiary"/>
    <tag k="name" v="Northam Avenue"/>
  </way>
  <way id="23374607" version="10" timestamp="2012-07-07T10:09:13Z" uid="713671" user="auspod" changeset="12138510">
    <nd ref="1815701081"/>
    <nd ref="1815636191"/>
    <nd ref="1815636285"/>
    <nd ref="1815636508"/>
    <tag k="highway" v="tertiary"/>
    <tag k="name" v="Northam Avenue"/>
  </way>
  <way id="23374609" version="12" timestamp="2012-07-07T08:52:54Z" uid="713671" user="auspod" changeset="12137958">
    <nd ref="1815636383"/>
    <nd ref="1815636168"/>
    <nd ref="1815636171"/>
    <nd ref="1815636283"/>
    <nd ref="1815636384"/>
    <nd ref="1815636354"/>
    <nd ref="253088112"/>
    <nd ref="1815636128"/>
    <nd ref="1815636262"/>
    <nd ref="1815636399"/>
    <tag k="highway" v="residential"/>
    <tag k="name" v="Northam Avenue"/>
  </way>
  <way id="23374626" version="3" timestamp="2012-07-07T10:09:13Z" uid="713671" user="auspod" changeset="12138510">
    <nd ref="1815701074"/>
    <nd ref="1815701084"/>
    <nd ref="253088239"/>
    <tag k="highway" v="service"/>
    <tag k="name" v="Calidore Lane"/>
  </way>
  <way id="23374626" version="4" timestamp="2012-07-20T10:09:25Z" uid="722137" user="OSMF Redaction Account" changeset="12370747">
    <nd ref="1815701074"/>
    <nd ref="1815701084"/>
    <nd ref="253088239"/>
    <tag k="highway" v="service"/>
  </way>
  <way id="23374630" version="7" timestamp="2012-07-07T10:09:13Z" uid="713671" user="auspod" changeset="12138510">
    <nd ref="1815701141"/>
    <nd ref="1044186794"/>
    <tag k="highway" v="residential"/>
    <tag k="name" v="Antwerp Street"/>
    <tag k="restriction" v="school_zone"/>
  </way>
  <way id="23374630" version="8" timestamp="2012-07-20T10:13:55Z" uid="722137" user="OSMF Redaction Account" changeset="12370908"/>
  <way id="23374638" version="5" timestamp="2012-07-20T10:07:11Z" uid="722137" user="OSMF Redaction Account" changeset="12370653">
    <nd ref="253088302"/>
    <nd ref="253088303"/>
    <nd ref="253088304"/>
    <nd ref="253088305"/>
    <nd ref="253088306"/>
    <nd ref="253088307"/>
    <nd ref="253088308"/>
    <nd ref="253088309"/>
    <nd ref="253088310"/>
    <nd ref="253088311"/>
    <nd ref="253088302"/>
    <tag k="layer" v="-2"/>
    <tag k="leisure" v="park"/>
    <tag k="name" v="Bankstown City Sports Complex"/>
  </way>
  <way id="23374642" version="6" timestamp="2012-07-07T08:52:55Z" uid="713671" user="auspod" changeset="12137958">
    <nd ref="253088312"/>
    <nd ref="1815636209"/>
    <nd ref="1815636160"/>
    <nd ref="1815636342"/>
    <tag k="highway" v="residential"/>
    <tag k="name" v="Irvine Street"/>
  </way>
  <way id="23374644" version="4" timestamp="2012-07-07T08:52:54Z" uid="713671" user="auspod" changeset="12137958">
    <nd ref="253088325"/>
    <nd ref="253088331"/>
    <nd ref="1815636209"/>
    <tag k="highway" v="residential"/>
    <tag k="name" v="Herbert Street"/>
  </way>
  <way id="23374644" version="5" timestamp="2012-07-07T10:09:13Z" uid="713671" user="auspod" changeset="12138510">
    <nd ref="1815701135"/>
    <nd ref="1815701124"/>
    <nd ref="1815636209"/>
    <tag k="highway" v="residential"/>
    <tag k="name" v="Herbert Street"/>
  </way>
  <way id="23374653" version="4" timestamp="2012-07-07T08:52:55Z" uid="713671" user="auspod" changeset="12137958">
    <nd ref="253088331"/>
    <nd ref="1815636191"/>
    <tag k="highway" v="residential"/>
    <tag k="name" v="Arthur Street"/>
  </way>
  <way id="23374653" version="5" timestamp="2012-07-07T10:09:13Z" uid="713671" user="auspod" changeset="12138510">
    <nd ref="1815701124"/>
    <nd ref="1815636191"/>
    <tag k="highway" v="residential"/>
    <tag k="name" v="Arthur Street"/>
  </way>
  <way id="23374654" version="4" timestamp="2012-07-07T08:52:56Z" uid="713671" user="auspod" changeset="12137958">
    <nd ref="26429342"/>
    <nd ref="253088388"/>
    <nd ref="1815636314"/>
    <tag k="highway" v="residential"/>
    <tag k="name" v="Edward Street"/>
  </way>
  <way id="23374656" version="5" timestamp="2012-07-07T08:52:55Z" uid="713671" user="auspod" changeset="12137958">
    <nd ref="253088400"/>
    <nd ref="1044160441"/>
    <nd ref="1815636309"/>
    <tag k="highway" v="residential"/>
    <tag k="name" v="High Street"/>
  </way>
  <way id="23374656" version="6" timestamp="2012-07-20T10:07:12Z" uid="722137" user="OSMF Redaction Account" changeset="12370653">
    <nd ref="253088400"/>
    <nd ref="1815636309"/>
    <tag k="highway" v="residential"/>
    <tag k="name" v="High Street"/>
  </way>
  <way id="23374700" version="19" timestamp="2012-04-24T16:00:04Z" uid="17835" user="Stéphane Brunner" changeset="11406739">
    <nd ref="260554642"/>
    <nd ref="1475413663"/>
    <nd ref="1642346252"/>
    <nd ref="364060353"/>
    <nd ref="452425357"/>
    <nd ref="364060458"/>
    <nd ref="252986174"/>
    <tag k="highway" v="primary"/>
    <tag k="lit" v="yes"/>
    <tag k="maxspeed" v="60"/>
    <tag k="name" v="Avenue du Tir Fédéral"/>
    <tag k="rcrc_ref" v="82b"/>
    <tag k="ref" v="136"/>
  </way>
  <way id="23374701" version="16" timestamp="2012-04-24T16:00:03Z" uid="17835" user="Stéphane Brunner" changeset="11406739">
    <nd ref="252986197"/>
    <nd ref="260554642"/>
    <tag k="bridge" v="yes"/>
    <tag k="highway" v="primary"/>
    <tag k="layer" v="1"/>
    <tag k="lit" v="yes"/>
    <tag k="maxspeed" v="60"/>
    <tag k="name" v="Avenue du Tir Fédéral"/>
    <tag k="rcrc_ref" v="82b"/>
    <tag k="ref" v="136"/>
  </way>
  <way id="23374726" version="19" timestamp="2012-04-24T16:00:08Z" uid="17835" user="Stéphane Brunner" changeset="11406739">
    <nd ref="319404161"/>
    <nd ref="500856155"/>
    <nd ref="388419943"/>
    <nd ref="20934832"/>
    <tag k="bridge" v="yes"/>
    <tag k="highway" v="primary"/>
    <tag k="layer" v="1"/>
    <tag k="maxspeed" v="60"/>
    <tag k="name" v="Route de Pont-Bleu"/>
    <tag k="rcrc_ref" v="82b"/>
    <tag k="ref" v="136"/>
  </way>
  <way id="23374785" version="7" timestamp="2012-04-27T01:29:17Z" uid="82317" user="AM909" changeset="11429194">
    <nd ref="253089392"/>
    <nd ref="253089391"/>
    <tag k="bridge" v="yes"/>
    <tag k="bridge_name" v="Cesar Chavez Ave OC"/>
    <tag k="bridge_ref" v="710/LA/53-1154"/>
    <tag k="highway" v="secondary"/>
    <tag k="is_in:county" v="Los Angeles"/>
    <tag k="is_in:state_code" v="CA"/>
    <tag k="layer" v="1"/>
    <tag k="milepost:county" v="24.97"/>
    <tag k="name" v="Cesar E Chavez Avenue"/>
    <tag k="note" v="Bridge ref pic from I-710 North"/>
    <tag k="odbl" v="clean"/>
    <tag k="source" v="survey;image;usgs_imagery"/>
    <tag k="source:bridge" v="usgs_imagery;survey;image;CDOT"/>
    <tag k="source_ref" v="AM909_DSCS6258"/>
    <tag k="source_ref:bridge" v="AM909_DSCV1709"/>
  </way>
  <way id="23374786" version="8" timestamp="2012-04-27T01:06:51Z" uid="82317" user="AM909" changeset="11429157">
    <nd ref="253089391"/>
    <nd ref="76460270"/>
    <nd ref="123022169"/>
    <nd ref="36220523"/>
    <nd ref="123489564"/>
    <nd ref="253089394"/>
    <nd ref="122843189"/>
    <nd ref="123489563"/>
    <nd ref="123489561"/>
    <nd ref="123489560"/>
    <nd ref="253080112"/>
    <nd ref="123254666"/>
    <nd ref="123144596"/>
    <nd ref="123489559"/>
    <nd ref="122749470"/>
    <nd ref="123489557"/>
    <nd ref="123489554"/>
    <nd ref="123209541"/>
    <nd ref="123489551"/>
    <nd ref="123363234"/>
    <nd ref="604117941"/>
    <nd ref="21507165"/>
    <nd ref="21507166"/>
    <nd ref="250233047"/>
    <nd ref="604117940"/>
    <nd ref="123070522"/>
    <nd ref="123455962"/>
    <nd ref="122953712"/>
    <nd ref="122704529"/>
    <nd ref="122996281"/>
    <nd ref="604238536"/>
    <tag k="highway" v="secondary"/>
    <tag k="name" v="Cesar E Chavez Avenue"/>
    <tag k="odbl" v="clean"/>
    <tag k="old_name" v="Brooklyn Ave"/>
    <tag k="source" v="survey;image;usgs_imagery"/>
    <tag k="source_ref" v="AM909_DSCQ2211"/>
  </way>
  <way id="23374786" version="9" timestamp="2012-04-30T22:23:32Z" uid="104962" user="techlady" changeset="11464645">
    <nd ref="253089391"/>
    <nd ref="76460270"/>
    <nd ref="123022169"/>
    <nd ref="36220523"/>
    <nd ref="123489564"/>
    <nd ref="253089394"/>
    <nd ref="122843189"/>
    <nd ref="123489563"/>
    <nd ref="123489561"/>
    <nd ref="123489560"/>
    <nd ref="253080112"/>
    <nd ref="123254666"/>
    <nd ref="123144596"/>
    <nd ref="123489559"/>
    <nd ref="122749470"/>
    <nd ref="123489557"/>
    <nd ref="123489554"/>
    <nd ref="123209541"/>
    <nd ref="123489551"/>
    <nd ref="123363234"/>
    <nd ref="604117941"/>
    <nd ref="21507165"/>
    <nd ref="21507166"/>
    <nd ref="250233047"/>
    <nd ref="604117940"/>
    <nd ref="123070522"/>
    <tag k="highway" v="secondary"/>
    <tag k="name" v="Cesar E Chavez Avenue"/>
    <tag k="odbl" v="clean"/>
    <tag k="old_name" v="Brooklyn Ave"/>
    <tag k="source" v="survey;image;usgs_imagery"/>
    <tag k="source_ref" v="AM909_DSCQ2211"/>
  </way>
  <way id="23374789" version="7" timestamp="2012-05-06T07:36:47Z" uid="82317" user="AM909" changeset="11515071">
    <nd ref="122468966"/>
    <nd ref="123480173"/>
    <tag k="bridge" v="yes"/>
    <tag k="bridge_name" v="First Street OC"/>
    <tag k="bridge_ref" v="710/LA/53-1153"/>
    <tag k="highway" v="tertiary"/>
    <tag k="is_in:state_code" v="CA"/>
    <tag k="layer" v="1"/>
    <tag k="milepost:county" v="24.73;24.72"/>
    <tag k="name" v="East 1st Street"/>
    <tag k="note" v="Bridge ref pic from I-710 South;Bridge ref pic from I-710 North"/>
    <tag k="odbl" v="clean"/>
    <tag k="source:bridge" v="usgs_imagery;survey;image;CDOT"/>
    <tag k="source_ref:bridge" v="AM909_DSCV1395;AM909_DSCV1706"/>
    <tag k="tiger:cfcc" v="A41"/>
    <tag k="tiger:county" v="Los Angeles, CA"/>
    <tag k="tiger:name_base" v="1st"/>
    <tag k="tiger:name_direction_prefix" v="E"/>
    <tag k="tiger:name_type" v="St"/>
    <tag k="tiger:separated" v="no"/>
    <tag k="tiger:source" v="tiger_import_dch_v0.6_20070809"/>
    <tag k="tiger:tlid" v="141637675"/>
  </way>
  <way id="23374790" version="15" timestamp="2012-04-27T01:29:41Z" uid="82317" user="AM909" changeset="11429194">
    <nd ref="123480173"/>
    <nd ref="122682741"/>
    <nd ref="122797519"/>
    <nd ref="122585565"/>
    <nd ref="604117944"/>
    <nd ref="604117946"/>
    <nd ref="253089408"/>
    <nd ref="604117947"/>
    <nd ref="123480177"/>
    <nd ref="122998023"/>
    <nd ref="122937047"/>
    <nd ref="589970423"/>
    <nd ref="253080139"/>
    <nd ref="589970422"/>
    <nd ref="589970420"/>
    <nd ref="253080138"/>
    <nd ref="123246815"/>
    <nd ref="253080137"/>
    <nd ref="589970419"/>
    <nd ref="253080136"/>
    <nd ref="589970418"/>
    <nd ref="123117583"/>
    <nd ref="123144593"/>
    <nd ref="123480181"/>
    <nd ref="122726452"/>
    <nd ref="122813655"/>
    <nd ref="123480183"/>
    <nd ref="122817075"/>
    <nd ref="122603618"/>
    <nd ref="269608965"/>
    <nd ref="269608929"/>
    <tag k="highway" v="tertiary"/>
    <tag k="name" v="East 1st Street"/>
    <tag k="odbl" v="clean"/>
    <tag k="source" v="survey;image;usgs_imagery"/>
    <tag k="source_ref" v="AM909_DSCQ2204"/>
    <tag k="tiger:cfcc" v="A41"/>
    <tag k="tiger:county" v="Los Angeles, CA"/>
    <tag k="tiger:name_base" v="1st"/>
    <tag k="tiger:name_direction_prefix" v="E"/>
    <tag k="tiger:name_type" v="St"/>
    <tag k="tiger:separated" v="no"/>
    <tag k="tiger:source" v="tiger_import_dch_v0.6_20070809"/>
    <tag k="tiger:tlid" v="141637675"/>
  </way>
  <way id="23374837" version="8" timestamp="2012-07-24T16:36:57Z" uid="722137" user="OSMF Redaction Account" changeset="12470646">
    <nd ref="253089637"/>
    <nd ref="253089638"/>
    <nd ref="1288919772"/>
    <nd ref="253089639"/>
    <nd ref="1288925805"/>
    <nd ref="253089641"/>
    <nd ref="33627617"/>
    <tag k="highway" v="living_street"/>
    <tag k="name" v="Weidenweg"/>
  </way>
  <way id="23374839" version="19" timestamp="2012-07-24T16:17:51Z" uid="722137" user="OSMF Redaction Account" changeset="12470123">
    <nd ref="1288975590"/>
    <nd ref="1061622871"/>
    <nd ref="1289026137"/>
    <nd ref="1289176361"/>
    <nd ref="1289176394"/>
    <nd ref="1289176380"/>
    <nd ref="1289176378"/>
    <nd ref="1289176387"/>
    <nd ref="1289176381"/>
    <nd ref="1289176364"/>
    <nd ref="1289176384"/>
    <nd ref="1289184889"/>
    <nd ref="33627559"/>
    <nd ref="1289184844"/>
    <nd ref="1289184935"/>
    <nd ref="1289184880"/>
    <nd ref="1061623141"/>
    <nd ref="1061622679"/>
    <nd ref="1297906279"/>
    <nd ref="1297906260"/>
    <nd ref="1297906249"/>
    <nd ref="33627562"/>
    <nd ref="1297906273"/>
    <nd ref="1297906283"/>
    <nd ref="33627564"/>
    <nd ref="271412014"/>
    <nd ref="33627566"/>
    <nd ref="33627569"/>
    <nd ref="271402473"/>
    <nd ref="33627571"/>
    <nd ref="33627575"/>
    <nd ref="33627576"/>
    <nd ref="33627577"/>
    <nd ref="1510079942"/>
    <nd ref="1510079959"/>
    <nd ref="1510079997"/>
    <nd ref="1510080061"/>
    <nd ref="33627579"/>
    <nd ref="273196595"/>
    <nd ref="273182623"/>
    <nd ref="33627582"/>
    <nd ref="33627583"/>
    <nd ref="1510080369"/>
    <nd ref="33627584"/>
    <tag k="highway" v="tertiary"/>
  </way>
  <way id="23374839" version="20" timestamp="2012-07-25T14:50:52Z" uid="163437" user="r-michael" changeset="12488006">
    <nd ref="1288975590"/>
    <nd ref="1061622871"/>
    <nd ref="1289026137"/>
    <nd ref="1289176361"/>
    <nd ref="1289176394"/>
    <nd ref="1289176380"/>
    <nd ref="1289176378"/>
    <nd ref="1289176387"/>
    <nd ref="1289176381"/>
    <nd ref="1289176364"/>
    <nd ref="1289176384"/>
    <nd ref="1289184889"/>
    <nd ref="33627559"/>
    <nd ref="1289184844"/>
    <nd ref="1289184935"/>
    <nd ref="1289184880"/>
    <nd ref="1061623141"/>
    <nd ref="1061622679"/>
    <nd ref="1297906279"/>
    <nd ref="1297906260"/>
    <nd ref="1297906249"/>
    <nd ref="33627562"/>
    <nd ref="1297906273"/>
    <nd ref="1297906283"/>
    <nd ref="33627564"/>
    <nd ref="271412014"/>
    <nd ref="33627566"/>
    <nd ref="33627569"/>
    <nd ref="271402473"/>
    <nd ref="33627571"/>
    <nd ref="33627575"/>
    <nd ref="33627576"/>
    <nd ref="33627577"/>
    <nd ref="1510079942"/>
    <nd ref="1510079959"/>
    <nd ref="1510079997"/>
    <nd ref="1510080061"/>
    <nd ref="33627579"/>
    <nd ref="273196595"/>
    <nd ref="273182623"/>
    <nd ref="33627582"/>
    <nd ref="33627583"/>
    <nd ref="1510080369"/>
    <nd ref="33627584"/>
    <tag k="highway" v="tertiary"/>
    <tag k="ref" v="K 6109"/>
  </way>
  <way id="23374845" version="34" timestamp="2012-07-24T16:18:14Z" uid="722137" user="OSMF Redaction Account" changeset="12470123">
    <nd ref="625203773"/>
    <nd ref="625194386"/>
    <nd ref="625194388"/>
    <nd ref="623057914"/>
    <nd ref="1295913338"/>
    <nd ref="253089645"/>
    <nd ref="625186864"/>
    <nd ref="1295906948"/>
    <tag k="maxspeed" v="50"/>
    <tag k="name" v="Lübbener Straße"/>
    <tag k="ref" v="L 44"/>
    <tag k="surface" v="paved"/>
  </way>
  <way id="23374845" version="35" timestamp="2012-07-25T12:24:55Z" uid="28234" user="derandi" changeset="12486256">
    <nd ref="625203773"/>
    <nd ref="625194386"/>
    <nd ref="625194388"/>
    <nd ref="623057914"/>
    <nd ref="1295913338"/>
    <nd ref="253089645"/>
    <nd ref="625186864"/>
    <nd ref="1295906948"/>
    <tag k="highway" v="secondary"/>
    <tag k="maxspeed" v="50"/>
    <tag k="name" v="Lübbener Straße"/>
    <tag k="ref" v="L 44"/>
    <tag k="surface" v="paved"/>
  </way>
  <way id="23374869" version="4" timestamp="2012-07-07T08:52:55Z" uid="713671" user="auspod" changeset="12137958">
    <nd ref="1815636299"/>
    <nd ref="1815636502"/>
    <tag k="highway" v="tertiary"/>
    <tag k="name" v="Shenton Avenue"/>
  </way>
  <way id="23374870" version="6" timestamp="2012-07-07T08:52:54Z" uid="713671" user="auspod" changeset="12137958">
    <nd ref="1815636403"/>
    <nd ref="1815636244"/>
    <tag k="highway" v="residential"/>
    <tag k="name" v="Shenton Avenue"/>
  </way>
  <way id="23374886" version="5" timestamp="2012-08-02T12:39:18Z" uid="19492" user="rw__" changeset="12585479">
    <nd ref="253089853"/>
    <nd ref="253089868"/>
    <nd ref="253089869"/>
    <nd ref="253089870"/>
    <nd ref="253089871"/>
    <nd ref="1848369649"/>
    <nd ref="253089943"/>
    <nd ref="253089944"/>
    <nd ref="253089872"/>
    <nd ref="253089873"/>
    <nd ref="253089874"/>
    <nd ref="253089875"/>
    <nd ref="253089964"/>
    <nd ref="253089876"/>
    <nd ref="253089877"/>
    <nd ref="253089878"/>
    <nd ref="253089879"/>
    <tag k="highway" v="residential"/>
    <tag k="name" v="Gordon Parker Street"/>
  </way>
  <way id="23374886" version="6" timestamp="2012-08-16T16:59:10Z" uid="18675" user="JeLuF" changeset="12753063">
    <nd ref="253089853"/>
    <nd ref="1868837540"/>
    <nd ref="253089868"/>
    <nd ref="253089869"/>
    <nd ref="253089870"/>
    <nd ref="253089871"/>
    <nd ref="1848369649"/>
    <nd ref="253089943"/>
    <nd ref="253089944"/>
    <nd ref="253089872"/>
    <nd ref="253089873"/>
    <nd ref="253089874"/>
    <nd ref="253089875"/>
    <nd ref="253089964"/>
    <nd ref="253089876"/>
    <nd ref="253089877"/>
    <nd ref="253089878"/>
    <nd ref="253089879"/>
    <tag k="highway" v="residential"/>
    <tag k="name" v="Gordon Parker Street"/>
  </way>
  <way id="23374887" version="6" timestamp="2012-07-20T10:07:30Z" uid="722137" user="OSMF Redaction Account" changeset="12370653">
    <nd ref="253089879"/>
    <nd ref="253089988"/>
    <nd ref="253089935"/>
    <tag k="highway" v="residential"/>
    <tag k="name" v="Carrington Street"/>
  </way>
  <way id="23374887" version="7" timestamp="2012-08-02T12:39:17Z" uid="19492" user="rw__" changeset="12585479">
    <nd ref="253089879"/>
    <nd ref="253089988"/>
    <nd ref="1848369646"/>
    <nd ref="253089935"/>
    <tag k="highway" v="residential"/>
    <tag k="name" v="Carrington Street"/>
  </way>
  <way id="23374890" version="5" timestamp="2012-07-20T10:13:51Z" uid="722137" user="OSMF Redaction Account" changeset="12370908"/>
  <way id="23374899" version="4" timestamp="2012-08-02T12:39:20Z" uid="19492" user="rw__" changeset="12585479">
    <nd ref="253089988"/>
    <nd ref="1848369597"/>
    <tag k="highway" v="residential"/>
    <tag k="name" v="Violet Street"/>
  </way>
  <way id="23374904" version="8" timestamp="2012-07-22T03:26:30Z" uid="722137" user="OSMF Redaction Account" changeset="12424864">
    <nd ref="1097631987"/>
    <nd ref="253090589"/>
    <nd ref="253090034"/>
    <tag k="highway" v="residential"/>
    <tag k="name" v="Marigold Street"/>
  </way>
  <way id="23374904" version="9" timestamp="2012-08-02T12:39:19Z" uid="19492" user="rw__" changeset="12585479">
    <nd ref="1097631987"/>
    <nd ref="253089935"/>
    <nd ref="253090589"/>
    <nd ref="253090034"/>
    <nd ref="1848369582"/>
    <nd ref="1848369580"/>
    <tag k="highway" v="residential"/>
    <tag k="name" v="Marigold Street"/>
  </way>
  <way id="23374905" version="5" timestamp="2012-07-20T10:07:18Z" uid="722137" user="OSMF Redaction Account" changeset="12370653">
    <nd ref="253090035"/>
    <nd ref="253090036"/>
    <tag k="highway" v="residential"/>
    <tag k="name" v="Woorang Street"/>
  </way>
  <way id="23374997" version="5" timestamp="2012-07-22T03:30:19Z" uid="722137" user="OSMF Redaction Account" changeset="12424885"/>
</osm>
