<?xml version='1.0' encoding='UTF-8'?>
<osm version="0.6" generator="libosmium/2.20.0">
  <way id="23596468" version="2" timestamp="2010-01-31T22:53:42Z" uid="20587" user="balrog-kun" changeset="3764164">
    <nd ref="255538931"/>
    <nd ref="255538932"/>
    <nd ref="255538933"/>
    <nd ref="255538934"/>
    <nd ref="255538931"/>
    <tag k="amenity" v="theatre"/>
    <tag k="building" v="true"/>
    <tag k="name" v="Centro Cultural Casa de Vacas"/>
  </way>
  <way id="23596468" version="3" timestamp="2010-02-26T14:50:48Z" uid="26599" user="cdavila" changeset="3980837">
    <nd ref="255538931"/>
    <nd ref="255538932"/>
    <nd ref="255538933"/>
    <nd ref="255538934"/>
    <nd ref="255538931"/>
    <tag k="amenity" v="theatre"/>
    <tag k="building" v="yes"/>
    <tag k="name" v="Centro Cultural Casa de Vacas"/>
  </way>
  <way id="23596650" version="3" timestamp="2009-12-09T18:03:48Z" uid="200463" user="harmagedon" changeset="3335395">
    <nd ref="255540209"/>
    <nd ref="255540211"/>
    <nd ref="255540210"/>
    <tag k="highway" v="living_street"/>
    <tag k="name" v="Zur Randsiedlung"/>
  </way>
  <way id="23596656" version="6" timestamp="2009-12-09T18:03:00Z" uid="200463" user="harmagedon" changeset="3335395">
    <nd ref="255540259"/>
    <nd ref="333278923"/>
    <nd ref="255540268"/>
    <nd ref="255540269"/>
    <nd ref="260306723"/>
    <nd ref="260778986"/>
    <nd ref="255540213"/>
    <nd ref="255540270"/>
    <nd ref="255540271"/>
    <nd ref="337858860"/>
    <nd ref="255540272"/>
    <tag k="highway" v="residential"/>
    <tag k="maxspeed" v="30"/>
    <tag k="name" v="Rosa-Luxemburg-Straße"/>
  </way>
  <way id="23596663" version="3" timestamp="2009-12-09T18:03:00Z" uid="200463" user="harmagedon" changeset="3335395">
    <nd ref="255540259"/>
    <nd ref="265206800"/>
    <nd ref="265206719"/>
    <nd ref="255540299"/>
    <tag k="highway" v="residential"/>
    <tag k="name" v="Clara-Zetkin-Straße"/>
  </way>
  <way id="23596790" version="3" timestamp="2009-11-06T00:48:36Z" uid="36809" user="pfoten_weg_!_" changeset="3044956">
    <nd ref="255541171"/>
    <nd ref="255541172"/>
    <tag k="bridge" v="yes"/>
    <tag k="highway" v="primary"/>
    <tag k="layer" v="1"/>
    <tag k="ref" v="B 112"/>
  </way>
  <way id="23596790" version="4" timestamp="2010-02-16T13:40:14Z" uid="163437" user="r-michael" changeset="3892214">
    <nd ref="255541171"/>
    <nd ref="255541172"/>
    <tag k="bridge" v="yes"/>
    <tag k="cycleway" v="track"/>
    <tag k="highway" v="primary"/>
    <tag k="layer" v="1"/>
    <tag k="ref" v="B 112"/>
  </way>
  <way id="23596954" version="3" timestamp="2008-08-08T10:23:45Z" uid="9581" user="Lobelt" changeset="135053">
    <nd ref="61105852"/>
    <nd ref="255542626"/>
    <nd ref="255542627"/>
    <nd ref="255542628"/>
    <nd ref="255542629"/>
    <nd ref="255542630"/>
    <nd ref="255542631"/>
    <nd ref="255542632"/>
    <nd ref="255542633"/>
    <nd ref="255542634"/>
    <nd ref="61105872"/>
    <nd ref="255542635"/>
    <nd ref="255542636"/>
    <nd ref="268286877"/>
    <nd ref="255542637"/>
    <nd ref="255542638"/>
    <nd ref="255542640"/>
    <nd ref="255542641"/>
    <nd ref="255542643"/>
    <nd ref="255542644"/>
    <nd ref="255542645"/>
    <nd ref="255542646"/>
    <nd ref="255542647"/>
    <nd ref="61105789"/>
    <nd ref="243351550"/>
    <tag k="created_by" v="Potlatch 0.10b"/>
    <tag k="highway" v="primary"/>
    <tag k="ref" v="B112"/>
  </way>
  <way id="23596954" version="4" timestamp="2008-08-23T19:27:04Z" uid="43566" user="anbr" changeset="381581">
    <nd ref="61105852"/>
    <nd ref="255542626"/>
    <nd ref="255542627"/>
    <nd ref="255542628"/>
    <nd ref="255542629"/>
    <nd ref="255542630"/>
    <nd ref="255542631"/>
    <nd ref="255542632"/>
    <nd ref="255542633"/>
    <nd ref="255542634"/>
    <nd ref="61105872"/>
    <nd ref="255542635"/>
    <nd ref="255542636"/>
    <nd ref="268286877"/>
    <nd ref="255542637"/>
    <nd ref="255542638"/>
    <nd ref="255542640"/>
    <nd ref="255542641"/>
    <nd ref="255542643"/>
    <nd ref="255542644"/>
    <nd ref="255542645"/>
    <nd ref="255542646"/>
    <nd ref="255542647"/>
    <nd ref="61105789"/>
    <nd ref="243351550"/>
    <tag k="created_by" v="Potlatch 0.10b"/>
    <tag k="highway" v="primary"/>
    <tag k="ref" v="B 112"/>
  </way>
  <way id="23596954" version="5" timestamp="2008-12-07T18:16:55Z" uid="28677" user="nau" changeset="239892">
    <nd ref="61105852"/>
    <nd ref="255542626"/>
    <nd ref="255542627"/>
    <nd ref="255542628"/>
    <nd ref="255542629"/>
    <nd ref="255542630"/>
    <nd ref="255542631"/>
    <nd ref="255542632"/>
    <nd ref="255542633"/>
    <nd ref="255542634"/>
    <nd ref="61105872"/>
    <nd ref="255542635"/>
    <nd ref="255542636"/>
    <nd ref="268286877"/>
    <nd ref="255542637"/>
    <nd ref="255542638"/>
    <nd ref="255542640"/>
    <nd ref="255542641"/>
    <nd ref="255542643"/>
    <tag k="created_by" v="Potlatch 0.10f"/>
    <tag k="highway" v="primary"/>
    <tag k="ref" v="B 112"/>
  </way>
  <way id="23596954" version="6" timestamp="2008-12-11T19:21:18Z" uid="28677" user="nau" changeset="320113">
    <nd ref="61105852"/>
    <nd ref="255542626"/>
    <nd ref="255542627"/>
    <nd ref="255542628"/>
    <nd ref="255542629"/>
    <nd ref="255542630"/>
    <nd ref="255542631"/>
    <nd ref="255542632"/>
    <nd ref="255542633"/>
    <nd ref="255542634"/>
    <nd ref="61105872"/>
    <nd ref="255542635"/>
    <tag k="created_by" v="Potlatch 0.10f"/>
    <tag k="highway" v="primary"/>
    <tag k="name" v="Grubenbahnstraße"/>
    <tag k="ref" v="B 112"/>
  </way>
  <way id="23596954" version="7" timestamp="2009-08-12T11:05:16Z" uid="28677" user="nau" changeset="2117454">
    <nd ref="61105852"/>
    <nd ref="255542626"/>
    <nd ref="255542627"/>
    <nd ref="255542628"/>
    <nd ref="255542629"/>
    <nd ref="255542630"/>
    <nd ref="255542631"/>
    <nd ref="255542632"/>
    <nd ref="255542633"/>
    <nd ref="255542634"/>
    <nd ref="61105872"/>
    <tag k="highway" v="primary"/>
    <tag k="name" v="Grubenbahnstraße"/>
    <tag k="ref" v="B 112"/>
  </way>
  <way id="23596954" version="8" timestamp="2009-10-08T08:53:47Z" uid="163437" user="r-michael" changeset="2780486">
    <nd ref="61105852"/>
    <nd ref="255542626"/>
    <nd ref="525399448"/>
    <nd ref="525399446"/>
    <nd ref="255542627"/>
    <nd ref="525399445"/>
    <nd ref="255542628"/>
    <nd ref="255542629"/>
    <nd ref="525399443"/>
    <nd ref="255542630"/>
    <nd ref="525399441"/>
    <nd ref="525399440"/>
    <nd ref="255542631"/>
    <nd ref="525399438"/>
    <nd ref="255542632"/>
    <nd ref="255542633"/>
    <nd ref="61105872"/>
    <tag k="highway" v="primary"/>
    <tag k="name" v="Grubenbahnstraße"/>
    <tag k="ref" v="B 112"/>
  </way>
  <way id="23596954" version="9" timestamp="2009-10-21T08:30:38Z" uid="163437" user="r-michael" changeset="2910040">
    <nd ref="61105852"/>
    <nd ref="255542626"/>
    <nd ref="525399448"/>
    <nd ref="525399446"/>
    <nd ref="255542627"/>
    <nd ref="525399445"/>
    <nd ref="255542628"/>
    <nd ref="255542629"/>
    <nd ref="525399443"/>
    <nd ref="255542630"/>
    <nd ref="525399441"/>
    <nd ref="525399440"/>
    <nd ref="255542631"/>
    <nd ref="525399438"/>
    <nd ref="255542632"/>
    <nd ref="255542633"/>
    <nd ref="61105872"/>
    <tag k="bridge" v="no"/>
    <tag k="cutting" v="no"/>
    <tag k="embankment" v="no"/>
    <tag k="highway" v="primary"/>
    <tag k="lanes" v="1"/>
    <tag k="motorroad" v="no"/>
    <tag k="name" v="Grubenbahnstraße"/>
    <tag k="oneway" v="no"/>
    <tag k="ref" v="B 112"/>
    <tag k="tunnel" v="no"/>
  </way>
  <way id="23596954" version="10" timestamp="2009-11-24T12:58:48Z" uid="163437" user="r-michael" changeset="3204131">
    <nd ref="61105852"/>
    <nd ref="255542626"/>
    <nd ref="525399448"/>
    <nd ref="525399446"/>
    <nd ref="255542627"/>
    <nd ref="525399445"/>
    <nd ref="255542628"/>
    <nd ref="255542629"/>
    <nd ref="525399443"/>
    <nd ref="255542630"/>
    <nd ref="525399441"/>
    <nd ref="525399440"/>
    <nd ref="255542631"/>
    <nd ref="525399438"/>
    <nd ref="255542632"/>
    <nd ref="255542633"/>
    <nd ref="61105872"/>
    <tag k="bridge" v="no"/>
    <tag k="cutting" v="no"/>
    <tag k="cycleway" v="track"/>
    <tag k="embankment" v="no"/>
    <tag k="highway" v="primary"/>
    <tag k="lanes" v="1"/>
    <tag k="motorroad" v="no"/>
    <tag k="name" v="Grubenbahnstraße"/>
    <tag k="oneway" v="no"/>
    <tag k="ref" v="B 112"/>
    <tag k="tunnel" v="no"/>
  </way>
  <way id="23596954" version="11" timestamp="2009-11-25T15:19:19Z" uid="163437" user="r-michael" changeset="3213132">
    <nd ref="61105852"/>
    <nd ref="255542626"/>
    <nd ref="525399448"/>
    <nd ref="525399446"/>
    <nd ref="255542627"/>
    <nd ref="525399445"/>
    <nd ref="255542628"/>
    <nd ref="255542629"/>
    <nd ref="525399443"/>
    <nd ref="255542630"/>
    <nd ref="525399441"/>
    <nd ref="525399440"/>
    <nd ref="255542631"/>
    <tag k="bridge" v="no"/>
    <tag k="cutting" v="no"/>
    <tag k="cycleway" v="track"/>
    <tag k="embankment" v="no"/>
    <tag k="highway" v="primary"/>
    <tag k="lanes" v="1"/>
    <tag k="maxspeed" v="80"/>
    <tag k="motorroad" v="no"/>
    <tag k="name" v="Grubenbahnstraße"/>
    <tag k="oneway" v="no"/>
    <tag k="ref" v="B 112"/>
    <tag k="tunnel" v="no"/>
  </way>
  <way id="23596954" version="12" timestamp="2010-03-20T17:10:32Z" uid="43566" user="anbr" changeset="4182166">
    <nd ref="61105852"/>
    <nd ref="255542626"/>
    <nd ref="525399448"/>
    <nd ref="525399446"/>
    <nd ref="255542627"/>
    <nd ref="525399445"/>
    <nd ref="255542628"/>
    <nd ref="255542629"/>
    <nd ref="525399443"/>
    <nd ref="255542630"/>
    <nd ref="525399441"/>
    <nd ref="525399440"/>
    <nd ref="255542631"/>
    <tag k="cycleway" v="track"/>
    <tag k="highway" v="primary"/>
    <tag k="lanes" v="1"/>
    <tag k="maxspeed" v="80"/>
    <tag k="motorroad" v="no"/>
    <tag k="name" v="Grubenbahnstraße"/>
    <tag k="ref" v="B 112"/>
  </way>
  <way id="23596954" version="13" timestamp="2010-08-20T07:38:02Z" uid="163437" user="r-michael" changeset="5541535">
    <nd ref="61105852"/>
    <nd ref="255542626"/>
    <nd ref="525399448"/>
    <nd ref="525399446"/>
    <nd ref="255542627"/>
    <nd ref="525399445"/>
    <nd ref="869913031"/>
    <nd ref="255542628"/>
    <nd ref="255542629"/>
    <nd ref="525399443"/>
    <nd ref="869913005"/>
    <nd ref="255542630"/>
    <nd ref="869913019"/>
    <nd ref="525399441"/>
    <nd ref="525399440"/>
    <nd ref="869913025"/>
    <nd ref="255542631"/>
    <tag k="cycleway" v="track"/>
    <tag k="highway" v="primary"/>
    <tag k="lanes" v="1"/>
    <tag k="maxspeed" v="80"/>
    <tag k="motorroad" v="no"/>
    <tag k="name" v="Grubenbahnstraße"/>
    <tag k="ref" v="B 112"/>
  </way>
  <way id="23596954" version="14" timestamp="2010-09-14T09:39:53Z" uid="163437" user="r-michael" changeset="5776775">
    <nd ref="61105852"/>
    <nd ref="255542626"/>
    <nd ref="525399448"/>
    <nd ref="525399446"/>
    <nd ref="255542627"/>
    <nd ref="525399445"/>
    <nd ref="869913031"/>
    <nd ref="255542628"/>
    <nd ref="255542629"/>
    <nd ref="525399443"/>
    <nd ref="869913005"/>
    <nd ref="255542630"/>
    <nd ref="869913019"/>
    <nd ref="525399441"/>
    <nd ref="525399440"/>
    <nd ref="869913025"/>
    <nd ref="255542631"/>
    <tag k="highway" v="primary"/>
    <tag k="lanes" v="1"/>
    <tag k="maxspeed" v="80"/>
    <tag k="name" v="Grubenbahnstraße"/>
    <tag k="ref" v="B 112"/>
  </way>
  <way id="23596954" version="15" timestamp="2010-12-01T16:27:33Z" uid="163437" user="r-michael" changeset="6505512">
    <nd ref="61105852"/>
    <nd ref="255542626"/>
    <nd ref="525399448"/>
    <nd ref="525399446"/>
    <nd ref="255542627"/>
    <nd ref="525399445"/>
    <nd ref="869913031"/>
    <tag k="highway" v="primary"/>
    <tag k="lanes" v="1"/>
    <tag k="maxspeed" v="80"/>
    <tag k="name" v="Grubenbahnstraße"/>
    <tag k="ref" v="B 112"/>
  </way>
  <way id="23596954" version="16" timestamp="2010-12-04T10:23:21Z" uid="163437" user="r-michael" changeset="6535709">
    <nd ref="61105852"/>
    <nd ref="255542626"/>
    <nd ref="525399448"/>
    <tag k="highway" v="primary"/>
    <tag k="lanes" v="1"/>
    <tag k="maxspeed" v="70"/>
    <tag k="name" v="Grubenbahnstraße"/>
    <tag k="ref" v="B 112"/>
  </way>
  <way id="23596790" version="5" timestamp="2012-04-18T12:01:00Z" uid="163437" user="r-michael" changeset="11343177">
    <nd ref="255541171"/>
    <nd ref="255541172"/>
    <tag k="bridge" v="yes"/>
    <tag k="highway" v="primary"/>
    <tag k="layer" v="1"/>
    <tag k="ref" v="B 112"/>
  </way>
  <way id="23596954" version="17" timestamp="2012-05-24T10:21:21Z" uid="163437" user="r-michael" changeset="11688305">
    <nd ref="61105852"/>
    <nd ref="1764055950"/>
    <nd ref="255542626"/>
    <nd ref="525399448"/>
    <tag k="highway" v="primary"/>
    <tag k="lanes" v="1"/>
    <tag k="maxspeed" v="70"/>
    <tag k="name" v="Grubenbahnstraße"/>
    <tag k="ref" v="B 112"/>
  </way>
</osm>
