<?xml version='1.0' encoding='UTF-8'?>
<osm version="0.6" generator="libosmium/2.20.0">
  <way id="23674475" version="13" timestamp="2009-10-07T16:17:12Z" uid="86259" user="hasse_osm_korinthenkacker" changeset="2773292">
    <nd ref="256372216"/>
    <nd ref="256372217"/>
    <nd ref="269705069"/>
    <nd ref="268801152"/>
    <nd ref="256372220"/>
    <tag k="highway" v="tertiary"/>
    <tag k="name" v="Neue Straße"/>
    <tag k="oneway" v="yes"/>
  </way>
  <way id="23674475" version="14" timestamp="2011-08-27T19:00:41Z" uid="40397" user="Zartbitter" changeset="9140658">
    <nd ref="256372216"/>
    <nd ref="256372217"/>
    <tag k="highway" v="tertiary"/>
    <tag k="name" v="Neue Straße"/>
    <tag k="oneway" v="yes"/>
  </way>
  <way id="23674477" version="8" timestamp="2009-10-07T16:17:12Z" uid="86259" user="hasse_osm_korinthenkacker" changeset="2773292">
    <nd ref="256372225"/>
    <nd ref="275569393"/>
    <nd ref="256372227"/>
    <tag k="highway" v="tertiary"/>
    <tag k="name" v="Knuthstraße"/>
    <tag k="oneway" v="yes"/>
  </way>
  <way id="23674477" version="9" timestamp="2011-07-18T15:59:54Z" uid="317484" user="Foerderadler" changeset="8759855">
    <nd ref="256372225"/>
    <nd ref="275569393"/>
    <nd ref="256372227"/>
    <tag k="highway" v="tertiary"/>
    <tag k="name" v="Knuthstraße"/>
    <tag k="oneway" v="yes"/>
    <tag k="ref" v="K 9"/>
  </way>
  <way id="23674478" version="31" timestamp="2009-10-07T16:17:12Z" uid="86259" user="hasse_osm_korinthenkacker" changeset="2773292">
    <nd ref="256372232"/>
    <nd ref="392643587"/>
    <nd ref="256372233"/>
    <nd ref="256372234"/>
    <nd ref="256372235"/>
    <nd ref="275572284"/>
    <nd ref="338439035"/>
    <nd ref="273727173"/>
    <tag k="highway" v="tertiary"/>
    <tag k="history" v="Retrieved from v12"/>
    <tag k="name" v="Knuthstraße"/>
    <tag k="ref" v="K 9"/>
  </way>
  <way id="23674478" version="32" timestamp="2010-08-26T15:40:20Z" uid="40397" user="Zartbitter" changeset="5600094">
    <nd ref="256372232"/>
    <nd ref="392643587"/>
    <nd ref="256372233"/>
    <nd ref="256372234"/>
    <nd ref="256372235"/>
    <nd ref="275572284"/>
    <nd ref="338439035"/>
    <nd ref="273727173"/>
    <tag k="highway" v="tertiary"/>
    <tag k="name" v="Knuthstraße"/>
    <tag k="ref" v="K 9"/>
  </way>
  <way id="23674478" version="33" timestamp="2011-02-08T14:11:54Z" uid="40397" user="Zartbitter" changeset="7227005">
    <nd ref="256372232"/>
    <nd ref="392643587"/>
    <nd ref="256372233"/>
    <nd ref="256372234"/>
    <nd ref="256372235"/>
    <nd ref="275572284"/>
    <nd ref="273727173"/>
    <tag k="highway" v="tertiary"/>
    <tag k="name" v="Knuthstraße"/>
    <tag k="ref" v="K 9"/>
  </way>
  <way id="23674478" version="34" timestamp="2011-04-29T15:49:20Z" uid="443617" user="HawkPat" changeset="8004566">
    <nd ref="256372232"/>
    <nd ref="392643587"/>
    <nd ref="256372233"/>
    <nd ref="256372234"/>
    <nd ref="256372235"/>
    <nd ref="275572284"/>
    <tag k="highway" v="tertiary"/>
    <tag k="name" v="Knuthstraße"/>
    <tag k="ref" v="K 9"/>
  </way>
  <way id="23674479" version="13" timestamp="2009-10-07T16:17:12Z" uid="86259" user="hasse_osm_korinthenkacker" changeset="2773292">
    <nd ref="273727173"/>
    <nd ref="256372238"/>
    <nd ref="256372239"/>
    <nd ref="275574720"/>
    <nd ref="275572547"/>
    <nd ref="256372240"/>
    <nd ref="256372241"/>
    <nd ref="256372242"/>
    <nd ref="275574083"/>
    <nd ref="256372243"/>
    <nd ref="275177999"/>
    <nd ref="275575581"/>
    <nd ref="256372244"/>
    <nd ref="256372245"/>
    <nd ref="256372246"/>
    <nd ref="256372247"/>
    <nd ref="281744857"/>
    <nd ref="281744828"/>
    <tag k="highway" v="tertiary"/>
    <tag k="name" v="Nordergraben"/>
  </way>
  <way id="23674480" version="11" timestamp="2009-10-07T16:17:11Z" uid="86259" user="hasse_osm_korinthenkacker" changeset="2773292">
    <nd ref="281744828"/>
    <nd ref="256372256"/>
    <nd ref="273091086"/>
    <tag k="highway" v="tertiary"/>
    <tag k="name" v="Rathausstraße"/>
  </way>
  <way id="23674483" version="7" timestamp="2009-10-07T16:17:11Z" uid="86259" user="hasse_osm_korinthenkacker" changeset="2773292">
    <nd ref="256372227"/>
    <nd ref="256372228"/>
    <tag k="highway" v="tertiary"/>
    <tag k="name" v="Duburger Straße"/>
    <tag k="oneway" v="yes"/>
    <tag k="ref" v="K 15"/>
  </way>
  <way id="23674483" version="8" timestamp="2011-07-18T15:38:54Z" uid="317484" user="Foerderadler" changeset="8759660">
    <nd ref="256372227"/>
    <nd ref="256372228"/>
    <tag k="highway" v="residential"/>
    <tag k="name" v="Duburger Straße"/>
    <tag k="oneway" v="yes"/>
  </way>
  <way id="23674483" version="9" timestamp="2011-07-18T15:59:54Z" uid="317484" user="Foerderadler" changeset="8759855">
    <nd ref="256372227"/>
    <nd ref="256372228"/>
    <tag k="highway" v="tertiary"/>
    <tag k="name" v="Duburger Straße"/>
    <tag k="oneway" v="yes"/>
    <tag k="ref" v="K 9"/>
  </way>
  <way id="23674589" version="8" timestamp="2009-10-07T16:17:17Z" uid="86259" user="hasse_osm_korinthenkacker" changeset="2773292">
    <nd ref="256372406"/>
    <nd ref="275535960"/>
    <nd ref="275536764"/>
    <nd ref="256372411"/>
    <nd ref="256372412"/>
    <tag k="highway" v="service"/>
    <tag k="name" v="Reismühlenhof"/>
  </way>
  <way id="23674737" version="3" timestamp="2008-07-03T23:01:38Z" uid="6975" user="ulfl" changeset="386611">
    <nd ref="256372514"/>
    <nd ref="256372515"/>
    <nd ref="256372516"/>
    <nd ref="256372517"/>
    <nd ref="256372518"/>
    <nd ref="256372519"/>
    <nd ref="256372514"/>
    <tag k="amenity" v="nightclub"/>
    <tag k="name" v="Перемога"/>
  </way>
  <way id="23674737" version="4" timestamp="2010-08-25T10:09:57Z" uid="338066" user="DonCapone" changeset="5588061">
    <nd ref="256372514"/>
    <nd ref="256372515"/>
    <nd ref="256372516"/>
    <nd ref="256372517"/>
    <nd ref="256372518"/>
    <nd ref="256372519"/>
    <nd ref="256372514"/>
    <tag k="amenity" v="nightclub"/>
    <tag k="name" v="Перемога"/>
  </way>
  <way id="23674737" version="5" timestamp="2011-08-26T13:59:54Z" uid="435936" user="Legioner" changeset="9129957">
    <nd ref="256372514"/>
    <nd ref="256372515"/>
    <nd ref="256372516"/>
    <nd ref="256372517"/>
    <nd ref="256372518"/>
    <nd ref="256372519"/>
    <nd ref="256372514"/>
    <tag k="amenity" v="nightclub"/>
    <tag k="building" v="yes"/>
    <tag k="name" v="Перемога"/>
  </way>
  <way id="23674737" version="6" timestamp="2011-10-30T13:57:34Z" uid="435936" user="Legioner" changeset="9693904">
    <nd ref="256372514"/>
    <nd ref="256372515"/>
    <nd ref="256372516"/>
    <nd ref="256372517"/>
    <nd ref="256372518"/>
    <nd ref="256372519"/>
    <nd ref="256372514"/>
    <tag k="addr:housenumber" v="2"/>
    <tag k="addr:street" v="Генерала Жмаченка вулиця"/>
    <tag k="amenity" v="nightclub"/>
    <tag k="building" v="yes"/>
    <tag k="name" v="Перемога"/>
  </way>
  <way id="23674737" version="7" timestamp="2011-10-30T14:06:18Z" uid="435936" user="Legioner" changeset="9693904">
    <nd ref="256372514"/>
    <nd ref="256372515"/>
    <nd ref="256372516"/>
    <nd ref="256372517"/>
    <nd ref="256372518"/>
    <nd ref="256372519"/>
    <nd ref="256372514"/>
    <tag k="addr:housenumber" v="2"/>
    <tag k="addr:postcode" v="02192"/>
    <tag k="addr:street" v="Генерала Жмаченка вулиця"/>
    <tag k="amenity" v="nightclub"/>
    <tag k="building" v="yes"/>
    <tag k="name" v="Перемога"/>
  </way>
  <way id="23674737" version="8" timestamp="2011-10-30T14:15:25Z" uid="435936" user="Legioner" changeset="9694114">
    <nd ref="256372514"/>
    <nd ref="256372515"/>
    <nd ref="256372516"/>
    <nd ref="256372517"/>
    <nd ref="256372518"/>
    <nd ref="256372519"/>
    <nd ref="256372514"/>
    <tag k="addr:housenumber" v="2"/>
    <tag k="addr:postcode" v="02192"/>
    <tag k="addr:street" v="Андрія Малишка вулиця"/>
    <tag k="amenity" v="nightclub"/>
    <tag k="building" v="yes"/>
    <tag k="name" v="Перемога"/>
  </way>
  <way id="23674737" version="9" timestamp="2011-11-01T19:08:42Z" uid="440812" user="dudka" changeset="9715613">
    <nd ref="256372514"/>
    <nd ref="256372515"/>
    <nd ref="256372516"/>
    <nd ref="256372517"/>
    <nd ref="256372518"/>
    <nd ref="256372519"/>
    <nd ref="256372514"/>
    <tag k="addr:housenumber" v="2"/>
    <tag k="addr:postcode" v="02192"/>
    <tag k="amenity" v="nightclub"/>
    <tag k="building" v="yes"/>
    <tag k="name" v="Перемога"/>
  </way>
  <way id="23674477" version="10" timestamp="2012-05-05T13:43:57Z" uid="40397" user="Zartbitter" changeset="11508051">
    <nd ref="256372225"/>
    <nd ref="275569393"/>
    <nd ref="1741479650"/>
    <nd ref="1741479662"/>
    <nd ref="1741479664"/>
    <nd ref="256372227"/>
    <tag k="highway" v="tertiary"/>
    <tag k="name" v="Knuthstraße"/>
    <tag k="oneway" v="yes"/>
    <tag k="ref" v="K 9"/>
  </way>
  <way id="23674478" version="35" timestamp="2012-05-05T13:43:57Z" uid="40397" user="Zartbitter" changeset="11508051">
    <nd ref="256372232"/>
    <nd ref="1741479627"/>
    <nd ref="392643587"/>
    <nd ref="256372233"/>
    <nd ref="256372234"/>
    <nd ref="256372235"/>
    <nd ref="275572284"/>
    <tag k="highway" v="tertiary"/>
    <tag k="name" v="Knuthstraße"/>
    <tag k="ref" v="K 9"/>
  </way>
  <way id="23674478" version="36" timestamp="2012-06-12T15:20:33Z" uid="40397" user="Zartbitter" changeset="11875543">
    <nd ref="256372232"/>
    <nd ref="1741479627"/>
    <nd ref="392643587"/>
    <nd ref="1784759439"/>
    <nd ref="256372233"/>
    <nd ref="1784759205"/>
    <nd ref="1784759157"/>
    <nd ref="256372234"/>
    <nd ref="256372235"/>
    <nd ref="275572284"/>
    <tag k="highway" v="tertiary"/>
    <tag k="name" v="Knuthstraße"/>
    <tag k="ref" v="K 9"/>
  </way>
  <way id="23674479" version="14" timestamp="2012-04-08T05:22:26Z" uid="40397" user="Zartbitter" changeset="11220899">
    <nd ref="273727173"/>
    <nd ref="256372238"/>
    <nd ref="256372239"/>
    <nd ref="275574720"/>
    <nd ref="275572547"/>
    <nd ref="256372240"/>
    <nd ref="256372241"/>
    <nd ref="256372242"/>
    <nd ref="275574083"/>
    <nd ref="256372243"/>
    <nd ref="1706616356"/>
    <nd ref="275177999"/>
    <nd ref="256372244"/>
    <nd ref="256372245"/>
    <nd ref="256372246"/>
    <nd ref="256372247"/>
    <nd ref="281744857"/>
    <nd ref="281744828"/>
    <tag k="highway" v="tertiary"/>
    <tag k="name" v="Nordergraben"/>
  </way>
  <way id="23674479" version="15" timestamp="2012-04-08T06:06:41Z" uid="40397" user="Zartbitter" changeset="11221072">
    <nd ref="273727173"/>
    <nd ref="256372238"/>
    <nd ref="275574720"/>
    <nd ref="275572547"/>
    <nd ref="256372240"/>
    <nd ref="1706630502"/>
    <nd ref="256372241"/>
    <nd ref="256372242"/>
    <nd ref="1706630498"/>
    <nd ref="275574083"/>
    <nd ref="256372243"/>
    <nd ref="1706616356"/>
    <nd ref="275177999"/>
    <nd ref="256372244"/>
    <nd ref="256372245"/>
    <nd ref="256372246"/>
    <nd ref="256372247"/>
    <nd ref="281744857"/>
    <nd ref="281744828"/>
    <tag k="highway" v="tertiary"/>
    <tag k="name" v="Nordergraben"/>
  </way>
  <way id="23674479" version="16" timestamp="2012-06-18T09:01:35Z" uid="40397" user="Zartbitter" changeset="11934455">
    <nd ref="273727173"/>
    <nd ref="256372238"/>
    <nd ref="275574720"/>
    <nd ref="275572547"/>
    <nd ref="256372240"/>
    <nd ref="1706630502"/>
    <nd ref="256372241"/>
    <nd ref="256372242"/>
    <nd ref="1706630498"/>
    <nd ref="275574083"/>
    <nd ref="256372243"/>
    <nd ref="1706616356"/>
    <nd ref="275177999"/>
    <nd ref="256372244"/>
    <nd ref="256372245"/>
    <nd ref="256372246"/>
    <nd ref="1792837672"/>
    <nd ref="256372247"/>
    <nd ref="281744857"/>
    <nd ref="281744828"/>
    <tag k="highway" v="tertiary"/>
    <tag k="name" v="Nordergraben"/>
  </way>
  <way id="23674483" version="10" timestamp="2012-05-05T13:43:56Z" uid="40397" user="Zartbitter" changeset="11508051">
    <nd ref="256372227"/>
    <nd ref="1741479646"/>
    <nd ref="256372228"/>
    <tag k="highway" v="tertiary"/>
    <tag k="name" v="Duburger Straße"/>
    <tag k="oneway" v="yes"/>
    <tag k="ref" v="K 9"/>
  </way>
  <way id="23674589" version="9" timestamp="2012-06-18T17:02:35Z" uid="40397" user="Zartbitter" changeset="11939235">
    <nd ref="256372412"/>
    <nd ref="256372411"/>
    <nd ref="275536764"/>
    <nd ref="275535960"/>
    <tag k="highway" v="service"/>
    <tag k="name" v="Reismühlenhof"/>
  </way>
</osm>
