<?xml version='1.0' encoding='UTF-8'?>
<osm version="0.6" generator="libosmium/2.20.0">
  <way id="23688352" version="18" timestamp="2010-07-03T23:08:17Z" uid="4467" user="Rosscoe" changeset="5128847">
    <nd ref="109790255"/>
    <nd ref="238622382"/>
    <nd ref="238622384"/>
    <nd ref="109814726"/>
    <nd ref="109814736"/>
    <nd ref="109814744"/>
    <nd ref="109814754"/>
    <nd ref="109814759"/>
    <nd ref="311343035"/>
    <tag k="highway" v="primary"/>
    <tag k="name" v="Sproul Road"/>
    <tag k="name_1" v="State Route 320"/>
    <tag k="old_ref_legislative" v="225"/>
    <tag k="ref" v="320"/>
    <tag k="tiger:cfcc" v="A35"/>
    <tag k="tiger:name_base" v="Sproul"/>
    <tag k="tiger:name_base_1" v="State Route 320"/>
    <tag k="tiger:name_type" v="Rd"/>
    <tag k="tiger:reviewed" v="no"/>
    <tag k="tiger:separated" v="yes"/>
    <tag k="tiger:source" v="tiger_import_dch_v0.7_20071112"/>
    <tag k="tiger:tlid" v="134906072:134872592:134894225"/>
    <tag k="tiger:zip_left" v="19010"/>
    <tag k="tiger:zip_right" v="19010"/>
  </way>
  <way id="23688352" version="19" timestamp="2011-04-08T15:01:06Z" uid="5611" user="alexrudd" changeset="7804837">
    <nd ref="109790255"/>
    <nd ref="238622382"/>
    <nd ref="238622384"/>
    <nd ref="109814726"/>
    <nd ref="109814736"/>
    <nd ref="109814744"/>
    <nd ref="109814754"/>
    <nd ref="109814759"/>
    <nd ref="311343035"/>
    <tag k="highway" v="primary"/>
    <tag k="maxspeed" v="40 mph"/>
    <tag k="name" v="Sproul Road"/>
    <tag k="name_1" v="State Route 320"/>
    <tag k="old_ref_legislative" v="225"/>
    <tag k="ref" v="320"/>
    <tag k="tiger:cfcc" v="A35"/>
    <tag k="tiger:name_base" v="Sproul"/>
    <tag k="tiger:name_base_1" v="State Route 320"/>
    <tag k="tiger:name_type" v="Rd"/>
    <tag k="tiger:reviewed" v="no"/>
    <tag k="tiger:separated" v="yes"/>
    <tag k="tiger:source" v="tiger_import_dch_v0.7_20071112"/>
    <tag k="tiger:tlid" v="134906072:134872592:134894225"/>
    <tag k="tiger:zip_left" v="19010"/>
    <tag k="tiger:zip_right" v="19010"/>
  </way>
  <way id="23688352" version="20" timestamp="2011-06-03T23:09:45Z" uid="207745" user="NE2" changeset="8334380">
    <nd ref="109790255"/>
    <nd ref="238622382"/>
    <nd ref="238622384"/>
    <nd ref="109814726"/>
    <nd ref="109814736"/>
    <nd ref="109814744"/>
    <nd ref="109814754"/>
    <nd ref="109814759"/>
    <nd ref="311343035"/>
    <tag k="highway" v="primary"/>
    <tag k="maxspeed" v="40 mph"/>
    <tag k="name" v="Sproul Road"/>
    <tag k="old_ref_legislative" v="225"/>
    <tag k="ref" v="320"/>
    <tag k="tiger:cfcc" v="A35"/>
    <tag k="tiger:name_base" v="Sproul"/>
    <tag k="tiger:name_base_1" v="State Route 320"/>
    <tag k="tiger:name_type" v="Rd"/>
    <tag k="tiger:reviewed" v="no"/>
    <tag k="tiger:separated" v="yes"/>
    <tag k="tiger:source" v="tiger_import_dch_v0.7_20071112"/>
    <tag k="tiger:tlid" v="134906072:134872592:134894225"/>
    <tag k="tiger:zip_left" v="19010"/>
    <tag k="tiger:zip_right" v="19010"/>
  </way>
  <way id="23688352" version="21" timestamp="2011-06-06T01:28:28Z" uid="207745" user="NE2" changeset="8355588">
    <nd ref="109790255"/>
    <nd ref="238622382"/>
    <nd ref="238622384"/>
    <nd ref="109814726"/>
    <nd ref="109814736"/>
    <nd ref="109814744"/>
    <nd ref="109814754"/>
    <nd ref="109814759"/>
    <nd ref="311343035"/>
    <tag k="highway" v="primary"/>
    <tag k="maxspeed" v="40 mph"/>
    <tag k="name" v="Sproul Road"/>
    <tag k="old_ref_legislative" v="225"/>
    <tag k="ref" v="PA 320"/>
    <tag k="tiger:cfcc" v="A35"/>
    <tag k="tiger:name_base" v="Sproul"/>
    <tag k="tiger:name_base_1" v="State Route 320"/>
    <tag k="tiger:name_type" v="Rd"/>
    <tag k="tiger:reviewed" v="no"/>
    <tag k="tiger:separated" v="yes"/>
    <tag k="tiger:source" v="tiger_import_dch_v0.7_20071112"/>
    <tag k="tiger:tlid" v="134906072:134872592:134894225"/>
    <tag k="tiger:zip_left" v="19010"/>
    <tag k="tiger:zip_right" v="19010"/>
  </way>
  <way id="23688423" version="39" timestamp="2008-12-14T15:04:15Z" uid="6975" user="ulfl" changeset="375714">
    <nd ref="32041948"/>
    <nd ref="2042888"/>
    <nd ref="256513045"/>
    <nd ref="276174902"/>
    <nd ref="9329006"/>
    <nd ref="279584954"/>
    <nd ref="276175389"/>
    <nd ref="276174961"/>
    <nd ref="224799815"/>
    <nd ref="276174586"/>
    <nd ref="276174705"/>
    <nd ref="276135901"/>
    <nd ref="2042890"/>
    <nd ref="276135782"/>
    <nd ref="258661105"/>
    <nd ref="269898239"/>
    <nd ref="276136883"/>
    <nd ref="276174346"/>
    <nd ref="32045268"/>
    <nd ref="259668388"/>
    <nd ref="2042892"/>
    <nd ref="276172439"/>
    <nd ref="279832700"/>
    <nd ref="279834894"/>
    <tag k="highway" v="primary"/>
    <tag k="ref" v="B 304"/>
  </way>
  <way id="23688423" version="40" timestamp="2009-04-23T14:46:24Z" uid="109029" user="shorty_de" changeset="913620">
    <nd ref="32041948"/>
    <nd ref="2042888"/>
    <nd ref="256513045"/>
    <nd ref="276174902"/>
    <nd ref="9329006"/>
    <nd ref="279584954"/>
    <nd ref="276175389"/>
    <nd ref="276174961"/>
    <nd ref="224799815"/>
    <nd ref="276174586"/>
    <nd ref="276174705"/>
    <nd ref="276135901"/>
    <nd ref="2042890"/>
    <nd ref="276135782"/>
    <nd ref="258661105"/>
    <nd ref="269898239"/>
    <nd ref="276136883"/>
    <nd ref="276174346"/>
    <nd ref="32045268"/>
    <tag k="highway" v="primary"/>
    <tag k="name" v="Münchner Straße"/>
    <tag k="ref" v="B 304"/>
  </way>
  <way id="23688423" version="41" timestamp="2009-11-20T19:12:47Z" uid="31704" user="frosch" changeset="3170874">
    <nd ref="32041948"/>
    <nd ref="2042888"/>
    <nd ref="256513045"/>
    <nd ref="276174902"/>
    <nd ref="9329006"/>
    <nd ref="279584954"/>
    <nd ref="276174961"/>
    <nd ref="224799815"/>
    <nd ref="276174586"/>
    <nd ref="276174705"/>
    <nd ref="276135901"/>
    <nd ref="2042890"/>
    <nd ref="276135782"/>
    <nd ref="258661105"/>
    <nd ref="269898239"/>
    <nd ref="276136883"/>
    <nd ref="276174346"/>
    <nd ref="32045268"/>
    <tag k="highway" v="primary"/>
    <tag k="name" v="Münchner Straße"/>
    <tag k="ref" v="B 304"/>
  </way>
  <way id="23688423" version="42" timestamp="2010-05-18T19:23:20Z" uid="65019" user="Kaefer84" changeset="4741938">
    <nd ref="32041948"/>
    <nd ref="2042888"/>
    <nd ref="256513045"/>
    <nd ref="738878725"/>
    <tag k="highway" v="primary"/>
    <tag k="maxspeed" v="50"/>
    <tag k="name" v="Münchner Straße"/>
    <tag k="ref" v="B 304"/>
  </way>
  <way id="23688423" version="43" timestamp="2010-09-28T06:00:25Z" uid="42393" user="mawi42" changeset="5900433">
    <nd ref="32041948"/>
    <nd ref="928741317"/>
    <nd ref="928741325"/>
    <nd ref="928741329"/>
    <nd ref="2042888"/>
    <nd ref="256513045"/>
    <nd ref="738878725"/>
    <tag k="highway" v="primary"/>
    <tag k="maxspeed" v="50"/>
    <tag k="name" v="Münchner Straße"/>
    <tag k="ref" v="B 304"/>
  </way>
  <way id="23688423" version="44" timestamp="2010-11-05T11:24:39Z" uid="140803" user="ThomasStr" changeset="6294555">
    <nd ref="32041948"/>
    <nd ref="928741317"/>
    <nd ref="928741325"/>
    <nd ref="928741329"/>
    <nd ref="2042888"/>
    <nd ref="256513045"/>
    <nd ref="946652478"/>
    <nd ref="738878725"/>
    <tag k="highway" v="primary"/>
    <tag k="maxspeed" v="50"/>
    <tag k="name" v="Münchner Straße"/>
    <tag k="ref" v="B 304"/>
  </way>
  <way id="23688423" version="45" timestamp="2010-12-19T17:07:17Z" uid="62236" user="Paulchen Panther" changeset="6708133">
    <nd ref="32041948"/>
    <nd ref="928741317"/>
    <nd ref="928741325"/>
    <nd ref="928741329"/>
    <nd ref="256513045"/>
    <nd ref="1049434830"/>
    <nd ref="946652478"/>
    <nd ref="738878725"/>
    <tag k="highway" v="primary"/>
    <tag k="maxspeed" v="50"/>
    <tag k="name" v="Münchner Straße"/>
    <tag k="ref" v="B 304"/>
  </way>
  <way id="23688616" version="3" timestamp="2010-06-29T19:14:32Z" uid="74617" user="JohnSmith" changeset="5108182">
    <nd ref="256514312"/>
    <nd ref="256514313"/>
    <nd ref="256514324"/>
    <nd ref="256522888"/>
    <nd ref="256514326"/>
    <nd ref="256514312"/>
    <tag k="fixme" v="sport=football is ambiguous, see http://wiki.osm.org/wiki/Football for more details"/>
    <tag k="leisure" v="pitch"/>
    <tag k="source" v="yahoo_imagery"/>
    <tag k="sport" v="football"/>
  </way>
  <way id="23688616" version="4" timestamp="2011-01-24T16:00:35Z" uid="49031" user="craigloftus" changeset="7074490">
    <nd ref="256514312"/>
    <nd ref="256514313"/>
    <nd ref="256514324"/>
    <nd ref="256522888"/>
    <nd ref="256514326"/>
    <nd ref="256514312"/>
    <tag k="leisure" v="pitch"/>
    <tag k="source" v="yahoo_imagery"/>
    <tag k="sport" v="soccer"/>
  </way>
  <way id="23688734" version="1" timestamp="2008-04-08T22:26:50Z" uid="16922" user="amai" changeset="92768">
    <nd ref="255950641"/>
    <nd ref="256515632"/>
    <nd ref="256515633"/>
    <tag k="created_by" v="Potlatch 0.8a"/>
    <tag k="highway" v="track"/>
    <tag k="source" v="yahoo sat"/>
  </way>
  <way id="23688734" version="2" timestamp="2008-04-10T17:36:13Z" uid="16922" user="amai" changeset="101699">
    <nd ref="255950641"/>
    <nd ref="256515632"/>
    <nd ref="256515633"/>
    <nd ref="256755886"/>
    <tag k="created_by" v="Potlatch 0.8a"/>
    <tag k="highway" v="track"/>
    <tag k="source" v="yahoo sat"/>
  </way>
  <way id="23688734" version="3" timestamp="2008-04-23T20:06:01Z" uid="16922" user="amai" changeset="234784">
    <nd ref="255950641"/>
    <nd ref="256515632"/>
    <nd ref="256515633"/>
    <nd ref="256755886"/>
    <tag k="created_by" v="Potlatch 0.8b"/>
    <tag k="highway" v="track"/>
    <tag k="source" v="yahoo sat"/>
  </way>
  <way id="23688734" version="4" timestamp="2010-04-10T01:47:34Z" uid="259436" user="reality" changeset="4378967">
    <nd ref="255950641"/>
    <nd ref="256515632"/>
    <nd ref="256515633"/>
    <nd ref="256755886"/>
    <nd ref="691131909"/>
    <tag k="highway" v="track"/>
    <tag k="source" v="yahoo sat"/>
  </way>
  <way id="23688734" version="5" timestamp="2010-04-29T12:16:24Z" uid="259436" user="reality" changeset="4557429">
    <nd ref="255950641"/>
    <nd ref="256515632"/>
    <nd ref="256515633"/>
    <nd ref="256755886"/>
    <nd ref="691131909"/>
    <nd ref="472284076"/>
    <nd ref="374383153"/>
    <nd ref="374387198"/>
    <nd ref="374387186"/>
    <nd ref="374387245"/>
    <tag k="highway" v="track"/>
    <tag k="name" v="Forstgartenschneise"/>
    <tag k="source" v="yahoo sat"/>
    <tag k="tracktype" v="grade2"/>
  </way>
  <way id="23688734" version="6" timestamp="2010-04-29T12:20:04Z" uid="259436" user="reality" changeset="4557463">
    <nd ref="255950641"/>
    <nd ref="256515632"/>
    <nd ref="256515633"/>
    <nd ref="256755886"/>
    <nd ref="691131909"/>
    <nd ref="472284076"/>
    <nd ref="374383153"/>
    <nd ref="374387198"/>
    <nd ref="374387186"/>
    <nd ref="374387245"/>
    <tag k="highway" v="track"/>
    <tag k="name" v="Forstgartenschneise"/>
    <tag k="source" v="yahoo sat"/>
    <tag k="surface" v="gravel"/>
    <tag k="tracktype" v="grade2"/>
  </way>
  <way id="23688734" version="7" timestamp="2010-05-27T16:13:44Z" uid="259436" user="reality" changeset="4823579">
    <nd ref="255950641"/>
    <nd ref="256515632"/>
    <nd ref="256515633"/>
    <nd ref="256755886"/>
    <nd ref="691131909"/>
    <nd ref="472284076"/>
    <nd ref="374383153"/>
    <nd ref="374387198"/>
    <nd ref="374387186"/>
    <tag k="highway" v="track"/>
    <tag k="name" v="Forstgartenschneise"/>
    <tag k="source" v="yahoo sat"/>
    <tag k="surface" v="gravel"/>
    <tag k="tracktype" v="grade2"/>
  </way>
  <way id="23688734" version="8" timestamp="2010-06-17T07:43:29Z" uid="130630" user="uli1969" changeset="5006683">
    <nd ref="255950641"/>
    <nd ref="256515632"/>
    <nd ref="256515633"/>
    <nd ref="256755886"/>
    <nd ref="691131909"/>
    <nd ref="472284076"/>
    <nd ref="374383153"/>
    <nd ref="374387198"/>
    <nd ref="374387186"/>
    <tag k="highway" v="track"/>
    <tag k="name" v="Forstgartenschneise"/>
    <tag k="source" v="yahoo sat"/>
    <tag k="surface" v="gravel"/>
    <tag k="tracktype" v="grade3"/>
  </way>
  <way id="23688734" version="9" timestamp="2012-01-23T02:28:50Z" uid="157286" user="SGiersch" changeset="10471775"/>
  <way id="23688908" version="5" timestamp="2010-04-03T03:59:30Z" uid="20587" user="balrog-kun" changeset="4309442">
    <nd ref="256517714"/>
    <nd ref="256517715"/>
    <nd ref="256517716"/>
    <nd ref="256517717"/>
    <nd ref="256517718"/>
    <nd ref="41690365"/>
    <nd ref="41707207"/>
    <nd ref="41707209"/>
    <tag k="access" v="permissive"/>
    <tag k="created_by" v="Potlatch 0.10f"/>
    <tag k="highway" v="residential"/>
    <tag k="name" v="West Vineyard Road"/>
    <tag k="tiger:cfcc" v="A41"/>
    <tag k="tiger:county" v="Maricopa, AZ"/>
    <tag k="tiger:name_base" v="Vineyard"/>
    <tag k="tiger:name_direction_prefix" v="W"/>
    <tag k="tiger:name_type" v="Rd"/>
    <tag k="tiger:reviewed" v="no"/>
    <tag k="tiger:separated" v="no"/>
    <tag k="tiger:source" v="tiger_import_dch_v0.6_20070809"/>
    <tag k="tiger:tlid" v="128226844:128226845:128226874:128226886"/>
  </way>
  <way id="23688981" version="3" timestamp="2010-04-02T17:13:18Z" uid="20587" user="balrog-kun" changeset="4304500">
    <nd ref="110427374"/>
    <nd ref="110427376"/>
    <nd ref="110427377"/>
    <tag k="created_by" v="JOSM"/>
    <tag k="highway" v="residential"/>
    <tag k="name" v="119th Avenue East"/>
    <tag k="tiger:cfcc" v="A41"/>
    <tag k="tiger:county" v="Pierce, WA"/>
    <tag k="tiger:name_base" v="119th"/>
    <tag k="tiger:name_direction_suffix" v="E"/>
    <tag k="tiger:reviewed" v="no"/>
    <tag k="tiger:separated" v="no"/>
    <tag k="tiger:source" v="tiger_import_dch_v0.6_20070830"/>
    <tag k="tiger:tlid" v="184714429:184706912:184739130:184739131:184739132:184739134:184739135:184707243"/>
    <tag k="tiger:zip_left" v="98372"/>
    <tag k="tiger:zip_right" v="98372"/>
  </way>
  <way id="23688423" version="46" timestamp="2012-05-01T15:11:35Z" uid="8748" user="ToniE" changeset="11470697">
    <nd ref="32041948"/>
    <nd ref="928741329"/>
    <nd ref="256513045"/>
    <nd ref="1049434830"/>
    <nd ref="946652478"/>
    <nd ref="738878725"/>
    <tag k="highway" v="primary"/>
    <tag k="maxspeed" v="50"/>
    <tag k="name" v="Münchner Straße"/>
    <tag k="ref" v="B 304"/>
  </way>
  <way id="23688423" version="47" timestamp="2012-05-03T17:11:55Z" uid="8748" user="ToniE" changeset="11490667">
    <nd ref="32041948"/>
    <nd ref="928741329"/>
    <nd ref="256513045"/>
    <nd ref="1049434830"/>
    <nd ref="946652478"/>
    <nd ref="738878725"/>
    <tag k="highway" v="primary"/>
    <tag k="maxspeed" v="50"/>
    <tag k="name" v="Münchner Straße"/>
    <tag k="odbl" v="clean"/>
    <tag k="ref" v="B 304"/>
  </way>
  <way id="23688423" version="48" timestamp="2012-06-07T15:36:58Z" uid="8748" user="ToniE" changeset="11826335">
    <nd ref="32041948"/>
    <nd ref="928741329"/>
    <nd ref="1779339818"/>
    <nd ref="256513045"/>
    <nd ref="1779339814"/>
    <nd ref="1049434830"/>
    <nd ref="946652478"/>
    <nd ref="738878725"/>
    <tag k="highway" v="primary"/>
    <tag k="lit" v="yes"/>
    <tag k="maxspeed" v="50"/>
    <tag k="name" v="Münchner Straße"/>
    <tag k="odbl" v="clean"/>
    <tag k="ref" v="B 304"/>
    <tag k="smoothness" v="good"/>
    <tag k="source:maxspeed" v="DE:urban"/>
    <tag k="surface" v="asphalt"/>
  </way>
  <way id="23688908" version="6" timestamp="2012-04-07T11:21:26Z" uid="292665" user="Dr Kludge" changeset="11212513">
    <nd ref="256517714"/>
    <nd ref="256517715"/>
    <nd ref="256517716"/>
    <nd ref="256517717"/>
    <nd ref="256517718"/>
    <nd ref="41690365"/>
    <nd ref="41707207"/>
    <nd ref="41707209"/>
    <tag k="access" v="permissive"/>
    <tag k="highway" v="residential"/>
    <tag k="name" v="West Vineyard Road"/>
    <tag k="tiger:cfcc" v="A41"/>
    <tag k="tiger:county" v="Maricopa, AZ"/>
    <tag k="tiger:name_base" v="Vineyard"/>
    <tag k="tiger:name_direction_prefix" v="W"/>
    <tag k="tiger:name_type" v="Rd"/>
    <tag k="tiger:reviewed" v="no"/>
    <tag k="tiger:separated" v="no"/>
    <tag k="tiger:source" v="tiger_import_dch_v0.6_20070809"/>
    <tag k="tiger:tlid" v="128226844:128226845:128226874:128226886"/>
  </way>
</osm>
