<?xml version='1.0' encoding='UTF-8'?>
<osm version="0.6" generator="libosmium/2.20.0">
  <way id="23927104" version="2" timestamp="2009-06-10T04:05:28Z" uid="20587" user="balrog-kun" changeset="1473633"/>
  <way id="23927105" version="2" timestamp="2009-06-10T04:05:29Z" uid="20587" user="balrog-kun" changeset="1473633"/>
  <way id="23927132" version="3" timestamp="2008-07-03T23:23:56Z" uid="6975" user="ulfl" changeset="386611">
    <nd ref="259422343"/>
    <nd ref="259422310"/>
    <tag k="bridge" v="yes"/>
    <tag k="highway" v="track"/>
    <tag k="layer" v="1"/>
    <tag k="name" v="Kuhschnappler Berg; Kuhschnappler Weg; Rüsdorfer Straße"/>
  </way>
  <way id="23927191" version="6" timestamp="2009-10-03T13:35:20Z" uid="179968" user="Ich_hasse_doitsche_OSM-Korinthenkacker" changeset="2723894">
    <nd ref="258770183"/>
    <nd ref="299576916"/>
    <nd ref="258770172"/>
    <tag k="highway" v="living_street"/>
    <tag k="maxspeed" v="6"/>
    <tag k="name" v="Dr. Bockemüller-Ring"/>
  </way>
  <way id="23927191" version="7" timestamp="2009-10-08T06:58:36Z" uid="31231" user="Andre68" changeset="2779032">
    <nd ref="258770183"/>
    <nd ref="299576916"/>
    <nd ref="258770172"/>
    <tag k="highway" v="living_street"/>
    <tag k="maxspeed" v="DE:living_street"/>
    <tag k="name" v="Dr. Bockemüller-Ring"/>
  </way>
  <way id="23927191" version="8" timestamp="2009-10-09T05:14:38Z" uid="31231" user="Andre68" changeset="2789818">
    <nd ref="258770183"/>
    <nd ref="299576916"/>
    <nd ref="258770172"/>
    <tag k="highway" v="living_street"/>
    <tag k="maxspeed" v="DE:living_street"/>
    <tag k="name" v="Dr. Bockemüller-Ring"/>
    <tag k="postal_code" v="38173"/>
  </way>
  <way id="23927191" version="9" timestamp="2010-03-17T18:31:03Z" uid="31231" user="Andre68" changeset="4155314">
    <nd ref="258770183"/>
    <nd ref="299576916"/>
    <nd ref="258770172"/>
    <tag k="highway" v="living_street"/>
    <tag k="maxspeed" v="7"/>
    <tag k="name" v="Dr. Bockemüller-Ring"/>
    <tag k="postal_code" v="38173"/>
  </way>
  <way id="23927191" version="10" timestamp="2010-09-13T03:01:07Z" uid="104779" user="ABRob" changeset="5765845">
    <nd ref="258770183"/>
    <nd ref="299576916"/>
    <nd ref="258770172"/>
    <tag k="highway" v="living_street"/>
    <tag k="name" v="Dr. Bockemüller-Ring"/>
    <tag k="postal_code" v="38173"/>
  </way>
  <way id="23927274" version="8" timestamp="2009-10-03T13:35:20Z" uid="179968" user="Ich_hasse_doitsche_OSM-Korinthenkacker" changeset="2723894">
    <nd ref="258661107"/>
    <nd ref="261918720"/>
    <nd ref="258661108"/>
    <nd ref="258666478"/>
    <tag k="highway" v="residential"/>
    <tag k="maxspeed" v="30"/>
    <tag k="name" v="Panneweg"/>
    <tag k="postal_code" v="38173"/>
  </way>
  <way id="23927274" version="9" timestamp="2011-08-18T14:53:35Z" uid="31231" user="Andre68" changeset="9057590">
    <nd ref="258661107"/>
    <nd ref="261918720"/>
    <nd ref="258661108"/>
    <nd ref="1403469828"/>
    <nd ref="258666478"/>
    <tag k="highway" v="residential"/>
    <tag k="maxspeed" v="30"/>
    <tag k="name" v="Panneweg"/>
    <tag k="postal_code" v="38173"/>
  </way>
  <way id="23927275" version="4" timestamp="2009-10-03T13:35:20Z" uid="179968" user="Ich_hasse_doitsche_OSM-Korinthenkacker" changeset="2723894">
    <nd ref="258666478"/>
    <nd ref="258667363"/>
    <nd ref="258661111"/>
    <tag k="highway" v="residential"/>
    <tag k="maxspeed" v="30"/>
    <tag k="name" v="Panneweg"/>
    <tag k="postal_code" v="38173"/>
  </way>
  <way id="23927288" version="8" timestamp="2009-10-03T13:35:21Z" uid="179968" user="Ich_hasse_doitsche_OSM-Korinthenkacker" changeset="2723894">
    <nd ref="258666477"/>
    <nd ref="258666939"/>
    <nd ref="361163133"/>
    <nd ref="361163130"/>
    <nd ref="384912394"/>
    <nd ref="258666478"/>
    <tag k="highway" v="residential"/>
    <tag k="maxspeed" v="30"/>
    <tag k="name" v="Hinter dem Zehnthofe"/>
    <tag k="postal_code" v="38173"/>
  </way>
  <way id="23927373" version="8" timestamp="2008-07-07T02:43:39Z" uid="6975" user="ulfl" changeset="415781">
    <nd ref="259426587"/>
    <nd ref="259426589"/>
    <tag k="bridge" v="true"/>
    <tag k="highway" v="residential"/>
    <tag k="layer" v="1"/>
    <tag k="name" v="Am Feuerwehrplatz"/>
  </way>
  <way id="23927373" version="9" timestamp="2008-07-26T10:09:26Z" uid="31422" user="oldmobilix" changeset="600856">
    <nd ref="259426587"/>
    <nd ref="259426589"/>
    <tag k="bridge" v="true"/>
    <tag k="created_by" v="Potlatch 0.10"/>
    <tag k="highway" v="residential"/>
    <tag k="layer" v="1"/>
    <tag k="name" v="Am Feuerwehrhaus"/>
  </way>
  <way id="23927373" version="10" timestamp="2008-07-26T10:09:43Z" uid="31422" user="oldmobilix" changeset="600856">
    <nd ref="259426587"/>
    <nd ref="281169267"/>
    <tag k="bridge" v="true"/>
    <tag k="created_by" v="Potlatch 0.10"/>
    <tag k="highway" v="residential"/>
    <tag k="layer" v="1"/>
    <tag k="name" v="Am Feuerwehrhaus"/>
  </way>
  <way id="23927373" version="11" timestamp="2009-04-09T17:11:37Z" uid="43566" user="anbr" changeset="354147">
    <nd ref="259426587"/>
    <nd ref="281169267"/>
    <tag k="bridge" v="yes"/>
    <tag k="created_by" v="Potlatch 0.10"/>
    <tag k="highway" v="residential"/>
    <tag k="layer" v="1"/>
    <tag k="name" v="Am Feuerwehrhaus"/>
  </way>
  <way id="23927373" version="12" timestamp="2009-10-28T22:09:43Z" uid="60345" user="Mirko Küster" changeset="2977457">
    <nd ref="259426587"/>
    <nd ref="281169267"/>
    <tag k="bridge" v="yes"/>
    <tag k="highway" v="residential"/>
    <tag k="layer" v="1"/>
    <tag k="name" v="Am Feuerwehrhaus"/>
  </way>
  <way id="23927422" version="3" timestamp="2009-06-10T04:03:57Z" uid="20587" user="balrog-kun" changeset="1473633">
    <nd ref="259427272"/>
    <nd ref="417938978"/>
    <nd ref="259427611"/>
    <nd ref="259427613"/>
    <nd ref="417940182"/>
    <nd ref="288030518"/>
    <nd ref="259427615"/>
    <nd ref="417938977"/>
    <nd ref="259427617"/>
    <nd ref="95170904"/>
    <tag k="created_by" v="Potlatch 0.10b"/>
    <tag k="highway" v="service"/>
    <tag k="tracktype" v="grade3"/>
  </way>
  <way id="23927422" version="4" timestamp="2010-12-18T19:52:16Z" uid="369208" user="Slawek_n" changeset="6699815">
    <nd ref="259427272"/>
    <nd ref="417938978"/>
    <nd ref="259427611"/>
    <nd ref="259427613"/>
    <nd ref="417940182"/>
    <nd ref="288030518"/>
    <nd ref="259427615"/>
    <nd ref="417938977"/>
    <nd ref="259427617"/>
    <nd ref="95170904"/>
    <tag k="highway" v="residential"/>
    <tag k="tracktype" v="grade3"/>
  </way>
  <way id="23927459" version="5" timestamp="2009-08-07T10:01:22Z" uid="74617" user="JohnSmith" changeset="2064091">
    <nd ref="259430890"/>
    <nd ref="259431940"/>
    <nd ref="259431939"/>
    <nd ref="346489978"/>
    <nd ref="259431938"/>
    <nd ref="259431937"/>
    <nd ref="35296122"/>
    <nd ref="35296121"/>
    <nd ref="259431936"/>
    <nd ref="457895418"/>
    <nd ref="259431935"/>
    <nd ref="259431934"/>
    <nd ref="457895419"/>
    <tag k="highway" v="trunk"/>
    <tag k="name" v="New England Highway"/>
    <tag k="oneway" v="yes"/>
    <tag k="ref" v="NH15"/>
    <tag k="source" v="survey"/>
  </way>
  <way id="23927459" version="6" timestamp="2009-08-18T13:20:14Z" uid="74617" user="JohnSmith" changeset="2189926">
    <nd ref="259430890"/>
    <nd ref="259431940"/>
    <nd ref="259431939"/>
    <nd ref="346489978"/>
    <nd ref="259431938"/>
    <nd ref="259431937"/>
    <nd ref="35296122"/>
    <nd ref="35296121"/>
    <nd ref="259431936"/>
    <nd ref="457895418"/>
    <nd ref="259431935"/>
    <nd ref="259431934"/>
    <nd ref="457895419"/>
    <tag k="highway" v="trunk"/>
    <tag k="oneway" v="yes"/>
    <tag k="source" v="survey"/>
  </way>
  <way id="23927459" version="7" timestamp="2010-07-08T12:50:00Z" uid="299678" user="peteramjet" changeset="5166019">
    <nd ref="259430890"/>
    <nd ref="259431940"/>
    <nd ref="259431939"/>
    <nd ref="346489978"/>
    <nd ref="259431938"/>
    <nd ref="259431937"/>
    <nd ref="35296122"/>
    <nd ref="35296121"/>
    <nd ref="259431936"/>
    <nd ref="457895418"/>
    <nd ref="259431935"/>
    <nd ref="259431934"/>
    <nd ref="457895419"/>
    <tag k="highway" v="trunk"/>
    <tag k="name" v="New England Highway"/>
    <tag k="oneway" v="yes"/>
    <tag k="source" v="survey"/>
  </way>
  <way id="23927459" version="8" timestamp="2012-01-08T05:08:57Z" uid="67896" user="mrpulley" changeset="10328121">
    <nd ref="259430890"/>
    <nd ref="259431940"/>
    <nd ref="259431939"/>
    <nd ref="346489978"/>
    <nd ref="259431938"/>
    <nd ref="259431937"/>
    <nd ref="35296122"/>
    <nd ref="35296121"/>
    <nd ref="259431936"/>
    <nd ref="457895418"/>
    <nd ref="259431935"/>
    <nd ref="259431934"/>
    <nd ref="457895419"/>
    <tag k="highway" v="trunk"/>
    <tag k="name" v="New England Highway"/>
    <tag k="oneway" v="yes"/>
    <tag k="ref" v="NH15"/>
    <tag k="source" v="survey"/>
  </way>
  <way id="23927462" version="2" timestamp="2009-10-03T13:35:06Z" uid="179968" user="Ich_hasse_doitsche_OSM-Korinthenkacker" changeset="2723894">
    <nd ref="258981397"/>
    <nd ref="259428388"/>
    <tag k="highway" v="footway"/>
  </way>
  <way id="23927463" version="2" timestamp="2009-10-03T13:35:06Z" uid="179968" user="Ich_hasse_doitsche_OSM-Korinthenkacker" changeset="2723894">
    <nd ref="259428387"/>
    <nd ref="259428388"/>
    <tag k="highway" v="footway"/>
  </way>
  <way id="23927464" version="2" timestamp="2009-10-03T13:35:05Z" uid="179968" user="Ich_hasse_doitsche_OSM-Korinthenkacker" changeset="2723894">
    <nd ref="258981049"/>
    <nd ref="259428388"/>
    <tag k="highway" v="footway"/>
  </way>
  <way id="23927465" version="2" timestamp="2009-10-03T13:35:04Z" uid="179968" user="Ich_hasse_doitsche_OSM-Korinthenkacker" changeset="2723894">
    <nd ref="258981402"/>
    <nd ref="259428388"/>
    <tag k="highway" v="footway"/>
  </way>
  <way id="23927920" version="4" timestamp="2009-08-18T13:20:15Z" uid="74617" user="JohnSmith" changeset="2189926">
    <nd ref="259430178"/>
    <nd ref="346194286"/>
    <nd ref="259430187"/>
    <nd ref="259430185"/>
    <nd ref="259430182"/>
    <nd ref="259430180"/>
    <nd ref="35296117"/>
    <nd ref="346170620"/>
    <nd ref="35296118"/>
    <nd ref="346170635"/>
    <nd ref="259428359"/>
    <nd ref="29549654"/>
    <tag k="highway" v="trunk"/>
    <tag k="oneway" v="yes"/>
    <tag k="source" v="survey"/>
  </way>
  <way id="23927920" version="5" timestamp="2010-07-08T12:51:30Z" uid="299678" user="peteramjet" changeset="5166019">
    <nd ref="259430178"/>
    <nd ref="346194286"/>
    <nd ref="259430187"/>
    <nd ref="259430185"/>
    <nd ref="259430182"/>
    <nd ref="259430180"/>
    <nd ref="35296117"/>
    <nd ref="346170620"/>
    <nd ref="35296118"/>
    <nd ref="346170635"/>
    <nd ref="259428359"/>
    <nd ref="29549654"/>
    <tag k="highway" v="trunk"/>
    <tag k="name" v="New England Highway"/>
    <tag k="oneway" v="yes"/>
    <tag k="source" v="survey"/>
  </way>
  <way id="23927920" version="6" timestamp="2011-06-14T11:48:26Z" uid="30201" user="rrankin" changeset="8436460">
    <nd ref="259430178"/>
    <nd ref="346194286"/>
    <nd ref="259430187"/>
    <nd ref="259430185"/>
    <nd ref="259430182"/>
    <nd ref="259430180"/>
    <nd ref="35296117"/>
    <nd ref="346170620"/>
    <nd ref="35296118"/>
    <nd ref="346170635"/>
    <nd ref="259428359"/>
    <nd ref="29549654"/>
    <tag k="highway" v="trunk"/>
    <tag k="maxspeed" v="60"/>
    <tag k="name" v="New England Highway"/>
    <tag k="oneway" v="yes"/>
    <tag k="source" v="survey"/>
  </way>
  <way id="23927920" version="7" timestamp="2012-01-08T05:08:54Z" uid="67896" user="mrpulley" changeset="10328121">
    <nd ref="259430178"/>
    <nd ref="346194286"/>
    <nd ref="259430187"/>
    <nd ref="259430185"/>
    <nd ref="259430182"/>
    <nd ref="259430180"/>
    <nd ref="35296117"/>
    <nd ref="346170620"/>
    <nd ref="35296118"/>
    <nd ref="346170635"/>
    <nd ref="259428359"/>
    <nd ref="29549654"/>
    <tag k="highway" v="trunk"/>
    <tag k="maxspeed" v="60"/>
    <tag k="name" v="New England Highway"/>
    <tag k="oneway" v="yes"/>
    <tag k="ref" v="NH15"/>
    <tag k="source" v="survey"/>
  </way>
  <way id="23927923" version="3" timestamp="2009-08-18T13:20:15Z" uid="74617" user="JohnSmith" changeset="2189926">
    <nd ref="29549652"/>
    <nd ref="259430189"/>
    <nd ref="259430191"/>
    <nd ref="259430193"/>
    <nd ref="346483892"/>
    <nd ref="259430195"/>
    <nd ref="259430197"/>
    <nd ref="259430199"/>
    <nd ref="259430202"/>
    <nd ref="259430204"/>
    <nd ref="259430206"/>
    <nd ref="259430208"/>
    <nd ref="470332280"/>
    <nd ref="470332281"/>
    <nd ref="470332282"/>
    <nd ref="470332283"/>
    <tag k="highway" v="trunk"/>
    <tag k="oneway" v="yes"/>
  </way>
  <way id="23927923" version="4" timestamp="2010-07-08T12:51:30Z" uid="299678" user="peteramjet" changeset="5166019">
    <nd ref="29549652"/>
    <nd ref="259430189"/>
    <nd ref="259430191"/>
    <nd ref="259430193"/>
    <nd ref="346483892"/>
    <nd ref="259430195"/>
    <nd ref="259430197"/>
    <nd ref="259430199"/>
    <nd ref="259430202"/>
    <nd ref="259430204"/>
    <nd ref="259430206"/>
    <nd ref="259430208"/>
    <nd ref="470332280"/>
    <nd ref="470332281"/>
    <nd ref="470332282"/>
    <nd ref="470332283"/>
    <tag k="highway" v="trunk"/>
    <tag k="name" v="New England Highway"/>
    <tag k="oneway" v="yes"/>
  </way>
  <way id="23927923" version="5" timestamp="2011-06-14T11:48:45Z" uid="30201" user="rrankin" changeset="8436460">
    <nd ref="29549652"/>
    <nd ref="259430189"/>
    <nd ref="259430191"/>
    <nd ref="259430193"/>
    <nd ref="346483892"/>
    <nd ref="259430195"/>
    <nd ref="259430197"/>
    <nd ref="259430199"/>
    <nd ref="259430202"/>
    <nd ref="259430204"/>
    <nd ref="259430206"/>
    <nd ref="259430208"/>
    <nd ref="1324768695"/>
    <nd ref="1324768666"/>
    <nd ref="470332281"/>
    <nd ref="470332282"/>
    <nd ref="470332283"/>
    <tag k="highway" v="trunk"/>
    <tag k="maxspeed" v="60"/>
    <tag k="name" v="New England Highway"/>
    <tag k="oneway" v="yes"/>
  </way>
  <way id="23927923" version="6" timestamp="2012-01-08T05:09:08Z" uid="67896" user="mrpulley" changeset="10328121">
    <nd ref="29549652"/>
    <nd ref="259430189"/>
    <nd ref="259430191"/>
    <nd ref="259430193"/>
    <nd ref="346483892"/>
    <nd ref="259430195"/>
    <nd ref="259430197"/>
    <nd ref="259430199"/>
    <nd ref="259430202"/>
    <nd ref="259430204"/>
    <nd ref="259430206"/>
    <nd ref="259430208"/>
    <nd ref="1324768695"/>
    <nd ref="1324768666"/>
    <nd ref="470332281"/>
    <nd ref="470332282"/>
    <nd ref="470332283"/>
    <tag k="highway" v="trunk"/>
    <tag k="maxspeed" v="60"/>
    <tag k="name" v="New England Highway"/>
    <tag k="oneway" v="yes"/>
    <tag k="ref" v="NH15"/>
  </way>
  <way id="23927459" version="9" timestamp="2012-07-21T14:56:19Z" uid="722137" user="OSMF Redaction Account" changeset="12412516">
    <nd ref="259430890"/>
    <nd ref="259431940"/>
    <nd ref="259431939"/>
    <nd ref="346489978"/>
    <nd ref="259431938"/>
    <nd ref="259431937"/>
    <nd ref="35296122"/>
    <nd ref="35296121"/>
    <nd ref="259431936"/>
    <nd ref="259431935"/>
    <nd ref="259431934"/>
    <tag k="highway" v="trunk"/>
    <tag k="name" v="New England Highway"/>
    <tag k="oneway" v="yes"/>
    <tag k="ref" v="NH15"/>
    <tag k="source" v="survey"/>
  </way>
  <way id="23927459" version="10" timestamp="2012-07-29T10:51:58Z" uid="20949" user="Ebenezer" changeset="12533089">
    <nd ref="259430890"/>
    <nd ref="259431940"/>
    <nd ref="259431939"/>
    <nd ref="346489978"/>
    <nd ref="259431938"/>
    <nd ref="259431937"/>
    <nd ref="35296122"/>
    <nd ref="35296121"/>
    <nd ref="259431936"/>
    <nd ref="259431935"/>
    <nd ref="259431934"/>
    <tag k="highway" v="trunk"/>
    <tag k="name" v="New England Highway"/>
    <tag k="oneway" v="yes"/>
    <tag k="ref" v="15"/>
    <tag k="source" v="survey"/>
  </way>
  <way id="23927459" version="11" timestamp="2012-07-29T10:55:20Z" uid="20949" user="Ebenezer" changeset="12533089">
    <nd ref="259430890"/>
    <nd ref="259431940"/>
    <nd ref="259431939"/>
    <nd ref="346489978"/>
    <nd ref="259431938"/>
    <nd ref="259431937"/>
    <tag k="highway" v="trunk"/>
    <tag k="maxspeed" v="60"/>
    <tag k="name" v="New England Highway"/>
    <tag k="oneway" v="yes"/>
    <tag k="ref" v="15"/>
    <tag k="source" v="survey"/>
  </way>
  <way id="23927459" version="12" timestamp="2012-08-08T14:15:03Z" uid="67896" user="mrpulley" changeset="12657723">
    <nd ref="259430890"/>
    <nd ref="259431940"/>
    <nd ref="259431939"/>
    <nd ref="346489978"/>
    <nd ref="259431938"/>
    <nd ref="259431937"/>
    <tag k="highway" v="trunk"/>
    <tag k="maxspeed" v="60"/>
    <tag k="name" v="New England Highway"/>
    <tag k="network" v="NH"/>
    <tag k="oneway" v="yes"/>
    <tag k="ref" v="15"/>
    <tag k="source" v="survey"/>
  </way>
  <way id="23927920" version="8" timestamp="2012-07-21T14:56:24Z" uid="722137" user="OSMF Redaction Account" changeset="12412516">
    <nd ref="259430178"/>
    <nd ref="346194286"/>
    <nd ref="259430187"/>
    <nd ref="259430185"/>
    <nd ref="259430182"/>
    <nd ref="259430180"/>
    <nd ref="35296117"/>
    <nd ref="346170620"/>
    <nd ref="35296118"/>
    <nd ref="346170635"/>
    <nd ref="259428359"/>
    <nd ref="29549654"/>
    <tag k="highway" v="trunk"/>
    <tag k="name" v="New England Highway"/>
    <tag k="oneway" v="yes"/>
    <tag k="ref" v="NH15"/>
    <tag k="source" v="survey"/>
  </way>
  <way id="23927920" version="9" timestamp="2012-07-29T11:02:24Z" uid="20949" user="Ebenezer" changeset="12533089">
    <nd ref="259430178"/>
    <nd ref="346194286"/>
    <nd ref="259430187"/>
    <nd ref="259430185"/>
    <nd ref="259430182"/>
    <nd ref="259430180"/>
    <nd ref="35296117"/>
    <nd ref="346170620"/>
    <nd ref="35296118"/>
    <nd ref="346170635"/>
    <nd ref="1842575727"/>
    <nd ref="1842575721"/>
    <nd ref="29549654"/>
    <tag k="highway" v="trunk"/>
    <tag k="name" v="New England Highway"/>
    <tag k="oneway" v="yes"/>
    <tag k="ref" v="NH15"/>
    <tag k="source" v="survey"/>
  </way>
  <way id="23927920" version="10" timestamp="2012-08-08T14:12:01Z" uid="67896" user="mrpulley" changeset="12657723">
    <nd ref="259430178"/>
    <nd ref="346194286"/>
    <nd ref="259430187"/>
    <nd ref="259430185"/>
    <nd ref="259430182"/>
    <nd ref="259430180"/>
    <nd ref="35296117"/>
    <nd ref="346170620"/>
    <nd ref="35296118"/>
    <nd ref="346170635"/>
    <nd ref="1842575727"/>
    <nd ref="1842575721"/>
    <nd ref="29549654"/>
    <tag k="highway" v="trunk"/>
    <tag k="name" v="New England Highway"/>
    <tag k="network" v="NH"/>
    <tag k="oneway" v="yes"/>
    <tag k="ref" v="15"/>
    <tag k="source" v="survey"/>
  </way>
  <way id="23927923" version="7" timestamp="2012-07-21T14:56:13Z" uid="722137" user="OSMF Redaction Account" changeset="12412516">
    <nd ref="29549652"/>
    <nd ref="259430189"/>
    <nd ref="259430191"/>
    <nd ref="259430193"/>
    <nd ref="346483892"/>
    <nd ref="259430195"/>
    <nd ref="259430197"/>
    <nd ref="259430199"/>
    <nd ref="259430202"/>
    <nd ref="259430204"/>
    <nd ref="259430206"/>
    <nd ref="259430208"/>
    <tag k="highway" v="trunk"/>
    <tag k="name" v="New England Highway"/>
    <tag k="oneway" v="yes"/>
    <tag k="ref" v="NH15"/>
  </way>
  <way id="23927923" version="8" timestamp="2012-07-29T11:02:23Z" uid="20949" user="Ebenezer" changeset="12533089">
    <nd ref="1842571206"/>
    <nd ref="1842575733"/>
    <nd ref="1842575723"/>
    <nd ref="259430193"/>
    <nd ref="259430195"/>
    <nd ref="259430197"/>
    <nd ref="259430199"/>
    <nd ref="259430202"/>
    <nd ref="259430204"/>
    <nd ref="259430206"/>
    <nd ref="259430208"/>
    <nd ref="1842575729"/>
    <nd ref="1842575735"/>
    <nd ref="1842575736"/>
    <nd ref="1842575717"/>
    <tag k="highway" v="trunk"/>
    <tag k="name" v="New England Highway"/>
    <tag k="oneway" v="yes"/>
    <tag k="ref" v="15"/>
    <tag k="source" v="Bing"/>
  </way>
  <way id="23927923" version="9" timestamp="2012-08-08T14:12:02Z" uid="67896" user="mrpulley" changeset="12657723">
    <nd ref="1842571206"/>
    <nd ref="1842575733"/>
    <nd ref="1842575723"/>
    <nd ref="259430193"/>
    <nd ref="259430195"/>
    <nd ref="259430197"/>
    <nd ref="259430199"/>
    <nd ref="259430202"/>
    <nd ref="259430204"/>
    <nd ref="259430206"/>
    <nd ref="259430208"/>
    <nd ref="1842575729"/>
    <nd ref="1842575735"/>
    <nd ref="1842575736"/>
    <nd ref="1842575717"/>
    <tag k="highway" v="trunk"/>
    <tag k="name" v="New England Highway"/>
    <tag k="network" v="NH"/>
    <tag k="oneway" v="yes"/>
    <tag k="ref" v="15"/>
    <tag k="source" v="Bing"/>
  </way>
</osm>
