<?xml version='1.0' encoding='UTF-8'?>
<osm version="0.6" generator="libosmium/2.20.0">
  <way id="23928180" version="5" timestamp="2009-10-03T13:35:11Z" uid="179968" user="Ich_hasse_doitsche_OSM-Korinthenkacker" changeset="2723894">
    <nd ref="258661108"/>
    <nd ref="278244984"/>
    <nd ref="259430347"/>
    <tag k="highway" v="residential"/>
    <tag k="maxspeed" v="30"/>
    <tag k="name" v="Lehnsmorgen"/>
  </way>
  <way id="23928180" version="6" timestamp="2009-10-09T05:34:37Z" uid="31231" user="Andre68" changeset="2789896">
    <nd ref="258661108"/>
    <nd ref="278244984"/>
    <nd ref="259430347"/>
    <tag k="highway" v="residential"/>
    <tag k="maxspeed" v="30"/>
    <tag k="name" v="Lehnsmorgen"/>
    <tag k="postal_code" v="38173"/>
  </way>
  <way id="23928181" version="9" timestamp="2009-10-03T13:35:11Z" uid="179968" user="Ich_hasse_doitsche_OSM-Korinthenkacker" changeset="2723894">
    <nd ref="259430349"/>
    <nd ref="259430347"/>
    <nd ref="384912388"/>
    <nd ref="259430348"/>
    <nd ref="259430352"/>
    <nd ref="288006344"/>
    <nd ref="259430351"/>
    <nd ref="302122715"/>
    <nd ref="302122713"/>
    <nd ref="302122711"/>
    <nd ref="259430350"/>
    <nd ref="259430349"/>
    <tag k="highway" v="residential"/>
    <tag k="junction" v="roundabout"/>
    <tag k="maxspeed" v="30"/>
    <tag k="name" v="Lehnsmorgen"/>
    <tag k="osmarender:renderName" v="no"/>
  </way>
  <way id="23928181" version="10" timestamp="2009-10-09T05:34:37Z" uid="31231" user="Andre68" changeset="2789896">
    <nd ref="259430349"/>
    <nd ref="259430347"/>
    <nd ref="384912388"/>
    <nd ref="259430348"/>
    <nd ref="259430352"/>
    <nd ref="288006344"/>
    <nd ref="259430351"/>
    <nd ref="302122715"/>
    <nd ref="302122713"/>
    <nd ref="302122711"/>
    <nd ref="259430350"/>
    <nd ref="259430349"/>
    <tag k="highway" v="residential"/>
    <tag k="junction" v="roundabout"/>
    <tag k="maxspeed" v="30"/>
    <tag k="name" v="Lehnsmorgen"/>
    <tag k="osmarender:renderName" v="no"/>
    <tag k="postal_code" v="38173"/>
  </way>
  <way id="23928181" version="11" timestamp="2011-08-12T05:51:07Z" uid="28783" user="mey2008" changeset="8992082">
    <nd ref="259430349"/>
    <nd ref="259430347"/>
    <nd ref="384912388"/>
    <nd ref="259430348"/>
    <nd ref="259430352"/>
    <nd ref="288006344"/>
    <nd ref="259430351"/>
    <nd ref="302122715"/>
    <nd ref="302122713"/>
    <nd ref="302122711"/>
    <nd ref="259430350"/>
    <nd ref="259430349"/>
    <tag k="highway" v="residential"/>
    <tag k="maxspeed" v="30"/>
    <tag k="name" v="Lehnsmorgen"/>
    <tag k="osmarender:renderName" v="no"/>
    <tag k="postal_code" v="38173"/>
  </way>
  <way id="23928181" version="12" timestamp="2011-09-01T02:25:42Z" uid="207745" user="NE2" changeset="9181205">
    <nd ref="259430349"/>
    <nd ref="259430347"/>
    <nd ref="384912388"/>
    <nd ref="259430348"/>
    <nd ref="259430352"/>
    <nd ref="288006344"/>
    <nd ref="259430351"/>
    <nd ref="302122715"/>
    <nd ref="302122713"/>
    <nd ref="302122711"/>
    <nd ref="259430350"/>
    <nd ref="259430349"/>
    <tag k="highway" v="residential"/>
    <tag k="maxspeed" v="30"/>
    <tag k="name" v="Lehnsmorgen"/>
    <tag k="postal_code" v="38173"/>
  </way>
  <way id="23928918" version="2" timestamp="2009-10-03T13:35:16Z" uid="179968" user="Ich_hasse_doitsche_OSM-Korinthenkacker" changeset="2723894">
    <nd ref="258839947"/>
    <nd ref="258839946"/>
    <tag k="highway" v="residential"/>
    <tag k="name" v="Am Bache"/>
  </way>
  <way id="23928918" version="3" timestamp="2009-10-09T05:14:47Z" uid="31231" user="Andre68" changeset="2789818">
    <nd ref="258839947"/>
    <nd ref="258839946"/>
    <tag k="highway" v="residential"/>
    <tag k="name" v="Am Bache"/>
    <tag k="postal_code" v="38173"/>
  </way>
  <way id="23928918" version="4" timestamp="2010-03-17T18:26:51Z" uid="31231" user="Andre68" changeset="4155314">
    <nd ref="258839947"/>
    <nd ref="258839946"/>
    <tag k="highway" v="residential"/>
    <tag k="maxspeed" v="50"/>
    <tag k="name" v="Am Bache"/>
    <tag k="postal_code" v="38173"/>
  </way>
  <way id="23928918" version="5" timestamp="2012-03-18T14:36:19Z" uid="31231" user="Andre68" changeset="11019568"/>
</osm>
