<?xml version='1.0' encoding='UTF-8'?>
<osm version="0.6" generator="libosmium/2.20.0">
  <way id="23931811" version="7" timestamp="2009-10-03T13:35:07Z" uid="179968" user="Ich_hasse_doitsche_OSM-Korinthenkacker" changeset="2723894">
    <nd ref="299829609"/>
    <nd ref="259432677"/>
    <nd ref="259432678"/>
    <nd ref="259432679"/>
    <tag k="highway" v="residential"/>
    <tag k="name" v="Am Mühlengraben"/>
    <tag k="noexit" v="yes"/>
    <tag k="postal_code" v="38173"/>
  </way>
  <way id="23931811" version="8" timestamp="2010-03-17T18:26:53Z" uid="31231" user="Andre68" changeset="4155314">
    <nd ref="299829609"/>
    <nd ref="259432677"/>
    <nd ref="259432678"/>
    <nd ref="259432679"/>
    <tag k="highway" v="residential"/>
    <tag k="maxspeed" v="50"/>
    <tag k="name" v="Am Mühlengraben"/>
    <tag k="noexit" v="yes"/>
    <tag k="postal_code" v="38173"/>
  </way>
  <way id="23931811" version="9" timestamp="2011-08-15T20:15:54Z" uid="31231" user="Andre68" changeset="9031062">
    <nd ref="299829609"/>
    <nd ref="1400274552"/>
    <nd ref="259432677"/>
    <nd ref="259432678"/>
    <nd ref="259432679"/>
    <tag k="highway" v="residential"/>
    <tag k="maxspeed" v="50"/>
    <tag k="name" v="Am Mühlengraben"/>
    <tag k="noexit" v="yes"/>
    <tag k="postal_code" v="38173"/>
  </way>
  <way id="23931811" version="10" timestamp="2011-09-08T07:58:56Z" uid="31231" user="Andre68" changeset="9243292">
    <nd ref="299829609"/>
    <nd ref="1400274552"/>
    <nd ref="464710069"/>
    <nd ref="259432677"/>
    <nd ref="259432678"/>
    <nd ref="259432679"/>
    <tag k="highway" v="residential"/>
    <tag k="maxspeed" v="50"/>
    <tag k="name" v="Am Mühlengraben"/>
    <tag k="noexit" v="yes"/>
    <tag k="postal_code" v="38173"/>
  </way>
  <way id="23931811" version="11" timestamp="2012-03-18T14:35:44Z" uid="31231" user="Andre68" changeset="11019568">
    <nd ref="299829609"/>
    <nd ref="1400274552"/>
    <nd ref="464710069"/>
    <nd ref="259432677"/>
    <nd ref="259432678"/>
    <nd ref="259432679"/>
    <tag k="highway" v="residential"/>
    <tag k="maxspeed" v="50"/>
    <tag k="name" v="Am Mühlengraben"/>
    <tag k="noexit" v="yes"/>
    <tag k="postal_code" v="38173"/>
    <tag k="source:maxspeed" v="DE:urban"/>
  </way>
</osm>
