<?xml version='1.0' encoding='UTF-8'?>
<osm version="0.6" generator="libosmium/2.20.0">
  <way id="24080330" version="6" timestamp="2009-05-16T17:16:52Z" uid="43863" user="Rundling" changeset="1213025">
    <nd ref="35957876"/>
    <nd ref="401772711"/>
    <tag k="created_by" v="Potlatch 0.8c"/>
    <tag k="highway" v="secondary"/>
    <tag k="mapping_status" v="incomplete"/>
    <tag k="ref" v="L 240"/>
  </way>
  <way id="24080330" version="7" timestamp="2010-02-20T13:19:33Z" uid="232312" user="ike88" changeset="3923421">
    <nd ref="35957876"/>
    <nd ref="648124161"/>
    <nd ref="401772711"/>
    <tag k="highway" v="secondary"/>
    <tag k="mapping_status" v="incomplete"/>
    <tag k="ref" v="L 240"/>
  </way>
  <way id="24080330" version="8" timestamp="2010-09-10T09:49:02Z" uid="51045" user="Geogast" changeset="5739648">
    <nd ref="35957876"/>
    <nd ref="904985532"/>
    <nd ref="648124161"/>
    <nd ref="401772711"/>
    <tag k="highway" v="secondary"/>
    <tag k="mapping_status" v="incomplete"/>
    <tag k="ref" v="L 240"/>
  </way>
  <way id="24080330" version="9" timestamp="2011-05-10T10:03:46Z" uid="232312" user="ike88" changeset="8100732">
    <nd ref="35957876"/>
    <nd ref="904985532"/>
    <nd ref="648124161"/>
    <nd ref="401772711"/>
    <tag k="cycleway" v="track"/>
    <tag k="footway" v="left"/>
    <tag k="highway" v="secondary"/>
    <tag k="ref" v="L 240"/>
  </way>
  <way id="24080330" version="10" timestamp="2012-03-07T21:06:57Z" uid="387237" user="SammysHP" changeset="10903941">
    <nd ref="35957876"/>
    <nd ref="904985532"/>
    <nd ref="401772711"/>
    <tag k="cycleway" v="track"/>
    <tag k="footway" v="left"/>
    <tag k="highway" v="secondary"/>
    <tag k="ref" v="L 240"/>
  </way>
  <way id="24080650" version="4" timestamp="2009-05-16T17:51:29Z" uid="43863" user="Rundling" changeset="1213480">
    <nd ref="35957876"/>
    <nd ref="91805239"/>
    <nd ref="324408651"/>
    <nd ref="324408593"/>
    <nd ref="261164939"/>
    <tag k="created_by" v="Potlatch 0.8c"/>
    <tag k="cycleway" v="track"/>
    <tag k="highway" v="secondary"/>
    <tag k="lcn_ref" v="Eversen-Oldendorf"/>
    <tag k="ref" v="L 240"/>
  </way>
  <way id="24080650" version="5" timestamp="2009-09-07T14:29:04Z" uid="8638" user="fishor" changeset="2403134">
    <nd ref="261164939"/>
    <nd ref="324408593"/>
    <nd ref="324408651"/>
    <nd ref="91805239"/>
    <nd ref="35957876"/>
    <tag k="cycleway" v="track"/>
    <tag k="highway" v="secondary"/>
    <tag k="lcn_ref" v="Eversen-Oldendorf"/>
    <tag k="ref" v="L 240"/>
  </way>
  <way id="24080650" version="6" timestamp="2010-02-20T15:01:06Z" uid="232312" user="ike88" changeset="3924221">
    <nd ref="261164939"/>
    <nd ref="324408593"/>
    <nd ref="324408651"/>
    <nd ref="91805239"/>
    <nd ref="648217223"/>
    <nd ref="35957876"/>
    <tag k="cycleway" v="track"/>
    <tag k="highway" v="secondary"/>
    <tag k="lcn_ref" v="Eversen-Oldendorf"/>
    <tag k="ref" v="L 240"/>
  </way>
  <way id="24080650" version="7" timestamp="2010-02-27T13:49:34Z" uid="232312" user="ike88" changeset="3988661">
    <nd ref="261164939"/>
    <nd ref="655171152"/>
    <nd ref="655171151"/>
    <nd ref="655171148"/>
    <nd ref="655171147"/>
    <nd ref="655171161"/>
    <nd ref="324408593"/>
    <nd ref="324408651"/>
    <nd ref="91805239"/>
    <nd ref="648217223"/>
    <nd ref="35957876"/>
    <tag k="cycleway" v="track"/>
    <tag k="highway" v="secondary"/>
    <tag k="lcn_ref" v="Eversen-Oldendorf"/>
    <tag k="ref" v="L 240"/>
  </way>
  <way id="24080650" version="8" timestamp="2011-04-11T14:23:40Z" uid="232312" user="ike88" changeset="7833649">
    <nd ref="261164939"/>
    <nd ref="324408593"/>
    <nd ref="324408651"/>
    <nd ref="91805239"/>
    <nd ref="648217223"/>
    <nd ref="35957876"/>
    <tag k="cycleway" v="track"/>
    <tag k="highway" v="secondary"/>
    <tag k="lcn_ref" v="Eversen-Oldendorf"/>
    <tag k="ref" v="L 240"/>
  </way>
  <way id="24080650" version="9" timestamp="2011-04-11T14:27:05Z" uid="232312" user="ike88" changeset="7833649">
    <nd ref="261164939"/>
    <nd ref="1240970769"/>
    <nd ref="324408593"/>
    <nd ref="324408651"/>
    <nd ref="91805239"/>
    <nd ref="648217223"/>
    <nd ref="35957876"/>
    <tag k="cycleway" v="track"/>
    <tag k="highway" v="secondary"/>
    <tag k="lcn_ref" v="Eversen-Oldendorf"/>
    <tag k="ref" v="L 240"/>
  </way>
  <way id="24080650" version="10" timestamp="2011-05-02T14:24:41Z" uid="51045" user="Geogast" changeset="8031008">
    <nd ref="261164939"/>
    <nd ref="1240970769"/>
    <nd ref="1270279993"/>
    <nd ref="324408593"/>
    <nd ref="324408651"/>
    <nd ref="91805239"/>
    <nd ref="648217223"/>
    <nd ref="35957876"/>
    <tag k="cycleway" v="track"/>
    <tag k="highway" v="secondary"/>
    <tag k="lcn_ref" v="Eversen-Oldendorf"/>
    <tag k="ref" v="L 240"/>
  </way>
  <way id="24080650" version="11" timestamp="2011-05-10T10:03:44Z" uid="232312" user="ike88" changeset="8100732">
    <nd ref="261164939"/>
    <nd ref="1240970769"/>
    <nd ref="1270279993"/>
    <nd ref="324408593"/>
    <nd ref="324408651"/>
    <nd ref="91805239"/>
    <nd ref="648217223"/>
    <nd ref="35957876"/>
    <tag k="cycleway" v="track"/>
    <tag k="footway" v="both"/>
    <tag k="highway" v="secondary"/>
    <tag k="lcn_ref" v="Eversen-Oldendorf"/>
    <tag k="ref" v="L 240"/>
  </way>
  <way id="24080330" version="11" timestamp="2012-07-18T21:03:32Z" uid="722137" user="OSMF Redaction Account" changeset="12298414">
    <nd ref="35957876"/>
    <nd ref="904985532"/>
    <tag k="cycleway" v="track"/>
    <tag k="footway" v="left"/>
    <tag k="highway" v="secondary"/>
    <tag k="ref" v="L 240"/>
  </way>
</osm>
