<?xml version='1.0' encoding='UTF-8'?>
<osm version="0.6" generator="libosmium/2.20.0">
  <way id="24108403" version="3" timestamp="2009-08-13T12:13:56Z" uid="4467" user="Rosscoe" changeset="2130661">
    <nd ref="31422725"/>
    <nd ref="31422726"/>
    <nd ref="258024497"/>
    <nd ref="258024586"/>
    <tag k="highway" v="tertiary"/>
    <tag k="name" v="Cameron Avenue"/>
    <tag k="oneway" v="yes"/>
  </way>
  <way id="24108403" version="4" timestamp="2011-04-08T13:11:27Z" uid="46482" user="Leon K" changeset="7803985">
    <nd ref="31422725"/>
    <nd ref="31422726"/>
    <nd ref="258024497"/>
    <nd ref="258024586"/>
    <tag k="highway" v="tertiary"/>
    <tag k="maxspeed" v="50"/>
    <tag k="name" v="Cameron Avenue"/>
    <tag k="oneway" v="yes"/>
  </way>
  <way id="24108520" version="2" timestamp="2008-07-06T19:13:31Z" uid="6975" user="ulfl" changeset="415781">
    <nd ref="261320809"/>
    <nd ref="261320816"/>
    <nd ref="261320825"/>
    <nd ref="261320828"/>
    <nd ref="261320809"/>
    <tag k="leisure" v="pitch"/>
  </way>
  <way id="24108403" version="5" timestamp="2012-07-20T00:46:48Z" uid="722137" user="OSMF Redaction Account" changeset="12352876">
    <nd ref="258024497"/>
    <nd ref="258024586"/>
    <tag k="highway" v="tertiary"/>
    <tag k="maxspeed" v="50"/>
    <tag k="name" v="Cameron Avenue"/>
  </way>
  <way id="24108403" version="6" timestamp="2012-09-03T10:12:47Z" uid="46482" user="Leon K" changeset="12965224">
    <nd ref="1896005700"/>
    <nd ref="258024497"/>
    <nd ref="258024586"/>
    <tag k="highway" v="tertiary"/>
    <tag k="maxspeed" v="50"/>
    <tag k="name" v="Cameron Avenue"/>
    <tag k="oneway" v="yes"/>
  </way>
</osm>
