<?xml version='1.0' encoding='UTF-8'?>
<osm version="0.6" generator="libosmium/2.20.0">
  <way id="24196434" version="6" timestamp="2011-05-01T16:10:24Z" uid="9581" user="Lobelt" changeset="8022707">
    <nd ref="262022499"/>
    <nd ref="279785481"/>
    <nd ref="262022888"/>
    <tag k="highway" v="unclassified"/>
    <tag k="name" v="Tieckstraße"/>
  </way>
  <way id="24196434" version="7" timestamp="2011-07-24T09:45:25Z" uid="494437" user="ralf_sfb" changeset="8813536">
    <nd ref="1371963658"/>
    <nd ref="1371974432"/>
    <nd ref="1371974435"/>
    <nd ref="262022499"/>
    <nd ref="279785481"/>
    <nd ref="262022888"/>
    <tag k="highway" v="residential"/>
    <tag k="maxspeed" v="30"/>
    <tag k="name" v="Ziegesarstrasse"/>
  </way>
  <way id="24196434" version="8" timestamp="2011-07-30T10:11:29Z" uid="494437" user="ralf_sfb" changeset="8870675">
    <nd ref="262022499"/>
    <nd ref="279785481"/>
    <nd ref="262022888"/>
    <tag k="highway" v="residential"/>
    <tag k="maxspeed" v="30"/>
    <tag k="name" v="Tieckstrasse"/>
  </way>
  <way id="24196434" version="9" timestamp="2011-12-16T07:41:50Z" uid="46862" user="Mayer" changeset="10129222">
    <nd ref="262022499"/>
    <nd ref="279785481"/>
    <nd ref="262022888"/>
    <tag k="highway" v="residential"/>
    <tag k="maxspeed" v="30"/>
    <tag k="name" v="Tieckstraße"/>
  </way>
  <way id="24196817" version="2" timestamp="2008-05-12T16:01:42Z" uid="9581" user="Lobelt" changeset="431046">
    <nd ref="262022499"/>
    <nd ref="262022500"/>
    <nd ref="262022502"/>
    <tag k="created_by" v="Potlatch 0.8c"/>
    <tag k="highway" v="residential"/>
    <tag k="name" v="Ziegesarstraße"/>
  </way>
  <way id="24196817" version="3" timestamp="2009-06-18T19:32:21Z" uid="28378" user="PHerison" changeset="1557858">
    <nd ref="262022499"/>
    <nd ref="424277433"/>
    <nd ref="262022500"/>
    <nd ref="262022502"/>
    <tag k="created_by" v="Potlatch 0.8c"/>
    <tag k="highway" v="residential"/>
    <tag k="name" v="Ziegesarstraße"/>
  </way>
  <way id="24196817" version="4" timestamp="2011-07-24T09:37:29Z" uid="494437" user="ralf_sfb" changeset="8813536">
    <nd ref="262022499"/>
    <nd ref="424277433"/>
    <nd ref="262022500"/>
    <nd ref="1371963658"/>
    <nd ref="262022502"/>
    <tag k="highway" v="residential"/>
    <tag k="name" v="Ziegesarstraße"/>
  </way>
  <way id="24196817" version="5" timestamp="2011-07-24T09:45:25Z" uid="494437" user="ralf_sfb" changeset="8813536"/>
  <way id="24196434" version="10" timestamp="2012-07-30T12:35:06Z" uid="128287" user="cMartin" changeset="12547492">
    <nd ref="262022499"/>
    <nd ref="1843880111"/>
    <nd ref="1843880066"/>
    <nd ref="1843880056"/>
    <nd ref="1843880055"/>
    <nd ref="1843879992"/>
    <nd ref="1843879988"/>
    <nd ref="279785481"/>
    <nd ref="262022888"/>
    <tag k="highway" v="residential"/>
    <tag k="maxspeed" v="30"/>
    <tag k="name" v="Tieckstraße"/>
  </way>
  <way id="24196434" version="11" timestamp="2012-07-30T13:56:28Z" uid="128287" user="cMartin" changeset="12548479">
    <nd ref="262022499"/>
    <nd ref="1844002200"/>
    <nd ref="1844002192"/>
    <nd ref="1843880111"/>
    <nd ref="1844002184"/>
    <nd ref="1843880066"/>
    <nd ref="1843880056"/>
    <nd ref="1843880055"/>
    <nd ref="1844002123"/>
    <nd ref="1843879992"/>
    <nd ref="1843879988"/>
    <nd ref="279785481"/>
    <nd ref="262022888"/>
    <tag k="highway" v="residential"/>
    <tag k="maxspeed" v="30"/>
    <tag k="name" v="Tieckstraße"/>
  </way>
</osm>
