<?xml version='1.0' encoding='UTF-8'?>
<osm version="0.6" generator="libosmium/2.20.0">
  <way id="24197012" version="3" timestamp="2009-09-30T13:04:33Z" uid="36809" user="pfoten_weg_!_" changeset="2687886">
    <nd ref="261959305"/>
    <nd ref="261959309"/>
    <nd ref="261959478"/>
    <tag k="highway" v="secondary"/>
    <tag k="ref" v="L227"/>
    <tag k="tunnel" v="true"/>
  </way>
  <way id="24197012" version="4" timestamp="2009-10-29T22:37:25Z" uid="60345" user="Mirko Küster" changeset="2984818">
    <nd ref="261959305"/>
    <nd ref="261959309"/>
    <nd ref="261959478"/>
    <tag k="highway" v="secondary"/>
    <tag k="ref" v="L227"/>
    <tag k="tunnel" v="yes"/>
  </way>
  <way id="24197012" version="5" timestamp="2010-04-09T10:39:02Z" uid="45481" user="borisC" changeset="4371874">
    <nd ref="261959305"/>
    <nd ref="261959309"/>
    <nd ref="261959478"/>
    <tag k="highway" v="tertiary"/>
    <tag k="ref" v="L227"/>
    <tag k="tunnel" v="yes"/>
  </way>
  <way id="24197012" version="6" timestamp="2010-06-02T10:27:57Z" uid="45481" user="borisC" changeset="4882601">
    <nd ref="261959305"/>
    <nd ref="261959309"/>
    <nd ref="261959478"/>
    <tag k="highway" v="tertiary"/>
    <tag k="ref" v="L229"/>
    <tag k="tunnel" v="yes"/>
  </way>
  <way id="24197012" version="7" timestamp="2010-10-17T17:03:59Z" uid="110450" user="gosausee" changeset="6069206">
    <nd ref="261959305"/>
    <nd ref="954783596"/>
    <nd ref="261959309"/>
    <nd ref="261959478"/>
    <tag k="highway" v="tertiary"/>
    <tag k="ref" v="L229"/>
    <tag k="tunnel" v="yes"/>
  </way>
  <way id="24197012" version="8" timestamp="2012-02-21T17:28:18Z" uid="45481" user="borisC" changeset="10752029"/>
  <way id="24197075" version="3" timestamp="2011-05-01T16:10:17Z" uid="9581" user="Lobelt" changeset="8022707">
    <nd ref="257705349"/>
    <nd ref="262028283"/>
    <nd ref="262028285"/>
    <nd ref="262028286"/>
    <nd ref="262028288"/>
    <tag k="highway" v="residential"/>
    <tag k="name" v="Otto-Militzer-Straße"/>
  </way>
</osm>
