<?xml version='1.0' encoding='UTF-8'?>
<osm version="0.6" generator="libosmium/2.20.0">
  <way id="24318013" version="3" timestamp="2008-08-23T04:46:04Z" uid="30201" user="rrankin" changeset="373650">
    <nd ref="34917726"/>
    <nd ref="263682719"/>
    <tag k="created_by" v="Potlatch 0.9"/>
    <tag k="highway" v="residential"/>
    <tag k="name" v="George Street"/>
  </way>
  <way id="24318013" version="4" timestamp="2010-02-18T18:15:28Z" uid="33377" user="Victor LP" changeset="3911050">
    <nd ref="34917726"/>
    <nd ref="263682719"/>
    <tag k="highway" v="residential"/>
    <tag k="name" v="George Street"/>
  </way>
  <way id="24318013" version="5" timestamp="2010-02-22T03:44:26Z" uid="30201" user="rrankin" changeset="3940724">
    <nd ref="34917726"/>
    <nd ref="263682719"/>
    <nd ref="649992867"/>
    <tag k="highway" v="residential"/>
    <tag k="name" v="George Street"/>
  </way>
  <way id="24318013" version="6" timestamp="2010-07-07T19:55:52Z" uid="74617" user="JohnSmith" changeset="5161069">
    <nd ref="34917726"/>
    <nd ref="263682719"/>
    <nd ref="649992867"/>
    <tag k="highway" v="residential"/>
    <tag k="maxspeed" v="50"/>
    <tag k="maxspeed:source" v="default residential speed limit in Australia"/>
    <tag k="name" v="George Street"/>
  </way>
  <way id="24318013" version="7" timestamp="2012-01-16T08:37:01Z" uid="147510" user="woodpeck_fixbot" changeset="10406018">
    <nd ref="34917726"/>
    <nd ref="263682719"/>
    <nd ref="649992867"/>
    <tag k="highway" v="residential"/>
    <tag k="name" v="George Street"/>
  </way>
  <way id="24318025" version="3" timestamp="2010-03-27T13:32:31Z" uid="33382" user="de_muur" changeset="4246485">
    <nd ref="31196482"/>
    <nd ref="263682763"/>
    <nd ref="263682764"/>
    <nd ref="263682765"/>
    <nd ref="263682766"/>
    <nd ref="263760039"/>
    <nd ref="263760040"/>
    <nd ref="263760041"/>
    <nd ref="263760044"/>
    <nd ref="263760045"/>
    <nd ref="263760048"/>
    <nd ref="263760049"/>
    <nd ref="263760050"/>
    <nd ref="263760053"/>
    <tag k="highway" v="residential"/>
    <tag k="name" v="Hillerser Weg"/>
    <tag k="source" v="yahoo"/>
    <tag k="surface" v="paved"/>
  </way>
  <way id="24318025" version="4" timestamp="2010-03-27T13:49:43Z" uid="33382" user="de_muur" changeset="4246601">
    <nd ref="31196482"/>
    <nd ref="263682763"/>
    <nd ref="263682764"/>
    <nd ref="263682765"/>
    <tag k="highway" v="residential"/>
    <tag k="name" v="Am Schwarzen Meer"/>
    <tag k="surface" v="paved"/>
  </way>
  <way id="24318025" version="5" timestamp="2010-08-14T08:35:45Z" uid="42429" user="FK270673" changeset="5488394">
    <nd ref="31196482"/>
    <nd ref="263682763"/>
    <nd ref="263682764"/>
    <nd ref="263682765"/>
    <tag k="highway" v="residential"/>
    <tag k="maxspeed" v="30"/>
    <tag k="name" v="Am Schwarzen Meer"/>
    <tag k="surface" v="paved"/>
  </way>
  <way id="24318026" version="3" timestamp="2010-03-27T13:32:31Z" uid="33382" user="de_muur" changeset="4246485">
    <nd ref="263682765"/>
    <nd ref="263682767"/>
    <nd ref="263682768"/>
    <tag k="highway" v="residential"/>
    <tag k="source" v="yahoo"/>
    <tag k="surface" v="paved"/>
  </way>
  <way id="24318026" version="4" timestamp="2010-08-14T08:35:39Z" uid="42429" user="FK270673" changeset="5488394">
    <nd ref="263682765"/>
    <nd ref="263682767"/>
    <nd ref="263682768"/>
    <tag k="highway" v="residential"/>
    <tag k="maxspeed" v="30"/>
    <tag k="name" v="Am Schwarzen Meer"/>
    <tag k="source" v="yahoo"/>
    <tag k="surface" v="paved"/>
  </way>
  <way id="24318032" version="6" timestamp="2008-08-23T04:44:19Z" uid="30201" user="rrankin" changeset="373650">
    <nd ref="263682759"/>
    <nd ref="263682802"/>
    <nd ref="274245254"/>
    <nd ref="263682803"/>
    <nd ref="275493880"/>
    <nd ref="263682961"/>
    <tag k="created_by" v="Potlatch 0.9"/>
    <tag k="highway" v="residential"/>
    <tag k="name" v="Kenny Street"/>
  </way>
  <way id="24318032" version="7" timestamp="2008-08-23T07:47:16Z" uid="30201" user="rrankin" changeset="374079">
    <nd ref="263682759"/>
    <nd ref="263682802"/>
    <nd ref="274245254"/>
    <nd ref="290334381"/>
    <nd ref="263682803"/>
    <nd ref="275493880"/>
    <nd ref="263682961"/>
    <tag k="created_by" v="Potlatch 0.9"/>
    <tag k="highway" v="residential"/>
    <tag k="name" v="Kenny Street"/>
  </way>
  <way id="24318032" version="8" timestamp="2010-02-12T17:27:43Z" uid="33377" user="Victor LP" changeset="3858538">
    <nd ref="263682759"/>
    <nd ref="263682802"/>
    <nd ref="274245254"/>
    <nd ref="290334381"/>
    <nd ref="263682803"/>
    <nd ref="275493880"/>
    <nd ref="263682961"/>
    <tag k="highway" v="residential"/>
    <tag k="name" v="Kenny Street"/>
  </way>
  <way id="24318032" version="9" timestamp="2010-02-18T18:16:06Z" uid="33377" user="Victor LP" changeset="3911050">
    <nd ref="263682759"/>
    <nd ref="645177496"/>
    <nd ref="645177501"/>
    <nd ref="645177504"/>
    <nd ref="645177508"/>
    <nd ref="263682802"/>
    <nd ref="645177516"/>
    <nd ref="645177521"/>
    <nd ref="274245254"/>
    <nd ref="290334381"/>
    <nd ref="263682803"/>
    <nd ref="275493880"/>
    <nd ref="263682961"/>
    <tag k="highway" v="residential"/>
    <tag k="name" v="Kenny Street"/>
  </way>
  <way id="24318032" version="10" timestamp="2010-02-22T03:44:26Z" uid="30201" user="rrankin" changeset="3940724">
    <nd ref="263682759"/>
    <nd ref="645177496"/>
    <nd ref="645177501"/>
    <nd ref="645177504"/>
    <nd ref="645177508"/>
    <nd ref="263682802"/>
    <nd ref="645177516"/>
    <nd ref="645177521"/>
    <nd ref="649992833"/>
    <tag k="highway" v="residential"/>
    <tag k="name" v="Kenny Street"/>
  </way>
  <way id="24318032" version="11" timestamp="2010-07-07T19:57:56Z" uid="74617" user="JohnSmith" changeset="5161069">
    <nd ref="263682759"/>
    <nd ref="645177496"/>
    <nd ref="645177501"/>
    <nd ref="645177504"/>
    <nd ref="645177508"/>
    <nd ref="263682802"/>
    <nd ref="645177516"/>
    <nd ref="645177521"/>
    <nd ref="649992833"/>
    <tag k="highway" v="residential"/>
    <tag k="maxspeed" v="50"/>
    <tag k="maxspeed:source" v="default residential speed limit in Australia"/>
    <tag k="name" v="Kenny Street"/>
  </way>
  <way id="24318032" version="12" timestamp="2011-01-12T04:02:10Z" uid="4467" user="Rosscoe" changeset="6943922">
    <nd ref="263682759"/>
    <nd ref="645177496"/>
    <nd ref="645177501"/>
    <nd ref="645177504"/>
    <nd ref="645177508"/>
    <nd ref="263682802"/>
    <nd ref="1099108584"/>
    <nd ref="645177516"/>
    <nd ref="649992833"/>
    <tag k="highway" v="residential"/>
    <tag k="maxspeed" v="50"/>
    <tag k="maxspeed:source" v="default residential speed limit in Australia"/>
    <tag k="name" v="Kenny Street"/>
  </way>
  <way id="24318032" version="13" timestamp="2011-08-01T11:04:25Z" uid="181013" user="Zhent" changeset="8889602">
    <nd ref="263682759"/>
    <nd ref="645177496"/>
    <nd ref="645177501"/>
    <nd ref="645177504"/>
    <nd ref="645177508"/>
    <nd ref="263682802"/>
    <nd ref="1099108584"/>
    <nd ref="1381657676"/>
    <nd ref="645177516"/>
    <nd ref="649992833"/>
    <tag k="highway" v="residential"/>
    <tag k="maxspeed" v="50"/>
    <tag k="maxspeed:source" v="default residential speed limit in Australia"/>
    <tag k="name" v="Kenny Street"/>
  </way>
  <way id="24318032" version="14" timestamp="2011-11-26T07:08:48Z" uid="181013" user="Zhent" changeset="9952222">
    <nd ref="263682759"/>
    <nd ref="645177496"/>
    <nd ref="645177501"/>
    <nd ref="645177504"/>
    <nd ref="1517452757"/>
    <nd ref="645177508"/>
    <nd ref="263682802"/>
    <nd ref="1099108584"/>
    <nd ref="1381657676"/>
    <nd ref="645177516"/>
    <nd ref="649992833"/>
    <tag k="highway" v="residential"/>
    <tag k="maxspeed" v="50"/>
    <tag k="maxspeed:source" v="default residential speed limit in Australia"/>
    <tag k="name" v="Kenny Street"/>
  </way>
  <way id="24318032" version="15" timestamp="2012-01-16T08:37:02Z" uid="147510" user="woodpeck_fixbot" changeset="10406018">
    <nd ref="263682759"/>
    <nd ref="645177496"/>
    <nd ref="645177501"/>
    <nd ref="645177504"/>
    <nd ref="1517452757"/>
    <nd ref="645177508"/>
    <nd ref="263682802"/>
    <nd ref="1099108584"/>
    <nd ref="1381657676"/>
    <nd ref="645177516"/>
    <nd ref="649992833"/>
    <tag k="highway" v="residential"/>
    <tag k="name" v="Kenny Street"/>
  </way>
  <way id="24318043" version="3" timestamp="2010-03-27T13:49:43Z" uid="33382" user="de_muur" changeset="4246601">
    <nd ref="28095180"/>
    <nd ref="292610535"/>
    <nd ref="263682844"/>
    <nd ref="263682843"/>
    <tag k="highway" v="residential"/>
  </way>
  <way id="24318043" version="4" timestamp="2010-07-15T20:05:34Z" uid="33382" user="de_muur" changeset="5229931">
    <nd ref="28095180"/>
    <nd ref="292610535"/>
    <nd ref="263682844"/>
    <nd ref="263682843"/>
    <nd ref="819455115"/>
    <tag k="highway" v="residential"/>
    <tag k="surface" v="paved"/>
  </way>
  <way id="24318043" version="5" timestamp="2010-07-16T15:33:33Z" uid="33382" user="de_muur" changeset="5235649">
    <nd ref="28095180"/>
    <nd ref="292610535"/>
    <nd ref="263682844"/>
    <nd ref="263682843"/>
    <nd ref="819455115"/>
    <tag k="highway" v="residential"/>
    <tag k="maxspeed" v="30"/>
    <tag k="surface" v="paved"/>
  </way>
  <way id="24318043" version="6" timestamp="2010-08-14T08:35:47Z" uid="42429" user="FK270673" changeset="5488394">
    <nd ref="28095180"/>
    <nd ref="292610535"/>
    <nd ref="263682844"/>
    <nd ref="263682843"/>
    <nd ref="819455115"/>
    <tag k="highway" v="residential"/>
    <tag k="maxspeed" v="30"/>
    <tag k="name" v="Clueser Straße"/>
    <tag k="surface" v="paved"/>
  </way>
  <way id="24318043" version="7" timestamp="2012-01-01T11:24:43Z" uid="57645" user="KartoGrapHiti" changeset="10260507">
    <nd ref="28095180"/>
    <nd ref="1572497013"/>
    <nd ref="292610535"/>
    <nd ref="263682844"/>
    <nd ref="263682843"/>
    <nd ref="819455115"/>
    <tag k="highway" v="residential"/>
    <tag k="maxspeed" v="30"/>
    <tag k="name" v="Clueser Straße"/>
    <tag k="surface" v="paved"/>
  </way>
  <way id="24318064" version="3" timestamp="2008-08-23T04:45:00Z" uid="30201" user="rrankin" changeset="373650">
    <nd ref="263682803"/>
    <nd ref="263682918"/>
    <tag k="created_by" v="Potlatch 0.9"/>
    <tag k="highway" v="residential"/>
    <tag k="name" v="Finlayson Street"/>
  </way>
  <way id="24318064" version="4" timestamp="2010-02-12T17:27:43Z" uid="33377" user="Victor LP" changeset="3858538">
    <nd ref="263682803"/>
    <nd ref="263682918"/>
    <tag k="highway" v="residential"/>
    <tag k="name" v="Finlayson Street"/>
  </way>
  <way id="24318064" version="5" timestamp="2010-07-07T19:53:37Z" uid="74617" user="JohnSmith" changeset="5161069">
    <nd ref="263682803"/>
    <nd ref="263682918"/>
    <tag k="highway" v="residential"/>
    <tag k="maxspeed" v="50"/>
    <tag k="maxspeed:source" v="default residential speed limit in Australia"/>
    <tag k="name" v="Finlayson Street"/>
  </way>
  <way id="24318064" version="6" timestamp="2012-01-16T08:37:08Z" uid="147510" user="woodpeck_fixbot" changeset="10406018">
    <nd ref="263682803"/>
    <nd ref="263682918"/>
    <tag k="highway" v="residential"/>
    <tag k="name" v="Finlayson Street"/>
  </way>
  <way id="24318079" version="5" timestamp="2008-08-23T04:44:45Z" uid="30201" user="rrankin" changeset="373650">
    <nd ref="263682961"/>
    <nd ref="263682964"/>
    <tag k="created_by" v="Potlatch 0.9"/>
    <tag k="highway" v="residential"/>
    <tag k="name" v="Fox Avenue"/>
  </way>
  <way id="24318079" version="6" timestamp="2010-02-12T17:27:44Z" uid="33377" user="Victor LP" changeset="3858538">
    <nd ref="263682961"/>
    <nd ref="637577570"/>
    <nd ref="637577572"/>
    <nd ref="637577575"/>
    <nd ref="263682964"/>
    <tag k="highway" v="residential"/>
    <tag k="name" v="Fox Avenue"/>
  </way>
  <way id="24318079" version="7" timestamp="2010-07-07T19:55:17Z" uid="74617" user="JohnSmith" changeset="5161069">
    <nd ref="263682961"/>
    <nd ref="637577570"/>
    <nd ref="637577572"/>
    <nd ref="637577575"/>
    <nd ref="263682964"/>
    <tag k="highway" v="residential"/>
    <tag k="maxspeed" v="50"/>
    <tag k="maxspeed:source" v="default residential speed limit in Australia"/>
    <tag k="name" v="Fox Avenue"/>
  </way>
  <way id="24318079" version="8" timestamp="2010-08-12T06:52:46Z" uid="69319" user="Rhubarb" changeset="5469162">
    <nd ref="263682961"/>
    <nd ref="637577570"/>
    <nd ref="637577572"/>
    <nd ref="637577575"/>
    <nd ref="856273855"/>
    <nd ref="263682964"/>
    <tag k="highway" v="residential"/>
    <tag k="maxspeed" v="50"/>
    <tag k="maxspeed:source" v="default residential speed limit in Australia"/>
    <tag k="name" v="Fox Avenue"/>
  </way>
  <way id="24318079" version="9" timestamp="2012-01-16T08:37:11Z" uid="147510" user="woodpeck_fixbot" changeset="10406018">
    <nd ref="263682961"/>
    <nd ref="637577570"/>
    <nd ref="637577572"/>
    <nd ref="637577575"/>
    <nd ref="856273855"/>
    <nd ref="263682964"/>
    <tag k="highway" v="residential"/>
    <tag k="name" v="Fox Avenue"/>
  </way>
  <way id="24318082" version="2" timestamp="2010-07-06T08:36:14Z" uid="74617" user="JohnSmith" changeset="5147679">
    <nd ref="206231276"/>
    <nd ref="206231627"/>
    <tag k="highway" v="residential"/>
    <tag k="maxspeed" v="50"/>
    <tag k="maxspeed:source" v="default residential speed limit in Australia"/>
    <tag k="name" v="Luxford Street"/>
  </way>
  <way id="24318082" version="3" timestamp="2012-01-16T08:37:13Z" uid="147510" user="woodpeck_fixbot" changeset="10406018">
    <nd ref="206231276"/>
    <nd ref="206231627"/>
    <tag k="highway" v="residential"/>
    <tag k="name" v="Luxford Street"/>
  </way>
  <way id="24318094" version="2" timestamp="2008-07-08T23:32:55Z" uid="6975" user="ulfl" changeset="443284">
    <nd ref="263683031"/>
    <nd ref="263683032"/>
    <tag k="access" v="private"/>
    <tag k="highway" v="unclassified"/>
  </way>
  <way id="24318094" version="3" timestamp="2012-02-17T08:59:51Z" uid="63375" user="Divjo" changeset="10709034"/>
  <way id="24318106" version="3" timestamp="2008-08-23T04:48:13Z" uid="30201" user="rrankin" changeset="373650">
    <nd ref="108291828"/>
    <nd ref="108292010"/>
    <tag k="created_by" v="Potlatch 0.9"/>
    <tag k="highway" v="tertiary"/>
    <tag k="name" v="Bridge Street"/>
    <tag k="source" v="survey"/>
  </way>
  <way id="24318106" version="4" timestamp="2010-07-16T07:04:24Z" uid="280711" user="kbosward" changeset="5232504">
    <nd ref="108291828"/>
    <nd ref="108292010"/>
    <tag k="highway" v="tertiary"/>
    <tag k="name" v="Bridge Street"/>
    <tag k="source" v="survey"/>
  </way>
  <way id="24318106" version="5" timestamp="2010-09-19T13:07:39Z" uid="79475" user="AlexOnTheBus" changeset="5819599">
    <nd ref="108291828"/>
    <nd ref="108292010"/>
    <tag k="highway" v="secondary"/>
    <tag k="name" v="Bridge Street"/>
    <tag k="source" v="survey"/>
  </way>
  <way id="24318111" version="5" timestamp="2008-08-23T04:48:26Z" uid="30201" user="rrankin" changeset="373650">
    <nd ref="263683104"/>
    <nd ref="263683115"/>
    <nd ref="263683201"/>
    <nd ref="263683202"/>
    <tag k="created_by" v="Potlatch 0.9"/>
    <tag k="highway" v="residential"/>
    <tag k="name" v="Wonson Avenue"/>
  </way>
  <way id="24318111" version="6" timestamp="2010-07-07T19:56:35Z" uid="74617" user="JohnSmith" changeset="5161069">
    <nd ref="263683104"/>
    <nd ref="263683115"/>
    <nd ref="263683201"/>
    <nd ref="263683202"/>
    <tag k="highway" v="residential"/>
    <tag k="maxspeed" v="50"/>
    <tag k="maxspeed:source" v="default residential speed limit in Australia"/>
    <tag k="name" v="Wonson Avenue"/>
  </way>
  <way id="24318111" version="7" timestamp="2010-07-16T07:04:30Z" uid="280711" user="kbosward" changeset="5232504">
    <nd ref="263683104"/>
    <nd ref="820149686"/>
    <nd ref="820149567"/>
    <nd ref="263683115"/>
    <nd ref="820149688"/>
    <nd ref="263683201"/>
    <nd ref="263683202"/>
    <tag k="highway" v="residential"/>
    <tag k="maxspeed" v="50"/>
    <tag k="maxspeed:source" v="default residential speed limit in Australia"/>
    <tag k="name" v="Wonson Avenue"/>
  </way>
  <way id="24318111" version="8" timestamp="2012-01-16T08:37:14Z" uid="147510" user="woodpeck_fixbot" changeset="10406018">
    <nd ref="263683104"/>
    <nd ref="820149686"/>
    <nd ref="820149567"/>
    <nd ref="263683115"/>
    <nd ref="820149688"/>
    <nd ref="263683201"/>
    <nd ref="263683202"/>
    <tag k="highway" v="residential"/>
    <tag k="name" v="Wonson Avenue"/>
  </way>
  <way id="24318129" version="5" timestamp="2008-08-23T04:48:43Z" uid="30201" user="rrankin" changeset="373650">
    <nd ref="263683266"/>
    <nd ref="263683267"/>
    <nd ref="263683268"/>
    <nd ref="263683209"/>
    <tag k="created_by" v="Potlatch 0.9"/>
    <tag k="highway" v="residential"/>
    <tag k="name" v="Television Avenue"/>
  </way>
  <way id="24318129" version="6" timestamp="2008-10-10T07:19:12Z" uid="26313" user="wombass" changeset="208716">
    <nd ref="263683266"/>
    <nd ref="263683267"/>
    <nd ref="263683268"/>
    <nd ref="263683209"/>
    <tag k="created_by" v="Potlatch 0.9"/>
    <tag k="highway" v="residential"/>
    <tag k="name" v="Television Avenue"/>
  </way>
  <way id="24318129" version="7" timestamp="2008-10-23T02:36:15Z" uid="26313" user="wombass" changeset="519279">
    <nd ref="263683266"/>
    <nd ref="263683267"/>
    <nd ref="263683268"/>
    <nd ref="303483994"/>
    <nd ref="303484009"/>
    <nd ref="303483982"/>
    <nd ref="303483987"/>
    <tag k="created_by" v="Potlatch 0.9"/>
    <tag k="highway" v="residential"/>
    <tag k="name" v="Television Avenue"/>
    <tag k="source" v="GPS"/>
  </way>
  <way id="24318129" version="8" timestamp="2010-06-22T02:12:35Z" uid="280711" user="kbosward" changeset="5047958">
    <nd ref="263683266"/>
    <nd ref="780842436"/>
    <nd ref="263683267"/>
    <nd ref="263683268"/>
    <nd ref="303483994"/>
    <nd ref="303484009"/>
    <nd ref="303483982"/>
    <nd ref="303483987"/>
    <tag k="highway" v="residential"/>
    <tag k="name" v="Television Avenue"/>
    <tag k="source" v="GPS"/>
  </way>
  <way id="24318129" version="9" timestamp="2010-07-07T19:56:37Z" uid="74617" user="JohnSmith" changeset="5161069">
    <nd ref="263683266"/>
    <nd ref="780842436"/>
    <nd ref="263683267"/>
    <nd ref="263683268"/>
    <nd ref="303483994"/>
    <nd ref="303484009"/>
    <nd ref="303483982"/>
    <nd ref="303483987"/>
    <tag k="highway" v="residential"/>
    <tag k="maxspeed" v="50"/>
    <tag k="maxspeed:source" v="default residential speed limit in Australia"/>
    <tag k="name" v="Television Avenue"/>
    <tag k="source" v="GPS"/>
  </way>
  <way id="24318129" version="10" timestamp="2010-07-16T07:04:44Z" uid="280711" user="kbosward" changeset="5232504">
    <nd ref="263683266"/>
    <nd ref="780842436"/>
    <nd ref="263683267"/>
    <nd ref="820149952"/>
    <nd ref="263683268"/>
    <tag k="highway" v="residential"/>
    <tag k="maxspeed" v="50"/>
    <tag k="maxspeed:source" v="default residential speed limit in Australia"/>
    <tag k="name" v="Television Avenue"/>
    <tag k="source" v="GPS"/>
  </way>
  <way id="24318129" version="11" timestamp="2012-01-16T08:37:16Z" uid="147510" user="woodpeck_fixbot" changeset="10406018">
    <nd ref="263683266"/>
    <nd ref="780842436"/>
    <nd ref="263683267"/>
    <nd ref="820149952"/>
    <nd ref="263683268"/>
    <tag k="highway" v="residential"/>
    <tag k="name" v="Television Avenue"/>
    <tag k="source" v="GPS"/>
  </way>
  <way id="24318141" version="4" timestamp="2008-08-23T04:48:59Z" uid="30201" user="rrankin" changeset="373650">
    <nd ref="263683209"/>
    <nd ref="263683202"/>
    <nd ref="263683210"/>
    <tag k="created_by" v="Potlatch 0.9"/>
    <tag k="highway" v="residential"/>
    <tag k="name" v="Robertson Street"/>
  </way>
  <way id="24318141" version="5" timestamp="2008-10-10T07:02:13Z" uid="26313" user="wombass" changeset="208716">
    <nd ref="263683209"/>
    <nd ref="263683202"/>
    <nd ref="263683210"/>
    <nd ref="303479437"/>
    <nd ref="303479439"/>
    <nd ref="303479443"/>
    <nd ref="303479464"/>
    <tag k="created_by" v="Potlatch 0.9"/>
    <tag k="highway" v="residential"/>
    <tag k="name" v="Robertson Street"/>
  </way>
  <way id="24318141" version="6" timestamp="2008-10-10T07:19:15Z" uid="26313" user="wombass" changeset="208716"/>
  <way id="24318145" version="2" timestamp="2008-07-04T08:08:31Z" uid="6975" user="ulfl" changeset="389415">
    <nd ref="263683285"/>
    <nd ref="263683286"/>
    <nd ref="263683287"/>
    <nd ref="263683288"/>
    <nd ref="263683289"/>
    <nd ref="263683290"/>
    <nd ref="263683291"/>
    <nd ref="263683285"/>
    <tag k="building" v="yes"/>
    <tag k="name" v="Römerpassage"/>
    <tag k="shop" v="mall"/>
  </way>
  <way id="24318145" version="3" timestamp="2010-05-25T05:49:22Z" uid="123364" user="Tronikon" changeset="4800488">
    <nd ref="263683285"/>
    <nd ref="263683286"/>
    <nd ref="747665975"/>
    <nd ref="263683287"/>
    <nd ref="263683288"/>
    <nd ref="263683289"/>
    <nd ref="263683290"/>
    <nd ref="747665976"/>
    <nd ref="747665974"/>
    <nd ref="263683291"/>
    <nd ref="263683285"/>
    <tag k="building" v="yes"/>
    <tag k="name" v="Römerpassage"/>
    <tag k="shop" v="mall"/>
  </way>
  <way id="24318145" version="4" timestamp="2010-09-05T11:18:46Z" uid="123364" user="Tronikon" changeset="5686592">
    <nd ref="263683285"/>
    <nd ref="263683286"/>
    <nd ref="747665975"/>
    <nd ref="263683287"/>
    <nd ref="263683288"/>
    <nd ref="263683289"/>
    <nd ref="263683290"/>
    <nd ref="897141069"/>
    <nd ref="747665976"/>
    <nd ref="747665974"/>
    <nd ref="263683291"/>
    <nd ref="263683285"/>
    <tag k="building" v="yes"/>
    <tag k="name" v="Römerpassage"/>
    <tag k="shop" v="mall"/>
  </way>
  <way id="24318145" version="5" timestamp="2011-07-21T06:32:46Z" uid="314587" user="KWinter" changeset="8785375">
    <nd ref="263683285"/>
    <nd ref="263683286"/>
    <nd ref="747665975"/>
    <nd ref="263683287"/>
    <nd ref="263683288"/>
    <nd ref="263683289"/>
    <nd ref="263683290"/>
    <nd ref="897141069"/>
    <nd ref="747665976"/>
    <nd ref="1368677290"/>
    <nd ref="263683291"/>
    <nd ref="263683285"/>
    <tag k="building" v="yes"/>
    <tag k="layer" v="1"/>
    <tag k="name" v="Römerpassage"/>
    <tag k="shop" v="mall"/>
  </way>
  <way id="24318145" version="6" timestamp="2011-09-05T17:27:37Z" uid="440308" user="spezialist" changeset="9219869">
    <nd ref="263683285"/>
    <nd ref="263683286"/>
    <nd ref="747665975"/>
    <nd ref="263683287"/>
    <nd ref="263683288"/>
    <nd ref="263683289"/>
    <nd ref="263683290"/>
    <nd ref="897141069"/>
    <nd ref="1368677290"/>
    <nd ref="263683291"/>
    <nd ref="263683285"/>
    <tag k="building" v="yes"/>
    <tag k="layer" v="1"/>
    <tag k="name" v="Römerpassage"/>
    <tag k="shop" v="mall"/>
  </way>
  <way id="24318145" version="7" timestamp="2012-03-08T13:39:20Z" uid="290680" user="wheelmap_visitor" changeset="10906660">
    <nd ref="263683285"/>
    <nd ref="263683286"/>
    <nd ref="747665975"/>
    <nd ref="263683287"/>
    <nd ref="263683288"/>
    <nd ref="263683289"/>
    <nd ref="263683290"/>
    <nd ref="897141069"/>
    <nd ref="1368677290"/>
    <nd ref="263683291"/>
    <nd ref="263683285"/>
    <tag k="building" v="yes"/>
    <tag k="layer" v="1"/>
    <tag k="name" v="Römerpassage"/>
    <tag k="shop" v="mall"/>
    <tag k="wheelchair" v="yes"/>
  </way>
  <way id="24318200" version="2" timestamp="2009-10-01T19:18:56Z" uid="86259" user="hasse_osm_korinthenkacker" changeset="2704245">
    <nd ref="263683627"/>
    <nd ref="263683630"/>
    <nd ref="263683629"/>
    <nd ref="263683628"/>
    <nd ref="263683627"/>
    <tag k="highway" v="secondary"/>
    <tag k="junction" v="roundabout"/>
  </way>
  <way id="24318200" version="3" timestamp="2010-03-11T16:52:29Z" uid="95293" user="Nightdive" changeset="4099257">
    <nd ref="263683627"/>
    <nd ref="263683630"/>
    <nd ref="263683629"/>
    <nd ref="263683628"/>
    <nd ref="263683627"/>
    <tag k="highway" v="secondary"/>
    <tag k="junction" v="roundabout"/>
    <tag k="ref" v="L535"/>
  </way>
  <way id="24318200" version="4" timestamp="2010-03-14T21:34:25Z" uid="133974" user="refbotDE" changeset="4129890">
    <nd ref="263683627"/>
    <nd ref="263683630"/>
    <nd ref="263683629"/>
    <nd ref="263683628"/>
    <nd ref="263683627"/>
    <tag k="highway" v="secondary"/>
    <tag k="junction" v="roundabout"/>
    <tag k="ref" v="L 535"/>
  </way>
  <way id="24318200" version="5" timestamp="2010-05-13T12:30:23Z" uid="6808" user="wwwFrank" changeset="4685364">
    <nd ref="263683627"/>
    <nd ref="732081511"/>
    <nd ref="263683630"/>
    <nd ref="732081546"/>
    <nd ref="263683629"/>
    <nd ref="732081538"/>
    <nd ref="732081494"/>
    <nd ref="732081461"/>
    <nd ref="263683627"/>
    <tag k="highway" v="secondary"/>
    <tag k="junction" v="roundabout"/>
    <tag k="ref" v="L 535"/>
  </way>
  <way id="24318200" version="6" timestamp="2010-12-26T16:33:17Z" uid="104779" user="ABRob" changeset="6769708">
    <nd ref="263683627"/>
    <nd ref="732081511"/>
    <nd ref="263683630"/>
    <nd ref="732081546"/>
    <nd ref="263683629"/>
    <nd ref="732081538"/>
    <nd ref="732081494"/>
    <nd ref="732081461"/>
    <nd ref="263683627"/>
    <tag k="highway" v="secondary"/>
    <tag k="junction" v="roundabout"/>
  </way>
  <way id="24318200" version="7" timestamp="2011-09-04T20:01:23Z" uid="84334" user="wegsam" changeset="9212050">
    <nd ref="263683627"/>
    <nd ref="1423363751"/>
    <nd ref="732081511"/>
    <nd ref="1423363756"/>
    <nd ref="263683630"/>
    <nd ref="1423363769"/>
    <nd ref="732081546"/>
    <nd ref="1423363777"/>
    <nd ref="263683629"/>
    <nd ref="1423363787"/>
    <nd ref="732081538"/>
    <nd ref="1423363783"/>
    <nd ref="732081494"/>
    <nd ref="1423363774"/>
    <nd ref="732081461"/>
    <nd ref="1423363757"/>
    <nd ref="263683627"/>
    <tag k="highway" v="secondary"/>
    <tag k="junction" v="roundabout"/>
  </way>
  <way id="24318201" version="6" timestamp="2009-10-01T19:18:56Z" uid="86259" user="hasse_osm_korinthenkacker" changeset="2704245">
    <nd ref="263683629"/>
    <nd ref="429818239"/>
    <nd ref="130182576"/>
    <nd ref="130182581"/>
    <nd ref="130182571"/>
    <nd ref="280299092"/>
    <nd ref="130182572"/>
    <nd ref="278752949"/>
    <nd ref="130182580"/>
    <nd ref="278757036"/>
    <nd ref="130182579"/>
    <tag k="highway" v="secondary"/>
    <tag k="name" v="Vlothoer Straße"/>
    <tag k="ref" v="L 535"/>
  </way>
  <way id="24318201" version="7" timestamp="2010-05-13T12:30:52Z" uid="6808" user="wwwFrank" changeset="4685364">
    <nd ref="263683629"/>
    <nd ref="130182576"/>
    <nd ref="130182581"/>
    <nd ref="130182571"/>
    <nd ref="280299092"/>
    <nd ref="130182572"/>
    <nd ref="278752949"/>
    <nd ref="130182580"/>
    <nd ref="278757036"/>
    <nd ref="130182579"/>
    <tag k="highway" v="secondary"/>
    <tag k="name" v="Vlothoer Straße"/>
    <tag k="ref" v="L 535"/>
  </way>
  <way id="24318201" version="8" timestamp="2010-12-26T16:33:23Z" uid="104779" user="ABRob" changeset="6769708">
    <nd ref="263683629"/>
    <nd ref="130182576"/>
    <nd ref="130182581"/>
    <nd ref="130182571"/>
    <nd ref="280299092"/>
    <nd ref="130182572"/>
    <nd ref="278752949"/>
    <nd ref="130182580"/>
    <nd ref="278757036"/>
    <nd ref="1066064856"/>
    <nd ref="130182579"/>
    <tag k="highway" v="secondary"/>
    <tag k="maxspeed" v="70"/>
    <tag k="name" v="Vlothoer Straße"/>
    <tag k="ref" v="L 535"/>
  </way>
  <way id="24318201" version="9" timestamp="2011-08-31T10:33:39Z" uid="130269" user="Ole3358" changeset="9175064">
    <nd ref="263683629"/>
    <nd ref="1419069639"/>
    <nd ref="1419069621"/>
    <nd ref="130182576"/>
    <nd ref="1419069611"/>
    <nd ref="1419069643"/>
    <nd ref="1419069601"/>
    <nd ref="130182581"/>
    <nd ref="130182571"/>
    <nd ref="280299092"/>
    <nd ref="130182572"/>
    <nd ref="278752949"/>
    <nd ref="130182580"/>
    <nd ref="278757036"/>
    <nd ref="1066064856"/>
    <nd ref="130182579"/>
    <tag k="highway" v="secondary"/>
    <tag k="maxspeed" v="70"/>
    <tag k="name" v="Vlothoer Straße"/>
    <tag k="ref" v="L 535"/>
  </way>
  <way id="24318201" version="10" timestamp="2011-09-07T20:27:51Z" uid="84334" user="wegsam" changeset="9240521">
    <nd ref="263683629"/>
    <nd ref="1419069639"/>
    <nd ref="1419069621"/>
    <nd ref="130182576"/>
    <nd ref="1426489867"/>
    <nd ref="1419069643"/>
    <nd ref="1419069601"/>
    <nd ref="130182581"/>
    <nd ref="130182571"/>
    <nd ref="280299092"/>
    <nd ref="130182572"/>
    <nd ref="278752949"/>
    <nd ref="130182580"/>
    <nd ref="278757036"/>
    <nd ref="1066064856"/>
    <nd ref="130182579"/>
    <tag k="highway" v="secondary"/>
    <tag k="maxspeed" v="70"/>
    <tag k="name" v="Vlothoer Straße"/>
    <tag k="ref" v="L 535"/>
  </way>
  <way id="24318201" version="11" timestamp="2011-09-11T18:41:21Z" uid="84334" user="wegsam" changeset="9273797">
    <nd ref="263683629"/>
    <nd ref="1430399903"/>
    <nd ref="1419069639"/>
    <nd ref="1419069621"/>
    <nd ref="130182576"/>
    <nd ref="1426489867"/>
    <nd ref="1419069643"/>
    <nd ref="1419069601"/>
    <nd ref="130182581"/>
    <nd ref="130182571"/>
    <nd ref="280299092"/>
    <nd ref="130182572"/>
    <nd ref="278752949"/>
    <nd ref="130182580"/>
    <nd ref="278757036"/>
    <nd ref="1066064856"/>
    <nd ref="130182579"/>
    <tag k="highway" v="secondary"/>
    <tag k="maxspeed" v="70"/>
    <tag k="name" v="Vlothoer Straße"/>
    <tag k="ref" v="L 535"/>
  </way>
  <way id="24318219" version="6" timestamp="2008-12-14T14:56:23Z" uid="6975" user="ulfl" changeset="375714">
    <nd ref="255232161"/>
    <nd ref="255232162"/>
    <nd ref="306665101"/>
    <nd ref="255232150"/>
    <nd ref="2195948"/>
    <tag k="highway" v="tertiary"/>
    <tag k="name" v="Diemtigtalstrasse"/>
  </way>
  <way id="24318221" version="4" timestamp="2010-07-06T08:33:12Z" uid="74617" user="JohnSmith" changeset="5147679">
    <nd ref="206236262"/>
    <nd ref="206236014"/>
    <nd ref="206236263"/>
    <nd ref="206235545"/>
    <nd ref="206236264"/>
    <tag k="highway" v="residential"/>
    <tag k="maxspeed" v="50"/>
    <tag k="maxspeed:source" v="default residential speed limit in Australia"/>
    <tag k="name" v="Waratah Avenue"/>
  </way>
  <way id="24318221" version="5" timestamp="2012-01-16T08:37:17Z" uid="147510" user="woodpeck_fixbot" changeset="10406018">
    <nd ref="206236262"/>
    <nd ref="206236014"/>
    <nd ref="206236263"/>
    <nd ref="206235545"/>
    <nd ref="206236264"/>
    <tag k="highway" v="residential"/>
    <tag k="name" v="Waratah Avenue"/>
  </way>
  <way id="24318234" version="4" timestamp="2008-08-23T04:40:07Z" uid="30201" user="rrankin" changeset="373650">
    <nd ref="263683835"/>
    <nd ref="263683266"/>
    <nd ref="263683836"/>
    <nd ref="263683837"/>
    <nd ref="263683838"/>
    <nd ref="263683839"/>
    <tag k="created_by" v="Potlatch 0.9"/>
    <tag k="highway" v="residential"/>
    <tag k="name" v="The Avenue"/>
  </way>
  <way id="24318234" version="5" timestamp="2008-10-10T06:52:15Z" uid="26313" user="wombass" changeset="208716">
    <nd ref="303477434"/>
    <nd ref="303477470"/>
    <nd ref="263683835"/>
    <nd ref="263683266"/>
    <nd ref="263683836"/>
    <nd ref="263683837"/>
    <nd ref="263683838"/>
    <nd ref="108305752"/>
    <tag k="created_by" v="Potlatch 0.9"/>
    <tag k="highway" v="residential"/>
    <tag k="name" v="The Avenue"/>
  </way>
  <way id="24318234" version="6" timestamp="2008-10-23T02:31:04Z" uid="26313" user="wombass" changeset="519279">
    <nd ref="303477434"/>
    <nd ref="303477470"/>
    <nd ref="263683835"/>
    <nd ref="263683266"/>
    <nd ref="263683836"/>
    <nd ref="263683837"/>
    <nd ref="263683838"/>
    <nd ref="108305752"/>
    <tag k="created_by" v="Potlatch 0.9"/>
    <tag k="highway" v="residential"/>
    <tag k="name" v="The Avenue"/>
    <tag k="source" v="GPS"/>
  </way>
  <way id="24318234" version="7" timestamp="2010-06-22T02:12:34Z" uid="280711" user="kbosward" changeset="5047958">
    <nd ref="303477434"/>
    <nd ref="303477470"/>
    <nd ref="263683835"/>
    <nd ref="263683266"/>
    <nd ref="780842419"/>
    <nd ref="263683836"/>
    <nd ref="780842424"/>
    <nd ref="263683837"/>
    <nd ref="263683838"/>
    <nd ref="108305752"/>
    <tag k="highway" v="residential"/>
    <tag k="name" v="The Avenue"/>
    <tag k="source" v="GPS"/>
  </way>
  <way id="24318234" version="8" timestamp="2010-07-07T19:56:03Z" uid="74617" user="JohnSmith" changeset="5161069">
    <nd ref="303477434"/>
    <nd ref="303477470"/>
    <nd ref="263683835"/>
    <nd ref="263683266"/>
    <nd ref="780842419"/>
    <nd ref="263683836"/>
    <nd ref="780842424"/>
    <nd ref="263683837"/>
    <nd ref="263683838"/>
    <nd ref="108305752"/>
    <tag k="highway" v="residential"/>
    <tag k="maxspeed" v="50"/>
    <tag k="maxspeed:source" v="default residential speed limit in Australia"/>
    <tag k="name" v="The Avenue"/>
    <tag k="source" v="GPS"/>
  </way>
  <way id="24318234" version="9" timestamp="2010-07-16T06:01:33Z" uid="280711" user="kbosward" changeset="5232189">
    <nd ref="303477434"/>
    <nd ref="820099501"/>
    <nd ref="303477470"/>
    <nd ref="263683835"/>
    <nd ref="263683266"/>
    <nd ref="780842419"/>
    <nd ref="263683836"/>
    <nd ref="780842424"/>
    <nd ref="263683837"/>
    <nd ref="263683838"/>
    <nd ref="108305752"/>
    <tag k="highway" v="residential"/>
    <tag k="maxspeed" v="50"/>
    <tag k="maxspeed:source" v="default residential speed limit in Australia"/>
    <tag k="name" v="The Avenue"/>
    <tag k="source" v="GPS"/>
  </way>
  <way id="24318234" version="10" timestamp="2010-09-07T03:46:37Z" uid="280711" user="kw_broadens" changeset="5704161">
    <nd ref="303477434"/>
    <nd ref="820099501"/>
    <nd ref="303477470"/>
    <nd ref="263683835"/>
    <nd ref="263683266"/>
    <nd ref="780842419"/>
    <nd ref="263683836"/>
    <nd ref="780842424"/>
    <nd ref="263683837"/>
    <nd ref="263683838"/>
    <nd ref="900132508"/>
    <nd ref="108305752"/>
    <tag k="highway" v="residential"/>
    <tag k="maxspeed" v="50"/>
    <tag k="maxspeed:source" v="default residential speed limit in Australia"/>
    <tag k="name" v="The Avenue"/>
    <tag k="source" v="GPS"/>
  </way>
  <way id="24318234" version="11" timestamp="2012-01-16T08:37:19Z" uid="147510" user="woodpeck_fixbot" changeset="10406018">
    <nd ref="303477434"/>
    <nd ref="820099501"/>
    <nd ref="303477470"/>
    <nd ref="263683835"/>
    <nd ref="263683266"/>
    <nd ref="780842419"/>
    <nd ref="263683836"/>
    <nd ref="780842424"/>
    <nd ref="263683837"/>
    <nd ref="263683838"/>
    <nd ref="900132508"/>
    <nd ref="108305752"/>
    <tag k="highway" v="residential"/>
    <tag k="name" v="The Avenue"/>
    <tag k="source" v="GPS"/>
  </way>
  <way id="24318240" version="4" timestamp="2008-08-23T04:40:55Z" uid="30201" user="rrankin" changeset="373650">
    <nd ref="263683841"/>
    <nd ref="263683889"/>
    <nd ref="263683890"/>
    <nd ref="263683928"/>
    <nd ref="263683891"/>
    <tag k="created_by" v="Potlatch 0.9"/>
    <tag k="highway" v="residential"/>
    <tag k="name" v="Ocean Street"/>
  </way>
  <way id="24318240" version="5" timestamp="2008-10-10T06:52:18Z" uid="26313" user="wombass" changeset="208716">
    <nd ref="303477421"/>
    <nd ref="303477423"/>
    <nd ref="263683890"/>
    <nd ref="263683928"/>
    <nd ref="263683891"/>
    <nd ref="303477427"/>
    <nd ref="303477430"/>
    <nd ref="303477432"/>
    <nd ref="303477434"/>
    <nd ref="303477437"/>
    <nd ref="303477461"/>
    <nd ref="303477439"/>
    <nd ref="303477446"/>
    <nd ref="108291745"/>
    <tag k="highway" v="residential"/>
    <tag k="name" v="Ocean Street"/>
  </way>
  <way id="24318240" version="6" timestamp="2008-10-10T07:02:12Z" uid="26313" user="wombass" changeset="208716">
    <nd ref="303477421"/>
    <nd ref="303477423"/>
    <nd ref="303479416"/>
    <nd ref="263683890"/>
    <nd ref="263683928"/>
    <nd ref="263683891"/>
    <nd ref="303477427"/>
    <nd ref="303477430"/>
    <nd ref="303477432"/>
    <nd ref="303477434"/>
    <nd ref="303477437"/>
    <nd ref="303477461"/>
    <nd ref="303477439"/>
    <nd ref="303477446"/>
    <nd ref="108291745"/>
    <tag k="highway" v="residential"/>
    <tag k="name" v="Ocean Street"/>
  </way>
  <way id="24318240" version="7" timestamp="2008-10-23T02:31:06Z" uid="26313" user="wombass" changeset="519279">
    <nd ref="303477421"/>
    <nd ref="303477423"/>
    <nd ref="303479416"/>
    <nd ref="263683890"/>
    <nd ref="263683928"/>
    <nd ref="263683891"/>
    <nd ref="303477427"/>
    <nd ref="303477430"/>
    <nd ref="303477432"/>
    <nd ref="303477434"/>
    <nd ref="303477437"/>
    <nd ref="303477461"/>
    <nd ref="303477439"/>
    <nd ref="303477446"/>
    <nd ref="108291745"/>
    <tag k="highway" v="residential"/>
    <tag k="name" v="Ocean Street"/>
    <tag k="source" v="GPS"/>
  </way>
  <way id="24318240" version="8" timestamp="2010-07-07T19:56:37Z" uid="74617" user="JohnSmith" changeset="5161069">
    <nd ref="303477421"/>
    <nd ref="303477423"/>
    <nd ref="303479416"/>
    <nd ref="263683890"/>
    <nd ref="263683928"/>
    <nd ref="263683891"/>
    <nd ref="303477427"/>
    <nd ref="303477430"/>
    <nd ref="303477432"/>
    <nd ref="303477434"/>
    <nd ref="303477437"/>
    <nd ref="303477461"/>
    <nd ref="303477439"/>
    <nd ref="303477446"/>
    <nd ref="108291745"/>
    <tag k="highway" v="residential"/>
    <tag k="maxspeed" v="50"/>
    <tag k="maxspeed:source" v="default residential speed limit in Australia"/>
    <tag k="name" v="Ocean Street"/>
    <tag k="source" v="GPS"/>
  </way>
  <way id="24318240" version="9" timestamp="2010-07-16T06:01:34Z" uid="280711" user="kbosward" changeset="5232189">
    <nd ref="303477421"/>
    <nd ref="303477423"/>
    <nd ref="303479416"/>
    <nd ref="263683890"/>
    <nd ref="263683928"/>
    <nd ref="263683891"/>
    <nd ref="303477427"/>
    <nd ref="303477430"/>
    <nd ref="303477432"/>
    <nd ref="303477434"/>
    <nd ref="820099502"/>
    <nd ref="303477437"/>
    <nd ref="303477461"/>
    <nd ref="303477439"/>
    <nd ref="303477446"/>
    <nd ref="108291745"/>
    <tag k="highway" v="residential"/>
    <tag k="maxspeed" v="50"/>
    <tag k="maxspeed:source" v="default residential speed limit in Australia"/>
    <tag k="name" v="Ocean Street"/>
    <tag k="source" v="GPS"/>
  </way>
  <way id="24318240" version="10" timestamp="2010-09-07T03:46:36Z" uid="280711" user="kw_broadens" changeset="5704161">
    <nd ref="303477421"/>
    <nd ref="303477423"/>
    <nd ref="303479416"/>
    <nd ref="900132507"/>
    <nd ref="263683928"/>
    <nd ref="263683891"/>
    <nd ref="303477427"/>
    <nd ref="303477430"/>
    <nd ref="303477432"/>
    <nd ref="303477434"/>
    <nd ref="820099502"/>
    <nd ref="303477437"/>
    <nd ref="303477461"/>
    <nd ref="303477439"/>
    <nd ref="303477446"/>
    <nd ref="108291745"/>
    <tag k="highway" v="residential"/>
    <tag k="maxspeed" v="50"/>
    <tag k="maxspeed:source" v="default residential speed limit in Australia"/>
    <tag k="name" v="Ocean Street"/>
    <tag k="source" v="GPS"/>
  </way>
  <way id="24318240" version="11" timestamp="2010-09-13T03:50:50Z" uid="280711" user="kw_broadens" changeset="5765968">
    <nd ref="303477421"/>
    <nd ref="303477423"/>
    <nd ref="303479416"/>
    <tag k="highway" v="residential"/>
    <tag k="maxspeed" v="50"/>
    <tag k="maxspeed:source" v="default residential speed limit in Australia"/>
    <tag k="name" v="Ocean Street"/>
    <tag k="source" v="GPS"/>
  </way>
  <way id="24318240" version="12" timestamp="2012-01-16T08:37:21Z" uid="147510" user="woodpeck_fixbot" changeset="10406018">
    <nd ref="303477421"/>
    <nd ref="303477423"/>
    <nd ref="303479416"/>
    <tag k="highway" v="residential"/>
    <tag k="name" v="Ocean Street"/>
    <tag k="source" v="GPS"/>
  </way>
  <way id="24318241" version="3" timestamp="2009-06-20T20:41:58Z" uid="55964" user="Evan Sebire" changeset="1578508">
    <nd ref="262556307"/>
    <nd ref="1017471"/>
    <nd ref="1017475"/>
    <nd ref="427123649"/>
    <nd ref="263681019"/>
    <nd ref="427138936"/>
    <nd ref="1017477"/>
    <nd ref="427138844"/>
    <nd ref="263681015"/>
    <nd ref="263681016"/>
    <nd ref="1017480"/>
    <nd ref="263681017"/>
    <nd ref="1017485"/>
    <nd ref="263680997"/>
    <nd ref="1017489"/>
    <nd ref="2195993"/>
    <tag k="highway" v="secondary"/>
  </way>
  <way id="24318241" version="4" timestamp="2009-06-20T20:58:11Z" uid="55964" user="Evan Sebire" changeset="1578647">
    <nd ref="262556307"/>
    <nd ref="427143895"/>
    <nd ref="1017471"/>
    <nd ref="1017475"/>
    <nd ref="427123649"/>
    <nd ref="263681019"/>
    <nd ref="427138936"/>
    <nd ref="1017477"/>
    <nd ref="427138844"/>
    <nd ref="263681015"/>
    <nd ref="263681016"/>
    <nd ref="1017480"/>
    <nd ref="263681017"/>
    <nd ref="1017485"/>
    <nd ref="263680997"/>
    <nd ref="1017489"/>
    <nd ref="2195993"/>
    <tag k="highway" v="secondary"/>
  </way>
  <way id="24318241" version="5" timestamp="2009-06-20T21:06:11Z" uid="55964" user="Evan Sebire" changeset="1578714">
    <nd ref="262556307"/>
    <nd ref="427143895"/>
    <nd ref="1017471"/>
    <nd ref="1017475"/>
    <nd ref="427123649"/>
    <nd ref="263681019"/>
    <nd ref="427138936"/>
    <nd ref="1017477"/>
    <nd ref="427138844"/>
    <nd ref="263681015"/>
    <nd ref="263681016"/>
    <nd ref="1017480"/>
    <nd ref="427144991"/>
    <nd ref="263681017"/>
    <nd ref="1017485"/>
    <nd ref="427145009"/>
    <nd ref="263680997"/>
    <nd ref="1017489"/>
    <nd ref="2195993"/>
    <tag k="highway" v="secondary"/>
  </way>
  <way id="24318241" version="6" timestamp="2009-07-30T23:28:21Z" uid="52921" user="t-i" changeset="1990044">
    <nd ref="262556307"/>
    <nd ref="1017471"/>
    <nd ref="1017475"/>
    <nd ref="427123649"/>
    <nd ref="263681019"/>
    <nd ref="427138936"/>
    <nd ref="1017477"/>
    <nd ref="427138844"/>
    <nd ref="263681015"/>
    <nd ref="263681016"/>
    <nd ref="1017480"/>
    <nd ref="427144991"/>
    <nd ref="263681017"/>
    <nd ref="1017485"/>
    <nd ref="427145009"/>
    <nd ref="263680997"/>
    <nd ref="1017489"/>
    <nd ref="2195993"/>
    <tag k="highway" v="secondary"/>
  </way>
  <way id="24318241" version="7" timestamp="2009-12-02T20:16:16Z" uid="126246" user="mocoohay" changeset="3275144">
    <nd ref="262556307"/>
    <nd ref="1017471"/>
    <nd ref="1017475"/>
    <nd ref="427123649"/>
    <nd ref="263681019"/>
    <nd ref="427138936"/>
    <nd ref="1017477"/>
    <nd ref="427138844"/>
    <nd ref="263681015"/>
    <nd ref="263681016"/>
    <nd ref="1017480"/>
    <nd ref="427144991"/>
    <nd ref="263681017"/>
    <nd ref="1017485"/>
    <nd ref="427145009"/>
    <nd ref="263680997"/>
    <nd ref="1017489"/>
    <nd ref="2195993"/>
    <tag k="highway" v="primary"/>
    <tag k="ref" v="11"/>
  </way>
  <way id="24318241" version="8" timestamp="2011-02-04T13:22:19Z" uid="122213" user="kds_ch" changeset="7182482">
    <nd ref="262556307"/>
    <nd ref="1017471"/>
    <nd ref="1017475"/>
    <nd ref="427123649"/>
    <nd ref="263681019"/>
    <nd ref="427138936"/>
    <nd ref="1017477"/>
    <nd ref="427138844"/>
    <nd ref="263681015"/>
    <nd ref="263681016"/>
    <nd ref="1017480"/>
    <nd ref="427144991"/>
    <nd ref="263681017"/>
    <nd ref="1135616983"/>
    <nd ref="1017485"/>
    <nd ref="1135616987"/>
    <nd ref="427145009"/>
    <nd ref="263680997"/>
    <nd ref="1135616988"/>
    <nd ref="1017489"/>
    <nd ref="1135616989"/>
    <nd ref="2195993"/>
    <tag k="highway" v="primary"/>
    <tag k="ref" v="11"/>
  </way>
  <way id="24318241" version="9" timestamp="2011-02-04T13:22:32Z" uid="122213" user="kds_ch" changeset="7182482">
    <nd ref="262556307"/>
    <nd ref="1017471"/>
    <nd ref="1017475"/>
    <nd ref="427123649"/>
    <nd ref="263681019"/>
    <nd ref="427138936"/>
    <nd ref="1017477"/>
    <nd ref="427138844"/>
    <nd ref="263681015"/>
    <nd ref="263681016"/>
    <nd ref="1135617156"/>
    <nd ref="1017480"/>
    <nd ref="427144991"/>
    <nd ref="1135617157"/>
    <nd ref="263681017"/>
    <nd ref="1135616983"/>
    <nd ref="1017485"/>
    <nd ref="1135616987"/>
    <nd ref="427145009"/>
    <nd ref="263680997"/>
    <nd ref="1135616988"/>
    <nd ref="1017489"/>
    <nd ref="1135616989"/>
    <nd ref="2195993"/>
    <tag k="highway" v="primary"/>
    <tag k="ref" v="11"/>
  </way>
  <way id="24318241" version="10" timestamp="2011-02-04T13:22:45Z" uid="122213" user="kds_ch" changeset="7182482">
    <nd ref="262556307"/>
    <nd ref="1017471"/>
    <nd ref="1017475"/>
    <nd ref="1135617213"/>
    <nd ref="427123649"/>
    <nd ref="263681019"/>
    <nd ref="427138936"/>
    <nd ref="1017477"/>
    <nd ref="427138844"/>
    <nd ref="263681015"/>
    <nd ref="263681016"/>
    <nd ref="1135617156"/>
    <nd ref="1017480"/>
    <nd ref="427144991"/>
    <nd ref="1135617157"/>
    <nd ref="263681017"/>
    <nd ref="1135616983"/>
    <nd ref="1017485"/>
    <nd ref="1135616987"/>
    <nd ref="427145009"/>
    <nd ref="263680997"/>
    <nd ref="1135616988"/>
    <nd ref="1017489"/>
    <nd ref="1135616989"/>
    <nd ref="2195993"/>
    <tag k="highway" v="primary"/>
    <tag k="ref" v="11"/>
  </way>
  <way id="24318241" version="11" timestamp="2012-01-25T07:25:56Z" uid="74900" user="FischersFritz" changeset="10490936"/>
  <way id="24318257" version="3" timestamp="2008-08-23T04:41:24Z" uid="30201" user="rrankin" changeset="373650">
    <nd ref="263683928"/>
    <nd ref="263684038"/>
    <tag k="created_by" v="Potlatch 0.9"/>
    <tag k="highway" v="residential"/>
    <tag k="name" v="Prospect Street"/>
  </way>
  <way id="24318257" version="4" timestamp="2008-10-23T02:31:07Z" uid="26313" user="wombass" changeset="519279">
    <nd ref="263683928"/>
    <nd ref="263684038"/>
    <tag k="created_by" v="Potlatch 0.9"/>
    <tag k="highway" v="residential"/>
    <tag k="name" v="Prospect Street"/>
    <tag k="source" v="GPS"/>
  </way>
  <way id="24318257" version="5" timestamp="2010-05-20T00:44:12Z" uid="280711" user="kbosward" changeset="4753339">
    <nd ref="263683928"/>
    <nd ref="263684038"/>
    <tag k="highway" v="residential"/>
    <tag k="name" v="Prospect Street"/>
    <tag k="source" v="GPS"/>
  </way>
  <way id="24318257" version="6" timestamp="2010-07-07T19:54:51Z" uid="74617" user="JohnSmith" changeset="5161069">
    <nd ref="263683928"/>
    <nd ref="263684038"/>
    <tag k="highway" v="residential"/>
    <tag k="maxspeed" v="50"/>
    <tag k="maxspeed:source" v="default residential speed limit in Australia"/>
    <tag k="name" v="Prospect Street"/>
    <tag k="source" v="GPS"/>
  </way>
  <way id="24318257" version="7" timestamp="2012-01-16T08:37:23Z" uid="147510" user="woodpeck_fixbot" changeset="10406018">
    <nd ref="263683928"/>
    <nd ref="263684038"/>
    <tag k="highway" v="residential"/>
    <tag k="name" v="Prospect Street"/>
    <tag k="source" v="GPS"/>
  </way>
  <way id="24318338" version="3" timestamp="2008-07-07T00:31:59Z" uid="6975" user="ulfl" changeset="415781">
    <nd ref="263684388"/>
    <nd ref="262779631"/>
    <nd ref="263684389"/>
    <tag k="layer" v="3"/>
    <tag k="ope" v="DBEnergie"/>
    <tag k="power" v="line"/>
  </way>
  <way id="24318338" version="4" timestamp="2008-07-30T16:30:29Z" uid="36694" user="neufeind" changeset="628454">
    <nd ref="263684388"/>
    <nd ref="262779631"/>
    <nd ref="263684389"/>
    <tag k="layer" v="3"/>
    <tag k="operator" v="DBEnergie"/>
    <tag k="power" v="line"/>
  </way>
  <way id="24318338" version="5" timestamp="2008-09-21T00:39:28Z" uid="13203" user="bahnpirat" changeset="672140">
    <nd ref="263684388"/>
    <nd ref="262779631"/>
    <nd ref="263684389"/>
    <tag k="created_by" v="Potlatch 0.10b"/>
    <tag k="layer" v="3"/>
    <tag k="operator" v="DB Energie"/>
    <tag k="power" v="line"/>
    <tag k="wires" v="single"/>
  </way>
  <way id="24318338" version="6" timestamp="2008-09-21T00:39:42Z" uid="13203" user="bahnpirat" changeset="672140">
    <nd ref="263684388"/>
    <nd ref="262779631"/>
    <nd ref="263684389"/>
    <tag k="created_by" v="Potlatch 0.10b"/>
    <tag k="layer" v="3"/>
    <tag k="name" v="Lehrte - Uelzen, Lehrte - Solpke"/>
    <tag k="operator" v="DB Energie"/>
    <tag k="power" v="line"/>
    <tag k="wires" v="single"/>
  </way>
  <way id="24318338" version="7" timestamp="2008-09-26T17:03:32Z" uid="13203" user="bahnpirat" changeset="700768">
    <nd ref="263684388"/>
    <nd ref="262779631"/>
    <nd ref="263684389"/>
    <tag k="created_by" v="Potlatch 0.10c"/>
    <tag k="layer" v="3"/>
    <tag k="name" v="Lehrte - Uelzen, Lehrte - Solpke"/>
    <tag k="operator" v="DB_Energie"/>
    <tag k="power" v="line"/>
    <tag k="wires" v="single"/>
  </way>
  <way id="24318338" version="8" timestamp="2008-10-31T09:40:12Z" uid="13203" user="bahnpirat" changeset="638425">
    <nd ref="263684388"/>
    <nd ref="262779631"/>
    <nd ref="263684389"/>
    <tag k="created_by" v="Potlatch 0.10f"/>
    <tag k="layer" v="3"/>
    <tag k="name" v="Lehrte-Uelzen;Lehrte-Solpke"/>
    <tag k="operator" v="DB_Energie"/>
    <tag k="power" v="line"/>
    <tag k="wires" v="single"/>
  </way>
  <way id="24318338" version="9" timestamp="2009-01-13T10:04:15Z" uid="13203" user="bahnpirat" changeset="781734">
    <nd ref="263684388"/>
    <nd ref="262779631"/>
    <nd ref="263684389"/>
    <tag k="created_by" v="Potlatch 0.10f"/>
    <tag k="layer" v="3"/>
    <tag k="name" v="Lehrte-Uelzen;Lehrte-Solpke"/>
    <tag k="operator" v="DB_Energie"/>
    <tag k="power" v="line"/>
    <tag k="voltage" v="110000"/>
    <tag k="wires" v="single"/>
  </way>
  <way id="24318338" version="10" timestamp="2009-10-26T09:22:09Z" uid="13203" user="bahnpirat" changeset="2954404">
    <nd ref="263684388"/>
    <nd ref="262779631"/>
    <nd ref="263684389"/>
    <tag k="layer" v="3"/>
    <tag k="name" v="Lehrte-Uelzen;Lehrte-Solpke"/>
    <tag k="operator" v="DB_Energie"/>
    <tag k="power" v="line"/>
    <tag k="voltage" v="110000"/>
    <tag k="wires" v="single"/>
  </way>
  <way id="24318338" version="11" timestamp="2010-03-02T02:17:25Z" uid="13203" user="bahnpirat" changeset="4014068">
    <nd ref="263684388"/>
    <nd ref="262779631"/>
    <tag k="cables" v="4"/>
    <tag k="frequency" v="16.7"/>
    <tag k="layer" v="3"/>
    <tag k="name" v="Lehrte - Uelzen;Lehrte - Solpke"/>
    <tag k="operator" v="DB_Energie"/>
    <tag k="power" v="line"/>
    <tag k="voltage" v="110000"/>
    <tag k="wires" v="single"/>
  </way>
  <way id="24318338" version="12" timestamp="2010-03-05T16:17:47Z" uid="13203" user="bahnpirat" changeset="4042280">
    <nd ref="660707928"/>
    <nd ref="263684388"/>
    <nd ref="262779631"/>
    <tag k="cables" v="4"/>
    <tag k="frequency" v="16.7"/>
    <tag k="layer" v="3"/>
    <tag k="name" v="Lehrte - Uelzen;Lehrte - Solpke"/>
    <tag k="operator" v="DB_Energie"/>
    <tag k="power" v="line"/>
    <tag k="voltage" v="110000"/>
    <tag k="wires" v="single"/>
  </way>
  <way id="24318338" version="13" timestamp="2011-06-29T08:18:17Z" uid="13203" user="bahnpirat" changeset="8578580">
    <nd ref="263684388"/>
    <nd ref="262779631"/>
    <tag k="cables" v="4"/>
    <tag k="frequency" v="16.7"/>
    <tag k="layer" v="3"/>
    <tag k="name" v="Lehrte - Uelzen;Lehrte - Solpke"/>
    <tag k="operator" v="DB_Energie"/>
    <tag k="power" v="line"/>
    <tag k="voltage" v="110000"/>
    <tag k="wires" v="single"/>
  </way>
  <way id="24318429" version="4" timestamp="2008-07-04T07:58:00Z" uid="6975" user="ulfl" changeset="389415">
    <nd ref="263685059"/>
    <nd ref="263685060"/>
    <nd ref="263685061"/>
    <nd ref="263685062"/>
    <nd ref="263685059"/>
    <tag k="building" v="yes"/>
    <tag k="name" v="C&amp;amp;A"/>
    <tag k="shop" v="clothes"/>
  </way>
  <way id="24318429" version="5" timestamp="2009-02-27T01:15:09Z" uid="48641" user="bs5" changeset="681691">
    <nd ref="263685059"/>
    <nd ref="263685060"/>
    <nd ref="263685061"/>
    <nd ref="263685062"/>
    <nd ref="263685059"/>
    <tag k="building" v="yes"/>
    <tag k="name" v="C&amp;A"/>
    <tag k="shop" v="clothes"/>
  </way>
  <way id="24318429" version="6" timestamp="2011-07-21T06:32:44Z" uid="314587" user="KWinter" changeset="8785375">
    <nd ref="263685059"/>
    <nd ref="263685060"/>
    <nd ref="263685061"/>
    <nd ref="263685062"/>
    <nd ref="1368677272"/>
    <nd ref="1368677273"/>
    <nd ref="1368677275"/>
    <nd ref="263685059"/>
    <tag k="building" v="yes"/>
    <tag k="name" v="C&amp;A"/>
    <tag k="shop" v="clothes"/>
  </way>
  <way id="24318605" version="13" timestamp="2009-04-28T14:07:50Z" uid="30632" user="antblant" changeset="1004318">
    <nd ref="263686394"/>
    <nd ref="263686395"/>
    <nd ref="331264935"/>
    <nd ref="263686397"/>
    <nd ref="263686398"/>
    <nd ref="263686399"/>
    <nd ref="263686400"/>
    <nd ref="263686401"/>
    <nd ref="331267475"/>
    <nd ref="171347555"/>
    <tag k="created_by" v="Potlatch 0.10f"/>
    <tag k="highway" v="primary"/>
    <tag k="name" v="Kolejowa"/>
    <tag k="oneway" v="yes"/>
    <tag k="ref" v="94"/>
  </way>
  <way id="24318605" version="14" timestamp="2009-04-28T14:45:29Z" uid="30632" user="antblant" changeset="1004887">
    <nd ref="263686394"/>
    <nd ref="263686395"/>
    <nd ref="331264935"/>
    <nd ref="263686397"/>
    <nd ref="263686398"/>
    <nd ref="263686399"/>
    <nd ref="263686400"/>
    <nd ref="263686401"/>
    <tag k="created_by" v="Potlatch 0.10f"/>
    <tag k="highway" v="primary"/>
    <tag k="name" v="Kolejowa"/>
    <tag k="oneway" v="yes"/>
    <tag k="ref" v="94"/>
  </way>
  <way id="24318605" version="15" timestamp="2009-07-06T21:18:45Z" uid="83198" user="Mateusz Korniak" changeset="1757375">
    <nd ref="263686394"/>
    <nd ref="435724480"/>
    <nd ref="263686395"/>
    <nd ref="331264935"/>
    <nd ref="435724469"/>
    <nd ref="263686397"/>
    <nd ref="263686398"/>
    <nd ref="263686399"/>
    <nd ref="263686400"/>
    <nd ref="435724474"/>
    <nd ref="263686401"/>
    <tag k="created_by" v="Potlatch 0.10f"/>
    <tag k="highway" v="primary"/>
    <tag k="name" v="Kolejowa"/>
    <tag k="oneway" v="yes"/>
    <tag k="ref" v="4;94"/>
  </way>
  <way id="24318605" version="16" timestamp="2009-10-04T13:20:38Z" uid="91056" user="Yarl" changeset="2736574">
    <nd ref="263686394"/>
    <nd ref="520092271"/>
    <nd ref="435724480"/>
    <nd ref="263686395"/>
    <nd ref="331264935"/>
    <nd ref="435724469"/>
    <nd ref="263686397"/>
    <nd ref="263686398"/>
    <nd ref="263686399"/>
    <nd ref="263686400"/>
    <nd ref="435724474"/>
    <nd ref="263686401"/>
    <tag k="highway" v="primary"/>
    <tag k="name" v="Kolejowa"/>
    <tag k="oneway" v="yes"/>
    <tag k="ref" v="4;94"/>
  </way>
  <way id="24318605" version="17" timestamp="2009-10-28T16:04:31Z" uid="91056" user="Yarl" changeset="2974309">
    <nd ref="263686394"/>
    <nd ref="520092271"/>
    <nd ref="435724480"/>
    <nd ref="263686395"/>
    <nd ref="331264935"/>
    <nd ref="543721392"/>
    <nd ref="435724469"/>
    <nd ref="543721380"/>
    <nd ref="263686397"/>
    <nd ref="543721388"/>
    <nd ref="543721390"/>
    <nd ref="543721382"/>
    <nd ref="263686398"/>
    <nd ref="263686399"/>
    <nd ref="263686400"/>
    <nd ref="435724474"/>
    <nd ref="263686401"/>
    <tag k="highway" v="primary"/>
    <tag k="name" v="Kolejowa"/>
    <tag k="oneway" v="yes"/>
    <tag k="ref" v="4;94"/>
  </way>
  <way id="24318605" version="18" timestamp="2009-12-12T23:40:28Z" uid="91056" user="Yarl" changeset="3359465">
    <nd ref="263686394"/>
    <nd ref="520092271"/>
    <nd ref="435724480"/>
    <nd ref="263686395"/>
    <nd ref="331264935"/>
    <nd ref="543721392"/>
    <nd ref="435724469"/>
    <nd ref="543721380"/>
    <nd ref="263686397"/>
    <nd ref="543721388"/>
    <nd ref="543721390"/>
    <nd ref="543721382"/>
    <nd ref="588151219"/>
    <nd ref="263686398"/>
    <nd ref="588151214"/>
    <nd ref="588151220"/>
    <nd ref="263686399"/>
    <nd ref="263686400"/>
    <nd ref="435724474"/>
    <nd ref="263686401"/>
    <tag k="highway" v="primary"/>
    <tag k="name" v="Kolejowa"/>
    <tag k="oneway" v="yes"/>
    <tag k="ref" v="4;94"/>
  </way>
  <way id="24318605" version="19" timestamp="2009-12-18T13:54:45Z" uid="91056" user="Yarl" changeset="3400657">
    <nd ref="263686394"/>
    <nd ref="520092271"/>
    <nd ref="435724480"/>
    <nd ref="263686395"/>
    <nd ref="543721392"/>
    <nd ref="435724469"/>
    <nd ref="543721380"/>
    <nd ref="263686397"/>
    <nd ref="543721388"/>
    <nd ref="543721390"/>
    <nd ref="543721382"/>
    <nd ref="588151219"/>
    <nd ref="263686398"/>
    <nd ref="588151214"/>
    <nd ref="588151220"/>
    <tag k="highway" v="primary"/>
    <tag k="name" v="Kolejowa"/>
    <tag k="oneway" v="yes"/>
    <tag k="ref" v="4;94"/>
  </way>
  <way id="24318605" version="20" timestamp="2009-12-22T19:12:47Z" uid="91056" user="Yarl" changeset="3429618">
    <nd ref="263686394"/>
    <nd ref="520092271"/>
    <nd ref="435724480"/>
    <nd ref="263686395"/>
    <nd ref="543721392"/>
    <nd ref="435724469"/>
    <nd ref="543721380"/>
    <nd ref="263686397"/>
    <nd ref="543721388"/>
    <nd ref="543721390"/>
    <nd ref="543721382"/>
    <nd ref="588151219"/>
    <nd ref="263686398"/>
    <nd ref="598262637"/>
    <nd ref="588151214"/>
    <nd ref="588151220"/>
    <tag k="highway" v="primary"/>
    <tag k="name" v="Kolejowa"/>
    <tag k="oneway" v="yes"/>
    <tag k="ref" v="4;94"/>
  </way>
  <way id="24318605" version="21" timestamp="2009-12-31T12:20:20Z" uid="91056" user="Yarl" changeset="3500066">
    <nd ref="263686394"/>
    <nd ref="520092271"/>
    <nd ref="435724480"/>
    <nd ref="263686395"/>
    <nd ref="543721392"/>
    <nd ref="435724469"/>
    <nd ref="543721380"/>
    <nd ref="263686397"/>
    <nd ref="543721388"/>
    <nd ref="543721390"/>
    <nd ref="543721382"/>
    <nd ref="602100119"/>
    <nd ref="598262637"/>
    <nd ref="602100118"/>
    <nd ref="588151214"/>
    <nd ref="588151220"/>
    <tag k="highway" v="primary"/>
    <tag k="name" v="Kolejowa"/>
    <tag k="oneway" v="yes"/>
    <tag k="ref" v="4;94"/>
  </way>
  <way id="24318605" version="22" timestamp="2010-01-23T20:03:12Z" uid="91056" user="Yarl" changeset="3694820">
    <nd ref="618862661"/>
    <nd ref="520092271"/>
    <nd ref="435724480"/>
    <nd ref="263686395"/>
    <nd ref="543721392"/>
    <nd ref="435724469"/>
    <nd ref="543721380"/>
    <nd ref="263686397"/>
    <nd ref="543721388"/>
    <nd ref="543721390"/>
    <nd ref="543721382"/>
    <nd ref="602100119"/>
    <nd ref="598262637"/>
    <nd ref="602100118"/>
    <nd ref="588151214"/>
    <nd ref="588151220"/>
    <tag k="highway" v="primary"/>
    <tag k="name" v="Kolejowa"/>
    <tag k="oneway" v="yes"/>
    <tag k="ref" v="4;94"/>
  </way>
  <way id="24318605" version="23" timestamp="2010-03-26T23:00:55Z" uid="91056" user="Yarl" changeset="4242631">
    <nd ref="618862661"/>
    <nd ref="520092271"/>
    <nd ref="435724480"/>
    <nd ref="263686395"/>
    <nd ref="543721392"/>
    <nd ref="435724469"/>
    <nd ref="543721380"/>
    <nd ref="263686397"/>
    <nd ref="543721388"/>
    <nd ref="543721390"/>
    <nd ref="543721382"/>
    <nd ref="602100119"/>
    <nd ref="598262637"/>
    <nd ref="602100118"/>
    <nd ref="588151214"/>
    <nd ref="588151220"/>
    <tag k="highway" v="primary"/>
    <tag k="name" v="Kolejowa"/>
    <tag k="oneway" v="yes"/>
    <tag k="ref" v="94"/>
  </way>
  <way id="24318605" version="24" timestamp="2010-05-07T10:14:24Z" uid="91056" user="Yarl" changeset="4628640">
    <nd ref="618862661"/>
    <nd ref="520092271"/>
    <nd ref="435724480"/>
    <nd ref="263686395"/>
    <nd ref="543721392"/>
    <nd ref="435724469"/>
    <nd ref="543721380"/>
    <nd ref="263686397"/>
    <nd ref="543721390"/>
    <nd ref="543721382"/>
    <nd ref="598262637"/>
    <nd ref="602100118"/>
    <nd ref="263686399"/>
    <tag k="highway" v="primary"/>
    <tag k="name" v="Kolejowa"/>
    <tag k="oneway" v="yes"/>
    <tag k="ref" v="94"/>
  </way>
  <way id="24318605" version="25" timestamp="2011-07-21T21:32:35Z" uid="352700" user="WojtekK" changeset="8792912">
    <nd ref="618862661"/>
    <nd ref="520092271"/>
    <nd ref="435724480"/>
    <nd ref="263686395"/>
    <nd ref="543721392"/>
    <nd ref="435724469"/>
    <nd ref="543721380"/>
    <nd ref="263686397"/>
    <nd ref="543721390"/>
    <nd ref="543721382"/>
    <nd ref="1369459972"/>
    <nd ref="598262637"/>
    <nd ref="602100118"/>
    <nd ref="263686399"/>
    <tag k="highway" v="primary"/>
    <tag k="name" v="Kolejowa"/>
    <tag k="oneway" v="yes"/>
    <tag k="ref" v="94"/>
  </way>
  <way id="24318605" version="26" timestamp="2011-12-23T15:24:30Z" uid="278187" user="dzamper" changeset="10187644">
    <nd ref="618862661"/>
    <nd ref="520092271"/>
    <nd ref="435724480"/>
    <nd ref="263686395"/>
    <nd ref="543721392"/>
    <nd ref="435724469"/>
    <nd ref="543721380"/>
    <nd ref="263686397"/>
    <nd ref="543721390"/>
    <nd ref="543721382"/>
    <nd ref="1369459972"/>
    <nd ref="598262637"/>
    <tag k="highway" v="primary"/>
    <tag k="name" v="Kolejowa"/>
    <tag k="oneway" v="yes"/>
    <tag k="ref" v="94"/>
  </way>
  <way id="24318605" version="27" timestamp="2012-01-02T20:11:23Z" uid="134423" user="Artek" changeset="10275360">
    <nd ref="618862661"/>
    <nd ref="520092271"/>
    <nd ref="435724480"/>
    <nd ref="263686395"/>
    <tag k="highway" v="primary"/>
    <tag k="name" v="Kolejowa"/>
    <tag k="oneway" v="yes"/>
    <tag k="ref" v="94"/>
  </way>
  <way id="24318618" version="2" timestamp="2008-07-04T09:28:57Z" uid="6975" user="ulfl" changeset="389415">
    <nd ref="253092569"/>
    <nd ref="253092570"/>
    <nd ref="118267341"/>
    <nd ref="254949807"/>
    <tag k="highway" v="track"/>
    <tag k="tracktype" v="grade4"/>
  </way>
  <way id="24318618" version="3" timestamp="2008-08-24T21:34:36Z" uid="12096" user="HCX Biker" changeset="390287">
    <nd ref="253092569"/>
    <nd ref="290828084"/>
    <nd ref="118267341"/>
    <nd ref="290828087"/>
    <nd ref="290828085"/>
    <nd ref="290828077"/>
    <nd ref="290828088"/>
    <nd ref="254949807"/>
    <tag k="highway" v="track"/>
    <tag k="tracktype" v="grade4"/>
  </way>
  <way id="24318618" version="4" timestamp="2009-11-27T19:48:58Z" uid="167428" user="solero" changeset="3231091">
    <nd ref="253092569"/>
    <nd ref="290828084"/>
    <nd ref="118267341"/>
    <nd ref="290828087"/>
    <nd ref="290828085"/>
    <nd ref="290828077"/>
    <nd ref="290828088"/>
    <nd ref="254949807"/>
    <nd ref="290828113"/>
    <tag k="access" v="agricultural"/>
    <tag k="highway" v="track"/>
    <tag k="surface" v="gravel"/>
    <tag k="tracktype" v="grade2"/>
  </way>
  <way id="24318620" version="4" timestamp="2009-04-28T14:07:53Z" uid="30632" user="antblant" changeset="1004318">
    <nd ref="263686428"/>
    <nd ref="263686485"/>
    <nd ref="263686395"/>
    <tag k="created_by" v="Potlatch 0.9a"/>
    <tag k="highway" v="primary"/>
    <tag k="name" v="Kolejowa"/>
    <tag k="oneway" v="yes"/>
    <tag k="ref" v="94"/>
  </way>
  <way id="24318620" version="5" timestamp="2009-10-04T13:20:40Z" uid="91056" user="Yarl" changeset="2736574">
    <nd ref="263686428"/>
    <nd ref="520092272"/>
    <nd ref="263686485"/>
    <nd ref="263686395"/>
    <tag k="highway" v="primary"/>
    <tag k="name" v="Kolejowa"/>
    <tag k="oneway" v="yes"/>
    <tag k="ref" v="94"/>
  </way>
  <way id="24318620" version="6" timestamp="2009-12-31T12:20:21Z" uid="91056" user="Yarl" changeset="3500066">
    <nd ref="263686428"/>
    <nd ref="520092272"/>
    <nd ref="263686485"/>
    <nd ref="263686395"/>
    <tag k="highway" v="primary"/>
    <tag k="name" v="Kolejowa"/>
    <tag k="oneway" v="yes"/>
    <tag k="ref" v="94"/>
  </way>
  <way id="24318644" version="2" timestamp="2008-07-04T08:08:30Z" uid="6975" user="ulfl" changeset="389415">
    <nd ref="263686652"/>
    <nd ref="263686653"/>
    <nd ref="263686654"/>
    <nd ref="263686655"/>
    <nd ref="263686652"/>
    <tag k="building" v="yes"/>
    <tag k="shop" v="mall"/>
  </way>
  <way id="24318644" version="3" timestamp="2011-09-06T18:38:46Z" uid="440308" user="spezialist" changeset="9230250">
    <nd ref="263686652"/>
    <nd ref="263686653"/>
    <nd ref="1425402362"/>
    <nd ref="263686654"/>
    <nd ref="263686655"/>
    <nd ref="1425402352"/>
    <nd ref="263686652"/>
    <tag k="building" v="yes"/>
    <tag k="shop" v="mall"/>
  </way>
  <way id="24318651" version="2" timestamp="2008-07-04T07:35:57Z" uid="6975" user="ulfl" changeset="389415">
    <nd ref="263686697"/>
    <nd ref="263686700"/>
    <nd ref="263686703"/>
    <nd ref="263686701"/>
    <nd ref="263686702"/>
    <tag k="highway" v="track"/>
    <tag k="noexit" v="yes"/>
    <tag k="surface" v="unpaved"/>
    <tag k="tracktype" v="grade4"/>
  </way>
  <way id="24318693" version="9" timestamp="2009-04-28T14:08:40Z" uid="30632" user="antblant" changeset="1004318">
    <nd ref="171288270"/>
    <nd ref="263687008"/>
    <nd ref="263687009"/>
    <nd ref="263686401"/>
    <tag k="created_by" v="Potlatch 0.10f"/>
    <tag k="highway" v="primary"/>
    <tag k="name" v="Powstańców Warszawskich"/>
    <tag k="oneway" v="yes"/>
    <tag k="ref" v="94"/>
  </way>
  <way id="24318693" version="10" timestamp="2009-04-28T14:51:37Z" uid="30632" user="antblant" changeset="1004887">
    <nd ref="171288270"/>
    <nd ref="263687008"/>
    <nd ref="263687009"/>
    <nd ref="263686401"/>
    <tag k="created_by" v="Potlatch 0.10f"/>
    <tag k="highway" v="primary"/>
    <tag k="name" v="Powstańców Warszawskich"/>
    <tag k="oneway" v="yes"/>
  </way>
  <way id="24318693" version="11" timestamp="2009-07-06T21:18:44Z" uid="83198" user="Mateusz Korniak" changeset="1757375">
    <nd ref="263686401"/>
    <nd ref="435724478"/>
    <nd ref="263687009"/>
    <nd ref="263687008"/>
    <nd ref="171288270"/>
    <tag k="created_by" v="Potlatch 0.10f"/>
    <tag k="highway" v="primary"/>
    <tag k="name" v="Powstańców Warszawskich"/>
    <tag k="oneway" v="yes"/>
  </way>
  <way id="24318693" version="12" timestamp="2009-07-06T21:25:19Z" uid="83198" user="Mateusz Korniak" changeset="1757441">
    <nd ref="263686401"/>
    <nd ref="435724478"/>
    <nd ref="435732872"/>
    <nd ref="435732878"/>
    <nd ref="263687009"/>
    <nd ref="263687008"/>
    <nd ref="171288270"/>
    <tag k="created_by" v="Potlatch 0.10f"/>
    <tag k="highway" v="primary"/>
    <tag k="name" v="Powstańców Warszawskich"/>
    <tag k="oneway" v="yes"/>
  </way>
  <way id="24318693" version="13" timestamp="2009-09-05T19:24:39Z" uid="91056" user="Yarl" changeset="2384407">
    <nd ref="263686401"/>
    <nd ref="435724478"/>
    <nd ref="435732872"/>
    <nd ref="435732878"/>
    <nd ref="263687009"/>
    <nd ref="485167266"/>
    <nd ref="263687008"/>
    <nd ref="171288270"/>
    <tag k="highway" v="primary"/>
    <tag k="name" v="Powstańców Warszawskich"/>
    <tag k="oneway" v="yes"/>
  </way>
  <way id="24318693" version="14" timestamp="2009-09-15T11:36:26Z" uid="91056" user="Yarl" changeset="2491514">
    <nd ref="263686401"/>
    <nd ref="435724478"/>
    <nd ref="435732872"/>
    <nd ref="435732878"/>
    <nd ref="497016063"/>
    <nd ref="263687009"/>
    <nd ref="485167266"/>
    <nd ref="263687008"/>
    <nd ref="171288270"/>
    <tag k="highway" v="primary"/>
    <tag k="name" v="Powstańców Warszawskich"/>
    <tag k="oneway" v="yes"/>
  </way>
  <way id="24318693" version="15" timestamp="2009-09-30T12:01:57Z" uid="91056" user="Yarl" changeset="2687570">
    <nd ref="263686401"/>
    <nd ref="435724478"/>
    <nd ref="435732872"/>
    <nd ref="435732878"/>
    <nd ref="497016063"/>
    <nd ref="263687009"/>
    <nd ref="514415233"/>
    <nd ref="514415235"/>
    <nd ref="485167266"/>
    <nd ref="263687008"/>
    <nd ref="171288270"/>
    <tag k="highway" v="primary"/>
    <tag k="name" v="Powstańców Warszawskich"/>
    <tag k="oneway" v="yes"/>
  </way>
  <way id="24318693" version="16" timestamp="2009-10-04T13:20:37Z" uid="91056" user="Yarl" changeset="2736574">
    <nd ref="263686401"/>
    <nd ref="435724478"/>
    <nd ref="435732872"/>
    <nd ref="435732878"/>
    <nd ref="497016063"/>
    <nd ref="263687009"/>
    <nd ref="514415233"/>
    <nd ref="514415235"/>
    <nd ref="520092270"/>
    <nd ref="485167266"/>
    <nd ref="263687008"/>
    <nd ref="171288270"/>
    <tag k="highway" v="primary"/>
    <tag k="name" v="Powstańców Warszawskich"/>
    <tag k="oneway" v="yes"/>
  </way>
  <way id="24318693" version="17" timestamp="2009-12-18T13:54:44Z" uid="91056" user="Yarl" changeset="3400657">
    <nd ref="263686401"/>
    <nd ref="435724478"/>
    <nd ref="435732872"/>
    <nd ref="435732878"/>
    <nd ref="497016063"/>
    <nd ref="514415235"/>
    <nd ref="520092270"/>
    <nd ref="485167266"/>
    <nd ref="171288270"/>
    <tag k="highway" v="primary"/>
    <tag k="name" v="Powstańców Warszawskich"/>
    <tag k="oneway" v="yes"/>
  </way>
  <way id="24318693" version="18" timestamp="2010-03-26T23:00:55Z" uid="91056" user="Yarl" changeset="4242631">
    <nd ref="263686401"/>
    <nd ref="435724478"/>
    <nd ref="435732872"/>
    <nd ref="435732878"/>
    <nd ref="497016063"/>
    <nd ref="514415235"/>
    <nd ref="520092270"/>
    <nd ref="485167266"/>
    <nd ref="171288270"/>
    <tag k="highway" v="primary"/>
    <tag k="name" v="Powstańców Warszawskich"/>
    <tag k="oneway" v="yes"/>
    <tag k="ref" v="94"/>
  </way>
  <way id="24318693" version="19" timestamp="2010-11-20T09:47:34Z" uid="91056" user="Yarl" changeset="6412691">
    <nd ref="263686401"/>
    <nd ref="435724478"/>
    <nd ref="435732872"/>
    <nd ref="435732878"/>
    <nd ref="497016063"/>
    <nd ref="514415235"/>
    <nd ref="485167266"/>
    <nd ref="995848182"/>
    <nd ref="171288270"/>
    <tag k="highway" v="primary"/>
    <tag k="name" v="Powstańców Warszawskich"/>
    <tag k="oneway" v="yes"/>
    <tag k="ref" v="94"/>
  </way>
  <way id="24318693" version="20" timestamp="2011-07-27T13:25:49Z" uid="495992" user="jandobki" changeset="8845063">
    <nd ref="263686401"/>
    <nd ref="435724478"/>
    <nd ref="435732872"/>
    <nd ref="435732878"/>
    <nd ref="497016063"/>
    <nd ref="514415235"/>
    <nd ref="485167266"/>
    <nd ref="1375773302"/>
    <nd ref="995848182"/>
    <nd ref="171288270"/>
    <tag k="highway" v="primary"/>
    <tag k="name" v="Powstańców Warszawskich"/>
    <tag k="oneway" v="yes"/>
    <tag k="ref" v="94"/>
  </way>
  <way id="24318693" version="21" timestamp="2012-01-02T20:11:29Z" uid="134423" user="Artek" changeset="10275360">
    <nd ref="263686401"/>
    <nd ref="435724478"/>
    <tag k="highway" v="primary"/>
    <tag k="name" v="Powstańców Warszawskich"/>
    <tag k="oneway" v="yes"/>
    <tag k="ref" v="94"/>
  </way>
  <way id="24318706" version="4" timestamp="2008-10-23T16:36:21Z" uid="6975" user="ulfl" changeset="530870">
    <nd ref="263687105"/>
    <nd ref="263687106"/>
    <tag k="bridge" v="yes"/>
    <tag k="description" v="Ridspår (Horse track). F.d. djursholmsbanan"/>
    <tag k="foot" v="yes"/>
    <tag k="highway" v="bridleway"/>
    <tag k="level" v="1"/>
    <tag k="name" v="Djursholmsbanan"/>
  </way>
  <way id="24318706" version="5" timestamp="2010-07-10T08:43:27Z" uid="76269" user="Snusmumriken" changeset="5180426">
    <nd ref="263687105"/>
    <nd ref="263687106"/>
    <tag k="bridge" v="yes"/>
    <tag k="description" v="Ridspår (Horse track). F.d. djursholmsbanan"/>
    <tag k="foot" v="yes"/>
    <tag k="highway" v="bridleway"/>
    <tag k="layer" v="1"/>
    <tag k="name" v="Djursholmsbanan"/>
  </way>
  <way id="24318706" version="6" timestamp="2011-06-11T17:54:46Z" uid="308" user="MichaelCollinson" changeset="8408073">
    <nd ref="263687105"/>
    <nd ref="263687106"/>
    <tag k="bicycle" v="yes"/>
    <tag k="bridge" v="yes"/>
    <tag k="description" v="Ridspår (Horse track). F.d. djursholmsbanan"/>
    <tag k="foot" v="yes"/>
    <tag k="highway" v="bridleway"/>
    <tag k="layer" v="1"/>
    <tag k="name" v="Djursholmsbanan"/>
  </way>
  <way id="24318706" version="7" timestamp="2011-07-08T21:33:27Z" uid="308" user="MichaelCollinson" changeset="8669966"/>
  <way id="24318742" version="12" timestamp="2009-04-28T14:03:29Z" uid="30632" user="antblant" changeset="1004318">
    <nd ref="263687251"/>
    <nd ref="263687252"/>
    <nd ref="263687253"/>
    <nd ref="331242869"/>
    <nd ref="331242870"/>
    <nd ref="171288270"/>
    <tag k="created_by" v="Potlatch 0.10f"/>
    <tag k="highway" v="primary"/>
    <tag k="name" v="Józefa Kwietniewskiego"/>
    <tag k="oneway" v="yes"/>
    <tag k="ref" v="94"/>
  </way>
  <way id="24318742" version="13" timestamp="2009-08-12T16:14:03Z" uid="91056" user="Yarl" changeset="2120447">
    <nd ref="331240916"/>
    <nd ref="462353353"/>
    <nd ref="263687252"/>
    <nd ref="263687253"/>
    <nd ref="331242869"/>
    <nd ref="331242870"/>
    <nd ref="462353306"/>
    <nd ref="462353305"/>
    <nd ref="171288270"/>
    <tag k="highway" v="primary"/>
    <tag k="name" v="Józefa Kwietniewskiego"/>
    <tag k="oneway" v="yes"/>
    <tag k="ref" v="94"/>
  </way>
  <way id="24318742" version="14" timestamp="2009-09-02T14:00:35Z" uid="91056" user="Yarl" changeset="2348677">
    <nd ref="331240916"/>
    <nd ref="462353353"/>
    <nd ref="263687252"/>
    <nd ref="263687253"/>
    <nd ref="331242869"/>
    <nd ref="331242870"/>
    <nd ref="462353306"/>
    <nd ref="462353305"/>
    <nd ref="480961383"/>
    <nd ref="171288270"/>
    <tag k="highway" v="primary"/>
    <tag k="name" v="Józefa Kwietniewskiego"/>
    <tag k="oneway" v="yes"/>
    <tag k="ref" v="94"/>
  </way>
  <way id="24318742" version="15" timestamp="2009-09-15T11:36:25Z" uid="91056" user="Yarl" changeset="2491514">
    <nd ref="331240916"/>
    <nd ref="462353353"/>
    <nd ref="263687252"/>
    <nd ref="497016076"/>
    <nd ref="263687253"/>
    <nd ref="331242869"/>
    <nd ref="331242870"/>
    <nd ref="462353306"/>
    <nd ref="462353305"/>
    <nd ref="480961383"/>
    <nd ref="171288270"/>
    <tag k="highway" v="primary"/>
    <tag k="name" v="Józefa Kwietniewskiego"/>
    <tag k="oneway" v="yes"/>
    <tag k="ref" v="94"/>
  </way>
  <way id="24318742" version="16" timestamp="2009-10-04T13:20:38Z" uid="91056" user="Yarl" changeset="2736574">
    <nd ref="331240916"/>
    <nd ref="462353353"/>
    <nd ref="263687252"/>
    <nd ref="497016076"/>
    <nd ref="263687253"/>
    <nd ref="520092275"/>
    <nd ref="331242869"/>
    <nd ref="331242870"/>
    <nd ref="520092278"/>
    <nd ref="520092277"/>
    <nd ref="462353306"/>
    <nd ref="462353305"/>
    <nd ref="520092279"/>
    <nd ref="520092266"/>
    <nd ref="480961383"/>
    <nd ref="171288270"/>
    <tag k="highway" v="primary"/>
    <tag k="name" v="Józefa Kwietniewskiego"/>
    <tag k="oneway" v="yes"/>
    <tag k="ref" v="94"/>
  </way>
  <way id="24318742" version="17" timestamp="2009-12-22T13:22:23Z" uid="91056" user="Yarl" changeset="3427125">
    <nd ref="331240916"/>
    <nd ref="598167365"/>
    <nd ref="598167364"/>
    <nd ref="462353353"/>
    <nd ref="263687252"/>
    <nd ref="598167362"/>
    <nd ref="497016076"/>
    <nd ref="263687253"/>
    <nd ref="520092275"/>
    <nd ref="331242869"/>
    <nd ref="331242870"/>
    <nd ref="520092278"/>
    <nd ref="520092277"/>
    <nd ref="462353306"/>
    <nd ref="462353305"/>
    <nd ref="520092279"/>
    <nd ref="520092266"/>
    <nd ref="480961383"/>
    <nd ref="171288270"/>
    <tag k="highway" v="primary"/>
    <tag k="name" v="Józefa Kwietniewskiego"/>
    <tag k="oneway" v="yes"/>
    <tag k="ref" v="94"/>
  </way>
  <way id="24318742" version="18" timestamp="2010-01-23T20:03:11Z" uid="91056" user="Yarl" changeset="3694820">
    <nd ref="331240916"/>
    <nd ref="598167365"/>
    <nd ref="598167364"/>
    <nd ref="462353353"/>
    <nd ref="263687252"/>
    <nd ref="598167362"/>
    <nd ref="497016076"/>
    <nd ref="263687253"/>
    <nd ref="520092275"/>
    <nd ref="331242869"/>
    <nd ref="331242870"/>
    <nd ref="520092278"/>
    <nd ref="520092277"/>
    <nd ref="462353306"/>
    <nd ref="462353305"/>
    <nd ref="480961383"/>
    <nd ref="618862685"/>
    <nd ref="171288270"/>
    <tag k="highway" v="primary"/>
    <tag k="name" v="Józefa Kwietniewskiego"/>
    <tag k="oneway" v="yes"/>
    <tag k="ref" v="94"/>
  </way>
  <way id="24318742" version="19" timestamp="2010-03-01T19:00:01Z" uid="91056" user="Yarl" changeset="4011100">
    <nd ref="331240916"/>
    <nd ref="598167365"/>
    <nd ref="598167364"/>
    <nd ref="462353353"/>
    <nd ref="263687252"/>
    <nd ref="598167362"/>
    <nd ref="497016076"/>
    <nd ref="263687253"/>
    <nd ref="520092275"/>
    <nd ref="331242869"/>
    <nd ref="331242870"/>
    <nd ref="520092278"/>
    <nd ref="520092277"/>
    <nd ref="658635783"/>
    <nd ref="462353306"/>
    <nd ref="462353305"/>
    <nd ref="480961383"/>
    <nd ref="618862685"/>
    <nd ref="171288270"/>
    <tag k="highway" v="primary"/>
    <tag k="name" v="Józefa Kwietniewskiego"/>
    <tag k="oneway" v="yes"/>
    <tag k="ref" v="94"/>
  </way>
  <way id="24318742" version="20" timestamp="2010-04-16T17:36:51Z" uid="91056" user="Yarl" changeset="4440785">
    <nd ref="331240916"/>
    <nd ref="598167365"/>
    <nd ref="698833789"/>
    <nd ref="462353353"/>
    <nd ref="263687252"/>
    <nd ref="497016076"/>
    <nd ref="263687253"/>
    <nd ref="331242869"/>
    <nd ref="331242870"/>
    <nd ref="658635783"/>
    <nd ref="462353306"/>
    <nd ref="462353305"/>
    <nd ref="480961383"/>
    <nd ref="618862685"/>
    <nd ref="171288270"/>
    <tag k="highway" v="primary"/>
    <tag k="name" v="Józefa Kwietniewskiego"/>
    <tag k="oneway" v="yes"/>
    <tag k="ref" v="94"/>
  </way>
  <way id="24318742" version="21" timestamp="2010-11-06T10:40:33Z" uid="91056" user="Yarl" changeset="6301216">
    <nd ref="331240916"/>
    <nd ref="598167365"/>
    <nd ref="698833789"/>
    <nd ref="462353353"/>
    <nd ref="263687252"/>
    <nd ref="497016076"/>
    <nd ref="978641213"/>
    <nd ref="263687253"/>
    <nd ref="331242869"/>
    <nd ref="331242870"/>
    <nd ref="658635783"/>
    <nd ref="462353306"/>
    <nd ref="462353305"/>
    <nd ref="480961383"/>
    <nd ref="618862685"/>
    <nd ref="171288270"/>
    <tag k="highway" v="primary"/>
    <tag k="name" v="Józefa Kwietniewskiego"/>
    <tag k="oneway" v="yes"/>
    <tag k="ref" v="94"/>
  </way>
  <way id="24318742" version="22" timestamp="2010-11-20T09:47:38Z" uid="91056" user="Yarl" changeset="6412691">
    <nd ref="331240916"/>
    <nd ref="598167365"/>
    <nd ref="698833789"/>
    <nd ref="462353353"/>
    <nd ref="263687252"/>
    <nd ref="497016076"/>
    <nd ref="978641213"/>
    <nd ref="263687253"/>
    <nd ref="331242869"/>
    <nd ref="331242870"/>
    <nd ref="462353306"/>
    <nd ref="462353305"/>
    <nd ref="480961383"/>
    <nd ref="618862685"/>
    <nd ref="171288270"/>
    <tag k="highway" v="primary"/>
    <tag k="name" v="Józefa Kwietniewskiego"/>
    <tag k="oneway" v="yes"/>
    <tag k="ref" v="94"/>
  </way>
  <way id="24318742" version="23" timestamp="2011-09-16T22:22:17Z" uid="352700" user="WojtekK" changeset="9320187">
    <nd ref="331240916"/>
    <nd ref="598167365"/>
    <nd ref="698833789"/>
    <nd ref="462353353"/>
    <nd ref="263687252"/>
    <nd ref="497016076"/>
    <nd ref="978641213"/>
    <nd ref="1435011680"/>
    <nd ref="263687253"/>
    <nd ref="331242869"/>
    <nd ref="331242870"/>
    <nd ref="462353306"/>
    <nd ref="462353305"/>
    <nd ref="480961383"/>
    <nd ref="618862685"/>
    <nd ref="171288270"/>
    <tag k="highway" v="primary"/>
    <tag k="name" v="Józefa Kwietniewskiego"/>
    <tag k="oneway" v="yes"/>
    <tag k="ref" v="94"/>
  </way>
  <way id="24318742" version="24" timestamp="2012-01-06T13:19:14Z" uid="134423" user="Artek" changeset="10311349">
    <nd ref="598167370"/>
    <nd ref="331240916"/>
    <nd ref="598167365"/>
    <tag k="highway" v="primary"/>
    <tag k="name" v="Marszałka Józefa Piłsudskiego"/>
    <tag k="oneway" v="yes"/>
    <tag k="ref" v="94"/>
  </way>
  <way id="24318761" version="9" timestamp="2009-04-28T14:08:54Z" uid="30632" user="antblant" changeset="1004318">
    <nd ref="263687357"/>
    <nd ref="263687358"/>
    <nd ref="263687498"/>
    <nd ref="263687251"/>
    <nd ref="331262919"/>
    <nd ref="331262957"/>
    <nd ref="297720847"/>
    <tag k="created_by" v="Potlatch 0.10f"/>
    <tag k="highway" v="primary"/>
    <tag k="name" v="Marszałka Józefa Piłsudskiego"/>
    <tag k="oneway" v="yes"/>
    <tag k="ref" v="94"/>
  </way>
  <way id="24318761" version="10" timestamp="2009-04-28T14:50:26Z" uid="30632" user="antblant" changeset="1004887">
    <nd ref="263687357"/>
    <nd ref="263687358"/>
    <nd ref="263687498"/>
    <nd ref="263687251"/>
    <tag k="created_by" v="Potlatch 0.10f"/>
    <tag k="highway" v="primary"/>
    <tag k="name" v="Marszałka Józefa Piłsudskiego"/>
    <tag k="oneway" v="yes"/>
    <tag k="ref" v="94"/>
  </way>
  <way id="24318761" version="11" timestamp="2009-06-24T14:27:43Z" uid="65441" user="dasio1968" changeset="1611762">
    <nd ref="263687357"/>
    <nd ref="263687358"/>
    <nd ref="428807051"/>
    <nd ref="263687498"/>
    <nd ref="428807092"/>
    <nd ref="263687251"/>
    <tag k="created_by" v="Potlatch 0.10f"/>
    <tag k="highway" v="primary"/>
    <tag k="name" v="Marszałka Józefa Piłsudskiego"/>
    <tag k="oneway" v="yes"/>
    <tag k="ref" v="94"/>
  </way>
  <way id="24318761" version="12" timestamp="2009-08-12T12:13:45Z" uid="91056" user="Yarl" changeset="2118153">
    <nd ref="263687357"/>
    <nd ref="263687358"/>
    <nd ref="428807051"/>
    <nd ref="263687498"/>
    <nd ref="428807092"/>
    <nd ref="462246345"/>
    <nd ref="462246794"/>
    <nd ref="462246343"/>
    <nd ref="263687251"/>
    <tag k="highway" v="primary"/>
    <tag k="name" v="Marszałka Józefa Piłsudskiego"/>
    <tag k="oneway" v="yes"/>
    <tag k="ref" v="94"/>
  </way>
  <way id="24318761" version="13" timestamp="2009-08-12T16:14:02Z" uid="91056" user="Yarl" changeset="2120447">
    <nd ref="263687357"/>
    <nd ref="263687358"/>
    <nd ref="428807051"/>
    <nd ref="263687498"/>
    <nd ref="428807092"/>
    <nd ref="462246345"/>
    <nd ref="462246794"/>
    <nd ref="462246343"/>
    <nd ref="331240916"/>
    <tag k="highway" v="primary"/>
    <tag k="name" v="Marszałka Józefa Piłsudskiego"/>
    <tag k="oneway" v="yes"/>
    <tag k="ref" v="94"/>
  </way>
  <way id="24318761" version="14" timestamp="2009-11-04T12:58:44Z" uid="91056" user="Yarl" changeset="3032604">
    <nd ref="263687357"/>
    <nd ref="554250669"/>
    <nd ref="263687358"/>
    <nd ref="428807051"/>
    <nd ref="263687498"/>
    <nd ref="428807092"/>
    <nd ref="462246345"/>
    <nd ref="462246794"/>
    <nd ref="462246343"/>
    <nd ref="331240916"/>
    <tag k="highway" v="primary"/>
    <tag k="name" v="Marszałka Józefa Piłsudskiego"/>
    <tag k="oneway" v="yes"/>
    <tag k="ref" v="94"/>
  </way>
  <way id="24318761" version="15" timestamp="2009-12-22T13:22:24Z" uid="91056" user="Yarl" changeset="3427125">
    <nd ref="263687357"/>
    <nd ref="554250669"/>
    <nd ref="428807051"/>
    <nd ref="428807092"/>
    <nd ref="462246345"/>
    <nd ref="462246794"/>
    <nd ref="462246343"/>
    <nd ref="598167370"/>
    <nd ref="331240916"/>
    <tag k="highway" v="primary"/>
    <tag k="name" v="Marszałka Józefa Piłsudskiego"/>
    <tag k="oneway" v="yes"/>
    <tag k="ref" v="94"/>
  </way>
  <way id="24318761" version="16" timestamp="2009-12-31T12:20:24Z" uid="91056" user="Yarl" changeset="3500066">
    <nd ref="263687357"/>
    <nd ref="554250669"/>
    <nd ref="428807051"/>
    <nd ref="428807092"/>
    <nd ref="462246791"/>
    <nd ref="602100159"/>
    <nd ref="462246790"/>
    <nd ref="462246343"/>
    <nd ref="598167370"/>
    <nd ref="331240916"/>
    <tag k="highway" v="primary"/>
    <tag k="name" v="Marszałka Józefa Piłsudskiego"/>
    <tag k="oneway" v="yes"/>
    <tag k="ref" v="94"/>
  </way>
  <way id="24318761" version="17" timestamp="2010-01-17T20:09:35Z" uid="163896" user="Zbigniew Czernik" changeset="3645115">
    <nd ref="263687357"/>
    <nd ref="554250669"/>
    <nd ref="615893615"/>
    <nd ref="428807051"/>
    <nd ref="428807092"/>
    <nd ref="462246791"/>
    <nd ref="602100159"/>
    <nd ref="462246790"/>
    <nd ref="462246343"/>
    <nd ref="598167370"/>
    <nd ref="331240916"/>
    <tag k="highway" v="primary"/>
    <tag k="name" v="Marszałka Józefa Piłsudskiego"/>
    <tag k="oneway" v="yes"/>
    <tag k="ref" v="94"/>
  </way>
  <way id="24318761" version="18" timestamp="2010-03-01T19:00:03Z" uid="91056" user="Yarl" changeset="4011100">
    <nd ref="263687357"/>
    <nd ref="554250669"/>
    <nd ref="615893615"/>
    <nd ref="428807051"/>
    <nd ref="428807092"/>
    <nd ref="462246791"/>
    <nd ref="658635803"/>
    <nd ref="658635805"/>
    <nd ref="602100159"/>
    <nd ref="462246790"/>
    <nd ref="462246343"/>
    <nd ref="598167370"/>
    <nd ref="331240916"/>
    <tag k="highway" v="primary"/>
    <tag k="name" v="Marszałka Józefa Piłsudskiego"/>
    <tag k="oneway" v="yes"/>
    <tag k="ref" v="94"/>
  </way>
  <way id="24318761" version="19" timestamp="2011-08-28T21:56:21Z" uid="467703" user="Zbigniew Czernik" changeset="9152450">
    <nd ref="263687357"/>
    <nd ref="1416676885"/>
    <nd ref="1416676890"/>
    <nd ref="554250669"/>
    <nd ref="615893615"/>
    <nd ref="428807051"/>
    <nd ref="428807092"/>
    <nd ref="462246791"/>
    <nd ref="658635803"/>
    <nd ref="658635805"/>
    <nd ref="602100159"/>
    <nd ref="462246790"/>
    <nd ref="462246343"/>
    <nd ref="598167370"/>
    <nd ref="331240916"/>
    <tag k="highway" v="primary"/>
    <tag k="name" v="Marszałka Józefa Piłsudskiego"/>
    <tag k="oneway" v="yes"/>
    <tag k="ref" v="94"/>
  </way>
  <way id="24318761" version="20" timestamp="2012-01-06T13:19:14Z" uid="134423" user="Artek" changeset="10311349">
    <nd ref="263687357"/>
    <nd ref="1416676885"/>
    <nd ref="1416676890"/>
    <nd ref="554250669"/>
    <nd ref="615893615"/>
    <nd ref="428807051"/>
    <nd ref="428807092"/>
    <nd ref="462246791"/>
    <nd ref="658635803"/>
    <nd ref="658635805"/>
    <nd ref="602100159"/>
    <nd ref="462246790"/>
    <nd ref="462246343"/>
    <nd ref="598167370"/>
    <tag k="highway" v="primary"/>
    <tag k="name" v="Marszałka Józefa Piłsudskiego"/>
    <tag k="oneway" v="yes"/>
    <tag k="ref" v="94"/>
  </way>
  <way id="24318761" version="21" timestamp="2012-02-16T14:12:45Z" uid="605873" user="kursowki" changeset="10701792">
    <nd ref="263687357"/>
    <nd ref="1416676885"/>
    <nd ref="1416676890"/>
    <nd ref="554250669"/>
    <nd ref="615893615"/>
    <nd ref="428807051"/>
    <nd ref="428807092"/>
    <tag k="highway" v="primary"/>
    <tag k="name" v="Marszałka Józefa Piłsudskiego"/>
    <tag k="oneway" v="yes"/>
    <tag k="ref" v="94"/>
  </way>
  <way id="24318761" version="22" timestamp="2012-02-29T13:36:05Z" uid="605873" user="kursowki" changeset="10827854">
    <nd ref="263687357"/>
    <nd ref="1416676885"/>
    <nd ref="1416676890"/>
    <nd ref="554250669"/>
    <nd ref="615893615"/>
    <tag k="highway" v="primary"/>
    <tag k="name" v="Marszałka Józefa Piłsudskiego"/>
    <tag k="oneway" v="yes"/>
    <tag k="ref" v="94"/>
  </way>
  <way id="24318766" version="9" timestamp="2009-04-28T14:09:03Z" uid="30632" user="antblant" changeset="1004318">
    <nd ref="171347555"/>
    <nd ref="263687384"/>
    <nd ref="263687383"/>
    <nd ref="330040339"/>
    <nd ref="330040341"/>
    <nd ref="330040343"/>
    <nd ref="330040344"/>
    <tag k="created_by" v="Potlatch 0.10c"/>
    <tag k="highway" v="primary"/>
    <tag k="name" v="Karola Miarki"/>
    <tag k="oneway" v="yes"/>
    <tag k="ref" v="94"/>
  </way>
  <way id="24318766" version="10" timestamp="2009-04-28T14:45:42Z" uid="30632" user="antblant" changeset="1004887">
    <nd ref="171347555"/>
    <nd ref="263687384"/>
    <nd ref="263687383"/>
    <nd ref="330040339"/>
    <tag k="created_by" v="Potlatch 0.10c"/>
    <tag k="highway" v="primary"/>
    <tag k="name" v="Karola Miarki"/>
    <tag k="oneway" v="yes"/>
    <tag k="ref" v="94"/>
  </way>
  <way id="24318766" version="11" timestamp="2009-06-24T14:27:43Z" uid="65441" user="dasio1968" changeset="1611762">
    <nd ref="171347555"/>
    <nd ref="263687384"/>
    <nd ref="428807077"/>
    <nd ref="263687383"/>
    <nd ref="330040339"/>
    <tag k="created_by" v="Potlatch 0.10c"/>
    <tag k="highway" v="primary"/>
    <tag k="name" v="Karola Miarki"/>
    <tag k="oneway" v="yes"/>
    <tag k="ref" v="94"/>
  </way>
  <way id="24318766" version="12" timestamp="2009-09-15T11:36:25Z" uid="91056" user="Yarl" changeset="2491514">
    <nd ref="171347555"/>
    <nd ref="497016069"/>
    <nd ref="263687384"/>
    <nd ref="428807077"/>
    <nd ref="263687383"/>
    <nd ref="330040339"/>
    <tag k="highway" v="primary"/>
    <tag k="name" v="Karola Miarki"/>
    <tag k="oneway" v="yes"/>
    <tag k="ref" v="94"/>
  </way>
  <way id="24318766" version="13" timestamp="2009-09-15T15:33:59Z" uid="91056" user="Yarl" changeset="2493642">
    <nd ref="171347555"/>
    <nd ref="497016069"/>
    <nd ref="263687384"/>
    <nd ref="428807077"/>
    <nd ref="263687383"/>
    <nd ref="330040339"/>
    <tag k="highway" v="primary"/>
    <tag k="name" v="Karola Miarki"/>
    <tag k="oneway" v="yes"/>
    <tag k="ref" v="4; 94"/>
  </way>
  <way id="24318766" version="14" timestamp="2009-10-02T21:31:01Z" uid="91056" user="Yarl" changeset="2717816">
    <nd ref="518139529"/>
    <nd ref="497016069"/>
    <nd ref="263687384"/>
    <nd ref="428807077"/>
    <nd ref="263687383"/>
    <nd ref="330040339"/>
    <tag k="highway" v="primary"/>
    <tag k="name" v="Karola Miarki"/>
    <tag k="oneway" v="yes"/>
    <tag k="ref" v="4; 94"/>
  </way>
  <way id="24318766" version="15" timestamp="2009-10-05T15:02:33Z" uid="153833" user="rye212" changeset="2751002">
    <nd ref="171347555"/>
    <nd ref="497016069"/>
    <nd ref="263687384"/>
    <nd ref="428807077"/>
    <nd ref="263687383"/>
    <nd ref="330040339"/>
    <tag k="highway" v="primary"/>
    <tag k="name" v="Karola Miarki"/>
    <tag k="oneway" v="yes"/>
    <tag k="ref" v="4; 94"/>
  </way>
  <way id="24318766" version="16" timestamp="2009-12-22T15:06:24Z" uid="91056" user="Yarl" changeset="3427125">
    <nd ref="171347555"/>
    <nd ref="598189269"/>
    <nd ref="497016069"/>
    <nd ref="380849715"/>
    <nd ref="263687384"/>
    <nd ref="428807077"/>
    <nd ref="263687383"/>
    <nd ref="330040339"/>
    <tag k="highway" v="primary"/>
    <tag k="name" v="Karola Miarki"/>
    <tag k="oneway" v="yes"/>
    <tag k="ref" v="4; 94"/>
  </way>
  <way id="24318766" version="17" timestamp="2009-12-31T12:20:16Z" uid="91056" user="Yarl" changeset="3500066">
    <nd ref="171347555"/>
    <nd ref="602100125"/>
    <nd ref="598189269"/>
    <nd ref="497016069"/>
    <nd ref="380849715"/>
    <nd ref="263687384"/>
    <nd ref="428807077"/>
    <nd ref="263687383"/>
    <nd ref="330040339"/>
    <tag k="highway" v="primary"/>
    <tag k="name" v="Karola Miarki"/>
    <tag k="oneway" v="yes"/>
    <tag k="ref" v="4; 94"/>
  </way>
  <way id="24318766" version="18" timestamp="2010-03-26T23:00:52Z" uid="91056" user="Yarl" changeset="4242631">
    <nd ref="171347555"/>
    <nd ref="602100125"/>
    <nd ref="675254517"/>
    <nd ref="675254520"/>
    <nd ref="598189269"/>
    <nd ref="497016069"/>
    <nd ref="380849715"/>
    <nd ref="263687384"/>
    <nd ref="428807077"/>
    <nd ref="263687383"/>
    <nd ref="330040339"/>
    <tag k="highway" v="primary"/>
    <tag k="name" v="Karola Miarki"/>
    <tag k="oneway" v="yes"/>
    <tag k="ref" v="94"/>
  </way>
  <way id="24318766" version="19" timestamp="2010-08-19T18:06:48Z" uid="91056" user="Yarl" changeset="5537595">
    <nd ref="171347555"/>
    <nd ref="602100125"/>
    <nd ref="675254517"/>
    <nd ref="675254520"/>
    <nd ref="598189269"/>
    <nd ref="497016069"/>
    <nd ref="380849715"/>
    <nd ref="263687384"/>
    <nd ref="428807077"/>
    <nd ref="869101862"/>
    <nd ref="263687383"/>
    <nd ref="330040339"/>
    <tag k="highway" v="primary"/>
    <tag k="name" v="Karola Miarki"/>
    <tag k="oneway" v="yes"/>
    <tag k="ref" v="94"/>
  </way>
  <way id="24318766" version="20" timestamp="2011-07-21T22:11:21Z" uid="352700" user="WojtekK" changeset="8792912">
    <nd ref="171347555"/>
    <nd ref="602100125"/>
    <nd ref="675254517"/>
    <nd ref="675254520"/>
    <nd ref="1369487212"/>
    <nd ref="598189269"/>
    <nd ref="497016069"/>
    <nd ref="380849715"/>
    <nd ref="263687384"/>
    <nd ref="428807077"/>
    <nd ref="869101862"/>
    <nd ref="263687383"/>
    <nd ref="330040339"/>
    <tag k="highway" v="primary"/>
    <tag k="name" v="Karola Miarki"/>
    <tag k="oneway" v="yes"/>
    <tag k="ref" v="94"/>
  </way>
  <way id="24318791" version="3" timestamp="2010-02-09T02:07:31Z" uid="74617" user="JohnSmith" changeset="3828705">
    <nd ref="263687577"/>
    <nd ref="263687592"/>
    <tag k="highway" v="residential"/>
    <tag k="maxspeed" v="50"/>
    <tag k="name" v="Allen Street"/>
  </way>
  <way id="24318791" version="4" timestamp="2012-01-16T08:37:24Z" uid="147510" user="woodpeck_fixbot" changeset="10406018">
    <nd ref="263687577"/>
    <nd ref="263687592"/>
    <tag k="highway" v="residential"/>
    <tag k="name" v="Allen Street"/>
  </way>
  <way id="24318860" version="4" timestamp="2008-11-18T17:32:59Z" uid="33382" user="de_muur" changeset="764658">
    <nd ref="21524144"/>
    <nd ref="313024855"/>
    <tag k="highway" v="secondary"/>
    <tag k="name" v="Achimer Straße"/>
    <tag k="note" v="TODO: recheck names and position"/>
    <tag k="ref" v="L 167"/>
  </way>
  <way id="24318860" version="5" timestamp="2010-07-11T12:41:45Z" uid="33382" user="de_muur" changeset="5189989">
    <nd ref="21524144"/>
    <nd ref="313024855"/>
    <tag k="highway" v="secondary"/>
    <tag k="maxspeed" v="50"/>
    <tag k="name" v="Achimer Straße"/>
    <tag k="ref" v="L 167"/>
    <tag k="surface" v="paved"/>
  </way>
  <way id="24318860" version="6" timestamp="2012-01-05T13:13:53Z" uid="42429" user="FK270673" changeset="10300300">
    <nd ref="1578108096"/>
    <nd ref="313024855"/>
    <tag k="highway" v="secondary"/>
    <tag k="maxspeed" v="50"/>
    <tag k="name" v="Achimer Straße"/>
    <tag k="ref" v="L 167"/>
    <tag k="surface" v="paved"/>
  </way>
  <way id="24318860" version="7" timestamp="2012-03-04T12:28:26Z" uid="45882" user="smarties" changeset="10867766"/>
  <way id="24318883" version="5" timestamp="2008-07-06T20:16:11Z" uid="6975" user="ulfl" changeset="415781">
    <nd ref="263688272"/>
    <nd ref="263688273"/>
    <nd ref="275610102"/>
    <nd ref="263688274"/>
    <nd ref="263688275"/>
    <nd ref="263688276"/>
    <nd ref="264911867"/>
    <nd ref="263688277"/>
    <nd ref="263688278"/>
    <nd ref="263688279"/>
    <nd ref="263688280"/>
    <nd ref="263688281"/>
    <tag k="agricultural" v="yes"/>
    <tag k="highway" v="track"/>
    <tag k="motorcar" v="no"/>
    <tag k="tracktype" v="grade5"/>
  </way>
  <way id="24318883" version="6" timestamp="2011-11-06T07:15:08Z" uid="46480" user="GCo" changeset="9752703">
    <nd ref="263688272"/>
    <nd ref="1493011209"/>
    <nd ref="263688273"/>
    <nd ref="275610102"/>
    <nd ref="263688275"/>
    <nd ref="264911867"/>
    <nd ref="263688277"/>
    <nd ref="263688280"/>
    <nd ref="263688281"/>
    <tag k="highway" v="track"/>
    <tag k="tracktype" v="grade5"/>
  </way>
  <way id="24318883" version="7" timestamp="2012-01-02T20:24:20Z" uid="578206" user="Ethera" changeset="10275549">
    <nd ref="263688281"/>
    <nd ref="263688280"/>
    <nd ref="263688277"/>
    <nd ref="264911867"/>
    <nd ref="263688275"/>
    <nd ref="275610102"/>
    <nd ref="263688273"/>
    <nd ref="1493011209"/>
    <nd ref="263688272"/>
    <tag k="highway" v="track"/>
    <tag k="mtb:scale" v="1"/>
    <tag k="tracktype" v="grade5"/>
  </way>
  <way id="24318883" version="8" timestamp="2012-02-07T08:27:11Z" uid="131968" user="changchun_1" changeset="10609917"/>
  <way id="24318892" version="21" timestamp="2010-09-24T20:09:37Z" uid="33382" user="de_muur" changeset="5866108">
    <nd ref="30421520"/>
    <nd ref="471177939"/>
    <nd ref="357473932"/>
    <nd ref="357478843"/>
    <nd ref="357469746"/>
    <nd ref="356931880"/>
    <nd ref="356932159"/>
    <nd ref="30421521"/>
    <nd ref="924526373"/>
    <nd ref="357468279"/>
    <nd ref="357466639"/>
    <nd ref="226080866"/>
    <nd ref="357458829"/>
    <nd ref="357458218"/>
    <nd ref="357456872"/>
    <nd ref="357458248"/>
    <nd ref="30421522"/>
    <nd ref="717651060"/>
    <nd ref="250670385"/>
    <tag k="cycleway" v="track"/>
    <tag k="highway" v="secondary"/>
    <tag k="maxspeed" v="50"/>
    <tag k="name" v="Quelkhorner Landstraße"/>
    <tag k="ref" v="L 154"/>
    <tag k="surface" v="paved"/>
  </way>
  <way id="24318892" version="22" timestamp="2010-09-25T15:23:32Z" uid="33382" user="de_muur" changeset="5871859">
    <nd ref="30421520"/>
    <nd ref="471177939"/>
    <nd ref="357473932"/>
    <nd ref="357478843"/>
    <nd ref="357469746"/>
    <tag k="cycleway" v="track"/>
    <tag k="highway" v="secondary"/>
    <tag k="maxspeed" v="50"/>
    <tag k="name" v="Quelkhorner Landstraße"/>
    <tag k="ref" v="L 154"/>
    <tag k="surface" v="paved"/>
  </way>
  <way id="24318892" version="23" timestamp="2012-01-05T13:29:58Z" uid="42429" user="FK270673" changeset="10300300">
    <nd ref="30421520"/>
    <nd ref="357478843"/>
    <nd ref="357469746"/>
    <tag k="cycleway" v="track"/>
    <tag k="highway" v="secondary"/>
    <tag k="maxspeed" v="50"/>
    <tag k="name" v="Quelkhorner Landstraße"/>
    <tag k="ref" v="L 154"/>
    <tag k="surface" v="paved"/>
  </way>
  <way id="24318893" version="7" timestamp="2009-06-28T05:04:33Z" uid="33382" user="de_muur" changeset="1658694"/>
  <way id="24318900" version="2" timestamp="2010-07-25T09:34:13Z" uid="9581" user="Lobelt" changeset="5310113">
    <nd ref="262837828"/>
    <nd ref="262837829"/>
    <nd ref="262837830"/>
    <nd ref="262837831"/>
    <nd ref="262837832"/>
    <nd ref="262837833"/>
    <nd ref="262837834"/>
    <nd ref="262837835"/>
    <nd ref="262837836"/>
    <nd ref="262837837"/>
    <nd ref="262837838"/>
    <nd ref="262837839"/>
    <nd ref="262837358"/>
    <tag k="railway" v="rail"/>
  </way>
  <way id="24318900" version="3" timestamp="2010-07-25T10:01:33Z" uid="9581" user="Lobelt" changeset="5310310">
    <nd ref="262837828"/>
    <nd ref="262837829"/>
    <nd ref="262837830"/>
    <nd ref="262837831"/>
    <nd ref="262837832"/>
    <nd ref="262837833"/>
    <tag k="railway" v="rail"/>
  </way>
  <way id="24318900" version="4" timestamp="2012-01-11T11:54:25Z" uid="91490" user="Heinz_V" changeset="10359887"/>
  <way id="24318903" version="3" timestamp="2010-07-25T10:01:33Z" uid="9581" user="Lobelt" changeset="5310310">
    <nd ref="262838508"/>
    <nd ref="832451636"/>
    <nd ref="832451586"/>
    <nd ref="262837828"/>
    <tag k="railway" v="rail"/>
    <tag k="tunnel" v="yes"/>
  </way>
  <way id="24318903" version="4" timestamp="2011-10-25T21:07:56Z" uid="91490" user="Heinz_V" changeset="9656142"/>
  <way id="24318914" version="14" timestamp="2009-04-28T14:09:08Z" uid="30632" user="antblant" changeset="1004318">
    <nd ref="263688721"/>
    <nd ref="263688722"/>
    <nd ref="263688799"/>
    <nd ref="300521536"/>
    <nd ref="300521537"/>
    <nd ref="300520959"/>
    <nd ref="263688789"/>
    <nd ref="263688723"/>
    <nd ref="263688725"/>
    <nd ref="263688717"/>
    <nd ref="263688718"/>
    <nd ref="300519366"/>
    <nd ref="263687382"/>
    <tag k="created_by" v="Potlatch 0.10c"/>
    <tag k="highway" v="primary"/>
    <tag k="name" v="Siemianowicka"/>
    <tag k="ref" v="94"/>
  </way>
  <way id="24318914" version="15" timestamp="2009-09-15T15:34:00Z" uid="91056" user="Yarl" changeset="2493642">
    <nd ref="263688721"/>
    <nd ref="263688722"/>
    <nd ref="263688799"/>
    <nd ref="300521536"/>
    <nd ref="300521537"/>
    <nd ref="300520959"/>
    <nd ref="263688789"/>
    <nd ref="263688723"/>
    <nd ref="263688725"/>
    <nd ref="263688717"/>
    <nd ref="263688718"/>
    <nd ref="300519366"/>
    <nd ref="497147101"/>
    <nd ref="263687382"/>
    <tag k="highway" v="primary"/>
    <tag k="name" v="Siemianowicka"/>
    <tag k="ref" v="4; 94"/>
  </way>
  <way id="24318914" version="16" timestamp="2009-11-04T12:58:45Z" uid="91056" user="Yarl" changeset="3032604">
    <nd ref="263688721"/>
    <nd ref="263688722"/>
    <nd ref="263688799"/>
    <nd ref="300521536"/>
    <nd ref="300521537"/>
    <nd ref="300520959"/>
    <nd ref="263688789"/>
    <nd ref="554250694"/>
    <nd ref="263688723"/>
    <nd ref="263688725"/>
    <nd ref="554250687"/>
    <nd ref="263688717"/>
    <nd ref="263688718"/>
    <nd ref="300519366"/>
    <nd ref="497147101"/>
    <nd ref="263687382"/>
    <tag k="highway" v="primary"/>
    <tag k="name" v="Siemianowicka"/>
    <tag k="ref" v="4; 94"/>
  </way>
  <way id="24318914" version="17" timestamp="2010-01-21T21:54:19Z" uid="91056" user="Yarl" changeset="3678736">
    <nd ref="263688721"/>
    <nd ref="263688722"/>
    <nd ref="263688799"/>
    <nd ref="300521536"/>
    <nd ref="300521537"/>
    <nd ref="300520959"/>
    <nd ref="263688789"/>
    <nd ref="554250694"/>
    <nd ref="263688723"/>
    <nd ref="263688725"/>
    <nd ref="554250687"/>
    <nd ref="617865965"/>
    <nd ref="263688717"/>
    <nd ref="263688718"/>
    <nd ref="300519366"/>
    <nd ref="497147101"/>
    <nd ref="263687382"/>
    <tag k="highway" v="primary"/>
    <tag k="name" v="Siemianowicka"/>
    <tag k="ref" v="4; 94"/>
  </way>
  <way id="24318914" version="18" timestamp="2010-03-26T23:00:52Z" uid="91056" user="Yarl" changeset="4242631">
    <nd ref="263688721"/>
    <nd ref="263688722"/>
    <nd ref="263688799"/>
    <nd ref="300521536"/>
    <nd ref="675254531"/>
    <nd ref="300521537"/>
    <nd ref="675254528"/>
    <nd ref="675254523"/>
    <nd ref="300520959"/>
    <nd ref="263688789"/>
    <nd ref="554250694"/>
    <nd ref="263688723"/>
    <nd ref="263688725"/>
    <nd ref="554250687"/>
    <nd ref="617865965"/>
    <nd ref="263688717"/>
    <nd ref="263688718"/>
    <nd ref="300519366"/>
    <nd ref="497147101"/>
    <nd ref="675254521"/>
    <tag k="highway" v="primary"/>
    <tag k="name" v="Siemianowicka"/>
    <tag k="ref" v="94"/>
  </way>
  <way id="24318914" version="19" timestamp="2011-05-02T18:25:22Z" uid="448166" user="Kuba82" changeset="8032522">
    <nd ref="263688721"/>
    <nd ref="263688722"/>
    <nd ref="263688799"/>
    <nd ref="300521536"/>
    <nd ref="675254531"/>
    <nd ref="300521537"/>
    <nd ref="675254528"/>
    <nd ref="675254523"/>
    <nd ref="300520959"/>
    <nd ref="263688789"/>
    <nd ref="554250694"/>
    <nd ref="263688723"/>
    <nd ref="263688725"/>
    <nd ref="554250687"/>
    <nd ref="263688717"/>
    <nd ref="263688718"/>
    <nd ref="300519366"/>
    <nd ref="497147101"/>
    <nd ref="675254521"/>
    <tag k="highway" v="primary"/>
    <tag k="name" v="Siemianowicka"/>
    <tag k="ref" v="94"/>
  </way>
  <way id="24318914" version="20" timestamp="2012-01-06T13:19:17Z" uid="134423" user="Artek" changeset="10311349">
    <nd ref="263688721"/>
    <nd ref="263688722"/>
    <nd ref="263688799"/>
    <nd ref="300521536"/>
    <nd ref="675254531"/>
    <nd ref="300521537"/>
    <nd ref="675254528"/>
    <nd ref="675254523"/>
    <nd ref="300520959"/>
    <nd ref="263688789"/>
    <tag k="highway" v="primary"/>
    <tag k="name" v="Siemianowicka"/>
    <tag k="ref" v="94"/>
  </way>
  <way id="24318914" version="21" timestamp="2012-01-20T10:31:45Z" uid="134423" user="Artek" changeset="10444937">
    <nd ref="263688721"/>
    <nd ref="263688722"/>
    <nd ref="263688799"/>
    <tag k="highway" v="primary"/>
    <tag k="name" v="Siemianowicka"/>
    <tag k="ref" v="94"/>
  </way>
  <way id="24318932" version="13" timestamp="2009-04-28T14:54:15Z" uid="30632" user="antblant" changeset="1004887">
    <nd ref="263688789"/>
    <nd ref="263689004"/>
    <nd ref="300521403"/>
    <nd ref="263688790"/>
    <nd ref="263688865"/>
    <nd ref="263688804"/>
    <nd ref="263688799"/>
    <tag k="created_by" v="Potlatch 0.10c"/>
    <tag k="highway" v="primary"/>
    <tag k="name" v="Siemianowicka"/>
    <tag k="ref" v="94"/>
  </way>
  <way id="24318932" version="14" timestamp="2009-04-28T14:55:07Z" uid="30632" user="antblant" changeset="1004887">
    <nd ref="263688789"/>
    <nd ref="263689004"/>
    <nd ref="300521403"/>
    <nd ref="263688790"/>
    <nd ref="263688865"/>
    <nd ref="263688804"/>
    <nd ref="263688799"/>
    <tag k="created_by" v="Potlatch 0.10c"/>
    <tag k="highway" v="primary"/>
    <tag k="name" v="Siemianowicka"/>
  </way>
  <way id="24318932" version="15" timestamp="2010-03-26T23:00:52Z" uid="91056" user="Yarl" changeset="4242631">
    <nd ref="263688789"/>
    <nd ref="263689004"/>
    <nd ref="300521403"/>
    <nd ref="263688790"/>
    <nd ref="263688865"/>
    <nd ref="675254532"/>
    <nd ref="263688804"/>
    <nd ref="263688799"/>
    <tag k="highway" v="primary"/>
    <tag k="name" v="Siemianowicka"/>
    <tag k="ref" v="94"/>
  </way>
  <way id="24318939" version="2" timestamp="2010-07-25T10:01:37Z" uid="9581" user="Lobelt" changeset="5310310">
    <nd ref="262838485"/>
    <nd ref="262838486"/>
    <nd ref="262838487"/>
    <nd ref="262838488"/>
    <nd ref="262838489"/>
    <nd ref="262838490"/>
    <nd ref="262838491"/>
    <nd ref="262838492"/>
    <nd ref="262838493"/>
    <nd ref="262838494"/>
    <nd ref="262838495"/>
    <nd ref="262838496"/>
    <nd ref="262838497"/>
    <nd ref="262838498"/>
    <nd ref="262838499"/>
    <nd ref="262838500"/>
    <nd ref="262838501"/>
    <tag k="railway" v="rail"/>
  </way>
  <way id="24318939" version="3" timestamp="2011-10-25T21:07:56Z" uid="91490" user="Heinz_V" changeset="9656142"/>
  <way id="24318940" version="4" timestamp="2010-07-25T10:01:32Z" uid="9581" user="Lobelt" changeset="5310310">
    <nd ref="262840634"/>
    <nd ref="549306748"/>
    <nd ref="832451426"/>
    <nd ref="832451714"/>
    <nd ref="832451514"/>
    <nd ref="262838485"/>
    <tag k="railway" v="rail"/>
    <tag k="tunnel" v="yes"/>
  </way>
  <way id="24318940" version="5" timestamp="2011-10-25T21:07:56Z" uid="91490" user="Heinz_V" changeset="9656142"/>
  <way id="24318943" version="9" timestamp="2009-06-29T13:46:40Z" uid="33382" user="de_muur" changeset="1677413">
    <nd ref="30441636"/>
    <nd ref="300527260"/>
    <nd ref="30441637"/>
    <nd ref="30441638"/>
    <nd ref="430768000"/>
    <nd ref="30441639"/>
    <nd ref="30441640"/>
    <nd ref="30441641"/>
    <nd ref="30441642"/>
    <nd ref="30441643"/>
    <nd ref="37913988"/>
    <nd ref="30441644"/>
    <nd ref="37913982"/>
    <nd ref="30441645"/>
    <nd ref="30441646"/>
    <nd ref="30441647"/>
    <nd ref="30441648"/>
    <nd ref="30441649"/>
    <nd ref="30441650"/>
    <nd ref="30441651"/>
    <nd ref="393977574"/>
    <tag k="created_by" v="Potlatch 0.10c"/>
    <tag k="highway" v="tertiary"/>
    <tag k="maxspeed" v="80"/>
    <tag k="ref" v="K 113"/>
  </way>
  <way id="24318943" version="10" timestamp="2009-08-16T19:35:30Z" uid="68030" user="Kowa" changeset="2170222">
    <nd ref="30441636"/>
    <nd ref="300527260"/>
    <nd ref="30441637"/>
    <nd ref="30441638"/>
    <nd ref="430768000"/>
    <nd ref="30441639"/>
    <nd ref="30441640"/>
    <nd ref="469390321"/>
    <nd ref="469390323"/>
    <nd ref="30441641"/>
    <nd ref="30441642"/>
    <nd ref="30441643"/>
    <nd ref="37913988"/>
    <nd ref="30441644"/>
    <nd ref="37913982"/>
    <nd ref="30441645"/>
    <nd ref="30441646"/>
    <nd ref="30441647"/>
    <nd ref="30441648"/>
    <nd ref="30441649"/>
    <nd ref="30441650"/>
    <nd ref="30441651"/>
    <nd ref="393977574"/>
    <tag k="highway" v="tertiary"/>
    <tag k="maxspeed" v="80"/>
    <tag k="name" v="Tarmstedter Straße"/>
    <tag k="ref" v="K 113"/>
  </way>
  <way id="24318943" version="11" timestamp="2010-06-14T21:39:09Z" uid="42429" user="FK270673" changeset="4991841">
    <nd ref="30441636"/>
    <nd ref="300527260"/>
    <nd ref="30441637"/>
    <nd ref="30441638"/>
    <nd ref="430768000"/>
    <nd ref="30441639"/>
    <nd ref="30441640"/>
    <nd ref="469390321"/>
    <nd ref="469390323"/>
    <nd ref="30441641"/>
    <nd ref="30441642"/>
    <nd ref="30441643"/>
    <nd ref="37913988"/>
    <nd ref="30441644"/>
    <nd ref="37913982"/>
    <nd ref="30441645"/>
    <nd ref="30441646"/>
    <nd ref="30441647"/>
    <nd ref="30441648"/>
    <nd ref="30441649"/>
    <nd ref="30441650"/>
    <nd ref="30441651"/>
    <nd ref="772982956"/>
    <nd ref="393977574"/>
    <tag k="highway" v="tertiary"/>
    <tag k="maxspeed" v="80"/>
    <tag k="name" v="Tarmstedter Straße"/>
    <tag k="ref" v="K 113"/>
  </way>
  <way id="24318943" version="12" timestamp="2010-07-11T07:01:41Z" uid="33382" user="de_muur" changeset="5187250">
    <nd ref="30441636"/>
    <nd ref="300527260"/>
    <nd ref="30441637"/>
    <nd ref="30441638"/>
    <nd ref="430768000"/>
    <nd ref="30441639"/>
    <nd ref="30441640"/>
    <nd ref="469390321"/>
    <nd ref="469390323"/>
    <nd ref="811019856"/>
    <tag k="highway" v="tertiary"/>
    <tag k="maxspeed" v="50"/>
    <tag k="name" v="Tarmstedter Straße"/>
    <tag k="ref" v="K 113"/>
    <tag k="surface" v="paved"/>
  </way>
  <way id="24318943" version="13" timestamp="2011-11-20T07:38:24Z" uid="42429" user="FK270673" changeset="9880834">
    <nd ref="30441636"/>
    <nd ref="300527260"/>
    <nd ref="30441637"/>
    <nd ref="1509481848"/>
    <nd ref="1509481858"/>
    <nd ref="1509481899"/>
    <nd ref="30441640"/>
    <tag k="highway" v="tertiary"/>
    <tag k="maxspeed" v="50"/>
    <tag k="name" v="Tarmstedter Straße"/>
    <tag k="ref" v="K 113"/>
    <tag k="surface" v="paved"/>
  </way>
  <way id="24318943" version="14" timestamp="2012-01-05T13:29:59Z" uid="42429" user="FK270673" changeset="10300300">
    <nd ref="30441636"/>
    <nd ref="300527260"/>
    <nd ref="1509481848"/>
    <nd ref="1509481858"/>
    <nd ref="1509481899"/>
    <nd ref="30441640"/>
    <tag k="highway" v="tertiary"/>
    <tag k="maxspeed" v="50"/>
    <tag k="name" v="Tarmstedter Straße"/>
    <tag k="ref" v="K 113"/>
    <tag k="surface" v="paved"/>
  </way>
  <way id="24318943" version="15" timestamp="2012-03-08T16:31:08Z" uid="45882" user="smarties" changeset="10910827"/>
  <way id="24318956" version="3" timestamp="2009-07-26T00:19:31Z" uid="4467" user="Rosscoe" changeset="1939703">
    <nd ref="263688811"/>
    <nd ref="263688881"/>
    <tag k="highway" v="residential"/>
    <tag k="name" v="Adelaide Place"/>
  </way>
  <way id="24318956" version="4" timestamp="2010-07-07T19:25:36Z" uid="74617" user="JohnSmith" changeset="5161069">
    <nd ref="263688811"/>
    <nd ref="263688881"/>
    <tag k="highway" v="residential"/>
    <tag k="maxspeed" v="50"/>
    <tag k="maxspeed:source" v="default residential speed limit in Australia"/>
    <tag k="name" v="Adelaide Place"/>
  </way>
  <way id="24318956" version="5" timestamp="2012-01-16T08:37:25Z" uid="147510" user="woodpeck_fixbot" changeset="10406018">
    <nd ref="263688811"/>
    <nd ref="263688881"/>
    <tag k="highway" v="residential"/>
    <tag k="name" v="Adelaide Place"/>
  </way>
  <way id="24318957" version="10" timestamp="2009-10-07T16:26:35Z" uid="86259" user="hasse_osm_korinthenkacker" changeset="2773374">
    <nd ref="30441656"/>
    <nd ref="30441655"/>
    <nd ref="30441654"/>
    <nd ref="30441653"/>
    <nd ref="30441652"/>
    <nd ref="393977574"/>
    <tag k="highway" v="tertiary"/>
    <tag k="maxspeed" v="50"/>
    <tag k="name" v="Wilstedter Straße"/>
    <tag k="ref" v="K 113"/>
  </way>
  <way id="24318957" version="11" timestamp="2010-02-21T16:29:45Z" uid="9055" user="dewildt" changeset="3935153">
    <nd ref="392855743"/>
    <nd ref="30441656"/>
    <nd ref="30441655"/>
    <nd ref="30441654"/>
    <nd ref="30441653"/>
    <nd ref="30441652"/>
    <nd ref="393977574"/>
    <tag k="highway" v="tertiary"/>
    <tag k="maxspeed" v="50"/>
    <tag k="name" v="Wilstedter Straße"/>
    <tag k="ref" v="K 113"/>
  </way>
  <way id="24318957" version="12" timestamp="2010-07-11T07:01:42Z" uid="33382" user="de_muur" changeset="5187250">
    <nd ref="392855743"/>
    <nd ref="30441656"/>
    <nd ref="30441655"/>
    <nd ref="30441654"/>
    <nd ref="30441653"/>
    <nd ref="30441652"/>
    <tag k="highway" v="tertiary"/>
    <tag k="maxspeed" v="50"/>
    <tag k="name" v="Wilstedter Straße"/>
    <tag k="ref" v="K 113"/>
    <tag k="surface" v="paved"/>
  </way>
  <way id="24318957" version="13" timestamp="2011-11-20T07:38:35Z" uid="42429" user="FK270673" changeset="9880834"/>
  <way id="24318961" version="3" timestamp="2009-07-26T00:20:42Z" uid="4467" user="Rosscoe" changeset="1939703">
    <nd ref="263688882"/>
    <nd ref="263688913"/>
    <nd ref="263688914"/>
    <tag k="highway" v="residential"/>
    <tag k="name" v="Wilson Street"/>
  </way>
  <way id="24318961" version="4" timestamp="2010-05-12T09:24:14Z" uid="4467" user="Rosscoe" changeset="4675520">
    <nd ref="263688882"/>
    <nd ref="263688913"/>
    <nd ref="263688914"/>
    <tag k="highway" v="residential"/>
    <tag k="name" v="Wilson Street"/>
    <tag k="source" v="nearmap"/>
  </way>
  <way id="24318961" version="5" timestamp="2010-07-07T19:26:55Z" uid="74617" user="JohnSmith" changeset="5161069">
    <nd ref="263688882"/>
    <nd ref="263688913"/>
    <nd ref="263688914"/>
    <tag k="highway" v="residential"/>
    <tag k="maxspeed" v="50"/>
    <tag k="maxspeed:source" v="default residential speed limit in Australia"/>
    <tag k="name" v="Wilson Street"/>
    <tag k="source" v="nearmap"/>
  </way>
  <way id="24318961" version="6" timestamp="2012-01-16T08:37:27Z" uid="147510" user="woodpeck_fixbot" changeset="10406018">
    <nd ref="263688882"/>
    <nd ref="263688913"/>
    <nd ref="263688914"/>
    <tag k="highway" v="residential"/>
    <tag k="name" v="Wilson Street"/>
    <tag k="source" v="nearmap"/>
  </way>
  <way id="24318973" version="9" timestamp="2011-05-11T15:44:53Z" uid="33382" user="de_muur" changeset="8113487">
    <nd ref="30466688"/>
    <nd ref="395251695"/>
    <nd ref="30459614"/>
    <nd ref="393968037"/>
    <nd ref="30459613"/>
    <nd ref="30459612"/>
    <nd ref="1280359111"/>
    <nd ref="30465881"/>
    <tag k="cycleway" v="track"/>
    <tag k="highway" v="secondary"/>
    <tag k="maxspeed" v="50"/>
    <tag k="name" v="Zevener Straße"/>
    <tag k="ref" v="L 122"/>
    <tag k="surface" v="paved"/>
  </way>
  <way id="24318973" version="10" timestamp="2011-05-11T16:46:41Z" uid="33382" user="de_muur" changeset="8113949">
    <nd ref="30466688"/>
    <nd ref="395251695"/>
    <nd ref="30459614"/>
    <tag k="cycleway" v="track"/>
    <tag k="highway" v="secondary"/>
    <tag k="maxspeed" v="50"/>
    <tag k="name" v="Zevener Straße"/>
    <tag k="ref" v="L 122"/>
    <tag k="surface" v="paved"/>
  </way>
  <way id="24318973" version="11" timestamp="2012-02-13T21:19:15Z" uid="45882" user="smarties" changeset="10677730">
    <nd ref="30466688"/>
    <nd ref="395251695"/>
    <nd ref="1631850632"/>
    <tag k="cycleway" v="track"/>
    <tag k="highway" v="secondary"/>
    <tag k="maxspeed" v="50"/>
    <tag k="name" v="Zevener Straße"/>
    <tag k="ref" v="L 122"/>
    <tag k="surface" v="paved"/>
  </way>
  <way id="24318973" version="12" timestamp="2012-03-03T00:11:05Z" uid="45882" user="smarties" changeset="10853720"/>
  <way id="24318974" version="12" timestamp="2011-05-11T15:35:57Z" uid="33382" user="de_muur" changeset="8113423">
    <nd ref="30465876"/>
    <nd ref="30465875"/>
    <nd ref="30465874"/>
    <nd ref="30465873"/>
    <nd ref="30465872"/>
    <nd ref="30465871"/>
    <nd ref="30465870"/>
    <nd ref="1280353986"/>
    <tag k="cycleway" v="track"/>
    <tag k="highway" v="secondary"/>
    <tag k="ref" v="L 122"/>
    <tag k="surface" v="paved"/>
  </way>
  <way id="24318974" version="13" timestamp="2012-01-16T14:07:57Z" uid="42429" user="FK270673" changeset="10408505"/>
  <way id="24318987" version="5" timestamp="2010-07-25T09:34:12Z" uid="9581" user="Lobelt" changeset="5310113">
    <nd ref="260143739"/>
    <nd ref="260143740"/>
    <nd ref="260143741"/>
    <nd ref="260143742"/>
    <nd ref="260143743"/>
    <nd ref="260143744"/>
    <nd ref="260143745"/>
    <nd ref="260143746"/>
    <nd ref="260143747"/>
    <nd ref="832435030"/>
    <nd ref="832435019"/>
    <nd ref="260145395"/>
    <nd ref="691112188"/>
    <nd ref="260145396"/>
    <nd ref="832435052"/>
    <nd ref="260145397"/>
    <nd ref="260145398"/>
    <nd ref="260145399"/>
    <nd ref="832435087"/>
    <nd ref="260145400"/>
    <nd ref="260145401"/>
    <tag k="railway" v="rail"/>
  </way>
  <way id="24318987" version="6" timestamp="2011-10-25T21:07:57Z" uid="91490" user="Heinz_V" changeset="9656142"/>
  <way id="24318988" version="10" timestamp="2011-05-08T18:09:29Z" uid="33382" user="de_muur" changeset="8085629">
    <nd ref="30459621"/>
    <nd ref="30459622"/>
    <nd ref="30459623"/>
    <nd ref="30459624"/>
    <nd ref="30459625"/>
    <nd ref="30459626"/>
    <nd ref="30459627"/>
    <nd ref="30459628"/>
    <nd ref="951976282"/>
    <nd ref="30459629"/>
    <nd ref="30459630"/>
    <nd ref="30459631"/>
    <nd ref="941772888"/>
    <nd ref="30459632"/>
    <nd ref="30459633"/>
    <nd ref="1194029961"/>
    <nd ref="1194029958"/>
    <nd ref="30459634"/>
    <nd ref="30459635"/>
    <nd ref="316223436"/>
    <nd ref="30459636"/>
    <nd ref="30459637"/>
    <nd ref="30459638"/>
    <nd ref="30459639"/>
    <tag k="highway" v="tertiary"/>
    <tag k="maxspeed" v="70"/>
    <tag k="ref" v="K 148"/>
    <tag k="surface" v="paved"/>
  </way>
  <way id="24318988" version="11" timestamp="2011-05-11T18:16:09Z" uid="33382" user="de_muur" changeset="8114813">
    <nd ref="30459621"/>
    <nd ref="30459622"/>
    <nd ref="30459623"/>
    <nd ref="30459624"/>
    <nd ref="30459625"/>
    <nd ref="30459626"/>
    <nd ref="30459627"/>
    <nd ref="30459628"/>
    <nd ref="951976282"/>
    <tag k="cycleway" v="track"/>
    <tag k="highway" v="tertiary"/>
    <tag k="maxspeed" v="70"/>
    <tag k="ref" v="K 148"/>
    <tag k="surface" v="paved"/>
  </way>
  <way id="24318988" version="12" timestamp="2012-02-13T21:18:16Z" uid="45882" user="smarties" changeset="10677730">
    <nd ref="30459621"/>
    <nd ref="30459622"/>
    <nd ref="30459623"/>
    <nd ref="30459624"/>
    <nd ref="30459625"/>
    <nd ref="30459626"/>
    <nd ref="30459627"/>
    <nd ref="30459628"/>
    <nd ref="1631850639"/>
    <tag k="cycleway" v="track"/>
    <tag k="highway" v="tertiary"/>
    <tag k="maxspeed" v="70"/>
    <tag k="ref" v="K 148"/>
    <tag k="surface" v="paved"/>
  </way>
  <way id="24318988" version="13" timestamp="2012-03-08T16:31:07Z" uid="45882" user="smarties" changeset="10910827"/>
  <way id="24318997" version="4" timestamp="2010-07-25T09:34:18Z" uid="9581" user="Lobelt" changeset="5310113"/>
  <way id="24318013" version="8" timestamp="2012-07-21T16:44:57Z" uid="722137" user="OSMF Redaction Account" changeset="12415080">
    <nd ref="34917726"/>
    <nd ref="263682719"/>
    <tag k="highway" v="residential"/>
    <tag k="name" v="George Street"/>
  </way>
  <way id="24318013" version="9" timestamp="2012-08-09T17:42:06Z" uid="71337" user="quantumstate" changeset="12671250">
    <nd ref="34917726"/>
    <nd ref="263682719"/>
    <nd ref="1859103148"/>
    <tag k="highway" v="residential"/>
    <tag k="name" v="George Street"/>
  </way>
  <way id="24318025" version="6" timestamp="2012-07-17T05:18:52Z" uid="722137" user="OSMF Redaction Account" changeset="12257575">
    <nd ref="31196482"/>
    <nd ref="263682763"/>
    <nd ref="263682764"/>
    <nd ref="263682765"/>
    <tag k="highway" v="residential"/>
    <tag k="maxspeed" v="30"/>
  </way>
  <way id="24318026" version="5" timestamp="2012-07-17T05:18:52Z" uid="722137" user="OSMF Redaction Account" changeset="12257575">
    <nd ref="263682765"/>
    <nd ref="263682767"/>
    <nd ref="263682768"/>
    <tag k="highway" v="residential"/>
    <tag k="maxspeed" v="30"/>
    <tag k="name" v="Am Schwarzen Meer"/>
    <tag k="source" v="yahoo"/>
  </way>
  <way id="24318032" version="16" timestamp="2012-07-21T16:44:56Z" uid="722137" user="OSMF Redaction Account" changeset="12415080">
    <nd ref="263682759"/>
    <nd ref="645177496"/>
    <nd ref="645177501"/>
    <nd ref="645177504"/>
    <nd ref="1517452757"/>
    <nd ref="645177508"/>
    <nd ref="263682802"/>
    <nd ref="1381657676"/>
    <nd ref="645177516"/>
    <tag k="highway" v="residential"/>
    <tag k="name" v="Kenny Street"/>
  </way>
  <way id="24318043" version="8" timestamp="2012-07-17T05:18:50Z" uid="722137" user="OSMF Redaction Account" changeset="12257575">
    <nd ref="1572497013"/>
    <nd ref="292610535"/>
    <nd ref="263682844"/>
    <nd ref="263682843"/>
    <tag k="highway" v="residential"/>
    <tag k="name" v="Clueser Straße"/>
  </way>
  <way id="24318145" version="8" timestamp="2012-06-09T15:55:23Z" uid="123364" user="Tronikon" changeset="11846356">
    <nd ref="263683285"/>
    <nd ref="263683286"/>
    <nd ref="747665975"/>
    <nd ref="1781687971"/>
    <nd ref="1781687973"/>
    <nd ref="263683287"/>
    <nd ref="263683288"/>
    <nd ref="263683289"/>
    <nd ref="1368677292"/>
    <nd ref="1781688000"/>
    <nd ref="1781687997"/>
    <nd ref="1781687994"/>
    <nd ref="1781688009"/>
    <nd ref="1781687998"/>
    <nd ref="1781687990"/>
    <nd ref="1781687983"/>
    <nd ref="263683290"/>
    <nd ref="897141069"/>
    <nd ref="1368677290"/>
    <nd ref="263683291"/>
    <nd ref="263683285"/>
    <tag k="building" v="yes"/>
    <tag k="layer" v="1"/>
    <tag k="name" v="Römerpassage"/>
    <tag k="shop" v="mall"/>
    <tag k="wheelchair" v="yes"/>
  </way>
  <way id="24318145" version="9" timestamp="2012-07-19T11:47:28Z" uid="722137" user="OSMF Redaction Account" changeset="12322673">
    <nd ref="263683285"/>
    <nd ref="263683286"/>
    <nd ref="747665975"/>
    <nd ref="1781687971"/>
    <nd ref="1781687973"/>
    <nd ref="263683287"/>
    <nd ref="263683288"/>
    <nd ref="263683289"/>
    <nd ref="1368677292"/>
    <nd ref="1781688000"/>
    <nd ref="1781687997"/>
    <nd ref="1781687994"/>
    <nd ref="1781688009"/>
    <nd ref="1781687998"/>
    <nd ref="1781687990"/>
    <nd ref="1781687983"/>
    <nd ref="263683290"/>
    <nd ref="897141069"/>
    <nd ref="1368677290"/>
    <nd ref="263683291"/>
    <nd ref="263683285"/>
    <tag k="building" v="yes"/>
    <tag k="layer" v="1"/>
    <tag k="name" v="Römerpassage"/>
    <tag k="shop" v="shopping_mall"/>
    <tag k="wheelchair" v="yes"/>
  </way>
  <way id="24318145" version="10" timestamp="2012-08-27T20:39:40Z" uid="440308" user="spezialist" changeset="12884614">
    <nd ref="263683285"/>
    <nd ref="263683286"/>
    <nd ref="747665975"/>
    <nd ref="1781687971"/>
    <nd ref="1781687973"/>
    <nd ref="263683287"/>
    <nd ref="263683288"/>
    <nd ref="263683289"/>
    <nd ref="1368677292"/>
    <nd ref="1781688000"/>
    <nd ref="1781687997"/>
    <nd ref="1781687994"/>
    <nd ref="1781688009"/>
    <nd ref="1781687998"/>
    <nd ref="1781687990"/>
    <nd ref="1781687983"/>
    <nd ref="263683290"/>
    <nd ref="897141069"/>
    <nd ref="1368677291"/>
    <nd ref="1368677289"/>
    <nd ref="263683291"/>
    <nd ref="263683285"/>
    <tag k="building" v="yes"/>
    <tag k="layer" v="1"/>
    <tag k="name" v="Römerpassage"/>
    <tag k="shop" v="shopping_mall"/>
    <tag k="wheelchair" v="yes"/>
  </way>
  <way id="24318219" version="7" timestamp="2012-06-25T08:40:12Z" uid="481380" user="Nzara" changeset="12008268">
    <nd ref="255232161"/>
    <nd ref="255232162"/>
    <nd ref="306665101"/>
    <nd ref="2195948"/>
    <tag k="highway" v="tertiary"/>
    <tag k="name" v="Diemtigtalstrasse"/>
  </way>
  <way id="24318429" version="8" timestamp="2012-07-19T11:47:28Z" uid="722137" user="OSMF Redaction Account" changeset="12322673">
    <nd ref="263685059"/>
    <nd ref="263685060"/>
    <nd ref="263685061"/>
    <nd ref="263685062"/>
    <nd ref="1368677272"/>
    <nd ref="1368677273"/>
    <nd ref="1368677275"/>
    <nd ref="263685059"/>
    <tag k="building" v="yes"/>
    <tag k="name" v="C&amp;A"/>
    <tag k="shop" v="clothing_store"/>
    <tag k="wheelchair" v="limited"/>
  </way>
  <way id="24318429" version="9" timestamp="2012-08-27T20:39:31Z" uid="440308" user="spezialist" changeset="12884614">
    <nd ref="263685059"/>
    <nd ref="263685060"/>
    <nd ref="1885925178"/>
    <nd ref="1885925179"/>
    <nd ref="1885925176"/>
    <nd ref="1885925177"/>
    <nd ref="263685061"/>
    <nd ref="263685062"/>
    <nd ref="1885925180"/>
    <nd ref="1368677272"/>
    <nd ref="1368677273"/>
    <nd ref="1368677275"/>
    <nd ref="263685059"/>
    <tag k="building" v="yes"/>
    <tag k="name" v="C&amp;A"/>
    <tag k="shop" v="clothing_store"/>
    <tag k="wheelchair" v="limited"/>
  </way>
  <way id="24318605" version="28" timestamp="2012-06-26T11:03:21Z" uid="328526" user="zVID" changeset="12020981">
    <nd ref="618862661"/>
    <nd ref="520092271"/>
    <nd ref="1802605727"/>
    <nd ref="435724480"/>
    <nd ref="1802605711"/>
    <nd ref="1802605725"/>
    <nd ref="263686395"/>
    <tag k="highway" v="primary"/>
    <tag k="name" v="Kolejowa"/>
    <tag k="oneway" v="yes"/>
    <tag k="ref" v="94"/>
  </way>
  <way id="24318605" version="29" timestamp="2012-07-17T01:34:16Z" uid="722137" user="OSMF Redaction Account" changeset="12254788">
    <nd ref="618862661"/>
    <nd ref="520092271"/>
    <nd ref="1802605727"/>
    <nd ref="435724480"/>
    <nd ref="1802605711"/>
    <nd ref="1802605725"/>
    <tag k="ref" v="94"/>
  </way>
  <way id="24318605" version="30" timestamp="2012-07-17T15:22:10Z" uid="278187" user="dzamper" changeset="12268042">
    <nd ref="618862661"/>
    <nd ref="520092271"/>
    <nd ref="1802605727"/>
    <nd ref="435724480"/>
    <nd ref="1802605711"/>
    <nd ref="1802605725"/>
    <nd ref="263686395"/>
    <tag k="highway" v="primary"/>
    <tag k="name" v="Kolejowa"/>
    <tag k="oneway" v="yes"/>
    <tag k="ref" v="94"/>
    <tag k="source" v="Bing"/>
  </way>
  <way id="24318618" version="5" timestamp="2012-05-18T19:32:37Z" uid="164833" user="reclaM" changeset="11636532">
    <nd ref="253092569"/>
    <nd ref="1757528894"/>
    <nd ref="290828084"/>
    <nd ref="118267341"/>
    <nd ref="1757528872"/>
    <nd ref="290828087"/>
    <nd ref="290828085"/>
    <nd ref="290828077"/>
    <nd ref="290828088"/>
    <nd ref="254949807"/>
    <nd ref="290828113"/>
    <tag k="access" v="agricultural"/>
    <tag k="highway" v="track"/>
    <tag k="surface" v="gravel"/>
    <tag k="tracktype" v="grade2"/>
  </way>
  <way id="24318620" version="7" timestamp="2012-06-26T11:03:21Z" uid="328526" user="zVID" changeset="12020981">
    <nd ref="263686428"/>
    <nd ref="1802605706"/>
    <nd ref="520092272"/>
    <nd ref="263686485"/>
    <nd ref="1802605728"/>
    <nd ref="263686395"/>
    <tag k="highway" v="primary"/>
    <tag k="name" v="Kolejowa"/>
    <tag k="oneway" v="yes"/>
    <tag k="ref" v="94"/>
  </way>
  <way id="24318620" version="8" timestamp="2012-07-17T01:34:16Z" uid="722137" user="OSMF Redaction Account" changeset="12254788">
    <nd ref="1802605706"/>
    <nd ref="520092272"/>
    <nd ref="1802605728"/>
    <tag k="ref" v="94"/>
  </way>
  <way id="24318620" version="9" timestamp="2012-07-17T15:22:10Z" uid="278187" user="dzamper" changeset="12268042">
    <nd ref="263686428"/>
    <nd ref="1802605706"/>
    <nd ref="520092272"/>
    <nd ref="263686485"/>
    <nd ref="1802605728"/>
    <nd ref="263686395"/>
    <tag k="highway" v="primary"/>
    <tag k="name" v="Kolejowa"/>
    <tag k="oneway" v="yes"/>
    <tag k="ref" v="94"/>
    <tag k="source" v="Bing"/>
  </way>
  <way id="24318644" version="4" timestamp="2012-07-17T09:12:23Z" uid="722137" user="OSMF Redaction Account" changeset="12261331">
    <nd ref="263686652"/>
    <nd ref="263686653"/>
    <nd ref="1425402362"/>
    <nd ref="263686654"/>
    <nd ref="263686655"/>
    <nd ref="1425402352"/>
    <nd ref="263686652"/>
    <tag k="building" v="yes"/>
    <tag k="shop" v="shopping_mall"/>
  </way>
  <way id="24318644" version="5" timestamp="2012-08-04T18:19:35Z" uid="413017" user="reneman" changeset="12612611">
    <nd ref="263686652"/>
    <nd ref="263686653"/>
    <nd ref="1425402362"/>
    <nd ref="263686654"/>
    <nd ref="263686655"/>
    <nd ref="1851834760"/>
    <nd ref="1425402352"/>
    <nd ref="263686652"/>
    <tag k="building" v="yes"/>
    <tag k="shop" v="shopping_mall"/>
  </way>
  <way id="24318651" version="3" timestamp="2012-07-17T05:39:47Z" uid="722137" user="OSMF Redaction Account" changeset="12257908">
    <nd ref="263686697"/>
    <nd ref="263686700"/>
    <nd ref="263686703"/>
    <nd ref="263686701"/>
    <nd ref="263686702"/>
    <tag k="highway" v="tack"/>
    <tag k="noexit" v="yes"/>
    <tag k="surface" v="unpaved"/>
    <tag k="tracktype" v="grade4"/>
  </way>
  <way id="24318693" version="22" timestamp="2012-06-02T12:28:16Z" uid="278187" user="dzamper" changeset="11776582">
    <nd ref="263686401"/>
    <nd ref="435724478"/>
    <tag k="highway" v="primary"/>
    <tag k="name" v="Powstańców Warszawskich"/>
    <tag k="oneway" v="yes"/>
    <tag k="ref" v="11"/>
  </way>
  <way id="24318693" version="23" timestamp="2012-06-25T10:58:07Z" uid="91056" user="Yarl" changeset="12009790">
    <nd ref="263686401"/>
    <nd ref="1801559927"/>
    <nd ref="435724478"/>
    <tag k="highway" v="primary"/>
    <tag k="name" v="Powstańców Warszawskich"/>
    <tag k="oneway" v="yes"/>
    <tag k="ref" v="11"/>
    <tag k="source" v="Bing"/>
  </way>
  <way id="24318693" version="24" timestamp="2012-07-17T01:34:16Z" uid="722137" user="OSMF Redaction Account" changeset="12254788">
    <nd ref="1801559927"/>
    <nd ref="435724478"/>
    <tag k="ref" v="11"/>
    <tag k="source" v="Bing"/>
  </way>
  <way id="24318693" version="25" timestamp="2012-07-17T15:22:11Z" uid="278187" user="dzamper" changeset="12268042">
    <nd ref="263686401"/>
    <nd ref="1801559927"/>
    <nd ref="435724478"/>
    <tag k="highway" v="primary"/>
    <tag k="name" v="Powstańców Warszawskich"/>
    <tag k="oneway" v="yes"/>
    <tag k="ref" v="11"/>
    <tag k="source" v="Bing"/>
  </way>
  <way id="24318742" version="25" timestamp="2012-07-17T01:34:16Z" uid="722137" user="OSMF Redaction Account" changeset="12254788">
    <nd ref="598167370"/>
    <nd ref="331240916"/>
    <nd ref="598167365"/>
    <tag k="name" v="Marszałka Józefa Piłsudskiego"/>
    <tag k="ref" v="94"/>
  </way>
  <way id="24318742" version="26" timestamp="2012-07-17T15:22:11Z" uid="278187" user="dzamper" changeset="12268042">
    <nd ref="598167370"/>
    <nd ref="331240916"/>
    <nd ref="598167365"/>
    <tag k="highway" v="primary"/>
    <tag k="name" v="Marszałka Józefa Piłsudskiego"/>
    <tag k="ref" v="94"/>
  </way>
  <way id="24318761" version="23" timestamp="2012-06-16T14:59:59Z" uid="91056" user="Yarl" changeset="11915834">
    <nd ref="263687357"/>
    <nd ref="1416676885"/>
    <nd ref="1416676890"/>
    <nd ref="554250669"/>
    <nd ref="1790032046"/>
    <nd ref="428807051"/>
    <tag k="highway" v="primary"/>
    <tag k="name" v="Marszałka Józefa Piłsudskiego"/>
    <tag k="oneway" v="yes"/>
    <tag k="ref" v="94"/>
  </way>
  <way id="24318761" version="24" timestamp="2012-07-17T01:34:16Z" uid="722137" user="OSMF Redaction Account" changeset="12254788">
    <nd ref="1416676885"/>
    <nd ref="1416676890"/>
    <nd ref="554250669"/>
    <nd ref="1790032046"/>
    <nd ref="428807051"/>
    <tag k="ref" v="94"/>
  </way>
  <way id="24318761" version="25" timestamp="2012-07-17T15:22:16Z" uid="278187" user="dzamper" changeset="12268042">
    <nd ref="263687357"/>
    <nd ref="1416676885"/>
    <nd ref="1416676890"/>
    <nd ref="554250669"/>
    <nd ref="1790032046"/>
    <nd ref="428807051"/>
    <tag k="highway" v="primary"/>
    <tag k="ref" v="94"/>
  </way>
  <way id="24318761" version="26" timestamp="2012-09-07T15:46:27Z" uid="91056" user="Yarl" changeset="13024497">
    <nd ref="263687357"/>
    <nd ref="1416676885"/>
    <nd ref="1416676890"/>
    <nd ref="1904402447"/>
    <nd ref="554250669"/>
    <nd ref="1790032046"/>
    <nd ref="428807051"/>
    <tag k="highway" v="primary"/>
    <tag k="ref" v="94"/>
    <tag k="source" v="Bing"/>
  </way>
  <way id="24318766" version="21" timestamp="2012-07-17T01:34:15Z" uid="722137" user="OSMF Redaction Account" changeset="12254788">
    <nd ref="171347555"/>
    <nd ref="602100125"/>
    <nd ref="675254517"/>
    <nd ref="675254520"/>
    <nd ref="1369487212"/>
    <nd ref="598189269"/>
    <nd ref="497016069"/>
    <nd ref="380849715"/>
    <nd ref="428807077"/>
    <nd ref="869101862"/>
    <nd ref="330040339"/>
    <tag k="ref" v="94"/>
  </way>
  <way id="24318766" version="22" timestamp="2012-07-17T15:22:16Z" uid="278187" user="dzamper" changeset="12268042">
    <nd ref="171347555"/>
    <nd ref="602100125"/>
    <nd ref="675254517"/>
    <nd ref="675254520"/>
    <nd ref="1369487212"/>
    <nd ref="598189269"/>
    <nd ref="497016069"/>
    <nd ref="380849715"/>
    <nd ref="263687384"/>
    <nd ref="428807077"/>
    <nd ref="869101862"/>
    <nd ref="263687383"/>
    <nd ref="330040339"/>
    <tag k="highway" v="primary"/>
    <tag k="ref" v="94"/>
  </way>
  <way id="24318766" version="23" timestamp="2012-08-28T11:23:15Z" uid="352700" user="WojtekK" changeset="12890666">
    <nd ref="171347555"/>
    <nd ref="602100125"/>
    <nd ref="675254517"/>
    <nd ref="675254520"/>
    <nd ref="1369487212"/>
    <nd ref="1886602220"/>
    <nd ref="598189269"/>
    <nd ref="497016069"/>
    <nd ref="380849715"/>
    <nd ref="263687384"/>
    <nd ref="428807077"/>
    <nd ref="869101862"/>
    <nd ref="263687383"/>
    <nd ref="330040339"/>
    <tag k="highway" v="primary"/>
    <tag k="ref" v="94"/>
  </way>
  <way id="24318766" version="24" timestamp="2012-09-07T14:59:29Z" uid="91056" user="Yarl" changeset="13023926">
    <nd ref="171347555"/>
    <nd ref="602100125"/>
    <nd ref="675254517"/>
    <nd ref="675254520"/>
    <nd ref="1369487212"/>
    <nd ref="1886602220"/>
    <nd ref="598189269"/>
    <nd ref="497016069"/>
    <nd ref="380849715"/>
    <nd ref="263687384"/>
    <nd ref="428807077"/>
    <nd ref="869101862"/>
    <nd ref="263687383"/>
    <nd ref="1904333335"/>
    <nd ref="1904333337"/>
    <nd ref="1904333339"/>
    <nd ref="1904333342"/>
    <nd ref="330040339"/>
    <tag k="highway" v="primary"/>
    <tag k="name" v="Karola Miarki"/>
    <tag k="oneway" v="yes"/>
    <tag k="ref" v="94"/>
  </way>
  <way id="24318892" version="24" timestamp="2012-07-19T02:14:42Z" uid="722137" user="OSMF Redaction Account" changeset="12304844"/>
  <way id="24318914" version="22" timestamp="2012-07-17T01:10:57Z" uid="722137" user="OSMF Redaction Account" changeset="12254575"/>
  <way id="24318932" version="16" timestamp="2012-07-17T01:12:11Z" uid="722137" user="OSMF Redaction Account" changeset="12254587"/>
  <way id="24318961" version="7" timestamp="2012-07-21T18:51:50Z" uid="722137" user="OSMF Redaction Account" changeset="12417661">
    <nd ref="263688882"/>
    <nd ref="263688913"/>
    <nd ref="263688914"/>
    <tag k="highway" v="residential"/>
    <tag k="name" v="Wilson Street"/>
  </way>
</osm>
