<?xml version='1.0' encoding='UTF-8'?>
<osm version="0.6" generator="libosmium/2.20.0">
  <way id="24414228" version="4" timestamp="2009-12-20T11:02:54Z" uid="30201" user="rrankin" changeset="3412519">
    <nd ref="35826311"/>
    <nd ref="64620282"/>
    <nd ref="17990633"/>
    <nd ref="17990641"/>
    <nd ref="17990653"/>
    <nd ref="12050225"/>
    <tag k="highway" v="residential"/>
    <tag k="name" v="Australia Street"/>
  </way>
  <way id="24414228" version="5" timestamp="2010-07-07T22:11:38Z" uid="74617" user="JohnSmith" changeset="5161069">
    <nd ref="35826311"/>
    <nd ref="64620282"/>
    <nd ref="17990633"/>
    <nd ref="17990641"/>
    <nd ref="17990653"/>
    <nd ref="12050225"/>
    <tag k="highway" v="residential"/>
    <tag k="maxspeed" v="50"/>
    <tag k="maxspeed:source" v="default residential speed limit in Australia"/>
    <tag k="name" v="Australia Street"/>
  </way>
  <way id="24414228" version="6" timestamp="2012-01-16T09:24:23Z" uid="147510" user="woodpeck_fixbot" changeset="10406018">
    <nd ref="35826311"/>
    <nd ref="64620282"/>
    <nd ref="17990633"/>
    <nd ref="17990641"/>
    <nd ref="17990653"/>
    <nd ref="12050225"/>
    <tag k="highway" v="residential"/>
    <tag k="name" v="Australia Street"/>
  </way>
  <way id="24414326" version="7" timestamp="2009-09-04T21:21:21Z" uid="36809" user="pfoten_weg_!_" changeset="2374562">
    <nd ref="27277894"/>
    <nd ref="329357616"/>
    <nd ref="27277869"/>
    <nd ref="266621495"/>
    <tag k="highway" v="residential"/>
    <tag k="name" v="Schöttlstraße"/>
  </way>
  <way id="24414326" version="8" timestamp="2009-11-08T22:05:42Z" uid="168932" user="pappou" changeset="3069160">
    <nd ref="27277894"/>
    <nd ref="329357616"/>
    <nd ref="27277869"/>
    <nd ref="266621495"/>
    <tag k="highway" v="residential"/>
    <tag k="maxspeed" v="30"/>
    <tag k="name" v="Schöttlstraße"/>
  </way>
  <way id="24414326" version="9" timestamp="2010-03-28T16:26:19Z" uid="224490" user="Geo-Tobi" changeset="4258752">
    <nd ref="27277894"/>
    <nd ref="329357616"/>
    <nd ref="27277869"/>
    <tag k="highway" v="residential"/>
    <tag k="maxspeed" v="30"/>
    <tag k="name" v="Schöttlstraße"/>
    <tag k="noexit" v="YES"/>
  </way>
  <way id="24414326" version="10" timestamp="2010-04-14T11:10:23Z" uid="69628" user="vsandre" changeset="4421471">
    <nd ref="27277894"/>
    <nd ref="329357616"/>
    <nd ref="27277869"/>
    <tag k="highway" v="residential"/>
    <tag k="maxspeed" v="30"/>
    <tag k="name" v="Schöttlstraße"/>
    <tag k="noexit" v="yes"/>
  </way>
  <way id="24414349" version="2" timestamp="2009-01-02T11:41:04Z" uid="7617" user="Franc" changeset="711760">
    <nd ref="30677761"/>
    <nd ref="33681122"/>
    <nd ref="29496361"/>
    <nd ref="120753323"/>
    <nd ref="248614744"/>
    <nd ref="33681336"/>
    <nd ref="251851053"/>
    <tag k="created_by" v="Potlatch 0.9a"/>
    <tag k="highway" v="residential"/>
    <tag k="name" v="Canon Street"/>
    <tag k="source" v="survey"/>
  </way>
  <way id="24414349" version="3" timestamp="2010-01-24T15:03:07Z" uid="7617" user="Franc" changeset="3701870">
    <nd ref="30677761"/>
    <nd ref="619250309"/>
    <nd ref="33681122"/>
    <nd ref="29496361"/>
    <nd ref="120753323"/>
    <nd ref="248614744"/>
    <nd ref="33681336"/>
    <nd ref="251851053"/>
    <tag k="highway" v="residential"/>
    <tag k="name" v="Canon Street"/>
    <tag k="source" v="survey"/>
  </way>
  <way id="24414349" version="4" timestamp="2010-07-08T03:15:35Z" uid="74617" user="JohnSmith" changeset="5163091">
    <nd ref="30677761"/>
    <nd ref="619250309"/>
    <nd ref="33681122"/>
    <nd ref="29496361"/>
    <nd ref="120753323"/>
    <nd ref="248614744"/>
    <nd ref="33681336"/>
    <nd ref="251851053"/>
    <tag k="highway" v="residential"/>
    <tag k="maxspeed" v="50"/>
    <tag k="maxspeed:source" v="default residential speed limit in Australia"/>
    <tag k="name" v="Canon Street"/>
    <tag k="source" v="survey"/>
  </way>
  <way id="24414349" version="5" timestamp="2010-09-12T11:05:39Z" uid="7617" user="Franc" changeset="5758173">
    <nd ref="30677761"/>
    <nd ref="619250309"/>
    <nd ref="33681122"/>
    <nd ref="29496361"/>
    <nd ref="120753323"/>
    <nd ref="248614744"/>
    <nd ref="33681336"/>
    <nd ref="251851053"/>
    <tag k="highway" v="residential"/>
    <tag k="maxspeed" v="50"/>
    <tag k="maxspeed:source" v="default residential speed limit in Australia"/>
    <tag k="name" v="Cannon Street"/>
    <tag k="source" v="survey"/>
  </way>
  <way id="24414349" version="6" timestamp="2012-01-16T09:24:24Z" uid="147510" user="woodpeck_fixbot" changeset="10406018">
    <nd ref="30677761"/>
    <nd ref="619250309"/>
    <nd ref="33681122"/>
    <nd ref="29496361"/>
    <nd ref="120753323"/>
    <nd ref="248614744"/>
    <nd ref="33681336"/>
    <nd ref="251851053"/>
    <tag k="highway" v="residential"/>
    <tag k="name" v="Cannon Street"/>
    <tag k="source" v="survey"/>
  </way>
  <way id="24414352" version="3" timestamp="2009-01-02T11:41:02Z" uid="7617" user="Franc" changeset="711760">
    <nd ref="30677762"/>
    <nd ref="30677761"/>
    <tag k="created_by" v="Potlatch 0.9a"/>
    <tag k="highway" v="residential"/>
    <tag k="lcn_ref" v="L1"/>
    <tag k="name" v="Canon Street"/>
    <tag k="source" v="survey"/>
  </way>
  <way id="24414352" version="4" timestamp="2009-03-21T19:23:30Z" uid="20949" user="Ebenezer" changeset="839481">
    <nd ref="30677762"/>
    <nd ref="30677761"/>
    <tag k="created_by" v="Potlatch 0.10f"/>
    <tag k="highway" v="residential"/>
    <tag k="name" v="Canon Street"/>
    <tag k="source" v="survey"/>
  </way>
  <way id="24414352" version="5" timestamp="2010-07-08T03:14:11Z" uid="74617" user="JohnSmith" changeset="5163091">
    <nd ref="30677762"/>
    <nd ref="30677761"/>
    <tag k="highway" v="residential"/>
    <tag k="maxspeed" v="50"/>
    <tag k="maxspeed:source" v="default residential speed limit in Australia"/>
    <tag k="name" v="Canon Street"/>
    <tag k="source" v="survey"/>
  </way>
  <way id="24414352" version="6" timestamp="2010-09-12T11:05:37Z" uid="7617" user="Franc" changeset="5758173">
    <nd ref="30677762"/>
    <nd ref="30677761"/>
    <tag k="highway" v="residential"/>
    <tag k="maxspeed" v="50"/>
    <tag k="maxspeed:source" v="default residential speed limit in Australia"/>
    <tag k="name" v="Cannon Street"/>
    <tag k="source" v="survey"/>
  </way>
  <way id="24414352" version="7" timestamp="2012-01-16T09:24:26Z" uid="147510" user="woodpeck_fixbot" changeset="10406018">
    <nd ref="30677762"/>
    <nd ref="30677761"/>
    <tag k="highway" v="residential"/>
    <tag k="name" v="Cannon Street"/>
    <tag k="source" v="survey"/>
  </way>
  <way id="24414357" version="2" timestamp="2009-01-02T11:40:59Z" uid="7617" user="Franc" changeset="711760">
    <nd ref="33678181"/>
    <nd ref="30677760"/>
    <tag k="created_by" v="Potlatch 0.9a"/>
    <tag k="highway" v="residential"/>
    <tag k="name" v="Westbourne Street"/>
    <tag k="source" v="survey"/>
  </way>
  <way id="24414357" version="3" timestamp="2009-12-03T03:51:34Z" uid="30201" user="rrankin" changeset="3277722">
    <nd ref="33678181"/>
    <nd ref="579024937"/>
    <nd ref="579024940"/>
    <nd ref="30677760"/>
    <tag k="highway" v="residential"/>
    <tag k="name" v="Westbourne Street"/>
    <tag k="source" v="survey"/>
  </way>
  <way id="24414357" version="4" timestamp="2010-02-12T22:33:06Z" uid="7617" user="Franc" changeset="3860857">
    <nd ref="30677761"/>
    <nd ref="33681117"/>
    <nd ref="579024950"/>
    <nd ref="579024948"/>
    <nd ref="33678181"/>
    <nd ref="637827929"/>
    <tag k="highway" v="residential"/>
    <tag k="name" v="Westbourne Street"/>
    <tag k="source" v="survey"/>
  </way>
  <way id="24414357" version="5" timestamp="2010-07-08T03:14:36Z" uid="74617" user="JohnSmith" changeset="5163091">
    <nd ref="30677761"/>
    <nd ref="33681117"/>
    <nd ref="579024950"/>
    <nd ref="579024948"/>
    <nd ref="33678181"/>
    <nd ref="637827929"/>
    <tag k="highway" v="residential"/>
    <tag k="maxspeed" v="50"/>
    <tag k="maxspeed:source" v="default residential speed limit in Australia"/>
    <tag k="name" v="Westbourne Street"/>
    <tag k="source" v="survey"/>
  </way>
  <way id="24414357" version="6" timestamp="2012-01-16T09:24:27Z" uid="147510" user="woodpeck_fixbot" changeset="10406018">
    <nd ref="30677761"/>
    <nd ref="33681117"/>
    <nd ref="579024950"/>
    <nd ref="579024948"/>
    <nd ref="33678181"/>
    <nd ref="637827929"/>
    <tag k="highway" v="residential"/>
    <tag k="name" v="Westbourne Street"/>
    <tag k="source" v="survey"/>
  </way>
  <way id="24414359" version="4" timestamp="2010-02-12T22:33:08Z" uid="7617" user="Franc" changeset="3860857"/>
  <way id="24414414" version="1" timestamp="2008-05-17T09:30:32Z" uid="20949" user="Ebenezer" changeset="462885">
    <nd ref="33781813"/>
    <nd ref="33781814"/>
    <nd ref="29496387"/>
    <nd ref="52525534"/>
    <tag k="created_by" v="Potlatch 0.9a"/>
    <tag k="highway" v="residential"/>
    <tag k="name" v="Palace Street"/>
    <tag k="source" v="survey"/>
  </way>
  <way id="24414414" version="2" timestamp="2008-05-17T09:30:41Z" uid="20949" user="Ebenezer" changeset="462885">
    <nd ref="33781813"/>
    <nd ref="33781814"/>
    <nd ref="29496387"/>
    <nd ref="52525534"/>
    <tag k="created_by" v="Potlatch 0.9a"/>
    <tag k="highway" v="residential"/>
    <tag k="lcn_ref" v="L1"/>
    <tag k="name" v="Palace Street"/>
    <tag k="source" v="survey"/>
  </way>
  <way id="24414414" version="3" timestamp="2008-05-17T11:19:57Z" uid="20949" user="Ebenezer" changeset="466149">
    <nd ref="33781813"/>
    <nd ref="33781814"/>
    <tag k="created_by" v="Potlatch 0.9a"/>
    <tag k="highway" v="residential"/>
    <tag k="lcn_ref" v="L1"/>
    <tag k="name" v="Palace Street"/>
    <tag k="source" v="survey"/>
  </way>
  <way id="24414414" version="4" timestamp="2008-05-17T11:20:01Z" uid="20949" user="Ebenezer" changeset="466149">
    <nd ref="33781813"/>
    <nd ref="33781814"/>
    <tag k="created_by" v="Potlatch 0.9a"/>
    <tag k="highway" v="residential"/>
    <tag k="name" v="Palace Street"/>
    <tag k="source" v="survey"/>
  </way>
  <way id="24414414" version="5" timestamp="2008-05-19T06:31:22Z" uid="30201" user="rrankin" changeset="479870"/>
  <way id="24414666" version="14" timestamp="2010-08-03T05:45:35Z" uid="153031" user="ajoessen" changeset="5386838">
    <nd ref="265064607"/>
    <nd ref="265064608"/>
    <nd ref="265064609"/>
    <nd ref="265064610"/>
    <nd ref="265064611"/>
    <nd ref="674131859"/>
    <nd ref="674134612"/>
    <nd ref="536428034"/>
    <nd ref="536426709"/>
    <nd ref="536426730"/>
    <nd ref="536426731"/>
    <nd ref="536426733"/>
    <nd ref="536426735"/>
    <nd ref="536426736"/>
    <nd ref="536426738"/>
    <nd ref="536426739"/>
    <nd ref="536421351"/>
    <nd ref="536421357"/>
    <nd ref="536418802"/>
    <tag k="cables" v="12"/>
    <tag k="description" v="220kV/d Wambel Ost+?; 110kV/s Unna-Wambel+?"/>
    <tag k="frequency" v="50"/>
    <tag k="layer" v="4"/>
    <tag k="operator" v="RWE"/>
    <tag k="power" v="line"/>
    <tag k="ref" v="4330"/>
    <tag k="source" v="HiRes aerial imagery"/>
    <tag k="voltage" v="220000;110000"/>
    <tag k="wires" v="double;single"/>
  </way>
  <way id="24414666" version="15" timestamp="2010-08-04T17:44:15Z" uid="9581" user="Lobelt" changeset="5401263">
    <nd ref="265064607"/>
    <nd ref="265064608"/>
    <nd ref="265064609"/>
    <nd ref="265064610"/>
    <nd ref="265064611"/>
    <nd ref="674131859"/>
    <nd ref="674134612"/>
    <nd ref="536428034"/>
    <nd ref="536426709"/>
    <nd ref="536426730"/>
    <nd ref="536426731"/>
    <nd ref="536426733"/>
    <nd ref="536426735"/>
    <nd ref="536426736"/>
    <nd ref="536426738"/>
    <nd ref="536426739"/>
    <nd ref="536421351"/>
    <nd ref="536421357"/>
    <nd ref="536418802"/>
    <tag k="cables" v="12"/>
    <tag k="description" v="220kV/d Wambel Ost+?; 110kV/s Unna-Wambel+?"/>
    <tag k="frequency" v="50"/>
    <tag k="operator" v="RWE"/>
    <tag k="power" v="line"/>
    <tag k="ref" v="4330"/>
    <tag k="source" v="HiRes aerial imagery"/>
    <tag k="voltage" v="220000;110000"/>
    <tag k="wires" v="double;single"/>
  </way>
  <way id="24414666" version="16" timestamp="2011-07-25T05:47:52Z" uid="153031" user="ajoessen" changeset="8823114">
    <nd ref="265064607"/>
    <nd ref="265064608"/>
    <nd ref="265064609"/>
    <nd ref="265064610"/>
    <nd ref="265064611"/>
    <nd ref="674131859"/>
    <nd ref="674134612"/>
    <nd ref="536428034"/>
    <nd ref="536426709"/>
    <nd ref="536426730"/>
    <nd ref="536426731"/>
    <nd ref="536426733"/>
    <nd ref="536426735"/>
    <nd ref="536426736"/>
    <nd ref="536426738"/>
    <nd ref="536426739"/>
    <nd ref="536421351"/>
    <nd ref="536421357"/>
    <nd ref="536418802"/>
    <tag k="cables" v="12"/>
    <tag k="description" v="220kV/d Wambel Ost+West; 110kV/s Unna-Wambel+?"/>
    <tag k="frequency" v="50"/>
    <tag k="operator" v="RWE"/>
    <tag k="power" v="line"/>
    <tag k="ref" v="4330"/>
    <tag k="source" v="HiRes aerial imagery"/>
    <tag k="voltage" v="220000;110000"/>
    <tag k="wires" v="double;single"/>
  </way>
  <way id="24414697" version="5" timestamp="2008-07-07T02:34:43Z" uid="6975" user="ulfl" changeset="415781">
    <nd ref="265064833"/>
    <nd ref="265064834"/>
    <tag k="highway" v="living_street"/>
    <tag k="noexit" v="yes"/>
  </way>
  <way id="24414697" version="6" timestamp="2012-02-26T13:59:48Z" uid="379913" user="_sevbot" changeset="10798482">
    <nd ref="265064833"/>
    <nd ref="265064834"/>
    <tag k="highway" v="residential"/>
    <tag k="noexit" v="yes"/>
  </way>
  <way id="24414697" version="7" timestamp="2012-03-25T20:12:50Z" uid="575905" user="den13x" changeset="11099447">
    <nd ref="265064833"/>
    <nd ref="265064834"/>
    <tag k="highway" v="residential"/>
    <tag k="name:ru" v="Юных пионеров улица"/>
    <tag k="noexit" v="yes"/>
  </way>
  <way id="24414805" version="2" timestamp="2008-07-07T02:34:43Z" uid="6975" user="ulfl" changeset="415781">
    <nd ref="258605347"/>
    <nd ref="265065552"/>
    <nd ref="265065553"/>
    <nd ref="265065554"/>
    <nd ref="265065555"/>
    <tag k="highway" v="living_street"/>
    <tag k="noexit" v="yes"/>
  </way>
  <way id="24414805" version="3" timestamp="2012-02-26T14:00:39Z" uid="379913" user="_sevbot" changeset="10798482">
    <nd ref="258605347"/>
    <nd ref="265065552"/>
    <nd ref="265065553"/>
    <nd ref="265065554"/>
    <nd ref="265065555"/>
    <tag k="highway" v="residential"/>
    <tag k="noexit" v="yes"/>
  </way>
  <way id="24414835" version="4" timestamp="2011-01-15T23:43:12Z" uid="49111" user="Markus B" changeset="6983340">
    <nd ref="265054255"/>
    <nd ref="265065726"/>
    <nd ref="265065727"/>
    <nd ref="265065728"/>
    <nd ref="1105606823"/>
    <nd ref="265065731"/>
    <nd ref="265065732"/>
    <nd ref="265065733"/>
    <nd ref="1105607194"/>
    <nd ref="265065734"/>
    <nd ref="265065735"/>
    <nd ref="265065736"/>
    <nd ref="265065737"/>
    <nd ref="265065738"/>
    <nd ref="265065739"/>
    <nd ref="265065740"/>
    <nd ref="265065741"/>
    <nd ref="265071103"/>
    <nd ref="265071104"/>
    <nd ref="265071105"/>
    <nd ref="265071106"/>
    <nd ref="265071107"/>
    <nd ref="265071115"/>
    <tag k="highway" v="secondary"/>
    <tag k="oneway" v="yes"/>
  </way>
  <way id="24414835" version="5" timestamp="2011-01-16T01:59:38Z" uid="49111" user="Markus B" changeset="6983823">
    <nd ref="265054255"/>
    <nd ref="265065726"/>
    <nd ref="265065727"/>
    <nd ref="265065728"/>
    <nd ref="1105606823"/>
    <nd ref="265065731"/>
    <nd ref="265065732"/>
    <nd ref="265065733"/>
    <nd ref="1105607194"/>
    <nd ref="265065734"/>
    <nd ref="265065735"/>
    <nd ref="265065736"/>
    <nd ref="265065737"/>
    <nd ref="265065738"/>
    <nd ref="1105714207"/>
    <nd ref="265065739"/>
    <nd ref="265065740"/>
    <nd ref="265065741"/>
    <nd ref="1105714234"/>
    <nd ref="265071104"/>
    <nd ref="265071105"/>
    <nd ref="265071106"/>
    <nd ref="265071115"/>
    <tag k="highway" v="secondary"/>
    <tag k="oneway" v="yes"/>
  </way>
  <way id="24414837" version="5" timestamp="2011-01-15T23:42:49Z" uid="49111" user="Markus B" changeset="6983340">
    <nd ref="265071114"/>
    <nd ref="265071113"/>
    <nd ref="265071112"/>
    <nd ref="265071111"/>
    <nd ref="265071110"/>
    <nd ref="265071109"/>
    <nd ref="266530029"/>
    <nd ref="265071108"/>
    <nd ref="265065744"/>
    <nd ref="265065745"/>
    <nd ref="265065746"/>
    <nd ref="265065747"/>
    <nd ref="265065750"/>
    <nd ref="265065751"/>
    <nd ref="266530007"/>
    <nd ref="265065753"/>
    <nd ref="265065754"/>
    <nd ref="1105606641"/>
    <nd ref="265065755"/>
    <nd ref="265065756"/>
    <nd ref="265065757"/>
    <nd ref="265065760"/>
    <nd ref="265065761"/>
    <nd ref="265065762"/>
    <nd ref="265054257"/>
    <tag k="highway" v="secondary"/>
    <tag k="oneway" v="yes"/>
  </way>
  <way id="24414837" version="6" timestamp="2011-01-16T01:58:49Z" uid="49111" user="Markus B" changeset="6983823">
    <nd ref="265071114"/>
    <nd ref="265071112"/>
    <nd ref="265071111"/>
    <nd ref="265071110"/>
    <nd ref="266530029"/>
    <nd ref="1105713910"/>
    <nd ref="265065744"/>
    <nd ref="265065746"/>
    <nd ref="265065747"/>
    <nd ref="1105713475"/>
    <nd ref="265065750"/>
    <nd ref="265065751"/>
    <nd ref="266530007"/>
    <nd ref="265065753"/>
    <nd ref="265065754"/>
    <nd ref="1105606641"/>
    <nd ref="265065755"/>
    <nd ref="265065756"/>
    <nd ref="265065757"/>
    <nd ref="265065760"/>
    <nd ref="265065761"/>
    <nd ref="265065762"/>
    <nd ref="265054257"/>
    <tag k="highway" v="secondary"/>
    <tag k="oneway" v="yes"/>
  </way>
  <way id="24414837" version="7" timestamp="2012-02-04T15:11:12Z" uid="399714" user="miros mari" changeset="10585098">
    <nd ref="265071114"/>
    <nd ref="1617802975"/>
    <nd ref="265071112"/>
    <nd ref="265071111"/>
    <nd ref="265071110"/>
    <nd ref="266530029"/>
    <nd ref="1105713910"/>
    <nd ref="265065744"/>
    <nd ref="265065746"/>
    <nd ref="265065747"/>
    <nd ref="1105713475"/>
    <nd ref="265065750"/>
    <nd ref="265065751"/>
    <nd ref="266530007"/>
    <nd ref="265065753"/>
    <nd ref="265065754"/>
    <nd ref="1105606641"/>
    <nd ref="265065755"/>
    <nd ref="265065756"/>
    <nd ref="265065757"/>
    <nd ref="265065760"/>
    <nd ref="265065761"/>
    <nd ref="265065762"/>
    <nd ref="265054257"/>
    <tag k="highway" v="secondary"/>
    <tag k="oneway" v="yes"/>
  </way>
  <way id="24414228" version="7" timestamp="2012-07-10T12:34:04Z" uid="713671" user="auspod" changeset="12173105">
    <nd ref="35826311"/>
    <nd ref="1820241094"/>
    <nd ref="17990633"/>
    <nd ref="17990641"/>
    <nd ref="17990653"/>
    <nd ref="12050225"/>
    <tag k="highway" v="residential"/>
    <tag k="name" v="Australia Street"/>
  </way>
  <way id="24414228" version="8" timestamp="2012-07-24T01:51:28Z" uid="708295" user="numbfew" changeset="12459407">
    <nd ref="35826311"/>
    <nd ref="1820241094"/>
    <nd ref="17990633"/>
    <nd ref="17990641"/>
    <nd ref="17990653"/>
    <nd ref="12050225"/>
    <nd ref="17991809"/>
    <nd ref="17991810"/>
    <nd ref="15162368"/>
    <nd ref="17992098"/>
    <nd ref="17991819"/>
    <nd ref="17992088"/>
    <nd ref="17991821"/>
    <nd ref="15162363"/>
    <nd ref="17991822"/>
    <tag k="highway" v="residential"/>
    <tag k="name" v="Australia Street"/>
  </way>
  <way id="24414228" version="9" timestamp="2012-07-28T03:38:49Z" uid="674334" user="Seamus Lee" changeset="12518621">
    <nd ref="35826311"/>
    <nd ref="1820241094"/>
    <nd ref="17990633"/>
    <nd ref="17990641"/>
    <nd ref="17990653"/>
    <nd ref="12050225"/>
    <nd ref="17991809"/>
    <nd ref="17991810"/>
    <nd ref="15162368"/>
    <nd ref="17992098"/>
    <nd ref="17991819"/>
    <nd ref="17992088"/>
    <nd ref="17991821"/>
    <nd ref="15162363"/>
    <nd ref="17991822"/>
    <nd ref="1840731023"/>
    <nd ref="1840731024"/>
    <tag k="highway" v="residential"/>
    <tag k="name" v="Australia Street"/>
  </way>
  <way id="24414228" version="10" timestamp="2012-07-28T03:47:06Z" uid="674334" user="Seamus Lee" changeset="12518621">
    <nd ref="35826311"/>
    <nd ref="1820241094"/>
    <nd ref="17990633"/>
    <nd ref="17990641"/>
    <nd ref="17990653"/>
    <nd ref="12050225"/>
    <nd ref="17991809"/>
    <nd ref="17991810"/>
    <nd ref="15162368"/>
    <nd ref="17992098"/>
    <nd ref="17991819"/>
    <nd ref="17992088"/>
    <nd ref="17991821"/>
    <nd ref="15162363"/>
    <nd ref="17991822"/>
    <nd ref="1840731023"/>
    <tag k="highway" v="residential"/>
    <tag k="name" v="Australia Street"/>
  </way>
  <way id="24414228" version="11" timestamp="2012-07-28T16:07:00Z" uid="105255" user="Sven L" changeset="12524629">
    <nd ref="35826311"/>
    <nd ref="1820241094"/>
    <nd ref="17990633"/>
    <nd ref="17990641"/>
    <nd ref="17990653"/>
    <nd ref="12050225"/>
    <nd ref="1841534297"/>
    <nd ref="17991809"/>
    <nd ref="17991810"/>
    <nd ref="15162368"/>
    <nd ref="17992098"/>
    <nd ref="17991819"/>
    <nd ref="17992088"/>
    <nd ref="17991821"/>
    <nd ref="15162363"/>
    <nd ref="17991822"/>
    <nd ref="1840731023"/>
    <tag k="highway" v="residential"/>
    <tag k="name" v="Australia Street"/>
  </way>
  <way id="24414228" version="12" timestamp="2012-07-30T06:53:47Z" uid="410812" user="beardfear" changeset="12543785">
    <nd ref="35826311"/>
    <nd ref="1820241094"/>
    <nd ref="17990633"/>
    <nd ref="17990641"/>
    <nd ref="17990653"/>
    <nd ref="1841534297"/>
    <nd ref="1843539984"/>
    <nd ref="17991809"/>
    <nd ref="17991810"/>
    <nd ref="15162368"/>
    <nd ref="17992098"/>
    <nd ref="17991819"/>
    <nd ref="15162363"/>
    <nd ref="17991822"/>
    <nd ref="1840731023"/>
    <tag k="highway" v="residential"/>
    <tag k="name" v="Australia Street"/>
  </way>
  <way id="24414228" version="13" timestamp="2012-07-30T15:06:17Z" uid="410812" user="beardfear" changeset="12549311">
    <nd ref="35826311"/>
    <nd ref="1820241094"/>
    <nd ref="17990633"/>
    <nd ref="17990641"/>
    <nd ref="17990653"/>
    <nd ref="1841534297"/>
    <nd ref="1843539984"/>
    <nd ref="17991809"/>
    <nd ref="17991810"/>
    <nd ref="15162368"/>
    <nd ref="17992098"/>
    <nd ref="17991819"/>
    <nd ref="1844105105"/>
    <nd ref="15162363"/>
    <nd ref="17991822"/>
    <nd ref="1840731023"/>
    <tag k="highway" v="residential"/>
    <tag k="name" v="Australia Street"/>
  </way>
  <way id="24414349" version="7" timestamp="2012-06-24T07:12:46Z" uid="20949" user="Ebenezer" changeset="11996240">
    <nd ref="1800204353"/>
    <nd ref="619250309"/>
    <nd ref="33681122"/>
    <nd ref="29496361"/>
    <nd ref="120753323"/>
    <nd ref="248614744"/>
    <nd ref="33681336"/>
    <nd ref="251851053"/>
    <tag k="highway" v="residential"/>
    <tag k="name" v="Cannon Street"/>
    <tag k="source" v="survey"/>
  </way>
  <way id="24414349" version="8" timestamp="2012-07-01T06:00:33Z" uid="20949" user="Ebenezer" changeset="12072121">
    <nd ref="1800204353"/>
    <nd ref="619250309"/>
    <nd ref="33681122"/>
    <nd ref="29496361"/>
    <nd ref="120753323"/>
    <nd ref="248614744"/>
    <nd ref="33681336"/>
    <nd ref="1808418307"/>
    <tag k="highway" v="residential"/>
    <tag k="name" v="Cannon Street"/>
    <tag k="source" v="survey"/>
  </way>
  <way id="24414349" version="9" timestamp="2012-07-10T08:56:13Z" uid="713671" user="auspod" changeset="12170744">
    <nd ref="1800204353"/>
    <nd ref="1819916192"/>
    <nd ref="1819916171"/>
    <nd ref="1819916108"/>
    <nd ref="1819916203"/>
    <nd ref="1819916155"/>
    <nd ref="1819916160"/>
    <nd ref="1808418307"/>
    <tag k="highway" v="residential"/>
    <tag k="name" v="Cannon Street"/>
    <tag k="source" v="survey"/>
  </way>
  <way id="24414349" version="10" timestamp="2012-07-20T02:45:25Z" uid="722137" user="OSMF Redaction Account" changeset="12358569">
    <nd ref="1800204353"/>
    <nd ref="1819916192"/>
    <nd ref="1819916171"/>
    <nd ref="1819916108"/>
    <nd ref="1819916203"/>
    <nd ref="1819916155"/>
    <nd ref="1819916160"/>
    <nd ref="1808418307"/>
    <tag k="highway" v="residential"/>
    <tag k="name" v="Cannon Street"/>
  </way>
  <way id="24414349" version="11" timestamp="2012-07-31T01:54:00Z" uid="410812" user="beardfear" changeset="12555880">
    <nd ref="1800204353"/>
    <nd ref="1819916192"/>
    <nd ref="1819916171"/>
    <nd ref="1819916108"/>
    <nd ref="1819916203"/>
    <nd ref="1844811720"/>
    <nd ref="1819916160"/>
    <nd ref="1808418307"/>
    <tag k="highway" v="residential"/>
    <tag k="name" v="Cannon Street"/>
  </way>
  <way id="24414352" version="8" timestamp="2012-06-24T07:12:50Z" uid="20949" user="Ebenezer" changeset="11996240"/>
  <way id="24414357" version="7" timestamp="2012-06-16T23:39:15Z" uid="20949" user="Ebenezer" changeset="11920387">
    <nd ref="30677761"/>
    <nd ref="33681117"/>
    <nd ref="579024950"/>
    <nd ref="579024948"/>
    <nd ref="33678181"/>
    <nd ref="1790748033"/>
    <tag k="highway" v="residential"/>
    <tag k="name" v="Westbourne Street"/>
    <tag k="source" v="survey"/>
  </way>
  <way id="24414357" version="8" timestamp="2012-06-24T07:12:50Z" uid="20949" user="Ebenezer" changeset="11996240"/>
  <way id="24414697" version="9" timestamp="2012-07-22T23:37:50Z" uid="204049" user="olehz" changeset="12442141">
    <nd ref="265064833"/>
    <nd ref="1700001209"/>
    <nd ref="265064834"/>
    <tag k="highway" v="residential"/>
    <tag k="name" v="Юних Піонерів вулиця"/>
    <tag k="name:ru" v="Юных пионеров улица"/>
    <tag k="name:uk" v="Юних Піонерів вулиця"/>
    <tag k="noexit" v="yes"/>
  </way>
  <way id="24414697" version="10" timestamp="2012-08-27T22:18:07Z" uid="379913" user="_sevbot" changeset="12885060">
    <nd ref="265064833"/>
    <nd ref="1700001209"/>
    <nd ref="265064834"/>
    <tag k="highway" v="residential"/>
    <tag k="name" v="Юних Піонерів вулиця"/>
    <tag k="name:en" v="Yunykh Pioneriv Street"/>
    <tag k="name:ru" v="Юных пионеров улица"/>
    <tag k="name:uk" v="Юних Піонерів вулиця"/>
    <tag k="noexit" v="yes"/>
  </way>
  <way id="24414805" version="4" timestamp="2012-04-30T20:52:02Z" uid="575905" user="den13x" changeset="11464469">
    <nd ref="258605347"/>
    <nd ref="265065552"/>
    <nd ref="265065553"/>
    <nd ref="265065554"/>
    <nd ref="265065555"/>
    <tag k="highway" v="residential"/>
    <tag k="name" v="Коротка вулиця"/>
    <tag k="name:en" v="Korotka Street"/>
    <tag k="name:ru" v="Короткая улица"/>
    <tag k="name:uk" v="Коротка вулиця"/>
    <tag k="noexit" v="yes"/>
  </way>
  <way id="24414837" version="8" timestamp="2012-06-26T12:41:52Z" uid="275821" user="Ramzes" changeset="12022138">
    <nd ref="265071114"/>
    <nd ref="265071112"/>
    <nd ref="265071111"/>
    <nd ref="265071110"/>
    <nd ref="266530029"/>
    <nd ref="1105713910"/>
    <nd ref="265065744"/>
    <nd ref="265065746"/>
    <nd ref="265065747"/>
    <nd ref="1105713475"/>
    <nd ref="265065750"/>
    <nd ref="265065751"/>
    <nd ref="266530007"/>
    <nd ref="265065753"/>
    <nd ref="265065754"/>
    <nd ref="1105606641"/>
    <nd ref="265065755"/>
    <nd ref="265065756"/>
    <nd ref="265065757"/>
    <nd ref="265065760"/>
    <nd ref="265065761"/>
    <nd ref="265065762"/>
    <nd ref="265054257"/>
    <tag k="highway" v="secondary"/>
    <tag k="oneway" v="yes"/>
  </way>
</osm>
