<?xml version='1.0' encoding='UTF-8'?>
<osm version="0.6" generator="libosmium/2.20.0">
  <way id="24802025" version="1" timestamp="2008-06-10T05:04:32Z" uid="40373" user="Daguru" changeset="116673">
    <nd ref="269461456"/>
    <nd ref="269461459"/>
    <tag k="bridge" v="yes"/>
    <tag k="created_by" v="JOSM"/>
    <tag k="highway" v="secondary"/>
    <tag k="layer" v="1"/>
    <tag k="name" v="Flaesheimer Damm"/>
  </way>
  <way id="24802025" version="2" timestamp="2008-08-24T16:00:45Z" uid="59339" user="rapp" changeset="395603">
    <nd ref="269461456"/>
    <nd ref="269461459"/>
    <tag k="bridge" v="yes"/>
    <tag k="created_by" v="JOSM"/>
    <tag k="highway" v="secondary"/>
    <tag k="layer" v="1"/>
    <tag k="name" v="Flaesheimer Damm"/>
    <tag k="ref" v="L652"/>
  </way>
  <way id="24802025" version="3" timestamp="2008-09-16T16:21:40Z" uid="31059" user="DaBear" changeset="647556">
    <nd ref="269461456"/>
    <nd ref="269461459"/>
    <tag k="bridge" v="yes"/>
    <tag k="created_by" v="JOSM"/>
    <tag k="highway" v="secondary"/>
    <tag k="layer" v="1"/>
    <tag k="name" v="Flaesheimer Damm"/>
    <tag k="ref" v="L 652"/>
  </way>
  <way id="24802025" version="4" timestamp="2008-11-09T11:31:16Z" uid="77522" user="tante ju" changeset="722815">
    <nd ref="269461456"/>
    <nd ref="269461459"/>
    <tag k="bridge" v="yes"/>
    <tag k="created_by" v="JOSM"/>
    <tag k="highway" v="secondary"/>
    <tag k="layer" v="1"/>
    <tag k="name" v="Flaesheimer Damm"/>
    <tag k="postal_code" v="45721"/>
    <tag k="ref" v="L 652"/>
  </way>
  <way id="24802025" version="5" timestamp="2009-11-01T09:30:49Z" uid="43972" user="chris66" changeset="3004359">
    <nd ref="269461456"/>
    <nd ref="269461459"/>
    <tag k="bridge" v="yes"/>
    <tag k="highway" v="secondary"/>
    <tag k="layer" v="1"/>
    <tag k="maxspeed" v="70"/>
    <tag k="name" v="Flaesheimer Damm"/>
    <tag k="postal_code" v="45721"/>
    <tag k="ref" v="L 652"/>
  </way>
  <way id="24802025" version="6" timestamp="2012-02-06T09:36:02Z" uid="260151" user="morryis" changeset="10601272"/>
  <way id="24802026" version="1" timestamp="2008-06-10T05:04:33Z" uid="40373" user="Daguru" changeset="116673">
    <nd ref="269461459"/>
    <nd ref="34284292"/>
    <nd ref="34284289"/>
    <nd ref="34284287"/>
    <nd ref="34284284"/>
    <tag k="created_by" v="JOSM"/>
    <tag k="highway" v="secondary"/>
    <tag k="name" v="Flaesheimer Damm"/>
  </way>
  <way id="24802026" version="2" timestamp="2008-06-14T04:46:45Z" uid="40373" user="Daguru" changeset="155121">
    <nd ref="269461459"/>
    <nd ref="34284292"/>
    <nd ref="270219751"/>
    <nd ref="34284289"/>
    <nd ref="34284287"/>
    <nd ref="34284284"/>
    <tag k="created_by" v="JOSM"/>
    <tag k="highway" v="secondary"/>
    <tag k="name" v="Flaesheimer Damm"/>
  </way>
  <way id="24802026" version="3" timestamp="2008-06-15T04:36:57Z" uid="40373" user="Daguru" changeset="166919">
    <nd ref="269461459"/>
    <nd ref="34284292"/>
    <nd ref="270406119"/>
    <nd ref="270219751"/>
    <nd ref="34284289"/>
    <nd ref="34284287"/>
    <nd ref="34284284"/>
    <tag k="created_by" v="JOSM"/>
    <tag k="highway" v="secondary"/>
    <tag k="name" v="Flaesheimer Damm"/>
  </way>
  <way id="24802026" version="4" timestamp="2008-08-18T19:07:22Z" uid="59339" user="rapp" changeset="316543">
    <nd ref="269461459"/>
    <nd ref="34284292"/>
    <nd ref="270406119"/>
    <nd ref="270219751"/>
    <nd ref="34284289"/>
    <nd ref="34284287"/>
    <nd ref="34284284"/>
    <tag k="created_by" v="JOSM"/>
    <tag k="highway" v="secondary"/>
    <tag k="name" v="Flaesheimer Damm"/>
    <tag k="ref" v="L652"/>
  </way>
  <way id="24802026" version="5" timestamp="2008-08-24T15:52:18Z" uid="55467" user="beanmap" changeset="394995">
    <nd ref="269461459"/>
    <nd ref="34284292"/>
    <nd ref="270406119"/>
    <nd ref="270219751"/>
    <nd ref="34284289"/>
    <nd ref="34284287"/>
    <nd ref="290714260"/>
    <nd ref="34284284"/>
    <tag k="created_by" v="Potlatch 0.10b"/>
    <tag k="highway" v="secondary"/>
    <tag k="name" v="Flaesheimer Damm"/>
    <tag k="ref" v="L652"/>
  </way>
  <way id="24802026" version="6" timestamp="2008-08-24T15:59:16Z" uid="55467" user="beanmap" changeset="394995">
    <nd ref="269461459"/>
    <nd ref="34284292"/>
    <nd ref="270406119"/>
    <nd ref="270219751"/>
    <nd ref="34284289"/>
    <nd ref="34284287"/>
    <nd ref="290714260"/>
    <nd ref="34284284"/>
    <tag k="created_by" v="Potlatch 0.10b"/>
    <tag k="highway" v="secondary"/>
    <tag k="name" v="Flaesheimer Damm"/>
    <tag k="ref" v="L652"/>
  </way>
  <way id="24802026" version="7" timestamp="2008-08-24T16:00:08Z" uid="55467" user="beanmap" changeset="394995">
    <nd ref="269461459"/>
    <nd ref="34284292"/>
    <nd ref="270406119"/>
    <nd ref="270219751"/>
    <nd ref="290717440"/>
    <nd ref="34284289"/>
    <nd ref="34284287"/>
    <nd ref="290714260"/>
    <nd ref="34284284"/>
    <tag k="created_by" v="Potlatch 0.10b"/>
    <tag k="highway" v="secondary"/>
    <tag k="name" v="Flaesheimer Damm"/>
    <tag k="ref" v="L652"/>
  </way>
  <way id="24802026" version="8" timestamp="2008-08-31T16:31:23Z" uid="55467" user="beanmap" changeset="478985">
    <nd ref="269461459"/>
    <nd ref="34284292"/>
    <nd ref="270406119"/>
    <nd ref="270219751"/>
    <nd ref="290717440"/>
    <nd ref="34284289"/>
    <nd ref="34284287"/>
    <nd ref="292633949"/>
    <nd ref="290714260"/>
    <nd ref="34284284"/>
    <tag k="created_by" v="Potlatch 0.10b"/>
    <tag k="highway" v="secondary"/>
    <tag k="name" v="Flaesheimer Damm"/>
    <tag k="ref" v="L652"/>
  </way>
  <way id="24802026" version="9" timestamp="2008-09-16T16:21:39Z" uid="31059" user="DaBear" changeset="647556">
    <nd ref="269461459"/>
    <nd ref="34284292"/>
    <nd ref="270406119"/>
    <nd ref="270219751"/>
    <nd ref="290717440"/>
    <nd ref="34284289"/>
    <nd ref="34284287"/>
    <nd ref="292633949"/>
    <nd ref="290714260"/>
    <nd ref="34284284"/>
    <tag k="created_by" v="Potlatch 0.10b"/>
    <tag k="highway" v="secondary"/>
    <tag k="name" v="Flaesheimer Damm"/>
    <tag k="ref" v="L 652"/>
  </way>
  <way id="24802026" version="10" timestamp="2008-10-06T21:18:49Z" uid="45818" user="PeterDausSch" changeset="112728">
    <nd ref="269461459"/>
    <nd ref="302723218"/>
    <nd ref="34284292"/>
    <nd ref="270406119"/>
    <nd ref="270219751"/>
    <nd ref="290717440"/>
    <nd ref="34284289"/>
    <nd ref="34284287"/>
    <nd ref="292633949"/>
    <nd ref="290714260"/>
    <nd ref="34284284"/>
    <tag k="created_by" v="Potlatch 0.10d"/>
    <tag k="highway" v="secondary"/>
    <tag k="name" v="Flaesheimer Damm"/>
    <tag k="ref" v="L 652"/>
  </way>
  <way id="24802026" version="11" timestamp="2008-11-09T11:31:16Z" uid="77522" user="tante ju" changeset="722815">
    <nd ref="269461459"/>
    <nd ref="302723218"/>
    <nd ref="34284292"/>
    <nd ref="270406119"/>
    <nd ref="270219751"/>
    <nd ref="290717440"/>
    <nd ref="34284289"/>
    <nd ref="34284287"/>
    <nd ref="292633949"/>
    <nd ref="290714260"/>
    <nd ref="34284284"/>
    <tag k="created_by" v="Potlatch 0.10d"/>
    <tag k="highway" v="secondary"/>
    <tag k="name" v="Flaesheimer Damm"/>
    <tag k="postal_code" v="45721"/>
    <tag k="ref" v="L 652"/>
  </way>
  <way id="24802026" version="12" timestamp="2008-11-30T20:25:47Z" uid="77522" user="tante ju" changeset="816623">
    <nd ref="269461459"/>
    <nd ref="302723218"/>
    <nd ref="34284292"/>
    <nd ref="270406119"/>
    <nd ref="270219751"/>
    <nd ref="290717440"/>
    <nd ref="34284289"/>
    <nd ref="34284287"/>
    <nd ref="292633949"/>
    <nd ref="290714260"/>
    <nd ref="315911700"/>
    <nd ref="34284284"/>
    <tag k="created_by" v="Potlatch 0.10d"/>
    <tag k="highway" v="secondary"/>
    <tag k="name" v="Flaesheimer Damm"/>
    <tag k="postal_code" v="45721"/>
    <tag k="ref" v="L 652"/>
  </way>
  <way id="24802026" version="13" timestamp="2009-01-24T09:24:10Z" uid="43972" user="chris66" changeset="830088">
    <nd ref="269461459"/>
    <nd ref="302723218"/>
    <nd ref="335860744"/>
    <nd ref="34284292"/>
    <nd ref="270406119"/>
    <nd ref="270219751"/>
    <nd ref="290717440"/>
    <nd ref="34284289"/>
    <nd ref="34284287"/>
    <nd ref="292633949"/>
    <nd ref="290714260"/>
    <nd ref="315911700"/>
    <nd ref="34284284"/>
    <tag k="created_by" v="Potlatch 0.10d"/>
    <tag k="highway" v="secondary"/>
    <tag k="name" v="Flaesheimer Damm"/>
    <tag k="postal_code" v="45721"/>
    <tag k="ref" v="L 652"/>
  </way>
  <way id="24802026" version="14" timestamp="2009-01-27T13:59:07Z" uid="43972" user="chris66" changeset="843447">
    <nd ref="269461459"/>
    <nd ref="302723218"/>
    <nd ref="335860744"/>
    <nd ref="338328891"/>
    <nd ref="34284292"/>
    <nd ref="270406119"/>
    <nd ref="270219751"/>
    <nd ref="290717440"/>
    <nd ref="34284289"/>
    <nd ref="34284287"/>
    <nd ref="292633949"/>
    <nd ref="290714260"/>
    <nd ref="315911700"/>
    <nd ref="34284284"/>
    <tag k="created_by" v="Potlatch 0.10d"/>
    <tag k="highway" v="secondary"/>
    <tag k="name" v="Flaesheimer Damm"/>
    <tag k="postal_code" v="45721"/>
    <tag k="ref" v="L 652"/>
  </way>
  <way id="24802026" version="15" timestamp="2009-09-08T10:12:24Z" uid="43972" user="chris66" changeset="2412392">
    <nd ref="269461459"/>
    <nd ref="302723218"/>
    <nd ref="335860744"/>
    <nd ref="338328891"/>
    <nd ref="34284292"/>
    <nd ref="270406119"/>
    <nd ref="270219751"/>
    <nd ref="290717440"/>
    <nd ref="34284289"/>
    <nd ref="34284287"/>
    <nd ref="292633949"/>
    <nd ref="290714260"/>
    <nd ref="315911700"/>
    <nd ref="34284284"/>
    <tag k="highway" v="secondary"/>
    <tag k="name" v="Flaesheimer Damm"/>
    <tag k="postal_code" v="45721"/>
    <tag k="ref" v="L 652"/>
  </way>
  <way id="24802026" version="16" timestamp="2009-09-08T19:29:39Z" uid="43972" user="chris66" changeset="2418337">
    <nd ref="269461459"/>
    <nd ref="302723218"/>
    <nd ref="335860744"/>
    <nd ref="338328891"/>
    <nd ref="34284292"/>
    <nd ref="270406119"/>
    <nd ref="490067124"/>
    <tag k="highway" v="secondary"/>
    <tag k="maxspeed" v="70"/>
    <tag k="name" v="Flaesheimer Damm"/>
    <tag k="postal_code" v="45721"/>
    <tag k="ref" v="L 652"/>
  </way>
  <way id="24802026" version="17" timestamp="2010-05-18T06:15:26Z" uid="153031" user="ajoessen" changeset="4735599">
    <nd ref="269461459"/>
    <nd ref="738208831"/>
    <nd ref="302723218"/>
    <nd ref="338328891"/>
    <nd ref="34284292"/>
    <nd ref="270406119"/>
    <nd ref="490067124"/>
    <tag k="highway" v="secondary"/>
    <tag k="maxspeed" v="70"/>
    <tag k="name" v="Flaesheimer Damm"/>
    <tag k="postal_code" v="45721"/>
    <tag k="ref" v="L 652"/>
  </way>
  <way id="24802026" version="18" timestamp="2012-02-06T09:36:03Z" uid="260151" user="morryis" changeset="10601272"/>
  <way id="24802027" version="1" timestamp="2008-06-10T05:04:33Z" uid="40373" user="Daguru" changeset="116673">
    <nd ref="269461462"/>
    <nd ref="269461465"/>
    <tag k="bridge" v="yes"/>
    <tag k="created_by" v="JOSM"/>
    <tag k="highway" v="secondary"/>
    <tag k="layer" v="1"/>
    <tag k="name" v="Flaesheimer Damm"/>
  </way>
  <way id="24802027" version="2" timestamp="2008-08-24T16:00:44Z" uid="59339" user="rapp" changeset="395603">
    <nd ref="269461462"/>
    <nd ref="269461465"/>
    <tag k="bridge" v="yes"/>
    <tag k="created_by" v="JOSM"/>
    <tag k="highway" v="secondary"/>
    <tag k="layer" v="1"/>
    <tag k="name" v="Flaesheimer Damm"/>
    <tag k="ref" v="L652"/>
  </way>
  <way id="24802027" version="3" timestamp="2008-09-16T16:21:39Z" uid="31059" user="DaBear" changeset="647556">
    <nd ref="269461462"/>
    <nd ref="269461465"/>
    <tag k="bridge" v="yes"/>
    <tag k="created_by" v="JOSM"/>
    <tag k="highway" v="secondary"/>
    <tag k="layer" v="1"/>
    <tag k="name" v="Flaesheimer Damm"/>
    <tag k="ref" v="L 652"/>
  </way>
  <way id="24802027" version="4" timestamp="2008-11-09T11:31:16Z" uid="77522" user="tante ju" changeset="722815">
    <nd ref="269461462"/>
    <nd ref="269461465"/>
    <tag k="bridge" v="yes"/>
    <tag k="created_by" v="JOSM"/>
    <tag k="highway" v="secondary"/>
    <tag k="layer" v="1"/>
    <tag k="name" v="Flaesheimer Damm"/>
    <tag k="postal_code" v="45721"/>
    <tag k="ref" v="L 652"/>
  </way>
  <way id="24802027" version="5" timestamp="2010-03-05T16:49:03Z" uid="43972" user="chris66" changeset="4042575">
    <nd ref="269461462"/>
    <nd ref="269461465"/>
    <tag k="bridge" v="yes"/>
    <tag k="highway" v="secondary"/>
    <tag k="layer" v="1"/>
    <tag k="maxspeed" v="70"/>
    <tag k="name" v="Flaesheimer Damm"/>
    <tag k="postal_code" v="45721"/>
    <tag k="ref" v="L 652"/>
  </way>
  <way id="24802027" version="6" timestamp="2012-02-06T09:36:03Z" uid="260151" user="morryis" changeset="10601272"/>
  <way id="24802028" version="1" timestamp="2008-06-10T05:04:33Z" uid="40373" user="Daguru" changeset="116673">
    <nd ref="269461465"/>
    <nd ref="269461456"/>
    <tag k="created_by" v="JOSM"/>
    <tag k="highway" v="secondary"/>
    <tag k="name" v="Flaesheimer Damm"/>
  </way>
  <way id="24802028" version="2" timestamp="2008-08-24T16:00:43Z" uid="59339" user="rapp" changeset="395603">
    <nd ref="269461465"/>
    <nd ref="269461456"/>
    <tag k="created_by" v="JOSM"/>
    <tag k="highway" v="secondary"/>
    <tag k="name" v="Flaesheimer Damm"/>
    <tag k="ref" v="L652"/>
  </way>
  <way id="24802028" version="3" timestamp="2008-09-16T16:21:38Z" uid="31059" user="DaBear" changeset="647556">
    <nd ref="269461465"/>
    <nd ref="269461456"/>
    <tag k="created_by" v="JOSM"/>
    <tag k="highway" v="secondary"/>
    <tag k="name" v="Flaesheimer Damm"/>
    <tag k="ref" v="L 652"/>
  </way>
  <way id="24802028" version="4" timestamp="2008-11-09T11:31:15Z" uid="77522" user="tante ju" changeset="722815">
    <nd ref="269461465"/>
    <nd ref="269461456"/>
    <tag k="created_by" v="JOSM"/>
    <tag k="highway" v="secondary"/>
    <tag k="name" v="Flaesheimer Damm"/>
    <tag k="postal_code" v="45721"/>
    <tag k="ref" v="L 652"/>
  </way>
  <way id="24802028" version="5" timestamp="2009-01-02T19:50:11Z" uid="77522" user="tante ju" changeset="710764">
    <nd ref="269461465"/>
    <nd ref="324731905"/>
    <nd ref="269461456"/>
    <tag k="created_by" v="JOSM"/>
    <tag k="highway" v="secondary"/>
    <tag k="name" v="Flaesheimer Damm"/>
    <tag k="postal_code" v="45721"/>
    <tag k="ref" v="L 652"/>
  </way>
  <way id="24802028" version="6" timestamp="2009-11-01T09:30:49Z" uid="43972" user="chris66" changeset="3004359">
    <nd ref="269461465"/>
    <nd ref="324731905"/>
    <nd ref="269461456"/>
    <tag k="highway" v="secondary"/>
    <tag k="maxspeed" v="70"/>
    <tag k="name" v="Flaesheimer Damm"/>
    <tag k="postal_code" v="45721"/>
    <tag k="ref" v="L 652"/>
  </way>
  <way id="24802028" version="7" timestamp="2012-02-06T09:36:03Z" uid="260151" user="morryis" changeset="10601272"/>
  <way id="24802029" version="1" timestamp="2008-06-10T05:04:33Z" uid="40373" user="Daguru" changeset="116673">
    <nd ref="34284327"/>
    <nd ref="269461468"/>
    <tag k="bridge" v="yes"/>
    <tag k="created_by" v="JOSM"/>
    <tag k="highway" v="secondary"/>
    <tag k="layer" v="1"/>
    <tag k="name" v="Flaesheimer Straße"/>
  </way>
  <way id="24802029" version="2" timestamp="2008-08-25T11:28:37Z" uid="59339" user="rapp" changeset="397753">
    <nd ref="34284327"/>
    <nd ref="269461468"/>
    <tag k="bridge" v="yes"/>
    <tag k="created_by" v="JOSM"/>
    <tag k="highway" v="secondary"/>
    <tag k="layer" v="1"/>
    <tag k="name" v="Flaesheimer Straße"/>
    <tag k="ref" v="L 609"/>
  </way>
  <way id="24802030" version="1" timestamp="2008-06-10T05:04:34Z" uid="40373" user="Daguru" changeset="116673">
    <nd ref="269461468"/>
    <nd ref="34284330"/>
    <nd ref="34284332"/>
    <nd ref="34284335"/>
    <nd ref="34284338"/>
    <nd ref="34284340"/>
    <nd ref="34284344"/>
    <nd ref="34284346"/>
    <nd ref="34284349"/>
    <nd ref="34284353"/>
    <tag k="created_by" v="JOSM"/>
    <tag k="highway" v="secondary"/>
    <tag k="name" v="Flaesheimer Straße"/>
  </way>
  <way id="24802030" version="2" timestamp="2008-08-25T11:28:26Z" uid="59339" user="rapp" changeset="397753">
    <nd ref="269461468"/>
    <nd ref="34284330"/>
    <nd ref="34284332"/>
    <nd ref="34284335"/>
    <nd ref="34284338"/>
    <nd ref="34284340"/>
    <nd ref="34284344"/>
    <nd ref="34284346"/>
    <nd ref="34284349"/>
    <nd ref="34284353"/>
    <nd ref="251227916"/>
    <tag k="created_by" v="JOSM"/>
    <tag k="highway" v="secondary"/>
    <tag k="name" v="Flaesheimer Straße"/>
    <tag k="ref" v="L609"/>
  </way>
  <way id="24802030" version="3" timestamp="2008-09-16T16:21:38Z" uid="31059" user="DaBear" changeset="647556">
    <nd ref="269461468"/>
    <nd ref="34284330"/>
    <nd ref="34284332"/>
    <nd ref="34284335"/>
    <nd ref="34284338"/>
    <nd ref="34284340"/>
    <nd ref="34284344"/>
    <nd ref="34284346"/>
    <nd ref="34284349"/>
    <nd ref="34284353"/>
    <nd ref="251227916"/>
    <tag k="created_by" v="JOSM"/>
    <tag k="highway" v="secondary"/>
    <tag k="name" v="Flaesheimer Straße"/>
    <tag k="ref" v="L 609"/>
  </way>
  <way id="24802030" version="4" timestamp="2009-01-15T00:36:30Z" uid="77522" user="tante ju" changeset="792987">
    <nd ref="269461468"/>
    <nd ref="34284330"/>
    <nd ref="34284332"/>
    <nd ref="34284335"/>
    <nd ref="34284338"/>
    <nd ref="34284340"/>
    <nd ref="34284344"/>
    <nd ref="332146556"/>
    <nd ref="34284346"/>
    <nd ref="34284349"/>
    <nd ref="34284353"/>
    <nd ref="251227916"/>
    <tag k="created_by" v="JOSM"/>
    <tag k="highway" v="secondary"/>
    <tag k="name" v="Flaesheimer Straße"/>
    <tag k="postal_code" v="45721"/>
    <tag k="ref" v="L 609"/>
  </way>
  <way id="24802030" version="5" timestamp="2010-06-06T17:56:23Z" uid="43972" user="chris66" changeset="4920594">
    <nd ref="269461468"/>
    <nd ref="34284330"/>
    <nd ref="34284332"/>
    <nd ref="34284335"/>
    <nd ref="34284338"/>
    <nd ref="34284340"/>
    <nd ref="34284344"/>
    <nd ref="332146556"/>
    <nd ref="765941952"/>
    <nd ref="34284346"/>
    <nd ref="765941985"/>
    <nd ref="34284349"/>
    <nd ref="34284353"/>
    <nd ref="251227916"/>
    <tag k="highway" v="secondary"/>
    <tag k="name" v="Flaesheimer Straße"/>
    <tag k="postal_code" v="45721"/>
    <tag k="ref" v="L 609"/>
  </way>
  <way id="24802032" version="4" timestamp="2010-03-27T23:41:37Z" uid="20587" user="balrog-kun" changeset="4250871">
    <nd ref="14941346"/>
    <nd ref="269461498"/>
    <tag k="bridge" v="yes"/>
    <tag k="created_by" v="Potlatch 0.10f"/>
    <tag k="highway" v="primary"/>
    <tag k="layer" v="1"/>
    <tag k="name" v="Mission Road"/>
  </way>
  <way id="24802043" version="4" timestamp="2010-03-27T23:41:37Z" uid="20587" user="balrog-kun" changeset="4250871">
    <nd ref="18882222"/>
    <nd ref="269461616"/>
    <nd ref="269461617"/>
    <nd ref="269461618"/>
    <nd ref="269461619"/>
    <nd ref="269461620"/>
    <nd ref="269461621"/>
    <nd ref="269461622"/>
    <nd ref="269461623"/>
    <nd ref="269461624"/>
    <nd ref="269461625"/>
    <nd ref="269461626"/>
    <nd ref="269461590"/>
    <tag k="created_by" v="Potlatch 0.10f"/>
    <tag k="highway" v="secondary"/>
    <tag k="name" v="Valley Boulevard"/>
    <tag k="oneway" v="yes"/>
  </way>
  <way id="24802043" version="5" timestamp="2010-05-10T19:02:58Z" uid="36489" user="jerjozwik" changeset="4662337">
    <nd ref="18882222"/>
    <nd ref="269461616"/>
    <nd ref="269461617"/>
    <nd ref="269461618"/>
    <nd ref="269461619"/>
    <nd ref="269461620"/>
    <nd ref="269461621"/>
    <nd ref="269461622"/>
    <nd ref="269461623"/>
    <nd ref="269461624"/>
    <nd ref="269461625"/>
    <nd ref="269461626"/>
    <nd ref="269461590"/>
    <tag k="highway" v="secondary"/>
    <tag k="name" v="Valley Boulevard"/>
    <tag k="oneway" v="yes"/>
  </way>
  <way id="24802049" version="6" timestamp="2010-03-27T23:41:38Z" uid="20587" user="balrog-kun" changeset="4250871">
    <nd ref="269461631"/>
    <nd ref="269461634"/>
    <nd ref="269461635"/>
    <nd ref="269461636"/>
    <nd ref="269461637"/>
    <nd ref="269461622"/>
    <tag k="created_by" v="Potlatch 0.10f"/>
    <tag k="highway" v="secondary"/>
    <tag k="name" v="Valley Boulevard"/>
    <tag k="oneway" v="yes"/>
  </way>
  <way id="24802053" version="5" timestamp="2010-03-27T23:41:38Z" uid="20587" user="balrog-kun" changeset="4250871">
    <nd ref="14943097"/>
    <nd ref="604238745"/>
    <nd ref="269461647"/>
    <nd ref="269461648"/>
    <nd ref="269461649"/>
    <nd ref="269461650"/>
    <nd ref="269461651"/>
    <nd ref="269461646"/>
    <nd ref="32274966"/>
    <nd ref="15717618"/>
    <nd ref="604238744"/>
    <nd ref="14941489"/>
    <tag k="highway" v="tertiary"/>
    <tag k="name" v="Eastlake Street"/>
  </way>
  <way id="24802062" version="4" timestamp="2010-03-27T23:41:38Z" uid="20587" user="balrog-kun" changeset="4250871">
    <nd ref="269462039"/>
    <nd ref="269462054"/>
    <nd ref="269462053"/>
    <tag k="highway" v="primary_link"/>
    <tag k="name" v="Valley Boulevard Access"/>
    <tag k="oneway" v="yes"/>
  </way>
  <way id="24802062" version="5" timestamp="2010-05-10T19:18:11Z" uid="36489" user="jerjozwik" changeset="4662337"/>
  <way id="24802160" version="7" timestamp="2009-08-08T14:50:22Z" uid="64977" user="CLoeser" changeset="2076434">
    <nd ref="269463312"/>
    <nd ref="269463313"/>
    <nd ref="321604600"/>
    <nd ref="269463314"/>
    <nd ref="321604597"/>
    <nd ref="281587361"/>
    <tag k="access" v="agricultural / forestry"/>
    <tag k="created_by" v="Potlatch 0.10b"/>
    <tag k="highway" v="track"/>
  </way>
  <way id="24802160" version="8" timestamp="2009-12-10T08:14:13Z" uid="55462" user="Lübeck" changeset="3339710">
    <nd ref="269463312"/>
    <nd ref="269463313"/>
    <nd ref="321604600"/>
    <nd ref="269463314"/>
    <nd ref="321604597"/>
    <nd ref="281587361"/>
    <tag k="access" v="agricultural"/>
    <tag k="highway" v="track"/>
  </way>
  <way id="24802160" version="9" timestamp="2010-04-25T20:36:47Z" uid="139978" user="albrechtstark" changeset="4526304">
    <nd ref="269463312"/>
    <nd ref="269463313"/>
    <nd ref="706697347"/>
    <nd ref="321604600"/>
    <nd ref="269463314"/>
    <nd ref="321604597"/>
    <nd ref="281587361"/>
    <tag k="access" v="agricultural"/>
    <tag k="highway" v="track"/>
  </way>
  <way id="24802161" version="7" timestamp="2010-06-22T06:10:24Z" uid="64977" user="CLoeser" changeset="5048500">
    <nd ref="281585417"/>
    <nd ref="281587721"/>
    <nd ref="281586821"/>
    <nd ref="281585419"/>
    <nd ref="281587723"/>
    <nd ref="281585421"/>
    <nd ref="281587724"/>
    <nd ref="269428362"/>
    <nd ref="269428363"/>
    <nd ref="269428364"/>
    <tag k="highway" v="track"/>
    <tag k="name" v="Obere Bachstraße"/>
    <tag k="postal_code" v="17509"/>
  </way>
  <way id="24802191" version="5" timestamp="2009-08-20T18:31:55Z" uid="64977" user="CLoeser" changeset="2215480">
    <nd ref="269462679"/>
    <nd ref="269463603"/>
    <nd ref="281604002"/>
    <nd ref="281604004"/>
    <nd ref="281604005"/>
    <nd ref="281604006"/>
    <nd ref="281604007"/>
    <nd ref="281604008"/>
    <nd ref="281604009"/>
    <nd ref="281604011"/>
    <tag k="created_by" v="Potlatch 0.10b"/>
    <tag k="highway" v="track"/>
    <tag k="surface" v="sand"/>
    <tag k="tracktype" v="grade5"/>
  </way>
  <way id="24802298" version="3" timestamp="2009-07-25T17:31:03Z" uid="74617" user="JohnSmith" changeset="1936615">
    <nd ref="269465221"/>
    <nd ref="269465222"/>
    <nd ref="269465223"/>
    <nd ref="269465224"/>
    <tag k="highway" v="residential"/>
    <tag k="maxspeed" v="50"/>
    <tag k="name" v="Palmgate Terrace"/>
    <tag k="source" v="survey"/>
    <tag k="surface" v="paved"/>
  </way>
  <way id="24802298" version="4" timestamp="2012-01-16T16:45:48Z" uid="147510" user="woodpeck_fixbot" changeset="10408721">
    <nd ref="269465221"/>
    <nd ref="269465222"/>
    <nd ref="269465223"/>
    <nd ref="269465224"/>
    <tag k="highway" v="residential"/>
    <tag k="name" v="Palmgate Terrace"/>
    <tag k="source" v="survey"/>
    <tag k="surface" v="paved"/>
  </way>
  <way id="24802299" version="3" timestamp="2009-07-25T17:31:03Z" uid="74617" user="JohnSmith" changeset="1936615">
    <nd ref="269465225"/>
    <nd ref="269465226"/>
    <nd ref="269465227"/>
    <nd ref="269465228"/>
    <nd ref="269465229"/>
    <tag k="highway" v="residential"/>
    <tag k="maxspeed" v="50"/>
    <tag k="name" v="Elenbrae Court"/>
    <tag k="source" v="survey"/>
    <tag k="surface" v="paved"/>
  </way>
  <way id="24802299" version="4" timestamp="2012-01-16T16:45:50Z" uid="147510" user="woodpeck_fixbot" changeset="10408721">
    <nd ref="269465225"/>
    <nd ref="269465226"/>
    <nd ref="269465227"/>
    <nd ref="269465228"/>
    <nd ref="269465229"/>
    <tag k="highway" v="residential"/>
    <tag k="name" v="Elenbrae Court"/>
    <tag k="source" v="survey"/>
    <tag k="surface" v="paved"/>
  </way>
  <way id="24802300" version="3" timestamp="2009-07-25T17:31:02Z" uid="74617" user="JohnSmith" changeset="1936615">
    <nd ref="60124627"/>
    <nd ref="269465230"/>
    <tag k="highway" v="residential"/>
    <tag k="maxspeed" v="50"/>
    <tag k="name" v="Themi Place"/>
    <tag k="source" v="survey"/>
    <tag k="surface" v="paved"/>
  </way>
  <way id="24802300" version="4" timestamp="2012-01-16T16:45:51Z" uid="147510" user="woodpeck_fixbot" changeset="10408721">
    <nd ref="60124627"/>
    <nd ref="269465230"/>
    <tag k="highway" v="residential"/>
    <tag k="name" v="Themi Place"/>
    <tag k="source" v="survey"/>
    <tag k="surface" v="paved"/>
  </way>
  <way id="24802301" version="4" timestamp="2009-07-25T17:31:03Z" uid="74617" user="JohnSmith" changeset="1936615">
    <nd ref="60124629"/>
    <nd ref="269465231"/>
    <nd ref="269465232"/>
    <tag k="highway" v="residential"/>
    <tag k="maxspeed" v="50"/>
    <tag k="name" v="Durack Place"/>
    <tag k="source" v="survey"/>
    <tag k="surface" v="paved"/>
  </way>
  <way id="24802301" version="5" timestamp="2012-01-16T16:45:53Z" uid="147510" user="woodpeck_fixbot" changeset="10408721">
    <nd ref="60124629"/>
    <nd ref="269465231"/>
    <nd ref="269465232"/>
    <tag k="highway" v="residential"/>
    <tag k="name" v="Durack Place"/>
    <tag k="source" v="survey"/>
    <tag k="surface" v="paved"/>
  </way>
  <way id="24802302" version="3" timestamp="2009-07-25T17:31:02Z" uid="74617" user="JohnSmith" changeset="1936615">
    <nd ref="60124633"/>
    <nd ref="269465233"/>
    <nd ref="269465234"/>
    <tag k="highway" v="residential"/>
    <tag k="maxspeed" v="50"/>
    <tag k="name" v="Cable Close"/>
    <tag k="source" v="survey"/>
    <tag k="surface" v="paved"/>
  </way>
  <way id="24802302" version="4" timestamp="2012-01-16T16:45:54Z" uid="147510" user="woodpeck_fixbot" changeset="10408721">
    <nd ref="60124633"/>
    <nd ref="269465233"/>
    <nd ref="269465234"/>
    <tag k="highway" v="residential"/>
    <tag k="name" v="Cable Close"/>
    <tag k="source" v="survey"/>
    <tag k="surface" v="paved"/>
  </way>
  <way id="24802304" version="4" timestamp="2009-07-25T17:31:03Z" uid="74617" user="JohnSmith" changeset="1936615">
    <nd ref="269465235"/>
    <nd ref="269465236"/>
    <nd ref="269465237"/>
    <nd ref="269465238"/>
    <tag k="highway" v="residential"/>
    <tag k="maxspeed" v="50"/>
    <tag k="name" v="Napier Place"/>
    <tag k="source" v="survey"/>
    <tag k="surface" v="paved"/>
  </way>
  <way id="24802304" version="5" timestamp="2012-01-16T16:45:56Z" uid="147510" user="woodpeck_fixbot" changeset="10408721">
    <nd ref="269465235"/>
    <nd ref="269465236"/>
    <nd ref="269465237"/>
    <nd ref="269465238"/>
    <tag k="highway" v="residential"/>
    <tag k="name" v="Napier Place"/>
    <tag k="source" v="survey"/>
    <tag k="surface" v="paved"/>
  </way>
  <way id="24802305" version="3" timestamp="2009-07-25T17:31:03Z" uid="74617" user="JohnSmith" changeset="1936615">
    <nd ref="269465239"/>
    <nd ref="269465247"/>
    <nd ref="269465248"/>
    <tag k="highway" v="residential"/>
    <tag k="maxspeed" v="50"/>
    <tag k="name" v="Emerald Court"/>
    <tag k="source" v="survey"/>
    <tag k="surface" v="paved"/>
  </way>
  <way id="24802305" version="4" timestamp="2012-01-16T16:45:57Z" uid="147510" user="woodpeck_fixbot" changeset="10408721">
    <nd ref="269465239"/>
    <nd ref="269465247"/>
    <nd ref="269465248"/>
    <tag k="highway" v="residential"/>
    <tag k="name" v="Emerald Court"/>
    <tag k="source" v="survey"/>
    <tag k="surface" v="paved"/>
  </way>
  <way id="24802306" version="4" timestamp="2009-07-25T17:31:02Z" uid="74617" user="JohnSmith" changeset="1936615">
    <nd ref="269465249"/>
    <nd ref="269465250"/>
    <nd ref="269465251"/>
    <tag k="highway" v="residential"/>
    <tag k="maxspeed" v="50"/>
    <tag k="name" v="Wyndham Court"/>
    <tag k="source" v="survey"/>
    <tag k="surface" v="paved"/>
  </way>
  <way id="24802306" version="5" timestamp="2012-01-16T16:45:59Z" uid="147510" user="woodpeck_fixbot" changeset="10408721">
    <nd ref="269465249"/>
    <nd ref="269465250"/>
    <nd ref="269465251"/>
    <tag k="highway" v="residential"/>
    <tag k="name" v="Wyndham Court"/>
    <tag k="source" v="survey"/>
    <tag k="surface" v="paved"/>
  </way>
  <way id="24802307" version="4" timestamp="2009-07-25T17:30:55Z" uid="74617" user="JohnSmith" changeset="1936615">
    <nd ref="269465255"/>
    <nd ref="269465257"/>
    <tag k="highway" v="residential"/>
    <tag k="maxspeed" v="50"/>
    <tag k="name" v="Dampier Close"/>
    <tag k="source" v="survey"/>
    <tag k="surface" v="paved"/>
  </way>
  <way id="24802307" version="5" timestamp="2012-01-16T16:46:01Z" uid="147510" user="woodpeck_fixbot" changeset="10408721">
    <nd ref="269465255"/>
    <nd ref="269465257"/>
    <tag k="highway" v="residential"/>
    <tag k="name" v="Dampier Close"/>
    <tag k="source" v="survey"/>
    <tag k="surface" v="paved"/>
  </way>
  <way id="24802308" version="4" timestamp="2009-07-25T17:31:02Z" uid="74617" user="JohnSmith" changeset="1936615">
    <nd ref="269465258"/>
    <nd ref="269465259"/>
    <nd ref="269465260"/>
    <tag k="highway" v="residential"/>
    <tag k="maxspeed" v="50"/>
    <tag k="name" v="Broome Terrace"/>
    <tag k="source" v="survey"/>
    <tag k="surface" v="paved"/>
  </way>
  <way id="24802308" version="5" timestamp="2012-01-16T16:46:03Z" uid="147510" user="woodpeck_fixbot" changeset="10408721">
    <nd ref="269465258"/>
    <nd ref="269465259"/>
    <nd ref="269465260"/>
    <tag k="highway" v="residential"/>
    <tag k="name" v="Broome Terrace"/>
    <tag k="source" v="survey"/>
    <tag k="surface" v="paved"/>
  </way>
  <way id="24802309" version="4" timestamp="2009-07-25T17:31:04Z" uid="74617" user="JohnSmith" changeset="1936615">
    <nd ref="269465259"/>
    <nd ref="269465261"/>
    <tag k="highway" v="residential"/>
    <tag k="maxspeed" v="50"/>
    <tag k="name" v="Roebuck Bay"/>
    <tag k="source" v="survey"/>
    <tag k="surface" v="paved"/>
  </way>
  <way id="24802309" version="5" timestamp="2012-01-16T16:46:05Z" uid="147510" user="woodpeck_fixbot" changeset="10408721">
    <nd ref="269465259"/>
    <nd ref="269465261"/>
    <tag k="highway" v="residential"/>
    <tag k="name" v="Roebuck Bay"/>
    <tag k="source" v="survey"/>
    <tag k="surface" v="paved"/>
  </way>
  <way id="24802310" version="4" timestamp="2009-07-25T17:30:56Z" uid="74617" user="JohnSmith" changeset="1936615">
    <nd ref="60124579"/>
    <nd ref="269465262"/>
    <nd ref="269465263"/>
    <nd ref="269465264"/>
    <nd ref="269465266"/>
    <nd ref="269465267"/>
    <tag k="highway" v="residential"/>
    <tag k="maxspeed" v="50"/>
    <tag k="name" v="Nugong Place"/>
    <tag k="source" v="survey"/>
    <tag k="surface" v="paved"/>
  </way>
  <way id="24802310" version="5" timestamp="2012-01-16T16:46:07Z" uid="147510" user="woodpeck_fixbot" changeset="10408721">
    <nd ref="60124579"/>
    <nd ref="269465262"/>
    <nd ref="269465263"/>
    <nd ref="269465264"/>
    <nd ref="269465266"/>
    <nd ref="269465267"/>
    <tag k="highway" v="residential"/>
    <tag k="name" v="Nugong Place"/>
    <tag k="source" v="survey"/>
    <tag k="surface" v="paved"/>
  </way>
  <way id="24802311" version="4" timestamp="2009-07-25T17:30:59Z" uid="74617" user="JohnSmith" changeset="1936615">
    <nd ref="269465266"/>
    <nd ref="269465268"/>
    <nd ref="269465269"/>
    <nd ref="269465270"/>
    <nd ref="269465271"/>
    <nd ref="269465272"/>
    <tag k="highway" v="residential"/>
    <tag k="maxspeed" v="50"/>
    <tag k="name" v="Parslow Court"/>
    <tag k="source" v="survey"/>
    <tag k="surface" v="paved"/>
  </way>
  <way id="24802311" version="5" timestamp="2012-01-16T16:46:08Z" uid="147510" user="woodpeck_fixbot" changeset="10408721">
    <nd ref="269465266"/>
    <nd ref="269465268"/>
    <nd ref="269465269"/>
    <nd ref="269465270"/>
    <nd ref="269465271"/>
    <nd ref="269465272"/>
    <tag k="highway" v="residential"/>
    <tag k="name" v="Parslow Court"/>
    <tag k="source" v="survey"/>
    <tag k="surface" v="paved"/>
  </way>
  <way id="24802313" version="4" timestamp="2009-07-25T17:30:55Z" uid="74617" user="JohnSmith" changeset="1936615">
    <nd ref="269465273"/>
    <nd ref="269465274"/>
    <nd ref="269465275"/>
    <nd ref="269465276"/>
    <nd ref="269465277"/>
    <tag k="highway" v="residential"/>
    <tag k="maxspeed" v="50"/>
    <tag k="name" v="Michelle Court"/>
    <tag k="source" v="survey"/>
    <tag k="surface" v="paved"/>
  </way>
  <way id="24802313" version="5" timestamp="2012-01-16T16:46:10Z" uid="147510" user="woodpeck_fixbot" changeset="10408721">
    <nd ref="269465273"/>
    <nd ref="269465274"/>
    <nd ref="269465275"/>
    <nd ref="269465276"/>
    <nd ref="269465277"/>
    <tag k="highway" v="residential"/>
    <tag k="name" v="Michelle Court"/>
    <tag k="source" v="survey"/>
    <tag k="surface" v="paved"/>
  </way>
  <way id="24802314" version="4" timestamp="2009-07-25T17:30:57Z" uid="74617" user="JohnSmith" changeset="1936615">
    <nd ref="60124576"/>
    <nd ref="269465278"/>
    <tag k="highway" v="residential"/>
    <tag k="maxspeed" v="50"/>
    <tag k="name" v="Claire Court"/>
    <tag k="source" v="survey"/>
    <tag k="surface" v="paved"/>
  </way>
  <way id="24802314" version="5" timestamp="2012-01-16T16:46:12Z" uid="147510" user="woodpeck_fixbot" changeset="10408721">
    <nd ref="60124576"/>
    <nd ref="269465278"/>
    <tag k="highway" v="residential"/>
    <tag k="name" v="Claire Court"/>
    <tag k="source" v="survey"/>
    <tag k="surface" v="paved"/>
  </way>
  <way id="24802315" version="4" timestamp="2009-07-25T17:31:02Z" uid="74617" user="JohnSmith" changeset="1936615">
    <nd ref="60124577"/>
    <nd ref="269465279"/>
    <nd ref="269465280"/>
    <tag k="highway" v="residential"/>
    <tag k="maxspeed" v="50"/>
    <tag k="name" v="Birregun Court"/>
    <tag k="source" v="survey"/>
    <tag k="surface" v="paved"/>
  </way>
  <way id="24802315" version="5" timestamp="2012-01-16T16:46:14Z" uid="147510" user="woodpeck_fixbot" changeset="10408721">
    <nd ref="60124577"/>
    <nd ref="269465279"/>
    <nd ref="269465280"/>
    <tag k="highway" v="residential"/>
    <tag k="name" v="Birregun Court"/>
    <tag k="source" v="survey"/>
    <tag k="surface" v="paved"/>
  </way>
  <way id="24802316" version="4" timestamp="2009-07-25T17:30:59Z" uid="74617" user="JohnSmith" changeset="1936615">
    <nd ref="60124575"/>
    <nd ref="269465281"/>
    <tag k="highway" v="residential"/>
    <tag k="maxspeed" v="50"/>
    <tag k="name" v="David Court"/>
    <tag k="source" v="survey"/>
    <tag k="surface" v="paved"/>
  </way>
  <way id="24802316" version="5" timestamp="2012-01-16T16:46:15Z" uid="147510" user="woodpeck_fixbot" changeset="10408721">
    <nd ref="60124575"/>
    <nd ref="269465281"/>
    <tag k="highway" v="residential"/>
    <tag k="name" v="David Court"/>
    <tag k="source" v="survey"/>
    <tag k="surface" v="paved"/>
  </way>
  <way id="24802317" version="4" timestamp="2009-07-25T17:30:58Z" uid="74617" user="JohnSmith" changeset="1936615">
    <nd ref="60124573"/>
    <nd ref="269465282"/>
    <nd ref="269465283"/>
    <nd ref="269465309"/>
    <nd ref="269465310"/>
    <nd ref="269465312"/>
    <tag k="highway" v="residential"/>
    <tag k="maxspeed" v="50"/>
    <tag k="name" v="Sandalwood Court"/>
    <tag k="source" v="survey"/>
    <tag k="surface" v="paved"/>
  </way>
  <way id="24802317" version="5" timestamp="2010-04-19T07:07:22Z" uid="4467" user="Rosscoe" changeset="4465305">
    <nd ref="701722496"/>
    <nd ref="269465282"/>
    <nd ref="269465283"/>
    <nd ref="269465309"/>
    <nd ref="269465310"/>
    <nd ref="269465312"/>
    <tag k="highway" v="residential"/>
    <tag k="maxspeed" v="50"/>
    <tag k="name" v="Sandalwood Court"/>
    <tag k="source" v="survey"/>
    <tag k="surface" v="paved"/>
  </way>
  <way id="24802317" version="6" timestamp="2012-01-16T16:46:19Z" uid="147510" user="woodpeck_fixbot" changeset="10408721">
    <nd ref="701722496"/>
    <nd ref="269465282"/>
    <nd ref="269465283"/>
    <nd ref="269465309"/>
    <nd ref="269465310"/>
    <nd ref="269465312"/>
    <tag k="highway" v="residential"/>
    <tag k="name" v="Sandalwood Court"/>
    <tag k="source" v="survey"/>
    <tag k="surface" v="paved"/>
  </way>
  <way id="24802318" version="4" timestamp="2009-07-25T17:31:00Z" uid="74617" user="JohnSmith" changeset="1936615">
    <nd ref="60124582"/>
    <nd ref="269465313"/>
    <nd ref="269465314"/>
    <tag k="highway" v="residential"/>
    <tag k="maxspeed" v="50"/>
    <tag k="name" v="Selma Court"/>
    <tag k="source" v="survey"/>
    <tag k="surface" v="paved"/>
  </way>
  <way id="24802318" version="5" timestamp="2012-01-16T16:46:21Z" uid="147510" user="woodpeck_fixbot" changeset="10408721">
    <nd ref="60124582"/>
    <nd ref="269465313"/>
    <nd ref="269465314"/>
    <tag k="highway" v="residential"/>
    <tag k="name" v="Selma Court"/>
    <tag k="source" v="survey"/>
    <tag k="surface" v="paved"/>
  </way>
  <way id="24802319" version="4" timestamp="2009-07-25T17:30:54Z" uid="74617" user="JohnSmith" changeset="1936615">
    <nd ref="60124583"/>
    <nd ref="269465315"/>
    <tag k="highway" v="residential"/>
    <tag k="maxspeed" v="50"/>
    <tag k="name" v="Everard Court"/>
    <tag k="source" v="survey"/>
    <tag k="surface" v="paved"/>
  </way>
  <way id="24802319" version="5" timestamp="2012-01-16T16:46:23Z" uid="147510" user="woodpeck_fixbot" changeset="10408721">
    <nd ref="60124583"/>
    <nd ref="269465315"/>
    <tag k="highway" v="residential"/>
    <tag k="name" v="Everard Court"/>
    <tag k="source" v="survey"/>
    <tag k="surface" v="paved"/>
  </way>
  <way id="24802320" version="4" timestamp="2009-07-25T17:31:00Z" uid="74617" user="JohnSmith" changeset="1936615">
    <nd ref="60124585"/>
    <nd ref="269465316"/>
    <nd ref="269465317"/>
    <tag k="highway" v="residential"/>
    <tag k="maxspeed" v="50"/>
    <tag k="name" v="Ellery Place"/>
    <tag k="source" v="survey"/>
    <tag k="surface" v="paved"/>
  </way>
  <way id="24802320" version="5" timestamp="2012-01-16T16:46:24Z" uid="147510" user="woodpeck_fixbot" changeset="10408721">
    <nd ref="60124585"/>
    <nd ref="269465316"/>
    <nd ref="269465317"/>
    <tag k="highway" v="residential"/>
    <tag k="name" v="Ellery Place"/>
    <tag k="source" v="survey"/>
    <tag k="surface" v="paved"/>
  </way>
  <way id="24802321" version="4" timestamp="2009-07-25T17:30:58Z" uid="74617" user="JohnSmith" changeset="1936615">
    <nd ref="60124586"/>
    <nd ref="269465318"/>
    <nd ref="269465319"/>
    <nd ref="269465320"/>
    <tag k="highway" v="residential"/>
    <tag k="maxspeed" v="50"/>
    <tag k="name" v="Alpine Close"/>
    <tag k="source" v="survey"/>
    <tag k="surface" v="paved"/>
  </way>
  <way id="24802321" version="5" timestamp="2012-01-16T16:46:27Z" uid="147510" user="woodpeck_fixbot" changeset="10408721">
    <nd ref="60124586"/>
    <nd ref="269465318"/>
    <nd ref="269465319"/>
    <nd ref="269465320"/>
    <tag k="highway" v="residential"/>
    <tag k="name" v="Alpine Close"/>
    <tag k="source" v="survey"/>
    <tag k="surface" v="paved"/>
  </way>
  <way id="24802322" version="4" timestamp="2009-07-25T17:30:56Z" uid="74617" user="JohnSmith" changeset="1936615">
    <nd ref="269465321"/>
    <nd ref="269465322"/>
    <nd ref="269465323"/>
    <nd ref="269465324"/>
    <tag k="highway" v="residential"/>
    <tag k="maxspeed" v="50"/>
    <tag k="name" v="Bendock Court"/>
    <tag k="source" v="survey"/>
    <tag k="surface" v="paved"/>
  </way>
  <way id="24802322" version="5" timestamp="2012-01-16T16:46:29Z" uid="147510" user="woodpeck_fixbot" changeset="10408721">
    <nd ref="269465321"/>
    <nd ref="269465322"/>
    <nd ref="269465323"/>
    <nd ref="269465324"/>
    <tag k="highway" v="residential"/>
    <tag k="name" v="Bendock Court"/>
    <tag k="source" v="survey"/>
    <tag k="surface" v="paved"/>
  </way>
  <way id="24802323" version="4" timestamp="2009-07-25T17:31:00Z" uid="74617" user="JohnSmith" changeset="1936615">
    <nd ref="60124587"/>
    <nd ref="269465325"/>
    <nd ref="269465330"/>
    <nd ref="269465331"/>
    <nd ref="269465332"/>
    <tag k="highway" v="residential"/>
    <tag k="maxspeed" v="50"/>
    <tag k="name" v="Selwyn Place"/>
    <tag k="source" v="survey"/>
    <tag k="surface" v="paved"/>
  </way>
  <way id="24802323" version="5" timestamp="2012-01-16T16:46:31Z" uid="147510" user="woodpeck_fixbot" changeset="10408721">
    <nd ref="60124587"/>
    <nd ref="269465325"/>
    <nd ref="269465330"/>
    <nd ref="269465331"/>
    <nd ref="269465332"/>
    <tag k="highway" v="residential"/>
    <tag k="name" v="Selwyn Place"/>
    <tag k="source" v="survey"/>
    <tag k="surface" v="paved"/>
  </way>
  <way id="24802324" version="4" timestamp="2009-07-25T17:30:58Z" uid="74617" user="JohnSmith" changeset="1936615">
    <nd ref="60124589"/>
    <nd ref="269465333"/>
    <nd ref="269465334"/>
    <nd ref="269465335"/>
    <tag k="highway" v="residential"/>
    <tag k="maxspeed" v="50"/>
    <tag k="name" v="Boola Court"/>
    <tag k="source" v="survey"/>
    <tag k="surface" v="paved"/>
  </way>
  <way id="24802324" version="5" timestamp="2012-01-16T16:46:33Z" uid="147510" user="woodpeck_fixbot" changeset="10408721">
    <nd ref="60124589"/>
    <nd ref="269465333"/>
    <nd ref="269465334"/>
    <nd ref="269465335"/>
    <tag k="highway" v="residential"/>
    <tag k="name" v="Boola Court"/>
    <tag k="source" v="survey"/>
    <tag k="surface" v="paved"/>
  </way>
  <way id="24802325" version="4" timestamp="2009-07-25T17:30:59Z" uid="74617" user="JohnSmith" changeset="1936615">
    <nd ref="60124588"/>
    <nd ref="269465336"/>
    <nd ref="269465337"/>
    <nd ref="269465338"/>
    <tag k="highway" v="residential"/>
    <tag k="maxspeed" v="50"/>
    <tag k="name" v="Walhalla Close"/>
    <tag k="source" v="survey"/>
    <tag k="surface" v="paved"/>
  </way>
  <way id="24802325" version="5" timestamp="2012-01-16T16:46:38Z" uid="147510" user="woodpeck_fixbot" changeset="10408721">
    <nd ref="60124588"/>
    <nd ref="269465336"/>
    <nd ref="269465337"/>
    <nd ref="269465338"/>
    <tag k="highway" v="residential"/>
    <tag k="name" v="Walhalla Close"/>
    <tag k="source" v="survey"/>
    <tag k="surface" v="paved"/>
  </way>
  <way id="24802326" version="4" timestamp="2009-07-25T17:31:00Z" uid="74617" user="JohnSmith" changeset="1936615">
    <nd ref="269465339"/>
    <nd ref="269465341"/>
    <tag k="highway" v="residential"/>
    <tag k="maxspeed" v="50"/>
    <tag k="name" v="Maryvale Court"/>
    <tag k="source" v="survey"/>
    <tag k="surface" v="paved"/>
  </way>
  <way id="24802326" version="5" timestamp="2012-01-16T16:46:39Z" uid="147510" user="woodpeck_fixbot" changeset="10408721">
    <nd ref="269465339"/>
    <nd ref="269465341"/>
    <tag k="highway" v="residential"/>
    <tag k="name" v="Maryvale Court"/>
    <tag k="source" v="survey"/>
    <tag k="surface" v="paved"/>
  </way>
  <way id="24802327" version="4" timestamp="2009-07-25T17:30:57Z" uid="74617" user="JohnSmith" changeset="1936615">
    <nd ref="269465347"/>
    <nd ref="269465348"/>
    <nd ref="269465399"/>
    <tag k="highway" v="residential"/>
    <tag k="maxspeed" v="50"/>
    <tag k="name" v="Buller Court"/>
    <tag k="source" v="survey"/>
    <tag k="surface" v="paved"/>
  </way>
  <way id="24802327" version="5" timestamp="2012-01-16T16:46:49Z" uid="147510" user="woodpeck_fixbot" changeset="10408721">
    <nd ref="269465347"/>
    <nd ref="269465348"/>
    <nd ref="269465399"/>
    <tag k="highway" v="residential"/>
    <tag k="name" v="Buller Court"/>
    <tag k="source" v="survey"/>
    <tag k="surface" v="paved"/>
  </way>
  <way id="24802328" version="4" timestamp="2009-07-25T17:31:00Z" uid="74617" user="JohnSmith" changeset="1936615">
    <nd ref="269465425"/>
    <nd ref="269465426"/>
    <tag k="highway" v="residential"/>
    <tag k="maxspeed" v="50"/>
    <tag k="name" v="Bindi Close"/>
    <tag k="source" v="survey"/>
    <tag k="surface" v="paved"/>
  </way>
  <way id="24802328" version="5" timestamp="2012-01-16T16:46:50Z" uid="147510" user="woodpeck_fixbot" changeset="10408721">
    <nd ref="269465425"/>
    <nd ref="269465426"/>
    <tag k="highway" v="residential"/>
    <tag k="name" v="Bindi Close"/>
    <tag k="source" v="survey"/>
    <tag k="surface" v="paved"/>
  </way>
  <way id="24802331" version="3" timestamp="2009-07-25T17:31:01Z" uid="74617" user="JohnSmith" changeset="1936615">
    <nd ref="269465430"/>
    <nd ref="269465431"/>
    <tag k="highway" v="residential"/>
    <tag k="maxspeed" v="50"/>
    <tag k="name" v="Hillcrest Court"/>
    <tag k="source" v="survey"/>
    <tag k="surface" v="paved"/>
  </way>
  <way id="24802331" version="4" timestamp="2012-01-16T16:46:51Z" uid="147510" user="woodpeck_fixbot" changeset="10408721">
    <nd ref="269465430"/>
    <nd ref="269465431"/>
    <tag k="highway" v="residential"/>
    <tag k="name" v="Hillcrest Court"/>
    <tag k="source" v="survey"/>
    <tag k="surface" v="paved"/>
  </way>
  <way id="24802332" version="4" timestamp="2009-07-25T17:30:59Z" uid="74617" user="JohnSmith" changeset="1936615">
    <nd ref="60124592"/>
    <nd ref="269465432"/>
    <nd ref="269465433"/>
    <nd ref="269465434"/>
    <tag k="highway" v="residential"/>
    <tag k="maxspeed" v="50"/>
    <tag k="name" v="Springfield Court"/>
    <tag k="source" v="survey"/>
    <tag k="surface" v="paved"/>
  </way>
  <way id="24802332" version="5" timestamp="2012-01-16T16:46:53Z" uid="147510" user="woodpeck_fixbot" changeset="10408721">
    <nd ref="60124592"/>
    <nd ref="269465432"/>
    <nd ref="269465433"/>
    <nd ref="269465434"/>
    <tag k="highway" v="residential"/>
    <tag k="name" v="Springfield Court"/>
    <tag k="source" v="survey"/>
    <tag k="surface" v="paved"/>
  </way>
  <way id="24802333" version="4" timestamp="2009-07-25T17:30:55Z" uid="74617" user="JohnSmith" changeset="1936615">
    <nd ref="60124591"/>
    <nd ref="269465435"/>
    <nd ref="269465436"/>
    <tag k="highway" v="residential"/>
    <tag k="maxspeed" v="50"/>
    <tag k="name" v="Merindah Court"/>
    <tag k="source" v="survey"/>
    <tag k="surface" v="paved"/>
  </way>
  <way id="24802333" version="5" timestamp="2012-01-16T16:46:55Z" uid="147510" user="woodpeck_fixbot" changeset="10408721">
    <nd ref="60124591"/>
    <nd ref="269465435"/>
    <nd ref="269465436"/>
    <tag k="highway" v="residential"/>
    <tag k="name" v="Merindah Court"/>
    <tag k="source" v="survey"/>
    <tag k="surface" v="paved"/>
  </way>
  <way id="24802334" version="4" timestamp="2009-07-25T17:31:00Z" uid="74617" user="JohnSmith" changeset="1936615">
    <nd ref="60124593"/>
    <nd ref="269465437"/>
    <nd ref="269465438"/>
    <nd ref="269465439"/>
    <tag k="highway" v="residential"/>
    <tag k="maxspeed" v="50"/>
    <tag k="name" v="Greendale Court"/>
    <tag k="source" v="survey"/>
    <tag k="surface" v="paved"/>
  </way>
  <way id="24802334" version="5" timestamp="2012-01-16T16:46:56Z" uid="147510" user="woodpeck_fixbot" changeset="10408721">
    <nd ref="60124593"/>
    <nd ref="269465437"/>
    <nd ref="269465438"/>
    <nd ref="269465439"/>
    <tag k="highway" v="residential"/>
    <tag k="name" v="Greendale Court"/>
    <tag k="source" v="survey"/>
    <tag k="surface" v="paved"/>
  </way>
  <way id="24802335" version="4" timestamp="2009-07-25T17:30:59Z" uid="74617" user="JohnSmith" changeset="1936615">
    <nd ref="60124597"/>
    <nd ref="269465440"/>
    <nd ref="269465441"/>
    <nd ref="269465442"/>
    <nd ref="269465443"/>
    <tag k="highway" v="residential"/>
    <tag k="maxspeed" v="50"/>
    <tag k="name" v="Farina Court"/>
    <tag k="source" v="survey"/>
    <tag k="surface" v="paved"/>
  </way>
  <way id="24802335" version="5" timestamp="2012-01-16T16:47:00Z" uid="147510" user="woodpeck_fixbot" changeset="10408721">
    <nd ref="60124597"/>
    <nd ref="269465440"/>
    <nd ref="269465441"/>
    <nd ref="269465442"/>
    <nd ref="269465443"/>
    <tag k="highway" v="residential"/>
    <tag k="name" v="Farina Court"/>
    <tag k="source" v="survey"/>
    <tag k="surface" v="paved"/>
  </way>
  <way id="24802336" version="4" timestamp="2009-07-25T17:30:58Z" uid="74617" user="JohnSmith" changeset="1936615">
    <nd ref="269465444"/>
    <nd ref="269465445"/>
    <nd ref="269465446"/>
    <tag k="highway" v="residential"/>
    <tag k="maxspeed" v="50"/>
    <tag k="name" v="Sunset Place"/>
    <tag k="source" v="survey"/>
    <tag k="surface" v="paved"/>
  </way>
  <way id="24802336" version="5" timestamp="2012-01-16T16:47:02Z" uid="147510" user="woodpeck_fixbot" changeset="10408721">
    <nd ref="269465444"/>
    <nd ref="269465445"/>
    <nd ref="269465446"/>
    <tag k="highway" v="residential"/>
    <tag k="name" v="Sunset Place"/>
    <tag k="source" v="survey"/>
    <tag k="surface" v="paved"/>
  </way>
  <way id="24802337" version="4" timestamp="2009-07-25T17:30:57Z" uid="74617" user="JohnSmith" changeset="1936615">
    <nd ref="269465447"/>
    <nd ref="269465448"/>
    <tag k="highway" v="residential"/>
    <tag k="maxspeed" v="50"/>
    <tag k="name" v="Cloverlea Court"/>
    <tag k="source" v="survey"/>
    <tag k="surface" v="paved"/>
  </way>
  <way id="24802337" version="5" timestamp="2012-01-16T16:47:06Z" uid="147510" user="woodpeck_fixbot" changeset="10408721">
    <nd ref="269465447"/>
    <nd ref="269465448"/>
    <tag k="highway" v="residential"/>
    <tag k="name" v="Cloverlea Court"/>
    <tag k="source" v="survey"/>
    <tag k="surface" v="paved"/>
  </way>
  <way id="24802338" version="4" timestamp="2009-07-25T17:30:57Z" uid="74617" user="JohnSmith" changeset="1936615">
    <nd ref="269465449"/>
    <nd ref="269465450"/>
    <tag k="highway" v="residential"/>
    <tag k="is_in" v="Traralgon"/>
    <tag k="maxspeed" v="50"/>
    <tag k="name" v="Greenvalley Court"/>
    <tag k="source" v="survey"/>
    <tag k="surface" v="paved"/>
  </way>
  <way id="24802338" version="5" timestamp="2012-01-16T16:47:08Z" uid="147510" user="woodpeck_fixbot" changeset="10408721">
    <nd ref="269465449"/>
    <nd ref="269465450"/>
    <tag k="highway" v="residential"/>
    <tag k="is_in" v="Traralgon"/>
    <tag k="name" v="Greenvalley Court"/>
    <tag k="source" v="survey"/>
    <tag k="surface" v="paved"/>
  </way>
  <way id="24802339" version="3" timestamp="2009-07-25T17:30:58Z" uid="74617" user="JohnSmith" changeset="1936615">
    <nd ref="269465451"/>
    <nd ref="269465452"/>
    <tag k="highway" v="residential"/>
    <tag k="is_in" v="Traralgon"/>
    <tag k="maxspeed" v="50"/>
    <tag k="name" v="Catherine Court"/>
    <tag k="source" v="survey"/>
    <tag k="surface" v="paved"/>
  </way>
  <way id="24802339" version="4" timestamp="2010-12-02T01:18:43Z" uid="218559" user="Rob Preston" changeset="6510561">
    <nd ref="269465451"/>
    <nd ref="1015296632"/>
    <nd ref="269465452"/>
    <tag k="highway" v="residential"/>
    <tag k="is_in" v="Traralgon"/>
    <tag k="maxspeed" v="50"/>
    <tag k="name" v="Catherine Court"/>
    <tag k="source" v="survey"/>
    <tag k="surface" v="paved"/>
  </way>
  <way id="24802339" version="5" timestamp="2012-01-16T16:47:10Z" uid="147510" user="woodpeck_fixbot" changeset="10408721">
    <nd ref="269465451"/>
    <nd ref="1015296632"/>
    <nd ref="269465452"/>
    <tag k="highway" v="residential"/>
    <tag k="is_in" v="Traralgon"/>
    <tag k="name" v="Catherine Court"/>
    <tag k="source" v="survey"/>
    <tag k="surface" v="paved"/>
  </way>
  <way id="24802340" version="4" timestamp="2009-07-25T17:30:57Z" uid="74617" user="JohnSmith" changeset="1936615">
    <nd ref="269465453"/>
    <nd ref="269465454"/>
    <nd ref="269465455"/>
    <tag k="highway" v="residential"/>
    <tag k="is_in" v="Traralgon"/>
    <tag k="maxspeed" v="50"/>
    <tag k="name" v="Patrica Court"/>
    <tag k="source" v="survey"/>
    <tag k="surface" v="paved"/>
  </way>
  <way id="24802340" version="5" timestamp="2010-12-01T13:47:08Z" uid="218559" user="Rob Preston" changeset="6503825">
    <nd ref="269465453"/>
    <nd ref="269465454"/>
    <nd ref="1014510193"/>
    <nd ref="1014510526"/>
    <nd ref="269465455"/>
    <tag k="highway" v="residential"/>
    <tag k="is_in" v="Traralgon"/>
    <tag k="maxspeed" v="50"/>
    <tag k="name" v="Patrica Court"/>
    <tag k="source" v="survey"/>
    <tag k="surface" v="paved"/>
  </way>
  <way id="24802340" version="6" timestamp="2012-01-16T16:47:12Z" uid="147510" user="woodpeck_fixbot" changeset="10408721">
    <nd ref="269465453"/>
    <nd ref="269465454"/>
    <nd ref="1014510193"/>
    <nd ref="1014510526"/>
    <nd ref="269465455"/>
    <tag k="highway" v="residential"/>
    <tag k="is_in" v="Traralgon"/>
    <tag k="name" v="Patrica Court"/>
    <tag k="source" v="survey"/>
    <tag k="surface" v="paved"/>
  </way>
  <way id="24802341" version="3" timestamp="2009-07-25T17:31:00Z" uid="74617" user="JohnSmith" changeset="1936615">
    <nd ref="269465456"/>
    <nd ref="269465457"/>
    <tag k="highway" v="residential"/>
    <tag k="is_in" v="Traralgon"/>
    <tag k="maxspeed" v="50"/>
    <tag k="name" v="Bernadette Court"/>
    <tag k="source" v="survey"/>
    <tag k="surface" v="paved"/>
  </way>
  <way id="24802341" version="4" timestamp="2012-01-16T16:47:14Z" uid="147510" user="woodpeck_fixbot" changeset="10408721">
    <nd ref="269465456"/>
    <nd ref="269465457"/>
    <tag k="highway" v="residential"/>
    <tag k="is_in" v="Traralgon"/>
    <tag k="name" v="Bernadette Court"/>
    <tag k="source" v="survey"/>
    <tag k="surface" v="paved"/>
  </way>
  <way id="24802344" version="3" timestamp="2009-07-25T17:31:01Z" uid="74617" user="JohnSmith" changeset="1936615">
    <nd ref="269465458"/>
    <nd ref="269465459"/>
    <tag k="highway" v="residential"/>
    <tag k="is_in" v="Traralgon"/>
    <tag k="maxspeed" v="50"/>
    <tag k="name" v="Josephine Court"/>
    <tag k="source" v="survey"/>
    <tag k="surface" v="paved"/>
  </way>
  <way id="24802344" version="4" timestamp="2010-12-02T01:19:17Z" uid="218559" user="Rob Preston" changeset="6510561">
    <nd ref="269465458"/>
    <nd ref="1015295442"/>
    <nd ref="269465459"/>
    <tag k="highway" v="residential"/>
    <tag k="is_in" v="Traralgon"/>
    <tag k="maxspeed" v="50"/>
    <tag k="name" v="Josephine Court"/>
    <tag k="source" v="survey"/>
    <tag k="surface" v="paved"/>
  </way>
  <way id="24802344" version="5" timestamp="2012-01-16T16:47:16Z" uid="147510" user="woodpeck_fixbot" changeset="10408721">
    <nd ref="269465458"/>
    <nd ref="1015295442"/>
    <nd ref="269465459"/>
    <tag k="highway" v="residential"/>
    <tag k="is_in" v="Traralgon"/>
    <tag k="name" v="Josephine Court"/>
    <tag k="source" v="survey"/>
    <tag k="surface" v="paved"/>
  </way>
  <way id="24802347" version="3" timestamp="2009-07-25T17:28:05Z" uid="74617" user="JohnSmith" changeset="1936579">
    <nd ref="269465460"/>
    <nd ref="269465461"/>
    <nd ref="269465462"/>
    <nd ref="269465463"/>
    <nd ref="269465464"/>
    <tag k="access" v="private"/>
    <tag k="highway" v="residential"/>
    <tag k="is_in" v="Traralgon"/>
    <tag k="maxspeed" v="15"/>
    <tag k="name" v="Dale Court"/>
    <tag k="source" v="survey"/>
    <tag k="surface" v="paved"/>
  </way>
  <way id="24802347" version="4" timestamp="2012-01-16T16:47:17Z" uid="147510" user="woodpeck_fixbot" changeset="10408721">
    <nd ref="269465460"/>
    <nd ref="269465461"/>
    <nd ref="269465462"/>
    <nd ref="269465463"/>
    <nd ref="269465464"/>
    <tag k="access" v="private"/>
    <tag k="highway" v="residential"/>
    <tag k="is_in" v="Traralgon"/>
    <tag k="name" v="Dale Court"/>
    <tag k="source" v="survey"/>
    <tag k="surface" v="paved"/>
  </way>
  <way id="24802348" version="3" timestamp="2009-07-25T17:28:15Z" uid="74617" user="JohnSmith" changeset="1936585">
    <nd ref="269465465"/>
    <nd ref="269465466"/>
    <nd ref="269465467"/>
    <nd ref="269465468"/>
    <nd ref="269465469"/>
    <nd ref="269465470"/>
    <tag k="access" v="private"/>
    <tag k="highway" v="residential"/>
    <tag k="is_in" v="Traralgon"/>
    <tag k="maxspeed" v="15"/>
    <tag k="name" v="Gavin Close"/>
    <tag k="source" v="survey"/>
    <tag k="surface" v="paved"/>
  </way>
  <way id="24802348" version="4" timestamp="2012-01-16T16:47:20Z" uid="147510" user="woodpeck_fixbot" changeset="10408721">
    <nd ref="269465465"/>
    <nd ref="269465466"/>
    <nd ref="269465467"/>
    <nd ref="269465468"/>
    <nd ref="269465469"/>
    <nd ref="269465470"/>
    <tag k="access" v="private"/>
    <tag k="highway" v="residential"/>
    <tag k="is_in" v="Traralgon"/>
    <tag k="name" v="Gavin Close"/>
    <tag k="source" v="survey"/>
    <tag k="surface" v="paved"/>
  </way>
  <way id="24802349" version="3" timestamp="2009-07-25T17:30:56Z" uid="74617" user="JohnSmith" changeset="1936615">
    <nd ref="269465471"/>
    <nd ref="269465472"/>
    <nd ref="269465473"/>
    <nd ref="269465474"/>
    <tag k="highway" v="residential"/>
    <tag k="is_in" v="Traralgon"/>
    <tag k="maxspeed" v="50"/>
    <tag k="name" v="West Court"/>
    <tag k="source" v="survey"/>
    <tag k="surface" v="paved"/>
  </way>
  <way id="24802349" version="4" timestamp="2010-12-02T01:19:21Z" uid="218559" user="Rob Preston" changeset="6510561">
    <nd ref="269465471"/>
    <nd ref="269465472"/>
    <nd ref="269465473"/>
    <nd ref="1015296414"/>
    <nd ref="269465474"/>
    <tag k="highway" v="residential"/>
    <tag k="is_in" v="Traralgon"/>
    <tag k="maxspeed" v="50"/>
    <tag k="name" v="West Court"/>
    <tag k="source" v="survey"/>
    <tag k="surface" v="paved"/>
  </way>
  <way id="24802349" version="5" timestamp="2012-01-16T16:47:21Z" uid="147510" user="woodpeck_fixbot" changeset="10408721">
    <nd ref="269465471"/>
    <nd ref="269465472"/>
    <nd ref="269465473"/>
    <nd ref="1015296414"/>
    <nd ref="269465474"/>
    <tag k="highway" v="residential"/>
    <tag k="is_in" v="Traralgon"/>
    <tag k="name" v="West Court"/>
    <tag k="source" v="survey"/>
    <tag k="surface" v="paved"/>
  </way>
  <way id="24802350" version="3" timestamp="2009-07-25T17:30:56Z" uid="74617" user="JohnSmith" changeset="1936615">
    <nd ref="60199865"/>
    <nd ref="269465475"/>
    <nd ref="269465476"/>
    <tag k="highway" v="residential"/>
    <tag k="is_in" v="Traralgon"/>
    <tag k="maxspeed" v="50"/>
    <tag k="name" v="Felicity Court"/>
    <tag k="source" v="survey"/>
    <tag k="surface" v="paved"/>
  </way>
  <way id="24802350" version="4" timestamp="2012-01-16T16:47:22Z" uid="147510" user="woodpeck_fixbot" changeset="10408721">
    <nd ref="60199865"/>
    <nd ref="269465475"/>
    <nd ref="269465476"/>
    <tag k="highway" v="residential"/>
    <tag k="is_in" v="Traralgon"/>
    <tag k="name" v="Felicity Court"/>
    <tag k="source" v="survey"/>
    <tag k="surface" v="paved"/>
  </way>
  <way id="24802351" version="3" timestamp="2009-07-25T17:30:57Z" uid="74617" user="JohnSmith" changeset="1936615">
    <nd ref="60199870"/>
    <nd ref="269465477"/>
    <nd ref="269465478"/>
    <nd ref="269465479"/>
    <nd ref="269465480"/>
    <nd ref="269465481"/>
    <nd ref="269465482"/>
    <tag k="highway" v="residential"/>
    <tag k="is_in" v="Traralgon"/>
    <tag k="maxspeed" v="50"/>
    <tag k="name" v="Huntingfield Close"/>
    <tag k="source" v="survey"/>
    <tag k="surface" v="paved"/>
  </way>
  <way id="24802351" version="4" timestamp="2012-01-16T16:47:24Z" uid="147510" user="woodpeck_fixbot" changeset="10408721">
    <nd ref="60199870"/>
    <nd ref="269465477"/>
    <nd ref="269465478"/>
    <nd ref="269465479"/>
    <nd ref="269465480"/>
    <nd ref="269465481"/>
    <nd ref="269465482"/>
    <tag k="highway" v="residential"/>
    <tag k="is_in" v="Traralgon"/>
    <tag k="name" v="Huntingfield Close"/>
    <tag k="source" v="survey"/>
    <tag k="surface" v="paved"/>
  </way>
  <way id="24802353" version="3" timestamp="2009-07-25T17:30:59Z" uid="74617" user="JohnSmith" changeset="1936615">
    <nd ref="269465477"/>
    <nd ref="269465483"/>
    <tag k="highway" v="residential"/>
    <tag k="is_in" v="Traralgon"/>
    <tag k="maxspeed" v="50"/>
    <tag k="name" v="Saville Court"/>
    <tag k="source" v="survey"/>
    <tag k="surface" v="paved"/>
  </way>
  <way id="24802353" version="4" timestamp="2012-01-16T16:47:26Z" uid="147510" user="woodpeck_fixbot" changeset="10408721">
    <nd ref="269465477"/>
    <nd ref="269465483"/>
    <tag k="highway" v="residential"/>
    <tag k="is_in" v="Traralgon"/>
    <tag k="name" v="Saville Court"/>
    <tag k="source" v="survey"/>
    <tag k="surface" v="paved"/>
  </way>
  <way id="24802354" version="3" timestamp="2009-07-25T17:31:04Z" uid="74617" user="JohnSmith" changeset="1936615">
    <nd ref="60199872"/>
    <nd ref="269465484"/>
    <tag k="highway" v="residential"/>
    <tag k="is_in" v="Traralgon"/>
    <tag k="maxspeed" v="50"/>
    <tag k="name" v="McClure Court"/>
    <tag k="source" v="survey"/>
    <tag k="surface" v="paved"/>
  </way>
  <way id="24802354" version="4" timestamp="2012-01-16T16:47:31Z" uid="147510" user="woodpeck_fixbot" changeset="10408721">
    <nd ref="60199872"/>
    <nd ref="269465484"/>
    <tag k="highway" v="residential"/>
    <tag k="is_in" v="Traralgon"/>
    <tag k="name" v="McClure Court"/>
    <tag k="source" v="survey"/>
    <tag k="surface" v="paved"/>
  </way>
  <way id="24802355" version="3" timestamp="2009-07-25T17:31:04Z" uid="74617" user="JohnSmith" changeset="1936615">
    <nd ref="60199875"/>
    <nd ref="269465485"/>
    <nd ref="269465486"/>
    <nd ref="269465487"/>
    <tag k="highway" v="residential"/>
    <tag k="is_in" v="Traralgon"/>
    <tag k="maxspeed" v="50"/>
    <tag k="name" v="Como Court"/>
    <tag k="source" v="survey"/>
    <tag k="surface" v="paved"/>
  </way>
  <way id="24802355" version="4" timestamp="2010-12-02T01:19:15Z" uid="218559" user="Rob Preston" changeset="6510561">
    <nd ref="60199875"/>
    <nd ref="269465485"/>
    <nd ref="269465487"/>
    <tag k="highway" v="residential"/>
    <tag k="is_in" v="Traralgon"/>
    <tag k="maxspeed" v="50"/>
    <tag k="name" v="Como Court"/>
    <tag k="source" v="survey"/>
    <tag k="surface" v="paved"/>
  </way>
  <way id="24802355" version="5" timestamp="2012-01-16T16:47:33Z" uid="147510" user="woodpeck_fixbot" changeset="10408721">
    <nd ref="60199875"/>
    <nd ref="269465485"/>
    <nd ref="269465487"/>
    <tag k="highway" v="residential"/>
    <tag k="is_in" v="Traralgon"/>
    <tag k="name" v="Como Court"/>
    <tag k="source" v="survey"/>
    <tag k="surface" v="paved"/>
  </way>
  <way id="24802357" version="3" timestamp="2009-07-25T17:31:04Z" uid="74617" user="JohnSmith" changeset="1936615">
    <nd ref="269465492"/>
    <nd ref="269465493"/>
    <nd ref="269465494"/>
    <nd ref="269465491"/>
    <tag k="highway" v="residential"/>
    <tag k="is_in" v="Traralgon"/>
    <tag k="maxspeed" v="50"/>
    <tag k="source" v="survey"/>
    <tag k="surface" v="paved"/>
  </way>
  <way id="24802357" version="4" timestamp="2012-01-16T16:47:34Z" uid="147510" user="woodpeck_fixbot" changeset="10408721">
    <nd ref="269465492"/>
    <nd ref="269465493"/>
    <nd ref="269465494"/>
    <nd ref="269465491"/>
    <tag k="highway" v="residential"/>
    <tag k="is_in" v="Traralgon"/>
    <tag k="source" v="survey"/>
    <tag k="surface" v="paved"/>
  </way>
  <way id="24802407" version="5" timestamp="2010-02-27T13:39:12Z" uid="7617" user="Franc" changeset="3988585">
    <nd ref="60291924"/>
    <nd ref="655167295"/>
    <nd ref="655167294"/>
    <nd ref="655167293"/>
    <nd ref="28179902"/>
    <nd ref="60291925"/>
    <nd ref="28179904"/>
    <nd ref="592847533"/>
    <nd ref="28179907"/>
    <tag k="highway" v="residential"/>
    <tag k="name" v="Cocos Avenue"/>
    <tag k="source" v="Yahoo Imagery"/>
  </way>
  <way id="24802407" version="6" timestamp="2010-07-08T00:25:35Z" uid="74617" user="JohnSmith" changeset="5162525">
    <nd ref="60291924"/>
    <nd ref="655167295"/>
    <nd ref="655167294"/>
    <nd ref="655167293"/>
    <nd ref="28179902"/>
    <nd ref="60291925"/>
    <nd ref="28179904"/>
    <nd ref="592847533"/>
    <nd ref="28179907"/>
    <tag k="highway" v="residential"/>
    <tag k="maxspeed" v="50"/>
    <tag k="maxspeed:source" v="default residential speed limit in Australia"/>
    <tag k="name" v="Cocos Avenue"/>
    <tag k="source" v="Yahoo Imagery"/>
  </way>
  <way id="24802407" version="7" timestamp="2012-01-16T16:47:37Z" uid="147510" user="woodpeck_fixbot" changeset="10408721">
    <nd ref="60291924"/>
    <nd ref="655167295"/>
    <nd ref="655167294"/>
    <nd ref="655167293"/>
    <nd ref="28179902"/>
    <nd ref="60291925"/>
    <nd ref="28179904"/>
    <nd ref="592847533"/>
    <nd ref="28179907"/>
    <tag k="highway" v="residential"/>
    <tag k="name" v="Cocos Avenue"/>
    <tag k="source" v="Yahoo Imagery"/>
  </way>
  <way id="24802488" version="3" timestamp="2008-12-14T11:40:43Z" uid="7617" user="Franc" changeset="375809">
    <nd ref="269466949"/>
    <nd ref="28179586"/>
    <nd ref="27028534"/>
    <nd ref="27028533"/>
    <nd ref="27028532"/>
    <nd ref="27028531"/>
    <nd ref="26958224"/>
    <nd ref="27028521"/>
    <nd ref="27028520"/>
    <nd ref="27028260"/>
    <nd ref="26958322"/>
    <nd ref="26958321"/>
    <nd ref="26958320"/>
    <nd ref="26959010"/>
    <nd ref="26959008"/>
    <nd ref="26959230"/>
    <nd ref="60284986"/>
    <nd ref="26959229"/>
    <nd ref="318586367"/>
    <nd ref="26959228"/>
    <nd ref="318586370"/>
    <nd ref="26400451"/>
    <tag k="created_by" v="Potlatch 0.10"/>
    <tag k="highway" v="residential"/>
    <tag k="name" v="Chatham Road"/>
  </way>
  <way id="24802488" version="4" timestamp="2009-01-14T12:20:43Z" uid="17425" user="jackb" changeset="786158">
    <nd ref="269466949"/>
    <nd ref="28179586"/>
    <nd ref="27028534"/>
    <nd ref="27028533"/>
    <nd ref="27028532"/>
    <nd ref="27028531"/>
    <nd ref="26958224"/>
    <nd ref="27028521"/>
    <nd ref="27028520"/>
    <nd ref="27028260"/>
    <nd ref="26958322"/>
    <nd ref="26958321"/>
    <nd ref="26958320"/>
    <nd ref="26959010"/>
    <nd ref="26959008"/>
    <nd ref="26959230"/>
    <nd ref="60284986"/>
    <nd ref="26959229"/>
    <nd ref="318586367"/>
    <nd ref="26959228"/>
    <nd ref="318586370"/>
    <nd ref="332018847"/>
    <tag k="created_by" v="Potlatch 0.10"/>
    <tag k="highway" v="residential"/>
    <tag k="name" v="Chatham Road"/>
  </way>
  <way id="24802488" version="5" timestamp="2009-12-01T05:41:14Z" uid="1679" user="andrewpmk" changeset="3261861">
    <nd ref="269466949"/>
    <nd ref="28179586"/>
    <nd ref="27028534"/>
    <nd ref="27028533"/>
    <nd ref="27028532"/>
    <nd ref="27028531"/>
    <nd ref="26958224"/>
    <nd ref="27028521"/>
    <nd ref="27028520"/>
    <nd ref="27028260"/>
    <nd ref="576883462"/>
    <nd ref="26958322"/>
    <nd ref="26958321"/>
    <nd ref="26958320"/>
    <nd ref="26959010"/>
    <nd ref="26959008"/>
    <nd ref="26959230"/>
    <nd ref="60284986"/>
    <nd ref="26959229"/>
    <nd ref="318586367"/>
    <nd ref="26959228"/>
    <nd ref="318586370"/>
    <nd ref="332018847"/>
    <tag k="highway" v="residential"/>
    <tag k="name" v="Chatham Road"/>
  </way>
  <way id="24802488" version="6" timestamp="2010-02-03T01:15:11Z" uid="30201" user="rrankin" changeset="3780262">
    <nd ref="269466949"/>
    <nd ref="28179586"/>
    <nd ref="27028534"/>
    <nd ref="27028533"/>
    <nd ref="27028532"/>
    <nd ref="27028531"/>
    <nd ref="26958224"/>
    <nd ref="27028521"/>
    <nd ref="27028520"/>
    <nd ref="27028260"/>
    <nd ref="576883462"/>
    <nd ref="26958322"/>
    <nd ref="26958321"/>
    <nd ref="26958320"/>
    <nd ref="26959010"/>
    <nd ref="26959008"/>
    <nd ref="627204834"/>
    <tag k="highway" v="residential"/>
    <tag k="name" v="Chatham Road"/>
  </way>
  <way id="24802488" version="7" timestamp="2010-03-10T07:47:12Z" uid="20949" user="Ebenezer" changeset="4086775">
    <nd ref="269466949"/>
    <nd ref="28179586"/>
    <nd ref="27028534"/>
    <nd ref="27028533"/>
    <nd ref="27028532"/>
    <nd ref="27028531"/>
    <nd ref="26958224"/>
    <nd ref="27028521"/>
    <nd ref="27028520"/>
    <nd ref="27028260"/>
    <nd ref="576883462"/>
    <nd ref="26958322"/>
    <nd ref="663548254"/>
    <nd ref="26958321"/>
    <nd ref="26958320"/>
    <nd ref="26959010"/>
    <nd ref="26959008"/>
    <nd ref="627204834"/>
    <tag k="highway" v="residential"/>
    <tag k="name" v="Chatham Road"/>
  </way>
  <way id="24802488" version="8" timestamp="2010-03-10T08:14:37Z" uid="20949" user="Ebenezer" changeset="4086917">
    <nd ref="663554085"/>
    <nd ref="28179586"/>
    <nd ref="27028534"/>
    <nd ref="27028533"/>
    <nd ref="27028532"/>
    <nd ref="27028531"/>
    <nd ref="26958224"/>
    <nd ref="27028521"/>
    <nd ref="27028520"/>
    <nd ref="27028260"/>
    <nd ref="576883462"/>
    <nd ref="26958322"/>
    <nd ref="663548254"/>
    <nd ref="26958321"/>
    <nd ref="26958320"/>
    <nd ref="26959010"/>
    <nd ref="26959008"/>
    <nd ref="627204834"/>
    <tag k="highway" v="residential"/>
    <tag k="name" v="Chatham Road"/>
  </way>
  <way id="24802488" version="9" timestamp="2010-05-09T09:39:51Z" uid="7617" user="Franc" changeset="4646306"/>
  <way id="24802526" version="2" timestamp="2010-07-09T07:14:11Z" uid="74617" user="JohnSmith" changeset="5171447">
    <nd ref="269467213"/>
    <nd ref="269467214"/>
    <nd ref="269467215"/>
    <nd ref="269467216"/>
    <nd ref="269467040"/>
    <tag k="highway" v="residential"/>
    <tag k="maxspeed" v="50"/>
    <tag k="maxspeed:source" v="default residential speed limit in Australia"/>
    <tag k="name" v="Sixth Street"/>
  </way>
  <way id="24802526" version="3" timestamp="2011-05-08T13:35:00Z" uid="21143" user="hryciuk" changeset="8082549">
    <nd ref="269467213"/>
    <nd ref="269467214"/>
    <nd ref="269467215"/>
    <nd ref="1277051998"/>
    <nd ref="1277051992"/>
    <nd ref="1277051987"/>
    <nd ref="269467216"/>
    <nd ref="1277051977"/>
    <nd ref="269467040"/>
    <tag k="highway" v="residential"/>
    <tag k="maxspeed" v="50"/>
    <tag k="maxspeed:source" v="default residential speed limit in Australia"/>
    <tag k="name" v="Sixth Street"/>
  </way>
  <way id="24802526" version="4" timestamp="2011-05-08T14:02:17Z" uid="21143" user="hryciuk" changeset="8082926">
    <nd ref="269467213"/>
    <nd ref="269467214"/>
    <nd ref="269467215"/>
    <nd ref="1277051998"/>
    <nd ref="1277051992"/>
    <nd ref="1277072052"/>
    <nd ref="1277051987"/>
    <nd ref="269467216"/>
    <nd ref="1277051977"/>
    <nd ref="269467040"/>
    <tag k="highway" v="residential"/>
    <tag k="maxspeed" v="50"/>
    <tag k="maxspeed:source" v="default residential speed limit in Australia"/>
    <tag k="name" v="Sixth Street"/>
  </way>
  <way id="24802526" version="5" timestamp="2011-05-09T04:20:08Z" uid="21143" user="hryciuk" changeset="8089412">
    <nd ref="269467213"/>
    <nd ref="269467214"/>
    <nd ref="269467215"/>
    <nd ref="1277051998"/>
    <nd ref="1277051992"/>
    <nd ref="1277072052"/>
    <nd ref="1277051987"/>
    <nd ref="269467216"/>
    <nd ref="1277051977"/>
    <nd ref="269467040"/>
    <tag k="highway" v="tertiary"/>
    <tag k="maxspeed" v="50"/>
    <tag k="maxspeed:source" v="default residential speed limit in Australia"/>
    <tag k="name" v="Sixth Street"/>
  </way>
  <way id="24802526" version="6" timestamp="2012-01-16T16:47:38Z" uid="147510" user="woodpeck_fixbot" changeset="10408721">
    <nd ref="269467213"/>
    <nd ref="269467214"/>
    <nd ref="269467215"/>
    <nd ref="1277051998"/>
    <nd ref="1277051992"/>
    <nd ref="1277072052"/>
    <nd ref="1277051987"/>
    <nd ref="269467216"/>
    <nd ref="1277051977"/>
    <nd ref="269467040"/>
    <tag k="highway" v="tertiary"/>
    <tag k="name" v="Sixth Street"/>
  </way>
  <way id="24802538" version="2" timestamp="2010-07-09T07:14:11Z" uid="74617" user="JohnSmith" changeset="5171447">
    <nd ref="269467259"/>
    <nd ref="269467213"/>
    <tag k="highway" v="residential"/>
    <tag k="maxspeed" v="50"/>
    <tag k="maxspeed:source" v="default residential speed limit in Australia"/>
    <tag k="name" v="South Terrace"/>
  </way>
  <way id="24802538" version="3" timestamp="2011-05-08T13:35:00Z" uid="21143" user="hryciuk" changeset="8082549">
    <nd ref="269467259"/>
    <nd ref="1277051984"/>
    <nd ref="1277051980"/>
    <nd ref="1277051996"/>
    <nd ref="269467213"/>
    <tag k="highway" v="residential"/>
    <tag k="maxspeed" v="50"/>
    <tag k="maxspeed:source" v="default residential speed limit in Australia"/>
    <tag k="name" v="South Terrace"/>
  </way>
  <way id="24802538" version="4" timestamp="2011-05-08T13:52:39Z" uid="21143" user="hryciuk" changeset="8082549">
    <nd ref="269467259"/>
    <nd ref="1277051984"/>
    <nd ref="1277051980"/>
    <nd ref="1277051996"/>
    <nd ref="269467213"/>
    <nd ref="1277051972"/>
    <tag k="highway" v="residential"/>
    <tag k="maxspeed" v="50"/>
    <tag k="maxspeed:source" v="default residential speed limit in Australia"/>
    <tag k="name" v="South Terrace"/>
  </way>
  <way id="24802538" version="5" timestamp="2012-01-16T16:47:40Z" uid="147510" user="woodpeck_fixbot" changeset="10408721">
    <nd ref="269467259"/>
    <nd ref="1277051984"/>
    <nd ref="1277051980"/>
    <nd ref="1277051996"/>
    <nd ref="269467213"/>
    <nd ref="1277051972"/>
    <tag k="highway" v="residential"/>
    <tag k="name" v="South Terrace"/>
  </way>
  <way id="24802687" version="3" timestamp="2008-08-10T06:17:46Z" uid="17602" user="B10xyz" changeset="163046">
    <nd ref="269468305"/>
    <nd ref="269468306"/>
    <nd ref="269468307"/>
    <nd ref="269468308"/>
    <nd ref="269468309"/>
    <nd ref="269468310"/>
    <nd ref="269468311"/>
    <nd ref="269468312"/>
    <nd ref="269468313"/>
    <nd ref="269468564"/>
    <nd ref="269468314"/>
    <nd ref="269468315"/>
    <nd ref="269468316"/>
    <nd ref="269468317"/>
    <tag k="created_by" v="Potlatch 0.9c"/>
    <tag k="highway" v="residential"/>
  </way>
  <way id="24802687" version="4" timestamp="2008-08-24T16:47:04Z" uid="16514" user="jaybe" changeset="390898">
    <nd ref="269468305"/>
    <nd ref="269468306"/>
    <nd ref="269468307"/>
    <nd ref="269468308"/>
    <nd ref="269468309"/>
    <nd ref="269468310"/>
    <nd ref="269468311"/>
    <nd ref="269468312"/>
    <nd ref="269468313"/>
    <nd ref="269468564"/>
    <nd ref="269468314"/>
    <nd ref="269468315"/>
    <nd ref="269468316"/>
    <nd ref="269468317"/>
    <nd ref="290731025"/>
    <nd ref="290731026"/>
    <nd ref="290731028"/>
    <nd ref="290731033"/>
    <nd ref="290731036"/>
    <nd ref="290731039"/>
    <nd ref="290731041"/>
    <nd ref="290731044"/>
    <nd ref="290731046"/>
    <nd ref="290731047"/>
    <nd ref="290731049"/>
    <nd ref="290731050"/>
    <nd ref="290731052"/>
    <nd ref="290731054"/>
    <nd ref="290731081"/>
    <tag k="created_by" v="Potlatch 0.9c"/>
    <tag k="highway" v="secondary"/>
    <tag k="ref" v="L3195"/>
  </way>
  <way id="24802687" version="5" timestamp="2008-09-17T00:27:52Z" uid="31059" user="DaBear" changeset="653506">
    <nd ref="269468305"/>
    <nd ref="269468306"/>
    <nd ref="269468307"/>
    <nd ref="269468308"/>
    <nd ref="269468309"/>
    <nd ref="269468310"/>
    <nd ref="269468311"/>
    <nd ref="269468312"/>
    <nd ref="269468313"/>
    <nd ref="269468564"/>
    <nd ref="269468314"/>
    <nd ref="269468315"/>
    <nd ref="269468316"/>
    <nd ref="269468317"/>
    <nd ref="290731025"/>
    <nd ref="290731026"/>
    <nd ref="290731028"/>
    <nd ref="290731033"/>
    <nd ref="290731036"/>
    <nd ref="290731039"/>
    <nd ref="290731041"/>
    <nd ref="290731044"/>
    <nd ref="290731046"/>
    <nd ref="290731047"/>
    <nd ref="290731049"/>
    <nd ref="290731050"/>
    <nd ref="290731052"/>
    <nd ref="290731054"/>
    <nd ref="290731081"/>
    <tag k="created_by" v="Potlatch 0.9c"/>
    <tag k="highway" v="secondary"/>
    <tag k="ref" v="L 3195"/>
  </way>
  <way id="24802687" version="6" timestamp="2009-04-13T16:49:35Z" uid="31470" user="Tom63452" changeset="475510">
    <nd ref="269468305"/>
    <nd ref="269468306"/>
    <nd ref="374182827"/>
    <nd ref="269468307"/>
    <nd ref="269468308"/>
    <nd ref="269468309"/>
    <nd ref="269468310"/>
    <nd ref="269468311"/>
    <nd ref="269468312"/>
    <nd ref="269468313"/>
    <nd ref="269468564"/>
    <nd ref="269468314"/>
    <nd ref="269468315"/>
    <nd ref="269468316"/>
    <nd ref="269468317"/>
    <nd ref="290731025"/>
    <nd ref="290731026"/>
    <nd ref="290731028"/>
    <nd ref="290731033"/>
    <nd ref="290731036"/>
    <nd ref="290731039"/>
    <nd ref="290731041"/>
    <nd ref="290731044"/>
    <nd ref="290731046"/>
    <nd ref="290731047"/>
    <nd ref="290731049"/>
    <nd ref="290731050"/>
    <nd ref="290731052"/>
    <nd ref="290731054"/>
    <nd ref="290731081"/>
    <tag k="created_by" v="Potlatch 0.9c"/>
    <tag k="highway" v="secondary"/>
    <tag k="ref" v="L 3195"/>
  </way>
  <way id="24802687" version="7" timestamp="2009-06-12T12:31:44Z" uid="113614" user="brandy" changeset="1496039">
    <nd ref="269468305"/>
    <nd ref="269468306"/>
    <nd ref="374182827"/>
    <nd ref="269468307"/>
    <nd ref="269468308"/>
    <nd ref="269468309"/>
    <nd ref="269468310"/>
    <nd ref="269468311"/>
    <nd ref="269468312"/>
    <nd ref="269468313"/>
    <nd ref="269468564"/>
    <nd ref="269468314"/>
    <nd ref="419157231"/>
    <nd ref="269468315"/>
    <nd ref="269468316"/>
    <nd ref="269468317"/>
    <nd ref="290731025"/>
    <nd ref="290731026"/>
    <nd ref="290731028"/>
    <nd ref="290731033"/>
    <nd ref="290731036"/>
    <nd ref="290731039"/>
    <nd ref="290731041"/>
    <nd ref="290731044"/>
    <nd ref="290731046"/>
    <nd ref="419157235"/>
    <nd ref="290731047"/>
    <nd ref="290731049"/>
    <nd ref="290731050"/>
    <nd ref="290731052"/>
    <nd ref="290731054"/>
    <nd ref="290731081"/>
    <tag k="created_by" v="Potlatch 0.9c"/>
    <tag k="highway" v="secondary"/>
    <tag k="ref" v="L 3195"/>
  </way>
  <way id="24802687" version="8" timestamp="2009-06-18T18:42:31Z" uid="42121" user="NightCyclist" changeset="1557229">
    <nd ref="269468305"/>
    <nd ref="269468306"/>
    <nd ref="374182827"/>
    <nd ref="269468307"/>
    <nd ref="269468308"/>
    <nd ref="269468309"/>
    <nd ref="269468310"/>
    <nd ref="269468311"/>
    <nd ref="269468312"/>
    <nd ref="269468313"/>
    <nd ref="269468564"/>
    <nd ref="269468314"/>
    <nd ref="419157231"/>
    <tag k="created_by" v="Potlatch 0.9c"/>
    <tag k="highway" v="secondary"/>
    <tag k="ref" v="L 3195"/>
  </way>
  <way id="24802687" version="9" timestamp="2009-06-28T16:58:34Z" uid="8464" user="MichaH" changeset="1665926">
    <nd ref="269468305"/>
    <nd ref="269468306"/>
    <nd ref="374182827"/>
    <nd ref="269468307"/>
    <nd ref="269468308"/>
    <nd ref="269468309"/>
    <nd ref="269468310"/>
    <nd ref="269468311"/>
    <nd ref="269468312"/>
    <nd ref="430351489"/>
    <nd ref="269468313"/>
    <nd ref="269468564"/>
    <tag k="highway" v="secondary"/>
    <tag k="name" v="Ringstraße"/>
    <tag k="ref" v="L 3195"/>
  </way>
  <way id="24802687" version="10" timestamp="2010-06-05T14:30:49Z" uid="64197" user="Lothar Schiborr_1" changeset="4909201">
    <nd ref="269468305"/>
    <nd ref="269468306"/>
    <nd ref="374182827"/>
    <nd ref="269468307"/>
    <nd ref="269468308"/>
    <nd ref="269468309"/>
    <nd ref="269468310"/>
    <nd ref="269468311"/>
    <nd ref="269468312"/>
    <nd ref="430351489"/>
    <nd ref="765079952"/>
    <nd ref="269468313"/>
    <nd ref="269468564"/>
    <tag k="highway" v="secondary"/>
    <tag k="name" v="Ringstraße"/>
    <tag k="ref" v="L 3195"/>
  </way>
  <way id="24802687" version="11" timestamp="2010-06-05T14:35:29Z" uid="64197" user="Lothar Schiborr_1" changeset="4909241">
    <nd ref="269468305"/>
    <nd ref="269468306"/>
    <nd ref="374182827"/>
    <nd ref="269468307"/>
    <nd ref="269468308"/>
    <nd ref="269468309"/>
    <nd ref="269468310"/>
    <nd ref="269468311"/>
    <nd ref="269468312"/>
    <nd ref="765081059"/>
    <nd ref="430351489"/>
    <nd ref="765079952"/>
    <nd ref="269468313"/>
    <nd ref="269468564"/>
    <tag k="highway" v="secondary"/>
    <tag k="name" v="Ringstraße"/>
    <tag k="ref" v="L 3195"/>
  </way>
  <way id="24802687" version="12" timestamp="2010-06-05T16:11:56Z" uid="64197" user="Lothar Schiborr_1" changeset="4910095">
    <nd ref="269468305"/>
    <nd ref="269468306"/>
    <nd ref="374182827"/>
    <nd ref="269468307"/>
    <nd ref="269468308"/>
    <nd ref="269468309"/>
    <nd ref="269468310"/>
    <nd ref="765178379"/>
    <nd ref="269468311"/>
    <nd ref="269468312"/>
    <nd ref="765081059"/>
    <nd ref="430351489"/>
    <nd ref="765079952"/>
    <nd ref="269468313"/>
    <nd ref="269468564"/>
    <tag k="highway" v="secondary"/>
    <tag k="name" v="Ringstraße"/>
    <tag k="ref" v="L 3195"/>
  </way>
  <way id="24802687" version="13" timestamp="2010-06-05T16:13:20Z" uid="64197" user="Lothar Schiborr_1" changeset="4910104">
    <nd ref="269468305"/>
    <nd ref="269468306"/>
    <nd ref="374182827"/>
    <nd ref="269468307"/>
    <nd ref="269468308"/>
    <nd ref="269468309"/>
    <nd ref="765178975"/>
    <nd ref="269468310"/>
    <nd ref="765178379"/>
    <nd ref="269468311"/>
    <nd ref="269468312"/>
    <nd ref="765081059"/>
    <nd ref="430351489"/>
    <nd ref="765079952"/>
    <nd ref="269468313"/>
    <nd ref="269468564"/>
    <tag k="highway" v="secondary"/>
    <tag k="name" v="Ringstraße"/>
    <tag k="ref" v="L 3195"/>
  </way>
  <way id="24802687" version="14" timestamp="2010-06-05T16:17:15Z" uid="64197" user="Lothar Schiborr_1" changeset="4910128">
    <nd ref="269468305"/>
    <nd ref="269468306"/>
    <nd ref="374182827"/>
    <nd ref="269468307"/>
    <nd ref="269468308"/>
    <nd ref="765180601"/>
    <nd ref="269468309"/>
    <nd ref="765178975"/>
    <nd ref="269468310"/>
    <nd ref="765178379"/>
    <nd ref="269468311"/>
    <nd ref="269468312"/>
    <nd ref="765081059"/>
    <nd ref="430351489"/>
    <nd ref="765079952"/>
    <nd ref="269468313"/>
    <nd ref="269468564"/>
    <tag k="highway" v="secondary"/>
    <tag k="name" v="Ringstraße"/>
    <tag k="ref" v="L 3195"/>
  </way>
  <way id="24802687" version="15" timestamp="2010-06-05T16:25:07Z" uid="64197" user="Lothar Schiborr_1" changeset="4910194">
    <nd ref="269468305"/>
    <nd ref="269468306"/>
    <nd ref="374182827"/>
    <nd ref="765184215"/>
    <nd ref="269468307"/>
    <nd ref="269468308"/>
    <nd ref="765180601"/>
    <nd ref="269468309"/>
    <nd ref="765178975"/>
    <nd ref="269468310"/>
    <nd ref="765178379"/>
    <nd ref="269468311"/>
    <nd ref="269468312"/>
    <nd ref="765081059"/>
    <nd ref="430351489"/>
    <nd ref="765079952"/>
    <nd ref="269468313"/>
    <nd ref="269468564"/>
    <tag k="highway" v="secondary"/>
    <tag k="name" v="Ringstraße"/>
    <tag k="ref" v="L 3195"/>
  </way>
  <way id="24802687" version="16" timestamp="2010-06-05T16:45:40Z" uid="64197" user="Lothar Schiborr_1" changeset="4910345">
    <nd ref="269468305"/>
    <nd ref="765198929"/>
    <nd ref="765198939"/>
    <nd ref="269468306"/>
    <nd ref="765198928"/>
    <nd ref="374182827"/>
    <nd ref="765184215"/>
    <nd ref="269468307"/>
    <nd ref="269468308"/>
    <nd ref="765180601"/>
    <nd ref="269468309"/>
    <nd ref="765178975"/>
    <nd ref="269468310"/>
    <nd ref="765178379"/>
    <nd ref="269468311"/>
    <nd ref="269468312"/>
    <nd ref="765081059"/>
    <nd ref="430351489"/>
    <nd ref="765079952"/>
    <nd ref="269468313"/>
    <nd ref="269468564"/>
    <tag k="highway" v="secondary"/>
    <tag k="name" v="Ringstraße"/>
    <tag k="ref" v="L 3195"/>
  </way>
  <way id="24802687" version="17" timestamp="2010-06-11T11:36:30Z" uid="46169" user="wolter" changeset="4961824">
    <nd ref="269468305"/>
    <nd ref="765198929"/>
    <nd ref="765198939"/>
    <nd ref="269468306"/>
    <nd ref="765198928"/>
    <nd ref="374182827"/>
    <nd ref="765184215"/>
    <nd ref="269468307"/>
    <nd ref="269468308"/>
    <nd ref="765180601"/>
    <nd ref="269468309"/>
    <nd ref="769129845"/>
    <nd ref="269468310"/>
    <nd ref="765178379"/>
    <nd ref="269468311"/>
    <nd ref="269468312"/>
    <nd ref="765081059"/>
    <nd ref="430351489"/>
    <nd ref="765079952"/>
    <nd ref="269468313"/>
    <nd ref="269468564"/>
    <tag k="highway" v="secondary"/>
    <tag k="name" v="Ringstraße"/>
    <tag k="ref" v="L 3195"/>
  </way>
  <way id="24802687" version="18" timestamp="2011-01-02T16:26:02Z" uid="303960" user="hanjoerch" changeset="6840036">
    <nd ref="269468305"/>
    <nd ref="765198929"/>
    <nd ref="765198939"/>
    <nd ref="269468306"/>
    <nd ref="765198928"/>
    <nd ref="374182827"/>
    <nd ref="765184215"/>
    <nd ref="269468307"/>
    <nd ref="1078912341"/>
    <nd ref="269468308"/>
    <nd ref="765180601"/>
    <nd ref="269468309"/>
    <nd ref="769129845"/>
    <nd ref="269468310"/>
    <nd ref="765178379"/>
    <nd ref="269468311"/>
    <nd ref="269468312"/>
    <nd ref="765081059"/>
    <nd ref="430351489"/>
    <nd ref="765079952"/>
    <nd ref="269468313"/>
    <nd ref="269468564"/>
    <tag k="highway" v="secondary"/>
    <tag k="name" v="Ringstraße"/>
    <tag k="ref" v="L 3195"/>
  </way>
  <way id="24802687" version="19" timestamp="2011-01-30T21:35:08Z" uid="303960" user="hanjoerch" changeset="7140040">
    <nd ref="269468305"/>
    <nd ref="1073714226"/>
    <nd ref="765198929"/>
    <nd ref="765198939"/>
    <nd ref="269468306"/>
    <nd ref="765198928"/>
    <nd ref="374182827"/>
    <nd ref="765184215"/>
    <nd ref="269468307"/>
    <nd ref="1078912341"/>
    <nd ref="269468308"/>
    <nd ref="765180601"/>
    <nd ref="269468309"/>
    <nd ref="769129845"/>
    <nd ref="269468310"/>
    <nd ref="765178379"/>
    <nd ref="269468311"/>
    <nd ref="269468312"/>
    <nd ref="765081059"/>
    <nd ref="430351489"/>
    <nd ref="765079952"/>
    <nd ref="269468313"/>
    <nd ref="269468564"/>
    <tag k="highway" v="secondary"/>
    <tag k="name" v="Ringstraße"/>
    <tag k="ref" v="L 3195"/>
  </way>
  <way id="24802701" version="3" timestamp="2010-07-08T00:22:32Z" uid="74617" user="JohnSmith" changeset="5162525">
    <nd ref="26957454"/>
    <nd ref="60295619"/>
    <nd ref="26957455"/>
    <nd ref="26957457"/>
    <tag k="highway" v="residential"/>
    <tag k="maxspeed" v="50"/>
    <tag k="maxspeed:source" v="default residential speed limit in Australia"/>
    <tag k="name" v="Warrington Avenue"/>
    <tag k="source" v="Yahoo Imagery"/>
  </way>
  <way id="24802701" version="4" timestamp="2012-01-16T16:47:46Z" uid="147510" user="woodpeck_fixbot" changeset="10408721">
    <nd ref="26957454"/>
    <nd ref="60295619"/>
    <nd ref="26957455"/>
    <nd ref="26957457"/>
    <tag k="highway" v="residential"/>
    <tag k="name" v="Warrington Avenue"/>
    <tag k="source" v="Yahoo Imagery"/>
  </way>
  <way id="24802721" version="3" timestamp="2008-08-10T06:17:45Z" uid="17602" user="B10xyz" changeset="163046">
    <nd ref="269468564"/>
    <nd ref="269468565"/>
    <nd ref="269468566"/>
    <nd ref="269468567"/>
    <nd ref="269468568"/>
    <nd ref="269468569"/>
    <nd ref="269468570"/>
    <nd ref="269468571"/>
    <nd ref="269468572"/>
    <nd ref="269468573"/>
    <nd ref="269468574"/>
    <nd ref="269468575"/>
    <nd ref="269468576"/>
    <nd ref="269468577"/>
    <nd ref="269468578"/>
    <nd ref="269468579"/>
    <nd ref="269468580"/>
    <nd ref="269468581"/>
    <nd ref="269468582"/>
    <nd ref="269468583"/>
    <nd ref="269468584"/>
    <nd ref="269468585"/>
    <nd ref="269468586"/>
    <nd ref="269468587"/>
    <nd ref="269468588"/>
    <nd ref="269468589"/>
    <nd ref="269468590"/>
    <nd ref="269468591"/>
    <nd ref="269468592"/>
    <nd ref="269468593"/>
    <nd ref="269468594"/>
    <nd ref="269468595"/>
    <nd ref="269468596"/>
    <nd ref="269468597"/>
    <nd ref="269468598"/>
    <nd ref="269468599"/>
    <nd ref="269468600"/>
    <nd ref="269468601"/>
    <nd ref="269468602"/>
    <nd ref="269468603"/>
    <nd ref="269468604"/>
    <nd ref="269468605"/>
    <nd ref="269468606"/>
    <nd ref="269468607"/>
    <nd ref="269468608"/>
    <nd ref="269468609"/>
    <nd ref="269468610"/>
    <nd ref="269468611"/>
    <nd ref="269468612"/>
    <nd ref="269468613"/>
    <nd ref="269468614"/>
    <nd ref="269468615"/>
    <nd ref="269468616"/>
    <nd ref="269468617"/>
    <nd ref="269468618"/>
    <nd ref="269468619"/>
    <nd ref="269468620"/>
    <nd ref="269468621"/>
    <nd ref="269468622"/>
    <nd ref="269468623"/>
    <nd ref="269468624"/>
    <nd ref="269468625"/>
    <nd ref="269468626"/>
    <nd ref="269468627"/>
    <nd ref="269468628"/>
    <nd ref="269468629"/>
    <nd ref="269468630"/>
    <nd ref="269468631"/>
    <nd ref="269468632"/>
    <nd ref="269468633"/>
    <nd ref="269468634"/>
    <nd ref="269468635"/>
    <nd ref="269468636"/>
    <nd ref="269468637"/>
    <nd ref="269468638"/>
    <nd ref="269468639"/>
    <nd ref="269468640"/>
    <nd ref="269468641"/>
    <nd ref="269468642"/>
    <nd ref="269468643"/>
    <nd ref="269468644"/>
    <nd ref="269468645"/>
    <nd ref="269468646"/>
    <nd ref="269468647"/>
    <nd ref="269468648"/>
    <nd ref="269468649"/>
    <nd ref="269468650"/>
    <nd ref="269468651"/>
    <nd ref="269468652"/>
    <nd ref="269468653"/>
    <nd ref="269468654"/>
    <nd ref="269468655"/>
    <nd ref="269468656"/>
    <nd ref="269468657"/>
    <nd ref="269468658"/>
    <nd ref="269468659"/>
    <nd ref="269468660"/>
    <nd ref="269468661"/>
    <nd ref="26596694"/>
    <tag k="created_by" v="Potlatch 0.9c"/>
    <tag k="highway" v="tertiary"/>
  </way>
  <way id="24802721" version="4" timestamp="2008-08-19T22:22:39Z" uid="52472" user="Trinius" changeset="337241">
    <nd ref="269468564"/>
    <nd ref="269468565"/>
    <nd ref="269468566"/>
    <nd ref="269468567"/>
    <nd ref="269468568"/>
    <nd ref="269468569"/>
    <nd ref="269468570"/>
    <nd ref="269468571"/>
    <nd ref="269468572"/>
    <nd ref="269468573"/>
    <nd ref="269468574"/>
    <nd ref="269468575"/>
    <nd ref="269468576"/>
    <nd ref="269468577"/>
    <nd ref="269468578"/>
    <nd ref="269468579"/>
    <nd ref="269468580"/>
    <nd ref="269468581"/>
    <nd ref="269468582"/>
    <nd ref="269468583"/>
    <nd ref="269468584"/>
    <nd ref="269468585"/>
    <nd ref="269468586"/>
    <nd ref="269468587"/>
    <nd ref="269468588"/>
    <nd ref="269468589"/>
    <nd ref="269468590"/>
    <nd ref="269468591"/>
    <nd ref="269468592"/>
    <nd ref="269468593"/>
    <nd ref="269468594"/>
    <nd ref="269468595"/>
    <nd ref="269468596"/>
    <nd ref="269468597"/>
    <nd ref="269468598"/>
    <nd ref="269468599"/>
    <nd ref="269468600"/>
    <nd ref="269468601"/>
    <nd ref="269468602"/>
    <nd ref="269468603"/>
    <nd ref="269468604"/>
    <nd ref="269468605"/>
    <nd ref="269468606"/>
    <nd ref="269468607"/>
    <nd ref="269468608"/>
    <nd ref="269468609"/>
    <nd ref="269468610"/>
    <nd ref="269468611"/>
    <nd ref="269468612"/>
    <nd ref="269468613"/>
    <nd ref="269468614"/>
    <nd ref="269468615"/>
    <nd ref="269468616"/>
    <nd ref="269468617"/>
    <nd ref="269468618"/>
    <nd ref="269468619"/>
    <nd ref="269468620"/>
    <nd ref="269468621"/>
    <nd ref="269468622"/>
    <nd ref="269468623"/>
    <nd ref="269468624"/>
    <nd ref="269468625"/>
    <nd ref="269468626"/>
    <nd ref="269468627"/>
    <nd ref="269468628"/>
    <nd ref="269468629"/>
    <nd ref="269468630"/>
    <nd ref="269468631"/>
    <nd ref="269468632"/>
    <nd ref="269468633"/>
    <nd ref="269468634"/>
    <nd ref="269468635"/>
    <nd ref="269468636"/>
    <nd ref="269468637"/>
    <nd ref="269468638"/>
    <nd ref="269468639"/>
    <nd ref="269468640"/>
    <nd ref="269468641"/>
    <nd ref="269468642"/>
    <nd ref="269468643"/>
    <nd ref="269468644"/>
    <nd ref="269468645"/>
    <nd ref="269468646"/>
    <nd ref="269468647"/>
    <nd ref="269468648"/>
    <nd ref="269468649"/>
    <nd ref="269468650"/>
    <nd ref="269468651"/>
    <nd ref="269468652"/>
    <nd ref="269468653"/>
    <nd ref="269468654"/>
    <nd ref="269468655"/>
    <nd ref="269468656"/>
    <nd ref="269468657"/>
    <nd ref="269468658"/>
    <nd ref="269468659"/>
    <nd ref="269468660"/>
    <nd ref="269468661"/>
    <nd ref="26596694"/>
    <nd ref="289531692"/>
    <nd ref="289531693"/>
    <nd ref="289531694"/>
    <nd ref="289531695"/>
    <nd ref="289531696"/>
    <nd ref="289531697"/>
    <nd ref="289531698"/>
    <nd ref="289531699"/>
    <nd ref="289531700"/>
    <nd ref="289531701"/>
    <nd ref="289531702"/>
    <nd ref="289531703"/>
    <nd ref="289531704"/>
    <nd ref="289531705"/>
    <nd ref="289531706"/>
    <nd ref="289531707"/>
    <nd ref="289531709"/>
    <nd ref="289531710"/>
    <nd ref="289531711"/>
    <nd ref="289531712"/>
    <nd ref="289531713"/>
    <nd ref="289531714"/>
    <nd ref="289531719"/>
    <nd ref="289531720"/>
    <nd ref="289531721"/>
    <nd ref="289531722"/>
    <nd ref="289531723"/>
    <nd ref="289531724"/>
    <tag k="bridge" v="no"/>
    <tag k="created_by" v="Potlatch 0.9c"/>
    <tag k="highway" v="secondary"/>
    <tag k="name" v="L 3179"/>
    <tag k="oneway" v="no"/>
  </way>
  <way id="24802721" version="5" timestamp="2008-08-19T22:27:06Z" uid="52472" user="Trinius" changeset="337241">
    <nd ref="269468564"/>
    <nd ref="269468565"/>
    <nd ref="269468566"/>
    <nd ref="269468567"/>
    <nd ref="269468568"/>
    <nd ref="269468569"/>
    <nd ref="269468570"/>
    <nd ref="269468571"/>
    <nd ref="269468572"/>
    <nd ref="269468573"/>
    <nd ref="269468574"/>
    <nd ref="269468575"/>
    <nd ref="269468576"/>
    <nd ref="269468577"/>
    <nd ref="269468578"/>
    <nd ref="269468579"/>
    <nd ref="269468580"/>
    <nd ref="269468581"/>
    <nd ref="269468582"/>
    <nd ref="269468583"/>
    <nd ref="269468584"/>
    <nd ref="269468585"/>
    <nd ref="269468586"/>
    <nd ref="269468587"/>
    <nd ref="269468588"/>
    <nd ref="269468589"/>
    <nd ref="269468590"/>
    <nd ref="269468591"/>
    <nd ref="269468592"/>
    <nd ref="269468593"/>
    <nd ref="269468594"/>
    <nd ref="269468595"/>
    <nd ref="269468596"/>
    <nd ref="269468597"/>
    <nd ref="269468598"/>
    <nd ref="269468599"/>
    <nd ref="269468600"/>
    <nd ref="269468601"/>
    <nd ref="269468602"/>
    <nd ref="269468603"/>
    <nd ref="269468604"/>
    <nd ref="269468605"/>
    <nd ref="269468606"/>
    <nd ref="269468607"/>
    <nd ref="269468608"/>
    <nd ref="269468609"/>
    <nd ref="269468610"/>
    <nd ref="269468611"/>
    <nd ref="269468612"/>
    <nd ref="269468613"/>
    <nd ref="269468614"/>
    <nd ref="269468615"/>
    <nd ref="269468616"/>
    <nd ref="269468617"/>
    <nd ref="269468618"/>
    <nd ref="269468619"/>
    <nd ref="269468620"/>
    <nd ref="269468621"/>
    <nd ref="269468622"/>
    <nd ref="269468623"/>
    <nd ref="269468624"/>
    <nd ref="269468625"/>
    <nd ref="269468626"/>
    <nd ref="269468627"/>
    <nd ref="269468628"/>
    <nd ref="269468629"/>
    <nd ref="269468630"/>
    <nd ref="269468631"/>
    <nd ref="269468632"/>
    <nd ref="269468633"/>
    <nd ref="269468634"/>
    <nd ref="269468635"/>
    <nd ref="269468636"/>
    <nd ref="269468637"/>
    <nd ref="269468638"/>
    <nd ref="269468639"/>
    <nd ref="269468640"/>
    <nd ref="269468641"/>
    <nd ref="269468642"/>
    <nd ref="269468643"/>
    <nd ref="269468644"/>
    <nd ref="269468645"/>
    <nd ref="269468646"/>
    <nd ref="269468647"/>
    <nd ref="269468648"/>
    <nd ref="269468649"/>
    <nd ref="269468650"/>
    <nd ref="269468651"/>
    <nd ref="269468652"/>
    <nd ref="269468653"/>
    <nd ref="269468654"/>
    <nd ref="269468655"/>
    <nd ref="269468656"/>
    <nd ref="269468657"/>
    <nd ref="269468658"/>
    <nd ref="269468659"/>
    <nd ref="269468660"/>
    <nd ref="269468661"/>
    <nd ref="26596694"/>
    <nd ref="289531692"/>
    <nd ref="289531693"/>
    <nd ref="289531694"/>
    <nd ref="289531695"/>
    <nd ref="289531696"/>
    <nd ref="289531697"/>
    <nd ref="289531698"/>
    <nd ref="289531699"/>
    <nd ref="289531700"/>
    <nd ref="289531701"/>
    <nd ref="289531702"/>
    <nd ref="289531703"/>
    <nd ref="289531704"/>
    <nd ref="289531705"/>
    <nd ref="289531706"/>
    <nd ref="289531707"/>
    <nd ref="289531709"/>
    <nd ref="289531710"/>
    <nd ref="289531711"/>
    <nd ref="289531712"/>
    <nd ref="289531713"/>
    <nd ref="289531714"/>
    <nd ref="289531719"/>
    <nd ref="289531720"/>
    <nd ref="289531721"/>
    <nd ref="289531722"/>
    <nd ref="289531723"/>
    <nd ref="289531724"/>
    <tag k="bridge" v="no"/>
    <tag k="created_by" v="JOSM"/>
    <tag k="highway" v="secondary"/>
    <tag k="name" v="L 3179 - Spessart-Höhenstrasse"/>
    <tag k="oneway" v="no"/>
  </way>
  <way id="24802721" version="6" timestamp="2008-08-22T11:35:34Z" uid="52472" user="Trinius" changeset="371358">
    <nd ref="269468564"/>
    <nd ref="269468565"/>
    <nd ref="269468566"/>
    <nd ref="269468567"/>
    <nd ref="269468568"/>
    <nd ref="269468569"/>
    <nd ref="269468570"/>
    <nd ref="269468571"/>
    <nd ref="269468572"/>
    <nd ref="269468573"/>
    <nd ref="269468574"/>
    <nd ref="269468575"/>
    <nd ref="269468576"/>
    <nd ref="269468577"/>
    <nd ref="269468578"/>
    <nd ref="269468579"/>
    <nd ref="269468580"/>
    <nd ref="269468581"/>
    <nd ref="269468582"/>
    <nd ref="269468583"/>
    <nd ref="269468584"/>
    <nd ref="269468585"/>
    <nd ref="269468586"/>
    <nd ref="269468587"/>
    <nd ref="269468588"/>
    <nd ref="269468589"/>
    <nd ref="269468590"/>
    <nd ref="269468591"/>
    <nd ref="269468592"/>
    <nd ref="269468593"/>
    <nd ref="269468594"/>
    <nd ref="269468595"/>
    <nd ref="269468596"/>
    <nd ref="269468597"/>
    <nd ref="269468598"/>
    <nd ref="269468599"/>
    <nd ref="269468600"/>
    <nd ref="269468601"/>
    <nd ref="269468602"/>
    <nd ref="269468603"/>
    <nd ref="269468604"/>
    <nd ref="269468605"/>
    <nd ref="269468606"/>
    <nd ref="269468607"/>
    <nd ref="269468608"/>
    <nd ref="269468609"/>
    <nd ref="269468610"/>
    <nd ref="269468611"/>
    <nd ref="269468612"/>
    <nd ref="269468613"/>
    <nd ref="269468614"/>
    <nd ref="269468615"/>
    <nd ref="269468616"/>
    <nd ref="269468617"/>
    <nd ref="269468618"/>
    <nd ref="269468619"/>
    <nd ref="269468620"/>
    <nd ref="269468621"/>
    <nd ref="269468622"/>
    <nd ref="269468623"/>
    <nd ref="269468624"/>
    <nd ref="269468625"/>
    <nd ref="269468626"/>
    <nd ref="269468627"/>
    <nd ref="269468628"/>
    <nd ref="269468629"/>
    <nd ref="269468630"/>
    <nd ref="269468631"/>
    <nd ref="269468632"/>
    <nd ref="269468633"/>
    <nd ref="269468634"/>
    <nd ref="269468635"/>
    <nd ref="269468636"/>
    <nd ref="269468637"/>
    <nd ref="269468638"/>
    <nd ref="269468639"/>
    <nd ref="269468640"/>
    <nd ref="269468641"/>
    <nd ref="269468642"/>
    <nd ref="269468643"/>
    <nd ref="269468644"/>
    <nd ref="269468645"/>
    <nd ref="269468646"/>
    <nd ref="269468647"/>
    <nd ref="269468648"/>
    <nd ref="269468649"/>
    <nd ref="269468650"/>
    <nd ref="269468651"/>
    <nd ref="269468652"/>
    <nd ref="269468653"/>
    <nd ref="269468654"/>
    <nd ref="269468655"/>
    <nd ref="269468656"/>
    <nd ref="269468657"/>
    <nd ref="269468658"/>
    <nd ref="269468659"/>
    <nd ref="269468660"/>
    <nd ref="269468661"/>
    <nd ref="26596694"/>
    <nd ref="289531692"/>
    <nd ref="289531693"/>
    <nd ref="289531694"/>
    <nd ref="289531695"/>
    <nd ref="289531696"/>
    <nd ref="289531697"/>
    <nd ref="289531698"/>
    <nd ref="289531699"/>
    <nd ref="289531700"/>
    <nd ref="289531701"/>
    <nd ref="289531702"/>
    <nd ref="289531703"/>
    <nd ref="289531704"/>
    <nd ref="289531705"/>
    <nd ref="289531706"/>
    <nd ref="289531707"/>
    <nd ref="289531709"/>
    <nd ref="289531710"/>
    <nd ref="289531711"/>
    <nd ref="289531712"/>
    <nd ref="289531713"/>
    <nd ref="289531714"/>
    <nd ref="289531719"/>
    <nd ref="289531720"/>
    <nd ref="289531721"/>
    <nd ref="289531722"/>
    <nd ref="289531723"/>
    <nd ref="289531724"/>
    <tag k="bridge" v="no"/>
    <tag k="created_by" v="JOSM"/>
    <tag k="highway" v="secondary"/>
    <tag k="name" v="Spessart-Höhenstrasse"/>
    <tag k="oneway" v="no"/>
    <tag k="ref" v="L 3179"/>
  </way>
  <way id="24802721" version="7" timestamp="2008-09-05T12:56:47Z" uid="31059" user="DaBear" changeset="535450">
    <nd ref="269468564"/>
    <nd ref="269468565"/>
    <nd ref="269468566"/>
    <nd ref="269468567"/>
    <nd ref="269468568"/>
    <nd ref="269468569"/>
    <nd ref="269468570"/>
    <nd ref="269468571"/>
    <nd ref="269468572"/>
    <nd ref="269468573"/>
    <nd ref="269468574"/>
    <nd ref="269468575"/>
    <nd ref="269468576"/>
    <nd ref="269468577"/>
    <nd ref="269468578"/>
    <nd ref="269468579"/>
    <nd ref="269468580"/>
    <nd ref="269468581"/>
    <nd ref="269468582"/>
    <nd ref="269468583"/>
    <nd ref="269468584"/>
    <nd ref="269468585"/>
    <nd ref="269468586"/>
    <nd ref="269468587"/>
    <nd ref="269468588"/>
    <nd ref="269468589"/>
    <nd ref="269468590"/>
    <nd ref="269468591"/>
    <nd ref="269468592"/>
    <nd ref="269468593"/>
    <nd ref="269468594"/>
    <nd ref="269468595"/>
    <nd ref="269468596"/>
    <nd ref="269468597"/>
    <nd ref="269468598"/>
    <nd ref="269468599"/>
    <nd ref="269468600"/>
    <nd ref="269468601"/>
    <nd ref="269468602"/>
    <nd ref="269468603"/>
    <nd ref="269468604"/>
    <nd ref="269468605"/>
    <nd ref="269468606"/>
    <nd ref="269468607"/>
    <nd ref="269468608"/>
    <nd ref="269468609"/>
    <nd ref="269468610"/>
    <nd ref="269468611"/>
    <nd ref="269468612"/>
    <nd ref="269468613"/>
    <nd ref="269468614"/>
    <nd ref="269468615"/>
    <nd ref="269468616"/>
    <nd ref="269468617"/>
    <nd ref="269468618"/>
    <nd ref="269468619"/>
    <nd ref="269468620"/>
    <nd ref="269468621"/>
    <nd ref="269468622"/>
    <nd ref="269468623"/>
    <nd ref="269468624"/>
    <nd ref="269468625"/>
    <nd ref="269468626"/>
    <nd ref="269468627"/>
    <nd ref="269468628"/>
    <nd ref="269468629"/>
    <nd ref="269468630"/>
    <nd ref="269468631"/>
    <nd ref="269468632"/>
    <nd ref="269468633"/>
    <nd ref="269468634"/>
    <nd ref="269468635"/>
    <nd ref="269468636"/>
    <nd ref="269468637"/>
    <nd ref="269468638"/>
    <nd ref="269468639"/>
    <nd ref="269468640"/>
    <nd ref="269468641"/>
    <nd ref="269468642"/>
    <nd ref="269468643"/>
    <nd ref="269468644"/>
    <nd ref="269468645"/>
    <nd ref="269468646"/>
    <nd ref="269468647"/>
    <nd ref="269468648"/>
    <nd ref="269468649"/>
    <nd ref="269468650"/>
    <nd ref="269468651"/>
    <nd ref="269468652"/>
    <nd ref="269468653"/>
    <nd ref="269468654"/>
    <nd ref="269468655"/>
    <nd ref="269468656"/>
    <nd ref="269468657"/>
    <nd ref="269468658"/>
    <nd ref="269468659"/>
    <nd ref="269468660"/>
    <nd ref="269468661"/>
    <nd ref="26596694"/>
    <nd ref="289531692"/>
    <nd ref="289531693"/>
    <nd ref="289531694"/>
    <nd ref="289531695"/>
    <nd ref="289531696"/>
    <nd ref="289531697"/>
    <nd ref="289531698"/>
    <nd ref="289531699"/>
    <nd ref="289531700"/>
    <nd ref="289531701"/>
    <nd ref="289531702"/>
    <nd ref="289531703"/>
    <nd ref="289531704"/>
    <nd ref="289531705"/>
    <nd ref="289531706"/>
    <nd ref="289531707"/>
    <nd ref="289531709"/>
    <nd ref="289531710"/>
    <nd ref="289531711"/>
    <nd ref="289531712"/>
    <nd ref="289531713"/>
    <nd ref="289531714"/>
    <nd ref="289531719"/>
    <nd ref="289531720"/>
    <nd ref="289531721"/>
    <nd ref="289531722"/>
    <nd ref="289531723"/>
    <nd ref="289531724"/>
    <tag k="bridge" v="no"/>
    <tag k="created_by" v="JOSM"/>
    <tag k="highway" v="secondary"/>
    <tag k="name" v="Spessart-Höhenstraße"/>
    <tag k="oneway" v="no"/>
    <tag k="ref" v="L 3179"/>
  </way>
  <way id="24802721" version="8" timestamp="2008-12-22T06:31:35Z" uid="45952" user="plexi32" changeset="539731">
    <nd ref="269468564"/>
    <nd ref="269468565"/>
    <nd ref="269468566"/>
    <nd ref="269468567"/>
    <nd ref="269468568"/>
    <nd ref="269468569"/>
    <nd ref="269468570"/>
    <nd ref="269468571"/>
    <nd ref="269468572"/>
    <nd ref="269468573"/>
    <nd ref="269468574"/>
    <nd ref="269468575"/>
    <nd ref="269468576"/>
    <nd ref="269468577"/>
    <nd ref="269468578"/>
    <nd ref="269468579"/>
    <nd ref="269468580"/>
    <nd ref="269468581"/>
    <nd ref="269468582"/>
    <nd ref="269468583"/>
    <nd ref="269468584"/>
    <nd ref="269468585"/>
    <nd ref="269468586"/>
    <nd ref="269468587"/>
    <nd ref="269468588"/>
    <nd ref="269468589"/>
    <nd ref="269468590"/>
    <nd ref="269468591"/>
    <nd ref="269468592"/>
    <nd ref="269468593"/>
    <nd ref="269468594"/>
    <nd ref="269468595"/>
    <nd ref="269468596"/>
    <nd ref="269468597"/>
    <nd ref="269468598"/>
    <nd ref="269468599"/>
    <nd ref="269468600"/>
    <nd ref="269468601"/>
    <nd ref="269468602"/>
    <nd ref="269468603"/>
    <nd ref="269468604"/>
    <nd ref="269468605"/>
    <nd ref="269468606"/>
    <nd ref="269468607"/>
    <nd ref="269468608"/>
    <nd ref="269468609"/>
    <nd ref="269468610"/>
    <nd ref="269468611"/>
    <nd ref="269468612"/>
    <nd ref="269468613"/>
    <nd ref="269468614"/>
    <nd ref="269468615"/>
    <nd ref="269468616"/>
    <nd ref="269468617"/>
    <nd ref="269468618"/>
    <nd ref="269468619"/>
    <nd ref="269468620"/>
    <nd ref="269468621"/>
    <nd ref="269468622"/>
    <nd ref="269468623"/>
    <nd ref="269468624"/>
    <nd ref="269468625"/>
    <nd ref="269468626"/>
    <nd ref="269468627"/>
    <nd ref="269468628"/>
    <nd ref="269468629"/>
    <nd ref="269468630"/>
    <nd ref="269468631"/>
    <nd ref="269468632"/>
    <nd ref="269468633"/>
    <nd ref="269468634"/>
    <nd ref="269468635"/>
    <nd ref="269468636"/>
    <nd ref="269468637"/>
    <nd ref="269468638"/>
    <nd ref="269468639"/>
    <nd ref="269468640"/>
    <nd ref="269468641"/>
    <nd ref="269468642"/>
    <nd ref="269468643"/>
    <nd ref="269468644"/>
    <nd ref="269468645"/>
    <nd ref="269468646"/>
    <nd ref="269468647"/>
    <nd ref="269468648"/>
    <nd ref="269468649"/>
    <nd ref="269468650"/>
    <nd ref="269468651"/>
    <nd ref="269468652"/>
    <nd ref="269468653"/>
    <nd ref="269468654"/>
    <nd ref="269468655"/>
    <nd ref="269468656"/>
    <nd ref="269468657"/>
    <nd ref="269468658"/>
    <nd ref="269468659"/>
    <nd ref="269468660"/>
    <nd ref="269468661"/>
    <nd ref="26596694"/>
    <nd ref="289531692"/>
    <nd ref="289531693"/>
    <nd ref="289531694"/>
    <nd ref="289531695"/>
    <nd ref="289531696"/>
    <nd ref="289531697"/>
    <nd ref="289531698"/>
    <nd ref="289531699"/>
    <nd ref="289531700"/>
    <nd ref="289531701"/>
    <nd ref="289531702"/>
    <nd ref="289531703"/>
    <nd ref="289531704"/>
    <nd ref="289531705"/>
    <nd ref="289531706"/>
    <nd ref="289531707"/>
    <nd ref="289531709"/>
    <nd ref="289531710"/>
    <nd ref="289531711"/>
    <nd ref="289531712"/>
    <nd ref="289531713"/>
    <nd ref="289531714"/>
    <nd ref="289531719"/>
    <nd ref="289531720"/>
    <nd ref="289531721"/>
    <nd ref="289531722"/>
    <nd ref="289531723"/>
    <nd ref="289531724"/>
    <tag k="created_by" v="JOSM"/>
    <tag k="highway" v="secondary"/>
    <tag k="name" v="Spessart-Höhenstraße"/>
    <tag k="ref" v="L 3179"/>
  </way>
  <way id="24802721" version="9" timestamp="2008-12-22T06:54:10Z" uid="45952" user="plexi32" changeset="539731">
    <nd ref="269468564"/>
    <nd ref="269468565"/>
    <nd ref="269468566"/>
    <nd ref="269468567"/>
    <nd ref="269468568"/>
    <nd ref="269468569"/>
    <nd ref="269468570"/>
    <nd ref="269468571"/>
    <nd ref="269468572"/>
    <nd ref="269468573"/>
    <nd ref="269468574"/>
    <nd ref="269468575"/>
    <nd ref="269468576"/>
    <nd ref="269468577"/>
    <nd ref="269468578"/>
    <nd ref="269468579"/>
    <nd ref="269468580"/>
    <nd ref="269468581"/>
    <nd ref="269468582"/>
    <nd ref="269468583"/>
    <nd ref="269468584"/>
    <nd ref="269468585"/>
    <nd ref="269468586"/>
    <nd ref="269468587"/>
    <nd ref="269468588"/>
    <nd ref="269468589"/>
    <nd ref="269468590"/>
    <nd ref="269468591"/>
    <nd ref="269468592"/>
    <nd ref="269468593"/>
    <nd ref="269468594"/>
    <nd ref="269468595"/>
    <nd ref="269468596"/>
    <nd ref="269468597"/>
    <nd ref="269468598"/>
    <nd ref="269468599"/>
    <nd ref="269468600"/>
    <nd ref="269468601"/>
    <nd ref="269468602"/>
    <nd ref="269468603"/>
    <nd ref="269468604"/>
    <nd ref="269468605"/>
    <nd ref="269468606"/>
    <nd ref="269468607"/>
    <nd ref="269468608"/>
    <nd ref="269468609"/>
    <nd ref="269468610"/>
    <nd ref="269468611"/>
    <nd ref="269468612"/>
    <nd ref="269468613"/>
    <nd ref="269468614"/>
    <nd ref="269468615"/>
    <nd ref="269468616"/>
    <nd ref="269468617"/>
    <nd ref="269468618"/>
    <nd ref="269468619"/>
    <nd ref="269468620"/>
    <nd ref="269468621"/>
    <nd ref="269468622"/>
    <nd ref="269468623"/>
    <nd ref="269468624"/>
    <nd ref="269468625"/>
    <nd ref="269468626"/>
    <nd ref="269468627"/>
    <nd ref="269468628"/>
    <nd ref="269468629"/>
    <nd ref="269468630"/>
    <nd ref="269468631"/>
    <nd ref="269468632"/>
    <nd ref="269468633"/>
    <nd ref="269468634"/>
    <nd ref="269468635"/>
    <nd ref="269468636"/>
    <nd ref="269468637"/>
    <nd ref="269468638"/>
    <nd ref="269468639"/>
    <nd ref="269468640"/>
    <nd ref="269468641"/>
    <nd ref="269468642"/>
    <nd ref="269468643"/>
    <nd ref="269468644"/>
    <nd ref="320826634"/>
    <nd ref="269468645"/>
    <nd ref="269468646"/>
    <nd ref="269468647"/>
    <nd ref="269468648"/>
    <nd ref="269468649"/>
    <nd ref="269468650"/>
    <nd ref="269468651"/>
    <nd ref="269468652"/>
    <nd ref="269468653"/>
    <nd ref="269468654"/>
    <nd ref="269468655"/>
    <nd ref="269468656"/>
    <nd ref="269468657"/>
    <nd ref="269468658"/>
    <nd ref="269468659"/>
    <nd ref="269468660"/>
    <nd ref="269468661"/>
    <nd ref="320826738"/>
    <nd ref="320826739"/>
    <nd ref="26596694"/>
    <nd ref="289531692"/>
    <nd ref="289531693"/>
    <nd ref="289531694"/>
    <nd ref="289531695"/>
    <nd ref="320826740"/>
    <nd ref="289531696"/>
    <nd ref="289531697"/>
    <nd ref="320826757"/>
    <nd ref="289531698"/>
    <nd ref="289531699"/>
    <nd ref="289531700"/>
    <nd ref="289531701"/>
    <nd ref="289531702"/>
    <nd ref="289531703"/>
    <nd ref="289531704"/>
    <nd ref="289531705"/>
    <nd ref="289531706"/>
    <nd ref="289531707"/>
    <nd ref="289531709"/>
    <nd ref="289531710"/>
    <nd ref="289531711"/>
    <nd ref="289531712"/>
    <nd ref="289531713"/>
    <nd ref="289531714"/>
    <nd ref="289531719"/>
    <nd ref="289531720"/>
    <nd ref="289531721"/>
    <nd ref="289531722"/>
    <nd ref="289531723"/>
    <nd ref="289531724"/>
    <tag k="created_by" v="JOSM"/>
    <tag k="highway" v="secondary"/>
    <tag k="name" v="Spessart-Höhenstraße"/>
    <tag k="ref" v="L 3179"/>
  </way>
  <way id="24802721" version="10" timestamp="2008-12-22T07:01:39Z" uid="45952" user="plexi32" changeset="539731">
    <nd ref="269468564"/>
    <nd ref="269468565"/>
    <nd ref="269468566"/>
    <nd ref="269468567"/>
    <nd ref="269468568"/>
    <nd ref="269468569"/>
    <nd ref="269468570"/>
    <nd ref="269468571"/>
    <nd ref="269468572"/>
    <nd ref="269468573"/>
    <nd ref="269468574"/>
    <nd ref="269468575"/>
    <nd ref="269468576"/>
    <nd ref="269468577"/>
    <nd ref="269468578"/>
    <nd ref="269468579"/>
    <nd ref="269468580"/>
    <nd ref="269468581"/>
    <nd ref="269468582"/>
    <nd ref="269468583"/>
    <nd ref="269468584"/>
    <nd ref="269468585"/>
    <nd ref="269468586"/>
    <nd ref="269468587"/>
    <nd ref="269468588"/>
    <nd ref="269468589"/>
    <nd ref="269468590"/>
    <nd ref="269468591"/>
    <nd ref="269468592"/>
    <nd ref="269468593"/>
    <nd ref="269468594"/>
    <nd ref="269468595"/>
    <nd ref="269468596"/>
    <nd ref="269468597"/>
    <nd ref="269468598"/>
    <nd ref="269468599"/>
    <nd ref="269468600"/>
    <nd ref="269468601"/>
    <nd ref="269468602"/>
    <nd ref="269468603"/>
    <nd ref="269468604"/>
    <nd ref="269468605"/>
    <nd ref="269468606"/>
    <nd ref="269468607"/>
    <nd ref="269468608"/>
    <nd ref="269468609"/>
    <nd ref="269468610"/>
    <nd ref="269468611"/>
    <nd ref="269468612"/>
    <nd ref="269468613"/>
    <nd ref="269468614"/>
    <nd ref="269468615"/>
    <nd ref="269468616"/>
    <nd ref="269468617"/>
    <nd ref="269468618"/>
    <nd ref="269468619"/>
    <nd ref="269468620"/>
    <nd ref="269468621"/>
    <nd ref="269468622"/>
    <nd ref="269468623"/>
    <nd ref="269468624"/>
    <nd ref="269468625"/>
    <nd ref="269468626"/>
    <nd ref="269468627"/>
    <nd ref="269468628"/>
    <nd ref="269468629"/>
    <nd ref="269468630"/>
    <nd ref="269468631"/>
    <nd ref="269468632"/>
    <nd ref="269468633"/>
    <nd ref="269468634"/>
    <nd ref="269468635"/>
    <nd ref="269468636"/>
    <nd ref="269468637"/>
    <nd ref="269468638"/>
    <nd ref="269468639"/>
    <nd ref="269468640"/>
    <nd ref="269468641"/>
    <nd ref="269468642"/>
    <nd ref="269468643"/>
    <nd ref="269468644"/>
    <nd ref="320826634"/>
    <nd ref="269468645"/>
    <nd ref="269468646"/>
    <nd ref="269468647"/>
    <nd ref="269468648"/>
    <nd ref="269468649"/>
    <nd ref="269468650"/>
    <nd ref="269468651"/>
    <nd ref="269468652"/>
    <nd ref="269468653"/>
    <nd ref="269468654"/>
    <nd ref="269468655"/>
    <nd ref="269468656"/>
    <nd ref="269468657"/>
    <nd ref="269468658"/>
    <nd ref="269468659"/>
    <nd ref="269468660"/>
    <nd ref="269468661"/>
    <nd ref="320826738"/>
    <nd ref="320826739"/>
    <nd ref="26596694"/>
    <nd ref="289531692"/>
    <nd ref="289531693"/>
    <nd ref="289531694"/>
    <nd ref="289531695"/>
    <nd ref="320826740"/>
    <nd ref="289531696"/>
    <nd ref="289531697"/>
    <nd ref="320826757"/>
    <nd ref="289531698"/>
    <nd ref="289531699"/>
    <nd ref="289531700"/>
    <nd ref="289531701"/>
    <nd ref="289531702"/>
    <nd ref="289531703"/>
    <nd ref="289531704"/>
    <nd ref="289531705"/>
    <nd ref="289531706"/>
    <nd ref="289531707"/>
    <nd ref="289531709"/>
    <nd ref="289531710"/>
    <nd ref="289531711"/>
    <nd ref="289531712"/>
    <nd ref="289531713"/>
    <nd ref="289531714"/>
    <nd ref="289531719"/>
    <nd ref="289531720"/>
    <nd ref="289531721"/>
    <nd ref="289531722"/>
    <nd ref="289531723"/>
    <nd ref="289531724"/>
    <tag k="created_by" v="JOSM"/>
    <tag k="highway" v="secondary"/>
    <tag k="name" v="Spessart-Höhenstraße"/>
    <tag k="ref" v="L 3179"/>
  </way>
  <way id="24802721" version="11" timestamp="2009-04-13T16:49:32Z" uid="31470" user="Tom63452" changeset="475510">
    <nd ref="269468564"/>
    <nd ref="374182835"/>
    <nd ref="269468565"/>
    <nd ref="374182838"/>
    <nd ref="269468566"/>
    <nd ref="269468567"/>
    <nd ref="374182841"/>
    <nd ref="374182846"/>
    <nd ref="269468568"/>
    <nd ref="374182851"/>
    <nd ref="269468569"/>
    <nd ref="269468570"/>
    <nd ref="374182855"/>
    <nd ref="269468571"/>
    <nd ref="269468572"/>
    <nd ref="269468573"/>
    <nd ref="269468574"/>
    <nd ref="269468575"/>
    <nd ref="269468576"/>
    <nd ref="269468577"/>
    <nd ref="269468578"/>
    <nd ref="269468579"/>
    <nd ref="374182859"/>
    <nd ref="269468580"/>
    <nd ref="374182864"/>
    <nd ref="269468581"/>
    <nd ref="269468582"/>
    <nd ref="269468583"/>
    <nd ref="269468584"/>
    <nd ref="269468585"/>
    <nd ref="269468586"/>
    <nd ref="269468587"/>
    <nd ref="269468588"/>
    <nd ref="269468589"/>
    <nd ref="269468590"/>
    <nd ref="269468591"/>
    <nd ref="374182868"/>
    <nd ref="269468592"/>
    <nd ref="269468593"/>
    <nd ref="269468594"/>
    <nd ref="374182887"/>
    <nd ref="269468595"/>
    <nd ref="269468596"/>
    <nd ref="374182872"/>
    <nd ref="269468597"/>
    <nd ref="374182890"/>
    <nd ref="269468598"/>
    <nd ref="269468599"/>
    <nd ref="269468600"/>
    <nd ref="269468601"/>
    <nd ref="269468602"/>
    <nd ref="269468603"/>
    <nd ref="269468604"/>
    <nd ref="269468605"/>
    <nd ref="269468606"/>
    <nd ref="269468607"/>
    <nd ref="269468608"/>
    <nd ref="269468609"/>
    <nd ref="269468610"/>
    <nd ref="269468611"/>
    <nd ref="269468612"/>
    <nd ref="269468613"/>
    <nd ref="269468614"/>
    <nd ref="269468615"/>
    <nd ref="269468616"/>
    <nd ref="269468617"/>
    <nd ref="269468618"/>
    <nd ref="269468619"/>
    <nd ref="269468620"/>
    <nd ref="269468621"/>
    <nd ref="269468622"/>
    <nd ref="269468623"/>
    <nd ref="269468624"/>
    <nd ref="269468625"/>
    <nd ref="269468626"/>
    <nd ref="269468627"/>
    <nd ref="269468628"/>
    <nd ref="269468629"/>
    <nd ref="269468630"/>
    <nd ref="269468631"/>
    <nd ref="269468632"/>
    <nd ref="269468633"/>
    <nd ref="269468634"/>
    <nd ref="269468635"/>
    <nd ref="269468636"/>
    <nd ref="269468637"/>
    <nd ref="269468638"/>
    <nd ref="269468639"/>
    <nd ref="269468640"/>
    <nd ref="269468641"/>
    <nd ref="269468642"/>
    <nd ref="269468643"/>
    <nd ref="269468644"/>
    <nd ref="320826634"/>
    <nd ref="269468645"/>
    <nd ref="269468646"/>
    <nd ref="269468647"/>
    <nd ref="269468648"/>
    <nd ref="269468649"/>
    <nd ref="269468650"/>
    <nd ref="269468651"/>
    <nd ref="269468652"/>
    <nd ref="269468653"/>
    <nd ref="269468654"/>
    <nd ref="269468655"/>
    <nd ref="269468656"/>
    <nd ref="269468657"/>
    <nd ref="269468658"/>
    <nd ref="269468659"/>
    <nd ref="269468660"/>
    <nd ref="269468661"/>
    <nd ref="320826738"/>
    <nd ref="320826739"/>
    <nd ref="26596694"/>
    <nd ref="289531692"/>
    <nd ref="289531693"/>
    <nd ref="289531694"/>
    <nd ref="289531695"/>
    <nd ref="320826740"/>
    <nd ref="289531696"/>
    <nd ref="289531697"/>
    <nd ref="320826757"/>
    <nd ref="289531698"/>
    <nd ref="289531699"/>
    <nd ref="289531700"/>
    <nd ref="289531701"/>
    <nd ref="289531702"/>
    <nd ref="289531703"/>
    <nd ref="289531704"/>
    <nd ref="289531705"/>
    <nd ref="289531706"/>
    <nd ref="289531707"/>
    <nd ref="289531709"/>
    <nd ref="289531710"/>
    <nd ref="289531711"/>
    <nd ref="289531712"/>
    <nd ref="289531713"/>
    <nd ref="289531714"/>
    <nd ref="289531719"/>
    <nd ref="289531720"/>
    <nd ref="289531721"/>
    <nd ref="289531722"/>
    <nd ref="289531723"/>
    <nd ref="289531724"/>
    <tag k="created_by" v="JOSM"/>
    <tag k="highway" v="secondary"/>
    <tag k="name" v="Spessart-Höhenstraße"/>
    <tag k="ref" v="L 3179"/>
  </way>
  <way id="24802721" version="12" timestamp="2009-06-14T13:21:27Z" uid="113614" user="brandy" changeset="1514172">
    <nd ref="420221670"/>
    <nd ref="420221672"/>
    <nd ref="420221673"/>
    <nd ref="420221662"/>
    <nd ref="420221675"/>
    <nd ref="269468564"/>
    <tag k="created_by" v="JOSM"/>
    <tag k="highway" v="residential"/>
    <tag k="name" v="Brüder-Grimm-Straße"/>
  </way>
  <way id="24802721" version="13" timestamp="2009-06-18T18:42:31Z" uid="42121" user="NightCyclist" changeset="1557229">
    <nd ref="420221670"/>
    <nd ref="420221672"/>
    <nd ref="420221673"/>
    <nd ref="420221662"/>
    <tag k="created_by" v="JOSM"/>
    <tag k="highway" v="residential"/>
    <tag k="name" v="Brüder-Grimm-Straße"/>
  </way>
  <way id="24802721" version="14" timestamp="2009-06-28T16:58:32Z" uid="8464" user="MichaH" changeset="1665926">
    <nd ref="424222487"/>
    <nd ref="430351546"/>
    <nd ref="430351536"/>
    <nd ref="424222486"/>
    <nd ref="430351504"/>
    <nd ref="430351519"/>
    <nd ref="420221670"/>
    <tag k="highway" v="pedestrian"/>
    <tag k="name" v="Brüder-Grimm-Straße"/>
  </way>
  <way id="24802721" version="15" timestamp="2011-01-04T22:50:39Z" uid="303960" user="hanjoerch" changeset="6866974">
    <nd ref="424222487"/>
    <nd ref="430351546"/>
    <nd ref="430351536"/>
    <nd ref="424222486"/>
    <nd ref="430351504"/>
    <nd ref="430351519"/>
    <nd ref="420221670"/>
    <tag k="highway" v="living_street"/>
    <tag k="name" v="Brüder-Grimm-Straße"/>
  </way>
  <way id="24802723" version="5" timestamp="2009-04-04T09:16:40Z" uid="64977" user="CLoeser" changeset="160679">
    <nd ref="269468678"/>
    <nd ref="293061725"/>
    <nd ref="292574663"/>
    <nd ref="269468679"/>
    <nd ref="269468680"/>
    <nd ref="344598556"/>
    <nd ref="269468681"/>
    <nd ref="269468682"/>
    <nd ref="269468683"/>
    <nd ref="269468684"/>
    <nd ref="344598545"/>
    <nd ref="369675549"/>
    <nd ref="269468685"/>
    <nd ref="269468686"/>
    <nd ref="269468687"/>
    <nd ref="269468688"/>
    <nd ref="269468689"/>
    <nd ref="344598540"/>
    <nd ref="269468690"/>
    <nd ref="269468691"/>
    <tag k="created_by" v="Potlatch 0.10f"/>
    <tag k="highway" v="residential"/>
    <tag k="name" v="Dubnaring"/>
  </way>
  <way id="24802723" version="6" timestamp="2009-06-16T19:48:07Z" uid="126254" user="sebastiank" changeset="1538940">
    <nd ref="269468678"/>
    <nd ref="293061725"/>
    <nd ref="292574663"/>
    <nd ref="269468679"/>
    <nd ref="269468680"/>
    <nd ref="344598556"/>
    <nd ref="269468681"/>
    <nd ref="269468682"/>
    <nd ref="269468683"/>
    <nd ref="269468684"/>
    <nd ref="344598545"/>
    <nd ref="369675549"/>
    <nd ref="269468685"/>
    <nd ref="421989041"/>
    <nd ref="421989022"/>
    <nd ref="269468686"/>
    <nd ref="269468687"/>
    <nd ref="421989020"/>
    <nd ref="269468688"/>
    <nd ref="269468689"/>
    <nd ref="421989018"/>
    <nd ref="344598540"/>
    <nd ref="269468690"/>
    <nd ref="269468691"/>
    <tag k="created_by" v="Potlatch 0.10f"/>
    <tag k="highway" v="residential"/>
    <tag k="name" v="Dubnaring"/>
  </way>
  <way id="24802723" version="7" timestamp="2009-07-03T19:23:06Z" uid="125718" user="Fabi2" changeset="1724045">
    <nd ref="269468678"/>
    <nd ref="293061725"/>
    <nd ref="292574663"/>
    <nd ref="269468679"/>
    <nd ref="269468680"/>
    <nd ref="344598556"/>
    <nd ref="269468681"/>
    <nd ref="269468682"/>
    <nd ref="269468683"/>
    <nd ref="269468684"/>
    <nd ref="344598545"/>
    <nd ref="369675549"/>
    <nd ref="269468685"/>
    <nd ref="433322084"/>
    <nd ref="421989041"/>
    <nd ref="421989022"/>
    <nd ref="269468686"/>
    <nd ref="269468687"/>
    <nd ref="421989020"/>
    <nd ref="269468688"/>
    <nd ref="269468689"/>
    <nd ref="421989018"/>
    <nd ref="344598540"/>
    <nd ref="269468690"/>
    <nd ref="269468691"/>
    <tag k="highway" v="residential"/>
    <tag k="name" v="Dubnaring"/>
  </way>
  <way id="24802723" version="8" timestamp="2009-07-07T22:43:09Z" uid="139978" user="albrechtstark" changeset="1767279">
    <nd ref="269468678"/>
    <nd ref="293061725"/>
    <nd ref="292574663"/>
    <nd ref="269468679"/>
    <nd ref="269468680"/>
    <nd ref="344598556"/>
    <nd ref="269468681"/>
    <nd ref="269468682"/>
    <nd ref="269468683"/>
    <nd ref="269468684"/>
    <nd ref="344598545"/>
    <nd ref="369675549"/>
    <nd ref="433322083"/>
    <nd ref="433322084"/>
    <nd ref="421989041"/>
    <nd ref="421989022"/>
    <nd ref="269468686"/>
    <nd ref="269468687"/>
    <nd ref="421989020"/>
    <nd ref="269468688"/>
    <nd ref="269468689"/>
    <nd ref="421989018"/>
    <nd ref="344598540"/>
    <nd ref="269468690"/>
    <nd ref="269468691"/>
    <tag k="highway" v="residential"/>
    <tag k="name" v="Dubnaring"/>
  </way>
  <way id="24802723" version="9" timestamp="2009-07-09T20:33:46Z" uid="125718" user="Fabi2" changeset="1784345">
    <nd ref="269468678"/>
    <nd ref="293061725"/>
    <nd ref="438538249"/>
    <nd ref="292574663"/>
    <nd ref="269468679"/>
    <nd ref="269468680"/>
    <nd ref="344598556"/>
    <nd ref="269468681"/>
    <nd ref="269468682"/>
    <nd ref="269468683"/>
    <nd ref="269468684"/>
    <nd ref="344598545"/>
    <nd ref="369675549"/>
    <nd ref="433322083"/>
    <nd ref="433322084"/>
    <nd ref="421989041"/>
    <nd ref="421989022"/>
    <nd ref="269468686"/>
    <nd ref="269468687"/>
    <nd ref="421989020"/>
    <nd ref="269468688"/>
    <nd ref="269468689"/>
    <nd ref="421989018"/>
    <nd ref="344598540"/>
    <nd ref="269468690"/>
    <nd ref="269468691"/>
    <tag k="highway" v="residential"/>
    <tag k="name" v="Dubnaring"/>
  </way>
  <way id="24802723" version="10" timestamp="2009-07-11T11:15:31Z" uid="125718" user="Fabi2" changeset="1796024">
    <nd ref="269468678"/>
    <nd ref="293061725"/>
    <nd ref="438538249"/>
    <nd ref="292574663"/>
    <nd ref="269468679"/>
    <nd ref="269468680"/>
    <nd ref="344598556"/>
    <nd ref="269468681"/>
    <nd ref="269468682"/>
    <nd ref="269468683"/>
    <nd ref="269468684"/>
    <nd ref="344598545"/>
    <nd ref="369675549"/>
    <nd ref="433322083"/>
    <nd ref="440078163"/>
    <nd ref="421989041"/>
    <nd ref="421989022"/>
    <nd ref="269468686"/>
    <nd ref="269468687"/>
    <nd ref="421989020"/>
    <nd ref="269468688"/>
    <nd ref="269468689"/>
    <nd ref="421989018"/>
    <nd ref="344598540"/>
    <nd ref="269468690"/>
    <nd ref="269468691"/>
    <tag k="highway" v="residential"/>
    <tag k="name" v="Dubnaring"/>
  </way>
  <way id="24802723" version="11" timestamp="2009-12-29T15:58:08Z" uid="126254" user="sebastiank" changeset="3482473">
    <nd ref="269468678"/>
    <nd ref="293061725"/>
    <nd ref="438538249"/>
    <nd ref="292574663"/>
    <nd ref="269468679"/>
    <nd ref="269468680"/>
    <nd ref="344598556"/>
    <nd ref="269468681"/>
    <nd ref="269468682"/>
    <nd ref="269468683"/>
    <nd ref="269468684"/>
    <nd ref="344598545"/>
    <nd ref="369675549"/>
    <nd ref="433322083"/>
    <nd ref="440078163"/>
    <nd ref="421989041"/>
    <nd ref="421989022"/>
    <nd ref="269468686"/>
    <nd ref="269468687"/>
    <nd ref="421989020"/>
    <nd ref="269468688"/>
    <nd ref="600917205"/>
    <nd ref="269468689"/>
    <nd ref="421989018"/>
    <nd ref="344598540"/>
    <nd ref="269468690"/>
    <nd ref="269468691"/>
    <tag k="highway" v="residential"/>
    <tag k="name" v="Dubnaring"/>
  </way>
  <way id="24802778" version="4" timestamp="2010-06-22T06:10:25Z" uid="64977" user="CLoeser" changeset="5048500">
    <nd ref="269469341"/>
    <nd ref="269469342"/>
    <nd ref="269469343"/>
    <nd ref="269469344"/>
    <nd ref="269469345"/>
    <tag k="highway" v="track"/>
    <tag k="name" v="Untere Bachstraße"/>
  </way>
  <way id="24802029" version="3" timestamp="2012-05-06T17:16:11Z" uid="43972" user="chris66" changeset="11520948">
    <nd ref="34284327"/>
    <nd ref="269461468"/>
    <tag k="bridge" v="yes"/>
    <tag k="highway" v="secondary"/>
    <tag k="layer" v="1"/>
    <tag k="maxspeed" v="50"/>
    <tag k="name" v="Flaesheimer Straße"/>
    <tag k="ref" v="L 609"/>
  </way>
  <way id="24802029" version="4" timestamp="2012-07-18T20:15:59Z" uid="722137" user="OSMF Redaction Account" changeset="12296626"/>
  <way id="24802030" version="6" timestamp="2012-07-18T20:15:48Z" uid="722137" user="OSMF Redaction Account" changeset="12296626">
    <nd ref="332146556"/>
    <nd ref="765941952"/>
    <nd ref="765941985"/>
    <nd ref="251227916"/>
    <tag k="postal_code" v="45721"/>
    <tag k="ref" v="L 609"/>
  </way>
  <way id="24802030" version="7" timestamp="2012-07-21T00:14:25Z" uid="260151" user="morryis" changeset="12396898"/>
  <way id="24802032" version="5" timestamp="2012-07-19T07:13:23Z" uid="722137" user="OSMF Redaction Account" changeset="12311153">
    <nd ref="14941346"/>
    <nd ref="269461498"/>
    <tag k="bridge" v="yes"/>
    <tag k="highway" v="primary"/>
    <tag k="name" v="Mission Road"/>
  </way>
  <way id="24802053" version="6" timestamp="2012-07-20T16:35:26Z" uid="36489" user="jerjozwik" changeset="12383583">
    <nd ref="14943097"/>
    <nd ref="604238745"/>
    <nd ref="269461647"/>
    <nd ref="269461648"/>
    <nd ref="269461649"/>
    <nd ref="269461650"/>
    <nd ref="269461651"/>
    <nd ref="269461646"/>
    <nd ref="32274966"/>
    <nd ref="15717618"/>
    <nd ref="604238744"/>
    <nd ref="1832202887"/>
    <nd ref="1832202888"/>
    <nd ref="14941489"/>
    <nd ref="1832202884"/>
    <nd ref="1832202883"/>
    <nd ref="1832202855"/>
    <nd ref="1832202880"/>
    <nd ref="1832202886"/>
    <tag k="highway" v="tertiary"/>
    <tag k="name" v="Eastlake Street"/>
  </way>
  <way id="24802160" version="10" timestamp="2012-07-02T10:45:47Z" uid="37309" user="geschna" changeset="12085703">
    <nd ref="269463312"/>
    <nd ref="269463313"/>
    <nd ref="706697347"/>
    <nd ref="321604600"/>
    <nd ref="269463314"/>
    <tag k="access" v="forestry"/>
    <tag k="bicycle" v="yes"/>
    <tag k="foot" v="yes"/>
    <tag k="highway" v="track"/>
    <tag k="motor_vehicle" v="no"/>
    <tag k="surface" v="sand"/>
  </way>
  <way id="24802161" version="8" timestamp="2012-07-18T13:41:37Z" uid="722137" user="OSMF Redaction Account" changeset="12283645">
    <nd ref="281585417"/>
    <nd ref="281587721"/>
    <nd ref="281586821"/>
    <nd ref="281585419"/>
    <nd ref="281587723"/>
    <nd ref="281585421"/>
    <nd ref="281587724"/>
    <nd ref="269428362"/>
    <nd ref="269428363"/>
    <nd ref="269428364"/>
    <tag k="highway" v="residential"/>
    <tag k="name" v="Obere Bachstraße"/>
    <tag k="postal_code" v="17509"/>
  </way>
  <way id="24802191" version="6" timestamp="2012-07-18T13:41:38Z" uid="722137" user="OSMF Redaction Account" changeset="12283645">
    <nd ref="269462679"/>
    <nd ref="269463603"/>
    <nd ref="281604002"/>
    <nd ref="281604004"/>
    <nd ref="281604005"/>
    <nd ref="281604006"/>
    <nd ref="281604007"/>
    <nd ref="281604008"/>
    <nd ref="281604009"/>
    <nd ref="281604011"/>
    <tag k="highway" v="track"/>
  </way>
  <way id="24802191" version="7" timestamp="2012-07-31T10:38:59Z" uid="55462" user="Lübeck" changeset="12559438">
    <nd ref="269462679"/>
    <nd ref="269463603"/>
    <nd ref="281604002"/>
    <nd ref="281604004"/>
    <nd ref="281604005"/>
    <nd ref="281604006"/>
    <nd ref="1845152974"/>
    <nd ref="281604007"/>
    <nd ref="1845152987"/>
    <nd ref="281604008"/>
    <nd ref="281604009"/>
    <nd ref="281604011"/>
    <tag k="highway" v="track"/>
  </way>
  <way id="24802298" version="5" timestamp="2012-07-19T04:17:24Z" uid="722137" user="OSMF Redaction Account" changeset="12307841">
    <nd ref="269465221"/>
    <nd ref="269465222"/>
    <nd ref="269465223"/>
    <nd ref="269465224"/>
    <tag k="highway" v="residential"/>
    <tag k="name" v="Palmgate Terrace"/>
    <tag k="source" v="survey"/>
    <tag k="speed" v="50"/>
    <tag k="surface" v="paved"/>
  </way>
  <way id="24802299" version="5" timestamp="2012-07-19T04:17:27Z" uid="722137" user="OSMF Redaction Account" changeset="12307841">
    <nd ref="269465225"/>
    <nd ref="269465226"/>
    <nd ref="269465227"/>
    <nd ref="269465228"/>
    <nd ref="269465229"/>
    <tag k="highway" v="residential"/>
    <tag k="name" v="Elenbrae Court"/>
    <tag k="source" v="survey"/>
    <tag k="speed" v="50"/>
    <tag k="surface" v="paved"/>
  </way>
  <way id="24802300" version="5" timestamp="2012-07-19T04:17:23Z" uid="722137" user="OSMF Redaction Account" changeset="12307841">
    <nd ref="60124627"/>
    <nd ref="269465230"/>
    <tag k="highway" v="residential"/>
    <tag k="name" v="Themi Place"/>
    <tag k="source" v="survey"/>
    <tag k="speed" v="50"/>
    <tag k="surface" v="paved"/>
  </way>
  <way id="24802301" version="6" timestamp="2012-07-19T04:17:23Z" uid="722137" user="OSMF Redaction Account" changeset="12307841">
    <nd ref="60124629"/>
    <nd ref="269465231"/>
    <nd ref="269465232"/>
    <tag k="highway" v="residential"/>
    <tag k="name" v="Durack Place"/>
    <tag k="source" v="survey"/>
    <tag k="speed" v="50"/>
    <tag k="surface" v="paved"/>
  </way>
  <way id="24802302" version="5" timestamp="2012-07-19T04:17:24Z" uid="722137" user="OSMF Redaction Account" changeset="12307841">
    <nd ref="60124633"/>
    <nd ref="269465233"/>
    <nd ref="269465234"/>
    <tag k="highway" v="residential"/>
    <tag k="name" v="Cable Close"/>
    <tag k="source" v="survey"/>
    <tag k="speed" v="50"/>
    <tag k="surface" v="paved"/>
  </way>
  <way id="24802304" version="6" timestamp="2012-07-19T04:17:24Z" uid="722137" user="OSMF Redaction Account" changeset="12307841">
    <nd ref="269465235"/>
    <nd ref="269465236"/>
    <nd ref="269465237"/>
    <nd ref="269465238"/>
    <tag k="highway" v="residential"/>
    <tag k="name" v="Napier Place"/>
    <tag k="source" v="survey"/>
    <tag k="speed" v="50"/>
    <tag k="surface" v="paved"/>
  </way>
  <way id="24802305" version="5" timestamp="2012-07-19T04:17:24Z" uid="722137" user="OSMF Redaction Account" changeset="12307841">
    <nd ref="269465239"/>
    <nd ref="269465247"/>
    <nd ref="269465248"/>
    <tag k="highway" v="residential"/>
    <tag k="name" v="Emerald Court"/>
    <tag k="source" v="survey"/>
    <tag k="speed" v="50"/>
    <tag k="surface" v="paved"/>
  </way>
  <way id="24802306" version="6" timestamp="2012-07-19T04:17:20Z" uid="722137" user="OSMF Redaction Account" changeset="12307841">
    <nd ref="269465249"/>
    <nd ref="269465250"/>
    <nd ref="269465251"/>
    <tag k="highway" v="residential"/>
    <tag k="name" v="Wyndham Court"/>
    <tag k="source" v="survey"/>
    <tag k="speed" v="50"/>
    <tag k="surface" v="paved"/>
  </way>
  <way id="24802307" version="6" timestamp="2012-07-19T04:17:21Z" uid="722137" user="OSMF Redaction Account" changeset="12307841">
    <nd ref="269465255"/>
    <nd ref="269465257"/>
    <tag k="highway" v="residential"/>
    <tag k="name" v="Dampier Close"/>
    <tag k="source" v="survey"/>
    <tag k="speed" v="50"/>
    <tag k="surface" v="paved"/>
  </way>
  <way id="24802308" version="6" timestamp="2012-07-19T04:17:18Z" uid="722137" user="OSMF Redaction Account" changeset="12307841">
    <nd ref="269465258"/>
    <nd ref="269465259"/>
    <nd ref="269465260"/>
    <tag k="highway" v="residential"/>
    <tag k="name" v="Broome Terrace"/>
    <tag k="source" v="survey"/>
    <tag k="speed" v="50"/>
    <tag k="surface" v="paved"/>
  </way>
  <way id="24802309" version="6" timestamp="2012-07-19T04:17:17Z" uid="722137" user="OSMF Redaction Account" changeset="12307841">
    <nd ref="269465259"/>
    <nd ref="269465261"/>
    <tag k="highway" v="residential"/>
    <tag k="name" v="Roebuck Bay"/>
    <tag k="source" v="survey"/>
    <tag k="speed" v="50"/>
    <tag k="surface" v="paved"/>
  </way>
  <way id="24802310" version="6" timestamp="2012-07-19T04:17:16Z" uid="722137" user="OSMF Redaction Account" changeset="12307841">
    <nd ref="60124579"/>
    <nd ref="269465262"/>
    <nd ref="269465263"/>
    <nd ref="269465264"/>
    <nd ref="269465266"/>
    <nd ref="269465267"/>
    <tag k="highway" v="residential"/>
    <tag k="name" v="Nugong Place"/>
    <tag k="source" v="survey"/>
    <tag k="speed" v="50"/>
    <tag k="surface" v="paved"/>
  </way>
  <way id="24802311" version="6" timestamp="2012-07-19T04:17:15Z" uid="722137" user="OSMF Redaction Account" changeset="12307841">
    <nd ref="269465266"/>
    <nd ref="269465268"/>
    <nd ref="269465269"/>
    <nd ref="269465270"/>
    <nd ref="269465271"/>
    <nd ref="269465272"/>
    <tag k="highway" v="residential"/>
    <tag k="name" v="Parslow Court"/>
    <tag k="source" v="survey"/>
    <tag k="speed" v="50"/>
    <tag k="surface" v="paved"/>
  </way>
  <way id="24802313" version="6" timestamp="2012-07-19T04:17:18Z" uid="722137" user="OSMF Redaction Account" changeset="12307841">
    <nd ref="269465273"/>
    <nd ref="269465274"/>
    <nd ref="269465275"/>
    <nd ref="269465276"/>
    <nd ref="269465277"/>
    <tag k="highway" v="residential"/>
    <tag k="name" v="Michelle Court"/>
    <tag k="source" v="survey"/>
    <tag k="speed" v="50"/>
    <tag k="surface" v="paved"/>
  </way>
  <way id="24802314" version="6" timestamp="2012-07-19T04:17:18Z" uid="722137" user="OSMF Redaction Account" changeset="12307841">
    <nd ref="60124576"/>
    <nd ref="269465278"/>
    <tag k="highway" v="residential"/>
    <tag k="name" v="Claire Court"/>
    <tag k="source" v="survey"/>
    <tag k="speed" v="50"/>
    <tag k="surface" v="paved"/>
  </way>
  <way id="24802315" version="6" timestamp="2012-07-19T04:17:17Z" uid="722137" user="OSMF Redaction Account" changeset="12307841">
    <nd ref="60124577"/>
    <nd ref="269465279"/>
    <nd ref="269465280"/>
    <tag k="highway" v="residential"/>
    <tag k="name" v="Birregun Court"/>
    <tag k="source" v="survey"/>
    <tag k="speed" v="50"/>
    <tag k="surface" v="paved"/>
  </way>
  <way id="24802316" version="6" timestamp="2012-07-19T04:17:19Z" uid="722137" user="OSMF Redaction Account" changeset="12307841">
    <nd ref="60124575"/>
    <nd ref="269465281"/>
    <tag k="highway" v="residential"/>
    <tag k="name" v="David Court"/>
    <tag k="source" v="survey"/>
    <tag k="speed" v="50"/>
    <tag k="surface" v="paved"/>
  </way>
  <way id="24802317" version="7" timestamp="2012-07-19T04:17:07Z" uid="722137" user="OSMF Redaction Account" changeset="12307841">
    <nd ref="269465282"/>
    <nd ref="269465283"/>
    <nd ref="269465309"/>
    <nd ref="269465310"/>
    <nd ref="269465312"/>
    <tag k="highway" v="residential"/>
    <tag k="name" v="Sandalwood Court"/>
    <tag k="source" v="survey"/>
    <tag k="speed" v="50"/>
    <tag k="surface" v="paved"/>
  </way>
  <way id="24802318" version="6" timestamp="2012-07-19T04:17:16Z" uid="722137" user="OSMF Redaction Account" changeset="12307841">
    <nd ref="60124582"/>
    <nd ref="269465313"/>
    <nd ref="269465314"/>
    <tag k="highway" v="residential"/>
    <tag k="name" v="Selma Court"/>
    <tag k="source" v="survey"/>
    <tag k="speed" v="50"/>
    <tag k="surface" v="paved"/>
  </way>
  <way id="24802319" version="6" timestamp="2012-07-19T04:17:16Z" uid="722137" user="OSMF Redaction Account" changeset="12307841">
    <nd ref="60124583"/>
    <nd ref="269465315"/>
    <tag k="highway" v="residential"/>
    <tag k="name" v="Everard Court"/>
    <tag k="source" v="survey"/>
    <tag k="speed" v="50"/>
    <tag k="surface" v="paved"/>
  </way>
  <way id="24802320" version="6" timestamp="2012-07-19T04:17:17Z" uid="722137" user="OSMF Redaction Account" changeset="12307841">
    <nd ref="60124585"/>
    <nd ref="269465316"/>
    <nd ref="269465317"/>
    <tag k="highway" v="residential"/>
    <tag k="name" v="Ellery Place"/>
    <tag k="source" v="survey"/>
    <tag k="speed" v="50"/>
    <tag k="surface" v="paved"/>
  </way>
  <way id="24802321" version="6" timestamp="2012-07-19T04:17:16Z" uid="722137" user="OSMF Redaction Account" changeset="12307841">
    <nd ref="60124586"/>
    <nd ref="269465318"/>
    <nd ref="269465319"/>
    <nd ref="269465320"/>
    <tag k="highway" v="residential"/>
    <tag k="name" v="Alpine Close"/>
    <tag k="source" v="survey"/>
    <tag k="speed" v="50"/>
    <tag k="surface" v="paved"/>
  </way>
  <way id="24802322" version="6" timestamp="2012-07-19T04:17:17Z" uid="722137" user="OSMF Redaction Account" changeset="12307841">
    <nd ref="269465321"/>
    <nd ref="269465322"/>
    <nd ref="269465323"/>
    <nd ref="269465324"/>
    <tag k="highway" v="residential"/>
    <tag k="name" v="Bendock Court"/>
    <tag k="source" v="survey"/>
    <tag k="speed" v="50"/>
    <tag k="surface" v="paved"/>
  </way>
  <way id="24802323" version="6" timestamp="2012-07-19T04:17:16Z" uid="722137" user="OSMF Redaction Account" changeset="12307841">
    <nd ref="60124587"/>
    <nd ref="269465325"/>
    <nd ref="269465330"/>
    <nd ref="269465331"/>
    <nd ref="269465332"/>
    <tag k="highway" v="residential"/>
    <tag k="name" v="Selwyn Place"/>
    <tag k="source" v="survey"/>
    <tag k="speed" v="50"/>
    <tag k="surface" v="paved"/>
  </way>
  <way id="24802324" version="6" timestamp="2012-07-19T04:17:15Z" uid="722137" user="OSMF Redaction Account" changeset="12307841">
    <nd ref="60124589"/>
    <nd ref="269465333"/>
    <nd ref="269465334"/>
    <nd ref="269465335"/>
    <tag k="highway" v="residential"/>
    <tag k="name" v="Boola Court"/>
    <tag k="source" v="survey"/>
    <tag k="speed" v="50"/>
    <tag k="surface" v="paved"/>
  </way>
  <way id="24802325" version="6" timestamp="2012-07-19T04:17:15Z" uid="722137" user="OSMF Redaction Account" changeset="12307841">
    <nd ref="60124588"/>
    <nd ref="269465336"/>
    <nd ref="269465337"/>
    <nd ref="269465338"/>
    <tag k="highway" v="residential"/>
    <tag k="name" v="Walhalla Close"/>
    <tag k="source" v="survey"/>
    <tag k="speed" v="50"/>
    <tag k="surface" v="paved"/>
  </way>
  <way id="24802326" version="6" timestamp="2012-07-19T04:17:18Z" uid="722137" user="OSMF Redaction Account" changeset="12307841">
    <nd ref="269465339"/>
    <nd ref="269465341"/>
    <tag k="highway" v="residential"/>
    <tag k="name" v="Maryvale Court"/>
    <tag k="source" v="survey"/>
    <tag k="speed" v="50"/>
    <tag k="surface" v="paved"/>
  </way>
  <way id="24802327" version="6" timestamp="2012-07-19T04:17:18Z" uid="722137" user="OSMF Redaction Account" changeset="12307841">
    <nd ref="269465347"/>
    <nd ref="269465348"/>
    <nd ref="269465399"/>
    <tag k="highway" v="residential"/>
    <tag k="name" v="Buller Court"/>
    <tag k="source" v="survey"/>
    <tag k="speed" v="50"/>
    <tag k="surface" v="paved"/>
  </way>
  <way id="24802328" version="6" timestamp="2012-07-19T04:17:19Z" uid="722137" user="OSMF Redaction Account" changeset="12307841">
    <nd ref="269465425"/>
    <nd ref="269465426"/>
    <tag k="highway" v="residential"/>
    <tag k="name" v="Bindi Close"/>
    <tag k="source" v="survey"/>
    <tag k="speed" v="50"/>
    <tag k="surface" v="paved"/>
  </way>
  <way id="24802331" version="5" timestamp="2012-07-19T04:17:27Z" uid="722137" user="OSMF Redaction Account" changeset="12307841">
    <nd ref="269465430"/>
    <nd ref="269465431"/>
    <tag k="highway" v="residential"/>
    <tag k="name" v="Hillcrest Court"/>
    <tag k="source" v="survey"/>
    <tag k="speed" v="50"/>
    <tag k="surface" v="paved"/>
  </way>
  <way id="24802332" version="6" timestamp="2012-07-19T04:17:25Z" uid="722137" user="OSMF Redaction Account" changeset="12307841">
    <nd ref="60124592"/>
    <nd ref="269465432"/>
    <nd ref="269465433"/>
    <nd ref="269465434"/>
    <tag k="highway" v="residential"/>
    <tag k="name" v="Springfield Court"/>
    <tag k="source" v="survey"/>
    <tag k="speed" v="50"/>
    <tag k="surface" v="paved"/>
  </way>
  <way id="24802333" version="6" timestamp="2012-07-19T04:17:25Z" uid="722137" user="OSMF Redaction Account" changeset="12307841">
    <nd ref="60124591"/>
    <nd ref="269465435"/>
    <nd ref="269465436"/>
    <tag k="highway" v="residential"/>
    <tag k="name" v="Merindah Court"/>
    <tag k="source" v="survey"/>
    <tag k="speed" v="50"/>
    <tag k="surface" v="paved"/>
  </way>
  <way id="24802334" version="6" timestamp="2012-07-19T04:17:26Z" uid="722137" user="OSMF Redaction Account" changeset="12307841">
    <nd ref="60124593"/>
    <nd ref="269465437"/>
    <nd ref="269465438"/>
    <nd ref="269465439"/>
    <tag k="highway" v="residential"/>
    <tag k="name" v="Greendale Court"/>
    <tag k="source" v="survey"/>
    <tag k="speed" v="50"/>
    <tag k="surface" v="paved"/>
  </way>
  <way id="24802335" version="6" timestamp="2012-07-19T04:17:26Z" uid="722137" user="OSMF Redaction Account" changeset="12307841">
    <nd ref="60124597"/>
    <nd ref="269465440"/>
    <nd ref="269465441"/>
    <nd ref="269465442"/>
    <nd ref="269465443"/>
    <tag k="highway" v="residential"/>
    <tag k="name" v="Farina Court"/>
    <tag k="source" v="survey"/>
    <tag k="speed" v="50"/>
    <tag k="surface" v="paved"/>
  </way>
  <way id="24802336" version="6" timestamp="2012-07-19T04:17:21Z" uid="722137" user="OSMF Redaction Account" changeset="12307841">
    <nd ref="269465444"/>
    <nd ref="269465445"/>
    <nd ref="269465446"/>
    <tag k="highway" v="residential"/>
    <tag k="name" v="Sunset Place"/>
    <tag k="source" v="survey"/>
    <tag k="speed" v="50"/>
    <tag k="surface" v="paved"/>
  </way>
  <way id="24802337" version="6" timestamp="2012-07-19T04:17:20Z" uid="722137" user="OSMF Redaction Account" changeset="12307841">
    <nd ref="269465447"/>
    <nd ref="269465448"/>
    <tag k="highway" v="residential"/>
    <tag k="name" v="Cloverlea Court"/>
    <tag k="source" v="survey"/>
    <tag k="speed" v="50"/>
    <tag k="surface" v="paved"/>
  </way>
  <way id="24802338" version="6" timestamp="2012-07-19T04:17:23Z" uid="722137" user="OSMF Redaction Account" changeset="12307841">
    <nd ref="269465449"/>
    <nd ref="269465450"/>
    <tag k="highway" v="residential"/>
    <tag k="is_in" v="Traralgon"/>
    <tag k="name" v="Greenvalley Court"/>
    <tag k="source" v="survey"/>
    <tag k="speed" v="50"/>
    <tag k="surface" v="paved"/>
  </way>
  <way id="24802339" version="6" timestamp="2012-07-19T04:17:23Z" uid="722137" user="OSMF Redaction Account" changeset="12307841">
    <nd ref="269465451"/>
    <nd ref="1015296632"/>
    <nd ref="269465452"/>
    <tag k="highway" v="residential"/>
    <tag k="is_in" v="Traralgon"/>
    <tag k="name" v="Catherine Court"/>
    <tag k="source" v="survey"/>
    <tag k="speed" v="50"/>
    <tag k="surface" v="paved"/>
  </way>
  <way id="24802340" version="7" timestamp="2012-07-19T04:17:21Z" uid="722137" user="OSMF Redaction Account" changeset="12307841">
    <nd ref="269465453"/>
    <nd ref="269465454"/>
    <nd ref="1014510193"/>
    <nd ref="1014510526"/>
    <nd ref="269465455"/>
    <tag k="highway" v="residential"/>
    <tag k="is_in" v="Traralgon"/>
    <tag k="name" v="Patrica Court"/>
    <tag k="source" v="survey"/>
    <tag k="speed" v="50"/>
    <tag k="surface" v="paved"/>
  </way>
  <way id="24802341" version="5" timestamp="2012-07-19T04:17:26Z" uid="722137" user="OSMF Redaction Account" changeset="12307841">
    <nd ref="269465456"/>
    <nd ref="269465457"/>
    <tag k="highway" v="residential"/>
    <tag k="is_in" v="Traralgon"/>
    <tag k="name" v="Bernadette Court"/>
    <tag k="source" v="survey"/>
    <tag k="speed" v="50"/>
    <tag k="surface" v="paved"/>
  </way>
  <way id="24802344" version="6" timestamp="2012-07-19T04:17:27Z" uid="722137" user="OSMF Redaction Account" changeset="12307841">
    <nd ref="269465458"/>
    <nd ref="1015295442"/>
    <nd ref="269465459"/>
    <tag k="highway" v="residential"/>
    <tag k="is_in" v="Traralgon"/>
    <tag k="name" v="Josephine Court"/>
    <tag k="source" v="survey"/>
    <tag k="speed" v="50"/>
    <tag k="surface" v="paved"/>
  </way>
  <way id="24802347" version="5" timestamp="2012-07-19T04:17:27Z" uid="722137" user="OSMF Redaction Account" changeset="12307841">
    <nd ref="269465460"/>
    <nd ref="269465461"/>
    <nd ref="269465462"/>
    <nd ref="269465463"/>
    <nd ref="269465464"/>
    <tag k="access" v="private"/>
    <tag k="highway" v="residential"/>
    <tag k="is_in" v="Traralgon"/>
    <tag k="name" v="Dale Court"/>
    <tag k="source" v="survey"/>
    <tag k="speed" v="15"/>
    <tag k="surface" v="paved"/>
  </way>
  <way id="24802348" version="5" timestamp="2012-07-19T04:17:25Z" uid="722137" user="OSMF Redaction Account" changeset="12307841">
    <nd ref="269465465"/>
    <nd ref="269465466"/>
    <nd ref="269465467"/>
    <nd ref="269465468"/>
    <nd ref="269465469"/>
    <nd ref="269465470"/>
    <tag k="access" v="private"/>
    <tag k="highway" v="residential"/>
    <tag k="is_in" v="Traralgon"/>
    <tag k="name" v="Gavin Close"/>
    <tag k="source" v="survey"/>
    <tag k="speed" v="15"/>
    <tag k="surface" v="paved"/>
  </way>
  <way id="24802349" version="6" timestamp="2012-07-19T04:17:22Z" uid="722137" user="OSMF Redaction Account" changeset="12307841">
    <nd ref="269465471"/>
    <nd ref="269465472"/>
    <nd ref="269465473"/>
    <nd ref="1015296414"/>
    <nd ref="269465474"/>
    <tag k="highway" v="residential"/>
    <tag k="is_in" v="Traralgon"/>
    <tag k="name" v="West Court"/>
    <tag k="source" v="survey"/>
    <tag k="speed" v="50"/>
    <tag k="surface" v="paved"/>
  </way>
  <way id="24802350" version="5" timestamp="2012-07-19T04:17:24Z" uid="722137" user="OSMF Redaction Account" changeset="12307841">
    <nd ref="60199865"/>
    <nd ref="269465475"/>
    <nd ref="269465476"/>
    <tag k="highway" v="residential"/>
    <tag k="is_in" v="Traralgon"/>
    <tag k="name" v="Felicity Court"/>
    <tag k="source" v="survey"/>
    <tag k="speed" v="50"/>
    <tag k="surface" v="paved"/>
  </way>
  <way id="24802351" version="5" timestamp="2012-07-19T04:17:22Z" uid="722137" user="OSMF Redaction Account" changeset="12307841">
    <nd ref="60199870"/>
    <nd ref="269465477"/>
    <nd ref="269465478"/>
    <nd ref="269465479"/>
    <nd ref="269465480"/>
    <nd ref="269465481"/>
    <nd ref="269465482"/>
    <tag k="highway" v="residential"/>
    <tag k="is_in" v="Traralgon"/>
    <tag k="name" v="Huntingfield Close"/>
    <tag k="source" v="survey"/>
    <tag k="speed" v="50"/>
    <tag k="surface" v="paved"/>
  </way>
  <way id="24802353" version="5" timestamp="2012-07-19T04:17:21Z" uid="722137" user="OSMF Redaction Account" changeset="12307841">
    <nd ref="269465477"/>
    <nd ref="269465483"/>
    <tag k="highway" v="residential"/>
    <tag k="is_in" v="Traralgon"/>
    <tag k="name" v="Saville Court"/>
    <tag k="source" v="survey"/>
    <tag k="speed" v="50"/>
    <tag k="surface" v="paved"/>
  </way>
  <way id="24802354" version="5" timestamp="2012-07-19T04:17:22Z" uid="722137" user="OSMF Redaction Account" changeset="12307841">
    <nd ref="60199872"/>
    <nd ref="269465484"/>
    <tag k="highway" v="residential"/>
    <tag k="is_in" v="Traralgon"/>
    <tag k="name" v="McClure Court"/>
    <tag k="source" v="survey"/>
    <tag k="speed" v="50"/>
    <tag k="surface" v="paved"/>
  </way>
  <way id="24802355" version="6" timestamp="2012-07-19T04:17:22Z" uid="722137" user="OSMF Redaction Account" changeset="12307841">
    <nd ref="60199875"/>
    <nd ref="269465485"/>
    <nd ref="269465487"/>
    <tag k="highway" v="residential"/>
    <tag k="is_in" v="Traralgon"/>
    <tag k="name" v="Como Court"/>
    <tag k="source" v="survey"/>
    <tag k="speed" v="50"/>
    <tag k="surface" v="paved"/>
  </way>
  <way id="24802357" version="5" timestamp="2012-07-19T04:17:22Z" uid="722137" user="OSMF Redaction Account" changeset="12307841">
    <nd ref="269465492"/>
    <nd ref="269465493"/>
    <nd ref="269465494"/>
    <nd ref="269465491"/>
    <tag k="highway" v="residential"/>
    <tag k="is_in" v="Traralgon"/>
    <tag k="source" v="survey"/>
    <tag k="speed" v="50"/>
    <tag k="surface" v="paved"/>
  </way>
  <way id="24802407" version="8" timestamp="2012-07-20T05:32:16Z" uid="722137" user="OSMF Redaction Account" changeset="12362157"/>
  <way id="24802687" version="20" timestamp="2012-07-18T12:37:56Z" uid="722137" user="OSMF Redaction Account" changeset="12282156">
    <nd ref="269468305"/>
    <nd ref="1073714226"/>
    <nd ref="765198929"/>
    <nd ref="765198939"/>
    <nd ref="269468306"/>
    <nd ref="765198928"/>
    <nd ref="374182827"/>
    <nd ref="765184215"/>
    <nd ref="269468307"/>
    <nd ref="1078912341"/>
    <nd ref="269468308"/>
    <nd ref="765180601"/>
    <nd ref="269468309"/>
    <nd ref="769129845"/>
    <nd ref="269468310"/>
    <nd ref="765178379"/>
    <nd ref="269468311"/>
    <nd ref="269468312"/>
    <nd ref="765081059"/>
    <nd ref="430351489"/>
    <nd ref="765079952"/>
    <nd ref="269468313"/>
    <tag k="highway" v="secondary"/>
    <tag k="name" v="Ringstraße"/>
    <tag k="ref" v="L 3195"/>
  </way>
  <way id="24802687" version="21" timestamp="2012-09-05T23:14:20Z" uid="525234" user="MasiMaster" changeset="13003476">
    <nd ref="269468305"/>
    <nd ref="1073714226"/>
    <nd ref="765198929"/>
    <nd ref="765198939"/>
    <nd ref="269468306"/>
    <nd ref="765198928"/>
    <nd ref="374182827"/>
    <nd ref="765184215"/>
    <nd ref="269468307"/>
    <nd ref="1078912341"/>
    <nd ref="269468308"/>
    <nd ref="765180601"/>
    <nd ref="269468309"/>
    <nd ref="769129845"/>
    <nd ref="269468310"/>
    <nd ref="765178379"/>
    <nd ref="269468311"/>
    <nd ref="269468312"/>
    <nd ref="765081059"/>
    <nd ref="430351489"/>
    <nd ref="765079952"/>
    <nd ref="269468313"/>
    <nd ref="1901444278"/>
    <nd ref="269468564"/>
    <tag k="highway" v="secondary"/>
    <tag k="name" v="Ringstraße"/>
    <tag k="ref" v="L 3195"/>
  </way>
  <way id="24802701" version="5" timestamp="2012-07-20T05:32:32Z" uid="722137" user="OSMF Redaction Account" changeset="12362157"/>
  <way id="24802721" version="16" timestamp="2012-09-05T22:47:49Z" uid="861195" user="ZeroBase" changeset="13003298">
    <nd ref="424222487"/>
    <nd ref="430351546"/>
    <nd ref="430351536"/>
    <nd ref="1901408706"/>
    <nd ref="424222486"/>
    <nd ref="430351504"/>
    <nd ref="1901408683"/>
    <nd ref="430351519"/>
    <nd ref="420221670"/>
    <tag k="highway" v="living_street"/>
    <tag k="name" v="Brüder-Grimm-Straße"/>
  </way>
  <way id="24802723" version="12" timestamp="2012-07-18T14:04:56Z" uid="722137" user="OSMF Redaction Account" changeset="12284380">
    <nd ref="269468678"/>
    <nd ref="293061725"/>
    <nd ref="438538249"/>
    <nd ref="292574663"/>
    <nd ref="269468679"/>
    <nd ref="269468680"/>
    <nd ref="344598556"/>
    <nd ref="269468681"/>
    <nd ref="269468682"/>
    <nd ref="269468683"/>
    <nd ref="269468684"/>
    <nd ref="344598545"/>
    <nd ref="433322083"/>
    <nd ref="440078163"/>
    <nd ref="421989041"/>
    <nd ref="421989022"/>
    <nd ref="269468686"/>
    <nd ref="269468687"/>
    <nd ref="421989020"/>
    <nd ref="269468688"/>
    <nd ref="600917205"/>
    <nd ref="269468689"/>
    <nd ref="421989018"/>
    <nd ref="344598540"/>
    <nd ref="269468690"/>
    <nd ref="269468691"/>
    <tag k="highway" v="residential"/>
    <tag k="name" v="Dubnaring"/>
  </way>
  <way id="24802778" version="5" timestamp="2012-07-18T13:41:36Z" uid="722137" user="OSMF Redaction Account" changeset="12283645">
    <nd ref="269469341"/>
    <nd ref="269469342"/>
    <nd ref="269469343"/>
    <nd ref="269469344"/>
    <nd ref="269469345"/>
    <tag k="highway" v="residential"/>
    <tag k="name" v="Untere Bachstraße"/>
  </way>
</osm>
