<?xml version='1.0' encoding='UTF-8'?>
<osm version="0.6" generator="libosmium/2.20.0">
  <way id="25010017" version="5" timestamp="2010-07-06T09:23:14Z" uid="74617" user="JohnSmith" changeset="5147679">
    <nd ref="271894120"/>
    <nd ref="26340865"/>
    <nd ref="26340550"/>
    <nd ref="243355626"/>
    <nd ref="26340637"/>
    <nd ref="26340547"/>
    <nd ref="243356454"/>
    <nd ref="243356455"/>
    <nd ref="243356456"/>
    <tag k="highway" v="residential"/>
    <tag k="maxspeed" v="50"/>
    <tag k="maxspeed:source" v="default residential speed limit in Australia"/>
    <tag k="name" v="Amelia Street"/>
  </way>
  <way id="25010017" version="6" timestamp="2012-01-16T19:04:44Z" uid="147510" user="woodpeck_fixbot" changeset="10410676">
    <nd ref="271894120"/>
    <nd ref="26340865"/>
    <nd ref="26340550"/>
    <nd ref="243355626"/>
    <nd ref="26340637"/>
    <nd ref="26340547"/>
    <nd ref="243356454"/>
    <nd ref="243356455"/>
    <nd ref="243356456"/>
    <tag k="highway" v="residential"/>
    <tag k="name" v="Amelia Street"/>
  </way>
  <way id="25010032" version="2" timestamp="2010-02-15T05:23:51Z" uid="74617" user="JohnSmith" changeset="3880269">
    <nd ref="271894042"/>
    <nd ref="271894424"/>
    <nd ref="271894425"/>
    <nd ref="271894426"/>
    <nd ref="271894427"/>
    <nd ref="271894428"/>
    <nd ref="271894429"/>
    <nd ref="271894430"/>
    <nd ref="271894431"/>
    <tag k="highway" v="unclassified"/>
    <tag k="maxspeed" v="50"/>
  </way>
  <way id="25010032" version="3" timestamp="2011-01-17T07:12:32Z" uid="22094" user="Chadzopkyo" changeset="6996485">
    <nd ref="271894042"/>
    <nd ref="271894426"/>
    <nd ref="271894427"/>
    <nd ref="271894428"/>
    <nd ref="271894429"/>
    <nd ref="271894430"/>
    <nd ref="271894431"/>
    <tag k="highway" v="unclassified"/>
    <tag k="maxspeed" v="50"/>
  </way>
  <way id="25010032" version="4" timestamp="2012-01-16T19:04:46Z" uid="147510" user="woodpeck_fixbot" changeset="10410676">
    <nd ref="271894042"/>
    <nd ref="271894426"/>
    <nd ref="271894427"/>
    <nd ref="271894428"/>
    <nd ref="271894429"/>
    <nd ref="271894430"/>
    <nd ref="271894431"/>
    <tag k="highway" v="unclassified"/>
  </way>
  <way id="25010051" version="4" timestamp="2010-07-08T03:38:24Z" uid="74617" user="JohnSmith" changeset="5163091">
    <nd ref="271894676"/>
    <nd ref="271895155"/>
    <nd ref="271894708"/>
    <tag k="highway" v="residential"/>
    <tag k="maxspeed" v="50"/>
    <tag k="maxspeed:source" v="default residential speed limit in Australia"/>
    <tag k="name" v="Weemala Street"/>
  </way>
  <way id="25010051" version="5" timestamp="2012-01-16T19:04:50Z" uid="147510" user="woodpeck_fixbot" changeset="10410676">
    <nd ref="271894676"/>
    <nd ref="271895155"/>
    <nd ref="271894708"/>
    <tag k="highway" v="residential"/>
    <tag k="name" v="Weemala Street"/>
  </way>
  <way id="25010055" version="5" timestamp="2010-07-08T03:37:46Z" uid="74617" user="JohnSmith" changeset="5163091">
    <nd ref="271894712"/>
    <nd ref="271895176"/>
    <nd ref="271894709"/>
    <nd ref="271894768"/>
    <nd ref="271894755"/>
    <tag k="highway" v="residential"/>
    <tag k="maxspeed" v="50"/>
    <tag k="maxspeed:source" v="default residential speed limit in Australia"/>
    <tag k="name" v="Ocean Street"/>
  </way>
  <way id="25010055" version="6" timestamp="2012-01-16T19:04:53Z" uid="147510" user="woodpeck_fixbot" changeset="10410676">
    <nd ref="271894712"/>
    <nd ref="271895176"/>
    <nd ref="271894709"/>
    <nd ref="271894768"/>
    <nd ref="271894755"/>
    <tag k="highway" v="residential"/>
    <tag k="name" v="Ocean Street"/>
  </way>
  <way id="25010058" version="3" timestamp="2010-07-08T03:40:20Z" uid="74617" user="JohnSmith" changeset="5163091">
    <nd ref="271894756"/>
    <nd ref="271894767"/>
    <nd ref="271894768"/>
    <tag k="highway" v="residential"/>
    <tag k="maxspeed" v="50"/>
    <tag k="maxspeed:source" v="default residential speed limit in Australia"/>
    <tag k="name" v="Budgewoi Road"/>
  </way>
  <way id="25010058" version="4" timestamp="2012-01-16T19:04:54Z" uid="147510" user="woodpeck_fixbot" changeset="10410676">
    <nd ref="271894756"/>
    <nd ref="271894767"/>
    <nd ref="271894768"/>
    <tag k="highway" v="residential"/>
    <tag k="name" v="Budgewoi Road"/>
  </way>
  <way id="25010065" version="4" timestamp="2010-02-15T05:23:45Z" uid="74617" user="JohnSmith" changeset="3880269">
    <nd ref="271894871"/>
    <nd ref="271893663"/>
    <nd ref="271894812"/>
    <nd ref="271894431"/>
    <tag k="highway" v="unclassified"/>
    <tag k="maxspeed" v="50"/>
  </way>
  <way id="25010065" version="5" timestamp="2011-03-13T02:11:54Z" uid="4467" user="Rosscoe" changeset="7540329">
    <nd ref="1199555217"/>
    <nd ref="271893663"/>
    <nd ref="271894812"/>
    <nd ref="271894431"/>
    <tag k="highway" v="unclassified"/>
    <tag k="maxspeed" v="50"/>
  </way>
  <way id="25010065" version="6" timestamp="2011-04-30T06:59:38Z" uid="310765" user="Zamias" changeset="8009058">
    <nd ref="1199555217"/>
    <nd ref="271893663"/>
    <nd ref="271894812"/>
    <nd ref="271894431"/>
    <tag k="highway" v="unclassified"/>
    <tag k="maxspeed" v="60"/>
    <tag k="name" v="Cribb Road"/>
  </way>
  <way id="25010065" version="7" timestamp="2012-01-16T19:04:56Z" uid="147510" user="woodpeck_fixbot" changeset="10410676">
    <nd ref="1199555217"/>
    <nd ref="271893663"/>
    <nd ref="271894812"/>
    <nd ref="271894431"/>
    <tag k="highway" v="unclassified"/>
    <tag k="name" v="Cribb Road"/>
  </way>
  <way id="25010068" version="3" timestamp="2010-07-08T03:37:04Z" uid="74617" user="JohnSmith" changeset="5163091">
    <nd ref="271894767"/>
    <nd ref="271894829"/>
    <nd ref="271894830"/>
    <nd ref="271894831"/>
    <nd ref="271894832"/>
    <tag k="highway" v="residential"/>
    <tag k="maxspeed" v="50"/>
    <tag k="maxspeed:source" v="default residential speed limit in Australia"/>
    <tag k="name" v="Boomerang Street"/>
  </way>
  <way id="25010068" version="4" timestamp="2012-01-16T19:04:58Z" uid="147510" user="woodpeck_fixbot" changeset="10410676">
    <nd ref="271894767"/>
    <nd ref="271894829"/>
    <nd ref="271894830"/>
    <nd ref="271894831"/>
    <nd ref="271894832"/>
    <tag k="highway" v="residential"/>
    <tag k="name" v="Boomerang Street"/>
  </way>
  <way id="25010070" version="3" timestamp="2010-07-08T03:39:23Z" uid="74617" user="JohnSmith" changeset="5163091">
    <nd ref="271894831"/>
    <nd ref="271894873"/>
    <nd ref="271894874"/>
    <tag k="highway" v="residential"/>
    <tag k="maxspeed" v="50"/>
    <tag k="maxspeed:source" v="default residential speed limit in Australia"/>
    <tag k="name" v="Erudgeree Street"/>
  </way>
  <way id="25010070" version="4" timestamp="2012-01-16T19:04:59Z" uid="147510" user="woodpeck_fixbot" changeset="10410676">
    <nd ref="271894831"/>
    <nd ref="271894873"/>
    <nd ref="271894874"/>
    <tag k="highway" v="residential"/>
    <tag k="name" v="Erudgeree Street"/>
  </way>
  <way id="25010072" version="3" timestamp="2010-07-08T03:40:28Z" uid="74617" user="JohnSmith" changeset="5163091">
    <nd ref="271894874"/>
    <nd ref="271894894"/>
    <tag k="highway" v="residential"/>
    <tag k="maxspeed" v="50"/>
    <tag k="maxspeed:source" v="default residential speed limit in Australia"/>
    <tag k="name" v="Ocean Street"/>
  </way>
  <way id="25010072" version="4" timestamp="2012-01-16T19:05:00Z" uid="147510" user="woodpeck_fixbot" changeset="10410676">
    <nd ref="271894874"/>
    <nd ref="271894894"/>
    <tag k="highway" v="residential"/>
    <tag k="name" v="Ocean Street"/>
  </way>
  <way id="25010088" version="5" timestamp="2009-07-26T04:58:37Z" uid="74617" user="JohnSmith" changeset="1940531">
    <nd ref="343294879"/>
    <nd ref="87730437"/>
    <nd ref="87730395"/>
    <nd ref="273108142"/>
    <nd ref="271893256"/>
    <nd ref="271892843"/>
    <nd ref="271892808"/>
    <nd ref="271892287"/>
    <nd ref="271892280"/>
    <nd ref="271891698"/>
    <nd ref="271890657"/>
    <nd ref="271890438"/>
    <nd ref="271890274"/>
    <nd ref="271890075"/>
    <nd ref="271889974"/>
    <nd ref="271889709"/>
    <nd ref="271895422"/>
    <nd ref="271895423"/>
    <tag k="power" v="line"/>
  </way>
  <way id="25010088" version="6" timestamp="2009-12-12T01:49:06Z" uid="12182" user="DancingFool" changeset="3353360">
    <nd ref="343294879"/>
    <nd ref="87730437"/>
    <nd ref="87730395"/>
    <nd ref="273108142"/>
    <nd ref="271893256"/>
    <nd ref="271892843"/>
    <nd ref="271892808"/>
    <nd ref="271892287"/>
    <nd ref="271892280"/>
    <nd ref="271891698"/>
    <nd ref="271890657"/>
    <nd ref="271890438"/>
    <nd ref="271890274"/>
    <nd ref="271890075"/>
    <nd ref="271889974"/>
    <nd ref="271889709"/>
    <nd ref="271895422"/>
    <nd ref="271895423"/>
    <nd ref="587491987"/>
    <tag k="power" v="line"/>
  </way>
  <way id="25010088" version="7" timestamp="2009-12-14T05:00:24Z" uid="12182" user="DancingFool" changeset="3369330">
    <nd ref="589672671"/>
    <nd ref="87730437"/>
    <nd ref="87730395"/>
    <nd ref="273108142"/>
    <nd ref="271893256"/>
    <nd ref="271892843"/>
    <nd ref="271892808"/>
    <nd ref="271892287"/>
    <nd ref="271892280"/>
    <nd ref="271891698"/>
    <nd ref="271890657"/>
    <nd ref="589672707"/>
    <nd ref="271890438"/>
    <nd ref="271890274"/>
    <nd ref="271890075"/>
    <nd ref="271889974"/>
    <nd ref="271889709"/>
    <nd ref="271895422"/>
    <nd ref="271895423"/>
    <nd ref="587491987"/>
    <tag k="power" v="line"/>
  </way>
  <way id="25010089" version="4" timestamp="2010-07-08T03:39:44Z" uid="74617" user="JohnSmith" changeset="5163091">
    <nd ref="271894676"/>
    <nd ref="271895130"/>
    <nd ref="271895161"/>
    <nd ref="271895131"/>
    <tag k="highway" v="residential"/>
    <tag k="maxspeed" v="50"/>
    <tag k="maxspeed:source" v="default residential speed limit in Australia"/>
    <tag k="name" v="Weemala Street"/>
  </way>
  <way id="25010089" version="5" timestamp="2012-01-16T19:05:01Z" uid="147510" user="woodpeck_fixbot" changeset="10410676">
    <nd ref="271894676"/>
    <nd ref="271895130"/>
    <nd ref="271895161"/>
    <nd ref="271895131"/>
    <tag k="highway" v="residential"/>
    <tag k="name" v="Weemala Street"/>
  </way>
  <way id="25010091" version="3" timestamp="2010-07-08T03:38:03Z" uid="74617" user="JohnSmith" changeset="5163091">
    <nd ref="271895134"/>
    <nd ref="271895161"/>
    <tag k="highway" v="residential"/>
    <tag k="maxspeed" v="50"/>
    <tag k="maxspeed:source" v="default residential speed limit in Australia"/>
    <tag k="name" v="Bato Street"/>
  </way>
  <way id="25010091" version="4" timestamp="2012-01-16T19:05:02Z" uid="147510" user="woodpeck_fixbot" changeset="10410676">
    <nd ref="271895134"/>
    <nd ref="271895161"/>
    <tag k="highway" v="residential"/>
    <tag k="name" v="Bato Street"/>
  </way>
  <way id="25010093" version="4" timestamp="2010-07-08T03:39:11Z" uid="74617" user="JohnSmith" changeset="5163091">
    <nd ref="271895155"/>
    <nd ref="271895175"/>
    <nd ref="271895176"/>
    <nd ref="271894829"/>
    <tag k="highway" v="residential"/>
    <tag k="maxspeed" v="50"/>
    <tag k="maxspeed:source" v="default residential speed limit in Australia"/>
    <tag k="name" v="Cudgegong Street"/>
  </way>
  <way id="25010093" version="5" timestamp="2012-01-16T19:05:03Z" uid="147510" user="woodpeck_fixbot" changeset="10410676">
    <nd ref="271895155"/>
    <nd ref="271895175"/>
    <nd ref="271895176"/>
    <nd ref="271894829"/>
    <tag k="highway" v="residential"/>
    <tag k="name" v="Cudgegong Street"/>
  </way>
  <way id="25010095" version="3" timestamp="2010-07-08T03:37:27Z" uid="74617" user="JohnSmith" changeset="5163091">
    <nd ref="271895175"/>
    <nd ref="271895208"/>
    <nd ref="271895209"/>
    <tag k="highway" v="residential"/>
    <tag k="maxspeed" v="50"/>
    <tag k="maxspeed:source" v="default residential speed limit in Australia"/>
    <tag k="name" v="Villa Close"/>
  </way>
  <way id="25010095" version="4" timestamp="2012-01-16T19:05:05Z" uid="147510" user="woodpeck_fixbot" changeset="10410676">
    <nd ref="271895175"/>
    <nd ref="271895208"/>
    <nd ref="271895209"/>
    <tag k="highway" v="residential"/>
    <tag k="name" v="Villa Close"/>
  </way>
  <way id="25010101" version="6" timestamp="2011-04-20T17:40:25Z" uid="115477" user="wowik" changeset="7918311">
    <nd ref="271895281"/>
    <nd ref="671182909"/>
    <nd ref="271895282"/>
    <nd ref="271895283"/>
    <nd ref="271895284"/>
    <nd ref="353142039"/>
    <nd ref="271895285"/>
    <nd ref="271895287"/>
    <nd ref="271895288"/>
    <nd ref="271895281"/>
    <tag k="addr:city" v="Москва"/>
    <tag k="addr:country" v="RU"/>
    <tag k="building" v="yes"/>
    <tag k="cladr:code" v="77000000000061300"/>
    <tag k="name" v="Гостиница Метрополь"/>
    <tag k="tourism" v="attraction"/>
  </way>
  <way id="25010101" version="7" timestamp="2011-08-31T18:51:49Z" uid="397326" user="trolleway" changeset="9178801">
    <nd ref="271895281"/>
    <nd ref="671182909"/>
    <nd ref="271895282"/>
    <nd ref="271895283"/>
    <nd ref="271895284"/>
    <nd ref="353142039"/>
    <nd ref="271895285"/>
    <nd ref="271895287"/>
    <nd ref="271895288"/>
    <nd ref="271895281"/>
    <tag k="addr:city" v="Москва"/>
    <tag k="addr:country" v="RU"/>
    <tag k="building" v="yes"/>
    <tag k="building:levels" v="5"/>
    <tag k="cladr:code" v="77000000000061300"/>
    <tag k="name" v="Гостиница Метрополь"/>
    <tag k="tourism" v="attraction"/>
  </way>
  <way id="25010101" version="8" timestamp="2011-12-27T13:04:56Z" uid="260756" user="Felis Pimeja" changeset="10215457">
    <nd ref="271895281"/>
    <nd ref="671182909"/>
    <nd ref="271895282"/>
    <nd ref="271895283"/>
    <nd ref="271895284"/>
    <nd ref="353142039"/>
    <nd ref="271895285"/>
    <nd ref="271895287"/>
    <nd ref="271895288"/>
    <nd ref="271895281"/>
  </way>
  <way id="25010116" version="3" timestamp="2009-11-06T06:10:58Z" uid="74617" user="JohnSmith" changeset="3045839"/>
  <way id="25010122" version="3" timestamp="2010-07-08T03:38:32Z" uid="74617" user="JohnSmith" changeset="5163091">
    <nd ref="271895462"/>
    <nd ref="271895504"/>
    <tag k="highway" v="residential"/>
    <tag k="maxspeed" v="50"/>
    <tag k="maxspeed:source" v="default residential speed limit in Australia"/>
    <tag k="name" v="Cochrane Avenue"/>
  </way>
  <way id="25010122" version="4" timestamp="2010-12-02T04:15:33Z" uid="4467" user="Rosscoe" changeset="6511048">
    <nd ref="271895462"/>
    <nd ref="271895504"/>
    <tag k="highway" v="residential"/>
    <tag k="maxspeed" v="50"/>
    <tag k="name" v="Cochrane Avenue"/>
    <tag k="source:maxspeed" v="default residential speed limit in Australia"/>
  </way>
  <way id="25010122" version="5" timestamp="2012-01-16T19:05:06Z" uid="147510" user="woodpeck_fixbot" changeset="10410676">
    <nd ref="271895462"/>
    <nd ref="271895504"/>
    <tag k="highway" v="residential"/>
    <tag k="name" v="Cochrane Avenue"/>
    <tag k="source:maxspeed" v="default residential speed limit in Australia"/>
  </way>
  <way id="25010124" version="3" timestamp="2010-07-08T03:39:34Z" uid="74617" user="JohnSmith" changeset="5163091">
    <nd ref="271895507"/>
    <nd ref="271895515"/>
    <tag k="highway" v="residential"/>
    <tag k="maxspeed" v="50"/>
    <tag k="maxspeed:source" v="default residential speed limit in Australia"/>
    <tag k="name" v="Read Street"/>
  </way>
  <way id="25010124" version="4" timestamp="2010-12-02T04:15:35Z" uid="4467" user="Rosscoe" changeset="6511048">
    <nd ref="271895507"/>
    <nd ref="271895515"/>
    <tag k="highway" v="residential"/>
    <tag k="maxspeed" v="50"/>
    <tag k="name" v="Read Street"/>
    <tag k="source:maxspeed" v="default residential speed limit in Australia"/>
  </way>
  <way id="25010124" version="5" timestamp="2012-01-16T19:05:08Z" uid="147510" user="woodpeck_fixbot" changeset="10410676">
    <nd ref="271895507"/>
    <nd ref="271895515"/>
    <tag k="highway" v="residential"/>
    <tag k="name" v="Read Street"/>
    <tag k="source:maxspeed" v="default residential speed limit in Australia"/>
  </way>
  <way id="25010129" version="3" timestamp="2010-07-08T03:40:43Z" uid="74617" user="JohnSmith" changeset="5163091">
    <nd ref="271895518"/>
    <nd ref="271895553"/>
    <nd ref="271895554"/>
    <nd ref="271895555"/>
    <nd ref="271895556"/>
    <tag k="highway" v="residential"/>
    <tag k="maxspeed" v="50"/>
    <tag k="maxspeed:source" v="default residential speed limit in Australia"/>
    <tag k="name" v="Wallis Avenue"/>
  </way>
  <way id="25010129" version="4" timestamp="2010-12-02T04:15:35Z" uid="4467" user="Rosscoe" changeset="6511048">
    <nd ref="271895518"/>
    <nd ref="271895553"/>
    <nd ref="271895554"/>
    <nd ref="271895555"/>
    <nd ref="271895556"/>
    <tag k="highway" v="residential"/>
    <tag k="maxspeed" v="50"/>
    <tag k="name" v="Wallis Avenue"/>
    <tag k="source:maxspeed" v="default residential speed limit in Australia"/>
  </way>
  <way id="25010129" version="5" timestamp="2012-01-16T19:05:10Z" uid="147510" user="woodpeck_fixbot" changeset="10410676">
    <nd ref="271895518"/>
    <nd ref="271895553"/>
    <nd ref="271895554"/>
    <nd ref="271895555"/>
    <nd ref="271895556"/>
    <tag k="highway" v="residential"/>
    <tag k="name" v="Wallis Avenue"/>
    <tag k="source:maxspeed" v="default residential speed limit in Australia"/>
  </way>
  <way id="25010130" version="14" timestamp="2011-04-20T17:40:35Z" uid="115477" user="wowik" changeset="7918311">
    <nd ref="667228973"/>
    <nd ref="963537924"/>
    <nd ref="963867555"/>
    <nd ref="667228967"/>
    <nd ref="667228968"/>
    <nd ref="271895572"/>
    <nd ref="271895571"/>
    <nd ref="963866929"/>
    <nd ref="983150487"/>
    <nd ref="983160618"/>
    <nd ref="983160823"/>
    <nd ref="983177535"/>
    <nd ref="983162973"/>
    <nd ref="983150434"/>
    <nd ref="983161373"/>
    <nd ref="983156377"/>
    <nd ref="983164331"/>
    <nd ref="983182943"/>
    <nd ref="983177271"/>
    <nd ref="983168668"/>
    <nd ref="271895574"/>
    <nd ref="271895573"/>
    <nd ref="667228948"/>
    <nd ref="667228950"/>
    <nd ref="667228949"/>
    <nd ref="963868393"/>
    <nd ref="963868933"/>
    <nd ref="963538242"/>
    <nd ref="963538080"/>
    <nd ref="667228971"/>
    <nd ref="667228972"/>
    <nd ref="667228976"/>
    <nd ref="667228975"/>
    <nd ref="667228974"/>
    <nd ref="667228973"/>
    <tag k="addr:city" v="Москва"/>
    <tag k="addr:country" v="RU"/>
    <tag k="addr:housenumber" v="3"/>
    <tag k="building" v="yes"/>
    <tag k="building:levels" v="3"/>
    <tag k="cladr:code" v="77000000000702700"/>
    <tag k="int_name" v="GUM"/>
    <tag k="name" v="Главный универсальный магазин (ГУМ)"/>
    <tag k="name:de" v="GUM"/>
    <tag k="official_name" v="ОАО «Торговый Дом ГУМ»"/>
    <tag k="opening_hours" v="Mo-Su 10:00-22:00"/>
    <tag k="shop" v="mall"/>
    <tag k="tourism" v="attraction"/>
    <tag k="website" v="http://www.gum.ru/"/>
    <tag k="wikipedia" v="http://ru.wikipedia.org/wiki/%D0%93%D0%BB%D0%B0%D0%B2%D0%BD%D1%8B%D0%B9_%D1%83%D0%BD%D0%B8%D0%B2%D0%B5%D1%80%D1%81%D0%B0%D0%BB%D1%8C%D0%BD%D1%8B%D0%B9_%D0%BC%D0%B0%D0%B3%D0%B0%D0%B7%D0%B8%D0%BD"/>
  </way>
  <way id="25010130" version="15" timestamp="2011-05-24T04:06:43Z" uid="421524" user="Scondo" changeset="8231832">
    <nd ref="667228973"/>
    <nd ref="963537924"/>
    <nd ref="963867555"/>
    <nd ref="667228967"/>
    <nd ref="667228968"/>
    <nd ref="271895572"/>
    <nd ref="271895571"/>
    <nd ref="963866929"/>
    <nd ref="983150487"/>
    <nd ref="983160618"/>
    <nd ref="983160823"/>
    <nd ref="983177535"/>
    <nd ref="983162973"/>
    <nd ref="983150434"/>
    <nd ref="983161373"/>
    <nd ref="983156377"/>
    <nd ref="983164331"/>
    <nd ref="983182943"/>
    <nd ref="983177271"/>
    <nd ref="983168668"/>
    <nd ref="271895574"/>
    <nd ref="271895573"/>
    <nd ref="667228948"/>
    <nd ref="667228950"/>
    <nd ref="667228949"/>
    <nd ref="963868393"/>
    <nd ref="963868933"/>
    <nd ref="963538242"/>
    <nd ref="963538080"/>
    <nd ref="667228971"/>
    <nd ref="667228972"/>
    <nd ref="667228976"/>
    <nd ref="667228975"/>
    <nd ref="667228974"/>
    <nd ref="667228973"/>
    <tag k="addr:city" v="Москва"/>
    <tag k="addr:country" v="RU"/>
    <tag k="addr:housenumber" v="3"/>
    <tag k="addr:street" v="Красная площадь"/>
    <tag k="building" v="yes"/>
    <tag k="building:levels" v="3"/>
    <tag k="cladr:code" v="77000000000702700"/>
    <tag k="int_name" v="GUM"/>
    <tag k="name" v="Главный универсальный магазин (ГУМ)"/>
    <tag k="name:de" v="GUM"/>
    <tag k="official_name" v="ОАО «Торговый Дом ГУМ»"/>
    <tag k="opening_hours" v="Mo-Su 10:00-22:00"/>
    <tag k="shop" v="mall"/>
    <tag k="tourism" v="attraction"/>
    <tag k="website" v="http://www.gum.ru/"/>
    <tag k="wikipedia" v="http://ru.wikipedia.org/wiki/%D0%93%D0%BB%D0%B0%D0%B2%D0%BD%D1%8B%D0%B9_%D1%83%D0%BD%D0%B8%D0%B2%D0%B5%D1%80%D1%81%D0%B0%D0%BB%D1%8C%D0%BD%D1%8B%D0%B9_%D0%BC%D0%B0%D0%B3%D0%B0%D0%B7%D0%B8%D0%BD"/>
  </way>
  <way id="25010130" version="16" timestamp="2011-05-27T10:18:07Z" uid="421524" user="Scondo" changeset="8261156">
    <nd ref="667228973"/>
    <nd ref="963537924"/>
    <nd ref="963867555"/>
    <nd ref="667228967"/>
    <nd ref="667228968"/>
    <nd ref="271895572"/>
    <nd ref="271895571"/>
    <nd ref="963866929"/>
    <nd ref="983150487"/>
    <nd ref="983160618"/>
    <nd ref="983160823"/>
    <nd ref="983177535"/>
    <nd ref="983162973"/>
    <nd ref="983150434"/>
    <nd ref="983161373"/>
    <nd ref="983156377"/>
    <nd ref="983164331"/>
    <nd ref="983182943"/>
    <nd ref="983177271"/>
    <nd ref="983168668"/>
    <nd ref="271895574"/>
    <nd ref="271895573"/>
    <nd ref="667228948"/>
    <nd ref="667228950"/>
    <nd ref="667228949"/>
    <nd ref="963868393"/>
    <nd ref="963868933"/>
    <nd ref="963538242"/>
    <nd ref="963538080"/>
    <nd ref="667228971"/>
    <nd ref="667228972"/>
    <nd ref="667228976"/>
    <nd ref="667228975"/>
    <nd ref="667228974"/>
    <nd ref="667228973"/>
    <tag k="addr2:housenumber" v="2"/>
    <tag k="addr2:streer" v="Никольская улица"/>
    <tag k="addr:city" v="Москва"/>
    <tag k="addr:country" v="RU"/>
    <tag k="addr:housenumber" v="3"/>
    <tag k="addr:street" v="Красная площадь"/>
    <tag k="building" v="yes"/>
    <tag k="building:levels" v="3"/>
    <tag k="cladr:code" v="77000000000702700"/>
    <tag k="int_name" v="GUM"/>
    <tag k="name" v="Главный универсальный магазин (ГУМ)"/>
    <tag k="name:de" v="GUM"/>
    <tag k="official_name" v="ОАО «Торговый Дом ГУМ»"/>
    <tag k="opening_hours" v="Mo-Su 10:00-22:00"/>
    <tag k="shop" v="mall"/>
    <tag k="tourism" v="attraction"/>
    <tag k="website" v="http://www.gum.ru/"/>
    <tag k="wikipedia" v="http://ru.wikipedia.org/wiki/%D0%93%D0%BB%D0%B0%D0%B2%D0%BD%D1%8B%D0%B9_%D1%83%D0%BD%D0%B8%D0%B2%D0%B5%D1%80%D1%81%D0%B0%D0%BB%D1%8C%D0%BD%D1%8B%D0%B9_%D0%BC%D0%B0%D0%B3%D0%B0%D0%B7%D0%B8%D0%BD"/>
  </way>
  <way id="25010130" version="17" timestamp="2011-08-07T14:30:37Z" uid="297358" user="patashnik" changeset="8947739">
    <nd ref="667228973"/>
    <nd ref="963537924"/>
    <nd ref="963867555"/>
    <nd ref="667228967"/>
    <nd ref="667228968"/>
    <nd ref="271895572"/>
    <nd ref="271895571"/>
    <nd ref="963866929"/>
    <nd ref="983150487"/>
    <nd ref="983160618"/>
    <nd ref="983160823"/>
    <nd ref="983177535"/>
    <nd ref="983162973"/>
    <nd ref="983150434"/>
    <nd ref="983161373"/>
    <nd ref="983156377"/>
    <nd ref="983164331"/>
    <nd ref="983182943"/>
    <nd ref="983177271"/>
    <nd ref="983168668"/>
    <nd ref="271895574"/>
    <nd ref="271895573"/>
    <nd ref="667228948"/>
    <nd ref="667228950"/>
    <nd ref="667228949"/>
    <nd ref="963868393"/>
    <nd ref="963868933"/>
    <nd ref="963538242"/>
    <nd ref="963538080"/>
    <nd ref="667228971"/>
    <nd ref="667228972"/>
    <nd ref="667228976"/>
    <nd ref="667228975"/>
    <nd ref="667228974"/>
    <nd ref="667228973"/>
    <tag k="addr2:housenumber" v="2"/>
    <tag k="addr2:streer" v="Никольская улица"/>
    <tag k="addr:city" v="Москва"/>
    <tag k="addr:country" v="RU"/>
    <tag k="addr:housenumber" v="3"/>
    <tag k="addr:street" v="Красная площадь"/>
    <tag k="building" v="yes"/>
    <tag k="building:levels" v="3"/>
    <tag k="cladr:code" v="77000000000702700"/>
    <tag k="int_name" v="GUM"/>
    <tag k="name" v="Главный универсальный магазин (ГУМ)"/>
    <tag k="name:de" v="GUM"/>
    <tag k="official_name" v="ОАО «Торговый Дом ГУМ»"/>
    <tag k="opening_hours" v="Mo-Su 10:00-22:00"/>
    <tag k="shop" v="mall"/>
    <tag k="tourism" v="attraction"/>
    <tag k="website" v="http://www.gum.ru/"/>
    <tag k="wikipedia" v="ru:Главный универсальный магазин"/>
  </way>
  <way id="25010130" version="18" timestamp="2011-08-11T23:45:28Z" uid="92274" user="adjuva" changeset="8990907">
    <nd ref="667228973"/>
    <nd ref="963537924"/>
    <nd ref="963867555"/>
    <nd ref="667228967"/>
    <nd ref="667228968"/>
    <nd ref="271895572"/>
    <nd ref="271895571"/>
    <nd ref="963866929"/>
    <nd ref="983150487"/>
    <nd ref="983160618"/>
    <nd ref="983160823"/>
    <nd ref="983177535"/>
    <nd ref="983162973"/>
    <nd ref="983150434"/>
    <nd ref="983161373"/>
    <nd ref="983156377"/>
    <nd ref="983164331"/>
    <nd ref="983182943"/>
    <nd ref="983177271"/>
    <nd ref="983168668"/>
    <nd ref="271895574"/>
    <nd ref="271895573"/>
    <nd ref="667228948"/>
    <nd ref="667228950"/>
    <nd ref="667228949"/>
    <nd ref="963868393"/>
    <nd ref="963868933"/>
    <nd ref="963538242"/>
    <nd ref="963538080"/>
    <nd ref="667228971"/>
    <nd ref="667228972"/>
    <nd ref="667228976"/>
    <nd ref="667228975"/>
    <nd ref="667228974"/>
    <nd ref="667228973"/>
    <tag k="addr2:housenumber" v="2"/>
    <tag k="addr2:street" v="Никольская улица"/>
    <tag k="addr:city" v="Москва"/>
    <tag k="addr:country" v="RU"/>
    <tag k="addr:housenumber" v="3"/>
    <tag k="addr:street" v="Красная площадь"/>
    <tag k="building" v="yes"/>
    <tag k="building:levels" v="3"/>
    <tag k="cladr:code" v="77000000000702700"/>
    <tag k="int_name" v="GUM"/>
    <tag k="name" v="Главный универсальный магазин (ГУМ)"/>
    <tag k="name:de" v="GUM"/>
    <tag k="official_name" v="ОАО «Торговый Дом ГУМ»"/>
    <tag k="opening_hours" v="Mo-Su 10:00-22:00"/>
    <tag k="shop" v="mall"/>
    <tag k="tourism" v="attraction"/>
    <tag k="website" v="http://www.gum.ru/"/>
    <tag k="wikipedia" v="ru:Главный универсальный магазин"/>
  </way>
  <way id="25010130" version="19" timestamp="2011-08-15T20:02:43Z" uid="266092" user="luch86" changeset="9030914">
    <nd ref="667228973"/>
    <nd ref="963537924"/>
    <nd ref="963867555"/>
    <nd ref="667228967"/>
    <nd ref="667228968"/>
    <nd ref="271895572"/>
    <nd ref="1400255257"/>
    <nd ref="1400255266"/>
    <nd ref="1400255273"/>
    <nd ref="271895571"/>
    <nd ref="963866929"/>
    <nd ref="1400255292"/>
    <nd ref="983150487"/>
    <nd ref="983160618"/>
    <nd ref="983160823"/>
    <nd ref="983177535"/>
    <nd ref="983162973"/>
    <nd ref="983150434"/>
    <nd ref="983161373"/>
    <nd ref="983156377"/>
    <nd ref="983164331"/>
    <nd ref="983182943"/>
    <nd ref="983177271"/>
    <nd ref="983168668"/>
    <nd ref="1400255378"/>
    <nd ref="271895574"/>
    <nd ref="1400255415"/>
    <nd ref="1400255400"/>
    <nd ref="1400255374"/>
    <nd ref="271895573"/>
    <nd ref="667228948"/>
    <nd ref="667228950"/>
    <nd ref="667228949"/>
    <nd ref="963868393"/>
    <nd ref="963868933"/>
    <nd ref="963538242"/>
    <nd ref="963538080"/>
    <nd ref="667228971"/>
    <nd ref="667228972"/>
    <nd ref="667228976"/>
    <nd ref="667228975"/>
    <nd ref="667228974"/>
    <nd ref="667228973"/>
    <tag k="addr2:housenumber" v="2"/>
    <tag k="addr2:street" v="Никольская улица"/>
    <tag k="addr:city" v="Москва"/>
    <tag k="addr:country" v="RU"/>
    <tag k="addr:housenumber" v="3"/>
    <tag k="addr:street" v="Красная площадь"/>
    <tag k="building" v="yes"/>
    <tag k="building:levels" v="3"/>
    <tag k="cladr:code" v="77000000000702700"/>
    <tag k="int_name" v="GUM"/>
    <tag k="name" v="Главный универсальный магазин (ГУМ)"/>
    <tag k="name:de" v="GUM"/>
    <tag k="official_name" v="ОАО «Торговый Дом ГУМ»"/>
    <tag k="old_name" v="Верхние торговые ряды"/>
    <tag k="opening_hours" v="Mo-Su 10:00-22:00"/>
    <tag k="shop" v="mall"/>
    <tag k="tourism" v="attraction"/>
    <tag k="website" v="http://www.gum.ru/"/>
    <tag k="wikipedia" v="ru:Главный универсальный магазин"/>
  </way>
  <way id="25010130" version="20" timestamp="2011-09-02T17:09:49Z" uid="266092" user="luch86" changeset="9194635">
    <nd ref="667228973"/>
    <nd ref="963537924"/>
    <nd ref="963867555"/>
    <nd ref="667228967"/>
    <nd ref="667228968"/>
    <nd ref="271895572"/>
    <nd ref="1400255257"/>
    <nd ref="1400255266"/>
    <nd ref="1400255273"/>
    <nd ref="271895571"/>
    <nd ref="963866929"/>
    <nd ref="1400255292"/>
    <nd ref="983150487"/>
    <nd ref="983160618"/>
    <nd ref="983160823"/>
    <nd ref="983177535"/>
    <nd ref="983162973"/>
    <nd ref="983150434"/>
    <nd ref="983161373"/>
    <nd ref="983156377"/>
    <nd ref="983164331"/>
    <nd ref="983182943"/>
    <nd ref="983177271"/>
    <nd ref="983168668"/>
    <nd ref="1400255378"/>
    <nd ref="271895574"/>
    <nd ref="1400255415"/>
    <nd ref="1400255400"/>
    <nd ref="1400255374"/>
    <nd ref="271895573"/>
    <nd ref="667228948"/>
    <nd ref="667228950"/>
    <nd ref="667228949"/>
    <nd ref="963868393"/>
    <nd ref="963868933"/>
    <nd ref="963538242"/>
    <nd ref="963538080"/>
    <nd ref="667228971"/>
    <nd ref="667228972"/>
    <nd ref="667228976"/>
    <nd ref="667228975"/>
    <nd ref="1421150526"/>
    <nd ref="667228974"/>
    <nd ref="667228973"/>
    <tag k="addr2:housenumber" v="2"/>
    <tag k="addr2:street" v="Никольская улица"/>
    <tag k="addr:city" v="Москва"/>
    <tag k="addr:country" v="RU"/>
    <tag k="addr:housenumber" v="3"/>
    <tag k="addr:street" v="Красная площадь"/>
    <tag k="building" v="yes"/>
    <tag k="building:levels" v="3"/>
    <tag k="cladr:code" v="77000000000702700"/>
    <tag k="int_name" v="GUM"/>
    <tag k="name" v="Главный универсальный магазин (ГУМ)"/>
    <tag k="name:de" v="GUM"/>
    <tag k="official_name" v="ОАО «Торговый Дом ГУМ»"/>
    <tag k="old_name" v="Верхние торговые ряды"/>
    <tag k="opening_hours" v="Mo-Su 10:00-22:00"/>
    <tag k="shop" v="mall"/>
    <tag k="tourism" v="attraction"/>
    <tag k="website" v="http://www.gum.ru/"/>
    <tag k="wikipedia" v="ru:Главный универсальный магазин"/>
  </way>
  <way id="25010130" version="21" timestamp="2011-10-17T16:38:21Z" uid="266092" user="luch86" changeset="9583527">
    <nd ref="667228973"/>
    <nd ref="963537924"/>
    <nd ref="963867555"/>
    <nd ref="667228967"/>
    <nd ref="667228968"/>
    <nd ref="271895572"/>
    <nd ref="1400255257"/>
    <nd ref="1400255266"/>
    <nd ref="1400255273"/>
    <nd ref="271895571"/>
    <nd ref="963866929"/>
    <nd ref="1400255292"/>
    <nd ref="1400255378"/>
    <nd ref="271895574"/>
    <nd ref="1400255415"/>
    <nd ref="1400255400"/>
    <nd ref="1400255374"/>
    <nd ref="271895573"/>
    <nd ref="667228948"/>
    <nd ref="667228950"/>
    <nd ref="667228949"/>
    <nd ref="963868393"/>
    <nd ref="963868933"/>
    <nd ref="963538242"/>
    <nd ref="963538080"/>
    <nd ref="667228971"/>
    <nd ref="667228972"/>
    <nd ref="667228976"/>
    <nd ref="667228975"/>
    <nd ref="1421150526"/>
    <nd ref="667228974"/>
    <nd ref="667228973"/>
    <tag k="addr2:housenumber" v="2"/>
    <tag k="addr2:street" v="Никольская улица"/>
    <tag k="addr:city" v="Москва"/>
    <tag k="addr:country" v="RU"/>
    <tag k="addr:housenumber" v="3"/>
    <tag k="addr:street" v="Красная площадь"/>
    <tag k="building" v="yes"/>
    <tag k="building:levels" v="3"/>
    <tag k="cladr:code" v="77000000000702700"/>
    <tag k="int_name" v="GUM"/>
    <tag k="name" v="Главный универсальный магазин (ГУМ)"/>
    <tag k="name:de" v="GUM"/>
    <tag k="official_name" v="ОАО «Торговый Дом ГУМ»"/>
    <tag k="old_name" v="Верхние торговые ряды"/>
    <tag k="opening_hours" v="Mo-Su 10:00-22:00"/>
    <tag k="shop" v="mall"/>
    <tag k="tourism" v="attraction"/>
    <tag k="website" v="http://www.gum.ru/"/>
    <tag k="wikipedia" v="ru:Главный универсальный магазин"/>
  </way>
  <way id="25010130" version="22" timestamp="2011-12-12T17:42:57Z" uid="126304" user="TarzanASG" changeset="10100388">
    <nd ref="667228973"/>
    <nd ref="963537924"/>
    <nd ref="963867555"/>
    <nd ref="667228967"/>
    <nd ref="667228968"/>
    <nd ref="271895572"/>
    <nd ref="1400255257"/>
    <nd ref="1400255266"/>
    <nd ref="1400255273"/>
    <nd ref="271895571"/>
    <nd ref="963866929"/>
    <nd ref="1400255292"/>
    <nd ref="1400255378"/>
    <nd ref="271895574"/>
    <nd ref="1400255415"/>
    <nd ref="1400255400"/>
    <nd ref="1400255374"/>
    <nd ref="271895573"/>
    <nd ref="667228948"/>
    <nd ref="667228950"/>
    <nd ref="667228949"/>
    <nd ref="963868393"/>
    <nd ref="963868933"/>
    <nd ref="963538242"/>
    <nd ref="963538080"/>
    <nd ref="667228971"/>
    <nd ref="667228972"/>
    <nd ref="667228976"/>
    <nd ref="667228975"/>
    <nd ref="1421150526"/>
    <nd ref="667228974"/>
    <nd ref="667228973"/>
    <tag k="addr2:housenumber" v="2"/>
    <tag k="addr2:street" v="Никольская улица"/>
    <tag k="addr:city" v="Москва"/>
    <tag k="addr:country" v="RU"/>
    <tag k="addr:housenumber" v="3"/>
    <tag k="addr:street" v="Красная площадь"/>
    <tag k="building" v="retail"/>
    <tag k="building:levels" v="3"/>
    <tag k="cladr:code" v="77000000000702700"/>
    <tag k="int_name" v="GUM"/>
    <tag k="name" v="Главный универсальный магазин (ГУМ)"/>
    <tag k="name:de" v="GUM"/>
    <tag k="official_name" v="ОАО «Торговый Дом ГУМ»"/>
    <tag k="old_name" v="Верхние торговые ряды"/>
    <tag k="opening_hours" v="Mo-Su 10:00-22:00"/>
    <tag k="shop" v="mall"/>
    <tag k="tourism" v="attraction"/>
    <tag k="website" v="http://www.gum.ru/"/>
    <tag k="wikipedia" v="ru:Главный универсальный магазин"/>
  </way>
  <way id="25010130" version="23" timestamp="2011-12-14T13:04:23Z" uid="143266" user="Sergey Astakhov" changeset="10115724">
    <nd ref="667228973"/>
    <nd ref="963537924"/>
    <nd ref="963867555"/>
    <nd ref="667228967"/>
    <nd ref="667228968"/>
    <nd ref="271895572"/>
    <nd ref="1400255257"/>
    <nd ref="1400255266"/>
    <nd ref="1400255273"/>
    <nd ref="271895571"/>
    <nd ref="963866929"/>
    <nd ref="1400255292"/>
    <nd ref="1400255378"/>
    <nd ref="271895574"/>
    <nd ref="1400255415"/>
    <nd ref="1400255400"/>
    <nd ref="1400255374"/>
    <nd ref="271895573"/>
    <nd ref="667228948"/>
    <nd ref="667228950"/>
    <nd ref="667228949"/>
    <nd ref="963868393"/>
    <nd ref="963868933"/>
    <nd ref="963538242"/>
    <nd ref="963538080"/>
    <nd ref="667228971"/>
    <nd ref="667228972"/>
    <nd ref="667228976"/>
    <nd ref="667228975"/>
    <nd ref="1421150526"/>
    <nd ref="667228974"/>
    <nd ref="667228973"/>
    <tag k="addr2:housenumber" v="2"/>
    <tag k="addr2:street" v="Никольская улица"/>
    <tag k="addr:city" v="Москва"/>
    <tag k="addr:country" v="RU"/>
    <tag k="addr:housenumber" v="3"/>
    <tag k="addr:street" v="Красная площадь"/>
    <tag k="building" v="yes"/>
    <tag k="building:levels" v="3"/>
    <tag k="cladr:code" v="77000000000702700"/>
    <tag k="int_name" v="GUM"/>
    <tag k="name" v="Главный универсальный магазин (ГУМ)"/>
    <tag k="name:de" v="GUM"/>
    <tag k="official_name" v="ОАО «Торговый Дом ГУМ»"/>
    <tag k="old_name" v="Верхние торговые ряды"/>
    <tag k="opening_hours" v="Mo-Su 10:00-22:00"/>
    <tag k="shop" v="mall"/>
    <tag k="tourism" v="attraction"/>
    <tag k="website" v="http://www.gum.ru/"/>
    <tag k="wikipedia" v="ru:Главный универсальный магазин"/>
  </way>
  <way id="25010131" version="4" timestamp="2010-07-08T03:39:04Z" uid="74617" user="JohnSmith" changeset="5163091">
    <nd ref="271895554"/>
    <nd ref="271895584"/>
    <nd ref="271895608"/>
    <nd ref="271895585"/>
    <nd ref="271895586"/>
    <tag k="highway" v="residential"/>
    <tag k="maxspeed" v="50"/>
    <tag k="maxspeed:source" v="default residential speed limit in Australia"/>
    <tag k="name" v="Kantara Parade"/>
  </way>
  <way id="25010131" version="5" timestamp="2010-12-02T04:15:34Z" uid="4467" user="Rosscoe" changeset="6511048">
    <nd ref="271895554"/>
    <nd ref="271895584"/>
    <nd ref="271895608"/>
    <nd ref="271895585"/>
    <nd ref="271895586"/>
    <tag k="highway" v="residential"/>
    <tag k="maxspeed" v="50"/>
    <tag k="name" v="Kantara Parade"/>
    <tag k="source:maxspeed" v="default residential speed limit in Australia"/>
  </way>
  <way id="25010131" version="6" timestamp="2012-01-16T19:05:11Z" uid="147510" user="woodpeck_fixbot" changeset="10410676">
    <nd ref="271895554"/>
    <nd ref="271895584"/>
    <nd ref="271895608"/>
    <nd ref="271895585"/>
    <nd ref="271895586"/>
    <tag k="highway" v="residential"/>
    <tag k="name" v="Kantara Parade"/>
    <tag k="source:maxspeed" v="default residential speed limit in Australia"/>
  </way>
  <way id="25010132" version="3" timestamp="2009-11-06T06:17:06Z" uid="74617" user="JohnSmith" changeset="3045860">
    <nd ref="271895441"/>
    <nd ref="271895442"/>
    <nd ref="271895919"/>
    <nd ref="271895920"/>
    <nd ref="271895921"/>
    <nd ref="271895594"/>
    <tag k="railway" v="rail"/>
    <tag k="source" v="nearmap"/>
  </way>
  <way id="25010134" version="3" timestamp="2010-07-08T03:37:35Z" uid="74617" user="JohnSmith" changeset="5163091">
    <nd ref="271895592"/>
    <nd ref="271895608"/>
    <tag k="highway" v="residential"/>
    <tag k="maxspeed" v="50"/>
    <tag k="maxspeed:source" v="default residential speed limit in Australia"/>
    <tag k="name" v="Lakeview Street"/>
  </way>
  <way id="25010134" version="4" timestamp="2010-12-02T04:15:39Z" uid="4467" user="Rosscoe" changeset="6511048">
    <nd ref="271895592"/>
    <nd ref="271895608"/>
    <tag k="highway" v="residential"/>
    <tag k="maxspeed" v="50"/>
    <tag k="name" v="Lakeview Street"/>
    <tag k="source:maxspeed" v="default residential speed limit in Australia"/>
  </way>
  <way id="25010134" version="5" timestamp="2012-01-16T19:05:13Z" uid="147510" user="woodpeck_fixbot" changeset="10410676">
    <nd ref="271895592"/>
    <nd ref="271895608"/>
    <tag k="highway" v="residential"/>
    <tag k="name" v="Lakeview Street"/>
    <tag k="source:maxspeed" v="default residential speed limit in Australia"/>
  </way>
  <way id="25010137" version="3" timestamp="2010-07-08T03:39:30Z" uid="74617" user="JohnSmith" changeset="5163091">
    <nd ref="271895626"/>
    <nd ref="271895655"/>
    <nd ref="271895656"/>
    <nd ref="271895657"/>
    <tag k="highway" v="residential"/>
    <tag k="maxspeed" v="50"/>
    <tag k="maxspeed:source" v="default residential speed limit in Australia"/>
    <tag k="name" v="Banksia Avenue"/>
  </way>
  <way id="25010137" version="4" timestamp="2010-12-02T04:15:39Z" uid="4467" user="Rosscoe" changeset="6511048">
    <nd ref="271895626"/>
    <nd ref="271895655"/>
    <nd ref="271895656"/>
    <nd ref="271895657"/>
    <tag k="highway" v="residential"/>
    <tag k="maxspeed" v="50"/>
    <tag k="name" v="Banksia Avenue"/>
    <tag k="source:maxspeed" v="default residential speed limit in Australia"/>
  </way>
  <way id="25010137" version="5" timestamp="2012-01-16T19:05:14Z" uid="147510" user="woodpeck_fixbot" changeset="10410676">
    <nd ref="271895626"/>
    <nd ref="271895655"/>
    <nd ref="271895656"/>
    <nd ref="271895657"/>
    <tag k="highway" v="residential"/>
    <tag k="name" v="Banksia Avenue"/>
    <tag k="source:maxspeed" v="default residential speed limit in Australia"/>
  </way>
  <way id="25010142" version="4" timestamp="2009-11-06T06:10:58Z" uid="74617" user="JohnSmith" changeset="3045839"/>
  <way id="25010145" version="3" timestamp="2010-07-08T03:39:12Z" uid="74617" user="JohnSmith" changeset="5163091">
    <nd ref="270727548"/>
    <nd ref="271895657"/>
    <nd ref="271895701"/>
    <nd ref="271895702"/>
    <tag k="highway" v="residential"/>
    <tag k="maxspeed" v="50"/>
    <tag k="maxspeed:source" v="default residential speed limit in Australia"/>
    <tag k="name" v="Oleander Street"/>
  </way>
  <way id="25010145" version="4" timestamp="2012-01-16T19:05:16Z" uid="147510" user="woodpeck_fixbot" changeset="10410676">
    <nd ref="270727548"/>
    <nd ref="271895657"/>
    <nd ref="271895701"/>
    <nd ref="271895702"/>
    <tag k="highway" v="residential"/>
    <tag k="name" v="Oleander Street"/>
  </way>
  <way id="25010148" version="3" timestamp="2010-07-08T03:37:44Z" uid="74617" user="JohnSmith" changeset="5163091">
    <nd ref="271895701"/>
    <nd ref="271895720"/>
    <tag k="highway" v="residential"/>
    <tag k="maxspeed" v="50"/>
    <tag k="maxspeed:source" v="default residential speed limit in Australia"/>
    <tag k="name" v="Montgomery Avenue"/>
  </way>
  <way id="25010148" version="4" timestamp="2012-01-16T19:05:18Z" uid="147510" user="woodpeck_fixbot" changeset="10410676">
    <nd ref="271895701"/>
    <nd ref="271895720"/>
    <tag k="highway" v="residential"/>
    <tag k="name" v="Montgomery Avenue"/>
  </way>
  <way id="25010152" version="3" timestamp="2010-07-08T03:37:06Z" uid="74617" user="JohnSmith" changeset="5163091">
    <nd ref="271895731"/>
    <nd ref="271895768"/>
    <tag k="highway" v="residential"/>
    <tag k="maxspeed" v="50"/>
    <tag k="maxspeed:source" v="default residential speed limit in Australia"/>
    <tag k="name" v="Montgomery Avenue"/>
  </way>
  <way id="25010152" version="4" timestamp="2010-12-02T04:15:37Z" uid="4467" user="Rosscoe" changeset="6511048">
    <nd ref="271895731"/>
    <nd ref="271895768"/>
    <tag k="highway" v="residential"/>
    <tag k="maxspeed" v="50"/>
    <tag k="name" v="Montgomery Avenue"/>
    <tag k="source:maxspeed" v="default residential speed limit in Australia"/>
  </way>
  <way id="25010152" version="5" timestamp="2012-01-16T19:05:19Z" uid="147510" user="woodpeck_fixbot" changeset="10410676">
    <nd ref="271895731"/>
    <nd ref="271895768"/>
    <tag k="highway" v="residential"/>
    <tag k="name" v="Montgomery Avenue"/>
    <tag k="source:maxspeed" v="default residential speed limit in Australia"/>
  </way>
  <way id="25010160" version="3" timestamp="2009-11-06T06:17:07Z" uid="74617" user="JohnSmith" changeset="3045860"/>
  <way id="25010176" version="6" timestamp="2009-08-10T02:37:36Z" uid="4467" user="Rosscoe" changeset="2092402"/>
  <way id="25010180" version="1" timestamp="2008-06-22T12:00:49Z" uid="30201" user="rrankin" changeset="258735">
    <nd ref="160425117"/>
    <nd ref="271896247"/>
    <nd ref="271896249"/>
    <tag k="highway" v="residential"/>
    <tag k="name" v="Post Office Road"/>
    <tag k="source" v="yahoo"/>
  </way>
  <way id="25010180" version="2" timestamp="2010-04-04T09:42:43Z" uid="61114" user="Trav" changeset="4320765">
    <nd ref="160425117"/>
    <nd ref="683841371"/>
    <nd ref="683841389"/>
    <nd ref="683841423"/>
    <nd ref="683841406"/>
    <nd ref="271896247"/>
    <nd ref="271896249"/>
    <tag k="highway" v="residential"/>
    <tag k="name" v="Post Office Road"/>
    <tag k="source" v="nearmap"/>
  </way>
  <way id="25010180" version="3" timestamp="2010-07-08T03:20:01Z" uid="74617" user="JohnSmith" changeset="5163091">
    <nd ref="160425117"/>
    <nd ref="683841371"/>
    <nd ref="683841389"/>
    <nd ref="683841423"/>
    <nd ref="683841406"/>
    <nd ref="271896247"/>
    <nd ref="271896249"/>
    <tag k="highway" v="residential"/>
    <tag k="maxspeed" v="50"/>
    <tag k="maxspeed:source" v="default residential speed limit in Australia"/>
    <tag k="name" v="Post Office Road"/>
    <tag k="source" v="nearmap"/>
  </way>
  <way id="25010180" version="4" timestamp="2012-01-16T19:05:20Z" uid="147510" user="woodpeck_fixbot" changeset="10410676">
    <nd ref="160425117"/>
    <nd ref="683841371"/>
    <nd ref="683841389"/>
    <nd ref="683841423"/>
    <nd ref="683841406"/>
    <nd ref="271896247"/>
    <nd ref="271896249"/>
    <tag k="highway" v="residential"/>
    <tag k="name" v="Post Office Road"/>
    <tag k="source" v="nearmap"/>
  </way>
  <way id="25010181" version="1" timestamp="2008-06-22T12:00:50Z" uid="30201" user="rrankin" changeset="258735">
    <nd ref="271896255"/>
    <nd ref="271896258"/>
    <nd ref="271896260"/>
    <nd ref="271896271"/>
    <nd ref="271896273"/>
    <nd ref="271896275"/>
    <nd ref="271896277"/>
    <nd ref="271896279"/>
    <tag k="highway" v="residential"/>
    <tag k="name" v="Ebenezer Wharf Road"/>
    <tag k="source" v="yahoo"/>
  </way>
  <way id="25010181" version="2" timestamp="2008-11-03T12:21:22Z" uid="9477" user="NilbogAus" changeset="668098">
    <nd ref="271896255"/>
    <nd ref="271896258"/>
    <nd ref="271896260"/>
    <nd ref="271896271"/>
    <nd ref="271896273"/>
    <nd ref="271896275"/>
    <nd ref="271896277"/>
    <nd ref="309647257"/>
    <nd ref="271896279"/>
    <tag k="highway" v="residential"/>
    <tag k="name" v="Ebenezer Wharf Road"/>
    <tag k="source" v="yahoo"/>
  </way>
  <way id="25010181" version="3" timestamp="2010-02-20T03:19:38Z" uid="7617" user="Franc" changeset="3920408">
    <nd ref="271896255"/>
    <nd ref="271896258"/>
    <nd ref="647559356"/>
    <nd ref="647559358"/>
    <nd ref="271896260"/>
    <nd ref="271896271"/>
    <nd ref="647559380"/>
    <nd ref="647559379"/>
    <nd ref="271896273"/>
    <nd ref="647559383"/>
    <nd ref="271896275"/>
    <nd ref="647559386"/>
    <nd ref="271896277"/>
    <nd ref="309647257"/>
    <nd ref="271896279"/>
    <tag k="highway" v="residential"/>
    <tag k="name" v="Ebenezer Wharf Road"/>
    <tag k="source" v="yahoo"/>
  </way>
  <way id="25010181" version="4" timestamp="2010-04-04T09:42:39Z" uid="61114" user="Trav" changeset="4320765">
    <nd ref="271896255"/>
    <nd ref="683841317"/>
    <nd ref="683841318"/>
    <nd ref="271896258"/>
    <nd ref="647559356"/>
    <nd ref="647559358"/>
    <nd ref="271896260"/>
    <nd ref="271896271"/>
    <nd ref="647559380"/>
    <nd ref="647559379"/>
    <nd ref="271896273"/>
    <nd ref="647559383"/>
    <nd ref="271896275"/>
    <nd ref="647559386"/>
    <nd ref="271896277"/>
    <nd ref="309647257"/>
    <nd ref="271896279"/>
    <tag k="highway" v="residential"/>
    <tag k="name" v="Ebenezer Wharf Road"/>
    <tag k="source" v="yahoo"/>
  </way>
  <way id="25010181" version="5" timestamp="2010-07-08T03:18:46Z" uid="74617" user="JohnSmith" changeset="5163091">
    <nd ref="271896255"/>
    <nd ref="683841317"/>
    <nd ref="683841318"/>
    <nd ref="271896258"/>
    <nd ref="647559356"/>
    <nd ref="647559358"/>
    <nd ref="271896260"/>
    <nd ref="271896271"/>
    <nd ref="647559380"/>
    <nd ref="647559379"/>
    <nd ref="271896273"/>
    <nd ref="647559383"/>
    <nd ref="271896275"/>
    <nd ref="647559386"/>
    <nd ref="271896277"/>
    <nd ref="309647257"/>
    <nd ref="271896279"/>
    <tag k="highway" v="residential"/>
    <tag k="maxspeed" v="50"/>
    <tag k="maxspeed:source" v="default residential speed limit in Australia"/>
    <tag k="name" v="Ebenezer Wharf Road"/>
    <tag k="source" v="yahoo"/>
  </way>
  <way id="25010181" version="6" timestamp="2012-01-16T19:05:24Z" uid="147510" user="woodpeck_fixbot" changeset="10410676">
    <nd ref="271896255"/>
    <nd ref="683841317"/>
    <nd ref="683841318"/>
    <nd ref="271896258"/>
    <nd ref="647559356"/>
    <nd ref="647559358"/>
    <nd ref="271896260"/>
    <nd ref="271896271"/>
    <nd ref="647559380"/>
    <nd ref="647559379"/>
    <nd ref="271896273"/>
    <nd ref="647559383"/>
    <nd ref="271896275"/>
    <nd ref="647559386"/>
    <nd ref="271896277"/>
    <nd ref="309647257"/>
    <nd ref="271896279"/>
    <tag k="highway" v="residential"/>
    <tag k="name" v="Ebenezer Wharf Road"/>
    <tag k="source" v="yahoo"/>
  </way>
  <way id="25010182" version="1" timestamp="2008-06-22T12:00:51Z" uid="30201" user="rrankin" changeset="258735">
    <nd ref="271871773"/>
    <nd ref="271896284"/>
    <nd ref="271896286"/>
    <nd ref="271896334"/>
    <nd ref="271896367"/>
    <nd ref="271896369"/>
    <nd ref="271896372"/>
    <nd ref="271896374"/>
    <nd ref="271896376"/>
    <nd ref="271896378"/>
    <nd ref="271896380"/>
    <nd ref="271896382"/>
    <nd ref="271896385"/>
    <nd ref="271896273"/>
    <tag k="highway" v="footway"/>
    <tag k="surface" v="unpaved"/>
  </way>
  <way id="25010182" version="2" timestamp="2008-11-03T12:21:21Z" uid="9477" user="NilbogAus" changeset="668098">
    <nd ref="271871773"/>
    <nd ref="271896284"/>
    <nd ref="271896286"/>
    <nd ref="271896334"/>
    <nd ref="271896367"/>
    <nd ref="309647261"/>
    <nd ref="309647262"/>
    <nd ref="309647264"/>
    <nd ref="309647265"/>
    <nd ref="271896369"/>
    <nd ref="271896372"/>
    <nd ref="271896374"/>
    <nd ref="271896376"/>
    <nd ref="271896378"/>
    <nd ref="271896380"/>
    <nd ref="271896382"/>
    <nd ref="271896385"/>
    <nd ref="271896273"/>
    <tag k="highway" v="footway"/>
    <tag k="surface" v="unpaved"/>
  </way>
  <way id="25010182" version="3" timestamp="2010-02-20T03:19:38Z" uid="7617" user="Franc" changeset="3920408">
    <nd ref="271871773"/>
    <nd ref="271896284"/>
    <nd ref="271896286"/>
    <nd ref="271896334"/>
    <nd ref="271896367"/>
    <nd ref="309647261"/>
    <nd ref="309647262"/>
    <nd ref="309647264"/>
    <nd ref="309647265"/>
    <nd ref="271896369"/>
    <nd ref="271896372"/>
    <nd ref="271896374"/>
    <tag k="highway" v="footway"/>
    <tag k="surface" v="unpaved"/>
  </way>
  <way id="25010182" version="4" timestamp="2010-04-15T11:43:41Z" uid="30201" user="rrankin" changeset="4430189">
    <nd ref="271871773"/>
    <nd ref="271896284"/>
    <nd ref="271896286"/>
    <nd ref="697311506"/>
    <nd ref="271896334"/>
    <nd ref="271896367"/>
    <nd ref="309647261"/>
    <nd ref="309647262"/>
    <nd ref="309647264"/>
    <nd ref="309647265"/>
    <nd ref="271896369"/>
    <nd ref="271896372"/>
    <nd ref="271896374"/>
    <tag k="highway" v="footway"/>
    <tag k="surface" v="unpaved"/>
  </way>
  <way id="25010183" version="1" timestamp="2008-06-22T12:00:52Z" uid="30201" user="rrankin" changeset="258735">
    <nd ref="271896386"/>
    <nd ref="271896387"/>
    <nd ref="271896388"/>
    <nd ref="271896389"/>
    <nd ref="58867418"/>
    <tag k="highway" v="residential"/>
    <tag k="name" v="Greenway Crescent"/>
    <tag k="source" v="yahoo"/>
  </way>
  <way id="25010183" version="2" timestamp="2010-07-08T03:19:06Z" uid="74617" user="JohnSmith" changeset="5163091">
    <nd ref="271896386"/>
    <nd ref="271896387"/>
    <nd ref="271896388"/>
    <nd ref="271896389"/>
    <nd ref="58867418"/>
    <tag k="highway" v="residential"/>
    <tag k="maxspeed" v="50"/>
    <tag k="maxspeed:source" v="default residential speed limit in Australia"/>
    <tag k="name" v="Greenway Crescent"/>
    <tag k="source" v="yahoo"/>
  </way>
  <way id="25010183" version="3" timestamp="2012-01-16T19:05:28Z" uid="147510" user="woodpeck_fixbot" changeset="10410676">
    <nd ref="271896386"/>
    <nd ref="271896387"/>
    <nd ref="271896388"/>
    <nd ref="271896389"/>
    <nd ref="58867418"/>
    <tag k="highway" v="residential"/>
    <tag k="name" v="Greenway Crescent"/>
    <tag k="source" v="yahoo"/>
  </way>
  <way id="25010185" version="1" timestamp="2008-06-22T12:00:53Z" uid="30201" user="rrankin" changeset="258735">
    <nd ref="271896394"/>
    <nd ref="271896396"/>
    <tag k="highway" v="residential"/>
    <tag k="name" v="Gosper Street"/>
    <tag k="source" v="yahoo"/>
  </way>
  <way id="25010185" version="2" timestamp="2010-07-08T03:20:16Z" uid="74617" user="JohnSmith" changeset="5163091">
    <nd ref="271896394"/>
    <nd ref="271896396"/>
    <tag k="highway" v="residential"/>
    <tag k="maxspeed" v="50"/>
    <tag k="maxspeed:source" v="default residential speed limit in Australia"/>
    <tag k="name" v="Gosper Street"/>
    <tag k="source" v="yahoo"/>
  </way>
  <way id="25010185" version="3" timestamp="2012-01-16T19:05:32Z" uid="147510" user="woodpeck_fixbot" changeset="10410676">
    <nd ref="271896394"/>
    <nd ref="271896396"/>
    <tag k="highway" v="residential"/>
    <tag k="name" v="Gosper Street"/>
    <tag k="source" v="yahoo"/>
  </way>
  <way id="25010187" version="1" timestamp="2008-06-22T12:00:53Z" uid="30201" user="rrankin" changeset="258735">
    <nd ref="271896398"/>
    <nd ref="271896400"/>
    <nd ref="271896402"/>
    <nd ref="271896420"/>
    <nd ref="271896404"/>
    <nd ref="271896407"/>
    <nd ref="271896414"/>
    <nd ref="271896416"/>
    <nd ref="271896418"/>
    <nd ref="271896420"/>
    <tag k="highway" v="residential"/>
    <tag k="name" v="Claremont Crescent"/>
    <tag k="source" v="yahoo"/>
  </way>
  <way id="25010187" version="2" timestamp="2010-01-15T22:17:25Z" uid="7617" user="Franc" changeset="3627952">
    <nd ref="271896398"/>
    <nd ref="614445992"/>
    <nd ref="271896400"/>
    <nd ref="271896402"/>
    <nd ref="614445977"/>
    <nd ref="271896420"/>
    <nd ref="271896404"/>
    <nd ref="614445979"/>
    <nd ref="271896414"/>
    <nd ref="614445986"/>
    <nd ref="271896416"/>
    <nd ref="271896418"/>
    <nd ref="271896420"/>
    <tag k="highway" v="residential"/>
    <tag k="name" v="Claremont Crescent"/>
    <tag k="source" v="yahoo"/>
  </way>
  <way id="25010187" version="3" timestamp="2010-07-08T03:18:26Z" uid="74617" user="JohnSmith" changeset="5163091">
    <nd ref="271896398"/>
    <nd ref="614445992"/>
    <nd ref="271896400"/>
    <nd ref="271896402"/>
    <nd ref="614445977"/>
    <nd ref="271896420"/>
    <nd ref="271896404"/>
    <nd ref="614445979"/>
    <nd ref="271896414"/>
    <nd ref="614445986"/>
    <nd ref="271896416"/>
    <nd ref="271896418"/>
    <nd ref="271896420"/>
    <tag k="highway" v="residential"/>
    <tag k="maxspeed" v="50"/>
    <tag k="maxspeed:source" v="default residential speed limit in Australia"/>
    <tag k="name" v="Claremont Crescent"/>
    <tag k="source" v="yahoo"/>
  </way>
  <way id="25010187" version="4" timestamp="2012-01-16T19:05:34Z" uid="147510" user="woodpeck_fixbot" changeset="10410676">
    <nd ref="271896398"/>
    <nd ref="614445992"/>
    <nd ref="271896400"/>
    <nd ref="271896402"/>
    <nd ref="614445977"/>
    <nd ref="271896420"/>
    <nd ref="271896404"/>
    <nd ref="614445979"/>
    <nd ref="271896414"/>
    <nd ref="614445986"/>
    <nd ref="271896416"/>
    <nd ref="271896418"/>
    <nd ref="271896420"/>
    <tag k="highway" v="residential"/>
    <tag k="name" v="Claremont Crescent"/>
    <tag k="source" v="yahoo"/>
  </way>
  <way id="25010188" version="1" timestamp="2008-06-22T12:00:54Z" uid="30201" user="rrankin" changeset="258735">
    <nd ref="271896422"/>
    <nd ref="271855070"/>
    <tag k="highway" v="residential"/>
    <tag k="name" v="Cox Street"/>
    <tag k="source" v="yahoo"/>
  </way>
  <way id="25010188" version="2" timestamp="2008-06-23T23:59:27Z" uid="30201" user="rrankin" changeset="278959">
    <nd ref="271896422"/>
    <nd ref="272534793"/>
    <nd ref="271855070"/>
    <tag k="highway" v="residential"/>
    <tag k="name" v="Cox Street"/>
    <tag k="source" v="yahoo"/>
  </way>
  <way id="25010188" version="3" timestamp="2010-07-08T03:18:41Z" uid="74617" user="JohnSmith" changeset="5163091">
    <nd ref="271896422"/>
    <nd ref="272534793"/>
    <nd ref="271855070"/>
    <tag k="highway" v="residential"/>
    <tag k="maxspeed" v="50"/>
    <tag k="maxspeed:source" v="default residential speed limit in Australia"/>
    <tag k="name" v="Cox Street"/>
    <tag k="source" v="yahoo"/>
  </way>
  <way id="25010188" version="4" timestamp="2011-08-08T21:19:38Z" uid="20949" user="Ebenezer" changeset="8961949">
    <nd ref="271896422"/>
    <nd ref="1391540852"/>
    <nd ref="1391540854"/>
    <nd ref="272534793"/>
    <nd ref="271855070"/>
    <tag k="highway" v="residential"/>
    <tag k="maxspeed" v="50"/>
    <tag k="maxspeed:source" v="default residential speed limit in Australia"/>
    <tag k="name" v="Cox Street"/>
    <tag k="source" v="yahoo"/>
  </way>
  <way id="25010188" version="5" timestamp="2012-01-16T19:05:36Z" uid="147510" user="woodpeck_fixbot" changeset="10410676">
    <nd ref="271896422"/>
    <nd ref="1391540852"/>
    <nd ref="1391540854"/>
    <nd ref="272534793"/>
    <nd ref="271855070"/>
    <tag k="highway" v="residential"/>
    <tag k="name" v="Cox Street"/>
    <tag k="source" v="yahoo"/>
  </way>
  <way id="25010189" version="1" timestamp="2008-06-22T12:00:55Z" uid="30201" user="rrankin" changeset="258735">
    <nd ref="271896425"/>
    <nd ref="271896429"/>
    <nd ref="271896427"/>
    <tag k="highway" v="residential"/>
    <tag k="name" v="Cox Street"/>
    <tag k="source" v="yahoo"/>
  </way>
  <way id="25010189" version="2" timestamp="2008-06-22T12:48:44Z" uid="30201" user="rrankin" changeset="258735">
    <nd ref="271896425"/>
    <nd ref="271896429"/>
    <nd ref="271907785"/>
    <nd ref="271896427"/>
    <nd ref="271907751"/>
    <nd ref="271907592"/>
    <nd ref="271907572"/>
    <nd ref="271907565"/>
    <nd ref="271907506"/>
    <tag k="highway" v="residential"/>
    <tag k="name" v="Cox Street"/>
    <tag k="source" v="yahoo"/>
  </way>
  <way id="25010189" version="3" timestamp="2008-07-06T11:20:46Z" uid="30201" user="rrankin" changeset="412768">
    <nd ref="271896425"/>
    <nd ref="271896429"/>
    <nd ref="276629611"/>
    <nd ref="271907785"/>
    <nd ref="271896427"/>
    <nd ref="271907751"/>
    <nd ref="276629645"/>
    <nd ref="271907592"/>
    <nd ref="271907572"/>
    <nd ref="271907565"/>
    <nd ref="271907506"/>
    <tag k="highway" v="residential"/>
    <tag k="name" v="Cox Street"/>
    <tag k="source" v="yahoo"/>
  </way>
  <way id="25010189" version="4" timestamp="2008-09-15T11:13:28Z" uid="9477" user="NilbogAus" changeset="641775">
    <nd ref="271896425"/>
    <nd ref="271896429"/>
    <nd ref="276629611"/>
    <nd ref="271907785"/>
    <nd ref="271896427"/>
    <nd ref="271907751"/>
    <nd ref="276629645"/>
    <nd ref="271907592"/>
    <nd ref="297193224"/>
    <nd ref="271907572"/>
    <nd ref="271907565"/>
    <nd ref="271907506"/>
    <tag k="highway" v="residential"/>
    <tag k="name" v="Cox Street"/>
    <tag k="source" v="yahoo"/>
  </way>
  <way id="25010189" version="5" timestamp="2009-06-23T11:21:33Z" uid="135161" user="AusRick" changeset="1601496">
    <nd ref="271896422"/>
    <nd ref="428368121"/>
    <nd ref="271896425"/>
    <tag k="highway" v="footway"/>
  </way>
  <way id="25010189" version="6" timestamp="2010-02-21T09:37:56Z" uid="7617" user="Franc" changeset="3931190">
    <nd ref="271896422"/>
    <nd ref="428368121"/>
    <nd ref="271896425"/>
    <tag k="highway" v="unclassified"/>
  </way>
  <way id="25010189" version="7" timestamp="2012-01-17T03:35:49Z" uid="77586" user="Map Star" changeset="10414184">
    <nd ref="271896422"/>
    <nd ref="1594205967"/>
    <nd ref="271896425"/>
    <tag k="highway" v="unclassified"/>
  </way>
  <way id="25010190" version="1" timestamp="2008-06-22T12:00:56Z" uid="30201" user="rrankin" changeset="258735">
    <nd ref="271896429"/>
    <nd ref="271896431"/>
    <nd ref="271896438"/>
    <nd ref="271896445"/>
    <tag k="highway" v="residential"/>
    <tag k="name" v="Bell Street"/>
    <tag k="source" v="yahoo"/>
  </way>
  <way id="25010190" version="2" timestamp="2008-06-22T12:48:45Z" uid="30201" user="rrankin" changeset="258735">
    <nd ref="271896429"/>
    <nd ref="271907496"/>
    <nd ref="271896431"/>
    <nd ref="271896438"/>
    <nd ref="271896445"/>
    <tag k="highway" v="residential"/>
    <tag k="name" v="Bell Street"/>
    <tag k="source" v="yahoo"/>
  </way>
  <way id="25010190" version="3" timestamp="2008-07-06T11:20:46Z" uid="30201" user="rrankin" changeset="412768">
    <nd ref="271896429"/>
    <nd ref="276629600"/>
    <nd ref="271907496"/>
    <nd ref="271896431"/>
    <nd ref="271896438"/>
    <nd ref="271896445"/>
    <tag k="highway" v="residential"/>
    <tag k="name" v="Bell Street"/>
    <tag k="source" v="yahoo"/>
  </way>
  <way id="25010190" version="4" timestamp="2010-01-06T09:22:41Z" uid="7617" user="Franc" changeset="3551735">
    <nd ref="271896429"/>
    <nd ref="276629600"/>
    <nd ref="271907496"/>
    <nd ref="271896431"/>
    <nd ref="606335386"/>
    <nd ref="271896438"/>
    <nd ref="606335385"/>
    <nd ref="271896445"/>
    <tag k="highway" v="residential"/>
    <tag k="name" v="Bell Street"/>
    <tag k="source" v="yahoo"/>
  </way>
  <way id="25010190" version="5" timestamp="2010-06-14T07:04:15Z" uid="61114" user="Trav" changeset="4985406">
    <nd ref="271896429"/>
    <nd ref="276629600"/>
    <nd ref="271907496"/>
    <nd ref="271896431"/>
    <nd ref="606335386"/>
    <nd ref="271896438"/>
    <nd ref="606335385"/>
    <nd ref="271896445"/>
    <tag k="highway" v="residential"/>
    <tag k="name" v="Bell Street"/>
    <tag k="source" v="yahoo"/>
    <tag k="source:name" v="survey"/>
  </way>
  <way id="25010190" version="6" timestamp="2010-07-08T03:19:02Z" uid="74617" user="JohnSmith" changeset="5163091">
    <nd ref="271896429"/>
    <nd ref="276629600"/>
    <nd ref="271907496"/>
    <nd ref="271896431"/>
    <nd ref="606335386"/>
    <nd ref="271896438"/>
    <nd ref="606335385"/>
    <nd ref="271896445"/>
    <tag k="highway" v="residential"/>
    <tag k="maxspeed" v="50"/>
    <tag k="maxspeed:source" v="default residential speed limit in Australia"/>
    <tag k="name" v="Bell Street"/>
    <tag k="source" v="yahoo"/>
    <tag k="source:name" v="survey"/>
  </way>
  <way id="25010190" version="7" timestamp="2012-01-16T19:05:39Z" uid="147510" user="woodpeck_fixbot" changeset="10410676">
    <nd ref="271896429"/>
    <nd ref="276629600"/>
    <nd ref="271907496"/>
    <nd ref="271896431"/>
    <nd ref="606335386"/>
    <nd ref="271896438"/>
    <nd ref="606335385"/>
    <nd ref="271896445"/>
    <tag k="highway" v="residential"/>
    <tag k="name" v="Bell Street"/>
    <tag k="source" v="yahoo"/>
    <tag k="source:name" v="survey"/>
  </way>
  <way id="25010280" version="7" timestamp="2010-07-09T07:00:51Z" uid="74617" user="JohnSmith" changeset="5171412">
    <nd ref="271613696"/>
    <nd ref="271897454"/>
    <nd ref="271897548"/>
    <nd ref="271897630"/>
    <nd ref="271897387"/>
    <tag k="highway" v="residential"/>
    <tag k="maxspeed" v="50"/>
    <tag k="maxspeed:source" v="default residential speed limit in Australia"/>
    <tag k="name" v="Lewington Street"/>
  </way>
  <way id="25010280" version="8" timestamp="2012-01-16T19:05:41Z" uid="147510" user="woodpeck_fixbot" changeset="10410676">
    <nd ref="271613696"/>
    <nd ref="271897454"/>
    <nd ref="271897548"/>
    <nd ref="271897630"/>
    <nd ref="271897387"/>
    <tag k="highway" v="residential"/>
    <tag k="name" v="Lewington Street"/>
  </way>
  <way id="25010281" version="7" timestamp="2010-07-09T07:03:38Z" uid="74617" user="JohnSmith" changeset="5171412">
    <nd ref="271897389"/>
    <nd ref="271897631"/>
    <nd ref="271897549"/>
    <nd ref="271897455"/>
    <nd ref="271897429"/>
    <tag k="highway" v="residential"/>
    <tag k="maxspeed" v="50"/>
    <tag k="maxspeed:source" v="default residential speed limit in Australia"/>
    <tag k="name" v="Kent Street"/>
  </way>
  <way id="25010281" version="8" timestamp="2010-08-05T04:15:48Z" uid="241462" user="updater" changeset="5404630">
    <nd ref="271897389"/>
    <nd ref="271897631"/>
    <nd ref="271897549"/>
    <nd ref="271897455"/>
    <nd ref="846539792"/>
    <nd ref="846539793"/>
    <nd ref="846537022"/>
    <tag k="highway" v="residential"/>
    <tag k="maxspeed" v="50"/>
    <tag k="maxspeed:source" v="default residential speed limit in Australia"/>
    <tag k="name" v="Kent Street"/>
  </way>
  <way id="25010281" version="9" timestamp="2012-01-16T19:05:43Z" uid="147510" user="woodpeck_fixbot" changeset="10410676">
    <nd ref="271897389"/>
    <nd ref="271897631"/>
    <nd ref="271897549"/>
    <nd ref="271897455"/>
    <nd ref="846539792"/>
    <nd ref="846539793"/>
    <nd ref="846537022"/>
    <tag k="highway" v="residential"/>
    <tag k="name" v="Kent Street"/>
  </way>
  <way id="25010283" version="4" timestamp="2010-07-09T06:57:29Z" uid="74617" user="JohnSmith" changeset="5171412">
    <nd ref="271897454"/>
    <nd ref="271897455"/>
    <nd ref="271897456"/>
    <tag k="highway" v="residential"/>
    <tag k="maxspeed" v="50"/>
    <tag k="maxspeed:source" v="default residential speed limit in Australia"/>
    <tag k="name" v="Hillman Street"/>
  </way>
  <way id="25010283" version="5" timestamp="2012-01-16T19:05:45Z" uid="147510" user="woodpeck_fixbot" changeset="10410676">
    <nd ref="271897454"/>
    <nd ref="271897455"/>
    <nd ref="271897456"/>
    <tag k="highway" v="residential"/>
    <tag k="name" v="Hillman Street"/>
  </way>
  <way id="25010290" version="3" timestamp="2010-07-09T06:58:47Z" uid="74617" user="JohnSmith" changeset="5171412">
    <nd ref="271897548"/>
    <nd ref="271897549"/>
    <nd ref="271897550"/>
    <tag k="highway" v="residential"/>
    <tag k="maxspeed" v="50"/>
    <tag k="maxspeed:source" v="default residential speed limit in Australia"/>
    <tag k="name" v="Roe Street"/>
  </way>
  <way id="25010290" version="4" timestamp="2010-08-05T04:15:43Z" uid="241462" user="updater" changeset="5404630">
    <nd ref="271897548"/>
    <nd ref="271897549"/>
    <nd ref="271897550"/>
    <nd ref="567090698"/>
    <tag k="highway" v="residential"/>
    <tag k="maxspeed" v="50"/>
    <tag k="maxspeed:source" v="default residential speed limit in Australia"/>
    <tag k="name" v="Roe Street"/>
  </way>
  <way id="25010290" version="5" timestamp="2011-02-28T20:45:48Z" uid="275821" user="Ramzes" changeset="7424318">
    <nd ref="271897548"/>
    <nd ref="271897549"/>
    <nd ref="271897550"/>
    <tag k="highway" v="residential"/>
    <tag k="maxspeed" v="50"/>
    <tag k="maxspeed:source" v="default residential speed limit in Australia"/>
    <tag k="name" v="Roe Street"/>
  </way>
  <way id="25010290" version="6" timestamp="2012-01-16T19:05:47Z" uid="147510" user="woodpeck_fixbot" changeset="10410676">
    <nd ref="271897548"/>
    <nd ref="271897549"/>
    <nd ref="271897550"/>
    <tag k="highway" v="residential"/>
    <tag k="name" v="Roe Street"/>
  </way>
  <way id="25010293" version="3" timestamp="2010-07-09T07:05:36Z" uid="74617" user="JohnSmith" changeset="5171412">
    <nd ref="271897630"/>
    <nd ref="271897631"/>
    <nd ref="271897632"/>
    <tag k="highway" v="residential"/>
    <tag k="maxspeed" v="50"/>
    <tag k="maxspeed:source" v="default residential speed limit in Australia"/>
    <tag k="name" v="Weld Street"/>
  </way>
  <way id="25010293" version="4" timestamp="2012-01-16T19:05:51Z" uid="147510" user="woodpeck_fixbot" changeset="10410676">
    <nd ref="271897630"/>
    <nd ref="271897631"/>
    <nd ref="271897632"/>
    <tag k="highway" v="residential"/>
    <tag k="name" v="Weld Street"/>
  </way>
  <way id="25010333" version="3" timestamp="2008-10-17T22:10:02Z" uid="30632" user="antblant" changeset="421571">
    <nd ref="271892451"/>
    <nd ref="271898034"/>
    <nd ref="276348209"/>
    <tag k="highway" v="construction"/>
    <tag k="oneway" v="true"/>
    <tag k="ref" v="A1"/>
  </way>
  <way id="25010333" version="4" timestamp="2009-12-24T14:48:36Z" uid="27158" user="frdy" changeset="3442905">
    <nd ref="271892451"/>
    <nd ref="271898034"/>
    <nd ref="598973488"/>
    <nd ref="276348209"/>
    <tag k="highway" v="motorway"/>
    <tag k="oneway" v="true"/>
    <tag k="ref" v="A1"/>
  </way>
  <way id="25010333" version="5" timestamp="2010-01-04T22:01:22Z" uid="83198" user="Mateusz Korniak" changeset="3541416">
    <nd ref="271892451"/>
    <nd ref="271898034"/>
    <nd ref="598973488"/>
    <nd ref="276348209"/>
    <tag k="highway" v="motorway"/>
    <tag k="lanes" v="3"/>
    <tag k="oneway" v="true"/>
    <tag k="ref" v="A1"/>
  </way>
  <way id="25010333" version="6" timestamp="2010-12-17T13:52:03Z" uid="371910" user="nicram" changeset="6686869">
    <nd ref="271892451"/>
    <nd ref="271898034"/>
    <nd ref="598973488"/>
    <nd ref="276348209"/>
    <tag k="bicycle" v="no"/>
    <tag k="highway" v="motorway"/>
    <tag k="horse" v="no"/>
    <tag k="lanes" v="3"/>
    <tag k="maxspeed" v="130"/>
    <tag k="oneway" v="true"/>
    <tag k="ref" v="A1"/>
  </way>
  <way id="25010334" version="6" timestamp="2008-10-17T22:10:03Z" uid="30632" user="antblant" changeset="421571">
    <nd ref="271898039"/>
    <nd ref="271898040"/>
    <nd ref="286134910"/>
    <nd ref="286240832"/>
    <nd ref="286134913"/>
    <nd ref="286134918"/>
    <nd ref="286134923"/>
    <nd ref="286134930"/>
    <nd ref="286142105"/>
    <nd ref="286142113"/>
    <nd ref="286142114"/>
    <nd ref="286142115"/>
    <nd ref="286142116"/>
    <nd ref="286142118"/>
    <tag k="highway" v="construction"/>
    <tag k="oneway" v="true"/>
    <tag k="ref" v="A1"/>
  </way>
  <way id="25010334" version="7" timestamp="2009-12-24T16:00:05Z" uid="27158" user="frdy" changeset="3443711">
    <nd ref="271898039"/>
    <nd ref="271898040"/>
    <nd ref="286134910"/>
    <nd ref="286240832"/>
    <nd ref="286134913"/>
    <nd ref="286134918"/>
    <nd ref="286134923"/>
    <nd ref="286134930"/>
    <nd ref="286142105"/>
    <nd ref="286142113"/>
    <nd ref="286142114"/>
    <nd ref="286142115"/>
    <nd ref="286142116"/>
    <nd ref="286142118"/>
    <tag k="highway" v="motorway"/>
    <tag k="oneway" v="true"/>
    <tag k="ref" v="A1"/>
  </way>
  <way id="25010334" version="8" timestamp="2010-01-04T22:01:21Z" uid="83198" user="Mateusz Korniak" changeset="3541416">
    <nd ref="271898039"/>
    <nd ref="271898040"/>
    <nd ref="286134910"/>
    <nd ref="286240832"/>
    <nd ref="286134913"/>
    <nd ref="286134918"/>
    <nd ref="286134923"/>
    <nd ref="286134930"/>
    <nd ref="286142105"/>
    <nd ref="286142113"/>
    <nd ref="286142114"/>
    <nd ref="286142115"/>
    <nd ref="286142116"/>
    <nd ref="286142118"/>
    <tag k="highway" v="motorway"/>
    <tag k="lanes" v="3"/>
    <tag k="oneway" v="true"/>
    <tag k="ref" v="A1"/>
  </way>
  <way id="25010334" version="9" timestamp="2010-12-17T13:52:04Z" uid="371910" user="nicram" changeset="6686869">
    <nd ref="271898039"/>
    <nd ref="271898040"/>
    <nd ref="286134910"/>
    <nd ref="286240832"/>
    <nd ref="286134913"/>
    <nd ref="286134918"/>
    <nd ref="286134923"/>
    <nd ref="286134930"/>
    <nd ref="286142105"/>
    <nd ref="286142113"/>
    <nd ref="286142114"/>
    <nd ref="286142115"/>
    <nd ref="286142116"/>
    <nd ref="286142118"/>
    <tag k="bicycle" v="no"/>
    <tag k="highway" v="motorway"/>
    <tag k="horse" v="no"/>
    <tag k="lanes" v="3"/>
    <tag k="maxspeed" v="130"/>
    <tag k="oneway" v="true"/>
    <tag k="ref" v="A1"/>
  </way>
  <way id="25010334" version="10" timestamp="2011-01-11T18:12:13Z" uid="223558" user="tonkow1993" changeset="6939579">
    <nd ref="271898039"/>
    <nd ref="271898040"/>
    <nd ref="286134910"/>
    <nd ref="286240832"/>
    <nd ref="286134913"/>
    <nd ref="286134918"/>
    <tag k="bicycle" v="no"/>
    <tag k="highway" v="motorway"/>
    <tag k="horse" v="no"/>
    <tag k="lanes" v="3"/>
    <tag k="maxspeed" v="130"/>
    <tag k="oneway" v="true"/>
    <tag k="ref" v="A1"/>
  </way>
  <way id="25010334" version="11" timestamp="2011-01-11T18:15:23Z" uid="223558" user="tonkow1993" changeset="6939613">
    <nd ref="271898039"/>
    <nd ref="271898040"/>
    <nd ref="286134910"/>
    <nd ref="286240832"/>
    <nd ref="286134913"/>
    <nd ref="286134918"/>
    <nd ref="1098314601"/>
    <nd ref="1098314604"/>
    <tag k="bicycle" v="no"/>
    <tag k="highway" v="motorway"/>
    <tag k="horse" v="no"/>
    <tag k="lanes" v="3"/>
    <tag k="maxspeed" v="130"/>
    <tag k="oneway" v="true"/>
    <tag k="ref" v="A1"/>
  </way>
  <way id="25010334" version="12" timestamp="2011-01-11T18:15:59Z" uid="223558" user="tonkow1993" changeset="6939613">
    <nd ref="271898039"/>
    <nd ref="271898040"/>
    <nd ref="286134910"/>
    <nd ref="286240832"/>
    <nd ref="286134913"/>
    <nd ref="286134918"/>
    <nd ref="1098314601"/>
    <nd ref="1098314604"/>
    <nd ref="1098315149"/>
    <nd ref="1098315152"/>
    <tag k="bicycle" v="no"/>
    <tag k="highway" v="motorway"/>
    <tag k="horse" v="no"/>
    <tag k="lanes" v="3"/>
    <tag k="maxspeed" v="130"/>
    <tag k="oneway" v="true"/>
    <tag k="ref" v="A1"/>
  </way>
  <way id="25010334" version="13" timestamp="2011-01-11T18:16:12Z" uid="223558" user="tonkow1993" changeset="6939613">
    <nd ref="271898039"/>
    <nd ref="271898040"/>
    <nd ref="286134910"/>
    <nd ref="286240832"/>
    <nd ref="286134913"/>
    <nd ref="286134918"/>
    <nd ref="1098314601"/>
    <nd ref="1098314604"/>
    <nd ref="1098315149"/>
    <nd ref="1098315152"/>
    <nd ref="286142118"/>
    <tag k="bicycle" v="no"/>
    <tag k="highway" v="motorway"/>
    <tag k="horse" v="no"/>
    <tag k="lanes" v="3"/>
    <tag k="maxspeed" v="130"/>
    <tag k="oneway" v="true"/>
    <tag k="ref" v="A1"/>
  </way>
  <way id="25010334" version="14" timestamp="2011-10-10T08:19:49Z" uid="25867" user="adamos" changeset="9519407">
    <nd ref="271898039"/>
    <nd ref="271898040"/>
    <nd ref="286134910"/>
    <nd ref="286240832"/>
    <nd ref="286134913"/>
    <nd ref="286134918"/>
    <nd ref="1098314601"/>
    <nd ref="1460897125"/>
    <nd ref="1098314604"/>
    <nd ref="1460897126"/>
    <nd ref="1098315149"/>
    <nd ref="1098315152"/>
    <nd ref="286142118"/>
    <tag k="bicycle" v="no"/>
    <tag k="highway" v="motorway"/>
    <tag k="horse" v="no"/>
    <tag k="lanes" v="3"/>
    <tag k="maxspeed" v="130"/>
    <tag k="oneway" v="true"/>
    <tag k="ref" v="A1"/>
  </way>
  <way id="25010335" version="2" timestamp="2008-10-17T22:10:04Z" uid="30632" user="antblant" changeset="421571">
    <nd ref="271898041"/>
    <nd ref="271898037"/>
    <nd ref="271898038"/>
    <nd ref="271898039"/>
    <tag k="bridge" v="true"/>
    <tag k="highway" v="construction"/>
    <tag k="layer" v="1"/>
    <tag k="oneway" v="true"/>
    <tag k="ref" v="A1"/>
  </way>
  <way id="25010335" version="3" timestamp="2009-12-24T13:42:13Z" uid="27158" user="frdy" changeset="3442302">
    <nd ref="271898041"/>
    <nd ref="271898037"/>
    <nd ref="598955925"/>
    <nd ref="598955924"/>
    <nd ref="271898038"/>
    <nd ref="598955927"/>
    <nd ref="598955926"/>
    <nd ref="271898039"/>
    <tag k="bridge" v="true"/>
    <tag k="highway" v="motorway"/>
    <tag k="lanes" v="3"/>
    <tag k="layer" v="1"/>
    <tag k="oneway" v="true"/>
    <tag k="ref" v="A1"/>
  </way>
  <way id="25010335" version="4" timestamp="2010-11-09T06:29:09Z" uid="204153" user="mfvl" changeset="6325442">
    <nd ref="271898041"/>
    <nd ref="271898037"/>
    <nd ref="598955925"/>
    <nd ref="598955924"/>
    <nd ref="271898038"/>
    <nd ref="598955927"/>
    <nd ref="598955926"/>
    <nd ref="271898039"/>
    <tag k="bridge" v="yes"/>
    <tag k="highway" v="motorway"/>
    <tag k="lanes" v="3"/>
    <tag k="layer" v="1"/>
    <tag k="oneway" v="yes"/>
    <tag k="ref" v="A1"/>
  </way>
  <way id="25010335" version="5" timestamp="2010-12-17T13:52:04Z" uid="371910" user="nicram" changeset="6686869">
    <nd ref="271898041"/>
    <nd ref="271898037"/>
    <nd ref="598955925"/>
    <nd ref="598955924"/>
    <nd ref="271898038"/>
    <nd ref="598955927"/>
    <nd ref="598955926"/>
    <nd ref="271898039"/>
    <tag k="bicycle" v="no"/>
    <tag k="bridge" v="yes"/>
    <tag k="highway" v="motorway"/>
    <tag k="horse" v="no"/>
    <tag k="lanes" v="3"/>
    <tag k="layer" v="1"/>
    <tag k="maxspeed" v="130"/>
    <tag k="oneway" v="yes"/>
    <tag k="ref" v="A1"/>
  </way>
  <way id="25010335" version="6" timestamp="2012-03-15T18:16:32Z" uid="88909" user="miko101" changeset="10991124">
    <nd ref="271898041"/>
    <nd ref="271898037"/>
    <nd ref="598955925"/>
    <nd ref="598955924"/>
    <nd ref="271898038"/>
    <nd ref="598955927"/>
    <nd ref="598955926"/>
    <nd ref="271898039"/>
    <tag k="bicycle" v="no"/>
    <tag k="bridge" v="yes"/>
    <tag k="highway" v="motorway"/>
    <tag k="horse" v="no"/>
    <tag k="lanes" v="3"/>
    <tag k="layer" v="1"/>
    <tag k="maxspeed" v="140"/>
    <tag k="oneway" v="yes"/>
    <tag k="ref" v="A1"/>
  </way>
  <way id="25010343" version="2" timestamp="2010-02-15T05:23:51Z" uid="74617" user="JohnSmith" changeset="3880269">
    <nd ref="271887722"/>
    <nd ref="271898120"/>
    <nd ref="271898121"/>
    <nd ref="271898122"/>
    <nd ref="271898123"/>
    <tag k="highway" v="unclassified"/>
    <tag k="maxspeed" v="50"/>
  </way>
  <way id="25010343" version="3" timestamp="2012-01-16T19:05:54Z" uid="147510" user="woodpeck_fixbot" changeset="10410676">
    <nd ref="271887722"/>
    <nd ref="271898120"/>
    <nd ref="271898121"/>
    <nd ref="271898122"/>
    <nd ref="271898123"/>
    <tag k="highway" v="unclassified"/>
  </way>
  <way id="25010344" version="3" timestamp="2010-06-10T13:25:51Z" uid="4467" user="Rosscoe" changeset="4954151">
    <nd ref="271898128"/>
    <nd ref="271898129"/>
    <nd ref="768581934"/>
    <nd ref="768581944"/>
    <nd ref="768581953"/>
    <nd ref="768581940"/>
    <nd ref="271898130"/>
    <nd ref="271898131"/>
    <nd ref="768581939"/>
    <nd ref="768581942"/>
    <nd ref="768581952"/>
    <nd ref="567090782"/>
    <nd ref="271898128"/>
    <tag k="leisure" v="park"/>
  </way>
  <way id="25010360" version="3" timestamp="2010-07-09T07:02:56Z" uid="74617" user="JohnSmith" changeset="5171412">
    <nd ref="271898284"/>
    <nd ref="271898285"/>
    <nd ref="271898286"/>
    <tag k="highway" v="residential"/>
    <tag k="maxspeed" v="50"/>
    <tag k="maxspeed:source" v="default residential speed limit in Australia"/>
    <tag k="name" v="Ward Road"/>
  </way>
  <way id="25010360" version="4" timestamp="2012-01-16T19:05:56Z" uid="147510" user="woodpeck_fixbot" changeset="10410676">
    <nd ref="271898284"/>
    <nd ref="271898285"/>
    <nd ref="271898286"/>
    <tag k="highway" v="residential"/>
    <tag k="name" v="Ward Road"/>
  </way>
  <way id="25010361" version="3" timestamp="2010-04-29T03:18:04Z" uid="4467" user="Rosscoe" changeset="4554988">
    <nd ref="106277074"/>
    <nd ref="271898289"/>
    <nd ref="711327643"/>
    <tag k="highway" v="residential"/>
  </way>
  <way id="25010361" version="4" timestamp="2010-05-05T01:40:15Z" uid="4467" user="Rosscoe" changeset="4609507">
    <nd ref="106277074"/>
    <nd ref="721743234"/>
    <nd ref="271898289"/>
    <nd ref="721743228"/>
    <nd ref="721743231"/>
    <nd ref="721743226"/>
    <nd ref="711327640"/>
    <tag k="highway" v="residential"/>
    <tag k="oneway" v="yes"/>
  </way>
  <way id="25010361" version="5" timestamp="2010-06-08T02:25:58Z" uid="241462" user="updater" changeset="4933903">
    <nd ref="106277074"/>
    <nd ref="721743234"/>
    <nd ref="271898289"/>
    <nd ref="721743228"/>
    <nd ref="721743231"/>
    <nd ref="721743226"/>
    <nd ref="711327640"/>
    <tag k="highway" v="service"/>
    <tag k="oneway" v="yes"/>
  </way>
  <way id="25010361" version="6" timestamp="2010-06-10T13:25:31Z" uid="4467" user="Rosscoe" changeset="4954151">
    <nd ref="106277074"/>
    <nd ref="721743234"/>
    <nd ref="271898289"/>
    <nd ref="721743228"/>
    <nd ref="721743231"/>
    <nd ref="721743226"/>
    <nd ref="711327640"/>
    <tag k="highway" v="residential"/>
    <tag k="oneway" v="yes"/>
  </way>
  <way id="25010361" version="7" timestamp="2010-07-09T07:05:44Z" uid="74617" user="JohnSmith" changeset="5171412">
    <nd ref="106277074"/>
    <nd ref="721743234"/>
    <nd ref="271898289"/>
    <nd ref="721743228"/>
    <nd ref="721743231"/>
    <nd ref="721743226"/>
    <nd ref="711327640"/>
    <tag k="highway" v="residential"/>
    <tag k="maxspeed" v="50"/>
    <tag k="maxspeed:source" v="default residential speed limit in Australia"/>
    <tag k="oneway" v="yes"/>
  </way>
  <way id="25010361" version="8" timestamp="2012-01-16T19:05:59Z" uid="147510" user="woodpeck_fixbot" changeset="10410676">
    <nd ref="106277074"/>
    <nd ref="721743234"/>
    <nd ref="271898289"/>
    <nd ref="721743228"/>
    <nd ref="721743231"/>
    <nd ref="721743226"/>
    <nd ref="711327640"/>
    <tag k="highway" v="residential"/>
    <tag k="oneway" v="yes"/>
  </way>
  <way id="25010362" version="3" timestamp="2010-05-05T04:12:01Z" uid="4467" user="Rosscoe" changeset="4609732">
    <nd ref="271898299"/>
    <nd ref="271898300"/>
    <nd ref="271898301"/>
    <nd ref="271898302"/>
    <nd ref="271898303"/>
    <nd ref="271898304"/>
    <nd ref="271898308"/>
    <nd ref="721791908"/>
    <nd ref="271898306"/>
    <tag k="highway" v="residential"/>
  </way>
  <way id="25010362" version="4" timestamp="2010-06-08T02:23:22Z" uid="241462" user="updater" changeset="4933903">
    <nd ref="271898299"/>
    <nd ref="271898300"/>
    <nd ref="271898301"/>
    <nd ref="271898302"/>
    <nd ref="271898303"/>
    <nd ref="271898304"/>
    <nd ref="271898308"/>
    <nd ref="721791908"/>
    <nd ref="271898306"/>
    <tag k="highway" v="unclassified"/>
    <tag k="name" v="Merchant Drive"/>
  </way>
  <way id="25010362" version="5" timestamp="2010-06-09T03:42:52Z" uid="241462" user="updater" changeset="4941949">
    <nd ref="271898299"/>
    <nd ref="271898300"/>
    <nd ref="271898301"/>
    <nd ref="271898302"/>
    <nd ref="271898303"/>
    <nd ref="271898304"/>
    <nd ref="271898308"/>
    <nd ref="721791908"/>
    <nd ref="271898306"/>
    <tag k="highway" v="residential"/>
    <tag k="name" v="Merchant Drive"/>
  </way>
  <way id="25010362" version="6" timestamp="2010-07-09T06:56:41Z" uid="74617" user="JohnSmith" changeset="5171412">
    <nd ref="271898299"/>
    <nd ref="271898300"/>
    <nd ref="271898301"/>
    <nd ref="271898302"/>
    <nd ref="271898303"/>
    <nd ref="271898304"/>
    <nd ref="271898308"/>
    <nd ref="721791908"/>
    <nd ref="271898306"/>
    <tag k="highway" v="residential"/>
    <tag k="maxspeed" v="50"/>
    <tag k="maxspeed:source" v="default residential speed limit in Australia"/>
    <tag k="name" v="Merchant Drive"/>
  </way>
  <way id="25010362" version="7" timestamp="2012-01-16T19:06:01Z" uid="147510" user="woodpeck_fixbot" changeset="10410676">
    <nd ref="271898299"/>
    <nd ref="271898300"/>
    <nd ref="271898301"/>
    <nd ref="271898302"/>
    <nd ref="271898303"/>
    <nd ref="271898304"/>
    <nd ref="271898308"/>
    <nd ref="721791908"/>
    <nd ref="271898306"/>
    <tag k="highway" v="residential"/>
    <tag k="name" v="Merchant Drive"/>
  </way>
  <way id="25010363" version="3" timestamp="2010-04-29T03:18:04Z" uid="4467" user="Rosscoe" changeset="4554988">
    <nd ref="271898308"/>
    <nd ref="271898309"/>
    <nd ref="271898310"/>
    <nd ref="711327645"/>
    <nd ref="271898311"/>
    <nd ref="711327642"/>
    <tag k="highway" v="residential"/>
  </way>
  <way id="25010363" version="4" timestamp="2010-05-05T01:40:15Z" uid="4467" user="Rosscoe" changeset="4609507">
    <nd ref="271898308"/>
    <nd ref="271898309"/>
    <nd ref="271898310"/>
    <nd ref="721743227"/>
    <nd ref="711327645"/>
    <nd ref="271898311"/>
    <nd ref="711327642"/>
    <tag k="highway" v="residential"/>
  </way>
  <way id="25010363" version="5" timestamp="2010-06-07T05:38:57Z" uid="241462" user="updater" changeset="4924803">
    <nd ref="271898308"/>
    <nd ref="271898309"/>
    <nd ref="766258681"/>
    <nd ref="271898310"/>
    <nd ref="721743227"/>
    <nd ref="711327645"/>
    <nd ref="271898311"/>
    <nd ref="711327642"/>
    <tag k="highway" v="residential"/>
  </way>
  <way id="25010363" version="6" timestamp="2010-06-08T02:22:54Z" uid="241462" user="updater" changeset="4933903">
    <nd ref="271898308"/>
    <nd ref="271898309"/>
    <nd ref="766258681"/>
    <nd ref="271898310"/>
    <nd ref="721743227"/>
    <nd ref="711327645"/>
    <nd ref="271898311"/>
    <nd ref="711327642"/>
    <tag k="highway" v="unclassified"/>
    <tag k="name" v="Enterprise Way"/>
  </way>
  <way id="25010363" version="7" timestamp="2010-06-09T03:42:41Z" uid="241462" user="updater" changeset="4941949">
    <nd ref="271898308"/>
    <nd ref="271898309"/>
    <nd ref="766258681"/>
    <nd ref="271898310"/>
    <nd ref="721743227"/>
    <nd ref="711327645"/>
    <nd ref="271898311"/>
    <nd ref="711327642"/>
    <tag k="highway" v="residential"/>
    <tag k="name" v="Enterprise Way"/>
  </way>
  <way id="25010363" version="8" timestamp="2010-07-09T06:59:56Z" uid="74617" user="JohnSmith" changeset="5171412">
    <nd ref="271898308"/>
    <nd ref="271898309"/>
    <nd ref="766258681"/>
    <nd ref="271898310"/>
    <nd ref="721743227"/>
    <nd ref="711327645"/>
    <nd ref="271898311"/>
    <nd ref="711327642"/>
    <tag k="highway" v="residential"/>
    <tag k="maxspeed" v="50"/>
    <tag k="maxspeed:source" v="default residential speed limit in Australia"/>
    <tag k="name" v="Enterprise Way"/>
  </way>
  <way id="25010363" version="9" timestamp="2012-01-16T19:06:05Z" uid="147510" user="woodpeck_fixbot" changeset="10410676">
    <nd ref="271898308"/>
    <nd ref="271898309"/>
    <nd ref="766258681"/>
    <nd ref="271898310"/>
    <nd ref="721743227"/>
    <nd ref="711327645"/>
    <nd ref="271898311"/>
    <nd ref="711327642"/>
    <tag k="highway" v="residential"/>
    <tag k="name" v="Enterprise Way"/>
  </way>
  <way id="25010364" version="3" timestamp="2010-05-05T04:12:00Z" uid="4467" user="Rosscoe" changeset="4609732">
    <nd ref="271898316"/>
    <nd ref="721791911"/>
    <nd ref="271898317"/>
    <nd ref="721791910"/>
    <nd ref="721791917"/>
    <nd ref="721791927"/>
    <tag k="highway" v="residential"/>
    <tag k="oneway" v="yes"/>
    <tag k="source" v="nearmap"/>
  </way>
  <way id="25010364" version="4" timestamp="2010-07-09T07:00:59Z" uid="74617" user="JohnSmith" changeset="5171412">
    <nd ref="271898316"/>
    <nd ref="721791911"/>
    <nd ref="271898317"/>
    <nd ref="721791910"/>
    <nd ref="721791917"/>
    <nd ref="721791927"/>
    <tag k="highway" v="residential"/>
    <tag k="maxspeed" v="50"/>
    <tag k="maxspeed:source" v="default residential speed limit in Australia"/>
    <tag k="oneway" v="yes"/>
    <tag k="source" v="nearmap"/>
  </way>
  <way id="25010364" version="5" timestamp="2012-01-16T19:06:07Z" uid="147510" user="woodpeck_fixbot" changeset="10410676">
    <nd ref="271898316"/>
    <nd ref="721791911"/>
    <nd ref="271898317"/>
    <nd ref="721791910"/>
    <nd ref="721791917"/>
    <nd ref="721791927"/>
    <tag k="highway" v="residential"/>
    <tag k="oneway" v="yes"/>
    <tag k="source" v="nearmap"/>
  </way>
  <way id="25010365" version="4" timestamp="2010-05-05T04:12:01Z" uid="4467" user="Rosscoe" changeset="4609732">
    <nd ref="721791921"/>
    <nd ref="721791896"/>
    <nd ref="271898324"/>
    <nd ref="271898325"/>
    <nd ref="271898326"/>
    <nd ref="271898327"/>
    <nd ref="271898328"/>
    <nd ref="271898329"/>
    <nd ref="271898330"/>
    <nd ref="271898331"/>
    <nd ref="271898332"/>
    <nd ref="271898333"/>
    <nd ref="271898334"/>
    <nd ref="271898339"/>
    <nd ref="271898336"/>
    <tag k="highway" v="residential"/>
  </way>
  <way id="25010365" version="5" timestamp="2010-06-08T02:32:49Z" uid="241462" user="updater" changeset="4933903">
    <nd ref="721791921"/>
    <nd ref="721791896"/>
    <nd ref="271898324"/>
    <nd ref="271898325"/>
    <nd ref="271898326"/>
    <nd ref="271898327"/>
    <nd ref="271898328"/>
    <nd ref="271898329"/>
    <nd ref="271898330"/>
    <nd ref="271898331"/>
    <nd ref="271898332"/>
    <nd ref="271898333"/>
    <nd ref="271898334"/>
    <nd ref="271898339"/>
    <nd ref="271898336"/>
    <tag k="highway" v="unclassified"/>
    <tag k="name" v="Smeaton Way"/>
  </way>
  <way id="25010365" version="6" timestamp="2010-06-08T02:46:29Z" uid="241462" user="updater" changeset="4933903">
    <nd ref="721791921"/>
    <nd ref="721791896"/>
    <nd ref="271898324"/>
    <nd ref="271898325"/>
    <nd ref="271898326"/>
    <nd ref="271898327"/>
    <nd ref="271898328"/>
    <nd ref="271898329"/>
    <nd ref="271898330"/>
    <nd ref="271898331"/>
    <nd ref="271898332"/>
    <nd ref="271898333"/>
    <nd ref="271898334"/>
    <nd ref="271898339"/>
    <nd ref="271898336"/>
    <nd ref="766964877"/>
    <tag k="highway" v="unclassified"/>
    <tag k="name" v="Smeaton Way"/>
  </way>
  <way id="25010365" version="7" timestamp="2010-06-08T02:47:11Z" uid="241462" user="updater" changeset="4933903">
    <nd ref="721791921"/>
    <nd ref="721791896"/>
    <nd ref="271898324"/>
    <nd ref="271898325"/>
    <nd ref="271898326"/>
    <nd ref="271898327"/>
    <nd ref="271898328"/>
    <nd ref="271898329"/>
    <nd ref="271898330"/>
    <nd ref="271898331"/>
    <nd ref="271898332"/>
    <tag k="highway" v="unclassified"/>
    <tag k="name" v="Smeaton Way"/>
  </way>
  <way id="25010365" version="8" timestamp="2010-06-08T02:48:36Z" uid="241462" user="updater" changeset="4933903"/>
  <way id="25010366" version="7" timestamp="2010-07-09T06:54:39Z" uid="74617" user="JohnSmith" changeset="5171412">
    <nd ref="271898339"/>
    <nd ref="271898340"/>
    <nd ref="271898341"/>
    <nd ref="271898342"/>
    <nd ref="766964804"/>
    <tag k="highway" v="residential"/>
    <tag k="maxspeed" v="50"/>
    <tag k="maxspeed:source" v="default residential speed limit in Australia"/>
    <tag k="name" v="Beale Way"/>
  </way>
  <way id="25010366" version="8" timestamp="2012-01-16T19:06:08Z" uid="147510" user="woodpeck_fixbot" changeset="10410676">
    <nd ref="271898339"/>
    <nd ref="271898340"/>
    <nd ref="271898341"/>
    <nd ref="271898342"/>
    <nd ref="766964804"/>
    <tag k="highway" v="residential"/>
    <tag k="name" v="Beale Way"/>
  </way>
  <way id="25010370" version="5" timestamp="2010-03-20T15:07:36Z" uid="74617" user="JohnSmith" changeset="4180730">
    <nd ref="323117409"/>
    <nd ref="124662244"/>
    <nd ref="124662243"/>
    <nd ref="124663727"/>
    <nd ref="124663725"/>
    <nd ref="124663723"/>
    <nd ref="557761147"/>
    <nd ref="72627544"/>
    <nd ref="271885316"/>
    <nd ref="124663721"/>
    <nd ref="124663720"/>
    <nd ref="124663718"/>
    <nd ref="557761145"/>
    <nd ref="124663716"/>
    <nd ref="124663715"/>
    <nd ref="124663713"/>
    <nd ref="432823034"/>
    <nd ref="271885761"/>
    <nd ref="460223374"/>
    <nd ref="271896214"/>
    <nd ref="352957196"/>
    <nd ref="271885757"/>
    <nd ref="271887365"/>
    <nd ref="271886667"/>
    <nd ref="271886666"/>
    <nd ref="271898348"/>
    <nd ref="271898347"/>
    <nd ref="271898346"/>
    <nd ref="271898438"/>
    <nd ref="271898655"/>
    <tag k="highway" v="primary"/>
    <tag k="name" v="South Pine Road"/>
    <tag k="oneway" v="yes"/>
  </way>
  <way id="25010370" version="6" timestamp="2011-01-17T07:12:30Z" uid="22094" user="Chadzopkyo" changeset="6996485">
    <nd ref="323117409"/>
    <nd ref="124662244"/>
    <nd ref="124662243"/>
    <nd ref="124663727"/>
    <nd ref="124663725"/>
    <nd ref="124663723"/>
    <nd ref="557761147"/>
    <nd ref="72627544"/>
    <nd ref="271885316"/>
    <nd ref="124663721"/>
    <nd ref="124663720"/>
    <nd ref="124663718"/>
    <nd ref="557761145"/>
    <nd ref="124663716"/>
    <nd ref="124663715"/>
    <nd ref="124663713"/>
    <nd ref="432823034"/>
    <nd ref="271885761"/>
    <nd ref="460223374"/>
    <nd ref="271896214"/>
    <nd ref="352957196"/>
    <nd ref="271885757"/>
    <nd ref="271887365"/>
    <nd ref="271886667"/>
    <nd ref="271886666"/>
    <nd ref="271898348"/>
    <nd ref="271898347"/>
    <nd ref="271898346"/>
    <nd ref="271898438"/>
    <nd ref="271898655"/>
    <tag k="highway" v="primary"/>
    <tag k="name" v="South Pine Road"/>
    <tag k="oneway" v="yes"/>
  </way>
  <way id="25010370" version="7" timestamp="2011-01-24T07:13:48Z" uid="310765" user="Zamias" changeset="7070091">
    <nd ref="323117409"/>
    <nd ref="124662244"/>
    <nd ref="124662243"/>
    <nd ref="124663727"/>
    <nd ref="124663725"/>
    <nd ref="124663723"/>
    <nd ref="557761147"/>
    <nd ref="72627544"/>
    <nd ref="271885316"/>
    <nd ref="124663721"/>
    <nd ref="124663720"/>
    <nd ref="124663718"/>
    <nd ref="557761145"/>
    <nd ref="124663716"/>
    <nd ref="124663715"/>
    <nd ref="124663713"/>
    <nd ref="432823034"/>
    <nd ref="271885761"/>
    <nd ref="1118321490"/>
    <nd ref="460223374"/>
    <nd ref="271896214"/>
    <nd ref="352957196"/>
    <nd ref="271885757"/>
    <nd ref="271887365"/>
    <nd ref="271886667"/>
    <nd ref="271886666"/>
    <nd ref="271898348"/>
    <nd ref="271898347"/>
    <nd ref="271898346"/>
    <nd ref="271898438"/>
    <nd ref="271898655"/>
    <tag k="highway" v="primary"/>
    <tag k="name" v="South Pine Road"/>
    <tag k="oneway" v="yes"/>
  </way>
  <way id="25010409" version="2" timestamp="2010-02-15T05:23:52Z" uid="74617" user="JohnSmith" changeset="3880269">
    <nd ref="271886666"/>
    <nd ref="271898824"/>
    <nd ref="271898825"/>
    <nd ref="271898826"/>
    <nd ref="271898827"/>
    <nd ref="271898828"/>
    <nd ref="271898123"/>
    <tag k="highway" v="unclassified"/>
    <tag k="maxspeed" v="50"/>
  </way>
  <way id="25010409" version="3" timestamp="2011-01-15T09:45:53Z" uid="310765" user="Zamias" changeset="6974895">
    <nd ref="271886666"/>
    <nd ref="271898824"/>
    <nd ref="271898825"/>
    <nd ref="271898826"/>
    <nd ref="271898827"/>
    <nd ref="271898828"/>
    <nd ref="271898123"/>
    <tag k="highway" v="unclassified"/>
    <tag k="maxspeed" v="50"/>
    <tag k="name" v="Deakin Street"/>
  </way>
  <way id="25010409" version="4" timestamp="2012-01-16T19:06:10Z" uid="147510" user="woodpeck_fixbot" changeset="10410676">
    <nd ref="271886666"/>
    <nd ref="271898824"/>
    <nd ref="271898825"/>
    <nd ref="271898826"/>
    <nd ref="271898827"/>
    <nd ref="271898828"/>
    <nd ref="271898123"/>
    <tag k="highway" v="unclassified"/>
    <tag k="name" v="Deakin Street"/>
  </way>
  <way id="25010545" version="6" timestamp="2010-05-04T18:09:33Z" uid="23543" user="jkjk" changeset="4606498">
    <nd ref="268164307"/>
    <nd ref="721197836"/>
    <nd ref="721197837"/>
    <nd ref="721197838"/>
    <tag k="bridge" v="yes"/>
    <tag k="highway" v="motorway"/>
    <tag k="layer" v="1"/>
    <tag k="name" v="绕城高速"/>
    <tag k="name:zh" v="绕城高速"/>
    <tag k="name:zh_pinyin" v="Ràochéng Gāosù"/>
    <tag k="oneway" v="yes"/>
  </way>
  <way id="25010545" version="7" timestamp="2010-07-01T05:17:28Z" uid="304705" user="qazwsxzaqxsw" changeset="5117925">
    <nd ref="268164307"/>
    <nd ref="721197836"/>
    <nd ref="721197837"/>
    <nd ref="721197838"/>
    <tag k="bridge" v="yes"/>
    <tag k="highway" v="motorway"/>
    <tag k="layer" v="1"/>
    <tag k="name" v="绕城高速"/>
    <tag k="name:zh_pinyin" v="Ràochéng Gāosù"/>
    <tag k="oneway" v="yes"/>
  </way>
  <way id="25010562" version="3" timestamp="2010-02-15T05:23:51Z" uid="74617" user="JohnSmith" changeset="3880269">
    <nd ref="271900561"/>
    <nd ref="271900563"/>
    <nd ref="271900565"/>
    <nd ref="271900569"/>
    <nd ref="271900571"/>
    <nd ref="271900573"/>
    <nd ref="271900575"/>
    <nd ref="271900561"/>
    <tag k="landuse" v="industrial"/>
  </way>
  <way id="25010592" version="3" timestamp="2011-01-26T07:50:57Z" uid="4467" user="Rosscoe" changeset="7090925">
    <nd ref="1121208503"/>
    <nd ref="271900070"/>
    <nd ref="271900072"/>
    <nd ref="271900075"/>
    <nd ref="271900091"/>
    <nd ref="271900139"/>
    <nd ref="271900149"/>
    <nd ref="271900151"/>
    <nd ref="271900155"/>
    <nd ref="271900157"/>
    <tag k="highway" v="residential"/>
    <tag k="maxspeed" v="50"/>
    <tag k="name" v="Produce Lane"/>
    <tag k="source" v="survey"/>
    <tag k="source_ref:name" v="http://osm.beldin.org/2008/12/dscf5317.jpg"/>
  </way>
  <way id="25010600" version="3" timestamp="2010-08-29T05:42:12Z" uid="4467" user="Rosscoe" changeset="5622180">
    <nd ref="253295148"/>
    <nd ref="253295200"/>
    <nd ref="253295201"/>
    <nd ref="253295202"/>
    <tag k="highway" v="tertiary"/>
    <tag k="name" v="South Terrace"/>
    <tag k="source" v="nearmap"/>
  </way>
  <way id="25010600" version="4" timestamp="2010-09-20T13:55:09Z" uid="79475" user="AlexOnTheBus" changeset="5829359">
    <nd ref="253295148"/>
    <nd ref="253295200"/>
    <nd ref="253295201"/>
    <nd ref="253295202"/>
    <tag k="highway" v="trunk_link"/>
    <tag k="oneway" v="yes"/>
    <tag k="source" v="nearmap"/>
  </way>
  <way id="25010600" version="5" timestamp="2011-01-26T07:51:53Z" uid="4467" user="Rosscoe" changeset="7090925">
    <nd ref="253295148"/>
    <nd ref="253295200"/>
    <nd ref="253295201"/>
    <nd ref="253295202"/>
    <tag k="highway" v="tertiary"/>
    <tag k="oneway" v="yes"/>
    <tag k="source" v="nearmap"/>
  </way>
  <way id="25010610" version="3" timestamp="2011-03-19T15:29:37Z" uid="4467" user="Rosscoe" changeset="7606154">
    <nd ref="271900429"/>
    <nd ref="271900432"/>
    <nd ref="271900434"/>
    <nd ref="271900436"/>
    <nd ref="271900429"/>
    <tag k="amenity" v="parking"/>
    <tag k="source" v="nearmap"/>
  </way>
  <way id="25010611" version="3" timestamp="2011-01-26T07:51:16Z" uid="4467" user="Rosscoe" changeset="7090925">
    <nd ref="271900438"/>
    <nd ref="1121208285"/>
    <nd ref="271900440"/>
    <nd ref="271900443"/>
    <nd ref="271900445"/>
    <nd ref="271900447"/>
    <nd ref="271900449"/>
    <nd ref="271900438"/>
    <tag k="landuse" v="industrial"/>
    <tag k="source" v="yahoo"/>
  </way>
  <way id="25010661" version="2" timestamp="2010-02-15T05:23:52Z" uid="74617" user="JohnSmith" changeset="3880269">
    <nd ref="271898826"/>
    <nd ref="271901397"/>
    <nd ref="271901398"/>
    <nd ref="271901399"/>
    <nd ref="271901401"/>
    <nd ref="271901403"/>
    <nd ref="271901405"/>
    <nd ref="271901407"/>
    <nd ref="271901409"/>
    <nd ref="271898825"/>
    <tag k="highway" v="unclassified"/>
    <tag k="maxspeed" v="50"/>
  </way>
  <way id="25010661" version="3" timestamp="2011-01-15T09:45:53Z" uid="310765" user="Zamias" changeset="6974895">
    <nd ref="271898826"/>
    <nd ref="271901397"/>
    <nd ref="271901398"/>
    <nd ref="271901399"/>
    <nd ref="271901401"/>
    <nd ref="271901403"/>
    <nd ref="271901405"/>
    <nd ref="271901407"/>
    <nd ref="271901409"/>
    <nd ref="271898825"/>
    <tag k="highway" v="unclassified"/>
    <tag k="maxspeed" v="50"/>
    <tag k="name" v="Kenworth Place"/>
  </way>
  <way id="25010661" version="4" timestamp="2012-01-16T19:06:13Z" uid="147510" user="woodpeck_fixbot" changeset="10410676">
    <nd ref="271898826"/>
    <nd ref="271901397"/>
    <nd ref="271901398"/>
    <nd ref="271901399"/>
    <nd ref="271901401"/>
    <nd ref="271901403"/>
    <nd ref="271901405"/>
    <nd ref="271901407"/>
    <nd ref="271901409"/>
    <nd ref="271898825"/>
    <tag k="highway" v="unclassified"/>
    <tag k="name" v="Kenworth Place"/>
  </way>
  <way id="25010670" version="2" timestamp="2010-02-15T05:23:52Z" uid="74617" user="JohnSmith" changeset="3880269">
    <nd ref="271898122"/>
    <nd ref="271901468"/>
    <nd ref="271901469"/>
    <nd ref="271901470"/>
    <nd ref="271901471"/>
    <nd ref="271901472"/>
    <nd ref="271901473"/>
    <nd ref="271901474"/>
    <nd ref="271901475"/>
    <nd ref="271898827"/>
    <tag k="highway" v="unclassified"/>
    <tag k="maxspeed" v="50"/>
  </way>
  <way id="25010670" version="3" timestamp="2012-01-16T19:06:14Z" uid="147510" user="woodpeck_fixbot" changeset="10410676">
    <nd ref="271898122"/>
    <nd ref="271901468"/>
    <nd ref="271901469"/>
    <nd ref="271901470"/>
    <nd ref="271901471"/>
    <nd ref="271901472"/>
    <nd ref="271901473"/>
    <nd ref="271901474"/>
    <nd ref="271901475"/>
    <nd ref="271898827"/>
    <tag k="highway" v="unclassified"/>
  </way>
  <way id="25010749" version="3" timestamp="2010-02-15T05:23:51Z" uid="74617" user="JohnSmith" changeset="3880269">
    <nd ref="271901885"/>
    <nd ref="271901886"/>
    <nd ref="271901887"/>
    <nd ref="271901889"/>
    <nd ref="271901890"/>
    <nd ref="271901891"/>
    <nd ref="271901892"/>
    <nd ref="271901894"/>
    <nd ref="271901895"/>
    <nd ref="271901898"/>
    <nd ref="271901899"/>
    <nd ref="271901900"/>
    <nd ref="271901901"/>
    <nd ref="271901885"/>
    <tag k="landuse" v="industrial"/>
  </way>
  <way id="25010807" version="3" timestamp="2010-02-15T05:23:51Z" uid="74617" user="JohnSmith" changeset="3880269">
    <nd ref="271902452"/>
    <nd ref="271902453"/>
    <nd ref="271902454"/>
    <nd ref="271902455"/>
    <nd ref="271902456"/>
    <nd ref="271902457"/>
    <nd ref="271902458"/>
    <nd ref="271902459"/>
    <nd ref="271902460"/>
    <nd ref="271902461"/>
    <nd ref="271902462"/>
    <nd ref="271902463"/>
    <nd ref="271902464"/>
    <nd ref="271902465"/>
    <nd ref="271902452"/>
    <tag k="landuse" v="industrial"/>
  </way>
  <way id="25010818" version="2" timestamp="2010-02-15T05:23:50Z" uid="74617" user="JohnSmith" changeset="3880269">
    <nd ref="271898121"/>
    <nd ref="271902616"/>
    <nd ref="271902617"/>
    <nd ref="271902618"/>
    <nd ref="271902619"/>
    <nd ref="271902620"/>
    <nd ref="271887720"/>
    <tag k="highway" v="unclassified"/>
    <tag k="maxspeed" v="50"/>
  </way>
  <way id="25010818" version="3" timestamp="2011-01-15T09:45:53Z" uid="310765" user="Zamias" changeset="6974895">
    <nd ref="271898121"/>
    <nd ref="271902616"/>
    <nd ref="271902617"/>
    <nd ref="271902618"/>
    <nd ref="271902619"/>
    <nd ref="271902620"/>
    <nd ref="271887720"/>
    <tag k="highway" v="unclassified"/>
    <tag k="maxspeed" v="50"/>
    <tag k="name" v="Moonbi Street"/>
  </way>
  <way id="25010818" version="4" timestamp="2012-01-16T19:06:16Z" uid="147510" user="woodpeck_fixbot" changeset="10410676">
    <nd ref="271898121"/>
    <nd ref="271902616"/>
    <nd ref="271902617"/>
    <nd ref="271902618"/>
    <nd ref="271902619"/>
    <nd ref="271902620"/>
    <nd ref="271887720"/>
    <tag k="highway" v="unclassified"/>
    <tag k="name" v="Moonbi Street"/>
  </way>
  <way id="25010846" version="4" timestamp="2010-02-15T05:23:51Z" uid="74617" user="JohnSmith" changeset="3880269">
    <nd ref="271903187"/>
    <nd ref="271903190"/>
    <nd ref="271903192"/>
    <nd ref="271903193"/>
    <nd ref="271903187"/>
    <tag k="landuse" v="industrial"/>
  </way>
  <way id="25010866" version="7" timestamp="2008-08-22T20:57:57Z" uid="33382" user="de_muur" changeset="369784">
    <nd ref="271903427"/>
    <nd ref="271903428"/>
    <nd ref="271903429"/>
    <nd ref="271903430"/>
    <nd ref="271903431"/>
    <nd ref="271903433"/>
    <nd ref="271903434"/>
    <nd ref="271903435"/>
    <nd ref="271903436"/>
    <nd ref="271903437"/>
    <nd ref="271903438"/>
    <nd ref="271903439"/>
    <nd ref="271903441"/>
    <nd ref="271903442"/>
    <nd ref="271903443"/>
    <nd ref="271903444"/>
    <nd ref="272662834"/>
    <tag k="created_by" v="Potlatch 0.10b"/>
    <tag k="highway" v="residential"/>
    <tag k="maxspeed" v="30"/>
    <tag k="name" v="Freiweide"/>
    <tag k="postal_code" v="21039"/>
  </way>
  <way id="25010866" version="8" timestamp="2008-10-28T10:26:20Z" uid="27600" user="Islanit" changeset="607467">
    <nd ref="308204913"/>
    <nd ref="271903428"/>
    <nd ref="271903429"/>
    <nd ref="271903430"/>
    <nd ref="271903431"/>
    <nd ref="271903433"/>
    <nd ref="271903434"/>
    <nd ref="271903435"/>
    <nd ref="271903436"/>
    <nd ref="271903437"/>
    <nd ref="271903438"/>
    <nd ref="271903439"/>
    <nd ref="271903441"/>
    <nd ref="271903442"/>
    <nd ref="271903443"/>
    <nd ref="271903444"/>
    <nd ref="272662834"/>
    <tag k="created_by" v="Potlatch 0.10e"/>
    <tag k="highway" v="residential"/>
    <tag k="maxspeed" v="30"/>
    <tag k="name" v="Freiweide"/>
    <tag k="postal_code" v="21039"/>
  </way>
  <way id="25010866" version="9" timestamp="2012-03-20T17:20:29Z" uid="349191" user="Glühwürmchen" changeset="11042757"/>
  <way id="25010890" version="7" timestamp="2008-08-22T20:57:59Z" uid="33382" user="de_muur" changeset="369784">
    <nd ref="271903443"/>
    <nd ref="267090982"/>
    <nd ref="271903494"/>
    <nd ref="271903495"/>
    <nd ref="271903805"/>
    <nd ref="271903806"/>
    <nd ref="271903807"/>
    <nd ref="271903808"/>
    <tag k="created_by" v="Potlatch 0.10b"/>
    <tag k="highway" v="residential"/>
    <tag k="maxspeed" v="30"/>
    <tag k="name" v="Krogbuschweg"/>
    <tag k="postal_code" v="21039"/>
  </way>
  <way id="25010890" version="8" timestamp="2012-03-20T17:20:30Z" uid="349191" user="Glühwürmchen" changeset="11042757"/>
  <way id="25010915" version="4" timestamp="2008-09-22T12:51:08Z" uid="30632" user="antblant" changeset="680284">
    <nd ref="29736410"/>
    <nd ref="28115029"/>
    <nd ref="28115028"/>
    <nd ref="28115027"/>
    <nd ref="28115025"/>
    <nd ref="28115024"/>
    <nd ref="29363963"/>
    <nd ref="28115023"/>
    <nd ref="28115018"/>
    <nd ref="28115008"/>
    <nd ref="28115006"/>
    <nd ref="28114975"/>
    <nd ref="28114964"/>
    <nd ref="28114963"/>
    <nd ref="29340906"/>
    <tag k="created_by" v="Potlatch 0.10b"/>
    <tag k="highway" v="motorway"/>
    <tag k="lanes" v="2"/>
    <tag k="oneway" v="yes"/>
    <tag k="ref" v="A 11"/>
  </way>
  <way id="25010915" version="5" timestamp="2008-11-03T21:24:39Z" uid="31911" user="Mathias Klein" changeset="669092">
    <nd ref="29736410"/>
    <nd ref="28115029"/>
    <nd ref="28115028"/>
    <nd ref="28115027"/>
    <nd ref="28115025"/>
    <nd ref="28115024"/>
    <nd ref="29363963"/>
    <nd ref="28115023"/>
    <nd ref="28115018"/>
    <nd ref="28115008"/>
    <nd ref="28115006"/>
    <nd ref="28114975"/>
    <nd ref="309751955"/>
    <nd ref="28114964"/>
    <nd ref="28114963"/>
    <nd ref="29340906"/>
    <tag k="created_by" v="Potlatch 0.10b"/>
    <tag k="highway" v="motorway"/>
    <tag k="lanes" v="2"/>
    <tag k="oneway" v="yes"/>
    <tag k="ref" v="A 11"/>
  </way>
  <way id="25010915" version="6" timestamp="2008-11-24T09:52:25Z" uid="42123" user="Ropino" changeset="786602">
    <nd ref="29736410"/>
    <nd ref="28115029"/>
    <nd ref="28115028"/>
    <nd ref="28115027"/>
    <nd ref="28115025"/>
    <nd ref="28115024"/>
    <nd ref="29363963"/>
    <nd ref="28115023"/>
    <nd ref="28115018"/>
    <nd ref="28115008"/>
    <nd ref="28115006"/>
    <nd ref="28114975"/>
    <nd ref="309751955"/>
    <nd ref="28114964"/>
    <nd ref="314186961"/>
    <tag k="created_by" v="Potlatch 0.10b"/>
    <tag k="highway" v="motorway"/>
    <tag k="lanes" v="2"/>
    <tag k="oneway" v="yes"/>
    <tag k="ref" v="A 11"/>
  </way>
  <way id="25010915" version="7" timestamp="2008-12-17T18:56:16Z" uid="32860" user="schulzibabe" changeset="440517">
    <nd ref="29736410"/>
    <nd ref="28115029"/>
    <nd ref="28115028"/>
    <nd ref="28115027"/>
    <nd ref="319567340"/>
    <nd ref="319567348"/>
    <nd ref="28115025"/>
    <nd ref="28115024"/>
    <nd ref="29363963"/>
    <nd ref="28115023"/>
    <nd ref="28115018"/>
    <nd ref="28115008"/>
    <nd ref="28115006"/>
    <nd ref="28114975"/>
    <nd ref="309751955"/>
    <nd ref="28114964"/>
    <nd ref="314186961"/>
    <tag k="created_by" v="Potlatch 0.10b"/>
    <tag k="highway" v="motorway"/>
    <tag k="lanes" v="2"/>
    <tag k="oneway" v="yes"/>
    <tag k="ref" v="A 11"/>
  </way>
  <way id="25010915" version="8" timestamp="2009-02-16T21:57:32Z" uid="9176" user="Maarten Deen" changeset="486420">
    <nd ref="29736410"/>
    <nd ref="28115029"/>
    <nd ref="28115028"/>
    <nd ref="28115027"/>
    <nd ref="319567340"/>
    <nd ref="319567348"/>
    <nd ref="28115025"/>
    <nd ref="28115024"/>
    <nd ref="29363963"/>
    <nd ref="28115023"/>
    <nd ref="28115018"/>
    <nd ref="28115008"/>
    <nd ref="28115006"/>
    <nd ref="28114975"/>
    <nd ref="309751955"/>
    <nd ref="28114964"/>
    <nd ref="314186961"/>
    <tag k="created_by" v="Potlatch 0.10b"/>
    <tag k="highway" v="motorway"/>
    <tag k="int_ref" v="E 28"/>
    <tag k="lanes" v="2"/>
    <tag k="oneway" v="yes"/>
    <tag k="ref" v="A 11"/>
  </way>
  <way id="25010915" version="9" timestamp="2009-04-02T21:11:20Z" uid="31911" user="Mathias Klein" changeset="136790">
    <nd ref="29736410"/>
    <nd ref="28115029"/>
    <nd ref="28115028"/>
    <nd ref="28115027"/>
    <nd ref="319567348"/>
    <nd ref="28115025"/>
    <nd ref="28115024"/>
    <nd ref="29363963"/>
    <nd ref="28115023"/>
    <nd ref="28115018"/>
    <nd ref="28115008"/>
    <nd ref="369067350"/>
    <nd ref="28115006"/>
    <nd ref="28114975"/>
    <nd ref="309751955"/>
    <nd ref="28114964"/>
    <nd ref="314186961"/>
    <tag k="created_by" v="Potlatch 0.10b"/>
    <tag k="highway" v="motorway"/>
    <tag k="int_ref" v="E 28"/>
    <tag k="lanes" v="2"/>
    <tag k="oneway" v="yes"/>
    <tag k="ref" v="A 11"/>
  </way>
  <way id="25010915" version="10" timestamp="2009-06-08T13:10:21Z" uid="42123" user="Ropino" changeset="1458649">
    <nd ref="29736410"/>
    <nd ref="28115029"/>
    <nd ref="28115028"/>
    <nd ref="28115027"/>
    <nd ref="319567348"/>
    <nd ref="28115025"/>
    <nd ref="28115024"/>
    <nd ref="29363963"/>
    <nd ref="28115023"/>
    <nd ref="28115018"/>
    <nd ref="417395596"/>
    <nd ref="28115008"/>
    <nd ref="369067350"/>
    <nd ref="28115006"/>
    <nd ref="28114975"/>
    <nd ref="309751955"/>
    <nd ref="28114964"/>
    <nd ref="314186961"/>
    <tag k="created_by" v="Potlatch 0.10b"/>
    <tag k="highway" v="motorway"/>
    <tag k="int_ref" v="E 28"/>
    <tag k="lanes" v="2"/>
    <tag k="oneway" v="yes"/>
    <tag k="ref" v="A 11"/>
  </way>
  <way id="25010915" version="11" timestamp="2009-06-08T13:12:33Z" uid="42123" user="Ropino" changeset="1458670">
    <nd ref="29736410"/>
    <nd ref="28115029"/>
    <nd ref="28115028"/>
    <nd ref="28115027"/>
    <nd ref="319567348"/>
    <nd ref="28115025"/>
    <nd ref="28115024"/>
    <nd ref="29363963"/>
    <nd ref="28115023"/>
    <nd ref="28115018"/>
    <nd ref="417395596"/>
    <nd ref="28115008"/>
    <nd ref="369067350"/>
    <nd ref="28115006"/>
    <nd ref="417396271"/>
    <nd ref="28114975"/>
    <nd ref="309751955"/>
    <nd ref="28114964"/>
    <nd ref="314186961"/>
    <tag k="created_by" v="Potlatch 0.10b"/>
    <tag k="highway" v="motorway"/>
    <tag k="int_ref" v="E 28"/>
    <tag k="lanes" v="2"/>
    <tag k="oneway" v="yes"/>
    <tag k="ref" v="A 11"/>
  </way>
  <way id="25010915" version="12" timestamp="2009-06-16T09:47:26Z" uid="58950" user="mfi" changeset="1533459">
    <nd ref="29736410"/>
    <nd ref="28115029"/>
    <nd ref="28115028"/>
    <nd ref="28115027"/>
    <nd ref="421420125"/>
    <nd ref="319567348"/>
    <nd ref="28115025"/>
    <nd ref="28115024"/>
    <nd ref="29363963"/>
    <nd ref="28115023"/>
    <nd ref="28115018"/>
    <nd ref="417395596"/>
    <nd ref="28115008"/>
    <nd ref="369067350"/>
    <nd ref="28115006"/>
    <nd ref="417396271"/>
    <nd ref="28114975"/>
    <nd ref="309751955"/>
    <nd ref="28114964"/>
    <nd ref="314186961"/>
    <tag k="created_by" v="Potlatch 0.10b"/>
    <tag k="highway" v="motorway"/>
    <tag k="int_ref" v="E 28"/>
    <tag k="lanes" v="2"/>
    <tag k="oneway" v="yes"/>
    <tag k="ref" v="A 11"/>
  </way>
  <way id="25010915" version="13" timestamp="2009-08-23T16:10:26Z" uid="43566" user="anbr" changeset="2231810">
    <nd ref="29736410"/>
    <nd ref="28115029"/>
    <nd ref="28115028"/>
    <nd ref="28115027"/>
    <nd ref="421420125"/>
    <nd ref="319567348"/>
    <nd ref="28115025"/>
    <nd ref="28115024"/>
    <nd ref="29363963"/>
    <nd ref="28115023"/>
    <nd ref="28115018"/>
    <nd ref="417395596"/>
    <nd ref="28115008"/>
    <nd ref="369067350"/>
    <nd ref="28115006"/>
    <nd ref="417396271"/>
    <nd ref="28114975"/>
    <nd ref="309751955"/>
    <nd ref="28114964"/>
    <nd ref="314186961"/>
    <tag k="highway" v="motorway"/>
    <tag k="int_ref" v="E 28"/>
    <tag k="lanes" v="2"/>
    <tag k="oneway" v="yes"/>
    <tag k="ref" v="A 11"/>
  </way>
  <way id="25010915" version="14" timestamp="2010-06-06T23:05:55Z" uid="67020" user="Nibbler" changeset="4923871"/>
  <way id="25010922" version="8" timestamp="2010-04-09T20:58:46Z" uid="9581" user="Lobelt" changeset="4377499">
    <nd ref="690916042"/>
    <nd ref="271903889"/>
    <tag k="highway" v="residential"/>
    <tag k="name" v="An der Eich"/>
  </way>
  <way id="25010925" version="6" timestamp="2008-08-22T20:58:01Z" uid="33382" user="de_muur" changeset="369784">
    <nd ref="271903808"/>
    <nd ref="271903987"/>
    <nd ref="272662834"/>
    <tag k="created_by" v="Potlatch 0.10b"/>
    <tag k="highway" v="residential"/>
    <tag k="maxspeed" v="30"/>
    <tag k="name" v="Waldweg"/>
    <tag k="postal_code" v="21039"/>
  </way>
  <way id="25010925" version="7" timestamp="2012-03-20T17:20:30Z" uid="349191" user="Glühwürmchen" changeset="11042757"/>
  <way id="25010942" version="2" timestamp="2008-07-08T01:13:51Z" uid="6975" user="ulfl" changeset="429882">
    <nd ref="271904243"/>
    <nd ref="271904250"/>
    <nd ref="271904253"/>
    <nd ref="271901371"/>
    <nd ref="271904255"/>
    <nd ref="271904258"/>
    <nd ref="271904260"/>
    <nd ref="271904243"/>
    <tag k="area" v="yes"/>
    <tag k="leisure" v="pitch"/>
  </way>
  <way id="25010942" version="3" timestamp="2010-12-14T20:37:28Z" uid="42105" user="Midon" changeset="6662256">
    <nd ref="271904243"/>
    <nd ref="271904250"/>
    <nd ref="271904253"/>
    <nd ref="271904258"/>
    <nd ref="271904260"/>
    <nd ref="271904243"/>
    <tag k="area" v="yes"/>
    <tag k="leisure" v="pitch"/>
  </way>
  <way id="25010942" version="4" timestamp="2010-12-15T20:12:50Z" uid="42105" user="Midon" changeset="6671078">
    <nd ref="271904243"/>
    <nd ref="271904250"/>
    <nd ref="271904253"/>
    <nd ref="271904260"/>
    <nd ref="271904243"/>
    <tag k="area" v="yes"/>
    <tag k="leisure" v="pitch"/>
  </way>
  <way id="25010970" version="2" timestamp="2009-08-03T21:53:17Z" uid="4467" user="Rosscoe" changeset="2030728">
    <nd ref="32847498"/>
    <nd ref="271904444"/>
    <nd ref="271904446"/>
    <nd ref="271904448"/>
    <nd ref="12025587"/>
    <tag k="highway" v="motorway_link"/>
    <tag k="oneway" v="yes"/>
  </way>
  <way id="25010970" version="3" timestamp="2009-12-07T13:57:23Z" uid="30201" user="rrankin" changeset="3316082"/>
  <way id="25010982" version="6" timestamp="2008-10-28T10:26:52Z" uid="27600" user="Islanit" changeset="607467">
    <nd ref="271904579"/>
    <nd ref="308204951"/>
    <nd ref="271904580"/>
    <nd ref="283030990"/>
    <nd ref="271904581"/>
    <tag k="created_by" v="Potlatch 0.10e"/>
    <tag k="highway" v="residential"/>
    <tag k="maxspeed" v="30"/>
    <tag k="name" v="Birkenweg"/>
    <tag k="postal_code" v="21039"/>
  </way>
  <way id="25010982" version="7" timestamp="2008-11-02T09:37:18Z" uid="45901" user="jorkh" changeset="660897">
    <nd ref="271904579"/>
    <nd ref="308204951"/>
    <nd ref="271904580"/>
    <nd ref="309335910"/>
    <nd ref="283030990"/>
    <nd ref="271904581"/>
    <tag k="created_by" v="Potlatch 0.10f"/>
    <tag k="highway" v="residential"/>
    <tag k="maxspeed" v="30"/>
    <tag k="name" v="Birkenweg"/>
    <tag k="postal_code" v="21039"/>
  </way>
  <way id="25010982" version="8" timestamp="2009-05-04T08:07:19Z" uid="27600" user="Islanit" changeset="1071617">
    <nd ref="390237915"/>
    <nd ref="308204951"/>
    <nd ref="271904580"/>
    <nd ref="309335910"/>
    <nd ref="283030990"/>
    <nd ref="271904581"/>
    <tag k="created_by" v="Potlatch 0.10f"/>
    <tag k="highway" v="residential"/>
    <tag k="maxspeed" v="30"/>
    <tag k="name" v="Birkenweg"/>
    <tag k="postal_code" v="21039"/>
  </way>
  <way id="25010982" version="9" timestamp="2009-12-01T17:16:38Z" uid="33382" user="de_muur" changeset="3265698">
    <nd ref="390237915"/>
    <nd ref="577281254"/>
    <nd ref="308204951"/>
    <nd ref="271904580"/>
    <nd ref="309335910"/>
    <nd ref="283030990"/>
    <nd ref="271904581"/>
    <tag k="highway" v="residential"/>
    <tag k="maxspeed" v="30"/>
    <tag k="name" v="Birkenweg"/>
    <tag k="postal_code" v="21039"/>
  </way>
  <way id="25010982" version="10" timestamp="2012-03-28T17:24:21Z" uid="349191" user="Glühwürmchen" changeset="11128477"/>
  <way id="25010032" version="5" timestamp="2012-08-22T22:28:27Z" uid="206339" user="chas66" changeset="12826789">
    <nd ref="271894042"/>
    <nd ref="271894426"/>
    <nd ref="271894427"/>
    <nd ref="271894428"/>
    <nd ref="271894429"/>
    <nd ref="271894430"/>
    <nd ref="271894431"/>
    <tag k="highway" v="unclassified"/>
    <tag k="name" v="Leitchs Road"/>
  </way>
  <way id="25010065" version="8" timestamp="2012-07-19T19:19:17Z" uid="722137" user="OSMF Redaction Account" changeset="12344687">
    <nd ref="271893663"/>
    <nd ref="271894812"/>
    <nd ref="271894431"/>
    <tag k="highway" v="unclassified"/>
    <tag k="name" v="Cribb Road"/>
  </way>
  <way id="25010065" version="9" timestamp="2012-08-22T22:28:46Z" uid="206339" user="chas66" changeset="12826789"/>
  <way id="25010088" version="8" timestamp="2012-07-19T09:19:07Z" uid="341519" user="lcmortensen" changeset="12315759">
    <nd ref="589672671"/>
    <nd ref="87730437"/>
    <nd ref="87730395"/>
    <nd ref="273108142"/>
    <nd ref="271893256"/>
    <nd ref="271892843"/>
    <nd ref="271892808"/>
    <nd ref="271892287"/>
    <nd ref="271892280"/>
    <nd ref="271891698"/>
    <nd ref="271890657"/>
    <nd ref="589672707"/>
    <nd ref="271890438"/>
    <nd ref="271890274"/>
    <nd ref="271890075"/>
    <nd ref="271889974"/>
    <nd ref="271889709"/>
    <nd ref="271895422"/>
    <nd ref="271895423"/>
    <nd ref="587491987"/>
    <tag k="cables" v="6"/>
    <tag k="power" v="line"/>
    <tag k="voltage" v="110000"/>
  </way>
  <way id="25010122" version="6" timestamp="2012-07-19T12:34:20Z" uid="722137" user="OSMF Redaction Account" changeset="12325461">
    <nd ref="271895462"/>
    <nd ref="271895504"/>
    <tag k="highway" v="residential"/>
    <tag k="name" v="Cochrane Avenue"/>
  </way>
  <way id="25010124" version="6" timestamp="2012-07-19T12:34:21Z" uid="722137" user="OSMF Redaction Account" changeset="12325461">
    <nd ref="271895507"/>
    <nd ref="271895515"/>
    <tag k="highway" v="residential"/>
    <tag k="name" v="Read Street"/>
  </way>
  <way id="25010129" version="6" timestamp="2012-07-19T12:34:22Z" uid="722137" user="OSMF Redaction Account" changeset="12325461">
    <nd ref="271895518"/>
    <nd ref="271895553"/>
    <nd ref="271895554"/>
    <nd ref="271895555"/>
    <nd ref="271895556"/>
    <tag k="highway" v="residential"/>
    <tag k="name" v="Wallis Avenue"/>
  </way>
  <way id="25010130" version="24" timestamp="2012-07-20T11:53:42Z" uid="722137" user="OSMF Redaction Account" changeset="12374348">
    <nd ref="667228973"/>
    <nd ref="963537924"/>
    <nd ref="963867555"/>
    <nd ref="667228967"/>
    <nd ref="667228968"/>
    <nd ref="271895572"/>
    <nd ref="1400255257"/>
    <nd ref="1400255266"/>
    <nd ref="1400255273"/>
    <nd ref="271895571"/>
    <nd ref="963866929"/>
    <nd ref="1400255292"/>
    <nd ref="1400255378"/>
    <nd ref="271895574"/>
    <nd ref="1400255415"/>
    <nd ref="1400255400"/>
    <nd ref="1400255374"/>
    <nd ref="271895573"/>
    <nd ref="667228948"/>
    <nd ref="667228950"/>
    <nd ref="667228949"/>
    <nd ref="963868393"/>
    <nd ref="963868933"/>
    <nd ref="963538242"/>
    <nd ref="963538080"/>
    <nd ref="667228971"/>
    <nd ref="667228972"/>
    <nd ref="667228976"/>
    <nd ref="667228975"/>
    <nd ref="1421150526"/>
    <nd ref="667228974"/>
    <nd ref="667228973"/>
    <tag k="addr2:housenumber" v="2"/>
    <tag k="addr2:street" v="Никольская улица"/>
    <tag k="addr:housenumber" v="3"/>
    <tag k="addr:street" v="Красная площадь"/>
    <tag k="building" v="yes"/>
    <tag k="building:levels" v="3"/>
    <tag k="cladr:code" v="77000000000702700"/>
    <tag k="int_name" v="GUM"/>
    <tag k="name" v="Главный универсальный магазин (ГУМ)"/>
    <tag k="name:de" v="GUM"/>
    <tag k="official_name" v="ОАО «Торговый Дом ГУМ»"/>
    <tag k="old_name" v="Верхние торговые ряды"/>
    <tag k="opening_hours" v="Mo-Su 10:00-22:00"/>
    <tag k="shop" v="mall"/>
    <tag k="tourism" v="attraction"/>
    <tag k="website" v="http://www.gum.ru/"/>
    <tag k="wikipedia" v="ru:Главный универсальный магазин"/>
  </way>
  <way id="25010131" version="7" timestamp="2012-07-19T12:34:22Z" uid="722137" user="OSMF Redaction Account" changeset="12325461">
    <nd ref="271895554"/>
    <nd ref="271895584"/>
    <nd ref="271895608"/>
    <nd ref="271895585"/>
    <nd ref="271895586"/>
    <tag k="highway" v="residential"/>
    <tag k="name" v="Kantara Parade"/>
  </way>
  <way id="25010132" version="4" timestamp="2012-07-19T19:22:40Z" uid="722137" user="OSMF Redaction Account" changeset="12344822"/>
  <way id="25010134" version="6" timestamp="2012-07-19T12:34:21Z" uid="722137" user="OSMF Redaction Account" changeset="12325461">
    <nd ref="271895592"/>
    <nd ref="271895608"/>
    <tag k="highway" v="residential"/>
    <tag k="name" v="Lakeview Street"/>
  </way>
  <way id="25010137" version="6" timestamp="2012-07-19T12:34:21Z" uid="722137" user="OSMF Redaction Account" changeset="12325461">
    <nd ref="271895626"/>
    <nd ref="271895655"/>
    <nd ref="271895656"/>
    <nd ref="271895657"/>
    <tag k="highway" v="residential"/>
    <tag k="name" v="Banksia Avenue"/>
  </way>
  <way id="25010152" version="6" timestamp="2012-07-19T12:34:20Z" uid="722137" user="OSMF Redaction Account" changeset="12325461">
    <nd ref="271895731"/>
    <nd ref="271895768"/>
    <tag k="highway" v="residential"/>
    <tag k="name" v="Montgomery Avenue"/>
  </way>
  <way id="25010180" version="5" timestamp="2012-07-21T22:03:12Z" uid="722137" user="OSMF Redaction Account" changeset="12421293"/>
  <way id="25010181" version="7" timestamp="2012-07-21T22:02:27Z" uid="722137" user="OSMF Redaction Account" changeset="12421279">
    <nd ref="271896255"/>
    <nd ref="683841317"/>
    <nd ref="683841318"/>
    <nd ref="271896275"/>
    <nd ref="309647257"/>
    <tag k="highway" v="residential"/>
    <tag k="name" v="Ebenezer Wharf Road"/>
    <tag k="source" v="yahoo"/>
  </way>
  <way id="25010181" version="8" timestamp="2012-07-21T23:51:51Z" uid="722137" user="OSMF Redaction Account" changeset="12422826"/>
  <way id="25010182" version="5" timestamp="2012-07-21T22:02:27Z" uid="722137" user="OSMF Redaction Account" changeset="12421279">
    <nd ref="309647261"/>
    <nd ref="309647262"/>
    <nd ref="309647264"/>
    <nd ref="309647265"/>
  </way>
  <way id="25010182" version="6" timestamp="2012-07-26T20:12:36Z" uid="638096" user="PeterPablo" changeset="12503663">
    <nd ref="1839119433"/>
    <nd ref="271896367"/>
    <nd ref="1839119436"/>
    <nd ref="309647261"/>
    <nd ref="309647262"/>
    <nd ref="309647264"/>
    <nd ref="309647265"/>
    <nd ref="271896369"/>
    <nd ref="309647266"/>
    <nd ref="309647267"/>
    <nd ref="309647268"/>
    <nd ref="309647269"/>
    <nd ref="309647273"/>
    <nd ref="309647281"/>
    <nd ref="309647282"/>
    <nd ref="309647283"/>
    <nd ref="309647284"/>
    <nd ref="309647285"/>
    <nd ref="309647286"/>
    <nd ref="309647287"/>
    <nd ref="309647288"/>
    <nd ref="309647289"/>
    <nd ref="309647260"/>
    <tag k="highway" v="footway"/>
    <tag k="source" v="survey"/>
    <tag k="surface" v="unpaved"/>
  </way>
  <way id="25010183" version="4" timestamp="2012-07-21T23:51:32Z" uid="722137" user="OSMF Redaction Account" changeset="12422826"/>
  <way id="25010185" version="4" timestamp="2012-07-22T00:05:11Z" uid="722137" user="OSMF Redaction Account" changeset="12422989"/>
  <way id="25010187" version="5" timestamp="2012-07-22T00:05:11Z" uid="722137" user="OSMF Redaction Account" changeset="12422989"/>
  <way id="25010188" version="6" timestamp="2012-07-22T00:04:17Z" uid="722137" user="OSMF Redaction Account" changeset="12422980">
    <nd ref="1391540852"/>
    <nd ref="1391540854"/>
  </way>
  <way id="25010188" version="7" timestamp="2012-07-25T22:01:22Z" uid="638096" user="PeterPablo" changeset="12492799"/>
  <way id="25010189" version="8" timestamp="2012-07-22T00:05:01Z" uid="722137" user="OSMF Redaction Account" changeset="12422989"/>
  <way id="25010190" version="8" timestamp="2012-07-22T00:05:09Z" uid="722137" user="OSMF Redaction Account" changeset="12422989"/>
  <way id="25010333" version="7" timestamp="2012-07-11T08:44:05Z" uid="429794" user="SennaHB" changeset="12183183">
    <nd ref="271892451"/>
    <nd ref="1821187048"/>
    <nd ref="1821187049"/>
    <nd ref="271898034"/>
    <nd ref="598973488"/>
    <nd ref="1821187051"/>
    <nd ref="1821187052"/>
    <nd ref="276348209"/>
    <tag k="bicycle" v="no"/>
    <tag k="highway" v="motorway"/>
    <tag k="horse" v="no"/>
    <tag k="lanes" v="3"/>
    <tag k="maxspeed" v="130"/>
    <tag k="oneway" v="true"/>
    <tag k="ref" v="A1"/>
  </way>
  <way id="25010333" version="8" timestamp="2012-07-20T08:51:25Z" uid="681295" user="przemas75" changeset="12368991">
    <nd ref="271892451"/>
    <nd ref="1821187048"/>
    <nd ref="1821187049"/>
    <nd ref="271898034"/>
    <nd ref="598973488"/>
    <nd ref="1821187051"/>
    <nd ref="1821187052"/>
    <nd ref="276348209"/>
    <tag k="bicycle" v="no"/>
    <tag k="highway" v="motorway"/>
    <tag k="horse" v="no"/>
    <tag k="lanes" v="3"/>
    <tag k="maxspeed" v="130"/>
    <tag k="odbl" v="clean"/>
    <tag k="oneway" v="true"/>
    <tag k="ref" v="A1"/>
  </way>
  <way id="25010333" version="9" timestamp="2012-08-17T14:30:28Z" uid="681295" user="przemas75" changeset="12763221">
    <nd ref="271892451"/>
    <nd ref="1821187048"/>
    <nd ref="1821187049"/>
    <nd ref="271898034"/>
    <nd ref="598973488"/>
    <nd ref="1821187051"/>
    <nd ref="1821187052"/>
    <nd ref="276348209"/>
    <tag k="bicycle" v="no"/>
    <tag k="highway" v="motorway"/>
    <tag k="horse" v="no"/>
    <tag k="lanes" v="3"/>
    <tag k="maxspeed" v="130"/>
    <tag k="odbl" v="clean"/>
    <tag k="oneway" v="true"/>
    <tag k="osmonitor:road_components" v="2"/>
    <tag k="ref" v="A1"/>
  </way>
  <way id="25010333" version="10" timestamp="2012-08-17T14:40:42Z" uid="681295" user="przemas75" changeset="12763335">
    <nd ref="271892451"/>
    <nd ref="1821187048"/>
    <nd ref="1821187049"/>
    <nd ref="271898034"/>
    <nd ref="598973488"/>
    <nd ref="1821187051"/>
    <nd ref="1821187052"/>
    <nd ref="276348209"/>
    <tag k="bicycle" v="no"/>
    <tag k="highway" v="motorway"/>
    <tag k="horse" v="no"/>
    <tag k="lanes" v="3"/>
    <tag k="maxspeed" v="130"/>
    <tag k="odbl" v="clean"/>
    <tag k="oneway" v="true"/>
    <tag k="ref" v="A1"/>
  </way>
  <way id="25010334" version="15" timestamp="2012-06-17T21:01:26Z" uid="88909" user="miko101" changeset="11930679">
    <nd ref="271898039"/>
    <nd ref="271898040"/>
    <nd ref="286134910"/>
    <nd ref="286240832"/>
    <nd ref="286134913"/>
    <nd ref="286134918"/>
    <nd ref="1098314601"/>
    <nd ref="1460897125"/>
    <nd ref="1098314604"/>
    <nd ref="1460897126"/>
    <nd ref="1098315149"/>
    <nd ref="1098315152"/>
    <nd ref="286142118"/>
    <tag k="bicycle" v="no"/>
    <tag k="highway" v="motorway"/>
    <tag k="horse" v="no"/>
    <tag k="lanes" v="3"/>
    <tag k="maxspeed" v="140"/>
    <tag k="oneway" v="true"/>
    <tag k="ref" v="A1"/>
  </way>
  <way id="25010334" version="16" timestamp="2012-06-17T22:24:04Z" uid="278187" user="dzamper" changeset="11931447">
    <nd ref="271898039"/>
    <nd ref="271898040"/>
    <nd ref="286134910"/>
    <nd ref="286240832"/>
    <nd ref="286134913"/>
    <nd ref="286134918"/>
    <nd ref="1098314601"/>
    <nd ref="1460897125"/>
    <nd ref="1098314604"/>
    <nd ref="1460897126"/>
    <nd ref="1792501043"/>
    <nd ref="1098315149"/>
    <nd ref="1792501076"/>
    <nd ref="1098315152"/>
    <nd ref="1792501083"/>
    <nd ref="286142118"/>
    <tag k="bicycle" v="no"/>
    <tag k="highway" v="motorway"/>
    <tag k="horse" v="no"/>
    <tag k="lanes" v="3"/>
    <tag k="maxspeed" v="140"/>
    <tag k="oneway" v="true"/>
    <tag k="ref" v="A1"/>
  </way>
  <way id="25010334" version="17" timestamp="2012-07-04T09:04:30Z" uid="429794" user="SennaHB" changeset="12108058">
    <nd ref="271898039"/>
    <nd ref="271898040"/>
    <nd ref="286134910"/>
    <nd ref="286240832"/>
    <nd ref="286134913"/>
    <nd ref="286134918"/>
    <nd ref="1098314601"/>
    <nd ref="1460897125"/>
    <nd ref="1812257023"/>
    <nd ref="1098314604"/>
    <nd ref="1460897126"/>
    <nd ref="1792501043"/>
    <nd ref="1098315149"/>
    <nd ref="1792501076"/>
    <nd ref="1098315152"/>
    <nd ref="1792501083"/>
    <nd ref="286142118"/>
    <tag k="bicycle" v="no"/>
    <tag k="highway" v="motorway"/>
    <tag k="horse" v="no"/>
    <tag k="lanes" v="3"/>
    <tag k="maxspeed" v="140"/>
    <tag k="oneway" v="true"/>
    <tag k="ref" v="A1"/>
  </way>
  <way id="25010334" version="18" timestamp="2012-07-20T08:49:42Z" uid="681295" user="przemas75" changeset="12368991">
    <nd ref="271898039"/>
    <nd ref="271898040"/>
    <nd ref="286134910"/>
    <nd ref="286240832"/>
    <nd ref="286134913"/>
    <nd ref="286134918"/>
    <nd ref="1098314601"/>
    <nd ref="1460897125"/>
    <nd ref="1812257023"/>
    <nd ref="1098314604"/>
    <nd ref="1460897126"/>
    <nd ref="1792501043"/>
    <nd ref="1098315149"/>
    <nd ref="1792501076"/>
    <nd ref="1098315152"/>
    <nd ref="1792501083"/>
    <nd ref="286142118"/>
    <tag k="bicycle" v="no"/>
    <tag k="highway" v="motorway"/>
    <tag k="horse" v="no"/>
    <tag k="lanes" v="3"/>
    <tag k="maxspeed" v="140"/>
    <tag k="odbl" v="clean"/>
    <tag k="oneway" v="true"/>
    <tag k="ref" v="A1"/>
  </way>
  <way id="25010334" version="19" timestamp="2012-08-17T14:28:43Z" uid="681295" user="przemas75" changeset="12763221">
    <nd ref="271898039"/>
    <nd ref="271898040"/>
    <nd ref="286134910"/>
    <nd ref="286240832"/>
    <nd ref="286134913"/>
    <nd ref="286134918"/>
    <nd ref="1098314601"/>
    <nd ref="1460897125"/>
    <nd ref="1812257023"/>
    <nd ref="1098314604"/>
    <nd ref="1460897126"/>
    <nd ref="1792501043"/>
    <nd ref="1098315149"/>
    <nd ref="1792501076"/>
    <nd ref="1098315152"/>
    <nd ref="1792501083"/>
    <nd ref="286142118"/>
    <tag k="bicycle" v="no"/>
    <tag k="highway" v="motorway"/>
    <tag k="horse" v="no"/>
    <tag k="lanes" v="3"/>
    <tag k="maxspeed" v="140"/>
    <tag k="odbl" v="clean"/>
    <tag k="oneway" v="true"/>
    <tag k="osmonitor:road_components" v="2"/>
    <tag k="ref" v="A1"/>
  </way>
  <way id="25010334" version="20" timestamp="2012-08-17T14:39:09Z" uid="681295" user="przemas75" changeset="12763335">
    <nd ref="271898039"/>
    <nd ref="271898040"/>
    <nd ref="286134910"/>
    <nd ref="286240832"/>
    <nd ref="286134913"/>
    <nd ref="286134918"/>
    <nd ref="1098314601"/>
    <nd ref="1460897125"/>
    <nd ref="1812257023"/>
    <nd ref="1098314604"/>
    <nd ref="1460897126"/>
    <nd ref="1792501043"/>
    <nd ref="1098315149"/>
    <nd ref="1792501076"/>
    <nd ref="1098315152"/>
    <nd ref="1792501083"/>
    <nd ref="286142118"/>
    <tag k="bicycle" v="no"/>
    <tag k="highway" v="motorway"/>
    <tag k="horse" v="no"/>
    <tag k="lanes" v="3"/>
    <tag k="maxspeed" v="140"/>
    <tag k="odbl" v="clean"/>
    <tag k="oneway" v="true"/>
    <tag k="ref" v="A1"/>
  </way>
  <way id="25010334" version="21" timestamp="2012-08-19T09:05:01Z" uid="44414" user="marimil" changeset="12780590">
    <nd ref="271898039"/>
    <nd ref="271898040"/>
    <nd ref="286134910"/>
    <nd ref="286240832"/>
    <nd ref="286134913"/>
    <nd ref="286134918"/>
    <nd ref="1098314601"/>
    <nd ref="1460897125"/>
    <nd ref="1812257023"/>
    <nd ref="1098314604"/>
    <nd ref="1460897126"/>
    <nd ref="1792501043"/>
    <nd ref="1098315149"/>
    <nd ref="1792501076"/>
    <nd ref="1098315152"/>
    <nd ref="1792501083"/>
    <nd ref="286142118"/>
    <tag k="bicycle" v="no"/>
    <tag k="highway" v="motorway"/>
    <tag k="horse" v="no"/>
    <tag k="lanes" v="3"/>
    <tag k="maxspeed" v="140"/>
    <tag k="odbl" v="clean"/>
    <tag k="oneway" v="true"/>
    <tag k="ref" v="A1"/>
    <tag k="source:maxspeed" v="PL:motorway"/>
  </way>
  <way id="25010335" version="7" timestamp="2012-07-11T08:44:05Z" uid="429794" user="SennaHB" changeset="12183183">
    <nd ref="271898041"/>
    <nd ref="1821187057"/>
    <nd ref="271898037"/>
    <nd ref="598955925"/>
    <nd ref="598955924"/>
    <nd ref="271898038"/>
    <nd ref="598955927"/>
    <nd ref="598955926"/>
    <nd ref="271898039"/>
    <tag k="bicycle" v="no"/>
    <tag k="bridge" v="yes"/>
    <tag k="highway" v="motorway"/>
    <tag k="horse" v="no"/>
    <tag k="lanes" v="3"/>
    <tag k="layer" v="1"/>
    <tag k="maxspeed" v="140"/>
    <tag k="oneway" v="yes"/>
    <tag k="ref" v="A1"/>
  </way>
  <way id="25010335" version="8" timestamp="2012-07-20T08:51:30Z" uid="681295" user="przemas75" changeset="12368991">
    <nd ref="271898041"/>
    <nd ref="1821187057"/>
    <nd ref="271898037"/>
    <nd ref="598955925"/>
    <nd ref="598955924"/>
    <nd ref="271898038"/>
    <nd ref="598955927"/>
    <nd ref="598955926"/>
    <nd ref="271898039"/>
    <tag k="bicycle" v="no"/>
    <tag k="bridge" v="yes"/>
    <tag k="highway" v="motorway"/>
    <tag k="horse" v="no"/>
    <tag k="lanes" v="3"/>
    <tag k="layer" v="1"/>
    <tag k="maxspeed" v="140"/>
    <tag k="odbl" v="clean"/>
    <tag k="oneway" v="yes"/>
    <tag k="ref" v="A1"/>
  </way>
  <way id="25010335" version="9" timestamp="2012-08-17T14:30:33Z" uid="681295" user="przemas75" changeset="12763221">
    <nd ref="271898041"/>
    <nd ref="1821187057"/>
    <nd ref="271898037"/>
    <nd ref="598955925"/>
    <nd ref="598955924"/>
    <nd ref="271898038"/>
    <nd ref="598955927"/>
    <nd ref="598955926"/>
    <nd ref="271898039"/>
    <tag k="bicycle" v="no"/>
    <tag k="bridge" v="yes"/>
    <tag k="highway" v="motorway"/>
    <tag k="horse" v="no"/>
    <tag k="lanes" v="3"/>
    <tag k="layer" v="1"/>
    <tag k="maxspeed" v="140"/>
    <tag k="odbl" v="clean"/>
    <tag k="oneway" v="yes"/>
    <tag k="osmonitor:road_components" v="2"/>
    <tag k="ref" v="A1"/>
  </way>
  <way id="25010335" version="10" timestamp="2012-08-17T14:40:47Z" uid="681295" user="przemas75" changeset="12763335">
    <nd ref="271898041"/>
    <nd ref="1821187057"/>
    <nd ref="271898037"/>
    <nd ref="598955925"/>
    <nd ref="598955924"/>
    <nd ref="271898038"/>
    <nd ref="598955927"/>
    <nd ref="598955926"/>
    <nd ref="271898039"/>
    <tag k="bicycle" v="no"/>
    <tag k="bridge" v="yes"/>
    <tag k="highway" v="motorway"/>
    <tag k="horse" v="no"/>
    <tag k="lanes" v="3"/>
    <tag k="layer" v="1"/>
    <tag k="maxspeed" v="140"/>
    <tag k="odbl" v="clean"/>
    <tag k="oneway" v="yes"/>
    <tag k="ref" v="A1"/>
  </way>
  <way id="25010335" version="11" timestamp="2012-08-19T09:05:19Z" uid="44414" user="marimil" changeset="12780590">
    <nd ref="271898041"/>
    <nd ref="1821187057"/>
    <nd ref="271898037"/>
    <nd ref="598955925"/>
    <nd ref="598955924"/>
    <nd ref="271898038"/>
    <nd ref="598955927"/>
    <nd ref="598955926"/>
    <nd ref="271898039"/>
    <tag k="bicycle" v="no"/>
    <tag k="bridge" v="yes"/>
    <tag k="highway" v="motorway"/>
    <tag k="horse" v="no"/>
    <tag k="lanes" v="3"/>
    <tag k="layer" v="1"/>
    <tag k="maxspeed" v="140"/>
    <tag k="odbl" v="clean"/>
    <tag k="oneway" v="yes"/>
    <tag k="ref" v="A1"/>
    <tag k="source:maxspeed" v="PL:motorway"/>
  </way>
  <way id="25010344" version="4" timestamp="2012-07-19T18:01:04Z" uid="722137" user="OSMF Redaction Account" changeset="12342581">
    <nd ref="271898128"/>
    <nd ref="271898129"/>
    <nd ref="271898130"/>
    <nd ref="271898131"/>
    <nd ref="567090782"/>
    <nd ref="271898128"/>
    <tag k="leisure" v="park"/>
  </way>
  <way id="25010361" version="9" timestamp="2012-07-19T17:37:27Z" uid="722137" user="OSMF Redaction Account" changeset="12342056">
    <nd ref="106277074"/>
    <nd ref="271898289"/>
    <tag k="highway" v="service"/>
  </way>
  <way id="25010361" version="10" timestamp="2012-08-16T18:35:17Z" uid="418724" user="wintersportler" changeset="12753909">
    <nd ref="106277074"/>
    <nd ref="271898289"/>
    <nd ref="1868928804"/>
    <tag k="fixme" v="name"/>
    <tag k="highway" v="residential"/>
  </way>
  <way id="25010362" version="8" timestamp="2012-07-19T17:38:05Z" uid="722137" user="OSMF Redaction Account" changeset="12342056">
    <nd ref="271898299"/>
    <nd ref="271898300"/>
    <nd ref="271898301"/>
    <nd ref="271898302"/>
    <nd ref="271898303"/>
    <nd ref="271898304"/>
    <nd ref="271898308"/>
    <nd ref="271898306"/>
    <tag k="highway" v="residential"/>
    <tag k="name" v="Merchant Drive"/>
  </way>
  <way id="25010362" version="9" timestamp="2012-08-16T18:35:12Z" uid="418724" user="wintersportler" changeset="12753909">
    <nd ref="271898299"/>
    <nd ref="271898300"/>
    <nd ref="1868928781"/>
    <nd ref="271898301"/>
    <nd ref="1868928817"/>
    <nd ref="271898302"/>
    <nd ref="271898303"/>
    <nd ref="1868928826"/>
    <nd ref="271898304"/>
    <nd ref="271898308"/>
    <nd ref="1868928839"/>
    <nd ref="106277087"/>
    <tag k="highway" v="residential"/>
    <tag k="name" v="Merchant Drive"/>
  </way>
  <way id="25010363" version="10" timestamp="2012-07-19T17:37:27Z" uid="722137" user="OSMF Redaction Account" changeset="12342056">
    <nd ref="271898308"/>
    <nd ref="271898309"/>
    <nd ref="766258681"/>
    <nd ref="271898310"/>
    <nd ref="271898311"/>
    <nd ref="711327642"/>
    <tag k="highway" v="residential"/>
    <tag k="name" v="Enterprise Way"/>
  </way>
  <way id="25010363" version="11" timestamp="2012-07-19T18:01:33Z" uid="722137" user="OSMF Redaction Account" changeset="12342581">
    <nd ref="271898308"/>
    <nd ref="271898309"/>
    <nd ref="766258681"/>
    <nd ref="271898310"/>
    <nd ref="271898311"/>
    <tag k="highway" v="residential"/>
    <tag k="name" v="Enterprise Way"/>
  </way>
  <way id="25010363" version="12" timestamp="2012-08-16T18:35:10Z" uid="418724" user="wintersportler" changeset="12753909">
    <nd ref="271898308"/>
    <nd ref="271898309"/>
    <nd ref="766258681"/>
    <nd ref="271898310"/>
    <nd ref="1868928824"/>
    <nd ref="1868928823"/>
    <nd ref="1868928819"/>
    <nd ref="271898311"/>
    <nd ref="1868928816"/>
    <nd ref="1868928801"/>
    <nd ref="1868928798"/>
    <tag k="highway" v="residential"/>
    <tag k="name" v="Enterprise Way"/>
  </way>
  <way id="25010364" version="6" timestamp="2012-07-19T17:37:27Z" uid="722137" user="OSMF Redaction Account" changeset="12342056">
    <nd ref="271898316"/>
    <nd ref="271898317"/>
    <tag k="highway" v="residential"/>
  </way>
  <way id="25010364" version="7" timestamp="2012-08-15T20:03:47Z" uid="418724" user="wintersportler" changeset="12743468">
    <nd ref="271898316"/>
    <nd ref="271898317"/>
    <tag k="fixme" v="name"/>
    <tag k="highway" v="residential"/>
  </way>
  <way id="25010364" version="8" timestamp="2012-08-16T18:35:17Z" uid="418724" user="wintersportler" changeset="12753909">
    <nd ref="271898316"/>
    <nd ref="271898317"/>
    <nd ref="1868928837"/>
    <tag k="fixme" v="name"/>
    <tag k="highway" v="residential"/>
  </way>
  <way id="25010370" version="8" timestamp="2012-07-19T19:19:14Z" uid="722137" user="OSMF Redaction Account" changeset="12344687">
    <nd ref="1118321490"/>
    <nd ref="271898346"/>
    <nd ref="271898438"/>
    <nd ref="271898655"/>
    <tag k="highway" v="primary"/>
    <tag k="name" v="South Pine Road"/>
    <tag k="oneway" v="yes"/>
  </way>
  <way id="25010370" version="9" timestamp="2012-08-02T14:16:15Z" uid="38548" user="PesceVerde" changeset="12586494">
    <nd ref="323117409"/>
    <nd ref="124662244"/>
    <nd ref="124662243"/>
    <nd ref="124663727"/>
    <nd ref="124663725"/>
    <nd ref="124663723"/>
    <nd ref="1848484418"/>
    <nd ref="124663721"/>
    <nd ref="124663720"/>
    <nd ref="1848484419"/>
    <nd ref="124663716"/>
    <nd ref="124663715"/>
    <nd ref="124663713"/>
    <nd ref="432823034"/>
    <nd ref="1848484421"/>
    <nd ref="1848484432"/>
    <nd ref="1118321490"/>
    <nd ref="271885761"/>
    <nd ref="1848484440"/>
    <nd ref="1848484464"/>
    <nd ref="352957196"/>
    <nd ref="1848484475"/>
    <nd ref="271887365"/>
    <nd ref="271898348"/>
    <nd ref="271898347"/>
    <nd ref="271898346"/>
    <nd ref="1848484525"/>
    <nd ref="271898438"/>
    <nd ref="271898655"/>
    <tag k="highway" v="primary"/>
    <tag k="name" v="South Pine Road"/>
    <tag k="oneway" v="yes"/>
  </way>
  <way id="25010409" version="5" timestamp="2012-08-02T14:16:13Z" uid="38548" user="PesceVerde" changeset="12586494">
    <nd ref="1848484483"/>
    <nd ref="271886666"/>
    <nd ref="271898824"/>
    <nd ref="271898825"/>
    <nd ref="271898826"/>
    <nd ref="271898827"/>
    <nd ref="271898828"/>
    <nd ref="271898123"/>
    <tag k="highway" v="unclassified"/>
    <tag k="name" v="Deakin Street"/>
  </way>
  <way id="25010545" version="8" timestamp="2012-07-20T21:33:44Z" uid="722137" user="OSMF Redaction Account" changeset="12393217"/>
  <way id="25010592" version="4" timestamp="2012-07-19T19:21:13Z" uid="722137" user="OSMF Redaction Account" changeset="12344763"/>
  <way id="25010600" version="6" timestamp="2012-05-24T12:42:36Z" uid="328538" user="o&apos;cholio" changeset="11689373"/>
  <way id="25010610" version="4" timestamp="2012-07-19T19:21:08Z" uid="722137" user="OSMF Redaction Account" changeset="12344763"/>
  <way id="25010611" version="4" timestamp="2012-07-19T19:21:08Z" uid="722137" user="OSMF Redaction Account" changeset="12344763"/>
  <way id="25010866" version="10" timestamp="2012-09-01T16:43:50Z" uid="401555" user="Mondschein" changeset="12944451">
    <nd ref="271903427"/>
    <nd ref="271903428"/>
    <nd ref="271903429"/>
    <nd ref="271903430"/>
    <nd ref="271903431"/>
    <nd ref="271903433"/>
    <nd ref="271903434"/>
    <nd ref="271903435"/>
    <nd ref="271903436"/>
    <nd ref="271903437"/>
    <nd ref="271903438"/>
    <nd ref="271903439"/>
    <nd ref="271903441"/>
    <nd ref="271903442"/>
    <nd ref="271903443"/>
    <nd ref="271903444"/>
    <nd ref="272662903"/>
    <tag k="highway" v="residential"/>
    <tag k="history" v="Retrieved from v6"/>
    <tag k="maxspeed" v="30"/>
    <tag k="name" v="Freiweide"/>
    <tag k="postal_code" v="21039"/>
  </way>
  <way id="25010866" version="11" timestamp="2012-09-01T17:00:05Z" uid="401555" user="Mondschein" changeset="12944451">
    <nd ref="271903427"/>
    <nd ref="271903428"/>
    <nd ref="271903429"/>
    <nd ref="271903430"/>
    <nd ref="271903431"/>
    <nd ref="271903433"/>
    <nd ref="271903434"/>
    <nd ref="271903435"/>
    <nd ref="271903436"/>
    <nd ref="271903437"/>
    <nd ref="271903438"/>
    <nd ref="271903439"/>
    <nd ref="271903441"/>
    <nd ref="271903442"/>
    <nd ref="271903443"/>
    <nd ref="271903493"/>
    <nd ref="271903444"/>
    <nd ref="272662903"/>
    <tag k="highway" v="residential"/>
    <tag k="history" v="Retrieved from v6"/>
    <tag k="maxspeed" v="30"/>
    <tag k="name" v="Freiweide"/>
    <tag k="postal_code" v="21039"/>
  </way>
  <way id="25010866" version="12" timestamp="2012-09-08T14:01:09Z" uid="161619" user="FvGordon" changeset="13033921">
    <nd ref="271903427"/>
    <nd ref="271903428"/>
    <nd ref="271903429"/>
    <nd ref="271903430"/>
    <nd ref="271903431"/>
    <nd ref="271903433"/>
    <nd ref="271903434"/>
    <nd ref="271903435"/>
    <nd ref="271903436"/>
    <nd ref="271903437"/>
    <nd ref="271903438"/>
    <nd ref="271903439"/>
    <nd ref="271903441"/>
    <nd ref="271903442"/>
    <nd ref="271903493"/>
    <nd ref="1683446347"/>
    <nd ref="271903444"/>
    <nd ref="272662834"/>
    <tag k="highway" v="residential"/>
    <tag k="history" v="Retrieved from v6"/>
    <tag k="maxspeed" v="30"/>
    <tag k="name" v="Freiweide"/>
    <tag k="postal_code" v="21039"/>
  </way>
  <way id="25010890" version="9" timestamp="2012-09-01T16:22:01Z" uid="401555" user="Mondschein" changeset="12944251">
    <nd ref="271903493"/>
    <nd ref="271903494"/>
    <nd ref="271903495"/>
    <nd ref="271903805"/>
    <nd ref="271903806"/>
    <nd ref="271903807"/>
    <nd ref="271903808"/>
    <tag k="highway" v="residential"/>
    <tag k="history" v="Retrieved from v6"/>
    <tag k="maxspeed" v="30"/>
    <tag k="name" v="Krogbuschweg"/>
    <tag k="postal_code" v="21039"/>
  </way>
  <way id="25010890" version="10" timestamp="2012-09-01T16:35:55Z" uid="401555" user="Mondschein" changeset="12944377">
    <nd ref="271903493"/>
    <nd ref="1683446233"/>
    <nd ref="271903494"/>
    <nd ref="271903495"/>
    <nd ref="271903805"/>
    <nd ref="271903806"/>
    <nd ref="271903807"/>
    <nd ref="271903808"/>
    <tag k="highway" v="residential"/>
    <tag k="history" v="Retrieved from v6"/>
    <tag k="maxspeed" v="30"/>
    <tag k="name" v="Krogbuschweg"/>
    <tag k="postal_code" v="21039"/>
  </way>
  <way id="25010922" version="9" timestamp="2012-04-21T01:42:52Z" uid="328555" user="peb12345" changeset="11369924">
    <nd ref="1724805177"/>
    <nd ref="271903889"/>
    <nd ref="1724805176"/>
    <nd ref="271316092"/>
    <tag k="highway" v="residential"/>
    <tag k="name" v="An der Eich"/>
  </way>
  <way id="25010925" version="8" timestamp="2012-09-02T11:20:23Z" uid="45901" user="jorkh" changeset="12952473">
    <nd ref="271903986"/>
    <nd ref="271903987"/>
    <nd ref="272662834"/>
    <tag k="highway" v="residential"/>
    <tag k="history" v="Retrieved from v5"/>
    <tag k="maxspeed" v="30"/>
    <tag k="name" v="Waldweg"/>
    <tag k="postal_code" v="21039"/>
  </way>
  <way id="25010925" version="9" timestamp="2012-09-08T14:01:10Z" uid="161619" user="FvGordon" changeset="13033921">
    <nd ref="271903808"/>
    <nd ref="271903987"/>
    <nd ref="272662834"/>
    <tag k="highway" v="residential"/>
    <tag k="history" v="Retrieved from v5"/>
    <tag k="maxspeed" v="30"/>
    <tag k="name" v="Waldweg"/>
    <tag k="postal_code" v="21039"/>
  </way>
</osm>
