<?xml version='1.0' encoding='UTF-8'?>
<osm version="0.6" generator="libosmium/2.20.0">
  <way id="25085433" version="3" timestamp="2010-04-03T04:00:29Z" uid="20587" user="balrog-kun" changeset="4309442">
    <nd ref="273000993"/>
    <nd ref="273000997"/>
    <tag k="bridge" v="yes"/>
    <tag k="highway" v="secondary"/>
    <tag k="layer" v="2"/>
    <tag k="name" v="Hipkoe Drive"/>
    <tag k="tiger:cfcc" v="A41"/>
    <tag k="tiger:county" v="Navajo, AZ"/>
    <tag k="tiger:name_base" v="Hipkoe"/>
    <tag k="tiger:name_type" v="Dr"/>
    <tag k="tiger:separated" v="no"/>
    <tag k="tiger:source" v="tiger_import_dch_v0.6_20070809"/>
    <tag k="tiger:tlid" v="172492270:172492442:172492445:172491167"/>
    <tag k="tiger:zip_left" v="86047"/>
    <tag k="tiger:zip_right" v="86047"/>
  </way>
  <way id="25085433" version="4" timestamp="2010-05-06T20:50:35Z" uid="239998" user="Sundance" changeset="4625392">
    <nd ref="273000993"/>
    <nd ref="273000997"/>
    <tag k="addr:postcode" v="86047"/>
    <tag k="bridge" v="yes"/>
    <tag k="highway" v="secondary"/>
    <tag k="is_in" v="Navajo, AZ"/>
    <tag k="layer" v="1"/>
    <tag k="name" v="Hipkoe Drive"/>
    <tag k="source" v="Yahoo,TIGER"/>
  </way>
  <way id="25085433" version="5" timestamp="2011-03-16T21:15:12Z" uid="207745" user="NE2" changeset="7579694">
    <nd ref="273000993"/>
    <nd ref="273000997"/>
    <tag k="addr:postcode" v="86047"/>
    <tag k="bridge" v="yes"/>
    <tag k="highway" v="secondary"/>
    <tag k="is_in" v="Navajo, AZ"/>
    <tag k="layer" v="1"/>
    <tag k="name" v="Hipkoe Drive"/>
    <tag k="ref" v="I 40 Business"/>
    <tag k="source" v="Yahoo,TIGER"/>
  </way>
  <way id="25085433" version="6" timestamp="2011-03-23T11:52:26Z" uid="207745" user="NE2" changeset="7643503">
    <nd ref="273000993"/>
    <nd ref="273000997"/>
    <tag k="addr:postcode" v="86047"/>
    <tag k="bridge" v="yes"/>
    <tag k="highway" v="secondary"/>
    <tag k="is_in" v="Navajo, AZ"/>
    <tag k="layer" v="1"/>
    <tag k="name" v="Hipkoe Drive"/>
    <tag k="ref" v="I 40 Business;SR 99"/>
    <tag k="source" v="Yahoo,TIGER"/>
  </way>
  <way id="25085434" version="3" timestamp="2010-04-03T04:00:30Z" uid="20587" user="balrog-kun" changeset="4309442">
    <nd ref="175636052"/>
    <nd ref="175636050"/>
    <nd ref="175636048"/>
    <nd ref="272991370"/>
    <nd ref="175636046"/>
    <nd ref="175564720"/>
    <tag k="highway" v="residential"/>
    <tag k="name" v="Hipkoe Drive"/>
    <tag k="tiger:cfcc" v="A41"/>
    <tag k="tiger:county" v="Navajo, AZ"/>
    <tag k="tiger:name_base" v="Hipkoe"/>
    <tag k="tiger:name_type" v="Dr"/>
    <tag k="tiger:separated" v="no"/>
    <tag k="tiger:source" v="tiger_import_dch_v0.6_20070809"/>
    <tag k="tiger:tlid" v="172492270:172492442:172492445:172491167"/>
    <tag k="tiger:zip_left" v="86047"/>
    <tag k="tiger:zip_right" v="86047"/>
  </way>
  <way id="25085434" version="4" timestamp="2010-10-02T17:57:16Z" uid="104962" user="techlady" changeset="5938125">
    <nd ref="935453498"/>
    <nd ref="175636052"/>
    <nd ref="175636050"/>
    <nd ref="175636048"/>
    <nd ref="272991370"/>
    <nd ref="175636046"/>
    <nd ref="175564720"/>
    <tag k="highway" v="residential"/>
    <tag k="name" v="Hipkoe Drive"/>
    <tag k="tiger:cfcc" v="A41"/>
    <tag k="tiger:county" v="Navajo, AZ"/>
    <tag k="tiger:name_base" v="Hipkoe"/>
    <tag k="tiger:name_type" v="Dr"/>
    <tag k="tiger:separated" v="no"/>
    <tag k="tiger:source" v="tiger_import_dch_v0.6_20070809"/>
    <tag k="tiger:tlid" v="172492270:172492442:172492445:172491167"/>
    <tag k="tiger:zip_left" v="86047"/>
    <tag k="tiger:zip_right" v="86047"/>
  </way>
  <way id="25085434" version="5" timestamp="2012-01-05T19:33:34Z" uid="239998" user="Sundance" changeset="10304465">
    <nd ref="935453498"/>
    <nd ref="175636052"/>
    <nd ref="175636050"/>
    <nd ref="175636048"/>
    <nd ref="272991370"/>
    <nd ref="175636046"/>
    <nd ref="1578599471"/>
    <tag k="highway" v="residential"/>
    <tag k="name" v="Hipkoe Drive"/>
    <tag k="tiger:separated" v="no"/>
    <tag k="tiger:source" v="tiger_import_dch_v0.6_20070809"/>
    <tag k="tiger:tlid" v="172492270:172492442:172492445:172491167"/>
  </way>
  <way id="25085522" version="1" timestamp="2008-06-25T04:41:06Z" uid="30201" user="rrankin" changeset="290148">
    <nd ref="273002253"/>
    <nd ref="273002261"/>
    <tag k="highway" v="residential"/>
    <tag k="name" v="Banool Street"/>
    <tag k="source" v="yahoo"/>
  </way>
  <way id="25085522" version="2" timestamp="2009-12-22T09:49:37Z" uid="7617" user="Franc" changeset="3425720">
    <nd ref="273002253"/>
    <nd ref="273002261"/>
    <tag k="highway" v="residential"/>
    <tag k="name" v="Banool Street"/>
    <tag k="source" v="nearmap"/>
  </way>
  <way id="25085522" version="3" timestamp="2010-07-08T01:54:21Z" uid="74617" user="JohnSmith" changeset="5162525">
    <nd ref="273002253"/>
    <nd ref="273002261"/>
    <tag k="highway" v="residential"/>
    <tag k="maxspeed" v="50"/>
    <tag k="maxspeed:source" v="default residential speed limit in Australia"/>
    <tag k="name" v="Banool Street"/>
    <tag k="source" v="nearmap"/>
  </way>
  <way id="25085522" version="4" timestamp="2012-01-16T19:24:24Z" uid="147510" user="woodpeck_fixbot" changeset="10410676">
    <nd ref="273002253"/>
    <nd ref="273002261"/>
    <tag k="highway" v="residential"/>
    <tag k="name" v="Banool Street"/>
    <tag k="source" v="nearmap"/>
  </way>
  <way id="25085523" version="1" timestamp="2008-06-25T04:41:07Z" uid="30201" user="rrankin" changeset="290148">
    <nd ref="273002268"/>
    <nd ref="273002276"/>
    <tag k="highway" v="residential"/>
    <tag k="name" v="Moora Street"/>
    <tag k="source" v="yahoo"/>
  </way>
  <way id="25085523" version="2" timestamp="2009-12-22T08:15:53Z" uid="7617" user="Franc" changeset="3425286">
    <nd ref="273002268"/>
    <nd ref="273002276"/>
    <tag k="highway" v="residential"/>
    <tag k="name" v="Moora Street"/>
    <tag k="source" v="nearmap"/>
  </way>
  <way id="25085523" version="3" timestamp="2010-07-08T01:56:34Z" uid="74617" user="JohnSmith" changeset="5162525">
    <nd ref="273002268"/>
    <nd ref="273002276"/>
    <tag k="highway" v="residential"/>
    <tag k="maxspeed" v="50"/>
    <tag k="maxspeed:source" v="default residential speed limit in Australia"/>
    <tag k="name" v="Moora Street"/>
    <tag k="source" v="nearmap"/>
  </way>
  <way id="25085523" version="4" timestamp="2012-01-16T19:24:25Z" uid="147510" user="woodpeck_fixbot" changeset="10410676">
    <nd ref="273002268"/>
    <nd ref="273002276"/>
    <tag k="highway" v="residential"/>
    <tag k="name" v="Moora Street"/>
    <tag k="source" v="nearmap"/>
  </way>
  <way id="25085524" version="1" timestamp="2008-06-25T04:41:08Z" uid="30201" user="rrankin" changeset="290148">
    <nd ref="273002283"/>
    <nd ref="273002356"/>
    <nd ref="273002341"/>
    <nd ref="272977146"/>
    <nd ref="273002290"/>
    <nd ref="273002296"/>
    <tag k="highway" v="residential"/>
    <tag k="name" v="Virgil Avenue"/>
    <tag k="source" v="yahoo"/>
  </way>
  <way id="25085524" version="2" timestamp="2008-06-25T06:49:43Z" uid="30201" user="rrankin" changeset="290148">
    <nd ref="273002283"/>
    <nd ref="273056521"/>
    <nd ref="273002356"/>
    <nd ref="273002341"/>
    <nd ref="272977146"/>
    <nd ref="273002290"/>
    <nd ref="273002296"/>
    <tag k="highway" v="residential"/>
    <tag k="name" v="Virgil Avenue"/>
    <tag k="source" v="yahoo"/>
  </way>
  <way id="25085524" version="3" timestamp="2008-06-25T07:12:58Z" uid="30201" user="rrankin" changeset="290148">
    <nd ref="273002283"/>
    <nd ref="273067147"/>
    <nd ref="273067007"/>
    <nd ref="273067136"/>
    <nd ref="273066997"/>
    <nd ref="273066983"/>
    <nd ref="273056521"/>
    <nd ref="273067074"/>
    <nd ref="273002356"/>
    <nd ref="273067059"/>
    <nd ref="273002341"/>
    <nd ref="273067044"/>
    <nd ref="272977146"/>
    <nd ref="273002290"/>
    <nd ref="273002296"/>
    <tag k="highway" v="residential"/>
    <tag k="name" v="Virgil Avenue"/>
    <tag k="source" v="yahoo"/>
  </way>
  <way id="25085524" version="4" timestamp="2009-12-22T08:15:53Z" uid="7617" user="Franc" changeset="3425286">
    <nd ref="273002283"/>
    <nd ref="273067147"/>
    <nd ref="273067007"/>
    <nd ref="273067136"/>
    <nd ref="273066997"/>
    <nd ref="273066983"/>
    <nd ref="273056521"/>
    <nd ref="273067074"/>
    <nd ref="273002356"/>
    <nd ref="273067059"/>
    <nd ref="273002341"/>
    <nd ref="273067044"/>
    <nd ref="598066734"/>
    <tag k="highway" v="residential"/>
    <tag k="name" v="Virgil Avenue"/>
    <tag k="source" v="yahoo"/>
  </way>
  <way id="25085524" version="5" timestamp="2010-07-08T01:57:10Z" uid="74617" user="JohnSmith" changeset="5162525">
    <nd ref="273002283"/>
    <nd ref="273067147"/>
    <nd ref="273067007"/>
    <nd ref="273067136"/>
    <nd ref="273066997"/>
    <nd ref="273066983"/>
    <nd ref="273056521"/>
    <nd ref="273067074"/>
    <nd ref="273002356"/>
    <nd ref="273067059"/>
    <nd ref="273002341"/>
    <nd ref="273067044"/>
    <nd ref="598066734"/>
    <tag k="highway" v="residential"/>
    <tag k="maxspeed" v="50"/>
    <tag k="maxspeed:source" v="default residential speed limit in Australia"/>
    <tag k="name" v="Virgil Avenue"/>
    <tag k="source" v="yahoo"/>
  </way>
  <way id="25085524" version="6" timestamp="2012-01-16T19:24:26Z" uid="147510" user="woodpeck_fixbot" changeset="10410676">
    <nd ref="273002283"/>
    <nd ref="273067147"/>
    <nd ref="273067007"/>
    <nd ref="273067136"/>
    <nd ref="273066997"/>
    <nd ref="273066983"/>
    <nd ref="273056521"/>
    <nd ref="273067074"/>
    <nd ref="273002356"/>
    <nd ref="273067059"/>
    <nd ref="273002341"/>
    <nd ref="273067044"/>
    <nd ref="598066734"/>
    <tag k="highway" v="residential"/>
    <tag k="name" v="Virgil Avenue"/>
    <tag k="source" v="yahoo"/>
  </way>
  <way id="25085525" version="1" timestamp="2008-06-25T04:41:09Z" uid="30201" user="rrankin" changeset="290148">
    <nd ref="273002303"/>
    <nd ref="273002309"/>
    <tag k="highway" v="residential"/>
    <tag k="name" v="Biara Street"/>
    <tag k="source" v="yahoo"/>
  </way>
  <way id="25085525" version="2" timestamp="2008-06-25T04:48:08Z" uid="30201" user="rrankin" changeset="290148">
    <nd ref="273002303"/>
    <nd ref="273005662"/>
    <nd ref="273002309"/>
    <tag k="highway" v="residential"/>
    <tag k="name" v="Biara Street"/>
    <tag k="source" v="yahoo"/>
  </way>
  <way id="25085525" version="3" timestamp="2009-12-22T08:15:53Z" uid="7617" user="Franc" changeset="3425286">
    <nd ref="273002303"/>
    <nd ref="273005662"/>
    <nd ref="273002309"/>
    <tag k="highway" v="residential"/>
    <tag k="name" v="Biara Street"/>
    <tag k="source" v="nearmap"/>
  </way>
  <way id="25085525" version="4" timestamp="2010-07-08T01:59:20Z" uid="74617" user="JohnSmith" changeset="5162525">
    <nd ref="273002303"/>
    <nd ref="273005662"/>
    <nd ref="273002309"/>
    <tag k="highway" v="residential"/>
    <tag k="maxspeed" v="50"/>
    <tag k="maxspeed:source" v="default residential speed limit in Australia"/>
    <tag k="name" v="Biara Street"/>
    <tag k="source" v="nearmap"/>
  </way>
  <way id="25085525" version="5" timestamp="2012-01-16T19:24:28Z" uid="147510" user="woodpeck_fixbot" changeset="10410676">
    <nd ref="273002303"/>
    <nd ref="273005662"/>
    <nd ref="273002309"/>
    <tag k="highway" v="residential"/>
    <tag k="name" v="Biara Street"/>
    <tag k="source" v="nearmap"/>
  </way>
  <way id="25085526" version="1" timestamp="2008-06-25T04:41:10Z" uid="30201" user="rrankin" changeset="290148">
    <nd ref="273002316"/>
    <nd ref="273002348"/>
    <nd ref="273002363"/>
    <nd ref="273002325"/>
    <nd ref="273002333"/>
    <tag k="highway" v="service"/>
    <tag k="source" v="yahoo"/>
  </way>
  <way id="25085526" version="2" timestamp="2008-06-25T06:49:44Z" uid="30201" user="rrankin" changeset="290148">
    <nd ref="273002316"/>
    <nd ref="273002348"/>
    <nd ref="273002363"/>
    <nd ref="273056515"/>
    <nd ref="273002325"/>
    <nd ref="273002333"/>
    <tag k="highway" v="service"/>
    <tag k="source" v="yahoo"/>
  </way>
  <way id="25085526" version="3" timestamp="2008-06-25T07:12:59Z" uid="30201" user="rrankin" changeset="290148">
    <nd ref="273002316"/>
    <nd ref="273002348"/>
    <nd ref="273002363"/>
    <nd ref="273056515"/>
    <nd ref="273067029"/>
    <nd ref="273002325"/>
    <nd ref="273002333"/>
    <tag k="highway" v="service"/>
    <tag k="source" v="yahoo"/>
  </way>
  <way id="25085526" version="4" timestamp="2009-12-22T08:15:57Z" uid="7617" user="Franc" changeset="3425286">
    <nd ref="273002316"/>
    <nd ref="273002348"/>
    <nd ref="273002363"/>
    <nd ref="598066699"/>
    <nd ref="273056515"/>
    <nd ref="273067029"/>
    <nd ref="273002325"/>
    <nd ref="273002333"/>
    <tag k="highway" v="service"/>
    <tag k="source" v="yahoo"/>
  </way>
  <way id="25085527" version="1" timestamp="2008-06-25T04:41:10Z" uid="30201" user="rrankin" changeset="290148">
    <nd ref="273002341"/>
    <nd ref="273002348"/>
    <tag k="highway" v="residential"/>
    <tag k="name" v="Weemala Street"/>
    <tag k="source" v="yahoo"/>
  </way>
  <way id="25085527" version="2" timestamp="2009-12-22T08:15:54Z" uid="7617" user="Franc" changeset="3425286">
    <nd ref="273002341"/>
    <nd ref="273002348"/>
    <tag k="highway" v="residential"/>
    <tag k="name" v="Weemala Street"/>
    <tag k="source" v="nearmap"/>
  </way>
  <way id="25085527" version="3" timestamp="2010-07-08T01:54:52Z" uid="74617" user="JohnSmith" changeset="5162525">
    <nd ref="273002341"/>
    <nd ref="273002348"/>
    <tag k="highway" v="residential"/>
    <tag k="maxspeed" v="50"/>
    <tag k="maxspeed:source" v="default residential speed limit in Australia"/>
    <tag k="name" v="Weemala Street"/>
    <tag k="source" v="nearmap"/>
  </way>
  <way id="25085527" version="4" timestamp="2012-01-16T19:24:29Z" uid="147510" user="woodpeck_fixbot" changeset="10410676">
    <nd ref="273002341"/>
    <nd ref="273002348"/>
    <tag k="highway" v="residential"/>
    <tag k="name" v="Weemala Street"/>
    <tag k="source" v="nearmap"/>
  </way>
  <way id="25085529" version="1" timestamp="2008-06-25T04:41:11Z" uid="30201" user="rrankin" changeset="290148">
    <nd ref="273002356"/>
    <nd ref="273002363"/>
    <nd ref="273002370"/>
    <tag k="highway" v="residential"/>
    <tag k="name" v="Bent Street"/>
    <tag k="source" v="yahoo"/>
  </way>
  <way id="25085529" version="2" timestamp="2008-06-25T07:13:00Z" uid="30201" user="rrankin" changeset="290148">
    <nd ref="273002356"/>
    <nd ref="273067015"/>
    <nd ref="273002363"/>
    <nd ref="273002370"/>
    <tag k="highway" v="residential"/>
    <tag k="name" v="Bent Street"/>
    <tag k="source" v="yahoo"/>
  </way>
  <way id="25085529" version="3" timestamp="2009-12-21T23:58:22Z" uid="7617" user="Franc" changeset="3424105">
    <nd ref="273002356"/>
    <nd ref="273067015"/>
    <nd ref="273002363"/>
    <nd ref="597929042"/>
    <nd ref="273002370"/>
    <tag k="highway" v="residential"/>
    <tag k="name" v="Bent Street"/>
    <tag k="source" v="yahoo"/>
  </way>
  <way id="25085529" version="4" timestamp="2009-12-22T10:18:50Z" uid="7617" user="Franc" changeset="3425898">
    <nd ref="273002356"/>
    <nd ref="273067015"/>
    <nd ref="273002363"/>
    <nd ref="597929042"/>
    <nd ref="273002370"/>
    <tag k="highway" v="residential"/>
    <tag k="name" v="Bent Street"/>
    <tag k="source" v="nearmap"/>
  </way>
  <way id="25085529" version="5" timestamp="2010-07-08T01:57:39Z" uid="74617" user="JohnSmith" changeset="5162525">
    <nd ref="273002356"/>
    <nd ref="273067015"/>
    <nd ref="273002363"/>
    <nd ref="597929042"/>
    <nd ref="273002370"/>
    <tag k="highway" v="residential"/>
    <tag k="maxspeed" v="50"/>
    <tag k="maxspeed:source" v="default residential speed limit in Australia"/>
    <tag k="name" v="Bent Street"/>
    <tag k="source" v="nearmap"/>
  </way>
  <way id="25085529" version="6" timestamp="2012-01-16T19:24:30Z" uid="147510" user="woodpeck_fixbot" changeset="10410676">
    <nd ref="273002356"/>
    <nd ref="273067015"/>
    <nd ref="273002363"/>
    <nd ref="597929042"/>
    <nd ref="273002370"/>
    <tag k="highway" v="residential"/>
    <tag k="name" v="Bent Street"/>
    <tag k="source" v="nearmap"/>
  </way>
  <way id="25085695" version="7" timestamp="2009-03-10T19:22:30Z" uid="6975" user="ulfl" changeset="777500">
    <nd ref="94059744"/>
    <nd ref="325907776"/>
    <nd ref="325907767"/>
    <nd ref="325907747"/>
    <nd ref="325907733"/>
    <nd ref="26897888"/>
    <nd ref="26897889"/>
    <nd ref="275361424"/>
    <nd ref="26897890"/>
    <tag k="created_by" v="Potlatch 0.9c"/>
    <tag k="highway" v="primary"/>
    <tag k="name" v="Münchener Straße"/>
    <tag k="oneway" v="true"/>
    <tag k="ref" v="B 8"/>
  </way>
  <way id="25085695" version="8" timestamp="2009-04-17T03:34:17Z" uid="103885" user="logicbot" changeset="603450">
    <nd ref="94059744"/>
    <nd ref="325907776"/>
    <nd ref="325907767"/>
    <nd ref="325907747"/>
    <nd ref="325907733"/>
    <nd ref="26897888"/>
    <nd ref="26897889"/>
    <nd ref="275361424"/>
    <nd ref="26897890"/>
    <tag k="created_by" v="Potlatch 0.9c"/>
    <tag k="highway" v="primary"/>
    <tag k="name" v="Münchener Straße"/>
    <tag k="oneway" v="yes"/>
    <tag k="ref" v="B 8"/>
  </way>
  <way id="25085695" version="9" timestamp="2009-07-20T15:52:49Z" uid="69127" user="GeoGrafiker" changeset="1886354">
    <nd ref="94059744"/>
    <nd ref="325907776"/>
    <nd ref="325907767"/>
    <nd ref="325907747"/>
    <nd ref="325907733"/>
    <nd ref="26897888"/>
    <nd ref="26897889"/>
    <nd ref="275361424"/>
    <nd ref="26897890"/>
    <tag k="highway" v="primary"/>
    <tag k="name" v="Münchener Straße"/>
    <tag k="oneway" v="yes"/>
  </way>
  <way id="25085695" version="10" timestamp="2009-11-03T10:03:20Z" uid="118856" user="staehler" changeset="3023239">
    <nd ref="94059744"/>
    <nd ref="325907776"/>
    <nd ref="325907767"/>
    <nd ref="325907747"/>
    <nd ref="325907733"/>
    <nd ref="26897888"/>
    <nd ref="26897889"/>
    <nd ref="275361424"/>
    <nd ref="26897890"/>
    <tag k="highway" v="primary"/>
    <tag k="lanes" v="2"/>
    <tag k="name" v="Münchener Straße"/>
    <tag k="oneway" v="yes"/>
  </way>
  <way id="25085695" version="11" timestamp="2009-11-03T12:46:52Z" uid="118856" user="staehler" changeset="3024411">
    <nd ref="94059744"/>
    <nd ref="552954340"/>
    <nd ref="325907776"/>
    <nd ref="325907767"/>
    <nd ref="325907747"/>
    <nd ref="325907733"/>
    <nd ref="26897888"/>
    <nd ref="26897889"/>
    <nd ref="275361424"/>
    <nd ref="26897890"/>
    <tag k="highway" v="primary"/>
    <tag k="lanes" v="2"/>
    <tag k="name" v="Münchener Straße"/>
    <tag k="oneway" v="yes"/>
  </way>
  <way id="25085695" version="12" timestamp="2010-02-07T16:05:48Z" uid="81175" user="robome" changeset="3815646">
    <nd ref="94059744"/>
    <nd ref="632514712"/>
    <nd ref="552954340"/>
    <nd ref="325907776"/>
    <nd ref="325907767"/>
    <nd ref="325907747"/>
    <nd ref="325907733"/>
    <nd ref="26897888"/>
    <nd ref="26897889"/>
    <nd ref="275361424"/>
    <nd ref="26897890"/>
    <tag k="highway" v="primary"/>
    <tag k="lanes" v="2"/>
    <tag k="name" v="Münchener Straße"/>
    <tag k="oneway" v="yes"/>
  </way>
  <way id="25085695" version="13" timestamp="2010-04-03T08:20:44Z" uid="80526" user="frawe" changeset="4310461"/>
  <way id="25085764" version="1" timestamp="2008-06-25T04:48:01Z" uid="30201" user="rrankin" changeset="290148">
    <nd ref="273005638"/>
    <nd ref="273005700"/>
    <nd ref="273005669"/>
    <nd ref="273005655"/>
    <nd ref="273005647"/>
    <tag k="highway" v="residential"/>
    <tag k="name" v="Curtis Road"/>
    <tag k="source" v="yahoo"/>
  </way>
  <way id="25085764" version="2" timestamp="2009-12-22T08:15:52Z" uid="7617" user="Franc" changeset="3425286">
    <nd ref="273005638"/>
    <nd ref="273005700"/>
    <nd ref="598066667"/>
    <nd ref="273005669"/>
    <nd ref="273005655"/>
    <nd ref="598066784"/>
    <nd ref="273005647"/>
    <tag k="highway" v="residential"/>
    <tag k="name" v="Curtis Road"/>
    <tag k="source" v="yahoo"/>
  </way>
  <way id="25085764" version="3" timestamp="2010-07-08T01:52:43Z" uid="74617" user="JohnSmith" changeset="5162525">
    <nd ref="273005638"/>
    <nd ref="273005700"/>
    <nd ref="598066667"/>
    <nd ref="273005669"/>
    <nd ref="273005655"/>
    <nd ref="598066784"/>
    <nd ref="273005647"/>
    <tag k="highway" v="residential"/>
    <tag k="maxspeed" v="50"/>
    <tag k="maxspeed:source" v="default residential speed limit in Australia"/>
    <tag k="name" v="Curtis Road"/>
    <tag k="source" v="yahoo"/>
  </way>
  <way id="25085764" version="4" timestamp="2012-01-16T19:24:31Z" uid="147510" user="woodpeck_fixbot" changeset="10410676">
    <nd ref="273005638"/>
    <nd ref="273005700"/>
    <nd ref="598066667"/>
    <nd ref="273005669"/>
    <nd ref="273005655"/>
    <nd ref="598066784"/>
    <nd ref="273005647"/>
    <tag k="highway" v="residential"/>
    <tag k="name" v="Curtis Road"/>
    <tag k="source" v="yahoo"/>
  </way>
  <way id="25085765" version="1" timestamp="2008-06-25T04:48:02Z" uid="30201" user="rrankin" changeset="290148">
    <nd ref="273005655"/>
    <nd ref="273005662"/>
    <tag k="highway" v="residential"/>
    <tag k="name" v="Wingara Street"/>
    <tag k="source" v="yahoo"/>
  </way>
  <way id="25085765" version="2" timestamp="2009-12-22T08:15:58Z" uid="7617" user="Franc" changeset="3425286">
    <nd ref="273005655"/>
    <nd ref="273005662"/>
    <tag k="highway" v="residential"/>
    <tag k="name" v="Wingara Street"/>
    <tag k="source" v="nearmap"/>
  </way>
  <way id="25085765" version="3" timestamp="2010-07-08T01:54:57Z" uid="74617" user="JohnSmith" changeset="5162525">
    <nd ref="273005655"/>
    <nd ref="273005662"/>
    <tag k="highway" v="residential"/>
    <tag k="maxspeed" v="50"/>
    <tag k="maxspeed:source" v="default residential speed limit in Australia"/>
    <tag k="name" v="Wingara Street"/>
    <tag k="source" v="nearmap"/>
  </way>
  <way id="25085765" version="4" timestamp="2012-01-16T19:24:34Z" uid="147510" user="woodpeck_fixbot" changeset="10410676">
    <nd ref="273005655"/>
    <nd ref="273005662"/>
    <tag k="highway" v="residential"/>
    <tag k="name" v="Wingara Street"/>
    <tag k="source" v="nearmap"/>
  </way>
  <way id="25085766" version="1" timestamp="2008-06-25T04:48:03Z" uid="30201" user="rrankin" changeset="290148">
    <nd ref="273005669"/>
    <nd ref="273005686"/>
    <nd ref="273005678"/>
    <tag k="highway" v="residential"/>
    <tag k="name" v="Ashton Avenue"/>
    <tag k="source" v="yahoo"/>
  </way>
  <way id="25085766" version="2" timestamp="2009-12-22T08:15:58Z" uid="7617" user="Franc" changeset="3425286">
    <nd ref="273005669"/>
    <nd ref="273005686"/>
    <nd ref="598066744"/>
    <nd ref="273005678"/>
    <tag k="highway" v="residential"/>
    <tag k="name" v="Ashton Avenue"/>
    <tag k="source" v="nearmap"/>
  </way>
  <way id="25085766" version="3" timestamp="2010-07-08T01:58:37Z" uid="74617" user="JohnSmith" changeset="5162525">
    <nd ref="273005669"/>
    <nd ref="273005686"/>
    <nd ref="598066744"/>
    <nd ref="273005678"/>
    <tag k="highway" v="residential"/>
    <tag k="maxspeed" v="50"/>
    <tag k="maxspeed:source" v="default residential speed limit in Australia"/>
    <tag k="name" v="Ashton Avenue"/>
    <tag k="source" v="nearmap"/>
  </way>
  <way id="25085766" version="4" timestamp="2012-01-16T19:24:35Z" uid="147510" user="woodpeck_fixbot" changeset="10410676">
    <nd ref="273005669"/>
    <nd ref="273005686"/>
    <nd ref="598066744"/>
    <nd ref="273005678"/>
    <tag k="highway" v="residential"/>
    <tag k="name" v="Ashton Avenue"/>
    <tag k="source" v="nearmap"/>
  </way>
  <way id="25085768" version="1" timestamp="2008-06-25T04:48:04Z" uid="30201" user="rrankin" changeset="290148">
    <nd ref="273005686"/>
    <nd ref="273005693"/>
    <tag k="highway" v="residential"/>
    <tag k="name" v="Peek Place"/>
    <tag k="source" v="yahoo"/>
  </way>
  <way id="25085768" version="2" timestamp="2009-12-22T08:15:59Z" uid="7617" user="Franc" changeset="3425286">
    <nd ref="273005686"/>
    <nd ref="273005693"/>
    <tag k="highway" v="residential"/>
    <tag k="name" v="Peek Place"/>
    <tag k="source" v="nearmap"/>
  </way>
  <way id="25085768" version="3" timestamp="2010-07-08T02:01:53Z" uid="74617" user="JohnSmith" changeset="5162525">
    <nd ref="273005686"/>
    <nd ref="273005693"/>
    <tag k="highway" v="residential"/>
    <tag k="maxspeed" v="50"/>
    <tag k="maxspeed:source" v="default residential speed limit in Australia"/>
    <tag k="name" v="Peek Place"/>
    <tag k="source" v="nearmap"/>
  </way>
  <way id="25085768" version="4" timestamp="2012-01-16T19:24:37Z" uid="147510" user="woodpeck_fixbot" changeset="10410676">
    <nd ref="273005686"/>
    <nd ref="273005693"/>
    <tag k="highway" v="residential"/>
    <tag k="name" v="Peek Place"/>
    <tag k="source" v="nearmap"/>
  </way>
  <way id="25085770" version="1" timestamp="2008-06-25T04:48:06Z" uid="30201" user="rrankin" changeset="290148">
    <nd ref="273005700"/>
    <nd ref="273005707"/>
    <nd ref="273005714"/>
    <nd ref="273005719"/>
    <tag k="highway" v="residential"/>
    <tag k="name" v="Larkview Avenue"/>
    <tag k="source" v="yahoo"/>
  </way>
  <way id="25085770" version="2" timestamp="2009-12-22T08:15:53Z" uid="7617" user="Franc" changeset="3425286">
    <nd ref="273005700"/>
    <nd ref="598066666"/>
    <nd ref="598066668"/>
    <nd ref="273005707"/>
    <nd ref="598066664"/>
    <nd ref="598066665"/>
    <nd ref="273005714"/>
    <nd ref="273005719"/>
    <tag k="highway" v="residential"/>
    <tag k="name" v="Larkview Avenue"/>
    <tag k="source" v="yahoo"/>
  </way>
  <way id="25085770" version="3" timestamp="2010-07-08T01:57:16Z" uid="74617" user="JohnSmith" changeset="5162525">
    <nd ref="273005700"/>
    <nd ref="598066666"/>
    <nd ref="598066668"/>
    <nd ref="273005707"/>
    <nd ref="598066664"/>
    <nd ref="598066665"/>
    <nd ref="273005714"/>
    <nd ref="273005719"/>
    <tag k="highway" v="residential"/>
    <tag k="maxspeed" v="50"/>
    <tag k="maxspeed:source" v="default residential speed limit in Australia"/>
    <tag k="name" v="Larkview Avenue"/>
    <tag k="source" v="yahoo"/>
  </way>
  <way id="25085770" version="4" timestamp="2012-01-16T19:24:38Z" uid="147510" user="woodpeck_fixbot" changeset="10410676">
    <nd ref="273005700"/>
    <nd ref="598066666"/>
    <nd ref="598066668"/>
    <nd ref="273005707"/>
    <nd ref="598066664"/>
    <nd ref="598066665"/>
    <nd ref="273005714"/>
    <nd ref="273005719"/>
    <tag k="highway" v="residential"/>
    <tag k="name" v="Larkview Avenue"/>
    <tag k="source" v="yahoo"/>
  </way>
  <way id="25085433" version="7" timestamp="2012-06-19T02:59:45Z" uid="104962" user="techlady" changeset="11943640"/>
  <way id="25085434" version="6" timestamp="2012-06-19T03:00:47Z" uid="104962" user="techlady" changeset="11943640"/>
  <way id="25085522" version="5" timestamp="2012-07-03T21:36:50Z" uid="713671" user="auspod" changeset="12104832">
    <nd ref="1811847858"/>
    <nd ref="273002261"/>
    <tag k="highway" v="residential"/>
    <tag k="name" v="Banool Street"/>
    <tag k="source" v="nearmap"/>
  </way>
  <way id="25085522" version="6" timestamp="2012-07-22T03:31:25Z" uid="722137" user="OSMF Redaction Account" changeset="12424891"/>
  <way id="25085523" version="5" timestamp="2012-07-03T21:36:49Z" uid="713671" user="auspod" changeset="12104832">
    <nd ref="273002268"/>
    <nd ref="1811847833"/>
    <tag k="highway" v="residential"/>
    <tag k="name" v="Moora Street"/>
    <tag k="source" v="nearmap"/>
  </way>
  <way id="25085523" version="6" timestamp="2012-07-22T03:31:29Z" uid="722137" user="OSMF Redaction Account" changeset="12424891"/>
  <way id="25085524" version="7" timestamp="2012-05-07T13:59:21Z" uid="162096" user="Daz" changeset="11529368">
    <nd ref="273002283"/>
    <nd ref="273067147"/>
    <nd ref="273067007"/>
    <nd ref="273067136"/>
    <nd ref="273066997"/>
    <nd ref="273066983"/>
    <nd ref="273056521"/>
    <nd ref="273067074"/>
    <nd ref="273002356"/>
    <tag k="highway" v="residential"/>
    <tag k="name" v="Virgil Avenue"/>
    <tag k="source" v="yahoo"/>
  </way>
  <way id="25085524" version="8" timestamp="2012-07-03T21:36:50Z" uid="713671" user="auspod" changeset="12104832">
    <nd ref="1811847554"/>
    <nd ref="1811847870"/>
    <nd ref="1811847631"/>
    <nd ref="1811847701"/>
    <nd ref="1811847752"/>
    <nd ref="1811847660"/>
    <nd ref="1811847777"/>
    <nd ref="1811847805"/>
    <nd ref="1811847926"/>
    <nd ref="1811848001"/>
    <nd ref="1811847898"/>
    <tag k="highway" v="residential"/>
    <tag k="name" v="Virgil Avenue"/>
    <tag k="source" v="yahoo"/>
  </way>
  <way id="25085524" version="9" timestamp="2012-07-20T10:10:00Z" uid="722137" user="OSMF Redaction Account" changeset="12370806">
    <nd ref="1811847554"/>
    <nd ref="1811847870"/>
    <nd ref="1811847631"/>
    <nd ref="1811847701"/>
    <nd ref="1811847752"/>
    <nd ref="1811847660"/>
    <nd ref="1811847777"/>
    <nd ref="1811847805"/>
    <nd ref="1811847926"/>
    <nd ref="1811848001"/>
    <nd ref="1811847898"/>
  </way>
  <way id="25085524" version="10" timestamp="2012-07-24T11:37:37Z" uid="462898" user="Alexander Wilms" changeset="12464462">
    <nd ref="1811847554"/>
    <nd ref="1811847870"/>
    <nd ref="1811847631"/>
    <nd ref="1811847701"/>
    <nd ref="1811847752"/>
    <nd ref="1811847660"/>
    <nd ref="1811847777"/>
    <nd ref="1811847805"/>
    <nd ref="1811847926"/>
    <nd ref="1811848001"/>
    <nd ref="1811847898"/>
    <tag k="highway" v="residential"/>
  </way>
  <way id="25085525" version="6" timestamp="2012-07-03T21:36:50Z" uid="713671" user="auspod" changeset="12104832">
    <nd ref="273002303"/>
    <nd ref="273005662"/>
    <nd ref="1811848036"/>
    <tag k="highway" v="residential"/>
    <tag k="name" v="Biara Street"/>
    <tag k="source" v="nearmap"/>
  </way>
  <way id="25085525" version="7" timestamp="2012-07-22T03:31:31Z" uid="722137" user="OSMF Redaction Account" changeset="12424898"/>
  <way id="25085526" version="5" timestamp="2012-07-03T21:36:50Z" uid="713671" user="auspod" changeset="12104832">
    <nd ref="1811847705"/>
    <nd ref="273002348"/>
    <nd ref="1811847931"/>
    <nd ref="1811847629"/>
    <tag k="highway" v="service"/>
    <tag k="source" v="yahoo"/>
  </way>
  <way id="25085526" version="6" timestamp="2012-07-22T03:25:56Z" uid="722137" user="OSMF Redaction Account" changeset="12424864">
    <nd ref="1811847705"/>
    <nd ref="1811847931"/>
    <nd ref="1811847629"/>
  </way>
  <way id="25085526" version="7" timestamp="2012-07-24T21:13:37Z" uid="48588" user="rasmusv" changeset="12476674">
    <nd ref="1811847705"/>
    <nd ref="1837011695"/>
    <nd ref="1811847931"/>
    <nd ref="1811847629"/>
  </way>
  <way id="25085526" version="8" timestamp="2012-07-30T15:40:18Z" uid="2585" user="rw_" changeset="12549715">
    <nd ref="1811847705"/>
    <nd ref="1837011695"/>
    <nd ref="1811847931"/>
    <nd ref="1811847629"/>
    <tag k="highway" v="road"/>
  </way>
  <way id="25085527" version="5" timestamp="2012-07-03T21:36:50Z" uid="713671" user="auspod" changeset="12104832">
    <nd ref="1811847615"/>
    <nd ref="273002348"/>
    <tag k="highway" v="residential"/>
    <tag k="name" v="Weemala Street"/>
    <tag k="source" v="nearmap"/>
  </way>
  <way id="25085527" version="6" timestamp="2012-07-22T03:31:27Z" uid="722137" user="OSMF Redaction Account" changeset="12424891"/>
  <way id="25085529" version="7" timestamp="2012-05-07T13:59:21Z" uid="162096" user="Daz" changeset="11529368">
    <nd ref="273002356"/>
    <nd ref="273067015"/>
    <nd ref="273002363"/>
    <nd ref="597929042"/>
    <nd ref="273002370"/>
    <tag k="highway" v="residential"/>
    <tag k="lcn" v="yes"/>
    <tag k="name" v="Bent Street"/>
    <tag k="source" v="nearmap"/>
    <tag k="source:lcn" v="Bankstown City Council Bike Map 2006"/>
  </way>
  <way id="25085529" version="8" timestamp="2012-05-10T11:56:22Z" uid="162096" user="Daz" changeset="11558084">
    <nd ref="273002356"/>
    <nd ref="273067015"/>
    <nd ref="273002363"/>
    <nd ref="597929042"/>
    <nd ref="273002370"/>
    <tag k="highway" v="residential"/>
    <tag k="lcn" v="yes"/>
    <tag k="name" v="Bent Street"/>
    <tag k="source" v="nearmap"/>
  </way>
  <way id="25085529" version="9" timestamp="2012-07-03T21:36:51Z" uid="713671" user="auspod" changeset="12104832">
    <nd ref="1811847898"/>
    <nd ref="273067015"/>
    <nd ref="1811847629"/>
    <nd ref="1811847771"/>
    <nd ref="597929042"/>
    <nd ref="1811847787"/>
    <tag k="highway" v="residential"/>
    <tag k="lcn" v="yes"/>
    <tag k="name" v="Bent Street"/>
    <tag k="source" v="nearmap"/>
  </way>
  <way id="25085529" version="10" timestamp="2012-07-20T10:10:00Z" uid="722137" user="OSMF Redaction Account" changeset="12370806">
    <nd ref="1811847898"/>
    <nd ref="1811847629"/>
    <nd ref="1811847771"/>
    <nd ref="1811847787"/>
    <tag k="lcn" v="yes"/>
  </way>
  <way id="25085529" version="11" timestamp="2012-07-24T21:13:36Z" uid="48588" user="rasmusv" changeset="12476674">
    <nd ref="1811847898"/>
    <nd ref="1811847629"/>
    <nd ref="1811847771"/>
    <nd ref="1811847787"/>
    <tag k="highway" v="road"/>
    <tag k="lcn" v="yes"/>
  </way>
  <way id="25085529" version="12" timestamp="2012-07-30T15:40:19Z" uid="2585" user="rw_" changeset="12549715">
    <nd ref="1811847898"/>
    <nd ref="1844139241"/>
    <nd ref="1811847629"/>
    <nd ref="1811847771"/>
    <nd ref="1811847787"/>
    <tag k="highway" v="road"/>
    <tag k="lcn" v="yes"/>
  </way>
  <way id="25085764" version="5" timestamp="2012-07-03T21:36:54Z" uid="713671" user="auspod" changeset="12104832">
    <nd ref="273005638"/>
    <nd ref="273005700"/>
    <nd ref="598066667"/>
    <nd ref="273005669"/>
    <nd ref="273005655"/>
    <nd ref="598066784"/>
    <nd ref="1811847978"/>
    <tag k="highway" v="residential"/>
    <tag k="name" v="Curtis Road"/>
    <tag k="source" v="yahoo"/>
  </way>
  <way id="25085764" version="6" timestamp="2012-07-22T03:31:34Z" uid="722137" user="OSMF Redaction Account" changeset="12424898"/>
  <way id="25085765" version="5" timestamp="2012-07-22T03:31:36Z" uid="722137" user="OSMF Redaction Account" changeset="12424898"/>
  <way id="25085766" version="5" timestamp="2012-07-22T03:31:36Z" uid="722137" user="OSMF Redaction Account" changeset="12424898"/>
  <way id="25085768" version="5" timestamp="2012-07-22T03:31:33Z" uid="722137" user="OSMF Redaction Account" changeset="12424898"/>
  <way id="25085770" version="5" timestamp="2012-07-22T03:31:34Z" uid="722137" user="OSMF Redaction Account" changeset="12424898"/>
</osm>
