<?xml version='1.0' encoding='UTF-8'?>
<osm version="0.6" generator="libosmium/2.20.0">
  <way id="25104205" version="4" timestamp="2010-04-02T17:16:36Z" uid="20587" user="balrog-kun" changeset="4304500">
    <nd ref="110537747"/>
    <nd ref="110537749"/>
    <nd ref="273255830"/>
    <nd ref="110537753"/>
    <nd ref="273254157"/>
    <nd ref="110537757"/>
    <nd ref="110537760"/>
    <tag k="created_by" v="JOSM"/>
    <tag k="highway" v="residential"/>
    <tag k="name" v="Perimeter Street Southwest"/>
    <tag k="tiger:cfcc" v="A41"/>
    <tag k="tiger:county" v="Pierce, WA"/>
    <tag k="tiger:name_base" v="Perimeter"/>
    <tag k="tiger:name_direction_suffix" v="SW"/>
    <tag k="tiger:reviewed" v="no"/>
    <tag k="tiger:separated" v="no"/>
    <tag k="tiger:source" v="tiger_import_dch_v0.6_20070830"/>
    <tag k="tiger:tlid" v="184704113:184716201"/>
  </way>
  <way id="25104532" version="1" timestamp="2008-06-26T01:55:20Z" uid="38528" user="acrosscanadatrails" changeset="298579">
    <nd ref="273259074"/>
    <nd ref="272960876"/>
    <nd ref="272960871"/>
    <nd ref="272960874"/>
    <tag k="created_by" v="Potlatch 0.9c"/>
  </way>
  <way id="25104532" version="2" timestamp="2008-06-27T03:32:21Z" uid="38528" user="acrosscanadatrails" changeset="307448"/>
  <way id="25104543" version="1" timestamp="2008-06-26T01:55:53Z" uid="38528" user="acrosscanadatrails" changeset="298579">
    <nd ref="273259219"/>
    <nd ref="272960876"/>
    <nd ref="272960871"/>
    <nd ref="272960874"/>
    <tag k="created_by" v="Potlatch 0.9c"/>
  </way>
  <way id="25104543" version="2" timestamp="2008-06-26T01:57:58Z" uid="38528" user="acrosscanadatrails" changeset="298579">
    <nd ref="273259219"/>
    <nd ref="272960876"/>
    <nd ref="272960871"/>
    <nd ref="272960874"/>
    <tag k="created_by" v="Potlatch 0.9c"/>
    <tag k="foot" v="yes"/>
    <tag k="highway" v="footway"/>
    <tag k="name" v="Pier"/>
  </way>
  <way id="25104543" version="3" timestamp="2008-08-05T21:37:56Z" uid="6009" user="CoreyBurger" changeset="85748">
    <nd ref="273259219"/>
    <nd ref="283835041"/>
    <nd ref="272960876"/>
    <nd ref="272960871"/>
    <nd ref="272960874"/>
    <tag k="created_by" v="Potlatch 0.9c"/>
    <tag k="foot" v="yes"/>
    <tag k="highway" v="footway"/>
    <tag k="name" v="Pier"/>
  </way>
  <way id="25104543" version="4" timestamp="2008-08-07T19:18:17Z" uid="6009" user="CoreyBurger" changeset="123221">
    <nd ref="273259219"/>
    <nd ref="283835041"/>
    <nd ref="272960876"/>
    <nd ref="272960871"/>
    <nd ref="272960874"/>
    <tag k="created_by" v="Potlatch 0.10b"/>
    <tag k="man_made" v="pier"/>
  </way>
  <way id="25104543" version="5" timestamp="2010-04-15T00:47:07Z" uid="38528" user="acrosscanadatrails" changeset="4427626"/>
  <way id="25104812" version="1" timestamp="2008-06-26T02:15:06Z" uid="30201" user="rrankin" changeset="298395">
    <nd ref="273262406"/>
    <nd ref="273262407"/>
    <tag k="highway" v="residential"/>
    <tag k="name" v="Esme Avenue"/>
    <tag k="source" v="yahoo"/>
  </way>
  <way id="25104812" version="2" timestamp="2009-12-22T08:15:58Z" uid="7617" user="Franc" changeset="3425286">
    <nd ref="273262406"/>
    <nd ref="273262407"/>
    <tag k="highway" v="residential"/>
    <tag k="name" v="Esme Avenue"/>
    <tag k="source" v="nearmap"/>
  </way>
  <way id="25104812" version="3" timestamp="2010-07-08T02:00:45Z" uid="74617" user="JohnSmith" changeset="5162525">
    <nd ref="273262406"/>
    <nd ref="273262407"/>
    <tag k="highway" v="residential"/>
    <tag k="maxspeed" v="50"/>
    <tag k="maxspeed:source" v="default residential speed limit in Australia"/>
    <tag k="name" v="Esme Avenue"/>
    <tag k="source" v="nearmap"/>
  </way>
  <way id="25104812" version="4" timestamp="2012-01-16T19:40:07Z" uid="147510" user="woodpeck_fixbot" changeset="10410676">
    <nd ref="273262406"/>
    <nd ref="273262407"/>
    <tag k="highway" v="residential"/>
    <tag k="name" v="Esme Avenue"/>
    <tag k="source" v="nearmap"/>
  </way>
  <way id="25104813" version="1" timestamp="2008-06-26T02:15:07Z" uid="30201" user="rrankin" changeset="298395">
    <nd ref="273262411"/>
    <nd ref="273262414"/>
    <tag k="highway" v="residential"/>
    <tag k="name" v="Elliston Street"/>
    <tag k="source" v="yahoo"/>
  </way>
  <way id="25104813" version="2" timestamp="2010-07-08T01:52:07Z" uid="74617" user="JohnSmith" changeset="5162525">
    <nd ref="273262411"/>
    <nd ref="273262414"/>
    <tag k="highway" v="residential"/>
    <tag k="maxspeed" v="50"/>
    <tag k="maxspeed:source" v="default residential speed limit in Australia"/>
    <tag k="name" v="Elliston Street"/>
    <tag k="source" v="yahoo"/>
  </way>
  <way id="25104813" version="3" timestamp="2012-01-16T19:40:09Z" uid="147510" user="woodpeck_fixbot" changeset="10410676">
    <nd ref="273262411"/>
    <nd ref="273262414"/>
    <tag k="highway" v="residential"/>
    <tag k="name" v="Elliston Street"/>
    <tag k="source" v="yahoo"/>
  </way>
  <way id="25104815" version="1" timestamp="2008-06-26T02:15:08Z" uid="30201" user="rrankin" changeset="298395">
    <nd ref="273262417"/>
    <nd ref="273262420"/>
    <tag k="highway" v="residential"/>
    <tag k="name" v="Greendale Crescent"/>
    <tag k="source" v="yahoo"/>
  </way>
  <way id="25104815" version="2" timestamp="2009-12-22T10:03:09Z" uid="7617" user="Franc" changeset="3425803">
    <nd ref="273262417"/>
    <nd ref="273262420"/>
    <tag k="highway" v="residential"/>
    <tag k="name" v="Greendale Crescent"/>
    <tag k="source" v="nearmap"/>
  </way>
  <way id="25104815" version="3" timestamp="2010-07-08T01:58:13Z" uid="74617" user="JohnSmith" changeset="5162525">
    <nd ref="273262417"/>
    <nd ref="273262420"/>
    <tag k="highway" v="residential"/>
    <tag k="maxspeed" v="50"/>
    <tag k="maxspeed:source" v="default residential speed limit in Australia"/>
    <tag k="name" v="Greendale Crescent"/>
    <tag k="source" v="nearmap"/>
  </way>
  <way id="25104815" version="4" timestamp="2012-01-16T19:40:12Z" uid="147510" user="woodpeck_fixbot" changeset="10410676">
    <nd ref="273262417"/>
    <nd ref="273262420"/>
    <tag k="highway" v="residential"/>
    <tag k="name" v="Greendale Crescent"/>
    <tag k="source" v="nearmap"/>
  </way>
  <way id="25104816" version="1" timestamp="2008-06-26T02:15:09Z" uid="30201" user="rrankin" changeset="298395">
    <nd ref="273262423"/>
    <nd ref="273262424"/>
    <tag k="highway" v="residential"/>
    <tag k="name" v="Esme Avenue"/>
    <tag k="source" v="yahoo"/>
  </way>
  <way id="25104816" version="2" timestamp="2009-12-22T08:15:59Z" uid="7617" user="Franc" changeset="3425286">
    <nd ref="273262423"/>
    <nd ref="273262424"/>
    <tag k="highway" v="residential"/>
    <tag k="name" v="Esme Avenue"/>
    <tag k="source" v="nearmap"/>
  </way>
  <way id="25104816" version="3" timestamp="2010-07-08T02:01:33Z" uid="74617" user="JohnSmith" changeset="5162525">
    <nd ref="273262423"/>
    <nd ref="273262424"/>
    <tag k="highway" v="residential"/>
    <tag k="maxspeed" v="50"/>
    <tag k="maxspeed:source" v="default residential speed limit in Australia"/>
    <tag k="name" v="Esme Avenue"/>
    <tag k="source" v="nearmap"/>
  </way>
  <way id="25104816" version="4" timestamp="2012-01-16T19:40:13Z" uid="147510" user="woodpeck_fixbot" changeset="10410676">
    <nd ref="273262423"/>
    <nd ref="273262424"/>
    <tag k="highway" v="residential"/>
    <tag k="name" v="Esme Avenue"/>
    <tag k="source" v="nearmap"/>
  </way>
  <way id="25104817" version="1" timestamp="2008-06-26T02:15:09Z" uid="30201" user="rrankin" changeset="298395">
    <nd ref="273262425"/>
    <nd ref="273262426"/>
    <tag k="highway" v="residential"/>
    <tag k="name" v="Elliston Street"/>
    <tag k="source" v="yahoo"/>
  </way>
  <way id="25104817" version="2" timestamp="2009-12-22T08:15:59Z" uid="7617" user="Franc" changeset="3425286">
    <nd ref="273262425"/>
    <nd ref="273262426"/>
    <tag k="highway" v="residential"/>
    <tag k="name" v="Elliston Street"/>
    <tag k="source" v="nearmap"/>
  </way>
  <way id="25104817" version="3" timestamp="2010-07-08T01:53:03Z" uid="74617" user="JohnSmith" changeset="5162525">
    <nd ref="273262425"/>
    <nd ref="273262426"/>
    <tag k="highway" v="residential"/>
    <tag k="maxspeed" v="50"/>
    <tag k="maxspeed:source" v="default residential speed limit in Australia"/>
    <tag k="name" v="Elliston Street"/>
    <tag k="source" v="nearmap"/>
  </way>
  <way id="25104817" version="4" timestamp="2012-01-16T19:40:15Z" uid="147510" user="woodpeck_fixbot" changeset="10410676">
    <nd ref="273262425"/>
    <nd ref="273262426"/>
    <tag k="highway" v="residential"/>
    <tag k="name" v="Elliston Street"/>
    <tag k="source" v="nearmap"/>
  </way>
  <way id="25104818" version="1" timestamp="2008-06-26T02:15:10Z" uid="30201" user="rrankin" changeset="298395">
    <nd ref="273262427"/>
    <nd ref="273067052"/>
    <nd ref="273262429"/>
    <nd ref="273262432"/>
    <tag k="highway" v="residential"/>
    <tag k="name" v="Arlewis Street"/>
    <tag k="source" v="yahoo"/>
  </way>
  <way id="25104818" version="2" timestamp="2010-07-08T01:56:57Z" uid="74617" user="JohnSmith" changeset="5162525">
    <nd ref="273262427"/>
    <nd ref="273067052"/>
    <nd ref="273262429"/>
    <nd ref="273262432"/>
    <tag k="highway" v="residential"/>
    <tag k="maxspeed" v="50"/>
    <tag k="maxspeed:source" v="default residential speed limit in Australia"/>
    <tag k="name" v="Arlewis Street"/>
    <tag k="source" v="yahoo"/>
  </way>
  <way id="25104818" version="3" timestamp="2012-01-16T19:40:17Z" uid="147510" user="woodpeck_fixbot" changeset="10410676">
    <nd ref="273262427"/>
    <nd ref="273067052"/>
    <nd ref="273262429"/>
    <nd ref="273262432"/>
    <tag k="highway" v="residential"/>
    <tag k="name" v="Arlewis Street"/>
    <tag k="source" v="yahoo"/>
  </way>
  <way id="25104819" version="1" timestamp="2008-06-26T02:15:11Z" uid="30201" user="rrankin" changeset="298395">
    <nd ref="273262435"/>
    <nd ref="273262437"/>
    <tag k="highway" v="service"/>
    <tag k="source" v="yahoo"/>
  </way>
  <way id="25104819" version="2" timestamp="2009-12-22T08:16:00Z" uid="7617" user="Franc" changeset="3425286">
    <nd ref="273262435"/>
    <nd ref="273262437"/>
    <tag k="highway" v="service"/>
    <tag k="source" v="nearmap"/>
  </way>
  <way id="25104820" version="1" timestamp="2008-06-26T02:15:12Z" uid="30201" user="rrankin" changeset="298395">
    <nd ref="272977142"/>
    <nd ref="273067064"/>
    <nd ref="273262444"/>
    <nd ref="273056531"/>
    <nd ref="273262440"/>
    <tag k="highway" v="residential"/>
    <tag k="name" v="Wolumba Street"/>
    <tag k="source" v="yahoo"/>
  </way>
  <way id="25104820" version="2" timestamp="2008-06-26T02:37:55Z" uid="30201" user="rrankin" changeset="298395">
    <nd ref="272977142"/>
    <nd ref="273067064"/>
    <nd ref="273262444"/>
    <nd ref="273056531"/>
    <nd ref="273262440"/>
    <tag k="highway" v="residential"/>
    <tag k="name" v="Wolumba Street"/>
    <tag k="source" v="yahoo"/>
  </way>
  <way id="25104820" version="3" timestamp="2009-08-21T02:28:27Z" uid="152608" user="Robbo" changeset="2218330">
    <nd ref="272977142"/>
    <nd ref="273067064"/>
    <nd ref="273262444"/>
    <nd ref="273056531"/>
    <tag k="highway" v="residential"/>
    <tag k="name" v="Wolumba Street"/>
    <tag k="source" v="yahoo"/>
  </way>
  <way id="25104820" version="4" timestamp="2010-01-06T04:52:43Z" uid="7617" user="Franc" changeset="3550911">
    <nd ref="606301178"/>
    <nd ref="606301175"/>
    <nd ref="273067064"/>
    <nd ref="273262444"/>
    <nd ref="273056531"/>
    <tag k="highway" v="residential"/>
    <tag k="name" v="Wolumba Street"/>
    <tag k="source" v="yahoo"/>
  </way>
  <way id="25104820" version="5" timestamp="2010-05-29T07:48:13Z" uid="7617" user="Franc" changeset="4840158">
    <nd ref="606301178"/>
    <nd ref="606301175"/>
    <nd ref="273067064"/>
    <nd ref="755763193"/>
    <tag k="highway" v="residential"/>
    <tag k="name" v="Wolumba Street"/>
    <tag k="restriction" v="school_zone"/>
    <tag k="source" v="nearmap"/>
  </way>
  <way id="25104820" version="6" timestamp="2010-07-08T01:59:44Z" uid="74617" user="JohnSmith" changeset="5162525">
    <nd ref="606301178"/>
    <nd ref="606301175"/>
    <nd ref="273067064"/>
    <nd ref="755763193"/>
    <tag k="highway" v="residential"/>
    <tag k="maxspeed" v="50"/>
    <tag k="maxspeed:source" v="default residential speed limit in Australia"/>
    <tag k="name" v="Wolumba Street"/>
    <tag k="restriction" v="school_zone"/>
    <tag k="source" v="nearmap"/>
  </way>
  <way id="25104820" version="7" timestamp="2012-01-16T19:40:19Z" uid="147510" user="woodpeck_fixbot" changeset="10410676">
    <nd ref="606301178"/>
    <nd ref="606301175"/>
    <nd ref="273067064"/>
    <nd ref="755763193"/>
    <tag k="highway" v="residential"/>
    <tag k="name" v="Wolumba Street"/>
    <tag k="restriction" v="school_zone"/>
    <tag k="source" v="nearmap"/>
  </way>
  <way id="25104821" version="1" timestamp="2008-06-26T02:15:13Z" uid="30201" user="rrankin" changeset="298395">
    <nd ref="273262444"/>
    <nd ref="273262447"/>
    <tag k="highway" v="residential"/>
    <tag k="name" v="Vista Crescent"/>
    <tag k="source" v="yahoo"/>
  </way>
  <way id="25104821" version="2" timestamp="2010-07-08T02:02:07Z" uid="74617" user="JohnSmith" changeset="5162525">
    <nd ref="273262444"/>
    <nd ref="273262447"/>
    <tag k="highway" v="residential"/>
    <tag k="maxspeed" v="50"/>
    <tag k="maxspeed:source" v="default residential speed limit in Australia"/>
    <tag k="name" v="Vista Crescent"/>
    <tag k="source" v="yahoo"/>
  </way>
  <way id="25104821" version="3" timestamp="2012-01-16T19:40:21Z" uid="147510" user="woodpeck_fixbot" changeset="10410676">
    <nd ref="273262444"/>
    <nd ref="273262447"/>
    <tag k="highway" v="residential"/>
    <tag k="name" v="Vista Crescent"/>
    <tag k="source" v="yahoo"/>
  </way>
  <way id="25104822" version="1" timestamp="2008-06-26T02:15:14Z" uid="30201" user="rrankin" changeset="298395">
    <nd ref="273262451"/>
    <nd ref="273262453"/>
    <nd ref="273262454"/>
    <nd ref="273262455"/>
    <tag k="highway" v="residential"/>
    <tag k="name" v="Plymouth Avenue"/>
    <tag k="source" v="yahoo"/>
  </way>
  <way id="25104822" version="2" timestamp="2010-07-08T01:55:17Z" uid="74617" user="JohnSmith" changeset="5162525">
    <nd ref="273262451"/>
    <nd ref="273262453"/>
    <nd ref="273262454"/>
    <nd ref="273262455"/>
    <tag k="highway" v="residential"/>
    <tag k="maxspeed" v="50"/>
    <tag k="maxspeed:source" v="default residential speed limit in Australia"/>
    <tag k="name" v="Plymouth Avenue"/>
    <tag k="source" v="yahoo"/>
  </way>
  <way id="25104822" version="3" timestamp="2012-01-16T19:40:23Z" uid="147510" user="woodpeck_fixbot" changeset="10410676">
    <nd ref="273262451"/>
    <nd ref="273262453"/>
    <nd ref="273262454"/>
    <nd ref="273262455"/>
    <tag k="highway" v="residential"/>
    <tag k="name" v="Plymouth Avenue"/>
    <tag k="source" v="yahoo"/>
  </way>
  <way id="25104812" version="5" timestamp="2012-07-03T21:36:45Z" uid="713671" user="auspod" changeset="12104832">
    <nd ref="273262406"/>
    <nd ref="1811847874"/>
    <tag k="highway" v="residential"/>
    <tag k="name" v="Esme Avenue"/>
    <tag k="source" v="nearmap"/>
  </way>
  <way id="25104812" version="6" timestamp="2012-07-20T10:14:59Z" uid="722137" user="OSMF Redaction Account" changeset="12370938"/>
  <way id="25104813" version="4" timestamp="2012-05-07T13:59:23Z" uid="162096" user="Daz" changeset="11529368">
    <nd ref="273262411"/>
    <nd ref="273262414"/>
    <tag k="highway" v="residential"/>
    <tag k="lcn" v="yes"/>
    <tag k="name" v="Elliston Street"/>
    <tag k="source" v="yahoo"/>
    <tag k="source:lcn" v="Bankstown City Council Bike Map 2006"/>
  </way>
  <way id="25104813" version="5" timestamp="2012-05-10T11:56:19Z" uid="162096" user="Daz" changeset="11558084">
    <nd ref="273262411"/>
    <nd ref="273262414"/>
    <tag k="highway" v="residential"/>
    <tag k="lcn" v="yes"/>
    <tag k="name" v="Elliston Street"/>
    <tag k="source" v="yahoo"/>
  </way>
  <way id="25104813" version="6" timestamp="2012-06-28T21:58:18Z" uid="713671" user="auspod" changeset="12051381">
    <nd ref="273262411"/>
    <nd ref="1805545686"/>
    <tag k="highway" v="residential"/>
    <tag k="lcn" v="yes"/>
    <tag k="name" v="Elliston Street"/>
    <tag k="source" v="yahoo"/>
  </way>
  <way id="25104813" version="7" timestamp="2012-07-03T21:36:46Z" uid="713671" user="auspod" changeset="12104832">
    <nd ref="1811847974"/>
    <nd ref="1805545686"/>
    <tag k="highway" v="residential"/>
    <tag k="lcn" v="yes"/>
    <tag k="name" v="Elliston Street"/>
    <tag k="source" v="yahoo"/>
  </way>
  <way id="25104813" version="8" timestamp="2012-07-20T10:10:01Z" uid="722137" user="OSMF Redaction Account" changeset="12370806">
    <nd ref="1811847974"/>
    <nd ref="1805545686"/>
    <tag k="lcn" v="yes"/>
  </way>
  <way id="25104813" version="9" timestamp="2012-07-24T11:37:38Z" uid="462898" user="Alexander Wilms" changeset="12464462">
    <nd ref="1811847974"/>
    <nd ref="1805545686"/>
    <tag k="highway" v="residential"/>
    <tag k="lcn" v="yes"/>
  </way>
  <way id="25104815" version="5" timestamp="2012-07-20T10:14:59Z" uid="722137" user="OSMF Redaction Account" changeset="12370938"/>
  <way id="25104816" version="5" timestamp="2012-07-20T10:15:00Z" uid="722137" user="OSMF Redaction Account" changeset="12370938"/>
  <way id="25104817" version="5" timestamp="2012-07-20T10:15:01Z" uid="722137" user="OSMF Redaction Account" changeset="12370938"/>
  <way id="25104818" version="4" timestamp="2012-07-03T21:36:46Z" uid="713671" user="auspod" changeset="12104832">
    <nd ref="1811847691"/>
    <nd ref="273067052"/>
    <nd ref="273262429"/>
    <nd ref="273262432"/>
    <tag k="highway" v="residential"/>
    <tag k="name" v="Arlewis Street"/>
    <tag k="source" v="yahoo"/>
  </way>
  <way id="25104818" version="5" timestamp="2012-07-20T10:06:06Z" uid="722137" user="OSMF Redaction Account" changeset="12370653">
    <nd ref="1811847691"/>
    <nd ref="273067052"/>
    <tag k="highway" v="residential"/>
    <tag k="name" v="Arlewis Street"/>
    <tag k="source" v="yahoo"/>
  </way>
  <way id="25104818" version="6" timestamp="2012-07-22T03:31:36Z" uid="722137" user="OSMF Redaction Account" changeset="12424898"/>
  <way id="25104819" version="3" timestamp="2012-07-03T21:36:46Z" uid="713671" user="auspod" changeset="12104832">
    <nd ref="1811848031"/>
    <nd ref="273262437"/>
    <tag k="highway" v="service"/>
    <tag k="source" v="nearmap"/>
  </way>
  <way id="25104819" version="4" timestamp="2012-07-22T03:31:35Z" uid="722137" user="OSMF Redaction Account" changeset="12424898"/>
  <way id="25104820" version="8" timestamp="2012-05-07T13:59:23Z" uid="162096" user="Daz" changeset="11529368">
    <nd ref="606301178"/>
    <nd ref="606301175"/>
    <nd ref="273067064"/>
    <tag k="highway" v="residential"/>
    <tag k="lcn" v="yes"/>
    <tag k="name" v="Wolumba Street"/>
    <tag k="restriction" v="school_zone"/>
    <tag k="source" v="nearmap"/>
    <tag k="source:lcn" v="Bankstown City Council Bike Map 2006"/>
  </way>
  <way id="25104820" version="9" timestamp="2012-05-10T11:56:19Z" uid="162096" user="Daz" changeset="11558084">
    <nd ref="606301178"/>
    <nd ref="606301175"/>
    <nd ref="273067064"/>
    <tag k="highway" v="residential"/>
    <tag k="lcn" v="yes"/>
    <tag k="name" v="Wolumba Street"/>
    <tag k="restriction" v="school_zone"/>
    <tag k="source" v="nearmap"/>
  </way>
  <way id="25104820" version="10" timestamp="2012-07-03T21:36:46Z" uid="713671" user="auspod" changeset="12104832">
    <nd ref="1811847652"/>
    <nd ref="606301175"/>
    <nd ref="273067064"/>
    <tag k="highway" v="residential"/>
    <tag k="lcn" v="yes"/>
    <tag k="name" v="Wolumba Street"/>
    <tag k="restriction" v="school_zone"/>
    <tag k="source" v="nearmap"/>
  </way>
  <way id="25104820" version="11" timestamp="2012-07-20T07:17:09Z" uid="722137" user="OSMF Redaction Account" changeset="12365819"/>
  <way id="25104821" version="4" timestamp="2012-07-20T07:17:12Z" uid="722137" user="OSMF Redaction Account" changeset="12365819"/>
  <way id="25104822" version="4" timestamp="2012-07-20T07:17:09Z" uid="722137" user="OSMF Redaction Account" changeset="12365819"/>
</osm>
