<?xml version='1.0' encoding='UTF-8'?>
<osm version="0.6" generator="libosmium/2.20.0">
  <way id="25251239" version="5" timestamp="2010-07-09T21:10:41Z" uid="74617" user="JohnSmith" changeset="5176956">
    <nd ref="275197691"/>
    <nd ref="275197784"/>
    <nd ref="275197785"/>
    <nd ref="275197786"/>
    <nd ref="275197787"/>
    <nd ref="275198205"/>
    <nd ref="275197788"/>
    <nd ref="319734708"/>
    <nd ref="275197790"/>
    <nd ref="275197791"/>
    <nd ref="275197793"/>
    <nd ref="275197794"/>
    <nd ref="275197796"/>
    <nd ref="275197797"/>
    <nd ref="275197798"/>
    <nd ref="275197799"/>
    <nd ref="275196817"/>
    <nd ref="275197800"/>
    <tag k="highway" v="residential"/>
    <tag k="maxspeed" v="50"/>
    <tag k="maxspeed:source" v="default residential speed limit in Australia"/>
  </way>
  <way id="25251239" version="6" timestamp="2010-08-21T15:29:57Z" uid="134344" user="Andrew Gregory" changeset="5552870">
    <nd ref="275197691"/>
    <nd ref="275197784"/>
    <nd ref="275197785"/>
    <nd ref="275197786"/>
    <nd ref="275197787"/>
    <nd ref="275198205"/>
    <nd ref="275197788"/>
    <nd ref="319734708"/>
    <nd ref="275197790"/>
    <nd ref="275197791"/>
    <nd ref="275197793"/>
    <nd ref="275197794"/>
    <nd ref="275197796"/>
    <nd ref="275197797"/>
    <nd ref="275197798"/>
    <nd ref="275197799"/>
    <nd ref="275196817"/>
    <nd ref="275197800"/>
    <tag k="highway" v="residential"/>
    <tag k="maxspeed" v="50"/>
    <tag k="maxspeed:source" v="default residential speed limit in Australia"/>
    <tag k="name" v="Lake Monger Drive"/>
    <tag k="source" v="survey"/>
  </way>
  <way id="25251239" version="7" timestamp="2010-10-26T00:41:24Z" uid="192584" user="ORYX" changeset="6178615">
    <nd ref="275197691"/>
    <nd ref="275197784"/>
    <nd ref="275197785"/>
    <nd ref="275197786"/>
    <nd ref="275197787"/>
    <nd ref="275198205"/>
    <nd ref="275197788"/>
    <nd ref="319734708"/>
    <nd ref="275197790"/>
    <nd ref="275197791"/>
    <nd ref="275197793"/>
    <nd ref="275197794"/>
    <nd ref="275197796"/>
    <nd ref="275197797"/>
    <nd ref="275197798"/>
    <nd ref="965537642"/>
    <nd ref="275197799"/>
    <nd ref="275196817"/>
    <nd ref="275197800"/>
    <tag k="highway" v="residential"/>
    <tag k="maxspeed" v="50"/>
    <tag k="maxspeed:source" v="default residential speed limit in Australia"/>
    <tag k="name" v="Lake Monger Drive"/>
    <tag k="source" v="survey"/>
  </way>
  <way id="25251239" version="8" timestamp="2012-01-16T20:46:20Z" uid="147510" user="woodpeck_fixbot" changeset="10410676">
    <nd ref="275197691"/>
    <nd ref="275197784"/>
    <nd ref="275197785"/>
    <nd ref="275197786"/>
    <nd ref="275197787"/>
    <nd ref="275198205"/>
    <nd ref="275197788"/>
    <nd ref="319734708"/>
    <nd ref="275197790"/>
    <nd ref="275197791"/>
    <nd ref="275197793"/>
    <nd ref="275197794"/>
    <nd ref="275197796"/>
    <nd ref="275197797"/>
    <nd ref="275197798"/>
    <nd ref="965537642"/>
    <nd ref="275197799"/>
    <nd ref="275196817"/>
    <nd ref="275197800"/>
    <tag k="highway" v="residential"/>
    <tag k="name" v="Lake Monger Drive"/>
    <tag k="source" v="survey"/>
  </way>
  <way id="25251249" version="5" timestamp="2010-07-09T21:02:39Z" uid="74617" user="JohnSmith" changeset="5176956">
    <nd ref="275197840"/>
    <nd ref="275197786"/>
    <tag k="highway" v="residential"/>
    <tag k="maxspeed" v="50"/>
    <tag k="maxspeed:source" v="default residential speed limit in Australia"/>
    <tag k="name" v="St Columbus Avenue"/>
  </way>
  <way id="25251249" version="6" timestamp="2012-01-16T20:46:21Z" uid="147510" user="woodpeck_fixbot" changeset="10410676">
    <nd ref="275197840"/>
    <nd ref="275197786"/>
    <tag k="highway" v="residential"/>
    <tag k="name" v="St Columbus Avenue"/>
  </way>
  <way id="25251275" version="7" timestamp="2010-07-09T21:08:46Z" uid="74617" user="JohnSmith" changeset="5176956">
    <nd ref="275198055"/>
    <nd ref="275198202"/>
    <nd ref="275198203"/>
    <nd ref="275198261"/>
    <nd ref="275198204"/>
    <nd ref="320817658"/>
    <nd ref="275198205"/>
    <nd ref="275196826"/>
    <tag k="highway" v="residential"/>
    <tag k="maxspeed" v="50"/>
    <tag k="maxspeed:source" v="default residential speed limit in Australia"/>
    <tag k="name" v="St Vincents Avenue"/>
  </way>
  <way id="25251275" version="8" timestamp="2012-01-16T20:46:22Z" uid="147510" user="woodpeck_fixbot" changeset="10410676">
    <nd ref="275198055"/>
    <nd ref="275198202"/>
    <nd ref="275198203"/>
    <nd ref="275198261"/>
    <nd ref="275198204"/>
    <nd ref="320817658"/>
    <nd ref="275198205"/>
    <nd ref="275196826"/>
    <tag k="highway" v="residential"/>
    <tag k="name" v="St Vincents Avenue"/>
  </way>
  <way id="25251290" version="3" timestamp="2010-07-09T21:13:13Z" uid="74617" user="JohnSmith" changeset="5176956">
    <nd ref="275198197"/>
    <nd ref="275198259"/>
    <nd ref="275198260"/>
    <nd ref="275198261"/>
    <tag k="highway" v="residential"/>
    <tag k="maxspeed" v="50"/>
    <tag k="maxspeed:source" v="default residential speed limit in Australia"/>
    <tag k="name" v="The Grove"/>
  </way>
  <way id="25251290" version="4" timestamp="2012-01-16T20:46:25Z" uid="147510" user="woodpeck_fixbot" changeset="10410676">
    <nd ref="275198197"/>
    <nd ref="275198259"/>
    <nd ref="275198260"/>
    <nd ref="275198261"/>
    <tag k="highway" v="residential"/>
    <tag k="name" v="The Grove"/>
  </way>
  <way id="25251339" version="9" timestamp="2010-07-09T20:58:52Z" uid="74617" user="JohnSmith" changeset="5176956">
    <nd ref="275198283"/>
    <nd ref="275204958"/>
    <nd ref="275198561"/>
    <nd ref="275198563"/>
    <nd ref="319734713"/>
    <nd ref="275198564"/>
    <nd ref="275198566"/>
    <nd ref="275198567"/>
    <nd ref="275198568"/>
    <tag k="highway" v="residential"/>
    <tag k="maxspeed" v="50"/>
    <tag k="maxspeed:source" v="default residential speed limit in Australia"/>
    <tag k="name" v="Kavanagh Street"/>
  </way>
  <way id="25251339" version="10" timestamp="2012-01-16T20:46:26Z" uid="147510" user="woodpeck_fixbot" changeset="10410676">
    <nd ref="275198283"/>
    <nd ref="275204958"/>
    <nd ref="275198561"/>
    <nd ref="275198563"/>
    <nd ref="319734713"/>
    <nd ref="275198564"/>
    <nd ref="275198566"/>
    <nd ref="275198567"/>
    <nd ref="275198568"/>
    <tag k="highway" v="residential"/>
    <tag k="name" v="Kavanagh Street"/>
  </way>
  <way id="25251355" version="6" timestamp="2010-07-09T21:07:15Z" uid="74617" user="JohnSmith" changeset="5176956">
    <nd ref="275198636"/>
    <nd ref="414916613"/>
    <nd ref="320816415"/>
    <nd ref="275198720"/>
    <tag k="highway" v="residential"/>
    <tag k="maxspeed" v="50"/>
    <tag k="maxspeed:source" v="default residential speed limit in Australia"/>
    <tag k="name" v="Joseph Street"/>
  </way>
  <way id="25251355" version="7" timestamp="2012-01-16T20:46:27Z" uid="147510" user="woodpeck_fixbot" changeset="10410676">
    <nd ref="275198636"/>
    <nd ref="414916613"/>
    <nd ref="320816415"/>
    <nd ref="275198720"/>
    <tag k="highway" v="residential"/>
    <tag k="name" v="Joseph Street"/>
  </way>
  <way id="25251360" version="7" timestamp="2010-04-28T17:02:44Z" uid="242497" user="cvl" changeset="4551093">
    <nd ref="275198729"/>
    <nd ref="414916612"/>
    <nd ref="275198777"/>
    <nd ref="710704280"/>
    <nd ref="710704283"/>
    <nd ref="275198912"/>
    <tag k="highway" v="residential"/>
    <tag k="name" v="McCourt Street"/>
  </way>
  <way id="25251360" version="8" timestamp="2010-07-09T21:14:10Z" uid="74617" user="JohnSmith" changeset="5176956">
    <nd ref="275198729"/>
    <nd ref="414916612"/>
    <nd ref="275198777"/>
    <nd ref="710704280"/>
    <nd ref="710704283"/>
    <nd ref="275198912"/>
    <tag k="highway" v="residential"/>
    <tag k="maxspeed" v="50"/>
    <tag k="maxspeed:source" v="default residential speed limit in Australia"/>
    <tag k="name" v="McCourt Street"/>
  </way>
  <way id="25251360" version="9" timestamp="2012-01-16T20:46:28Z" uid="147510" user="woodpeck_fixbot" changeset="10410676">
    <nd ref="275198729"/>
    <nd ref="414916612"/>
    <nd ref="275198777"/>
    <nd ref="710704280"/>
    <nd ref="710704283"/>
    <nd ref="275198912"/>
    <tag k="highway" v="residential"/>
    <tag k="name" v="McCourt Street"/>
  </way>
  <way id="25251360" version="10" timestamp="2012-03-24T08:07:21Z" uid="142807" user="SDavies" changeset="11081520">
    <nd ref="275198729"/>
    <nd ref="414916612"/>
    <nd ref="275198777"/>
    <nd ref="710704280"/>
    <nd ref="710704283"/>
    <nd ref="1688150864"/>
    <nd ref="275198912"/>
    <tag k="highway" v="residential"/>
    <tag k="name" v="McCourt Street"/>
  </way>
  <way id="25251399" version="5" timestamp="2010-07-09T21:07:29Z" uid="74617" user="JohnSmith" changeset="5176956">
    <nd ref="275198997"/>
    <nd ref="275199085"/>
    <nd ref="275199086"/>
    <nd ref="615672341"/>
    <nd ref="275199087"/>
    <tag k="highway" v="residential"/>
    <tag k="maxspeed" v="50"/>
    <tag k="maxspeed:source" v="default residential speed limit in Australia"/>
    <tag k="name" v="Tate Street"/>
  </way>
  <way id="25251399" version="6" timestamp="2012-01-16T20:46:30Z" uid="147510" user="woodpeck_fixbot" changeset="10410676">
    <nd ref="275198997"/>
    <nd ref="275199085"/>
    <nd ref="275199086"/>
    <nd ref="615672341"/>
    <nd ref="275199087"/>
    <tag k="highway" v="residential"/>
    <tag k="name" v="Tate Street"/>
  </way>
  <way id="25251450" version="7" timestamp="2010-07-09T21:09:59Z" uid="74617" user="JohnSmith" changeset="5176956">
    <nd ref="275199537"/>
    <nd ref="275199538"/>
    <nd ref="275199540"/>
    <nd ref="275199541"/>
    <nd ref="615672348"/>
    <nd ref="275199543"/>
    <tag k="highway" v="residential"/>
    <tag k="maxspeed" v="50"/>
    <tag k="maxspeed:source" v="default residential speed limit in Australia"/>
    <tag k="name" v="St Leonards Avenue"/>
  </way>
  <way id="25251450" version="8" timestamp="2012-01-16T20:46:31Z" uid="147510" user="woodpeck_fixbot" changeset="10410676">
    <nd ref="275199537"/>
    <nd ref="275199538"/>
    <nd ref="275199540"/>
    <nd ref="275199541"/>
    <nd ref="615672348"/>
    <nd ref="275199543"/>
    <tag k="highway" v="residential"/>
    <tag k="name" v="St Leonards Avenue"/>
  </way>
  <way id="25251460" version="6" timestamp="2010-07-09T21:02:05Z" uid="74617" user="JohnSmith" changeset="5176956">
    <nd ref="275199662"/>
    <nd ref="600398743"/>
    <nd ref="275199663"/>
    <tag k="highway" v="residential"/>
    <tag k="maxspeed" v="50"/>
    <tag k="maxspeed:source" v="default residential speed limit in Australia"/>
    <tag k="name" v="Blencowe Street"/>
  </way>
  <way id="25251460" version="7" timestamp="2012-01-16T20:46:32Z" uid="147510" user="woodpeck_fixbot" changeset="10410676">
    <nd ref="275199662"/>
    <nd ref="600398743"/>
    <nd ref="275199663"/>
    <tag k="highway" v="residential"/>
    <tag k="name" v="Blencowe Street"/>
  </way>
  <way id="25251475" version="7" timestamp="2010-07-09T21:02:36Z" uid="74617" user="JohnSmith" changeset="5176956">
    <nd ref="275199740"/>
    <nd ref="414916610"/>
    <nd ref="31487058"/>
    <nd ref="275199807"/>
    <tag k="highway" v="residential"/>
    <tag k="maxspeed" v="50"/>
    <tag k="maxspeed:source" v="default residential speed limit in Australia"/>
    <tag k="name" v="Blencowe Street"/>
  </way>
  <way id="25251475" version="8" timestamp="2012-01-16T20:46:33Z" uid="147510" user="woodpeck_fixbot" changeset="10410676">
    <nd ref="275199740"/>
    <nd ref="414916610"/>
    <nd ref="31487058"/>
    <nd ref="275199807"/>
    <tag k="highway" v="residential"/>
    <tag k="name" v="Blencowe Street"/>
  </way>
  <way id="25251511" version="10" timestamp="2010-07-09T21:01:15Z" uid="74617" user="JohnSmith" changeset="5176956">
    <nd ref="275199907"/>
    <nd ref="275199986"/>
    <nd ref="346654413"/>
    <nd ref="275199966"/>
    <nd ref="275199967"/>
    <nd ref="275201012"/>
    <nd ref="686401678"/>
    <nd ref="686401681"/>
    <tag k="highway" v="residential"/>
    <tag k="maxspeed" v="50"/>
    <tag k="maxspeed:source" v="default residential speed limit in Australia"/>
    <tag k="name" v="Vincent Street West"/>
  </way>
  <way id="25251511" version="11" timestamp="2010-10-26T00:41:23Z" uid="192584" user="ORYX" changeset="6178615">
    <nd ref="275199907"/>
    <nd ref="275199986"/>
    <nd ref="346654413"/>
    <nd ref="275199966"/>
    <nd ref="275199967"/>
    <nd ref="275201012"/>
    <nd ref="686401678"/>
    <tag k="highway" v="residential"/>
    <tag k="maxspeed" v="50"/>
    <tag k="maxspeed:source" v="default residential speed limit in Australia"/>
    <tag k="name" v="Vincent Street West"/>
  </way>
  <way id="25251511" version="12" timestamp="2011-08-29T12:52:17Z" uid="215053" user="Richard Stallard" changeset="9157231">
    <nd ref="275199907"/>
    <nd ref="275199986"/>
    <nd ref="346654413"/>
    <nd ref="275199966"/>
    <nd ref="275199967"/>
    <tag k="highway" v="residential"/>
    <tag k="maxspeed" v="50"/>
    <tag k="maxspeed:source" v="default residential speed limit in Australia"/>
    <tag k="name" v="Vincent Street West"/>
  </way>
  <way id="25251511" version="13" timestamp="2012-01-16T20:46:34Z" uid="147510" user="woodpeck_fixbot" changeset="10410676">
    <nd ref="275199907"/>
    <nd ref="275199986"/>
    <nd ref="346654413"/>
    <nd ref="275199966"/>
    <nd ref="275199967"/>
    <tag k="highway" v="residential"/>
    <tag k="name" v="Vincent Street West"/>
  </way>
  <way id="25251524" version="5" timestamp="2010-07-09T21:14:51Z" uid="74617" user="JohnSmith" changeset="5176956">
    <nd ref="275199986"/>
    <nd ref="275200031"/>
    <nd ref="275200032"/>
    <nd ref="275200033"/>
    <nd ref="275200034"/>
    <tag k="highway" v="residential"/>
    <tag k="maxspeed" v="50"/>
    <tag k="maxspeed:source" v="default residential speed limit in Australia"/>
    <tag k="name" v="Caddy Avenue"/>
  </way>
  <way id="25251524" version="6" timestamp="2010-08-27T13:48:41Z" uid="134344" user="Andrew Gregory" changeset="5607873">
    <nd ref="275199986"/>
    <nd ref="882469988"/>
    <nd ref="275200031"/>
    <nd ref="275200032"/>
    <nd ref="275200033"/>
    <nd ref="275200034"/>
    <tag k="highway" v="residential"/>
    <tag k="maxspeed" v="50"/>
    <tag k="maxspeed:source" v="default residential speed limit in Australia"/>
    <tag k="name" v="Caddy Avenue"/>
  </way>
  <way id="25251524" version="7" timestamp="2012-01-16T20:46:35Z" uid="147510" user="woodpeck_fixbot" changeset="10410676">
    <nd ref="275199986"/>
    <nd ref="882469988"/>
    <nd ref="275200031"/>
    <nd ref="275200032"/>
    <nd ref="275200033"/>
    <nd ref="275200034"/>
    <tag k="highway" v="residential"/>
    <tag k="name" v="Caddy Avenue"/>
  </way>
  <way id="25251532" version="5" timestamp="2010-07-09T20:59:18Z" uid="74617" user="JohnSmith" changeset="5176956">
    <nd ref="275200045"/>
    <nd ref="275200063"/>
    <nd ref="275204235"/>
    <nd ref="598766211"/>
    <tag k="highway" v="residential"/>
    <tag k="maxspeed" v="50"/>
    <tag k="maxspeed:source" v="default residential speed limit in Australia"/>
    <tag k="name" v="Warwick Street"/>
  </way>
  <way id="25251532" version="6" timestamp="2010-08-27T13:48:39Z" uid="134344" user="Andrew Gregory" changeset="5607873">
    <nd ref="275200045"/>
    <nd ref="275200063"/>
    <tag k="highway" v="residential"/>
    <tag k="maxspeed" v="50"/>
    <tag k="maxspeed:source" v="default residential speed limit in Australia"/>
    <tag k="name" v="Warwick Street"/>
  </way>
  <way id="25251532" version="7" timestamp="2010-08-27T14:09:45Z" uid="134344" user="Andrew Gregory" changeset="5608094">
    <nd ref="275200045"/>
    <nd ref="882488141"/>
    <nd ref="275200063"/>
    <tag k="highway" v="residential"/>
    <tag k="maxspeed" v="50"/>
    <tag k="maxspeed:source" v="default residential speed limit in Australia"/>
    <tag k="name" v="Warwick Street"/>
  </way>
  <way id="25251532" version="8" timestamp="2012-01-16T20:46:36Z" uid="147510" user="woodpeck_fixbot" changeset="10410676">
    <nd ref="275200045"/>
    <nd ref="882488141"/>
    <nd ref="275200063"/>
    <tag k="highway" v="residential"/>
    <tag k="name" v="Warwick Street"/>
  </way>
  <way id="25251562" version="7" timestamp="2010-07-09T21:03:21Z" uid="74617" user="JohnSmith" changeset="5176956">
    <nd ref="275200108"/>
    <nd ref="598615483"/>
    <nd ref="275200159"/>
    <nd ref="579731128"/>
    <nd ref="275200135"/>
    <nd ref="598615467"/>
    <nd ref="275200136"/>
    <tag k="highway" v="residential"/>
    <tag k="maxspeed" v="50"/>
    <tag k="maxspeed:source" v="default residential speed limit in Australia"/>
    <tag k="name" v="Bernard Street"/>
  </way>
  <way id="25251562" version="8" timestamp="2012-01-16T20:46:37Z" uid="147510" user="woodpeck_fixbot" changeset="10410676">
    <nd ref="275200108"/>
    <nd ref="598615483"/>
    <nd ref="275200159"/>
    <nd ref="579731128"/>
    <nd ref="275200135"/>
    <nd ref="598615467"/>
    <nd ref="275200136"/>
    <tag k="highway" v="residential"/>
    <tag k="name" v="Bernard Street"/>
  </way>
  <way id="25251569" version="5" timestamp="2010-07-09T20:56:59Z" uid="74617" user="JohnSmith" changeset="5176956">
    <nd ref="275200148"/>
    <nd ref="598615468"/>
    <nd ref="275200159"/>
    <tag k="highway" v="residential"/>
    <tag k="maxspeed" v="50"/>
    <tag k="maxspeed:source" v="default residential speed limit in Australia"/>
    <tag k="name" v="Newnham Street"/>
  </way>
  <way id="25251569" version="6" timestamp="2012-01-16T20:46:38Z" uid="147510" user="woodpeck_fixbot" changeset="10410676">
    <nd ref="275200148"/>
    <nd ref="598615468"/>
    <nd ref="275200159"/>
    <tag k="highway" v="residential"/>
    <tag k="name" v="Newnham Street"/>
  </way>
  <way id="25251593" version="6" timestamp="2010-07-09T21:13:03Z" uid="74617" user="JohnSmith" changeset="5176956">
    <nd ref="275200199"/>
    <nd ref="275200831"/>
    <tag k="highway" v="residential"/>
    <tag k="maxspeed" v="50"/>
    <tag k="maxspeed:source" v="default residential speed limit in Australia"/>
    <tag k="name" v="Holyrood Street"/>
  </way>
  <way id="25251593" version="7" timestamp="2012-01-16T20:46:40Z" uid="147510" user="woodpeck_fixbot" changeset="10410676">
    <nd ref="275200199"/>
    <nd ref="275200831"/>
    <tag k="highway" v="residential"/>
    <tag k="name" v="Holyrood Street"/>
  </way>
  <way id="25251599" version="5" timestamp="2010-07-09T21:06:29Z" uid="74617" user="JohnSmith" changeset="5176956">
    <nd ref="275200291"/>
    <nd ref="600291953"/>
    <nd ref="600291952"/>
    <nd ref="275200324"/>
    <tag k="highway" v="residential"/>
    <tag k="maxspeed" v="50"/>
    <tag k="maxspeed:source" v="default residential speed limit in Australia"/>
    <tag k="name" v="Kerr Street"/>
  </way>
  <way id="25251599" version="6" timestamp="2012-01-16T20:46:41Z" uid="147510" user="woodpeck_fixbot" changeset="10410676">
    <nd ref="275200291"/>
    <nd ref="600291953"/>
    <nd ref="600291952"/>
    <nd ref="275200324"/>
    <tag k="highway" v="residential"/>
    <tag k="name" v="Kerr Street"/>
  </way>
  <way id="25251599" version="7" timestamp="2012-03-24T07:56:52Z" uid="142807" user="SDavies" changeset="11081455">
    <nd ref="275200291"/>
    <nd ref="600291953"/>
    <nd ref="1688136207"/>
    <nd ref="1688136214"/>
    <nd ref="600291952"/>
    <nd ref="275200324"/>
    <tag k="highway" v="residential"/>
    <tag k="name" v="Kerr Street"/>
  </way>
  <way id="25251599" version="8" timestamp="2012-03-26T14:33:29Z" uid="142807" user="SDavies" changeset="11106685">
    <nd ref="275200291"/>
    <nd ref="600291953"/>
    <nd ref="1688136207"/>
    <nd ref="1691980985"/>
    <nd ref="1688136214"/>
    <nd ref="600291952"/>
    <nd ref="1691981023"/>
    <nd ref="275200324"/>
    <tag k="highway" v="residential"/>
    <tag k="name" v="Kerr Street"/>
  </way>
  <way id="25251603" version="4" timestamp="2010-07-09T21:05:09Z" uid="74617" user="JohnSmith" changeset="5176956">
    <nd ref="275200357"/>
    <nd ref="275200376"/>
    <tag k="highway" v="residential"/>
    <tag k="maxspeed" v="50"/>
    <tag k="maxspeed:source" v="default residential speed limit in Australia"/>
    <tag k="name" v="Abbotsford Street"/>
  </way>
  <way id="25251603" version="5" timestamp="2010-08-29T12:39:57Z" uid="134344" user="Andrew Gregory" changeset="5625308">
    <nd ref="275200357"/>
    <nd ref="886050980"/>
    <nd ref="275200376"/>
    <tag k="highway" v="residential"/>
    <tag k="maxspeed" v="50"/>
    <tag k="maxspeed:source" v="default residential speed limit in Australia"/>
    <tag k="name" v="Abbotsford Street"/>
  </way>
  <way id="25251603" version="6" timestamp="2012-01-16T20:46:42Z" uid="147510" user="woodpeck_fixbot" changeset="10410676">
    <nd ref="275200357"/>
    <nd ref="886050980"/>
    <nd ref="275200376"/>
    <tag k="highway" v="residential"/>
    <tag k="name" v="Abbotsford Street"/>
  </way>
  <way id="25251603" version="7" timestamp="2012-03-01T18:38:46Z" uid="142807" user="SDavies" changeset="10840844">
    <nd ref="275200357"/>
    <nd ref="886050980"/>
    <nd ref="1654707145"/>
    <nd ref="275200376"/>
    <tag k="highway" v="residential"/>
    <tag k="name" v="Abbotsford Street"/>
  </way>
  <way id="25251603" version="8" timestamp="2012-03-26T13:38:52Z" uid="142807" user="SDavies" changeset="11106139">
    <nd ref="275200357"/>
    <nd ref="886050980"/>
    <nd ref="1691941332"/>
    <nd ref="1654707145"/>
    <nd ref="275200376"/>
    <tag k="highway" v="residential"/>
    <tag k="name" v="Abbotsford Street"/>
  </way>
  <way id="25251613" version="7" timestamp="2010-07-09T21:02:09Z" uid="74617" user="JohnSmith" changeset="5176956">
    <nd ref="31036838"/>
    <nd ref="275200563"/>
    <nd ref="560618701"/>
    <tag k="highway" v="residential"/>
    <tag k="lanes" v="4"/>
    <tag k="maxspeed" v="50"/>
    <tag k="maxspeed:source" v="default residential speed limit in Australia"/>
    <tag k="name" v="Southport Street"/>
    <tag k="source" v="survey"/>
  </way>
  <way id="25251613" version="8" timestamp="2010-08-29T12:39:58Z" uid="134344" user="Andrew Gregory" changeset="5625308">
    <nd ref="31036838"/>
    <nd ref="886050962"/>
    <nd ref="275200563"/>
    <nd ref="886050987"/>
    <nd ref="560618701"/>
    <tag k="highway" v="residential"/>
    <tag k="lanes" v="4"/>
    <tag k="maxspeed" v="50"/>
    <tag k="maxspeed:source" v="default residential speed limit in Australia"/>
    <tag k="name" v="Southport Street"/>
    <tag k="source" v="survey"/>
  </way>
  <way id="25251613" version="9" timestamp="2012-01-16T20:46:43Z" uid="147510" user="woodpeck_fixbot" changeset="10410676">
    <nd ref="31036838"/>
    <nd ref="886050962"/>
    <nd ref="275200563"/>
    <nd ref="886050987"/>
    <nd ref="560618701"/>
    <tag k="highway" v="residential"/>
    <tag k="lanes" v="4"/>
    <tag k="name" v="Southport Street"/>
    <tag k="source" v="survey"/>
  </way>
  <way id="25251613" version="10" timestamp="2012-03-01T18:38:47Z" uid="142807" user="SDavies" changeset="10840844">
    <nd ref="31036838"/>
    <nd ref="886050962"/>
    <nd ref="275200563"/>
    <nd ref="1654706959"/>
    <nd ref="1654707218"/>
    <nd ref="886050987"/>
    <nd ref="560618701"/>
    <tag k="highway" v="residential"/>
    <tag k="lanes" v="4"/>
    <tag k="name" v="Southport Street"/>
    <tag k="source" v="survey"/>
  </way>
  <way id="25251639" version="7" timestamp="2010-03-29T15:15:08Z" uid="242497" user="vlchung" changeset="4268166">
    <nd ref="275200555"/>
    <nd ref="275200594"/>
    <nd ref="275200602"/>
    <nd ref="677518261"/>
    <nd ref="275200556"/>
    <tag k="highway" v="residential"/>
    <tag k="name" v="Oxford Close"/>
  </way>
  <way id="25251639" version="8" timestamp="2010-07-09T21:03:16Z" uid="74617" user="JohnSmith" changeset="5176956">
    <nd ref="275200555"/>
    <nd ref="275200594"/>
    <nd ref="275200602"/>
    <nd ref="677518261"/>
    <nd ref="275200556"/>
    <tag k="highway" v="residential"/>
    <tag k="maxspeed" v="50"/>
    <tag k="maxspeed:source" v="default residential speed limit in Australia"/>
    <tag k="name" v="Oxford Close"/>
  </way>
  <way id="25251639" version="9" timestamp="2012-01-16T20:46:44Z" uid="147510" user="woodpeck_fixbot" changeset="10410676">
    <nd ref="275200555"/>
    <nd ref="275200594"/>
    <nd ref="275200602"/>
    <nd ref="677518261"/>
    <nd ref="275200556"/>
    <tag k="highway" v="residential"/>
    <tag k="name" v="Oxford Close"/>
  </way>
  <way id="25251656" version="6" timestamp="2010-07-09T20:57:51Z" uid="74617" user="JohnSmith" changeset="5176956">
    <nd ref="275200563"/>
    <nd ref="275200594"/>
    <nd ref="275200595"/>
    <nd ref="600291997"/>
    <nd ref="600291999"/>
    <nd ref="560618716"/>
    <tag k="highway" v="residential"/>
    <tag k="maxspeed" v="50"/>
    <tag k="maxspeed:source" v="default residential speed limit in Australia"/>
    <tag k="name" v="Harrogate Street"/>
  </way>
  <way id="25251656" version="7" timestamp="2012-01-16T20:46:45Z" uid="147510" user="woodpeck_fixbot" changeset="10410676">
    <nd ref="275200563"/>
    <nd ref="275200594"/>
    <nd ref="275200595"/>
    <nd ref="600291997"/>
    <nd ref="600291999"/>
    <nd ref="560618716"/>
    <tag k="highway" v="residential"/>
    <tag k="name" v="Harrogate Street"/>
  </way>
  <way id="25251671" version="5" timestamp="2010-07-09T20:58:22Z" uid="74617" user="JohnSmith" changeset="5176956">
    <nd ref="275200602"/>
    <nd ref="566677454"/>
    <nd ref="275200648"/>
    <tag k="highway" v="residential"/>
    <tag k="maxspeed" v="50"/>
    <tag k="maxspeed:source" v="default residential speed limit in Australia"/>
    <tag k="name" v="Bermondsey Street"/>
  </way>
  <way id="25251671" version="6" timestamp="2012-01-16T20:46:46Z" uid="147510" user="woodpeck_fixbot" changeset="10410676">
    <nd ref="275200602"/>
    <nd ref="566677454"/>
    <nd ref="275200648"/>
    <tag k="highway" v="residential"/>
    <tag k="name" v="Bermondsey Street"/>
  </way>
  <way id="25251705" version="7" timestamp="2010-07-09T21:06:04Z" uid="74617" user="JohnSmith" changeset="5176956">
    <nd ref="275200831"/>
    <nd ref="600291966"/>
    <nd ref="598766200"/>
    <nd ref="275200905"/>
    <tag k="highway" v="residential"/>
    <tag k="maxspeed" v="50"/>
    <tag k="maxspeed:source" v="default residential speed limit in Australia"/>
    <tag k="name" v="Tower Street"/>
  </way>
  <way id="25251705" version="8" timestamp="2012-01-16T20:46:47Z" uid="147510" user="woodpeck_fixbot" changeset="10410676">
    <nd ref="275200831"/>
    <nd ref="600291966"/>
    <nd ref="598766200"/>
    <nd ref="275200905"/>
    <tag k="highway" v="residential"/>
    <tag k="name" v="Tower Street"/>
  </way>
  <way id="25251735" version="11" timestamp="2010-07-09T21:10:48Z" uid="74617" user="JohnSmith" changeset="5176956">
    <nd ref="275200972"/>
    <nd ref="275201193"/>
    <nd ref="603581362"/>
    <nd ref="275201128"/>
    <nd ref="275201221"/>
    <nd ref="275201072"/>
    <nd ref="275201010"/>
    <nd ref="686401672"/>
    <tag k="highway" v="residential"/>
    <tag k="maxspeed" v="50"/>
    <tag k="maxspeed:source" v="default residential speed limit in Australia"/>
    <tag k="name" v="Coldsteream Street"/>
  </way>
  <way id="25251735" version="12" timestamp="2010-10-26T00:41:23Z" uid="192584" user="ORYX" changeset="6178615">
    <nd ref="275200972"/>
    <nd ref="275201193"/>
    <nd ref="603581362"/>
    <nd ref="275201128"/>
    <nd ref="275201221"/>
    <nd ref="275201072"/>
    <nd ref="965537748"/>
    <nd ref="275201010"/>
    <nd ref="686401672"/>
    <tag k="highway" v="residential"/>
    <tag k="maxspeed" v="50"/>
    <tag k="maxspeed:source" v="default residential speed limit in Australia"/>
    <tag k="name" v="Coldsteream Street"/>
  </way>
  <way id="25251735" version="13" timestamp="2012-01-16T20:46:49Z" uid="147510" user="woodpeck_fixbot" changeset="10410676">
    <nd ref="275200972"/>
    <nd ref="275201193"/>
    <nd ref="603581362"/>
    <nd ref="275201128"/>
    <nd ref="275201221"/>
    <nd ref="275201072"/>
    <nd ref="965537748"/>
    <nd ref="275201010"/>
    <nd ref="686401672"/>
    <tag k="highway" v="residential"/>
    <tag k="name" v="Coldsteream Street"/>
  </way>
  <way id="25251758" version="7" timestamp="2010-07-09T20:59:17Z" uid="74617" user="JohnSmith" changeset="5176956">
    <nd ref="686401674"/>
    <nd ref="275201069"/>
    <nd ref="275201070"/>
    <nd ref="275201071"/>
    <tag k="highway" v="residential"/>
    <tag k="maxspeed" v="50"/>
    <tag k="maxspeed:source" v="default residential speed limit in Australia"/>
    <tag k="name" v="Barrington Street"/>
  </way>
  <way id="25251758" version="8" timestamp="2012-01-16T20:46:50Z" uid="147510" user="woodpeck_fixbot" changeset="10410676">
    <nd ref="686401674"/>
    <nd ref="275201069"/>
    <nd ref="275201070"/>
    <nd ref="275201071"/>
    <tag k="highway" v="residential"/>
    <tag k="name" v="Barrington Street"/>
  </way>
  <way id="25251768" version="5" timestamp="2010-07-09T21:14:02Z" uid="74617" user="JohnSmith" changeset="5176956">
    <nd ref="275201081"/>
    <nd ref="275201170"/>
    <nd ref="275201105"/>
    <tag k="highway" v="residential"/>
    <tag k="maxspeed" v="50"/>
    <tag k="maxspeed:source" v="default residential speed limit in Australia"/>
    <tag k="name" v="Carlton Street"/>
  </way>
  <way id="25251768" version="6" timestamp="2012-01-16T20:46:51Z" uid="147510" user="woodpeck_fixbot" changeset="10410676">
    <nd ref="275201081"/>
    <nd ref="275201170"/>
    <nd ref="275201105"/>
    <tag k="highway" v="residential"/>
    <tag k="name" v="Carlton Street"/>
  </way>
  <way id="25251788" version="4" timestamp="2010-07-09T21:03:21Z" uid="74617" user="JohnSmith" changeset="5176956">
    <nd ref="275201128"/>
    <nd ref="275201170"/>
    <nd ref="275201171"/>
    <nd ref="275201172"/>
    <nd ref="275201173"/>
    <tag k="highway" v="residential"/>
    <tag k="maxspeed" v="50"/>
    <tag k="maxspeed:source" v="default residential speed limit in Australia"/>
    <tag k="name" v="Argyle Street"/>
  </way>
  <way id="25251788" version="5" timestamp="2010-08-29T12:39:55Z" uid="134344" user="Andrew Gregory" changeset="5625308">
    <nd ref="275201128"/>
    <nd ref="275201170"/>
    <nd ref="275201171"/>
    <nd ref="275201172"/>
    <nd ref="886050935"/>
    <nd ref="275201173"/>
    <tag k="highway" v="residential"/>
    <tag k="maxspeed" v="50"/>
    <tag k="maxspeed:source" v="default residential speed limit in Australia"/>
    <tag k="name" v="Argyle Street"/>
  </way>
  <way id="25251788" version="6" timestamp="2012-01-16T20:46:52Z" uid="147510" user="woodpeck_fixbot" changeset="10410676">
    <nd ref="275201128"/>
    <nd ref="275201170"/>
    <nd ref="275201171"/>
    <nd ref="275201172"/>
    <nd ref="886050935"/>
    <nd ref="275201173"/>
    <tag k="highway" v="residential"/>
    <tag k="name" v="Argyle Street"/>
  </way>
  <way id="25251800" version="4" timestamp="2010-07-09T21:08:34Z" uid="74617" user="JohnSmith" changeset="5176956">
    <nd ref="275201193"/>
    <nd ref="275201211"/>
    <tag k="highway" v="residential"/>
    <tag k="maxspeed" v="50"/>
    <tag k="maxspeed:source" v="default residential speed limit in Australia"/>
    <tag k="name" v="Brighton Street"/>
  </way>
  <way id="25251800" version="5" timestamp="2012-01-16T20:46:52Z" uid="147510" user="woodpeck_fixbot" changeset="10410676">
    <nd ref="275201193"/>
    <nd ref="275201211"/>
    <tag k="highway" v="residential"/>
    <tag k="name" v="Brighton Street"/>
  </way>
  <way id="25251824" version="3" timestamp="2010-07-09T20:56:28Z" uid="74617" user="JohnSmith" changeset="5176956">
    <nd ref="275201221"/>
    <nd ref="275201253"/>
    <tag k="highway" v="residential"/>
    <tag k="maxspeed" v="50"/>
    <tag k="maxspeed:source" v="default residential speed limit in Australia"/>
    <tag k="name" v="Antrim Street"/>
  </way>
  <way id="25251824" version="4" timestamp="2012-01-16T20:46:53Z" uid="147510" user="woodpeck_fixbot" changeset="10410676">
    <nd ref="275201221"/>
    <nd ref="275201253"/>
    <tag k="highway" v="residential"/>
    <tag k="name" v="Antrim Street"/>
  </way>
  <way id="25251928" version="5" timestamp="2008-07-12T06:50:07Z" uid="27600" user="Islanit" changeset="469615">
    <nd ref="253241848"/>
    <nd ref="266537006"/>
    <nd ref="266537016"/>
    <nd ref="266537007"/>
    <tag k="created_by" v="Potlatch 0.9c"/>
    <tag k="highway" v="residential"/>
    <tag k="name" v="Am Sportplatz"/>
  </way>
  <way id="25251965" version="4" timestamp="2010-07-09T20:54:44Z" uid="74617" user="JohnSmith" changeset="5176956">
    <nd ref="275201071"/>
    <nd ref="275201081"/>
    <nd ref="275201072"/>
    <tag k="highway" v="residential"/>
    <tag k="maxspeed" v="50"/>
    <tag k="maxspeed:source" v="default residential speed limit in Australia"/>
    <tag k="name" v="Connaught Street"/>
  </way>
  <way id="25251965" version="5" timestamp="2012-01-16T20:46:55Z" uid="147510" user="woodpeck_fixbot" changeset="10410676">
    <nd ref="275201071"/>
    <nd ref="275201081"/>
    <nd ref="275201072"/>
    <tag k="highway" v="residential"/>
    <tag k="name" v="Connaught Street"/>
  </way>
  <way id="25251239" version="9" timestamp="2012-07-19T12:39:23Z" uid="722137" user="OSMF Redaction Account" changeset="12325642">
    <nd ref="275197691"/>
    <nd ref="275197784"/>
    <nd ref="275197785"/>
    <nd ref="275197786"/>
    <nd ref="275197787"/>
    <nd ref="275198205"/>
    <nd ref="275197788"/>
    <nd ref="275197790"/>
    <nd ref="275197791"/>
    <nd ref="275197793"/>
    <nd ref="275197794"/>
    <nd ref="275197796"/>
    <nd ref="275197797"/>
    <nd ref="275197798"/>
    <nd ref="965537642"/>
    <nd ref="275197799"/>
    <nd ref="275196817"/>
    <nd ref="275197800"/>
    <tag k="highway" v="residential"/>
    <tag k="name" v="Lake Monger Drive"/>
    <tag k="source" v="survey"/>
  </way>
  <way id="25251360" version="11" timestamp="2012-07-19T12:39:21Z" uid="722137" user="OSMF Redaction Account" changeset="12325642">
    <nd ref="275198729"/>
    <nd ref="414916612"/>
    <nd ref="275198777"/>
    <nd ref="1688150864"/>
    <nd ref="275198912"/>
    <tag k="highway" v="residential"/>
    <tag k="name" v="McCourt Street"/>
  </way>
  <way id="25251639" version="10" timestamp="2012-07-19T12:37:42Z" uid="722137" user="OSMF Redaction Account" changeset="12325642">
    <nd ref="275200555"/>
    <nd ref="275200594"/>
    <nd ref="275200602"/>
    <nd ref="275200556"/>
    <tag k="highway" v="residential"/>
    <tag k="name" v="Oxford Close"/>
  </way>
  <way id="25251928" version="6" timestamp="2012-08-09T20:33:14Z" uid="349191" user="Glühwürmchen" changeset="12673451">
    <nd ref="253241848"/>
    <nd ref="266537006"/>
    <nd ref="1859368170"/>
    <nd ref="266537016"/>
    <nd ref="266537007"/>
    <tag k="highway" v="residential"/>
    <tag k="name" v="Am Sportplatz"/>
  </way>
  <way id="25251928" version="7" timestamp="2012-08-24T23:37:44Z" uid="349191" user="Glühwürmchen" changeset="12850675">
    <nd ref="253241848"/>
    <nd ref="1881780982"/>
    <nd ref="266537006"/>
    <nd ref="1859368170"/>
    <nd ref="266537016"/>
    <nd ref="266537007"/>
    <tag k="highway" v="residential"/>
    <tag k="name" v="Am Sportplatz"/>
  </way>
  <way id="25251928" version="8" timestamp="2012-08-26T12:51:58Z" uid="349191" user="Glühwürmchen" changeset="12866006">
    <nd ref="253241848"/>
    <nd ref="1881780982"/>
    <nd ref="266537006"/>
    <nd ref="1883671273"/>
    <nd ref="1859368170"/>
    <nd ref="266537016"/>
    <nd ref="266537007"/>
    <tag k="highway" v="residential"/>
    <tag k="name" v="Am Sportplatz"/>
  </way>
</osm>
