<?xml version='1.0' encoding='UTF-8'?>
<osm version="0.6" generator="libosmium/2.20.0">
  <way id="25287201" version="2" timestamp="2009-10-07T16:18:21Z" uid="86259" user="hasse_osm_korinthenkacker" changeset="2773292">
    <nd ref="275443678"/>
    <nd ref="275443681"/>
    <nd ref="275443683"/>
    <nd ref="275443685"/>
    <nd ref="275443688"/>
    <nd ref="275443690"/>
    <nd ref="275443692"/>
    <nd ref="275443694"/>
    <tag k="highway" v="residential"/>
    <tag k="name" v="Thomas-Mann-Straße"/>
  </way>
  <way id="25287201" version="3" timestamp="2010-02-27T18:39:06Z" uid="40397" user="Zartbitter" changeset="3991294">
    <nd ref="275443678"/>
    <nd ref="275443681"/>
    <nd ref="275443683"/>
    <nd ref="275443685"/>
    <nd ref="275443688"/>
    <nd ref="275443690"/>
    <nd ref="275443692"/>
    <nd ref="275443694"/>
    <tag k="highway" v="residential"/>
    <tag k="maxspeed" v="30"/>
    <tag k="name" v="Thomas-Mann-Straße"/>
  </way>
  <way id="25287201" version="4" timestamp="2011-06-05T23:05:26Z" uid="52495" user="seawolff" changeset="8355389">
    <nd ref="275443678"/>
    <nd ref="275443681"/>
    <nd ref="275443683"/>
    <nd ref="275443685"/>
    <nd ref="275443688"/>
    <nd ref="275443690"/>
    <nd ref="275443694"/>
    <tag k="highway" v="residential"/>
    <tag k="maxspeed" v="30"/>
    <tag k="name" v="Thomas-Mann-Straße"/>
  </way>
  <way id="25287201" version="5" timestamp="2011-08-22T10:28:22Z" uid="127263" user="sirtenby" changeset="9092645">
    <nd ref="275443678"/>
    <nd ref="1408281383"/>
    <nd ref="1408281404"/>
    <nd ref="1408281508"/>
    <nd ref="275443683"/>
    <nd ref="1408281722"/>
    <nd ref="275443685"/>
    <nd ref="1408281800"/>
    <nd ref="1408281863"/>
    <nd ref="275443688"/>
    <nd ref="1408281935"/>
    <nd ref="275443690"/>
    <nd ref="1408282014"/>
    <nd ref="1408282038"/>
    <nd ref="275443694"/>
    <tag k="highway" v="residential"/>
    <tag k="maxspeed" v="30"/>
    <tag k="name" v="Thomas-Mann-Straße"/>
  </way>
  <way id="25287205" version="8" timestamp="2010-03-27T23:44:01Z" uid="20587" user="balrog-kun" changeset="4250871">
    <nd ref="49752922"/>
    <nd ref="49752928"/>
    <tag k="bridge" v="yes"/>
    <tag k="created_by" v="Potlatch 0.9c"/>
    <tag k="highway" v="motorway"/>
    <tag k="name" v="I-5"/>
    <tag k="name_1" v="San Diego Freeway"/>
    <tag k="oneway" v="yes"/>
    <tag k="ref" v="I 5"/>
    <tag k="tiger:cfcc" v="A19"/>
    <tag k="tiger:county" v="San Diego, CA"/>
    <tag k="tiger:name_base" v="I-5"/>
    <tag k="tiger:name_base_1" v="San Diego"/>
    <tag k="tiger:name_type_1" v="Fwy"/>
    <tag k="tiger:reviewed" v="no"/>
    <tag k="tiger:source" v="tiger_import_dch_v0.6_20070809"/>
    <tag k="tiger:tlid" v="195741308:195741311:195741317"/>
  </way>
  <way id="25287205" version="9" timestamp="2011-07-31T13:40:43Z" uid="207745" user="NE2" changeset="8880952">
    <nd ref="49752922"/>
    <nd ref="49752928"/>
    <tag k="bridge" v="yes"/>
    <tag k="highway" v="motorway"/>
    <tag k="name" v="San Diego Freeway"/>
    <tag k="oneway" v="yes"/>
    <tag k="ref" v="I 5"/>
    <tag k="tiger:cfcc" v="A19"/>
    <tag k="tiger:county" v="San Diego, CA"/>
    <tag k="tiger:name_base" v="I-5"/>
    <tag k="tiger:name_base_1" v="San Diego"/>
    <tag k="tiger:name_type_1" v="Fwy"/>
    <tag k="tiger:reviewed" v="no"/>
    <tag k="tiger:source" v="tiger_import_dch_v0.6_20070809"/>
    <tag k="tiger:tlid" v="195741308:195741311:195741317"/>
  </way>
  <way id="25287205" version="10" timestamp="2011-08-02T08:08:05Z" uid="207745" user="NE2" changeset="8898279">
    <nd ref="49752922"/>
    <nd ref="49752928"/>
    <tag k="bridge" v="yes"/>
    <tag k="highway" v="motorway"/>
    <tag k="lanes" v="4"/>
    <tag k="name" v="San Diego Freeway"/>
    <tag k="oneway" v="yes"/>
    <tag k="ref" v="I 5"/>
    <tag k="tiger:cfcc" v="A19"/>
    <tag k="tiger:county" v="San Diego, CA"/>
    <tag k="tiger:name_base" v="I-5"/>
    <tag k="tiger:name_base_1" v="San Diego"/>
    <tag k="tiger:name_type_1" v="Fwy"/>
    <tag k="tiger:reviewed" v="no"/>
    <tag k="tiger:source" v="tiger_import_dch_v0.6_20070809"/>
    <tag k="tiger:tlid" v="195741308:195741311:195741317"/>
  </way>
  <way id="25287205" version="11" timestamp="2011-10-16T08:33:37Z" uid="207745" user="NE2" changeset="9569847">
    <nd ref="49752922"/>
    <nd ref="49752928"/>
    <tag k="bicycle" v="no"/>
    <tag k="bridge" v="yes"/>
    <tag k="highway" v="motorway"/>
    <tag k="lanes" v="4"/>
    <tag k="name" v="San Diego Freeway"/>
    <tag k="oneway" v="yes"/>
    <tag k="ref" v="I 5"/>
    <tag k="tiger:cfcc" v="A19"/>
    <tag k="tiger:county" v="San Diego, CA"/>
    <tag k="tiger:name_base" v="I-5"/>
    <tag k="tiger:name_base_1" v="San Diego"/>
    <tag k="tiger:name_type_1" v="Fwy"/>
    <tag k="tiger:reviewed" v="no"/>
    <tag k="tiger:source" v="tiger_import_dch_v0.6_20070809"/>
    <tag k="tiger:tlid" v="195741308:195741311:195741317"/>
  </way>
  <way id="25287205" version="12" timestamp="2011-11-25T15:09:18Z" uid="207745" user="NE2" changeset="9943893">
    <nd ref="49752922"/>
    <nd ref="49752928"/>
    <tag k="bicycle" v="no"/>
    <tag k="bridge" v="yes"/>
    <tag k="hgv" v="designated"/>
    <tag k="highway" v="motorway"/>
    <tag k="lanes" v="4"/>
    <tag k="name" v="San Diego Freeway"/>
    <tag k="oneway" v="yes"/>
    <tag k="ref" v="I 5"/>
    <tag k="tiger:cfcc" v="A19"/>
    <tag k="tiger:county" v="San Diego, CA"/>
    <tag k="tiger:name_base" v="I-5"/>
    <tag k="tiger:name_base_1" v="San Diego"/>
    <tag k="tiger:name_type_1" v="Fwy"/>
    <tag k="tiger:reviewed" v="no"/>
    <tag k="tiger:source" v="tiger_import_dch_v0.6_20070809"/>
    <tag k="tiger:tlid" v="195741308:195741311:195741317"/>
  </way>
  <way id="25287207" version="5" timestamp="2010-03-27T23:44:01Z" uid="20587" user="balrog-kun" changeset="4250871">
    <nd ref="49752928"/>
    <nd ref="49752930"/>
    <nd ref="49750635"/>
    <tag k="created_by" v="Potlatch 0.9c"/>
    <tag k="highway" v="motorway"/>
    <tag k="name" v="I-5"/>
    <tag k="name_1" v="San Diego Freeway"/>
    <tag k="oneway" v="yes"/>
    <tag k="ref" v="I 5"/>
    <tag k="tiger:cfcc" v="A19"/>
    <tag k="tiger:county" v="San Diego, CA"/>
    <tag k="tiger:name_base" v="I-5"/>
    <tag k="tiger:name_base_1" v="San Diego"/>
    <tag k="tiger:name_type_1" v="Fwy"/>
    <tag k="tiger:reviewed" v="no"/>
    <tag k="tiger:source" v="tiger_import_dch_v0.6_20070809"/>
    <tag k="tiger:tlid" v="195741308:195741311:195741317"/>
  </way>
  <way id="25287207" version="6" timestamp="2011-07-31T13:41:19Z" uid="207745" user="NE2" changeset="8880952">
    <nd ref="49752928"/>
    <nd ref="49752930"/>
    <nd ref="49750635"/>
    <tag k="highway" v="motorway"/>
    <tag k="name" v="San Diego Freeway"/>
    <tag k="oneway" v="yes"/>
    <tag k="ref" v="I 5"/>
    <tag k="tiger:cfcc" v="A19"/>
    <tag k="tiger:county" v="San Diego, CA"/>
    <tag k="tiger:name_base" v="I-5"/>
    <tag k="tiger:name_base_1" v="San Diego"/>
    <tag k="tiger:name_type_1" v="Fwy"/>
    <tag k="tiger:reviewed" v="no"/>
    <tag k="tiger:source" v="tiger_import_dch_v0.6_20070809"/>
    <tag k="tiger:tlid" v="195741308:195741311:195741317"/>
  </way>
  <way id="25287207" version="7" timestamp="2011-08-02T08:08:54Z" uid="207745" user="NE2" changeset="8898279">
    <nd ref="49752928"/>
    <nd ref="49752930"/>
    <nd ref="49750635"/>
    <tag k="highway" v="motorway"/>
    <tag k="lanes" v="4"/>
    <tag k="name" v="San Diego Freeway"/>
    <tag k="oneway" v="yes"/>
    <tag k="ref" v="I 5"/>
    <tag k="tiger:cfcc" v="A19"/>
    <tag k="tiger:county" v="San Diego, CA"/>
    <tag k="tiger:name_base" v="I-5"/>
    <tag k="tiger:name_base_1" v="San Diego"/>
    <tag k="tiger:name_type_1" v="Fwy"/>
    <tag k="tiger:reviewed" v="no"/>
    <tag k="tiger:source" v="tiger_import_dch_v0.6_20070809"/>
    <tag k="tiger:tlid" v="195741308:195741311:195741317"/>
  </way>
  <way id="25287207" version="8" timestamp="2011-10-16T08:33:58Z" uid="207745" user="NE2" changeset="9569847">
    <nd ref="49752928"/>
    <nd ref="49752930"/>
    <nd ref="49750635"/>
    <tag k="bicycle" v="no"/>
    <tag k="highway" v="motorway"/>
    <tag k="lanes" v="4"/>
    <tag k="name" v="San Diego Freeway"/>
    <tag k="oneway" v="yes"/>
    <tag k="ref" v="I 5"/>
    <tag k="tiger:cfcc" v="A19"/>
    <tag k="tiger:county" v="San Diego, CA"/>
    <tag k="tiger:name_base" v="I-5"/>
    <tag k="tiger:name_base_1" v="San Diego"/>
    <tag k="tiger:name_type_1" v="Fwy"/>
    <tag k="tiger:reviewed" v="no"/>
    <tag k="tiger:source" v="tiger_import_dch_v0.6_20070809"/>
    <tag k="tiger:tlid" v="195741308:195741311:195741317"/>
  </way>
  <way id="25287207" version="9" timestamp="2011-11-25T15:11:11Z" uid="207745" user="NE2" changeset="9943893">
    <nd ref="49752928"/>
    <nd ref="49752930"/>
    <nd ref="49750635"/>
    <tag k="bicycle" v="no"/>
    <tag k="hgv" v="designated"/>
    <tag k="highway" v="motorway"/>
    <tag k="lanes" v="4"/>
    <tag k="name" v="San Diego Freeway"/>
    <tag k="oneway" v="yes"/>
    <tag k="ref" v="I 5"/>
    <tag k="tiger:cfcc" v="A19"/>
    <tag k="tiger:county" v="San Diego, CA"/>
    <tag k="tiger:name_base" v="I-5"/>
    <tag k="tiger:name_base_1" v="San Diego"/>
    <tag k="tiger:name_type_1" v="Fwy"/>
    <tag k="tiger:reviewed" v="no"/>
    <tag k="tiger:source" v="tiger_import_dch_v0.6_20070809"/>
    <tag k="tiger:tlid" v="195741308:195741311:195741317"/>
  </way>
  <way id="25287267" version="150" timestamp="2010-03-27T23:44:02Z" uid="20587" user="balrog-kun" changeset="4250871">
    <nd ref="49751298"/>
    <nd ref="49751299"/>
    <nd ref="48949288"/>
    <nd ref="49751304"/>
    <nd ref="48857795"/>
    <nd ref="49751309"/>
    <nd ref="48857791"/>
    <nd ref="48973699"/>
    <nd ref="48959808"/>
    <nd ref="49751318"/>
    <nd ref="275950391"/>
    <nd ref="49751322"/>
    <tag k="created_by" v="Potlatch 0.10f"/>
    <tag k="highway" v="motorway"/>
    <tag k="name" v="I-5"/>
    <tag k="name_1" v="San Diego Freeway"/>
    <tag k="oneway" v="yes"/>
    <tag k="ref" v="I 5"/>
    <tag k="tiger:cfcc" v="A15"/>
    <tag k="tiger:county" v="San Diego, CA"/>
    <tag k="tiger:name_base" v="I-5"/>
    <tag k="tiger:name_base_1" v="San Diego"/>
    <tag k="tiger:name_type_1" v="Fwy"/>
    <tag k="tiger:separated" v="yes"/>
    <tag k="tiger:source" v="tiger_import_dch_v0.6_20070809"/>
    <tag k="tiger:tlid" v="195756022:195756024:195756019:195742436:195408192:195408193:195300290:195413093:195300303:195755104:195734366:195746179:195746180:195300369:195300407:195689188:195689189:195300293:195734429:195734430:195300418:195300420:195734355:195734356:195392553:19530"/>
  </way>
  <way id="25287267" version="151" timestamp="2011-07-31T13:39:57Z" uid="207745" user="NE2" changeset="8880952">
    <nd ref="49751298"/>
    <nd ref="49751299"/>
    <nd ref="48949288"/>
    <nd ref="49751304"/>
    <nd ref="48857795"/>
    <nd ref="49751309"/>
    <nd ref="48857791"/>
    <nd ref="48973699"/>
    <nd ref="48959808"/>
    <nd ref="49751318"/>
    <nd ref="275950391"/>
    <nd ref="49751322"/>
    <tag k="highway" v="motorway"/>
    <tag k="name" v="San Diego Freeway"/>
    <tag k="oneway" v="yes"/>
    <tag k="ref" v="I 5"/>
    <tag k="tiger:cfcc" v="A15"/>
    <tag k="tiger:county" v="San Diego, CA"/>
    <tag k="tiger:name_base" v="I-5"/>
    <tag k="tiger:name_base_1" v="San Diego"/>
    <tag k="tiger:name_type_1" v="Fwy"/>
    <tag k="tiger:separated" v="yes"/>
    <tag k="tiger:source" v="tiger_import_dch_v0.6_20070809"/>
    <tag k="tiger:tlid" v="195756022:195756024:195756019:195742436:195408192:195408193:195300290:195413093:195300303:195755104:195734366:195746179:195746180:195300369:195300407:195689188:195689189:195300293:195734429:195734430:195300418:195300420:195734355:195734356:195392553:19530"/>
  </way>
  <way id="25287267" version="152" timestamp="2011-08-02T08:07:19Z" uid="207745" user="NE2" changeset="8898279">
    <nd ref="49751298"/>
    <nd ref="49751299"/>
    <nd ref="48949288"/>
    <nd ref="49751304"/>
    <nd ref="48857795"/>
    <nd ref="49751309"/>
    <nd ref="48857791"/>
    <nd ref="48973699"/>
    <nd ref="48959808"/>
    <nd ref="49751318"/>
    <nd ref="275950391"/>
    <nd ref="49751322"/>
    <tag k="highway" v="motorway"/>
    <tag k="lanes" v="4"/>
    <tag k="name" v="San Diego Freeway"/>
    <tag k="oneway" v="yes"/>
    <tag k="ref" v="I 5"/>
    <tag k="tiger:cfcc" v="A15"/>
    <tag k="tiger:county" v="San Diego, CA"/>
    <tag k="tiger:name_base" v="I-5"/>
    <tag k="tiger:name_base_1" v="San Diego"/>
    <tag k="tiger:name_type_1" v="Fwy"/>
    <tag k="tiger:separated" v="yes"/>
    <tag k="tiger:source" v="tiger_import_dch_v0.6_20070809"/>
    <tag k="tiger:tlid" v="195756022:195756024:195756019:195742436:195408192:195408193:195300290:195413093:195300303:195755104:195734366:195746179:195746180:195300369:195300407:195689188:195689189:195300293:195734429:195734430:195300418:195300420:195734355:195734356:195392553:19530"/>
  </way>
  <way id="25287267" version="153" timestamp="2011-10-16T08:32:47Z" uid="207745" user="NE2" changeset="9569847">
    <nd ref="49751298"/>
    <nd ref="49751299"/>
    <nd ref="48949288"/>
    <nd ref="49751304"/>
    <nd ref="48857795"/>
    <nd ref="49751309"/>
    <nd ref="48857791"/>
    <nd ref="48973699"/>
    <nd ref="48959808"/>
    <nd ref="49751318"/>
    <nd ref="275950391"/>
    <nd ref="49751322"/>
    <tag k="bicycle" v="no"/>
    <tag k="highway" v="motorway"/>
    <tag k="lanes" v="4"/>
    <tag k="name" v="San Diego Freeway"/>
    <tag k="oneway" v="yes"/>
    <tag k="ref" v="I 5"/>
    <tag k="tiger:cfcc" v="A15"/>
    <tag k="tiger:county" v="San Diego, CA"/>
    <tag k="tiger:name_base" v="I-5"/>
    <tag k="tiger:name_base_1" v="San Diego"/>
    <tag k="tiger:name_type_1" v="Fwy"/>
    <tag k="tiger:separated" v="yes"/>
    <tag k="tiger:source" v="tiger_import_dch_v0.6_20070809"/>
    <tag k="tiger:tlid" v="195756022:195756024:195756019:195742436:195408192:195408193:195300290:195413093:195300303:195755104:195734366:195746179:195746180:195300369:195300407:195689188:195689189:195300293:195734429:195734430:195300418:195300420:195734355:195734356:195392553:19530"/>
  </way>
  <way id="25287267" version="154" timestamp="2011-11-10T17:40:20Z" uid="239998" user="Sundance" changeset="9790611">
    <nd ref="49751298"/>
    <nd ref="49751299"/>
    <nd ref="48949288"/>
    <nd ref="49751304"/>
    <nd ref="48857795"/>
    <nd ref="49751309"/>
    <nd ref="1497485106"/>
    <tag k="bicycle" v="no"/>
    <tag k="highway" v="motorway"/>
    <tag k="is_in" v="San Diego, CA"/>
    <tag k="lanes" v="4"/>
    <tag k="name" v="San Diego Freeway"/>
    <tag k="oneway" v="yes"/>
    <tag k="ref" v="I 5"/>
    <tag k="tiger:source" v="tiger_import_dch_v0.6_20070809"/>
    <tag k="tiger:tlid" v="195756022:195756024:195756019:195742436:195408192:195408193:195300290:195413093:195300303:195755104:195734366:195746179:195746180:195300369:195300407:195689188:195689189:195300293:195734429:195734430:195300418:195300420:195734355:195734356:195392553:19530"/>
  </way>
  <way id="25287267" version="155" timestamp="2011-11-25T15:14:14Z" uid="207745" user="NE2" changeset="9943893">
    <nd ref="49751298"/>
    <nd ref="49751299"/>
    <nd ref="48949288"/>
    <nd ref="49751304"/>
    <nd ref="48857795"/>
    <nd ref="49751309"/>
    <nd ref="1497485106"/>
    <tag k="bicycle" v="no"/>
    <tag k="hgv" v="designated"/>
    <tag k="highway" v="motorway"/>
    <tag k="is_in" v="San Diego, CA"/>
    <tag k="lanes" v="4"/>
    <tag k="name" v="San Diego Freeway"/>
    <tag k="oneway" v="yes"/>
    <tag k="ref" v="I 5"/>
    <tag k="tiger:source" v="tiger_import_dch_v0.6_20070809"/>
    <tag k="tiger:tlid" v="195756022:195756024:195756019:195742436:195408192:195408193:195300290:195413093:195300303:195755104:195734366:195746179:195746180:195300369:195300407:195689188:195689189:195300293:195734429:195734430:195300418:195300420:195734355:195734356:195392553:19530"/>
  </way>
  <way id="25287689" version="3" timestamp="2010-03-27T23:44:02Z" uid="20587" user="balrog-kun" changeset="4250871">
    <nd ref="275445483"/>
    <nd ref="86880767"/>
    <nd ref="86880769"/>
    <nd ref="86880772"/>
    <tag k="created_by" v="Potlatch 0.9c"/>
    <tag k="highway" v="motorway_link"/>
    <tag k="name" v="Geysers Road"/>
    <tag k="tiger:cfcc" v="A11"/>
    <tag k="tiger:county" v="Mendocino, CA"/>
    <tag k="tiger:name_base" v="Geysers"/>
    <tag k="tiger:name_type" v="Rd"/>
    <tag k="tiger:reviewed" v="no"/>
    <tag k="tiger:separated" v="no"/>
    <tag k="tiger:source" v="tiger_import_dch_v0.6_20070809"/>
    <tag k="tiger:tlid" v="67276103:67294115:67276166"/>
  </way>
  <way id="25287201" version="6" timestamp="2012-06-14T10:35:19Z" uid="40397" user="Zartbitter" changeset="11893579">
    <nd ref="275443678"/>
    <nd ref="1408281383"/>
    <nd ref="1408281404"/>
    <nd ref="1408281508"/>
    <nd ref="275443683"/>
    <nd ref="1408281722"/>
    <nd ref="275443685"/>
    <nd ref="1408281800"/>
    <nd ref="1408281863"/>
    <nd ref="275443688"/>
    <nd ref="1408281935"/>
    <nd ref="275443690"/>
    <nd ref="1408282014"/>
    <nd ref="1787143913"/>
    <nd ref="1408282038"/>
    <nd ref="275443694"/>
    <tag k="highway" v="residential"/>
    <tag k="maxspeed" v="30"/>
    <tag k="name" v="Thomas-Mann-Straße"/>
  </way>
  <way id="25287205" version="13" timestamp="2012-07-20T09:10:48Z" uid="199837" user="happy5214" changeset="12369563">
    <nd ref="49752922"/>
    <nd ref="49752928"/>
    <tag k="bicycle" v="no"/>
    <tag k="bridge" v="yes"/>
    <tag k="hgv" v="designated"/>
    <tag k="highway" v="motorway"/>
    <tag k="lanes" v="4"/>
    <tag k="layer" v="1"/>
    <tag k="name" v="San Diego Freeway"/>
    <tag k="oneway" v="yes"/>
    <tag k="ref" v="I 5"/>
    <tag k="tiger:cfcc" v="A19"/>
    <tag k="tiger:county" v="San Diego, CA"/>
    <tag k="tiger:name_base" v="I-5"/>
    <tag k="tiger:name_base_1" v="San Diego"/>
    <tag k="tiger:name_type_1" v="Fwy"/>
    <tag k="tiger:reviewed" v="no"/>
    <tag k="tiger:source" v="tiger_import_dch_v0.6_20070809"/>
    <tag k="tiger:tlid" v="195741308:195741311:195741317"/>
  </way>
  <way id="25287205" version="14" timestamp="2012-08-04T17:53:13Z" uid="587790" user="JaggedMind" changeset="12612198">
    <nd ref="49752922"/>
    <nd ref="49752928"/>
    <tag k="bicycle" v="no"/>
    <tag k="bridge" v="yes"/>
    <tag k="hgv" v="designated"/>
    <tag k="highway" v="motorway"/>
    <tag k="lanes" v="4"/>
    <tag k="layer" v="1"/>
    <tag k="name" v="San Diego Freeway"/>
    <tag k="oneway" v="yes"/>
    <tag k="ref" v="I 5"/>
    <tag k="tiger:cfcc" v="A19"/>
    <tag k="tiger:county" v="San Diego, CA"/>
    <tag k="tiger:name_base" v="I-5"/>
    <tag k="tiger:name_base_1" v="San Diego"/>
    <tag k="tiger:name_type_1" v="Fwy"/>
    <tag k="tiger:reviewed" v="no"/>
  </way>
  <way id="25287207" version="10" timestamp="2012-08-04T17:54:22Z" uid="587790" user="JaggedMind" changeset="12612198">
    <nd ref="49752928"/>
    <nd ref="49752930"/>
    <nd ref="49750635"/>
    <tag k="bicycle" v="no"/>
    <tag k="hgv" v="designated"/>
    <tag k="highway" v="motorway"/>
    <tag k="lanes" v="4"/>
    <tag k="name" v="San Diego Freeway"/>
    <tag k="oneway" v="yes"/>
    <tag k="ref" v="I 5"/>
    <tag k="tiger:cfcc" v="A19"/>
    <tag k="tiger:county" v="San Diego, CA"/>
    <tag k="tiger:name_base" v="I-5"/>
    <tag k="tiger:name_base_1" v="San Diego"/>
    <tag k="tiger:name_type_1" v="Fwy"/>
    <tag k="tiger:reviewed" v="no"/>
  </way>
  <way id="25287267" version="156" timestamp="2012-08-04T17:55:04Z" uid="587790" user="JaggedMind" changeset="12612198">
    <nd ref="49751298"/>
    <nd ref="49751299"/>
    <nd ref="48949288"/>
    <nd ref="49751304"/>
    <nd ref="48857795"/>
    <nd ref="49751309"/>
    <nd ref="1497485106"/>
    <tag k="bicycle" v="no"/>
    <tag k="hgv" v="designated"/>
    <tag k="highway" v="motorway"/>
    <tag k="is_in" v="San Diego, CA"/>
    <tag k="lanes" v="4"/>
    <tag k="name" v="San Diego Freeway"/>
    <tag k="oneway" v="yes"/>
    <tag k="ref" v="I 5"/>
  </way>
  <way id="25287267" version="157" timestamp="2012-08-27T07:18:23Z" uid="207745" user="NE2" changeset="12875049">
    <nd ref="49751298"/>
    <nd ref="49751299"/>
    <nd ref="48949288"/>
    <nd ref="49751304"/>
    <nd ref="48857795"/>
    <nd ref="49751309"/>
    <nd ref="1497485106"/>
    <tag k="bicycle" v="no"/>
    <tag k="hgv" v="designated"/>
    <tag k="highway" v="motorway"/>
    <tag k="lanes" v="4"/>
    <tag k="name" v="San Diego Freeway"/>
    <tag k="oneway" v="yes"/>
    <tag k="ref" v="I 5"/>
  </way>
  <way id="25287689" version="4" timestamp="2012-05-28T17:58:47Z" uid="475877" user="RoadGeek_MD99" changeset="11729619">
    <nd ref="275445483"/>
    <nd ref="86880767"/>
    <nd ref="86880772"/>
    <tag k="highway" v="motorway_link"/>
    <tag k="name" v="Geysers Road"/>
    <tag k="tiger:cfcc" v="A11"/>
    <tag k="tiger:county" v="Mendocino, CA"/>
    <tag k="tiger:name_base" v="Geysers"/>
    <tag k="tiger:name_type" v="Rd"/>
    <tag k="tiger:reviewed" v="no"/>
    <tag k="tiger:separated" v="no"/>
    <tag k="tiger:source" v="tiger_import_dch_v0.6_20070809"/>
    <tag k="tiger:tlid" v="67276103:67294115:67276166"/>
  </way>
  <way id="25287689" version="5" timestamp="2012-07-18T00:06:52Z" uid="10786" user="stucki1" changeset="12273712">
    <nd ref="275445483"/>
    <nd ref="86880767"/>
    <nd ref="86880772"/>
    <tag k="highway" v="motorway_link"/>
    <tag k="name" v="Geysers Road"/>
    <tag k="oneway" v="no"/>
    <tag k="tiger:cfcc" v="A11"/>
    <tag k="tiger:county" v="Mendocino, CA"/>
    <tag k="tiger:name_base" v="Geysers"/>
    <tag k="tiger:name_type" v="Rd"/>
    <tag k="tiger:reviewed" v="no"/>
    <tag k="tiger:separated" v="no"/>
    <tag k="tiger:source" v="tiger_import_dch_v0.6_20070809"/>
    <tag k="tiger:tlid" v="67276103:67294115:67276166"/>
  </way>
</osm>
