<?xml version='1.0' encoding='UTF-8'?>
<osm version="0.6" generator="libosmium/2.20.0">
  <way id="2542711" version="2" timestamp="2008-07-05T20:06:08Z" uid="6975" user="ulfl" changeset="398437">
    <nd ref="11248372"/>
    <nd ref="11239891"/>
    <nd ref="11239893"/>
    <nd ref="11239894"/>
    <nd ref="11248370"/>
    <tag k="highway" v="unclassified"/>
    <tag k="name" v="Cloth Market"/>
    <tag k="oneway" v="yes"/>
    <tag k="surface" v="cobblestone"/>
  </way>
  <way id="2542711" version="3" timestamp="2011-01-11T10:33:25Z" uid="392664" user="RogerL" changeset="6935158">
    <nd ref="11248370"/>
    <nd ref="11239894"/>
    <nd ref="11239893"/>
    <nd ref="11239891"/>
    <nd ref="11248372"/>
    <tag k="highway" v="unclassified"/>
    <tag k="name" v="Cloth Market"/>
    <tag k="oneway" v="yes"/>
    <tag k="surface" v="cobblestone"/>
  </way>
  <way id="2542711" version="4" timestamp="2012-01-14T23:22:15Z" uid="51722" user="Chris Parker" changeset="10393525">
    <nd ref="11248370"/>
    <nd ref="11239894"/>
    <nd ref="11239893"/>
    <nd ref="11239891"/>
    <nd ref="11248372"/>
    <nd ref="1590115401"/>
    <tag k="highway" v="unclassified"/>
    <tag k="name" v="Cloth Market"/>
    <tag k="oneway" v="yes"/>
    <tag k="surface" v="cobblestone"/>
  </way>
  <way id="2542726" version="3" timestamp="2008-06-15T23:05:51Z" uid="34428" user="usm78-gis" changeset="183944"/>
</osm>
