<?xml version='1.0' encoding='UTF-8'?>
<osm version="0.6" generator="libosmium/2.20.0">
  <way id="25499332" version="2" timestamp="2008-12-08T09:43:18Z" uid="58091" user="Andreas M" changeset="253155">
    <nd ref="122499724"/>
    <nd ref="277843010"/>
    <nd ref="277843011"/>
    <nd ref="271334070"/>
    <tag k="railway" v="tram"/>
    <tag k="ref" v="1"/>
  </way>
  <way id="25499332" version="3" timestamp="2008-12-08T14:11:00Z" uid="58091" user="Andreas M" changeset="255397">
    <nd ref="122499724"/>
    <nd ref="277843010"/>
    <nd ref="277843011"/>
    <nd ref="271334070"/>
    <tag k="railway" v="tram"/>
    <tag k="ref" v="1"/>
  </way>
  <way id="25499332" version="4" timestamp="2009-02-11T10:10:31Z" uid="28427" user="skunk" changeset="343397">
    <nd ref="122499724"/>
    <nd ref="277843010"/>
    <nd ref="277843011"/>
    <nd ref="271334070"/>
    <tag k="railway" v="tram"/>
    <tag k="ref" v="1"/>
    <tag k="tracks" v="1"/>
  </way>
  <way id="25499332" version="5" timestamp="2009-07-26T01:42:10Z" uid="1679" user="andrewpmk" changeset="1939951">
    <nd ref="122499724"/>
    <nd ref="277843010"/>
    <nd ref="277843011"/>
    <nd ref="448080640"/>
    <nd ref="271334070"/>
    <tag k="railway" v="tram"/>
    <tag k="ref" v="1"/>
    <tag k="tracks" v="1"/>
  </way>
  <way id="25499332" version="6" timestamp="2010-04-18T19:59:57Z" uid="129531" user="almich" changeset="4462273">
    <nd ref="122499724"/>
    <nd ref="277843010"/>
    <nd ref="277843011"/>
    <nd ref="448080640"/>
    <nd ref="271334070"/>
    <tag k="gauge" v="1435"/>
    <tag k="railway" v="tram"/>
    <tag k="ref" v="1"/>
    <tag k="tracks" v="1"/>
  </way>
  <way id="25499332" version="7" timestamp="2010-04-18T20:24:52Z" uid="129531" user="almich" changeset="4462598">
    <nd ref="122499724"/>
    <nd ref="277843010"/>
    <nd ref="277843011"/>
    <nd ref="448080640"/>
    <nd ref="271334070"/>
    <tag k="electrified" v="contact_line"/>
    <tag k="frequency" v="0"/>
    <tag k="gauge" v="1435"/>
    <tag k="railway" v="tram"/>
    <tag k="ref" v="1"/>
    <tag k="tracks" v="1"/>
  </way>
  <way id="25499332" version="8" timestamp="2011-03-25T19:42:01Z" uid="99800" user="wolfbert" changeset="7668799">
    <nd ref="122499724"/>
    <nd ref="277843010"/>
    <nd ref="1217926635"/>
    <nd ref="277843011"/>
    <nd ref="271334070"/>
    <tag k="electrified" v="contact_line"/>
    <tag k="frequency" v="0"/>
    <tag k="gauge" v="1435"/>
    <tag k="railway" v="tram"/>
    <tag k="ref" v="1"/>
    <tag k="tracks" v="1"/>
  </way>
  <way id="25499332" version="9" timestamp="2011-11-08T00:47:19Z" uid="129531" user="almich" changeset="9770160">
    <nd ref="122499724"/>
    <nd ref="277843010"/>
    <nd ref="1217926635"/>
    <nd ref="277843011"/>
    <nd ref="271334070"/>
    <tag k="electrified" v="contact_line"/>
    <tag k="frequency" v="0"/>
    <tag k="gauge" v="1435"/>
    <tag k="railway" v="tram"/>
    <tag k="ref" v="1"/>
    <tag k="tracks" v="1"/>
    <tag k="voltage" v="600"/>
  </way>
  <way id="25499333" version="2" timestamp="2009-01-05T12:33:52Z" uid="58091" user="Andreas M" changeset="735917">
    <nd ref="277843012"/>
    <nd ref="277843013"/>
    <nd ref="271334060"/>
    <tag k="railway" v="tram"/>
  </way>
  <way id="25499333" version="3" timestamp="2009-02-11T10:10:34Z" uid="28427" user="skunk" changeset="343397">
    <nd ref="277843012"/>
    <nd ref="277843013"/>
    <nd ref="271334060"/>
    <tag k="railway" v="tram"/>
    <tag k="tracks" v="1"/>
  </way>
  <way id="25499333" version="4" timestamp="2009-06-01T12:27:26Z" uid="56311" user="Elandrion" changeset="1379184">
    <nd ref="277843012"/>
    <nd ref="277843013"/>
    <nd ref="414014752"/>
    <nd ref="414014748"/>
    <tag k="railway" v="tram"/>
    <tag k="tracks" v="1"/>
  </way>
  <way id="25499333" version="5" timestamp="2009-07-26T01:45:40Z" uid="1679" user="andrewpmk" changeset="1939962">
    <nd ref="277843012"/>
    <nd ref="277843013"/>
    <nd ref="448080761"/>
    <nd ref="414014752"/>
    <nd ref="414014773"/>
    <nd ref="414014748"/>
    <tag k="railway" v="tram"/>
    <tag k="tracks" v="1"/>
  </way>
  <way id="25499333" version="6" timestamp="2009-12-08T18:05:52Z" uid="104947" user="My Friend" changeset="3326742">
    <nd ref="583325212"/>
    <nd ref="583325216"/>
    <nd ref="583325222"/>
    <nd ref="583325223"/>
    <nd ref="277843013"/>
    <nd ref="448080761"/>
    <nd ref="414014752"/>
    <nd ref="414014773"/>
    <nd ref="414014748"/>
    <tag k="railway" v="tram"/>
    <tag k="tracks" v="1"/>
  </way>
  <way id="25499333" version="7" timestamp="2010-03-19T14:25:17Z" uid="67684" user="darkweasel" changeset="4170493">
    <nd ref="583325212"/>
    <nd ref="583325216"/>
    <nd ref="583325222"/>
    <nd ref="583325223"/>
    <nd ref="669640908"/>
    <nd ref="277843013"/>
    <nd ref="448080761"/>
    <nd ref="414014752"/>
    <nd ref="414014773"/>
    <nd ref="414014748"/>
    <tag k="railway" v="tram"/>
    <tag k="tracks" v="1"/>
  </way>
  <way id="25499333" version="8" timestamp="2010-04-18T20:24:43Z" uid="129531" user="almich" changeset="4462598">
    <nd ref="583325212"/>
    <nd ref="583325216"/>
    <nd ref="583325222"/>
    <nd ref="583325223"/>
    <nd ref="669640908"/>
    <nd ref="277843013"/>
    <nd ref="448080761"/>
    <nd ref="414014752"/>
    <nd ref="414014773"/>
    <nd ref="414014748"/>
    <tag k="electrified" v="contact_line"/>
    <tag k="frequency" v="0"/>
    <tag k="gauge" v="1435"/>
    <tag k="railway" v="tram"/>
    <tag k="tracks" v="1"/>
  </way>
  <way id="25499333" version="9" timestamp="2010-12-05T13:16:35Z" uid="49642" user="realadry" changeset="6550519">
    <nd ref="583325212"/>
    <nd ref="583325216"/>
    <nd ref="583325222"/>
    <nd ref="583325223"/>
    <nd ref="669640908"/>
    <nd ref="277843013"/>
    <nd ref="1022646447"/>
    <nd ref="414014752"/>
    <nd ref="414014773"/>
    <nd ref="414014748"/>
    <tag k="electrified" v="contact_line"/>
    <tag k="frequency" v="0"/>
    <tag k="gauge" v="1435"/>
    <tag k="railway" v="tram"/>
    <tag k="tracks" v="1"/>
  </way>
  <way id="25499333" version="10" timestamp="2011-11-08T00:45:12Z" uid="129531" user="almich" changeset="9770160">
    <nd ref="583325212"/>
    <nd ref="583325216"/>
    <nd ref="583325222"/>
    <nd ref="583325223"/>
    <nd ref="669640908"/>
    <nd ref="277843013"/>
    <nd ref="1022646447"/>
    <nd ref="414014752"/>
    <nd ref="414014773"/>
    <nd ref="414014748"/>
    <tag k="electrified" v="contact_line"/>
    <tag k="frequency" v="0"/>
    <tag k="gauge" v="1435"/>
    <tag k="railway" v="tram"/>
    <tag k="tracks" v="1"/>
    <tag k="voltage" v="600"/>
  </way>
  <way id="25499334" version="2" timestamp="2008-12-08T09:43:19Z" uid="58091" user="Andreas M" changeset="253155">
    <nd ref="271334062"/>
    <nd ref="277843017"/>
    <nd ref="277843018"/>
    <nd ref="277843019"/>
    <nd ref="277843020"/>
    <tag k="railway" v="tram"/>
    <tag k="ref" v="1"/>
  </way>
  <way id="25499334" version="3" timestamp="2008-12-08T14:11:00Z" uid="58091" user="Andreas M" changeset="255397">
    <nd ref="271334062"/>
    <nd ref="277843017"/>
    <nd ref="277843018"/>
    <nd ref="277843019"/>
    <nd ref="277843020"/>
    <tag k="railway" v="tram"/>
    <tag k="ref" v="1"/>
  </way>
  <way id="25499334" version="4" timestamp="2009-02-11T10:10:32Z" uid="28427" user="skunk" changeset="343397">
    <nd ref="271334062"/>
    <nd ref="277843017"/>
    <nd ref="277843018"/>
    <nd ref="277843019"/>
    <nd ref="277843020"/>
    <tag k="railway" v="tram"/>
    <tag k="ref" v="1"/>
    <tag k="tracks" v="1"/>
  </way>
  <way id="25499334" version="5" timestamp="2009-06-01T12:27:27Z" uid="56311" user="Elandrion" changeset="1379184">
    <nd ref="271334058"/>
    <nd ref="414014749"/>
    <tag k="railway" v="tram"/>
    <tag k="ref" v="1"/>
    <tag k="tracks" v="1"/>
  </way>
  <way id="25499334" version="6" timestamp="2010-04-18T20:00:09Z" uid="129531" user="almich" changeset="4462273">
    <nd ref="271334058"/>
    <nd ref="414014749"/>
    <tag k="gauge" v="1435"/>
    <tag k="railway" v="tram"/>
    <tag k="ref" v="1"/>
    <tag k="tracks" v="1"/>
  </way>
  <way id="25499334" version="7" timestamp="2010-04-18T20:25:04Z" uid="129531" user="almich" changeset="4462598">
    <nd ref="271334058"/>
    <nd ref="414014749"/>
    <tag k="electrified" v="contact_line"/>
    <tag k="frequency" v="0"/>
    <tag k="gauge" v="1435"/>
    <tag k="railway" v="tram"/>
    <tag k="ref" v="1"/>
    <tag k="tracks" v="1"/>
  </way>
  <way id="25499334" version="8" timestamp="2011-11-08T00:47:16Z" uid="129531" user="almich" changeset="9770160">
    <nd ref="271334058"/>
    <nd ref="414014749"/>
    <tag k="electrified" v="contact_line"/>
    <tag k="frequency" v="0"/>
    <tag k="gauge" v="1435"/>
    <tag k="railway" v="tram"/>
    <tag k="ref" v="1"/>
    <tag k="tracks" v="1"/>
    <tag k="voltage" v="600"/>
  </way>
  <way id="25499338" version="7" timestamp="2008-12-08T10:31:39Z" uid="58091" user="Andreas M" changeset="253155">
    <nd ref="310649395"/>
    <nd ref="65093719"/>
    <nd ref="65093721"/>
    <nd ref="34591183"/>
    <nd ref="34591261"/>
    <nd ref="65093727"/>
    <nd ref="34591532"/>
    <nd ref="34591533"/>
    <nd ref="34591534"/>
    <nd ref="34591535"/>
    <nd ref="34591536"/>
    <nd ref="34591537"/>
    <nd ref="34591538"/>
    <nd ref="65093732"/>
    <nd ref="65093735"/>
    <nd ref="65093737"/>
    <nd ref="271334035"/>
    <nd ref="271334037"/>
    <nd ref="317378482"/>
    <nd ref="271334045"/>
    <nd ref="271334046"/>
    <nd ref="34591544"/>
    <nd ref="271334048"/>
    <nd ref="271334052"/>
    <tag k="created_by" v="Potlatch 0.10e"/>
    <tag k="name" v="1, 62, Badner Bahn"/>
    <tag k="railway" v="tram"/>
  </way>
  <way id="25499338" version="8" timestamp="2008-12-18T14:07:27Z" uid="23292" user="Marko Knöbl" changeset="461539">
    <nd ref="310649395"/>
    <nd ref="65093719"/>
    <nd ref="65093721"/>
    <nd ref="34591183"/>
    <nd ref="34591261"/>
    <nd ref="65093727"/>
    <nd ref="34591532"/>
    <nd ref="34591533"/>
    <nd ref="34591534"/>
    <nd ref="34591535"/>
    <nd ref="34591536"/>
    <nd ref="34591537"/>
    <nd ref="34591538"/>
    <nd ref="65093732"/>
    <nd ref="65093735"/>
    <nd ref="310651092"/>
    <nd ref="35478336"/>
    <nd ref="35478333"/>
    <nd ref="34591541"/>
    <nd ref="319729346"/>
    <nd ref="271334037"/>
    <nd ref="317378482"/>
    <nd ref="271334045"/>
    <nd ref="271334046"/>
    <nd ref="34591544"/>
    <nd ref="271334048"/>
    <nd ref="271334052"/>
    <tag k="created_by" v="Potlatch 0.10f"/>
    <tag k="name" v="1, 62, Badner Bahn"/>
    <tag k="railway" v="tram"/>
  </way>
  <way id="25499338" version="9" timestamp="2008-12-18T14:08:48Z" uid="23292" user="Marko Knöbl" changeset="461539">
    <nd ref="310649395"/>
    <nd ref="65093719"/>
    <nd ref="65093721"/>
    <nd ref="34591183"/>
    <nd ref="34591261"/>
    <nd ref="65093727"/>
    <nd ref="34591532"/>
    <nd ref="34591533"/>
    <nd ref="34591534"/>
    <nd ref="34591535"/>
    <nd ref="34591536"/>
    <nd ref="34591537"/>
    <nd ref="34591538"/>
    <nd ref="65093732"/>
    <nd ref="65093735"/>
    <nd ref="35478336"/>
    <nd ref="35478333"/>
    <nd ref="34591541"/>
    <nd ref="319729346"/>
    <nd ref="271334037"/>
    <nd ref="317378482"/>
    <nd ref="271334045"/>
    <nd ref="271334046"/>
    <nd ref="34591544"/>
    <nd ref="271334048"/>
    <nd ref="271334052"/>
    <tag k="created_by" v="Potlatch 0.10f"/>
    <tag k="name" v="1, 62, Badner Bahn"/>
    <tag k="railway" v="tram"/>
  </way>
  <way id="25499338" version="10" timestamp="2008-12-18T14:08:51Z" uid="23292" user="Marko Knöbl" changeset="461539">
    <nd ref="310649395"/>
    <nd ref="65093719"/>
    <nd ref="65093721"/>
    <nd ref="34591183"/>
    <nd ref="34591261"/>
    <nd ref="65093727"/>
    <nd ref="34591532"/>
    <nd ref="34591533"/>
    <nd ref="34591534"/>
    <nd ref="34591535"/>
    <nd ref="34591536"/>
    <nd ref="34591537"/>
    <nd ref="34591538"/>
    <nd ref="65093732"/>
    <nd ref="65093735"/>
    <nd ref="35478336"/>
    <nd ref="34591541"/>
    <nd ref="319729346"/>
    <nd ref="271334037"/>
    <nd ref="317378482"/>
    <nd ref="271334045"/>
    <nd ref="271334046"/>
    <nd ref="34591544"/>
    <nd ref="271334048"/>
    <nd ref="271334052"/>
    <tag k="created_by" v="Potlatch 0.10f"/>
    <tag k="name" v="1, 62, Badner Bahn"/>
    <tag k="railway" v="tram"/>
  </way>
  <way id="25499338" version="11" timestamp="2009-01-03T15:58:36Z" uid="58091" user="Andreas M" changeset="721411">
    <nd ref="310649395"/>
    <nd ref="65093719"/>
    <nd ref="65093721"/>
    <nd ref="34591183"/>
    <tag k="created_by" v="Potlatch 0.10f"/>
    <tag k="name" v="1, 62, Badner Bahn"/>
    <tag k="railway" v="tram"/>
  </way>
  <way id="25499338" version="12" timestamp="2010-04-18T19:59:53Z" uid="129531" user="almich" changeset="4462273">
    <nd ref="310649395"/>
    <nd ref="65093719"/>
    <nd ref="65093721"/>
    <nd ref="34591183"/>
    <tag k="gauge" v="1435"/>
    <tag k="name" v="1, 62, Badner Bahn"/>
    <tag k="railway" v="tram"/>
  </way>
  <way id="25499338" version="13" timestamp="2010-04-18T20:24:46Z" uid="129531" user="almich" changeset="4462598">
    <nd ref="310649395"/>
    <nd ref="65093719"/>
    <nd ref="65093721"/>
    <nd ref="34591183"/>
    <tag k="electrified" v="contact_line"/>
    <tag k="frequency" v="0"/>
    <tag k="gauge" v="1435"/>
    <tag k="name" v="1, 62, Badner Bahn"/>
    <tag k="railway" v="tram"/>
  </way>
  <way id="25499338" version="14" timestamp="2011-07-22T10:32:00Z" uid="439883" user="romge" changeset="8796297">
    <nd ref="310649395"/>
    <nd ref="65093719"/>
    <nd ref="65093721"/>
    <nd ref="30692831"/>
    <tag k="electrified" v="contact_line"/>
    <tag k="frequency" v="0"/>
    <tag k="gauge" v="1435"/>
    <tag k="name" v="1, 62, Badner Bahn"/>
    <tag k="railway" v="tram"/>
  </way>
  <way id="25499338" version="15" timestamp="2011-11-08T00:47:23Z" uid="129531" user="almich" changeset="9770160">
    <nd ref="310649395"/>
    <nd ref="65093719"/>
    <nd ref="65093721"/>
    <nd ref="30692831"/>
    <tag k="electrified" v="contact_line"/>
    <tag k="frequency" v="0"/>
    <tag k="gauge" v="1435"/>
    <tag k="name" v="1, 62, Badner Bahn"/>
    <tag k="railway" v="tram"/>
    <tag k="voltage" v="600"/>
  </way>
  <way id="25499338" version="16" timestamp="2012-02-10T15:15:55Z" uid="129531" user="almich" changeset="10644294">
    <nd ref="310649395"/>
    <nd ref="65093719"/>
    <nd ref="1627006611"/>
    <nd ref="65093721"/>
    <nd ref="1627006577"/>
    <nd ref="1627006612"/>
    <nd ref="30692831"/>
    <tag k="electrified" v="contact_line"/>
    <tag k="frequency" v="0"/>
    <tag k="gauge" v="1435"/>
    <tag k="name" v="1, 62, Badner Bahn"/>
    <tag k="railway" v="tram"/>
    <tag k="voltage" v="600"/>
  </way>
  <way id="25499457" version="5" timestamp="2010-07-09T17:56:33Z" uid="74617" user="JohnSmith" changeset="5175636">
    <nd ref="276371117"/>
    <nd ref="340004009"/>
    <nd ref="277843661"/>
    <nd ref="277843662"/>
    <nd ref="277843653"/>
    <nd ref="277843663"/>
    <nd ref="442615053"/>
    <nd ref="277843664"/>
    <nd ref="277843665"/>
    <tag k="highway" v="residential"/>
    <tag k="maxspeed" v="50"/>
    <tag k="maxspeed:source" v="default residential speed limit in Australia"/>
    <tag k="name" v="Landsborough Way"/>
  </way>
  <way id="25499457" version="6" timestamp="2012-01-16T22:40:25Z" uid="147510" user="woodpeck_fixbot" changeset="10412890">
    <nd ref="276371117"/>
    <nd ref="340004009"/>
    <nd ref="277843661"/>
    <nd ref="277843662"/>
    <nd ref="277843653"/>
    <nd ref="277843663"/>
    <nd ref="442615053"/>
    <nd ref="277843664"/>
    <nd ref="277843665"/>
    <tag k="highway" v="residential"/>
    <tag k="name" v="Landsborough Way"/>
  </way>
  <way id="25499461" version="3" timestamp="2010-07-09T17:59:33Z" uid="74617" user="JohnSmith" changeset="5175636">
    <nd ref="340004000"/>
    <nd ref="277843679"/>
    <tag k="highway" v="residential"/>
    <tag k="maxspeed" v="50"/>
    <tag k="maxspeed:source" v="default residential speed limit in Australia"/>
    <tag k="name" v="Darling Court"/>
  </way>
  <way id="25499461" version="4" timestamp="2012-01-16T22:40:26Z" uid="147510" user="woodpeck_fixbot" changeset="10412890">
    <nd ref="340004000"/>
    <nd ref="277843679"/>
    <tag k="highway" v="residential"/>
    <tag k="name" v="Darling Court"/>
  </way>
  <way id="25499465" version="4" timestamp="2010-07-09T18:00:20Z" uid="74617" user="JohnSmith" changeset="5175636">
    <nd ref="277843703"/>
    <nd ref="277843704"/>
    <nd ref="277843705"/>
    <nd ref="277843706"/>
    <nd ref="433742101"/>
    <nd ref="433742099"/>
    <nd ref="277843707"/>
    <nd ref="277843708"/>
    <nd ref="277843709"/>
    <nd ref="277843710"/>
    <nd ref="277843711"/>
    <nd ref="277843703"/>
    <nd ref="276371114"/>
    <tag k="highway" v="residential"/>
    <tag k="maxspeed" v="50"/>
    <tag k="maxspeed:source" v="default residential speed limit in Australia"/>
    <tag k="name" v="Helpman Way"/>
  </way>
  <way id="25499465" version="5" timestamp="2012-01-16T22:40:27Z" uid="147510" user="woodpeck_fixbot" changeset="10412890">
    <nd ref="277843703"/>
    <nd ref="277843704"/>
    <nd ref="277843705"/>
    <nd ref="277843706"/>
    <nd ref="433742101"/>
    <nd ref="433742099"/>
    <nd ref="277843707"/>
    <nd ref="277843708"/>
    <nd ref="277843709"/>
    <nd ref="277843710"/>
    <nd ref="277843711"/>
    <nd ref="277843703"/>
    <nd ref="276371114"/>
    <tag k="highway" v="residential"/>
    <tag k="name" v="Helpman Way"/>
  </way>
  <way id="25499468" version="3" timestamp="2010-07-09T17:59:15Z" uid="74617" user="JohnSmith" changeset="5175636">
    <nd ref="277843742"/>
    <nd ref="276371103"/>
    <tag k="highway" v="residential"/>
    <tag k="maxspeed" v="50"/>
    <tag k="maxspeed:source" v="default residential speed limit in Australia"/>
    <tag k="name" v="Burke Place"/>
  </way>
  <way id="25499468" version="4" timestamp="2012-01-16T22:40:28Z" uid="147510" user="woodpeck_fixbot" changeset="10412890">
    <nd ref="277843742"/>
    <nd ref="276371103"/>
    <tag k="highway" v="residential"/>
    <tag k="name" v="Burke Place"/>
  </way>
  <way id="25499469" version="3" timestamp="2010-07-09T18:03:14Z" uid="74617" user="JohnSmith" changeset="5175636">
    <nd ref="277843752"/>
    <nd ref="433742103"/>
    <nd ref="277843753"/>
    <nd ref="277843754"/>
    <tag k="highway" v="residential"/>
    <tag k="maxspeed" v="50"/>
    <tag k="maxspeed:source" v="default residential speed limit in Australia"/>
    <tag k="name" v="Brahe Place"/>
  </way>
  <way id="25499469" version="4" timestamp="2012-01-16T22:40:30Z" uid="147510" user="woodpeck_fixbot" changeset="10412890">
    <nd ref="277843752"/>
    <nd ref="433742103"/>
    <nd ref="277843753"/>
    <nd ref="277843754"/>
    <tag k="highway" v="residential"/>
    <tag k="name" v="Brahe Place"/>
  </way>
  <way id="25499488" version="2" timestamp="2010-07-09T17:57:53Z" uid="74617" user="JohnSmith" changeset="5175636">
    <nd ref="277843829"/>
    <nd ref="277843830"/>
    <tag k="highway" v="residential"/>
    <tag k="maxspeed" v="50"/>
    <tag k="maxspeed:source" v="default residential speed limit in Australia"/>
    <tag k="name" v="Sturt Place"/>
  </way>
  <way id="25499488" version="3" timestamp="2012-01-16T22:40:31Z" uid="147510" user="woodpeck_fixbot" changeset="10412890">
    <nd ref="277843829"/>
    <nd ref="277843830"/>
    <tag k="highway" v="residential"/>
    <tag k="name" v="Sturt Place"/>
  </way>
  <way id="25499491" version="3" timestamp="2010-07-09T18:03:20Z" uid="74617" user="JohnSmith" changeset="5175636">
    <nd ref="277843835"/>
    <nd ref="277843836"/>
    <tag k="highway" v="residential"/>
    <tag k="maxspeed" v="50"/>
    <tag k="maxspeed:source" v="default residential speed limit in Australia"/>
    <tag k="name" v="Eyre Place"/>
  </way>
  <way id="25499491" version="4" timestamp="2012-01-16T22:40:33Z" uid="147510" user="woodpeck_fixbot" changeset="10412890">
    <nd ref="277843835"/>
    <nd ref="277843836"/>
    <tag k="highway" v="residential"/>
    <tag k="name" v="Eyre Place"/>
  </way>
  <way id="25499495" version="5" timestamp="2010-07-09T17:56:38Z" uid="74617" user="JohnSmith" changeset="5175636">
    <nd ref="277843839"/>
    <nd ref="277843840"/>
    <tag k="highway" v="residential"/>
    <tag k="maxspeed" v="50"/>
    <tag k="maxspeed:source" v="default residential speed limit in Australia"/>
    <tag k="name" v="Hann Place"/>
  </way>
  <way id="25499495" version="6" timestamp="2012-01-16T22:40:37Z" uid="147510" user="woodpeck_fixbot" changeset="10412890">
    <nd ref="277843839"/>
    <nd ref="277843840"/>
    <tag k="highway" v="residential"/>
    <tag k="name" v="Hann Place"/>
  </way>
  <way id="25499498" version="2" timestamp="2010-07-09T18:02:54Z" uid="74617" user="JohnSmith" changeset="5175636">
    <nd ref="277843845"/>
    <nd ref="277843846"/>
    <tag k="highway" v="residential"/>
    <tag k="maxspeed" v="50"/>
    <tag k="maxspeed:source" v="default residential speed limit in Australia"/>
    <tag k="name" v="Wright Place"/>
  </way>
  <way id="25499498" version="3" timestamp="2012-01-16T22:40:38Z" uid="147510" user="woodpeck_fixbot" changeset="10412890">
    <nd ref="277843845"/>
    <nd ref="277843846"/>
    <tag k="highway" v="residential"/>
    <tag k="name" v="Wright Place"/>
  </way>
  <way id="25499501" version="3" timestamp="2010-07-09T17:59:00Z" uid="74617" user="JohnSmith" changeset="5175636">
    <nd ref="277843882"/>
    <nd ref="277843883"/>
    <nd ref="340003961"/>
    <nd ref="277843884"/>
    <tag k="highway" v="residential"/>
    <tag k="maxspeed" v="50"/>
    <tag k="maxspeed:source" v="default residential speed limit in Australia"/>
    <tag k="name" v="Wills Place"/>
  </way>
  <way id="25499501" version="4" timestamp="2012-01-16T22:40:39Z" uid="147510" user="woodpeck_fixbot" changeset="10412890">
    <nd ref="277843882"/>
    <nd ref="277843883"/>
    <nd ref="340003961"/>
    <nd ref="277843884"/>
    <tag k="highway" v="residential"/>
    <tag k="name" v="Wills Place"/>
  </way>
  <way id="25499502" version="2" timestamp="2010-07-09T17:56:09Z" uid="74617" user="JohnSmith" changeset="5175636">
    <nd ref="277843885"/>
    <nd ref="277843886"/>
    <tag k="highway" v="residential"/>
    <tag k="maxspeed" v="50"/>
    <tag k="maxspeed:source" v="default residential speed limit in Australia"/>
    <tag k="name" v="Beckler Court"/>
  </way>
  <way id="25499502" version="3" timestamp="2012-01-16T22:40:41Z" uid="147510" user="woodpeck_fixbot" changeset="10412890">
    <nd ref="277843885"/>
    <nd ref="277843886"/>
    <tag k="highway" v="residential"/>
    <tag k="name" v="Beckler Court"/>
  </way>
  <way id="25499503" version="2" timestamp="2010-07-09T18:00:27Z" uid="74617" user="JohnSmith" changeset="5175636">
    <nd ref="277843887"/>
    <nd ref="277843888"/>
    <tag k="highway" v="residential"/>
    <tag k="maxspeed" v="50"/>
    <tag k="maxspeed:source" v="default residential speed limit in Australia"/>
    <tag k="name" v="Clay Place"/>
  </way>
  <way id="25499503" version="3" timestamp="2012-01-16T22:40:42Z" uid="147510" user="woodpeck_fixbot" changeset="10412890">
    <nd ref="277843887"/>
    <nd ref="277843888"/>
    <tag k="highway" v="residential"/>
    <tag k="name" v="Clay Place"/>
  </way>
  <way id="25499505" version="3" timestamp="2010-07-09T17:59:44Z" uid="74617" user="JohnSmith" changeset="5175636">
    <nd ref="277843889"/>
    <nd ref="277843909"/>
    <tag k="highway" v="residential"/>
    <tag k="maxspeed" v="50"/>
    <tag k="maxspeed:source" v="default residential speed limit in Australia"/>
    <tag k="name" v="Stiles Court"/>
  </way>
  <way id="25499505" version="4" timestamp="2012-01-16T22:40:44Z" uid="147510" user="woodpeck_fixbot" changeset="10412890">
    <nd ref="277843889"/>
    <nd ref="277843909"/>
    <tag k="highway" v="residential"/>
    <tag k="name" v="Stiles Court"/>
  </way>
  <way id="25499509" version="2" timestamp="2010-07-09T18:02:35Z" uid="74617" user="JohnSmith" changeset="5175636">
    <nd ref="277843908"/>
    <nd ref="277843909"/>
    <tag k="highway" v="residential"/>
    <tag k="maxspeed" v="50"/>
    <tag k="maxspeed:source" v="default residential speed limit in Australia"/>
    <tag k="name" v="Ovens Street"/>
  </way>
  <way id="25499509" version="3" timestamp="2012-01-16T22:40:46Z" uid="147510" user="woodpeck_fixbot" changeset="10412890">
    <nd ref="277843908"/>
    <nd ref="277843909"/>
    <tag k="highway" v="residential"/>
    <tag k="name" v="Ovens Street"/>
  </way>
  <way id="25499513" version="7" timestamp="2010-07-09T18:03:25Z" uid="74617" user="JohnSmith" changeset="5175636">
    <nd ref="277843918"/>
    <nd ref="277844414"/>
    <nd ref="277843940"/>
    <nd ref="277843919"/>
    <nd ref="433742089"/>
    <nd ref="433742094"/>
    <nd ref="277843920"/>
    <nd ref="277843947"/>
    <nd ref="277843908"/>
    <nd ref="277843921"/>
    <tag k="highway" v="residential"/>
    <tag k="maxspeed" v="50"/>
    <tag k="maxspeed:source" v="default residential speed limit in Australia"/>
    <tag k="name" v="Macleay Drive"/>
  </way>
  <way id="25499513" version="8" timestamp="2012-01-16T22:40:47Z" uid="147510" user="woodpeck_fixbot" changeset="10412890">
    <nd ref="277843918"/>
    <nd ref="277844414"/>
    <nd ref="277843940"/>
    <nd ref="277843919"/>
    <nd ref="433742089"/>
    <nd ref="433742094"/>
    <nd ref="277843920"/>
    <nd ref="277843947"/>
    <nd ref="277843908"/>
    <nd ref="277843921"/>
    <tag k="highway" v="residential"/>
    <tag k="name" v="Macleay Drive"/>
  </way>
  <way id="25499515" version="4" timestamp="2010-07-09T22:14:15Z" uid="74617" user="JohnSmith" changeset="5176956">
    <nd ref="277843924"/>
    <nd ref="277843919"/>
    <tag k="highway" v="residential"/>
    <tag k="maxspeed" v="50"/>
    <tag k="maxspeed:source" v="default residential speed limit in Australia"/>
    <tag k="name" v="Macleay Drive"/>
  </way>
  <way id="25499515" version="5" timestamp="2012-01-16T22:40:50Z" uid="147510" user="woodpeck_fixbot" changeset="10412890">
    <nd ref="277843924"/>
    <nd ref="277843919"/>
    <tag k="highway" v="residential"/>
    <tag k="name" v="Macleay Drive"/>
  </way>
  <way id="25499518" version="4" timestamp="2010-07-09T18:03:48Z" uid="74617" user="JohnSmith" changeset="5175636">
    <nd ref="277843938"/>
    <nd ref="433742093"/>
    <nd ref="277843939"/>
    <nd ref="277843940"/>
    <tag k="highway" v="residential"/>
    <tag k="maxspeed" v="50"/>
    <tag k="maxspeed:source" v="default residential speed limit in Australia"/>
    <tag k="name" v="Throsby Way"/>
  </way>
  <way id="25499518" version="5" timestamp="2012-01-16T22:40:51Z" uid="147510" user="woodpeck_fixbot" changeset="10412890">
    <nd ref="277843938"/>
    <nd ref="433742093"/>
    <nd ref="277843939"/>
    <nd ref="277843940"/>
    <tag k="highway" v="residential"/>
    <tag k="name" v="Throsby Way"/>
  </way>
  <way id="25499521" version="3" timestamp="2010-07-09T18:03:21Z" uid="74617" user="JohnSmith" changeset="5175636">
    <nd ref="277843947"/>
    <nd ref="277843948"/>
    <nd ref="433742091"/>
    <nd ref="277843949"/>
    <nd ref="277843921"/>
    <tag k="highway" v="residential"/>
    <tag k="maxspeed" v="50"/>
    <tag k="maxspeed:source" v="default residential speed limit in Australia"/>
    <tag k="name" v="Favenc Way"/>
  </way>
  <way id="25499521" version="4" timestamp="2012-01-16T22:40:52Z" uid="147510" user="woodpeck_fixbot" changeset="10412890">
    <nd ref="277843947"/>
    <nd ref="277843948"/>
    <nd ref="433742091"/>
    <nd ref="277843949"/>
    <nd ref="277843921"/>
    <tag k="highway" v="residential"/>
    <tag k="name" v="Favenc Way"/>
  </way>
  <way id="25499524" version="4" timestamp="2010-07-09T18:02:12Z" uid="74617" user="JohnSmith" changeset="5175636">
    <nd ref="277843972"/>
    <nd ref="277843973"/>
    <nd ref="430746599"/>
    <tag k="highway" v="residential"/>
    <tag k="maxspeed" v="50"/>
    <tag k="maxspeed:source" v="default residential speed limit in Australia"/>
    <tag k="name" v="Phillip Court"/>
  </way>
  <way id="25499524" version="5" timestamp="2012-01-16T22:40:53Z" uid="147510" user="woodpeck_fixbot" changeset="10412890">
    <nd ref="277843972"/>
    <nd ref="277843973"/>
    <nd ref="430746599"/>
    <tag k="highway" v="residential"/>
    <tag k="name" v="Phillip Court"/>
  </way>
  <way id="25499553" version="2" timestamp="2010-07-09T17:59:05Z" uid="74617" user="JohnSmith" changeset="5175636">
    <nd ref="277844260"/>
    <nd ref="277844261"/>
    <nd ref="277844262"/>
    <nd ref="277844263"/>
    <nd ref="277844264"/>
    <nd ref="277844265"/>
    <tag k="highway" v="residential"/>
    <tag k="maxspeed" v="50"/>
    <tag k="maxspeed:source" v="default residential speed limit in Australia"/>
    <tag k="name" v="Lindsay Way"/>
  </way>
  <way id="25499553" version="3" timestamp="2012-01-16T22:40:54Z" uid="147510" user="woodpeck_fixbot" changeset="10412890">
    <nd ref="277844260"/>
    <nd ref="277844261"/>
    <nd ref="277844262"/>
    <nd ref="277844263"/>
    <nd ref="277844264"/>
    <nd ref="277844265"/>
    <tag k="highway" v="residential"/>
    <tag k="name" v="Lindsay Way"/>
  </way>
  <way id="25499572" version="6" timestamp="2010-07-09T22:14:58Z" uid="74617" user="JohnSmith" changeset="5176956">
    <nd ref="277844323"/>
    <nd ref="277844826"/>
    <nd ref="277844324"/>
    <nd ref="277844415"/>
    <nd ref="277844325"/>
    <nd ref="277844337"/>
    <nd ref="277844391"/>
    <nd ref="358902966"/>
    <nd ref="277844327"/>
    <nd ref="358902929"/>
    <nd ref="276371320"/>
    <tag k="highway" v="residential"/>
    <tag k="maxspeed" v="50"/>
    <tag k="maxspeed:source" v="default residential speed limit in Australia"/>
    <tag k="name" v="Johnston Way"/>
  </way>
  <way id="25499572" version="7" timestamp="2012-01-16T22:40:56Z" uid="147510" user="woodpeck_fixbot" changeset="10412890">
    <nd ref="277844323"/>
    <nd ref="277844826"/>
    <nd ref="277844324"/>
    <nd ref="277844415"/>
    <nd ref="277844325"/>
    <nd ref="277844337"/>
    <nd ref="277844391"/>
    <nd ref="358902966"/>
    <nd ref="277844327"/>
    <nd ref="358902929"/>
    <nd ref="276371320"/>
    <tag k="highway" v="residential"/>
    <tag k="name" v="Johnston Way"/>
  </way>
  <way id="25499575" version="2" timestamp="2010-07-09T22:12:50Z" uid="74617" user="JohnSmith" changeset="5176956">
    <nd ref="277844336"/>
    <nd ref="277844337"/>
    <tag k="highway" v="residential"/>
    <tag k="maxspeed" v="50"/>
    <tag k="maxspeed:source" v="default residential speed limit in Australia"/>
    <tag k="name" v="Mitchell Place"/>
  </way>
  <way id="25499575" version="3" timestamp="2012-01-16T22:40:58Z" uid="147510" user="woodpeck_fixbot" changeset="10412890">
    <nd ref="277844336"/>
    <nd ref="277844337"/>
    <tag k="highway" v="residential"/>
    <tag k="name" v="Mitchell Place"/>
  </way>
  <way id="25499581" version="5" timestamp="2010-07-09T22:15:07Z" uid="74617" user="JohnSmith" changeset="5176956">
    <nd ref="277844405"/>
    <nd ref="277844406"/>
    <nd ref="627686239"/>
    <nd ref="277844407"/>
    <nd ref="277844408"/>
    <nd ref="277844409"/>
    <nd ref="277844416"/>
    <nd ref="277844410"/>
    <nd ref="277844493"/>
    <nd ref="277844411"/>
    <nd ref="277844490"/>
    <nd ref="277844412"/>
    <nd ref="277844413"/>
    <nd ref="277844414"/>
    <tag k="highway" v="residential"/>
    <tag k="maxspeed" v="50"/>
    <tag k="maxspeed:source" v="default residential speed limit in Australia"/>
    <tag k="name" v="Brisbane Drive"/>
  </way>
  <way id="25499581" version="6" timestamp="2012-01-16T22:40:59Z" uid="147510" user="woodpeck_fixbot" changeset="10412890">
    <nd ref="277844405"/>
    <nd ref="277844406"/>
    <nd ref="627686239"/>
    <nd ref="277844407"/>
    <nd ref="277844408"/>
    <nd ref="277844409"/>
    <nd ref="277844416"/>
    <nd ref="277844410"/>
    <nd ref="277844493"/>
    <nd ref="277844411"/>
    <nd ref="277844490"/>
    <nd ref="277844412"/>
    <nd ref="277844413"/>
    <nd ref="277844414"/>
    <tag k="highway" v="residential"/>
    <tag k="name" v="Brisbane Drive"/>
  </way>
  <way id="25499584" version="4" timestamp="2010-07-09T22:12:32Z" uid="74617" user="JohnSmith" changeset="5176956">
    <nd ref="277844440"/>
    <nd ref="277844486"/>
    <nd ref="277844441"/>
    <tag k="highway" v="residential"/>
    <tag k="maxspeed" v="50"/>
    <tag k="maxspeed:source" v="default residential speed limit in Australia"/>
    <tag k="name" v="Mueller Court"/>
  </way>
  <way id="25499584" version="5" timestamp="2012-01-16T22:41:01Z" uid="147510" user="woodpeck_fixbot" changeset="10412890">
    <nd ref="277844440"/>
    <nd ref="277844486"/>
    <nd ref="277844441"/>
    <tag k="highway" v="residential"/>
    <tag k="name" v="Mueller Court"/>
  </way>
  <way id="25499586" version="3" timestamp="2010-07-09T22:13:00Z" uid="74617" user="JohnSmith" changeset="5176956">
    <nd ref="277844486"/>
    <nd ref="277844409"/>
    <tag k="highway" v="residential"/>
    <tag k="maxspeed" v="50"/>
    <tag k="maxspeed:source" v="default residential speed limit in Australia"/>
    <tag k="name" v="Mueller Court"/>
  </way>
  <way id="25499586" version="4" timestamp="2012-01-16T22:41:02Z" uid="147510" user="woodpeck_fixbot" changeset="10412890">
    <nd ref="277844486"/>
    <nd ref="277844409"/>
    <tag k="highway" v="residential"/>
    <tag k="name" v="Mueller Court"/>
  </way>
  <way id="25499588" version="2" timestamp="2010-07-09T22:14:14Z" uid="74617" user="JohnSmith" changeset="5176956">
    <nd ref="277844490"/>
    <nd ref="277844491"/>
    <nd ref="277844492"/>
    <nd ref="277844493"/>
    <tag k="highway" v="residential"/>
    <tag k="maxspeed" v="50"/>
    <tag k="maxspeed:source" v="default residential speed limit in Australia"/>
    <tag k="name" v="Tietkins Way"/>
  </way>
  <way id="25499588" version="3" timestamp="2012-01-16T22:41:04Z" uid="147510" user="woodpeck_fixbot" changeset="10412890">
    <nd ref="277844490"/>
    <nd ref="277844491"/>
    <nd ref="277844492"/>
    <nd ref="277844493"/>
    <tag k="highway" v="residential"/>
    <tag k="name" v="Tietkins Way"/>
  </way>
  <way id="25499593" version="3" timestamp="2010-07-09T22:12:38Z" uid="74617" user="JohnSmith" changeset="5176956">
    <nd ref="277844538"/>
    <nd ref="358902873"/>
    <tag k="highway" v="residential"/>
    <tag k="maxspeed" v="50"/>
    <tag k="maxspeed:source" v="default residential speed limit in Australia"/>
    <tag k="name" v="Daly Place"/>
  </way>
  <way id="25499593" version="4" timestamp="2012-01-16T22:41:06Z" uid="147510" user="woodpeck_fixbot" changeset="10412890">
    <nd ref="277844538"/>
    <nd ref="358902873"/>
    <tag k="highway" v="residential"/>
    <tag k="name" v="Daly Place"/>
  </way>
  <way id="25499595" version="2" timestamp="2010-07-09T22:13:23Z" uid="74617" user="JohnSmith" changeset="5176956">
    <nd ref="277844547"/>
    <nd ref="277844548"/>
    <tag k="highway" v="residential"/>
    <tag k="maxspeed" v="50"/>
    <tag k="maxspeed:source" v="default residential speed limit in Australia"/>
    <tag k="name" v="Dawes Place"/>
  </way>
  <way id="25499595" version="3" timestamp="2012-01-16T22:41:07Z" uid="147510" user="woodpeck_fixbot" changeset="10412890">
    <nd ref="277844547"/>
    <nd ref="277844548"/>
    <tag k="highway" v="residential"/>
    <tag k="name" v="Dawes Place"/>
  </way>
  <way id="25499623" version="5" timestamp="2010-07-09T22:14:40Z" uid="74617" user="JohnSmith" changeset="5176956">
    <nd ref="277844823"/>
    <nd ref="277844854"/>
    <nd ref="277844824"/>
    <nd ref="277844825"/>
    <nd ref="277844826"/>
    <tag k="highway" v="residential"/>
    <tag k="maxspeed" v="50"/>
    <tag k="maxspeed:source" v="default residential speed limit in Australia"/>
    <tag k="name" v="Lowes Way"/>
  </way>
  <way id="25499623" version="6" timestamp="2012-01-16T22:41:08Z" uid="147510" user="woodpeck_fixbot" changeset="10412890">
    <nd ref="277844823"/>
    <nd ref="277844854"/>
    <nd ref="277844824"/>
    <nd ref="277844825"/>
    <nd ref="277844826"/>
    <tag k="highway" v="residential"/>
    <tag k="name" v="Lowes Way"/>
  </way>
  <way id="25499626" version="3" timestamp="2010-07-09T22:14:15Z" uid="74617" user="JohnSmith" changeset="5176956">
    <nd ref="277844843"/>
    <nd ref="587606566"/>
    <nd ref="277844844"/>
    <nd ref="277844823"/>
    <nd ref="587606570"/>
    <nd ref="277844845"/>
    <nd ref="277844846"/>
    <tag k="highway" v="residential"/>
    <tag k="maxspeed" v="50"/>
    <tag k="maxspeed:source" v="default residential speed limit in Australia"/>
    <tag k="name" v="Hacking Place"/>
  </way>
  <way id="25499626" version="4" timestamp="2012-01-16T22:41:09Z" uid="147510" user="woodpeck_fixbot" changeset="10412890">
    <nd ref="277844843"/>
    <nd ref="587606566"/>
    <nd ref="277844844"/>
    <nd ref="277844823"/>
    <nd ref="587606570"/>
    <nd ref="277844845"/>
    <nd ref="277844846"/>
    <tag k="highway" v="residential"/>
    <tag k="name" v="Hacking Place"/>
  </way>
  <way id="25499628" version="2" timestamp="2010-07-09T22:14:46Z" uid="74617" user="JohnSmith" changeset="5176956">
    <nd ref="277844852"/>
    <nd ref="277844853"/>
    <nd ref="277844854"/>
    <tag k="highway" v="residential"/>
    <tag k="maxspeed" v="50"/>
    <tag k="maxspeed:source" v="default residential speed limit in Australia"/>
    <tag k="name" v="Paterson Place"/>
  </way>
  <way id="25499628" version="3" timestamp="2012-01-16T22:41:11Z" uid="147510" user="woodpeck_fixbot" changeset="10412890">
    <nd ref="277844852"/>
    <nd ref="277844853"/>
    <nd ref="277844854"/>
    <tag k="highway" v="residential"/>
    <tag k="name" v="Paterson Place"/>
  </way>
  <way id="25499643" version="3" timestamp="2010-06-29T19:03:46Z" uid="74617" user="JohnSmith" changeset="5108182">
    <nd ref="277844910"/>
    <nd ref="277844911"/>
    <nd ref="277844912"/>
    <nd ref="277844913"/>
    <nd ref="277844910"/>
    <tag k="fixme" v="sport=football is ambiguous, see http://wiki.osm.org/wiki/Football for more details"/>
    <tag k="sport" v="football"/>
  </way>
  <way id="25499643" version="4" timestamp="2011-08-07T10:45:06Z" uid="38735" user="GPS-Wolf" changeset="8945616">
    <nd ref="277844910"/>
    <nd ref="277844911"/>
    <nd ref="277844912"/>
    <nd ref="277844913"/>
    <nd ref="277844910"/>
    <tag k="leisure" v="pitch"/>
    <tag k="sport" v="multi"/>
  </way>
  <way id="25499658" version="2" timestamp="2010-07-09T18:00:35Z" uid="74617" user="JohnSmith" changeset="5175636">
    <nd ref="277844965"/>
    <nd ref="277844966"/>
    <nd ref="277844967"/>
    <nd ref="277844968"/>
    <tag k="highway" v="residential"/>
    <tag k="maxspeed" v="50"/>
    <tag k="maxspeed:source" v="default residential speed limit in Australia"/>
    <tag k="name" v="Breen Place"/>
  </way>
  <way id="25499658" version="3" timestamp="2012-01-16T22:41:12Z" uid="147510" user="woodpeck_fixbot" changeset="10412890">
    <nd ref="277844965"/>
    <nd ref="277844966"/>
    <nd ref="277844967"/>
    <nd ref="277844968"/>
    <tag k="highway" v="residential"/>
    <tag k="name" v="Breen Place"/>
  </way>
  <way id="25499661" version="3" timestamp="2010-07-09T17:56:23Z" uid="74617" user="JohnSmith" changeset="5175636">
    <nd ref="277844984"/>
    <nd ref="277844985"/>
    <nd ref="277844986"/>
    <nd ref="277844987"/>
    <nd ref="277844988"/>
    <nd ref="277844989"/>
    <nd ref="277844990"/>
    <nd ref="277844991"/>
    <nd ref="277844992"/>
    <nd ref="614106222"/>
    <nd ref="277844993"/>
    <tag k="highway" v="residential"/>
    <tag k="maxspeed" v="50"/>
    <tag k="maxspeed:source" v="default residential speed limit in Australia"/>
    <tag k="name" v="Groyder Way"/>
  </way>
  <way id="25499661" version="4" timestamp="2012-01-16T22:41:14Z" uid="147510" user="woodpeck_fixbot" changeset="10412890">
    <nd ref="277844984"/>
    <nd ref="277844985"/>
    <nd ref="277844986"/>
    <nd ref="277844987"/>
    <nd ref="277844988"/>
    <nd ref="277844989"/>
    <nd ref="277844990"/>
    <nd ref="277844991"/>
    <nd ref="277844992"/>
    <nd ref="614106222"/>
    <nd ref="277844993"/>
    <tag k="highway" v="residential"/>
    <tag k="name" v="Groyder Way"/>
  </way>
  <way id="25499664" version="5" timestamp="2010-07-09T18:02:44Z" uid="74617" user="JohnSmith" changeset="5175636">
    <nd ref="277845000"/>
    <nd ref="616088143"/>
    <nd ref="277845001"/>
    <nd ref="616088144"/>
    <nd ref="277845025"/>
    <nd ref="277845003"/>
    <nd ref="277845004"/>
    <nd ref="277845005"/>
    <nd ref="277845006"/>
    <nd ref="277845007"/>
    <nd ref="277845008"/>
    <tag k="highway" v="residential"/>
    <tag k="maxspeed" v="50"/>
    <tag k="maxspeed:source" v="default residential speed limit in Australia"/>
    <tag k="name" v="Farrell Way"/>
  </way>
  <way id="25499664" version="6" timestamp="2012-01-16T22:41:15Z" uid="147510" user="woodpeck_fixbot" changeset="10412890">
    <nd ref="277845000"/>
    <nd ref="616088143"/>
    <nd ref="277845001"/>
    <nd ref="616088144"/>
    <nd ref="277845025"/>
    <nd ref="277845003"/>
    <nd ref="277845004"/>
    <nd ref="277845005"/>
    <nd ref="277845006"/>
    <nd ref="277845007"/>
    <nd ref="277845008"/>
    <tag k="highway" v="residential"/>
    <tag k="name" v="Farrell Way"/>
  </way>
  <way id="25499667" version="4" timestamp="2010-07-09T17:58:47Z" uid="74617" user="JohnSmith" changeset="5175636">
    <nd ref="277845033"/>
    <nd ref="277845008"/>
    <nd ref="277845022"/>
    <nd ref="277845000"/>
    <tag k="highway" v="residential"/>
    <tag k="maxspeed" v="50"/>
    <tag k="maxspeed:source" v="default residential speed limit in Australia"/>
    <tag k="name" v="Birch Road"/>
  </way>
  <way id="25499667" version="5" timestamp="2012-01-16T22:41:16Z" uid="147510" user="woodpeck_fixbot" changeset="10412890">
    <nd ref="277845033"/>
    <nd ref="277845008"/>
    <nd ref="277845022"/>
    <nd ref="277845000"/>
    <tag k="highway" v="residential"/>
    <tag k="name" v="Birch Road"/>
  </way>
  <way id="25499672" version="3" timestamp="2010-07-09T17:56:53Z" uid="74617" user="JohnSmith" changeset="5175636">
    <nd ref="277845040"/>
    <nd ref="616086919"/>
    <nd ref="277845041"/>
    <nd ref="277845042"/>
    <nd ref="277845043"/>
    <tag k="highway" v="residential"/>
    <tag k="maxspeed" v="50"/>
    <tag k="maxspeed:source" v="default residential speed limit in Australia"/>
    <tag k="name" v="Renou Street"/>
  </way>
  <way id="25499672" version="4" timestamp="2012-01-16T22:41:18Z" uid="147510" user="woodpeck_fixbot" changeset="10412890">
    <nd ref="277845040"/>
    <nd ref="616086919"/>
    <nd ref="277845041"/>
    <nd ref="277845042"/>
    <nd ref="277845043"/>
    <tag k="highway" v="residential"/>
    <tag k="name" v="Renou Street"/>
  </way>
  <way id="25499679" version="3" timestamp="2010-07-09T17:55:20Z" uid="74617" user="JohnSmith" changeset="5175636">
    <nd ref="277845060"/>
    <nd ref="277845061"/>
    <nd ref="614106215"/>
    <nd ref="277845062"/>
    <nd ref="277845063"/>
    <nd ref="277845064"/>
    <nd ref="277845065"/>
    <nd ref="277845066"/>
    <nd ref="277845067"/>
    <nd ref="277845068"/>
    <nd ref="277845040"/>
    <tag k="highway" v="residential"/>
    <tag k="maxspeed" v="50"/>
    <tag k="maxspeed:source" v="default residential speed limit in Australia"/>
    <tag k="name" v="Newcombe Way"/>
  </way>
  <way id="25499679" version="4" timestamp="2012-01-16T22:41:20Z" uid="147510" user="woodpeck_fixbot" changeset="10412890">
    <nd ref="277845060"/>
    <nd ref="277845061"/>
    <nd ref="614106215"/>
    <nd ref="277845062"/>
    <nd ref="277845063"/>
    <nd ref="277845064"/>
    <nd ref="277845065"/>
    <nd ref="277845066"/>
    <nd ref="277845067"/>
    <nd ref="277845068"/>
    <nd ref="277845040"/>
    <tag k="highway" v="residential"/>
    <tag k="name" v="Newcombe Way"/>
  </way>
  <way id="25499686" version="5" timestamp="2010-07-09T17:54:53Z" uid="74617" user="JohnSmith" changeset="5175636">
    <nd ref="277845083"/>
    <nd ref="277845084"/>
    <nd ref="277845085"/>
    <nd ref="277845086"/>
    <nd ref="277845087"/>
    <nd ref="277845088"/>
    <nd ref="429711407"/>
    <nd ref="277845089"/>
    <nd ref="429711408"/>
    <nd ref="277845090"/>
    <nd ref="429711409"/>
    <nd ref="277845091"/>
    <nd ref="277845092"/>
    <nd ref="430746594"/>
    <nd ref="277845093"/>
    <nd ref="430746596"/>
    <nd ref="429711410"/>
    <nd ref="277845094"/>
    <nd ref="277845095"/>
    <nd ref="277845060"/>
    <nd ref="277845096"/>
    <nd ref="277845097"/>
    <nd ref="277845098"/>
    <nd ref="277845099"/>
    <nd ref="277845040"/>
    <tag k="highway" v="residential"/>
    <tag k="maxspeed" v="50"/>
    <tag k="maxspeed:source" v="default residential speed limit in Australia"/>
    <tag k="name" v="Ellison Drive"/>
  </way>
  <way id="25499686" version="6" timestamp="2012-01-16T22:41:22Z" uid="147510" user="woodpeck_fixbot" changeset="10412890">
    <nd ref="277845083"/>
    <nd ref="277845084"/>
    <nd ref="277845085"/>
    <nd ref="277845086"/>
    <nd ref="277845087"/>
    <nd ref="277845088"/>
    <nd ref="429711407"/>
    <nd ref="277845089"/>
    <nd ref="429711408"/>
    <nd ref="277845090"/>
    <nd ref="429711409"/>
    <nd ref="277845091"/>
    <nd ref="277845092"/>
    <nd ref="430746594"/>
    <nd ref="277845093"/>
    <nd ref="430746596"/>
    <nd ref="429711410"/>
    <nd ref="277845094"/>
    <nd ref="277845095"/>
    <nd ref="277845060"/>
    <nd ref="277845096"/>
    <nd ref="277845097"/>
    <nd ref="277845098"/>
    <nd ref="277845099"/>
    <nd ref="277845040"/>
    <tag k="highway" v="residential"/>
    <tag k="name" v="Ellison Drive"/>
  </way>
  <way id="25499687" version="3" timestamp="2010-07-09T17:59:30Z" uid="74617" user="JohnSmith" changeset="5175636">
    <nd ref="277845112"/>
    <nd ref="277845113"/>
    <nd ref="277845114"/>
    <nd ref="616088167"/>
    <nd ref="277845115"/>
    <nd ref="277845116"/>
    <nd ref="277845117"/>
    <tag k="highway" v="residential"/>
    <tag k="maxspeed" v="50"/>
    <tag k="maxspeed:source" v="default residential speed limit in Australia"/>
    <tag k="name" v="Rudall Way"/>
  </way>
  <way id="25499687" version="4" timestamp="2012-01-16T22:41:23Z" uid="147510" user="woodpeck_fixbot" changeset="10412890">
    <nd ref="277845112"/>
    <nd ref="277845113"/>
    <nd ref="277845114"/>
    <nd ref="616088167"/>
    <nd ref="277845115"/>
    <nd ref="277845116"/>
    <nd ref="277845117"/>
    <tag k="highway" v="residential"/>
    <tag k="name" v="Rudall Way"/>
  </way>
  <way id="25499717" version="6" timestamp="2010-07-09T18:03:18Z" uid="74617" user="JohnSmith" changeset="5175636">
    <nd ref="277845227"/>
    <nd ref="277845228"/>
    <nd ref="277845229"/>
    <nd ref="277845230"/>
    <nd ref="277845231"/>
    <nd ref="277845264"/>
    <nd ref="277845257"/>
    <nd ref="277845233"/>
    <nd ref="277845234"/>
    <nd ref="277845235"/>
    <nd ref="277845236"/>
    <nd ref="277845237"/>
    <nd ref="277845238"/>
    <nd ref="277845286"/>
    <nd ref="277845239"/>
    <nd ref="277845240"/>
    <nd ref="277845241"/>
    <nd ref="277845252"/>
    <nd ref="277845242"/>
    <tag k="highway" v="residential"/>
    <tag k="maxspeed" v="50"/>
    <tag k="maxspeed:source" v="default residential speed limit in Australia"/>
    <tag k="name" v="Lushington Drive"/>
  </way>
  <way id="25499717" version="7" timestamp="2012-01-16T22:41:24Z" uid="147510" user="woodpeck_fixbot" changeset="10412890">
    <nd ref="277845227"/>
    <nd ref="277845228"/>
    <nd ref="277845229"/>
    <nd ref="277845230"/>
    <nd ref="277845231"/>
    <nd ref="277845264"/>
    <nd ref="277845257"/>
    <nd ref="277845233"/>
    <nd ref="277845234"/>
    <nd ref="277845235"/>
    <nd ref="277845236"/>
    <nd ref="277845237"/>
    <nd ref="277845238"/>
    <nd ref="277845286"/>
    <nd ref="277845239"/>
    <nd ref="277845240"/>
    <nd ref="277845241"/>
    <nd ref="277845252"/>
    <nd ref="277845242"/>
    <tag k="highway" v="residential"/>
    <tag k="name" v="Lushington Drive"/>
  </way>
  <way id="25499719" version="3" timestamp="2010-07-09T17:54:35Z" uid="74617" user="JohnSmith" changeset="5175636">
    <nd ref="277845263"/>
    <nd ref="277845247"/>
    <nd ref="277845248"/>
    <nd ref="277845249"/>
    <nd ref="277845250"/>
    <nd ref="277845251"/>
    <nd ref="277845252"/>
    <tag k="highway" v="residential"/>
    <tag k="maxspeed" v="50"/>
    <tag k="maxspeed:source" v="default residential speed limit in Australia"/>
    <tag k="name" v="Cunningham Place"/>
  </way>
  <way id="25499719" version="4" timestamp="2012-01-16T22:41:26Z" uid="147510" user="woodpeck_fixbot" changeset="10412890">
    <nd ref="277845263"/>
    <nd ref="277845247"/>
    <nd ref="277845248"/>
    <nd ref="277845249"/>
    <nd ref="277845250"/>
    <nd ref="277845251"/>
    <nd ref="277845252"/>
    <tag k="highway" v="residential"/>
    <tag k="name" v="Cunningham Place"/>
  </way>
  <way id="25499720" version="3" timestamp="2010-07-09T18:00:03Z" uid="74617" user="JohnSmith" changeset="5175636">
    <nd ref="277845256"/>
    <nd ref="277845257"/>
    <tag k="highway" v="residential"/>
    <tag k="maxspeed" v="50"/>
    <tag k="maxspeed:source" v="default residential speed limit in Australia"/>
    <tag k="name" v="Logan Court"/>
  </way>
  <way id="25499720" version="4" timestamp="2012-01-16T22:41:27Z" uid="147510" user="woodpeck_fixbot" changeset="10412890">
    <nd ref="277845256"/>
    <nd ref="277845257"/>
    <tag k="highway" v="residential"/>
    <tag k="name" v="Logan Court"/>
  </way>
  <way id="25499726" version="2" timestamp="2010-07-09T17:54:15Z" uid="74617" user="JohnSmith" changeset="5175636">
    <nd ref="277845283"/>
    <nd ref="277845284"/>
    <nd ref="277845285"/>
    <nd ref="277845286"/>
    <tag k="highway" v="residential"/>
    <tag k="maxspeed" v="50"/>
    <tag k="maxspeed:source" v="default residential speed limit in Australia"/>
    <tag k="name" v="Jardine Place"/>
  </way>
  <way id="25499726" version="3" timestamp="2012-01-16T22:41:28Z" uid="147510" user="woodpeck_fixbot" changeset="10412890">
    <nd ref="277845283"/>
    <nd ref="277845284"/>
    <nd ref="277845285"/>
    <nd ref="277845286"/>
    <tag k="highway" v="residential"/>
    <tag k="name" v="Jardine Place"/>
  </way>
  <way id="25499728" version="2" timestamp="2010-07-09T18:03:47Z" uid="74617" user="JohnSmith" changeset="5175636">
    <nd ref="277845289"/>
    <nd ref="277845236"/>
    <tag k="highway" v="residential"/>
    <tag k="maxspeed" v="50"/>
    <tag k="maxspeed:source" v="default residential speed limit in Australia"/>
    <tag k="name" v="Hume Place"/>
  </way>
  <way id="25499728" version="3" timestamp="2012-01-16T22:41:30Z" uid="147510" user="woodpeck_fixbot" changeset="10412890">
    <nd ref="277845289"/>
    <nd ref="277845236"/>
    <tag k="highway" v="residential"/>
    <tag k="name" v="Hume Place"/>
  </way>
  <way id="25499731" version="3" timestamp="2010-07-09T17:59:42Z" uid="74617" user="JohnSmith" changeset="5175636">
    <nd ref="277845294"/>
    <nd ref="277845307"/>
    <nd ref="277845295"/>
    <nd ref="277845296"/>
    <nd ref="277845297"/>
    <nd ref="277845298"/>
    <nd ref="277845294"/>
    <nd ref="277845299"/>
    <nd ref="277845300"/>
    <nd ref="277845301"/>
    <nd ref="277845302"/>
    <nd ref="277845303"/>
    <nd ref="277845304"/>
    <tag k="highway" v="residential"/>
    <tag k="maxspeed" v="50"/>
    <tag k="maxspeed:source" v="default residential speed limit in Australia"/>
    <tag k="name" v="Buchanan Way"/>
  </way>
  <way id="25499731" version="4" timestamp="2012-01-16T22:41:31Z" uid="147510" user="woodpeck_fixbot" changeset="10412890">
    <nd ref="277845294"/>
    <nd ref="277845307"/>
    <nd ref="277845295"/>
    <nd ref="277845296"/>
    <nd ref="277845297"/>
    <nd ref="277845298"/>
    <nd ref="277845294"/>
    <nd ref="277845299"/>
    <nd ref="277845300"/>
    <nd ref="277845301"/>
    <nd ref="277845302"/>
    <nd ref="277845303"/>
    <nd ref="277845304"/>
    <tag k="highway" v="residential"/>
    <tag k="name" v="Buchanan Way"/>
  </way>
  <way id="25499732" version="2" timestamp="2010-07-09T17:57:03Z" uid="74617" user="JohnSmith" changeset="5175636">
    <nd ref="277845305"/>
    <nd ref="277845295"/>
    <tag k="highway" v="residential"/>
    <tag k="maxspeed" v="50"/>
    <tag k="maxspeed:source" v="default residential speed limit in Australia"/>
    <tag k="name" v="Minchin Court"/>
  </way>
  <way id="25499732" version="3" timestamp="2012-01-16T22:41:33Z" uid="147510" user="woodpeck_fixbot" changeset="10412890">
    <nd ref="277845305"/>
    <nd ref="277845295"/>
    <tag k="highway" v="residential"/>
    <tag k="name" v="Minchin Court"/>
  </way>
  <way id="25499733" version="2" timestamp="2010-07-09T18:01:12Z" uid="74617" user="JohnSmith" changeset="5175636">
    <nd ref="277845306"/>
    <nd ref="277845307"/>
    <tag k="highway" v="residential"/>
    <tag k="maxspeed" v="50"/>
    <tag k="maxspeed:source" v="default residential speed limit in Australia"/>
    <tag k="name" v="King Place"/>
  </way>
  <way id="25499733" version="3" timestamp="2012-01-16T22:41:35Z" uid="147510" user="woodpeck_fixbot" changeset="10412890">
    <nd ref="277845306"/>
    <nd ref="277845307"/>
    <tag k="highway" v="residential"/>
    <tag k="name" v="King Place"/>
  </way>
  <way id="25499736" version="5" timestamp="2010-07-09T17:57:56Z" uid="74617" user="JohnSmith" changeset="5175636">
    <nd ref="277845335"/>
    <nd ref="277845336"/>
    <nd ref="615116195"/>
    <nd ref="277845337"/>
    <nd ref="277845338"/>
    <nd ref="277845339"/>
    <nd ref="277845340"/>
    <nd ref="277845341"/>
    <nd ref="277845335"/>
    <nd ref="277845342"/>
    <tag k="highway" v="residential"/>
    <tag k="maxspeed" v="50"/>
    <tag k="maxspeed:source" v="default residential speed limit in Australia"/>
    <tag k="name" v="Armytage Way"/>
  </way>
  <way id="25499736" version="6" timestamp="2012-01-16T22:41:36Z" uid="147510" user="woodpeck_fixbot" changeset="10412890">
    <nd ref="277845335"/>
    <nd ref="277845336"/>
    <nd ref="615116195"/>
    <nd ref="277845337"/>
    <nd ref="277845338"/>
    <nd ref="277845339"/>
    <nd ref="277845340"/>
    <nd ref="277845341"/>
    <nd ref="277845335"/>
    <nd ref="277845342"/>
    <tag k="highway" v="residential"/>
    <tag k="name" v="Armytage Way"/>
  </way>
  <way id="25499738" version="3" timestamp="2010-07-09T17:59:21Z" uid="74617" user="JohnSmith" changeset="5175636">
    <nd ref="277845348"/>
    <nd ref="277845349"/>
    <nd ref="277845350"/>
    <nd ref="277845351"/>
    <nd ref="615114587"/>
    <nd ref="277845352"/>
    <nd ref="277845353"/>
    <nd ref="277845354"/>
    <nd ref="615114584"/>
    <nd ref="277845355"/>
    <nd ref="277845356"/>
    <nd ref="277845357"/>
    <nd ref="615114583"/>
    <nd ref="277845358"/>
    <nd ref="277845359"/>
    <nd ref="277845348"/>
    <nd ref="277845360"/>
    <tag k="highway" v="residential"/>
    <tag k="maxspeed" v="50"/>
    <tag k="maxspeed:source" v="default residential speed limit in Australia"/>
    <tag k="name" v="Hurley Way"/>
  </way>
  <way id="25499738" version="4" timestamp="2012-01-16T22:41:38Z" uid="147510" user="woodpeck_fixbot" changeset="10412890">
    <nd ref="277845348"/>
    <nd ref="277845349"/>
    <nd ref="277845350"/>
    <nd ref="277845351"/>
    <nd ref="615114587"/>
    <nd ref="277845352"/>
    <nd ref="277845353"/>
    <nd ref="277845354"/>
    <nd ref="615114584"/>
    <nd ref="277845355"/>
    <nd ref="277845356"/>
    <nd ref="277845357"/>
    <nd ref="615114583"/>
    <nd ref="277845358"/>
    <nd ref="277845359"/>
    <nd ref="277845348"/>
    <nd ref="277845360"/>
    <tag k="highway" v="residential"/>
    <tag k="name" v="Hurley Way"/>
  </way>
  <way id="25499739" version="4" timestamp="2010-07-09T22:12:01Z" uid="74617" user="JohnSmith" changeset="5176956">
    <nd ref="277845390"/>
    <nd ref="277845391"/>
    <nd ref="277845392"/>
    <nd ref="277845393"/>
    <nd ref="277845394"/>
    <nd ref="277845395"/>
    <nd ref="615114582"/>
    <nd ref="277845396"/>
    <nd ref="277845397"/>
    <nd ref="277845398"/>
    <nd ref="277845399"/>
    <nd ref="277845400"/>
    <nd ref="277845390"/>
    <tag k="highway" v="residential"/>
    <tag k="maxspeed" v="50"/>
    <tag k="maxspeed:source" v="default residential speed limit in Australia"/>
    <tag k="name" v="Nimrod Place"/>
  </way>
  <way id="25499739" version="5" timestamp="2012-01-16T22:41:39Z" uid="147510" user="woodpeck_fixbot" changeset="10412890">
    <nd ref="277845390"/>
    <nd ref="277845391"/>
    <nd ref="277845392"/>
    <nd ref="277845393"/>
    <nd ref="277845394"/>
    <nd ref="277845395"/>
    <nd ref="615114582"/>
    <nd ref="277845396"/>
    <nd ref="277845397"/>
    <nd ref="277845398"/>
    <nd ref="277845399"/>
    <nd ref="277845400"/>
    <nd ref="277845390"/>
    <tag k="highway" v="residential"/>
    <tag k="name" v="Nimrod Place"/>
  </way>
  <way id="25499767" version="3" timestamp="2010-07-09T22:12:49Z" uid="74617" user="JohnSmith" changeset="5176956">
    <nd ref="277845428"/>
    <nd ref="277845429"/>
    <nd ref="277845430"/>
    <nd ref="277845431"/>
    <nd ref="277845432"/>
    <nd ref="277845433"/>
    <nd ref="277845434"/>
    <nd ref="277845435"/>
    <tag k="highway" v="residential"/>
    <tag k="maxspeed" v="50"/>
    <tag k="maxspeed:source" v="default residential speed limit in Australia"/>
    <tag k="name" v="Bage Court"/>
  </way>
  <way id="25499767" version="4" timestamp="2012-01-16T22:41:41Z" uid="147510" user="woodpeck_fixbot" changeset="10412890">
    <nd ref="277845428"/>
    <nd ref="277845429"/>
    <nd ref="277845430"/>
    <nd ref="277845431"/>
    <nd ref="277845432"/>
    <nd ref="277845433"/>
    <nd ref="277845434"/>
    <nd ref="277845435"/>
    <tag k="highway" v="residential"/>
    <tag k="name" v="Bage Court"/>
  </way>
  <way id="25499768" version="3" timestamp="2010-07-09T22:11:57Z" uid="74617" user="JohnSmith" changeset="5176956">
    <nd ref="277845437"/>
    <nd ref="277845438"/>
    <nd ref="277845439"/>
    <nd ref="277845440"/>
    <nd ref="277845441"/>
    <nd ref="277845442"/>
    <nd ref="277845443"/>
    <nd ref="277845444"/>
    <nd ref="277845445"/>
    <nd ref="277845446"/>
    <nd ref="589408929"/>
    <nd ref="277845447"/>
    <nd ref="277845448"/>
    <nd ref="277845437"/>
    <nd ref="277845449"/>
    <tag k="highway" v="residential"/>
    <tag k="maxspeed" v="50"/>
    <tag k="maxspeed:source" v="default residential speed limit in Australia"/>
    <tag k="name" v="Taylor Way"/>
  </way>
  <way id="25499768" version="4" timestamp="2012-01-16T22:41:44Z" uid="147510" user="woodpeck_fixbot" changeset="10412890">
    <nd ref="277845437"/>
    <nd ref="277845438"/>
    <nd ref="277845439"/>
    <nd ref="277845440"/>
    <nd ref="277845441"/>
    <nd ref="277845442"/>
    <nd ref="277845443"/>
    <nd ref="277845444"/>
    <nd ref="277845445"/>
    <nd ref="277845446"/>
    <nd ref="589408929"/>
    <nd ref="277845447"/>
    <nd ref="277845448"/>
    <nd ref="277845437"/>
    <nd ref="277845449"/>
    <tag k="highway" v="residential"/>
    <tag k="name" v="Taylor Way"/>
  </way>
  <way id="25499771" version="2" timestamp="2010-07-09T22:14:38Z" uid="74617" user="JohnSmith" changeset="5176956">
    <nd ref="277845452"/>
    <nd ref="277845453"/>
    <nd ref="277845454"/>
    <nd ref="277845455"/>
    <nd ref="277845456"/>
    <nd ref="277845457"/>
    <nd ref="277845458"/>
    <nd ref="277845459"/>
    <nd ref="277845460"/>
    <nd ref="277845461"/>
    <nd ref="277360680"/>
    <tag k="highway" v="residential"/>
    <tag k="maxspeed" v="50"/>
    <tag k="maxspeed:source" v="default residential speed limit in Australia"/>
    <tag k="name" v="Mackay Way"/>
  </way>
  <way id="25499771" version="3" timestamp="2012-01-16T22:41:48Z" uid="147510" user="woodpeck_fixbot" changeset="10412890">
    <nd ref="277845452"/>
    <nd ref="277845453"/>
    <nd ref="277845454"/>
    <nd ref="277845455"/>
    <nd ref="277845456"/>
    <nd ref="277845457"/>
    <nd ref="277845458"/>
    <nd ref="277845459"/>
    <nd ref="277845460"/>
    <nd ref="277845461"/>
    <nd ref="277360680"/>
    <tag k="highway" v="residential"/>
    <tag k="name" v="Mackay Way"/>
  </way>
  <way id="25499773" version="5" timestamp="2010-07-09T18:00:34Z" uid="74617" user="JohnSmith" changeset="5175636">
    <nd ref="277845462"/>
    <nd ref="559549525"/>
    <nd ref="277845463"/>
    <nd ref="277845471"/>
    <nd ref="615116197"/>
    <nd ref="277845464"/>
    <nd ref="277845465"/>
    <tag k="highway" v="residential"/>
    <tag k="maxspeed" v="50"/>
    <tag k="maxspeed:source" v="default residential speed limit in Australia"/>
    <tag k="name" v="Scott Place"/>
  </way>
  <way id="25499773" version="6" timestamp="2012-01-16T22:41:51Z" uid="147510" user="woodpeck_fixbot" changeset="10412890">
    <nd ref="277845462"/>
    <nd ref="559549525"/>
    <nd ref="277845463"/>
    <nd ref="277845471"/>
    <nd ref="615116197"/>
    <nd ref="277845464"/>
    <nd ref="277845465"/>
    <tag k="highway" v="residential"/>
    <tag k="name" v="Scott Place"/>
  </way>
  <way id="25499774" version="2" timestamp="2010-07-09T17:58:01Z" uid="74617" user="JohnSmith" changeset="5175636">
    <nd ref="277845466"/>
    <nd ref="277845467"/>
    <nd ref="277845468"/>
    <nd ref="277845469"/>
    <nd ref="277845470"/>
    <nd ref="277845471"/>
    <tag k="highway" v="residential"/>
    <tag k="maxspeed" v="50"/>
    <tag k="maxspeed:source" v="default residential speed limit in Australia"/>
    <tag k="name" v="Webb Place"/>
  </way>
  <way id="25499774" version="3" timestamp="2012-01-16T22:41:53Z" uid="147510" user="woodpeck_fixbot" changeset="10412890">
    <nd ref="277845466"/>
    <nd ref="277845467"/>
    <nd ref="277845468"/>
    <nd ref="277845469"/>
    <nd ref="277845470"/>
    <nd ref="277845471"/>
    <tag k="highway" v="residential"/>
    <tag k="name" v="Webb Place"/>
  </way>
  <way id="25499776" version="2" timestamp="2010-07-09T18:03:01Z" uid="74617" user="JohnSmith" changeset="5175636">
    <nd ref="277845486"/>
    <nd ref="277845487"/>
    <nd ref="277360685"/>
    <tag k="highway" v="residential"/>
    <tag k="maxspeed" v="50"/>
    <tag k="maxspeed:source" v="default residential speed limit in Australia"/>
    <tag k="name" v="Cotton Place"/>
  </way>
  <way id="25499776" version="3" timestamp="2012-01-16T22:41:54Z" uid="147510" user="woodpeck_fixbot" changeset="10412890">
    <nd ref="277845486"/>
    <nd ref="277845487"/>
    <nd ref="277360685"/>
    <tag k="highway" v="residential"/>
    <tag k="name" v="Cotton Place"/>
  </way>
  <way id="25499778" version="3" timestamp="2010-07-09T22:13:00Z" uid="74617" user="JohnSmith" changeset="5176956">
    <nd ref="589410802"/>
    <nd ref="277845489"/>
    <nd ref="277845490"/>
    <tag k="highway" v="residential"/>
    <tag k="maxspeed" v="50"/>
    <tag k="maxspeed:source" v="default residential speed limit in Australia"/>
    <tag k="name" v="Ninnis Place North"/>
  </way>
  <way id="25499778" version="4" timestamp="2012-01-16T22:41:55Z" uid="147510" user="woodpeck_fixbot" changeset="10412890">
    <nd ref="589410802"/>
    <nd ref="277845489"/>
    <nd ref="277845490"/>
    <tag k="highway" v="residential"/>
    <tag k="name" v="Ninnis Place North"/>
  </way>
  <way id="25499779" version="2" timestamp="2010-07-09T22:15:07Z" uid="74617" user="JohnSmith" changeset="5176956">
    <nd ref="277845491"/>
    <nd ref="277845492"/>
    <tag k="highway" v="residential"/>
    <tag k="maxspeed" v="50"/>
    <tag k="maxspeed:source" v="default residential speed limit in Australia"/>
    <tag k="name" v="Ninnis Place South"/>
  </way>
  <way id="25499779" version="3" timestamp="2012-01-16T22:41:58Z" uid="147510" user="woodpeck_fixbot" changeset="10412890">
    <nd ref="277845491"/>
    <nd ref="277845492"/>
    <tag k="highway" v="residential"/>
    <tag k="name" v="Ninnis Place South"/>
  </way>
  <way id="25499783" version="3" timestamp="2010-07-09T22:12:05Z" uid="74617" user="JohnSmith" changeset="5176956">
    <nd ref="277845504"/>
    <nd ref="277845505"/>
    <tag k="highway" v="residential"/>
    <tag k="maxspeed" v="50"/>
    <tag k="maxspeed:source" v="default residential speed limit in Australia"/>
    <tag k="name" v="Mertz Court"/>
  </way>
  <way id="25499783" version="4" timestamp="2012-01-16T22:41:59Z" uid="147510" user="woodpeck_fixbot" changeset="10412890">
    <nd ref="277845504"/>
    <nd ref="277845505"/>
    <tag k="highway" v="residential"/>
    <tag k="name" v="Mertz Court"/>
  </way>
  <way id="25499784" version="4" timestamp="2010-07-09T22:15:12Z" uid="74617" user="JohnSmith" changeset="5176956">
    <nd ref="277845507"/>
    <nd ref="277845508"/>
    <tag k="highway" v="residential"/>
    <tag k="maxspeed" v="50"/>
    <tag k="maxspeed:source" v="default residential speed limit in Australia"/>
    <tag k="name" v="Bootie Place"/>
    <tag k="source" v="survey"/>
  </way>
  <way id="25499784" version="5" timestamp="2012-01-16T22:42:00Z" uid="147510" user="woodpeck_fixbot" changeset="10412890">
    <nd ref="277845507"/>
    <nd ref="277845508"/>
    <tag k="highway" v="residential"/>
    <tag k="name" v="Bootie Place"/>
    <tag k="source" v="survey"/>
  </way>
  <way id="25499786" version="2" timestamp="2010-07-09T22:11:37Z" uid="74617" user="JohnSmith" changeset="5176956">
    <nd ref="277845517"/>
    <nd ref="277361378"/>
    <tag k="highway" v="residential"/>
    <tag k="maxspeed" v="50"/>
    <tag k="maxspeed:source" v="default residential speed limit in Australia"/>
    <tag k="name" v="Parkinson Court"/>
  </way>
  <way id="25499786" version="3" timestamp="2012-01-16T22:42:01Z" uid="147510" user="woodpeck_fixbot" changeset="10412890">
    <nd ref="277845517"/>
    <nd ref="277361378"/>
    <tag k="highway" v="residential"/>
    <tag k="name" v="Parkinson Court"/>
  </way>
  <way id="25499799" version="7" timestamp="2010-07-09T17:59:48Z" uid="74617" user="JohnSmith" changeset="5175636">
    <nd ref="277845544"/>
    <nd ref="277845545"/>
    <nd ref="277845589"/>
    <nd ref="277845546"/>
    <nd ref="277845574"/>
    <nd ref="277845547"/>
    <nd ref="559896364"/>
    <tag k="highway" v="residential"/>
    <tag k="maxspeed" v="50"/>
    <tag k="maxspeed:source" v="default residential speed limit in Australia"/>
    <tag k="name" v="Conica Crescent"/>
  </way>
  <way id="25499799" version="8" timestamp="2012-01-16T22:42:07Z" uid="147510" user="woodpeck_fixbot" changeset="10412890">
    <nd ref="277845544"/>
    <nd ref="277845545"/>
    <nd ref="277845589"/>
    <nd ref="277845546"/>
    <nd ref="277845574"/>
    <nd ref="277845547"/>
    <nd ref="559896364"/>
    <tag k="highway" v="residential"/>
    <tag k="name" v="Conica Crescent"/>
  </way>
  <way id="25499802" version="3" timestamp="2010-07-09T17:56:25Z" uid="74617" user="JohnSmith" changeset="5175636">
    <nd ref="277845569"/>
    <nd ref="277845570"/>
    <nd ref="277845571"/>
    <nd ref="615117823"/>
    <nd ref="277845572"/>
    <nd ref="277845573"/>
    <nd ref="277845574"/>
    <tag k="highway" v="residential"/>
    <tag k="maxspeed" v="50"/>
    <tag k="maxspeed:source" v="default residential speed limit in Australia"/>
    <tag k="name" v="Bassina Court"/>
  </way>
  <way id="25499802" version="4" timestamp="2012-01-16T22:42:09Z" uid="147510" user="woodpeck_fixbot" changeset="10412890">
    <nd ref="277845569"/>
    <nd ref="277845570"/>
    <nd ref="277845571"/>
    <nd ref="615117823"/>
    <nd ref="277845572"/>
    <nd ref="277845573"/>
    <nd ref="277845574"/>
    <tag k="highway" v="residential"/>
    <tag k="name" v="Bassina Court"/>
  </way>
  <way id="25499803" version="4" timestamp="2010-07-09T18:00:37Z" uid="74617" user="JohnSmith" changeset="5175636">
    <nd ref="277845576"/>
    <nd ref="277845577"/>
    <tag k="highway" v="residential"/>
    <tag k="maxspeed" v="50"/>
    <tag k="maxspeed:source" v="default residential speed limit in Australia"/>
    <tag k="name" v="Wave View"/>
  </way>
  <way id="25499803" version="5" timestamp="2012-01-16T22:42:11Z" uid="147510" user="woodpeck_fixbot" changeset="10412890">
    <nd ref="277845576"/>
    <nd ref="277845577"/>
    <tag k="highway" v="residential"/>
    <tag k="name" v="Wave View"/>
  </way>
  <way id="25499804" version="4" timestamp="2010-07-09T17:58:03Z" uid="74617" user="JohnSmith" changeset="5175636">
    <nd ref="277845578"/>
    <nd ref="277845579"/>
    <nd ref="277845580"/>
    <nd ref="277845581"/>
    <nd ref="277845582"/>
    <nd ref="277845583"/>
    <tag k="highway" v="residential"/>
    <tag k="maxspeed" v="50"/>
    <tag k="maxspeed:source" v="default residential speed limit in Australia"/>
    <tag k="name" v="Mayena Retreat"/>
  </way>
  <way id="25499804" version="5" timestamp="2012-01-16T22:42:12Z" uid="147510" user="woodpeck_fixbot" changeset="10412890">
    <nd ref="277845578"/>
    <nd ref="277845579"/>
    <nd ref="277845580"/>
    <nd ref="277845581"/>
    <nd ref="277845582"/>
    <nd ref="277845583"/>
    <tag k="highway" v="residential"/>
    <tag k="name" v="Mayena Retreat"/>
  </way>
  <way id="25499805" version="4" timestamp="2010-07-09T18:02:03Z" uid="74617" user="JohnSmith" changeset="5175636">
    <nd ref="277845584"/>
    <nd ref="277845585"/>
    <nd ref="277845586"/>
    <tag k="highway" v="residential"/>
    <tag k="maxspeed" v="50"/>
    <tag k="maxspeed:source" v="default residential speed limit in Australia"/>
    <tag k="name" v="Lorica Cove"/>
  </way>
  <way id="25499805" version="5" timestamp="2012-01-16T22:42:13Z" uid="147510" user="woodpeck_fixbot" changeset="10412890">
    <nd ref="277845584"/>
    <nd ref="277845585"/>
    <nd ref="277845586"/>
    <tag k="highway" v="residential"/>
    <tag k="name" v="Lorica Cove"/>
  </way>
  <way id="25499806" version="3" timestamp="2010-07-09T17:59:27Z" uid="74617" user="JohnSmith" changeset="5175636">
    <nd ref="277845587"/>
    <nd ref="615117657"/>
    <nd ref="615117658"/>
    <nd ref="615117659"/>
    <nd ref="277845588"/>
    <nd ref="277845589"/>
    <tag k="highway" v="residential"/>
    <tag k="maxspeed" v="50"/>
    <tag k="maxspeed:source" v="default residential speed limit in Australia"/>
    <tag k="name" v="Ayera Close"/>
  </way>
  <way id="25499806" version="4" timestamp="2012-01-16T22:42:15Z" uid="147510" user="woodpeck_fixbot" changeset="10412890">
    <nd ref="277845587"/>
    <nd ref="615117657"/>
    <nd ref="615117658"/>
    <nd ref="615117659"/>
    <nd ref="277845588"/>
    <nd ref="277845589"/>
    <tag k="highway" v="residential"/>
    <tag k="name" v="Ayera Close"/>
  </way>
  <way id="25499809" version="3" timestamp="2010-07-09T18:02:45Z" uid="74617" user="JohnSmith" changeset="5175636">
    <nd ref="277845627"/>
    <nd ref="277845599"/>
    <nd ref="277845600"/>
    <tag k="highway" v="residential"/>
    <tag k="maxspeed" v="50"/>
    <tag k="maxspeed:source" v="default residential speed limit in Australia"/>
    <tag k="name" v="Cohn Place"/>
  </way>
  <way id="25499809" version="4" timestamp="2012-01-16T22:42:15Z" uid="147510" user="woodpeck_fixbot" changeset="10412890">
    <nd ref="277845627"/>
    <nd ref="277845599"/>
    <nd ref="277845600"/>
    <tag k="highway" v="residential"/>
    <tag k="name" v="Cohn Place"/>
  </way>
  <way id="25499810" version="2" timestamp="2010-07-09T18:00:16Z" uid="74617" user="JohnSmith" changeset="5175636">
    <nd ref="277845601"/>
    <nd ref="277845602"/>
    <nd ref="277845603"/>
    <tag k="highway" v="residential"/>
    <tag k="maxspeed" v="50"/>
    <tag k="maxspeed:source" v="default residential speed limit in Australia"/>
    <tag k="name" v="Bagot Place"/>
  </way>
  <way id="25499810" version="3" timestamp="2012-01-16T22:42:16Z" uid="147510" user="woodpeck_fixbot" changeset="10412890">
    <nd ref="277845601"/>
    <nd ref="277845602"/>
    <nd ref="277845603"/>
    <tag k="highway" v="residential"/>
    <tag k="name" v="Bagot Place"/>
  </way>
  <way id="25499811" version="2" timestamp="2010-07-09T17:54:05Z" uid="74617" user="JohnSmith" changeset="5175636">
    <nd ref="277845604"/>
    <nd ref="277845605"/>
    <tag k="highway" v="residential"/>
    <tag k="maxspeed" v="50"/>
    <tag k="maxspeed:source" v="default residential speed limit in Australia"/>
    <tag k="name" v="Camm Place"/>
  </way>
  <way id="25499811" version="3" timestamp="2012-01-16T22:42:17Z" uid="147510" user="woodpeck_fixbot" changeset="10412890">
    <nd ref="277845604"/>
    <nd ref="277845605"/>
    <tag k="highway" v="residential"/>
    <tag k="name" v="Camm Place"/>
  </way>
  <way id="25499812" version="2" timestamp="2010-07-09T18:01:42Z" uid="74617" user="JohnSmith" changeset="5175636">
    <nd ref="277845606"/>
    <nd ref="277845607"/>
    <nd ref="277845608"/>
    <nd ref="277845605"/>
    <nd ref="277845609"/>
    <nd ref="277845610"/>
    <nd ref="277845611"/>
    <tag k="highway" v="residential"/>
    <tag k="maxspeed" v="50"/>
    <tag k="maxspeed:source" v="default residential speed limit in Australia"/>
    <tag k="name" v="Ewing Drive"/>
  </way>
  <way id="25499812" version="3" timestamp="2012-01-16T22:42:19Z" uid="147510" user="woodpeck_fixbot" changeset="10412890">
    <nd ref="277845606"/>
    <nd ref="277845607"/>
    <nd ref="277845608"/>
    <nd ref="277845605"/>
    <nd ref="277845609"/>
    <nd ref="277845610"/>
    <nd ref="277845611"/>
    <tag k="highway" v="residential"/>
    <tag k="name" v="Ewing Drive"/>
  </way>
  <way id="25499813" version="6" timestamp="2010-07-09T17:55:48Z" uid="74617" user="JohnSmith" changeset="5175636">
    <nd ref="277845612"/>
    <nd ref="277845613"/>
    <nd ref="277845614"/>
    <nd ref="280165193"/>
    <nd ref="277845615"/>
    <nd ref="277845616"/>
    <nd ref="280165170"/>
    <nd ref="277845606"/>
    <nd ref="280165157"/>
    <nd ref="277845617"/>
    <nd ref="277845618"/>
    <tag k="highway" v="residential"/>
    <tag k="maxspeed" v="50"/>
    <tag k="maxspeed:source" v="default residential speed limit in Australia"/>
    <tag k="name" v="Marbella Drive"/>
  </way>
  <way id="25499813" version="7" timestamp="2012-01-16T22:42:21Z" uid="147510" user="woodpeck_fixbot" changeset="10412890">
    <nd ref="277845612"/>
    <nd ref="277845613"/>
    <nd ref="277845614"/>
    <nd ref="280165193"/>
    <nd ref="277845615"/>
    <nd ref="277845616"/>
    <nd ref="280165170"/>
    <nd ref="277845606"/>
    <nd ref="280165157"/>
    <nd ref="277845617"/>
    <nd ref="277845618"/>
    <tag k="highway" v="residential"/>
    <tag k="name" v="Marbella Drive"/>
  </way>
  <way id="25499815" version="3" timestamp="2010-07-09T17:57:37Z" uid="74617" user="JohnSmith" changeset="5175636">
    <nd ref="277845621"/>
    <nd ref="277845622"/>
    <nd ref="280164992"/>
    <nd ref="277845612"/>
    <nd ref="277845623"/>
    <nd ref="277845624"/>
    <tag k="highway" v="residential"/>
    <tag k="maxspeed" v="50"/>
    <tag k="maxspeed:source" v="default residential speed limit in Australia"/>
    <tag k="name" v="Mallorca Avenue"/>
  </way>
  <way id="25499815" version="4" timestamp="2012-01-16T22:42:22Z" uid="147510" user="woodpeck_fixbot" changeset="10412890">
    <nd ref="277845621"/>
    <nd ref="277845622"/>
    <nd ref="280164992"/>
    <nd ref="277845612"/>
    <nd ref="277845623"/>
    <nd ref="277845624"/>
    <tag k="highway" v="residential"/>
    <tag k="name" v="Mallorca Avenue"/>
  </way>
  <way id="25499817" version="5" timestamp="2010-07-09T17:56:54Z" uid="74617" user="JohnSmith" changeset="5175636">
    <nd ref="277845628"/>
    <nd ref="277845629"/>
    <nd ref="277845630"/>
    <nd ref="277845649"/>
    <nd ref="277845631"/>
    <nd ref="277845632"/>
    <nd ref="277845633"/>
    <nd ref="277845644"/>
    <nd ref="277845634"/>
    <nd ref="277845635"/>
    <nd ref="277845641"/>
    <nd ref="277845636"/>
    <nd ref="277845637"/>
    <nd ref="276568944"/>
    <tag k="highway" v="residential"/>
    <tag k="maxspeed" v="50"/>
    <tag k="maxspeed:source" v="default residential speed limit in Australia"/>
    <tag k="name" v="Cornfield Place"/>
  </way>
  <way id="25499817" version="6" timestamp="2012-01-16T22:42:23Z" uid="147510" user="woodpeck_fixbot" changeset="10412890">
    <nd ref="277845628"/>
    <nd ref="277845629"/>
    <nd ref="277845630"/>
    <nd ref="277845649"/>
    <nd ref="277845631"/>
    <nd ref="277845632"/>
    <nd ref="277845633"/>
    <nd ref="277845644"/>
    <nd ref="277845634"/>
    <nd ref="277845635"/>
    <nd ref="277845641"/>
    <nd ref="277845636"/>
    <nd ref="277845637"/>
    <nd ref="276568944"/>
    <tag k="highway" v="residential"/>
    <tag k="name" v="Cornfield Place"/>
  </way>
  <way id="25499818" version="2" timestamp="2010-07-09T17:53:34Z" uid="74617" user="JohnSmith" changeset="5175636">
    <nd ref="277845638"/>
    <nd ref="277845639"/>
    <nd ref="277845640"/>
    <nd ref="277845641"/>
    <tag k="highway" v="residential"/>
    <tag k="maxspeed" v="50"/>
    <tag k="maxspeed:source" v="default residential speed limit in Australia"/>
    <tag k="name" v="Crossland Place"/>
  </way>
  <way id="25499818" version="3" timestamp="2012-01-16T22:42:25Z" uid="147510" user="woodpeck_fixbot" changeset="10412890">
    <nd ref="277845638"/>
    <nd ref="277845639"/>
    <nd ref="277845640"/>
    <nd ref="277845641"/>
    <tag k="highway" v="residential"/>
    <tag k="name" v="Crossland Place"/>
  </way>
  <way id="25499819" version="2" timestamp="2010-07-09T17:58:26Z" uid="74617" user="JohnSmith" changeset="5175636">
    <nd ref="277845642"/>
    <nd ref="277845643"/>
    <nd ref="277845644"/>
    <tag k="highway" v="residential"/>
    <tag k="maxspeed" v="50"/>
    <tag k="maxspeed:source" v="default residential speed limit in Australia"/>
    <tag k="name" v="Mott Court"/>
  </way>
  <way id="25499819" version="3" timestamp="2012-01-16T22:42:26Z" uid="147510" user="woodpeck_fixbot" changeset="10412890">
    <nd ref="277845642"/>
    <nd ref="277845643"/>
    <nd ref="277845644"/>
    <tag k="highway" v="residential"/>
    <tag k="name" v="Mott Court"/>
  </way>
  <way id="25499827" version="6" timestamp="2010-07-09T18:02:07Z" uid="74617" user="JohnSmith" changeset="5175636">
    <nd ref="277845739"/>
    <nd ref="277845740"/>
    <nd ref="277845741"/>
    <nd ref="277845742"/>
    <nd ref="277845743"/>
    <nd ref="277845744"/>
    <nd ref="277845745"/>
    <nd ref="277845746"/>
    <nd ref="277845739"/>
    <nd ref="277845747"/>
    <nd ref="277845748"/>
    <nd ref="277845749"/>
    <nd ref="277845750"/>
    <nd ref="277845751"/>
    <nd ref="277845752"/>
    <nd ref="277845753"/>
    <nd ref="277845754"/>
    <nd ref="277845755"/>
    <nd ref="277845736"/>
    <tag k="highway" v="residential"/>
    <tag k="maxspeed" v="50"/>
    <tag k="maxspeed:source" v="default residential speed limit in Australia"/>
    <tag k="name" v="Northside Drive"/>
  </way>
  <way id="25499827" version="7" timestamp="2012-01-16T22:42:28Z" uid="147510" user="woodpeck_fixbot" changeset="10412890">
    <nd ref="277845739"/>
    <nd ref="277845740"/>
    <nd ref="277845741"/>
    <nd ref="277845742"/>
    <nd ref="277845743"/>
    <nd ref="277845744"/>
    <nd ref="277845745"/>
    <nd ref="277845746"/>
    <nd ref="277845739"/>
    <nd ref="277845747"/>
    <nd ref="277845748"/>
    <nd ref="277845749"/>
    <nd ref="277845750"/>
    <nd ref="277845751"/>
    <nd ref="277845752"/>
    <nd ref="277845753"/>
    <nd ref="277845754"/>
    <nd ref="277845755"/>
    <nd ref="277845736"/>
    <tag k="highway" v="residential"/>
    <tag k="name" v="Northside Drive"/>
  </way>
  <way id="25499828" version="4" timestamp="2010-07-09T17:59:31Z" uid="74617" user="JohnSmith" changeset="5175636">
    <nd ref="276567447"/>
    <nd ref="277845757"/>
    <nd ref="277845736"/>
    <tag k="highway" v="residential"/>
    <tag k="maxspeed" v="50"/>
    <tag k="maxspeed:source" v="default residential speed limit in Australia"/>
    <tag k="name" v="Northside Drive"/>
    <tag k="oneway" v="yes"/>
  </way>
  <way id="25499828" version="5" timestamp="2012-01-16T22:42:29Z" uid="147510" user="woodpeck_fixbot" changeset="10412890">
    <nd ref="276567447"/>
    <nd ref="277845757"/>
    <nd ref="277845736"/>
    <tag k="highway" v="residential"/>
    <tag k="name" v="Northside Drive"/>
    <tag k="oneway" v="yes"/>
  </way>
  <way id="25499837" version="2" timestamp="2010-07-09T17:57:44Z" uid="74617" user="JohnSmith" changeset="5175636">
    <nd ref="277845865"/>
    <nd ref="277845866"/>
    <nd ref="277845867"/>
    <nd ref="277845868"/>
    <nd ref="277845869"/>
    <nd ref="277845870"/>
    <nd ref="277845871"/>
    <nd ref="277845872"/>
    <nd ref="277845873"/>
    <nd ref="277845874"/>
    <nd ref="277845875"/>
    <nd ref="277845876"/>
    <nd ref="277845877"/>
    <nd ref="277845878"/>
    <tag k="highway" v="residential"/>
    <tag k="maxspeed" v="50"/>
    <tag k="maxspeed:source" v="default residential speed limit in Australia"/>
    <tag k="name" v="Centennial Gardens"/>
  </way>
  <way id="25499837" version="3" timestamp="2012-01-16T22:42:30Z" uid="147510" user="woodpeck_fixbot" changeset="10412890">
    <nd ref="277845865"/>
    <nd ref="277845866"/>
    <nd ref="277845867"/>
    <nd ref="277845868"/>
    <nd ref="277845869"/>
    <nd ref="277845870"/>
    <nd ref="277845871"/>
    <nd ref="277845872"/>
    <nd ref="277845873"/>
    <nd ref="277845874"/>
    <nd ref="277845875"/>
    <nd ref="277845876"/>
    <nd ref="277845877"/>
    <nd ref="277845878"/>
    <tag k="highway" v="residential"/>
    <tag k="name" v="Centennial Gardens"/>
  </way>
  <way id="25499838" version="2" timestamp="2010-07-09T17:54:31Z" uid="74617" user="JohnSmith" changeset="5175636">
    <nd ref="277845879"/>
    <nd ref="277845880"/>
    <nd ref="277845881"/>
    <nd ref="277845882"/>
    <nd ref="277845883"/>
    <nd ref="277845884"/>
    <nd ref="277845885"/>
    <nd ref="277845886"/>
    <nd ref="277845870"/>
    <tag k="highway" v="residential"/>
    <tag k="maxspeed" v="50"/>
    <tag k="maxspeed:source" v="default residential speed limit in Australia"/>
    <tag k="name" v="Aspendale Place"/>
  </way>
  <way id="25499838" version="3" timestamp="2012-01-16T22:42:31Z" uid="147510" user="woodpeck_fixbot" changeset="10412890">
    <nd ref="277845879"/>
    <nd ref="277845880"/>
    <nd ref="277845881"/>
    <nd ref="277845882"/>
    <nd ref="277845883"/>
    <nd ref="277845884"/>
    <nd ref="277845885"/>
    <nd ref="277845886"/>
    <nd ref="277845870"/>
    <tag k="highway" v="residential"/>
    <tag k="name" v="Aspendale Place"/>
  </way>
  <way id="25499839" version="3" timestamp="2010-07-09T17:59:14Z" uid="74617" user="JohnSmith" changeset="5175636">
    <nd ref="277845887"/>
    <nd ref="277845888"/>
    <nd ref="277845889"/>
    <nd ref="277845898"/>
    <nd ref="277845890"/>
    <nd ref="277845891"/>
    <nd ref="277845892"/>
    <nd ref="277845893"/>
    <tag k="highway" v="residential"/>
    <tag k="maxspeed" v="50"/>
    <tag k="maxspeed:source" v="default residential speed limit in Australia"/>
    <tag k="name" v="Coolangatta Retreat"/>
  </way>
  <way id="25499839" version="4" timestamp="2012-01-16T22:42:33Z" uid="147510" user="woodpeck_fixbot" changeset="10412890">
    <nd ref="277845887"/>
    <nd ref="277845888"/>
    <nd ref="277845889"/>
    <nd ref="277845898"/>
    <nd ref="277845890"/>
    <nd ref="277845891"/>
    <nd ref="277845892"/>
    <nd ref="277845893"/>
    <tag k="highway" v="residential"/>
    <tag k="name" v="Coolangatta Retreat"/>
  </way>
  <way id="25499868" version="3" timestamp="2009-01-01T09:51:48Z" uid="43863" user="Rundling" changeset="702079"/>
  <way id="25499869" version="4" timestamp="2009-01-01T09:51:45Z" uid="43863" user="Rundling" changeset="702079">
    <nd ref="277804448"/>
    <nd ref="277804833"/>
    <nd ref="277805020"/>
    <nd ref="277805188"/>
    <nd ref="324222854"/>
    <tag k="created_by" v="Potlatch 0.10b"/>
    <tag k="highway" v="unclassified"/>
    <tag k="surface" v="cobblestone"/>
  </way>
  <way id="25499869" version="5" timestamp="2009-01-31T19:24:53Z" uid="44827" user="snail044" changeset="859970">
    <nd ref="277804448"/>
    <nd ref="277804833"/>
    <nd ref="277805020"/>
    <nd ref="339411626"/>
    <nd ref="339411619"/>
    <nd ref="277805188"/>
    <nd ref="324222854"/>
    <tag k="created_by" v="Potlatch 0.10b"/>
    <tag k="highway" v="unclassified"/>
    <tag k="surface" v="cobblestone"/>
  </way>
  <way id="25499869" version="6" timestamp="2009-01-31T19:39:00Z" uid="44827" user="snail044" changeset="859970">
    <nd ref="277804448"/>
    <nd ref="339416155"/>
    <nd ref="277804833"/>
    <nd ref="339416140"/>
    <nd ref="277805020"/>
    <nd ref="339411626"/>
    <nd ref="339411619"/>
    <nd ref="277805188"/>
    <nd ref="324222854"/>
    <tag k="created_by" v="Potlatch 0.10b"/>
    <tag k="highway" v="unclassified"/>
    <tag k="surface" v="cobblestone"/>
  </way>
  <way id="25499869" version="7" timestamp="2009-01-31T19:43:15Z" uid="44827" user="snail044" changeset="859970">
    <nd ref="277804448"/>
    <nd ref="339418275"/>
    <nd ref="339416155"/>
    <nd ref="277804833"/>
    <nd ref="339416140"/>
    <nd ref="277805020"/>
    <nd ref="339411626"/>
    <nd ref="339411619"/>
    <nd ref="277805188"/>
    <nd ref="324222854"/>
    <tag k="created_by" v="Potlatch 0.10b"/>
    <tag k="highway" v="unclassified"/>
    <tag k="surface" v="cobblestone"/>
  </way>
  <way id="25499869" version="8" timestamp="2009-04-07T20:23:22Z" uid="44827" user="snail044" changeset="302316">
    <nd ref="277804448"/>
    <nd ref="339418275"/>
    <nd ref="339416155"/>
    <nd ref="277804833"/>
    <nd ref="339416140"/>
    <nd ref="277805020"/>
    <nd ref="339411626"/>
    <nd ref="370669237"/>
    <nd ref="339411619"/>
    <nd ref="277805188"/>
    <nd ref="324222854"/>
    <tag k="created_by" v="Potlatch 0.10b"/>
    <tag k="highway" v="unclassified"/>
    <tag k="surface" v="cobblestone"/>
  </way>
  <way id="25499869" version="9" timestamp="2011-11-19T17:08:28Z" uid="389572" user="Wirbel_75" changeset="9874977">
    <nd ref="277804448"/>
    <nd ref="339416238"/>
    <nd ref="339416155"/>
    <nd ref="277804833"/>
    <nd ref="286397350"/>
    <nd ref="286397352"/>
    <nd ref="277805020"/>
    <nd ref="339411626"/>
    <nd ref="286397477"/>
    <nd ref="277805188"/>
    <nd ref="286397331"/>
    <nd ref="324222854"/>
    <tag k="highway" v="unclassified"/>
    <tag k="surface" v="cobblestone"/>
  </way>
  <way id="25499913" version="5" timestamp="2010-07-08T20:14:50Z" uid="74617" user="JohnSmith" changeset="5168688">
    <nd ref="65749715"/>
    <nd ref="277847533"/>
    <nd ref="277847534"/>
    <nd ref="65749717"/>
    <nd ref="65749718"/>
    <nd ref="65749719"/>
    <nd ref="206206007"/>
    <nd ref="65749721"/>
    <nd ref="65749722"/>
    <nd ref="65749724"/>
    <nd ref="277847545"/>
    <nd ref="277847544"/>
    <nd ref="65749728"/>
    <nd ref="65749715"/>
    <tag k="highway" v="residential"/>
    <tag k="junction" v="roundabout"/>
    <tag k="maxspeed" v="50"/>
    <tag k="maxspeed:source" v="default residential speed limit in Australia"/>
    <tag k="name" v="Castlefield Square"/>
  </way>
  <way id="25499913" version="6" timestamp="2011-09-09T02:40:59Z" uid="11111" user="melb_guy" changeset="9250868"/>
  <way id="25499917" version="3" timestamp="2010-07-08T20:19:35Z" uid="74617" user="JohnSmith" changeset="5168688">
    <nd ref="60414229"/>
    <nd ref="277847558"/>
    <tag k="highway" v="residential"/>
    <tag k="maxspeed" v="50"/>
    <tag k="maxspeed:source" v="default residential speed limit in Australia"/>
    <tag k="name" v="Formby Close"/>
  </way>
  <way id="25499917" version="4" timestamp="2011-09-09T04:03:34Z" uid="11111" user="melb_guy" changeset="9250927">
    <nd ref="60414229"/>
    <nd ref="1427598200"/>
    <nd ref="277847558"/>
    <tag k="highway" v="residential"/>
    <tag k="maxspeed" v="50"/>
    <tag k="maxspeed:source" v="default residential speed limit in Australia"/>
    <tag k="name" v="Formby Close"/>
  </way>
  <way id="25499917" version="5" timestamp="2011-09-09T06:39:07Z" uid="11111" user="melb_guy" changeset="9251277">
    <nd ref="60414229"/>
    <nd ref="1427598200"/>
    <nd ref="277847558"/>
    <tag k="highway" v="residential"/>
    <tag k="maxspeed" v="50"/>
    <tag k="maxspeed:source" v="default residential speed limit in Australia"/>
    <tag k="name" v="Formby Close"/>
    <tag k="width" v="8"/>
  </way>
  <way id="25499917" version="6" timestamp="2012-01-16T22:42:33Z" uid="147510" user="woodpeck_fixbot" changeset="10412890">
    <nd ref="60414229"/>
    <nd ref="1427598200"/>
    <nd ref="277847558"/>
    <tag k="highway" v="residential"/>
    <tag k="name" v="Formby Close"/>
    <tag k="width" v="8"/>
  </way>
  <way id="25499920" version="3" timestamp="2010-07-08T20:19:41Z" uid="74617" user="JohnSmith" changeset="5168688">
    <nd ref="277847563"/>
    <nd ref="277847568"/>
    <tag k="highway" v="residential"/>
    <tag k="maxspeed" v="50"/>
    <tag k="maxspeed:source" v="default residential speed limit in Australia"/>
    <tag k="name" v="Eganlee Court"/>
  </way>
  <way id="25499920" version="4" timestamp="2011-09-07T11:29:05Z" uid="11111" user="melb_guy" changeset="9235871">
    <nd ref="277847563"/>
    <nd ref="1426054336"/>
    <nd ref="1426054340"/>
    <nd ref="277847568"/>
    <tag k="highway" v="residential"/>
    <tag k="maxspeed" v="50"/>
    <tag k="maxspeed:source" v="default residential speed limit in Australia"/>
    <tag k="name" v="Eganlee Court"/>
  </way>
  <way id="25499920" version="5" timestamp="2011-09-09T04:03:34Z" uid="11111" user="melb_guy" changeset="9250927">
    <nd ref="277847563"/>
    <nd ref="1427598236"/>
    <nd ref="1426054336"/>
    <nd ref="1426054340"/>
    <nd ref="277847568"/>
    <tag k="highway" v="residential"/>
    <tag k="maxspeed" v="50"/>
    <tag k="maxspeed:source" v="default residential speed limit in Australia"/>
    <tag k="name" v="Eganlee Court"/>
  </way>
  <way id="25499920" version="6" timestamp="2012-01-16T22:42:35Z" uid="147510" user="woodpeck_fixbot" changeset="10412890">
    <nd ref="277847563"/>
    <nd ref="1427598236"/>
    <nd ref="1426054336"/>
    <nd ref="1426054340"/>
    <nd ref="277847568"/>
    <tag k="highway" v="residential"/>
    <tag k="name" v="Eganlee Court"/>
  </way>
  <way id="25499926" version="3" timestamp="2010-07-08T20:16:44Z" uid="74617" user="JohnSmith" changeset="5168688">
    <nd ref="65765341"/>
    <nd ref="277847599"/>
    <nd ref="277847600"/>
    <tag k="highway" v="residential"/>
    <tag k="maxspeed" v="50"/>
    <tag k="maxspeed:source" v="default residential speed limit in Australia"/>
    <tag k="name" v="Abbey Court"/>
  </way>
  <way id="25499926" version="4" timestamp="2011-09-09T06:39:07Z" uid="11111" user="melb_guy" changeset="9251277">
    <nd ref="65765341"/>
    <nd ref="277847599"/>
    <nd ref="1427664182"/>
    <nd ref="1427664204"/>
    <nd ref="277847600"/>
    <tag k="highway" v="residential"/>
    <tag k="maxspeed" v="50"/>
    <tag k="maxspeed:source" v="default residential speed limit in Australia"/>
    <tag k="name" v="Abbey Court"/>
  </way>
  <way id="25499926" version="5" timestamp="2011-09-09T06:48:04Z" uid="11111" user="melb_guy" changeset="9251277">
    <nd ref="65765341"/>
    <nd ref="1427671825"/>
    <nd ref="277847599"/>
    <nd ref="1427664182"/>
    <nd ref="1427664204"/>
    <nd ref="277847600"/>
    <tag k="highway" v="residential"/>
    <tag k="maxspeed" v="50"/>
    <tag k="maxspeed:source" v="default residential speed limit in Australia"/>
    <tag k="name" v="Abbey Court"/>
  </way>
  <way id="25499926" version="6" timestamp="2012-01-16T22:42:37Z" uid="147510" user="woodpeck_fixbot" changeset="10412890">
    <nd ref="65765341"/>
    <nd ref="1427671825"/>
    <nd ref="277847599"/>
    <nd ref="1427664182"/>
    <nd ref="1427664204"/>
    <nd ref="277847600"/>
    <tag k="highway" v="residential"/>
    <tag k="name" v="Abbey Court"/>
  </way>
  <way id="25499942" version="2" timestamp="2010-07-08T20:15:34Z" uid="74617" user="JohnSmith" changeset="5168688">
    <nd ref="202610145"/>
    <nd ref="202610147"/>
    <nd ref="202610149"/>
    <nd ref="202610152"/>
    <nd ref="202614741"/>
    <nd ref="202610153"/>
    <nd ref="202610154"/>
    <nd ref="202614258"/>
    <nd ref="202610301"/>
    <nd ref="202614495"/>
    <nd ref="202610155"/>
    <nd ref="202610156"/>
    <nd ref="202610157"/>
    <tag k="highway" v="residential"/>
    <tag k="maxspeed" v="50"/>
    <tag k="maxspeed:source" v="default residential speed limit in Australia"/>
    <tag k="name" v="Wondalea Crescent"/>
  </way>
  <way id="25499942" version="3" timestamp="2011-09-04T04:26:15Z" uid="11111" user="melb_guy" changeset="9205348"/>
  <way id="25499958" version="2" timestamp="2010-07-08T20:18:08Z" uid="74617" user="JohnSmith" changeset="5168688">
    <nd ref="277847899"/>
    <nd ref="277847958"/>
    <tag k="highway" v="residential"/>
    <tag k="maxspeed" v="50"/>
    <tag k="maxspeed:source" v="default residential speed limit in Australia"/>
    <tag k="name" v="Chalice Court"/>
  </way>
  <way id="25499958" version="3" timestamp="2011-09-12T02:49:07Z" uid="11111" user="melb_guy" changeset="9276732">
    <nd ref="277847899"/>
    <nd ref="1430648167"/>
    <nd ref="277847958"/>
    <tag k="highway" v="residential"/>
    <tag k="maxspeed" v="50"/>
    <tag k="maxspeed:source" v="default residential speed limit in Australia"/>
    <tag k="name" v="Chalice Court"/>
  </way>
  <way id="25499958" version="4" timestamp="2012-01-16T22:42:39Z" uid="147510" user="woodpeck_fixbot" changeset="10412890">
    <nd ref="277847899"/>
    <nd ref="1430648167"/>
    <nd ref="277847958"/>
    <tag k="highway" v="residential"/>
    <tag k="name" v="Chalice Court"/>
  </way>
  <way id="25499981" version="2" timestamp="2008-12-16T21:08:35Z" uid="43863" user="Rundling" changeset="424249">
    <nd ref="277848137"/>
    <nd ref="277848139"/>
    <nd ref="277848140"/>
    <nd ref="277848141"/>
    <nd ref="277848142"/>
    <nd ref="277848148"/>
    <nd ref="277848159"/>
    <nd ref="277848161"/>
    <nd ref="277848162"/>
    <nd ref="277848163"/>
    <nd ref="277848164"/>
    <nd ref="277848165"/>
    <nd ref="277848166"/>
    <nd ref="277848167"/>
    <nd ref="277848168"/>
    <nd ref="277848169"/>
    <nd ref="319297808"/>
    <nd ref="277848137"/>
    <tag k="landuse" v="farm"/>
  </way>
  <way id="25499981" version="3" timestamp="2009-01-30T20:47:54Z" uid="44827" user="snail044" changeset="856167">
    <nd ref="277848137"/>
    <nd ref="277848139"/>
    <nd ref="277848140"/>
    <nd ref="273202671"/>
    <nd ref="277848142"/>
    <nd ref="277848148"/>
    <nd ref="277848159"/>
    <nd ref="277848161"/>
    <nd ref="277848162"/>
    <nd ref="277848163"/>
    <nd ref="277848164"/>
    <nd ref="277848165"/>
    <nd ref="277848166"/>
    <nd ref="277848167"/>
    <nd ref="277848168"/>
    <nd ref="277848169"/>
    <nd ref="319297808"/>
    <nd ref="277848137"/>
    <tag k="landuse" v="farm"/>
  </way>
  <way id="25499332" version="10" timestamp="2012-07-17T00:20:21Z" uid="722137" user="OSMF Redaction Account" changeset="12254074">
    <nd ref="122499724"/>
    <nd ref="277843010"/>
    <nd ref="1217926635"/>
    <nd ref="277843011"/>
    <nd ref="271334070"/>
    <tag k="electrified" v="contact_line"/>
    <tag k="frequency" v="0"/>
    <tag k="gauge" v="1435"/>
    <tag k="railway" v="tram"/>
    <tag k="ref" v="J"/>
    <tag k="tracks" v="1"/>
    <tag k="voltage" v="600"/>
  </way>
  <way id="25499333" version="11" timestamp="2012-08-16T11:43:01Z" uid="104947" user="My Friend" changeset="12749597">
    <nd ref="583325212"/>
    <nd ref="583325216"/>
    <nd ref="583325222"/>
    <nd ref="583325223"/>
    <nd ref="669640908"/>
    <nd ref="277843013"/>
    <nd ref="1868561050"/>
    <nd ref="1022646447"/>
    <nd ref="414014752"/>
    <nd ref="414014773"/>
    <nd ref="414014748"/>
    <tag k="electrified" v="contact_line"/>
    <tag k="frequency" v="0"/>
    <tag k="gauge" v="1435"/>
    <tag k="railway" v="tram"/>
    <tag k="tracks" v="1"/>
    <tag k="voltage" v="600"/>
  </way>
  <way id="25499334" version="9" timestamp="2012-07-17T00:20:19Z" uid="722137" user="OSMF Redaction Account" changeset="12254074">
    <nd ref="271334058"/>
    <nd ref="414014749"/>
    <tag k="electrified" v="contact_line"/>
    <tag k="frequency" v="0"/>
    <tag k="gauge" v="1435"/>
    <tag k="railway" v="tram"/>
    <tag k="ref" v="J"/>
    <tag k="tracks" v="1"/>
    <tag k="voltage" v="600"/>
  </way>
  <way id="25499667" version="6" timestamp="2012-07-19T12:16:17Z" uid="722137" user="OSMF Redaction Account" changeset="12324118">
    <nd ref="277845033"/>
    <nd ref="277845022"/>
    <nd ref="277845000"/>
    <tag k="highway" v="residential"/>
    <tag k="name" v="Birch Road"/>
  </way>
  <way id="25499827" version="8" timestamp="2012-04-18T02:05:13Z" uid="192584" user="ORYX" changeset="11339607">
    <nd ref="277845739"/>
    <nd ref="277845740"/>
    <nd ref="277845741"/>
    <nd ref="277845742"/>
    <nd ref="277845743"/>
    <nd ref="277845744"/>
    <nd ref="277845745"/>
    <nd ref="277845746"/>
    <nd ref="277845739"/>
    <nd ref="277845747"/>
    <nd ref="277845748"/>
    <nd ref="277845749"/>
    <nd ref="277845750"/>
    <nd ref="1721364412"/>
    <nd ref="277845751"/>
    <nd ref="277845752"/>
    <nd ref="277845753"/>
    <nd ref="277845754"/>
    <nd ref="277845755"/>
    <nd ref="277845736"/>
    <tag k="highway" v="residential"/>
    <tag k="name" v="Northside Drive"/>
  </way>
  <way id="25499869" version="10" timestamp="2012-07-17T07:55:22Z" uid="722137" user="OSMF Redaction Account" changeset="12259900">
    <nd ref="277804448"/>
    <nd ref="339416238"/>
    <nd ref="339416155"/>
    <nd ref="277804833"/>
    <nd ref="286397350"/>
    <nd ref="286397352"/>
    <nd ref="277805020"/>
    <nd ref="339411626"/>
    <nd ref="286397477"/>
    <nd ref="286397331"/>
    <tag k="highway" v="track"/>
    <tag k="surface" v="cobblestone"/>
  </way>
  <way id="25499869" version="11" timestamp="2012-07-31T12:37:45Z" uid="423438" user="streele" changeset="12560756">
    <nd ref="277804448"/>
    <nd ref="339416238"/>
    <nd ref="339416155"/>
    <nd ref="277804833"/>
    <nd ref="286397350"/>
    <nd ref="286397352"/>
    <nd ref="277805020"/>
    <nd ref="339411626"/>
    <nd ref="286397477"/>
    <nd ref="286397331"/>
    <tag k="highway" v="track"/>
    <tag k="surface" v="cobblestone"/>
  </way>
  <way id="25499869" version="12" timestamp="2012-08-21T20:12:27Z" uid="384081" user="Ellern" changeset="12813143">
    <nd ref="277804448"/>
    <nd ref="339416238"/>
    <nd ref="339416155"/>
    <nd ref="286397350"/>
    <nd ref="277805020"/>
    <nd ref="286397477"/>
    <nd ref="286397331"/>
    <tag k="highway" v="track"/>
    <tag k="surface" v="cobblestone"/>
  </way>
  <way id="25499981" version="4" timestamp="2012-07-17T07:55:20Z" uid="722137" user="OSMF Redaction Account" changeset="12259900">
    <nd ref="277848137"/>
    <nd ref="277848139"/>
    <nd ref="277848140"/>
    <nd ref="273202671"/>
    <nd ref="277848142"/>
    <nd ref="277848148"/>
    <nd ref="277848159"/>
    <nd ref="277848161"/>
    <nd ref="277848162"/>
    <nd ref="277848163"/>
    <nd ref="277848164"/>
    <nd ref="277848165"/>
    <nd ref="277848166"/>
    <nd ref="277848167"/>
    <nd ref="277848168"/>
    <nd ref="277848169"/>
    <nd ref="277848137"/>
    <tag k="landuse" v="farm"/>
  </way>
  <way id="25499981" version="5" timestamp="2012-08-21T20:12:09Z" uid="384081" user="Ellern" changeset="12813143">
    <nd ref="277848137"/>
    <nd ref="277848139"/>
    <nd ref="277848140"/>
    <nd ref="273202671"/>
    <nd ref="277848142"/>
    <nd ref="277848148"/>
    <nd ref="277848159"/>
    <nd ref="277848161"/>
    <nd ref="272792494"/>
    <nd ref="272792495"/>
    <nd ref="277848163"/>
    <nd ref="277848164"/>
    <nd ref="277848165"/>
    <nd ref="277848166"/>
    <nd ref="277848167"/>
    <nd ref="277848168"/>
    <nd ref="277848169"/>
    <nd ref="277848137"/>
    <tag k="landuse" v="farm"/>
  </way>
</osm>
