<?xml version='1.0' encoding='UTF-8'?>
<osm version="0.6" generator="libosmium/2.20.0">
  <way id="25763011" version="2" timestamp="2009-02-23T13:31:40Z" uid="34428" user="usm78-gis" changeset="634299"/>
  <way id="25763017" version="1" timestamp="2008-07-25T11:53:54Z" uid="43863" user="Rundling" changeset="588833">
    <nd ref="280975605"/>
    <nd ref="280975606"/>
    <tag k="created_by" v="Potlatch 0.10"/>
    <tag k="highway" v="residential"/>
    <tag k="name" v="Kurzer Weg"/>
  </way>
  <way id="25763017" version="2" timestamp="2008-07-25T11:54:54Z" uid="43863" user="Rundling" changeset="588833">
    <nd ref="280975605"/>
    <nd ref="280975879"/>
    <nd ref="280975886"/>
    <tag k="created_by" v="Potlatch 0.10"/>
    <tag k="highway" v="residential"/>
    <tag k="name" v="Kurzer Weg"/>
  </way>
  <way id="25763017" version="3" timestamp="2008-07-25T11:56:32Z" uid="43863" user="Rundling" changeset="588833">
    <nd ref="280975605"/>
    <nd ref="280975879"/>
    <nd ref="280976357"/>
    <tag k="created_by" v="Potlatch 0.10"/>
    <tag k="highway" v="residential"/>
    <tag k="name" v="Kurzer Weg"/>
  </way>
  <way id="25763017" version="4" timestamp="2008-08-18T10:19:35Z" uid="43863" user="Rundling" changeset="305370">
    <nd ref="289045144"/>
    <nd ref="280975879"/>
    <nd ref="280976357"/>
    <tag k="created_by" v="Potlatch 0.10b"/>
    <tag k="highway" v="residential"/>
    <tag k="name" v="Kurzer Weg"/>
  </way>
  <way id="25763017" version="5" timestamp="2008-11-26T11:46:47Z" uid="43863" user="Rundling" changeset="795746">
    <nd ref="289045144"/>
    <nd ref="314895165"/>
    <nd ref="280975879"/>
    <nd ref="280976357"/>
    <tag k="created_by" v="Potlatch 0.10b"/>
    <tag k="highway" v="residential"/>
    <tag k="name" v="Kurzer Weg"/>
  </way>
  <way id="25763034" version="1" timestamp="2008-07-25T11:54:54Z" uid="43863" user="Rundling" changeset="588833">
    <nd ref="280975877"/>
    <nd ref="280975879"/>
    <nd ref="280975879"/>
    <tag k="created_by" v="Potlatch 0.10"/>
    <tag k="highway" v="residential"/>
    <tag k="name" v="Siedlerweg"/>
  </way>
  <way id="25763034" version="2" timestamp="2008-07-25T11:57:09Z" uid="43863" user="Rundling" changeset="588833">
    <nd ref="280976436"/>
    <nd ref="280975877"/>
    <nd ref="280975879"/>
    <nd ref="280975879"/>
    <tag k="created_by" v="Potlatch 0.10"/>
    <tag k="highway" v="residential"/>
    <tag k="name" v="Siedlerweg"/>
  </way>
  <way id="25763034" version="3" timestamp="2008-07-25T11:59:19Z" uid="43863" user="Rundling" changeset="588833">
    <nd ref="280976436"/>
    <nd ref="280975877"/>
    <nd ref="280975879"/>
    <nd ref="280975879"/>
    <tag k="created_by" v="Potlatch 0.10"/>
    <tag k="highway" v="residential"/>
    <tag k="name" v="Siedlerweg"/>
  </way>
  <way id="25763034" version="4" timestamp="2008-08-18T10:19:24Z" uid="43863" user="Rundling" changeset="305370">
    <nd ref="280976436"/>
    <nd ref="280975877"/>
    <nd ref="289045119"/>
    <nd ref="280975879"/>
    <nd ref="280975879"/>
    <tag k="created_by" v="Potlatch 0.10b"/>
    <tag k="highway" v="residential"/>
    <tag k="name" v="Siedlerweg"/>
  </way>
  <way id="25763034" version="5" timestamp="2008-08-24T13:40:23Z" uid="30652" user="andrex" changeset="391693">
    <nd ref="280976436"/>
    <nd ref="280975877"/>
    <nd ref="289045119"/>
    <nd ref="280975879"/>
    <tag k="created_by" v="Potlatch 0.10b"/>
    <tag k="highway" v="residential"/>
    <tag k="name" v="Siedlerweg"/>
  </way>
  <way id="25763034" version="6" timestamp="2008-10-24T19:33:07Z" uid="71148" user="keridil" changeset="556463">
    <nd ref="307082709"/>
    <nd ref="280976436"/>
    <nd ref="280975877"/>
    <nd ref="289045119"/>
    <nd ref="280975879"/>
    <tag k="created_by" v="Potlatch 0.10b"/>
    <tag k="highway" v="residential"/>
    <tag k="name" v="Siedlerweg"/>
  </way>
  <way id="25763034" version="7" timestamp="2008-11-12T11:27:24Z" uid="43863" user="Rundling" changeset="737542">
    <nd ref="307082709"/>
    <nd ref="280976436"/>
    <tag k="created_by" v="Potlatch 0.10b"/>
    <tag k="highway" v="residential"/>
    <tag k="name" v="Waldweg"/>
  </way>
  <way id="25763034" version="8" timestamp="2008-12-06T20:58:42Z" uid="49971" user="Spielkind" changeset="208555">
    <nd ref="307082709"/>
    <nd ref="280976436"/>
    <tag k="created_by" v="Potlatch 0.10b"/>
    <tag k="highway" v="residential"/>
    <tag k="name" v="Waldweg"/>
  </way>
  <way id="25763034" version="9" timestamp="2008-12-06T21:00:01Z" uid="49971" user="Spielkind" changeset="208555">
    <nd ref="307082709"/>
    <nd ref="280975386"/>
    <nd ref="280976436"/>
    <tag k="created_by" v="Potlatch 0.10b"/>
    <tag k="highway" v="residential"/>
    <tag k="name" v="Waldweg"/>
  </way>
  <way id="25763034" version="10" timestamp="2009-07-22T04:00:05Z" uid="43863" user="Rundling" changeset="1900869">
    <nd ref="307082709"/>
    <nd ref="280975386"/>
    <nd ref="280976436"/>
    <tag k="highway" v="residential"/>
    <tag k="name" v="Waldweg"/>
  </way>
  <way id="25763038" version="1" timestamp="2008-07-25T11:55:20Z" uid="43863" user="Rundling" changeset="588833">
    <nd ref="280976111"/>
    <nd ref="280976112"/>
    <tag k="created_by" v="Potlatch 0.10"/>
    <tag k="highway" v="residential"/>
    <tag k="name" v="Waldweg"/>
  </way>
  <way id="25763038" version="2" timestamp="2008-07-25T11:59:25Z" uid="43863" user="Rundling" changeset="588833">
    <nd ref="280976111"/>
    <nd ref="280976907"/>
    <tag k="created_by" v="Potlatch 0.10"/>
    <tag k="highway" v="residential"/>
    <tag k="name" v="Waldweg"/>
  </way>
  <way id="25763038" version="3" timestamp="2008-08-18T10:19:25Z" uid="43863" user="Rundling" changeset="305370">
    <nd ref="280976907"/>
    <nd ref="289045119"/>
    <tag k="created_by" v="Potlatch 0.10b"/>
    <tag k="highway" v="residential"/>
    <tag k="name" v="Waldweg"/>
  </way>
  <way id="25763038" version="4" timestamp="2008-08-24T13:40:22Z" uid="30652" user="andrex" changeset="391693">
    <nd ref="280976112"/>
    <nd ref="289045119"/>
    <tag k="created_by" v="Potlatch 0.10b"/>
    <tag k="highway" v="residential"/>
    <tag k="name" v="Waldweg"/>
  </way>
  <way id="25763038" version="5" timestamp="2009-07-22T04:00:05Z" uid="43863" user="Rundling" changeset="1900869">
    <nd ref="280976112"/>
    <nd ref="289045119"/>
    <tag k="highway" v="residential"/>
    <tag k="name" v="Waldweg"/>
  </way>
  <way id="25763058" version="1" timestamp="2008-07-25T11:55:50Z" uid="43863" user="Rundling" changeset="588833">
    <nd ref="280976180"/>
    <nd ref="280976181"/>
    <tag k="created_by" v="Potlatch 0.10"/>
    <tag k="highway" v="residential"/>
    <tag k="name" v="Haubenlerche"/>
  </way>
  <way id="25763058" version="2" timestamp="2008-07-25T11:57:17Z" uid="43863" user="Rundling" changeset="588833">
    <nd ref="280976180"/>
    <nd ref="280976479"/>
    <tag k="created_by" v="Potlatch 0.10"/>
    <tag k="highway" v="residential"/>
    <tag k="name" v="Haubenlerche"/>
  </way>
  <way id="25763058" version="3" timestamp="2008-07-25T11:57:31Z" uid="43863" user="Rundling" changeset="588833">
    <nd ref="280976180"/>
    <nd ref="280976479"/>
    <tag k="created_by" v="Potlatch 0.10"/>
    <tag k="highway" v="residential"/>
    <tag k="name" v="Lindenweg"/>
  </way>
  <way id="25763058" version="4" timestamp="2008-08-18T10:19:12Z" uid="43863" user="Rundling" changeset="305370">
    <nd ref="280976479"/>
    <nd ref="280976112"/>
    <tag k="created_by" v="Potlatch 0.10b"/>
    <tag k="highway" v="residential"/>
    <tag k="name" v="Lindenweg"/>
  </way>
  <way id="25763058" version="5" timestamp="2008-10-10T10:11:23Z" uid="51324" user="OPerivar" changeset="215606">
    <nd ref="280976479"/>
    <nd ref="280976786"/>
    <nd ref="280976112"/>
    <tag k="created_by" v="Potlatch 0.10b"/>
    <tag k="highway" v="residential"/>
    <tag k="name" v="Lindenweg"/>
  </way>
  <way id="25763086" version="1" timestamp="2008-07-25T11:58:20Z" uid="43863" user="Rundling" changeset="588833">
    <nd ref="280976665"/>
    <nd ref="280976666"/>
    <tag k="created_by" v="Potlatch 0.10"/>
    <tag k="highway" v="residential"/>
    <tag k="name" v="Haubenlerche"/>
  </way>
  <way id="25763086" version="2" timestamp="2008-07-25T11:58:26Z" uid="43863" user="Rundling" changeset="588833">
    <nd ref="280976665"/>
    <nd ref="280976676"/>
    <tag k="created_by" v="Potlatch 0.10"/>
    <tag k="highway" v="residential"/>
    <tag k="name" v="Haubenlerche"/>
  </way>
  <way id="25763086" version="3" timestamp="2008-07-25T11:58:53Z" uid="43863" user="Rundling" changeset="588833">
    <nd ref="280976665"/>
    <nd ref="280976787"/>
    <nd ref="280976676"/>
    <tag k="created_by" v="Potlatch 0.10"/>
    <tag k="highway" v="residential"/>
    <tag k="name" v="Haubenlerche"/>
  </way>
  <way id="25763086" version="4" timestamp="2008-08-18T10:18:57Z" uid="43863" user="Rundling" changeset="305370">
    <nd ref="289045030"/>
    <nd ref="280976787"/>
    <nd ref="280976676"/>
    <tag k="created_by" v="Potlatch 0.10b"/>
    <tag k="highway" v="residential"/>
    <tag k="name" v="Haubenlerche"/>
  </way>
  <way id="25763086" version="5" timestamp="2009-02-05T11:30:54Z" uid="71148" user="keridil" changeset="173644">
    <nd ref="289045030"/>
    <nd ref="340986930"/>
    <nd ref="280976787"/>
    <nd ref="280976676"/>
    <tag k="created_by" v="Potlatch 0.10b"/>
    <tag k="highway" v="residential"/>
    <tag k="name" v="Haubenlerche"/>
  </way>
  <way id="25763086" version="6" timestamp="2009-07-22T04:00:05Z" uid="43863" user="Rundling" changeset="1900869">
    <nd ref="289045030"/>
    <nd ref="340986930"/>
    <nd ref="280976787"/>
    <nd ref="280976676"/>
    <tag k="highway" v="residential"/>
    <tag k="name" v="Haubenlerche"/>
  </way>
  <way id="25763090" version="1" timestamp="2008-07-25T11:58:53Z" uid="43863" user="Rundling" changeset="588833">
    <nd ref="280976786"/>
    <nd ref="280976787"/>
    <tag k="created_by" v="Potlatch 0.10"/>
    <tag k="highway" v="residential"/>
    <tag k="name" v="Weg"/>
  </way>
  <way id="25763090" version="2" timestamp="2008-10-10T10:11:24Z" uid="51324" user="OPerivar" changeset="215606">
    <nd ref="280976786"/>
    <nd ref="280976787"/>
    <tag k="created_by" v="Potlatch 0.10"/>
    <tag k="highway" v="residential"/>
    <tag k="name" v="Weg"/>
  </way>
  <way id="25763090" version="3" timestamp="2009-01-20T20:24:17Z" uid="43863" user="Rundling" changeset="818080">
    <nd ref="280976786"/>
    <nd ref="280976787"/>
    <tag k="highway" v="residential"/>
    <tag k="name" v="Weg"/>
  </way>
  <way id="25763101" version="1" timestamp="2008-07-25T11:59:56Z" uid="43863" user="Rundling" changeset="588833">
    <nd ref="280976939"/>
    <nd ref="280976940"/>
    <tag k="created_by" v="Potlatch 0.10"/>
  </way>
  <way id="25763101" version="2" timestamp="2008-07-29T08:19:06Z" uid="43863" user="Rundling" changeset="618843">
    <nd ref="280976939"/>
    <nd ref="280976940"/>
    <tag k="created_by" v="Potlatch 0.10"/>
    <tag k="highway" v="service"/>
  </way>
  <way id="25763101" version="3" timestamp="2008-09-09T13:01:32Z" uid="43863" user="Rundling" changeset="582421">
    <nd ref="280976940"/>
    <nd ref="280694184"/>
    <tag k="created_by" v="Potlatch 0.10b"/>
    <tag k="highway" v="service"/>
  </way>
  <way id="25763101" version="4" timestamp="2011-02-12T14:29:41Z" uid="43863" user="Rundling" changeset="7265324">
    <nd ref="280976940"/>
    <nd ref="1149116666"/>
    <nd ref="1149116499"/>
    <nd ref="280694184"/>
    <tag k="highway" v="service"/>
  </way>
  <way id="25763104" version="2" timestamp="2009-02-23T13:09:55Z" uid="34428" user="usm78-gis" changeset="634299"/>
  <way id="25763145" version="1" timestamp="2008-07-25T12:04:56Z" uid="43863" user="Rundling" changeset="588833">
    <nd ref="280977563"/>
    <nd ref="280977564"/>
    <tag k="created_by" v="Potlatch 0.10"/>
    <tag k="highway" v="residential"/>
    <tag k="name" v="Kaiserstraße"/>
  </way>
  <way id="25763145" version="2" timestamp="2008-07-25T12:06:03Z" uid="43863" user="Rundling" changeset="588833">
    <nd ref="280977563"/>
    <nd ref="280977770"/>
    <nd ref="280977771"/>
    <tag k="created_by" v="Potlatch 0.10"/>
    <tag k="highway" v="residential"/>
    <tag k="name" v="Kaiserstraße"/>
  </way>
  <way id="25763145" version="3" timestamp="2008-08-05T14:22:46Z" uid="43863" user="Rundling" changeset="69264">
    <nd ref="283642559"/>
    <nd ref="280977770"/>
    <nd ref="280977771"/>
    <tag k="created_by" v="Potlatch 0.10b"/>
    <tag k="highway" v="residential"/>
    <tag k="name" v="Kaiserstraße"/>
  </way>
  <way id="25763145" version="4" timestamp="2008-08-24T13:40:56Z" uid="30652" user="andrex" changeset="391693">
    <nd ref="283642559"/>
    <nd ref="280977770"/>
    <nd ref="280977564"/>
    <tag k="created_by" v="Potlatch 0.10b"/>
    <tag k="highway" v="residential"/>
    <tag k="name" v="Kaiserstraße"/>
  </way>
  <way id="25763145" version="5" timestamp="2008-09-02T05:59:45Z" uid="43863" user="Rundling" changeset="496387">
    <nd ref="283642559"/>
    <nd ref="280977770"/>
    <nd ref="280977564"/>
    <tag k="created_by" v="Potlatch 0.10b"/>
    <tag k="highway" v="residential"/>
    <tag k="name" v="Brauerstraße"/>
  </way>
  <way id="25763145" version="6" timestamp="2008-12-22T11:29:03Z" uid="43863" user="Rundling" changeset="540169">
    <nd ref="283642559"/>
    <nd ref="320872196"/>
    <tag k="created_by" v="Potlatch 0.10b"/>
    <tag k="highway" v="residential"/>
    <tag k="name" v="Brauerstraße"/>
  </way>
  <way id="25763145" version="7" timestamp="2008-12-22T11:31:34Z" uid="43863" user="Rundling" changeset="540169">
    <nd ref="283642559"/>
    <nd ref="320872375"/>
    <nd ref="320872197"/>
    <tag k="created_by" v="Potlatch 0.10b"/>
    <tag k="highway" v="residential"/>
    <tag k="name" v="Brauerstraße"/>
  </way>
  <way id="25763145" version="8" timestamp="2008-12-22T11:31:54Z" uid="43863" user="Rundling" changeset="540169">
    <nd ref="283642559"/>
    <nd ref="320872197"/>
    <tag k="created_by" v="Potlatch 0.10b"/>
    <tag k="highway" v="residential"/>
    <tag k="name" v="Brauerstraße"/>
  </way>
  <way id="25763145" version="9" timestamp="2008-12-26T17:23:30Z" uid="4473" user="EtricCeline" changeset="611915">
    <nd ref="283642559"/>
    <nd ref="280977770"/>
    <nd ref="321368000"/>
    <tag k="created_by" v="Potlatch 0.10b"/>
    <tag k="highway" v="residential"/>
    <tag k="name" v="Brauerstraße"/>
  </way>
  <way id="25763145" version="10" timestamp="2009-02-04T11:42:46Z" uid="43863" user="Rundling" changeset="119318">
    <nd ref="283642559"/>
    <nd ref="280977770"/>
    <nd ref="340370369"/>
    <nd ref="321368000"/>
    <tag k="created_by" v="Potlatch 0.10b"/>
    <tag k="highway" v="residential"/>
    <tag k="name" v="Brauerstraße"/>
  </way>
  <way id="25763145" version="11" timestamp="2009-10-02T13:49:03Z" uid="43863" user="Rundling" changeset="2712846">
    <nd ref="283642559"/>
    <nd ref="280977770"/>
    <nd ref="340370369"/>
    <nd ref="321368000"/>
    <tag k="highway" v="residential"/>
    <tag k="name" v="Brauerstraße"/>
  </way>
  <way id="25763159" version="1" timestamp="2008-07-25T12:06:03Z" uid="43863" user="Rundling" changeset="588833">
    <nd ref="280977767"/>
    <nd ref="280977768"/>
    <nd ref="280977769"/>
    <nd ref="280977770"/>
    <tag k="created_by" v="Potlatch 0.10"/>
    <tag k="highway" v="residential"/>
    <tag k="name" v="Schillerstraße"/>
  </way>
  <way id="25763159" version="2" timestamp="2008-07-25T12:06:34Z" uid="43863" user="Rundling" changeset="588833">
    <nd ref="280977767"/>
    <nd ref="280977935"/>
    <nd ref="280977769"/>
    <nd ref="280977936"/>
    <nd ref="280977937"/>
    <tag k="created_by" v="Potlatch 0.10"/>
    <tag k="highway" v="residential"/>
    <tag k="name" v="Schillerstraße"/>
  </way>
  <way id="25763159" version="3" timestamp="2008-08-05T14:23:28Z" uid="43863" user="Rundling" changeset="69264">
    <nd ref="283642593"/>
    <nd ref="280977935"/>
    <nd ref="280977769"/>
    <nd ref="280977936"/>
    <nd ref="280977937"/>
    <tag k="created_by" v="Potlatch 0.10b"/>
    <tag k="highway" v="residential"/>
    <tag k="name" v="Schillerstraße"/>
  </way>
  <way id="25763159" version="4" timestamp="2008-08-12T10:26:22Z" uid="43863" user="Rundling" changeset="198414">
    <nd ref="283642593"/>
    <nd ref="280977935"/>
    <nd ref="280977769"/>
    <nd ref="287241145"/>
    <nd ref="280977936"/>
    <nd ref="280977937"/>
    <tag k="created_by" v="Potlatch 0.10b"/>
    <tag k="highway" v="residential"/>
    <tag k="name" v="Schillerstraße"/>
  </way>
  <way id="25763159" version="5" timestamp="2008-08-12T10:26:56Z" uid="43863" user="Rundling" changeset="198414">
    <nd ref="283642593"/>
    <nd ref="280977935"/>
    <nd ref="280977769"/>
    <nd ref="287241154"/>
    <nd ref="280977936"/>
    <nd ref="280977937"/>
    <nd ref="197807805"/>
    <tag k="created_by" v="Potlatch 0.10b"/>
    <tag k="highway" v="residential"/>
    <tag k="name" v="Schillerstraße"/>
  </way>
  <way id="25763159" version="6" timestamp="2008-08-12T10:27:36Z" uid="43863" user="Rundling" changeset="198414">
    <nd ref="283642593"/>
    <nd ref="280977935"/>
    <nd ref="280977769"/>
    <nd ref="287241154"/>
    <nd ref="280977936"/>
    <nd ref="280977937"/>
    <nd ref="287241192"/>
    <nd ref="197807805"/>
    <tag k="created_by" v="Potlatch 0.10b"/>
    <tag k="highway" v="residential"/>
    <tag k="name" v="Schillerstraße"/>
  </way>
  <way id="25763159" version="7" timestamp="2008-08-24T13:40:55Z" uid="30652" user="andrex" changeset="391693">
    <nd ref="283642593"/>
    <nd ref="280977935"/>
    <nd ref="280977769"/>
    <nd ref="287241147"/>
    <nd ref="280977770"/>
    <nd ref="280977937"/>
    <nd ref="287241192"/>
    <nd ref="197807805"/>
    <tag k="created_by" v="Potlatch 0.10b"/>
    <tag k="highway" v="residential"/>
    <tag k="name" v="Schillerstraße"/>
  </way>
  <way id="25763159" version="8" timestamp="2008-11-04T16:03:07Z" uid="43863" user="Rundling" changeset="680196">
    <nd ref="283642593"/>
    <nd ref="280977935"/>
    <nd ref="280977769"/>
    <nd ref="287241147"/>
    <nd ref="280977770"/>
    <nd ref="280977937"/>
    <nd ref="309903519"/>
    <nd ref="287241192"/>
    <nd ref="197807805"/>
    <tag k="created_by" v="Potlatch 0.10b"/>
    <tag k="highway" v="residential"/>
    <tag k="name" v="Schillerstraße"/>
  </way>
  <way id="25763159" version="9" timestamp="2008-12-18T22:27:49Z" uid="43863" user="Rundling" changeset="463571">
    <nd ref="283642593"/>
    <nd ref="280977935"/>
    <nd ref="280977769"/>
    <nd ref="287241147"/>
    <nd ref="280977770"/>
    <nd ref="280977937"/>
    <nd ref="309903519"/>
    <nd ref="287241192"/>
    <nd ref="313046103"/>
    <tag k="created_by" v="Potlatch 0.10b"/>
    <tag k="highway" v="residential"/>
    <tag k="name" v="Schillerstraße"/>
  </way>
  <way id="25763159" version="10" timestamp="2008-12-22T11:29:02Z" uid="43863" user="Rundling" changeset="540169">
    <nd ref="283642593"/>
    <nd ref="280977935"/>
    <nd ref="280977769"/>
    <nd ref="287241147"/>
    <nd ref="280977770"/>
    <nd ref="309903519"/>
    <nd ref="287241192"/>
    <nd ref="313046103"/>
    <tag k="created_by" v="Potlatch 0.10b"/>
    <tag k="highway" v="residential"/>
    <tag k="name" v="Schillerstraße"/>
  </way>
  <way id="25763159" version="11" timestamp="2008-12-26T17:23:29Z" uid="4473" user="EtricCeline" changeset="611915">
    <nd ref="283642593"/>
    <nd ref="280977935"/>
    <nd ref="280977769"/>
    <nd ref="287241147"/>
    <nd ref="280977770"/>
    <nd ref="309903519"/>
    <nd ref="287241192"/>
    <nd ref="313046103"/>
    <tag k="created_by" v="Potlatch 0.10b"/>
    <tag k="highway" v="residential"/>
    <tag k="name" v="Schillerstraße"/>
  </way>
  <way id="25763159" version="12" timestamp="2008-12-27T20:04:27Z" uid="4473" user="EtricCeline" changeset="630203">
    <nd ref="321368003"/>
    <nd ref="280977935"/>
    <nd ref="280977769"/>
    <nd ref="287241147"/>
    <nd ref="280977770"/>
    <nd ref="309903519"/>
    <nd ref="287241192"/>
    <nd ref="313046103"/>
    <tag k="created_by" v="Potlatch 0.10b"/>
    <tag k="highway" v="residential"/>
    <tag k="name" v="Schillerstraße"/>
  </way>
  <way id="25763159" version="13" timestamp="2009-06-03T07:32:08Z" uid="43863" user="Rundling" changeset="1410706">
    <nd ref="321368003"/>
    <nd ref="280977935"/>
    <nd ref="280977769"/>
    <nd ref="287241147"/>
    <nd ref="280977770"/>
    <nd ref="309903519"/>
    <nd ref="287241192"/>
    <nd ref="313046103"/>
    <tag k="highway" v="residential"/>
    <tag k="name" v="Schillerstraße"/>
  </way>
  <way id="25763195" version="1" timestamp="2008-07-25T12:07:14Z" uid="43863" user="Rundling" changeset="588833">
    <nd ref="280978011"/>
    <nd ref="280978012"/>
    <nd ref="280978013"/>
    <nd ref="280978014"/>
    <nd ref="280978015"/>
    <nd ref="280978017"/>
    <nd ref="280978018"/>
    <tag k="created_by" v="Potlatch 0.10"/>
    <tag k="highway" v="service"/>
  </way>
  <way id="25763195" version="2" timestamp="2008-08-05T13:29:10Z" uid="43863" user="Rundling" changeset="69264">
    <nd ref="280978011"/>
    <nd ref="280978012"/>
    <nd ref="280978013"/>
    <nd ref="280978014"/>
    <nd ref="280978015"/>
    <nd ref="280978017"/>
    <nd ref="280978018"/>
    <tag k="created_by" v="Potlatch 0.10b"/>
    <tag k="highway" v="service"/>
  </way>
  <way id="25763195" version="3" timestamp="2008-08-05T13:29:29Z" uid="43863" user="Rundling" changeset="69264">
    <nd ref="283632709"/>
    <nd ref="280978012"/>
    <nd ref="280978013"/>
    <nd ref="280978014"/>
    <nd ref="280978015"/>
    <nd ref="280978017"/>
    <nd ref="280978018"/>
    <tag k="created_by" v="Potlatch 0.10b"/>
    <tag k="highway" v="service"/>
  </way>
  <way id="25763195" version="4" timestamp="2008-11-24T11:24:25Z" uid="43863" user="Rundling" changeset="786918">
    <nd ref="283632709"/>
    <nd ref="280978012"/>
    <nd ref="280978013"/>
    <nd ref="280978014"/>
    <nd ref="280978015"/>
    <nd ref="280978017"/>
    <nd ref="314210054"/>
    <nd ref="280978018"/>
    <tag k="created_by" v="Potlatch 0.10b"/>
    <tag k="highway" v="service"/>
  </way>
  <way id="25763195" version="5" timestamp="2008-12-18T19:24:54Z" uid="43863" user="Rundling" changeset="458488">
    <nd ref="283632709"/>
    <nd ref="280978012"/>
    <nd ref="280978013"/>
    <nd ref="280978014"/>
    <nd ref="280978015"/>
    <nd ref="280978017"/>
    <nd ref="314210054"/>
    <nd ref="319797991"/>
    <tag k="created_by" v="Potlatch 0.10b"/>
    <tag k="highway" v="service"/>
  </way>
  <way id="25763195" version="6" timestamp="2009-03-15T17:55:44Z" uid="43863" user="Rundling" changeset="813013">
    <nd ref="283632709"/>
    <nd ref="280978012"/>
    <nd ref="280978017"/>
    <nd ref="314210054"/>
    <nd ref="319797991"/>
    <tag k="created_by" v="Potlatch 0.10b"/>
    <tag k="highway" v="service"/>
  </way>
  <way id="25763195" version="7" timestamp="2009-06-16T11:39:57Z" uid="43863" user="Rundling" changeset="1534282">
    <nd ref="283632709"/>
    <nd ref="280978012"/>
    <nd ref="280978017"/>
    <nd ref="314210054"/>
    <nd ref="319797991"/>
    <tag k="highway" v="service"/>
  </way>
  <way id="25763195" version="8" timestamp="2009-06-16T14:59:20Z" uid="43863" user="Rundling" changeset="1535880">
    <nd ref="283632709"/>
    <nd ref="421705167"/>
    <nd ref="280978012"/>
    <nd ref="280978017"/>
    <nd ref="314210054"/>
    <nd ref="319797991"/>
    <tag k="highway" v="service"/>
  </way>
  <way id="25763195" version="9" timestamp="2009-06-17T08:05:11Z" uid="43863" user="Rundling" changeset="1542736">
    <nd ref="283632709"/>
    <nd ref="421705167"/>
    <nd ref="280978012"/>
    <nd ref="314210054"/>
    <nd ref="319797991"/>
    <tag k="highway" v="service"/>
  </way>
  <way id="25763195" version="10" timestamp="2009-07-10T14:32:31Z" uid="43863" user="Rundling" changeset="1789562">
    <nd ref="283632709"/>
    <nd ref="421705167"/>
    <nd ref="280978012"/>
    <nd ref="314210054"/>
    <nd ref="319797991"/>
    <tag k="highway" v="service"/>
    <tag k="name" v="Spottweg"/>
  </way>
  <way id="25763201" version="1" timestamp="2008-07-25T12:07:52Z" uid="43863" user="Rundling" changeset="588833">
    <nd ref="280978099"/>
    <nd ref="280978100"/>
    <nd ref="280978101"/>
    <nd ref="280978102"/>
    <nd ref="280978099"/>
    <tag k="created_by" v="Potlatch 0.10"/>
    <tag k="name" v="Hol ab"/>
    <tag k="shop" v="supermarket"/>
  </way>
  <way id="25763201" version="2" timestamp="2008-07-29T14:35:31Z" uid="43863" user="Rundling" changeset="620068">
    <nd ref="280978099"/>
    <nd ref="280978100"/>
    <nd ref="280978101"/>
    <nd ref="280978102"/>
    <nd ref="280978099"/>
    <tag k="created_by" v="Potlatch 0.10"/>
    <tag k="name" v="Trink gut"/>
    <tag k="shop" v="supermarket"/>
  </way>
  <way id="25763201" version="3" timestamp="2008-08-27T09:51:28Z" uid="43863" user="Rundling" changeset="426746">
    <nd ref="280978099"/>
    <nd ref="280978100"/>
    <nd ref="280978101"/>
    <nd ref="280978102"/>
    <nd ref="280978099"/>
    <tag k="created_by" v="Potlatch 0.10b"/>
    <tag k="landuse" v="commercial"/>
    <tag k="name" v="Trink gut"/>
  </way>
  <way id="25763201" version="4" timestamp="2008-08-27T10:13:20Z" uid="43863" user="Rundling" changeset="426746">
    <nd ref="280978099"/>
    <nd ref="280978100"/>
    <nd ref="280978101"/>
    <nd ref="280978102"/>
    <nd ref="280978099"/>
    <tag k="created_by" v="Potlatch 0.10b"/>
    <tag k="landuse" v="commercial"/>
    <tag k="name" v="trinkgut"/>
  </way>
  <way id="25763201" version="5" timestamp="2008-09-03T07:04:24Z" uid="43863" user="Rundling" changeset="507548">
    <nd ref="280978099"/>
    <nd ref="280978100"/>
    <nd ref="280978101"/>
    <nd ref="280978102"/>
    <nd ref="280978099"/>
    <tag k="building" v="yes"/>
    <tag k="created_by" v="Potlatch 0.10b"/>
    <tag k="landuse" v="commercial"/>
    <tag k="name" v="trinkgut"/>
  </way>
  <way id="25763201" version="6" timestamp="2008-09-03T07:04:48Z" uid="43863" user="Rundling" changeset="507548">
    <nd ref="280978099"/>
    <nd ref="280978100"/>
    <nd ref="280978101"/>
    <nd ref="280978102"/>
    <nd ref="280978099"/>
    <tag k="building" v="yes"/>
    <tag k="created_by" v="Potlatch 0.10b"/>
    <tag k="landuse" v="retail"/>
    <tag k="name" v="trinkgut"/>
  </way>
  <way id="25763201" version="7" timestamp="2009-03-16T13:25:49Z" uid="43863" user="Rundling" changeset="818383">
    <nd ref="280978099"/>
    <nd ref="280978100"/>
    <nd ref="280978101"/>
    <nd ref="280978102"/>
    <nd ref="280978099"/>
    <tag k="building" v="yes"/>
    <tag k="name" v="trinkgut"/>
    <tag k="shop" v="beverages"/>
  </way>
  <way id="25763201" version="8" timestamp="2009-07-03T11:52:47Z" uid="43863" user="Rundling" changeset="1720157">
    <nd ref="432855925"/>
    <nd ref="432855928"/>
    <nd ref="432855930"/>
    <nd ref="432855932"/>
    <nd ref="432855925"/>
    <tag k="building" v="yes"/>
    <tag k="name" v="trinkgut"/>
    <tag k="shop" v="beverages"/>
  </way>
  <way id="25763201" version="9" timestamp="2009-07-10T14:32:31Z" uid="43863" user="Rundling" changeset="1789562">
    <nd ref="432855925"/>
    <nd ref="432855928"/>
    <nd ref="432855930"/>
    <nd ref="432855932"/>
    <nd ref="432855925"/>
    <tag k="addr:city" v="Uelzen"/>
    <tag k="addr:country" v="DE"/>
    <tag k="addr:housenumber" v="4"/>
    <tag k="addr:postcode" v="29525"/>
    <tag k="addr:street" v="Spottweg"/>
    <tag k="building" v="yes"/>
    <tag k="name" v="trinkgut"/>
    <tag k="shop" v="beverages"/>
  </way>
  <way id="25763262" version="54" timestamp="2009-07-22T18:42:34Z" uid="20587" user="balrog-kun" changeset="1907934">
    <nd ref="281464563"/>
    <nd ref="281499186"/>
    <nd ref="313311381"/>
    <nd ref="313311379"/>
    <nd ref="147126321"/>
    <nd ref="147126322"/>
    <nd ref="147126323"/>
    <nd ref="147126324"/>
    <nd ref="147126325"/>
    <nd ref="147126327"/>
    <nd ref="442865853"/>
    <nd ref="442112734"/>
    <nd ref="147126329"/>
    <nd ref="147126330"/>
    <nd ref="282240613"/>
    <nd ref="147126331"/>
    <nd ref="147126332"/>
    <nd ref="442865858"/>
    <nd ref="147126333"/>
    <nd ref="147126334"/>
    <nd ref="442112713"/>
    <nd ref="442865275"/>
    <nd ref="442865276"/>
    <nd ref="442865167"/>
    <nd ref="147126337"/>
    <nd ref="442865473"/>
    <nd ref="442865422"/>
    <nd ref="442865403"/>
    <nd ref="147126338"/>
    <nd ref="442865416"/>
    <nd ref="442865402"/>
    <nd ref="147126339"/>
    <nd ref="282240407"/>
    <nd ref="147126340"/>
    <nd ref="147126341"/>
    <nd ref="282240463"/>
    <nd ref="442865606"/>
    <nd ref="147126342"/>
    <nd ref="442865604"/>
    <nd ref="442865603"/>
    <nd ref="442865601"/>
    <nd ref="442865519"/>
    <nd ref="147126343"/>
    <nd ref="442866396"/>
    <nd ref="442866484"/>
    <nd ref="147126345"/>
    <nd ref="147126346"/>
    <nd ref="442112770"/>
    <nd ref="147126347"/>
    <nd ref="442866534"/>
    <nd ref="147126348"/>
    <nd ref="147126349"/>
    <nd ref="147126350"/>
    <nd ref="147126351"/>
    <nd ref="147126353"/>
    <nd ref="442112838"/>
    <nd ref="282240511"/>
    <nd ref="147126354"/>
    <nd ref="147126355"/>
    <nd ref="147126357"/>
    <nd ref="147126359"/>
    <nd ref="147126360"/>
    <nd ref="313310814"/>
    <nd ref="313310831"/>
    <nd ref="281464563"/>
    <tag k="amenity" v="place_of_worship"/>
    <tag k="building" v="yes"/>
    <tag k="building:type" v="church"/>
    <tag k="denomination" v="roman_catholic"/>
    <tag k="name" v="San Pietro in Vaticano"/>
    <tag k="name:de" v="Petersdom"/>
    <tag k="name:en" v="Papal Basilica of Saint Peter"/>
    <tag k="name:nl" v="Saint Peter"/>
    <tag k="name:pl" v="Bazylika Świętego Piotra"/>
    <tag k="religion" v="christian"/>
    <tag k="wikipedia" v="St. Peter&apos;s Basilica"/>
  </way>
  <way id="25763262" version="55" timestamp="2009-08-28T10:06:58Z" uid="33757" user="Minh Nguyen" changeset="2288111">
    <nd ref="281464563"/>
    <nd ref="281499186"/>
    <nd ref="313311381"/>
    <nd ref="313311379"/>
    <nd ref="147126321"/>
    <nd ref="147126322"/>
    <nd ref="147126323"/>
    <nd ref="147126324"/>
    <nd ref="147126325"/>
    <nd ref="147126327"/>
    <nd ref="442865853"/>
    <nd ref="442112734"/>
    <nd ref="147126329"/>
    <nd ref="147126330"/>
    <nd ref="282240613"/>
    <nd ref="147126331"/>
    <nd ref="147126332"/>
    <nd ref="442865858"/>
    <nd ref="147126333"/>
    <nd ref="147126334"/>
    <nd ref="442112713"/>
    <nd ref="442865275"/>
    <nd ref="442865276"/>
    <nd ref="442865167"/>
    <nd ref="147126337"/>
    <nd ref="442865473"/>
    <nd ref="442865422"/>
    <nd ref="442865403"/>
    <nd ref="147126338"/>
    <nd ref="442865416"/>
    <nd ref="442865402"/>
    <nd ref="147126339"/>
    <nd ref="282240407"/>
    <nd ref="147126340"/>
    <nd ref="147126341"/>
    <nd ref="282240463"/>
    <nd ref="442865606"/>
    <nd ref="147126342"/>
    <nd ref="442865604"/>
    <nd ref="442865603"/>
    <nd ref="442865601"/>
    <nd ref="442865519"/>
    <nd ref="147126343"/>
    <nd ref="442866396"/>
    <nd ref="442866484"/>
    <nd ref="147126345"/>
    <nd ref="147126346"/>
    <nd ref="442112770"/>
    <nd ref="147126347"/>
    <nd ref="442866534"/>
    <nd ref="147126348"/>
    <nd ref="147126349"/>
    <nd ref="147126350"/>
    <nd ref="147126351"/>
    <nd ref="147126353"/>
    <nd ref="442112838"/>
    <nd ref="282240511"/>
    <nd ref="147126354"/>
    <nd ref="147126355"/>
    <nd ref="147126357"/>
    <nd ref="147126359"/>
    <nd ref="147126360"/>
    <nd ref="313310814"/>
    <nd ref="313310831"/>
    <nd ref="281464563"/>
    <tag k="alt_name:vi" v="Vương cung thánh đường Thánh Phê-rô"/>
    <tag k="amenity" v="place_of_worship"/>
    <tag k="building" v="yes"/>
    <tag k="building:type" v="church"/>
    <tag k="denomination" v="roman_catholic"/>
    <tag k="name" v="San Pietro in Vaticano"/>
    <tag k="name:de" v="Petersdom"/>
    <tag k="name:en" v="Papal Basilica of Saint Peter"/>
    <tag k="name:nl" v="Saint Peter"/>
    <tag k="name:pl" v="Bazylika Świętego Piotra"/>
    <tag k="name:vi" v="Nhà thờ Thánh Phê-rô"/>
    <tag k="religion" v="christian"/>
    <tag k="wikipedia" v="St. Peter&apos;s Basilica"/>
  </way>
  <way id="25763262" version="56" timestamp="2009-09-03T19:47:09Z" uid="24966" user="alessioz" changeset="2363801">
    <nd ref="281464563"/>
    <nd ref="281499186"/>
    <nd ref="313311381"/>
    <nd ref="313311379"/>
    <nd ref="147126321"/>
    <nd ref="147126322"/>
    <nd ref="147126323"/>
    <nd ref="147126324"/>
    <nd ref="147126325"/>
    <nd ref="147126327"/>
    <nd ref="442865853"/>
    <nd ref="442112734"/>
    <nd ref="147126329"/>
    <nd ref="147126330"/>
    <nd ref="282240613"/>
    <nd ref="147126331"/>
    <nd ref="147126332"/>
    <nd ref="442865858"/>
    <nd ref="147126333"/>
    <nd ref="147126334"/>
    <nd ref="442112713"/>
    <nd ref="442865275"/>
    <nd ref="442865276"/>
    <nd ref="442865167"/>
    <nd ref="147126337"/>
    <nd ref="442865473"/>
    <nd ref="442865422"/>
    <nd ref="442865403"/>
    <nd ref="147126338"/>
    <nd ref="442865416"/>
    <nd ref="442865402"/>
    <nd ref="147126339"/>
    <nd ref="282240407"/>
    <nd ref="147126340"/>
    <nd ref="147126341"/>
    <nd ref="282240463"/>
    <nd ref="442865606"/>
    <nd ref="147126342"/>
    <nd ref="442865604"/>
    <nd ref="442865603"/>
    <nd ref="442865601"/>
    <nd ref="442865519"/>
    <nd ref="147126343"/>
    <nd ref="442866396"/>
    <nd ref="442866484"/>
    <nd ref="147126345"/>
    <nd ref="147126346"/>
    <nd ref="442112770"/>
    <nd ref="147126347"/>
    <nd ref="442866534"/>
    <nd ref="147126348"/>
    <nd ref="147126349"/>
    <nd ref="147126350"/>
    <nd ref="147126351"/>
    <nd ref="147126353"/>
    <nd ref="442112838"/>
    <nd ref="282240511"/>
    <nd ref="147126354"/>
    <nd ref="147126355"/>
    <nd ref="147126357"/>
    <nd ref="147126359"/>
    <nd ref="147126360"/>
    <nd ref="313310814"/>
    <nd ref="313310831"/>
    <nd ref="281464563"/>
    <tag k="alt_name:vi" v="Vương cung thánh đường Thánh Phê-rô"/>
    <tag k="amenity" v="place_of_worship"/>
    <tag k="building" v="yes"/>
    <tag k="building:type" v="church"/>
    <tag k="denomination" v="roman_catholic"/>
    <tag k="importance" v="international"/>
    <tag k="name" v="San Pietro in Vaticano"/>
    <tag k="name:de" v="Petersdom"/>
    <tag k="name:en" v="Papal Basilica of Saint Peter"/>
    <tag k="name:nl" v="Saint Peter"/>
    <tag k="name:pl" v="Bazylika Świętego Piotra"/>
    <tag k="name:vi" v="Nhà thờ Thánh Phê-rô"/>
    <tag k="religion" v="christian"/>
    <tag k="wikipedia" v="St. Peter&apos;s Basilica"/>
  </way>
  <way id="25763262" version="57" timestamp="2009-09-18T13:18:07Z" uid="33981" user="romanm" changeset="2524344">
    <nd ref="281464563"/>
    <nd ref="281499186"/>
    <nd ref="313311381"/>
    <nd ref="313311379"/>
    <nd ref="147126321"/>
    <nd ref="147126322"/>
    <nd ref="147126323"/>
    <nd ref="147126324"/>
    <nd ref="147126325"/>
    <nd ref="147126327"/>
    <nd ref="442865853"/>
    <nd ref="442112734"/>
    <nd ref="147126329"/>
    <nd ref="147126330"/>
    <nd ref="282240613"/>
    <nd ref="147126331"/>
    <nd ref="147126332"/>
    <nd ref="442865858"/>
    <nd ref="147126333"/>
    <nd ref="147126334"/>
    <nd ref="442112713"/>
    <nd ref="442865275"/>
    <nd ref="442865276"/>
    <nd ref="442865167"/>
    <nd ref="147126337"/>
    <nd ref="442865473"/>
    <nd ref="442865422"/>
    <nd ref="442865403"/>
    <nd ref="147126338"/>
    <nd ref="442865416"/>
    <nd ref="442865402"/>
    <nd ref="147126339"/>
    <nd ref="282240407"/>
    <nd ref="147126340"/>
    <nd ref="147126341"/>
    <nd ref="282240463"/>
    <nd ref="442865606"/>
    <nd ref="147126342"/>
    <nd ref="442865604"/>
    <nd ref="442865603"/>
    <nd ref="442865601"/>
    <nd ref="442865519"/>
    <nd ref="147126343"/>
    <nd ref="442866396"/>
    <nd ref="442866484"/>
    <nd ref="147126345"/>
    <nd ref="147126346"/>
    <nd ref="442112770"/>
    <nd ref="147126347"/>
    <nd ref="442866534"/>
    <nd ref="147126348"/>
    <nd ref="147126349"/>
    <nd ref="147126350"/>
    <nd ref="147126351"/>
    <nd ref="147126353"/>
    <nd ref="442112838"/>
    <nd ref="282240511"/>
    <nd ref="147126354"/>
    <nd ref="147126355"/>
    <nd ref="147126357"/>
    <nd ref="147126359"/>
    <nd ref="147126360"/>
    <nd ref="313310814"/>
    <nd ref="313310831"/>
    <nd ref="281464563"/>
    <tag k="alt_name:vi" v="Vương cung thánh đường Thánh Phê-rô"/>
    <tag k="amenity" v="place_of_worship"/>
    <tag k="building" v="yes"/>
    <tag k="building:type" v="church"/>
    <tag k="denomination" v="roman_catholic"/>
    <tag k="importance" v="international"/>
    <tag k="name" v="San Pietro in Vaticano"/>
    <tag k="name:de" v="Petersdom"/>
    <tag k="name:en" v="Papal Basilica of Saint Peter"/>
    <tag k="name:nl" v="Saint Peter"/>
    <tag k="name:pl" v="Bazylika Świętego Piotra"/>
    <tag k="name:sl" v="Bazilika Svetega Petra"/>
    <tag k="name:vi" v="Nhà thờ Thánh Phê-rô"/>
    <tag k="religion" v="christian"/>
    <tag k="wikipedia" v="St. Peter&apos;s Basilica"/>
  </way>
  <way id="25763262" version="58" timestamp="2009-11-11T13:28:39Z" uid="15891" user="farlokko" changeset="3090035">
    <nd ref="281464563"/>
    <nd ref="281499186"/>
    <nd ref="313311381"/>
    <nd ref="313311379"/>
    <nd ref="147126321"/>
    <nd ref="147126322"/>
    <nd ref="147126323"/>
    <nd ref="147126324"/>
    <nd ref="147126325"/>
    <nd ref="147126327"/>
    <nd ref="442865853"/>
    <nd ref="442112734"/>
    <nd ref="147126329"/>
    <nd ref="147126330"/>
    <nd ref="282240613"/>
    <nd ref="147126331"/>
    <nd ref="147126332"/>
    <nd ref="442865858"/>
    <nd ref="147126333"/>
    <nd ref="147126334"/>
    <nd ref="442112713"/>
    <nd ref="442865275"/>
    <nd ref="442865276"/>
    <nd ref="442865167"/>
    <nd ref="147126337"/>
    <nd ref="442865473"/>
    <nd ref="442865422"/>
    <nd ref="442865403"/>
    <nd ref="147126338"/>
    <nd ref="442865416"/>
    <nd ref="442865402"/>
    <nd ref="147126339"/>
    <nd ref="282240407"/>
    <nd ref="147126340"/>
    <nd ref="147126341"/>
    <nd ref="282240463"/>
    <nd ref="442865606"/>
    <nd ref="147126342"/>
    <nd ref="442865604"/>
    <nd ref="442865603"/>
    <nd ref="442865601"/>
    <nd ref="442865519"/>
    <nd ref="147126343"/>
    <nd ref="442866396"/>
    <nd ref="442866484"/>
    <nd ref="147126345"/>
    <nd ref="147126346"/>
    <nd ref="442112770"/>
    <nd ref="147126347"/>
    <nd ref="442866534"/>
    <nd ref="147126348"/>
    <nd ref="147126349"/>
    <nd ref="147126350"/>
    <nd ref="147126351"/>
    <nd ref="147126353"/>
    <nd ref="442112838"/>
    <nd ref="282240511"/>
    <nd ref="147126354"/>
    <nd ref="147126355"/>
    <nd ref="147126357"/>
    <nd ref="147126359"/>
    <nd ref="147126360"/>
    <nd ref="313310814"/>
    <nd ref="313310831"/>
    <nd ref="281464563"/>
    <tag k="alt_name:vi" v="Vương cung thánh đường Thánh Phê-rô"/>
    <tag k="amenity" v="place_of_worship"/>
    <tag k="building" v="yes"/>
    <tag k="building:type" v="church"/>
    <tag k="denomination" v="roman_catholic"/>
    <tag k="height" v="46 m"/>
    <tag k="importance" v="international"/>
    <tag k="name" v="San Pietro in Vaticano"/>
    <tag k="name:de" v="Petersdom"/>
    <tag k="name:en" v="Papal Basilica of Saint Peter"/>
    <tag k="name:nl" v="Saint Peter"/>
    <tag k="name:pl" v="Bazylika Świętego Piotra"/>
    <tag k="name:sl" v="Bazilika Svetega Petra"/>
    <tag k="name:vi" v="Nhà thờ Thánh Phê-rô"/>
    <tag k="religion" v="christian"/>
    <tag k="wikipedia" v="St. Peter&apos;s Basilica"/>
  </way>
  <way id="25763262" version="59" timestamp="2009-11-16T18:47:47Z" uid="69102" user="Mathbau" changeset="3134494">
    <nd ref="281464563"/>
    <nd ref="281499186"/>
    <nd ref="313311381"/>
    <nd ref="313311379"/>
    <nd ref="147126321"/>
    <nd ref="147126322"/>
    <nd ref="147126323"/>
    <nd ref="147126324"/>
    <nd ref="147126325"/>
    <nd ref="147126327"/>
    <nd ref="442865853"/>
    <nd ref="442112734"/>
    <nd ref="147126329"/>
    <nd ref="147126330"/>
    <nd ref="282240613"/>
    <nd ref="147126331"/>
    <nd ref="147126332"/>
    <nd ref="442865858"/>
    <nd ref="147126333"/>
    <nd ref="147126334"/>
    <nd ref="442112713"/>
    <nd ref="442865275"/>
    <nd ref="442865276"/>
    <nd ref="442865167"/>
    <nd ref="147126337"/>
    <nd ref="442865473"/>
    <nd ref="442865422"/>
    <nd ref="442865403"/>
    <nd ref="147126338"/>
    <nd ref="442865416"/>
    <nd ref="442865402"/>
    <nd ref="147126339"/>
    <nd ref="282240407"/>
    <nd ref="147126340"/>
    <nd ref="147126341"/>
    <nd ref="282240463"/>
    <nd ref="442865606"/>
    <nd ref="147126342"/>
    <nd ref="442865604"/>
    <nd ref="442865603"/>
    <nd ref="442865601"/>
    <nd ref="442865519"/>
    <nd ref="147126343"/>
    <nd ref="442866396"/>
    <nd ref="442866484"/>
    <nd ref="147126345"/>
    <nd ref="147126346"/>
    <nd ref="442112770"/>
    <nd ref="147126347"/>
    <nd ref="442866534"/>
    <nd ref="147126348"/>
    <nd ref="147126349"/>
    <nd ref="147126350"/>
    <nd ref="147126351"/>
    <nd ref="147126353"/>
    <nd ref="565553566"/>
    <nd ref="147126354"/>
    <nd ref="565553567"/>
    <nd ref="565553568"/>
    <nd ref="147126355"/>
    <nd ref="147126357"/>
    <nd ref="147126359"/>
    <nd ref="147126360"/>
    <nd ref="313310814"/>
    <nd ref="313310831"/>
    <nd ref="281464563"/>
    <tag k="alt_name:vi" v="Vương cung thánh đường Thánh Phê-rô"/>
    <tag k="amenity" v="place_of_worship"/>
    <tag k="building" v="yes"/>
    <tag k="building:type" v="church"/>
    <tag k="denomination" v="roman_catholic"/>
    <tag k="height" v="46 m"/>
    <tag k="importance" v="international"/>
    <tag k="name" v="San Pietro in Vaticano"/>
    <tag k="name:de" v="Petersdom"/>
    <tag k="name:en" v="Papal Basilica of Saint Peter"/>
    <tag k="name:nl" v="Saint Peter"/>
    <tag k="name:pl" v="Bazylika Świętego Piotra"/>
    <tag k="name:sl" v="Bazilika Svetega Petra"/>
    <tag k="name:vi" v="Nhà thờ Thánh Phê-rô"/>
    <tag k="religion" v="christian"/>
    <tag k="wikipedia" v="St. Peter&apos;s Basilica"/>
  </way>
  <way id="25763262" version="60" timestamp="2009-11-16T18:52:17Z" uid="69102" user="Mathbau" changeset="3134494">
    <nd ref="281464563"/>
    <nd ref="281499186"/>
    <nd ref="313311381"/>
    <nd ref="313311379"/>
    <nd ref="147126321"/>
    <nd ref="147126322"/>
    <nd ref="147126323"/>
    <nd ref="147126324"/>
    <nd ref="147126325"/>
    <nd ref="147126327"/>
    <nd ref="442865853"/>
    <nd ref="442112734"/>
    <nd ref="147126329"/>
    <nd ref="147126330"/>
    <nd ref="282240613"/>
    <nd ref="147126331"/>
    <nd ref="147126332"/>
    <nd ref="442865858"/>
    <nd ref="147126333"/>
    <nd ref="147126334"/>
    <nd ref="442112713"/>
    <nd ref="442865275"/>
    <nd ref="442865276"/>
    <nd ref="442865167"/>
    <nd ref="147126337"/>
    <nd ref="442865473"/>
    <nd ref="442865422"/>
    <nd ref="442865403"/>
    <nd ref="147126338"/>
    <nd ref="442865416"/>
    <nd ref="442865402"/>
    <nd ref="147126339"/>
    <nd ref="282240407"/>
    <nd ref="147126340"/>
    <nd ref="147126341"/>
    <nd ref="282240463"/>
    <nd ref="442865606"/>
    <nd ref="147126342"/>
    <nd ref="442865604"/>
    <nd ref="442865603"/>
    <nd ref="442865601"/>
    <nd ref="442865519"/>
    <nd ref="147126343"/>
    <nd ref="565560907"/>
    <nd ref="442866396"/>
    <nd ref="442866484"/>
    <nd ref="147126345"/>
    <nd ref="147126346"/>
    <nd ref="442112770"/>
    <nd ref="147126347"/>
    <nd ref="442866534"/>
    <nd ref="147126348"/>
    <nd ref="147126349"/>
    <nd ref="147126350"/>
    <nd ref="147126351"/>
    <nd ref="147126353"/>
    <nd ref="565553566"/>
    <nd ref="147126354"/>
    <nd ref="565553567"/>
    <nd ref="565553568"/>
    <nd ref="147126355"/>
    <nd ref="147126357"/>
    <nd ref="147126359"/>
    <nd ref="147126360"/>
    <nd ref="313310814"/>
    <nd ref="313310831"/>
    <nd ref="281464563"/>
    <tag k="alt_name:vi" v="Vương cung thánh đường Thánh Phê-rô"/>
    <tag k="amenity" v="place_of_worship"/>
    <tag k="building" v="yes"/>
    <tag k="building:type" v="church"/>
    <tag k="denomination" v="roman_catholic"/>
    <tag k="height" v="46 m"/>
    <tag k="importance" v="international"/>
    <tag k="name" v="San Pietro in Vaticano"/>
    <tag k="name:de" v="Petersdom"/>
    <tag k="name:en" v="Papal Basilica of Saint Peter"/>
    <tag k="name:nl" v="Saint Peter"/>
    <tag k="name:pl" v="Bazylika Świętego Piotra"/>
    <tag k="name:sl" v="Bazilika Svetega Petra"/>
    <tag k="name:vi" v="Nhà thờ Thánh Phê-rô"/>
    <tag k="religion" v="christian"/>
    <tag k="wikipedia" v="St. Peter&apos;s Basilica"/>
  </way>
  <way id="25763262" version="61" timestamp="2009-11-18T08:54:26Z" uid="29717" user="eumiro" changeset="3148222">
    <nd ref="281464563"/>
    <nd ref="281499186"/>
    <nd ref="313311381"/>
    <nd ref="313311379"/>
    <nd ref="147126321"/>
    <nd ref="147126322"/>
    <nd ref="147126323"/>
    <nd ref="147126324"/>
    <nd ref="147126325"/>
    <nd ref="147126327"/>
    <nd ref="442865853"/>
    <nd ref="442112734"/>
    <nd ref="147126329"/>
    <nd ref="147126330"/>
    <nd ref="282240613"/>
    <nd ref="147126331"/>
    <nd ref="147126332"/>
    <nd ref="442865858"/>
    <nd ref="147126333"/>
    <nd ref="147126334"/>
    <nd ref="442112713"/>
    <nd ref="442865275"/>
    <nd ref="442865276"/>
    <nd ref="442865167"/>
    <nd ref="147126337"/>
    <nd ref="442865473"/>
    <nd ref="442865422"/>
    <nd ref="442865403"/>
    <nd ref="147126338"/>
    <nd ref="442865416"/>
    <nd ref="442865402"/>
    <nd ref="147126339"/>
    <nd ref="282240407"/>
    <nd ref="147126340"/>
    <nd ref="147126341"/>
    <nd ref="282240463"/>
    <nd ref="442865606"/>
    <nd ref="147126342"/>
    <nd ref="442865604"/>
    <nd ref="442865603"/>
    <nd ref="442865601"/>
    <nd ref="442865519"/>
    <nd ref="147126343"/>
    <nd ref="565560907"/>
    <nd ref="442866396"/>
    <nd ref="442866484"/>
    <nd ref="147126345"/>
    <nd ref="147126346"/>
    <nd ref="442112770"/>
    <nd ref="147126347"/>
    <nd ref="442866534"/>
    <nd ref="147126348"/>
    <nd ref="147126349"/>
    <nd ref="147126350"/>
    <nd ref="147126351"/>
    <nd ref="147126353"/>
    <nd ref="565553566"/>
    <nd ref="147126354"/>
    <nd ref="565553567"/>
    <nd ref="565553568"/>
    <nd ref="147126355"/>
    <nd ref="147126357"/>
    <nd ref="147126359"/>
    <nd ref="147126360"/>
    <nd ref="313310814"/>
    <nd ref="313310831"/>
    <nd ref="281464563"/>
    <tag k="alt_name:vi" v="Vương cung thánh đường Thánh Phê-rô"/>
    <tag k="amenity" v="place_of_worship"/>
    <tag k="building" v="yes"/>
    <tag k="building:type" v="church"/>
    <tag k="denomination" v="roman_catholic"/>
    <tag k="height" v="46 m"/>
    <tag k="importance" v="international"/>
    <tag k="name" v="San Pietro in Vaticano"/>
    <tag k="name:de" v="Petersdom"/>
    <tag k="name:en" v="Papal Basilica of Saint Peter"/>
    <tag k="name:nl" v="Saint Peter"/>
    <tag k="name:pl" v="Bazylika Świętego Piotra"/>
    <tag k="name:sk" v="Bazilika svätého Petra"/>
    <tag k="name:sl" v="Bazilika Svetega Petra"/>
    <tag k="name:vi" v="Nhà thờ Thánh Phê-rô"/>
    <tag k="religion" v="christian"/>
    <tag k="wikipedia" v="St. Peter&apos;s Basilica"/>
  </way>
  <way id="25763262" version="62" timestamp="2010-02-28T11:35:03Z" uid="69102" user="Mathbau" changeset="3996841">
    <nd ref="281464563"/>
    <nd ref="281499186"/>
    <nd ref="313311381"/>
    <nd ref="313311379"/>
    <nd ref="147126321"/>
    <nd ref="147126322"/>
    <nd ref="656141267"/>
    <nd ref="147126323"/>
    <nd ref="147126324"/>
    <nd ref="147126325"/>
    <nd ref="147126327"/>
    <nd ref="442865853"/>
    <nd ref="442112734"/>
    <nd ref="147126329"/>
    <nd ref="147126330"/>
    <nd ref="282240613"/>
    <nd ref="147126331"/>
    <nd ref="147126332"/>
    <nd ref="442865858"/>
    <nd ref="147126333"/>
    <nd ref="147126334"/>
    <nd ref="442112713"/>
    <nd ref="442865275"/>
    <nd ref="442865276"/>
    <nd ref="442865167"/>
    <nd ref="147126337"/>
    <nd ref="442865473"/>
    <nd ref="442865422"/>
    <nd ref="442865403"/>
    <nd ref="147126338"/>
    <nd ref="442865416"/>
    <nd ref="442865402"/>
    <nd ref="147126339"/>
    <nd ref="282240407"/>
    <nd ref="147126340"/>
    <nd ref="147126341"/>
    <nd ref="282240463"/>
    <nd ref="442865606"/>
    <nd ref="147126342"/>
    <nd ref="442865604"/>
    <nd ref="442865603"/>
    <nd ref="442865601"/>
    <nd ref="442865519"/>
    <nd ref="147126343"/>
    <nd ref="565560907"/>
    <nd ref="442866396"/>
    <nd ref="442866484"/>
    <nd ref="147126345"/>
    <nd ref="147126346"/>
    <nd ref="442112770"/>
    <nd ref="147126347"/>
    <nd ref="442866534"/>
    <nd ref="147126348"/>
    <nd ref="147126349"/>
    <nd ref="147126350"/>
    <nd ref="147126351"/>
    <nd ref="147126353"/>
    <nd ref="565553566"/>
    <nd ref="147126354"/>
    <nd ref="565553567"/>
    <nd ref="565553568"/>
    <nd ref="147126355"/>
    <nd ref="147126357"/>
    <nd ref="147126359"/>
    <nd ref="147126360"/>
    <nd ref="313310814"/>
    <nd ref="313310831"/>
    <nd ref="281464563"/>
    <tag k="alt_name:vi" v="Vương cung thánh đường Thánh Phê-rô"/>
    <tag k="amenity" v="place_of_worship"/>
    <tag k="building" v="yes"/>
    <tag k="building:type" v="church"/>
    <tag k="denomination" v="roman_catholic"/>
    <tag k="height" v="46 m"/>
    <tag k="importance" v="international"/>
    <tag k="name" v="San Pietro in Vaticano"/>
    <tag k="name:de" v="Petersdom"/>
    <tag k="name:en" v="Papal Basilica of Saint Peter"/>
    <tag k="name:nl" v="Saint Peter"/>
    <tag k="name:pl" v="Bazylika Świętego Piotra"/>
    <tag k="name:sk" v="Bazilika svätého Petra"/>
    <tag k="name:sl" v="Bazilika Svetega Petra"/>
    <tag k="name:vi" v="Nhà thờ Thánh Phê-rô"/>
    <tag k="religion" v="christian"/>
    <tag k="wikipedia" v="St. Peter&apos;s Basilica"/>
  </way>
  <way id="25763262" version="63" timestamp="2010-05-31T08:15:48Z" uid="21220" user="CarlFriedrich" changeset="4860670">
    <nd ref="281464563"/>
    <nd ref="281499186"/>
    <nd ref="313311381"/>
    <nd ref="313311379"/>
    <nd ref="147126321"/>
    <nd ref="147126322"/>
    <nd ref="656141267"/>
    <nd ref="147126323"/>
    <nd ref="147126324"/>
    <nd ref="147126325"/>
    <nd ref="147126327"/>
    <nd ref="442865853"/>
    <nd ref="442112734"/>
    <nd ref="147126329"/>
    <nd ref="147126330"/>
    <nd ref="282240613"/>
    <nd ref="147126331"/>
    <nd ref="147126332"/>
    <nd ref="442865858"/>
    <nd ref="147126333"/>
    <nd ref="147126334"/>
    <nd ref="442112713"/>
    <nd ref="442865275"/>
    <nd ref="442865276"/>
    <nd ref="442865167"/>
    <nd ref="147126337"/>
    <nd ref="442865473"/>
    <nd ref="442865422"/>
    <nd ref="442865403"/>
    <nd ref="147126338"/>
    <nd ref="442865416"/>
    <nd ref="442865402"/>
    <nd ref="147126339"/>
    <nd ref="282240407"/>
    <nd ref="147126340"/>
    <nd ref="147126341"/>
    <nd ref="282240463"/>
    <nd ref="442865606"/>
    <nd ref="147126342"/>
    <nd ref="442865604"/>
    <nd ref="442865603"/>
    <nd ref="442865601"/>
    <nd ref="442865519"/>
    <nd ref="147126343"/>
    <nd ref="565560907"/>
    <nd ref="442866396"/>
    <nd ref="442866484"/>
    <nd ref="147126345"/>
    <nd ref="147126346"/>
    <nd ref="442112770"/>
    <nd ref="147126347"/>
    <nd ref="442866534"/>
    <nd ref="147126348"/>
    <nd ref="147126349"/>
    <nd ref="147126350"/>
    <nd ref="147126351"/>
    <nd ref="147126353"/>
    <nd ref="565553566"/>
    <nd ref="147126354"/>
    <nd ref="565553567"/>
    <nd ref="565553568"/>
    <nd ref="147126355"/>
    <nd ref="147126357"/>
    <nd ref="147126359"/>
    <nd ref="147126360"/>
    <nd ref="313310814"/>
    <nd ref="313310831"/>
    <nd ref="281464563"/>
    <tag k="alt_name:vi" v="Vương cung thánh đường Thánh Phê-rô"/>
    <tag k="amenity" v="place_of_worship"/>
    <tag k="building" v="yes"/>
    <tag k="building:type" v="church"/>
    <tag k="denomination" v="roman_catholic"/>
    <tag k="height" v="146 m"/>
    <tag k="importance" v="international"/>
    <tag k="name" v="San Pietro in Vaticano"/>
    <tag k="name:de" v="Petersdom"/>
    <tag k="name:en" v="Papal Basilica of Saint Peter"/>
    <tag k="name:nl" v="Saint Peter"/>
    <tag k="name:pl" v="Bazylika Świętego Piotra"/>
    <tag k="name:sk" v="Bazilika svätého Petra"/>
    <tag k="name:sl" v="Bazilika Svetega Petra"/>
    <tag k="name:vi" v="Nhà thờ Thánh Phê-rô"/>
    <tag k="religion" v="christian"/>
    <tag k="wikipedia" v="St. Peter&apos;s Basilica"/>
  </way>
  <way id="25763262" version="64" timestamp="2010-06-10T12:46:20Z" uid="186449" user="Michele Mastrogiovanni" changeset="4953813">
    <nd ref="281464563"/>
    <nd ref="281499186"/>
    <nd ref="313311381"/>
    <nd ref="313311379"/>
    <nd ref="147126321"/>
    <nd ref="147126322"/>
    <nd ref="656141267"/>
    <nd ref="147126323"/>
    <nd ref="147126324"/>
    <nd ref="147126325"/>
    <nd ref="147126327"/>
    <nd ref="442865853"/>
    <nd ref="442112734"/>
    <nd ref="147126329"/>
    <nd ref="147126330"/>
    <nd ref="282240613"/>
    <nd ref="147126331"/>
    <nd ref="147126332"/>
    <nd ref="442865858"/>
    <nd ref="147126333"/>
    <nd ref="147126334"/>
    <nd ref="442112713"/>
    <nd ref="442865275"/>
    <nd ref="442865276"/>
    <nd ref="442865167"/>
    <nd ref="147126337"/>
    <nd ref="442865473"/>
    <nd ref="442865422"/>
    <nd ref="442865403"/>
    <nd ref="147126338"/>
    <nd ref="442865416"/>
    <nd ref="442865402"/>
    <nd ref="147126339"/>
    <nd ref="282240407"/>
    <nd ref="147126340"/>
    <nd ref="147126341"/>
    <nd ref="282240463"/>
    <nd ref="442865606"/>
    <nd ref="147126342"/>
    <nd ref="442865604"/>
    <nd ref="442865603"/>
    <nd ref="442865601"/>
    <nd ref="442865519"/>
    <nd ref="147126343"/>
    <nd ref="565560907"/>
    <nd ref="442866396"/>
    <nd ref="442866484"/>
    <nd ref="147126345"/>
    <nd ref="147126346"/>
    <nd ref="442112770"/>
    <nd ref="147126347"/>
    <nd ref="442866534"/>
    <nd ref="147126348"/>
    <nd ref="147126349"/>
    <nd ref="147126350"/>
    <nd ref="147126351"/>
    <nd ref="147126353"/>
    <nd ref="565553566"/>
    <nd ref="147126354"/>
    <nd ref="565553567"/>
    <nd ref="565553568"/>
    <nd ref="147126355"/>
    <nd ref="147126357"/>
    <nd ref="147126359"/>
    <nd ref="147126360"/>
    <nd ref="313310814"/>
    <nd ref="313310831"/>
    <nd ref="281464563"/>
    <tag k="alt_name:vi" v="Vương cung thánh đường Thánh Phê-rô"/>
    <tag k="amenity" v="place_of_worship"/>
    <tag k="building" v="yes"/>
    <tag k="building:type" v="church"/>
    <tag k="denomination" v="roman_catholic"/>
    <tag k="height" v="146 m"/>
    <tag k="highway" v="primary"/>
    <tag k="importance" v="international"/>
    <tag k="name" v="San Pietro in Vaticano"/>
    <tag k="name:de" v="Petersdom"/>
    <tag k="name:en" v="Papal Basilica of Saint Peter"/>
    <tag k="name:nl" v="Saint Peter"/>
    <tag k="name:pl" v="Bazylika Świętego Piotra"/>
    <tag k="name:sk" v="Bazilika svätého Petra"/>
    <tag k="name:sl" v="Bazilika Svetega Petra"/>
    <tag k="name:vi" v="Nhà thờ Thánh Phê-rô"/>
    <tag k="religion" v="christian"/>
    <tag k="wikipedia" v="St. Peter&apos;s Basilica"/>
  </way>
  <way id="25763262" version="65" timestamp="2010-06-20T22:20:21Z" uid="96685" user="bellazambo" changeset="5038195">
    <nd ref="281464563"/>
    <nd ref="281499186"/>
    <nd ref="313311381"/>
    <nd ref="313311379"/>
    <nd ref="147126321"/>
    <nd ref="147126322"/>
    <nd ref="656141267"/>
    <nd ref="147126323"/>
    <nd ref="147126324"/>
    <nd ref="147126325"/>
    <nd ref="147126327"/>
    <nd ref="442865853"/>
    <nd ref="442112734"/>
    <nd ref="147126329"/>
    <nd ref="147126330"/>
    <nd ref="282240613"/>
    <nd ref="147126331"/>
    <nd ref="147126332"/>
    <nd ref="442865858"/>
    <nd ref="147126333"/>
    <nd ref="147126334"/>
    <nd ref="442112713"/>
    <nd ref="442865275"/>
    <nd ref="442865276"/>
    <nd ref="442865167"/>
    <nd ref="147126337"/>
    <nd ref="442865473"/>
    <nd ref="442865422"/>
    <nd ref="442865403"/>
    <nd ref="147126338"/>
    <nd ref="442865416"/>
    <nd ref="442865402"/>
    <nd ref="147126339"/>
    <nd ref="282240407"/>
    <nd ref="147126340"/>
    <nd ref="147126341"/>
    <nd ref="282240463"/>
    <nd ref="442865606"/>
    <nd ref="147126342"/>
    <nd ref="442865604"/>
    <nd ref="442865603"/>
    <nd ref="442865601"/>
    <nd ref="442865519"/>
    <nd ref="147126343"/>
    <nd ref="565560907"/>
    <nd ref="442866396"/>
    <nd ref="442866484"/>
    <nd ref="147126345"/>
    <nd ref="147126346"/>
    <nd ref="442112770"/>
    <nd ref="147126347"/>
    <nd ref="442866534"/>
    <nd ref="147126348"/>
    <nd ref="147126349"/>
    <nd ref="147126350"/>
    <nd ref="147126351"/>
    <nd ref="147126353"/>
    <nd ref="565553566"/>
    <nd ref="147126354"/>
    <nd ref="565553567"/>
    <nd ref="565553568"/>
    <nd ref="147126355"/>
    <nd ref="147126357"/>
    <nd ref="147126359"/>
    <nd ref="147126360"/>
    <nd ref="313310814"/>
    <nd ref="313310831"/>
    <nd ref="281464563"/>
    <tag k="alt_name:vi" v="Vương cung thánh đường Thánh Phê-rô"/>
    <tag k="amenity" v="place_of_worship"/>
    <tag k="building" v="yes"/>
    <tag k="building:type" v="church"/>
    <tag k="denomination" v="roman_catholic"/>
    <tag k="height" v="146 m"/>
    <tag k="importance" v="international"/>
    <tag k="name" v="San Pietro in Vaticano"/>
    <tag k="name:de" v="Petersdom"/>
    <tag k="name:en" v="Papal Basilica of Saint Peter"/>
    <tag k="name:nl" v="Saint Peter"/>
    <tag k="name:pl" v="Bazylika Świętego Piotra"/>
    <tag k="name:sk" v="Bazilika svätého Petra"/>
    <tag k="name:sl" v="Bazilika Svetega Petra"/>
    <tag k="name:vi" v="Nhà thờ Thánh Phê-rô"/>
    <tag k="religion" v="christian"/>
    <tag k="wikipedia" v="St. Peter&apos;s Basilica"/>
  </way>
  <way id="25763262" version="66" timestamp="2010-07-14T20:00:32Z" uid="314684" user="krattbot" changeset="5221236">
    <nd ref="281464563"/>
    <nd ref="281499186"/>
    <nd ref="313311381"/>
    <nd ref="313311379"/>
    <nd ref="147126321"/>
    <nd ref="147126322"/>
    <nd ref="656141267"/>
    <nd ref="147126323"/>
    <nd ref="147126324"/>
    <nd ref="147126325"/>
    <nd ref="147126327"/>
    <nd ref="442865853"/>
    <nd ref="442112734"/>
    <nd ref="147126329"/>
    <nd ref="147126330"/>
    <nd ref="282240613"/>
    <nd ref="147126331"/>
    <nd ref="147126332"/>
    <nd ref="442865858"/>
    <nd ref="147126333"/>
    <nd ref="147126334"/>
    <nd ref="442112713"/>
    <nd ref="442865275"/>
    <nd ref="442865276"/>
    <nd ref="442865167"/>
    <nd ref="147126337"/>
    <nd ref="442865473"/>
    <nd ref="442865422"/>
    <nd ref="442865403"/>
    <nd ref="147126338"/>
    <nd ref="442865416"/>
    <nd ref="442865402"/>
    <nd ref="147126339"/>
    <nd ref="282240407"/>
    <nd ref="147126340"/>
    <nd ref="147126341"/>
    <nd ref="282240463"/>
    <nd ref="442865606"/>
    <nd ref="147126342"/>
    <nd ref="442865604"/>
    <nd ref="442865603"/>
    <nd ref="442865601"/>
    <nd ref="442865519"/>
    <nd ref="147126343"/>
    <nd ref="565560907"/>
    <nd ref="442866396"/>
    <nd ref="442866484"/>
    <nd ref="147126345"/>
    <nd ref="147126346"/>
    <nd ref="442112770"/>
    <nd ref="147126347"/>
    <nd ref="442866534"/>
    <nd ref="147126348"/>
    <nd ref="147126349"/>
    <nd ref="147126350"/>
    <nd ref="147126351"/>
    <nd ref="147126353"/>
    <nd ref="565553566"/>
    <nd ref="147126354"/>
    <nd ref="565553567"/>
    <nd ref="565553568"/>
    <nd ref="147126355"/>
    <nd ref="147126357"/>
    <nd ref="147126359"/>
    <nd ref="147126360"/>
    <nd ref="313310814"/>
    <nd ref="313310831"/>
    <nd ref="281464563"/>
    <tag k="alt_name:vi" v="Vương cung thánh đường Thánh Phê-rô"/>
    <tag k="amenity" v="place_of_worship"/>
    <tag k="building" v="yes"/>
    <tag k="building:type" v="church"/>
    <tag k="denomination" v="roman_catholic"/>
    <tag k="height" v="146 m"/>
    <tag k="importance" v="international"/>
    <tag k="name" v="San Pietro in Vaticano"/>
    <tag k="name:de" v="Petersdom"/>
    <tag k="name:en" v="Papal Basilica of Saint Peter"/>
    <tag k="name:et" v="Rooma Peetri kirik"/>
    <tag k="name:nl" v="Saint Peter"/>
    <tag k="name:pl" v="Bazylika Świętego Piotra"/>
    <tag k="name:sk" v="Bazilika svätého Petra"/>
    <tag k="name:sl" v="Bazilika Svetega Petra"/>
    <tag k="name:vi" v="Nhà thờ Thánh Phê-rô"/>
    <tag k="religion" v="christian"/>
    <tag k="wikipedia" v="St. Peter&apos;s Basilica"/>
  </way>
  <way id="25763262" version="67" timestamp="2011-03-06T20:49:52Z" uid="335224" user="ChehVlad" changeset="7478366">
    <nd ref="281464563"/>
    <nd ref="281499186"/>
    <nd ref="313311381"/>
    <nd ref="313311379"/>
    <nd ref="147126321"/>
    <nd ref="147126322"/>
    <nd ref="656141267"/>
    <nd ref="147126323"/>
    <nd ref="147126324"/>
    <nd ref="147126325"/>
    <nd ref="147126327"/>
    <nd ref="442865853"/>
    <nd ref="442112734"/>
    <nd ref="147126329"/>
    <nd ref="147126330"/>
    <nd ref="282240613"/>
    <nd ref="147126331"/>
    <nd ref="147126332"/>
    <nd ref="442865858"/>
    <nd ref="147126333"/>
    <nd ref="147126334"/>
    <nd ref="442112713"/>
    <nd ref="442865275"/>
    <nd ref="442865276"/>
    <nd ref="442865167"/>
    <nd ref="147126337"/>
    <nd ref="442865473"/>
    <nd ref="442865422"/>
    <nd ref="442865403"/>
    <nd ref="147126338"/>
    <nd ref="442865416"/>
    <nd ref="442865402"/>
    <nd ref="147126339"/>
    <nd ref="282240407"/>
    <nd ref="147126340"/>
    <nd ref="147126341"/>
    <nd ref="282240463"/>
    <nd ref="442865606"/>
    <nd ref="147126342"/>
    <nd ref="442865604"/>
    <nd ref="442865603"/>
    <nd ref="442865601"/>
    <nd ref="442865519"/>
    <nd ref="147126343"/>
    <nd ref="565560907"/>
    <nd ref="442866396"/>
    <nd ref="442866484"/>
    <nd ref="147126345"/>
    <nd ref="147126346"/>
    <nd ref="442112770"/>
    <nd ref="147126347"/>
    <nd ref="442866534"/>
    <nd ref="147126348"/>
    <nd ref="147126349"/>
    <nd ref="147126350"/>
    <nd ref="147126351"/>
    <nd ref="147126353"/>
    <nd ref="565553566"/>
    <nd ref="147126354"/>
    <nd ref="565553567"/>
    <nd ref="565553568"/>
    <nd ref="147126355"/>
    <nd ref="147126357"/>
    <nd ref="147126359"/>
    <nd ref="147126360"/>
    <nd ref="313310814"/>
    <nd ref="313310831"/>
    <nd ref="281464563"/>
    <tag k="alt_name:vi" v="Vương cung thánh đường Thánh Phê-rô"/>
    <tag k="amenity" v="place_of_worship"/>
    <tag k="building" v="yes"/>
    <tag k="building:type" v="church"/>
    <tag k="denomination" v="roman_catholic"/>
    <tag k="height" v="146 m"/>
    <tag k="importance" v="international"/>
    <tag k="name" v="San Pietro in Vaticano"/>
    <tag k="name:be" v="Сабор Святога Пятра"/>
    <tag k="name:de" v="Petersdom"/>
    <tag k="name:en" v="Papal Basilica of Saint Peter"/>
    <tag k="name:et" v="Rooma Peetri kirik"/>
    <tag k="name:nl" v="Saint Peter"/>
    <tag k="name:pl" v="Bazylika Świętego Piotra"/>
    <tag k="name:sk" v="Bazilika svätého Petra"/>
    <tag k="name:sl" v="Bazilika Svetega Petra"/>
    <tag k="name:vi" v="Nhà thờ Thánh Phê-rô"/>
    <tag k="religion" v="christian"/>
    <tag k="wikipedia" v="St. Peter&apos;s Basilica"/>
  </way>
  <way id="25763262" version="68" timestamp="2011-03-07T10:36:35Z" uid="69102" user="Mathbau" changeset="7482564">
    <nd ref="281464563"/>
    <nd ref="281499186"/>
    <nd ref="313311381"/>
    <nd ref="313311379"/>
    <nd ref="147126321"/>
    <nd ref="147126322"/>
    <nd ref="656141267"/>
    <nd ref="147126323"/>
    <nd ref="147126324"/>
    <nd ref="147126325"/>
    <nd ref="147126327"/>
    <nd ref="442865853"/>
    <nd ref="442112734"/>
    <nd ref="147126329"/>
    <nd ref="147126330"/>
    <nd ref="282240613"/>
    <nd ref="147126331"/>
    <nd ref="147126332"/>
    <nd ref="442865858"/>
    <nd ref="147126333"/>
    <nd ref="147126334"/>
    <nd ref="442112713"/>
    <nd ref="442865275"/>
    <nd ref="442865276"/>
    <nd ref="442865167"/>
    <nd ref="147126337"/>
    <nd ref="442865473"/>
    <nd ref="442865422"/>
    <nd ref="442865403"/>
    <nd ref="147126338"/>
    <nd ref="442865416"/>
    <nd ref="442865402"/>
    <nd ref="147126339"/>
    <nd ref="282240407"/>
    <nd ref="147126340"/>
    <nd ref="147126341"/>
    <nd ref="282240463"/>
    <nd ref="442865606"/>
    <nd ref="147126342"/>
    <nd ref="442865604"/>
    <nd ref="442865603"/>
    <nd ref="442865601"/>
    <nd ref="442865519"/>
    <nd ref="147126343"/>
    <nd ref="565560907"/>
    <nd ref="442866396"/>
    <nd ref="442866484"/>
    <nd ref="147126345"/>
    <nd ref="147126346"/>
    <nd ref="442112770"/>
    <nd ref="147126347"/>
    <nd ref="442866534"/>
    <nd ref="147126348"/>
    <nd ref="147126349"/>
    <nd ref="147126350"/>
    <nd ref="147126351"/>
    <nd ref="147126353"/>
    <nd ref="565553566"/>
    <nd ref="147126354"/>
    <nd ref="1190852888"/>
    <nd ref="1190852902"/>
    <nd ref="1190852891"/>
    <nd ref="1190852887"/>
    <nd ref="565553567"/>
    <nd ref="565553568"/>
    <nd ref="1190852884"/>
    <nd ref="1190852907"/>
    <nd ref="147126355"/>
    <nd ref="147126357"/>
    <nd ref="147126359"/>
    <nd ref="147126360"/>
    <nd ref="313310814"/>
    <nd ref="313310831"/>
    <nd ref="281464563"/>
    <tag k="alt_name:vi" v="Vương cung thánh đường Thánh Phê-rô"/>
    <tag k="amenity" v="place_of_worship"/>
    <tag k="building" v="yes"/>
    <tag k="building:type" v="church"/>
    <tag k="denomination" v="roman_catholic"/>
    <tag k="height" v="146 m"/>
    <tag k="importance" v="international"/>
    <tag k="name" v="San Pietro in Vaticano"/>
    <tag k="name:be" v="Сабор Святога Пятра"/>
    <tag k="name:de" v="Petersdom"/>
    <tag k="name:en" v="Papal Basilica of Saint Peter"/>
    <tag k="name:et" v="Rooma Peetri kirik"/>
    <tag k="name:nl" v="Saint Peter"/>
    <tag k="name:pl" v="Bazylika Świętego Piotra"/>
    <tag k="name:sk" v="Bazilika svätého Petra"/>
    <tag k="name:sl" v="Bazilika Svetega Petra"/>
    <tag k="name:vi" v="Nhà thờ Thánh Phê-rô"/>
    <tag k="religion" v="christian"/>
    <tag k="wikipedia" v="St. Peter&apos;s Basilica"/>
  </way>
  <way id="25763262" version="69" timestamp="2011-04-13T15:15:20Z" uid="67862" user="HolgerJeromin" changeset="7852738">
    <nd ref="281464563"/>
    <nd ref="281499186"/>
    <nd ref="313311381"/>
    <nd ref="313311379"/>
    <nd ref="147126321"/>
    <nd ref="147126322"/>
    <nd ref="656141267"/>
    <nd ref="147126323"/>
    <nd ref="147126324"/>
    <nd ref="147126325"/>
    <nd ref="147126327"/>
    <nd ref="442865853"/>
    <nd ref="442112734"/>
    <nd ref="147126329"/>
    <nd ref="147126330"/>
    <nd ref="282240613"/>
    <nd ref="147126331"/>
    <nd ref="147126332"/>
    <nd ref="442865858"/>
    <nd ref="147126333"/>
    <nd ref="147126334"/>
    <nd ref="442112713"/>
    <nd ref="442865275"/>
    <nd ref="442865276"/>
    <nd ref="442865167"/>
    <nd ref="147126337"/>
    <nd ref="442865473"/>
    <nd ref="442865422"/>
    <nd ref="442865403"/>
    <nd ref="147126338"/>
    <nd ref="442865416"/>
    <nd ref="442865402"/>
    <nd ref="147126339"/>
    <nd ref="282240407"/>
    <nd ref="147126340"/>
    <nd ref="147126341"/>
    <nd ref="282240463"/>
    <nd ref="442865606"/>
    <nd ref="147126342"/>
    <nd ref="442865604"/>
    <nd ref="442865603"/>
    <nd ref="442865601"/>
    <nd ref="442865519"/>
    <nd ref="147126343"/>
    <nd ref="565560907"/>
    <nd ref="442866396"/>
    <nd ref="442866484"/>
    <nd ref="147126345"/>
    <nd ref="147126346"/>
    <nd ref="442112770"/>
    <nd ref="147126347"/>
    <nd ref="442866534"/>
    <nd ref="147126348"/>
    <nd ref="147126349"/>
    <nd ref="147126350"/>
    <nd ref="147126351"/>
    <nd ref="147126353"/>
    <nd ref="565553566"/>
    <nd ref="147126354"/>
    <nd ref="1190852888"/>
    <nd ref="1190852902"/>
    <nd ref="1190852891"/>
    <nd ref="1190852887"/>
    <nd ref="565553567"/>
    <nd ref="565553568"/>
    <nd ref="1190852884"/>
    <nd ref="1190852907"/>
    <nd ref="147126355"/>
    <nd ref="147126357"/>
    <nd ref="147126359"/>
    <nd ref="147126360"/>
    <nd ref="313310814"/>
    <nd ref="313310831"/>
    <nd ref="281464563"/>
    <tag k="alt_name:vi" v="Vương cung thánh đường Thánh Phê-rô"/>
    <tag k="amenity" v="place_of_worship"/>
    <tag k="building" v="yes"/>
    <tag k="building:type" v="church"/>
    <tag k="denomination" v="roman_catholic"/>
    <tag k="height" v="146 m"/>
    <tag k="importance" v="international"/>
    <tag k="name" v="San Pietro in Vaticano"/>
    <tag k="name:be" v="Сабор Святога Пятра"/>
    <tag k="name:de" v="Petersdom"/>
    <tag k="name:en" v="Papal Basilica of Saint Peter"/>
    <tag k="name:et" v="Rooma Peetri kirik"/>
    <tag k="name:it" v="San Pietro in Vaticano"/>
    <tag k="name:nl" v="Saint Peter"/>
    <tag k="name:pl" v="Bazylika Świętego Piotra"/>
    <tag k="name:sk" v="Bazilika svätého Petra"/>
    <tag k="name:sl" v="Bazilika Svetega Petra"/>
    <tag k="name:vi" v="Nhà thờ Thánh Phê-rô"/>
    <tag k="religion" v="christian"/>
    <tag k="wikipedia" v="St. Peter&apos;s Basilica"/>
  </way>
  <way id="25763262" version="70" timestamp="2011-05-09T14:24:35Z" uid="69102" user="Mathbau" changeset="8093246">
    <nd ref="281464563"/>
    <nd ref="281499186"/>
    <nd ref="313311381"/>
    <nd ref="313311379"/>
    <nd ref="147126321"/>
    <nd ref="147126322"/>
    <nd ref="656141267"/>
    <nd ref="147126323"/>
    <nd ref="147126324"/>
    <nd ref="1278196428"/>
    <nd ref="1278196427"/>
    <nd ref="1278196426"/>
    <nd ref="1278196425"/>
    <nd ref="147126325"/>
    <nd ref="147126327"/>
    <nd ref="442865853"/>
    <nd ref="442112734"/>
    <nd ref="147126329"/>
    <nd ref="147126330"/>
    <nd ref="282240613"/>
    <nd ref="147126331"/>
    <nd ref="147126332"/>
    <nd ref="442865858"/>
    <nd ref="147126333"/>
    <nd ref="147126334"/>
    <nd ref="442112713"/>
    <nd ref="442865275"/>
    <nd ref="442865276"/>
    <nd ref="442865167"/>
    <nd ref="147126337"/>
    <nd ref="442865473"/>
    <nd ref="442865422"/>
    <nd ref="442865403"/>
    <nd ref="147126338"/>
    <nd ref="442865416"/>
    <nd ref="442865402"/>
    <nd ref="147126339"/>
    <nd ref="282240407"/>
    <nd ref="147126340"/>
    <nd ref="147126341"/>
    <nd ref="282240463"/>
    <nd ref="442865606"/>
    <nd ref="147126342"/>
    <nd ref="442865604"/>
    <nd ref="442865603"/>
    <nd ref="442865601"/>
    <nd ref="442865519"/>
    <nd ref="147126343"/>
    <nd ref="565560907"/>
    <nd ref="442866396"/>
    <nd ref="442866484"/>
    <nd ref="147126345"/>
    <nd ref="147126346"/>
    <nd ref="442112770"/>
    <nd ref="147126347"/>
    <nd ref="442866534"/>
    <nd ref="147126348"/>
    <nd ref="147126349"/>
    <nd ref="147126350"/>
    <nd ref="147126351"/>
    <nd ref="147126353"/>
    <nd ref="565553566"/>
    <nd ref="147126354"/>
    <nd ref="1190852888"/>
    <nd ref="1190852902"/>
    <nd ref="1190852891"/>
    <nd ref="1190852887"/>
    <nd ref="565553567"/>
    <nd ref="565553568"/>
    <nd ref="1190852884"/>
    <nd ref="1190852907"/>
    <nd ref="147126355"/>
    <nd ref="147126357"/>
    <nd ref="147126359"/>
    <nd ref="147126360"/>
    <nd ref="313310814"/>
    <nd ref="313310831"/>
    <nd ref="281464563"/>
    <tag k="alt_name:vi" v="Vương cung thánh đường Thánh Phê-rô"/>
    <tag k="amenity" v="place_of_worship"/>
    <tag k="building" v="yes"/>
    <tag k="building:type" v="church"/>
    <tag k="denomination" v="roman_catholic"/>
    <tag k="height" v="146 m"/>
    <tag k="importance" v="international"/>
    <tag k="name" v="San Pietro in Vaticano"/>
    <tag k="name:be" v="Сабор Святога Пятра"/>
    <tag k="name:de" v="Petersdom"/>
    <tag k="name:en" v="Papal Basilica of Saint Peter"/>
    <tag k="name:et" v="Rooma Peetri kirik"/>
    <tag k="name:it" v="San Pietro in Vaticano"/>
    <tag k="name:nl" v="Saint Peter"/>
    <tag k="name:pl" v="Bazylika Świętego Piotra"/>
    <tag k="name:sk" v="Bazilika svätého Petra"/>
    <tag k="name:sl" v="Bazilika Svetega Petra"/>
    <tag k="name:vi" v="Nhà thờ Thánh Phê-rô"/>
    <tag k="religion" v="christian"/>
    <tag k="wikipedia" v="St. Peter&apos;s Basilica"/>
  </way>
  <way id="25763262" version="71" timestamp="2011-05-19T15:56:06Z" uid="69102" user="Mathbau" changeset="8190816">
    <nd ref="281464563"/>
    <nd ref="281499186"/>
    <nd ref="313311381"/>
    <nd ref="313311379"/>
    <nd ref="147126321"/>
    <nd ref="147126322"/>
    <nd ref="656141267"/>
    <nd ref="147126323"/>
    <nd ref="147126324"/>
    <nd ref="1278196428"/>
    <nd ref="1278196427"/>
    <nd ref="1278196426"/>
    <nd ref="1278196425"/>
    <nd ref="147126325"/>
    <nd ref="147126327"/>
    <nd ref="442865853"/>
    <nd ref="442112734"/>
    <nd ref="147126329"/>
    <nd ref="147126330"/>
    <nd ref="282240613"/>
    <nd ref="147126331"/>
    <nd ref="147126332"/>
    <nd ref="442865858"/>
    <nd ref="147126333"/>
    <nd ref="147126334"/>
    <nd ref="442112713"/>
    <nd ref="442865275"/>
    <nd ref="442865276"/>
    <nd ref="442865167"/>
    <nd ref="147126337"/>
    <nd ref="442865473"/>
    <nd ref="442865422"/>
    <nd ref="442865403"/>
    <nd ref="147126338"/>
    <nd ref="442865416"/>
    <nd ref="442865402"/>
    <nd ref="147126339"/>
    <nd ref="282240407"/>
    <nd ref="147126340"/>
    <nd ref="147126341"/>
    <nd ref="282240463"/>
    <nd ref="442865606"/>
    <nd ref="147126342"/>
    <nd ref="442865604"/>
    <nd ref="442865603"/>
    <nd ref="442865601"/>
    <nd ref="442865519"/>
    <nd ref="147126343"/>
    <nd ref="565560907"/>
    <nd ref="442866396"/>
    <nd ref="442866484"/>
    <nd ref="147126345"/>
    <nd ref="147126346"/>
    <nd ref="442112770"/>
    <nd ref="147126347"/>
    <nd ref="442866534"/>
    <nd ref="147126348"/>
    <nd ref="147126349"/>
    <nd ref="147126350"/>
    <nd ref="147126351"/>
    <nd ref="147126353"/>
    <nd ref="565553566"/>
    <nd ref="147126354"/>
    <nd ref="1190852888"/>
    <nd ref="1190852902"/>
    <nd ref="1190852891"/>
    <nd ref="1190852887"/>
    <nd ref="565553567"/>
    <nd ref="565553568"/>
    <nd ref="1190852884"/>
    <nd ref="1190852907"/>
    <nd ref="147126355"/>
    <nd ref="147126357"/>
    <nd ref="147126359"/>
    <nd ref="147126360"/>
    <nd ref="313310814"/>
    <nd ref="313310831"/>
    <nd ref="281464563"/>
    <tag k="alt_name:vi" v="Vương cung thánh đường Thánh Phê-rô"/>
    <tag k="amenity" v="place_of_worship"/>
    <tag k="building" v="yes"/>
    <tag k="building:type" v="church"/>
    <tag k="denomination" v="roman_catholic"/>
    <tag k="height" v="146 m"/>
    <tag k="importance" v="international"/>
    <tag k="is_in" v="Vatican City;Europe"/>
    <tag k="name" v="San Pietro in Vaticano"/>
    <tag k="name:be" v="Сабор Святога Пятра"/>
    <tag k="name:de" v="Petersdom"/>
    <tag k="name:en" v="Papal Basilica of Saint Peter"/>
    <tag k="name:et" v="Rooma Peetri kirik"/>
    <tag k="name:it" v="San Pietro in Vaticano"/>
    <tag k="name:nl" v="Saint Peter"/>
    <tag k="name:pl" v="Bazylika Świętego Piotra"/>
    <tag k="name:sk" v="Bazilika svätého Petra"/>
    <tag k="name:sl" v="Bazilika Svetega Petra"/>
    <tag k="name:vi" v="Nhà thờ Thánh Phê-rô"/>
    <tag k="religion" v="christian"/>
    <tag k="wikipedia" v="St. Peter&apos;s Basilica"/>
  </way>
  <way id="25763262" version="72" timestamp="2011-06-16T19:59:55Z" uid="336460" user="robgeb" changeset="8459567">
    <nd ref="281464563"/>
    <nd ref="281499186"/>
    <nd ref="313311381"/>
    <nd ref="313311379"/>
    <nd ref="147126321"/>
    <nd ref="147126322"/>
    <nd ref="656141267"/>
    <nd ref="147126323"/>
    <nd ref="147126324"/>
    <nd ref="1278196428"/>
    <nd ref="1278196427"/>
    <nd ref="1278196426"/>
    <nd ref="1278196425"/>
    <nd ref="147126325"/>
    <nd ref="147126327"/>
    <nd ref="442865853"/>
    <nd ref="442112734"/>
    <nd ref="1327871708"/>
    <nd ref="147126329"/>
    <nd ref="147126330"/>
    <nd ref="282240613"/>
    <nd ref="147126331"/>
    <nd ref="147126332"/>
    <nd ref="442865858"/>
    <nd ref="1327871619"/>
    <nd ref="147126333"/>
    <nd ref="147126334"/>
    <nd ref="442112713"/>
    <nd ref="442865275"/>
    <nd ref="442865276"/>
    <nd ref="442865167"/>
    <nd ref="147126337"/>
    <nd ref="442865473"/>
    <nd ref="442865422"/>
    <nd ref="442865403"/>
    <nd ref="147126338"/>
    <nd ref="442865416"/>
    <nd ref="442865402"/>
    <nd ref="147126339"/>
    <nd ref="282240407"/>
    <nd ref="147126340"/>
    <nd ref="1327871727"/>
    <nd ref="147126341"/>
    <nd ref="282240463"/>
    <nd ref="442865606"/>
    <nd ref="147126342"/>
    <nd ref="442865604"/>
    <nd ref="442865603"/>
    <nd ref="442865601"/>
    <nd ref="442865519"/>
    <nd ref="147126343"/>
    <nd ref="565560907"/>
    <nd ref="442866396"/>
    <nd ref="442866484"/>
    <nd ref="147126345"/>
    <nd ref="147126346"/>
    <nd ref="442112770"/>
    <nd ref="147126347"/>
    <nd ref="442866534"/>
    <nd ref="147126348"/>
    <nd ref="147126349"/>
    <nd ref="147126350"/>
    <nd ref="147126351"/>
    <nd ref="1327871742"/>
    <nd ref="147126353"/>
    <nd ref="565553566"/>
    <nd ref="147126354"/>
    <nd ref="1190852888"/>
    <nd ref="1190852902"/>
    <nd ref="1190852891"/>
    <nd ref="1190852887"/>
    <nd ref="565553567"/>
    <nd ref="565553568"/>
    <nd ref="1190852884"/>
    <nd ref="1190852907"/>
    <nd ref="147126355"/>
    <nd ref="147126357"/>
    <nd ref="147126359"/>
    <nd ref="147126360"/>
    <nd ref="313310814"/>
    <nd ref="313310831"/>
    <nd ref="281464563"/>
    <tag k="alt_name:vi" v="Vương cung thánh đường Thánh Phê-rô"/>
    <tag k="amenity" v="place_of_worship"/>
    <tag k="building" v="yes"/>
    <tag k="building:type" v="church"/>
    <tag k="denomination" v="roman_catholic"/>
    <tag k="height" v="50 m"/>
    <tag k="importance" v="international"/>
    <tag k="is_in" v="Vatican City;Europe"/>
    <tag k="name" v="San Pietro in Vaticano"/>
    <tag k="name:be" v="Сабор Святога Пятра"/>
    <tag k="name:de" v="Petersdom"/>
    <tag k="name:en" v="Papal Basilica of Saint Peter"/>
    <tag k="name:et" v="Rooma Peetri kirik"/>
    <tag k="name:it" v="San Pietro in Vaticano"/>
    <tag k="name:nl" v="Saint Peter"/>
    <tag k="name:pl" v="Bazylika Świętego Piotra"/>
    <tag k="name:sk" v="Bazilika svätého Petra"/>
    <tag k="name:sl" v="Bazilika Svetega Petra"/>
    <tag k="name:vi" v="Nhà thờ Thánh Phê-rô"/>
    <tag k="religion" v="christian"/>
    <tag k="wikipedia" v="en:St. Peter&apos;s Basilica"/>
  </way>
  <way id="25763262" version="73" timestamp="2011-08-08T13:50:21Z" uid="220932" user="mor" changeset="8957424">
    <nd ref="281464563"/>
    <nd ref="281499186"/>
    <nd ref="313311381"/>
    <nd ref="313311379"/>
    <nd ref="147126321"/>
    <nd ref="147126322"/>
    <nd ref="656141267"/>
    <nd ref="147126323"/>
    <nd ref="147126324"/>
    <nd ref="1278196428"/>
    <nd ref="1278196427"/>
    <nd ref="1278196426"/>
    <nd ref="1278196425"/>
    <nd ref="147126325"/>
    <nd ref="147126327"/>
    <nd ref="442865853"/>
    <nd ref="442112734"/>
    <nd ref="1327871708"/>
    <nd ref="147126329"/>
    <nd ref="147126330"/>
    <nd ref="282240613"/>
    <nd ref="147126331"/>
    <nd ref="147126332"/>
    <nd ref="442865858"/>
    <nd ref="1327871619"/>
    <nd ref="147126333"/>
    <nd ref="147126334"/>
    <nd ref="442112713"/>
    <nd ref="442865275"/>
    <nd ref="442865276"/>
    <nd ref="442865167"/>
    <nd ref="147126337"/>
    <nd ref="442865473"/>
    <nd ref="442865422"/>
    <nd ref="442865403"/>
    <nd ref="147126338"/>
    <nd ref="442865416"/>
    <nd ref="442865402"/>
    <nd ref="147126339"/>
    <nd ref="282240407"/>
    <nd ref="147126340"/>
    <nd ref="1327871727"/>
    <nd ref="147126341"/>
    <nd ref="282240463"/>
    <nd ref="442865606"/>
    <nd ref="147126342"/>
    <nd ref="442865604"/>
    <nd ref="442865603"/>
    <nd ref="442865601"/>
    <nd ref="442865519"/>
    <nd ref="147126343"/>
    <nd ref="565560907"/>
    <nd ref="442866396"/>
    <nd ref="442866484"/>
    <nd ref="147126345"/>
    <nd ref="147126346"/>
    <nd ref="442112770"/>
    <nd ref="147126347"/>
    <nd ref="442866534"/>
    <nd ref="147126348"/>
    <nd ref="147126349"/>
    <nd ref="147126350"/>
    <nd ref="147126351"/>
    <nd ref="1327871742"/>
    <nd ref="147126353"/>
    <nd ref="565553566"/>
    <nd ref="147126354"/>
    <nd ref="1190852888"/>
    <nd ref="1190852902"/>
    <nd ref="1190852891"/>
    <nd ref="1190852887"/>
    <nd ref="565553567"/>
    <nd ref="565553568"/>
    <nd ref="1190852884"/>
    <nd ref="1190852907"/>
    <nd ref="147126355"/>
    <nd ref="147126357"/>
    <nd ref="147126359"/>
    <nd ref="147126360"/>
    <nd ref="313310814"/>
    <nd ref="313310831"/>
    <nd ref="281464563"/>
    <tag k="alt_name:vi" v="Vương cung thánh đường Thánh Phê-rô"/>
    <tag k="amenity" v="place_of_worship"/>
    <tag k="building" v="yes"/>
    <tag k="building:type" v="church"/>
    <tag k="denomination" v="roman_catholic"/>
    <tag k="height" v="50 m"/>
    <tag k="importance" v="international"/>
    <tag k="is_in" v="Vatican City;Europe"/>
    <tag k="name" v="Basilica Papale di San Pietro in Vaticano"/>
    <tag k="name:be" v="Сабор Святога Пятра"/>
    <tag k="name:de" v="Petersdom"/>
    <tag k="name:en" v="Papal Basilica of Saint Peter"/>
    <tag k="name:es" v="Basílica de San Pedro"/>
    <tag k="name:et" v="Rooma Peetri kirik"/>
    <tag k="name:it" v="San Pietro in Vaticano"/>
    <tag k="name:nl" v="Saint Peter"/>
    <tag k="name:pl" v="Bazylika Świętego Piotra"/>
    <tag k="name:sk" v="Bazilika svätého Petra"/>
    <tag k="name:sl" v="Bazilika Svetega Petra"/>
    <tag k="name:vi" v="Nhà thờ Thánh Phê-rô"/>
    <tag k="religion" v="christian"/>
    <tag k="wikipedia" v="en:St. Peter&apos;s Basilica"/>
  </way>
  <way id="25763262" version="74" timestamp="2011-08-28T22:53:53Z" uid="69102" user="Mathbau" changeset="9152717">
    <nd ref="281464563"/>
    <nd ref="281499186"/>
    <nd ref="313311381"/>
    <nd ref="313311379"/>
    <nd ref="147126321"/>
    <nd ref="147126322"/>
    <nd ref="656141267"/>
    <nd ref="147126323"/>
    <nd ref="147126324"/>
    <nd ref="1278196428"/>
    <nd ref="1278196427"/>
    <nd ref="1278196426"/>
    <nd ref="1278196425"/>
    <nd ref="147126325"/>
    <nd ref="147126327"/>
    <nd ref="442865853"/>
    <nd ref="442112734"/>
    <nd ref="1327871708"/>
    <nd ref="147126329"/>
    <nd ref="147126330"/>
    <nd ref="282240613"/>
    <nd ref="147126331"/>
    <nd ref="147126332"/>
    <nd ref="442865858"/>
    <nd ref="1327871619"/>
    <nd ref="147126333"/>
    <nd ref="147126334"/>
    <nd ref="442112713"/>
    <nd ref="442865275"/>
    <nd ref="442865276"/>
    <nd ref="442865167"/>
    <nd ref="147126337"/>
    <nd ref="442865473"/>
    <nd ref="442865422"/>
    <nd ref="442865403"/>
    <nd ref="147126338"/>
    <nd ref="442865416"/>
    <nd ref="442865402"/>
    <nd ref="147126339"/>
    <nd ref="282240407"/>
    <nd ref="147126340"/>
    <nd ref="1327871727"/>
    <nd ref="147126341"/>
    <nd ref="282240463"/>
    <nd ref="442865606"/>
    <nd ref="147126342"/>
    <nd ref="442865604"/>
    <nd ref="442865603"/>
    <nd ref="442865601"/>
    <nd ref="442865519"/>
    <nd ref="147126343"/>
    <nd ref="565560907"/>
    <nd ref="442866396"/>
    <nd ref="442866484"/>
    <nd ref="147126345"/>
    <nd ref="147126346"/>
    <nd ref="442112770"/>
    <nd ref="147126347"/>
    <nd ref="442866534"/>
    <nd ref="147126348"/>
    <nd ref="147126349"/>
    <nd ref="147126350"/>
    <nd ref="147126351"/>
    <nd ref="1327871742"/>
    <nd ref="147126353"/>
    <nd ref="565553566"/>
    <nd ref="147126354"/>
    <nd ref="1190852888"/>
    <nd ref="1190852902"/>
    <nd ref="1190852891"/>
    <nd ref="1190852887"/>
    <nd ref="565553567"/>
    <nd ref="565553568"/>
    <nd ref="1416733017"/>
    <nd ref="1190852884"/>
    <nd ref="1190852907"/>
    <nd ref="147126355"/>
    <nd ref="147126357"/>
    <nd ref="147126359"/>
    <nd ref="147126360"/>
    <nd ref="313310814"/>
    <nd ref="313310831"/>
    <nd ref="281464563"/>
    <tag k="alt_name:vi" v="Vương cung thánh đường Thánh Phê-rô"/>
    <tag k="amenity" v="place_of_worship"/>
    <tag k="building" v="yes"/>
    <tag k="building:type" v="church"/>
    <tag k="denomination" v="roman_catholic"/>
    <tag k="height" v="50 m"/>
    <tag k="importance" v="international"/>
    <tag k="is_in" v="Vatican City;Europe"/>
    <tag k="name" v="Basilica Papale di San Pietro in Vaticano"/>
    <tag k="name:be" v="Сабор Святога Пятра"/>
    <tag k="name:de" v="Petersdom"/>
    <tag k="name:en" v="Papal Basilica of Saint Peter"/>
    <tag k="name:es" v="Basílica de San Pedro"/>
    <tag k="name:et" v="Rooma Peetri kirik"/>
    <tag k="name:it" v="San Pietro in Vaticano"/>
    <tag k="name:nl" v="Saint Peter"/>
    <tag k="name:pl" v="Bazylika Świętego Piotra"/>
    <tag k="name:sk" v="Bazilika svätého Petra"/>
    <tag k="name:sl" v="Bazilika Svetega Petra"/>
    <tag k="name:vi" v="Nhà thờ Thánh Phê-rô"/>
    <tag k="religion" v="christian"/>
    <tag k="wikipedia" v="en:St. Peter&apos;s Basilica"/>
  </way>
  <way id="25763262" version="75" timestamp="2011-09-21T10:21:36Z" uid="338611" user="marek kleciak" changeset="9359107">
    <nd ref="281464563"/>
    <nd ref="281499186"/>
    <nd ref="313311381"/>
    <nd ref="313311379"/>
    <nd ref="147126321"/>
    <nd ref="147126322"/>
    <nd ref="656141267"/>
    <nd ref="147126323"/>
    <nd ref="147126324"/>
    <nd ref="1278196428"/>
    <nd ref="1278196427"/>
    <nd ref="1278196426"/>
    <nd ref="1278196425"/>
    <nd ref="147126325"/>
    <nd ref="147126327"/>
    <nd ref="442865853"/>
    <nd ref="442112734"/>
    <nd ref="1327871708"/>
    <nd ref="147126329"/>
    <nd ref="1439167854"/>
    <nd ref="147126330"/>
    <nd ref="1439167656"/>
    <nd ref="282240613"/>
    <nd ref="1439167827"/>
    <nd ref="147126331"/>
    <nd ref="1439167828"/>
    <nd ref="147126332"/>
    <nd ref="442865858"/>
    <nd ref="1327871619"/>
    <nd ref="147126333"/>
    <nd ref="147126334"/>
    <nd ref="442112713"/>
    <nd ref="442865275"/>
    <nd ref="442865276"/>
    <nd ref="442865167"/>
    <nd ref="147126337"/>
    <nd ref="442865473"/>
    <nd ref="442865422"/>
    <nd ref="442865403"/>
    <nd ref="147126338"/>
    <nd ref="442865416"/>
    <nd ref="442865402"/>
    <nd ref="147126339"/>
    <nd ref="282240407"/>
    <nd ref="147126340"/>
    <nd ref="1327871727"/>
    <nd ref="147126341"/>
    <nd ref="282240463"/>
    <nd ref="442865606"/>
    <nd ref="147126342"/>
    <nd ref="442865604"/>
    <nd ref="442865603"/>
    <nd ref="442865601"/>
    <nd ref="442865519"/>
    <nd ref="147126343"/>
    <nd ref="565560907"/>
    <nd ref="442866396"/>
    <nd ref="442866484"/>
    <nd ref="147126345"/>
    <nd ref="147126346"/>
    <nd ref="442112770"/>
    <nd ref="147126347"/>
    <nd ref="442866534"/>
    <nd ref="147126348"/>
    <nd ref="147126349"/>
    <nd ref="147126350"/>
    <nd ref="147126351"/>
    <nd ref="1327871742"/>
    <nd ref="147126353"/>
    <nd ref="565553566"/>
    <nd ref="147126354"/>
    <nd ref="1190852888"/>
    <nd ref="1190852902"/>
    <nd ref="1190852891"/>
    <nd ref="1190852887"/>
    <nd ref="565553567"/>
    <nd ref="565553568"/>
    <nd ref="1416733017"/>
    <nd ref="1190852884"/>
    <nd ref="1190852907"/>
    <nd ref="147126355"/>
    <nd ref="147126357"/>
    <nd ref="147126359"/>
    <nd ref="147126360"/>
    <nd ref="313310814"/>
    <nd ref="313310831"/>
    <nd ref="281464563"/>
    <tag k="alt_name:vi" v="Vương cung thánh đường Thánh Phê-rô"/>
    <tag k="amenity" v="place_of_worship"/>
    <tag k="building" v="yes"/>
    <tag k="building:type" v="church"/>
    <tag k="denomination" v="roman_catholic"/>
    <tag k="height" v="50 m"/>
    <tag k="importance" v="international"/>
    <tag k="is_in" v="Vatican City;Europe"/>
    <tag k="name" v="Basilica Papale di San Pietro in Vaticano"/>
    <tag k="name:be" v="Сабор Святога Пятра"/>
    <tag k="name:de" v="Petersdom"/>
    <tag k="name:en" v="Papal Basilica of Saint Peter"/>
    <tag k="name:es" v="Basílica de San Pedro"/>
    <tag k="name:et" v="Rooma Peetri kirik"/>
    <tag k="name:it" v="San Pietro in Vaticano"/>
    <tag k="name:nl" v="Saint Peter"/>
    <tag k="name:pl" v="Bazylika Świętego Piotra"/>
    <tag k="name:sk" v="Bazilika svätého Petra"/>
    <tag k="name:sl" v="Bazilika Svetega Petra"/>
    <tag k="name:vi" v="Nhà thờ Thánh Phê-rô"/>
    <tag k="religion" v="christian"/>
    <tag k="wikipedia" v="en:St. Peter&apos;s Basilica"/>
  </way>
  <way id="25763262" version="76" timestamp="2011-11-03T12:56:00Z" uid="40023" user="ALE!" changeset="9730200">
    <nd ref="281464563"/>
    <nd ref="1490313730"/>
    <nd ref="281499186"/>
    <nd ref="313311381"/>
    <nd ref="313311379"/>
    <nd ref="147126321"/>
    <nd ref="147126322"/>
    <nd ref="656141267"/>
    <nd ref="147126323"/>
    <nd ref="147126324"/>
    <nd ref="1278196428"/>
    <nd ref="1278196427"/>
    <nd ref="1278196426"/>
    <nd ref="1278196425"/>
    <nd ref="147126325"/>
    <nd ref="147126327"/>
    <nd ref="442865853"/>
    <nd ref="442112734"/>
    <nd ref="1327871708"/>
    <nd ref="147126329"/>
    <nd ref="1439167854"/>
    <nd ref="147126330"/>
    <nd ref="1439167656"/>
    <nd ref="282240613"/>
    <nd ref="1439167827"/>
    <nd ref="147126331"/>
    <nd ref="1439167828"/>
    <nd ref="147126332"/>
    <nd ref="442865858"/>
    <nd ref="1327871619"/>
    <nd ref="147126333"/>
    <nd ref="147126334"/>
    <nd ref="442112713"/>
    <nd ref="442865275"/>
    <nd ref="442865276"/>
    <nd ref="442865167"/>
    <nd ref="147126337"/>
    <nd ref="442865473"/>
    <nd ref="442865422"/>
    <nd ref="442865403"/>
    <nd ref="147126338"/>
    <nd ref="442865416"/>
    <nd ref="442865402"/>
    <nd ref="147126339"/>
    <nd ref="282240407"/>
    <nd ref="147126340"/>
    <nd ref="1327871727"/>
    <nd ref="147126341"/>
    <nd ref="282240463"/>
    <nd ref="442865606"/>
    <nd ref="147126342"/>
    <nd ref="442865604"/>
    <nd ref="442865603"/>
    <nd ref="442865601"/>
    <nd ref="442865519"/>
    <nd ref="147126343"/>
    <nd ref="565560907"/>
    <nd ref="442866396"/>
    <nd ref="442866484"/>
    <nd ref="147126345"/>
    <nd ref="147126346"/>
    <nd ref="442112770"/>
    <nd ref="147126347"/>
    <nd ref="442866534"/>
    <nd ref="147126348"/>
    <nd ref="147126349"/>
    <nd ref="147126350"/>
    <nd ref="147126351"/>
    <nd ref="1327871742"/>
    <nd ref="147126353"/>
    <nd ref="565553566"/>
    <nd ref="147126354"/>
    <nd ref="1190852888"/>
    <nd ref="1190852902"/>
    <nd ref="1190852891"/>
    <nd ref="1190852887"/>
    <nd ref="565553567"/>
    <nd ref="565553568"/>
    <nd ref="1416733017"/>
    <nd ref="1190852884"/>
    <nd ref="1190852907"/>
    <nd ref="147126355"/>
    <nd ref="147126357"/>
    <nd ref="147126359"/>
    <nd ref="147126360"/>
    <nd ref="313310814"/>
    <nd ref="313310831"/>
    <nd ref="281464563"/>
    <tag k="alt_name:vi" v="Vương cung thánh đường Thánh Phê-rô"/>
    <tag k="amenity" v="place_of_worship"/>
    <tag k="building" v="yes"/>
    <tag k="building:type" v="church"/>
    <tag k="denomination" v="roman_catholic"/>
    <tag k="height" v="50 m"/>
    <tag k="importance" v="international"/>
    <tag k="is_in" v="Vatican City;Europe"/>
    <tag k="name" v="Basilica Papale di San Pietro in Vaticano"/>
    <tag k="name:be" v="Сабор Святога Пятра"/>
    <tag k="name:de" v="Petersdom"/>
    <tag k="name:en" v="Papal Basilica of Saint Peter"/>
    <tag k="name:es" v="Basílica de San Pedro"/>
    <tag k="name:et" v="Rooma Peetri kirik"/>
    <tag k="name:it" v="San Pietro in Vaticano"/>
    <tag k="name:nl" v="Saint Peter"/>
    <tag k="name:pl" v="Bazylika Świętego Piotra"/>
    <tag k="name:sk" v="Bazilika svätého Petra"/>
    <tag k="name:sl" v="Bazilika Svetega Petra"/>
    <tag k="name:vi" v="Nhà thờ Thánh Phê-rô"/>
    <tag k="religion" v="christian"/>
    <tag k="wikipedia" v="en:St. Peter&apos;s Basilica"/>
  </way>
  <way id="25763262" version="77" timestamp="2011-12-15T18:29:15Z" uid="67141" user="ligfietser" changeset="10126009">
    <nd ref="281464563"/>
    <nd ref="1490313730"/>
    <nd ref="281499186"/>
    <nd ref="313311381"/>
    <nd ref="313311379"/>
    <nd ref="147126321"/>
    <nd ref="147126322"/>
    <nd ref="656141267"/>
    <nd ref="147126323"/>
    <nd ref="147126324"/>
    <nd ref="1278196428"/>
    <nd ref="1278196427"/>
    <nd ref="1278196426"/>
    <nd ref="1278196425"/>
    <nd ref="147126325"/>
    <nd ref="147126327"/>
    <nd ref="442865853"/>
    <nd ref="442112734"/>
    <nd ref="1327871708"/>
    <nd ref="147126329"/>
    <nd ref="1439167854"/>
    <nd ref="147126330"/>
    <nd ref="1439167656"/>
    <nd ref="282240613"/>
    <nd ref="1439167827"/>
    <nd ref="147126331"/>
    <nd ref="1439167828"/>
    <nd ref="147126332"/>
    <nd ref="442865858"/>
    <nd ref="1327871619"/>
    <nd ref="147126333"/>
    <nd ref="147126334"/>
    <nd ref="442112713"/>
    <nd ref="442865275"/>
    <nd ref="442865276"/>
    <nd ref="442865167"/>
    <nd ref="147126337"/>
    <nd ref="442865473"/>
    <nd ref="442865422"/>
    <nd ref="442865403"/>
    <nd ref="147126338"/>
    <nd ref="442865416"/>
    <nd ref="442865402"/>
    <nd ref="147126339"/>
    <nd ref="282240407"/>
    <nd ref="147126340"/>
    <nd ref="1327871727"/>
    <nd ref="147126341"/>
    <nd ref="282240463"/>
    <nd ref="442865606"/>
    <nd ref="147126342"/>
    <nd ref="442865604"/>
    <nd ref="442865603"/>
    <nd ref="442865601"/>
    <nd ref="442865519"/>
    <nd ref="147126343"/>
    <nd ref="565560907"/>
    <nd ref="442866396"/>
    <nd ref="442866484"/>
    <nd ref="147126345"/>
    <nd ref="147126346"/>
    <nd ref="442112770"/>
    <nd ref="147126347"/>
    <nd ref="442866534"/>
    <nd ref="147126348"/>
    <nd ref="147126349"/>
    <nd ref="147126350"/>
    <nd ref="147126351"/>
    <nd ref="1327871742"/>
    <nd ref="147126353"/>
    <nd ref="565553566"/>
    <nd ref="147126354"/>
    <nd ref="1190852888"/>
    <nd ref="1190852902"/>
    <nd ref="1190852891"/>
    <nd ref="1190852887"/>
    <nd ref="565553567"/>
    <nd ref="565553568"/>
    <nd ref="1416733017"/>
    <nd ref="1190852884"/>
    <nd ref="1190852907"/>
    <nd ref="147126355"/>
    <nd ref="147126357"/>
    <nd ref="147126359"/>
    <nd ref="147126360"/>
    <nd ref="313310814"/>
    <nd ref="313310831"/>
    <nd ref="281464563"/>
    <tag k="alt_name:vi" v="Vương cung thánh đường Thánh Phê-rô"/>
    <tag k="amenity" v="place_of_worship"/>
    <tag k="building" v="yes"/>
    <tag k="building:type" v="church"/>
    <tag k="denomination" v="roman_catholic"/>
    <tag k="height" v="50 m"/>
    <tag k="importance" v="international"/>
    <tag k="is_in" v="Vatican City;Europe"/>
    <tag k="name" v="Basilica Papale di San Pietro in Vaticano"/>
    <tag k="name:be" v="Сабор Святога Пятра"/>
    <tag k="name:de" v="Petersdom"/>
    <tag k="name:en" v="Papal Basilica of Saint Peter"/>
    <tag k="name:es" v="Basílica de San Pedro"/>
    <tag k="name:et" v="Rooma Peetri kirik"/>
    <tag k="name:it" v="San Pietro in Vaticano"/>
    <tag k="name:nl" v="Sint-Pietersbasiliek"/>
    <tag k="name:pl" v="Bazylika Świętego Piotra"/>
    <tag k="name:sk" v="Bazilika svätého Petra"/>
    <tag k="name:sl" v="Bazilika Svetega Petra"/>
    <tag k="name:vi" v="Nhà thờ Thánh Phê-rô"/>
    <tag k="religion" v="christian"/>
    <tag k="wikipedia" v="en:St. Peter&apos;s Basilica"/>
  </way>
  <way id="25763262" version="78" timestamp="2012-02-07T21:22:08Z" uid="39040" user="Dinamik" changeset="10616955">
    <nd ref="281464563"/>
    <nd ref="1490313730"/>
    <nd ref="281499186"/>
    <nd ref="313311381"/>
    <nd ref="313311379"/>
    <nd ref="147126321"/>
    <nd ref="147126322"/>
    <nd ref="656141267"/>
    <nd ref="147126323"/>
    <nd ref="147126324"/>
    <nd ref="1278196428"/>
    <nd ref="1278196427"/>
    <nd ref="1278196426"/>
    <nd ref="1278196425"/>
    <nd ref="147126325"/>
    <nd ref="147126327"/>
    <nd ref="442865853"/>
    <nd ref="442112734"/>
    <nd ref="1327871708"/>
    <nd ref="147126329"/>
    <nd ref="1439167854"/>
    <nd ref="147126330"/>
    <nd ref="1439167656"/>
    <nd ref="282240613"/>
    <nd ref="1439167827"/>
    <nd ref="147126331"/>
    <nd ref="1439167828"/>
    <nd ref="147126332"/>
    <nd ref="442865858"/>
    <nd ref="1327871619"/>
    <nd ref="147126333"/>
    <nd ref="147126334"/>
    <nd ref="442112713"/>
    <nd ref="442865275"/>
    <nd ref="442865276"/>
    <nd ref="442865167"/>
    <nd ref="147126337"/>
    <nd ref="442865473"/>
    <nd ref="442865422"/>
    <nd ref="442865403"/>
    <nd ref="147126338"/>
    <nd ref="442865416"/>
    <nd ref="442865402"/>
    <nd ref="147126339"/>
    <nd ref="282240407"/>
    <nd ref="147126340"/>
    <nd ref="1327871727"/>
    <nd ref="147126341"/>
    <nd ref="282240463"/>
    <nd ref="442865606"/>
    <nd ref="147126342"/>
    <nd ref="442865604"/>
    <nd ref="442865603"/>
    <nd ref="442865601"/>
    <nd ref="442865519"/>
    <nd ref="147126343"/>
    <nd ref="565560907"/>
    <nd ref="442866396"/>
    <nd ref="442866484"/>
    <nd ref="147126345"/>
    <nd ref="147126346"/>
    <nd ref="442112770"/>
    <nd ref="147126347"/>
    <nd ref="442866534"/>
    <nd ref="147126348"/>
    <nd ref="147126349"/>
    <nd ref="147126350"/>
    <nd ref="147126351"/>
    <nd ref="1327871742"/>
    <nd ref="147126353"/>
    <nd ref="565553566"/>
    <nd ref="147126354"/>
    <nd ref="1190852888"/>
    <nd ref="1190852902"/>
    <nd ref="1190852891"/>
    <nd ref="1190852887"/>
    <nd ref="565553567"/>
    <nd ref="565553568"/>
    <nd ref="1416733017"/>
    <nd ref="1190852884"/>
    <nd ref="1190852907"/>
    <nd ref="147126355"/>
    <nd ref="147126357"/>
    <nd ref="147126359"/>
    <nd ref="147126360"/>
    <nd ref="313310814"/>
    <nd ref="313310831"/>
    <nd ref="281464563"/>
  </way>
  <way id="25763262" version="79" timestamp="2012-02-07T21:32:17Z" uid="39040" user="Dinamik" changeset="10617097">
    <nd ref="442865606"/>
    <nd ref="147126342"/>
    <nd ref="442865604"/>
    <nd ref="442865603"/>
    <nd ref="442865601"/>
    <nd ref="442865519"/>
    <nd ref="147126343"/>
    <nd ref="565560907"/>
    <nd ref="442866396"/>
    <nd ref="442866484"/>
    <nd ref="147126345"/>
    <nd ref="147126346"/>
    <nd ref="442112770"/>
    <nd ref="147126347"/>
    <nd ref="442866534"/>
    <nd ref="147126348"/>
    <nd ref="147126349"/>
    <nd ref="147126350"/>
    <nd ref="147126351"/>
    <nd ref="1327871742"/>
    <nd ref="147126353"/>
    <nd ref="565553566"/>
    <nd ref="147126354"/>
    <nd ref="1190852888"/>
    <nd ref="1190852902"/>
    <nd ref="1190852891"/>
    <nd ref="1190852887"/>
    <nd ref="565553567"/>
    <nd ref="565553568"/>
    <nd ref="1416733017"/>
    <nd ref="1190852884"/>
    <nd ref="1190852907"/>
    <nd ref="147126355"/>
    <nd ref="147126357"/>
    <nd ref="147126359"/>
    <nd ref="147126360"/>
    <nd ref="313310814"/>
    <nd ref="313310831"/>
    <nd ref="281464563"/>
    <nd ref="1490313730"/>
    <nd ref="281499186"/>
    <nd ref="313311381"/>
    <nd ref="313311379"/>
    <nd ref="147126321"/>
    <nd ref="147126322"/>
    <nd ref="656141267"/>
    <nd ref="147126323"/>
    <nd ref="147126324"/>
    <nd ref="1278196428"/>
    <nd ref="1278196427"/>
    <nd ref="1278196426"/>
    <nd ref="1278196425"/>
    <nd ref="147126325"/>
    <nd ref="147126327"/>
    <nd ref="442865853"/>
    <nd ref="442112734"/>
    <nd ref="1327871708"/>
    <nd ref="147126329"/>
    <nd ref="1439167854"/>
    <nd ref="147126330"/>
    <nd ref="1439167656"/>
    <nd ref="282240613"/>
    <nd ref="1439167827"/>
    <nd ref="147126331"/>
    <nd ref="1439167828"/>
    <nd ref="147126332"/>
    <nd ref="442865858"/>
    <nd ref="1327871619"/>
    <nd ref="147126333"/>
    <nd ref="147126334"/>
    <nd ref="442112713"/>
    <nd ref="442865275"/>
    <nd ref="442865276"/>
    <nd ref="442865167"/>
    <nd ref="147126337"/>
    <nd ref="442865473"/>
    <nd ref="442865422"/>
    <nd ref="442865403"/>
    <nd ref="147126338"/>
    <nd ref="442865416"/>
    <nd ref="442865402"/>
  </way>
  <way id="25763262" version="80" timestamp="2012-02-07T21:40:13Z" uid="39040" user="Dinamik" changeset="10617200">
    <nd ref="442865606"/>
    <nd ref="147126342"/>
    <nd ref="442865604"/>
    <nd ref="442865603"/>
    <nd ref="442865601"/>
    <nd ref="442865519"/>
    <nd ref="147126343"/>
    <nd ref="565560907"/>
  </way>
  <way id="25763262" version="81" timestamp="2012-02-07T21:40:59Z" uid="39040" user="Dinamik" changeset="10617213">
    <nd ref="442865606"/>
    <nd ref="147126342"/>
    <nd ref="442865604"/>
    <nd ref="442865603"/>
    <nd ref="442865601"/>
    <nd ref="442865519"/>
    <nd ref="147126343"/>
  </way>
  <way id="25763287" version="5" timestamp="2009-12-30T16:11:37Z" uid="157412" user="Leopold" changeset="3491161">
    <nd ref="280975772"/>
    <nd ref="280979186"/>
    <nd ref="280979187"/>
    <nd ref="520762830"/>
    <nd ref="280979188"/>
    <nd ref="280979189"/>
    <nd ref="280979190"/>
    <nd ref="280979191"/>
    <nd ref="280979193"/>
    <nd ref="280979194"/>
    <nd ref="505565871"/>
    <nd ref="280979196"/>
    <nd ref="280979197"/>
    <nd ref="280979198"/>
    <nd ref="280979199"/>
    <nd ref="280979201"/>
    <tag k="bicycle" v="yes"/>
    <tag k="highway" v="cycleway"/>
    <tag k="tracktype" v="grade1"/>
  </way>
  <way id="25763287" version="6" timestamp="2010-02-07T08:22:54Z" uid="228913" user="jerry-55" changeset="3811545">
    <nd ref="280975772"/>
    <nd ref="280979186"/>
    <nd ref="280979187"/>
    <nd ref="520762830"/>
    <tag k="bicycle" v="yes"/>
    <tag k="highway" v="cycleway"/>
    <tag k="tracktype" v="grade1"/>
  </way>
  <way id="25763287" version="7" timestamp="2010-02-07T20:34:35Z" uid="228913" user="jerry-55" changeset="3818211">
    <nd ref="280975772"/>
    <nd ref="280979186"/>
    <nd ref="280979187"/>
    <nd ref="520762830"/>
    <tag k="bicycle" v="yes"/>
    <tag k="highway" v="track"/>
    <tag k="tracktype" v="grade1"/>
  </way>
  <way id="25763287" version="8" timestamp="2010-02-14T21:12:21Z" uid="228913" user="jerry-55" changeset="3878581">
    <nd ref="280975772"/>
    <nd ref="639268444"/>
    <nd ref="639268443"/>
    <nd ref="639268441"/>
    <nd ref="520762830"/>
    <tag k="bicycle" v="yes"/>
    <tag k="highway" v="track"/>
    <tag k="tracktype" v="grade1"/>
  </way>
  <way id="25763287" version="9" timestamp="2010-04-18T19:43:11Z" uid="228913" user="jerry-55" changeset="4462070">
    <nd ref="280975772"/>
    <nd ref="639268444"/>
    <nd ref="639268443"/>
    <nd ref="701415826"/>
    <nd ref="639268441"/>
    <nd ref="520762830"/>
    <tag k="bicycle" v="yes"/>
    <tag k="highway" v="track"/>
    <tag k="tracktype" v="grade1"/>
  </way>
  <way id="25763287" version="10" timestamp="2010-07-23T20:20:30Z" uid="228913" user="jerry-55" changeset="5298590">
    <nd ref="280975772"/>
    <nd ref="639268444"/>
    <nd ref="639268443"/>
    <nd ref="701415826"/>
    <nd ref="639268441"/>
    <nd ref="520762830"/>
    <tag k="bicycle" v="yes"/>
    <tag k="highway" v="track"/>
    <tag k="ref" v="50"/>
    <tag k="tracktype" v="grade1"/>
  </way>
  <way id="25763287" version="11" timestamp="2011-02-06T16:09:53Z" uid="228913" user="jerry-55" changeset="7205483">
    <nd ref="280975772"/>
    <nd ref="639268444"/>
    <nd ref="639268443"/>
    <nd ref="1139340042"/>
    <nd ref="639268441"/>
    <nd ref="520762830"/>
    <tag k="bicycle" v="yes"/>
    <tag k="highway" v="track"/>
    <tag k="ref" v="50"/>
    <tag k="tracktype" v="grade1"/>
  </way>
  <way id="25763288" version="3" timestamp="2009-09-22T18:05:27Z" uid="157412" user="Leopold" changeset="2574367">
    <nd ref="280979201"/>
    <nd ref="505565989"/>
    <nd ref="280979202"/>
    <tag k="highway" v="track"/>
    <tag k="layer" v="-1"/>
    <tag k="tracktype" v="grade1"/>
    <tag k="tunnel" v="yes"/>
  </way>
  <way id="25763288" version="4" timestamp="2009-10-04T21:57:03Z" uid="81477" user="Dueppi" changeset="2743803">
    <nd ref="280979201"/>
    <nd ref="505565989"/>
    <nd ref="505565940"/>
    <tag k="highway" v="track"/>
    <tag k="layer" v="-1"/>
    <tag k="tracktype" v="grade1"/>
    <tag k="tunnel" v="yes"/>
  </way>
  <way id="25763288" version="5" timestamp="2010-02-26T20:55:42Z" uid="228913" user="jerry-55" changeset="3983651">
    <nd ref="505566047"/>
    <nd ref="505566043"/>
    <nd ref="505566038"/>
    <nd ref="505566035"/>
    <nd ref="505565960"/>
    <nd ref="280979201"/>
    <nd ref="505565989"/>
    <tag k="highway" v="residential"/>
    <tag k="maxspeed" v="30"/>
    <tag k="name" v="Weißer Weg"/>
    <tag k="surface" v="asphalt"/>
  </way>
  <way id="25763288" version="6" timestamp="2010-03-06T17:12:18Z" uid="228913" user="jerry-55" changeset="4052548">
    <nd ref="505566047"/>
    <nd ref="505566043"/>
    <nd ref="505566069"/>
    <nd ref="505566038"/>
    <nd ref="505566035"/>
    <nd ref="505565960"/>
    <nd ref="280979201"/>
    <nd ref="505565989"/>
    <tag k="highway" v="residential"/>
    <tag k="maxspeed" v="30"/>
    <tag k="name" v="Weißer Weg"/>
    <tag k="surface" v="asphalt"/>
  </way>
  <way id="25763288" version="7" timestamp="2010-03-06T17:22:29Z" uid="228913" user="jerry-55" changeset="4052638">
    <nd ref="505566047"/>
    <nd ref="505566069"/>
    <nd ref="505566035"/>
    <nd ref="280979201"/>
    <nd ref="505565989"/>
    <tag k="highway" v="residential"/>
    <tag k="maxspeed" v="30"/>
    <tag k="name" v="Weißer Weg"/>
    <tag k="surface" v="asphalt"/>
  </way>
  <way id="25763288" version="8" timestamp="2010-07-23T20:20:29Z" uid="228913" user="jerry-55" changeset="5298590">
    <nd ref="505566047"/>
    <nd ref="505566069"/>
    <nd ref="505566035"/>
    <nd ref="280979201"/>
    <tag k="highway" v="residential"/>
    <tag k="maxspeed" v="30"/>
    <tag k="name" v="Weißer Weg"/>
    <tag k="surface" v="asphalt"/>
  </way>
  <way id="25763375" version="3" timestamp="2008-08-14T22:57:23Z" uid="6975" user="ulfl" changeset="264731">
    <nd ref="280980190"/>
    <nd ref="280980104"/>
    <nd ref="280980095"/>
    <nd ref="280980106"/>
    <tag k="access" v="destination"/>
    <tag k="highway" v="residential"/>
  </way>
  <way id="25763375" version="4" timestamp="2009-12-08T11:02:35Z" uid="114946" user="borrmann" changeset="3323891">
    <nd ref="280980190"/>
    <nd ref="280980104"/>
    <nd ref="280980095"/>
    <tag k="access" v="destination"/>
    <tag k="highway" v="residential"/>
  </way>
  <way id="25763375" version="5" timestamp="2010-01-20T10:04:49Z" uid="114946" user="borrmann" changeset="3665274">
    <nd ref="280980190"/>
    <nd ref="280980104"/>
    <nd ref="268889080"/>
    <tag k="access" v="destination"/>
    <tag k="highway" v="residential"/>
  </way>
  <way id="25763375" version="6" timestamp="2010-04-11T22:30:18Z" uid="97514" user="mirweb" changeset="4399956">
    <nd ref="280980190"/>
    <nd ref="280980104"/>
    <nd ref="268889080"/>
    <tag k="access" v="destination"/>
    <tag k="highway" v="residential"/>
    <tag k="name" v="Hinter der Stockmühle"/>
  </way>
  <way id="25763375" version="7" timestamp="2011-04-10T20:18:04Z" uid="433279" user="AndreMAP" changeset="7827154">
    <nd ref="280980190"/>
    <nd ref="1240298329"/>
    <nd ref="1240298374"/>
    <nd ref="1240298282"/>
    <nd ref="1240298249"/>
    <nd ref="280980104"/>
    <nd ref="268889080"/>
    <tag k="access" v="destination"/>
    <tag k="highway" v="residential"/>
    <tag k="name" v="Hinter der Stockmühle"/>
  </way>
  <way id="25763691" version="3" timestamp="2009-08-04T01:55:59Z" uid="4467" user="Rosscoe" changeset="2031354">
    <nd ref="280981352"/>
    <nd ref="280981353"/>
    <nd ref="280981354"/>
    <nd ref="280981355"/>
    <nd ref="280981356"/>
    <nd ref="280981357"/>
    <nd ref="280981358"/>
    <nd ref="280981359"/>
    <nd ref="280981360"/>
    <nd ref="280981364"/>
    <nd ref="280981365"/>
    <nd ref="280981366"/>
    <nd ref="280981367"/>
    <nd ref="280981368"/>
    <nd ref="280981369"/>
    <nd ref="280981371"/>
    <nd ref="280981372"/>
    <nd ref="280981374"/>
    <nd ref="280981375"/>
    <nd ref="280981376"/>
    <nd ref="280981377"/>
    <nd ref="280981379"/>
    <nd ref="280981380"/>
    <nd ref="280981381"/>
    <nd ref="280981382"/>
    <nd ref="280981383"/>
    <nd ref="280981384"/>
    <nd ref="280981385"/>
    <nd ref="280981386"/>
    <nd ref="280981387"/>
    <nd ref="280981388"/>
    <nd ref="280981389"/>
    <nd ref="280981390"/>
    <nd ref="280981391"/>
    <nd ref="280981394"/>
    <nd ref="280981395"/>
    <nd ref="280981396"/>
    <nd ref="280981397"/>
    <nd ref="280981398"/>
    <nd ref="280981399"/>
    <nd ref="280981400"/>
    <nd ref="280981403"/>
    <nd ref="280981404"/>
    <nd ref="280981405"/>
    <nd ref="280981406"/>
    <nd ref="280981407"/>
    <nd ref="280981408"/>
    <nd ref="280981409"/>
    <nd ref="280981410"/>
    <nd ref="280981411"/>
    <nd ref="280981412"/>
    <nd ref="280981413"/>
    <nd ref="280981416"/>
    <nd ref="280981417"/>
    <tag k="highway" v="unclassified"/>
    <tag k="name" v="Morangup Road"/>
    <tag k="surface" v="unpaved"/>
  </way>
  <way id="25763789" version="1" timestamp="2008-07-25T12:39:07Z" uid="7617" user="Franc" changeset="591239">
    <nd ref="17392839"/>
    <nd ref="17392840"/>
    <nd ref="38856001"/>
    <nd ref="17392841"/>
    <nd ref="17392842"/>
    <tag k="abutters" v="mixed"/>
    <tag k="created_by" v="Potlatch 0.9c"/>
    <tag k="highway" v="trunk"/>
    <tag k="name" v="Pacific Highway"/>
    <tag k="ref" v="MR1;S29"/>
    <tag k="source" v="survey"/>
  </way>
  <way id="25763789" version="2" timestamp="2009-12-18T07:29:04Z" uid="30201" user="rrankin" changeset="3398669">
    <nd ref="17392839"/>
    <nd ref="17392840"/>
    <nd ref="38856001"/>
    <nd ref="17392841"/>
    <nd ref="17392842"/>
    <tag k="highway" v="trunk"/>
    <tag k="name" v="Pacific Highway"/>
    <tag k="ref" v="MR1;S29"/>
    <tag k="source" v="survey"/>
  </way>
  <way id="25763789" version="3" timestamp="2010-03-14T08:52:43Z" uid="7617" user="Franc" changeset="4121833">
    <nd ref="17392842"/>
    <nd ref="17392841"/>
    <nd ref="38856001"/>
    <nd ref="17392840"/>
    <nd ref="665740472"/>
    <nd ref="17392839"/>
    <tag k="highway" v="trunk"/>
    <tag k="name" v="Pacific Highway"/>
    <tag k="ref" v="MR1;S29"/>
    <tag k="source" v="survey"/>
  </way>
  <way id="25763789" version="4" timestamp="2010-03-14T11:12:21Z" uid="7617" user="Franc" changeset="4122982">
    <nd ref="17392842"/>
    <nd ref="17392841"/>
    <nd ref="38856001"/>
    <nd ref="17392840"/>
    <nd ref="665740472"/>
    <nd ref="17392839"/>
    <tag k="highway" v="trunk"/>
    <tag k="name" v="Pacific Highway"/>
    <tag k="oneway" v="yes"/>
    <tag k="ref" v="MR1;S29"/>
    <tag k="source" v="survey"/>
  </way>
  <way id="25763789" version="5" timestamp="2010-03-29T14:57:43Z" uid="74617" user="JohnSmith" changeset="4268009">
    <nd ref="17392842"/>
    <nd ref="17392841"/>
    <nd ref="38856001"/>
    <nd ref="17392840"/>
    <nd ref="665740472"/>
    <nd ref="17392839"/>
    <tag k="highway" v="trunk"/>
    <tag k="oneway" v="yes"/>
    <tag k="ref" v="S29"/>
    <tag k="source" v="survey"/>
  </way>
  <way id="25763789" version="6" timestamp="2010-04-01T17:46:59Z" uid="74617" user="JohnSmith" changeset="4295913">
    <nd ref="17392842"/>
    <nd ref="17392841"/>
    <nd ref="38856001"/>
    <nd ref="17392840"/>
    <nd ref="665740472"/>
    <nd ref="17392839"/>
    <tag k="highway" v="trunk"/>
    <tag k="oneway" v="yes"/>
    <tag k="source" v="survey"/>
  </way>
  <way id="25763789" version="7" timestamp="2010-06-17T23:46:42Z" uid="299678" user="peteramjet" changeset="5013189">
    <nd ref="17392842"/>
    <nd ref="17392841"/>
    <nd ref="38856001"/>
    <nd ref="17392840"/>
    <nd ref="665740472"/>
    <nd ref="17392839"/>
    <tag k="highway" v="trunk"/>
    <tag k="name" v="Pacific Highway"/>
    <tag k="oneway" v="yes"/>
    <tag k="source" v="survey"/>
  </way>
  <way id="25763789" version="8" timestamp="2010-06-28T10:14:39Z" uid="299678" user="peteramjet" changeset="5096233">
    <nd ref="17392842"/>
    <nd ref="17392841"/>
    <nd ref="38856001"/>
    <nd ref="17392840"/>
    <nd ref="665740472"/>
    <nd ref="17392839"/>
    <tag k="highway" v="trunk"/>
    <tag k="name" v="Pacific Highway"/>
    <tag k="oneway" v="yes"/>
    <tag k="ref" v="MR1"/>
    <tag k="source" v="survey"/>
  </way>
  <way id="25763789" version="9" timestamp="2010-07-07T10:34:55Z" uid="299678" user="peteramjet" changeset="5157503">
    <nd ref="17392842"/>
    <nd ref="17392841"/>
    <nd ref="38856001"/>
    <nd ref="17392840"/>
    <nd ref="665740472"/>
    <nd ref="17392839"/>
    <tag k="highway" v="trunk"/>
    <tag k="name" v="Pacific Highway"/>
    <tag k="oneway" v="yes"/>
    <tag k="source" v="survey"/>
  </way>
  <way id="25763789" version="10" timestamp="2011-02-14T23:29:07Z" uid="389517" user="good2010" changeset="7290877">
    <nd ref="17392842"/>
    <nd ref="17392841"/>
    <nd ref="38856001"/>
    <nd ref="17392840"/>
    <nd ref="665740472"/>
    <nd ref="17392839"/>
    <tag k="highway" v="trunk"/>
    <tag k="maxspeed" v="60"/>
    <tag k="name" v="Pacific Highway"/>
    <tag k="oneway" v="yes"/>
    <tag k="source" v="survey"/>
  </way>
  <way id="25763789" version="11" timestamp="2012-02-01T01:53:52Z" uid="54784" user="Tom Hollander" changeset="10555431">
    <nd ref="17392842"/>
    <nd ref="17392841"/>
    <nd ref="38856001"/>
    <nd ref="17392840"/>
    <nd ref="665740472"/>
    <nd ref="17392839"/>
    <tag k="highway" v="trunk"/>
    <tag k="maxspeed" v="60"/>
    <tag k="name" v="Pacific Highway"/>
    <tag k="oneway" v="yes"/>
    <tag k="ref" v="MR1,SH29"/>
    <tag k="source" v="survey"/>
  </way>
  <way id="25763789" version="12" timestamp="2012-02-02T08:04:22Z" uid="7523" user="inas" changeset="10565177">
    <nd ref="17392842"/>
    <nd ref="17392841"/>
    <nd ref="38856001"/>
    <nd ref="17392840"/>
    <nd ref="665740472"/>
    <nd ref="17392839"/>
    <tag k="highway" v="trunk"/>
    <tag k="maxspeed" v="60"/>
    <tag k="name" v="Pacific Highway"/>
    <tag k="network" v="MR"/>
    <tag k="oneway" v="yes"/>
    <tag k="ref" v="1"/>
    <tag k="source" v="survey"/>
  </way>
  <way id="25763797" version="13" timestamp="2009-02-23T12:46:33Z" uid="34428" user="usm78-gis" changeset="634299"/>
  <way id="25763799" version="6" timestamp="2009-02-23T12:53:01Z" uid="34428" user="usm78-gis" changeset="634299"/>
  <way id="25763800" version="4" timestamp="2009-02-23T13:31:57Z" uid="34428" user="usm78-gis" changeset="634299"/>
  <way id="25763801" version="9" timestamp="2009-02-23T12:32:51Z" uid="34428" user="usm78-gis" changeset="634299"/>
  <way id="25763802" version="13" timestamp="2009-02-23T13:38:53Z" uid="34428" user="usm78-gis" changeset="634299"/>
  <way id="25763878" version="6" timestamp="2008-10-09T07:31:54Z" uid="27600" user="Islanit" changeset="188945">
    <nd ref="16568179"/>
    <nd ref="251619878"/>
    <nd ref="36415258"/>
    <nd ref="36411366"/>
    <nd ref="36411367"/>
    <nd ref="287722783"/>
    <nd ref="16940180"/>
    <nd ref="303226806"/>
    <nd ref="287722788"/>
    <nd ref="29547200"/>
    <nd ref="16568182"/>
    <tag k="created_by" v="Potlatch 0.10d"/>
    <tag k="highway" v="secondary"/>
    <tag k="lanes" v="2"/>
    <tag k="maxspeed" v="50"/>
    <tag k="name" v="Holstenstraße"/>
    <tag k="ref" v="Ring 2"/>
  </way>
  <way id="25763878" version="7" timestamp="2008-10-09T07:32:22Z" uid="27600" user="Islanit" changeset="188945">
    <nd ref="16568179"/>
    <nd ref="251619878"/>
    <nd ref="36415258"/>
    <nd ref="36411366"/>
    <nd ref="36411367"/>
    <nd ref="287722783"/>
    <nd ref="16940180"/>
    <nd ref="303226806"/>
    <nd ref="287722788"/>
    <nd ref="29547200"/>
    <nd ref="16568182"/>
    <tag k="created_by" v="Potlatch 0.10d"/>
    <tag k="highway" v="secondary"/>
    <tag k="lanes" v="2"/>
    <tag k="maxspeed" v="50"/>
    <tag k="name" v="Holstenstraße"/>
    <tag k="ref" v="Ring 2"/>
  </way>
  <way id="25763878" version="8" timestamp="2008-12-13T21:23:07Z" uid="72576" user="Selter Gast" changeset="360185">
    <nd ref="16568179"/>
    <nd ref="251619878"/>
    <nd ref="36415258"/>
    <nd ref="36411366"/>
    <nd ref="36411367"/>
    <nd ref="287722783"/>
    <nd ref="16940180"/>
    <nd ref="303226806"/>
    <nd ref="287722788"/>
    <nd ref="318469579"/>
    <nd ref="29547200"/>
    <nd ref="16568182"/>
    <tag k="created_by" v="Potlatch 0.10f"/>
    <tag k="highway" v="secondary"/>
    <tag k="lanes" v="2"/>
    <tag k="maxspeed" v="50"/>
    <tag k="name" v="Holstenstraße"/>
    <tag k="ref" v="Ring 2"/>
  </way>
  <way id="25763878" version="9" timestamp="2009-01-07T13:02:00Z" uid="55105" user="Maduser" changeset="750640">
    <nd ref="16568179"/>
    <nd ref="251619878"/>
    <nd ref="36415258"/>
    <nd ref="36411366"/>
    <nd ref="36411367"/>
    <nd ref="287722783"/>
    <nd ref="16940180"/>
    <nd ref="303226806"/>
    <tag k="created_by" v="Potlatch 0.10f"/>
    <tag k="highway" v="secondary"/>
    <tag k="lanes" v="2"/>
    <tag k="maxspeed" v="50"/>
    <tag k="name" v="Holstenstraße"/>
    <tag k="ref" v="Ring 2"/>
  </way>
  <way id="25763878" version="10" timestamp="2009-04-24T13:30:29Z" uid="87367" user="marl" changeset="928034">
    <nd ref="16568179"/>
    <nd ref="251619878"/>
    <nd ref="383342161"/>
    <nd ref="36415258"/>
    <nd ref="36411366"/>
    <nd ref="36411367"/>
    <nd ref="287722783"/>
    <nd ref="16940180"/>
    <nd ref="303226806"/>
    <tag k="created_by" v="Potlatch 0.10f"/>
    <tag k="highway" v="secondary"/>
    <tag k="lanes" v="2"/>
    <tag k="maxspeed" v="50"/>
    <tag k="name" v="Holstenstraße"/>
    <tag k="ref" v="Ring 2"/>
  </way>
  <way id="25763878" version="11" timestamp="2009-04-24T13:45:09Z" uid="87367" user="marl" changeset="928239">
    <nd ref="16568179"/>
    <nd ref="251619878"/>
    <nd ref="383342161"/>
    <nd ref="36415258"/>
    <nd ref="36411366"/>
    <nd ref="36411367"/>
    <nd ref="383376423"/>
    <nd ref="287722783"/>
    <nd ref="16940180"/>
    <nd ref="303226806"/>
    <tag k="created_by" v="Potlatch 0.10f"/>
    <tag k="highway" v="secondary"/>
    <tag k="lanes" v="2"/>
    <tag k="maxspeed" v="50"/>
    <tag k="name" v="Holstenstraße"/>
    <tag k="ref" v="Ring 2"/>
  </way>
  <way id="25763878" version="12" timestamp="2009-08-19T07:07:34Z" uid="63375" user="Divjo" changeset="2197788">
    <nd ref="16568179"/>
    <nd ref="251619878"/>
    <nd ref="383342161"/>
    <nd ref="36415258"/>
    <nd ref="36411366"/>
    <nd ref="36411367"/>
    <nd ref="383376423"/>
    <nd ref="287722783"/>
    <nd ref="16940180"/>
    <nd ref="303226806"/>
    <tag k="highway" v="secondary"/>
    <tag k="lanes" v="2"/>
    <tag k="maxspeed" v="50"/>
    <tag k="name" v="Holstenstraße"/>
    <tag k="ref" v="Ring 2"/>
  </way>
  <way id="25763878" version="13" timestamp="2009-09-05T08:44:23Z" uid="73358" user="Bindeking" changeset="2378025">
    <nd ref="16568179"/>
    <nd ref="251619878"/>
    <nd ref="383342161"/>
    <nd ref="36415258"/>
    <nd ref="36411366"/>
    <nd ref="36411367"/>
    <nd ref="383376423"/>
    <nd ref="287722783"/>
    <nd ref="16940180"/>
    <tag k="highway" v="secondary"/>
    <tag k="lanes" v="2"/>
    <tag k="maxspeed" v="50"/>
    <tag k="name" v="Holstenstraße"/>
    <tag k="ref" v="Ring 2"/>
  </way>
  <way id="25763878" version="14" timestamp="2009-10-19T15:41:23Z" uid="63375" user="Divjo" changeset="2895288">
    <nd ref="16568179"/>
    <nd ref="251619878"/>
    <nd ref="383342161"/>
    <nd ref="36415258"/>
    <nd ref="36411366"/>
    <nd ref="535405725"/>
    <nd ref="36411367"/>
    <nd ref="383376423"/>
    <nd ref="535405737"/>
    <nd ref="287722783"/>
    <nd ref="16940180"/>
    <tag k="highway" v="secondary"/>
    <tag k="lanes" v="2"/>
    <tag k="maxspeed" v="50"/>
    <tag k="name" v="Holstenstraße"/>
    <tag k="ref" v="Ring 2"/>
  </way>
  <way id="25763878" version="15" timestamp="2009-11-18T22:29:31Z" uid="87367" user="marl" changeset="3155468">
    <nd ref="16568179"/>
    <nd ref="251619878"/>
    <nd ref="383342161"/>
    <nd ref="36415258"/>
    <tag k="highway" v="secondary"/>
    <tag k="lanes" v="2"/>
    <tag k="maxspeed" v="50"/>
    <tag k="name" v="Holstenstraße"/>
    <tag k="ref" v="Ring 2"/>
  </way>
  <way id="25763878" version="16" timestamp="2010-01-14T11:09:50Z" uid="63375" user="Divjo" changeset="3616145">
    <nd ref="16568179"/>
    <nd ref="251619878"/>
    <nd ref="383342161"/>
    <nd ref="36415258"/>
    <tag k="highway" v="secondary"/>
    <tag k="lanes" v="2"/>
    <tag k="maxspeed" v="DE:urban"/>
    <tag k="name" v="Holstenstraße"/>
    <tag k="ref" v="Ring 2"/>
  </way>
  <way id="25763878" version="17" timestamp="2010-02-07T08:06:08Z" uid="63375" user="Divjo" changeset="3811453">
    <nd ref="16568179"/>
    <nd ref="251619878"/>
    <nd ref="383342161"/>
    <nd ref="36415258"/>
    <tag k="highway" v="secondary"/>
    <tag k="lanes" v="2"/>
    <tag k="maxspeed" v="50"/>
    <tag k="maxspeed:source" v="DE:urban"/>
    <tag k="name" v="Holstenstraße"/>
    <tag k="ref" v="Ring 2"/>
  </way>
  <way id="25763878" version="18" timestamp="2010-12-11T17:25:16Z" uid="88737" user="Martinwalkt" changeset="6626254">
    <nd ref="16568179"/>
    <nd ref="251619878"/>
    <nd ref="383342161"/>
    <nd ref="1033567206"/>
    <nd ref="36415258"/>
    <tag k="highway" v="secondary"/>
    <tag k="lanes" v="2"/>
    <tag k="maxspeed" v="50"/>
    <tag k="maxspeed:source" v="DE:urban"/>
    <tag k="name" v="Holstenstraße"/>
    <tag k="ref" v="Ring 2"/>
  </way>
  <way id="25763878" version="19" timestamp="2011-11-13T09:12:25Z" uid="63375" user="Divjo" changeset="9811527"/>
  <way id="25763995" version="2" timestamp="2011-04-03T16:49:51Z" uid="4467" user="Rosscoe" changeset="7756305">
    <nd ref="252348049"/>
    <nd ref="280984709"/>
    <nd ref="280984716"/>
    <nd ref="280984728"/>
    <nd ref="1231096976"/>
    <nd ref="280984732"/>
    <nd ref="252348049"/>
    <tag k="landuse" v="retail"/>
  </way>
  <way id="25763995" version="3" timestamp="2011-04-04T01:59:41Z" uid="4467" user="Rosscoe" changeset="7760508">
    <nd ref="252348049"/>
    <nd ref="280984709"/>
    <nd ref="280984716"/>
    <nd ref="280984728"/>
    <nd ref="1231096976"/>
    <nd ref="280984732"/>
    <nd ref="252348049"/>
    <tag k="landuse" v="retail"/>
  </way>
  <way id="25763996" version="2" timestamp="2011-03-19T15:30:58Z" uid="4467" user="Rosscoe" changeset="7606154">
    <nd ref="280984781"/>
    <nd ref="280984783"/>
    <nd ref="1209100334"/>
    <nd ref="1209100391"/>
    <nd ref="253291598"/>
    <nd ref="280984776"/>
    <nd ref="280984781"/>
    <tag k="landuse" v="retail"/>
    <tag k="source" v="nearmap"/>
  </way>
  <way id="25763998" version="2" timestamp="2011-04-04T02:00:12Z" uid="4467" user="Rosscoe" changeset="7760508">
    <nd ref="280984817"/>
    <nd ref="280984805"/>
    <nd ref="280984793"/>
    <nd ref="252348044"/>
    <nd ref="280984827"/>
    <nd ref="280984817"/>
    <tag k="landuse" v="retail"/>
  </way>
  <way id="25763017" version="6" timestamp="2012-04-24T04:29:02Z" uid="512815" user="Nojan32" changeset="11401438">
    <nd ref="289045144"/>
    <nd ref="314895165"/>
    <nd ref="280975879"/>
    <nd ref="1728632373"/>
    <tag k="highway" v="residential"/>
    <tag k="name" v="Kurzer Weg"/>
  </way>
  <way id="25763017" version="7" timestamp="2012-04-24T05:33:44Z" uid="512815" user="Nojan32" changeset="11401617"/>
  <way id="25763034" version="11" timestamp="2012-04-24T04:29:05Z" uid="512815" user="Nojan32" changeset="11401438">
    <nd ref="307082709"/>
    <nd ref="280975386"/>
    <nd ref="1728632376"/>
    <tag k="highway" v="residential"/>
    <tag k="name" v="Waldweg"/>
  </way>
  <way id="25763034" version="12" timestamp="2012-04-24T05:33:46Z" uid="512815" user="Nojan32" changeset="11401617"/>
  <way id="25763038" version="6" timestamp="2012-04-24T05:33:46Z" uid="512815" user="Nojan32" changeset="11401617"/>
  <way id="25763058" version="6" timestamp="2012-04-24T05:33:44Z" uid="512815" user="Nojan32" changeset="11401617"/>
  <way id="25763086" version="7" timestamp="2012-04-24T05:33:43Z" uid="512815" user="Nojan32" changeset="11401617"/>
  <way id="25763090" version="4" timestamp="2012-04-24T05:33:46Z" uid="512815" user="Nojan32" changeset="11401617"/>
  <way id="25763101" version="5" timestamp="2012-07-17T07:57:55Z" uid="473481" user="Karisa" changeset="12259948">
    <nd ref="280976940"/>
    <nd ref="1149116666"/>
    <nd ref="1149116499"/>
    <nd ref="1728646399"/>
    <tag k="highway" v="service"/>
  </way>
  <way id="25763101" version="6" timestamp="2012-07-18T18:20:13Z" uid="722137" user="OSMF Redaction Account" changeset="12292056"/>
  <way id="25763145" version="12" timestamp="2012-06-05T13:12:04Z" uid="51324" user="OPerivar" changeset="11805995"/>
  <way id="25763159" version="14" timestamp="2012-06-05T13:12:02Z" uid="51324" user="OPerivar" changeset="11805995">
    <nd ref="321368003"/>
    <nd ref="280977935"/>
    <nd ref="280977769"/>
    <nd ref="287241147"/>
    <nd ref="1777068384"/>
    <nd ref="1777068375"/>
    <nd ref="287241192"/>
    <nd ref="313046103"/>
    <tag k="highway" v="residential"/>
    <tag k="name" v="Schillerstraße"/>
  </way>
  <way id="25763159" version="15" timestamp="2012-07-18T18:16:06Z" uid="722137" user="OSMF Redaction Account" changeset="12291848">
    <nd ref="1777068384"/>
    <nd ref="1777068375"/>
  </way>
  <way id="25763159" version="16" timestamp="2012-07-24T06:27:00Z" uid="51324" user="OPerivar" changeset="12460663">
    <nd ref="1836174552"/>
    <nd ref="1836174551"/>
    <nd ref="1836174550"/>
    <nd ref="1777068384"/>
    <nd ref="1777068375"/>
    <tag k="highway" v="residential"/>
    <tag k="name" v="Schillerstraße"/>
  </way>
  <way id="25763159" version="17" timestamp="2012-08-30T09:07:47Z" uid="292562" user="WMWDe" changeset="12915040">
    <nd ref="1836174552"/>
    <nd ref="1836174551"/>
    <nd ref="1836174550"/>
    <nd ref="1777068384"/>
    <nd ref="1777068375"/>
    <nd ref="1830232122"/>
    <nd ref="1830232115"/>
    <tag k="highway" v="residential"/>
    <tag k="name" v="Schillerstraße"/>
  </way>
  <way id="25763159" version="18" timestamp="2012-08-30T10:45:12Z" uid="292562" user="WMWDe" changeset="12916162">
    <nd ref="1836174552"/>
    <nd ref="1836174551"/>
    <nd ref="1836174550"/>
    <nd ref="1777068384"/>
    <nd ref="1777068375"/>
    <nd ref="1830232122"/>
    <nd ref="1830232115"/>
    <tag k="highway" v="residential"/>
    <tag k="name" v="Schillerstraße"/>
  </way>
  <way id="25763195" version="11" timestamp="2012-07-18T17:15:53Z" uid="722137" user="OSMF Redaction Account" changeset="12290235"/>
  <way id="25763201" version="10" timestamp="2012-07-18T17:15:55Z" uid="722137" user="OSMF Redaction Account" changeset="12290235"/>
  <way id="25763262" version="82" timestamp="2012-04-04T18:08:44Z" uid="217070" user="Davio" changeset="11179686">
    <nd ref="442865606"/>
    <nd ref="147126342"/>
    <nd ref="442865604"/>
    <nd ref="442865603"/>
    <nd ref="442865601"/>
    <nd ref="442865519"/>
    <nd ref="147126343"/>
    <tag k="odbl" v="clean"/>
  </way>
  <way id="25763287" version="12" timestamp="2012-07-20T14:10:47Z" uid="87616" user="Foxxi59" changeset="12379045">
    <nd ref="280975772"/>
    <nd ref="639268444"/>
    <nd ref="639268443"/>
    <nd ref="1139340042"/>
    <nd ref="639268441"/>
    <nd ref="520762830"/>
    <tag k="bicycle" v="yes"/>
    <tag k="highway" v="track"/>
    <tag k="tracktype" v="grade1"/>
  </way>
  <way id="25763691" version="4" timestamp="2012-07-19T19:00:48Z" uid="722137" user="OSMF Redaction Account" changeset="12344082">
    <nd ref="280981352"/>
    <nd ref="280981353"/>
    <nd ref="280981354"/>
    <nd ref="280981355"/>
    <nd ref="280981356"/>
    <nd ref="280981357"/>
    <nd ref="280981358"/>
    <nd ref="280981359"/>
    <nd ref="280981360"/>
    <nd ref="280981364"/>
    <nd ref="280981365"/>
    <nd ref="280981366"/>
    <nd ref="280981367"/>
    <nd ref="280981368"/>
    <nd ref="280981369"/>
    <nd ref="280981371"/>
    <nd ref="280981372"/>
    <nd ref="280981374"/>
    <nd ref="280981375"/>
    <nd ref="280981376"/>
    <nd ref="280981377"/>
    <nd ref="280981379"/>
    <nd ref="280981380"/>
    <nd ref="280981381"/>
    <nd ref="280981382"/>
    <nd ref="280981383"/>
    <nd ref="280981384"/>
    <nd ref="280981385"/>
    <nd ref="280981386"/>
    <nd ref="280981387"/>
    <nd ref="280981388"/>
    <nd ref="280981389"/>
    <nd ref="280981390"/>
    <nd ref="280981391"/>
    <nd ref="280981394"/>
    <nd ref="280981395"/>
    <nd ref="280981396"/>
    <nd ref="280981397"/>
    <nd ref="280981398"/>
    <nd ref="280981399"/>
    <nd ref="280981400"/>
    <nd ref="280981403"/>
    <nd ref="280981404"/>
    <nd ref="280981405"/>
    <nd ref="280981406"/>
    <nd ref="280981407"/>
    <nd ref="280981408"/>
    <nd ref="280981409"/>
    <nd ref="280981410"/>
    <nd ref="280981411"/>
    <nd ref="280981412"/>
    <nd ref="280981413"/>
    <nd ref="280981416"/>
    <nd ref="280981417"/>
    <tag k="highway" v="unsurfaced"/>
    <tag k="name" v="Morangup Road"/>
  </way>
  <way id="25763789" version="13" timestamp="2012-07-19T23:17:09Z" uid="722137" user="OSMF Redaction Account" changeset="12351438"/>
  <way id="25763995" version="4" timestamp="2012-07-19T18:35:39Z" uid="722137" user="OSMF Redaction Account" changeset="12343371"/>
  <way id="25763996" version="3" timestamp="2012-07-19T16:06:15Z" uid="722137" user="OSMF Redaction Account" changeset="12337693"/>
  <way id="25763998" version="3" timestamp="2012-07-19T18:35:38Z" uid="722137" user="OSMF Redaction Account" changeset="12343371"/>
</osm>
