<?xml version='1.0' encoding='UTF-8'?>
<osm version="0.6" generator="libosmium/2.20.0">
  <way id="25834000" version="3" timestamp="2009-01-10T10:16:23Z" uid="20587" user="balrog-kun" changeset="765081">
    <nd ref="281785803"/>
    <nd ref="281785598"/>
    <nd ref="281785804"/>
    <nd ref="281785600"/>
    <nd ref="281785805"/>
    <nd ref="281785806"/>
    <nd ref="281785807"/>
    <nd ref="281785604"/>
    <nd ref="281785808"/>
    <nd ref="281785606"/>
    <nd ref="281785607"/>
    <nd ref="281785608"/>
    <nd ref="281785809"/>
    <nd ref="281785610"/>
    <nd ref="281785810"/>
    <nd ref="281785612"/>
    <nd ref="281785613"/>
    <nd ref="281779700"/>
    <tag k="boat" v="yes"/>
    <tag k="created_by" v="Potlatch 0.10"/>
    <tag k="name" v="Narew"/>
    <tag k="name:be" v="Нараў"/>
    <tag k="name:lt" v="Naura"/>
    <tag k="waterway" v="river"/>
    <tag k="wikipedia" v="Narew"/>
  </way>
  <way id="25834000" version="4" timestamp="2010-03-17T22:39:40Z" uid="30632" user="antblant" changeset="4157775">
    <nd ref="281786001"/>
    <nd ref="281785598"/>
    <nd ref="281785804"/>
    <nd ref="281785600"/>
    <nd ref="281785805"/>
    <nd ref="281785806"/>
    <nd ref="281785807"/>
    <nd ref="281785604"/>
    <nd ref="281785808"/>
    <nd ref="281785606"/>
    <nd ref="281785607"/>
    <nd ref="281785608"/>
    <nd ref="281785809"/>
    <nd ref="281785610"/>
    <nd ref="281785810"/>
    <nd ref="281785612"/>
    <nd ref="281785613"/>
    <nd ref="281779700"/>
    <tag k="boat" v="yes"/>
    <tag k="name" v="Narew"/>
    <tag k="name:be" v="Нараў"/>
    <tag k="name:lt" v="Naura"/>
    <tag k="waterway" v="river"/>
    <tag k="wikipedia" v="Narew"/>
  </way>
  <way id="25834000" version="5" timestamp="2011-01-31T03:48:32Z" uid="163896" user="Zbigniew Czernik" changeset="7141929">
    <nd ref="281786001"/>
    <nd ref="281785598"/>
    <nd ref="281785804"/>
    <nd ref="281785600"/>
    <nd ref="281785805"/>
    <nd ref="281785806"/>
    <nd ref="281785807"/>
    <nd ref="281785604"/>
    <nd ref="281785808"/>
    <nd ref="281785606"/>
    <nd ref="281785607"/>
    <nd ref="281785608"/>
    <nd ref="281785809"/>
    <nd ref="281785610"/>
    <nd ref="281785810"/>
    <nd ref="281785612"/>
    <nd ref="281785613"/>
    <nd ref="281779700"/>
    <tag k="boat" v="yes"/>
    <tag k="layer" v="-1"/>
    <tag k="name" v="Narew"/>
    <tag k="name:be" v="Нараў"/>
    <tag k="name:lt" v="Naura"/>
    <tag k="waterway" v="river"/>
    <tag k="wikipedia" v="Narew"/>
  </way>
  <way id="25834009" version="2" timestamp="2009-01-10T10:16:25Z" uid="20587" user="balrog-kun" changeset="765081">
    <nd ref="281785977"/>
    <nd ref="281785978"/>
    <nd ref="281785979"/>
    <nd ref="281785980"/>
    <nd ref="281785982"/>
    <nd ref="281785983"/>
    <nd ref="281785984"/>
    <nd ref="281785985"/>
    <nd ref="281785986"/>
    <nd ref="281785987"/>
    <nd ref="281785988"/>
    <nd ref="281785989"/>
    <nd ref="281785990"/>
    <nd ref="281785991"/>
    <nd ref="281785992"/>
    <nd ref="281785993"/>
    <nd ref="281785994"/>
    <nd ref="281785995"/>
    <nd ref="281785996"/>
    <nd ref="281785997"/>
    <nd ref="281785998"/>
    <nd ref="281786000"/>
    <nd ref="281786001"/>
    <tag k="boat" v="yes"/>
    <tag k="created_by" v="Potlatch 0.10"/>
    <tag k="name" v="Narew"/>
    <tag k="name:be" v="Нараў"/>
    <tag k="name:lt" v="Naura"/>
    <tag k="waterway" v="river"/>
    <tag k="wikipedia" v="Narew"/>
  </way>
  <way id="25834009" version="3" timestamp="2011-01-31T03:45:03Z" uid="163896" user="Zbigniew Czernik" changeset="7141929">
    <nd ref="281785977"/>
    <nd ref="281785978"/>
    <nd ref="281785979"/>
    <nd ref="281785980"/>
    <nd ref="281785982"/>
    <nd ref="281785983"/>
    <nd ref="281785984"/>
    <nd ref="281785985"/>
    <nd ref="281785986"/>
    <nd ref="281785987"/>
    <nd ref="281785988"/>
    <nd ref="281785989"/>
    <nd ref="281785990"/>
    <nd ref="281785991"/>
    <nd ref="281785992"/>
    <nd ref="281785993"/>
    <nd ref="281785994"/>
    <nd ref="281785995"/>
    <nd ref="281785996"/>
    <nd ref="281785997"/>
    <nd ref="281785998"/>
    <nd ref="281786000"/>
    <nd ref="281786001"/>
    <tag k="boat" v="yes"/>
    <tag k="layer" v="-1"/>
    <tag k="name" v="Narew"/>
    <tag k="name:be" v="Нараў"/>
    <tag k="name:lt" v="Naura"/>
    <tag k="waterway" v="river"/>
    <tag k="wikipedia" v="Narew"/>
  </way>
  <way id="25834010" version="3" timestamp="2009-01-10T10:16:25Z" uid="20587" user="balrog-kun" changeset="765081">
    <nd ref="281786019"/>
    <nd ref="281786020"/>
    <nd ref="281786021"/>
    <nd ref="281786197"/>
    <nd ref="281786023"/>
    <nd ref="281786198"/>
    <nd ref="281786200"/>
    <nd ref="281786203"/>
    <tag k="boat" v="yes"/>
    <tag k="created_by" v="Potlatch 0.10"/>
    <tag k="name" v="Narew"/>
    <tag k="name:be" v="Нараў"/>
    <tag k="name:lt" v="Naura"/>
    <tag k="waterway" v="river"/>
    <tag k="wikipedia" v="Narew"/>
  </way>
  <way id="25834010" version="4" timestamp="2010-03-17T22:39:40Z" uid="30632" user="antblant" changeset="4157775">
    <nd ref="281786019"/>
    <nd ref="281786020"/>
    <nd ref="281786021"/>
    <nd ref="281786197"/>
    <nd ref="281786023"/>
    <nd ref="281786198"/>
    <nd ref="281786200"/>
    <nd ref="281786163"/>
    <tag k="boat" v="yes"/>
    <tag k="name" v="Narew"/>
    <tag k="name:be" v="Нараў"/>
    <tag k="name:lt" v="Naura"/>
    <tag k="waterway" v="river"/>
    <tag k="wikipedia" v="Narew"/>
  </way>
  <way id="25834010" version="5" timestamp="2011-01-31T03:46:23Z" uid="163896" user="Zbigniew Czernik" changeset="7141929">
    <nd ref="281786019"/>
    <nd ref="281786020"/>
    <nd ref="281786021"/>
    <nd ref="281786197"/>
    <nd ref="281786023"/>
    <nd ref="281786198"/>
    <nd ref="281786200"/>
    <nd ref="281786163"/>
    <tag k="boat" v="yes"/>
    <tag k="layer" v="-1"/>
    <tag k="name" v="Narew"/>
    <tag k="name:be" v="Нараў"/>
    <tag k="name:lt" v="Naura"/>
    <tag k="waterway" v="river"/>
    <tag k="wikipedia" v="Narew"/>
  </way>
  <way id="25834013" version="3" timestamp="2009-01-10T10:16:24Z" uid="20587" user="balrog-kun" changeset="765081">
    <nd ref="281786163"/>
    <nd ref="281786044"/>
    <nd ref="281786043"/>
    <nd ref="281786042"/>
    <nd ref="281786162"/>
    <nd ref="281786040"/>
    <nd ref="281786161"/>
    <nd ref="281786078"/>
    <tag k="boat" v="yes"/>
    <tag k="created_by" v="Potlatch 0.10"/>
    <tag k="name" v="Narew"/>
    <tag k="name:be" v="Нараў"/>
    <tag k="name:lt" v="Naura"/>
    <tag k="waterway" v="river"/>
    <tag k="wikipedia" v="Narew"/>
  </way>
  <way id="25834013" version="4" timestamp="2011-01-31T03:47:29Z" uid="163896" user="Zbigniew Czernik" changeset="7141929">
    <nd ref="281786163"/>
    <nd ref="281786044"/>
    <nd ref="281786043"/>
    <nd ref="281786042"/>
    <nd ref="281786162"/>
    <nd ref="281786040"/>
    <nd ref="281786161"/>
    <nd ref="281786078"/>
    <tag k="boat" v="yes"/>
    <tag k="layer" v="-1"/>
    <tag k="name" v="Narew"/>
    <tag k="name:be" v="Нараў"/>
    <tag k="name:lt" v="Naura"/>
    <tag k="waterway" v="river"/>
    <tag k="wikipedia" v="Narew"/>
  </way>
  <way id="25834017" version="2" timestamp="2009-01-10T10:16:25Z" uid="20587" user="balrog-kun" changeset="765081">
    <nd ref="281786078"/>
    <nd ref="281786079"/>
    <nd ref="281786080"/>
    <nd ref="281786082"/>
    <nd ref="281786083"/>
    <nd ref="281786084"/>
    <nd ref="281786085"/>
    <nd ref="281786087"/>
    <nd ref="281786088"/>
    <tag k="boat" v="yes"/>
    <tag k="created_by" v="Potlatch 0.10"/>
    <tag k="name" v="Narew"/>
    <tag k="name:be" v="Нараў"/>
    <tag k="name:lt" v="Naura"/>
    <tag k="waterway" v="river"/>
    <tag k="wikipedia" v="Narew"/>
  </way>
  <way id="25834017" version="3" timestamp="2010-03-17T22:39:40Z" uid="30632" user="antblant" changeset="4157775">
    <nd ref="281786078"/>
    <nd ref="281786079"/>
    <nd ref="281786080"/>
    <nd ref="281786082"/>
    <nd ref="281786083"/>
    <nd ref="281786084"/>
    <nd ref="281786085"/>
    <nd ref="281786087"/>
    <nd ref="281785977"/>
    <tag k="boat" v="yes"/>
    <tag k="name" v="Narew"/>
    <tag k="name:be" v="Нараў"/>
    <tag k="name:lt" v="Naura"/>
    <tag k="waterway" v="river"/>
    <tag k="wikipedia" v="Narew"/>
  </way>
  <way id="25834017" version="4" timestamp="2011-01-31T03:50:09Z" uid="163896" user="Zbigniew Czernik" changeset="7141929">
    <nd ref="281786078"/>
    <nd ref="281786079"/>
    <nd ref="281786080"/>
    <nd ref="281786082"/>
    <nd ref="281786083"/>
    <nd ref="281786084"/>
    <nd ref="281786085"/>
    <nd ref="281786087"/>
    <nd ref="281785977"/>
    <tag k="boat" v="yes"/>
    <tag k="layer" v="-1"/>
    <tag k="name" v="Narew"/>
    <tag k="name:be" v="Нараў"/>
    <tag k="name:lt" v="Naura"/>
    <tag k="waterway" v="river"/>
    <tag k="wikipedia" v="Narew"/>
  </way>
  <way id="25834040" version="2" timestamp="2009-01-10T10:16:26Z" uid="20587" user="balrog-kun" changeset="765081">
    <nd ref="281786331"/>
    <nd ref="281786332"/>
    <nd ref="281786333"/>
    <nd ref="281786334"/>
    <nd ref="281786335"/>
    <nd ref="281786336"/>
    <nd ref="281786337"/>
    <nd ref="281786338"/>
    <nd ref="281786339"/>
    <nd ref="281786340"/>
    <nd ref="281786341"/>
    <nd ref="281786342"/>
    <nd ref="281786343"/>
    <nd ref="281786344"/>
    <nd ref="281786345"/>
    <nd ref="281786346"/>
    <nd ref="281786347"/>
    <nd ref="281786348"/>
    <nd ref="281786349"/>
    <nd ref="281786350"/>
    <nd ref="281786351"/>
    <nd ref="281786352"/>
    <nd ref="281786019"/>
    <tag k="boat" v="yes"/>
    <tag k="created_by" v="Potlatch 0.10"/>
    <tag k="name" v="Narew"/>
    <tag k="name:be" v="Нараў"/>
    <tag k="name:lt" v="Naura"/>
    <tag k="waterway" v="river"/>
    <tag k="wikipedia" v="Narew"/>
  </way>
  <way id="25834040" version="3" timestamp="2011-01-31T03:49:45Z" uid="163896" user="Zbigniew Czernik" changeset="7141929">
    <nd ref="281786331"/>
    <nd ref="281786332"/>
    <nd ref="281786333"/>
    <nd ref="281786334"/>
    <nd ref="281786335"/>
    <nd ref="281786336"/>
    <nd ref="281786337"/>
    <nd ref="281786338"/>
    <nd ref="281786339"/>
    <nd ref="281786340"/>
    <nd ref="281786341"/>
    <nd ref="281786342"/>
    <nd ref="281786343"/>
    <nd ref="281786344"/>
    <nd ref="281786345"/>
    <nd ref="281786346"/>
    <nd ref="281786347"/>
    <nd ref="281786348"/>
    <nd ref="281786349"/>
    <nd ref="281786350"/>
    <nd ref="281786351"/>
    <nd ref="281786352"/>
    <nd ref="281786019"/>
    <tag k="boat" v="yes"/>
    <tag k="layer" v="-1"/>
    <tag k="name" v="Narew"/>
    <tag k="name:be" v="Нараў"/>
    <tag k="name:lt" v="Naura"/>
    <tag k="waterway" v="river"/>
    <tag k="wikipedia" v="Narew"/>
  </way>
  <way id="25834128" version="3" timestamp="2008-09-14T14:09:31Z" uid="6975" user="ulfl" changeset="640534">
    <nd ref="281786913"/>
    <nd ref="281787073"/>
    <nd ref="281786915"/>
    <nd ref="281786916"/>
    <nd ref="281787075"/>
    <nd ref="281786913"/>
    <tag k="amenity" v="fast_food"/>
    <tag k="building" v="yes"/>
  </way>
  <way id="25834128" version="4" timestamp="2010-12-25T15:53:06Z" uid="53579" user="Davíð Jakobsson" changeset="6761496">
    <nd ref="281786913"/>
    <nd ref="281787073"/>
    <nd ref="1064225540"/>
    <nd ref="1064225381"/>
    <nd ref="1064225466"/>
    <nd ref="281786915"/>
    <nd ref="1064225792"/>
    <nd ref="281786916"/>
    <nd ref="281787075"/>
    <nd ref="1064225423"/>
    <nd ref="1064225512"/>
    <nd ref="1064225597"/>
    <nd ref="1064225720"/>
    <nd ref="1064225470"/>
    <nd ref="281786913"/>
    <tag k="amenity" v="fast_food"/>
    <tag k="building" v="yes"/>
  </way>
  <way id="25834128" version="5" timestamp="2011-03-22T00:09:03Z" uid="53579" user="Dabbi" changeset="7633038">
    <nd ref="281786913"/>
    <nd ref="281787073"/>
    <nd ref="1064225540"/>
    <nd ref="1064225381"/>
    <nd ref="1064225466"/>
    <nd ref="281786915"/>
    <nd ref="1064225792"/>
    <nd ref="281786916"/>
    <nd ref="281787075"/>
    <nd ref="1064225423"/>
    <nd ref="1064225512"/>
    <nd ref="1064225597"/>
    <nd ref="1064225720"/>
    <nd ref="1064225470"/>
    <nd ref="281786913"/>
    <tag k="building" v="yes"/>
  </way>
  <way id="25834188" version="9" timestamp="2008-09-14T18:30:08Z" uid="6975" user="ulfl" changeset="640534">
    <nd ref="281787555"/>
    <nd ref="281787758"/>
    <nd ref="281787557"/>
    <nd ref="281787808"/>
    <nd ref="281787555"/>
    <tag k="amenity" v="townhall"/>
    <tag k="building" v="yes"/>
  </way>
  <way id="25834240" version="2" timestamp="2011-05-08T08:22:53Z" uid="9581" user="Lobelt" changeset="8079978">
    <nd ref="268963744"/>
    <nd ref="268963746"/>
    <nd ref="276093480"/>
    <nd ref="268963749"/>
    <nd ref="268963751"/>
    <nd ref="276093481"/>
    <nd ref="267623860"/>
    <tag k="highway" v="unclassified"/>
  </way>
  <way id="25834241" version="2" timestamp="2011-05-08T08:23:15Z" uid="9581" user="Lobelt" changeset="8079978">
    <nd ref="268963741"/>
    <nd ref="268963738"/>
    <nd ref="268963736"/>
    <nd ref="268963735"/>
    <nd ref="267623970"/>
    <tag k="highway" v="residential"/>
    <tag k="name" v="Bachweg"/>
  </way>
  <way id="25834242" version="2" timestamp="2011-05-08T08:23:01Z" uid="9581" user="Lobelt" changeset="8079978">
    <nd ref="268963742"/>
    <nd ref="267623966"/>
    <nd ref="267623969"/>
    <nd ref="267623970"/>
    <tag k="highway" v="residential"/>
    <tag k="name" v="Bachweg"/>
  </way>
  <way id="25834243" version="2" timestamp="2011-05-08T08:23:21Z" uid="9581" user="Lobelt" changeset="8079978">
    <nd ref="267623970"/>
    <nd ref="267623974"/>
    <tag k="highway" v="residential"/>
    <tag k="name" v="Bachweg"/>
  </way>
  <way id="25834244" version="2" timestamp="2011-05-08T08:23:25Z" uid="9581" user="Lobelt" changeset="8079978">
    <nd ref="270293005"/>
    <nd ref="267623944"/>
    <nd ref="267818111"/>
    <tag k="highway" v="residential"/>
    <tag k="name" v="Nahestraße"/>
  </way>
  <way id="25834301" version="2" timestamp="2010-04-02T17:18:12Z" uid="20587" user="balrog-kun" changeset="4304500">
    <nd ref="53187640"/>
    <nd ref="53040111"/>
    <tag k="created_by" v="JOSM"/>
    <tag k="highway" v="residential"/>
    <tag k="name" v="Southeast 304th Street"/>
    <tag k="tiger:cfcc" v="A41"/>
    <tag k="tiger:county" v="King, WA"/>
    <tag k="tiger:name_base" v="304th"/>
    <tag k="tiger:name_direction_prefix" v="SE"/>
    <tag k="tiger:name_type" v="St"/>
    <tag k="tiger:reviewed" v="no"/>
    <tag k="tiger:separated" v="no"/>
    <tag k="tiger:source" v="tiger_import_dch_v0.6_20070830"/>
    <tag k="tiger:tlid" v="186934478:186948123:186948124:186934480:186934486:186934487:186948121:186948118:186962110:186962111"/>
    <tag k="tiger:zip_left" v="98092"/>
    <tag k="tiger:zip_right" v="98092"/>
  </way>
  <way id="25834305" version="2" timestamp="2010-04-02T17:18:12Z" uid="20587" user="balrog-kun" changeset="4304500">
    <nd ref="53040111"/>
    <nd ref="281788758"/>
    <nd ref="281788752"/>
    <nd ref="53187641"/>
    <nd ref="53187642"/>
    <tag k="created_by" v="JOSM"/>
    <tag k="highway" v="residential"/>
    <tag k="name" v="108th Avenue Southeast"/>
    <tag k="tiger:cfcc" v="A41"/>
    <tag k="tiger:county" v="King, WA"/>
    <tag k="tiger:name_base" v="108th"/>
    <tag k="tiger:name_direction_suffix" v="SE"/>
    <tag k="tiger:name_type" v="Ave"/>
    <tag k="tiger:reviewed" v="no"/>
    <tag k="tiger:separated" v="no"/>
    <tag k="tiger:source" v="tiger_import_dch_v0.6_20070830"/>
    <tag k="tiger:tlid" v="186654090:186654092"/>
    <tag k="tiger:zip_left" v="98092"/>
    <tag k="tiger:zip_right" v="98092"/>
  </way>
  <way id="25834308" version="2" timestamp="2010-04-02T17:18:12Z" uid="20587" user="balrog-kun" changeset="4304500">
    <nd ref="53040111"/>
    <nd ref="281788747"/>
    <nd ref="281788713"/>
    <nd ref="53196809"/>
    <tag k="created_by" v="JOSM"/>
    <tag k="highway" v="residential"/>
    <tag k="name" v="Southeast 304th Street"/>
    <tag k="tiger:cfcc" v="A41"/>
    <tag k="tiger:county" v="King, WA"/>
    <tag k="tiger:name_base" v="304th"/>
    <tag k="tiger:name_direction_prefix" v="SE"/>
    <tag k="tiger:name_type" v="St"/>
    <tag k="tiger:reviewed" v="no"/>
    <tag k="tiger:separated" v="no"/>
    <tag k="tiger:source" v="tiger_import_dch_v0.6_20070830"/>
    <tag k="tiger:tlid" v="186654089:186713990:186934473"/>
    <tag k="tiger:zip_left" v="98092"/>
    <tag k="tiger:zip_right" v="98092"/>
  </way>
  <way id="25834347" version="3" timestamp="2008-09-14T15:26:55Z" uid="6975" user="ulfl" changeset="640534">
    <nd ref="281787675"/>
    <nd ref="281787676"/>
    <nd ref="281787677"/>
    <nd ref="283281664"/>
    <nd ref="280023854"/>
    <nd ref="281787675"/>
    <tag k="area" v="yes"/>
    <tag k="landuse" v="cemetery"/>
  </way>
  <way id="25834377" version="4" timestamp="2008-09-14T16:02:34Z" uid="6975" user="ulfl" changeset="640534">
    <nd ref="281788951"/>
    <nd ref="281788909"/>
    <nd ref="281788924"/>
    <nd ref="281788911"/>
    <nd ref="281788951"/>
    <tag k="man_made" v="wastewater_plant"/>
    <tag k="name" v="ARA Abwasserreinigungsanlage"/>
  </way>
  <way id="25834377" version="5" timestamp="2010-02-24T19:49:52Z" uid="52015" user="rockcreek" changeset="3965999">
    <nd ref="281788951"/>
    <nd ref="281788909"/>
    <nd ref="281788924"/>
    <nd ref="281788911"/>
    <nd ref="281788951"/>
    <tag k="landuse" v="industrial"/>
    <tag k="man_made" v="wastewater_plant"/>
    <tag k="name" v="ARA Abwasserreinigungsanlage"/>
  </way>
  <way id="25834481" version="9" timestamp="2011-02-04T03:47:52Z" uid="17602" user="B10xyz" changeset="7179899">
    <nd ref="27527902"/>
    <nd ref="27527903"/>
    <nd ref="21302158"/>
    <nd ref="27527904"/>
    <nd ref="27527905"/>
    <nd ref="21302159"/>
    <nd ref="365587447"/>
    <tag k="electrified" v="rail"/>
    <tag k="frequency" v="0"/>
    <tag k="layer" v="1"/>
    <tag k="railway" v="light_rail"/>
    <tag k="voltage" v="750"/>
  </way>
  <way id="25834481" version="10" timestamp="2011-05-02T11:41:50Z" uid="447997" user="Berliner Igel" changeset="8029835">
    <nd ref="27527902"/>
    <nd ref="27527903"/>
    <nd ref="21302158"/>
    <nd ref="27527904"/>
    <nd ref="27527905"/>
    <nd ref="21302159"/>
    <nd ref="365587447"/>
    <tag k="bridge" v="viaduct"/>
    <tag k="electrified" v="rail"/>
    <tag k="frequency" v="0"/>
    <tag k="layer" v="1"/>
    <tag k="railway" v="light_rail"/>
    <tag k="voltage" v="750"/>
  </way>
  <way id="25834481" version="11" timestamp="2011-12-18T20:48:00Z" uid="167417" user="osm-sputnik" changeset="10150650">
    <nd ref="27527902"/>
    <nd ref="27527903"/>
    <nd ref="21302158"/>
    <nd ref="27527904"/>
    <nd ref="27527905"/>
    <nd ref="21302159"/>
    <nd ref="365587447"/>
    <tag k="bridge" v="viaduct"/>
    <tag k="electrified" v="rail"/>
    <tag k="frequency" v="0"/>
    <tag k="gauge" v="1435"/>
    <tag k="layer" v="1"/>
    <tag k="railway" v="light_rail"/>
    <tag k="voltage" v="750"/>
  </way>
  <way id="25834571" version="13" timestamp="2010-04-02T17:18:13Z" uid="20587" user="balrog-kun" changeset="4304500">
    <nd ref="53226634"/>
    <nd ref="269452065"/>
    <nd ref="387554791"/>
    <nd ref="269452066"/>
    <nd ref="387554792"/>
    <nd ref="387554793"/>
    <nd ref="387554794"/>
    <nd ref="387554795"/>
    <nd ref="53190763"/>
    <nd ref="281790873"/>
    <nd ref="281790689"/>
    <nd ref="53231442"/>
    <nd ref="53194805"/>
    <nd ref="269010416"/>
    <nd ref="566401886"/>
    <nd ref="539781234"/>
    <nd ref="552251974"/>
    <nd ref="269010417"/>
    <tag k="highway" v="secondary"/>
    <tag k="maxspeed" v="48.280"/>
    <tag k="name" v="Northeast 12th Street"/>
    <tag k="tiger:cfcc" v="A41"/>
    <tag k="tiger:county" v="King, WA"/>
    <tag k="tiger:name_base" v="12th"/>
    <tag k="tiger:name_direction_prefix" v="NE"/>
    <tag k="tiger:reviewed" v="no"/>
    <tag k="tiger:separated" v="no"/>
    <tag k="tiger:source" v="tiger_import_dch_v0.6_20070830"/>
    <tag k="tiger:tlid" v="186605496:186605499:186948749:186605210:186605215:186605533:186948747:186681079:186605150:186605156:186605158"/>
    <tag k="tiger:zip_left" v="98004"/>
    <tag k="tiger:zip_right" v="98004"/>
  </way>
  <way id="25834622" version="6" timestamp="2010-04-02T17:18:14Z" uid="20587" user="balrog-kun" changeset="4304500">
    <nd ref="269452064"/>
    <nd ref="53226634"/>
    <tag k="bridge" v="yes"/>
    <tag k="created_by" v="Potlatch 0.10f"/>
    <tag k="highway" v="secondary"/>
    <tag k="layer" v="2"/>
    <tag k="name" v="Northeast 12th Street"/>
    <tag k="tiger:cfcc" v="A41"/>
    <tag k="tiger:county" v="King, WA"/>
    <tag k="tiger:name_base" v="12th"/>
    <tag k="tiger:name_direction_prefix" v="NE"/>
    <tag k="tiger:reviewed" v="no"/>
    <tag k="tiger:separated" v="no"/>
    <tag k="tiger:source" v="tiger_import_dch_v0.6_20070830"/>
    <tag k="tiger:tlid" v="186605496:186605499:186948749:186605210:186605215:186605533:186948747:186681079:186605150:186605156:186605158"/>
    <tag k="tiger:zip_left" v="98004"/>
    <tag k="tiger:zip_right" v="98004"/>
  </way>
  <way id="25834849" version="7" timestamp="2009-10-08T22:22:02Z" uid="179968" user="Ich_hasse_doitsche_OSM-Korinthenkacker" changeset="2788120">
    <nd ref="281792076"/>
    <nd ref="281792152"/>
    <nd ref="281792127"/>
    <nd ref="302298072"/>
    <nd ref="281792075"/>
    <nd ref="281792079"/>
    <nd ref="281792078"/>
    <nd ref="302112452"/>
    <nd ref="281830758"/>
    <nd ref="281830757"/>
    <nd ref="189487584"/>
    <tag k="highway" v="unclassified"/>
    <tag k="name" v="Erbsenbindereistraße"/>
  </way>
  <way id="25834849" version="8" timestamp="2010-09-21T18:23:03Z" uid="315867" user="Quakfrosch" changeset="5839239">
    <nd ref="281792076"/>
    <nd ref="281792152"/>
    <nd ref="281792127"/>
    <nd ref="302298072"/>
    <nd ref="281792075"/>
    <nd ref="281792079"/>
    <nd ref="281792078"/>
    <nd ref="302112452"/>
    <nd ref="920528454"/>
    <nd ref="281830758"/>
    <nd ref="281830757"/>
    <nd ref="189487584"/>
    <tag k="highway" v="unclassified"/>
    <tag k="name" v="Erbsenbindereistraße"/>
  </way>
  <way id="25834850" version="5" timestamp="2009-10-08T22:22:03Z" uid="179968" user="Ich_hasse_doitsche_OSM-Korinthenkacker" changeset="2788120">
    <nd ref="281792157"/>
    <nd ref="281792160"/>
    <tag k="highway" v="footway"/>
    <tag k="layer" v="1"/>
  </way>
  <way id="25834855" version="6" timestamp="2009-10-08T22:22:02Z" uid="179968" user="Ich_hasse_doitsche_OSM-Korinthenkacker" changeset="2788120">
    <nd ref="281792350"/>
    <nd ref="281792126"/>
    <nd ref="281792351"/>
    <nd ref="281792353"/>
    <nd ref="281792354"/>
    <nd ref="281792355"/>
    <nd ref="281792356"/>
    <nd ref="281792357"/>
    <nd ref="281792358"/>
    <nd ref="281792350"/>
    <tag k="name" v="Camping am Deich - Nordsee"/>
    <tag k="note" v="exact borders guessed from one way marked..."/>
    <tag k="tourism" v="camp_site"/>
  </way>
  <way id="25834855" version="7" timestamp="2011-10-16T18:40:10Z" uid="245407" user="HGerlich" changeset="9575634">
    <nd ref="281792350"/>
    <nd ref="281792126"/>
    <nd ref="281792351"/>
    <nd ref="281792353"/>
    <nd ref="281792354"/>
    <nd ref="281792355"/>
    <nd ref="281792356"/>
    <nd ref="281792357"/>
    <nd ref="281792358"/>
    <nd ref="281792350"/>
    <tag k="addr:housenumber" v="3"/>
    <tag k="addr:postcode" v="26736"/>
    <tag k="addr:street" v="Erbsenbinderstraße"/>
    <tag k="name" v="Camping am Deich - Nordsee"/>
    <tag k="note" v="exact borders guessed from one way marked..."/>
    <tag k="opening_hours" v="Mo-Su 08:00-13:00,15:00-18:00"/>
    <tag k="phone" v="04923-525"/>
    <tag k="tourism" v="camp_site"/>
  </way>
  <way id="25834855" version="8" timestamp="2011-10-16T18:50:19Z" uid="245407" user="HGerlich" changeset="9575732">
    <nd ref="281792350"/>
    <nd ref="281792126"/>
    <nd ref="281792351"/>
    <nd ref="281792353"/>
    <nd ref="281792354"/>
    <nd ref="281792355"/>
    <nd ref="281792356"/>
    <nd ref="281792357"/>
    <nd ref="281792358"/>
    <nd ref="281792350"/>
    <tag k="addr:housenumber" v="3"/>
    <tag k="addr:postcode" v="26736"/>
    <tag k="addr:street" v="Erbsenbinderstraße"/>
    <tag k="name" v="Camping am Deich - Nordsee"/>
    <tag k="note" v="exact borders guessed from one way marked..."/>
    <tag k="opening_hours" v="Mo-Su 08:00-13:00,15:00-18:00"/>
    <tag k="phone" v="04923-525"/>
    <tag k="tourism" v="camp_site"/>
    <tag k="website" v="http://www.camping-am-deich.de"/>
  </way>
  <way id="25834918" version="3" timestamp="2010-03-27T23:53:52Z" uid="20587" user="balrog-kun" changeset="4250871">
    <nd ref="281793119"/>
    <nd ref="281793112"/>
    <tag k="highway" v="secondary"/>
    <tag k="layer" v="-1"/>
    <tag k="name" v="East Hammer Lane"/>
    <tag k="tiger:cfcc" v="A41"/>
    <tag k="tiger:county" v="San Joaquin, CA"/>
    <tag k="tiger:name_base" v="Hammer"/>
    <tag k="tiger:name_direction_prefix" v="E"/>
    <tag k="tiger:name_type" v="Ln"/>
    <tag k="tiger:separated" v="yes"/>
    <tag k="tiger:source" v="tiger_import_dch_v0.6_20070809"/>
    <tag k="tiger:tlid" v="133846664:133846666"/>
  </way>
  <way id="25834918" version="4" timestamp="2010-04-30T08:37:56Z" uid="207745" user="NE2" changeset="4563928">
    <nd ref="281793119"/>
    <nd ref="281793112"/>
    <tag k="highway" v="secondary"/>
    <tag k="name" v="East Hammer Lane"/>
    <tag k="tiger:cfcc" v="A41"/>
    <tag k="tiger:county" v="San Joaquin, CA"/>
    <tag k="tiger:name_base" v="Hammer"/>
    <tag k="tiger:name_direction_prefix" v="E"/>
    <tag k="tiger:name_type" v="Ln"/>
    <tag k="tiger:separated" v="yes"/>
    <tag k="tiger:source" v="tiger_import_dch_v0.6_20070809"/>
    <tag k="tiger:tlid" v="133846664:133846666"/>
  </way>
  <way id="25834919" version="7" timestamp="2010-03-27T23:53:52Z" uid="20587" user="balrog-kun" changeset="4250871">
    <nd ref="90873704"/>
    <nd ref="90993248"/>
    <nd ref="90993247"/>
    <tag k="highway" v="secondary"/>
    <tag k="name" v="East Hammer Lane"/>
    <tag k="oneway" v="yes"/>
    <tag k="tiger:cfcc" v="A41"/>
    <tag k="tiger:county" v="San Joaquin, CA"/>
    <tag k="tiger:name_base" v="Hammer"/>
    <tag k="tiger:name_direction_prefix" v="E"/>
    <tag k="tiger:name_type" v="Ln"/>
    <tag k="tiger:separated" v="yes"/>
    <tag k="tiger:source" v="tiger_import_dch_v0.6_20070809"/>
    <tag k="tiger:tlid" v="133846664:133846666"/>
  </way>
  <way id="25834923" version="6" timestamp="2009-09-30T13:09:04Z" uid="36809" user="pfoten_weg_!_" changeset="2687909">
    <nd ref="281793098"/>
    <nd ref="376033507"/>
    <nd ref="281793099"/>
    <nd ref="440809050"/>
    <nd ref="281793100"/>
    <nd ref="281793101"/>
    <nd ref="281793102"/>
    <nd ref="281793103"/>
    <nd ref="281793104"/>
    <nd ref="281793105"/>
    <nd ref="281793106"/>
    <nd ref="281793107"/>
    <nd ref="281793108"/>
    <nd ref="281793110"/>
    <nd ref="281793113"/>
    <nd ref="287398068"/>
    <nd ref="281793114"/>
    <nd ref="267014072"/>
    <tag k="bicycle" v="yes"/>
    <tag k="foot" v="yes"/>
    <tag k="highway" v="track"/>
    <tag k="motorcar" v="no"/>
    <tag k="tracktype" v="grade5"/>
  </way>
  <way id="25834932" version="2" timestamp="2010-03-27T23:53:52Z" uid="20587" user="balrog-kun" changeset="4250871">
    <nd ref="90893987"/>
    <nd ref="90893989"/>
    <tag k="bridge" v="yes"/>
    <tag k="layer" v="1"/>
    <tag k="name" v="Central California Traction Railroad"/>
    <tag k="railway" v="rail"/>
    <tag k="tiger:cfcc" v="B11"/>
    <tag k="tiger:county" v="San Joaquin, CA"/>
    <tag k="tiger:name_base" v="Central California Traction RR"/>
    <tag k="tiger:reviewed" v="no"/>
    <tag k="tiger:source" v="tiger_import_dch_v0.6_20070809"/>
    <tag k="tiger:tlid" v="133932977:133875682:133861985:133862035:133841416:133891201:133841423:133846043:133846046:133846049:133846051:133841424:133901524:133901525:133856221:133856225:133884777:133884778:133903786:133903787:133903798:133903799:133856236:133856238:133856253:13386"/>
  </way>
  <way id="25834933" version="3" timestamp="2010-03-27T23:53:53Z" uid="20587" user="balrog-kun" changeset="4250871">
    <nd ref="90893989"/>
    <nd ref="90893991"/>
    <nd ref="90893993"/>
    <nd ref="90893995"/>
    <nd ref="90893997"/>
    <nd ref="90893999"/>
    <nd ref="90894001"/>
    <nd ref="90894003"/>
    <nd ref="90894005"/>
    <nd ref="90894007"/>
    <nd ref="90894008"/>
    <nd ref="90894010"/>
    <nd ref="90894012"/>
    <nd ref="90894014"/>
    <nd ref="90894015"/>
    <nd ref="90894017"/>
    <nd ref="90894019"/>
    <nd ref="90894021"/>
    <nd ref="90894023"/>
    <nd ref="90894025"/>
    <nd ref="90894027"/>
    <nd ref="90894029"/>
    <nd ref="90894031"/>
    <nd ref="90894033"/>
    <nd ref="90894037"/>
    <nd ref="90894039"/>
    <nd ref="90894041"/>
    <nd ref="90894043"/>
    <nd ref="620991862"/>
    <tag k="name" v="Central California Traction Railroad"/>
    <tag k="railway" v="rail"/>
    <tag k="tiger:cfcc" v="B11"/>
    <tag k="tiger:county" v="San Joaquin, CA"/>
    <tag k="tiger:name_base" v="Central California Traction RR"/>
    <tag k="tiger:reviewed" v="no"/>
    <tag k="tiger:source" v="tiger_import_dch_v0.6_20070809"/>
    <tag k="tiger:tlid" v="133932977:133875682:133861985:133862035:133841416:133891201:133841423:133846043:133846046:133846049:133846051:133841424:133901524:133901525:133856221:133856225:133884777:133884778:133903786:133903787:133903798:133903799:133856236:133856238:133856253:13386"/>
  </way>
  <way id="25834934" version="2" timestamp="2010-04-02T17:18:14Z" uid="20587" user="balrog-kun" changeset="4304500">
    <nd ref="281793173"/>
    <nd ref="53084184"/>
    <nd ref="281793235"/>
    <nd ref="281793175"/>
    <nd ref="281793236"/>
    <nd ref="281793174"/>
    <nd ref="281793237"/>
    <nd ref="281793176"/>
    <nd ref="281793238"/>
    <nd ref="53108598"/>
    <nd ref="281793239"/>
    <nd ref="281793177"/>
    <nd ref="281793240"/>
    <nd ref="281793178"/>
    <nd ref="281793179"/>
    <nd ref="281793172"/>
    <nd ref="281793169"/>
    <nd ref="53191009"/>
    <tag k="created_by" v="JOSM"/>
    <tag k="highway" v="residential"/>
    <tag k="name" v="South 299th Place"/>
    <tag k="tiger:cfcc" v="A41"/>
    <tag k="tiger:county" v="King, WA"/>
    <tag k="tiger:name_base" v="299th"/>
    <tag k="tiger:name_direction_prefix" v="S"/>
    <tag k="tiger:name_type" v="Pl"/>
    <tag k="tiger:separated" v="no"/>
    <tag k="tiger:source" v="tiger_import_dch_v0.6_20070830"/>
    <tag k="tiger:tlid" v="186654081"/>
    <tag k="tiger:zip_left" v="98092"/>
    <tag k="tiger:zip_right" v="98092"/>
  </way>
  <way id="25834959" version="6" timestamp="2011-02-27T11:35:45Z" uid="9581" user="Lobelt" changeset="7409425">
    <nd ref="12455889"/>
    <nd ref="270110470"/>
    <tag k="bridge" v="yes"/>
    <tag k="highway" v="motorway"/>
    <tag k="layer" v="1"/>
    <tag k="maxspeed" v="no"/>
    <tag k="oneway" v="yes"/>
    <tag k="osmarender:renderRef" v="no"/>
    <tag k="ref" v="A 66"/>
  </way>
  <way id="25834959" version="7" timestamp="2011-08-13T08:02:59Z" uid="39240" user="Seehundeführer" changeset="9002905">
    <nd ref="12455889"/>
    <nd ref="270110470"/>
    <tag k="bridge" v="yes"/>
    <tag k="highway" v="motorway"/>
    <tag k="lanes" v="2"/>
    <tag k="layer" v="1"/>
    <tag k="maxspeed" v="no"/>
    <tag k="oneway" v="yes"/>
    <tag k="osmarender:renderRef" v="no"/>
    <tag k="ref" v="A 66"/>
  </way>
  <way id="25834959" version="8" timestamp="2011-09-01T01:47:58Z" uid="207745" user="NE2" changeset="9181205">
    <nd ref="12455889"/>
    <nd ref="270110470"/>
    <tag k="bridge" v="yes"/>
    <tag k="highway" v="motorway"/>
    <tag k="lanes" v="2"/>
    <tag k="layer" v="1"/>
    <tag k="maxspeed" v="no"/>
    <tag k="oneway" v="yes"/>
    <tag k="ref" v="A 66"/>
  </way>
  <way id="25834959" version="9" timestamp="2012-01-14T22:11:03Z" uid="302852" user="be-ju" changeset="10393068"/>
  <way id="25834960" version="5" timestamp="2011-02-27T11:36:38Z" uid="9581" user="Lobelt" changeset="7409425">
    <nd ref="270110470"/>
    <nd ref="1177016822"/>
    <nd ref="12455897"/>
    <nd ref="1177016891"/>
    <nd ref="419258592"/>
    <nd ref="1177016540"/>
    <nd ref="12455899"/>
    <nd ref="1177016955"/>
    <nd ref="419258594"/>
    <nd ref="1177016768"/>
    <nd ref="12455891"/>
    <nd ref="1177016479"/>
    <nd ref="12455892"/>
    <nd ref="1177016428"/>
    <nd ref="272625228"/>
    <nd ref="1177016377"/>
    <nd ref="24498301"/>
    <nd ref="1177016966"/>
    <nd ref="272625227"/>
    <nd ref="1177016517"/>
    <nd ref="24498297"/>
    <nd ref="1177016442"/>
    <nd ref="419258597"/>
    <nd ref="1177016720"/>
    <nd ref="270110227"/>
    <tag k="highway" v="motorway"/>
    <tag k="maxspeed" v="no"/>
    <tag k="oneway" v="yes"/>
    <tag k="osmarender:renderRef" v="no"/>
    <tag k="ref" v="A 66"/>
  </way>
  <way id="25834960" version="6" timestamp="2011-08-13T08:02:59Z" uid="39240" user="Seehundeführer" changeset="9002905">
    <nd ref="270110470"/>
    <nd ref="1396715575"/>
    <nd ref="1177016822"/>
    <nd ref="12455897"/>
    <nd ref="1177016891"/>
    <nd ref="419258592"/>
    <nd ref="1177016540"/>
    <nd ref="12455899"/>
    <nd ref="1177016955"/>
    <nd ref="419258594"/>
    <nd ref="1177016768"/>
    <nd ref="12455891"/>
    <nd ref="1177016479"/>
    <nd ref="12455892"/>
    <nd ref="1396715571"/>
    <nd ref="1177016428"/>
    <nd ref="272625228"/>
    <nd ref="1177016377"/>
    <nd ref="24498301"/>
    <nd ref="1177016966"/>
    <nd ref="272625227"/>
    <nd ref="1177016517"/>
    <nd ref="24498297"/>
    <nd ref="1177016442"/>
    <nd ref="419258597"/>
    <nd ref="1177016720"/>
    <nd ref="270110227"/>
    <tag k="highway" v="motorway"/>
    <tag k="lanes" v="2"/>
    <tag k="maxspeed" v="no"/>
    <tag k="oneway" v="yes"/>
    <tag k="osmarender:renderRef" v="no"/>
    <tag k="ref" v="A 66"/>
  </way>
  <way id="25834960" version="7" timestamp="2011-09-01T01:48:11Z" uid="207745" user="NE2" changeset="9181205">
    <nd ref="270110470"/>
    <nd ref="1396715575"/>
    <nd ref="1177016822"/>
    <nd ref="12455897"/>
    <nd ref="1177016891"/>
    <nd ref="419258592"/>
    <nd ref="1177016540"/>
    <nd ref="12455899"/>
    <nd ref="1177016955"/>
    <nd ref="419258594"/>
    <nd ref="1177016768"/>
    <nd ref="12455891"/>
    <nd ref="1177016479"/>
    <nd ref="12455892"/>
    <nd ref="1396715571"/>
    <nd ref="1177016428"/>
    <nd ref="272625228"/>
    <nd ref="1177016377"/>
    <nd ref="24498301"/>
    <nd ref="1177016966"/>
    <nd ref="272625227"/>
    <nd ref="1177016517"/>
    <nd ref="24498297"/>
    <nd ref="1177016442"/>
    <nd ref="419258597"/>
    <nd ref="1177016720"/>
    <nd ref="270110227"/>
    <tag k="highway" v="motorway"/>
    <tag k="lanes" v="2"/>
    <tag k="maxspeed" v="no"/>
    <tag k="oneway" v="yes"/>
    <tag k="ref" v="A 66"/>
  </way>
  <way id="25834960" version="8" timestamp="2011-12-07T22:18:10Z" uid="212553" user="ARWIE" changeset="10061598">
    <nd ref="270110470"/>
    <nd ref="1396715575"/>
    <nd ref="1177016822"/>
    <nd ref="12455897"/>
    <nd ref="1177016891"/>
    <nd ref="419258592"/>
    <nd ref="1177016540"/>
    <nd ref="12455899"/>
    <nd ref="1177016955"/>
    <nd ref="419258594"/>
    <nd ref="1177016768"/>
    <nd ref="12455891"/>
    <nd ref="1177016479"/>
    <nd ref="12455892"/>
    <nd ref="1396715571"/>
    <nd ref="1177016428"/>
    <nd ref="272625228"/>
    <nd ref="1535841755"/>
    <nd ref="1177016377"/>
    <nd ref="1535841749"/>
    <nd ref="24498301"/>
    <nd ref="1535841744"/>
    <nd ref="1177016966"/>
    <nd ref="1535841739"/>
    <nd ref="272625227"/>
    <nd ref="1535841718"/>
    <nd ref="1177016517"/>
    <nd ref="24498297"/>
    <nd ref="1177016442"/>
    <nd ref="419258597"/>
    <nd ref="1177016720"/>
    <nd ref="270110227"/>
    <tag k="highway" v="motorway"/>
    <tag k="lanes" v="2"/>
    <tag k="maxspeed" v="no"/>
    <tag k="oneway" v="yes"/>
    <tag k="ref" v="A 66"/>
  </way>
  <way id="25834960" version="9" timestamp="2012-01-14T18:42:46Z" uid="302852" user="be-ju" changeset="10390943"/>
  <way id="25834961" version="6" timestamp="2011-02-27T11:36:12Z" uid="9581" user="Lobelt" changeset="7409425">
    <nd ref="272625261"/>
    <nd ref="272625263"/>
    <tag k="bridge" v="yes"/>
    <tag k="highway" v="motorway"/>
    <tag k="layer" v="1"/>
    <tag k="maxspeed" v="no"/>
    <tag k="oneway" v="yes"/>
    <tag k="ref" v="A 66"/>
  </way>
  <way id="25834961" version="7" timestamp="2012-01-14T22:11:03Z" uid="302852" user="be-ju" changeset="10393068"/>
  <way id="25834962" version="7" timestamp="2011-02-27T11:35:07Z" uid="9581" user="Lobelt" changeset="7409425">
    <nd ref="272625263"/>
    <nd ref="1177016996"/>
    <nd ref="1177016847"/>
    <nd ref="272625265"/>
    <nd ref="272625267"/>
    <nd ref="419258631"/>
    <tag k="highway" v="motorway"/>
    <tag k="maxspeed" v="no"/>
    <tag k="oneway" v="yes"/>
    <tag k="ref" v="A 66"/>
  </way>
  <way id="25834962" version="8" timestamp="2011-08-13T08:03:03Z" uid="39240" user="Seehundeführer" changeset="9002905">
    <nd ref="272625263"/>
    <nd ref="1177016996"/>
    <nd ref="1177016847"/>
    <nd ref="272625265"/>
    <nd ref="272625267"/>
    <nd ref="1396715577"/>
    <nd ref="419258631"/>
    <tag k="highway" v="motorway"/>
    <tag k="maxspeed" v="no"/>
    <tag k="oneway" v="yes"/>
    <tag k="ref" v="A 66"/>
  </way>
  <way id="25834962" version="9" timestamp="2012-01-14T22:11:02Z" uid="302852" user="be-ju" changeset="10393068"/>
  <way id="25834000" version="6" timestamp="2012-09-05T14:20:32Z" uid="39504" user="malenki" changeset="12996741">
    <nd ref="281786001"/>
    <nd ref="281785598"/>
    <nd ref="281785804"/>
    <nd ref="281785600"/>
    <nd ref="281785805"/>
    <nd ref="281785806"/>
    <nd ref="281785807"/>
    <nd ref="281785604"/>
    <nd ref="281785808"/>
    <nd ref="281785606"/>
    <nd ref="281785607"/>
    <nd ref="281785608"/>
    <nd ref="281785809"/>
    <nd ref="281785610"/>
    <nd ref="281785810"/>
    <nd ref="281785612"/>
    <nd ref="281785613"/>
    <nd ref="281779700"/>
    <tag k="boat" v="yes"/>
    <tag k="layer" v="-1"/>
    <tag k="name" v="Narew"/>
    <tag k="name:be" v="Нараў"/>
    <tag k="name:lt" v="Naura"/>
    <tag k="waterway" v="river"/>
    <tag k="wikipedia:pl" v="Narew"/>
  </way>
  <way id="25834009" version="4" timestamp="2012-09-05T14:20:37Z" uid="39504" user="malenki" changeset="12996741">
    <nd ref="281785977"/>
    <nd ref="281785978"/>
    <nd ref="281785979"/>
    <nd ref="281785980"/>
    <nd ref="281785982"/>
    <nd ref="281785983"/>
    <nd ref="281785984"/>
    <nd ref="281785985"/>
    <nd ref="281785986"/>
    <nd ref="281785987"/>
    <nd ref="281785988"/>
    <nd ref="281785989"/>
    <nd ref="281785990"/>
    <nd ref="281785991"/>
    <nd ref="281785992"/>
    <nd ref="281785993"/>
    <nd ref="281785994"/>
    <nd ref="281785995"/>
    <nd ref="281785996"/>
    <nd ref="281785997"/>
    <nd ref="281785998"/>
    <nd ref="281786000"/>
    <nd ref="281786001"/>
    <tag k="boat" v="yes"/>
    <tag k="layer" v="-1"/>
    <tag k="name" v="Narew"/>
    <tag k="name:be" v="Нараў"/>
    <tag k="name:lt" v="Naura"/>
    <tag k="waterway" v="river"/>
    <tag k="wikipedia:pl" v="Narew"/>
  </way>
  <way id="25834010" version="6" timestamp="2012-09-05T14:21:00Z" uid="39504" user="malenki" changeset="12996741">
    <nd ref="281786019"/>
    <nd ref="281786020"/>
    <nd ref="281786021"/>
    <nd ref="281786197"/>
    <nd ref="281786023"/>
    <nd ref="281786198"/>
    <nd ref="281786200"/>
    <nd ref="281786163"/>
    <tag k="boat" v="yes"/>
    <tag k="layer" v="-1"/>
    <tag k="name" v="Narew"/>
    <tag k="name:be" v="Нараў"/>
    <tag k="name:lt" v="Naura"/>
    <tag k="waterway" v="river"/>
    <tag k="wikipedia:pl" v="Narew"/>
  </way>
  <way id="25834013" version="5" timestamp="2012-09-05T14:20:59Z" uid="39504" user="malenki" changeset="12996741">
    <nd ref="281786163"/>
    <nd ref="281786044"/>
    <nd ref="281786043"/>
    <nd ref="281786042"/>
    <nd ref="281786162"/>
    <nd ref="281786040"/>
    <nd ref="281786161"/>
    <nd ref="281786078"/>
    <tag k="boat" v="yes"/>
    <tag k="layer" v="-1"/>
    <tag k="name" v="Narew"/>
    <tag k="name:be" v="Нараў"/>
    <tag k="name:lt" v="Naura"/>
    <tag k="waterway" v="river"/>
    <tag k="wikipedia:pl" v="Narew"/>
  </way>
  <way id="25834017" version="5" timestamp="2012-09-05T14:21:01Z" uid="39504" user="malenki" changeset="12996741">
    <nd ref="281786078"/>
    <nd ref="281786079"/>
    <nd ref="281786080"/>
    <nd ref="281786082"/>
    <nd ref="281786083"/>
    <nd ref="281786084"/>
    <nd ref="281786085"/>
    <nd ref="281786087"/>
    <nd ref="281785977"/>
    <tag k="boat" v="yes"/>
    <tag k="layer" v="-1"/>
    <tag k="name" v="Narew"/>
    <tag k="name:be" v="Нараў"/>
    <tag k="name:lt" v="Naura"/>
    <tag k="waterway" v="river"/>
    <tag k="wikipedia:pl" v="Narew"/>
  </way>
  <way id="25834040" version="4" timestamp="2012-09-05T14:20:37Z" uid="39504" user="malenki" changeset="12996741">
    <nd ref="281786331"/>
    <nd ref="281786332"/>
    <nd ref="281786333"/>
    <nd ref="281786334"/>
    <nd ref="281786335"/>
    <nd ref="281786336"/>
    <nd ref="281786337"/>
    <nd ref="281786338"/>
    <nd ref="281786339"/>
    <nd ref="281786340"/>
    <nd ref="281786341"/>
    <nd ref="281786342"/>
    <nd ref="281786343"/>
    <nd ref="281786344"/>
    <nd ref="281786345"/>
    <nd ref="281786346"/>
    <nd ref="281786347"/>
    <nd ref="281786348"/>
    <nd ref="281786349"/>
    <nd ref="281786350"/>
    <nd ref="281786351"/>
    <nd ref="281786352"/>
    <nd ref="281786019"/>
    <tag k="boat" v="yes"/>
    <tag k="layer" v="-1"/>
    <tag k="name" v="Narew"/>
    <tag k="name:be" v="Нараў"/>
    <tag k="name:lt" v="Naura"/>
    <tag k="waterway" v="river"/>
    <tag k="wikipedia:pl" v="Narew"/>
  </way>
  <way id="25834481" version="12" timestamp="2012-07-18T13:13:49Z" uid="722137" user="OSMF Redaction Account" changeset="12282839">
    <nd ref="27527902"/>
    <nd ref="27527903"/>
    <nd ref="21302158"/>
    <nd ref="27527904"/>
    <nd ref="27527905"/>
    <nd ref="21302159"/>
    <nd ref="365587447"/>
    <tag k="bridge" v="viaduct"/>
    <tag k="electrified" v="rail"/>
    <tag k="frequency" v="0"/>
    <tag k="gauge" v="1435"/>
    <tag k="layer" v="1"/>
    <tag k="railway" v="rail"/>
    <tag k="voltage" v="750"/>
  </way>
  <way id="25834571" version="14" timestamp="2012-04-19T02:44:46Z" uid="447903" user="Glassman" changeset="11350164"/>
  <way id="25834622" version="7" timestamp="2012-04-19T03:04:31Z" uid="447903" user="Glassman" changeset="11350211"/>
  <way id="25834850" version="6" timestamp="2012-05-21T06:38:23Z" uid="414856" user="tempi" changeset="11658469"/>
  <way id="25834855" version="9" timestamp="2012-05-21T04:57:34Z" uid="414856" user="tempi" changeset="11658276">
    <nd ref="281792350"/>
    <nd ref="281792126"/>
    <nd ref="281792351"/>
    <nd ref="281792353"/>
    <nd ref="1760578037"/>
    <nd ref="1760578073"/>
    <nd ref="281792354"/>
    <nd ref="1760578120"/>
    <nd ref="1760578119"/>
    <nd ref="281792355"/>
    <nd ref="281792356"/>
    <nd ref="281792357"/>
    <nd ref="281792358"/>
    <nd ref="281792350"/>
    <tag k="addr:housenumber" v="3"/>
    <tag k="addr:postcode" v="26736"/>
    <tag k="addr:street" v="Erbsenbinderstraße"/>
    <tag k="name" v="Camping am Deich - Nordsee"/>
    <tag k="note" v="exact borders guessed from one way marked..."/>
    <tag k="opening_hours" v="Mo-Su 08:00-13:00,15:00-18:00"/>
    <tag k="phone" v="04923-525"/>
    <tag k="tourism" v="camp_site"/>
    <tag k="website" v="http://www.camping-am-deich.de"/>
  </way>
  <way id="25834923" version="7" timestamp="2012-05-19T23:00:10Z" uid="37197" user="kernl" changeset="11647234">
    <nd ref="281793098"/>
    <nd ref="376033507"/>
    <nd ref="281793099"/>
    <nd ref="440809050"/>
    <nd ref="281793100"/>
    <nd ref="281793101"/>
    <nd ref="281793102"/>
    <tag k="bicycle" v="yes"/>
    <tag k="foot" v="yes"/>
    <tag k="highway" v="track"/>
    <tag k="motorcar" v="no"/>
    <tag k="tracktype" v="grade2"/>
  </way>
</osm>
