<?xml version='1.0' encoding='UTF-8'?>
<osm version="0.6" generator="libosmium/2.20.0">
  <way id="25929009" version="2" timestamp="2009-10-07T16:59:18Z" uid="86259" user="hasse_osm_korinthenkacker" changeset="2773624">
    <nd ref="25641293"/>
    <nd ref="25641308"/>
    <nd ref="25641326"/>
    <tag k="highway" v="residential"/>
    <tag k="name" v="Zittauer Straße"/>
    <tag k="railway" v="tram"/>
  </way>
  <way id="25929009" version="3" timestamp="2011-11-03T15:07:51Z" uid="42429" user="FK270673" changeset="9730879">
    <nd ref="25641293"/>
    <nd ref="25641308"/>
    <nd ref="25641326"/>
    <tag k="electrified" v="contact_line"/>
    <tag k="frequency" v="0"/>
    <tag k="gauge" v="1000"/>
    <tag k="highway" v="residential"/>
    <tag k="name" v="Zittauer Straße"/>
    <tag k="railway" v="tram"/>
  </way>
  <way id="25929045" version="2" timestamp="2008-08-07T19:58:28Z" uid="6975" user="ulfl" changeset="123329">
    <nd ref="282227359"/>
    <nd ref="282839036"/>
    <nd ref="282227618"/>
    <nd ref="282839038"/>
    <nd ref="282839033"/>
    <nd ref="282227361"/>
    <nd ref="282839034"/>
    <nd ref="282230372"/>
    <nd ref="282839035"/>
    <nd ref="282227359"/>
    <tag k="highway" v="residential"/>
    <tag k="oneway" v="yes"/>
  </way>
  <way id="25929045" version="3" timestamp="2009-07-16T15:07:50Z" uid="28024" user="dbisping" changeset="1845598">
    <nd ref="282227359"/>
    <nd ref="442609174"/>
    <nd ref="442609176"/>
    <nd ref="282839036"/>
    <nd ref="282227618"/>
    <nd ref="282839038"/>
    <nd ref="442609179"/>
    <nd ref="282839033"/>
    <nd ref="442609180"/>
    <nd ref="442609181"/>
    <nd ref="282227361"/>
    <nd ref="442609182"/>
    <nd ref="282839034"/>
    <nd ref="442609184"/>
    <nd ref="282230372"/>
    <nd ref="442609186"/>
    <nd ref="282839035"/>
    <nd ref="442609189"/>
    <nd ref="442609191"/>
    <nd ref="282227359"/>
    <tag k="highway" v="residential"/>
    <tag k="oneway" v="yes"/>
  </way>
  <way id="25929060" version="2" timestamp="2008-09-14T14:34:46Z" uid="6975" user="ulfl" changeset="640534">
    <nd ref="244886895"/>
    <nd ref="282839073"/>
    <tag k="barrier" v="bollard"/>
    <tag k="highway" v="pedestrian"/>
  </way>
  <way id="25929100" version="9" timestamp="2010-01-29T07:10:54Z" uid="27600" user="Islanit" changeset="3741156">
    <nd ref="282839365"/>
    <nd ref="282839268"/>
    <nd ref="25677440"/>
    <nd ref="252860139"/>
    <nd ref="25677439"/>
    <nd ref="252860140"/>
    <nd ref="252860141"/>
    <nd ref="25677441"/>
    <nd ref="252860142"/>
    <nd ref="25677442"/>
    <nd ref="288488697"/>
    <nd ref="282652384"/>
    <nd ref="288488702"/>
    <nd ref="288488708"/>
    <nd ref="282652385"/>
    <nd ref="25677443"/>
    <nd ref="282839263"/>
    <nd ref="282839266"/>
    <nd ref="25677444"/>
    <nd ref="25677445"/>
    <tag k="foot" v="yes"/>
    <tag k="highway" v="cycleway"/>
    <tag k="name" v="Kirchwerder Marschbahndamm"/>
    <tag k="postal_code" v="21037"/>
  </way>
  <way id="25929100" version="10" timestamp="2010-02-04T07:24:55Z" uid="27600" user="Islanit" changeset="3788340">
    <nd ref="282839365"/>
    <nd ref="282839268"/>
    <nd ref="25677440"/>
    <nd ref="252860139"/>
    <nd ref="25677439"/>
    <nd ref="252860140"/>
    <nd ref="252860141"/>
    <nd ref="25677441"/>
    <nd ref="252860142"/>
    <nd ref="25677442"/>
    <nd ref="288488697"/>
    <nd ref="282652384"/>
    <nd ref="288488702"/>
    <nd ref="288488708"/>
    <nd ref="282652385"/>
    <nd ref="628597187"/>
    <nd ref="628597186"/>
    <nd ref="25677443"/>
    <nd ref="282839263"/>
    <nd ref="282839266"/>
    <nd ref="25677444"/>
    <nd ref="25677445"/>
    <tag k="foot" v="yes"/>
    <tag k="highway" v="cycleway"/>
    <tag k="name" v="Kirchwerder Marschbahndamm"/>
    <tag k="postal_code" v="21037"/>
  </way>
  <way id="25929224" version="2" timestamp="2008-08-11T15:54:06Z" uid="3451" user="sascha_silbe" changeset="188073">
    <nd ref="282841924"/>
    <nd ref="156908076"/>
    <tag k="bridge" v="yes"/>
    <tag k="created_by" v="Potlatch 0.9c"/>
    <tag k="highway" v="motorway"/>
    <tag k="int_ref" v="E 50"/>
    <tag k="layer" v="1"/>
    <tag k="maxspeed" v="120"/>
    <tag k="oneway" v="yes"/>
    <tag k="ref" v="A 6"/>
  </way>
  <way id="25929224" version="3" timestamp="2010-11-28T19:18:35Z" uid="30077" user="ChristianW" changeset="6481235">
    <nd ref="282841924"/>
    <nd ref="156908076"/>
    <tag k="bridge" v="yes"/>
    <tag k="highway" v="motorway"/>
    <tag k="int_ref" v="E 50"/>
    <tag k="layer" v="1"/>
    <tag k="maxspeed" v="120"/>
    <tag k="oneway" v="yes"/>
    <tag k="ref" v="A 6"/>
    <tag k="reg_name" v="Via Carolina"/>
    <tag k="wikipedia:reg_name" v="de:Via Carolina"/>
  </way>
  <way id="25929224" version="4" timestamp="2010-11-29T16:19:15Z" uid="30077" user="ChristianW" changeset="6487695">
    <nd ref="282841924"/>
    <nd ref="156908076"/>
    <tag k="bridge" v="yes"/>
    <tag k="highway" v="motorway"/>
    <tag k="int_ref" v="E 50"/>
    <tag k="layer" v="1"/>
    <tag k="maxspeed" v="120"/>
    <tag k="note:name" v="Der reg_name, sowie ggf. der loc_name sind dem zugehörigen Wikipediaartikel entnommen."/>
    <tag k="oneway" v="yes"/>
    <tag k="ref" v="A 6"/>
    <tag k="reg_name" v="Via Carolina"/>
    <tag k="wikipedia:reg_name" v="de:Via Carolina"/>
  </way>
  <way id="25929224" version="5" timestamp="2010-12-31T17:24:53Z" uid="370437" user="bjoernchr74" changeset="6821760">
    <nd ref="282841924"/>
    <nd ref="156908076"/>
    <tag k="bridge" v="yes"/>
    <tag k="highway" v="motorway"/>
    <tag k="int_ref" v="E 50"/>
    <tag k="layer" v="1"/>
    <tag k="maxspeed" v="120"/>
    <tag k="note:name" v="Der reg_name, sowie ggf. der loc_name sind dem zugehörigen Wikipediaartikel entnommen."/>
    <tag k="oneway" v="yes"/>
    <tag k="ref" v="A 6"/>
    <tag k="reg_name" v="Via Carolina"/>
    <tag k="source:maxspeed" v="sign"/>
    <tag k="wikipedia:reg_name" v="de:Via Carolina"/>
  </way>
  <way id="25929224" version="6" timestamp="2011-06-11T12:24:51Z" uid="30077" user="ChristianW" changeset="8405334">
    <nd ref="282841924"/>
    <nd ref="156908076"/>
    <tag k="bridge" v="yes"/>
    <tag k="highway" v="motorway"/>
    <tag k="int_ref" v="E 50"/>
    <tag k="layer" v="1"/>
    <tag k="maxspeed" v="120"/>
    <tag k="oneway" v="yes"/>
    <tag k="ref" v="A 6"/>
    <tag k="source:maxspeed" v="sign"/>
    <tag k="wikipedia:reg_name" v="de:Via Carolina"/>
  </way>
  <way id="25929224" version="7" timestamp="2011-09-11T15:26:42Z" uid="30077" user="ChristianW" changeset="9271742">
    <nd ref="282841924"/>
    <nd ref="156908076"/>
    <tag k="bridge" v="yes"/>
    <tag k="highway" v="motorway"/>
    <tag k="int_ref" v="E 50"/>
    <tag k="layer" v="1"/>
    <tag k="maxspeed" v="120"/>
    <tag k="oneway" v="yes"/>
    <tag k="ref" v="A 6"/>
    <tag k="source:maxspeed" v="sign"/>
    <tag k="surface" v="asphalt"/>
    <tag k="wikipedia:reg_name" v="de:Via Carolina"/>
  </way>
  <way id="25929224" version="8" timestamp="2012-01-03T13:08:09Z" uid="136321" user="Teddy73" changeset="10280218"/>
  <way id="25929225" version="5" timestamp="2008-08-11T15:54:06Z" uid="3451" user="sascha_silbe" changeset="188073">
    <nd ref="156908076"/>
    <nd ref="502661"/>
    <nd ref="502662"/>
    <nd ref="156908108"/>
    <nd ref="287037660"/>
    <nd ref="502664"/>
    <nd ref="287037662"/>
    <nd ref="502665"/>
    <nd ref="502666"/>
    <nd ref="502667"/>
    <nd ref="502668"/>
    <nd ref="502669"/>
    <nd ref="502670"/>
    <nd ref="502671"/>
    <nd ref="264933113"/>
    <nd ref="282843217"/>
    <nd ref="264932910"/>
    <nd ref="502675"/>
    <nd ref="282843219"/>
    <nd ref="264932912"/>
    <nd ref="502676"/>
    <nd ref="502677"/>
    <nd ref="502678"/>
    <nd ref="267668893"/>
    <tag k="created_by" v="Potlatch 0.9c"/>
    <tag k="highway" v="motorway"/>
    <tag k="int_ref" v="E 50"/>
    <tag k="maxspeed" v="120"/>
    <tag k="oneway" v="yes"/>
    <tag k="ref" v="A 6"/>
  </way>
  <way id="25929225" version="6" timestamp="2008-08-18T09:17:29Z" uid="44329" user="aikon" changeset="304350">
    <nd ref="156908076"/>
    <nd ref="156908108"/>
    <nd ref="287037660"/>
    <nd ref="502664"/>
    <nd ref="287037662"/>
    <nd ref="502666"/>
    <nd ref="502667"/>
    <nd ref="502668"/>
    <nd ref="502669"/>
    <nd ref="502670"/>
    <nd ref="502671"/>
    <nd ref="264933113"/>
    <nd ref="282843217"/>
    <nd ref="264932910"/>
    <nd ref="502675"/>
    <nd ref="282843219"/>
    <nd ref="264932912"/>
    <nd ref="502676"/>
    <nd ref="502677"/>
    <nd ref="502678"/>
    <nd ref="267668893"/>
    <tag k="created_by" v="Potlatch 0.9c"/>
    <tag k="highway" v="motorway"/>
    <tag k="int_ref" v="E 50"/>
    <tag k="maxspeed" v="120"/>
    <tag k="oneway" v="yes"/>
    <tag k="ref" v="A 6"/>
  </way>
  <way id="25929225" version="7" timestamp="2009-04-24T02:43:42Z" uid="23785" user="Simon Kokolakis" changeset="922290">
    <nd ref="156908076"/>
    <nd ref="156908108"/>
    <nd ref="287037660"/>
    <nd ref="502664"/>
    <nd ref="287037662"/>
    <nd ref="502666"/>
    <nd ref="502667"/>
    <nd ref="502668"/>
    <nd ref="502669"/>
    <nd ref="502670"/>
    <nd ref="502671"/>
    <nd ref="264933113"/>
    <nd ref="282843217"/>
    <nd ref="264932910"/>
    <nd ref="282843219"/>
    <nd ref="502676"/>
    <nd ref="502677"/>
    <nd ref="502678"/>
    <nd ref="267668893"/>
    <tag k="created_by" v="Potlatch 0.9c"/>
    <tag k="highway" v="motorway"/>
    <tag k="int_ref" v="E 50"/>
    <tag k="maxspeed" v="120"/>
    <tag k="oneway" v="yes"/>
    <tag k="ref" v="A 6"/>
  </way>
  <way id="25929225" version="8" timestamp="2009-04-24T02:45:33Z" uid="23785" user="Simon Kokolakis" changeset="922290">
    <nd ref="156908076"/>
    <nd ref="156908108"/>
    <nd ref="287037660"/>
    <nd ref="287037662"/>
    <nd ref="502666"/>
    <nd ref="502667"/>
    <nd ref="502668"/>
    <nd ref="502669"/>
    <nd ref="502670"/>
    <nd ref="502671"/>
    <nd ref="264933113"/>
    <nd ref="282843217"/>
    <nd ref="264932910"/>
    <nd ref="282843219"/>
    <nd ref="502676"/>
    <nd ref="502677"/>
    <nd ref="502678"/>
    <nd ref="267668893"/>
    <tag k="created_by" v="Potlatch 0.9c"/>
    <tag k="highway" v="motorway"/>
    <tag k="int_ref" v="E 50"/>
    <tag k="maxspeed" v="120"/>
    <tag k="oneway" v="yes"/>
    <tag k="ref" v="A 6"/>
  </way>
  <way id="25929225" version="9" timestamp="2009-10-07T14:56:40Z" uid="165061" user="keinname" changeset="2772382">
    <nd ref="156908076"/>
    <nd ref="156908108"/>
    <nd ref="287037660"/>
    <nd ref="287037662"/>
    <nd ref="502666"/>
    <nd ref="502667"/>
    <nd ref="502668"/>
    <nd ref="502669"/>
    <nd ref="502670"/>
    <nd ref="502671"/>
    <nd ref="264933113"/>
    <nd ref="282843217"/>
    <nd ref="264932910"/>
    <nd ref="282843219"/>
    <nd ref="524283765"/>
    <nd ref="502676"/>
    <nd ref="502677"/>
    <nd ref="502678"/>
    <nd ref="267668893"/>
    <tag k="highway" v="motorway"/>
    <tag k="int_ref" v="E 50"/>
    <tag k="maxspeed" v="120"/>
    <tag k="oneway" v="yes"/>
    <tag k="ref" v="A 6"/>
  </way>
  <way id="25929225" version="10" timestamp="2009-11-14T22:47:56Z" uid="165061" user="keinname" changeset="3117861">
    <nd ref="156908076"/>
    <nd ref="156908108"/>
    <nd ref="287037660"/>
    <nd ref="287037662"/>
    <nd ref="502666"/>
    <nd ref="502667"/>
    <nd ref="502668"/>
    <nd ref="502669"/>
    <nd ref="502670"/>
    <nd ref="502671"/>
    <nd ref="264933113"/>
    <nd ref="282843217"/>
    <nd ref="264932910"/>
    <nd ref="282843219"/>
    <nd ref="564295979"/>
    <nd ref="524283765"/>
    <nd ref="502676"/>
    <nd ref="502677"/>
    <nd ref="502678"/>
    <nd ref="267668893"/>
    <tag k="highway" v="motorway"/>
    <tag k="int_ref" v="E 50"/>
    <tag k="maxspeed" v="120"/>
    <tag k="oneway" v="yes"/>
    <tag k="ref" v="A 6"/>
  </way>
  <way id="25929225" version="11" timestamp="2010-11-28T19:23:45Z" uid="30077" user="ChristianW" changeset="6481235">
    <nd ref="156908076"/>
    <nd ref="156908108"/>
    <nd ref="287037660"/>
    <nd ref="287037662"/>
    <nd ref="502666"/>
    <nd ref="502667"/>
    <nd ref="502668"/>
    <nd ref="502669"/>
    <nd ref="502670"/>
    <nd ref="502671"/>
    <nd ref="264933113"/>
    <nd ref="282843217"/>
    <nd ref="264932910"/>
    <nd ref="282843219"/>
    <nd ref="564295979"/>
    <nd ref="524283765"/>
    <nd ref="502676"/>
    <nd ref="502677"/>
    <nd ref="502678"/>
    <nd ref="267668893"/>
    <tag k="highway" v="motorway"/>
    <tag k="int_ref" v="E 50"/>
    <tag k="maxspeed" v="120"/>
    <tag k="oneway" v="yes"/>
    <tag k="ref" v="A 6"/>
    <tag k="reg_name" v="Via Carolina"/>
    <tag k="wikipedia:reg_name" v="de:Via Carolina"/>
  </way>
  <way id="25929225" version="12" timestamp="2010-11-29T16:38:28Z" uid="30077" user="ChristianW" changeset="6487695">
    <nd ref="156908076"/>
    <nd ref="156908108"/>
    <nd ref="287037660"/>
    <nd ref="287037662"/>
    <nd ref="502666"/>
    <nd ref="502667"/>
    <nd ref="502668"/>
    <nd ref="502669"/>
    <nd ref="502670"/>
    <nd ref="502671"/>
    <nd ref="264933113"/>
    <nd ref="282843217"/>
    <nd ref="264932910"/>
    <nd ref="282843219"/>
    <nd ref="564295979"/>
    <nd ref="524283765"/>
    <nd ref="502676"/>
    <nd ref="502677"/>
    <nd ref="502678"/>
    <nd ref="267668893"/>
    <tag k="highway" v="motorway"/>
    <tag k="int_ref" v="E 50"/>
    <tag k="maxspeed" v="120"/>
    <tag k="note:name" v="Der reg_name, sowie ggf. der loc_name sind dem zugehörigen Wikipediaartikel entnommen."/>
    <tag k="oneway" v="yes"/>
    <tag k="ref" v="A 6"/>
    <tag k="reg_name" v="Via Carolina"/>
    <tag k="wikipedia:reg_name" v="de:Via Carolina"/>
  </way>
  <way id="25929225" version="13" timestamp="2010-12-31T17:27:15Z" uid="370437" user="bjoernchr74" changeset="6821760">
    <nd ref="156908076"/>
    <nd ref="156908108"/>
    <nd ref="287037660"/>
    <nd ref="287037662"/>
    <nd ref="502666"/>
    <nd ref="502667"/>
    <nd ref="502668"/>
    <nd ref="502669"/>
    <nd ref="502670"/>
    <nd ref="502671"/>
    <nd ref="264933113"/>
    <nd ref="282843217"/>
    <nd ref="264932910"/>
    <nd ref="282843219"/>
    <nd ref="564295979"/>
    <nd ref="524283765"/>
    <nd ref="502676"/>
    <nd ref="502677"/>
    <nd ref="502678"/>
    <nd ref="267668893"/>
    <tag k="highway" v="motorway"/>
    <tag k="int_ref" v="E 50"/>
    <tag k="maxspeed" v="120"/>
    <tag k="note:name" v="Der reg_name, sowie ggf. der loc_name sind dem zugehörigen Wikipediaartikel entnommen."/>
    <tag k="oneway" v="yes"/>
    <tag k="ref" v="A 6"/>
    <tag k="reg_name" v="Via Carolina"/>
    <tag k="source:maxspeed" v="sign"/>
    <tag k="wikipedia:reg_name" v="de:Via Carolina"/>
  </way>
  <way id="25929225" version="14" timestamp="2011-06-11T12:21:46Z" uid="30077" user="ChristianW" changeset="8405334">
    <nd ref="156908076"/>
    <nd ref="156908108"/>
    <nd ref="287037660"/>
    <nd ref="287037662"/>
    <nd ref="502666"/>
    <nd ref="502667"/>
    <nd ref="502668"/>
    <nd ref="502669"/>
    <nd ref="502670"/>
    <nd ref="502671"/>
    <nd ref="264933113"/>
    <nd ref="282843217"/>
    <nd ref="264932910"/>
    <nd ref="282843219"/>
    <nd ref="564295979"/>
    <nd ref="524283765"/>
    <nd ref="502676"/>
    <nd ref="502677"/>
    <nd ref="502678"/>
    <nd ref="267668893"/>
    <tag k="highway" v="motorway"/>
    <tag k="int_ref" v="E 50"/>
    <tag k="maxspeed" v="120"/>
    <tag k="oneway" v="yes"/>
    <tag k="ref" v="A 6"/>
    <tag k="source:maxspeed" v="sign"/>
    <tag k="wikipedia:reg_name" v="de:Via Carolina"/>
  </way>
  <way id="25929225" version="15" timestamp="2011-09-11T15:28:04Z" uid="30077" user="ChristianW" changeset="9271742">
    <nd ref="156908076"/>
    <nd ref="156908108"/>
    <nd ref="287037660"/>
    <nd ref="287037662"/>
    <nd ref="502666"/>
    <nd ref="502667"/>
    <nd ref="502668"/>
    <nd ref="502669"/>
    <nd ref="502670"/>
    <nd ref="502671"/>
    <nd ref="264933113"/>
    <nd ref="282843217"/>
    <nd ref="264932910"/>
    <nd ref="282843219"/>
    <nd ref="564295979"/>
    <nd ref="524283765"/>
    <nd ref="502676"/>
    <nd ref="502677"/>
    <nd ref="502678"/>
    <nd ref="267668893"/>
    <tag k="highway" v="motorway"/>
    <tag k="int_ref" v="E 50"/>
    <tag k="maxspeed" v="120"/>
    <tag k="oneway" v="yes"/>
    <tag k="ref" v="A 6"/>
    <tag k="source:maxspeed" v="sign"/>
    <tag k="surface" v="asphalt"/>
    <tag k="wikipedia:reg_name" v="de:Via Carolina"/>
  </way>
  <way id="25929225" version="16" timestamp="2011-10-16T21:19:16Z" uid="165061" user="keinname" changeset="9577254">
    <nd ref="156908076"/>
    <nd ref="156908108"/>
    <nd ref="287037660"/>
    <nd ref="287037662"/>
    <nd ref="502666"/>
    <nd ref="502667"/>
    <nd ref="502668"/>
    <nd ref="502669"/>
    <nd ref="1469992645"/>
    <nd ref="1469992444"/>
    <nd ref="1469992404"/>
    <nd ref="502670"/>
    <nd ref="502671"/>
    <nd ref="264933113"/>
    <nd ref="1469992313"/>
    <nd ref="1469992273"/>
    <nd ref="282843217"/>
    <nd ref="1469991941"/>
    <nd ref="264932910"/>
    <nd ref="1469991872"/>
    <nd ref="282843219"/>
    <nd ref="564295979"/>
    <nd ref="524283765"/>
    <nd ref="1469991547"/>
    <nd ref="502676"/>
    <nd ref="1469991535"/>
    <nd ref="502677"/>
    <nd ref="502678"/>
    <nd ref="267668893"/>
    <tag k="highway" v="motorway"/>
    <tag k="int_ref" v="E 50"/>
    <tag k="maxspeed" v="120"/>
    <tag k="oneway" v="yes"/>
    <tag k="ref" v="A 6"/>
    <tag k="source" v="HiRes aerial imagery"/>
    <tag k="source:maxspeed" v="sign"/>
    <tag k="surface" v="asphalt"/>
    <tag k="wikipedia:reg_name" v="de:Via Carolina"/>
  </way>
  <way id="25929225" version="17" timestamp="2012-01-03T12:38:33Z" uid="136321" user="Teddy73" changeset="10280218"/>
  <way id="25929226" version="6" timestamp="2010-05-01T20:28:35Z" uid="9581" user="Lobelt" changeset="4579082">
    <nd ref="282841926"/>
    <nd ref="502773"/>
    <nd ref="502774"/>
    <nd ref="382803337"/>
    <nd ref="502775"/>
    <nd ref="289029907"/>
    <tag k="highway" v="motorway"/>
    <tag k="int_ref" v="E 50"/>
    <tag k="oneway" v="yes"/>
    <tag k="ref" v="A 6"/>
  </way>
  <way id="25929226" version="7" timestamp="2010-07-25T11:41:00Z" uid="183436" user="mtb" changeset="5311080">
    <nd ref="282841926"/>
    <nd ref="502773"/>
    <nd ref="502774"/>
    <nd ref="382803337"/>
    <nd ref="502775"/>
    <nd ref="289029907"/>
    <tag k="highway" v="motorway"/>
    <tag k="int_ref" v="E 50"/>
    <tag k="maxspeed" v="120"/>
    <tag k="oneway" v="yes"/>
    <tag k="ref" v="A 6"/>
  </way>
  <way id="25929226" version="8" timestamp="2010-11-28T19:29:42Z" uid="30077" user="ChristianW" changeset="6481235">
    <nd ref="282841926"/>
    <nd ref="502773"/>
    <nd ref="502774"/>
    <nd ref="382803337"/>
    <nd ref="502775"/>
    <nd ref="289029907"/>
    <tag k="highway" v="motorway"/>
    <tag k="int_ref" v="E 50"/>
    <tag k="maxspeed" v="120"/>
    <tag k="oneway" v="yes"/>
    <tag k="ref" v="A 6"/>
    <tag k="reg_name" v="Via Carolina"/>
    <tag k="wikipedia:reg_name" v="de:Via Carolina"/>
  </way>
  <way id="25929226" version="9" timestamp="2010-11-29T16:43:02Z" uid="30077" user="ChristianW" changeset="6487695">
    <nd ref="282841926"/>
    <nd ref="502773"/>
    <nd ref="502774"/>
    <nd ref="382803337"/>
    <nd ref="502775"/>
    <nd ref="289029907"/>
    <tag k="highway" v="motorway"/>
    <tag k="int_ref" v="E 50"/>
    <tag k="maxspeed" v="120"/>
    <tag k="note:name" v="Der reg_name, sowie ggf. der loc_name sind dem zugehörigen Wikipediaartikel entnommen."/>
    <tag k="oneway" v="yes"/>
    <tag k="ref" v="A 6"/>
    <tag k="reg_name" v="Via Carolina"/>
    <tag k="wikipedia:reg_name" v="de:Via Carolina"/>
  </way>
  <way id="25929226" version="10" timestamp="2011-06-11T12:25:40Z" uid="30077" user="ChristianW" changeset="8405334">
    <nd ref="282841926"/>
    <nd ref="502773"/>
    <nd ref="502774"/>
    <nd ref="382803337"/>
    <nd ref="502775"/>
    <nd ref="289029907"/>
    <tag k="highway" v="motorway"/>
    <tag k="int_ref" v="E 50"/>
    <tag k="maxspeed" v="120"/>
    <tag k="oneway" v="yes"/>
    <tag k="ref" v="A 6"/>
    <tag k="wikipedia:reg_name" v="de:Via Carolina"/>
  </way>
  <way id="25929226" version="11" timestamp="2011-08-01T23:10:42Z" uid="142422" user="BIGTH" changeset="8896413">
    <nd ref="282841926"/>
    <nd ref="502773"/>
    <nd ref="502774"/>
    <nd ref="382803337"/>
    <nd ref="502775"/>
    <nd ref="289029907"/>
    <tag k="highway" v="motorway"/>
    <tag k="int_ref" v="E 50"/>
    <tag k="lanes" v="2"/>
    <tag k="maxspeed" v="120"/>
    <tag k="oneway" v="yes"/>
    <tag k="ref" v="A 6"/>
    <tag k="wikipedia:reg_name" v="de:Via Carolina"/>
  </way>
  <way id="25929226" version="12" timestamp="2011-09-11T15:24:39Z" uid="30077" user="ChristianW" changeset="9271742">
    <nd ref="282841926"/>
    <nd ref="502773"/>
    <nd ref="502774"/>
    <nd ref="382803337"/>
    <nd ref="502775"/>
    <nd ref="289029907"/>
    <tag k="highway" v="motorway"/>
    <tag k="int_ref" v="E 50"/>
    <tag k="lanes" v="2"/>
    <tag k="maxspeed" v="120"/>
    <tag k="oneway" v="yes"/>
    <tag k="ref" v="A 6"/>
    <tag k="surface" v="asphalt"/>
    <tag k="wikipedia:reg_name" v="de:Via Carolina"/>
  </way>
  <way id="25929226" version="13" timestamp="2012-01-03T13:08:09Z" uid="136321" user="Teddy73" changeset="10280218"/>
  <way id="25929269" version="2" timestamp="2008-08-11T15:59:18Z" uid="3451" user="sascha_silbe" changeset="188073">
    <nd ref="267668894"/>
    <nd ref="267668927"/>
    <tag k="bridge" v="yes"/>
    <tag k="created_by" v="Potlatch 0.9c"/>
    <tag k="highway" v="motorway"/>
    <tag k="int_ref" v="E 50"/>
    <tag k="layer" v="1"/>
    <tag k="maxspeed" v="120"/>
    <tag k="oneway" v="yes"/>
    <tag k="ref" v="A 6"/>
  </way>
  <way id="25929269" version="3" timestamp="2009-04-24T02:42:13Z" uid="23785" user="Simon Kokolakis" changeset="922290">
    <nd ref="267668894"/>
    <nd ref="267668927"/>
    <nd ref="267668927"/>
    <tag k="bridge" v="yes"/>
    <tag k="created_by" v="Potlatch 0.9c"/>
    <tag k="highway" v="motorway"/>
    <tag k="int_ref" v="E 50"/>
    <tag k="layer" v="1"/>
    <tag k="maxspeed" v="120"/>
    <tag k="oneway" v="yes"/>
    <tag k="ref" v="A 6"/>
  </way>
  <way id="25929269" version="4" timestamp="2009-04-24T02:42:18Z" uid="23785" user="Simon Kokolakis" changeset="922290">
    <nd ref="267668894"/>
    <nd ref="267668927"/>
    <tag k="bridge" v="yes"/>
    <tag k="created_by" v="Potlatch 0.9c"/>
    <tag k="highway" v="motorway"/>
    <tag k="int_ref" v="E 50"/>
    <tag k="layer" v="1"/>
    <tag k="maxspeed" v="120"/>
    <tag k="oneway" v="yes"/>
    <tag k="ref" v="A 6"/>
  </way>
  <way id="25929269" version="5" timestamp="2010-11-28T19:30:38Z" uid="30077" user="ChristianW" changeset="6481235">
    <nd ref="267668894"/>
    <nd ref="267668927"/>
    <tag k="bridge" v="yes"/>
    <tag k="highway" v="motorway"/>
    <tag k="int_ref" v="E 50"/>
    <tag k="layer" v="1"/>
    <tag k="maxspeed" v="120"/>
    <tag k="oneway" v="yes"/>
    <tag k="ref" v="A 6"/>
    <tag k="reg_name" v="Via Carolina"/>
    <tag k="wikipedia:reg_name" v="de:Via Carolina"/>
  </way>
  <way id="25929269" version="6" timestamp="2010-11-29T16:28:13Z" uid="30077" user="ChristianW" changeset="6487695">
    <nd ref="267668894"/>
    <nd ref="267668927"/>
    <tag k="bridge" v="yes"/>
    <tag k="highway" v="motorway"/>
    <tag k="int_ref" v="E 50"/>
    <tag k="layer" v="1"/>
    <tag k="maxspeed" v="120"/>
    <tag k="note:name" v="Der reg_name, sowie ggf. der loc_name sind dem zugehörigen Wikipediaartikel entnommen."/>
    <tag k="oneway" v="yes"/>
    <tag k="ref" v="A 6"/>
    <tag k="reg_name" v="Via Carolina"/>
    <tag k="wikipedia:reg_name" v="de:Via Carolina"/>
  </way>
  <way id="25929269" version="7" timestamp="2011-06-11T12:21:40Z" uid="30077" user="ChristianW" changeset="8405334">
    <nd ref="267668894"/>
    <nd ref="267668927"/>
    <tag k="bridge" v="yes"/>
    <tag k="highway" v="motorway"/>
    <tag k="int_ref" v="E 50"/>
    <tag k="layer" v="1"/>
    <tag k="maxspeed" v="120"/>
    <tag k="oneway" v="yes"/>
    <tag k="ref" v="A 6"/>
    <tag k="wikipedia:reg_name" v="de:Via Carolina"/>
  </way>
  <way id="25929269" version="8" timestamp="2011-09-11T15:26:05Z" uid="30077" user="ChristianW" changeset="9271742">
    <nd ref="267668894"/>
    <nd ref="267668927"/>
    <tag k="bridge" v="yes"/>
    <tag k="highway" v="motorway"/>
    <tag k="int_ref" v="E 50"/>
    <tag k="layer" v="1"/>
    <tag k="maxspeed" v="120"/>
    <tag k="oneway" v="yes"/>
    <tag k="ref" v="A 6"/>
    <tag k="surface" v="asphalt"/>
    <tag k="wikipedia:reg_name" v="de:Via Carolina"/>
  </way>
  <way id="25929269" version="9" timestamp="2012-01-03T12:38:32Z" uid="136321" user="Teddy73" changeset="10280218"/>
  <way id="25929270" version="3" timestamp="2008-08-11T15:59:18Z" uid="3451" user="sascha_silbe" changeset="188073">
    <nd ref="267668893"/>
    <nd ref="502679"/>
    <tag k="bridge" v="yes"/>
    <tag k="created_by" v="Potlatch 0.9c"/>
    <tag k="highway" v="motorway"/>
    <tag k="int_ref" v="E 50"/>
    <tag k="layer" v="1"/>
    <tag k="maxspeed" v="120"/>
    <tag k="oneway" v="yes"/>
    <tag k="ref" v="A 6"/>
  </way>
  <way id="25929270" version="4" timestamp="2010-11-28T19:35:01Z" uid="30077" user="ChristianW" changeset="6481235">
    <nd ref="267668893"/>
    <nd ref="502679"/>
    <tag k="bridge" v="yes"/>
    <tag k="highway" v="motorway"/>
    <tag k="int_ref" v="E 50"/>
    <tag k="layer" v="1"/>
    <tag k="maxspeed" v="120"/>
    <tag k="oneway" v="yes"/>
    <tag k="ref" v="A 6"/>
    <tag k="reg_name" v="Via Carolina"/>
    <tag k="wikipedia:reg_name" v="de:Via Carolina"/>
  </way>
  <way id="25929270" version="5" timestamp="2010-11-29T16:34:13Z" uid="30077" user="ChristianW" changeset="6487695">
    <nd ref="267668893"/>
    <nd ref="502679"/>
    <tag k="bridge" v="yes"/>
    <tag k="highway" v="motorway"/>
    <tag k="int_ref" v="E 50"/>
    <tag k="layer" v="1"/>
    <tag k="maxspeed" v="120"/>
    <tag k="note:name" v="Der reg_name, sowie ggf. der loc_name sind dem zugehörigen Wikipediaartikel entnommen."/>
    <tag k="oneway" v="yes"/>
    <tag k="ref" v="A 6"/>
    <tag k="reg_name" v="Via Carolina"/>
    <tag k="wikipedia:reg_name" v="de:Via Carolina"/>
  </way>
  <way id="25929270" version="6" timestamp="2011-06-11T12:25:34Z" uid="30077" user="ChristianW" changeset="8405334">
    <nd ref="267668893"/>
    <nd ref="502679"/>
    <tag k="bridge" v="yes"/>
    <tag k="highway" v="motorway"/>
    <tag k="int_ref" v="E 50"/>
    <tag k="layer" v="1"/>
    <tag k="maxspeed" v="120"/>
    <tag k="oneway" v="yes"/>
    <tag k="ref" v="A 6"/>
    <tag k="wikipedia:reg_name" v="de:Via Carolina"/>
  </way>
  <way id="25929270" version="7" timestamp="2011-09-11T15:27:29Z" uid="30077" user="ChristianW" changeset="9271742">
    <nd ref="267668893"/>
    <nd ref="502679"/>
    <tag k="bridge" v="yes"/>
    <tag k="highway" v="motorway"/>
    <tag k="int_ref" v="E 50"/>
    <tag k="layer" v="1"/>
    <tag k="maxspeed" v="120"/>
    <tag k="oneway" v="yes"/>
    <tag k="ref" v="A 6"/>
    <tag k="surface" v="asphalt"/>
    <tag k="wikipedia:reg_name" v="de:Via Carolina"/>
  </way>
  <way id="25929270" version="8" timestamp="2012-01-03T12:38:33Z" uid="136321" user="Teddy73" changeset="10280218"/>
  <way id="25929271" version="2" timestamp="2008-08-11T15:59:18Z" uid="3451" user="sascha_silbe" changeset="188073">
    <nd ref="502679"/>
    <nd ref="267668894"/>
    <tag k="created_by" v="Potlatch 0.9c"/>
    <tag k="highway" v="motorway"/>
    <tag k="int_ref" v="E 50"/>
    <tag k="maxspeed" v="120"/>
    <tag k="oneway" v="yes"/>
    <tag k="ref" v="A 6"/>
  </way>
  <way id="25929271" version="3" timestamp="2010-11-28T19:15:26Z" uid="30077" user="ChristianW" changeset="6481235">
    <nd ref="502679"/>
    <nd ref="267668894"/>
    <tag k="highway" v="motorway"/>
    <tag k="int_ref" v="E 50"/>
    <tag k="maxspeed" v="120"/>
    <tag k="oneway" v="yes"/>
    <tag k="ref" v="A 6"/>
    <tag k="reg_name" v="Via Carolina"/>
    <tag k="wikipedia:reg_name" v="de:Via Carolina"/>
  </way>
  <way id="25929271" version="4" timestamp="2010-11-29T16:21:15Z" uid="30077" user="ChristianW" changeset="6487695">
    <nd ref="502679"/>
    <nd ref="267668894"/>
    <tag k="highway" v="motorway"/>
    <tag k="int_ref" v="E 50"/>
    <tag k="maxspeed" v="120"/>
    <tag k="note:name" v="Der reg_name, sowie ggf. der loc_name sind dem zugehörigen Wikipediaartikel entnommen."/>
    <tag k="oneway" v="yes"/>
    <tag k="ref" v="A 6"/>
    <tag k="reg_name" v="Via Carolina"/>
    <tag k="wikipedia:reg_name" v="de:Via Carolina"/>
  </way>
  <way id="25929271" version="5" timestamp="2011-06-11T12:22:31Z" uid="30077" user="ChristianW" changeset="8405334">
    <nd ref="502679"/>
    <nd ref="267668894"/>
    <tag k="highway" v="motorway"/>
    <tag k="int_ref" v="E 50"/>
    <tag k="maxspeed" v="120"/>
    <tag k="oneway" v="yes"/>
    <tag k="ref" v="A 6"/>
    <tag k="wikipedia:reg_name" v="de:Via Carolina"/>
  </way>
  <way id="25929271" version="6" timestamp="2011-09-11T15:24:01Z" uid="30077" user="ChristianW" changeset="9271742">
    <nd ref="502679"/>
    <nd ref="267668894"/>
    <tag k="highway" v="motorway"/>
    <tag k="int_ref" v="E 50"/>
    <tag k="maxspeed" v="120"/>
    <tag k="oneway" v="yes"/>
    <tag k="ref" v="A 6"/>
    <tag k="surface" v="asphalt"/>
    <tag k="wikipedia:reg_name" v="de:Via Carolina"/>
  </way>
  <way id="25929271" version="7" timestamp="2012-01-03T12:38:32Z" uid="136321" user="Teddy73" changeset="10280218"/>
  <way id="25929382" version="2" timestamp="2009-10-20T12:06:52Z" uid="36809" user="pfoten_weg_!_" changeset="2902112">
    <nd ref="281909884"/>
    <nd ref="281909885"/>
    <nd ref="281909686"/>
    <nd ref="281909886"/>
    <nd ref="281909887"/>
    <nd ref="281909689"/>
    <nd ref="281909690"/>
    <nd ref="281909588"/>
    <nd ref="282181046"/>
    <nd ref="282181536"/>
    <nd ref="282181048"/>
    <nd ref="282181824"/>
    <nd ref="282181050"/>
    <nd ref="282181051"/>
    <nd ref="282181538"/>
    <nd ref="282181053"/>
    <nd ref="282181539"/>
    <nd ref="282181055"/>
    <nd ref="282181056"/>
    <nd ref="282181825"/>
    <nd ref="282181058"/>
    <nd ref="282181826"/>
    <nd ref="282181060"/>
    <nd ref="282181827"/>
    <nd ref="282181543"/>
    <nd ref="282181063"/>
    <nd ref="282181544"/>
    <nd ref="282181065"/>
    <nd ref="282181545"/>
    <nd ref="282181828"/>
    <nd ref="282181068"/>
    <nd ref="282181829"/>
    <nd ref="282181070"/>
    <nd ref="282181548"/>
    <nd ref="282181830"/>
    <nd ref="282193471"/>
    <nd ref="282181550"/>
    <nd ref="282181551"/>
    <nd ref="282181831"/>
    <nd ref="282181832"/>
    <nd ref="282181554"/>
    <nd ref="282181833"/>
    <nd ref="282181834"/>
    <nd ref="282181835"/>
    <nd ref="282181558"/>
    <nd ref="282181559"/>
    <nd ref="282181560"/>
    <nd ref="282181561"/>
    <nd ref="282181836"/>
    <nd ref="282181837"/>
    <nd ref="282181564"/>
    <nd ref="282181565"/>
    <nd ref="282181838"/>
    <nd ref="282181839"/>
    <tag k="highway" v="unclassified"/>
  </way>
  <way id="25929382" version="3" timestamp="2010-05-25T16:59:08Z" uid="42393" user="mawi42" changeset="4805306">
    <nd ref="281909884"/>
    <nd ref="748001786"/>
    <nd ref="748001789"/>
    <nd ref="281909885"/>
    <nd ref="748001801"/>
    <nd ref="748001807"/>
    <nd ref="281909686"/>
    <nd ref="281909886"/>
    <nd ref="748001813"/>
    <nd ref="281909887"/>
    <nd ref="748001816"/>
    <nd ref="748001817"/>
    <nd ref="281909689"/>
    <nd ref="281909690"/>
    <nd ref="281909588"/>
    <nd ref="282181046"/>
    <nd ref="282181536"/>
    <nd ref="282181048"/>
    <nd ref="282181824"/>
    <nd ref="282181050"/>
    <nd ref="282181051"/>
    <nd ref="282181538"/>
    <nd ref="282181053"/>
    <nd ref="282181539"/>
    <nd ref="282181055"/>
    <nd ref="282181056"/>
    <nd ref="282181825"/>
    <nd ref="282181058"/>
    <nd ref="282181826"/>
    <nd ref="282181060"/>
    <nd ref="282181827"/>
    <nd ref="282181543"/>
    <nd ref="282181063"/>
    <nd ref="282181544"/>
    <nd ref="282181065"/>
    <nd ref="282181545"/>
    <nd ref="282181828"/>
    <nd ref="282181068"/>
    <nd ref="282181829"/>
    <nd ref="282181070"/>
    <nd ref="282181548"/>
    <nd ref="282181830"/>
    <nd ref="282193471"/>
    <nd ref="282181550"/>
    <nd ref="282181551"/>
    <nd ref="282181831"/>
    <nd ref="282181832"/>
    <nd ref="282181554"/>
    <nd ref="282181833"/>
    <nd ref="282181834"/>
    <nd ref="282181835"/>
    <nd ref="282181558"/>
    <nd ref="282181559"/>
    <nd ref="282181560"/>
    <nd ref="282181561"/>
    <nd ref="282181836"/>
    <nd ref="282181837"/>
    <nd ref="282181564"/>
    <nd ref="282181565"/>
    <nd ref="282181838"/>
    <nd ref="282181839"/>
    <tag k="highway" v="unclassified"/>
  </way>
  <way id="25929382" version="4" timestamp="2010-07-09T15:34:33Z" uid="42393" user="mawi42" changeset="5174460">
    <nd ref="281909884"/>
    <nd ref="748001786"/>
    <nd ref="748001789"/>
    <nd ref="281909885"/>
    <nd ref="748001801"/>
    <nd ref="748001807"/>
    <nd ref="281909686"/>
    <nd ref="281909886"/>
    <nd ref="748001813"/>
    <nd ref="281909887"/>
    <nd ref="748001816"/>
    <nd ref="748001817"/>
    <nd ref="281909689"/>
    <nd ref="281909690"/>
    <nd ref="281909588"/>
    <nd ref="282181046"/>
    <nd ref="282181536"/>
    <nd ref="282181048"/>
    <nd ref="282181824"/>
    <nd ref="282181050"/>
    <nd ref="282181051"/>
    <nd ref="282181538"/>
    <nd ref="282181053"/>
    <nd ref="282181539"/>
    <nd ref="282181055"/>
    <nd ref="282181056"/>
    <nd ref="282181825"/>
    <nd ref="282181058"/>
    <nd ref="282181826"/>
    <nd ref="282181060"/>
    <nd ref="282181827"/>
    <nd ref="282181543"/>
    <nd ref="282181063"/>
    <nd ref="282181544"/>
    <nd ref="282181065"/>
    <nd ref="282181545"/>
    <nd ref="282181828"/>
    <nd ref="282181068"/>
    <nd ref="282181829"/>
    <nd ref="282181070"/>
    <nd ref="282181548"/>
    <nd ref="282181830"/>
    <nd ref="282193471"/>
    <nd ref="282181550"/>
    <nd ref="282181551"/>
    <nd ref="282181831"/>
    <nd ref="282181832"/>
    <nd ref="282181554"/>
    <nd ref="282181833"/>
    <nd ref="282181834"/>
    <nd ref="282181835"/>
    <nd ref="282181558"/>
    <nd ref="807964031"/>
    <nd ref="282181560"/>
    <nd ref="282181836"/>
    <nd ref="282181837"/>
    <nd ref="282181564"/>
    <nd ref="282181565"/>
    <nd ref="807964036"/>
    <nd ref="282181838"/>
    <nd ref="282181839"/>
    <tag k="highway" v="unclassified"/>
  </way>
  <way id="25929382" version="5" timestamp="2010-07-09T15:35:35Z" uid="42393" user="mawi42" changeset="5174460">
    <nd ref="281909884"/>
    <nd ref="748001786"/>
    <nd ref="748001789"/>
    <nd ref="281909885"/>
    <nd ref="748001801"/>
    <nd ref="748001807"/>
    <nd ref="281909686"/>
    <nd ref="281909886"/>
    <nd ref="748001813"/>
    <nd ref="281909887"/>
    <nd ref="748001816"/>
    <nd ref="748001817"/>
    <nd ref="281909689"/>
    <nd ref="281909690"/>
    <nd ref="281909588"/>
    <nd ref="282181046"/>
    <nd ref="282181536"/>
    <nd ref="282181048"/>
    <nd ref="282181824"/>
    <nd ref="282181050"/>
    <nd ref="282181051"/>
    <nd ref="282181538"/>
    <nd ref="282181053"/>
    <nd ref="282181539"/>
    <nd ref="282181055"/>
    <nd ref="282181056"/>
    <nd ref="282181825"/>
    <nd ref="282181058"/>
    <nd ref="282181826"/>
    <nd ref="282181060"/>
    <nd ref="282181827"/>
    <nd ref="282181543"/>
    <nd ref="282181063"/>
    <nd ref="282181544"/>
    <nd ref="807965184"/>
    <nd ref="282181065"/>
    <nd ref="282181545"/>
    <nd ref="282181828"/>
    <nd ref="282181068"/>
    <nd ref="282181829"/>
    <nd ref="282181070"/>
    <nd ref="282181548"/>
    <nd ref="282181830"/>
    <nd ref="282193471"/>
    <nd ref="282181550"/>
    <nd ref="282181551"/>
    <nd ref="282181831"/>
    <nd ref="282181832"/>
    <nd ref="282181554"/>
    <nd ref="282181833"/>
    <nd ref="282181834"/>
    <nd ref="282181835"/>
    <nd ref="282181558"/>
    <nd ref="807964031"/>
    <nd ref="282181560"/>
    <nd ref="282181836"/>
    <nd ref="282181837"/>
    <nd ref="282181564"/>
    <nd ref="282181565"/>
    <nd ref="807964036"/>
    <nd ref="282181838"/>
    <nd ref="282181839"/>
    <tag k="highway" v="unclassified"/>
  </way>
  <way id="25929382" version="6" timestamp="2010-07-09T15:36:15Z" uid="42393" user="mawi42" changeset="5174460">
    <nd ref="281909884"/>
    <nd ref="748001786"/>
    <nd ref="748001789"/>
    <nd ref="281909885"/>
    <nd ref="748001801"/>
    <nd ref="748001807"/>
    <nd ref="281909686"/>
    <nd ref="281909886"/>
    <nd ref="748001813"/>
    <nd ref="281909887"/>
    <nd ref="748001816"/>
    <nd ref="748001817"/>
    <nd ref="281909689"/>
    <nd ref="281909690"/>
    <nd ref="281909588"/>
    <nd ref="282181046"/>
    <nd ref="282181536"/>
    <nd ref="282181048"/>
    <nd ref="282181824"/>
    <nd ref="282181050"/>
    <nd ref="282181051"/>
    <nd ref="282181538"/>
    <nd ref="282181053"/>
    <nd ref="282181539"/>
    <nd ref="282181055"/>
    <nd ref="282181056"/>
    <nd ref="282181825"/>
    <nd ref="282181058"/>
    <nd ref="282181826"/>
    <nd ref="282181060"/>
    <nd ref="282181827"/>
    <nd ref="282181543"/>
    <nd ref="282181063"/>
    <nd ref="282181544"/>
    <nd ref="807965184"/>
    <nd ref="282181065"/>
    <nd ref="282181545"/>
    <nd ref="282181828"/>
    <nd ref="282181068"/>
    <nd ref="282181829"/>
    <nd ref="282181070"/>
    <nd ref="282181548"/>
    <nd ref="282181830"/>
    <nd ref="282193471"/>
    <nd ref="282181551"/>
    <nd ref="282181831"/>
    <nd ref="282181832"/>
    <nd ref="282181554"/>
    <nd ref="282181833"/>
    <nd ref="282181834"/>
    <nd ref="282181835"/>
    <nd ref="282181558"/>
    <nd ref="807964031"/>
    <nd ref="282181560"/>
    <nd ref="282181836"/>
    <nd ref="282181837"/>
    <nd ref="282181564"/>
    <nd ref="282181565"/>
    <nd ref="807964036"/>
    <nd ref="282181838"/>
    <nd ref="282181839"/>
    <tag k="highway" v="unclassified"/>
  </way>
  <way id="25929403" version="4" timestamp="2010-05-01T20:28:35Z" uid="9581" user="Lobelt" changeset="4579082">
    <nd ref="61279953"/>
    <nd ref="61279952"/>
    <nd ref="317281144"/>
    <nd ref="715851867"/>
    <nd ref="715851868"/>
    <nd ref="715851870"/>
    <nd ref="61279951"/>
    <tag k="highway" v="secondary"/>
    <tag k="name" v="Schwetzinger Straße"/>
    <tag k="oneway" v="no"/>
    <tag k="ref" v="L 630"/>
  </way>
  <way id="25929403" version="5" timestamp="2010-06-03T16:56:58Z" uid="133443" user="geologger" changeset="4894135">
    <nd ref="61279953"/>
    <nd ref="763406429"/>
    <nd ref="61279952"/>
    <nd ref="317281144"/>
    <nd ref="715851867"/>
    <nd ref="715851868"/>
    <nd ref="715851870"/>
    <nd ref="61279951"/>
    <tag k="highway" v="secondary"/>
    <tag k="name" v="Schwetzinger Straße"/>
    <tag k="oneway" v="no"/>
    <tag k="ref" v="L 630"/>
  </way>
  <way id="25929403" version="6" timestamp="2010-07-12T15:26:57Z" uid="317916" user="hsc1" changeset="5199997">
    <nd ref="61279953"/>
    <nd ref="763406429"/>
    <nd ref="61279952"/>
    <nd ref="317281144"/>
    <nd ref="715851867"/>
    <nd ref="715851868"/>
    <nd ref="715851870"/>
    <nd ref="61279951"/>
    <tag k="highway" v="primary"/>
  </way>
  <way id="25929403" version="7" timestamp="2010-08-09T15:42:03Z" uid="6326" user="mike_hd" changeset="5445203">
    <nd ref="61279953"/>
    <nd ref="763406429"/>
    <nd ref="61279952"/>
    <nd ref="317281144"/>
    <nd ref="715851867"/>
    <nd ref="715851868"/>
    <nd ref="715851870"/>
    <nd ref="61279951"/>
    <tag k="highway" v="secondary"/>
  </way>
  <way id="25929403" version="8" timestamp="2010-08-09T15:43:15Z" uid="6326" user="mike_hd" changeset="5445203">
    <nd ref="61279953"/>
    <nd ref="763406429"/>
    <nd ref="61279952"/>
    <nd ref="317281144"/>
    <nd ref="715851867"/>
    <nd ref="715851868"/>
    <nd ref="715851870"/>
    <nd ref="61279951"/>
    <tag k="highway" v="secondary"/>
    <tag k="ref" v="L 630"/>
  </way>
  <way id="25929403" version="9" timestamp="2010-08-09T15:43:34Z" uid="6326" user="mike_hd" changeset="5445203">
    <nd ref="61279953"/>
    <nd ref="763406429"/>
    <nd ref="851023417"/>
    <nd ref="61279952"/>
    <nd ref="851023419"/>
    <nd ref="317281144"/>
    <nd ref="715851867"/>
    <nd ref="715851868"/>
    <nd ref="715851870"/>
    <nd ref="61279951"/>
    <tag k="highway" v="secondary"/>
    <tag k="ref" v="L 630"/>
  </way>
  <way id="25929403" version="10" timestamp="2010-08-09T15:43:43Z" uid="6326" user="mike_hd" changeset="5445203">
    <nd ref="61279953"/>
    <nd ref="763406429"/>
    <nd ref="851023417"/>
    <nd ref="61279952"/>
    <nd ref="851023419"/>
    <nd ref="317281144"/>
    <nd ref="715851867"/>
    <nd ref="715851868"/>
    <nd ref="715851870"/>
    <nd ref="851023573"/>
    <nd ref="61279951"/>
    <tag k="highway" v="secondary"/>
    <tag k="ref" v="L 630"/>
  </way>
  <way id="25929403" version="11" timestamp="2010-09-18T19:57:53Z" uid="9581" user="Lobelt" changeset="5814594">
    <nd ref="61279953"/>
    <nd ref="763406429"/>
    <nd ref="851023417"/>
    <nd ref="61279952"/>
    <nd ref="851023419"/>
    <nd ref="317281144"/>
    <nd ref="715851867"/>
    <nd ref="715851868"/>
    <tag k="highway" v="secondary"/>
    <tag k="ref" v="L 630"/>
  </way>
  <way id="25929403" version="12" timestamp="2011-08-03T20:29:12Z" uid="142422" user="BIGTH" changeset="8914124">
    <nd ref="61279953"/>
    <nd ref="763406429"/>
    <nd ref="851023417"/>
    <nd ref="61279952"/>
    <nd ref="851023419"/>
    <nd ref="317281144"/>
    <nd ref="715851867"/>
    <nd ref="715851868"/>
    <tag k="highway" v="secondary"/>
    <tag k="maxspeed" v="50"/>
    <tag k="ref" v="L 630"/>
  </way>
  <way id="25929432" version="2" timestamp="2010-06-29T19:15:20Z" uid="74617" user="JohnSmith" changeset="5108182">
    <nd ref="282843580"/>
    <nd ref="282843581"/>
    <nd ref="282843582"/>
    <nd ref="282843583"/>
    <nd ref="282843580"/>
    <tag k="fixme" v="sport=football is ambiguous, see http://wiki.osm.org/wiki/Football for more details"/>
    <tag k="sport" v="football"/>
  </way>
  <way id="25929538" version="2" timestamp="2008-08-09T20:28:04Z" uid="33382" user="de_muur" changeset="157474">
    <nd ref="279940646"/>
    <nd ref="282844617"/>
    <nd ref="282566859"/>
    <tag k="highway" v="tertiary"/>
    <tag k="loc_ref" v="K35"/>
    <tag k="name" v="Finteler Strasse"/>
  </way>
  <way id="25929538" version="3" timestamp="2008-08-09T21:56:22Z" uid="45882" user="smarties" changeset="169614">
    <nd ref="279940646"/>
    <nd ref="282844617"/>
    <nd ref="282566859"/>
    <tag k="highway" v="secondary"/>
    <tag k="loc_ref" v="K35"/>
    <tag k="name" v="Finteler Strasse"/>
  </way>
  <way id="25929538" version="4" timestamp="2008-08-09T22:02:36Z" uid="45882" user="smarties" changeset="169614">
    <nd ref="279940646"/>
    <nd ref="282844617"/>
    <nd ref="282566859"/>
    <tag k="highway" v="secondary"/>
    <tag k="loc_ref" v="K35"/>
    <tag k="name" v="Finteler Straße"/>
  </way>
  <way id="25929538" version="5" timestamp="2008-08-31T19:12:56Z" uid="45882" user="smarties" changeset="478047">
    <nd ref="279940646"/>
    <nd ref="282844617"/>
    <nd ref="282566859"/>
    <tag k="highway" v="secondary"/>
    <tag k="loc_ref" v="K35"/>
    <tag k="name" v="Finteler Straße"/>
    <tag k="note" v="Der Zustand der Straße ist eindeutig Secondary"/>
  </way>
  <way id="25929538" version="6" timestamp="2008-09-21T01:16:29Z" uid="16995" user="zut" changeset="672440">
    <nd ref="279940646"/>
    <nd ref="282844617"/>
    <nd ref="282566859"/>
    <tag k="highway" v="tertiary"/>
    <tag k="loc_ref" v="K35"/>
    <tag k="name" v="Finteler Straße"/>
    <tag k="note" v="Zustand secondary, Verkehrsdichte tertiary, Kreis- nicht Landstraße"/>
  </way>
  <way id="25929538" version="7" timestamp="2008-10-28T22:44:32Z" uid="45882" user="smarties" changeset="621153">
    <nd ref="279940646"/>
    <nd ref="282844617"/>
    <nd ref="282566859"/>
    <tag k="highway" v="tertiary"/>
    <tag k="loc_ref" v="K35"/>
    <tag k="maxspeed" v="70"/>
    <tag k="name" v="Finteler Straße"/>
    <tag k="note" v="Zustand secondary, Verkehrsdichte tertiary, Kreis- nicht Landstraße"/>
  </way>
  <way id="25929538" version="8" timestamp="2009-03-07T15:22:59Z" uid="45882" user="smarties" changeset="752652">
    <nd ref="279940646"/>
    <nd ref="282844617"/>
    <nd ref="282566859"/>
    <tag k="highway" v="tertiary"/>
    <tag k="loc_ref" v="K 35"/>
    <tag k="maxspeed" v="70"/>
    <tag k="name" v="Finteler Straße"/>
    <tag k="note" v="Zustand secondary, Verkehrsdichte tertiary, Kreis- nicht Landstraße"/>
  </way>
  <way id="25929538" version="9" timestamp="2009-03-07T15:24:03Z" uid="45882" user="smarties" changeset="752652">
    <nd ref="279940646"/>
    <nd ref="282844617"/>
    <nd ref="282566859"/>
    <tag k="highway" v="tertiary"/>
    <tag k="maxspeed" v="70"/>
    <tag k="name" v="Finteler Straße"/>
    <tag k="note" v="Zustand secondary, Verkehrsdichte tertiary, Kreis- nicht Landstraße"/>
    <tag k="ref" v="K 35"/>
  </way>
  <way id="25929538" version="10" timestamp="2009-10-04T22:40:27Z" uid="45882" user="smarties" changeset="2744085">
    <nd ref="279940646"/>
    <nd ref="282844617"/>
    <nd ref="282566859"/>
    <tag k="highway" v="secondary"/>
    <tag k="maxspeed" v="70"/>
    <tag k="name" v="Finteler Straße"/>
    <tag k="note" v="Der Zustand der Straße ist eindeutig Secondary"/>
    <tag k="ref" v="K 35"/>
  </way>
  <way id="25929538" version="11" timestamp="2012-02-25T23:30:33Z" uid="45882" user="smarties" changeset="10793329">
    <nd ref="1647859709"/>
    <nd ref="282844617"/>
    <nd ref="282566859"/>
    <tag k="highway" v="secondary"/>
    <tag k="maxspeed" v="70"/>
    <tag k="name" v="Finteler Straße"/>
    <tag k="note" v="Der Zustand der Straße ist eindeutig Secondary"/>
    <tag k="ref" v="K 35"/>
  </way>
  <way id="25929541" version="3" timestamp="2008-08-05T19:57:33Z" uid="45882" user="smarties" changeset="81473">
    <nd ref="282566859"/>
    <nd ref="282838157"/>
    <tag k="highway" v="secondary"/>
    <tag k="name" v="Tostedter Damm"/>
    <tag k="ref" v="K 221"/>
  </way>
  <way id="25929541" version="4" timestamp="2008-08-09T20:28:04Z" uid="33382" user="de_muur" changeset="157474">
    <nd ref="282566859"/>
    <nd ref="282838157"/>
    <tag k="highway" v="tertiary"/>
    <tag k="name" v="Tostedter Damm"/>
    <tag k="ref" v="K 221"/>
  </way>
  <way id="25929541" version="5" timestamp="2008-08-09T21:56:23Z" uid="45882" user="smarties" changeset="169614">
    <nd ref="282566859"/>
    <nd ref="282838157"/>
    <tag k="highway" v="secondary"/>
    <tag k="name" v="Tostedter Damm"/>
    <tag k="ref" v="K 221"/>
  </way>
  <way id="25929541" version="6" timestamp="2008-08-31T19:12:57Z" uid="45882" user="smarties" changeset="478047">
    <nd ref="282566859"/>
    <nd ref="282838157"/>
    <tag k="highway" v="secondary"/>
    <tag k="name" v="Tostedter Damm"/>
    <tag k="note" v="Der Zustand der Straße ist eindeutig Secondary"/>
    <tag k="ref" v="K 221"/>
  </way>
  <way id="25929541" version="7" timestamp="2008-09-21T01:16:30Z" uid="16995" user="zut" changeset="672440">
    <nd ref="282566859"/>
    <nd ref="282838157"/>
    <tag k="highway" v="tertiary"/>
    <tag k="name" v="Tostedter Damm"/>
    <tag k="note" v="Zustand secondary, Verkehrsdichte tertiary, Kreis- nicht Landstraße"/>
    <tag k="ref" v="K 221"/>
  </way>
  <way id="25929541" version="8" timestamp="2008-10-28T22:44:33Z" uid="45882" user="smarties" changeset="621153">
    <nd ref="282566859"/>
    <nd ref="282838157"/>
    <tag k="highway" v="tertiary"/>
    <tag k="maxspeed" v="100"/>
    <tag k="name" v="Tostedter Damm"/>
    <tag k="note" v="Zustand secondary, Verkehrsdichte tertiary, Kreis- nicht Landstraße"/>
    <tag k="ref" v="K 221"/>
  </way>
  <way id="25929541" version="9" timestamp="2009-10-04T22:40:25Z" uid="45882" user="smarties" changeset="2744085">
    <nd ref="282566859"/>
    <nd ref="282838157"/>
    <tag k="highway" v="secondary"/>
    <tag k="maxspeed" v="100"/>
    <tag k="name" v="Tostedter Damm"/>
    <tag k="note" v="Der Zustand der Straße ist eindeutig Secondary"/>
    <tag k="ref" v="K 221"/>
  </way>
  <way id="25929541" version="10" timestamp="2009-10-16T20:49:22Z" uid="45882" user="smarties" changeset="2868972">
    <nd ref="282566859"/>
    <nd ref="533980659"/>
    <tag k="highway" v="secondary"/>
    <tag k="maxspeed" v="100"/>
    <tag k="name" v="Tostedter Damm"/>
    <tag k="note" v="Der Zustand der Straße ist eindeutig Secondary"/>
    <tag k="ref" v="K 221"/>
  </way>
  <way id="25929586" version="2" timestamp="2008-08-05T19:57:32Z" uid="45882" user="smarties" changeset="81473">
    <nd ref="282844752"/>
    <nd ref="282844754"/>
    <nd ref="282844756"/>
    <nd ref="282565621"/>
    <tag k="highway" v="secondary"/>
    <tag k="name" v="Lauenbrücker Strasse"/>
    <tag k="ref" v="K 212"/>
  </way>
  <way id="25929586" version="3" timestamp="2008-08-09T20:28:01Z" uid="33382" user="de_muur" changeset="157474">
    <nd ref="282844752"/>
    <nd ref="282844754"/>
    <nd ref="282844756"/>
    <nd ref="282565621"/>
    <tag k="highway" v="tertiary"/>
    <tag k="name" v="Lauenbrücker Strasse"/>
    <tag k="ref" v="K 212"/>
  </way>
  <way id="25929586" version="4" timestamp="2008-08-09T21:56:22Z" uid="45882" user="smarties" changeset="169614">
    <nd ref="282844752"/>
    <nd ref="282844754"/>
    <nd ref="282844756"/>
    <nd ref="282565621"/>
    <tag k="highway" v="secondary"/>
    <tag k="name" v="Lauenbrücker Strasse"/>
    <tag k="ref" v="K 212"/>
  </way>
  <way id="25929586" version="5" timestamp="2008-08-09T22:02:35Z" uid="45882" user="smarties" changeset="169614">
    <nd ref="282844752"/>
    <nd ref="282844754"/>
    <nd ref="282844756"/>
    <nd ref="282565621"/>
    <tag k="highway" v="secondary"/>
    <tag k="name" v="Lauenbrücker Straße"/>
    <tag k="ref" v="K 212"/>
  </way>
  <way id="25929586" version="6" timestamp="2008-09-24T10:16:09Z" uid="62536" user="Gucky" changeset="689248">
    <nd ref="282844752"/>
    <nd ref="282844754"/>
    <nd ref="282844756"/>
    <nd ref="282565621"/>
    <tag k="created_by" v="Potlatch 0.10b"/>
    <tag k="highway" v="secondary"/>
    <tag k="name" v="Lauenbrücker Straße"/>
    <tag k="ref" v="K 212"/>
  </way>
  <way id="25929586" version="7" timestamp="2009-06-05T06:21:34Z" uid="42429" user="FK270673" changeset="1426594">
    <nd ref="282844752"/>
    <nd ref="282844754"/>
    <nd ref="282844756"/>
    <nd ref="282565621"/>
    <tag k="created_by" v="Potlatch 0.10b"/>
    <tag k="highway" v="tertiary"/>
    <tag k="name" v="Lauenbrücker Straße"/>
    <tag k="ref" v="K 212"/>
  </way>
  <way id="25929586" version="8" timestamp="2009-10-04T22:40:30Z" uid="45882" user="smarties" changeset="2744085">
    <nd ref="282844752"/>
    <nd ref="282844754"/>
    <nd ref="282844756"/>
    <nd ref="282565621"/>
    <tag k="highway" v="secondary"/>
    <tag k="name" v="Lauenbrücker Straße"/>
    <tag k="note" v="Der Zustand der Straße ist eindeutig Secondary"/>
    <tag k="ref" v="K 212"/>
  </way>
  <way id="25929586" version="9" timestamp="2009-10-05T09:10:51Z" uid="103124" user="ficus" changeset="2747440">
    <nd ref="282844752"/>
    <nd ref="282844754"/>
    <nd ref="282844756"/>
    <nd ref="282565621"/>
    <tag k="highway" v="tertiary"/>
    <tag k="name" v="Lauenbrücker Straße"/>
    <tag k="note" v="Der Zustand der Straße ist eindeutig Secondary"/>
    <tag k="ref" v="K 212"/>
  </way>
  <way id="25929586" version="10" timestamp="2009-10-05T09:21:53Z" uid="103124" user="ficus" changeset="2747538">
    <nd ref="282844752"/>
    <nd ref="282844754"/>
    <nd ref="282844756"/>
    <nd ref="282565621"/>
    <tag k="highway" v="secondary"/>
    <tag k="name" v="Lauenbrücker Straße"/>
    <tag k="note" v="Der Zustand der Straße ist eindeutig Secondary"/>
    <tag k="ref" v="K 212"/>
  </way>
  <way id="25929586" version="11" timestamp="2009-11-03T21:20:10Z" uid="103124" user="ficus" changeset="3028449">
    <nd ref="282844752"/>
    <nd ref="282844754"/>
    <nd ref="282844756"/>
    <nd ref="553413169"/>
    <nd ref="282565621"/>
    <tag k="highway" v="secondary"/>
    <tag k="name" v="Lauenbrücker Straße"/>
    <tag k="note" v="Der Zustand der Straße ist eindeutig Secondary"/>
    <tag k="ref" v="K 212"/>
  </way>
  <way id="25929586" version="12" timestamp="2009-11-04T17:11:20Z" uid="103124" user="ficus" changeset="3034377">
    <nd ref="282844752"/>
    <nd ref="282844754"/>
    <nd ref="282844756"/>
    <nd ref="553413169"/>
    <nd ref="554791239"/>
    <nd ref="282565621"/>
    <tag k="highway" v="secondary"/>
    <tag k="name" v="Lauenbrücker Straße"/>
    <tag k="note" v="Der Zustand der Straße ist eindeutig Secondary"/>
    <tag k="ref" v="K 212"/>
  </way>
  <way id="25929586" version="13" timestamp="2009-12-22T19:45:44Z" uid="103124" user="ficus" changeset="3429797">
    <nd ref="282844752"/>
    <nd ref="282844754"/>
    <nd ref="598275271"/>
    <nd ref="282844756"/>
    <nd ref="553413169"/>
    <nd ref="554791239"/>
    <nd ref="282565621"/>
    <tag k="highway" v="secondary"/>
    <tag k="name" v="Lauenbrücker Straße"/>
    <tag k="note" v="Der Zustand der Straße ist eindeutig Secondary"/>
    <tag k="ref" v="K 212"/>
  </way>
  <way id="25929586" version="14" timestamp="2009-12-24T18:43:49Z" uid="103124" user="ficus" changeset="3444616">
    <nd ref="282844752"/>
    <nd ref="599035631"/>
    <nd ref="282844754"/>
    <nd ref="598275271"/>
    <nd ref="282844756"/>
    <nd ref="553413169"/>
    <nd ref="554791239"/>
    <nd ref="282565621"/>
    <tag k="highway" v="secondary"/>
    <tag k="name" v="Lauenbrücker Straße"/>
    <tag k="note" v="Der Zustand der Straße ist eindeutig Secondary"/>
    <tag k="ref" v="K 212"/>
  </way>
  <way id="25929586" version="15" timestamp="2012-02-24T08:37:05Z" uid="84733" user="goldwell" changeset="10775798">
    <nd ref="282844752"/>
    <nd ref="599035631"/>
    <nd ref="282844754"/>
    <nd ref="598275271"/>
    <nd ref="1645283721"/>
    <nd ref="553413169"/>
    <nd ref="554791239"/>
    <nd ref="282565621"/>
    <tag k="highway" v="secondary"/>
    <tag k="name" v="Lauenbrücker Straße"/>
    <tag k="note" v="Der Zustand der Straße ist eindeutig Secondary"/>
    <tag k="ref" v="K 212"/>
  </way>
  <way id="25929587" version="3" timestamp="2008-08-05T19:57:33Z" uid="45882" user="smarties" changeset="81473">
    <nd ref="283438582"/>
    <nd ref="282844651"/>
    <nd ref="282844752"/>
    <tag k="highway" v="secondary"/>
    <tag k="name" v="Im Heidorn"/>
    <tag k="ref" v="K 212"/>
  </way>
  <way id="25929587" version="4" timestamp="2008-08-09T20:28:01Z" uid="33382" user="de_muur" changeset="157474">
    <nd ref="283438582"/>
    <nd ref="282844651"/>
    <nd ref="282844752"/>
    <tag k="highway" v="tertiary"/>
    <tag k="name" v="Im Heidorn"/>
    <tag k="ref" v="K 212"/>
  </way>
  <way id="25929587" version="5" timestamp="2008-08-09T21:56:25Z" uid="45882" user="smarties" changeset="169614">
    <nd ref="283438582"/>
    <nd ref="282844651"/>
    <nd ref="282844752"/>
    <tag k="highway" v="secondary"/>
    <tag k="name" v="Im Heidorn"/>
    <tag k="ref" v="K 212"/>
  </way>
  <way id="25929587" version="6" timestamp="2008-09-24T10:14:57Z" uid="62536" user="Gucky" changeset="689248">
    <nd ref="283438582"/>
    <nd ref="282844651"/>
    <nd ref="282844752"/>
    <tag k="created_by" v="Potlatch 0.10b"/>
    <tag k="highway" v="secondary"/>
    <tag k="name" v="Im Heidorn"/>
    <tag k="ref" v="K 212"/>
  </way>
  <way id="25929587" version="7" timestamp="2008-11-04T19:37:12Z" uid="35574" user="Schorse" changeset="675787">
    <nd ref="283438582"/>
    <nd ref="282844651"/>
    <tag k="created_by" v="Potlatch 0.10b"/>
    <tag k="highway" v="tertiary"/>
    <tag k="name" v="Im Heidorn"/>
    <tag k="ref" v="K 212"/>
  </way>
  <way id="25929587" version="8" timestamp="2009-05-11T21:52:33Z" uid="45882" user="smarties" changeset="1159047">
    <nd ref="283438582"/>
    <nd ref="282844651"/>
    <tag k="created_by" v="Potlatch 0.10b"/>
    <tag k="highway" v="tertiary"/>
    <tag k="name" v="Im Heidhorn"/>
    <tag k="ref" v="K 212"/>
  </way>
  <way id="25929587" version="9" timestamp="2009-10-04T22:40:28Z" uid="45882" user="smarties" changeset="2744085">
    <nd ref="283438582"/>
    <nd ref="282844651"/>
    <tag k="highway" v="secondary"/>
    <tag k="name" v="Im Heidhorn"/>
    <tag k="note" v="Der Zustand der Straße ist eindeutig Secondary"/>
    <tag k="ref" v="K 212"/>
  </way>
  <way id="25929765" version="2" timestamp="2009-02-01T22:41:48Z" uid="67142" user="zottel" changeset="50569">
    <nd ref="339883467"/>
    <nd ref="339883462"/>
    <nd ref="339883465"/>
    <tag k="bicycle" v="yes"/>
    <tag k="foot" v="yes"/>
    <tag k="highway" v="path"/>
    <tag k="surface" v="gravel"/>
  </way>
  <way id="25929765" version="3" timestamp="2009-10-31T19:22:31Z" uid="63969" user="olvagor" changeset="3000608">
    <nd ref="339883467"/>
    <nd ref="339883462"/>
    <tag k="bicycle" v="yes"/>
    <tag k="foot" v="yes"/>
    <tag k="highway" v="path"/>
    <tag k="surface" v="gravel"/>
  </way>
  <way id="25929765" version="4" timestamp="2011-09-14T07:40:51Z" uid="442210" user="dwausr" changeset="9296747"/>
  <way id="25929842" version="2" timestamp="2010-06-20T07:33:35Z" uid="9719" user="dvaey" changeset="5030187"/>
  <way id="25929857" version="5" timestamp="2010-06-20T07:36:31Z" uid="9719" user="dvaey" changeset="5030187"/>
  <way id="25929879" version="3" timestamp="2010-06-30T17:59:01Z" uid="9719" user="dvaey" changeset="5115249">
    <nd ref="282849419"/>
    <nd ref="282849420"/>
    <nd ref="299052172"/>
    <nd ref="797335157"/>
    <nd ref="282849421"/>
    <nd ref="282849422"/>
    <nd ref="282849419"/>
    <tag k="amenity" v="parking"/>
  </way>
  <way id="25929879" version="4" timestamp="2010-07-06T08:43:23Z" uid="4467" user="Rosscoe" changeset="5148386">
    <nd ref="282849419"/>
    <nd ref="282849420"/>
    <nd ref="282849421"/>
    <nd ref="282849422"/>
    <nd ref="282849419"/>
    <tag k="amenity" v="parking"/>
    <tag k="parking" v="multi-storey"/>
  </way>
  <way id="25929879" version="5" timestamp="2011-02-21T12:22:06Z" uid="9719" user="dvaey" changeset="7353034">
    <nd ref="282849419"/>
    <nd ref="282849420"/>
    <nd ref="1164975832"/>
    <nd ref="1164975795"/>
    <nd ref="282849421"/>
    <nd ref="282849422"/>
    <nd ref="282849419"/>
    <tag k="amenity" v="parking"/>
    <tag k="parking" v="multi-storey"/>
  </way>
  <way id="25929060" version="3" timestamp="2012-04-17T01:05:57Z" uid="24119" user="Mauls" changeset="11328453">
    <nd ref="244886895"/>
    <nd ref="282839073"/>
    <tag k="highway" v="pedestrian"/>
  </way>
  <way id="25929100" version="11" timestamp="2012-04-25T11:25:33Z" uid="578473" user="cassy" changeset="11413604">
    <nd ref="282839365"/>
    <nd ref="282839268"/>
    <nd ref="25677440"/>
    <nd ref="252860139"/>
    <nd ref="25677439"/>
    <nd ref="252860140"/>
    <nd ref="252860141"/>
    <nd ref="25677441"/>
    <nd ref="252860142"/>
    <nd ref="1730419013"/>
    <nd ref="25677442"/>
    <nd ref="288488697"/>
    <nd ref="282652384"/>
    <nd ref="288488702"/>
    <nd ref="288488708"/>
    <nd ref="282652385"/>
    <nd ref="628597187"/>
    <nd ref="628597186"/>
    <nd ref="25677443"/>
    <nd ref="282839263"/>
    <nd ref="282839266"/>
    <nd ref="25677444"/>
    <nd ref="25677445"/>
    <tag k="foot" v="yes"/>
    <tag k="highway" v="cycleway"/>
    <tag k="name" v="Kirchwerder Marschbahndamm"/>
    <tag k="postal_code" v="21037"/>
  </way>
  <way id="25929100" version="12" timestamp="2012-04-25T11:31:09Z" uid="578473" user="cassy" changeset="11413604">
    <nd ref="282839365"/>
    <nd ref="282839268"/>
    <nd ref="25677440"/>
    <nd ref="252860139"/>
    <nd ref="25677439"/>
    <nd ref="252860140"/>
    <nd ref="1730421561"/>
    <nd ref="252860141"/>
    <nd ref="25677441"/>
    <nd ref="252860142"/>
    <nd ref="1730419013"/>
    <nd ref="25677442"/>
    <nd ref="288488697"/>
    <nd ref="282652384"/>
    <nd ref="288488702"/>
    <nd ref="288488708"/>
    <nd ref="282652385"/>
    <nd ref="628597187"/>
    <nd ref="628597186"/>
    <nd ref="25677443"/>
    <nd ref="282839263"/>
    <nd ref="282839266"/>
    <nd ref="25677444"/>
    <nd ref="25677445"/>
    <tag k="foot" v="yes"/>
    <tag k="highway" v="cycleway"/>
    <tag k="name" v="Kirchwerder Marschbahndamm"/>
    <tag k="postal_code" v="21037"/>
  </way>
  <way id="25929100" version="13" timestamp="2012-04-25T11:54:45Z" uid="578473" user="cassy" changeset="11413604">
    <nd ref="282839365"/>
    <nd ref="282839268"/>
    <nd ref="25677440"/>
    <nd ref="252860139"/>
    <nd ref="25677439"/>
    <nd ref="252860140"/>
    <nd ref="1730421561"/>
    <nd ref="252860141"/>
    <nd ref="25677441"/>
    <nd ref="252860142"/>
    <nd ref="1730419013"/>
    <nd ref="25677442"/>
    <nd ref="288488697"/>
    <nd ref="282652384"/>
    <nd ref="288488702"/>
    <nd ref="1730443845"/>
    <nd ref="288488708"/>
    <nd ref="282652385"/>
    <nd ref="628597187"/>
    <nd ref="1730443855"/>
    <nd ref="628597186"/>
    <nd ref="25677443"/>
    <nd ref="282839263"/>
    <nd ref="282839266"/>
    <nd ref="25677444"/>
    <nd ref="25677445"/>
    <tag k="foot" v="yes"/>
    <tag k="highway" v="cycleway"/>
    <tag k="name" v="Kirchwerder Marschbahndamm"/>
    <tag k="postal_code" v="21037"/>
  </way>
  <way id="25929100" version="14" timestamp="2012-07-17T13:40:41Z" uid="722137" user="OSMF Redaction Account" changeset="12266741">
    <nd ref="282839365"/>
    <nd ref="282839268"/>
    <nd ref="25677440"/>
    <nd ref="252860139"/>
    <nd ref="25677439"/>
    <nd ref="252860140"/>
    <nd ref="1730421561"/>
    <nd ref="252860141"/>
    <nd ref="25677441"/>
    <nd ref="252860142"/>
    <nd ref="1730419013"/>
    <nd ref="25677442"/>
    <nd ref="288488697"/>
    <nd ref="282652384"/>
    <nd ref="288488702"/>
    <nd ref="1730443845"/>
    <nd ref="288488708"/>
    <nd ref="282652385"/>
    <nd ref="1730443855"/>
    <nd ref="25677443"/>
    <nd ref="282839263"/>
    <nd ref="282839266"/>
    <nd ref="25677444"/>
    <nd ref="25677445"/>
    <tag k="foot" v="yes"/>
    <tag k="highway" v="cycleway"/>
    <tag k="name" v="Kirchwerder Marschbahndamm"/>
    <tag k="postal_code" v="21037"/>
  </way>
  <way id="25929403" version="13" timestamp="2012-05-02T08:17:44Z" uid="165061" user="mapper999" changeset="11477090">
    <nd ref="763406429"/>
    <nd ref="1738036683"/>
    <nd ref="1738036686"/>
    <nd ref="1738036689"/>
    <nd ref="61279953"/>
    <tag k="highway" v="secondary"/>
    <tag k="maxspeed" v="50"/>
    <tag k="oneway" v="yes"/>
    <tag k="ref" v="L 630"/>
    <tag k="source" v="HiRes aerial imagery"/>
  </way>
  <way id="25929432" version="3" timestamp="2012-07-13T18:20:05Z" uid="722137" user="OSMF Redaction Account" changeset="12209589">
    <nd ref="282843580"/>
    <nd ref="282843581"/>
    <nd ref="282843582"/>
    <nd ref="282843583"/>
    <nd ref="282843580"/>
    <tag k="sport" v="football"/>
  </way>
  <way id="25929879" version="6" timestamp="2012-07-01T08:38:15Z" uid="708295" user="numbfew" changeset="12073131">
    <nd ref="282849419"/>
    <nd ref="282849420"/>
    <nd ref="1164975832"/>
    <nd ref="1164975795"/>
    <nd ref="282849421"/>
    <nd ref="282849422"/>
    <nd ref="282849419"/>
    <tag k="amenity" v="parking"/>
    <tag k="building" v="yes"/>
    <tag k="parking" v="multi-storey"/>
  </way>
  <way id="25929879" version="7" timestamp="2012-07-19T10:40:21Z" uid="722137" user="OSMF Redaction Account" changeset="12319009">
    <nd ref="282849419"/>
    <nd ref="282849420"/>
    <nd ref="282849421"/>
    <nd ref="282849422"/>
    <nd ref="282849419"/>
    <tag k="amenity" v="parking"/>
    <tag k="building" v="yes"/>
  </way>
</osm>
