<?xml version='1.0' encoding='UTF-8'?>
<osm version="0.6" generator="libosmium/2.20.0">
  <way id="26181025" version="3" timestamp="2008-12-13T20:18:33Z" uid="6975" user="ulfl" changeset="352865">
    <nd ref="286699862"/>
    <nd ref="286699864"/>
    <tag k="highway" v="residential"/>
    <tag k="name" v="Tiefgraben"/>
    <tag k="noexit" v="yes"/>
  </way>
  <way id="26181039" version="1" timestamp="2008-08-10T12:33:06Z" uid="7617" user="Franc" changeset="171973">
    <nd ref="252533645"/>
    <nd ref="286699871"/>
    <nd ref="29898563"/>
    <tag k="created_by" v="Potlatch 0.7b"/>
    <tag k="highway" v="residential"/>
    <tag k="name" v="Russell Avenue"/>
  </way>
  <way id="26181039" version="2" timestamp="2010-05-01T06:25:42Z" uid="61114" user="Trav" changeset="4571792">
    <nd ref="252533645"/>
    <nd ref="714786563"/>
    <nd ref="286699871"/>
    <nd ref="714786566"/>
    <nd ref="29898563"/>
    <tag k="created_by" v="Potlatch 0.7b"/>
    <tag k="highway" v="residential"/>
    <tag k="name" v="Russell Avenue"/>
  </way>
  <way id="26181039" version="3" timestamp="2010-07-08T00:24:56Z" uid="74617" user="JohnSmith" changeset="5162525">
    <nd ref="252533645"/>
    <nd ref="714786563"/>
    <nd ref="286699871"/>
    <nd ref="714786566"/>
    <nd ref="29898563"/>
    <tag k="highway" v="residential"/>
    <tag k="maxspeed" v="50"/>
    <tag k="maxspeed:source" v="default residential speed limit in Australia"/>
    <tag k="name" v="Russell Avenue"/>
  </way>
  <way id="26181039" version="4" timestamp="2012-01-17T02:00:06Z" uid="147510" user="woodpeck_fixbot" changeset="10413896">
    <nd ref="252533645"/>
    <nd ref="714786563"/>
    <nd ref="286699871"/>
    <nd ref="714786566"/>
    <nd ref="29898563"/>
    <tag k="highway" v="residential"/>
    <tag k="name" v="Russell Avenue"/>
  </way>
  <way id="26181040" version="1" timestamp="2008-08-10T12:33:07Z" uid="7617" user="Franc" changeset="171973">
    <nd ref="286699889"/>
    <nd ref="286699902"/>
    <nd ref="286699898"/>
    <tag k="created_by" v="JOSM"/>
    <tag k="highway" v="service"/>
    <tag k="name" v="Tryon Lane"/>
    <tag k="note" v="my brother surveyed this"/>
    <tag k="oneway" v="yes"/>
    <tag k="source" v="yahoo_imagery"/>
    <tag k="source:name" v="survey"/>
  </way>
  <way id="26181042" version="1" timestamp="2008-08-10T12:33:08Z" uid="7617" user="Franc" changeset="171973">
    <nd ref="252533645"/>
    <nd ref="286699902"/>
    <tag k="created_by" v="JOSM"/>
    <tag k="highway" v="service"/>
    <tag k="name" v="Russell Lane"/>
    <tag k="note" v="my brother surveyed this"/>
    <tag k="source" v="yahoo_imagery"/>
    <tag k="source:name" v="survey"/>
  </way>
  <way id="26181042" version="2" timestamp="2010-05-01T06:25:42Z" uid="61114" user="Trav" changeset="4571792">
    <nd ref="252533645"/>
    <nd ref="714786557"/>
    <nd ref="286699902"/>
    <tag k="created_by" v="JOSM"/>
    <tag k="highway" v="service"/>
    <tag k="name" v="Russell Lane"/>
    <tag k="note" v="my brother surveyed this"/>
    <tag k="source" v="yahoo_imagery"/>
    <tag k="source:name" v="survey"/>
  </way>
  <way id="26181043" version="1" timestamp="2008-08-10T12:33:09Z" uid="7617" user="Franc" changeset="171973">
    <nd ref="286699905"/>
    <nd ref="252533626"/>
    <tag k="created_by" v="JOSM"/>
    <tag k="highway" v="service"/>
    <tag k="name" v="Valley Lane"/>
    <tag k="note" v="my brother surveyed this"/>
    <tag k="source" v="survey"/>
  </way>
  <way id="26181044" version="1" timestamp="2008-08-10T12:33:10Z" uid="7617" user="Franc" changeset="171973">
    <nd ref="286699933"/>
    <nd ref="252533627"/>
    <nd ref="252533628"/>
    <tag k="created_by" v="Potlatch 0.7b"/>
    <tag k="highway" v="residential"/>
    <tag k="name" v="Valley Road"/>
    <tag k="note" v="my brother surveyed this"/>
    <tag k="source:name" v="survey"/>
  </way>
  <way id="26181044" version="2" timestamp="2010-03-14T07:43:13Z" uid="7617" user="Franc" changeset="4121475">
    <nd ref="286699933"/>
    <nd ref="665727031"/>
    <nd ref="665727032"/>
    <nd ref="665727033"/>
    <nd ref="665727030"/>
    <nd ref="665727028"/>
    <nd ref="665727029"/>
    <nd ref="252533627"/>
    <nd ref="665727024"/>
    <nd ref="252533628"/>
    <tag k="highway" v="residential"/>
    <tag k="name" v="Valley Road"/>
    <tag k="note" v="my brother surveyed this"/>
    <tag k="source:name" v="survey"/>
  </way>
  <way id="26181044" version="3" timestamp="2010-07-08T00:25:45Z" uid="74617" user="JohnSmith" changeset="5162525">
    <nd ref="286699933"/>
    <nd ref="665727031"/>
    <nd ref="665727032"/>
    <nd ref="665727033"/>
    <nd ref="665727030"/>
    <nd ref="665727028"/>
    <nd ref="665727029"/>
    <nd ref="252533627"/>
    <nd ref="665727024"/>
    <nd ref="252533628"/>
    <tag k="highway" v="residential"/>
    <tag k="maxspeed" v="50"/>
    <tag k="maxspeed:source" v="default residential speed limit in Australia"/>
    <tag k="name" v="Valley Road"/>
    <tag k="note" v="my brother surveyed this"/>
    <tag k="source:name" v="survey"/>
  </way>
  <way id="26181044" version="4" timestamp="2012-01-17T02:00:08Z" uid="147510" user="woodpeck_fixbot" changeset="10413896">
    <nd ref="286699933"/>
    <nd ref="665727031"/>
    <nd ref="665727032"/>
    <nd ref="665727033"/>
    <nd ref="665727030"/>
    <nd ref="665727028"/>
    <nd ref="665727029"/>
    <nd ref="252533627"/>
    <nd ref="665727024"/>
    <nd ref="252533628"/>
    <tag k="highway" v="residential"/>
    <tag k="name" v="Valley Road"/>
    <tag k="note" v="my brother surveyed this"/>
    <tag k="source:name" v="survey"/>
  </way>
  <way id="26181045" version="1" timestamp="2008-08-10T12:33:11Z" uid="7617" user="Franc" changeset="171973">
    <nd ref="286699909"/>
    <nd ref="252839532"/>
    <tag k="created_by" v="Potlatch 0.7b"/>
    <tag k="highway" v="steps"/>
    <tag k="note" v="my brother surveyed this, length is approximate"/>
    <tag k="source" v="survey"/>
  </way>
  <way id="26181046" version="1" timestamp="2008-08-10T12:33:12Z" uid="7617" user="Franc" changeset="171973">
    <nd ref="252839532"/>
    <nd ref="252839509"/>
    <tag k="created_by" v="Potlatch 0.7b"/>
    <tag k="highway" v="residential"/>
    <tag k="name" v="Dangar Street"/>
    <tag k="note" v="my brother surveyed this"/>
    <tag k="source:name" v="survey"/>
  </way>
  <way id="26181046" version="2" timestamp="2010-07-08T00:22:58Z" uid="74617" user="JohnSmith" changeset="5162525">
    <nd ref="252839532"/>
    <nd ref="252839509"/>
    <tag k="highway" v="residential"/>
    <tag k="maxspeed" v="50"/>
    <tag k="maxspeed:source" v="default residential speed limit in Australia"/>
    <tag k="name" v="Dangar Street"/>
    <tag k="note" v="my brother surveyed this"/>
    <tag k="source:name" v="survey"/>
  </way>
  <way id="26181046" version="3" timestamp="2012-01-17T02:00:11Z" uid="147510" user="woodpeck_fixbot" changeset="10413896">
    <nd ref="252839532"/>
    <nd ref="252839509"/>
    <tag k="highway" v="residential"/>
    <tag k="name" v="Dangar Street"/>
    <tag k="note" v="my brother surveyed this"/>
    <tag k="source:name" v="survey"/>
  </way>
  <way id="26181047" version="1" timestamp="2008-08-10T12:33:12Z" uid="7617" user="Franc" changeset="171973">
    <nd ref="252837320"/>
    <nd ref="252837365"/>
    <nd ref="286699930"/>
    <nd ref="252837364"/>
    <nd ref="286699927"/>
    <nd ref="252837363"/>
    <nd ref="286699933"/>
    <tag k="created_by" v="Potlatch 0.7b"/>
    <tag k="highway" v="residential"/>
    <tag k="name" v="Howard Street"/>
    <tag k="note" v="my brother surveyed this"/>
    <tag k="source:name" v="survey"/>
  </way>
  <way id="26181047" version="2" timestamp="2008-08-26T13:47:07Z" uid="61114" user="Trav" changeset="422447">
    <nd ref="286699933"/>
    <nd ref="252837363"/>
    <nd ref="286699927"/>
    <nd ref="252837364"/>
    <nd ref="286699930"/>
    <nd ref="252837365"/>
    <nd ref="252837320"/>
    <nd ref="38417886"/>
    <tag k="created_by" v="Potlatch 0.7b"/>
    <tag k="highway" v="residential"/>
    <tag k="name" v="Howard Street"/>
    <tag k="note" v="my brother surveyed this"/>
    <tag k="source:name" v="survey"/>
  </way>
  <way id="26181047" version="3" timestamp="2010-03-14T07:43:13Z" uid="7617" user="Franc" changeset="4121475">
    <nd ref="286699933"/>
    <nd ref="252837363"/>
    <nd ref="286699927"/>
    <nd ref="252837364"/>
    <nd ref="286699930"/>
    <nd ref="252837365"/>
    <nd ref="665727027"/>
    <nd ref="252837320"/>
    <nd ref="38417886"/>
    <tag k="highway" v="residential"/>
    <tag k="name" v="Howard Street"/>
    <tag k="note" v="my brother surveyed this"/>
    <tag k="source:name" v="survey"/>
  </way>
  <way id="26181047" version="4" timestamp="2010-07-08T00:24:23Z" uid="74617" user="JohnSmith" changeset="5162525">
    <nd ref="286699933"/>
    <nd ref="252837363"/>
    <nd ref="286699927"/>
    <nd ref="252837364"/>
    <nd ref="286699930"/>
    <nd ref="252837365"/>
    <nd ref="665727027"/>
    <nd ref="252837320"/>
    <nd ref="38417886"/>
    <tag k="highway" v="residential"/>
    <tag k="maxspeed" v="50"/>
    <tag k="maxspeed:source" v="default residential speed limit in Australia"/>
    <tag k="name" v="Howard Street"/>
    <tag k="note" v="my brother surveyed this"/>
    <tag k="source:name" v="survey"/>
  </way>
  <way id="26181047" version="5" timestamp="2012-01-17T02:00:13Z" uid="147510" user="woodpeck_fixbot" changeset="10413896">
    <nd ref="286699933"/>
    <nd ref="252837363"/>
    <nd ref="286699927"/>
    <nd ref="252837364"/>
    <nd ref="286699930"/>
    <nd ref="252837365"/>
    <nd ref="665727027"/>
    <nd ref="252837320"/>
    <nd ref="38417886"/>
    <tag k="highway" v="residential"/>
    <tag k="name" v="Howard Street"/>
    <tag k="note" v="my brother surveyed this"/>
    <tag k="source:name" v="survey"/>
  </way>
  <way id="26181048" version="1" timestamp="2008-08-10T12:33:13Z" uid="7617" user="Franc" changeset="171973">
    <nd ref="252837320"/>
    <nd ref="38417886"/>
    <tag k="created_by" v="Potlatch 0.7b"/>
    <tag k="highway" v="residential"/>
  </way>
  <way id="26181048" version="2" timestamp="2008-08-26T13:47:08Z" uid="61114" user="Trav" changeset="422447"/>
  <way id="26181090" version="2" timestamp="2008-10-26T08:18:16Z" uid="7617" user="Franc" changeset="583572">
    <nd ref="286700408"/>
    <nd ref="307616228"/>
    <nd ref="307616238"/>
    <tag k="highway" v="residential"/>
    <tag k="name" v="Wilson Street"/>
  </way>
  <way id="26181090" version="3" timestamp="2009-11-14T03:09:06Z" uid="117890" user="Jonathan Trott" changeset="3110420">
    <nd ref="286700408"/>
    <nd ref="307616228"/>
    <nd ref="307616238"/>
    <tag k="highway" v="residential"/>
    <tag k="name" v="Wilson Street"/>
  </way>
  <way id="26181090" version="4" timestamp="2010-07-07T22:15:45Z" uid="74617" user="JohnSmith" changeset="5161069">
    <nd ref="286700408"/>
    <nd ref="307616228"/>
    <nd ref="307616238"/>
    <tag k="highway" v="residential"/>
    <tag k="maxspeed" v="50"/>
    <tag k="maxspeed:source" v="default residential speed limit in Australia"/>
    <tag k="name" v="Wilson Street"/>
  </way>
  <way id="26181090" version="5" timestamp="2010-10-29T12:13:39Z" uid="12203" user="brainwad" changeset="6217932">
    <nd ref="286700408"/>
    <nd ref="307616228"/>
    <nd ref="307616238"/>
    <tag k="highway" v="residential"/>
    <tag k="maxspeed" v="40"/>
    <tag k="maxspeed:source" v="nearmap"/>
    <tag k="name" v="Wilson Street"/>
  </way>
  <way id="26181090" version="6" timestamp="2012-01-17T02:00:15Z" uid="147510" user="woodpeck_fixbot" changeset="10413896">
    <nd ref="286700408"/>
    <nd ref="307616228"/>
    <nd ref="307616238"/>
    <tag k="highway" v="residential"/>
    <tag k="name" v="Wilson Street"/>
  </way>
  <way id="26181091" version="2" timestamp="2008-10-26T08:18:15Z" uid="7617" user="Franc" changeset="583572">
    <nd ref="13887170"/>
    <nd ref="307616172"/>
    <nd ref="286700427"/>
    <nd ref="307616178"/>
    <nd ref="286700414"/>
    <tag k="highway" v="residential"/>
    <tag k="name" v="McElhone Street"/>
  </way>
  <way id="26181091" version="3" timestamp="2008-12-03T11:40:38Z" uid="9477" user="NilbogAus" changeset="78043">
    <nd ref="13887170"/>
    <nd ref="307616172"/>
    <nd ref="286700427"/>
    <nd ref="307616178"/>
    <nd ref="286700414"/>
    <tag k="highway" v="residential"/>
    <tag k="name" v="McElhone Street"/>
    <tag k="source" v="survey"/>
  </way>
  <way id="26181091" version="4" timestamp="2009-11-14T03:08:48Z" uid="117890" user="Jonathan Trott" changeset="3110420">
    <nd ref="13887170"/>
    <nd ref="307616172"/>
    <nd ref="286700427"/>
    <nd ref="307616178"/>
    <nd ref="286700414"/>
    <tag k="highway" v="residential"/>
    <tag k="name" v="McElhone Street"/>
    <tag k="source" v="survey"/>
  </way>
  <way id="26181091" version="5" timestamp="2010-02-24T11:32:37Z" uid="7617" user="Franc" changeset="3961958">
    <nd ref="13887170"/>
    <nd ref="652437278"/>
    <nd ref="307616172"/>
    <nd ref="286700427"/>
    <nd ref="307616178"/>
    <nd ref="286700414"/>
    <tag k="highway" v="residential"/>
    <tag k="name" v="McElhone Street"/>
    <tag k="source" v="survey"/>
  </way>
  <way id="26181091" version="6" timestamp="2010-07-07T22:15:59Z" uid="74617" user="JohnSmith" changeset="5161069">
    <nd ref="13887170"/>
    <nd ref="652437278"/>
    <nd ref="307616172"/>
    <nd ref="286700427"/>
    <nd ref="307616178"/>
    <nd ref="286700414"/>
    <tag k="highway" v="residential"/>
    <tag k="maxspeed" v="50"/>
    <tag k="maxspeed:source" v="default residential speed limit in Australia"/>
    <tag k="name" v="McElhone Street"/>
    <tag k="source" v="survey"/>
  </way>
  <way id="26181091" version="7" timestamp="2010-10-29T12:13:37Z" uid="12203" user="brainwad" changeset="6217932">
    <nd ref="13887170"/>
    <nd ref="652437278"/>
    <nd ref="307616172"/>
    <nd ref="286700427"/>
    <nd ref="307616178"/>
    <nd ref="286700414"/>
    <tag k="highway" v="residential"/>
    <tag k="maxspeed" v="40"/>
    <tag k="maxspeed:source" v="nearmap"/>
    <tag k="name" v="McElhone Street"/>
    <tag k="source" v="survey"/>
  </way>
  <way id="26181091" version="8" timestamp="2012-01-17T02:00:17Z" uid="147510" user="woodpeck_fixbot" changeset="10413896">
    <nd ref="13887170"/>
    <nd ref="652437278"/>
    <nd ref="307616172"/>
    <nd ref="286700427"/>
    <nd ref="307616178"/>
    <nd ref="286700414"/>
    <tag k="highway" v="residential"/>
    <tag k="name" v="McElhone Street"/>
    <tag k="source" v="survey"/>
  </way>
  <way id="26181093" version="2" timestamp="2008-10-26T08:18:14Z" uid="7617" user="Franc" changeset="583572">
    <nd ref="286700420"/>
    <nd ref="26375254"/>
    <tag k="highway" v="residential"/>
  </way>
  <way id="26181093" version="3" timestamp="2009-08-29T04:23:01Z" uid="147201" user="Nomad Tales" changeset="2297059">
    <nd ref="286700420"/>
    <nd ref="476260510"/>
    <tag k="highway" v="residential"/>
  </way>
  <way id="26181093" version="4" timestamp="2009-08-29T04:24:57Z" uid="147201" user="Nomad Tales" changeset="2297059">
    <nd ref="286700420"/>
    <nd ref="476260510"/>
    <tag k="highway" v="residential"/>
    <tag k="name" v="Bland St"/>
  </way>
  <way id="26181093" version="5" timestamp="2009-11-14T03:09:07Z" uid="117890" user="Jonathan Trott" changeset="3110420">
    <nd ref="286700420"/>
    <nd ref="476260510"/>
    <tag k="highway" v="residential"/>
    <tag k="name" v="Bland St"/>
  </way>
  <way id="26181093" version="6" timestamp="2010-02-24T11:32:41Z" uid="7617" user="Franc" changeset="3961958">
    <nd ref="286700420"/>
    <nd ref="652437256"/>
    <nd ref="476260510"/>
    <tag k="highway" v="residential"/>
    <tag k="name" v="Bland Street"/>
  </way>
  <way id="26181093" version="7" timestamp="2010-07-07T22:15:52Z" uid="74617" user="JohnSmith" changeset="5161069">
    <nd ref="286700420"/>
    <nd ref="652437256"/>
    <nd ref="476260510"/>
    <tag k="highway" v="residential"/>
    <tag k="maxspeed" v="50"/>
    <tag k="maxspeed:source" v="default residential speed limit in Australia"/>
    <tag k="name" v="Bland Street"/>
  </way>
  <way id="26181093" version="8" timestamp="2010-10-29T12:13:38Z" uid="12203" user="brainwad" changeset="6217932">
    <nd ref="286700420"/>
    <nd ref="652437256"/>
    <nd ref="476260510"/>
    <tag k="highway" v="residential"/>
    <tag k="maxspeed" v="40"/>
    <tag k="maxspeed:source" v="nearmap"/>
    <tag k="name" v="Bland Street"/>
  </way>
  <way id="26181093" version="9" timestamp="2012-01-17T02:00:19Z" uid="147510" user="woodpeck_fixbot" changeset="10413896">
    <nd ref="286700420"/>
    <nd ref="652437256"/>
    <nd ref="476260510"/>
    <tag k="highway" v="residential"/>
    <tag k="name" v="Bland Street"/>
  </way>
  <way id="26181094" version="2" timestamp="2008-08-17T09:00:12Z" uid="7617" user="Franc" changeset="295008"/>
  <way id="26181213" version="12" timestamp="2010-07-09T06:49:30Z" uid="74617" user="JohnSmith" changeset="5171134">
    <nd ref="289365969"/>
    <nd ref="675561062"/>
    <nd ref="675561067"/>
    <nd ref="286974514"/>
    <nd ref="675574742"/>
    <nd ref="675574902"/>
    <nd ref="286702359"/>
    <nd ref="675574856"/>
    <nd ref="676477697"/>
    <nd ref="675561022"/>
    <nd ref="283331118"/>
    <nd ref="675561028"/>
    <nd ref="675592645"/>
    <nd ref="289671081"/>
    <nd ref="675561328"/>
    <nd ref="287584716"/>
    <nd ref="727332532"/>
    <nd ref="727332533"/>
    <nd ref="727332534"/>
    <nd ref="287584645"/>
    <nd ref="727332535"/>
    <nd ref="727332536"/>
    <nd ref="727332537"/>
    <nd ref="287584637"/>
    <tag k="highway" v="residential"/>
    <tag k="maxspeed" v="50"/>
    <tag k="maxspeed:source" v="default residential speed limit in Australia"/>
    <tag k="name" v="King Street"/>
  </way>
  <way id="26181213" version="13" timestamp="2012-01-17T02:00:23Z" uid="147510" user="woodpeck_fixbot" changeset="10413896">
    <nd ref="289365969"/>
    <nd ref="675561062"/>
    <nd ref="675561067"/>
    <nd ref="286974514"/>
    <nd ref="675574742"/>
    <nd ref="675574902"/>
    <nd ref="286702359"/>
    <nd ref="675574856"/>
    <nd ref="676477697"/>
    <nd ref="675561022"/>
    <nd ref="283331118"/>
    <nd ref="675561028"/>
    <nd ref="675592645"/>
    <nd ref="289671081"/>
    <nd ref="675561328"/>
    <nd ref="287584716"/>
    <nd ref="727332532"/>
    <nd ref="727332533"/>
    <nd ref="727332534"/>
    <nd ref="287584645"/>
    <nd ref="727332535"/>
    <nd ref="727332536"/>
    <nd ref="727332537"/>
    <nd ref="287584637"/>
    <tag k="highway" v="residential"/>
    <tag k="name" v="King Street"/>
  </way>
  <way id="26181225" version="4" timestamp="2010-07-19T19:30:44Z" uid="33382" user="de_muur" changeset="5264207">
    <nd ref="271119857"/>
    <nd ref="306650285"/>
    <nd ref="267691269"/>
    <nd ref="324169526"/>
    <tag k="highway" v="tertiary"/>
    <tag k="ref" v="K 7"/>
    <tag k="surface" v="paved"/>
  </way>
  <way id="26181225" version="5" timestamp="2010-07-25T19:45:58Z" uid="35574" user="Schorse" changeset="5315853">
    <nd ref="271119857"/>
    <nd ref="306650285"/>
    <nd ref="267691269"/>
    <nd ref="324169526"/>
    <tag k="bicycle" v="designated"/>
    <tag k="cycleway" v="track"/>
    <tag k="foot" v="designated"/>
    <tag k="highway" v="tertiary"/>
    <tag k="ref" v="K 7"/>
    <tag k="surface" v="paved"/>
  </way>
  <way id="26181225" version="6" timestamp="2012-03-18T09:58:45Z" uid="57645" user="KartoGrapHiti" changeset="11016637">
    <nd ref="271119857"/>
    <nd ref="306650285"/>
    <nd ref="1679513117"/>
    <nd ref="324169526"/>
    <tag k="highway" v="tertiary"/>
    <tag k="ref" v="K 7"/>
    <tag k="surface" v="asphalt"/>
  </way>
  <way id="26181261" version="1" timestamp="2008-08-10T12:41:55Z" uid="7617" user="Franc" changeset="171973">
    <nd ref="286702843"/>
    <nd ref="286702850"/>
    <tag k="created_by" v="JOSM"/>
    <tag k="highway" v="residential"/>
    <tag k="name" v="Wilandra Street"/>
    <tag k="note" v="my brother sureyed this"/>
    <tag k="source" v="yahoo_imagery"/>
    <tag k="source:name" v="survey"/>
  </way>
  <way id="26181261" version="2" timestamp="2008-08-10T12:57:40Z" uid="7617" user="Franc" changeset="171973">
    <nd ref="286702843"/>
    <nd ref="286702850"/>
    <tag k="created_by" v="JOSM"/>
    <tag k="highway" v="residential"/>
    <tag k="name" v="Wilandra Street"/>
    <tag k="note" v="my brother surveyed this"/>
    <tag k="source" v="yahoo_imagery"/>
    <tag k="source:name" v="survey"/>
  </way>
  <way id="26181261" version="3" timestamp="2010-07-08T01:01:14Z" uid="74617" user="JohnSmith" changeset="5162525">
    <nd ref="286702843"/>
    <nd ref="286702850"/>
    <tag k="highway" v="residential"/>
    <tag k="maxspeed" v="50"/>
    <tag k="maxspeed:source" v="default residential speed limit in Australia"/>
    <tag k="name" v="Wilandra Street"/>
    <tag k="note" v="my brother surveyed this"/>
    <tag k="source" v="yahoo_imagery"/>
    <tag k="source:name" v="survey"/>
  </way>
  <way id="26181261" version="4" timestamp="2010-07-15T00:18:42Z" uid="4467" user="Rosscoe" changeset="5222924">
    <nd ref="286702843"/>
    <nd ref="286702850"/>
    <tag k="highway" v="residential"/>
    <tag k="maxspeed" v="50"/>
    <tag k="maxspeed:source" v="default residential speed limit in Australia"/>
    <tag k="name" v="Wilandra Street"/>
    <tag k="source" v="nearmap"/>
    <tag k="source:name" v="survey"/>
  </way>
  <way id="26181261" version="5" timestamp="2010-10-23T20:19:06Z" uid="20949" user="Ebenezer" changeset="6151224">
    <nd ref="286702843"/>
    <nd ref="962132584"/>
    <nd ref="286702850"/>
    <tag k="highway" v="residential"/>
    <tag k="lcn" v="yes"/>
    <tag k="maxspeed" v="50"/>
    <tag k="maxspeed:source" v="default residential speed limit in Australia"/>
    <tag k="name" v="Wilandra Street"/>
    <tag k="source" v="survey"/>
    <tag k="source:name" v="survey"/>
  </way>
  <way id="26181261" version="6" timestamp="2012-01-17T02:00:26Z" uid="147510" user="woodpeck_fixbot" changeset="10413896">
    <nd ref="286702843"/>
    <nd ref="962132584"/>
    <nd ref="286702850"/>
    <tag k="highway" v="residential"/>
    <tag k="lcn" v="yes"/>
    <tag k="name" v="Wilandra Street"/>
    <tag k="source" v="survey"/>
    <tag k="source:name" v="survey"/>
  </way>
  <way id="26181262" version="1" timestamp="2008-08-10T12:41:56Z" uid="7617" user="Franc" changeset="171973">
    <nd ref="252969359"/>
    <nd ref="286702855"/>
    <nd ref="286702843"/>
    <tag k="created_by" v="Potlatch 0.7b"/>
    <tag k="foot" v="yes"/>
    <tag k="highway" v="cycleway"/>
    <tag k="note" v="my brother sureyed this"/>
    <tag k="source:name" v="survey"/>
  </way>
  <way id="26181262" version="2" timestamp="2008-08-10T12:57:41Z" uid="7617" user="Franc" changeset="171973">
    <nd ref="252969359"/>
    <nd ref="286702855"/>
    <nd ref="286702843"/>
    <tag k="created_by" v="Potlatch 0.7b"/>
    <tag k="foot" v="yes"/>
    <tag k="highway" v="cycleway"/>
    <tag k="note" v="my brother surveyed this"/>
    <tag k="source:name" v="survey"/>
  </way>
  <way id="26181262" version="3" timestamp="2010-07-15T00:18:26Z" uid="4467" user="Rosscoe" changeset="5222924">
    <nd ref="252969359"/>
    <nd ref="286702855"/>
    <nd ref="286702843"/>
    <tag k="foot" v="yes"/>
    <tag k="highway" v="cycleway"/>
    <tag k="source:name" v="survey"/>
  </way>
  <way id="26181262" version="4" timestamp="2010-10-23T20:19:05Z" uid="20949" user="Ebenezer" changeset="6151224">
    <nd ref="252969359"/>
    <nd ref="286702855"/>
    <nd ref="286702843"/>
    <tag k="bicycle" v="yes"/>
    <tag k="foot" v="yes"/>
    <tag k="highway" v="footway"/>
    <tag k="lit" v="yes"/>
    <tag k="source" v="survey"/>
  </way>
  <way id="26181262" version="5" timestamp="2010-10-24T06:03:16Z" uid="20949" user="Ebenezer" changeset="6153434">
    <nd ref="252969359"/>
    <nd ref="286702855"/>
    <nd ref="286702843"/>
    <tag k="bicycle" v="yes"/>
    <tag k="foot" v="yes"/>
    <tag k="highway" v="footway"/>
    <tag k="lcn" v="yes"/>
    <tag k="lit" v="yes"/>
    <tag k="source" v="survey"/>
  </way>
  <way id="26181262" version="6" timestamp="2011-11-13T06:00:29Z" uid="393287" user="Pyobeon" changeset="9810712">
    <nd ref="252969359"/>
    <nd ref="1500929512"/>
    <nd ref="286702855"/>
    <nd ref="286702843"/>
    <tag k="bicycle" v="yes"/>
    <tag k="foot" v="yes"/>
    <tag k="highway" v="footway"/>
    <tag k="lcn" v="yes"/>
    <tag k="lit" v="yes"/>
    <tag k="source" v="survey"/>
  </way>
  <way id="26181263" version="2" timestamp="2008-09-08T18:38:29Z" uid="33382" user="de_muur" changeset="575672">
    <nd ref="271119872"/>
    <nd ref="60304391"/>
    <nd ref="60304392"/>
    <nd ref="295132198"/>
    <nd ref="60304393"/>
    <nd ref="295132115"/>
    <nd ref="60304394"/>
    <nd ref="60304395"/>
    <nd ref="60304396"/>
    <nd ref="60304397"/>
    <nd ref="267691264"/>
    <tag k="created_by" v="Potlatch 0.10b"/>
    <tag k="highway" v="tertiary"/>
    <tag k="name" v="Roedenbeckstraße"/>
    <tag k="ref" v="K 6"/>
  </way>
  <way id="26181263" version="3" timestamp="2008-09-09T18:28:06Z" uid="33382" user="de_muur" changeset="588292">
    <nd ref="271119872"/>
    <nd ref="60304391"/>
    <nd ref="60304392"/>
    <nd ref="295132198"/>
    <nd ref="60304393"/>
    <nd ref="295132115"/>
    <nd ref="60304394"/>
    <nd ref="60304395"/>
    <nd ref="60304396"/>
    <nd ref="60304397"/>
    <nd ref="295417211"/>
    <nd ref="267691264"/>
    <tag k="created_by" v="Potlatch 0.10b"/>
    <tag k="highway" v="tertiary"/>
    <tag k="name" v="Roedenbeckstraße"/>
    <tag k="ref" v="K 6"/>
  </way>
  <way id="26181263" version="4" timestamp="2009-01-11T17:22:56Z" uid="39330" user="chehrlic" changeset="773997">
    <nd ref="271119872"/>
    <nd ref="60304391"/>
    <nd ref="60304392"/>
    <nd ref="295132198"/>
    <nd ref="60304393"/>
    <nd ref="295132115"/>
    <nd ref="60304394"/>
    <nd ref="60304395"/>
    <nd ref="60304396"/>
    <nd ref="295417211"/>
    <nd ref="267691264"/>
    <tag k="created_by" v="Potlatch 0.10b"/>
    <tag k="highway" v="tertiary"/>
    <tag k="name" v="Roedenbeckstraße"/>
    <tag k="ref" v="K 6"/>
  </way>
  <way id="26181263" version="5" timestamp="2009-03-22T18:33:46Z" uid="33382" user="de_muur" changeset="844931">
    <nd ref="271119872"/>
    <nd ref="364776592"/>
    <nd ref="60304391"/>
    <tag k="created_by" v="Potlatch 0.10b"/>
    <tag k="highway" v="tertiary"/>
    <tag k="maxspeed" v="50"/>
    <tag k="name" v="Roedenbeckstraße"/>
    <tag k="ref" v="K 6"/>
  </way>
  <way id="26181263" version="6" timestamp="2010-07-19T18:41:02Z" uid="33382" user="de_muur" changeset="5263857">
    <nd ref="271119872"/>
    <nd ref="364776592"/>
    <nd ref="60304391"/>
    <tag k="highway" v="tertiary"/>
    <tag k="maxspeed" v="50"/>
    <tag k="name" v="Roedenbeckstraße"/>
    <tag k="ref" v="K 6"/>
    <tag k="surface" v="paved"/>
  </way>
  <way id="26181281" version="5" timestamp="2010-07-25T13:42:52Z" uid="33382" user="de_muur" changeset="5312016">
    <nd ref="30441731"/>
    <nd ref="832719884"/>
    <nd ref="736934980"/>
    <nd ref="30441726"/>
    <nd ref="305033164"/>
    <nd ref="30441720"/>
    <nd ref="30441719"/>
    <nd ref="31248539"/>
    <tag k="highway" v="secondary"/>
    <tag k="ref" v="L 155"/>
    <tag k="surface" v="paved"/>
  </way>
  <way id="26181281" version="6" timestamp="2010-07-25T16:15:46Z" uid="33382" user="de_muur" changeset="5313410">
    <nd ref="30441731"/>
    <nd ref="832719884"/>
    <nd ref="736934980"/>
    <nd ref="30441726"/>
    <nd ref="305033164"/>
    <nd ref="30441720"/>
    <nd ref="30441719"/>
    <tag k="highway" v="secondary"/>
    <tag k="ref" v="L 155"/>
    <tag k="surface" v="paved"/>
  </way>
  <way id="26181281" version="7" timestamp="2010-07-25T19:47:35Z" uid="35574" user="Schorse" changeset="5315853">
    <nd ref="30441731"/>
    <nd ref="832719884"/>
    <nd ref="736934980"/>
    <nd ref="30441726"/>
    <nd ref="305033164"/>
    <nd ref="30441720"/>
    <nd ref="30441719"/>
    <tag k="bicycle" v="designated"/>
    <tag k="cycleway" v="track"/>
    <tag k="foot" v="designated"/>
    <tag k="highway" v="secondary"/>
    <tag k="ref" v="L 155"/>
    <tag k="surface" v="paved"/>
  </way>
  <way id="26181281" version="8" timestamp="2011-04-14T19:27:35Z" uid="58095" user="BudBundi" changeset="7864134">
    <nd ref="30441731"/>
    <nd ref="832719884"/>
    <nd ref="736934980"/>
    <nd ref="30441726"/>
    <nd ref="305033164"/>
    <nd ref="30441720"/>
    <nd ref="30441719"/>
    <tag k="bicycle" v="designated"/>
    <tag k="cycleway" v="track"/>
    <tag k="foot" v="designated"/>
    <tag k="highway" v="secondary"/>
    <tag k="maxspeed" v="70"/>
    <tag k="ref" v="L 155"/>
    <tag k="surface" v="paved"/>
  </way>
  <way id="26181281" version="9" timestamp="2012-03-04T12:17:05Z" uid="45882" user="smarties" changeset="10867635"/>
  <way id="26181318" version="3" timestamp="2010-06-29T20:48:27Z" uid="74617" user="JohnSmith" changeset="5109183">
    <nd ref="286703521"/>
    <nd ref="286703522"/>
    <nd ref="286703526"/>
    <nd ref="286703524"/>
    <nd ref="286703521"/>
    <tag k="fixme" v="sport=rugby is ambiguous, see http://wiki.osm.org/wiki/Tag:sport%3Drugby for more details"/>
    <tag k="leisure" v="pitch"/>
    <tag k="sport" v="rugby"/>
  </way>
  <way id="26181325" version="3" timestamp="2010-06-29T20:50:05Z" uid="74617" user="JohnSmith" changeset="5109183">
    <nd ref="286703597"/>
    <nd ref="286703595"/>
    <nd ref="286703587"/>
    <nd ref="286703589"/>
    <nd ref="286703597"/>
    <tag k="fixme" v="sport=rugby is ambiguous, see http://wiki.osm.org/wiki/Tag:sport%3Drugby for more details"/>
    <tag k="leisure" v="pitch"/>
    <tag k="sport" v="rugby"/>
  </way>
  <way id="26181356" version="2" timestamp="2009-09-30T16:27:38Z" uid="36809" user="pfoten_weg_!_" changeset="2690373">
    <nd ref="286673723"/>
    <nd ref="286703197"/>
    <tag k="highway" v="steps"/>
  </way>
  <way id="26181731" version="1" timestamp="2008-08-10T12:47:11Z" uid="30201" user="rrankin" changeset="170611">
    <nd ref="286704126"/>
    <nd ref="286704127"/>
    <nd ref="286704128"/>
    <nd ref="286704129"/>
    <nd ref="286704130"/>
    <nd ref="286704131"/>
    <tag k="highway" v="residential"/>
    <tag k="name" v="Sunny Place"/>
    <tag k="source" v="yahoo"/>
  </way>
  <way id="26181731" version="2" timestamp="2009-11-26T23:33:11Z" uid="30201" user="rrankin" changeset="3224763">
    <nd ref="286704126"/>
    <nd ref="286704127"/>
    <nd ref="286704128"/>
    <nd ref="286704129"/>
    <nd ref="286704130"/>
    <nd ref="286704131"/>
    <nd ref="571668273"/>
    <tag k="highway" v="residential"/>
    <tag k="name" v="Sunny Place"/>
    <tag k="source" v="yahoo"/>
  </way>
  <way id="26181731" version="3" timestamp="2010-07-07T22:25:56Z" uid="74617" user="JohnSmith" changeset="5162525">
    <nd ref="286704126"/>
    <nd ref="286704127"/>
    <nd ref="286704128"/>
    <nd ref="286704129"/>
    <nd ref="286704130"/>
    <nd ref="286704131"/>
    <nd ref="571668273"/>
    <tag k="highway" v="residential"/>
    <tag k="maxspeed" v="50"/>
    <tag k="maxspeed:source" v="default residential speed limit in Australia"/>
    <tag k="name" v="Sunny Place"/>
    <tag k="source" v="yahoo"/>
  </way>
  <way id="26181731" version="4" timestamp="2012-01-17T02:00:29Z" uid="147510" user="woodpeck_fixbot" changeset="10413896">
    <nd ref="286704126"/>
    <nd ref="286704127"/>
    <nd ref="286704128"/>
    <nd ref="286704129"/>
    <nd ref="286704130"/>
    <nd ref="286704131"/>
    <nd ref="571668273"/>
    <tag k="highway" v="residential"/>
    <tag k="name" v="Sunny Place"/>
    <tag k="source" v="yahoo"/>
  </way>
  <way id="26181733" version="1" timestamp="2008-08-10T12:47:12Z" uid="30201" user="rrankin" changeset="170611">
    <nd ref="286704132"/>
    <nd ref="286704134"/>
    <nd ref="286704133"/>
    <tag k="highway" v="residential"/>
    <tag k="name" v="Kedron Place"/>
    <tag k="source" v="yahoo"/>
  </way>
  <way id="26181733" version="2" timestamp="2009-11-26T23:33:12Z" uid="30201" user="rrankin" changeset="3224763">
    <nd ref="286704132"/>
    <nd ref="286704134"/>
    <nd ref="571668273"/>
    <nd ref="286704133"/>
    <tag k="highway" v="residential"/>
    <tag k="name" v="Kedron Place"/>
    <tag k="source" v="yahoo"/>
  </way>
  <way id="26181733" version="3" timestamp="2010-07-07T22:30:25Z" uid="74617" user="JohnSmith" changeset="5162525">
    <nd ref="286704132"/>
    <nd ref="286704134"/>
    <nd ref="571668273"/>
    <nd ref="286704133"/>
    <tag k="highway" v="residential"/>
    <tag k="maxspeed" v="50"/>
    <tag k="maxspeed:source" v="default residential speed limit in Australia"/>
    <tag k="name" v="Kedron Place"/>
    <tag k="source" v="yahoo"/>
  </way>
  <way id="26181733" version="4" timestamp="2012-01-17T02:00:30Z" uid="147510" user="woodpeck_fixbot" changeset="10413896">
    <nd ref="286704132"/>
    <nd ref="286704134"/>
    <nd ref="571668273"/>
    <nd ref="286704133"/>
    <tag k="highway" v="residential"/>
    <tag k="name" v="Kedron Place"/>
    <tag k="source" v="yahoo"/>
  </way>
  <way id="26181735" version="1" timestamp="2008-08-10T12:47:13Z" uid="30201" user="rrankin" changeset="170611">
    <nd ref="286704134"/>
    <nd ref="286704135"/>
    <tag k="highway" v="residential"/>
    <tag k="name" v="Sunny Place"/>
    <tag k="source" v="yahoo"/>
  </way>
  <way id="26181735" version="2" timestamp="2010-07-07T22:35:47Z" uid="74617" user="JohnSmith" changeset="5162525">
    <nd ref="286704134"/>
    <nd ref="286704135"/>
    <tag k="highway" v="residential"/>
    <tag k="maxspeed" v="50"/>
    <tag k="maxspeed:source" v="default residential speed limit in Australia"/>
    <tag k="name" v="Sunny Place"/>
    <tag k="source" v="yahoo"/>
  </way>
  <way id="26181735" version="3" timestamp="2012-01-17T02:00:32Z" uid="147510" user="woodpeck_fixbot" changeset="10413896">
    <nd ref="286704134"/>
    <nd ref="286704135"/>
    <tag k="highway" v="residential"/>
    <tag k="name" v="Sunny Place"/>
    <tag k="source" v="yahoo"/>
  </way>
  <way id="26181736" version="1" timestamp="2008-08-10T12:47:14Z" uid="30201" user="rrankin" changeset="170611">
    <nd ref="286704136"/>
    <nd ref="286704175"/>
    <nd ref="286704137"/>
    <nd ref="286704138"/>
    <nd ref="286704139"/>
    <nd ref="286704140"/>
    <nd ref="286704141"/>
    <nd ref="286704166"/>
    <nd ref="286704176"/>
    <nd ref="286704170"/>
    <tag k="highway" v="residential"/>
    <tag k="name" v="Runcorn Street"/>
    <tag k="source" v="yahoo"/>
  </way>
  <way id="26181736" version="2" timestamp="2009-12-26T00:41:21Z" uid="7617" user="Franc" changeset="3451805">
    <nd ref="286704136"/>
    <nd ref="286704175"/>
    <nd ref="286704137"/>
    <nd ref="286704138"/>
    <nd ref="599409887"/>
    <nd ref="599409886"/>
    <nd ref="286704139"/>
    <nd ref="286704140"/>
    <nd ref="599409872"/>
    <nd ref="599409875"/>
    <nd ref="599409873"/>
    <nd ref="599409862"/>
    <nd ref="286704141"/>
    <nd ref="286704166"/>
    <nd ref="286704176"/>
    <nd ref="286704170"/>
    <tag k="highway" v="residential"/>
    <tag k="name" v="Runcorn Street"/>
    <tag k="source" v="yahoo"/>
  </way>
  <way id="26181736" version="3" timestamp="2010-07-07T22:36:21Z" uid="74617" user="JohnSmith" changeset="5162525">
    <nd ref="286704136"/>
    <nd ref="286704175"/>
    <nd ref="286704137"/>
    <nd ref="286704138"/>
    <nd ref="599409887"/>
    <nd ref="599409886"/>
    <nd ref="286704139"/>
    <nd ref="286704140"/>
    <nd ref="599409872"/>
    <nd ref="599409875"/>
    <nd ref="599409873"/>
    <nd ref="599409862"/>
    <nd ref="286704141"/>
    <nd ref="286704166"/>
    <nd ref="286704176"/>
    <nd ref="286704170"/>
    <tag k="highway" v="residential"/>
    <tag k="maxspeed" v="50"/>
    <tag k="maxspeed:source" v="default residential speed limit in Australia"/>
    <tag k="name" v="Runcorn Street"/>
    <tag k="source" v="yahoo"/>
  </way>
  <way id="26181736" version="4" timestamp="2012-01-17T02:00:33Z" uid="147510" user="woodpeck_fixbot" changeset="10413896">
    <nd ref="286704136"/>
    <nd ref="286704175"/>
    <nd ref="286704137"/>
    <nd ref="286704138"/>
    <nd ref="599409887"/>
    <nd ref="599409886"/>
    <nd ref="286704139"/>
    <nd ref="286704140"/>
    <nd ref="599409872"/>
    <nd ref="599409875"/>
    <nd ref="599409873"/>
    <nd ref="599409862"/>
    <nd ref="286704141"/>
    <nd ref="286704166"/>
    <nd ref="286704176"/>
    <nd ref="286704170"/>
    <tag k="highway" v="residential"/>
    <tag k="name" v="Runcorn Street"/>
    <tag k="source" v="yahoo"/>
  </way>
  <way id="26181737" version="1" timestamp="2008-08-10T12:47:14Z" uid="30201" user="rrankin" changeset="170611">
    <nd ref="286704166"/>
    <nd ref="286704142"/>
    <nd ref="286704143"/>
    <nd ref="286704145"/>
    <nd ref="286704149"/>
    <nd ref="286704158"/>
    <nd ref="286704159"/>
    <nd ref="286704160"/>
    <nd ref="286704161"/>
    <nd ref="286704162"/>
    <nd ref="286704164"/>
    <tag k="highway" v="residential"/>
    <tag k="name" v="Yeronga Close"/>
    <tag k="source" v="yahoo"/>
  </way>
  <way id="26181737" version="2" timestamp="2009-12-26T00:41:20Z" uid="7617" user="Franc" changeset="3451805">
    <nd ref="286704166"/>
    <nd ref="286704142"/>
    <nd ref="286704143"/>
    <nd ref="286704145"/>
    <nd ref="286704149"/>
    <nd ref="599409871"/>
    <nd ref="599409870"/>
    <nd ref="286704158"/>
    <nd ref="599409859"/>
    <nd ref="286704159"/>
    <nd ref="286704160"/>
    <nd ref="599409861"/>
    <nd ref="286704161"/>
    <nd ref="599409860"/>
    <nd ref="286704162"/>
    <nd ref="286704164"/>
    <tag k="highway" v="residential"/>
    <tag k="name" v="Yeronga Close"/>
    <tag k="source" v="nearmap"/>
  </way>
  <way id="26181737" version="3" timestamp="2010-07-07T22:28:48Z" uid="74617" user="JohnSmith" changeset="5162525">
    <nd ref="286704166"/>
    <nd ref="286704142"/>
    <nd ref="286704143"/>
    <nd ref="286704145"/>
    <nd ref="286704149"/>
    <nd ref="599409871"/>
    <nd ref="599409870"/>
    <nd ref="286704158"/>
    <nd ref="599409859"/>
    <nd ref="286704159"/>
    <nd ref="286704160"/>
    <nd ref="599409861"/>
    <nd ref="286704161"/>
    <nd ref="599409860"/>
    <nd ref="286704162"/>
    <nd ref="286704164"/>
    <tag k="highway" v="residential"/>
    <tag k="maxspeed" v="50"/>
    <tag k="maxspeed:source" v="default residential speed limit in Australia"/>
    <tag k="name" v="Yeronga Close"/>
    <tag k="source" v="nearmap"/>
  </way>
  <way id="26181737" version="4" timestamp="2012-01-17T02:00:37Z" uid="147510" user="woodpeck_fixbot" changeset="10413896">
    <nd ref="286704166"/>
    <nd ref="286704142"/>
    <nd ref="286704143"/>
    <nd ref="286704145"/>
    <nd ref="286704149"/>
    <nd ref="599409871"/>
    <nd ref="599409870"/>
    <nd ref="286704158"/>
    <nd ref="599409859"/>
    <nd ref="286704159"/>
    <nd ref="286704160"/>
    <nd ref="599409861"/>
    <nd ref="286704161"/>
    <nd ref="599409860"/>
    <nd ref="286704162"/>
    <nd ref="286704164"/>
    <tag k="highway" v="residential"/>
    <tag k="name" v="Yeronga Close"/>
    <tag k="source" v="nearmap"/>
  </way>
  <way id="26181738" version="3" timestamp="2009-04-07T18:22:20Z" uid="33382" user="de_muur" changeset="301104">
    <nd ref="253651388"/>
    <nd ref="370627706"/>
    <nd ref="370627693"/>
    <tag k="created_by" v="Potlatch 0.10f"/>
    <tag k="highway" v="tertiary"/>
    <tag k="maxspeed" v="50"/>
    <tag k="name" v="Ahsener Straße"/>
    <tag k="ref" v="K 62"/>
  </way>
  <way id="26181738" version="4" timestamp="2010-04-28T18:16:47Z" uid="33382" user="de_muur" changeset="4551848">
    <nd ref="253651388"/>
    <nd ref="370627706"/>
    <nd ref="370627693"/>
    <tag k="highway" v="tertiary"/>
    <tag k="maxspeed" v="50"/>
    <tag k="name" v="Ahsener Straße"/>
    <tag k="ref" v="K 62"/>
    <tag k="surface" v="paved"/>
  </way>
  <way id="26181738" version="5" timestamp="2011-12-11T18:36:59Z" uid="57645" user="KartoGrapHiti" changeset="10092775">
    <nd ref="253651388"/>
    <nd ref="370627706"/>
    <nd ref="370627693"/>
    <tag k="footway" v="no"/>
    <tag k="highway" v="tertiary"/>
    <tag k="maxspeed" v="50"/>
    <tag k="name" v="Ahsener Straße"/>
    <tag k="ref" v="K 62"/>
    <tag k="surface" v="paved"/>
  </way>
  <way id="26181739" version="1" timestamp="2008-08-10T12:47:16Z" uid="30201" user="rrankin" changeset="170611">
    <nd ref="286704175"/>
    <nd ref="286704170"/>
    <tag k="highway" v="residential"/>
    <tag k="name" v="Nundah Street"/>
    <tag k="source" v="yahoo"/>
  </way>
  <way id="26181739" version="2" timestamp="2009-12-26T00:41:20Z" uid="7617" user="Franc" changeset="3451805">
    <nd ref="286704175"/>
    <nd ref="286704170"/>
    <tag k="highway" v="residential"/>
    <tag k="name" v="Nundah Street"/>
    <tag k="source" v="nearmap"/>
  </way>
  <way id="26181739" version="3" timestamp="2010-07-07T22:34:21Z" uid="74617" user="JohnSmith" changeset="5162525">
    <nd ref="286704175"/>
    <nd ref="286704170"/>
    <tag k="highway" v="residential"/>
    <tag k="maxspeed" v="50"/>
    <tag k="maxspeed:source" v="default residential speed limit in Australia"/>
    <tag k="name" v="Nundah Street"/>
    <tag k="source" v="nearmap"/>
  </way>
  <way id="26181739" version="4" timestamp="2012-01-17T02:00:39Z" uid="147510" user="woodpeck_fixbot" changeset="10413896">
    <nd ref="286704175"/>
    <nd ref="286704170"/>
    <tag k="highway" v="residential"/>
    <tag k="name" v="Nundah Street"/>
    <tag k="source" v="nearmap"/>
  </way>
  <way id="26181740" version="1" timestamp="2008-08-10T12:47:17Z" uid="30201" user="rrankin" changeset="170611">
    <nd ref="286704176"/>
    <nd ref="286704177"/>
    <nd ref="286704178"/>
    <nd ref="286704179"/>
    <tag k="highway" v="residential"/>
    <tag k="name" v="Lindum Place"/>
    <tag k="source" v="yahoo"/>
  </way>
  <way id="26181740" version="2" timestamp="2009-12-26T00:41:21Z" uid="7617" user="Franc" changeset="3451805">
    <nd ref="286704176"/>
    <nd ref="286704177"/>
    <nd ref="599409858"/>
    <nd ref="599409857"/>
    <nd ref="286704178"/>
    <nd ref="599409863"/>
    <nd ref="286704179"/>
    <tag k="highway" v="residential"/>
    <tag k="name" v="Lindum Place"/>
    <tag k="source" v="nearmap"/>
  </way>
  <way id="26181740" version="3" timestamp="2010-07-07T22:34:53Z" uid="74617" user="JohnSmith" changeset="5162525">
    <nd ref="286704176"/>
    <nd ref="286704177"/>
    <nd ref="599409858"/>
    <nd ref="599409857"/>
    <nd ref="286704178"/>
    <nd ref="599409863"/>
    <nd ref="286704179"/>
    <tag k="highway" v="residential"/>
    <tag k="maxspeed" v="50"/>
    <tag k="maxspeed:source" v="default residential speed limit in Australia"/>
    <tag k="name" v="Lindum Place"/>
    <tag k="source" v="nearmap"/>
  </way>
  <way id="26181740" version="4" timestamp="2012-01-17T02:00:42Z" uid="147510" user="woodpeck_fixbot" changeset="10413896">
    <nd ref="286704176"/>
    <nd ref="286704177"/>
    <nd ref="599409858"/>
    <nd ref="599409857"/>
    <nd ref="286704178"/>
    <nd ref="599409863"/>
    <nd ref="286704179"/>
    <tag k="highway" v="residential"/>
    <tag k="name" v="Lindum Place"/>
    <tag k="source" v="nearmap"/>
  </way>
  <way id="26181741" version="1" timestamp="2008-08-10T12:47:17Z" uid="30201" user="rrankin" changeset="170611">
    <nd ref="286704180"/>
    <nd ref="286704181"/>
    <nd ref="286704184"/>
    <tag k="highway" v="residential"/>
    <tag k="name" v="Bardon Close"/>
    <tag k="source" v="yahoo"/>
  </way>
  <way id="26181741" version="2" timestamp="2009-12-26T00:41:20Z" uid="7617" user="Franc" changeset="3451805">
    <nd ref="286704180"/>
    <nd ref="286704181"/>
    <nd ref="286704184"/>
    <tag k="highway" v="residential"/>
    <tag k="name" v="Bardon Close"/>
    <tag k="source" v="nearmap"/>
  </way>
  <way id="26181741" version="3" timestamp="2010-07-07T22:25:22Z" uid="74617" user="JohnSmith" changeset="5162525">
    <nd ref="286704180"/>
    <nd ref="286704181"/>
    <nd ref="286704184"/>
    <tag k="highway" v="residential"/>
    <tag k="maxspeed" v="50"/>
    <tag k="maxspeed:source" v="default residential speed limit in Australia"/>
    <tag k="name" v="Bardon Close"/>
    <tag k="source" v="nearmap"/>
  </way>
  <way id="26181741" version="4" timestamp="2012-01-17T02:00:44Z" uid="147510" user="woodpeck_fixbot" changeset="10413896">
    <nd ref="286704180"/>
    <nd ref="286704181"/>
    <nd ref="286704184"/>
    <tag k="highway" v="residential"/>
    <tag k="name" v="Bardon Close"/>
    <tag k="source" v="nearmap"/>
  </way>
  <way id="26181742" version="1" timestamp="2008-08-10T12:47:18Z" uid="30201" user="rrankin" changeset="170611">
    <nd ref="286704181"/>
    <nd ref="286704159"/>
    <tag k="highway" v="residential"/>
    <tag k="name" v="Bardon Close"/>
    <tag k="source" v="yahoo"/>
  </way>
  <way id="26181742" version="2" timestamp="2009-12-26T00:41:21Z" uid="7617" user="Franc" changeset="3451805">
    <nd ref="286704181"/>
    <nd ref="286704159"/>
    <tag k="highway" v="residential"/>
    <tag k="name" v="Bardon Close"/>
    <tag k="source" v="nearmap"/>
  </way>
  <way id="26181742" version="3" timestamp="2010-07-07T22:30:54Z" uid="74617" user="JohnSmith" changeset="5162525">
    <nd ref="286704181"/>
    <nd ref="286704159"/>
    <tag k="highway" v="residential"/>
    <tag k="maxspeed" v="50"/>
    <tag k="maxspeed:source" v="default residential speed limit in Australia"/>
    <tag k="name" v="Bardon Close"/>
    <tag k="source" v="nearmap"/>
  </way>
  <way id="26181742" version="4" timestamp="2012-01-17T02:00:46Z" uid="147510" user="woodpeck_fixbot" changeset="10413896">
    <nd ref="286704181"/>
    <nd ref="286704159"/>
    <tag k="highway" v="residential"/>
    <tag k="name" v="Bardon Close"/>
    <tag k="source" v="nearmap"/>
  </way>
  <way id="26181828" version="1" timestamp="2008-08-10T12:50:53Z" uid="36099" user="olli_g" changeset="169438">
    <nd ref="286704682"/>
    <nd ref="286704683"/>
    <nd ref="286704684"/>
    <nd ref="286704685"/>
    <nd ref="286704686"/>
    <nd ref="286704687"/>
    <nd ref="286704688"/>
    <nd ref="285637418"/>
    <tag k="created_by" v="Potlatch 0.10b"/>
    <tag k="highway" v="residential"/>
    <tag k="name" v="Alte Reihe"/>
  </way>
  <way id="26181828" version="2" timestamp="2008-08-10T12:50:57Z" uid="36099" user="olli_g" changeset="169438">
    <nd ref="286704682"/>
    <nd ref="286704683"/>
    <nd ref="286704684"/>
    <nd ref="286704685"/>
    <nd ref="286704686"/>
    <nd ref="286704687"/>
    <nd ref="286704700"/>
    <nd ref="285637418"/>
    <tag k="created_by" v="Potlatch 0.10b"/>
    <tag k="highway" v="residential"/>
    <tag k="name" v="Alte Reihe"/>
  </way>
  <way id="26181828" version="3" timestamp="2008-09-08T09:55:20Z" uid="6808" user="wwwFrank" changeset="573772">
    <nd ref="286704682"/>
    <nd ref="286704684"/>
    <nd ref="286704685"/>
    <nd ref="286704687"/>
    <nd ref="285637418"/>
    <tag k="created_by" v="Potlatch 0.10b"/>
    <tag k="highway" v="residential"/>
    <tag k="name" v="Alte Reihe"/>
  </way>
  <way id="26181828" version="4" timestamp="2008-12-11T20:36:48Z" uid="35560" user="HeikoE" changeset="320589">
    <nd ref="285627955"/>
    <nd ref="286704684"/>
    <nd ref="286704685"/>
    <nd ref="286704687"/>
    <nd ref="285637418"/>
    <tag k="created_by" v="Potlatch 0.10b"/>
    <tag k="highway" v="residential"/>
    <tag k="name" v="Alte Reihe"/>
  </way>
  <way id="26181828" version="5" timestamp="2009-08-24T22:03:13Z" uid="36809" user="pfoten_weg_!_" changeset="2250603">
    <nd ref="285627955"/>
    <nd ref="286704684"/>
    <nd ref="286704685"/>
    <nd ref="286704687"/>
    <nd ref="285637418"/>
    <tag k="highway" v="residential"/>
    <tag k="name" v="Alte Reihe"/>
    <tag k="nore:de" v="Warnung"/>
  </way>
  <way id="26181828" version="6" timestamp="2009-08-24T22:32:41Z" uid="36809" user="pfoten_weg_!_" changeset="2250754">
    <nd ref="285627955"/>
    <nd ref="286704684"/>
    <nd ref="286704685"/>
    <nd ref="286704687"/>
    <nd ref="285637418"/>
    <tag k="highway" v="residential"/>
    <tag k="name" v="Alte Reihe"/>
  </way>
  <way id="26181828" version="7" timestamp="2009-08-24T22:46:41Z" uid="36809" user="pfoten_weg_!_" changeset="2250819">
    <nd ref="285627955"/>
    <nd ref="286704684"/>
    <nd ref="286704685"/>
    <nd ref="286704687"/>
    <nd ref="285637418"/>
    <tag k="discovered_by" v="RambaZamba"/>
    <tag k="highway" v="residential"/>
    <tag k="name" v="Alte Reihe"/>
  </way>
  <way id="26181828" version="8" timestamp="2009-08-28T19:58:08Z" uid="156995" user="HampelZamba" changeset="2294580">
    <nd ref="285627955"/>
    <nd ref="286704684"/>
    <nd ref="286704685"/>
    <nd ref="286704687"/>
    <nd ref="285637418"/>
    <tag k="highway" v="residential"/>
    <tag k="name" v="Alte Reihe"/>
  </way>
  <way id="26181828" version="9" timestamp="2009-08-29T14:55:50Z" uid="36809" user="pfoten_weg_!_" changeset="2302467">
    <nd ref="285627955"/>
    <nd ref="286704684"/>
    <nd ref="286704685"/>
    <nd ref="286704687"/>
    <nd ref="285637418"/>
    <tag k="highway" v="residential"/>
    <tag k="name" v="Alte Reihe"/>
  </way>
  <way id="26181828" version="10" timestamp="2010-10-10T10:08:27Z" uid="6808" user="wwwFrank" changeset="6000328">
    <nd ref="285627955"/>
    <nd ref="286704684"/>
    <nd ref="286704685"/>
    <nd ref="286704687"/>
    <nd ref="285637418"/>
    <tag k="highway" v="residential"/>
    <tag k="name" v="Alte Reihe"/>
  </way>
  <way id="26181828" version="11" timestamp="2012-01-04T07:49:49Z" uid="55462" user="Lübeck" changeset="10288564"/>
  <way id="26181868" version="1" timestamp="2008-08-10T12:51:58Z" uid="36099" user="olli_g" changeset="169438">
    <nd ref="286704859"/>
    <nd ref="286704860"/>
    <nd ref="286704861"/>
    <nd ref="286704862"/>
    <nd ref="286704863"/>
    <nd ref="286704864"/>
    <nd ref="286704865"/>
    <nd ref="286704866"/>
    <nd ref="286704867"/>
    <nd ref="286704868"/>
    <nd ref="286704869"/>
    <nd ref="286704870"/>
    <nd ref="286704871"/>
    <nd ref="286704872"/>
    <nd ref="286704873"/>
    <nd ref="286704875"/>
    <tag k="created_by" v="Potlatch 0.10b"/>
    <tag k="highway" v="residential"/>
    <tag k="name" v="Schulstr."/>
  </way>
  <way id="26181868" version="2" timestamp="2008-08-28T21:19:48Z" uid="58950" user="mfi" changeset="446108">
    <nd ref="285639523"/>
    <nd ref="286704860"/>
    <nd ref="286704861"/>
    <nd ref="286704862"/>
    <nd ref="286704863"/>
    <nd ref="286704864"/>
    <nd ref="286704865"/>
    <nd ref="286704866"/>
    <nd ref="286704867"/>
    <nd ref="286704868"/>
    <nd ref="286704869"/>
    <nd ref="286704870"/>
    <nd ref="286704871"/>
    <nd ref="286704872"/>
    <nd ref="286704873"/>
    <nd ref="286704875"/>
    <tag k="created_by" v="Potlatch 0.10b"/>
    <tag k="highway" v="residential"/>
    <tag k="name" v="Schulstr."/>
  </way>
  <way id="26181868" version="3" timestamp="2008-08-28T22:03:41Z" uid="58950" user="mfi" changeset="446108">
    <nd ref="285639523"/>
    <nd ref="286704860"/>
    <nd ref="286704861"/>
    <nd ref="286704862"/>
    <nd ref="286704863"/>
    <nd ref="286704864"/>
    <nd ref="286704865"/>
    <nd ref="286704866"/>
    <nd ref="286704867"/>
    <nd ref="286704868"/>
    <nd ref="286704869"/>
    <nd ref="286704870"/>
    <nd ref="286704871"/>
    <nd ref="286704872"/>
    <nd ref="286704873"/>
    <nd ref="286704875"/>
    <tag k="created_by" v="Potlatch 0.10b"/>
    <tag k="highway" v="residential"/>
    <tag k="name" v="Schulstraße"/>
  </way>
  <way id="26181868" version="4" timestamp="2008-08-28T22:05:37Z" uid="58950" user="mfi" changeset="446108">
    <nd ref="285639523"/>
    <nd ref="286704860"/>
    <nd ref="286704861"/>
    <nd ref="286704862"/>
    <nd ref="286704863"/>
    <nd ref="286704864"/>
    <nd ref="286704865"/>
    <nd ref="286704866"/>
    <nd ref="286704867"/>
    <nd ref="286704868"/>
    <nd ref="286704869"/>
    <nd ref="286704870"/>
    <nd ref="286704871"/>
    <nd ref="286704872"/>
    <nd ref="286704873"/>
    <nd ref="286704977"/>
    <tag k="created_by" v="Potlatch 0.10b"/>
    <tag k="highway" v="residential"/>
    <tag k="name" v="Schulstraße"/>
  </way>
  <way id="26181868" version="5" timestamp="2008-09-08T10:28:44Z" uid="6808" user="wwwFrank" changeset="573772">
    <nd ref="285639523"/>
    <nd ref="286704861"/>
    <nd ref="286704862"/>
    <nd ref="286704864"/>
    <nd ref="286704868"/>
    <nd ref="286704872"/>
    <nd ref="286704977"/>
    <tag k="created_by" v="Potlatch 0.10b"/>
    <tag k="highway" v="residential"/>
    <tag k="name" v="Schulstraße"/>
  </way>
  <way id="26181868" version="6" timestamp="2009-08-14T05:25:01Z" uid="51916" user="Max B" changeset="2138626">
    <nd ref="285639523"/>
    <nd ref="286704861"/>
    <nd ref="286704862"/>
    <nd ref="286704864"/>
    <nd ref="286704868"/>
    <tag k="highway" v="residential"/>
    <tag k="name" v="Schulstraße"/>
  </way>
  <way id="26181868" version="7" timestamp="2009-08-24T22:49:55Z" uid="36809" user="pfoten_weg_!_" changeset="2250819">
    <nd ref="285639523"/>
    <nd ref="286704861"/>
    <nd ref="286704862"/>
    <nd ref="286704864"/>
    <nd ref="286704868"/>
    <tag k="discovered_by" v="RambaZamba"/>
    <tag k="highway" v="residential"/>
    <tag k="name" v="Schulstraße"/>
  </way>
  <way id="26181868" version="8" timestamp="2009-08-28T19:58:08Z" uid="156995" user="HampelZamba" changeset="2294580">
    <nd ref="285639523"/>
    <nd ref="286704861"/>
    <nd ref="286704862"/>
    <nd ref="286704864"/>
    <nd ref="286704868"/>
    <tag k="highway" v="residential"/>
    <tag k="name" v="Schulstraße"/>
  </way>
  <way id="26181868" version="9" timestamp="2009-08-29T14:56:36Z" uid="36809" user="pfoten_weg_!_" changeset="2302467">
    <nd ref="285639523"/>
    <nd ref="286704861"/>
    <nd ref="286704862"/>
    <nd ref="286704864"/>
    <nd ref="286704868"/>
    <tag k="highway" v="residential"/>
    <tag k="name" v="Schulstraße"/>
  </way>
  <way id="26181868" version="10" timestamp="2010-10-10T10:08:49Z" uid="6808" user="wwwFrank" changeset="6000328">
    <nd ref="285639523"/>
    <nd ref="286704861"/>
    <nd ref="286704862"/>
    <nd ref="286704864"/>
    <nd ref="286704868"/>
    <tag k="highway" v="residential"/>
    <tag k="name" v="Schulstraße"/>
  </way>
  <way id="26181868" version="11" timestamp="2012-01-04T07:49:52Z" uid="55462" user="Lübeck" changeset="10288564"/>
  <way id="26181878" version="1" timestamp="2008-08-10T12:52:37Z" uid="36099" user="olli_g" changeset="169438">
    <nd ref="286704977"/>
    <nd ref="286704978"/>
    <nd ref="286704979"/>
    <nd ref="286704980"/>
    <nd ref="286704981"/>
    <nd ref="286704983"/>
    <nd ref="286704984"/>
    <nd ref="286704985"/>
    <nd ref="286704986"/>
    <nd ref="286704987"/>
    <nd ref="286704988"/>
    <nd ref="286704989"/>
    <nd ref="286704990"/>
    <nd ref="286704991"/>
    <nd ref="286704993"/>
    <nd ref="286704994"/>
    <tag k="created_by" v="Potlatch 0.10b"/>
    <tag k="highway" v="residential"/>
    <tag k="name" v="Fritz-Reuter-Str."/>
  </way>
  <way id="26181878" version="2" timestamp="2008-08-10T12:52:45Z" uid="36099" user="olli_g" changeset="169438">
    <nd ref="286704977"/>
    <nd ref="286705079"/>
    <nd ref="286704979"/>
    <nd ref="286705080"/>
    <nd ref="286704981"/>
    <nd ref="286705081"/>
    <nd ref="286704984"/>
    <nd ref="286705073"/>
    <tag k="created_by" v="Potlatch 0.10b"/>
    <tag k="highway" v="residential"/>
    <tag k="name" v="Fritz-Reuter-Str."/>
  </way>
  <way id="26181878" version="3" timestamp="2008-08-10T12:53:06Z" uid="36099" user="olli_g" changeset="169438">
    <nd ref="286704977"/>
    <nd ref="286705229"/>
    <nd ref="286704979"/>
    <nd ref="286705080"/>
    <nd ref="286704981"/>
    <nd ref="286705230"/>
    <nd ref="286704984"/>
    <nd ref="286705073"/>
    <tag k="created_by" v="Potlatch 0.10b"/>
    <tag k="highway" v="cycleway"/>
    <tag k="name" v="Fritz-Reuter-Str."/>
  </way>
  <way id="26181878" version="4" timestamp="2008-08-28T22:03:36Z" uid="58950" user="mfi" changeset="446108">
    <nd ref="286704977"/>
    <nd ref="286705229"/>
    <nd ref="286704979"/>
    <nd ref="286705080"/>
    <nd ref="286704981"/>
    <nd ref="286705230"/>
    <nd ref="286704984"/>
    <nd ref="286705073"/>
    <tag k="created_by" v="Potlatch 0.10b"/>
    <tag k="highway" v="cycleway"/>
    <tag k="name" v="Fritz-Reuter-Straße"/>
  </way>
  <way id="26181878" version="5" timestamp="2008-09-08T10:28:46Z" uid="6808" user="wwwFrank" changeset="573772">
    <nd ref="286704977"/>
    <nd ref="286704979"/>
    <nd ref="286704984"/>
    <nd ref="286705073"/>
    <tag k="created_by" v="Potlatch 0.10b"/>
    <tag k="highway" v="cycleway"/>
    <tag k="name" v="Fritz-Reuter-Straße"/>
  </way>
  <way id="26181878" version="6" timestamp="2009-08-21T20:45:17Z" uid="36809" user="pfoten_weg_!_" changeset="2228117">
    <nd ref="286704977"/>
    <nd ref="286704979"/>
    <nd ref="286704984"/>
    <nd ref="286705073"/>
    <tag k="discovered_by" v="RambaZamba"/>
    <tag k="highway" v="cycleway"/>
    <tag k="name" v="Fritz-Reuter-Straße"/>
    <tag k="source" v="survey"/>
  </way>
  <way id="26181878" version="7" timestamp="2009-08-28T19:58:08Z" uid="156995" user="HampelZamba" changeset="2294580">
    <nd ref="286704977"/>
    <nd ref="286704979"/>
    <nd ref="286704984"/>
    <nd ref="286705073"/>
    <tag k="highway" v="cycleway"/>
    <tag k="name" v="Fritz-Reuter-Straße"/>
    <tag k="source" v="survey"/>
  </way>
  <way id="26181878" version="8" timestamp="2009-08-29T14:53:39Z" uid="36809" user="pfoten_weg_!_" changeset="2302467">
    <nd ref="286704977"/>
    <nd ref="286704979"/>
    <nd ref="286704984"/>
    <nd ref="286705073"/>
    <tag k="highway" v="cycleway"/>
    <tag k="name" v="Fritz-Reuter-Straße"/>
    <tag k="source" v="survey"/>
  </way>
  <way id="26181878" version="9" timestamp="2009-10-03T08:40:58Z" uid="179968" user="Ich_hasse_doitsche_OSM-Korinthenkacker" changeset="2720861">
    <nd ref="286704977"/>
    <nd ref="286704979"/>
    <nd ref="286704984"/>
    <nd ref="286705073"/>
    <tag k="highway" v="cycleway"/>
    <tag k="name" v="Fritz-Reuter-Straße"/>
  </way>
  <way id="26181878" version="10" timestamp="2010-10-10T10:07:39Z" uid="6808" user="wwwFrank" changeset="6000328">
    <nd ref="286704977"/>
    <nd ref="286704979"/>
    <nd ref="286704984"/>
    <nd ref="286705073"/>
    <tag k="highway" v="cycleway"/>
    <tag k="name" v="Fritz-Reuter-Straße"/>
  </way>
  <way id="26181878" version="11" timestamp="2011-10-09T10:24:20Z" uid="406370" user="maptin" changeset="9510438">
    <nd ref="286704977"/>
    <nd ref="286704979"/>
    <nd ref="286704984"/>
    <nd ref="286705073"/>
    <tag k="bicycle" v="designated"/>
    <tag k="foot" v="designated"/>
    <tag k="highway" v="path"/>
    <tag k="name" v="Fritz-Reuter-Straße"/>
    <tag k="segregated" v="no"/>
  </way>
  <way id="26181878" version="12" timestamp="2012-01-06T07:52:33Z" uid="55462" user="Lübeck" changeset="10308591"/>
  <way id="26181882" version="1" timestamp="2008-08-10T12:52:45Z" uid="36099" user="olli_g" changeset="169438">
    <nd ref="286705073"/>
    <nd ref="286704986"/>
    <nd ref="286705074"/>
    <nd ref="286704988"/>
    <nd ref="286705075"/>
    <nd ref="286704990"/>
    <nd ref="286705076"/>
    <nd ref="286704993"/>
    <nd ref="286705078"/>
    <tag k="created_by" v="Potlatch 0.10b"/>
    <tag k="highway" v="residential"/>
    <tag k="name" v="Fritz-Reuter-Str."/>
  </way>
  <way id="26181882" version="2" timestamp="2008-08-28T22:03:37Z" uid="58950" user="mfi" changeset="446108">
    <nd ref="286705073"/>
    <nd ref="286704986"/>
    <nd ref="286705074"/>
    <nd ref="286704988"/>
    <nd ref="286705075"/>
    <nd ref="286704990"/>
    <nd ref="286705076"/>
    <nd ref="286704993"/>
    <nd ref="286705078"/>
    <tag k="created_by" v="Potlatch 0.10b"/>
    <tag k="highway" v="residential"/>
    <tag k="name" v="Fritz-Reuter-Straße"/>
  </way>
  <way id="26181882" version="3" timestamp="2008-09-08T10:29:29Z" uid="6808" user="wwwFrank" changeset="573772">
    <nd ref="286705073"/>
    <nd ref="286704986"/>
    <nd ref="286704988"/>
    <nd ref="286704990"/>
    <nd ref="286705076"/>
    <nd ref="286705078"/>
    <tag k="created_by" v="Potlatch 0.10b"/>
    <tag k="highway" v="residential"/>
    <tag k="name" v="Fritz-Reuter-Straße"/>
  </way>
  <way id="26181882" version="4" timestamp="2009-08-21T20:48:17Z" uid="36809" user="pfoten_weg_!_" changeset="2228117">
    <nd ref="286705073"/>
    <nd ref="286704986"/>
    <nd ref="286704988"/>
    <nd ref="286704990"/>
    <nd ref="286705076"/>
    <nd ref="286705078"/>
    <tag k="discovered_by" v="RambaZamba"/>
    <tag k="highway" v="residential"/>
    <tag k="name" v="Fritz-Reuter-Straße"/>
    <tag k="source" v="survey"/>
  </way>
  <way id="26181882" version="5" timestamp="2009-08-28T19:58:08Z" uid="156995" user="HampelZamba" changeset="2294580">
    <nd ref="286705073"/>
    <nd ref="286704986"/>
    <nd ref="286704988"/>
    <nd ref="286704990"/>
    <nd ref="286705076"/>
    <nd ref="286705078"/>
    <tag k="highway" v="residential"/>
    <tag k="name" v="Fritz-Reuter-Straße"/>
    <tag k="source" v="survey"/>
  </way>
  <way id="26181882" version="6" timestamp="2009-08-29T14:56:41Z" uid="36809" user="pfoten_weg_!_" changeset="2302467">
    <nd ref="286705073"/>
    <nd ref="286704986"/>
    <nd ref="286704988"/>
    <nd ref="286704990"/>
    <nd ref="286705076"/>
    <nd ref="286705078"/>
    <tag k="highway" v="residential"/>
    <tag k="name" v="Fritz-Reuter-Straße"/>
    <tag k="source" v="survey"/>
  </way>
  <way id="26181882" version="7" timestamp="2009-10-03T08:40:58Z" uid="179968" user="Ich_hasse_doitsche_OSM-Korinthenkacker" changeset="2720861">
    <nd ref="286705073"/>
    <nd ref="286704986"/>
    <nd ref="286704988"/>
    <nd ref="286704990"/>
    <nd ref="286705076"/>
    <nd ref="286705078"/>
    <tag k="highway" v="residential"/>
    <tag k="name" v="Fritz-Reuter-Straße"/>
  </way>
  <way id="26181882" version="8" timestamp="2010-10-10T10:09:10Z" uid="6808" user="wwwFrank" changeset="6000328">
    <nd ref="286705073"/>
    <nd ref="286704986"/>
    <nd ref="286704988"/>
    <nd ref="286704990"/>
    <nd ref="286705076"/>
    <nd ref="286705078"/>
    <tag k="highway" v="residential"/>
    <tag k="name" v="Fritz-Reuter-Straße"/>
  </way>
  <way id="26181882" version="9" timestamp="2012-01-05T07:51:35Z" uid="55462" user="Lübeck" changeset="10298082"/>
  <way id="26181962" version="2" timestamp="2008-09-14T17:23:09Z" uid="6975" user="ulfl" changeset="640534">
    <nd ref="286705018"/>
    <nd ref="286705345"/>
    <nd ref="286705347"/>
    <nd ref="286705348"/>
    <nd ref="286705349"/>
    <nd ref="286705350"/>
    <nd ref="286704948"/>
    <nd ref="286704949"/>
    <nd ref="286704950"/>
    <nd ref="286704951"/>
    <nd ref="286704952"/>
    <nd ref="286705083"/>
    <nd ref="286704953"/>
    <nd ref="286704954"/>
    <nd ref="286704955"/>
    <nd ref="286704956"/>
    <nd ref="286704958"/>
    <nd ref="286704957"/>
    <nd ref="286704959"/>
    <nd ref="286704960"/>
    <nd ref="286704961"/>
    <nd ref="286704962"/>
    <nd ref="286704963"/>
    <nd ref="286704964"/>
    <nd ref="286704965"/>
    <nd ref="286704966"/>
    <nd ref="286704967"/>
    <nd ref="286704968"/>
    <nd ref="286705002"/>
    <nd ref="286705003"/>
    <nd ref="286705006"/>
    <nd ref="286705004"/>
    <nd ref="286705005"/>
    <nd ref="286705007"/>
    <nd ref="286705008"/>
    <nd ref="286705009"/>
    <nd ref="286705010"/>
    <nd ref="286705011"/>
    <nd ref="286705012"/>
    <nd ref="286705013"/>
    <nd ref="286705014"/>
    <nd ref="286705015"/>
    <nd ref="286705016"/>
    <nd ref="286705017"/>
    <nd ref="286705018"/>
    <tag k="leisure" v="golf_course"/>
  </way>
  <way id="26181039" version="5" timestamp="2012-07-19T23:17:27Z" uid="722137" user="OSMF Redaction Account" changeset="12351454"/>
  <way id="26181040" version="2" timestamp="2012-05-02T13:16:30Z" uid="412739" user="efAston" changeset="11479325">
    <nd ref="286699889"/>
    <nd ref="286699902"/>
    <tag k="highway" v="service"/>
    <tag k="name" v="Tryon Lane"/>
    <tag k="note" v="my brother surveyed this"/>
    <tag k="oneway" v="yes"/>
    <tag k="source" v="yahoo_imagery"/>
    <tag k="source:name" v="survey"/>
  </way>
  <way id="26181040" version="3" timestamp="2012-07-19T23:17:27Z" uid="722137" user="OSMF Redaction Account" changeset="12351454"/>
  <way id="26181042" version="3" timestamp="2012-07-19T23:17:27Z" uid="722137" user="OSMF Redaction Account" changeset="12351454"/>
  <way id="26181043" version="2" timestamp="2012-07-19T23:17:29Z" uid="722137" user="OSMF Redaction Account" changeset="12351454"/>
  <way id="26181044" version="5" timestamp="2012-07-19T23:17:29Z" uid="722137" user="OSMF Redaction Account" changeset="12351454"/>
  <way id="26181045" version="2" timestamp="2012-07-19T23:17:32Z" uid="722137" user="OSMF Redaction Account" changeset="12351454"/>
  <way id="26181046" version="4" timestamp="2012-07-19T23:17:32Z" uid="722137" user="OSMF Redaction Account" changeset="12351454"/>
  <way id="26181047" version="6" timestamp="2012-07-19T23:17:30Z" uid="722137" user="OSMF Redaction Account" changeset="12351454"/>
  <way id="26181090" version="7" timestamp="2012-07-19T21:40:51Z" uid="722137" user="OSMF Redaction Account" changeset="12348758"/>
  <way id="26181091" version="9" timestamp="2012-07-19T21:33:59Z" uid="722137" user="OSMF Redaction Account" changeset="12348390">
    <nd ref="13887170"/>
    <nd ref="286700427"/>
    <nd ref="286700414"/>
    <tag k="highway" v="residential"/>
    <tag k="source" v="survey"/>
  </way>
  <way id="26181091" version="10" timestamp="2012-08-03T09:31:19Z" uid="11321" user="Pecisk" changeset="12595890">
    <nd ref="13887170"/>
    <nd ref="286700427"/>
    <nd ref="1849591620"/>
    <nd ref="286700414"/>
    <tag k="highway" v="residential"/>
    <tag k="source" v="survey"/>
  </way>
  <way id="26181093" version="10" timestamp="2012-07-19T21:34:00Z" uid="722137" user="OSMF Redaction Account" changeset="12348390">
    <nd ref="286700420"/>
    <nd ref="476260510"/>
    <tag k="highway" v="residential"/>
    <tag k="name" v="Bland Street"/>
  </way>
  <way id="26181213" version="14" timestamp="2012-07-19T20:42:18Z" uid="722137" user="OSMF Redaction Account" changeset="12346667">
    <nd ref="289365969"/>
    <nd ref="286974514"/>
    <nd ref="286702359"/>
    <nd ref="283331118"/>
    <nd ref="289671081"/>
    <nd ref="287584716"/>
    <tag k="highway" v="residential"/>
    <tag k="name" v="King Street"/>
  </way>
  <way id="26181225" version="7" timestamp="2012-08-03T17:19:13Z" uid="327011" user="wetterwolke" changeset="12600782">
    <nd ref="271119857"/>
    <nd ref="306650285"/>
    <nd ref="1679513117"/>
    <nd ref="324169526"/>
    <tag k="highway" v="tertiary"/>
    <tag k="name" v="Steinberger Landstraße"/>
    <tag k="ref" v="K 7"/>
    <tag k="surface" v="asphalt"/>
  </way>
  <way id="26181261" version="7" timestamp="2012-07-19T23:16:41Z" uid="722137" user="OSMF Redaction Account" changeset="12351438"/>
  <way id="26181262" version="7" timestamp="2012-07-19T23:16:43Z" uid="722137" user="OSMF Redaction Account" changeset="12351438"/>
  <way id="26181263" version="7" timestamp="2012-07-19T02:17:00Z" uid="722137" user="OSMF Redaction Account" changeset="12304876">
    <nd ref="271119872"/>
    <nd ref="60304391"/>
    <tag k="highway" v="tertiary"/>
    <tag k="name" v="Roedenbeckstraße"/>
    <tag k="ref" v="K 6"/>
  </way>
  <way id="26181263" version="8" timestamp="2012-08-07T15:14:57Z" uid="58095" user="BudBundi" changeset="12646756">
    <nd ref="271119872"/>
    <nd ref="1855703463"/>
    <nd ref="60304391"/>
    <tag k="highway" v="tertiary"/>
    <tag k="name" v="Roedenbeckstraße"/>
    <tag k="ref" v="K 6"/>
  </way>
  <way id="26181318" version="4" timestamp="2012-06-13T11:45:40Z" uid="24572" user="sly" changeset="11883989">
    <nd ref="286703521"/>
    <nd ref="286703522"/>
    <nd ref="286703526"/>
    <nd ref="286703524"/>
    <nd ref="286703521"/>
    <tag k="leisure" v="pitch"/>
    <tag k="sport" v="rugby"/>
  </way>
  <way id="26181318" version="5" timestamp="2012-06-13T15:53:20Z" uid="8235" user="chriscf" changeset="11886459">
    <nd ref="286703521"/>
    <nd ref="286703522"/>
    <nd ref="286703526"/>
    <nd ref="286703524"/>
    <nd ref="286703521"/>
    <tag k="fixme" v="sport=rugby is ambiguous, see http://wiki.osm.org/wiki/Tag:sport%3Drugby for more details"/>
    <tag k="leisure" v="pitch"/>
    <tag k="sport" v="rugby"/>
  </way>
  <way id="26181318" version="6" timestamp="2012-07-15T19:30:25Z" uid="722137" user="OSMF Redaction Account" changeset="12234748">
    <nd ref="286703521"/>
    <nd ref="286703522"/>
    <nd ref="286703526"/>
    <nd ref="286703524"/>
    <nd ref="286703521"/>
    <tag k="leisure" v="pitch"/>
    <tag k="sport" v="rugby"/>
  </way>
  <way id="26181325" version="4" timestamp="2012-06-13T11:45:40Z" uid="24572" user="sly" changeset="11883989">
    <nd ref="286703597"/>
    <nd ref="286703595"/>
    <nd ref="286703587"/>
    <nd ref="286703589"/>
    <nd ref="286703597"/>
    <tag k="leisure" v="pitch"/>
    <tag k="sport" v="rugby"/>
  </way>
  <way id="26181325" version="5" timestamp="2012-06-13T15:53:20Z" uid="8235" user="chriscf" changeset="11886459">
    <nd ref="286703597"/>
    <nd ref="286703595"/>
    <nd ref="286703587"/>
    <nd ref="286703589"/>
    <nd ref="286703597"/>
    <tag k="fixme" v="sport=rugby is ambiguous, see http://wiki.osm.org/wiki/Tag:sport%3Drugby for more details"/>
    <tag k="leisure" v="pitch"/>
    <tag k="sport" v="rugby"/>
  </way>
  <way id="26181325" version="6" timestamp="2012-07-15T19:30:25Z" uid="722137" user="OSMF Redaction Account" changeset="12234748">
    <nd ref="286703597"/>
    <nd ref="286703595"/>
    <nd ref="286703587"/>
    <nd ref="286703589"/>
    <nd ref="286703597"/>
    <tag k="leisure" v="pitch"/>
    <tag k="sport" v="rugby"/>
  </way>
  <way id="26181731" version="5" timestamp="2012-07-22T04:20:34Z" uid="722137" user="OSMF Redaction Account" changeset="12425262"/>
  <way id="26181733" version="5" timestamp="2012-07-22T04:20:31Z" uid="722137" user="OSMF Redaction Account" changeset="12425262"/>
  <way id="26181735" version="4" timestamp="2012-07-22T04:20:32Z" uid="722137" user="OSMF Redaction Account" changeset="12425262"/>
  <way id="26181736" version="5" timestamp="2012-07-22T04:20:29Z" uid="722137" user="OSMF Redaction Account" changeset="12425262"/>
  <way id="26181737" version="5" timestamp="2012-07-22T04:20:30Z" uid="722137" user="OSMF Redaction Account" changeset="12425262"/>
  <way id="26181738" version="6" timestamp="2012-07-18T14:43:30Z" uid="722137" user="OSMF Redaction Account" changeset="12285520"/>
  <way id="26181739" version="5" timestamp="2012-07-22T04:20:30Z" uid="722137" user="OSMF Redaction Account" changeset="12425262"/>
  <way id="26181740" version="5" timestamp="2012-07-22T04:20:28Z" uid="722137" user="OSMF Redaction Account" changeset="12425262"/>
  <way id="26181741" version="5" timestamp="2012-07-22T04:20:27Z" uid="722137" user="OSMF Redaction Account" changeset="12425262"/>
  <way id="26181742" version="5" timestamp="2012-07-22T04:20:28Z" uid="722137" user="OSMF Redaction Account" changeset="12425262"/>
</osm>
