<?xml version='1.0' encoding='UTF-8'?>
<osm version="0.6" generator="libosmium/2.20.0">
  <way id="26192098" version="1" timestamp="2008-08-10T18:40:11Z" uid="49111" user="Markus B" changeset="168972">
    <nd ref="286806170"/>
    <nd ref="286806171"/>
    <nd ref="286806173"/>
    <nd ref="286806174"/>
    <nd ref="286806170"/>
    <tag k="name" v="Fischzucht"/>
    <tag k="natural" v="water"/>
  </way>
  <way id="26192098" version="2" timestamp="2008-09-11T22:38:21Z" uid="49111" user="Markus B" changeset="611009">
    <nd ref="286806170"/>
    <nd ref="286806174"/>
    <nd ref="286806173"/>
    <nd ref="286806171"/>
    <nd ref="286806170"/>
    <tag k="name" v="Fischzucht"/>
    <tag k="natural" v="water"/>
  </way>
  <way id="26192099" version="1" timestamp="2008-08-10T18:40:12Z" uid="49111" user="Markus B" changeset="168972">
    <nd ref="286806184"/>
    <nd ref="286806186"/>
    <nd ref="286806187"/>
    <nd ref="286806188"/>
    <nd ref="286806184"/>
    <tag k="name" v="Fischzucht"/>
    <tag k="natural" v="water"/>
  </way>
  <way id="26192099" version="2" timestamp="2009-02-15T03:37:21Z" uid="9364" user="keichwa" changeset="449950">
    <nd ref="286806184"/>
    <nd ref="286806186"/>
    <nd ref="286806187"/>
    <nd ref="286806188"/>
    <nd ref="286806184"/>
    <tag k="created_by" v="Potlatch 0.10f"/>
    <tag k="natural" v="water"/>
    <tag k="note" v="Fischzucht"/>
  </way>
  <way id="26192100" version="1" timestamp="2008-08-10T18:40:12Z" uid="49111" user="Markus B" changeset="168972">
    <nd ref="286806196"/>
    <nd ref="286806198"/>
    <nd ref="286806200"/>
    <nd ref="286806202"/>
    <nd ref="286806196"/>
    <tag k="amenity" v="restaurant"/>
    <tag k="building" v="yes"/>
    <tag k="name" v="Gasthaus Scharrer"/>
  </way>
  <way id="26192100" version="2" timestamp="2009-05-10T20:04:16Z" uid="49111" user="Markus B" changeset="1144968">
    <nd ref="286806196"/>
    <nd ref="286806198"/>
    <nd ref="286806200"/>
    <nd ref="286806202"/>
    <nd ref="286806196"/>
    <tag k="addr:housenumber" v="2"/>
    <tag k="addr:street" v="Wintersteinerstraße"/>
    <tag k="amenity" v="restaurant"/>
    <tag k="building" v="yes"/>
    <tag k="name" v="Gasthaus Scharrer"/>
  </way>
  <way id="26192100" version="3" timestamp="2010-06-09T09:42:35Z" uid="118856" user="staehler" changeset="4943833">
    <nd ref="286806196"/>
    <nd ref="286806198"/>
    <nd ref="286806200"/>
    <nd ref="286806202"/>
    <nd ref="286806196"/>
    <tag k="addr:housenumber" v="2"/>
    <tag k="addr:street" v="Wintersteinerstraße"/>
    <tag k="amenity" v="restaurant"/>
    <tag k="building" v="yes"/>
    <tag k="name" v="Gasthaus Scharrer"/>
    <tag k="shop" v="butcher"/>
  </way>
  <way id="26192100" version="4" timestamp="2010-06-13T23:10:32Z" uid="49111" user="Markus B" changeset="4983912">
    <nd ref="286806196"/>
    <nd ref="286806198"/>
    <nd ref="286806200"/>
    <nd ref="286806202"/>
    <nd ref="286806196"/>
    <tag k="addr:city" v="Großengsee"/>
    <tag k="addr:country" v="DE"/>
    <tag k="addr:housenumber" v="2"/>
    <tag k="addr:postcode" v="91245"/>
    <tag k="addr:street" v="Wintersteiner Straße"/>
    <tag k="amenity" v="restaurant"/>
    <tag k="building" v="yes"/>
    <tag k="name" v="Gasthaus Scharrer"/>
    <tag k="opening_hours" v="Di off"/>
    <tag k="phone" v="09155-407"/>
    <tag k="shop" v="butcher"/>
    <tag k="smoking" v="no"/>
    <tag k="smoking:outside" v="yes"/>
  </way>
  <way id="26192100" version="5" timestamp="2011-03-11T20:42:27Z" uid="89943" user="Bengatzer" changeset="7527334">
    <nd ref="286806196"/>
    <nd ref="286806198"/>
    <nd ref="286806200"/>
    <nd ref="286806202"/>
    <nd ref="286806196"/>
    <tag k="addr:city" v="Großengsee"/>
    <tag k="addr:country" v="DE"/>
    <tag k="addr:housenumber" v="2"/>
    <tag k="addr:postcode" v="91245"/>
    <tag k="addr:street" v="Wintersteiner Straße"/>
    <tag k="amenity" v="restaurant"/>
    <tag k="building" v="yes"/>
    <tag k="name" v="Gasthaus Scharrer"/>
    <tag k="opening_hours" v="Tu off"/>
    <tag k="phone" v="09155-407"/>
    <tag k="shop" v="butcher"/>
    <tag k="smoking" v="no"/>
    <tag k="smoking:outside" v="yes"/>
  </way>
  <way id="26192101" version="1" timestamp="2008-08-10T18:40:13Z" uid="49111" user="Markus B" changeset="168972">
    <nd ref="286806203"/>
    <nd ref="286806204"/>
    <nd ref="286806206"/>
    <nd ref="286806207"/>
    <nd ref="286806203"/>
    <tag k="amenity" v="biergarten"/>
    <tag k="building" v="yes"/>
    <tag k="name" v="Restaurant Hopfengärten"/>
  </way>
  <way id="26192101" version="2" timestamp="2009-05-03T21:19:53Z" uid="49111" user="Markus B" changeset="1068628">
    <nd ref="286806203"/>
    <nd ref="286806204"/>
    <nd ref="286806206"/>
    <nd ref="286806207"/>
    <nd ref="286806203"/>
    <tag k="addr:housename" v="Hiltpoltsteiner Straße"/>
    <tag k="addr:housenumber" v="7"/>
    <tag k="addr:street" v="Simmelsdorfer Straße"/>
    <tag k="amenity" v="biergarten"/>
    <tag k="building" v="yes"/>
    <tag k="name" v="Restaurant Hopfengärten"/>
    <tag k="note" v="Di, Fr. Sa ab 9 Uhr, Sonntag Frühschoppen"/>
  </way>
  <way id="26192101" version="3" timestamp="2009-05-10T20:04:16Z" uid="49111" user="Markus B" changeset="1144968">
    <nd ref="286806203"/>
    <nd ref="286806204"/>
    <nd ref="286806206"/>
    <nd ref="286806207"/>
    <nd ref="286806203"/>
    <tag k="addr:housename" v="Hiltpoltsteiner Straße"/>
    <tag k="addr:housenumber" v="7"/>
    <tag k="addr:street" v="Hilpoltsteiner Straße"/>
    <tag k="amenity" v="biergarten"/>
    <tag k="building" v="yes"/>
    <tag k="name" v="Restaurant Hopfengärten"/>
    <tag k="note" v="Di, Fr. Sa ab 9 Uhr, Sonntag Frühschoppen"/>
  </way>
  <way id="26192101" version="4" timestamp="2009-09-26T07:53:10Z" uid="49111" user="Markus B" changeset="2635100">
    <nd ref="286806203"/>
    <nd ref="286806204"/>
    <nd ref="286806206"/>
    <nd ref="286806207"/>
    <nd ref="286806203"/>
    <tag k="addr:housename" v="Hiltpoltsteiner Straße"/>
    <tag k="addr:housenumber" v="7"/>
    <tag k="addr:street" v="Hilpoltsteiner Straße"/>
    <tag k="amenity" v="restaurant"/>
    <tag k="building" v="yes"/>
    <tag k="name" v="Restaurant Hopfengärten"/>
    <tag k="note" v="Di, Fr. Sa ab 9 Uhr, Sonntag Frühschoppen"/>
  </way>
  <way id="26192101" version="5" timestamp="2010-06-13T23:10:32Z" uid="49111" user="Markus B" changeset="4983912">
    <nd ref="286806203"/>
    <nd ref="286806204"/>
    <nd ref="286806206"/>
    <nd ref="286806207"/>
    <nd ref="286806203"/>
    <tag k="addr:city" v="Großengsee"/>
    <tag k="addr:country" v="DE"/>
    <tag k="addr:housenumber" v="7"/>
    <tag k="addr:postcode" v="91245"/>
    <tag k="addr:street" v="Hilpoltsteiner Straße"/>
    <tag k="amenity" v="restaurant"/>
    <tag k="building" v="yes"/>
    <tag k="name" v="Restaurant Hopfengärten"/>
    <tag k="opening_hours" v="Di; Fr; Sa; So 9:00-1200"/>
    <tag k="phone" v="09155-427"/>
  </way>
  <way id="26192101" version="6" timestamp="2010-06-18T15:42:58Z" uid="49111" user="Markus B" changeset="5017235">
    <nd ref="286806203"/>
    <nd ref="286806204"/>
    <nd ref="286806206"/>
    <nd ref="286806207"/>
    <nd ref="286806203"/>
    <tag k="addr:city" v="Großengsee"/>
    <tag k="addr:country" v="DE"/>
    <tag k="addr:housenumber" v="7"/>
    <tag k="addr:postcode" v="91245"/>
    <tag k="addr:street" v="Hilpoltsteiner Straße"/>
    <tag k="amenity" v="restaurant"/>
    <tag k="building" v="yes"/>
    <tag k="name" v="Restaurant Hopfengärten"/>
    <tag k="opening_hours" v="Di; Fr; Sa; So 9:00-1200"/>
    <tag k="phone" v="09155-427"/>
    <tag k="smoking" v="yes"/>
    <tag k="smoking:outside" v="yes"/>
  </way>
  <way id="26192101" version="7" timestamp="2010-08-02T12:03:39Z" uid="49111" user="Markus B" changeset="5379889">
    <nd ref="286806203"/>
    <nd ref="286806204"/>
    <nd ref="286806206"/>
    <nd ref="286806207"/>
    <nd ref="286806203"/>
    <tag k="addr:city" v="Großengsee"/>
    <tag k="addr:country" v="DE"/>
    <tag k="addr:housenumber" v="7"/>
    <tag k="addr:postcode" v="91245"/>
    <tag k="addr:street" v="Hilpoltsteiner Straße"/>
    <tag k="amenity" v="restaurant"/>
    <tag k="building" v="yes"/>
    <tag k="name" v="Restaurant Hopfengärten"/>
    <tag k="opening_hours" v="Di; Fr; Sa; So 9:00-1200"/>
    <tag k="phone" v="09155-427"/>
    <tag k="smoking" v="no"/>
    <tag k="smoking:outside" v="yes"/>
  </way>
  <way id="26192101" version="8" timestamp="2010-12-13T11:06:59Z" uid="49111" user="Markus B" changeset="6646307">
    <nd ref="286806203"/>
    <nd ref="1037069695"/>
    <nd ref="1037069703"/>
    <nd ref="286806204"/>
    <nd ref="286806206"/>
    <nd ref="286806207"/>
    <nd ref="286806203"/>
    <tag k="addr:city" v="Großengsee"/>
    <tag k="addr:country" v="DE"/>
    <tag k="addr:housenumber" v="7"/>
    <tag k="addr:postcode" v="91245"/>
    <tag k="addr:street" v="Hilpoltsteiner Straße"/>
    <tag k="amenity" v="restaurant"/>
    <tag k="building" v="yes"/>
    <tag k="name" v="Restaurant Hopfengärten"/>
    <tag k="opening_hours" v="Di; Fr; Sa; So 9:00-1200"/>
    <tag k="phone" v="09155-427"/>
    <tag k="smoking" v="no"/>
    <tag k="smoking:outside" v="yes"/>
  </way>
  <way id="26192101" version="9" timestamp="2010-12-18T07:13:58Z" uid="5359" user="user_5359" changeset="6693201">
    <nd ref="286806203"/>
    <nd ref="1037069695"/>
    <nd ref="1037069703"/>
    <nd ref="286806204"/>
    <nd ref="286806206"/>
    <nd ref="286806207"/>
    <nd ref="286806203"/>
    <tag k="addr:city" v="Großengsee"/>
    <tag k="addr:country" v="DE"/>
    <tag k="addr:housenumber" v="7"/>
    <tag k="addr:postcode" v="91245"/>
    <tag k="addr:street" v="Hilpoltsteiner Straße"/>
    <tag k="amenity" v="restaurant"/>
    <tag k="building" v="yes"/>
    <tag k="name" v="Restaurant Hopfengärten"/>
    <tag k="opening_hours" v="Tu, Fr, Sa, Su 09:00-12:00"/>
    <tag k="phone" v="09155-427"/>
    <tag k="smoking" v="no"/>
    <tag k="smoking:outside" v="yes"/>
  </way>
  <way id="26192102" version="1" timestamp="2008-08-10T18:40:13Z" uid="49111" user="Markus B" changeset="168972">
    <nd ref="286806212"/>
    <nd ref="286806214"/>
    <nd ref="286806215"/>
    <nd ref="286806217"/>
    <nd ref="286806212"/>
    <tag k="building" v="yes"/>
    <tag k="name" v="Bäckerei Lehmann"/>
    <tag k="shop" v="bakery"/>
  </way>
  <way id="26192104" version="1" timestamp="2008-08-10T18:40:13Z" uid="49111" user="Markus B" changeset="168972">
    <nd ref="286806218"/>
    <nd ref="286806219"/>
    <nd ref="286806221"/>
    <nd ref="286806222"/>
    <nd ref="286806218"/>
    <tag k="building" v="yes"/>
    <tag k="name" v="Bäckerei Sperber"/>
    <tag k="shop" v="bakery"/>
  </way>
  <way id="26192104" version="2" timestamp="2008-10-19T12:30:32Z" uid="49111" user="Markus B" changeset="442639">
    <nd ref="286806218"/>
    <nd ref="286806219"/>
    <nd ref="286806221"/>
    <nd ref="286806222"/>
    <nd ref="286806218"/>
    <tag k="building" v="yes"/>
    <tag k="created_by" v="Potlatch 0.10e"/>
    <tag k="name" v="Bäckerei Sperber"/>
    <tag k="shop" v="bakery"/>
  </way>
  <way id="26192104" version="3" timestamp="2009-04-12T11:14:52Z" uid="83876" user="BurnyB" changeset="437464">
    <nd ref="286806218"/>
    <nd ref="286806219"/>
    <nd ref="286806221"/>
    <nd ref="286806222"/>
    <nd ref="286806218"/>
    <tag k="building" v="yes"/>
    <tag k="created_by" v="Potlatch 0.10e"/>
  </way>
  <way id="26192104" version="4" timestamp="2009-05-04T13:38:22Z" uid="49111" user="Markus B" changeset="1074866">
    <nd ref="286806218"/>
    <nd ref="286806219"/>
    <nd ref="286806221"/>
    <nd ref="286806222"/>
    <nd ref="286806218"/>
    <tag k="building" v="yes"/>
    <tag k="created_by" v="Potlatch 0.10e"/>
    <tag k="shop" v="bakery"/>
  </way>
  <way id="26192104" version="5" timestamp="2009-12-04T13:45:49Z" uid="118856" user="staehler" changeset="3288433">
    <nd ref="286806218"/>
    <nd ref="286806219"/>
    <nd ref="286806221"/>
    <nd ref="286806222"/>
    <nd ref="286806218"/>
    <tag k="building" v="yes"/>
    <tag k="name" v="Bäckerei Sperber"/>
    <tag k="shop" v="bakery"/>
  </way>
  <way id="26192105" version="1" timestamp="2008-08-10T18:40:14Z" uid="49111" user="Markus B" changeset="168972">
    <nd ref="286806224"/>
    <nd ref="286806227"/>
    <nd ref="286806228"/>
    <nd ref="286806230"/>
    <nd ref="286806224"/>
    <tag k="building" v="yes"/>
    <tag k="name" v="Bäckerei Döppmann"/>
    <tag k="shop" v="bakery"/>
  </way>
  <way id="26192105" version="2" timestamp="2008-10-19T12:23:53Z" uid="49111" user="Markus B" changeset="442639">
    <nd ref="286806224"/>
    <nd ref="286806227"/>
    <nd ref="286806228"/>
    <nd ref="286806230"/>
    <nd ref="286806224"/>
    <tag k="building" v="yes"/>
    <tag k="created_by" v="Potlatch 0.10e"/>
    <tag k="name" v="Bäckerei Döppmann"/>
    <tag k="shop" v="bakery"/>
  </way>
  <way id="26192105" version="3" timestamp="2010-06-06T09:36:01Z" uid="118011" user="TheoryBug" changeset="4915815">
    <nd ref="286806224"/>
    <nd ref="286806227"/>
    <nd ref="286806228"/>
    <nd ref="286806230"/>
    <nd ref="286806224"/>
    <tag k="building" v="yes"/>
    <tag k="name" v="Bäckerei Döppmann"/>
    <tag k="shop" v="bakery"/>
  </way>
  <way id="26192189" version="2" timestamp="2010-10-17T12:34:11Z" uid="16922" user="amai" changeset="6066371">
    <nd ref="286806381"/>
    <nd ref="286806879"/>
    <nd ref="286806880"/>
    <nd ref="286806881"/>
    <nd ref="286806882"/>
    <nd ref="286806883"/>
    <nd ref="286806884"/>
    <nd ref="286806885"/>
    <nd ref="286806886"/>
    <nd ref="286806887"/>
    <nd ref="286806888"/>
    <nd ref="286806889"/>
    <nd ref="286806891"/>
    <nd ref="954545347"/>
    <nd ref="286806892"/>
    <nd ref="286806893"/>
    <nd ref="286806894"/>
    <nd ref="286806895"/>
    <nd ref="286806897"/>
    <nd ref="286806898"/>
    <nd ref="286806899"/>
    <nd ref="286806901"/>
    <nd ref="286806903"/>
    <nd ref="286806904"/>
    <nd ref="286806905"/>
    <nd ref="286806907"/>
    <nd ref="286806908"/>
    <nd ref="286806910"/>
    <nd ref="286806911"/>
    <tag k="highway" v="residential"/>
  </way>
  <way id="26192189" version="3" timestamp="2011-02-08T18:58:37Z" uid="16922" user="amai" changeset="7229499">
    <nd ref="286806381"/>
    <nd ref="286806879"/>
    <nd ref="286806880"/>
    <nd ref="286806881"/>
    <nd ref="286806882"/>
    <nd ref="286806883"/>
    <nd ref="286806884"/>
    <nd ref="1142581586"/>
    <nd ref="286806885"/>
    <nd ref="286806886"/>
    <nd ref="286806887"/>
    <nd ref="286806888"/>
    <nd ref="286806889"/>
    <nd ref="286806891"/>
    <nd ref="954545347"/>
    <nd ref="286806892"/>
    <nd ref="286806893"/>
    <nd ref="286806894"/>
    <nd ref="286806895"/>
    <nd ref="286806897"/>
    <nd ref="286806898"/>
    <nd ref="1142581763"/>
    <nd ref="1142581811"/>
    <nd ref="286806899"/>
    <nd ref="286806901"/>
    <nd ref="286806903"/>
    <nd ref="286806904"/>
    <nd ref="286806905"/>
    <nd ref="286806907"/>
    <nd ref="286806908"/>
    <nd ref="286806910"/>
    <nd ref="286806911"/>
    <tag k="highway" v="residential"/>
  </way>
  <way id="26192189" version="4" timestamp="2011-02-14T21:42:10Z" uid="16922" user="amai" changeset="7290106">
    <nd ref="286806381"/>
    <nd ref="286806879"/>
    <nd ref="286806880"/>
    <nd ref="286806881"/>
    <nd ref="286806882"/>
    <nd ref="286806883"/>
    <nd ref="286806884"/>
    <nd ref="1142581586"/>
    <nd ref="286806885"/>
    <nd ref="286806886"/>
    <nd ref="286806887"/>
    <nd ref="286806888"/>
    <nd ref="286806889"/>
    <nd ref="286806891"/>
    <nd ref="954545347"/>
    <nd ref="286806892"/>
    <nd ref="286806893"/>
    <nd ref="286806894"/>
    <nd ref="286806895"/>
    <nd ref="286806897"/>
    <nd ref="286806898"/>
    <nd ref="1142581763"/>
    <nd ref="1142581811"/>
    <nd ref="286806899"/>
    <nd ref="286806901"/>
    <nd ref="286806903"/>
    <nd ref="286806904"/>
    <nd ref="286806905"/>
    <nd ref="286806907"/>
    <nd ref="286806908"/>
    <nd ref="286806910"/>
    <nd ref="1153397127"/>
    <nd ref="1153397134"/>
    <nd ref="286806911"/>
    <tag k="highway" v="residential"/>
  </way>
  <way id="26192189" version="5" timestamp="2011-02-17T22:27:13Z" uid="16922" user="amai" changeset="7318197">
    <nd ref="286806381"/>
    <nd ref="286806879"/>
    <nd ref="286806880"/>
    <nd ref="286806881"/>
    <nd ref="286806882"/>
    <nd ref="286806883"/>
    <nd ref="286806884"/>
    <nd ref="1142581586"/>
    <nd ref="286806885"/>
    <nd ref="286806886"/>
    <nd ref="1158194805"/>
    <nd ref="286806887"/>
    <nd ref="286806888"/>
    <nd ref="286806889"/>
    <nd ref="286806891"/>
    <nd ref="954545347"/>
    <nd ref="286806892"/>
    <nd ref="286806893"/>
    <nd ref="286806894"/>
    <nd ref="286806895"/>
    <nd ref="286806897"/>
    <nd ref="286806898"/>
    <nd ref="1142581763"/>
    <nd ref="1142581811"/>
    <nd ref="286806899"/>
    <nd ref="286806901"/>
    <nd ref="286806903"/>
    <nd ref="286806904"/>
    <nd ref="286806905"/>
    <nd ref="286806907"/>
    <nd ref="286806908"/>
    <nd ref="286806910"/>
    <nd ref="1153397127"/>
    <nd ref="1153397134"/>
    <nd ref="286806911"/>
    <tag k="highway" v="residential"/>
  </way>
  <way id="26192189" version="6" timestamp="2011-03-08T22:53:36Z" uid="16922" user="amai" changeset="7499591">
    <nd ref="286806381"/>
    <nd ref="286806879"/>
    <nd ref="286806880"/>
    <nd ref="286806881"/>
    <nd ref="286806882"/>
    <nd ref="286806883"/>
    <nd ref="286806884"/>
    <nd ref="1142581586"/>
    <nd ref="286806885"/>
    <nd ref="286806886"/>
    <nd ref="1158194805"/>
    <nd ref="286806887"/>
    <nd ref="286806888"/>
    <nd ref="286806889"/>
    <nd ref="286806891"/>
    <nd ref="954545347"/>
    <nd ref="286806892"/>
    <nd ref="286806893"/>
    <nd ref="286806894"/>
    <nd ref="1193586190"/>
    <nd ref="286806895"/>
    <nd ref="286806897"/>
    <nd ref="1193586101"/>
    <nd ref="286806898"/>
    <nd ref="1142581763"/>
    <nd ref="1142581811"/>
    <nd ref="286806899"/>
    <nd ref="286806901"/>
    <nd ref="286806903"/>
    <nd ref="286806904"/>
    <nd ref="286806905"/>
    <nd ref="286806907"/>
    <nd ref="286806908"/>
    <nd ref="286806910"/>
    <nd ref="1153397127"/>
    <nd ref="1153397134"/>
    <nd ref="286806911"/>
    <tag k="highway" v="residential"/>
  </way>
  <way id="26192189" version="7" timestamp="2012-03-07T08:16:27Z" uid="61891" user="stephankn" changeset="10897406">
    <nd ref="286806381"/>
    <nd ref="286806879"/>
    <nd ref="286806880"/>
    <nd ref="286806881"/>
    <nd ref="286806882"/>
    <nd ref="286806883"/>
    <nd ref="286806884"/>
    <nd ref="286806885"/>
    <nd ref="286806886"/>
    <nd ref="286806887"/>
    <nd ref="286806888"/>
    <nd ref="286806889"/>
    <nd ref="286806891"/>
    <nd ref="286806892"/>
    <nd ref="286806893"/>
    <nd ref="286806894"/>
    <nd ref="286806895"/>
    <nd ref="286806897"/>
    <nd ref="286806898"/>
    <nd ref="286806899"/>
    <nd ref="286806901"/>
    <nd ref="286806903"/>
    <nd ref="286806904"/>
    <nd ref="286806905"/>
    <nd ref="286806907"/>
    <nd ref="286806908"/>
    <nd ref="286806910"/>
    <nd ref="286806911"/>
    <tag k="highway" v="residential"/>
  </way>
  <way id="26192189" version="8" timestamp="2012-03-24T03:40:22Z" uid="510836" user="Rub21" changeset="11080547">
    <nd ref="286806381"/>
    <nd ref="286806879"/>
    <nd ref="1688055530"/>
    <nd ref="286806880"/>
    <nd ref="286806881"/>
    <nd ref="286806882"/>
    <nd ref="1688055482"/>
    <nd ref="286806883"/>
    <nd ref="1688055464"/>
    <nd ref="1688055445"/>
    <nd ref="286806885"/>
    <nd ref="286806886"/>
    <nd ref="286806887"/>
    <nd ref="1688055366"/>
    <nd ref="286806888"/>
    <nd ref="286806889"/>
    <nd ref="1688055307"/>
    <nd ref="1688055282"/>
    <nd ref="286806891"/>
    <nd ref="1688055242"/>
    <nd ref="286806892"/>
    <nd ref="286806893"/>
    <nd ref="1688055141"/>
    <nd ref="1688055127"/>
    <nd ref="286806894"/>
    <nd ref="1688055085"/>
    <nd ref="286806895"/>
    <nd ref="286806897"/>
    <nd ref="286806898"/>
    <nd ref="286806899"/>
    <nd ref="286806901"/>
    <nd ref="286806903"/>
    <nd ref="286806904"/>
    <nd ref="286806905"/>
    <nd ref="286806907"/>
    <nd ref="286806908"/>
    <nd ref="286806910"/>
    <nd ref="286806911"/>
    <tag k="highway" v="residential"/>
  </way>
  <way id="26192189" version="9" timestamp="2012-03-24T04:33:22Z" uid="510836" user="Rub21" changeset="11080694">
    <nd ref="286806381"/>
    <nd ref="286806879"/>
    <nd ref="1688055530"/>
    <nd ref="286806880"/>
    <nd ref="286806881"/>
    <nd ref="286806882"/>
    <nd ref="1688055482"/>
    <nd ref="286806883"/>
    <nd ref="1688055464"/>
    <nd ref="1688055445"/>
    <nd ref="286806885"/>
    <nd ref="286806886"/>
    <nd ref="286806887"/>
    <nd ref="1688055366"/>
    <nd ref="286806888"/>
    <nd ref="286806889"/>
    <nd ref="1688055307"/>
    <nd ref="1688055282"/>
    <nd ref="286806891"/>
    <nd ref="1688055242"/>
    <nd ref="286806892"/>
    <nd ref="286806893"/>
    <nd ref="1688055141"/>
    <nd ref="1688055127"/>
    <nd ref="286806894"/>
    <nd ref="1688055085"/>
    <nd ref="286806895"/>
    <nd ref="1688064339"/>
    <nd ref="286806897"/>
    <nd ref="1688064325"/>
    <nd ref="286806898"/>
    <nd ref="1688064313"/>
    <nd ref="1688064309"/>
    <nd ref="286806899"/>
    <nd ref="286806901"/>
    <nd ref="286806903"/>
    <nd ref="286806904"/>
    <nd ref="286806905"/>
    <nd ref="286806907"/>
    <nd ref="286806908"/>
    <nd ref="286806910"/>
    <nd ref="286806911"/>
    <tag k="highway" v="residential"/>
  </way>
  <way id="26192189" version="10" timestamp="2012-03-24T19:41:17Z" uid="510836" user="Rub21" changeset="11088227">
    <nd ref="286806381"/>
    <nd ref="286806879"/>
    <nd ref="1688055530"/>
    <nd ref="286806880"/>
    <nd ref="286806881"/>
    <nd ref="286806882"/>
    <nd ref="1688055482"/>
    <nd ref="286806883"/>
    <nd ref="1688055464"/>
    <nd ref="1688055445"/>
    <nd ref="286806885"/>
    <nd ref="286806886"/>
    <nd ref="286806887"/>
    <nd ref="1688055366"/>
    <nd ref="286806888"/>
    <nd ref="286806889"/>
    <nd ref="1688055307"/>
    <nd ref="1688055282"/>
    <nd ref="286806891"/>
    <nd ref="1688055242"/>
    <nd ref="286806892"/>
    <nd ref="286806893"/>
    <nd ref="1688055141"/>
    <nd ref="1688055127"/>
    <nd ref="286806894"/>
    <nd ref="1688055085"/>
    <nd ref="286806895"/>
    <nd ref="1688064339"/>
    <nd ref="286806897"/>
    <nd ref="1688064325"/>
    <nd ref="286806898"/>
    <nd ref="1688064313"/>
    <nd ref="1688064309"/>
    <nd ref="286806899"/>
    <nd ref="286806901"/>
    <nd ref="286806903"/>
    <nd ref="286806904"/>
    <nd ref="286806905"/>
    <nd ref="286806907"/>
    <nd ref="286806908"/>
    <nd ref="286806910"/>
    <nd ref="1689156880"/>
    <nd ref="1689156878"/>
    <nd ref="286806911"/>
    <tag k="highway" v="residential"/>
  </way>
  <way id="26192193" version="1" timestamp="2008-08-10T18:42:39Z" uid="20587" user="balrog-kun" changeset="173836">
    <nd ref="119902638"/>
    <nd ref="119902638"/>
    <tag k="created_by" v="Potlatch 0.10b"/>
    <tag k="highway" v="residential"/>
    <tag k="name" v="Kopernika"/>
    <tag k="oneway" v="yes"/>
  </way>
  <way id="26192193" version="2" timestamp="2008-10-08T22:08:01Z" uid="53100" user="Jakub Klawiter" changeset="183034">
    <nd ref="119902638"/>
    <nd ref="119902638"/>
    <tag k="created_by" v="Potlatch 0.10b"/>
    <tag k="highway" v="residential"/>
    <tag k="name" v="Mikołaja Kopernika"/>
    <tag k="oneway" v="yes"/>
  </way>
  <way id="26192193" version="3" timestamp="2008-10-29T16:50:14Z" uid="20587" user="balrog-kun" changeset="620943"/>
  <way id="26192194" version="1" timestamp="2008-08-10T18:42:39Z" uid="20587" user="balrog-kun" changeset="173836">
    <nd ref="119902638"/>
    <nd ref="119902638"/>
    <tag k="created_by" v="Potlatch 0.10b"/>
    <tag k="highway" v="residential"/>
    <tag k="name" v="Kopernika"/>
    <tag k="oneway" v="yes"/>
  </way>
  <way id="26192194" version="2" timestamp="2008-10-08T22:08:02Z" uid="53100" user="Jakub Klawiter" changeset="183034">
    <nd ref="119902638"/>
    <nd ref="119902638"/>
    <tag k="created_by" v="Potlatch 0.10b"/>
    <tag k="highway" v="residential"/>
    <tag k="name" v="Mikołaja Kopernika"/>
    <tag k="oneway" v="yes"/>
  </way>
  <way id="26192194" version="3" timestamp="2008-10-29T16:50:15Z" uid="20587" user="balrog-kun" changeset="620943"/>
  <way id="26192195" version="1" timestamp="2008-08-10T18:42:40Z" uid="20587" user="balrog-kun" changeset="173836">
    <nd ref="119902638"/>
    <nd ref="282661782"/>
    <nd ref="224752215"/>
    <nd ref="224752218"/>
    <nd ref="224752221"/>
    <nd ref="224752222"/>
    <tag k="created_by" v="Potlatch 0.10b"/>
    <tag k="highway" v="residential"/>
    <tag k="name" v="Kopernika"/>
    <tag k="oneway" v="yes"/>
  </way>
  <way id="26192195" version="2" timestamp="2008-08-14T23:20:18Z" uid="52087" user="kocio" changeset="270181">
    <nd ref="119902638"/>
    <nd ref="282661782"/>
    <nd ref="224752215"/>
    <tag k="created_by" v="Potlatch 0.10b"/>
    <tag k="highway" v="residential"/>
    <tag k="name" v="Kopernika"/>
    <tag k="oneway" v="yes"/>
  </way>
  <way id="26192195" version="3" timestamp="2008-08-25T14:19:47Z" uid="52087" user="kocio" changeset="406317"/>
  <way id="26192197" version="1" timestamp="2008-08-10T18:42:40Z" uid="20587" user="balrog-kun" changeset="173836">
    <nd ref="286806949"/>
    <nd ref="286806953"/>
    <nd ref="286806957"/>
    <nd ref="286806960"/>
    <nd ref="286806962"/>
    <nd ref="286806965"/>
    <nd ref="286806967"/>
    <nd ref="286806969"/>
    <nd ref="286806972"/>
    <nd ref="286806962"/>
    <nd ref="286806960"/>
    <nd ref="286806975"/>
    <nd ref="286806977"/>
    <nd ref="286806949"/>
    <tag k="addr:housenumber" v="1"/>
    <tag k="addr:postcode" v="00-793"/>
    <tag k="building" v="yes"/>
    <tag k="name" v="Urząd Skarbowy Warszawa-Mokotów"/>
  </way>
  <way id="26192197" version="2" timestamp="2008-10-07T17:07:37Z" uid="20587" user="balrog-kun" changeset="135180">
    <nd ref="286806949"/>
    <nd ref="286806953"/>
    <nd ref="286806957"/>
    <nd ref="286806960"/>
    <nd ref="286806962"/>
    <nd ref="286806965"/>
    <nd ref="286806967"/>
    <nd ref="286806969"/>
    <nd ref="286806972"/>
    <nd ref="286806962"/>
    <nd ref="286806960"/>
    <nd ref="286806975"/>
    <nd ref="286806977"/>
    <nd ref="286806949"/>
    <tag k="addr:postcode" v="00-793"/>
    <tag k="building" v="yes"/>
    <tag k="name" v="Urząd Skarbowy Warszawa-Mokotów"/>
  </way>
  <way id="26192197" version="3" timestamp="2008-10-07T18:08:24Z" uid="20587" user="balrog-kun" changeset="135180">
    <nd ref="286806949"/>
    <nd ref="286806953"/>
    <nd ref="286806957"/>
    <nd ref="286806960"/>
    <nd ref="286806962"/>
    <nd ref="286806965"/>
    <nd ref="286806967"/>
    <nd ref="286806969"/>
    <nd ref="286806972"/>
    <nd ref="286806962"/>
    <nd ref="286806960"/>
    <nd ref="286806975"/>
    <nd ref="286806977"/>
    <nd ref="286806949"/>
    <tag k="addr:housenumber" v="1"/>
    <tag k="addr:postcode" v="00-793"/>
    <tag k="building" v="yes"/>
    <tag k="name" v="Urząd Skarbowy Warszawa-Mokotów"/>
  </way>
  <way id="26192197" version="4" timestamp="2009-02-09T00:49:36Z" uid="20587" user="balrog-kun" changeset="288825">
    <nd ref="286806960"/>
    <nd ref="286806975"/>
    <nd ref="286806977"/>
    <nd ref="286806949"/>
    <nd ref="286806953"/>
    <nd ref="286806957"/>
    <nd ref="286806960"/>
    <tag k="addr:housenumber" v="1"/>
    <tag k="addr:postcode" v="00-793"/>
    <tag k="building" v="yes"/>
    <tag k="name" v="Urząd Skarbowy Warszawa-Mokotów"/>
  </way>
  <way id="26192235" version="3" timestamp="2011-03-08T22:53:29Z" uid="16922" user="amai" changeset="7499591">
    <nd ref="286806897"/>
    <nd ref="1193586212"/>
    <nd ref="286807415"/>
    <nd ref="286807416"/>
    <nd ref="286807417"/>
    <nd ref="286807418"/>
    <nd ref="286807419"/>
    <nd ref="286807420"/>
    <nd ref="286807555"/>
    <tag k="highway" v="residential"/>
  </way>
  <way id="26192235" version="4" timestamp="2012-03-07T08:16:31Z" uid="61891" user="stephankn" changeset="10897406">
    <nd ref="286806897"/>
    <nd ref="286807415"/>
    <nd ref="286807416"/>
    <nd ref="286807417"/>
    <nd ref="286807418"/>
    <nd ref="286807419"/>
    <nd ref="286807420"/>
    <nd ref="286807555"/>
    <tag k="highway" v="residential"/>
  </way>
  <way id="26192235" version="5" timestamp="2012-03-24T03:40:22Z" uid="510836" user="Rub21" changeset="11080547">
    <nd ref="286806897"/>
    <nd ref="286807415"/>
    <nd ref="286807416"/>
    <nd ref="286807417"/>
    <nd ref="1688054994"/>
    <nd ref="286807418"/>
    <nd ref="286807419"/>
    <nd ref="286807420"/>
    <nd ref="286807555"/>
    <tag k="highway" v="residential"/>
  </way>
  <way id="26192235" version="6" timestamp="2012-03-24T04:33:20Z" uid="510836" user="Rub21" changeset="11080694">
    <nd ref="286806897"/>
    <nd ref="1688064327"/>
    <nd ref="1688064323"/>
    <nd ref="1688064318"/>
    <nd ref="1688064315"/>
    <nd ref="1688064314"/>
    <nd ref="286807415"/>
    <nd ref="286807416"/>
    <nd ref="286807417"/>
    <nd ref="1688054994"/>
    <nd ref="286807418"/>
    <nd ref="286807419"/>
    <nd ref="286807420"/>
    <nd ref="286807555"/>
    <tag k="highway" v="residential"/>
  </way>
  <way id="26192346" version="4" timestamp="2011-01-15T00:42:31Z" uid="6269" user="Mueck" changeset="6972995">
    <nd ref="286808398"/>
    <nd ref="286808402"/>
    <nd ref="286808404"/>
    <nd ref="286808407"/>
    <nd ref="1104110873"/>
    <nd ref="286808414"/>
    <nd ref="286808417"/>
    <nd ref="286808422"/>
    <tag k="highway" v="residential"/>
    <tag k="name" v="Ringstraße"/>
  </way>
  <way id="26192669" version="4" timestamp="2008-09-18T21:23:08Z" uid="49111" user="Markus B" changeset="660965">
    <nd ref="286810844"/>
    <nd ref="286810846"/>
    <nd ref="286810849"/>
    <nd ref="286810850"/>
    <nd ref="286810851"/>
    <nd ref="286810852"/>
    <nd ref="286810853"/>
    <nd ref="286810854"/>
    <nd ref="286810855"/>
    <nd ref="286810856"/>
    <nd ref="286810857"/>
    <nd ref="286810859"/>
    <nd ref="286810860"/>
    <nd ref="286810861"/>
    <nd ref="286810863"/>
    <nd ref="286810864"/>
    <nd ref="286810865"/>
    <nd ref="286810866"/>
    <nd ref="286810868"/>
    <nd ref="286810869"/>
    <nd ref="286810871"/>
    <nd ref="286810875"/>
    <nd ref="286810878"/>
    <nd ref="286810880"/>
    <nd ref="286810881"/>
    <nd ref="286810882"/>
    <nd ref="286810883"/>
    <nd ref="286810891"/>
    <nd ref="286810894"/>
    <nd ref="286810899"/>
    <nd ref="286810906"/>
    <nd ref="286810909"/>
    <nd ref="286810916"/>
    <nd ref="286810919"/>
    <nd ref="286810921"/>
    <nd ref="286810922"/>
    <nd ref="286810926"/>
    <nd ref="286810927"/>
    <nd ref="286810928"/>
    <nd ref="286810930"/>
    <nd ref="286810932"/>
    <nd ref="286810934"/>
    <nd ref="286810935"/>
    <nd ref="286810937"/>
    <nd ref="286810940"/>
    <nd ref="286810941"/>
    <nd ref="286810945"/>
    <nd ref="286810947"/>
    <nd ref="286810950"/>
    <nd ref="286810952"/>
    <nd ref="286810953"/>
    <nd ref="286810954"/>
    <nd ref="286810955"/>
    <nd ref="255304709"/>
    <nd ref="255304710"/>
    <nd ref="255304719"/>
    <nd ref="286810958"/>
    <nd ref="286810960"/>
    <nd ref="286810961"/>
    <nd ref="286810962"/>
    <nd ref="286810963"/>
    <nd ref="286810964"/>
    <nd ref="286810965"/>
    <nd ref="286810966"/>
    <nd ref="286810973"/>
    <nd ref="286810975"/>
    <nd ref="286810977"/>
    <nd ref="286815009"/>
    <nd ref="286815011"/>
    <nd ref="286815014"/>
    <nd ref="286815016"/>
    <nd ref="286815020"/>
    <nd ref="286815024"/>
    <nd ref="286815027"/>
    <nd ref="286815036"/>
    <nd ref="286815043"/>
    <nd ref="286815047"/>
    <nd ref="286815053"/>
    <nd ref="286815060"/>
    <nd ref="286815064"/>
    <nd ref="286815071"/>
    <nd ref="286815074"/>
    <nd ref="286815079"/>
    <nd ref="286815086"/>
    <nd ref="286815093"/>
    <nd ref="286815097"/>
    <nd ref="286815100"/>
    <nd ref="286815103"/>
    <nd ref="286815108"/>
    <nd ref="286815118"/>
    <nd ref="286815121"/>
    <nd ref="286815123"/>
    <nd ref="286815125"/>
    <nd ref="286815127"/>
    <nd ref="286815146"/>
    <nd ref="286815148"/>
    <nd ref="286815152"/>
    <nd ref="286815155"/>
    <nd ref="286815156"/>
    <nd ref="286815157"/>
    <nd ref="286815159"/>
    <nd ref="286815163"/>
    <nd ref="286815164"/>
    <nd ref="286815165"/>
    <nd ref="286815166"/>
    <nd ref="286815167"/>
    <nd ref="82653542"/>
    <tag k="created_by" v="JOSM"/>
    <tag k="highway" v="footway"/>
    <tag k="name" v="trubach weg"/>
    <tag k="surface" v="unpaved"/>
  </way>
  <way id="26192669" version="5" timestamp="2008-10-12T20:54:48Z" uid="67602" user="Nop" changeset="292464"/>
  <way id="26192853" version="9" timestamp="2009-09-30T13:52:19Z" uid="36809" user="pfoten_weg_!_" changeset="2688655">
    <nd ref="264797977"/>
    <nd ref="339311877"/>
    <nd ref="344983349"/>
    <nd ref="355655443"/>
    <nd ref="264797978"/>
    <nd ref="262290144"/>
    <tag k="highway" v="unclassified"/>
  </way>
  <way id="26192853" version="10" timestamp="2009-10-31T17:54:54Z" uid="94149" user="markusri" changeset="2999653">
    <nd ref="264797977"/>
    <nd ref="549127856"/>
    <nd ref="339311877"/>
    <nd ref="344983349"/>
    <nd ref="355655443"/>
    <nd ref="264797978"/>
    <nd ref="262290144"/>
    <tag k="highway" v="unclassified"/>
  </way>
  <way id="26192853" version="11" timestamp="2009-12-06T18:50:42Z" uid="94149" user="markusri" changeset="3308252">
    <nd ref="264797977"/>
    <nd ref="549127856"/>
    <nd ref="339311877"/>
    <nd ref="344983349"/>
    <nd ref="582656777"/>
    <nd ref="355655443"/>
    <nd ref="264797978"/>
    <nd ref="262290144"/>
    <tag k="highway" v="unclassified"/>
  </way>
  <way id="26192853" version="12" timestamp="2009-12-06T18:51:28Z" uid="94149" user="markusri" changeset="3308252">
    <nd ref="264797977"/>
    <nd ref="549127856"/>
    <nd ref="582657018"/>
    <nd ref="339311877"/>
    <nd ref="344983349"/>
    <nd ref="582656777"/>
    <nd ref="355655443"/>
    <nd ref="264797978"/>
    <nd ref="262290144"/>
    <tag k="highway" v="unclassified"/>
  </way>
  <way id="26192853" version="13" timestamp="2011-01-14T16:23:50Z" uid="7596" user="ck3d" changeset="6968723">
    <nd ref="264797977"/>
    <nd ref="549127856"/>
    <nd ref="582657018"/>
    <nd ref="339311877"/>
    <nd ref="344983349"/>
    <nd ref="355655443"/>
    <nd ref="264797978"/>
    <nd ref="262290144"/>
    <tag k="highway" v="unclassified"/>
  </way>
  <way id="26192855" version="6" timestamp="2009-09-30T13:52:18Z" uid="36809" user="pfoten_weg_!_" changeset="2688655">
    <nd ref="262290177"/>
    <nd ref="286813011"/>
    <nd ref="440318370"/>
    <nd ref="286813012"/>
    <nd ref="286813013"/>
    <nd ref="440318549"/>
    <nd ref="286813014"/>
    <nd ref="339205637"/>
    <tag k="highway" v="residential"/>
    <tag k="name" v="Kirchbergstraße"/>
  </way>
  <way id="26192855" version="7" timestamp="2009-10-31T17:57:18Z" uid="94149" user="markusri" changeset="2999653">
    <nd ref="262290177"/>
    <nd ref="286813011"/>
    <nd ref="440318370"/>
    <nd ref="286813012"/>
    <nd ref="286813013"/>
    <nd ref="440318549"/>
    <nd ref="286813014"/>
    <nd ref="549132997"/>
    <nd ref="339205637"/>
    <tag k="highway" v="residential"/>
    <tag k="name" v="Kirchbergstraße"/>
  </way>
  <way id="26192855" version="8" timestamp="2009-12-21T17:02:36Z" uid="94149" user="markusri" changeset="3421610">
    <nd ref="262290177"/>
    <nd ref="286813011"/>
    <nd ref="440318370"/>
    <nd ref="286813012"/>
    <nd ref="286813013"/>
    <nd ref="440318549"/>
    <nd ref="286813014"/>
    <nd ref="549132997"/>
    <nd ref="339205637"/>
    <tag k="highway" v="residential"/>
    <tag k="name" v="Kirchbergstraße"/>
    <tag k="surface" v="paved"/>
  </way>
  <way id="26192855" version="9" timestamp="2010-12-24T14:18:15Z" uid="7596" user="ck3d" changeset="6754888">
    <nd ref="262290177"/>
    <nd ref="286813011"/>
    <nd ref="440318370"/>
    <nd ref="286813012"/>
    <nd ref="286813013"/>
    <nd ref="440318549"/>
    <nd ref="339205637"/>
    <tag k="highway" v="residential"/>
    <tag k="name" v="Kirchbergstraße"/>
    <tag k="surface" v="paved"/>
  </way>
  <way id="26192856" version="8" timestamp="2009-09-30T13:52:25Z" uid="36809" user="pfoten_weg_!_" changeset="2688655">
    <nd ref="286813024"/>
    <nd ref="336399332"/>
    <nd ref="384795211"/>
    <nd ref="286813026"/>
    <nd ref="359519531"/>
    <nd ref="370905772"/>
    <nd ref="286813027"/>
    <nd ref="292735355"/>
    <nd ref="286813028"/>
    <nd ref="286813029"/>
    <tag k="highway" v="unclassified"/>
  </way>
  <way id="26192856" version="9" timestamp="2009-10-31T17:14:59Z" uid="94149" user="markusri" changeset="2999001">
    <nd ref="286813024"/>
    <nd ref="336399332"/>
    <nd ref="384795211"/>
    <nd ref="286813026"/>
    <nd ref="359519531"/>
    <nd ref="549061572"/>
    <nd ref="370905772"/>
    <nd ref="286813027"/>
    <nd ref="292735355"/>
    <nd ref="286813028"/>
    <nd ref="286813029"/>
    <tag k="highway" v="unclassified"/>
  </way>
  <way id="26192856" version="10" timestamp="2009-12-27T09:45:06Z" uid="94149" user="markusri" changeset="3460918">
    <nd ref="286813024"/>
    <nd ref="336399332"/>
    <nd ref="384795211"/>
    <nd ref="286813026"/>
    <nd ref="359519531"/>
    <nd ref="549061572"/>
    <nd ref="370905772"/>
    <nd ref="286813027"/>
    <nd ref="292735355"/>
    <nd ref="286813028"/>
    <nd ref="286813029"/>
    <tag k="highway" v="unclassified"/>
    <tag k="surface" v="paved"/>
  </way>
  <way id="26192856" version="11" timestamp="2010-12-24T14:18:16Z" uid="7596" user="ck3d" changeset="6754888">
    <nd ref="286813024"/>
    <nd ref="336399332"/>
    <nd ref="384795211"/>
    <nd ref="359519531"/>
    <nd ref="549061572"/>
    <nd ref="370905772"/>
    <nd ref="286813027"/>
    <nd ref="292735355"/>
    <nd ref="286813029"/>
    <tag k="highway" v="unclassified"/>
    <tag k="surface" v="paved"/>
  </way>
  <way id="26192856" version="12" timestamp="2010-12-25T22:36:44Z" uid="7596" user="ck3d" changeset="6764344">
    <nd ref="286813024"/>
    <nd ref="336399332"/>
    <nd ref="384795211"/>
    <nd ref="359519531"/>
    <nd ref="370905772"/>
    <nd ref="286813027"/>
    <nd ref="292735355"/>
    <nd ref="286813029"/>
    <tag k="highway" v="unclassified"/>
    <tag k="surface" v="paved"/>
  </way>
  <way id="26192856" version="13" timestamp="2012-01-03T18:02:57Z" uid="48185" user="Hans Loderer" changeset="10283904">
    <nd ref="286813024"/>
    <nd ref="336399332"/>
    <nd ref="384795211"/>
    <nd ref="359519531"/>
    <nd ref="370905772"/>
    <nd ref="286813027"/>
    <nd ref="292735355"/>
    <nd ref="286813029"/>
    <tag k="highway" v="unclassified"/>
    <tag k="maxspeed" v="100"/>
    <tag k="surface" v="paved"/>
  </way>
  <way id="26192860" version="7" timestamp="2009-09-30T13:52:23Z" uid="36809" user="pfoten_weg_!_" changeset="2688655">
    <nd ref="286812991"/>
    <nd ref="286812990"/>
    <nd ref="286812989"/>
    <nd ref="286812988"/>
    <nd ref="286812987"/>
    <nd ref="286812986"/>
    <nd ref="359523575"/>
    <nd ref="286812985"/>
    <nd ref="286812983"/>
    <nd ref="286812981"/>
    <nd ref="268554109"/>
    <nd ref="336380602"/>
    <nd ref="221678228"/>
    <nd ref="221678229"/>
    <nd ref="221678231"/>
    <nd ref="221678232"/>
    <nd ref="221678233"/>
    <nd ref="221678235"/>
    <nd ref="430445309"/>
    <nd ref="221678236"/>
    <nd ref="221678238"/>
    <nd ref="286813010"/>
    <nd ref="221678239"/>
    <nd ref="221678240"/>
    <nd ref="221678241"/>
    <nd ref="221676342"/>
    <tag k="highway" v="unclassified"/>
  </way>
  <way id="26192860" version="8" timestamp="2009-10-31T11:09:44Z" uid="94149" user="markusri" changeset="2996193">
    <nd ref="286812991"/>
    <nd ref="286812990"/>
    <nd ref="286812989"/>
    <nd ref="286812988"/>
    <nd ref="286812987"/>
    <nd ref="286812986"/>
    <nd ref="359523575"/>
    <nd ref="286812985"/>
    <nd ref="286812983"/>
    <nd ref="286812981"/>
    <nd ref="268554109"/>
    <nd ref="336380602"/>
    <nd ref="221678228"/>
    <nd ref="221678229"/>
    <nd ref="221678231"/>
    <nd ref="221678232"/>
    <nd ref="221678233"/>
    <nd ref="221678235"/>
    <nd ref="430445309"/>
    <nd ref="221678236"/>
    <nd ref="221678238"/>
    <nd ref="548209204"/>
    <nd ref="286813010"/>
    <nd ref="221678239"/>
    <nd ref="221678240"/>
    <nd ref="221678241"/>
    <nd ref="221676342"/>
    <tag k="highway" v="unclassified"/>
  </way>
  <way id="26192860" version="9" timestamp="2009-12-27T09:43:03Z" uid="94149" user="markusri" changeset="3460918">
    <nd ref="286812991"/>
    <nd ref="286812990"/>
    <nd ref="286812989"/>
    <nd ref="286812988"/>
    <nd ref="286812987"/>
    <nd ref="286812986"/>
    <nd ref="359523575"/>
    <nd ref="286812985"/>
    <nd ref="286812983"/>
    <nd ref="286812981"/>
    <nd ref="268554109"/>
    <nd ref="336380602"/>
    <nd ref="221678228"/>
    <nd ref="221678229"/>
    <nd ref="221678231"/>
    <nd ref="221678232"/>
    <nd ref="221678233"/>
    <nd ref="221678235"/>
    <nd ref="430445309"/>
    <nd ref="221678236"/>
    <nd ref="221678238"/>
    <nd ref="548209204"/>
    <nd ref="286813010"/>
    <nd ref="221678239"/>
    <nd ref="221678240"/>
    <nd ref="221678241"/>
    <nd ref="221676342"/>
    <tag k="highway" v="unclassified"/>
    <tag k="surface" v="paved"/>
  </way>
  <way id="26192860" version="10" timestamp="2010-08-21T18:32:52Z" uid="7596" user="ck3d" changeset="5554461">
    <nd ref="286812991"/>
    <nd ref="286812990"/>
    <nd ref="286812989"/>
    <nd ref="286812988"/>
    <nd ref="286812987"/>
    <nd ref="286812986"/>
    <nd ref="359523575"/>
    <nd ref="286812985"/>
    <nd ref="286812983"/>
    <nd ref="286812981"/>
    <nd ref="268554109"/>
    <nd ref="336380602"/>
    <nd ref="221678228"/>
    <nd ref="221678229"/>
    <nd ref="221678231"/>
    <nd ref="221678232"/>
    <nd ref="221678235"/>
    <nd ref="430445309"/>
    <nd ref="221678239"/>
    <nd ref="221678241"/>
    <nd ref="221676342"/>
    <tag k="highway" v="unclassified"/>
    <tag k="surface" v="paved"/>
  </way>
  <way id="26192860" version="11" timestamp="2010-12-24T14:18:13Z" uid="7596" user="ck3d" changeset="6754888">
    <nd ref="286812991"/>
    <nd ref="286812990"/>
    <nd ref="286812989"/>
    <nd ref="286812988"/>
    <nd ref="359523575"/>
    <nd ref="286812983"/>
    <nd ref="286812981"/>
    <nd ref="268554109"/>
    <nd ref="336380602"/>
    <nd ref="221678228"/>
    <nd ref="221678229"/>
    <nd ref="221678231"/>
    <nd ref="221678232"/>
    <nd ref="221678235"/>
    <nd ref="430445309"/>
    <nd ref="221678239"/>
    <nd ref="221678241"/>
    <nd ref="221676342"/>
    <tag k="highway" v="unclassified"/>
    <tag k="surface" v="paved"/>
  </way>
  <way id="26192860" version="12" timestamp="2010-12-25T22:36:47Z" uid="7596" user="ck3d" changeset="6764344">
    <nd ref="286812991"/>
    <nd ref="286812990"/>
    <nd ref="359523575"/>
    <nd ref="286812983"/>
    <nd ref="286812981"/>
    <nd ref="268554109"/>
    <nd ref="336380602"/>
    <nd ref="221678228"/>
    <nd ref="221678229"/>
    <nd ref="221678231"/>
    <nd ref="221678232"/>
    <nd ref="221678235"/>
    <nd ref="430445309"/>
    <nd ref="221678239"/>
    <nd ref="221678241"/>
    <nd ref="221676342"/>
    <tag k="highway" v="unclassified"/>
    <tag k="surface" v="paved"/>
  </way>
  <way id="26192860" version="13" timestamp="2011-02-05T13:49:42Z" uid="7596" user="ck3d" changeset="7192571">
    <nd ref="286812991"/>
    <nd ref="286812990"/>
    <nd ref="359523575"/>
    <nd ref="286812983"/>
    <nd ref="286812981"/>
    <nd ref="268554109"/>
    <nd ref="336380602"/>
    <nd ref="221678229"/>
    <nd ref="221678231"/>
    <nd ref="221678232"/>
    <nd ref="221678235"/>
    <nd ref="430445309"/>
    <nd ref="221678239"/>
    <nd ref="221678241"/>
    <nd ref="221676342"/>
    <tag k="highway" v="unclassified"/>
    <tag k="surface" v="paved"/>
  </way>
  <way id="26192860" version="14" timestamp="2011-04-02T18:15:15Z" uid="48185" user="Hans Loderer" changeset="7746628">
    <nd ref="286812991"/>
    <nd ref="286812990"/>
    <nd ref="359523575"/>
    <nd ref="286812983"/>
    <nd ref="286812981"/>
    <nd ref="268554109"/>
    <nd ref="336380602"/>
    <nd ref="221678229"/>
    <nd ref="221678231"/>
    <nd ref="221678232"/>
    <nd ref="221678235"/>
    <nd ref="430445309"/>
    <nd ref="221678239"/>
    <nd ref="221678241"/>
    <nd ref="221676342"/>
    <tag k="highway" v="unclassified"/>
    <tag k="maxspeed" v="100"/>
    <tag k="maxweigth" v="3.5"/>
    <tag k="surface" v="paved"/>
    <tag k="width" v="3.0"/>
  </way>
  <way id="26192860" version="15" timestamp="2011-04-03T17:36:11Z" uid="70696" user="xybot" changeset="7756816">
    <nd ref="286812991"/>
    <nd ref="286812990"/>
    <nd ref="359523575"/>
    <nd ref="286812983"/>
    <nd ref="286812981"/>
    <nd ref="268554109"/>
    <nd ref="336380602"/>
    <nd ref="221678229"/>
    <nd ref="221678231"/>
    <nd ref="221678232"/>
    <nd ref="221678235"/>
    <nd ref="430445309"/>
    <nd ref="221678239"/>
    <nd ref="221678241"/>
    <nd ref="221676342"/>
    <tag k="highway" v="unclassified"/>
    <tag k="maxspeed" v="100"/>
    <tag k="maxweight" v="3.5"/>
    <tag k="surface" v="paved"/>
    <tag k="width" v="3.0"/>
  </way>
  <way id="26192942" version="2" timestamp="2008-10-11T10:18:47Z" uid="27600" user="Islanit" changeset="246172">
    <nd ref="32963143"/>
    <nd ref="303716253"/>
    <tag k="created_by" v="Potlatch 0.10d"/>
    <tag k="highway" v="track"/>
    <tag k="name" v="Eidelstedter Weg"/>
    <tag k="tracktype" v="grade2"/>
  </way>
  <way id="26192942" version="3" timestamp="2008-10-11T10:18:57Z" uid="27600" user="Islanit" changeset="246172">
    <nd ref="32963143"/>
    <nd ref="303716348"/>
    <nd ref="303716253"/>
    <tag k="created_by" v="Potlatch 0.10d"/>
    <tag k="highway" v="track"/>
    <tag k="name" v="Eidelstedter Weg"/>
    <tag k="tracktype" v="grade2"/>
  </way>
  <way id="26192942" version="4" timestamp="2008-12-28T20:23:59Z" uid="66904" user="OSchlüter" changeset="652249">
    <nd ref="322658853"/>
    <nd ref="322658856"/>
    <nd ref="303716253"/>
    <nd ref="32258865"/>
    <tag k="created_by" v="Potlatch 0.10d"/>
    <tag k="highway" v="track"/>
    <tag k="name" v="Eidelstedter Weg"/>
    <tag k="tracktype" v="grade2"/>
  </way>
  <way id="26192942" version="5" timestamp="2009-06-20T15:40:29Z" uid="26492" user="phobie" changeset="1575737">
    <nd ref="322658853"/>
    <nd ref="322658856"/>
    <nd ref="303716253"/>
    <nd ref="32258865"/>
    <tag k="highway" v="track"/>
    <tag k="name" v="Eidelstedter Weg"/>
    <tag k="tracktype" v="grade2"/>
  </way>
  <way id="26192942" version="6" timestamp="2011-03-05T16:53:39Z" uid="11238" user="fahrrad" changeset="7465190">
    <nd ref="322658853"/>
    <nd ref="322658856"/>
    <nd ref="303716253"/>
    <nd ref="1187517282"/>
    <nd ref="1187517405"/>
    <nd ref="1187517595"/>
    <nd ref="32258865"/>
    <tag k="highway" v="track"/>
    <tag k="name" v="Eidelstedter Weg"/>
    <tag k="tracktype" v="grade2"/>
  </way>
  <way id="26192942" version="7" timestamp="2011-07-17T13:56:25Z" uid="11238" user="fahrrad" changeset="8747922">
    <nd ref="322658853"/>
    <nd ref="322658856"/>
    <nd ref="303716253"/>
    <nd ref="1364459258"/>
    <nd ref="1364459170"/>
    <nd ref="1364459171"/>
    <nd ref="1364459403"/>
    <nd ref="1187517282"/>
    <nd ref="1187517405"/>
    <nd ref="1187517595"/>
    <nd ref="32258865"/>
    <tag k="highway" v="track"/>
    <tag k="name" v="Eidelstedter Weg"/>
    <tag k="tracktype" v="grade2"/>
  </way>
  <way id="26192959" version="2" timestamp="2008-10-17T15:53:28Z" uid="43863" user="Rundling" changeset="393177"/>
  <way id="26192960" version="3" timestamp="2008-12-30T21:02:25Z" uid="43863" user="Rundling" changeset="675772">
    <nd ref="279136632"/>
    <nd ref="286813067"/>
    <tag k="created_by" v="Hightower0815"/>
    <tag k="highway" v="residential"/>
    <tag k="name" v="Wiesenstraße"/>
    <tag k="surface" v="paved"/>
  </way>
  <way id="26192960" version="4" timestamp="2009-01-20T22:08:52Z" uid="58913" user="LHH_Johnny" changeset="818338"/>
  <way id="26192964" version="3" timestamp="2009-06-05T13:38:50Z" uid="43863" user="Rundling" changeset="1429438">
    <nd ref="286813206"/>
    <nd ref="286813214"/>
    <nd ref="286813228"/>
    <nd ref="286813224"/>
    <tag k="highway" v="residential"/>
    <tag k="name" v="Talstraße"/>
    <tag k="surface" v="paved"/>
  </way>
  <way id="26192964" version="4" timestamp="2010-01-18T22:19:06Z" uid="58913" user="LHH_Johnny" changeset="3654782">
    <nd ref="286813206"/>
    <nd ref="286813214"/>
    <nd ref="286813228"/>
    <nd ref="286813224"/>
    <tag k="highway" v="residential"/>
    <tag k="maxspeed" v="30"/>
    <tag k="name" v="Talstraße"/>
    <tag k="surface" v="paved"/>
  </way>
  <way id="26192965" version="3" timestamp="2009-06-05T13:38:50Z" uid="43863" user="Rundling" changeset="1429438">
    <nd ref="286813228"/>
    <nd ref="286813230"/>
    <tag k="highway" v="residential"/>
    <tag k="name" v="Talstraße"/>
    <tag k="surface" v="paved"/>
  </way>
  <way id="26192965" version="4" timestamp="2010-01-18T22:19:06Z" uid="58913" user="LHH_Johnny" changeset="3654782">
    <nd ref="286813228"/>
    <nd ref="286813230"/>
    <tag k="highway" v="residential"/>
    <tag k="maxspeed" v="30"/>
    <tag k="name" v="Talstraße"/>
    <tag k="surface" v="paved"/>
  </way>
  <way id="26192965" version="5" timestamp="2010-02-08T22:33:23Z" uid="230954" user="der-Arti" changeset="3827890">
    <nd ref="286813228"/>
    <nd ref="286813230"/>
    <tag k="highway" v="residential"/>
    <tag k="maxspeed" v="30"/>
    <tag k="name" v="Kurze Strasse"/>
    <tag k="surface" v="paved"/>
  </way>
  <way id="26192965" version="6" timestamp="2010-02-10T14:00:52Z" uid="70696" user="xybot" changeset="3840387">
    <nd ref="286813228"/>
    <nd ref="286813230"/>
    <tag k="highway" v="residential"/>
    <tag k="maxspeed" v="30"/>
    <tag k="name" v="Kurze Straße"/>
    <tag k="surface" v="paved"/>
  </way>
  <way id="26192975" version="7" timestamp="2009-06-05T13:42:10Z" uid="43863" user="Rundling" changeset="1429453">
    <nd ref="89335937"/>
    <nd ref="286813504"/>
    <nd ref="286814220"/>
    <nd ref="314750753"/>
    <nd ref="334370882"/>
    <nd ref="286813533"/>
    <nd ref="286813536"/>
    <tag k="highway" v="tertiary"/>
    <tag k="name" v="Blumenstraße"/>
    <tag k="ref" v="K 8"/>
  </way>
  <way id="26192975" version="8" timestamp="2010-01-03T22:28:24Z" uid="58913" user="LHH_Johnny" changeset="3533402"/>
  <way id="26192976" version="5" timestamp="2009-06-05T13:42:08Z" uid="43863" user="Rundling" changeset="1429453">
    <nd ref="306225785"/>
    <nd ref="286813543"/>
    <nd ref="286813545"/>
    <tag k="highway" v="residential"/>
    <tag k="surface" v="paved"/>
  </way>
  <way id="26192978" version="2" timestamp="2009-06-05T13:51:42Z" uid="43863" user="Rundling" changeset="1429527">
    <nd ref="286813559"/>
    <nd ref="286813562"/>
    <nd ref="286813564"/>
    <tag k="highway" v="residential"/>
    <tag k="name" v="Alte Celler Heerstraße"/>
    <tag k="surface" v="paved"/>
  </way>
  <way id="26192978" version="3" timestamp="2010-01-18T22:19:07Z" uid="58913" user="LHH_Johnny" changeset="3654782">
    <nd ref="286813559"/>
    <nd ref="286813562"/>
    <nd ref="286813564"/>
    <tag k="highway" v="residential"/>
    <tag k="maxspeed" v="30"/>
    <tag k="name" v="Alte Celler Heerstraße"/>
    <tag k="surface" v="paved"/>
  </way>
  <way id="26192979" version="2" timestamp="2009-06-05T13:51:42Z" uid="43863" user="Rundling" changeset="1429527">
    <nd ref="286813562"/>
    <nd ref="286813567"/>
    <nd ref="286813569"/>
    <nd ref="286813572"/>
    <tag k="highway" v="residential"/>
    <tag k="name" v="Alte Celler Heerstraße"/>
    <tag k="surface" v="paved"/>
  </way>
  <way id="26192979" version="3" timestamp="2009-12-24T13:50:08Z" uid="58913" user="LHH_Johnny" changeset="3442370">
    <nd ref="286813562"/>
    <nd ref="286813567"/>
    <nd ref="286813569"/>
    <nd ref="598959443"/>
    <nd ref="286813572"/>
    <tag k="highway" v="residential"/>
    <tag k="name" v="Alte Celler Heerstraße"/>
    <tag k="surface" v="paved"/>
  </way>
  <way id="26192979" version="4" timestamp="2010-01-18T22:19:07Z" uid="58913" user="LHH_Johnny" changeset="3654782">
    <nd ref="286813562"/>
    <nd ref="286813567"/>
    <nd ref="286813569"/>
    <nd ref="598959443"/>
    <nd ref="286813572"/>
    <tag k="highway" v="residential"/>
    <tag k="maxspeed" v="30"/>
    <tag k="name" v="Alte Celler Heerstraße"/>
    <tag k="surface" v="paved"/>
  </way>
  <way id="26192979" version="5" timestamp="2010-01-19T13:16:04Z" uid="58913" user="LHH_Johnny" changeset="3658680">
    <nd ref="286813562"/>
    <nd ref="286813569"/>
    <nd ref="598959443"/>
    <nd ref="286813572"/>
    <tag k="highway" v="residential"/>
    <tag k="maxspeed" v="30"/>
    <tag k="name" v="Alte Celler Heerstraße"/>
    <tag k="surface" v="paved"/>
  </way>
  <way id="26192980" version="3" timestamp="2009-06-05T13:38:50Z" uid="43863" user="Rundling" changeset="1429438">
    <nd ref="286813574"/>
    <nd ref="286814166"/>
    <nd ref="286814170"/>
    <nd ref="286814132"/>
    <nd ref="286814144"/>
    <nd ref="286814146"/>
    <nd ref="286814148"/>
    <nd ref="286814152"/>
    <nd ref="286814156"/>
    <nd ref="286814196"/>
    <nd ref="286814187"/>
    <nd ref="286814164"/>
    <tag k="highway" v="residential"/>
    <tag k="name" v="Tannenweg"/>
    <tag k="surface" v="paved"/>
  </way>
  <way id="26192980" version="4" timestamp="2010-01-18T22:19:02Z" uid="58913" user="LHH_Johnny" changeset="3654782">
    <nd ref="286813574"/>
    <nd ref="286814166"/>
    <nd ref="286814170"/>
    <nd ref="286814132"/>
    <nd ref="286814144"/>
    <nd ref="286814146"/>
    <nd ref="286814148"/>
    <nd ref="286814152"/>
    <nd ref="286814156"/>
    <nd ref="286814196"/>
    <nd ref="286814187"/>
    <nd ref="286814164"/>
    <tag k="highway" v="residential"/>
    <tag k="maxspeed" v="30"/>
    <tag k="name" v="Tannenweg"/>
    <tag k="surface" v="paved"/>
  </way>
  <way id="26192982" version="3" timestamp="2009-06-05T13:38:50Z" uid="43863" user="Rundling" changeset="1429438">
    <nd ref="286814170"/>
    <nd ref="286814176"/>
    <nd ref="286814179"/>
    <nd ref="286814187"/>
    <tag k="highway" v="residential"/>
    <tag k="name" v="Rosenstraße"/>
    <tag k="surface" v="paved"/>
  </way>
  <way id="26192982" version="4" timestamp="2010-01-04T21:49:00Z" uid="58913" user="LHH_Johnny" changeset="3541313">
    <nd ref="286814170"/>
    <nd ref="286814176"/>
    <nd ref="286814187"/>
    <tag k="highway" v="residential"/>
    <tag k="name" v="Rosenstraße"/>
    <tag k="surface" v="paved"/>
  </way>
  <way id="26192982" version="5" timestamp="2010-01-18T22:19:06Z" uid="58913" user="LHH_Johnny" changeset="3654782">
    <nd ref="286814170"/>
    <nd ref="286814176"/>
    <nd ref="286814187"/>
    <tag k="highway" v="residential"/>
    <tag k="maxspeed" v="30"/>
    <tag k="name" v="Rosenstraße"/>
    <tag k="surface" v="paved"/>
  </way>
  <way id="26192984" version="2" timestamp="2009-06-05T13:38:50Z" uid="43863" user="Rundling" changeset="1429438">
    <nd ref="286814176"/>
    <nd ref="286814189"/>
    <nd ref="286814191"/>
    <tag k="highway" v="residential"/>
    <tag k="name" v="Rosenstraße"/>
    <tag k="surface" v="paved"/>
  </way>
  <way id="26192984" version="3" timestamp="2010-01-18T22:19:06Z" uid="58913" user="LHH_Johnny" changeset="3654782">
    <nd ref="286814176"/>
    <nd ref="286814189"/>
    <nd ref="286814191"/>
    <tag k="highway" v="residential"/>
    <tag k="maxspeed" v="30"/>
    <tag k="name" v="Rosenstraße"/>
    <tag k="surface" v="paved"/>
  </way>
  <way id="26192986" version="2" timestamp="2009-06-05T13:38:50Z" uid="43863" user="Rundling" changeset="1429438">
    <nd ref="286814196"/>
    <nd ref="286814197"/>
    <nd ref="286814198"/>
    <tag k="highway" v="residential"/>
    <tag k="name" v="Taubenweg"/>
    <tag k="surface" v="cobblestone"/>
  </way>
  <way id="26192986" version="3" timestamp="2010-01-18T22:19:06Z" uid="58913" user="LHH_Johnny" changeset="3654782">
    <nd ref="286814196"/>
    <nd ref="286814197"/>
    <nd ref="286814198"/>
    <tag k="highway" v="residential"/>
    <tag k="maxspeed" v="30"/>
    <tag k="name" v="Taubenweg"/>
    <tag k="surface" v="cobblestone"/>
  </way>
  <way id="26192988" version="2" timestamp="2009-06-05T13:38:50Z" uid="43863" user="Rundling" changeset="1429438">
    <nd ref="286814204"/>
    <nd ref="286814206"/>
    <tag k="highway" v="residential"/>
    <tag k="name" v="Ostmarkstraße"/>
  </way>
  <way id="26192988" version="3" timestamp="2010-01-18T22:19:04Z" uid="58913" user="LHH_Johnny" changeset="3654782">
    <nd ref="286814204"/>
    <nd ref="286814206"/>
    <tag k="highway" v="residential"/>
    <tag k="maxspeed" v="30"/>
    <tag k="name" v="Ostmarkstraße"/>
  </way>
  <way id="26192991" version="2" timestamp="2009-06-05T13:38:51Z" uid="43863" user="Rundling" changeset="1429438">
    <nd ref="279136746"/>
    <nd ref="286814219"/>
    <tag k="highway" v="residential"/>
    <tag k="name" v="Sportweg"/>
    <tag k="surface" v="paved"/>
  </way>
  <way id="26192991" version="3" timestamp="2010-01-18T22:19:06Z" uid="58913" user="LHH_Johnny" changeset="3654782">
    <nd ref="279136746"/>
    <nd ref="286814219"/>
    <tag k="highway" v="residential"/>
    <tag k="maxspeed" v="30"/>
    <tag k="name" v="Sportweg"/>
    <tag k="surface" v="paved"/>
  </way>
  <way id="26192992" version="4" timestamp="2009-06-05T13:42:10Z" uid="43863" user="Rundling" changeset="1429453">
    <nd ref="286814220"/>
    <nd ref="286814226"/>
    <nd ref="286814222"/>
    <nd ref="306226496"/>
    <tag k="highway" v="residential"/>
    <tag k="name" v="Weinbergstraße"/>
  </way>
  <way id="26192992" version="5" timestamp="2010-01-18T22:19:05Z" uid="58913" user="LHH_Johnny" changeset="3654782">
    <nd ref="286814220"/>
    <nd ref="286814226"/>
    <nd ref="286814222"/>
    <nd ref="306226496"/>
    <tag k="highway" v="residential"/>
    <tag k="maxspeed" v="30"/>
    <tag k="name" v="Weinbergstraße"/>
  </way>
  <way id="26192996" version="3" timestamp="2009-06-05T13:42:10Z" uid="43863" user="Rundling" changeset="1429453">
    <nd ref="286814244"/>
    <nd ref="286814246"/>
    <nd ref="286814242"/>
    <tag k="highway" v="residential"/>
    <tag k="name" v="Königsberger Straße"/>
  </way>
  <way id="26192996" version="4" timestamp="2010-01-18T22:19:05Z" uid="58913" user="LHH_Johnny" changeset="3654782">
    <nd ref="286814244"/>
    <nd ref="286814246"/>
    <nd ref="286814242"/>
    <tag k="highway" v="residential"/>
    <tag k="maxspeed" v="30"/>
    <tag k="name" v="Königsberger Straße"/>
  </way>
  <way id="26192998" version="6" timestamp="2009-06-05T13:42:10Z" uid="43863" user="Rundling" changeset="1429453">
    <nd ref="286814246"/>
    <nd ref="286814222"/>
    <nd ref="328610131"/>
    <nd ref="286814252"/>
    <nd ref="286814254"/>
    <nd ref="333752400"/>
    <nd ref="286814228"/>
    <tag k="highway" v="residential"/>
    <tag k="name" v="Posener Straße"/>
  </way>
  <way id="26192998" version="7" timestamp="2010-01-18T22:19:05Z" uid="58913" user="LHH_Johnny" changeset="3654782">
    <nd ref="286814246"/>
    <nd ref="286814222"/>
    <nd ref="328610131"/>
    <nd ref="286814252"/>
    <nd ref="286814254"/>
    <nd ref="333752400"/>
    <nd ref="286814228"/>
    <tag k="highway" v="residential"/>
    <tag k="maxspeed" v="30"/>
    <tag k="name" v="Posener Straße"/>
  </way>
  <way id="26192998" version="8" timestamp="2011-02-15T18:40:01Z" uid="58913" user="LHH_Johnny" changeset="7297591">
    <nd ref="286814246"/>
    <nd ref="286814222"/>
    <nd ref="328610131"/>
    <nd ref="286814252"/>
    <nd ref="286814254"/>
    <nd ref="1154855827"/>
    <nd ref="333752400"/>
    <nd ref="286814228"/>
    <tag k="highway" v="residential"/>
    <tag k="maxspeed" v="30"/>
    <tag k="name" v="Posener Straße"/>
  </way>
  <way id="26192346" version="5" timestamp="2012-07-17T09:40:41Z" uid="722137" user="OSMF Redaction Account" changeset="12261995">
    <nd ref="286808398"/>
    <nd ref="286808402"/>
    <nd ref="286808404"/>
    <nd ref="286808407"/>
    <nd ref="286808414"/>
    <nd ref="286808417"/>
    <nd ref="286808422"/>
    <tag k="highway" v="residential"/>
    <tag k="name" v="Ringstraße"/>
  </way>
  <way id="26192942" version="8" timestamp="2012-07-18T22:17:53Z" uid="722137" user="OSMF Redaction Account" changeset="12300312">
    <nd ref="322658853"/>
    <nd ref="322658856"/>
    <nd ref="1364459258"/>
    <nd ref="1364459170"/>
    <nd ref="1364459171"/>
    <nd ref="1364459403"/>
    <nd ref="1187517282"/>
    <nd ref="1187517405"/>
    <nd ref="1187517595"/>
    <nd ref="32258865"/>
    <tag k="highway" v="track"/>
    <tag k="name" v="Eidelstedter Weg"/>
    <tag k="tracktype" v="grade2"/>
  </way>
  <way id="26192964" version="5" timestamp="2012-07-18T18:17:43Z" uid="722137" user="OSMF Redaction Account" changeset="12291953"/>
  <way id="26192965" version="7" timestamp="2012-07-18T18:17:43Z" uid="722137" user="OSMF Redaction Account" changeset="12291953"/>
  <way id="26192976" version="6" timestamp="2012-07-18T18:17:43Z" uid="722137" user="OSMF Redaction Account" changeset="12291953"/>
  <way id="26192978" version="4" timestamp="2012-07-18T18:17:45Z" uid="722137" user="OSMF Redaction Account" changeset="12291953"/>
  <way id="26192979" version="6" timestamp="2012-07-18T18:17:45Z" uid="722137" user="OSMF Redaction Account" changeset="12291953"/>
  <way id="26192980" version="5" timestamp="2012-07-18T18:17:45Z" uid="722137" user="OSMF Redaction Account" changeset="12291953"/>
  <way id="26192982" version="6" timestamp="2012-07-18T18:17:44Z" uid="722137" user="OSMF Redaction Account" changeset="12291953"/>
  <way id="26192984" version="4" timestamp="2012-07-18T18:17:44Z" uid="722137" user="OSMF Redaction Account" changeset="12291953"/>
  <way id="26192986" version="4" timestamp="2012-07-18T18:17:44Z" uid="722137" user="OSMF Redaction Account" changeset="12291953"/>
  <way id="26192988" version="4" timestamp="2012-07-18T18:17:44Z" uid="722137" user="OSMF Redaction Account" changeset="12291953"/>
  <way id="26192991" version="4" timestamp="2012-07-18T18:17:43Z" uid="722137" user="OSMF Redaction Account" changeset="12291953"/>
  <way id="26192992" version="6" timestamp="2012-07-18T18:17:43Z" uid="722137" user="OSMF Redaction Account" changeset="12291953"/>
  <way id="26192996" version="5" timestamp="2012-07-18T18:17:43Z" uid="722137" user="OSMF Redaction Account" changeset="12291953"/>
  <way id="26192998" version="9" timestamp="2012-07-18T18:16:34Z" uid="722137" user="OSMF Redaction Account" changeset="12291848">
    <nd ref="328610131"/>
    <nd ref="1154855827"/>
    <nd ref="333752400"/>
    <tag k="maxspeed" v="30"/>
  </way>
  <way id="26192998" version="10" timestamp="2012-07-20T07:21:54Z" uid="362391" user="DrSeuthberg" changeset="12363820">
    <nd ref="328610131"/>
    <nd ref="1831767124"/>
    <nd ref="1154855827"/>
    <nd ref="333752400"/>
    <tag k="highway" v="residential"/>
    <tag k="maxspeed" v="30"/>
    <tag k="name" v="Posener Straße"/>
  </way>
</osm>
