<?xml version='1.0' encoding='UTF-8'?>
<osm version="0.6" generator="libosmium/2.20.0">
  <way id="26266117" version="5" timestamp="2008-09-15T00:12:48Z" uid="6975" user="ulfl" changeset="640534">
    <nd ref="287694996"/>
    <nd ref="287697219"/>
    <tag k="highway" v="residential"/>
    <tag k="name" v="Am Knappenberg"/>
  </way>
  <way id="26266117" version="6" timestamp="2008-10-16T15:58:25Z" uid="51916" user="Max B" changeset="381129"/>
  <way id="26266319" version="2" timestamp="2009-04-13T13:04:59Z" uid="116459" user="Gemi" changeset="474164">
    <nd ref="279616055"/>
    <nd ref="279616050"/>
    <tag k="highway" v="residential"/>
    <tag k="name" v="Karolingerstraße"/>
  </way>
  <way id="26266319" version="3" timestamp="2009-04-13T20:39:18Z" uid="116459" user="Gemi" changeset="499137">
    <nd ref="279616055"/>
    <nd ref="279616050"/>
    <tag k="highway" v="residential"/>
    <tag k="name" v="Karolingerstraße"/>
    <tag k="oneway" v="yes"/>
    <tag k="surface" v="paved"/>
  </way>
  <way id="26266319" version="4" timestamp="2009-11-25T11:59:05Z" uid="38989" user="ersthelfer" changeset="3211546">
    <nd ref="279616055"/>
    <nd ref="279616050"/>
    <tag k="highway" v="residential"/>
    <tag k="name" v="Karolingerstraße"/>
    <tag k="oneway" v="yes"/>
    <tag k="surface" v="paved"/>
  </way>
  <way id="26266319" version="5" timestamp="2011-08-30T22:01:46Z" uid="514671" user="gm700" changeset="9172020">
    <nd ref="279616055"/>
    <nd ref="279616050"/>
    <tag k="highway" v="residential"/>
    <tag k="name" v="Karolingerstraße"/>
    <tag k="oneway" v="yes"/>
    <tag k="surface" v="asphalt"/>
  </way>
  <way id="26266319" version="6" timestamp="2012-01-03T18:58:13Z" uid="155936" user="palimpadum" changeset="10284473">
    <nd ref="279616055"/>
    <nd ref="279616050"/>
    <tag k="highway" v="residential"/>
    <tag k="name" v="Karolingerstraße"/>
    <tag k="odbl" v="clean"/>
    <tag k="oneway" v="yes"/>
    <tag k="surface" v="asphalt"/>
  </way>
  <way id="26266319" version="7" timestamp="2012-01-05T14:57:43Z" uid="63969" user="olvagor" changeset="10301793"/>
  <way id="26266491" version="2" timestamp="2009-03-13T16:44:22Z" uid="43863" user="Rundling" changeset="801748"/>
  <way id="26266608" version="3" timestamp="2010-03-12T07:40:30Z" uid="30632" user="antblant" changeset="4104030">
    <nd ref="287700797"/>
    <nd ref="287721887"/>
    <nd ref="285525327"/>
    <tag k="highway" v="residential"/>
    <tag k="name" v="Oświatowa"/>
    <tag k="source" v="UMP"/>
  </way>
  <way id="26266759" version="8" timestamp="2009-10-23T12:15:55Z" uid="36809" user="pfoten_weg_!_" changeset="2929257">
    <nd ref="321414871"/>
    <nd ref="287702629"/>
    <nd ref="287702630"/>
    <nd ref="287702631"/>
    <nd ref="27514884"/>
    <nd ref="27514885"/>
    <nd ref="27514887"/>
    <nd ref="27514888"/>
    <nd ref="27514890"/>
    <nd ref="27514892"/>
    <nd ref="27514893"/>
    <nd ref="27514894"/>
    <nd ref="27514895"/>
    <nd ref="27514896"/>
    <nd ref="262248529"/>
    <tag k="highway" v="residential"/>
    <tag k="name" v="Hirschbergstraße"/>
    <tag k="postal_code" v="82054"/>
  </way>
  <way id="26266759" version="9" timestamp="2011-02-16T12:41:04Z" uid="42393" user="mawi42" changeset="7303462">
    <nd ref="321414871"/>
    <nd ref="287702629"/>
    <nd ref="287702630"/>
    <nd ref="1156276388"/>
    <nd ref="1156276395"/>
    <nd ref="287702631"/>
    <nd ref="27514884"/>
    <nd ref="27514885"/>
    <nd ref="27514887"/>
    <nd ref="27514888"/>
    <nd ref="27514890"/>
    <nd ref="27514892"/>
    <nd ref="27514893"/>
    <nd ref="27514894"/>
    <nd ref="27514895"/>
    <nd ref="27514896"/>
    <nd ref="262248529"/>
    <tag k="highway" v="residential"/>
    <tag k="name" v="Hirschbergstraße"/>
    <tag k="postal_code" v="82054"/>
  </way>
  <way id="26266760" version="4" timestamp="2009-10-23T12:15:57Z" uid="36809" user="pfoten_weg_!_" changeset="2929257">
    <nd ref="262248529"/>
    <nd ref="27514898"/>
    <nd ref="27514899"/>
    <nd ref="27514900"/>
    <nd ref="27514901"/>
    <nd ref="27514902"/>
    <nd ref="27514903"/>
    <nd ref="27514904"/>
    <nd ref="27514905"/>
    <nd ref="27514906"/>
    <nd ref="27514907"/>
    <nd ref="287702632"/>
    <nd ref="27514908"/>
    <tag k="highway" v="residential"/>
    <tag k="name" v="Schützenstraße"/>
    <tag k="postal_code" v="82054"/>
  </way>
  <way id="26266760" version="5" timestamp="2011-02-16T12:28:12Z" uid="42393" user="mawi42" changeset="7303362">
    <nd ref="262248529"/>
    <nd ref="27514898"/>
    <nd ref="27514899"/>
    <nd ref="27514900"/>
    <nd ref="27514901"/>
    <nd ref="27514902"/>
    <nd ref="27514903"/>
    <nd ref="27514904"/>
    <nd ref="27514905"/>
    <nd ref="27514906"/>
    <nd ref="27514907"/>
    <nd ref="287702632"/>
    <nd ref="1156271201"/>
    <nd ref="27514908"/>
    <tag k="highway" v="residential"/>
    <tag k="name" v="Schützenstraße"/>
    <tag k="postal_code" v="82054"/>
  </way>
  <way id="26266761" version="6" timestamp="2009-10-23T12:15:57Z" uid="36809" user="pfoten_weg_!_" changeset="2929257">
    <nd ref="287702632"/>
    <nd ref="333673030"/>
    <nd ref="333673031"/>
    <nd ref="411855586"/>
    <nd ref="287702633"/>
    <nd ref="287702634"/>
    <nd ref="287702635"/>
    <nd ref="287702636"/>
    <nd ref="287702637"/>
    <nd ref="287702638"/>
    <nd ref="287702639"/>
    <nd ref="287702640"/>
    <nd ref="333673033"/>
    <nd ref="287702641"/>
    <tag k="highway" v="living_street"/>
    <tag k="name" v="Wendelsteinstraße"/>
    <tag k="postal_code" v="82054"/>
  </way>
  <way id="26266761" version="7" timestamp="2011-02-16T12:28:12Z" uid="42393" user="mawi42" changeset="7303362">
    <nd ref="287702632"/>
    <nd ref="333673030"/>
    <nd ref="411855586"/>
    <nd ref="287702633"/>
    <nd ref="287702634"/>
    <nd ref="287702635"/>
    <nd ref="287702636"/>
    <nd ref="287702637"/>
    <nd ref="287702638"/>
    <nd ref="287702639"/>
    <nd ref="287702640"/>
    <nd ref="333673033"/>
    <nd ref="287702641"/>
    <tag k="highway" v="living_street"/>
    <tag k="name" v="Wendelsteinstraße"/>
    <tag k="postal_code" v="82054"/>
  </way>
  <way id="26266762" version="4" timestamp="2009-10-23T12:16:51Z" uid="36809" user="pfoten_weg_!_" changeset="2929257">
    <nd ref="287702635"/>
    <nd ref="287702642"/>
    <nd ref="287702643"/>
    <tag k="highway" v="living_street"/>
    <tag k="name" v="Wendelsteinstraße"/>
    <tag k="postal_code" v="82054"/>
  </way>
  <way id="26266763" version="4" timestamp="2009-10-23T12:15:56Z" uid="36809" user="pfoten_weg_!_" changeset="2929257">
    <nd ref="262125242"/>
    <nd ref="262125245"/>
    <nd ref="287702644"/>
    <nd ref="287702645"/>
    <nd ref="27514903"/>
    <tag k="highway" v="residential"/>
    <tag k="name" v="Blombergstraße"/>
    <tag k="postal_code" v="82054"/>
  </way>
  <way id="26266763" version="5" timestamp="2010-12-18T15:30:29Z" uid="42393" user="mawi42" changeset="6696762">
    <nd ref="262125242"/>
    <nd ref="262125245"/>
    <nd ref="1045250983"/>
    <nd ref="287702644"/>
    <nd ref="287702645"/>
    <nd ref="27514903"/>
    <tag k="highway" v="residential"/>
    <tag k="name" v="Blombergstraße"/>
    <tag k="postal_code" v="82054"/>
  </way>
  <way id="26266763" version="6" timestamp="2011-03-07T14:04:21Z" uid="42393" user="mawi42" changeset="7484427">
    <nd ref="262125242"/>
    <nd ref="262125245"/>
    <nd ref="1045250983"/>
    <nd ref="1191094383"/>
    <nd ref="287702644"/>
    <nd ref="287702645"/>
    <nd ref="1191094380"/>
    <nd ref="1191094386"/>
    <nd ref="27514903"/>
    <tag k="highway" v="residential"/>
    <tag k="name" v="Blombergstraße"/>
    <tag k="postal_code" v="82054"/>
  </way>
  <way id="26266764" version="3" timestamp="2009-10-23T12:16:10Z" uid="36809" user="pfoten_weg_!_" changeset="2929257">
    <nd ref="287702644"/>
    <nd ref="287702646"/>
    <tag k="highway" v="residential"/>
    <tag k="name" v="Andreasstraße"/>
    <tag k="postal_code" v="82054"/>
  </way>
  <way id="26266764" version="4" timestamp="2010-03-08T22:02:21Z" uid="224282" user="Rene1970" changeset="4076604">
    <nd ref="287702644"/>
    <nd ref="287702646"/>
    <tag k="highway" v="residential"/>
    <tag k="name" v="Blombergstraße"/>
    <tag k="postal_code" v="82054"/>
  </way>
  <way id="26266764" version="5" timestamp="2010-03-08T22:03:57Z" uid="224282" user="Rene1970" changeset="4076604">
    <nd ref="287702644"/>
    <nd ref="287702646"/>
    <tag k="highway" v="residential"/>
    <tag k="name" v="Andreasstraße"/>
    <tag k="postal_code" v="82054"/>
  </way>
  <way id="26266764" version="6" timestamp="2010-03-08T22:44:51Z" uid="224282" user="Rene1970" changeset="4076968">
    <nd ref="287702644"/>
    <nd ref="287702646"/>
    <tag k="name" v="Blombergstraße"/>
    <tag k="postal_code" v="82054"/>
  </way>
  <way id="26266764" version="7" timestamp="2010-05-22T11:04:03Z" uid="8748" user="ToniE" changeset="4773306">
    <nd ref="287702644"/>
    <nd ref="287702646"/>
    <tag k="highway" v="service"/>
    <tag k="name" v="Blombergstraße"/>
    <tag k="postal_code" v="82054"/>
  </way>
  <way id="26266764" version="8" timestamp="2010-05-29T09:01:28Z" uid="290723" user="sulagaloh" changeset="4840533">
    <nd ref="287702644"/>
    <nd ref="287702646"/>
    <tag k="highway" v="residential"/>
    <tag k="name" v="Blombergstraße"/>
    <tag k="postal_code" v="82054"/>
  </way>
  <way id="26266764" version="9" timestamp="2012-03-25T08:30:45Z" uid="290723" user="sulagaloh" changeset="11092345"/>
  <way id="26266766" version="3" timestamp="2009-10-23T12:15:56Z" uid="36809" user="pfoten_weg_!_" changeset="2929257">
    <nd ref="673842"/>
    <nd ref="287702648"/>
    <nd ref="287702649"/>
    <nd ref="287702650"/>
    <nd ref="287702651"/>
    <nd ref="287702652"/>
    <nd ref="287702654"/>
    <nd ref="287702655"/>
    <nd ref="287702656"/>
    <nd ref="287702657"/>
    <tag k="highway" v="residential"/>
    <tag k="name" v="Wallbergstraße"/>
    <tag k="postal_code" v="82054"/>
  </way>
  <way id="26266766" version="4" timestamp="2010-01-31T19:51:17Z" uid="8748" user="ToniE" changeset="3762656">
    <nd ref="673842"/>
    <nd ref="287702648"/>
    <nd ref="287702649"/>
    <nd ref="287702650"/>
    <nd ref="287702651"/>
    <nd ref="287702652"/>
    <nd ref="287702654"/>
    <nd ref="287702655"/>
    <nd ref="287702656"/>
    <nd ref="619787979"/>
    <tag k="highway" v="residential"/>
    <tag k="name" v="Wallbergstraße"/>
    <tag k="postal_code" v="82054"/>
  </way>
  <way id="26266768" version="4" timestamp="2009-10-23T12:16:08Z" uid="36809" user="pfoten_weg_!_" changeset="2929257">
    <nd ref="287702663"/>
    <nd ref="287702665"/>
    <tag k="highway" v="residential"/>
    <tag k="name" v="Jasperweg"/>
    <tag k="postal_code" v="82054"/>
  </way>
  <way id="26266768" version="5" timestamp="2010-07-17T22:04:56Z" uid="42393" user="mawi42" changeset="5246587">
    <nd ref="287702663"/>
    <nd ref="287702665"/>
    <tag k="highway" v="residential"/>
    <tag k="name" v="Jasbergweg"/>
    <tag k="postal_code" v="82054"/>
  </way>
  <way id="26266769" version="4" timestamp="2009-10-23T12:16:11Z" uid="36809" user="pfoten_weg_!_" changeset="2929257">
    <nd ref="287702667"/>
    <nd ref="287702668"/>
    <nd ref="287702669"/>
    <nd ref="287702670"/>
    <nd ref="287702671"/>
    <tag k="highway" v="residential"/>
    <tag k="name" v="Martinstraße"/>
    <tag k="postal_code" v="82054"/>
  </way>
  <way id="26266769" version="5" timestamp="2010-04-13T18:40:48Z" uid="42393" user="mawi42" changeset="4416441">
    <nd ref="287702667"/>
    <nd ref="695662542"/>
    <nd ref="287702668"/>
    <nd ref="287702669"/>
    <nd ref="695662543"/>
    <nd ref="287702671"/>
    <tag k="highway" v="residential"/>
    <tag k="name" v="Martinstraße"/>
    <tag k="postal_code" v="82054"/>
  </way>
  <way id="26266770" version="3" timestamp="2009-10-23T12:16:11Z" uid="36809" user="pfoten_weg_!_" changeset="2929257">
    <nd ref="287702672"/>
    <nd ref="287702666"/>
    <nd ref="287702667"/>
    <nd ref="287702673"/>
    <nd ref="11592015"/>
    <tag k="highway" v="residential"/>
    <tag k="name" v="Martinstraße"/>
    <tag k="postal_code" v="82054"/>
  </way>
  <way id="26266770" version="4" timestamp="2009-11-10T16:49:05Z" uid="42393" user="mawi42" changeset="3083322">
    <nd ref="287702672"/>
    <nd ref="560469382"/>
    <nd ref="287702666"/>
    <tag k="highway" v="residential"/>
    <tag k="name" v="Martinstraße"/>
    <tag k="postal_code" v="82054"/>
  </way>
  <way id="26266770" version="5" timestamp="2009-11-10T16:55:04Z" uid="42393" user="mawi42" changeset="3083322">
    <nd ref="287702672"/>
    <nd ref="560469382"/>
    <nd ref="287702666"/>
    <tag k="highway" v="residential"/>
    <tag k="name" v="Tegernseer Landstraße"/>
    <tag k="postal_code" v="82054"/>
  </way>
  <way id="26266770" version="6" timestamp="2009-11-10T16:59:58Z" uid="42393" user="mawi42" changeset="3083322">
    <nd ref="287702672"/>
    <nd ref="560470724"/>
    <nd ref="560469382"/>
    <nd ref="287702666"/>
    <tag k="highway" v="residential"/>
    <tag k="name" v="Tegernseer Landstraße"/>
    <tag k="postal_code" v="82054"/>
  </way>
  <way id="26266770" version="7" timestamp="2012-02-01T19:39:45Z" uid="290723" user="sulagaloh" changeset="10561774">
    <nd ref="287702672"/>
    <nd ref="560470724"/>
    <nd ref="560469382"/>
    <nd ref="1614633300"/>
    <nd ref="287702666"/>
    <tag k="highway" v="residential"/>
    <tag k="name" v="Tegernseer Landstraße"/>
    <tag k="postal_code" v="82054"/>
  </way>
  <way id="26266771" version="3" timestamp="2009-10-23T12:15:59Z" uid="36809" user="pfoten_weg_!_" changeset="2929257">
    <nd ref="11591988"/>
    <nd ref="287702674"/>
    <nd ref="287702675"/>
    <nd ref="287702676"/>
    <nd ref="287702677"/>
    <tag k="highway" v="residential"/>
    <tag k="name" v="Hoanzweg"/>
    <tag k="postal_code" v="82054"/>
  </way>
  <way id="26266771" version="4" timestamp="2010-05-21T16:46:50Z" uid="290723" user="sulagaloh" changeset="4767614">
    <nd ref="11591988"/>
    <nd ref="742826808"/>
    <nd ref="287702674"/>
    <nd ref="287702675"/>
    <nd ref="287702676"/>
    <nd ref="287702677"/>
    <tag k="highway" v="residential"/>
    <tag k="name" v="Hoanzweg"/>
    <tag k="postal_code" v="82054"/>
  </way>
  <way id="26266771" version="5" timestamp="2010-05-29T10:55:51Z" uid="290723" user="sulagaloh" changeset="4841310">
    <nd ref="11591988"/>
    <nd ref="742826808"/>
    <nd ref="287702674"/>
    <nd ref="287702675"/>
    <nd ref="287702676"/>
    <nd ref="755860297"/>
    <nd ref="287702677"/>
    <tag k="highway" v="residential"/>
    <tag k="name" v="Hoanzweg"/>
    <tag k="postal_code" v="82054"/>
  </way>
  <way id="26266771" version="6" timestamp="2010-06-03T09:36:13Z" uid="290723" user="sulagaloh" changeset="4890755"/>
  <way id="26266772" version="3" timestamp="2009-10-23T12:15:58Z" uid="36809" user="pfoten_weg_!_" changeset="2929257">
    <nd ref="287702682"/>
    <nd ref="287702681"/>
    <nd ref="287702678"/>
    <nd ref="287702679"/>
    <nd ref="287702680"/>
    <tag k="highway" v="residential"/>
    <tag k="name" v="Dischinger Weg"/>
    <tag k="postal_code" v="82054"/>
  </way>
  <way id="26266772" version="4" timestamp="2010-05-21T16:46:48Z" uid="290723" user="sulagaloh" changeset="4767614">
    <nd ref="287702682"/>
    <nd ref="287702681"/>
    <nd ref="742826767"/>
    <nd ref="287702678"/>
    <nd ref="287702679"/>
    <nd ref="287702680"/>
    <tag k="highway" v="residential"/>
    <tag k="name" v="Dischinger Weg"/>
    <tag k="postal_code" v="82054"/>
  </way>
  <way id="26266772" version="5" timestamp="2010-05-26T06:43:32Z" uid="42393" user="mawi42" changeset="4810231">
    <nd ref="287702682"/>
    <nd ref="287702681"/>
    <nd ref="742826767"/>
    <nd ref="287702678"/>
    <nd ref="287702679"/>
    <nd ref="287702680"/>
    <tag k="highway" v="residential"/>
    <tag k="name" v="Dischingerweg"/>
    <tag k="postal_code" v="82054"/>
  </way>
  <way id="26266772" version="6" timestamp="2010-06-03T16:39:41Z" uid="290723" user="sulagaloh" changeset="4893778">
    <nd ref="287702682"/>
    <nd ref="763387335"/>
    <nd ref="287702681"/>
    <nd ref="742826767"/>
    <nd ref="287702678"/>
    <nd ref="287702679"/>
    <nd ref="287702680"/>
    <tag k="highway" v="residential"/>
    <tag k="name" v="Dischingerweg"/>
    <tag k="postal_code" v="82054"/>
  </way>
  <way id="26266772" version="7" timestamp="2011-05-07T12:52:53Z" uid="290723" user="sulagaloh" changeset="8073157">
    <nd ref="287702682"/>
    <nd ref="763387335"/>
    <nd ref="287702681"/>
    <nd ref="742826767"/>
    <nd ref="287702678"/>
    <nd ref="287702679"/>
    <nd ref="287702680"/>
    <nd ref="1275812230"/>
    <tag k="highway" v="residential"/>
    <tag k="name" v="Dischingerweg"/>
    <tag k="postal_code" v="82054"/>
  </way>
  <way id="26266773" version="3" timestamp="2009-10-23T12:16:08Z" uid="36809" user="pfoten_weg_!_" changeset="2929257">
    <nd ref="11592002"/>
    <nd ref="287702684"/>
    <nd ref="287702685"/>
    <tag k="highway" v="residential"/>
    <tag k="name" v="Am Grafinger Steig"/>
    <tag k="postal_code" v="82054"/>
  </way>
  <way id="26266773" version="4" timestamp="2009-11-05T12:26:43Z" uid="128228" user="schoenem" changeset="3040041">
    <nd ref="11592002"/>
    <nd ref="556331184"/>
    <nd ref="287702684"/>
    <nd ref="287702685"/>
    <tag k="highway" v="residential"/>
    <tag k="name" v="Am Grafinger Steig"/>
    <tag k="postal_code" v="82054"/>
  </way>
  <way id="26266775" version="3" timestamp="2009-10-23T12:15:07Z" uid="36809" user="pfoten_weg_!_" changeset="2929257">
    <nd ref="287702686"/>
    <nd ref="287702688"/>
    <nd ref="287702689"/>
    <tag k="highway" v="residential"/>
    <tag k="name" v="Lindenweg"/>
    <tag k="postal_code" v="82054"/>
  </way>
  <way id="26266775" version="4" timestamp="2010-06-03T16:15:33Z" uid="290723" user="sulagaloh" changeset="4893778">
    <nd ref="287702686"/>
    <nd ref="287702688"/>
    <nd ref="763366833"/>
    <nd ref="287702689"/>
    <tag k="highway" v="residential"/>
    <tag k="name" v="Lindenweg"/>
    <tag k="postal_code" v="82054"/>
  </way>
  <way id="26266775" version="5" timestamp="2010-06-13T07:57:30Z" uid="290723" user="sulagaloh" changeset="4976156">
    <nd ref="287702686"/>
    <nd ref="771168380"/>
    <nd ref="287702688"/>
    <nd ref="763366833"/>
    <nd ref="287702689"/>
    <tag k="highway" v="residential"/>
    <tag k="name" v="Lindenweg"/>
    <tag k="postal_code" v="82054"/>
  </way>
  <way id="26266775" version="6" timestamp="2010-06-16T16:27:45Z" uid="290723" user="sulagaloh" changeset="5001977">
    <nd ref="287702686"/>
    <nd ref="771168380"/>
    <nd ref="287702688"/>
    <nd ref="763366833"/>
    <nd ref="287702689"/>
    <tag k="highway" v="residential"/>
    <tag k="maxspeed" v="30"/>
    <tag k="name" v="Lindenweg"/>
    <tag k="postal_code" v="82054"/>
  </way>
  <way id="26266775" version="7" timestamp="2010-10-23T19:15:23Z" uid="290723" user="sulagaloh" changeset="6150642">
    <nd ref="287702686"/>
    <nd ref="771168380"/>
    <nd ref="287702688"/>
    <nd ref="962029111"/>
    <nd ref="763366833"/>
    <nd ref="287702689"/>
    <tag k="highway" v="residential"/>
    <tag k="maxspeed" v="30"/>
    <tag k="name" v="Lindenweg"/>
    <tag k="postal_code" v="82054"/>
  </way>
  <way id="26266775" version="8" timestamp="2010-10-24T15:25:28Z" uid="8748" user="ToniE" changeset="6157959">
    <nd ref="287702686"/>
    <nd ref="771168380"/>
    <nd ref="287702688"/>
    <nd ref="962029111"/>
    <nd ref="963510846"/>
    <nd ref="763366833"/>
    <nd ref="287702689"/>
    <tag k="highway" v="residential"/>
    <tag k="maxspeed" v="30"/>
    <tag k="name" v="Lindenweg"/>
    <tag k="postal_code" v="82054"/>
  </way>
  <way id="26266775" version="9" timestamp="2011-02-21T21:32:35Z" uid="13832" user="Peter14" changeset="7358402">
    <nd ref="287702686"/>
    <nd ref="771168380"/>
    <nd ref="287702688"/>
    <nd ref="962029111"/>
    <nd ref="963510846"/>
    <nd ref="1165784530"/>
    <nd ref="763366833"/>
    <nd ref="287702689"/>
    <tag k="highway" v="residential"/>
    <tag k="maxspeed" v="30"/>
    <tag k="name" v="Lindenweg"/>
    <tag k="postal_code" v="82054"/>
  </way>
  <way id="26266775" version="10" timestamp="2012-03-15T17:14:13Z" uid="8748" user="ToniE" changeset="10990524">
    <nd ref="287702686"/>
    <nd ref="771168380"/>
    <nd ref="287702688"/>
    <nd ref="962029111"/>
    <nd ref="963510846"/>
    <tag k="highway" v="residential"/>
    <tag k="maxspeed" v="30"/>
    <tag k="name" v="Lindenweg"/>
    <tag k="postal_code" v="82054"/>
  </way>
  <way id="26266776" version="7" timestamp="2009-10-23T12:15:12Z" uid="36809" user="pfoten_weg_!_" changeset="2929257">
    <nd ref="287702693"/>
    <nd ref="287702704"/>
    <nd ref="11591968"/>
    <nd ref="443605202"/>
    <nd ref="329665897"/>
    <tag k="highway" v="residential"/>
    <tag k="name" v="Schelcherweg"/>
    <tag k="postal_code" v="82054"/>
  </way>
  <way id="26266776" version="8" timestamp="2010-06-03T16:22:38Z" uid="290723" user="sulagaloh" changeset="4893778">
    <nd ref="287702693"/>
    <nd ref="763372064"/>
    <nd ref="763372065"/>
    <nd ref="763372066"/>
    <nd ref="287702704"/>
    <nd ref="11591968"/>
    <nd ref="443605202"/>
    <nd ref="329665897"/>
    <tag k="highway" v="residential"/>
    <tag k="name" v="Schelcherweg"/>
    <tag k="postal_code" v="82054"/>
  </way>
  <way id="26266776" version="9" timestamp="2010-06-03T16:24:55Z" uid="290723" user="sulagaloh" changeset="4893778">
    <nd ref="287702693"/>
    <nd ref="763372064"/>
    <nd ref="763372065"/>
    <nd ref="763372066"/>
    <nd ref="287702704"/>
    <nd ref="763373109"/>
    <nd ref="11591968"/>
    <nd ref="443605202"/>
    <nd ref="329665897"/>
    <tag k="highway" v="residential"/>
    <tag k="name" v="Schelcherweg"/>
    <tag k="postal_code" v="82054"/>
  </way>
  <way id="26266777" version="9" timestamp="2009-10-23T12:15:18Z" uid="36809" user="pfoten_weg_!_" changeset="2929257">
    <nd ref="287702694"/>
    <nd ref="287702697"/>
    <nd ref="329666303"/>
    <tag k="highway" v="residential"/>
    <tag k="name" v="Schwalbenweg"/>
    <tag k="postal_code" v="82054"/>
  </way>
  <way id="26266778" version="9" timestamp="2009-10-23T12:15:14Z" uid="36809" user="pfoten_weg_!_" changeset="2929257">
    <nd ref="329662137"/>
    <nd ref="287702700"/>
    <nd ref="287702703"/>
    <nd ref="11591973"/>
    <tag k="highway" v="residential"/>
    <tag k="name" v="Amselweg"/>
    <tag k="postal_code" v="82054"/>
  </way>
  <way id="26266780" version="4" timestamp="2009-10-23T12:15:13Z" uid="36809" user="pfoten_weg_!_" changeset="2929257">
    <nd ref="11591975"/>
    <nd ref="11591973"/>
    <nd ref="287702706"/>
    <nd ref="11591968"/>
    <tag k="highway" v="unclassified"/>
    <tag k="name" v="Elsternweg"/>
    <tag k="postal_code" v="82054"/>
  </way>
  <way id="26266780" version="5" timestamp="2010-06-03T16:24:55Z" uid="290723" user="sulagaloh" changeset="4893778">
    <nd ref="11591975"/>
    <nd ref="11591973"/>
    <nd ref="763373106"/>
    <nd ref="763373109"/>
    <tag k="highway" v="unclassified"/>
    <tag k="name" v="Elsternweg"/>
    <tag k="postal_code" v="82054"/>
  </way>
  <way id="26266780" version="6" timestamp="2010-07-26T20:08:04Z" uid="8748" user="ToniE" changeset="5324113">
    <nd ref="11591975"/>
    <nd ref="11591973"/>
    <nd ref="763373106"/>
    <nd ref="763373109"/>
    <tag k="highway" v="residential"/>
    <tag k="name" v="Elsternweg"/>
    <tag k="postal_code" v="82054"/>
  </way>
  <way id="26266781" version="6" timestamp="2009-10-23T12:15:17Z" uid="36809" user="pfoten_weg_!_" changeset="2929257">
    <nd ref="11591972"/>
    <nd ref="329664640"/>
    <nd ref="443606237"/>
    <nd ref="11591983"/>
    <tag k="highway" v="residential"/>
    <tag k="name" v="Am Wasserhäusl"/>
    <tag k="postal_code" v="82054"/>
  </way>
  <way id="26266781" version="7" timestamp="2010-06-03T16:46:54Z" uid="290723" user="sulagaloh" changeset="4894044">
    <nd ref="11591972"/>
    <nd ref="329664640"/>
    <nd ref="443606237"/>
    <nd ref="11591983"/>
    <tag k="highway" v="residential"/>
    <tag k="motor_vehicle" v="destination"/>
    <tag k="name" v="Am Wasserhäusl"/>
    <tag k="postal_code" v="82054"/>
  </way>
  <way id="26266782" version="6" timestamp="2009-10-23T12:16:16Z" uid="36809" user="pfoten_weg_!_" changeset="2929257">
    <nd ref="287702691"/>
    <nd ref="287702707"/>
    <nd ref="444234249"/>
    <nd ref="444234250"/>
    <nd ref="287702708"/>
    <nd ref="444234251"/>
    <nd ref="313815950"/>
    <nd ref="287702710"/>
    <nd ref="287702711"/>
    <nd ref="443607600"/>
    <tag k="highway" v="residential"/>
    <tag k="name" v="Von-Aychsteter-Straße"/>
    <tag k="postal_code" v="82054"/>
  </way>
  <way id="26266782" version="7" timestamp="2010-05-29T10:48:54Z" uid="290723" user="sulagaloh" changeset="4841310">
    <nd ref="287702691"/>
    <nd ref="287702707"/>
    <nd ref="755850057"/>
    <nd ref="444234250"/>
    <nd ref="287702708"/>
    <nd ref="444234251"/>
    <nd ref="313815950"/>
    <nd ref="287702710"/>
    <nd ref="287702711"/>
    <nd ref="443607600"/>
    <tag k="highway" v="residential"/>
    <tag k="name" v="Von-Aychsteter-Straße"/>
    <tag k="postal_code" v="82054"/>
  </way>
  <way id="26266782" version="8" timestamp="2011-01-14T23:38:13Z" uid="8748" user="ToniE" changeset="6972681">
    <nd ref="287702691"/>
    <nd ref="287702707"/>
    <nd ref="755850057"/>
    <nd ref="444234250"/>
    <nd ref="287702708"/>
    <nd ref="444234251"/>
    <nd ref="313815950"/>
    <nd ref="287702710"/>
    <nd ref="287702711"/>
    <nd ref="27545826"/>
    <tag k="highway" v="residential"/>
    <tag k="name" v="Von-Aychsteter-Straße"/>
    <tag k="postal_code" v="82054"/>
  </way>
  <way id="26266783" version="5" timestamp="2009-10-23T12:17:26Z" uid="36809" user="pfoten_weg_!_" changeset="2929257">
    <nd ref="287702713"/>
    <nd ref="297910961"/>
    <tag k="highway" v="residential"/>
    <tag k="name" v="Deisenhofener Straße"/>
    <tag k="postal_code" v="82054"/>
  </way>
  <way id="26266783" version="6" timestamp="2010-05-22T13:04:12Z" uid="42393" user="mawi42" changeset="4774186">
    <nd ref="287702713"/>
    <nd ref="745386800"/>
    <nd ref="297910961"/>
    <tag k="highway" v="residential"/>
    <tag k="name" v="Deisenhofener Straße"/>
    <tag k="postal_code" v="82054"/>
  </way>
  <way id="26266785" version="5" timestamp="2009-10-23T12:16:14Z" uid="36809" user="pfoten_weg_!_" changeset="2929257">
    <nd ref="12214408"/>
    <nd ref="287702764"/>
    <nd ref="414571994"/>
    <nd ref="287702767"/>
    <nd ref="287702769"/>
    <nd ref="444224834"/>
    <nd ref="444224835"/>
    <nd ref="287702770"/>
    <nd ref="287702771"/>
    <tag k="highway" v="residential"/>
    <tag k="name" v="Schmiedstraße"/>
    <tag k="postal_code" v="82054"/>
  </way>
  <way id="26266785" version="6" timestamp="2010-03-16T07:42:01Z" uid="42393" user="mawi42" changeset="4141202">
    <nd ref="12214408"/>
    <nd ref="287702764"/>
    <nd ref="667248385"/>
    <nd ref="414571994"/>
    <nd ref="667248387"/>
    <nd ref="287702767"/>
    <nd ref="287702769"/>
    <nd ref="444224834"/>
    <nd ref="444224835"/>
    <nd ref="287702770"/>
    <nd ref="287702771"/>
    <tag k="highway" v="residential"/>
    <tag k="name" v="Schmiedstraße"/>
    <tag k="postal_code" v="82054"/>
  </way>
  <way id="26266785" version="7" timestamp="2010-05-29T10:48:53Z" uid="290723" user="sulagaloh" changeset="4841310">
    <nd ref="12214408"/>
    <nd ref="287702764"/>
    <nd ref="755850037"/>
    <nd ref="667248385"/>
    <nd ref="414571994"/>
    <nd ref="667248387"/>
    <nd ref="287702767"/>
    <nd ref="287702769"/>
    <nd ref="444224834"/>
    <nd ref="444224835"/>
    <nd ref="287702770"/>
    <nd ref="287702771"/>
    <tag k="highway" v="residential"/>
    <tag k="name" v="Schmiedstraße"/>
    <tag k="postal_code" v="82054"/>
  </way>
  <way id="26266785" version="8" timestamp="2012-03-07T19:07:18Z" uid="8748" user="ToniE" changeset="10902838">
    <nd ref="12214408"/>
    <nd ref="287702764"/>
    <nd ref="755850037"/>
    <nd ref="667248385"/>
    <tag k="highway" v="residential"/>
    <tag k="name" v="Schmiedstraße"/>
    <tag k="postal_code" v="82054"/>
  </way>
  <way id="26266785" version="9" timestamp="2012-03-15T17:14:56Z" uid="8748" user="ToniE" changeset="10990524"/>
  <way id="26266786" version="7" timestamp="2009-10-23T12:16:15Z" uid="36809" user="pfoten_weg_!_" changeset="2929257">
    <nd ref="287702769"/>
    <nd ref="414553876"/>
    <nd ref="414553877"/>
    <nd ref="414571994"/>
    <tag k="highway" v="residential"/>
    <tag k="name" v="Schusterweg"/>
    <tag k="postal_code" v="82054"/>
  </way>
  <way id="26266786" version="8" timestamp="2010-06-16T18:36:15Z" uid="290723" user="sulagaloh" changeset="5002889">
    <nd ref="287702769"/>
    <nd ref="773901535"/>
    <nd ref="773901536"/>
    <nd ref="773901537"/>
    <nd ref="414553876"/>
    <nd ref="414553877"/>
    <nd ref="414571994"/>
    <tag k="highway" v="residential"/>
    <tag k="name" v="Schusterweg"/>
    <tag k="postal_code" v="82054"/>
  </way>
  <way id="26266786" version="9" timestamp="2012-03-07T08:28:36Z" uid="8748" user="ToniE" changeset="10897479"/>
  <way id="26266787" version="6" timestamp="2009-10-23T12:16:14Z" uid="36809" user="pfoten_weg_!_" changeset="2929257">
    <nd ref="287702776"/>
    <nd ref="452381302"/>
    <nd ref="287702777"/>
    <nd ref="287702779"/>
    <tag k="highway" v="residential"/>
    <tag k="name" v="Kirchstraße"/>
    <tag k="noexit" v="yes"/>
    <tag k="postal_code" v="82054"/>
  </way>
  <way id="26266787" version="7" timestamp="2010-05-22T09:23:08Z" uid="290723" user="sulagaloh" changeset="4772653">
    <nd ref="287702776"/>
    <nd ref="287702777"/>
    <nd ref="287702779"/>
    <tag k="highway" v="residential"/>
    <tag k="name" v="Kirchstraße"/>
    <tag k="noexit" v="yes"/>
    <tag k="postal_code" v="82054"/>
  </way>
  <way id="26266787" version="8" timestamp="2012-03-16T11:53:39Z" uid="8748" user="ToniE" changeset="10997479">
    <nd ref="287702776"/>
    <nd ref="287702777"/>
    <nd ref="287702779"/>
    <tag k="highway" v="residential"/>
    <tag k="name" v="Kirchstraße"/>
    <tag k="noexit" v="yes"/>
    <tag k="postal_code" v="82054"/>
    <tag k="smoothness" v="good"/>
    <tag k="surface" v="asphalt"/>
  </way>
  <way id="26266789" version="8" timestamp="2009-10-23T12:15:47Z" uid="36809" user="pfoten_weg_!_" changeset="2929257">
    <nd ref="330008517"/>
    <nd ref="287702792"/>
    <nd ref="287702790"/>
    <nd ref="287702789"/>
    <nd ref="287702783"/>
    <tag k="highway" v="residential"/>
    <tag k="name" v="Buchenstraße"/>
    <tag k="postal_code" v="82054"/>
  </way>
  <way id="26266789" version="9" timestamp="2010-06-16T16:27:46Z" uid="290723" user="sulagaloh" changeset="5001977"/>
  <way id="26266790" version="6" timestamp="2009-10-23T12:17:21Z" uid="36809" user="pfoten_weg_!_" changeset="2929257">
    <nd ref="287702794"/>
    <nd ref="287702796"/>
    <nd ref="287702798"/>
    <tag k="highway" v="residential"/>
    <tag k="name" v="Mozartstraße"/>
    <tag k="postal_code" v="82054"/>
  </way>
  <way id="26266791" version="3" timestamp="2009-10-23T12:17:19Z" uid="36809" user="pfoten_weg_!_" changeset="2929257">
    <nd ref="287702796"/>
    <nd ref="287702800"/>
    <tag k="highway" v="residential"/>
    <tag k="name" v="Haydnstraße"/>
    <tag k="postal_code" v="82054"/>
  </way>
  <way id="26266792" version="6" timestamp="2009-10-23T12:17:21Z" uid="36809" user="pfoten_weg_!_" changeset="2929257">
    <nd ref="287702801"/>
    <nd ref="316220074"/>
    <nd ref="316220075"/>
    <nd ref="287702800"/>
    <nd ref="287702802"/>
    <nd ref="287702798"/>
    <tag k="highway" v="residential"/>
    <tag k="name" v="Schubertstraße"/>
    <tag k="postal_code" v="82054"/>
  </way>
  <way id="26266792" version="7" timestamp="2010-06-14T05:11:16Z" uid="42393" user="mawi42" changeset="4984842">
    <nd ref="287702801"/>
    <nd ref="316220074"/>
    <nd ref="287702800"/>
    <nd ref="287702802"/>
    <nd ref="287702798"/>
    <tag k="highway" v="residential"/>
    <tag k="name" v="Schubertstraße"/>
    <tag k="postal_code" v="82054"/>
  </way>
  <way id="26266793" version="10" timestamp="2009-10-23T12:17:15Z" uid="36809" user="pfoten_weg_!_" changeset="2929257">
    <nd ref="287702811"/>
    <nd ref="287702840"/>
    <nd ref="299359916"/>
    <nd ref="299360252"/>
    <nd ref="452382413"/>
    <nd ref="299360820"/>
    <nd ref="287702812"/>
    <tag k="highway" v="residential"/>
    <tag k="name" v="Am Otterloher Feld"/>
    <tag k="postal_code" v="82054"/>
  </way>
  <way id="26266793" version="11" timestamp="2010-03-16T07:50:28Z" uid="42393" user="mawi42" changeset="4141241">
    <nd ref="287702811"/>
    <nd ref="287702840"/>
    <nd ref="299359916"/>
    <nd ref="299360252"/>
    <nd ref="667249574"/>
    <nd ref="452382413"/>
    <nd ref="299360820"/>
    <nd ref="287702812"/>
    <tag k="highway" v="residential"/>
    <tag k="name" v="Am Otterloher Feld"/>
    <tag k="postal_code" v="82054"/>
  </way>
  <way id="26266793" version="12" timestamp="2010-05-21T16:55:03Z" uid="8748" user="ToniE" changeset="4767673">
    <nd ref="287702811"/>
    <nd ref="742675619"/>
    <nd ref="287702840"/>
    <nd ref="299359916"/>
    <nd ref="299360252"/>
    <nd ref="667249574"/>
    <nd ref="452382413"/>
    <nd ref="299360820"/>
    <nd ref="287702812"/>
    <tag k="highway" v="residential"/>
    <tag k="name" v="Am Otterloher Feld"/>
    <tag k="postal_code" v="82054"/>
  </way>
  <way id="26266793" version="13" timestamp="2010-05-22T18:33:58Z" uid="290723" user="sulagaloh" changeset="4776761">
    <nd ref="287702811"/>
    <nd ref="742675619"/>
    <nd ref="287702840"/>
    <nd ref="745785875"/>
    <nd ref="299359916"/>
    <nd ref="299360252"/>
    <nd ref="667249574"/>
    <nd ref="452382413"/>
    <nd ref="299360820"/>
    <nd ref="287702812"/>
    <tag k="highway" v="residential"/>
    <tag k="name" v="Am Otterloher Feld"/>
    <tag k="postal_code" v="82054"/>
  </way>
  <way id="26266793" version="14" timestamp="2010-06-09T19:51:50Z" uid="8748" user="ToniE" changeset="4948554">
    <nd ref="287702811"/>
    <nd ref="742675619"/>
    <nd ref="287702840"/>
    <tag k="highway" v="residential"/>
    <tag k="name" v="Am Otterloher Feld"/>
    <tag k="postal_code" v="82054"/>
  </way>
  <way id="26266793" version="15" timestamp="2012-03-16T17:40:00Z" uid="8748" user="ToniE" changeset="11000618">
    <nd ref="287702811"/>
    <nd ref="742675619"/>
    <nd ref="287702840"/>
    <tag k="highway" v="residential"/>
    <tag k="name" v="Am Otterloher Feld"/>
    <tag k="postal_code" v="82054"/>
    <tag k="smoothness" v="good"/>
    <tag k="surface" v="asphalt"/>
  </way>
  <way id="26266794" version="3" timestamp="2009-10-23T12:15:54Z" uid="36809" user="pfoten_weg_!_" changeset="2929257">
    <nd ref="287702815"/>
    <nd ref="287702817"/>
    <nd ref="287702819"/>
    <nd ref="287702820"/>
    <nd ref="287702821"/>
    <tag k="highway" v="residential"/>
    <tag k="name" v="Kornblumenweg"/>
    <tag k="postal_code" v="82054"/>
  </way>
  <way id="26266795" version="3" timestamp="2009-10-23T12:15:53Z" uid="36809" user="pfoten_weg_!_" changeset="2929257">
    <nd ref="287702822"/>
    <nd ref="287702820"/>
    <tag k="highway" v="residential"/>
    <tag k="name" v="Kornblumenweg"/>
    <tag k="postal_code" v="82054"/>
  </way>
  <way id="26266796" version="6" timestamp="2009-10-23T12:16:36Z" uid="36809" user="pfoten_weg_!_" changeset="2929257">
    <nd ref="287702824"/>
    <nd ref="287702825"/>
    <nd ref="299282039"/>
    <nd ref="287702826"/>
    <nd ref="330190205"/>
    <nd ref="287702827"/>
    <tag k="highway" v="residential"/>
    <tag k="name" v="Margarethenstraße"/>
    <tag k="postal_code" v="82054"/>
  </way>
  <way id="26266797" version="5" timestamp="2009-10-23T12:15:48Z" uid="36809" user="pfoten_weg_!_" changeset="2929257">
    <nd ref="287702814"/>
    <nd ref="287702829"/>
    <nd ref="287702830"/>
    <nd ref="287702831"/>
    <nd ref="287702833"/>
    <nd ref="299356576"/>
    <nd ref="287702834"/>
    <tag k="highway" v="residential"/>
    <tag k="name" v="Wirthfeldweg"/>
    <tag k="postal_code" v="82054"/>
  </way>
  <way id="26266799" version="3" timestamp="2009-10-23T12:16:36Z" uid="36809" user="pfoten_weg_!_" changeset="2929257">
    <nd ref="287702820"/>
    <nd ref="287702824"/>
    <tag k="highway" v="footway"/>
    <tag k="motorcar" v="no"/>
    <tag k="name" v="Kornblumenweg"/>
  </way>
  <way id="26266800" version="8" timestamp="2009-10-23T12:15:48Z" uid="36809" user="pfoten_weg_!_" changeset="2929257">
    <nd ref="287702812"/>
    <nd ref="299277137"/>
    <nd ref="287702814"/>
    <nd ref="287702815"/>
    <nd ref="287702824"/>
    <nd ref="27545767"/>
    <tag k="highway" v="residential"/>
    <tag k="name" v="Reisserweg"/>
    <tag k="postal_code" v="82054"/>
  </way>
  <way id="26266800" version="9" timestamp="2011-02-23T14:21:14Z" uid="42393" user="mawi42" changeset="7372758">
    <nd ref="287702812"/>
    <nd ref="299277137"/>
    <nd ref="287702814"/>
    <nd ref="287702815"/>
    <nd ref="1168263476"/>
    <nd ref="287702824"/>
    <nd ref="27545767"/>
    <tag k="highway" v="residential"/>
    <tag k="name" v="Reisserweg"/>
    <tag k="postal_code" v="82054"/>
  </way>
  <way id="26266800" version="10" timestamp="2012-01-02T17:03:01Z" uid="224490" user="Geo-Tobi" changeset="10272721">
    <nd ref="287702812"/>
    <nd ref="299277137"/>
    <nd ref="287702814"/>
    <nd ref="287702815"/>
    <nd ref="1168263476"/>
    <nd ref="287702824"/>
    <nd ref="27545767"/>
    <tag k="highway" v="residential"/>
    <tag k="maxspeed" v="30"/>
    <tag k="name" v="Reisserweg"/>
    <tag k="postal_code" v="82054"/>
  </way>
  <way id="26266800" version="11" timestamp="2012-03-15T17:43:31Z" uid="8748" user="ToniE" changeset="10990793">
    <nd ref="287702812"/>
    <nd ref="299277137"/>
    <tag k="highway" v="residential"/>
    <tag k="maxspeed" v="30"/>
    <tag k="name" v="Reisserweg"/>
    <tag k="postal_code" v="82054"/>
  </way>
  <way id="26266800" version="12" timestamp="2012-03-16T17:40:30Z" uid="8748" user="ToniE" changeset="11000618">
    <nd ref="287702812"/>
    <nd ref="299277137"/>
    <tag k="highway" v="residential"/>
    <tag k="maxspeed" v="30"/>
    <tag k="name" v="Reisserweg"/>
    <tag k="postal_code" v="82054"/>
    <tag k="smoothness" v="good"/>
    <tag k="surface" v="asphalt"/>
  </way>
  <way id="26266801" version="3" timestamp="2009-10-23T12:17:27Z" uid="36809" user="pfoten_weg_!_" changeset="2929257">
    <nd ref="12214410"/>
    <nd ref="287702838"/>
    <nd ref="287702839"/>
    <nd ref="287702840"/>
    <tag k="highway" v="service"/>
  </way>
  <way id="26266801" version="4" timestamp="2010-05-21T15:53:14Z" uid="290723" user="sulagaloh" changeset="4767244">
    <nd ref="742675586"/>
    <nd ref="742675586"/>
    <nd ref="742675586"/>
    <nd ref="742675586"/>
    <nd ref="742675586"/>
    <nd ref="12214410"/>
    <nd ref="742675586"/>
    <nd ref="287702838"/>
    <nd ref="287702839"/>
    <nd ref="287702840"/>
    <tag k="highway" v="service"/>
  </way>
  <way id="26266801" version="5" timestamp="2010-05-21T19:01:20Z" uid="70696" user="xybot" changeset="4768326">
    <nd ref="742675586"/>
    <nd ref="12214410"/>
    <nd ref="742675586"/>
    <nd ref="287702838"/>
    <nd ref="287702839"/>
    <nd ref="287702840"/>
    <tag k="highway" v="service"/>
  </way>
  <way id="26266801" version="6" timestamp="2010-05-22T11:04:07Z" uid="8748" user="ToniE" changeset="4773306"/>
  <way id="26266886" version="7" timestamp="2011-03-01T02:50:41Z" uid="23543" user="jkjk" changeset="7426343">
    <nd ref="287703806"/>
    <nd ref="965848420"/>
    <nd ref="287703807"/>
    <nd ref="965848412"/>
    <nd ref="287703808"/>
    <nd ref="965848381"/>
    <nd ref="287703809"/>
    <nd ref="965848404"/>
    <nd ref="965848406"/>
    <nd ref="287703810"/>
    <nd ref="952534607"/>
    <nd ref="952534614"/>
    <nd ref="952534631"/>
    <nd ref="287703811"/>
    <nd ref="948965869"/>
    <nd ref="948965817"/>
    <nd ref="948965794"/>
    <nd ref="948965756"/>
    <nd ref="948965723"/>
    <nd ref="287703812"/>
    <nd ref="287703813"/>
    <tag k="highway" v="secondary"/>
  </way>
  <way id="26266996" version="5" timestamp="2009-12-07T00:15:31Z" uid="200463" user="harmagedon" changeset="3311752">
    <nd ref="287705666"/>
    <nd ref="287705754"/>
    <nd ref="287705670"/>
    <nd ref="287705755"/>
    <nd ref="287705666"/>
    <tag k="addr:housenumber" v="12"/>
    <tag k="addr:street" v="Gewerbestraße Mitte"/>
    <tag k="building" v="office"/>
  </way>
  <way id="26266608" version="4" timestamp="2012-07-24T13:18:12Z" uid="722137" user="OSMF Redaction Account" changeset="12466403"/>
  <way id="26266759" version="10" timestamp="2012-08-19T07:25:18Z" uid="290723" user="sulagaloh" changeset="12780165">
    <nd ref="321414871"/>
    <nd ref="287702629"/>
    <nd ref="1872310964"/>
    <nd ref="287702630"/>
    <nd ref="1156276388"/>
    <nd ref="1156276395"/>
    <nd ref="287702631"/>
    <nd ref="27514884"/>
    <nd ref="27514885"/>
    <nd ref="27514887"/>
    <nd ref="27514888"/>
    <nd ref="27514890"/>
    <nd ref="27514892"/>
    <nd ref="27514893"/>
    <nd ref="27514894"/>
    <nd ref="27514895"/>
    <nd ref="27514896"/>
    <nd ref="262248529"/>
    <tag k="highway" v="residential"/>
    <tag k="name" v="Hirschbergstraße"/>
    <tag k="postal_code" v="82054"/>
  </way>
  <way id="26266760" version="6" timestamp="2012-09-07T20:10:48Z" uid="290723" user="sulagaloh" changeset="13027354">
    <nd ref="262248529"/>
    <nd ref="27514898"/>
    <nd ref="27514899"/>
    <nd ref="27514900"/>
    <nd ref="27514901"/>
    <nd ref="27514902"/>
    <nd ref="27514903"/>
    <nd ref="27514904"/>
    <nd ref="27514905"/>
    <nd ref="27514906"/>
    <nd ref="27514907"/>
    <nd ref="1904756109"/>
    <nd ref="287702632"/>
    <nd ref="1156271201"/>
    <nd ref="27514908"/>
    <tag k="highway" v="residential"/>
    <tag k="name" v="Schützenstraße"/>
    <tag k="postal_code" v="82054"/>
  </way>
  <way id="26266776" version="10" timestamp="2012-09-05T19:28:54Z" uid="290723" user="sulagaloh" changeset="13000696">
    <nd ref="287702693"/>
    <nd ref="763372064"/>
    <nd ref="763372065"/>
    <nd ref="763372066"/>
    <nd ref="287702704"/>
    <nd ref="763373109"/>
    <nd ref="1901042454"/>
    <nd ref="11591968"/>
    <nd ref="443605202"/>
    <nd ref="329665897"/>
    <tag k="highway" v="residential"/>
    <tag k="name" v="Schelcherweg"/>
    <tag k="postal_code" v="82054"/>
  </way>
  <way id="26266778" version="10" timestamp="2012-09-05T19:33:42Z" uid="290723" user="sulagaloh" changeset="13000696">
    <nd ref="329662137"/>
    <nd ref="287702700"/>
    <nd ref="1901056493"/>
    <nd ref="287702703"/>
    <nd ref="11591973"/>
    <tag k="highway" v="residential"/>
    <tag k="name" v="Amselweg"/>
    <tag k="postal_code" v="82054"/>
  </way>
  <way id="26266795" version="4" timestamp="2012-06-12T15:43:04Z" uid="290723" user="sulagaloh" changeset="11875716">
    <nd ref="287702822"/>
    <nd ref="1784791241"/>
    <nd ref="1784791313"/>
    <nd ref="287702820"/>
    <tag k="highway" v="residential"/>
    <tag k="name" v="Kornblumenweg"/>
    <tag k="postal_code" v="82054"/>
  </way>
  <way id="26266796" version="7" timestamp="2012-06-12T15:43:04Z" uid="290723" user="sulagaloh" changeset="11875716">
    <nd ref="287702824"/>
    <nd ref="287702825"/>
    <nd ref="299282039"/>
    <nd ref="1784791322"/>
    <nd ref="1784791252"/>
    <nd ref="287702826"/>
    <nd ref="330190205"/>
    <nd ref="287702827"/>
    <tag k="highway" v="residential"/>
    <tag k="name" v="Margarethenstraße"/>
    <tag k="postal_code" v="82054"/>
  </way>
  <way id="26266797" version="6" timestamp="2012-06-12T15:43:05Z" uid="290723" user="sulagaloh" changeset="11875716">
    <nd ref="287702814"/>
    <nd ref="287702829"/>
    <nd ref="287702830"/>
    <nd ref="287702831"/>
    <nd ref="1784791212"/>
    <nd ref="287702833"/>
    <nd ref="1784791260"/>
    <nd ref="299356576"/>
    <nd ref="287702834"/>
    <tag k="highway" v="residential"/>
    <tag k="name" v="Wirthfeldweg"/>
    <tag k="postal_code" v="82054"/>
  </way>
  <way id="26266799" version="4" timestamp="2012-06-12T15:43:05Z" uid="290723" user="sulagaloh" changeset="11875716">
    <nd ref="287702820"/>
    <nd ref="1784791268"/>
    <nd ref="1784791258"/>
    <tag k="highway" v="footway"/>
    <tag k="motorcar" v="no"/>
    <tag k="name" v="Kornblumenweg"/>
  </way>
</osm>
