<?xml version='1.0' encoding='UTF-8'?>
<osm version="0.6" generator="libosmium/2.20.0">
  <way id="26274148" version="5" timestamp="2010-03-27T23:56:56Z" uid="20587" user="balrog-kun" changeset="4250871">
    <nd ref="65443922"/>
    <nd ref="312411626"/>
    <nd ref="65443921"/>
    <nd ref="65443919"/>
    <nd ref="65443917"/>
    <nd ref="65443913"/>
    <nd ref="65443910"/>
    <nd ref="65443909"/>
    <nd ref="65443908"/>
    <nd ref="65443907"/>
    <nd ref="65443905"/>
    <nd ref="258149585"/>
    <nd ref="258149584"/>
    <nd ref="258149583"/>
    <nd ref="258149581"/>
    <nd ref="65443904"/>
    <nd ref="65443902"/>
    <nd ref="258168965"/>
    <nd ref="65395395"/>
    <nd ref="258164852"/>
    <nd ref="65395398"/>
    <tag k="created_by" v="Potlatch 0.10f"/>
    <tag k="highway" v="tertiary"/>
    <tag k="name" v="San Ignacio Avenue"/>
    <tag k="name_1" v="Cobb Road"/>
    <tag k="tiger:cfcc" v="A41"/>
    <tag k="tiger:county" v="Santa Clara, CA"/>
    <tag k="tiger:name_base" v="San Ignacio"/>
    <tag k="tiger:name_type" v="Ave"/>
    <tag k="tiger:reviewed" v="no"/>
    <tag k="tiger:separated" v="no"/>
    <tag k="tiger:source" v="tiger_import_dch_v0.6_20070809"/>
    <tag k="tiger:tlid" v="122927515; 122927362:123177651:122999873:122927179:122927145:122927181:122999883:122993074:122993078"/>
    <tag k="tiger:zip_left" v="95119"/>
    <tag k="tiger:zip_right" v="95119"/>
  </way>
  <way id="26274148" version="6" timestamp="2011-01-04T22:42:11Z" uid="201724" user="mk408" changeset="6866880">
    <nd ref="65443922"/>
    <nd ref="312411626"/>
    <nd ref="65443921"/>
    <nd ref="65443919"/>
    <nd ref="65443917"/>
    <nd ref="65443913"/>
    <nd ref="65443910"/>
    <nd ref="65443909"/>
    <nd ref="65443908"/>
    <nd ref="65443907"/>
    <nd ref="65443905"/>
    <nd ref="258149585"/>
    <nd ref="258149584"/>
    <nd ref="258149583"/>
    <nd ref="258149581"/>
    <nd ref="65443904"/>
    <nd ref="1082914789"/>
    <nd ref="65443902"/>
    <tag k="highway" v="secondary"/>
    <tag k="name" v="San Ignacio Avenue"/>
    <tag k="name_1" v="Cobb Road"/>
    <tag k="tiger:county" v="Santa Clara, CA"/>
    <tag k="tiger:name_base" v="San Ignacio"/>
    <tag k="tiger:name_type" v="Ave"/>
    <tag k="tiger:zip_left" v="95119"/>
    <tag k="tiger:zip_right" v="95119"/>
  </way>
  <way id="26274148" version="7" timestamp="2011-07-05T19:02:14Z" uid="42429" user="FK270673" changeset="8641886">
    <nd ref="65443922"/>
    <nd ref="312411626"/>
    <nd ref="65443921"/>
    <nd ref="65443919"/>
    <nd ref="65443917"/>
    <nd ref="65443913"/>
    <nd ref="65443910"/>
    <nd ref="65443909"/>
    <nd ref="65443908"/>
    <nd ref="65443907"/>
    <nd ref="65443905"/>
    <nd ref="258149585"/>
    <nd ref="258149584"/>
    <nd ref="258149583"/>
    <nd ref="258149581"/>
    <nd ref="65443904"/>
    <nd ref="1082914789"/>
    <nd ref="65443902"/>
    <tag k="HFCS" v="Urban Collector"/>
    <tag k="highway" v="tertiary"/>
    <tag k="name" v="San Ignacio Avenue"/>
    <tag k="name_1" v="Cobb Road"/>
    <tag k="tiger:county" v="Santa Clara, CA"/>
    <tag k="tiger:name_base" v="San Ignacio"/>
    <tag k="tiger:name_type" v="Ave"/>
    <tag k="tiger:zip_left" v="95119"/>
    <tag k="tiger:zip_right" v="95119"/>
  </way>
  <way id="26274359" version="1" timestamp="2008-08-14T04:40:47Z" uid="7617" user="Franc" changeset="236698">
    <nd ref="287793723"/>
    <nd ref="13104628"/>
    <tag k="created_by" v="JOSM"/>
    <tag k="highway" v="steps"/>
  </way>
  <way id="26274359" version="2" timestamp="2009-11-14T12:12:32Z" uid="117890" user="Jonathan Trott" changeset="3112508">
    <nd ref="287793723"/>
    <nd ref="13104628"/>
    <tag k="highway" v="steps"/>
  </way>
  <way id="26274359" version="3" timestamp="2009-12-03T02:31:38Z" uid="30201" user="rrankin" changeset="3277410">
    <nd ref="287793723"/>
    <nd ref="578903879"/>
    <nd ref="13104628"/>
    <tag k="highway" v="steps"/>
  </way>
  <way id="26274359" version="4" timestamp="2010-06-28T10:15:23Z" uid="7617" user="Franc" changeset="5096291">
    <nd ref="287793723"/>
    <nd ref="578903879"/>
    <nd ref="794098828"/>
    <nd ref="13104628"/>
    <tag k="highway" v="steps"/>
  </way>
  <way id="26274360" version="1" timestamp="2008-08-14T04:40:48Z" uid="7617" user="Franc" changeset="236698">
    <nd ref="257886634"/>
    <nd ref="120597719"/>
    <tag k="created_by" v="JOSM"/>
    <tag k="highway" v="steps"/>
  </way>
  <way id="26274360" version="2" timestamp="2009-11-14T12:12:31Z" uid="117890" user="Jonathan Trott" changeset="3112508">
    <nd ref="257886634"/>
    <nd ref="120597719"/>
    <tag k="highway" v="steps"/>
  </way>
  <way id="26274361" version="1" timestamp="2008-08-14T04:40:49Z" uid="7617" user="Franc" changeset="236698">
    <nd ref="287793729"/>
    <nd ref="287793731"/>
    <nd ref="287793732"/>
    <nd ref="287793737"/>
    <nd ref="287793729"/>
    <tag k="created_by" v="JOSM"/>
    <tag k="leisure" v="park"/>
    <tag k="source" v="survey"/>
  </way>
  <way id="26274361" version="2" timestamp="2009-11-14T12:12:31Z" uid="117890" user="Jonathan Trott" changeset="3112508">
    <nd ref="287793729"/>
    <nd ref="287793731"/>
    <nd ref="287793732"/>
    <nd ref="287793737"/>
    <nd ref="287793729"/>
    <tag k="leisure" v="park"/>
    <tag k="source" v="survey"/>
  </way>
  <way id="26274362" version="1" timestamp="2008-08-14T04:40:50Z" uid="7617" user="Franc" changeset="236698">
    <nd ref="287793745"/>
    <nd ref="287793742"/>
    <nd ref="287793743"/>
    <nd ref="287793741"/>
    <nd ref="287793745"/>
    <tag k="created_by" v="JOSM"/>
    <tag k="leisure" v="park"/>
    <tag k="source" v="survey"/>
  </way>
  <way id="26274362" version="2" timestamp="2009-11-14T12:12:30Z" uid="117890" user="Jonathan Trott" changeset="3112508">
    <nd ref="287793745"/>
    <nd ref="287793742"/>
    <nd ref="287793743"/>
    <nd ref="287793741"/>
    <nd ref="287793745"/>
    <tag k="leisure" v="park"/>
    <tag k="source" v="survey"/>
  </way>
  <way id="26274362" version="3" timestamp="2011-05-18T08:26:23Z" uid="7617" user="Franc" changeset="8178870">
    <nd ref="287793745"/>
    <nd ref="1290015653"/>
    <nd ref="1290015681"/>
    <nd ref="1290015640"/>
    <nd ref="287793742"/>
    <nd ref="287793743"/>
    <nd ref="287793741"/>
    <nd ref="287793745"/>
    <tag k="leisure" v="park"/>
    <tag k="source" v="survey"/>
  </way>
  <way id="26274363" version="1" timestamp="2008-08-14T04:40:50Z" uid="7617" user="Franc" changeset="236698">
    <nd ref="249036547"/>
    <nd ref="120597743"/>
    <tag k="created_by" v="JOSM"/>
    <tag k="highway" v="service"/>
    <tag k="source" v="yahoo_imagery"/>
  </way>
  <way id="26274363" version="2" timestamp="2009-11-14T12:12:27Z" uid="117890" user="Jonathan Trott" changeset="3112508">
    <nd ref="249036547"/>
    <nd ref="120597743"/>
    <tag k="highway" v="service"/>
    <tag k="source" v="yahoo_imagery"/>
  </way>
  <way id="26274363" version="3" timestamp="2010-06-28T10:15:22Z" uid="7617" user="Franc" changeset="5096291">
    <nd ref="249036547"/>
    <nd ref="120597743"/>
    <nd ref="120597736"/>
    <tag k="highway" v="service"/>
    <tag k="name" v="Talfourd Lane"/>
    <tag k="source" v="survey"/>
  </way>
  <way id="26274378" version="2" timestamp="2010-03-27T23:56:57Z" uid="20587" user="balrog-kun" changeset="4250871">
    <nd ref="65484176"/>
    <nd ref="287792157"/>
    <nd ref="65484105"/>
    <tag k="created_by" v="Potlatch 0.10b"/>
    <tag k="highway" v="tertiary"/>
    <tag k="name" v="Cottle Road"/>
    <tag k="tiger:cfcc" v="A41"/>
    <tag k="tiger:county" v="Santa Clara, CA"/>
    <tag k="tiger:name_base" v="Cottle"/>
    <tag k="tiger:name_type" v="Rd"/>
    <tag k="tiger:reviewed" v="no"/>
    <tag k="tiger:separated" v="no"/>
    <tag k="tiger:source" v="tiger_import_dch_v0.6_20070809"/>
    <tag k="tiger:tlid" v="123018812:122926992:122926997:123177646; 122926986:123177645:123179718:122926898:122926902:122926899:122926589:122926591:122926593:122926955:122926956:122926958:122926964:122926965:122926967:122926968"/>
    <tag k="tiger:zip_left" v="95123"/>
    <tag k="tiger:zip_right" v="95123"/>
  </way>
  <way id="26274378" version="3" timestamp="2011-07-05T19:01:52Z" uid="42429" user="FK270673" changeset="8641886">
    <nd ref="65484176"/>
    <nd ref="287792157"/>
    <nd ref="65484105"/>
    <tag k="highway" v="unclassified"/>
    <tag k="name" v="Cottle Road"/>
    <tag k="tiger:cfcc" v="A41"/>
    <tag k="tiger:county" v="Santa Clara, CA"/>
    <tag k="tiger:name_base" v="Cottle"/>
    <tag k="tiger:name_type" v="Rd"/>
    <tag k="tiger:reviewed" v="no"/>
    <tag k="tiger:separated" v="no"/>
    <tag k="tiger:source" v="tiger_import_dch_v0.6_20070809"/>
    <tag k="tiger:tlid" v="123018812:122926992:122926997:123177646; 122926986:123177645:123179718:122926898:122926902:122926899:122926589:122926591:122926593:122926955:122926956:122926958:122926964:122926965:122926967:122926968"/>
    <tag k="tiger:zip_left" v="95123"/>
    <tag k="tiger:zip_right" v="95123"/>
  </way>
  <way id="26274411" version="10" timestamp="2010-03-27T23:56:57Z" uid="20587" user="balrog-kun" changeset="4250871">
    <nd ref="65484146"/>
    <nd ref="345383728"/>
    <nd ref="65484149"/>
    <nd ref="312415213"/>
    <nd ref="65470524"/>
    <nd ref="65424305"/>
    <nd ref="312411646"/>
    <nd ref="65484158"/>
    <tag k="created_by" v="Potlatch 0.10f"/>
    <tag k="highway" v="secondary"/>
    <tag k="name" v="Cottle Road"/>
    <tag k="tiger:cfcc" v="A41"/>
    <tag k="tiger:county" v="Santa Clara, CA"/>
    <tag k="tiger:name_base" v="Cottle"/>
    <tag k="tiger:name_type" v="Rd"/>
    <tag k="tiger:reviewed" v="no"/>
    <tag k="tiger:separated" v="no"/>
    <tag k="tiger:source" v="tiger_import_dch_v0.6_20070809"/>
    <tag k="tiger:tlid" v="123018812:122926992:122926997:123177646; 122926986:123177645:123179718:122926898:122926902:122926899:122926589:122926591:122926593:122926955:122926956:122926958:122926964:122926965:122926967:122926968"/>
    <tag k="tiger:zip_left" v="95123"/>
    <tag k="tiger:zip_right" v="95123"/>
  </way>
  <way id="26274411" version="11" timestamp="2011-01-05T03:16:52Z" uid="201724" user="mk408" changeset="6868157">
    <nd ref="65484144"/>
    <nd ref="65484149"/>
    <nd ref="65470524"/>
    <nd ref="65424305"/>
    <nd ref="312411646"/>
    <nd ref="65484158"/>
    <tag k="highway" v="primary"/>
    <tag k="name" v="Cottle Road"/>
    <tag k="oneway" v="yes"/>
    <tag k="tiger:county" v="Santa Clara, CA"/>
    <tag k="tiger:name_base" v="Cottle"/>
    <tag k="tiger:name_type" v="Rd"/>
    <tag k="tiger:zip_left" v="95123"/>
    <tag k="tiger:zip_right" v="95123"/>
  </way>
  <way id="26274411" version="12" timestamp="2011-01-05T07:24:05Z" uid="201724" user="mk408" changeset="6868857">
    <nd ref="65484144"/>
    <nd ref="65484149"/>
    <nd ref="1083168584"/>
    <nd ref="65470524"/>
    <nd ref="1083168616"/>
    <nd ref="1083168607"/>
    <nd ref="65424305"/>
    <nd ref="312411646"/>
    <nd ref="65484158"/>
    <tag k="highway" v="primary"/>
    <tag k="name" v="Cottle Road"/>
    <tag k="oneway" v="yes"/>
    <tag k="tiger:county" v="Santa Clara, CA"/>
    <tag k="tiger:name_base" v="Cottle"/>
    <tag k="tiger:name_type" v="Rd"/>
    <tag k="tiger:zip_left" v="95123"/>
    <tag k="tiger:zip_right" v="95123"/>
  </way>
  <way id="26274411" version="13" timestamp="2011-07-05T19:02:02Z" uid="42429" user="FK270673" changeset="8641886">
    <nd ref="65484144"/>
    <nd ref="65484149"/>
    <nd ref="1083168584"/>
    <nd ref="65470524"/>
    <nd ref="1083168616"/>
    <nd ref="1083168607"/>
    <nd ref="65424305"/>
    <nd ref="312411646"/>
    <nd ref="65484158"/>
    <tag k="HFCS" v="Urban Minor Arterial"/>
    <tag k="highway" v="secondary"/>
    <tag k="name" v="Cottle Road"/>
    <tag k="oneway" v="yes"/>
    <tag k="tiger:county" v="Santa Clara, CA"/>
    <tag k="tiger:name_base" v="Cottle"/>
    <tag k="tiger:name_type" v="Rd"/>
    <tag k="tiger:zip_left" v="95123"/>
    <tag k="tiger:zip_right" v="95123"/>
  </way>
  <way id="26274415" version="4" timestamp="2010-03-27T23:56:57Z" uid="20587" user="balrog-kun" changeset="4250871">
    <nd ref="287794488"/>
    <nd ref="65484144"/>
    <nd ref="65484146"/>
    <tag k="bridge" v="yes"/>
    <tag k="created_by" v="Potlatch 0.10f"/>
    <tag k="highway" v="secondary"/>
    <tag k="layer" v="2"/>
    <tag k="name" v="Cottle Road"/>
    <tag k="tiger:cfcc" v="A41"/>
    <tag k="tiger:county" v="Santa Clara, CA"/>
    <tag k="tiger:name_base" v="Cottle"/>
    <tag k="tiger:name_type" v="Rd"/>
    <tag k="tiger:reviewed" v="no"/>
    <tag k="tiger:separated" v="no"/>
    <tag k="tiger:source" v="tiger_import_dch_v0.6_20070809"/>
    <tag k="tiger:tlid" v="123018812:122926992:122926997:123177646; 122926986:123177645:123179718:122926898:122926902:122926899:122926589:122926591:122926593:122926955:122926956:122926958:122926964:122926965:122926967:122926968"/>
    <tag k="tiger:zip_left" v="95123"/>
    <tag k="tiger:zip_right" v="95123"/>
  </way>
  <way id="26274415" version="5" timestamp="2011-01-05T03:17:17Z" uid="201724" user="mk408" changeset="6868157">
    <nd ref="287794488"/>
    <nd ref="65484144"/>
    <tag k="bridge" v="yes"/>
    <tag k="highway" v="primary"/>
    <tag k="layer" v="2"/>
    <tag k="name" v="Cottle Road"/>
    <tag k="oneway" v="yes"/>
    <tag k="tiger:cfcc" v="A41"/>
    <tag k="tiger:county" v="Santa Clara, CA"/>
    <tag k="tiger:name_base" v="Cottle"/>
    <tag k="tiger:name_type" v="Rd"/>
    <tag k="tiger:zip_left" v="95123"/>
    <tag k="tiger:zip_right" v="95123"/>
  </way>
  <way id="26274415" version="6" timestamp="2011-07-05T19:01:57Z" uid="42429" user="FK270673" changeset="8641886">
    <nd ref="287794488"/>
    <nd ref="65484144"/>
    <tag k="HFCS" v="Urban Minor Arterial"/>
    <tag k="bridge" v="yes"/>
    <tag k="highway" v="secondary"/>
    <tag k="layer" v="2"/>
    <tag k="name" v="Cottle Road"/>
    <tag k="oneway" v="yes"/>
    <tag k="tiger:cfcc" v="A41"/>
    <tag k="tiger:county" v="Santa Clara, CA"/>
    <tag k="tiger:name_base" v="Cottle"/>
    <tag k="tiger:name_type" v="Rd"/>
    <tag k="tiger:zip_left" v="95123"/>
    <tag k="tiger:zip_right" v="95123"/>
  </way>
  <way id="26274421" version="9" timestamp="2010-03-22T05:42:24Z" uid="20587" user="balrog-kun" changeset="4199043">
    <nd ref="40299062"/>
    <nd ref="40299052"/>
    <nd ref="40299126"/>
    <nd ref="40301898"/>
    <nd ref="40360333"/>
    <nd ref="40311577"/>
    <nd ref="40360340"/>
    <nd ref="40301318"/>
    <nd ref="40360363"/>
    <nd ref="40360365"/>
    <nd ref="40360367"/>
    <nd ref="40360370"/>
    <nd ref="40360373"/>
    <nd ref="40360379"/>
    <nd ref="40303555"/>
    <nd ref="40337846"/>
    <tag k="highway" v="trunk"/>
    <tag k="name" v="Santiam Highway Southeast"/>
    <tag k="name_1" v="United States Highway 20"/>
    <tag k="ref" v="US 20"/>
    <tag k="tiger:cfcc" v="A21"/>
    <tag k="tiger:county" v="Linn, OR"/>
    <tag k="tiger:name_base" v="Santiam"/>
    <tag k="tiger:name_base_1" v="United States Highway 20"/>
    <tag k="tiger:name_direction_suffix" v="SE"/>
    <tag k="tiger:reviewed" v="no"/>
    <tag k="tiger:separated" v="no"/>
    <tag k="tiger:source" v="tiger_import_dch_v0.6_20070808"/>
    <tag k="tiger:tlid" v="156070652"/>
    <tag k="tiger:zip_left" v="97322"/>
    <tag k="tiger:zip_right" v="97321"/>
  </way>
  <way id="26274421" version="10" timestamp="2010-12-15T05:11:33Z" uid="373763" user="ylekot" changeset="6664612">
    <nd ref="40299062"/>
    <nd ref="40299052"/>
    <nd ref="40299126"/>
    <nd ref="40301898"/>
    <nd ref="40360333"/>
    <nd ref="40311577"/>
    <nd ref="40360340"/>
    <nd ref="40301318"/>
    <nd ref="40360363"/>
    <nd ref="40360365"/>
    <nd ref="40360367"/>
    <nd ref="40360370"/>
    <nd ref="40360373"/>
    <nd ref="40360379"/>
    <nd ref="40303555"/>
    <nd ref="40337846"/>
    <tag k="highway" v="primary"/>
    <tag k="name" v="Santiam Highway Southeast"/>
    <tag k="name_1" v="United States Highway 20"/>
    <tag k="ref" v="US 20"/>
    <tag k="tiger:cfcc" v="A21"/>
    <tag k="tiger:county" v="Linn, OR"/>
    <tag k="tiger:name_base" v="Santiam"/>
    <tag k="tiger:name_base_1" v="United States Highway 20"/>
    <tag k="tiger:name_direction_suffix" v="SE"/>
    <tag k="tiger:reviewed" v="no"/>
    <tag k="tiger:separated" v="no"/>
    <tag k="tiger:source" v="tiger_import_dch_v0.6_20070808"/>
    <tag k="tiger:tlid" v="156070652"/>
    <tag k="tiger:zip_left" v="97322"/>
    <tag k="tiger:zip_right" v="97321"/>
  </way>
  <way id="26274421" version="11" timestamp="2011-02-04T01:48:28Z" uid="373763" user="ylekot" changeset="7179630">
    <nd ref="40299062"/>
    <nd ref="1134827649"/>
    <nd ref="40299052"/>
    <nd ref="40299126"/>
    <nd ref="40301898"/>
    <nd ref="40360333"/>
    <nd ref="40311577"/>
    <nd ref="40360340"/>
    <nd ref="40301318"/>
    <nd ref="40360363"/>
    <nd ref="40360365"/>
    <nd ref="40360367"/>
    <nd ref="40360370"/>
    <nd ref="40360373"/>
    <nd ref="40360379"/>
    <nd ref="40303555"/>
    <nd ref="40337846"/>
    <tag k="highway" v="primary"/>
    <tag k="name" v="Santiam Highway Southeast"/>
    <tag k="name_1" v="United States Highway 20"/>
    <tag k="ref" v="US 20"/>
    <tag k="tiger:cfcc" v="A21"/>
    <tag k="tiger:county" v="Linn, OR"/>
    <tag k="tiger:name_base" v="Santiam"/>
    <tag k="tiger:name_base_1" v="United States Highway 20"/>
    <tag k="tiger:name_direction_suffix" v="SE"/>
    <tag k="tiger:reviewed" v="no"/>
    <tag k="tiger:separated" v="no"/>
    <tag k="tiger:source" v="tiger_import_dch_v0.6_20070808"/>
    <tag k="tiger:tlid" v="156070652"/>
    <tag k="tiger:zip_left" v="97322"/>
    <tag k="tiger:zip_right" v="97321"/>
  </way>
  <way id="26274421" version="12" timestamp="2011-02-04T01:52:51Z" uid="373763" user="ylekot" changeset="7179630">
    <nd ref="40299062"/>
    <nd ref="1134827649"/>
    <nd ref="40299052"/>
    <nd ref="40299126"/>
    <nd ref="40301898"/>
    <nd ref="40360333"/>
    <nd ref="40311577"/>
    <nd ref="40360340"/>
    <nd ref="40301318"/>
    <nd ref="40360363"/>
    <nd ref="40360365"/>
    <nd ref="40360367"/>
    <nd ref="40360370"/>
    <nd ref="40360373"/>
    <nd ref="40360379"/>
    <nd ref="40303555"/>
    <nd ref="40337846"/>
    <tag k="alt_name" v="Santiam Highway #16"/>
    <tag k="highway" v="primary"/>
    <tag k="name" v="Santiam Highway Southeast"/>
    <tag k="name_1" v="United States Highway 20"/>
    <tag k="ref" v="US 20"/>
    <tag k="tiger:cfcc" v="A21"/>
    <tag k="tiger:county" v="Linn, OR"/>
    <tag k="tiger:name_base" v="Santiam"/>
    <tag k="tiger:name_base_1" v="United States Highway 20"/>
    <tag k="tiger:name_direction_suffix" v="SE"/>
    <tag k="tiger:reviewed" v="no"/>
    <tag k="tiger:separated" v="no"/>
    <tag k="tiger:source" v="tiger_import_dch_v0.6_20070808"/>
    <tag k="tiger:tlid" v="156070652"/>
    <tag k="tiger:zip_left" v="97322"/>
    <tag k="tiger:zip_right" v="97321"/>
  </way>
  <way id="26274421" version="13" timestamp="2011-06-11T10:55:07Z" uid="207745" user="NE2" changeset="8404776">
    <nd ref="40299062"/>
    <nd ref="1134827649"/>
    <nd ref="40299052"/>
    <nd ref="40299126"/>
    <nd ref="40301898"/>
    <nd ref="40360333"/>
    <nd ref="40311577"/>
    <nd ref="40360340"/>
    <nd ref="40301318"/>
    <nd ref="1319907622"/>
    <tag k="alt_name" v="Santiam Highway #16"/>
    <tag k="highway" v="primary"/>
    <tag k="lanes" v="4"/>
    <tag k="name" v="Santiam Highway Southeast"/>
    <tag k="ref" v="US 20"/>
    <tag k="tiger:cfcc" v="A21"/>
    <tag k="tiger:county" v="Linn, OR"/>
    <tag k="tiger:name_base" v="Santiam"/>
    <tag k="tiger:name_base_1" v="United States Highway 20"/>
    <tag k="tiger:name_direction_suffix" v="SE"/>
    <tag k="tiger:reviewed" v="no"/>
    <tag k="tiger:separated" v="no"/>
    <tag k="tiger:source" v="tiger_import_dch_v0.6_20070808"/>
    <tag k="tiger:tlid" v="156070652"/>
    <tag k="tiger:zip_left" v="97322"/>
    <tag k="tiger:zip_right" v="97321"/>
  </way>
  <way id="26274421" version="14" timestamp="2011-11-25T17:24:47Z" uid="207745" user="NE2" changeset="9945867">
    <nd ref="40299062"/>
    <nd ref="1134827649"/>
    <nd ref="40299052"/>
    <nd ref="40299126"/>
    <nd ref="40301898"/>
    <nd ref="40360333"/>
    <nd ref="40311577"/>
    <nd ref="40360340"/>
    <nd ref="40301318"/>
    <nd ref="1319907622"/>
    <tag k="alt_name" v="Santiam Highway #16"/>
    <tag k="hgv" v="designated"/>
    <tag k="hgv:national_network" v="yes"/>
    <tag k="highway" v="primary"/>
    <tag k="lanes" v="4"/>
    <tag k="name" v="Santiam Highway Southeast"/>
    <tag k="ref" v="US 20"/>
    <tag k="source:hgv:national_network" v="Title 23: Highways Part 658 http://ecfr.gpoaccess.gov/cgi/t/text/text-idx?c=ecfr&amp;rgn=div5&amp;view=text&amp;node=23:1.0.1.7.33&amp;idno=23"/>
    <tag k="tiger:cfcc" v="A21"/>
    <tag k="tiger:county" v="Linn, OR"/>
    <tag k="tiger:name_base" v="Santiam"/>
    <tag k="tiger:name_base_1" v="United States Highway 20"/>
    <tag k="tiger:name_direction_suffix" v="SE"/>
    <tag k="tiger:reviewed" v="no"/>
    <tag k="tiger:separated" v="no"/>
    <tag k="tiger:source" v="tiger_import_dch_v0.6_20070808"/>
    <tag k="tiger:tlid" v="156070652"/>
    <tag k="tiger:zip_left" v="97322"/>
    <tag k="tiger:zip_right" v="97321"/>
  </way>
  <way id="26274424" version="9" timestamp="2010-03-22T05:42:25Z" uid="20587" user="balrog-kun" changeset="4199043">
    <nd ref="40299196"/>
    <nd ref="40299062"/>
    <tag k="bridge" v="yes"/>
    <tag k="highway" v="trunk"/>
    <tag k="layer" v="1"/>
    <tag k="name" v="Santiam Highway Southeast"/>
    <tag k="name_1" v="United States Highway 20"/>
    <tag k="ref" v="US 20"/>
    <tag k="tiger:cfcc" v="A21"/>
    <tag k="tiger:county" v="Linn, OR"/>
    <tag k="tiger:name_base" v="Santiam"/>
    <tag k="tiger:name_base_1" v="United States Highway 20"/>
    <tag k="tiger:name_direction_suffix" v="SE"/>
    <tag k="tiger:separated" v="no"/>
    <tag k="tiger:source" v="tiger_import_dch_v0.6_20070808"/>
    <tag k="tiger:tlid" v="156070652"/>
    <tag k="tiger:zip_left" v="97322"/>
    <tag k="tiger:zip_right" v="97321"/>
  </way>
  <way id="26274424" version="10" timestamp="2010-12-15T05:11:26Z" uid="373763" user="ylekot" changeset="6664612">
    <nd ref="40299196"/>
    <nd ref="40299062"/>
    <tag k="bridge" v="yes"/>
    <tag k="highway" v="primary"/>
    <tag k="layer" v="1"/>
    <tag k="name" v="Santiam Highway Southeast"/>
    <tag k="name_1" v="United States Highway 20"/>
    <tag k="ref" v="US 20"/>
    <tag k="tiger:cfcc" v="A21"/>
    <tag k="tiger:county" v="Linn, OR"/>
    <tag k="tiger:name_base" v="Santiam"/>
    <tag k="tiger:name_base_1" v="United States Highway 20"/>
    <tag k="tiger:name_direction_suffix" v="SE"/>
    <tag k="tiger:separated" v="no"/>
    <tag k="tiger:source" v="tiger_import_dch_v0.6_20070808"/>
    <tag k="tiger:tlid" v="156070652"/>
    <tag k="tiger:zip_left" v="97322"/>
    <tag k="tiger:zip_right" v="97321"/>
  </way>
  <way id="26274424" version="11" timestamp="2011-02-04T01:52:52Z" uid="373763" user="ylekot" changeset="7179630">
    <nd ref="40299196"/>
    <nd ref="40299062"/>
    <tag k="alt_name" v="Santiam Highway #16"/>
    <tag k="bridge" v="yes"/>
    <tag k="highway" v="primary"/>
    <tag k="layer" v="1"/>
    <tag k="name" v="Santiam Highway Southeast"/>
    <tag k="name_1" v="United States Highway 20"/>
    <tag k="ref" v="US 20"/>
    <tag k="tiger:cfcc" v="A21"/>
    <tag k="tiger:county" v="Linn, OR"/>
    <tag k="tiger:name_base" v="Santiam"/>
    <tag k="tiger:name_base_1" v="United States Highway 20"/>
    <tag k="tiger:name_direction_suffix" v="SE"/>
    <tag k="tiger:separated" v="no"/>
    <tag k="tiger:source" v="tiger_import_dch_v0.6_20070808"/>
    <tag k="tiger:tlid" v="156070652"/>
    <tag k="tiger:zip_left" v="97322"/>
    <tag k="tiger:zip_right" v="97321"/>
  </way>
  <way id="26274424" version="12" timestamp="2011-06-11T11:05:35Z" uid="207745" user="NE2" changeset="8404776">
    <nd ref="40299196"/>
    <nd ref="40299062"/>
    <tag k="alt_name" v="Santiam Highway #16"/>
    <tag k="bridge" v="yes"/>
    <tag k="highway" v="primary"/>
    <tag k="lanes" v="4"/>
    <tag k="layer" v="1"/>
    <tag k="name" v="Santiam Highway Southeast"/>
    <tag k="ref" v="US 20"/>
    <tag k="tiger:cfcc" v="A21"/>
    <tag k="tiger:county" v="Linn, OR"/>
    <tag k="tiger:name_base" v="Santiam"/>
    <tag k="tiger:name_base_1" v="United States Highway 20"/>
    <tag k="tiger:name_direction_suffix" v="SE"/>
    <tag k="tiger:separated" v="no"/>
    <tag k="tiger:source" v="tiger_import_dch_v0.6_20070808"/>
    <tag k="tiger:tlid" v="156070652"/>
    <tag k="tiger:zip_left" v="97322"/>
    <tag k="tiger:zip_right" v="97321"/>
  </way>
  <way id="26274424" version="13" timestamp="2011-11-25T17:24:50Z" uid="207745" user="NE2" changeset="9945867">
    <nd ref="40299196"/>
    <nd ref="40299062"/>
    <tag k="alt_name" v="Santiam Highway #16"/>
    <tag k="bridge" v="yes"/>
    <tag k="hgv" v="designated"/>
    <tag k="hgv:national_network" v="yes"/>
    <tag k="highway" v="primary"/>
    <tag k="lanes" v="4"/>
    <tag k="layer" v="1"/>
    <tag k="name" v="Santiam Highway Southeast"/>
    <tag k="ref" v="US 20"/>
    <tag k="source:hgv:national_network" v="Title 23: Highways Part 658 http://ecfr.gpoaccess.gov/cgi/t/text/text-idx?c=ecfr&amp;rgn=div5&amp;view=text&amp;node=23:1.0.1.7.33&amp;idno=23"/>
    <tag k="tiger:cfcc" v="A21"/>
    <tag k="tiger:county" v="Linn, OR"/>
    <tag k="tiger:name_base" v="Santiam"/>
    <tag k="tiger:name_base_1" v="United States Highway 20"/>
    <tag k="tiger:name_direction_suffix" v="SE"/>
    <tag k="tiger:separated" v="no"/>
    <tag k="tiger:source" v="tiger_import_dch_v0.6_20070808"/>
    <tag k="tiger:tlid" v="156070652"/>
    <tag k="tiger:zip_left" v="97322"/>
    <tag k="tiger:zip_right" v="97321"/>
  </way>
  <way id="26274434" version="3" timestamp="2010-03-13T11:32:57Z" uid="30632" user="antblant" changeset="4113734"/>
  <way id="26274492" version="4" timestamp="2009-02-23T12:15:22Z" uid="34428" user="usm78-gis" changeset="634299"/>
  <way id="26274510" version="11" timestamp="2008-09-14T16:17:20Z" uid="6975" user="ulfl" changeset="640534">
    <nd ref="287788260"/>
    <nd ref="287788238"/>
    <nd ref="287788239"/>
    <nd ref="287788240"/>
    <nd ref="287788241"/>
    <nd ref="287788242"/>
    <nd ref="287788243"/>
    <nd ref="287788244"/>
    <nd ref="287788245"/>
    <nd ref="287788246"/>
    <nd ref="287788247"/>
    <nd ref="287788248"/>
    <nd ref="283586835"/>
    <nd ref="287796983"/>
    <nd ref="283586991"/>
    <nd ref="287796984"/>
    <nd ref="283586929"/>
    <nd ref="287796985"/>
    <nd ref="283588469"/>
    <nd ref="283586932"/>
    <nd ref="283586840"/>
    <nd ref="283588470"/>
    <nd ref="283587159"/>
    <nd ref="287796986"/>
    <nd ref="283587720"/>
    <nd ref="287796881"/>
    <nd ref="283587161"/>
    <nd ref="287796882"/>
    <nd ref="283587162"/>
    <nd ref="287796883"/>
    <nd ref="283587163"/>
    <nd ref="287796884"/>
    <nd ref="283587164"/>
    <nd ref="287796987"/>
    <nd ref="283587721"/>
    <nd ref="283587166"/>
    <nd ref="283587167"/>
    <nd ref="287796886"/>
    <nd ref="283587722"/>
    <nd ref="283587169"/>
    <nd ref="283587171"/>
    <nd ref="283587674"/>
    <nd ref="283587675"/>
    <nd ref="283587713"/>
    <nd ref="283587677"/>
    <nd ref="283587678"/>
    <nd ref="283587679"/>
    <nd ref="283587680"/>
    <nd ref="283587681"/>
    <nd ref="283587682"/>
    <nd ref="283588472"/>
    <nd ref="283587725"/>
    <nd ref="283587685"/>
    <nd ref="283587686"/>
    <nd ref="283587687"/>
    <nd ref="283588245"/>
    <nd ref="283587727"/>
    <nd ref="283588473"/>
    <nd ref="287796988"/>
    <nd ref="287796740"/>
    <nd ref="287796741"/>
    <nd ref="287796989"/>
    <nd ref="287796743"/>
    <nd ref="287796744"/>
    <nd ref="287796745"/>
    <nd ref="287796990"/>
    <nd ref="287796890"/>
    <nd ref="287796605"/>
    <nd ref="287796607"/>
    <nd ref="287796748"/>
    <nd ref="287796610"/>
    <nd ref="287796891"/>
    <nd ref="287796612"/>
    <nd ref="287796991"/>
    <nd ref="287796383"/>
    <nd ref="287796494"/>
    <nd ref="139047361"/>
    <nd ref="283588252"/>
    <nd ref="283588477"/>
    <nd ref="287796352"/>
    <nd ref="287796170"/>
    <nd ref="287796171"/>
    <nd ref="287796172"/>
    <nd ref="287796173"/>
    <nd ref="287796175"/>
    <nd ref="287796176"/>
    <nd ref="287796177"/>
    <nd ref="287796178"/>
    <nd ref="287796179"/>
    <nd ref="287796180"/>
    <nd ref="295356981"/>
    <nd ref="287796181"/>
    <nd ref="287796182"/>
    <tag k="bridge" v="yes"/>
    <tag k="highway" v="motorway"/>
    <tag k="int_ref" v="E90"/>
    <tag k="lanes" v="2"/>
    <tag k="layer" v="1"/>
    <tag k="name" v="Greveniotiko Bridge; Εγνατία Οδός"/>
    <tag k="name:de" v="Egnatia Autobahn"/>
    <tag k="name:el" v="Εγνατία Οδός"/>
    <tag k="name:en" v="Egnatia Motorway"/>
    <tag k="oneway" v="yes"/>
    <tag k="ref" v="A2"/>
  </way>
  <way id="26274510" version="12" timestamp="2008-09-17T16:09:55Z" uid="14235" user="AiNikolas" changeset="653068">
    <nd ref="287788260"/>
    <nd ref="287788238"/>
    <nd ref="287788239"/>
    <nd ref="287788240"/>
    <nd ref="287788241"/>
    <nd ref="287788242"/>
    <nd ref="287788243"/>
    <nd ref="287788244"/>
    <nd ref="287788245"/>
    <nd ref="287788246"/>
    <nd ref="287788247"/>
    <nd ref="287788248"/>
    <nd ref="283586835"/>
    <nd ref="287796983"/>
    <nd ref="283586991"/>
    <nd ref="287796984"/>
    <nd ref="283586929"/>
    <nd ref="287796985"/>
    <nd ref="283588469"/>
    <nd ref="283586932"/>
    <nd ref="283586840"/>
    <nd ref="283588470"/>
    <nd ref="283587159"/>
    <nd ref="287796986"/>
    <nd ref="283587720"/>
    <nd ref="287796881"/>
    <nd ref="283587161"/>
    <nd ref="287796882"/>
    <nd ref="283587162"/>
    <nd ref="287796883"/>
    <nd ref="283587163"/>
    <nd ref="287796884"/>
    <nd ref="283587164"/>
    <nd ref="287796987"/>
    <nd ref="283587721"/>
    <nd ref="283587166"/>
    <nd ref="283587167"/>
    <nd ref="287796886"/>
    <nd ref="283587722"/>
    <nd ref="283587169"/>
    <nd ref="283587171"/>
    <nd ref="283587674"/>
    <nd ref="283587675"/>
    <nd ref="283587713"/>
    <nd ref="283587677"/>
    <nd ref="283587678"/>
    <nd ref="283587679"/>
    <nd ref="283587680"/>
    <nd ref="283587681"/>
    <nd ref="283587682"/>
    <nd ref="283588472"/>
    <nd ref="283587725"/>
    <nd ref="283587685"/>
    <nd ref="283587686"/>
    <nd ref="283587687"/>
    <nd ref="283588245"/>
    <nd ref="283587727"/>
    <tag k="created_by" v="Potlatch 0.10b"/>
    <tag k="highway" v="motorway"/>
    <tag k="int_ref" v="E90"/>
    <tag k="lanes" v="2"/>
    <tag k="name" v="Greveniotiko Bridge; Εγνατία Οδός"/>
    <tag k="name:de" v="Egnatia Autobahn"/>
    <tag k="name:el" v="Εγνατία Οδός"/>
    <tag k="name:en" v="Egnatia Motorway"/>
    <tag k="oneway" v="yes"/>
    <tag k="ref" v="A2"/>
  </way>
  <way id="26274510" version="13" timestamp="2008-10-03T07:34:15Z" uid="14235" user="AiNikolas" changeset="40846">
    <nd ref="287788260"/>
    <nd ref="287788238"/>
    <nd ref="287788239"/>
    <nd ref="287788240"/>
    <nd ref="287788241"/>
    <nd ref="287788242"/>
    <nd ref="287788243"/>
    <nd ref="287788244"/>
    <nd ref="287788245"/>
    <nd ref="287788246"/>
    <nd ref="287788247"/>
    <nd ref="287788248"/>
    <nd ref="283586835"/>
    <nd ref="287796983"/>
    <nd ref="283586991"/>
    <nd ref="287796984"/>
    <nd ref="283586929"/>
    <nd ref="287796985"/>
    <nd ref="283588469"/>
    <nd ref="283586932"/>
    <nd ref="283586840"/>
    <nd ref="283588470"/>
    <nd ref="283587159"/>
    <nd ref="287796986"/>
    <nd ref="283587720"/>
    <nd ref="287796881"/>
    <nd ref="283587161"/>
    <nd ref="287796882"/>
    <nd ref="283587162"/>
    <nd ref="287796883"/>
    <nd ref="283587163"/>
    <nd ref="287796884"/>
    <nd ref="283587164"/>
    <nd ref="287796987"/>
    <nd ref="283587721"/>
    <nd ref="283587166"/>
    <nd ref="283587167"/>
    <nd ref="287796886"/>
    <nd ref="283587722"/>
    <nd ref="283587169"/>
    <nd ref="283587171"/>
    <nd ref="283587674"/>
    <nd ref="283587675"/>
    <nd ref="283587713"/>
    <nd ref="283587677"/>
    <nd ref="283587678"/>
    <nd ref="283587679"/>
    <nd ref="283587680"/>
    <nd ref="283587681"/>
    <nd ref="283587682"/>
    <nd ref="283588472"/>
    <nd ref="283587725"/>
    <nd ref="283587685"/>
    <nd ref="283587686"/>
    <nd ref="283587687"/>
    <nd ref="283588245"/>
    <nd ref="283587727"/>
    <tag k="created_by" v="Potlatch 0.10c"/>
    <tag k="highway" v="motorway"/>
    <tag k="int_ref" v="E90"/>
    <tag k="lanes" v="2"/>
    <tag k="name" v="Εγνατία Οδός (A2)"/>
    <tag k="name:de" v="Egnatia Autobahn (A2)"/>
    <tag k="name:el" v="Εγνατία Οδός (A2)"/>
    <tag k="name:en" v="Egnatia Motorway (A2)"/>
    <tag k="name:fr" v="Autoroute Egnatia  (A2)"/>
    <tag k="oneway" v="yes"/>
    <tag k="ref" v="A2"/>
  </way>
  <way id="26274510" version="14" timestamp="2008-10-03T07:34:21Z" uid="14235" user="AiNikolas" changeset="40846">
    <nd ref="287788260"/>
    <nd ref="287788238"/>
    <nd ref="287788239"/>
    <nd ref="287788240"/>
    <nd ref="287788241"/>
    <nd ref="287788242"/>
    <nd ref="287788243"/>
    <nd ref="287788244"/>
    <nd ref="287788245"/>
    <nd ref="287788246"/>
    <nd ref="287788247"/>
    <nd ref="287788248"/>
    <nd ref="283586835"/>
    <nd ref="287796983"/>
    <nd ref="283586991"/>
    <nd ref="287796984"/>
    <nd ref="283586929"/>
    <nd ref="287796985"/>
    <nd ref="283588469"/>
    <nd ref="283586932"/>
    <nd ref="283586840"/>
    <nd ref="283588470"/>
    <nd ref="283587159"/>
    <nd ref="287796986"/>
    <nd ref="283587720"/>
    <nd ref="287796881"/>
    <nd ref="283587161"/>
    <nd ref="287796882"/>
    <nd ref="283587162"/>
    <nd ref="287796883"/>
    <nd ref="283587163"/>
    <nd ref="287796884"/>
    <nd ref="283587164"/>
    <nd ref="287796987"/>
    <nd ref="283587721"/>
    <nd ref="283587166"/>
    <nd ref="283587167"/>
    <nd ref="287796886"/>
    <nd ref="283587722"/>
    <nd ref="283587169"/>
    <nd ref="283587171"/>
    <tag k="created_by" v="Potlatch 0.10c"/>
    <tag k="highway" v="motorway"/>
    <tag k="int_ref" v="E90"/>
    <tag k="lanes" v="2"/>
    <tag k="name" v="Εγνατία Οδός (A2)"/>
    <tag k="name:de" v="Egnatia Autobahn (A2)"/>
    <tag k="name:el" v="Εγνατία Οδός (A2)"/>
    <tag k="name:en" v="Egnatia Motorway (A2)"/>
    <tag k="name:fr" v="Autoroute Egnatia  (A2)"/>
    <tag k="oneway" v="yes"/>
    <tag k="ref" v="A2"/>
  </way>
  <way id="26274510" version="15" timestamp="2009-06-01T07:13:27Z" uid="14235" user="AiNikolas" changeset="1375617">
    <nd ref="287788260"/>
    <nd ref="287788238"/>
    <nd ref="287788239"/>
    <nd ref="287788240"/>
    <nd ref="287788241"/>
    <nd ref="287788242"/>
    <nd ref="287788243"/>
    <nd ref="287788244"/>
    <nd ref="287788245"/>
    <nd ref="287788246"/>
    <nd ref="287788247"/>
    <nd ref="287788248"/>
    <nd ref="283586835"/>
    <nd ref="287796983"/>
    <nd ref="283586991"/>
    <nd ref="287796984"/>
    <nd ref="283586929"/>
    <nd ref="287796985"/>
    <nd ref="283588469"/>
    <nd ref="283586932"/>
    <nd ref="283586840"/>
    <nd ref="283588470"/>
    <nd ref="283587159"/>
    <nd ref="287796986"/>
    <nd ref="283587720"/>
    <nd ref="287796881"/>
    <nd ref="283587161"/>
    <nd ref="287796882"/>
    <nd ref="283587162"/>
    <nd ref="287796883"/>
    <nd ref="283587163"/>
    <nd ref="287796884"/>
    <nd ref="283587164"/>
    <nd ref="287796987"/>
    <nd ref="283587721"/>
    <nd ref="283587166"/>
    <nd ref="283587167"/>
    <nd ref="287796886"/>
    <nd ref="283587722"/>
    <nd ref="283587169"/>
    <nd ref="283587171"/>
    <tag k="created_by" v="Potlatch 0.10c"/>
    <tag k="highway" v="motorway"/>
    <tag k="int_ref" v="E90"/>
    <tag k="lanes" v="2"/>
    <tag k="name" v="Εγνατία Οδός (Egnatia Odos)"/>
    <tag k="name:de" v="Egnatia Autobahn"/>
    <tag k="name:el" v="Εγνατία Οδός"/>
    <tag k="name:en" v="Egnatia Motorway"/>
    <tag k="name:fr" v="Autoroute Egnatia"/>
    <tag k="oneway" v="yes"/>
    <tag k="ref" v="A2"/>
  </way>
  <way id="26274510" version="16" timestamp="2010-02-15T17:49:23Z" uid="23785" user="Simon Kokolakis" changeset="3885216">
    <nd ref="287788260"/>
    <nd ref="287788238"/>
    <nd ref="287788239"/>
    <nd ref="287788240"/>
    <nd ref="287788241"/>
    <nd ref="287788242"/>
    <nd ref="287788243"/>
    <nd ref="287788244"/>
    <nd ref="287788245"/>
    <nd ref="287788246"/>
    <nd ref="287788247"/>
    <nd ref="287788248"/>
    <nd ref="283586835"/>
    <nd ref="287796983"/>
    <nd ref="283586991"/>
    <nd ref="287796984"/>
    <nd ref="283586929"/>
    <nd ref="287796985"/>
    <nd ref="283588469"/>
    <nd ref="283586932"/>
    <nd ref="283586840"/>
    <nd ref="283588470"/>
    <nd ref="283587159"/>
    <nd ref="287796986"/>
    <nd ref="283587720"/>
    <nd ref="287796881"/>
    <nd ref="283587161"/>
    <nd ref="287796882"/>
    <nd ref="283587162"/>
    <nd ref="287796883"/>
    <nd ref="283587163"/>
    <nd ref="287796884"/>
    <nd ref="283587164"/>
    <nd ref="287796987"/>
    <nd ref="283587721"/>
    <nd ref="283587166"/>
    <nd ref="283587167"/>
    <nd ref="287796886"/>
    <nd ref="283587722"/>
    <nd ref="283587169"/>
    <nd ref="283587171"/>
    <tag k="highway" v="motorway"/>
    <tag k="int_ref" v="E90"/>
    <tag k="lanes" v="2"/>
    <tag k="oneway" v="yes"/>
    <tag k="ref" v="A2"/>
  </way>
  <way id="26274510" version="17" timestamp="2010-02-15T18:04:15Z" uid="23785" user="Simon Kokolakis" changeset="3885345">
    <nd ref="287788260"/>
    <nd ref="287788238"/>
    <nd ref="287788239"/>
    <nd ref="287788240"/>
    <nd ref="287788241"/>
    <nd ref="287788242"/>
    <nd ref="287788243"/>
    <nd ref="287788244"/>
    <nd ref="287788245"/>
    <nd ref="287788246"/>
    <nd ref="287788247"/>
    <nd ref="287788248"/>
    <nd ref="283586835"/>
    <nd ref="287796983"/>
    <nd ref="283586991"/>
    <nd ref="287796984"/>
    <nd ref="283586929"/>
    <nd ref="287796985"/>
    <nd ref="283588469"/>
    <nd ref="283586932"/>
    <nd ref="283586840"/>
    <nd ref="283588470"/>
    <nd ref="283587159"/>
    <nd ref="287796986"/>
    <nd ref="283587720"/>
    <nd ref="287796881"/>
    <nd ref="283587161"/>
    <nd ref="287796882"/>
    <nd ref="283587162"/>
    <nd ref="287796883"/>
    <nd ref="283587163"/>
    <nd ref="287796884"/>
    <nd ref="283587164"/>
    <nd ref="287796987"/>
    <nd ref="283587721"/>
    <nd ref="283587166"/>
    <nd ref="283587167"/>
    <nd ref="287796886"/>
    <nd ref="283587722"/>
    <nd ref="283587169"/>
    <nd ref="283587171"/>
    <tag k="highway" v="motorway"/>
    <tag k="lanes" v="2"/>
    <tag k="oneway" v="yes"/>
  </way>
  <way id="26274510" version="18" timestamp="2010-10-25T04:30:08Z" uid="14235" user="AiNikolas" changeset="6167981">
    <nd ref="287788260"/>
    <nd ref="287788238"/>
    <nd ref="287788239"/>
    <nd ref="287788240"/>
    <nd ref="287788241"/>
    <nd ref="287788242"/>
    <nd ref="287788243"/>
    <nd ref="287788244"/>
    <nd ref="287788245"/>
    <nd ref="287788246"/>
    <nd ref="287788247"/>
    <nd ref="287788248"/>
    <nd ref="283586835"/>
    <nd ref="287796983"/>
    <nd ref="283586991"/>
    <nd ref="287796984"/>
    <nd ref="283586929"/>
    <nd ref="287796985"/>
    <nd ref="283588469"/>
    <nd ref="283586932"/>
    <nd ref="283586840"/>
    <nd ref="283588470"/>
    <nd ref="283587159"/>
    <nd ref="287796986"/>
    <nd ref="283587720"/>
    <nd ref="287796881"/>
    <nd ref="283587161"/>
    <nd ref="287796882"/>
    <nd ref="283587162"/>
    <nd ref="287796883"/>
    <nd ref="283587163"/>
    <nd ref="287796884"/>
    <nd ref="283587164"/>
    <nd ref="287796987"/>
    <nd ref="283587721"/>
    <nd ref="283587166"/>
    <nd ref="283587167"/>
    <nd ref="287796886"/>
    <nd ref="283587722"/>
    <nd ref="283587169"/>
    <nd ref="283587171"/>
    <tag k="highway" v="motorway"/>
    <tag k="int_ref" v="E 90"/>
    <tag k="lanes" v="2"/>
    <tag k="name" v="Aυτοκινητόδρομος A2 (Εγνατία Οδός)"/>
    <tag k="name:de" v="Autobahn A2 (Egnatia Odos)"/>
    <tag k="name:el" v="Aυτοκινητόδρομος A2 (Εγνατία Οδός)"/>
    <tag k="name:en" v="Motorway A2 (Egnatia Odos)"/>
    <tag k="name:fr" v="Autoroute A2 (Egnatia Odos)"/>
    <tag k="oneway" v="yes"/>
    <tag k="ref" v="A2"/>
  </way>
  <way id="26274510" version="19" timestamp="2010-10-25T04:34:21Z" uid="14235" user="AiNikolas" changeset="6167981">
    <nd ref="287788260"/>
    <nd ref="287788238"/>
    <nd ref="287788239"/>
    <nd ref="287788240"/>
    <nd ref="287788241"/>
    <nd ref="287788242"/>
    <nd ref="287788243"/>
    <nd ref="287788244"/>
    <nd ref="287788245"/>
    <nd ref="287788246"/>
    <nd ref="287788247"/>
    <nd ref="287788248"/>
    <nd ref="283586835"/>
    <nd ref="287796983"/>
    <nd ref="283586991"/>
    <nd ref="287796984"/>
    <nd ref="283586929"/>
    <nd ref="287796985"/>
    <nd ref="283588469"/>
    <nd ref="283586932"/>
    <nd ref="283586840"/>
    <nd ref="283588470"/>
    <nd ref="283587159"/>
    <nd ref="287796986"/>
    <nd ref="283587720"/>
    <nd ref="287796881"/>
    <nd ref="283587161"/>
    <nd ref="287796882"/>
    <nd ref="283587162"/>
    <nd ref="287796883"/>
    <nd ref="283587163"/>
    <nd ref="287796884"/>
    <nd ref="283587164"/>
    <nd ref="287796987"/>
    <nd ref="283587721"/>
    <nd ref="283587166"/>
    <nd ref="283587167"/>
    <nd ref="287796886"/>
    <nd ref="283587722"/>
    <nd ref="283587169"/>
    <nd ref="964527181"/>
    <tag k="highway" v="motorway"/>
    <tag k="int_ref" v="E 90"/>
    <tag k="lanes" v="2"/>
    <tag k="name" v="Aυτοκινητόδρομος A2 (Εγνατία Οδός)"/>
    <tag k="name:de" v="Autobahn A2 (Egnatia Odos)"/>
    <tag k="name:el" v="Aυτοκινητόδρομος A2 (Εγνατία Οδός)"/>
    <tag k="name:en" v="Motorway A2 (Egnatia Odos)"/>
    <tag k="name:fr" v="Autoroute A2 (Egnatia Odos)"/>
    <tag k="oneway" v="yes"/>
    <tag k="ref" v="A2"/>
  </way>
  <way id="26274510" version="20" timestamp="2010-10-27T21:59:25Z" uid="14235" user="AiNikolas" changeset="6202596"/>
  <way id="26274677" version="3" timestamp="2008-09-14T14:13:26Z" uid="6975" user="ulfl" changeset="640534">
    <nd ref="287798627"/>
    <nd ref="287798628"/>
    <nd ref="287798629"/>
    <nd ref="287798630"/>
    <nd ref="287798627"/>
    <tag k="addr:housenumber" v="82"/>
    <tag k="addr:postcode" v="1140"/>
    <tag k="amenity" v="kindergarten"/>
    <tag k="building" v="yes"/>
    <tag k="name" v="Kindergarten"/>
  </way>
  <way id="26274677" version="4" timestamp="2008-12-23T19:22:07Z" uid="54806" user="_al" changeset="569897">
    <nd ref="287798627"/>
    <nd ref="287798628"/>
    <nd ref="287798629"/>
    <nd ref="287798630"/>
    <nd ref="287798627"/>
    <tag k="addr:city" v="Wien"/>
    <tag k="addr:housenumber" v="82"/>
    <tag k="addr:postcode" v="1140"/>
    <tag k="addr:street" v="Hauptstraße"/>
    <tag k="amenity" v="kindergarten"/>
    <tag k="building" v="yes"/>
    <tag k="created_by" v="Potlatch 0.10f"/>
    <tag k="name" v="Kindergarten"/>
  </way>
  <way id="26274677" version="5" timestamp="2010-06-17T08:16:31Z" uid="54806" user="_al" changeset="5006841">
    <nd ref="287798627"/>
    <nd ref="287798628"/>
    <nd ref="287798629"/>
    <nd ref="287798630"/>
    <nd ref="287798627"/>
    <tag k="addr:city" v="Wien"/>
    <tag k="addr:country" v="AT"/>
    <tag k="addr:housenumber" v="82"/>
    <tag k="addr:postcode" v="1140"/>
    <tag k="addr:street" v="Hauptstraße"/>
    <tag k="amenity" v="kindergarten"/>
    <tag k="building" v="yes"/>
    <tag k="name" v="Kindergarten"/>
  </way>
  <way id="26274677" version="6" timestamp="2011-11-12T15:33:19Z" uid="54806" user="_al" changeset="9805102">
    <nd ref="287798627"/>
    <nd ref="1500072072"/>
    <nd ref="1500072144"/>
    <nd ref="1500071996"/>
    <nd ref="1500072093"/>
    <nd ref="287798628"/>
    <nd ref="287798629"/>
    <nd ref="1500072159"/>
    <nd ref="1500072088"/>
    <nd ref="1500072155"/>
    <nd ref="1500072167"/>
    <nd ref="287798630"/>
    <nd ref="287798627"/>
    <tag k="addr:city" v="Wien"/>
    <tag k="addr:country" v="AT"/>
    <tag k="addr:housenumber" v="82"/>
    <tag k="addr:postcode" v="1140"/>
    <tag k="addr:street" v="Hauptstraße"/>
    <tag k="amenity" v="kindergarten"/>
    <tag k="building" v="yes"/>
    <tag k="name" v="Kindergarten"/>
    <tag k="source" v="geoimage.at"/>
  </way>
  <way id="26274685" version="4" timestamp="2010-03-27T23:56:58Z" uid="20587" user="balrog-kun" changeset="4250871">
    <nd ref="65494849"/>
    <nd ref="65399856"/>
    <nd ref="65494851"/>
    <nd ref="65399864"/>
    <nd ref="65494852"/>
    <nd ref="65494854"/>
    <nd ref="65494858"/>
    <nd ref="65494861"/>
    <nd ref="65494863"/>
    <tag k="created_by" v="Potlatch 0.10b"/>
    <tag k="highway" v="secondary"/>
    <tag k="name" v="Harry Road"/>
    <tag k="tiger:cfcc" v="A41"/>
    <tag k="tiger:county" v="Santa Clara, CA"/>
    <tag k="tiger:name_base" v="Harry"/>
    <tag k="tiger:name_type" v="Rd"/>
    <tag k="tiger:reviewed" v="no"/>
    <tag k="tiger:separated" v="no"/>
    <tag k="tiger:source" v="tiger_import_dch_v0.6_20070809"/>
    <tag k="tiger:tlid" v="122989467:122979099"/>
  </way>
  <way id="26274693" version="5" timestamp="2010-05-17T06:57:55Z" uid="4467" user="Rosscoe" changeset="4726069">
    <nd ref="287798723"/>
    <nd ref="287798724"/>
    <nd ref="287798783"/>
    <nd ref="287798797"/>
    <nd ref="270717107"/>
    <tag k="highway" v="residential"/>
    <tag k="maxspeed" v="50"/>
    <tag k="name" v="Edna Avenue"/>
  </way>
  <way id="26274700" version="7" timestamp="2010-05-18T06:18:58Z" uid="30201" user="rrankin" changeset="4735630">
    <nd ref="287798756"/>
    <nd ref="287798908"/>
    <nd ref="270716477"/>
    <nd ref="288580522"/>
    <nd ref="288580470"/>
    <nd ref="288580525"/>
    <nd ref="288580353"/>
    <nd ref="270716699"/>
    <tag k="highway" v="residential"/>
    <tag k="maxspeed" v="50"/>
    <tag k="name" v="Springall Avenue"/>
  </way>
  <way id="26274712" version="3" timestamp="2010-05-18T06:19:01Z" uid="30201" user="rrankin" changeset="4735630"/>
  <way id="26274742" version="4" timestamp="2009-12-12T06:51:17Z" uid="4467" user="Rosscoe" changeset="3353870">
    <nd ref="69739303"/>
    <nd ref="69739305"/>
    <nd ref="69739306"/>
    <nd ref="587617569"/>
    <nd ref="69739307"/>
    <nd ref="69739308"/>
    <nd ref="69793035"/>
    <nd ref="69791703"/>
    <tag k="highway" v="tertiary"/>
    <tag k="name" v="Roland Avenue"/>
    <tag k="source" v="yahoo"/>
    <tag k="source:name" v="survey"/>
  </way>
  <way id="26274802" version="10" timestamp="2010-06-29T19:04:38Z" uid="74617" user="JohnSmith" changeset="5108182">
    <nd ref="287799825"/>
    <nd ref="287799832"/>
    <nd ref="287799852"/>
    <nd ref="287799916"/>
    <nd ref="287799825"/>
    <tag k="area" v="yes"/>
    <tag k="fixme" v="sport=football is ambiguous, see http://wiki.osm.org/wiki/Football for more details"/>
    <tag k="source" v="uhul:ortofoto"/>
    <tag k="sport" v="football"/>
  </way>
  <way id="26274802" version="11" timestamp="2011-02-08T05:10:04Z" uid="3516" user="BiIbo" changeset="7223185">
    <nd ref="287799825"/>
    <nd ref="287799832"/>
    <nd ref="287799852"/>
    <nd ref="287799916"/>
    <nd ref="287799825"/>
    <tag k="leisure" v="pitch"/>
    <tag k="source" v="uhul:ortofoto"/>
    <tag k="sport" v="soccer"/>
  </way>
  <way id="26274853" version="5" timestamp="2010-04-05T11:14:45Z" uid="74617" user="JohnSmith" changeset="4331807">
    <nd ref="287800810"/>
    <nd ref="287801142"/>
    <tag k="highway" v="residential"/>
    <tag k="name" v="Term Street"/>
    <tag k="source" v="yahoo"/>
    <tag k="source:name" v="survey"/>
  </way>
  <way id="26274853" version="6" timestamp="2010-07-09T03:16:48Z" uid="74617" user="JohnSmith" changeset="5170739">
    <nd ref="287800810"/>
    <nd ref="287801142"/>
    <tag k="highway" v="residential"/>
    <tag k="maxspeed" v="50"/>
    <tag k="maxspeed:source" v="default residential speed limit in Australia"/>
    <tag k="name" v="Term Street"/>
    <tag k="source" v="yahoo"/>
    <tag k="source:name" v="survey"/>
  </way>
  <way id="26274853" version="7" timestamp="2012-01-17T02:26:02Z" uid="147510" user="woodpeck_fixbot" changeset="10413896">
    <nd ref="287800810"/>
    <nd ref="287801142"/>
    <tag k="highway" v="residential"/>
    <tag k="name" v="Term Street"/>
    <tag k="source" v="yahoo"/>
    <tag k="source:name" v="survey"/>
  </way>
  <way id="26274861" version="2" timestamp="2010-07-09T02:54:35Z" uid="74617" user="JohnSmith" changeset="5170739">
    <nd ref="69996896"/>
    <nd ref="69997054"/>
    <nd ref="69917931"/>
    <nd ref="69917933"/>
    <nd ref="69997108"/>
    <nd ref="69997213"/>
    <nd ref="69998309"/>
    <nd ref="69917934"/>
    <nd ref="68954090"/>
    <tag k="highway" v="residential"/>
    <tag k="maxspeed" v="50"/>
    <tag k="maxspeed:source" v="default residential speed limit in Australia"/>
    <tag k="name" v="North Avenue"/>
    <tag k="source" v="yahoo"/>
    <tag k="source:name" v="survey"/>
  </way>
  <way id="26274861" version="3" timestamp="2012-01-17T02:26:05Z" uid="147510" user="woodpeck_fixbot" changeset="10413896">
    <nd ref="69996896"/>
    <nd ref="69997054"/>
    <nd ref="69917931"/>
    <nd ref="69917933"/>
    <nd ref="69997108"/>
    <nd ref="69997213"/>
    <nd ref="69998309"/>
    <nd ref="69917934"/>
    <nd ref="68954090"/>
    <tag k="highway" v="residential"/>
    <tag k="name" v="North Avenue"/>
    <tag k="source" v="yahoo"/>
    <tag k="source:name" v="survey"/>
  </way>
  <way id="26274878" version="2" timestamp="2008-11-02T18:35:41Z" uid="65442" user="Trip Tucker" changeset="662261">
    <nd ref="266497024"/>
    <nd ref="287801231"/>
    <nd ref="287801232"/>
    <nd ref="287801233"/>
    <nd ref="287801234"/>
    <nd ref="287801235"/>
    <nd ref="287801236"/>
    <nd ref="287801237"/>
    <nd ref="287801238"/>
    <nd ref="287801239"/>
    <nd ref="287801240"/>
    <nd ref="287800659"/>
    <tag k="bicycle" v="no"/>
    <tag k="created_by" v="Potlatch 0.10f"/>
    <tag k="highway" v="footway"/>
  </way>
  <way id="26274878" version="3" timestamp="2008-11-04T11:24:36Z" uid="9581" user="Lobelt" changeset="677944">
    <nd ref="280707628"/>
    <nd ref="287801231"/>
    <nd ref="287801232"/>
    <nd ref="287801233"/>
    <nd ref="287801234"/>
    <nd ref="287801235"/>
    <nd ref="287801236"/>
    <nd ref="287801237"/>
    <nd ref="287801238"/>
    <nd ref="287801239"/>
    <nd ref="287801240"/>
    <nd ref="287800659"/>
    <tag k="bicycle" v="no"/>
    <tag k="created_by" v="Potlatch 0.10f"/>
    <tag k="highway" v="footway"/>
  </way>
  <way id="26274878" version="4" timestamp="2008-11-09T15:42:34Z" uid="24697" user="frabu" changeset="724662">
    <nd ref="280707628"/>
    <nd ref="287801231"/>
    <nd ref="287801232"/>
    <nd ref="287801233"/>
    <nd ref="287801234"/>
    <nd ref="287801235"/>
    <nd ref="287801236"/>
    <nd ref="287801237"/>
    <nd ref="287801238"/>
    <nd ref="287801239"/>
    <nd ref="287801240"/>
    <nd ref="287800659"/>
    <tag k="bicycle" v="no"/>
    <tag k="created_by" v="Potlatch 0.10f"/>
    <tag k="highway" v="path"/>
  </way>
  <way id="26274878" version="5" timestamp="2008-11-10T15:35:48Z" uid="9581" user="Lobelt" changeset="728305">
    <nd ref="280707628"/>
    <nd ref="287801231"/>
    <nd ref="287801232"/>
    <nd ref="287801233"/>
    <nd ref="287801234"/>
    <nd ref="287801235"/>
    <nd ref="287801236"/>
    <nd ref="287801237"/>
    <nd ref="287801238"/>
    <nd ref="287801239"/>
    <nd ref="287801240"/>
    <nd ref="287800659"/>
    <tag k="bicycle" v="no"/>
    <tag k="created_by" v="Potlatch 0.10f"/>
    <tag k="highway" v="footway"/>
  </way>
  <way id="26274878" version="6" timestamp="2009-08-26T06:52:09Z" uid="69628" user="vsandre" changeset="2264241">
    <nd ref="280707628"/>
    <nd ref="287801231"/>
    <nd ref="287801232"/>
    <nd ref="474360802"/>
    <nd ref="287801233"/>
    <nd ref="287801234"/>
    <nd ref="287801235"/>
    <nd ref="287801236"/>
    <nd ref="287801237"/>
    <nd ref="287801238"/>
    <nd ref="287801239"/>
    <nd ref="287801240"/>
    <nd ref="287800659"/>
    <tag k="bicycle" v="no"/>
    <tag k="highway" v="footway"/>
  </way>
  <way id="26274878" version="7" timestamp="2009-10-24T14:32:12Z" uid="24697" user="frabu" changeset="2938320">
    <nd ref="280707628"/>
    <nd ref="287801231"/>
    <nd ref="287801232"/>
    <nd ref="474360802"/>
    <nd ref="287801233"/>
    <nd ref="287801234"/>
    <nd ref="287801235"/>
    <nd ref="287801236"/>
    <nd ref="287801237"/>
    <nd ref="287801238"/>
    <nd ref="287801239"/>
    <nd ref="287801240"/>
    <nd ref="287800659"/>
    <tag k="bicycle" v="no"/>
    <tag k="highway" v="path"/>
  </way>
  <way id="26274878" version="8" timestamp="2009-11-01T21:30:31Z" uid="151139" user="frari" changeset="3011623">
    <nd ref="280707628"/>
    <nd ref="287801231"/>
    <nd ref="287801232"/>
    <nd ref="474360802"/>
    <nd ref="287801233"/>
    <nd ref="550464865"/>
    <nd ref="287801234"/>
    <nd ref="287801235"/>
    <nd ref="287801236"/>
    <nd ref="287801237"/>
    <nd ref="287801238"/>
    <nd ref="287801239"/>
    <nd ref="287801240"/>
    <nd ref="287800659"/>
    <tag k="bicycle" v="no"/>
    <tag k="highway" v="path"/>
  </way>
  <way id="26274879" version="4" timestamp="2010-07-15T00:12:39Z" uid="4467" user="Rosscoe" changeset="5222916">
    <nd ref="287801241"/>
    <nd ref="287801242"/>
    <nd ref="287802474"/>
    <nd ref="287802501"/>
    <nd ref="287802476"/>
    <nd ref="287802502"/>
    <nd ref="287801247"/>
    <nd ref="287801249"/>
    <nd ref="287801241"/>
    <tag k="leisure" v="park"/>
    <tag k="name" v="Max Johnson Reserve"/>
    <tag k="old_name" v="Max Johnston Reserve"/>
    <tag k="source" v="yahoo"/>
    <tag k="source:name" v="survey"/>
  </way>
  <way id="26274992" version="3" timestamp="2010-07-08T03:37:05Z" uid="74617" user="JohnSmith" changeset="5163091">
    <nd ref="287803258"/>
    <nd ref="287803259"/>
    <nd ref="287803260"/>
    <nd ref="287803531"/>
    <nd ref="287803262"/>
    <tag k="highway" v="residential"/>
    <tag k="maxspeed" v="50"/>
    <tag k="maxspeed:source" v="default residential speed limit in Australia"/>
    <tag k="name" v="Stamford Close"/>
  </way>
  <way id="26274992" version="4" timestamp="2012-01-17T02:26:06Z" uid="147510" user="woodpeck_fixbot" changeset="10413896">
    <nd ref="287803258"/>
    <nd ref="287803259"/>
    <nd ref="287803260"/>
    <nd ref="287803531"/>
    <nd ref="287803262"/>
    <tag k="highway" v="residential"/>
    <tag k="name" v="Stamford Close"/>
  </way>
  <way id="26274359" version="5" timestamp="2012-07-20T02:53:12Z" uid="722137" user="OSMF Redaction Account" changeset="12358746"/>
  <way id="26274360" version="3" timestamp="2012-07-20T02:53:10Z" uid="722137" user="OSMF Redaction Account" changeset="12358746"/>
  <way id="26274361" version="3" timestamp="2012-07-20T02:53:10Z" uid="722137" user="OSMF Redaction Account" changeset="12358746"/>
  <way id="26274362" version="4" timestamp="2012-07-20T02:53:12Z" uid="722137" user="OSMF Redaction Account" changeset="12358746"/>
  <way id="26274363" version="4" timestamp="2012-07-20T01:05:44Z" uid="722137" user="OSMF Redaction Account" changeset="12354252"/>
  <way id="26274693" version="6" timestamp="2012-07-19T13:10:31Z" uid="722137" user="OSMF Redaction Account" changeset="12328189">
    <nd ref="287798723"/>
    <nd ref="287798724"/>
    <nd ref="287798783"/>
    <nd ref="287798797"/>
    <tag k="highway" v="residential"/>
    <tag k="maxspeed" v="50"/>
    <tag k="name" v="Edna Avenue"/>
  </way>
  <way id="26274693" version="7" timestamp="2012-08-20T07:03:39Z" uid="77586" user="Map Star" changeset="12792093">
    <nd ref="287798723"/>
    <nd ref="287798724"/>
    <nd ref="287798783"/>
    <nd ref="270717107"/>
    <tag k="highway" v="residential"/>
    <tag k="maxspeed" v="50"/>
    <tag k="name" v="Edna Avenue"/>
  </way>
  <way id="26274700" version="8" timestamp="2012-07-19T13:10:31Z" uid="722137" user="OSMF Redaction Account" changeset="12328189">
    <nd ref="287798908"/>
    <nd ref="270716477"/>
    <nd ref="288580522"/>
    <nd ref="288580470"/>
    <nd ref="288580525"/>
    <nd ref="288580353"/>
    <nd ref="270716699"/>
    <tag k="highway" v="residential"/>
    <tag k="maxspeed" v="50"/>
    <tag k="name" v="Springall Avenue"/>
  </way>
  <way id="26274742" version="5" timestamp="2012-07-19T10:34:12Z" uid="722137" user="OSMF Redaction Account" changeset="12318790">
    <nd ref="69739303"/>
    <nd ref="69739305"/>
    <nd ref="69739306"/>
    <nd ref="69739307"/>
    <nd ref="69739308"/>
    <nd ref="69793035"/>
    <nd ref="69791703"/>
    <tag k="highway" v="tertiary"/>
    <tag k="name" v="Roland Avenue"/>
    <tag k="source" v="yahoo"/>
    <tag k="source:name" v="survey"/>
  </way>
  <way id="26274878" version="9" timestamp="2012-07-18T13:44:01Z" uid="722137" user="OSMF Redaction Account" changeset="12283724">
    <nd ref="287801231"/>
    <nd ref="287801232"/>
    <nd ref="474360802"/>
    <nd ref="287801233"/>
    <nd ref="550464865"/>
    <nd ref="287801234"/>
    <nd ref="287801235"/>
    <nd ref="287801236"/>
    <nd ref="287801237"/>
    <nd ref="287801238"/>
    <nd ref="287801239"/>
    <nd ref="287801240"/>
    <nd ref="287800659"/>
    <tag k="bicycle" v="no"/>
    <tag k="highway" v="path"/>
  </way>
  <way id="26274878" version="10" timestamp="2012-08-03T14:48:10Z" uid="24697" user="frabu" changeset="12599144">
    <nd ref="287801231"/>
    <nd ref="287801232"/>
    <nd ref="474360802"/>
    <nd ref="287801233"/>
    <nd ref="550464865"/>
    <nd ref="287801234"/>
    <nd ref="287801235"/>
    <nd ref="287801236"/>
    <nd ref="287801237"/>
    <nd ref="287801238"/>
    <nd ref="287801239"/>
    <nd ref="287801240"/>
    <nd ref="1850007855"/>
    <nd ref="287800659"/>
    <tag k="bicycle" v="no"/>
    <tag k="highway" v="path"/>
  </way>
  <way id="26274878" version="11" timestamp="2012-08-06T18:22:13Z" uid="321840" user="Natura" changeset="12636812">
    <nd ref="280707628"/>
    <nd ref="287801231"/>
    <nd ref="287801232"/>
    <nd ref="474360802"/>
    <nd ref="287801233"/>
    <nd ref="550464865"/>
    <nd ref="287801234"/>
    <nd ref="287801235"/>
    <nd ref="287801236"/>
    <nd ref="287801237"/>
    <nd ref="287801238"/>
    <nd ref="287801239"/>
    <nd ref="287801240"/>
    <nd ref="1850007855"/>
    <nd ref="287800659"/>
    <tag k="bicycle" v="no"/>
    <tag k="highway" v="path"/>
  </way>
</osm>
