<?xml version='1.0' encoding='UTF-8'?>
<osm version="0.6" generator="libosmium/2.20.0">
  <way id="26498030" version="2" timestamp="2008-11-26T18:17:21Z" uid="6975" user="ulfl" changeset="797054">
    <nd ref="290424185"/>
    <nd ref="256097784"/>
    <nd ref="256097785"/>
    <nd ref="256097786"/>
    <nd ref="256097787"/>
    <nd ref="256097789"/>
    <tag k="highway" v="service"/>
    <tag k="lcn" v="yes"/>
    <tag k="maxspeed" v="20"/>
    <tag k="name" v="Seilerweg"/>
    <tag k="source" v="gps"/>
    <tag k="surface" v="asphalt"/>
  </way>
  <way id="26498030" version="3" timestamp="2009-07-25T13:42:24Z" uid="13565" user="hadhuey" changeset="1934433">
    <nd ref="447834212"/>
    <nd ref="290424185"/>
    <nd ref="256097784"/>
    <nd ref="256097785"/>
    <nd ref="256097786"/>
    <nd ref="256097787"/>
    <nd ref="256097789"/>
    <tag k="highway" v="service"/>
    <tag k="lcn" v="yes"/>
    <tag k="maxspeed" v="20"/>
    <tag k="name" v="Seilerweg"/>
    <tag k="source" v="gps"/>
    <tag k="surface" v="asphalt"/>
  </way>
  <way id="26498030" version="4" timestamp="2011-03-14T09:17:36Z" uid="72509" user="heineken" changeset="7554137">
    <nd ref="447834212"/>
    <nd ref="290424185"/>
    <tag k="highway" v="service"/>
    <tag k="lcn" v="yes"/>
    <tag k="maxspeed" v="20"/>
    <tag k="name" v="Seilerweg"/>
    <tag k="source" v="gps"/>
    <tag k="surface" v="asphalt"/>
  </way>
  <way id="26498032" version="2" timestamp="2010-03-27T23:59:34Z" uid="20587" user="balrog-kun" changeset="4250871">
    <nd ref="290424188"/>
    <nd ref="290424187"/>
    <tag k="bridge" v="yes"/>
    <tag k="highway" v="tertiary"/>
    <tag k="layer" v="2"/>
    <tag k="name" v="Reyes Adobe Road"/>
    <tag k="tiger:cfcc" v="A41"/>
    <tag k="tiger:county" v="Los Angeles, CA"/>
    <tag k="tiger:name_base" v="Reyes Adobe"/>
    <tag k="tiger:name_type" v="Rd"/>
    <tag k="tiger:separated" v="no"/>
    <tag k="tiger:source" v="tiger_import_dch_v0.6_20070809"/>
    <tag k="tiger:tlid" v="141721250:141770964:141721257:142041001:142041004:142041007:142041008:141721672:141721677:141721680:141721683:142047581:142047582:142044803:142668018:141721290"/>
    <tag k="tiger:zip_left" v="91301"/>
    <tag k="tiger:zip_right" v="91301"/>
  </way>
  <way id="26498032" version="3" timestamp="2011-07-22T05:22:33Z" uid="4951" user="PeterIto" changeset="8794580">
    <nd ref="290424188"/>
    <nd ref="290424187"/>
    <tag k="bridge" v="yes"/>
    <tag k="highway" v="tertiary"/>
    <tag k="layer" v="1"/>
    <tag k="name" v="Reyes Adobe Road"/>
    <tag k="tiger:cfcc" v="A41"/>
    <tag k="tiger:county" v="Los Angeles, CA"/>
    <tag k="tiger:name_base" v="Reyes Adobe"/>
    <tag k="tiger:name_type" v="Rd"/>
    <tag k="tiger:separated" v="no"/>
    <tag k="tiger:source" v="tiger_import_dch_v0.6_20070809"/>
    <tag k="tiger:tlid" v="141721250:141770964:141721257:142041001:142041004:142041007:142041008:141721672:141721677:141721680:141721683:142047581:142047582:142044803:142668018:141721290"/>
    <tag k="tiger:zip_left" v="91301"/>
    <tag k="tiger:zip_right" v="91301"/>
  </way>
  <way id="26498033" version="2" timestamp="2010-03-27T23:59:35Z" uid="20587" user="balrog-kun" changeset="4250871">
    <nd ref="290424187"/>
    <nd ref="122491651"/>
    <nd ref="123085357"/>
    <nd ref="122604762"/>
    <tag k="highway" v="tertiary"/>
    <tag k="name" v="Reyes Adobe Road"/>
    <tag k="tiger:cfcc" v="A41"/>
    <tag k="tiger:county" v="Los Angeles, CA"/>
    <tag k="tiger:name_base" v="Reyes Adobe"/>
    <tag k="tiger:name_type" v="Rd"/>
    <tag k="tiger:reviewed" v="no"/>
    <tag k="tiger:separated" v="no"/>
    <tag k="tiger:source" v="tiger_import_dch_v0.6_20070809"/>
    <tag k="tiger:tlid" v="141721250:141770964:141721257:142041001:142041004:142041007:142041008:141721672:141721677:141721680:141721683:142047581:142047582:142044803:142668018:141721290"/>
    <tag k="tiger:zip_left" v="91301"/>
    <tag k="tiger:zip_right" v="91301"/>
  </way>
  <way id="26498035" version="4" timestamp="2008-11-26T18:17:10Z" uid="6975" user="ulfl" changeset="797054">
    <nd ref="290424197"/>
    <nd ref="290424185"/>
    <tag k="bridge" v="yes"/>
    <tag k="highway" v="service"/>
    <tag k="layer" v="1"/>
    <tag k="lcn" v="yes"/>
    <tag k="maxspeed" v="20"/>
    <tag k="name" v="Seilerbrücke"/>
    <tag k="source" v="gps"/>
    <tag k="surface" v="asphalt"/>
  </way>
  <way id="26498035" version="5" timestamp="2009-07-25T13:42:22Z" uid="13565" user="hadhuey" changeset="1934433">
    <nd ref="290424197"/>
    <nd ref="447834212"/>
    <tag k="bridge" v="yes"/>
    <tag k="highway" v="service"/>
    <tag k="layer" v="1"/>
    <tag k="lcn" v="yes"/>
    <tag k="maxspeed" v="20"/>
    <tag k="name" v="Seilerbrücke"/>
    <tag k="source" v="gps"/>
    <tag k="surface" v="asphalt"/>
  </way>
  <way id="26498161" version="2" timestamp="2010-04-26T07:44:53Z" uid="43967" user="railsnail" changeset="4529179">
    <nd ref="290425309"/>
    <nd ref="290425313"/>
    <nd ref="290425317"/>
    <nd ref="290425320"/>
    <nd ref="290425322"/>
    <nd ref="290425324"/>
    <tag k="highway" v="residential"/>
  </way>
  <way id="26498161" version="3" timestamp="2010-04-26T07:45:02Z" uid="43967" user="railsnail" changeset="4529179">
    <nd ref="290425309"/>
    <nd ref="290425313"/>
    <nd ref="290425317"/>
    <nd ref="290425320"/>
    <nd ref="290425322"/>
    <nd ref="290425324"/>
    <tag k="highway" v="unclassified"/>
    <tag k="name" v="Bahnhofstraße / Via Stazione"/>
    <tag k="name:de" v="Bahnhofstraße"/>
    <tag k="name:it" v="Via Stazione"/>
  </way>
  <way id="26498161" version="4" timestamp="2010-04-26T07:45:33Z" uid="43967" user="railsnail" changeset="4529179">
    <nd ref="290425309"/>
    <nd ref="290425313"/>
    <nd ref="290425317"/>
    <nd ref="706987561"/>
    <nd ref="290425320"/>
    <nd ref="290425322"/>
    <nd ref="290425324"/>
    <tag k="highway" v="unclassified"/>
    <tag k="name" v="Bahnhofstraße / Via Stazione"/>
    <tag k="name:de" v="Bahnhofstraße"/>
    <tag k="name:it" v="Via Stazione"/>
  </way>
  <way id="26498161" version="5" timestamp="2010-04-26T07:45:41Z" uid="43967" user="railsnail" changeset="4529179">
    <nd ref="290425309"/>
    <nd ref="290425313"/>
    <nd ref="290425317"/>
    <nd ref="706987561"/>
    <nd ref="290425320"/>
    <nd ref="290425322"/>
    <nd ref="290425324"/>
    <tag k="highway" v="residential"/>
    <tag k="name" v="Bahnhofstraße / Via Stazione"/>
    <tag k="name:de" v="Bahnhofstraße"/>
    <tag k="name:it" v="Via Stazione"/>
  </way>
  <way id="26498161" version="6" timestamp="2010-04-26T07:46:23Z" uid="43967" user="railsnail" changeset="4529179">
    <nd ref="290425309"/>
    <nd ref="290425313"/>
    <nd ref="290425317"/>
    <nd ref="706987561"/>
    <nd ref="290425320"/>
    <nd ref="290425322"/>
    <nd ref="706988855"/>
    <nd ref="290425324"/>
    <tag k="highway" v="residential"/>
    <tag k="name" v="Bahnhofstraße / Via Stazione"/>
    <tag k="name:de" v="Bahnhofstraße"/>
    <tag k="name:it" v="Via Stazione"/>
  </way>
  <way id="26498161" version="7" timestamp="2010-04-26T08:45:51Z" uid="43967" user="railsnail" changeset="4529563">
    <nd ref="290425309"/>
    <nd ref="290425313"/>
    <nd ref="290425317"/>
    <nd ref="706987561"/>
    <nd ref="290425320"/>
    <nd ref="290425322"/>
    <nd ref="290425324"/>
    <tag k="highway" v="residential"/>
    <tag k="name" v="Bahnhofstraße / Via Stazione"/>
    <tag k="name:de" v="Bahnhofstraße"/>
    <tag k="name:it" v="Via Stazione"/>
  </way>
  <way id="26498161" version="8" timestamp="2010-04-26T08:45:58Z" uid="43967" user="railsnail" changeset="4529563">
    <nd ref="290425309"/>
    <nd ref="290425313"/>
    <nd ref="290425317"/>
    <nd ref="706987561"/>
    <nd ref="290425320"/>
    <nd ref="290425322"/>
    <nd ref="707038458"/>
    <nd ref="290425324"/>
    <tag k="highway" v="residential"/>
    <tag k="name" v="Bahnhofstraße / Via Stazione"/>
    <tag k="name:de" v="Bahnhofstraße"/>
    <tag k="name:it" v="Via Stazione"/>
  </way>
  <way id="26498161" version="9" timestamp="2010-04-26T08:47:06Z" uid="43967" user="railsnail" changeset="4529563">
    <nd ref="27414556"/>
    <nd ref="706987561"/>
    <nd ref="290425320"/>
    <nd ref="290425322"/>
    <nd ref="707038458"/>
    <nd ref="290425324"/>
    <tag k="highway" v="residential"/>
    <tag k="name" v="Bahnhofstraße / Via Stazione"/>
    <tag k="name:de" v="Bahnhofstraße"/>
    <tag k="name:it" v="Via Stazione"/>
  </way>
  <way id="26498161" version="10" timestamp="2010-08-17T14:43:10Z" uid="84681" user="SK53" changeset="5518399">
    <nd ref="27414556"/>
    <nd ref="706987561"/>
    <nd ref="290425320"/>
    <tag k="highway" v="residential"/>
    <tag k="name" v="Bahnhofstraße / Via Stazione"/>
    <tag k="name:de" v="Bahnhofstraße"/>
    <tag k="name:it" v="Via Stazione"/>
  </way>
  <way id="26498161" version="11" timestamp="2012-03-02T19:11:25Z" uid="606933" user="immaterial" changeset="10851242">
    <nd ref="27414556"/>
    <nd ref="706987561"/>
    <nd ref="290425320"/>
    <tag k="highway" v="residential"/>
    <tag k="name" v="Bahnhofstraße - Via Stazione"/>
    <tag k="name:de" v="Bahnhofstraße"/>
    <tag k="name:it" v="Via Stazione"/>
  </way>
  <way id="26498242" version="2" timestamp="2009-12-27T09:10:31Z" uid="43967" user="railsnail" changeset="3460669">
    <nd ref="267508963"/>
    <nd ref="290426327"/>
    <nd ref="290426328"/>
    <nd ref="290426329"/>
    <nd ref="290426330"/>
    <nd ref="290426331"/>
    <nd ref="290426332"/>
    <nd ref="290426333"/>
    <nd ref="290426334"/>
    <nd ref="290426335"/>
    <nd ref="290426336"/>
    <nd ref="290426339"/>
    <nd ref="290426344"/>
    <nd ref="290426347"/>
    <nd ref="290426351"/>
    <nd ref="290426355"/>
    <nd ref="290426360"/>
    <nd ref="290426362"/>
    <nd ref="290426363"/>
    <nd ref="290426365"/>
    <nd ref="599914945"/>
    <nd ref="290426367"/>
    <nd ref="599914946"/>
    <nd ref="285924231"/>
    <tag k="highway" v="cycleway"/>
    <tag k="name" v="Drauradweg"/>
  </way>
  <way id="26498242" version="3" timestamp="2009-12-27T09:10:38Z" uid="43967" user="railsnail" changeset="3460669">
    <nd ref="267508963"/>
    <nd ref="290426327"/>
    <nd ref="290426328"/>
    <nd ref="290426329"/>
    <nd ref="290426330"/>
    <nd ref="290426331"/>
    <nd ref="290426332"/>
    <nd ref="290426333"/>
    <nd ref="290426334"/>
    <nd ref="290426335"/>
    <nd ref="290426336"/>
    <nd ref="290426339"/>
    <nd ref="290426344"/>
    <nd ref="290426347"/>
    <nd ref="290426351"/>
    <nd ref="290426355"/>
    <nd ref="290426360"/>
    <nd ref="290426362"/>
    <nd ref="290426363"/>
    <nd ref="599914947"/>
    <nd ref="290426365"/>
    <nd ref="599914945"/>
    <nd ref="290426367"/>
    <nd ref="599914946"/>
    <nd ref="285924231"/>
    <tag k="highway" v="cycleway"/>
    <tag k="name" v="Drauradweg"/>
  </way>
  <way id="26498242" version="4" timestamp="2009-12-27T09:10:48Z" uid="43967" user="railsnail" changeset="3460669">
    <nd ref="267508963"/>
    <nd ref="290426327"/>
    <nd ref="290426328"/>
    <nd ref="290426329"/>
    <nd ref="290426330"/>
    <nd ref="290426331"/>
    <nd ref="290426332"/>
    <nd ref="290426333"/>
    <nd ref="290426334"/>
    <nd ref="290426335"/>
    <nd ref="290426336"/>
    <nd ref="290426339"/>
    <nd ref="290426344"/>
    <nd ref="290426347"/>
    <nd ref="290426351"/>
    <nd ref="290426355"/>
    <nd ref="290426360"/>
    <nd ref="290426362"/>
    <nd ref="599914952"/>
    <nd ref="290426363"/>
    <nd ref="599914947"/>
    <nd ref="290426365"/>
    <nd ref="599914945"/>
    <nd ref="290426367"/>
    <nd ref="599914946"/>
    <nd ref="285924231"/>
    <tag k="highway" v="cycleway"/>
    <tag k="name" v="Drauradweg"/>
  </way>
  <way id="26498242" version="5" timestamp="2009-12-27T09:12:17Z" uid="43967" user="railsnail" changeset="3460669">
    <nd ref="267508963"/>
    <nd ref="290426327"/>
    <nd ref="290426328"/>
    <nd ref="290426329"/>
    <nd ref="290426330"/>
    <nd ref="290426331"/>
    <nd ref="290426332"/>
    <nd ref="290426333"/>
    <nd ref="290426334"/>
    <nd ref="290426335"/>
    <nd ref="290426336"/>
    <nd ref="290426339"/>
    <nd ref="290426344"/>
    <nd ref="290426347"/>
    <nd ref="290426351"/>
    <nd ref="290426355"/>
    <nd ref="290426360"/>
    <nd ref="599915178"/>
    <nd ref="290426362"/>
    <nd ref="599914952"/>
    <nd ref="290426363"/>
    <nd ref="599914947"/>
    <nd ref="290426365"/>
    <nd ref="599914945"/>
    <nd ref="290426367"/>
    <nd ref="599914946"/>
    <nd ref="285924231"/>
    <tag k="highway" v="cycleway"/>
    <tag k="name" v="Drauradweg"/>
  </way>
  <way id="26498242" version="6" timestamp="2010-03-20T19:08:53Z" uid="29765" user="Glg11" changeset="4183508">
    <nd ref="267508963"/>
    <nd ref="290426327"/>
    <nd ref="290426328"/>
    <nd ref="290426329"/>
    <nd ref="290426330"/>
    <nd ref="290426331"/>
    <nd ref="290426332"/>
    <nd ref="290426333"/>
    <nd ref="290426334"/>
    <nd ref="290426335"/>
    <nd ref="290426336"/>
    <nd ref="290426339"/>
    <nd ref="290426344"/>
    <nd ref="290426347"/>
    <nd ref="290426351"/>
    <nd ref="290426355"/>
    <nd ref="290426360"/>
    <nd ref="599915178"/>
    <nd ref="290426362"/>
    <nd ref="599914952"/>
    <nd ref="290426363"/>
    <nd ref="599914947"/>
    <nd ref="290426365"/>
    <nd ref="599914945"/>
    <nd ref="290426367"/>
    <nd ref="670716297"/>
    <nd ref="599914946"/>
    <nd ref="285924231"/>
    <tag k="highway" v="cycleway"/>
    <tag k="name" v="Drauradweg"/>
  </way>
  <way id="26498242" version="7" timestamp="2010-03-21T02:57:04Z" uid="29765" user="Glg11" changeset="4186993">
    <nd ref="267508963"/>
    <nd ref="290426327"/>
    <nd ref="290426328"/>
    <nd ref="290426329"/>
    <nd ref="290426330"/>
    <nd ref="290426331"/>
    <nd ref="290426332"/>
    <nd ref="290426333"/>
    <nd ref="290426334"/>
    <nd ref="290426335"/>
    <nd ref="290426336"/>
    <nd ref="671081080"/>
    <nd ref="290426339"/>
    <nd ref="290426344"/>
    <nd ref="290426347"/>
    <nd ref="290426351"/>
    <nd ref="290426355"/>
    <nd ref="290426360"/>
    <nd ref="599915178"/>
    <nd ref="599914952"/>
    <nd ref="290426363"/>
    <nd ref="599914947"/>
    <nd ref="290426365"/>
    <nd ref="599914945"/>
    <nd ref="290426367"/>
    <nd ref="670716297"/>
    <nd ref="599914946"/>
    <nd ref="285924231"/>
    <tag k="highway" v="cycleway"/>
    <tag k="name" v="Drauradweg"/>
  </way>
  <way id="26498242" version="8" timestamp="2010-03-23T14:17:57Z" uid="43967" user="railsnail" changeset="4212433">
    <nd ref="267508963"/>
    <nd ref="290426327"/>
    <nd ref="290426328"/>
    <nd ref="290426329"/>
    <tag k="highway" v="cycleway"/>
    <tag k="name" v="Drauradweg"/>
  </way>
  <way id="26498242" version="9" timestamp="2010-03-23T14:18:05Z" uid="43967" user="railsnail" changeset="4212433">
    <nd ref="267508963"/>
    <nd ref="290426327"/>
    <nd ref="290426328"/>
    <nd ref="290426329"/>
    <tag k="highway" v="residential"/>
    <tag k="name" v="Drauradweg"/>
  </way>
  <way id="26498242" version="10" timestamp="2010-08-31T18:05:29Z" uid="151374" user="Sembola" changeset="5647689">
    <nd ref="890784236"/>
    <nd ref="890783699"/>
    <tag k="bicycle" v="yes"/>
    <tag k="foot" v="yes"/>
    <tag k="highway" v="unclassified"/>
    <tag k="motorcar" v="no"/>
  </way>
  <way id="26498242" version="11" timestamp="2010-09-23T11:31:30Z" uid="137620" user="Axel2009" changeset="5853238">
    <nd ref="890784236"/>
    <nd ref="890783699"/>
    <nd ref="890783963"/>
    <nd ref="890783512"/>
    <nd ref="890784637"/>
    <nd ref="890784095"/>
    <nd ref="890784343"/>
    <nd ref="890783824"/>
    <nd ref="890785181"/>
    <nd ref="267508963"/>
    <tag k="highway" v="residential"/>
    <tag k="layer" v="0"/>
    <tag k="surface" v="asphalt"/>
  </way>
  <way id="26498242" version="12" timestamp="2011-01-21T18:40:47Z" uid="137620" user="Axel2009" changeset="7043178">
    <nd ref="890784236"/>
    <nd ref="890783699"/>
    <nd ref="890783963"/>
    <nd ref="890783512"/>
    <nd ref="890784637"/>
    <nd ref="890784095"/>
    <nd ref="890784343"/>
    <nd ref="890783824"/>
    <nd ref="1113534789"/>
    <nd ref="890785181"/>
    <nd ref="267508963"/>
    <tag k="highway" v="residential"/>
    <tag k="layer" v="0"/>
    <tag k="surface" v="asphalt"/>
  </way>
  <way id="26498263" version="4" timestamp="2010-06-02T17:34:14Z" uid="256927" user="Timo Müller" changeset="4886109">
    <nd ref="290230369"/>
    <nd ref="290426846"/>
    <nd ref="290426848"/>
    <nd ref="290426849"/>
    <nd ref="290426851"/>
    <nd ref="762503326"/>
    <tag k="highway" v="track"/>
    <tag k="motor_vehicle" v="agricultural"/>
  </way>
  <way id="26498264" version="2" timestamp="2010-06-02T17:34:15Z" uid="256927" user="Timo Müller" changeset="4886109">
    <nd ref="762503337"/>
    <nd ref="290426852"/>
    <nd ref="290426854"/>
    <nd ref="290426855"/>
    <nd ref="290426857"/>
    <tag k="highway" v="track"/>
    <tag k="vehicle" v="agricultural"/>
  </way>
  <way id="26498309" version="2" timestamp="2009-12-27T09:09:44Z" uid="43967" user="railsnail" changeset="3460669">
    <nd ref="285924238"/>
    <nd ref="599914853"/>
    <nd ref="290427347"/>
    <nd ref="290427350"/>
    <nd ref="290427353"/>
    <nd ref="599914854"/>
    <nd ref="290427355"/>
    <nd ref="285923606"/>
    <tag k="highway" v="cycleway"/>
    <tag k="name" v="Drauradweg"/>
  </way>
  <way id="26498309" version="3" timestamp="2010-03-18T17:55:39Z" uid="29765" user="Glg11" changeset="4163363">
    <nd ref="285924238"/>
    <nd ref="599914853"/>
    <nd ref="290427347"/>
    <nd ref="290427350"/>
    <nd ref="290427353"/>
    <nd ref="599914854"/>
    <nd ref="290427355"/>
    <tag k="highway" v="cycleway"/>
    <tag k="name" v="Drauradweg"/>
  </way>
  <way id="26498309" version="4" timestamp="2010-09-12T13:21:22Z" uid="104963" user="creppel" changeset="5759363">
    <nd ref="285924238"/>
    <nd ref="599914853"/>
    <nd ref="290427347"/>
    <nd ref="290427350"/>
    <nd ref="290427353"/>
    <nd ref="599914854"/>
    <nd ref="290427355"/>
    <tag k="highway" v="cycleway"/>
  </way>
  <way id="26498309" version="5" timestamp="2010-12-09T12:51:54Z" uid="175551" user="coso" changeset="6594745"/>
  <way id="26498030" version="5" timestamp="2012-08-06T23:02:35Z" uid="642044" user="staytuned" changeset="12640013">
    <nd ref="447834212"/>
    <nd ref="290424185"/>
    <tag k="highway" v="service"/>
    <tag k="maxspeed" v="20"/>
    <tag k="name" v="Seilerweg"/>
    <tag k="source" v="gps"/>
    <tag k="surface" v="asphalt"/>
  </way>
  <way id="26498032" version="4" timestamp="2012-04-12T21:12:41Z" uid="28775" user="StellanL" changeset="11281457">
    <nd ref="1713328514"/>
    <nd ref="1713328843"/>
    <tag k="bridge" v="yes"/>
    <tag k="highway" v="tertiary"/>
    <tag k="layer" v="1"/>
    <tag k="name" v="Reyes Adobe Road"/>
    <tag k="tiger:cfcc" v="A41"/>
    <tag k="tiger:county" v="Los Angeles, CA"/>
    <tag k="tiger:name_base" v="Reyes Adobe"/>
    <tag k="tiger:name_type" v="Rd"/>
    <tag k="tiger:separated" v="no"/>
    <tag k="tiger:source" v="tiger_import_dch_v0.6_20070809"/>
    <tag k="tiger:tlid" v="141721250:141770964:141721257:142041001:142041004:142041007:142041008:141721672:141721677:141721680:141721683:142047581:142047582:142044803:142668018:141721290"/>
    <tag k="tiger:zip_left" v="91301"/>
    <tag k="tiger:zip_right" v="91301"/>
  </way>
  <way id="26498032" version="5" timestamp="2012-07-19T13:42:33Z" uid="722137" user="OSMF Redaction Account" changeset="12329971">
    <nd ref="1713328514"/>
    <nd ref="1713328843"/>
    <tag k="layer" v="1"/>
  </way>
  <way id="26498032" version="6" timestamp="2012-07-19T16:49:53Z" uid="131476" user="DMaximus" changeset="12340577">
    <nd ref="1713328514"/>
    <nd ref="1713328843"/>
    <tag k="bridge" v="yes"/>
    <tag k="highway" v="tertiary"/>
    <tag k="layer" v="1"/>
    <tag k="name" v="Reyes Adobe Road"/>
  </way>
  <way id="26498033" version="3" timestamp="2012-04-12T21:12:40Z" uid="28775" user="StellanL" changeset="11281457">
    <nd ref="1713328843"/>
    <nd ref="1713329049"/>
    <nd ref="123085357"/>
    <nd ref="122604762"/>
    <tag k="highway" v="tertiary"/>
    <tag k="name" v="Reyes Adobe Road"/>
    <tag k="tiger:cfcc" v="A41"/>
    <tag k="tiger:county" v="Los Angeles, CA"/>
    <tag k="tiger:name_base" v="Reyes Adobe"/>
    <tag k="tiger:name_type" v="Rd"/>
    <tag k="tiger:reviewed" v="no"/>
    <tag k="tiger:separated" v="no"/>
    <tag k="tiger:source" v="tiger_import_dch_v0.6_20070809"/>
    <tag k="tiger:tlid" v="141721250:141770964:141721257:142041001:142041004:142041007:142041008:141721672:141721677:141721680:141721683:142047581:142047582:142044803:142668018:141721290"/>
    <tag k="tiger:zip_left" v="91301"/>
    <tag k="tiger:zip_right" v="91301"/>
  </way>
  <way id="26498033" version="4" timestamp="2012-04-12T21:30:39Z" uid="28775" user="StellanL" changeset="11281457"/>
  <way id="26498035" version="6" timestamp="2012-08-06T23:02:35Z" uid="642044" user="staytuned" changeset="12640013">
    <nd ref="290424197"/>
    <nd ref="447834212"/>
    <tag k="bridge" v="yes"/>
    <tag k="highway" v="service"/>
    <tag k="layer" v="1"/>
    <tag k="maxspeed" v="20"/>
    <tag k="name" v="Seilerbrücke"/>
    <tag k="source" v="gps"/>
    <tag k="surface" v="asphalt"/>
  </way>
  <way id="26498161" version="12" timestamp="2012-07-17T04:03:51Z" uid="722137" user="OSMF Redaction Account" changeset="12256536"/>
  <way id="26498242" version="13" timestamp="2012-07-17T03:55:24Z" uid="722137" user="OSMF Redaction Account" changeset="12256439">
    <nd ref="890784236"/>
    <nd ref="890783699"/>
    <nd ref="890783963"/>
    <nd ref="890783512"/>
    <nd ref="890784637"/>
    <nd ref="890784095"/>
    <nd ref="890784343"/>
    <nd ref="890783824"/>
    <nd ref="1113534789"/>
    <nd ref="890785181"/>
    <nd ref="267508963"/>
    <tag k="layer" v="0"/>
    <tag k="surface" v="asphalt"/>
  </way>
  <way id="26498263" version="5" timestamp="2012-07-02T15:34:06Z" uid="114430" user="Chenshi" changeset="12088614">
    <nd ref="290230369"/>
    <nd ref="1810072886"/>
    <nd ref="1810072902"/>
    <nd ref="1810072908"/>
    <nd ref="1810072910"/>
    <nd ref="1810072913"/>
    <nd ref="290426849"/>
    <nd ref="1810072954"/>
    <nd ref="1810072979"/>
    <nd ref="290426851"/>
    <nd ref="762503326"/>
    <tag k="highway" v="track"/>
    <tag k="motor_vehicle" v="agricultural"/>
  </way>
  <way id="26498263" version="6" timestamp="2012-07-17T05:24:47Z" uid="722137" user="OSMF Redaction Account" changeset="12257683">
    <nd ref="290230369"/>
    <nd ref="1810072886"/>
    <nd ref="1810072902"/>
    <nd ref="1810072908"/>
    <nd ref="1810072910"/>
    <nd ref="1810072913"/>
    <nd ref="290426849"/>
    <nd ref="1810072954"/>
    <nd ref="1810072979"/>
    <nd ref="290426851"/>
    <tag k="highway" v="track"/>
  </way>
  <way id="26498264" version="3" timestamp="2012-07-02T15:34:06Z" uid="114430" user="Chenshi" changeset="12088614">
    <nd ref="762503337"/>
    <nd ref="290426852"/>
    <nd ref="290426854"/>
    <nd ref="290426855"/>
    <nd ref="290426857"/>
    <nd ref="1810072911"/>
    <nd ref="1810072912"/>
    <nd ref="1810072932"/>
    <nd ref="1810072940"/>
    <nd ref="1810072938"/>
    <nd ref="1810072925"/>
    <nd ref="1810072900"/>
    <nd ref="1810072888"/>
    <nd ref="1810072869"/>
    <nd ref="1810072867"/>
    <tag k="highway" v="track"/>
    <tag k="vehicle" v="agricultural"/>
  </way>
  <way id="26498264" version="4" timestamp="2012-07-17T05:24:47Z" uid="722137" user="OSMF Redaction Account" changeset="12257683">
    <nd ref="290426852"/>
    <nd ref="290426854"/>
    <nd ref="290426855"/>
    <nd ref="290426857"/>
    <nd ref="1810072911"/>
    <nd ref="1810072912"/>
    <nd ref="1810072932"/>
    <nd ref="1810072940"/>
    <nd ref="1810072938"/>
    <nd ref="1810072925"/>
    <nd ref="1810072900"/>
    <nd ref="1810072888"/>
    <nd ref="1810072869"/>
    <nd ref="1810072867"/>
    <tag k="highway" v="track"/>
  </way>
</osm>
