<?xml version='1.0' encoding='UTF-8'?>
<osm version="0.6" generator="libosmium/2.20.0">
  <way id="26564015" version="3" timestamp="2008-11-24T16:59:35Z" uid="36809" user="pfoten_weg_!_" changeset="787663"/>
  <way id="26564091" version="4" timestamp="2009-02-22T07:40:31Z" uid="58091" user="Andreas M" changeset="605514">
    <nd ref="291207416"/>
    <nd ref="60476145"/>
    <nd ref="60476146"/>
    <nd ref="61276349"/>
    <nd ref="60476147"/>
    <tag k="created_by" v="Potlatch 0.10b"/>
    <tag k="layer" v="-1"/>
    <tag k="name" v="U4"/>
    <tag k="railway" v="subway"/>
    <tag k="ref" v="U4"/>
  </way>
  <way id="26564091" version="5" timestamp="2010-03-24T19:34:47Z" uid="129531" user="almich" changeset="4223920">
    <nd ref="291207416"/>
    <nd ref="60476145"/>
    <nd ref="60476146"/>
    <nd ref="61276349"/>
    <nd ref="60476147"/>
    <tag k="electrified" v="rail"/>
    <tag k="frequency" v="0"/>
    <tag k="layer" v="-1"/>
    <tag k="name" v="U4"/>
    <tag k="railway" v="subway"/>
    <tag k="ref" v="U4"/>
    <tag k="tracks" v="2"/>
    <tag k="voltage" v="750"/>
  </way>
  <way id="26564091" version="6" timestamp="2010-04-18T19:57:44Z" uid="129531" user="almich" changeset="4462273">
    <nd ref="291207416"/>
    <nd ref="60476145"/>
    <nd ref="60476146"/>
    <nd ref="61276349"/>
    <nd ref="60476147"/>
    <tag k="electrified" v="rail"/>
    <tag k="frequency" v="0"/>
    <tag k="gauge" v="1435"/>
    <tag k="layer" v="-1"/>
    <tag k="name" v="U4"/>
    <tag k="railway" v="subway"/>
    <tag k="ref" v="U4"/>
    <tag k="tracks" v="2"/>
    <tag k="voltage" v="750"/>
  </way>
  <way id="26564091" version="7" timestamp="2011-04-13T12:40:48Z" uid="129531" user="almich" changeset="7851465">
    <nd ref="291207416"/>
    <nd ref="60476145"/>
    <nd ref="60476146"/>
    <nd ref="61276349"/>
    <nd ref="291211000"/>
    <tag k="electrified" v="rail"/>
    <tag k="frequency" v="0"/>
    <tag k="gauge" v="1435"/>
    <tag k="layer" v="-1"/>
    <tag k="name" v="U4"/>
    <tag k="railway" v="subway"/>
    <tag k="ref" v="U4"/>
    <tag k="tracks" v="1"/>
    <tag k="voltage" v="750"/>
  </way>
  <way id="26564091" version="8" timestamp="2011-08-01T00:42:03Z" uid="29320" user="Komяpa" changeset="8886564">
    <nd ref="291207416"/>
    <nd ref="60476145"/>
    <nd ref="60476146"/>
    <nd ref="61276349"/>
    <nd ref="291211000"/>
    <tag k="colour" v="green"/>
    <tag k="electrified" v="rail"/>
    <tag k="frequency" v="0"/>
    <tag k="gauge" v="1435"/>
    <tag k="layer" v="-1"/>
    <tag k="name" v="U4"/>
    <tag k="operator" v="Wiener Linien"/>
    <tag k="railway" v="subway"/>
    <tag k="ref" v="U4"/>
    <tag k="tracks" v="1"/>
    <tag k="voltage" v="750"/>
  </way>
  <way id="26564091" version="9" timestamp="2011-08-15T12:59:14Z" uid="56501" user="Rudolf_H" changeset="9026813">
    <nd ref="291211000"/>
    <nd ref="61276349"/>
    <nd ref="60476146"/>
    <nd ref="60476145"/>
    <nd ref="291207416"/>
    <tag k="colour" v="green"/>
    <tag k="electrified" v="rail"/>
    <tag k="frequency" v="0"/>
    <tag k="gauge" v="1435"/>
    <tag k="layer" v="-1"/>
    <tag k="name" v="U4"/>
    <tag k="operator" v="Wiener Linien"/>
    <tag k="railway" v="subway"/>
    <tag k="ref" v="U4"/>
    <tag k="tracks" v="1"/>
    <tag k="voltage" v="750"/>
  </way>
  <way id="26564164" version="2" timestamp="2008-09-14T18:30:15Z" uid="6975" user="ulfl" changeset="640534">
    <nd ref="291208074"/>
    <nd ref="291208075"/>
    <nd ref="291208076"/>
    <nd ref="291208077"/>
    <nd ref="291208078"/>
    <nd ref="291208079"/>
    <nd ref="291208080"/>
    <nd ref="291208081"/>
    <nd ref="291208074"/>
    <tag k="amenity" v="townhall"/>
    <tag k="building" v="yes"/>
    <tag k="name" v="Edinburgh City Chambers"/>
  </way>
  <way id="26564164" version="3" timestamp="2010-07-27T16:28:56Z" uid="55966" user="capsicumpie" changeset="5331213">
    <nd ref="291208074"/>
    <nd ref="835545815"/>
    <nd ref="835545846"/>
    <nd ref="835545896"/>
    <nd ref="291208075"/>
    <nd ref="835545940"/>
    <nd ref="291208076"/>
    <nd ref="291208077"/>
    <nd ref="835545929"/>
    <nd ref="835545877"/>
    <nd ref="835545942"/>
    <nd ref="291208078"/>
    <nd ref="291208079"/>
    <nd ref="835545824"/>
    <nd ref="835545837"/>
    <nd ref="835545872"/>
    <nd ref="291208080"/>
    <nd ref="835545924"/>
    <nd ref="835545974"/>
    <nd ref="291208081"/>
    <nd ref="835545910"/>
    <nd ref="835545972"/>
    <nd ref="291208074"/>
    <tag k="amenity" v="townhall"/>
    <tag k="building" v="yes"/>
    <tag k="name" v="Edinburgh City Chambers"/>
  </way>
  <way id="26564164" version="4" timestamp="2010-08-03T14:54:54Z" uid="55966" user="capsicumpie" changeset="5390657">
    <nd ref="291208074"/>
    <nd ref="835545815"/>
    <nd ref="835545846"/>
    <nd ref="835545896"/>
    <nd ref="291208075"/>
    <nd ref="835545940"/>
    <nd ref="291208076"/>
    <nd ref="291208077"/>
    <nd ref="835545929"/>
    <nd ref="835545877"/>
    <nd ref="835545942"/>
    <nd ref="291208078"/>
    <nd ref="291208079"/>
    <nd ref="835545824"/>
    <nd ref="835545837"/>
    <nd ref="835545872"/>
    <nd ref="291208080"/>
    <nd ref="835545924"/>
    <nd ref="835545974"/>
    <nd ref="291208081"/>
    <nd ref="835545910"/>
    <nd ref="835545972"/>
    <nd ref="844905860"/>
    <nd ref="291208074"/>
    <tag k="amenity" v="townhall"/>
    <tag k="building" v="yes"/>
    <tag k="name" v="Edinburgh City Chambers"/>
  </way>
  <way id="26564164" version="5" timestamp="2011-08-22T22:48:12Z" uid="4435" user="Chris Fleming" changeset="9099087">
    <nd ref="291208074"/>
    <nd ref="835545815"/>
    <nd ref="835545846"/>
    <nd ref="835545896"/>
    <nd ref="291208075"/>
    <nd ref="835545940"/>
    <nd ref="291208076"/>
    <nd ref="291208077"/>
    <nd ref="835545929"/>
    <nd ref="835545877"/>
    <nd ref="835545942"/>
    <nd ref="291208078"/>
    <nd ref="291208079"/>
    <nd ref="835545824"/>
    <nd ref="835545837"/>
    <nd ref="835545872"/>
    <nd ref="291208080"/>
    <nd ref="835545924"/>
    <nd ref="835545974"/>
    <nd ref="291208081"/>
    <nd ref="835545910"/>
    <nd ref="835545972"/>
    <nd ref="844905860"/>
    <nd ref="291208074"/>
  </way>
  <way id="26564187" version="13" timestamp="2008-12-18T19:20:56Z" uid="58091" user="Andreas M" changeset="464491">
    <nd ref="291190044"/>
    <nd ref="291190045"/>
    <nd ref="291190400"/>
    <nd ref="291190046"/>
    <nd ref="291190047"/>
    <nd ref="291190325"/>
    <nd ref="291190049"/>
    <nd ref="291190401"/>
    <nd ref="291190327"/>
    <nd ref="291190402"/>
    <nd ref="291190053"/>
    <nd ref="291190588"/>
    <nd ref="291190330"/>
    <nd ref="101183224"/>
    <nd ref="25616868"/>
    <nd ref="25616869"/>
    <nd ref="25616870"/>
    <nd ref="25616871"/>
    <nd ref="25616873"/>
    <nd ref="301347564"/>
    <nd ref="301347764"/>
    <nd ref="25616874"/>
    <nd ref="101183225"/>
    <nd ref="25616875"/>
    <nd ref="25616877"/>
    <tag k="created_by" v="Potlatch 0.10c"/>
    <tag k="highway" v="tertiary"/>
    <tag k="name" v="Höhenstraße"/>
  </way>
  <way id="26564187" version="14" timestamp="2008-12-18T19:32:44Z" uid="58091" user="Andreas M" changeset="464491">
    <nd ref="291190044"/>
    <nd ref="291190045"/>
    <nd ref="291190400"/>
    <nd ref="291190046"/>
    <nd ref="291190047"/>
    <nd ref="291190325"/>
    <tag k="created_by" v="Potlatch 0.10c"/>
    <tag k="highway" v="tertiary"/>
    <tag k="name" v="Höhenstraße"/>
  </way>
  <way id="26564187" version="15" timestamp="2009-11-10T17:52:00Z" uid="177764" user="matknoll" changeset="3083865">
    <nd ref="291190044"/>
    <nd ref="291190045"/>
    <nd ref="291190400"/>
    <nd ref="291190046"/>
    <nd ref="291190047"/>
    <nd ref="560482977"/>
    <nd ref="291190325"/>
    <tag k="highway" v="tertiary"/>
    <tag k="name" v="Höhenstraße"/>
  </way>
  <way id="26564187" version="16" timestamp="2011-02-26T20:15:37Z" uid="389867" user="guverneu" changeset="7403976">
    <nd ref="291190044"/>
    <nd ref="291190045"/>
    <nd ref="291190400"/>
    <nd ref="291190046"/>
    <nd ref="291190047"/>
    <nd ref="291190325"/>
    <tag k="highway" v="tertiary"/>
    <tag k="name" v="Höhenstraße"/>
  </way>
  <way id="26564334" version="4" timestamp="2009-02-22T07:40:33Z" uid="58091" user="Andreas M" changeset="605514"/>
  <way id="26564336" version="5" timestamp="2009-02-22T07:40:33Z" uid="58091" user="Andreas M" changeset="605514"/>
  <way id="26564358" version="4" timestamp="2009-02-22T07:40:33Z" uid="58091" user="Andreas M" changeset="605514"/>
  <way id="26564367" version="4" timestamp="2011-04-23T02:57:26Z" uid="4467" user="Rosscoe" changeset="7940142">
    <nd ref="291210274"/>
    <nd ref="291210273"/>
    <nd ref="291210261"/>
    <nd ref="291210423"/>
    <nd ref="291210274"/>
    <tag k="amenity" v="university"/>
    <tag k="building" v="university"/>
    <tag k="building_number" v="97"/>
    <tag k="description" v="RMIT University"/>
    <tag k="name" v="building 98"/>
  </way>
  <way id="26564376" version="2" timestamp="2011-02-16T11:30:14Z" uid="4467" user="Rosscoe" changeset="7302936">
    <nd ref="291211171"/>
    <nd ref="291211183"/>
    <nd ref="291211187"/>
    <nd ref="291211184"/>
    <nd ref="291211171"/>
    <tag k="landuse" v="commercial"/>
  </way>
  <way id="26564381" version="3" timestamp="2011-04-23T02:57:35Z" uid="4467" user="Rosscoe" changeset="7940142">
    <nd ref="291210541"/>
    <nd ref="291210599"/>
    <nd ref="291210467"/>
    <nd ref="291210380"/>
    <nd ref="291210474"/>
    <nd ref="291210436"/>
    <nd ref="291210541"/>
    <tag k="amenity" v="university"/>
    <tag k="building" v="yes"/>
    <tag k="building_number" v="11"/>
    <tag k="description" v="RMIT University"/>
    <tag k="name" v="building 11"/>
  </way>
  <way id="26564382" version="5" timestamp="2011-04-23T02:57:36Z" uid="4467" user="Rosscoe" changeset="7940142">
    <nd ref="291210218"/>
    <nd ref="291210232"/>
    <nd ref="291210274"/>
    <nd ref="291210037"/>
    <nd ref="291210218"/>
    <tag k="amenity" v="university"/>
    <tag k="building" v="university"/>
    <tag k="building_number" v="97"/>
    <tag k="description" v="RMIT University"/>
    <tag k="name" v="building 97"/>
  </way>
  <way id="26564383" version="2" timestamp="2011-02-16T13:55:36Z" uid="4467" user="Rosscoe" changeset="7304062">
    <nd ref="291209752"/>
    <nd ref="291209734"/>
    <nd ref="291209750"/>
    <nd ref="291209751"/>
    <nd ref="291209752"/>
    <tag k="amenity" v="university"/>
    <tag k="building" v="university"/>
    <tag k="building_number" v="16"/>
    <tag k="description" v="RMIT University"/>
  </way>
  <way id="26564393" version="4" timestamp="2010-07-09T02:53:52Z" uid="74617" user="JohnSmith" changeset="5170739">
    <nd ref="291210708"/>
    <nd ref="317535757"/>
    <nd ref="291210710"/>
    <tag k="highway" v="residential"/>
    <tag k="maxspeed" v="50"/>
    <tag k="maxspeed:source" v="default residential speed limit in Australia"/>
    <tag k="name" v="Orr Street"/>
  </way>
  <way id="26564393" version="5" timestamp="2011-04-23T02:57:36Z" uid="4467" user="Rosscoe" changeset="7940142">
    <nd ref="291210708"/>
    <nd ref="317535757"/>
    <nd ref="291210710"/>
    <tag k="highway" v="residential"/>
    <tag k="maxspeed" v="50"/>
    <tag k="name" v="Orr Street"/>
    <tag k="source:maxspeed" v="default residential speed limit in Australia"/>
  </way>
  <way id="26564393" version="6" timestamp="2012-01-17T03:53:16Z" uid="147510" user="woodpeck_fixbot" changeset="10414164">
    <nd ref="291210708"/>
    <nd ref="317535757"/>
    <nd ref="291210710"/>
    <tag k="highway" v="residential"/>
    <tag k="name" v="Orr Street"/>
    <tag k="source:maxspeed" v="default residential speed limit in Australia"/>
  </way>
  <way id="26564394" version="3" timestamp="2011-04-23T02:57:38Z" uid="4467" user="Rosscoe" changeset="7940142">
    <nd ref="291210821"/>
    <nd ref="291210824"/>
    <nd ref="291210823"/>
    <nd ref="291210826"/>
    <nd ref="291210821"/>
    <tag k="amenity" v="university"/>
    <tag k="building" v="yes"/>
    <tag k="building_number" v="96"/>
    <tag k="description" v="RMIT University"/>
    <tag k="name" v="building 96"/>
  </way>
  <way id="26564397" version="4" timestamp="2009-02-22T07:40:33Z" uid="58091" user="Andreas M" changeset="605514"/>
  <way id="26564407" version="4" timestamp="2011-04-23T03:15:13Z" uid="4467" user="Rosscoe" changeset="7940173">
    <nd ref="1256291037"/>
    <nd ref="291210882"/>
    <nd ref="291210884"/>
    <nd ref="291210878"/>
    <nd ref="1256291037"/>
    <tag k="amenity" v="university"/>
    <tag k="building" v="yes"/>
    <tag k="building_number" v="71"/>
    <tag k="description" v="RMIT University"/>
    <tag k="name" v="Building 71"/>
  </way>
  <way id="26564409" version="4" timestamp="2011-04-23T03:15:11Z" uid="4467" user="Rosscoe" changeset="7940173">
    <nd ref="291210941"/>
    <nd ref="291210962"/>
    <nd ref="291210971"/>
    <nd ref="291210967"/>
    <nd ref="291210941"/>
    <tag k="amenity" v="university"/>
    <tag k="building_number" v="57"/>
    <tag k="description" v="RMIT University"/>
    <tag k="name" v="Hub"/>
  </way>
  <way id="26564413" version="5" timestamp="2011-04-23T02:57:19Z" uid="4467" user="Rosscoe" changeset="7940142">
    <nd ref="291210444"/>
    <nd ref="291210425"/>
    <nd ref="291210594"/>
    <nd ref="291210703"/>
    <nd ref="291210529"/>
    <nd ref="291210444"/>
    <tag k="amenity" v="university"/>
    <tag k="building" v="yes"/>
    <tag k="building_number" v="07"/>
    <tag k="description" v="RMIT University"/>
    <tag k="name" v="building 7"/>
  </way>
  <way id="26564417" version="3" timestamp="2011-04-23T02:57:30Z" uid="4467" user="Rosscoe" changeset="7940142">
    <nd ref="291210582"/>
    <nd ref="291210379"/>
    <nd ref="291210508"/>
    <nd ref="291210506"/>
    <nd ref="291210440"/>
    <nd ref="291210390"/>
    <nd ref="291210598"/>
    <nd ref="291210570"/>
    <nd ref="291210450"/>
    <nd ref="291210590"/>
    <nd ref="291210447"/>
    <nd ref="291210426"/>
    <nd ref="291210478"/>
    <nd ref="291210706"/>
    <nd ref="291210378"/>
    <nd ref="291210705"/>
    <nd ref="291210420"/>
    <nd ref="291210549"/>
    <nd ref="291210582"/>
    <tag k="amenity" v="university"/>
    <tag k="building" v="yes"/>
    <tag k="building_number" v="13"/>
    <tag k="description" v="RMIT University"/>
    <tag k="name" v="building 13"/>
  </way>
  <way id="26564422" version="3" timestamp="2011-02-16T11:29:45Z" uid="4467" user="Rosscoe" changeset="7302936">
    <nd ref="291210832"/>
    <nd ref="291210831"/>
    <nd ref="291210834"/>
    <nd ref="291211037"/>
    <nd ref="291210832"/>
    <tag k="amenity" v="university"/>
    <tag k="building_number" v="52"/>
    <tag k="description" v="RMIT University"/>
    <tag k="name" v="buliding 52"/>
  </way>
  <way id="26564423" version="2" timestamp="2011-04-23T03:15:07Z" uid="4467" user="Rosscoe" changeset="7940173">
    <nd ref="1256291035"/>
    <nd ref="1256291043"/>
    <nd ref="291210910"/>
    <nd ref="291210911"/>
    <nd ref="1256291035"/>
    <tag k="amenity" v="university"/>
    <tag k="building_number" v="74"/>
    <tag k="description" v="RMIT University"/>
    <tag k="name" v="Building 74"/>
  </way>
  <way id="26564428" version="4" timestamp="2009-07-26T23:05:36Z" uid="4467" user="Rosscoe" changeset="1950498">
    <nd ref="448772513"/>
    <nd ref="291210422"/>
    <nd ref="291210421"/>
    <nd ref="448772512"/>
    <nd ref="448772513"/>
    <tag k="amenity" v="cafe"/>
    <tag k="building" v="yes"/>
    <tag k="name" v="Draculas Restaurant"/>
  </way>
  <way id="26564438" version="2" timestamp="2011-04-23T03:15:10Z" uid="4467" user="Rosscoe" changeset="7940173">
    <nd ref="1256291042"/>
    <nd ref="1256291050"/>
    <nd ref="291210908"/>
    <nd ref="291210909"/>
    <nd ref="1256291042"/>
    <tag k="amenity" v="university"/>
    <tag k="building_number" v="43"/>
    <tag k="description" v="RMIT University"/>
    <tag k="name" v="Building 43"/>
  </way>
  <way id="26564451" version="3" timestamp="2010-07-09T02:56:57Z" uid="74617" user="JohnSmith" changeset="5170739">
    <nd ref="291210792"/>
    <nd ref="317535760"/>
    <nd ref="291210708"/>
    <nd ref="291210712"/>
    <tag k="highway" v="residential"/>
    <tag k="maxspeed" v="50"/>
    <tag k="maxspeed:source" v="default residential speed limit in Australia"/>
    <tag k="name" v="Earl Street"/>
  </way>
  <way id="26564451" version="4" timestamp="2011-04-16T10:45:28Z" uid="4467" user="Rosscoe" changeset="7877170">
    <nd ref="291210792"/>
    <nd ref="1246732995"/>
    <nd ref="317535760"/>
    <nd ref="291210708"/>
    <nd ref="291210712"/>
    <tag k="highway" v="residential"/>
    <tag k="maxspeed" v="50"/>
    <tag k="maxspeed:source" v="default residential speed limit in Australia"/>
    <tag k="name" v="Earl Street"/>
  </way>
  <way id="26564451" version="5" timestamp="2012-01-17T03:53:19Z" uid="147510" user="woodpeck_fixbot" changeset="10414164">
    <nd ref="291210792"/>
    <nd ref="1246732995"/>
    <nd ref="317535760"/>
    <nd ref="291210708"/>
    <nd ref="291210712"/>
    <tag k="highway" v="residential"/>
    <tag k="name" v="Earl Street"/>
  </way>
  <way id="26564452" version="3" timestamp="2011-04-23T02:57:32Z" uid="4467" user="Rosscoe" changeset="7940142">
    <nd ref="291211014"/>
    <nd ref="291211013"/>
    <nd ref="291211039"/>
    <nd ref="291211011"/>
    <nd ref="291211014"/>
    <tag k="amenity" v="university"/>
    <tag k="area" v="yes"/>
    <tag k="name" v="RMIT University"/>
    <tag k="postal_code" v="3010"/>
  </way>
  <way id="26564454" version="2" timestamp="2011-02-16T13:55:36Z" uid="4467" user="Rosscoe" changeset="7304062"/>
  <way id="26564455" version="3" timestamp="2011-04-23T02:57:26Z" uid="4467" user="Rosscoe" changeset="7940142">
    <nd ref="291210484"/>
    <nd ref="291210404"/>
    <nd ref="291210443"/>
    <nd ref="291210597"/>
    <nd ref="291210630"/>
    <nd ref="291210672"/>
    <nd ref="291210432"/>
    <nd ref="291210550"/>
    <nd ref="291210484"/>
    <tag k="amenity" v="university"/>
    <tag k="building" v="yes"/>
    <tag k="building_number" v="11"/>
    <tag k="description" v="RMIT University"/>
    <tag k="name" v="building 11"/>
  </way>
  <way id="26564457" version="3" timestamp="2011-04-23T02:57:24Z" uid="4467" user="Rosscoe" changeset="7940142">
    <nd ref="291210165"/>
    <nd ref="291210174"/>
    <nd ref="291210170"/>
    <nd ref="291210177"/>
    <nd ref="291210175"/>
    <nd ref="291210187"/>
    <nd ref="291210181"/>
    <nd ref="291210218"/>
    <nd ref="291210037"/>
    <nd ref="291210165"/>
    <tag k="amenity" v="university"/>
    <tag k="building" v="university"/>
    <tag k="building_number" v="91"/>
    <tag k="description" v="RMIT University"/>
    <tag k="name" v="building 91"/>
  </way>
  <way id="26564459" version="5" timestamp="2009-02-22T07:42:18Z" uid="58091" user="Andreas M" changeset="605514"/>
  <way id="26564461" version="2" timestamp="2011-04-23T03:15:04Z" uid="4467" user="Rosscoe" changeset="7940173">
    <nd ref="1256291040"/>
    <nd ref="1256291046"/>
    <nd ref="291210885"/>
    <nd ref="291210888"/>
    <nd ref="1256291040"/>
    <tag k="amenity" v="university"/>
    <tag k="building_number" v="69"/>
    <tag k="description" v="RMIT University"/>
    <tag k="name" v="Building 69"/>
  </way>
  <way id="26564462" version="3" timestamp="2011-04-23T03:15:06Z" uid="4467" user="Rosscoe" changeset="7940173">
    <nd ref="291210892"/>
    <nd ref="1256291039"/>
    <nd ref="1256291051"/>
    <nd ref="291210890"/>
    <nd ref="291210892"/>
    <tag k="amenity" v="university"/>
    <tag k="building_number" v="42"/>
    <tag k="description" v="RMIT University"/>
    <tag k="name" v="Building 95"/>
  </way>
  <way id="26564466" version="3" timestamp="2011-04-23T03:15:09Z" uid="4467" user="Rosscoe" changeset="7940173">
    <nd ref="291210912"/>
    <nd ref="291210991"/>
    <nd ref="291211008"/>
    <nd ref="291210964"/>
    <nd ref="291211012"/>
    <nd ref="291210984"/>
    <nd ref="291210912"/>
    <tag k="amenity" v="university"/>
    <tag k="building_number" v="56"/>
    <tag k="description" v="RMIT University"/>
    <tag k="name" v="Building 56"/>
  </way>
  <way id="26564476" version="2" timestamp="2009-05-21T19:28:40Z" uid="87590" user="Alois_Paul" changeset="1280046">
    <nd ref="291211509"/>
    <nd ref="291211510"/>
    <nd ref="409173586"/>
    <nd ref="409173556"/>
    <tag k="created_by" v="JOSM"/>
    <tag k="highway" v="track"/>
    <tag k="tracktype" v="grade3"/>
  </way>
  <way id="26564476" version="3" timestamp="2009-07-29T13:17:05Z" uid="85761" user="klausis" changeset="1975712">
    <nd ref="291211509"/>
    <nd ref="291211510"/>
    <nd ref="409173586"/>
    <nd ref="409173556"/>
    <tag k="highway" v="track"/>
    <tag k="tracktype" v="grade3"/>
  </way>
  <way id="26564476" version="4" timestamp="2009-09-15T18:19:09Z" uid="131825" user="KlausARoth" changeset="2495478">
    <nd ref="291211509"/>
    <nd ref="497254327"/>
    <nd ref="291211510"/>
    <nd ref="409173586"/>
    <nd ref="409173556"/>
    <tag k="highway" v="track"/>
    <tag k="tracktype" v="grade3"/>
  </way>
  <way id="26564476" version="5" timestamp="2012-03-25T22:10:52Z" uid="90689" user="HansJ" changeset="11100547"/>
  <way id="26564477" version="3" timestamp="2009-05-21T19:28:32Z" uid="87590" user="Alois_Paul" changeset="1280046">
    <nd ref="395397896"/>
    <nd ref="409173282"/>
    <nd ref="291211511"/>
    <nd ref="291211512"/>
    <nd ref="291211513"/>
    <tag k="created_by" v="JOSM"/>
    <tag k="highway" v="track"/>
    <tag k="tracktype" v="grade3"/>
  </way>
  <way id="26564477" version="4" timestamp="2009-05-22T20:27:08Z" uid="87590" user="Alois_Paul" changeset="1290196">
    <nd ref="409173282"/>
    <nd ref="291211511"/>
    <nd ref="291211512"/>
    <nd ref="291211513"/>
    <tag k="created_by" v="JOSM"/>
    <tag k="highway" v="track"/>
    <tag k="tracktype" v="grade3"/>
  </way>
  <way id="26564477" version="5" timestamp="2009-07-29T13:16:18Z" uid="85761" user="klausis" changeset="1975712">
    <nd ref="409173282"/>
    <nd ref="291211511"/>
    <nd ref="291211512"/>
    <nd ref="291211513"/>
    <tag k="highway" v="track"/>
    <tag k="tracktype" v="grade3"/>
  </way>
  <way id="26564477" version="6" timestamp="2009-09-15T18:19:09Z" uid="131825" user="KlausARoth" changeset="2495478">
    <nd ref="409173282"/>
    <nd ref="291211511"/>
    <nd ref="497254324"/>
    <nd ref="291211512"/>
    <nd ref="497254323"/>
    <nd ref="497254322"/>
    <nd ref="497254321"/>
    <nd ref="291211513"/>
    <tag k="highway" v="track"/>
    <tag k="tracktype" v="grade3"/>
  </way>
  <way id="26564477" version="7" timestamp="2012-03-25T22:10:51Z" uid="90689" user="HansJ" changeset="11100547"/>
  <way id="26564580" version="12" timestamp="2008-12-18T19:13:08Z" uid="58091" user="Andreas M" changeset="464491">
    <nd ref="291164623"/>
    <nd ref="291202974"/>
    <nd ref="291202948"/>
    <nd ref="291202929"/>
    <nd ref="291200318"/>
    <nd ref="319796046"/>
    <tag k="bicycle" v="no"/>
    <tag k="created_by" v="Potlatch 0.10b"/>
    <tag k="foot" v="yes"/>
    <tag k="highway" v="footway"/>
    <tag k="name" v="Waldbachsteig"/>
  </way>
  <way id="26564580" version="13" timestamp="2008-12-19T16:37:35Z" uid="54806" user="_al" changeset="477213">
    <nd ref="291164623"/>
    <nd ref="291202974"/>
    <nd ref="291202948"/>
    <nd ref="291202929"/>
    <nd ref="291200318"/>
    <nd ref="319796046"/>
    <tag k="bicycle" v="no"/>
    <tag k="created_by" v="Potlatch 0.10f"/>
    <tag k="foot" v="yes"/>
    <tag k="highway" v="footway"/>
    <tag k="name" v="Waldbachsteig"/>
  </way>
  <way id="26564580" version="14" timestamp="2008-12-19T16:37:49Z" uid="54806" user="_al" changeset="477213">
    <nd ref="291164623"/>
    <nd ref="291202974"/>
    <nd ref="291202948"/>
    <nd ref="291202929"/>
    <nd ref="291200318"/>
    <nd ref="319796046"/>
    <tag k="bicycle" v="no"/>
    <tag k="created_by" v="Potlatch 0.10f"/>
    <tag k="foot" v="yes"/>
    <tag k="highway" v="footway"/>
    <tag k="name" v="Waldbachsteig"/>
  </way>
  <way id="26564580" version="15" timestamp="2008-12-19T16:38:37Z" uid="54806" user="_al" changeset="477213">
    <nd ref="291164623"/>
    <nd ref="291202974"/>
    <nd ref="291202948"/>
    <nd ref="291202929"/>
    <nd ref="319796046"/>
    <tag k="bicycle" v="no"/>
    <tag k="created_by" v="Potlatch 0.10f"/>
    <tag k="foot" v="yes"/>
    <tag k="highway" v="footway"/>
    <tag k="name" v="Waldbachsteig"/>
  </way>
  <way id="26564592" version="1" timestamp="2008-08-26T11:00:34Z" uid="30201" user="rrankin" changeset="418148">
    <nd ref="288791432"/>
    <nd ref="288791430"/>
    <nd ref="288791433"/>
    <nd ref="288791434"/>
    <tag k="created_by" v="Potlatch 0.10b"/>
    <tag k="highway" v="residential"/>
    <tag k="name" v="Blackwood Aveneue"/>
    <tag k="source" v="yahoo_imagery"/>
  </way>
  <way id="26564592" version="2" timestamp="2010-01-30T00:32:48Z" uid="7617" user="Franc" changeset="3747798">
    <nd ref="288791432"/>
    <nd ref="288791430"/>
    <nd ref="288791433"/>
    <nd ref="622705553"/>
    <nd ref="622705550"/>
    <nd ref="288791434"/>
    <tag k="highway" v="residential"/>
    <tag k="name" v="Blackwood Aveneue"/>
    <tag k="source" v="yahoo_imagery"/>
  </way>
  <way id="26564592" version="3" timestamp="2010-07-07T20:37:22Z" uid="74617" user="JohnSmith" changeset="5161069">
    <nd ref="288791432"/>
    <nd ref="288791430"/>
    <nd ref="288791433"/>
    <nd ref="622705553"/>
    <nd ref="622705550"/>
    <nd ref="288791434"/>
    <tag k="highway" v="residential"/>
    <tag k="maxspeed" v="50"/>
    <tag k="maxspeed:source" v="default residential speed limit in Australia"/>
    <tag k="name" v="Blackwood Aveneue"/>
    <tag k="source" v="yahoo_imagery"/>
  </way>
  <way id="26564592" version="4" timestamp="2012-01-17T03:53:20Z" uid="147510" user="woodpeck_fixbot" changeset="10414164">
    <nd ref="288791432"/>
    <nd ref="288791430"/>
    <nd ref="288791433"/>
    <nd ref="622705553"/>
    <nd ref="622705550"/>
    <nd ref="288791434"/>
    <tag k="highway" v="residential"/>
    <tag k="name" v="Blackwood Aveneue"/>
    <tag k="source" v="yahoo_imagery"/>
  </way>
  <way id="26564593" version="1" timestamp="2008-08-26T11:00:35Z" uid="30201" user="rrankin" changeset="418148">
    <nd ref="288791435"/>
    <nd ref="291212457"/>
    <nd ref="288791434"/>
    <nd ref="291212452"/>
    <nd ref="288791435"/>
    <tag k="created_by" v="Potlatch 0.10b"/>
    <tag k="highway" v="residential"/>
    <tag k="junction" v="roundabout"/>
    <tag k="name" v="Blackwood Aveneue"/>
    <tag k="source" v="yahoo_imagery"/>
  </way>
  <way id="26564593" version="2" timestamp="2010-01-30T00:32:48Z" uid="7617" user="Franc" changeset="3747798">
    <nd ref="288791435"/>
    <nd ref="622705596"/>
    <nd ref="291212457"/>
    <nd ref="622705607"/>
    <nd ref="288791434"/>
    <nd ref="622705546"/>
    <nd ref="622705537"/>
    <nd ref="291212452"/>
    <nd ref="622705540"/>
    <nd ref="288791435"/>
    <tag k="highway" v="residential"/>
    <tag k="junction" v="roundabout"/>
    <tag k="source" v="nearmap"/>
  </way>
  <way id="26564593" version="3" timestamp="2010-07-07T20:34:04Z" uid="74617" user="JohnSmith" changeset="5161069">
    <nd ref="288791435"/>
    <nd ref="622705596"/>
    <nd ref="291212457"/>
    <nd ref="622705607"/>
    <nd ref="288791434"/>
    <nd ref="622705546"/>
    <nd ref="622705537"/>
    <nd ref="291212452"/>
    <nd ref="622705540"/>
    <nd ref="288791435"/>
    <tag k="highway" v="residential"/>
    <tag k="junction" v="roundabout"/>
    <tag k="maxspeed" v="50"/>
    <tag k="maxspeed:source" v="default residential speed limit in Australia"/>
    <tag k="source" v="nearmap"/>
  </way>
  <way id="26564593" version="4" timestamp="2012-01-17T03:53:22Z" uid="147510" user="woodpeck_fixbot" changeset="10414164">
    <nd ref="288791435"/>
    <nd ref="622705596"/>
    <nd ref="291212457"/>
    <nd ref="622705607"/>
    <nd ref="288791434"/>
    <nd ref="622705546"/>
    <nd ref="622705537"/>
    <nd ref="291212452"/>
    <nd ref="622705540"/>
    <nd ref="288791435"/>
    <tag k="highway" v="residential"/>
    <tag k="junction" v="roundabout"/>
    <tag k="source" v="nearmap"/>
  </way>
  <way id="26564594" version="1" timestamp="2008-08-26T11:00:36Z" uid="30201" user="rrankin" changeset="418148">
    <nd ref="288791435"/>
    <nd ref="288791084"/>
    <nd ref="288791085"/>
    <nd ref="288791086"/>
    <nd ref="288791087"/>
    <nd ref="288791088"/>
    <tag k="created_by" v="Potlatch 0.10b"/>
    <tag k="highway" v="residential"/>
    <tag k="name" v="Blackwood Aveneue"/>
    <tag k="source" v="yahoo_imagery"/>
  </way>
  <way id="26564594" version="2" timestamp="2009-10-03T19:40:32Z" uid="7617" user="Franc" changeset="2728677">
    <nd ref="288791435"/>
    <nd ref="519310805"/>
    <nd ref="288791084"/>
    <nd ref="288791085"/>
    <nd ref="519310806"/>
    <nd ref="519310807"/>
    <nd ref="288791086"/>
    <nd ref="288791087"/>
    <nd ref="288791088"/>
    <tag k="highway" v="residential"/>
    <tag k="name" v="Blackwood Aveneue"/>
    <tag k="source" v="yahoo_imagery"/>
  </way>
  <way id="26564594" version="3" timestamp="2010-01-30T00:32:48Z" uid="7617" user="Franc" changeset="3747798">
    <nd ref="288791435"/>
    <nd ref="622705543"/>
    <nd ref="519310805"/>
    <nd ref="622705560"/>
    <nd ref="288791084"/>
    <nd ref="288791085"/>
    <nd ref="622705566"/>
    <nd ref="622705563"/>
    <nd ref="519310806"/>
    <nd ref="519310807"/>
    <nd ref="288791086"/>
    <nd ref="288791088"/>
    <tag k="highway" v="residential"/>
    <tag k="name" v="Blackwood Aveneue"/>
    <tag k="source" v="yahoo_imagery"/>
  </way>
  <way id="26564594" version="4" timestamp="2010-07-07T20:36:10Z" uid="74617" user="JohnSmith" changeset="5161069">
    <nd ref="288791435"/>
    <nd ref="622705543"/>
    <nd ref="519310805"/>
    <nd ref="622705560"/>
    <nd ref="288791084"/>
    <nd ref="288791085"/>
    <nd ref="622705566"/>
    <nd ref="622705563"/>
    <nd ref="519310806"/>
    <nd ref="519310807"/>
    <nd ref="288791086"/>
    <nd ref="288791088"/>
    <tag k="highway" v="residential"/>
    <tag k="maxspeed" v="50"/>
    <tag k="maxspeed:source" v="default residential speed limit in Australia"/>
    <tag k="name" v="Blackwood Aveneue"/>
    <tag k="source" v="yahoo_imagery"/>
  </way>
  <way id="26564594" version="5" timestamp="2012-01-17T03:53:23Z" uid="147510" user="woodpeck_fixbot" changeset="10414164">
    <nd ref="288791435"/>
    <nd ref="622705543"/>
    <nd ref="519310805"/>
    <nd ref="622705560"/>
    <nd ref="288791084"/>
    <nd ref="288791085"/>
    <nd ref="622705566"/>
    <nd ref="622705563"/>
    <nd ref="519310806"/>
    <nd ref="519310807"/>
    <nd ref="288791086"/>
    <nd ref="288791088"/>
    <tag k="highway" v="residential"/>
    <tag k="name" v="Blackwood Aveneue"/>
    <tag k="source" v="yahoo_imagery"/>
  </way>
  <way id="26564670" version="3" timestamp="2008-09-13T23:11:52Z" uid="36809" user="pfoten_weg_!_" changeset="629750">
    <nd ref="291206134"/>
    <nd ref="291213172"/>
    <nd ref="291213173"/>
    <nd ref="291213174"/>
    <nd ref="291213176"/>
    <nd ref="291213179"/>
    <nd ref="287155220"/>
    <tag k="created_by" v="Potlatch 0.10b"/>
    <tag k="highway" v="track"/>
    <tag k="tracktype" v="grade1"/>
  </way>
  <way id="26564670" version="4" timestamp="2008-11-24T16:59:35Z" uid="36809" user="pfoten_weg_!_" changeset="787663"/>
  <way id="26564717" version="3" timestamp="2008-09-23T11:59:51Z" uid="36809" user="pfoten_weg_!_" changeset="686187"/>
  <way id="26564751" version="1" timestamp="2008-08-26T11:13:49Z" uid="43863" user="Rundling" changeset="411927">
    <nd ref="291213857"/>
    <nd ref="291213858"/>
    <nd ref="291213859"/>
    <nd ref="291213860"/>
    <nd ref="291213857"/>
    <nd ref="291213857"/>
    <tag k="addr:city" v="Rosche"/>
    <tag k="addr:housenumber" v="1"/>
    <tag k="addr:postcode" v="29571"/>
    <tag k="addr:street" v="Neu Prielip"/>
    <tag k="building" v="yes"/>
    <tag k="created_by" v="Potlatch 0.10b"/>
  </way>
  <way id="26564751" version="2" timestamp="2008-09-13T08:59:03Z" uid="43863" user="Rundling" changeset="619327">
    <nd ref="291213857"/>
    <nd ref="291213858"/>
    <nd ref="291213859"/>
    <nd ref="291213860"/>
    <nd ref="296314354"/>
    <nd ref="296314352"/>
    <nd ref="296314355"/>
    <nd ref="296314356"/>
    <nd ref="291213857"/>
    <nd ref="291213857"/>
    <tag k="addr:city" v="Rosche"/>
    <tag k="addr:housenumber" v="1"/>
    <tag k="addr:postcode" v="29571"/>
    <tag k="addr:street" v="Neu Prielip"/>
    <tag k="building" v="yes"/>
    <tag k="created_by" v="Potlatch 0.10b"/>
  </way>
  <way id="26564751" version="3" timestamp="2008-09-15T11:55:30Z" uid="31231" user="Andre68" changeset="638628">
    <nd ref="291213857"/>
    <nd ref="291213858"/>
    <nd ref="291213859"/>
    <nd ref="291213860"/>
    <nd ref="296314354"/>
    <nd ref="296314352"/>
    <nd ref="296314355"/>
    <nd ref="296314356"/>
    <nd ref="291213857"/>
    <tag k="addr:city" v="Rosche"/>
    <tag k="addr:housenumber" v="1"/>
    <tag k="addr:postcode" v="29571"/>
    <tag k="addr:street" v="Neu Prielip"/>
    <tag k="building" v="yes"/>
    <tag k="created_by" v="Potlatch 0.10b"/>
  </way>
  <way id="26564751" version="4" timestamp="2008-09-27T10:59:20Z" uid="43863" user="Rundling" changeset="707288"/>
  <way id="26564752" version="1" timestamp="2008-08-26T11:13:49Z" uid="43863" user="Rundling" changeset="411927">
    <nd ref="291213861"/>
    <nd ref="291213862"/>
    <nd ref="291213863"/>
    <nd ref="291213864"/>
    <nd ref="291213861"/>
    <nd ref="291213861"/>
    <tag k="addr:city" v="Rosche"/>
    <tag k="addr:housenumber" v="3"/>
    <tag k="addr:postcode" v="29571"/>
    <tag k="addr:street" v="Neu Prielip"/>
    <tag k="building" v="yes"/>
    <tag k="created_by" v="Merkaartor 0.11"/>
  </way>
  <way id="26564752" version="2" timestamp="2008-09-15T11:55:26Z" uid="31231" user="Andre68" changeset="638628">
    <nd ref="291213861"/>
    <nd ref="291213862"/>
    <nd ref="291213863"/>
    <nd ref="291213864"/>
    <nd ref="291213861"/>
    <tag k="addr:city" v="Rosche"/>
    <tag k="addr:housenumber" v="3"/>
    <tag k="addr:postcode" v="29571"/>
    <tag k="addr:street" v="Neu Prielip"/>
    <tag k="building" v="yes"/>
    <tag k="created_by" v="Merkaartor 0.11"/>
  </way>
  <way id="26564752" version="3" timestamp="2008-09-27T10:59:20Z" uid="43863" user="Rundling" changeset="707288"/>
  <way id="26564754" version="1" timestamp="2008-08-26T11:13:54Z" uid="43863" user="Rundling" changeset="411927">
    <nd ref="291213875"/>
    <nd ref="291213876"/>
    <nd ref="291213877"/>
    <nd ref="291213879"/>
    <nd ref="291213875"/>
    <nd ref="291213875"/>
    <tag k="addr:city" v="Rosche"/>
    <tag k="addr:housenumber" v="5"/>
    <tag k="addr:postcode" v="29571"/>
    <tag k="addr:street" v="Neu Prielip"/>
    <tag k="building" v="yes"/>
    <tag k="created_by" v="Merkaartor 0.11"/>
  </way>
  <way id="26564754" version="2" timestamp="2008-09-15T11:55:42Z" uid="31231" user="Andre68" changeset="638628">
    <nd ref="291213875"/>
    <nd ref="291213876"/>
    <nd ref="291213877"/>
    <nd ref="291213879"/>
    <nd ref="291213875"/>
    <tag k="addr:city" v="Rosche"/>
    <tag k="addr:housenumber" v="5"/>
    <tag k="addr:postcode" v="29571"/>
    <tag k="addr:street" v="Neu Prielip"/>
    <tag k="building" v="yes"/>
    <tag k="created_by" v="Merkaartor 0.11"/>
  </way>
  <way id="26564754" version="3" timestamp="2008-09-27T10:59:20Z" uid="43863" user="Rundling" changeset="707288"/>
  <way id="26564776" version="3" timestamp="2009-10-01T08:34:28Z" uid="43967" user="railsnail" changeset="2697560">
    <nd ref="291214258"/>
    <nd ref="392790726"/>
    <nd ref="515729107"/>
    <nd ref="291214259"/>
    <nd ref="291214260"/>
    <nd ref="291214261"/>
    <nd ref="291214262"/>
    <nd ref="291214263"/>
    <nd ref="291214264"/>
    <nd ref="291214265"/>
    <nd ref="392790715"/>
    <nd ref="392790716"/>
    <nd ref="392790717"/>
    <nd ref="392790718"/>
    <nd ref="392790719"/>
    <nd ref="392790720"/>
    <nd ref="392790721"/>
    <nd ref="392790722"/>
    <nd ref="392790723"/>
    <nd ref="392790724"/>
    <nd ref="392790725"/>
    <tag k="bicycle" v="yes"/>
    <tag k="highway" v="footway"/>
  </way>
  <way id="26564776" version="4" timestamp="2010-03-25T12:23:01Z" uid="153031" user="ajoessen" changeset="4228813">
    <nd ref="291214258"/>
    <nd ref="392790726"/>
    <nd ref="515729107"/>
    <tag k="bicycle" v="yes"/>
    <tag k="highway" v="footway"/>
  </way>
  <way id="26564776" version="5" timestamp="2011-10-17T14:10:40Z" uid="260151" user="morryis" changeset="9582419">
    <nd ref="291214258"/>
    <nd ref="392790726"/>
    <nd ref="291214259"/>
    <tag k="bicycle" v="yes"/>
    <tag k="highway" v="footway"/>
  </way>
  <way id="26564868" version="2" timestamp="2009-10-01T08:30:56Z" uid="43967" user="railsnail" changeset="2697560">
    <nd ref="271019105"/>
    <nd ref="291215168"/>
    <nd ref="291215172"/>
    <nd ref="515723364"/>
    <nd ref="291215175"/>
    <nd ref="271021436"/>
    <tag k="highway" v="footway"/>
  </way>
  <way id="26564868" version="3" timestamp="2011-05-15T12:15:51Z" uid="451721" user="rclasen" changeset="8151041">
    <nd ref="271019105"/>
    <nd ref="291215168"/>
    <nd ref="291215172"/>
    <nd ref="515723364"/>
    <nd ref="291215175"/>
    <nd ref="271021436"/>
    <tag k="bicycle" v="yes"/>
    <tag k="foot" v="yes"/>
    <tag k="highway" v="track"/>
    <tag k="motor_vehicle" v="no"/>
    <tag k="tracktype" v="grade2"/>
  </way>
  <way id="26564868" version="4" timestamp="2011-05-15T23:03:51Z" uid="451721" user="rclasen" changeset="8158030">
    <nd ref="271019105"/>
    <nd ref="291215168"/>
    <nd ref="291215172"/>
    <nd ref="515723364"/>
    <nd ref="291215175"/>
    <nd ref="271021436"/>
    <tag k="bicycle" v="yes"/>
    <tag k="foot" v="yes"/>
    <tag k="highway" v="track"/>
    <tag k="motor_vehicle" v="no"/>
    <tag k="surface" v="gravel"/>
    <tag k="tracktype" v="grade2"/>
  </way>
  <way id="26564868" version="5" timestamp="2011-05-18T19:43:27Z" uid="451721" user="rclasen" changeset="8184281">
    <nd ref="271019105"/>
    <nd ref="291215168"/>
    <nd ref="291215172"/>
    <nd ref="515723364"/>
    <nd ref="291215175"/>
    <nd ref="271021436"/>
    <tag k="bicycle" v="yes"/>
    <tag k="foot" v="yes"/>
    <tag k="highway" v="track"/>
    <tag k="motor_vehicle" v="no"/>
    <tag k="surface" v="compacted"/>
    <tag k="tracktype" v="grade2"/>
  </way>
  <way id="26564868" version="6" timestamp="2011-08-25T21:24:24Z" uid="99332" user="ekuester" changeset="9125166">
    <nd ref="271019105"/>
    <nd ref="291215168"/>
    <nd ref="1412615202"/>
    <nd ref="291215172"/>
    <nd ref="515723364"/>
    <nd ref="291215175"/>
    <nd ref="1412614998"/>
    <tag k="bicycle" v="yes"/>
    <tag k="foot" v="yes"/>
    <tag k="highway" v="track"/>
    <tag k="motor_vehicle" v="no"/>
    <tag k="surface" v="compacted"/>
    <tag k="tracktype" v="grade2"/>
  </way>
  <way id="26564868" version="7" timestamp="2012-02-07T15:32:22Z" uid="12365" user="deb-lin" changeset="10613212">
    <nd ref="271019105"/>
    <nd ref="291215168"/>
    <nd ref="1412615202"/>
    <nd ref="291215172"/>
    <nd ref="1621756751"/>
    <nd ref="291215175"/>
    <nd ref="1412614998"/>
    <tag k="bicycle" v="yes"/>
    <tag k="foot" v="yes"/>
    <tag k="highway" v="track"/>
    <tag k="motor_vehicle" v="no"/>
    <tag k="surface" v="compacted"/>
    <tag k="tracktype" v="grade2"/>
  </way>
  <way id="26564892" version="1" timestamp="2008-08-26T11:21:42Z" uid="6269" user="Mueck" changeset="415649">
    <nd ref="262196020"/>
    <nd ref="262196021"/>
    <nd ref="262196022"/>
    <nd ref="262196023"/>
    <nd ref="262196024"/>
    <tag k="created_by" v="Potlatch 0.10b"/>
    <tag k="highway" v="service"/>
  </way>
  <way id="26564892" version="2" timestamp="2010-02-17T19:04:13Z" uid="65364" user="Harry99" changeset="3903309">
    <nd ref="262196020"/>
    <nd ref="262196021"/>
    <nd ref="262196022"/>
    <nd ref="262196023"/>
    <nd ref="262196024"/>
    <tag k="highway" v="service"/>
  </way>
  <way id="26564892" version="3" timestamp="2010-08-29T08:24:19Z" uid="57645" user="KartoGrapHiti" changeset="5622915">
    <nd ref="262196020"/>
    <nd ref="262196021"/>
    <nd ref="262196022"/>
    <nd ref="262196023"/>
    <nd ref="262196024"/>
    <tag k="highway" v="service"/>
    <tag k="oneway" v="yes"/>
  </way>
  <way id="26564892" version="4" timestamp="2012-01-05T15:31:00Z" uid="65364" user="Harry99" changeset="10300355"/>
  <way id="26564907" version="4" timestamp="2008-10-09T15:35:44Z" uid="30632" user="antblant" changeset="188678">
    <nd ref="291215551"/>
    <nd ref="268983574"/>
    <tag k="created_by" v="Potlatch 0.10b"/>
    <tag k="highway" v="residential"/>
    <tag k="name" v="Fixme"/>
  </way>
  <way id="26564907" version="5" timestamp="2008-10-23T15:45:26Z" uid="9581" user="Lobelt" changeset="531797"/>
  <way id="26564918" version="4" timestamp="2008-10-23T15:45:27Z" uid="9581" user="Lobelt" changeset="531797"/>
  <way id="26564926" version="3" timestamp="2008-10-23T15:45:26Z" uid="9581" user="Lobelt" changeset="531797"/>
  <way id="26564091" version="10" timestamp="2012-09-01T15:59:58Z" uid="758899" user="belosm2012" changeset="12944041">
    <nd ref="291211000"/>
    <nd ref="61276349"/>
    <nd ref="60476146"/>
    <nd ref="1893384468"/>
    <nd ref="1893384478"/>
    <nd ref="60476145"/>
    <nd ref="1893384515"/>
    <nd ref="291207416"/>
    <tag k="colour" v="green"/>
    <tag k="electrified" v="rail"/>
    <tag k="frequency" v="0"/>
    <tag k="gauge" v="1435"/>
    <tag k="layer" v="-1"/>
    <tag k="name" v="U4"/>
    <tag k="operator" v="Wiener Linien"/>
    <tag k="railway" v="subway"/>
    <tag k="ref" v="U4"/>
    <tag k="tracks" v="1"/>
    <tag k="voltage" v="750"/>
  </way>
  <way id="26564187" version="17" timestamp="2012-07-21T12:04:13Z" uid="54806" user="_al" changeset="12407411">
    <nd ref="291190044"/>
    <nd ref="291190045"/>
    <nd ref="291190400"/>
    <nd ref="291190046"/>
    <nd ref="291190047"/>
    <tag k="highway" v="tertiary"/>
    <tag k="name" v="Höhenstraße"/>
  </way>
  <way id="26564376" version="3" timestamp="2012-07-19T11:48:35Z" uid="722137" user="OSMF Redaction Account" changeset="12322681">
    <nd ref="291211171"/>
    <nd ref="291211183"/>
    <nd ref="291211187"/>
    <nd ref="291211184"/>
    <nd ref="291211171"/>
  </way>
  <way id="26564376" version="4" timestamp="2012-09-05T11:17:45Z" uid="84937" user="Neil Penman" changeset="12994518"/>
  <way id="26564383" version="3" timestamp="2012-05-27T08:29:40Z" uid="419029" user="mdpurganan" changeset="11713284">
    <nd ref="291209752"/>
    <nd ref="291209734"/>
    <nd ref="291209750"/>
    <nd ref="291209751"/>
    <nd ref="291209752"/>
    <tag k="amenity" v="university"/>
    <tag k="building" v="university"/>
    <tag k="building_number" v="16"/>
    <tag k="description" v="RMIT University"/>
    <tag k="landmark:name" v="RMIT"/>
  </way>
  <way id="26564393" version="7" timestamp="2012-07-19T11:48:57Z" uid="722137" user="OSMF Redaction Account" changeset="12322681">
    <nd ref="291210708"/>
    <nd ref="317535757"/>
    <nd ref="291210710"/>
    <tag k="highway" v="residential"/>
    <tag k="name" v="Orr Street"/>
  </way>
  <way id="26564407" version="5" timestamp="2012-07-19T11:43:30Z" uid="722137" user="OSMF Redaction Account" changeset="12322246">
    <nd ref="291210882"/>
    <nd ref="291210884"/>
    <nd ref="291210878"/>
    <tag k="amenity" v="university"/>
    <tag k="building" v="yes"/>
    <tag k="building_number" v="71"/>
    <tag k="description" v="RMIT University"/>
    <tag k="name" v="Building 71"/>
  </way>
  <way id="26564409" version="5" timestamp="2012-07-19T11:49:01Z" uid="722137" user="OSMF Redaction Account" changeset="12322681">
    <nd ref="291210941"/>
    <nd ref="291210962"/>
    <nd ref="291210971"/>
    <nd ref="291210967"/>
    <tag k="amenity" v="university"/>
    <tag k="building_number" v="57"/>
    <tag k="description" v="RMIT University"/>
    <tag k="name" v="Hub"/>
  </way>
  <way id="26564422" version="4" timestamp="2012-07-19T11:48:52Z" uid="722137" user="OSMF Redaction Account" changeset="12322681">
    <nd ref="291210832"/>
    <nd ref="291210831"/>
    <nd ref="291210834"/>
    <nd ref="291211037"/>
    <tag k="amenity" v="university"/>
    <tag k="building_number" v="52"/>
    <tag k="description" v="RMIT University"/>
    <tag k="name" v="buliding 52"/>
  </way>
  <way id="26564423" version="3" timestamp="2012-07-19T11:43:30Z" uid="722137" user="OSMF Redaction Account" changeset="12322246">
    <nd ref="291210910"/>
    <nd ref="291210911"/>
    <tag k="amenity" v="university"/>
    <tag k="building_number" v="74"/>
    <tag k="description" v="RMIT University"/>
    <tag k="name" v="Building 74"/>
  </way>
  <way id="26564428" version="5" timestamp="2012-07-19T11:48:52Z" uid="722137" user="OSMF Redaction Account" changeset="12322681">
    <nd ref="291210422"/>
    <nd ref="291210421"/>
    <tag k="building" v="yes"/>
    <tag k="name" v="Draculas Restaurant"/>
  </way>
  <way id="26564438" version="3" timestamp="2012-07-19T11:43:29Z" uid="722137" user="OSMF Redaction Account" changeset="12322246">
    <nd ref="291210908"/>
    <nd ref="291210909"/>
    <tag k="amenity" v="university"/>
    <tag k="building_number" v="43"/>
    <tag k="description" v="RMIT University"/>
    <tag k="name" v="Building 43"/>
  </way>
  <way id="26564451" version="6" timestamp="2012-04-21T11:22:37Z" uid="211804" user="KenS" changeset="11372673">
    <nd ref="291210792"/>
    <nd ref="1725216810"/>
    <nd ref="317535760"/>
    <nd ref="291210708"/>
    <nd ref="291210712"/>
    <tag k="highway" v="residential"/>
    <tag k="name" v="Earl Street"/>
  </way>
  <way id="26564461" version="3" timestamp="2012-07-19T11:43:30Z" uid="722137" user="OSMF Redaction Account" changeset="12322246">
    <nd ref="291210885"/>
    <nd ref="291210888"/>
    <tag k="amenity" v="university"/>
    <tag k="building_number" v="69"/>
    <tag k="description" v="RMIT University"/>
    <tag k="name" v="Building 69"/>
  </way>
  <way id="26564462" version="4" timestamp="2012-07-19T11:43:30Z" uid="722137" user="OSMF Redaction Account" changeset="12322246">
    <nd ref="291210892"/>
    <nd ref="291210890"/>
    <nd ref="291210892"/>
    <tag k="amenity" v="university"/>
    <tag k="building_number" v="42"/>
    <tag k="description" v="RMIT University"/>
    <tag k="name" v="Building 95"/>
  </way>
  <way id="26564580" version="16" timestamp="2012-05-21T11:32:23Z" uid="38313" user="SKald" changeset="11660876">
    <nd ref="291164623"/>
    <nd ref="291202974"/>
    <nd ref="291202948"/>
    <nd ref="291202929"/>
    <nd ref="319796046"/>
    <tag k="bicycle" v="no"/>
    <tag k="foot" v="yes"/>
    <tag k="highway" v="service"/>
    <tag k="name" v="Waldbachsteig"/>
  </way>
  <way id="26564580" version="17" timestamp="2012-07-16T22:50:37Z" uid="722137" user="OSMF Redaction Account" changeset="12252971">
    <nd ref="291164623"/>
    <nd ref="291202974"/>
    <nd ref="291202948"/>
    <nd ref="291202929"/>
    <tag k="bicycle" v="no"/>
    <tag k="foot" v="yes"/>
    <tag k="highway" v="service"/>
    <tag k="name" v="Waldbachsteig"/>
  </way>
  <way id="26564580" version="18" timestamp="2012-07-22T04:25:07Z" uid="54806" user="_al" changeset="12425150">
    <nd ref="291164623"/>
    <nd ref="291202974"/>
    <nd ref="291202948"/>
    <nd ref="1833765555"/>
    <nd ref="291202929"/>
    <nd ref="319796046"/>
    <tag k="bicycle" v="no"/>
    <tag k="foot" v="yes"/>
    <tag k="highway" v="service"/>
    <tag k="name" v="Waldbachsteig"/>
  </way>
  <way id="26564592" version="5" timestamp="2012-07-21T14:14:54Z" uid="722137" user="OSMF Redaction Account" changeset="12411468"/>
  <way id="26564593" version="5" timestamp="2012-07-21T14:14:52Z" uid="722137" user="OSMF Redaction Account" changeset="12411468"/>
  <way id="26564594" version="6" timestamp="2012-07-21T14:14:52Z" uid="722137" user="OSMF Redaction Account" changeset="12411468"/>
</osm>
