<?xml version='1.0' encoding='UTF-8'?>
<osm version="0.6" generator="libosmium/2.20.0">
  <way id="26620055" version="2" timestamp="2010-05-18T22:15:33Z" uid="9581" user="Lobelt" changeset="4743574">
    <nd ref="291977657"/>
    <nd ref="291977658"/>
    <nd ref="291977660"/>
    <nd ref="291977661"/>
    <tag k="highway" v="residential"/>
    <tag k="oneway" v="yes"/>
  </way>
  <way id="26620056" version="5" timestamp="2010-05-18T22:15:34Z" uid="9581" user="Lobelt" changeset="4743574">
    <nd ref="291977661"/>
    <nd ref="291977662"/>
    <nd ref="345552289"/>
    <nd ref="739000676"/>
    <nd ref="291977663"/>
    <tag k="highway" v="residential"/>
    <tag k="name" v="Friedrich-Ebert-Straße"/>
  </way>
  <way id="26620056" version="6" timestamp="2010-06-03T16:26:15Z" uid="189997" user="gerd95" changeset="4893873">
    <nd ref="291977661"/>
    <nd ref="291977662"/>
    <nd ref="345552289"/>
    <nd ref="739000676"/>
    <nd ref="763374000"/>
    <nd ref="291977663"/>
    <tag k="highway" v="residential"/>
    <tag k="name" v="Friedrich-Ebert-Straße"/>
  </way>
  <way id="26620075" version="9" timestamp="2010-05-18T22:15:32Z" uid="9581" user="Lobelt" changeset="4743574">
    <nd ref="250039027"/>
    <nd ref="250039028"/>
    <nd ref="250039029"/>
    <nd ref="250039031"/>
    <nd ref="250039036"/>
    <nd ref="374014007"/>
    <nd ref="250039056"/>
    <nd ref="345697972"/>
    <nd ref="345698190"/>
    <nd ref="345698163"/>
    <nd ref="345697953"/>
    <nd ref="345698044"/>
    <nd ref="315734010"/>
    <nd ref="724263951"/>
    <nd ref="345697958"/>
    <nd ref="345698126"/>
    <nd ref="369984557"/>
    <tag k="highway" v="tertiary"/>
    <tag k="name" v="Heßheimer Straße"/>
  </way>
  <way id="26620075" version="10" timestamp="2010-07-18T13:11:00Z" uid="189997" user="gerd95" changeset="5251069">
    <nd ref="250039027"/>
    <nd ref="250039028"/>
    <nd ref="250039029"/>
    <nd ref="250039031"/>
    <nd ref="250039036"/>
    <nd ref="374014007"/>
    <nd ref="250039056"/>
    <nd ref="345697972"/>
    <nd ref="345698190"/>
    <nd ref="345698163"/>
    <nd ref="345697953"/>
    <nd ref="345698044"/>
    <nd ref="315734010"/>
    <nd ref="724263951"/>
    <nd ref="823007967"/>
    <nd ref="345697958"/>
    <nd ref="345698126"/>
    <nd ref="369984557"/>
    <tag k="highway" v="tertiary"/>
    <tag k="name" v="Heßheimer Straße"/>
  </way>
  <way id="26620075" version="11" timestamp="2010-08-29T13:52:25Z" uid="189997" user="gerd95" changeset="5625944">
    <nd ref="250039027"/>
    <nd ref="250039028"/>
    <nd ref="250039029"/>
    <nd ref="250039031"/>
    <nd ref="886118678"/>
    <nd ref="250039036"/>
    <nd ref="374014007"/>
    <nd ref="250039056"/>
    <nd ref="345697972"/>
    <nd ref="345698190"/>
    <nd ref="345698163"/>
    <nd ref="345697953"/>
    <nd ref="345698044"/>
    <nd ref="315734010"/>
    <nd ref="724263951"/>
    <nd ref="823007967"/>
    <nd ref="345697958"/>
    <nd ref="345698126"/>
    <nd ref="369984557"/>
    <tag k="highway" v="tertiary"/>
    <tag k="name" v="Heßheimer Straße"/>
  </way>
  <way id="26620075" version="12" timestamp="2012-02-05T10:09:38Z" uid="189997" user="gerd95" changeset="10591905">
    <nd ref="250039027"/>
    <nd ref="250039028"/>
    <nd ref="250039029"/>
    <nd ref="250039031"/>
    <nd ref="886118678"/>
    <nd ref="250039036"/>
    <nd ref="374014007"/>
    <nd ref="250039056"/>
    <nd ref="345697972"/>
    <nd ref="345698190"/>
    <nd ref="345698163"/>
    <nd ref="345697953"/>
    <nd ref="345698044"/>
    <nd ref="315734010"/>
    <nd ref="724263951"/>
    <nd ref="823007967"/>
    <nd ref="369984557"/>
    <tag k="highway" v="tertiary"/>
    <tag k="name" v="Heßheimer Straße"/>
  </way>
  <way id="26620075" version="13" timestamp="2012-02-05T10:37:57Z" uid="189997" user="gerd95" changeset="10592153">
    <nd ref="250039027"/>
    <nd ref="250039028"/>
    <nd ref="250039029"/>
    <nd ref="250039031"/>
    <nd ref="886118678"/>
    <nd ref="250039036"/>
    <nd ref="374014007"/>
    <nd ref="250039056"/>
    <nd ref="345697972"/>
    <nd ref="345698190"/>
    <nd ref="345698163"/>
    <nd ref="345697953"/>
    <nd ref="345698044"/>
    <nd ref="1618738769"/>
    <nd ref="315734010"/>
    <nd ref="724263951"/>
    <nd ref="823007967"/>
    <nd ref="369984557"/>
    <tag k="highway" v="tertiary"/>
    <tag k="name" v="Heßheimer Straße"/>
  </way>
  <way id="26620237" version="5" timestamp="2009-10-02T20:05:46Z" uid="86259" user="hasse_osm_korinthenkacker" changeset="2717024">
    <nd ref="291505465"/>
    <nd ref="320124713"/>
    <nd ref="291980433"/>
    <tag k="bicycle" v="yes"/>
    <tag k="highway" v="footway"/>
  </way>
  <way id="26620587" version="3" timestamp="2009-04-23T11:43:45Z" uid="118323" user="Jochen" changeset="911408">
    <nd ref="33699539"/>
    <nd ref="32517874"/>
    <nd ref="33014849"/>
    <nd ref="295718743"/>
    <tag k="bicycle" v="no"/>
    <tag k="created_by" v="Potlatch 0.9c"/>
    <tag k="highway" v="primary"/>
    <tag k="note:de" v="Kraftfahrstraße"/>
    <tag k="ref" v="B 19"/>
  </way>
  <way id="26620587" version="4" timestamp="2009-05-18T14:36:36Z" uid="118047" user="Kraftfahrstraßen" changeset="1237995">
    <nd ref="33699539"/>
    <nd ref="32517874"/>
    <nd ref="33014849"/>
    <nd ref="295718743"/>
    <tag k="bicycle" v="no"/>
    <tag k="created_by" v="Potlatch 0.9c"/>
    <tag k="highway" v="trunk"/>
    <tag k="note:de" v="Kraftfahrstraße"/>
    <tag k="ref" v="B 19"/>
  </way>
  <way id="26620587" version="5" timestamp="2009-06-03T16:50:12Z" uid="52915" user="Dwi Secundus" changeset="1414599">
    <nd ref="33699539"/>
    <nd ref="32517874"/>
    <nd ref="415388339"/>
    <tag k="bicycle" v="no"/>
    <tag k="created_by" v="Potlatch 0.9c"/>
    <tag k="highway" v="trunk"/>
    <tag k="note:de" v="Kraftfahrstraße"/>
    <tag k="ref" v="B 19"/>
  </way>
  <way id="26620587" version="6" timestamp="2010-03-10T18:15:24Z" uid="12973" user="MattGPS" changeset="4091810">
    <nd ref="33699539"/>
    <nd ref="32517874"/>
    <nd ref="415388339"/>
    <tag k="bicycle" v="no"/>
    <tag k="highway" v="primary"/>
    <tag k="note:de" v="Kraftfahrstraße"/>
    <tag k="ref" v="B 19"/>
  </way>
  <way id="26620587" version="7" timestamp="2010-04-19T17:07:49Z" uid="263596" user="Oberförster" changeset="4469857">
    <nd ref="33699539"/>
    <nd ref="32517874"/>
    <nd ref="415388339"/>
    <tag k="bicycle" v="no"/>
    <tag k="highway" v="primary"/>
    <tag k="motorroad" v="yes"/>
    <tag k="note:de" v="Kraftfahrstraße"/>
    <tag k="ref" v="B 19"/>
  </way>
  <way id="26620805" version="6" timestamp="2010-05-02T09:20:54Z" uid="151899" user="Bikeman2000" changeset="4582538">
    <nd ref="27157992"/>
    <nd ref="267883011"/>
    <tag k="highway" v="primary"/>
    <tag k="lanes" v="2"/>
    <tag k="name" v="Heinrichstraße"/>
    <tag k="oneway" v="yes"/>
    <tag k="ref" v="B 7"/>
  </way>
  <way id="26620805" version="7" timestamp="2011-01-07T23:17:42Z" uid="18130" user="black_bike" changeset="6898770">
    <nd ref="27157992"/>
    <nd ref="267883011"/>
    <tag k="highway" v="primary"/>
    <tag k="lanes" v="2"/>
    <tag k="lit" v="yes"/>
    <tag k="lit_by_gaslight" v="no"/>
    <tag k="name" v="Heinrichstraße"/>
    <tag k="oneway" v="yes"/>
    <tag k="ref" v="B 7"/>
    <tag k="surface" v="asphalt"/>
  </way>
  <way id="26620805" version="8" timestamp="2012-01-21T13:24:24Z" uid="12614" user="rabenkind" changeset="10455353"/>
  <way id="26620904" version="2" timestamp="2010-06-29T19:17:24Z" uid="74617" user="JohnSmith" changeset="5108182">
    <nd ref="291987201"/>
    <nd ref="291987202"/>
    <nd ref="291987203"/>
    <nd ref="291987204"/>
    <nd ref="291987201"/>
    <tag k="fixme" v="sport=football is ambiguous, see http://wiki.osm.org/wiki/Football for more details"/>
    <tag k="leisure" v="pitch"/>
    <tag k="sport" v="football"/>
  </way>
  <way id="26620904" version="3" timestamp="2010-08-16T14:56:34Z" uid="138037" user="Jmz" changeset="5509925">
    <nd ref="291987201"/>
    <nd ref="291987202"/>
    <nd ref="291987203"/>
    <nd ref="291987204"/>
    <nd ref="291987201"/>
    <tag k="leisure" v="pitch"/>
    <tag k="sport" v="soccer"/>
  </way>
  <way id="26620904" version="4" timestamp="2010-10-22T07:01:45Z" uid="80189" user="Saicor" changeset="6133345">
    <nd ref="291987201"/>
    <nd ref="291987202"/>
    <nd ref="291987203"/>
    <nd ref="291987204"/>
    <nd ref="291987201"/>
    <tag k="leisure" v="pitch"/>
    <tag k="sport" v="soccer;skating"/>
  </way>
  <way id="26620945" version="6" timestamp="2010-03-16T21:59:10Z" uid="163746" user="anti_bot-nonsense" changeset="4147354">
    <nd ref="162761935"/>
    <nd ref="291988228"/>
    <nd ref="224633073"/>
    <tag k="highway" v="residential"/>
    <tag k="name" v="Długa"/>
  </way>
  <way id="26620945" version="7" timestamp="2010-08-25T15:14:08Z" uid="88909" user="miko101" changeset="5590509">
    <nd ref="162761935"/>
    <nd ref="291988228"/>
    <nd ref="878893033"/>
    <nd ref="224633073"/>
    <tag k="highway" v="residential"/>
    <tag k="name" v="Długa"/>
  </way>
  <way id="26620945" version="8" timestamp="2011-09-08T18:08:02Z" uid="91056" user="Yarl" changeset="9247651">
    <nd ref="162761935"/>
    <nd ref="291988228"/>
    <nd ref="1427268687"/>
    <nd ref="878893033"/>
    <nd ref="224633073"/>
    <tag k="highway" v="residential"/>
    <tag k="name" v="Długa"/>
  </way>
  <way id="26620945" version="9" timestamp="2011-09-10T11:47:25Z" uid="91056" user="Yarl" changeset="9261413">
    <nd ref="162761935"/>
    <nd ref="291988228"/>
    <nd ref="1427268687"/>
    <nd ref="224633073"/>
    <tag k="highway" v="residential"/>
    <tag k="name" v="Długa"/>
  </way>
  <way id="26620978" version="3" timestamp="2008-10-08T18:58:05Z" uid="30632" user="antblant" changeset="169665">
    <nd ref="291989478"/>
    <nd ref="291989491"/>
    <nd ref="291989481"/>
    <nd ref="291989492"/>
    <nd ref="291989478"/>
    <tag k="area" v="yes"/>
    <tag k="created_by" v="Potlatch 0.10b"/>
    <tag k="name" v="Plac Bernardyński"/>
  </way>
  <way id="26620978" version="4" timestamp="2010-03-16T21:59:15Z" uid="163746" user="anti_bot-nonsense" changeset="4147354">
    <nd ref="291989478"/>
    <nd ref="291989491"/>
    <nd ref="291989481"/>
    <nd ref="291989492"/>
    <nd ref="291989478"/>
    <tag k="area" v="yes"/>
    <tag k="name" v="Plac Bernardyński"/>
  </way>
  <way id="26620978" version="5" timestamp="2011-09-08T18:08:04Z" uid="91056" user="Yarl" changeset="9247651">
    <nd ref="291989478"/>
    <nd ref="291989491"/>
    <nd ref="291989481"/>
    <nd ref="291989492"/>
    <nd ref="291989478"/>
    <tag k="area" v="yes"/>
    <tag k="highway" v="pedestrian"/>
    <tag k="name" v="Plac Bernardyński"/>
  </way>
  <way id="26620984" version="3" timestamp="2009-06-29T01:55:44Z" uid="20587" user="balrog-kun" changeset="1672485">
    <nd ref="291988228"/>
    <nd ref="291989647"/>
    <nd ref="291989648"/>
    <nd ref="291989649"/>
    <nd ref="317722847"/>
    <tag k="created_by" v="Merkaartor 0.12"/>
    <tag k="highway" v="residential"/>
    <tag k="name" v="Za Bramką"/>
    <tag k="oneway" v="yes"/>
  </way>
  <way id="26620984" version="4" timestamp="2010-03-16T21:58:31Z" uid="163746" user="anti_bot-nonsense" changeset="4147354">
    <nd ref="291988228"/>
    <nd ref="291989647"/>
    <nd ref="291989648"/>
    <nd ref="291989649"/>
    <nd ref="317722847"/>
    <tag k="highway" v="residential"/>
    <tag k="name" v="Za Bramką"/>
    <tag k="oneway" v="yes"/>
  </way>
  <way id="26620984" version="5" timestamp="2010-08-25T15:10:07Z" uid="88909" user="miko101" changeset="5590509">
    <nd ref="291988228"/>
    <nd ref="291989647"/>
    <nd ref="291989648"/>
    <nd ref="878888024"/>
    <nd ref="291989649"/>
    <nd ref="317722847"/>
    <tag k="highway" v="residential"/>
    <tag k="name" v="Za Bramką"/>
    <tag k="oneway" v="yes"/>
  </way>
  <way id="26620984" version="6" timestamp="2011-02-10T15:55:33Z" uid="88909" user="miko101" changeset="7246543">
    <nd ref="291988228"/>
    <nd ref="291989647"/>
    <nd ref="1145519269"/>
    <nd ref="291989648"/>
    <nd ref="878888024"/>
    <nd ref="291989649"/>
    <nd ref="317722847"/>
    <tag k="highway" v="residential"/>
    <tag k="name" v="Za Bramką"/>
    <tag k="oneway" v="yes"/>
  </way>
  <way id="26620055" version="3" timestamp="2012-05-03T17:44:10Z" uid="328555" user="peb12345" changeset="11490930">
    <nd ref="291977657"/>
    <nd ref="1739457531"/>
    <nd ref="291977661"/>
    <tag k="highway" v="residential"/>
    <tag k="oneway" v="yes"/>
  </way>
  <way id="26620055" version="4" timestamp="2012-05-26T21:24:33Z" uid="96643" user="mx5CN66" changeset="11710493">
    <nd ref="291977657"/>
    <nd ref="1739457531"/>
    <nd ref="291977661"/>
    <tag k="highway" v="residential"/>
    <tag k="name" v="Eisenbahnstraße"/>
    <tag k="oneway" v="yes"/>
  </way>
  <way id="26620055" version="5" timestamp="2012-07-17T10:05:04Z" uid="722137" user="OSMF Redaction Account" changeset="12262567">
    <nd ref="291977657"/>
    <nd ref="1739457531"/>
    <nd ref="291977661"/>
    <tag k="highway" v="residential"/>
    <tag k="name" v="Eisenbahnstraße"/>
  </way>
  <way id="26620055" version="6" timestamp="2012-08-07T17:11:51Z" uid="189997" user="gerd95" changeset="12648108">
    <nd ref="291977657"/>
    <nd ref="1855926820"/>
    <nd ref="1739457531"/>
    <nd ref="291977661"/>
    <tag k="highway" v="residential"/>
    <tag k="name" v="Eisenbahnstraße"/>
  </way>
  <way id="26620056" version="7" timestamp="2012-05-03T17:44:07Z" uid="328555" user="peb12345" changeset="11490930">
    <nd ref="291977661"/>
    <nd ref="291977662"/>
    <nd ref="345552289"/>
    <nd ref="1739457532"/>
    <nd ref="763374000"/>
    <nd ref="291977663"/>
    <tag k="highway" v="residential"/>
    <tag k="name" v="Friedrich-Ebert-Straße"/>
  </way>
  <way id="26620056" version="8" timestamp="2012-05-27T23:47:45Z" uid="96643" user="mx5CN66" changeset="11721528">
    <nd ref="291977661"/>
    <nd ref="291977662"/>
    <nd ref="345552289"/>
    <nd ref="1739457532"/>
    <nd ref="763374000"/>
    <nd ref="291977663"/>
    <tag k="highway" v="residential"/>
    <tag k="name" v="Friedrich-Ebert-Straße"/>
    <tag k="ref" v="K 9"/>
  </way>
  <way id="26620056" version="9" timestamp="2012-06-03T19:01:18Z" uid="96643" user="mx5CN66" changeset="11789937">
    <nd ref="291977661"/>
    <nd ref="345552289"/>
    <nd ref="1739457532"/>
    <nd ref="763374000"/>
    <nd ref="291977663"/>
    <tag k="highway" v="residential"/>
    <tag k="maxspeed" v="30"/>
    <tag k="name" v="Friedrich-Ebert-Straße"/>
    <tag k="ref" v="K 9"/>
    <tag k="source:maxspeed" v="DE:zone:30"/>
  </way>
  <way id="26620056" version="10" timestamp="2012-06-05T00:41:22Z" uid="96643" user="mx5CN66" changeset="11801976">
    <nd ref="291977661"/>
    <nd ref="345552289"/>
    <nd ref="1739457532"/>
    <nd ref="1776692893"/>
    <nd ref="763374000"/>
    <nd ref="291977663"/>
    <tag k="highway" v="residential"/>
    <tag k="maxspeed" v="30"/>
    <tag k="name" v="Friedrich-Ebert-Straße"/>
    <tag k="ref" v="K 9"/>
    <tag k="source:maxspeed" v="DE:zone:30"/>
  </way>
  <way id="26620056" version="11" timestamp="2012-07-17T10:05:05Z" uid="722137" user="OSMF Redaction Account" changeset="12262567">
    <nd ref="291977661"/>
    <nd ref="1739457532"/>
    <nd ref="1776692893"/>
    <nd ref="763374000"/>
    <nd ref="291977663"/>
    <tag k="highway" v="residential"/>
    <tag k="maxspeed" v="30"/>
    <tag k="name" v="Friedrich-Ebert-Straße"/>
    <tag k="ref" v="K 9"/>
    <tag k="source:maxspeed" v="DE:zone:30"/>
  </way>
  <way id="26620056" version="12" timestamp="2012-08-07T17:13:21Z" uid="189997" user="gerd95" changeset="12648131">
    <nd ref="291977661"/>
    <nd ref="345552289"/>
    <nd ref="1739457532"/>
    <nd ref="1776692893"/>
    <nd ref="763374000"/>
    <nd ref="291977663"/>
    <tag k="highway" v="residential"/>
    <tag k="maxspeed" v="30"/>
    <tag k="name" v="Friedrich-Ebert-Straße"/>
    <tag k="ref" v="K 9"/>
    <tag k="source:maxspeed" v="DE:zone:30"/>
  </way>
  <way id="26620056" version="13" timestamp="2012-09-11T22:30:37Z" uid="24920" user="Schusch" changeset="13076329">
    <nd ref="291977661"/>
    <nd ref="345552289"/>
    <nd ref="1739457532"/>
    <nd ref="1776692893"/>
    <nd ref="763374000"/>
    <nd ref="291977663"/>
    <tag k="highway" v="residential"/>
    <tag k="maxspeed" v="30"/>
    <tag k="name" v="Friedrich-Ebert-Straße"/>
    <tag k="ref" v="K 9"/>
    <tag k="source:maxspeed" v="DE:zone"/>
  </way>
  <way id="26620075" version="14" timestamp="2012-04-07T08:49:18Z" uid="123364" user="Tronikon" changeset="11210896">
    <nd ref="250039027"/>
    <nd ref="250039028"/>
    <nd ref="250039029"/>
    <nd ref="250039031"/>
    <nd ref="886118678"/>
    <nd ref="250039036"/>
    <nd ref="374014007"/>
    <nd ref="250039056"/>
    <nd ref="345697972"/>
    <nd ref="1705470873"/>
    <nd ref="1705470876"/>
    <nd ref="345698044"/>
    <nd ref="1618738769"/>
    <nd ref="315734010"/>
    <nd ref="724263951"/>
    <nd ref="823007967"/>
    <nd ref="369984557"/>
    <tag k="highway" v="tertiary"/>
    <tag k="name" v="Heßheimer Straße"/>
  </way>
  <way id="26620075" version="15" timestamp="2012-04-09T02:28:52Z" uid="96643" user="mx5CN66" changeset="11232706">
    <nd ref="250039027"/>
    <nd ref="250039028"/>
    <nd ref="250039029"/>
    <nd ref="250039031"/>
    <nd ref="886118678"/>
    <nd ref="250039036"/>
    <tag k="highway" v="tertiary"/>
    <tag k="name" v="Heßheimer Straße"/>
  </way>
  <way id="26620075" version="16" timestamp="2012-04-10T01:41:33Z" uid="96643" user="mx5CN66" changeset="11247088">
    <nd ref="250039027"/>
    <nd ref="250039028"/>
    <nd ref="250039029"/>
    <nd ref="250039031"/>
    <nd ref="886118678"/>
    <nd ref="250039036"/>
    <tag k="highway" v="tertiary"/>
    <tag k="name" v="Heßheimer Straße"/>
    <tag k="ref" v="K 9"/>
  </way>
  <way id="26620075" version="17" timestamp="2012-04-18T23:29:16Z" uid="96643" user="mx5CN66" changeset="11349692">
    <nd ref="250039027"/>
    <nd ref="250039031"/>
    <nd ref="250039036"/>
    <tag k="highway" v="tertiary"/>
    <tag k="name" v="Heßheimer Straße"/>
    <tag k="ref" v="K 9"/>
  </way>
  <way id="26620075" version="18" timestamp="2012-04-19T22:26:53Z" uid="96643" user="mx5CN66" changeset="11359058">
    <nd ref="250039027"/>
    <nd ref="250039031"/>
    <nd ref="1723379943"/>
    <nd ref="250039036"/>
    <tag k="highway" v="tertiary"/>
    <tag k="name" v="Heßheimer Straße"/>
    <tag k="ref" v="K 9"/>
  </way>
  <way id="26620075" version="19" timestamp="2012-05-27T23:47:47Z" uid="96643" user="mx5CN66" changeset="11721528">
    <nd ref="250039027"/>
    <nd ref="250039031"/>
    <nd ref="1723379943"/>
    <nd ref="250039036"/>
    <tag k="highway" v="tertiary"/>
    <tag k="name" v="Heßheimer Straße"/>
    <tag k="ref" v="K 9"/>
  </way>
  <way id="26620587" version="8" timestamp="2012-07-17T05:17:22Z" uid="722137" user="OSMF Redaction Account" changeset="12257563">
    <nd ref="33699539"/>
    <nd ref="32517874"/>
    <nd ref="415388339"/>
    <tag k="highway" v="primary"/>
    <tag k="motorroad" v="yes"/>
    <tag k="ref" v="B 19"/>
  </way>
  <way id="26620984" version="7" timestamp="2012-09-05T09:00:28Z" uid="641600" user="piottr" changeset="12992988">
    <nd ref="291988228"/>
    <nd ref="291989647"/>
    <nd ref="1145519269"/>
    <nd ref="291989648"/>
    <nd ref="878888024"/>
    <nd ref="317722847"/>
    <tag k="highway" v="residential"/>
    <tag k="name" v="Za Bramką"/>
    <tag k="oneway" v="yes"/>
  </way>
</osm>
