<?xml version='1.0' encoding='UTF-8'?>
<osm version="0.6" generator="libosmium/2.20.0">
  <way id="26672049" version="7" timestamp="2010-07-09T04:05:35Z" uid="74617" user="JohnSmith" changeset="5170825">
    <nd ref="292534474"/>
    <nd ref="292534535"/>
    <nd ref="317328515"/>
    <nd ref="292534537"/>
    <nd ref="317327477"/>
    <nd ref="317327554"/>
    <nd ref="317327348"/>
    <nd ref="292534538"/>
    <tag k="highway" v="residential"/>
    <tag k="maxspeed" v="50"/>
    <tag k="maxspeed:source" v="default residential speed limit in Australia"/>
    <tag k="name" v="Duff Parade"/>
    <tag k="source" v="MMBW"/>
  </way>
  <way id="26672049" version="8" timestamp="2012-01-17T04:10:33Z" uid="147510" user="woodpeck_fixbot" changeset="10414164">
    <nd ref="292534474"/>
    <nd ref="292534535"/>
    <nd ref="317328515"/>
    <nd ref="292534537"/>
    <nd ref="317327477"/>
    <nd ref="317327554"/>
    <nd ref="317327348"/>
    <nd ref="292534538"/>
    <tag k="highway" v="residential"/>
    <tag k="name" v="Duff Parade"/>
    <tag k="source" v="MMBW"/>
  </way>
  <way id="26672049" version="9" timestamp="2012-03-29T06:38:25Z" uid="211804" user="KenS" changeset="11134069"/>
  <way id="26672176" version="1" timestamp="2008-08-31T11:05:47Z" uid="61114" user="Trav" changeset="479734">
    <nd ref="292534608"/>
    <nd ref="31324580"/>
    <tag k="created_by" v="Merkaartor 0.12"/>
    <tag k="highway" v="residential"/>
    <tag k="name" v="Anglo Road"/>
    <tag k="source:name" v="historical"/>
  </way>
  <way id="26672176" version="2" timestamp="2010-03-14T13:07:14Z" uid="7617" user="Franc" changeset="4124127">
    <nd ref="292534608"/>
    <nd ref="665877051"/>
    <tag k="highway" v="residential"/>
    <tag k="name" v="Anglo Road"/>
    <tag k="source:name" v="historical"/>
  </way>
  <way id="26672176" version="3" timestamp="2010-07-08T01:01:07Z" uid="74617" user="JohnSmith" changeset="5162525">
    <nd ref="292534608"/>
    <nd ref="665877051"/>
    <tag k="highway" v="residential"/>
    <tag k="maxspeed" v="50"/>
    <tag k="maxspeed:source" v="default residential speed limit in Australia"/>
    <tag k="name" v="Anglo Road"/>
    <tag k="source:name" v="historical"/>
  </way>
  <way id="26672176" version="4" timestamp="2012-01-17T04:10:34Z" uid="147510" user="woodpeck_fixbot" changeset="10414164">
    <nd ref="292534608"/>
    <nd ref="665877051"/>
    <tag k="highway" v="residential"/>
    <tag k="name" v="Anglo Road"/>
    <tag k="source:name" v="historical"/>
  </way>
  <way id="26672176" version="5" timestamp="2012-02-09T05:25:59Z" uid="7523" user="inas" changeset="10630815"/>
  <way id="26672181" version="3" timestamp="2010-07-09T04:09:37Z" uid="74617" user="JohnSmith" changeset="5170825">
    <nd ref="292534610"/>
    <nd ref="292534663"/>
    <tag k="highway" v="residential"/>
    <tag k="maxspeed" v="50"/>
    <tag k="maxspeed:source" v="default residential speed limit in Australia"/>
    <tag k="name" v="Stone Court"/>
  </way>
  <way id="26672181" version="4" timestamp="2012-01-17T04:10:36Z" uid="147510" user="woodpeck_fixbot" changeset="10414164">
    <nd ref="292534610"/>
    <nd ref="292534663"/>
    <tag k="highway" v="residential"/>
    <tag k="name" v="Stone Court"/>
  </way>
  <way id="26672181" version="5" timestamp="2012-03-29T06:38:27Z" uid="211804" user="KenS" changeset="11134069"/>
  <way id="26672182" version="1" timestamp="2008-08-31T11:05:48Z" uid="61114" user="Trav" changeset="479734">
    <nd ref="292534609"/>
    <nd ref="292534608"/>
    <tag k="created_by" v="Merkaartor 0.12"/>
    <tag k="highway" v="footway"/>
    <tag k="name" v="Anglo Road"/>
    <tag k="source:name" v="historical"/>
  </way>
  <way id="26672311" version="3" timestamp="2010-07-09T04:01:04Z" uid="74617" user="JohnSmith" changeset="5170825">
    <nd ref="292534664"/>
    <nd ref="292534665"/>
    <tag k="highway" v="residential"/>
    <tag k="maxspeed" v="50"/>
    <tag k="maxspeed:source" v="default residential speed limit in Australia"/>
    <tag k="name" v="Alec Court"/>
  </way>
  <way id="26672311" version="4" timestamp="2012-01-17T04:10:37Z" uid="147510" user="woodpeck_fixbot" changeset="10414164">
    <nd ref="292534664"/>
    <nd ref="292534665"/>
    <tag k="highway" v="residential"/>
    <tag k="name" v="Alec Court"/>
  </way>
  <way id="26672311" version="5" timestamp="2012-03-29T06:38:24Z" uid="211804" user="KenS" changeset="11134069"/>
  <way id="26672182" version="2" timestamp="2012-07-19T21:41:40Z" uid="722137" user="OSMF Redaction Account" changeset="12348779"/>
</osm>
