<?xml version='1.0' encoding='UTF-8'?>
<osm version="0.6" generator="libosmium/2.20.0">
  <way id="26814167" version="1" timestamp="2008-09-06T15:20:17Z" uid="64977" user="CLoeser" changeset="549071">
    <nd ref="31506405"/>
    <nd ref="277015402"/>
    <nd ref="279219333"/>
    <nd ref="279219704"/>
    <nd ref="31506402"/>
    <nd ref="31506401"/>
    <nd ref="31506400"/>
    <nd ref="31506399"/>
    <nd ref="294129170"/>
    <nd ref="31506398"/>
    <nd ref="31506397"/>
    <nd ref="30768225"/>
    <tag k="created_by" v="Potlatch 0.10b"/>
    <tag k="highway" v="primary"/>
    <tag k="ref" v="B 77"/>
  </way>
  <way id="26814167" version="2" timestamp="2008-09-06T15:23:05Z" uid="64977" user="CLoeser" changeset="549071">
    <nd ref="31506405"/>
    <nd ref="277015402"/>
    <nd ref="279219333"/>
    <nd ref="279219704"/>
    <nd ref="31506402"/>
    <nd ref="31506401"/>
    <nd ref="31506400"/>
    <nd ref="31506399"/>
    <nd ref="294129170"/>
    <nd ref="31506398"/>
    <nd ref="31506397"/>
    <nd ref="30768225"/>
    <tag k="created_by" v="Potlatch 0.10b"/>
    <tag k="highway" v="primary"/>
    <tag k="name" v="Sandberg"/>
    <tag k="ref" v="B 77"/>
  </way>
  <way id="26814167" version="3" timestamp="2008-10-01T22:15:59Z" uid="41532" user="kide" changeset="32622">
    <nd ref="31506405"/>
    <nd ref="277015402"/>
    <nd ref="301477483"/>
    <nd ref="279219333"/>
    <nd ref="279219704"/>
    <nd ref="31506402"/>
    <nd ref="31506401"/>
    <nd ref="31506400"/>
    <nd ref="31506399"/>
    <nd ref="294129170"/>
    <nd ref="31506398"/>
    <nd ref="31506397"/>
    <nd ref="30768225"/>
    <tag k="created_by" v="Potlatch 0.10c"/>
    <tag k="highway" v="primary"/>
    <tag k="name" v="Sandberg"/>
    <tag k="ref" v="B 77"/>
  </way>
  <way id="26814167" version="4" timestamp="2008-11-29T18:02:23Z" uid="75388" user="Svalbard" changeset="810774">
    <nd ref="31506405"/>
    <nd ref="277015402"/>
    <nd ref="301477483"/>
    <nd ref="315558286"/>
    <nd ref="279219333"/>
    <nd ref="279219704"/>
    <nd ref="31506402"/>
    <nd ref="31506401"/>
    <nd ref="31506400"/>
    <nd ref="31506399"/>
    <nd ref="294129170"/>
    <nd ref="31506398"/>
    <nd ref="31506397"/>
    <nd ref="30768225"/>
    <tag k="created_by" v="Potlatch 0.10c"/>
    <tag k="highway" v="primary"/>
    <tag k="name" v="Sandberg"/>
    <tag k="ref" v="B 77"/>
  </way>
  <way id="26814167" version="5" timestamp="2008-12-28T19:01:58Z" uid="75388" user="Svalbard" changeset="653030">
    <nd ref="31506405"/>
    <nd ref="277015402"/>
    <nd ref="301477483"/>
    <nd ref="315558286"/>
    <nd ref="279219333"/>
    <nd ref="279219704"/>
    <nd ref="31506402"/>
    <nd ref="31506401"/>
    <nd ref="31506400"/>
    <nd ref="31506399"/>
    <nd ref="294129170"/>
    <nd ref="31506398"/>
    <nd ref="322632199"/>
    <nd ref="31506397"/>
    <nd ref="30768225"/>
    <tag k="created_by" v="Potlatch 0.10c"/>
    <tag k="highway" v="primary"/>
    <tag k="name" v="Sandberg"/>
    <tag k="ref" v="B 77"/>
  </way>
  <way id="26814167" version="6" timestamp="2009-01-04T20:29:54Z" uid="75388" user="Svalbard" changeset="733358">
    <nd ref="31506405"/>
    <nd ref="277015402"/>
    <nd ref="301477483"/>
    <nd ref="315558286"/>
    <nd ref="279219333"/>
    <nd ref="279219704"/>
    <nd ref="326056165"/>
    <nd ref="31506402"/>
    <nd ref="31506401"/>
    <nd ref="31506400"/>
    <nd ref="31506399"/>
    <nd ref="294129170"/>
    <nd ref="31506398"/>
    <nd ref="322632199"/>
    <nd ref="31506397"/>
    <nd ref="30768225"/>
    <tag k="created_by" v="Potlatch 0.10c"/>
    <tag k="highway" v="primary"/>
    <tag k="name" v="Sandberg"/>
    <tag k="ref" v="B 77"/>
  </way>
  <way id="26814167" version="7" timestamp="2009-03-31T17:59:50Z" uid="75388" user="Svalbard" changeset="872878">
    <nd ref="31506405"/>
    <nd ref="277015402"/>
    <nd ref="301477483"/>
    <nd ref="367952052"/>
    <nd ref="315558286"/>
    <nd ref="279219333"/>
    <nd ref="279219704"/>
    <nd ref="326056165"/>
    <nd ref="31506402"/>
    <nd ref="31506401"/>
    <nd ref="31506400"/>
    <nd ref="31506399"/>
    <nd ref="294129170"/>
    <nd ref="31506398"/>
    <nd ref="322632199"/>
    <nd ref="31506397"/>
    <nd ref="30768225"/>
    <tag k="created_by" v="Potlatch 0.10c"/>
    <tag k="highway" v="primary"/>
    <tag k="name" v="Sandberg"/>
    <tag k="ref" v="B 77"/>
  </way>
  <way id="26814167" version="8" timestamp="2010-05-10T08:07:48Z" uid="75388" user="Svalbard" changeset="4656799">
    <nd ref="31506405"/>
    <nd ref="277015402"/>
    <nd ref="301477483"/>
    <nd ref="367952052"/>
    <nd ref="315558286"/>
    <nd ref="279219333"/>
    <nd ref="279219704"/>
    <nd ref="326056165"/>
    <nd ref="31506402"/>
    <nd ref="31506401"/>
    <nd ref="31506400"/>
    <nd ref="31506399"/>
    <nd ref="294129170"/>
    <nd ref="31506398"/>
    <nd ref="322632199"/>
    <nd ref="31506397"/>
    <nd ref="30768225"/>
    <tag k="highway" v="primary"/>
    <tag k="name" v="Sandberg"/>
    <tag k="ref" v="B 77"/>
  </way>
  <way id="26814167" version="9" timestamp="2011-10-19T15:30:08Z" uid="66904" user="OSchlüter" changeset="9600835">
    <nd ref="31506405"/>
    <nd ref="277015402"/>
    <nd ref="301477483"/>
    <nd ref="367952052"/>
    <nd ref="315558286"/>
    <nd ref="279219333"/>
    <nd ref="279219704"/>
    <nd ref="1473172253"/>
    <nd ref="1473171788"/>
    <tag k="highway" v="primary"/>
    <tag k="name" v="Sandberg"/>
    <tag k="ref" v="B 77"/>
  </way>
  <way id="26814167" version="10" timestamp="2011-12-29T16:59:45Z" uid="443617" user="HawkPat" changeset="10237307">
    <nd ref="31506405"/>
    <nd ref="277015402"/>
    <nd ref="301477483"/>
    <nd ref="367952052"/>
    <tag k="highway" v="primary"/>
    <tag k="name" v="Sandberg"/>
    <tag k="ref" v="B 77"/>
  </way>
  <way id="26814276" version="4" timestamp="2009-12-09T20:23:55Z" uid="200463" user="harmagedon" changeset="3336536">
    <nd ref="294144886"/>
    <nd ref="294144885"/>
    <tag k="bridge" v="yes"/>
    <tag k="highway" v="secondary"/>
    <tag k="layer" v="2"/>
    <tag k="ref" v="265"/>
  </way>
  <way id="26814276" version="5" timestamp="2010-04-17T20:47:03Z" uid="30398" user="vaust" changeset="4452163">
    <nd ref="294144886"/>
    <nd ref="700268535"/>
    <nd ref="294144885"/>
    <tag k="bridge" v="yes"/>
    <tag k="highway" v="secondary"/>
    <tag k="layer" v="2"/>
    <tag k="ref" v="265"/>
  </way>
  <way id="26814276" version="6" timestamp="2012-02-22T19:51:38Z" uid="222568" user="Pfad-Finder" changeset="10762530"/>
  <way id="26814277" version="3" timestamp="2009-12-09T20:23:01Z" uid="200463" user="harmagedon" changeset="3336536">
    <nd ref="294144885"/>
    <nd ref="74012617"/>
    <nd ref="297040610"/>
    <nd ref="297040632"/>
    <nd ref="73916243"/>
    <nd ref="74003586"/>
    <nd ref="283078833"/>
    <nd ref="73987441"/>
    <nd ref="73911873"/>
    <nd ref="283078834"/>
    <nd ref="73993756"/>
    <nd ref="73901932"/>
    <nd ref="73984302"/>
    <nd ref="283078835"/>
    <nd ref="73890415"/>
    <nd ref="283078837"/>
    <nd ref="283078838"/>
    <nd ref="73960674"/>
    <nd ref="283078839"/>
    <tag k="highway" v="secondary"/>
    <tag k="ref" v="265"/>
  </way>
  <way id="26814277" version="4" timestamp="2009-12-22T18:56:02Z" uid="29084" user="stoecker" changeset="3429533">
    <nd ref="294144885"/>
    <nd ref="74012617"/>
    <nd ref="297040610"/>
    <nd ref="297040632"/>
    <nd ref="73916243"/>
    <nd ref="74003586"/>
    <nd ref="283078833"/>
    <nd ref="73987441"/>
    <nd ref="73911873"/>
    <nd ref="283078834"/>
    <nd ref="73993756"/>
    <nd ref="73901932"/>
    <nd ref="73984302"/>
    <nd ref="283078835"/>
    <nd ref="73890415"/>
    <nd ref="283078837"/>
    <nd ref="283078838"/>
    <nd ref="598253370"/>
    <tag k="highway" v="secondary"/>
    <tag k="ref" v="265"/>
  </way>
  <way id="26814277" version="5" timestamp="2010-04-17T20:47:02Z" uid="30398" user="vaust" changeset="4452163">
    <nd ref="294144885"/>
    <nd ref="700268525"/>
    <nd ref="297040610"/>
    <nd ref="700268470"/>
    <nd ref="297040632"/>
    <nd ref="73916243"/>
    <nd ref="74003586"/>
    <nd ref="283078833"/>
    <nd ref="73987441"/>
    <nd ref="73911873"/>
    <nd ref="283078834"/>
    <nd ref="73993756"/>
    <nd ref="73901932"/>
    <nd ref="73984302"/>
    <nd ref="283078835"/>
    <nd ref="73890415"/>
    <nd ref="283078837"/>
    <nd ref="283078838"/>
    <nd ref="598253370"/>
    <tag k="highway" v="secondary"/>
    <tag k="ref" v="265"/>
  </way>
  <way id="26814277" version="6" timestamp="2012-02-22T19:51:38Z" uid="222568" user="Pfad-Finder" changeset="10762530"/>
  <way id="26814599" version="2" timestamp="2008-09-14T15:27:26Z" uid="6975" user="ulfl" changeset="640534">
    <nd ref="294149050"/>
    <nd ref="294149051"/>
    <nd ref="294149053"/>
    <nd ref="294149057"/>
    <nd ref="294149056"/>
    <nd ref="294149054"/>
    <nd ref="294149050"/>
    <tag k="area" v="yes"/>
    <tag k="landuse" v="cemetery"/>
    <tag k="name" v="Alter Friedhof"/>
  </way>
  <way id="26814764" version="1" timestamp="2008-09-06T15:50:40Z" uid="58091" user="Andreas M" changeset="549614">
    <nd ref="294150663"/>
    <nd ref="25280877"/>
    <tag k="created_by" v="Potlatch 0.4c"/>
    <tag k="highway" v="secondary"/>
    <tag k="name" v="Wienerbergbrücke"/>
  </way>
  <way id="26814764" version="2" timestamp="2008-11-06T14:20:06Z" uid="77880" user="MapFlea" changeset="700414">
    <nd ref="294150663"/>
    <nd ref="25280877"/>
    <tag k="created_by" v="Potlatch 0.4c"/>
    <tag k="cycleway" v="track"/>
    <tag k="highway" v="secondary"/>
    <tag k="name" v="Wienerbergbrücke"/>
  </way>
  <way id="26814764" version="3" timestamp="2010-01-19T20:37:54Z" uid="78656" user="Walter Schlögl" changeset="3662038">
    <nd ref="294150663"/>
    <nd ref="25280877"/>
    <tag k="cycleway" v="track"/>
    <tag k="highway" v="secondary"/>
    <tag k="maxspeed" v="50"/>
    <tag k="name" v="Wienerbergbrücke"/>
  </way>
  <way id="26814764" version="4" timestamp="2010-07-23T12:21:41Z" uid="111529" user="ReinerMeyer" changeset="5295206">
    <nd ref="294150663"/>
    <nd ref="830084184"/>
    <nd ref="25280877"/>
    <tag k="cycleway" v="track"/>
    <tag k="highway" v="secondary"/>
    <tag k="maxspeed" v="50"/>
    <tag k="name" v="Wienerbergbrücke"/>
  </way>
  <way id="26814764" version="5" timestamp="2010-11-28T09:19:58Z" uid="231980" user="boerl2" changeset="6476201">
    <nd ref="294150663"/>
    <nd ref="25280877"/>
    <tag k="highway" v="secondary"/>
    <tag k="maxspeed" v="50"/>
    <tag k="name" v="Wienerbergbrücke"/>
  </way>
  <way id="26814764" version="6" timestamp="2011-03-22T09:11:58Z" uid="302363" user="fkv" changeset="7635088">
    <nd ref="294150663"/>
    <nd ref="1212970784"/>
    <tag k="highway" v="secondary"/>
    <tag k="maxspeed" v="50"/>
    <tag k="name" v="Wienerbergbrücke"/>
    <tag k="oneway" v="yes"/>
    <tag k="source:maxspeed" v="AT:urban"/>
  </way>
  <way id="26814764" version="7" timestamp="2011-07-07T21:41:18Z" uid="414617" user="Tiroler" changeset="8661328">
    <nd ref="294150663"/>
    <nd ref="1353022647"/>
    <nd ref="1212970784"/>
    <tag k="highway" v="secondary"/>
    <tag k="maxspeed" v="50"/>
    <tag k="name" v="Wienerbergbrücke"/>
    <tag k="oneway" v="yes"/>
    <tag k="source:maxspeed" v="AT:urban"/>
  </way>
  <way id="26814764" version="8" timestamp="2012-01-26T21:40:07Z" uid="129531" user="almich" changeset="10507566"/>
  <way id="26814765" version="1" timestamp="2008-09-06T15:50:40Z" uid="58091" user="Andreas M" changeset="549614">
    <nd ref="294150664"/>
    <nd ref="294150663"/>
    <tag k="bridge" v="yes"/>
    <tag k="created_by" v="Potlatch 0.4c"/>
    <tag k="highway" v="secondary"/>
    <tag k="layer" v="1"/>
    <tag k="name" v="Wienerbergbrücke"/>
  </way>
  <way id="26814765" version="2" timestamp="2008-10-12T17:34:22Z" uid="58402" user="fdemmer" changeset="280104">
    <nd ref="294150664"/>
    <nd ref="294150663"/>
    <tag k="bridge" v="yes"/>
    <tag k="created_by" v="Potlatch 0.4c"/>
    <tag k="highway" v="secondary"/>
    <tag k="layer" v="1"/>
    <tag k="name" v="Wienerbergbrücke"/>
  </way>
  <way id="26814765" version="3" timestamp="2008-11-06T14:20:07Z" uid="77880" user="MapFlea" changeset="700414">
    <nd ref="294150664"/>
    <nd ref="294150663"/>
    <tag k="bridge" v="yes"/>
    <tag k="created_by" v="Potlatch 0.4c"/>
    <tag k="cycleway" v="track"/>
    <tag k="highway" v="secondary"/>
    <tag k="layer" v="1"/>
    <tag k="name" v="Wienerbergbrücke"/>
  </way>
  <way id="26814765" version="4" timestamp="2009-04-08T19:09:33Z" uid="58402" user="fdemmer" changeset="329740">
    <nd ref="294150664"/>
    <nd ref="294150663"/>
    <tag k="bridge" v="yes"/>
    <tag k="created_by" v="Potlatch 0.10f"/>
    <tag k="cycleway" v="track"/>
    <tag k="highway" v="secondary"/>
    <tag k="layer" v="1"/>
    <tag k="name" v="Wienerbergbrücke"/>
  </way>
  <way id="26814765" version="5" timestamp="2010-01-19T20:37:54Z" uid="78656" user="Walter Schlögl" changeset="3662038">
    <nd ref="294150664"/>
    <nd ref="294150663"/>
    <tag k="bridge" v="yes"/>
    <tag k="cycleway" v="track"/>
    <tag k="highway" v="secondary"/>
    <tag k="layer" v="1"/>
    <tag k="maxspeed" v="50"/>
    <tag k="name" v="Wienerbergbrücke"/>
  </way>
  <way id="26814765" version="6" timestamp="2010-11-28T09:20:05Z" uid="231980" user="boerl2" changeset="6476201">
    <nd ref="294150664"/>
    <nd ref="294150663"/>
    <tag k="bridge" v="yes"/>
    <tag k="highway" v="secondary"/>
    <tag k="layer" v="1"/>
    <tag k="maxspeed" v="50"/>
    <tag k="name" v="Wienerbergbrücke"/>
  </way>
  <way id="26814765" version="7" timestamp="2011-03-22T09:11:58Z" uid="302363" user="fkv" changeset="7635088">
    <nd ref="294150664"/>
    <nd ref="294150663"/>
    <tag k="bridge" v="yes"/>
    <tag k="highway" v="secondary"/>
    <tag k="layer" v="1"/>
    <tag k="maxspeed" v="50"/>
    <tag k="name" v="Wienerbergbrücke"/>
    <tag k="oneway" v="yes"/>
    <tag k="source:maxspeed" v="AT:urban"/>
  </way>
  <way id="26814765" version="8" timestamp="2012-01-26T21:40:07Z" uid="129531" user="almich" changeset="10507566"/>
  <way id="26814829" version="3" timestamp="2011-03-18T20:25:35Z" uid="9581" user="Lobelt" changeset="7599029">
    <nd ref="270968919"/>
    <nd ref="270968921"/>
    <nd ref="270968927"/>
    <nd ref="1207753749"/>
    <nd ref="270968934"/>
    <nd ref="270968940"/>
    <nd ref="270968946"/>
    <nd ref="270968952"/>
    <nd ref="270968957"/>
    <nd ref="270968969"/>
    <nd ref="270968962"/>
    <nd ref="270968973"/>
    <tag k="cycleway" v="track"/>
    <tag k="foot" v="yes"/>
    <tag k="highway" v="track"/>
  </way>
  <way id="26814912" version="4" timestamp="2010-07-21T20:59:04Z" uid="9581" user="Lobelt" changeset="5282394">
    <nd ref="294152732"/>
    <nd ref="294152733"/>
    <nd ref="828136314"/>
    <nd ref="294152734"/>
    <nd ref="294152735"/>
    <nd ref="294152732"/>
    <tag k="power" v="sub_station"/>
  </way>
  <way id="26814912" version="5" timestamp="2010-12-02T07:53:29Z" uid="61794" user="dmuecke" changeset="6511865">
    <nd ref="294152732"/>
    <nd ref="1015552700"/>
    <nd ref="1015552621"/>
    <nd ref="294152733"/>
    <nd ref="828136314"/>
    <nd ref="1015552638"/>
    <nd ref="294152734"/>
    <nd ref="294152735"/>
    <nd ref="294152732"/>
    <tag k="power" v="sub_station"/>
  </way>
  <way id="26814912" version="6" timestamp="2012-01-18T08:31:56Z" uid="131968" user="changchun_1" changeset="10425258"/>
  <way id="26814984" version="1" timestamp="2008-09-06T16:04:16Z" uid="58091" user="Andreas M" changeset="549614">
    <nd ref="294153575"/>
    <nd ref="294153574"/>
    <tag k="bridge" v="yes"/>
    <tag k="created_by" v="Potlatch 0.10b"/>
    <tag k="layer" v="1"/>
    <tag k="name" v="37"/>
    <tag k="railway" v="tram"/>
  </way>
  <way id="26814984" version="2" timestamp="2009-01-01T15:32:03Z" uid="58091" user="Andreas M" changeset="703113"/>
  <way id="26814985" version="1" timestamp="2008-09-06T16:04:17Z" uid="58091" user="Andreas M" changeset="549614">
    <nd ref="294153574"/>
    <nd ref="99109990"/>
    <nd ref="60632369"/>
    <nd ref="287864938"/>
    <nd ref="60632368"/>
    <nd ref="60632367"/>
    <nd ref="287864944"/>
    <nd ref="68943113"/>
    <nd ref="287864946"/>
    <nd ref="60632366"/>
    <nd ref="283732882"/>
    <nd ref="60632175"/>
    <nd ref="69241301"/>
    <nd ref="60632270"/>
    <nd ref="69240477"/>
    <nd ref="60632191"/>
    <nd ref="60632226"/>
    <nd ref="60735535"/>
    <nd ref="69240140"/>
    <nd ref="60632233"/>
    <nd ref="33344232"/>
    <nd ref="33344241"/>
    <nd ref="33344242"/>
    <nd ref="33344243"/>
    <nd ref="264123689"/>
    <tag k="created_by" v="Potlatch 0.10b"/>
    <tag k="name" v="37"/>
    <tag k="railway" v="tram"/>
  </way>
  <way id="26814985" version="2" timestamp="2008-09-06T16:10:26Z" uid="58091" user="Andreas M" changeset="549614">
    <nd ref="294153574"/>
    <nd ref="99109990"/>
    <nd ref="60632369"/>
    <nd ref="287864938"/>
    <nd ref="60632368"/>
    <nd ref="60632367"/>
    <nd ref="287864944"/>
    <nd ref="68943113"/>
    <nd ref="287864946"/>
    <nd ref="60632366"/>
    <nd ref="283732882"/>
    <nd ref="60632175"/>
    <nd ref="69241301"/>
    <nd ref="60632270"/>
    <nd ref="69240477"/>
    <nd ref="60632191"/>
    <nd ref="60632226"/>
    <nd ref="60735535"/>
    <nd ref="69240140"/>
    <nd ref="60632233"/>
    <nd ref="33344232"/>
    <nd ref="33344241"/>
    <nd ref="33344242"/>
    <nd ref="33344243"/>
    <nd ref="294154525"/>
    <nd ref="264123689"/>
    <tag k="created_by" v="Potlatch 0.10b"/>
    <tag k="name" v="37"/>
    <tag k="railway" v="tram"/>
  </way>
  <way id="26814985" version="3" timestamp="2008-09-07T18:04:55Z" uid="58091" user="Andreas M" changeset="567784">
    <nd ref="294153574"/>
    <nd ref="99109990"/>
    <nd ref="60632369"/>
    <nd ref="287864938"/>
    <nd ref="60632368"/>
    <nd ref="60632367"/>
    <nd ref="287864944"/>
    <nd ref="68943113"/>
    <nd ref="287864946"/>
    <nd ref="60632366"/>
    <nd ref="283732882"/>
    <nd ref="294835630"/>
    <nd ref="60632175"/>
    <nd ref="69241301"/>
    <nd ref="294835633"/>
    <nd ref="60632270"/>
    <nd ref="69240477"/>
    <nd ref="60632191"/>
    <nd ref="294835623"/>
    <nd ref="60632226"/>
    <nd ref="294835626"/>
    <nd ref="60735535"/>
    <nd ref="69240140"/>
    <nd ref="294835619"/>
    <nd ref="60632233"/>
    <nd ref="294835616"/>
    <nd ref="33344232"/>
    <nd ref="33344241"/>
    <nd ref="33344242"/>
    <nd ref="33344243"/>
    <nd ref="294154525"/>
    <nd ref="264123689"/>
    <tag k="created_by" v="Potlatch 0.10b"/>
    <tag k="name" v="37"/>
    <tag k="railway" v="tram"/>
  </way>
  <way id="26814985" version="4" timestamp="2008-09-13T13:50:29Z" uid="58091" user="Andreas M" changeset="625815">
    <nd ref="294153574"/>
    <nd ref="99109990"/>
    <nd ref="60632369"/>
    <nd ref="287864938"/>
    <nd ref="60632368"/>
    <nd ref="60632367"/>
    <nd ref="287864944"/>
    <nd ref="68943113"/>
    <nd ref="287864946"/>
    <nd ref="60632366"/>
    <nd ref="283732882"/>
    <nd ref="294835630"/>
    <nd ref="60632175"/>
    <nd ref="69241301"/>
    <nd ref="294835633"/>
    <nd ref="296370965"/>
    <nd ref="60632270"/>
    <nd ref="69240477"/>
    <nd ref="60632191"/>
    <nd ref="294835623"/>
    <nd ref="60632226"/>
    <nd ref="294835626"/>
    <nd ref="60735535"/>
    <nd ref="69240140"/>
    <nd ref="294835619"/>
    <nd ref="60632233"/>
    <nd ref="294835616"/>
    <nd ref="33344232"/>
    <nd ref="33344241"/>
    <nd ref="33344242"/>
    <nd ref="33344243"/>
    <nd ref="294154525"/>
    <nd ref="264123689"/>
    <tag k="created_by" v="Potlatch 0.10b"/>
    <tag k="name" v="37"/>
    <tag k="railway" v="tram"/>
  </way>
  <way id="26814985" version="5" timestamp="2008-10-16T23:12:36Z" uid="51552" user="kfg" changeset="395079">
    <nd ref="264123689"/>
    <nd ref="294154525"/>
    <nd ref="33344243"/>
    <nd ref="33344242"/>
    <nd ref="33344241"/>
    <nd ref="33344232"/>
    <nd ref="294835616"/>
    <nd ref="60632233"/>
    <nd ref="294835619"/>
    <nd ref="69240140"/>
    <nd ref="60735535"/>
    <nd ref="294835626"/>
    <nd ref="60632226"/>
    <nd ref="294835623"/>
    <nd ref="60632191"/>
    <nd ref="69240477"/>
    <nd ref="60632270"/>
    <nd ref="296370965"/>
    <nd ref="294835633"/>
    <nd ref="69241301"/>
    <nd ref="60632175"/>
    <nd ref="294835630"/>
    <nd ref="283732882"/>
    <nd ref="60632366"/>
    <nd ref="287864946"/>
    <nd ref="68943113"/>
    <nd ref="287864944"/>
    <nd ref="60632367"/>
    <nd ref="60632368"/>
    <nd ref="287864938"/>
    <nd ref="60632369"/>
    <nd ref="99109990"/>
    <nd ref="294153574"/>
    <tag k="created_by" v="Potlatch 0.10b"/>
    <tag k="name" v="37"/>
    <tag k="railway" v="tram"/>
  </way>
  <way id="26814985" version="6" timestamp="2009-01-01T15:32:04Z" uid="58091" user="Andreas M" changeset="703113"/>
  <way id="26814987" version="1" timestamp="2008-09-06T16:04:17Z" uid="58091" user="Andreas M" changeset="549614">
    <nd ref="294153574"/>
    <nd ref="294153575"/>
    <tag k="bridge" v="yes"/>
    <tag k="created_by" v="Potlatch 0.10b"/>
    <tag k="highway" v="secondary"/>
    <tag k="is_in" v="Austria,Vienna,Wien"/>
    <tag k="layer" v="1"/>
    <tag k="name" v="Döblinger Hauptstraße"/>
    <tag k="source" v="yahoo"/>
  </way>
  <way id="26814987" version="2" timestamp="2009-01-01T15:32:00Z" uid="58091" user="Andreas M" changeset="703113">
    <nd ref="294153574"/>
    <nd ref="294153575"/>
    <tag k="bridge" v="yes"/>
    <tag k="created_by" v="Potlatch 0.10b"/>
    <tag k="highway" v="secondary"/>
    <tag k="is_in" v="Austria,Vienna,Wien"/>
    <tag k="layer" v="1"/>
    <tag k="name" v="Döblinger Hauptstraße"/>
    <tag k="railway" v="tram"/>
    <tag k="source" v="yahoo"/>
  </way>
  <way id="26814987" version="3" timestamp="2010-04-18T20:01:03Z" uid="129531" user="almich" changeset="4462273">
    <nd ref="294153574"/>
    <nd ref="294153575"/>
    <tag k="bridge" v="yes"/>
    <tag k="gauge" v="1435"/>
    <tag k="highway" v="secondary"/>
    <tag k="is_in" v="Austria,Vienna,Wien"/>
    <tag k="layer" v="1"/>
    <tag k="name" v="Döblinger Hauptstraße"/>
    <tag k="railway" v="tram"/>
    <tag k="source" v="yahoo"/>
  </way>
  <way id="26814987" version="4" timestamp="2010-04-18T20:25:49Z" uid="129531" user="almich" changeset="4462598">
    <nd ref="294153574"/>
    <nd ref="294153575"/>
    <tag k="bridge" v="yes"/>
    <tag k="electrified" v="contact_line"/>
    <tag k="frequency" v="0"/>
    <tag k="gauge" v="1435"/>
    <tag k="highway" v="secondary"/>
    <tag k="is_in" v="Austria,Vienna,Wien"/>
    <tag k="layer" v="1"/>
    <tag k="name" v="Döblinger Hauptstraße"/>
    <tag k="railway" v="tram"/>
    <tag k="source" v="yahoo"/>
  </way>
  <way id="26814987" version="5" timestamp="2011-02-23T08:46:57Z" uid="412474" user="openme" changeset="7370382">
    <nd ref="294153574"/>
    <nd ref="1167774297"/>
    <nd ref="294153575"/>
    <tag k="bridge" v="yes"/>
    <tag k="electrified" v="contact_line"/>
    <tag k="frequency" v="0"/>
    <tag k="gauge" v="1435"/>
    <tag k="highway" v="secondary"/>
    <tag k="is_in" v="Austria,Vienna,Wien"/>
    <tag k="layer" v="1"/>
    <tag k="name" v="Döblinger Hauptstraße"/>
    <tag k="railway" v="tram"/>
    <tag k="source" v="yahoo"/>
  </way>
  <way id="26814987" version="6" timestamp="2011-11-07T23:59:02Z" uid="129531" user="almich" changeset="9770029">
    <nd ref="294153574"/>
    <nd ref="1167774297"/>
    <nd ref="294153575"/>
    <tag k="bridge" v="yes"/>
    <tag k="electrified" v="contact_line"/>
    <tag k="frequency" v="0"/>
    <tag k="gauge" v="1435"/>
    <tag k="highway" v="secondary"/>
    <tag k="is_in" v="Austria,Vienna,Wien"/>
    <tag k="layer" v="1"/>
    <tag k="name" v="Döblinger Hauptstraße"/>
    <tag k="railway" v="tram"/>
    <tag k="source" v="yahoo"/>
    <tag k="voltage" v="600"/>
  </way>
  <way id="26814988" version="1" timestamp="2008-09-06T16:04:18Z" uid="58091" user="Andreas M" changeset="549614">
    <nd ref="294153575"/>
    <nd ref="60730742"/>
    <tag k="created_by" v="Potlatch 0.10b"/>
    <tag k="highway" v="secondary"/>
    <tag k="is_in" v="Austria,Vienna,Wien"/>
    <tag k="name" v="Döblinger Hauptstraße"/>
    <tag k="source" v="yahoo"/>
  </way>
  <way id="26814988" version="2" timestamp="2009-01-01T15:32:00Z" uid="58091" user="Andreas M" changeset="703113">
    <nd ref="294153575"/>
    <nd ref="60730742"/>
    <tag k="created_by" v="Potlatch 0.10b"/>
    <tag k="highway" v="secondary"/>
    <tag k="is_in" v="Austria,Vienna,Wien"/>
    <tag k="name" v="Döblinger Hauptstraße"/>
    <tag k="railway" v="tram"/>
    <tag k="source" v="yahoo"/>
  </way>
  <way id="26814988" version="3" timestamp="2010-04-18T20:01:03Z" uid="129531" user="almich" changeset="4462273">
    <nd ref="294153575"/>
    <nd ref="60730742"/>
    <tag k="gauge" v="1435"/>
    <tag k="highway" v="secondary"/>
    <tag k="is_in" v="Austria,Vienna,Wien"/>
    <tag k="name" v="Döblinger Hauptstraße"/>
    <tag k="railway" v="tram"/>
    <tag k="source" v="yahoo"/>
  </way>
  <way id="26814988" version="4" timestamp="2010-04-18T20:25:49Z" uid="129531" user="almich" changeset="4462598">
    <nd ref="294153575"/>
    <nd ref="60730742"/>
    <tag k="electrified" v="contact_line"/>
    <tag k="frequency" v="0"/>
    <tag k="gauge" v="1435"/>
    <tag k="highway" v="secondary"/>
    <tag k="is_in" v="Austria,Vienna,Wien"/>
    <tag k="name" v="Döblinger Hauptstraße"/>
    <tag k="railway" v="tram"/>
    <tag k="source" v="yahoo"/>
  </way>
  <way id="26814988" version="5" timestamp="2011-11-07T23:59:02Z" uid="129531" user="almich" changeset="9770029">
    <nd ref="294153575"/>
    <nd ref="60730742"/>
    <tag k="electrified" v="contact_line"/>
    <tag k="frequency" v="0"/>
    <tag k="gauge" v="1435"/>
    <tag k="highway" v="secondary"/>
    <tag k="is_in" v="Austria,Vienna,Wien"/>
    <tag k="name" v="Döblinger Hauptstraße"/>
    <tag k="railway" v="tram"/>
    <tag k="source" v="yahoo"/>
    <tag k="voltage" v="600"/>
  </way>
  <way id="26814167" version="11" timestamp="2012-04-09T19:09:03Z" uid="161619" user="FvGordon" changeset="11243931"/>
  <way id="26814829" version="4" timestamp="2012-04-15T21:05:26Z" uid="328555" user="peb12345" changeset="11316019">
    <nd ref="270968919"/>
    <nd ref="270968921"/>
    <nd ref="270968927"/>
    <nd ref="1718527415"/>
    <nd ref="270968934"/>
    <nd ref="270968940"/>
    <nd ref="270968946"/>
    <nd ref="270968952"/>
    <nd ref="270968957"/>
    <nd ref="270968969"/>
    <nd ref="270968962"/>
    <nd ref="270968973"/>
    <tag k="cycleway" v="track"/>
    <tag k="foot" v="yes"/>
    <tag k="highway" v="track"/>
  </way>
  <way id="26814987" version="7" timestamp="2012-05-18T12:09:11Z" uid="26818" user="David &amp; Christine Schmitt" changeset="11632396">
    <nd ref="294153574"/>
    <nd ref="294153575"/>
    <tag k="bridge" v="yes"/>
    <tag k="electrified" v="contact_line"/>
    <tag k="frequency" v="0"/>
    <tag k="gauge" v="1435"/>
    <tag k="highway" v="secondary"/>
    <tag k="is_in" v="Austria,Vienna,Wien"/>
    <tag k="layer" v="1"/>
    <tag k="name" v="Döblinger Hauptstraße"/>
    <tag k="railway" v="tram"/>
    <tag k="source" v="yahoo"/>
    <tag k="voltage" v="600"/>
  </way>
  <way id="26814987" version="8" timestamp="2012-07-17T00:24:14Z" uid="722137" user="OSMF Redaction Account" changeset="12254135"/>
  <way id="26814988" version="6" timestamp="2012-07-17T00:24:14Z" uid="722137" user="OSMF Redaction Account" changeset="12254135"/>
</osm>
