<?xml version='1.0' encoding='UTF-8'?>
<osm version="0.6" generator="libosmium/2.20.0">
  <way id="26842037" version="5" timestamp="2011-06-15T16:52:15Z" uid="33382" user="de_muur" changeset="8448735">
    <nd ref="279833828"/>
    <nd ref="29004466"/>
    <nd ref="383811657"/>
    <nd ref="484260890"/>
    <nd ref="277955679"/>
    <nd ref="29004468"/>
    <tag k="highway" v="primary"/>
    <tag k="maxspeed" v="50"/>
    <tag k="ref" v="B 3"/>
    <tag k="surface" v="paved"/>
  </way>
  <way id="26842038" version="11" timestamp="2011-06-15T16:52:12Z" uid="33382" user="de_muur" changeset="8448735">
    <nd ref="29004468"/>
    <nd ref="662434971"/>
    <nd ref="29004469"/>
    <nd ref="384792729"/>
    <nd ref="29004471"/>
    <tag k="highway" v="primary"/>
    <tag k="maxspeed" v="50"/>
    <tag k="ref" v="B 3"/>
    <tag k="surface" v="paved"/>
  </way>
  <way id="26842140" version="1" timestamp="2008-09-07T17:27:23Z" uid="58091" user="Andreas M" changeset="567784">
    <nd ref="294809949"/>
    <nd ref="294809952"/>
    <nd ref="294809955"/>
    <nd ref="294809957"/>
    <nd ref="294809959"/>
    <nd ref="294809962"/>
    <nd ref="294809965"/>
    <nd ref="294809968"/>
    <nd ref="294809971"/>
    <nd ref="294809974"/>
    <nd ref="294809980"/>
    <nd ref="294809985"/>
    <nd ref="294809989"/>
    <nd ref="294809993"/>
    <nd ref="294809997"/>
    <nd ref="294810003"/>
    <nd ref="294810007"/>
    <nd ref="294810011"/>
    <nd ref="294810014"/>
    <nd ref="294810017"/>
    <nd ref="294810020"/>
    <nd ref="294810023"/>
    <nd ref="294810026"/>
    <nd ref="294810029"/>
    <nd ref="294810032"/>
    <nd ref="294810035"/>
    <nd ref="294810038"/>
    <nd ref="294810041"/>
    <nd ref="294810044"/>
    <nd ref="294810046"/>
    <nd ref="294810050"/>
    <nd ref="294810054"/>
    <nd ref="294810057"/>
    <nd ref="294810060"/>
    <nd ref="294810064"/>
    <nd ref="294810067"/>
    <nd ref="294809949"/>
    <tag k="addr:city" v="Wien"/>
    <tag k="addr:housenumber" v="4"/>
    <tag k="addr:postcode" v="1190"/>
    <tag k="addr:street" v="Bauernfeldgasse"/>
    <tag k="amenity" v="hospital"/>
    <tag k="building" v="yes"/>
    <tag k="name" v="Maimonides-Zentrum"/>
  </way>
  <way id="26842140" version="2" timestamp="2008-09-08T13:51:51Z" uid="58091" user="Andreas M" changeset="571377">
    <nd ref="294809949"/>
    <nd ref="286492703"/>
    <nd ref="294809952"/>
    <nd ref="294809955"/>
    <nd ref="294809957"/>
    <nd ref="294809959"/>
    <nd ref="286492705"/>
    <nd ref="294809965"/>
    <nd ref="294809968"/>
    <nd ref="294809971"/>
    <nd ref="294809974"/>
    <nd ref="294809980"/>
    <nd ref="294810085"/>
    <nd ref="294809989"/>
    <nd ref="294809993"/>
    <nd ref="294809997"/>
    <nd ref="294810003"/>
    <nd ref="294810007"/>
    <nd ref="294810011"/>
    <nd ref="294810014"/>
    <nd ref="294810017"/>
    <nd ref="294810020"/>
    <nd ref="294810023"/>
    <nd ref="294810026"/>
    <nd ref="294810029"/>
    <nd ref="294810032"/>
    <nd ref="294810035"/>
    <nd ref="294810038"/>
    <nd ref="294810041"/>
    <nd ref="294810044"/>
    <nd ref="294810046"/>
    <nd ref="294810050"/>
    <nd ref="294810054"/>
    <nd ref="294810057"/>
    <nd ref="294810060"/>
    <nd ref="294810064"/>
    <nd ref="294810067"/>
    <nd ref="294809949"/>
    <tag k="addr:city" v="Wien"/>
    <tag k="addr:housenumber" v="4"/>
    <tag k="addr:postcode" v="1190"/>
    <tag k="addr:street" v="Bauernfeldgasse"/>
    <tag k="amenity" v="hospital"/>
    <tag k="building" v="yes"/>
    <tag k="name" v="Maimonides-Zentrum"/>
  </way>
  <way id="26842140" version="3" timestamp="2008-09-10T15:54:49Z" uid="58091" user="Andreas M" changeset="594441">
    <nd ref="294809949"/>
    <nd ref="286492703"/>
    <nd ref="294809952"/>
    <nd ref="294809955"/>
    <nd ref="294809957"/>
    <nd ref="294809959"/>
    <nd ref="286492705"/>
    <nd ref="294809965"/>
    <nd ref="294809968"/>
    <nd ref="294809971"/>
    <nd ref="294809974"/>
    <nd ref="294809980"/>
    <nd ref="294810085"/>
    <nd ref="294809989"/>
    <nd ref="294809993"/>
    <nd ref="294809997"/>
    <nd ref="294810003"/>
    <nd ref="294810007"/>
    <nd ref="294810011"/>
    <nd ref="294810014"/>
    <nd ref="294810017"/>
    <nd ref="294810020"/>
    <nd ref="294810023"/>
    <nd ref="294810026"/>
    <nd ref="294810029"/>
    <nd ref="294810032"/>
    <nd ref="294810035"/>
    <nd ref="294810038"/>
    <nd ref="294810041"/>
    <nd ref="294810044"/>
    <nd ref="294810046"/>
    <nd ref="294810050"/>
    <nd ref="294810054"/>
    <nd ref="294810057"/>
    <nd ref="294810060"/>
    <nd ref="294810064"/>
    <nd ref="294810067"/>
    <nd ref="294809949"/>
    <tag k="addr:city" v="Wien"/>
    <tag k="addr:housenumber" v="4"/>
    <tag k="addr:postcode" v="1190"/>
    <tag k="addr:street" v="Bauernfeldgasse"/>
    <tag k="building" v="yes"/>
  </way>
  <way id="26842140" version="4" timestamp="2009-01-18T11:21:33Z" uid="38255" user="BearT" changeset="805541">
    <nd ref="294809949"/>
    <nd ref="286492703"/>
    <nd ref="294809952"/>
    <nd ref="294809955"/>
    <nd ref="294809957"/>
    <nd ref="294809959"/>
    <nd ref="286492705"/>
    <nd ref="294809965"/>
    <nd ref="294809968"/>
    <nd ref="294809971"/>
    <nd ref="294809974"/>
    <nd ref="294809980"/>
    <nd ref="294810085"/>
    <nd ref="294809989"/>
    <nd ref="294809993"/>
    <nd ref="294809997"/>
    <nd ref="294810003"/>
    <nd ref="294810007"/>
    <nd ref="294810011"/>
    <nd ref="294810014"/>
    <nd ref="294810017"/>
    <nd ref="294810020"/>
    <nd ref="294810023"/>
    <nd ref="294810026"/>
    <nd ref="294810029"/>
    <nd ref="294810032"/>
    <nd ref="294810035"/>
    <nd ref="294810038"/>
    <nd ref="294810041"/>
    <nd ref="294810044"/>
    <nd ref="294810046"/>
    <nd ref="294810050"/>
    <nd ref="294810054"/>
    <nd ref="294810057"/>
    <nd ref="294810060"/>
    <nd ref="294810064"/>
    <nd ref="294810067"/>
    <nd ref="294809949"/>
    <tag k="addr:city" v="Wien"/>
    <tag k="addr:country" v="at"/>
    <tag k="addr:housenumber" v="4"/>
    <tag k="addr:postcode" v="1190"/>
    <tag k="addr:street" v="Bauernfeldgasse"/>
    <tag k="building" v="yes"/>
    <tag k="created_by" v="Merkaartor 0.13"/>
  </way>
  <way id="26842140" version="5" timestamp="2009-01-22T04:11:36Z" uid="70696" user="xybot" changeset="822919">
    <nd ref="294809949"/>
    <nd ref="286492703"/>
    <nd ref="294809952"/>
    <nd ref="294809955"/>
    <nd ref="294809957"/>
    <nd ref="294809959"/>
    <nd ref="286492705"/>
    <nd ref="294809965"/>
    <nd ref="294809968"/>
    <nd ref="294809971"/>
    <nd ref="294809974"/>
    <nd ref="294809980"/>
    <nd ref="294810085"/>
    <nd ref="294809989"/>
    <nd ref="294809993"/>
    <nd ref="294809997"/>
    <nd ref="294810003"/>
    <nd ref="294810007"/>
    <nd ref="294810011"/>
    <nd ref="294810014"/>
    <nd ref="294810017"/>
    <nd ref="294810020"/>
    <nd ref="294810023"/>
    <nd ref="294810026"/>
    <nd ref="294810029"/>
    <nd ref="294810032"/>
    <nd ref="294810035"/>
    <nd ref="294810038"/>
    <nd ref="294810041"/>
    <nd ref="294810044"/>
    <nd ref="294810046"/>
    <nd ref="294810050"/>
    <nd ref="294810054"/>
    <nd ref="294810057"/>
    <nd ref="294810060"/>
    <nd ref="294810064"/>
    <nd ref="294810067"/>
    <nd ref="294809949"/>
    <tag k="addr:city" v="Wien"/>
    <tag k="addr:country" v="AT"/>
    <tag k="addr:housenumber" v="4"/>
    <tag k="addr:postcode" v="1190"/>
    <tag k="addr:street" v="Bauernfeldgasse"/>
    <tag k="building" v="yes"/>
    <tag k="created_by" v="xybot"/>
  </way>
  <way id="26842140" version="6" timestamp="2010-06-28T17:38:37Z" uid="93640" user="jokesch" changeset="5099514"/>
  <way id="26842141" version="1" timestamp="2008-09-07T17:27:24Z" uid="58091" user="Andreas M" changeset="567784">
    <nd ref="294810070"/>
    <nd ref="294810073"/>
    <nd ref="294810076"/>
    <nd ref="294810079"/>
    <nd ref="294810082"/>
    <nd ref="294810085"/>
    <nd ref="294810089"/>
    <nd ref="294810092"/>
    <nd ref="294810070"/>
    <tag k="addr:city" v="Wien"/>
    <tag k="addr:housenumber" v="2"/>
    <tag k="addr:postcode" v="1190"/>
    <tag k="addr:street" v="Bauernfeldgasse"/>
    <tag k="building" v="yes"/>
  </way>
  <way id="26842141" version="2" timestamp="2008-09-08T13:51:52Z" uid="58091" user="Andreas M" changeset="571377">
    <nd ref="294809965"/>
    <nd ref="294809968"/>
    <nd ref="294810076"/>
    <nd ref="294810079"/>
    <nd ref="294809980"/>
    <nd ref="294810085"/>
    <nd ref="294810089"/>
    <nd ref="294810092"/>
    <nd ref="294809965"/>
    <tag k="addr:city" v="Wien"/>
    <tag k="addr:housenumber" v="2"/>
    <tag k="addr:postcode" v="1190"/>
    <tag k="addr:street" v="Bauernfeldgasse"/>
    <tag k="building" v="yes"/>
  </way>
  <way id="26842141" version="3" timestamp="2009-01-18T11:21:35Z" uid="38255" user="BearT" changeset="805541">
    <nd ref="294809965"/>
    <nd ref="294809968"/>
    <nd ref="294810076"/>
    <nd ref="294810079"/>
    <nd ref="294809980"/>
    <nd ref="294810085"/>
    <nd ref="294810089"/>
    <nd ref="294810092"/>
    <nd ref="294809965"/>
    <tag k="addr:city" v="Wien"/>
    <tag k="addr:country" v="at"/>
    <tag k="addr:housenumber" v="2"/>
    <tag k="addr:postcode" v="1190"/>
    <tag k="addr:street" v="Bauernfeldgasse"/>
    <tag k="building" v="yes"/>
    <tag k="created_by" v="Merkaartor 0.13"/>
  </way>
  <way id="26842141" version="4" timestamp="2009-01-22T04:11:39Z" uid="70696" user="xybot" changeset="822919">
    <nd ref="294809965"/>
    <nd ref="294809968"/>
    <nd ref="294810076"/>
    <nd ref="294810079"/>
    <nd ref="294809980"/>
    <nd ref="294810085"/>
    <nd ref="294810089"/>
    <nd ref="294810092"/>
    <nd ref="294809965"/>
    <tag k="addr:city" v="Wien"/>
    <tag k="addr:country" v="AT"/>
    <tag k="addr:housenumber" v="2"/>
    <tag k="addr:postcode" v="1190"/>
    <tag k="addr:street" v="Bauernfeldgasse"/>
    <tag k="building" v="yes"/>
    <tag k="created_by" v="xybot"/>
  </way>
  <way id="26842155" version="3" timestamp="2010-04-05T16:37:55Z" uid="163746" user="anti_bot-nonsense" changeset="4334877">
    <nd ref="294810326"/>
    <nd ref="294810321"/>
    <tag k="highway" v="track"/>
    <tag k="tracktype" v="grade2"/>
  </way>
  <way id="26842287" version="1" timestamp="2008-09-07T17:31:15Z" uid="58091" user="Andreas M" changeset="567784">
    <nd ref="294813127"/>
    <nd ref="294813131"/>
    <nd ref="294813134"/>
    <nd ref="294813136"/>
    <nd ref="294813127"/>
    <tag k="addr:city" v="Wien"/>
    <tag k="addr:housenumber" v="5"/>
    <tag k="addr:postcode" v="1190"/>
    <tag k="addr:street" v="Bauernfeldgasse"/>
    <tag k="building" v="yes"/>
  </way>
  <way id="26842287" version="2" timestamp="2008-09-08T13:43:49Z" uid="58091" user="Andreas M" changeset="571377">
    <nd ref="294813127"/>
    <nd ref="294813131"/>
    <nd ref="294813134"/>
    <nd ref="294813144"/>
    <nd ref="294813127"/>
    <tag k="addr:city" v="Wien"/>
    <tag k="addr:housenumber" v="5"/>
    <tag k="addr:postcode" v="1190"/>
    <tag k="addr:street" v="Bauernfeldgasse"/>
    <tag k="building" v="yes"/>
  </way>
  <way id="26842287" version="3" timestamp="2009-01-18T11:21:41Z" uid="38255" user="BearT" changeset="805541">
    <nd ref="294813127"/>
    <nd ref="294813131"/>
    <nd ref="294813134"/>
    <nd ref="294813144"/>
    <nd ref="294813127"/>
    <tag k="addr:city" v="Wien"/>
    <tag k="addr:country" v="at"/>
    <tag k="addr:housenumber" v="5"/>
    <tag k="addr:postcode" v="1190"/>
    <tag k="addr:street" v="Bauernfeldgasse"/>
    <tag k="building" v="yes"/>
    <tag k="created_by" v="Merkaartor 0.13"/>
  </way>
  <way id="26842287" version="4" timestamp="2009-01-22T04:11:40Z" uid="70696" user="xybot" changeset="822919">
    <nd ref="294813127"/>
    <nd ref="294813131"/>
    <nd ref="294813134"/>
    <nd ref="294813144"/>
    <nd ref="294813127"/>
    <tag k="addr:city" v="Wien"/>
    <tag k="addr:country" v="AT"/>
    <tag k="addr:housenumber" v="5"/>
    <tag k="addr:postcode" v="1190"/>
    <tag k="addr:street" v="Bauernfeldgasse"/>
    <tag k="building" v="yes"/>
    <tag k="created_by" v="xybot"/>
  </way>
  <way id="26842288" version="1" timestamp="2008-09-07T17:31:15Z" uid="58091" user="Andreas M" changeset="567784">
    <nd ref="294813139"/>
    <nd ref="294813142"/>
    <nd ref="294813144"/>
    <nd ref="294813147"/>
    <nd ref="294813150"/>
    <nd ref="294813152"/>
    <nd ref="294813139"/>
    <tag k="addr:city" v="Wien"/>
    <tag k="addr:housenumber" v="3"/>
    <tag k="addr:postcode" v="1190"/>
    <tag k="addr:street" v="Bauernfeldgasse"/>
    <tag k="building" v="yes"/>
  </way>
  <way id="26842288" version="2" timestamp="2008-09-08T13:43:49Z" uid="58091" user="Andreas M" changeset="571377">
    <nd ref="294813139"/>
    <nd ref="294813134"/>
    <nd ref="294813144"/>
    <nd ref="294813147"/>
    <nd ref="294813150"/>
    <nd ref="294824821"/>
    <nd ref="294813139"/>
    <tag k="addr:city" v="Wien"/>
    <tag k="addr:housenumber" v="15"/>
    <tag k="addr:postcode" v="1190"/>
    <tag k="addr:street" v="Gebhardtgasse"/>
    <tag k="building" v="yes"/>
  </way>
  <way id="26842288" version="3" timestamp="2008-09-09T17:43:38Z" uid="58091" user="Andreas M" changeset="590662">
    <nd ref="294813139"/>
    <nd ref="294813134"/>
    <nd ref="294813144"/>
    <nd ref="294813147"/>
    <nd ref="294813139"/>
    <tag k="addr:city" v="Wien"/>
    <tag k="addr:housenumber" v="3"/>
    <tag k="addr:postcode" v="1190"/>
    <tag k="addr:street" v="Bauernfeldgasse"/>
    <tag k="building" v="yes"/>
  </way>
  <way id="26842288" version="4" timestamp="2009-01-18T11:21:47Z" uid="38255" user="BearT" changeset="805541">
    <nd ref="294813139"/>
    <nd ref="294813134"/>
    <nd ref="294813144"/>
    <nd ref="294813147"/>
    <nd ref="294813139"/>
    <tag k="addr:city" v="Wien"/>
    <tag k="addr:country" v="at"/>
    <tag k="addr:housenumber" v="3"/>
    <tag k="addr:postcode" v="1190"/>
    <tag k="addr:street" v="Bauernfeldgasse"/>
    <tag k="building" v="yes"/>
    <tag k="created_by" v="Merkaartor 0.13"/>
  </way>
  <way id="26842288" version="5" timestamp="2009-01-22T04:11:43Z" uid="70696" user="xybot" changeset="822919">
    <nd ref="294813139"/>
    <nd ref="294813134"/>
    <nd ref="294813144"/>
    <nd ref="294813147"/>
    <nd ref="294813139"/>
    <tag k="addr:city" v="Wien"/>
    <tag k="addr:country" v="AT"/>
    <tag k="addr:housenumber" v="3"/>
    <tag k="addr:postcode" v="1190"/>
    <tag k="addr:street" v="Bauernfeldgasse"/>
    <tag k="building" v="yes"/>
    <tag k="created_by" v="xybot"/>
  </way>
  <way id="26842342" version="6" timestamp="2009-11-29T22:52:09Z" uid="200463" user="harmagedon" changeset="3251061">
    <nd ref="356942845"/>
    <nd ref="294814691"/>
    <nd ref="294814693"/>
    <nd ref="294814695"/>
    <nd ref="294817110"/>
    <nd ref="294814696"/>
    <nd ref="294817112"/>
    <nd ref="294817113"/>
    <nd ref="294814700"/>
    <nd ref="294814702"/>
    <nd ref="294814703"/>
    <nd ref="294814704"/>
    <nd ref="294814706"/>
    <nd ref="294815586"/>
    <nd ref="294817114"/>
    <nd ref="294819249"/>
    <nd ref="294819250"/>
    <nd ref="294819252"/>
    <nd ref="294814714"/>
    <nd ref="294815593"/>
    <nd ref="294815594"/>
    <nd ref="294815595"/>
    <nd ref="294815596"/>
    <nd ref="294815597"/>
    <nd ref="294819253"/>
    <nd ref="294819252"/>
    <tag k="highway" v="residential"/>
    <tag k="name" v="Am Horiberg"/>
  </way>
  <way id="26842342" version="7" timestamp="2011-08-15T19:58:59Z" uid="149876" user="dbusse" changeset="9030877"/>
  <way id="26842354" version="1" timestamp="2008-09-07T17:33:15Z" uid="49111" user="Markus B" changeset="566755">
    <nd ref="60367376"/>
    <nd ref="294815016"/>
    <nd ref="294815019"/>
    <nd ref="294815021"/>
    <nd ref="294815023"/>
    <nd ref="60367393"/>
    <tag k="highway" v="track"/>
    <tag k="tracktype" v="grade3"/>
  </way>
  <way id="26842354" version="2" timestamp="2009-04-30T17:28:51Z" uid="62236" user="Paulchen Panther" changeset="1028290">
    <nd ref="60367376"/>
    <nd ref="387818154"/>
    <nd ref="294815016"/>
    <nd ref="294815021"/>
    <nd ref="387818155"/>
    <nd ref="60367393"/>
    <tag k="highway" v="track"/>
    <tag k="tracktype" v="grade3"/>
  </way>
  <way id="26842355" version="1" timestamp="2008-09-07T17:33:16Z" uid="49111" user="Markus B" changeset="566755">
    <nd ref="294815025"/>
    <nd ref="294815028"/>
    <nd ref="294815030"/>
    <nd ref="294815033"/>
    <nd ref="294815035"/>
    <tag k="highway" v="track"/>
    <tag k="tracktype" v="grade2"/>
  </way>
  <way id="26842356" version="1" timestamp="2008-09-07T17:33:16Z" uid="49111" user="Markus B" changeset="566755">
    <nd ref="60367372"/>
    <nd ref="294815051"/>
    <nd ref="294815052"/>
    <nd ref="294815057"/>
    <nd ref="294815058"/>
    <nd ref="294815063"/>
    <nd ref="294815065"/>
    <nd ref="294815069"/>
  </way>
  <way id="26842356" version="2" timestamp="2008-09-19T22:04:36Z" uid="45875" user="Warlock74" changeset="670408">
    <nd ref="60367372"/>
    <nd ref="294815051"/>
    <nd ref="294815052"/>
    <nd ref="294815057"/>
    <nd ref="294815058"/>
    <nd ref="294815063"/>
    <nd ref="294815065"/>
    <nd ref="294815069"/>
    <tag k="aeroway" v="terminal"/>
    <tag k="created_by" v="Potlatch 0.10b"/>
  </way>
  <way id="26842356" version="3" timestamp="2008-09-19T22:04:59Z" uid="45875" user="Warlock74" changeset="670408">
    <nd ref="60367372"/>
    <nd ref="294815051"/>
    <nd ref="294815052"/>
    <nd ref="294815057"/>
    <nd ref="294815058"/>
    <nd ref="294815063"/>
    <nd ref="294815065"/>
    <nd ref="294815069"/>
    <tag k="created_by" v="Potlatch 0.10b"/>
    <tag k="highway" v="track"/>
    <tag k="tracktype" v="grade2"/>
  </way>
  <way id="26842356" version="4" timestamp="2008-10-18T11:22:06Z" uid="45875" user="Warlock74" changeset="424758">
    <nd ref="60367372"/>
    <nd ref="294815063"/>
    <nd ref="294815065"/>
    <nd ref="294815069"/>
    <tag k="created_by" v="Potlatch 0.10e"/>
    <tag k="highway" v="track"/>
    <tag k="tracktype" v="grade2"/>
  </way>
  <way id="26842356" version="5" timestamp="2008-10-18T11:22:20Z" uid="45875" user="Warlock74" changeset="424758">
    <nd ref="60367372"/>
    <nd ref="294815063"/>
    <nd ref="294815065"/>
    <nd ref="294815069"/>
    <tag k="created_by" v="Potlatch 0.10e"/>
    <tag k="highway" v="track"/>
    <tag k="tracktype" v="grade2"/>
  </way>
  <way id="26842356" version="6" timestamp="2008-10-18T11:22:58Z" uid="45875" user="Warlock74" changeset="424758">
    <nd ref="60367372"/>
    <nd ref="294815063"/>
    <nd ref="294815065"/>
    <nd ref="305374810"/>
    <nd ref="305374811"/>
    <nd ref="294815069"/>
    <tag k="created_by" v="Potlatch 0.10e"/>
    <tag k="highway" v="track"/>
    <tag k="tracktype" v="grade2"/>
  </way>
  <way id="26842356" version="7" timestamp="2008-10-18T11:23:33Z" uid="45875" user="Warlock74" changeset="424758">
    <nd ref="60367372"/>
    <nd ref="294815063"/>
    <nd ref="294815065"/>
    <nd ref="305374810"/>
    <nd ref="305374811"/>
    <nd ref="294815069"/>
    <nd ref="305374947"/>
    <nd ref="305374949"/>
    <nd ref="305374950"/>
    <nd ref="305374951"/>
    <nd ref="305374952"/>
    <tag k="created_by" v="Potlatch 0.10e"/>
    <tag k="highway" v="track"/>
    <tag k="tracktype" v="grade2"/>
  </way>
  <way id="26842356" version="8" timestamp="2010-04-16T21:24:11Z" uid="118856" user="staehler" changeset="4442757">
    <nd ref="60367372"/>
    <nd ref="294815063"/>
    <nd ref="294815065"/>
    <nd ref="305374810"/>
    <nd ref="305374811"/>
    <nd ref="294815069"/>
    <nd ref="305374947"/>
    <nd ref="305374949"/>
    <nd ref="305374950"/>
    <nd ref="305374951"/>
    <nd ref="305374952"/>
    <nd ref="699096143"/>
    <nd ref="699096144"/>
    <nd ref="699096149"/>
    <nd ref="699096150"/>
    <nd ref="699096151"/>
    <nd ref="699096152"/>
    <nd ref="699096145"/>
    <nd ref="699096146"/>
    <nd ref="699096153"/>
    <nd ref="699096154"/>
    <nd ref="699096155"/>
    <nd ref="699096147"/>
    <nd ref="699096148"/>
    <nd ref="699096131"/>
    <tag k="highway" v="track"/>
    <tag k="tracktype" v="grade2"/>
  </way>
  <way id="26842356" version="9" timestamp="2011-08-20T13:42:30Z" uid="489834" user="gebi-ulb" changeset="9074346">
    <nd ref="60367372"/>
    <nd ref="294815063"/>
    <nd ref="294815065"/>
    <nd ref="305374810"/>
    <nd ref="305374811"/>
    <tag k="highway" v="track"/>
    <tag k="surface" v="gravel"/>
    <tag k="tracktype" v="grade2"/>
  </way>
  <way id="26842357" version="1" timestamp="2008-09-07T17:33:16Z" uid="49111" user="Markus B" changeset="566755">
    <nd ref="294815082"/>
    <nd ref="294815085"/>
    <nd ref="294815088"/>
    <nd ref="294815091"/>
    <tag k="amenity" v="parking"/>
  </way>
  <way id="26842357" version="2" timestamp="2008-10-11T20:51:31Z" uid="49111" user="Markus B" changeset="288502">
    <nd ref="294815082"/>
    <nd ref="294815085"/>
    <nd ref="294815088"/>
    <nd ref="294815091"/>
    <nd ref="294815082"/>
    <tag k="amenity" v="parking"/>
  </way>
  <way id="26842358" version="1" timestamp="2008-09-07T17:33:16Z" uid="49111" user="Markus B" changeset="566755">
    <nd ref="60367393"/>
    <nd ref="294815107"/>
    <nd ref="294815115"/>
    <tag k="highway" v="track"/>
    <tag k="tracktype" v="grade3"/>
  </way>
  <way id="26842358" version="2" timestamp="2008-11-18T14:37:01Z" uid="49111" user="Markus B" changeset="764523">
    <nd ref="60367393"/>
    <nd ref="294815107"/>
    <nd ref="313001146"/>
    <nd ref="294815115"/>
    <tag k="highway" v="track"/>
    <tag k="tracktype" v="grade3"/>
  </way>
  <way id="26842358" version="3" timestamp="2010-08-11T15:56:38Z" uid="82877" user="Wankmann" changeset="5464184">
    <nd ref="60367393"/>
    <nd ref="294815107"/>
    <nd ref="313001146"/>
    <nd ref="854829443"/>
    <nd ref="294815115"/>
    <tag k="highway" v="track"/>
    <tag k="tracktype" v="grade3"/>
  </way>
  <way id="26842359" version="1" timestamp="2008-09-07T17:33:16Z" uid="49111" user="Markus B" changeset="566755">
    <nd ref="294815115"/>
    <nd ref="294815110"/>
    <tag k="highway" v="track"/>
    <tag k="tracktype" v="grade4"/>
  </way>
  <way id="26842359" version="2" timestamp="2008-10-18T11:28:04Z" uid="45875" user="Warlock74" changeset="424758">
    <nd ref="294815115"/>
    <nd ref="305375952"/>
    <tag k="created_by" v="Potlatch 0.10e"/>
    <tag k="highway" v="track"/>
    <tag k="tracktype" v="grade4"/>
  </way>
  <way id="26842359" version="3" timestamp="2008-11-18T14:37:01Z" uid="49111" user="Markus B" changeset="764523">
    <nd ref="294815115"/>
    <nd ref="313001147"/>
    <nd ref="313001148"/>
    <nd ref="313001149"/>
    <nd ref="305375816"/>
    <tag k="created_by" v="Potlatch 0.10e"/>
    <tag k="highway" v="track"/>
    <tag k="tracktype" v="grade4"/>
  </way>
  <way id="26842453" version="2" timestamp="2008-09-14T14:04:13Z" uid="6975" user="ulfl" changeset="640534">
    <nd ref="294818301"/>
    <nd ref="294818303"/>
    <nd ref="294818304"/>
    <nd ref="294818305"/>
    <nd ref="294818301"/>
    <tag k="amenity" v="biergarten"/>
  </way>
  <way id="26842453" version="3" timestamp="2008-09-20T12:40:25Z" uid="58212" user="habidi" changeset="670921">
    <nd ref="294818301"/>
    <nd ref="294818303"/>
    <nd ref="294818304"/>
    <nd ref="294818305"/>
    <nd ref="294818301"/>
    <tag k="amenity" v="biergarten"/>
    <tag k="area" v="yes"/>
    <tag k="created_by" v="Potlatch 0.10b"/>
  </way>
  <way id="26842453" version="4" timestamp="2009-06-10T18:46:23Z" uid="85761" user="klausis" changeset="1480424">
    <nd ref="294818301"/>
    <nd ref="294818303"/>
    <nd ref="294818304"/>
    <nd ref="294818305"/>
    <nd ref="294818301"/>
    <tag k="amenity" v="biergarten"/>
    <tag k="area" v="yes"/>
  </way>
  <way id="26842539" version="12" timestamp="2009-06-13T17:26:39Z" uid="4667" user="MapZ" changeset="1506769">
    <nd ref="294820075"/>
    <nd ref="294827497"/>
    <nd ref="294827430"/>
    <nd ref="294820342"/>
    <nd ref="294835856"/>
    <nd ref="294820484"/>
    <nd ref="294820345"/>
    <nd ref="294820405"/>
    <nd ref="294820071"/>
    <nd ref="294820072"/>
    <nd ref="294835231"/>
    <nd ref="294820073"/>
    <nd ref="294820074"/>
    <nd ref="294820075"/>
    <nd ref="294820074"/>
    <tag k="created_by" v="Merkaartor 0.13"/>
    <tag k="highway" v="primary"/>
  </way>
  <way id="26842539" version="13" timestamp="2009-09-13T19:41:22Z" uid="51324" user="OPerivar" changeset="2474839">
    <nd ref="294820071"/>
    <nd ref="294820405"/>
    <nd ref="294820345"/>
    <nd ref="294820484"/>
    <nd ref="294836024"/>
    <nd ref="294820342"/>
    <nd ref="294827430"/>
    <nd ref="294827497"/>
    <nd ref="294820075"/>
    <nd ref="298762054"/>
    <nd ref="294820074"/>
    <nd ref="294820073"/>
    <nd ref="294835231"/>
    <nd ref="294820072"/>
    <nd ref="294820071"/>
    <tag k="highway" v="primary"/>
  </way>
  <way id="26842539" version="14" timestamp="2009-11-09T20:13:06Z" uid="17422" user="meppen7" changeset="3077046">
    <nd ref="294820071"/>
    <nd ref="294820405"/>
    <nd ref="294820345"/>
    <nd ref="294820484"/>
    <nd ref="294836024"/>
    <nd ref="294820342"/>
    <nd ref="294827430"/>
    <nd ref="294827497"/>
    <nd ref="294820075"/>
    <nd ref="298762054"/>
    <nd ref="294820074"/>
    <nd ref="294820073"/>
    <nd ref="294835231"/>
    <nd ref="294820072"/>
    <nd ref="294820071"/>
    <tag k="highway" v="primary"/>
  </way>
  <way id="26842539" version="15" timestamp="2010-04-09T21:51:24Z" uid="34927" user="flohoff" changeset="4377993">
    <nd ref="294820071"/>
    <nd ref="294820405"/>
    <nd ref="690987107"/>
    <nd ref="294820345"/>
    <nd ref="294820484"/>
    <nd ref="294836024"/>
    <nd ref="294820342"/>
    <nd ref="294827430"/>
    <nd ref="294827497"/>
    <nd ref="294820075"/>
    <nd ref="298762054"/>
    <nd ref="294820074"/>
    <nd ref="294820073"/>
    <nd ref="294835231"/>
    <nd ref="294820072"/>
    <nd ref="294820071"/>
    <tag k="highway" v="primary"/>
  </way>
  <way id="26842539" version="16" timestamp="2010-10-12T11:17:40Z" uid="102715" user="Leffgar" changeset="6019831">
    <nd ref="294820071"/>
    <nd ref="294820405"/>
    <nd ref="690987107"/>
    <nd ref="294820345"/>
    <nd ref="294820484"/>
    <nd ref="294836024"/>
    <nd ref="294820342"/>
    <nd ref="294827430"/>
    <nd ref="294827497"/>
    <nd ref="294820075"/>
    <nd ref="298762054"/>
    <nd ref="294820074"/>
    <nd ref="294820073"/>
    <nd ref="294835231"/>
    <nd ref="294820072"/>
    <nd ref="294820071"/>
    <tag k="highway" v="primary"/>
    <tag k="oneway" v="yes"/>
  </way>
  <way id="26842539" version="17" timestamp="2010-12-15T21:23:23Z" uid="172947" user="OSMicha" changeset="6671803">
    <nd ref="294820071"/>
    <nd ref="294820405"/>
    <nd ref="690987107"/>
    <nd ref="294820345"/>
    <nd ref="294820484"/>
    <nd ref="1039908764"/>
    <nd ref="294836024"/>
    <nd ref="294820342"/>
    <nd ref="294827430"/>
    <nd ref="1039908755"/>
    <nd ref="294827497"/>
    <nd ref="294820075"/>
    <nd ref="298762054"/>
    <nd ref="294820074"/>
    <nd ref="1039908761"/>
    <nd ref="294820073"/>
    <nd ref="294835231"/>
    <nd ref="294820072"/>
    <nd ref="294820071"/>
    <tag k="highway" v="primary"/>
    <tag k="oneway" v="yes"/>
  </way>
  <way id="26842616" version="1" timestamp="2008-09-07T17:43:37Z" uid="49111" user="Markus B" changeset="566755">
    <nd ref="294822118"/>
    <nd ref="294822120"/>
    <nd ref="294822122"/>
    <nd ref="294822125"/>
    <nd ref="294822118"/>
    <tag k="aeroway" v="tower"/>
  </way>
  <way id="26842682" version="13" timestamp="2009-10-18T13:09:12Z" uid="33382" user="de_muur" changeset="2883317">
    <nd ref="294826578"/>
    <nd ref="294828743"/>
    <nd ref="308307723"/>
    <nd ref="444551680"/>
    <nd ref="371705766"/>
    <nd ref="444551644"/>
    <nd ref="371705530"/>
    <nd ref="371705525"/>
    <nd ref="371705017"/>
    <nd ref="294824282"/>
    <nd ref="294824429"/>
    <tag k="maxspeed" v="50"/>
    <tag k="name" v="Grambeker Weg"/>
    <tag k="ref" v="K 68"/>
    <tag k="surface" v="paved"/>
  </way>
  <way id="26842682" version="14" timestamp="2009-11-01T13:14:08Z" uid="33382" user="de_muur" changeset="3006091">
    <nd ref="294826578"/>
    <nd ref="294828743"/>
    <nd ref="308307723"/>
    <nd ref="444551680"/>
    <nd ref="371705766"/>
    <nd ref="444551644"/>
    <nd ref="371705530"/>
    <nd ref="371705525"/>
    <nd ref="371705017"/>
    <nd ref="294824282"/>
    <nd ref="294824429"/>
    <tag k="highway" v="tertiary"/>
    <tag k="maxspeed" v="50"/>
    <tag k="name" v="Grambeker Weg"/>
    <tag k="ref" v="K 68"/>
    <tag k="surface" v="paved"/>
  </way>
  <way id="26842682" version="15" timestamp="2010-09-14T11:49:42Z" uid="73358" user="Bindeking" changeset="5777771">
    <nd ref="294824429"/>
    <nd ref="294824282"/>
    <nd ref="371705017"/>
    <nd ref="371705525"/>
    <nd ref="371705530"/>
    <nd ref="444551644"/>
    <nd ref="371705766"/>
    <nd ref="444551680"/>
    <nd ref="308307723"/>
    <nd ref="294828743"/>
    <nd ref="294826578"/>
    <tag k="highway" v="tertiary"/>
    <tag k="maxspeed" v="50"/>
    <tag k="name" v="Grambeker Weg"/>
    <tag k="ref" v="K 68"/>
    <tag k="surface" v="paved"/>
  </way>
  <way id="26842705" version="1" timestamp="2008-09-07T17:48:16Z" uid="58091" user="Andreas M" changeset="567784">
    <nd ref="294824814"/>
    <nd ref="294824817"/>
    <nd ref="294824821"/>
    <nd ref="294824824"/>
    <nd ref="294824814"/>
    <tag k="addr:city" v="Wien"/>
    <tag k="addr:postcode" v="1190"/>
    <tag k="addr:street" v="Gebhardtgasse"/>
    <tag k="building" v="yes"/>
  </way>
  <way id="26842705" version="2" timestamp="2008-09-08T13:43:48Z" uid="58091" user="Andreas M" changeset="571377">
    <nd ref="294824814"/>
    <nd ref="294824817"/>
    <nd ref="294824821"/>
    <nd ref="294813150"/>
    <nd ref="294824824"/>
    <nd ref="294824814"/>
    <tag k="addr:city" v="Wien"/>
    <tag k="addr:housenumber" v="13"/>
    <tag k="addr:postcode" v="1190"/>
    <tag k="addr:street" v="Gebhardtgasse"/>
    <tag k="building" v="yes"/>
  </way>
  <way id="26842705" version="3" timestamp="2008-09-09T17:43:37Z" uid="58091" user="Andreas M" changeset="590662">
    <nd ref="294824814"/>
    <nd ref="294824817"/>
    <nd ref="294824821"/>
    <nd ref="295407536"/>
    <nd ref="294824824"/>
    <nd ref="294824814"/>
    <tag k="addr:city" v="Wien"/>
    <tag k="addr:housenumber" v="13"/>
    <tag k="addr:postcode" v="1190"/>
    <tag k="addr:street" v="Gebhardtgasse"/>
    <tag k="building" v="yes"/>
  </way>
  <way id="26842705" version="4" timestamp="2009-01-18T11:21:46Z" uid="38255" user="BearT" changeset="805541">
    <nd ref="294824814"/>
    <nd ref="294824817"/>
    <nd ref="294824821"/>
    <nd ref="295407536"/>
    <nd ref="294824824"/>
    <nd ref="294824814"/>
    <tag k="addr:city" v="Wien"/>
    <tag k="addr:country" v="at"/>
    <tag k="addr:housenumber" v="13"/>
    <tag k="addr:postcode" v="1190"/>
    <tag k="addr:street" v="Gebhardtgasse"/>
    <tag k="building" v="yes"/>
    <tag k="created_by" v="Merkaartor 0.13"/>
  </way>
  <way id="26842705" version="5" timestamp="2009-01-22T04:11:47Z" uid="70696" user="xybot" changeset="822919">
    <nd ref="294824814"/>
    <nd ref="294824817"/>
    <nd ref="294824821"/>
    <nd ref="295407536"/>
    <nd ref="294824824"/>
    <nd ref="294824814"/>
    <tag k="addr:city" v="Wien"/>
    <tag k="addr:country" v="AT"/>
    <tag k="addr:housenumber" v="13"/>
    <tag k="addr:postcode" v="1190"/>
    <tag k="addr:street" v="Gebhardtgasse"/>
    <tag k="building" v="yes"/>
    <tag k="created_by" v="xybot"/>
  </way>
  <way id="26842708" version="1" timestamp="2008-09-07T17:48:16Z" uid="58091" user="Andreas M" changeset="567784">
    <nd ref="294824827"/>
    <nd ref="294824830"/>
    <nd ref="294824832"/>
    <nd ref="294824833"/>
    <nd ref="294824827"/>
    <tag k="addr:city" v="Wien"/>
    <tag k="addr:postcode" v="1190"/>
    <tag k="addr:street" v="Gebhardtgasse"/>
    <tag k="building" v="yes"/>
  </way>
  <way id="26842708" version="2" timestamp="2008-09-08T13:43:49Z" uid="58091" user="Andreas M" changeset="571377">
    <nd ref="294824827"/>
    <nd ref="294824814"/>
    <nd ref="294824817"/>
    <nd ref="294824833"/>
    <nd ref="294824827"/>
    <tag k="addr:city" v="Wien"/>
    <tag k="addr:housenumber" v="9-11"/>
    <tag k="addr:postcode" v="1190"/>
    <tag k="addr:street" v="Gebhardtgasse"/>
    <tag k="building" v="yes"/>
  </way>
  <way id="26842708" version="3" timestamp="2009-01-18T11:21:48Z" uid="38255" user="BearT" changeset="805541">
    <nd ref="294824827"/>
    <nd ref="294824814"/>
    <nd ref="294824817"/>
    <nd ref="294824833"/>
    <nd ref="294824827"/>
    <tag k="addr:city" v="Wien"/>
    <tag k="addr:country" v="at"/>
    <tag k="addr:housenumber" v="9-11"/>
    <tag k="addr:postcode" v="1190"/>
    <tag k="addr:street" v="Gebhardtgasse"/>
    <tag k="building" v="yes"/>
    <tag k="created_by" v="Merkaartor 0.13"/>
  </way>
  <way id="26842708" version="4" timestamp="2009-01-22T04:11:48Z" uid="70696" user="xybot" changeset="822919">
    <nd ref="294824827"/>
    <nd ref="294824814"/>
    <nd ref="294824817"/>
    <nd ref="294824833"/>
    <nd ref="294824827"/>
    <tag k="addr:city" v="Wien"/>
    <tag k="addr:country" v="AT"/>
    <tag k="addr:housenumber" v="9-11"/>
    <tag k="addr:postcode" v="1190"/>
    <tag k="addr:street" v="Gebhardtgasse"/>
    <tag k="building" v="yes"/>
    <tag k="created_by" v="xybot"/>
  </way>
  <way id="26842709" version="1" timestamp="2008-09-07T17:48:16Z" uid="58091" user="Andreas M" changeset="567784">
    <nd ref="294824835"/>
    <nd ref="294824838"/>
    <nd ref="294824840"/>
    <nd ref="294824844"/>
    <nd ref="294824835"/>
    <tag k="building" v="yes"/>
  </way>
  <way id="26842711" version="1" timestamp="2008-09-07T17:48:17Z" uid="58091" user="Andreas M" changeset="567784">
    <nd ref="294824848"/>
    <nd ref="294824852"/>
    <nd ref="294824855"/>
    <nd ref="294824859"/>
    <nd ref="294824848"/>
    <tag k="addr:city" v="Wien"/>
    <tag k="addr:postcode" v="1190"/>
    <tag k="addr:street" v="Gebhardtgasse"/>
    <tag k="building" v="yes"/>
  </way>
  <way id="26842711" version="2" timestamp="2008-09-08T13:43:49Z" uid="58091" user="Andreas M" changeset="571377">
    <nd ref="294824848"/>
    <nd ref="294824852"/>
    <nd ref="294824855"/>
    <nd ref="294824859"/>
    <nd ref="294824848"/>
    <tag k="addr:city" v="Wien"/>
    <tag k="addr:housenumber" v="12"/>
    <tag k="addr:postcode" v="1190"/>
    <tag k="addr:street" v="Gebhardtgasse"/>
    <tag k="building" v="yes"/>
  </way>
  <way id="26842711" version="3" timestamp="2008-09-08T14:14:50Z" uid="58091" user="Andreas M" changeset="571377">
    <nd ref="294824848"/>
    <nd ref="294824852"/>
    <nd ref="294824855"/>
    <nd ref="294824859"/>
    <nd ref="294824848"/>
    <tag k="addr:city" v="Wien"/>
    <tag k="addr:housenumber" v="14"/>
    <tag k="addr:postcode" v="1190"/>
    <tag k="addr:street" v="Gebhardtgasse"/>
    <tag k="building" v="yes"/>
  </way>
  <way id="26842711" version="4" timestamp="2009-01-18T11:21:46Z" uid="38255" user="BearT" changeset="805541">
    <nd ref="294824848"/>
    <nd ref="294824852"/>
    <nd ref="294824855"/>
    <nd ref="294824859"/>
    <nd ref="294824848"/>
    <tag k="addr:city" v="Wien"/>
    <tag k="addr:country" v="at"/>
    <tag k="addr:housenumber" v="14"/>
    <tag k="addr:postcode" v="1190"/>
    <tag k="addr:street" v="Gebhardtgasse"/>
    <tag k="building" v="yes"/>
    <tag k="created_by" v="Merkaartor 0.13"/>
  </way>
  <way id="26842711" version="5" timestamp="2009-01-22T04:11:48Z" uid="70696" user="xybot" changeset="822919">
    <nd ref="294824848"/>
    <nd ref="294824852"/>
    <nd ref="294824855"/>
    <nd ref="294824859"/>
    <nd ref="294824848"/>
    <tag k="addr:city" v="Wien"/>
    <tag k="addr:country" v="AT"/>
    <tag k="addr:housenumber" v="14"/>
    <tag k="addr:postcode" v="1190"/>
    <tag k="addr:street" v="Gebhardtgasse"/>
    <tag k="building" v="yes"/>
    <tag k="created_by" v="xybot"/>
  </way>
  <way id="26842880" version="3" timestamp="2009-06-10T04:05:29Z" uid="20587" user="balrog-kun" changeset="1473633"/>
  <way id="26842885" version="4" timestamp="2009-06-10T04:03:51Z" uid="20587" user="balrog-kun" changeset="1473633">
    <nd ref="294827509"/>
    <nd ref="332311330"/>
    <nd ref="294827512"/>
    <tag k="created_by" v="Merkaartor 0.12"/>
    <tag k="highway" v="residential"/>
    <tag k="name" v="Aleksandra Zawadzkiego"/>
  </way>
  <way id="26842889" version="2" timestamp="2008-11-28T09:21:24Z" uid="43863" user="Rundling" changeset="803313"/>
  <way id="26842944" version="2" timestamp="2009-06-10T04:05:28Z" uid="20587" user="balrog-kun" changeset="1473633"/>
  <way id="26842037" version="6" timestamp="2012-04-20T20:52:01Z" uid="344275" user="chirlu" changeset="11368436">
    <nd ref="279833828"/>
    <nd ref="29004466"/>
    <nd ref="383811657"/>
    <nd ref="484260890"/>
    <nd ref="277955679"/>
    <nd ref="29004468"/>
    <tag k="highway" v="primary"/>
    <tag k="maxspeed" v="50"/>
    <tag k="name" v="Lange Straße"/>
    <tag k="ref" v="B 3"/>
  </way>
  <way id="26842037" version="7" timestamp="2012-07-17T02:34:28Z" uid="722137" user="OSMF Redaction Account" changeset="12255483">
    <nd ref="279833828"/>
    <nd ref="29004466"/>
    <nd ref="383811657"/>
    <nd ref="484260890"/>
    <nd ref="277955679"/>
    <nd ref="29004468"/>
    <tag k="highway" v="primary"/>
    <tag k="name" v="Lange Straße"/>
    <tag k="ref" v="B 3"/>
  </way>
  <way id="26842038" version="12" timestamp="2012-04-20T20:52:01Z" uid="344275" user="chirlu" changeset="11368436">
    <nd ref="29004468"/>
    <nd ref="662434971"/>
    <nd ref="29004469"/>
    <nd ref="384792729"/>
    <nd ref="29004471"/>
    <tag k="highway" v="primary"/>
    <tag k="maxspeed" v="50"/>
    <tag k="name" v="Lange Straße"/>
    <tag k="ref" v="B 3"/>
  </way>
  <way id="26842038" version="13" timestamp="2012-07-17T02:34:28Z" uid="722137" user="OSMF Redaction Account" changeset="12255483">
    <nd ref="29004468"/>
    <nd ref="662434971"/>
    <nd ref="29004469"/>
    <nd ref="384792729"/>
    <nd ref="29004471"/>
    <tag k="highway" v="primary"/>
    <tag k="name" v="Lange Straße"/>
    <tag k="ref" v="B 3"/>
  </way>
  <way id="26842038" version="14" timestamp="2012-07-17T23:44:56Z" uid="344275" user="chirlu" changeset="12273615">
    <nd ref="29004468"/>
    <nd ref="662434971"/>
    <nd ref="29004469"/>
    <nd ref="384792729"/>
    <nd ref="29004471"/>
    <tag k="highway" v="primary"/>
    <tag k="name" v="Lange Straße"/>
    <tag k="ref" v="B 3"/>
  </way>
  <way id="26842141" version="5" timestamp="2012-07-17T00:24:05Z" uid="722137" user="OSMF Redaction Account" changeset="12254135"/>
  <way id="26842287" version="5" timestamp="2012-07-17T00:24:07Z" uid="722137" user="OSMF Redaction Account" changeset="12254135"/>
  <way id="26842288" version="6" timestamp="2012-07-17T00:24:06Z" uid="722137" user="OSMF Redaction Account" changeset="12254135"/>
  <way id="26842359" version="4" timestamp="2012-09-09T11:27:54Z" uid="489834" user="gebi-ulb" changeset="13043213">
    <nd ref="294815115"/>
    <nd ref="313001147"/>
    <nd ref="313001148"/>
    <nd ref="313001149"/>
    <tag k="highway" v="track"/>
    <tag k="tracktype" v="grade4"/>
  </way>
  <way id="26842539" version="18" timestamp="2012-07-20T00:33:16Z" uid="722137" user="OSMF Redaction Account" changeset="12352334">
    <nd ref="294820071"/>
    <nd ref="294820405"/>
    <nd ref="690987107"/>
    <nd ref="294820345"/>
    <nd ref="294820484"/>
    <nd ref="1039908764"/>
    <nd ref="294836024"/>
    <nd ref="294820342"/>
    <nd ref="294827430"/>
    <nd ref="1039908755"/>
    <nd ref="294827497"/>
    <nd ref="294820075"/>
    <nd ref="298762054"/>
    <nd ref="294820074"/>
    <nd ref="1039908761"/>
    <nd ref="294820073"/>
    <nd ref="294835231"/>
    <nd ref="294820072"/>
    <nd ref="294820071"/>
    <tag k="highway" v="secondary"/>
    <tag k="oneway" v="yes"/>
  </way>
  <way id="26842682" version="16" timestamp="2012-04-17T14:53:48Z" uid="63107" user="brogo" changeset="11333673"/>
  <way id="26842705" version="6" timestamp="2012-07-17T00:24:06Z" uid="722137" user="OSMF Redaction Account" changeset="12254135"/>
  <way id="26842708" version="5" timestamp="2012-07-17T00:24:06Z" uid="722137" user="OSMF Redaction Account" changeset="12254135"/>
  <way id="26842709" version="2" timestamp="2012-07-17T00:24:05Z" uid="722137" user="OSMF Redaction Account" changeset="12254135"/>
  <way id="26842711" version="6" timestamp="2012-07-17T00:24:05Z" uid="722137" user="OSMF Redaction Account" changeset="12254135"/>
</osm>
