<?xml version='1.0' encoding='UTF-8'?>
<osm version="0.6" generator="libosmium/2.20.0">
  <way id="26942114" version="2" timestamp="2010-03-28T00:02:55Z" uid="20587" user="balrog-kun" changeset="4250871">
    <nd ref="48980986"/>
    <nd ref="49387754"/>
    <nd ref="49476170"/>
    <nd ref="48903314"/>
    <tag k="created_by" v="Potlatch 0.10b"/>
    <tag k="highway" v="residential"/>
    <tag k="name" v="Severin Drive"/>
    <tag k="tiger:cfcc" v="A41"/>
    <tag k="tiger:county" v="San Diego, CA"/>
    <tag k="tiger:name_base" v="Severin"/>
    <tag k="tiger:name_type" v="Dr"/>
    <tag k="tiger:separated" v="no"/>
    <tag k="tiger:source" v="tiger_import_dch_v0.6_20070809"/>
    <tag k="tiger:tlid" v="195326871:195326872"/>
  </way>
  <way id="26942590" version="2" timestamp="2008-09-24T04:34:31Z" uid="6975" user="ulfl" changeset="687743">
    <nd ref="48515922"/>
    <nd ref="48515926"/>
    <tag k="bridge" v="yes"/>
    <tag k="highway" v="motorway"/>
    <tag k="lanes" v="2"/>
    <tag k="layer" v="1"/>
    <tag k="name" v="Ronda Sur de LeÃ³n"/>
    <tag k="oneway" v="yes"/>
    <tag k="ref" v="LE-30"/>
  </way>
  <way id="26942910" version="3" timestamp="2010-03-28T00:02:56Z" uid="20587" user="balrog-kun" changeset="4250871">
    <nd ref="49088477"/>
    <nd ref="48927598"/>
    <nd ref="49088478"/>
    <tag k="bridge" v="yes"/>
    <tag k="created_by" v="Potlatch 0.10b"/>
    <tag k="highway" v="residential"/>
    <tag k="layer" v="1"/>
    <tag k="name" v="Center Drive"/>
    <tag k="tiger:cfcc" v="A41"/>
    <tag k="tiger:county" v="San Diego, CA"/>
    <tag k="tiger:name_base" v="Center"/>
    <tag k="tiger:name_type" v="Dr"/>
    <tag k="tiger:separated" v="no"/>
    <tag k="tiger:source" v="tiger_import_dch_v0.6_20070809"/>
    <tag k="tiger:tlid" v="195678125:195680875:195680876"/>
  </way>
  <way id="26942910" version="4" timestamp="2010-12-31T23:07:54Z" uid="101038" user="PZastoupil" changeset="6824101">
    <nd ref="49088477"/>
    <nd ref="49088478"/>
    <tag k="bridge" v="yes"/>
    <tag k="highway" v="residential"/>
    <tag k="layer" v="1"/>
    <tag k="name" v="Center Drive"/>
    <tag k="tiger:cfcc" v="A41"/>
    <tag k="tiger:county" v="San Diego, CA"/>
    <tag k="tiger:name_base" v="Center"/>
    <tag k="tiger:name_type" v="Dr"/>
    <tag k="tiger:separated" v="no"/>
    <tag k="tiger:source" v="tiger_import_dch_v0.6_20070809"/>
    <tag k="tiger:tlid" v="195678125:195680875:195680876"/>
  </way>
  <way id="26942989" version="6" timestamp="2010-05-01T21:27:10Z" uid="151899" user="Bikeman2000" changeset="4579623">
    <nd ref="257845010"/>
    <nd ref="715882174"/>
    <nd ref="257845009"/>
    <tag k="highway" v="secondary"/>
    <tag k="name" v="Am Wehrhahn"/>
    <tag k="oneway" v="yes"/>
  </way>
  <way id="26942989" version="7" timestamp="2010-05-24T01:10:54Z" uid="151899" user="Bikeman2000" changeset="4789307">
    <nd ref="257845010"/>
    <nd ref="715882174"/>
    <nd ref="746892318"/>
    <nd ref="257845009"/>
    <tag k="highway" v="secondary"/>
    <tag k="name" v="Am Wehrhahn"/>
    <tag k="oneway" v="yes"/>
  </way>
  <way id="26942989" version="8" timestamp="2011-01-12T19:24:12Z" uid="18130" user="black_bike" changeset="6950501">
    <nd ref="257845010"/>
    <nd ref="715882174"/>
    <nd ref="746892318"/>
    <nd ref="257845009"/>
    <tag k="highway" v="secondary"/>
    <tag k="lit" v="yes"/>
    <tag k="lit_by_gaslight" v="no"/>
    <tag k="name" v="Am Wehrhahn"/>
    <tag k="oneway" v="yes"/>
    <tag k="surface" v="asphalt"/>
  </way>
  <way id="26942989" version="9" timestamp="2011-03-24T22:00:54Z" uid="105839" user="jotzt" changeset="7660552">
    <nd ref="257845010"/>
    <nd ref="715882174"/>
    <nd ref="257845009"/>
    <tag k="highway" v="secondary"/>
    <tag k="lit" v="yes"/>
    <tag k="lit_by_gaslight" v="no"/>
    <tag k="name" v="Am Wehrhahn"/>
    <tag k="oneway" v="yes"/>
    <tag k="surface" v="asphalt"/>
  </way>
  <way id="26942989" version="10" timestamp="2012-01-13T16:19:04Z" uid="12614" user="rabenkind" changeset="10379884">
    <nd ref="1588452355"/>
    <nd ref="715882174"/>
    <nd ref="257845009"/>
    <tag k="highway" v="secondary"/>
    <tag k="lit" v="yes"/>
    <tag k="lit_by_gaslight" v="no"/>
    <tag k="name" v="Am Wehrhahn"/>
    <tag k="oneway" v="yes"/>
    <tag k="surface" v="asphalt"/>
  </way>
  <way id="26942989" version="11" timestamp="2012-01-16T13:32:31Z" uid="12614" user="rabenkind" changeset="10408316"/>
  <way id="26942114" version="3" timestamp="2012-04-12T21:05:54Z" uid="123633" user="stevea" changeset="11281390">
    <nd ref="48980986"/>
    <nd ref="49387754"/>
    <nd ref="49476170"/>
    <nd ref="48903314"/>
    <tag k="highway" v="tertiary"/>
    <tag k="name" v="Severin Drive"/>
    <tag k="tiger:cfcc" v="A41"/>
    <tag k="tiger:county" v="San Diego, CA"/>
    <tag k="tiger:name_base" v="Severin"/>
    <tag k="tiger:name_type" v="Dr"/>
    <tag k="tiger:separated" v="no"/>
    <tag k="tiger:source" v="tiger_import_dch_v0.6_20070809"/>
    <tag k="tiger:tlid" v="195326871:195326872"/>
  </way>
</osm>
