<?xml version='1.0' encoding='UTF-8'?>
<osm version="0.6" generator="libosmium/2.20.0">
  <way id="26956249" version="4" timestamp="2009-01-03T13:35:09Z" uid="58091" user="Andreas M" changeset="721411">
    <nd ref="34978472"/>
    <nd ref="282474273"/>
    <nd ref="295385054"/>
    <nd ref="61922606"/>
    <nd ref="61923113"/>
    <nd ref="303840317"/>
    <nd ref="61922007"/>
    <nd ref="34978475"/>
    <tag k="created_by" v="Potlatch 0.10e"/>
    <tag k="highway" v="tertiary"/>
    <tag k="name" v="Herbeckstraße"/>
    <tag k="railway" v="tram"/>
  </way>
  <way id="26956249" version="5" timestamp="2010-04-18T19:59:18Z" uid="129531" user="almich" changeset="4462273">
    <nd ref="34978472"/>
    <nd ref="282474273"/>
    <nd ref="295385054"/>
    <nd ref="61922606"/>
    <nd ref="61923113"/>
    <nd ref="303840317"/>
    <nd ref="61922007"/>
    <nd ref="34978475"/>
    <tag k="gauge" v="1435"/>
    <tag k="highway" v="tertiary"/>
    <tag k="name" v="Herbeckstraße"/>
    <tag k="railway" v="tram"/>
  </way>
  <way id="26956249" version="6" timestamp="2010-04-18T20:24:18Z" uid="129531" user="almich" changeset="4462598">
    <nd ref="34978472"/>
    <nd ref="282474273"/>
    <nd ref="295385054"/>
    <nd ref="61922606"/>
    <nd ref="61923113"/>
    <nd ref="303840317"/>
    <nd ref="61922007"/>
    <nd ref="34978475"/>
    <tag k="electrified" v="contact_line"/>
    <tag k="frequency" v="0"/>
    <tag k="gauge" v="1435"/>
    <tag k="highway" v="tertiary"/>
    <tag k="name" v="Herbeckstraße"/>
    <tag k="railway" v="tram"/>
  </way>
  <way id="26956249" version="7" timestamp="2010-09-04T07:52:16Z" uid="129531" user="almich" changeset="5676288">
    <nd ref="34978472"/>
    <nd ref="282474273"/>
    <nd ref="295385054"/>
    <nd ref="61922606"/>
    <nd ref="61923113"/>
    <nd ref="303840317"/>
    <nd ref="61922007"/>
    <nd ref="34978475"/>
    <tag k="electrified" v="contact_line"/>
    <tag k="frequency" v="0"/>
    <tag k="gauge" v="1435"/>
    <tag k="highway" v="tertiary"/>
    <tag k="name" v="Herbeckstraße"/>
    <tag k="railway" v="tram"/>
    <tag k="tracks" v="2"/>
  </way>
  <way id="26956249" version="8" timestamp="2011-11-08T00:00:14Z" uid="129531" user="almich" changeset="9770029">
    <nd ref="34978472"/>
    <nd ref="282474273"/>
    <nd ref="295385054"/>
    <nd ref="61922606"/>
    <nd ref="61923113"/>
    <nd ref="303840317"/>
    <nd ref="61922007"/>
    <nd ref="34978475"/>
    <tag k="electrified" v="contact_line"/>
    <tag k="frequency" v="0"/>
    <tag k="gauge" v="1435"/>
    <tag k="highway" v="tertiary"/>
    <tag k="name" v="Herbeckstraße"/>
    <tag k="railway" v="tram"/>
    <tag k="tracks" v="2"/>
    <tag k="voltage" v="600"/>
  </way>
  <way id="26956249" version="9" timestamp="2011-11-29T21:15:39Z" uid="104947" user="My Friend" changeset="9992630">
    <nd ref="34978472"/>
    <nd ref="282474273"/>
    <nd ref="1523769813"/>
    <nd ref="295385054"/>
    <nd ref="61922606"/>
    <nd ref="61923113"/>
    <nd ref="303840317"/>
    <nd ref="61922007"/>
    <nd ref="34978475"/>
    <tag k="electrified" v="contact_line"/>
    <tag k="frequency" v="0"/>
    <tag k="gauge" v="1435"/>
    <tag k="highway" v="tertiary"/>
    <tag k="name" v="Herbeckstraße"/>
    <tag k="railway" v="tram"/>
    <tag k="tracks" v="2"/>
    <tag k="voltage" v="600"/>
  </way>
  <way id="26956249" version="10" timestamp="2011-12-14T20:17:11Z" uid="129531" user="almich" changeset="10119077">
    <nd ref="34978472"/>
    <nd ref="1523769813"/>
    <tag k="electrified" v="contact_line"/>
    <tag k="frequency" v="0"/>
    <tag k="gauge" v="1435"/>
    <tag k="highway" v="tertiary"/>
    <tag k="name" v="Herbeckstraße"/>
    <tag k="railway" v="tram"/>
    <tag k="tracks" v="2"/>
    <tag k="voltage" v="600"/>
  </way>
  <way id="26956350" version="2" timestamp="2009-01-03T13:35:09Z" uid="58091" user="Andreas M" changeset="721411">
    <nd ref="65004157"/>
    <nd ref="60730639"/>
    <tag k="created_by" v="Potlatch 0.4c"/>
    <tag k="highway" v="tertiary"/>
    <tag k="name" v="Wallrißstraße"/>
    <tag k="railway" v="tram"/>
  </way>
  <way id="26956350" version="3" timestamp="2010-04-18T19:59:20Z" uid="129531" user="almich" changeset="4462273">
    <nd ref="65004157"/>
    <nd ref="60730639"/>
    <tag k="gauge" v="1435"/>
    <tag k="highway" v="tertiary"/>
    <tag k="name" v="Wallrißstraße"/>
    <tag k="railway" v="tram"/>
  </way>
  <way id="26956350" version="4" timestamp="2010-04-18T20:24:20Z" uid="129531" user="almich" changeset="4462598">
    <nd ref="65004157"/>
    <nd ref="60730639"/>
    <tag k="electrified" v="contact_line"/>
    <tag k="frequency" v="0"/>
    <tag k="gauge" v="1435"/>
    <tag k="highway" v="tertiary"/>
    <tag k="name" v="Wallrißstraße"/>
    <tag k="railway" v="tram"/>
  </way>
  <way id="26956350" version="5" timestamp="2010-09-04T07:52:16Z" uid="129531" user="almich" changeset="5676288">
    <nd ref="65004157"/>
    <nd ref="60730639"/>
    <tag k="electrified" v="contact_line"/>
    <tag k="frequency" v="0"/>
    <tag k="gauge" v="1435"/>
    <tag k="highway" v="tertiary"/>
    <tag k="name" v="Wallrißstraße"/>
    <tag k="railway" v="tram"/>
    <tag k="tracks" v="2"/>
  </way>
  <way id="26956350" version="6" timestamp="2011-11-08T00:01:32Z" uid="129531" user="almich" changeset="9770029">
    <nd ref="65004157"/>
    <nd ref="60730639"/>
    <tag k="electrified" v="contact_line"/>
    <tag k="frequency" v="0"/>
    <tag k="gauge" v="1435"/>
    <tag k="highway" v="tertiary"/>
    <tag k="name" v="Wallrißstraße"/>
    <tag k="railway" v="tram"/>
    <tag k="tracks" v="2"/>
    <tag k="voltage" v="600"/>
  </way>
  <way id="26956350" version="7" timestamp="2011-11-27T21:17:59Z" uid="104947" user="My Friend" changeset="9972170">
    <nd ref="65004157"/>
    <nd ref="1520265214"/>
    <nd ref="60730639"/>
    <tag k="electrified" v="contact_line"/>
    <tag k="frequency" v="0"/>
    <tag k="gauge" v="1435"/>
    <tag k="highway" v="tertiary"/>
    <tag k="name" v="Wallrißstraße"/>
    <tag k="railway" v="tram"/>
    <tag k="tracks" v="2"/>
    <tag k="voltage" v="600"/>
  </way>
  <way id="26956350" version="8" timestamp="2011-12-14T17:50:35Z" uid="129531" user="almich" changeset="10117923">
    <nd ref="65004157"/>
    <nd ref="1520265214"/>
    <tag k="electrified" v="contact_line"/>
    <tag k="frequency" v="0"/>
    <tag k="gauge" v="1435"/>
    <tag k="highway" v="tertiary"/>
    <tag k="name" v="Wallrißstraße"/>
    <tag k="railway" v="tram"/>
    <tag k="tracks" v="2"/>
    <tag k="voltage" v="600"/>
  </way>
  <way id="26956375" version="3" timestamp="2008-12-19T11:36:46Z" uid="67142" user="zottel" changeset="473195"/>
  <way id="26956605" version="1" timestamp="2008-09-09T16:19:05Z" uid="20587" user="balrog-kun" changeset="587144">
    <nd ref="295389538"/>
    <nd ref="295389539"/>
    <nd ref="295389540"/>
    <nd ref="295389541"/>
    <nd ref="294960003"/>
    <tag k="highway" v="service"/>
  </way>
  <way id="26956606" version="1" timestamp="2008-09-09T16:19:06Z" uid="20587" user="balrog-kun" changeset="587144">
    <nd ref="295389543"/>
    <nd ref="292747253"/>
    <tag k="highway" v="residential"/>
  </way>
  <way id="26956606" version="2" timestamp="2008-09-10T00:58:24Z" uid="20587" user="balrog-kun" changeset="597240">
    <nd ref="292747253"/>
    <nd ref="295389543"/>
    <nd ref="295523591"/>
    <nd ref="295523594"/>
    <nd ref="295523598"/>
    <nd ref="295523547"/>
    <tag k="highway" v="residential"/>
    <tag k="name" v="Calle Inglaterra"/>
  </way>
  <way id="26956975" version="2" timestamp="2009-01-08T14:24:59Z" uid="9581" user="Lobelt" changeset="757240">
    <nd ref="293686266"/>
    <nd ref="293688090"/>
    <nd ref="285891167"/>
    <nd ref="285891168"/>
    <tag k="created_by" v="Potlatch 0.10b"/>
    <tag k="highway" v="residential"/>
    <tag k="name" v="Grüne Aue"/>
    <tag k="oneway" v="-1"/>
  </way>
  <way id="26956975" version="3" timestamp="2009-10-28T17:24:18Z" uid="60345" user="Mirko Küster" changeset="2974991">
    <nd ref="293686266"/>
    <nd ref="293688090"/>
    <nd ref="285891167"/>
    <nd ref="285891168"/>
    <tag k="highway" v="residential"/>
    <tag k="name" v="Grüne Aue"/>
    <tag k="oneway" v="no"/>
  </way>
  <way id="26956975" version="4" timestamp="2011-05-11T12:17:20Z" uid="68426" user="timmle" changeset="8111638">
    <nd ref="293686266"/>
    <nd ref="293688090"/>
    <nd ref="285891167"/>
    <nd ref="285891168"/>
    <tag k="highway" v="residential"/>
    <tag k="maxspeed" v="30"/>
    <tag k="name" v="Grüne Aue"/>
    <tag k="oneway" v="no"/>
  </way>
  <way id="26956249" version="11" timestamp="2012-05-20T16:43:21Z" uid="298560" user="evod" changeset="11653518">
    <nd ref="34978472"/>
    <nd ref="1523769813"/>
    <tag k="electrified" v="contact_line"/>
    <tag k="frequency" v="0"/>
    <tag k="gauge" v="1435"/>
    <tag k="highway" v="tertiary"/>
    <tag k="maxspeed" v="50"/>
    <tag k="name" v="Herbeckstraße"/>
    <tag k="railway" v="tram"/>
    <tag k="tracks" v="2"/>
    <tag k="voltage" v="600"/>
  </way>
  <way id="26956249" version="12" timestamp="2012-07-17T00:22:00Z" uid="722137" user="OSMF Redaction Account" changeset="12254115">
    <nd ref="34978472"/>
    <nd ref="1523769813"/>
    <tag k="electrified" v="contact_line"/>
    <tag k="frequency" v="0"/>
    <tag k="gauge" v="1435"/>
    <tag k="highway" v="tertiary"/>
    <tag k="maxspeed" v="50"/>
    <tag k="name" v="Herbeckstraße"/>
    <tag k="tracks" v="2"/>
    <tag k="voltage" v="600"/>
  </way>
  <way id="26956249" version="13" timestamp="2012-07-17T20:12:13Z" uid="129531" user="almich" changeset="12271679">
    <nd ref="34978472"/>
    <nd ref="1523769813"/>
    <tag k="electrified" v="contact_line"/>
    <tag k="frequency" v="0"/>
    <tag k="gauge" v="1435"/>
    <tag k="highway" v="tertiary"/>
    <tag k="maxspeed" v="50"/>
    <tag k="name" v="Herbeckstraße"/>
    <tag k="railway" v="tram"/>
    <tag k="tracks" v="2"/>
    <tag k="voltage" v="600"/>
  </way>
  <way id="26956350" version="9" timestamp="2012-05-20T16:43:33Z" uid="298560" user="evod" changeset="11653518">
    <nd ref="65004157"/>
    <nd ref="1520265214"/>
    <tag k="electrified" v="contact_line"/>
    <tag k="frequency" v="0"/>
    <tag k="gauge" v="1435"/>
    <tag k="highway" v="tertiary"/>
    <tag k="maxspeed" v="30"/>
    <tag k="name" v="Wallrißstraße"/>
    <tag k="railway" v="tram"/>
    <tag k="tracks" v="2"/>
    <tag k="voltage" v="600"/>
  </way>
  <way id="26956350" version="10" timestamp="2012-07-17T00:21:58Z" uid="722137" user="OSMF Redaction Account" changeset="12254115">
    <nd ref="65004157"/>
    <nd ref="1520265214"/>
    <tag k="electrified" v="contact_line"/>
    <tag k="frequency" v="0"/>
    <tag k="gauge" v="1435"/>
    <tag k="highway" v="tertiary"/>
    <tag k="maxspeed" v="30"/>
    <tag k="name" v="Wallrißstraße"/>
    <tag k="tracks" v="2"/>
    <tag k="voltage" v="600"/>
  </way>
  <way id="26956350" version="11" timestamp="2012-07-17T20:12:16Z" uid="129531" user="almich" changeset="12271679">
    <nd ref="65004157"/>
    <nd ref="1520265214"/>
    <tag k="electrified" v="contact_line"/>
    <tag k="frequency" v="0"/>
    <tag k="gauge" v="1435"/>
    <tag k="highway" v="tertiary"/>
    <tag k="maxspeed" v="30"/>
    <tag k="name" v="Wallrißstraße"/>
    <tag k="railway" v="tram"/>
    <tag k="tracks" v="2"/>
    <tag k="voltage" v="600"/>
  </way>
  <way id="26956605" version="2" timestamp="2012-08-20T16:45:52Z" uid="162411" user="kalh" changeset="12797941">
    <nd ref="1874685511"/>
    <nd ref="1874685508"/>
    <nd ref="1874685560"/>
    <nd ref="295389539"/>
    <nd ref="1874685515"/>
    <nd ref="1874685487"/>
    <nd ref="1874685559"/>
    <nd ref="1874685574"/>
    <nd ref="1874685501"/>
    <nd ref="1874685481"/>
    <nd ref="1874685594"/>
    <tag k="highway" v="service"/>
  </way>
  <way id="26956975" version="5" timestamp="2012-07-18T13:44:10Z" uid="722137" user="OSMF Redaction Account" changeset="12283724">
    <nd ref="293688090"/>
    <nd ref="285891167"/>
    <nd ref="285891168"/>
    <tag k="highway" v="residential"/>
    <tag k="maxspeed" v="30"/>
    <tag k="name" v="Grüne Aue"/>
    <tag k="oneway" v="-1"/>
  </way>
  <way id="26956975" version="6" timestamp="2012-07-19T09:46:35Z" uid="110639" user="aighes" changeset="12316754"/>
</osm>
