<?xml version='1.0' encoding='UTF-8'?>
<osm version="0.6" generator="libosmium/2.20.0">
  <way id="26958005" version="3" timestamp="2009-12-09T20:28:51Z" uid="200463" user="harmagedon" changeset="3336536">
    <nd ref="295404953"/>
    <nd ref="295404952"/>
    <tag k="bridge" v="yes"/>
    <tag k="highway" v="residential"/>
    <tag k="layer" v="2"/>
    <tag k="name" v="Am Spreepark"/>
  </way>
  <way id="26958006" version="6" timestamp="2009-12-09T20:28:49Z" uid="200463" user="harmagedon" changeset="3336536">
    <nd ref="295404952"/>
    <nd ref="295404906"/>
    <nd ref="324212402"/>
    <nd ref="295404910"/>
    <nd ref="278844036"/>
    <nd ref="391376765"/>
    <nd ref="295404914"/>
    <nd ref="295404916"/>
    <nd ref="295404945"/>
    <nd ref="295404951"/>
    <tag k="highway" v="residential"/>
    <tag k="name" v="Am Spreepark"/>
  </way>
  <way id="26958006" version="7" timestamp="2009-12-11T18:57:58Z" uid="37833" user="FatJoe" changeset="3351243">
    <nd ref="295404952"/>
    <nd ref="295404906"/>
    <nd ref="324212402"/>
    <tag k="highway" v="residential"/>
    <tag k="name" v="Am Spreepark"/>
  </way>
  <way id="26958006" version="8" timestamp="2011-02-22T20:41:05Z" uid="37833" user="FatJoe" changeset="7367305">
    <nd ref="295404952"/>
    <nd ref="1167021970"/>
    <nd ref="295404906"/>
    <nd ref="324212402"/>
    <tag k="highway" v="residential"/>
    <tag k="name" v="Am Spreepark"/>
  </way>
  <way id="26958014" version="4" timestamp="2009-01-03T09:47:28Z" uid="58091" user="Andreas M" changeset="718986">
    <nd ref="123737884"/>
    <nd ref="61838564"/>
    <nd ref="62595548"/>
    <nd ref="17322884"/>
    <tag k="created_by" v="Potlatch 0.10b"/>
    <tag k="highway" v="residential"/>
    <tag k="name" v="Quellenstraße"/>
    <tag k="railway" v="tram"/>
  </way>
  <way id="26958014" version="5" timestamp="2009-05-28T14:09:29Z" uid="43577" user="dorni74" changeset="1343069">
    <nd ref="123737884"/>
    <nd ref="61838564"/>
    <nd ref="62595548"/>
    <tag k="created_by" v="Potlatch 0.10b"/>
    <tag k="highway" v="residential"/>
    <tag k="name" v="Quellenstraße"/>
    <tag k="railway" v="tram"/>
  </way>
  <way id="26958014" version="6" timestamp="2010-04-18T19:59:45Z" uid="129531" user="almich" changeset="4462273">
    <nd ref="123737884"/>
    <nd ref="61838564"/>
    <nd ref="62595548"/>
    <tag k="gauge" v="1435"/>
    <tag k="highway" v="residential"/>
    <tag k="name" v="Quellenstraße"/>
    <tag k="railway" v="tram"/>
  </way>
  <way id="26958014" version="7" timestamp="2010-04-18T20:24:39Z" uid="129531" user="almich" changeset="4462598">
    <nd ref="123737884"/>
    <nd ref="61838564"/>
    <nd ref="62595548"/>
    <tag k="electrified" v="contact_line"/>
    <tag k="frequency" v="0"/>
    <tag k="gauge" v="1435"/>
    <tag k="highway" v="residential"/>
    <tag k="name" v="Quellenstraße"/>
    <tag k="railway" v="tram"/>
  </way>
  <way id="26958014" version="8" timestamp="2011-11-08T00:46:42Z" uid="129531" user="almich" changeset="9770160">
    <nd ref="123737884"/>
    <nd ref="61838564"/>
    <nd ref="62595548"/>
    <tag k="electrified" v="contact_line"/>
    <tag k="frequency" v="0"/>
    <tag k="gauge" v="1435"/>
    <tag k="highway" v="residential"/>
    <tag k="name" v="Quellenstraße"/>
    <tag k="railway" v="tram"/>
    <tag k="voltage" v="600"/>
  </way>
  <way id="26958014" version="9" timestamp="2012-01-26T11:06:41Z" uid="129531" user="almich" changeset="10502007">
    <nd ref="123737884"/>
    <nd ref="62595548"/>
    <tag k="electrified" v="contact_line"/>
    <tag k="frequency" v="0"/>
    <tag k="gauge" v="1435"/>
    <tag k="highway" v="residential"/>
    <tag k="name" v="Quellenstraße"/>
    <tag k="railway" v="tram"/>
    <tag k="voltage" v="600"/>
  </way>
  <way id="26958142" version="4" timestamp="2009-01-03T09:47:31Z" uid="58091" user="Andreas M" changeset="718986">
    <nd ref="295405766"/>
    <nd ref="295406117"/>
    <nd ref="295406118"/>
    <nd ref="123737884"/>
    <nd ref="295406119"/>
    <nd ref="295406129"/>
    <nd ref="295405726"/>
    <nd ref="295406121"/>
    <nd ref="295406130"/>
    <nd ref="123737883"/>
    <nd ref="295406132"/>
    <nd ref="295406134"/>
    <nd ref="295405766"/>
    <tag k="created_by" v="Potlatch 0.10f"/>
    <tag k="highway" v="residential"/>
    <tag k="junction" v="roundabout"/>
    <tag k="name" v="Gellertplatz"/>
  </way>
  <way id="26958142" version="5" timestamp="2009-04-22T11:46:56Z" uid="12295" user="mapper_07" changeset="897134">
    <nd ref="295405766"/>
    <nd ref="295406117"/>
    <nd ref="295406118"/>
    <nd ref="123737884"/>
    <nd ref="295406119"/>
    <nd ref="295406129"/>
    <nd ref="295405726"/>
    <nd ref="295406121"/>
    <nd ref="295406130"/>
    <nd ref="123737883"/>
    <nd ref="295406132"/>
    <nd ref="380474057"/>
    <nd ref="295406134"/>
    <nd ref="295405766"/>
    <tag k="created_by" v="Potlatch 0.10f"/>
    <tag k="highway" v="residential"/>
    <tag k="junction" v="roundabout"/>
    <tag k="name" v="Gellertplatz"/>
  </way>
  <way id="26958291" version="1" timestamp="2008-09-09T17:43:35Z" uid="58091" user="Andreas M" changeset="590662">
    <nd ref="294813139"/>
    <nd ref="294813147"/>
    <nd ref="295407535"/>
    <nd ref="295407536"/>
    <nd ref="294824821"/>
    <nd ref="294813139"/>
    <tag k="addr:city" v="Wien"/>
    <tag k="addr:housenumber" v="15"/>
    <tag k="addr:postcode" v="1190"/>
    <tag k="addr:street" v="Gebhardtgasse"/>
    <tag k="building" v="yes"/>
  </way>
  <way id="26958291" version="2" timestamp="2009-01-18T11:21:49Z" uid="38255" user="BearT" changeset="805541">
    <nd ref="294813139"/>
    <nd ref="294813147"/>
    <nd ref="295407535"/>
    <nd ref="295407536"/>
    <nd ref="294824821"/>
    <nd ref="294813139"/>
    <tag k="addr:city" v="Wien"/>
    <tag k="addr:country" v="at"/>
    <tag k="addr:housenumber" v="15"/>
    <tag k="addr:postcode" v="1190"/>
    <tag k="addr:street" v="Gebhardtgasse"/>
    <tag k="building" v="yes"/>
    <tag k="created_by" v="Merkaartor 0.13"/>
  </way>
  <way id="26958291" version="3" timestamp="2009-01-22T04:13:02Z" uid="70696" user="xybot" changeset="822919">
    <nd ref="294813139"/>
    <nd ref="294813147"/>
    <nd ref="295407535"/>
    <nd ref="295407536"/>
    <nd ref="294824821"/>
    <nd ref="294813139"/>
    <tag k="addr:city" v="Wien"/>
    <tag k="addr:country" v="AT"/>
    <tag k="addr:housenumber" v="15"/>
    <tag k="addr:postcode" v="1190"/>
    <tag k="addr:street" v="Gebhardtgasse"/>
    <tag k="building" v="yes"/>
    <tag k="created_by" v="xybot"/>
  </way>
  <way id="26958292" version="1" timestamp="2008-09-09T17:43:35Z" uid="58091" user="Andreas M" changeset="590662">
    <nd ref="295407538"/>
    <nd ref="295407537"/>
    <nd ref="295064805"/>
    <nd ref="295064799"/>
    <nd ref="295407538"/>
    <tag k="addr:city" v="Wien"/>
    <tag k="addr:postcode" v="1190"/>
    <tag k="addr:street" v="Döblinger Hauptstraße"/>
    <tag k="building" v="yes"/>
  </way>
  <way id="26958292" version="2" timestamp="2008-09-12T17:09:38Z" uid="58091" user="Andreas M" changeset="617127">
    <nd ref="295407538"/>
    <nd ref="295407537"/>
    <nd ref="295064805"/>
    <nd ref="295064799"/>
    <nd ref="295407538"/>
    <tag k="addr:city" v="Wien"/>
    <tag k="addr:housenumber" v="90"/>
    <tag k="addr:postcode" v="1190"/>
    <tag k="addr:street" v="Döblinger Hauptstraße"/>
    <tag k="building" v="yes"/>
  </way>
  <way id="26958292" version="3" timestamp="2009-01-18T11:21:46Z" uid="38255" user="BearT" changeset="805541">
    <nd ref="295407538"/>
    <nd ref="295407537"/>
    <nd ref="295064805"/>
    <nd ref="295064799"/>
    <nd ref="295407538"/>
    <tag k="addr:city" v="Wien"/>
    <tag k="addr:country" v="at"/>
    <tag k="addr:housenumber" v="90"/>
    <tag k="addr:postcode" v="1190"/>
    <tag k="addr:street" v="Döblinger Hauptstraße"/>
    <tag k="building" v="yes"/>
    <tag k="created_by" v="Merkaartor 0.13"/>
  </way>
  <way id="26958292" version="4" timestamp="2009-01-22T04:13:05Z" uid="70696" user="xybot" changeset="822919">
    <nd ref="295407538"/>
    <nd ref="295407537"/>
    <nd ref="295064805"/>
    <nd ref="295064799"/>
    <nd ref="295407538"/>
    <tag k="addr:city" v="Wien"/>
    <tag k="addr:country" v="AT"/>
    <tag k="addr:housenumber" v="90"/>
    <tag k="addr:postcode" v="1190"/>
    <tag k="addr:street" v="Döblinger Hauptstraße"/>
    <tag k="building" v="yes"/>
    <tag k="created_by" v="xybot"/>
  </way>
  <way id="26958293" version="1" timestamp="2008-09-09T17:43:36Z" uid="58091" user="Andreas M" changeset="590662">
    <nd ref="295064832"/>
    <nd ref="295064829"/>
    <nd ref="295407541"/>
    <nd ref="295407540"/>
    <nd ref="295407539"/>
    <nd ref="295064832"/>
    <tag k="addr:city" v="Wien"/>
    <tag k="addr:postcode" v="1190"/>
    <tag k="addr:street" v="Döblinger Hauptstraße"/>
    <tag k="building" v="yes"/>
  </way>
  <way id="26958293" version="2" timestamp="2008-09-12T17:09:38Z" uid="58091" user="Andreas M" changeset="617127">
    <nd ref="295064832"/>
    <nd ref="295064829"/>
    <nd ref="295407541"/>
    <nd ref="295407540"/>
    <nd ref="295407539"/>
    <nd ref="295064832"/>
    <tag k="addr:city" v="Wien"/>
    <tag k="addr:housenumber" v="88"/>
    <tag k="addr:postcode" v="1190"/>
    <tag k="addr:street" v="Döblinger Hauptstraße"/>
    <tag k="building" v="yes"/>
  </way>
  <way id="26958293" version="3" timestamp="2009-01-18T11:21:44Z" uid="38255" user="BearT" changeset="805541">
    <nd ref="295064832"/>
    <nd ref="295064829"/>
    <nd ref="295407541"/>
    <nd ref="295407540"/>
    <nd ref="295407539"/>
    <nd ref="295064832"/>
    <tag k="addr:city" v="Wien"/>
    <tag k="addr:country" v="at"/>
    <tag k="addr:housenumber" v="88"/>
    <tag k="addr:postcode" v="1190"/>
    <tag k="addr:street" v="Döblinger Hauptstraße"/>
    <tag k="building" v="yes"/>
    <tag k="created_by" v="Merkaartor 0.13"/>
  </way>
  <way id="26958293" version="4" timestamp="2009-01-22T04:13:05Z" uid="70696" user="xybot" changeset="822919">
    <nd ref="295064832"/>
    <nd ref="295064829"/>
    <nd ref="295407541"/>
    <nd ref="295407540"/>
    <nd ref="295407539"/>
    <nd ref="295064832"/>
    <tag k="addr:city" v="Wien"/>
    <tag k="addr:country" v="AT"/>
    <tag k="addr:housenumber" v="88"/>
    <tag k="addr:postcode" v="1190"/>
    <tag k="addr:street" v="Döblinger Hauptstraße"/>
    <tag k="building" v="yes"/>
    <tag k="created_by" v="xybot"/>
  </way>
  <way id="26958316" version="2" timestamp="2010-03-28T00:03:10Z" uid="20587" user="balrog-kun" changeset="4250871">
    <nd ref="295407404"/>
    <nd ref="295407405"/>
    <nd ref="295407406"/>
    <nd ref="295407407"/>
    <nd ref="122600848"/>
    <nd ref="295407408"/>
    <nd ref="295407409"/>
    <nd ref="295407410"/>
    <nd ref="295407411"/>
    <nd ref="122600844"/>
    <nd ref="295351962"/>
    <nd ref="295351963"/>
    <nd ref="295351964"/>
    <nd ref="295351966"/>
    <nd ref="295351868"/>
    <nd ref="295351869"/>
    <nd ref="295351968"/>
    <nd ref="122600850"/>
    <tag k="created_by" v="Potlatch 0.10b"/>
    <tag k="highway" v="residential"/>
    <tag k="name" v="Dana Drive"/>
    <tag k="tiger:cfcc" v="A41"/>
    <tag k="tiger:county" v="Orange, CA"/>
    <tag k="tiger:name_base" v="Dana"/>
    <tag k="tiger:name_type" v="Dr"/>
    <tag k="tiger:separated" v="no"/>
    <tag k="tiger:source" v="tiger_import_dch_v0.6_20070809"/>
    <tag k="tiger:tlid" v="144073497:144073103"/>
    <tag k="tiger:zip_left" v="92629"/>
    <tag k="tiger:zip_right" v="92629"/>
  </way>
  <way id="26958331" version="3" timestamp="2009-12-09T16:11:24Z" uid="200463" user="harmagedon" changeset="3334003">
    <nd ref="257056203"/>
    <nd ref="295408308"/>
    <nd ref="295408309"/>
    <nd ref="295408310"/>
    <tag k="foot" v="yes"/>
    <tag k="highway" v="footway"/>
  </way>
  <way id="26958331" version="4" timestamp="2010-01-02T21:30:09Z" uid="34953" user="Langlaeufer" changeset="3522799">
    <nd ref="257056203"/>
    <nd ref="295408308"/>
    <nd ref="295408310"/>
    <tag k="foot" v="yes"/>
    <tag k="highway" v="footway"/>
  </way>
  <way id="26958331" version="5" timestamp="2010-01-02T21:49:17Z" uid="34953" user="Langlaeufer" changeset="3522799">
    <nd ref="257056203"/>
    <nd ref="295408308"/>
    <nd ref="295408310"/>
    <tag k="foot" v="yes"/>
    <tag k="highway" v="footway"/>
  </way>
  <way id="26958331" version="6" timestamp="2012-03-14T22:54:28Z" uid="479256" user="geodreieck4711" changeset="10983564">
    <nd ref="257056203"/>
    <nd ref="295408308"/>
    <nd ref="1675117002"/>
    <tag k="foot" v="yes"/>
    <tag k="highway" v="footway"/>
  </way>
  <way id="26958398" version="20" timestamp="2010-12-08T19:23:54Z" uid="65847" user="LKK" changeset="6588443"/>
  <way id="26958464" version="2" timestamp="2008-09-29T23:18:26Z" uid="8931" user="bluepup" changeset="722042">
    <nd ref="207143786"/>
    <nd ref="295409431"/>
    <nd ref="295409438"/>
    <nd ref="295409442"/>
    <nd ref="295409446"/>
    <nd ref="301014575"/>
    <nd ref="295409448"/>
    <nd ref="295409450"/>
    <nd ref="295409451"/>
    <nd ref="301014571"/>
    <nd ref="295409453"/>
    <nd ref="301014570"/>
    <nd ref="301014569"/>
    <nd ref="295409454"/>
    <nd ref="295409457"/>
    <nd ref="295409459"/>
    <nd ref="295409460"/>
    <nd ref="295409462"/>
    <nd ref="301014574"/>
    <nd ref="295409465"/>
    <nd ref="301014572"/>
    <nd ref="295409466"/>
    <nd ref="295409467"/>
    <nd ref="295409468"/>
    <nd ref="301014573"/>
    <nd ref="295409471"/>
    <nd ref="295409473"/>
    <nd ref="295409474"/>
    <nd ref="295409476"/>
    <nd ref="295409477"/>
    <nd ref="278340171"/>
    <tag k="highway" v="track"/>
    <tag k="motorcar" v="no"/>
    <tag k="tracktype" v="grade1"/>
  </way>
  <way id="26958464" version="3" timestamp="2008-10-31T18:53:44Z" uid="8931" user="bluepup" changeset="641380">
    <nd ref="207143786"/>
    <nd ref="295409431"/>
    <nd ref="295409438"/>
    <nd ref="295409442"/>
    <nd ref="295409446"/>
    <nd ref="301014575"/>
    <nd ref="295409448"/>
    <nd ref="295409450"/>
    <nd ref="295409451"/>
    <nd ref="301014571"/>
    <nd ref="295409453"/>
    <nd ref="301014570"/>
    <nd ref="301014569"/>
    <nd ref="295409454"/>
    <nd ref="295409457"/>
    <nd ref="295409459"/>
    <nd ref="295409460"/>
    <nd ref="295409462"/>
    <nd ref="301014574"/>
    <nd ref="295409465"/>
    <nd ref="301014572"/>
    <nd ref="295409466"/>
    <nd ref="295409467"/>
    <nd ref="295409468"/>
    <nd ref="301014573"/>
    <nd ref="295409471"/>
    <nd ref="295409473"/>
    <nd ref="295409474"/>
    <nd ref="295409476"/>
    <nd ref="308968054"/>
    <tag k="highway" v="track"/>
    <tag k="motorcar" v="no"/>
    <tag k="tracktype" v="grade1"/>
  </way>
  <way id="26958464" version="4" timestamp="2009-06-25T09:10:40Z" uid="81732" user="zahilb" changeset="1619664">
    <nd ref="207143786"/>
    <nd ref="295409431"/>
    <nd ref="295409438"/>
    <nd ref="295409442"/>
    <nd ref="295409446"/>
    <nd ref="295409448"/>
    <nd ref="295409450"/>
    <nd ref="295409451"/>
    <nd ref="301014571"/>
    <nd ref="295409453"/>
    <nd ref="301014569"/>
    <nd ref="295409454"/>
    <nd ref="295409457"/>
    <nd ref="295409459"/>
    <nd ref="295409460"/>
    <nd ref="295409462"/>
    <nd ref="301014574"/>
    <nd ref="295409465"/>
    <nd ref="301014572"/>
    <nd ref="295409466"/>
    <nd ref="295409467"/>
    <nd ref="295409468"/>
    <nd ref="301014573"/>
    <nd ref="295409471"/>
    <nd ref="295409473"/>
    <nd ref="295409474"/>
    <nd ref="295409476"/>
    <nd ref="308968054"/>
    <tag k="highway" v="track"/>
    <tag k="motorcar" v="no"/>
    <tag k="tracktype" v="grade1"/>
  </way>
  <way id="26958464" version="5" timestamp="2010-05-29T21:11:20Z" uid="8931" user="bluepup" changeset="4846641">
    <nd ref="207143786"/>
    <nd ref="295409431"/>
    <nd ref="295409438"/>
    <nd ref="295409442"/>
    <nd ref="295409446"/>
    <nd ref="757423470"/>
    <nd ref="295409448"/>
    <nd ref="295409450"/>
    <nd ref="295409451"/>
    <nd ref="301014571"/>
    <nd ref="295409453"/>
    <nd ref="301014569"/>
    <nd ref="295409454"/>
    <nd ref="295409457"/>
    <nd ref="295409459"/>
    <nd ref="295409460"/>
    <nd ref="295409462"/>
    <nd ref="301014574"/>
    <nd ref="295409465"/>
    <nd ref="301014572"/>
    <nd ref="295409466"/>
    <nd ref="295409467"/>
    <nd ref="295409468"/>
    <nd ref="301014573"/>
    <nd ref="295409471"/>
    <nd ref="295409473"/>
    <nd ref="295409474"/>
    <nd ref="295409476"/>
    <nd ref="308968054"/>
    <tag k="highway" v="track"/>
    <tag k="motorcar" v="no"/>
    <tag k="tracktype" v="grade1"/>
  </way>
  <way id="26958464" version="6" timestamp="2011-10-31T16:51:21Z" uid="21756" user="Torfnase" changeset="9705227">
    <nd ref="207143786"/>
    <nd ref="295409431"/>
    <nd ref="295409438"/>
    <nd ref="295409442"/>
    <nd ref="295409446"/>
    <nd ref="1487511385"/>
    <nd ref="757423470"/>
    <nd ref="295409448"/>
    <nd ref="295409450"/>
    <nd ref="295409451"/>
    <nd ref="301014571"/>
    <nd ref="295409453"/>
    <nd ref="301014569"/>
    <nd ref="295409454"/>
    <nd ref="295409457"/>
    <nd ref="295409459"/>
    <nd ref="295409460"/>
    <nd ref="295409462"/>
    <nd ref="301014574"/>
    <nd ref="295409465"/>
    <nd ref="301014572"/>
    <nd ref="295409466"/>
    <nd ref="295409467"/>
    <nd ref="295409468"/>
    <nd ref="301014573"/>
    <nd ref="295409471"/>
    <nd ref="295409473"/>
    <nd ref="295409474"/>
    <nd ref="295409476"/>
    <nd ref="308968054"/>
    <tag k="highway" v="track"/>
    <tag k="motorcar" v="no"/>
    <tag k="tracktype" v="grade1"/>
  </way>
  <way id="26958530" version="28" timestamp="2010-11-22T21:50:23Z" uid="65847" user="LKK" changeset="6435487">
    <nd ref="295448660"/>
    <nd ref="295447247"/>
    <tag k="highway" v="residential"/>
  </way>
  <way id="26958530" version="29" timestamp="2011-09-04T14:48:02Z" uid="150201" user="plamen" changeset="9209595">
    <nd ref="295587294"/>
    <nd ref="295448660"/>
    <nd ref="1423097468"/>
    <nd ref="295447247"/>
    <tag k="highway" v="residential"/>
  </way>
  <way id="26958708" version="1" timestamp="2008-09-09T18:02:05Z" uid="58091" user="Andreas M" changeset="590662">
    <nd ref="295412073"/>
    <nd ref="295412077"/>
    <nd ref="295412080"/>
    <nd ref="295412083"/>
    <nd ref="295412085"/>
    <nd ref="295407538"/>
    <nd ref="295412073"/>
    <tag k="addr:city" v="Wien"/>
    <tag k="addr:postcode" v="1190"/>
    <tag k="addr:street" v="Döblinger Hauptstraße"/>
    <tag k="building" v="yes"/>
  </way>
  <way id="26958708" version="2" timestamp="2008-09-12T17:09:36Z" uid="58091" user="Andreas M" changeset="617127">
    <nd ref="295412073"/>
    <nd ref="295412077"/>
    <nd ref="295412080"/>
    <nd ref="295412083"/>
    <nd ref="295412085"/>
    <nd ref="295407538"/>
    <nd ref="295412073"/>
    <tag k="addr:city" v="Wien"/>
    <tag k="addr:housenumber" v="92"/>
    <tag k="addr:postcode" v="1190"/>
    <tag k="addr:street" v="Döblinger Hauptstraße"/>
    <tag k="building" v="yes"/>
  </way>
  <way id="26958708" version="3" timestamp="2009-01-18T11:21:35Z" uid="38255" user="BearT" changeset="805541">
    <nd ref="295412073"/>
    <nd ref="295412077"/>
    <nd ref="295412080"/>
    <nd ref="295412083"/>
    <nd ref="295412085"/>
    <nd ref="295407538"/>
    <nd ref="295412073"/>
    <tag k="addr:city" v="Wien"/>
    <tag k="addr:country" v="at"/>
    <tag k="addr:housenumber" v="92"/>
    <tag k="addr:postcode" v="1190"/>
    <tag k="addr:street" v="Döblinger Hauptstraße"/>
    <tag k="building" v="yes"/>
    <tag k="created_by" v="Merkaartor 0.13"/>
  </way>
  <way id="26958708" version="4" timestamp="2009-01-22T04:13:06Z" uid="70696" user="xybot" changeset="822919">
    <nd ref="295412073"/>
    <nd ref="295412077"/>
    <nd ref="295412080"/>
    <nd ref="295412083"/>
    <nd ref="295412085"/>
    <nd ref="295407538"/>
    <nd ref="295412073"/>
    <tag k="addr:city" v="Wien"/>
    <tag k="addr:country" v="AT"/>
    <tag k="addr:housenumber" v="92"/>
    <tag k="addr:postcode" v="1190"/>
    <tag k="addr:street" v="Döblinger Hauptstraße"/>
    <tag k="building" v="yes"/>
    <tag k="created_by" v="xybot"/>
  </way>
  <way id="26958710" version="1" timestamp="2008-09-09T18:02:06Z" uid="58091" user="Andreas M" changeset="590662">
    <nd ref="295412088"/>
    <nd ref="295407541"/>
    <nd ref="295407540"/>
    <nd ref="295412091"/>
    <nd ref="295412092"/>
    <nd ref="295412094"/>
    <nd ref="295412088"/>
    <tag k="addr:city" v="Wien"/>
    <tag k="addr:postcode" v="1190"/>
    <tag k="addr:street" v="Döblinger Hauptstraße"/>
    <tag k="building" v="yes"/>
  </way>
  <way id="26958710" version="2" timestamp="2008-09-12T17:09:37Z" uid="58091" user="Andreas M" changeset="617127">
    <nd ref="295412088"/>
    <nd ref="295407541"/>
    <nd ref="295407540"/>
    <nd ref="295412091"/>
    <nd ref="295412092"/>
    <nd ref="295412094"/>
    <nd ref="295412088"/>
    <tag k="addr:city" v="Wien"/>
    <tag k="addr:housenumber" v="86"/>
    <tag k="addr:postcode" v="1190"/>
    <tag k="addr:street" v="Döblinger Hauptstraße"/>
    <tag k="building" v="yes"/>
  </way>
  <way id="26958710" version="3" timestamp="2009-01-18T11:21:39Z" uid="38255" user="BearT" changeset="805541">
    <nd ref="295412088"/>
    <nd ref="295407541"/>
    <nd ref="295407540"/>
    <nd ref="295412091"/>
    <nd ref="295412092"/>
    <nd ref="295412094"/>
    <nd ref="295412088"/>
    <tag k="addr:city" v="Wien"/>
    <tag k="addr:country" v="at"/>
    <tag k="addr:housenumber" v="86"/>
    <tag k="addr:postcode" v="1190"/>
    <tag k="addr:street" v="Döblinger Hauptstraße"/>
    <tag k="building" v="yes"/>
    <tag k="created_by" v="Merkaartor 0.13"/>
  </way>
  <way id="26958710" version="4" timestamp="2009-01-22T04:13:07Z" uid="70696" user="xybot" changeset="822919">
    <nd ref="295412088"/>
    <nd ref="295407541"/>
    <nd ref="295407540"/>
    <nd ref="295412091"/>
    <nd ref="295412092"/>
    <nd ref="295412094"/>
    <nd ref="295412088"/>
    <tag k="addr:city" v="Wien"/>
    <tag k="addr:country" v="AT"/>
    <tag k="addr:housenumber" v="86"/>
    <tag k="addr:postcode" v="1190"/>
    <tag k="addr:street" v="Döblinger Hauptstraße"/>
    <tag k="building" v="yes"/>
    <tag k="created_by" v="xybot"/>
  </way>
  <way id="26958710" version="5" timestamp="2011-02-22T11:56:41Z" uid="412211" user="tschuls0505" changeset="7362688"/>
  <way id="26958712" version="1" timestamp="2008-09-09T18:02:07Z" uid="58091" user="Andreas M" changeset="590662">
    <nd ref="295412094"/>
    <nd ref="295412092"/>
    <nd ref="295412095"/>
    <nd ref="295412094"/>
    <tag k="addr:city" v="Wien"/>
    <tag k="addr:postcode" v="1190"/>
    <tag k="addr:street" v="Döblinger Hauptstraße"/>
    <tag k="building" v="yes"/>
  </way>
  <way id="26958712" version="2" timestamp="2008-09-12T17:09:37Z" uid="58091" user="Andreas M" changeset="617127">
    <nd ref="295412094"/>
    <nd ref="295412092"/>
    <nd ref="295412095"/>
    <nd ref="295412094"/>
    <tag k="addr:city" v="Wien"/>
    <tag k="addr:housenumber" v="84"/>
    <tag k="addr:postcode" v="1190"/>
    <tag k="addr:street" v="Döblinger Hauptstraße"/>
    <tag k="building" v="yes"/>
  </way>
  <way id="26958712" version="3" timestamp="2009-01-18T11:21:40Z" uid="38255" user="BearT" changeset="805541">
    <nd ref="295412094"/>
    <nd ref="295412092"/>
    <nd ref="295412095"/>
    <nd ref="295412094"/>
    <tag k="addr:city" v="Wien"/>
    <tag k="addr:country" v="at"/>
    <tag k="addr:housenumber" v="84"/>
    <tag k="addr:postcode" v="1190"/>
    <tag k="addr:street" v="Döblinger Hauptstraße"/>
    <tag k="building" v="yes"/>
    <tag k="created_by" v="Merkaartor 0.13"/>
  </way>
  <way id="26958712" version="4" timestamp="2009-01-22T04:13:08Z" uid="70696" user="xybot" changeset="822919">
    <nd ref="295412094"/>
    <nd ref="295412092"/>
    <nd ref="295412095"/>
    <nd ref="295412094"/>
    <tag k="addr:city" v="Wien"/>
    <tag k="addr:country" v="AT"/>
    <tag k="addr:housenumber" v="84"/>
    <tag k="addr:postcode" v="1190"/>
    <tag k="addr:street" v="Döblinger Hauptstraße"/>
    <tag k="building" v="yes"/>
    <tag k="created_by" v="xybot"/>
  </way>
  <way id="26958713" version="1" timestamp="2008-09-09T18:02:08Z" uid="58091" user="Andreas M" changeset="590662">
    <nd ref="295412095"/>
    <nd ref="295412092"/>
    <nd ref="295412103"/>
    <nd ref="295412101"/>
    <nd ref="295412095"/>
    <tag k="addr:city" v="Wien"/>
    <tag k="addr:housenumber" v="1"/>
    <tag k="addr:postcode" v="1190"/>
    <tag k="addr:street" v="Pokornygasse"/>
    <tag k="building" v="yes"/>
  </way>
  <way id="26958713" version="2" timestamp="2009-01-18T11:21:39Z" uid="38255" user="BearT" changeset="805541">
    <nd ref="295412095"/>
    <nd ref="295412092"/>
    <nd ref="295412103"/>
    <nd ref="295412101"/>
    <nd ref="295412095"/>
    <tag k="addr:city" v="Wien"/>
    <tag k="addr:country" v="at"/>
    <tag k="addr:housenumber" v="1"/>
    <tag k="addr:postcode" v="1190"/>
    <tag k="addr:street" v="Pokornygasse"/>
    <tag k="building" v="yes"/>
    <tag k="created_by" v="Merkaartor 0.13"/>
  </way>
  <way id="26958713" version="3" timestamp="2009-01-22T04:13:08Z" uid="70696" user="xybot" changeset="822919">
    <nd ref="295412095"/>
    <nd ref="295412092"/>
    <nd ref="295412103"/>
    <nd ref="295412101"/>
    <nd ref="295412095"/>
    <tag k="addr:city" v="Wien"/>
    <tag k="addr:country" v="AT"/>
    <tag k="addr:housenumber" v="1"/>
    <tag k="addr:postcode" v="1190"/>
    <tag k="addr:street" v="Pokornygasse"/>
    <tag k="building" v="yes"/>
    <tag k="created_by" v="xybot"/>
  </way>
  <way id="26958716" version="1" timestamp="2008-09-09T18:02:09Z" uid="58091" user="Andreas M" changeset="590662">
    <nd ref="295412103"/>
    <nd ref="295412099"/>
    <nd ref="295412097"/>
    <nd ref="295412101"/>
    <nd ref="295412103"/>
    <tag k="addr:city" v="Wien"/>
    <tag k="addr:housenumber" v="3"/>
    <tag k="addr:postcode" v="1190"/>
    <tag k="addr:street" v="Pokornygasse"/>
    <tag k="building" v="yes"/>
  </way>
  <way id="26958716" version="2" timestamp="2008-09-12T17:09:37Z" uid="58091" user="Andreas M" changeset="617127">
    <nd ref="295412103"/>
    <nd ref="295412099"/>
    <nd ref="295412097"/>
    <nd ref="295412101"/>
    <nd ref="295412103"/>
    <tag k="addr:city" v="Wien"/>
    <tag k="addr:postcode" v="1190"/>
    <tag k="addr:street" v="Pokornygasse"/>
    <tag k="building" v="yes"/>
  </way>
  <way id="26958716" version="3" timestamp="2008-12-23T09:35:37Z" uid="58091" user="Andreas M" changeset="575702">
    <nd ref="295412103"/>
    <nd ref="295412099"/>
    <nd ref="295412097"/>
    <nd ref="295412101"/>
    <nd ref="295412103"/>
    <tag k="addr:city" v="Wien"/>
    <tag k="addr:housenumber" v="1a"/>
    <tag k="addr:postcode" v="1190"/>
    <tag k="addr:street" v="Pokornygasse"/>
    <tag k="building" v="yes"/>
  </way>
  <way id="26958716" version="4" timestamp="2009-01-18T11:21:49Z" uid="38255" user="BearT" changeset="805541">
    <nd ref="295412103"/>
    <nd ref="295412099"/>
    <nd ref="295412097"/>
    <nd ref="295412101"/>
    <nd ref="295412103"/>
    <tag k="addr:city" v="Wien"/>
    <tag k="addr:country" v="at"/>
    <tag k="addr:housenumber" v="1a"/>
    <tag k="addr:postcode" v="1190"/>
    <tag k="addr:street" v="Pokornygasse"/>
    <tag k="building" v="yes"/>
    <tag k="created_by" v="Merkaartor 0.13"/>
  </way>
  <way id="26958716" version="5" timestamp="2009-01-22T04:13:10Z" uid="70696" user="xybot" changeset="822919">
    <nd ref="295412103"/>
    <nd ref="295412099"/>
    <nd ref="295412097"/>
    <nd ref="295412101"/>
    <nd ref="295412103"/>
    <tag k="addr:city" v="Wien"/>
    <tag k="addr:country" v="AT"/>
    <tag k="addr:housenumber" v="1a"/>
    <tag k="addr:postcode" v="1190"/>
    <tag k="addr:street" v="Pokornygasse"/>
    <tag k="building" v="yes"/>
    <tag k="created_by" v="xybot"/>
  </way>
  <way id="26958736" version="5" timestamp="2009-12-02T03:06:32Z" uid="200463" user="harmagedon" changeset="3269195">
    <nd ref="293253754"/>
    <nd ref="295412816"/>
    <nd ref="295412819"/>
    <nd ref="295412820"/>
    <nd ref="295412822"/>
    <nd ref="295412823"/>
    <nd ref="292258973"/>
    <tag k="bicycle" v="yes"/>
    <tag k="highway" v="path"/>
  </way>
  <way id="26958736" version="6" timestamp="2010-12-30T17:39:59Z" uid="63975" user="Arminus" changeset="6812071">
    <nd ref="293253754"/>
    <nd ref="295412816"/>
    <nd ref="295412819"/>
    <nd ref="295412820"/>
    <nd ref="295412822"/>
    <nd ref="295412823"/>
    <nd ref="1073365417"/>
    <nd ref="292258973"/>
    <tag k="bicycle" v="yes"/>
    <tag k="highway" v="path"/>
  </way>
  <way id="26958736" version="7" timestamp="2011-06-11T19:05:23Z" uid="42393" user="mawi42" changeset="8408943">
    <nd ref="293253754"/>
    <nd ref="295412816"/>
    <nd ref="295412819"/>
    <nd ref="295412820"/>
    <nd ref="295412822"/>
    <nd ref="295412823"/>
    <nd ref="292258973"/>
    <tag k="bicycle" v="yes"/>
    <tag k="highway" v="path"/>
  </way>
  <way id="26958736" version="8" timestamp="2011-07-23T08:55:02Z" uid="63975" user="Arminus" changeset="8804246">
    <nd ref="293253754"/>
    <nd ref="295412816"/>
    <nd ref="295412819"/>
    <nd ref="295412820"/>
    <nd ref="295412822"/>
    <nd ref="295412823"/>
    <nd ref="292258972"/>
    <tag k="bicycle" v="yes"/>
    <tag k="highway" v="path"/>
  </way>
  <way id="26958736" version="9" timestamp="2011-12-01T17:09:37Z" uid="16696" user="Hike39" changeset="10009878">
    <nd ref="293253754"/>
    <nd ref="295412816"/>
    <nd ref="295412819"/>
    <nd ref="295412820"/>
    <nd ref="1526710678"/>
    <nd ref="295412822"/>
    <nd ref="295412823"/>
    <nd ref="292258972"/>
    <tag k="bicycle" v="yes"/>
    <tag k="highway" v="path"/>
  </way>
  <way id="26958887" version="8" timestamp="2009-08-02T04:21:14Z" uid="58091" user="Andreas M" changeset="2009607">
    <nd ref="103656034"/>
    <nd ref="139378255"/>
    <tag k="highway" v="residential"/>
    <tag k="maxspeed" v="30"/>
    <tag k="name" v="Kempelengasse"/>
  </way>
  <way id="26958893" version="8" timestamp="2009-08-02T04:21:14Z" uid="58091" user="Andreas M" changeset="2009607">
    <nd ref="103655898"/>
    <nd ref="139377809"/>
    <tag k="highway" v="residential"/>
    <tag k="maxspeed" v="30"/>
    <tag k="name" v="Randhartingergasse"/>
  </way>
  <way id="26958895" version="6" timestamp="2009-08-02T04:21:15Z" uid="58091" user="Andreas M" changeset="2009607">
    <nd ref="103655613"/>
    <nd ref="139376964"/>
    <tag k="highway" v="residential"/>
    <tag k="maxspeed" v="30"/>
    <tag k="name" v="Hofherrgasse"/>
  </way>
  <way id="26958916" version="2" timestamp="2009-12-09T16:11:06Z" uid="200463" user="harmagedon" changeset="3334003">
    <nd ref="257055463"/>
    <nd ref="295414772"/>
    <nd ref="295414773"/>
    <nd ref="295414774"/>
    <nd ref="295414775"/>
    <nd ref="295414776"/>
    <nd ref="295414777"/>
    <nd ref="295414778"/>
    <nd ref="295414779"/>
    <nd ref="295414780"/>
    <nd ref="295414781"/>
    <nd ref="295414782"/>
    <nd ref="295414783"/>
    <nd ref="295414784"/>
    <nd ref="295414785"/>
    <nd ref="295414786"/>
    <nd ref="295414787"/>
    <nd ref="257056073"/>
    <tag k="foot" v="yes"/>
    <tag k="highway" v="footway"/>
  </way>
  <way id="26958916" version="3" timestamp="2010-01-02T21:29:36Z" uid="34953" user="Langlaeufer" changeset="3522799">
    <nd ref="257055463"/>
    <nd ref="295414772"/>
    <nd ref="295414773"/>
    <nd ref="295414775"/>
    <nd ref="295414776"/>
    <nd ref="295414777"/>
    <nd ref="295414781"/>
    <nd ref="295414783"/>
    <nd ref="295414784"/>
    <nd ref="295414785"/>
    <nd ref="295414786"/>
    <nd ref="257056073"/>
    <tag k="foot" v="yes"/>
    <tag k="highway" v="footway"/>
  </way>
  <way id="26958916" version="4" timestamp="2010-01-02T21:48:19Z" uid="34953" user="Langlaeufer" changeset="3522799">
    <nd ref="257055463"/>
    <nd ref="295414772"/>
    <nd ref="295414773"/>
    <nd ref="295414775"/>
    <nd ref="295414776"/>
    <nd ref="295414777"/>
    <nd ref="295414781"/>
    <nd ref="295414783"/>
    <nd ref="295414784"/>
    <nd ref="295414785"/>
    <nd ref="295414786"/>
    <nd ref="257056073"/>
    <tag k="foot" v="yes"/>
    <tag k="highway" v="footway"/>
  </way>
  <way id="26958916" version="5" timestamp="2011-05-01T11:39:36Z" uid="149876" user="dbusse" changeset="8020207">
    <nd ref="257055464"/>
    <nd ref="295414772"/>
    <nd ref="295414773"/>
    <nd ref="295414775"/>
    <nd ref="295414776"/>
    <nd ref="295414777"/>
    <nd ref="295414781"/>
    <nd ref="295414783"/>
    <nd ref="295414784"/>
    <nd ref="295414785"/>
    <nd ref="295414786"/>
    <nd ref="257056073"/>
    <tag k="foot" v="yes"/>
    <tag k="highway" v="footway"/>
  </way>
  <way id="26958921" version="3" timestamp="2009-01-03T09:47:29Z" uid="58091" user="Andreas M" changeset="718986">
    <nd ref="123737880"/>
    <nd ref="61831813"/>
    <nd ref="61838558"/>
    <nd ref="61838559"/>
    <nd ref="61838560"/>
    <nd ref="123737883"/>
    <tag k="created_by" v="Potlatch 0.10b"/>
    <tag k="highway" v="residential"/>
    <tag k="name" v="Quellenstraße"/>
    <tag k="railway" v="tram"/>
  </way>
  <way id="26958921" version="4" timestamp="2010-04-18T19:59:45Z" uid="129531" user="almich" changeset="4462273">
    <nd ref="123737880"/>
    <nd ref="61831813"/>
    <nd ref="61838558"/>
    <nd ref="61838559"/>
    <nd ref="61838560"/>
    <nd ref="123737883"/>
    <tag k="gauge" v="1435"/>
    <tag k="highway" v="residential"/>
    <tag k="name" v="Quellenstraße"/>
    <tag k="railway" v="tram"/>
  </way>
  <way id="26958921" version="5" timestamp="2010-04-18T20:24:39Z" uid="129531" user="almich" changeset="4462598">
    <nd ref="123737880"/>
    <nd ref="61831813"/>
    <nd ref="61838558"/>
    <nd ref="61838559"/>
    <nd ref="61838560"/>
    <nd ref="123737883"/>
    <tag k="electrified" v="contact_line"/>
    <tag k="frequency" v="0"/>
    <tag k="gauge" v="1435"/>
    <tag k="highway" v="residential"/>
    <tag k="name" v="Quellenstraße"/>
    <tag k="railway" v="tram"/>
  </way>
  <way id="26958921" version="6" timestamp="2011-11-08T00:46:42Z" uid="129531" user="almich" changeset="9770160">
    <nd ref="123737880"/>
    <nd ref="61831813"/>
    <nd ref="61838558"/>
    <nd ref="61838559"/>
    <nd ref="61838560"/>
    <nd ref="123737883"/>
    <tag k="electrified" v="contact_line"/>
    <tag k="frequency" v="0"/>
    <tag k="gauge" v="1435"/>
    <tag k="highway" v="residential"/>
    <tag k="name" v="Quellenstraße"/>
    <tag k="railway" v="tram"/>
    <tag k="voltage" v="600"/>
  </way>
  <way id="26958923" version="2" timestamp="2009-12-09T16:11:20Z" uid="200463" user="harmagedon" changeset="3334003">
    <nd ref="295414776"/>
    <nd ref="295414825"/>
    <nd ref="295414826"/>
    <nd ref="295414827"/>
    <nd ref="295414828"/>
    <nd ref="295414829"/>
    <nd ref="295414830"/>
    <nd ref="295414831"/>
    <nd ref="295414832"/>
    <nd ref="295414833"/>
    <nd ref="295414834"/>
    <nd ref="295414835"/>
    <nd ref="257056072"/>
    <tag k="foot" v="yes"/>
    <tag k="highway" v="footway"/>
  </way>
  <way id="26958923" version="3" timestamp="2010-01-02T21:30:07Z" uid="34953" user="Langlaeufer" changeset="3522799">
    <nd ref="295414776"/>
    <nd ref="295414826"/>
    <nd ref="295414827"/>
    <nd ref="295414828"/>
    <nd ref="295414829"/>
    <nd ref="295414831"/>
    <nd ref="295414833"/>
    <nd ref="295414835"/>
    <nd ref="257056072"/>
    <tag k="foot" v="yes"/>
    <tag k="highway" v="footway"/>
  </way>
  <way id="26958923" version="4" timestamp="2010-01-02T21:49:10Z" uid="34953" user="Langlaeufer" changeset="3522799">
    <nd ref="295414776"/>
    <nd ref="295414826"/>
    <nd ref="295414827"/>
    <nd ref="295414828"/>
    <nd ref="295414829"/>
    <nd ref="295414831"/>
    <nd ref="295414833"/>
    <nd ref="295414835"/>
    <nd ref="257056072"/>
    <tag k="foot" v="yes"/>
    <tag k="highway" v="footway"/>
  </way>
  <way id="26958977" version="2" timestamp="2008-12-14T11:38:54Z" uid="6975" user="ulfl" changeset="366940">
    <nd ref="295415182"/>
    <nd ref="295415183"/>
    <nd ref="295415184"/>
    <nd ref="295415185"/>
    <nd ref="295118348"/>
    <nd ref="295118346"/>
    <nd ref="295118344"/>
    <nd ref="295415182"/>
    <tag k="waterway" v="dam"/>
  </way>
  <way id="26958977" version="3" timestamp="2011-12-26T16:31:56Z" uid="179581" user="Geofreund1" changeset="10208085">
    <nd ref="295415182"/>
    <nd ref="295415183"/>
    <nd ref="295415184"/>
    <nd ref="295415185"/>
    <nd ref="295118348"/>
    <nd ref="295118346"/>
    <nd ref="1562573525"/>
    <nd ref="295118344"/>
    <nd ref="295415182"/>
    <tag k="waterway" v="dam"/>
  </way>
  <way id="26958977" version="4" timestamp="2011-12-28T23:03:27Z" uid="214968" user="lezurdis" changeset="10231172"/>
  <way id="26958979" version="2" timestamp="2008-12-14T11:38:56Z" uid="6975" user="ulfl" changeset="366940">
    <nd ref="295415190"/>
    <nd ref="295415191"/>
    <nd ref="295415192"/>
    <nd ref="295415193"/>
    <nd ref="295415194"/>
    <nd ref="295415195"/>
    <tag k="waterway" v="dam"/>
  </way>
  <way id="26958979" version="3" timestamp="2011-12-26T16:31:59Z" uid="179581" user="Geofreund1" changeset="10208085"/>
  <way id="26958985" version="2" timestamp="2008-12-14T11:38:54Z" uid="6975" user="ulfl" changeset="366940">
    <nd ref="295415216"/>
    <nd ref="295256450"/>
    <nd ref="295256451"/>
    <nd ref="295415217"/>
    <nd ref="295415218"/>
    <nd ref="295415216"/>
    <tag k="waterway" v="dam"/>
  </way>
  <way id="26958985" version="3" timestamp="2011-12-28T23:03:27Z" uid="214968" user="lezurdis" changeset="10231172"/>
  <way id="26958014" version="10" timestamp="2012-07-16T23:39:32Z" uid="722137" user="OSMF Redaction Account" changeset="12253597"/>
  <way id="26958142" version="6" timestamp="2012-07-16T23:36:35Z" uid="722137" user="OSMF Redaction Account" changeset="12253552">
    <nd ref="295405766"/>
    <nd ref="295406117"/>
    <nd ref="295406118"/>
    <nd ref="295406119"/>
    <nd ref="295406129"/>
    <nd ref="295405726"/>
    <nd ref="295406121"/>
    <nd ref="295406130"/>
    <nd ref="295406132"/>
    <nd ref="380474057"/>
    <nd ref="295406134"/>
    <nd ref="295405766"/>
    <tag k="highway" v="residential"/>
    <tag k="junction" v="roundabout"/>
    <tag k="name" v="Gellertplatz"/>
  </way>
  <way id="26958142" version="7" timestamp="2012-07-18T16:50:17Z" uid="129531" user="almich" changeset="12289531">
    <nd ref="295405766"/>
    <nd ref="295406117"/>
    <nd ref="295406118"/>
    <nd ref="123737884"/>
    <nd ref="295406119"/>
    <nd ref="295406129"/>
    <nd ref="295405726"/>
    <nd ref="295406121"/>
    <nd ref="295406130"/>
    <nd ref="123737883"/>
    <nd ref="295406132"/>
    <nd ref="380474057"/>
    <nd ref="295406134"/>
    <nd ref="295405766"/>
    <tag k="highway" v="residential"/>
    <tag k="junction" v="roundabout"/>
    <tag k="name" v="Gellertplatz"/>
  </way>
  <way id="26958291" version="4" timestamp="2012-07-17T00:24:06Z" uid="722137" user="OSMF Redaction Account" changeset="12254135"/>
  <way id="26958292" version="5" timestamp="2012-07-17T00:24:07Z" uid="722137" user="OSMF Redaction Account" changeset="12254135"/>
  <way id="26958293" version="5" timestamp="2012-07-17T00:24:05Z" uid="722137" user="OSMF Redaction Account" changeset="12254135"/>
  <way id="26958464" version="7" timestamp="2012-07-17T00:59:40Z" uid="722137" user="OSMF Redaction Account" changeset="12254465">
    <nd ref="207143786"/>
    <nd ref="295409431"/>
    <nd ref="295409438"/>
    <nd ref="295409442"/>
    <nd ref="295409446"/>
    <nd ref="1487511385"/>
    <nd ref="295409448"/>
    <nd ref="295409450"/>
    <nd ref="295409451"/>
    <nd ref="295409453"/>
    <nd ref="295409454"/>
    <nd ref="295409457"/>
    <nd ref="295409459"/>
    <nd ref="295409460"/>
    <nd ref="295409462"/>
    <nd ref="295409465"/>
    <nd ref="295409466"/>
    <nd ref="295409467"/>
    <nd ref="295409468"/>
    <nd ref="295409471"/>
    <nd ref="295409473"/>
    <nd ref="295409474"/>
    <nd ref="295409476"/>
    <tag k="highway" v="track"/>
    <tag k="motorcar" v="no"/>
    <tag k="tracktype" v="grade1"/>
  </way>
  <way id="26958530" version="30" timestamp="2012-08-13T14:12:49Z" uid="479256" user="geodreieck4711" changeset="12714573">
    <nd ref="295587294"/>
    <nd ref="295448660"/>
    <nd ref="1423097468"/>
    <nd ref="295447247"/>
    <tag k="highway" v="residential"/>
  </way>
  <way id="26958530" version="31" timestamp="2012-08-17T09:11:51Z" uid="479256" user="geodreieck4711" changeset="12759934">
    <nd ref="295587294"/>
    <nd ref="295448660"/>
    <tag k="highway" v="residential"/>
  </way>
  <way id="26958708" version="5" timestamp="2012-07-17T00:24:07Z" uid="722137" user="OSMF Redaction Account" changeset="12254135"/>
  <way id="26958712" version="5" timestamp="2012-07-17T00:24:05Z" uid="722137" user="OSMF Redaction Account" changeset="12254135"/>
  <way id="26958713" version="4" timestamp="2012-07-17T00:24:04Z" uid="722137" user="OSMF Redaction Account" changeset="12254135"/>
  <way id="26958716" version="6" timestamp="2012-07-17T00:24:05Z" uid="722137" user="OSMF Redaction Account" changeset="12254135"/>
  <way id="26958921" version="7" timestamp="2012-07-16T23:36:33Z" uid="722137" user="OSMF Redaction Account" changeset="12253552">
    <nd ref="61831813"/>
    <nd ref="61838558"/>
    <nd ref="61838559"/>
    <nd ref="61838560"/>
    <tag k="electrified" v="contact_line"/>
    <tag k="frequency" v="0"/>
    <tag k="gauge" v="1435"/>
    <tag k="highway" v="residential"/>
    <tag k="name" v="Quellenstraße"/>
    <tag k="voltage" v="600"/>
  </way>
  <way id="26958921" version="8" timestamp="2012-07-18T16:50:17Z" uid="129531" user="almich" changeset="12289531">
    <nd ref="123737880"/>
    <nd ref="61831813"/>
    <nd ref="61838558"/>
    <nd ref="61838559"/>
    <nd ref="61838560"/>
    <nd ref="123737883"/>
    <tag k="electrified" v="contact_line"/>
    <tag k="frequency" v="0"/>
    <tag k="gauge" v="1435"/>
    <tag k="highway" v="residential"/>
    <tag k="name" v="Quellenstraße"/>
    <tag k="railway" v="tram"/>
    <tag k="voltage" v="600"/>
  </way>
  <way id="26958921" version="9" timestamp="2012-08-04T07:28:10Z" uid="129531" user="almich" changeset="12605962">
    <nd ref="123737880"/>
    <nd ref="61831813"/>
    <nd ref="61838558"/>
    <nd ref="61838559"/>
    <nd ref="61838560"/>
    <nd ref="1851145216"/>
    <nd ref="123737883"/>
    <tag k="electrified" v="contact_line"/>
    <tag k="frequency" v="0"/>
    <tag k="gauge" v="1435"/>
    <tag k="highway" v="residential"/>
    <tag k="name" v="Quellenstraße"/>
    <tag k="railway" v="tram"/>
    <tag k="voltage" v="600"/>
  </way>
</osm>
