<?xml version='1.0' encoding='UTF-8'?>
<osm version="0.6" generator="libosmium/2.20.0">
  <way id="27119044" version="4" timestamp="2008-11-13T21:22:06Z" uid="67142" user="zottel" changeset="744661">
    <nd ref="297533931"/>
    <nd ref="297533928"/>
    <nd ref="297533924"/>
    <nd ref="311847348"/>
    <nd ref="297286994"/>
    <nd ref="297533917"/>
    <nd ref="301613632"/>
    <nd ref="297533919"/>
    <nd ref="297533921"/>
    <nd ref="308977712"/>
    <nd ref="297533923"/>
    <tag k="highway" v="residential"/>
    <tag k="maxspeed" v="30"/>
    <tag k="name" v="Bülowstraße"/>
  </way>
  <way id="27119044" version="5" timestamp="2011-02-15T20:38:51Z" uid="287093" user="DSGIS" changeset="7298818">
    <nd ref="297533931"/>
    <nd ref="297533928"/>
    <nd ref="297533924"/>
    <nd ref="311847348"/>
    <nd ref="297286994"/>
    <nd ref="1155120809"/>
    <nd ref="297533917"/>
    <nd ref="301613632"/>
    <nd ref="297533919"/>
    <nd ref="297533921"/>
    <nd ref="308977712"/>
    <nd ref="297533923"/>
    <tag k="highway" v="residential"/>
    <tag k="maxspeed" v="30"/>
    <tag k="name" v="Bülowstraße"/>
  </way>
  <way id="27119044" version="6" timestamp="2012-01-15T12:34:27Z" uid="131968" user="changchun_1" changeset="10397330"/>
  <way id="27119047" version="5" timestamp="2009-02-05T17:12:48Z" uid="67142" user="zottel" changeset="160108">
    <nd ref="300693140"/>
    <nd ref="297533941"/>
    <tag k="bridge" v="yes"/>
    <tag k="highway" v="footway"/>
    <tag k="layer" v="1"/>
    <tag k="name" v="Seegersteg"/>
  </way>
  <way id="27119047" version="6" timestamp="2009-05-26T13:46:23Z" uid="85761" user="klausis" changeset="1325881">
    <nd ref="411335386"/>
    <nd ref="297533941"/>
    <tag k="bridge" v="yes"/>
    <tag k="highway" v="footway"/>
    <tag k="layer" v="1"/>
    <tag k="name" v="Seegersteg"/>
  </way>
  <way id="27119346" version="2" timestamp="2009-08-30T21:15:45Z" uid="34428" user="usm78-gis" changeset="2320065">
    <nd ref="297537390"/>
    <nd ref="478103797"/>
    <nd ref="262117"/>
    <nd ref="262118"/>
    <nd ref="297537409"/>
    <tag k="highway" v="primary"/>
    <tag k="name" v="Ленинградское ш."/>
    <tag k="ref" v="А129"/>
  </way>
  <way id="27119346" version="3" timestamp="2010-09-13T06:25:47Z" uid="24305" user="ZCC" changeset="5766466">
    <nd ref="297537390"/>
    <nd ref="478103797"/>
    <nd ref="262117"/>
    <nd ref="262118"/>
    <nd ref="297537409"/>
    <tag k="highway" v="primary"/>
    <tag k="maxspeed" v="60"/>
    <tag k="name" v="Ленинградское ш."/>
    <tag k="ref" v="А129"/>
  </way>
  <way id="27119346" version="4" timestamp="2010-10-25T06:09:09Z" uid="24305" user="ZCC" changeset="6168366">
    <nd ref="297537390"/>
    <nd ref="478103797"/>
    <nd ref="262117"/>
    <nd ref="262118"/>
    <nd ref="297537409"/>
    <tag k="highway" v="primary"/>
    <tag k="maxspeed" v="60"/>
    <tag k="name" v="Ленинградское шоссе"/>
    <tag k="ref" v="А129"/>
  </way>
  <way id="27119346" version="5" timestamp="2011-02-28T15:46:15Z" uid="95117" user="one_half_3544" changeset="7421625">
    <nd ref="297537390"/>
    <nd ref="478103797"/>
    <nd ref="262117"/>
    <nd ref="262118"/>
    <nd ref="297537409"/>
    <tag k="highway" v="primary"/>
    <tag k="maxspeed" v="60"/>
    <tag k="name" v="Ленинградское шоссе"/>
    <tag k="ref" v="А129"/>
    <tag k="snowplowing" v="yes"/>
  </way>
  <way id="27119346" version="6" timestamp="2011-08-17T13:49:23Z" uid="24305" user="ZCC" changeset="9048194">
    <nd ref="297537390"/>
    <nd ref="478103797"/>
    <nd ref="262117"/>
    <nd ref="262118"/>
    <nd ref="297537409"/>
    <tag k="highway" v="primary"/>
    <tag k="maxspeed" v="RU:urban"/>
    <tag k="name" v="Ленинградское шоссе"/>
    <tag k="ref" v="А129"/>
    <tag k="snowplowing" v="yes"/>
    <tag k="source:maxspeed" v="implicit"/>
  </way>
  <way id="27119346" version="7" timestamp="2012-02-22T01:13:02Z" uid="39040" user="Dinamik" changeset="10755449">
    <nd ref="297537390"/>
    <nd ref="478103797"/>
    <nd ref="262117"/>
    <nd ref="262118"/>
    <nd ref="297537409"/>
    <tag k="highway" v="trunk"/>
    <tag k="maxspeed" v="RU:urban"/>
    <tag k="name" v="Ленинградское шоссе"/>
    <tag k="ref" v="А129"/>
    <tag k="snowplowing" v="yes"/>
    <tag k="source:maxspeed" v="implicit"/>
  </way>
  <way id="27119517" version="2" timestamp="2008-10-02T07:49:12Z" uid="33382" user="de_muur" changeset="26229">
    <nd ref="297540273"/>
    <nd ref="297540279"/>
    <nd ref="297540282"/>
    <nd ref="297540286"/>
    <nd ref="297540290"/>
    <nd ref="297540293"/>
    <nd ref="297540298"/>
    <nd ref="297540307"/>
    <nd ref="297540309"/>
    <nd ref="297540312"/>
    <nd ref="297540317"/>
    <nd ref="297540320"/>
    <nd ref="297540323"/>
    <nd ref="297540327"/>
    <nd ref="297540330"/>
    <nd ref="297540273"/>
    <tag k="created_by" v="Potlatch 0.10c"/>
    <tag k="landuse" v="forest"/>
  </way>
  <way id="27119517" version="3" timestamp="2012-03-02T19:31:48Z" uid="63107" user="brogo" changeset="10851529"/>
  <way id="27119634" version="1" timestamp="2008-09-16T18:55:05Z" uid="67142" user="zottel" changeset="650864">
    <nd ref="296421804"/>
    <nd ref="296421793"/>
    <nd ref="296421792"/>
    <nd ref="297006149"/>
    <tag k="created_by" v="Potlatch 0.9c"/>
    <tag k="highway" v="residential"/>
    <tag k="name" v="Gellertstraße"/>
    <tag k="noexit" v="yes"/>
  </way>
  <way id="27119634" version="2" timestamp="2008-09-24T13:51:47Z" uid="67142" user="zottel" changeset="689032">
    <nd ref="296421804"/>
    <nd ref="296421793"/>
    <nd ref="296421792"/>
    <tag k="created_by" v="Potlatch 0.9c"/>
    <tag k="highway" v="residential"/>
    <tag k="name" v="Gellertstraße"/>
    <tag k="noexit" v="yes"/>
  </way>
  <way id="27119634" version="3" timestamp="2008-11-13T12:08:18Z" uid="67142" user="zottel" changeset="742852">
    <nd ref="296421804"/>
    <nd ref="296421793"/>
    <nd ref="296421792"/>
    <tag k="created_by" v="Potlatch 0.9c"/>
    <tag k="highway" v="residential"/>
    <tag k="maxspeed" v="30"/>
    <tag k="name" v="Gellertstraße"/>
    <tag k="noexit" v="yes"/>
  </way>
  <way id="27119634" version="4" timestamp="2009-09-08T06:25:16Z" uid="63969" user="olvagor" changeset="2410456">
    <nd ref="296421804"/>
    <nd ref="296421793"/>
    <nd ref="296421792"/>
    <tag k="highway" v="residential"/>
    <tag k="lit" v="yes"/>
    <tag k="maxspeed" v="30"/>
    <tag k="name" v="Gellertstraße"/>
    <tag k="noexit" v="yes"/>
  </way>
  <way id="27119634" version="5" timestamp="2011-12-13T11:31:15Z" uid="442210" user="dwausr" changeset="10106749"/>
  <way id="27119346" version="8" timestamp="2012-07-21T01:05:04Z" uid="722137" user="OSMF Redaction Account" changeset="12397680">
    <nd ref="297537390"/>
    <nd ref="262117"/>
    <nd ref="262118"/>
    <nd ref="297537409"/>
    <tag k="highway" v="trunk"/>
    <tag k="maxspeed" v="RU:urban"/>
    <tag k="name" v="Ленинградское шоссе"/>
    <tag k="ref" v="А129"/>
    <tag k="snowplowing" v="yes"/>
    <tag k="source:maxspeed" v="implicit"/>
  </way>
  <way id="27119346" version="9" timestamp="2012-07-26T21:20:01Z" uid="453265" user="EagleX" changeset="12504509">
    <nd ref="297537390"/>
    <nd ref="1839179788"/>
    <nd ref="262117"/>
    <nd ref="262118"/>
    <nd ref="297537409"/>
    <tag k="highway" v="trunk"/>
    <tag k="maxspeed" v="RU:urban"/>
    <tag k="name" v="Ленинградское шоссе"/>
    <tag k="ref" v="А129"/>
    <tag k="snowplowing" v="yes"/>
    <tag k="source:maxspeed" v="implicit"/>
  </way>
</osm>
