<?xml version='1.0' encoding='UTF-8'?>
<osm version="0.6" generator="libosmium/2.20.0">
  <way id="27215155" version="2" timestamp="2010-07-07T09:47:38Z" uid="74617" user="JohnSmith" changeset="5156250">
    <nd ref="298655611"/>
    <nd ref="298664162"/>
    <tag k="highway" v="residential"/>
    <tag k="maxspeed" v="50"/>
    <tag k="maxspeed:source" v="default residential speed limit in Australia"/>
    <tag k="name" v="Bradford Drive"/>
  </way>
  <way id="27215155" version="3" timestamp="2010-12-03T00:31:51Z" uid="74275" user="behemoth14" changeset="6521271">
    <nd ref="298655611"/>
    <nd ref="1017126271"/>
    <nd ref="298664162"/>
    <tag k="highway" v="residential"/>
    <tag k="maxspeed" v="50"/>
    <tag k="maxspeed:source" v="default residential speed limit in Australia"/>
    <tag k="name" v="Bradford Drive"/>
  </way>
  <way id="27215155" version="4" timestamp="2012-01-17T05:44:47Z" uid="147510" user="woodpeck_fixbot" changeset="10414499">
    <nd ref="298655611"/>
    <nd ref="1017126271"/>
    <nd ref="298664162"/>
    <tag k="highway" v="residential"/>
    <tag k="name" v="Bradford Drive"/>
  </way>
  <way id="27215156" version="3" timestamp="2010-07-07T09:48:17Z" uid="74617" user="JohnSmith" changeset="5156250">
    <nd ref="298664164"/>
    <nd ref="298664166"/>
    <nd ref="298664171"/>
    <nd ref="298664176"/>
    <nd ref="298664194"/>
    <nd ref="298664197"/>
    <nd ref="298664198"/>
    <nd ref="298664199"/>
    <nd ref="320826236"/>
    <nd ref="320826237"/>
    <nd ref="320826238"/>
    <nd ref="320826239"/>
    <tag k="highway" v="residential"/>
    <tag k="maxspeed" v="50"/>
    <tag k="maxspeed:source" v="default residential speed limit in Australia"/>
    <tag k="name" v="Nicholls Drive"/>
  </way>
  <way id="27215156" version="4" timestamp="2012-01-17T05:44:48Z" uid="147510" user="woodpeck_fixbot" changeset="10414499">
    <nd ref="298664164"/>
    <nd ref="298664166"/>
    <nd ref="298664171"/>
    <nd ref="298664176"/>
    <nd ref="298664194"/>
    <nd ref="298664197"/>
    <nd ref="298664198"/>
    <nd ref="298664199"/>
    <nd ref="320826236"/>
    <nd ref="320826237"/>
    <nd ref="320826238"/>
    <nd ref="320826239"/>
    <tag k="highway" v="residential"/>
    <tag k="name" v="Nicholls Drive"/>
  </way>
  <way id="27215157" version="2" timestamp="2010-07-07T09:47:45Z" uid="74617" user="JohnSmith" changeset="5156250">
    <nd ref="298664176"/>
    <nd ref="298664200"/>
    <nd ref="298664201"/>
    <nd ref="298664202"/>
    <nd ref="298664203"/>
    <nd ref="298664204"/>
    <tag k="highway" v="residential"/>
    <tag k="maxspeed" v="50"/>
    <tag k="maxspeed:source" v="default residential speed limit in Australia"/>
    <tag k="name" v="Reid Court"/>
  </way>
  <way id="27215157" version="3" timestamp="2012-01-17T05:44:49Z" uid="147510" user="woodpeck_fixbot" changeset="10414499">
    <nd ref="298664176"/>
    <nd ref="298664200"/>
    <nd ref="298664201"/>
    <nd ref="298664202"/>
    <nd ref="298664203"/>
    <nd ref="298664204"/>
    <tag k="highway" v="residential"/>
    <tag k="name" v="Reid Court"/>
  </way>
  <way id="27215158" version="2" timestamp="2010-07-07T09:47:59Z" uid="74617" user="JohnSmith" changeset="5156250">
    <nd ref="298664198"/>
    <nd ref="298664205"/>
    <tag k="highway" v="residential"/>
    <tag k="maxspeed" v="50"/>
    <tag k="maxspeed:source" v="default residential speed limit in Australia"/>
    <tag k="name" v="Thane Court"/>
  </way>
  <way id="27215158" version="3" timestamp="2012-01-17T05:44:50Z" uid="147510" user="woodpeck_fixbot" changeset="10414499">
    <nd ref="298664198"/>
    <nd ref="298664205"/>
    <tag k="highway" v="residential"/>
    <tag k="name" v="Thane Court"/>
  </way>
  <way id="27215159" version="2" timestamp="2010-07-07T09:48:13Z" uid="74617" user="JohnSmith" changeset="5156250">
    <nd ref="298664194"/>
    <nd ref="298664206"/>
    <nd ref="298664207"/>
    <nd ref="298664211"/>
    <nd ref="298664219"/>
    <tag k="highway" v="residential"/>
    <tag k="maxspeed" v="50"/>
    <tag k="maxspeed:source" v="default residential speed limit in Australia"/>
    <tag k="name" v="Haddon Court"/>
  </way>
  <way id="27215159" version="3" timestamp="2012-01-17T05:44:51Z" uid="147510" user="woodpeck_fixbot" changeset="10414499">
    <nd ref="298664194"/>
    <nd ref="298664206"/>
    <nd ref="298664207"/>
    <nd ref="298664211"/>
    <nd ref="298664219"/>
    <tag k="highway" v="residential"/>
    <tag k="name" v="Haddon Court"/>
  </way>
  <way id="27215209" version="2" timestamp="2010-10-22T10:20:50Z" uid="7617" user="Franc" changeset="6134759">
    <nd ref="298664619"/>
    <nd ref="960190191"/>
    <nd ref="960190045"/>
    <nd ref="81261079"/>
    <tag k="highway" v="footway"/>
    <tag k="name" v="Barry Street"/>
    <tag k="source" v="TangoGPS"/>
  </way>
  <way id="27215210" version="2" timestamp="2010-07-08T01:17:10Z" uid="74617" user="JohnSmith" changeset="5162525">
    <nd ref="81261079"/>
    <nd ref="81261092"/>
    <nd ref="81261123"/>
    <nd ref="81261146"/>
    <nd ref="81261111"/>
    <tag k="highway" v="residential"/>
    <tag k="maxspeed" v="50"/>
    <tag k="maxspeed:source" v="default residential speed limit in Australia"/>
    <tag k="name" v="Barry Street"/>
    <tag k="source" v="yahoo_imagery"/>
    <tag k="source:name" v="historical"/>
  </way>
  <way id="27215210" version="3" timestamp="2010-10-22T10:20:59Z" uid="7617" user="Franc" changeset="6134759">
    <nd ref="81261079"/>
    <nd ref="81261092"/>
    <nd ref="81261123"/>
    <nd ref="81261146"/>
    <nd ref="960190181"/>
    <nd ref="81261111"/>
    <tag k="highway" v="residential"/>
    <tag k="maxspeed" v="50"/>
    <tag k="maxspeed:source" v="default residential speed limit in Australia"/>
    <tag k="name" v="Barry Street"/>
    <tag k="source" v="yahoo_imagery"/>
    <tag k="source:name" v="historical"/>
  </way>
  <way id="27215210" version="4" timestamp="2012-01-17T05:44:52Z" uid="147510" user="woodpeck_fixbot" changeset="10414499">
    <nd ref="81261079"/>
    <nd ref="81261092"/>
    <nd ref="81261123"/>
    <nd ref="81261146"/>
    <nd ref="960190181"/>
    <nd ref="81261111"/>
    <tag k="highway" v="residential"/>
    <tag k="name" v="Barry Street"/>
    <tag k="source" v="yahoo_imagery"/>
    <tag k="source:name" v="historical"/>
  </way>
  <way id="27215210" version="5" timestamp="2012-03-18T11:08:01Z" uid="631799" user="Jon F" changeset="11017133">
    <nd ref="81261079"/>
    <nd ref="81261092"/>
    <nd ref="81261123"/>
    <nd ref="1679617435"/>
    <tag k="highway" v="residential"/>
    <tag k="name" v="Barry Street"/>
    <tag k="source" v="yahoo_imagery"/>
    <tag k="source:name" v="historical"/>
  </way>
  <way id="27215212" version="4" timestamp="2009-05-03T06:37:54Z" uid="61114" user="Trav" changeset="1056374">
    <nd ref="298664620"/>
    <nd ref="81284297"/>
    <tag k="highway" v="residential"/>
    <tag k="name" v="Reserve Street"/>
    <tag k="source" v="survey"/>
    <tag k="source:name" v="TangoGPS on OpenMoko"/>
  </way>
  <way id="27215212" version="5" timestamp="2010-07-08T01:17:59Z" uid="74617" user="JohnSmith" changeset="5162525">
    <nd ref="298664620"/>
    <nd ref="81284297"/>
    <tag k="highway" v="residential"/>
    <tag k="maxspeed" v="50"/>
    <tag k="maxspeed:source" v="default residential speed limit in Australia"/>
    <tag k="name" v="Reserve Street"/>
    <tag k="source" v="survey"/>
    <tag k="source:name" v="TangoGPS on OpenMoko"/>
  </way>
  <way id="27215212" version="6" timestamp="2012-01-17T05:44:53Z" uid="147510" user="woodpeck_fixbot" changeset="10414499">
    <nd ref="298664620"/>
    <nd ref="81284297"/>
    <tag k="highway" v="residential"/>
    <tag k="name" v="Reserve Street"/>
    <tag k="source" v="survey"/>
    <tag k="source:name" v="TangoGPS on OpenMoko"/>
  </way>
  <way id="27215341" version="2" timestamp="2009-09-30T13:06:35Z" uid="36809" user="pfoten_weg_!_" changeset="2687909">
    <nd ref="298667817"/>
    <nd ref="298667818"/>
    <nd ref="298667819"/>
    <nd ref="298667820"/>
    <nd ref="298667817"/>
    <tag k="building" v="yes"/>
  </way>
  <way id="27215341" version="3" timestamp="2010-12-23T12:06:26Z" uid="7596" user="ck3d" changeset="6744556"/>
  <way id="27215361" version="2" timestamp="2009-09-30T13:05:43Z" uid="36809" user="pfoten_weg_!_" changeset="2687909">
    <nd ref="298668253"/>
    <nd ref="298668255"/>
    <nd ref="298668256"/>
    <nd ref="298668257"/>
    <nd ref="298668258"/>
    <nd ref="298668259"/>
    <nd ref="298668253"/>
    <tag k="building" v="yes"/>
  </way>
  <way id="27215810" version="2" timestamp="2010-07-07T09:48:03Z" uid="74617" user="JohnSmith" changeset="5156250">
    <nd ref="298673196"/>
    <nd ref="298673202"/>
    <tag k="highway" v="residential"/>
    <tag k="maxspeed" v="50"/>
    <tag k="maxspeed:source" v="default residential speed limit in Australia"/>
    <tag k="name" v="Stubbs Place"/>
  </way>
  <way id="27215810" version="3" timestamp="2012-01-17T05:44:54Z" uid="147510" user="woodpeck_fixbot" changeset="10414499">
    <nd ref="298673196"/>
    <nd ref="298673202"/>
    <tag k="highway" v="residential"/>
    <tag k="name" v="Stubbs Place"/>
  </way>
  <way id="27215811" version="2" timestamp="2010-07-07T09:48:19Z" uid="74617" user="JohnSmith" changeset="5156250">
    <nd ref="212286244"/>
    <nd ref="298673210"/>
    <nd ref="298673218"/>
    <nd ref="298673227"/>
    <nd ref="298673238"/>
    <tag k="highway" v="residential"/>
    <tag k="maxspeed" v="50"/>
    <tag k="maxspeed:source" v="default residential speed limit in Australia"/>
    <tag k="name" v="Julian Place"/>
  </way>
  <way id="27215811" version="3" timestamp="2012-01-17T05:44:55Z" uid="147510" user="woodpeck_fixbot" changeset="10414499">
    <nd ref="212286244"/>
    <nd ref="298673210"/>
    <nd ref="298673218"/>
    <nd ref="298673227"/>
    <nd ref="298673238"/>
    <tag k="highway" v="residential"/>
    <tag k="name" v="Julian Place"/>
  </way>
  <way id="27215813" version="2" timestamp="2010-07-07T09:47:39Z" uid="74617" user="JohnSmith" changeset="5156250">
    <nd ref="292194748"/>
    <nd ref="292194737"/>
    <nd ref="298673196"/>
    <nd ref="292194763"/>
    <nd ref="292194733"/>
    <nd ref="292194734"/>
    <tag k="highway" v="residential"/>
    <tag k="maxspeed" v="50"/>
    <tag k="maxspeed:source" v="default residential speed limit in Australia"/>
    <tag k="name" v="Macdonald Street"/>
  </way>
  <way id="27215813" version="3" timestamp="2012-01-17T05:44:56Z" uid="147510" user="woodpeck_fixbot" changeset="10414499">
    <nd ref="292194748"/>
    <nd ref="292194737"/>
    <nd ref="298673196"/>
    <nd ref="292194763"/>
    <nd ref="292194733"/>
    <nd ref="292194734"/>
    <tag k="highway" v="residential"/>
    <tag k="name" v="Macdonald Street"/>
  </way>
  <way id="27215814" version="2" timestamp="2010-07-07T09:47:52Z" uid="74617" user="JohnSmith" changeset="5156250">
    <nd ref="298673257"/>
    <nd ref="298673388"/>
    <nd ref="298673409"/>
    <nd ref="298673431"/>
    <nd ref="298673440"/>
    <nd ref="298673446"/>
    <nd ref="298673454"/>
    <nd ref="298673324"/>
    <tag k="highway" v="residential"/>
    <tag k="maxspeed" v="50"/>
    <tag k="maxspeed:source" v="default residential speed limit in Australia"/>
    <tag k="name" v="McBean Parade"/>
  </way>
  <way id="27215814" version="3" timestamp="2012-01-17T05:44:58Z" uid="147510" user="woodpeck_fixbot" changeset="10414499">
    <nd ref="298673257"/>
    <nd ref="298673388"/>
    <nd ref="298673409"/>
    <nd ref="298673431"/>
    <nd ref="298673440"/>
    <nd ref="298673446"/>
    <nd ref="298673454"/>
    <nd ref="298673324"/>
    <tag k="highway" v="residential"/>
    <tag k="name" v="McBean Parade"/>
  </way>
  <way id="27215815" version="2" timestamp="2010-07-07T09:48:08Z" uid="74617" user="JohnSmith" changeset="5156250">
    <nd ref="298673462"/>
    <nd ref="298673471"/>
    <nd ref="298673478"/>
    <nd ref="298673488"/>
    <nd ref="298673495"/>
    <nd ref="298673502"/>
    <tag k="highway" v="residential"/>
    <tag k="maxspeed" v="50"/>
    <tag k="maxspeed:source" v="default residential speed limit in Australia"/>
    <tag k="name" v="Walker Place"/>
  </way>
  <way id="27215815" version="3" timestamp="2010-12-02T15:26:47Z" uid="74275" user="behemoth14" changeset="6515876">
    <nd ref="298673462"/>
    <nd ref="298673471"/>
    <nd ref="298673478"/>
    <nd ref="1016031338"/>
    <nd ref="298673488"/>
    <nd ref="298673495"/>
    <nd ref="298673502"/>
    <tag k="highway" v="residential"/>
    <tag k="maxspeed" v="50"/>
    <tag k="maxspeed:source" v="default residential speed limit in Australia"/>
    <tag k="name" v="Walker Place"/>
  </way>
  <way id="27215815" version="4" timestamp="2012-01-17T05:44:59Z" uid="147510" user="woodpeck_fixbot" changeset="10414499">
    <nd ref="298673462"/>
    <nd ref="298673471"/>
    <nd ref="298673478"/>
    <nd ref="1016031338"/>
    <nd ref="298673488"/>
    <nd ref="298673495"/>
    <nd ref="298673502"/>
    <tag k="highway" v="residential"/>
    <tag k="name" v="Walker Place"/>
  </way>
  <way id="27215816" version="2" timestamp="2010-07-07T09:48:01Z" uid="74617" user="JohnSmith" changeset="5156250">
    <nd ref="298673540"/>
    <nd ref="212285968"/>
    <nd ref="298673462"/>
    <nd ref="212285985"/>
    <nd ref="212286004"/>
    <nd ref="298673348"/>
    <nd ref="212286025"/>
    <nd ref="298673363"/>
    <nd ref="212286046"/>
    <nd ref="298673257"/>
    <nd ref="298673249"/>
    <nd ref="212286067"/>
    <tag k="highway" v="residential"/>
    <tag k="maxspeed" v="50"/>
    <tag k="maxspeed:source" v="default residential speed limit in Australia"/>
    <tag k="name" v="Merriman Drive"/>
  </way>
  <way id="27215816" version="3" timestamp="2010-12-02T02:18:41Z" uid="74275" user="behemoth14" changeset="6510761">
    <nd ref="298673540"/>
    <nd ref="212285968"/>
    <nd ref="298673462"/>
    <nd ref="212285985"/>
    <nd ref="212286004"/>
    <nd ref="298673348"/>
    <nd ref="212286025"/>
    <nd ref="298673363"/>
    <nd ref="212286046"/>
    <nd ref="298673257"/>
    <nd ref="298673249"/>
    <nd ref="1015333497"/>
    <nd ref="1015333506"/>
    <nd ref="212286067"/>
    <tag k="highway" v="residential"/>
    <tag k="maxspeed" v="50"/>
    <tag k="maxspeed:source" v="default residential speed limit in Australia"/>
    <tag k="name" v="Merriman Drive"/>
  </way>
  <way id="27215816" version="4" timestamp="2010-12-02T15:26:48Z" uid="74275" user="behemoth14" changeset="6515876">
    <nd ref="1016031360"/>
    <nd ref="1016031257"/>
    <nd ref="1016031293"/>
    <tag k="highway" v="residential"/>
    <tag k="maxspeed" v="50"/>
    <tag k="maxspeed:source" v="default residential speed limit in Australia"/>
    <tag k="name" v="Merriman Drive"/>
    <tag k="oneway" v="yes"/>
  </way>
  <way id="27215816" version="5" timestamp="2012-01-17T05:45:00Z" uid="147510" user="woodpeck_fixbot" changeset="10414499">
    <nd ref="1016031360"/>
    <nd ref="1016031257"/>
    <nd ref="1016031293"/>
    <tag k="highway" v="residential"/>
    <tag k="name" v="Merriman Drive"/>
    <tag k="oneway" v="yes"/>
  </way>
  <way id="27215209" version="3" timestamp="2012-07-19T21:32:50Z" uid="722137" user="OSMF Redaction Account" changeset="12348390">
    <nd ref="298664619"/>
    <nd ref="81261079"/>
    <tag k="highway" v="footway"/>
    <tag k="name" v="Barry Street"/>
    <tag k="source" v="TangoGPS"/>
  </way>
  <way id="27215813" version="4" timestamp="2012-07-20T04:11:38Z" uid="413571" user="john_h" changeset="12360201">
    <nd ref="292194748"/>
    <nd ref="292194737"/>
    <nd ref="298673196"/>
    <nd ref="292194763"/>
    <nd ref="292194733"/>
    <nd ref="1831671638"/>
    <tag k="highway" v="residential"/>
    <tag k="name" v="Macdonald Street"/>
  </way>
</osm>
