<?xml version='1.0' encoding='UTF-8'?>
<osm version="0.6" generator="libosmium/2.20.0">
  <way id="2724020" version="8" timestamp="2009-10-02T19:53:20Z" uid="86259" user="hasse_osm_korinthenkacker" changeset="2716821">
    <nd ref="442985465"/>
    <nd ref="442985469"/>
    <nd ref="457400707"/>
    <nd ref="25620945"/>
    <nd ref="12213599"/>
    <tag k="highway" v="residential"/>
    <tag k="name" v="Probst-Sigl-Straße"/>
    <tag k="postal_code" v="83607"/>
  </way>
  <way id="2724020" version="9" timestamp="2012-03-30T17:20:02Z" uid="42393" user="mawi42" changeset="11157850"/>
  <way id="2724081" version="4" timestamp="2009-10-02T20:04:15Z" uid="86259" user="hasse_osm_korinthenkacker" changeset="2717024">
    <nd ref="12213608"/>
    <nd ref="12213609"/>
    <nd ref="24161487"/>
    <nd ref="12213611"/>
    <tag k="highway" v="residential"/>
    <tag k="name" v="Dekan-Imminger-Straße"/>
    <tag k="postal_code" v="83607"/>
  </way>
  <way id="2724102" version="5" timestamp="2009-10-02T20:04:26Z" uid="86259" user="hasse_osm_korinthenkacker" changeset="2717024">
    <nd ref="12213611"/>
    <nd ref="12213612"/>
    <tag k="highway" v="residential"/>
    <tag k="name" v="Sankt-Josef-Straße"/>
    <tag k="postal_code" v="83607"/>
  </way>
  <way id="2724129" version="6" timestamp="2009-10-02T20:04:28Z" uid="86259" user="hasse_osm_korinthenkacker" changeset="2717024">
    <nd ref="12213612"/>
    <nd ref="12213613"/>
    <nd ref="12213615"/>
    <nd ref="12213616"/>
    <nd ref="21068297"/>
    <nd ref="12213617"/>
    <nd ref="467869324"/>
    <nd ref="12213618"/>
    <nd ref="12213619"/>
    <tag k="highway" v="residential"/>
    <tag k="name" v="Am Olivberg"/>
    <tag k="postal_code" v="83607"/>
  </way>
  <way id="2724152" version="4" timestamp="2009-10-02T20:04:30Z" uid="86259" user="hasse_osm_korinthenkacker" changeset="2717024">
    <nd ref="12213619"/>
    <nd ref="12213620"/>
    <nd ref="21620487"/>
    <nd ref="467851276"/>
    <nd ref="12213621"/>
    <nd ref="467851278"/>
    <nd ref="21620486"/>
    <nd ref="467851281"/>
    <nd ref="12213622"/>
    <tag k="highway" v="residential"/>
    <tag k="name" v="Hygin-Kiene-Straße"/>
    <tag k="postal_code" v="83607"/>
  </way>
  <way id="2724169" version="5" timestamp="2009-10-02T20:04:31Z" uid="86259" user="hasse_osm_korinthenkacker" changeset="2717024">
    <nd ref="21112704"/>
    <nd ref="21620489"/>
    <nd ref="21620490"/>
    <nd ref="467834690"/>
    <nd ref="21620491"/>
    <nd ref="12213622"/>
    <nd ref="12213623"/>
    <nd ref="12213624"/>
    <nd ref="12213625"/>
    <nd ref="12213626"/>
    <tag k="highway" v="residential"/>
    <tag k="name" v="Jahnstraße"/>
    <tag k="postal_code" v="83607"/>
  </way>
  <way id="2724169" version="6" timestamp="2011-02-10T10:58:45Z" uid="42393" user="mawi42" changeset="7244195">
    <nd ref="21112704"/>
    <nd ref="1145314558"/>
    <nd ref="21620489"/>
    <nd ref="21620490"/>
    <nd ref="467834690"/>
    <nd ref="21620491"/>
    <nd ref="12213622"/>
    <nd ref="12213623"/>
    <nd ref="12213624"/>
    <nd ref="12213625"/>
    <nd ref="12213626"/>
    <tag k="highway" v="residential"/>
    <tag k="name" v="Jahnstraße"/>
    <tag k="postal_code" v="83607"/>
  </way>
  <way id="2724169" version="7" timestamp="2011-09-10T11:59:07Z" uid="42393" user="mawi42" changeset="9261473">
    <nd ref="21112704"/>
    <nd ref="1145314558"/>
    <nd ref="21620489"/>
    <nd ref="21620490"/>
    <nd ref="467834690"/>
    <nd ref="21620491"/>
    <nd ref="12213622"/>
    <nd ref="12213623"/>
    <nd ref="1428852828"/>
    <nd ref="12213624"/>
    <nd ref="12213625"/>
    <nd ref="12213626"/>
    <tag k="highway" v="residential"/>
    <tag k="name" v="Jahnstraße"/>
    <tag k="postal_code" v="83607"/>
  </way>
  <way id="2724169" version="8" timestamp="2011-09-10T12:11:50Z" uid="42393" user="mawi42" changeset="9261538">
    <nd ref="21112704"/>
    <nd ref="1145314558"/>
    <nd ref="21620489"/>
    <nd ref="21620490"/>
    <nd ref="467834690"/>
    <nd ref="21620491"/>
    <nd ref="12213622"/>
    <nd ref="12213623"/>
    <nd ref="1428852828"/>
    <nd ref="12213624"/>
    <nd ref="1428861343"/>
    <nd ref="12213625"/>
    <nd ref="12213626"/>
    <tag k="highway" v="residential"/>
    <tag k="name" v="Jahnstraße"/>
    <tag k="postal_code" v="83607"/>
  </way>
  <way id="2724448" version="4" timestamp="2010-05-28T08:38:11Z" uid="4467" user="Rosscoe" changeset="4828599">
    <nd ref="12330756"/>
    <nd ref="86198519"/>
    <nd ref="12330772"/>
    <nd ref="12330749"/>
    <tag k="highway" v="unclassified"/>
    <tag k="name" v="James Cook Esplanade"/>
  </way>
  <way id="2724448" version="5" timestamp="2010-07-06T17:19:58Z" uid="74617" user="JohnSmith" changeset="5152225">
    <nd ref="12330756"/>
    <nd ref="86198519"/>
    <nd ref="12330772"/>
    <nd ref="12330749"/>
    <tag k="highway" v="unclassified"/>
    <tag k="maxspeed" v="50"/>
    <tag k="maxspeed:source" v="default residential speed limit in Australia"/>
    <tag k="name" v="James Cook Esplanade"/>
  </way>
  <way id="2724448" version="6" timestamp="2011-07-19T12:14:46Z" uid="349913" user="Peter W34" changeset="8767737">
    <nd ref="12330756"/>
    <nd ref="1366575486"/>
    <nd ref="86198519"/>
    <nd ref="1366575674"/>
    <nd ref="12330772"/>
    <nd ref="1366575535"/>
    <nd ref="12330749"/>
    <tag k="highway" v="unclassified"/>
    <tag k="maxspeed" v="50"/>
    <tag k="maxspeed:source" v="default residential speed limit in Australia"/>
    <tag k="name" v="James Cook Esplanade"/>
  </way>
  <way id="2724448" version="7" timestamp="2012-01-08T02:27:08Z" uid="147510" user="woodpeck_fixbot" changeset="10327743">
    <nd ref="12330756"/>
    <nd ref="1366575486"/>
    <nd ref="86198519"/>
    <nd ref="1366575674"/>
    <nd ref="12330772"/>
    <nd ref="1366575535"/>
    <nd ref="12330749"/>
    <tag k="highway" v="unclassified"/>
    <tag k="name" v="James Cook Esplanade"/>
  </way>
  <way id="2724456" version="4" timestamp="2010-05-28T08:38:18Z" uid="4467" user="Rosscoe" changeset="4828599">
    <nd ref="12330768"/>
    <nd ref="12330772"/>
    <tag k="highway" v="unclassified"/>
    <tag k="name" v="Dirk Hartog Place"/>
  </way>
  <way id="2724456" version="5" timestamp="2010-07-06T17:17:26Z" uid="74617" user="JohnSmith" changeset="5152225">
    <nd ref="12330768"/>
    <nd ref="12330772"/>
    <tag k="highway" v="unclassified"/>
    <tag k="maxspeed" v="50"/>
    <tag k="maxspeed:source" v="default residential speed limit in Australia"/>
    <tag k="name" v="Dirk Hartog Place"/>
  </way>
  <way id="2724456" version="6" timestamp="2012-01-08T02:27:09Z" uid="147510" user="woodpeck_fixbot" changeset="10327743">
    <nd ref="12330768"/>
    <nd ref="12330772"/>
    <tag k="highway" v="unclassified"/>
    <tag k="name" v="Dirk Hartog Place"/>
  </way>
  <way id="2724467" version="8" timestamp="2010-05-28T08:38:19Z" uid="4467" user="Rosscoe" changeset="4828599">
    <nd ref="303900543"/>
    <nd ref="303900547"/>
    <nd ref="303900554"/>
    <nd ref="12330665"/>
    <nd ref="12330668"/>
    <nd ref="12330687"/>
    <nd ref="12330729"/>
    <nd ref="12330738"/>
    <nd ref="86198515"/>
    <nd ref="12330749"/>
    <tag k="highway" v="residential"/>
    <tag k="name" v="Columbus Drive"/>
  </way>
  <way id="2724467" version="9" timestamp="2010-07-06T17:13:22Z" uid="74617" user="JohnSmith" changeset="5152225">
    <nd ref="303900543"/>
    <nd ref="303900547"/>
    <nd ref="303900554"/>
    <nd ref="12330665"/>
    <nd ref="12330668"/>
    <nd ref="12330687"/>
    <nd ref="12330729"/>
    <nd ref="12330738"/>
    <nd ref="86198515"/>
    <nd ref="12330749"/>
    <tag k="highway" v="residential"/>
    <tag k="maxspeed" v="50"/>
    <tag k="maxspeed:source" v="default residential speed limit in Australia"/>
    <tag k="name" v="Columbus Drive"/>
  </way>
  <way id="2724467" version="10" timestamp="2011-07-19T12:14:46Z" uid="349913" user="Peter W34" changeset="8767737">
    <nd ref="303900547"/>
    <nd ref="1366575869"/>
    <nd ref="1366575469"/>
    <nd ref="303900543"/>
    <tag k="highway" v="tertiary"/>
    <tag k="maxspeed" v="50"/>
    <tag k="maxspeed:source" v="default residential speed limit in Australia"/>
    <tag k="name" v="Columbus Drive"/>
    <tag k="oneway" v="yes"/>
    <tag k="source" v="Bing"/>
  </way>
  <way id="2724467" version="11" timestamp="2012-01-08T02:27:10Z" uid="147510" user="woodpeck_fixbot" changeset="10327743">
    <nd ref="303900547"/>
    <nd ref="1366575869"/>
    <nd ref="1366575469"/>
    <nd ref="303900543"/>
    <tag k="highway" v="tertiary"/>
    <tag k="name" v="Columbus Drive"/>
    <tag k="oneway" v="yes"/>
    <tag k="source" v="Bing"/>
  </way>
  <way id="2724479" version="5" timestamp="2010-05-28T08:38:13Z" uid="4467" user="Rosscoe" changeset="4828599">
    <nd ref="12324229"/>
    <nd ref="12330602"/>
    <nd ref="86198515"/>
    <nd ref="86196557"/>
    <nd ref="12330611"/>
    <tag k="highway" v="primary"/>
    <tag k="name" v="Bayview Street"/>
  </way>
  <way id="2724479" version="6" timestamp="2011-07-19T12:14:47Z" uid="349913" user="Peter W34" changeset="8767737">
    <nd ref="12324229"/>
    <nd ref="1366575522"/>
    <tag k="highway" v="primary"/>
    <tag k="name" v="Bayview Street"/>
  </way>
  <way id="2724479" version="7" timestamp="2011-07-23T06:59:25Z" uid="349913" user="Peter W34" changeset="8803666">
    <nd ref="12324229"/>
    <nd ref="1370767567"/>
    <nd ref="1366575522"/>
    <tag k="highway" v="primary"/>
    <tag k="name" v="Bayview Street"/>
  </way>
  <way id="2724591" version="12" timestamp="2010-06-01T02:59:28Z" uid="4467" user="Rosscoe" changeset="4871181">
    <nd ref="12330611"/>
    <nd ref="304907445"/>
    <nd ref="86198511"/>
    <nd ref="304907474"/>
    <nd ref="12331454"/>
    <nd ref="304907451"/>
    <nd ref="304907393"/>
    <nd ref="12331378"/>
    <nd ref="304907492"/>
    <nd ref="12331575"/>
    <tag k="created_by" v="Potlatch 0.10e"/>
    <tag k="highway" v="primary"/>
    <tag k="name" v="Bayview Street"/>
  </way>
  <way id="2724591" version="13" timestamp="2011-07-21T04:43:36Z" uid="349913" user="Peter W34" changeset="8784797">
    <nd ref="12330611"/>
    <nd ref="304907445"/>
    <nd ref="86198511"/>
    <nd ref="1368613737"/>
    <nd ref="304907474"/>
    <nd ref="12331454"/>
    <nd ref="304907451"/>
    <nd ref="304907393"/>
    <nd ref="1368613724"/>
    <nd ref="304907492"/>
    <nd ref="12331575"/>
    <tag k="highway" v="primary"/>
    <tag k="name" v="Bayview Street"/>
  </way>
  <way id="2724591" version="14" timestamp="2011-07-23T06:59:26Z" uid="349913" user="Peter W34" changeset="8803666">
    <nd ref="12330611"/>
    <nd ref="304907445"/>
    <nd ref="86198511"/>
    <nd ref="1370767527"/>
    <nd ref="1368613737"/>
    <nd ref="1370767526"/>
    <nd ref="304907474"/>
    <nd ref="12331454"/>
    <nd ref="304907451"/>
    <nd ref="304907393"/>
    <nd ref="1368613724"/>
    <nd ref="304907492"/>
    <nd ref="12331575"/>
    <tag k="highway" v="primary"/>
    <tag k="name" v="Bayview Street"/>
  </way>
  <way id="2724702" version="5" timestamp="2010-05-28T08:38:21Z" uid="4467" user="Rosscoe" changeset="4828599">
    <nd ref="86196557"/>
    <nd ref="86196552"/>
    <nd ref="86196564"/>
    <nd ref="86196560"/>
    <tag k="highway" v="residential"/>
    <tag k="name" v="Bluegum Avenue"/>
  </way>
  <way id="2724702" version="6" timestamp="2010-07-06T17:18:59Z" uid="74617" user="JohnSmith" changeset="5152225">
    <nd ref="86196557"/>
    <nd ref="86196552"/>
    <nd ref="86196564"/>
    <nd ref="86196560"/>
    <tag k="highway" v="residential"/>
    <tag k="maxspeed" v="50"/>
    <tag k="maxspeed:source" v="default residential speed limit in Australia"/>
    <tag k="name" v="Bluegum Avenue"/>
  </way>
  <way id="2724702" version="7" timestamp="2011-07-23T06:59:26Z" uid="349913" user="Peter W34" changeset="8803666">
    <nd ref="86196557"/>
    <nd ref="1370767568"/>
    <nd ref="1370767569"/>
    <nd ref="86196552"/>
    <nd ref="86196564"/>
    <nd ref="86196560"/>
    <tag k="highway" v="residential"/>
    <tag k="maxspeed" v="50"/>
    <tag k="maxspeed:source" v="default residential speed limit in Australia"/>
    <tag k="name" v="Bluegum Avenue"/>
  </way>
  <way id="2724702" version="8" timestamp="2012-01-08T02:27:12Z" uid="147510" user="woodpeck_fixbot" changeset="10327743">
    <nd ref="86196557"/>
    <nd ref="1370767568"/>
    <nd ref="1370767569"/>
    <nd ref="86196552"/>
    <nd ref="86196564"/>
    <nd ref="86196560"/>
    <tag k="highway" v="residential"/>
    <tag k="name" v="Bluegum Avenue"/>
  </way>
  <way id="2724712" version="5" timestamp="2010-05-28T08:38:22Z" uid="4467" user="Rosscoe" changeset="4828599">
    <nd ref="86196564"/>
    <nd ref="12331877"/>
    <tag k="highway" v="residential"/>
    <tag k="name" v="Clematis Avenue"/>
  </way>
  <way id="2724712" version="6" timestamp="2010-07-06T17:20:02Z" uid="74617" user="JohnSmith" changeset="5152225">
    <nd ref="86196564"/>
    <nd ref="12331877"/>
    <tag k="highway" v="residential"/>
    <tag k="maxspeed" v="50"/>
    <tag k="maxspeed:source" v="default residential speed limit in Australia"/>
    <tag k="name" v="Clematis Avenue"/>
  </way>
  <way id="2724712" version="7" timestamp="2011-07-21T04:43:37Z" uid="349913" user="Peter W34" changeset="8784797">
    <nd ref="86196564"/>
    <nd ref="12331877"/>
    <nd ref="1368613720"/>
    <tag k="highway" v="residential"/>
    <tag k="maxspeed" v="50"/>
    <tag k="maxspeed:source" v="default residential speed limit in Australia"/>
    <tag k="name" v="Clematis Avenue"/>
  </way>
  <way id="2724712" version="8" timestamp="2012-01-08T02:27:13Z" uid="147510" user="woodpeck_fixbot" changeset="10327743">
    <nd ref="86196564"/>
    <nd ref="12331877"/>
    <nd ref="1368613720"/>
    <tag k="highway" v="residential"/>
    <tag k="name" v="Clematis Avenue"/>
  </way>
  <way id="2724719" version="5" timestamp="2010-06-01T02:36:28Z" uid="4467" user="Rosscoe" changeset="4871073">
    <nd ref="86196566"/>
    <nd ref="86196552"/>
    <tag k="created_by" v="Potlatch alpha"/>
    <tag k="highway" v="residential"/>
    <tag k="name" v="Magnolia Avenue"/>
  </way>
  <way id="2724719" version="6" timestamp="2010-07-06T17:12:54Z" uid="74617" user="JohnSmith" changeset="5152225">
    <nd ref="86196566"/>
    <nd ref="86196552"/>
    <tag k="highway" v="residential"/>
    <tag k="maxspeed" v="50"/>
    <tag k="maxspeed:source" v="default residential speed limit in Australia"/>
    <tag k="name" v="Magnolia Avenue"/>
  </way>
  <way id="2724719" version="7" timestamp="2012-01-08T02:27:15Z" uid="147510" user="woodpeck_fixbot" changeset="10327743">
    <nd ref="86196566"/>
    <nd ref="86196552"/>
    <tag k="highway" v="residential"/>
    <tag k="name" v="Magnolia Avenue"/>
  </way>
  <way id="2724725" version="6" timestamp="2010-06-01T02:36:30Z" uid="4467" user="Rosscoe" changeset="4871073">
    <nd ref="304907432"/>
    <nd ref="304907433"/>
    <nd ref="12331925"/>
    <nd ref="12331873"/>
    <nd ref="304907434"/>
    <nd ref="304907431"/>
    <tag k="created_by" v="Potlatch 0.10e"/>
    <tag k="highway" v="residential"/>
    <tag k="name" v="Lotus Avenue"/>
  </way>
  <way id="2724725" version="7" timestamp="2010-07-06T17:15:30Z" uid="74617" user="JohnSmith" changeset="5152225">
    <nd ref="304907432"/>
    <nd ref="304907433"/>
    <nd ref="12331925"/>
    <nd ref="12331873"/>
    <nd ref="304907434"/>
    <nd ref="304907431"/>
    <tag k="highway" v="residential"/>
    <tag k="maxspeed" v="50"/>
    <tag k="maxspeed:source" v="default residential speed limit in Australia"/>
    <tag k="name" v="Lotus Avenue"/>
  </way>
  <way id="2724725" version="8" timestamp="2012-01-08T02:27:16Z" uid="147510" user="woodpeck_fixbot" changeset="10327743">
    <nd ref="304907432"/>
    <nd ref="304907433"/>
    <nd ref="12331925"/>
    <nd ref="12331873"/>
    <nd ref="304907434"/>
    <nd ref="304907431"/>
    <tag k="highway" v="residential"/>
    <tag k="name" v="Lotus Avenue"/>
  </way>
  <way id="2724737" version="9" timestamp="2010-06-01T02:36:32Z" uid="4467" user="Rosscoe" changeset="4871073">
    <nd ref="12331877"/>
    <nd ref="86196566"/>
    <nd ref="12331873"/>
    <nd ref="304907432"/>
    <nd ref="86198511"/>
    <tag k="created_by" v="Potlatch 0.10e"/>
    <tag k="highway" v="residential"/>
    <tag k="name" v="Kurrajong Avenue"/>
  </way>
  <way id="2724737" version="10" timestamp="2010-07-06T17:17:27Z" uid="74617" user="JohnSmith" changeset="5152225">
    <nd ref="12331877"/>
    <nd ref="86196566"/>
    <nd ref="12331873"/>
    <nd ref="304907432"/>
    <nd ref="86198511"/>
    <tag k="highway" v="residential"/>
    <tag k="maxspeed" v="50"/>
    <tag k="maxspeed:source" v="default residential speed limit in Australia"/>
    <tag k="name" v="Kurrajong Avenue"/>
  </way>
  <way id="2724737" version="11" timestamp="2011-07-21T04:43:37Z" uid="349913" user="Peter W34" changeset="8784797">
    <nd ref="12331877"/>
    <nd ref="86196566"/>
    <nd ref="1368613679"/>
    <nd ref="12331873"/>
    <nd ref="304907432"/>
    <nd ref="86198511"/>
    <tag k="highway" v="residential"/>
    <tag k="maxspeed" v="50"/>
    <tag k="maxspeed:source" v="default residential speed limit in Australia"/>
    <tag k="name" v="Kurrajong Avenue"/>
  </way>
  <way id="2724737" version="12" timestamp="2012-01-08T02:27:18Z" uid="147510" user="woodpeck_fixbot" changeset="10327743">
    <nd ref="12331877"/>
    <nd ref="86196566"/>
    <nd ref="1368613679"/>
    <nd ref="12331873"/>
    <nd ref="304907432"/>
    <nd ref="86198511"/>
    <tag k="highway" v="residential"/>
    <tag k="name" v="Kurrajong Avenue"/>
  </way>
  <way id="2724745" version="8" timestamp="2010-05-28T08:38:20Z" uid="4467" user="Rosscoe" changeset="4828599">
    <nd ref="12330687"/>
    <nd ref="86196560"/>
    <nd ref="304907389"/>
    <nd ref="12331407"/>
    <tag k="highway" v="residential"/>
    <tag k="name" v="Jacaranda Avenue"/>
  </way>
  <way id="2724745" version="9" timestamp="2010-07-06T17:13:34Z" uid="74617" user="JohnSmith" changeset="5152225">
    <nd ref="12330687"/>
    <nd ref="86196560"/>
    <nd ref="304907389"/>
    <nd ref="12331407"/>
    <tag k="highway" v="residential"/>
    <tag k="maxspeed" v="50"/>
    <tag k="maxspeed:source" v="default residential speed limit in Australia"/>
    <tag k="name" v="Jacaranda Avenue"/>
  </way>
  <way id="2724745" version="10" timestamp="2012-01-08T02:27:19Z" uid="147510" user="woodpeck_fixbot" changeset="10327743">
    <nd ref="12330687"/>
    <nd ref="86196560"/>
    <nd ref="304907389"/>
    <nd ref="12331407"/>
    <tag k="highway" v="residential"/>
    <tag k="name" v="Jacaranda Avenue"/>
  </way>
  <way id="2724754" version="8" timestamp="2010-06-01T02:36:33Z" uid="4467" user="Rosscoe" changeset="4871073">
    <nd ref="304907371"/>
    <nd ref="12331407"/>
    <nd ref="86196547"/>
    <nd ref="86205136"/>
    <nd ref="86205139"/>
    <nd ref="304907521"/>
    <nd ref="12331357"/>
    <tag k="created_by" v="Potlatch 0.10e"/>
    <tag k="highway" v="residential"/>
    <tag k="name" v="Poinsettia Avenue"/>
  </way>
  <way id="2724754" version="9" timestamp="2010-07-06T17:17:48Z" uid="74617" user="JohnSmith" changeset="5152225">
    <nd ref="304907371"/>
    <nd ref="12331407"/>
    <nd ref="86196547"/>
    <nd ref="86205136"/>
    <nd ref="86205139"/>
    <nd ref="304907521"/>
    <nd ref="12331357"/>
    <tag k="highway" v="residential"/>
    <tag k="maxspeed" v="50"/>
    <tag k="maxspeed:source" v="default residential speed limit in Australia"/>
    <tag k="name" v="Poinsettia Avenue"/>
  </way>
  <way id="2724754" version="10" timestamp="2011-07-21T04:43:37Z" uid="349913" user="Peter W34" changeset="8784797">
    <nd ref="304907371"/>
    <nd ref="12331407"/>
    <nd ref="86196547"/>
    <nd ref="86205136"/>
    <nd ref="86205139"/>
    <nd ref="1368613724"/>
    <nd ref="304907521"/>
    <nd ref="12331357"/>
    <tag k="highway" v="residential"/>
    <tag k="maxspeed" v="50"/>
    <tag k="maxspeed:source" v="default residential speed limit in Australia"/>
    <tag k="name" v="Poinsettia Avenue"/>
  </way>
  <way id="2724754" version="11" timestamp="2012-01-08T02:27:20Z" uid="147510" user="woodpeck_fixbot" changeset="10327743">
    <nd ref="304907371"/>
    <nd ref="12331407"/>
    <nd ref="86196547"/>
    <nd ref="86205136"/>
    <nd ref="86205139"/>
    <nd ref="1368613724"/>
    <nd ref="304907521"/>
    <nd ref="12331357"/>
    <tag k="highway" v="residential"/>
    <tag k="name" v="Poinsettia Avenue"/>
  </way>
  <way id="2724760" version="7" timestamp="2010-06-01T02:59:30Z" uid="4467" user="Rosscoe" changeset="4871181">
    <nd ref="304907389"/>
    <nd ref="12331705"/>
    <nd ref="12331700"/>
    <nd ref="12331691"/>
    <nd ref="12331442"/>
    <nd ref="304907431"/>
    <nd ref="12331454"/>
    <tag k="created_by" v="Potlatch 0.10e"/>
    <tag k="highway" v="residential"/>
    <tag k="name" v="Salvia Street"/>
  </way>
  <way id="2724760" version="8" timestamp="2010-07-06T17:15:26Z" uid="74617" user="JohnSmith" changeset="5152225">
    <nd ref="304907389"/>
    <nd ref="12331705"/>
    <nd ref="12331700"/>
    <nd ref="12331691"/>
    <nd ref="12331442"/>
    <nd ref="304907431"/>
    <nd ref="12331454"/>
    <tag k="highway" v="residential"/>
    <tag k="maxspeed" v="50"/>
    <tag k="maxspeed:source" v="default residential speed limit in Australia"/>
    <tag k="name" v="Salvia Street"/>
  </way>
  <way id="2724760" version="9" timestamp="2012-01-08T02:27:21Z" uid="147510" user="woodpeck_fixbot" changeset="10327743">
    <nd ref="304907389"/>
    <nd ref="12331705"/>
    <nd ref="12331700"/>
    <nd ref="12331691"/>
    <nd ref="12331442"/>
    <nd ref="304907431"/>
    <nd ref="12331454"/>
    <tag k="highway" v="residential"/>
    <tag k="name" v="Salvia Street"/>
  </way>
  <way id="2724767" version="8" timestamp="2010-06-01T02:36:35Z" uid="4467" user="Rosscoe" changeset="4871073">
    <nd ref="12331442"/>
    <nd ref="12331438"/>
    <nd ref="304907388"/>
    <nd ref="12331433"/>
    <nd ref="304907378"/>
    <nd ref="304907375"/>
    <nd ref="86205136"/>
    <tag k="created_by" v="Potlatch 0.10e"/>
    <tag k="highway" v="residential"/>
    <tag k="name" v="Hyacinth Avenue"/>
  </way>
  <way id="2724767" version="9" timestamp="2010-07-06T17:16:46Z" uid="74617" user="JohnSmith" changeset="5152225">
    <nd ref="12331442"/>
    <nd ref="12331438"/>
    <nd ref="304907388"/>
    <nd ref="12331433"/>
    <nd ref="304907378"/>
    <nd ref="304907375"/>
    <nd ref="86205136"/>
    <tag k="highway" v="residential"/>
    <tag k="maxspeed" v="50"/>
    <tag k="maxspeed:source" v="default residential speed limit in Australia"/>
    <tag k="name" v="Hyacinth Avenue"/>
  </way>
  <way id="2724767" version="10" timestamp="2012-01-08T02:27:22Z" uid="147510" user="woodpeck_fixbot" changeset="10327743">
    <nd ref="12331442"/>
    <nd ref="12331438"/>
    <nd ref="304907388"/>
    <nd ref="12331433"/>
    <nd ref="304907378"/>
    <nd ref="304907375"/>
    <nd ref="86205136"/>
    <tag k="highway" v="residential"/>
    <tag k="name" v="Hyacinth Avenue"/>
  </way>
  <way id="2724769" version="7" timestamp="2010-06-01T02:36:37Z" uid="4467" user="Rosscoe" changeset="4871073">
    <nd ref="12331433"/>
    <nd ref="304907396"/>
    <nd ref="304907395"/>
    <nd ref="12331430"/>
    <nd ref="304907393"/>
    <tag k="created_by" v="Potlatch 0.10e"/>
    <tag k="highway" v="residential"/>
    <tag k="name" v="Anemone Avenue"/>
  </way>
  <way id="2724769" version="8" timestamp="2010-07-06T17:12:41Z" uid="74617" user="JohnSmith" changeset="5152225">
    <nd ref="12331433"/>
    <nd ref="304907396"/>
    <nd ref="304907395"/>
    <nd ref="12331430"/>
    <nd ref="304907393"/>
    <tag k="highway" v="residential"/>
    <tag k="maxspeed" v="50"/>
    <tag k="maxspeed:source" v="default residential speed limit in Australia"/>
    <tag k="name" v="Anemone Avenue"/>
  </way>
  <way id="2724769" version="9" timestamp="2012-01-08T02:27:23Z" uid="147510" user="woodpeck_fixbot" changeset="10327743">
    <nd ref="12331433"/>
    <nd ref="304907396"/>
    <nd ref="304907395"/>
    <nd ref="12331430"/>
    <nd ref="304907393"/>
    <tag k="highway" v="residential"/>
    <tag k="name" v="Anemone Avenue"/>
  </way>
  <way id="2724774" version="4" timestamp="2010-06-01T02:36:39Z" uid="4467" user="Rosscoe" changeset="4871073">
    <nd ref="12332009"/>
    <nd ref="304907395"/>
    <tag k="created_by" v="Potlatch 0.10e"/>
    <tag k="highway" v="residential"/>
    <tag k="name" v="Viola Avenue"/>
  </way>
  <way id="2724774" version="5" timestamp="2010-07-06T17:12:29Z" uid="74617" user="JohnSmith" changeset="5152225">
    <nd ref="12332009"/>
    <nd ref="304907395"/>
    <tag k="highway" v="residential"/>
    <tag k="maxspeed" v="50"/>
    <tag k="maxspeed:source" v="default residential speed limit in Australia"/>
    <tag k="name" v="Viola Avenue"/>
  </way>
  <way id="2724774" version="6" timestamp="2012-01-08T02:27:24Z" uid="147510" user="woodpeck_fixbot" changeset="10327743">
    <nd ref="12332009"/>
    <nd ref="304907395"/>
    <tag k="highway" v="residential"/>
    <tag k="name" v="Viola Avenue"/>
  </way>
  <way id="2724783" version="4" timestamp="2010-06-01T02:41:22Z" uid="4467" user="Rosscoe" changeset="4871080">
    <nd ref="304907396"/>
    <nd ref="12331989"/>
    <nd ref="12331998"/>
    <nd ref="12332001"/>
    <tag k="created_by" v="Potlatch 0.10e"/>
    <tag k="highway" v="residential"/>
    <tag k="name" v="Cattelaya Court"/>
  </way>
  <way id="2724783" version="5" timestamp="2010-07-06T17:13:31Z" uid="74617" user="JohnSmith" changeset="5152225">
    <nd ref="304907396"/>
    <nd ref="12331989"/>
    <nd ref="12331998"/>
    <nd ref="12332001"/>
    <tag k="highway" v="residential"/>
    <tag k="maxspeed" v="50"/>
    <tag k="maxspeed:source" v="default residential speed limit in Australia"/>
    <tag k="name" v="Cattelaya Court"/>
  </way>
  <way id="2724783" version="6" timestamp="2011-07-21T04:43:37Z" uid="349913" user="Peter W34" changeset="8784797">
    <nd ref="304907396"/>
    <nd ref="12331989"/>
    <nd ref="12331998"/>
    <nd ref="1368613731"/>
    <nd ref="12332001"/>
    <tag k="highway" v="residential"/>
    <tag k="maxspeed" v="50"/>
    <tag k="maxspeed:source" v="default residential speed limit in Australia"/>
    <tag k="name" v="Cattelaya Court"/>
  </way>
  <way id="2724783" version="7" timestamp="2012-01-08T02:27:25Z" uid="147510" user="woodpeck_fixbot" changeset="10327743">
    <nd ref="304907396"/>
    <nd ref="12331989"/>
    <nd ref="12331998"/>
    <nd ref="1368613731"/>
    <nd ref="12332001"/>
    <tag k="highway" v="residential"/>
    <tag k="name" v="Cattelaya Court"/>
  </way>
  <way id="2724793" version="3" timestamp="2010-07-06T17:15:41Z" uid="74617" user="JohnSmith" changeset="5152225">
    <nd ref="12331357"/>
    <nd ref="12331365"/>
    <nd ref="12331368"/>
    <tag k="highway" v="residential"/>
    <tag k="maxspeed" v="50"/>
    <tag k="maxspeed:source" v="default residential speed limit in Australia"/>
    <tag k="name" v="Marina Crescent"/>
  </way>
  <way id="2724793" version="4" timestamp="2011-07-21T04:43:37Z" uid="349913" user="Peter W34" changeset="8784797">
    <nd ref="12331357"/>
    <nd ref="12331365"/>
    <nd ref="1368613762"/>
    <nd ref="12331368"/>
    <tag k="highway" v="residential"/>
    <tag k="maxspeed" v="50"/>
    <tag k="maxspeed:source" v="default residential speed limit in Australia"/>
    <tag k="name" v="Marina Crescent"/>
  </way>
  <way id="2724793" version="5" timestamp="2012-01-08T02:27:26Z" uid="147510" user="woodpeck_fixbot" changeset="10327743">
    <nd ref="12331357"/>
    <nd ref="12331365"/>
    <nd ref="1368613762"/>
    <nd ref="12331368"/>
    <tag k="highway" v="residential"/>
    <tag k="name" v="Marina Crescent"/>
  </way>
  <way id="2724862" version="5" timestamp="2010-07-06T17:16:28Z" uid="74617" user="JohnSmith" changeset="5152225">
    <nd ref="86205139"/>
    <nd ref="12331509"/>
    <nd ref="12331505"/>
    <nd ref="12331501"/>
    <nd ref="304907499"/>
    <nd ref="304907500"/>
    <nd ref="304907501"/>
    <nd ref="304907502"/>
    <nd ref="304907503"/>
    <nd ref="304907504"/>
    <nd ref="304907505"/>
    <nd ref="304907506"/>
    <nd ref="12331575"/>
    <tag k="highway" v="residential"/>
    <tag k="maxspeed" v="50"/>
    <tag k="maxspeed:source" v="default residential speed limit in Australia"/>
    <tag k="name" v="Karema Crescent"/>
  </way>
  <way id="2724862" version="6" timestamp="2012-01-08T02:27:27Z" uid="147510" user="woodpeck_fixbot" changeset="10327743">
    <nd ref="86205139"/>
    <nd ref="12331509"/>
    <nd ref="12331505"/>
    <nd ref="12331501"/>
    <nd ref="304907499"/>
    <nd ref="304907500"/>
    <nd ref="304907501"/>
    <nd ref="304907502"/>
    <nd ref="304907503"/>
    <nd ref="304907504"/>
    <nd ref="304907505"/>
    <nd ref="304907506"/>
    <nd ref="12331575"/>
    <tag k="highway" v="residential"/>
    <tag k="name" v="Karema Crescent"/>
  </way>
  <way id="2724866" version="3" timestamp="2010-06-01T02:59:32Z" uid="4467" user="Rosscoe" changeset="4871181">
    <nd ref="12331575"/>
    <nd ref="304907520"/>
    <nd ref="12332498"/>
    <tag k="created_by" v="Potlatch 0.10e"/>
    <tag k="highway" v="residential"/>
    <tag k="name" v="Howard Street"/>
  </way>
  <way id="2724866" version="4" timestamp="2010-07-06T17:16:16Z" uid="74617" user="JohnSmith" changeset="5152225">
    <nd ref="12331575"/>
    <nd ref="304907520"/>
    <nd ref="12332498"/>
    <tag k="highway" v="residential"/>
    <tag k="maxspeed" v="50"/>
    <tag k="maxspeed:source" v="default residential speed limit in Australia"/>
    <tag k="name" v="Howard Street"/>
  </way>
  <way id="2724866" version="5" timestamp="2012-01-08T02:27:29Z" uid="147510" user="woodpeck_fixbot" changeset="10327743">
    <nd ref="12331575"/>
    <nd ref="304907520"/>
    <nd ref="12332498"/>
    <tag k="highway" v="residential"/>
    <tag k="name" v="Howard Street"/>
  </way>
  <way id="2724952" version="4" timestamp="2010-07-06T17:13:04Z" uid="74617" user="JohnSmith" changeset="5152225">
    <nd ref="12332649"/>
    <nd ref="304907528"/>
    <nd ref="304907529"/>
    <nd ref="304907530"/>
    <nd ref="304907531"/>
    <nd ref="304907532"/>
    <nd ref="304907533"/>
    <nd ref="304907534"/>
    <nd ref="304907535"/>
    <nd ref="304907536"/>
    <tag k="highway" v="residential"/>
    <tag k="maxspeed" v="50"/>
    <tag k="maxspeed:source" v="default residential speed limit in Australia"/>
    <tag k="name" v="Kikori Crescent"/>
  </way>
  <way id="2724952" version="5" timestamp="2011-07-20T05:39:25Z" uid="349913" user="Peter W34" changeset="8774834"/>
  <way id="2724971" version="4" timestamp="2010-06-01T02:36:41Z" uid="4467" user="Rosscoe" changeset="4871073">
    <nd ref="12332782"/>
    <nd ref="12332769"/>
    <nd ref="12332744"/>
    <nd ref="12332751"/>
    <tag k="created_by" v="Potlatch alpha"/>
    <tag k="highway" v="residential"/>
    <tag k="name" v="Wewak Avenue"/>
  </way>
  <way id="2724971" version="5" timestamp="2010-07-06T17:13:45Z" uid="74617" user="JohnSmith" changeset="5152225">
    <nd ref="12332782"/>
    <nd ref="12332769"/>
    <nd ref="12332744"/>
    <nd ref="12332751"/>
    <tag k="highway" v="residential"/>
    <tag k="maxspeed" v="50"/>
    <tag k="maxspeed:source" v="default residential speed limit in Australia"/>
    <tag k="name" v="Wewak Avenue"/>
  </way>
  <way id="2724971" version="6" timestamp="2011-07-20T05:39:23Z" uid="349913" user="Peter W34" changeset="8774834">
    <nd ref="12332782"/>
    <nd ref="1367510851"/>
    <nd ref="1367510795"/>
    <nd ref="1367510846"/>
    <nd ref="12332769"/>
    <nd ref="1367510695"/>
    <nd ref="12332744"/>
    <nd ref="1367510826"/>
    <nd ref="12332751"/>
    <tag k="highway" v="residential"/>
    <tag k="maxspeed" v="50"/>
    <tag k="maxspeed:source" v="default residential speed limit in Australia"/>
    <tag k="name" v="Wewak Avenue"/>
  </way>
  <way id="2724971" version="7" timestamp="2012-01-08T02:27:30Z" uid="147510" user="woodpeck_fixbot" changeset="10327743">
    <nd ref="12332782"/>
    <nd ref="1367510851"/>
    <nd ref="1367510795"/>
    <nd ref="1367510846"/>
    <nd ref="12332769"/>
    <nd ref="1367510695"/>
    <nd ref="12332744"/>
    <nd ref="1367510826"/>
    <nd ref="12332751"/>
    <tag k="highway" v="residential"/>
    <tag k="name" v="Wewak Avenue"/>
  </way>
  <way id="2724978" version="3" timestamp="2010-06-01T02:36:42Z" uid="4467" user="Rosscoe" changeset="4871073">
    <nd ref="12332756"/>
    <nd ref="12332751"/>
    <nd ref="12332752"/>
    <tag k="created_by" v="Potlatch alpha"/>
    <tag k="highway" v="residential"/>
    <tag k="name" v="Wau Avenue"/>
  </way>
  <way id="2724978" version="4" timestamp="2010-07-06T17:18:44Z" uid="74617" user="JohnSmith" changeset="5152225">
    <nd ref="12332756"/>
    <nd ref="12332751"/>
    <nd ref="12332752"/>
    <tag k="highway" v="residential"/>
    <tag k="maxspeed" v="50"/>
    <tag k="maxspeed:source" v="default residential speed limit in Australia"/>
    <tag k="name" v="Wau Avenue"/>
  </way>
  <way id="2724978" version="5" timestamp="2012-01-08T02:27:31Z" uid="147510" user="woodpeck_fixbot" changeset="10327743">
    <nd ref="12332756"/>
    <nd ref="12332751"/>
    <nd ref="12332752"/>
    <tag k="highway" v="residential"/>
    <tag k="name" v="Wau Avenue"/>
  </way>
  <way id="2724983" version="3" timestamp="2010-06-01T02:36:44Z" uid="4467" user="Rosscoe" changeset="4871073">
    <nd ref="12332615"/>
    <nd ref="12332622"/>
    <nd ref="12332643"/>
    <nd ref="12332645"/>
    <tag k="created_by" v="Potlatch alpha"/>
    <tag k="highway" v="residential"/>
    <tag k="name" v="Rabaul Avenue"/>
  </way>
  <way id="2724983" version="4" timestamp="2010-07-06T17:12:49Z" uid="74617" user="JohnSmith" changeset="5152225">
    <nd ref="12332615"/>
    <nd ref="12332622"/>
    <nd ref="12332643"/>
    <nd ref="12332645"/>
    <tag k="highway" v="residential"/>
    <tag k="maxspeed" v="50"/>
    <tag k="maxspeed:source" v="default residential speed limit in Australia"/>
    <tag k="name" v="Rabaul Avenue"/>
  </way>
  <way id="2724983" version="5" timestamp="2011-07-20T05:39:24Z" uid="349913" user="Peter W34" changeset="8774834">
    <nd ref="12332615"/>
    <nd ref="1367510744"/>
    <nd ref="12332622"/>
    <nd ref="12332643"/>
    <nd ref="1367510650"/>
    <nd ref="12332645"/>
    <tag k="highway" v="residential"/>
    <tag k="maxspeed" v="50"/>
    <tag k="maxspeed:source" v="default residential speed limit in Australia"/>
    <tag k="name" v="Rabaul Avenue"/>
  </way>
  <way id="2724983" version="6" timestamp="2012-01-08T02:27:33Z" uid="147510" user="woodpeck_fixbot" changeset="10327743">
    <nd ref="12332615"/>
    <nd ref="1367510744"/>
    <nd ref="12332622"/>
    <nd ref="12332643"/>
    <nd ref="1367510650"/>
    <nd ref="12332645"/>
    <tag k="highway" v="residential"/>
    <tag k="name" v="Rabaul Avenue"/>
  </way>
  <way id="2724986" version="3" timestamp="2010-06-01T02:54:56Z" uid="4467" user="Rosscoe" changeset="4871118">
    <nd ref="12332605"/>
    <nd ref="12332631"/>
    <nd ref="12332622"/>
    <tag k="created_by" v="Potlatch alpha"/>
    <tag k="highway" v="residential"/>
    <tag k="name" v="Torio Place"/>
  </way>
  <way id="2724986" version="4" timestamp="2010-07-06T17:15:35Z" uid="74617" user="JohnSmith" changeset="5152225">
    <nd ref="12332605"/>
    <nd ref="12332631"/>
    <nd ref="12332622"/>
    <tag k="highway" v="residential"/>
    <tag k="maxspeed" v="50"/>
    <tag k="maxspeed:source" v="default residential speed limit in Australia"/>
    <tag k="name" v="Torio Place"/>
  </way>
  <way id="2724986" version="5" timestamp="2011-07-20T05:39:24Z" uid="349913" user="Peter W34" changeset="8774834">
    <nd ref="12332605"/>
    <nd ref="1367510788"/>
    <nd ref="12332631"/>
    <nd ref="1367510585"/>
    <nd ref="1367510691"/>
    <nd ref="1367510779"/>
    <nd ref="12332622"/>
    <tag k="highway" v="residential"/>
    <tag k="maxspeed" v="50"/>
    <tag k="maxspeed:source" v="default residential speed limit in Australia"/>
    <tag k="name" v="Torio Place"/>
  </way>
  <way id="2724986" version="6" timestamp="2012-01-08T02:27:34Z" uid="147510" user="woodpeck_fixbot" changeset="10327743">
    <nd ref="12332605"/>
    <nd ref="1367510788"/>
    <nd ref="12332631"/>
    <nd ref="1367510585"/>
    <nd ref="1367510691"/>
    <nd ref="1367510779"/>
    <nd ref="12332622"/>
    <tag k="highway" v="residential"/>
    <tag k="name" v="Torio Place"/>
  </way>
  <way id="2724987" version="5" timestamp="2010-07-06T17:20:11Z" uid="74617" user="JohnSmith" changeset="5152225">
    <nd ref="12332498"/>
    <nd ref="12332605"/>
    <nd ref="12332604"/>
    <tag k="highway" v="residential"/>
    <tag k="maxspeed" v="50"/>
    <tag k="maxspeed:source" v="default residential speed limit in Australia"/>
    <tag k="name" v="Constance Esplanade"/>
  </way>
  <way id="2724987" version="6" timestamp="2011-07-20T05:39:24Z" uid="349913" user="Peter W34" changeset="8774834">
    <nd ref="12332498"/>
    <nd ref="1367510813"/>
    <nd ref="12332605"/>
    <nd ref="1367510793"/>
    <nd ref="1367510693"/>
    <nd ref="1367510819"/>
    <nd ref="1367510880"/>
    <nd ref="12332604"/>
    <tag k="highway" v="residential"/>
    <tag k="maxspeed" v="50"/>
    <tag k="maxspeed:source" v="default residential speed limit in Australia"/>
    <tag k="name" v="Constance Esplanade"/>
  </way>
  <way id="2724987" version="7" timestamp="2012-01-08T02:27:35Z" uid="147510" user="woodpeck_fixbot" changeset="10327743">
    <nd ref="12332498"/>
    <nd ref="1367510813"/>
    <nd ref="12332605"/>
    <nd ref="1367510793"/>
    <nd ref="1367510693"/>
    <nd ref="1367510819"/>
    <nd ref="1367510880"/>
    <nd ref="12332604"/>
    <tag k="highway" v="residential"/>
    <tag k="name" v="Constance Esplanade"/>
  </way>
  <way id="2724988" version="4" timestamp="2010-06-01T02:59:33Z" uid="4467" user="Rosscoe" changeset="4871181">
    <nd ref="12331575"/>
    <nd ref="303903805"/>
    <nd ref="12332650"/>
    <tag k="created_by" v="Potlatch 0.10e"/>
    <tag k="highway" v="primary"/>
    <tag k="name" v="Bayview Street"/>
  </way>
  <way id="2724988" version="5" timestamp="2011-07-20T05:16:24Z" uid="349913" user="Peter W34" changeset="8774834">
    <nd ref="12331575"/>
    <nd ref="1367504578"/>
    <tag k="highway" v="primary"/>
    <tag k="name" v="Bayview Street"/>
  </way>
  <way id="2724988" version="6" timestamp="2011-07-20T05:39:24Z" uid="349913" user="Peter W34" changeset="8774834">
    <nd ref="12331575"/>
    <nd ref="1367510637"/>
    <nd ref="1367510811"/>
    <nd ref="1367504578"/>
    <tag k="highway" v="primary"/>
    <tag k="name" v="Bayview Street"/>
  </way>
  <way id="2724989" version="10" timestamp="2010-06-01T02:59:35Z" uid="4467" user="Rosscoe" changeset="4871181">
    <nd ref="303903805"/>
    <nd ref="303903774"/>
    <nd ref="12332653"/>
    <nd ref="303903806"/>
    <nd ref="303903807"/>
    <nd ref="303903808"/>
    <nd ref="303903809"/>
    <nd ref="303903851"/>
    <nd ref="303903810"/>
    <nd ref="12332677"/>
    <nd ref="12332684"/>
    <tag k="created_by" v="Potlatch 0.10d"/>
    <tag k="highway" v="residential"/>
    <tag k="name" v="Simbai Street"/>
  </way>
  <way id="2724989" version="11" timestamp="2010-07-06T17:18:59Z" uid="74617" user="JohnSmith" changeset="5152225">
    <nd ref="303903805"/>
    <nd ref="303903774"/>
    <nd ref="12332653"/>
    <nd ref="303903806"/>
    <nd ref="303903807"/>
    <nd ref="303903808"/>
    <nd ref="303903809"/>
    <nd ref="303903851"/>
    <nd ref="303903810"/>
    <nd ref="12332677"/>
    <nd ref="12332684"/>
    <tag k="highway" v="residential"/>
    <tag k="maxspeed" v="50"/>
    <tag k="maxspeed:source" v="default residential speed limit in Australia"/>
    <tag k="name" v="Simbai Street"/>
  </way>
  <way id="2724989" version="12" timestamp="2011-07-20T05:16:24Z" uid="349913" user="Peter W34" changeset="8774834">
    <nd ref="303903805"/>
    <nd ref="303903774"/>
    <nd ref="12332653"/>
    <nd ref="303903806"/>
    <nd ref="303903807"/>
    <nd ref="303903808"/>
    <nd ref="303903809"/>
    <nd ref="303903851"/>
    <nd ref="303903810"/>
    <nd ref="12332677"/>
    <nd ref="1367504583"/>
    <nd ref="12332684"/>
    <tag k="highway" v="residential"/>
    <tag k="maxspeed" v="50"/>
    <tag k="maxspeed:source" v="default residential speed limit in Australia"/>
    <tag k="name" v="Simbai Street"/>
  </way>
  <way id="2724989" version="13" timestamp="2012-01-08T02:27:36Z" uid="147510" user="woodpeck_fixbot" changeset="10327743">
    <nd ref="303903805"/>
    <nd ref="303903774"/>
    <nd ref="12332653"/>
    <nd ref="303903806"/>
    <nd ref="303903807"/>
    <nd ref="303903808"/>
    <nd ref="303903809"/>
    <nd ref="303903851"/>
    <nd ref="303903810"/>
    <nd ref="12332677"/>
    <nd ref="1367504583"/>
    <nd ref="12332684"/>
    <tag k="highway" v="residential"/>
    <tag k="name" v="Simbai Street"/>
  </way>
  <way id="2724990" version="3" timestamp="2009-10-02T20:05:08Z" uid="86259" user="hasse_osm_korinthenkacker" changeset="2717024">
    <nd ref="19841777"/>
    <nd ref="8284111"/>
    <nd ref="10266938"/>
    <nd ref="12213591"/>
    <tag k="highway" v="footway"/>
    <tag k="name" v="Salzgasse"/>
    <tag k="postal_code" v="83607"/>
  </way>
  <way id="2724990" version="4" timestamp="2009-11-26T17:24:42Z" uid="42393" user="mawi42" changeset="3221627">
    <nd ref="19841777"/>
    <nd ref="571509280"/>
    <nd ref="8284111"/>
    <nd ref="10266938"/>
    <nd ref="12213591"/>
    <tag k="highway" v="footway"/>
    <tag k="name" v="Salzgasse"/>
    <tag k="postal_code" v="83607"/>
  </way>
  <way id="2724990" version="5" timestamp="2011-08-18T09:43:26Z" uid="42393" user="mawi42" changeset="9055239">
    <nd ref="19841777"/>
    <nd ref="571509280"/>
    <nd ref="8284111"/>
    <nd ref="10266938"/>
    <nd ref="1403145746"/>
    <nd ref="12213591"/>
    <tag k="highway" v="footway"/>
    <tag k="name" v="Salzgasse"/>
    <tag k="postal_code" v="83607"/>
  </way>
  <way id="2724081" version="5" timestamp="2012-09-02T08:28:42Z" uid="269344" user="landini" changeset="12950407">
    <nd ref="12213608"/>
    <nd ref="12213609"/>
    <nd ref="24161487"/>
    <nd ref="12213611"/>
    <tag k="highway" v="residential"/>
    <tag k="name" v="Dekan-Imminger-Straße"/>
    <tag k="postal_code" v="83607"/>
  </way>
  <way id="2724081" version="6" timestamp="2012-09-06T22:28:11Z" uid="42393" user="mawi42" changeset="13016694">
    <nd ref="12213608"/>
    <nd ref="12213609"/>
    <nd ref="24161487"/>
    <nd ref="12213611"/>
    <tag k="highway" v="residential"/>
    <tag k="postal_code" v="83607"/>
  </way>
  <way id="2724102" version="6" timestamp="2012-07-16T17:24:06Z" uid="722137" user="OSMF Redaction Account" changeset="12248518"/>
  <way id="2724448" version="8" timestamp="2012-07-20T04:42:52Z" uid="722137" user="OSMF Redaction Account" changeset="12360878">
    <nd ref="12330756"/>
    <nd ref="1366575486"/>
    <nd ref="86198519"/>
    <nd ref="1366575674"/>
    <nd ref="12330772"/>
    <nd ref="1366575535"/>
    <nd ref="12330749"/>
    <tag k="highway" v="unclassified"/>
    <tag k="name" v="James Cook Esp"/>
  </way>
  <way id="2724479" version="8" timestamp="2012-08-14T06:59:49Z" uid="349913" user="Peter W34" changeset="12723052">
    <nd ref="12324229"/>
    <nd ref="1370767567"/>
    <nd ref="1366575522"/>
    <tag k="highway" v="secondary"/>
    <tag k="name" v="Bayview Street"/>
  </way>
  <way id="2724591" version="15" timestamp="2012-08-14T06:59:52Z" uid="349913" user="Peter W34" changeset="12723052">
    <nd ref="12330611"/>
    <nd ref="304907445"/>
    <nd ref="86198511"/>
    <nd ref="1370767527"/>
    <nd ref="1368613737"/>
    <nd ref="1370767526"/>
    <nd ref="304907474"/>
    <nd ref="12331454"/>
    <nd ref="304907451"/>
    <nd ref="304907393"/>
    <nd ref="1368613724"/>
    <nd ref="304907492"/>
    <nd ref="12331575"/>
    <tag k="highway" v="secondary"/>
    <tag k="name" v="Bayview Street"/>
  </way>
  <way id="2724988" version="7" timestamp="2012-08-14T06:59:49Z" uid="349913" user="Peter W34" changeset="12723052">
    <nd ref="12331575"/>
    <nd ref="1367510637"/>
    <nd ref="1367510811"/>
    <nd ref="1367504578"/>
    <tag k="highway" v="secondary"/>
    <tag k="name" v="Bayview Street"/>
  </way>
</osm>
