<?xml version='1.0' encoding='UTF-8'?>
<osm version="0.6" generator="libosmium/2.20.0">
  <way id="27374028" version="2" timestamp="2009-01-01T17:04:17Z" uid="43863" user="Rundling" changeset="702079">
    <nd ref="30399830"/>
    <nd ref="300508238"/>
    <tag k="highway" v="service"/>
  </way>
  <way id="27374028" version="3" timestamp="2012-03-29T14:21:07Z" uid="141297" user="hajok" changeset="11139273">
    <nd ref="30399830"/>
    <nd ref="300508238"/>
    <tag k="access" v="yes"/>
    <tag k="bicycle" v="dismount"/>
    <tag k="foot" v="yes"/>
    <tag k="highway" v="steps"/>
    <tag k="motor_vehicle" v="no"/>
    <tag k="step_count" v="12"/>
    <tag k="surface" v="paved"/>
  </way>
  <way id="27374548" version="11" timestamp="2010-03-28T00:09:26Z" uid="20587" user="balrog-kun" changeset="4250871">
    <nd ref="65306853"/>
    <nd ref="300761099"/>
    <nd ref="300761097"/>
    <nd ref="300761096"/>
    <nd ref="300761095"/>
    <nd ref="300761093"/>
    <nd ref="275724398"/>
    <tag k="highway" v="residential"/>
    <tag k="name" v="Howard Street"/>
    <tag k="oneway" v="yes"/>
    <tag k="tiger:cfcc" v="A41"/>
    <tag k="tiger:county" v="San Francisco, CA"/>
    <tag k="tiger:name_type" v="St"/>
    <tag k="tiger:reviewed" v="no"/>
    <tag k="tiger:separated" v="no"/>
    <tag k="tiger:source" v="tiger_import_dch_v0.6_20070809"/>
    <tag k="tiger:tlid" v="192287482:192287484:192287280:192287281:192287282:192287274:192287382:192287401:192287403:192287405:192287408:192287378:192287410:192287721:192287726:192287739:192287727:192287862:192287740:192287365:192293976:192296027:192281581"/>
    <tag k="tiger:zip_left" v="94103"/>
    <tag k="tiger:zip_right" v="94103"/>
  </way>
  <way id="27374556" version="1" timestamp="2008-09-28T09:01:42Z" uid="61114" user="Trav" changeset="709191">
    <nd ref="120473994"/>
    <nd ref="82482622"/>
    <tag k="created_by" v="Merkaartor 0.13"/>
    <tag k="highway" v="footway"/>
    <tag k="source" v="survey"/>
  </way>
  <way id="27374557" version="1" timestamp="2008-09-28T09:01:44Z" uid="61114" user="Trav" changeset="709191">
    <nd ref="300514986"/>
    <nd ref="82530248"/>
    <nd ref="82530258"/>
    <tag k="abutters" v="residential"/>
    <tag k="created_by" v="Merkaartor 0.13"/>
    <tag k="highway" v="service"/>
    <tag k="name" v="Grasmere Lane"/>
    <tag k="source" v="yahoo_imagery"/>
  </way>
  <way id="27374557" version="2" timestamp="2009-12-19T11:07:01Z" uid="30201" user="rrankin" changeset="3406016">
    <nd ref="300514986"/>
    <nd ref="82530248"/>
    <nd ref="82530258"/>
    <tag k="highway" v="service"/>
    <tag k="name" v="Grasmere Lane"/>
    <tag k="source" v="yahoo_imagery"/>
  </way>
  <way id="27374558" version="1" timestamp="2008-09-28T09:01:46Z" uid="61114" user="Trav" changeset="709191">
    <nd ref="300514986"/>
    <nd ref="300514987"/>
    <nd ref="300514989"/>
    <nd ref="300514989"/>
    <tag k="created_by" v="Merkaartor 0.13"/>
    <tag k="highway" v="footway"/>
  </way>
  <way id="27374558" version="2" timestamp="2008-11-20T11:13:22Z" uid="30201" user="rrankin" changeset="771844">
    <nd ref="300514986"/>
    <nd ref="300514987"/>
    <nd ref="313288001"/>
    <tag k="created_by" v="Merkaartor 0.13"/>
    <tag k="highway" v="footway"/>
  </way>
  <way id="27374560" version="1" timestamp="2008-09-28T09:01:46Z" uid="61114" user="Trav" changeset="709191">
    <nd ref="300514986"/>
    <nd ref="300514997"/>
    <tag k="created_by" v="Merkaartor 0.13"/>
    <tag k="highway" v="steps"/>
  </way>
  <way id="27374561" version="1" timestamp="2008-09-28T09:01:47Z" uid="61114" user="Trav" changeset="709191">
    <nd ref="29421399"/>
    <nd ref="253731200"/>
    <nd ref="29421426"/>
    <nd ref="29421427"/>
    <nd ref="29421428"/>
    <nd ref="29421429"/>
    <nd ref="29421430"/>
    <nd ref="29421431"/>
    <nd ref="29421385"/>
    <nd ref="29421397"/>
    <tag k="abutters" v="residential"/>
    <tag k="created_by" v="Merkaartor 0.13"/>
    <tag k="highway" v="residential"/>
    <tag k="name" v="Earle Street"/>
    <tag k="source" v="survey"/>
    <tag k="source:name" v="survey"/>
  </way>
  <way id="27374561" version="2" timestamp="2009-12-19T11:07:00Z" uid="30201" user="rrankin" changeset="3406016">
    <nd ref="29421399"/>
    <nd ref="253731200"/>
    <nd ref="29421426"/>
    <nd ref="29421427"/>
    <nd ref="29421428"/>
    <nd ref="29421429"/>
    <nd ref="29421430"/>
    <nd ref="29421431"/>
    <nd ref="29421385"/>
    <nd ref="29421397"/>
    <tag k="highway" v="residential"/>
    <tag k="name" v="Earle Street"/>
    <tag k="source" v="survey"/>
    <tag k="source:name" v="survey"/>
  </way>
  <way id="27374561" version="3" timestamp="2010-07-08T01:18:45Z" uid="74617" user="JohnSmith" changeset="5162525">
    <nd ref="29421399"/>
    <nd ref="253731200"/>
    <nd ref="29421426"/>
    <nd ref="29421427"/>
    <nd ref="29421428"/>
    <nd ref="29421429"/>
    <nd ref="29421430"/>
    <nd ref="29421431"/>
    <nd ref="29421385"/>
    <nd ref="29421397"/>
    <tag k="highway" v="residential"/>
    <tag k="maxspeed" v="50"/>
    <tag k="maxspeed:source" v="default residential speed limit in Australia"/>
    <tag k="name" v="Earle Street"/>
    <tag k="source" v="survey"/>
    <tag k="source:name" v="survey"/>
  </way>
  <way id="27374561" version="4" timestamp="2011-09-03T21:57:08Z" uid="20949" user="Ebenezer" changeset="9204245">
    <nd ref="29421399"/>
    <nd ref="253731200"/>
    <nd ref="29421426"/>
    <nd ref="29421427"/>
    <nd ref="29421428"/>
    <nd ref="29421429"/>
    <nd ref="29421430"/>
    <nd ref="29421431"/>
    <nd ref="29421385"/>
    <nd ref="29421397"/>
    <tag k="highway" v="residential"/>
    <tag k="lcn" v="yes"/>
    <tag k="maxspeed" v="50"/>
    <tag k="maxspeed:source" v="default residential speed limit in Australia"/>
    <tag k="name" v="Earle Street"/>
    <tag k="source" v="survey"/>
    <tag k="source:name" v="survey"/>
  </way>
  <way id="27374561" version="5" timestamp="2012-01-17T06:13:00Z" uid="147510" user="woodpeck_fixbot" changeset="10414499">
    <nd ref="29421399"/>
    <nd ref="253731200"/>
    <nd ref="29421426"/>
    <nd ref="29421427"/>
    <nd ref="29421428"/>
    <nd ref="29421429"/>
    <nd ref="29421430"/>
    <nd ref="29421431"/>
    <nd ref="29421385"/>
    <nd ref="29421397"/>
    <tag k="highway" v="residential"/>
    <tag k="lcn" v="yes"/>
    <tag k="name" v="Earle Street"/>
    <tag k="source" v="survey"/>
    <tag k="source:name" v="survey"/>
  </way>
  <way id="27374562" version="1" timestamp="2008-09-28T09:01:47Z" uid="61114" user="Trav" changeset="709191">
    <nd ref="29421424"/>
    <nd ref="29421425"/>
    <nd ref="29421403"/>
    <nd ref="29421399"/>
    <tag k="created_by" v="Merkaartor 0.13"/>
    <tag k="highway" v="residential"/>
    <tag k="name" v="Grafton Street"/>
    <tag k="source" v="survey"/>
    <tag k="source:name" v="survey"/>
  </way>
  <way id="27374562" version="2" timestamp="2010-01-06T09:17:28Z" uid="9477" user="NilbogAus" changeset="3551706">
    <nd ref="29421424"/>
    <nd ref="29421425"/>
    <nd ref="29421403"/>
    <nd ref="606334608"/>
    <nd ref="29421399"/>
    <tag k="highway" v="residential"/>
    <tag k="name" v="Grafton Street"/>
    <tag k="source" v="survey"/>
    <tag k="source:name" v="survey"/>
  </way>
  <way id="27374562" version="3" timestamp="2010-07-08T01:16:54Z" uid="74617" user="JohnSmith" changeset="5162525">
    <nd ref="29421424"/>
    <nd ref="29421425"/>
    <nd ref="29421403"/>
    <nd ref="606334608"/>
    <nd ref="29421399"/>
    <tag k="highway" v="residential"/>
    <tag k="maxspeed" v="50"/>
    <tag k="maxspeed:source" v="default residential speed limit in Australia"/>
    <tag k="name" v="Grafton Street"/>
    <tag k="source" v="survey"/>
    <tag k="source:name" v="survey"/>
  </way>
  <way id="27374562" version="4" timestamp="2011-09-03T21:57:08Z" uid="20949" user="Ebenezer" changeset="9204245">
    <nd ref="29421424"/>
    <nd ref="29421425"/>
    <nd ref="29421403"/>
    <nd ref="606334608"/>
    <nd ref="29421399"/>
    <tag k="highway" v="residential"/>
    <tag k="lcn" v="yes"/>
    <tag k="maxspeed" v="50"/>
    <tag k="maxspeed:source" v="default residential speed limit in Australia"/>
    <tag k="name" v="Grafton Street"/>
    <tag k="source" v="survey"/>
    <tag k="source:name" v="survey"/>
  </way>
  <way id="27374562" version="5" timestamp="2012-01-17T06:13:01Z" uid="147510" user="woodpeck_fixbot" changeset="10414499">
    <nd ref="29421424"/>
    <nd ref="29421425"/>
    <nd ref="29421403"/>
    <nd ref="606334608"/>
    <nd ref="29421399"/>
    <tag k="highway" v="residential"/>
    <tag k="lcn" v="yes"/>
    <tag k="name" v="Grafton Street"/>
    <tag k="source" v="survey"/>
    <tag k="source:name" v="survey"/>
  </way>
  <way id="27374563" version="1" timestamp="2008-09-28T09:01:52Z" uid="61114" user="Trav" changeset="709191">
    <nd ref="300515005"/>
    <nd ref="29421372"/>
    <nd ref="29421373"/>
    <nd ref="29421395"/>
    <nd ref="29421385"/>
    <tag k="created_by" v="Merkaartor 0.13"/>
    <tag k="highway" v="residential"/>
    <tag k="name" v="Young Street"/>
  </way>
  <way id="27374563" version="2" timestamp="2008-10-11T09:11:58Z" uid="68824" user="Grackleflint" changeset="265596"/>
  <way id="27374564" version="1" timestamp="2008-09-28T09:01:56Z" uid="61114" user="Trav" changeset="709191">
    <nd ref="300515007"/>
    <nd ref="300515008"/>
    <nd ref="300515009"/>
    <nd ref="300515010"/>
    <tag k="created_by" v="Merkaartor 0.13"/>
    <tag k="highway" v="service"/>
    <tag k="name" v="Byrnes Avenue"/>
    <tag k="source" v="yahoo_imagery"/>
    <tag k="source:name" v="survey"/>
  </way>
  <way id="27374565" version="1" timestamp="2008-09-28T09:01:59Z" uid="61114" user="Trav" changeset="709191">
    <nd ref="300515009"/>
    <nd ref="300515016"/>
    <tag k="created_by" v="Merkaartor 0.13"/>
    <tag k="highway" v="service"/>
    <tag k="name" v="Short Lane"/>
    <tag k="source" v="yahoo_imagery"/>
    <tag k="source:name" v="survey"/>
  </way>
  <way id="27374568" version="1" timestamp="2008-09-28T09:02:00Z" uid="61114" user="Trav" changeset="709191">
    <nd ref="300515010"/>
    <nd ref="300515027"/>
    <tag k="created_by" v="Merkaartor 0.13"/>
    <tag k="highway" v="footway"/>
  </way>
  <way id="27374569" version="1" timestamp="2008-09-28T09:02:01Z" uid="61114" user="Trav" changeset="709191">
    <nd ref="300515008"/>
    <nd ref="300515030"/>
    <tag k="created_by" v="Merkaartor 0.13"/>
    <tag k="highway" v="footway"/>
  </way>
  <way id="27374571" version="1" timestamp="2008-09-28T09:02:04Z" uid="61114" user="Trav" changeset="709191">
    <nd ref="263131010"/>
    <nd ref="300515043"/>
    <tag k="created_by" v="Merkaartor 0.13"/>
    <tag k="highway" v="unclassified"/>
  </way>
  <way id="27374571" version="2" timestamp="2008-10-07T03:02:33Z" uid="68824" user="Grackleflint" changeset="149012">
    <nd ref="263131010"/>
    <nd ref="300515043"/>
    <tag k="created_by" v="Merkaartor 0.13"/>
    <tag k="highway" v="service"/>
    <tag k="source" v="survey"/>
    <tag k="source:name" v="TangoGPS on OpenMoko"/>
  </way>
  <way id="27374605" version="1" timestamp="2008-09-28T09:03:28Z" uid="30201" user="rrankin" changeset="712366">
    <nd ref="256677362"/>
    <nd ref="300515198"/>
    <tag k="bridge" v="yes"/>
    <tag k="created_by" v="JOSM"/>
    <tag k="highway" v="unclassified"/>
    <tag k="layer" v="1"/>
  </way>
  <way id="27374606" version="1" timestamp="2008-09-28T09:03:30Z" uid="30201" user="rrankin" changeset="712366">
    <nd ref="300515198"/>
    <nd ref="256673094"/>
    <nd ref="256676286"/>
    <nd ref="256672490"/>
    <nd ref="256676796"/>
    <nd ref="256675250"/>
    <nd ref="256675467"/>
    <nd ref="256672686"/>
    <nd ref="256676688"/>
    <nd ref="256674813"/>
    <nd ref="256675960"/>
    <nd ref="256676435"/>
    <nd ref="256677581"/>
    <nd ref="256673992"/>
    <nd ref="256674265"/>
    <nd ref="256674114"/>
    <nd ref="256672804"/>
    <nd ref="256672699"/>
    <nd ref="256675277"/>
    <nd ref="256677846"/>
    <nd ref="256677607"/>
    <nd ref="256672808"/>
    <nd ref="256674645"/>
    <nd ref="256673232"/>
    <nd ref="256672827"/>
    <nd ref="256677529"/>
    <nd ref="256674067"/>
    <nd ref="256675553"/>
    <nd ref="256675968"/>
    <nd ref="256674854"/>
    <nd ref="256677623"/>
    <nd ref="256677855"/>
    <nd ref="256677363"/>
    <nd ref="256674895"/>
    <nd ref="256675319"/>
    <nd ref="256672497"/>
    <nd ref="256677966"/>
    <nd ref="256672493"/>
    <nd ref="256676546"/>
    <nd ref="256675562"/>
    <nd ref="256675558"/>
    <nd ref="256673331"/>
    <nd ref="256677567"/>
    <nd ref="256678082"/>
    <nd ref="256676431"/>
    <nd ref="256675245"/>
    <nd ref="256674254"/>
    <nd ref="256674003"/>
    <nd ref="256676256"/>
    <nd ref="256672907"/>
    <nd ref="256676387"/>
    <nd ref="256677959"/>
    <nd ref="256674057"/>
    <nd ref="256675552"/>
    <nd ref="256676362"/>
    <nd ref="256677595"/>
    <nd ref="256674136"/>
    <nd ref="256673319"/>
    <nd ref="256673102"/>
    <nd ref="256674649"/>
    <nd ref="256674093"/>
    <nd ref="256676406"/>
    <nd ref="256672660"/>
    <nd ref="256677346"/>
    <nd ref="256674161"/>
    <nd ref="256674648"/>
    <nd ref="256673937"/>
    <nd ref="256675254"/>
    <nd ref="256676440"/>
    <nd ref="256676122"/>
    <nd ref="256675350"/>
    <nd ref="256677538"/>
    <nd ref="256676385"/>
    <nd ref="256672523"/>
    <nd ref="256676381"/>
    <nd ref="256677321"/>
    <nd ref="256676225"/>
    <nd ref="256677577"/>
    <nd ref="256673942"/>
    <nd ref="256677602"/>
    <nd ref="256674289"/>
    <nd ref="256673932"/>
    <nd ref="256675180"/>
    <nd ref="256676383"/>
    <nd ref="256676167"/>
    <nd ref="256672644"/>
    <nd ref="256676830"/>
    <nd ref="256674741"/>
    <nd ref="256672944"/>
    <nd ref="256674618"/>
    <nd ref="256675817"/>
    <nd ref="256676636"/>
    <nd ref="256672700"/>
    <nd ref="256675579"/>
    <nd ref="256675006"/>
    <nd ref="256674803"/>
    <nd ref="256672932"/>
    <nd ref="256673039"/>
    <nd ref="256674006"/>
    <nd ref="256674811"/>
    <nd ref="256676509"/>
    <nd ref="256673936"/>
    <nd ref="256676662"/>
    <nd ref="256676663"/>
    <nd ref="256673283"/>
    <nd ref="256676193"/>
    <nd ref="256675544"/>
    <nd ref="256673980"/>
    <nd ref="256675339"/>
    <nd ref="255183105"/>
    <tag k="created_by" v="JOSM"/>
    <tag k="highway" v="unclassified"/>
  </way>
  <way id="27374606" version="2" timestamp="2010-03-11T10:58:33Z" uid="19626" user="Swamp" changeset="4096745">
    <nd ref="300515198"/>
    <nd ref="256673094"/>
    <nd ref="256676286"/>
    <nd ref="256672490"/>
    <nd ref="256676796"/>
    <nd ref="256675250"/>
    <nd ref="256675467"/>
    <nd ref="256672686"/>
    <nd ref="256676688"/>
    <nd ref="256674813"/>
    <nd ref="256675960"/>
    <nd ref="256676435"/>
    <nd ref="256677581"/>
    <nd ref="256673992"/>
    <nd ref="256674265"/>
    <nd ref="256674114"/>
    <nd ref="256672804"/>
    <nd ref="256672699"/>
    <nd ref="256675277"/>
    <nd ref="256677846"/>
    <nd ref="256677607"/>
    <nd ref="256672808"/>
    <nd ref="256674645"/>
    <nd ref="256673232"/>
    <nd ref="256672827"/>
    <nd ref="256677529"/>
    <nd ref="256674067"/>
    <nd ref="256675553"/>
    <nd ref="256675968"/>
    <nd ref="256674854"/>
    <nd ref="256677623"/>
    <nd ref="256677855"/>
    <nd ref="256677363"/>
    <nd ref="256674895"/>
    <nd ref="256675319"/>
    <nd ref="256672497"/>
    <nd ref="256677966"/>
    <nd ref="256672493"/>
    <nd ref="256676546"/>
    <nd ref="256675562"/>
    <nd ref="256675558"/>
    <nd ref="256673331"/>
    <nd ref="256677567"/>
    <nd ref="256678082"/>
    <nd ref="256676431"/>
    <nd ref="256675245"/>
    <nd ref="256674254"/>
    <nd ref="256674003"/>
    <nd ref="256676256"/>
    <nd ref="256672907"/>
    <nd ref="256676387"/>
    <nd ref="256677959"/>
    <nd ref="256674057"/>
    <nd ref="256675552"/>
    <nd ref="256676362"/>
    <nd ref="256677595"/>
    <nd ref="256674136"/>
    <nd ref="256673319"/>
    <nd ref="256673102"/>
    <nd ref="256674649"/>
    <nd ref="256674093"/>
    <nd ref="256676406"/>
    <nd ref="256672660"/>
    <nd ref="256677346"/>
    <nd ref="256674161"/>
    <nd ref="256674648"/>
    <nd ref="256673937"/>
    <nd ref="256675254"/>
    <nd ref="256676440"/>
    <nd ref="256676122"/>
    <nd ref="256675350"/>
    <nd ref="256677538"/>
    <nd ref="256676385"/>
    <nd ref="256672523"/>
    <nd ref="256676381"/>
    <nd ref="256677321"/>
    <nd ref="256676225"/>
    <nd ref="256677577"/>
    <nd ref="256673942"/>
    <nd ref="256677602"/>
    <nd ref="256674289"/>
    <nd ref="256673932"/>
    <nd ref="256675180"/>
    <nd ref="256676383"/>
    <nd ref="256676167"/>
    <nd ref="256672644"/>
    <nd ref="256676830"/>
    <nd ref="256674741"/>
    <nd ref="256672944"/>
    <nd ref="256674618"/>
    <nd ref="256675817"/>
    <nd ref="256676636"/>
    <nd ref="256672700"/>
    <nd ref="256675579"/>
    <nd ref="256675006"/>
    <nd ref="256674803"/>
    <nd ref="256672932"/>
    <nd ref="256673039"/>
    <nd ref="256674006"/>
    <nd ref="256674811"/>
    <nd ref="256676509"/>
    <nd ref="256673936"/>
    <nd ref="256676662"/>
    <nd ref="256676663"/>
    <nd ref="256673283"/>
    <nd ref="256676193"/>
    <nd ref="256675544"/>
    <nd ref="256673980"/>
    <nd ref="256675339"/>
    <nd ref="255183105"/>
    <tag k="highway" v="unclassified"/>
    <tag k="name" v="Maryla Road"/>
  </way>
  <way id="27374623" version="1" timestamp="2008-09-28T09:04:29Z" uid="43863" user="Rundling" changeset="713017">
    <nd ref="300515316"/>
    <nd ref="300515311"/>
    <nd ref="300515309"/>
    <nd ref="300515317"/>
    <nd ref="300515316"/>
    <tag k="addr:city" v="Rosche"/>
    <tag k="addr:housenumber" v="19"/>
    <tag k="addr:postcode" v="29571"/>
    <tag k="addr:street" v="Alt Prielip"/>
    <tag k="building" v="yes"/>
    <tag k="created_by" v="Merkaartor 0.11"/>
  </way>
  <way id="27374624" version="1" timestamp="2008-09-28T09:04:30Z" uid="43863" user="Rundling" changeset="713017">
    <nd ref="300515320"/>
    <nd ref="300515319"/>
    <nd ref="300515318"/>
    <nd ref="300515321"/>
    <nd ref="300515320"/>
    <tag k="addr:city" v="Rosche"/>
    <tag k="addr:housenumber" v="1"/>
    <tag k="addr:postcode" v="29571"/>
    <tag k="addr:street" v="Am Schwarzen Berg"/>
    <tag k="building" v="yes"/>
    <tag k="created_by" v="Merkaartor 0.11"/>
  </way>
  <way id="27374624" version="2" timestamp="2011-02-24T20:44:41Z" uid="43863" user="Rundling" changeset="7385139">
    <nd ref="300515320"/>
    <nd ref="300515319"/>
    <nd ref="300515318"/>
    <nd ref="300515321"/>
    <nd ref="300515320"/>
    <tag k="addr:city" v="Rosche"/>
    <tag k="addr:housenumber" v="1"/>
    <tag k="addr:postcode" v="29571"/>
    <tag k="addr:street" v="Am Schwarzen Berg"/>
    <tag k="building" v="yes"/>
  </way>
  <way id="27374625" version="1" timestamp="2008-09-28T09:04:30Z" uid="43863" user="Rundling" changeset="713017">
    <nd ref="300515322"/>
    <nd ref="300515330"/>
    <nd ref="300515324"/>
    <nd ref="300515323"/>
    <nd ref="300515322"/>
    <tag k="addr:city" v="Rosche"/>
    <tag k="addr:housenumber" v="3"/>
    <tag k="addr:postcode" v="29571"/>
    <tag k="addr:street" v="Am Schwarzen Berg"/>
    <tag k="building" v="yes"/>
    <tag k="created_by" v="Merkaartor 0.11"/>
  </way>
  <way id="27374625" version="2" timestamp="2011-02-24T20:44:42Z" uid="43863" user="Rundling" changeset="7385139">
    <nd ref="300515322"/>
    <nd ref="300515330"/>
    <nd ref="300515324"/>
    <nd ref="300515323"/>
    <nd ref="300515322"/>
    <tag k="addr:city" v="Rosche"/>
    <tag k="addr:housenumber" v="3"/>
    <tag k="addr:postcode" v="29571"/>
    <tag k="addr:street" v="Am Schwarzen Berg"/>
    <tag k="building" v="yes"/>
  </way>
  <way id="27374625" version="3" timestamp="2011-02-25T16:27:39Z" uid="43863" user="Rundling" changeset="7391934">
    <nd ref="300515322"/>
    <nd ref="300515330"/>
    <nd ref="300515324"/>
    <nd ref="300515323"/>
    <nd ref="300515322"/>
    <tag k="building" v="yes"/>
  </way>
  <way id="27374625" version="4" timestamp="2011-02-27T17:46:01Z" uid="43863" user="Rundling" changeset="7413334">
    <nd ref="300515322"/>
    <nd ref="300515330"/>
    <nd ref="300515324"/>
    <nd ref="300515323"/>
    <nd ref="300515322"/>
    <tag k="building" v="barn"/>
  </way>
  <way id="27374626" version="1" timestamp="2008-09-28T09:04:30Z" uid="43863" user="Rundling" changeset="713017">
    <nd ref="300515331"/>
    <nd ref="300515337"/>
    <nd ref="300515335"/>
    <nd ref="300515332"/>
    <nd ref="300515331"/>
    <tag k="addr:city" v="Rosche"/>
    <tag k="addr:housenumber" v="5"/>
    <tag k="addr:postcode" v="29571"/>
    <tag k="addr:street" v="Am Schwarzen Berg"/>
    <tag k="building" v="yes"/>
    <tag k="created_by" v="Merkaartor 0.11"/>
  </way>
  <way id="27374626" version="2" timestamp="2011-02-24T20:44:44Z" uid="43863" user="Rundling" changeset="7385139">
    <nd ref="300515331"/>
    <nd ref="300515337"/>
    <nd ref="300515335"/>
    <nd ref="300515332"/>
    <nd ref="300515331"/>
    <tag k="addr:city" v="Rosche"/>
    <tag k="addr:housenumber" v="5"/>
    <tag k="addr:postcode" v="29571"/>
    <tag k="addr:street" v="Am Schwarzen Berg"/>
    <tag k="building" v="yes"/>
  </way>
  <way id="27374627" version="1" timestamp="2008-09-28T09:04:30Z" uid="43863" user="Rundling" changeset="713017">
    <nd ref="300515338"/>
    <nd ref="300515341"/>
    <nd ref="300515340"/>
    <nd ref="300515339"/>
    <nd ref="300515338"/>
    <tag k="addr:city" v="Rosche"/>
    <tag k="addr:housenumber" v="7"/>
    <tag k="addr:postcode" v="29571"/>
    <tag k="addr:street" v="Am Schwarzen Berg"/>
    <tag k="building" v="yes"/>
    <tag k="created_by" v="Merkaartor 0.11"/>
  </way>
  <way id="27374628" version="1" timestamp="2008-09-28T09:04:30Z" uid="43863" user="Rundling" changeset="713017">
    <nd ref="300515342"/>
    <nd ref="300515345"/>
    <nd ref="300515344"/>
    <nd ref="300515343"/>
    <nd ref="300515342"/>
    <tag k="addr:city" v="Rosche"/>
    <tag k="addr:housenumber" v="9"/>
    <tag k="addr:postcode" v="29571"/>
    <tag k="addr:street" v="Am Schwarzen Berg"/>
    <tag k="building" v="yes"/>
    <tag k="created_by" v="Merkaartor 0.11"/>
  </way>
  <way id="27374628" version="2" timestamp="2011-02-24T20:44:34Z" uid="43863" user="Rundling" changeset="7385139">
    <nd ref="300515342"/>
    <nd ref="300515345"/>
    <nd ref="300515344"/>
    <nd ref="300515343"/>
    <nd ref="300515342"/>
    <tag k="addr:city" v="Rosche"/>
    <tag k="addr:housenumber" v="9"/>
    <tag k="addr:postcode" v="29571"/>
    <tag k="addr:street" v="Am Schwarzen Berg"/>
    <tag k="building" v="yes"/>
  </way>
  <way id="27374629" version="1" timestamp="2008-09-28T09:04:31Z" uid="43863" user="Rundling" changeset="713017">
    <nd ref="300515346"/>
    <nd ref="300515349"/>
    <nd ref="300515348"/>
    <nd ref="300515347"/>
    <nd ref="300515346"/>
    <tag k="addr:city" v="Rosche"/>
    <tag k="addr:housenumber" v="11"/>
    <tag k="addr:postcode" v="29571"/>
    <tag k="addr:street" v="Am Schwarzen Berg"/>
    <tag k="building" v="yes"/>
    <tag k="created_by" v="Merkaartor 0.11"/>
  </way>
  <way id="27374629" version="2" timestamp="2011-02-24T20:44:37Z" uid="43863" user="Rundling" changeset="7385139">
    <nd ref="300515346"/>
    <nd ref="300515349"/>
    <nd ref="300515348"/>
    <nd ref="300515347"/>
    <nd ref="300515346"/>
    <tag k="addr:city" v="Rosche"/>
    <tag k="addr:housenumber" v="11"/>
    <tag k="addr:postcode" v="29571"/>
    <tag k="addr:street" v="Am Schwarzen Berg"/>
    <tag k="building" v="yes"/>
  </way>
  <way id="27374630" version="1" timestamp="2008-09-28T09:04:31Z" uid="43863" user="Rundling" changeset="713017">
    <nd ref="300515350"/>
    <nd ref="300515353"/>
    <nd ref="300515352"/>
    <nd ref="300515351"/>
    <nd ref="300515350"/>
    <tag k="addr:city" v="Rosche"/>
    <tag k="addr:housenumber" v="13a"/>
    <tag k="addr:postcode" v="29571"/>
    <tag k="addr:street" v="Am Schwarzen Berg"/>
    <tag k="building" v="yes"/>
    <tag k="created_by" v="Merkaartor 0.11"/>
  </way>
  <way id="27374630" version="2" timestamp="2010-01-18T15:24:02Z" uid="43863" user="Rundling" changeset="3650972">
    <nd ref="300515350"/>
    <nd ref="300515353"/>
    <nd ref="300515352"/>
    <nd ref="300515351"/>
    <nd ref="300515350"/>
    <tag k="addr:city" v="Rosche"/>
    <tag k="addr:housenumber" v="13a"/>
    <tag k="addr:postcode" v="29571"/>
    <tag k="addr:street" v="Am Schwarzen Berg"/>
    <tag k="building" v="yes"/>
  </way>
  <way id="27374630" version="3" timestamp="2011-02-24T20:44:46Z" uid="43863" user="Rundling" changeset="7385139"/>
  <way id="27374631" version="1" timestamp="2008-09-28T09:04:31Z" uid="43863" user="Rundling" changeset="713017">
    <nd ref="300515354"/>
    <nd ref="300515357"/>
    <nd ref="300515356"/>
    <nd ref="300515355"/>
    <nd ref="300515354"/>
    <tag k="addr:city" v="Rosche"/>
    <tag k="addr:housenumber" v="13b"/>
    <tag k="addr:postcode" v="29571"/>
    <tag k="addr:street" v="Am Schwarzen Berg"/>
    <tag k="building" v="yes"/>
    <tag k="created_by" v="Merkaartor 0.11"/>
  </way>
  <way id="27374631" version="2" timestamp="2010-01-18T13:06:03Z" uid="109633" user="peterbahn" changeset="3650004">
    <nd ref="300515354"/>
    <nd ref="300515357"/>
    <nd ref="300515356"/>
    <nd ref="300515355"/>
    <nd ref="300515354"/>
    <tag k="addr:city" v="Rosche"/>
    <tag k="addr:housenumber" v="13b"/>
    <tag k="addr:postcode" v="29571"/>
    <tag k="addr:street" v="Am Schwarzen Berg"/>
    <tag k="building" v="yes"/>
  </way>
  <way id="27374631" version="3" timestamp="2010-01-18T15:18:40Z" uid="43863" user="Rundling" changeset="3650939">
    <nd ref="616266911"/>
    <nd ref="616266912"/>
    <nd ref="616266913"/>
    <nd ref="616266914"/>
    <nd ref="616266916"/>
    <tag k="addr:city" v="Rosche"/>
    <tag k="addr:housenumber" v="13b"/>
    <tag k="addr:postcode" v="29571"/>
    <tag k="addr:street" v="Am Schwarzen Berg"/>
    <tag k="building" v="yes"/>
    <tag k="history" v="Retrieved from v1"/>
  </way>
  <way id="27374631" version="4" timestamp="2010-01-18T15:24:02Z" uid="43863" user="Rundling" changeset="3650972">
    <nd ref="616266911"/>
    <nd ref="616266912"/>
    <nd ref="616266913"/>
    <nd ref="616266914"/>
    <nd ref="616266911"/>
    <tag k="addr:city" v="Rosche"/>
    <tag k="addr:housenumber" v="13b"/>
    <tag k="addr:postcode" v="29571"/>
    <tag k="addr:street" v="Am Schwarzen Berg"/>
    <tag k="building" v="yes"/>
  </way>
  <way id="27374631" version="5" timestamp="2011-02-24T20:44:46Z" uid="43863" user="Rundling" changeset="7385139"/>
  <way id="27374632" version="1" timestamp="2008-09-28T09:04:31Z" uid="43863" user="Rundling" changeset="713017">
    <nd ref="300515358"/>
    <nd ref="300515361"/>
    <nd ref="300515360"/>
    <nd ref="300515359"/>
    <nd ref="300515358"/>
    <tag k="addr:city" v="Rosche"/>
    <tag k="addr:housenumber" v="13c"/>
    <tag k="addr:postcode" v="29571"/>
    <tag k="addr:street" v="Am Schwarzen Berg"/>
    <tag k="building" v="yes"/>
    <tag k="created_by" v="Merkaartor 0.11"/>
  </way>
  <way id="27374632" version="2" timestamp="2010-01-18T13:06:12Z" uid="109633" user="peterbahn" changeset="3650004">
    <nd ref="300515358"/>
    <nd ref="300515361"/>
    <nd ref="300515360"/>
    <nd ref="300515359"/>
    <nd ref="300515358"/>
    <tag k="addr:city" v="Rosche"/>
    <tag k="addr:housenumber" v="13c"/>
    <tag k="addr:postcode" v="29571"/>
    <tag k="addr:street" v="Am Schwarzen Berg"/>
    <tag k="building" v="yes"/>
  </way>
  <way id="27374632" version="3" timestamp="2010-01-18T15:18:42Z" uid="43863" user="Rundling" changeset="3650939">
    <nd ref="616266919"/>
    <nd ref="616266920"/>
    <nd ref="616266922"/>
    <nd ref="616266923"/>
    <nd ref="616266924"/>
    <tag k="addr:city" v="Rosche"/>
    <tag k="addr:housenumber" v="13c"/>
    <tag k="addr:postcode" v="29571"/>
    <tag k="addr:street" v="Am Schwarzen Berg"/>
    <tag k="building" v="yes"/>
    <tag k="history" v="Retrieved from v1"/>
  </way>
  <way id="27374632" version="4" timestamp="2010-01-18T15:24:02Z" uid="43863" user="Rundling" changeset="3650972">
    <nd ref="616266924"/>
    <nd ref="616266920"/>
    <nd ref="616266922"/>
    <nd ref="616266923"/>
    <nd ref="616266924"/>
    <tag k="addr:city" v="Rosche"/>
    <tag k="addr:housenumber" v="13c"/>
    <tag k="addr:postcode" v="29571"/>
    <tag k="addr:street" v="Am Schwarzen Berg"/>
    <tag k="building" v="yes"/>
    <tag k="history" v="Retrieved from v1"/>
  </way>
  <way id="27374632" version="5" timestamp="2011-02-24T20:44:46Z" uid="43863" user="Rundling" changeset="7385139"/>
  <way id="27374665" version="5" timestamp="2010-03-28T00:09:26Z" uid="20587" user="balrog-kun" changeset="4250871">
    <nd ref="276546183"/>
    <nd ref="65337819"/>
    <nd ref="276545995"/>
    <nd ref="276545996"/>
    <nd ref="65312411"/>
    <nd ref="276545997"/>
    <nd ref="65317769"/>
    <nd ref="65337832"/>
    <nd ref="65290267"/>
    <tag k="highway" v="secondary"/>
    <tag k="name" v="13th Street"/>
    <tag k="tiger:cfcc" v="A41"/>
    <tag k="tiger:county" v="San Francisco, CA"/>
    <tag k="tiger:name_base" v="13th"/>
    <tag k="tiger:name_type" v="St"/>
    <tag k="tiger:separated" v="no"/>
    <tag k="tiger:source" v="tiger_import_dch_v0.6_20070809"/>
    <tag k="tiger:tlid" v="192301165:192301230:192301231:192301233:192302945:192301227"/>
  </way>
  <way id="27374665" version="6" timestamp="2011-04-13T22:05:04Z" uid="20587" user="balrog-kun" changeset="7856491">
    <nd ref="276546183"/>
    <nd ref="65337819"/>
    <nd ref="276545995"/>
    <nd ref="276545996"/>
    <nd ref="65312411"/>
    <nd ref="276545997"/>
    <nd ref="65317769"/>
    <nd ref="65337832"/>
    <nd ref="65290267"/>
    <tag k="highway" v="secondary"/>
    <tag k="name" v="13th Street"/>
    <tag k="note" v="TODO: this street has divided carriages, probably should be split"/>
    <tag k="tiger:cfcc" v="A41"/>
    <tag k="tiger:county" v="San Francisco, CA"/>
    <tag k="tiger:name_base" v="13th"/>
    <tag k="tiger:name_type" v="St"/>
    <tag k="tiger:separated" v="no"/>
    <tag k="tiger:source" v="tiger_import_dch_v0.6_20070809"/>
    <tag k="tiger:tlid" v="192301165:192301230:192301231:192301233:192302945:192301227"/>
  </way>
  <way id="27374665" version="7" timestamp="2011-10-18T10:29:17Z" uid="207745" user="NE2" changeset="9589605">
    <nd ref="276546183"/>
    <nd ref="65337819"/>
    <nd ref="276545995"/>
    <nd ref="276545996"/>
    <nd ref="65312411"/>
    <nd ref="276545997"/>
    <nd ref="65317769"/>
    <tag k="FIXME" v="dual carriageway"/>
    <tag k="highway" v="secondary"/>
    <tag k="name" v="13th Street"/>
    <tag k="tiger:cfcc" v="A41"/>
    <tag k="tiger:county" v="San Francisco, CA"/>
    <tag k="tiger:name_base" v="13th"/>
    <tag k="tiger:name_type" v="St"/>
    <tag k="tiger:separated" v="no"/>
    <tag k="tiger:source" v="tiger_import_dch_v0.6_20070809"/>
    <tag k="tiger:tlid" v="192301165:192301230:192301231:192301233:192302945:192301227"/>
  </way>
  <way id="27374710" version="10" timestamp="2010-03-28T00:09:27Z" uid="20587" user="balrog-kun" changeset="4250871">
    <nd ref="65364094"/>
    <nd ref="300516354"/>
    <nd ref="65364096"/>
    <nd ref="65306847"/>
    <nd ref="65312164"/>
    <nd ref="65317576"/>
    <nd ref="65289131"/>
    <nd ref="65294653"/>
    <nd ref="65317763"/>
    <tag k="highway" v="residential"/>
    <tag k="name" v="12th Street"/>
    <tag k="tiger:cfcc" v="A41"/>
    <tag k="tiger:county" v="San Francisco, CA"/>
    <tag k="tiger:name_type" v="St"/>
    <tag k="tiger:separated" v="no"/>
    <tag k="tiger:source" v="tiger_import_dch_v0.6_20070809"/>
    <tag k="tiger:tlid" v="192287501:192287568:192287483:192287485:192287496:192287456:192292366"/>
    <tag k="tiger:zip_left" v="94103"/>
    <tag k="tiger:zip_right" v="94103"/>
  </way>
  <way id="27374710" version="11" timestamp="2011-04-30T07:24:42Z" uid="14293" user="JuxTPosition" changeset="8009199"/>
  <way id="27374712" version="1" timestamp="2008-09-28T09:10:10Z" uid="43863" user="Rundling" changeset="713017">
    <nd ref="300516210"/>
    <nd ref="300516213"/>
    <nd ref="300516212"/>
    <nd ref="300516211"/>
    <nd ref="300516210"/>
    <tag k="addr:city" v="Rosche"/>
    <tag k="addr:housenumber" v="2"/>
    <tag k="addr:postcode" v="29571"/>
    <tag k="addr:street" v="Am Schwarzen Berg"/>
    <tag k="building" v="yes"/>
    <tag k="created_by" v="Merkaartor 0.11"/>
  </way>
  <way id="27374712" version="2" timestamp="2009-07-16T17:26:36Z" uid="43863" user="Rundling" changeset="1846693">
    <nd ref="300516210"/>
    <nd ref="442651988"/>
    <nd ref="442651989"/>
    <nd ref="300516211"/>
    <nd ref="300516210"/>
    <tag k="addr:city" v="Rosche"/>
    <tag k="addr:housenumber" v="2"/>
    <tag k="addr:postcode" v="29571"/>
    <tag k="addr:street" v="Am Schwarzen Berg"/>
    <tag k="building" v="yes"/>
  </way>
  <way id="27374712" version="3" timestamp="2011-02-25T16:33:49Z" uid="43863" user="Rundling" changeset="7391980">
    <nd ref="300516210"/>
    <nd ref="442651988"/>
    <nd ref="442651989"/>
    <nd ref="300516211"/>
    <nd ref="300516210"/>
    <tag k="addr:city" v="Rosche"/>
    <tag k="addr:housenumber" v="2"/>
    <tag k="addr:postcode" v="29571"/>
    <tag k="addr:street" v="Am Schwarzen Berg"/>
    <tag k="building" v="yes"/>
  </way>
  <way id="27374713" version="1" timestamp="2008-09-28T09:10:11Z" uid="43863" user="Rundling" changeset="713017">
    <nd ref="300516215"/>
    <nd ref="300516218"/>
    <nd ref="300516217"/>
    <nd ref="300516216"/>
    <nd ref="300516215"/>
    <tag k="addr:city" v="Rosche"/>
    <tag k="addr:housenumber" v="6"/>
    <tag k="addr:postcode" v="29571"/>
    <tag k="addr:street" v="Am Schwarzen Berg"/>
    <tag k="building" v="yes"/>
    <tag k="created_by" v="Merkaartor 0.11"/>
  </way>
  <way id="27374713" version="2" timestamp="2011-02-25T16:27:38Z" uid="43863" user="Rundling" changeset="7391934">
    <nd ref="300516215"/>
    <nd ref="300516218"/>
    <nd ref="300516217"/>
    <nd ref="300516216"/>
    <nd ref="300516215"/>
    <tag k="addr:city" v="Rosche"/>
    <tag k="addr:housenumber" v="6"/>
    <tag k="addr:postcode" v="29571"/>
    <tag k="addr:street" v="Am Schwarzen Berg"/>
    <tag k="building" v="yes"/>
  </way>
  <way id="27374713" version="3" timestamp="2011-02-25T16:33:50Z" uid="43863" user="Rundling" changeset="7391980">
    <nd ref="300516215"/>
    <nd ref="300516218"/>
    <nd ref="300516217"/>
    <nd ref="300516216"/>
    <nd ref="300516215"/>
    <tag k="addr:city" v="Rosche"/>
    <tag k="addr:housenumber" v="6"/>
    <tag k="addr:postcode" v="29571"/>
    <tag k="addr:street" v="Am Schwarzen Berg"/>
    <tag k="building" v="yes"/>
  </way>
  <way id="27374715" version="1" timestamp="2008-09-28T09:10:11Z" uid="43863" user="Rundling" changeset="713017">
    <nd ref="300516219"/>
    <nd ref="300516223"/>
    <nd ref="300516222"/>
    <nd ref="300516221"/>
    <nd ref="300516219"/>
    <tag k="addr:city" v="Rosche"/>
    <tag k="addr:housenumber" v="8"/>
    <tag k="addr:postcode" v="29571"/>
    <tag k="addr:street" v="Am Schwarzen Berg"/>
    <tag k="building" v="yes"/>
    <tag k="created_by" v="Merkaartor 0.11"/>
  </way>
  <way id="27374715" version="2" timestamp="2011-02-25T16:27:35Z" uid="43863" user="Rundling" changeset="7391934">
    <nd ref="300516219"/>
    <nd ref="300516223"/>
    <nd ref="300516222"/>
    <nd ref="300516221"/>
    <nd ref="300516219"/>
    <tag k="addr:city" v="Rosche"/>
    <tag k="addr:housenumber" v="8"/>
    <tag k="addr:postcode" v="29571"/>
    <tag k="addr:street" v="Am Schwarzen Berg"/>
    <tag k="building" v="yes"/>
  </way>
  <way id="27374715" version="3" timestamp="2011-02-25T16:33:47Z" uid="43863" user="Rundling" changeset="7391980">
    <nd ref="300516219"/>
    <nd ref="300516223"/>
    <nd ref="300516222"/>
    <nd ref="300516221"/>
    <nd ref="300516219"/>
    <tag k="addr:city" v="Rosche"/>
    <tag k="addr:housenumber" v="8"/>
    <tag k="addr:postcode" v="29571"/>
    <tag k="addr:street" v="Am Schwarzen Berg"/>
    <tag k="building" v="yes"/>
  </way>
  <way id="27374716" version="1" timestamp="2008-09-28T09:10:11Z" uid="43863" user="Rundling" changeset="713017">
    <nd ref="300516224"/>
    <nd ref="300516228"/>
    <nd ref="300516227"/>
    <nd ref="300516226"/>
    <nd ref="300516224"/>
    <tag k="addr:city" v="Rosche"/>
    <tag k="addr:housenumber" v="10"/>
    <tag k="addr:postcode" v="29571"/>
    <tag k="addr:street" v="Am Schwarzen Berg"/>
    <tag k="building" v="yes"/>
    <tag k="created_by" v="Merkaartor 0.11"/>
  </way>
  <way id="27374716" version="2" timestamp="2011-02-25T16:27:36Z" uid="43863" user="Rundling" changeset="7391934">
    <nd ref="300516224"/>
    <nd ref="300516228"/>
    <nd ref="300516227"/>
    <nd ref="300516226"/>
    <nd ref="300516224"/>
    <tag k="addr:city" v="Rosche"/>
    <tag k="addr:housenumber" v="10"/>
    <tag k="addr:postcode" v="29571"/>
    <tag k="addr:street" v="Am Schwarzen Berg"/>
    <tag k="building" v="yes"/>
  </way>
  <way id="27374716" version="3" timestamp="2011-02-25T16:33:49Z" uid="43863" user="Rundling" changeset="7391980">
    <nd ref="300516224"/>
    <nd ref="300516228"/>
    <nd ref="300516227"/>
    <nd ref="300516226"/>
    <nd ref="300516224"/>
    <tag k="addr:city" v="Rosche"/>
    <tag k="addr:housenumber" v="10"/>
    <tag k="addr:postcode" v="29571"/>
    <tag k="addr:street" v="Am Schwarzen Berg"/>
    <tag k="building" v="yes"/>
  </way>
  <way id="27374717" version="1" timestamp="2008-09-28T09:10:12Z" uid="43863" user="Rundling" changeset="713017">
    <nd ref="300516232"/>
    <nd ref="300516238"/>
    <nd ref="300516237"/>
    <nd ref="300516235"/>
    <nd ref="300516232"/>
    <tag k="addr:city" v="Rosche"/>
    <tag k="addr:housenumber" v="14"/>
    <tag k="addr:postcode" v="29571"/>
    <tag k="addr:street" v="Am Schwarzen Berg"/>
    <tag k="building" v="yes"/>
    <tag k="created_by" v="Merkaartor 0.11"/>
  </way>
  <way id="27374717" version="2" timestamp="2011-02-25T16:27:36Z" uid="43863" user="Rundling" changeset="7391934">
    <nd ref="300516232"/>
    <nd ref="300516238"/>
    <nd ref="300516237"/>
    <nd ref="300516235"/>
    <nd ref="300516232"/>
    <tag k="addr:city" v="Rosche"/>
    <tag k="addr:housenumber" v="14"/>
    <tag k="addr:postcode" v="29571"/>
    <tag k="addr:street" v="Am Schwarzen Berg"/>
    <tag k="building" v="yes"/>
  </way>
  <way id="27374719" version="1" timestamp="2008-09-28T09:10:13Z" uid="43863" user="Rundling" changeset="713017">
    <nd ref="300516240"/>
    <nd ref="300516243"/>
    <nd ref="300516242"/>
    <nd ref="300516241"/>
    <nd ref="300516240"/>
    <tag k="addr:city" v="Rosche"/>
    <tag k="addr:housenumber" v="16"/>
    <tag k="addr:postcode" v="29571"/>
    <tag k="addr:street" v="Am Schwarzen Berg"/>
    <tag k="building" v="yes"/>
    <tag k="created_by" v="Merkaartor 0.11"/>
  </way>
  <way id="27374719" version="2" timestamp="2011-02-25T16:27:37Z" uid="43863" user="Rundling" changeset="7391934">
    <nd ref="300516240"/>
    <nd ref="300516243"/>
    <nd ref="300516242"/>
    <nd ref="300516241"/>
    <nd ref="300516240"/>
    <tag k="addr:city" v="Rosche"/>
    <tag k="addr:housenumber" v="16"/>
    <tag k="addr:postcode" v="29571"/>
    <tag k="addr:street" v="Am Schwarzen Berg"/>
    <tag k="building" v="yes"/>
  </way>
  <way id="27374720" version="1" timestamp="2008-09-28T09:10:13Z" uid="43863" user="Rundling" changeset="713017">
    <nd ref="300516244"/>
    <nd ref="300516250"/>
    <nd ref="300516248"/>
    <nd ref="300516246"/>
    <nd ref="300516244"/>
    <tag k="addr:city" v="Rosche"/>
    <tag k="addr:housenumber" v="18"/>
    <tag k="addr:postcode" v="29571"/>
    <tag k="addr:street" v="Am Schwarzen Berg"/>
    <tag k="building" v="yes"/>
    <tag k="created_by" v="Merkaartor 0.11"/>
  </way>
  <way id="27374720" version="2" timestamp="2011-02-25T16:27:37Z" uid="43863" user="Rundling" changeset="7391934">
    <nd ref="300516244"/>
    <nd ref="300516250"/>
    <nd ref="300516248"/>
    <nd ref="300516246"/>
    <nd ref="300516244"/>
    <tag k="addr:city" v="Rosche"/>
    <tag k="addr:housenumber" v="18"/>
    <tag k="addr:postcode" v="29571"/>
    <tag k="addr:street" v="Am Schwarzen Berg"/>
    <tag k="building" v="yes"/>
  </way>
  <way id="27374722" version="1" timestamp="2008-09-28T09:10:14Z" uid="43863" user="Rundling" changeset="713017">
    <nd ref="300516251"/>
    <nd ref="300516259"/>
    <nd ref="300516257"/>
    <nd ref="300516254"/>
    <nd ref="300516251"/>
    <tag k="addr:city" v="Rosche"/>
    <tag k="addr:housenumber" v="20"/>
    <tag k="addr:postcode" v="29571"/>
    <tag k="addr:street" v="Am Schwarzen Berg"/>
    <tag k="building" v="yes"/>
    <tag k="created_by" v="Merkaartor 0.11"/>
  </way>
  <way id="27374722" version="2" timestamp="2011-02-25T16:27:38Z" uid="43863" user="Rundling" changeset="7391934">
    <nd ref="300516251"/>
    <nd ref="300516259"/>
    <nd ref="300516257"/>
    <nd ref="300516254"/>
    <nd ref="300516251"/>
    <tag k="addr:city" v="Rosche"/>
    <tag k="addr:housenumber" v="20"/>
    <tag k="addr:postcode" v="29571"/>
    <tag k="addr:street" v="Am Schwarzen Berg"/>
    <tag k="building" v="yes"/>
  </way>
  <way id="27374723" version="1" timestamp="2008-09-28T09:10:15Z" uid="43863" user="Rundling" changeset="713017">
    <nd ref="300516260"/>
    <nd ref="300516271"/>
    <nd ref="300516266"/>
    <nd ref="300516263"/>
    <nd ref="300516260"/>
    <tag k="addr:city" v="Rosche"/>
    <tag k="addr:housenumber" v="22"/>
    <tag k="addr:postcode" v="29571"/>
    <tag k="addr:street" v="Am Schwarzen Berg"/>
    <tag k="building" v="yes"/>
    <tag k="created_by" v="Merkaartor 0.11"/>
  </way>
  <way id="27374766" version="1" timestamp="2008-09-28T09:12:33Z" uid="61114" user="Trav" changeset="709191">
    <nd ref="300516807"/>
    <nd ref="300516809"/>
    <nd ref="300516811"/>
    <nd ref="300516813"/>
    <nd ref="300516807"/>
    <tag k="created_by" v="Merkaartor 0.13"/>
    <tag k="leisure" v="pitch"/>
    <tag k="name" v="Cammeray Tennis Club"/>
    <tag k="sport" v="tennis"/>
  </way>
  <way id="27374766" version="2" timestamp="2010-01-03T03:50:31Z" uid="69319" user="Rhubarb" changeset="3525258">
    <nd ref="300516807"/>
    <nd ref="300516809"/>
    <nd ref="603440129"/>
    <nd ref="603440130"/>
    <nd ref="300516811"/>
    <nd ref="300516813"/>
    <nd ref="603440123"/>
    <nd ref="603440124"/>
    <nd ref="300516807"/>
    <tag k="leisure" v="pitch"/>
    <tag k="name" v="Cammeray Tennis Club"/>
    <tag k="sport" v="tennis"/>
  </way>
  <way id="27374768" version="1" timestamp="2008-09-28T09:12:37Z" uid="61114" user="Trav" changeset="709191">
    <nd ref="300516818"/>
    <nd ref="300516820"/>
    <nd ref="300516821"/>
    <nd ref="300516823"/>
    <nd ref="300516825"/>
    <nd ref="300516827"/>
    <nd ref="300516818"/>
    <tag k="created_by" v="Merkaartor 0.13"/>
    <tag k="leisure" v="pitch"/>
    <tag k="name" v="Cammery Croquet Club"/>
    <tag k="sport" v="croquet"/>
  </way>
  <way id="27374769" version="1" timestamp="2008-09-28T09:12:39Z" uid="61114" user="Trav" changeset="709191">
    <nd ref="300516829"/>
    <nd ref="300516832"/>
    <nd ref="300516834"/>
    <nd ref="300516836"/>
    <nd ref="300516829"/>
    <tag k="created_by" v="Merkaartor 0.13"/>
    <tag k="leisure" v="pitch"/>
    <tag k="source" v="yahoo_imagery"/>
  </way>
  <way id="27374818" version="1" timestamp="2008-09-28T09:14:48Z" uid="43863" user="Rundling" changeset="713017">
    <nd ref="300517317"/>
    <nd ref="300517320"/>
    <nd ref="300517319"/>
    <nd ref="300517318"/>
    <nd ref="300517317"/>
    <tag k="addr:city" v="Rosche"/>
    <tag k="addr:housenumber" v="7"/>
    <tag k="addr:postcode" v="29571"/>
    <tag k="addr:street" v="Gartenstraße"/>
    <tag k="building" v="yes"/>
    <tag k="created_by" v="Merkaartor 0.11"/>
  </way>
  <way id="27374820" version="1" timestamp="2008-09-28T09:14:49Z" uid="43863" user="Rundling" changeset="713017">
    <nd ref="300517324"/>
    <nd ref="300517322"/>
    <nd ref="300517323"/>
    <nd ref="300517321"/>
    <nd ref="300517324"/>
    <tag k="addr:city" v="Rosche"/>
    <tag k="addr:housenumber" v="5"/>
    <tag k="addr:postcode" v="29571"/>
    <tag k="addr:street" v="Gartenstraße"/>
    <tag k="building" v="yes"/>
    <tag k="created_by" v="Merkaartor 0.11"/>
  </way>
  <way id="27374821" version="1" timestamp="2008-09-28T09:14:49Z" uid="43863" user="Rundling" changeset="713017">
    <nd ref="300517333"/>
    <nd ref="300517326"/>
    <nd ref="300517332"/>
    <nd ref="300517325"/>
    <nd ref="300517333"/>
    <tag k="addr:city" v="Rosche"/>
    <tag k="addr:housenumber" v="3"/>
    <tag k="addr:postcode" v="29571"/>
    <tag k="addr:street" v="Gartenstraße"/>
    <tag k="building" v="yes"/>
    <tag k="created_by" v="Merkaartor 0.11"/>
  </way>
  <way id="27374822" version="1" timestamp="2008-09-28T09:14:50Z" uid="43863" user="Rundling" changeset="713017">
    <nd ref="300517337"/>
    <nd ref="300517335"/>
    <nd ref="300517336"/>
    <nd ref="300517334"/>
    <nd ref="300517337"/>
    <tag k="addr:city" v="Rosche"/>
    <tag k="addr:housenumber" v="1"/>
    <tag k="addr:postcode" v="29571"/>
    <tag k="addr:street" v="Gartenstraße"/>
    <tag k="building" v="yes"/>
    <tag k="created_by" v="Merkaartor 0.11"/>
  </way>
  <way id="27374826" version="4" timestamp="2010-03-28T00:09:27Z" uid="20587" user="balrog-kun" changeset="4250871">
    <nd ref="276546183"/>
    <nd ref="300515687"/>
    <nd ref="300515689"/>
    <nd ref="300515691"/>
    <nd ref="300515693"/>
    <nd ref="276543853"/>
    <nd ref="65314340"/>
    <tag k="highway" v="secondary"/>
    <tag k="name" v="13th Street"/>
    <tag k="oneway" v="yes"/>
    <tag k="tiger:cfcc" v="A41"/>
    <tag k="tiger:county" v="San Francisco, CA"/>
    <tag k="tiger:name_base" v="13th"/>
    <tag k="tiger:name_type" v="St"/>
    <tag k="tiger:separated" v="no"/>
    <tag k="tiger:source" v="tiger_import_dch_v0.6_20070809"/>
    <tag k="tiger:tlid" v="192301165:192301230:192301231:192301233:192302945:192301227"/>
  </way>
  <way id="27374870" version="1" timestamp="2008-09-28T09:17:26Z" uid="43863" user="Rundling" changeset="713017">
    <nd ref="300517812"/>
    <nd ref="300517810"/>
    <nd ref="300517811"/>
    <nd ref="300517809"/>
    <nd ref="300517812"/>
    <tag k="addr:city" v="Rosche"/>
    <tag k="addr:housenumber" v="15"/>
    <tag k="addr:postcode" v="29571"/>
    <tag k="addr:street" v="Uelzener Straße"/>
    <tag k="building" v="yes"/>
    <tag k="created_by" v="Merkaartor 0.11"/>
  </way>
  <way id="27374871" version="1" timestamp="2008-09-28T09:17:26Z" uid="43863" user="Rundling" changeset="713017">
    <nd ref="300517816"/>
    <nd ref="300517814"/>
    <nd ref="300517815"/>
    <nd ref="300517813"/>
    <nd ref="300517816"/>
    <tag k="addr:city" v="Rosche"/>
    <tag k="addr:housenumber" v="13"/>
    <tag k="addr:postcode" v="29571"/>
    <tag k="addr:street" v="Uelzener Straße"/>
    <tag k="building" v="yes"/>
    <tag k="created_by" v="Merkaartor 0.11"/>
  </way>
  <way id="27374938" version="4" timestamp="2010-08-28T15:11:38Z" uid="43967" user="railsnail" changeset="5616969">
    <nd ref="276500711"/>
    <nd ref="276500712"/>
    <nd ref="276500713"/>
    <nd ref="276500714"/>
    <nd ref="276500715"/>
    <nd ref="276500716"/>
    <nd ref="884658838"/>
    <nd ref="276500717"/>
    <nd ref="276500718"/>
    <nd ref="276500719"/>
    <nd ref="276500720"/>
    <nd ref="276500721"/>
    <tag k="highway" v="secondary"/>
    <tag k="name" v="Großdorf"/>
    <tag k="ref" v="L26"/>
  </way>
  <way id="27374938" version="5" timestamp="2011-08-12T20:29:41Z" uid="504558" user="mawobi" changeset="8999688">
    <nd ref="276500711"/>
    <nd ref="276500712"/>
    <nd ref="276500713"/>
    <nd ref="276500714"/>
    <nd ref="276500715"/>
    <nd ref="276500716"/>
    <nd ref="884658838"/>
    <nd ref="276500717"/>
    <nd ref="276500718"/>
    <nd ref="276500719"/>
    <nd ref="276500720"/>
    <nd ref="1396421810"/>
    <nd ref="1396421812"/>
    <nd ref="276500721"/>
    <tag k="highway" v="secondary"/>
    <tag k="name" v="Großdorf"/>
    <tag k="ref" v="L26"/>
  </way>
  <way id="27374938" version="6" timestamp="2012-02-09T11:04:28Z" uid="45481" user="borisC" changeset="10632678"/>
  <way id="27374950" version="1" timestamp="2008-09-28T09:21:22Z" uid="43863" user="Rundling" changeset="713017">
    <nd ref="300518634"/>
    <nd ref="300518636"/>
    <tag k="access" v="private"/>
    <tag k="highway" v="service"/>
    <tag k="surface" v="paved"/>
  </way>
  <way id="27374950" version="2" timestamp="2010-07-12T19:22:50Z" uid="43863" user="Rundling" changeset="5201894">
    <nd ref="300518634"/>
    <nd ref="813870213"/>
    <tag k="access" v="private"/>
    <tag k="highway" v="service"/>
    <tag k="surface" v="paved"/>
  </way>
  <way id="27374992" version="1" timestamp="2008-09-28T09:23:38Z" uid="61114" user="Trav" changeset="709191">
    <nd ref="300518984"/>
    <nd ref="300518985"/>
    <nd ref="300518986"/>
    <nd ref="300518987"/>
    <nd ref="300518988"/>
    <nd ref="300518989"/>
    <nd ref="300518990"/>
    <nd ref="300518991"/>
    <nd ref="300518992"/>
    <nd ref="300518993"/>
    <nd ref="300518994"/>
    <nd ref="300518995"/>
    <nd ref="300518984"/>
    <tag k="created_by" v="Merkaartor 0.13"/>
    <tag k="layer" v="-1"/>
    <tag k="leisure" v="park"/>
    <tag k="name" v="Brightmore Reserve"/>
  </way>
  <way id="27374992" version="2" timestamp="2008-09-28T09:24:16Z" uid="61114" user="Trav" changeset="709191">
    <nd ref="300518984"/>
    <nd ref="300518985"/>
    <nd ref="300518986"/>
    <nd ref="300518987"/>
    <nd ref="300518988"/>
    <nd ref="300518989"/>
    <nd ref="300518990"/>
    <nd ref="300518991"/>
    <nd ref="300518992"/>
    <nd ref="300518993"/>
    <nd ref="300518994"/>
    <nd ref="300518995"/>
    <nd ref="300518984"/>
    <tag k="created_by" v="Merkaartor 0.13"/>
    <tag k="layer" v="-1"/>
    <tag k="leisure" v="park"/>
    <tag k="name" v="Brightmore Reserve"/>
    <tag k="source" v="yahoo_imagery"/>
    <tag k="source:name" v="survey"/>
  </way>
  <way id="27374992" version="3" timestamp="2010-07-28T08:41:10Z" uid="4467" user="Rosscoe" changeset="5335972">
    <nd ref="300518984"/>
    <nd ref="300518985"/>
    <nd ref="300518986"/>
    <nd ref="300518987"/>
    <nd ref="300518988"/>
    <nd ref="300518989"/>
    <nd ref="300518990"/>
    <nd ref="300518991"/>
    <nd ref="300518992"/>
    <nd ref="300518993"/>
    <nd ref="300518994"/>
    <nd ref="836109663"/>
    <nd ref="836109649"/>
    <nd ref="836109660"/>
    <nd ref="300518995"/>
    <nd ref="300518984"/>
    <tag k="layer" v="-1"/>
    <tag k="leisure" v="park"/>
    <tag k="name" v="Brightmore Reserve"/>
    <tag k="source" v="yahoo_imagery"/>
    <tag k="source:name" v="survey"/>
  </way>
  <way id="27374993" version="1" timestamp="2008-09-28T09:23:41Z" uid="61114" user="Trav" changeset="709191">
    <nd ref="300518996"/>
    <nd ref="300518997"/>
    <nd ref="300518998"/>
    <nd ref="300518999"/>
    <nd ref="300519000"/>
    <nd ref="300519001"/>
    <nd ref="300518996"/>
    <tag k="amenity" v="parking"/>
    <tag k="created_by" v="Merkaartor 0.13"/>
  </way>
  <way id="27374993" version="2" timestamp="2010-01-10T06:39:03Z" uid="69319" user="Rhubarb" changeset="3584319">
    <nd ref="300518996"/>
    <nd ref="300518997"/>
    <nd ref="610745707"/>
    <nd ref="610745708"/>
    <nd ref="610745709"/>
    <nd ref="300518998"/>
    <nd ref="610745710"/>
    <nd ref="300518999"/>
    <nd ref="300519000"/>
    <nd ref="610745711"/>
    <nd ref="610745712"/>
    <nd ref="300519001"/>
    <nd ref="300518996"/>
    <tag k="amenity" v="parking"/>
    <tag k="source" v="nearmap"/>
  </way>
  <way id="27374995" version="1" timestamp="2008-09-28T09:23:43Z" uid="61114" user="Trav" changeset="709191">
    <nd ref="300519003"/>
    <nd ref="300519004"/>
    <nd ref="300519017"/>
    <nd ref="300519028"/>
    <nd ref="300519003"/>
    <tag k="created_by" v="Merkaartor 0.13"/>
    <tag k="leisure" v="pitch"/>
    <tag k="source" v="yahoo_imagery"/>
    <tag k="sport" v="tennis"/>
  </way>
  <way id="27374995" version="2" timestamp="2009-05-10T07:39:31Z" uid="123458" user="Andrew Waites" changeset="1135664">
    <nd ref="300519003"/>
    <nd ref="300519004"/>
    <nd ref="300519017"/>
    <nd ref="300519028"/>
    <nd ref="300519003"/>
    <tag k="created_by" v="Merkaartor 0.13"/>
    <tag k="leisure" v="sports_centre"/>
    <tag k="source" v="yahoo_imagery"/>
    <tag k="sport" v="tennis"/>
  </way>
  <way id="27374995" version="3" timestamp="2010-01-06T09:17:28Z" uid="9477" user="NilbogAus" changeset="3551706">
    <nd ref="300519003"/>
    <nd ref="300519004"/>
    <nd ref="300519017"/>
    <nd ref="300519028"/>
    <nd ref="300519003"/>
    <tag k="barrier" v="fence"/>
    <tag k="leisure" v="sports_centre"/>
    <tag k="source" v="survey"/>
    <tag k="sport" v="tennis"/>
  </way>
  <way id="27374995" version="4" timestamp="2010-01-12T05:21:19Z" uid="69319" user="Rhubarb" changeset="3600945">
    <nd ref="300519003"/>
    <nd ref="300519004"/>
    <nd ref="300519017"/>
    <nd ref="300519028"/>
    <nd ref="300519003"/>
    <tag k="barrier" v="fence"/>
    <tag k="leisure" v="pitch"/>
    <tag k="source" v="survey"/>
    <tag k="sport" v="tennis"/>
  </way>
  <way id="27374556" version="2" timestamp="2012-07-19T21:41:33Z" uid="722137" user="OSMF Redaction Account" changeset="12348779"/>
  <way id="27374557" version="3" timestamp="2012-07-19T21:41:38Z" uid="722137" user="OSMF Redaction Account" changeset="12348779"/>
  <way id="27374558" version="3" timestamp="2012-07-19T21:41:38Z" uid="722137" user="OSMF Redaction Account" changeset="12348779"/>
  <way id="27374560" version="2" timestamp="2012-07-19T21:41:38Z" uid="722137" user="OSMF Redaction Account" changeset="12348779"/>
  <way id="27374561" version="6" timestamp="2012-07-19T09:04:28Z" uid="713671" user="auspod" changeset="12314663">
    <nd ref="29421399"/>
    <nd ref="253731200"/>
    <nd ref="29421426"/>
    <nd ref="29421427"/>
    <nd ref="29421428"/>
    <nd ref="29421429"/>
    <nd ref="29421430"/>
    <nd ref="29421431"/>
    <nd ref="1830554636"/>
    <nd ref="1830554630"/>
    <tag k="highway" v="residential"/>
    <tag k="lcn" v="yes"/>
    <tag k="name" v="Earle Street"/>
    <tag k="source" v="survey"/>
    <tag k="source:name" v="survey"/>
  </way>
  <way id="27374561" version="7" timestamp="2012-07-19T21:32:00Z" uid="722137" user="OSMF Redaction Account" changeset="12348236">
    <nd ref="1830554636"/>
    <nd ref="1830554630"/>
    <tag k="lcn" v="yes"/>
  </way>
  <way id="27374561" version="8" timestamp="2012-08-02T16:50:11Z" uid="510836" user="Rub21" changeset="12588148">
    <nd ref="1830554636"/>
    <nd ref="1830554630"/>
    <tag k="highway" v="residential"/>
    <tag k="lcn" v="yes"/>
  </way>
  <way id="27374562" version="6" timestamp="2012-07-19T21:41:44Z" uid="722137" user="OSMF Redaction Account" changeset="12348779"/>
  <way id="27374564" version="2" timestamp="2012-07-19T21:41:33Z" uid="722137" user="OSMF Redaction Account" changeset="12348779"/>
  <way id="27374565" version="2" timestamp="2012-07-19T21:41:33Z" uid="722137" user="OSMF Redaction Account" changeset="12348779"/>
  <way id="27374568" version="2" timestamp="2012-07-19T21:41:33Z" uid="722137" user="OSMF Redaction Account" changeset="12348779"/>
  <way id="27374569" version="2" timestamp="2012-07-19T21:41:33Z" uid="722137" user="OSMF Redaction Account" changeset="12348779"/>
  <way id="27374571" version="3" timestamp="2012-07-19T21:41:34Z" uid="722137" user="OSMF Redaction Account" changeset="12348779"/>
  <way id="27374605" version="2" timestamp="2012-07-21T20:59:47Z" uid="722137" user="OSMF Redaction Account" changeset="12420098"/>
  <way id="27374606" version="3" timestamp="2012-07-21T20:59:47Z" uid="722137" user="OSMF Redaction Account" changeset="12420098"/>
  <way id="27374623" version="2" timestamp="2012-07-18T15:38:42Z" uid="722137" user="OSMF Redaction Account" changeset="12287287"/>
  <way id="27374624" version="3" timestamp="2012-06-05T22:40:50Z" uid="51324" user="OPerivar" changeset="11811205"/>
  <way id="27374625" version="5" timestamp="2012-07-18T15:38:43Z" uid="722137" user="OSMF Redaction Account" changeset="12287287"/>
  <way id="27374626" version="3" timestamp="2012-06-05T22:40:51Z" uid="51324" user="OPerivar" changeset="11811205"/>
  <way id="27374627" version="2" timestamp="2012-06-05T22:40:51Z" uid="51324" user="OPerivar" changeset="11811205"/>
  <way id="27374628" version="3" timestamp="2012-06-05T22:40:51Z" uid="51324" user="OPerivar" changeset="11811205"/>
  <way id="27374629" version="3" timestamp="2012-07-18T15:38:46Z" uid="722137" user="OSMF Redaction Account" changeset="12287313"/>
  <way id="27374712" version="4" timestamp="2012-06-05T22:40:51Z" uid="51324" user="OPerivar" changeset="11811205"/>
  <way id="27374713" version="4" timestamp="2012-06-05T22:40:51Z" uid="51324" user="OPerivar" changeset="11811205"/>
  <way id="27374715" version="4" timestamp="2012-07-18T15:38:39Z" uid="722137" user="OSMF Redaction Account" changeset="12287287"/>
  <way id="27374716" version="4" timestamp="2012-06-05T22:40:50Z" uid="51324" user="OPerivar" changeset="11811205"/>
  <way id="27374717" version="3" timestamp="2012-06-05T22:40:51Z" uid="51324" user="OPerivar" changeset="11811205"/>
  <way id="27374719" version="3" timestamp="2012-07-18T15:38:42Z" uid="722137" user="OSMF Redaction Account" changeset="12287287"/>
  <way id="27374720" version="3" timestamp="2012-06-05T22:40:51Z" uid="51324" user="OPerivar" changeset="11811205"/>
  <way id="27374722" version="3" timestamp="2012-07-18T15:38:43Z" uid="722137" user="OSMF Redaction Account" changeset="12287287"/>
  <way id="27374723" version="2" timestamp="2012-07-18T15:38:46Z" uid="722137" user="OSMF Redaction Account" changeset="12287313"/>
  <way id="27374766" version="3" timestamp="2012-07-19T21:35:37Z" uid="722137" user="OSMF Redaction Account" changeset="12348543">
    <nd ref="603440129"/>
    <nd ref="603440130"/>
    <nd ref="603440123"/>
    <nd ref="603440124"/>
  </way>
  <way id="27374766" version="4" timestamp="2012-08-24T06:44:41Z" uid="69319" user="Rhubarb" changeset="12841209">
    <nd ref="603440129"/>
    <nd ref="1880406637"/>
    <nd ref="603440130"/>
    <nd ref="603440123"/>
    <nd ref="603440124"/>
    <nd ref="300516809"/>
    <nd ref="603440129"/>
    <tag k="leisure" v="pitch"/>
    <tag k="source" v="bing"/>
    <tag k="sport" v="tennis"/>
  </way>
  <way id="27374768" version="2" timestamp="2012-07-19T21:41:36Z" uid="722137" user="OSMF Redaction Account" changeset="12348779"/>
  <way id="27374769" version="2" timestamp="2012-07-19T21:41:37Z" uid="722137" user="OSMF Redaction Account" changeset="12348779"/>
  <way id="27374818" version="2" timestamp="2012-07-18T16:31:22Z" uid="722137" user="OSMF Redaction Account" changeset="12288916"/>
  <way id="27374820" version="2" timestamp="2012-07-18T16:31:23Z" uid="722137" user="OSMF Redaction Account" changeset="12288916"/>
  <way id="27374821" version="2" timestamp="2012-07-18T16:31:25Z" uid="722137" user="OSMF Redaction Account" changeset="12288916"/>
  <way id="27374822" version="2" timestamp="2012-07-18T16:31:26Z" uid="722137" user="OSMF Redaction Account" changeset="12288916"/>
  <way id="27374870" version="2" timestamp="2012-07-18T16:31:27Z" uid="722137" user="OSMF Redaction Account" changeset="12288916"/>
  <way id="27374871" version="2" timestamp="2012-07-18T16:31:30Z" uid="722137" user="OSMF Redaction Account" changeset="12288951"/>
  <way id="27374950" version="3" timestamp="2012-04-13T16:12:18Z" uid="161619" user="FvGordon" changeset="11289274">
    <nd ref="1714692751"/>
    <nd ref="811663440"/>
    <nd ref="813870213"/>
    <tag k="access" v="private"/>
    <tag k="highway" v="service"/>
    <tag k="surface" v="paved"/>
  </way>
  <way id="27374950" version="4" timestamp="2012-07-18T16:30:22Z" uid="722137" user="OSMF Redaction Account" changeset="12288916">
    <nd ref="1714692751"/>
    <nd ref="811663440"/>
  </way>
  <way id="27374950" version="5" timestamp="2012-07-26T23:06:38Z" uid="51324" user="OPerivar" changeset="12505414"/>
  <way id="27374992" version="4" timestamp="2012-07-19T21:41:44Z" uid="722137" user="OSMF Redaction Account" changeset="12348779"/>
  <way id="27374993" version="3" timestamp="2012-07-19T21:35:55Z" uid="722137" user="OSMF Redaction Account" changeset="12348543">
    <nd ref="610745707"/>
    <nd ref="610745708"/>
    <nd ref="610745709"/>
    <nd ref="610745710"/>
    <nd ref="610745711"/>
    <nd ref="610745712"/>
    <tag k="source" v="nearmap"/>
  </way>
  <way id="27374995" version="5" timestamp="2012-07-19T21:41:42Z" uid="722137" user="OSMF Redaction Account" changeset="12348779"/>
</osm>
