<?xml version='1.0' encoding='UTF-8'?>
<osm version="0.6" generator="libosmium/2.20.0">
  <way id="27477000" version="11" timestamp="2011-02-28T11:14:37Z" uid="30632" user="antblant" changeset="7419545">
    <nd ref="301670856"/>
    <nd ref="1023258419"/>
    <nd ref="1028167539"/>
    <tag k="addr:city" v="Gdańsk"/>
    <tag k="addr:country" v="PL"/>
    <tag k="addr:housenumber" v="2"/>
    <tag k="addr:street" v="Sebastiana Fabiana Klonowicza"/>
    <tag k="building" v="yes"/>
    <tag k="highway" v="residential"/>
    <tag k="name" v="Sebastiana Fabiana Klonowicza"/>
    <tag k="source" v="UMP-PL, ./UMP-Gdansk/src/GDANSK.ulice.txt"/>
  </way>
  <way id="27477000" version="12" timestamp="2011-03-13T00:01:03Z" uid="30632" user="antblant" changeset="7539780">
    <nd ref="301670856"/>
    <nd ref="1023258419"/>
    <nd ref="1028167539"/>
    <tag k="highway" v="residential"/>
    <tag k="name" v="Sebastiana Fabiana Klonowicza"/>
    <tag k="source" v="UMP-PL, ./UMP-Gdansk/src/GDANSK.ulice.txt"/>
  </way>
  <way id="27477000" version="13" timestamp="2012-02-22T17:20:21Z" uid="378154" user="rosomak" changeset="10761073">
    <nd ref="301670856"/>
    <nd ref="1023258419"/>
    <nd ref="1028167539"/>
    <tag k="highway" v="residential"/>
    <tag k="name" v="Sebastiana Fabiana Klonowicza"/>
  </way>
  <way id="27477015" version="2" timestamp="2009-08-27T19:34:51Z" uid="66036" user="h4v" changeset="2282347">
    <nd ref="301670627"/>
    <nd ref="301679176"/>
    <tag k="highway" v="service"/>
    <tag k="source" v="UMP-PL, ./UMP-Gdansk/src/GDANSK.ulice.txt"/>
  </way>
  <way id="27477015" version="3" timestamp="2011-01-19T00:52:40Z" uid="378154" user="rosomak" changeset="7016564"/>
  <way id="27477020" version="3" timestamp="2009-09-02T21:59:03Z" uid="66036" user="h4v" changeset="2354341">
    <nd ref="301671857"/>
    <nd ref="301672590"/>
    <nd ref="301672534"/>
    <nd ref="301672587"/>
    <nd ref="301672498"/>
    <nd ref="301686285"/>
    <nd ref="301680462"/>
    <nd ref="276037358"/>
    <tag k="highway" v="residential"/>
    <tag k="name" v="Modra"/>
    <tag k="source" v="UMP-PL, ./UMP-Gdansk/src/GDANSK.ulice.txt"/>
  </way>
  <way id="27477020" version="4" timestamp="2010-07-05T21:23:47Z" uid="86932" user="bialy111" changeset="5145847">
    <nd ref="301671857"/>
    <nd ref="301672590"/>
    <nd ref="301672534"/>
    <nd ref="301672587"/>
    <nd ref="301672498"/>
    <nd ref="301686285"/>
    <nd ref="301680462"/>
    <nd ref="276037358"/>
    <nd ref="802792158"/>
    <tag k="highway" v="residential"/>
    <tag k="name" v="Modra"/>
    <tag k="source" v="UMP-PL, ./UMP-Gdansk/src/GDANSK.ulice.txt"/>
  </way>
  <way id="27477020" version="5" timestamp="2010-07-05T21:25:20Z" uid="86932" user="bialy111" changeset="5145847">
    <nd ref="802792158"/>
    <nd ref="276037358"/>
    <nd ref="301680462"/>
    <nd ref="301686285"/>
    <nd ref="301672498"/>
    <nd ref="301672587"/>
    <nd ref="301672534"/>
    <nd ref="301672590"/>
    <nd ref="301671857"/>
    <tag k="highway" v="residential"/>
    <tag k="name" v="Modra"/>
    <tag k="source" v="UMP-PL, ./UMP-Gdansk/src/GDANSK.ulice.txt"/>
  </way>
  <way id="27477020" version="6" timestamp="2011-05-04T23:28:45Z" uid="378154" user="rosomak" changeset="8053581">
    <nd ref="802792158"/>
    <nd ref="276037358"/>
    <nd ref="301686285"/>
    <nd ref="301672498"/>
    <nd ref="301672587"/>
    <nd ref="301672534"/>
    <nd ref="301672590"/>
    <nd ref="301671857"/>
    <tag k="highway" v="residential"/>
    <tag k="name" v="Modra"/>
    <tag k="source" v="UMP-PL, ./UMP-Gdansk/src/GDANSK.ulice.txt"/>
  </way>
  <way id="27477020" version="7" timestamp="2011-05-07T17:42:51Z" uid="378154" user="rosomak" changeset="8075373"/>
  <way id="27477024" version="2" timestamp="2009-09-02T21:59:00Z" uid="66036" user="h4v" changeset="2354341">
    <nd ref="301683471"/>
    <nd ref="301683472"/>
    <nd ref="301683473"/>
    <nd ref="301683474"/>
    <nd ref="301683475"/>
    <nd ref="301683460"/>
    <nd ref="301683461"/>
    <nd ref="301683462"/>
    <nd ref="301683463"/>
    <nd ref="481450948"/>
    <nd ref="301683464"/>
    <nd ref="301683465"/>
    <nd ref="301683466"/>
    <nd ref="301683220"/>
    <tag k="highway" v="footway"/>
    <tag k="source" v="UMP-PL, ./UMP-Gdansk/src/GDANSK.ulice.txt"/>
  </way>
  <way id="27477028" version="2" timestamp="2009-12-19T15:57:50Z" uid="20587" user="balrog-kun" changeset="3407737">
    <nd ref="301673003"/>
    <nd ref="301682645"/>
    <nd ref="301682646"/>
    <nd ref="596395564"/>
    <nd ref="301671574"/>
    <tag k="highway" v="footway"/>
    <tag k="source" v="UMP-PL, ./UMP-Gdansk/src/GDANSK.ulice.txt"/>
  </way>
  <way id="27477049" version="4" timestamp="2009-12-19T15:57:46Z" uid="20587" user="balrog-kun" changeset="3407737">
    <nd ref="255723316"/>
    <nd ref="596395528"/>
    <nd ref="301686080"/>
    <nd ref="301686081"/>
    <nd ref="301686119"/>
    <nd ref="301686077"/>
    <nd ref="301678655"/>
    <tag k="highway" v="service"/>
    <tag k="name" v="Kartuska"/>
    <tag k="source" v="UMP-PL, ./UMP-Gdansk/src/GDANSK.ulice.txt"/>
  </way>
  <way id="27477049" version="5" timestamp="2011-03-19T15:38:47Z" uid="378154" user="rosomak" changeset="7606251">
    <nd ref="255723316"/>
    <nd ref="596395528"/>
    <nd ref="301686080"/>
    <nd ref="301686081"/>
    <nd ref="301686119"/>
    <nd ref="1209115280"/>
    <nd ref="1209115270"/>
    <nd ref="1209115258"/>
    <nd ref="1209115180"/>
    <nd ref="301686077"/>
    <nd ref="1209115192"/>
    <nd ref="301678655"/>
    <tag k="highway" v="service"/>
    <tag k="name" v="Kartuska"/>
    <tag k="source" v="UMP-PL, ./UMP-Gdansk/src/GDANSK.ulice.txt"/>
  </way>
  <way id="27477053" version="4" timestamp="2009-05-07T08:51:20Z" uid="30632" user="antblant" changeset="1104842">
    <nd ref="301679837"/>
    <nd ref="301679859"/>
    <nd ref="301671579"/>
    <tag k="created_by" v="JOSM"/>
    <tag k="highway" v="primary"/>
    <tag k="int_ref" v="E 75;E 77"/>
    <tag k="name" v="Jana z Kolna"/>
    <tag k="ref" v="1"/>
    <tag k="source" v="UMP-PL, ./UMP-Gdansk/src/GDANSK.ulice.txt"/>
  </way>
  <way id="27477053" version="5" timestamp="2010-01-29T11:51:45Z" uid="203293" user="mard91" changeset="3742509">
    <nd ref="301679837"/>
    <nd ref="301679859"/>
    <nd ref="622327433"/>
    <nd ref="301671579"/>
    <tag k="highway" v="primary"/>
    <tag k="int_ref" v="E 75;E 77"/>
    <tag k="name" v="Jana z Kolna"/>
    <tag k="ref" v="1"/>
    <tag k="source" v="UMP-PL, ./UMP-Gdansk/src/GDANSK.ulice.txt"/>
  </way>
  <way id="27477053" version="6" timestamp="2010-06-06T15:01:05Z" uid="86932" user="bialy111" changeset="4918460">
    <nd ref="301679837"/>
    <nd ref="301679859"/>
    <tag k="highway" v="primary"/>
    <tag k="int_ref" v="E 75;E 77"/>
    <tag k="name" v="Jana z Kolna"/>
    <tag k="ref" v="1"/>
    <tag k="source" v="UMP-PL, ./UMP-Gdansk/src/GDANSK.ulice.txt"/>
  </way>
  <way id="27477053" version="7" timestamp="2010-06-26T18:29:44Z" uid="86932" user="bialy111" changeset="5083004">
    <nd ref="301679837"/>
    <nd ref="301679859"/>
    <tag k="highway" v="primary"/>
    <tag k="int_ref" v="E 75;E 77"/>
    <tag k="name" v="Jana z Kolna"/>
    <tag k="oneway" v="yes"/>
    <tag k="ref" v="1"/>
    <tag k="source" v="UMP-PL, ./UMP-Gdansk/src/GDANSK.ulice.txt"/>
  </way>
  <way id="27477053" version="8" timestamp="2011-11-13T13:44:13Z" uid="378154" user="rosomak" changeset="9814042">
    <nd ref="301679859"/>
    <tag k="highway" v="primary"/>
    <tag k="int_ref" v="E 75;E 77"/>
    <tag k="name" v="Jana z Kolna"/>
    <tag k="oneway" v="yes"/>
    <tag k="ref" v="1"/>
    <tag k="source" v="UMP-PL, ./UMP-Gdansk/src/GDANSK.ulice.txt"/>
  </way>
  <way id="27477053" version="9" timestamp="2012-02-20T01:12:14Z" uid="467703" user="Zbigniew Czernik" changeset="10736568">
    <nd ref="301679859"/>
    <tag k="highway" v="primary"/>
    <tag k="int_ref" v="E 75;E 77"/>
    <tag k="name" v="Jana z Kolna"/>
    <tag k="oneway" v="yes"/>
    <tag k="ref" v="1"/>
  </way>
  <way id="27477053" version="10" timestamp="2012-03-20T20:55:31Z" uid="39504" user="malenki" changeset="11045462"/>
  <way id="27477057" version="2" timestamp="2009-09-02T20:58:41Z" uid="66036" user="h4v" changeset="2353898">
    <nd ref="301673259"/>
    <nd ref="301673265"/>
    <nd ref="301673261"/>
    <nd ref="301673273"/>
    <nd ref="301673269"/>
    <nd ref="481393268"/>
    <nd ref="301673051"/>
    <tag k="highway" v="service"/>
    <tag k="source" v="UMP-PL, ./UMP-Gdansk/src/GDANSK.ulice.txt"/>
  </way>
  <way id="27477076" version="3" timestamp="2009-08-27T19:34:55Z" uid="66036" user="h4v" changeset="2282347">
    <nd ref="301682732"/>
    <nd ref="301682714"/>
    <nd ref="301682725"/>
    <tag k="highway" v="residential"/>
    <tag k="name" v="Pola"/>
    <tag k="source" v="UMP-PL, ./UMP-Gdansk/src/GDANSK.ulice.txt"/>
  </way>
  <way id="27477076" version="4" timestamp="2009-08-31T07:49:28Z" uid="66036" user="h4v" changeset="2323230">
    <nd ref="301682732"/>
    <nd ref="478544916"/>
    <nd ref="301682714"/>
    <nd ref="301682725"/>
    <tag k="highway" v="residential"/>
    <tag k="name" v="Pola"/>
    <tag k="source" v="UMP-PL, ./UMP-Gdansk/src/GDANSK.ulice.txt"/>
  </way>
  <way id="27477076" version="5" timestamp="2011-02-17T17:52:49Z" uid="378154" user="rosomak" changeset="7315456">
    <nd ref="301682732"/>
    <nd ref="478544916"/>
    <nd ref="301682714"/>
    <nd ref="301682725"/>
    <tag k="highway" v="residential"/>
    <tag k="name" v="Wincentego Pola"/>
  </way>
  <way id="27477084" version="3" timestamp="2009-09-02T21:46:00Z" uid="66036" user="h4v" changeset="2354271">
    <nd ref="301672444"/>
    <nd ref="481443516"/>
    <nd ref="301672472"/>
    <tag k="highway" v="residential"/>
    <tag k="name" v="Siennicka"/>
    <tag k="source" v="UMP-PL, ./UMP-Gdansk/src/GDANSK.ulice.txt"/>
  </way>
  <way id="27477084" version="4" timestamp="2011-05-08T12:23:20Z" uid="378154" user="rosomak" changeset="8082050">
    <nd ref="301672444"/>
    <nd ref="1276975200"/>
    <nd ref="481443516"/>
    <nd ref="301672472"/>
    <tag k="highway" v="residential"/>
    <tag k="name" v="Siennicka"/>
    <tag k="source" v="UMP-PL, ./UMP-Gdansk/src/GDANSK.ulice.txt"/>
  </way>
  <way id="27477090" version="3" timestamp="2009-09-02T21:59:00Z" uid="66036" user="h4v" changeset="2354341">
    <nd ref="301672473"/>
    <nd ref="481450942"/>
    <nd ref="301672474"/>
    <nd ref="301672475"/>
    <nd ref="301672476"/>
    <nd ref="301672477"/>
    <nd ref="301672478"/>
    <tag k="highway" v="residential"/>
    <tag k="name" v="Elbląska"/>
    <tag k="source" v="UMP-PL, ./UMP-Gdansk/src/GDANSK.ulice.txt"/>
  </way>
  <way id="27477090" version="4" timestamp="2011-01-30T02:29:27Z" uid="378154" user="rosomak" changeset="7129759">
    <nd ref="481450942"/>
    <nd ref="301672474"/>
    <nd ref="301672475"/>
    <nd ref="301672476"/>
    <nd ref="301672477"/>
    <nd ref="301672478"/>
    <tag k="highway" v="residential"/>
    <tag k="name" v="Elbląska"/>
    <tag k="source" v="UMP-PL, ./UMP-Gdansk/src/GDANSK.ulice.txt"/>
  </way>
  <way id="27477092" version="2" timestamp="2008-11-21T00:11:50Z" uid="30632" user="antblant" changeset="775255">
    <nd ref="301671911"/>
    <nd ref="301679206"/>
    <tag k="bridge" v="yes"/>
    <tag k="created_by" v="Potlatch 0.10f"/>
    <tag k="highway" v="footway"/>
    <tag k="layer" v="1"/>
    <tag k="source" v="UMP-PL, ./UMP-Gdansk/src/GDANSK.ulice.txt"/>
  </way>
  <way id="27477100" version="4" timestamp="2009-12-19T15:57:44Z" uid="20587" user="balrog-kun" changeset="3407737">
    <nd ref="301670332"/>
    <nd ref="301678301"/>
    <nd ref="301676574"/>
    <nd ref="301678306"/>
    <nd ref="301684725"/>
    <nd ref="596395434"/>
    <nd ref="301676539"/>
    <nd ref="596395439"/>
    <nd ref="301678304"/>
    <nd ref="596395449"/>
    <nd ref="301670948"/>
    <tag k="highway" v="tertiary"/>
    <tag k="name" v="Łostowicka"/>
    <tag k="source" v="UMP-PL, ./UMP-Gdansk/src/GDANSK.ulice.txt"/>
  </way>
  <way id="27477100" version="5" timestamp="2010-05-23T14:18:04Z" uid="91056" user="Yarl" changeset="4783654">
    <nd ref="301670332"/>
    <nd ref="301678301"/>
    <nd ref="301676574"/>
    <nd ref="746496095"/>
    <nd ref="301678306"/>
    <nd ref="301684725"/>
    <nd ref="596395434"/>
    <nd ref="301676539"/>
    <nd ref="596395439"/>
    <nd ref="301678304"/>
    <nd ref="596395449"/>
    <nd ref="301670948"/>
    <tag k="highway" v="tertiary"/>
    <tag k="name" v="Łostowicka"/>
    <tag k="source" v="UMP-PL, ./UMP-Gdansk/src/GDANSK.ulice.txt"/>
  </way>
  <way id="27477100" version="6" timestamp="2010-05-23T20:39:39Z" uid="91056" user="Yarl" changeset="4787638">
    <nd ref="301670332"/>
    <nd ref="746774112"/>
    <nd ref="301678301"/>
    <nd ref="301676574"/>
    <nd ref="746496095"/>
    <nd ref="301678306"/>
    <nd ref="301684725"/>
    <nd ref="746774124"/>
    <nd ref="746774128"/>
    <nd ref="746774103"/>
    <nd ref="596395434"/>
    <nd ref="301676539"/>
    <nd ref="746774142"/>
    <nd ref="746774108"/>
    <nd ref="746774080"/>
    <nd ref="596395439"/>
    <nd ref="301678304"/>
    <nd ref="596395449"/>
    <nd ref="301670948"/>
    <tag k="highway" v="tertiary"/>
    <tag k="name" v="Łostowicka"/>
    <tag k="source" v="UMP-PL, ./UMP-Gdansk/src/GDANSK.ulice.txt"/>
  </way>
  <way id="27477100" version="7" timestamp="2010-05-25T20:41:22Z" uid="91056" user="Yarl" changeset="4807976">
    <nd ref="301670332"/>
    <nd ref="746774112"/>
    <nd ref="301678301"/>
    <nd ref="301676574"/>
    <nd ref="746496095"/>
    <nd ref="301678306"/>
    <nd ref="301684725"/>
    <nd ref="746774124"/>
    <nd ref="746774128"/>
    <nd ref="746774103"/>
    <nd ref="596395434"/>
    <nd ref="301676539"/>
    <nd ref="746774142"/>
    <nd ref="746774108"/>
    <nd ref="746774080"/>
    <nd ref="748346057"/>
    <nd ref="748346059"/>
    <nd ref="596395439"/>
    <nd ref="301678304"/>
    <nd ref="596395449"/>
    <nd ref="301670948"/>
    <tag k="highway" v="tertiary"/>
    <tag k="name" v="Łostowicka"/>
    <tag k="source" v="UMP-PL, ./UMP-Gdansk/src/GDANSK.ulice.txt"/>
  </way>
  <way id="27477100" version="8" timestamp="2011-03-19T23:28:23Z" uid="378154" user="rosomak" changeset="7611513">
    <nd ref="301670332"/>
    <nd ref="746774112"/>
    <nd ref="301678301"/>
    <nd ref="301676574"/>
    <nd ref="746496095"/>
    <nd ref="301678306"/>
    <nd ref="301684725"/>
    <nd ref="746774124"/>
    <nd ref="1209790353"/>
    <nd ref="746774128"/>
    <nd ref="746774103"/>
    <nd ref="596395434"/>
    <nd ref="301676539"/>
    <nd ref="746774142"/>
    <nd ref="746774108"/>
    <nd ref="746774080"/>
    <nd ref="748346057"/>
    <nd ref="748346059"/>
    <nd ref="596395439"/>
    <nd ref="301678304"/>
    <nd ref="596395449"/>
    <nd ref="301670948"/>
    <tag k="highway" v="tertiary"/>
    <tag k="name" v="Łostowicka"/>
    <tag k="source" v="UMP-PL, ./UMP-Gdansk/src/GDANSK.ulice.txt"/>
  </way>
  <way id="27477100" version="9" timestamp="2011-03-25T23:58:41Z" uid="378154" user="rosomak" changeset="7671242">
    <nd ref="301670332"/>
    <nd ref="746774112"/>
    <nd ref="301678301"/>
    <nd ref="301676574"/>
    <nd ref="746496095"/>
    <nd ref="301678306"/>
    <nd ref="301684725"/>
    <nd ref="746774124"/>
    <nd ref="1209790353"/>
    <nd ref="1218300174"/>
    <nd ref="746774128"/>
    <nd ref="746774103"/>
    <nd ref="596395434"/>
    <nd ref="301676539"/>
    <nd ref="746774142"/>
    <nd ref="746774108"/>
    <nd ref="746774080"/>
    <nd ref="748346057"/>
    <nd ref="748346059"/>
    <nd ref="596395439"/>
    <nd ref="301678304"/>
    <nd ref="596395449"/>
    <nd ref="301670948"/>
    <tag k="highway" v="tertiary"/>
    <tag k="name" v="Łostowicka"/>
    <tag k="source" v="UMP-PL, ./UMP-Gdansk/src/GDANSK.ulice.txt"/>
  </way>
  <way id="27477100" version="10" timestamp="2011-10-09T07:23:17Z" uid="378154" user="rosomak" changeset="9509091">
    <nd ref="301670332"/>
    <nd ref="746774112"/>
    <nd ref="301678301"/>
    <nd ref="301676574"/>
    <nd ref="746496095"/>
    <nd ref="301678306"/>
    <nd ref="301684725"/>
    <nd ref="746774124"/>
    <nd ref="1209790353"/>
    <nd ref="1218300174"/>
    <nd ref="746774128"/>
    <nd ref="746774103"/>
    <nd ref="596395434"/>
    <nd ref="301676539"/>
    <nd ref="746774142"/>
    <nd ref="748346057"/>
    <nd ref="748346059"/>
    <nd ref="596395439"/>
    <nd ref="301678304"/>
    <nd ref="596395449"/>
    <nd ref="301670948"/>
    <tag k="highway" v="tertiary"/>
    <tag k="name" v="Łostowicka"/>
    <tag k="source" v="UMP-PL, ./UMP-Gdansk/src/GDANSK.ulice.txt"/>
  </way>
  <way id="27477100" version="11" timestamp="2012-01-10T17:45:30Z" uid="409583" user="Paweł Paszczak" changeset="10353395"/>
  <way id="27477114" version="2" timestamp="2009-09-02T21:59:01Z" uid="66036" user="h4v" changeset="2354341">
    <nd ref="301683527"/>
    <nd ref="301671692"/>
    <tag k="highway" v="footway"/>
    <tag k="source" v="UMP-PL, ./UMP-Gdansk/src/GDANSK.ulice.txt"/>
  </way>
  <way id="27477115" version="2" timestamp="2008-10-10T11:21:12Z" uid="30632" user="antblant" changeset="226581">
    <nd ref="301684903"/>
    <nd ref="301684902"/>
    <nd ref="301684899"/>
    <nd ref="301684898"/>
    <nd ref="301684901"/>
    <tag k="UMP_Level" v="3"/>
    <tag k="created_by" v="JOSM"/>
    <tag k="highway" v="secondary"/>
    <tag k="name" v="Starogardzka"/>
    <tag k="ref" v="222"/>
    <tag k="source" v="UMP-PL, ./UMP-Gdansk/src/GDANSK.ulice.txt"/>
  </way>
  <way id="27477115" version="3" timestamp="2008-10-12T08:40:46Z" uid="47334" user="TomDalek" changeset="288324">
    <nd ref="301684903"/>
    <nd ref="301684902"/>
    <nd ref="301684899"/>
    <nd ref="301684898"/>
    <nd ref="301684901"/>
    <tag k="created_by" v="JOSM"/>
    <tag k="highway" v="secondary"/>
    <tag k="name" v="Starogardzka"/>
    <tag k="ref" v="222"/>
    <tag k="source" v="UMP-PL, ./UMP-Gdansk/src/GDANSK.ulice.txt"/>
  </way>
  <way id="27477115" version="4" timestamp="2011-03-12T23:39:57Z" uid="30632" user="antblant" changeset="7539626">
    <nd ref="301684903"/>
    <nd ref="301684902"/>
    <nd ref="1199470112"/>
    <nd ref="301684899"/>
    <nd ref="301684898"/>
    <nd ref="301684901"/>
    <tag k="highway" v="secondary"/>
    <tag k="name" v="Starogardzka"/>
    <tag k="ref" v="222"/>
    <tag k="source" v="UMP-PL, ./UMP-Gdansk/src/GDANSK.ulice.txt"/>
  </way>
  <way id="27477115" version="5" timestamp="2012-02-22T10:24:45Z" uid="378154" user="rosomak" changeset="10757772">
    <nd ref="301684903"/>
    <nd ref="301684902"/>
    <nd ref="301684899"/>
    <nd ref="301684898"/>
    <nd ref="301684901"/>
    <tag k="highway" v="secondary"/>
    <tag k="name" v="Starogardzka"/>
    <tag k="ref" v="222"/>
    <tag k="source" v="UMP-PL, ./UMP-Gdansk/src/GDANSK.ulice.txt"/>
  </way>
  <way id="27477117" version="2" timestamp="2008-10-10T11:21:13Z" uid="30632" user="antblant" changeset="226581">
    <nd ref="301679786"/>
    <nd ref="301679787"/>
    <nd ref="301679796"/>
    <tag k="UMP_Level" v="1"/>
    <tag k="created_by" v="JOSM"/>
    <tag k="highway" v="primary"/>
    <tag k="name" v="Okopowa"/>
    <tag k="ref" v="1"/>
    <tag k="source" v="UMP-PL, ./UMP-Gdansk/src/GDANSK.ulice.txt"/>
  </way>
  <way id="27477117" version="3" timestamp="2008-10-10T11:23:35Z" uid="30632" user="antblant" changeset="226581">
    <nd ref="301679786"/>
    <nd ref="301679787"/>
    <nd ref="301679796"/>
    <tag k="UMP_Level" v="1"/>
    <tag k="created_by" v="Potlatch 0.10d"/>
    <tag k="highway" v="primary"/>
    <tag k="name" v="Okopowa"/>
    <tag k="ref" v="1"/>
    <tag k="source" v="UMP-PL, ./UMP-Gdansk/src/GDANSK.ulice.txt"/>
  </way>
  <way id="27477117" version="4" timestamp="2008-10-12T08:01:41Z" uid="47334" user="TomDalek" changeset="288324">
    <nd ref="301679786"/>
    <nd ref="301679787"/>
    <nd ref="301679796"/>
    <tag k="created_by" v="Potlatch 0.10d"/>
    <tag k="highway" v="primary"/>
    <tag k="name" v="Okopowa"/>
    <tag k="ref" v="1"/>
    <tag k="source" v="UMP-PL, ./UMP-Gdansk/src/GDANSK.ulice.txt"/>
  </way>
  <way id="27477117" version="5" timestamp="2008-12-29T16:33:45Z" uid="59808" user="ortylp" changeset="664597">
    <nd ref="301679786"/>
    <nd ref="301679787"/>
    <nd ref="301679796"/>
    <tag k="created_by" v="Potlatch 0.10d"/>
    <tag k="highway" v="primary"/>
    <tag k="name" v="Okopowa"/>
    <tag k="oneway" v="yes"/>
    <tag k="ref" v="1"/>
    <tag k="source" v="UMP-PL, ./UMP-Gdansk/src/GDANSK.ulice.txt"/>
  </way>
  <way id="27477117" version="6" timestamp="2009-02-22T22:31:34Z" uid="9176" user="Maarten Deen" changeset="627960">
    <nd ref="301679786"/>
    <nd ref="301679787"/>
    <nd ref="301679796"/>
    <tag k="created_by" v="Potlatch 0.10d"/>
    <tag k="highway" v="primary"/>
    <tag k="int_ref" v="E 75"/>
    <tag k="name" v="Okopowa"/>
    <tag k="oneway" v="yes"/>
    <tag k="ref" v="1"/>
    <tag k="source" v="UMP-PL, ./UMP-Gdansk/src/GDANSK.ulice.txt"/>
  </way>
  <way id="27477117" version="7" timestamp="2011-02-13T12:15:35Z" uid="86932" user="bialy111" changeset="7274273">
    <nd ref="301679786"/>
    <nd ref="301679787"/>
    <tag k="highway" v="primary"/>
    <tag k="int_ref" v="E 75"/>
    <tag k="name" v="Okopowa"/>
    <tag k="oneway" v="yes"/>
    <tag k="ref" v="1"/>
    <tag k="source" v="UMP-PL, ./UMP-Gdansk/src/GDANSK.ulice.txt"/>
  </way>
  <way id="27477117" version="8" timestamp="2012-03-14T21:59:22Z" uid="88909" user="miko101" changeset="10982885">
    <nd ref="301679786"/>
    <nd ref="301679787"/>
    <tag k="highway" v="primary"/>
    <tag k="int_ref" v="E 75"/>
    <tag k="name" v="Okopowa"/>
    <tag k="oneway" v="yes"/>
    <tag k="ref" v="91"/>
    <tag k="source" v="UMP-PL, ./UMP-Gdansk/src/GDANSK.ulice.txt"/>
  </way>
  <way id="27477137" version="3" timestamp="2011-03-02T13:23:25Z" uid="30632" user="antblant" changeset="7437698">
    <nd ref="301671011"/>
    <nd ref="1182694525"/>
    <nd ref="301683015"/>
    <nd ref="301682855"/>
    <nd ref="301682847"/>
    <tag k="highway" v="footway"/>
    <tag k="source" v="UMP-PL, ./UMP-Gdansk/src/GDANSK.ulice.txt"/>
  </way>
  <way id="27477143" version="2" timestamp="2011-03-12T23:39:58Z" uid="30632" user="antblant" changeset="7539626">
    <nd ref="1199470141"/>
    <nd ref="301672479"/>
    <tag k="highway" v="unclassified"/>
    <tag k="name" v="Niezapominajek"/>
    <tag k="source" v="UMP-PL, ./UMP-Gdansk/src/GDANSK.ulice.txt"/>
    <tag k="surface" v="unpaved"/>
  </way>
  <way id="27477147" version="2" timestamp="2009-12-19T15:57:47Z" uid="20587" user="balrog-kun" changeset="3407737">
    <nd ref="301679582"/>
    <nd ref="301679948"/>
    <nd ref="301679947"/>
    <nd ref="301679583"/>
    <tag k="highway" v="service"/>
    <tag k="source" v="UMP-PL, ./UMP-Gdansk/src/GDANSK.ulice.txt"/>
  </way>
  <way id="27477165" version="2" timestamp="2009-12-19T15:57:47Z" uid="20587" user="balrog-kun" changeset="3407737">
    <nd ref="301679946"/>
    <nd ref="301679945"/>
    <nd ref="301679944"/>
    <nd ref="301679943"/>
    <tag k="highway" v="service"/>
    <tag k="source" v="UMP-PL, ./UMP-Gdansk/src/GDANSK.ulice.txt"/>
  </way>
  <way id="27477168" version="8" timestamp="2011-02-28T12:43:58Z" uid="30632" user="antblant" changeset="7420217">
    <nd ref="747150730"/>
    <nd ref="747150656"/>
    <nd ref="747150754"/>
    <nd ref="747150710"/>
    <nd ref="747150646"/>
    <nd ref="301679833"/>
    <nd ref="301679834"/>
    <nd ref="301679831"/>
    <nd ref="747150702"/>
    <nd ref="301679832"/>
    <tag k="highway" v="residential"/>
    <tag k="name" v="Doki"/>
  </way>
  <way id="27477168" version="9" timestamp="2011-08-05T22:42:40Z" uid="500953" user="skradacz" changeset="8933523">
    <nd ref="1387920374"/>
    <nd ref="747150656"/>
    <nd ref="747150754"/>
    <nd ref="747150710"/>
    <nd ref="747150646"/>
    <nd ref="301679833"/>
    <nd ref="301679834"/>
    <nd ref="301679831"/>
    <nd ref="747150702"/>
    <nd ref="301679832"/>
    <tag k="highway" v="residential"/>
    <tag k="name" v="Doki"/>
  </way>
  <way id="27477168" version="10" timestamp="2011-08-05T23:24:22Z" uid="500953" user="skradacz" changeset="8933523">
    <nd ref="1387920374"/>
    <nd ref="747150656"/>
    <nd ref="747150754"/>
    <nd ref="747150710"/>
    <nd ref="301679833"/>
    <nd ref="301679834"/>
    <nd ref="301679831"/>
    <nd ref="1387934508"/>
    <nd ref="747150702"/>
    <nd ref="301679832"/>
    <tag k="highway" v="residential"/>
    <tag k="name" v="Doki"/>
  </way>
  <way id="27477168" version="11" timestamp="2011-11-13T13:44:15Z" uid="378154" user="rosomak" changeset="9814042">
    <nd ref="1387920374"/>
    <nd ref="1387920355"/>
    <nd ref="747150710"/>
    <nd ref="301679833"/>
    <nd ref="301679834"/>
    <nd ref="301679831"/>
    <nd ref="1387934508"/>
    <nd ref="747150702"/>
    <nd ref="301679832"/>
    <tag k="highway" v="residential"/>
    <tag k="name" v="Doki"/>
  </way>
  <way id="27477226" version="2" timestamp="2009-08-31T07:49:26Z" uid="66036" user="h4v" changeset="2323230">
    <nd ref="301673998"/>
    <nd ref="301678258"/>
    <nd ref="301674000"/>
    <nd ref="301678264"/>
    <tag k="bicycle" v="yes"/>
    <tag k="highway" v="footway"/>
    <tag k="source" v="UMP-PL, ./UMP-Gdansk/src/GDANSK.ulice.txt"/>
  </way>
  <way id="27477226" version="3" timestamp="2011-02-28T12:41:40Z" uid="30632" user="antblant" changeset="7420198">
    <nd ref="301673998"/>
    <nd ref="301678258"/>
    <nd ref="301674000"/>
    <tag k="bicycle" v="yes"/>
    <tag k="highway" v="footway"/>
    <tag k="source" v="UMP-PL, ./UMP-Gdansk/src/GDANSK.ulice.txt"/>
  </way>
  <way id="27477226" version="4" timestamp="2011-10-05T14:12:53Z" uid="500953" user="skradacz" changeset="9478405"/>
  <way id="27477229" version="2" timestamp="2009-12-19T15:57:52Z" uid="20587" user="balrog-kun" changeset="3407737"/>
  <way id="27477268" version="2" timestamp="2009-09-02T21:45:58Z" uid="66036" user="h4v" changeset="2354271">
    <nd ref="301671412"/>
    <nd ref="481443530"/>
    <nd ref="301680137"/>
    <nd ref="301680230"/>
    <tag k="highway" v="service"/>
    <tag k="name" v="Lenartowicza"/>
    <tag k="source" v="UMP-PL, ./UMP-Gdansk/src/GDANSK.ulice.txt"/>
  </way>
  <way id="27477273" version="2" timestamp="2009-09-02T21:46:01Z" uid="66036" user="h4v" changeset="2354271">
    <nd ref="301679287"/>
    <nd ref="481443604"/>
    <nd ref="301679289"/>
    <tag k="highway" v="service"/>
    <tag k="source" v="UMP-PL, ./UMP-Gdansk/src/GDANSK.ulice.txt"/>
  </way>
  <way id="27477315" version="3" timestamp="2009-12-19T15:57:42Z" uid="20587" user="balrog-kun" changeset="3407737">
    <nd ref="255723311"/>
    <nd ref="596395556"/>
    <nd ref="301672868"/>
    <tag k="highway" v="residential"/>
    <tag k="source" v="UMP-PL, ./UMP-Gdansk/src/GDANSK.ulice.txt"/>
  </way>
  <way id="27477337" version="5" timestamp="2009-12-19T15:57:45Z" uid="20587" user="balrog-kun" changeset="3407737">
    <nd ref="301670946"/>
    <nd ref="291223051"/>
    <nd ref="475310251"/>
    <nd ref="301675550"/>
    <nd ref="534069993"/>
    <nd ref="301675552"/>
    <nd ref="301675555"/>
    <nd ref="301675554"/>
    <nd ref="301675557"/>
    <tag k="highway" v="tertiary"/>
    <tag k="name" v="Schuberta"/>
    <tag k="source" v="UMP-PL, ./UMP-Gdansk/src/GDANSK.ulice.txt"/>
  </way>
  <way id="27477337" version="6" timestamp="2010-06-17T18:01:50Z" uid="86932" user="bialy111" changeset="5010735">
    <nd ref="301670946"/>
    <nd ref="291223051"/>
    <tag k="highway" v="tertiary"/>
    <tag k="name" v="Schuberta"/>
    <tag k="source" v="UMP-PL, ./UMP-Gdansk/src/GDANSK.ulice.txt"/>
  </way>
  <way id="27477365" version="3" timestamp="2009-12-18T14:05:29Z" uid="20587" user="balrog-kun" changeset="3400728">
    <nd ref="301677207"/>
    <nd ref="301677208"/>
    <nd ref="301677205"/>
    <nd ref="301677206"/>
    <nd ref="301677203"/>
    <nd ref="301677204"/>
    <nd ref="301677183"/>
    <nd ref="301677184"/>
    <nd ref="301677181"/>
    <nd ref="301677182"/>
    <nd ref="301677179"/>
    <nd ref="301677180"/>
    <nd ref="301671688"/>
    <tag k="highway" v="residential"/>
    <tag k="name" v="Trakt Świętego Wojciecha"/>
    <tag k="source" v="UMP-PL, ./UMP-Gdansk/src/GDANSK.ulice.txt"/>
  </way>
  <way id="27477365" version="4" timestamp="2011-03-24T20:46:29Z" uid="378154" user="rosomak" changeset="7659807">
    <nd ref="301677207"/>
    <nd ref="301677208"/>
    <nd ref="301677205"/>
    <nd ref="301677206"/>
    <nd ref="301677203"/>
    <nd ref="301677204"/>
    <nd ref="301677183"/>
    <nd ref="301677184"/>
    <nd ref="301677181"/>
    <nd ref="1216542571"/>
    <nd ref="301677182"/>
    <nd ref="301677179"/>
    <nd ref="301677180"/>
    <nd ref="301671688"/>
    <tag k="highway" v="residential"/>
    <tag k="name" v="Trakt Świętego Wojciecha"/>
    <tag k="source" v="UMP-PL, ./UMP-Gdansk/src/GDANSK.ulice.txt"/>
  </way>
  <way id="27477365" version="5" timestamp="2011-05-04T15:35:33Z" uid="378154" user="rosomak" changeset="8049942">
    <nd ref="301677207"/>
    <nd ref="301677208"/>
    <nd ref="301677205"/>
    <nd ref="301677206"/>
    <nd ref="1272133491"/>
    <nd ref="1272133492"/>
    <nd ref="301677203"/>
    <nd ref="301677204"/>
    <nd ref="301677183"/>
    <nd ref="301677184"/>
    <nd ref="301677181"/>
    <nd ref="1216542571"/>
    <nd ref="301677182"/>
    <nd ref="301677179"/>
    <nd ref="301677180"/>
    <nd ref="301671688"/>
    <tag k="highway" v="residential"/>
    <tag k="name" v="Trakt Świętego Wojciecha"/>
    <tag k="source" v="UMP-PL, ./UMP-Gdansk/src/GDANSK.ulice.txt"/>
  </way>
  <way id="27477365" version="6" timestamp="2011-05-04T20:20:07Z" uid="378154" user="rosomak" changeset="8052382">
    <nd ref="301677207"/>
    <nd ref="301677208"/>
    <nd ref="301677205"/>
    <nd ref="301677206"/>
    <nd ref="1272133491"/>
    <nd ref="1272133492"/>
    <nd ref="301677203"/>
    <nd ref="301677204"/>
    <nd ref="301677183"/>
    <nd ref="1272418535"/>
    <nd ref="301677184"/>
    <nd ref="301677181"/>
    <nd ref="1216542571"/>
    <nd ref="301677182"/>
    <nd ref="301677179"/>
    <nd ref="301677180"/>
    <nd ref="301671688"/>
    <tag k="highway" v="residential"/>
    <tag k="name" v="Trakt Świętego Wojciecha"/>
    <tag k="source" v="UMP-PL, ./UMP-Gdansk/src/GDANSK.ulice.txt"/>
  </way>
  <way id="27477365" version="7" timestamp="2011-05-05T14:37:47Z" uid="378154" user="rosomak" changeset="8057925">
    <nd ref="301677207"/>
    <nd ref="301677208"/>
    <nd ref="301677205"/>
    <nd ref="301677206"/>
    <nd ref="1272133491"/>
    <nd ref="1272133492"/>
    <nd ref="301677203"/>
    <nd ref="301677204"/>
    <nd ref="301677183"/>
    <nd ref="1272418535"/>
    <nd ref="301677184"/>
    <nd ref="301677181"/>
    <nd ref="1216542571"/>
    <nd ref="301677182"/>
    <nd ref="301677179"/>
    <nd ref="1273127662"/>
    <nd ref="301677180"/>
    <nd ref="301671688"/>
    <tag k="highway" v="residential"/>
    <tag k="name" v="Trakt Świętego Wojciecha"/>
    <tag k="source" v="UMP-PL, ./UMP-Gdansk/src/GDANSK.ulice.txt"/>
  </way>
  <way id="27477365" version="8" timestamp="2011-07-15T12:52:47Z" uid="35022" user="NJarek" changeset="8731032">
    <nd ref="301677205"/>
    <nd ref="301677208"/>
    <nd ref="301677207"/>
    <tag k="highway" v="residential"/>
    <tag k="name" v="Trakt Świętego Wojciecha"/>
    <tag k="oneway" v="yes"/>
    <tag k="source" v="UMP-PL, ./UMP-Gdansk/src/GDANSK.ulice.txt"/>
  </way>
  <way id="27477372" version="3" timestamp="2009-12-18T14:05:31Z" uid="20587" user="balrog-kun" changeset="3400728">
    <nd ref="301672028"/>
    <nd ref="301672057"/>
    <nd ref="301672054"/>
    <nd ref="301672055"/>
    <tag k="highway" v="residential"/>
    <tag k="name" v="Chlebnicka"/>
    <tag k="name:de" v="Brotbänkengasse"/>
    <tag k="source" v="UMP-PL, ./UMP-Gdansk/src/GDANSK.ulice.txt"/>
    <tag k="wikipedia" v="pl:Ulica Chlebnicka w Gdańsku"/>
  </way>
  <way id="27477372" version="4" timestamp="2010-08-28T22:53:14Z" uid="91056" user="Yarl" changeset="5621084">
    <nd ref="301672028"/>
    <nd ref="301672057"/>
    <nd ref="301672054"/>
    <nd ref="301672055"/>
    <tag k="highway" v="residential"/>
    <tag k="name" v="Chlebnicka"/>
    <tag k="name:de" v="Brotbänkengasse"/>
    <tag k="wikipedia" v="pl:Ulica Chlebnicka w Gdańsku"/>
  </way>
  <way id="27477372" version="5" timestamp="2011-12-29T23:01:23Z" uid="500953" user="skradacz" changeset="10240884">
    <nd ref="301672028"/>
    <nd ref="301672057"/>
    <nd ref="1568383478"/>
    <nd ref="301672054"/>
    <nd ref="1568383462"/>
    <nd ref="301672055"/>
    <tag k="highway" v="residential"/>
    <tag k="name" v="Chlebnicka"/>
    <tag k="name:de" v="Brotbänkengasse"/>
    <tag k="wikipedia" v="pl:Ulica Chlebnicka w Gdańsku"/>
  </way>
  <way id="27477393" version="2" timestamp="2011-03-12T23:39:54Z" uid="30632" user="antblant" changeset="7539626">
    <nd ref="301686576"/>
    <nd ref="301686575"/>
    <nd ref="301686549"/>
    <nd ref="301686548"/>
    <tag k="highway" v="unclassified"/>
    <tag k="source" v="UMP-PL, ./UMP-Gdansk/src/GDANSK.ulice.txt"/>
    <tag k="surface" v="unpaved"/>
  </way>
  <way id="27477408" version="2" timestamp="2009-12-19T15:57:51Z" uid="20587" user="balrog-kun" changeset="3407737">
    <nd ref="301683424"/>
    <nd ref="301679772"/>
    <nd ref="301672187"/>
    <nd ref="301683425"/>
    <tag k="highway" v="footway"/>
    <tag k="layer" v="-1"/>
    <tag k="source" v="UMP-PL, ./UMP-Gdansk/src/GDANSK.ulice.txt"/>
    <tag k="tunnel" v="yes"/>
  </way>
  <way id="27477408" version="3" timestamp="2010-07-28T20:15:01Z" uid="16478" user="Raymond" changeset="5341755">
    <nd ref="301683424"/>
    <nd ref="301679772"/>
    <nd ref="836756380"/>
    <nd ref="301683425"/>
    <tag k="highway" v="footway"/>
    <tag k="layer" v="-1"/>
    <tag k="source" v="UMP-PL, ./UMP-Gdansk/src/GDANSK.ulice.txt"/>
    <tag k="tunnel" v="yes"/>
  </way>
  <way id="27477411" version="2" timestamp="2009-09-02T21:45:59Z" uid="66036" user="h4v" changeset="2354271">
    <nd ref="301670624"/>
    <nd ref="481443556"/>
    <nd ref="301679956"/>
    <nd ref="301679955"/>
    <tag k="highway" v="service"/>
    <tag k="source" v="UMP-PL, ./UMP-Gdansk/src/GDANSK.ulice.txt"/>
  </way>
  <way id="27477411" version="3" timestamp="2011-01-21T14:39:10Z" uid="378154" user="rosomak" changeset="7040890">
    <nd ref="301670624"/>
    <nd ref="481443556"/>
    <nd ref="301679956"/>
    <tag k="highway" v="service"/>
    <tag k="source" v="UMP-PL, ./UMP-Gdansk/src/GDANSK.ulice.txt"/>
  </way>
  <way id="27477429" version="2" timestamp="2009-09-12T18:37:44Z" uid="66036" user="h4v" changeset="2461220">
    <nd ref="494381089"/>
    <nd ref="494381091"/>
    <nd ref="494381090"/>
    <nd ref="301682316"/>
    <nd ref="301682319"/>
    <nd ref="301682318"/>
    <nd ref="301682313"/>
    <nd ref="301682312"/>
    <nd ref="301682315"/>
    <nd ref="301682314"/>
    <nd ref="301682260"/>
    <nd ref="301682259"/>
    <nd ref="301682262"/>
    <nd ref="301682261"/>
    <nd ref="301682256"/>
    <nd ref="301682255"/>
    <nd ref="301682258"/>
    <nd ref="301682257"/>
    <nd ref="301682268"/>
    <nd ref="301682267"/>
    <nd ref="301682270"/>
    <nd ref="301682269"/>
    <nd ref="301682264"/>
    <nd ref="301673457"/>
    <tag k="highway" v="service"/>
    <tag k="source" v="UMP-PL, ./UMP-Gdansk/src/GDANSK.ulice.txt"/>
  </way>
  <way id="27477437" version="4" timestamp="2009-12-16T13:41:27Z" uid="42429" user="FK270673" changeset="3386712">
    <nd ref="301672028"/>
    <nd ref="301672052"/>
    <tag k="highway" v="residential"/>
    <tag k="name" v="Klesza"/>
    <tag k="name:de" v="Pfaffengasse"/>
    <tag k="oneway" v="yes"/>
    <tag k="source" v="UMP-PL, ./UMP-Gdansk/src/GDANSK.ulice.txt"/>
  </way>
  <way id="27477437" version="5" timestamp="2009-12-18T14:05:33Z" uid="20587" user="balrog-kun" changeset="3400728">
    <nd ref="301672028"/>
    <nd ref="301672052"/>
    <tag k="highway" v="residential"/>
    <tag k="maxweight" v="3.5"/>
    <tag k="name" v="Klesza"/>
    <tag k="name:de" v="Pfaffengasse"/>
    <tag k="oneway" v="yes"/>
    <tag k="source" v="UMP-PL, ./UMP-Gdansk/src/GDANSK.ulice.txt"/>
  </way>
  <way id="27477437" version="6" timestamp="2009-12-19T00:49:36Z" uid="42429" user="FK270673" changeset="3404412">
    <nd ref="301672028"/>
    <nd ref="301672052"/>
    <tag k="highway" v="residential"/>
    <tag k="maxweight" v="3.5"/>
    <tag k="name" v="Klesza"/>
    <tag k="name:de" v="Pfaffengasse"/>
    <tag k="name:la" v="platea sacerdotum"/>
    <tag k="oneway" v="yes"/>
    <tag k="source" v="UMP-PL, ./UMP-Gdansk/src/GDANSK.ulice.txt"/>
  </way>
  <way id="27477437" version="7" timestamp="2010-06-04T11:57:23Z" uid="91056" user="Yarl" changeset="4900538">
    <nd ref="301672028"/>
    <nd ref="764323470"/>
    <nd ref="301672052"/>
    <tag k="highway" v="residential"/>
    <tag k="maxweight" v="3.5"/>
    <tag k="name" v="Klesza"/>
    <tag k="name:de" v="Pfaffengasse"/>
    <tag k="name:la" v="platea sacerdotum"/>
    <tag k="oneway" v="yes"/>
    <tag k="source" v="UMP-PL, ./UMP-Gdansk/src/GDANSK.ulice.txt"/>
  </way>
  <way id="27477437" version="8" timestamp="2011-01-16T17:54:55Z" uid="378154" user="rosomak" changeset="6991158">
    <nd ref="301672028"/>
    <nd ref="764323470"/>
    <nd ref="301672052"/>
    <tag k="highway" v="residential"/>
    <tag k="maxweight" v="3.5"/>
    <tag k="name" v="Klesza"/>
    <tag k="name:la" v="platea sacerdotum"/>
    <tag k="oneway" v="yes"/>
    <tag k="source" v="UMP-PL, ./UMP-Gdansk/src/GDANSK.ulice.txt"/>
  </way>
  <way id="27477437" version="9" timestamp="2011-08-08T19:11:45Z" uid="500953" user="skradacz" changeset="8960627">
    <nd ref="301672028"/>
    <nd ref="764323470"/>
    <nd ref="1391294847"/>
    <nd ref="301672052"/>
    <tag k="highway" v="residential"/>
    <tag k="maxweight" v="3.5"/>
    <tag k="name" v="Klesza"/>
    <tag k="name:la" v="platea sacerdotum"/>
    <tag k="oneway" v="yes"/>
    <tag k="source" v="UMP-PL, ./UMP-Gdansk/src/GDANSK.ulice.txt"/>
  </way>
  <way id="27477437" version="10" timestamp="2011-12-30T23:45:41Z" uid="500953" user="skradacz" changeset="10250968">
    <nd ref="301672028"/>
    <nd ref="1570145557"/>
    <nd ref="1570145612"/>
    <nd ref="1570145636"/>
    <nd ref="1570145653"/>
    <nd ref="301672052"/>
    <tag k="highway" v="residential"/>
    <tag k="maxweight" v="3.5"/>
    <tag k="name" v="Klesza"/>
    <tag k="name:la" v="platea sacerdotum"/>
    <tag k="oneway" v="yes"/>
    <tag k="source" v="UMP-PL, ./UMP-Gdansk/src/GDANSK.ulice.txt"/>
  </way>
  <way id="27477442" version="2" timestamp="2009-09-02T21:45:56Z" uid="66036" user="h4v" changeset="2354271">
    <nd ref="301671071"/>
    <nd ref="481443549"/>
    <nd ref="301673304"/>
    <tag k="highway" v="residential"/>
    <tag k="source" v="UMP-PL, ./UMP-Gdansk/src/GDANSK.ulice.txt"/>
  </way>
  <way id="27477442" version="3" timestamp="2011-01-21T17:04:39Z" uid="378154" user="rosomak" changeset="7042266">
    <nd ref="301671071"/>
    <nd ref="481443549"/>
    <nd ref="301673304"/>
    <tag k="highway" v="residential"/>
    <tag k="source" v="UMP-PL, ./UMP-Gdansk/src/GDANSK.ulice.txt"/>
  </way>
  <way id="27477450" version="4" timestamp="2009-12-19T15:57:50Z" uid="20587" user="balrog-kun" changeset="3407737">
    <nd ref="301672882"/>
    <nd ref="596395567"/>
    <nd ref="301672890"/>
    <tag k="highway" v="residential"/>
    <tag k="name" v="Jasna"/>
    <tag k="source" v="UMP-PL, ./UMP-Gdansk/src/GDANSK.ulice.txt"/>
  </way>
  <way id="27477461" version="3" timestamp="2009-12-16T13:41:25Z" uid="42429" user="FK270673" changeset="3386712">
    <nd ref="301672065"/>
    <nd ref="301672052"/>
    <nd ref="301672053"/>
    <nd ref="301672051"/>
    <nd ref="301672066"/>
    <tag k="highway" v="residential"/>
    <tag k="name" v="Mariacka"/>
    <tag k="name:de" v="Frauengasse"/>
    <tag k="source" v="UMP-PL, ./UMP-Gdansk/src/GDANSK.ulice.txt"/>
  </way>
  <way id="27477461" version="4" timestamp="2009-12-18T14:05:32Z" uid="20587" user="balrog-kun" changeset="3400728">
    <nd ref="301672065"/>
    <nd ref="301672052"/>
    <nd ref="301672053"/>
    <nd ref="301672051"/>
    <nd ref="301672066"/>
    <tag k="highway" v="residential"/>
    <tag k="name" v="Mariacka"/>
    <tag k="name:de" v="Frauengasse"/>
    <tag k="source" v="UMP-PL, ./UMP-Gdansk/src/GDANSK.ulice.txt"/>
    <tag k="wikipedia" v="pl:Ulica Mariacka w Gdańsku"/>
  </way>
  <way id="27477461" version="5" timestamp="2009-12-19T00:49:31Z" uid="42429" user="FK270673" changeset="3404412">
    <nd ref="301672065"/>
    <nd ref="301672052"/>
    <nd ref="301672053"/>
    <nd ref="301672051"/>
    <nd ref="301672066"/>
    <tag k="highway" v="residential"/>
    <tag k="name" v="Mariacka"/>
    <tag k="name:de" v="Frauengasse"/>
    <tag k="name:la" v="platea dominae Mariae"/>
    <tag k="source" v="UMP-PL, ./UMP-Gdansk/src/GDANSK.ulice.txt"/>
    <tag k="wikipedia" v="pl:Ulica Mariacka w Gdańsku"/>
  </way>
  <way id="27477461" version="6" timestamp="2011-08-08T19:11:46Z" uid="500953" user="skradacz" changeset="8960627">
    <nd ref="301672065"/>
    <nd ref="301672052"/>
    <nd ref="301672053"/>
    <nd ref="301672051"/>
    <tag k="highway" v="pedestrian"/>
    <tag k="name" v="Mariacka"/>
    <tag k="name:de" v="Frauengasse"/>
    <tag k="name:la" v="platea dominae Mariae"/>
    <tag k="source" v="UMP-PL, ./UMP-Gdansk/src/GDANSK.ulice.txt"/>
    <tag k="wikipedia" v="pl:Ulica Mariacka w Gdańsku"/>
  </way>
  <way id="27477461" version="7" timestamp="2012-01-04T17:28:07Z" uid="500953" user="skradacz" changeset="10293218"/>
  <way id="27477468" version="5" timestamp="2009-12-19T15:57:51Z" uid="20587" user="balrog-kun" changeset="3407737">
    <nd ref="301672883"/>
    <nd ref="596395568"/>
    <nd ref="301672891"/>
    <tag k="highway" v="residential"/>
    <tag k="name" v="Wesoła"/>
    <tag k="name:de" v="Schottenweg"/>
    <tag k="source" v="UMP-PL, ./UMP-Gdansk/src/GDANSK.ulice.txt"/>
  </way>
  <way id="27477475" version="3" timestamp="2011-03-12T23:39:59Z" uid="30632" user="antblant" changeset="7539626"/>
  <way id="27477525" version="3" timestamp="2009-12-18T14:05:33Z" uid="20587" user="balrog-kun" changeset="3400728">
    <nd ref="301684325"/>
    <nd ref="301684576"/>
    <nd ref="301684575"/>
    <nd ref="301684574"/>
    <nd ref="301671239"/>
    <tag k="highway" v="residential"/>
    <tag k="name" v="Trakt Świętego Wojciecha"/>
    <tag k="source" v="UMP-PL, ./UMP-Gdansk/src/GDANSK.ulice.txt"/>
  </way>
  <way id="27477527" version="2" timestamp="2009-09-02T21:46:04Z" uid="66036" user="h4v" changeset="2354271">
    <nd ref="301671585"/>
    <nd ref="301673249"/>
    <nd ref="301673247"/>
    <nd ref="301673253"/>
    <nd ref="301673252"/>
    <nd ref="301673256"/>
    <nd ref="481443546"/>
    <nd ref="301673255"/>
    <nd ref="301671065"/>
    <tag k="highway" v="residential"/>
    <tag k="source" v="UMP-PL, ./UMP-Gdansk/src/GDANSK.ulice.txt"/>
  </way>
  <way id="27477527" version="3" timestamp="2010-05-24T15:30:24Z" uid="91056" user="Yarl" changeset="4794681">
    <nd ref="301671585"/>
    <nd ref="301673249"/>
    <nd ref="301673247"/>
    <nd ref="301673253"/>
    <tag k="highway" v="residential"/>
    <tag k="source" v="UMP-PL, ./UMP-Gdansk/src/GDANSK.ulice.txt"/>
  </way>
  <way id="27477529" version="2" timestamp="2008-10-10T11:21:13Z" uid="30632" user="antblant" changeset="226581">
    <nd ref="258208010"/>
    <nd ref="301680678"/>
    <nd ref="301680559"/>
    <nd ref="301680546"/>
    <nd ref="301680581"/>
    <nd ref="301680575"/>
    <nd ref="301680602"/>
    <nd ref="301680589"/>
    <nd ref="301680619"/>
    <nd ref="301680611"/>
    <nd ref="301680664"/>
    <nd ref="301680621"/>
    <nd ref="301680620"/>
    <nd ref="301680623"/>
    <nd ref="301680622"/>
    <nd ref="301680625"/>
    <nd ref="301680624"/>
    <nd ref="301680627"/>
    <nd ref="301680626"/>
    <nd ref="301680629"/>
    <nd ref="301680628"/>
    <nd ref="301680631"/>
    <nd ref="301680630"/>
    <nd ref="301680633"/>
    <nd ref="301680632"/>
    <nd ref="301680635"/>
    <tag k="UMP_Level" v="3"/>
    <tag k="created_by" v="JOSM"/>
    <tag k="highway" v="secondary"/>
    <tag k="name" v="Boguckiego"/>
    <tag k="ref" v="501"/>
    <tag k="source" v="UMP-PL, ./UMP-Gdansk/src/GDANSK.ulice.txt"/>
  </way>
  <way id="27477529" version="3" timestamp="2008-10-12T08:40:56Z" uid="47334" user="TomDalek" changeset="288324">
    <nd ref="258208010"/>
    <nd ref="301680678"/>
    <nd ref="301680559"/>
    <nd ref="301680546"/>
    <nd ref="301680581"/>
    <nd ref="301680575"/>
    <nd ref="301680602"/>
    <nd ref="301680589"/>
    <nd ref="301680619"/>
    <nd ref="301680611"/>
    <nd ref="301680664"/>
    <nd ref="301680621"/>
    <nd ref="301680620"/>
    <nd ref="301680623"/>
    <nd ref="301680622"/>
    <nd ref="301680625"/>
    <nd ref="301680624"/>
    <nd ref="301680627"/>
    <nd ref="301680626"/>
    <nd ref="301680629"/>
    <nd ref="301680628"/>
    <nd ref="301680631"/>
    <nd ref="301680630"/>
    <nd ref="301680633"/>
    <nd ref="301680632"/>
    <nd ref="301680635"/>
    <tag k="created_by" v="JOSM"/>
    <tag k="highway" v="secondary"/>
    <tag k="name" v="Boguckiego"/>
    <tag k="ref" v="501"/>
    <tag k="source" v="UMP-PL, ./UMP-Gdansk/src/GDANSK.ulice.txt"/>
  </way>
  <way id="27477529" version="4" timestamp="2008-11-10T22:37:00Z" uid="67567" user="emka" changeset="731561">
    <nd ref="258208010"/>
    <nd ref="301680678"/>
    <nd ref="301680559"/>
    <nd ref="301680546"/>
    <nd ref="301680581"/>
    <nd ref="301680575"/>
    <nd ref="301680602"/>
    <nd ref="301680589"/>
    <nd ref="301680619"/>
    <nd ref="301680611"/>
    <nd ref="301680664"/>
    <nd ref="301680621"/>
    <nd ref="301680620"/>
    <nd ref="301680623"/>
    <nd ref="301680622"/>
    <nd ref="301680625"/>
    <nd ref="301680624"/>
    <nd ref="301680627"/>
    <nd ref="301680626"/>
    <nd ref="301680629"/>
    <nd ref="301680628"/>
    <nd ref="301680631"/>
    <nd ref="311198512"/>
    <nd ref="301680630"/>
    <nd ref="301680633"/>
    <nd ref="301680632"/>
    <nd ref="301680635"/>
    <tag k="created_by" v="JOSM"/>
    <tag k="highway" v="secondary"/>
    <tag k="name" v="Boguckiego"/>
    <tag k="ref" v="501"/>
    <tag k="source" v="UMP-PL, ./UMP-Gdansk/src/GDANSK.ulice.txt"/>
  </way>
  <way id="27477529" version="5" timestamp="2010-08-19T10:42:29Z" uid="91056" user="Yarl" changeset="5534259">
    <nd ref="258208010"/>
    <nd ref="301680678"/>
    <nd ref="301680559"/>
    <nd ref="301680546"/>
    <nd ref="301680581"/>
    <nd ref="301680575"/>
    <nd ref="301680602"/>
    <nd ref="301680589"/>
    <nd ref="301680619"/>
    <nd ref="301680611"/>
    <nd ref="301680621"/>
    <nd ref="301680620"/>
    <nd ref="301680623"/>
    <nd ref="301680622"/>
    <nd ref="301680625"/>
    <nd ref="301680624"/>
    <nd ref="301680627"/>
    <nd ref="301680626"/>
    <nd ref="301680629"/>
    <nd ref="301680628"/>
    <nd ref="301680631"/>
    <nd ref="311198512"/>
    <nd ref="301680630"/>
    <nd ref="301680633"/>
    <nd ref="301680632"/>
    <nd ref="301680635"/>
    <tag k="highway" v="secondary"/>
    <tag k="name" v="Mieczysława Boguckiego"/>
    <tag k="ref" v="501"/>
  </way>
  <way id="27477529" version="6" timestamp="2010-10-07T17:47:15Z" uid="86932" user="bialy111" changeset="5979909">
    <nd ref="258208010"/>
    <nd ref="301680678"/>
    <nd ref="301680559"/>
    <nd ref="301680546"/>
    <nd ref="301680581"/>
    <nd ref="301680575"/>
    <nd ref="301680602"/>
    <nd ref="301680589"/>
    <nd ref="301680619"/>
    <nd ref="301680611"/>
    <tag k="highway" v="secondary"/>
    <tag k="name" v="Mieczysława Boguckiego"/>
    <tag k="ref" v="501"/>
  </way>
  <way id="27477529" version="7" timestamp="2011-05-25T12:04:32Z" uid="378154" user="rosomak" changeset="8244120">
    <nd ref="258208010"/>
    <nd ref="301680678"/>
    <nd ref="301680546"/>
    <nd ref="301680581"/>
    <nd ref="301680575"/>
    <nd ref="301680602"/>
    <nd ref="301680589"/>
    <nd ref="301680619"/>
    <nd ref="301680611"/>
    <tag k="highway" v="secondary"/>
    <tag k="name" v="Mieczysława Boguckiego"/>
    <tag k="ref" v="501"/>
  </way>
  <way id="27477529" version="8" timestamp="2011-06-03T11:54:35Z" uid="378154" user="rosomak" changeset="8328816">
    <nd ref="258208010"/>
    <nd ref="301680678"/>
    <nd ref="301680546"/>
    <nd ref="301680581"/>
    <nd ref="301680575"/>
    <nd ref="1310208742"/>
    <nd ref="301680602"/>
    <nd ref="301680589"/>
    <nd ref="301680619"/>
    <nd ref="301680611"/>
    <tag k="highway" v="secondary"/>
    <tag k="name" v="Mieczysława Boguckiego"/>
    <tag k="ref" v="501"/>
  </way>
  <way id="27477541" version="3" timestamp="2009-09-02T21:46:03Z" uid="66036" user="h4v" changeset="2354271">
    <nd ref="301671659"/>
    <nd ref="301678361"/>
    <nd ref="301672435"/>
    <nd ref="301672433"/>
    <nd ref="481443500"/>
    <nd ref="301672217"/>
    <tag k="highway" v="trunk"/>
    <tag k="name" v="Elbląska"/>
    <tag k="source" v="UMP-PL, ./UMP-Gdansk/src/GDANSK.ulice.txt"/>
  </way>
  <way id="27477541" version="4" timestamp="2009-11-22T15:07:14Z" uid="91056" user="Yarl" changeset="3186806">
    <nd ref="301671659"/>
    <nd ref="301678361"/>
    <nd ref="301672435"/>
    <nd ref="301672433"/>
    <nd ref="481443500"/>
    <nd ref="301672217"/>
    <tag k="highway" v="tertiary"/>
    <tag k="name" v="Elbląska"/>
    <tag k="source" v="UMP-PL, ./UMP-Gdansk/src/GDANSK.ulice.txt"/>
  </way>
  <way id="27477624" version="3" timestamp="2009-12-18T14:05:35Z" uid="20587" user="balrog-kun" changeset="3400728">
    <nd ref="301678792"/>
    <nd ref="301678804"/>
    <nd ref="301678785"/>
    <nd ref="301678786"/>
    <nd ref="301678787"/>
    <nd ref="301678788"/>
    <nd ref="301678780"/>
    <nd ref="301678781"/>
    <nd ref="595656639"/>
    <nd ref="595656638"/>
    <nd ref="301678805"/>
    <nd ref="301678720"/>
    <tag k="highway" v="residential"/>
    <tag k="name" v="Miałki Szlak"/>
    <tag k="source" v="UMP-PL, ./UMP-Gdansk/src/GDANSK.ulice.txt"/>
  </way>
  <way id="27477624" version="4" timestamp="2011-05-19T08:14:54Z" uid="378154" user="rosomak" changeset="8187696">
    <nd ref="301678792"/>
    <nd ref="301678804"/>
    <nd ref="301678785"/>
    <nd ref="301678786"/>
    <nd ref="301678787"/>
    <nd ref="301678781"/>
    <nd ref="595656639"/>
    <nd ref="595656638"/>
    <nd ref="301678805"/>
    <nd ref="301678720"/>
    <tag k="highway" v="residential"/>
    <tag k="name" v="Miałki Szlak"/>
    <tag k="source" v="UMP-PL, ./UMP-Gdansk/src/GDANSK.ulice.txt"/>
  </way>
  <way id="27477624" version="5" timestamp="2011-05-19T14:10:00Z" uid="378154" user="rosomak" changeset="8190192">
    <nd ref="301678792"/>
    <nd ref="301678804"/>
    <nd ref="301678785"/>
    <nd ref="301678786"/>
    <nd ref="301678787"/>
    <nd ref="595656639"/>
    <nd ref="595656638"/>
    <nd ref="301678805"/>
    <nd ref="301678720"/>
    <tag k="highway" v="residential"/>
    <tag k="name" v="Miałki Szlak"/>
    <tag k="source" v="UMP-PL, ./UMP-Gdansk/src/GDANSK.ulice.txt"/>
  </way>
  <way id="27477629" version="2" timestamp="2009-09-02T21:59:02Z" uid="66036" user="h4v" changeset="2354341">
    <nd ref="301680466"/>
    <nd ref="301686560"/>
    <nd ref="301686558"/>
    <nd ref="301683216"/>
    <nd ref="301686536"/>
    <nd ref="301686535"/>
    <nd ref="301686534"/>
    <nd ref="301686533"/>
    <tag k="highway" v="unclassified"/>
    <tag k="source" v="UMP-PL, ./UMP-Gdansk/src/GDANSK.ulice.txt"/>
    <tag k="surface" v="unpaved"/>
  </way>
  <way id="27477629" version="3" timestamp="2011-05-04T23:28:45Z" uid="378154" user="rosomak" changeset="8053581">
    <nd ref="301680466"/>
    <nd ref="301686558"/>
    <nd ref="301683216"/>
    <nd ref="301686536"/>
    <nd ref="301686535"/>
    <nd ref="301686534"/>
    <nd ref="301686533"/>
    <tag k="highway" v="unclassified"/>
    <tag k="source" v="UMP-PL, ./UMP-Gdansk/src/GDANSK.ulice.txt"/>
    <tag k="surface" v="unpaved"/>
  </way>
  <way id="27477629" version="4" timestamp="2011-05-07T14:30:25Z" uid="378154" user="rosomak" changeset="8073967"/>
  <way id="27477630" version="5" timestamp="2009-05-07T08:55:55Z" uid="30632" user="antblant" changeset="1104842">
    <nd ref="301679662"/>
    <nd ref="301684755"/>
    <nd ref="301684748"/>
    <nd ref="301683274"/>
    <nd ref="301671772"/>
    <nd ref="301679738"/>
    <tag k="created_by" v="JOSM"/>
    <tag k="highway" v="primary_link"/>
    <tag k="oneway" v="yes"/>
    <tag k="source" v="UMP-PL, ./UMP-Gdansk/src/GDANSK.ulice.txt"/>
  </way>
  <way id="27477630" version="6" timestamp="2010-05-23T21:20:11Z" uid="91056" user="Yarl" changeset="4787638"/>
  <way id="27477636" version="4" timestamp="2009-12-19T15:57:48Z" uid="20587" user="balrog-kun" changeset="3407737">
    <nd ref="301672923"/>
    <nd ref="301672949"/>
    <nd ref="301672948"/>
    <tag k="highway" v="residential"/>
    <tag k="name" v="Jana Chryzostoma Paska"/>
    <tag k="source" v="UMP-PL, ./UMP-Gdansk/src/GDANSK.ulice.txt"/>
  </way>
  <way id="27477636" version="5" timestamp="2012-02-21T07:13:27Z" uid="598860" user="Marek-M" changeset="10747671">
    <nd ref="301672923"/>
    <nd ref="1641505660"/>
    <nd ref="301672949"/>
    <nd ref="301672948"/>
    <tag k="highway" v="residential"/>
    <tag k="name" v="Jana Chryzostoma Paska"/>
    <tag k="source" v="UMP-PL, ./UMP-Gdansk/src/GDANSK.ulice.txt"/>
  </way>
  <way id="27477648" version="5" timestamp="2011-02-28T11:13:16Z" uid="30632" user="antblant" changeset="7419531">
    <nd ref="301682222"/>
    <nd ref="747060809"/>
    <nd ref="747060754"/>
    <nd ref="1108197514"/>
    <nd ref="301675092"/>
    <tag k="highway" v="residential"/>
    <tag k="name" v="Wyzwolenia"/>
    <tag k="source" v="UMP-PL, ./UMP-Gdansk/src/GDANSK.ulice.txt"/>
  </way>
  <way id="27477666" version="4" timestamp="2009-12-19T15:57:42Z" uid="20587" user="balrog-kun" changeset="3407737">
    <nd ref="301672923"/>
    <nd ref="301672958"/>
    <nd ref="301672944"/>
    <nd ref="301672941"/>
    <nd ref="301672947"/>
    <nd ref="301672946"/>
    <nd ref="301675921"/>
    <nd ref="301675894"/>
    <nd ref="301675895"/>
    <nd ref="301675892"/>
    <nd ref="596395552"/>
    <nd ref="301675893"/>
    <nd ref="301675898"/>
    <nd ref="533994807"/>
    <nd ref="533994806"/>
    <nd ref="301675922"/>
    <nd ref="533994526"/>
    <nd ref="533994524"/>
    <nd ref="533994922"/>
    <nd ref="596395517"/>
    <nd ref="596395518"/>
    <nd ref="301675899"/>
    <tag k="highway" v="residential"/>
    <tag k="name" v="Zakopiańska"/>
    <tag k="name:de" v="Weinbergstraße"/>
    <tag k="source" v="UMP-PL, ./UMP-Gdansk/src/GDANSK.ulice.txt"/>
  </way>
  <way id="27477666" version="5" timestamp="2010-05-25T20:41:20Z" uid="91056" user="Yarl" changeset="4807976">
    <nd ref="301672923"/>
    <nd ref="301672958"/>
    <nd ref="301672944"/>
    <nd ref="301672941"/>
    <nd ref="301672947"/>
    <nd ref="301672946"/>
    <nd ref="301675921"/>
    <nd ref="301675894"/>
    <nd ref="301675895"/>
    <nd ref="301675892"/>
    <nd ref="596395552"/>
    <nd ref="301675893"/>
    <nd ref="301675898"/>
    <nd ref="748346033"/>
    <nd ref="748346138"/>
    <nd ref="301675922"/>
    <nd ref="533994524"/>
    <nd ref="533994922"/>
    <nd ref="596395517"/>
    <nd ref="596395518"/>
    <nd ref="301675899"/>
    <tag k="highway" v="residential"/>
    <tag k="name" v="Zakopiańska"/>
    <tag k="name:de" v="Weinbergstraße"/>
    <tag k="source" v="UMP-PL, ./UMP-Gdansk/src/GDANSK.ulice.txt"/>
  </way>
  <way id="27477666" version="6" timestamp="2011-03-18T19:35:50Z" uid="378154" user="rosomak" changeset="7598573">
    <nd ref="301672923"/>
    <nd ref="301672958"/>
    <nd ref="301672944"/>
    <nd ref="301672941"/>
    <nd ref="301672947"/>
    <nd ref="301672946"/>
    <nd ref="301675921"/>
    <nd ref="301675894"/>
    <nd ref="1207708778"/>
    <nd ref="1207708765"/>
    <nd ref="301675895"/>
    <nd ref="1207708784"/>
    <nd ref="301675892"/>
    <nd ref="1207708750"/>
    <nd ref="596395552"/>
    <nd ref="1207708762"/>
    <nd ref="301675893"/>
    <nd ref="1207708759"/>
    <nd ref="301675898"/>
    <nd ref="748346033"/>
    <nd ref="748346138"/>
    <nd ref="301675922"/>
    <nd ref="533994524"/>
    <nd ref="533994922"/>
    <nd ref="596395517"/>
    <nd ref="596395518"/>
    <nd ref="301675899"/>
    <tag k="highway" v="residential"/>
    <tag k="name" v="Zakopiańska"/>
    <tag k="name:de" v="Weinbergstraße"/>
    <tag k="source" v="UMP-PL, ./UMP-Gdansk/src/GDANSK.ulice.txt"/>
  </way>
  <way id="27477666" version="7" timestamp="2011-03-18T21:29:56Z" uid="378154" user="rosomak" changeset="7599610">
    <nd ref="301672923"/>
    <nd ref="301672958"/>
    <nd ref="301672944"/>
    <nd ref="301672941"/>
    <nd ref="301672947"/>
    <nd ref="301672946"/>
    <nd ref="301675921"/>
    <nd ref="301675894"/>
    <nd ref="1207708778"/>
    <nd ref="1207708765"/>
    <nd ref="301675895"/>
    <nd ref="1207708784"/>
    <nd ref="301675892"/>
    <nd ref="1207708750"/>
    <nd ref="596395552"/>
    <nd ref="1207708762"/>
    <nd ref="301675893"/>
    <nd ref="1207708759"/>
    <nd ref="301675898"/>
    <tag k="highway" v="residential"/>
    <tag k="name" v="Zakopiańska"/>
  </way>
  <way id="27477666" version="8" timestamp="2012-02-21T07:13:26Z" uid="598860" user="Marek-M" changeset="10747671">
    <nd ref="301672923"/>
    <nd ref="1641505661"/>
    <nd ref="301672958"/>
    <nd ref="301672944"/>
    <nd ref="301672941"/>
    <nd ref="301672947"/>
    <nd ref="301672946"/>
    <nd ref="301675921"/>
    <nd ref="301675894"/>
    <nd ref="1207708778"/>
    <nd ref="1207708765"/>
    <nd ref="301675895"/>
    <nd ref="1207708784"/>
    <nd ref="301675892"/>
    <nd ref="1207708750"/>
    <nd ref="596395552"/>
    <nd ref="1207708762"/>
    <nd ref="301675893"/>
    <nd ref="1207708759"/>
    <nd ref="301675898"/>
    <tag k="highway" v="residential"/>
    <tag k="name" v="Zakopiańska"/>
  </way>
  <way id="27477666" version="9" timestamp="2012-03-03T16:40:10Z" uid="378154" user="rosomak" changeset="10859629">
    <nd ref="301672923"/>
    <nd ref="1641505661"/>
    <nd ref="301672958"/>
    <nd ref="301672944"/>
    <nd ref="301672941"/>
    <nd ref="301672947"/>
    <nd ref="301672946"/>
    <nd ref="301675921"/>
    <nd ref="1207708778"/>
    <nd ref="1207708765"/>
    <nd ref="1207708784"/>
    <nd ref="301675892"/>
    <nd ref="1207708750"/>
    <nd ref="1207708762"/>
    <nd ref="301675893"/>
    <nd ref="1207708759"/>
    <nd ref="301675898"/>
    <tag k="highway" v="residential"/>
    <tag k="name" v="Zakopiańska"/>
  </way>
  <way id="27477676" version="4" timestamp="2011-03-02T13:23:26Z" uid="30632" user="antblant" changeset="7437698">
    <nd ref="301683033"/>
    <nd ref="1182694525"/>
    <tag k="highway" v="footway"/>
    <tag k="source" v="UMP-PL, ./UMP-Gdansk/src/GDANSK.ulice.txt"/>
  </way>
  <way id="27477683" version="5" timestamp="2009-09-02T21:46:00Z" uid="66036" user="h4v" changeset="2354271">
    <nd ref="301671602"/>
    <nd ref="481443534"/>
    <nd ref="301678444"/>
    <nd ref="301684201"/>
    <nd ref="301671625"/>
    <tag k="highway" v="secondary"/>
    <tag k="name" v="Majora Henryka Sucharskiego"/>
    <tag k="oneway" v="yes"/>
    <tag k="source" v="UMP-PL, ./UMP-Gdansk/src/GDANSK.ulice.txt"/>
  </way>
  <way id="27477683" version="6" timestamp="2009-12-18T23:17:21Z" uid="42429" user="FK270673" changeset="3404123">
    <nd ref="301671602"/>
    <nd ref="481443534"/>
    <nd ref="301678444"/>
    <nd ref="595795124"/>
    <nd ref="301684201"/>
    <nd ref="301671625"/>
    <tag k="highway" v="secondary"/>
    <tag k="name" v="Majora Henryka Sucharskiego"/>
    <tag k="oneway" v="yes"/>
    <tag k="source" v="UMP-PL, ./UMP-Gdansk/src/GDANSK.ulice.txt"/>
  </way>
  <way id="27477683" version="7" timestamp="2010-06-03T20:26:26Z" uid="91056" user="Yarl" changeset="4895951">
    <nd ref="301671602"/>
    <nd ref="481443534"/>
    <nd ref="301678444"/>
    <nd ref="595795124"/>
    <nd ref="301684201"/>
    <nd ref="301671625"/>
    <tag k="highway" v="tertiary"/>
    <tag k="name" v="Majora Henryka Sucharskiego"/>
    <tag k="oneway" v="yes"/>
    <tag k="source" v="UMP-PL, ./UMP-Gdansk/src/GDANSK.ulice.txt"/>
  </way>
  <way id="27477683" version="8" timestamp="2010-07-07T17:07:24Z" uid="86932" user="bialy111" changeset="5159944">
    <nd ref="301671602"/>
    <nd ref="481443534"/>
    <nd ref="301678444"/>
    <tag k="highway" v="tertiary"/>
    <tag k="name" v="Majora Henryka Sucharskiego"/>
    <tag k="oneway" v="yes"/>
    <tag k="source" v="UMP-PL, ./UMP-Gdansk/src/GDANSK.ulice.txt"/>
  </way>
  <way id="27477683" version="9" timestamp="2012-03-21T23:23:37Z" uid="571367" user="bronksiu" changeset="11058285">
    <nd ref="301671602"/>
    <nd ref="481443534"/>
    <nd ref="301678444"/>
    <tag k="highway" v="tertiary"/>
    <tag k="name" v="Majora Henryka Sucharskiego"/>
    <tag k="oneway" v="no"/>
    <tag k="source" v="UMP-PL, ./UMP-Gdansk/src/GDANSK.ulice.txt"/>
  </way>
  <way id="27477701" version="5" timestamp="2009-12-19T15:57:49Z" uid="20587" user="balrog-kun" changeset="3407737">
    <nd ref="301671575"/>
    <nd ref="596395618"/>
    <nd ref="596395616"/>
    <nd ref="301679203"/>
    <nd ref="596395601"/>
    <nd ref="596395597"/>
    <nd ref="301671899"/>
    <nd ref="114087146"/>
    <nd ref="301679587"/>
    <nd ref="301683282"/>
    <nd ref="301683272"/>
    <tag k="highway" v="secondary"/>
    <tag k="name" v="3 Maja"/>
    <tag k="oneway" v="yes"/>
    <tag k="source" v="UMP-PL, ./UMP-Gdansk/src/GDANSK.ulice.txt"/>
  </way>
  <way id="27477701" version="6" timestamp="2010-05-23T20:39:40Z" uid="91056" user="Yarl" changeset="4787638">
    <nd ref="301671575"/>
    <nd ref="596395618"/>
    <nd ref="596395616"/>
    <nd ref="301679203"/>
    <nd ref="596395601"/>
    <nd ref="596395597"/>
    <nd ref="301671899"/>
    <nd ref="114087146"/>
    <nd ref="301679587"/>
    <nd ref="301683272"/>
    <tag k="highway" v="secondary"/>
    <tag k="name" v="3 Maja"/>
    <tag k="oneway" v="yes"/>
    <tag k="source" v="UMP-PL, ./UMP-Gdansk/src/GDANSK.ulice.txt"/>
  </way>
  <way id="27477701" version="7" timestamp="2011-03-19T17:00:39Z" uid="378154" user="rosomak" changeset="7607185">
    <nd ref="301671575"/>
    <nd ref="596395618"/>
    <nd ref="596395616"/>
    <nd ref="301679203"/>
    <nd ref="596395601"/>
    <nd ref="596395597"/>
    <nd ref="1209196534"/>
    <nd ref="301671899"/>
    <nd ref="114087146"/>
    <nd ref="301679587"/>
    <nd ref="301683272"/>
    <tag k="highway" v="secondary"/>
    <tag k="name" v="3 Maja"/>
    <tag k="oneway" v="yes"/>
    <tag k="source" v="UMP-PL, ./UMP-Gdansk/src/GDANSK.ulice.txt"/>
  </way>
  <way id="27477701" version="8" timestamp="2011-09-16T21:59:43Z" uid="500953" user="skradacz" changeset="9320171">
    <nd ref="301671575"/>
    <nd ref="596395618"/>
    <nd ref="596395616"/>
    <nd ref="301679203"/>
    <nd ref="596395601"/>
    <nd ref="1434998460"/>
    <nd ref="596395597"/>
    <nd ref="1209196534"/>
    <nd ref="301671899"/>
    <nd ref="114087146"/>
    <nd ref="301679587"/>
    <nd ref="301683272"/>
    <tag k="highway" v="secondary"/>
    <tag k="name" v="3 Maja"/>
    <tag k="oneway" v="yes"/>
    <tag k="source" v="UMP-PL, ./UMP-Gdansk/src/GDANSK.ulice.txt"/>
  </way>
  <way id="27477701" version="9" timestamp="2012-02-23T14:05:24Z" uid="378154" user="rosomak" changeset="10768450">
    <nd ref="301671575"/>
    <nd ref="596395618"/>
    <nd ref="596395616"/>
    <nd ref="301679203"/>
    <nd ref="596395601"/>
    <nd ref="1434998460"/>
    <nd ref="596395597"/>
    <nd ref="1209196534"/>
    <nd ref="301671899"/>
    <nd ref="114087146"/>
    <nd ref="301679587"/>
    <nd ref="301683272"/>
    <tag k="highway" v="secondary"/>
    <tag k="name" v="3 Maja"/>
    <tag k="oneway" v="yes"/>
  </way>
  <way id="27477703" version="3" timestamp="2009-09-02T20:58:41Z" uid="66036" user="h4v" changeset="2353898">
    <nd ref="481393319"/>
    <nd ref="481393317"/>
    <nd ref="481393315"/>
    <nd ref="481393313"/>
    <nd ref="481393311"/>
    <nd ref="481393308"/>
    <nd ref="301671351"/>
    <tag k="highway" v="path"/>
  </way>
  <way id="27477724" version="2" timestamp="2009-09-02T21:45:58Z" uid="66036" user="h4v" changeset="2354271">
    <nd ref="301683263"/>
    <nd ref="301671571"/>
    <nd ref="301683262"/>
    <nd ref="301679801"/>
    <tag k="highway" v="footway"/>
    <tag k="layer" v="-1"/>
    <tag k="name" v="(podziemne)"/>
    <tag k="source" v="UMP-PL, ./UMP-Gdansk/src/GDANSK.ulice.txt"/>
  </way>
  <way id="27477724" version="3" timestamp="2009-12-19T15:57:51Z" uid="20587" user="balrog-kun" changeset="3407737">
    <nd ref="301683263"/>
    <nd ref="301671571"/>
    <nd ref="301683262"/>
    <nd ref="301679801"/>
    <tag k="highway" v="footway"/>
    <tag k="layer" v="-1"/>
    <tag k="source" v="UMP-PL, ./UMP-Gdansk/src/GDANSK.ulice.txt"/>
    <tag k="tunnel" v="yes"/>
  </way>
  <way id="27477724" version="4" timestamp="2010-05-24T16:38:06Z" uid="91056" user="Yarl" changeset="4794681">
    <nd ref="301683263"/>
    <nd ref="301671571"/>
    <nd ref="747182688"/>
    <nd ref="747182693"/>
    <nd ref="301683262"/>
    <tag k="highway" v="footway"/>
    <tag k="layer" v="-1"/>
    <tag k="source" v="UMP-PL, ./UMP-Gdansk/src/GDANSK.ulice.txt"/>
    <tag k="tunnel" v="yes"/>
  </way>
  <way id="27477724" version="5" timestamp="2011-08-06T21:05:37Z" uid="500953" user="skradacz" changeset="8941970">
    <nd ref="1388939580"/>
    <nd ref="1388939624"/>
    <nd ref="1388939620"/>
    <nd ref="301683263"/>
    <nd ref="1388939639"/>
    <nd ref="301671571"/>
    <nd ref="1388939589"/>
    <nd ref="747182688"/>
    <tag k="highway" v="footway"/>
    <tag k="layer" v="-1"/>
    <tag k="source" v="UMP-PL, ./UMP-Gdansk/src/GDANSK.ulice.txt"/>
    <tag k="tunnel" v="yes"/>
  </way>
  <way id="27477724" version="6" timestamp="2011-08-30T06:30:22Z" uid="500953" user="skradacz" changeset="9164127">
    <nd ref="1417777514"/>
    <nd ref="1388939580"/>
    <nd ref="1388939624"/>
    <nd ref="1388939620"/>
    <nd ref="301683263"/>
    <nd ref="1388939639"/>
    <nd ref="301671571"/>
    <nd ref="1388939589"/>
    <nd ref="747182688"/>
    <tag k="highway" v="footway"/>
    <tag k="layer" v="-1"/>
    <tag k="source" v="UMP-PL, ./UMP-Gdansk/src/GDANSK.ulice.txt"/>
    <tag k="tunnel" v="yes"/>
  </way>
  <way id="27477739" version="3" timestamp="2009-12-18T14:05:35Z" uid="20587" user="balrog-kun" changeset="3400728">
    <nd ref="301678722"/>
    <nd ref="301671642"/>
    <nd ref="301678962"/>
    <nd ref="301682597"/>
    <nd ref="301682598"/>
    <nd ref="301682595"/>
    <nd ref="301682596"/>
    <nd ref="301682609"/>
    <nd ref="301682610"/>
    <nd ref="301682607"/>
    <tag k="highway" v="residential"/>
    <tag k="name" v="Tarcice"/>
    <tag k="surface" v="unpaved"/>
  </way>
  <way id="27477739" version="4" timestamp="2011-05-19T08:14:59Z" uid="378154" user="rosomak" changeset="8187696">
    <nd ref="301678722"/>
    <nd ref="301678962"/>
    <nd ref="301682597"/>
    <nd ref="301682598"/>
    <nd ref="301682595"/>
    <nd ref="301682596"/>
    <nd ref="301682609"/>
    <nd ref="301682610"/>
    <nd ref="301682607"/>
    <tag k="highway" v="residential"/>
    <tag k="name" v="Tarcice"/>
    <tag k="surface" v="unpaved"/>
  </way>
  <way id="27477739" version="5" timestamp="2011-05-19T14:21:04Z" uid="378154" user="rosomak" changeset="8190248">
    <nd ref="301678722"/>
    <nd ref="301678962"/>
    <nd ref="301682598"/>
    <nd ref="301682609"/>
    <nd ref="301682610"/>
    <nd ref="301682607"/>
    <tag k="highway" v="residential"/>
    <tag k="name" v="Tarcice"/>
    <tag k="surface" v="unpaved"/>
  </way>
  <way id="27477744" version="3" timestamp="2009-12-16T18:00:03Z" uid="42429" user="FK270673" changeset="3388424">
    <nd ref="301671573"/>
    <nd ref="301671899"/>
    <nd ref="301671907"/>
    <nd ref="301671908"/>
    <nd ref="301671905"/>
    <nd ref="301671906"/>
    <tag k="highway" v="residential"/>
    <tag k="name" v="Rogaczewskiego"/>
    <tag k="name:de" v="Sandgrube"/>
    <tag k="source" v="UMP-PL, ./UMP-Gdansk/src/GDANSK.ulice.txt"/>
  </way>
  <way id="27477744" version="4" timestamp="2009-12-19T15:57:50Z" uid="20587" user="balrog-kun" changeset="3407737">
    <nd ref="301671573"/>
    <nd ref="301671899"/>
    <nd ref="301671907"/>
    <nd ref="301671908"/>
    <nd ref="301671905"/>
    <nd ref="301671906"/>
    <tag k="highway" v="residential"/>
    <tag k="name" v="Księdza Franciszka Rogaczewskiego"/>
    <tag k="name:de" v="Sandgrube"/>
    <tag k="source" v="UMP-PL, ./UMP-Gdansk/src/GDANSK.ulice.txt"/>
  </way>
  <way id="27477744" version="5" timestamp="2011-01-27T15:32:02Z" uid="378154" user="rosomak" changeset="7104675">
    <nd ref="301671573"/>
    <nd ref="301671899"/>
    <nd ref="301671907"/>
    <nd ref="301671908"/>
    <nd ref="301671905"/>
    <nd ref="301671906"/>
    <tag k="highway" v="residential"/>
    <tag k="name" v="Księdza Franciszka Rogaczewskiego"/>
    <tag k="source" v="UMP-PL, ./UMP-Gdansk/src/GDANSK.ulice.txt"/>
  </way>
  <way id="27477744" version="6" timestamp="2011-02-06T06:41:03Z" uid="378154" user="rosomak" changeset="7200164">
    <nd ref="301671573"/>
    <nd ref="301671899"/>
    <nd ref="1138643023"/>
    <nd ref="301671907"/>
    <nd ref="301671908"/>
    <nd ref="1138643029"/>
    <nd ref="301671905"/>
    <nd ref="301672886"/>
    <nd ref="301671906"/>
    <tag k="highway" v="residential"/>
    <tag k="name" v="Księdza Franciszka Rogaczewskiego"/>
    <tag k="source" v="UMP-PL, ./UMP-Gdansk/src/GDANSK.ulice.txt"/>
  </way>
  <way id="27477753" version="3" timestamp="2008-11-10T10:25:09Z" uid="78826" user="laboraetora" changeset="732335">
    <nd ref="301686615"/>
    <nd ref="301686330"/>
    <nd ref="301686315"/>
    <nd ref="301686332"/>
    <nd ref="301686329"/>
    <nd ref="301686314"/>
    <nd ref="301686613"/>
    <nd ref="301686320"/>
    <nd ref="301686313"/>
    <nd ref="301686336"/>
    <nd ref="301686339"/>
    <nd ref="301686338"/>
    <nd ref="301686341"/>
    <nd ref="301686331"/>
    <nd ref="301686335"/>
    <nd ref="301686684"/>
    <tag k="created_by" v="Potlatch 0.10f"/>
    <tag k="highway" v="residential"/>
    <tag k="name" v="Wilanowska"/>
    <tag k="source" v="UMP-PL, ./UMP-Gdansk/src/GDANSK.ulice.txt"/>
  </way>
  <way id="27477753" version="4" timestamp="2009-05-11T04:32:47Z" uid="121291" user="bmalkow" changeset="1147338">
    <nd ref="301686615"/>
    <nd ref="393644533"/>
    <nd ref="301686330"/>
    <nd ref="301686315"/>
    <nd ref="301686332"/>
    <nd ref="301686329"/>
    <nd ref="301686314"/>
    <nd ref="301686613"/>
    <nd ref="301686320"/>
    <nd ref="301686313"/>
    <nd ref="301686336"/>
    <nd ref="301686339"/>
    <nd ref="301686338"/>
    <nd ref="301686341"/>
    <nd ref="301686331"/>
    <nd ref="301686335"/>
    <nd ref="301686684"/>
    <tag k="created_by" v="Potlatch 0.10f"/>
    <tag k="highway" v="residential"/>
    <tag k="name" v="Wilanowska"/>
    <tag k="source" v="UMP-PL, ./UMP-Gdansk/src/GDANSK.ulice.txt"/>
  </way>
  <way id="27477753" version="5" timestamp="2010-06-20T19:29:04Z" uid="86932" user="bialy111" changeset="5036468">
    <nd ref="301686615"/>
    <nd ref="393644533"/>
    <nd ref="301686330"/>
    <nd ref="301686315"/>
    <nd ref="301686332"/>
    <nd ref="301686329"/>
    <nd ref="301686314"/>
    <nd ref="301686613"/>
    <nd ref="301686320"/>
    <nd ref="301686313"/>
    <nd ref="301686336"/>
    <nd ref="301686339"/>
    <nd ref="301686338"/>
    <nd ref="301686341"/>
    <nd ref="301686331"/>
    <nd ref="301686335"/>
    <tag k="highway" v="residential"/>
    <tag k="name" v="Wilanowska"/>
    <tag k="source" v="UMP-PL, ./UMP-Gdansk/src/GDANSK.ulice.txt"/>
  </way>
  <way id="27477753" version="6" timestamp="2010-06-20T19:29:35Z" uid="86932" user="bialy111" changeset="5036468"/>
  <way id="27477755" version="4" timestamp="2009-12-18T14:05:34Z" uid="20587" user="balrog-kun" changeset="3400728">
    <nd ref="301672218"/>
    <nd ref="475295431"/>
    <tag k="bridge" v="yes"/>
    <tag k="highway" v="residential"/>
    <tag k="layer" v="1"/>
    <tag k="maxweight" v="10"/>
    <tag k="name" v="Stągiewna"/>
    <tag k="noexit" v="yes"/>
    <tag k="source" v="UMP-PL, ./UMP-Gdansk/src/GDANSK.ulice.txt"/>
  </way>
  <way id="27477755" version="5" timestamp="2009-12-18T23:17:07Z" uid="42429" user="FK270673" changeset="3404123">
    <nd ref="301672218"/>
    <nd ref="475295431"/>
    <tag k="bridge" v="yes"/>
    <tag k="highway" v="residential"/>
    <tag k="layer" v="1"/>
    <tag k="maxweight" v="10"/>
    <tag k="name" v="Stągiewna"/>
    <tag k="name:de" v="Grüne Brücke"/>
    <tag k="noexit" v="yes"/>
    <tag k="source" v="UMP-PL, ./UMP-Gdansk/src/GDANSK.ulice.txt"/>
  </way>
  <way id="27477755" version="6" timestamp="2010-05-23T14:18:06Z" uid="91056" user="Yarl" changeset="4783654">
    <nd ref="475295429"/>
    <nd ref="475295431"/>
    <tag k="bridge" v="yes"/>
    <tag k="highway" v="residential"/>
    <tag k="layer" v="1"/>
    <tag k="maxweight" v="10"/>
    <tag k="name" v="Stągiewna"/>
    <tag k="name:de" v="Grüne Brücke"/>
    <tag k="noexit" v="yes"/>
    <tag k="source" v="UMP-PL, ./UMP-Gdansk/src/GDANSK.ulice.txt"/>
  </way>
  <way id="27477755" version="7" timestamp="2010-06-04T11:57:31Z" uid="91056" user="Yarl" changeset="4900538">
    <nd ref="475295429"/>
    <nd ref="475295431"/>
    <tag k="bridge" v="yes"/>
    <tag k="highway" v="residential"/>
    <tag k="layer" v="1"/>
    <tag k="maxweight" v="10"/>
    <tag k="name" v="Most Zielony"/>
    <tag k="noexit" v="yes"/>
    <tag k="source" v="UMP-PL, ./UMP-Gdansk/src/GDANSK.ulice.txt"/>
  </way>
  <way id="27477764" version="2" timestamp="2009-12-19T15:57:51Z" uid="20587" user="balrog-kun" changeset="3407737">
    <nd ref="301683253"/>
    <nd ref="301683274"/>
    <nd ref="301679715"/>
    <nd ref="301679643"/>
    <nd ref="301683273"/>
    <tag k="highway" v="footway"/>
    <tag k="layer" v="-1"/>
    <tag k="source" v="UMP-PL, ./UMP-Gdansk/src/GDANSK.ulice.txt"/>
    <tag k="tunnel" v="yes"/>
  </way>
  <way id="27477764" version="3" timestamp="2012-01-08T13:16:15Z" uid="500953" user="skradacz" changeset="10331194">
    <nd ref="301683253"/>
    <nd ref="301679715"/>
    <nd ref="301679643"/>
    <nd ref="301683273"/>
    <tag k="highway" v="footway"/>
    <tag k="layer" v="-1"/>
    <tag k="source" v="UMP-PL, ./UMP-Gdansk/src/GDANSK.ulice.txt"/>
    <tag k="tunnel" v="yes"/>
  </way>
  <way id="27477769" version="4" timestamp="2009-09-02T20:58:41Z" uid="66036" user="h4v" changeset="2353898">
    <nd ref="255723298"/>
    <nd ref="301672972"/>
    <nd ref="301672976"/>
    <nd ref="301672975"/>
    <nd ref="301672982"/>
    <nd ref="301672978"/>
    <nd ref="301672961"/>
    <nd ref="301672960"/>
    <nd ref="301672963"/>
    <nd ref="301672962"/>
    <nd ref="301672966"/>
    <nd ref="301672964"/>
    <nd ref="301672968"/>
    <nd ref="481393328"/>
    <nd ref="301672967"/>
    <nd ref="301673016"/>
    <nd ref="301673011"/>
    <tag k="highway" v="residential"/>
    <tag k="name" v="Strzelecka"/>
    <tag k="source" v="UMP-PL, ./UMP-Gdansk/src/GDANSK.ulice.txt"/>
  </way>
  <way id="27477769" version="5" timestamp="2009-12-18T23:17:02Z" uid="42429" user="FK270673" changeset="3404123">
    <nd ref="255723298"/>
    <nd ref="301672972"/>
    <nd ref="301672976"/>
    <nd ref="301672975"/>
    <nd ref="301672982"/>
    <nd ref="301672978"/>
    <nd ref="301672961"/>
    <nd ref="301672960"/>
    <nd ref="301672963"/>
    <nd ref="301672962"/>
    <nd ref="301672966"/>
    <nd ref="301672964"/>
    <nd ref="301672968"/>
    <nd ref="481393328"/>
    <nd ref="301672967"/>
    <nd ref="301673016"/>
    <nd ref="301673011"/>
    <tag k="highway" v="residential"/>
    <tag k="name" v="Strzelecka"/>
    <tag k="name:de" v="Schützengang"/>
    <tag k="source" v="UMP-PL, ./UMP-Gdansk/src/GDANSK.ulice.txt"/>
  </way>
  <way id="27477769" version="6" timestamp="2010-12-07T22:42:58Z" uid="378154" user="rosomak" changeset="6580659">
    <nd ref="255723298"/>
    <nd ref="301672976"/>
    <nd ref="301672975"/>
    <nd ref="301672982"/>
    <nd ref="301672961"/>
    <nd ref="301672960"/>
    <nd ref="301672963"/>
    <nd ref="301672962"/>
    <nd ref="301672966"/>
    <nd ref="301672964"/>
    <nd ref="301672968"/>
    <nd ref="481393328"/>
    <nd ref="301672967"/>
    <nd ref="301673016"/>
    <nd ref="301673011"/>
    <tag k="highway" v="residential"/>
    <tag k="name" v="Strzelecka"/>
    <tag k="name:de" v="Schützengang"/>
    <tag k="source" v="UMP-PL, ./UMP-Gdansk/src/GDANSK.ulice.txt"/>
  </way>
  <way id="27477769" version="7" timestamp="2011-01-27T15:32:01Z" uid="378154" user="rosomak" changeset="7104675">
    <nd ref="255723298"/>
    <nd ref="301672976"/>
    <nd ref="301672975"/>
    <nd ref="301672982"/>
    <nd ref="301672961"/>
    <nd ref="301672960"/>
    <nd ref="301672963"/>
    <nd ref="301672962"/>
    <nd ref="301672966"/>
    <nd ref="301672964"/>
    <nd ref="301672968"/>
    <nd ref="481393328"/>
    <nd ref="301672967"/>
    <nd ref="301673016"/>
    <nd ref="301673011"/>
    <tag k="highway" v="residential"/>
    <tag k="name" v="Strzelecka"/>
    <tag k="source" v="UMP-PL, ./UMP-Gdansk/src/GDANSK.ulice.txt"/>
  </way>
  <way id="27477769" version="8" timestamp="2011-01-30T01:57:48Z" uid="378154" user="rosomak" changeset="7129676"/>
  <way id="27477783" version="2" timestamp="2009-12-19T15:57:52Z" uid="20587" user="balrog-kun" changeset="3407737">
    <nd ref="301683262"/>
    <nd ref="301683261"/>
    <nd ref="301679804"/>
    <nd ref="301683255"/>
    <tag k="highway" v="footway"/>
    <tag k="layer" v="-1"/>
    <tag k="source" v="UMP-PL, ./UMP-Gdansk/src/GDANSK.ulice.txt"/>
    <tag k="tunnel" v="yes"/>
  </way>
  <way id="27477783" version="3" timestamp="2010-05-24T16:38:04Z" uid="91056" user="Yarl" changeset="4794681">
    <nd ref="301683262"/>
    <nd ref="301683261"/>
    <nd ref="747182706"/>
    <nd ref="747182701"/>
    <nd ref="747182716"/>
    <tag k="highway" v="footway"/>
    <tag k="layer" v="-1"/>
    <tag k="source" v="UMP-PL, ./UMP-Gdansk/src/GDANSK.ulice.txt"/>
    <tag k="tunnel" v="yes"/>
  </way>
  <way id="27477785" version="2" timestamp="2009-12-18T14:05:35Z" uid="20587" user="balrog-kun" changeset="3400728">
    <nd ref="301672066"/>
    <nd ref="595656628"/>
    <nd ref="301672087"/>
    <tag k="highway" v="footway"/>
    <tag k="source" v="UMP-PL, ./UMP-Gdansk/src/GDANSK.ulice.txt"/>
    <tag k="wikipedia" v="pl:Ulica Mariacka w Gdańsku"/>
  </way>
  <way id="27477785" version="3" timestamp="2011-08-08T17:30:13Z" uid="500953" user="skradacz" changeset="8959248">
    <nd ref="301672066"/>
    <nd ref="301672087"/>
    <tag k="highway" v="pedestrian"/>
    <tag k="source" v="UMP-PL, ./UMP-Gdansk/src/GDANSK.ulice.txt"/>
  </way>
  <way id="27477803" version="2" timestamp="2009-12-18T14:05:34Z" uid="20587" user="balrog-kun" changeset="3400728">
    <nd ref="301672023"/>
    <nd ref="301672088"/>
    <tag k="highway" v="footway"/>
    <tag k="name" v="Świętego Ducha"/>
    <tag k="old_name" v="Platea Sancti Spiritus"/>
    <tag k="source" v="UMP-PL, ./UMP-Gdansk/src/GDANSK.ulice.txt"/>
    <tag k="wikipedia" v="pl:Ulica św. Ducha w Gdańsku"/>
  </way>
  <way id="27477803" version="3" timestamp="2009-12-19T00:49:31Z" uid="42429" user="FK270673" changeset="3404412">
    <nd ref="301672023"/>
    <nd ref="301672088"/>
    <tag k="highway" v="footway"/>
    <tag k="name" v="Świętego Ducha"/>
    <tag k="name:de" v="Heiliggeistgasse"/>
    <tag k="name:la" v="Platea Sancti Spiritus"/>
    <tag k="old_name" v="Platea Sancti Spiritus"/>
    <tag k="source" v="UMP-PL, ./UMP-Gdansk/src/GDANSK.ulice.txt"/>
    <tag k="wikipedia" v="pl:Ulica św. Ducha w Gdańsku"/>
  </way>
  <way id="27477803" version="4" timestamp="2010-06-04T11:57:32Z" uid="91056" user="Yarl" changeset="4900538"/>
  <way id="27477842" version="3" timestamp="2009-09-02T21:59:03Z" uid="66036" user="h4v" changeset="2354341">
    <nd ref="301671812"/>
    <nd ref="301671878"/>
    <nd ref="301671883"/>
    <nd ref="301671873"/>
    <nd ref="481450944"/>
    <nd ref="276037294"/>
    <tag k="highway" v="residential"/>
    <tag k="name" v="Osiedle"/>
    <tag k="source" v="UMP-PL, ./UMP-Gdansk/src/GDANSK.ulice.txt"/>
  </way>
  <way id="27477844" version="3" timestamp="2009-09-02T21:46:03Z" uid="66036" user="h4v" changeset="2354271">
    <nd ref="301676022"/>
    <nd ref="481443565"/>
    <nd ref="301671072"/>
    <tag k="highway" v="residential"/>
    <tag k="name" v="Konarskiego"/>
    <tag k="source" v="UMP-PL, ./UMP-Gdansk/src/GDANSK.ulice.txt"/>
  </way>
  <way id="27477844" version="4" timestamp="2011-01-07T18:41:47Z" uid="378154" user="rosomak" changeset="6895961">
    <nd ref="301676022"/>
    <nd ref="481443565"/>
    <nd ref="301671072"/>
    <tag k="highway" v="residential"/>
    <tag k="name" v="Stanisława Konarskiego"/>
    <tag k="source" v="UMP-PL, ./UMP-Gdansk/src/GDANSK.ulice.txt"/>
  </way>
  <way id="27477844" version="5" timestamp="2011-01-16T14:36:44Z" uid="378154" user="rosomak" changeset="6988320">
    <nd ref="301676022"/>
    <nd ref="481443565"/>
    <nd ref="301671072"/>
    <tag k="highway" v="residential"/>
    <tag k="name" v="Stanisława Konarskiego"/>
  </way>
  <way id="27477853" version="4" timestamp="2009-05-07T08:51:25Z" uid="30632" user="antblant" changeset="1104842">
    <nd ref="301671579"/>
    <nd ref="301684214"/>
    <nd ref="301679868"/>
    <tag k="created_by" v="JOSM"/>
    <tag k="highway" v="primary"/>
    <tag k="int_ref" v="E 75;E 77"/>
    <tag k="name" v="Jana z Kolna"/>
    <tag k="ref" v="1"/>
    <tag k="source" v="UMP-PL, ./UMP-Gdansk/src/GDANSK.ulice.txt"/>
  </way>
  <way id="27477853" version="5" timestamp="2010-05-24T15:30:36Z" uid="91056" user="Yarl" changeset="4794681">
    <nd ref="301671579"/>
    <nd ref="301684214"/>
    <nd ref="301679868"/>
    <tag k="highway" v="primary"/>
    <tag k="int_ref" v="E 75;E 77"/>
    <tag k="name" v="Jana z Kolna"/>
    <tag k="oneway" v="yes"/>
    <tag k="ref" v="1"/>
    <tag k="source" v="UMP-PL, ./UMP-Gdansk/src/GDANSK.ulice.txt"/>
  </way>
  <way id="27477853" version="6" timestamp="2010-12-07T21:02:18Z" uid="378154" user="rosomak" changeset="6579657">
    <nd ref="301671579"/>
    <nd ref="301679868"/>
    <tag k="highway" v="primary"/>
    <tag k="int_ref" v="E 75;E 77"/>
    <tag k="name" v="Jana z Kolna"/>
    <tag k="oneway" v="yes"/>
    <tag k="ref" v="1"/>
    <tag k="source" v="UMP-PL, ./UMP-Gdansk/src/GDANSK.ulice.txt"/>
  </way>
  <way id="27477853" version="7" timestamp="2010-12-07T21:32:04Z" uid="378154" user="rosomak" changeset="6579657">
    <nd ref="301671579"/>
    <nd ref="1027208309"/>
    <nd ref="301679868"/>
    <tag k="highway" v="primary"/>
    <tag k="int_ref" v="E 75;E 77"/>
    <tag k="name" v="Jana z Kolna"/>
    <tag k="oneway" v="yes"/>
    <tag k="ref" v="1"/>
    <tag k="source" v="UMP-PL, ./UMP-Gdansk/src/GDANSK.ulice.txt"/>
  </way>
  <way id="27477853" version="8" timestamp="2012-02-20T01:12:15Z" uid="467703" user="Zbigniew Czernik" changeset="10736568">
    <nd ref="301671579"/>
    <nd ref="1027208309"/>
    <nd ref="301679868"/>
    <tag k="highway" v="primary"/>
    <tag k="int_ref" v="E 75;E 77"/>
    <tag k="name" v="Jana z Kolna"/>
    <tag k="oneway" v="yes"/>
    <tag k="ref" v="1"/>
  </way>
  <way id="27477853" version="9" timestamp="2012-03-15T04:36:12Z" uid="88909" user="miko101" changeset="10984819">
    <nd ref="301671579"/>
    <nd ref="1027208309"/>
    <nd ref="301679868"/>
    <tag k="highway" v="primary"/>
    <tag k="int_ref" v="E 75;E 77"/>
    <tag k="name" v="Jana z Kolna"/>
    <tag k="note" v="DK1 konczy sie na węźle z S6 (Rusocin)"/>
    <tag k="oneway" v="yes"/>
    <tag k="ref" v="91"/>
  </way>
  <way id="27477857" version="3" timestamp="2009-12-19T15:57:50Z" uid="20587" user="balrog-kun" changeset="3407737">
    <nd ref="596395561"/>
    <nd ref="301680352"/>
    <nd ref="301683270"/>
    <nd ref="301683269"/>
    <nd ref="301671561"/>
    <tag k="highway" v="secondary"/>
    <tag k="name" v="Węzeł Groddecka"/>
    <tag k="source" v="UMP-PL, ./UMP-Gdansk/src/GDANSK.ulice.txt"/>
  </way>
  <way id="27477857" version="4" timestamp="2010-05-23T20:40:03Z" uid="91056" user="Yarl" changeset="4787638">
    <nd ref="596395561"/>
    <nd ref="301680352"/>
    <nd ref="301683270"/>
    <nd ref="301683269"/>
    <nd ref="301671561"/>
    <tag k="highway" v="secondary_link"/>
    <tag k="name" v="Węzeł Groddecka"/>
    <tag k="oneway" v="yes"/>
    <tag k="source" v="UMP-PL, ./UMP-Gdansk/src/GDANSK.ulice.txt"/>
  </way>
  <way id="27477857" version="5" timestamp="2012-02-23T14:05:10Z" uid="378154" user="rosomak" changeset="10768450">
    <nd ref="596395561"/>
    <nd ref="301683270"/>
    <nd ref="301683269"/>
    <nd ref="301671561"/>
    <tag k="highway" v="secondary_link"/>
    <tag k="name" v="Węzeł Groddecka"/>
    <tag k="oneway" v="yes"/>
    <tag k="source" v="UMP-PL, ./UMP-Gdansk/src/GDANSK.ulice.txt"/>
  </way>
  <way id="27477863" version="3" timestamp="2009-09-02T21:45:56Z" uid="66036" user="h4v" changeset="2354271">
    <nd ref="301672265"/>
    <nd ref="481443507"/>
    <nd ref="301672392"/>
    <nd ref="301672414"/>
    <nd ref="301672415"/>
    <nd ref="301672416"/>
    <nd ref="301672417"/>
    <tag k="highway" v="residential"/>
    <tag k="name" v="Powalna"/>
    <tag k="source" v="UMP-PL, ./UMP-Gdansk/src/GDANSK.ulice.txt"/>
  </way>
  <way id="27477867" version="2" timestamp="2008-10-07T16:41:03Z" uid="30632" user="antblant" changeset="141448">
    <nd ref="301679725"/>
    <nd ref="301679707"/>
    <nd ref="301684197"/>
    <nd ref="301679785"/>
    <nd ref="301679791"/>
    <tag k="UMP_Level" v="4"/>
    <tag k="created_by" v="Potlatch 0.10d"/>
    <tag k="highway" v="primary"/>
    <tag k="name" v="Okopowa"/>
    <tag k="ref" v="1"/>
    <tag k="source" v="UMP-PL, ./UMP-Gdansk/src/GDANSK.ulice.txt"/>
  </way>
  <way id="27477867" version="4" timestamp="2008-12-29T16:33:48Z" uid="59808" user="ortylp" changeset="664597">
    <nd ref="301679725"/>
    <nd ref="301679707"/>
    <nd ref="301684197"/>
    <nd ref="301679785"/>
    <nd ref="301679791"/>
    <tag k="created_by" v="Potlatch 0.10d"/>
    <tag k="highway" v="primary"/>
    <tag k="name" v="Okopowa"/>
    <tag k="oneway" v="yes"/>
    <tag k="ref" v="1"/>
    <tag k="source" v="UMP-PL, ./UMP-Gdansk/src/GDANSK.ulice.txt"/>
  </way>
  <way id="27477867" version="5" timestamp="2009-02-22T21:19:35Z" uid="9176" user="Maarten Deen" changeset="627960">
    <nd ref="301679725"/>
    <nd ref="301679707"/>
    <tag k="created_by" v="Potlatch 0.10d"/>
    <tag k="highway" v="primary_link"/>
    <tag k="name" v="Okopowa"/>
    <tag k="oneway" v="yes"/>
    <tag k="ref" v="1"/>
    <tag k="source" v="UMP-PL, ./UMP-Gdansk/src/GDANSK.ulice.txt"/>
  </way>
  <way id="27477867" version="6" timestamp="2009-05-07T08:52:49Z" uid="30632" user="antblant" changeset="1104842">
    <nd ref="301679725"/>
    <nd ref="301679707"/>
    <tag k="created_by" v="Potlatch 0.10d"/>
    <tag k="highway" v="primary_link"/>
    <tag k="name" v="Okopowa"/>
    <tag k="oneway" v="yes"/>
    <tag k="source" v="UMP-PL, ./UMP-Gdansk/src/GDANSK.ulice.txt"/>
  </way>
  <way id="27477877" version="3" timestamp="2008-11-10T10:26:25Z" uid="78826" user="laboraetora" changeset="732335">
    <nd ref="301686684"/>
    <nd ref="301686687"/>
    <nd ref="301686690"/>
    <nd ref="301686685"/>
    <nd ref="301686688"/>
    <nd ref="301686676"/>
    <nd ref="301686689"/>
    <nd ref="311001164"/>
    <nd ref="301686678"/>
    <nd ref="301686675"/>
    <nd ref="301686680"/>
    <nd ref="301686677"/>
    <nd ref="301686682"/>
    <nd ref="301686679"/>
    <nd ref="301686666"/>
    <nd ref="301686641"/>
    <nd ref="301686681"/>
    <nd ref="301685966"/>
    <nd ref="301686639"/>
    <nd ref="301686642"/>
    <nd ref="301686637"/>
    <nd ref="301686604"/>
    <nd ref="301686640"/>
    <nd ref="301686635"/>
    <tag k="created_by" v="Potlatch 0.10f"/>
    <tag k="highway" v="residential"/>
    <tag k="name" v="Nieborowska"/>
    <tag k="source" v="UMP-PL, ./UMP-Gdansk/src/GDANSK.ulice.txt"/>
  </way>
  <way id="27477877" version="4" timestamp="2011-07-26T09:02:21Z" uid="378154" user="rosomak" changeset="8833509">
    <nd ref="301686684"/>
    <nd ref="301686687"/>
    <nd ref="301686690"/>
    <nd ref="301686685"/>
    <nd ref="301686688"/>
    <nd ref="301686676"/>
    <nd ref="301686689"/>
    <nd ref="311001164"/>
    <nd ref="301686678"/>
    <nd ref="301686675"/>
    <nd ref="301686680"/>
    <nd ref="301686677"/>
    <nd ref="301686682"/>
    <nd ref="301686679"/>
    <nd ref="301686666"/>
    <nd ref="301686641"/>
    <nd ref="301686681"/>
    <nd ref="301685966"/>
    <tag k="highway" v="residential"/>
    <tag k="name" v="Nieborowska"/>
    <tag k="source" v="UMP-PL, ./UMP-Gdansk/src/GDANSK.ulice.txt"/>
  </way>
  <way id="27477877" version="5" timestamp="2012-02-25T19:31:18Z" uid="598860" user="Marek-M" changeset="10791251">
    <nd ref="1647446892"/>
    <nd ref="301686687"/>
    <nd ref="301686690"/>
    <nd ref="301686685"/>
    <nd ref="301686688"/>
    <nd ref="301686676"/>
    <nd ref="301686689"/>
    <nd ref="311001164"/>
    <nd ref="301686678"/>
    <nd ref="301686675"/>
    <nd ref="301686680"/>
    <nd ref="301686677"/>
    <nd ref="301686682"/>
    <nd ref="301686679"/>
    <nd ref="301686666"/>
    <nd ref="301686641"/>
    <nd ref="301686681"/>
    <nd ref="301685966"/>
    <tag k="highway" v="residential"/>
    <tag k="name" v="Nieborowska"/>
    <tag k="source" v="UMP-PL, ./UMP-Gdansk/src/GDANSK.ulice.txt"/>
  </way>
  <way id="27477877" version="6" timestamp="2012-02-25T19:45:26Z" uid="598860" user="Marek-M" changeset="10791251">
    <nd ref="1647446892"/>
    <nd ref="301686687"/>
    <nd ref="301686690"/>
    <nd ref="301686685"/>
    <nd ref="301686688"/>
    <nd ref="301686676"/>
    <nd ref="301686689"/>
    <nd ref="1647458510"/>
    <nd ref="311001164"/>
    <nd ref="301686678"/>
    <nd ref="301686675"/>
    <nd ref="301686680"/>
    <nd ref="301686677"/>
    <nd ref="301686682"/>
    <nd ref="301686679"/>
    <nd ref="301686666"/>
    <nd ref="301686641"/>
    <nd ref="301686681"/>
    <nd ref="301685966"/>
    <tag k="highway" v="residential"/>
    <tag k="name" v="Nieborowska"/>
    <tag k="source" v="UMP-PL, ./UMP-Gdansk/src/GDANSK.ulice.txt"/>
  </way>
  <way id="27477884" version="2" timestamp="2009-09-02T20:58:42Z" uid="66036" user="h4v" changeset="2353898">
    <nd ref="301673053"/>
    <nd ref="481393287"/>
    <nd ref="301673052"/>
    <nd ref="481393270"/>
    <nd ref="301673073"/>
    <tag k="highway" v="unclassified"/>
    <tag k="name" v="Kolonia Jordana"/>
    <tag k="source" v="UMP-PL, ./UMP-Gdansk/src/GDANSK.ulice.txt"/>
    <tag k="surface" v="unpaved"/>
  </way>
  <way id="27477884" version="3" timestamp="2011-01-29T23:19:03Z" uid="378154" user="rosomak" changeset="7128650">
    <nd ref="301673053"/>
    <nd ref="1127122848"/>
    <nd ref="481393287"/>
    <nd ref="301673052"/>
    <nd ref="481393270"/>
    <nd ref="301673073"/>
    <tag k="highway" v="unclassified"/>
    <tag k="name" v="Kolonia Jordana"/>
    <tag k="source" v="UMP-PL, ./UMP-Gdansk/src/GDANSK.ulice.txt"/>
    <tag k="surface" v="unpaved"/>
  </way>
  <way id="27477899" version="4" timestamp="2009-05-07T08:58:22Z" uid="30632" user="antblant" changeset="1104887">
    <nd ref="301679662"/>
    <nd ref="301679720"/>
    <nd ref="301679713"/>
    <nd ref="301679715"/>
    <nd ref="301671771"/>
    <nd ref="301679709"/>
    <nd ref="301679711"/>
    <nd ref="301679705"/>
    <nd ref="301679707"/>
    <tag k="created_by" v="JOSM"/>
    <tag k="highway" v="primary"/>
    <tag k="int_ref" v="E 75"/>
    <tag k="layer" v="-1"/>
    <tag k="name" v="Okopowa tunel-&gt;Lódz/Orunia"/>
    <tag k="ref" v="1"/>
    <tag k="source" v="UMP-PL, ./UMP-Gdansk/src/GDANSK.ulice.txt"/>
    <tag k="tunnel" v="yes"/>
  </way>
  <way id="27477899" version="5" timestamp="2010-02-05T13:41:33Z" uid="203293" user="mard91" changeset="3797860">
    <nd ref="301679662"/>
    <nd ref="301679720"/>
    <nd ref="301679713"/>
    <nd ref="301679715"/>
    <nd ref="301671771"/>
    <nd ref="301679709"/>
    <nd ref="301679711"/>
    <nd ref="630642365"/>
    <nd ref="301679705"/>
    <nd ref="301679707"/>
    <tag k="highway" v="primary"/>
    <tag k="int_ref" v="E 75"/>
    <tag k="layer" v="-1"/>
    <tag k="name" v="Okopowa tunel-&gt;Lódz/Orunia"/>
    <tag k="ref" v="1"/>
    <tag k="source" v="UMP-PL, ./UMP-Gdansk/src/GDANSK.ulice.txt"/>
    <tag k="tunnel" v="yes"/>
  </way>
  <way id="27477899" version="6" timestamp="2010-05-23T21:20:05Z" uid="91056" user="Yarl" changeset="4787638">
    <nd ref="301679662"/>
    <nd ref="301679720"/>
    <nd ref="301679713"/>
    <nd ref="301679715"/>
    <nd ref="301671771"/>
    <nd ref="746799996"/>
    <nd ref="746799985"/>
    <nd ref="301679709"/>
    <nd ref="301679711"/>
    <tag k="highway" v="primary"/>
    <tag k="int_ref" v="E 75"/>
    <tag k="layer" v="-1"/>
    <tag k="ref" v="1"/>
    <tag k="source" v="UMP-PL, ./UMP-Gdansk/src/GDANSK.ulice.txt"/>
  </way>
  <way id="27477899" version="7" timestamp="2010-06-06T14:55:14Z" uid="86932" user="bialy111" changeset="4918460">
    <nd ref="301679662"/>
    <nd ref="301679720"/>
    <nd ref="301679713"/>
    <nd ref="301679715"/>
    <nd ref="301671771"/>
    <tag k="highway" v="primary"/>
    <tag k="int_ref" v="E 75"/>
    <tag k="layer" v="-1"/>
    <tag k="ref" v="1"/>
    <tag k="source" v="UMP-PL, ./UMP-Gdansk/src/GDANSK.ulice.txt"/>
  </way>
  <way id="27477899" version="8" timestamp="2010-06-13T10:49:06Z" uid="86932" user="bialy111" changeset="4977325">
    <nd ref="301679662"/>
    <nd ref="301679720"/>
    <nd ref="301679713"/>
    <nd ref="301679715"/>
    <nd ref="301671771"/>
    <tag k="highway" v="primary"/>
    <tag k="int_ref" v="E 75"/>
    <tag k="layer" v="-1"/>
    <tag k="oneway" v="yes"/>
    <tag k="ref" v="1"/>
    <tag k="source" v="UMP-PL, ./UMP-Gdansk/src/GDANSK.ulice.txt"/>
  </way>
  <way id="27477899" version="9" timestamp="2012-01-08T13:16:18Z" uid="500953" user="skradacz" changeset="10331194">
    <nd ref="301679662"/>
    <nd ref="1582534063"/>
    <nd ref="1582534011"/>
    <nd ref="1582533974"/>
    <nd ref="1582533908"/>
    <nd ref="301679720"/>
    <nd ref="1582533771"/>
    <nd ref="301679713"/>
    <nd ref="301679715"/>
    <nd ref="301671771"/>
    <tag k="highway" v="primary"/>
    <tag k="int_ref" v="E 75"/>
    <tag k="layer" v="-1"/>
    <tag k="oneway" v="yes"/>
    <tag k="ref" v="1"/>
    <tag k="source" v="UMP-PL, ./UMP-Gdansk/src/GDANSK.ulice.txt"/>
  </way>
  <way id="27477899" version="10" timestamp="2012-03-15T04:43:57Z" uid="88909" user="miko101" changeset="10984836">
    <nd ref="301679662"/>
    <nd ref="1582534063"/>
    <nd ref="1582534011"/>
    <nd ref="1582533974"/>
    <nd ref="1582533908"/>
    <nd ref="301679720"/>
    <nd ref="1582533771"/>
    <nd ref="301679713"/>
    <nd ref="301679715"/>
    <nd ref="301671771"/>
    <tag k="highway" v="primary"/>
    <tag k="int_ref" v="E 75"/>
    <tag k="note" v="DK1 konczy sie na węźle z S6 (Rusocin)"/>
    <tag k="oneway" v="yes"/>
    <tag k="ref" v="91"/>
    <tag k="source" v="UMP-PL, ./UMP-Gdansk/src/GDANSK.ulice.txt"/>
  </way>
  <way id="27477902" version="2" timestamp="2008-10-06T22:04:31Z" uid="30632" user="antblant" changeset="125062">
    <nd ref="301669913"/>
    <nd ref="301674213"/>
    <nd ref="301674209"/>
    <nd ref="301673810"/>
    <tag k="UMP_Level" v="1"/>
    <tag k="created_by" v="Potlatch 0.10d"/>
    <tag k="highway" v="residential"/>
    <tag k="name" v="Stefana Żeromskiego"/>
    <tag k="source" v="UMP-PL, ./UMP-Gdansk/src/GDANSK.ulice.txt"/>
  </way>
  <way id="27477902" version="3" timestamp="2008-10-12T08:05:16Z" uid="47334" user="TomDalek" changeset="288324">
    <nd ref="301669913"/>
    <nd ref="301674213"/>
    <nd ref="301674209"/>
    <nd ref="301673810"/>
    <tag k="created_by" v="Potlatch 0.10d"/>
    <tag k="highway" v="residential"/>
    <tag k="name" v="Stefana Żeromskiego"/>
    <tag k="source" v="UMP-PL, ./UMP-Gdansk/src/GDANSK.ulice.txt"/>
  </way>
  <way id="27477902" version="4" timestamp="2008-11-16T20:35:47Z" uid="79762" user="Klekot" changeset="758816">
    <nd ref="301669913"/>
    <nd ref="301674213"/>
    <nd ref="301674209"/>
    <nd ref="301673810"/>
    <tag k="created_by" v="Potlatch 0.10f"/>
    <tag k="highway" v="residential"/>
    <tag k="name" v="Stefana Żeromskiego"/>
    <tag k="source" v="UMP-PL, ./UMP-Gdansk/src/GDANSK.ulice.txt"/>
  </way>
  <way id="27477902" version="5" timestamp="2008-11-16T21:17:15Z" uid="79762" user="Klekot" changeset="758816">
    <nd ref="301669913"/>
    <nd ref="301674213"/>
    <nd ref="301674209"/>
    <nd ref="301673810"/>
    <tag k="created_by" v="Potlatch 0.10f"/>
    <tag k="highway" v="residential"/>
    <tag k="name" v="Stefana Żeromskiego"/>
    <tag k="source" v="UMP-PL, ./UMP-Gdansk/src/GDANSK.ulice.txt"/>
  </way>
  <way id="27477902" version="6" timestamp="2008-11-16T22:17:12Z" uid="79762" user="Klekot" changeset="758816">
    <nd ref="301669913"/>
    <nd ref="301674213"/>
    <nd ref="301674209"/>
    <nd ref="301673810"/>
    <tag k="created_by" v="Potlatch 0.10f"/>
    <tag k="highway" v="residential"/>
    <tag k="name" v="Stefana Żeromskiego"/>
    <tag k="source" v="UMP-PL, ./UMP-Gdansk/src/GDANSK.ulice.txt"/>
  </way>
  <way id="27477902" version="7" timestamp="2008-11-16T22:21:50Z" uid="79762" user="Klekot" changeset="758816">
    <nd ref="301669913"/>
    <nd ref="301674213"/>
    <nd ref="301674209"/>
    <nd ref="301673810"/>
    <tag k="created_by" v="Potlatch 0.10f"/>
    <tag k="highway" v="residential"/>
    <tag k="name" v="Stefana Żeromskiego"/>
    <tag k="source" v="UMP-PL, ./UMP-Gdansk/src/GDANSK.ulice.txt"/>
  </way>
  <way id="27477902" version="8" timestamp="2011-03-12T08:49:37Z" uid="378154" user="rosomak" changeset="7530720">
    <nd ref="301669913"/>
    <nd ref="301674213"/>
    <nd ref="301674209"/>
    <nd ref="288410457"/>
    <tag k="highway" v="residential"/>
    <tag k="name" v="Stefana Żeromskiego"/>
    <tag k="source" v="UMP-PL, ./UMP-Gdansk/src/GDANSK.ulice.txt"/>
  </way>
  <way id="27477902" version="9" timestamp="2011-03-12T09:22:36Z" uid="378154" user="rosomak" changeset="7531019">
    <nd ref="301669913"/>
    <nd ref="301674213"/>
    <nd ref="301674209"/>
    <nd ref="288410457"/>
    <tag k="highway" v="residential"/>
    <tag k="name" v="Stefana Żeromskiego"/>
    <tag k="source" v="UMP-PL, ./UMP-Gdansk/src/GDANSK.ulice.txt"/>
  </way>
  <way id="27477902" version="10" timestamp="2011-03-14T15:09:31Z" uid="378154" user="rosomak" changeset="7557297">
    <nd ref="1201664747"/>
    <nd ref="301674213"/>
    <nd ref="301674209"/>
    <nd ref="288410457"/>
    <tag k="highway" v="residential"/>
    <tag k="name" v="Stefana Żeromskiego"/>
    <tag k="source" v="UMP-PL, ./UMP-Gdansk/src/GDANSK.ulice.txt"/>
  </way>
  <way id="27477907" version="3" timestamp="2009-09-02T20:58:42Z" uid="66036" user="h4v" changeset="2353898">
    <nd ref="301671352"/>
    <nd ref="481393306"/>
    <nd ref="301673050"/>
    <tag k="highway" v="residential"/>
    <tag k="name" v="Kolonia Jordana"/>
    <tag k="source" v="UMP-PL, ./UMP-Gdansk/src/GDANSK.ulice.txt"/>
  </way>
  <way id="27477919" version="3" timestamp="2008-11-10T10:17:05Z" uid="78826" user="laboraetora" changeset="732335">
    <nd ref="301686338"/>
    <nd ref="301686711"/>
    <nd ref="301686673"/>
    <nd ref="301686672"/>
    <nd ref="301686671"/>
    <nd ref="301686670"/>
    <nd ref="301686660"/>
    <nd ref="301686661"/>
    <nd ref="301686674"/>
    <nd ref="301686659"/>
    <nd ref="301686664"/>
    <nd ref="301686665"/>
    <nd ref="301686662"/>
    <nd ref="301686663"/>
    <nd ref="301686683"/>
    <nd ref="301686714"/>
    <nd ref="301686335"/>
    <nd ref="310998864"/>
    <nd ref="310998864"/>
    <nd ref="310998864"/>
    <tag k="created_by" v="Potlatch 0.10f"/>
    <tag k="highway" v="residential"/>
    <tag k="name" v="Rogalińska"/>
    <tag k="source" v="UMP-PL, ./UMP-Gdansk/src/GDANSK.ulice.txt"/>
  </way>
  <way id="27477919" version="4" timestamp="2009-04-13T02:18:20Z" uid="2758" user="Stefan de Konink" changeset="482338">
    <nd ref="301686338"/>
    <nd ref="301686711"/>
    <nd ref="301686673"/>
    <nd ref="301686672"/>
    <nd ref="301686671"/>
    <nd ref="301686670"/>
    <nd ref="301686660"/>
    <nd ref="301686661"/>
    <nd ref="301686674"/>
    <nd ref="301686659"/>
    <nd ref="301686664"/>
    <nd ref="301686665"/>
    <nd ref="301686662"/>
    <nd ref="301686663"/>
    <nd ref="301686683"/>
    <nd ref="301686714"/>
    <nd ref="301686335"/>
    <nd ref="310998864"/>
    <tag k="created_by" v="OSM Fixer"/>
    <tag k="highway" v="residential"/>
    <tag k="name" v="Rogalińska"/>
    <tag k="source" v="UMP-PL, ./UMP-Gdansk/src/GDANSK.ulice.txt"/>
  </way>
  <way id="27477919" version="5" timestamp="2009-05-11T04:32:47Z" uid="121291" user="bmalkow" changeset="1147338">
    <nd ref="301686338"/>
    <nd ref="393330832"/>
    <nd ref="301686711"/>
    <nd ref="301686673"/>
    <nd ref="301686672"/>
    <nd ref="301686671"/>
    <nd ref="301686670"/>
    <nd ref="301686660"/>
    <nd ref="301686661"/>
    <nd ref="301686674"/>
    <nd ref="301686659"/>
    <nd ref="301686664"/>
    <nd ref="301686665"/>
    <nd ref="301686662"/>
    <nd ref="301686663"/>
    <nd ref="301686683"/>
    <nd ref="301686714"/>
    <nd ref="393644532"/>
    <nd ref="301686335"/>
    <nd ref="310998864"/>
    <tag k="created_by" v="OSM Fixer"/>
    <tag k="highway" v="residential"/>
    <tag k="name" v="Rogalińska"/>
    <tag k="source" v="UMP-PL, ./UMP-Gdansk/src/GDANSK.ulice.txt"/>
  </way>
  <way id="27477919" version="6" timestamp="2010-06-20T19:29:15Z" uid="86932" user="bialy111" changeset="5036468">
    <nd ref="301686338"/>
    <nd ref="393330832"/>
    <nd ref="301686711"/>
    <nd ref="301686673"/>
    <nd ref="301686672"/>
    <nd ref="301686671"/>
    <nd ref="301686670"/>
    <nd ref="301686660"/>
    <nd ref="301686661"/>
    <nd ref="301686674"/>
    <nd ref="301686659"/>
    <nd ref="301686664"/>
    <nd ref="301686665"/>
    <nd ref="301686662"/>
    <nd ref="301686663"/>
    <nd ref="301686683"/>
    <nd ref="301686714"/>
    <nd ref="393644532"/>
    <nd ref="301686335"/>
    <tag k="highway" v="residential"/>
    <tag k="name" v="Rogalińska"/>
    <tag k="source" v="UMP-PL, ./UMP-Gdansk/src/GDANSK.ulice.txt"/>
  </way>
  <way id="27477919" version="7" timestamp="2011-03-29T03:57:52Z" uid="378154" user="rosomak" changeset="7703241">
    <nd ref="301686338"/>
    <nd ref="393330832"/>
    <nd ref="301686711"/>
    <nd ref="301686673"/>
    <nd ref="301686672"/>
    <nd ref="301686671"/>
    <nd ref="301686661"/>
    <nd ref="301686674"/>
    <nd ref="301686662"/>
    <nd ref="301686663"/>
    <nd ref="301686714"/>
    <nd ref="393644532"/>
    <nd ref="301686335"/>
    <tag k="highway" v="residential"/>
    <tag k="name" v="Rogalińska"/>
    <tag k="source" v="UMP-PL, ./UMP-Gdansk/src/GDANSK.ulice.txt"/>
  </way>
  <way id="27477919" version="8" timestamp="2011-09-27T14:38:26Z" uid="528324" user="5y12u3k" changeset="9411161">
    <nd ref="301686338"/>
    <nd ref="393330832"/>
    <nd ref="301686711"/>
    <nd ref="301686673"/>
    <nd ref="301686672"/>
    <nd ref="301686671"/>
    <nd ref="1447038000"/>
    <nd ref="301686661"/>
    <nd ref="301686674"/>
    <nd ref="301686662"/>
    <nd ref="301686663"/>
    <nd ref="301686714"/>
    <nd ref="393644532"/>
    <nd ref="301686335"/>
    <tag k="highway" v="residential"/>
    <tag k="name" v="Rogalińska"/>
    <tag k="source" v="UMP-PL, ./UMP-Gdansk/src/GDANSK.ulice.txt"/>
  </way>
  <way id="27477919" version="9" timestamp="2012-02-25T19:45:26Z" uid="598860" user="Marek-M" changeset="10791251">
    <nd ref="301686338"/>
    <nd ref="393330832"/>
    <nd ref="301686711"/>
    <nd ref="301686673"/>
    <nd ref="301686672"/>
    <nd ref="301686671"/>
    <nd ref="1447038000"/>
    <nd ref="301686661"/>
    <nd ref="301686674"/>
    <nd ref="1647458560"/>
    <nd ref="301686662"/>
    <nd ref="301686663"/>
    <nd ref="301686714"/>
    <nd ref="393644532"/>
    <nd ref="301686335"/>
    <tag k="access" v="yes"/>
    <tag k="highway" v="residential"/>
    <tag k="name" v="Rogalińska"/>
    <tag k="source" v="UMP-PL, ./UMP-Gdansk/src/GDANSK.ulice.txt"/>
    <tag k="surface" v="asphalt"/>
  </way>
  <way id="27477942" version="2" timestamp="2009-05-07T08:35:49Z" uid="30632" user="antblant" changeset="1104724">
    <nd ref="301679220"/>
    <nd ref="301683538"/>
    <nd ref="301671551"/>
    <tag k="created_by" v="JOSM"/>
    <tag k="highway" v="primary"/>
    <tag k="source" v="UMP-PL, ./UMP-Gdansk/src/GDANSK.ulice.txt"/>
  </way>
  <way id="27477942" version="3" timestamp="2009-05-07T08:47:44Z" uid="30632" user="antblant" changeset="1104828">
    <nd ref="301679220"/>
    <nd ref="301683538"/>
    <nd ref="301671551"/>
    <tag k="created_by" v="JOSM"/>
    <tag k="highway" v="primary"/>
    <tag k="ref" v="1"/>
    <tag k="source" v="UMP-PL, ./UMP-Gdansk/src/GDANSK.ulice.txt"/>
  </way>
  <way id="27477942" version="4" timestamp="2009-11-17T19:15:25Z" uid="9176" user="Maarten Deen" changeset="3144115">
    <nd ref="301679220"/>
    <nd ref="301683538"/>
    <nd ref="301671551"/>
    <tag k="highway" v="primary"/>
    <tag k="int_ref" v="E 75"/>
    <tag k="ref" v="1"/>
    <tag k="source" v="UMP-PL, ./UMP-Gdansk/src/GDANSK.ulice.txt"/>
  </way>
  <way id="27477942" version="5" timestamp="2012-03-15T04:30:23Z" uid="88909" user="miko101" changeset="10984792">
    <nd ref="301679220"/>
    <nd ref="301683538"/>
    <nd ref="301671551"/>
    <tag k="highway" v="primary"/>
    <tag k="int_ref" v="E 75"/>
    <tag k="note" v="DK1 konczy sie na węźle z S6 (Rusocin)"/>
    <tag k="ref" v="91"/>
    <tag k="source" v="UMP-PL, ./UMP-Gdansk/src/GDANSK.ulice.txt"/>
  </way>
  <way id="27477950" version="2" timestamp="2009-05-07T08:48:10Z" uid="30632" user="antblant" changeset="1104828">
    <nd ref="301680810"/>
    <nd ref="301683537"/>
    <nd ref="301675105"/>
    <tag k="created_by" v="JOSM"/>
    <tag k="highway" v="residential"/>
    <tag k="source" v="UMP-PL, ./UMP-Gdansk/src/GDANSK.ulice.txt"/>
  </way>
  <way id="27477000" version="14" timestamp="2012-07-24T14:08:03Z" uid="722137" user="OSMF Redaction Account" changeset="12467395">
    <nd ref="1023258419"/>
    <nd ref="1028167539"/>
    <tag k="name" v="Sebastiana Fabiana Klonowicza"/>
  </way>
  <way id="27477000" version="15" timestamp="2012-08-16T13:52:04Z" uid="535271" user="Endru" changeset="12750843">
    <nd ref="1023258419"/>
    <nd ref="1028167539"/>
    <tag k="highway" v="residential"/>
    <tag k="name" v="Sebastiana Fabiana Klonowicza"/>
  </way>
  <way id="27477000" version="16" timestamp="2012-09-02T19:29:05Z" uid="842685" user="ancymon" changeset="12958813">
    <nd ref="301670856"/>
    <nd ref="1023258419"/>
    <nd ref="1028167539"/>
    <tag k="highway" v="residential"/>
    <tag k="name" v="Sebastiana Fabiana Klonowicza"/>
  </way>
  <way id="27477024" version="3" timestamp="2012-07-24T14:25:02Z" uid="722137" user="OSMF Redaction Account" changeset="12467794"/>
  <way id="27477028" version="3" timestamp="2012-07-24T14:25:02Z" uid="722137" user="OSMF Redaction Account" changeset="12467794"/>
  <way id="27477049" version="6" timestamp="2012-07-24T15:14:31Z" uid="722137" user="OSMF Redaction Account" changeset="12468860">
    <nd ref="255723316"/>
    <nd ref="596395528"/>
    <nd ref="1209115280"/>
    <nd ref="1209115270"/>
    <nd ref="1209115258"/>
    <nd ref="1209115180"/>
    <nd ref="1209115192"/>
  </way>
  <way id="27477057" version="3" timestamp="2012-06-22T16:31:37Z" uid="535271" user="Endru" changeset="11981108">
    <nd ref="301673259"/>
    <nd ref="301673265"/>
    <nd ref="301673261"/>
    <nd ref="301673273"/>
    <nd ref="301673269"/>
    <tag k="highway" v="service"/>
    <tag k="source" v="UMP-PL, ./UMP-Gdansk/src/GDANSK.ulice.txt"/>
  </way>
  <way id="27477057" version="4" timestamp="2012-07-24T14:25:15Z" uid="722137" user="OSMF Redaction Account" changeset="12467794"/>
  <way id="27477076" version="6" timestamp="2012-07-24T14:45:05Z" uid="722137" user="OSMF Redaction Account" changeset="12468238"/>
  <way id="27477084" version="5" timestamp="2012-07-24T14:25:10Z" uid="722137" user="OSMF Redaction Account" changeset="12467794"/>
  <way id="27477090" version="5" timestamp="2012-05-03T08:43:10Z" uid="378154" user="rosomak" changeset="11486725">
    <nd ref="481450942"/>
    <nd ref="301672474"/>
    <nd ref="301672475"/>
    <nd ref="301672476"/>
    <nd ref="1739039567"/>
    <nd ref="301672477"/>
    <nd ref="301672478"/>
    <tag k="highway" v="residential"/>
    <tag k="name" v="Elbląska"/>
    <tag k="source" v="UMP-PL, ./UMP-Gdansk/src/GDANSK.ulice.txt"/>
  </way>
  <way id="27477090" version="6" timestamp="2012-07-24T14:25:01Z" uid="722137" user="OSMF Redaction Account" changeset="12467794"/>
  <way id="27477092" version="3" timestamp="2012-07-24T14:24:56Z" uid="722137" user="OSMF Redaction Account" changeset="12467794"/>
  <way id="27477114" version="3" timestamp="2012-07-24T14:25:01Z" uid="722137" user="OSMF Redaction Account" changeset="12467794"/>
  <way id="27477115" version="6" timestamp="2012-07-24T14:24:38Z" uid="722137" user="OSMF Redaction Account" changeset="12467776"/>
  <way id="27477117" version="9" timestamp="2012-07-24T14:24:55Z" uid="722137" user="OSMF Redaction Account" changeset="12467794"/>
  <way id="27477137" version="4" timestamp="2012-07-24T14:25:17Z" uid="722137" user="OSMF Redaction Account" changeset="12467794"/>
  <way id="27477143" version="3" timestamp="2012-07-24T14:24:46Z" uid="722137" user="OSMF Redaction Account" changeset="12467794"/>
  <way id="27477147" version="3" timestamp="2012-07-07T04:34:59Z" uid="378154" user="rosomak" changeset="12136678">
    <nd ref="301679582"/>
    <nd ref="301679948"/>
    <nd ref="748434078"/>
    <nd ref="301679947"/>
    <nd ref="301679583"/>
    <tag k="highway" v="service"/>
    <tag k="source" v="UMP-PL, ./UMP-Gdansk/src/GDANSK.ulice.txt"/>
  </way>
  <way id="27477147" version="4" timestamp="2012-07-24T14:24:56Z" uid="722137" user="OSMF Redaction Account" changeset="12467794"/>
  <way id="27477165" version="3" timestamp="2012-07-25T07:29:13Z" uid="722137" user="OSMF Redaction Account" changeset="12482509"/>
  <way id="27477168" version="12" timestamp="2012-07-24T14:22:25Z" uid="722137" user="OSMF Redaction Account" changeset="12467727">
    <nd ref="1387920374"/>
    <nd ref="1387920355"/>
    <nd ref="747150710"/>
    <nd ref="1387934508"/>
    <nd ref="747150702"/>
  </way>
  <way id="27477168" version="13" timestamp="2012-08-05T22:41:55Z" uid="500953" user="skradacz" changeset="12627253">
    <nd ref="1387920374"/>
    <nd ref="1387920355"/>
    <nd ref="1853523154"/>
    <nd ref="1853522794"/>
    <nd ref="1853523159"/>
    <nd ref="1853523162"/>
    <nd ref="1853523164"/>
    <nd ref="1853523165"/>
    <nd ref="1387934508"/>
    <nd ref="1853523177"/>
    <nd ref="747150702"/>
    <tag k="highway" v="residential"/>
    <tag k="name" v="Doki"/>
  </way>
  <way id="27477168" version="14" timestamp="2012-09-05T21:46:19Z" uid="500953" user="skradacz" changeset="13002709">
    <nd ref="1387920374"/>
    <nd ref="1901341688"/>
    <nd ref="1387920355"/>
    <nd ref="1901341767"/>
    <nd ref="1901341816"/>
    <nd ref="1853523154"/>
    <nd ref="1853522794"/>
    <nd ref="1853523159"/>
    <nd ref="1853523162"/>
    <nd ref="1853523164"/>
    <nd ref="1901341950"/>
    <nd ref="1853523165"/>
    <nd ref="1901341954"/>
    <nd ref="1387934508"/>
    <nd ref="1853523177"/>
    <nd ref="747150702"/>
    <tag k="highway" v="residential"/>
    <tag k="name" v="Doki"/>
  </way>
  <way id="27477168" version="15" timestamp="2012-09-06T12:29:16Z" uid="500953" user="skradacz" changeset="13009511">
    <nd ref="1387920374"/>
    <nd ref="1901341688"/>
    <nd ref="1387920355"/>
    <nd ref="1901341767"/>
    <nd ref="1901341816"/>
    <nd ref="1853523154"/>
    <nd ref="1853522794"/>
    <nd ref="1853523159"/>
    <nd ref="1853523162"/>
    <nd ref="1902190847"/>
    <nd ref="1902190851"/>
    <nd ref="1902190854"/>
    <nd ref="1902190864"/>
    <nd ref="1901341950"/>
    <nd ref="1853523165"/>
    <nd ref="1901341954"/>
    <nd ref="1387934508"/>
    <nd ref="1853523177"/>
    <nd ref="1902190968"/>
    <nd ref="1902190982"/>
    <nd ref="747150702"/>
    <nd ref="1902190999"/>
    <nd ref="1902191022"/>
    <nd ref="1902191031"/>
    <nd ref="1902191158"/>
    <nd ref="301679832"/>
    <tag k="highway" v="residential"/>
    <tag k="name" v="Doki"/>
  </way>
  <way id="27477168" version="16" timestamp="2012-09-06T16:48:38Z" uid="500953" user="skradacz" changeset="13012346">
    <nd ref="1387920374"/>
    <nd ref="1901341688"/>
    <nd ref="1387920355"/>
    <nd ref="1901341767"/>
    <nd ref="1901341816"/>
    <nd ref="1853523154"/>
    <nd ref="1853522794"/>
    <nd ref="1853523159"/>
    <nd ref="1853523162"/>
    <nd ref="1902190847"/>
    <nd ref="1902190851"/>
    <nd ref="1902190854"/>
    <nd ref="1902190864"/>
    <nd ref="1901341950"/>
    <nd ref="1853523165"/>
    <nd ref="1901341954"/>
    <nd ref="1387934508"/>
    <nd ref="1853523177"/>
    <nd ref="1902190968"/>
    <nd ref="1902190982"/>
    <nd ref="747150702"/>
    <nd ref="1902190999"/>
    <nd ref="1902191022"/>
    <nd ref="1902191031"/>
    <nd ref="1902614900"/>
    <nd ref="301679832"/>
    <tag k="highway" v="residential"/>
    <tag k="name" v="Doki"/>
  </way>
  <way id="27477268" version="3" timestamp="2012-07-24T14:25:11Z" uid="722137" user="OSMF Redaction Account" changeset="12467794"/>
  <way id="27477273" version="3" timestamp="2012-07-24T14:45:14Z" uid="722137" user="OSMF Redaction Account" changeset="12468238"/>
  <way id="27477315" version="4" timestamp="2012-07-24T14:22:48Z" uid="722137" user="OSMF Redaction Account" changeset="12467727">
    <nd ref="255723311"/>
    <nd ref="596395556"/>
  </way>
  <way id="27477337" version="7" timestamp="2012-05-30T18:33:33Z" uid="535271" user="Endru" changeset="11750506">
    <nd ref="301670946"/>
    <nd ref="291223051"/>
    <tag k="highway" v="tertiary"/>
    <tag k="name" v="Franciszka Schuberta"/>
    <tag k="source" v="UMP-PL, ./UMP-Gdansk/src/GDANSK.ulice.txt"/>
  </way>
  <way id="27477337" version="8" timestamp="2012-07-25T07:29:15Z" uid="722137" user="OSMF Redaction Account" changeset="12482509"/>
  <way id="27477365" version="9" timestamp="2012-07-24T14:24:37Z" uid="722137" user="OSMF Redaction Account" changeset="12467776"/>
  <way id="27477372" version="6" timestamp="2012-06-05T17:34:36Z" uid="681295" user="przemas75" changeset="11808308">
    <nd ref="301672028"/>
    <nd ref="301672057"/>
    <nd ref="1568383478"/>
    <nd ref="301672054"/>
    <nd ref="1568383462"/>
    <nd ref="301672055"/>
    <tag k="highway" v="residential"/>
    <tag k="name" v="Chlebnicka"/>
    <tag k="name:de" v="Brotbänkengasse"/>
    <tag k="wikipedia:pl" v="Ulica_Chlebnicka"/>
  </way>
  <way id="27477372" version="7" timestamp="2012-07-24T14:23:35Z" uid="722137" user="OSMF Redaction Account" changeset="12467727">
    <nd ref="1568383478"/>
    <nd ref="1568383462"/>
    <tag k="name:de" v="Brotbänkengasse"/>
    <tag k="wikipedia:pl" v="Ulica_Chlebnicka"/>
  </way>
  <way id="27477372" version="8" timestamp="2012-08-02T21:31:50Z" uid="91056" user="Yarl" changeset="12591350">
    <nd ref="301672028"/>
    <nd ref="301672057"/>
    <nd ref="1568383478"/>
    <nd ref="1568383462"/>
    <nd ref="301672055"/>
    <tag k="highway" v="residential"/>
    <tag k="name" v="Chlebnicka"/>
    <tag k="name:de" v="Brotbänkengasse"/>
    <tag k="source" v="Bing"/>
    <tag k="wikipedia:pl" v="Ulica_Chlebnicka"/>
  </way>
  <way id="27477393" version="3" timestamp="2012-07-24T14:24:43Z" uid="722137" user="OSMF Redaction Account" changeset="12467776"/>
  <way id="27477408" version="4" timestamp="2012-07-24T14:24:59Z" uid="722137" user="OSMF Redaction Account" changeset="12467794"/>
  <way id="27477411" version="4" timestamp="2012-06-19T12:54:07Z" uid="535271" user="Endru" changeset="11947349">
    <nd ref="301670624"/>
    <nd ref="481443556"/>
    <nd ref="301679956"/>
    <nd ref="1794416434"/>
    <tag k="highway" v="service"/>
    <tag k="source" v="UMP-PL, ./UMP-Gdansk/src/GDANSK.ulice.txt"/>
  </way>
  <way id="27477411" version="5" timestamp="2012-07-24T14:25:17Z" uid="722137" user="OSMF Redaction Account" changeset="12467794"/>
  <way id="27477429" version="3" timestamp="2012-07-24T14:44:58Z" uid="722137" user="OSMF Redaction Account" changeset="12468238"/>
  <way id="27477437" version="11" timestamp="2012-07-24T14:23:35Z" uid="722137" user="OSMF Redaction Account" changeset="12467727">
    <nd ref="1570145557"/>
    <nd ref="1570145612"/>
    <nd ref="1570145636"/>
    <nd ref="1570145653"/>
    <tag k="maxweight" v="3.5"/>
    <tag k="name:la" v="platea sacerdotum"/>
    <tag k="oneway" v="yes"/>
  </way>
  <way id="27477437" version="12" timestamp="2012-08-02T21:31:51Z" uid="91056" user="Yarl" changeset="12591350">
    <nd ref="301672028"/>
    <nd ref="1570145557"/>
    <nd ref="1570145612"/>
    <nd ref="1570145636"/>
    <nd ref="1570145653"/>
    <nd ref="301672052"/>
    <tag k="highway" v="residential"/>
    <tag k="maxweight" v="3.5"/>
    <tag k="name" v="Klesza"/>
    <tag k="name:la" v="platea sacerdotum"/>
    <tag k="oneway" v="yes"/>
    <tag k="source" v="Bing"/>
  </way>
  <way id="27477442" version="4" timestamp="2012-07-24T14:25:15Z" uid="722137" user="OSMF Redaction Account" changeset="12467794"/>
  <way id="27477450" version="5" timestamp="2012-07-24T14:25:04Z" uid="722137" user="OSMF Redaction Account" changeset="12467794"/>
  <way id="27477468" version="6" timestamp="2012-04-11T21:30:22Z" uid="654257" user="arturro" changeset="11270559">
    <nd ref="301672883"/>
    <nd ref="596395568"/>
    <nd ref="301672891"/>
    <tag k="highway" v="residential"/>
    <tag k="name" v="Wesoła"/>
    <tag k="name:de" v="Schottenweg"/>
    <tag k="oneway" v="-1"/>
    <tag k="source" v="UMP-PL, ./UMP-Gdansk/src/GDANSK.ulice.txt"/>
  </way>
  <way id="27477468" version="7" timestamp="2012-07-24T14:25:04Z" uid="722137" user="OSMF Redaction Account" changeset="12467794"/>
  <way id="27477525" version="4" timestamp="2012-07-24T14:24:51Z" uid="722137" user="OSMF Redaction Account" changeset="12467794"/>
  <way id="27477527" version="4" timestamp="2012-07-01T08:35:12Z" uid="681295" user="przemas75" changeset="12073106"/>
  <way id="27477529" version="9" timestamp="2012-07-24T13:48:45Z" uid="722137" user="OSMF Redaction Account" changeset="12467041"/>
  <way id="27477541" version="5" timestamp="2012-07-20T09:22:56Z" uid="681295" user="przemas75" changeset="12369787">
    <nd ref="301671659"/>
    <nd ref="301678361"/>
    <nd ref="301672435"/>
    <nd ref="301672433"/>
    <nd ref="481443500"/>
    <nd ref="301672217"/>
    <tag k="highway" v="tertiary"/>
    <tag k="name" v="Elbląska"/>
    <tag k="odbl" v="clean"/>
    <tag k="source" v="UMP-PL, ./UMP-Gdansk/src/GDANSK.ulice.txt"/>
  </way>
  <way id="27477541" version="6" timestamp="2012-07-24T14:22:48Z" uid="722137" user="OSMF Redaction Account" changeset="12467727">
    <nd ref="301671659"/>
    <nd ref="301672217"/>
    <tag k="highway" v="tertiary"/>
    <tag k="name" v="Elbląska"/>
    <tag k="odbl" v="clean"/>
    <tag k="source" v="UMP-PL, ./UMP-Gdansk/src/GDANSK.ulice.txt"/>
  </way>
  <way id="27477541" version="7" timestamp="2012-08-02T00:10:43Z" uid="342705" user="KLMB" changeset="12580372">
    <nd ref="301671659"/>
    <nd ref="1847623777"/>
    <nd ref="1847623774"/>
    <nd ref="301672217"/>
    <tag k="highway" v="tertiary"/>
    <tag k="name" v="Elbląska"/>
    <tag k="odbl" v="clean"/>
    <tag k="source" v="UMP-PL, ./UMP-Gdansk/src/GDANSK.ulice.txt"/>
  </way>
  <way id="27477624" version="6" timestamp="2012-07-24T14:13:32Z" uid="722137" user="OSMF Redaction Account" changeset="12467534">
    <nd ref="595656639"/>
    <nd ref="595656638"/>
  </way>
  <way id="27477636" version="6" timestamp="2012-07-24T14:25:05Z" uid="722137" user="OSMF Redaction Account" changeset="12467794"/>
  <way id="27477648" version="6" timestamp="2012-07-24T14:08:05Z" uid="722137" user="OSMF Redaction Account" changeset="12467395">
    <nd ref="747060809"/>
    <nd ref="747060754"/>
    <nd ref="1108197514"/>
    <nd ref="301675092"/>
  </way>
  <way id="27477666" version="10" timestamp="2012-06-22T14:03:46Z" uid="706309" user="kononowicz24" changeset="11979515">
    <nd ref="301672923"/>
    <nd ref="1641505661"/>
    <nd ref="301672958"/>
    <nd ref="301672944"/>
    <nd ref="301672941"/>
    <nd ref="301672947"/>
    <nd ref="301672946"/>
    <nd ref="301675921"/>
    <nd ref="1207708778"/>
    <nd ref="1207708765"/>
    <nd ref="1207708784"/>
    <nd ref="301675892"/>
    <nd ref="1207708750"/>
    <nd ref="1207708762"/>
    <nd ref="301675893"/>
    <nd ref="1207708759"/>
    <nd ref="301675898"/>
    <tag k="highway" v="residential"/>
    <tag k="name" v="Zakopiańska"/>
    <tag k="oneway" v="no"/>
  </way>
  <way id="27477666" version="11" timestamp="2012-07-07T03:52:28Z" uid="378154" user="rosomak" changeset="12136573">
    <nd ref="301672923"/>
    <nd ref="1641505661"/>
    <nd ref="301672958"/>
    <nd ref="301672944"/>
    <nd ref="301672941"/>
    <nd ref="301672947"/>
    <nd ref="301672946"/>
    <nd ref="301675921"/>
    <nd ref="1207708778"/>
    <nd ref="1207708765"/>
    <nd ref="1207708784"/>
    <nd ref="1207708750"/>
    <nd ref="1207708762"/>
    <nd ref="1207708759"/>
    <nd ref="301675898"/>
    <tag k="highway" v="residential"/>
    <tag k="name" v="Zakopiańska"/>
    <tag k="oneway" v="no"/>
  </way>
  <way id="27477666" version="12" timestamp="2012-07-24T14:23:38Z" uid="722137" user="OSMF Redaction Account" changeset="12467727">
    <nd ref="1641505661"/>
    <nd ref="301675921"/>
    <nd ref="1207708778"/>
    <nd ref="1207708765"/>
    <nd ref="1207708784"/>
    <nd ref="1207708750"/>
    <nd ref="1207708762"/>
    <nd ref="1207708759"/>
    <nd ref="301675898"/>
    <tag k="oneway" v="no"/>
  </way>
  <way id="27477666" version="13" timestamp="2012-08-13T17:17:41Z" uid="530338" user="tomzyl" changeset="12716787">
    <nd ref="1864556714"/>
    <nd ref="1796258849"/>
    <nd ref="1204727726"/>
    <nd ref="1796258850"/>
    <nd ref="1203973072"/>
    <nd ref="1815409085"/>
    <nd ref="1209081178"/>
    <nd ref="1864556710"/>
    <nd ref="1641505661"/>
    <nd ref="1864556713"/>
    <nd ref="1864556711"/>
    <nd ref="1864556708"/>
    <nd ref="301675921"/>
    <nd ref="1207708778"/>
    <nd ref="1207708765"/>
    <nd ref="1207708784"/>
    <nd ref="1207708750"/>
    <nd ref="1207708762"/>
    <nd ref="1207708759"/>
    <nd ref="301675898"/>
    <tag k="highway" v="residential"/>
    <tag k="name" v="Zakopiańska"/>
    <tag k="oneway" v="no"/>
  </way>
  <way id="27477676" version="5" timestamp="2012-07-25T07:29:22Z" uid="722137" user="OSMF Redaction Account" changeset="12482509"/>
  <way id="27477683" version="10" timestamp="2012-07-20T09:23:04Z" uid="681295" user="przemas75" changeset="12369787">
    <nd ref="301671602"/>
    <nd ref="481443534"/>
    <nd ref="301678444"/>
    <tag k="highway" v="tertiary"/>
    <tag k="name" v="Majora Henryka Sucharskiego"/>
    <tag k="odbl" v="clean"/>
    <tag k="oneway" v="no"/>
    <tag k="source" v="UMP-PL, ./UMP-Gdansk/src/GDANSK.ulice.txt"/>
  </way>
  <way id="27477683" version="11" timestamp="2012-09-03T14:43:29Z" uid="500953" user="skradacz" changeset="12968408">
    <nd ref="301671602"/>
    <nd ref="481443534"/>
    <nd ref="301678444"/>
    <tag k="highway" v="tertiary"/>
    <tag k="name" v="Majora Henryka Sucharskiego"/>
    <tag k="odbl" v="clean"/>
    <tag k="oneway" v="yes"/>
  </way>
  <way id="27477701" version="10" timestamp="2012-07-20T09:24:03Z" uid="681295" user="przemas75" changeset="12369787">
    <nd ref="301671575"/>
    <nd ref="596395618"/>
    <nd ref="596395616"/>
    <nd ref="301679203"/>
    <nd ref="596395601"/>
    <nd ref="1434998460"/>
    <nd ref="596395597"/>
    <nd ref="1209196534"/>
    <nd ref="301671899"/>
    <nd ref="114087146"/>
    <nd ref="301679587"/>
    <nd ref="301683272"/>
    <tag k="highway" v="secondary"/>
    <tag k="name" v="3 Maja"/>
    <tag k="odbl" v="clean"/>
    <tag k="oneway" v="yes"/>
  </way>
  <way id="27477701" version="11" timestamp="2012-07-21T07:04:28Z" uid="681295" user="przemas75" changeset="12402047">
    <nd ref="301671575"/>
    <nd ref="596395618"/>
    <nd ref="596395616"/>
    <nd ref="301679203"/>
    <nd ref="596395601"/>
    <nd ref="1832789108"/>
    <nd ref="1434998460"/>
    <nd ref="596395597"/>
    <nd ref="1209196534"/>
    <nd ref="301671899"/>
    <nd ref="114087146"/>
    <nd ref="301679587"/>
    <nd ref="301683272"/>
    <tag k="highway" v="secondary"/>
    <tag k="name" v="3 Maja"/>
    <tag k="odbl" v="clean"/>
    <tag k="oneway" v="yes"/>
  </way>
  <way id="27477701" version="12" timestamp="2012-07-24T14:22:47Z" uid="722137" user="OSMF Redaction Account" changeset="12467727">
    <nd ref="301671575"/>
    <nd ref="596395618"/>
    <nd ref="596395616"/>
    <nd ref="301679203"/>
    <nd ref="596395601"/>
    <nd ref="1832789108"/>
    <nd ref="1434998460"/>
    <nd ref="596395597"/>
    <nd ref="1209196534"/>
    <nd ref="114087146"/>
    <nd ref="301679587"/>
    <nd ref="301683272"/>
    <tag k="highway" v="secondary"/>
    <tag k="name" v="3 Maja"/>
    <tag k="odbl" v="clean"/>
    <tag k="oneway" v="yes"/>
  </way>
  <way id="27477703" version="4" timestamp="2012-07-24T14:25:13Z" uid="722137" user="OSMF Redaction Account" changeset="12467794"/>
  <way id="27477724" version="7" timestamp="2012-06-06T04:57:04Z" uid="378154" user="rosomak" changeset="11812261">
    <nd ref="1417777514"/>
    <nd ref="1777716334"/>
    <nd ref="1777716333"/>
    <nd ref="1777716332"/>
    <nd ref="1777716331"/>
    <nd ref="1777716330"/>
    <nd ref="1777716329"/>
    <nd ref="1388939624"/>
    <nd ref="1388939620"/>
    <nd ref="301683263"/>
    <nd ref="1388939639"/>
    <nd ref="301671571"/>
    <nd ref="1388939589"/>
    <nd ref="747182688"/>
    <tag k="highway" v="footway"/>
    <tag k="layer" v="-1"/>
    <tag k="source" v="UMP-PL, ./UMP-Gdansk/src/GDANSK.ulice.txt"/>
    <tag k="tunnel" v="yes"/>
  </way>
  <way id="27477724" version="8" timestamp="2012-07-24T14:23:49Z" uid="722137" user="OSMF Redaction Account" changeset="12467727">
    <nd ref="1417777514"/>
    <nd ref="1777716334"/>
    <nd ref="1777716333"/>
    <nd ref="1777716332"/>
    <nd ref="1777716331"/>
    <nd ref="1777716330"/>
    <nd ref="1777716329"/>
    <nd ref="1388939624"/>
    <nd ref="1388939620"/>
    <nd ref="1388939639"/>
    <nd ref="1388939589"/>
    <nd ref="747182688"/>
    <tag k="tunnel" v="yes"/>
  </way>
  <way id="27477724" version="9" timestamp="2012-08-05T22:42:11Z" uid="500953" user="skradacz" changeset="12627253">
    <nd ref="1417777514"/>
    <nd ref="1777716334"/>
    <nd ref="1777716333"/>
    <nd ref="1777716332"/>
    <nd ref="1777716331"/>
    <nd ref="1777716330"/>
    <nd ref="1777716329"/>
    <nd ref="1388939624"/>
    <nd ref="1388939620"/>
    <nd ref="1388939639"/>
    <nd ref="1388939589"/>
    <nd ref="747182688"/>
    <tag k="highway" v="pedestrian"/>
    <tag k="tunnel" v="yes"/>
  </way>
  <way id="27477739" version="6" timestamp="2012-05-03T08:22:24Z" uid="378154" user="rosomak" changeset="11486569">
    <nd ref="301678722"/>
    <nd ref="301678962"/>
    <nd ref="1739012936"/>
    <nd ref="301682598"/>
    <nd ref="301682609"/>
    <nd ref="301682610"/>
    <nd ref="301682607"/>
    <tag k="highway" v="residential"/>
    <tag k="name" v="Tarcice"/>
    <tag k="surface" v="unpaved"/>
  </way>
  <way id="27477739" version="7" timestamp="2012-07-24T14:13:29Z" uid="722137" user="OSMF Redaction Account" changeset="12467534">
    <nd ref="1739012936"/>
    <nd ref="301682598"/>
    <nd ref="301682609"/>
    <tag k="highway" v="residential"/>
    <tag k="name" v="Tarcice"/>
    <tag k="surface" v="unpaved"/>
  </way>
  <way id="27477744" version="7" timestamp="2012-07-24T14:22:47Z" uid="722137" user="OSMF Redaction Account" changeset="12467727">
    <nd ref="1138643023"/>
    <nd ref="1138643029"/>
    <nd ref="301672886"/>
    <tag k="name" v="Księdza Franciszka Rogaczewskiego"/>
  </way>
  <way id="27477755" version="8" timestamp="2012-06-29T09:03:36Z" uid="681295" user="przemas75" changeset="12054297"/>
  <way id="27477764" version="4" timestamp="2012-07-24T14:25:03Z" uid="722137" user="OSMF Redaction Account" changeset="12467794"/>
  <way id="27477783" version="4" timestamp="2012-05-03T14:06:05Z" uid="500953" user="skradacz" changeset="11489177">
    <nd ref="301683262"/>
    <nd ref="301683261"/>
    <nd ref="747182706"/>
    <nd ref="747182701"/>
    <nd ref="747182716"/>
    <tag k="highway" v="footway"/>
    <tag k="layer" v="-1"/>
    <tag k="source" v="UMP-PL, ./UMP-Gdansk/src/GDANSK.ulice.txt"/>
    <tag k="tunnel" v="yes"/>
  </way>
  <way id="27477783" version="5" timestamp="2012-07-24T14:23:49Z" uid="722137" user="OSMF Redaction Account" changeset="12467727">
    <nd ref="747182706"/>
    <nd ref="747182701"/>
    <nd ref="747182716"/>
    <tag k="layer" v="-1"/>
    <tag k="tunnel" v="yes"/>
  </way>
  <way id="27477783" version="6" timestamp="2012-08-05T22:42:15Z" uid="500953" user="skradacz" changeset="12627253">
    <nd ref="747182716"/>
    <nd ref="747182701"/>
    <nd ref="747182706"/>
    <nd ref="301683261"/>
    <nd ref="301683262"/>
    <nd ref="747182693"/>
    <tag k="highway" v="footway"/>
    <tag k="layer" v="-1"/>
    <tag k="tunnel" v="yes"/>
  </way>
  <way id="27477785" version="4" timestamp="2012-07-24T14:25:03Z" uid="722137" user="OSMF Redaction Account" changeset="12467794"/>
  <way id="27477842" version="4" timestamp="2012-07-24T14:24:57Z" uid="722137" user="OSMF Redaction Account" changeset="12467794"/>
  <way id="27477844" version="6" timestamp="2012-04-11T20:18:53Z" uid="654257" user="arturro" changeset="11269786">
    <nd ref="301676022"/>
    <nd ref="481443565"/>
    <nd ref="301671072"/>
    <tag k="highway" v="residential"/>
    <tag k="name" v="Stanisława Konarskiego"/>
    <tag k="oneway" v="yes"/>
  </way>
  <way id="27477844" version="7" timestamp="2012-07-25T07:29:24Z" uid="722137" user="OSMF Redaction Account" changeset="12482509"/>
  <way id="27477853" version="10" timestamp="2012-07-20T09:23:02Z" uid="681295" user="przemas75" changeset="12369787">
    <nd ref="301671579"/>
    <nd ref="1027208309"/>
    <nd ref="301679868"/>
    <tag k="highway" v="primary"/>
    <tag k="int_ref" v="E 75;E 77"/>
    <tag k="name" v="Jana z Kolna"/>
    <tag k="note" v="DK1 konczy sie na węźle z S6 (Rusocin)"/>
    <tag k="odbl" v="clean"/>
    <tag k="oneway" v="yes"/>
    <tag k="ref" v="91"/>
  </way>
  <way id="27477853" version="11" timestamp="2012-08-23T18:32:32Z" uid="181490" user="jasio1" changeset="12836126">
    <nd ref="301671579"/>
    <nd ref="1027208309"/>
    <nd ref="301679868"/>
    <tag k="highway" v="primary"/>
    <tag k="int_ref" v="E 75;E 77"/>
    <tag k="name" v="Jana z Kolna"/>
    <tag k="note" v="DK1 konczy sie na węźle z S6 (Rusocin)"/>
    <tag k="odbl" v="clean"/>
    <tag k="oneway" v="yes"/>
    <tag k="ref" v="1"/>
  </way>
  <way id="27477853" version="12" timestamp="2012-08-25T17:53:26Z" uid="181490" user="jasio1" changeset="12858331">
    <nd ref="301671579"/>
    <nd ref="1027208309"/>
    <nd ref="301679868"/>
    <tag k="highway" v="primary"/>
    <tag k="int_ref" v="E 75;E 77"/>
    <tag k="name" v="Jana z Kolna"/>
    <tag k="note" v="DK1 konczy sie na węźle z S6 (Rusocin)"/>
    <tag k="odbl" v="clean"/>
    <tag k="oneway" v="yes"/>
    <tag k="ref" v="91"/>
  </way>
  <way id="27477853" version="13" timestamp="2012-09-05T21:46:21Z" uid="500953" user="skradacz" changeset="13002709">
    <nd ref="301671579"/>
    <nd ref="1901341765"/>
    <nd ref="1901341752"/>
    <nd ref="1901341726"/>
    <nd ref="1901341722"/>
    <nd ref="1027208309"/>
    <nd ref="301679868"/>
    <tag k="highway" v="primary"/>
    <tag k="int_ref" v="E 75;E 77"/>
    <tag k="name" v="Jana z Kolna"/>
    <tag k="note" v="DK1 konczy sie na węźle z S6 (Rusocin)"/>
    <tag k="odbl" v="clean"/>
    <tag k="oneway" v="yes"/>
    <tag k="ref" v="91"/>
  </way>
  <way id="27477857" version="6" timestamp="2012-07-20T09:23:36Z" uid="681295" user="przemas75" changeset="12369787">
    <nd ref="596395561"/>
    <nd ref="301683270"/>
    <nd ref="301683269"/>
    <nd ref="301671561"/>
    <tag k="highway" v="secondary_link"/>
    <tag k="name" v="Węzeł Groddecka"/>
    <tag k="odbl" v="clean"/>
    <tag k="oneway" v="yes"/>
    <tag k="source" v="UMP-PL, ./UMP-Gdansk/src/GDANSK.ulice.txt"/>
  </way>
  <way id="27477863" version="4" timestamp="2012-07-24T14:25:04Z" uid="722137" user="OSMF Redaction Account" changeset="12467794"/>
  <way id="27477867" version="7" timestamp="2012-07-20T09:23:08Z" uid="681295" user="przemas75" changeset="12369787">
    <nd ref="301679725"/>
    <nd ref="301679707"/>
    <tag k="highway" v="primary_link"/>
    <tag k="name" v="Okopowa"/>
    <tag k="odbl" v="clean"/>
    <tag k="oneway" v="yes"/>
    <tag k="source" v="UMP-PL, ./UMP-Gdansk/src/GDANSK.ulice.txt"/>
  </way>
  <way id="27477867" version="8" timestamp="2012-07-28T06:53:10Z" uid="212207" user="SunCobalt" changeset="12519405">
    <nd ref="301679725"/>
    <nd ref="1840848452"/>
    <nd ref="301679707"/>
    <tag k="highway" v="primary_link"/>
    <tag k="name" v="Okopowa"/>
    <tag k="odbl" v="clean"/>
    <tag k="oneway" v="yes"/>
    <tag k="source" v="UMP-PL, ./UMP-Gdansk/src/GDANSK.ulice.txt"/>
  </way>
  <way id="27477877" version="7" timestamp="2012-05-25T17:47:14Z" uid="475943" user="sir-mapalot" changeset="11700366">
    <nd ref="1647446892"/>
    <nd ref="301686687"/>
    <nd ref="1765411686"/>
    <nd ref="301686690"/>
    <nd ref="301686685"/>
    <nd ref="301686688"/>
    <nd ref="301686676"/>
    <nd ref="301686689"/>
    <nd ref="1647458510"/>
    <nd ref="311001164"/>
    <nd ref="301686678"/>
    <nd ref="301686675"/>
    <nd ref="301686680"/>
    <nd ref="301686677"/>
    <nd ref="301686682"/>
    <nd ref="301686679"/>
    <nd ref="301686666"/>
    <nd ref="301686641"/>
    <nd ref="301686681"/>
    <nd ref="301685966"/>
    <tag k="highway" v="residential"/>
    <tag k="name" v="Nieborowska"/>
    <tag k="source" v="UMP-PL, ./UMP-Gdansk/src/GDANSK.ulice.txt"/>
  </way>
  <way id="27477877" version="8" timestamp="2012-07-24T15:13:56Z" uid="722137" user="OSMF Redaction Account" changeset="12468860">
    <nd ref="1647446892"/>
    <nd ref="1765411686"/>
    <nd ref="1647458510"/>
  </way>
  <way id="27477884" version="4" timestamp="2012-07-24T14:25:10Z" uid="722137" user="OSMF Redaction Account" changeset="12467794"/>
  <way id="27477899" version="11" timestamp="2012-06-05T09:43:21Z" uid="681295" user="przemas75" changeset="11804375">
    <nd ref="301679662"/>
    <nd ref="1582534063"/>
    <nd ref="1582534011"/>
    <nd ref="1582533974"/>
    <nd ref="1582533908"/>
    <nd ref="301679720"/>
    <nd ref="1582533771"/>
    <nd ref="301679713"/>
    <nd ref="301679715"/>
    <nd ref="301671771"/>
    <tag k="highway" v="primary"/>
    <tag k="int_ref" v="E 75"/>
    <tag k="lanes" v="3"/>
    <tag k="lit" v="yes"/>
    <tag k="note" v="DK1 konczy sie na węźle z S6 (Rusocin)"/>
    <tag k="oneway" v="yes"/>
    <tag k="ref" v="91"/>
    <tag k="source" v="survey"/>
    <tag k="surface" v="asphalt"/>
  </way>
  <way id="27477899" version="12" timestamp="2012-07-20T09:24:06Z" uid="681295" user="przemas75" changeset="12369787">
    <nd ref="301679662"/>
    <nd ref="1582534063"/>
    <nd ref="1582534011"/>
    <nd ref="1582533974"/>
    <nd ref="1582533908"/>
    <nd ref="301679720"/>
    <nd ref="1582533771"/>
    <nd ref="301679713"/>
    <nd ref="301679715"/>
    <nd ref="301671771"/>
    <tag k="highway" v="primary"/>
    <tag k="int_ref" v="E 75"/>
    <tag k="lanes" v="3"/>
    <tag k="lit" v="yes"/>
    <tag k="note" v="DK1 konczy sie na węźle z S6 (Rusocin)"/>
    <tag k="odbl" v="clean"/>
    <tag k="oneway" v="yes"/>
    <tag k="ref" v="91"/>
    <tag k="source" v="survey"/>
    <tag k="surface" v="asphalt"/>
  </way>
  <way id="27477899" version="13" timestamp="2012-08-23T18:32:32Z" uid="181490" user="jasio1" changeset="12836126">
    <nd ref="301679662"/>
    <nd ref="1582534063"/>
    <nd ref="1582534011"/>
    <nd ref="1582533974"/>
    <nd ref="1582533908"/>
    <nd ref="301679720"/>
    <nd ref="1582533771"/>
    <nd ref="301679713"/>
    <nd ref="301679715"/>
    <nd ref="301671771"/>
    <tag k="highway" v="primary"/>
    <tag k="int_ref" v="E 75"/>
    <tag k="lanes" v="3"/>
    <tag k="lit" v="yes"/>
    <tag k="note" v="DK1 konczy sie na węźle z S6 (Rusocin)"/>
    <tag k="odbl" v="clean"/>
    <tag k="oneway" v="yes"/>
    <tag k="ref" v="1"/>
    <tag k="source" v="survey"/>
    <tag k="surface" v="asphalt"/>
  </way>
  <way id="27477899" version="14" timestamp="2012-08-25T17:53:27Z" uid="181490" user="jasio1" changeset="12858331">
    <nd ref="301679662"/>
    <nd ref="1582534063"/>
    <nd ref="1582534011"/>
    <nd ref="1582533974"/>
    <nd ref="1582533908"/>
    <nd ref="301679720"/>
    <nd ref="1582533771"/>
    <nd ref="301679713"/>
    <nd ref="301679715"/>
    <nd ref="301671771"/>
    <tag k="highway" v="primary"/>
    <tag k="int_ref" v="E 75"/>
    <tag k="lanes" v="3"/>
    <tag k="lit" v="yes"/>
    <tag k="note" v="DK1 konczy sie na węźle z S6 (Rusocin)"/>
    <tag k="odbl" v="clean"/>
    <tag k="oneway" v="yes"/>
    <tag k="ref" v="91"/>
    <tag k="source" v="survey"/>
    <tag k="surface" v="asphalt"/>
  </way>
  <way id="27477902" version="11" timestamp="2012-07-24T14:58:10Z" uid="722137" user="OSMF Redaction Account" changeset="12468539">
    <nd ref="1201664747"/>
    <nd ref="288410457"/>
    <tag k="name" v="Stefana Żeromskiego"/>
  </way>
  <way id="27477902" version="12" timestamp="2012-07-31T20:28:28Z" uid="505563" user="Wojciech Brzeziński" changeset="12566815">
    <nd ref="1201664747"/>
    <nd ref="1846061393"/>
    <nd ref="288410457"/>
    <tag k="highway" v="residential"/>
    <tag k="name" v="Stefana Żeromskiego"/>
  </way>
  <way id="27477902" version="13" timestamp="2012-08-21T17:57:28Z" uid="681295" user="przemas75" changeset="12811512">
    <nd ref="1201664747"/>
    <nd ref="1846061393"/>
    <nd ref="1876471026"/>
    <nd ref="288410457"/>
    <tag k="highway" v="residential"/>
    <tag k="name" v="Stefana Żeromskiego"/>
  </way>
  <way id="27477907" version="4" timestamp="2012-07-24T14:25:12Z" uid="722137" user="OSMF Redaction Account" changeset="12467794"/>
  <way id="27477919" version="10" timestamp="2012-07-24T15:14:21Z" uid="722137" user="OSMF Redaction Account" changeset="12468860">
    <nd ref="393330832"/>
    <nd ref="1447038000"/>
    <nd ref="1647458560"/>
    <nd ref="393644532"/>
    <tag k="access" v="yes"/>
    <tag k="surface" v="asphalt"/>
  </way>
  <way id="27477942" version="6" timestamp="2012-07-21T07:53:42Z" uid="681295" user="przemas75" changeset="12402842">
    <nd ref="301679220"/>
    <nd ref="301683538"/>
    <nd ref="301671551"/>
    <tag k="highway" v="primary"/>
    <tag k="int_ref" v="E 75"/>
    <tag k="note" v="DK1 konczy sie na węźle z S6 (Rusocin)"/>
    <tag k="odbl" v="clean"/>
    <tag k="ref" v="91"/>
    <tag k="source" v="UMP-PL, ./UMP-Gdansk/src/GDANSK.ulice.txt"/>
  </way>
  <way id="27477942" version="7" timestamp="2012-08-23T18:32:32Z" uid="181490" user="jasio1" changeset="12836126">
    <nd ref="301679220"/>
    <nd ref="301683538"/>
    <nd ref="301671551"/>
    <tag k="highway" v="primary"/>
    <tag k="int_ref" v="E 75"/>
    <tag k="note" v="DK1 konczy sie na węźle z S6 (Rusocin)"/>
    <tag k="odbl" v="clean"/>
    <tag k="ref" v="1"/>
    <tag k="source" v="UMP-PL, ./UMP-Gdansk/src/GDANSK.ulice.txt"/>
  </way>
  <way id="27477942" version="8" timestamp="2012-08-25T17:53:27Z" uid="181490" user="jasio1" changeset="12858331">
    <nd ref="301679220"/>
    <nd ref="301683538"/>
    <nd ref="301671551"/>
    <tag k="highway" v="primary"/>
    <tag k="int_ref" v="E 75"/>
    <tag k="note" v="DK1 konczy sie na węźle z S6 (Rusocin)"/>
    <tag k="odbl" v="clean"/>
    <tag k="ref" v="91"/>
    <tag k="source" v="UMP-PL, ./UMP-Gdansk/src/GDANSK.ulice.txt"/>
  </way>
  <way id="27477950" version="3" timestamp="2012-07-24T14:08:15Z" uid="722137" user="OSMF Redaction Account" changeset="12467395"/>
</osm>
