<?xml version='1.0' encoding='UTF-8'?>
<osm version="0.6" generator="libosmium/2.20.0">
  <way id="27792013" version="3" timestamp="2010-02-15T06:03:35Z" uid="74617" user="JohnSmith" changeset="3880328">
    <nd ref="305157283"/>
    <nd ref="305157913"/>
    <nd ref="305157914"/>
    <nd ref="305157916"/>
    <nd ref="305157917"/>
    <nd ref="305157919"/>
    <nd ref="305157920"/>
    <nd ref="305157922"/>
    <nd ref="305157923"/>
    <nd ref="305157532"/>
    <nd ref="305157925"/>
    <nd ref="305157927"/>
    <nd ref="305157928"/>
    <nd ref="305157283"/>
    <tag k="highway" v="secondary"/>
    <tag k="junction" v="roundabout"/>
  </way>
  <way id="27792017" version="3" timestamp="2011-04-20T10:41:43Z" uid="4467" user="Rosscoe" changeset="7914933">
    <nd ref="304871869"/>
    <nd ref="305157955"/>
    <nd ref="305157956"/>
    <tag k="highway" v="residential"/>
    <tag k="name" v="Rajah street"/>
    <tag k="surface" v="paved"/>
  </way>
  <way id="27792022" version="3" timestamp="2011-04-20T09:12:58Z" uid="4467" user="Rosscoe" changeset="7914252">
    <nd ref="304872292"/>
    <nd ref="305128391"/>
    <nd ref="304871869"/>
    <tag k="highway" v="residential"/>
    <tag k="name" v="Rajah street"/>
    <tag k="source" v="survey"/>
    <tag k="surface" v="paved"/>
    <tag k="survey" v="GPS"/>
  </way>
  <way id="27792022" version="4" timestamp="2011-04-20T09:32:51Z" uid="4467" user="Rosscoe" changeset="7914409">
    <nd ref="304872292"/>
    <nd ref="1252248720"/>
    <nd ref="305128391"/>
    <nd ref="304871869"/>
    <tag k="highway" v="residential"/>
    <tag k="name" v="Rajah street"/>
    <tag k="source" v="survey"/>
    <tag k="surface" v="paved"/>
    <tag k="survey" v="GPS"/>
  </way>
  <way id="27792044" version="3" timestamp="2009-09-18T14:51:38Z" uid="174946" user="nevminoz" changeset="2525197">
    <nd ref="305158199"/>
    <nd ref="305158198"/>
    <nd ref="500384036"/>
    <nd ref="480688988"/>
    <nd ref="305158197"/>
    <nd ref="305158196"/>
    <nd ref="305158195"/>
    <nd ref="305158194"/>
    <nd ref="305158193"/>
    <tag k="highway" v="residential"/>
    <tag k="name" v="ул. Карла Маркса"/>
    <tag k="oneway" v="true"/>
  </way>
  <way id="27792044" version="4" timestamp="2010-02-07T14:53:38Z" uid="219859" user="Максимкин" changeset="3814945">
    <nd ref="305158199"/>
    <nd ref="305158198"/>
    <nd ref="500384036"/>
    <nd ref="480688988"/>
    <tag k="highway" v="secondary"/>
    <tag k="name" v="ул. Карла Маркса"/>
    <tag k="oneway" v="true"/>
  </way>
  <way id="27792044" version="5" timestamp="2010-05-05T20:03:58Z" uid="27371" user="vvoovv" changeset="4616413">
    <nd ref="305158199"/>
    <nd ref="722893065"/>
    <nd ref="722892981"/>
    <nd ref="305158198"/>
    <nd ref="500384036"/>
    <nd ref="480688988"/>
    <tag k="highway" v="secondary"/>
    <tag k="name" v="ул. Карла Маркса"/>
    <tag k="oneway" v="true"/>
  </way>
  <way id="27792044" version="6" timestamp="2011-06-15T00:30:11Z" uid="133332" user="AMDmi3" changeset="8443297">
    <nd ref="305158199"/>
    <nd ref="722893065"/>
    <nd ref="722892981"/>
    <nd ref="305158198"/>
    <nd ref="500384036"/>
    <nd ref="480688988"/>
    <tag k="highway" v="secondary"/>
    <tag k="name" v="улица Карла Маркса"/>
    <tag k="oneway" v="true"/>
  </way>
  <way id="27792064" version="2" timestamp="2011-04-20T10:41:45Z" uid="4467" user="Rosscoe" changeset="7914933">
    <nd ref="305158504"/>
    <nd ref="305158505"/>
    <tag k="highway" v="unclassified"/>
    <tag k="name" v="Biggs street"/>
  </way>
  <way id="27792067" version="3" timestamp="2010-02-15T06:02:28Z" uid="74617" user="JohnSmith" changeset="3880328">
    <nd ref="305157799"/>
    <nd ref="305158530"/>
    <nd ref="305158531"/>
    <nd ref="305158532"/>
    <nd ref="305158533"/>
    <nd ref="305158536"/>
    <nd ref="305158538"/>
    <tag k="highway" v="trunk"/>
    <tag k="name" v="Centenary Highway"/>
    <tag k="oneway" v="yes"/>
  </way>
  <way id="27792067" version="4" timestamp="2010-03-16T04:48:54Z" uid="74617" user="JohnSmith" changeset="4140639">
    <nd ref="305157799"/>
    <nd ref="305158530"/>
    <nd ref="305158531"/>
    <nd ref="305158532"/>
    <nd ref="305158533"/>
    <nd ref="305158536"/>
    <nd ref="305158538"/>
    <tag k="highway" v="trunk"/>
    <tag k="oneway" v="yes"/>
  </way>
  <way id="27792067" version="5" timestamp="2012-01-04T12:27:13Z" uid="67896" user="mrpulley" changeset="10290267">
    <nd ref="305157799"/>
    <nd ref="305158530"/>
    <nd ref="305158531"/>
    <nd ref="305158532"/>
    <nd ref="305158533"/>
    <nd ref="305158536"/>
    <nd ref="305158538"/>
    <tag k="highway" v="trunk"/>
    <tag k="name" v="Centenary Highway"/>
    <tag k="oneway" v="yes"/>
    <tag k="ref" v="A5"/>
  </way>
  <way id="27792084" version="3" timestamp="2010-02-15T06:03:35Z" uid="74617" user="JohnSmith" changeset="3880328">
    <nd ref="305157913"/>
    <nd ref="305158635"/>
    <nd ref="305158636"/>
    <tag k="highway" v="tertiary"/>
    <tag k="oneway" v="yes"/>
  </way>
  <way id="27792089" version="2" timestamp="2010-02-15T06:03:23Z" uid="74617" user="JohnSmith" changeset="3880328">
    <nd ref="305157279"/>
    <nd ref="305158646"/>
    <nd ref="305158647"/>
    <tag k="highway" v="service"/>
    <tag k="maxspeed" v="50"/>
  </way>
  <way id="27792089" version="3" timestamp="2012-01-17T08:21:41Z" uid="147510" user="woodpeck_fixbot" changeset="10414499">
    <nd ref="305157279"/>
    <nd ref="305158646"/>
    <nd ref="305158647"/>
    <tag k="highway" v="service"/>
  </way>
  <way id="27792111" version="1" timestamp="2008-10-17T12:42:03Z" uid="43863" user="Rundling" changeset="390419">
    <nd ref="305159033"/>
    <nd ref="305159030"/>
    <nd ref="305159035"/>
    <nd ref="305159037"/>
    <nd ref="305159033"/>
    <tag k="addr:city" v="Rätzlingen"/>
    <tag k="addr:housenumber" v="56"/>
    <tag k="addr:postcode" v="29590"/>
    <tag k="addr:street" v="Hauptstraße"/>
    <tag k="building" v="yes"/>
    <tag k="created_by" v="Merkaartor 0.11"/>
  </way>
  <way id="27792112" version="1" timestamp="2008-10-17T12:42:04Z" uid="43863" user="Rundling" changeset="390419">
    <nd ref="305159044"/>
    <nd ref="305159041"/>
    <nd ref="305159038"/>
    <nd ref="305159040"/>
    <nd ref="305159044"/>
    <tag k="addr:city" v="Rätzlingen"/>
    <tag k="addr:housenumber" v="54"/>
    <tag k="addr:postcode" v="29590"/>
    <tag k="addr:street" v="Hauptstraße"/>
    <tag k="building" v="yes"/>
    <tag k="created_by" v="Merkaartor 0.11"/>
  </way>
  <way id="27792113" version="1" timestamp="2008-10-17T12:42:05Z" uid="43863" user="Rundling" changeset="390419">
    <nd ref="305159050"/>
    <nd ref="305159048"/>
    <nd ref="305159045"/>
    <nd ref="305159047"/>
    <nd ref="305159050"/>
    <tag k="addr:city" v="Rätzlingen"/>
    <tag k="addr:housenumber" v="52"/>
    <tag k="addr:postcode" v="29590"/>
    <tag k="addr:street" v="Hauptstraße"/>
    <tag k="building" v="yes"/>
    <tag k="created_by" v="Merkaartor 0.11"/>
  </way>
  <way id="27792114" version="1" timestamp="2008-10-17T12:42:05Z" uid="43863" user="Rundling" changeset="390419">
    <nd ref="305159058"/>
    <nd ref="305159055"/>
    <nd ref="305159052"/>
    <nd ref="305159054"/>
    <nd ref="305159058"/>
    <tag k="addr:city" v="Rätzlingen"/>
    <tag k="addr:housenumber" v="50"/>
    <tag k="addr:postcode" v="29590"/>
    <tag k="addr:street" v="Hauptstraße"/>
    <tag k="building" v="yes"/>
    <tag k="created_by" v="Merkaartor 0.11"/>
  </way>
  <way id="27792116" version="2" timestamp="2010-02-15T06:03:23Z" uid="74617" user="JohnSmith" changeset="3880328">
    <nd ref="305157799"/>
    <nd ref="305154059"/>
    <tag k="highway" v="trunk"/>
    <tag k="name" v="Centenary Highway"/>
  </way>
  <way id="27792116" version="3" timestamp="2010-03-16T04:48:54Z" uid="74617" user="JohnSmith" changeset="4140639">
    <nd ref="305157799"/>
    <nd ref="305154059"/>
    <tag k="highway" v="trunk"/>
  </way>
  <way id="27792116" version="4" timestamp="2012-01-04T12:27:03Z" uid="67896" user="mrpulley" changeset="10290267">
    <nd ref="305157799"/>
    <nd ref="305154059"/>
    <tag k="highway" v="trunk"/>
    <tag k="name" v="Centenary Highway"/>
    <tag k="ref" v="A5"/>
  </way>
  <way id="27792120" version="2" timestamp="2008-11-12T07:51:16Z" uid="9581" user="Lobelt" changeset="736984">
    <nd ref="302819907"/>
    <nd ref="302820211"/>
    <nd ref="302820212"/>
    <tag k="created_by" v="Potlatch 0.10e"/>
    <tag k="highway" v="residential"/>
    <tag k="name" v="Wilhelm-Külz-Straße"/>
  </way>
  <way id="27792120" version="3" timestamp="2011-12-29T18:27:08Z" uid="330465" user="kikamagazin" changeset="10238213">
    <nd ref="302819907"/>
    <nd ref="302820211"/>
    <nd ref="302820212"/>
    <tag k="highway" v="residential"/>
    <tag k="maxspeed" v="30"/>
    <tag k="name" v="Wilhelm-Külz-Straße"/>
  </way>
  <way id="27792120" version="4" timestamp="2011-12-30T13:19:58Z" uid="330465" user="kikamagazin" changeset="10245106">
    <nd ref="302819907"/>
    <nd ref="302820211"/>
    <nd ref="302820212"/>
    <tag k="highway" v="residential"/>
    <tag k="lit" v="yes"/>
    <tag k="maxspeed" v="30"/>
    <tag k="name" v="Wilhelm-Külz-Straße"/>
  </way>
  <way id="27792120" version="5" timestamp="2012-02-18T17:25:18Z" uid="28234" user="derandi" changeset="10722386"/>
  <way id="27792123" version="3" timestamp="2010-02-15T06:02:29Z" uid="74617" user="JohnSmith" changeset="3880328">
    <nd ref="305158538"/>
    <nd ref="305158598"/>
    <nd ref="111550680"/>
    <nd ref="305158640"/>
    <nd ref="305157799"/>
    <tag k="highway" v="trunk"/>
    <tag k="name" v="Centenary Highway"/>
    <tag k="oneway" v="yes"/>
  </way>
  <way id="27792123" version="4" timestamp="2010-03-16T04:48:54Z" uid="74617" user="JohnSmith" changeset="4140639">
    <nd ref="305158538"/>
    <nd ref="305158598"/>
    <nd ref="111550680"/>
    <nd ref="305158640"/>
    <nd ref="305157799"/>
    <tag k="highway" v="trunk"/>
    <tag k="oneway" v="yes"/>
  </way>
  <way id="27792123" version="5" timestamp="2012-01-04T12:27:10Z" uid="67896" user="mrpulley" changeset="10290267">
    <nd ref="305158538"/>
    <nd ref="305158598"/>
    <nd ref="111550680"/>
    <nd ref="305158640"/>
    <nd ref="305157799"/>
    <tag k="highway" v="trunk"/>
    <tag k="name" v="Centenary Highway"/>
    <tag k="oneway" v="yes"/>
    <tag k="ref" v="A5"/>
  </way>
  <way id="27792136" version="3" timestamp="2010-02-15T06:03:35Z" uid="74617" user="JohnSmith" changeset="3880328">
    <nd ref="305158636"/>
    <nd ref="305159374"/>
    <nd ref="305157917"/>
    <tag k="highway" v="tertiary"/>
    <tag k="oneway" v="yes"/>
  </way>
  <way id="27792161" version="3" timestamp="2010-02-15T06:03:16Z" uid="74617" user="JohnSmith" changeset="3880328">
    <nd ref="305158598"/>
    <nd ref="305159878"/>
    <nd ref="305159880"/>
    <nd ref="305159882"/>
    <nd ref="305159884"/>
    <nd ref="305159886"/>
    <nd ref="305159888"/>
    <nd ref="305159891"/>
    <nd ref="305159893"/>
    <nd ref="305159896"/>
    <nd ref="305159898"/>
    <nd ref="305159900"/>
    <nd ref="305159902"/>
    <nd ref="305159904"/>
    <nd ref="305159906"/>
    <nd ref="305159908"/>
    <nd ref="305159911"/>
    <nd ref="305157023"/>
    <tag k="highway" v="trunk_link"/>
  </way>
  <way id="27792164" version="4" timestamp="2011-04-20T09:12:56Z" uid="4467" user="Rosscoe" changeset="7914252">
    <nd ref="304879165"/>
    <nd ref="304879215"/>
    <nd ref="304879216"/>
    <nd ref="304879217"/>
    <nd ref="304879219"/>
    <nd ref="304879220"/>
    <nd ref="304879221"/>
    <nd ref="304879222"/>
    <tag k="highway" v="residential"/>
    <tag k="name" v="Tower street"/>
    <tag k="source" v="survey"/>
    <tag k="surface" v="paved"/>
    <tag k="survey" v="GPS"/>
  </way>
  <way id="27792164" version="5" timestamp="2011-04-20T10:41:43Z" uid="4467" user="Rosscoe" changeset="7914933">
    <nd ref="304879165"/>
    <nd ref="1252286654"/>
    <nd ref="304879215"/>
    <nd ref="304879216"/>
    <nd ref="304879217"/>
    <nd ref="304879219"/>
    <nd ref="304879220"/>
    <nd ref="304879221"/>
    <tag k="highway" v="residential"/>
    <tag k="name" v="Tower street"/>
    <tag k="source" v="survey"/>
    <tag k="surface" v="paved"/>
    <tag k="survey" v="GPS"/>
  </way>
  <way id="27792174" version="3" timestamp="2010-02-15T06:03:16Z" uid="74617" user="JohnSmith" changeset="3880328">
    <nd ref="305157031"/>
    <nd ref="305160231"/>
    <nd ref="305160234"/>
    <nd ref="305160236"/>
    <nd ref="305160238"/>
    <nd ref="305160240"/>
    <nd ref="305160243"/>
    <nd ref="305160245"/>
    <nd ref="305160248"/>
    <nd ref="305160250"/>
    <nd ref="305160252"/>
    <nd ref="305160254"/>
    <nd ref="305160257"/>
    <nd ref="305160259"/>
    <nd ref="305160260"/>
    <nd ref="305160262"/>
    <nd ref="305156159"/>
    <tag k="highway" v="trunk_link"/>
  </way>
  <way id="27792174" version="4" timestamp="2012-01-04T12:28:34Z" uid="67896" user="mrpulley" changeset="10290267">
    <nd ref="305157031"/>
    <nd ref="305160231"/>
    <nd ref="305160234"/>
    <nd ref="305160236"/>
    <nd ref="305160238"/>
    <nd ref="305160240"/>
    <nd ref="305160243"/>
    <nd ref="305160245"/>
    <nd ref="305160248"/>
    <nd ref="305160250"/>
    <nd ref="305160252"/>
    <nd ref="305160254"/>
    <nd ref="305160257"/>
    <nd ref="305160259"/>
    <nd ref="305160260"/>
    <nd ref="305160262"/>
    <nd ref="305156159"/>
    <tag k="highway" v="trunk_link"/>
    <tag k="surface" v="asphalt"/>
  </way>
  <way id="27792183" version="1" timestamp="2008-10-17T12:46:17Z" uid="43863" user="Rundling" changeset="390419">
    <nd ref="288118279"/>
    <nd ref="277415804"/>
    <tag k="highway" v="residential"/>
    <tag k="name" v="im Winkel"/>
    <tag k="surface" v="paved"/>
  </way>
  <way id="27792185" version="1" timestamp="2008-10-17T12:46:17Z" uid="43863" user="Rundling" changeset="390419">
    <nd ref="305160328"/>
    <nd ref="305160327"/>
    <nd ref="305160330"/>
    <nd ref="305160329"/>
    <nd ref="305160328"/>
    <tag k="addr:city" v="Rätzlingen"/>
    <tag k="addr:housenumber" v="48"/>
    <tag k="addr:postcode" v="29590"/>
    <tag k="addr:street" v="Hauptstraße"/>
    <tag k="building" v="yes"/>
    <tag k="created_by" v="Merkaartor 0.11"/>
  </way>
  <way id="27792186" version="1" timestamp="2008-10-17T12:46:18Z" uid="43863" user="Rundling" changeset="390419">
    <nd ref="305160332"/>
    <nd ref="305160331"/>
    <nd ref="305160334"/>
    <nd ref="305160333"/>
    <nd ref="305160332"/>
    <tag k="addr:city" v="Rätzlingen"/>
    <tag k="addr:housenumber" v="46"/>
    <tag k="addr:postcode" v="29590"/>
    <tag k="addr:street" v="Hauptstraße"/>
    <tag k="building" v="yes"/>
    <tag k="created_by" v="Merkaartor 0.11"/>
  </way>
  <way id="27792187" version="4" timestamp="2010-02-15T06:03:35Z" uid="74617" user="JohnSmith" changeset="3880328">
    <nd ref="305158636"/>
    <nd ref="305160337"/>
    <tag k="bridge" v="yes"/>
    <tag k="highway" v="tertiary"/>
    <tag k="layer" v="1"/>
  </way>
  <way id="27792187" version="5" timestamp="2011-01-18T21:34:09Z" uid="396790" user="dypsis" changeset="7015206">
    <nd ref="305158636"/>
    <nd ref="305160337"/>
    <tag k="bridge" v="yes"/>
    <tag k="highway" v="residential"/>
    <tag k="layer" v="1"/>
    <tag k="name" v="Lakeside Avenue"/>
  </way>
  <way id="27792189" version="4" timestamp="2010-06-29T19:12:13Z" uid="74617" user="JohnSmith" changeset="5108182">
    <nd ref="305160351"/>
    <nd ref="305160352"/>
    <nd ref="305160353"/>
    <nd ref="305160354"/>
    <nd ref="305160351"/>
    <tag k="fixme" v="sport=football is ambiguous, see http://wiki.osm.org/wiki/Football for more details"/>
    <tag k="leisure" v="pitch"/>
    <tag k="sport" v="football"/>
  </way>
  <way id="27792189" version="5" timestamp="2011-11-10T15:49:14Z" uid="163480" user="Eric V" changeset="9789426">
    <nd ref="305160351"/>
    <nd ref="305160352"/>
    <nd ref="305160353"/>
    <nd ref="305160354"/>
    <nd ref="305160351"/>
    <tag k="leisure" v="pitch"/>
    <tag k="sport" v="soccer"/>
  </way>
  <way id="27792190" version="5" timestamp="2010-02-15T06:03:35Z" uid="74617" user="JohnSmith" changeset="3880328">
    <nd ref="305157919"/>
    <nd ref="305160357"/>
    <nd ref="305160359"/>
    <nd ref="367370660"/>
    <nd ref="367370663"/>
    <nd ref="367370666"/>
    <nd ref="367370676"/>
    <nd ref="367372455"/>
    <tag k="highway" v="tertiary"/>
    <tag k="name" v="Springfield Lakes Boulevard"/>
    <tag k="oneway" v="yes"/>
  </way>
  <way id="27792198" version="3" timestamp="2010-02-15T06:03:36Z" uid="74617" user="JohnSmith" changeset="3880328">
    <nd ref="305160337"/>
    <nd ref="305160338"/>
    <tag k="highway" v="tertiary"/>
    <tag k="name" v="Lakeside Drive"/>
  </way>
  <way id="27792198" version="4" timestamp="2011-01-18T21:34:10Z" uid="396790" user="dypsis" changeset="7015206">
    <nd ref="305160337"/>
    <nd ref="305160338"/>
    <tag k="highway" v="residential"/>
    <tag k="name" v="Lakeside Drive"/>
  </way>
  <way id="27792198" version="5" timestamp="2011-01-18T21:34:23Z" uid="396790" user="dypsis" changeset="7015206">
    <nd ref="305160337"/>
    <nd ref="305160338"/>
    <tag k="highway" v="residential"/>
    <tag k="name" v="Lakeside Avenue"/>
  </way>
  <way id="27792200" version="3" timestamp="2010-02-15T06:03:34Z" uid="74617" user="JohnSmith" changeset="3880328">
    <nd ref="305160338"/>
    <nd ref="305160400"/>
    <nd ref="305160401"/>
    <tag k="highway" v="tertiary"/>
    <tag k="oneway" v="yes"/>
  </way>
  <way id="27792200" version="4" timestamp="2011-01-18T21:34:41Z" uid="396790" user="dypsis" changeset="7015206">
    <nd ref="305160338"/>
    <nd ref="305160400"/>
    <nd ref="305160401"/>
    <tag k="highway" v="residential"/>
    <tag k="name" v="Lakeside Avenue"/>
    <tag k="oneway" v="yes"/>
  </way>
  <way id="27792202" version="3" timestamp="2010-02-15T06:03:34Z" uid="74617" user="JohnSmith" changeset="3880328">
    <nd ref="305160415"/>
    <nd ref="305160416"/>
    <nd ref="305160338"/>
    <tag k="highway" v="tertiary"/>
    <tag k="oneway" v="yes"/>
  </way>
  <way id="27792202" version="4" timestamp="2011-01-18T21:36:27Z" uid="396790" user="dypsis" changeset="7015206">
    <nd ref="305160415"/>
    <nd ref="305160416"/>
    <nd ref="305160338"/>
    <tag k="highway" v="residential"/>
    <tag k="name" v="Lakeside Avenue"/>
    <tag k="oneway" v="yes"/>
  </way>
  <way id="27792210" version="5" timestamp="2010-02-15T06:03:35Z" uid="74617" user="JohnSmith" changeset="3880328">
    <nd ref="367372447"/>
    <nd ref="367370705"/>
    <nd ref="367370699"/>
    <nd ref="367370686"/>
    <nd ref="367370658"/>
    <nd ref="305160478"/>
    <nd ref="305160479"/>
    <nd ref="305157923"/>
    <tag k="highway" v="tertiary"/>
    <tag k="name" v="Springfield Lakes Boulevard"/>
    <tag k="oneway" v="yes"/>
  </way>
  <way id="27792214" version="4" timestamp="2010-02-15T06:03:38Z" uid="74617" user="JohnSmith" changeset="3880328">
    <nd ref="305160491"/>
    <nd ref="305160492"/>
    <nd ref="305160493"/>
    <tag k="highway" v="tertiary"/>
    <tag k="oneway" v="yes"/>
  </way>
  <way id="27792214" version="5" timestamp="2011-01-18T21:35:14Z" uid="396790" user="dypsis" changeset="7015206">
    <nd ref="305160491"/>
    <nd ref="305160492"/>
    <nd ref="305160493"/>
    <tag k="highway" v="residential"/>
    <tag k="name" v="Lakeside Avenue"/>
    <tag k="oneway" v="yes"/>
  </way>
  <way id="27792222" version="3" timestamp="2010-02-15T06:03:21Z" uid="74617" user="JohnSmith" changeset="3880328">
    <nd ref="305155366"/>
    <nd ref="305160540"/>
    <nd ref="305160541"/>
    <nd ref="305160542"/>
    <nd ref="305160543"/>
    <nd ref="305160545"/>
    <nd ref="305160547"/>
    <tag k="highway" v="secondary"/>
    <tag k="oneway" v="yes"/>
  </way>
  <way id="27792222" version="4" timestamp="2012-01-04T12:28:27Z" uid="67896" user="mrpulley" changeset="10290267">
    <nd ref="305155366"/>
    <nd ref="305160540"/>
    <nd ref="305160541"/>
    <nd ref="305160542"/>
    <nd ref="305160543"/>
    <nd ref="305160545"/>
    <nd ref="305160547"/>
    <tag k="highway" v="secondary"/>
    <tag k="maxspeed" v="70"/>
    <tag k="name" v="Springfield Parkway"/>
    <tag k="oneway" v="yes"/>
    <tag k="source:maxspeed" v="sign"/>
    <tag k="surface" v="asphalt"/>
  </way>
  <way id="27792223" version="3" timestamp="2010-06-29T19:16:37Z" uid="74617" user="JohnSmith" changeset="5108182">
    <nd ref="305160548"/>
    <nd ref="305160549"/>
    <nd ref="305160550"/>
    <nd ref="305160551"/>
    <nd ref="305160548"/>
    <tag k="fixme" v="sport=football is ambiguous, see http://wiki.osm.org/wiki/Football for more details"/>
    <tag k="leisure" v="pitch"/>
    <tag k="source" v="cadastre-dgi-fr source : Direction Générale des Impôts - Cadastre ; mise à jour : 2009"/>
    <tag k="sport" v="football"/>
  </way>
  <way id="27792223" version="4" timestamp="2011-11-10T15:48:42Z" uid="163480" user="Eric V" changeset="9789426">
    <nd ref="305160548"/>
    <nd ref="305160549"/>
    <nd ref="305160550"/>
    <nd ref="305160551"/>
    <nd ref="305160548"/>
    <tag k="leisure" v="pitch"/>
    <tag k="source" v="cadastre-dgi-fr source : Direction Générale des Impôts - Cadastre ; mise à jour : 2009"/>
    <tag k="sport" v="soccer"/>
  </way>
  <way id="27792247" version="1" timestamp="2008-10-17T12:51:36Z" uid="43863" user="Rundling" changeset="390419">
    <nd ref="305160676"/>
    <nd ref="305160675"/>
    <nd ref="305160678"/>
    <nd ref="305160677"/>
    <nd ref="305160676"/>
    <tag k="addr:city" v="Rätzlingen"/>
    <tag k="addr:housenumber" v="44"/>
    <tag k="addr:postcode" v="29590"/>
    <tag k="addr:street" v="Hauptstraße"/>
    <tag k="building" v="yes"/>
    <tag k="created_by" v="Merkaartor 0.11"/>
  </way>
  <way id="27792248" version="1" timestamp="2008-10-17T12:51:36Z" uid="43863" user="Rundling" changeset="390419">
    <nd ref="305160680"/>
    <nd ref="305160679"/>
    <nd ref="305160682"/>
    <nd ref="305160681"/>
    <nd ref="305160680"/>
    <tag k="addr:city" v="Rätzlingen"/>
    <tag k="addr:housenumber" v="42"/>
    <tag k="addr:postcode" v="29590"/>
    <tag k="addr:street" v="Hauptstraße"/>
    <tag k="building" v="yes"/>
    <tag k="created_by" v="Merkaartor 0.11"/>
  </way>
  <way id="27792249" version="1" timestamp="2008-10-17T12:51:36Z" uid="43863" user="Rundling" changeset="390419">
    <nd ref="305160684"/>
    <nd ref="305160683"/>
    <nd ref="305160686"/>
    <nd ref="305160685"/>
    <nd ref="305160684"/>
    <tag k="addr:city" v="Rätzlingen"/>
    <tag k="addr:housenumber" v="38"/>
    <tag k="addr:postcode" v="29590"/>
    <tag k="addr:street" v="Hauptstraße"/>
    <tag k="building" v="yes"/>
    <tag k="created_by" v="Merkaartor 0.11"/>
  </way>
  <way id="27792250" version="1" timestamp="2008-10-17T12:51:37Z" uid="43863" user="Rundling" changeset="390419">
    <nd ref="305160688"/>
    <nd ref="305160687"/>
    <nd ref="305160690"/>
    <nd ref="305160689"/>
    <nd ref="305160688"/>
    <tag k="addr:city" v="Rätzlingen"/>
    <tag k="addr:housenumber" v="36"/>
    <tag k="addr:postcode" v="29590"/>
    <tag k="addr:street" v="Hauptstraße"/>
    <tag k="building" v="yes"/>
    <tag k="created_by" v="Merkaartor 0.11"/>
  </way>
  <way id="27792251" version="1" timestamp="2008-10-17T12:51:37Z" uid="43863" user="Rundling" changeset="390419">
    <nd ref="305160692"/>
    <nd ref="305160691"/>
    <nd ref="305160694"/>
    <nd ref="305160693"/>
    <nd ref="305160692"/>
    <tag k="addr:city" v="Rätzlingen"/>
    <tag k="addr:housenumber" v="40"/>
    <tag k="addr:postcode" v="29590"/>
    <tag k="addr:street" v="Hauptstraße"/>
    <tag k="building" v="yes"/>
    <tag k="created_by" v="Merkaartor 0.11"/>
  </way>
  <way id="27792283" version="3" timestamp="2010-02-15T06:03:21Z" uid="74617" user="JohnSmith" changeset="3880328">
    <nd ref="305160547"/>
    <nd ref="305160965"/>
    <nd ref="305160966"/>
    <nd ref="305160967"/>
    <nd ref="305160968"/>
    <nd ref="305155811"/>
    <tag k="highway" v="secondary"/>
    <tag k="oneway" v="yes"/>
  </way>
  <way id="27792283" version="4" timestamp="2012-01-04T12:28:27Z" uid="67896" user="mrpulley" changeset="10290267">
    <nd ref="305160547"/>
    <nd ref="305160965"/>
    <nd ref="305160966"/>
    <nd ref="305160967"/>
    <nd ref="305160968"/>
    <nd ref="305155811"/>
    <tag k="highway" v="secondary"/>
    <tag k="maxspeed" v="70"/>
    <tag k="name" v="Springfield Parkway"/>
    <tag k="oneway" v="yes"/>
    <tag k="source:maxspeed" v="sign"/>
    <tag k="surface" v="asphalt"/>
  </way>
  <way id="27792306" version="4" timestamp="2010-02-15T06:03:21Z" uid="74617" user="JohnSmith" changeset="3880328">
    <nd ref="305160547"/>
    <nd ref="305161187"/>
    <nd ref="305161188"/>
    <nd ref="367386326"/>
    <nd ref="305161189"/>
    <nd ref="305161190"/>
    <nd ref="305161191"/>
    <nd ref="305161192"/>
    <nd ref="367385429"/>
    <tag k="highway" v="secondary"/>
    <tag k="name" v="Springfield Parkway"/>
  </way>
  <way id="27792306" version="5" timestamp="2012-01-04T12:28:27Z" uid="67896" user="mrpulley" changeset="10290267">
    <nd ref="305160547"/>
    <nd ref="305161187"/>
    <nd ref="305161188"/>
    <nd ref="367386326"/>
    <nd ref="305161189"/>
    <nd ref="305161190"/>
    <nd ref="305161191"/>
    <nd ref="305161192"/>
    <nd ref="367385429"/>
    <tag k="highway" v="secondary"/>
    <tag k="maxspeed" v="70"/>
    <tag k="name" v="Springfield Parkway"/>
    <tag k="source:maxspeed" v="sign"/>
    <tag k="surface" v="asphalt"/>
  </way>
  <way id="27792322" version="1" timestamp="2008-10-17T12:55:06Z" uid="43863" user="Rundling" changeset="390419">
    <nd ref="305161285"/>
    <nd ref="305161284"/>
    <nd ref="305161288"/>
    <nd ref="305161287"/>
    <nd ref="305161285"/>
    <tag k="addr:city" v="Rätzlingen"/>
    <tag k="addr:housenumber" v="34"/>
    <tag k="addr:postcode" v="29590"/>
    <tag k="addr:street" v="Hauptstraße"/>
    <tag k="building" v="yes"/>
    <tag k="created_by" v="Merkaartor 0.11"/>
  </way>
  <way id="27792324" version="1" timestamp="2008-10-17T12:55:08Z" uid="43863" user="Rundling" changeset="390419">
    <nd ref="305161290"/>
    <nd ref="305161289"/>
    <nd ref="305161293"/>
    <nd ref="305161292"/>
    <nd ref="305161290"/>
    <tag k="addr:city" v="Rätzlingen"/>
    <tag k="addr:housenumber" v="32"/>
    <tag k="addr:postcode" v="29590"/>
    <tag k="addr:street" v="Hauptstraße"/>
    <tag k="building" v="yes"/>
    <tag k="created_by" v="Merkaartor 0.11"/>
  </way>
  <way id="27792326" version="1" timestamp="2008-10-17T12:55:08Z" uid="43863" user="Rundling" changeset="390419">
    <nd ref="305161295"/>
    <nd ref="305161294"/>
    <nd ref="305161297"/>
    <nd ref="305161296"/>
    <nd ref="305161295"/>
    <tag k="addr:city" v="Rätzlingen"/>
    <tag k="addr:housenumber" v="30"/>
    <tag k="addr:postcode" v="29590"/>
    <tag k="addr:street" v="Hauptstraße"/>
    <tag k="building" v="yes"/>
    <tag k="created_by" v="Merkaartor 0.11"/>
  </way>
  <way id="27792327" version="1" timestamp="2008-10-17T12:55:08Z" uid="43863" user="Rundling" changeset="390419">
    <nd ref="305161299"/>
    <nd ref="305161298"/>
    <nd ref="305161301"/>
    <nd ref="305161300"/>
    <nd ref="305161299"/>
    <tag k="addr:city" v="Rätzlingen"/>
    <tag k="addr:housenumber" v="28"/>
    <tag k="addr:postcode" v="29590"/>
    <tag k="addr:street" v="Hauptstraße"/>
    <tag k="building" v="yes"/>
    <tag k="created_by" v="Merkaartor 0.11"/>
  </way>
  <way id="27792328" version="1" timestamp="2008-10-17T12:55:09Z" uid="43863" user="Rundling" changeset="390419">
    <nd ref="305161303"/>
    <nd ref="305161302"/>
    <nd ref="305161305"/>
    <nd ref="305161304"/>
    <nd ref="305161303"/>
    <tag k="addr:city" v="Rätzlingen"/>
    <tag k="addr:housenumber" v="26"/>
    <tag k="addr:postcode" v="29590"/>
    <tag k="addr:street" v="Hauptstraße"/>
    <tag k="building" v="yes"/>
    <tag k="created_by" v="Merkaartor 0.11"/>
  </way>
  <way id="27792329" version="1" timestamp="2008-10-17T12:55:09Z" uid="43863" user="Rundling" changeset="390419">
    <nd ref="305161307"/>
    <nd ref="305161306"/>
    <nd ref="305161309"/>
    <nd ref="305161308"/>
    <nd ref="305161307"/>
    <tag k="addr:city" v="Rätzlingen"/>
    <tag k="addr:housenumber" v="24"/>
    <tag k="addr:postcode" v="29590"/>
    <tag k="addr:street" v="Hauptstraße"/>
    <tag k="building" v="yes"/>
    <tag k="created_by" v="Merkaartor 0.11"/>
  </way>
  <way id="27792330" version="1" timestamp="2008-10-17T12:55:09Z" uid="43863" user="Rundling" changeset="390419">
    <nd ref="305161311"/>
    <nd ref="305161310"/>
    <nd ref="305161313"/>
    <nd ref="305161312"/>
    <nd ref="305161311"/>
    <tag k="addr:city" v="Rätzlingen"/>
    <tag k="addr:housenumber" v="22"/>
    <tag k="addr:postcode" v="29590"/>
    <tag k="addr:street" v="Hauptstraße"/>
    <tag k="building" v="yes"/>
    <tag k="created_by" v="Merkaartor 0.11"/>
  </way>
  <way id="27792331" version="1" timestamp="2008-10-17T12:55:10Z" uid="43863" user="Rundling" changeset="390419">
    <nd ref="305161315"/>
    <nd ref="305161314"/>
    <nd ref="305161317"/>
    <nd ref="305161316"/>
    <nd ref="305161315"/>
    <tag k="addr:city" v="Rätzlingen"/>
    <tag k="addr:housenumber" v="20"/>
    <tag k="addr:postcode" v="29590"/>
    <tag k="addr:street" v="Hauptstraße"/>
    <tag k="building" v="yes"/>
    <tag k="created_by" v="Merkaartor 0.11"/>
  </way>
  <way id="27792359" version="4" timestamp="2010-02-15T06:02:29Z" uid="74617" user="JohnSmith" changeset="3880328">
    <nd ref="305161505"/>
    <nd ref="305161506"/>
    <nd ref="305161507"/>
    <nd ref="305161508"/>
    <nd ref="305161509"/>
    <nd ref="305161510"/>
    <nd ref="305161511"/>
    <nd ref="305161512"/>
    <nd ref="305161513"/>
    <nd ref="305161514"/>
    <nd ref="305161515"/>
    <nd ref="305161516"/>
    <nd ref="305161517"/>
    <nd ref="305161518"/>
    <nd ref="305161519"/>
    <nd ref="305161520"/>
    <nd ref="305161521"/>
    <nd ref="305161522"/>
    <nd ref="305161523"/>
    <nd ref="305161524"/>
    <nd ref="305161525"/>
    <nd ref="305161526"/>
    <nd ref="305161527"/>
    <nd ref="305161528"/>
    <nd ref="305161529"/>
    <nd ref="305161531"/>
    <nd ref="305161532"/>
    <nd ref="305161533"/>
    <nd ref="305161534"/>
    <nd ref="305161535"/>
    <nd ref="305161536"/>
    <nd ref="305161537"/>
    <nd ref="305161538"/>
    <nd ref="305161539"/>
    <tag k="highway" v="residential"/>
    <tag k="maxspeed" v="50"/>
  </way>
  <way id="27792359" version="5" timestamp="2010-04-30T08:44:51Z" uid="4467" user="Rosscoe" changeset="4564191">
    <nd ref="305161505"/>
    <nd ref="305161506"/>
    <nd ref="305161507"/>
    <nd ref="305161508"/>
    <nd ref="305161509"/>
    <nd ref="305161510"/>
    <nd ref="305161511"/>
    <nd ref="305161512"/>
    <nd ref="305161513"/>
    <nd ref="305161514"/>
    <nd ref="305161515"/>
    <nd ref="305161516"/>
    <nd ref="305161517"/>
    <nd ref="305161518"/>
    <nd ref="305161519"/>
    <nd ref="305161520"/>
    <nd ref="305161521"/>
    <nd ref="305161522"/>
    <nd ref="305161523"/>
    <nd ref="305161524"/>
    <nd ref="305161525"/>
    <nd ref="305161526"/>
    <nd ref="305161527"/>
    <nd ref="305161528"/>
    <nd ref="305161529"/>
    <nd ref="305161531"/>
    <nd ref="305161532"/>
    <nd ref="305161533"/>
    <nd ref="305161534"/>
    <nd ref="305161535"/>
    <nd ref="305161536"/>
    <nd ref="305161537"/>
    <nd ref="305161538"/>
    <nd ref="712909391"/>
    <tag k="highway" v="residential"/>
    <tag k="maxspeed" v="50"/>
  </way>
  <way id="27792359" version="6" timestamp="2012-01-17T08:21:43Z" uid="147510" user="woodpeck_fixbot" changeset="10414499">
    <nd ref="305161505"/>
    <nd ref="305161506"/>
    <nd ref="305161507"/>
    <nd ref="305161508"/>
    <nd ref="305161509"/>
    <nd ref="305161510"/>
    <nd ref="305161511"/>
    <nd ref="305161512"/>
    <nd ref="305161513"/>
    <nd ref="305161514"/>
    <nd ref="305161515"/>
    <nd ref="305161516"/>
    <nd ref="305161517"/>
    <nd ref="305161518"/>
    <nd ref="305161519"/>
    <nd ref="305161520"/>
    <nd ref="305161521"/>
    <nd ref="305161522"/>
    <nd ref="305161523"/>
    <nd ref="305161524"/>
    <nd ref="305161525"/>
    <nd ref="305161526"/>
    <nd ref="305161527"/>
    <nd ref="305161528"/>
    <nd ref="305161529"/>
    <nd ref="305161531"/>
    <nd ref="305161532"/>
    <nd ref="305161533"/>
    <nd ref="305161534"/>
    <nd ref="305161535"/>
    <nd ref="305161536"/>
    <nd ref="305161537"/>
    <nd ref="305161538"/>
    <nd ref="712909391"/>
    <tag k="highway" v="residential"/>
  </way>
  <way id="27792403" version="1" timestamp="2008-10-17T12:58:13Z" uid="43863" user="Rundling" changeset="390419">
    <nd ref="305161907"/>
    <nd ref="305161906"/>
    <nd ref="305161909"/>
    <nd ref="305161908"/>
    <nd ref="305161907"/>
    <tag k="addr:city" v="Rätzlingen"/>
    <tag k="addr:housenumber" v="41"/>
    <tag k="addr:postcode" v="29590"/>
    <tag k="addr:street" v="Hauptstraße"/>
    <tag k="building" v="yes"/>
    <tag k="created_by" v="Merkaartor 0.11"/>
  </way>
  <way id="27792404" version="1" timestamp="2008-10-17T12:58:14Z" uid="43863" user="Rundling" changeset="390419">
    <nd ref="305161911"/>
    <nd ref="305161910"/>
    <nd ref="305161913"/>
    <nd ref="305161912"/>
    <nd ref="305161911"/>
    <tag k="addr:city" v="Rätzlingen"/>
    <tag k="addr:housenumber" v="39"/>
    <tag k="addr:postcode" v="29590"/>
    <tag k="addr:street" v="Hauptstraße"/>
    <tag k="building" v="yes"/>
    <tag k="created_by" v="Merkaartor 0.11"/>
  </way>
  <way id="27792405" version="1" timestamp="2008-10-17T12:58:14Z" uid="43863" user="Rundling" changeset="390419">
    <nd ref="305161915"/>
    <nd ref="305161914"/>
    <nd ref="305161921"/>
    <nd ref="305161917"/>
    <nd ref="305161915"/>
    <tag k="addr:city" v="Rätzlingen"/>
    <tag k="addr:housenumber" v="37"/>
    <tag k="addr:postcode" v="29590"/>
    <tag k="addr:street" v="Hauptstraße"/>
    <tag k="building" v="yes"/>
    <tag k="created_by" v="Merkaartor 0.11"/>
  </way>
  <way id="27792406" version="1" timestamp="2008-10-17T12:58:14Z" uid="43863" user="Rundling" changeset="390419">
    <nd ref="305161924"/>
    <nd ref="305161922"/>
    <nd ref="305161926"/>
    <nd ref="305161925"/>
    <nd ref="305161924"/>
    <tag k="addr:city" v="Rätzlingen"/>
    <tag k="addr:housenumber" v="35"/>
    <tag k="addr:postcode" v="29590"/>
    <tag k="addr:street" v="Hauptstraße"/>
    <tag k="building" v="yes"/>
    <tag k="created_by" v="Merkaartor 0.11"/>
  </way>
  <way id="27792407" version="1" timestamp="2008-10-17T12:58:15Z" uid="43863" user="Rundling" changeset="390419">
    <nd ref="305161928"/>
    <nd ref="305161927"/>
    <nd ref="305161930"/>
    <nd ref="305161929"/>
    <nd ref="305161928"/>
    <tag k="addr:city" v="Rätzlingen"/>
    <tag k="addr:housenumber" v="33"/>
    <tag k="addr:postcode" v="29590"/>
    <tag k="addr:street" v="Hauptstraße"/>
    <tag k="building" v="yes"/>
    <tag k="created_by" v="Merkaartor 0.11"/>
  </way>
  <way id="27792424" version="5" timestamp="2010-02-15T06:04:08Z" uid="74617" user="JohnSmith" changeset="3880328">
    <nd ref="305163741"/>
    <nd ref="305163742"/>
    <nd ref="305163744"/>
    <nd ref="305163745"/>
    <nd ref="305162012"/>
    <nd ref="305162013"/>
    <nd ref="305162014"/>
    <nd ref="305162016"/>
    <nd ref="305162017"/>
    <nd ref="305162018"/>
    <nd ref="305162019"/>
    <nd ref="305162020"/>
    <nd ref="305162021"/>
    <nd ref="305162022"/>
    <nd ref="305162023"/>
    <nd ref="305162024"/>
    <nd ref="305162025"/>
    <nd ref="305162026"/>
    <nd ref="305162027"/>
    <nd ref="305162028"/>
    <nd ref="305162029"/>
    <nd ref="305162030"/>
    <nd ref="305162031"/>
    <nd ref="305162032"/>
    <nd ref="305161539"/>
    <tag k="highway" v="tertiary"/>
  </way>
  <way id="27792424" version="6" timestamp="2010-04-30T08:44:55Z" uid="4467" user="Rosscoe" changeset="4564191">
    <nd ref="305163741"/>
    <nd ref="305163742"/>
    <nd ref="305163744"/>
    <nd ref="305163745"/>
    <nd ref="305162012"/>
    <nd ref="305162013"/>
    <nd ref="305162014"/>
    <nd ref="305162016"/>
    <nd ref="305162017"/>
    <nd ref="305162018"/>
    <nd ref="305162019"/>
    <nd ref="305162020"/>
    <nd ref="305162021"/>
    <nd ref="305162022"/>
    <nd ref="305162023"/>
    <nd ref="305162024"/>
    <nd ref="305162025"/>
    <nd ref="305162026"/>
    <nd ref="305162027"/>
    <nd ref="305162028"/>
    <nd ref="305162029"/>
    <nd ref="305162030"/>
    <nd ref="305162031"/>
    <nd ref="305162032"/>
    <nd ref="712909366"/>
    <tag k="highway" v="tertiary"/>
  </way>
  <way id="27792441" version="1" timestamp="2008-10-17T13:00:02Z" uid="1066" user="pavel" changeset="396727">
    <nd ref="25315002"/>
    <nd ref="305162081"/>
    <nd ref="305162083"/>
    <nd ref="305162090"/>
    <nd ref="305162092"/>
    <nd ref="305162118"/>
    <nd ref="305162097"/>
    <nd ref="305162101"/>
    <nd ref="305162107"/>
    <tag k="highway" v="footway"/>
  </way>
  <way id="27792441" version="2" timestamp="2011-10-27T13:36:32Z" uid="84326" user="Mike Crash" changeset="9668367">
    <nd ref="25315002"/>
    <nd ref="305162081"/>
    <nd ref="305162083"/>
    <nd ref="305162090"/>
    <nd ref="305162092"/>
    <nd ref="305162118"/>
    <nd ref="305162097"/>
    <nd ref="305162101"/>
    <nd ref="305162107"/>
    <tag k="highway" v="path"/>
    <tag k="wheelchair" v="no"/>
  </way>
  <way id="27792443" version="1" timestamp="2008-10-17T13:00:03Z" uid="1066" user="pavel" changeset="396727">
    <nd ref="305162118"/>
    <nd ref="305162124"/>
    <nd ref="305162125"/>
    <nd ref="305162126"/>
    <nd ref="305162129"/>
    <nd ref="305162130"/>
    <nd ref="25183318"/>
    <tag k="highway" v="footway"/>
    <tag k="note" v="nahore na hroude"/>
  </way>
  <way id="27792443" version="2" timestamp="2011-10-27T13:36:07Z" uid="84326" user="Mike Crash" changeset="9668367">
    <nd ref="305162118"/>
    <nd ref="305162124"/>
    <nd ref="305162125"/>
    <nd ref="305162126"/>
    <nd ref="305162129"/>
    <nd ref="305162130"/>
    <nd ref="25183318"/>
    <tag k="highway" v="path"/>
    <tag k="note" v="nahore na hroude"/>
    <tag k="wheelchair" v="no"/>
  </way>
  <way id="27792445" version="1" timestamp="2008-10-17T13:00:03Z" uid="1066" user="pavel" changeset="396727">
    <nd ref="30063975"/>
    <nd ref="305162131"/>
    <tag k="highway" v="footway"/>
  </way>
  <way id="27792445" version="2" timestamp="2011-10-27T13:36:10Z" uid="84326" user="Mike Crash" changeset="9668367">
    <nd ref="30063975"/>
    <nd ref="305162131"/>
    <tag k="highway" v="footway;path"/>
    <tag k="wheelchair" v="no"/>
  </way>
  <way id="27792446" version="1" timestamp="2008-10-17T13:00:04Z" uid="1066" user="pavel" changeset="396727">
    <nd ref="25315061"/>
    <nd ref="25315059"/>
    <nd ref="25315060"/>
    <nd ref="60473065"/>
    <nd ref="247284720"/>
    <nd ref="247284721"/>
    <nd ref="247284722"/>
    <nd ref="30375328"/>
    <tag k="created_by" v="JOSM"/>
    <tag k="highway" v="residential"/>
    <tag k="name" v="V trninách"/>
    <tag k="name:source" v="nameit/uir-adr"/>
  </way>
  <way id="27792446" version="2" timestamp="2009-03-04T15:37:34Z" uid="3516" user="BiIbo" changeset="734836">
    <nd ref="25315061"/>
    <nd ref="25315059"/>
    <nd ref="25315060"/>
    <nd ref="60473065"/>
    <nd ref="247284720"/>
    <nd ref="247284721"/>
    <nd ref="247284722"/>
    <nd ref="30375328"/>
    <tag k="created_by" v="JOSM"/>
    <tag k="highway" v="residential"/>
    <tag k="name" v="V trninách"/>
    <tag k="source:name" v="nameit/uir-adr"/>
  </way>
  <way id="27792446" version="3" timestamp="2009-04-25T13:13:29Z" uid="119317" user="slimejs" changeset="949537">
    <nd ref="25315061"/>
    <nd ref="25315059"/>
    <nd ref="25315060"/>
    <nd ref="60473065"/>
    <nd ref="247284720"/>
    <nd ref="247284721"/>
    <nd ref="247284722"/>
    <nd ref="30375328"/>
    <tag k="created_by" v="JOSM"/>
    <tag k="highway" v="residential"/>
    <tag k="name" v="V Trninách"/>
    <tag k="source:name" v="nameit/uir-adr"/>
  </way>
  <way id="27792447" version="1" timestamp="2008-10-17T13:00:06Z" uid="1066" user="pavel" changeset="396727">
    <nd ref="305162134"/>
    <nd ref="305162135"/>
    <nd ref="305162136"/>
    <nd ref="305162137"/>
    <tag k="highway" v="footway"/>
    <tag k="note" v="cesticka mrnava"/>
  </way>
  <way id="27792447" version="2" timestamp="2011-10-27T13:36:29Z" uid="84326" user="Mike Crash" changeset="9668367">
    <nd ref="305162134"/>
    <nd ref="305162135"/>
    <nd ref="305162136"/>
    <nd ref="305162137"/>
    <tag k="highway" v="path"/>
    <tag k="note" v="cesticka mrnava"/>
    <tag k="wheelchair" v="no"/>
  </way>
  <way id="27792506" version="3" timestamp="2010-02-15T06:04:08Z" uid="74617" user="JohnSmith" changeset="3880328">
    <nd ref="305162670"/>
    <nd ref="305162671"/>
    <nd ref="305162672"/>
    <nd ref="305162673"/>
    <nd ref="305162674"/>
    <nd ref="305162675"/>
    <nd ref="305162676"/>
    <nd ref="305162677"/>
    <nd ref="305162678"/>
    <nd ref="305162679"/>
    <nd ref="305162680"/>
    <nd ref="305162681"/>
    <tag k="highway" v="tertiary"/>
    <tag k="name" v="Bridgewater Road"/>
    <tag k="oneway" v="yes"/>
  </way>
  <way id="27792514" version="15" timestamp="2010-02-15T06:04:13Z" uid="74617" user="JohnSmith" changeset="3880328">
    <nd ref="305162621"/>
    <nd ref="305166542"/>
    <nd ref="305166543"/>
    <nd ref="193697848"/>
    <nd ref="305166544"/>
    <nd ref="305166545"/>
    <nd ref="193697864"/>
    <nd ref="305166787"/>
    <nd ref="305166788"/>
    <nd ref="305166789"/>
    <nd ref="305166790"/>
    <nd ref="305166791"/>
    <nd ref="305166792"/>
    <nd ref="193697882"/>
    <nd ref="305166793"/>
    <tag k="highway" v="secondary"/>
    <tag k="name" v="Springfield Parkway"/>
  </way>
  <way id="27792522" version="2" timestamp="2010-02-15T06:04:17Z" uid="74617" user="JohnSmith" changeset="3880328">
    <nd ref="305162792"/>
    <nd ref="305162794"/>
    <nd ref="305162795"/>
    <nd ref="305162797"/>
    <tag k="highway" v="tertiary"/>
    <tag k="oneway" v="yes"/>
  </way>
  <way id="27792524" version="1" timestamp="2008-10-17T13:03:34Z" uid="43863" user="Rundling" changeset="390419">
    <nd ref="305162783"/>
    <nd ref="305162782"/>
    <nd ref="305162786"/>
    <nd ref="305162785"/>
    <nd ref="305162783"/>
    <tag k="addr:city" v="Rätzlingen"/>
    <tag k="addr:housenumber" v="27"/>
    <tag k="addr:postcode" v="29590"/>
    <tag k="addr:street" v="Hauptstraße"/>
    <tag k="building" v="yes"/>
    <tag k="created_by" v="Merkaartor 0.11"/>
  </way>
  <way id="27792525" version="1" timestamp="2008-10-17T13:03:34Z" uid="43863" user="Rundling" changeset="390419">
    <nd ref="305162789"/>
    <nd ref="305162787"/>
    <nd ref="305162791"/>
    <nd ref="305162790"/>
    <nd ref="305162789"/>
    <tag k="addr:city" v="Rätzlingen"/>
    <tag k="addr:housenumber" v="27b"/>
    <tag k="addr:postcode" v="29590"/>
    <tag k="addr:street" v="Hauptstraße"/>
    <tag k="building" v="yes"/>
    <tag k="created_by" v="Merkaartor 0.11"/>
  </way>
  <way id="27792526" version="1" timestamp="2008-10-17T13:03:35Z" uid="43863" user="Rundling" changeset="390419">
    <nd ref="305162796"/>
    <nd ref="305162793"/>
    <nd ref="305162799"/>
    <nd ref="305162798"/>
    <nd ref="305162796"/>
    <tag k="addr:city" v="Rätzlingen"/>
    <tag k="addr:housenumber" v="25"/>
    <tag k="addr:postcode" v="29590"/>
    <tag k="addr:street" v="Hauptstraße"/>
    <tag k="building" v="yes"/>
    <tag k="created_by" v="Merkaartor 0.11"/>
  </way>
  <way id="27792527" version="1" timestamp="2008-10-17T13:03:36Z" uid="43863" user="Rundling" changeset="390419">
    <nd ref="305162802"/>
    <nd ref="305162801"/>
    <nd ref="305162804"/>
    <nd ref="305162803"/>
    <nd ref="305162802"/>
    <tag k="addr:city" v="Rätzlingen"/>
    <tag k="addr:housenumber" v="23"/>
    <tag k="addr:postcode" v="29590"/>
    <tag k="addr:street" v="Hauptstraße"/>
    <tag k="building" v="yes"/>
    <tag k="created_by" v="Merkaartor 0.11"/>
  </way>
  <way id="27792528" version="1" timestamp="2008-10-17T13:03:37Z" uid="43863" user="Rundling" changeset="390419">
    <nd ref="305162806"/>
    <nd ref="305162805"/>
    <nd ref="305162808"/>
    <nd ref="305162807"/>
    <nd ref="305162806"/>
    <tag k="addr:city" v="Rätzlingen"/>
    <tag k="addr:housenumber" v="21"/>
    <tag k="addr:postcode" v="29590"/>
    <tag k="addr:street" v="Hauptstraße"/>
    <tag k="building" v="yes"/>
    <tag k="created_by" v="Merkaartor 0.11"/>
  </way>
  <way id="27792530" version="1" timestamp="2008-10-17T13:03:38Z" uid="43863" user="Rundling" changeset="390419">
    <nd ref="305162810"/>
    <nd ref="305162809"/>
    <nd ref="305162813"/>
    <nd ref="305162811"/>
    <nd ref="305162810"/>
    <tag k="addr:city" v="Rätzlingen"/>
    <tag k="addr:housenumber" v="19"/>
    <tag k="addr:postcode" v="29590"/>
    <tag k="addr:street" v="Hauptstraße"/>
    <tag k="building" v="yes"/>
    <tag k="created_by" v="Merkaartor 0.11"/>
  </way>
  <way id="27792531" version="1" timestamp="2008-10-17T13:03:38Z" uid="43863" user="Rundling" changeset="390419">
    <nd ref="305162816"/>
    <nd ref="305162814"/>
    <nd ref="305162818"/>
    <nd ref="305162817"/>
    <nd ref="305162816"/>
    <tag k="addr:city" v="Rätzlingen"/>
    <tag k="addr:housenumber" v="17"/>
    <tag k="addr:postcode" v="29590"/>
    <tag k="addr:street" v="Hauptstraße"/>
    <tag k="building" v="yes"/>
    <tag k="created_by" v="Merkaartor 0.11"/>
  </way>
  <way id="27792532" version="1" timestamp="2008-10-17T13:03:39Z" uid="43863" user="Rundling" changeset="390419">
    <nd ref="305162820"/>
    <nd ref="305162819"/>
    <nd ref="305162822"/>
    <nd ref="305162821"/>
    <nd ref="305162820"/>
    <tag k="addr:city" v="Rätzlingen"/>
    <tag k="addr:housenumber" v="15"/>
    <tag k="addr:postcode" v="29590"/>
    <tag k="addr:street" v="Hauptstraße"/>
    <tag k="amenity" v="fire_station"/>
    <tag k="building" v="yes"/>
    <tag k="created_by" v="Merkaartor 0.11"/>
    <tag k="name" v="FFW Rätzlingen"/>
  </way>
  <way id="27792532" version="2" timestamp="2008-10-17T13:05:05Z" uid="43863" user="Rundling" changeset="390419">
    <nd ref="305162820"/>
    <nd ref="305163370"/>
    <nd ref="305162819"/>
    <nd ref="305162822"/>
    <nd ref="305162821"/>
    <nd ref="305162820"/>
    <tag k="addr:city" v="Rätzlingen"/>
    <tag k="addr:housenumber" v="15"/>
    <tag k="addr:postcode" v="29590"/>
    <tag k="addr:street" v="Hauptstraße"/>
    <tag k="amenity" v="fire_station"/>
    <tag k="building" v="yes"/>
    <tag k="created_by" v="Merkaartor 0.11"/>
    <tag k="name" v="FFW Rätzlingen"/>
  </way>
  <way id="27792558" version="1" timestamp="2008-10-17T13:04:58Z" uid="43863" user="Rundling" changeset="390419">
    <nd ref="305163369"/>
    <nd ref="305163370"/>
    <nd ref="305163371"/>
    <tag k="highway" v="service"/>
    <tag k="surface" v="paved"/>
  </way>
  <way id="27792558" version="2" timestamp="2009-03-14T10:40:00Z" uid="43863" user="Rundling" changeset="804701"/>
  <way id="27792574" version="8" timestamp="2010-02-15T06:04:07Z" uid="74617" user="JohnSmith" changeset="3880328">
    <nd ref="305161539"/>
    <nd ref="305163443"/>
    <nd ref="305163444"/>
    <nd ref="305163445"/>
    <nd ref="305161505"/>
    <nd ref="305163446"/>
    <nd ref="305163447"/>
    <nd ref="305163448"/>
    <nd ref="305163449"/>
    <nd ref="305163450"/>
    <nd ref="305163451"/>
    <nd ref="305163452"/>
    <nd ref="305163453"/>
    <nd ref="305163454"/>
    <nd ref="305163455"/>
    <nd ref="305163456"/>
    <nd ref="305163457"/>
    <nd ref="305163458"/>
    <nd ref="305163459"/>
    <nd ref="305163460"/>
    <nd ref="305163461"/>
    <nd ref="305163462"/>
    <nd ref="305163463"/>
    <nd ref="305163464"/>
    <nd ref="305163465"/>
    <nd ref="305163466"/>
    <tag k="highway" v="tertiary"/>
    <tag k="name" v="Woodcrest Way"/>
  </way>
  <way id="27792574" version="9" timestamp="2010-04-30T08:44:44Z" uid="4467" user="Rosscoe" changeset="4564191">
    <nd ref="712909347"/>
    <nd ref="305163443"/>
    <nd ref="305163444"/>
    <nd ref="305163445"/>
    <nd ref="305161505"/>
    <nd ref="305163446"/>
    <nd ref="305163447"/>
    <nd ref="305163448"/>
    <nd ref="305163449"/>
    <nd ref="305163450"/>
    <nd ref="305163451"/>
    <nd ref="305163452"/>
    <nd ref="305163453"/>
    <nd ref="305163454"/>
    <nd ref="305163455"/>
    <nd ref="305163456"/>
    <nd ref="305163457"/>
    <nd ref="305163458"/>
    <nd ref="305163459"/>
    <nd ref="305163460"/>
    <nd ref="305163461"/>
    <nd ref="305163462"/>
    <nd ref="305163463"/>
    <nd ref="305163464"/>
    <nd ref="305163465"/>
    <nd ref="305163466"/>
    <tag k="highway" v="tertiary"/>
    <tag k="name" v="Woodcrest Way"/>
  </way>
  <way id="27792579" version="5" timestamp="2010-02-15T06:04:09Z" uid="74617" user="JohnSmith" changeset="3880328">
    <nd ref="193697821"/>
    <nd ref="305164533"/>
    <nd ref="305164534"/>
    <nd ref="305164535"/>
    <nd ref="305164536"/>
    <tag k="highway" v="secondary"/>
    <tag k="oneway" v="yes"/>
  </way>
  <way id="27792587" version="5" timestamp="2008-10-23T16:24:02Z" uid="6975" user="ulfl" changeset="530870">
    <nd ref="305163617"/>
    <nd ref="305163619"/>
    <nd ref="305163620"/>
    <nd ref="305163621"/>
    <nd ref="305163622"/>
    <nd ref="305163624"/>
    <nd ref="305163625"/>
    <nd ref="305163626"/>
    <nd ref="305163628"/>
    <nd ref="305163629"/>
    <nd ref="305163630"/>
    <nd ref="305163631"/>
    <nd ref="305163617"/>
    <tag k="amenity" v="theatre"/>
    <tag k="building" v="yes"/>
    <tag k="name" v="Theater aan het Vrijthof"/>
  </way>
  <way id="27792587" version="6" timestamp="2009-11-16T19:34:20Z" uid="8009" user="Rubke" changeset="3135086"/>
  <way id="27792608" version="1" timestamp="2008-10-17T13:06:54Z" uid="43863" user="Rundling" changeset="390419">
    <nd ref="305163740"/>
    <nd ref="305163743"/>
    <tag k="access" v="private"/>
    <tag k="highway" v="service"/>
    <tag k="surface" v="paved"/>
  </way>
  <way id="27792615" version="4" timestamp="2010-02-15T06:04:06Z" uid="74617" user="JohnSmith" changeset="3880328">
    <nd ref="305162621"/>
    <nd ref="305163782"/>
    <nd ref="305163783"/>
    <nd ref="305163784"/>
    <nd ref="305162670"/>
    <tag k="highway" v="secondary"/>
    <tag k="oneway" v="yes"/>
  </way>
  <way id="27792622" version="4" timestamp="2010-02-15T06:04:09Z" uid="74617" user="JohnSmith" changeset="3880328">
    <nd ref="305164590"/>
    <nd ref="305163954"/>
    <nd ref="305163955"/>
    <nd ref="305162670"/>
    <nd ref="305163956"/>
    <nd ref="305163957"/>
    <nd ref="305163852"/>
    <nd ref="305163853"/>
    <nd ref="305163854"/>
    <nd ref="305164536"/>
    <nd ref="305164806"/>
    <nd ref="305164807"/>
    <nd ref="305164590"/>
    <tag k="highway" v="secondary"/>
    <tag k="junction" v="roundabout"/>
  </way>
  <way id="27792623" version="4" timestamp="2010-02-15T06:04:06Z" uid="74617" user="JohnSmith" changeset="3880328">
    <nd ref="305164590"/>
    <nd ref="305164589"/>
    <nd ref="305164588"/>
    <nd ref="305164587"/>
    <nd ref="305164586"/>
    <nd ref="305164585"/>
    <nd ref="305162621"/>
    <tag k="highway" v="secondary"/>
    <tag k="oneway" v="yes"/>
  </way>
  <way id="27792640" version="4" timestamp="2010-02-15T06:04:08Z" uid="74617" user="JohnSmith" changeset="3880328">
    <nd ref="305163938"/>
    <nd ref="305163939"/>
    <nd ref="305163940"/>
    <nd ref="305163941"/>
    <nd ref="305163942"/>
    <nd ref="305163943"/>
    <nd ref="305163944"/>
    <nd ref="305163945"/>
    <nd ref="305163946"/>
    <nd ref="305163947"/>
    <nd ref="305163852"/>
    <tag k="highway" v="tertiary"/>
    <tag k="name" v="Bridgewater Road"/>
    <tag k="oneway" v="yes"/>
  </way>
  <way id="27792654" version="6" timestamp="2010-02-15T06:04:07Z" uid="74617" user="JohnSmith" changeset="3880328">
    <nd ref="305164095"/>
    <nd ref="305164097"/>
    <nd ref="305164098"/>
    <nd ref="305164100"/>
    <nd ref="305164101"/>
    <nd ref="305164104"/>
    <nd ref="305165448"/>
    <nd ref="305165451"/>
    <tag k="highway" v="tertiary"/>
    <tag k="name" v="Springfield College Drive"/>
  </way>
  <way id="27792654" version="7" timestamp="2010-04-24T03:09:06Z" uid="4467" user="Rosscoe" changeset="4508888">
    <nd ref="305164095"/>
    <nd ref="305164097"/>
    <nd ref="305164098"/>
    <nd ref="305164100"/>
    <nd ref="305164101"/>
    <nd ref="305164104"/>
    <nd ref="305165448"/>
    <nd ref="704987635"/>
    <tag k="highway" v="tertiary"/>
    <tag k="name" v="Springfield College Drive"/>
  </way>
  <way id="27792657" version="1" timestamp="2008-10-17T13:09:39Z" uid="9581" user="Lobelt" changeset="391285">
    <nd ref="205090348"/>
    <nd ref="305163964"/>
    <nd ref="305163965"/>
    <nd ref="305163966"/>
    <tag k="highway" v="residential"/>
  </way>
  <way id="27792657" version="2" timestamp="2010-01-25T22:09:31Z" uid="224595" user="toboe" changeset="3715211">
    <nd ref="205090348"/>
    <nd ref="305163964"/>
    <nd ref="305163965"/>
    <nd ref="305163966"/>
    <tag k="highway" v="Stiede"/>
  </way>
  <way id="27792657" version="3" timestamp="2010-01-28T22:09:20Z" uid="149097" user="AlexanderF" changeset="3739551">
    <nd ref="205090348"/>
    <nd ref="305163964"/>
    <nd ref="305163965"/>
    <nd ref="305163966"/>
    <tag k="highway" v="residential"/>
    <tag k="name" v="Stiede"/>
  </way>
  <way id="27792657" version="4" timestamp="2010-08-14T17:24:54Z" uid="195713" user="_torsten_" changeset="5492684">
    <nd ref="205090348"/>
    <nd ref="860338339"/>
    <nd ref="305163964"/>
    <nd ref="305163965"/>
    <nd ref="305163966"/>
    <tag k="highway" v="residential"/>
    <tag k="name" v="Stiede"/>
  </way>
  <way id="27792657" version="5" timestamp="2011-05-03T22:09:36Z" uid="438703" user="kritter" changeset="8044397">
    <nd ref="205090348"/>
    <nd ref="860338339"/>
    <nd ref="305163964"/>
    <nd ref="1271555343"/>
    <nd ref="305163965"/>
    <nd ref="305163966"/>
    <tag k="highway" v="residential"/>
    <tag k="name" v="Stiede"/>
  </way>
  <way id="27792657" version="6" timestamp="2012-01-17T15:43:32Z" uid="195713" user="_torsten_" changeset="10418318"/>
  <way id="27792658" version="1" timestamp="2008-10-17T13:09:39Z" uid="9581" user="Lobelt" changeset="391285">
    <nd ref="305163965"/>
    <nd ref="305163967"/>
    <nd ref="305163968"/>
    <nd ref="305163969"/>
    <tag k="highway" v="residential"/>
  </way>
  <way id="27792658" version="2" timestamp="2010-02-03T20:38:48Z" uid="224595" user="toboe" changeset="3785926">
    <nd ref="305163965"/>
    <nd ref="305163967"/>
    <nd ref="305163968"/>
    <nd ref="305163969"/>
    <tag k="highway" v="Neumahlsweg"/>
  </way>
  <way id="27792658" version="3" timestamp="2010-02-03T20:40:32Z" uid="224595" user="toboe" changeset="3785926">
    <nd ref="305163965"/>
    <nd ref="305163967"/>
    <nd ref="305163968"/>
    <nd ref="305163969"/>
    <tag k="highway" v="residential"/>
  </way>
  <way id="27792658" version="4" timestamp="2010-02-10T09:49:55Z" uid="224595" user="toboe" changeset="3838786">
    <nd ref="305163965"/>
    <nd ref="305163967"/>
    <nd ref="305163968"/>
    <nd ref="305163969"/>
    <tag k="highway" v="Neumaswegl"/>
  </way>
  <way id="27792658" version="5" timestamp="2010-02-10T09:50:24Z" uid="224595" user="toboe" changeset="3838786">
    <nd ref="305163965"/>
    <nd ref="305163967"/>
    <nd ref="305163968"/>
    <nd ref="305163969"/>
    <tag k="highway" v="Neumalswegl"/>
  </way>
  <way id="27792658" version="6" timestamp="2010-02-13T12:06:43Z" uid="149097" user="AlexanderF" changeset="3864013">
    <nd ref="305163965"/>
    <nd ref="305163967"/>
    <nd ref="305163968"/>
    <nd ref="305163969"/>
    <tag k="highway" v="residential"/>
    <tag k="name" v="Neumalswegl"/>
  </way>
  <way id="27792658" version="7" timestamp="2011-04-22T22:36:14Z" uid="438703" user="kritter" changeset="7939366">
    <nd ref="305163965"/>
    <nd ref="305163967"/>
    <tag k="highway" v="residential"/>
    <tag k="name" v="Stiede"/>
  </way>
  <way id="27792658" version="8" timestamp="2012-01-17T15:43:32Z" uid="195713" user="_torsten_" changeset="10418318"/>
  <way id="27792659" version="1" timestamp="2008-10-17T13:09:39Z" uid="9581" user="Lobelt" changeset="391285">
    <nd ref="305163964"/>
    <nd ref="305163970"/>
    <nd ref="305163971"/>
    <nd ref="305163972"/>
    <nd ref="305163973"/>
    <nd ref="305163974"/>
    <nd ref="305163976"/>
    <nd ref="305163978"/>
    <nd ref="305163979"/>
    <nd ref="305163980"/>
    <nd ref="305163981"/>
    <tag k="highway" v="residential"/>
  </way>
  <way id="27792659" version="2" timestamp="2010-01-25T22:09:52Z" uid="224595" user="toboe" changeset="3715211">
    <nd ref="305163964"/>
    <nd ref="305163970"/>
    <nd ref="305163971"/>
    <nd ref="305163972"/>
    <nd ref="305163973"/>
    <nd ref="305163974"/>
    <nd ref="305163976"/>
    <nd ref="305163978"/>
    <nd ref="305163979"/>
    <nd ref="305163980"/>
    <nd ref="305163981"/>
    <tag k="highway" v="Lindental"/>
  </way>
  <way id="27792659" version="3" timestamp="2010-01-28T22:09:20Z" uid="149097" user="AlexanderF" changeset="3739551">
    <nd ref="305163964"/>
    <nd ref="305163970"/>
    <nd ref="305163971"/>
    <nd ref="305163972"/>
    <nd ref="305163973"/>
    <nd ref="305163974"/>
    <nd ref="305163976"/>
    <nd ref="305163978"/>
    <nd ref="305163979"/>
    <nd ref="305163980"/>
    <nd ref="305163981"/>
    <tag k="highway" v="residential"/>
    <tag k="name" v="Lindental"/>
  </way>
  <way id="27792659" version="4" timestamp="2012-01-17T15:43:33Z" uid="195713" user="_torsten_" changeset="10418318"/>
  <way id="27792681" version="1" timestamp="2008-10-17T13:10:10Z" uid="30632" user="antblant" changeset="392727">
    <nd ref="305164215"/>
    <nd ref="305164216"/>
    <tag k="highway" v="residential"/>
    <tag k="name" v="Zakręt"/>
    <tag k="surface" v="unpaved"/>
  </way>
  <way id="27792683" version="1" timestamp="2008-10-17T13:10:10Z" uid="30632" user="antblant" changeset="392727">
    <nd ref="305164217"/>
    <nd ref="305164218"/>
    <tag k="highway" v="residential"/>
    <tag k="name" v="Twarda"/>
  </way>
  <way id="27792683" version="2" timestamp="2008-12-26T16:26:08Z" uid="30632" user="antblant" changeset="612608">
    <nd ref="305164217"/>
    <nd ref="305164218"/>
    <tag k="created_by" v="Potlatch 0.10f"/>
    <tag k="highway" v="residential"/>
    <tag k="name" v="Twarda"/>
  </way>
  <way id="27792683" version="3" timestamp="2009-11-03T14:57:12Z" uid="36809" user="pfoten_weg_!_" changeset="3025069">
    <nd ref="305164217"/>
    <nd ref="305164218"/>
    <tag k="highway" v="residential"/>
    <tag k="name" v="Twarda"/>
  </way>
  <way id="27792684" version="1" timestamp="2008-10-17T13:10:11Z" uid="30632" user="antblant" changeset="392727">
    <nd ref="305164218"/>
    <nd ref="305164219"/>
    <nd ref="305164220"/>
    <tag k="highway" v="residential"/>
    <tag k="name" v="Berka Joselewicza"/>
  </way>
  <way id="27792684" version="2" timestamp="2008-12-26T15:52:57Z" uid="30632" user="antblant" changeset="612608">
    <nd ref="305164218"/>
    <nd ref="305164219"/>
    <nd ref="305164220"/>
    <tag k="created_by" v="Potlatch 0.10f"/>
    <tag k="highway" v="residential"/>
    <tag k="name" v="Berka Joselewicza"/>
  </way>
  <way id="27792684" version="3" timestamp="2008-12-26T15:54:31Z" uid="30632" user="antblant" changeset="612608">
    <nd ref="305164218"/>
    <nd ref="321785724"/>
    <nd ref="305164219"/>
    <nd ref="305164220"/>
    <tag k="created_by" v="Potlatch 0.10f"/>
    <tag k="highway" v="residential"/>
    <tag k="name" v="Berka Joselewicza"/>
  </way>
  <way id="27792684" version="4" timestamp="2008-12-26T15:54:39Z" uid="30632" user="antblant" changeset="612608">
    <nd ref="305164218"/>
    <nd ref="321785724"/>
    <nd ref="305164219"/>
    <nd ref="305164220"/>
    <tag k="created_by" v="Potlatch 0.10f"/>
    <tag k="highway" v="residential"/>
    <tag k="name" v="Berka Joselewicza"/>
  </way>
  <way id="27792684" version="5" timestamp="2008-12-26T15:54:42Z" uid="30632" user="antblant" changeset="612608">
    <nd ref="305164218"/>
    <nd ref="321785724"/>
    <tag k="created_by" v="Potlatch 0.10f"/>
    <tag k="highway" v="residential"/>
    <tag k="name" v="Berka Joselewicza"/>
  </way>
  <way id="27792684" version="6" timestamp="2008-12-26T15:54:47Z" uid="30632" user="antblant" changeset="612608">
    <nd ref="305164218"/>
    <nd ref="321785724"/>
    <tag k="created_by" v="Potlatch 0.10f"/>
    <tag k="highway" v="residential"/>
    <tag k="name" v="Twarda"/>
  </way>
  <way id="27792684" version="7" timestamp="2009-11-03T14:57:59Z" uid="36809" user="pfoten_weg_!_" changeset="3025069">
    <nd ref="305164218"/>
    <nd ref="321785724"/>
    <tag k="highway" v="residential"/>
    <tag k="name" v="Twarda"/>
  </way>
  <way id="27792685" version="1" timestamp="2008-10-17T13:10:11Z" uid="9581" user="Lobelt" changeset="391285">
    <nd ref="305163978"/>
    <nd ref="305163982"/>
    <nd ref="305163984"/>
    <nd ref="305163985"/>
    <nd ref="305163986"/>
    <tag k="highway" v="residential"/>
  </way>
  <way id="27792685" version="2" timestamp="2012-01-17T15:43:33Z" uid="195713" user="_torsten_" changeset="10418318"/>
  <way id="27792686" version="1" timestamp="2008-10-17T13:10:11Z" uid="30632" user="antblant" changeset="392727">
    <nd ref="305164228"/>
    <nd ref="305164235"/>
    <nd ref="305164232"/>
    <nd ref="305164231"/>
    <nd ref="305164230"/>
    <nd ref="305164229"/>
    <tag k="highway" v="residential"/>
    <tag k="name" v="Ruda"/>
    <tag k="surface" v="cobblestone"/>
  </way>
  <way id="27792686" version="2" timestamp="2008-12-26T15:47:53Z" uid="30632" user="antblant" changeset="612608">
    <nd ref="305164228"/>
    <nd ref="305164235"/>
    <nd ref="305164232"/>
    <nd ref="321784237"/>
    <nd ref="305164231"/>
    <nd ref="305164230"/>
    <nd ref="305164229"/>
    <tag k="created_by" v="Potlatch 0.10f"/>
    <tag k="highway" v="residential"/>
    <tag k="name" v="Ruda"/>
    <tag k="surface" v="cobblestone"/>
  </way>
  <way id="27792686" version="3" timestamp="2009-11-03T14:57:12Z" uid="36809" user="pfoten_weg_!_" changeset="3025069">
    <nd ref="305164228"/>
    <nd ref="305164235"/>
    <nd ref="305164232"/>
    <nd ref="321784237"/>
    <nd ref="305164231"/>
    <nd ref="305164230"/>
    <nd ref="305164229"/>
    <tag k="highway" v="residential"/>
    <tag k="name" v="Ruda"/>
    <tag k="surface" v="cobblestone"/>
  </way>
  <way id="27792687" version="1" timestamp="2008-10-17T13:10:11Z" uid="9581" user="Lobelt" changeset="391285">
    <nd ref="305163982"/>
    <nd ref="305163987"/>
    <nd ref="305163988"/>
    <nd ref="305163985"/>
    <nd ref="305163990"/>
    <nd ref="305163991"/>
    <nd ref="305163992"/>
    <nd ref="305163993"/>
    <nd ref="305163990"/>
    <tag k="highway" v="residential"/>
  </way>
  <way id="27792687" version="2" timestamp="2012-01-17T15:43:33Z" uid="195713" user="_torsten_" changeset="10418318"/>
  <way id="27792688" version="1" timestamp="2008-10-17T13:10:11Z" uid="30632" user="antblant" changeset="392727">
    <nd ref="305164233"/>
    <nd ref="305164234"/>
    <nd ref="305164235"/>
    <nd ref="305164236"/>
    <tag k="highway" v="residential"/>
    <tag k="name" v="Różnowska"/>
  </way>
  <way id="27792689" version="1" timestamp="2008-10-17T13:10:12Z" uid="30632" user="antblant" changeset="392727">
    <nd ref="305164236"/>
    <nd ref="305164237"/>
    <nd ref="305164238"/>
    <tag k="highway" v="residential"/>
    <tag k="name" v="Chełmińska"/>
  </way>
  <way id="27792689" version="2" timestamp="2008-12-26T17:06:17Z" uid="30632" user="antblant" changeset="612608">
    <nd ref="305164236"/>
    <nd ref="305164238"/>
    <tag k="created_by" v="Potlatch 0.10f"/>
    <tag k="highway" v="residential"/>
    <tag k="name" v="Chełmińska"/>
  </way>
  <way id="27792689" version="3" timestamp="2008-12-26T17:06:23Z" uid="30632" user="antblant" changeset="612608"/>
  <way id="27792690" version="1" timestamp="2008-10-17T13:10:12Z" uid="30632" user="antblant" changeset="392727">
    <nd ref="305164238"/>
    <nd ref="305164239"/>
    <nd ref="305164240"/>
    <nd ref="305164242"/>
    <tag k="highway" v="residential"/>
    <tag k="name" v="Elektoralna"/>
  </way>
  <way id="27792690" version="2" timestamp="2008-12-26T17:06:33Z" uid="30632" user="antblant" changeset="612608">
    <nd ref="305164238"/>
    <nd ref="305164239"/>
    <nd ref="305164240"/>
    <nd ref="305164242"/>
    <tag k="created_by" v="Potlatch 0.10f"/>
    <tag k="highway" v="residential"/>
    <tag k="name" v="Elektoralna"/>
  </way>
  <way id="27792690" version="3" timestamp="2009-11-03T14:56:40Z" uid="36809" user="pfoten_weg_!_" changeset="3025069">
    <nd ref="305164238"/>
    <nd ref="305164239"/>
    <nd ref="305164240"/>
    <nd ref="305164242"/>
    <tag k="highway" v="residential"/>
    <tag k="name" v="Elektoralna"/>
  </way>
  <way id="27792690" version="4" timestamp="2010-06-09T16:57:26Z" uid="20587" user="balrog-kun" changeset="4946773">
    <nd ref="305164238"/>
    <nd ref="768024007"/>
    <nd ref="305164239"/>
    <nd ref="305164240"/>
    <nd ref="305164242"/>
    <tag k="highway" v="residential"/>
    <tag k="name" v="Elektoralna"/>
  </way>
  <way id="27792691" version="1" timestamp="2008-10-17T13:10:12Z" uid="30632" user="antblant" changeset="392727">
    <nd ref="305164242"/>
    <nd ref="305164243"/>
    <tag k="highway" v="residential"/>
    <tag k="name" v="Przewiewna"/>
  </way>
  <way id="27792692" version="1" timestamp="2008-10-17T13:10:12Z" uid="30632" user="antblant" changeset="392727">
    <nd ref="305164243"/>
    <nd ref="305164244"/>
    <nd ref="305164245"/>
    <nd ref="305164246"/>
    <nd ref="305164247"/>
    <nd ref="305164229"/>
    <tag k="highway" v="residential"/>
    <tag k="name" v="Mariana Falskiego"/>
  </way>
  <way id="27792692" version="2" timestamp="2008-12-22T17:24:54Z" uid="30632" user="antblant" changeset="552082">
    <nd ref="305164243"/>
    <nd ref="305164244"/>
    <nd ref="305164245"/>
    <nd ref="305164246"/>
    <nd ref="305164247"/>
    <tag k="highway" v="residential"/>
    <tag k="name" v="Mariana Falskiego"/>
  </way>
  <way id="27792692" version="3" timestamp="2008-12-26T16:39:04Z" uid="30632" user="antblant" changeset="612608">
    <nd ref="321793604"/>
    <nd ref="321794094"/>
    <nd ref="321794612"/>
    <nd ref="305164243"/>
    <nd ref="305164244"/>
    <nd ref="305164245"/>
    <nd ref="305164246"/>
    <nd ref="305164247"/>
    <tag k="created_by" v="Potlatch 0.10f"/>
    <tag k="highway" v="residential"/>
    <tag k="name" v="Mariana Falskiego"/>
  </way>
  <way id="27792692" version="4" timestamp="2009-11-03T14:56:43Z" uid="36809" user="pfoten_weg_!_" changeset="3025069">
    <nd ref="321793604"/>
    <nd ref="321794094"/>
    <nd ref="321794612"/>
    <nd ref="305164243"/>
    <nd ref="305164244"/>
    <nd ref="305164245"/>
    <nd ref="305164246"/>
    <nd ref="305164247"/>
    <tag k="highway" v="residential"/>
    <tag k="name" v="Mariana Falskiego"/>
  </way>
  <way id="27792693" version="1" timestamp="2008-10-17T13:10:13Z" uid="30632" user="antblant" changeset="392727">
    <nd ref="286056035"/>
    <nd ref="286056697"/>
    <nd ref="286056124"/>
    <nd ref="286056125"/>
    <nd ref="286056126"/>
    <nd ref="286056127"/>
    <nd ref="286056128"/>
    <nd ref="286056206"/>
    <nd ref="286056207"/>
    <nd ref="286056698"/>
    <nd ref="286056210"/>
    <nd ref="286056701"/>
    <nd ref="286056212"/>
    <nd ref="286056134"/>
    <tag k="created_by" v="Potlatch 0.10b"/>
    <tag k="highway" v="service"/>
  </way>
  <way id="27792693" version="2" timestamp="2008-12-26T16:03:51Z" uid="30632" user="antblant" changeset="612608">
    <nd ref="286056035"/>
    <nd ref="321786958"/>
    <nd ref="286056697"/>
    <nd ref="286056124"/>
    <nd ref="286056125"/>
    <nd ref="286056126"/>
    <nd ref="286056127"/>
    <nd ref="286056128"/>
    <nd ref="286056206"/>
    <nd ref="286056207"/>
    <nd ref="286056698"/>
    <nd ref="286056210"/>
    <nd ref="286056701"/>
    <nd ref="286056212"/>
    <nd ref="286056134"/>
    <tag k="created_by" v="Potlatch 0.10f"/>
    <tag k="highway" v="service"/>
  </way>
  <way id="27792693" version="3" timestamp="2008-12-26T16:11:02Z" uid="30632" user="antblant" changeset="612608">
    <nd ref="286056035"/>
    <nd ref="321786958"/>
    <nd ref="286056697"/>
    <tag k="created_by" v="Potlatch 0.10f"/>
    <tag k="highway" v="service"/>
  </way>
  <way id="27792693" version="4" timestamp="2008-12-26T16:11:21Z" uid="30632" user="antblant" changeset="612608">
    <nd ref="286056035"/>
    <nd ref="321786958"/>
    <nd ref="286056697"/>
    <tag k="created_by" v="Potlatch 0.10f"/>
    <tag k="highway" v="service"/>
    <tag k="name" v="Floriana Szarego"/>
  </way>
  <way id="27792693" version="5" timestamp="2009-11-03T14:57:28Z" uid="36809" user="pfoten_weg_!_" changeset="3025069">
    <nd ref="286056035"/>
    <nd ref="321786958"/>
    <nd ref="286056697"/>
    <tag k="highway" v="service"/>
    <tag k="name" v="Floriana Szarego"/>
  </way>
  <way id="27792694" version="1" timestamp="2008-10-17T13:10:13Z" uid="30632" user="antblant" changeset="392727">
    <nd ref="305164249"/>
    <nd ref="305164251"/>
    <nd ref="305164252"/>
    <nd ref="305164253"/>
    <nd ref="305164254"/>
    <nd ref="305164251"/>
    <tag k="highway" v="living_street"/>
  </way>
  <way id="27792695" version="1" timestamp="2008-10-17T13:10:13Z" uid="30632" user="antblant" changeset="392727">
    <nd ref="305164255"/>
    <nd ref="305164256"/>
    <nd ref="305164257"/>
    <nd ref="305164258"/>
    <nd ref="305164255"/>
    <tag k="amenity" v="parking"/>
  </way>
  <way id="27792696" version="1" timestamp="2008-10-17T13:10:14Z" uid="30632" user="antblant" changeset="392727">
    <nd ref="305164263"/>
    <nd ref="305164267"/>
    <nd ref="305164268"/>
    <nd ref="305164270"/>
    <nd ref="305164271"/>
    <nd ref="305164272"/>
    <nd ref="305164284"/>
    <nd ref="305164276"/>
    <nd ref="305164273"/>
    <tag k="highway" v="living_street"/>
    <tag k="oneway" v="yes"/>
  </way>
  <way id="27792697" version="1" timestamp="2008-10-17T13:10:14Z" uid="30632" user="antblant" changeset="392727">
    <nd ref="305164273"/>
    <nd ref="305164329"/>
    <tag k="highway" v="living_street"/>
  </way>
  <way id="27792698" version="1" timestamp="2008-10-17T13:10:14Z" uid="30632" user="antblant" changeset="392727">
    <nd ref="305164263"/>
    <nd ref="305164279"/>
    <nd ref="305164278"/>
    <nd ref="305164277"/>
    <nd ref="305164276"/>
    <tag k="highway" v="service"/>
    <tag k="oneway" v="yes"/>
  </way>
  <way id="27792699" version="1" timestamp="2008-10-17T13:10:14Z" uid="30632" user="antblant" changeset="392727">
    <nd ref="305164280"/>
    <nd ref="305164281"/>
    <nd ref="305164283"/>
    <nd ref="305164284"/>
    <nd ref="305164285"/>
    <nd ref="305164280"/>
    <tag k="amenity" v="parking"/>
  </way>
  <way id="27792700" version="1" timestamp="2008-10-17T13:10:15Z" uid="30632" user="antblant" changeset="392727">
    <nd ref="305164248"/>
    <nd ref="305164249"/>
    <nd ref="286056035"/>
    <tag k="created_by" v="Potlatch 0.10b"/>
    <tag k="highway" v="residential"/>
    <tag k="name" v="Floriana Szarego"/>
    <tag k="surface" v="paving_stones"/>
  </way>
  <way id="27792700" version="2" timestamp="2009-03-26T14:31:56Z" uid="30632" user="antblant" changeset="860343">
    <nd ref="298910425"/>
    <nd ref="305164248"/>
    <nd ref="305164249"/>
    <nd ref="286056035"/>
    <tag k="created_by" v="Potlatch 0.10b"/>
    <tag k="highway" v="residential"/>
    <tag k="name" v="Floriana Szarego"/>
    <tag k="surface" v="paving_stones"/>
  </way>
  <way id="27792700" version="3" timestamp="2009-11-03T14:57:11Z" uid="36809" user="pfoten_weg_!_" changeset="3025069">
    <nd ref="298910425"/>
    <nd ref="305164248"/>
    <nd ref="305164249"/>
    <nd ref="286056035"/>
    <tag k="highway" v="residential"/>
    <tag k="name" v="Floriana Szarego"/>
    <tag k="surface" v="paving_stones"/>
  </way>
  <way id="27792700" version="4" timestamp="2010-06-09T16:57:19Z" uid="20587" user="balrog-kun" changeset="4946773">
    <nd ref="298910425"/>
    <nd ref="768012343"/>
    <nd ref="305164248"/>
    <nd ref="305164249"/>
    <nd ref="286056035"/>
    <tag k="highway" v="residential"/>
    <tag k="name" v="Floriana Szarego"/>
    <tag k="surface" v="paving_stones"/>
  </way>
  <way id="27792701" version="1" timestamp="2008-10-17T13:10:15Z" uid="30632" user="antblant" changeset="392727">
    <nd ref="305164286"/>
    <nd ref="305164288"/>
    <nd ref="305164289"/>
    <tag k="highway" v="service"/>
  </way>
  <way id="27792702" version="1" timestamp="2008-10-17T13:10:15Z" uid="30632" user="antblant" changeset="392727">
    <nd ref="305164288"/>
    <nd ref="305164291"/>
    <nd ref="305164292"/>
    <nd ref="305164293"/>
    <tag k="highway" v="service"/>
  </way>
  <way id="27792703" version="1" timestamp="2008-10-17T13:10:15Z" uid="30632" user="antblant" changeset="392727">
    <nd ref="305164293"/>
    <nd ref="305164294"/>
    <nd ref="305164295"/>
    <nd ref="305164298"/>
    <nd ref="305164302"/>
    <nd ref="305164306"/>
    <nd ref="305164310"/>
    <nd ref="305164313"/>
    <nd ref="305164293"/>
    <tag k="highway" v="service"/>
    <tag k="oneway" v="yes"/>
  </way>
  <way id="27792704" version="1" timestamp="2008-10-17T13:10:16Z" uid="30632" user="antblant" changeset="392727">
    <nd ref="305164321"/>
    <nd ref="305164260"/>
    <nd ref="305164259"/>
    <nd ref="305164286"/>
    <nd ref="305164316"/>
    <nd ref="305164248"/>
    <tag k="created_by" v="Potlatch 0.10b"/>
    <tag k="highway" v="residential"/>
  </way>
  <way id="27792704" version="2" timestamp="2009-11-03T14:57:19Z" uid="36809" user="pfoten_weg_!_" changeset="3025069">
    <nd ref="305164321"/>
    <nd ref="305164260"/>
    <nd ref="305164259"/>
    <nd ref="305164286"/>
    <nd ref="305164316"/>
    <nd ref="305164248"/>
    <tag k="highway" v="residential"/>
  </way>
  <way id="27792705" version="1" timestamp="2008-10-17T13:10:16Z" uid="30632" user="antblant" changeset="392727">
    <nd ref="305164273"/>
    <nd ref="305164285"/>
    <nd ref="305164262"/>
    <tag k="highway" v="living_street"/>
  </way>
  <way id="27792706" version="1" timestamp="2008-10-17T13:10:16Z" uid="30632" user="antblant" changeset="392727">
    <nd ref="305164329"/>
    <nd ref="305164274"/>
    <tag k="highway" v="residential"/>
  </way>
  <way id="27792708" version="1" timestamp="2008-10-17T13:10:16Z" uid="30632" user="antblant" changeset="392727">
    <nd ref="305164419"/>
    <nd ref="305164416"/>
    <tag k="bridge" v="yes"/>
    <tag k="highway" v="footway"/>
    <tag k="layer" v="1"/>
  </way>
  <way id="27792708" version="2" timestamp="2009-10-19T19:06:38Z" uid="30632" user="antblant" changeset="2897408">
    <nd ref="320935645"/>
    <nd ref="305164419"/>
    <tag k="highway" v="path"/>
  </way>
  <way id="27792709" version="1" timestamp="2008-10-17T13:10:17Z" uid="30632" user="antblant" changeset="392727">
    <nd ref="305164339"/>
    <nd ref="305164341"/>
    <tag k="highway" v="residential"/>
    <tag k="name" v="Gipsowa"/>
    <tag k="surface" v="unpaved"/>
  </way>
  <way id="27792711" version="1" timestamp="2008-10-17T13:10:17Z" uid="30632" user="antblant" changeset="392727">
    <nd ref="305164336"/>
    <nd ref="305164344"/>
    <nd ref="305164347"/>
    <nd ref="305164351"/>
    <nd ref="305164353"/>
    <tag k="highway" v="service"/>
  </way>
  <way id="27792712" version="1" timestamp="2008-10-17T13:10:17Z" uid="30632" user="antblant" changeset="392727">
    <nd ref="305164361"/>
    <nd ref="305164356"/>
    <nd ref="305164359"/>
    <nd ref="305164364"/>
    <nd ref="305164369"/>
    <nd ref="305164375"/>
    <nd ref="305164379"/>
    <nd ref="305164385"/>
    <nd ref="305164390"/>
    <nd ref="305164396"/>
    <nd ref="305164401"/>
    <nd ref="305164403"/>
    <nd ref="305164406"/>
    <nd ref="305164409"/>
    <nd ref="305164411"/>
    <nd ref="305164413"/>
    <nd ref="305164477"/>
    <nd ref="305164361"/>
    <tag k="landuse" v="military"/>
  </way>
  <way id="27792712" version="2" timestamp="2008-10-17T14:35:45Z" uid="30632" user="antblant" changeset="392727">
    <nd ref="305164361"/>
    <nd ref="305164356"/>
    <nd ref="305164359"/>
    <nd ref="305164364"/>
    <nd ref="305164369"/>
    <nd ref="305164375"/>
    <nd ref="305164379"/>
    <nd ref="305164385"/>
    <nd ref="305164390"/>
    <nd ref="305164396"/>
    <nd ref="305164401"/>
    <nd ref="305164403"/>
    <nd ref="305164406"/>
    <nd ref="305164409"/>
    <nd ref="305164411"/>
    <nd ref="305164413"/>
    <nd ref="305164477"/>
    <nd ref="305164361"/>
    <tag k="created_by" v="Potlatch 0.10e"/>
    <tag k="landuse" v="military"/>
  </way>
  <way id="27792712" version="3" timestamp="2008-10-17T14:36:05Z" uid="30632" user="antblant" changeset="392727">
    <nd ref="305164361"/>
    <nd ref="305164356"/>
    <nd ref="305164359"/>
    <nd ref="305164364"/>
    <nd ref="305164369"/>
    <nd ref="305164375"/>
    <nd ref="305164379"/>
    <nd ref="305164385"/>
    <nd ref="305164390"/>
    <nd ref="305164396"/>
    <nd ref="305164401"/>
    <nd ref="305164409"/>
    <nd ref="305164411"/>
    <nd ref="305164413"/>
    <nd ref="305164477"/>
    <nd ref="305164361"/>
    <tag k="created_by" v="Potlatch 0.10e"/>
    <tag k="landuse" v="military"/>
  </way>
  <way id="27792712" version="4" timestamp="2008-10-17T14:36:19Z" uid="30632" user="antblant" changeset="392727">
    <nd ref="305164361"/>
    <nd ref="305164356"/>
    <nd ref="305164359"/>
    <nd ref="305164364"/>
    <nd ref="305182044"/>
    <nd ref="305182045"/>
    <nd ref="305164369"/>
    <nd ref="305164375"/>
    <nd ref="305164379"/>
    <nd ref="305164385"/>
    <nd ref="305164390"/>
    <nd ref="305164396"/>
    <nd ref="305164401"/>
    <nd ref="305164409"/>
    <nd ref="305164411"/>
    <nd ref="305164413"/>
    <nd ref="305164477"/>
    <nd ref="305164361"/>
    <tag k="created_by" v="Potlatch 0.10e"/>
    <tag k="landuse" v="military"/>
  </way>
  <way id="27792712" version="5" timestamp="2008-12-22T17:24:52Z" uid="30632" user="antblant" changeset="552082">
    <nd ref="305164361"/>
    <nd ref="305164356"/>
    <nd ref="305164359"/>
    <nd ref="305164364"/>
    <nd ref="305182044"/>
    <nd ref="305182045"/>
    <nd ref="305164369"/>
    <nd ref="305164375"/>
    <nd ref="305164379"/>
    <nd ref="305164385"/>
    <nd ref="305164390"/>
    <nd ref="305164396"/>
    <nd ref="320935656"/>
    <nd ref="305164401"/>
    <nd ref="305164409"/>
    <nd ref="305164411"/>
    <nd ref="305164413"/>
    <nd ref="305164477"/>
    <nd ref="305164361"/>
    <tag k="created_by" v="Potlatch 0.10e"/>
    <tag k="landuse" v="military"/>
  </way>
  <way id="27792712" version="6" timestamp="2009-03-26T14:31:59Z" uid="30632" user="antblant" changeset="860343">
    <nd ref="305164361"/>
    <nd ref="305164356"/>
    <nd ref="305164359"/>
    <nd ref="305164364"/>
    <nd ref="305182044"/>
    <nd ref="305182045"/>
    <nd ref="305164369"/>
    <nd ref="365931140"/>
    <nd ref="305164375"/>
    <nd ref="365931141"/>
    <nd ref="305164379"/>
    <nd ref="305164385"/>
    <nd ref="305164390"/>
    <nd ref="305164396"/>
    <nd ref="365931147"/>
    <nd ref="320935656"/>
    <nd ref="305164401"/>
    <nd ref="305164409"/>
    <nd ref="305164411"/>
    <nd ref="365931148"/>
    <nd ref="305164413"/>
    <nd ref="305164477"/>
    <nd ref="305164361"/>
    <tag k="created_by" v="Potlatch 0.10e"/>
    <tag k="landuse" v="military"/>
  </way>
  <way id="27792712" version="7" timestamp="2009-06-24T18:40:37Z" uid="30632" user="antblant" changeset="1615808">
    <nd ref="305164361"/>
    <nd ref="305164356"/>
    <nd ref="305164359"/>
    <nd ref="305164364"/>
    <nd ref="305182044"/>
    <nd ref="305182045"/>
    <nd ref="305164369"/>
    <nd ref="365931140"/>
    <nd ref="305164375"/>
    <nd ref="365931141"/>
    <nd ref="305164379"/>
    <nd ref="305164385"/>
    <nd ref="305164390"/>
    <nd ref="305164396"/>
    <nd ref="365931147"/>
    <nd ref="320935656"/>
    <nd ref="305164401"/>
    <nd ref="305164409"/>
    <nd ref="305164411"/>
    <nd ref="305164413"/>
    <nd ref="305164477"/>
    <nd ref="305164361"/>
    <tag k="created_by" v="Potlatch 0.10e"/>
    <tag k="landuse" v="military"/>
  </way>
  <way id="27792712" version="8" timestamp="2009-10-18T21:39:01Z" uid="30632" user="antblant" changeset="2888526">
    <nd ref="305164361"/>
    <nd ref="305164356"/>
    <nd ref="305164359"/>
    <nd ref="305164364"/>
    <nd ref="305182044"/>
    <nd ref="305182045"/>
    <nd ref="305164369"/>
    <nd ref="365931140"/>
    <nd ref="305164375"/>
    <nd ref="365931141"/>
    <nd ref="305164379"/>
    <nd ref="305164385"/>
    <nd ref="305164390"/>
    <nd ref="305164396"/>
    <nd ref="365931147"/>
    <nd ref="320935656"/>
    <nd ref="305164401"/>
    <nd ref="305164409"/>
    <nd ref="305164411"/>
    <nd ref="534940727"/>
    <nd ref="305164413"/>
    <nd ref="305164477"/>
    <nd ref="305164361"/>
    <tag k="landuse" v="military"/>
  </way>
  <way id="27792712" version="9" timestamp="2009-10-23T21:59:17Z" uid="30632" user="antblant" changeset="2933687">
    <nd ref="305164361"/>
    <nd ref="305164356"/>
    <nd ref="539196118"/>
    <nd ref="305164364"/>
    <nd ref="305182044"/>
    <nd ref="305182045"/>
    <nd ref="539196119"/>
    <nd ref="539196120"/>
    <nd ref="305164369"/>
    <nd ref="539196121"/>
    <nd ref="365931140"/>
    <nd ref="305164375"/>
    <nd ref="365931141"/>
    <nd ref="305164379"/>
    <nd ref="305164385"/>
    <nd ref="305164390"/>
    <nd ref="305164396"/>
    <nd ref="365931147"/>
    <nd ref="320935656"/>
    <nd ref="305164401"/>
    <nd ref="305164409"/>
    <nd ref="305164411"/>
    <nd ref="534940727"/>
    <nd ref="305164413"/>
    <nd ref="305164477"/>
    <nd ref="305164361"/>
    <tag k="landuse" v="military"/>
  </way>
  <way id="27792714" version="1" timestamp="2008-10-17T13:10:17Z" uid="30632" user="antblant" changeset="392727">
    <nd ref="305164416"/>
    <nd ref="305164331"/>
    <tag k="highway" v="steps"/>
  </way>
  <way id="27792715" version="1" timestamp="2008-10-17T13:10:18Z" uid="30632" user="antblant" changeset="392727">
    <nd ref="305164331"/>
    <nd ref="305164341"/>
    <nd ref="305164336"/>
    <tag k="highway" v="residential"/>
    <tag k="name" v="Mariana Walczaka"/>
    <tag k="surface" v="cobblestone"/>
  </way>
  <way id="27792716" version="1" timestamp="2008-10-17T13:10:18Z" uid="30632" user="antblant" changeset="392727">
    <nd ref="305164421"/>
    <nd ref="305164422"/>
    <nd ref="305164424"/>
    <nd ref="305164425"/>
    <nd ref="305164426"/>
    <nd ref="305164427"/>
    <nd ref="305164428"/>
    <nd ref="305164429"/>
    <nd ref="305164430"/>
    <nd ref="305164431"/>
    <nd ref="305164432"/>
    <nd ref="305164433"/>
    <nd ref="305164434"/>
    <nd ref="305164435"/>
    <nd ref="305164436"/>
    <nd ref="305164439"/>
    <nd ref="305164440"/>
    <nd ref="305164441"/>
    <nd ref="305164442"/>
    <tag k="highway" v="service"/>
    <tag k="name" v="Szklana"/>
  </way>
  <way id="27792716" version="2" timestamp="2008-12-19T13:45:22Z" uid="30632" user="antblant" changeset="473358">
    <nd ref="305164421"/>
    <nd ref="305164422"/>
    <nd ref="305164424"/>
    <nd ref="305164425"/>
    <nd ref="305164426"/>
    <nd ref="305164427"/>
    <nd ref="305164428"/>
    <nd ref="305164429"/>
    <nd ref="305164430"/>
    <nd ref="305164431"/>
    <nd ref="305164432"/>
    <nd ref="305164433"/>
    <nd ref="305164434"/>
    <nd ref="305164435"/>
    <nd ref="305164436"/>
    <nd ref="305164439"/>
    <nd ref="305164440"/>
    <nd ref="305164441"/>
    <nd ref="305164442"/>
    <tag k="created_by" v="Potlatch 0.10f"/>
    <tag k="highway" v="service"/>
    <tag k="name" v="Szklana"/>
  </way>
  <way id="27792716" version="3" timestamp="2008-12-26T16:07:48Z" uid="30632" user="antblant" changeset="612608">
    <nd ref="305164421"/>
    <nd ref="305164422"/>
    <nd ref="305164424"/>
    <nd ref="305164425"/>
    <nd ref="305164426"/>
    <nd ref="305164427"/>
    <nd ref="321787520"/>
    <nd ref="305164428"/>
    <nd ref="305164429"/>
    <nd ref="305164430"/>
    <nd ref="305164431"/>
    <nd ref="305164432"/>
    <nd ref="305164433"/>
    <nd ref="305164434"/>
    <nd ref="305164435"/>
    <nd ref="305164436"/>
    <nd ref="305164439"/>
    <nd ref="305164440"/>
    <nd ref="305164441"/>
    <nd ref="305164442"/>
    <tag k="created_by" v="Potlatch 0.10f"/>
    <tag k="highway" v="service"/>
    <tag k="name" v="Szklana"/>
  </way>
  <way id="27792716" version="4" timestamp="2008-12-26T16:08:49Z" uid="30632" user="antblant" changeset="612608">
    <nd ref="305164421"/>
    <nd ref="305164422"/>
    <nd ref="305164424"/>
    <nd ref="321787917"/>
    <nd ref="305164425"/>
    <nd ref="305164426"/>
    <nd ref="305164427"/>
    <nd ref="321787520"/>
    <nd ref="305164428"/>
    <nd ref="305164429"/>
    <nd ref="305164430"/>
    <nd ref="305164431"/>
    <nd ref="305164432"/>
    <nd ref="305164433"/>
    <nd ref="305164434"/>
    <nd ref="305164435"/>
    <nd ref="305164436"/>
    <nd ref="305164439"/>
    <nd ref="305164440"/>
    <nd ref="305164441"/>
    <nd ref="305164442"/>
    <tag k="created_by" v="Potlatch 0.10f"/>
    <tag k="highway" v="service"/>
    <tag k="name" v="Szklana"/>
  </way>
  <way id="27792716" version="5" timestamp="2009-11-03T14:52:30Z" uid="36809" user="pfoten_weg_!_" changeset="3025069">
    <nd ref="305164421"/>
    <nd ref="305164422"/>
    <nd ref="305164424"/>
    <nd ref="321787917"/>
    <nd ref="305164425"/>
    <nd ref="305164426"/>
    <nd ref="305164427"/>
    <nd ref="321787520"/>
    <nd ref="305164428"/>
    <nd ref="305164429"/>
    <nd ref="305164430"/>
    <nd ref="305164431"/>
    <nd ref="305164432"/>
    <nd ref="305164433"/>
    <nd ref="305164434"/>
    <nd ref="305164435"/>
    <nd ref="305164436"/>
    <nd ref="305164439"/>
    <nd ref="305164440"/>
    <nd ref="305164441"/>
    <nd ref="305164442"/>
    <tag k="highway" v="service"/>
    <tag k="name" v="Szklana"/>
  </way>
  <way id="27792718" version="1" timestamp="2008-10-17T13:10:19Z" uid="30632" user="antblant" changeset="392727">
    <nd ref="305164446"/>
    <nd ref="305164445"/>
    <nd ref="305164443"/>
    <nd ref="305164444"/>
    <tag k="power" v="line"/>
  </way>
  <way id="27792718" version="2" timestamp="2008-12-26T17:48:03Z" uid="30632" user="antblant" changeset="612608">
    <nd ref="305164446"/>
    <nd ref="305164445"/>
    <nd ref="305164443"/>
    <nd ref="305164444"/>
    <nd ref="321806628"/>
    <tag k="power" v="line"/>
  </way>
  <way id="27792719" version="1" timestamp="2008-10-17T13:10:19Z" uid="30632" user="antblant" changeset="392727">
    <nd ref="305164451"/>
    <nd ref="305164449"/>
    <nd ref="305164448"/>
    <nd ref="305164427"/>
    <nd ref="305164447"/>
    <nd ref="305164452"/>
    <nd ref="305164453"/>
    <nd ref="305164454"/>
    <nd ref="305164455"/>
    <nd ref="305164456"/>
    <nd ref="305164457"/>
    <nd ref="305164458"/>
    <nd ref="305164459"/>
    <nd ref="305164460"/>
    <tag k="railway" v="rail"/>
  </way>
  <way id="27792719" version="2" timestamp="2008-12-26T15:57:29Z" uid="30632" user="antblant" changeset="612608">
    <nd ref="305164451"/>
    <nd ref="305164449"/>
    <nd ref="305164448"/>
    <nd ref="305164427"/>
    <nd ref="305164447"/>
    <nd ref="305164452"/>
    <nd ref="321786176"/>
    <nd ref="305164453"/>
    <nd ref="305164454"/>
    <nd ref="305164455"/>
    <nd ref="305164456"/>
    <nd ref="305164457"/>
    <nd ref="305164458"/>
    <nd ref="305164459"/>
    <nd ref="305164460"/>
    <tag k="created_by" v="Potlatch 0.10f"/>
    <tag k="railway" v="rail"/>
  </way>
  <way id="27792719" version="3" timestamp="2008-12-26T15:57:34Z" uid="30632" user="antblant" changeset="612608">
    <nd ref="305164451"/>
    <nd ref="305164449"/>
    <nd ref="305164448"/>
    <nd ref="305164427"/>
    <nd ref="305164447"/>
    <nd ref="305164452"/>
    <nd ref="321786176"/>
    <nd ref="305164453"/>
    <nd ref="305164454"/>
    <nd ref="305164455"/>
    <nd ref="305164456"/>
    <nd ref="305164457"/>
    <nd ref="305164458"/>
    <nd ref="305164459"/>
    <nd ref="305164460"/>
    <tag k="created_by" v="Potlatch 0.10f"/>
    <tag k="railway" v="rail"/>
  </way>
  <way id="27792719" version="4" timestamp="2008-12-26T16:06:27Z" uid="30632" user="antblant" changeset="612608">
    <nd ref="305164451"/>
    <nd ref="305164449"/>
    <nd ref="305164448"/>
    <nd ref="305164427"/>
    <nd ref="305164447"/>
    <nd ref="305164452"/>
    <nd ref="321787241"/>
    <nd ref="321786176"/>
    <nd ref="305164453"/>
    <nd ref="305164454"/>
    <nd ref="305164455"/>
    <nd ref="305164456"/>
    <nd ref="305164457"/>
    <nd ref="305164458"/>
    <nd ref="305164459"/>
    <nd ref="305164460"/>
    <tag k="created_by" v="Potlatch 0.10f"/>
    <tag k="railway" v="rail"/>
  </way>
  <way id="27792719" version="5" timestamp="2008-12-26T16:07:39Z" uid="30632" user="antblant" changeset="612608">
    <nd ref="305164451"/>
    <nd ref="305164449"/>
    <nd ref="305164448"/>
    <nd ref="305164427"/>
    <nd ref="305164447"/>
    <nd ref="305164452"/>
    <nd ref="321787241"/>
    <nd ref="321786176"/>
    <nd ref="305164453"/>
    <nd ref="305164454"/>
    <nd ref="305164455"/>
    <nd ref="305164456"/>
    <nd ref="305164457"/>
    <nd ref="305164458"/>
    <nd ref="305164459"/>
    <nd ref="305164460"/>
    <tag k="created_by" v="Potlatch 0.10f"/>
    <tag k="railway" v="rail"/>
  </way>
  <way id="27792719" version="6" timestamp="2009-03-26T16:21:33Z" uid="30632" user="antblant" changeset="860703">
    <nd ref="305164451"/>
    <nd ref="305164449"/>
    <nd ref="305164448"/>
    <nd ref="305164427"/>
    <nd ref="305164447"/>
    <nd ref="305164452"/>
    <nd ref="321787241"/>
    <nd ref="321786176"/>
    <nd ref="305164453"/>
    <nd ref="305164454"/>
    <nd ref="305164455"/>
    <nd ref="305164456"/>
    <nd ref="305164457"/>
    <nd ref="305164458"/>
    <nd ref="365945920"/>
    <nd ref="305164459"/>
    <nd ref="365945937"/>
    <nd ref="365945939"/>
    <tag k="created_by" v="Potlatch 0.10f"/>
    <tag k="railway" v="rail"/>
  </way>
  <way id="27792719" version="7" timestamp="2009-03-27T15:14:08Z" uid="30632" user="antblant" changeset="863166">
    <nd ref="305164451"/>
    <nd ref="305164449"/>
    <nd ref="305164448"/>
    <nd ref="305164427"/>
    <nd ref="305164447"/>
    <nd ref="305164452"/>
    <nd ref="321787241"/>
    <nd ref="321786176"/>
    <nd ref="305164453"/>
    <nd ref="305164454"/>
    <nd ref="305164455"/>
    <nd ref="305164456"/>
    <nd ref="305164457"/>
    <nd ref="305164458"/>
    <nd ref="365945920"/>
    <nd ref="305164459"/>
    <nd ref="365945937"/>
    <nd ref="366206833"/>
    <nd ref="365945939"/>
    <tag k="created_by" v="Potlatch 0.10f"/>
    <tag k="railway" v="rail"/>
  </way>
  <way id="27792719" version="8" timestamp="2009-03-27T15:14:13Z" uid="30632" user="antblant" changeset="863166">
    <nd ref="305164451"/>
    <nd ref="305164449"/>
    <nd ref="305164448"/>
    <nd ref="305164427"/>
    <nd ref="305164447"/>
    <nd ref="305164452"/>
    <nd ref="321787241"/>
    <nd ref="321786176"/>
    <nd ref="305164453"/>
    <nd ref="305164454"/>
    <nd ref="305164455"/>
    <nd ref="305164456"/>
    <nd ref="305164457"/>
    <nd ref="305164458"/>
    <nd ref="365945920"/>
    <nd ref="305164459"/>
    <nd ref="365945937"/>
    <nd ref="366206834"/>
    <tag k="created_by" v="Potlatch 0.10f"/>
    <tag k="railway" v="rail"/>
  </way>
  <way id="27792719" version="9" timestamp="2009-03-27T15:18:32Z" uid="30632" user="antblant" changeset="863166">
    <nd ref="305164451"/>
    <nd ref="305164449"/>
    <nd ref="305164448"/>
    <nd ref="305164427"/>
    <nd ref="305164447"/>
    <nd ref="305164452"/>
    <nd ref="321787241"/>
    <nd ref="321786176"/>
    <nd ref="305164453"/>
    <nd ref="305164454"/>
    <nd ref="305164455"/>
    <nd ref="305164456"/>
    <nd ref="305164457"/>
    <nd ref="305164458"/>
    <nd ref="365945920"/>
    <nd ref="305164459"/>
    <nd ref="365945937"/>
    <nd ref="366206834"/>
    <tag k="created_by" v="Potlatch 0.10f"/>
    <tag k="railway" v="rail"/>
  </way>
  <way id="27792719" version="10" timestamp="2009-03-27T22:22:47Z" uid="30632" user="antblant" changeset="863539">
    <nd ref="305164451"/>
    <nd ref="305164449"/>
    <nd ref="305164448"/>
    <nd ref="305164427"/>
    <nd ref="305164447"/>
    <nd ref="305164452"/>
    <nd ref="321787241"/>
    <nd ref="321786176"/>
    <nd ref="305164453"/>
    <nd ref="305164454"/>
    <nd ref="305164455"/>
    <nd ref="305164456"/>
    <nd ref="305164457"/>
    <nd ref="305164458"/>
    <nd ref="365945920"/>
    <nd ref="305164459"/>
    <nd ref="365945937"/>
    <nd ref="366206834"/>
    <tag k="created_by" v="Potlatch 0.10f"/>
    <tag k="railway" v="rail"/>
  </way>
  <way id="27792719" version="11" timestamp="2009-03-27T22:22:58Z" uid="30632" user="antblant" changeset="863539">
    <nd ref="305164451"/>
    <nd ref="305164449"/>
    <nd ref="305164448"/>
    <nd ref="305164427"/>
    <nd ref="305164447"/>
    <nd ref="305164452"/>
    <nd ref="321787241"/>
    <nd ref="321786176"/>
    <nd ref="305164453"/>
    <nd ref="305164454"/>
    <nd ref="305164455"/>
    <nd ref="305164456"/>
    <nd ref="305164457"/>
    <nd ref="305164458"/>
    <nd ref="365945920"/>
    <nd ref="305164459"/>
    <nd ref="365945937"/>
    <nd ref="366206834"/>
    <tag k="created_by" v="Potlatch 0.10f"/>
    <tag k="railway" v="rail"/>
  </way>
  <way id="27792719" version="12" timestamp="2009-03-27T22:23:04Z" uid="30632" user="antblant" changeset="863539">
    <nd ref="305164451"/>
    <nd ref="305164449"/>
    <nd ref="305164448"/>
    <nd ref="305164427"/>
    <nd ref="305164447"/>
    <nd ref="305164452"/>
    <nd ref="321787241"/>
    <nd ref="321786176"/>
    <nd ref="305164453"/>
    <nd ref="305164454"/>
    <nd ref="305164455"/>
    <nd ref="305164456"/>
    <nd ref="305164457"/>
    <nd ref="305164458"/>
    <nd ref="365945920"/>
    <nd ref="305164459"/>
    <nd ref="365945937"/>
    <nd ref="366206834"/>
    <tag k="created_by" v="Potlatch 0.10f"/>
    <tag k="railway" v="rail"/>
  </way>
  <way id="27792719" version="13" timestamp="2009-03-29T18:39:12Z" uid="30632" user="antblant" changeset="867499">
    <nd ref="305164451"/>
    <nd ref="305164449"/>
    <nd ref="305164448"/>
    <nd ref="305164427"/>
    <nd ref="305164447"/>
    <nd ref="305164452"/>
    <nd ref="321787241"/>
    <nd ref="321786176"/>
    <nd ref="305164453"/>
    <nd ref="305164454"/>
    <nd ref="305164455"/>
    <nd ref="305164456"/>
    <nd ref="305164457"/>
    <nd ref="305164458"/>
    <nd ref="365945920"/>
    <tag k="created_by" v="Potlatch 0.10f"/>
    <tag k="railway" v="rail"/>
  </way>
  <way id="27792719" version="14" timestamp="2009-03-29T18:39:18Z" uid="30632" user="antblant" changeset="867499">
    <nd ref="305164451"/>
    <nd ref="305164449"/>
    <nd ref="305164448"/>
    <nd ref="305164427"/>
    <nd ref="305164447"/>
    <nd ref="305164452"/>
    <nd ref="321787241"/>
    <nd ref="321786176"/>
    <nd ref="305164453"/>
    <nd ref="305164454"/>
    <nd ref="305164455"/>
    <nd ref="305164456"/>
    <nd ref="305164457"/>
    <nd ref="305164458"/>
    <tag k="created_by" v="Potlatch 0.10f"/>
    <tag k="railway" v="rail"/>
  </way>
  <way id="27792719" version="15" timestamp="2009-09-16T22:38:23Z" uid="30632" user="antblant" changeset="2507542">
    <nd ref="305164451"/>
    <nd ref="305164449"/>
    <nd ref="305164448"/>
    <nd ref="305164427"/>
    <nd ref="305164447"/>
    <nd ref="305164452"/>
    <nd ref="321787241"/>
    <nd ref="321786176"/>
    <nd ref="305164453"/>
    <nd ref="305164454"/>
    <nd ref="498568958"/>
    <nd ref="305164455"/>
    <nd ref="498568957"/>
    <nd ref="305164456"/>
    <nd ref="305164457"/>
    <nd ref="305164458"/>
    <tag k="railway" v="rail"/>
  </way>
  <way id="27792720" version="1" timestamp="2008-10-17T13:10:20Z" uid="30632" user="antblant" changeset="392727">
    <nd ref="305164461"/>
    <nd ref="305164465"/>
    <nd ref="305164463"/>
    <tag k="highway" v="residential"/>
    <tag k="name" v="Biała"/>
    <tag k="surface" v="cobblestone"/>
  </way>
  <way id="27792721" version="1" timestamp="2008-10-17T13:10:20Z" uid="30632" user="antblant" changeset="392727">
    <nd ref="305164463"/>
    <nd ref="305164462"/>
    <tag k="highway" v="residential"/>
    <tag k="name" v="Biała"/>
  </way>
  <way id="27792722" version="1" timestamp="2008-10-17T13:10:20Z" uid="30632" user="antblant" changeset="392727">
    <nd ref="305164476"/>
    <nd ref="305164465"/>
    <nd ref="305164466"/>
    <tag k="highway" v="residential"/>
    <tag k="name" v="Aluminiowa"/>
  </way>
  <way id="27792723" version="1" timestamp="2008-10-17T13:10:21Z" uid="30632" user="antblant" changeset="392727">
    <nd ref="305164461"/>
    <nd ref="305164469"/>
    <nd ref="305164470"/>
    <nd ref="305164471"/>
    <nd ref="305164473"/>
    <nd ref="305164476"/>
    <nd ref="305164474"/>
    <tag k="highway" v="residential"/>
    <tag k="name" v="Kruszczowa"/>
    <tag k="surface" v="cobblestone"/>
  </way>
  <way id="27792723" version="2" timestamp="2008-10-29T17:06:23Z" uid="30632" user="antblant" changeset="622882">
    <nd ref="305164461"/>
    <nd ref="305164469"/>
    <nd ref="305164470"/>
    <nd ref="305164471"/>
    <nd ref="305164473"/>
    <nd ref="305164476"/>
    <nd ref="305164474"/>
    <tag k="created_by" v="Potlatch 0.10f"/>
    <tag k="highway" v="residential"/>
    <tag k="name" v="Kruszcowa"/>
    <tag k="surface" v="cobblestone"/>
  </way>
  <way id="27792723" version="3" timestamp="2009-11-03T14:57:17Z" uid="36809" user="pfoten_weg_!_" changeset="3025069">
    <nd ref="305164461"/>
    <nd ref="305164469"/>
    <nd ref="305164470"/>
    <nd ref="305164471"/>
    <nd ref="305164473"/>
    <nd ref="305164476"/>
    <nd ref="305164474"/>
    <tag k="highway" v="residential"/>
    <tag k="name" v="Kruszcowa"/>
    <tag k="surface" v="cobblestone"/>
  </way>
  <way id="27792724" version="1" timestamp="2008-10-17T13:10:21Z" uid="30632" user="antblant" changeset="392727">
    <nd ref="305164466"/>
    <nd ref="305164467"/>
    <nd ref="305164468"/>
    <nd ref="305164461"/>
    <tag k="highway" v="residential"/>
    <tag k="name" v="Planty"/>
  </way>
  <way id="27792727" version="1" timestamp="2008-10-17T13:10:27Z" uid="9581" user="Lobelt" changeset="391285">
    <nd ref="305163984"/>
    <nd ref="305163989"/>
    <tag k="highway" v="residential"/>
  </way>
  <way id="27792727" version="2" timestamp="2012-01-17T15:43:33Z" uid="195713" user="_torsten_" changeset="10418318"/>
  <way id="27792728" version="1" timestamp="2008-10-17T13:10:27Z" uid="9581" user="Lobelt" changeset="391285">
    <nd ref="15860964"/>
    <nd ref="305163996"/>
    <nd ref="305164000"/>
    <nd ref="305164004"/>
    <nd ref="305164008"/>
    <nd ref="305164011"/>
    <nd ref="305164013"/>
    <nd ref="305164015"/>
    <nd ref="305164017"/>
    <nd ref="305164019"/>
    <nd ref="305163981"/>
    <nd ref="305164021"/>
    <nd ref="305164023"/>
    <nd ref="305164025"/>
    <nd ref="305163986"/>
    <nd ref="305164068"/>
    <nd ref="305164027"/>
    <nd ref="305164029"/>
    <tag k="highway" v="residential"/>
  </way>
  <way id="27792728" version="2" timestamp="2009-07-17T15:05:29Z" uid="128225" user="dizi" changeset="1855261">
    <nd ref="15860964"/>
    <nd ref="305163996"/>
    <nd ref="305164000"/>
    <nd ref="305164004"/>
    <nd ref="305164008"/>
    <nd ref="305164011"/>
    <nd ref="305164013"/>
    <nd ref="305164015"/>
    <nd ref="305164017"/>
    <nd ref="305164019"/>
    <nd ref="305163981"/>
    <nd ref="305164021"/>
    <nd ref="305164023"/>
    <nd ref="305164025"/>
    <nd ref="305163986"/>
    <nd ref="305164068"/>
    <nd ref="305164027"/>
    <nd ref="305164029"/>
    <tag k="highway" v="residential"/>
  </way>
  <way id="27792728" version="3" timestamp="2010-01-25T22:10:28Z" uid="224595" user="toboe" changeset="3715211">
    <nd ref="15860964"/>
    <nd ref="305163996"/>
    <nd ref="305164000"/>
    <nd ref="305164004"/>
    <nd ref="305164008"/>
    <nd ref="305164011"/>
    <nd ref="305164013"/>
    <nd ref="305164015"/>
    <nd ref="305164017"/>
    <nd ref="305164019"/>
    <nd ref="305163981"/>
    <nd ref="305164021"/>
    <nd ref="305164023"/>
    <nd ref="305164025"/>
    <nd ref="305163986"/>
    <nd ref="305164068"/>
    <nd ref="305164027"/>
    <nd ref="305164029"/>
    <tag k="highway" v="Mohrentalerstraße"/>
  </way>
  <way id="27792728" version="4" timestamp="2010-01-28T22:09:18Z" uid="149097" user="AlexanderF" changeset="3739551">
    <nd ref="15860964"/>
    <nd ref="305163996"/>
    <nd ref="305164000"/>
    <nd ref="305164004"/>
    <nd ref="305164008"/>
    <nd ref="305164011"/>
    <nd ref="305164013"/>
    <nd ref="305164015"/>
    <nd ref="305164017"/>
    <nd ref="305164019"/>
    <nd ref="305163981"/>
    <nd ref="305164021"/>
    <nd ref="305164023"/>
    <nd ref="305164025"/>
    <nd ref="305163986"/>
    <nd ref="305164068"/>
    <nd ref="305164027"/>
    <nd ref="305164029"/>
    <tag k="highway" v="residential"/>
    <tag k="name" v="Mohrentalerstraße"/>
  </way>
  <way id="27792728" version="5" timestamp="2012-01-17T15:43:33Z" uid="195713" user="_torsten_" changeset="10418318"/>
  <way id="27792730" version="1" timestamp="2008-10-17T13:10:28Z" uid="9581" user="Lobelt" changeset="391285">
    <nd ref="305164023"/>
    <nd ref="305164031"/>
    <nd ref="305164033"/>
    <nd ref="305164035"/>
    <nd ref="305164037"/>
    <nd ref="305164039"/>
    <nd ref="305164041"/>
    <nd ref="305164044"/>
    <nd ref="305164046"/>
    <nd ref="305164048"/>
    <nd ref="305164050"/>
    <nd ref="305164052"/>
    <nd ref="305164054"/>
    <nd ref="305164056"/>
    <nd ref="305164019"/>
    <tag k="highway" v="residential"/>
  </way>
  <way id="27792730" version="2" timestamp="2012-01-17T15:43:34Z" uid="195713" user="_torsten_" changeset="10418318"/>
  <way id="27792731" version="1" timestamp="2008-10-17T13:10:28Z" uid="9581" user="Lobelt" changeset="391285">
    <nd ref="305164025"/>
    <nd ref="305164058"/>
    <nd ref="305164060"/>
    <nd ref="305164062"/>
    <nd ref="305164031"/>
    <tag k="highway" v="residential"/>
  </way>
  <way id="27792731" version="2" timestamp="2011-04-30T09:59:45Z" uid="438703" user="kritter" changeset="8010262">
    <nd ref="305164025"/>
    <nd ref="305164058"/>
    <nd ref="305164060"/>
    <nd ref="305164062"/>
    <nd ref="305164031"/>
    <tag k="highway" v="residential"/>
    <tag k="name" v="Am Bommelsberg"/>
  </way>
  <way id="27792731" version="3" timestamp="2012-01-17T15:43:35Z" uid="195713" user="_torsten_" changeset="10418318"/>
  <way id="27792732" version="1" timestamp="2008-10-17T13:10:28Z" uid="9581" user="Lobelt" changeset="391285">
    <nd ref="305164035"/>
    <nd ref="305164064"/>
    <nd ref="305164065"/>
    <nd ref="305164066"/>
    <nd ref="305164067"/>
    <nd ref="305164068"/>
    <tag k="highway" v="residential"/>
  </way>
  <way id="27792732" version="2" timestamp="2011-04-30T09:59:45Z" uid="438703" user="kritter" changeset="8010262">
    <nd ref="305164035"/>
    <nd ref="305164064"/>
    <nd ref="305164065"/>
    <nd ref="305164066"/>
    <nd ref="305164067"/>
    <nd ref="305164068"/>
    <tag k="highway" v="residential"/>
    <tag k="name" v="Am Maientännich"/>
  </way>
  <way id="27792732" version="3" timestamp="2012-01-17T15:43:34Z" uid="195713" user="_torsten_" changeset="10418318"/>
  <way id="27792734" version="1" timestamp="2008-10-17T13:10:28Z" uid="9581" user="Lobelt" changeset="391285">
    <nd ref="305164065"/>
    <nd ref="305164069"/>
    <tag k="highway" v="residential"/>
  </way>
  <way id="27792734" version="2" timestamp="2011-04-30T09:59:45Z" uid="438703" user="kritter" changeset="8010262">
    <nd ref="305164065"/>
    <nd ref="305164069"/>
    <tag k="highway" v="residential"/>
    <tag k="name" v="Am Maientännich"/>
  </way>
  <way id="27792734" version="3" timestamp="2012-01-17T15:43:33Z" uid="195713" user="_torsten_" changeset="10418318"/>
  <way id="27792735" version="1" timestamp="2008-10-17T13:10:29Z" uid="9581" user="Lobelt" changeset="391285">
    <nd ref="305164069"/>
    <nd ref="305164070"/>
    <nd ref="305164071"/>
    <nd ref="305164072"/>
    <nd ref="305164073"/>
    <nd ref="305164074"/>
    <nd ref="305164076"/>
    <nd ref="305164071"/>
    <tag k="highway" v="residential"/>
  </way>
  <way id="27792735" version="2" timestamp="2012-01-17T15:43:34Z" uid="195713" user="_torsten_" changeset="10418318"/>
  <way id="27792736" version="1" timestamp="2008-10-17T13:10:29Z" uid="9581" user="Lobelt" changeset="391285">
    <nd ref="305164069"/>
    <nd ref="305164077"/>
    <nd ref="305164078"/>
    <nd ref="305164079"/>
    <nd ref="305164080"/>
    <nd ref="305164081"/>
    <nd ref="305164082"/>
    <nd ref="305164077"/>
    <tag k="highway" v="residential"/>
  </way>
  <way id="27792736" version="2" timestamp="2012-01-17T15:43:36Z" uid="195713" user="_torsten_" changeset="10418318"/>
  <way id="27792738" version="1" timestamp="2008-10-17T13:10:29Z" uid="9581" user="Lobelt" changeset="391285">
    <nd ref="305164033"/>
    <nd ref="305164084"/>
    <nd ref="305164054"/>
    <nd ref="305164085"/>
    <nd ref="305164086"/>
    <nd ref="305164087"/>
    <nd ref="305164088"/>
    <nd ref="305164015"/>
    <tag k="highway" v="residential"/>
  </way>
  <way id="27792738" version="2" timestamp="2010-02-02T21:18:36Z" uid="224595" user="toboe" changeset="3779130">
    <nd ref="305164033"/>
    <nd ref="305164084"/>
    <nd ref="305164054"/>
    <nd ref="305164085"/>
    <nd ref="305164086"/>
    <nd ref="305164087"/>
    <nd ref="305164088"/>
    <nd ref="305164015"/>
    <tag k="highway" v="secondary"/>
    <tag k="name" v="Am Bommelsberg"/>
  </way>
  <way id="27792738" version="3" timestamp="2010-02-07T18:21:31Z" uid="9581" user="Lobelt" changeset="3817320">
    <nd ref="305164033"/>
    <nd ref="305164084"/>
    <nd ref="305164054"/>
    <nd ref="305164085"/>
    <nd ref="305164086"/>
    <nd ref="305164087"/>
    <nd ref="305164088"/>
    <nd ref="305164015"/>
    <tag k="highway" v="residential"/>
    <tag k="name" v="Am Bommelsberg"/>
  </way>
  <way id="27792738" version="4" timestamp="2012-01-17T15:43:36Z" uid="195713" user="_torsten_" changeset="10418318"/>
  <way id="27792741" version="1" timestamp="2008-10-17T13:10:30Z" uid="9581" user="Lobelt" changeset="391285">
    <nd ref="305164084"/>
    <nd ref="305164089"/>
    <tag k="highway" v="residential"/>
  </way>
  <way id="27792741" version="2" timestamp="2012-01-17T15:43:35Z" uid="195713" user="_torsten_" changeset="10418318"/>
  <way id="27792742" version="1" timestamp="2008-10-17T13:10:30Z" uid="9581" user="Lobelt" changeset="391285">
    <nd ref="305164056"/>
    <nd ref="305164090"/>
    <nd ref="305164091"/>
    <nd ref="305164088"/>
    <tag k="highway" v="residential"/>
  </way>
  <way id="27792742" version="2" timestamp="2012-01-17T15:43:35Z" uid="195713" user="_torsten_" changeset="10418318"/>
  <way id="27792744" version="1" timestamp="2008-10-17T13:10:31Z" uid="9581" user="Lobelt" changeset="391285">
    <nd ref="305164011"/>
    <nd ref="305164092"/>
    <nd ref="305164093"/>
    <nd ref="305164094"/>
    <tag k="highway" v="residential"/>
  </way>
  <way id="27792744" version="2" timestamp="2010-01-25T22:11:15Z" uid="224595" user="toboe" changeset="3715211">
    <nd ref="305164011"/>
    <nd ref="305164092"/>
    <nd ref="305164093"/>
    <nd ref="305164094"/>
    <tag k="highway" v="Am Kindergarten"/>
  </way>
  <way id="27792744" version="3" timestamp="2010-01-25T22:12:42Z" uid="224595" user="toboe" changeset="3715211">
    <nd ref="305164011"/>
    <nd ref="305164092"/>
    <nd ref="305164093"/>
    <nd ref="305164094"/>
    <tag k="highway" v="residential"/>
  </way>
  <way id="27792744" version="4" timestamp="2010-02-02T21:17:00Z" uid="224595" user="toboe" changeset="3779130">
    <nd ref="305164011"/>
    <nd ref="626984489"/>
    <nd ref="305164092"/>
    <nd ref="305164093"/>
    <nd ref="305164094"/>
    <tag k="highway" v="residential"/>
  </way>
  <way id="27792744" version="5" timestamp="2010-02-10T09:49:56Z" uid="224595" user="toboe" changeset="3838786">
    <nd ref="305164011"/>
    <nd ref="626984489"/>
    <nd ref="305164092"/>
    <nd ref="305164093"/>
    <nd ref="305164094"/>
    <tag k="highway" v="Am Kindergarten"/>
  </way>
  <way id="27792744" version="6" timestamp="2010-02-13T12:06:43Z" uid="149097" user="AlexanderF" changeset="3864013">
    <nd ref="305164011"/>
    <nd ref="626984489"/>
    <nd ref="305164092"/>
    <nd ref="305164093"/>
    <nd ref="305164094"/>
    <tag k="highway" v="residential"/>
    <tag k="name" v="Am Kindergarten"/>
  </way>
  <way id="27792744" version="7" timestamp="2012-01-17T15:43:35Z" uid="195713" user="_torsten_" changeset="10418318"/>
  <way id="27792745" version="1" timestamp="2008-10-17T13:10:31Z" uid="9581" user="Lobelt" changeset="391285">
    <nd ref="305164013"/>
    <nd ref="305164096"/>
    <nd ref="305164099"/>
    <nd ref="305164102"/>
    <nd ref="305164105"/>
    <nd ref="305164109"/>
    <nd ref="305164111"/>
    <nd ref="305164096"/>
    <tag k="highway" v="residential"/>
  </way>
  <way id="27792745" version="2" timestamp="2010-01-25T22:11:15Z" uid="224595" user="toboe" changeset="3715211">
    <nd ref="305164013"/>
    <nd ref="305164096"/>
    <nd ref="305164099"/>
    <nd ref="305164102"/>
    <nd ref="305164105"/>
    <nd ref="305164109"/>
    <nd ref="305164111"/>
    <nd ref="305164096"/>
  </way>
  <way id="27792745" version="3" timestamp="2010-02-07T18:21:36Z" uid="9581" user="Lobelt" changeset="3817320">
    <nd ref="305164013"/>
    <nd ref="305164096"/>
    <nd ref="305164099"/>
    <nd ref="305164102"/>
    <nd ref="305164105"/>
    <nd ref="305164109"/>
    <nd ref="305164111"/>
    <nd ref="305164096"/>
    <tag k="highway" v="residential"/>
  </way>
  <way id="27792745" version="4" timestamp="2011-04-30T09:59:45Z" uid="438703" user="kritter" changeset="8010262">
    <nd ref="305164013"/>
    <nd ref="305164096"/>
    <nd ref="305164099"/>
    <nd ref="305164102"/>
    <nd ref="305164105"/>
    <nd ref="305164109"/>
    <nd ref="305164111"/>
    <nd ref="305164096"/>
    <tag k="highway" v="residential"/>
    <tag k="name" v="Strasse des Friedens"/>
    <tag k="surface" v="paved"/>
  </way>
  <way id="27792745" version="5" timestamp="2011-05-02T14:27:48Z" uid="70696" user="xybot" changeset="8030777">
    <nd ref="305164013"/>
    <nd ref="305164096"/>
    <nd ref="305164099"/>
    <nd ref="305164102"/>
    <nd ref="305164105"/>
    <nd ref="305164109"/>
    <nd ref="305164111"/>
    <nd ref="305164096"/>
    <tag k="highway" v="residential"/>
    <tag k="name" v="Straße des Friedens"/>
    <tag k="surface" v="paved"/>
  </way>
  <way id="27792745" version="6" timestamp="2012-01-17T15:43:34Z" uid="195713" user="_torsten_" changeset="10418318"/>
  <way id="27792747" version="1" timestamp="2008-10-17T13:10:31Z" uid="9581" user="Lobelt" changeset="391285">
    <nd ref="305164008"/>
    <nd ref="305164114"/>
    <tag k="highway" v="residential"/>
  </way>
  <way id="27792747" version="2" timestamp="2012-01-17T15:43:35Z" uid="195713" user="_torsten_" changeset="10418318"/>
  <way id="27792748" version="1" timestamp="2008-10-17T13:10:32Z" uid="9581" user="Lobelt" changeset="391285">
    <nd ref="205090319"/>
    <nd ref="305164118"/>
    <tag k="highway" v="residential"/>
  </way>
  <way id="27792748" version="2" timestamp="2009-08-09T20:13:49Z" uid="5735" user="ColinMarquardt" changeset="2090578">
    <nd ref="15861006"/>
    <nd ref="459999060"/>
    <nd ref="459999064"/>
    <nd ref="205090319"/>
    <tag k="highway" v="residential"/>
    <tag k="name" v="Anger"/>
  </way>
  <way id="27792748" version="3" timestamp="2010-02-07T18:21:37Z" uid="9581" user="Lobelt" changeset="3817320">
    <nd ref="15861006"/>
    <nd ref="459999060"/>
    <nd ref="459999064"/>
    <nd ref="624512787"/>
    <tag k="highway" v="residential"/>
    <tag k="name" v="Anger"/>
  </way>
  <way id="27792748" version="4" timestamp="2012-01-17T18:38:20Z" uid="195713" user="_torsten_" changeset="10420494"/>
  <way id="27792749" version="1" timestamp="2008-10-17T13:10:32Z" uid="9581" user="Lobelt" changeset="391285">
    <nd ref="15861088"/>
    <nd ref="305164119"/>
    <nd ref="305164120"/>
    <tag k="highway" v="residential"/>
  </way>
  <way id="27792749" version="2" timestamp="2009-08-09T20:13:48Z" uid="5735" user="ColinMarquardt" changeset="2090578">
    <nd ref="15861088"/>
    <nd ref="305164119"/>
    <nd ref="305164120"/>
    <tag k="highway" v="residential"/>
    <tag k="name" v="Georgstraße"/>
  </way>
  <way id="27792749" version="3" timestamp="2010-01-31T19:28:23Z" uid="224595" user="toboe" changeset="3762396">
    <nd ref="15861088"/>
    <nd ref="305164119"/>
    <nd ref="305164120"/>
    <tag k="highway" v="residential"/>
    <tag k="name" v="Wassergasse"/>
  </way>
  <way id="27792749" version="4" timestamp="2010-02-09T07:30:01Z" uid="224595" user="toboe" changeset="3829559">
    <nd ref="15861088"/>
    <nd ref="305164119"/>
    <nd ref="305164120"/>
    <tag k="highway" v="residential"/>
    <tag k="name" v="Georgsgasse"/>
  </way>
  <way id="27792749" version="5" timestamp="2012-01-17T13:33:17Z" uid="195713" user="_torsten_" changeset="10417677"/>
  <way id="27792750" version="1" timestamp="2008-10-17T13:10:32Z" uid="9581" user="Lobelt" changeset="391285">
    <nd ref="305164122"/>
    <nd ref="305164121"/>
    <tag k="bridge" v="yes"/>
    <tag k="created_by" v="JOSM"/>
    <tag k="highway" v="unclassified"/>
    <tag k="layer" v="1"/>
  </way>
  <way id="27792750" version="2" timestamp="2009-05-21T17:46:10Z" uid="9581" user="Lobelt" changeset="1278987">
    <nd ref="305164122"/>
    <nd ref="305164121"/>
    <tag k="bridge" v="yes"/>
    <tag k="created_by" v="JOSM"/>
    <tag k="highway" v="tertiary"/>
    <tag k="layer" v="1"/>
  </way>
  <way id="27792750" version="3" timestamp="2009-10-28T22:11:37Z" uid="60345" user="Mirko Küster" changeset="2977457">
    <nd ref="305164122"/>
    <nd ref="305164121"/>
    <tag k="bridge" v="yes"/>
    <tag k="highway" v="tertiary"/>
    <tag k="layer" v="1"/>
  </way>
  <way id="27792750" version="4" timestamp="2010-03-25T13:58:05Z" uid="118134" user="scai" changeset="4229409">
    <nd ref="305164122"/>
    <nd ref="305164121"/>
    <tag k="bridge" v="yes"/>
    <tag k="highway" v="tertiary"/>
    <tag k="layer" v="1"/>
    <tag k="maxweight" v="12"/>
  </way>
  <way id="27792750" version="5" timestamp="2010-07-04T22:24:04Z" uid="43064" user="juestres" changeset="5137913">
    <nd ref="305164122"/>
    <nd ref="305164121"/>
    <tag k="bridge" v="yes"/>
    <tag k="highway" v="secondary"/>
    <tag k="layer" v="1"/>
    <tag k="maxspeed" v="50"/>
    <tag k="maxweight" v="12"/>
  </way>
  <way id="27792750" version="6" timestamp="2012-01-17T13:32:57Z" uid="195713" user="_torsten_" changeset="10417677">
    <nd ref="1594684670"/>
    <nd ref="1594684647"/>
    <tag k="bridge" v="yes"/>
    <tag k="highway" v="secondary"/>
    <tag k="layer" v="1"/>
    <tag k="maxspeed" v="50"/>
    <tag k="maxweight" v="12"/>
  </way>
  <way id="27792750" version="7" timestamp="2012-01-18T10:20:34Z" uid="195713" user="_torsten_" changeset="10425953"/>
  <way id="27792751" version="1" timestamp="2008-10-17T13:10:33Z" uid="9581" user="Lobelt" changeset="391285">
    <nd ref="305164121"/>
    <nd ref="152180120"/>
    <nd ref="152187121"/>
    <tag k="created_by" v="JOSM"/>
    <tag k="highway" v="unclassified"/>
  </way>
  <way id="27792751" version="2" timestamp="2009-05-21T17:46:10Z" uid="9581" user="Lobelt" changeset="1278987">
    <nd ref="305164121"/>
    <nd ref="152180120"/>
    <nd ref="152187121"/>
    <tag k="created_by" v="JOSM"/>
    <tag k="highway" v="tertiary"/>
  </way>
  <way id="27792751" version="3" timestamp="2010-07-04T22:24:11Z" uid="43064" user="juestres" changeset="5137913">
    <nd ref="305164121"/>
    <nd ref="152180120"/>
    <nd ref="152187121"/>
    <tag k="highway" v="secondary"/>
    <tag k="maxspeed" v="50"/>
  </way>
  <way id="27792751" version="4" timestamp="2012-01-17T13:33:17Z" uid="195713" user="_torsten_" changeset="10417677"/>
  <way id="27792752" version="1" timestamp="2008-10-17T13:10:33Z" uid="9581" user="Lobelt" changeset="391285">
    <nd ref="152180110"/>
    <nd ref="305164123"/>
    <nd ref="305164124"/>
    <nd ref="305164125"/>
    <nd ref="305164126"/>
    <nd ref="305164127"/>
    <nd ref="305164128"/>
    <nd ref="152180110"/>
    <tag k="highway" v="residential"/>
  </way>
  <way id="27792752" version="2" timestamp="2010-01-26T08:23:51Z" uid="224595" user="toboe" changeset="3717343">
    <nd ref="152180110"/>
    <nd ref="305164123"/>
    <nd ref="305164124"/>
    <nd ref="305164125"/>
    <nd ref="305164126"/>
    <nd ref="305164127"/>
    <nd ref="305164128"/>
    <nd ref="152180110"/>
    <tag k="highway" v="Kirchplatz"/>
  </way>
  <way id="27792752" version="3" timestamp="2010-01-28T22:09:21Z" uid="149097" user="AlexanderF" changeset="3739551">
    <nd ref="152180110"/>
    <nd ref="305164123"/>
    <nd ref="305164124"/>
    <nd ref="305164125"/>
    <nd ref="305164126"/>
    <nd ref="305164127"/>
    <nd ref="305164128"/>
    <nd ref="152180110"/>
    <tag k="highway" v="residential"/>
    <tag k="name" v="Kirchplatz"/>
  </way>
  <way id="27792752" version="4" timestamp="2011-05-03T23:00:18Z" uid="438703" user="kritter" changeset="8044676">
    <nd ref="152180110"/>
    <nd ref="305164123"/>
    <nd ref="1271584055"/>
    <nd ref="1271584053"/>
    <nd ref="1271584070"/>
    <nd ref="305164124"/>
    <nd ref="305164125"/>
    <nd ref="1271584073"/>
    <nd ref="305164126"/>
    <nd ref="1271584030"/>
    <nd ref="305164127"/>
    <nd ref="1271584040"/>
    <nd ref="305164128"/>
    <nd ref="1271584060"/>
    <nd ref="152180110"/>
    <tag k="highway" v="residential"/>
    <tag k="name" v="Kirchplatz"/>
  </way>
  <way id="27792752" version="5" timestamp="2012-01-17T16:53:42Z" uid="195713" user="_torsten_" changeset="10419488"/>
  <way id="27792753" version="1" timestamp="2008-10-17T13:10:33Z" uid="9581" user="Lobelt" changeset="391285">
    <nd ref="152180087"/>
    <nd ref="305164129"/>
    <nd ref="305164130"/>
    <nd ref="305164131"/>
    <nd ref="305164132"/>
    <nd ref="305164133"/>
    <nd ref="305164134"/>
    <tag k="highway" v="residential"/>
  </way>
  <way id="27792753" version="2" timestamp="2010-01-25T22:22:21Z" uid="224595" user="toboe" changeset="3715211">
    <nd ref="152180087"/>
    <nd ref="305164129"/>
    <nd ref="305164130"/>
    <nd ref="305164131"/>
    <nd ref="305164132"/>
    <nd ref="305164133"/>
    <nd ref="305164134"/>
    <tag k="highway" v="Ruhmbergsweg"/>
  </way>
  <way id="27792753" version="3" timestamp="2010-01-28T22:09:19Z" uid="149097" user="AlexanderF" changeset="3739551">
    <nd ref="152180087"/>
    <nd ref="305164129"/>
    <nd ref="305164130"/>
    <nd ref="305164131"/>
    <nd ref="305164132"/>
    <nd ref="305164133"/>
    <nd ref="305164134"/>
    <tag k="highway" v="residential"/>
    <tag k="name" v="Ruhmbergsweg"/>
  </way>
  <way id="27792753" version="4" timestamp="2011-04-22T22:49:04Z" uid="438703" user="kritter" changeset="7939366">
    <nd ref="152180087"/>
    <nd ref="305164129"/>
    <nd ref="305164130"/>
    <nd ref="305164131"/>
    <nd ref="305164132"/>
    <nd ref="305164133"/>
    <nd ref="305164134"/>
    <tag k="bicycle" v="yes"/>
    <tag k="foot" v="yes"/>
    <tag k="highway" v="residential"/>
    <tag k="name" v="Ruhmbergsweg"/>
    <tag k="smoothness" v="very_bad"/>
    <tag k="surface" v="paved"/>
    <tag k="tracktype" v="grade2"/>
  </way>
  <way id="27792753" version="5" timestamp="2011-04-22T22:51:40Z" uid="438703" user="kritter" changeset="7939366">
    <nd ref="152180087"/>
    <nd ref="305164129"/>
    <nd ref="305164130"/>
    <nd ref="305164131"/>
    <nd ref="305164132"/>
    <nd ref="305164133"/>
    <nd ref="305164134"/>
    <tag k="bicycle" v="yes"/>
    <tag k="foot" v="yes"/>
    <tag k="highway" v="residential"/>
    <tag k="incline" v="15"/>
    <tag k="name" v="Ruhmbergsweg"/>
    <tag k="smoothness" v="very_bad"/>
    <tag k="surface" v="paved"/>
    <tag k="tracktype" v="grade2"/>
  </way>
  <way id="27792753" version="6" timestamp="2012-01-17T18:38:20Z" uid="195713" user="_torsten_" changeset="10420494"/>
  <way id="27792754" version="1" timestamp="2008-10-17T13:10:34Z" uid="9581" user="Lobelt" changeset="391285">
    <nd ref="15861040"/>
    <nd ref="305164135"/>
    <nd ref="305164136"/>
    <nd ref="305164137"/>
    <nd ref="305164138"/>
    <nd ref="305164139"/>
    <tag k="highway" v="residential"/>
  </way>
  <way id="27792754" version="2" timestamp="2010-01-25T22:23:30Z" uid="224595" user="toboe" changeset="3715211">
    <nd ref="15861040"/>
    <nd ref="305164135"/>
    <nd ref="305164136"/>
    <nd ref="305164137"/>
    <nd ref="305164138"/>
    <nd ref="305164139"/>
    <tag k="highway" v="Schloßberg"/>
  </way>
  <way id="27792754" version="3" timestamp="2010-01-28T22:09:20Z" uid="149097" user="AlexanderF" changeset="3739551">
    <nd ref="15861040"/>
    <nd ref="305164135"/>
    <nd ref="305164136"/>
    <nd ref="305164137"/>
    <nd ref="305164138"/>
    <nd ref="305164139"/>
    <tag k="highway" v="residential"/>
    <tag k="name" v="Schloßberg"/>
  </way>
  <way id="27792754" version="4" timestamp="2012-01-17T13:50:28Z" uid="195713" user="_torsten_" changeset="10417677"/>
  <way id="27792755" version="1" timestamp="2008-10-17T13:10:34Z" uid="9581" user="Lobelt" changeset="391285">
    <nd ref="245952816"/>
    <nd ref="305164140"/>
    <nd ref="305164141"/>
    <nd ref="245952818"/>
    <tag k="highway" v="residential"/>
  </way>
  <way id="27792755" version="2" timestamp="2010-01-28T22:09:20Z" uid="149097" user="AlexanderF" changeset="3739551">
    <nd ref="245952816"/>
    <nd ref="305164140"/>
    <tag k="highway" v="residential"/>
  </way>
  <way id="27792755" version="3" timestamp="2011-04-30T11:52:43Z" uid="438703" user="kritter" changeset="8011027">
    <nd ref="245952816"/>
    <nd ref="305164140"/>
    <tag k="highway" v="residential"/>
    <tag k="name" v="Baumbachplatz"/>
  </way>
  <way id="27792755" version="4" timestamp="2012-01-17T14:46:15Z" uid="195713" user="_torsten_" changeset="10418318"/>
  <way id="27792756" version="1" timestamp="2008-10-17T13:10:34Z" uid="9581" user="Lobelt" changeset="391285">
    <nd ref="305164140"/>
    <nd ref="305164142"/>
    <nd ref="305164143"/>
    <nd ref="305164144"/>
    <nd ref="305164146"/>
    <nd ref="305164147"/>
    <nd ref="305164148"/>
    <nd ref="305164149"/>
    <tag k="highway" v="residential"/>
  </way>
  <way id="27792756" version="2" timestamp="2010-01-26T08:27:32Z" uid="224595" user="toboe" changeset="3717343">
    <nd ref="305164140"/>
    <nd ref="305164142"/>
    <nd ref="305164143"/>
    <nd ref="305164144"/>
    <nd ref="305164146"/>
    <nd ref="305164147"/>
    <nd ref="305164148"/>
    <nd ref="305164149"/>
    <tag k="highway" v="Große Gebind"/>
  </way>
  <way id="27792756" version="3" timestamp="2010-01-26T08:29:33Z" uid="224595" user="toboe" changeset="3717343">
    <nd ref="305164140"/>
    <nd ref="620402007"/>
    <nd ref="305164142"/>
    <nd ref="305164143"/>
    <nd ref="305164144"/>
    <nd ref="305164146"/>
    <nd ref="305164147"/>
    <nd ref="305164148"/>
    <nd ref="305164149"/>
    <tag k="highway" v="Große Gebind"/>
  </way>
  <way id="27792756" version="4" timestamp="2010-01-28T22:09:20Z" uid="149097" user="AlexanderF" changeset="3739551">
    <nd ref="305164140"/>
    <nd ref="305164142"/>
    <nd ref="305164143"/>
    <nd ref="305164144"/>
    <nd ref="305164146"/>
    <nd ref="305164147"/>
    <nd ref="305164148"/>
    <nd ref="305164149"/>
    <tag k="highway" v="residential"/>
    <tag k="name" v="Große Gebind"/>
  </way>
  <way id="27792756" version="5" timestamp="2012-01-17T14:46:15Z" uid="195713" user="_torsten_" changeset="10418318"/>
  <way id="27792758" version="1" timestamp="2008-10-17T13:10:35Z" uid="9581" user="Lobelt" changeset="391285">
    <nd ref="305164141"/>
    <nd ref="305164152"/>
    <nd ref="305164150"/>
    <tag k="highway" v="residential"/>
  </way>
  <way id="27792758" version="2" timestamp="2010-01-25T21:58:31Z" uid="224595" user="toboe" changeset="3715211">
    <nd ref="305164141"/>
    <nd ref="305164152"/>
    <nd ref="305164150"/>
    <tag k="highway" v="Obergasse"/>
  </way>
  <way id="27792758" version="3" timestamp="2010-01-25T22:01:37Z" uid="224595" user="toboe" changeset="3715211">
    <nd ref="305164141"/>
    <nd ref="305164152"/>
    <nd ref="305164150"/>
    <tag k="highway" v="residential"/>
  </way>
  <way id="27792758" version="4" timestamp="2010-01-26T08:28:03Z" uid="224595" user="toboe" changeset="3717343">
    <nd ref="305164141"/>
    <nd ref="305164152"/>
    <nd ref="305164150"/>
    <tag k="highway" v="Obergasse"/>
  </way>
  <way id="27792758" version="5" timestamp="2010-01-26T08:29:34Z" uid="224595" user="toboe" changeset="3717343">
    <nd ref="305164150"/>
    <nd ref="305164152"/>
    <nd ref="305164141"/>
    <nd ref="620402007"/>
    <nd ref="305164141"/>
    <nd ref="305164152"/>
    <nd ref="305164150"/>
    <tag k="highway" v="Obergasse"/>
  </way>
  <way id="27792758" version="6" timestamp="2010-01-28T22:09:21Z" uid="149097" user="AlexanderF" changeset="3739551">
    <nd ref="305164140"/>
    <nd ref="305164141"/>
    <nd ref="305164152"/>
    <nd ref="305164150"/>
    <tag k="highway" v="residential"/>
    <tag k="name" v="Obergasse"/>
  </way>
  <way id="27792758" version="7" timestamp="2011-09-15T12:04:11Z" uid="438703" user="kritter" changeset="9307537">
    <nd ref="305164140"/>
    <nd ref="305164141"/>
    <tag k="highway" v="residential"/>
    <tag k="name" v="Obergasse"/>
  </way>
  <way id="27792758" version="8" timestamp="2012-01-17T14:46:15Z" uid="195713" user="_torsten_" changeset="10418318"/>
  <way id="27792760" version="1" timestamp="2008-10-17T13:10:36Z" uid="9581" user="Lobelt" changeset="391285">
    <nd ref="245952812"/>
    <nd ref="305164153"/>
    <nd ref="305164154"/>
    <nd ref="93676981"/>
    <tag k="highway" v="residential"/>
  </way>
  <way id="27792760" version="2" timestamp="2010-01-26T08:26:23Z" uid="224595" user="toboe" changeset="3717343">
    <nd ref="245952812"/>
    <nd ref="305164153"/>
    <nd ref="305164154"/>
    <nd ref="93676981"/>
    <tag k="highway" v="Kleine Gebing"/>
  </way>
  <way id="27792760" version="3" timestamp="2010-01-28T22:09:20Z" uid="149097" user="AlexanderF" changeset="3739551">
    <nd ref="245952812"/>
    <nd ref="305164153"/>
    <nd ref="305164154"/>
    <nd ref="93676981"/>
    <tag k="highway" v="residential"/>
    <tag k="name" v="Kleine Gebing"/>
  </way>
  <way id="27792760" version="4" timestamp="2010-02-07T18:21:36Z" uid="9581" user="Lobelt" changeset="3817320">
    <nd ref="282510402"/>
    <nd ref="305164153"/>
    <nd ref="305164154"/>
    <nd ref="93676981"/>
    <tag k="highway" v="residential"/>
    <tag k="name" v="Kleine Gebing"/>
  </way>
  <way id="27792760" version="5" timestamp="2011-09-15T12:04:09Z" uid="438703" user="kritter" changeset="9307537">
    <nd ref="282510402"/>
    <nd ref="305164153"/>
    <nd ref="305164154"/>
    <nd ref="93676981"/>
    <tag k="highway" v="residential"/>
    <tag k="name" v="Kleine Gebind"/>
  </way>
  <way id="27792760" version="6" timestamp="2012-01-17T14:46:15Z" uid="195713" user="_torsten_" changeset="10418318"/>
  <way id="27792761" version="1" timestamp="2008-10-17T13:10:36Z" uid="9581" user="Lobelt" changeset="391285">
    <nd ref="305164154"/>
    <nd ref="305164155"/>
    <tag k="highway" v="residential"/>
  </way>
  <way id="27792761" version="2" timestamp="2010-01-25T22:02:26Z" uid="224595" user="toboe" changeset="3715211">
    <nd ref="305164154"/>
    <nd ref="305164155"/>
    <tag k="highway" v="Jakobstraße"/>
  </way>
  <way id="27792761" version="3" timestamp="2010-01-25T22:07:37Z" uid="224595" user="toboe" changeset="3715211">
    <nd ref="305164154"/>
    <nd ref="305164155"/>
    <tag k="highway" v="residential"/>
  </way>
  <way id="27792761" version="4" timestamp="2010-01-26T08:26:41Z" uid="224595" user="toboe" changeset="3717343">
    <nd ref="305164154"/>
    <nd ref="305164155"/>
    <tag k="highway" v="Jakobstraße"/>
  </way>
  <way id="27792761" version="5" timestamp="2010-01-28T22:09:20Z" uid="149097" user="AlexanderF" changeset="3739551">
    <nd ref="305164154"/>
    <nd ref="305164155"/>
    <tag k="highway" v="residential"/>
    <tag k="name" v="Jakobstraße"/>
  </way>
  <way id="27792761" version="6" timestamp="2012-01-17T14:46:15Z" uid="195713" user="_torsten_" changeset="10418318"/>
  <way id="27792762" version="1" timestamp="2008-10-17T13:10:36Z" uid="9581" user="Lobelt" changeset="391285">
    <nd ref="305164153"/>
    <nd ref="305164156"/>
    <nd ref="305164159"/>
    <nd ref="305164160"/>
    <nd ref="305164161"/>
    <nd ref="305164162"/>
    <nd ref="305164163"/>
    <tag k="highway" v="residential"/>
  </way>
  <way id="27792762" version="2" timestamp="2010-01-26T08:25:54Z" uid="224595" user="toboe" changeset="3717343">
    <nd ref="305164153"/>
    <nd ref="620401110"/>
    <nd ref="305164156"/>
    <nd ref="305164159"/>
    <nd ref="305164160"/>
    <nd ref="305164161"/>
    <nd ref="305164162"/>
    <nd ref="305164163"/>
    <tag k="highway" v="Obere Arnstädterstraße"/>
  </way>
  <way id="27792762" version="3" timestamp="2010-01-28T22:09:21Z" uid="149097" user="AlexanderF" changeset="3739551">
    <nd ref="305164153"/>
    <nd ref="620401110"/>
    <nd ref="305164156"/>
    <nd ref="305164159"/>
    <nd ref="305164160"/>
    <nd ref="305164161"/>
    <nd ref="305164162"/>
    <nd ref="305164163"/>
    <tag k="highway" v="residential"/>
    <tag k="name" v="Obere Arnstädterstraße"/>
  </way>
  <way id="27792762" version="4" timestamp="2012-01-17T14:46:16Z" uid="195713" user="_torsten_" changeset="10418318"/>
  <way id="27792763" version="1" timestamp="2008-10-17T13:10:37Z" uid="9581" user="Lobelt" changeset="391285">
    <nd ref="305164165"/>
    <nd ref="305164155"/>
    <nd ref="305164166"/>
    <tag k="highway" v="residential"/>
  </way>
  <way id="27792763" version="2" timestamp="2012-01-17T14:46:16Z" uid="195713" user="_torsten_" changeset="10418318"/>
  <way id="27792764" version="1" timestamp="2008-10-17T13:10:37Z" uid="9581" user="Lobelt" changeset="391285">
    <nd ref="205090309"/>
    <nd ref="305164167"/>
    <tag k="highway" v="residential"/>
  </way>
  <way id="27792764" version="2" timestamp="2010-02-09T07:30:21Z" uid="224595" user="toboe" changeset="3829559">
    <nd ref="205090309"/>
    <nd ref="305164167"/>
    <tag k="highway" v="Wassergasse"/>
  </way>
  <way id="27792764" version="3" timestamp="2010-02-09T07:37:09Z" uid="224595" user="toboe" changeset="3829559">
    <nd ref="205090309"/>
    <nd ref="305164167"/>
    <tag k="highway" v="residential"/>
  </way>
  <way id="27792764" version="4" timestamp="2011-04-30T17:30:13Z" uid="438703" user="kritter" changeset="8013878">
    <nd ref="205090309"/>
    <nd ref="305164167"/>
    <tag k="highway" v="residential"/>
    <tag k="name" v="R.-Baumbach-Straße"/>
    <tag k="surface" v="cobblestone"/>
  </way>
  <way id="27792764" version="5" timestamp="2012-01-17T13:33:18Z" uid="195713" user="_torsten_" changeset="10417677"/>
  <way id="27792765" version="1" timestamp="2008-10-17T13:10:37Z" uid="9581" user="Lobelt" changeset="391285">
    <nd ref="245952811"/>
    <nd ref="305164168"/>
    <nd ref="305164169"/>
    <nd ref="305164172"/>
    <nd ref="305164173"/>
    <nd ref="305164174"/>
    <nd ref="305164175"/>
    <nd ref="305164176"/>
    <nd ref="305164177"/>
    <nd ref="305164178"/>
    <nd ref="305164179"/>
    <nd ref="305164180"/>
    <nd ref="305164181"/>
    <tag k="highway" v="unclassified"/>
  </way>
  <way id="27792765" version="2" timestamp="2010-01-25T22:25:57Z" uid="224595" user="toboe" changeset="3715211">
    <nd ref="245952811"/>
    <nd ref="305164168"/>
    <nd ref="305164169"/>
    <nd ref="305164172"/>
    <nd ref="305164173"/>
    <nd ref="305164174"/>
    <nd ref="305164175"/>
    <nd ref="305164176"/>
    <nd ref="305164177"/>
    <nd ref="305164178"/>
    <nd ref="305164179"/>
    <nd ref="305164180"/>
    <nd ref="305164181"/>
    <tag k="highway" v="Am Bahnhof"/>
  </way>
  <way id="27792765" version="3" timestamp="2010-01-28T22:09:19Z" uid="149097" user="AlexanderF" changeset="3739551">
    <nd ref="245952811"/>
    <nd ref="305164168"/>
    <nd ref="305164169"/>
    <nd ref="305164172"/>
    <nd ref="305164173"/>
    <nd ref="305164174"/>
    <nd ref="305164175"/>
    <nd ref="305164176"/>
    <nd ref="305164177"/>
    <nd ref="305164178"/>
    <nd ref="305164179"/>
    <nd ref="305164180"/>
    <nd ref="305164181"/>
    <tag k="highway" v="unclassified"/>
    <tag k="name" v="Am Bahnhof"/>
  </way>
  <way id="27792765" version="4" timestamp="2010-01-31T19:19:42Z" uid="224595" user="toboe" changeset="3762396">
    <nd ref="245952811"/>
    <nd ref="305164168"/>
    <nd ref="305164169"/>
    <nd ref="305164172"/>
    <nd ref="305164173"/>
    <tag k="highway" v="unclassified"/>
    <tag k="name" v="Am Bahnhof"/>
  </way>
  <way id="27792765" version="5" timestamp="2010-05-12T15:59:22Z" uid="110639" user="aighes" changeset="4678384">
    <nd ref="245952811"/>
    <nd ref="731056911"/>
    <nd ref="305164168"/>
    <nd ref="305164169"/>
    <nd ref="305164172"/>
    <nd ref="305164173"/>
    <tag k="highway" v="unclassified"/>
    <tag k="name" v="Am Bahnhof"/>
  </way>
  <way id="27792765" version="6" timestamp="2012-01-18T10:39:42Z" uid="195713" user="_torsten_" changeset="10425953"/>
  <way id="27792766" version="1" timestamp="2008-10-17T13:10:37Z" uid="9581" user="Lobelt" changeset="391285">
    <nd ref="239839915"/>
    <nd ref="305164182"/>
    <tag k="highway" v="residential"/>
  </way>
  <way id="27792766" version="2" timestamp="2012-01-17T18:38:21Z" uid="195713" user="_torsten_" changeset="10420494"/>
  <way id="27792767" version="1" timestamp="2008-10-17T13:10:38Z" uid="9581" user="Lobelt" changeset="391285">
    <nd ref="305164183"/>
    <nd ref="305164184"/>
    <nd ref="305164185"/>
    <nd ref="305164186"/>
    <nd ref="305164187"/>
    <nd ref="305164189"/>
    <tag k="highway" v="residential"/>
  </way>
  <way id="27792767" version="2" timestamp="2010-01-25T22:20:42Z" uid="224595" user="toboe" changeset="3715211">
    <nd ref="305164183"/>
    <nd ref="305164184"/>
    <nd ref="305164185"/>
    <nd ref="305164186"/>
    <nd ref="305164187"/>
    <nd ref="305164189"/>
    <tag k="highway" v="Ruhmberg"/>
  </way>
  <way id="27792767" version="3" timestamp="2010-01-28T22:09:19Z" uid="149097" user="AlexanderF" changeset="3739551">
    <nd ref="305164183"/>
    <nd ref="305164184"/>
    <nd ref="305164185"/>
    <nd ref="305164186"/>
    <nd ref="305164187"/>
    <nd ref="305164189"/>
    <tag k="highway" v="residential"/>
    <tag k="name" v="Ruhmberg"/>
  </way>
  <way id="27792767" version="4" timestamp="2012-01-17T18:38:21Z" uid="195713" user="_torsten_" changeset="10420494"/>
  <way id="27792768" version="1" timestamp="2008-10-17T13:10:38Z" uid="9581" user="Lobelt" changeset="391285">
    <nd ref="152180072"/>
    <nd ref="305164193"/>
    <nd ref="305164196"/>
    <tag k="highway" v="residential"/>
  </way>
  <way id="27792768" version="2" timestamp="2012-01-17T18:38:21Z" uid="195713" user="_torsten_" changeset="10420494"/>
  <way id="27792769" version="1" timestamp="2008-10-17T13:10:38Z" uid="9581" user="Lobelt" changeset="391285">
    <nd ref="282510400"/>
    <nd ref="305164197"/>
    <nd ref="305164199"/>
    <tag k="highway" v="residential"/>
  </way>
  <way id="27792769" version="2" timestamp="2010-01-25T21:43:24Z" uid="224595" user="toboe" changeset="3715082">
    <nd ref="282510400"/>
    <nd ref="305164197"/>
    <nd ref="305164199"/>
    <tag k="highway" v="primary"/>
    <tag k="name" v="Bernhardstraße"/>
  </way>
  <way id="27792769" version="3" timestamp="2010-02-07T18:21:38Z" uid="9581" user="Lobelt" changeset="3817320">
    <nd ref="282510400"/>
    <nd ref="305164197"/>
    <nd ref="305164199"/>
    <tag k="highway" v="residential"/>
    <tag k="name" v="Bernhardstraße"/>
  </way>
  <way id="27792769" version="4" timestamp="2012-01-17T14:46:15Z" uid="195713" user="_torsten_" changeset="10418318"/>
  <way id="27792770" version="1" timestamp="2008-10-17T13:10:38Z" uid="9581" user="Lobelt" changeset="391285">
    <nd ref="282510398"/>
    <nd ref="305164200"/>
    <nd ref="305164201"/>
    <nd ref="305164202"/>
    <tag k="highway" v="residential"/>
  </way>
  <way id="27792770" version="2" timestamp="2010-01-25T22:07:38Z" uid="224595" user="toboe" changeset="3715211">
    <nd ref="305164201"/>
    <nd ref="282510398"/>
    <nd ref="305164200"/>
    <nd ref="305164201"/>
    <nd ref="305164202"/>
    <tag k="highway" v="residential"/>
  </way>
  <way id="27792770" version="3" timestamp="2010-01-25T22:16:15Z" uid="224595" user="toboe" changeset="3715211">
    <nd ref="305164201"/>
    <nd ref="282510398"/>
    <nd ref="305164200"/>
    <nd ref="305164201"/>
    <nd ref="305164202"/>
    <tag k="highway" v="Friedhofstraße"/>
  </way>
  <way id="27792770" version="4" timestamp="2010-01-26T08:34:35Z" uid="224595" user="toboe" changeset="3717343">
    <nd ref="305164201"/>
    <nd ref="282510398"/>
    <nd ref="305164200"/>
    <nd ref="305164201"/>
    <tag k="highway" v="Friedhofstraße"/>
  </way>
  <way id="27792770" version="5" timestamp="2010-01-28T22:09:21Z" uid="149097" user="AlexanderF" changeset="3739551">
    <nd ref="282510398"/>
    <nd ref="305164200"/>
    <nd ref="305164201"/>
    <tag k="highway" v="residential"/>
    <tag k="name" v="Friedhofstraße"/>
  </way>
  <way id="27792770" version="6" timestamp="2012-01-17T14:46:16Z" uid="195713" user="_torsten_" changeset="10418318"/>
  <way id="27792772" version="1" timestamp="2008-10-17T13:10:39Z" uid="9581" user="Lobelt" changeset="391285">
    <nd ref="282510396"/>
    <nd ref="305164203"/>
    <nd ref="305164204"/>
    <nd ref="305164200"/>
    <tag k="highway" v="residential"/>
  </way>
  <way id="27792772" version="2" timestamp="2010-01-25T22:16:15Z" uid="224595" user="toboe" changeset="3715211">
    <nd ref="282510396"/>
    <nd ref="305164203"/>
    <nd ref="305164204"/>
    <nd ref="305164200"/>
    <tag k="highway" v="Am Sandberg"/>
  </way>
  <way id="27792772" version="3" timestamp="2010-01-28T22:09:21Z" uid="149097" user="AlexanderF" changeset="3739551">
    <nd ref="282510396"/>
    <nd ref="305164203"/>
    <nd ref="305164204"/>
    <nd ref="305164200"/>
    <tag k="highway" v="residential"/>
    <tag k="name" v="Am Sandberg"/>
  </way>
  <way id="27792772" version="4" timestamp="2012-01-17T14:46:16Z" uid="195713" user="_torsten_" changeset="10418318"/>
  <way id="27792773" version="1" timestamp="2008-10-17T13:10:39Z" uid="9581" user="Lobelt" changeset="391285">
    <nd ref="305164205"/>
    <nd ref="305164207"/>
    <nd ref="305164208"/>
    <nd ref="305164209"/>
    <tag k="highway" v="residential"/>
  </way>
  <way id="27792773" version="2" timestamp="2010-01-25T22:16:15Z" uid="224595" user="toboe" changeset="3715211">
    <nd ref="305164205"/>
    <nd ref="305164207"/>
    <nd ref="305164208"/>
    <nd ref="305164209"/>
    <tag k="highway" v="Sandbergstraße"/>
  </way>
  <way id="27792773" version="3" timestamp="2010-01-28T22:09:19Z" uid="149097" user="AlexanderF" changeset="3739551">
    <nd ref="305164205"/>
    <nd ref="305164207"/>
    <nd ref="305164208"/>
    <nd ref="305164209"/>
    <tag k="highway" v="residential"/>
    <tag k="name" v="Sandbergstraße"/>
  </way>
  <way id="27792773" version="4" timestamp="2010-02-07T18:21:36Z" uid="9581" user="Lobelt" changeset="3817320">
    <nd ref="305164205"/>
    <nd ref="305164207"/>
    <nd ref="305164208"/>
    <nd ref="632664398"/>
    <nd ref="305164209"/>
    <tag k="highway" v="residential"/>
    <tag k="name" v="Sandbergstraße"/>
  </way>
  <way id="27792773" version="5" timestamp="2012-01-17T13:33:17Z" uid="195713" user="_torsten_" changeset="10417677"/>
  <way id="27792774" version="1" timestamp="2008-10-17T13:10:39Z" uid="9581" user="Lobelt" changeset="391285">
    <nd ref="305164210"/>
    <nd ref="305164211"/>
    <nd ref="305164212"/>
    <tag k="highway" v="residential"/>
  </way>
  <way id="27792774" version="2" timestamp="2010-01-25T22:16:15Z" uid="224595" user="toboe" changeset="3715211">
    <nd ref="305164210"/>
    <nd ref="305164211"/>
    <nd ref="305164212"/>
    <tag k="highway" v="Am Freibad"/>
  </way>
  <way id="27792774" version="3" timestamp="2010-01-28T22:09:21Z" uid="149097" user="AlexanderF" changeset="3739551">
    <nd ref="305164210"/>
    <nd ref="305164211"/>
    <nd ref="305164212"/>
    <tag k="highway" v="residential"/>
    <tag k="name" v="Am Freibad"/>
  </way>
  <way id="27792774" version="4" timestamp="2012-01-17T13:33:17Z" uid="195713" user="_torsten_" changeset="10417677"/>
  <way id="27792775" version="1" timestamp="2008-10-17T13:10:39Z" uid="9581" user="Lobelt" changeset="391285">
    <nd ref="305164213"/>
    <nd ref="239839882"/>
    <nd ref="305164183"/>
    <nd ref="239839850"/>
    <nd ref="239839834"/>
    <nd ref="239839900"/>
    <nd ref="239839915"/>
    <nd ref="239839929"/>
    <nd ref="239839947"/>
    <nd ref="239839819"/>
    <tag k="created_by" v="JOSM"/>
    <tag k="highway" v="residential"/>
    <tag k="name" v="Auenweg"/>
  </way>
  <way id="27792775" version="2" timestamp="2009-08-05T11:39:25Z" uid="110639" user="aighes" changeset="2045310">
    <nd ref="305164213"/>
    <nd ref="239839882"/>
    <nd ref="305164183"/>
    <nd ref="239839850"/>
    <nd ref="239839834"/>
    <nd ref="239839900"/>
    <nd ref="239839915"/>
    <nd ref="239839929"/>
    <nd ref="239839947"/>
    <nd ref="239839819"/>
    <tag k="highway" v="residential"/>
    <tag k="name" v="Auenweg"/>
    <tag k="rcn" v="yes"/>
    <tag k="rcn_ref" v="Ilm"/>
  </way>
  <way id="27792775" version="3" timestamp="2010-02-07T18:21:35Z" uid="9581" user="Lobelt" changeset="3817320">
    <nd ref="305164213"/>
    <nd ref="239839882"/>
    <nd ref="632664346"/>
    <nd ref="305164183"/>
    <nd ref="239839850"/>
    <nd ref="239839834"/>
    <nd ref="239839900"/>
    <nd ref="239839915"/>
    <nd ref="239839929"/>
    <nd ref="239839947"/>
    <nd ref="239839819"/>
    <tag k="highway" v="residential"/>
    <tag k="name" v="Auenweg"/>
    <tag k="rcn" v="yes"/>
    <tag k="rcn_ref" v="Ilm"/>
  </way>
  <way id="27792775" version="4" timestamp="2010-05-20T16:36:46Z" uid="250702" user="rolandvongilead" changeset="4758995">
    <nd ref="305164213"/>
    <nd ref="239839882"/>
    <nd ref="632664346"/>
    <nd ref="305164183"/>
    <nd ref="239839850"/>
    <nd ref="239839834"/>
    <nd ref="239839900"/>
    <nd ref="239839915"/>
    <nd ref="239839929"/>
    <nd ref="239839947"/>
    <nd ref="239839819"/>
    <tag k="highway" v="residential"/>
    <tag k="name" v="Auenweg"/>
    <tag k="rcn" v="yes"/>
    <tag k="rcn_ref" v="Ilm"/>
    <tag k="surface" v="asphalt"/>
  </way>
  <way id="27792775" version="5" timestamp="2010-07-29T11:37:37Z" uid="179103" user="pabrabbin" changeset="5345935">
    <nd ref="305164213"/>
    <nd ref="239839882"/>
    <nd ref="632664346"/>
    <nd ref="305164183"/>
    <nd ref="239839850"/>
    <nd ref="239839834"/>
    <nd ref="239839900"/>
    <nd ref="239839915"/>
    <nd ref="239839929"/>
    <nd ref="239839947"/>
    <nd ref="239839819"/>
    <tag k="highway" v="residential"/>
    <tag k="name" v="Auenweg"/>
    <tag k="surface" v="asphalt"/>
  </way>
  <way id="27792775" version="6" timestamp="2010-09-20T17:59:21Z" uid="195713" user="_torsten_" changeset="5831071">
    <nd ref="305164213"/>
    <nd ref="239839882"/>
    <nd ref="632664346"/>
    <nd ref="305164183"/>
    <nd ref="239839850"/>
    <nd ref="239839834"/>
    <nd ref="239839900"/>
    <nd ref="239839915"/>
    <nd ref="239839947"/>
    <nd ref="239839819"/>
    <tag k="highway" v="residential"/>
    <tag k="name" v="Auenweg"/>
    <tag k="surface" v="asphalt"/>
  </way>
  <way id="27792775" version="7" timestamp="2012-01-17T13:32:57Z" uid="195713" user="_torsten_" changeset="10417677">
    <nd ref="239839882"/>
    <nd ref="632664346"/>
    <nd ref="305164183"/>
    <nd ref="239839850"/>
    <nd ref="239839834"/>
    <nd ref="239839900"/>
    <nd ref="239839915"/>
    <nd ref="239839947"/>
    <nd ref="239839819"/>
    <tag k="highway" v="residential"/>
    <tag k="name" v="Auenweg"/>
    <tag k="surface" v="asphalt"/>
  </way>
  <way id="27792775" version="8" timestamp="2012-01-17T18:38:13Z" uid="195713" user="_torsten_" changeset="10420494">
    <nd ref="1595097498"/>
    <nd ref="1595098066"/>
    <nd ref="1595097922"/>
    <nd ref="1595098259"/>
    <nd ref="1595098308"/>
    <nd ref="1595097600"/>
    <nd ref="1595097604"/>
    <nd ref="1595098287"/>
    <nd ref="1595096469"/>
    <nd ref="1595096425"/>
    <nd ref="1595096407"/>
    <nd ref="1595096379"/>
    <nd ref="1595095916"/>
    <nd ref="1595095890"/>
    <nd ref="239839819"/>
    <tag k="highway" v="residential"/>
    <tag k="name" v="Auenweg"/>
    <tag k="surface" v="asphalt"/>
  </way>
  <way id="27792775" version="9" timestamp="2012-01-18T10:22:48Z" uid="195713" user="_torsten_" changeset="10425953"/>
  <way id="27792776" version="1" timestamp="2008-10-17T13:10:40Z" uid="9581" user="Lobelt" changeset="391285">
    <nd ref="305164214"/>
    <nd ref="305164213"/>
    <tag k="bridge" v="yes"/>
    <tag k="created_by" v="JOSM"/>
    <tag k="highway" v="residential"/>
    <tag k="layer" v="1"/>
    <tag k="name" v="Auenweg"/>
  </way>
  <way id="27792776" version="2" timestamp="2009-08-05T11:39:25Z" uid="110639" user="aighes" changeset="2045310">
    <nd ref="305164214"/>
    <nd ref="305164213"/>
    <tag k="bridge" v="yes"/>
    <tag k="highway" v="residential"/>
    <tag k="layer" v="1"/>
    <tag k="name" v="Auenweg"/>
    <tag k="rcn" v="yes"/>
    <tag k="rcn_ref" v="Ilm"/>
  </way>
  <way id="27792776" version="3" timestamp="2010-07-29T11:37:33Z" uid="179103" user="pabrabbin" changeset="5345935">
    <nd ref="305164214"/>
    <nd ref="305164213"/>
    <tag k="bridge" v="yes"/>
    <tag k="highway" v="residential"/>
    <tag k="layer" v="1"/>
    <tag k="name" v="Auenweg"/>
  </way>
  <way id="27792776" version="4" timestamp="2012-01-17T13:33:18Z" uid="195713" user="_torsten_" changeset="10417677"/>
  <way id="27792778" version="1" timestamp="2008-10-17T13:10:44Z" uid="43863" user="Rundling" changeset="390419">
    <nd ref="305164523"/>
    <nd ref="305164524"/>
    <nd ref="305164521"/>
    <nd ref="305164522"/>
    <nd ref="305164523"/>
    <tag k="addr:city" v="Rätzlingen"/>
    <tag k="addr:housenumber" v="1"/>
    <tag k="addr:postcode" v="29590"/>
    <tag k="addr:street" v="Hanstedter Straße"/>
    <tag k="building" v="yes"/>
    <tag k="created_by" v="Merkaartor 0.11"/>
  </way>
  <way id="27792779" version="1" timestamp="2008-10-17T13:10:44Z" uid="43863" user="Rundling" changeset="390419">
    <nd ref="305164528"/>
    <nd ref="305164526"/>
    <nd ref="305164525"/>
    <nd ref="305164527"/>
    <nd ref="305164528"/>
    <tag k="addr:city" v="Rätzlingen"/>
    <tag k="addr:housenumber" v="5"/>
    <tag k="addr:postcode" v="29590"/>
    <tag k="addr:street" v="Hanstedter Straße"/>
    <tag k="building" v="yes"/>
    <tag k="created_by" v="Merkaartor 0.11"/>
  </way>
  <way id="27792780" version="1" timestamp="2008-10-17T13:10:45Z" uid="43863" user="Rundling" changeset="390419">
    <nd ref="305164532"/>
    <nd ref="305164530"/>
    <nd ref="305164529"/>
    <nd ref="305164531"/>
    <nd ref="305164532"/>
    <tag k="addr:city" v="Rätzlingen"/>
    <tag k="addr:housenumber" v="7"/>
    <tag k="addr:postcode" v="29590"/>
    <tag k="addr:street" v="Hanstedter Straße"/>
    <tag k="building" v="yes"/>
    <tag k="created_by" v="Merkaartor 0.11"/>
  </way>
  <way id="27792801" version="5" timestamp="2010-03-23T17:56:08Z" uid="115477" user="wowik" changeset="4214320">
    <nd ref="305164676"/>
    <nd ref="672819178"/>
    <nd ref="305164665"/>
    <nd ref="305164668"/>
    <nd ref="305164669"/>
    <nd ref="305164670"/>
    <nd ref="311844941"/>
    <nd ref="305164672"/>
    <nd ref="305164673"/>
    <nd ref="305164676"/>
    <tag k="landuse" v="retail"/>
    <tag k="name" v="Строительный рынок"/>
  </way>
  <way id="27792802" version="3" timestamp="2010-02-15T06:04:09Z" uid="74617" user="JohnSmith" changeset="3880328">
    <nd ref="305163852"/>
    <nd ref="305164689"/>
    <nd ref="305164690"/>
    <nd ref="193697821"/>
    <tag k="highway" v="secondary"/>
    <tag k="oneway" v="yes"/>
  </way>
  <way id="27792806" version="3" timestamp="2009-02-11T11:46:19Z" uid="9581" user="Lobelt" changeset="344494">
    <nd ref="305164510"/>
    <nd ref="305164511"/>
    <tag k="created_by" v="Potlatch 0.10e"/>
    <tag k="highway" v="track"/>
  </way>
  <way id="27792806" version="4" timestamp="2010-09-11T20:56:49Z" uid="110639" user="aighes" changeset="5753577">
    <nd ref="305164510"/>
    <nd ref="305164511"/>
    <tag k="highway" v="track"/>
  </way>
  <way id="27792806" version="5" timestamp="2011-05-26T08:28:28Z" uid="46862" user="Mayer" changeset="8251271">
    <nd ref="305164510"/>
    <nd ref="305164511"/>
    <tag k="highway" v="track"/>
    <tag k="tracktype" v="grade3"/>
  </way>
  <way id="27792813" version="3" timestamp="2010-02-15T06:04:09Z" uid="74617" user="JohnSmith" changeset="3880328">
    <nd ref="305164536"/>
    <nd ref="305164856"/>
    <nd ref="305164857"/>
    <nd ref="305164095"/>
    <tag k="highway" v="tertiary"/>
    <tag k="oneway" v="yes"/>
  </way>
  <way id="27792819" version="3" timestamp="2010-02-15T06:04:09Z" uid="74617" user="JohnSmith" changeset="3880328">
    <nd ref="305164095"/>
    <nd ref="305164925"/>
    <nd ref="305164927"/>
    <nd ref="305164590"/>
    <tag k="highway" v="tertiary"/>
    <tag k="oneway" v="yes"/>
  </way>
  <way id="27792828" version="3" timestamp="2010-02-15T06:04:12Z" uid="74617" user="JohnSmith" changeset="3880328">
    <nd ref="305163741"/>
    <nd ref="305164985"/>
    <nd ref="305164986"/>
    <tag k="highway" v="tertiary"/>
    <tag k="oneway" v="yes"/>
  </way>
  <way id="27792830" version="1" timestamp="2008-10-17T13:12:51Z" uid="43863" user="Rundling" changeset="390419">
    <nd ref="305164997"/>
    <nd ref="305164995"/>
    <nd ref="305164993"/>
    <nd ref="305164996"/>
    <nd ref="305164997"/>
    <tag k="addr:city" v="Rätzlingen"/>
    <tag k="addr:housenumber" v="9"/>
    <tag k="addr:postcode" v="29590"/>
    <tag k="addr:street" v="Dichter-Schulze-Straße"/>
    <tag k="building" v="yes"/>
    <tag k="created_by" v="Merkaartor 0.11"/>
  </way>
  <way id="27792831" version="1" timestamp="2008-10-17T13:12:52Z" uid="43863" user="Rundling" changeset="390419">
    <nd ref="305165001"/>
    <nd ref="305164999"/>
    <nd ref="305165000"/>
    <nd ref="305164998"/>
    <nd ref="305165001"/>
    <tag k="addr:city" v="Rätzlingen"/>
    <tag k="addr:housenumber" v="1"/>
    <tag k="addr:postcode" v="29590"/>
    <tag k="addr:street" v="Dichter-Schulze-Straße"/>
    <tag k="building" v="yes"/>
    <tag k="created_by" v="Merkaartor 0.11"/>
  </way>
  <way id="27792832" version="1" timestamp="2008-10-17T13:12:52Z" uid="43863" user="Rundling" changeset="390419">
    <nd ref="305165005"/>
    <nd ref="305165003"/>
    <nd ref="305165004"/>
    <nd ref="305165002"/>
    <nd ref="305165005"/>
    <tag k="addr:city" v="Rätzlingen"/>
    <tag k="addr:housenumber" v="3"/>
    <tag k="addr:postcode" v="29590"/>
    <tag k="addr:street" v="Dichter-Schulze-Straße"/>
    <tag k="building" v="yes"/>
    <tag k="created_by" v="Merkaartor 0.11"/>
  </way>
  <way id="27792838" version="3" timestamp="2010-02-15T06:04:11Z" uid="74617" user="JohnSmith" changeset="3880328">
    <nd ref="305165028"/>
    <nd ref="305165029"/>
    <nd ref="305163741"/>
    <tag k="highway" v="tertiary"/>
    <tag k="oneway" v="yes"/>
  </way>
  <way id="27792860" version="2" timestamp="2011-05-01T21:53:28Z" uid="9581" user="Lobelt" changeset="8026477">
    <nd ref="305165207"/>
    <nd ref="305165436"/>
    <nd ref="305165437"/>
    <nd ref="305165438"/>
    <nd ref="305165439"/>
    <nd ref="287870206"/>
    <tag k="highway" v="track"/>
  </way>
  <way id="27792882" version="3" timestamp="2010-02-15T06:04:11Z" uid="74617" user="JohnSmith" changeset="3880328">
    <nd ref="305164986"/>
    <nd ref="305165593"/>
    <nd ref="305163938"/>
    <nd ref="305165594"/>
    <nd ref="305162681"/>
    <nd ref="305165595"/>
    <nd ref="305165028"/>
    <nd ref="305165596"/>
    <nd ref="305164986"/>
    <tag k="highway" v="tertiary"/>
    <tag k="junction" v="roundabout"/>
  </way>
  <way id="27792907" version="1" timestamp="2008-10-17T13:16:12Z" uid="43863" user="Rundling" changeset="390419">
    <nd ref="305165741"/>
    <nd ref="305165739"/>
    <nd ref="305165740"/>
    <nd ref="305165738"/>
    <nd ref="305165741"/>
    <tag k="addr:city" v="Rätzlingen"/>
    <tag k="addr:housenumber" v="19"/>
    <tag k="addr:postcode" v="29590"/>
    <tag k="addr:street" v="Dichter-Schulze-Straße"/>
    <tag k="building" v="yes"/>
    <tag k="created_by" v="Merkaartor 0.11"/>
  </way>
  <way id="27792908" version="1" timestamp="2008-10-17T13:16:13Z" uid="43863" user="Rundling" changeset="390419">
    <nd ref="305165745"/>
    <nd ref="305165743"/>
    <nd ref="305165744"/>
    <nd ref="305165742"/>
    <nd ref="305165745"/>
    <tag k="addr:city" v="Rätzlingen"/>
    <tag k="addr:housenumber" v="17"/>
    <tag k="addr:postcode" v="29590"/>
    <tag k="addr:street" v="Dichter-Schulze-Straße"/>
    <tag k="building" v="yes"/>
    <tag k="created_by" v="Merkaartor 0.11"/>
  </way>
  <way id="27792909" version="1" timestamp="2008-10-17T13:16:13Z" uid="43863" user="Rundling" changeset="390419">
    <nd ref="305165749"/>
    <nd ref="305165747"/>
    <nd ref="305165748"/>
    <nd ref="305165746"/>
    <nd ref="305165749"/>
    <tag k="addr:city" v="Rätzlingen"/>
    <tag k="addr:housenumber" v="15"/>
    <tag k="addr:postcode" v="29590"/>
    <tag k="addr:street" v="Dichter-Schulze-Straße"/>
    <tag k="building" v="yes"/>
    <tag k="created_by" v="Merkaartor 0.11"/>
  </way>
  <way id="27792911" version="1" timestamp="2008-10-17T13:16:14Z" uid="43863" user="Rundling" changeset="390419">
    <nd ref="305165753"/>
    <nd ref="305165751"/>
    <nd ref="305165752"/>
    <nd ref="305165750"/>
    <nd ref="305165753"/>
    <tag k="addr:city" v="Rätzlingen"/>
    <tag k="addr:housenumber" v="13"/>
    <tag k="addr:postcode" v="29590"/>
    <tag k="addr:street" v="Dichter-Schulze-Straße"/>
    <tag k="building" v="yes"/>
    <tag k="created_by" v="Merkaartor 0.11"/>
  </way>
  <way id="27792912" version="1" timestamp="2008-10-17T13:16:14Z" uid="43863" user="Rundling" changeset="390419">
    <nd ref="305165757"/>
    <nd ref="305165755"/>
    <nd ref="305165756"/>
    <nd ref="305165754"/>
    <nd ref="305165757"/>
    <tag k="addr:city" v="Rätzlingen"/>
    <tag k="addr:housenumber" v="4"/>
    <tag k="addr:postcode" v="29590"/>
    <tag k="addr:street" v="Dichter-Schulze-Straße"/>
    <tag k="building" v="yes"/>
    <tag k="created_by" v="Merkaartor 0.11"/>
  </way>
  <way id="27792912" version="2" timestamp="2011-01-27T14:21:16Z" uid="43863" user="Rundling" changeset="7104061">
    <nd ref="305165757"/>
    <nd ref="305165755"/>
    <nd ref="305165756"/>
    <nd ref="305165754"/>
    <nd ref="305165757"/>
    <tag k="addr:city" v="Rätzlingen"/>
    <tag k="addr:housenumber" v="4"/>
    <tag k="addr:postcode" v="29590"/>
    <tag k="addr:street" v="Dichter-Schulze-Straße"/>
    <tag k="building" v="yes"/>
  </way>
  <way id="27792913" version="1" timestamp="2008-10-17T13:16:14Z" uid="43863" user="Rundling" changeset="390419">
    <nd ref="305165761"/>
    <nd ref="305165759"/>
    <nd ref="305165760"/>
    <nd ref="305165758"/>
    <nd ref="305165761"/>
    <tag k="addr:city" v="Rätzlingen"/>
    <tag k="addr:housenumber" v="2"/>
    <tag k="addr:postcode" v="29590"/>
    <tag k="addr:street" v="Dichter-Schulze-Straße"/>
    <tag k="building" v="yes"/>
    <tag k="created_by" v="Merkaartor 0.11"/>
  </way>
  <way id="27792950" version="5" timestamp="2010-02-15T06:04:06Z" uid="74617" user="JohnSmith" changeset="3880328">
    <nd ref="305165595"/>
    <nd ref="305165971"/>
    <nd ref="305165972"/>
    <nd ref="305165973"/>
    <nd ref="305165974"/>
    <nd ref="305942467"/>
    <nd ref="305165975"/>
    <nd ref="305165976"/>
    <nd ref="305165977"/>
    <nd ref="305165978"/>
    <nd ref="305165979"/>
    <nd ref="305165980"/>
    <tag k="highway" v="residential"/>
    <tag k="maxspeed" v="50"/>
  </way>
  <way id="27792950" version="6" timestamp="2010-04-30T08:44:50Z" uid="4467" user="Rosscoe" changeset="4564191">
    <nd ref="305165595"/>
    <nd ref="305165971"/>
    <nd ref="305165972"/>
    <nd ref="305165973"/>
    <nd ref="305165974"/>
    <nd ref="305942467"/>
    <nd ref="305165975"/>
    <nd ref="305165976"/>
    <nd ref="305165977"/>
    <nd ref="305165978"/>
    <nd ref="305165979"/>
    <nd ref="712909353"/>
    <tag k="highway" v="residential"/>
    <tag k="maxspeed" v="50"/>
  </way>
  <way id="27792950" version="7" timestamp="2011-10-30T11:51:55Z" uid="22117" user="Crew 153" changeset="9692840">
    <nd ref="305165595"/>
    <nd ref="305165971"/>
    <nd ref="305165972"/>
    <nd ref="305165973"/>
    <nd ref="305165974"/>
    <nd ref="305942467"/>
    <nd ref="305165975"/>
    <nd ref="305165976"/>
    <nd ref="305165977"/>
    <nd ref="305165978"/>
    <nd ref="305165979"/>
    <nd ref="712909353"/>
    <tag k="highway" v="residential"/>
    <tag k="maxspeed" v="50"/>
    <tag k="name" v="Highridge Road"/>
    <tag k="surface" v="asphalt"/>
  </way>
  <way id="27792950" version="8" timestamp="2012-01-17T08:21:47Z" uid="147510" user="woodpeck_fixbot" changeset="10414499">
    <nd ref="305165595"/>
    <nd ref="305165971"/>
    <nd ref="305165972"/>
    <nd ref="305165973"/>
    <nd ref="305165974"/>
    <nd ref="305942467"/>
    <nd ref="305165975"/>
    <nd ref="305165976"/>
    <nd ref="305165977"/>
    <nd ref="305165978"/>
    <nd ref="305165979"/>
    <nd ref="712909353"/>
    <tag k="highway" v="residential"/>
    <tag k="name" v="Highridge Road"/>
    <tag k="surface" v="asphalt"/>
  </way>
  <way id="27792953" version="3" timestamp="2010-02-15T06:04:17Z" uid="74617" user="JohnSmith" changeset="3880328">
    <nd ref="305162797"/>
    <nd ref="305166007"/>
    <nd ref="305166010"/>
    <nd ref="305166012"/>
    <tag k="highway" v="tertiary"/>
    <tag k="oneway" v="yes"/>
  </way>
  <way id="27792980" version="1" timestamp="2008-10-17T13:18:33Z" uid="43863" user="Rundling" changeset="390419">
    <nd ref="305166149"/>
    <nd ref="305166148"/>
    <nd ref="305166146"/>
    <nd ref="305166147"/>
    <nd ref="305166149"/>
    <tag k="addr:city" v="Rätzlingen"/>
    <tag k="addr:housenumber" v="13"/>
    <tag k="addr:postcode" v="29590"/>
    <tag k="addr:street" v="Hauptstraße"/>
    <tag k="amenity" v="restaurant"/>
    <tag k="building" v="yes"/>
    <tag k="created_by" v="Merkaartor 0.11"/>
    <tag k="name" v="Gasthaus zur Post"/>
  </way>
  <way id="27792980" version="2" timestamp="2008-10-17T13:19:16Z" uid="43863" user="Rundling" changeset="390419">
    <nd ref="305166149"/>
    <nd ref="305166148"/>
    <nd ref="305166146"/>
    <nd ref="305166147"/>
    <nd ref="305166149"/>
    <tag k="addr:city" v="Rätzlingen"/>
    <tag k="addr:housenumber" v="13"/>
    <tag k="addr:postcode" v="29590"/>
    <tag k="addr:street" v="Hauptstraße"/>
    <tag k="building" v="yes"/>
    <tag k="created_by" v="Merkaartor 0.11"/>
    <tag k="name" v="Gasthaus zur Post"/>
    <tag k="tourism" v="hotel"/>
  </way>
  <way id="27792980" version="3" timestamp="2008-10-28T18:18:56Z" uid="43863" user="Rundling" changeset="614406">
    <nd ref="305166149"/>
    <nd ref="305166148"/>
    <nd ref="305166146"/>
    <nd ref="305166147"/>
    <nd ref="305166149"/>
    <tag k="addr:city" v="Rätzlingen"/>
    <tag k="addr:housenumber" v="13"/>
    <tag k="addr:postcode" v="29590"/>
    <tag k="addr:street" v="Hauptstraße"/>
    <tag k="amenity" v="pub"/>
    <tag k="building" v="yes"/>
    <tag k="created_by" v="Potlatch 0.10e"/>
    <tag k="name" v="Gasthaus zur Post"/>
    <tag k="tourism" v="hotel"/>
  </way>
  <way id="27792980" version="4" timestamp="2009-05-22T14:39:14Z" uid="43863" user="Rundling" changeset="1286913">
    <nd ref="305166149"/>
    <nd ref="305166148"/>
    <nd ref="305166146"/>
    <nd ref="305166147"/>
    <nd ref="305166149"/>
    <tag k="addr:city" v="Rätzlingen"/>
    <tag k="addr:housenumber" v="13"/>
    <tag k="addr:postcode" v="29590"/>
    <tag k="addr:street" v="Hauptstraße"/>
    <tag k="amenity" v="pub"/>
    <tag k="building" v="yes"/>
    <tag k="name" v="Gasthaus zur Post"/>
  </way>
  <way id="27792980" version="5" timestamp="2009-05-24T09:00:49Z" uid="43863" user="Rundling" changeset="1303161">
    <nd ref="305166149"/>
    <nd ref="305166148"/>
    <nd ref="305166146"/>
    <nd ref="305166147"/>
    <nd ref="305166149"/>
    <tag k="addr:city" v="Rätzlingen"/>
    <tag k="addr:housenumber" v="13"/>
    <tag k="addr:postcode" v="29590"/>
    <tag k="addr:street" v="Hauptstraße"/>
    <tag k="building" v="yes"/>
    <tag k="name" v="Gasthaus zur Post"/>
    <tag k="restaurant" v="yes"/>
    <tag k="tourism" v="hotel"/>
  </way>
  <way id="27792980" version="6" timestamp="2011-02-01T11:09:58Z" uid="51324" user="OPerivar" changeset="7153322">
    <nd ref="305166149"/>
    <nd ref="305166148"/>
    <nd ref="305166146"/>
    <nd ref="305166147"/>
    <nd ref="305166149"/>
    <tag k="addr:city" v="Rätzlingen"/>
    <tag k="addr:country" v="DE"/>
    <tag k="addr:housenumber" v="13"/>
    <tag k="addr:postcode" v="29590"/>
    <tag k="addr:street" v="Hauptstraße"/>
    <tag k="building" v="yes"/>
    <tag k="name" v="Gasthaus zur Post"/>
    <tag k="restaurant" v="yes"/>
    <tag k="tourism" v="hotel"/>
  </way>
  <way id="27792980" version="7" timestamp="2012-03-08T12:32:40Z" uid="4363" user="Pmz" changeset="10908773">
    <nd ref="305166149"/>
    <nd ref="305166148"/>
    <nd ref="305166146"/>
    <nd ref="305166147"/>
    <nd ref="305166149"/>
    <tag k="addr:city" v="Rätzlingen"/>
    <tag k="addr:country" v="DE"/>
    <tag k="addr:housenumber" v="13"/>
    <tag k="addr:postcode" v="29590"/>
    <tag k="addr:street" v="Hauptstraße"/>
    <tag k="amenity" v="restaurant"/>
    <tag k="building" v="yes"/>
    <tag k="name" v="Gasthaus zur Post"/>
    <tag k="tourism" v="hotel"/>
  </way>
  <way id="27792022" version="5" timestamp="2012-07-19T12:18:27Z" uid="722137" user="OSMF Redaction Account" changeset="12324296">
    <nd ref="304872292"/>
    <nd ref="305128391"/>
    <nd ref="304871869"/>
    <tag k="highway" v="residential"/>
    <tag k="name" v="Rajah street"/>
    <tag k="source" v="GPS trace"/>
    <tag k="surface" v="paved"/>
  </way>
  <way id="27792044" version="7" timestamp="2012-07-20T15:16:08Z" uid="722137" user="OSMF Redaction Account" changeset="12380925">
    <nd ref="305158199"/>
    <nd ref="722893065"/>
    <nd ref="722892981"/>
    <nd ref="305158198"/>
    <nd ref="480688988"/>
    <tag k="highway" v="secondary"/>
    <tag k="name" v="улица Карла Маркса"/>
    <tag k="oneway" v="true"/>
  </way>
  <way id="27792111" version="2" timestamp="2012-07-18T16:50:54Z" uid="722137" user="OSMF Redaction Account" changeset="12289523"/>
  <way id="27792112" version="2" timestamp="2012-07-18T16:50:53Z" uid="722137" user="OSMF Redaction Account" changeset="12289523"/>
  <way id="27792113" version="2" timestamp="2012-07-18T16:50:53Z" uid="722137" user="OSMF Redaction Account" changeset="12289523"/>
  <way id="27792114" version="2" timestamp="2012-07-18T16:50:53Z" uid="722137" user="OSMF Redaction Account" changeset="12289523"/>
  <way id="27792164" version="6" timestamp="2012-07-19T12:18:29Z" uid="722137" user="OSMF Redaction Account" changeset="12324296">
    <nd ref="304879165"/>
    <nd ref="304879215"/>
    <nd ref="304879216"/>
    <nd ref="304879217"/>
    <nd ref="304879219"/>
    <nd ref="304879220"/>
    <nd ref="304879221"/>
    <tag k="highway" v="residential"/>
    <tag k="name" v="Tower street"/>
    <tag k="source" v="GPS trace"/>
    <tag k="surface" v="paved"/>
  </way>
  <way id="27792183" version="2" timestamp="2012-04-06T12:15:12Z" uid="161619" user="FvGordon" changeset="11200746"/>
  <way id="27792185" version="2" timestamp="2012-07-18T16:50:52Z" uid="722137" user="OSMF Redaction Account" changeset="12289523"/>
  <way id="27792186" version="2" timestamp="2012-07-18T16:50:52Z" uid="722137" user="OSMF Redaction Account" changeset="12289523"/>
  <way id="27792247" version="2" timestamp="2012-07-18T16:50:51Z" uid="722137" user="OSMF Redaction Account" changeset="12289523"/>
  <way id="27792248" version="2" timestamp="2012-07-18T16:50:50Z" uid="722137" user="OSMF Redaction Account" changeset="12289523"/>
  <way id="27792249" version="2" timestamp="2012-07-18T16:50:50Z" uid="722137" user="OSMF Redaction Account" changeset="12289523"/>
  <way id="27792250" version="2" timestamp="2012-07-18T16:50:50Z" uid="722137" user="OSMF Redaction Account" changeset="12289523"/>
  <way id="27792251" version="2" timestamp="2012-07-18T16:50:48Z" uid="722137" user="OSMF Redaction Account" changeset="12289523"/>
  <way id="27792322" version="2" timestamp="2012-07-18T16:50:47Z" uid="722137" user="OSMF Redaction Account" changeset="12289523"/>
  <way id="27792324" version="2" timestamp="2012-07-18T16:50:50Z" uid="722137" user="OSMF Redaction Account" changeset="12289523"/>
  <way id="27792326" version="2" timestamp="2012-07-18T16:50:49Z" uid="722137" user="OSMF Redaction Account" changeset="12289523"/>
  <way id="27792327" version="2" timestamp="2012-07-18T16:50:49Z" uid="722137" user="OSMF Redaction Account" changeset="12289523"/>
  <way id="27792328" version="2" timestamp="2012-07-18T16:50:49Z" uid="722137" user="OSMF Redaction Account" changeset="12289523"/>
  <way id="27792329" version="2" timestamp="2012-07-18T16:50:49Z" uid="722137" user="OSMF Redaction Account" changeset="12289523"/>
  <way id="27792330" version="2" timestamp="2012-07-18T16:50:48Z" uid="722137" user="OSMF Redaction Account" changeset="12289523"/>
  <way id="27792331" version="2" timestamp="2012-07-18T16:50:48Z" uid="722137" user="OSMF Redaction Account" changeset="12289523"/>
  <way id="27792359" version="7" timestamp="2012-07-19T21:24:29Z" uid="722137" user="OSMF Redaction Account" changeset="12348019">
    <nd ref="305161505"/>
    <nd ref="305161506"/>
    <nd ref="305161507"/>
    <nd ref="305161508"/>
    <nd ref="305161509"/>
    <nd ref="305161510"/>
    <nd ref="305161511"/>
    <nd ref="305161512"/>
    <nd ref="305161513"/>
    <nd ref="305161514"/>
    <nd ref="305161515"/>
    <nd ref="305161516"/>
    <nd ref="305161517"/>
    <nd ref="305161518"/>
    <nd ref="305161519"/>
    <nd ref="305161520"/>
    <nd ref="305161521"/>
    <nd ref="305161522"/>
    <nd ref="305161523"/>
    <nd ref="305161524"/>
    <nd ref="305161525"/>
    <nd ref="305161526"/>
    <nd ref="305161527"/>
    <nd ref="305161528"/>
    <nd ref="305161529"/>
    <nd ref="305161531"/>
    <nd ref="305161532"/>
    <nd ref="305161533"/>
    <nd ref="305161534"/>
    <nd ref="305161535"/>
    <nd ref="305161536"/>
    <nd ref="305161537"/>
    <nd ref="305161538"/>
    <tag k="highway" v="residential"/>
  </way>
  <way id="27792403" version="2" timestamp="2012-07-18T16:50:54Z" uid="722137" user="OSMF Redaction Account" changeset="12289523"/>
  <way id="27792404" version="2" timestamp="2012-07-18T16:50:54Z" uid="722137" user="OSMF Redaction Account" changeset="12289523"/>
  <way id="27792405" version="2" timestamp="2012-07-18T16:50:54Z" uid="722137" user="OSMF Redaction Account" changeset="12289523"/>
  <way id="27792406" version="2" timestamp="2012-07-18T16:50:54Z" uid="722137" user="OSMF Redaction Account" changeset="12289523"/>
  <way id="27792407" version="2" timestamp="2012-07-18T16:50:53Z" uid="722137" user="OSMF Redaction Account" changeset="12289523"/>
  <way id="27792424" version="7" timestamp="2012-07-19T21:24:28Z" uid="722137" user="OSMF Redaction Account" changeset="12348019">
    <nd ref="305163741"/>
    <nd ref="305163742"/>
    <nd ref="305163744"/>
    <nd ref="305163745"/>
    <nd ref="305162012"/>
    <nd ref="305162013"/>
    <nd ref="305162014"/>
    <nd ref="305162016"/>
    <nd ref="305162017"/>
    <nd ref="305162018"/>
    <nd ref="305162019"/>
    <nd ref="305162020"/>
    <nd ref="305162021"/>
    <nd ref="305162022"/>
    <nd ref="305162023"/>
    <nd ref="305162024"/>
    <nd ref="305162025"/>
    <nd ref="305162026"/>
    <nd ref="305162027"/>
    <nd ref="305162028"/>
    <nd ref="305162029"/>
    <nd ref="305162030"/>
    <nd ref="305162031"/>
    <nd ref="305162032"/>
    <tag k="highway" v="tertiary"/>
  </way>
  <way id="27792524" version="2" timestamp="2012-07-18T16:50:53Z" uid="722137" user="OSMF Redaction Account" changeset="12289523"/>
  <way id="27792525" version="2" timestamp="2012-07-18T16:50:53Z" uid="722137" user="OSMF Redaction Account" changeset="12289523"/>
  <way id="27792526" version="2" timestamp="2012-07-18T16:50:53Z" uid="722137" user="OSMF Redaction Account" changeset="12289523"/>
  <way id="27792527" version="2" timestamp="2012-07-18T16:50:52Z" uid="722137" user="OSMF Redaction Account" changeset="12289523"/>
  <way id="27792528" version="2" timestamp="2012-07-18T16:50:52Z" uid="722137" user="OSMF Redaction Account" changeset="12289523"/>
  <way id="27792530" version="2" timestamp="2012-07-18T16:50:51Z" uid="722137" user="OSMF Redaction Account" changeset="12289523"/>
  <way id="27792531" version="2" timestamp="2012-07-18T16:50:51Z" uid="722137" user="OSMF Redaction Account" changeset="12289523"/>
  <way id="27792532" version="3" timestamp="2012-07-18T16:50:51Z" uid="722137" user="OSMF Redaction Account" changeset="12289523"/>
  <way id="27792574" version="10" timestamp="2012-07-19T21:24:29Z" uid="722137" user="OSMF Redaction Account" changeset="12348019">
    <nd ref="305163443"/>
    <nd ref="305163444"/>
    <nd ref="305163445"/>
    <nd ref="305161505"/>
    <nd ref="305163446"/>
    <nd ref="305163447"/>
    <nd ref="305163448"/>
    <nd ref="305163449"/>
    <nd ref="305163450"/>
    <nd ref="305163451"/>
    <nd ref="305163452"/>
    <nd ref="305163453"/>
    <nd ref="305163454"/>
    <nd ref="305163455"/>
    <nd ref="305163456"/>
    <nd ref="305163457"/>
    <nd ref="305163458"/>
    <nd ref="305163459"/>
    <nd ref="305163460"/>
    <nd ref="305163461"/>
    <nd ref="305163462"/>
    <nd ref="305163463"/>
    <nd ref="305163464"/>
    <nd ref="305163465"/>
    <nd ref="305163466"/>
    <tag k="highway" v="tertiary"/>
    <tag k="name" v="Woodcrest Way"/>
  </way>
  <way id="27792608" version="2" timestamp="2012-07-18T16:50:46Z" uid="722137" user="OSMF Redaction Account" changeset="12289523"/>
  <way id="27792654" version="8" timestamp="2012-07-19T21:24:25Z" uid="722137" user="OSMF Redaction Account" changeset="12348019">
    <nd ref="305164095"/>
    <nd ref="305164097"/>
    <nd ref="305164098"/>
    <nd ref="305164100"/>
    <nd ref="305164101"/>
    <nd ref="305164104"/>
    <nd ref="305165448"/>
    <tag k="highway" v="tertiary"/>
    <tag k="name" v="Springfield College Drive"/>
  </way>
  <way id="27792692" version="5" timestamp="2012-04-22T17:25:10Z" uid="603523" user="diverpl" changeset="11386534">
    <nd ref="321793604"/>
    <nd ref="1726854270"/>
    <tag k="highway" v="residential"/>
    <tag k="name" v="Mariana Falskiego"/>
  </way>
  <way id="27792708" version="3" timestamp="2012-07-17T11:46:47Z" uid="722137" user="OSMF Redaction Account" changeset="12264469"/>
  <way id="27792712" version="10" timestamp="2012-07-17T11:46:29Z" uid="722137" user="OSMF Redaction Account" changeset="12264469">
    <nd ref="305164361"/>
    <nd ref="305164356"/>
    <nd ref="539196118"/>
    <nd ref="305164364"/>
    <nd ref="305182044"/>
    <nd ref="305182045"/>
    <nd ref="539196119"/>
    <nd ref="539196120"/>
    <nd ref="305164369"/>
    <nd ref="539196121"/>
    <nd ref="365931140"/>
    <nd ref="305164375"/>
    <nd ref="365931141"/>
    <nd ref="305164379"/>
    <nd ref="305164385"/>
    <nd ref="305164390"/>
    <nd ref="305164396"/>
    <nd ref="365931147"/>
    <nd ref="305164401"/>
    <nd ref="305164409"/>
    <nd ref="305164411"/>
    <nd ref="534940727"/>
    <nd ref="305164413"/>
    <nd ref="305164477"/>
    <nd ref="305164361"/>
    <tag k="landuse" v="military"/>
  </way>
  <way id="27792712" version="11" timestamp="2012-07-18T01:59:29Z" uid="740427" user="Redaction Account Bugfix" changeset="12274066">
    <nd ref="305164361"/>
    <nd ref="305164356"/>
    <nd ref="539196118"/>
    <nd ref="305164364"/>
    <nd ref="305182044"/>
    <nd ref="305182045"/>
    <nd ref="539196119"/>
    <nd ref="539196120"/>
    <nd ref="305164369"/>
    <nd ref="539196121"/>
    <nd ref="365931140"/>
    <nd ref="305164375"/>
    <nd ref="365931141"/>
    <nd ref="305164379"/>
    <nd ref="305164385"/>
    <nd ref="305164390"/>
    <nd ref="305164396"/>
    <nd ref="365931147"/>
    <nd ref="320935656"/>
    <nd ref="305164401"/>
    <nd ref="305164409"/>
    <nd ref="305164411"/>
    <nd ref="534940727"/>
    <nd ref="305164413"/>
    <nd ref="305164477"/>
    <nd ref="305164361"/>
    <tag k="landuse" v="military"/>
  </way>
  <way id="27792718" version="3" timestamp="2012-08-23T08:14:02Z" uid="717069" user="Ventlan" changeset="12829388">
    <nd ref="428923464"/>
    <nd ref="428923463"/>
    <nd ref="428923465"/>
    <nd ref="534940723"/>
    <nd ref="1878999937"/>
    <nd ref="1878999936"/>
    <nd ref="305164446"/>
    <nd ref="305164445"/>
    <nd ref="305164443"/>
    <nd ref="305164444"/>
    <nd ref="321806628"/>
    <nd ref="321806629"/>
    <nd ref="321806625"/>
    <nd ref="321806623"/>
    <nd ref="321806626"/>
    <nd ref="498568955"/>
    <nd ref="359953025"/>
    <tag k="cables" v="3"/>
    <tag k="power" v="line"/>
    <tag k="ref" v="1-5-53"/>
    <tag k="voltage" v="110000"/>
  </way>
  <way id="27792778" version="2" timestamp="2012-07-18T16:50:47Z" uid="722137" user="OSMF Redaction Account" changeset="12289523"/>
  <way id="27792779" version="2" timestamp="2012-07-18T16:50:47Z" uid="722137" user="OSMF Redaction Account" changeset="12289523"/>
  <way id="27792780" version="2" timestamp="2012-07-18T16:50:46Z" uid="722137" user="OSMF Redaction Account" changeset="12289523"/>
  <way id="27792801" version="6" timestamp="2012-07-20T21:14:43Z" uid="722137" user="OSMF Redaction Account" changeset="12392155">
    <nd ref="305164665"/>
    <nd ref="305164668"/>
    <nd ref="305164669"/>
    <nd ref="305164670"/>
    <nd ref="311844941"/>
    <nd ref="305164672"/>
    <nd ref="305164673"/>
    <nd ref="305164676"/>
    <tag k="landuse" v="retail"/>
    <tag k="name" v="Строительный рынок"/>
  </way>
  <way id="27792801" version="7" timestamp="2012-07-26T18:48:36Z" uid="314211" user="OldIvantey" changeset="12502605">
    <nd ref="305164665"/>
    <nd ref="305164668"/>
    <nd ref="305164669"/>
    <nd ref="305164670"/>
    <nd ref="311844941"/>
    <nd ref="305164672"/>
    <nd ref="305164673"/>
    <nd ref="305164676"/>
    <nd ref="1839035514"/>
    <nd ref="1839035506"/>
    <nd ref="1839035507"/>
    <nd ref="305164665"/>
    <tag k="landuse" v="retail"/>
    <tag k="name" v="Строительный рынок"/>
  </way>
  <way id="27792830" version="2" timestamp="2012-07-18T16:50:45Z" uid="722137" user="OSMF Redaction Account" changeset="12289523"/>
  <way id="27792831" version="2" timestamp="2012-07-18T16:50:47Z" uid="722137" user="OSMF Redaction Account" changeset="12289523"/>
  <way id="27792832" version="2" timestamp="2012-07-18T16:50:46Z" uid="722137" user="OSMF Redaction Account" changeset="12289523"/>
  <way id="27792882" version="4" timestamp="2012-08-26T10:07:36Z" uid="408202" user="BFX" changeset="12862790">
    <nd ref="305164986"/>
    <nd ref="1883541815"/>
    <nd ref="305165593"/>
    <nd ref="1883541813"/>
    <nd ref="305163938"/>
    <nd ref="1883541811"/>
    <nd ref="305165594"/>
    <nd ref="1883541807"/>
    <nd ref="305162681"/>
    <nd ref="1883541805"/>
    <nd ref="305165595"/>
    <nd ref="1883541810"/>
    <nd ref="305165028"/>
    <nd ref="1883541812"/>
    <nd ref="305165596"/>
    <nd ref="1883541814"/>
    <nd ref="305164986"/>
    <tag k="highway" v="tertiary"/>
    <tag k="junction" v="roundabout"/>
  </way>
  <way id="27792907" version="2" timestamp="2012-07-18T16:50:45Z" uid="722137" user="OSMF Redaction Account" changeset="12289523"/>
  <way id="27792908" version="2" timestamp="2012-07-18T16:50:46Z" uid="722137" user="OSMF Redaction Account" changeset="12289523"/>
  <way id="27792909" version="2" timestamp="2012-07-18T16:50:46Z" uid="722137" user="OSMF Redaction Account" changeset="12289523"/>
  <way id="27792911" version="2" timestamp="2012-07-18T16:50:46Z" uid="722137" user="OSMF Redaction Account" changeset="12289523"/>
  <way id="27792912" version="3" timestamp="2012-07-18T16:50:47Z" uid="722137" user="OSMF Redaction Account" changeset="12289523"/>
  <way id="27792913" version="2" timestamp="2012-07-18T16:50:47Z" uid="722137" user="OSMF Redaction Account" changeset="12289523"/>
  <way id="27792950" version="9" timestamp="2012-07-19T21:24:27Z" uid="722137" user="OSMF Redaction Account" changeset="12348019">
    <nd ref="305165595"/>
    <nd ref="305165971"/>
    <nd ref="305165972"/>
    <nd ref="305165973"/>
    <nd ref="305165974"/>
    <nd ref="305942467"/>
    <nd ref="305165975"/>
    <nd ref="305165976"/>
    <nd ref="305165977"/>
    <nd ref="305165978"/>
    <nd ref="305165979"/>
    <tag k="highway" v="residential"/>
    <tag k="name" v="Highridge Road"/>
    <tag k="surface" v="asphalt"/>
  </way>
  <way id="27792980" version="8" timestamp="2012-07-18T16:50:52Z" uid="722137" user="OSMF Redaction Account" changeset="12289523"/>
</osm>
