<?xml version='1.0' encoding='UTF-8'?>
<osm version="0.6" generator="libosmium/2.20.0">
  <way id="27899175" version="5" timestamp="2010-09-20T12:35:59Z" uid="115477" user="wowik" changeset="5828810">
    <nd ref="306298056"/>
    <nd ref="343628406"/>
    <nd ref="343628420"/>
    <nd ref="343628419"/>
    <nd ref="343628417"/>
    <nd ref="306298055"/>
    <nd ref="306298053"/>
    <nd ref="306298052"/>
    <nd ref="306298056"/>
    <tag k="addr:housename" v="10А"/>
    <tag k="addr:street" v="Космонавтов ул."/>
    <tag k="building" v="train_station"/>
    <tag k="name" v="Ж/Д Вокзал"/>
    <tag k="name:ru" v="Ж/Д Вокзал"/>
  </way>
  <way id="27899175" version="6" timestamp="2011-01-13T18:01:02Z" uid="155088" user="mixdm" changeset="6959696">
    <nd ref="306298056"/>
    <nd ref="343628406"/>
    <nd ref="343628420"/>
    <nd ref="343628419"/>
    <nd ref="343628417"/>
    <nd ref="306298055"/>
    <nd ref="306298053"/>
    <nd ref="306298052"/>
    <nd ref="306298056"/>
    <tag k="addr:housenumber" v="10А"/>
    <tag k="addr:street" v="Космонавтов ул."/>
    <tag k="building" v="train_station"/>
    <tag k="name" v="Ж/Д Вокзал"/>
    <tag k="name:ru" v="Ж/Д Вокзал"/>
  </way>
  <way id="27899175" version="7" timestamp="2011-05-14T17:06:57Z" uid="393863" user="Radioxoma" changeset="8143200">
    <nd ref="306298056"/>
    <nd ref="343628406"/>
    <nd ref="343628420"/>
    <nd ref="343628419"/>
    <nd ref="343628417"/>
    <nd ref="306298055"/>
    <nd ref="306298053"/>
    <nd ref="306298052"/>
    <nd ref="306298056"/>
    <tag k="addr:housenumber" v="10А"/>
    <tag k="addr:street" v="Космонавтов ул."/>
    <tag k="building" v="yes"/>
    <tag k="building:levels" v="4"/>
    <tag k="name" v="Ж/Д Вокзал"/>
    <tag k="name:ru" v="Ж/Д Вокзал"/>
  </way>
  <way id="27899175" version="8" timestamp="2011-10-22T13:03:52Z" uid="86479" user="osm-belarus" changeset="9623402">
    <nd ref="306298056"/>
    <nd ref="343628406"/>
    <nd ref="343628420"/>
    <nd ref="343628419"/>
    <nd ref="343628417"/>
    <nd ref="306298055"/>
    <nd ref="306298053"/>
    <nd ref="306298052"/>
    <nd ref="306298056"/>
    <tag k="addr:housenumber" v="10А"/>
    <tag k="addr:street" v="ул. Космонавтов"/>
    <tag k="building" v="yes"/>
    <tag k="building:levels" v="4"/>
    <tag k="name" v="Ж/Д Вокзал"/>
    <tag k="name:ru" v="Ж/Д Вокзал"/>
  </way>
  <way id="27899175" version="9" timestamp="2011-12-11T14:34:35Z" uid="29320" user="Komяpa" changeset="10089904">
    <nd ref="306298056"/>
    <nd ref="343628406"/>
    <nd ref="343628420"/>
    <nd ref="343628419"/>
    <nd ref="343628417"/>
    <nd ref="306298055"/>
    <nd ref="306298053"/>
    <nd ref="306298052"/>
    <nd ref="306298056"/>
    <tag k="addr:housenumber" v="10А"/>
    <tag k="addr:street" v="ул. Космонавтов"/>
    <tag k="building" v="yes"/>
    <tag k="building:levels" v="4"/>
    <tag k="name" v="Ж/Д Вокзал"/>
    <tag k="name:be" v="Чыгуначны вакзал"/>
    <tag k="name:ru" v="Ж/Д Вокзал"/>
  </way>
</osm>
