<?xml version='1.0' encoding='UTF-8'?>
<osm version="0.6" generator="libosmium/2.20.0">
  <way id="28407332" version="2" timestamp="2009-10-03T13:35:12Z" uid="179968" user="Ich_hasse_doitsche_OSM-Korinthenkacker" changeset="2723894">
    <nd ref="258838090"/>
    <nd ref="258838092"/>
    <tag k="highway" v="residential"/>
    <tag k="name" v="Pfingstanger"/>
    <tag k="noexit" v="yes"/>
  </way>
  <way id="28407332" version="3" timestamp="2009-10-09T05:14:32Z" uid="31231" user="Andre68" changeset="2789818">
    <nd ref="258838090"/>
    <nd ref="258838092"/>
    <tag k="highway" v="residential"/>
    <tag k="name" v="Pfingstanger"/>
    <tag k="noexit" v="yes"/>
    <tag k="postal_code" v="38173"/>
  </way>
  <way id="28407332" version="4" timestamp="2010-03-17T18:26:50Z" uid="31231" user="Andre68" changeset="4155314">
    <nd ref="258838090"/>
    <nd ref="258838092"/>
    <tag k="highway" v="residential"/>
    <tag k="maxspeed" v="50"/>
    <tag k="name" v="Pfingstanger"/>
    <tag k="noexit" v="yes"/>
    <tag k="postal_code" v="38173"/>
  </way>
  <way id="28407332" version="5" timestamp="2012-03-18T14:36:06Z" uid="31231" user="Andre68" changeset="11019568">
    <nd ref="258838090"/>
    <nd ref="258838092"/>
    <tag k="highway" v="residential"/>
    <tag k="maxspeed" v="50"/>
    <tag k="name" v="Pfingstanger"/>
    <tag k="noexit" v="yes"/>
    <tag k="postal_code" v="38173"/>
    <tag k="source:maxspeed" v="DE:urban"/>
  </way>
  <way id="28407419" version="2" timestamp="2008-12-10T00:05:18Z" uid="6975" user="ulfl" changeset="299549">
    <nd ref="303697828"/>
    <nd ref="301975940"/>
    <nd ref="301975956"/>
    <nd ref="301975783"/>
    <tag k="highway" v="track"/>
    <tag k="surface" v="grass"/>
    <tag k="tracktype" v="grade5"/>
  </way>
  <way id="28407419" version="3" timestamp="2010-06-28T19:11:32Z" uid="71226" user="Verirrt im Wald" changeset="5100333">
    <nd ref="303697828"/>
    <nd ref="301975940"/>
    <tag k="FIXME" v="zugewachsen?"/>
    <tag k="highway" v="track"/>
    <tag k="note" v="von Süden nur hohes Grass, 2009 war im Norden noch mehr Vegetation"/>
    <tag k="surface" v="grass"/>
    <tag k="tracktype" v="grade5"/>
  </way>
  <way id="28407419" version="4" timestamp="2010-08-07T11:09:51Z" uid="71226" user="Verirrt im Wald" changeset="5423704">
    <nd ref="303697828"/>
    <nd ref="301975940"/>
    <tag k="FIXME" v="zugewachsen?"/>
    <tag k="disused" v="yes"/>
    <tag k="highway" v="track"/>
    <tag k="note" v="von Süden nur hohes Grass, 2009 war im Norden noch mehr Vegetation"/>
    <tag k="surface" v="grass"/>
    <tag k="tracktype" v="grade5"/>
  </way>
  <way id="28407419" version="5" timestamp="2011-04-10T18:13:43Z" uid="71226" user="Verirrt im Wald" changeset="7825790">
    <nd ref="303697828"/>
    <nd ref="301975940"/>
    <tag k="highway" v="track"/>
    <tag k="note:de" v="zur Zeit (10.04.2011) wieder frei"/>
    <tag k="surface" v="ground"/>
    <tag k="tracktype" v="grade5"/>
  </way>
  <way id="28407758" version="2" timestamp="2010-12-07T22:18:47Z" uid="9581" user="Lobelt" changeset="6580499">
    <nd ref="312053312"/>
    <nd ref="312053311"/>
    <nd ref="312053309"/>
    <nd ref="312053308"/>
    <tag k="highway" v="residential"/>
    <tag k="name" v="Breslauer Straße"/>
  </way>
  <way id="28407885" version="1" timestamp="2008-11-14T20:51:39Z" uid="20587" user="balrog-kun" changeset="747594">
    <nd ref="312053373"/>
    <nd ref="312053378"/>
    <nd ref="312053381"/>
    <nd ref="312053376"/>
    <nd ref="312053373"/>
    <tag k="addr:housenumber" v="9"/>
    <tag k="addr:postcode" v="02-053"/>
    <tag k="addr:street" v="Mikołaja Reja"/>
    <tag k="building" v="yes"/>
    <tag k="name" v="Teatr Ochoty"/>
  </way>
  <way id="28407885" version="2" timestamp="2009-01-05T14:28:09Z" uid="20587" user="balrog-kun" changeset="737820">
    <nd ref="312053373"/>
    <nd ref="312053378"/>
    <nd ref="312053381"/>
    <nd ref="312053376"/>
    <nd ref="312053373"/>
    <tag k="addr:housenumber" v="9"/>
    <tag k="addr:postcode" v="02-053"/>
    <tag k="addr:street" v="Mikołaja Reja"/>
    <tag k="building" v="yes"/>
    <tag k="building:levels" v="2"/>
    <tag k="name" v="Teatr Ochoty"/>
  </way>
  <way id="28407885" version="3" timestamp="2009-05-15T22:36:58Z" uid="20587" user="balrog-kun" changeset="1205175">
    <nd ref="312053373"/>
    <nd ref="312053378"/>
    <nd ref="312053381"/>
    <nd ref="312053376"/>
    <nd ref="312053373"/>
    <tag k="addr:housenumber" v="9"/>
    <tag k="addr:postcode" v="02-053"/>
    <tag k="addr:street" v="Mikołaja Reja"/>
    <tag k="building" v="yes"/>
    <tag k="building:levels" v="2"/>
    <tag k="name" v="Teatr Ochoty"/>
    <tag k="wikipedia" v="pl:Teatr Ochoty w Warszawie"/>
  </way>
  <way id="28407885" version="4" timestamp="2010-05-01T17:58:02Z" uid="20587" user="balrog-kun" changeset="4577705">
    <nd ref="312053373"/>
    <nd ref="312053378"/>
    <nd ref="312053381"/>
    <nd ref="312053376"/>
    <nd ref="715755666"/>
    <nd ref="715755565"/>
    <nd ref="715755547"/>
    <nd ref="312053373"/>
    <tag k="addr:housenumber" v="9"/>
    <tag k="addr:postcode" v="02-053"/>
    <tag k="addr:street" v="Mikołaja Reja"/>
    <tag k="building" v="yes"/>
    <tag k="building:levels" v="2"/>
    <tag k="name" v="Teatr Ochoty"/>
    <tag k="wikipedia" v="pl:Teatr Ochoty w Warszawie"/>
  </way>
  <way id="28407887" version="1" timestamp="2008-11-14T20:51:40Z" uid="20587" user="balrog-kun" changeset="747594">
    <nd ref="312053383"/>
    <nd ref="312053386"/>
    <nd ref="312053395"/>
    <nd ref="312053408"/>
    <nd ref="312053457"/>
    <nd ref="312053464"/>
    <nd ref="312053462"/>
    <nd ref="312053461"/>
    <nd ref="312053459"/>
    <nd ref="312053415"/>
    <nd ref="312053412"/>
    <nd ref="312053409"/>
    <nd ref="312053405"/>
    <nd ref="312053402"/>
    <nd ref="312053399"/>
    <nd ref="312053391"/>
    <nd ref="312053383"/>
    <tag k="addr:housenumber" v="7"/>
    <tag k="addr:street" v="Mikołaja Reja"/>
    <tag k="building" v="yes"/>
  </way>
  <way id="28407887" version="2" timestamp="2008-12-06T00:19:52Z" uid="20587" user="balrog-kun" changeset="204571">
    <nd ref="312053402"/>
    <nd ref="312053399"/>
    <nd ref="312053391"/>
    <nd ref="312053383"/>
    <nd ref="312053386"/>
    <nd ref="312053395"/>
    <nd ref="312053402"/>
    <tag k="addr:housenumber" v="7"/>
    <tag k="addr:street" v="Mikołaja Reja"/>
    <tag k="building" v="yes"/>
  </way>
  <way id="28407887" version="3" timestamp="2009-01-05T14:28:08Z" uid="20587" user="balrog-kun" changeset="737820">
    <nd ref="312053402"/>
    <nd ref="312053399"/>
    <nd ref="312053391"/>
    <nd ref="312053383"/>
    <nd ref="312053386"/>
    <nd ref="312053395"/>
    <nd ref="312053402"/>
    <tag k="addr:housenumber" v="7"/>
    <tag k="addr:street" v="Mikołaja Reja"/>
    <tag k="building" v="yes"/>
    <tag k="building:levels" v="5"/>
  </way>
  <way id="28407887" version="4" timestamp="2010-05-01T17:58:07Z" uid="20587" user="balrog-kun" changeset="4577705"/>
  <way id="28407888" version="1" timestamp="2008-11-14T20:51:40Z" uid="20587" user="balrog-kun" changeset="747594">
    <nd ref="312053466"/>
    <nd ref="312053470"/>
    <nd ref="312053468"/>
    <nd ref="312053510"/>
    <nd ref="312053466"/>
    <tag k="addr:housenumber" v="4"/>
    <tag k="addr:street" v="Mikołaja Reja"/>
    <tag k="building" v="yes"/>
  </way>
  <way id="28407888" version="2" timestamp="2009-01-05T14:28:06Z" uid="20587" user="balrog-kun" changeset="737820">
    <nd ref="312053466"/>
    <nd ref="312053470"/>
    <nd ref="312053468"/>
    <nd ref="312053510"/>
    <nd ref="312053466"/>
    <tag k="addr:housenumber" v="4"/>
    <tag k="addr:street" v="Mikołaja Reja"/>
    <tag k="building" v="yes"/>
    <tag k="building:levels" v="2"/>
  </way>
  <way id="28407891" version="1" timestamp="2008-11-14T20:51:51Z" uid="20587" user="balrog-kun" changeset="747594">
    <nd ref="312053511"/>
    <nd ref="312053512"/>
    <nd ref="312053514"/>
    <nd ref="312053517"/>
    <nd ref="312053523"/>
    <nd ref="312053526"/>
    <nd ref="312053525"/>
    <nd ref="312053524"/>
    <nd ref="312053522"/>
    <nd ref="312053519"/>
    <nd ref="312053516"/>
    <nd ref="312053515"/>
    <nd ref="312053513"/>
    <nd ref="312053511"/>
    <tag k="addr:housenumber" v="3/5"/>
    <tag k="addr:street" v="Mikołaja Reja"/>
    <tag k="building" v="yes"/>
    <tag k="name" v="Ministerstwo Środowiska"/>
  </way>
  <way id="28407891" version="2" timestamp="2008-12-06T00:19:51Z" uid="20587" user="balrog-kun" changeset="204571">
    <nd ref="316886348"/>
    <nd ref="316886346"/>
    <nd ref="312053511"/>
    <nd ref="312053512"/>
    <nd ref="316886348"/>
    <tag k="addr:housenumber" v="54"/>
    <tag k="addr:street" v="Wawelska"/>
    <tag k="building" v="yes"/>
    <tag k="name" v="Ministerstwo Środowiska"/>
  </way>
  <way id="28407891" version="3" timestamp="2009-05-15T22:34:10Z" uid="20587" user="balrog-kun" changeset="1205156">
    <nd ref="316886348"/>
    <nd ref="316886346"/>
    <nd ref="312053511"/>
    <nd ref="312053512"/>
    <nd ref="316886348"/>
    <tag k="addr:housenumber" v="54"/>
    <tag k="addr:postcode" v="00-922"/>
    <tag k="addr:street" v="Wawelska"/>
    <tag k="building" v="yes"/>
    <tag k="name" v="Ministerstwo Środowiska"/>
    <tag k="wikipedia" v="pl:Ministerstwo Środowiska"/>
  </way>
  <way id="28407891" version="4" timestamp="2010-05-01T17:57:10Z" uid="20587" user="balrog-kun" changeset="4577705">
    <nd ref="316886348"/>
    <nd ref="715755656"/>
    <nd ref="715755592"/>
    <nd ref="715755591"/>
    <nd ref="715755660"/>
    <nd ref="715755673"/>
    <nd ref="715755680"/>
    <nd ref="715755611"/>
    <nd ref="715755562"/>
    <nd ref="316886345"/>
    <nd ref="312053513"/>
    <nd ref="312053511"/>
    <nd ref="715755689"/>
    <nd ref="715755532"/>
    <nd ref="715755676"/>
    <nd ref="715755533"/>
    <nd ref="312053512"/>
    <nd ref="316886348"/>
    <tag k="addr:housenumber" v="54"/>
    <tag k="addr:postcode" v="00-922"/>
    <tag k="addr:street" v="Wawelska"/>
    <tag k="building" v="yes"/>
    <tag k="building:levels" v="6"/>
    <tag k="name" v="Ministerstwo Środowiska"/>
    <tag k="wikipedia" v="pl:Ministerstwo Środowiska"/>
  </way>
  <way id="28407892" version="1" timestamp="2008-11-14T20:51:51Z" uid="20587" user="balrog-kun" changeset="747594">
    <nd ref="312053527"/>
    <nd ref="312053529"/>
    <tag k="highway" v="service"/>
  </way>
  <way id="28407893" version="1" timestamp="2008-11-14T20:52:03Z" uid="20587" user="balrog-kun" changeset="747594">
    <nd ref="312053530"/>
    <nd ref="312053531"/>
    <nd ref="312053579"/>
    <nd ref="312053582"/>
    <nd ref="312053586"/>
    <nd ref="312053584"/>
    <nd ref="312053580"/>
    <nd ref="312053592"/>
    <nd ref="312053578"/>
    <nd ref="312053530"/>
    <tag k="addr:housenumber" v="1"/>
    <tag k="addr:street" v="Mikołaja Reja"/>
    <tag k="building" v="yes"/>
    <tag k="name" v="Szkoła Podstawowa imienia Edwarda Szymańskiego NR23"/>
    <tag k="ref" v="SP23"/>
  </way>
  <way id="28407893" version="2" timestamp="2011-04-16T22:25:40Z" uid="91056" user="Yarl" changeset="7882837">
    <nd ref="312053530"/>
    <nd ref="312053531"/>
    <nd ref="312053579"/>
    <nd ref="312053582"/>
    <nd ref="312053586"/>
    <nd ref="312053584"/>
    <nd ref="312053580"/>
    <nd ref="312053592"/>
    <nd ref="312053578"/>
    <nd ref="312053530"/>
    <tag k="addr:housenumber" v="1"/>
    <tag k="addr:street" v="Mikołaja Reja"/>
    <tag k="building" v="yes"/>
    <tag k="name" v="Szkoła Podstawowa nr 23 imienia Edwarda Szymańskiego"/>
    <tag k="ref" v="SP23"/>
  </way>
  <way id="28407894" version="1" timestamp="2008-11-14T20:52:04Z" uid="20587" user="balrog-kun" changeset="747594">
    <nd ref="312053580"/>
    <nd ref="312053584"/>
    <nd ref="312053588"/>
    <nd ref="312053590"/>
    <nd ref="312053592"/>
    <nd ref="312053580"/>
    <tag k="leisure" v="pitch"/>
  </way>
  <way id="28407895" version="1" timestamp="2008-11-14T20:52:04Z" uid="20587" user="balrog-kun" changeset="747594">
    <nd ref="312053594"/>
    <nd ref="312053597"/>
    <nd ref="312053635"/>
    <nd ref="312053636"/>
    <nd ref="312053594"/>
    <tag k="addr:housenumber" v="48"/>
    <tag k="addr:postcode" v="02-076"/>
    <tag k="addr:street" v="Wawelska"/>
    <tag k="amenity" v="school"/>
  </way>
  <way id="28407896" version="1" timestamp="2008-11-14T20:52:04Z" uid="20587" user="balrog-kun" changeset="747594">
    <nd ref="312053637"/>
    <nd ref="312053665"/>
    <nd ref="312053667"/>
    <nd ref="312053668"/>
    <nd ref="312053666"/>
    <nd ref="312053639"/>
    <nd ref="312053641"/>
    <nd ref="312053662"/>
    <nd ref="312053663"/>
    <nd ref="312053643"/>
    <nd ref="312053640"/>
    <nd ref="312053638"/>
    <nd ref="312053637"/>
    <tag k="addr:housenumber" v="46"/>
    <tag k="addr:postcode" v="02-067"/>
    <tag k="addr:street" v="Wawelska"/>
    <tag k="building" v="yes"/>
    <tag k="name" v="Liceum Ogólnokształcące imienia Juliusza Słowackiego NR 7"/>
    <tag k="ref" v="LO7"/>
  </way>
  <way id="28407896" version="2" timestamp="2009-07-31T04:45:41Z" uid="20587" user="balrog-kun" changeset="1990893">
    <nd ref="312053637"/>
    <nd ref="312053638"/>
    <nd ref="312053640"/>
    <nd ref="312053643"/>
    <nd ref="312053663"/>
    <nd ref="312053662"/>
    <nd ref="312053641"/>
    <nd ref="312053639"/>
    <nd ref="312053666"/>
    <nd ref="312053668"/>
    <nd ref="312053667"/>
    <nd ref="312053665"/>
    <nd ref="312053637"/>
    <tag k="addr:housenumber" v="46"/>
    <tag k="addr:postcode" v="02-067"/>
    <tag k="addr:street" v="Wawelska"/>
    <tag k="building" v="yes"/>
    <tag k="name" v="Liceum Ogólnokształcące imienia Juliusza Słowackiego NR 7"/>
    <tag k="ref" v="LO7"/>
  </way>
  <way id="28407896" version="3" timestamp="2011-04-16T22:25:39Z" uid="91056" user="Yarl" changeset="7882837">
    <nd ref="312053637"/>
    <nd ref="312053638"/>
    <nd ref="312053640"/>
    <nd ref="312053643"/>
    <nd ref="312053663"/>
    <nd ref="312053662"/>
    <nd ref="312053641"/>
    <nd ref="312053639"/>
    <nd ref="312053666"/>
    <nd ref="312053668"/>
    <nd ref="312053667"/>
    <nd ref="312053665"/>
    <nd ref="312053637"/>
    <tag k="addr:housenumber" v="46"/>
    <tag k="addr:postcode" v="02-067"/>
    <tag k="addr:street" v="Wawelska"/>
    <tag k="building" v="yes"/>
    <tag k="name" v="VII Liceum Ogólnokształcące imienia Juliusza Słowackiego"/>
    <tag k="ref" v="LO7"/>
  </way>
  <way id="28407898" version="1" timestamp="2008-11-14T20:52:06Z" uid="20587" user="balrog-kun" changeset="747594">
    <nd ref="312053669"/>
    <nd ref="312053693"/>
    <nd ref="312053694"/>
    <nd ref="312053692"/>
    <nd ref="312053669"/>
    <tag k="building" v="yes"/>
  </way>
  <way id="28407899" version="1" timestamp="2008-11-14T20:52:07Z" uid="20587" user="balrog-kun" changeset="747594">
    <nd ref="312053695"/>
    <nd ref="312053696"/>
    <nd ref="312053709"/>
    <nd ref="312053710"/>
    <nd ref="312053695"/>
    <tag k="amenity" v="school"/>
  </way>
  <way id="28407899" version="2" timestamp="2011-09-20T00:45:07Z" uid="475943" user="sir-mapalot" changeset="9347709">
    <nd ref="312053695"/>
    <nd ref="312053696"/>
    <nd ref="312053709"/>
    <nd ref="312053710"/>
    <nd ref="312053695"/>
    <tag k="amenity" v="school"/>
    <tag k="barrier" v="fence"/>
  </way>
  <way id="28407900" version="1" timestamp="2008-11-14T20:52:08Z" uid="20587" user="balrog-kun" changeset="747594">
    <nd ref="312053711"/>
    <nd ref="312053713"/>
    <nd ref="312053714"/>
    <nd ref="312053712"/>
    <nd ref="312053711"/>
    <tag k="leisure" v="pitch"/>
  </way>
  <way id="28407901" version="1" timestamp="2008-11-14T20:52:08Z" uid="20587" user="balrog-kun" changeset="747594">
    <nd ref="312053715"/>
    <nd ref="312053716"/>
    <nd ref="312053717"/>
    <tag k="highway" v="pedestrian"/>
    <tag k="name" v="Aleja Wielkopolski"/>
  </way>
  <way id="28407901" version="2" timestamp="2009-04-15T11:19:15Z" uid="20587" user="balrog-kun" changeset="551593">
    <nd ref="312053715"/>
    <nd ref="312053716"/>
    <nd ref="312053717"/>
    <tag k="highway" v="pedestrian"/>
    <tag k="name" v="Aleja Wielkopolski"/>
    <tag k="wikipedia" v="pl:Aleja Wielkopolski w Warszawie"/>
  </way>
  <way id="28407902" version="1" timestamp="2008-11-14T20:52:08Z" uid="20587" user="balrog-kun" changeset="747594">
    <nd ref="312053718"/>
    <nd ref="312053719"/>
    <nd ref="312053716"/>
    <nd ref="312053720"/>
    <tag k="highway" v="footway"/>
  </way>
  <way id="28407903" version="1" timestamp="2008-11-14T20:52:09Z" uid="20587" user="balrog-kun" changeset="747594">
    <nd ref="312053721"/>
    <nd ref="312053722"/>
    <tag k="bridge" v="yes"/>
    <tag k="highway" v="footway"/>
    <tag k="layer" v="1"/>
  </way>
  <way id="28407903" version="2" timestamp="2011-09-20T00:45:07Z" uid="475943" user="sir-mapalot" changeset="9347709">
    <nd ref="312053721"/>
    <nd ref="312053722"/>
    <tag k="access" v="no"/>
    <tag k="bridge" v="yes"/>
    <tag k="highway" v="footway"/>
    <tag k="layer" v="1"/>
  </way>
  <way id="28407904" version="1" timestamp="2008-11-14T20:52:09Z" uid="20587" user="balrog-kun" changeset="747594">
    <nd ref="312053724"/>
    <nd ref="312053726"/>
    <nd ref="312053728"/>
    <nd ref="312053735"/>
    <nd ref="312053729"/>
    <nd ref="312053730"/>
    <tag k="access" v="private"/>
    <tag k="highway" v="service"/>
  </way>
  <way id="28407904" version="2" timestamp="2009-11-24T02:11:35Z" uid="20587" user="balrog-kun" changeset="3201348">
    <nd ref="312053724"/>
    <nd ref="312053726"/>
    <nd ref="312053728"/>
    <nd ref="312053735"/>
    <nd ref="312053729"/>
    <nd ref="312053730"/>
    <tag k="access" v="private"/>
    <tag k="highway" v="service"/>
  </way>
  <way id="28407905" version="1" timestamp="2008-11-14T20:52:09Z" uid="20587" user="balrog-kun" changeset="747594">
    <nd ref="312053731"/>
    <nd ref="312053751"/>
    <nd ref="312053740"/>
    <nd ref="312053732"/>
    <tag k="access" v="private"/>
    <tag k="highway" v="service"/>
  </way>
  <way id="28407906" version="1" timestamp="2008-11-14T20:52:10Z" uid="20587" user="balrog-kun" changeset="747594">
    <nd ref="312053733"/>
    <nd ref="312053734"/>
    <tag k="highway" v="service"/>
  </way>
  <way id="28407907" version="1" timestamp="2008-11-14T20:52:10Z" uid="20587" user="balrog-kun" changeset="747594">
    <nd ref="312053737"/>
    <nd ref="312053729"/>
    <nd ref="312053738"/>
    <tag k="access" v="private"/>
    <tag k="highway" v="service"/>
  </way>
  <way id="28407907" version="2" timestamp="2009-11-24T02:11:35Z" uid="20587" user="balrog-kun" changeset="3201348">
    <nd ref="312053737"/>
    <nd ref="312053729"/>
    <nd ref="312053738"/>
    <tag k="access" v="private"/>
    <tag k="highway" v="service"/>
  </way>
  <way id="28407908" version="1" timestamp="2008-11-14T20:52:10Z" uid="20587" user="balrog-kun" changeset="747594">
    <nd ref="312053739"/>
    <nd ref="312053740"/>
    <tag k="access" v="private"/>
    <tag k="highway" v="service"/>
  </way>
  <way id="28407909" version="1" timestamp="2008-11-14T20:52:10Z" uid="20587" user="balrog-kun" changeset="747594">
    <nd ref="312053731"/>
    <nd ref="312053786"/>
    <nd ref="312053784"/>
    <nd ref="312053735"/>
    <nd ref="312053736"/>
    <tag k="access" v="private"/>
    <tag k="highway" v="service"/>
  </way>
  <way id="28407910" version="1" timestamp="2008-11-14T20:52:10Z" uid="20587" user="balrog-kun" changeset="747594">
    <nd ref="312053751"/>
    <nd ref="312053734"/>
    <tag k="access" v="private"/>
    <tag k="highway" v="service"/>
  </way>
  <way id="28407911" version="1" timestamp="2008-11-14T20:52:11Z" uid="20587" user="balrog-kun" changeset="747594">
    <nd ref="312053752"/>
    <nd ref="312053753"/>
    <nd ref="312053754"/>
    <nd ref="312053755"/>
    <nd ref="312053756"/>
    <nd ref="312053757"/>
    <nd ref="312053758"/>
    <nd ref="312053759"/>
    <nd ref="312053760"/>
    <nd ref="312053730"/>
    <nd ref="312053762"/>
    <nd ref="312053783"/>
    <nd ref="312053777"/>
    <nd ref="312053781"/>
    <nd ref="312053732"/>
    <nd ref="312053761"/>
    <tag k="access" v="private"/>
    <tag k="highway" v="service"/>
  </way>
  <way id="28407911" version="2" timestamp="2009-11-24T02:11:35Z" uid="20587" user="balrog-kun" changeset="3201348">
    <nd ref="312053752"/>
    <nd ref="312053753"/>
    <nd ref="312053754"/>
    <nd ref="312053755"/>
    <nd ref="312053756"/>
    <nd ref="312053757"/>
    <nd ref="312053758"/>
    <nd ref="312053759"/>
    <nd ref="312053760"/>
    <nd ref="312053730"/>
    <nd ref="312053762"/>
    <nd ref="312053783"/>
    <nd ref="312053777"/>
    <nd ref="312053781"/>
    <nd ref="312053732"/>
    <nd ref="569878628"/>
    <nd ref="312053761"/>
    <tag k="access" v="private"/>
    <tag k="highway" v="service"/>
  </way>
  <way id="28407912" version="1" timestamp="2008-11-14T20:52:11Z" uid="20587" user="balrog-kun" changeset="747594">
    <nd ref="312053762"/>
    <nd ref="312053763"/>
    <tag k="access" v="private"/>
    <tag k="highway" v="service"/>
  </way>
  <way id="28407912" version="2" timestamp="2009-11-24T02:11:34Z" uid="20587" user="balrog-kun" changeset="3201348">
    <nd ref="312053762"/>
    <nd ref="312053763"/>
    <nd ref="569878611"/>
    <nd ref="569878612"/>
    <tag k="access" v="private"/>
    <tag k="highway" v="service"/>
  </way>
  <way id="28407913" version="1" timestamp="2008-11-14T20:52:11Z" uid="20587" user="balrog-kun" changeset="747594">
    <nd ref="312053764"/>
    <nd ref="312053763"/>
    <nd ref="312053779"/>
    <nd ref="312053782"/>
    <nd ref="312053765"/>
    <tag k="access" v="private"/>
    <tag k="highway" v="service"/>
  </way>
  <way id="28407914" version="1" timestamp="2008-11-14T20:52:11Z" uid="20587" user="balrog-kun" changeset="747594">
    <nd ref="312053777"/>
    <nd ref="312053779"/>
    <tag k="access" v="private"/>
    <tag k="highway" v="service"/>
  </way>
  <way id="28407915" version="1" timestamp="2008-11-14T20:52:11Z" uid="20587" user="balrog-kun" changeset="747594">
    <nd ref="312053781"/>
    <nd ref="312053782"/>
    <tag k="access" v="private"/>
    <tag k="highway" v="service"/>
  </way>
  <way id="28407916" version="1" timestamp="2008-11-14T20:52:12Z" uid="20587" user="balrog-kun" changeset="747594">
    <nd ref="312053783"/>
    <nd ref="312053739"/>
    <tag k="access" v="private"/>
    <tag k="highway" v="service"/>
  </way>
  <way id="28407917" version="1" timestamp="2008-11-14T20:52:12Z" uid="20587" user="balrog-kun" changeset="747594">
    <nd ref="312053784"/>
    <nd ref="312053785"/>
    <tag k="access" v="private"/>
    <tag k="highway" v="service"/>
  </way>
  <way id="28407927" version="1" timestamp="2008-11-14T20:52:32Z" uid="20587" user="balrog-kun" changeset="747594">
    <nd ref="312053786"/>
    <nd ref="312053787"/>
    <nd ref="312053788"/>
    <tag k="access" v="private"/>
    <tag k="highway" v="service"/>
  </way>
  <way id="28407928" version="1" timestamp="2008-11-14T20:52:33Z" uid="20587" user="balrog-kun" changeset="747594">
    <nd ref="312053790"/>
    <nd ref="312053791"/>
    <nd ref="254451738"/>
    <nd ref="312053789"/>
    <nd ref="312053790"/>
    <tag k="amenity" v="parking"/>
    <tag k="created_by" v="JOSM"/>
  </way>
  <way id="28407929" version="1" timestamp="2008-11-14T20:52:34Z" uid="20587" user="balrog-kun" changeset="747594">
    <nd ref="312053840"/>
    <nd ref="312053801"/>
    <nd ref="254431750"/>
    <nd ref="312053802"/>
    <nd ref="312053803"/>
    <nd ref="312053804"/>
    <nd ref="38432669"/>
    <nd ref="312053805"/>
    <nd ref="312053806"/>
    <nd ref="38432671"/>
    <nd ref="32924002"/>
    <nd ref="38432672"/>
    <nd ref="38432674"/>
    <nd ref="312053840"/>
    <tag k="landuse" v="allotments"/>
  </way>
  <way id="28407929" version="2" timestamp="2011-11-18T02:11:39Z" uid="500871" user="68arti" changeset="9859818">
    <nd ref="312053840"/>
    <nd ref="1506935436"/>
    <nd ref="312053801"/>
    <nd ref="254431750"/>
    <nd ref="312053802"/>
    <nd ref="312053803"/>
    <nd ref="312053804"/>
    <nd ref="38432669"/>
    <nd ref="312053805"/>
    <nd ref="312053806"/>
    <nd ref="38432671"/>
    <nd ref="32924002"/>
    <nd ref="38432672"/>
    <nd ref="38432674"/>
    <nd ref="312053840"/>
    <tag k="landuse" v="allotments"/>
  </way>
  <way id="28407930" version="1" timestamp="2008-11-14T20:52:34Z" uid="20587" user="balrog-kun" changeset="747594">
    <nd ref="312053841"/>
    <nd ref="312053843"/>
    <nd ref="312053844"/>
    <nd ref="312053842"/>
    <nd ref="312053841"/>
    <tag k="amenity" v="parking"/>
  </way>
  <way id="28407931" version="1" timestamp="2008-11-14T20:52:34Z" uid="20587" user="balrog-kun" changeset="747594">
    <nd ref="312053896"/>
    <nd ref="312053899"/>
    <nd ref="312053920"/>
    <nd ref="312053898"/>
    <nd ref="312053896"/>
    <tag k="addr:housenumber" v="27"/>
    <tag k="addr:street" v="Nowowiejska"/>
    <tag k="building" v="yes"/>
    <tag k="name" v="Szpital Nowowiejski"/>
  </way>
  <way id="28407931" version="2" timestamp="2008-11-22T02:04:42Z" uid="20587" user="balrog-kun" changeset="781526">
    <nd ref="312053896"/>
    <nd ref="312053899"/>
    <nd ref="312053920"/>
    <nd ref="312053898"/>
    <nd ref="312053896"/>
    <tag k="addr:housenumber" v="37b"/>
    <tag k="addr:street" v="Nowowiejska"/>
    <tag k="building" v="yes"/>
    <tag k="name" v="Szpital Nowowiejski"/>
  </way>
  <way id="28407931" version="3" timestamp="2008-12-06T00:19:51Z" uid="20587" user="balrog-kun" changeset="204571">
    <nd ref="312053896"/>
    <nd ref="312053899"/>
    <nd ref="312053920"/>
    <nd ref="312053898"/>
    <nd ref="312053896"/>
    <tag k="addr:housenumber" v="37b"/>
    <tag k="addr:street" v="Nowowiejska"/>
    <tag k="building" v="yes"/>
  </way>
  <way id="28407932" version="1" timestamp="2008-11-14T20:52:35Z" uid="20587" user="balrog-kun" changeset="747594">
    <nd ref="312053846"/>
    <nd ref="312053845"/>
    <nd ref="312053896"/>
    <nd ref="312053898"/>
    <nd ref="312053846"/>
    <tag k="leisure" v="common"/>
  </way>
  <way id="28407933" version="1" timestamp="2008-11-14T20:52:36Z" uid="20587" user="balrog-kun" changeset="747594">
    <nd ref="255309063"/>
    <nd ref="312054001"/>
    <nd ref="255309062"/>
    <nd ref="32607797"/>
    <nd ref="32607782"/>
    <tag k="created_by" v="JOSM"/>
    <tag k="highway" v="tertiary"/>
    <tag k="name" v="Ludwika Krzywickiego"/>
    <tag k="oneway" v="yes"/>
  </way>
  <way id="28407933" version="2" timestamp="2010-12-20T15:17:26Z" uid="20587" user="balrog-kun" changeset="6716897">
    <nd ref="255309063"/>
    <nd ref="312054001"/>
    <nd ref="255309062"/>
    <nd ref="32607797"/>
    <nd ref="1051774107"/>
    <nd ref="1051774307"/>
    <nd ref="32607782"/>
    <tag k="highway" v="tertiary"/>
    <tag k="name" v="Ludwika Krzywickiego"/>
    <tag k="oneway" v="yes"/>
  </way>
  <way id="28407933" version="3" timestamp="2011-06-30T09:24:13Z" uid="477744" user="hormel" changeset="8588493">
    <nd ref="1344320231"/>
    <nd ref="1344320244"/>
    <nd ref="312054001"/>
    <nd ref="255309062"/>
    <nd ref="32607797"/>
    <nd ref="1051774107"/>
    <nd ref="1051774307"/>
    <nd ref="32607782"/>
    <tag k="highway" v="tertiary"/>
    <tag k="name" v="Ludwika Krzywickiego"/>
    <tag k="oneway" v="yes"/>
  </way>
  <way id="28407933" version="4" timestamp="2011-06-30T09:43:32Z" uid="477744" user="hormel" changeset="8588736"/>
  <way id="28407934" version="1" timestamp="2008-11-14T20:52:36Z" uid="20587" user="balrog-kun" changeset="747594">
    <nd ref="312054047"/>
    <nd ref="312054049"/>
    <nd ref="312054052"/>
    <nd ref="312054075"/>
    <nd ref="312054076"/>
    <nd ref="312054054"/>
    <nd ref="312054077"/>
    <nd ref="312054079"/>
    <nd ref="312054080"/>
    <nd ref="312054078"/>
    <nd ref="312054055"/>
    <nd ref="312054056"/>
    <nd ref="312054057"/>
    <nd ref="312054053"/>
    <nd ref="312054050"/>
    <nd ref="312054048"/>
    <nd ref="312054046"/>
    <nd ref="312054044"/>
    <nd ref="312054043"/>
    <nd ref="312054045"/>
    <nd ref="312054051"/>
    <tag k="addr:housenumber" v="37a"/>
    <tag k="addr:postcode" v="02-010"/>
    <tag k="addr:street" v="Nowowiejska"/>
    <tag k="building" v="yes"/>
    <tag k="name" v="Liceum Ogólnokształcące imienia Stanisława Staszica NR14"/>
    <tag k="ref" v="LO14"/>
  </way>
  <way id="28407934" version="2" timestamp="2008-12-19T19:13:24Z" uid="20587" user="balrog-kun" changeset="477118">
    <nd ref="312054056"/>
    <nd ref="312054057"/>
    <nd ref="312054053"/>
    <nd ref="312054050"/>
    <nd ref="312054048"/>
    <nd ref="312054046"/>
    <nd ref="312054044"/>
    <nd ref="312054043"/>
    <nd ref="312054045"/>
    <nd ref="312054051"/>
    <nd ref="312054049"/>
    <nd ref="312054052"/>
    <nd ref="312054075"/>
    <nd ref="312054076"/>
    <nd ref="312054054"/>
    <nd ref="312054077"/>
    <nd ref="312054079"/>
    <nd ref="312054080"/>
    <nd ref="312054078"/>
    <nd ref="312054055"/>
    <nd ref="312054056"/>
    <tag k="addr:housenumber" v="37a"/>
    <tag k="addr:postcode" v="02-010"/>
    <tag k="addr:street" v="Nowowiejska"/>
    <tag k="building" v="yes"/>
    <tag k="name" v="Liceum Ogólnokształcące imienia Stanisława Staszica NR14"/>
    <tag k="ref" v="LO14"/>
  </way>
  <way id="28407940" version="1" timestamp="2008-11-14T20:52:47Z" uid="20587" user="balrog-kun" changeset="747594">
    <nd ref="312053898"/>
    <nd ref="312053920"/>
    <nd ref="312054125"/>
    <nd ref="312054124"/>
    <nd ref="312054127"/>
    <nd ref="312054122"/>
    <nd ref="312053846"/>
    <nd ref="312053898"/>
    <tag k="amenity" v="school"/>
  </way>
  <way id="28407940" version="2" timestamp="2009-03-31T17:32:21Z" uid="20587" user="balrog-kun" changeset="872038">
    <nd ref="312053898"/>
    <nd ref="312053920"/>
    <nd ref="312054125"/>
    <nd ref="312054124"/>
    <nd ref="312054127"/>
    <nd ref="312054122"/>
    <nd ref="367946837"/>
    <nd ref="312053846"/>
    <nd ref="312053898"/>
    <tag k="amenity" v="school"/>
  </way>
  <way id="28407940" version="3" timestamp="2011-08-18T13:23:20Z" uid="475943" user="sir-mapalot" changeset="9056957">
    <nd ref="312053898"/>
    <nd ref="312053920"/>
    <nd ref="312054125"/>
    <nd ref="312054124"/>
    <nd ref="312054127"/>
    <nd ref="312054122"/>
    <nd ref="367946837"/>
    <nd ref="312053846"/>
    <nd ref="312053898"/>
    <tag k="addr:housenumber" v="37a"/>
    <tag k="addr:street" v="Nowowiejska"/>
    <tag k="amenity" v="school"/>
    <tag k="name" v="XIV Liceum Ogólnokształcące imienia Stanisława Staszica"/>
  </way>
  <way id="28407941" version="1" timestamp="2008-11-14T20:52:48Z" uid="20587" user="balrog-kun" changeset="747594">
    <nd ref="312054122"/>
    <nd ref="312054127"/>
    <nd ref="312054139"/>
    <nd ref="312054140"/>
    <nd ref="312054122"/>
    <tag k="addr:housenumber" v="37"/>
    <tag k="addr:postcode" v="02-010"/>
    <tag k="addr:street" v="Nowowiejska"/>
    <tag k="building" v="yes"/>
    <tag k="name" v="EuroDental"/>
  </way>
  <way id="28407941" version="2" timestamp="2011-12-07T09:15:23Z" uid="52087" user="kocio" changeset="10056090">
    <nd ref="312054122"/>
    <nd ref="312054127"/>
    <nd ref="312054139"/>
    <nd ref="312054140"/>
    <nd ref="312054122"/>
    <tag k="addr:housenumber" v="37"/>
    <tag k="addr:postcode" v="02-010"/>
    <tag k="addr:street" v="Nowowiejska"/>
    <tag k="amenity" v="doctors"/>
    <tag k="building" v="yes"/>
    <tag k="name" v="EuroDental"/>
  </way>
  <way id="28407942" version="1" timestamp="2008-11-14T20:52:48Z" uid="20587" user="balrog-kun" changeset="747594">
    <nd ref="312054142"/>
    <nd ref="312054151"/>
    <nd ref="312054183"/>
    <nd ref="312054188"/>
    <nd ref="312054189"/>
    <nd ref="312054190"/>
    <nd ref="312054192"/>
    <nd ref="312054193"/>
    <nd ref="312054191"/>
    <nd ref="312054186"/>
    <nd ref="312054187"/>
    <nd ref="312054185"/>
    <nd ref="312054182"/>
    <nd ref="312054144"/>
    <nd ref="312054145"/>
    <nd ref="312054147"/>
    <nd ref="312054148"/>
    <nd ref="312054149"/>
    <nd ref="312054146"/>
    <nd ref="312054143"/>
    <nd ref="312054142"/>
    <tag k="addr:housenumber" v="57"/>
    <tag k="addr:postcode" v="00-950"/>
    <tag k="addr:street" v="Filtrowa"/>
    <tag k="building" v="yes"/>
    <tag k="name" v="Najwyższa Izba Kontroli"/>
  </way>
  <way id="28407942" version="2" timestamp="2009-05-15T21:21:06Z" uid="20587" user="balrog-kun" changeset="1204719">
    <nd ref="312054142"/>
    <nd ref="312054151"/>
    <nd ref="312054183"/>
    <nd ref="312054188"/>
    <nd ref="312054189"/>
    <nd ref="312054190"/>
    <nd ref="312054192"/>
    <nd ref="312054193"/>
    <nd ref="312054191"/>
    <nd ref="312054186"/>
    <nd ref="312054187"/>
    <nd ref="312054185"/>
    <nd ref="312054182"/>
    <nd ref="312054144"/>
    <nd ref="312054145"/>
    <nd ref="312054147"/>
    <nd ref="312054148"/>
    <nd ref="312054149"/>
    <nd ref="312054146"/>
    <nd ref="312054143"/>
    <nd ref="312054142"/>
    <tag k="addr:housenumber" v="57"/>
    <tag k="addr:postcode" v="00-950"/>
    <tag k="addr:street" v="Filtrowa"/>
    <tag k="building" v="yes"/>
    <tag k="name" v="Najwyższa Izba Kontroli"/>
    <tag k="wikipedia" v="pl:Najwyższa Izba Kontroli"/>
  </way>
  <way id="28407943" version="1" timestamp="2008-11-14T20:52:49Z" uid="20587" user="balrog-kun" changeset="747594">
    <nd ref="312054194"/>
    <nd ref="312054216"/>
    <nd ref="312054241"/>
    <nd ref="312054242"/>
    <nd ref="312054236"/>
    <nd ref="312054237"/>
    <nd ref="312054238"/>
    <nd ref="312054240"/>
    <nd ref="312054195"/>
    <nd ref="312054194"/>
    <tag k="amenity" v="parking"/>
  </way>
  <way id="28407944" version="1" timestamp="2008-11-14T20:52:49Z" uid="20587" user="balrog-kun" changeset="747594">
    <nd ref="312053734"/>
    <nd ref="312053761"/>
    <tag k="access" v="private"/>
    <tag k="highway" v="service"/>
  </way>
  <way id="28407945" version="1" timestamp="2008-11-14T20:52:50Z" uid="20587" user="balrog-kun" changeset="747594">
    <nd ref="312054248"/>
    <nd ref="312054273"/>
    <tag k="highway" v="pedestrian"/>
  </way>
  <way id="28407947" version="1" timestamp="2008-11-14T20:52:50Z" uid="20587" user="balrog-kun" changeset="747594">
    <nd ref="312054274"/>
    <nd ref="312054275"/>
    <tag k="highway" v="pedestrian"/>
  </way>
  <way id="28407948" version="1" timestamp="2008-11-14T20:52:50Z" uid="20587" user="balrog-kun" changeset="747594">
    <nd ref="312054278"/>
    <nd ref="312054276"/>
    <nd ref="312054277"/>
    <nd ref="312054279"/>
    <nd ref="312054414"/>
    <nd ref="312054278"/>
    <tag k="addr:housenumber" v="62"/>
    <tag k="addr:postcode" v="00-679"/>
    <tag k="addr:street" v="Wilcza"/>
    <tag k="building" v="yes"/>
  </way>
  <way id="28407949" version="1" timestamp="2008-11-14T20:52:51Z" uid="20587" user="balrog-kun" changeset="747594">
    <nd ref="312054412"/>
    <nd ref="312054281"/>
    <nd ref="312054283"/>
    <nd ref="312054324"/>
    <nd ref="312054342"/>
    <nd ref="312054341"/>
    <nd ref="312054322"/>
    <nd ref="312054282"/>
    <nd ref="312054280"/>
    <nd ref="312054412"/>
    <tag k="addr:postcode" v="00-679"/>
    <tag k="addr:street" v="Wilcza"/>
    <tag k="building" v="yes"/>
  </way>
  <way id="28407949" version="2" timestamp="2011-12-05T20:28:52Z" uid="52087" user="kocio" changeset="10045224">
    <nd ref="312054322"/>
    <nd ref="312054280"/>
    <nd ref="312054412"/>
    <nd ref="312054281"/>
    <nd ref="312054342"/>
    <nd ref="312054341"/>
    <nd ref="1533142692"/>
    <nd ref="367946840"/>
    <nd ref="1533142693"/>
    <nd ref="312054322"/>
    <tag k="addr:postcode" v="00-679"/>
    <tag k="addr:street" v="Wilcza"/>
    <tag k="building" v="yes"/>
  </way>
  <way id="28407949" version="3" timestamp="2012-01-05T20:36:21Z" uid="52087" user="kocio" changeset="10305207">
    <nd ref="312054322"/>
    <nd ref="1578659326"/>
    <nd ref="1578659333"/>
    <nd ref="1578659336"/>
    <nd ref="1578659338"/>
    <nd ref="1578659327"/>
    <nd ref="312054281"/>
    <nd ref="312054342"/>
    <nd ref="312054341"/>
    <nd ref="1533142692"/>
    <nd ref="367946840"/>
    <nd ref="1533142693"/>
    <nd ref="312054322"/>
    <tag k="addr:postcode" v="00-679"/>
    <tag k="addr:street" v="Wilcza"/>
    <tag k="building" v="yes"/>
  </way>
  <way id="28407951" version="1" timestamp="2008-11-14T20:52:52Z" uid="20587" user="balrog-kun" changeset="747594">
    <nd ref="312054384"/>
    <nd ref="312054383"/>
    <nd ref="312054278"/>
    <nd ref="312054414"/>
    <nd ref="312054412"/>
    <nd ref="312054280"/>
    <nd ref="312054384"/>
    <tag k="addr:housenumber" v="58a"/>
    <tag k="addr:postcode" v="00-679"/>
    <tag k="addr:street" v="Wilcza"/>
    <tag k="building" v="yes"/>
  </way>
  <way id="28407951" version="2" timestamp="2012-01-05T20:36:22Z" uid="52087" user="kocio" changeset="10305207">
    <nd ref="312054384"/>
    <nd ref="312054383"/>
    <nd ref="312054278"/>
    <nd ref="312054414"/>
    <nd ref="1578659331"/>
    <nd ref="1578659330"/>
    <nd ref="1578659335"/>
    <nd ref="312054384"/>
    <tag k="addr:housenumber" v="58a"/>
    <tag k="addr:postcode" v="00-679"/>
    <tag k="addr:street" v="Wilcza"/>
    <tag k="building" v="yes"/>
  </way>
  <way id="28407955" version="1" timestamp="2008-11-14T20:53:02Z" uid="20587" user="balrog-kun" changeset="747594">
    <nd ref="312054450"/>
    <nd ref="312054452"/>
    <nd ref="312054453"/>
    <nd ref="312054451"/>
    <nd ref="312054450"/>
    <tag k="addr:housenumber" v="65"/>
    <tag k="addr:postcode" v="00-679"/>
    <tag k="addr:street" v="Wilcza"/>
    <tag k="building" v="yes"/>
  </way>
  <way id="28407955" version="2" timestamp="2012-03-26T12:01:49Z" uid="338611" user="marek kleciak" changeset="11105169">
    <nd ref="312054450"/>
    <nd ref="312054452"/>
    <nd ref="312054453"/>
    <nd ref="1691825100"/>
    <nd ref="312054451"/>
    <nd ref="312054450"/>
    <tag k="addr:housenumber" v="65"/>
    <tag k="addr:postcode" v="00-679"/>
    <tag k="addr:street" v="Wilcza"/>
    <tag k="building" v="yes"/>
  </way>
  <way id="28407958" version="1" timestamp="2008-11-14T20:53:14Z" uid="20587" user="balrog-kun" changeset="747594">
    <nd ref="312054448"/>
    <nd ref="312054416"/>
    <nd ref="312054450"/>
    <nd ref="312054451"/>
    <nd ref="312054448"/>
    <tag k="addr:housenumber" v="61/63"/>
    <tag k="addr:postcode" v="00-679"/>
    <tag k="addr:street" v="Wilcza"/>
    <tag k="building" v="yes"/>
  </way>
  <way id="28407958" version="2" timestamp="2009-03-31T17:32:21Z" uid="20587" user="balrog-kun" changeset="872038">
    <nd ref="312054448"/>
    <nd ref="312054416"/>
    <nd ref="312054450"/>
    <nd ref="312054451"/>
    <nd ref="312054448"/>
    <tag k="addr:housenumber" v="55/63"/>
    <tag k="addr:postcode" v="00-679"/>
    <tag k="addr:street" v="Wilcza"/>
    <tag k="building" v="yes"/>
  </way>
  <way id="28407959" version="1" timestamp="2008-11-14T20:53:15Z" uid="20587" user="balrog-kun" changeset="747594">
    <nd ref="312054456"/>
    <nd ref="312054457"/>
    <nd ref="312054458"/>
    <nd ref="312054459"/>
    <nd ref="312054460"/>
    <nd ref="312054473"/>
    <nd ref="312054487"/>
    <nd ref="312054488"/>
    <nd ref="312054489"/>
    <nd ref="312054490"/>
    <tag k="highway" v="service"/>
  </way>
  <way id="28407960" version="1" timestamp="2008-11-14T20:53:16Z" uid="20587" user="balrog-kun" changeset="747594">
    <nd ref="312054491"/>
    <nd ref="312054492"/>
    <nd ref="312054493"/>
    <nd ref="312054510"/>
    <nd ref="312054491"/>
    <tag k="amenity" v="parking"/>
  </way>
  <way id="28407960" version="2" timestamp="2008-12-06T00:19:50Z" uid="20587" user="balrog-kun" changeset="204571">
    <nd ref="312054510"/>
    <nd ref="312054491"/>
    <nd ref="312054492"/>
    <nd ref="312054493"/>
    <nd ref="312054510"/>
    <tag k="amenity" v="parking"/>
  </way>
  <way id="28407961" version="1" timestamp="2008-11-14T20:53:27Z" uid="20587" user="balrog-kun" changeset="747594">
    <nd ref="312054512"/>
    <nd ref="312054514"/>
    <nd ref="312054541"/>
    <nd ref="312054515"/>
    <nd ref="312054517"/>
    <nd ref="312054512"/>
    <tag k="amenity" v="parking"/>
    <tag k="created_by" v="JOSM"/>
  </way>
  <way id="28407962" version="1" timestamp="2008-11-14T20:53:28Z" uid="20587" user="balrog-kun" changeset="747594">
    <nd ref="312054544"/>
    <nd ref="312054515"/>
    <nd ref="312054541"/>
    <nd ref="312054543"/>
    <nd ref="312054542"/>
    <nd ref="312054545"/>
    <nd ref="312054544"/>
    <tag k="addr:housenumber" v="75"/>
    <tag k="addr:street" v="Marszałkowska"/>
    <tag k="building" v="yes"/>
  </way>
  <way id="28407963" version="1" timestamp="2008-11-14T20:53:29Z" uid="20587" user="balrog-kun" changeset="747594">
    <nd ref="312054551"/>
    <nd ref="312054544"/>
    <nd ref="312054545"/>
    <nd ref="312054547"/>
    <nd ref="312054550"/>
    <nd ref="312054546"/>
    <nd ref="312054549"/>
    <nd ref="312054548"/>
    <tag k="addr:housenumber" v="77/79"/>
    <tag k="addr:street" v="Marszałkowska"/>
    <tag k="building" v="yes"/>
  </way>
  <way id="28407963" version="2" timestamp="2009-01-27T14:02:18Z" uid="59223" user="Briquollo" changeset="843745">
    <nd ref="312054548"/>
    <nd ref="312054544"/>
    <nd ref="312054545"/>
    <nd ref="312054547"/>
    <nd ref="312054550"/>
    <nd ref="312054546"/>
    <nd ref="312054549"/>
    <nd ref="312054548"/>
    <tag k="addr:housenumber" v="77/79"/>
    <tag k="addr:street" v="Marszałkowska"/>
    <tag k="building" v="yes"/>
  </way>
  <way id="28407965" version="1" timestamp="2008-11-14T20:53:29Z" uid="20587" user="balrog-kun" changeset="747594">
    <nd ref="312054572"/>
    <nd ref="312054552"/>
    <nd ref="312054546"/>
    <nd ref="312054550"/>
    <nd ref="312054572"/>
    <tag k="addr:housenumber" v="81"/>
    <tag k="addr:street" v="Marszałkowska"/>
    <tag k="building" v="yes"/>
  </way>
  <way id="28407966" version="1" timestamp="2008-11-14T20:53:30Z" uid="20587" user="balrog-kun" changeset="747594">
    <nd ref="312054552"/>
    <nd ref="312054572"/>
    <nd ref="312054574"/>
    <nd ref="312054581"/>
    <nd ref="312054575"/>
    <nd ref="312054573"/>
    <nd ref="312054552"/>
    <tag k="addr:housenumber" v="83"/>
    <tag k="addr:street" v="Marszałkowska"/>
    <tag k="building" v="yes"/>
  </way>
  <way id="28407966" version="2" timestamp="2012-01-12T03:17:02Z" uid="194862" user="abar" changeset="10366389">
    <nd ref="312054552"/>
    <nd ref="312054572"/>
    <nd ref="312054581"/>
    <nd ref="312054575"/>
    <nd ref="312054552"/>
    <tag k="addr:housenumber" v="83"/>
    <tag k="addr:street" v="Marszałkowska"/>
    <tag k="building" v="yes"/>
  </way>
  <way id="28407968" version="1" timestamp="2008-11-14T20:53:31Z" uid="20587" user="balrog-kun" changeset="747594">
    <nd ref="308198067"/>
    <nd ref="312054586"/>
    <nd ref="312054587"/>
    <nd ref="312054589"/>
    <nd ref="312054591"/>
    <nd ref="312054582"/>
    <tag k="highway" v="service"/>
  </way>
  <way id="28407968" version="2" timestamp="2010-05-01T17:18:43Z" uid="20587" user="balrog-kun" changeset="4577369">
    <nd ref="308198067"/>
    <nd ref="312054586"/>
    <nd ref="312054587"/>
    <nd ref="312054589"/>
    <nd ref="312054591"/>
    <nd ref="312054582"/>
    <tag k="highway" v="service"/>
    <tag k="lanes" v="1"/>
  </way>
  <way id="28407968" version="3" timestamp="2011-03-18T14:16:31Z" uid="338611" user="marek kleciak" changeset="7595604">
    <nd ref="308198067"/>
    <nd ref="312054586"/>
    <nd ref="312054587"/>
    <nd ref="1207358414"/>
    <nd ref="312054589"/>
    <nd ref="312054591"/>
    <nd ref="312054582"/>
    <tag k="highway" v="service"/>
    <tag k="lanes" v="1"/>
  </way>
  <way id="28407968" version="4" timestamp="2011-05-19T23:17:03Z" uid="20587" user="balrog-kun" changeset="8194302">
    <nd ref="308198067"/>
    <nd ref="312054586"/>
    <nd ref="312054587"/>
    <nd ref="312054589"/>
    <nd ref="312054591"/>
    <nd ref="312054582"/>
    <tag k="highway" v="service"/>
    <tag k="lanes" v="1"/>
  </way>
  <way id="28407968" version="5" timestamp="2011-08-26T10:13:04Z" uid="508862" user="KeiDii" changeset="9128116">
    <nd ref="308198067"/>
    <nd ref="312054586"/>
    <nd ref="312089209"/>
    <nd ref="312054591"/>
    <nd ref="312054582"/>
    <tag k="highway" v="service"/>
    <tag k="lanes" v="1"/>
  </way>
  <way id="28407969" version="1" timestamp="2008-11-14T20:53:32Z" uid="20587" user="balrog-kun" changeset="747594">
    <nd ref="312054593"/>
    <nd ref="312054607"/>
    <nd ref="312054608"/>
    <nd ref="312054606"/>
    <nd ref="312054593"/>
    <tag k="leisure" v="common"/>
  </way>
  <way id="28407969" version="2" timestamp="2008-11-17T23:25:28Z" uid="20587" user="balrog-kun" changeset="763932">
    <nd ref="312892944"/>
    <nd ref="312892942"/>
    <nd ref="312054593"/>
    <nd ref="312054607"/>
    <nd ref="312892944"/>
    <tag k="addr:housenumber" v="35"/>
    <tag k="addr:street" v="Chmielna"/>
    <tag k="building" v="yes"/>
  </way>
  <way id="28407969" version="3" timestamp="2009-01-27T20:43:36Z" uid="20587" user="balrog-kun" changeset="844028">
    <nd ref="312892944"/>
    <nd ref="312892942"/>
    <nd ref="312054593"/>
    <nd ref="312054607"/>
    <nd ref="312892944"/>
    <tag k="addr:housenumber" v="35"/>
    <tag k="addr:street" v="Chmielna"/>
    <tag k="building" v="yes"/>
    <tag k="building:levels" v="24"/>
  </way>
  <way id="28407970" version="1" timestamp="2008-11-14T20:53:32Z" uid="20587" user="balrog-kun" changeset="747594">
    <nd ref="312054610"/>
    <nd ref="312054643"/>
    <nd ref="312054644"/>
    <nd ref="312054611"/>
    <nd ref="312054610"/>
    <tag k="amenity" v="parking"/>
  </way>
  <way id="28407970" version="2" timestamp="2008-12-02T11:16:40Z" uid="20587" user="balrog-kun" changeset="35167">
    <nd ref="312054610"/>
    <nd ref="312054643"/>
    <nd ref="316199442"/>
    <nd ref="312054644"/>
    <nd ref="312054611"/>
    <nd ref="312054610"/>
    <tag k="amenity" v="parking"/>
  </way>
  <way id="28407970" version="3" timestamp="2009-01-08T20:09:54Z" uid="20587" user="balrog-kun" changeset="757533">
    <nd ref="312054610"/>
    <nd ref="312054611"/>
    <nd ref="312054644"/>
    <nd ref="316199442"/>
    <nd ref="312054643"/>
    <nd ref="312054610"/>
    <tag k="amenity" v="parking"/>
  </way>
  <way id="28407910" version="2" timestamp="2012-06-05T09:51:22Z" uid="99386" user="masti" changeset="11804428">
    <nd ref="312053731"/>
    <nd ref="1776920869"/>
    <nd ref="1776920867"/>
    <nd ref="312053734"/>
    <tag k="access" v="private"/>
    <tag k="highway" v="service"/>
  </way>
  <way id="28407911" version="3" timestamp="2012-06-05T09:51:21Z" uid="99386" user="masti" changeset="11804428">
    <nd ref="312053752"/>
    <nd ref="312053753"/>
    <nd ref="312053754"/>
    <nd ref="312053755"/>
    <nd ref="312053756"/>
    <nd ref="312053757"/>
    <nd ref="312053758"/>
    <nd ref="312053759"/>
    <nd ref="312053760"/>
    <nd ref="1776920900"/>
    <nd ref="312053730"/>
    <nd ref="1776920898"/>
    <nd ref="312053762"/>
    <nd ref="312053783"/>
    <nd ref="312053777"/>
    <nd ref="1776920897"/>
    <nd ref="312053781"/>
    <nd ref="312053732"/>
    <nd ref="569878628"/>
    <nd ref="312053761"/>
    <tag k="access" v="private"/>
    <tag k="highway" v="service"/>
  </way>
  <way id="28407912" version="3" timestamp="2012-06-05T09:51:22Z" uid="99386" user="masti" changeset="11804428">
    <nd ref="312053762"/>
    <nd ref="312053763"/>
    <nd ref="1776920912"/>
    <nd ref="569878611"/>
    <nd ref="569878612"/>
    <tag k="access" v="private"/>
    <tag k="highway" v="service"/>
    <tag k="source" v="Bing"/>
  </way>
  <way id="28407913" version="2" timestamp="2012-06-05T09:51:21Z" uid="99386" user="masti" changeset="11804428">
    <nd ref="312053764"/>
    <nd ref="312053763"/>
    <tag k="access" v="private"/>
    <tag k="highway" v="service"/>
  </way>
  <way id="28407915" version="2" timestamp="2012-06-05T09:51:22Z" uid="99386" user="masti" changeset="11804428">
    <nd ref="312053781"/>
    <nd ref="1776920899"/>
    <nd ref="312053782"/>
    <tag k="access" v="private"/>
    <tag k="highway" v="service"/>
  </way>
  <way id="28407962" version="2" timestamp="2012-04-20T14:18:31Z" uid="550476" user="fishcrosser" changeset="11364657">
    <nd ref="312054544"/>
    <nd ref="1724200607"/>
    <nd ref="1724200757"/>
    <nd ref="312054515"/>
    <nd ref="312054541"/>
    <nd ref="312054543"/>
    <nd ref="312054542"/>
    <nd ref="312054545"/>
    <nd ref="312054544"/>
    <tag k="addr:housenumber" v="75"/>
    <tag k="addr:street" v="Marszałkowska"/>
    <tag k="building" v="yes"/>
  </way>
</osm>
