<?xml version='1.0' encoding='UTF-8'?>
<osm version="0.6" generator="libosmium/2.20.0">
  <way id="28788011" version="10" timestamp="2011-03-10T12:01:01Z" uid="4467" user="Rosscoe" changeset="7513322">
    <nd ref="30994738"/>
    <nd ref="606210093"/>
    <nd ref="606286709"/>
    <nd ref="30994747"/>
    <nd ref="606286703"/>
    <nd ref="30994748"/>
    <nd ref="606284516"/>
    <nd ref="30994749"/>
    <nd ref="1074094577"/>
    <nd ref="30994750"/>
    <nd ref="1074094629"/>
    <nd ref="1195287085"/>
    <nd ref="1195287109"/>
    <tag k="highway" v="tertiary"/>
    <tag k="maxspeed" v="60"/>
    <tag k="name" v="Governor Road"/>
    <tag k="oneway" v="yes"/>
    <tag k="source" v="nearmap"/>
  </way>
  <way id="28788033" version="3" timestamp="2010-07-08T18:45:29Z" uid="74617" user="JohnSmith" changeset="5167338">
    <nd ref="316539643"/>
    <nd ref="316539759"/>
    <nd ref="316539726"/>
    <nd ref="30994753"/>
    <tag k="highway" v="residential"/>
    <tag k="maxspeed" v="50"/>
    <tag k="maxspeed:source" v="default residential speed limit in Australia"/>
    <tag k="name" v="Lamana Street"/>
  </way>
  <way id="28788033" version="4" timestamp="2012-01-17T23:11:52Z" uid="147510" user="woodpeck_fixbot" changeset="10421060">
    <nd ref="316539643"/>
    <nd ref="316539759"/>
    <nd ref="316539726"/>
    <nd ref="30994753"/>
    <tag k="highway" v="residential"/>
    <tag k="name" v="Lamana Street"/>
  </way>
  <way id="28788034" version="2" timestamp="2010-07-08T18:38:30Z" uid="74617" user="JohnSmith" changeset="5167338">
    <nd ref="316539726"/>
    <nd ref="316539757"/>
    <tag k="highway" v="residential"/>
    <tag k="maxspeed" v="50"/>
    <tag k="maxspeed:source" v="default residential speed limit in Australia"/>
    <tag k="name" v="Kareela Street"/>
    <tag k="source" v="MMBW"/>
  </way>
  <way id="28788034" version="3" timestamp="2012-01-17T23:11:53Z" uid="147510" user="woodpeck_fixbot" changeset="10421060">
    <nd ref="316539726"/>
    <nd ref="316539757"/>
    <tag k="highway" v="residential"/>
    <tag k="name" v="Kareela Street"/>
    <tag k="source" v="MMBW"/>
  </way>
  <way id="28788035" version="2" timestamp="2010-07-08T18:31:54Z" uid="74617" user="JohnSmith" changeset="5167338">
    <nd ref="316539759"/>
    <nd ref="316539762"/>
    <tag k="highway" v="residential"/>
    <tag k="maxspeed" v="50"/>
    <tag k="maxspeed:source" v="default residential speed limit in Australia"/>
    <tag k="name" v="Avlona Street"/>
    <tag k="source" v="MMBW"/>
  </way>
  <way id="28788035" version="3" timestamp="2012-01-17T23:11:54Z" uid="147510" user="woodpeck_fixbot" changeset="10421060">
    <nd ref="316539759"/>
    <nd ref="316539762"/>
    <tag k="highway" v="residential"/>
    <tag k="name" v="Avlona Street"/>
    <tag k="source" v="MMBW"/>
  </way>
  <way id="28788037" version="2" timestamp="2010-07-08T18:40:26Z" uid="74617" user="JohnSmith" changeset="5167338">
    <nd ref="316539807"/>
    <nd ref="316539828"/>
    <tag k="highway" v="residential"/>
    <tag k="maxspeed" v="50"/>
    <tag k="maxspeed:source" v="default residential speed limit in Australia"/>
    <tag k="name" v="Parsons Street"/>
    <tag k="source" v="MMBW"/>
  </way>
  <way id="28788037" version="3" timestamp="2012-01-17T23:11:55Z" uid="147510" user="woodpeck_fixbot" changeset="10421060">
    <nd ref="316539807"/>
    <nd ref="316539828"/>
    <tag k="highway" v="residential"/>
    <tag k="name" v="Parsons Street"/>
    <tag k="source" v="MMBW"/>
  </way>
  <way id="28788055" version="2" timestamp="2010-07-08T18:39:10Z" uid="74617" user="JohnSmith" changeset="5167338">
    <nd ref="316539829"/>
    <nd ref="316539833"/>
    <tag k="highway" v="residential"/>
    <tag k="maxspeed" v="50"/>
    <tag k="maxspeed:source" v="default residential speed limit in Australia"/>
    <tag k="name" v="Steedman Street"/>
    <tag k="source" v="MMBW"/>
  </way>
  <way id="28788055" version="3" timestamp="2012-01-17T23:11:57Z" uid="147510" user="woodpeck_fixbot" changeset="10421060">
    <nd ref="316539829"/>
    <nd ref="316539833"/>
    <tag k="highway" v="residential"/>
    <tag k="name" v="Steedman Street"/>
    <tag k="source" v="MMBW"/>
  </way>
  <way id="28788083" version="3" timestamp="2010-07-08T18:15:54Z" uid="74617" user="JohnSmith" changeset="5167338">
    <nd ref="316539950"/>
    <nd ref="316539958"/>
    <tag k="highway" v="residential"/>
    <tag k="maxspeed" v="50"/>
    <tag k="maxspeed:source" v="default residential speed limit in Australia"/>
    <tag k="name" v="Woods Avenue"/>
    <tag k="source" v="MMBW"/>
  </way>
  <way id="28788083" version="4" timestamp="2012-01-17T23:12:00Z" uid="147510" user="woodpeck_fixbot" changeset="10421060">
    <nd ref="316539950"/>
    <nd ref="316539958"/>
    <tag k="highway" v="residential"/>
    <tag k="name" v="Woods Avenue"/>
    <tag k="source" v="MMBW"/>
  </way>
  <way id="28788088" version="5" timestamp="2010-07-08T18:48:03Z" uid="74617" user="JohnSmith" changeset="5167338">
    <nd ref="316539978"/>
    <nd ref="606286478"/>
    <nd ref="316539979"/>
    <nd ref="606286531"/>
    <nd ref="316539997"/>
    <nd ref="316539980"/>
    <tag k="highway" v="residential"/>
    <tag k="maxspeed" v="50"/>
    <tag k="maxspeed:source" v="default residential speed limit in Australia"/>
    <tag k="name" v="Bowman Street"/>
    <tag k="source" v="MMBW"/>
  </way>
  <way id="28788088" version="6" timestamp="2012-01-17T23:12:01Z" uid="147510" user="woodpeck_fixbot" changeset="10421060">
    <nd ref="316539978"/>
    <nd ref="606286478"/>
    <nd ref="316539979"/>
    <nd ref="606286531"/>
    <nd ref="316539997"/>
    <nd ref="316539980"/>
    <tag k="highway" v="residential"/>
    <tag k="name" v="Bowman Street"/>
    <tag k="source" v="MMBW"/>
  </way>
  <way id="28788092" version="2" timestamp="2010-07-08T18:44:51Z" uid="74617" user="JohnSmith" changeset="5167338">
    <nd ref="316539997"/>
    <nd ref="316539998"/>
    <tag k="highway" v="residential"/>
    <tag k="maxspeed" v="50"/>
    <tag k="maxspeed:source" v="default residential speed limit in Australia"/>
    <tag k="name" v="Alfred Street"/>
    <tag k="source" v="MMBW"/>
  </way>
  <way id="28788092" version="3" timestamp="2012-01-17T23:12:02Z" uid="147510" user="woodpeck_fixbot" changeset="10421060">
    <nd ref="316539997"/>
    <nd ref="316539998"/>
    <tag k="highway" v="residential"/>
    <tag k="name" v="Alfred Street"/>
    <tag k="source" v="MMBW"/>
  </way>
  <way id="28788095" version="2" timestamp="2010-07-25T07:23:35Z" uid="4467" user="Rosscoe" changeset="5309335">
    <nd ref="316540002"/>
    <nd ref="316540005"/>
    <nd ref="832379029"/>
    <nd ref="832379015"/>
    <nd ref="316540006"/>
    <nd ref="316540007"/>
    <nd ref="316540008"/>
    <nd ref="316540009"/>
    <nd ref="316540002"/>
    <tag k="leisure" v="park"/>
    <tag k="name" v="Attenborough Park"/>
  </way>
  <way id="28788095" version="3" timestamp="2010-07-25T07:49:13Z" uid="4467" user="Rosscoe" changeset="5309497">
    <nd ref="316540002"/>
    <nd ref="316540005"/>
    <nd ref="832379029"/>
    <nd ref="832379015"/>
    <nd ref="316540006"/>
    <nd ref="832384169"/>
    <nd ref="832384168"/>
    <nd ref="316540007"/>
    <nd ref="832384163"/>
    <nd ref="316540008"/>
    <nd ref="832384164"/>
    <nd ref="832384170"/>
    <nd ref="832384165"/>
    <nd ref="832384171"/>
    <nd ref="316540009"/>
    <nd ref="316540002"/>
    <tag k="leisure" v="park"/>
    <tag k="name" v="Attenborough Park"/>
  </way>
  <way id="28788096" version="3" timestamp="2010-07-08T18:34:35Z" uid="74617" user="JohnSmith" changeset="5167338">
    <nd ref="316540012"/>
    <nd ref="316540029"/>
    <tag k="highway" v="residential"/>
    <tag k="maxspeed" v="50"/>
    <tag k="maxspeed:source" v="default residential speed limit in Australia"/>
    <tag k="name" v="Attenborough Road"/>
    <tag k="source" v="MMBW"/>
  </way>
  <way id="28788096" version="4" timestamp="2012-01-17T23:12:05Z" uid="147510" user="woodpeck_fixbot" changeset="10421060">
    <nd ref="316540012"/>
    <nd ref="316540029"/>
    <tag k="highway" v="residential"/>
    <tag k="name" v="Attenborough Road"/>
    <tag k="source" v="MMBW"/>
  </way>
  <way id="28788104" version="5" timestamp="2009-06-14T14:35:18Z" uid="43863" user="Rundling" changeset="1515003">
    <nd ref="316540227"/>
    <nd ref="316540228"/>
    <nd ref="316540229"/>
    <nd ref="316540230"/>
    <tag k="highway" v="unclassified"/>
  </way>
  <way id="28788104" version="6" timestamp="2009-08-27T11:41:55Z" uid="129291" user="geo_sn" changeset="2277033">
    <nd ref="316540227"/>
    <nd ref="316540228"/>
    <nd ref="316540229"/>
    <nd ref="316540230"/>
    <tag k="highway" v="tertiary"/>
    <tag k="ref" v="K 58"/>
  </way>
  <way id="28788105" version="6" timestamp="2010-07-08T18:37:27Z" uid="74617" user="JohnSmith" changeset="5167338">
    <nd ref="316540029"/>
    <nd ref="316540236"/>
    <nd ref="316540238"/>
    <nd ref="316540239"/>
    <nd ref="316540378"/>
    <nd ref="316540513"/>
    <nd ref="316540379"/>
    <tag k="highway" v="residential"/>
    <tag k="maxspeed" v="50"/>
    <tag k="maxspeed:source" v="default residential speed limit in Australia"/>
    <tag k="name" v="Pine Crescent"/>
    <tag k="source" v="MMBW"/>
  </way>
  <way id="28788105" version="7" timestamp="2012-01-17T23:12:06Z" uid="147510" user="woodpeck_fixbot" changeset="10421060">
    <nd ref="316540029"/>
    <nd ref="316540236"/>
    <nd ref="316540238"/>
    <nd ref="316540239"/>
    <nd ref="316540378"/>
    <nd ref="316540513"/>
    <nd ref="316540379"/>
    <tag k="highway" v="residential"/>
    <tag k="name" v="Pine Crescent"/>
    <tag k="source" v="MMBW"/>
  </way>
  <way id="28788120" version="3" timestamp="2010-07-08T18:22:43Z" uid="74617" user="JohnSmith" changeset="5167338">
    <nd ref="316540239"/>
    <nd ref="316540240"/>
    <nd ref="316540241"/>
    <tag k="highway" v="residential"/>
    <tag k="maxspeed" v="50"/>
    <tag k="maxspeed:source" v="default residential speed limit in Australia"/>
    <tag k="name" v="Pine Court"/>
  </way>
  <way id="28788120" version="4" timestamp="2012-01-17T23:12:10Z" uid="147510" user="woodpeck_fixbot" changeset="10421060">
    <nd ref="316540239"/>
    <nd ref="316540240"/>
    <nd ref="316540241"/>
    <tag k="highway" v="residential"/>
    <tag k="name" v="Pine Court"/>
  </way>
  <way id="28788127" version="5" timestamp="2010-07-08T18:31:34Z" uid="74617" user="JohnSmith" changeset="5167338">
    <nd ref="316540378"/>
    <nd ref="316540385"/>
    <nd ref="316540519"/>
    <nd ref="316540522"/>
    <nd ref="316541763"/>
    <nd ref="316540386"/>
    <nd ref="316540387"/>
    <tag k="highway" v="residential"/>
    <tag k="maxspeed" v="50"/>
    <tag k="maxspeed:source" v="default residential speed limit in Australia"/>
    <tag k="name" v="Mill Street"/>
    <tag k="source" v="MMBW"/>
  </way>
  <way id="28788127" version="6" timestamp="2012-01-17T23:12:11Z" uid="147510" user="woodpeck_fixbot" changeset="10421060">
    <nd ref="316540378"/>
    <nd ref="316540385"/>
    <nd ref="316540519"/>
    <nd ref="316540522"/>
    <nd ref="316541763"/>
    <nd ref="316540386"/>
    <nd ref="316540387"/>
    <tag k="highway" v="residential"/>
    <tag k="name" v="Mill Street"/>
    <tag k="source" v="MMBW"/>
  </way>
  <way id="28788130" version="2" timestamp="2010-07-08T18:27:37Z" uid="74617" user="JohnSmith" changeset="5167338">
    <nd ref="316540408"/>
    <nd ref="316540414"/>
    <tag k="highway" v="residential"/>
    <tag k="maxspeed" v="50"/>
    <tag k="maxspeed:source" v="default residential speed limit in Australia"/>
    <tag k="name" v="Coleman Road"/>
    <tag k="source" v="MMBW"/>
  </way>
  <way id="28788130" version="3" timestamp="2012-01-17T23:12:13Z" uid="147510" user="woodpeck_fixbot" changeset="10421060">
    <nd ref="316540408"/>
    <nd ref="316540414"/>
    <tag k="highway" v="residential"/>
    <tag k="name" v="Coleman Road"/>
    <tag k="source" v="MMBW"/>
  </way>
  <way id="28788132" version="3" timestamp="2010-07-08T18:36:32Z" uid="74617" user="JohnSmith" changeset="5167338">
    <nd ref="316540427"/>
    <nd ref="316540426"/>
    <nd ref="316540425"/>
    <nd ref="316540424"/>
    <nd ref="316540423"/>
    <nd ref="316540422"/>
    <nd ref="316540415"/>
    <tag k="highway" v="residential"/>
    <tag k="maxspeed" v="50"/>
    <tag k="maxspeed:source" v="default residential speed limit in Australia"/>
    <tag k="name" v="Watkins Street"/>
    <tag k="oneway" v="yes"/>
    <tag k="source" v="MMBW"/>
  </way>
  <way id="28788132" version="4" timestamp="2012-01-17T23:12:14Z" uid="147510" user="woodpeck_fixbot" changeset="10421060">
    <nd ref="316540427"/>
    <nd ref="316540426"/>
    <nd ref="316540425"/>
    <nd ref="316540424"/>
    <nd ref="316540423"/>
    <nd ref="316540422"/>
    <nd ref="316540415"/>
    <tag k="highway" v="residential"/>
    <tag k="name" v="Watkins Street"/>
    <tag k="oneway" v="yes"/>
    <tag k="source" v="MMBW"/>
  </way>
  <way id="28788132" version="5" timestamp="2012-03-15T21:07:09Z" uid="320632" user="Zulu99" changeset="10992860">
    <nd ref="316540427"/>
    <nd ref="316540425"/>
    <nd ref="1676199598"/>
    <nd ref="316540424"/>
    <nd ref="316540423"/>
    <nd ref="316540422"/>
    <nd ref="316540415"/>
    <tag k="highway" v="residential"/>
    <tag k="name" v="Watkins Street"/>
    <tag k="oneway" v="yes"/>
    <tag k="source" v="MMBW"/>
  </way>
  <way id="28788134" version="2" timestamp="2010-07-08T18:20:07Z" uid="74617" user="JohnSmith" changeset="5167338">
    <nd ref="316540436"/>
    <nd ref="316540437"/>
    <tag k="highway" v="residential"/>
    <tag k="maxspeed" v="50"/>
    <tag k="maxspeed:source" v="default residential speed limit in Australia"/>
    <tag k="name" v="Hearle Avenue"/>
    <tag k="source" v="MMBW"/>
  </way>
  <way id="28788134" version="3" timestamp="2012-01-17T23:12:16Z" uid="147510" user="woodpeck_fixbot" changeset="10421060">
    <nd ref="316540436"/>
    <nd ref="316540437"/>
    <tag k="highway" v="residential"/>
    <tag k="name" v="Hearle Avenue"/>
    <tag k="source" v="MMBW"/>
  </way>
  <way id="28788150" version="3" timestamp="2010-07-08T18:35:34Z" uid="74617" user="JohnSmith" changeset="5167338">
    <nd ref="316540513"/>
    <nd ref="316540515"/>
    <nd ref="316540516"/>
    <nd ref="316540517"/>
    <tag k="highway" v="residential"/>
    <tag k="maxspeed" v="50"/>
    <tag k="maxspeed:source" v="default residential speed limit in Australia"/>
    <tag k="name" v="Willmott Street"/>
  </way>
  <way id="28788150" version="4" timestamp="2012-01-17T23:12:18Z" uid="147510" user="woodpeck_fixbot" changeset="10421060">
    <nd ref="316540513"/>
    <nd ref="316540515"/>
    <nd ref="316540516"/>
    <nd ref="316540517"/>
    <tag k="highway" v="residential"/>
    <tag k="name" v="Willmott Street"/>
  </way>
  <way id="28788151" version="3" timestamp="2010-07-08T18:28:33Z" uid="74617" user="JohnSmith" changeset="5167338">
    <nd ref="316540516"/>
    <nd ref="316540519"/>
    <nd ref="316540520"/>
    <tag k="highway" v="residential"/>
    <tag k="maxspeed" v="50"/>
    <tag k="maxspeed:source" v="default residential speed limit in Australia"/>
    <tag k="name" v="Mount View Street"/>
  </way>
  <way id="28788151" version="4" timestamp="2012-01-17T23:12:19Z" uid="147510" user="woodpeck_fixbot" changeset="10421060">
    <nd ref="316540516"/>
    <nd ref="316540519"/>
    <nd ref="316540520"/>
    <tag k="highway" v="residential"/>
    <tag k="name" v="Mount View Street"/>
  </way>
  <way id="28788152" version="3" timestamp="2010-07-08T18:31:58Z" uid="74617" user="JohnSmith" changeset="5167338">
    <nd ref="316540521"/>
    <nd ref="316540522"/>
    <tag k="highway" v="residential"/>
    <tag k="maxspeed" v="50"/>
    <tag k="maxspeed:source" v="default residential speed limit in Australia"/>
    <tag k="name" v="Ruvina Street"/>
  </way>
  <way id="28788152" version="4" timestamp="2012-01-17T23:12:20Z" uid="147510" user="woodpeck_fixbot" changeset="10421060">
    <nd ref="316540521"/>
    <nd ref="316540522"/>
    <tag k="highway" v="residential"/>
    <tag k="name" v="Ruvina Street"/>
  </way>
  <way id="28788158" version="8" timestamp="2010-02-26T03:28:49Z" uid="99207" user="Lar Kiesel" changeset="3977410">
    <nd ref="69100804"/>
    <nd ref="69126665"/>
    <nd ref="69126662"/>
    <nd ref="69126660"/>
    <nd ref="69126658"/>
    <nd ref="69126655"/>
    <nd ref="69126652"/>
    <nd ref="69126651"/>
    <nd ref="69126649"/>
    <nd ref="69126646"/>
    <nd ref="69117445"/>
    <nd ref="462966613"/>
    <nd ref="69126644"/>
    <tag k="highway" v="motorway_link"/>
    <tag k="oneway" v="yes"/>
    <tag k="tiger:cfcc" v="A63"/>
    <tag k="tiger:county" v="Fulton, GA"/>
    <tag k="tiger:source" v="tiger_import_dch_v0.6_20070809"/>
    <tag k="tiger:tlid" v="17424410:17408016:17424411:17430560:17430756:17430654:17424402:17424403:17424419:17414001:17414007"/>
    <tag k="tiger:upload_uuid" v="bulk_upload.pl-c8274ca7-1e7e-4947-a610-ec552689e057"/>
  </way>
  <way id="28788158" version="9" timestamp="2010-12-14T03:48:38Z" uid="28852" user="Mark Gray" changeset="6654907">
    <nd ref="69100804"/>
    <nd ref="69126665"/>
    <nd ref="69126662"/>
    <nd ref="69126660"/>
    <nd ref="69126658"/>
    <nd ref="69126655"/>
    <nd ref="69126652"/>
    <nd ref="69126651"/>
    <nd ref="69126649"/>
    <nd ref="69117445"/>
    <nd ref="462966613"/>
    <nd ref="69126644"/>
    <tag k="highway" v="motorway_link"/>
    <tag k="oneway" v="yes"/>
    <tag k="tiger:cfcc" v="A63"/>
    <tag k="tiger:county" v="Fulton, GA"/>
    <tag k="tiger:source" v="tiger_import_dch_v0.6_20070809"/>
    <tag k="tiger:tlid" v="17424410:17408016:17424411:17430560:17430756:17430654:17424402:17424403:17424419:17414001:17414007"/>
    <tag k="tiger:upload_uuid" v="bulk_upload.pl-c8274ca7-1e7e-4947-a610-ec552689e057"/>
  </way>
  <way id="28788161" version="5" timestamp="2010-03-28T00:23:05Z" uid="20587" user="balrog-kun" changeset="4250871">
    <nd ref="49069374"/>
    <nd ref="49069377"/>
    <tag k="bridge" v="yes"/>
    <tag k="created_by" v="Potlatch 0.10f"/>
    <tag k="highway" v="residential"/>
    <tag k="layer" v="1"/>
    <tag k="name" v="Robinson Avenue"/>
    <tag k="tiger:cfcc" v="A41"/>
    <tag k="tiger:county" v="San Diego, CA"/>
    <tag k="tiger:name_base" v="Robinson"/>
    <tag k="tiger:name_type" v="Ave"/>
    <tag k="tiger:separated" v="no"/>
    <tag k="tiger:source" v="tiger_import_dch_v0.6_20070809"/>
    <tag k="tiger:tlid" v="195345345"/>
    <tag k="tiger:zip_left" v="92104"/>
    <tag k="tiger:zip_right" v="92104"/>
  </way>
  <way id="28788174" version="6" timestamp="2010-02-26T03:29:32Z" uid="99207" user="Lar Kiesel" changeset="3977410"/>
  <way id="28788181" version="4" timestamp="2010-07-08T18:48:07Z" uid="74617" user="JohnSmith" changeset="5167338">
    <nd ref="316541749"/>
    <nd ref="316541763"/>
    <nd ref="606206775"/>
    <nd ref="316541764"/>
    <tag k="highway" v="residential"/>
    <tag k="maxspeed" v="50"/>
    <tag k="maxspeed:source" v="default residential speed limit in Australia"/>
    <tag k="name" v="James Avenue"/>
  </way>
  <way id="28788181" version="5" timestamp="2012-01-17T23:12:21Z" uid="147510" user="woodpeck_fixbot" changeset="10421060">
    <nd ref="316541749"/>
    <nd ref="316541763"/>
    <nd ref="606206775"/>
    <nd ref="316541764"/>
    <tag k="highway" v="residential"/>
    <tag k="name" v="James Avenue"/>
  </way>
  <way id="28788194" version="4" timestamp="2010-07-08T18:42:47Z" uid="74617" user="JohnSmith" changeset="5167338">
    <nd ref="316541765"/>
    <nd ref="316541938"/>
    <nd ref="316540387"/>
    <nd ref="606206773"/>
    <nd ref="316541939"/>
    <tag k="highway" v="residential"/>
    <tag k="maxspeed" v="50"/>
    <tag k="maxspeed:source" v="default residential speed limit in Australia"/>
    <tag k="name" v="Eulinga Avenue"/>
  </way>
  <way id="28788194" version="5" timestamp="2012-01-17T23:12:22Z" uid="147510" user="woodpeck_fixbot" changeset="10421060">
    <nd ref="316541765"/>
    <nd ref="316541938"/>
    <nd ref="316540387"/>
    <nd ref="606206773"/>
    <nd ref="316541939"/>
    <tag k="highway" v="residential"/>
    <tag k="name" v="Eulinga Avenue"/>
  </way>
  <way id="28788200" version="6" timestamp="2010-07-25T07:21:31Z" uid="4467" user="Rosscoe" changeset="5309335">
    <nd ref="29980466"/>
    <nd ref="29980465"/>
    <nd ref="575057063"/>
    <nd ref="575338915"/>
    <nd ref="316538779"/>
    <nd ref="30994706"/>
    <nd ref="575057010"/>
    <nd ref="29980463"/>
    <tag k="name" v="Frankston Line"/>
    <tag k="oneway" v="yes"/>
    <tag k="railway" v="rail"/>
  </way>
  <way id="28788200" version="7" timestamp="2011-11-02T07:26:54Z" uid="42429" user="FK270673" changeset="9719322">
    <nd ref="29980466"/>
    <nd ref="29980465"/>
    <nd ref="575057063"/>
    <nd ref="575338915"/>
    <nd ref="316538779"/>
    <nd ref="30994706"/>
    <nd ref="575057010"/>
    <nd ref="29980463"/>
    <tag k="electrified" v="contact_line"/>
    <tag k="frequency" v="0"/>
    <tag k="gauge" v="1600"/>
    <tag k="name" v="Frankston Line"/>
    <tag k="oneway" v="yes"/>
    <tag k="railway" v="rail"/>
    <tag k="voltage" v="1500"/>
  </way>
  <way id="28788204" version="2" timestamp="2010-04-03T13:43:08Z" uid="20587" user="balrog-kun" changeset="4312927">
    <nd ref="316542119"/>
    <nd ref="316499167"/>
    <tag k="bridge" v="yes"/>
    <tag k="created_by" v="Potlatch 0.10f"/>
    <tag k="highway" v="residential"/>
    <tag k="layer" v="1"/>
    <tag k="name" v="Crossbar Road"/>
    <tag k="tiger:cfcc" v="A41"/>
    <tag k="tiger:county" v="Salt Lake, UT"/>
    <tag k="tiger:name_base" v="Crossbar"/>
    <tag k="tiger:name_type" v="Rd"/>
    <tag k="tiger:separated" v="no"/>
    <tag k="tiger:source" v="tiger_import_dch_v0.6_20070830"/>
    <tag k="tiger:tlid" v="176138111:176138112:176065025:176117812"/>
    <tag k="tiger:zip_left" v="84116"/>
    <tag k="tiger:zip_right" v="84116"/>
  </way>
  <way id="28788205" version="3" timestamp="2010-04-03T13:43:09Z" uid="20587" user="balrog-kun" changeset="4312927">
    <nd ref="316542120"/>
    <nd ref="83602451"/>
    <nd ref="316542119"/>
    <tag k="created_by" v="Potlatch 0.10f"/>
    <tag k="highway" v="residential"/>
    <tag k="name" v="Crossbar Road"/>
    <tag k="tiger:cfcc" v="A41"/>
    <tag k="tiger:county" v="Salt Lake, UT"/>
    <tag k="tiger:name_base" v="Crossbar"/>
    <tag k="tiger:name_type" v="Rd"/>
    <tag k="tiger:separated" v="no"/>
    <tag k="tiger:source" v="tiger_import_dch_v0.6_20070830"/>
    <tag k="tiger:tlid" v="176138111:176138112:176065025:176117812"/>
    <tag k="tiger:zip_left" v="84116"/>
    <tag k="tiger:zip_right" v="84116"/>
  </way>
  <way id="28788212" version="4" timestamp="2010-04-07T13:11:38Z" uid="20587" user="balrog-kun" changeset="4353646">
    <nd ref="147450708"/>
    <nd ref="316538475"/>
    <nd ref="316538487"/>
    <nd ref="147450715"/>
    <nd ref="147439435"/>
    <nd ref="147440538"/>
    <nd ref="147450717"/>
    <nd ref="147450719"/>
    <nd ref="147450721"/>
    <nd ref="147450723"/>
    <nd ref="313206139"/>
    <tag k="created_by" v="Potlatch 0.10f"/>
    <tag k="highway" v="secondary"/>
    <tag k="name" v="South Bryant Avenue"/>
    <tag k="oneway" v="yes"/>
    <tag k="tiger:cfcc" v="A41"/>
    <tag k="tiger:county" v="Oklahoma, OK"/>
    <tag k="tiger:name_base" v="Bryant"/>
    <tag k="tiger:name_direction_prefix" v="S"/>
    <tag k="tiger:name_type" v="Ave"/>
    <tag k="tiger:reviewed" v="no"/>
    <tag k="tiger:separated" v="no"/>
    <tag k="tiger:source" v="tiger_import_dch_v0.6_20070829"/>
    <tag k="tiger:tlid" v="100428921:100418519:100418500:100448357"/>
    <tag k="tiger:zip_left" v="73115"/>
    <tag k="tiger:zip_right" v="73149"/>
  </way>
  <way id="28788213" version="11" timestamp="2010-07-08T18:22:57Z" uid="74617" user="JohnSmith" changeset="5167338">
    <nd ref="316541938"/>
    <nd ref="316542174"/>
    <nd ref="316545973"/>
    <nd ref="316542177"/>
    <nd ref="316546012"/>
    <nd ref="316546019"/>
    <nd ref="316546021"/>
    <nd ref="316546025"/>
    <nd ref="316547015"/>
    <nd ref="316542175"/>
    <nd ref="316542176"/>
    <nd ref="316546837"/>
    <nd ref="31655601"/>
    <tag k="highway" v="residential"/>
    <tag k="maxspeed" v="50"/>
    <tag k="maxspeed:source" v="default residential speed limit in Australia"/>
    <tag k="name" v="Laura Street"/>
  </way>
  <way id="28788213" version="12" timestamp="2012-01-17T23:12:24Z" uid="147510" user="woodpeck_fixbot" changeset="10421060">
    <nd ref="316541938"/>
    <nd ref="316542174"/>
    <nd ref="316545973"/>
    <nd ref="316542177"/>
    <nd ref="316546012"/>
    <nd ref="316546019"/>
    <nd ref="316546021"/>
    <nd ref="316546025"/>
    <nd ref="316547015"/>
    <nd ref="316542175"/>
    <nd ref="316542176"/>
    <nd ref="316546837"/>
    <nd ref="31655601"/>
    <tag k="highway" v="residential"/>
    <tag k="name" v="Laura Street"/>
  </way>
  <way id="28788214" version="3" timestamp="2010-07-08T18:48:20Z" uid="74617" user="JohnSmith" changeset="5167338">
    <nd ref="31655599"/>
    <nd ref="316542177"/>
    <tag k="highway" v="residential"/>
    <tag k="maxspeed" v="50"/>
    <tag k="maxspeed:source" v="default residential speed limit in Australia"/>
    <tag k="name" v="Anchor Street"/>
    <tag k="source" v="MMBW"/>
  </way>
  <way id="28788214" version="4" timestamp="2012-01-17T23:12:25Z" uid="147510" user="woodpeck_fixbot" changeset="10421060">
    <nd ref="31655599"/>
    <nd ref="316542177"/>
    <tag k="highway" v="residential"/>
    <tag k="name" v="Anchor Street"/>
    <tag k="source" v="MMBW"/>
  </way>
  <way id="28788467" version="6" timestamp="2010-07-08T18:28:58Z" uid="74617" user="JohnSmith" changeset="5167338">
    <nd ref="316545973"/>
    <nd ref="316546015"/>
    <nd ref="316545989"/>
    <nd ref="316545988"/>
    <nd ref="606206593"/>
    <nd ref="606206599"/>
    <nd ref="606206601"/>
    <nd ref="606206604"/>
    <nd ref="606206675"/>
    <nd ref="606206606"/>
    <nd ref="606206609"/>
    <tag k="highway" v="residential"/>
    <tag k="maxspeed" v="50"/>
    <tag k="maxspeed:source" v="default residential speed limit in Australia"/>
    <tag k="name" v="Ebb Street"/>
    <tag k="source" v="MMBW"/>
  </way>
  <way id="28788467" version="7" timestamp="2012-01-17T23:12:26Z" uid="147510" user="woodpeck_fixbot" changeset="10421060">
    <nd ref="316545973"/>
    <nd ref="316546015"/>
    <nd ref="316545989"/>
    <nd ref="316545988"/>
    <nd ref="606206593"/>
    <nd ref="606206599"/>
    <nd ref="606206601"/>
    <nd ref="606206604"/>
    <nd ref="606206675"/>
    <nd ref="606206606"/>
    <nd ref="606206609"/>
    <tag k="highway" v="residential"/>
    <tag k="name" v="Ebb Street"/>
    <tag k="source" v="MMBW"/>
  </way>
  <way id="28788468" version="2" timestamp="2010-07-08T18:44:56Z" uid="74617" user="JohnSmith" changeset="5167338">
    <nd ref="316545989"/>
    <nd ref="316546005"/>
    <nd ref="316546006"/>
    <nd ref="316546007"/>
    <nd ref="316546008"/>
    <nd ref="316546009"/>
    <nd ref="316546010"/>
    <nd ref="316546011"/>
    <tag k="highway" v="residential"/>
    <tag k="maxspeed" v="50"/>
    <tag k="maxspeed:source" v="default residential speed limit in Australia"/>
    <tag k="name" v="Dolphin Street"/>
    <tag k="source" v="MMBW"/>
  </way>
  <way id="28788468" version="3" timestamp="2012-01-17T23:12:27Z" uid="147510" user="woodpeck_fixbot" changeset="10421060">
    <nd ref="316545989"/>
    <nd ref="316546005"/>
    <nd ref="316546006"/>
    <nd ref="316546007"/>
    <nd ref="316546008"/>
    <nd ref="316546009"/>
    <nd ref="316546010"/>
    <nd ref="316546011"/>
    <tag k="highway" v="residential"/>
    <tag k="name" v="Dolphin Street"/>
    <tag k="source" v="MMBW"/>
  </way>
  <way id="28788470" version="3" timestamp="2010-07-08T18:31:18Z" uid="74617" user="JohnSmith" changeset="5167338">
    <nd ref="316546012"/>
    <nd ref="316546016"/>
    <nd ref="316546008"/>
    <tag k="highway" v="residential"/>
    <tag k="maxspeed" v="50"/>
    <tag k="maxspeed:source" v="default residential speed limit in Australia"/>
    <tag k="name" v="Gale Street"/>
    <tag k="source" v="MMBW"/>
  </way>
  <way id="28788470" version="4" timestamp="2012-01-17T23:12:29Z" uid="147510" user="woodpeck_fixbot" changeset="10421060">
    <nd ref="316546012"/>
    <nd ref="316546016"/>
    <nd ref="316546008"/>
    <tag k="highway" v="residential"/>
    <tag k="name" v="Gale Street"/>
    <tag k="source" v="MMBW"/>
  </way>
  <way id="28788471" version="3" timestamp="2010-07-08T18:22:14Z" uid="74617" user="JohnSmith" changeset="5167338">
    <nd ref="316546015"/>
    <nd ref="316546017"/>
    <nd ref="316546016"/>
    <tag k="highway" v="residential"/>
    <tag k="maxspeed" v="50"/>
    <tag k="maxspeed:source" v="default residential speed limit in Australia"/>
    <tag k="name" v="Captain Street"/>
    <tag k="source" v="MMBW"/>
  </way>
  <way id="28788471" version="4" timestamp="2012-01-17T23:12:30Z" uid="147510" user="woodpeck_fixbot" changeset="10421060">
    <nd ref="316546015"/>
    <nd ref="316546017"/>
    <nd ref="316546016"/>
    <tag k="highway" v="residential"/>
    <tag k="name" v="Captain Street"/>
    <tag k="source" v="MMBW"/>
  </way>
  <way id="28788472" version="2" timestamp="2010-07-08T18:26:52Z" uid="74617" user="JohnSmith" changeset="5167338">
    <nd ref="316546017"/>
    <nd ref="316546006"/>
    <tag k="highway" v="residential"/>
    <tag k="maxspeed" v="50"/>
    <tag k="maxspeed:source" v="default residential speed limit in Australia"/>
    <tag k="name" v="Foam Street"/>
  </way>
  <way id="28788472" version="3" timestamp="2012-01-17T23:12:32Z" uid="147510" user="woodpeck_fixbot" changeset="10421060">
    <nd ref="316546017"/>
    <nd ref="316546006"/>
    <tag k="highway" v="residential"/>
    <tag k="name" v="Foam Street"/>
  </way>
  <way id="28788474" version="2" timestamp="2010-07-08T18:45:49Z" uid="74617" user="JohnSmith" changeset="5167338">
    <nd ref="316546019"/>
    <nd ref="316546009"/>
    <tag k="highway" v="residential"/>
    <tag k="maxspeed" v="50"/>
    <tag k="maxspeed:source" v="default residential speed limit in Australia"/>
    <tag k="name" v="Helm Street"/>
    <tag k="source" v="MMBW"/>
  </way>
  <way id="28788474" version="3" timestamp="2012-01-17T23:12:33Z" uid="147510" user="woodpeck_fixbot" changeset="10421060">
    <nd ref="316546019"/>
    <nd ref="316546009"/>
    <tag k="highway" v="residential"/>
    <tag k="name" v="Helm Street"/>
    <tag k="source" v="MMBW"/>
  </way>
  <way id="28788475" version="4" timestamp="2010-07-08T18:39:02Z" uid="74617" user="JohnSmith" changeset="5167338">
    <nd ref="316546011"/>
    <nd ref="316547026"/>
    <nd ref="316546021"/>
    <tag k="highway" v="residential"/>
    <tag k="maxspeed" v="50"/>
    <tag k="maxspeed:source" v="default residential speed limit in Australia"/>
    <tag k="name" v="Inlet Street"/>
    <tag k="source" v="MMBW"/>
  </way>
  <way id="28788475" version="5" timestamp="2012-01-17T23:12:34Z" uid="147510" user="woodpeck_fixbot" changeset="10421060">
    <nd ref="316546011"/>
    <nd ref="316547026"/>
    <nd ref="316546021"/>
    <tag k="highway" v="residential"/>
    <tag k="name" v="Inlet Street"/>
    <tag k="source" v="MMBW"/>
  </way>
  <way id="28788476" version="2" timestamp="2010-07-08T18:18:50Z" uid="74617" user="JohnSmith" changeset="5167338">
    <nd ref="316546025"/>
    <nd ref="31655600"/>
    <tag k="highway" v="residential"/>
    <tag k="maxspeed" v="50"/>
    <tag k="maxspeed:source" v="default residential speed limit in Australia"/>
    <tag k="name" v="Retreat Avenue"/>
    <tag k="source" v="MMBW"/>
  </way>
  <way id="28788476" version="3" timestamp="2012-01-17T23:12:35Z" uid="147510" user="woodpeck_fixbot" changeset="10421060">
    <nd ref="316546025"/>
    <nd ref="31655600"/>
    <tag k="highway" v="residential"/>
    <tag k="name" v="Retreat Avenue"/>
    <tag k="source" v="MMBW"/>
  </way>
  <way id="28788477" version="2" timestamp="2010-07-08T18:47:05Z" uid="74617" user="JohnSmith" changeset="5167338">
    <nd ref="316546035"/>
    <nd ref="316546036"/>
    <nd ref="316546037"/>
    <tag k="highway" v="residential"/>
    <tag k="maxspeed" v="50"/>
    <tag k="maxspeed:source" v="default residential speed limit in Australia"/>
    <tag k="name" v="Lyle Grove"/>
    <tag k="source" v="MMBW"/>
  </way>
  <way id="28788477" version="3" timestamp="2012-01-17T23:12:36Z" uid="147510" user="woodpeck_fixbot" changeset="10421060">
    <nd ref="316546035"/>
    <nd ref="316546036"/>
    <nd ref="316546037"/>
    <tag k="highway" v="residential"/>
    <tag k="name" v="Lyle Grove"/>
    <tag k="source" v="MMBW"/>
  </way>
  <way id="28788478" version="2" timestamp="2010-07-08T18:41:06Z" uid="74617" user="JohnSmith" changeset="5167338">
    <nd ref="316546036"/>
    <nd ref="316546041"/>
    <tag k="highway" v="residential"/>
    <tag k="maxspeed" v="50"/>
    <tag k="maxspeed:source" v="default residential speed limit in Australia"/>
    <tag k="name" v="Amberley Avenue"/>
    <tag k="source" v="MMBW"/>
  </way>
  <way id="28788478" version="3" timestamp="2012-01-17T23:12:37Z" uid="147510" user="woodpeck_fixbot" changeset="10421060">
    <nd ref="316546036"/>
    <nd ref="316546041"/>
    <tag k="highway" v="residential"/>
    <tag k="name" v="Amberley Avenue"/>
    <tag k="source" v="MMBW"/>
  </way>
  <way id="28788479" version="2" timestamp="2010-07-08T18:34:18Z" uid="74617" user="JohnSmith" changeset="5167338">
    <nd ref="316546010"/>
    <nd ref="316546093"/>
    <nd ref="316546094"/>
    <nd ref="316546095"/>
    <nd ref="316546096"/>
    <nd ref="316546097"/>
    <nd ref="316546098"/>
    <nd ref="316546099"/>
    <nd ref="316546100"/>
    <nd ref="316546101"/>
    <nd ref="316546102"/>
    <nd ref="316546103"/>
    <nd ref="316546104"/>
    <nd ref="316546105"/>
    <tag k="highway" v="residential"/>
    <tag k="maxspeed" v="50"/>
    <tag k="maxspeed:source" v="default residential speed limit in Australia"/>
    <tag k="name" v="Longbeach Close"/>
  </way>
  <way id="28788479" version="3" timestamp="2012-01-17T23:12:39Z" uid="147510" user="woodpeck_fixbot" changeset="10421060">
    <nd ref="316546010"/>
    <nd ref="316546093"/>
    <nd ref="316546094"/>
    <nd ref="316546095"/>
    <nd ref="316546096"/>
    <nd ref="316546097"/>
    <nd ref="316546098"/>
    <nd ref="316546099"/>
    <nd ref="316546100"/>
    <nd ref="316546101"/>
    <nd ref="316546102"/>
    <nd ref="316546103"/>
    <nd ref="316546104"/>
    <nd ref="316546105"/>
    <tag k="highway" v="residential"/>
    <tag k="name" v="Longbeach Close"/>
  </way>
  <way id="28788487" version="2" timestamp="2010-07-08T18:31:57Z" uid="74617" user="JohnSmith" changeset="5167338">
    <nd ref="316546194"/>
    <nd ref="316546195"/>
    <tag k="highway" v="residential"/>
    <tag k="maxspeed" v="50"/>
    <tag k="maxspeed:source" v="default residential speed limit in Australia"/>
    <tag k="name" v="Ozone Avenue"/>
    <tag k="source" v="MMBW"/>
  </way>
  <way id="28788487" version="3" timestamp="2012-01-17T23:12:39Z" uid="147510" user="woodpeck_fixbot" changeset="10421060">
    <nd ref="316546194"/>
    <nd ref="316546195"/>
    <tag k="highway" v="residential"/>
    <tag k="name" v="Ozone Avenue"/>
    <tag k="source" v="MMBW"/>
  </way>
  <way id="28788489" version="2" timestamp="2010-07-08T18:27:33Z" uid="74617" user="JohnSmith" changeset="5167338">
    <nd ref="316546198"/>
    <nd ref="316546201"/>
    <tag k="highway" v="residential"/>
    <tag k="maxspeed" v="50"/>
    <tag k="maxspeed:source" v="default residential speed limit in Australia"/>
    <tag k="name" v="Ideal Avenue"/>
    <tag k="source" v="MMBW"/>
  </way>
  <way id="28788489" version="3" timestamp="2012-01-17T23:12:40Z" uid="147510" user="woodpeck_fixbot" changeset="10421060">
    <nd ref="316546198"/>
    <nd ref="316546201"/>
    <tag k="highway" v="residential"/>
    <tag k="name" v="Ideal Avenue"/>
    <tag k="source" v="MMBW"/>
  </way>
  <way id="28788489" version="4" timestamp="2012-03-15T21:07:07Z" uid="320632" user="Zulu99" changeset="10992860">
    <nd ref="316546198"/>
    <nd ref="1676199600"/>
    <tag k="highway" v="residential"/>
    <tag k="name" v="Ideal Avenue"/>
    <tag k="source" v="MMBW"/>
  </way>
  <way id="28788490" version="2" timestamp="2010-07-08T18:17:26Z" uid="74617" user="JohnSmith" changeset="5167338">
    <nd ref="316546202"/>
    <nd ref="316546212"/>
    <tag k="highway" v="residential"/>
    <tag k="maxspeed" v="50"/>
    <tag k="maxspeed:source" v="default residential speed limit in Australia"/>
    <tag k="name" v="Wilson Grove"/>
    <tag k="source" v="MMBW"/>
  </way>
  <way id="28788490" version="3" timestamp="2012-01-17T23:12:42Z" uid="147510" user="woodpeck_fixbot" changeset="10421060">
    <nd ref="316546202"/>
    <nd ref="316546212"/>
    <tag k="highway" v="residential"/>
    <tag k="name" v="Wilson Grove"/>
    <tag k="source" v="MMBW"/>
  </way>
  <way id="28788491" version="2" timestamp="2010-07-08T18:46:16Z" uid="74617" user="JohnSmith" changeset="5167338">
    <nd ref="316546213"/>
    <nd ref="316546214"/>
    <tag k="highway" v="residential"/>
    <tag k="maxspeed" v="50"/>
    <tag k="maxspeed:source" v="default residential speed limit in Australia"/>
    <tag k="name" v="Gladstone Avenue"/>
    <tag k="source" v="MMBW"/>
  </way>
  <way id="28788491" version="3" timestamp="2012-01-17T23:12:43Z" uid="147510" user="woodpeck_fixbot" changeset="10421060">
    <nd ref="316546213"/>
    <nd ref="316546214"/>
    <tag k="highway" v="residential"/>
    <tag k="name" v="Gladstone Avenue"/>
    <tag k="source" v="MMBW"/>
  </way>
  <way id="28788494" version="2" timestamp="2010-07-08T18:47:24Z" uid="74617" user="JohnSmith" changeset="5167338">
    <nd ref="316546215"/>
    <nd ref="316546238"/>
    <tag k="highway" v="residential"/>
    <tag k="maxspeed" v="50"/>
    <tag k="maxspeed:source" v="default residential speed limit in Australia"/>
    <tag k="name" v="Sophia Avenue"/>
    <tag k="source" v="MMBW"/>
  </way>
  <way id="28788494" version="3" timestamp="2012-01-17T23:12:44Z" uid="147510" user="woodpeck_fixbot" changeset="10421060">
    <nd ref="316546215"/>
    <nd ref="316546238"/>
    <tag k="highway" v="residential"/>
    <tag k="name" v="Sophia Avenue"/>
    <tag k="source" v="MMBW"/>
  </way>
  <way id="28788495" version="2" timestamp="2010-07-08T18:41:44Z" uid="74617" user="JohnSmith" changeset="5167338">
    <nd ref="316546241"/>
    <nd ref="316546242"/>
    <tag k="highway" v="residential"/>
    <tag k="maxspeed" v="50"/>
    <tag k="maxspeed:source" v="default residential speed limit in Australia"/>
    <tag k="name" v="Bonavista Avenue"/>
    <tag k="source" v="MMBW"/>
  </way>
  <way id="28788495" version="3" timestamp="2012-01-17T23:12:47Z" uid="147510" user="woodpeck_fixbot" changeset="10421060">
    <nd ref="316546241"/>
    <nd ref="316546242"/>
    <tag k="highway" v="residential"/>
    <tag k="name" v="Bonavista Avenue"/>
    <tag k="source" v="MMBW"/>
  </way>
  <way id="28788497" version="2" timestamp="2010-07-08T18:30:47Z" uid="74617" user="JohnSmith" changeset="5167338">
    <nd ref="316546253"/>
    <nd ref="316546276"/>
    <tag k="highway" v="residential"/>
    <tag k="maxspeed" v="50"/>
    <tag k="maxspeed:source" v="default residential speed limit in Australia"/>
    <tag k="name" v="Taylor Avenue"/>
  </way>
  <way id="28788497" version="3" timestamp="2012-01-17T23:12:48Z" uid="147510" user="woodpeck_fixbot" changeset="10421060">
    <nd ref="316546253"/>
    <nd ref="316546276"/>
    <tag k="highway" v="residential"/>
    <tag k="name" v="Taylor Avenue"/>
  </way>
  <way id="28788499" version="2" timestamp="2010-07-08T18:47:46Z" uid="74617" user="JohnSmith" changeset="5167338">
    <nd ref="316546402"/>
    <nd ref="316546503"/>
    <tag k="highway" v="residential"/>
    <tag k="maxspeed" v="50"/>
    <tag k="maxspeed:source" v="default residential speed limit in Australia"/>
    <tag k="name" v="Foster Street"/>
    <tag k="source" v="MMBW"/>
  </way>
  <way id="28788499" version="3" timestamp="2012-01-17T23:12:48Z" uid="147510" user="woodpeck_fixbot" changeset="10421060">
    <nd ref="316546402"/>
    <nd ref="316546503"/>
    <tag k="highway" v="residential"/>
    <tag k="name" v="Foster Street"/>
    <tag k="source" v="MMBW"/>
  </way>
  <way id="28788510" version="2" timestamp="2010-07-08T18:28:32Z" uid="74617" user="JohnSmith" changeset="5167338">
    <nd ref="316546544"/>
    <nd ref="316546629"/>
    <tag k="highway" v="residential"/>
    <tag k="maxspeed" v="50"/>
    <tag k="maxspeed:source" v="default residential speed limit in Australia"/>
    <tag k="name" v="Groves Street"/>
    <tag k="source" v="MMBW"/>
  </way>
  <way id="28788510" version="3" timestamp="2012-01-17T23:12:50Z" uid="147510" user="woodpeck_fixbot" changeset="10421060">
    <nd ref="316546544"/>
    <nd ref="316546629"/>
    <tag k="highway" v="residential"/>
    <tag k="name" v="Groves Street"/>
    <tag k="source" v="MMBW"/>
  </way>
  <way id="28788511" version="2" timestamp="2010-07-08T18:18:07Z" uid="74617" user="JohnSmith" changeset="5167338">
    <nd ref="316546632"/>
    <nd ref="316546672"/>
    <tag k="highway" v="residential"/>
    <tag k="maxspeed" v="50"/>
    <tag k="maxspeed:source" v="default residential speed limit in Australia"/>
    <tag k="name" v="Roycroft Avenue"/>
    <tag k="source" v="MMBW"/>
  </way>
  <way id="28788511" version="3" timestamp="2012-01-17T23:12:50Z" uid="147510" user="woodpeck_fixbot" changeset="10421060">
    <nd ref="316546632"/>
    <nd ref="316546672"/>
    <tag k="highway" v="residential"/>
    <tag k="name" v="Roycroft Avenue"/>
    <tag k="source" v="MMBW"/>
  </way>
  <way id="28788513" version="2" timestamp="2010-07-08T18:23:58Z" uid="74617" user="JohnSmith" changeset="5167338">
    <nd ref="316546682"/>
    <nd ref="316546750"/>
    <tag k="highway" v="residential"/>
    <tag k="maxspeed" v="50"/>
    <tag k="maxspeed:source" v="default residential speed limit in Australia"/>
    <tag k="name" v="Gnotuk Avenue"/>
  </way>
  <way id="28788513" version="3" timestamp="2012-01-17T23:12:53Z" uid="147510" user="woodpeck_fixbot" changeset="10421060">
    <nd ref="316546682"/>
    <nd ref="316546750"/>
    <tag k="highway" v="residential"/>
    <tag k="name" v="Gnotuk Avenue"/>
  </way>
  <way id="28788526" version="4" timestamp="2010-07-08T18:20:50Z" uid="74617" user="JohnSmith" changeset="5167338">
    <nd ref="316546837"/>
    <nd ref="316546925"/>
    <tag k="highway" v="residential"/>
    <tag k="maxspeed" v="50"/>
    <tag k="maxspeed:source" v="default residential speed limit in Australia"/>
    <tag k="name" v="Afton Way"/>
  </way>
  <way id="28788526" version="5" timestamp="2012-01-17T23:12:54Z" uid="147510" user="woodpeck_fixbot" changeset="10421060">
    <nd ref="316546837"/>
    <nd ref="316546925"/>
    <tag k="highway" v="residential"/>
    <tag k="name" v="Afton Way"/>
  </way>
  <way id="28788526" version="6" timestamp="2012-03-15T21:07:05Z" uid="320632" user="Zulu99" changeset="10992860">
    <nd ref="316546837"/>
    <nd ref="1676199610"/>
    <nd ref="316546925"/>
    <tag k="highway" v="residential"/>
    <tag k="name" v="Afton Way"/>
  </way>
  <way id="28788529" version="5" timestamp="2010-07-08T18:37:50Z" uid="74617" user="JohnSmith" changeset="5167338">
    <nd ref="316546925"/>
    <nd ref="316546926"/>
    <nd ref="316547009"/>
    <nd ref="316547010"/>
    <nd ref="316547011"/>
    <nd ref="316547012"/>
    <nd ref="316547556"/>
    <nd ref="316547162"/>
    <nd ref="316547013"/>
    <nd ref="316547014"/>
    <tag k="highway" v="residential"/>
    <tag k="maxspeed" v="50"/>
    <tag k="maxspeed:source" v="default residential speed limit in Australia"/>
    <tag k="name" v="Albany Crescent"/>
  </way>
  <way id="28788529" version="6" timestamp="2012-01-17T23:12:55Z" uid="147510" user="woodpeck_fixbot" changeset="10421060">
    <nd ref="316546925"/>
    <nd ref="316546926"/>
    <nd ref="316547009"/>
    <nd ref="316547010"/>
    <nd ref="316547011"/>
    <nd ref="316547012"/>
    <nd ref="316547556"/>
    <nd ref="316547162"/>
    <nd ref="316547013"/>
    <nd ref="316547014"/>
    <tag k="highway" v="residential"/>
    <tag k="name" v="Albany Crescent"/>
  </way>
  <way id="28788531" version="8" timestamp="2010-07-08T18:22:08Z" uid="74617" user="JohnSmith" changeset="5167338">
    <nd ref="316547015"/>
    <nd ref="316547055"/>
    <nd ref="316547031"/>
    <nd ref="316547021"/>
    <nd ref="316547022"/>
    <tag k="highway" v="residential"/>
    <tag k="maxspeed" v="50"/>
    <tag k="maxspeed:source" v="default residential speed limit in Australia"/>
    <tag k="name" v="Glen Street"/>
  </way>
  <way id="28788531" version="9" timestamp="2012-01-17T23:12:57Z" uid="147510" user="woodpeck_fixbot" changeset="10421060">
    <nd ref="316547015"/>
    <nd ref="316547055"/>
    <nd ref="316547031"/>
    <nd ref="316547021"/>
    <nd ref="316547022"/>
    <tag k="highway" v="residential"/>
    <tag k="name" v="Glen Street"/>
  </way>
  <way id="28788532" version="4" timestamp="2010-07-08T18:39:51Z" uid="74617" user="JohnSmith" changeset="5167338">
    <nd ref="316547026"/>
    <nd ref="316547027"/>
    <nd ref="316547041"/>
    <nd ref="316547042"/>
    <nd ref="316547028"/>
    <nd ref="316547029"/>
    <nd ref="316547030"/>
    <nd ref="316547025"/>
    <nd ref="316547031"/>
    <tag k="highway" v="residential"/>
    <tag k="maxspeed" v="50"/>
    <tag k="maxspeed:source" v="default residential speed limit in Australia"/>
    <tag k="name" v="Kubis Avenue"/>
  </way>
  <way id="28788532" version="5" timestamp="2012-01-17T23:12:58Z" uid="147510" user="woodpeck_fixbot" changeset="10421060">
    <nd ref="316547026"/>
    <nd ref="316547027"/>
    <nd ref="316547041"/>
    <nd ref="316547042"/>
    <nd ref="316547028"/>
    <nd ref="316547029"/>
    <nd ref="316547030"/>
    <nd ref="316547025"/>
    <nd ref="316547031"/>
    <tag k="highway" v="residential"/>
    <tag k="name" v="Kubis Avenue"/>
  </way>
  <way id="28788534" version="5" timestamp="2010-07-08T18:25:06Z" uid="74617" user="JohnSmith" changeset="5167338">
    <nd ref="316547022"/>
    <nd ref="316547023"/>
    <nd ref="316547024"/>
    <nd ref="316547051"/>
    <nd ref="316547049"/>
    <nd ref="316547038"/>
    <nd ref="316547039"/>
    <nd ref="316547040"/>
    <nd ref="316547041"/>
    <tag k="highway" v="residential"/>
    <tag k="maxspeed" v="50"/>
    <tag k="maxspeed:source" v="default residential speed limit in Australia"/>
    <tag k="name" v="Larnook Crescent"/>
  </way>
  <way id="28788534" version="6" timestamp="2012-01-17T23:13:01Z" uid="147510" user="woodpeck_fixbot" changeset="10421060">
    <nd ref="316547022"/>
    <nd ref="316547023"/>
    <nd ref="316547024"/>
    <nd ref="316547051"/>
    <nd ref="316547049"/>
    <nd ref="316547038"/>
    <nd ref="316547039"/>
    <nd ref="316547040"/>
    <nd ref="316547041"/>
    <tag k="highway" v="residential"/>
    <tag k="name" v="Larnook Crescent"/>
  </way>
  <way id="28788536" version="3" timestamp="2010-07-08T18:18:44Z" uid="74617" user="JohnSmith" changeset="5167338">
    <nd ref="316547042"/>
    <nd ref="316547049"/>
    <tag k="highway" v="residential"/>
    <tag k="maxspeed" v="50"/>
    <tag k="maxspeed:source" v="default residential speed limit in Australia"/>
    <tag k="name" v="Carinya Avenue"/>
  </way>
  <way id="28788536" version="4" timestamp="2012-01-17T23:13:02Z" uid="147510" user="woodpeck_fixbot" changeset="10421060">
    <nd ref="316547042"/>
    <nd ref="316547049"/>
    <tag k="highway" v="residential"/>
    <tag k="name" v="Carinya Avenue"/>
  </way>
  <way id="28788537" version="5" timestamp="2010-07-08T18:47:00Z" uid="74617" user="JohnSmith" changeset="5167338">
    <nd ref="316547028"/>
    <nd ref="316547050"/>
    <nd ref="316547053"/>
    <nd ref="606205771"/>
    <nd ref="316547051"/>
    <tag k="highway" v="residential"/>
    <tag k="maxspeed" v="50"/>
    <tag k="maxspeed:source" v="default residential speed limit in Australia"/>
    <tag k="name" v="Connewarra Avenue"/>
  </way>
  <way id="28788537" version="6" timestamp="2012-01-17T23:13:04Z" uid="147510" user="woodpeck_fixbot" changeset="10421060">
    <nd ref="316547028"/>
    <nd ref="316547050"/>
    <nd ref="316547053"/>
    <nd ref="606205771"/>
    <nd ref="316547051"/>
    <tag k="highway" v="residential"/>
    <tag k="name" v="Connewarra Avenue"/>
  </way>
  <way id="28788538" version="3" timestamp="2010-07-08T18:40:54Z" uid="74617" user="JohnSmith" changeset="5167338">
    <nd ref="316547050"/>
    <nd ref="316547052"/>
    <tag k="highway" v="residential"/>
    <tag k="maxspeed" v="50"/>
    <tag k="maxspeed:source" v="default residential speed limit in Australia"/>
    <tag k="name" v="Balaka Avenue"/>
  </way>
  <way id="28788538" version="4" timestamp="2012-01-17T23:13:05Z" uid="147510" user="woodpeck_fixbot" changeset="10421060">
    <nd ref="316547050"/>
    <nd ref="316547052"/>
    <tag k="highway" v="residential"/>
    <tag k="name" v="Balaka Avenue"/>
  </way>
  <way id="28788539" version="3" timestamp="2010-07-08T18:34:14Z" uid="74617" user="JohnSmith" changeset="5167338">
    <nd ref="316547053"/>
    <nd ref="316547054"/>
    <tag k="highway" v="residential"/>
    <tag k="maxspeed" v="50"/>
    <tag k="maxspeed:source" v="default residential speed limit in Australia"/>
    <tag k="name" v="Adina Avenue"/>
  </way>
  <way id="28788539" version="4" timestamp="2012-01-17T23:13:07Z" uid="147510" user="woodpeck_fixbot" changeset="10421060">
    <nd ref="316547053"/>
    <nd ref="316547054"/>
    <tag k="highway" v="residential"/>
    <tag k="name" v="Adina Avenue"/>
  </way>
  <way id="28788541" version="4" timestamp="2010-07-08T18:42:58Z" uid="74617" user="JohnSmith" changeset="5167338">
    <nd ref="316547055"/>
    <nd ref="316547056"/>
    <nd ref="316547057"/>
    <nd ref="316547867"/>
    <nd ref="316547870"/>
    <nd ref="316547871"/>
    <tag k="highway" v="residential"/>
    <tag k="maxspeed" v="50"/>
    <tag k="maxspeed:source" v="default residential speed limit in Australia"/>
    <tag k="name" v="Nirringa Avenue"/>
  </way>
  <way id="28788541" version="5" timestamp="2012-01-17T23:13:08Z" uid="147510" user="woodpeck_fixbot" changeset="10421060">
    <nd ref="316547055"/>
    <nd ref="316547056"/>
    <nd ref="316547057"/>
    <nd ref="316547867"/>
    <nd ref="316547870"/>
    <nd ref="316547871"/>
    <tag k="highway" v="residential"/>
    <tag k="name" v="Nirringa Avenue"/>
  </way>
  <way id="28788542" version="10" timestamp="2010-06-01T06:29:07Z" uid="4467" user="Rosscoe" changeset="4872015">
    <nd ref="316547057"/>
    <nd ref="316547066"/>
    <nd ref="316547067"/>
    <nd ref="316547068"/>
    <nd ref="316547069"/>
    <nd ref="316547070"/>
    <nd ref="316547071"/>
    <nd ref="606205803"/>
    <nd ref="606205240"/>
    <nd ref="316547107"/>
    <nd ref="321710598"/>
    <nd ref="316547072"/>
    <nd ref="316547073"/>
    <tag k="highway" v="residential"/>
    <tag k="name" v="Tarongo Drive"/>
  </way>
  <way id="28788542" version="11" timestamp="2010-07-08T18:35:55Z" uid="74617" user="JohnSmith" changeset="5167338">
    <nd ref="316547057"/>
    <nd ref="316547066"/>
    <nd ref="316547067"/>
    <nd ref="316547068"/>
    <nd ref="316547069"/>
    <nd ref="316547070"/>
    <nd ref="316547071"/>
    <nd ref="606205803"/>
    <nd ref="606205240"/>
    <nd ref="316547107"/>
    <nd ref="321710598"/>
    <nd ref="316547072"/>
    <nd ref="316547073"/>
    <tag k="highway" v="residential"/>
    <tag k="maxspeed" v="50"/>
    <tag k="maxspeed:source" v="default residential speed limit in Australia"/>
    <tag k="name" v="Tarongo Drive"/>
  </way>
  <way id="28788542" version="12" timestamp="2012-01-17T23:13:10Z" uid="147510" user="woodpeck_fixbot" changeset="10421060">
    <nd ref="316547057"/>
    <nd ref="316547066"/>
    <nd ref="316547067"/>
    <nd ref="316547068"/>
    <nd ref="316547069"/>
    <nd ref="316547070"/>
    <nd ref="316547071"/>
    <nd ref="606205803"/>
    <nd ref="606205240"/>
    <nd ref="316547107"/>
    <nd ref="321710598"/>
    <nd ref="316547072"/>
    <nd ref="316547073"/>
    <tag k="highway" v="residential"/>
    <tag k="name" v="Tarongo Drive"/>
  </way>
  <way id="28788544" version="3" timestamp="2010-07-08T18:39:27Z" uid="74617" user="JohnSmith" changeset="5167338">
    <nd ref="316547079"/>
    <nd ref="316547105"/>
    <nd ref="316547107"/>
    <tag k="highway" v="residential"/>
    <tag k="maxspeed" v="50"/>
    <tag k="maxspeed:source" v="default residential speed limit in Australia"/>
    <tag k="name" v="Tyabb Grove"/>
  </way>
  <way id="28788544" version="4" timestamp="2012-01-17T23:13:11Z" uid="147510" user="woodpeck_fixbot" changeset="10421060">
    <nd ref="316547079"/>
    <nd ref="316547105"/>
    <nd ref="316547107"/>
    <tag k="highway" v="residential"/>
    <tag k="name" v="Tyabb Grove"/>
  </way>
  <way id="28788552" version="6" timestamp="2010-07-08T18:47:51Z" uid="74617" user="JohnSmith" changeset="5167338">
    <nd ref="316546926"/>
    <nd ref="316547155"/>
    <nd ref="316547553"/>
    <nd ref="316547540"/>
    <nd ref="316547541"/>
    <nd ref="316547156"/>
    <tag k="highway" v="residential"/>
    <tag k="maxspeed" v="50"/>
    <tag k="maxspeed:source" v="default residential speed limit in Australia"/>
    <tag k="name" v="Gothic Road"/>
  </way>
  <way id="28788552" version="7" timestamp="2012-01-17T23:13:12Z" uid="147510" user="woodpeck_fixbot" changeset="10421060">
    <nd ref="316546926"/>
    <nd ref="316547155"/>
    <nd ref="316547553"/>
    <nd ref="316547540"/>
    <nd ref="316547541"/>
    <nd ref="316547156"/>
    <tag k="highway" v="residential"/>
    <tag k="name" v="Gothic Road"/>
  </way>
  <way id="28788553" version="5" timestamp="2010-07-08T18:42:42Z" uid="74617" user="JohnSmith" changeset="5167338">
    <nd ref="316547157"/>
    <nd ref="316547195"/>
    <nd ref="316547158"/>
    <nd ref="316547156"/>
    <nd ref="316547865"/>
    <nd ref="316547160"/>
    <nd ref="316547162"/>
    <tag k="highway" v="residential"/>
    <tag k="maxspeed" v="50"/>
    <tag k="maxspeed:source" v="default residential speed limit in Australia"/>
    <tag k="name" v="Lincoln Parade"/>
  </way>
  <way id="28788553" version="6" timestamp="2012-01-17T23:13:13Z" uid="147510" user="woodpeck_fixbot" changeset="10421060">
    <nd ref="316547157"/>
    <nd ref="316547195"/>
    <nd ref="316547158"/>
    <nd ref="316547156"/>
    <nd ref="316547865"/>
    <nd ref="316547160"/>
    <nd ref="316547162"/>
    <tag k="highway" v="residential"/>
    <tag k="name" v="Lincoln Parade"/>
  </way>
  <way id="28788561" version="8" timestamp="2010-07-08T18:45:17Z" uid="74617" user="JohnSmith" changeset="5167338">
    <nd ref="316547158"/>
    <nd ref="316547186"/>
    <nd ref="316547187"/>
    <nd ref="316547188"/>
    <tag k="highway" v="residential"/>
    <tag k="maxspeed" v="50"/>
    <tag k="maxspeed:source" v="default residential speed limit in Australia"/>
    <tag k="name" v="Marabou Place"/>
  </way>
  <way id="28788561" version="9" timestamp="2012-01-17T23:13:14Z" uid="147510" user="woodpeck_fixbot" changeset="10421060">
    <nd ref="316547158"/>
    <nd ref="316547186"/>
    <nd ref="316547187"/>
    <nd ref="316547188"/>
    <tag k="highway" v="residential"/>
    <tag k="name" v="Marabou Place"/>
  </way>
  <way id="28788566" version="3" timestamp="2010-07-08T18:33:32Z" uid="74617" user="JohnSmith" changeset="5167338">
    <nd ref="31655604"/>
    <nd ref="316547197"/>
    <nd ref="316547186"/>
    <tag k="highway" v="residential"/>
    <tag k="maxspeed" v="50"/>
    <tag k="maxspeed:source" v="default residential speed limit in Australia"/>
    <tag k="name" v="Ross Street"/>
  </way>
  <way id="28788566" version="4" timestamp="2012-01-17T23:13:15Z" uid="147510" user="woodpeck_fixbot" changeset="10421060">
    <nd ref="31655604"/>
    <nd ref="316547197"/>
    <nd ref="316547186"/>
    <tag k="highway" v="residential"/>
    <tag k="name" v="Ross Street"/>
  </way>
  <way id="28788567" version="3" timestamp="2010-07-08T18:25:47Z" uid="74617" user="JohnSmith" changeset="5167338">
    <nd ref="316547195"/>
    <nd ref="316547197"/>
    <tag k="highway" v="residential"/>
    <tag k="maxspeed" v="50"/>
    <tag k="maxspeed:source" v="default residential speed limit in Australia"/>
    <tag k="name" v="Duke Street"/>
  </way>
  <way id="28788567" version="4" timestamp="2012-01-17T23:13:16Z" uid="147510" user="woodpeck_fixbot" changeset="10421060">
    <nd ref="316547195"/>
    <nd ref="316547197"/>
    <tag k="highway" v="residential"/>
    <tag k="name" v="Duke Street"/>
  </way>
  <way id="28788571" version="2" timestamp="2010-07-08T18:41:24Z" uid="74617" user="JohnSmith" changeset="5167338">
    <nd ref="316547198"/>
    <nd ref="316547202"/>
    <tag k="highway" v="residential"/>
    <tag k="maxspeed" v="50"/>
    <tag k="maxspeed:source" v="default residential speed limit in Australia"/>
    <tag k="name" v="Birdwood Street"/>
    <tag k="source" v="MMBW"/>
  </way>
  <way id="28788571" version="3" timestamp="2012-01-17T23:13:19Z" uid="147510" user="woodpeck_fixbot" changeset="10421060">
    <nd ref="316547198"/>
    <nd ref="316547202"/>
    <tag k="highway" v="residential"/>
    <tag k="name" v="Birdwood Street"/>
    <tag k="source" v="MMBW"/>
  </way>
  <way id="28788572" version="2" timestamp="2010-07-08T18:22:48Z" uid="74617" user="JohnSmith" changeset="5167338">
    <nd ref="316547203"/>
    <nd ref="316547204"/>
    <tag k="highway" v="residential"/>
    <tag k="maxspeed" v="50"/>
    <tag k="maxspeed:source" v="default residential speed limit in Australia"/>
    <tag k="name" v="First Avenue"/>
    <tag k="source" v="MMBW"/>
  </way>
  <way id="28788572" version="3" timestamp="2012-01-17T23:13:22Z" uid="147510" user="woodpeck_fixbot" changeset="10421060">
    <nd ref="316547203"/>
    <nd ref="316547204"/>
    <tag k="highway" v="residential"/>
    <tag k="name" v="First Avenue"/>
    <tag k="source" v="MMBW"/>
  </way>
  <way id="28788578" version="2" timestamp="2010-07-08T18:33:05Z" uid="74617" user="JohnSmith" changeset="5167338">
    <nd ref="316547205"/>
    <nd ref="316547213"/>
    <tag k="highway" v="residential"/>
    <tag k="maxspeed" v="50"/>
    <tag k="maxspeed:source" v="default residential speed limit in Australia"/>
    <tag k="name" v="Second Avenue"/>
    <tag k="source" v="MMBW"/>
  </way>
  <way id="28788578" version="3" timestamp="2012-01-17T23:13:23Z" uid="147510" user="woodpeck_fixbot" changeset="10421060">
    <nd ref="316547205"/>
    <nd ref="316547213"/>
    <tag k="highway" v="residential"/>
    <tag k="name" v="Second Avenue"/>
    <tag k="source" v="MMBW"/>
  </way>
  <way id="28788580" version="2" timestamp="2010-07-08T18:41:54Z" uid="74617" user="JohnSmith" changeset="5167338">
    <nd ref="31655605"/>
    <nd ref="316547190"/>
    <tag k="highway" v="residential"/>
    <tag k="maxspeed" v="50"/>
    <tag k="maxspeed:source" v="default residential speed limit in Australia"/>
    <tag k="name" v="Third Avenue"/>
    <tag k="source" v="MMBW"/>
  </way>
  <way id="28788580" version="3" timestamp="2012-01-17T23:13:25Z" uid="147510" user="woodpeck_fixbot" changeset="10421060">
    <nd ref="31655605"/>
    <nd ref="316547190"/>
    <tag k="highway" v="residential"/>
    <tag k="name" v="Third Avenue"/>
    <tag k="source" v="MMBW"/>
  </way>
  <way id="28788582" version="2" timestamp="2010-07-08T18:27:46Z" uid="74617" user="JohnSmith" changeset="5167338">
    <nd ref="316547219"/>
    <nd ref="316547191"/>
    <tag k="highway" v="residential"/>
    <tag k="maxspeed" v="50"/>
    <tag k="maxspeed:source" v="default residential speed limit in Australia"/>
    <tag k="name" v="Fourth Avenue"/>
    <tag k="source" v="MMBW"/>
  </way>
  <way id="28788582" version="3" timestamp="2012-01-17T23:13:26Z" uid="147510" user="woodpeck_fixbot" changeset="10421060">
    <nd ref="316547219"/>
    <nd ref="316547191"/>
    <tag k="highway" v="residential"/>
    <tag k="name" v="Fourth Avenue"/>
    <tag k="source" v="MMBW"/>
  </way>
  <way id="28788583" version="2" timestamp="2010-07-08T18:17:31Z" uid="74617" user="JohnSmith" changeset="5167338">
    <nd ref="31655606"/>
    <nd ref="316547313"/>
    <tag k="highway" v="residential"/>
    <tag k="maxspeed" v="50"/>
    <tag k="maxspeed:source" v="default residential speed limit in Australia"/>
    <tag k="name" v="Fifth Avenue"/>
    <tag k="source" v="MMBW"/>
  </way>
  <way id="28788583" version="3" timestamp="2012-01-17T23:13:30Z" uid="147510" user="woodpeck_fixbot" changeset="10421060">
    <nd ref="31655606"/>
    <nd ref="316547313"/>
    <tag k="highway" v="residential"/>
    <tag k="name" v="Fifth Avenue"/>
    <tag k="source" v="MMBW"/>
  </way>
  <way id="28788587" version="2" timestamp="2010-07-08T18:36:05Z" uid="74617" user="JohnSmith" changeset="5167338">
    <nd ref="316547315"/>
    <nd ref="316547321"/>
    <tag k="highway" v="residential"/>
    <tag k="maxspeed" v="50"/>
    <tag k="maxspeed:source" v="default residential speed limit in Australia"/>
    <tag k="name" v="Alexandra Street"/>
  </way>
  <way id="28788587" version="3" timestamp="2012-01-17T23:13:33Z" uid="147510" user="woodpeck_fixbot" changeset="10421060">
    <nd ref="316547315"/>
    <nd ref="316547321"/>
    <tag k="highway" v="residential"/>
    <tag k="name" v="Alexandra Street"/>
  </way>
  <way id="28788594" version="3" timestamp="2010-07-08T18:45:36Z" uid="74617" user="JohnSmith" changeset="5167338">
    <nd ref="31655602"/>
    <nd ref="316547155"/>
    <tag k="highway" v="residential"/>
    <tag k="maxspeed" v="50"/>
    <tag k="maxspeed:source" v="default residential speed limit in Australia"/>
    <tag k="name" v="Robertson Parade"/>
  </way>
  <way id="28788594" version="4" timestamp="2012-01-17T23:13:35Z" uid="147510" user="woodpeck_fixbot" changeset="10421060">
    <nd ref="31655602"/>
    <nd ref="316547155"/>
    <tag k="highway" v="residential"/>
    <tag k="name" v="Robertson Parade"/>
  </way>
  <way id="28788595" version="3" timestamp="2010-07-08T18:38:36Z" uid="74617" user="JohnSmith" changeset="5167338">
    <nd ref="31655603"/>
    <nd ref="316547539"/>
    <nd ref="316547540"/>
    <tag k="highway" v="residential"/>
    <tag k="maxspeed" v="50"/>
    <tag k="maxspeed:source" v="default residential speed limit in Australia"/>
    <tag k="name" v="Lawrence Avenue"/>
  </way>
  <way id="28788595" version="4" timestamp="2012-01-17T23:13:39Z" uid="147510" user="woodpeck_fixbot" changeset="10421060">
    <nd ref="31655603"/>
    <nd ref="316547539"/>
    <nd ref="316547540"/>
    <tag k="highway" v="residential"/>
    <tag k="name" v="Lawrence Avenue"/>
  </way>
  <way id="28788596" version="3" timestamp="2010-07-08T18:18:15Z" uid="74617" user="JohnSmith" changeset="5167338">
    <nd ref="316547541"/>
    <nd ref="316547542"/>
    <nd ref="316547543"/>
    <tag k="highway" v="residential"/>
    <tag k="maxspeed" v="50"/>
    <tag k="maxspeed:source" v="default residential speed limit in Australia"/>
    <tag k="name" v="Tarlee Court"/>
  </way>
  <way id="28788596" version="4" timestamp="2012-01-17T23:13:44Z" uid="147510" user="woodpeck_fixbot" changeset="10421060">
    <nd ref="316547541"/>
    <nd ref="316547542"/>
    <nd ref="316547543"/>
    <tag k="highway" v="residential"/>
    <tag k="name" v="Tarlee Court"/>
  </way>
  <way id="28788598" version="3" timestamp="2010-07-08T18:40:39Z" uid="74617" user="JohnSmith" changeset="5167338">
    <nd ref="316547553"/>
    <nd ref="316547554"/>
    <nd ref="316547555"/>
    <nd ref="316547556"/>
    <tag k="highway" v="residential"/>
    <tag k="maxspeed" v="50"/>
    <tag k="maxspeed:source" v="default residential speed limit in Australia"/>
    <tag k="name" v="Yallambee Avenue"/>
  </way>
  <way id="28788598" version="4" timestamp="2012-01-17T23:13:47Z" uid="147510" user="woodpeck_fixbot" changeset="10421060">
    <nd ref="316547553"/>
    <nd ref="316547554"/>
    <nd ref="316547555"/>
    <nd ref="316547556"/>
    <tag k="highway" v="residential"/>
    <tag k="name" v="Yallambee Avenue"/>
  </way>
  <way id="28788599" version="3" timestamp="2010-07-08T18:33:59Z" uid="74617" user="JohnSmith" changeset="5167338">
    <nd ref="316547554"/>
    <nd ref="316547557"/>
    <nd ref="316547558"/>
    <tag k="highway" v="residential"/>
    <tag k="maxspeed" v="50"/>
    <tag k="maxspeed:source" v="default residential speed limit in Australia"/>
    <tag k="name" v="Elanora Court"/>
  </way>
  <way id="28788599" version="4" timestamp="2012-01-17T23:13:52Z" uid="147510" user="woodpeck_fixbot" changeset="10421060">
    <nd ref="316547554"/>
    <nd ref="316547557"/>
    <nd ref="316547558"/>
    <tag k="highway" v="residential"/>
    <tag k="name" v="Elanora Court"/>
  </way>
  <way id="28788607" version="6" timestamp="2010-07-08T18:44:05Z" uid="74617" user="JohnSmith" changeset="5167338">
    <nd ref="316547586"/>
    <nd ref="334406922"/>
    <nd ref="334407925"/>
    <tag k="highway" v="residential"/>
    <tag k="maxspeed" v="50"/>
    <tag k="maxspeed:source" v="default residential speed limit in Australia"/>
    <tag k="name" v="Lochiel Avenue"/>
  </way>
  <way id="28788607" version="7" timestamp="2011-05-10T09:39:52Z" uid="46482" user="Leon K" changeset="8100559">
    <nd ref="316547586"/>
    <nd ref="1279089692"/>
    <nd ref="334406922"/>
    <nd ref="334407925"/>
    <tag k="highway" v="residential"/>
    <tag k="maxspeed" v="50"/>
    <tag k="maxspeed:source" v="default residential speed limit in Australia"/>
    <tag k="name" v="Lochiel Avenue"/>
  </way>
  <way id="28788607" version="8" timestamp="2012-01-17T23:13:55Z" uid="147510" user="woodpeck_fixbot" changeset="10421060">
    <nd ref="316547586"/>
    <nd ref="1279089692"/>
    <nd ref="334406922"/>
    <nd ref="334407925"/>
    <tag k="highway" v="residential"/>
    <tag k="name" v="Lochiel Avenue"/>
  </way>
  <way id="28788609" version="2" timestamp="2010-07-08T18:46:44Z" uid="74617" user="JohnSmith" changeset="5167338">
    <nd ref="316547588"/>
    <nd ref="316547606"/>
    <tag k="highway" v="residential"/>
    <tag k="maxspeed" v="50"/>
    <tag k="maxspeed:source" v="default residential speed limit in Australia"/>
    <tag k="name" v="Natal Avenue"/>
    <tag k="source" v="MMBW"/>
  </way>
  <way id="28788609" version="3" timestamp="2012-01-17T23:13:59Z" uid="147510" user="woodpeck_fixbot" changeset="10421060">
    <nd ref="316547588"/>
    <nd ref="316547606"/>
    <tag k="highway" v="residential"/>
    <tag k="name" v="Natal Avenue"/>
    <tag k="source" v="MMBW"/>
  </way>
  <way id="28788610" version="2" timestamp="2010-07-08T18:40:23Z" uid="74617" user="JohnSmith" changeset="5167338">
    <nd ref="316547607"/>
    <nd ref="316547608"/>
    <tag k="highway" v="residential"/>
    <tag k="maxspeed" v="50"/>
    <tag k="maxspeed:source" v="default residential speed limit in Australia"/>
    <tag k="name" v="Carrington Street"/>
    <tag k="source" v="MMBW"/>
  </way>
  <way id="28788610" version="3" timestamp="2012-01-17T23:14:00Z" uid="147510" user="woodpeck_fixbot" changeset="10421060">
    <nd ref="316547607"/>
    <nd ref="316547608"/>
    <tag k="highway" v="residential"/>
    <tag k="name" v="Carrington Street"/>
    <tag k="source" v="MMBW"/>
  </way>
  <way id="28788611" version="2" timestamp="2010-07-08T18:33:42Z" uid="74617" user="JohnSmith" changeset="5167338">
    <nd ref="316547609"/>
    <nd ref="316547658"/>
    <tag k="highway" v="residential"/>
    <tag k="maxspeed" v="50"/>
    <tag k="maxspeed:source" v="default residential speed limit in Australia"/>
    <tag k="name" v="Denman Avenue"/>
    <tag k="source" v="MMBW"/>
  </way>
  <way id="28788611" version="3" timestamp="2012-01-17T23:14:02Z" uid="147510" user="woodpeck_fixbot" changeset="10421060">
    <nd ref="316547609"/>
    <nd ref="316547658"/>
    <tag k="highway" v="residential"/>
    <tag k="name" v="Denman Avenue"/>
    <tag k="source" v="MMBW"/>
  </way>
  <way id="28788624" version="2" timestamp="2010-07-08T18:34:21Z" uid="74617" user="JohnSmith" changeset="5167338">
    <nd ref="316547802"/>
    <nd ref="316547658"/>
    <nd ref="316547803"/>
    <tag k="highway" v="residential"/>
    <tag k="maxspeed" v="50"/>
    <tag k="maxspeed:source" v="default residential speed limit in Australia"/>
    <tag k="name" v="Dudley Grove"/>
    <tag k="source" v="MMBW"/>
  </way>
  <way id="28788624" version="3" timestamp="2012-01-17T23:14:05Z" uid="147510" user="woodpeck_fixbot" changeset="10421060">
    <nd ref="316547802"/>
    <nd ref="316547658"/>
    <nd ref="316547803"/>
    <tag k="highway" v="residential"/>
    <tag k="name" v="Dudley Grove"/>
    <tag k="source" v="MMBW"/>
  </way>
  <way id="28788628" version="2" timestamp="2010-07-08T18:29:03Z" uid="74617" user="JohnSmith" changeset="5167338">
    <nd ref="316547804"/>
    <nd ref="316547805"/>
    <tag k="highway" v="residential"/>
    <tag k="maxspeed" v="50"/>
    <tag k="maxspeed:source" v="default residential speed limit in Australia"/>
    <tag k="name" v="Sinclair Avenue"/>
    <tag k="source" v="MMBW"/>
  </way>
  <way id="28788628" version="3" timestamp="2012-01-17T23:14:08Z" uid="147510" user="woodpeck_fixbot" changeset="10421060">
    <nd ref="316547804"/>
    <nd ref="316547805"/>
    <tag k="highway" v="residential"/>
    <tag k="name" v="Sinclair Avenue"/>
    <tag k="source" v="MMBW"/>
  </way>
  <way id="28788629" version="4" timestamp="2010-07-08T18:18:56Z" uid="74617" user="JohnSmith" changeset="5167338">
    <nd ref="316547807"/>
    <nd ref="316547809"/>
    <nd ref="316547810"/>
    <nd ref="316547811"/>
    <nd ref="316547813"/>
    <nd ref="316547814"/>
    <nd ref="316547815"/>
    <tag k="highway" v="residential"/>
    <tag k="maxspeed" v="50"/>
    <tag k="maxspeed:source" v="default residential speed limit in Australia"/>
    <tag k="name" v="The Esplanade"/>
    <tag k="source" v="MMBW"/>
  </way>
  <way id="28788629" version="5" timestamp="2012-01-17T23:14:10Z" uid="147510" user="woodpeck_fixbot" changeset="10421060">
    <nd ref="316547807"/>
    <nd ref="316547809"/>
    <nd ref="316547810"/>
    <nd ref="316547811"/>
    <nd ref="316547813"/>
    <nd ref="316547814"/>
    <nd ref="316547815"/>
    <tag k="highway" v="residential"/>
    <tag k="name" v="The Esplanade"/>
    <tag k="source" v="MMBW"/>
  </way>
  <way id="28788635" version="4" timestamp="2010-07-08T18:21:20Z" uid="74617" user="JohnSmith" changeset="5167338">
    <nd ref="316547188"/>
    <nd ref="316547862"/>
    <tag k="highway" v="residential"/>
    <tag k="maxspeed" v="50"/>
    <tag k="maxspeed:source" v="default residential speed limit in Australia"/>
    <tag k="name" v="Leonard Avenue"/>
  </way>
  <way id="28788635" version="5" timestamp="2012-01-17T23:14:12Z" uid="147510" user="woodpeck_fixbot" changeset="10421060">
    <nd ref="316547188"/>
    <nd ref="316547862"/>
    <tag k="highway" v="residential"/>
    <tag k="name" v="Leonard Avenue"/>
  </way>
  <way id="28788636" version="3" timestamp="2010-07-08T18:39:08Z" uid="74617" user="JohnSmith" changeset="5167338">
    <nd ref="316547863"/>
    <nd ref="316547014"/>
    <nd ref="316547866"/>
    <nd ref="316547867"/>
    <tag k="highway" v="residential"/>
    <tag k="maxspeed" v="50"/>
    <tag k="maxspeed:source" v="default residential speed limit in Australia"/>
    <tag k="name" v="Yackatoon Avenue"/>
  </way>
  <way id="28788636" version="4" timestamp="2012-01-17T23:14:14Z" uid="147510" user="woodpeck_fixbot" changeset="10421060">
    <nd ref="316547863"/>
    <nd ref="316547014"/>
    <nd ref="316547866"/>
    <nd ref="316547867"/>
    <tag k="highway" v="residential"/>
    <tag k="name" v="Yackatoon Avenue"/>
  </way>
  <way id="28788760" version="29" timestamp="2010-05-16T01:22:44Z" uid="23543" user="jkjk" changeset="4711844">
    <nd ref="735983968"/>
    <nd ref="735983919"/>
    <nd ref="735983941"/>
    <nd ref="735984005"/>
    <nd ref="735983910"/>
    <nd ref="735983984"/>
    <nd ref="735983979"/>
    <nd ref="735983953"/>
    <nd ref="735983904"/>
    <nd ref="735983927"/>
    <nd ref="735983994"/>
    <nd ref="735983917"/>
    <nd ref="497719145"/>
    <nd ref="735983931"/>
    <nd ref="735983997"/>
    <nd ref="735983899"/>
    <nd ref="735983943"/>
    <nd ref="394312607"/>
    <nd ref="432833246"/>
    <nd ref="432833248"/>
    <nd ref="432833252"/>
    <nd ref="432833258"/>
    <nd ref="703420770"/>
    <nd ref="703421194"/>
    <nd ref="432833262"/>
    <nd ref="432833264"/>
    <nd ref="432833267"/>
    <nd ref="432833268"/>
    <nd ref="432833269"/>
    <nd ref="432833270"/>
    <nd ref="432833271"/>
    <nd ref="432833272"/>
    <nd ref="432833273"/>
    <nd ref="432833274"/>
    <tag k="railway" v="rail"/>
  </way>
  <way id="28788760" version="30" timestamp="2010-08-08T09:31:08Z" uid="9581" user="Lobelt" changeset="5430927">
    <nd ref="849402202"/>
    <nd ref="849402092"/>
    <nd ref="849401997"/>
    <nd ref="849402387"/>
    <nd ref="849402419"/>
    <nd ref="849402261"/>
    <tag k="railway" v="rail"/>
  </way>
  <way id="28788760" version="31" timestamp="2010-08-08T09:47:58Z" uid="9581" user="Lobelt" changeset="5431103">
    <nd ref="849415218"/>
    <nd ref="849415439"/>
    <nd ref="849415130"/>
    <nd ref="849415284"/>
    <nd ref="849415542"/>
    <nd ref="849415194"/>
    <nd ref="849415397"/>
    <nd ref="849415106"/>
    <nd ref="849415252"/>
    <nd ref="849415498"/>
    <nd ref="849415164"/>
    <nd ref="849415347"/>
    <nd ref="849415080"/>
    <nd ref="849415225"/>
    <nd ref="849415451"/>
    <nd ref="849415142"/>
    <nd ref="849415307"/>
    <nd ref="849415054"/>
    <nd ref="849415206"/>
    <nd ref="849415037"/>
    <nd ref="849415198"/>
    <nd ref="849415405"/>
    <nd ref="849415109"/>
    <nd ref="849415056"/>
    <nd ref="849415208"/>
    <tag k="railway" v="rail"/>
  </way>
  <way id="28788760" version="32" timestamp="2010-08-08T10:39:17Z" uid="9581" user="Lobelt" changeset="5431576">
    <nd ref="849462363"/>
    <nd ref="849462013"/>
    <nd ref="849462817"/>
    <nd ref="849462455"/>
    <nd ref="849462107"/>
    <nd ref="849462948"/>
    <nd ref="849462553"/>
    <nd ref="849462199"/>
    <nd ref="849463159"/>
    <nd ref="849462646"/>
    <nd ref="849462288"/>
    <nd ref="849463571"/>
    <nd ref="849462739"/>
    <nd ref="849462655"/>
    <nd ref="849462296"/>
    <nd ref="849463614"/>
    <nd ref="849462747"/>
    <nd ref="849462389"/>
    <nd ref="849462039"/>
    <tag k="railway" v="rail"/>
  </way>
  <way id="28788760" version="33" timestamp="2010-08-08T11:01:44Z" uid="9581" user="Lobelt" changeset="5431787">
    <nd ref="849472653"/>
    <nd ref="849472572"/>
    <nd ref="849472611"/>
    <nd ref="849472548"/>
    <nd ref="849472590"/>
    <nd ref="849472646"/>
    <nd ref="849472568"/>
    <nd ref="849472606"/>
    <nd ref="849472541"/>
    <nd ref="849472622"/>
    <nd ref="849472558"/>
    <nd ref="849472597"/>
    <nd ref="849472656"/>
    <nd ref="849472573"/>
    <nd ref="849472612"/>
    <nd ref="849472551"/>
    <nd ref="849472668"/>
    <nd ref="849472576"/>
    <nd ref="849472616"/>
    <nd ref="849472553"/>
    <nd ref="849472593"/>
    <nd ref="849472651"/>
    <nd ref="849472571"/>
    <nd ref="849472609"/>
    <nd ref="849472545"/>
    <nd ref="849472587"/>
    <nd ref="849472638"/>
    <nd ref="849472564"/>
    <nd ref="849472602"/>
    <nd ref="849472677"/>
    <nd ref="849472644"/>
    <nd ref="849472567"/>
    <tag k="railway" v="rail"/>
  </way>
  <way id="28788760" version="34" timestamp="2010-08-08T11:49:16Z" uid="9581" user="Lobelt" changeset="5432163">
    <nd ref="849493210"/>
    <nd ref="849493494"/>
    <nd ref="849493204"/>
    <nd ref="849493375"/>
    <nd ref="849493552"/>
    <nd ref="849493264"/>
    <nd ref="849493462"/>
    <nd ref="849493190"/>
    <nd ref="849493344"/>
    <nd ref="849493527"/>
    <nd ref="849493231"/>
    <nd ref="849493420"/>
    <nd ref="849493590"/>
    <nd ref="849493309"/>
    <nd ref="849493512"/>
    <nd ref="849493215"/>
    <nd ref="849493515"/>
    <nd ref="849493218"/>
    <nd ref="849493400"/>
    <nd ref="849493573"/>
    <nd ref="849493288"/>
    <nd ref="849493491"/>
    <tag k="railway" v="rail"/>
  </way>
  <way id="28788760" version="35" timestamp="2010-08-08T12:34:07Z" uid="9581" user="Lobelt" changeset="5432609">
    <nd ref="313816575"/>
    <nd ref="849517364"/>
    <nd ref="849517117"/>
    <nd ref="849516838"/>
    <nd ref="849517292"/>
    <nd ref="849517056"/>
    <nd ref="849516778"/>
    <nd ref="849517242"/>
    <nd ref="849516981"/>
    <nd ref="849517574"/>
    <nd ref="849517301"/>
    <nd ref="849517563"/>
    <nd ref="849517293"/>
    <nd ref="849517245"/>
    <nd ref="849516985"/>
    <nd ref="849517575"/>
    <nd ref="849517303"/>
    <tag k="railway" v="rail"/>
  </way>
  <way id="28788964" version="4" timestamp="2010-03-22T05:43:58Z" uid="20587" user="balrog-kun" changeset="4199043">
    <nd ref="36909366"/>
    <nd ref="36921587"/>
    <nd ref="36921588"/>
    <nd ref="36921589"/>
    <nd ref="36921590"/>
    <nd ref="36921591"/>
    <nd ref="36921592"/>
    <nd ref="36921593"/>
    <tag k="highway" v="residential"/>
    <tag k="name" v="Northwest Audene Place"/>
    <tag k="tiger:cfcc" v="A41"/>
    <tag k="tiger:county" v="Benton, OR"/>
    <tag k="tiger:name_base" v="Audene"/>
    <tag k="tiger:name_direction_prefix" v="NW"/>
    <tag k="tiger:separated" v="no"/>
    <tag k="tiger:source" v="tiger_import_dch_v0.6_20070808"/>
    <tag k="tiger:tlid" v="155848369:155861961"/>
    <tag k="tiger:zip_left" v="97330"/>
    <tag k="tiger:zip_right" v="97330"/>
  </way>
  <way id="28788964" version="5" timestamp="2011-10-08T04:15:52Z" uid="478161" user="MapJunkie" changeset="9499160">
    <nd ref="36909366"/>
    <nd ref="36921587"/>
    <nd ref="36921588"/>
    <nd ref="36921589"/>
    <nd ref="36921590"/>
    <nd ref="36921591"/>
    <nd ref="36921592"/>
    <nd ref="36921593"/>
    <tag k="highway" v="living_street"/>
    <tag k="name" v="Northwest Audene Place"/>
    <tag k="tiger:cfcc" v="A41"/>
    <tag k="tiger:county" v="Benton, OR"/>
    <tag k="tiger:name_base" v="Audene"/>
    <tag k="tiger:name_direction_prefix" v="NW"/>
    <tag k="tiger:separated" v="no"/>
    <tag k="tiger:source" v="tiger_import_dch_v0.6_20070808"/>
    <tag k="tiger:tlid" v="155848369:155861961"/>
    <tag k="tiger:zip_left" v="97330"/>
    <tag k="tiger:zip_right" v="97330"/>
  </way>
  <way id="28788011" version="11" timestamp="2012-07-19T08:55:27Z" uid="722137" user="OSMF Redaction Account" changeset="12314805">
    <nd ref="30994738"/>
    <nd ref="606210093"/>
    <nd ref="606286709"/>
    <nd ref="30994747"/>
    <nd ref="606286703"/>
    <nd ref="30994748"/>
    <nd ref="606284516"/>
    <nd ref="30994749"/>
    <nd ref="1074094577"/>
    <nd ref="30994750"/>
    <nd ref="1074094629"/>
    <tag k="highway" v="tertiary"/>
    <tag k="maxspeed" v="60"/>
    <tag k="name" v="Governor Road"/>
  </way>
  <way id="28788011" version="12" timestamp="2012-07-20T00:11:19Z" uid="46482" user="Leon K" changeset="12352050">
    <nd ref="30994738"/>
    <nd ref="606210093"/>
    <nd ref="606286709"/>
    <nd ref="30994747"/>
    <nd ref="606286703"/>
    <nd ref="30994748"/>
    <nd ref="606284516"/>
    <nd ref="30994749"/>
    <nd ref="1074094577"/>
    <nd ref="30994750"/>
    <nd ref="1074094629"/>
    <nd ref="30994752"/>
    <nd ref="30994753"/>
    <nd ref="32476564"/>
    <nd ref="32476558"/>
    <nd ref="1831585560"/>
    <nd ref="1831585571"/>
    <tag k="highway" v="tertiary"/>
    <tag k="maxspeed" v="60"/>
    <tag k="name" v="Governor Road"/>
  </way>
  <way id="28788011" version="13" timestamp="2012-07-20T00:13:36Z" uid="46482" user="Leon K" changeset="12352078">
    <nd ref="1831585919"/>
    <nd ref="1831585908"/>
    <nd ref="30994741"/>
    <nd ref="1831585907"/>
    <nd ref="1831585909"/>
    <nd ref="1831585899"/>
    <nd ref="1831585921"/>
    <nd ref="1831585906"/>
    <nd ref="1831585927"/>
    <nd ref="1831585905"/>
    <nd ref="1831585914"/>
    <nd ref="30994738"/>
    <nd ref="606210093"/>
    <nd ref="606286709"/>
    <nd ref="30994747"/>
    <nd ref="606286703"/>
    <nd ref="30994748"/>
    <nd ref="606284516"/>
    <nd ref="30994749"/>
    <nd ref="1074094577"/>
    <nd ref="30994750"/>
    <nd ref="1074094629"/>
    <nd ref="30994752"/>
    <nd ref="30994753"/>
    <nd ref="32476564"/>
    <nd ref="32476558"/>
    <nd ref="1831585560"/>
    <nd ref="1831585571"/>
    <tag k="highway" v="tertiary"/>
    <tag k="maxspeed" v="60"/>
    <tag k="name" v="Governor Road"/>
  </way>
  <way id="28788011" version="14" timestamp="2012-08-31T07:03:17Z" uid="714293" user="nqndwc" changeset="12927000">
    <nd ref="1831585919"/>
    <nd ref="1831585908"/>
    <nd ref="30994741"/>
    <nd ref="1831585907"/>
    <nd ref="1831585909"/>
    <nd ref="1831585899"/>
    <nd ref="1831585921"/>
    <nd ref="1831585906"/>
    <nd ref="1831585927"/>
    <nd ref="1891085300"/>
    <nd ref="1831585905"/>
    <nd ref="1831585914"/>
    <nd ref="30994738"/>
    <nd ref="606210093"/>
    <nd ref="606286709"/>
    <nd ref="30994747"/>
    <nd ref="1891085317"/>
    <nd ref="606286703"/>
    <nd ref="1891085302"/>
    <nd ref="606284516"/>
    <nd ref="30994749"/>
    <nd ref="1074094577"/>
    <nd ref="1074094629"/>
    <nd ref="30994752"/>
    <nd ref="30994753"/>
    <nd ref="32476564"/>
    <nd ref="32476558"/>
    <nd ref="1831585560"/>
    <nd ref="1831585571"/>
    <tag k="highway" v="tertiary"/>
    <tag k="maxspeed" v="60"/>
    <tag k="name" v="Governor Road"/>
  </way>
  <way id="28788011" version="15" timestamp="2012-08-31T07:10:58Z" uid="714293" user="nqndwc" changeset="12927000">
    <nd ref="1831585919"/>
    <nd ref="1831585908"/>
    <nd ref="30994741"/>
    <nd ref="1831585907"/>
    <nd ref="1831585909"/>
    <nd ref="1831585899"/>
    <nd ref="1831585921"/>
    <nd ref="1831585906"/>
    <nd ref="1831585927"/>
    <nd ref="1891085300"/>
    <nd ref="1831585905"/>
    <nd ref="1831585914"/>
    <nd ref="30994738"/>
    <nd ref="606210093"/>
    <nd ref="606286709"/>
    <nd ref="30994747"/>
    <nd ref="1891085317"/>
    <nd ref="606286703"/>
    <nd ref="1891085302"/>
    <nd ref="606284516"/>
    <nd ref="30994749"/>
    <nd ref="1074094577"/>
    <nd ref="1074094629"/>
    <nd ref="30994752"/>
    <nd ref="1891089428"/>
    <nd ref="30994753"/>
    <nd ref="32476564"/>
    <nd ref="32476558"/>
    <nd ref="1831585560"/>
    <nd ref="1831585571"/>
    <tag k="highway" v="tertiary"/>
    <tag k="maxspeed" v="60"/>
    <tag k="name" v="Governor Road"/>
  </way>
  <way id="28788011" version="16" timestamp="2012-08-31T07:30:18Z" uid="714293" user="nqndwc" changeset="12927000">
    <nd ref="1831585919"/>
    <nd ref="1831585908"/>
    <nd ref="30994741"/>
    <nd ref="1831585907"/>
    <nd ref="1831585909"/>
    <nd ref="1831585899"/>
    <nd ref="1831585921"/>
    <nd ref="1831585906"/>
    <nd ref="1831585927"/>
    <nd ref="1891085300"/>
    <nd ref="1891102283"/>
    <nd ref="1831585905"/>
    <nd ref="1891102289"/>
    <nd ref="1831585914"/>
    <nd ref="30994738"/>
    <nd ref="606210093"/>
    <nd ref="606286709"/>
    <nd ref="30994747"/>
    <nd ref="1891085317"/>
    <nd ref="606286703"/>
    <nd ref="1891085302"/>
    <nd ref="606284516"/>
    <nd ref="30994749"/>
    <nd ref="1074094577"/>
    <nd ref="1074094629"/>
    <nd ref="1891102308"/>
    <tag k="highway" v="tertiary"/>
    <tag k="maxspeed" v="60"/>
    <tag k="name" v="Governor Road"/>
  </way>
  <way id="28788011" version="17" timestamp="2012-08-31T07:54:02Z" uid="714293" user="nqndwc" changeset="12927000">
    <nd ref="1831585919"/>
    <nd ref="1831585908"/>
    <nd ref="30994741"/>
    <nd ref="1831585907"/>
    <nd ref="1891131655"/>
    <nd ref="1831585909"/>
    <nd ref="1831585899"/>
    <nd ref="1831585921"/>
    <nd ref="1831585906"/>
    <nd ref="1831585927"/>
    <nd ref="1891085300"/>
    <nd ref="1891102283"/>
    <nd ref="1831585905"/>
    <nd ref="1891102289"/>
    <nd ref="1831585914"/>
    <nd ref="30994738"/>
    <nd ref="606210093"/>
    <nd ref="606286709"/>
    <nd ref="30994747"/>
    <nd ref="1891085317"/>
    <nd ref="606286703"/>
    <nd ref="1891085302"/>
    <nd ref="606284516"/>
    <nd ref="30994749"/>
    <nd ref="1074094577"/>
    <nd ref="1074094629"/>
    <nd ref="1891102308"/>
    <tag k="highway" v="tertiary"/>
    <tag k="maxspeed" v="60"/>
    <tag k="name" v="Governor Road"/>
  </way>
  <way id="28788095" version="4" timestamp="2012-07-19T08:55:27Z" uid="722137" user="OSMF Redaction Account" changeset="12314805">
    <nd ref="316540002"/>
    <nd ref="316540005"/>
    <nd ref="316540006"/>
    <nd ref="316540007"/>
    <nd ref="316540008"/>
    <nd ref="316540009"/>
    <nd ref="316540002"/>
    <tag k="leisure" v="park"/>
    <tag k="name" v="Attenborough Park"/>
  </way>
  <way id="28788095" version="5" timestamp="2012-08-31T09:36:31Z" uid="714293" user="nqndwc" changeset="12927000">
    <nd ref="316540002"/>
    <nd ref="316540005"/>
    <nd ref="316540006"/>
    <nd ref="316540007"/>
    <nd ref="316540008"/>
    <nd ref="1891229899"/>
    <nd ref="1891229897"/>
    <nd ref="1891229891"/>
    <nd ref="1891229898"/>
    <nd ref="316540009"/>
    <nd ref="316540002"/>
    <tag k="leisure" v="park"/>
    <tag k="name" v="Attenborough Park"/>
  </way>
  <way id="28788105" version="8" timestamp="2012-08-31T09:36:32Z" uid="714293" user="nqndwc" changeset="12927000">
    <nd ref="316540029"/>
    <nd ref="1891229915"/>
    <nd ref="316540236"/>
    <nd ref="316540238"/>
    <nd ref="316540239"/>
    <nd ref="316540378"/>
    <nd ref="316540513"/>
    <nd ref="316540379"/>
    <tag k="highway" v="residential"/>
    <tag k="name" v="Pine Crescent"/>
    <tag k="source" v="MMBW"/>
  </way>
  <way id="28788161" version="6" timestamp="2012-07-23T10:08:43Z" uid="199837" user="happy5214" changeset="12447825">
    <nd ref="49069374"/>
    <nd ref="49069377"/>
    <tag k="bridge" v="yes"/>
    <tag k="highway" v="residential"/>
    <tag k="layer" v="1"/>
    <tag k="name" v="Robinson Avenue"/>
    <tag k="tiger:cfcc" v="A41"/>
    <tag k="tiger:county" v="San Diego, CA"/>
    <tag k="tiger:name_base" v="Robinson"/>
    <tag k="tiger:name_type" v="Ave"/>
    <tag k="tiger:separated" v="no"/>
    <tag k="tiger:source" v="tiger_import_dch_v0.6_20070809"/>
    <tag k="tiger:tlid" v="195345345"/>
    <tag k="tiger:zip_left" v="92104"/>
    <tag k="tiger:zip_right" v="92104"/>
  </way>
  <way id="28788181" version="6" timestamp="2012-08-31T09:36:32Z" uid="714293" user="nqndwc" changeset="12927000">
    <nd ref="316541749"/>
    <nd ref="316541763"/>
    <nd ref="316541764"/>
    <tag k="highway" v="residential"/>
    <tag k="name" v="James Avenue"/>
  </way>
  <way id="28788194" version="6" timestamp="2012-08-31T09:36:32Z" uid="714293" user="nqndwc" changeset="12927000">
    <nd ref="316541765"/>
    <nd ref="316541938"/>
    <nd ref="316540387"/>
    <nd ref="1891229904"/>
    <nd ref="1891229896"/>
    <nd ref="606206773"/>
    <tag k="highway" v="residential"/>
    <tag k="name" v="Eulinga Avenue"/>
  </way>
  <way id="28788467" version="8" timestamp="2012-08-31T09:26:06Z" uid="714293" user="nqndwc" changeset="12927000">
    <nd ref="316545973"/>
    <nd ref="316546015"/>
    <nd ref="316545989"/>
    <nd ref="1891225789"/>
    <nd ref="316545988"/>
    <nd ref="1891225808"/>
    <nd ref="606206593"/>
    <nd ref="1891225816"/>
    <nd ref="606206599"/>
    <nd ref="606206601"/>
    <nd ref="1891225795"/>
    <nd ref="606206604"/>
    <nd ref="606206675"/>
    <nd ref="606206606"/>
    <nd ref="606206609"/>
    <tag k="highway" v="residential"/>
    <tag k="name" v="Ebb Street"/>
    <tag k="source" v="MMBW"/>
  </way>
  <way id="28788468" version="4" timestamp="2012-08-31T09:26:06Z" uid="714293" user="nqndwc" changeset="12927000">
    <nd ref="316545989"/>
    <nd ref="316546005"/>
    <nd ref="316546006"/>
    <nd ref="316546007"/>
    <nd ref="316546008"/>
    <nd ref="316546009"/>
    <nd ref="1891225820"/>
    <nd ref="316546010"/>
    <nd ref="316546011"/>
    <tag k="highway" v="residential"/>
    <tag k="name" v="Dolphin Street"/>
    <tag k="source" v="MMBW"/>
  </way>
  <way id="28788475" version="6" timestamp="2012-08-31T09:26:06Z" uid="714293" user="nqndwc" changeset="12927000">
    <nd ref="316546011"/>
    <nd ref="1891225812"/>
    <nd ref="316547026"/>
    <nd ref="316546021"/>
    <tag k="highway" v="residential"/>
    <tag k="name" v="Inlet Street"/>
    <tag k="source" v="MMBW"/>
  </way>
  <way id="28788479" version="4" timestamp="2012-08-31T09:26:07Z" uid="714293" user="nqndwc" changeset="12927000">
    <nd ref="316546010"/>
    <nd ref="316546093"/>
    <nd ref="316546094"/>
    <nd ref="316546095"/>
    <nd ref="316546096"/>
    <nd ref="316546097"/>
    <nd ref="316546098"/>
    <nd ref="316546099"/>
    <nd ref="1891225797"/>
    <nd ref="1891225803"/>
    <nd ref="316546100"/>
    <nd ref="316546101"/>
    <nd ref="316546102"/>
    <nd ref="316546103"/>
    <nd ref="316546104"/>
    <nd ref="1891225793"/>
    <nd ref="1891225810"/>
    <nd ref="316546105"/>
    <tag k="highway" v="residential"/>
    <tag k="name" v="Longbeach Close"/>
  </way>
  <way id="28788531" version="10" timestamp="2012-08-31T09:26:07Z" uid="714293" user="nqndwc" changeset="12927000">
    <nd ref="316547015"/>
    <nd ref="1891225815"/>
    <nd ref="316547055"/>
    <nd ref="316547031"/>
    <nd ref="316547021"/>
    <nd ref="316547022"/>
    <tag k="highway" v="residential"/>
    <tag k="name" v="Glen Street"/>
  </way>
  <way id="28788532" version="6" timestamp="2012-08-31T09:26:07Z" uid="714293" user="nqndwc" changeset="12927000">
    <nd ref="316547026"/>
    <nd ref="316547027"/>
    <nd ref="316547041"/>
    <nd ref="316547042"/>
    <nd ref="1891225801"/>
    <nd ref="316547028"/>
    <nd ref="316547029"/>
    <nd ref="316547030"/>
    <nd ref="316547025"/>
    <nd ref="316547031"/>
    <tag k="highway" v="residential"/>
    <tag k="name" v="Kubis Avenue"/>
  </way>
  <way id="28788534" version="7" timestamp="2012-08-31T09:26:07Z" uid="714293" user="nqndwc" changeset="12927000">
    <nd ref="316547022"/>
    <nd ref="316547023"/>
    <nd ref="316547024"/>
    <nd ref="1891225805"/>
    <nd ref="316547051"/>
    <nd ref="316547049"/>
    <nd ref="316547038"/>
    <nd ref="316547039"/>
    <nd ref="316547040"/>
    <nd ref="316547041"/>
    <tag k="highway" v="residential"/>
    <tag k="name" v="Larnook Crescent"/>
  </way>
  <way id="28788537" version="7" timestamp="2012-08-31T09:26:07Z" uid="714293" user="nqndwc" changeset="12927000">
    <nd ref="316547028"/>
    <nd ref="316547050"/>
    <nd ref="316547053"/>
    <nd ref="316547051"/>
    <tag k="highway" v="residential"/>
    <tag k="name" v="Connewarra Avenue"/>
  </way>
  <way id="28788542" version="13" timestamp="2012-07-19T08:55:37Z" uid="722137" user="OSMF Redaction Account" changeset="12314805">
    <nd ref="316547057"/>
    <nd ref="316547066"/>
    <nd ref="316547067"/>
    <nd ref="316547068"/>
    <nd ref="316547069"/>
    <nd ref="316547070"/>
    <nd ref="316547071"/>
    <nd ref="606205803"/>
    <nd ref="606205240"/>
    <nd ref="316547107"/>
    <nd ref="316547072"/>
    <nd ref="316547073"/>
    <tag k="highway" v="residential"/>
    <tag k="name" v="Tarongo Drive"/>
  </way>
  <way id="28788760" version="36" timestamp="2012-07-15T12:00:37Z" uid="722137" user="OSMF Redaction Account" changeset="12227332">
    <nd ref="313816575"/>
    <nd ref="849517364"/>
    <nd ref="849517117"/>
    <nd ref="849516838"/>
    <nd ref="849517292"/>
    <nd ref="849517056"/>
    <nd ref="849516778"/>
    <nd ref="849517242"/>
    <nd ref="849516981"/>
    <nd ref="849517574"/>
    <tag k="railway" v="rail"/>
  </way>
  <way id="28788760" version="37" timestamp="2012-07-15T12:01:01Z" uid="722137" user="OSMF Redaction Account" changeset="12227340"/>
  <way id="28788964" version="6" timestamp="2012-07-18T21:13:59Z" uid="722137" user="OSMF Redaction Account" changeset="12298799"/>
</osm>
