<?xml version='1.0' encoding='UTF-8'?>
<osm version="0.6" generator="libosmium/2.20.0">
  <way id="28781350" version="2" timestamp="2010-04-07T13:11:33Z" uid="20587" user="balrog-kun" changeset="4353646">
    <nd ref="147499510"/>
    <nd ref="147440732"/>
    <nd ref="316467869"/>
    <nd ref="316467870"/>
    <nd ref="147499513"/>
    <tag k="created_by" v="Potlatch 0.10f"/>
    <tag k="highway" v="residential"/>
    <tag k="name" v="South Genessee Avenue"/>
    <tag k="tiger:cfcc" v="A41"/>
    <tag k="tiger:county" v="Oklahoma, OK"/>
    <tag k="tiger:name_base" v="Genessee"/>
    <tag k="tiger:name_direction_prefix" v="S"/>
    <tag k="tiger:name_type" v="Ave"/>
    <tag k="tiger:reviewed" v="no"/>
    <tag k="tiger:separated" v="no"/>
    <tag k="tiger:source" v="tiger_import_dch_v0.6_20070829"/>
    <tag k="tiger:tlid" v="100412831:100412832:100412834:100426699:100412828:100424174"/>
    <tag k="tiger:zip_left" v="73129"/>
    <tag k="tiger:zip_right" v="73129"/>
  </way>
  <way id="28781465" version="4" timestamp="2010-04-07T13:11:33Z" uid="20587" user="balrog-kun" changeset="4353646">
    <nd ref="147450693"/>
    <nd ref="147406105"/>
    <nd ref="147418155"/>
    <nd ref="147450695"/>
    <nd ref="147450697"/>
    <nd ref="147450699"/>
    <nd ref="147450701"/>
    <nd ref="147450703"/>
    <nd ref="147450706"/>
    <nd ref="147421747"/>
    <nd ref="147450708"/>
    <tag k="created_by" v="Potlatch 0.10f"/>
    <tag k="highway" v="secondary"/>
    <tag k="name" v="South Bryant Avenue"/>
    <tag k="tiger:cfcc" v="A41"/>
    <tag k="tiger:county" v="Oklahoma, OK"/>
    <tag k="tiger:name_base" v="Bryant"/>
    <tag k="tiger:name_direction_prefix" v="S"/>
    <tag k="tiger:name_type" v="Ave"/>
    <tag k="tiger:reviewed" v="no"/>
    <tag k="tiger:separated" v="no"/>
    <tag k="tiger:source" v="tiger_import_dch_v0.6_20070829"/>
    <tag k="tiger:tlid" v="100428921:100418519:100418500:100448357"/>
    <tag k="tiger:zip_left" v="73115"/>
    <tag k="tiger:zip_right" v="73149"/>
  </way>
  <way id="28781531" version="6" timestamp="2010-04-07T13:11:34Z" uid="20587" user="balrog-kun" changeset="4353646">
    <nd ref="147387470"/>
    <nd ref="316469823"/>
    <nd ref="316469921"/>
    <nd ref="316469953"/>
    <nd ref="316469954"/>
    <nd ref="316469955"/>
    <nd ref="316469956"/>
    <nd ref="316469922"/>
    <nd ref="147387473"/>
    <tag k="created_by" v="Potlatch 0.10f"/>
    <tag k="highway" v="residential"/>
    <tag k="name" v="South Walnut Avenue"/>
    <tag k="tiger:cfcc" v="A41"/>
    <tag k="tiger:county" v="Oklahoma, OK"/>
    <tag k="tiger:name_base" v="Walnut"/>
    <tag k="tiger:name_direction_prefix" v="S"/>
    <tag k="tiger:name_type" v="Ave"/>
    <tag k="tiger:reviewed" v="no"/>
    <tag k="tiger:separated" v="no"/>
    <tag k="tiger:source" v="tiger_import_dch_v0.6_20070829"/>
    <tag k="tiger:tlid" v="100403307"/>
    <tag k="tiger:zip_left" v="73129"/>
    <tag k="tiger:zip_right" v="73129"/>
  </way>
  <way id="28781566" version="2" timestamp="2010-03-31T21:10:42Z" uid="163746" user="anti_bot-nonsense" changeset="4289355">
    <nd ref="265978482"/>
    <nd ref="265978483"/>
    <nd ref="265978484"/>
    <tag k="highway" v="trunk_link"/>
    <tag k="layer" v="-1"/>
    <tag k="tunnel" v="yes"/>
  </way>
  <way id="28781567" version="2" timestamp="2010-03-31T20:49:09Z" uid="163746" user="anti_bot-nonsense" changeset="4289355">
    <nd ref="265978484"/>
    <nd ref="265978485"/>
    <nd ref="265978486"/>
    <nd ref="265978487"/>
    <nd ref="316469902"/>
    <nd ref="316469903"/>
    <nd ref="265978641"/>
    <tag k="highway" v="trunk_link"/>
  </way>
  <way id="28781567" version="3" timestamp="2012-02-25T22:41:00Z" uid="512646" user="morabeans" changeset="10792980">
    <nd ref="265978484"/>
    <nd ref="265978485"/>
    <nd ref="265978486"/>
    <nd ref="265978487"/>
    <nd ref="316469902"/>
    <nd ref="316469903"/>
    <nd ref="265978641"/>
    <tag k="highway" v="motorway"/>
  </way>
  <way id="28781569" version="3" timestamp="2010-03-31T21:02:14Z" uid="163746" user="anti_bot-nonsense" changeset="4289355">
    <nd ref="268813863"/>
    <nd ref="268813828"/>
    <nd ref="268813829"/>
    <nd ref="268813830"/>
    <nd ref="268813831"/>
    <nd ref="268813833"/>
    <nd ref="268813835"/>
    <nd ref="268813837"/>
    <nd ref="268813839"/>
    <nd ref="268813841"/>
    <nd ref="268813843"/>
    <tag k="highway" v="trunk_link"/>
    <tag k="oneway" v="yes"/>
  </way>
  <way id="28781569" version="4" timestamp="2010-06-13T05:49:55Z" uid="294227" user="Nima Farid" changeset="4975614">
    <nd ref="268813863"/>
    <nd ref="268813828"/>
    <nd ref="268813829"/>
    <nd ref="268813830"/>
    <nd ref="268813831"/>
    <nd ref="268813833"/>
    <nd ref="268813835"/>
    <nd ref="268813837"/>
    <nd ref="268813839"/>
    <nd ref="268813841"/>
    <nd ref="268813843"/>
    <tag k="highway" v="motorway"/>
    <tag k="oneway" v="yes"/>
  </way>
  <way id="28781571" version="3" timestamp="2010-03-31T20:53:19Z" uid="163746" user="anti_bot-nonsense" changeset="4289355">
    <nd ref="266533917"/>
    <nd ref="266533918"/>
    <nd ref="266533919"/>
    <nd ref="266533920"/>
    <nd ref="266533921"/>
    <nd ref="266534163"/>
    <nd ref="316478119"/>
    <tag k="highway" v="trunk"/>
    <tag k="name" v="Autopista Francisco Fajardo"/>
    <tag k="oneway" v="yes"/>
    <tag k="source" v="Yahoo"/>
  </way>
  <way id="28781571" version="4" timestamp="2010-06-13T05:39:37Z" uid="294227" user="Nima Farid" changeset="4975528">
    <nd ref="266533917"/>
    <nd ref="266533918"/>
    <nd ref="266533919"/>
    <nd ref="266533920"/>
    <nd ref="266533921"/>
    <nd ref="266534163"/>
    <nd ref="316478119"/>
    <nd ref="266534164"/>
    <tag k="highway" v="motorway"/>
    <tag k="name" v="Autopista Francisco Fajardo"/>
    <tag k="oneway" v="yes"/>
    <tag k="source" v="Yahoo"/>
  </way>
  <way id="28781580" version="7" timestamp="2011-05-31T13:38:12Z" uid="115477" user="wowik" changeset="8301336">
    <nd ref="316470024"/>
    <nd ref="1306762245"/>
    <nd ref="316470018"/>
    <nd ref="1306762195"/>
    <nd ref="1306762190"/>
    <nd ref="316469984"/>
    <nd ref="316469991"/>
    <nd ref="1306762148"/>
    <nd ref="1306762139"/>
    <nd ref="1306762282"/>
    <nd ref="1306762181"/>
    <nd ref="1306762228"/>
    <nd ref="1306762031"/>
    <nd ref="1306762082"/>
    <nd ref="1306762165"/>
    <nd ref="316470050"/>
    <nd ref="316470024"/>
    <tag k="addr:city" v="Москва"/>
    <tag k="addr:country" v="RU"/>
    <tag k="addr:housenumber" v="80 к8"/>
    <tag k="addr:street" v="Ленинградский проспект"/>
    <tag k="building" v="yes"/>
  </way>
  <way id="28781580" version="8" timestamp="2011-05-31T14:36:45Z" uid="115477" user="wowik" changeset="8301336">
    <nd ref="316470024"/>
    <nd ref="1306762245"/>
    <nd ref="316470018"/>
    <nd ref="1306762195"/>
    <nd ref="1306762190"/>
    <nd ref="316469984"/>
    <nd ref="1306835151"/>
    <nd ref="1306835129"/>
    <nd ref="1306835189"/>
    <nd ref="1306835166"/>
    <nd ref="1306835215"/>
    <nd ref="316469991"/>
    <nd ref="1306762148"/>
    <nd ref="1306762139"/>
    <nd ref="1306762282"/>
    <nd ref="1306762181"/>
    <nd ref="1306762228"/>
    <nd ref="1306762031"/>
    <nd ref="1306762082"/>
    <nd ref="1306762165"/>
    <nd ref="316470050"/>
    <nd ref="316470024"/>
    <tag k="addr:city" v="Москва"/>
    <tag k="addr:country" v="RU"/>
    <tag k="addr:housenumber" v="80 к8"/>
    <tag k="addr:street" v="Ленинградский проспект"/>
    <tag k="building" v="yes"/>
    <tag k="source" v="ggk"/>
  </way>
  <way id="28781580" version="9" timestamp="2012-02-09T16:35:07Z" uid="65083" user="deep125" changeset="10635498">
    <nd ref="316470024"/>
    <nd ref="1306762245"/>
    <nd ref="316470018"/>
    <nd ref="1306762195"/>
    <nd ref="1306762190"/>
    <nd ref="316469984"/>
    <nd ref="1306835151"/>
    <nd ref="1306835129"/>
    <nd ref="1306835189"/>
    <nd ref="1306835166"/>
    <nd ref="1306835215"/>
    <nd ref="316469991"/>
    <nd ref="1306762148"/>
    <nd ref="1306762139"/>
    <nd ref="1306762282"/>
    <nd ref="1306762181"/>
    <nd ref="1306762228"/>
    <nd ref="1306762031"/>
    <nd ref="1306762082"/>
    <nd ref="1306762165"/>
    <nd ref="316470050"/>
    <nd ref="316470024"/>
    <tag k="addr:city" v="Москва"/>
    <tag k="addr:country" v="RU"/>
    <tag k="addr:housenumber" v="80 к8"/>
    <tag k="addr:street" v="Ленинградский проспект"/>
    <tag k="building" v="yes"/>
    <tag k="building:levels" v="5"/>
    <tag k="source" v="ggk"/>
  </way>
  <way id="28781671" version="5" timestamp="2011-05-31T13:38:13Z" uid="115477" user="wowik" changeset="8301336">
    <nd ref="316470817"/>
    <nd ref="316470821"/>
    <nd ref="316470822"/>
    <nd ref="316470820"/>
    <nd ref="316470819"/>
    <nd ref="316470818"/>
    <nd ref="1306762250"/>
    <nd ref="1306762113"/>
    <nd ref="316470817"/>
    <tag k="addr:city" v="Москва"/>
    <tag k="addr:country" v="RU"/>
    <tag k="addr:housenumber" v="4 с6"/>
    <tag k="addr:street" v="Ленинградское шоссе"/>
    <tag k="building" v="yes"/>
    <tag k="building:levels" v="2"/>
  </way>
  <way id="28781672" version="5" timestamp="2011-05-31T13:59:34Z" uid="115477" user="wowik" changeset="8301336">
    <nd ref="316470823"/>
    <nd ref="316470824"/>
    <nd ref="316470825"/>
    <nd ref="316470827"/>
    <nd ref="316470828"/>
    <nd ref="316470829"/>
    <nd ref="446224607"/>
    <nd ref="1306790809"/>
    <nd ref="489590994"/>
    <nd ref="446224611"/>
    <nd ref="446224614"/>
    <nd ref="446224618"/>
    <tag k="highway" v="service"/>
  </way>
  <way id="28781696" version="5" timestamp="2010-04-03T04:04:31Z" uid="20587" user="balrog-kun" changeset="4309442">
    <nd ref="314721920"/>
    <nd ref="316471149"/>
    <nd ref="316471150"/>
    <nd ref="316471151"/>
    <nd ref="316471152"/>
    <nd ref="316471153"/>
    <nd ref="316471154"/>
    <nd ref="316471155"/>
    <nd ref="316471156"/>
    <nd ref="316471157"/>
    <nd ref="316471158"/>
    <nd ref="316471159"/>
    <nd ref="316471160"/>
    <nd ref="316471161"/>
    <nd ref="316471162"/>
    <nd ref="316471163"/>
    <nd ref="316471164"/>
    <nd ref="316471165"/>
    <tag k="access" v="private"/>
    <tag k="created_by" v="Potlatch 0.10f"/>
    <tag k="highway" v="residential"/>
    <tag k="name" v="South Stellar Parkway"/>
    <tag k="tiger:county" v="Maricopa, AZ"/>
    <tag k="tiger:zip_left" v="85226"/>
    <tag k="tiger:zip_right" v="85226"/>
  </way>
  <way id="28781696" version="6" timestamp="2012-03-30T19:35:07Z" uid="292665" user="Dr Kludge" changeset="11159150">
    <nd ref="314721920"/>
    <nd ref="316471149"/>
    <nd ref="316471150"/>
    <nd ref="316471151"/>
    <nd ref="316471152"/>
    <nd ref="316471153"/>
    <nd ref="316471154"/>
    <nd ref="316471155"/>
    <nd ref="316471156"/>
    <nd ref="316471157"/>
    <nd ref="316471158"/>
    <nd ref="316471159"/>
    <nd ref="316471160"/>
    <nd ref="316471161"/>
    <nd ref="316471162"/>
    <nd ref="316471163"/>
    <nd ref="316471164"/>
    <nd ref="316471165"/>
    <tag k="access" v="private"/>
    <tag k="highway" v="residential"/>
    <tag k="name" v="South Stellar Parkway"/>
    <tag k="tiger:county" v="Maricopa, AZ"/>
    <tag k="tiger:zip_left" v="85226"/>
    <tag k="tiger:zip_right" v="85226"/>
  </way>
  <way id="28781697" version="9" timestamp="2010-04-07T13:11:34Z" uid="20587" user="balrog-kun" changeset="4353646">
    <nd ref="316471125"/>
    <nd ref="316471142"/>
    <nd ref="316471227"/>
    <nd ref="316471228"/>
    <nd ref="316471229"/>
    <nd ref="340776247"/>
    <nd ref="340776248"/>
    <nd ref="340776250"/>
    <nd ref="340776251"/>
    <nd ref="340776252"/>
    <nd ref="340776253"/>
    <nd ref="340776254"/>
    <nd ref="340776256"/>
    <nd ref="340776257"/>
    <nd ref="340776258"/>
    <nd ref="340776259"/>
    <nd ref="340776261"/>
    <nd ref="340777883"/>
    <nd ref="340776262"/>
    <nd ref="340779168"/>
    <nd ref="667475500"/>
    <nd ref="340779169"/>
    <nd ref="316475012"/>
    <tag k="highway" v="secondary"/>
    <tag k="name" v="South Byers Avenue"/>
    <tag k="oneway" v="yes"/>
    <tag k="tiger:cfcc" v="A41"/>
    <tag k="tiger:county" v="Oklahoma, OK"/>
    <tag k="tiger:name_base" v="Byers"/>
    <tag k="tiger:name_direction_prefix" v="S"/>
    <tag k="tiger:name_type" v="Ave"/>
    <tag k="tiger:name_type_1" v="Ave"/>
    <tag k="tiger:reviewed" v="no"/>
    <tag k="tiger:separated" v="no"/>
    <tag k="tiger:source" v="tiger_import_dch_v0.6_20070829"/>
    <tag k="tiger:tlid" v="100442637; 100423507; 100433103:100433104:100435783:100436917:100450008:100403370:100403371"/>
    <tag k="tiger:zip_left" v="73129"/>
    <tag k="tiger:zip_right" v="73129"/>
  </way>
  <way id="28781697" version="10" timestamp="2011-10-06T16:47:18Z" uid="381909" user="sblanc" changeset="9487012">
    <nd ref="316471125"/>
    <nd ref="316471142"/>
    <nd ref="316471227"/>
    <nd ref="316471228"/>
    <nd ref="1456990817"/>
    <tag k="bridge" v="yes"/>
    <tag k="highway" v="secondary"/>
    <tag k="layer" v="1"/>
    <tag k="name" v="South Byers Avenue"/>
    <tag k="oneway" v="yes"/>
    <tag k="tiger:cfcc" v="A41"/>
    <tag k="tiger:county" v="Oklahoma, OK"/>
    <tag k="tiger:name_base" v="Byers"/>
    <tag k="tiger:name_direction_prefix" v="S"/>
    <tag k="tiger:name_type" v="Ave"/>
    <tag k="tiger:name_type_1" v="Ave"/>
    <tag k="tiger:reviewed" v="no"/>
    <tag k="tiger:separated" v="no"/>
    <tag k="tiger:source" v="tiger_import_dch_v0.6_20070829"/>
    <tag k="tiger:tlid" v="100442637; 100423507; 100433103:100433104:100435783:100436917:100450008:100403370:100403371"/>
    <tag k="tiger:zip_left" v="73129"/>
    <tag k="tiger:zip_right" v="73129"/>
  </way>
  <way id="28781703" version="2" timestamp="2008-12-04T20:39:50Z" uid="6975" user="ulfl" changeset="107048">
    <nd ref="316470884"/>
    <nd ref="316470864"/>
    <nd ref="316470874"/>
    <nd ref="316470875"/>
    <nd ref="316470876"/>
    <nd ref="316470877"/>
    <tag k="highway" v="track"/>
    <tag k="maxspeed" v="30"/>
    <tag k="tracktype" v="grade1"/>
  </way>
  <way id="28781703" version="3" timestamp="2008-12-17T15:40:18Z" uid="41897" user="Candid Dauth" changeset="440578">
    <nd ref="316470884"/>
    <nd ref="316470864"/>
    <nd ref="316470874"/>
    <nd ref="316470875"/>
    <nd ref="316470876"/>
    <nd ref="316470877"/>
    <tag k="TODO" v="Geht noch weiter"/>
    <tag k="highway" v="track"/>
    <tag k="maxspeed" v="30"/>
    <tag k="tracktype" v="grade1"/>
  </way>
  <way id="28781703" version="4" timestamp="2008-12-22T11:59:43Z" uid="41897" user="Candid Dauth" changeset="540188">
    <nd ref="316470884"/>
    <nd ref="316470864"/>
    <nd ref="316470874"/>
    <nd ref="316470875"/>
    <nd ref="316470876"/>
    <nd ref="316470877"/>
    <tag k="FIXME" v="Geht noch weiter"/>
    <tag k="highway" v="track"/>
    <tag k="maxspeed" v="30"/>
    <tag k="tracktype" v="grade1"/>
  </way>
  <way id="28781703" version="5" timestamp="2008-12-23T15:50:33Z" uid="41897" user="Candid Dauth" changeset="574519">
    <nd ref="316470884"/>
    <nd ref="316470864"/>
    <nd ref="316470874"/>
    <nd ref="316470875"/>
    <tag k="highway" v="track"/>
    <tag k="maxspeed" v="30"/>
    <tag k="tracktype" v="grade1"/>
  </way>
  <way id="28781703" version="6" timestamp="2009-01-31T13:18:08Z" uid="6893" user="[HEK]the_other" changeset="859178">
    <nd ref="316470884"/>
    <nd ref="316470874"/>
    <nd ref="316470875"/>
    <tag k="highway" v="track"/>
    <tag k="maxspeed" v="30"/>
    <tag k="tracktype" v="grade1"/>
  </way>
  <way id="28781728" version="5" timestamp="2010-04-03T04:04:31Z" uid="20587" user="balrog-kun" changeset="4309442">
    <nd ref="316471150"/>
    <nd ref="316471241"/>
    <tag k="access" v="private"/>
    <tag k="created_by" v="Potlatch 0.10f"/>
    <tag k="highway" v="residential"/>
    <tag k="name" v="West Rickenbacker Way"/>
  </way>
  <way id="28781728" version="6" timestamp="2012-03-30T19:39:37Z" uid="292665" user="Dr Kludge" changeset="11159150">
    <nd ref="316471150"/>
    <nd ref="316471241"/>
    <tag k="access" v="private"/>
    <tag k="highway" v="residential"/>
    <tag k="name" v="West Rickenbacker Way"/>
  </way>
  <way id="28781731" version="5" timestamp="2010-04-03T04:04:31Z" uid="20587" user="balrog-kun" changeset="4309442">
    <nd ref="316471153"/>
    <nd ref="316471290"/>
    <nd ref="316471291"/>
    <nd ref="316471292"/>
    <tag k="access" v="private"/>
    <tag k="created_by" v="Potlatch 0.10f"/>
    <tag k="highway" v="residential"/>
    <tag k="name" v="West Lindbergh Way"/>
  </way>
  <way id="28781731" version="6" timestamp="2012-03-30T19:38:37Z" uid="292665" user="Dr Kludge" changeset="11159150">
    <nd ref="316471153"/>
    <nd ref="316471290"/>
    <nd ref="316471291"/>
    <nd ref="316471292"/>
    <tag k="access" v="private"/>
    <tag k="highway" v="residential"/>
    <tag k="name" v="West Lindbergh Way"/>
  </way>
  <way id="28781735" version="5" timestamp="2010-04-03T04:04:32Z" uid="20587" user="balrog-kun" changeset="4309442">
    <nd ref="316471156"/>
    <nd ref="316471379"/>
    <tag k="access" v="private"/>
    <tag k="created_by" v="Potlatch 0.10f"/>
    <tag k="highway" v="residential"/>
    <tag k="name" v="West Earhart Way"/>
  </way>
  <way id="28781735" version="6" timestamp="2012-03-30T19:36:59Z" uid="292665" user="Dr Kludge" changeset="11159150">
    <nd ref="316471156"/>
    <nd ref="316471379"/>
    <tag k="access" v="private"/>
    <tag k="highway" v="residential"/>
    <tag k="name" v="West Earhart Way"/>
  </way>
  <way id="28781737" version="6" timestamp="2010-04-03T04:04:32Z" uid="20587" user="balrog-kun" changeset="4309442">
    <nd ref="316471159"/>
    <nd ref="316471455"/>
    <nd ref="316471456"/>
    <nd ref="316471458"/>
    <nd ref="316471459"/>
    <tag k="access" v="private"/>
    <tag k="created_by" v="Potlatch 0.10f"/>
    <tag k="highway" v="residential"/>
    <tag k="name" v="West Kitty Hawk"/>
  </way>
  <way id="28781737" version="7" timestamp="2012-03-30T19:38:15Z" uid="292665" user="Dr Kludge" changeset="11159150">
    <nd ref="316471159"/>
    <nd ref="316471455"/>
    <nd ref="316471456"/>
    <nd ref="316471458"/>
    <nd ref="316471459"/>
    <tag k="access" v="private"/>
    <tag k="highway" v="residential"/>
    <tag k="name" v="West Kitty Hawk"/>
  </way>
  <way id="28781771" version="6" timestamp="2010-04-03T04:04:32Z" uid="20587" user="balrog-kun" changeset="4309442">
    <nd ref="316471163"/>
    <nd ref="316471666"/>
    <nd ref="370701454"/>
    <nd ref="316471667"/>
    <tag k="access" v="private"/>
    <tag k="created_by" v="Potlatch 0.10f"/>
    <tag k="highway" v="residential"/>
    <tag k="name" v="West Folley Place"/>
  </way>
  <way id="28781771" version="7" timestamp="2012-03-30T19:37:14Z" uid="292665" user="Dr Kludge" changeset="11159150">
    <nd ref="316471163"/>
    <nd ref="316471666"/>
    <nd ref="370701454"/>
    <nd ref="316471667"/>
    <tag k="access" v="private"/>
    <tag k="highway" v="residential"/>
    <tag k="name" v="West Folley Place"/>
  </way>
  <way id="28781819" version="3" timestamp="2011-05-31T13:37:20Z" uid="115477" user="wowik" changeset="8301336">
    <nd ref="316471879"/>
    <nd ref="1306762202"/>
    <nd ref="1306762160"/>
    <nd ref="1306762224"/>
    <nd ref="1306762243"/>
    <nd ref="316471881"/>
    <nd ref="316471882"/>
    <nd ref="316471880"/>
    <nd ref="316471879"/>
    <tag k="building" v="yes"/>
    <tag k="building:levels" v="3"/>
  </way>
  <way id="28781819" version="4" timestamp="2011-05-31T14:01:06Z" uid="115477" user="wowik" changeset="8301336">
    <nd ref="316471879"/>
    <nd ref="1306762202"/>
    <nd ref="1306762160"/>
    <nd ref="1306762224"/>
    <nd ref="1306762243"/>
    <nd ref="316471881"/>
    <nd ref="316471882"/>
    <nd ref="1306793691"/>
    <nd ref="1306793638"/>
    <nd ref="316471880"/>
    <nd ref="1306793653"/>
    <nd ref="1306793666"/>
    <nd ref="1306793695"/>
    <nd ref="1306793681"/>
    <nd ref="1306793628"/>
    <nd ref="1306793626"/>
    <nd ref="316471879"/>
    <tag k="building" v="yes"/>
    <tag k="building:levels" v="3"/>
  </way>
  <way id="28781832" version="5" timestamp="2011-05-31T13:59:35Z" uid="115477" user="wowik" changeset="8301336">
    <nd ref="316472030"/>
    <nd ref="316472033"/>
    <nd ref="316472035"/>
    <nd ref="316472031"/>
    <nd ref="1306790443"/>
    <nd ref="1306790723"/>
    <nd ref="1306790818"/>
    <nd ref="1306790455"/>
    <nd ref="316472030"/>
    <tag k="addr:city" v="Москва"/>
    <tag k="addr:country" v="RU"/>
    <tag k="addr:housenumber" v="80"/>
    <tag k="addr:street" v="Ленинградский проспект"/>
    <tag k="building" v="yes"/>
    <tag k="cladr:code" v="77000000000168500"/>
  </way>
  <way id="28781832" version="6" timestamp="2011-05-31T15:15:29Z" uid="115477" user="wowik" changeset="8301336">
    <nd ref="316472030"/>
    <nd ref="316472033"/>
    <nd ref="316472035"/>
    <nd ref="316472031"/>
    <nd ref="1306790443"/>
    <nd ref="1306790723"/>
    <nd ref="1306790818"/>
    <nd ref="1306790455"/>
    <nd ref="316472030"/>
    <tag k="addr:city" v="Москва"/>
    <tag k="addr:country" v="RU"/>
    <tag k="addr:housenumber" v="80"/>
    <tag k="addr:street" v="Ленинградский проспект"/>
    <tag k="building" v="yes"/>
    <tag k="cladr:code" v="77000000000168500"/>
    <tag k="source" v="ggk"/>
  </way>
  <way id="28781833" version="3" timestamp="2011-05-31T15:15:20Z" uid="115477" user="wowik" changeset="8301336">
    <nd ref="316472036"/>
    <nd ref="316472038"/>
    <nd ref="316472039"/>
    <nd ref="316472037"/>
    <nd ref="316472036"/>
    <tag k="addr:city" v="Москва"/>
    <tag k="addr:country" v="RU"/>
    <tag k="addr:housenumber" v="2Б с44"/>
    <tag k="addr:street" v="Ленинградское шоссе"/>
    <tag k="building" v="yes"/>
    <tag k="source" v="ggk"/>
  </way>
  <way id="28781861" version="2" timestamp="2011-05-31T13:59:32Z" uid="115477" user="wowik" changeset="8301336">
    <nd ref="316472424"/>
    <nd ref="1306790637"/>
    <nd ref="1306790612"/>
    <nd ref="316472425"/>
    <nd ref="316472426"/>
    <nd ref="1306790447"/>
    <nd ref="1306790656"/>
    <nd ref="1306790729"/>
    <nd ref="1306790693"/>
    <nd ref="1306790713"/>
    <nd ref="316472429"/>
    <nd ref="316472428"/>
    <nd ref="1306790754"/>
    <nd ref="1306790543"/>
    <nd ref="1306790826"/>
    <nd ref="1306790395"/>
    <nd ref="316472427"/>
    <nd ref="316472430"/>
    <nd ref="316472431"/>
    <nd ref="1306790777"/>
    <nd ref="316472424"/>
    <tag k="building" v="yes"/>
  </way>
  <way id="28781861" version="3" timestamp="2011-05-31T15:15:21Z" uid="115477" user="wowik" changeset="8301336">
    <nd ref="316472424"/>
    <nd ref="1306790637"/>
    <nd ref="1306790612"/>
    <nd ref="316472425"/>
    <nd ref="316472426"/>
    <nd ref="1306790447"/>
    <nd ref="1306790656"/>
    <nd ref="1306790729"/>
    <nd ref="1306790693"/>
    <nd ref="1306790713"/>
    <nd ref="316472429"/>
    <nd ref="316472428"/>
    <nd ref="1306790754"/>
    <nd ref="1306790543"/>
    <nd ref="1306790826"/>
    <nd ref="1306790395"/>
    <nd ref="316472427"/>
    <nd ref="316472430"/>
    <nd ref="316472431"/>
    <nd ref="1306790777"/>
    <nd ref="316472424"/>
    <tag k="building" v="yes"/>
    <tag k="source" v="ggk"/>
  </way>
  <way id="28781873" version="8" timestamp="2010-04-07T13:11:35Z" uid="20587" user="balrog-kun" changeset="4353646">
    <nd ref="316472512"/>
    <nd ref="316476222"/>
    <nd ref="316475976"/>
    <nd ref="316472870"/>
    <nd ref="316472901"/>
    <tag k="highway" v="secondary"/>
    <tag k="name" v="South Martin Luther King Avenue"/>
    <tag k="oneway" v="yes"/>
    <tag k="tiger:cfcc" v="A41"/>
    <tag k="tiger:county" v="Oklahoma, OK"/>
    <tag k="tiger:name_base" v="Martin Luther King"/>
    <tag k="tiger:name_direction_prefix" v="S"/>
    <tag k="tiger:name_type" v="Ave"/>
    <tag k="tiger:reviewed" v="no"/>
    <tag k="tiger:separated" v="no"/>
    <tag k="tiger:source" v="tiger_import_dch_v0.6_20070829"/>
    <tag k="tiger:tlid" v="100412589:100412594"/>
    <tag k="tiger:zip_left" v="73117"/>
    <tag k="tiger:zip_right" v="73117"/>
  </way>
  <way id="28781882" version="112" timestamp="2010-04-07T13:11:35Z" uid="20587" user="balrog-kun" changeset="4353646">
    <nd ref="147465347"/>
    <nd ref="147465345"/>
    <nd ref="147358740"/>
    <nd ref="147368264"/>
    <nd ref="147465343"/>
    <nd ref="147369552"/>
    <nd ref="343300099"/>
    <nd ref="147362292"/>
    <nd ref="343300077"/>
    <nd ref="147465339"/>
    <nd ref="147385885"/>
    <nd ref="338773324"/>
    <nd ref="147398739"/>
    <nd ref="147384198"/>
    <nd ref="147465334"/>
    <nd ref="147465332"/>
    <nd ref="147363866"/>
    <nd ref="147423853"/>
    <nd ref="147465330"/>
    <nd ref="147465329"/>
    <nd ref="147465326"/>
    <nd ref="147369071"/>
    <nd ref="343431987"/>
    <nd ref="147457131"/>
    <nd ref="147465324"/>
    <nd ref="147465322"/>
    <nd ref="147380445"/>
    <nd ref="147417935"/>
    <nd ref="147462125"/>
    <nd ref="147465321"/>
    <nd ref="147425844"/>
    <nd ref="147369209"/>
    <nd ref="147465319"/>
    <nd ref="147465317"/>
    <nd ref="147465315"/>
    <nd ref="147465314"/>
    <nd ref="147465313"/>
    <nd ref="147434997"/>
    <nd ref="147465312"/>
    <nd ref="147439468"/>
    <nd ref="147434304"/>
    <nd ref="147393379"/>
    <nd ref="147440012"/>
    <nd ref="336107050"/>
    <nd ref="147465311"/>
    <nd ref="147465310"/>
    <nd ref="147414046"/>
    <nd ref="147465309"/>
    <nd ref="147465308"/>
    <nd ref="336077635"/>
    <nd ref="147465307"/>
    <nd ref="147465306"/>
    <nd ref="336074550"/>
    <nd ref="336074274"/>
    <nd ref="147454129"/>
    <nd ref="147465304"/>
    <nd ref="336059812"/>
    <nd ref="147357547"/>
    <nd ref="147465301"/>
    <nd ref="147392171"/>
    <nd ref="147465299"/>
    <nd ref="147462917"/>
    <nd ref="147462923"/>
    <nd ref="147413242"/>
    <tag k="created_by" v="Potlatch 0.10f"/>
    <tag k="highway" v="unclassified"/>
    <tag k="name" v="East Reno Avenue"/>
    <tag k="oneway" v="yes"/>
    <tag k="tiger:cfcc" v="A41"/>
    <tag k="tiger:county" v="Oklahoma, OK"/>
    <tag k="tiger:name_base" v="Reno"/>
    <tag k="tiger:name_direction_prefix" v="E"/>
    <tag k="tiger:name_type" v="Ave"/>
    <tag k="tiger:reviewed" v="no"/>
    <tag k="tiger:separated" v="no"/>
    <tag k="tiger:source" v="tiger_import_dch_v0.6_20070829"/>
    <tag k="tiger:tlid" v="100422992"/>
  </way>
  <way id="28781882" version="113" timestamp="2011-06-01T14:31:00Z" uid="30521" user="dufekin" changeset="8310805">
    <nd ref="147465347"/>
    <nd ref="147465345"/>
    <nd ref="147358740"/>
    <nd ref="147368264"/>
    <nd ref="147465343"/>
    <nd ref="1307732737"/>
    <nd ref="147369552"/>
    <nd ref="343300099"/>
    <nd ref="147362292"/>
    <nd ref="343300077"/>
    <nd ref="147465339"/>
    <nd ref="147385885"/>
    <nd ref="338773324"/>
    <nd ref="147398739"/>
    <nd ref="147384198"/>
    <nd ref="147465334"/>
    <nd ref="147465332"/>
    <nd ref="147363866"/>
    <nd ref="147423853"/>
    <nd ref="147465330"/>
    <nd ref="147465329"/>
    <nd ref="147465326"/>
    <nd ref="147369071"/>
    <nd ref="343431987"/>
    <nd ref="147457131"/>
    <nd ref="147465324"/>
    <nd ref="147465322"/>
    <nd ref="147380445"/>
    <nd ref="147417935"/>
    <nd ref="147462125"/>
    <nd ref="147465321"/>
    <nd ref="147425844"/>
    <nd ref="147369209"/>
    <nd ref="147465319"/>
    <nd ref="147465317"/>
    <nd ref="147465315"/>
    <nd ref="147465314"/>
    <nd ref="147465313"/>
    <nd ref="147434997"/>
    <nd ref="147465312"/>
    <nd ref="147439468"/>
    <nd ref="147434304"/>
    <nd ref="147393379"/>
    <nd ref="147440012"/>
    <nd ref="336107050"/>
    <nd ref="147465311"/>
    <nd ref="147465310"/>
    <nd ref="147414046"/>
    <nd ref="147465309"/>
    <nd ref="147465308"/>
    <nd ref="336077635"/>
    <nd ref="147465307"/>
    <nd ref="147465306"/>
    <nd ref="336074550"/>
    <nd ref="336074274"/>
    <nd ref="147454129"/>
    <nd ref="147465304"/>
    <nd ref="336059812"/>
    <nd ref="147357547"/>
    <nd ref="147465301"/>
    <nd ref="147392171"/>
    <nd ref="147465299"/>
    <nd ref="147462917"/>
    <nd ref="147462923"/>
    <nd ref="147413242"/>
    <tag k="highway" v="unclassified"/>
    <tag k="name" v="East Reno Avenue"/>
    <tag k="tiger:cfcc" v="A41"/>
    <tag k="tiger:county" v="Oklahoma, OK"/>
    <tag k="tiger:name_base" v="Reno"/>
    <tag k="tiger:name_direction_prefix" v="E"/>
    <tag k="tiger:name_type" v="Ave"/>
    <tag k="tiger:reviewed" v="no"/>
    <tag k="tiger:separated" v="no"/>
    <tag k="tiger:source" v="tiger_import_dch_v0.6_20070829"/>
    <tag k="tiger:tlid" v="100422992"/>
  </way>
  <way id="28781882" version="114" timestamp="2011-06-01T15:07:11Z" uid="30521" user="dufekin" changeset="8310805">
    <nd ref="147465347"/>
    <nd ref="147465345"/>
    <nd ref="147358740"/>
    <nd ref="147368264"/>
    <nd ref="147465343"/>
    <nd ref="1307732737"/>
    <nd ref="147369552"/>
    <nd ref="343300099"/>
    <nd ref="147362292"/>
    <nd ref="343300077"/>
    <nd ref="147465339"/>
    <nd ref="147385885"/>
    <nd ref="1307768002"/>
    <tag k="highway" v="unclassified"/>
    <tag k="name" v="East Reno Avenue"/>
    <tag k="tiger:cfcc" v="A41"/>
    <tag k="tiger:county" v="Oklahoma, OK"/>
    <tag k="tiger:name_base" v="Reno"/>
    <tag k="tiger:name_direction_prefix" v="E"/>
    <tag k="tiger:name_type" v="Ave"/>
    <tag k="tiger:reviewed" v="no"/>
    <tag k="tiger:separated" v="no"/>
    <tag k="tiger:source" v="tiger_import_dch_v0.6_20070829"/>
    <tag k="tiger:tlid" v="100422992"/>
  </way>
  <way id="28781892" version="68" timestamp="2010-04-07T13:11:37Z" uid="20587" user="balrog-kun" changeset="4353646">
    <nd ref="316473304"/>
    <nd ref="316473303"/>
    <nd ref="632094264"/>
    <tag k="highway" v="secondary"/>
    <tag k="name" v="East Reno Avenue"/>
    <tag k="oneway" v="yes"/>
    <tag k="tiger:cfcc" v="A41"/>
    <tag k="tiger:county" v="Oklahoma, OK"/>
    <tag k="tiger:name_base" v="Reno"/>
    <tag k="tiger:name_direction_prefix" v="E"/>
    <tag k="tiger:name_type" v="Ave"/>
    <tag k="tiger:reviewed" v="no"/>
    <tag k="tiger:separated" v="no"/>
    <tag k="tiger:source" v="tiger_import_dch_v0.6_20070829"/>
    <tag k="tiger:tlid" v="100422992"/>
  </way>
  <way id="28781892" version="69" timestamp="2011-12-08T16:08:25Z" uid="30521" user="dufekin" changeset="10066218">
    <nd ref="316473304"/>
    <nd ref="1536835155"/>
    <nd ref="1536834874"/>
    <nd ref="316473303"/>
    <nd ref="632094264"/>
    <tag k="highway" v="secondary"/>
    <tag k="name" v="East Reno Avenue"/>
    <tag k="oneway" v="yes"/>
    <tag k="tiger:cfcc" v="A41"/>
    <tag k="tiger:county" v="Oklahoma, OK"/>
    <tag k="tiger:name_base" v="Reno"/>
    <tag k="tiger:name_direction_prefix" v="E"/>
    <tag k="tiger:name_type" v="Ave"/>
    <tag k="tiger:reviewed" v="no"/>
    <tag k="tiger:separated" v="no"/>
    <tag k="tiger:source" v="tiger_import_dch_v0.6_20070829"/>
    <tag k="tiger:tlid" v="100422992"/>
  </way>
  <way id="28781892" version="70" timestamp="2011-12-15T19:17:04Z" uid="30521" user="dufekin" changeset="10126325">
    <nd ref="316473304"/>
    <nd ref="1536835155"/>
    <nd ref="1536834874"/>
    <nd ref="1547765058"/>
    <nd ref="1547765156"/>
    <nd ref="1547765407"/>
    <nd ref="1547765485"/>
    <nd ref="1547765351"/>
    <nd ref="1547765204"/>
    <nd ref="1547765541"/>
    <nd ref="1547765079"/>
    <nd ref="1547765599"/>
    <nd ref="1547765330"/>
    <nd ref="1547765538"/>
    <nd ref="1547765544"/>
    <nd ref="1547765304"/>
    <nd ref="632094264"/>
    <tag k="highway" v="secondary"/>
    <tag k="name" v="East Reno Avenue"/>
    <tag k="oneway" v="yes"/>
    <tag k="tiger:cfcc" v="A41"/>
    <tag k="tiger:county" v="Oklahoma, OK"/>
    <tag k="tiger:name_base" v="Reno"/>
    <tag k="tiger:name_direction_prefix" v="E"/>
    <tag k="tiger:name_type" v="Ave"/>
    <tag k="tiger:reviewed" v="no"/>
    <tag k="tiger:separated" v="no"/>
    <tag k="tiger:source" v="tiger_import_dch_v0.6_20070829"/>
    <tag k="tiger:tlid" v="100422992"/>
  </way>
  <way id="28781904" version="3" timestamp="2011-05-31T13:39:16Z" uid="115477" user="wowik" changeset="8301336">
    <nd ref="316473710"/>
    <nd ref="316473715"/>
    <nd ref="316473718"/>
    <nd ref="316473713"/>
    <nd ref="1306762287"/>
    <nd ref="316473710"/>
    <tag k="addr:city" v="Москва"/>
    <tag k="addr:country" v="RU"/>
    <tag k="addr:housenumber" v="80 к56"/>
    <tag k="addr:street" v="Ленинградский проспект"/>
    <tag k="building" v="yes"/>
  </way>
  <way id="28781904" version="4" timestamp="2011-09-09T15:18:55Z" uid="421524" user="Scondo" changeset="9255079">
    <nd ref="316473710"/>
    <nd ref="316473715"/>
    <nd ref="316473718"/>
    <nd ref="316473713"/>
    <nd ref="1428093971"/>
    <nd ref="316473710"/>
    <tag k="addr:city" v="Москва"/>
    <tag k="addr:country" v="RU"/>
    <tag k="addr:housenumber" v="80 к56"/>
    <tag k="addr:street" v="Ленинградский проспект"/>
    <tag k="building" v="yes"/>
  </way>
  <way id="28781905" version="3" timestamp="2011-05-31T13:39:18Z" uid="115477" user="wowik" changeset="8301336">
    <nd ref="316473720"/>
    <nd ref="316473724"/>
    <nd ref="1306762059"/>
    <nd ref="1306762215"/>
    <nd ref="1306762036"/>
    <nd ref="1306762294"/>
    <nd ref="316473728"/>
    <nd ref="316473721"/>
    <nd ref="316473720"/>
    <tag k="addr:city" v="Москва"/>
    <tag k="addr:country" v="RU"/>
    <tag k="building" v="yes"/>
  </way>
  <way id="28781905" version="4" timestamp="2011-05-31T14:36:53Z" uid="115477" user="wowik" changeset="8301336">
    <nd ref="316473720"/>
    <nd ref="316473724"/>
    <nd ref="1306762059"/>
    <nd ref="1306762215"/>
    <nd ref="1306762036"/>
    <nd ref="1306762294"/>
    <nd ref="316473728"/>
    <nd ref="316473721"/>
    <nd ref="316473720"/>
    <tag k="addr:city" v="Москва"/>
    <tag k="addr:country" v="RU"/>
    <tag k="building" v="yes"/>
    <tag k="source" v="ggk"/>
  </way>
  <way id="28781906" version="3" timestamp="2011-05-31T13:59:32Z" uid="115477" user="wowik" changeset="8301336">
    <nd ref="316473731"/>
    <nd ref="1306790715"/>
    <nd ref="1306790435"/>
    <nd ref="316473736"/>
    <nd ref="316473739"/>
    <nd ref="1306790472"/>
    <nd ref="1306790486"/>
    <nd ref="316473734"/>
    <nd ref="316473731"/>
    <tag k="addr:city" v="Москва"/>
    <tag k="addr:country" v="RU"/>
    <tag k="building" v="yes"/>
  </way>
  <way id="28781906" version="4" timestamp="2011-05-31T14:36:41Z" uid="115477" user="wowik" changeset="8301336">
    <nd ref="316473731"/>
    <nd ref="1306790715"/>
    <nd ref="1306790435"/>
    <nd ref="316473736"/>
    <nd ref="316473739"/>
    <nd ref="1306790472"/>
    <nd ref="1306790486"/>
    <nd ref="316473734"/>
    <nd ref="316473731"/>
    <tag k="addr:city" v="Москва"/>
    <tag k="addr:country" v="RU"/>
    <tag k="building" v="yes"/>
    <tag k="source" v="ggk"/>
  </way>
  <way id="28781907" version="3" timestamp="2011-05-31T15:15:22Z" uid="115477" user="wowik" changeset="8301336">
    <nd ref="316473742"/>
    <nd ref="316473746"/>
    <nd ref="316473749"/>
    <nd ref="316473744"/>
    <nd ref="316473742"/>
    <tag k="addr:city" v="Москва"/>
    <tag k="addr:country" v="RU"/>
    <tag k="building" v="yes"/>
    <tag k="source" v="ggk"/>
  </way>
  <way id="28781908" version="3" timestamp="2011-05-31T13:59:35Z" uid="115477" user="wowik" changeset="8301336">
    <nd ref="316473751"/>
    <nd ref="1306790767"/>
    <nd ref="1306790561"/>
    <nd ref="316473757"/>
    <nd ref="316473771"/>
    <nd ref="316473754"/>
    <nd ref="316473751"/>
    <tag k="addr:city" v="Москва"/>
    <tag k="addr:country" v="RU"/>
    <tag k="addr:housenumber" v="80 к48"/>
    <tag k="addr:street" v="Ленинградский проспект"/>
    <tag k="building" v="yes"/>
  </way>
  <way id="28781909" version="2" timestamp="2011-05-31T13:39:22Z" uid="115477" user="wowik" changeset="8301336">
    <nd ref="316473785"/>
    <nd ref="316473805"/>
    <nd ref="316473817"/>
    <nd ref="316473789"/>
    <nd ref="316473785"/>
    <tag k="addr:city" v="Москва"/>
    <tag k="addr:country" v="RU"/>
    <tag k="addr:housenumber" v="80 к46"/>
    <tag k="addr:street" v="Ленинградский проспект"/>
    <tag k="building" v="yes"/>
  </way>
  <way id="28781909" version="3" timestamp="2011-05-31T13:59:36Z" uid="115477" user="wowik" changeset="8301336">
    <nd ref="316473785"/>
    <nd ref="316473805"/>
    <nd ref="316473817"/>
    <nd ref="1306790845"/>
    <nd ref="1306790735"/>
    <nd ref="316473789"/>
    <nd ref="316473785"/>
    <tag k="addr:city" v="Москва"/>
    <tag k="addr:country" v="RU"/>
    <tag k="addr:housenumber" v="80 к46"/>
    <tag k="addr:street" v="Ленинградский проспект"/>
    <tag k="building" v="yes"/>
  </way>
  <way id="28781909" version="4" timestamp="2011-05-31T14:36:55Z" uid="115477" user="wowik" changeset="8301336">
    <nd ref="316473785"/>
    <nd ref="316473805"/>
    <nd ref="316473817"/>
    <nd ref="1306790845"/>
    <nd ref="1306790735"/>
    <nd ref="316473789"/>
    <nd ref="316473785"/>
    <tag k="addr:city" v="Москва"/>
    <tag k="addr:country" v="RU"/>
    <tag k="addr:housenumber" v="80 к46"/>
    <tag k="addr:street" v="Ленинградский проспект"/>
    <tag k="building" v="yes"/>
    <tag k="source" v="ggk"/>
  </way>
  <way id="28781910" version="3" timestamp="2011-05-31T13:38:12Z" uid="115477" user="wowik" changeset="8301336">
    <nd ref="316473830"/>
    <nd ref="316473833"/>
    <nd ref="1306762276"/>
    <nd ref="316473836"/>
    <nd ref="1306762145"/>
    <nd ref="1306762203"/>
    <nd ref="316473830"/>
    <tag k="addr:city" v="Москва"/>
    <tag k="addr:country" v="RU"/>
    <tag k="building" v="yes"/>
  </way>
  <way id="28781910" version="4" timestamp="2011-05-31T14:36:44Z" uid="115477" user="wowik" changeset="8301336">
    <nd ref="316473830"/>
    <nd ref="316473833"/>
    <nd ref="1306762276"/>
    <nd ref="316473836"/>
    <nd ref="1306762145"/>
    <nd ref="1306762203"/>
    <nd ref="316473830"/>
    <tag k="addr:city" v="Москва"/>
    <tag k="addr:country" v="RU"/>
    <tag k="building" v="yes"/>
    <tag k="source" v="ggk"/>
  </way>
  <way id="28781945" version="5" timestamp="2010-06-29T19:17:52Z" uid="74617" user="JohnSmith" changeset="5108182">
    <nd ref="316474389"/>
    <nd ref="316474390"/>
    <nd ref="316474391"/>
    <nd ref="316474392"/>
    <nd ref="316474389"/>
    <tag k="fixme" v="sport=football is ambiguous, see http://wiki.osm.org/wiki/Football for more details"/>
    <tag k="sport" v="football"/>
  </way>
  <way id="28781962" version="5" timestamp="2011-05-03T23:38:17Z" uid="23543" user="jkjk" changeset="8044842">
    <nd ref="78452147"/>
    <nd ref="82662255"/>
    <nd ref="88983578"/>
    <nd ref="320070948"/>
    <nd ref="88983602"/>
    <nd ref="320071000"/>
    <nd ref="88983579"/>
    <nd ref="89015547"/>
    <nd ref="79467557"/>
    <nd ref="79467558"/>
    <tag k="highway" v="primary"/>
    <tag k="name" v="Alipašina"/>
    <tag k="ref" v="M 18"/>
    <tag k="trolley_wire" v="yes"/>
  </way>
  <way id="28781531" version="7" timestamp="2012-08-09T22:34:20Z" uid="30521" user="dufekin" changeset="12674600">
    <nd ref="147387470"/>
    <nd ref="316469823"/>
    <nd ref="316469921"/>
    <nd ref="316469954"/>
    <nd ref="316469955"/>
    <nd ref="316469956"/>
    <nd ref="316469922"/>
    <nd ref="147387473"/>
    <tag k="highway" v="residential"/>
    <tag k="name" v="South Walnut Avenue"/>
    <tag k="tiger:cfcc" v="A41"/>
    <tag k="tiger:county" v="Oklahoma, OK"/>
    <tag k="tiger:name_base" v="Walnut"/>
    <tag k="tiger:name_direction_prefix" v="S"/>
    <tag k="tiger:name_type" v="Ave"/>
    <tag k="tiger:reviewed" v="no"/>
    <tag k="tiger:separated" v="no"/>
    <tag k="tiger:source" v="tiger_import_dch_v0.6_20070829"/>
    <tag k="tiger:tlid" v="100403307"/>
    <tag k="tiger:zip_left" v="73129"/>
    <tag k="tiger:zip_right" v="73129"/>
  </way>
  <way id="28781531" version="8" timestamp="2012-08-11T12:48:39Z" uid="30521" user="dufekin" changeset="12690884">
    <nd ref="147387470"/>
    <nd ref="316469823"/>
    <nd ref="316469921"/>
    <nd ref="1859503407"/>
    <nd ref="316469954"/>
    <nd ref="316469955"/>
    <nd ref="316469956"/>
    <nd ref="316469922"/>
    <nd ref="147387473"/>
    <tag k="highway" v="residential"/>
    <tag k="name" v="South Walnut Avenue"/>
    <tag k="tiger:cfcc" v="A41"/>
    <tag k="tiger:county" v="Oklahoma, OK"/>
    <tag k="tiger:name_base" v="Walnut"/>
    <tag k="tiger:name_direction_prefix" v="S"/>
    <tag k="tiger:name_type" v="Ave"/>
    <tag k="tiger:reviewed" v="no"/>
    <tag k="tiger:separated" v="no"/>
    <tag k="tiger:source" v="tiger_import_dch_v0.6_20070829"/>
    <tag k="tiger:tlid" v="100403307"/>
    <tag k="tiger:zip_left" v="73129"/>
    <tag k="tiger:zip_right" v="73129"/>
  </way>
  <way id="28781531" version="9" timestamp="2012-08-21T00:03:21Z" uid="30521" user="dufekin" changeset="12802695">
    <nd ref="147387470"/>
    <nd ref="316469823"/>
    <nd ref="316469921"/>
    <nd ref="1859503407"/>
    <nd ref="316469954"/>
    <nd ref="1875309635"/>
    <nd ref="316469955"/>
    <nd ref="316469956"/>
    <nd ref="1875309618"/>
    <nd ref="316469922"/>
    <nd ref="1875309603"/>
    <nd ref="147387473"/>
    <tag k="highway" v="residential"/>
    <tag k="name" v="South Walnut Avenue"/>
    <tag k="tiger:cfcc" v="A41"/>
    <tag k="tiger:county" v="Oklahoma, OK"/>
    <tag k="tiger:name_base" v="Walnut"/>
    <tag k="tiger:name_direction_prefix" v="S"/>
    <tag k="tiger:name_type" v="Ave"/>
    <tag k="tiger:reviewed" v="no"/>
    <tag k="tiger:separated" v="no"/>
    <tag k="tiger:source" v="tiger_import_dch_v0.6_20070829"/>
    <tag k="tiger:tlid" v="100403307"/>
    <tag k="tiger:zip_left" v="73129"/>
    <tag k="tiger:zip_right" v="73129"/>
  </way>
  <way id="28781566" version="3" timestamp="2012-07-07T01:08:29Z" uid="39060" user="madek" changeset="12136116">
    <nd ref="265978482"/>
    <nd ref="265978483"/>
    <nd ref="265978484"/>
    <tag k="highway" v="trunk_link"/>
    <tag k="layer" v="-1"/>
    <tag k="oneway" v="yes"/>
    <tag k="tunnel" v="yes"/>
  </way>
  <way id="28781567" version="4" timestamp="2012-07-07T01:08:26Z" uid="39060" user="madek" changeset="12136116">
    <nd ref="265978484"/>
    <nd ref="265978485"/>
    <nd ref="265978486"/>
    <nd ref="265978487"/>
    <nd ref="316469902"/>
    <nd ref="316469903"/>
    <nd ref="265978641"/>
    <tag k="highway" v="trunk"/>
    <tag k="oneway" v="yes"/>
  </way>
  <way id="28781580" version="10" timestamp="2012-05-14T07:43:55Z" uid="336354" user="esaulenka" changeset="11593246"/>
  <way id="28781671" version="6" timestamp="2012-05-14T07:43:54Z" uid="336354" user="esaulenka" changeset="11593246"/>
  <way id="28781672" version="6" timestamp="2012-05-14T07:43:55Z" uid="336354" user="esaulenka" changeset="11593246"/>
  <way id="28781697" version="11" timestamp="2012-08-11T04:19:45Z" uid="30521" user="dufekin" changeset="12687181">
    <nd ref="316471125"/>
    <nd ref="1861129122"/>
    <nd ref="1861128943"/>
    <nd ref="316471142"/>
    <nd ref="1861129301"/>
    <nd ref="1861128828"/>
    <nd ref="1861129090"/>
    <nd ref="1861129251"/>
    <nd ref="1861128846"/>
    <nd ref="1861129307"/>
    <nd ref="1861128794"/>
    <nd ref="1861129047"/>
    <nd ref="1861129068"/>
    <nd ref="316471227"/>
    <nd ref="1861129184"/>
    <nd ref="1861128932"/>
    <nd ref="1861128975"/>
    <nd ref="1861129186"/>
    <nd ref="1861128947"/>
    <nd ref="1861128959"/>
    <nd ref="1861129257"/>
    <nd ref="1861129370"/>
    <nd ref="1861129230"/>
    <nd ref="1861129426"/>
    <nd ref="1861129334"/>
    <nd ref="316471228"/>
    <nd ref="1861129220"/>
    <nd ref="1861129388"/>
    <nd ref="1861129207"/>
    <nd ref="1861128971"/>
    <nd ref="1861129179"/>
    <nd ref="1456990817"/>
    <tag k="bridge" v="yes"/>
    <tag k="highway" v="secondary"/>
    <tag k="layer" v="1"/>
    <tag k="name" v="South Byers Avenue"/>
    <tag k="oneway" v="yes"/>
    <tag k="tiger:cfcc" v="A41"/>
    <tag k="tiger:county" v="Oklahoma, OK"/>
    <tag k="tiger:name_base" v="Byers"/>
    <tag k="tiger:name_direction_prefix" v="S"/>
    <tag k="tiger:name_type" v="Ave"/>
    <tag k="tiger:name_type_1" v="Ave"/>
    <tag k="tiger:reviewed" v="no"/>
    <tag k="tiger:separated" v="no"/>
    <tag k="tiger:source" v="tiger_import_dch_v0.6_20070829"/>
    <tag k="tiger:tlid" v="100442637:100423507:100433103:100433104:100435783:100436917:100450008:100403370:100403371"/>
    <tag k="tiger:zip_left" v="73129"/>
    <tag k="tiger:zip_right" v="73129"/>
  </way>
  <way id="28781697" version="12" timestamp="2012-08-14T20:10:58Z" uid="30521" user="dufekin" changeset="12731203">
    <nd ref="316471125"/>
    <nd ref="1866320247"/>
    <nd ref="1866320360"/>
    <nd ref="1866320205"/>
    <nd ref="1866320194"/>
    <nd ref="1866320138"/>
    <nd ref="1866320354"/>
    <nd ref="1866320214"/>
    <nd ref="1866320151"/>
    <nd ref="1866320160"/>
    <nd ref="1866320335"/>
    <nd ref="1861129122"/>
    <nd ref="1861128943"/>
    <nd ref="316471142"/>
    <nd ref="1861129301"/>
    <nd ref="1861128828"/>
    <nd ref="1861129090"/>
    <nd ref="1861129251"/>
    <nd ref="1861128846"/>
    <nd ref="1861129307"/>
    <nd ref="1861128794"/>
    <nd ref="1861129047"/>
    <nd ref="1861129068"/>
    <nd ref="316471227"/>
    <nd ref="1861129184"/>
    <nd ref="1861128932"/>
    <nd ref="1861128975"/>
    <nd ref="1861129186"/>
    <nd ref="1861128947"/>
    <nd ref="1861128959"/>
    <nd ref="1861129257"/>
    <nd ref="1861129370"/>
    <nd ref="1861129230"/>
    <nd ref="1861129426"/>
    <nd ref="1861129334"/>
    <nd ref="316471228"/>
    <nd ref="1861129220"/>
    <nd ref="1861129388"/>
    <nd ref="1861129207"/>
    <nd ref="1861128971"/>
    <nd ref="1861129179"/>
    <nd ref="1456990817"/>
    <tag k="bridge" v="yes"/>
    <tag k="highway" v="secondary"/>
    <tag k="layer" v="1"/>
    <tag k="name" v="South Byers Avenue"/>
    <tag k="oneway" v="yes"/>
    <tag k="tiger:cfcc" v="A41"/>
    <tag k="tiger:county" v="Oklahoma, OK"/>
    <tag k="tiger:name_base" v="Byers"/>
    <tag k="tiger:name_direction_prefix" v="S"/>
    <tag k="tiger:name_type" v="Ave"/>
    <tag k="tiger:name_type_1" v="Ave"/>
    <tag k="tiger:reviewed" v="no"/>
    <tag k="tiger:separated" v="no"/>
    <tag k="tiger:source" v="tiger_import_dch_v0.6_20070829"/>
    <tag k="tiger:tlid" v="100442637:100423507:100433103:100433104:100435783:100436917:100450008:100403370:100403371"/>
    <tag k="tiger:zip_left" v="73129"/>
    <tag k="tiger:zip_right" v="73129"/>
  </way>
  <way id="28781819" version="5" timestamp="2012-05-14T07:43:59Z" uid="336354" user="esaulenka" changeset="11593246"/>
  <way id="28781832" version="7" timestamp="2012-05-14T07:43:55Z" uid="336354" user="esaulenka" changeset="11593246"/>
  <way id="28781833" version="4" timestamp="2012-05-14T07:43:52Z" uid="336354" user="esaulenka" changeset="11593246"/>
  <way id="28781861" version="4" timestamp="2012-05-14T07:43:57Z" uid="336354" user="esaulenka" changeset="11593246"/>
  <way id="28781873" version="9" timestamp="2012-08-21T22:41:35Z" uid="30521" user="dufekin" changeset="12814102">
    <nd ref="1876861521"/>
    <nd ref="1876861641"/>
    <nd ref="316476222"/>
    <nd ref="316475976"/>
    <nd ref="316472870"/>
    <nd ref="316472901"/>
    <tag k="highway" v="secondary"/>
    <tag k="name" v="South Martin Luther King Avenue"/>
    <tag k="oneway" v="yes"/>
    <tag k="tiger:cfcc" v="A41"/>
    <tag k="tiger:county" v="Oklahoma, OK"/>
    <tag k="tiger:name_base" v="Martin Luther King"/>
    <tag k="tiger:name_direction_prefix" v="S"/>
    <tag k="tiger:name_type" v="Ave"/>
    <tag k="tiger:reviewed" v="no"/>
    <tag k="tiger:separated" v="no"/>
    <tag k="tiger:source" v="tiger_import_dch_v0.6_20070829"/>
    <tag k="tiger:tlid" v="100412589:100412594"/>
    <tag k="tiger:zip_left" v="73117"/>
    <tag k="tiger:zip_right" v="73117"/>
  </way>
  <way id="28781873" version="10" timestamp="2012-08-21T23:05:34Z" uid="30521" user="dufekin" changeset="12814102">
    <nd ref="1876861521"/>
    <nd ref="1876861641"/>
    <nd ref="1876908876"/>
    <nd ref="1876908895"/>
    <nd ref="1876908913"/>
    <nd ref="316476222"/>
    <nd ref="316475976"/>
    <nd ref="316472870"/>
    <nd ref="316472901"/>
    <tag k="highway" v="secondary"/>
    <tag k="name" v="South Martin Luther King Avenue"/>
    <tag k="oneway" v="yes"/>
    <tag k="tiger:cfcc" v="A41"/>
    <tag k="tiger:county" v="Oklahoma, OK"/>
    <tag k="tiger:name_base" v="Martin Luther King"/>
    <tag k="tiger:name_direction_prefix" v="S"/>
    <tag k="tiger:name_type" v="Ave"/>
    <tag k="tiger:reviewed" v="no"/>
    <tag k="tiger:separated" v="no"/>
    <tag k="tiger:source" v="tiger_import_dch_v0.6_20070829"/>
    <tag k="tiger:tlid" v="100412589:100412594"/>
    <tag k="tiger:zip_left" v="73117"/>
    <tag k="tiger:zip_right" v="73117"/>
  </way>
  <way id="28781873" version="11" timestamp="2012-08-22T04:04:46Z" uid="30521" user="dufekin" changeset="12815901">
    <nd ref="1876861521"/>
    <nd ref="1876861641"/>
    <nd ref="1876908876"/>
    <nd ref="1876908895"/>
    <nd ref="1876908913"/>
    <nd ref="316476222"/>
    <nd ref="1877113001"/>
    <nd ref="1877113029"/>
    <nd ref="1877113006"/>
    <nd ref="1877113033"/>
    <nd ref="1877113112"/>
    <nd ref="1877112994"/>
    <nd ref="1877112981"/>
    <nd ref="1877113046"/>
    <nd ref="1877113056"/>
    <nd ref="1877112968"/>
    <nd ref="1877113039"/>
    <nd ref="1877112961"/>
    <nd ref="1877113080"/>
    <nd ref="1877113000"/>
    <nd ref="1877113015"/>
    <tag k="highway" v="secondary"/>
    <tag k="name" v="South Martin Luther King Avenue"/>
    <tag k="oneway" v="yes"/>
    <tag k="tiger:cfcc" v="A41"/>
    <tag k="tiger:county" v="Oklahoma, OK"/>
    <tag k="tiger:name_base" v="Martin Luther King"/>
    <tag k="tiger:name_direction_prefix" v="S"/>
    <tag k="tiger:name_type" v="Ave"/>
    <tag k="tiger:reviewed" v="no"/>
    <tag k="tiger:separated" v="no"/>
    <tag k="tiger:source" v="tiger_import_dch_v0.6_20070829"/>
    <tag k="tiger:tlid" v="100412589:100412594"/>
    <tag k="tiger:zip_left" v="73117"/>
    <tag k="tiger:zip_right" v="73117"/>
  </way>
  <way id="28781904" version="5" timestamp="2012-05-14T07:43:55Z" uid="336354" user="esaulenka" changeset="11593246"/>
  <way id="28781905" version="5" timestamp="2012-05-14T07:43:59Z" uid="336354" user="esaulenka" changeset="11593246"/>
  <way id="28781906" version="5" timestamp="2012-05-14T07:43:58Z" uid="336354" user="esaulenka" changeset="11593246"/>
  <way id="28781907" version="4" timestamp="2012-07-20T12:15:44Z" uid="722137" user="OSMF Redaction Account" changeset="12375405">
    <nd ref="316473742"/>
    <nd ref="316473746"/>
    <nd ref="316473749"/>
    <nd ref="316473744"/>
    <nd ref="316473742"/>
    <tag k="addr:city" v="Москва"/>
    <tag k="addr:country" v="RU"/>
    <tag k="building" v="yes"/>
  </way>
  <way id="28781908" version="4" timestamp="2012-05-14T07:43:54Z" uid="336354" user="esaulenka" changeset="11593246"/>
  <way id="28781909" version="5" timestamp="2012-05-14T07:43:54Z" uid="336354" user="esaulenka" changeset="11593246"/>
  <way id="28781910" version="5" timestamp="2012-05-14T07:43:57Z" uid="336354" user="esaulenka" changeset="11593246"/>
  <way id="28781945" version="6" timestamp="2012-07-18T14:53:51Z" uid="722137" user="OSMF Redaction Account" changeset="12285795">
    <nd ref="316474389"/>
    <nd ref="316474390"/>
    <nd ref="316474391"/>
    <nd ref="316474392"/>
    <nd ref="316474389"/>
    <tag k="sport" v="football"/>
  </way>
  <way id="28781962" version="6" timestamp="2012-07-15T23:16:53Z" uid="722137" user="OSMF Redaction Account" changeset="12237483">
    <nd ref="78452147"/>
    <nd ref="82662255"/>
    <nd ref="88983578"/>
    <nd ref="320070948"/>
    <nd ref="88983602"/>
    <nd ref="320071000"/>
    <nd ref="88983579"/>
    <nd ref="89015547"/>
    <nd ref="79467557"/>
    <nd ref="79467558"/>
    <tag k="highway" v="primary"/>
    <tag k="name" v="Alipašina"/>
    <tag k="ref" v="M 18"/>
  </way>
  <way id="28781962" version="7" timestamp="2012-07-17T07:12:53Z" uid="32281" user="vedran" changeset="12259243">
    <nd ref="78452147"/>
    <nd ref="82662255"/>
    <nd ref="88983578"/>
    <nd ref="320070948"/>
    <nd ref="88983602"/>
    <nd ref="320071000"/>
    <nd ref="88983579"/>
    <nd ref="89015547"/>
    <nd ref="79467557"/>
    <nd ref="79467558"/>
    <nd ref="82665577"/>
    <nd ref="254321046"/>
    <nd ref="256906475"/>
    <nd ref="79467561"/>
    <nd ref="1828284595"/>
    <nd ref="1828284523"/>
    <nd ref="79467564"/>
    <nd ref="82655335"/>
    <tag k="highway" v="primary"/>
    <tag k="name" v="Alipašina"/>
    <tag k="ref" v="M 18"/>
  </way>
</osm>
