<?xml version='1.0' encoding='UTF-8'?>
<osm version="0.6" generator="libosmium/2.20.0">
  <way id="29100138" version="4" timestamp="2010-04-03T04:06:23Z" uid="20587" user="balrog-kun" changeset="4309442">
    <nd ref="41641201"/>
    <nd ref="320088601"/>
    <nd ref="41968288"/>
    <tag k="created_by" v="Potlatch 0.10f"/>
    <tag k="highway" v="residential"/>
    <tag k="name" v="East Chilton Drive"/>
    <tag k="tiger:cfcc" v="A41"/>
    <tag k="tiger:county" v="Maricopa, AZ"/>
    <tag k="tiger:name_base" v="Willow"/>
    <tag k="tiger:name_direction_prefix" v="S"/>
    <tag k="tiger:name_type" v="Dr"/>
    <tag k="tiger:reviewed" v="no"/>
    <tag k="tiger:separated" v="no"/>
    <tag k="tiger:source" v="tiger_import_dch_v0.6_20070809"/>
    <tag k="tiger:tlid" v="128239068"/>
    <tag k="tiger:zip_left" v="85283"/>
    <tag k="tiger:zip_right" v="85283"/>
  </way>
  <way id="29100150" version="5" timestamp="2010-02-14T17:11:01Z" uid="74617" user="JohnSmith" changeset="3875836">
    <nd ref="79686532"/>
    <nd ref="559838564"/>
    <nd ref="559838541"/>
    <nd ref="79684092"/>
    <nd ref="559838488"/>
    <nd ref="559838485"/>
    <nd ref="79684094"/>
    <nd ref="79684095"/>
    <nd ref="559838454"/>
    <nd ref="79684096"/>
    <tag k="access" v="private"/>
    <tag k="highway" v="unclassified"/>
    <tag k="maxspeed" v="50"/>
    <tag k="name" v="South East Busway"/>
    <tag k="psv" v="yes"/>
  </way>
  <way id="29100150" version="6" timestamp="2012-01-09T05:04:12Z" uid="103574" user="Here is the repulsant snozzcumber!" changeset="10338885">
    <nd ref="79686532"/>
    <nd ref="559838564"/>
    <nd ref="559838541"/>
    <nd ref="79684092"/>
    <nd ref="1583472742"/>
    <nd ref="559838485"/>
    <nd ref="79684094"/>
    <nd ref="79684095"/>
    <nd ref="559838454"/>
    <nd ref="79684096"/>
    <tag k="access" v="private"/>
    <tag k="highway" v="unclassified"/>
    <tag k="maxspeed" v="50"/>
    <tag k="name" v="South East Busway"/>
    <tag k="psv" v="yes"/>
  </way>
  <way id="29100150" version="7" timestamp="2012-01-09T05:04:33Z" uid="103574" user="Here is the repulsant snozzcumber!" changeset="10338885">
    <nd ref="79686532"/>
    <nd ref="559838564"/>
    <nd ref="559838541"/>
    <nd ref="79684092"/>
    <nd ref="1583472742"/>
    <nd ref="79684094"/>
    <nd ref="79684095"/>
    <nd ref="559838454"/>
    <nd ref="79684096"/>
    <tag k="access" v="private"/>
    <tag k="highway" v="unclassified"/>
    <tag k="maxspeed" v="50"/>
    <tag k="name" v="South East Busway"/>
    <tag k="psv" v="yes"/>
  </way>
  <way id="29100150" version="8" timestamp="2012-01-11T04:11:09Z" uid="103574" user="Here is the repulsant snozzcumber!" changeset="10357385">
    <nd ref="79686532"/>
    <nd ref="559838564"/>
    <nd ref="559838541"/>
    <nd ref="1585303950"/>
    <nd ref="1583472742"/>
    <nd ref="79684094"/>
    <nd ref="79684095"/>
    <nd ref="559838454"/>
    <nd ref="79684096"/>
    <tag k="access" v="private"/>
    <tag k="highway" v="unclassified"/>
    <tag k="maxspeed" v="50"/>
    <tag k="name" v="South East Busway"/>
    <tag k="oneway" v="yes"/>
    <tag k="psv" v="yes"/>
  </way>
  <way id="29100150" version="9" timestamp="2012-01-13T03:06:12Z" uid="103574" user="Here is the repulsant snozzcumber!" changeset="10375335">
    <nd ref="79686532"/>
    <nd ref="559838564"/>
    <nd ref="559838541"/>
    <nd ref="1585303950"/>
    <nd ref="1583472742"/>
    <nd ref="79684094"/>
    <nd ref="79684095"/>
    <nd ref="559838454"/>
    <nd ref="1587952089"/>
    <tag k="access" v="private"/>
    <tag k="highway" v="unclassified"/>
    <tag k="maxspeed" v="50"/>
    <tag k="name" v="South East Busway"/>
    <tag k="oneway" v="yes"/>
    <tag k="psv" v="yes"/>
  </way>
  <way id="29100150" version="10" timestamp="2012-01-13T03:15:03Z" uid="103574" user="Here is the repulsant snozzcumber!" changeset="10375335">
    <nd ref="79686532"/>
    <nd ref="559838564"/>
    <nd ref="559838541"/>
    <nd ref="1585303950"/>
    <nd ref="1583472742"/>
    <nd ref="1587960495"/>
    <tag k="access" v="private"/>
    <tag k="highway" v="unclassified"/>
    <tag k="maxspeed" v="50"/>
    <tag k="name" v="South East Busway"/>
    <tag k="oneway" v="yes"/>
    <tag k="psv" v="yes"/>
  </way>
  <way id="29100150" version="11" timestamp="2012-01-13T03:18:51Z" uid="103574" user="Here is the repulsant snozzcumber!" changeset="10375335">
    <nd ref="79686532"/>
    <nd ref="559838564"/>
    <nd ref="559838541"/>
    <nd ref="1585303950"/>
    <nd ref="1587963144"/>
    <nd ref="1583472742"/>
    <nd ref="1587960495"/>
    <tag k="access" v="private"/>
    <tag k="highway" v="unclassified"/>
    <tag k="maxspeed" v="50"/>
    <tag k="name" v="South East Busway"/>
    <tag k="oneway" v="yes"/>
    <tag k="psv" v="yes"/>
  </way>
  <way id="29100150" version="12" timestamp="2012-01-16T04:03:45Z" uid="103574" user="Here is the repulsant snozzcumber!" changeset="10405289">
    <nd ref="79686532"/>
    <nd ref="1592090003"/>
    <nd ref="1585303950"/>
    <nd ref="1587963144"/>
    <nd ref="1583472742"/>
    <nd ref="1587960495"/>
    <tag k="access" v="private"/>
    <tag k="highway" v="unclassified"/>
    <tag k="maxspeed" v="50"/>
    <tag k="name" v="South East Busway"/>
    <tag k="oneway" v="yes"/>
    <tag k="psv" v="yes"/>
  </way>
  <way id="29100150" version="13" timestamp="2012-01-16T04:04:19Z" uid="103574" user="Here is the repulsant snozzcumber!" changeset="10405289">
    <nd ref="79681370"/>
    <nd ref="1592090635"/>
    <nd ref="1592090634"/>
    <nd ref="1592090625"/>
    <nd ref="1592090003"/>
    <nd ref="1585303950"/>
    <nd ref="1587963144"/>
    <nd ref="1583472742"/>
    <nd ref="1587960495"/>
    <tag k="access" v="private"/>
    <tag k="highway" v="unclassified"/>
    <tag k="maxspeed" v="50"/>
    <tag k="name" v="South East Busway"/>
    <tag k="oneway" v="yes"/>
    <tag k="psv" v="yes"/>
  </way>
  <way id="29100150" version="14" timestamp="2012-01-16T04:06:27Z" uid="103574" user="Here is the repulsant snozzcumber!" changeset="10405289">
    <nd ref="1592092505"/>
    <nd ref="1592090635"/>
    <nd ref="1592090634"/>
    <nd ref="1592090625"/>
    <nd ref="1592090003"/>
    <nd ref="1585303950"/>
    <nd ref="1587963144"/>
    <nd ref="1583472742"/>
    <nd ref="1587960495"/>
    <tag k="access" v="private"/>
    <tag k="highway" v="unclassified"/>
    <tag k="maxspeed" v="50"/>
    <tag k="name" v="South East Busway"/>
    <tag k="oneway" v="yes"/>
    <tag k="psv" v="yes"/>
  </way>
  <way id="29100150" version="15" timestamp="2012-01-18T00:34:49Z" uid="147510" user="woodpeck_fixbot" changeset="10423581">
    <nd ref="1592092505"/>
    <nd ref="1592090635"/>
    <nd ref="1592090634"/>
    <nd ref="1592090625"/>
    <nd ref="1592090003"/>
    <nd ref="1585303950"/>
    <nd ref="1587963144"/>
    <nd ref="1583472742"/>
    <nd ref="1587960495"/>
    <tag k="access" v="private"/>
    <tag k="highway" v="unclassified"/>
    <tag k="name" v="South East Busway"/>
    <tag k="oneway" v="yes"/>
    <tag k="psv" v="yes"/>
  </way>
  <way id="29100314" version="2" timestamp="2008-12-20T03:10:36Z" uid="6975" user="ulfl" changeset="489842">
    <nd ref="49507294"/>
    <nd ref="246569030"/>
    <tag k="highway" v="track"/>
    <tag k="surface" v="paved"/>
    <tag k="tracktype" v="grade1"/>
  </way>
  <way id="29100384" version="2" timestamp="2010-07-07T09:48:16Z" uid="74617" user="JohnSmith" changeset="5156250">
    <nd ref="222732284"/>
    <nd ref="320090415"/>
    <tag k="highway" v="residential"/>
    <tag k="maxspeed" v="50"/>
    <tag k="maxspeed:source" v="default residential speed limit in Australia"/>
    <tag k="name" v="Middleton Lane"/>
  </way>
  <way id="29100384" version="3" timestamp="2012-01-18T00:34:52Z" uid="147510" user="woodpeck_fixbot" changeset="10423581">
    <nd ref="222732284"/>
    <nd ref="320090415"/>
    <tag k="highway" v="residential"/>
    <tag k="name" v="Middleton Lane"/>
  </way>
  <way id="29100422" version="2" timestamp="2008-12-20T02:24:07Z" uid="6975" user="ulfl" changeset="489842">
    <nd ref="320091347"/>
    <nd ref="320091348"/>
    <nd ref="320091349"/>
    <nd ref="320091350"/>
    <nd ref="320091347"/>
    <tag k="addr:housenumber" v="1600"/>
    <tag k="addr:street" v="Powell Street"/>
    <tag k="amenity" v="restaurant"/>
    <tag k="building" v="yes"/>
    <tag k="name" v="Capp&apos;s Corner Ristorante Famiglia"/>
  </way>
  <way id="29100422" version="3" timestamp="2009-03-28T23:00:17Z" uid="81497" user="RaffyO" changeset="867225">
    <nd ref="320091347"/>
    <nd ref="320091348"/>
    <nd ref="320091349"/>
    <nd ref="320091350"/>
    <nd ref="320091347"/>
    <tag k="addr:housenumber" v="1600"/>
    <tag k="addr:street" v="Powell Street"/>
    <tag k="amenity" v="restaurant"/>
    <tag k="building" v="yes"/>
    <tag k="created_by" v="Potlatch 0.10f"/>
    <tag k="name" v="Capp&apos;s Corner Ristorante Famiglia"/>
  </way>
  <way id="29100422" version="4" timestamp="2009-04-09T06:00:32Z" uid="81497" user="RaffyO" changeset="347915">
    <nd ref="320091347"/>
    <nd ref="320091348"/>
    <nd ref="320091349"/>
    <nd ref="320091350"/>
    <nd ref="320091347"/>
    <tag k="addr:housenumber" v="1600"/>
    <tag k="addr:street" v="Powell Street"/>
    <tag k="amenity" v="restaurant"/>
    <tag k="building" v="yes"/>
    <tag k="created_by" v="Potlatch 0.10f"/>
  </way>
  <way id="29100442" version="2" timestamp="2009-01-01T12:24:00Z" uid="6975" user="ulfl" changeset="699648">
    <nd ref="320091411"/>
    <nd ref="320091412"/>
    <nd ref="320091413"/>
    <nd ref="320091414"/>
    <nd ref="320091411"/>
    <tag k="addr:housenumbr" v="1600"/>
    <tag k="addr:street" v="Stockton Street"/>
    <tag k="amenity" v="restaurant"/>
    <tag k="name" v="Cafe Devine"/>
  </way>
  <way id="29100442" version="3" timestamp="2009-02-21T02:54:22Z" uid="1034" user="crschmidt" changeset="593847">
    <nd ref="320091411"/>
    <nd ref="320091412"/>
    <nd ref="320091413"/>
    <nd ref="320091414"/>
    <nd ref="320091411"/>
    <tag k="addr:housenumber" v="1600"/>
    <tag k="addr:street" v="Stockton Street"/>
    <tag k="amenity" v="restaurant"/>
    <tag k="name" v="Cafe Devine"/>
  </way>
  <way id="29100442" version="4" timestamp="2009-03-28T21:52:22Z" uid="81497" user="RaffyO" changeset="867225">
    <nd ref="320091411"/>
    <nd ref="320091412"/>
    <nd ref="320091413"/>
    <nd ref="320091414"/>
    <nd ref="320091411"/>
    <tag k="addr:housenumber" v="1600"/>
    <tag k="addr:street" v="Stockton Street"/>
    <tag k="amenity" v="restaurant"/>
    <tag k="created_by" v="Potlatch 0.10f"/>
    <tag k="name" v="Cafe Devine"/>
  </way>
  <way id="29100442" version="5" timestamp="2009-03-29T00:21:31Z" uid="81497" user="RaffyO" changeset="867225">
    <nd ref="320091411"/>
    <nd ref="320091412"/>
    <nd ref="320091413"/>
    <nd ref="320091414"/>
    <nd ref="320091411"/>
    <tag k="addr:housenumber" v="1600"/>
    <tag k="addr:street" v="Stockton Street"/>
    <tag k="amenity" v="restaurant"/>
    <tag k="created_by" v="Potlatch 0.10f"/>
    <tag k="name" v="Cafe Divine"/>
  </way>
  <way id="29100442" version="6" timestamp="2009-04-09T05:55:53Z" uid="81497" user="RaffyO" changeset="347915">
    <nd ref="320091411"/>
    <nd ref="320091412"/>
    <nd ref="320091413"/>
    <nd ref="320091414"/>
    <nd ref="320091411"/>
    <tag k="building" v="yes"/>
    <tag k="created_by" v="Potlatch 0.10f"/>
  </way>
  <way id="29100445" version="2" timestamp="2010-02-14T17:17:20Z" uid="74617" user="JohnSmith" changeset="3875836">
    <nd ref="201163450"/>
    <nd ref="201163452"/>
    <nd ref="201137631"/>
    <nd ref="201155536"/>
    <nd ref="201155537"/>
    <nd ref="72560723"/>
    <tag k="highway" v="primary"/>
    <tag k="name" v="Montpelier Road"/>
    <tag k="oneway" v="yes"/>
    <tag k="ref" v="S10"/>
  </way>
  <way id="29100445" version="3" timestamp="2010-03-20T16:50:13Z" uid="74617" user="JohnSmith" changeset="4181928">
    <nd ref="201163450"/>
    <nd ref="201163452"/>
    <nd ref="201137631"/>
    <nd ref="201155536"/>
    <nd ref="201155537"/>
    <nd ref="72560723"/>
    <tag k="highway" v="primary"/>
    <tag k="name" v="Montpelier Road"/>
    <tag k="oneway" v="yes"/>
  </way>
  <way id="29100445" version="4" timestamp="2010-04-22T00:48:47Z" uid="16385" user="morb_au" changeset="4491961">
    <nd ref="201163450"/>
    <nd ref="201163452"/>
    <nd ref="703531133"/>
    <nd ref="201137631"/>
    <nd ref="201155536"/>
    <nd ref="201155537"/>
    <nd ref="72560723"/>
    <tag k="highway" v="primary"/>
    <tag k="name" v="Montpelier Road"/>
    <tag k="oneway" v="yes"/>
  </way>
  <way id="29100445" version="5" timestamp="2010-05-09T11:01:50Z" uid="84644" user="Ash Kyd" changeset="4647132">
    <nd ref="201163450"/>
    <nd ref="201163452"/>
    <tag k="highway" v="primary"/>
    <tag k="name" v="Montpelier Road"/>
    <tag k="oneway" v="yes"/>
  </way>
  <way id="29100446" version="2" timestamp="2010-02-14T17:17:20Z" uid="74617" user="JohnSmith" changeset="3875836">
    <nd ref="320091438"/>
    <nd ref="200846699"/>
    <nd ref="200844563"/>
    <tag k="highway" v="primary"/>
    <tag k="name" v="Montpelier Road"/>
    <tag k="ref" v="S10"/>
  </way>
  <way id="29100446" version="3" timestamp="2010-03-20T16:34:25Z" uid="74617" user="JohnSmith" changeset="4181716"/>
  <way id="29100447" version="3" timestamp="2010-02-14T17:13:43Z" uid="74617" user="JohnSmith" changeset="3875836">
    <nd ref="201163450"/>
    <nd ref="200806718"/>
    <nd ref="26336577"/>
    <nd ref="200803056"/>
    <nd ref="26336576"/>
    <nd ref="26336575"/>
    <nd ref="200684192"/>
    <nd ref="200684194"/>
    <nd ref="200684195"/>
    <nd ref="26336286"/>
    <nd ref="152502065"/>
    <nd ref="152502067"/>
    <nd ref="26336285"/>
    <nd ref="26336284"/>
    <nd ref="26336283"/>
    <nd ref="318844134"/>
    <nd ref="152503148"/>
    <nd ref="26336350"/>
    <nd ref="255790509"/>
    <nd ref="255790510"/>
    <nd ref="26336281"/>
    <nd ref="100950109"/>
    <nd ref="26336280"/>
    <nd ref="100950114"/>
    <nd ref="77686782"/>
    <nd ref="21478939"/>
    <nd ref="74039768"/>
    <nd ref="246658338"/>
    <nd ref="74039889"/>
    <tag k="highway" v="primary"/>
    <tag k="name" v="Ann Street"/>
    <tag k="oneway" v="yes"/>
    <tag k="ref" v="S25"/>
  </way>
  <way id="29100447" version="4" timestamp="2010-03-20T16:34:21Z" uid="74617" user="JohnSmith" changeset="4181716">
    <nd ref="201163450"/>
    <nd ref="200806718"/>
    <nd ref="26336577"/>
    <nd ref="200803056"/>
    <nd ref="26336576"/>
    <nd ref="26336575"/>
    <nd ref="200684192"/>
    <nd ref="200684194"/>
    <nd ref="200684195"/>
    <nd ref="26336286"/>
    <nd ref="152502065"/>
    <nd ref="152502067"/>
    <nd ref="26336285"/>
    <nd ref="26336284"/>
    <nd ref="26336283"/>
    <nd ref="318844134"/>
    <nd ref="152503148"/>
    <nd ref="26336350"/>
    <nd ref="255790509"/>
    <nd ref="255790510"/>
    <nd ref="26336281"/>
    <nd ref="100950109"/>
    <nd ref="26336280"/>
    <nd ref="100950114"/>
    <nd ref="77686782"/>
    <nd ref="21478939"/>
    <nd ref="74039768"/>
    <nd ref="246658338"/>
    <nd ref="74039889"/>
    <tag k="highway" v="primary"/>
    <tag k="name" v="Ann Street"/>
    <tag k="oneway" v="yes"/>
  </way>
  <way id="29100447" version="5" timestamp="2010-04-22T00:52:51Z" uid="16385" user="morb_au" changeset="4491961">
    <nd ref="201163450"/>
    <nd ref="703531724"/>
    <nd ref="200806718"/>
    <nd ref="26336577"/>
    <nd ref="200803056"/>
    <nd ref="26336576"/>
    <nd ref="26336575"/>
    <nd ref="200684192"/>
    <nd ref="200684194"/>
    <nd ref="200684195"/>
    <nd ref="26336286"/>
    <nd ref="152502065"/>
    <nd ref="152502067"/>
    <nd ref="26336285"/>
    <nd ref="26336284"/>
    <nd ref="26336283"/>
    <nd ref="318844134"/>
    <nd ref="152503148"/>
    <nd ref="26336350"/>
    <nd ref="255790509"/>
    <nd ref="255790510"/>
    <nd ref="26336281"/>
    <nd ref="100950109"/>
    <nd ref="26336280"/>
    <nd ref="100950114"/>
    <nd ref="77686782"/>
    <nd ref="21478939"/>
    <nd ref="74039768"/>
    <nd ref="246658338"/>
    <nd ref="74039889"/>
    <tag k="highway" v="primary"/>
    <tag k="name" v="Ann Street"/>
    <tag k="oneway" v="yes"/>
  </way>
  <way id="29100447" version="6" timestamp="2010-04-22T00:54:08Z" uid="16385" user="morb_au" changeset="4491961">
    <nd ref="201163450"/>
    <nd ref="703531724"/>
    <nd ref="200806718"/>
    <nd ref="26336577"/>
    <nd ref="703531769"/>
    <nd ref="200803056"/>
    <nd ref="26336576"/>
    <nd ref="26336575"/>
    <nd ref="200684192"/>
    <nd ref="200684194"/>
    <nd ref="200684195"/>
    <nd ref="26336286"/>
    <nd ref="152502065"/>
    <nd ref="152502067"/>
    <nd ref="26336285"/>
    <nd ref="26336284"/>
    <nd ref="26336283"/>
    <nd ref="318844134"/>
    <nd ref="152503148"/>
    <nd ref="26336350"/>
    <nd ref="255790509"/>
    <nd ref="255790510"/>
    <nd ref="26336281"/>
    <nd ref="100950109"/>
    <nd ref="26336280"/>
    <nd ref="100950114"/>
    <nd ref="77686782"/>
    <nd ref="21478939"/>
    <nd ref="74039768"/>
    <nd ref="246658338"/>
    <nd ref="74039889"/>
    <tag k="highway" v="primary"/>
    <tag k="name" v="Ann Street"/>
    <tag k="oneway" v="yes"/>
  </way>
  <way id="29100447" version="7" timestamp="2010-05-09T10:51:50Z" uid="84644" user="Ash Kyd" changeset="4647024">
    <nd ref="201163450"/>
    <nd ref="703531724"/>
    <nd ref="200806718"/>
    <nd ref="26336577"/>
    <nd ref="703531769"/>
    <nd ref="200803056"/>
    <nd ref="26336576"/>
    <nd ref="26336575"/>
    <nd ref="200684192"/>
    <nd ref="200684194"/>
    <nd ref="200684195"/>
    <nd ref="26336286"/>
    <nd ref="152502065"/>
    <nd ref="152502067"/>
    <nd ref="727312811"/>
    <nd ref="26336285"/>
    <nd ref="26336284"/>
    <nd ref="26336283"/>
    <nd ref="318844134"/>
    <nd ref="152503148"/>
    <nd ref="26336350"/>
    <nd ref="255790509"/>
    <nd ref="255790510"/>
    <nd ref="26336281"/>
    <nd ref="100950109"/>
    <nd ref="26336280"/>
    <nd ref="100950114"/>
    <nd ref="77686782"/>
    <nd ref="21478939"/>
    <nd ref="74039768"/>
    <nd ref="246658338"/>
    <nd ref="74039889"/>
    <tag k="highway" v="primary"/>
    <tag k="name" v="Ann Street"/>
    <tag k="oneway" v="yes"/>
  </way>
  <way id="29100447" version="8" timestamp="2011-04-02T06:56:12Z" uid="16385" user="morb_au" changeset="7741308">
    <nd ref="201163450"/>
    <nd ref="703531724"/>
    <nd ref="200806718"/>
    <nd ref="26336577"/>
    <nd ref="703531769"/>
    <nd ref="200803056"/>
    <nd ref="26336576"/>
    <nd ref="26336575"/>
    <nd ref="200684192"/>
    <nd ref="200684194"/>
    <nd ref="200684195"/>
    <nd ref="26336286"/>
    <nd ref="152502065"/>
    <nd ref="152502067"/>
    <nd ref="727312811"/>
    <nd ref="26336285"/>
    <nd ref="26336284"/>
    <nd ref="26336283"/>
    <nd ref="318844134"/>
    <nd ref="152503148"/>
    <nd ref="26336350"/>
    <nd ref="255790509"/>
    <nd ref="255790510"/>
    <nd ref="26336281"/>
    <nd ref="100950109"/>
    <nd ref="26336280"/>
    <nd ref="100950114"/>
    <nd ref="77686782"/>
    <tag k="highway" v="primary"/>
    <tag k="name" v="Ann Street"/>
    <tag k="oneway" v="yes"/>
  </way>
  <way id="29100447" version="9" timestamp="2011-09-25T14:10:58Z" uid="313448" user="ConsEbt" changeset="9392852">
    <nd ref="201163450"/>
    <nd ref="703531724"/>
    <nd ref="200806718"/>
    <nd ref="26336577"/>
    <nd ref="703531769"/>
    <nd ref="200803056"/>
    <nd ref="26336576"/>
    <nd ref="26336575"/>
    <nd ref="200684192"/>
    <nd ref="200684194"/>
    <nd ref="200684195"/>
    <nd ref="26336286"/>
    <nd ref="152502065"/>
    <nd ref="152502067"/>
    <nd ref="727312811"/>
    <nd ref="26336285"/>
    <nd ref="26336284"/>
    <nd ref="26336283"/>
    <nd ref="318844134"/>
    <nd ref="152503148"/>
    <nd ref="26336350"/>
    <tag k="highway" v="primary"/>
    <tag k="name" v="Ann Street"/>
    <tag k="oneway" v="yes"/>
  </way>
  <way id="29100463" version="2" timestamp="2010-02-14T17:17:21Z" uid="74617" user="JohnSmith" changeset="3875836">
    <nd ref="201137628"/>
    <nd ref="201137629"/>
    <nd ref="201137630"/>
    <nd ref="201137631"/>
    <tag k="highway" v="primary"/>
    <tag k="name" v="Montpelier Road"/>
    <tag k="oneway" v="yes"/>
    <tag k="ref" v="S10"/>
  </way>
  <way id="29100463" version="3" timestamp="2010-03-20T16:34:22Z" uid="74617" user="JohnSmith" changeset="4181716">
    <nd ref="201137628"/>
    <nd ref="201137629"/>
    <nd ref="670601286"/>
    <nd ref="201137630"/>
    <nd ref="670601301"/>
    <nd ref="201137631"/>
    <tag k="highway" v="primary"/>
    <tag k="name" v="Montpelier Road"/>
    <tag k="oneway" v="yes"/>
    <tag k="ref" v="S10"/>
  </way>
  <way id="29100463" version="4" timestamp="2010-03-20T16:50:13Z" uid="74617" user="JohnSmith" changeset="4181928">
    <nd ref="201137628"/>
    <nd ref="201137629"/>
    <nd ref="670601286"/>
    <nd ref="201137630"/>
    <nd ref="670601301"/>
    <nd ref="201137631"/>
    <tag k="highway" v="primary"/>
    <tag k="name" v="Montpelier Road"/>
    <tag k="oneway" v="yes"/>
  </way>
  <way id="29100463" version="5" timestamp="2010-04-22T00:47:39Z" uid="16385" user="morb_au" changeset="4491961">
    <nd ref="491065306"/>
    <nd ref="703531063"/>
    <nd ref="703531064"/>
    <nd ref="703531065"/>
    <nd ref="703531067"/>
    <nd ref="703531068"/>
    <nd ref="703531069"/>
    <nd ref="201137629"/>
    <nd ref="670601286"/>
    <nd ref="201137630"/>
    <nd ref="670601301"/>
    <nd ref="201137631"/>
    <tag k="highway" v="primary"/>
    <tag k="name" v="Montpelier Road"/>
    <tag k="oneway" v="yes"/>
  </way>
  <way id="29100463" version="6" timestamp="2010-05-09T11:01:51Z" uid="84644" user="Ash Kyd" changeset="4647132"/>
  <way id="29100536" version="4" timestamp="2011-01-02T05:07:07Z" uid="18775" user="drlizau" changeset="6835127">
    <nd ref="320091967"/>
    <nd ref="320091968"/>
    <nd ref="320091969"/>
    <nd ref="320091970"/>
    <nd ref="320091971"/>
    <nd ref="320091973"/>
    <tag k="highway" v="tertiary"/>
    <tag k="maxspeed" v="100"/>
    <tag k="name" v="Tripcony Road"/>
    <tag k="surface" v="unpaved"/>
  </way>
  <way id="29100536" version="5" timestamp="2011-10-12T11:53:45Z" uid="11111" user="melb_guy" changeset="9538143">
    <nd ref="320091967"/>
    <nd ref="320091968"/>
    <nd ref="320091969"/>
    <nd ref="320091970"/>
    <nd ref="320091971"/>
    <nd ref="320091973"/>
    <tag k="highway" v="unclassified"/>
    <tag k="maxspeed" v="100"/>
    <tag k="name" v="Tripcony Road"/>
    <tag k="surface" v="dirt"/>
  </way>
  <way id="29100538" version="5" timestamp="2011-01-02T04:39:51Z" uid="18775" user="drlizau" changeset="6835083">
    <nd ref="320091975"/>
    <nd ref="1078109735"/>
    <nd ref="320091976"/>
    <nd ref="370710567"/>
    <nd ref="370710568"/>
    <nd ref="370710569"/>
    <nd ref="370710570"/>
    <tag k="highway" v="tertiary"/>
    <tag k="maxspeed" v="100"/>
    <tag k="name" v="Vains Road"/>
    <tag k="surface" v="unpaved"/>
  </way>
  <way id="29100538" version="6" timestamp="2011-01-02T05:06:34Z" uid="18775" user="drlizau" changeset="6835127">
    <nd ref="320091975"/>
    <nd ref="1078109735"/>
    <nd ref="320091967"/>
    <nd ref="320091976"/>
    <nd ref="370710567"/>
    <nd ref="370710568"/>
    <nd ref="370710569"/>
    <nd ref="370710570"/>
    <tag k="highway" v="tertiary"/>
    <tag k="maxspeed" v="100"/>
    <tag k="name" v="Vains Road"/>
    <tag k="surface" v="unpaved"/>
  </way>
  <way id="29100538" version="7" timestamp="2011-10-12T09:29:07Z" uid="11111" user="melb_guy" changeset="9537145">
    <nd ref="320091975"/>
    <nd ref="1078109735"/>
    <nd ref="320091967"/>
    <nd ref="320091976"/>
    <nd ref="370710567"/>
    <nd ref="370710568"/>
    <nd ref="370710569"/>
    <nd ref="1463789339"/>
    <tag k="highway" v="unclassified"/>
    <tag k="maxspeed" v="100"/>
    <tag k="name" v="McCabe Road"/>
    <tag k="surface" v="dirt"/>
  </way>
  <way id="29100538" version="8" timestamp="2011-10-12T09:55:17Z" uid="11111" user="melb_guy" changeset="9537145">
    <nd ref="320091975"/>
    <nd ref="1078109735"/>
    <tag k="highway" v="unclassified"/>
    <tag k="maxspeed" v="100"/>
    <tag k="name" v="Vains Road"/>
    <tag k="surface" v="dirt"/>
  </way>
  <way id="29100539" version="5" timestamp="2011-01-02T05:06:08Z" uid="18775" user="drlizau" changeset="6835127">
    <nd ref="370710578"/>
    <nd ref="370710577"/>
    <nd ref="320091977"/>
    <nd ref="320091973"/>
    <nd ref="320091978"/>
    <nd ref="320091979"/>
    <nd ref="320091980"/>
    <nd ref="320091981"/>
    <nd ref="320091982"/>
    <nd ref="320091984"/>
    <nd ref="370710595"/>
    <nd ref="320091983"/>
    <nd ref="320091986"/>
    <nd ref="320091985"/>
    <nd ref="320091988"/>
    <nd ref="320091987"/>
    <nd ref="320091990"/>
    <nd ref="320091989"/>
    <nd ref="320091992"/>
    <nd ref="320091991"/>
    <nd ref="320091994"/>
    <nd ref="320091993"/>
    <nd ref="320091996"/>
    <nd ref="370710574"/>
    <nd ref="320091995"/>
    <nd ref="320091998"/>
    <nd ref="320091997"/>
    <nd ref="320092001"/>
    <nd ref="320092002"/>
    <nd ref="320091999"/>
    <tag k="highway" v="secondary"/>
    <tag k="maxspeed" v="100"/>
    <tag k="name" v="Fish Point Road"/>
    <tag k="surface" v="paved"/>
  </way>
  <way id="29100539" version="6" timestamp="2011-10-12T09:55:17Z" uid="11111" user="melb_guy" changeset="9537145">
    <nd ref="1463801243"/>
    <nd ref="1463801315"/>
    <tag k="bridge" v="yes"/>
    <tag k="highway" v="tertiary"/>
    <tag k="layer" v="1"/>
    <tag k="maxspeed" v="100"/>
    <tag k="name" v="Fish Point Road"/>
    <tag k="surface" v="asphalt"/>
  </way>
  <way id="29100541" version="2" timestamp="2011-02-19T14:36:32Z" uid="4467" user="Rosscoe" changeset="7332479"/>
  <way id="29100542" version="2" timestamp="2011-01-02T05:07:10Z" uid="18775" user="drlizau" changeset="6835127"/>
  <way id="29100544" version="6" timestamp="2010-04-27T01:47:21Z" uid="74617" user="JohnSmith" changeset="4537635">
    <nd ref="685169823"/>
    <nd ref="320092263"/>
    <nd ref="708299175"/>
    <nd ref="708299081"/>
    <nd ref="685169706"/>
    <nd ref="541307574"/>
    <nd ref="708299073"/>
    <nd ref="320092265"/>
    <nd ref="320092266"/>
    <nd ref="708299162"/>
    <tag k="highway" v="residential"/>
    <tag k="maxspeed" v="50"/>
    <tag k="name" v="Water Street"/>
  </way>
  <way id="29100544" version="7" timestamp="2010-04-27T01:57:18Z" uid="74617" user="JohnSmith" changeset="4537635">
    <nd ref="685169823"/>
    <nd ref="320092263"/>
    <nd ref="708299175"/>
    <nd ref="708299081"/>
    <nd ref="685169706"/>
    <nd ref="541307574"/>
    <nd ref="708299073"/>
    <nd ref="320092265"/>
    <nd ref="320092266"/>
    <nd ref="708299162"/>
    <tag k="highway" v="residential"/>
    <tag k="maxspeed" v="50"/>
    <tag k="name" v="Water Street"/>
    <tag k="source" v="nearmap"/>
  </way>
  <way id="29100544" version="8" timestamp="2010-07-01T00:10:20Z" uid="9261" user="Craig Feuerherdt" changeset="5117554">
    <nd ref="685169823"/>
    <nd ref="320092263"/>
    <nd ref="708299175"/>
    <nd ref="708299081"/>
    <nd ref="685169706"/>
    <nd ref="541307574"/>
    <nd ref="708299073"/>
    <nd ref="320092265"/>
    <nd ref="320092266"/>
    <nd ref="708299162"/>
    <tag k="highway" v="residential"/>
    <tag k="maxspeed" v="50"/>
    <tag k="name" v="Water Street"/>
    <tag k="source" v="nearmap"/>
  </way>
  <way id="29100565" version="5" timestamp="2010-07-18T07:08:57Z" uid="4467" user="Rosscoe" changeset="5248368">
    <nd ref="320092374"/>
    <nd ref="320092375"/>
    <nd ref="822490920"/>
    <nd ref="320092376"/>
    <nd ref="320092378"/>
    <nd ref="320092379"/>
    <nd ref="320092380"/>
    <nd ref="320092381"/>
    <nd ref="320092382"/>
    <nd ref="320092374"/>
    <tag k="amenity" v="university"/>
    <tag k="name" v="Victoria University (Footscray Nicholson Campus)"/>
  </way>
  <way id="29100565" version="6" timestamp="2010-07-18T07:17:43Z" uid="4467" user="Rosscoe" changeset="5248427">
    <nd ref="320092374"/>
    <nd ref="320092375"/>
    <nd ref="822490920"/>
    <nd ref="320092376"/>
    <nd ref="320092378"/>
    <nd ref="320092379"/>
    <nd ref="320092380"/>
    <nd ref="320092381"/>
    <nd ref="320092382"/>
    <nd ref="822493109"/>
    <nd ref="320092374"/>
    <tag k="amenity" v="university"/>
    <tag k="name" v="Victoria University (Footscray Nicholson Campus)"/>
  </way>
  <way id="29100590" version="4" timestamp="2010-07-08T17:25:42Z" uid="74617" user="JohnSmith" changeset="5167338">
    <nd ref="320092459"/>
    <nd ref="318039063"/>
    <tag k="bridge" v="yes"/>
    <tag k="highway" v="residential"/>
    <tag k="layer" v="1"/>
    <tag k="maxspeed" v="50"/>
    <tag k="maxspeed:source" v="default residential speed limit in Australia"/>
    <tag k="name" v="Creamery Road"/>
  </way>
  <way id="29100590" version="5" timestamp="2012-01-18T00:34:53Z" uid="147510" user="woodpeck_fixbot" changeset="10423581">
    <nd ref="320092459"/>
    <nd ref="318039063"/>
    <tag k="bridge" v="yes"/>
    <tag k="highway" v="residential"/>
    <tag k="layer" v="1"/>
    <tag k="name" v="Creamery Road"/>
  </way>
  <way id="29100596" version="7" timestamp="2010-04-06T12:48:45Z" uid="74617" user="JohnSmith" changeset="4343676">
    <nd ref="262735556"/>
    <nd ref="622350711"/>
    <nd ref="622350712"/>
    <nd ref="60303995"/>
    <nd ref="264834951"/>
    <nd ref="377764049"/>
    <nd ref="377764094"/>
    <nd ref="377764133"/>
    <nd ref="293567339"/>
    <nd ref="318039761"/>
    <tag k="highway" v="trunk"/>
    <tag k="name" v="Church Street"/>
    <tag k="oneway" v="yes"/>
    <tag k="source" v="survey; survey;Yahoo; survey"/>
  </way>
  <way id="29100596" version="8" timestamp="2010-08-29T07:42:50Z" uid="78837" user="modellerau" changeset="5622646">
    <nd ref="262735556"/>
    <nd ref="622350711"/>
    <nd ref="622350712"/>
    <nd ref="60303995"/>
    <nd ref="264834951"/>
    <nd ref="377764049"/>
    <nd ref="377764094"/>
    <nd ref="377764133"/>
    <nd ref="885840839"/>
    <nd ref="293567339"/>
    <nd ref="318039761"/>
    <tag k="highway" v="trunk"/>
    <tag k="name" v="Church Street"/>
    <tag k="oneway" v="yes"/>
    <tag k="source" v="survey; survey;Yahoo; survey"/>
  </way>
  <way id="29100596" version="9" timestamp="2011-03-23T12:08:00Z" uid="4467" user="Rosscoe" changeset="7645827">
    <nd ref="262735556"/>
    <nd ref="1214743661"/>
    <nd ref="622350711"/>
    <nd ref="1214743535"/>
    <nd ref="622350712"/>
    <nd ref="60303995"/>
    <nd ref="264834951"/>
    <nd ref="377764049"/>
    <nd ref="377764094"/>
    <nd ref="377764133"/>
    <nd ref="885840839"/>
    <nd ref="293567339"/>
    <nd ref="318039761"/>
    <tag k="highway" v="trunk"/>
    <tag k="name" v="Church Street"/>
    <tag k="oneway" v="yes"/>
    <tag k="source" v="survey; survey;Yahoo; survey"/>
  </way>
  <way id="29100596" version="10" timestamp="2011-12-15T16:33:32Z" uid="569841" user="geeoutlier" changeset="10125227">
    <nd ref="262735556"/>
    <nd ref="1214743661"/>
    <nd ref="622350711"/>
    <nd ref="1214743535"/>
    <nd ref="622350712"/>
    <nd ref="60303995"/>
    <nd ref="264834951"/>
    <nd ref="377764049"/>
    <nd ref="377764094"/>
    <nd ref="377764133"/>
    <nd ref="885840839"/>
    <nd ref="293567339"/>
    <nd ref="318039761"/>
    <tag k="highway" v="trunk"/>
    <tag k="name" v="Church Street"/>
    <tag k="oneway" v="yes"/>
    <tag k="ref" v="A300"/>
    <tag k="source" v="survey; survey;Yahoo; survey"/>
  </way>
  <way id="29100596" version="11" timestamp="2011-12-22T04:23:27Z" uid="569841" user="geeoutlier" changeset="10176870">
    <nd ref="264834951"/>
    <nd ref="377764049"/>
    <nd ref="377764094"/>
    <nd ref="377764133"/>
    <nd ref="885840839"/>
    <nd ref="293567339"/>
    <nd ref="318039761"/>
    <tag k="highway" v="trunk"/>
    <tag k="name" v="Church Street"/>
    <tag k="oneway" v="yes"/>
    <tag k="ref" v="A300"/>
    <tag k="source" v="survey; survey;Yahoo; survey"/>
  </way>
  <way id="29100620" version="5" timestamp="2011-01-02T04:39:28Z" uid="18775" user="drlizau" changeset="6835083">
    <nd ref="370710588"/>
    <nd ref="370710587"/>
    <nd ref="370710586"/>
    <nd ref="370710585"/>
    <nd ref="370710584"/>
    <nd ref="370710583"/>
    <nd ref="370710582"/>
    <nd ref="370710581"/>
    <nd ref="320092594"/>
    <nd ref="1078109735"/>
    <nd ref="370710578"/>
    <nd ref="320092595"/>
    <nd ref="320092596"/>
    <tag k="highway" v="tertiary"/>
    <tag k="maxspeed" v="100"/>
    <tag k="name" v="Winlaton Road"/>
    <tag k="surface" v="unpaved"/>
  </way>
  <way id="29100620" version="6" timestamp="2011-10-12T09:29:03Z" uid="11111" user="melb_guy" changeset="9537145">
    <nd ref="1463789777"/>
    <nd ref="370710587"/>
    <nd ref="370710586"/>
    <nd ref="370710585"/>
    <nd ref="370710584"/>
    <nd ref="370710583"/>
    <nd ref="370710582"/>
    <nd ref="370710581"/>
    <nd ref="320092594"/>
    <nd ref="1078109735"/>
    <nd ref="370710578"/>
    <nd ref="320092595"/>
    <nd ref="320092596"/>
    <tag k="highway" v="unclassified"/>
    <tag k="maxspeed" v="100"/>
    <tag k="name" v="Winlaton Road"/>
    <tag k="surface" v="dirt"/>
  </way>
  <way id="29100620" version="7" timestamp="2011-10-12T10:15:49Z" uid="11111" user="melb_guy" changeset="9537145">
    <nd ref="1463789777"/>
    <nd ref="1463813162"/>
    <nd ref="1463813164"/>
    <nd ref="1463813174"/>
    <nd ref="1463813170"/>
    <nd ref="1463813133"/>
    <nd ref="1463813159"/>
    <nd ref="370710587"/>
    <nd ref="1463813143"/>
    <nd ref="370710586"/>
    <nd ref="370710585"/>
    <nd ref="370710584"/>
    <nd ref="370710583"/>
    <nd ref="370710582"/>
    <nd ref="370710581"/>
    <tag k="highway" v="unclassified"/>
    <tag k="maxspeed" v="100"/>
    <tag k="name" v="Winlaton Road"/>
    <tag k="surface" v="dirt"/>
  </way>
  <way id="29100628" version="1" timestamp="2008-12-20T01:47:56Z" uid="7617" user="Franc" changeset="490854">
    <nd ref="320092838"/>
    <nd ref="320092840"/>
    <nd ref="320092842"/>
    <nd ref="320092843"/>
    <nd ref="320092845"/>
    <nd ref="320092847"/>
    <nd ref="320092838"/>
    <tag k="leisure" v="park"/>
    <tag k="source" v="yahoo"/>
  </way>
  <way id="29100629" version="1" timestamp="2008-12-20T01:47:57Z" uid="7617" user="Franc" changeset="490854">
    <nd ref="320092849"/>
    <nd ref="320092886"/>
    <nd ref="320092868"/>
    <nd ref="320092887"/>
    <nd ref="320092850"/>
    <nd ref="320092888"/>
    <nd ref="320092857"/>
    <nd ref="320092859"/>
    <nd ref="320092876"/>
    <nd ref="320092879"/>
    <nd ref="320092895"/>
    <nd ref="320092852"/>
    <nd ref="320092896"/>
    <nd ref="320092878"/>
    <nd ref="320092854"/>
    <nd ref="320092897"/>
    <nd ref="320092856"/>
    <tag k="highway" v="residential"/>
    <tag k="source" v="yahoo"/>
  </way>
  <way id="29100629" version="2" timestamp="2008-12-29T07:57:25Z" uid="30201" user="rrankin" changeset="659999">
    <nd ref="320092849"/>
    <nd ref="320092886"/>
    <nd ref="320092868"/>
    <nd ref="320092887"/>
    <nd ref="320092850"/>
    <nd ref="320092888"/>
    <nd ref="320092857"/>
    <nd ref="320092859"/>
    <nd ref="320092876"/>
    <nd ref="320092879"/>
    <nd ref="320092895"/>
    <nd ref="320092852"/>
    <nd ref="320092896"/>
    <nd ref="320092878"/>
    <nd ref="320092854"/>
    <nd ref="320092897"/>
    <nd ref="320092856"/>
    <tag k="highway" v="residential"/>
    <tag k="name" v="Jacaranda Crescent"/>
    <tag k="source" v="yahoo"/>
  </way>
  <way id="29100629" version="3" timestamp="2009-05-16T04:07:39Z" uid="7617" user="Franc" changeset="1205849">
    <nd ref="320092849"/>
    <nd ref="320092886"/>
    <nd ref="320092868"/>
    <nd ref="320092887"/>
    <nd ref="320092850"/>
    <nd ref="320092888"/>
    <nd ref="320092857"/>
    <nd ref="320092859"/>
    <nd ref="320092876"/>
    <nd ref="320092879"/>
    <nd ref="320092895"/>
    <nd ref="320092852"/>
    <nd ref="320092896"/>
    <nd ref="320092878"/>
    <nd ref="320092854"/>
    <nd ref="320092897"/>
    <nd ref="320092856"/>
    <tag k="highway" v="residential"/>
    <tag k="name" v="Jacaranda Crescent"/>
    <tag k="source" v="survey"/>
  </way>
  <way id="29100629" version="4" timestamp="2010-07-07T22:35:12Z" uid="74617" user="JohnSmith" changeset="5162525">
    <nd ref="320092849"/>
    <nd ref="320092886"/>
    <nd ref="320092868"/>
    <nd ref="320092887"/>
    <nd ref="320092850"/>
    <nd ref="320092888"/>
    <nd ref="320092857"/>
    <nd ref="320092859"/>
    <nd ref="320092876"/>
    <nd ref="320092879"/>
    <nd ref="320092895"/>
    <nd ref="320092852"/>
    <nd ref="320092896"/>
    <nd ref="320092878"/>
    <nd ref="320092854"/>
    <nd ref="320092897"/>
    <nd ref="320092856"/>
    <tag k="highway" v="residential"/>
    <tag k="maxspeed" v="50"/>
    <tag k="maxspeed:source" v="default residential speed limit in Australia"/>
    <tag k="name" v="Jacaranda Crescent"/>
    <tag k="source" v="survey"/>
  </way>
  <way id="29100629" version="5" timestamp="2012-01-18T00:34:54Z" uid="147510" user="woodpeck_fixbot" changeset="10423581">
    <nd ref="320092849"/>
    <nd ref="320092886"/>
    <nd ref="320092868"/>
    <nd ref="320092887"/>
    <nd ref="320092850"/>
    <nd ref="320092888"/>
    <nd ref="320092857"/>
    <nd ref="320092859"/>
    <nd ref="320092876"/>
    <nd ref="320092879"/>
    <nd ref="320092895"/>
    <nd ref="320092852"/>
    <nd ref="320092896"/>
    <nd ref="320092878"/>
    <nd ref="320092854"/>
    <nd ref="320092897"/>
    <nd ref="320092856"/>
    <tag k="highway" v="residential"/>
    <tag k="name" v="Jacaranda Crescent"/>
    <tag k="source" v="survey"/>
  </way>
  <way id="29100630" version="1" timestamp="2008-12-20T01:47:58Z" uid="7617" user="Franc" changeset="490854">
    <nd ref="320092859"/>
    <nd ref="320092890"/>
    <nd ref="320092864"/>
    <nd ref="320092861"/>
    <tag k="highway" v="residential"/>
    <tag k="source" v="yahoo"/>
  </way>
  <way id="29100630" version="2" timestamp="2008-12-29T07:57:26Z" uid="30201" user="rrankin" changeset="659999">
    <nd ref="320092859"/>
    <nd ref="320092890"/>
    <nd ref="320092864"/>
    <nd ref="320092861"/>
    <tag k="highway" v="residential"/>
    <tag k="name" v="Tallowwood Avenue"/>
    <tag k="source" v="yahoo"/>
  </way>
  <way id="29100630" version="3" timestamp="2010-07-07T22:29:18Z" uid="74617" user="JohnSmith" changeset="5162525">
    <nd ref="320092859"/>
    <nd ref="320092890"/>
    <nd ref="320092864"/>
    <nd ref="320092861"/>
    <tag k="highway" v="residential"/>
    <tag k="maxspeed" v="50"/>
    <tag k="maxspeed:source" v="default residential speed limit in Australia"/>
    <tag k="name" v="Tallowwood Avenue"/>
    <tag k="source" v="yahoo"/>
  </way>
  <way id="29100630" version="4" timestamp="2012-01-18T00:34:56Z" uid="147510" user="woodpeck_fixbot" changeset="10423581">
    <nd ref="320092859"/>
    <nd ref="320092890"/>
    <nd ref="320092864"/>
    <nd ref="320092861"/>
    <tag k="highway" v="residential"/>
    <tag k="name" v="Tallowwood Avenue"/>
    <tag k="source" v="yahoo"/>
  </way>
  <way id="29100631" version="1" timestamp="2008-12-20T01:47:58Z" uid="7617" user="Franc" changeset="490854">
    <nd ref="320092863"/>
    <nd ref="320092885"/>
    <nd ref="320092873"/>
    <nd ref="320092849"/>
    <nd ref="320092866"/>
    <nd ref="320092864"/>
    <tag k="highway" v="residential"/>
    <tag k="source" v="yahoo"/>
  </way>
  <way id="29100631" version="2" timestamp="2008-12-29T07:57:26Z" uid="30201" user="rrankin" changeset="659999">
    <nd ref="320092863"/>
    <nd ref="320092885"/>
    <nd ref="320092873"/>
    <nd ref="320092849"/>
    <nd ref="320092866"/>
    <nd ref="320092864"/>
    <tag k="highway" v="residential"/>
    <tag k="name" v="Ironbark Aveneu"/>
    <tag k="source" v="yahoo"/>
  </way>
  <way id="29100631" version="3" timestamp="2009-03-14T01:27:39Z" uid="67896" user="mrpulley" changeset="808915">
    <nd ref="320092863"/>
    <nd ref="320092885"/>
    <nd ref="320092873"/>
    <nd ref="320092849"/>
    <nd ref="320092866"/>
    <nd ref="320092864"/>
    <tag k="created_by" v="Potlatch 0.10f"/>
    <tag k="highway" v="residential"/>
    <tag k="name" v="Ironbark Avenue"/>
    <tag k="source" v="yahoo"/>
  </way>
  <way id="29100631" version="4" timestamp="2009-05-16T04:07:39Z" uid="7617" user="Franc" changeset="1205849">
    <nd ref="320092863"/>
    <nd ref="320092885"/>
    <nd ref="320092873"/>
    <nd ref="320092849"/>
    <nd ref="320092866"/>
    <nd ref="320092864"/>
    <tag k="created_by" v="Potlatch 0.10f"/>
    <tag k="highway" v="residential"/>
    <tag k="name" v="Ironbark Avenue"/>
    <tag k="source" v="survey"/>
  </way>
  <way id="29100631" version="5" timestamp="2010-07-07T22:31:15Z" uid="74617" user="JohnSmith" changeset="5162525">
    <nd ref="320092863"/>
    <nd ref="320092885"/>
    <nd ref="320092873"/>
    <nd ref="320092849"/>
    <nd ref="320092866"/>
    <nd ref="320092864"/>
    <tag k="highway" v="residential"/>
    <tag k="maxspeed" v="50"/>
    <tag k="maxspeed:source" v="default residential speed limit in Australia"/>
    <tag k="name" v="Ironbark Avenue"/>
    <tag k="source" v="survey"/>
  </way>
  <way id="29100631" version="6" timestamp="2012-01-18T00:34:57Z" uid="147510" user="woodpeck_fixbot" changeset="10423581">
    <nd ref="320092863"/>
    <nd ref="320092885"/>
    <nd ref="320092873"/>
    <nd ref="320092849"/>
    <nd ref="320092866"/>
    <nd ref="320092864"/>
    <tag k="highway" v="residential"/>
    <tag k="name" v="Ironbark Avenue"/>
    <tag k="source" v="survey"/>
  </way>
  <way id="29100632" version="1" timestamp="2008-12-20T01:47:59Z" uid="7617" user="Franc" changeset="490854">
    <nd ref="320092857"/>
    <nd ref="320092866"/>
    <tag k="highway" v="residential"/>
    <tag k="source" v="yahoo"/>
  </way>
  <way id="29100632" version="2" timestamp="2008-12-29T07:57:27Z" uid="30201" user="rrankin" changeset="659999">
    <nd ref="320092857"/>
    <nd ref="320092866"/>
    <tag k="highway" v="residential"/>
    <tag k="name" v="Sycamore Avenue"/>
    <tag k="source" v="yahoo"/>
  </way>
  <way id="29100632" version="3" timestamp="2010-07-07T22:31:51Z" uid="74617" user="JohnSmith" changeset="5162525">
    <nd ref="320092857"/>
    <nd ref="320092866"/>
    <tag k="highway" v="residential"/>
    <tag k="maxspeed" v="50"/>
    <tag k="maxspeed:source" v="default residential speed limit in Australia"/>
    <tag k="name" v="Sycamore Avenue"/>
    <tag k="source" v="yahoo"/>
  </way>
  <way id="29100632" version="4" timestamp="2012-01-18T00:34:59Z" uid="147510" user="woodpeck_fixbot" changeset="10423581">
    <nd ref="320092857"/>
    <nd ref="320092866"/>
    <tag k="highway" v="residential"/>
    <tag k="name" v="Sycamore Avenue"/>
    <tag k="source" v="yahoo"/>
  </way>
  <way id="29100633" version="1" timestamp="2008-12-20T01:48:00Z" uid="7617" user="Franc" changeset="490854">
    <nd ref="320092868"/>
    <nd ref="320092889"/>
    <nd ref="320092870"/>
    <nd ref="320092872"/>
    <nd ref="320092873"/>
    <tag k="highway" v="residential"/>
    <tag k="source" v="yahoo"/>
  </way>
  <way id="29100633" version="2" timestamp="2009-05-16T04:07:39Z" uid="7617" user="Franc" changeset="1205849">
    <nd ref="320092868"/>
    <nd ref="320092889"/>
    <nd ref="320092870"/>
    <nd ref="320092872"/>
    <nd ref="320092873"/>
    <tag k="highway" v="residential"/>
    <tag k="name" v="Brigalow Avenue"/>
    <tag k="source" v="survey"/>
  </way>
  <way id="29100633" version="3" timestamp="2010-07-07T22:33:52Z" uid="74617" user="JohnSmith" changeset="5162525">
    <nd ref="320092868"/>
    <nd ref="320092889"/>
    <nd ref="320092870"/>
    <nd ref="320092872"/>
    <nd ref="320092873"/>
    <tag k="highway" v="residential"/>
    <tag k="maxspeed" v="50"/>
    <tag k="maxspeed:source" v="default residential speed limit in Australia"/>
    <tag k="name" v="Brigalow Avenue"/>
    <tag k="source" v="survey"/>
  </way>
  <way id="29100633" version="4" timestamp="2012-01-18T00:35:00Z" uid="147510" user="woodpeck_fixbot" changeset="10423581">
    <nd ref="320092868"/>
    <nd ref="320092889"/>
    <nd ref="320092870"/>
    <nd ref="320092872"/>
    <nd ref="320092873"/>
    <tag k="highway" v="residential"/>
    <tag k="name" v="Brigalow Avenue"/>
    <tag k="source" v="survey"/>
  </way>
  <way id="29100634" version="1" timestamp="2008-12-20T01:48:01Z" uid="7617" user="Franc" changeset="490854">
    <nd ref="320092875"/>
    <nd ref="320092850"/>
    <tag k="highway" v="residential"/>
    <tag k="source" v="yahoo"/>
  </way>
  <way id="29100634" version="2" timestamp="2009-05-16T04:07:39Z" uid="7617" user="Franc" changeset="1205849">
    <nd ref="320092875"/>
    <nd ref="320092850"/>
    <tag k="highway" v="residential"/>
    <tag k="name" v="Hakea Close"/>
    <tag k="source" v="survey"/>
  </way>
  <way id="29100634" version="3" timestamp="2010-07-07T22:25:57Z" uid="74617" user="JohnSmith" changeset="5162525">
    <nd ref="320092875"/>
    <nd ref="320092850"/>
    <tag k="highway" v="residential"/>
    <tag k="maxspeed" v="50"/>
    <tag k="maxspeed:source" v="default residential speed limit in Australia"/>
    <tag k="name" v="Hakea Close"/>
    <tag k="source" v="survey"/>
  </way>
  <way id="29100634" version="4" timestamp="2012-01-18T00:35:01Z" uid="147510" user="woodpeck_fixbot" changeset="10423581">
    <nd ref="320092875"/>
    <nd ref="320092850"/>
    <tag k="highway" v="residential"/>
    <tag k="name" v="Hakea Close"/>
    <tag k="source" v="survey"/>
  </way>
  <way id="29100635" version="1" timestamp="2008-12-20T01:48:01Z" uid="7617" user="Franc" changeset="490854">
    <nd ref="320092876"/>
    <nd ref="320092894"/>
    <nd ref="320092893"/>
    <nd ref="320092877"/>
    <nd ref="320092900"/>
    <nd ref="320092901"/>
    <nd ref="320092880"/>
    <nd ref="320092891"/>
    <nd ref="320092878"/>
    <tag k="highway" v="residential"/>
    <tag k="source" v="yahoo"/>
  </way>
  <way id="29100635" version="2" timestamp="2008-12-29T07:57:28Z" uid="30201" user="rrankin" changeset="659999">
    <nd ref="320092876"/>
    <nd ref="320092894"/>
    <nd ref="320092893"/>
    <nd ref="320092877"/>
    <nd ref="320092900"/>
    <nd ref="320092901"/>
    <nd ref="320092880"/>
    <nd ref="320092878"/>
    <tag k="highway" v="residential"/>
    <tag k="name" v="Simone Crescent"/>
    <tag k="source" v="yahoo"/>
  </way>
  <way id="29100635" version="3" timestamp="2010-07-07T22:29:52Z" uid="74617" user="JohnSmith" changeset="5162525">
    <nd ref="320092876"/>
    <nd ref="320092894"/>
    <nd ref="320092893"/>
    <nd ref="320092877"/>
    <nd ref="320092900"/>
    <nd ref="320092901"/>
    <nd ref="320092880"/>
    <nd ref="320092878"/>
    <tag k="highway" v="residential"/>
    <tag k="maxspeed" v="50"/>
    <tag k="maxspeed:source" v="default residential speed limit in Australia"/>
    <tag k="name" v="Simone Crescent"/>
    <tag k="source" v="yahoo"/>
  </way>
  <way id="29100635" version="4" timestamp="2012-01-18T00:35:02Z" uid="147510" user="woodpeck_fixbot" changeset="10423581">
    <nd ref="320092876"/>
    <nd ref="320092894"/>
    <nd ref="320092893"/>
    <nd ref="320092877"/>
    <nd ref="320092900"/>
    <nd ref="320092901"/>
    <nd ref="320092880"/>
    <nd ref="320092878"/>
    <tag k="highway" v="residential"/>
    <tag k="name" v="Simone Crescent"/>
    <tag k="source" v="yahoo"/>
  </way>
  <way id="29100636" version="1" timestamp="2008-12-20T01:48:02Z" uid="7617" user="Franc" changeset="490854">
    <nd ref="320092879"/>
    <nd ref="320092883"/>
    <nd ref="320092892"/>
    <nd ref="320092881"/>
    <nd ref="320092880"/>
    <tag k="highway" v="residential"/>
    <tag k="source" v="yahoo"/>
  </way>
  <way id="29100636" version="2" timestamp="2008-12-29T07:57:29Z" uid="30201" user="rrankin" changeset="659999">
    <nd ref="320092879"/>
    <nd ref="320092883"/>
    <nd ref="320092892"/>
    <nd ref="320092881"/>
    <nd ref="320092880"/>
    <tag k="highway" v="residential"/>
    <tag k="name" v="Birch Avenue"/>
    <tag k="source" v="yahoo"/>
  </way>
  <way id="29100636" version="3" timestamp="2010-07-07T22:30:26Z" uid="74617" user="JohnSmith" changeset="5162525">
    <nd ref="320092879"/>
    <nd ref="320092883"/>
    <nd ref="320092892"/>
    <nd ref="320092881"/>
    <nd ref="320092880"/>
    <tag k="highway" v="residential"/>
    <tag k="maxspeed" v="50"/>
    <tag k="maxspeed:source" v="default residential speed limit in Australia"/>
    <tag k="name" v="Birch Avenue"/>
    <tag k="source" v="yahoo"/>
  </way>
  <way id="29100636" version="4" timestamp="2012-01-18T00:35:04Z" uid="147510" user="woodpeck_fixbot" changeset="10423581">
    <nd ref="320092879"/>
    <nd ref="320092883"/>
    <nd ref="320092892"/>
    <nd ref="320092881"/>
    <nd ref="320092880"/>
    <tag k="highway" v="residential"/>
    <tag k="name" v="Birch Avenue"/>
    <tag k="source" v="yahoo"/>
  </way>
  <way id="29100637" version="1" timestamp="2008-12-20T01:48:03Z" uid="7617" user="Franc" changeset="490854">
    <nd ref="320092881"/>
    <nd ref="320092902"/>
    <nd ref="320092882"/>
    <tag k="highway" v="residential"/>
    <tag k="source" v="yahoo"/>
  </way>
  <way id="29100637" version="2" timestamp="2008-12-29T07:57:30Z" uid="30201" user="rrankin" changeset="659999">
    <nd ref="320092881"/>
    <nd ref="320092902"/>
    <nd ref="320092882"/>
    <tag k="highway" v="residential"/>
    <tag k="name" v="Wilga Close"/>
    <tag k="source" v="yahoo"/>
  </way>
  <way id="29100637" version="3" timestamp="2010-07-07T22:32:32Z" uid="74617" user="JohnSmith" changeset="5162525">
    <nd ref="320092881"/>
    <nd ref="320092902"/>
    <nd ref="320092882"/>
    <tag k="highway" v="residential"/>
    <tag k="maxspeed" v="50"/>
    <tag k="maxspeed:source" v="default residential speed limit in Australia"/>
    <tag k="name" v="Wilga Close"/>
    <tag k="source" v="yahoo"/>
  </way>
  <way id="29100637" version="4" timestamp="2012-01-18T00:35:05Z" uid="147510" user="woodpeck_fixbot" changeset="10423581">
    <nd ref="320092881"/>
    <nd ref="320092902"/>
    <nd ref="320092882"/>
    <tag k="highway" v="residential"/>
    <tag k="name" v="Wilga Close"/>
    <tag k="source" v="yahoo"/>
  </way>
  <way id="29100638" version="1" timestamp="2008-12-20T01:48:03Z" uid="7617" user="Franc" changeset="490854">
    <nd ref="320092883"/>
    <nd ref="320092884"/>
    <tag k="highway" v="residential"/>
    <tag k="source" v="yahoo"/>
  </way>
  <way id="29100638" version="2" timestamp="2008-12-29T07:57:30Z" uid="30201" user="rrankin" changeset="659999">
    <nd ref="320092883"/>
    <nd ref="320092884"/>
    <tag k="highway" v="residential"/>
    <tag k="name" v="Tyalla Close"/>
    <tag k="source" v="yahoo"/>
  </way>
  <way id="29100638" version="3" timestamp="2010-07-07T22:35:48Z" uid="74617" user="JohnSmith" changeset="5162525">
    <nd ref="320092883"/>
    <nd ref="320092884"/>
    <tag k="highway" v="residential"/>
    <tag k="maxspeed" v="50"/>
    <tag k="maxspeed:source" v="default residential speed limit in Australia"/>
    <tag k="name" v="Tyalla Close"/>
    <tag k="source" v="yahoo"/>
  </way>
  <way id="29100638" version="4" timestamp="2012-01-18T00:35:07Z" uid="147510" user="woodpeck_fixbot" changeset="10423581">
    <nd ref="320092883"/>
    <nd ref="320092884"/>
    <tag k="highway" v="residential"/>
    <tag k="name" v="Tyalla Close"/>
    <tag k="source" v="yahoo"/>
  </way>
  <way id="29100639" version="1" timestamp="2008-12-20T01:48:04Z" uid="7617" user="Franc" changeset="490854">
    <nd ref="320092898"/>
    <nd ref="320092852"/>
    <tag k="highway" v="residential"/>
  </way>
  <way id="29100639" version="2" timestamp="2008-12-29T08:28:20Z" uid="30201" user="rrankin" changeset="659999"/>
  <way id="29100640" version="1" timestamp="2008-12-20T01:48:05Z" uid="7617" user="Franc" changeset="490854">
    <nd ref="320092899"/>
    <nd ref="320092877"/>
    <tag k="highway" v="residential"/>
    <tag k="source" v="yahoo"/>
  </way>
  <way id="29100640" version="2" timestamp="2008-12-29T07:57:24Z" uid="30201" user="rrankin" changeset="659999">
    <nd ref="320092899"/>
    <nd ref="320092877"/>
    <tag k="highway" v="residential"/>
    <tag k="name" v="Ebony Close"/>
    <tag k="source" v="yahoo"/>
  </way>
  <way id="29100640" version="3" timestamp="2010-07-07T22:31:03Z" uid="74617" user="JohnSmith" changeset="5162525">
    <nd ref="320092899"/>
    <nd ref="320092877"/>
    <tag k="highway" v="residential"/>
    <tag k="maxspeed" v="50"/>
    <tag k="maxspeed:source" v="default residential speed limit in Australia"/>
    <tag k="name" v="Ebony Close"/>
    <tag k="source" v="yahoo"/>
  </way>
  <way id="29100640" version="4" timestamp="2012-01-18T00:35:11Z" uid="147510" user="woodpeck_fixbot" changeset="10423581">
    <nd ref="320092899"/>
    <nd ref="320092877"/>
    <tag k="highway" v="residential"/>
    <tag k="name" v="Ebony Close"/>
    <tag k="source" v="yahoo"/>
  </way>
  <way id="29100641" version="1" timestamp="2008-12-20T01:48:06Z" uid="7617" user="Franc" changeset="490854">
    <nd ref="320092903"/>
    <nd ref="320092904"/>
    <nd ref="320092905"/>
    <nd ref="320092906"/>
    <nd ref="320092903"/>
    <tag k="leisure" v="pitch"/>
    <tag k="source" v="yahoo"/>
  </way>
  <way id="29100641" version="2" timestamp="2012-03-22T22:49:00Z" uid="7523" user="inas" changeset="11068704"/>
  <way id="29100790" version="1" timestamp="2008-12-20T02:24:49Z" uid="7617" user="Franc" changeset="490854">
    <nd ref="320093942"/>
    <nd ref="320093946"/>
    <nd ref="320093947"/>
    <nd ref="320093948"/>
    <nd ref="320093942"/>
    <tag k="addr:city" v="Marrickville"/>
    <tag k="addr:housenumber" v="81"/>
    <tag k="addr:postcode" v="2204"/>
    <tag k="addr:street" v="Warren Road"/>
    <tag k="building" v="units"/>
  </way>
  <way id="29100790" version="2" timestamp="2010-08-14T03:37:07Z" uid="7617" user="Franc" changeset="5487360">
    <nd ref="320093942"/>
    <nd ref="320093946"/>
    <nd ref="320093947"/>
    <nd ref="320093948"/>
    <nd ref="320093942"/>
    <tag k="addr:city" v="Marrickville"/>
    <tag k="addr:housenumber" v="81"/>
    <tag k="addr:postcode" v="2204"/>
    <tag k="addr:street" v="Warren Road"/>
    <tag k="building" v="units"/>
    <tag k="source" v="survey"/>
  </way>
  <way id="29100790" version="3" timestamp="2011-02-18T19:03:50Z" uid="7617" user="Franc" changeset="7325291">
    <nd ref="320093942"/>
    <nd ref="320093946"/>
    <nd ref="320093947"/>
    <nd ref="320093948"/>
    <nd ref="320093942"/>
    <tag k="addr:housenumber" v="81"/>
    <tag k="addr:street" v="Warren Road"/>
    <tag k="building" v="units"/>
    <tag k="source" v="survey"/>
  </way>
  <way id="29100790" version="4" timestamp="2012-02-13T04:53:23Z" uid="7523" user="inas" changeset="10670222"/>
  <way id="29100791" version="1" timestamp="2008-12-20T02:24:50Z" uid="7617" user="Franc" changeset="490854">
    <nd ref="320093953"/>
    <nd ref="320093954"/>
    <nd ref="320093955"/>
    <nd ref="320093957"/>
    <nd ref="320093956"/>
    <nd ref="320093953"/>
    <tag k="building" v="yes"/>
    <tag k="name" v="CentreLink"/>
  </way>
  <way id="29100791" version="2" timestamp="2008-12-21T01:13:05Z" uid="7617" user="Franc" changeset="509131">
    <nd ref="320093953"/>
    <nd ref="320093954"/>
    <nd ref="320093955"/>
    <nd ref="320093957"/>
    <nd ref="320093956"/>
    <nd ref="320093953"/>
    <tag k="amenity" v="public_building"/>
    <tag k="building" v="yes"/>
    <tag k="name" v="CentreLink"/>
  </way>
  <way id="29100791" version="3" timestamp="2009-11-24T19:26:25Z" uid="7617" user="Franc" changeset="3206945">
    <nd ref="320093953"/>
    <nd ref="320093954"/>
    <nd ref="320093955"/>
    <nd ref="320093957"/>
    <nd ref="320093953"/>
    <tag k="amenity" v="public_building"/>
    <tag k="building" v="yes"/>
    <tag k="name" v="CentreLink"/>
  </way>
  <way id="29100791" version="4" timestamp="2010-03-12T12:25:53Z" uid="7617" user="Franc" changeset="4105722">
    <nd ref="320093953"/>
    <nd ref="664483000"/>
    <nd ref="664483004"/>
    <nd ref="664483006"/>
    <nd ref="664483009"/>
    <nd ref="664483002"/>
    <nd ref="320093954"/>
    <nd ref="320093955"/>
    <nd ref="320093957"/>
    <nd ref="320093953"/>
    <tag k="amenity" v="public_building"/>
    <tag k="building" v="yes"/>
    <tag k="name" v="CentreLink"/>
  </way>
  <way id="29100792" version="1" timestamp="2008-12-20T02:24:50Z" uid="7617" user="Franc" changeset="490854">
    <nd ref="320093958"/>
    <nd ref="320093963"/>
    <nd ref="320093987"/>
    <nd ref="320093989"/>
    <nd ref="320093958"/>
    <tag k="addr:city" v="Marrickville"/>
    <tag k="addr:housenumber" v="1"/>
    <tag k="addr:postcode" v="2204"/>
    <tag k="addr:street" v="Grove Street"/>
    <tag k="building" v="house"/>
  </way>
  <way id="29100792" version="2" timestamp="2009-12-14T11:10:11Z" uid="7617" user="Franc" changeset="3370677">
    <nd ref="320093958"/>
    <nd ref="590039545"/>
    <nd ref="590039544"/>
    <nd ref="320093963"/>
    <nd ref="320093987"/>
    <nd ref="590039513"/>
    <nd ref="590039514"/>
    <nd ref="320093989"/>
    <nd ref="320093958"/>
    <tag k="addr:city" v="Marrickville"/>
    <tag k="addr:housenumber" v="1"/>
    <tag k="addr:postcode" v="2204"/>
    <tag k="addr:street" v="Grove Street"/>
    <tag k="building" v="house"/>
  </way>
  <way id="29100792" version="3" timestamp="2010-08-14T03:37:08Z" uid="7617" user="Franc" changeset="5487360">
    <nd ref="320093958"/>
    <nd ref="590039545"/>
    <nd ref="590039544"/>
    <nd ref="320093963"/>
    <nd ref="320093987"/>
    <nd ref="590039513"/>
    <nd ref="590039514"/>
    <nd ref="320093989"/>
    <nd ref="320093958"/>
    <tag k="addr:city" v="Marrickville"/>
    <tag k="addr:housenumber" v="1"/>
    <tag k="addr:postcode" v="2204"/>
    <tag k="addr:street" v="Grove Street"/>
    <tag k="building" v="house"/>
    <tag k="source" v="survey"/>
  </way>
  <way id="29100792" version="4" timestamp="2011-02-11T21:44:22Z" uid="7617" user="Franc" changeset="7259617">
    <nd ref="320093958"/>
    <nd ref="590039545"/>
    <nd ref="590039544"/>
    <nd ref="320093963"/>
    <nd ref="320093987"/>
    <nd ref="590039513"/>
    <nd ref="590039514"/>
    <nd ref="320093989"/>
    <nd ref="320093958"/>
    <tag k="building" v="house"/>
    <tag k="source" v="survey"/>
  </way>
  <way id="29100792" version="5" timestamp="2012-02-13T04:53:27Z" uid="7523" user="inas" changeset="10670222"/>
  <way id="29100793" version="1" timestamp="2008-12-20T02:24:51Z" uid="7617" user="Franc" changeset="490854">
    <nd ref="320093991"/>
    <nd ref="320093990"/>
    <nd ref="320093993"/>
    <nd ref="320093992"/>
    <nd ref="320093991"/>
    <tag k="addr:city" v="Marrickville"/>
    <tag k="addr:housenumber" v="31"/>
    <tag k="addr:postcode" v="2204"/>
    <tag k="addr:street" v="Grove Street"/>
    <tag k="building" v="house"/>
  </way>
  <way id="29100793" version="2" timestamp="2008-12-20T02:48:32Z" uid="7617" user="Franc" changeset="490854">
    <nd ref="320093991"/>
    <nd ref="320093990"/>
    <nd ref="320093993"/>
    <nd ref="320093992"/>
    <nd ref="320093991"/>
    <tag k="addr:city" v="Marrickville"/>
    <tag k="addr:housenumber" v="3"/>
    <tag k="addr:postcode" v="2204"/>
    <tag k="addr:street" v="Grove Street"/>
    <tag k="building" v="house"/>
  </way>
  <way id="29100793" version="3" timestamp="2009-12-14T11:10:11Z" uid="7617" user="Franc" changeset="3370677">
    <nd ref="320093991"/>
    <nd ref="320093990"/>
    <nd ref="320093993"/>
    <nd ref="590039527"/>
    <nd ref="590039521"/>
    <nd ref="320093992"/>
    <nd ref="320093991"/>
    <tag k="addr:city" v="Marrickville"/>
    <tag k="addr:housenumber" v="3"/>
    <tag k="addr:postcode" v="2204"/>
    <tag k="addr:street" v="Grove Street"/>
    <tag k="building" v="house"/>
  </way>
  <way id="29100793" version="4" timestamp="2010-08-14T03:37:08Z" uid="7617" user="Franc" changeset="5487360">
    <nd ref="320093991"/>
    <nd ref="320093990"/>
    <nd ref="320093993"/>
    <nd ref="590039527"/>
    <nd ref="590039521"/>
    <nd ref="320093992"/>
    <nd ref="320093991"/>
    <tag k="addr:city" v="Marrickville"/>
    <tag k="addr:housenumber" v="3"/>
    <tag k="addr:postcode" v="2204"/>
    <tag k="addr:street" v="Grove Street"/>
    <tag k="building" v="house"/>
    <tag k="source" v="survey"/>
  </way>
  <way id="29100793" version="5" timestamp="2011-02-11T21:44:19Z" uid="7617" user="Franc" changeset="7259617">
    <nd ref="320093991"/>
    <nd ref="320093990"/>
    <nd ref="320093993"/>
    <nd ref="590039527"/>
    <nd ref="590039521"/>
    <nd ref="320093992"/>
    <nd ref="320093991"/>
    <tag k="building" v="house"/>
    <tag k="source" v="survey"/>
  </way>
  <way id="29100793" version="6" timestamp="2012-02-13T04:53:42Z" uid="7523" user="inas" changeset="10670222"/>
  <way id="29100794" version="1" timestamp="2008-12-20T02:24:52Z" uid="7617" user="Franc" changeset="490854">
    <nd ref="320093997"/>
    <nd ref="320093995"/>
    <nd ref="320093994"/>
    <nd ref="320093996"/>
    <nd ref="320093997"/>
    <tag k="addr:city" v="Marrickville"/>
    <tag k="addr:housenumber" v="5"/>
    <tag k="addr:postcode" v="2204"/>
    <tag k="addr:street" v="Grove Street"/>
    <tag k="building" v="house"/>
  </way>
  <way id="29100794" version="2" timestamp="2009-12-14T11:10:11Z" uid="7617" user="Franc" changeset="3370677">
    <nd ref="320093997"/>
    <nd ref="320093995"/>
    <nd ref="590039522"/>
    <nd ref="590039523"/>
    <nd ref="320093994"/>
    <nd ref="320093996"/>
    <nd ref="320093997"/>
    <tag k="addr:city" v="Marrickville"/>
    <tag k="addr:housenumber" v="5"/>
    <tag k="addr:postcode" v="2204"/>
    <tag k="addr:street" v="Grove Street"/>
    <tag k="building" v="house"/>
  </way>
  <way id="29100794" version="3" timestamp="2010-08-14T03:37:08Z" uid="7617" user="Franc" changeset="5487360">
    <nd ref="320093997"/>
    <nd ref="320093995"/>
    <nd ref="590039522"/>
    <nd ref="590039523"/>
    <nd ref="320093994"/>
    <nd ref="320093996"/>
    <nd ref="320093997"/>
    <tag k="addr:city" v="Marrickville"/>
    <tag k="addr:housenumber" v="5"/>
    <tag k="addr:postcode" v="2204"/>
    <tag k="addr:street" v="Grove Street"/>
    <tag k="building" v="house"/>
    <tag k="source" v="survey"/>
  </way>
  <way id="29100794" version="4" timestamp="2011-02-18T19:03:51Z" uid="7617" user="Franc" changeset="7325291">
    <nd ref="320093997"/>
    <nd ref="320093995"/>
    <nd ref="590039522"/>
    <nd ref="590039523"/>
    <nd ref="320093994"/>
    <nd ref="320093996"/>
    <nd ref="320093997"/>
    <tag k="addr:housenumber" v="5"/>
    <tag k="addr:street" v="Grove Street"/>
    <tag k="building" v="house"/>
    <tag k="source" v="survey"/>
  </way>
  <way id="29100794" version="5" timestamp="2011-04-23T02:31:01Z" uid="7617" user="Franc" changeset="7940087">
    <nd ref="320093997"/>
    <nd ref="320093995"/>
    <nd ref="590039522"/>
    <nd ref="590039523"/>
    <nd ref="320093994"/>
    <nd ref="320093996"/>
    <nd ref="320093997"/>
    <tag k="building" v="house"/>
  </way>
  <way id="29100794" version="6" timestamp="2012-02-13T04:53:30Z" uid="7523" user="inas" changeset="10670222"/>
  <way id="29100795" version="1" timestamp="2008-12-20T02:24:53Z" uid="7617" user="Franc" changeset="490854">
    <nd ref="320094000"/>
    <nd ref="320094001"/>
    <nd ref="320093999"/>
    <nd ref="320093998"/>
    <nd ref="320094000"/>
    <tag k="addr:city" v="Marrickville"/>
    <tag k="addr:housenumber" v="7-9"/>
    <tag k="addr:postcode" v="2204"/>
    <tag k="addr:street" v="Grove Street"/>
    <tag k="building" v="house"/>
  </way>
  <way id="29100795" version="2" timestamp="2009-12-14T11:10:10Z" uid="7617" user="Franc" changeset="3370677">
    <nd ref="320094000"/>
    <nd ref="320094001"/>
    <nd ref="590039528"/>
    <nd ref="590039529"/>
    <nd ref="320093999"/>
    <nd ref="320093998"/>
    <nd ref="590039525"/>
    <nd ref="590039524"/>
    <nd ref="320094000"/>
    <tag k="addr:city" v="Marrickville"/>
    <tag k="addr:housenumber" v="7-9"/>
    <tag k="addr:postcode" v="2204"/>
    <tag k="addr:street" v="Grove Street"/>
    <tag k="building" v="house"/>
  </way>
  <way id="29100795" version="3" timestamp="2010-08-14T03:37:08Z" uid="7617" user="Franc" changeset="5487360">
    <nd ref="320094000"/>
    <nd ref="320094001"/>
    <nd ref="590039528"/>
    <nd ref="590039529"/>
    <nd ref="320093999"/>
    <nd ref="320093998"/>
    <nd ref="590039525"/>
    <nd ref="590039524"/>
    <nd ref="320094000"/>
    <tag k="addr:city" v="Marrickville"/>
    <tag k="addr:housenumber" v="7-9"/>
    <tag k="addr:postcode" v="2204"/>
    <tag k="addr:street" v="Grove Street"/>
    <tag k="building" v="house"/>
    <tag k="source" v="survey"/>
  </way>
  <way id="29100795" version="4" timestamp="2011-02-18T19:03:49Z" uid="7617" user="Franc" changeset="7325291">
    <nd ref="320094000"/>
    <nd ref="320094001"/>
    <nd ref="590039528"/>
    <nd ref="590039529"/>
    <nd ref="320093999"/>
    <nd ref="320093998"/>
    <nd ref="590039525"/>
    <nd ref="590039524"/>
    <nd ref="320094000"/>
    <tag k="addr:housenumber" v="7-9"/>
    <tag k="addr:street" v="Grove Street"/>
    <tag k="building" v="house"/>
    <tag k="source" v="survey"/>
  </way>
  <way id="29100795" version="5" timestamp="2012-02-13T04:53:23Z" uid="7523" user="inas" changeset="10670222"/>
  <way id="29100796" version="1" timestamp="2008-12-20T02:24:54Z" uid="7617" user="Franc" changeset="490854">
    <nd ref="320094002"/>
    <nd ref="320094003"/>
    <nd ref="320094004"/>
    <nd ref="320094005"/>
    <nd ref="320094002"/>
    <tag k="addr:city" v="Marrickville"/>
    <tag k="addr:housenumber" v="395"/>
    <tag k="addr:postcode" v="2204"/>
    <tag k="addr:street" v="Illawarra Road"/>
    <tag k="building" v="shop"/>
  </way>
  <way id="29100796" version="2" timestamp="2010-04-24T05:34:36Z" uid="7617" user="Franc" changeset="4509123">
    <nd ref="320094002"/>
    <nd ref="320094003"/>
    <nd ref="320094004"/>
    <nd ref="320094005"/>
    <nd ref="320094002"/>
    <tag k="addr:city" v="Marrickville"/>
    <tag k="addr:street" v="Illawarra Road"/>
    <tag k="building" v="shop"/>
  </way>
  <way id="29100796" version="3" timestamp="2011-02-18T19:03:49Z" uid="7617" user="Franc" changeset="7325291">
    <nd ref="320094002"/>
    <nd ref="320094003"/>
    <nd ref="320094004"/>
    <nd ref="320094005"/>
    <nd ref="320094002"/>
    <tag k="addr:street" v="Illawarra Road"/>
    <tag k="building" v="shop"/>
  </way>
  <way id="29100797" version="1" timestamp="2008-12-20T02:24:54Z" uid="7617" user="Franc" changeset="490854">
    <nd ref="320094006"/>
    <nd ref="320094007"/>
    <nd ref="320094008"/>
    <nd ref="320094010"/>
    <nd ref="320094006"/>
    <tag k="addr:city" v="Marrickville"/>
    <tag k="addr:housenumber" v="372"/>
    <tag k="addr:postcode" v="2204"/>
    <tag k="addr:street" v="Illawarra Road"/>
    <tag k="building" v="yes"/>
  </way>
  <way id="29100797" version="2" timestamp="2010-02-10T12:55:10Z" uid="7617" user="Franc" changeset="3839984">
    <nd ref="320094006"/>
    <nd ref="634931991"/>
    <nd ref="634931992"/>
    <nd ref="634931993"/>
    <nd ref="634931994"/>
    <nd ref="320094007"/>
    <nd ref="320094008"/>
    <nd ref="320094010"/>
    <nd ref="320094006"/>
    <tag k="addr:city" v="Marrickville"/>
    <tag k="addr:housenumber" v="372"/>
    <tag k="addr:postcode" v="2204"/>
    <tag k="addr:street" v="Illawarra Road"/>
    <tag k="building" v="yes"/>
  </way>
  <way id="29100797" version="3" timestamp="2010-09-03T22:13:44Z" uid="7617" user="Franc" changeset="5674616">
    <nd ref="320094006"/>
    <nd ref="634931991"/>
    <nd ref="634931992"/>
    <nd ref="634931993"/>
    <nd ref="634931994"/>
    <nd ref="320094007"/>
    <nd ref="320094008"/>
    <nd ref="894773074"/>
    <nd ref="320094010"/>
    <nd ref="320094006"/>
    <tag k="addr:city" v="Marrickville"/>
    <tag k="addr:housenumber" v="372"/>
    <tag k="addr:postcode" v="2204"/>
    <tag k="addr:street" v="Illawarra Road"/>
    <tag k="building" v="yes"/>
  </way>
  <way id="29100797" version="4" timestamp="2011-02-18T19:03:52Z" uid="7617" user="Franc" changeset="7325291">
    <nd ref="320094006"/>
    <nd ref="634931991"/>
    <nd ref="634931992"/>
    <nd ref="634931993"/>
    <nd ref="634931994"/>
    <nd ref="320094007"/>
    <nd ref="320094008"/>
    <nd ref="894773074"/>
    <nd ref="320094010"/>
    <nd ref="320094006"/>
    <tag k="addr:housenumber" v="372"/>
    <tag k="addr:street" v="Illawarra Road"/>
    <tag k="building" v="yes"/>
  </way>
  <way id="29100797" version="5" timestamp="2011-05-28T12:51:50Z" uid="7617" user="Franc" changeset="8271467">
    <nd ref="320094006"/>
    <nd ref="634931991"/>
    <nd ref="634931992"/>
    <nd ref="634931993"/>
    <nd ref="634931994"/>
    <nd ref="320094007"/>
    <nd ref="320094008"/>
    <nd ref="320094010"/>
    <nd ref="320094006"/>
    <tag k="addr:housenumber" v="372"/>
    <tag k="addr:street" v="Illawarra Road"/>
    <tag k="building" v="yes"/>
  </way>
  <way id="29100797" version="6" timestamp="2012-02-13T04:53:22Z" uid="7523" user="inas" changeset="10670222"/>
  <way id="29100798" version="1" timestamp="2008-12-20T02:24:55Z" uid="7617" user="Franc" changeset="490854">
    <nd ref="320094012"/>
    <nd ref="320094013"/>
    <tag k="addr:interpolation" v="even"/>
  </way>
  <way id="29100798" version="2" timestamp="2009-11-26T09:58:07Z" uid="7617" user="Franc" changeset="3218955"/>
  <way id="29100893" version="3" timestamp="2009-03-29T10:32:12Z" uid="58091" user="Andreas M" changeset="866815">
    <nd ref="320094883"/>
    <nd ref="366830470"/>
    <nd ref="366830473"/>
    <nd ref="320094884"/>
    <nd ref="366830561"/>
    <nd ref="366830559"/>
    <nd ref="366830468"/>
    <nd ref="320094885"/>
    <nd ref="320094886"/>
    <nd ref="320094883"/>
    <tag k="created_by" v="Potlatch 0.10f"/>
    <tag k="leisure" v="park"/>
    <tag k="name" v="Max-Winter-Park"/>
  </way>
  <way id="29100893" version="4" timestamp="2009-03-29T13:13:00Z" uid="58091" user="Andreas M" changeset="868283">
    <nd ref="320094883"/>
    <nd ref="366830470"/>
    <nd ref="366830473"/>
    <nd ref="320094884"/>
    <nd ref="366830561"/>
    <nd ref="366830559"/>
    <nd ref="366830468"/>
    <nd ref="320094885"/>
    <nd ref="320094886"/>
    <nd ref="366897409"/>
    <nd ref="366897415"/>
    <nd ref="366897404"/>
    <nd ref="366897401"/>
    <nd ref="320094883"/>
    <tag k="created_by" v="Potlatch 0.10f"/>
    <tag k="leisure" v="park"/>
    <tag k="name" v="Max-Winter-Park"/>
  </way>
  <way id="29100893" version="5" timestamp="2010-05-15T17:42:10Z" uid="58091" user="Andreas M" changeset="4708716">
    <nd ref="320094883"/>
    <nd ref="735163244"/>
    <nd ref="735163240"/>
    <nd ref="735163241"/>
    <nd ref="366830470"/>
    <nd ref="366830473"/>
    <nd ref="320094884"/>
    <nd ref="366830561"/>
    <nd ref="366830559"/>
    <nd ref="366830468"/>
    <nd ref="320094885"/>
    <nd ref="347336555"/>
    <nd ref="320094886"/>
    <nd ref="320094883"/>
    <tag k="barrier" v="fence"/>
    <tag k="leisure" v="park"/>
    <tag k="name" v="Max-Winter-Park"/>
    <tag k="opening_hours" v="Mo-Su 06:00-20:00"/>
  </way>
  <way id="29100893" version="6" timestamp="2011-03-11T18:37:56Z" uid="99800" user="wolfbert" changeset="7526194">
    <nd ref="320094883"/>
    <nd ref="735163244"/>
    <nd ref="735163240"/>
    <nd ref="735163241"/>
    <nd ref="366830470"/>
    <nd ref="366830473"/>
    <nd ref="320094884"/>
    <nd ref="366830561"/>
    <nd ref="366830559"/>
    <nd ref="366830468"/>
    <nd ref="320094885"/>
    <nd ref="347336555"/>
    <nd ref="320094886"/>
    <nd ref="1197118887"/>
    <nd ref="1197118744"/>
    <nd ref="320094883"/>
    <tag k="leisure" v="park"/>
    <tag k="name" v="Max-Winter-Park"/>
    <tag k="opening_hours" v="Mo-Su 06:00-20:00"/>
  </way>
  <way id="29100893" version="7" timestamp="2012-03-24T08:44:45Z" uid="99800" user="wolfbert" changeset="11081854">
    <nd ref="320094883"/>
    <nd ref="735163244"/>
    <nd ref="735163240"/>
    <nd ref="735163241"/>
    <nd ref="366830470"/>
    <nd ref="366830473"/>
    <nd ref="320094884"/>
    <nd ref="366830561"/>
    <nd ref="366830559"/>
    <nd ref="366830468"/>
    <nd ref="320094885"/>
    <nd ref="347336555"/>
    <nd ref="320094886"/>
    <nd ref="1197118751"/>
    <nd ref="1197118744"/>
    <nd ref="320094883"/>
    <tag k="leisure" v="park"/>
    <tag k="name" v="Max-Winter-Park"/>
    <tag k="opening_hours" v="Mo-Su 06:00-20:00"/>
  </way>
  <way id="29100901" version="3" timestamp="2009-02-19T16:14:18Z" uid="58091" user="Andreas M" changeset="554467">
    <nd ref="33471916"/>
    <nd ref="33472241"/>
    <tag k="created_by" v="Potlatch 0.10f"/>
    <tag k="highway" v="residential"/>
    <tag k="maxspeed" v="30"/>
    <tag k="name" v="Feuerbachstraße"/>
    <tag k="oneway" v="yes"/>
  </way>
  <way id="29100901" version="4" timestamp="2011-02-25T14:26:54Z" uid="99800" user="wolfbert" changeset="7390913">
    <nd ref="33471916"/>
    <nd ref="33472241"/>
    <tag k="highway" v="residential"/>
    <tag k="maxspeed" v="30"/>
    <tag k="name" v="Feuerbachstraße"/>
    <tag k="oneway" v="yes"/>
  </way>
  <way id="29100901" version="5" timestamp="2011-02-26T18:29:48Z" uid="99800" user="wolfbert" changeset="7402895">
    <nd ref="33471916"/>
    <nd ref="33472241"/>
    <tag k="highway" v="residential"/>
    <tag k="maxspeed" v="30"/>
    <tag k="name" v="Feuerbachstraße"/>
    <tag k="oneway" v="yes"/>
    <tag k="source:maxspeed" v="zone"/>
  </way>
  <way id="29100901" version="6" timestamp="2011-02-27T14:18:30Z" uid="99800" user="wolfbert" changeset="7411182">
    <nd ref="33471916"/>
    <nd ref="33472241"/>
    <tag k="highway" v="residential"/>
    <tag k="maxspeed" v="30"/>
    <tag k="name" v="Feuerbachstraße"/>
    <tag k="oneway" v="yes"/>
    <tag k="source:maxspeed" v="AT:zone"/>
  </way>
  <way id="29100901" version="7" timestamp="2011-03-08T11:12:59Z" uid="99800" user="wolfbert" changeset="7492964">
    <nd ref="33471916"/>
    <nd ref="33472241"/>
    <tag k="highway" v="residential"/>
    <tag k="maxspeed" v="30"/>
    <tag k="name" v="Feuerbachstraße"/>
    <tag k="oneway" v="yes"/>
    <tag k="source:maxspeed" v="AT:zone:30"/>
  </way>
  <way id="29100901" version="8" timestamp="2012-02-24T15:10:33Z" uid="99800" user="wolfbert" changeset="10779084">
    <nd ref="33471916"/>
    <nd ref="33472241"/>
    <tag k="highway" v="residential"/>
    <tag k="maxspeed" v="30"/>
    <tag k="name" v="Feuerbachstraße"/>
    <tag k="odbl" v="clean"/>
    <tag k="oneway" v="yes"/>
    <tag k="source:maxspeed" v="AT:zone:30"/>
  </way>
  <way id="29100901" version="9" timestamp="2012-03-02T12:23:04Z" uid="99800" user="wolfbert" changeset="10847705">
    <nd ref="33471916"/>
    <nd ref="33472241"/>
    <tag k="highway" v="residential"/>
    <tag k="maxspeed" v="30"/>
    <tag k="name" v="Feuerbachstraße"/>
    <tag k="oneway" v="yes"/>
    <tag k="source:maxspeed" v="AT:zone:30"/>
  </way>
  <way id="29100901" version="10" timestamp="2012-03-10T00:07:14Z" uid="99800" user="wolfbert" changeset="10927244">
    <nd ref="33471916"/>
    <nd ref="1172293631"/>
    <nd ref="33472241"/>
    <tag k="highway" v="residential"/>
    <tag k="maxspeed" v="30"/>
    <tag k="name" v="Feuerbachstraße"/>
    <tag k="oneway" v="yes"/>
    <tag k="source:maxspeed" v="AT:zone:30"/>
  </way>
  <way id="29100906" version="4" timestamp="2009-02-19T16:14:19Z" uid="58091" user="Andreas M" changeset="554467">
    <nd ref="60627224"/>
    <nd ref="320094879"/>
    <tag k="created_by" v="Potlatch 0.10f"/>
    <tag k="highway" v="residential"/>
    <tag k="maxspeed" v="30"/>
    <tag k="name" v="Schrotzbergstraße"/>
    <tag k="oneway" v="yes"/>
  </way>
  <way id="29100906" version="5" timestamp="2011-02-26T18:29:45Z" uid="99800" user="wolfbert" changeset="7402895">
    <nd ref="60627224"/>
    <nd ref="320094879"/>
    <tag k="highway" v="residential"/>
    <tag k="maxspeed" v="30"/>
    <tag k="name" v="Schrotzbergstraße"/>
    <tag k="oneway" v="yes"/>
    <tag k="source:maxspeed" v="zone"/>
  </way>
  <way id="29100906" version="6" timestamp="2011-02-27T14:18:40Z" uid="99800" user="wolfbert" changeset="7411182">
    <nd ref="60627224"/>
    <nd ref="320094879"/>
    <tag k="highway" v="residential"/>
    <tag k="maxspeed" v="30"/>
    <tag k="name" v="Schrotzbergstraße"/>
    <tag k="oneway" v="yes"/>
    <tag k="source:maxspeed" v="AT:zone"/>
  </way>
  <way id="29100906" version="7" timestamp="2011-03-08T11:12:57Z" uid="99800" user="wolfbert" changeset="7492964">
    <nd ref="60627224"/>
    <nd ref="320094879"/>
    <tag k="highway" v="residential"/>
    <tag k="maxspeed" v="30"/>
    <tag k="name" v="Schrotzbergstraße"/>
    <tag k="oneway" v="yes"/>
    <tag k="source:maxspeed" v="AT:zone:30"/>
  </way>
  <way id="29100906" version="8" timestamp="2012-02-26T18:14:32Z" uid="99800" user="wolfbert" changeset="10801411">
    <nd ref="60627224"/>
    <nd ref="320094879"/>
    <tag k="highway" v="residential"/>
    <tag k="maxspeed" v="30"/>
    <tag k="name" v="Schrotzbergstraße"/>
    <tag k="odbl" v="clean"/>
    <tag k="oneway" v="yes"/>
    <tag k="source:maxspeed" v="AT:zone:30"/>
  </way>
  <way id="29100906" version="9" timestamp="2012-03-02T12:23:09Z" uid="99800" user="wolfbert" changeset="10847705">
    <nd ref="60627224"/>
    <nd ref="320094879"/>
    <tag k="highway" v="residential"/>
    <tag k="maxspeed" v="30"/>
    <tag k="name" v="Schrotzbergstraße"/>
    <tag k="oneway" v="yes"/>
    <tag k="source:maxspeed" v="AT:zone:30"/>
  </way>
  <way id="29100906" version="10" timestamp="2012-03-17T18:37:45Z" uid="99800" user="wolfbert" changeset="11011075">
    <nd ref="60627224"/>
    <nd ref="320094879"/>
    <tag k="highway" v="residential"/>
    <tag k="name" v="Schrotzbergstraße"/>
    <tag k="oneway" v="yes"/>
    <tag k="source:maxspeed" v="AT:zone:30"/>
  </way>
  <way id="29100906" version="11" timestamp="2012-03-17T18:41:34Z" uid="99800" user="wolfbert" changeset="11011134">
    <nd ref="60627224"/>
    <nd ref="320094879"/>
    <tag k="highway" v="residential"/>
    <tag k="maxspeed" v="30"/>
    <tag k="name" v="Schrotzbergstraße"/>
    <tag k="oneway" v="yes"/>
    <tag k="source:maxspeed" v="AT:zone:30"/>
  </way>
  <way id="29100928" version="3" timestamp="2009-02-19T16:14:27Z" uid="58091" user="Andreas M" changeset="554467">
    <nd ref="33472241"/>
    <nd ref="33472242"/>
    <tag k="created_by" v="Potlatch 0.10f"/>
    <tag k="highway" v="residential"/>
    <tag k="maxspeed" v="30"/>
    <tag k="name" v="Jungstraße"/>
    <tag k="oneway" v="yes"/>
  </way>
  <way id="29100928" version="4" timestamp="2009-04-12T20:42:01Z" uid="60764" user="obelix66" changeset="454339">
    <nd ref="33472241"/>
    <nd ref="33472242"/>
    <tag k="created_by" v="Potlatch 0.10f"/>
    <tag k="highway" v="residential"/>
    <tag k="maxspeed" v="30"/>
    <tag k="name" v="Jungstraße"/>
    <tag k="oneway" v="yes"/>
  </way>
  <way id="29100928" version="5" timestamp="2011-02-25T14:26:58Z" uid="99800" user="wolfbert" changeset="7390913">
    <nd ref="33472241"/>
    <nd ref="33472242"/>
    <tag k="highway" v="residential"/>
    <tag k="maxspeed" v="30"/>
    <tag k="name" v="Jungstraße"/>
    <tag k="oneway" v="yes"/>
  </way>
  <way id="29100928" version="6" timestamp="2011-02-26T18:29:54Z" uid="99800" user="wolfbert" changeset="7402895">
    <nd ref="33472241"/>
    <nd ref="33472242"/>
    <tag k="highway" v="residential"/>
    <tag k="maxspeed" v="30"/>
    <tag k="name" v="Jungstraße"/>
    <tag k="oneway" v="yes"/>
    <tag k="source:maxspeed" v="zone"/>
  </way>
  <way id="29100928" version="7" timestamp="2011-02-27T14:18:27Z" uid="99800" user="wolfbert" changeset="7411182">
    <nd ref="33472241"/>
    <nd ref="33472242"/>
    <tag k="highway" v="residential"/>
    <tag k="maxspeed" v="30"/>
    <tag k="name" v="Jungstraße"/>
    <tag k="oneway" v="yes"/>
    <tag k="source:maxspeed" v="AT:zone"/>
  </way>
  <way id="29100928" version="8" timestamp="2011-03-08T11:12:55Z" uid="99800" user="wolfbert" changeset="7492964">
    <nd ref="33472241"/>
    <nd ref="33472242"/>
    <tag k="highway" v="residential"/>
    <tag k="maxspeed" v="30"/>
    <tag k="name" v="Jungstraße"/>
    <tag k="oneway" v="yes"/>
    <tag k="source:maxspeed" v="AT:zone:30"/>
  </way>
  <way id="29100928" version="9" timestamp="2012-02-24T15:10:34Z" uid="99800" user="wolfbert" changeset="10779084">
    <nd ref="33472241"/>
    <nd ref="33472242"/>
    <tag k="highway" v="residential"/>
    <tag k="maxspeed" v="30"/>
    <tag k="name" v="Jungstraße"/>
    <tag k="odbl" v="clean"/>
    <tag k="oneway" v="yes"/>
    <tag k="source:maxspeed" v="AT:zone:30"/>
  </way>
  <way id="29100928" version="10" timestamp="2012-03-02T12:23:05Z" uid="99800" user="wolfbert" changeset="10847705">
    <nd ref="33472241"/>
    <nd ref="33472242"/>
    <tag k="highway" v="residential"/>
    <tag k="maxspeed" v="30"/>
    <tag k="name" v="Jungstraße"/>
    <tag k="oneway" v="yes"/>
    <tag k="source:maxspeed" v="AT:zone:30"/>
  </way>
  <way id="29100934" version="2" timestamp="2009-02-18T17:48:14Z" uid="58091" user="Andreas M" changeset="544027">
    <nd ref="320095070"/>
    <nd ref="347336557"/>
    <nd ref="347336555"/>
    <nd ref="320095091"/>
    <tag k="created_by" v="Potlatch 0.10f"/>
    <tag k="highway" v="pedestrian"/>
    <tag k="name" v="Max-Winter-Platz"/>
  </way>
  <way id="29100934" version="3" timestamp="2009-03-29T10:32:11Z" uid="58091" user="Andreas M" changeset="866815">
    <nd ref="320095070"/>
    <nd ref="347336557"/>
    <nd ref="366830506"/>
    <nd ref="366830515"/>
    <nd ref="366830494"/>
    <nd ref="347336555"/>
    <nd ref="320095091"/>
    <tag k="created_by" v="Potlatch 0.10f"/>
    <tag k="highway" v="pedestrian"/>
    <tag k="name" v="Max-Winter-Platz"/>
  </way>
  <way id="29100934" version="4" timestamp="2010-05-15T17:42:10Z" uid="58091" user="Andreas M" changeset="4708716">
    <nd ref="320095070"/>
    <nd ref="347336557"/>
    <nd ref="366830506"/>
    <nd ref="366830515"/>
    <nd ref="366830494"/>
    <nd ref="347336555"/>
    <nd ref="320095091"/>
    <tag k="highway" v="pedestrian"/>
    <tag k="name" v="Max-Winter-Platz"/>
  </way>
  <way id="29100935" version="5" timestamp="2009-01-25T14:18:54Z" uid="58091" user="Andreas M" changeset="834065">
    <nd ref="33471606"/>
    <nd ref="33471924"/>
    <tag k="created_by" v="Potlatch 0.10f"/>
    <tag k="highway" v="residential"/>
    <tag k="name" v="Ennsgasse"/>
    <tag k="oneway" v="yes"/>
  </way>
  <way id="29100935" version="6" timestamp="2009-02-19T16:14:27Z" uid="58091" user="Andreas M" changeset="554467">
    <nd ref="33471606"/>
    <nd ref="33471924"/>
    <tag k="created_by" v="Potlatch 0.10f"/>
    <tag k="highway" v="residential"/>
    <tag k="maxspeed" v="30"/>
    <tag k="name" v="Ennsgasse"/>
    <tag k="oneway" v="yes"/>
  </way>
  <way id="29100935" version="7" timestamp="2011-02-26T18:29:42Z" uid="99800" user="wolfbert" changeset="7402895">
    <nd ref="33471606"/>
    <nd ref="33471924"/>
    <tag k="highway" v="residential"/>
    <tag k="maxspeed" v="30"/>
    <tag k="name" v="Ennsgasse"/>
    <tag k="oneway" v="yes"/>
    <tag k="source:maxspeed" v="zone"/>
  </way>
  <way id="29100935" version="8" timestamp="2011-02-27T14:18:43Z" uid="99800" user="wolfbert" changeset="7411182">
    <nd ref="33471606"/>
    <nd ref="33471924"/>
    <tag k="highway" v="residential"/>
    <tag k="maxspeed" v="30"/>
    <tag k="name" v="Ennsgasse"/>
    <tag k="oneway" v="yes"/>
    <tag k="source:maxspeed" v="AT:zone"/>
  </way>
  <way id="29100935" version="9" timestamp="2011-03-08T11:12:56Z" uid="99800" user="wolfbert" changeset="7492964">
    <nd ref="33471606"/>
    <nd ref="33471924"/>
    <tag k="highway" v="residential"/>
    <tag k="maxspeed" v="30"/>
    <tag k="name" v="Ennsgasse"/>
    <tag k="oneway" v="yes"/>
    <tag k="source:maxspeed" v="AT:zone:30"/>
  </way>
  <way id="29100935" version="10" timestamp="2012-02-28T17:20:00Z" uid="99800" user="wolfbert" changeset="10820736">
    <nd ref="33471606"/>
    <nd ref="33471924"/>
    <tag k="highway" v="residential"/>
    <tag k="maxspeed" v="30"/>
    <tag k="name" v="Ennsgasse"/>
    <tag k="odbl" v="clean"/>
    <tag k="oneway" v="yes"/>
    <tag k="source:maxspeed" v="AT:zone:30"/>
  </way>
  <way id="29100935" version="11" timestamp="2012-03-02T12:23:01Z" uid="99800" user="wolfbert" changeset="10847705">
    <nd ref="33471606"/>
    <nd ref="33471924"/>
    <tag k="highway" v="residential"/>
    <tag k="maxspeed" v="30"/>
    <tag k="name" v="Ennsgasse"/>
    <tag k="oneway" v="yes"/>
    <tag k="source:maxspeed" v="AT:zone:30"/>
  </way>
  <way id="29100951" version="3" timestamp="2010-04-07T13:14:15Z" uid="20587" user="balrog-kun" changeset="4353646">
    <nd ref="147496920"/>
    <nd ref="320095265"/>
    <tag k="created_by" v="Potlatch 0.10f"/>
    <tag k="highway" v="residential"/>
    <tag k="name" v="Southeast 34th Street"/>
    <tag k="tiger:cfcc" v="A41"/>
    <tag k="tiger:county" v="Oklahoma, OK"/>
    <tag k="tiger:name_base" v="34th"/>
    <tag k="tiger:name_direction_prefix" v="SE"/>
    <tag k="tiger:name_type" v="St"/>
    <tag k="tiger:reviewed" v="no"/>
    <tag k="tiger:separated" v="no"/>
    <tag k="tiger:source" v="tiger_import_dch_v0.6_20070829"/>
    <tag k="tiger:tlid" v="100423566:100416671"/>
    <tag k="tiger:zip_left" v="73110"/>
    <tag k="tiger:zip_right" v="73110"/>
  </way>
  <way id="29100953" version="2" timestamp="2010-04-07T13:14:15Z" uid="20587" user="balrog-kun" changeset="4353646">
    <nd ref="147472184"/>
    <nd ref="320095281"/>
    <nd ref="320095282"/>
    <nd ref="320095283"/>
    <nd ref="147496917"/>
    <nd ref="147432608"/>
    <nd ref="147496920"/>
    <nd ref="320095268"/>
    <nd ref="147449779"/>
    <tag k="created_by" v="Potlatch 0.10f"/>
    <tag k="highway" v="residential"/>
    <tag k="name" v="South Bly Avenue"/>
    <tag k="name_1" v="South Bly Street"/>
    <tag k="tiger:cfcc" v="A41"/>
    <tag k="tiger:county" v="Oklahoma, OK"/>
    <tag k="tiger:name_base" v="Bly"/>
    <tag k="tiger:name_base_1" v="Bly"/>
    <tag k="tiger:name_direction_prefix" v="S"/>
    <tag k="tiger:name_direction_prefix_1" v="S"/>
    <tag k="tiger:name_type" v="Ave"/>
    <tag k="tiger:name_type_1" v="St"/>
    <tag k="tiger:reviewed" v="no"/>
    <tag k="tiger:separated" v="no"/>
    <tag k="tiger:source" v="tiger_import_dch_v0.6_20070829"/>
    <tag k="tiger:tlid" v="100416677:100416675:100416676:100416678"/>
    <tag k="tiger:zip_left" v="73110"/>
    <tag k="tiger:zip_right" v="73110"/>
  </way>
  <way id="29100447" version="10" timestamp="2012-08-27T13:41:58Z" uid="67896" user="mrpulley" changeset="12879486">
    <nd ref="201163450"/>
    <nd ref="703531724"/>
    <nd ref="200806718"/>
    <nd ref="26336577"/>
    <nd ref="703531769"/>
    <nd ref="200803056"/>
    <nd ref="26336576"/>
    <nd ref="26336575"/>
    <nd ref="200684192"/>
    <nd ref="200684194"/>
    <nd ref="200684195"/>
    <nd ref="26336286"/>
    <nd ref="152502065"/>
    <nd ref="152502067"/>
    <nd ref="727312811"/>
    <nd ref="26336285"/>
    <nd ref="26336284"/>
    <nd ref="26336283"/>
    <nd ref="318844134"/>
    <nd ref="152503148"/>
    <nd ref="26336350"/>
    <tag k="highway" v="primary"/>
    <tag k="name" v="Ann Street"/>
    <tag k="network" v="S"/>
    <tag k="oneway" v="yes"/>
    <tag k="ref" v="25"/>
  </way>
  <way id="29100536" version="6" timestamp="2012-07-19T08:11:50Z" uid="722137" user="OSMF Redaction Account" changeset="12313333"/>
  <way id="29100538" version="9" timestamp="2012-07-19T08:11:50Z" uid="722137" user="OSMF Redaction Account" changeset="12313333"/>
  <way id="29100539" version="7" timestamp="2012-07-19T08:11:50Z" uid="722137" user="OSMF Redaction Account" changeset="12313333">
    <nd ref="1463801243"/>
    <nd ref="1463801315"/>
    <tag k="bridge" v="yes"/>
    <tag k="highway" v="tertiary"/>
    <tag k="layer" v="1"/>
    <tag k="surface" v="asphalt"/>
  </way>
  <way id="29100544" version="9" timestamp="2012-07-19T06:50:08Z" uid="722137" user="OSMF Redaction Account" changeset="12310763"/>
  <way id="29100565" version="7" timestamp="2012-07-19T12:47:25Z" uid="722137" user="OSMF Redaction Account" changeset="12326399">
    <nd ref="320092374"/>
    <nd ref="320092375"/>
    <nd ref="320092376"/>
    <nd ref="320092378"/>
    <nd ref="320092379"/>
    <nd ref="320092380"/>
    <nd ref="320092381"/>
    <nd ref="320092382"/>
    <nd ref="320092374"/>
    <tag k="amenity" v="university"/>
    <tag k="name" v="Victoria University (Footscray Nicholson Campus)"/>
  </way>
  <way id="29100590" version="6" timestamp="2012-07-19T04:30:11Z" uid="722137" user="OSMF Redaction Account" changeset="12308187"/>
  <way id="29100596" version="12" timestamp="2012-06-18T14:03:25Z" uid="67896" user="mrpulley" changeset="11937356">
    <nd ref="264834951"/>
    <nd ref="377764049"/>
    <nd ref="377764094"/>
    <nd ref="377764133"/>
    <nd ref="885840839"/>
    <nd ref="293567339"/>
    <nd ref="318039761"/>
    <tag k="alt_name" v="Midland Highway"/>
    <tag k="highway" v="trunk"/>
    <tag k="name" v="Church Street"/>
    <tag k="oneway" v="yes"/>
    <tag k="ref" v="A300"/>
    <tag k="source" v="survey; survey;Yahoo; survey"/>
  </way>
  <way id="29100596" version="13" timestamp="2012-07-19T04:40:43Z" uid="722137" user="OSMF Redaction Account" changeset="12308365">
    <nd ref="377764049"/>
    <nd ref="377764094"/>
    <nd ref="377764133"/>
    <nd ref="885840839"/>
    <tag k="alt_name" v="Midland Highway"/>
    <tag k="name" v="Church Street"/>
  </way>
  <way id="29100596" version="14" timestamp="2012-08-01T08:15:17Z" uid="78837" user="modellerau" changeset="12570986"/>
  <way id="29100620" version="8" timestamp="2012-07-19T08:11:50Z" uid="722137" user="OSMF Redaction Account" changeset="12313333">
    <nd ref="1463789777"/>
    <nd ref="1463813162"/>
    <nd ref="1463813164"/>
    <nd ref="1463813174"/>
    <nd ref="1463813170"/>
    <nd ref="1463813133"/>
    <nd ref="1463813159"/>
    <nd ref="1463813143"/>
    <tag k="surface" v="dirt"/>
  </way>
  <way id="29100628" version="2" timestamp="2012-07-22T04:18:41Z" uid="722137" user="OSMF Redaction Account" changeset="12425249"/>
  <way id="29100629" version="6" timestamp="2012-07-22T04:18:42Z" uid="722137" user="OSMF Redaction Account" changeset="12425249"/>
  <way id="29100630" version="5" timestamp="2012-07-22T04:18:43Z" uid="722137" user="OSMF Redaction Account" changeset="12425249"/>
  <way id="29100631" version="7" timestamp="2012-07-22T04:18:42Z" uid="722137" user="OSMF Redaction Account" changeset="12425249"/>
  <way id="29100632" version="5" timestamp="2012-07-22T04:18:43Z" uid="722137" user="OSMF Redaction Account" changeset="12425249"/>
  <way id="29100633" version="5" timestamp="2012-07-22T04:18:43Z" uid="722137" user="OSMF Redaction Account" changeset="12425249"/>
  <way id="29100634" version="5" timestamp="2012-07-22T04:18:44Z" uid="722137" user="OSMF Redaction Account" changeset="12425249"/>
  <way id="29100635" version="5" timestamp="2012-07-22T04:18:43Z" uid="722137" user="OSMF Redaction Account" changeset="12425249"/>
  <way id="29100636" version="5" timestamp="2012-07-22T04:18:43Z" uid="722137" user="OSMF Redaction Account" changeset="12425249"/>
  <way id="29100637" version="5" timestamp="2012-07-22T04:18:42Z" uid="722137" user="OSMF Redaction Account" changeset="12425249"/>
  <way id="29100638" version="5" timestamp="2012-07-22T04:18:42Z" uid="722137" user="OSMF Redaction Account" changeset="12425249"/>
  <way id="29100640" version="5" timestamp="2012-07-22T04:18:41Z" uid="722137" user="OSMF Redaction Account" changeset="12425249"/>
  <way id="29100791" version="5" timestamp="2012-07-20T02:50:22Z" uid="722137" user="OSMF Redaction Account" changeset="12358683"/>
  <way id="29100796" version="4" timestamp="2012-07-20T02:50:20Z" uid="722137" user="OSMF Redaction Account" changeset="12358683"/>
  <way id="29100893" version="8" timestamp="2012-04-22T10:13:42Z" uid="99800" user="wolfbert" changeset="11382235"/>
  <way id="29100901" version="11" timestamp="2012-07-16T23:37:51Z" uid="722137" user="OSMF Redaction Account" changeset="12253552">
    <nd ref="33471916"/>
    <nd ref="1172293631"/>
    <nd ref="33472241"/>
    <tag k="highway" v="residential"/>
    <tag k="name" v="Feuerbachstraße"/>
    <tag k="oneway" v="yes"/>
    <tag k="source:maxspeed" v="AT:zone:30"/>
  </way>
  <way id="29100901" version="12" timestamp="2012-07-17T15:04:05Z" uid="99800" user="wolfbert" changeset="12267920">
    <nd ref="33471916"/>
    <nd ref="1172293631"/>
    <nd ref="33472241"/>
    <tag k="highway" v="residential"/>
    <tag k="maxspeed" v="30"/>
    <tag k="name" v="Feuerbachstraße"/>
    <tag k="oneway" v="yes"/>
    <tag k="source:maxspeed" v="AT:zone:30"/>
  </way>
  <way id="29100906" version="12" timestamp="2012-07-16T23:37:42Z" uid="722137" user="OSMF Redaction Account" changeset="12253552">
    <nd ref="60627224"/>
    <nd ref="320094879"/>
    <tag k="highway" v="residential"/>
    <tag k="name" v="Schrotzbergstraße"/>
    <tag k="oneway" v="yes"/>
    <tag k="source:maxspeed" v="AT:zone:30"/>
  </way>
  <way id="29100906" version="13" timestamp="2012-07-24T14:08:27Z" uid="99800" user="wolfbert" changeset="12467423">
    <nd ref="60627224"/>
    <nd ref="320094879"/>
    <tag k="highway" v="residential"/>
    <tag k="maxspeed" v="30"/>
    <tag k="name" v="Schrotzbergstraße"/>
    <tag k="oneway" v="yes"/>
    <tag k="source:maxspeed" v="AT:zone:30"/>
  </way>
  <way id="29100928" version="11" timestamp="2012-07-16T23:37:51Z" uid="722137" user="OSMF Redaction Account" changeset="12253552">
    <nd ref="33472241"/>
    <nd ref="33472242"/>
    <tag k="highway" v="residential"/>
    <tag k="name" v="Jungstraße"/>
    <tag k="oneway" v="yes"/>
    <tag k="source:maxspeed" v="AT:zone:30"/>
  </way>
  <way id="29100928" version="12" timestamp="2012-07-17T15:04:05Z" uid="99800" user="wolfbert" changeset="12267920">
    <nd ref="33472241"/>
    <nd ref="33472242"/>
    <tag k="highway" v="residential"/>
    <tag k="maxspeed" v="30"/>
    <tag k="name" v="Jungstraße"/>
    <tag k="oneway" v="yes"/>
    <tag k="source:maxspeed" v="AT:zone:30"/>
  </way>
  <way id="29100934" version="5" timestamp="2012-04-22T10:13:42Z" uid="99800" user="wolfbert" changeset="11382235"/>
  <way id="29100935" version="12" timestamp="2012-07-16T23:37:52Z" uid="722137" user="OSMF Redaction Account" changeset="12253552">
    <nd ref="33471606"/>
    <nd ref="33471924"/>
    <tag k="highway" v="residential"/>
    <tag k="name" v="Ennsgasse"/>
    <tag k="oneway" v="yes"/>
    <tag k="source:maxspeed" v="AT:zone:30"/>
  </way>
  <way id="29100935" version="13" timestamp="2012-07-17T15:04:04Z" uid="99800" user="wolfbert" changeset="12267920">
    <nd ref="33471606"/>
    <nd ref="33471924"/>
    <tag k="highway" v="residential"/>
    <tag k="maxspeed" v="30"/>
    <tag k="name" v="Ennsgasse"/>
    <tag k="oneway" v="yes"/>
    <tag k="source:maxspeed" v="AT:zone:30"/>
  </way>
  <way id="29100953" version="3" timestamp="2012-04-11T22:50:46Z" uid="239998" user="Sundance" changeset="11271175"/>
</osm>
