<?xml version='1.0' encoding='UTF-8'?>
<osm version="0.6" generator="libosmium/2.20.0">
  <way id="29107030" version="5" timestamp="2009-09-30T15:19:08Z" uid="36809" user="pfoten_weg_!_" changeset="2689341">
    <nd ref="320168526"/>
    <nd ref="320168547"/>
    <nd ref="320168548"/>
    <nd ref="320168549"/>
    <nd ref="320168550"/>
    <nd ref="320168551"/>
    <nd ref="320168552"/>
    <tag k="boat" v="no"/>
    <tag k="name" v="Mühlbach"/>
    <tag k="waterway" v="stream"/>
  </way>
  <way id="29107075" version="7" timestamp="2009-04-24T21:09:46Z" uid="36809" user="pfoten_weg_!_" changeset="934110">
    <nd ref="320179982"/>
    <nd ref="320168488"/>
    <nd ref="320168487"/>
    <nd ref="320171951"/>
    <nd ref="320168517"/>
    <nd ref="320168518"/>
    <nd ref="320168519"/>
    <nd ref="320168520"/>
    <nd ref="320168521"/>
    <nd ref="320168522"/>
    <nd ref="320168523"/>
    <nd ref="320168524"/>
    <nd ref="320168525"/>
    <nd ref="320168526"/>
    <nd ref="320168527"/>
    <nd ref="320168528"/>
    <nd ref="320168529"/>
    <nd ref="320168530"/>
    <nd ref="320170527"/>
    <nd ref="320171219"/>
    <nd ref="320170526"/>
    <nd ref="320170384"/>
    <nd ref="320168536"/>
    <nd ref="320168537"/>
    <nd ref="320168538"/>
    <nd ref="320168539"/>
    <nd ref="320168541"/>
    <nd ref="320168542"/>
    <nd ref="320168543"/>
    <nd ref="320168544"/>
    <tag k="boat" v="no"/>
    <tag k="created_by" v="RambaZamba"/>
    <tag k="layer" v="-1"/>
    <tag k="name" v="Mühlbach"/>
    <tag k="source" v="survey"/>
    <tag k="waterway" v="stream"/>
  </way>
  <way id="29107075" version="8" timestamp="2009-05-03T15:29:36Z" uid="36599" user="horstelix" changeset="1063038">
    <nd ref="320179982"/>
    <nd ref="320168488"/>
    <nd ref="320168487"/>
    <nd ref="320171951"/>
    <nd ref="320168517"/>
    <nd ref="320168518"/>
    <nd ref="320168519"/>
    <nd ref="320168520"/>
    <nd ref="320168521"/>
    <nd ref="320168522"/>
    <nd ref="320168523"/>
    <nd ref="320168524"/>
    <nd ref="320168525"/>
    <nd ref="320168526"/>
    <nd ref="320168527"/>
    <nd ref="320168528"/>
    <nd ref="320168529"/>
    <nd ref="320168530"/>
    <nd ref="389752710"/>
    <nd ref="320170527"/>
    <nd ref="320171219"/>
    <nd ref="320170526"/>
    <nd ref="320170384"/>
    <nd ref="320168536"/>
    <nd ref="320168537"/>
    <nd ref="320168538"/>
    <nd ref="320168539"/>
    <nd ref="320168541"/>
    <nd ref="320168542"/>
    <nd ref="320168543"/>
    <nd ref="320168544"/>
    <tag k="boat" v="no"/>
    <tag k="created_by" v="RambaZamba"/>
    <tag k="layer" v="-1"/>
    <tag k="name" v="Mühlbach"/>
    <tag k="source" v="survey"/>
    <tag k="waterway" v="stream"/>
  </way>
  <way id="29107075" version="9" timestamp="2009-08-24T23:18:26Z" uid="36809" user="pfoten_weg_!_" changeset="2251012">
    <nd ref="320179982"/>
    <nd ref="320168488"/>
    <nd ref="320168487"/>
    <nd ref="320171951"/>
    <nd ref="320168517"/>
    <nd ref="320168518"/>
    <nd ref="320168519"/>
    <nd ref="320168520"/>
    <nd ref="320168521"/>
    <nd ref="320168522"/>
    <nd ref="320168523"/>
    <nd ref="320168524"/>
    <nd ref="320168525"/>
    <nd ref="320168526"/>
    <nd ref="320168527"/>
    <nd ref="320168528"/>
    <nd ref="320168529"/>
    <nd ref="320168530"/>
    <nd ref="389752710"/>
    <nd ref="320170527"/>
    <nd ref="320171219"/>
    <nd ref="320170526"/>
    <nd ref="320170384"/>
    <nd ref="320168536"/>
    <nd ref="320168537"/>
    <nd ref="320168538"/>
    <nd ref="320168539"/>
    <nd ref="320168541"/>
    <nd ref="320168542"/>
    <nd ref="320168543"/>
    <nd ref="320168544"/>
    <tag k="boat" v="no"/>
    <tag k="layer" v="-1"/>
    <tag k="name" v="Mühlbach"/>
    <tag k="source" v="survey"/>
    <tag k="waterway" v="stream"/>
  </way>
  <way id="29107075" version="10" timestamp="2009-10-02T19:25:58Z" uid="86259" user="hasse_osm_korinthenkacker" changeset="2716617">
    <nd ref="320179982"/>
    <nd ref="320168488"/>
    <nd ref="320168487"/>
    <nd ref="320171951"/>
    <nd ref="320168517"/>
    <nd ref="320168518"/>
    <nd ref="320168519"/>
    <nd ref="320168520"/>
    <nd ref="320168521"/>
    <nd ref="320168522"/>
    <nd ref="320168523"/>
    <nd ref="320168524"/>
    <nd ref="320168525"/>
    <nd ref="320168526"/>
    <nd ref="320168527"/>
    <nd ref="320168528"/>
    <nd ref="320168529"/>
    <nd ref="320168530"/>
    <nd ref="389752710"/>
    <nd ref="320170527"/>
    <nd ref="320171219"/>
    <nd ref="320170526"/>
    <nd ref="320170384"/>
    <nd ref="320168536"/>
    <nd ref="320168537"/>
    <nd ref="320168538"/>
    <nd ref="320168539"/>
    <nd ref="320168541"/>
    <nd ref="320168542"/>
    <nd ref="320168543"/>
    <nd ref="320168544"/>
    <tag k="boat" v="no"/>
    <tag k="layer" v="-1"/>
    <tag k="name" v="Mühlbach"/>
    <tag k="waterway" v="stream"/>
  </way>
  <way id="29107100" version="1" timestamp="2008-12-20T13:55:06Z" uid="58091" user="Andreas M" changeset="504586">
    <nd ref="320170220"/>
    <nd ref="320170222"/>
    <tag k="highway" v="residential"/>
    <tag k="name" v="Hubertusweg"/>
  </way>
  <way id="29107101" version="1" timestamp="2008-12-20T13:55:06Z" uid="58091" user="Andreas M" changeset="504586">
    <nd ref="320170224"/>
    <nd ref="320170226"/>
    <nd ref="291196030"/>
    <tag k="highway" v="residential"/>
    <tag k="name" v="Klosterbergweg"/>
  </way>
  <way id="29107164" version="5" timestamp="2009-10-19T18:51:00Z" uid="36809" user="pfoten_weg_!_" changeset="2897310">
    <nd ref="18447893"/>
    <nd ref="18379366"/>
    <nd ref="18446461"/>
    <tag k="highway" v="secondary"/>
    <tag k="name" v="Otterfinger Straße"/>
    <tag k="ref" v="TÖL 11"/>
  </way>
  <way id="29107164" version="6" timestamp="2010-05-23T17:56:15Z" uid="8748" user="ToniE" changeset="4785723">
    <nd ref="18447893"/>
    <nd ref="18379366"/>
    <nd ref="18446461"/>
    <tag k="highway" v="secondary"/>
    <tag k="name" v="Otterfinger Straße"/>
    <tag k="ref" v="TÖL 11"/>
    <tag k="smoothness" v="good"/>
    <tag k="surface" v="asphalt"/>
  </way>
  <way id="29107164" version="7" timestamp="2010-06-05T06:29:52Z" uid="290723" user="sulagaloh" changeset="4906274">
    <nd ref="18447893"/>
    <nd ref="18379366"/>
    <nd ref="764860063"/>
    <nd ref="18446461"/>
    <tag k="highway" v="secondary"/>
    <tag k="name" v="Otterfinger Straße"/>
    <tag k="ref" v="TÖL 11"/>
    <tag k="smoothness" v="good"/>
    <tag k="surface" v="asphalt"/>
  </way>
  <way id="29107164" version="8" timestamp="2010-12-01T19:28:32Z" uid="42393" user="mawi42" changeset="6507383">
    <nd ref="18447893"/>
    <nd ref="18379366"/>
    <nd ref="764860063"/>
    <nd ref="1014924029"/>
    <nd ref="18446461"/>
    <tag k="highway" v="secondary"/>
    <tag k="name" v="Otterfinger Straße"/>
    <tag k="ref" v="TÖL 11"/>
    <tag k="smoothness" v="good"/>
    <tag k="surface" v="asphalt"/>
  </way>
  <way id="29107165" version="1" timestamp="2008-12-20T14:02:53Z" uid="58091" user="Andreas M" changeset="504586">
    <nd ref="685166"/>
    <nd ref="247630175"/>
    <nd ref="256759895"/>
    <tag k="created_by" v="Potlatch 0.7b"/>
    <tag k="highway" v="secondary"/>
    <tag k="is_in" v="Austria, Europe,Vienna,Wien"/>
    <tag k="name" v="Hernalser Hauptstraße"/>
    <tag k="source" v="yahoo"/>
  </way>
  <way id="29107165" version="2" timestamp="2009-01-03T14:09:26Z" uid="58091" user="Andreas M" changeset="721411">
    <nd ref="685166"/>
    <nd ref="247630175"/>
    <nd ref="256759895"/>
    <tag k="created_by" v="Potlatch 0.7b"/>
    <tag k="highway" v="secondary"/>
    <tag k="is_in" v="Austria, Europe,Vienna,Wien"/>
    <tag k="name" v="Hernalser Hauptstraße"/>
    <tag k="railway" v="tram"/>
    <tag k="source" v="yahoo"/>
  </way>
  <way id="29107165" version="3" timestamp="2009-03-11T18:05:50Z" uid="104047" user="e9426086" changeset="786884">
    <nd ref="685166"/>
    <nd ref="247630175"/>
    <nd ref="256759895"/>
    <tag k="created_by" v="Potlatch 0.10f"/>
    <tag k="highway" v="secondary"/>
    <tag k="is_in" v="Austria, Europe,Vienna,Wien"/>
    <tag k="maxspeed" v="50"/>
    <tag k="name" v="Hernalser Hauptstraße"/>
    <tag k="railway" v="tram"/>
    <tag k="source" v="yahoo"/>
  </way>
  <way id="29107165" version="4" timestamp="2010-04-18T19:59:06Z" uid="129531" user="almich" changeset="4462273">
    <nd ref="685166"/>
    <nd ref="247630175"/>
    <nd ref="256759895"/>
    <tag k="gauge" v="1435"/>
    <tag k="highway" v="secondary"/>
    <tag k="is_in" v="Austria, Europe,Vienna,Wien"/>
    <tag k="maxspeed" v="50"/>
    <tag k="name" v="Hernalser Hauptstraße"/>
    <tag k="railway" v="tram"/>
    <tag k="source" v="yahoo"/>
  </way>
  <way id="29107165" version="5" timestamp="2010-04-18T20:24:06Z" uid="129531" user="almich" changeset="4462598">
    <nd ref="685166"/>
    <nd ref="247630175"/>
    <nd ref="256759895"/>
    <tag k="electrified" v="contact_line"/>
    <tag k="frequency" v="0"/>
    <tag k="gauge" v="1435"/>
    <tag k="highway" v="secondary"/>
    <tag k="is_in" v="Austria, Europe,Vienna,Wien"/>
    <tag k="maxspeed" v="50"/>
    <tag k="name" v="Hernalser Hauptstraße"/>
    <tag k="railway" v="tram"/>
    <tag k="source" v="yahoo"/>
  </way>
  <way id="29107165" version="6" timestamp="2010-09-13T20:11:43Z" uid="129531" user="almich" changeset="5773276">
    <nd ref="685166"/>
    <nd ref="247630175"/>
    <nd ref="256759895"/>
    <tag k="electrified" v="contact_line"/>
    <tag k="frequency" v="0"/>
    <tag k="gauge" v="1435"/>
    <tag k="highway" v="secondary"/>
    <tag k="is_in" v="Austria, Europe,Vienna,Wien"/>
    <tag k="maxspeed" v="50"/>
    <tag k="name" v="Hernalser Hauptstraße"/>
    <tag k="railway" v="tram"/>
    <tag k="source" v="yahoo"/>
    <tag k="tracks" v="2"/>
  </way>
  <way id="29107165" version="7" timestamp="2011-11-08T00:00:14Z" uid="129531" user="almich" changeset="9770029">
    <nd ref="685166"/>
    <nd ref="247630175"/>
    <nd ref="256759895"/>
    <tag k="electrified" v="contact_line"/>
    <tag k="frequency" v="0"/>
    <tag k="gauge" v="1435"/>
    <tag k="highway" v="secondary"/>
    <tag k="is_in" v="Austria, Europe,Vienna,Wien"/>
    <tag k="maxspeed" v="50"/>
    <tag k="name" v="Hernalser Hauptstraße"/>
    <tag k="railway" v="tram"/>
    <tag k="source" v="yahoo"/>
    <tag k="tracks" v="2"/>
    <tag k="voltage" v="600"/>
  </way>
  <way id="29107165" version="8" timestamp="2011-11-27T21:33:50Z" uid="104947" user="My Friend" changeset="9972335">
    <nd ref="685166"/>
    <nd ref="1520281757"/>
    <nd ref="1520281764"/>
    <nd ref="247630175"/>
    <nd ref="256759895"/>
    <tag k="electrified" v="contact_line"/>
    <tag k="frequency" v="0"/>
    <tag k="gauge" v="1435"/>
    <tag k="highway" v="secondary"/>
    <tag k="is_in" v="Austria, Europe,Vienna,Wien"/>
    <tag k="maxspeed" v="50"/>
    <tag k="name" v="Hernalser Hauptstraße"/>
    <tag k="railway" v="tram"/>
    <tag k="source" v="yahoo"/>
    <tag k="tracks" v="2"/>
    <tag k="voltage" v="600"/>
  </way>
  <way id="29107165" version="9" timestamp="2011-12-14T17:50:27Z" uid="129531" user="almich" changeset="10117923">
    <nd ref="685166"/>
    <nd ref="1520281757"/>
    <nd ref="1520281764"/>
    <tag k="electrified" v="contact_line"/>
    <tag k="frequency" v="0"/>
    <tag k="gauge" v="1435"/>
    <tag k="highway" v="secondary"/>
    <tag k="is_in" v="Austria, Europe,Vienna,Wien"/>
    <tag k="maxspeed" v="50"/>
    <tag k="name" v="Hernalser Hauptstraße"/>
    <tag k="railway" v="tram"/>
    <tag k="source" v="yahoo"/>
    <tag k="tracks" v="2"/>
    <tag k="voltage" v="600"/>
  </way>
  <way id="29107165" version="10" timestamp="2012-02-04T22:54:21Z" uid="129531" user="almich" changeset="10589383"/>
  <way id="29107166" version="1" timestamp="2008-12-20T14:02:54Z" uid="58091" user="Andreas M" changeset="504586">
    <nd ref="320173264"/>
    <nd ref="320173266"/>
    <tag k="highway" v="residential"/>
    <tag k="name" v="Kindermanngasse"/>
  </way>
  <way id="29107166" version="2" timestamp="2009-03-13T05:49:43Z" uid="104047" user="e9426086" changeset="799098">
    <nd ref="320173264"/>
    <nd ref="320173266"/>
    <tag k="created_by" v="Potlatch 0.10f"/>
    <tag k="highway" v="footway"/>
    <tag k="name" v="Kindermanngasse"/>
  </way>
  <way id="29107166" version="3" timestamp="2009-03-13T15:28:49Z" uid="104047" user="e9426086" changeset="799681">
    <nd ref="320173264"/>
    <nd ref="320173266"/>
    <tag k="created_by" v="Potlatch 0.10f"/>
    <tag k="highway" v="pedestrian"/>
    <tag k="name" v="Kindermanngasse"/>
  </way>
  <way id="29107166" version="4" timestamp="2012-02-12T20:42:13Z" uid="129531" user="almich" changeset="10667964">
    <nd ref="1630416826"/>
    <nd ref="320173266"/>
    <tag k="highway" v="pedestrian"/>
    <tag k="name" v="Kindermanngasse"/>
  </way>
  <way id="29107167" version="1" timestamp="2008-12-20T14:02:54Z" uid="58091" user="Andreas M" changeset="504586">
    <nd ref="320173267"/>
    <nd ref="320173266"/>
    <nd ref="320173269"/>
    <tag k="highway" v="residential"/>
    <tag k="name" v="St.-Bartholomäus-Platz"/>
  </way>
  <way id="29107168" version="1" timestamp="2008-12-20T14:02:54Z" uid="58091" user="Andreas M" changeset="504586">
    <nd ref="33144900"/>
    <nd ref="33144920"/>
    <nd ref="264056023"/>
    <nd ref="264060498"/>
    <tag k="created_by" v="Potlatch 0.9a"/>
    <tag k="highway" v="residential"/>
    <tag k="name" v="Kalvarienberggasse"/>
    <tag k="source" v="yahoo"/>
  </way>
  <way id="29107168" version="2" timestamp="2009-01-12T10:30:16Z" uid="54806" user="_al" changeset="776320">
    <nd ref="33144900"/>
    <nd ref="264056023"/>
    <nd ref="264060498"/>
    <tag k="created_by" v="Potlatch 0.10f"/>
    <tag k="highway" v="residential"/>
    <tag k="name" v="Kalvarienberggasse"/>
    <tag k="source" v="yahoo"/>
  </way>
  <way id="29107168" version="3" timestamp="2010-03-01T10:59:36Z" uid="104576" user="gernotw" changeset="4007535">
    <nd ref="33144900"/>
    <nd ref="264056023"/>
    <nd ref="264060498"/>
    <tag k="highway" v="residential"/>
    <tag k="name" v="Haberlgasse"/>
    <tag k="oneway" v="yes"/>
    <tag k="source" v="yahoo"/>
  </way>
  <way id="29107181" version="3" timestamp="2009-02-16T09:02:27Z" uid="9581" user="Lobelt" changeset="476707"/>
  <way id="29107224" version="4" timestamp="2009-10-19T18:51:51Z" uid="36809" user="pfoten_weg_!_" changeset="2897310">
    <nd ref="18446461"/>
    <nd ref="442927951"/>
    <nd ref="300626391"/>
    <nd ref="442927955"/>
    <nd ref="300626393"/>
    <nd ref="289174268"/>
    <nd ref="18447875"/>
    <tag k="highway" v="secondary"/>
    <tag k="name" v="Otterfinger Straße"/>
    <tag k="ref" v="TÖL 9"/>
  </way>
  <way id="29107224" version="5" timestamp="2010-05-23T17:56:33Z" uid="8748" user="ToniE" changeset="4785723">
    <nd ref="18446461"/>
    <nd ref="442927951"/>
    <nd ref="300626391"/>
    <nd ref="442927955"/>
    <nd ref="300626393"/>
    <nd ref="289174268"/>
    <nd ref="18447875"/>
    <tag k="highway" v="secondary"/>
    <tag k="name" v="Otterfinger Straße"/>
    <tag k="ref" v="TÖL 9"/>
    <tag k="smoothness" v="good"/>
    <tag k="surface" v="asphalt"/>
  </way>
  <way id="29107224" version="6" timestamp="2010-06-23T10:13:44Z" uid="42393" user="mawi42" changeset="5057687">
    <nd ref="18446461"/>
    <nd ref="442927951"/>
    <nd ref="300626391"/>
    <nd ref="442927955"/>
    <nd ref="300626393"/>
    <nd ref="783946506"/>
    <nd ref="289174268"/>
    <nd ref="18447875"/>
    <tag k="highway" v="secondary"/>
    <tag k="name" v="Otterfinger Straße"/>
    <tag k="ref" v="TÖL 9"/>
    <tag k="smoothness" v="good"/>
    <tag k="surface" v="asphalt"/>
  </way>
  <way id="29107224" version="7" timestamp="2010-12-01T19:08:03Z" uid="42393" user="mawi42" changeset="6506891">
    <nd ref="18446461"/>
    <nd ref="442927951"/>
    <nd ref="300626391"/>
    <nd ref="1014905889"/>
    <nd ref="442927955"/>
    <nd ref="300626393"/>
    <nd ref="783946506"/>
    <nd ref="289174268"/>
    <nd ref="18447875"/>
    <tag k="highway" v="secondary"/>
    <tag k="name" v="Otterfinger Straße"/>
    <tag k="ref" v="TÖL 9"/>
    <tag k="smoothness" v="good"/>
    <tag k="surface" v="asphalt"/>
  </way>
  <way id="29107309" version="2" timestamp="2009-08-24T23:17:59Z" uid="36809" user="pfoten_weg_!_" changeset="2251012">
    <nd ref="320175665"/>
    <nd ref="320175777"/>
    <nd ref="320175778"/>
    <nd ref="320175779"/>
    <nd ref="320175780"/>
    <nd ref="320175781"/>
    <nd ref="320175782"/>
    <tag k="discovered_by" v="RambaZamba"/>
    <tag k="foot" v="yes"/>
    <tag k="highway" v="footway"/>
  </way>
  <way id="29107309" version="3" timestamp="2009-08-28T20:03:58Z" uid="156995" user="HampelZamba" changeset="2294580">
    <nd ref="320175665"/>
    <nd ref="320175777"/>
    <nd ref="320175778"/>
    <nd ref="320175779"/>
    <nd ref="320175780"/>
    <nd ref="320175781"/>
    <nd ref="320175782"/>
    <tag k="foot" v="yes"/>
    <tag k="highway" v="footway"/>
  </way>
  <way id="29107309" version="4" timestamp="2009-09-01T12:14:50Z" uid="36809" user="pfoten_weg_!_" changeset="2336869">
    <nd ref="320175665"/>
    <nd ref="320175777"/>
    <nd ref="320175778"/>
    <nd ref="320175779"/>
    <nd ref="320175780"/>
    <nd ref="320175781"/>
    <nd ref="320175782"/>
    <tag k="foot" v="yes"/>
    <tag k="highway" v="footway"/>
  </way>
  <way id="29107309" version="5" timestamp="2011-04-05T22:52:32Z" uid="344972" user="osralimto" changeset="7780174">
    <nd ref="320175665"/>
    <nd ref="320175777"/>
    <nd ref="320175778"/>
    <nd ref="320175779"/>
    <nd ref="320175780"/>
    <nd ref="320175781"/>
    <nd ref="320175782"/>
    <tag k="access" v="yes"/>
    <tag k="foot" v="yes"/>
    <tag k="highway" v="footway"/>
    <tag k="horse" v="no"/>
    <tag k="motor_vehicle" v="no"/>
  </way>
  <way id="29107316" version="1" timestamp="2008-12-20T14:10:30Z" uid="7617" user="Franc" changeset="496725">
    <nd ref="320175783"/>
    <nd ref="320175784"/>
    <nd ref="320175795"/>
    <nd ref="320175785"/>
    <nd ref="320175786"/>
    <tag k="highway" v="track"/>
    <tag k="source" v="survey"/>
  </way>
  <way id="29107316" version="2" timestamp="2012-02-29T10:38:58Z" uid="7523" user="inas" changeset="10826611"/>
  <way id="29107319" version="1" timestamp="2008-12-20T14:10:31Z" uid="7617" user="Franc" changeset="496725">
    <nd ref="320175787"/>
    <nd ref="320175791"/>
    <nd ref="320175792"/>
    <nd ref="320175793"/>
    <nd ref="320175794"/>
    <nd ref="320175787"/>
    <tag k="amenity" v="parking"/>
  </way>
  <way id="29107319" version="2" timestamp="2012-02-29T10:38:59Z" uid="7523" user="inas" changeset="10826611"/>
  <way id="29107320" version="1" timestamp="2008-12-20T14:10:32Z" uid="7617" user="Franc" changeset="496725">
    <nd ref="320175796"/>
    <nd ref="320175808"/>
    <nd ref="320175798"/>
    <nd ref="320175800"/>
    <nd ref="320175809"/>
    <nd ref="320175810"/>
    <nd ref="320175802"/>
    <nd ref="320175803"/>
    <nd ref="320175807"/>
    <nd ref="320175796"/>
    <tag k="leisure" v="pitch"/>
    <tag k="source" v="yahoo_imagery"/>
    <tag k="source:sport" v="survey"/>
    <tag k="sport" v="baseball"/>
  </way>
  <way id="29107320" version="2" timestamp="2012-02-29T10:38:59Z" uid="7523" user="inas" changeset="10826611"/>
  <way id="29107321" version="1" timestamp="2008-12-20T14:10:33Z" uid="7617" user="Franc" changeset="496725">
    <nd ref="320175812"/>
    <nd ref="320175813"/>
    <nd ref="320175814"/>
    <nd ref="320175815"/>
    <nd ref="320175812"/>
    <tag k="amenity" v="parking"/>
  </way>
  <way id="29107321" version="2" timestamp="2012-03-01T09:50:33Z" uid="7523" user="inas" changeset="10835906"/>
  <way id="29107322" version="1" timestamp="2008-12-20T14:10:34Z" uid="7617" user="Franc" changeset="496725">
    <nd ref="320175816"/>
    <nd ref="320175817"/>
    <tag k="highway" v="service"/>
    <tag k="oneway" v="yes"/>
  </way>
  <way id="29107322" version="2" timestamp="2012-03-01T09:50:32Z" uid="7523" user="inas" changeset="10835906"/>
  <way id="29107324" version="1" timestamp="2008-12-20T14:10:34Z" uid="7617" user="Franc" changeset="496725">
    <nd ref="320175818"/>
    <nd ref="320175820"/>
    <tag k="highway" v="service"/>
    <tag k="oneway" v="yes"/>
  </way>
  <way id="29107324" version="2" timestamp="2012-03-01T09:50:32Z" uid="7523" user="inas" changeset="10835906"/>
  <way id="29107325" version="1" timestamp="2008-12-20T14:10:35Z" uid="7617" user="Franc" changeset="496725">
    <nd ref="320175821"/>
    <nd ref="320175822"/>
    <nd ref="320175823"/>
    <nd ref="320175824"/>
    <nd ref="320175821"/>
    <tag k="addr:city" v="Maroubra"/>
    <tag k="addr:housenumber" v="15"/>
    <tag k="addr:street" v="Duncan Street"/>
    <tag k="building" v="units"/>
    <tag k="source" v="yahoo_imagery"/>
    <tag k="source:number" v="survey"/>
  </way>
  <way id="29107326" version="1" timestamp="2008-12-20T14:10:36Z" uid="7617" user="Franc" changeset="496725">
    <nd ref="320175828"/>
    <nd ref="320175825"/>
    <nd ref="320175826"/>
    <nd ref="320175827"/>
    <nd ref="320175828"/>
    <tag k="addr:city" v="Maroubra"/>
    <tag k="addr:housenumber" v="17"/>
    <tag k="addr:street" v="Duncan Street"/>
    <tag k="building" v="units"/>
    <tag k="source" v="yahoo_imagery"/>
    <tag k="source:number" v="survey"/>
  </way>
  <way id="29107327" version="1" timestamp="2008-12-20T14:10:37Z" uid="7617" user="Franc" changeset="496725">
    <nd ref="320175850"/>
    <nd ref="320175849"/>
    <nd ref="320175851"/>
    <nd ref="320175848"/>
    <nd ref="320175850"/>
    <tag k="addr:city" v="Maroubra"/>
    <tag k="addr:housenumber" v="19"/>
    <tag k="addr:street" v="Duncan Street"/>
    <tag k="building" v="units"/>
    <tag k="source" v="yahoo_imagery"/>
    <tag k="source:number" v="survey"/>
  </way>
  <way id="29107328" version="1" timestamp="2008-12-20T14:10:38Z" uid="7617" user="Franc" changeset="496725">
    <nd ref="320175852"/>
    <nd ref="320175854"/>
    <nd ref="320175853"/>
    <nd ref="320175855"/>
    <nd ref="320175852"/>
    <tag k="addr:city" v="Maroubra"/>
    <tag k="addr:housenumber" v="23"/>
    <tag k="addr:street" v="Duncan Street"/>
    <tag k="building" v="units"/>
    <tag k="source" v="yahoo_imagery"/>
    <tag k="source:number" v="survey"/>
  </way>
  <way id="29107328" version="2" timestamp="2009-11-25T10:57:19Z" uid="7617" user="Franc" changeset="3211095">
    <nd ref="320175852"/>
    <nd ref="570712701"/>
    <nd ref="570712703"/>
    <nd ref="570712704"/>
    <nd ref="570712702"/>
    <nd ref="320175854"/>
    <nd ref="320175853"/>
    <nd ref="320175855"/>
    <nd ref="320175852"/>
    <tag k="addr:city" v="Maroubra"/>
    <tag k="addr:housenumber" v="23"/>
    <tag k="addr:street" v="Duncan Street"/>
    <tag k="building" v="units"/>
    <tag k="source" v="yahoo_imagery"/>
    <tag k="source:number" v="survey"/>
  </way>
  <way id="29107329" version="1" timestamp="2008-12-20T14:10:38Z" uid="7617" user="Franc" changeset="496725">
    <nd ref="320175857"/>
    <nd ref="320175856"/>
    <nd ref="320175859"/>
    <nd ref="320175858"/>
    <nd ref="320175857"/>
    <tag k="addr:city" v="Maroubra"/>
    <tag k="addr:housenumber" v="25"/>
    <tag k="addr:street" v="Duncan Street"/>
    <tag k="building" v="units"/>
    <tag k="source" v="yahoo_imagery"/>
    <tag k="source:number" v="survey"/>
  </way>
  <way id="29107330" version="1" timestamp="2008-12-20T14:10:39Z" uid="7617" user="Franc" changeset="496725">
    <nd ref="320175860"/>
    <nd ref="320175861"/>
    <nd ref="320175862"/>
    <nd ref="320175863"/>
    <nd ref="320175860"/>
    <tag k="addr:city" v="Maroubra"/>
    <tag k="addr:housenumber" v="27"/>
    <tag k="addr:street" v="Duncan Street"/>
    <tag k="building" v="house"/>
    <tag k="source" v="yahoo_imagery"/>
    <tag k="source:number" v="survey"/>
  </way>
  <way id="29107332" version="1" timestamp="2008-12-20T14:10:41Z" uid="7617" user="Franc" changeset="496725">
    <nd ref="320175869"/>
    <nd ref="320175864"/>
    <nd ref="320175877"/>
    <nd ref="320175865"/>
    <nd ref="320175869"/>
    <tag k="addr:city" v="Maroubra"/>
    <tag k="addr:housenumber" v="27"/>
    <tag k="addr:street" v="Duncan Street"/>
    <tag k="building" v="house"/>
    <tag k="source" v="yahoo_imagery"/>
    <tag k="source:number" v="survey"/>
  </way>
  <way id="29107332" version="2" timestamp="2009-11-25T10:57:22Z" uid="7617" user="Franc" changeset="3211095">
    <nd ref="320175869"/>
    <nd ref="320175864"/>
    <nd ref="570712613"/>
    <nd ref="570712604"/>
    <nd ref="320175877"/>
    <nd ref="320175865"/>
    <nd ref="320175869"/>
    <tag k="addr:city" v="Maroubra"/>
    <tag k="addr:housenumber" v="27"/>
    <tag k="addr:street" v="Duncan Street"/>
    <tag k="building" v="house"/>
    <tag k="source" v="yahoo_imagery"/>
    <tag k="source:number" v="survey"/>
  </way>
  <way id="29107333" version="1" timestamp="2008-12-20T14:10:42Z" uid="7617" user="Franc" changeset="496725">
    <nd ref="320175878"/>
    <nd ref="320175879"/>
    <nd ref="320175884"/>
    <nd ref="320175880"/>
    <nd ref="320175878"/>
    <tag k="addr:city" v="Maroubra"/>
    <tag k="addr:housenumber" v="2"/>
    <tag k="addr:street" v="Bond Street"/>
    <tag k="building" v="house"/>
    <tag k="source" v="yahoo_imagery"/>
    <tag k="source:number" v="survey"/>
  </way>
  <way id="29107333" version="2" timestamp="2009-11-25T10:57:22Z" uid="7617" user="Franc" changeset="3211095">
    <nd ref="320175878"/>
    <nd ref="570712617"/>
    <nd ref="570712615"/>
    <nd ref="320175879"/>
    <nd ref="320175884"/>
    <nd ref="570712608"/>
    <nd ref="570712606"/>
    <nd ref="320175880"/>
    <nd ref="320175878"/>
    <tag k="addr:city" v="Maroubra"/>
    <tag k="addr:housenumber" v="2"/>
    <tag k="addr:street" v="Bond Street"/>
    <tag k="building" v="house"/>
    <tag k="source" v="yahoo_imagery"/>
    <tag k="source:number" v="survey"/>
  </way>
  <way id="29107334" version="1" timestamp="2008-12-20T14:10:43Z" uid="7617" user="Franc" changeset="496725">
    <nd ref="320175898"/>
    <nd ref="320175893"/>
    <nd ref="320175889"/>
    <nd ref="320175901"/>
    <nd ref="320175898"/>
    <tag k="addr:city" v="Maroubra"/>
    <tag k="addr:housenumber" v="1"/>
    <tag k="addr:street" v="Sackville Street"/>
    <tag k="building" v="house"/>
    <tag k="source" v="yahoo_imagery"/>
    <tag k="source:number" v="survey"/>
  </way>
  <way id="29107334" version="2" timestamp="2010-10-19T13:00:54Z" uid="7617" user="Franc" changeset="6098994">
    <nd ref="320175898"/>
    <nd ref="320175893"/>
    <nd ref="320175889"/>
    <nd ref="320175901"/>
    <nd ref="320175898"/>
    <tag k="building" v="house"/>
    <tag k="source" v="yahoo_imagery"/>
  </way>
  <way id="29107336" version="1" timestamp="2008-12-20T14:10:50Z" uid="58091" user="Andreas M" changeset="504586">
    <nd ref="68176190"/>
    <nd ref="320175912"/>
    <nd ref="320175913"/>
    <nd ref="320175914"/>
    <nd ref="320175916"/>
    <tag k="highway" v="footway"/>
    <tag k="name" v="Leyßgasse"/>
  </way>
  <way id="29107336" version="2" timestamp="2009-06-12T10:52:55Z" uid="56986" user="alice23" changeset="1495314">
    <nd ref="68176190"/>
    <nd ref="320175912"/>
    <nd ref="320175913"/>
    <nd ref="320175914"/>
    <tag k="highway" v="footway"/>
    <tag k="name" v="Leyßgasse"/>
  </way>
  <way id="29107336" version="3" timestamp="2011-10-24T17:38:22Z" uid="473925" user="caigner" changeset="9645562">
    <nd ref="68176190"/>
    <nd ref="1479280858"/>
    <nd ref="320175912"/>
    <nd ref="320175913"/>
    <nd ref="320175914"/>
    <tag k="highway" v="footway"/>
    <tag k="name" v="Leyßgasse"/>
  </way>
  <way id="29107344" version="2" timestamp="2009-08-24T23:18:09Z" uid="36809" user="pfoten_weg_!_" changeset="2251012">
    <nd ref="320175778"/>
    <nd ref="277441762"/>
    <tag k="discovered_by" v="RambaZamba"/>
    <tag k="foot" v="yes"/>
    <tag k="highway" v="steps"/>
  </way>
  <way id="29107344" version="3" timestamp="2009-08-28T20:03:58Z" uid="156995" user="HampelZamba" changeset="2294580">
    <nd ref="320175778"/>
    <nd ref="277441762"/>
    <tag k="foot" v="yes"/>
    <tag k="highway" v="steps"/>
  </way>
  <way id="29107344" version="4" timestamp="2009-09-01T12:15:07Z" uid="36809" user="pfoten_weg_!_" changeset="2336869">
    <nd ref="320175778"/>
    <nd ref="277441762"/>
    <tag k="foot" v="yes"/>
    <tag k="highway" v="steps"/>
  </way>
  <way id="29107344" version="5" timestamp="2011-04-05T22:51:59Z" uid="344972" user="osralimto" changeset="7780174">
    <nd ref="320175778"/>
    <nd ref="277441762"/>
    <tag k="access" v="yes"/>
    <tag k="foot" v="yes"/>
    <tag k="highway" v="steps"/>
    <tag k="horse" v="no"/>
    <tag k="motor_vehicle" v="no"/>
  </way>
  <way id="29107356" version="4" timestamp="2009-09-30T15:19:46Z" uid="36809" user="pfoten_weg_!_" changeset="2689341">
    <nd ref="320176489"/>
    <nd ref="320176582"/>
    <tag k="foot" v="yes"/>
    <tag k="highway" v="steps"/>
  </way>
  <way id="29107359" version="4" timestamp="2009-09-30T15:19:45Z" uid="36809" user="pfoten_weg_!_" changeset="2689341">
    <nd ref="320176582"/>
    <nd ref="320176595"/>
    <tag k="foot" v="yes"/>
    <tag k="highway" v="footway"/>
  </way>
  <way id="29107364" version="3" timestamp="2009-09-30T15:19:48Z" uid="36809" user="pfoten_weg_!_" changeset="2689341">
    <nd ref="320176595"/>
    <nd ref="320176662"/>
    <nd ref="320176663"/>
    <nd ref="320176664"/>
    <tag k="highway" v="residential"/>
    <tag k="name" v="Dr.-Ehrengut-Weg"/>
  </way>
  <way id="29107368" version="1" timestamp="2008-12-20T14:13:11Z" uid="58091" user="Andreas M" changeset="504586">
    <nd ref="320176687"/>
    <nd ref="320176688"/>
    <tag k="highway" v="residential"/>
    <tag k="name" v="Marienweg"/>
  </way>
  <way id="29107373" version="8" timestamp="2009-02-16T08:58:35Z" uid="9581" user="Lobelt" changeset="476707">
    <nd ref="33027575"/>
    <nd ref="33027574"/>
    <nd ref="33027573"/>
    <nd ref="33027572"/>
    <nd ref="33027571"/>
    <tag k="created_by" v="Potlatch 0.10f"/>
    <tag k="highway" v="secondary"/>
    <tag k="maxspeed" v="30"/>
    <tag k="ref" v="L 53"/>
  </way>
  <way id="29107373" version="9" timestamp="2009-09-23T10:19:55Z" uid="16019" user="Thommse" changeset="2593633">
    <nd ref="33027575"/>
    <nd ref="506138280"/>
    <nd ref="33027574"/>
    <nd ref="33027573"/>
    <nd ref="33027572"/>
    <nd ref="33027571"/>
    <tag k="highway" v="secondary"/>
    <tag k="maxspeed" v="30"/>
    <tag k="ref" v="L 53"/>
  </way>
  <way id="29107373" version="10" timestamp="2012-03-08T21:37:22Z" uid="28234" user="derandi" changeset="10914067"/>
  <way id="29107404" version="5" timestamp="2009-10-19T18:51:56Z" uid="36809" user="pfoten_weg_!_" changeset="2897310">
    <nd ref="320177255"/>
    <nd ref="320177137"/>
    <nd ref="320177138"/>
    <tag k="highway" v="service"/>
    <tag k="postal_code" v="83623"/>
    <tag k="source" v="survey"/>
    <tag k="surface" v="unpaved"/>
  </way>
  <way id="29107404" version="6" timestamp="2009-10-23T11:39:01Z" uid="36809" user="pfoten_weg_!_" changeset="2928981">
    <nd ref="320177255"/>
    <nd ref="320177137"/>
    <nd ref="320177138"/>
    <tag k="highway" v="service"/>
    <tag k="postal_code" v="83623"/>
    <tag k="surface" v="unpaved"/>
  </way>
  <way id="29107404" version="7" timestamp="2010-02-23T15:48:48Z" uid="42393" user="mawi42" changeset="3954693">
    <nd ref="320177255"/>
    <nd ref="320177137"/>
    <nd ref="320177138"/>
    <tag k="highway" v="residential"/>
    <tag k="postal_code" v="83623"/>
    <tag k="surface" v="unpaved"/>
  </way>
  <way id="29107404" version="8" timestamp="2010-03-02T19:42:54Z" uid="42393" user="mawi42" changeset="4019539">
    <nd ref="320177255"/>
    <nd ref="320177137"/>
    <nd ref="320177138"/>
    <tag k="highway" v="residential"/>
    <tag k="name" v="Fraßhauser Straße"/>
    <tag k="postal_code" v="83623"/>
    <tag k="surface" v="unpaved"/>
  </way>
  <way id="29107406" version="4" timestamp="2009-09-30T15:19:42Z" uid="36809" user="pfoten_weg_!_" changeset="2689341">
    <nd ref="320177167"/>
    <nd ref="320177170"/>
    <nd ref="320177169"/>
    <nd ref="320177168"/>
    <nd ref="320177167"/>
    <tag k="access" v="permissive"/>
    <tag k="amenity" v="parking"/>
    <tag k="name" v="Parkplatz der Klinik"/>
  </way>
  <way id="29107410" version="5" timestamp="2009-10-19T18:51:55Z" uid="36809" user="pfoten_weg_!_" changeset="2897310">
    <nd ref="320177231"/>
    <nd ref="320177255"/>
    <nd ref="320177232"/>
    <nd ref="320177233"/>
    <nd ref="320177234"/>
    <nd ref="301953034"/>
    <tag k="highway" v="service"/>
    <tag k="postal_code" v="83623"/>
    <tag k="source" v="survey"/>
    <tag k="surface" v="unpaved"/>
  </way>
  <way id="29107410" version="6" timestamp="2009-10-23T11:39:00Z" uid="36809" user="pfoten_weg_!_" changeset="2928981">
    <nd ref="320177231"/>
    <nd ref="320177255"/>
    <nd ref="320177232"/>
    <nd ref="320177233"/>
    <nd ref="320177234"/>
    <nd ref="301953034"/>
    <tag k="highway" v="service"/>
    <tag k="postal_code" v="83623"/>
    <tag k="surface" v="unpaved"/>
  </way>
  <way id="29107410" version="7" timestamp="2010-02-23T15:48:48Z" uid="42393" user="mawi42" changeset="3954693">
    <nd ref="320177231"/>
    <nd ref="320177255"/>
    <nd ref="320177232"/>
    <nd ref="320177233"/>
    <nd ref="320177234"/>
    <nd ref="301953034"/>
    <tag k="highway" v="residential"/>
    <tag k="postal_code" v="83623"/>
    <tag k="surface" v="unpaved"/>
  </way>
  <way id="29107410" version="8" timestamp="2010-03-02T19:42:54Z" uid="42393" user="mawi42" changeset="4019539">
    <nd ref="320177231"/>
    <nd ref="320177255"/>
    <nd ref="320177232"/>
    <nd ref="320177233"/>
    <nd ref="320177234"/>
    <nd ref="301953034"/>
    <tag k="highway" v="residential"/>
    <tag k="name" v="Fraßhauser Straße"/>
    <tag k="postal_code" v="83623"/>
    <tag k="surface" v="unpaved"/>
  </way>
  <way id="29107411" version="1" timestamp="2008-12-20T14:16:21Z" uid="58091" user="Andreas M" changeset="504586">
    <nd ref="33143911"/>
    <nd ref="33143898"/>
    <nd ref="33143888"/>
    <nd ref="33143880"/>
    <nd ref="29048466"/>
    <nd ref="283324405"/>
    <nd ref="33144494"/>
    <nd ref="33144503"/>
    <nd ref="33344810"/>
    <tag k="created_by" v="Potlatch 0.7"/>
    <tag k="highway" v="residential"/>
    <tag k="name" v="Theresiengasse"/>
    <tag k="oneway" v="yes"/>
    <tag k="source" v="yahoo"/>
  </way>
  <way id="29107411" version="2" timestamp="2010-07-25T21:37:17Z" uid="51552" user="kfg" changeset="5316959">
    <nd ref="33143911"/>
    <nd ref="33143898"/>
    <nd ref="33143888"/>
    <nd ref="33143880"/>
    <nd ref="29048466"/>
    <nd ref="283324405"/>
    <nd ref="33144494"/>
    <nd ref="33144503"/>
    <nd ref="33344810"/>
    <tag k="highway" v="residential"/>
    <tag k="name" v="Theresiengasse"/>
    <tag k="oneway" v="yes"/>
    <tag k="source" v="yahoo"/>
  </way>
  <way id="29107411" version="3" timestamp="2011-07-05T11:46:09Z" uid="482530" user="Max_Moritz47" changeset="8638104">
    <nd ref="33143911"/>
    <nd ref="33143898"/>
    <nd ref="33143888"/>
    <nd ref="33143880"/>
    <nd ref="29048466"/>
    <nd ref="283324405"/>
    <nd ref="33144494"/>
    <nd ref="33144503"/>
    <nd ref="33344810"/>
    <tag k="highway" v="residential"/>
    <tag k="name" v="Theresiengasse"/>
    <tag k="oneway" v="yes"/>
    <tag k="source" v="yahoo"/>
  </way>
  <way id="29107433" version="1" timestamp="2008-12-20T14:18:03Z" uid="58091" user="Andreas M" changeset="504586">
    <nd ref="97588463"/>
    <nd ref="320177626"/>
    <tag k="highway" v="residential"/>
    <tag k="name" v="Neuntegasse"/>
  </way>
  <way id="29107456" version="1" timestamp="2008-12-20T14:19:52Z" uid="58091" user="Andreas M" changeset="504586">
    <nd ref="320178356"/>
    <nd ref="320178357"/>
    <nd ref="320178360"/>
    <tag k="highway" v="residential"/>
    <tag k="name" v="Liane-Haid-Weg"/>
  </way>
  <way id="29107456" version="2" timestamp="2011-04-23T23:15:47Z" uid="390669" user="KrilleOSM" changeset="7948441">
    <nd ref="320178356"/>
    <nd ref="1257334741"/>
    <tag k="highway" v="steps"/>
    <tag k="name" v="Liane-Haid-Weg"/>
  </way>
  <way id="29107481" version="1" timestamp="2008-12-20T14:20:57Z" uid="58091" user="Andreas M" changeset="504586">
    <nd ref="320178938"/>
    <nd ref="68899674"/>
    <tag k="highway" v="residential"/>
    <tag k="name" v="Wanthalerweg"/>
  </way>
  <way id="29107510" version="1" timestamp="2008-12-20T14:22:36Z" uid="58091" user="Andreas M" changeset="504586">
    <nd ref="320179523"/>
    <nd ref="320179525"/>
    <nd ref="320179528"/>
    <nd ref="320179530"/>
    <nd ref="320179532"/>
    <nd ref="320179534"/>
    <tag k="highway" v="residential"/>
    <tag k="name" v="Ringweg"/>
    <tag k="oneway" v="yes"/>
  </way>
  <way id="29107604" version="3" timestamp="2009-08-24T23:15:34Z" uid="36809" user="pfoten_weg_!_" changeset="2251012">
    <nd ref="101103540"/>
    <nd ref="320179947"/>
    <nd ref="320179948"/>
    <nd ref="320179949"/>
    <tag k="discovered_by" v="RambaZamba"/>
    <tag k="highway" v="residential"/>
    <tag k="name" v="Stampfgasse"/>
  </way>
  <way id="29107604" version="4" timestamp="2009-08-28T20:03:58Z" uid="156995" user="HampelZamba" changeset="2294580">
    <nd ref="101103540"/>
    <nd ref="320179947"/>
    <nd ref="320179948"/>
    <nd ref="320179949"/>
    <tag k="highway" v="residential"/>
    <tag k="name" v="Stampfgasse"/>
  </way>
  <way id="29107604" version="5" timestamp="2009-09-01T12:15:26Z" uid="36809" user="pfoten_weg_!_" changeset="2336869">
    <nd ref="101103540"/>
    <nd ref="320179947"/>
    <nd ref="320179948"/>
    <nd ref="320179949"/>
    <tag k="highway" v="residential"/>
    <tag k="name" v="Stampfgasse"/>
  </way>
  <way id="29107612" version="1" timestamp="2008-12-20T14:24:24Z" uid="58091" user="Andreas M" changeset="504586">
    <nd ref="291194375"/>
    <nd ref="320180025"/>
    <nd ref="291196068"/>
    <nd ref="291196067"/>
    <nd ref="320180027"/>
    <tag k="highway" v="residential"/>
    <tag k="name" v="In den Kräutern"/>
  </way>
  <way id="29107705" version="3" timestamp="2009-10-19T18:51:12Z" uid="36809" user="pfoten_weg_!_" changeset="2897310">
    <nd ref="320181095"/>
    <nd ref="320181097"/>
    <nd ref="320181099"/>
    <nd ref="320181101"/>
    <nd ref="320181095"/>
    <tag k="building" v="yes"/>
  </way>
  <way id="29107705" version="4" timestamp="2011-04-01T19:24:55Z" uid="42393" user="mawi42" changeset="7738372">
    <nd ref="320181095"/>
    <nd ref="1228244828"/>
    <nd ref="1228244827"/>
    <nd ref="1228244771"/>
    <nd ref="1228244829"/>
    <nd ref="320181097"/>
    <nd ref="320181099"/>
    <nd ref="320181101"/>
    <nd ref="320181095"/>
    <tag k="building" v="yes"/>
  </way>
  <way id="29107708" version="3" timestamp="2009-10-19T18:51:11Z" uid="36809" user="pfoten_weg_!_" changeset="2897310">
    <nd ref="320181212"/>
    <nd ref="60615806"/>
    <tag k="highway" v="service"/>
  </way>
  <way id="29107708" version="4" timestamp="2010-05-04T14:14:14Z" uid="42393" user="mawi42" changeset="4604477">
    <nd ref="320181212"/>
    <nd ref="60615806"/>
    <tag k="highway" v="service"/>
    <tag k="postal_code" v="83623"/>
  </way>
  <way id="29107710" version="3" timestamp="2009-10-19T18:51:10Z" uid="36809" user="pfoten_weg_!_" changeset="2897310">
    <nd ref="320181302"/>
    <nd ref="60615806"/>
    <tag k="highway" v="service"/>
  </way>
  <way id="29107710" version="4" timestamp="2010-05-04T14:14:14Z" uid="42393" user="mawi42" changeset="4604477">
    <nd ref="320181302"/>
    <nd ref="60615806"/>
    <tag k="highway" v="service"/>
    <tag k="postal_code" v="83623"/>
  </way>
  <way id="29107723" version="3" timestamp="2011-03-18T15:16:40Z" uid="4467" user="Rosscoe" changeset="7596265">
    <nd ref="320181489"/>
    <nd ref="320181512"/>
    <nd ref="1207409967"/>
    <tag k="highway" v="service"/>
    <tag k="service" v="driveway"/>
    <tag k="source" v="nearmap"/>
  </way>
  <way id="29107766" version="8" timestamp="2010-05-14T13:19:57Z" uid="58091" user="Andreas M" changeset="4695985">
    <nd ref="93948670"/>
    <nd ref="93948671"/>
    <nd ref="93948672"/>
    <nd ref="93948673"/>
    <nd ref="93947356"/>
    <tag k="highway" v="residential"/>
    <tag k="name" v="Rosenackerstraße"/>
    <tag k="oneway" v="yes"/>
  </way>
  <way id="29107766" version="9" timestamp="2011-10-08T01:28:16Z" uid="229590" user="xificurk" changeset="9498852">
    <nd ref="93948670"/>
    <nd ref="93948671"/>
    <nd ref="93948672"/>
    <nd ref="93948673"/>
    <nd ref="93947356"/>
    <tag k="admin_level" v="9"/>
    <tag k="boundary" v="administrative"/>
    <tag k="highway" v="residential"/>
    <tag k="name" v="Rosenackerstraße"/>
    <tag k="oneway" v="yes"/>
  </way>
  <way id="29107766" version="10" timestamp="2011-10-18T16:43:33Z" uid="473925" user="caigner" changeset="9592714">
    <nd ref="93948670"/>
    <nd ref="93948671"/>
    <nd ref="1472150293"/>
    <nd ref="93948672"/>
    <nd ref="1472150275"/>
    <nd ref="93948673"/>
    <nd ref="1472150234"/>
    <nd ref="93947356"/>
    <tag k="admin_level" v="9"/>
    <tag k="boundary" v="administrative"/>
    <tag k="highway" v="residential"/>
    <tag k="name" v="Rosenackerstraße"/>
    <tag k="oneway" v="yes"/>
  </way>
  <way id="29107771" version="3" timestamp="2009-02-01T18:31:30Z" uid="34428" user="usm78-gis" changeset="31975">
    <nd ref="236739"/>
    <nd ref="245791"/>
    <nd ref="26055343"/>
    <tag k="created_by" v="Potlatch 0.10f"/>
    <tag k="highway" v="primary"/>
    <tag k="name" v="Савушкина ул."/>
    <tag k="oneway" v="yes"/>
  </way>
  <way id="29107771" version="4" timestamp="2009-03-09T09:01:34Z" uid="30590" user="KekcuHa" changeset="771541">
    <nd ref="236739"/>
    <nd ref="245791"/>
    <nd ref="26055343"/>
    <tag k="cladr:code" v="78000000000123700"/>
    <tag k="cladr:name" v="Савушкина"/>
    <tag k="cladr:suffix" v="Улица"/>
    <tag k="highway" v="primary"/>
    <tag k="name" v="Савушкина ул."/>
    <tag k="oneway" v="yes"/>
  </way>
  <way id="29107771" version="5" timestamp="2009-03-28T19:42:35Z" uid="34428" user="usm78-gis" changeset="865258">
    <nd ref="236739"/>
    <nd ref="245791"/>
    <nd ref="366663612"/>
    <nd ref="26055343"/>
    <tag k="cladr:code" v="78000000000123700"/>
    <tag k="cladr:name" v="Савушкина"/>
    <tag k="cladr:suffix" v="Улица"/>
    <tag k="created_by" v="Potlatch 0.10f"/>
    <tag k="highway" v="primary"/>
    <tag k="name" v="Савушкина ул."/>
    <tag k="oneway" v="yes"/>
  </way>
  <way id="29107771" version="6" timestamp="2009-03-28T19:42:37Z" uid="34428" user="usm78-gis" changeset="865258">
    <nd ref="236739"/>
    <nd ref="245791"/>
    <nd ref="366663612"/>
    <tag k="cladr:code" v="78000000000123700"/>
    <tag k="cladr:name" v="Савушкина"/>
    <tag k="cladr:suffix" v="Улица"/>
    <tag k="created_by" v="Potlatch 0.10f"/>
    <tag k="highway" v="primary"/>
    <tag k="name" v="Савушкина ул."/>
    <tag k="oneway" v="yes"/>
  </way>
  <way id="29107771" version="7" timestamp="2010-08-15T08:50:33Z" uid="127299" user="Batareikin" changeset="5497153">
    <nd ref="236739"/>
    <nd ref="245791"/>
    <nd ref="366663612"/>
    <nd ref="26055343"/>
    <tag k="cladr:code" v="78000000000123700"/>
    <tag k="cladr:name" v="Савушкина"/>
    <tag k="cladr:suffix" v="Улица"/>
    <tag k="highway" v="primary"/>
    <tag k="name" v="улица Савушкина"/>
    <tag k="oneway" v="yes"/>
  </way>
  <way id="29107771" version="8" timestamp="2010-09-24T15:18:15Z" uid="290271" user="Zverik" changeset="5863701">
    <nd ref="236739"/>
    <nd ref="245791"/>
    <nd ref="366663612"/>
    <nd ref="26055343"/>
    <tag k="cladr:code" v="78000000000123700"/>
    <tag k="cladr:name" v="Савушкина"/>
    <tag k="cladr:suffix" v="Улица"/>
    <tag k="highway" v="primary"/>
    <tag k="lit" v="yes"/>
    <tag k="name" v="улица Савушкина"/>
    <tag k="oneway" v="yes"/>
    <tag k="surface" v="asphalt"/>
  </way>
  <way id="29107771" version="9" timestamp="2010-10-15T16:46:36Z" uid="136198" user="tmprec" changeset="6050595">
    <nd ref="236739"/>
    <nd ref="245791"/>
    <nd ref="950439700"/>
    <nd ref="366663612"/>
    <nd ref="26055343"/>
    <tag k="cladr:code" v="78000000000123700"/>
    <tag k="cladr:name" v="Савушкина"/>
    <tag k="cladr:suffix" v="Улица"/>
    <tag k="highway" v="primary"/>
    <tag k="lit" v="yes"/>
    <tag k="name" v="улица Савушкина"/>
    <tag k="oneway" v="yes"/>
    <tag k="surface" v="asphalt"/>
  </way>
  <way id="29107771" version="10" timestamp="2011-02-01T21:02:31Z" uid="399728" user="Autopro" changeset="7159337">
    <nd ref="236739"/>
    <nd ref="245791"/>
    <nd ref="950439700"/>
    <nd ref="366663612"/>
    <nd ref="26055343"/>
    <nd ref="26055343"/>
    <tag k="cladr:code" v="78000000000123700"/>
    <tag k="cladr:name" v="Савушкина"/>
    <tag k="cladr:suffix" v="Улица"/>
    <tag k="highway" v="primary"/>
    <tag k="lit" v="yes"/>
    <tag k="name" v="улица Савушкина"/>
    <tag k="oneway" v="yes"/>
    <tag k="surface" v="asphalt"/>
  </way>
  <way id="29107771" version="11" timestamp="2011-02-02T19:22:27Z" uid="70696" user="xybot" changeset="7167549">
    <nd ref="236739"/>
    <nd ref="245791"/>
    <nd ref="950439700"/>
    <nd ref="366663612"/>
    <nd ref="26055343"/>
    <tag k="cladr:code" v="78000000000123700"/>
    <tag k="cladr:name" v="Савушкина"/>
    <tag k="cladr:suffix" v="Улица"/>
    <tag k="highway" v="primary"/>
    <tag k="lit" v="yes"/>
    <tag k="name" v="улица Савушкина"/>
    <tag k="oneway" v="yes"/>
    <tag k="surface" v="asphalt"/>
  </way>
  <way id="29107771" version="12" timestamp="2011-02-10T10:56:05Z" uid="49481" user="lupin-de-mid" changeset="7244197">
    <nd ref="236739"/>
    <nd ref="245791"/>
    <nd ref="950439700"/>
    <nd ref="366663612"/>
    <nd ref="1145313918"/>
    <nd ref="26055343"/>
    <tag k="cladr:code" v="78000000000123700"/>
    <tag k="cladr:name" v="Савушкина"/>
    <tag k="cladr:suffix" v="Улица"/>
    <tag k="highway" v="primary"/>
    <tag k="lit" v="yes"/>
    <tag k="name" v="улица Савушкина"/>
    <tag k="oneway" v="yes"/>
    <tag k="surface" v="asphalt"/>
  </way>
  <way id="29107771" version="13" timestamp="2011-02-20T13:20:31Z" uid="399728" user="Autopro" changeset="7342315">
    <nd ref="236739"/>
    <nd ref="245791"/>
    <nd ref="950439700"/>
    <nd ref="366663612"/>
    <tag k="cladr:code" v="78000000000123700"/>
    <tag k="cladr:name" v="Савушкина"/>
    <tag k="cladr:suffix" v="Улица"/>
    <tag k="highway" v="primary"/>
    <tag k="lit" v="yes"/>
    <tag k="name" v="улица Савушкина"/>
    <tag k="oneway" v="yes"/>
    <tag k="surface" v="asphalt"/>
  </way>
  <way id="29107771" version="14" timestamp="2011-04-16T12:32:31Z" uid="399728" user="Autopro" changeset="7877876">
    <nd ref="236739"/>
    <nd ref="245791"/>
    <nd ref="950439700"/>
    <nd ref="1246850577"/>
    <nd ref="366663612"/>
    <tag k="cladr:code" v="78000000000123700"/>
    <tag k="cladr:name" v="Савушкина"/>
    <tag k="cladr:suffix" v="Улица"/>
    <tag k="highway" v="primary"/>
    <tag k="lit" v="yes"/>
    <tag k="name" v="улица Савушкина"/>
    <tag k="oneway" v="yes"/>
    <tag k="surface" v="asphalt"/>
  </way>
  <way id="29107771" version="15" timestamp="2011-05-02T07:57:38Z" uid="399728" user="Autopro" changeset="8028430">
    <nd ref="366663612"/>
    <nd ref="1246850577"/>
    <nd ref="950439700"/>
    <nd ref="245791"/>
    <nd ref="236739"/>
    <tag k="cladr:code" v="78000000000123700"/>
    <tag k="cladr:name" v="Савушкина"/>
    <tag k="cladr:suffix" v="Улица"/>
    <tag k="highway" v="primary"/>
    <tag k="lit" v="yes"/>
    <tag k="name" v="улица Савушкина"/>
    <tag k="oneway" v="yes"/>
    <tag k="surface" v="asphalt"/>
  </way>
  <way id="29107771" version="16" timestamp="2011-09-27T19:07:01Z" uid="143266" user="Sergey Astakhov" changeset="9413528">
    <nd ref="366663612"/>
    <nd ref="1246850577"/>
    <nd ref="950439700"/>
    <nd ref="245791"/>
    <nd ref="236739"/>
    <tag k="highway" v="primary"/>
    <tag k="lit" v="yes"/>
    <tag k="name" v="улица Савушкина"/>
    <tag k="oneway" v="yes"/>
    <tag k="surface" v="asphalt"/>
  </way>
  <way id="29107934" version="3" timestamp="2009-09-30T12:58:17Z" uid="36809" user="pfoten_weg_!_" changeset="2687909">
    <nd ref="60448201"/>
    <nd ref="60448205"/>
    <nd ref="60448213"/>
    <nd ref="60127261"/>
    <tag k="bicycle" v="yes"/>
    <tag k="foot" v="designated"/>
    <tag k="highway" v="path"/>
    <tag k="name" v="Aumühle"/>
  </way>
  <way id="29107935" version="1" timestamp="2008-12-20T14:39:37Z" uid="53938" user="ctheile" changeset="504141">
    <nd ref="320185608"/>
    <nd ref="320185610"/>
    <nd ref="320185611"/>
    <tag k="created_by" v="Potlatch 0.10f"/>
    <tag k="highway" v="tertiary"/>
    <tag k="name" v="Holzschuhmacherweg"/>
  </way>
  <way id="29107935" version="2" timestamp="2009-05-27T11:29:51Z" uid="53938" user="ctheile" changeset="1333524">
    <nd ref="411738188"/>
    <nd ref="320185611"/>
    <tag k="highway" v="residential"/>
    <tag k="name" v="Holzschuhmacherweg"/>
  </way>
  <way id="29107935" version="3" timestamp="2009-09-09T16:50:55Z" uid="53938" user="ctheile" changeset="2427353">
    <nd ref="411738188"/>
    <nd ref="320185611"/>
    <tag k="highway" v="residential"/>
    <tag k="name" v="Holzschuhmacherweg"/>
    <tag k="surface" v="cobblestone"/>
  </way>
  <way id="29107935" version="4" timestamp="2010-09-01T11:03:34Z" uid="53938" user="ctheile" changeset="5652973"/>
  <way id="29107938" version="1" timestamp="2008-12-20T14:39:52Z" uid="58091" user="Andreas M" changeset="504586">
    <nd ref="320185679"/>
    <nd ref="320185680"/>
    <tag k="highway" v="residential"/>
    <tag k="name" v="Vera-Ferra-Mikura-Weg"/>
  </way>
  <way id="29107938" version="2" timestamp="2009-08-11T12:27:39Z" uid="140313" user="TTomLLipe" changeset="2107908">
    <nd ref="320185679"/>
    <nd ref="320185680"/>
    <tag k="highway" v="footway"/>
    <tag k="name" v="Vera-Ferra-Mikura-Weg"/>
  </way>
  <way id="29107938" version="3" timestamp="2009-08-11T12:28:37Z" uid="140313" user="TTomLLipe" changeset="2107908">
    <nd ref="320185679"/>
    <nd ref="320185680"/>
    <tag k="fixme" v="yes"/>
    <tag k="highway" v="footway"/>
    <tag k="name" v="Vera-Ferra-Mikura-Weg"/>
  </way>
  <way id="29107938" version="4" timestamp="2010-12-16T18:17:11Z" uid="47064" user="7503146" changeset="6679384">
    <nd ref="1041549453"/>
    <nd ref="320185679"/>
    <nd ref="320185680"/>
    <tag k="fixme" v="yes"/>
    <tag k="highway" v="footway"/>
    <tag k="name" v="Vera-Ferra-Mikura-Weg"/>
  </way>
  <way id="29107075" version="11" timestamp="2012-07-18T06:19:53Z" uid="722137" user="OSMF Redaction Account" changeset="12275015">
    <nd ref="320179982"/>
    <nd ref="320168488"/>
    <nd ref="320168487"/>
    <nd ref="320171951"/>
    <nd ref="320168517"/>
    <nd ref="320168518"/>
    <nd ref="320168519"/>
    <nd ref="320168520"/>
    <nd ref="320168521"/>
    <nd ref="320168522"/>
    <nd ref="320168523"/>
    <nd ref="320168524"/>
    <nd ref="320168525"/>
    <nd ref="320168526"/>
    <nd ref="320168527"/>
    <nd ref="320168528"/>
    <nd ref="320168529"/>
    <nd ref="320168530"/>
    <nd ref="389752710"/>
    <nd ref="320170527"/>
    <nd ref="320171219"/>
    <nd ref="320170526"/>
    <nd ref="320170384"/>
    <nd ref="320168536"/>
    <nd ref="320168537"/>
    <nd ref="320168538"/>
    <nd ref="320168539"/>
    <nd ref="320168541"/>
    <nd ref="320168542"/>
    <nd ref="320168543"/>
    <nd ref="320168544"/>
    <tag k="boat" v="no"/>
    <tag k="name" v="Mühlbach"/>
    <tag k="waterway" v="stream"/>
  </way>
  <way id="29107100" version="2" timestamp="2012-07-16T23:13:05Z" uid="722137" user="OSMF Redaction Account" changeset="12253245"/>
  <way id="29107101" version="2" timestamp="2012-07-16T23:13:05Z" uid="722137" user="OSMF Redaction Account" changeset="12253245"/>
  <way id="29107166" version="5" timestamp="2012-07-17T00:23:51Z" uid="722137" user="OSMF Redaction Account" changeset="12254135"/>
  <way id="29107167" version="2" timestamp="2012-07-17T00:23:50Z" uid="722137" user="OSMF Redaction Account" changeset="12254135"/>
  <way id="29107168" version="4" timestamp="2012-07-04T17:29:42Z" uid="717478" user="Waschbecken" changeset="12112935">
    <nd ref="33144900"/>
    <nd ref="264056023"/>
    <nd ref="264060498"/>
    <tag k="bicycle" v="yes"/>
    <tag k="cycleway" v="no"/>
    <tag k="highway" v="residential"/>
    <tag k="name" v="Kalvarienberggasse"/>
    <tag k="oneway" v="yes"/>
    <tag k="source" v="Local knowledge "/>
    <tag k="surface" v="paved"/>
  </way>
  <way id="29107168" version="5" timestamp="2012-07-17T00:23:50Z" uid="722137" user="OSMF Redaction Account" changeset="12254135"/>
  <way id="29107224" version="8" timestamp="2012-06-08T17:31:53Z" uid="8748" user="ToniE" changeset="11837431">
    <nd ref="18446461"/>
    <nd ref="442927951"/>
    <nd ref="300626391"/>
    <nd ref="1014905889"/>
    <nd ref="442927955"/>
    <nd ref="300626393"/>
    <nd ref="783946506"/>
    <nd ref="289174268"/>
    <nd ref="18447875"/>
    <tag k="highway" v="secondary"/>
    <tag k="maxspeed" v="50"/>
    <tag k="name" v="Otterfinger Straße"/>
    <tag k="ref" v="TÖL 9"/>
    <tag k="smoothness" v="good"/>
    <tag k="source:maxspeed" v="DE:urban"/>
    <tag k="surface" v="asphalt"/>
  </way>
  <way id="29107325" version="2" timestamp="2012-06-24T00:32:37Z" uid="7523" user="inas" changeset="11994784"/>
  <way id="29107326" version="2" timestamp="2012-06-24T00:32:37Z" uid="7523" user="inas" changeset="11994784"/>
  <way id="29107327" version="2" timestamp="2012-06-24T00:32:37Z" uid="7523" user="inas" changeset="11994784"/>
  <way id="29107328" version="3" timestamp="2012-06-24T00:32:37Z" uid="7523" user="inas" changeset="11994784"/>
  <way id="29107329" version="2" timestamp="2012-06-24T00:32:37Z" uid="7523" user="inas" changeset="11994784"/>
  <way id="29107330" version="2" timestamp="2012-06-24T00:32:38Z" uid="7523" user="inas" changeset="11994784"/>
  <way id="29107332" version="3" timestamp="2012-06-24T00:32:38Z" uid="7523" user="inas" changeset="11994784"/>
  <way id="29107333" version="3" timestamp="2012-06-24T00:32:37Z" uid="7523" user="inas" changeset="11994784"/>
  <way id="29107334" version="3" timestamp="2012-06-24T00:32:38Z" uid="7523" user="inas" changeset="11994784"/>
  <way id="29107336" version="4" timestamp="2012-07-17T01:04:13Z" uid="722137" user="OSMF Redaction Account" changeset="12254520"/>
  <way id="29107368" version="2" timestamp="2012-07-17T01:04:14Z" uid="722137" user="OSMF Redaction Account" changeset="12254520"/>
  <way id="29107411" version="4" timestamp="2012-05-20T15:48:43Z" uid="298560" user="evod" changeset="11652852">
    <nd ref="33143911"/>
    <nd ref="33143898"/>
    <nd ref="33143888"/>
    <nd ref="33143880"/>
    <nd ref="29048466"/>
    <nd ref="283324405"/>
    <nd ref="33144494"/>
    <nd ref="33144503"/>
    <nd ref="33344810"/>
    <tag k="highway" v="residential"/>
    <tag k="maxspeed" v="50"/>
    <tag k="name" v="Theresiengasse"/>
    <tag k="oneway" v="yes"/>
    <tag k="source" v="yahoo"/>
  </way>
  <way id="29107411" version="5" timestamp="2012-07-17T00:23:51Z" uid="722137" user="OSMF Redaction Account" changeset="12254135"/>
  <way id="29107433" version="2" timestamp="2012-07-17T01:04:10Z" uid="722137" user="OSMF Redaction Account" changeset="12254520"/>
  <way id="29107456" version="3" timestamp="2012-07-17T01:04:14Z" uid="722137" user="OSMF Redaction Account" changeset="12254520"/>
  <way id="29107481" version="2" timestamp="2012-07-17T01:04:13Z" uid="722137" user="OSMF Redaction Account" changeset="12254520"/>
  <way id="29107510" version="2" timestamp="2012-07-16T23:13:04Z" uid="722137" user="OSMF Redaction Account" changeset="12253245"/>
  <way id="29107612" version="2" timestamp="2012-07-16T23:13:04Z" uid="722137" user="OSMF Redaction Account" changeset="12253245"/>
  <way id="29107723" version="4" timestamp="2012-07-20T11:05:13Z" uid="722137" user="OSMF Redaction Account" changeset="12372240">
    <nd ref="320181489"/>
    <nd ref="320181512"/>
    <tag k="highway" v="primary"/>
  </way>
  <way id="29107723" version="5" timestamp="2012-09-09T22:23:29Z" uid="418724" user="wintersportler" changeset="13050842"/>
  <way id="29107771" version="17" timestamp="2012-05-27T08:17:50Z" uid="399728" user="Autopro" changeset="11713195">
    <nd ref="366663612"/>
    <nd ref="1246850577"/>
    <nd ref="950439700"/>
    <nd ref="245791"/>
    <nd ref="236739"/>
    <tag k="highway" v="secondary"/>
    <tag k="lit" v="yes"/>
    <tag k="name" v="улица Савушкина"/>
    <tag k="oneway" v="yes"/>
    <tag k="surface" v="asphalt"/>
  </way>
  <way id="29107771" version="18" timestamp="2012-06-29T07:08:34Z" uid="446083" user="yuryleb" changeset="12053437">
    <nd ref="366663612"/>
    <nd ref="1246850577"/>
    <nd ref="950439700"/>
    <nd ref="245791"/>
    <nd ref="236739"/>
    <tag k="highway" v="secondary"/>
    <tag k="lanes" v="3"/>
    <tag k="lit" v="yes"/>
    <tag k="name" v="улица Савушкина"/>
    <tag k="oneway" v="yes"/>
    <tag k="surface" v="asphalt"/>
  </way>
  <way id="29107771" version="19" timestamp="2012-06-30T21:36:45Z" uid="399728" user="Autopro" changeset="12070371">
    <nd ref="366663612"/>
    <nd ref="1246850577"/>
    <tag k="access" v="no"/>
    <tag k="highway" v="unclassified"/>
    <tag k="lanes" v="3"/>
    <tag k="lit" v="yes"/>
    <tag k="name" v="улица Савушкина"/>
    <tag k="surface" v="asphalt"/>
  </way>
  <way id="29107771" version="20" timestamp="2012-07-20T11:23:30Z" uid="722137" user="OSMF Redaction Account" changeset="12373013"/>
  <way id="29107938" version="5" timestamp="2012-07-17T01:04:10Z" uid="722137" user="OSMF Redaction Account" changeset="12254520"/>
</osm>
