<?xml version='1.0' encoding='UTF-8'?>
<osm version="0.6" generator="libosmium/2.20.0">
  <way id="29118077" version="2" timestamp="2010-05-08T19:49:08Z" uid="33382" user="de_muur" changeset="4642387">
    <nd ref="253021891"/>
    <nd ref="253021892"/>
    <tag k="highway" v="residential"/>
    <tag k="name" v="Katrepeler Landstraße"/>
    <tag k="surface" v="paved"/>
  </way>
  <way id="29118077" version="3" timestamp="2010-05-08T20:04:13Z" uid="33382" user="de_muur" changeset="4642528">
    <nd ref="253021891"/>
    <nd ref="253021892"/>
    <tag k="highway" v="residential"/>
    <tag k="name" v="Katrepeler Landstraße"/>
    <tag k="surface" v="paved"/>
  </way>
  <way id="29118078" version="3" timestamp="2010-05-09T16:00:37Z" uid="33382" user="de_muur" changeset="4650334">
    <nd ref="248458823"/>
    <nd ref="248458824"/>
    <nd ref="649237634"/>
    <nd ref="248458920"/>
    <tag k="highway" v="residential"/>
    <tag k="name" v="Upper Borg"/>
    <tag k="surface" v="paved"/>
    <tag k="traffic_calming" v="yes"/>
  </way>
  <way id="29118082" version="7" timestamp="2010-05-09T16:00:38Z" uid="33382" user="de_muur" changeset="4650334">
    <nd ref="248458920"/>
    <nd ref="649237593"/>
    <nd ref="671487043"/>
    <nd ref="248458918"/>
    <nd ref="248773585"/>
    <nd ref="454649690"/>
    <nd ref="454649784"/>
    <nd ref="248773586"/>
    <nd ref="454649656"/>
    <nd ref="253021987"/>
    <nd ref="253021891"/>
    <tag k="highway" v="residential"/>
    <tag k="name" v="Upper Borg"/>
    <tag k="surface" v="paved"/>
    <tag k="traffic_calming" v="yes"/>
  </way>
  <way id="29118082" version="8" timestamp="2011-05-12T16:58:04Z" uid="45445" user="UScha" changeset="8124125">
    <nd ref="248458920"/>
    <nd ref="649237593"/>
    <nd ref="671487043"/>
    <nd ref="248458918"/>
    <nd ref="248773585"/>
    <nd ref="1281839239"/>
    <nd ref="454649690"/>
    <nd ref="454649784"/>
    <nd ref="248773586"/>
    <nd ref="454649656"/>
    <nd ref="253021987"/>
    <nd ref="253021891"/>
    <tag k="highway" v="residential"/>
    <tag k="name" v="Upper Borg"/>
    <tag k="surface" v="paved"/>
    <tag k="traffic_calming" v="yes"/>
  </way>
  <way id="29118462" version="4" timestamp="2010-08-15T07:18:30Z" uid="33382" user="de_muur" changeset="5496573">
    <nd ref="248498224"/>
    <nd ref="735116956"/>
    <nd ref="442118284"/>
    <tag k="highway" v="primary"/>
    <tag k="maxspeed" v="50"/>
    <tag k="name" v="Neuenlander Straße"/>
    <tag k="oneway" v="yes"/>
    <tag k="ref" v="B 6"/>
    <tag k="surface" v="paved"/>
  </way>
  <way id="29118462" version="5" timestamp="2010-12-31T11:17:28Z" uid="388405" user="RobertHB" changeset="6818446">
    <nd ref="248498224"/>
    <nd ref="735116956"/>
    <nd ref="1075047760"/>
    <nd ref="1075047772"/>
    <nd ref="442118284"/>
    <tag k="highway" v="primary"/>
    <tag k="maxspeed" v="50"/>
    <tag k="name" v="Neuenlander Straße"/>
    <tag k="oneway" v="yes"/>
    <tag k="ref" v="B 6"/>
    <tag k="surface" v="paved"/>
  </way>
  <way id="29118462" version="6" timestamp="2011-01-04T17:15:19Z" uid="388405" user="RobertHB" changeset="6863117">
    <nd ref="248498224"/>
    <nd ref="735116956"/>
    <nd ref="1075047760"/>
    <nd ref="1075047772"/>
    <tag k="highway" v="primary"/>
    <tag k="maxspeed" v="50"/>
    <tag k="name" v="Neuenlander Straße"/>
    <tag k="oneway" v="yes"/>
    <tag k="ref" v="B 6"/>
    <tag k="surface" v="paved"/>
  </way>
  <way id="29118462" version="7" timestamp="2011-06-03T18:28:48Z" uid="42429" user="FK270673" changeset="8332158">
    <nd ref="248498224"/>
    <nd ref="735116956"/>
    <nd ref="1075047760"/>
    <nd ref="1075047772"/>
    <tag k="highway" v="primary"/>
    <tag k="maxspeed" v="50"/>
    <tag k="name" v="Neuenlander Straße"/>
    <tag k="oneway" v="yes"/>
    <tag k="power" v="underground_cable"/>
    <tag k="ref" v="B 6"/>
    <tag k="surface" v="paved"/>
    <tag k="voltage" v="110000"/>
  </way>
  <way id="29118463" version="3" timestamp="2010-08-15T07:18:32Z" uid="33382" user="de_muur" changeset="5496573">
    <nd ref="442118031"/>
    <nd ref="823319265"/>
    <nd ref="21725020"/>
    <tag k="highway" v="primary"/>
    <tag k="lanes" v="2"/>
    <tag k="maxspeed" v="50"/>
    <tag k="name" v="Neuenlander Straße"/>
    <tag k="note" v="TODO: Kraftfahrstraße? in 2008 spätestens trunk (A281 segment Flughafen)"/>
    <tag k="oneway" v="yes"/>
    <tag k="ref" v="B 6"/>
    <tag k="surface" v="paved"/>
  </way>
  <way id="29118463" version="4" timestamp="2011-01-01T17:22:22Z" uid="388405" user="RobertHB" changeset="6830041">
    <nd ref="25749244"/>
    <nd ref="21725028"/>
    <nd ref="904542443"/>
    <nd ref="904542433"/>
    <nd ref="904542438"/>
    <nd ref="940665333"/>
    <nd ref="940665325"/>
    <nd ref="249796804"/>
    <nd ref="21725026"/>
    <nd ref="906065360"/>
    <nd ref="560149929"/>
    <nd ref="940665331"/>
    <nd ref="21725024"/>
    <nd ref="906065352"/>
    <nd ref="906065358"/>
    <nd ref="21725022"/>
    <nd ref="906065359"/>
    <nd ref="1077148621"/>
    <nd ref="914813670"/>
    <nd ref="442118031"/>
    <nd ref="1077148618"/>
    <nd ref="823319265"/>
    <nd ref="21725020"/>
    <tag k="highway" v="primary"/>
    <tag k="lanes" v="2"/>
    <tag k="maxspeed" v="50"/>
    <tag k="name" v="Neuenlander Straße"/>
    <tag k="note" v="TODO: Kraftfahrstraße? in 2008 spätestens trunk (A281 segment Flughafen)"/>
    <tag k="oneway" v="yes"/>
    <tag k="ref" v="B 6"/>
    <tag k="surface" v="paved"/>
  </way>
  <way id="29118463" version="5" timestamp="2011-04-20T20:59:17Z" uid="45445" user="UScha" changeset="7920359">
    <nd ref="25749244"/>
    <nd ref="21725028"/>
    <nd ref="904542443"/>
    <nd ref="904542433"/>
    <nd ref="904542438"/>
    <nd ref="940665333"/>
    <nd ref="940665325"/>
    <nd ref="249796804"/>
    <nd ref="21725026"/>
    <nd ref="906065360"/>
    <nd ref="560149929"/>
    <nd ref="940665331"/>
    <nd ref="21725024"/>
    <nd ref="906065352"/>
    <nd ref="906065358"/>
    <nd ref="21725022"/>
    <nd ref="906065359"/>
    <nd ref="1077148621"/>
    <nd ref="914813670"/>
    <nd ref="442118031"/>
    <nd ref="1077148618"/>
    <nd ref="823319265"/>
    <nd ref="21725020"/>
    <tag k="highway" v="primary"/>
    <tag k="lanes" v="2"/>
    <tag k="maxspeed" v="50"/>
    <tag k="name" v="Neuenlander Straße"/>
    <tag k="note" v="TODO: Kraftfahrstraße? in 2008 spätestens trunk (A281 segment Flughafen)"/>
    <tag k="oneway" v="yes"/>
    <tag k="ref" v="B 6"/>
    <tag k="source" v="bing"/>
    <tag k="surface" v="paved"/>
  </way>
  <way id="29118470" version="3" timestamp="2010-03-19T22:04:32Z" uid="9581" user="Lobelt" changeset="4174890">
    <nd ref="669989468"/>
    <nd ref="318234122"/>
    <nd ref="318234123"/>
    <tag k="highway" v="residential"/>
    <tag k="name" v="Kettelerstraße"/>
  </way>
  <way id="29118470" version="4" timestamp="2010-10-10T13:14:46Z" uid="9581" user="Lobelt" changeset="6001924">
    <nd ref="669989468"/>
    <nd ref="318234122"/>
    <nd ref="318234123"/>
    <tag k="highway" v="residential"/>
    <tag k="maxspeed" v="30"/>
    <tag k="name" v="Kettelerstraße"/>
  </way>
  <way id="29118470" version="5" timestamp="2012-03-28T20:18:02Z" uid="110838" user="Bernhard W" changeset="11130920">
    <nd ref="669989468"/>
    <nd ref="318234122"/>
    <nd ref="318234123"/>
    <tag k="highway" v="residential"/>
    <tag k="maxspeed" v="30"/>
    <tag k="name" v="Kettelerstraße"/>
    <tag k="odbl" v="clear"/>
  </way>
  <way id="29118470" version="6" timestamp="2012-03-29T00:13:11Z" uid="110838" user="Bernhard W" changeset="11132529">
    <nd ref="669989468"/>
    <nd ref="318234122"/>
    <nd ref="318234123"/>
    <tag k="highway" v="residential"/>
    <tag k="maxspeed" v="30"/>
    <tag k="name" v="Kettelerstraße"/>
    <tag k="odbl" v="clean"/>
  </way>
  <way id="29118470" version="7" timestamp="2012-03-30T22:29:47Z" uid="110838" user="Bernhard W" changeset="11160827">
    <nd ref="669989468"/>
    <nd ref="318234122"/>
    <nd ref="318234123"/>
    <tag k="highway" v="residential"/>
    <tag k="maxspeed" v="30"/>
    <tag k="name" v="Kettelerstraße"/>
  </way>
  <way id="29118472" version="5" timestamp="2010-10-10T13:14:50Z" uid="9581" user="Lobelt" changeset="6001924">
    <nd ref="10785181"/>
    <nd ref="320334224"/>
    <nd ref="320334225"/>
    <nd ref="262946851"/>
    <tag k="embankment" v="yes"/>
    <tag k="highway" v="primary_link"/>
    <tag k="motorroad" v="yes"/>
    <tag k="oneway" v="yes"/>
    <tag k="ref" v="K 4229"/>
    <tag k="source" v="interpolation"/>
  </way>
  <way id="29118472" version="6" timestamp="2012-01-05T11:17:42Z" uid="117878" user="catweazle69514" changeset="10299541">
    <nd ref="10785181"/>
    <nd ref="320334224"/>
    <nd ref="320334225"/>
    <nd ref="262946851"/>
    <tag k="embankment" v="yes"/>
    <tag k="highway" v="primary_link"/>
    <tag k="maxspeed" v="50"/>
    <tag k="motorroad" v="yes"/>
    <tag k="oneway" v="yes"/>
    <tag k="ref" v="K 4229"/>
    <tag k="source" v="interpolation"/>
  </way>
  <way id="29118472" version="7" timestamp="2012-03-29T00:16:22Z" uid="110838" user="Bernhard W" changeset="11132529">
    <nd ref="10785181"/>
    <nd ref="320334224"/>
    <nd ref="320334225"/>
    <nd ref="262946851"/>
    <tag k="embankment" v="yes"/>
    <tag k="highway" v="primary_link"/>
    <tag k="maxspeed" v="50"/>
    <tag k="motorroad" v="yes"/>
    <tag k="odbl" v="clean"/>
    <tag k="oneway" v="yes"/>
    <tag k="ref" v="K 4229"/>
    <tag k="source" v="interpolation"/>
  </way>
  <way id="29118472" version="8" timestamp="2012-03-30T22:46:21Z" uid="110838" user="Bernhard W" changeset="11160917">
    <nd ref="10785181"/>
    <nd ref="320334224"/>
    <nd ref="320334225"/>
    <nd ref="262946851"/>
    <tag k="embankment" v="yes"/>
    <tag k="highway" v="primary_link"/>
    <tag k="maxspeed" v="50"/>
    <tag k="motorroad" v="yes"/>
    <tag k="oneway" v="yes"/>
    <tag k="ref" v="K 4229"/>
    <tag k="source" v="interpolation"/>
  </way>
  <way id="29118473" version="5" timestamp="2010-10-10T13:15:00Z" uid="9581" user="Lobelt" changeset="6001924">
    <nd ref="262946851"/>
    <nd ref="262946853"/>
    <nd ref="262946856"/>
    <nd ref="262946858"/>
    <nd ref="262946860"/>
    <nd ref="262946863"/>
    <nd ref="262946872"/>
    <tag k="embankment" v="yes"/>
    <tag k="highway" v="secondary"/>
    <tag k="motorroad" v="yes"/>
    <tag k="ref" v="K 4229"/>
  </way>
  <way id="29118473" version="6" timestamp="2012-01-05T11:15:30Z" uid="117878" user="catweazle69514" changeset="10299541">
    <nd ref="262946851"/>
    <nd ref="262946853"/>
    <nd ref="262946856"/>
    <nd ref="262946858"/>
    <nd ref="262946860"/>
    <nd ref="262946863"/>
    <nd ref="262946872"/>
    <tag k="embankment" v="yes"/>
    <tag k="highway" v="secondary"/>
    <tag k="maxspeed" v="50"/>
    <tag k="motorroad" v="yes"/>
    <tag k="ref" v="K 4229"/>
  </way>
  <way id="29118473" version="7" timestamp="2012-03-28T20:20:03Z" uid="110838" user="Bernhard W" changeset="11130920">
    <nd ref="262946851"/>
    <nd ref="262946853"/>
    <nd ref="262946856"/>
    <nd ref="262946858"/>
    <nd ref="262946860"/>
    <nd ref="262946863"/>
    <nd ref="262946872"/>
    <tag k="embankment" v="yes"/>
    <tag k="highway" v="secondary"/>
    <tag k="maxspeed" v="50"/>
    <tag k="motorroad" v="yes"/>
    <tag k="odbl" v="clear"/>
    <tag k="ref" v="K 4229"/>
  </way>
  <way id="29118473" version="8" timestamp="2012-03-28T21:17:50Z" uid="110838" user="Bernhard W" changeset="11131489">
    <nd ref="262946851"/>
    <nd ref="262946853"/>
    <nd ref="262946856"/>
    <nd ref="262946858"/>
    <nd ref="262946860"/>
    <nd ref="262946863"/>
    <nd ref="262946872"/>
    <tag k="embankment" v="yes"/>
    <tag k="highway" v="secondary"/>
    <tag k="maxspeed" v="50"/>
    <tag k="motorroad" v="yes"/>
    <tag k="odbl" v="clean"/>
    <tag k="ref" v="K 4229"/>
  </way>
  <way id="29118473" version="9" timestamp="2012-03-30T22:46:22Z" uid="110838" user="Bernhard W" changeset="11160917">
    <nd ref="262946851"/>
    <nd ref="262946853"/>
    <nd ref="262946856"/>
    <nd ref="262946858"/>
    <nd ref="262946860"/>
    <nd ref="262946863"/>
    <nd ref="262946872"/>
    <tag k="embankment" v="yes"/>
    <tag k="highway" v="secondary"/>
    <tag k="maxspeed" v="50"/>
    <tag k="motorroad" v="yes"/>
    <tag k="ref" v="K 4229"/>
  </way>
  <way id="29118474" version="3" timestamp="2011-03-16T15:38:15Z" uid="9581" user="Lobelt" changeset="7576818">
    <nd ref="262946870"/>
    <nd ref="262946871"/>
    <tag k="highway" v="secondary"/>
    <tag k="ref" v="K 4229"/>
  </way>
  <way id="29118712" version="2" timestamp="2010-02-21T17:19:24Z" uid="33382" user="de_muur" changeset="3935770">
    <nd ref="108259539"/>
    <nd ref="30387802"/>
    <tag k="cycleway" v="track"/>
    <tag k="highway" v="secondary"/>
    <tag k="maxspeed" v="50"/>
    <tag k="name" v="Zum Allerhafen"/>
    <tag k="oneway" v="yes"/>
    <tag k="surface" v="paved"/>
  </way>
  <way id="29118712" version="3" timestamp="2010-02-21T17:45:44Z" uid="33382" user="de_muur" changeset="3935770"/>
  <way id="29118714" version="2" timestamp="2010-02-21T17:19:24Z" uid="33382" user="de_muur" changeset="3935770">
    <nd ref="108259493"/>
    <nd ref="30259866"/>
    <tag k="cycleway" v="track"/>
    <tag k="highway" v="secondary"/>
    <tag k="maxspeed" v="50"/>
    <tag k="name" v="An der Grenzpappel"/>
    <tag k="oneway" v="yes"/>
    <tag k="surface" v="paved"/>
  </way>
  <way id="29118714" version="3" timestamp="2011-04-02T13:35:25Z" uid="45445" user="UScha" changeset="7744117">
    <nd ref="108259493"/>
    <nd ref="1229196337"/>
    <nd ref="30259866"/>
    <tag k="cycleway" v="track"/>
    <tag k="highway" v="secondary"/>
    <tag k="maxspeed" v="50"/>
    <tag k="name" v="An der Grenzpappel"/>
    <tag k="oneway" v="yes"/>
    <tag k="surface" v="paved"/>
  </way>
  <way id="29118716" version="4" timestamp="2010-02-21T17:19:24Z" uid="33382" user="de_muur" changeset="3935770">
    <nd ref="108259539"/>
    <nd ref="76469976"/>
    <nd ref="197766128"/>
    <tag k="cycleway" v="track"/>
    <tag k="highway" v="secondary"/>
    <tag k="maxspeed" v="50"/>
    <tag k="name" v="Zum Allerhafen"/>
    <tag k="oneway" v="yes"/>
    <tag k="surface" v="paved"/>
  </way>
  <way id="29118716" version="5" timestamp="2010-04-29T18:56:01Z" uid="39330" user="chehrlic" changeset="4560332">
    <nd ref="197766128"/>
    <nd ref="76469976"/>
    <nd ref="712601043"/>
    <nd ref="108259539"/>
    <tag k="cycleway" v="track"/>
    <tag k="highway" v="secondary"/>
    <tag k="maxspeed" v="50"/>
    <tag k="name" v="Zum Allerhafen"/>
    <tag k="oneway" v="yes"/>
    <tag k="surface" v="paved"/>
  </way>
  <way id="29118717" version="3" timestamp="2010-01-09T17:22:40Z" uid="33382" user="de_muur" changeset="3579771">
    <nd ref="159943225"/>
    <nd ref="431708822"/>
    <nd ref="159943220"/>
    <nd ref="171310727"/>
    <tag k="cycleway" v="track"/>
    <tag k="highway" v="secondary"/>
    <tag k="maxspeed" v="30"/>
    <tag k="name" v="Zum Sebaldsbrücker Bahnhof"/>
    <tag k="surface" v="paved"/>
  </way>
  <way id="29118717" version="4" timestamp="2010-03-17T20:07:37Z" uid="18483" user="toralf" changeset="4156320">
    <nd ref="159943225"/>
    <nd ref="159943220"/>
    <nd ref="171310727"/>
    <tag k="cycleway" v="track"/>
    <tag k="highway" v="secondary"/>
    <tag k="maxspeed" v="30"/>
    <tag k="name" v="Zum Sebaldsbrücker Bahnhof"/>
    <tag k="surface" v="paved"/>
  </way>
  <way id="29118717" version="5" timestamp="2010-06-19T11:37:45Z" uid="4473" user="EtricCeline" changeset="5022962">
    <nd ref="159943225"/>
    <nd ref="159943220"/>
    <nd ref="776070381"/>
    <nd ref="171310727"/>
    <tag k="cycleway" v="track"/>
    <tag k="highway" v="secondary"/>
    <tag k="maxspeed" v="30"/>
    <tag k="name" v="Zum Sebaldsbrücker Bahnhof"/>
    <tag k="surface" v="paved"/>
  </way>
  <way id="29118928" version="2" timestamp="2008-12-24T11:00:06Z" uid="64977" user="CLoeser" changeset="590639">
    <nd ref="320329719"/>
    <nd ref="320341232"/>
    <nd ref="320341234"/>
    <nd ref="320341236"/>
    <nd ref="320341237"/>
    <nd ref="320341239"/>
    <nd ref="302729686"/>
    <tag k="created_by" v="Potlatch 0.10f"/>
    <tag k="highway" v="footway"/>
    <tag k="source" v="GPS Tracks"/>
  </way>
  <way id="29118077" version="4" timestamp="2012-07-17T11:53:19Z" uid="722137" user="OSMF Redaction Account" changeset="12264539">
    <nd ref="253021891"/>
    <nd ref="253021892"/>
    <tag k="highway" v="unclassified"/>
    <tag k="name" v="Katrepeler Landstraße"/>
  </way>
  <way id="29118078" version="4" timestamp="2012-07-17T11:53:16Z" uid="722137" user="OSMF Redaction Account" changeset="12264539">
    <nd ref="248458823"/>
    <nd ref="248458824"/>
    <nd ref="649237634"/>
    <nd ref="248458920"/>
    <tag k="highway" v="unclassified"/>
    <tag k="name" v="Upper Borg"/>
    <tag k="traffic_calming" v="yes"/>
  </way>
  <way id="29118082" version="9" timestamp="2012-07-17T11:53:18Z" uid="722137" user="OSMF Redaction Account" changeset="12264539">
    <nd ref="248458920"/>
    <nd ref="649237593"/>
    <nd ref="671487043"/>
    <nd ref="248458918"/>
    <nd ref="248773585"/>
    <nd ref="1281839239"/>
    <nd ref="454649690"/>
    <nd ref="454649784"/>
    <nd ref="248773586"/>
    <nd ref="454649656"/>
    <nd ref="253021987"/>
    <nd ref="253021891"/>
    <tag k="highway" v="unclassified"/>
    <tag k="name" v="Upper Borg"/>
    <tag k="traffic_calming" v="yes"/>
  </way>
  <way id="29118462" version="8" timestamp="2012-07-17T12:25:22Z" uid="722137" user="OSMF Redaction Account" changeset="12265109">
    <nd ref="248498224"/>
    <nd ref="735116956"/>
    <nd ref="1075047760"/>
    <nd ref="1075047772"/>
    <tag k="highway" v="primary"/>
    <tag k="maxspeed" v="50"/>
    <tag k="name" v="Neuenlander Straße"/>
    <tag k="oneway" v="yes"/>
    <tag k="power" v="underground_cable"/>
    <tag k="ref" v="B 6"/>
    <tag k="voltage" v="110000"/>
  </way>
  <way id="29118463" version="6" timestamp="2012-07-17T12:25:20Z" uid="722137" user="OSMF Redaction Account" changeset="12265109">
    <nd ref="25749244"/>
    <nd ref="21725028"/>
    <nd ref="904542443"/>
    <nd ref="904542433"/>
    <nd ref="904542438"/>
    <nd ref="940665333"/>
    <nd ref="940665325"/>
    <nd ref="249796804"/>
    <nd ref="21725026"/>
    <nd ref="906065360"/>
    <nd ref="560149929"/>
    <nd ref="940665331"/>
    <nd ref="21725024"/>
    <nd ref="906065352"/>
    <nd ref="906065358"/>
    <nd ref="21725022"/>
    <nd ref="906065359"/>
    <nd ref="1077148621"/>
    <nd ref="914813670"/>
    <nd ref="442118031"/>
    <nd ref="1077148618"/>
    <nd ref="823319265"/>
    <nd ref="21725020"/>
    <tag k="highway" v="primary"/>
    <tag k="lanes" v="2"/>
    <tag k="name" v="Neuenlander Straße"/>
    <tag k="note" v="TODO: Kraftfahrstraße? in 2008 spätestens trunk (A281 segment Flughafen)"/>
    <tag k="oneway" v="yes"/>
    <tag k="ref" v="B 6"/>
    <tag k="source" v="bing"/>
  </way>
  <way id="29118470" version="8" timestamp="2012-04-17T14:12:35Z" uid="136321" user="Teddy73" changeset="11332755">
    <nd ref="669989468"/>
    <nd ref="1720590295"/>
    <nd ref="318234123"/>
    <tag k="highway" v="residential"/>
    <tag k="maxspeed" v="30"/>
    <tag k="name" v="Kettelerstraße"/>
  </way>
  <way id="29118470" version="9" timestamp="2012-04-23T01:09:47Z" uid="328555" user="peb12345" changeset="11390607">
    <nd ref="1727256493"/>
    <nd ref="1720590295"/>
    <nd ref="318234123"/>
    <tag k="highway" v="residential"/>
    <tag k="maxspeed" v="30"/>
    <tag k="name" v="Kettelerstraße"/>
  </way>
  <way id="29118470" version="10" timestamp="2012-07-17T02:17:16Z" uid="722137" user="OSMF Redaction Account" changeset="12255273">
    <nd ref="1727256493"/>
    <nd ref="1720590295"/>
    <nd ref="318234123"/>
    <tag k="highway" v="residential"/>
    <tag k="name" v="Kettelerstraße"/>
  </way>
  <way id="29118470" version="11" timestamp="2012-08-19T01:15:17Z" uid="680576" user="mushroommapper" changeset="12778759">
    <nd ref="1727256493"/>
    <nd ref="1720590295"/>
    <nd ref="318234123"/>
    <tag k="highway" v="residential"/>
    <tag k="lit" v="yes"/>
    <tag k="name" v="Kettelerstraße"/>
  </way>
  <way id="29118472" version="9" timestamp="2012-04-17T14:12:34Z" uid="136321" user="Teddy73" changeset="11332755">
    <nd ref="10785181"/>
    <nd ref="1720590254"/>
    <nd ref="1720590252"/>
    <nd ref="1720590255"/>
    <nd ref="1720590258"/>
    <nd ref="1720590260"/>
    <nd ref="1720590268"/>
    <nd ref="262946851"/>
    <tag k="embankment" v="yes"/>
    <tag k="highway" v="primary_link"/>
    <tag k="maxspeed" v="50"/>
    <tag k="motorroad" v="yes"/>
    <tag k="oneway" v="yes"/>
    <tag k="ref" v="K 4229"/>
    <tag k="source" v="interpolation"/>
  </way>
  <way id="29118472" version="10" timestamp="2012-04-30T21:33:26Z" uid="60824" user="Carsten Güse" changeset="11464803">
    <nd ref="10785181"/>
    <nd ref="1736699333"/>
    <nd ref="1736699332"/>
    <nd ref="1720590254"/>
    <nd ref="1720590252"/>
    <nd ref="1720590255"/>
    <nd ref="1720590258"/>
    <nd ref="1720590260"/>
    <nd ref="1720590268"/>
    <nd ref="262946851"/>
    <tag k="embankment" v="yes"/>
    <tag k="highway" v="primary_link"/>
    <tag k="maxspeed" v="50"/>
    <tag k="motorroad" v="yes"/>
    <tag k="oneway" v="yes"/>
    <tag k="ref" v="K 4229"/>
    <tag k="source" v="interpolation"/>
  </way>
  <way id="29118472" version="11" timestamp="2012-06-25T20:19:58Z" uid="406370" user="maptin" changeset="12015956">
    <nd ref="10785181"/>
    <nd ref="1720590254"/>
    <nd ref="1720590252"/>
    <nd ref="1720590255"/>
    <nd ref="1720590258"/>
    <nd ref="1720590260"/>
    <nd ref="1720590268"/>
    <nd ref="262946851"/>
    <tag k="embankment" v="yes"/>
    <tag k="highway" v="primary_link"/>
    <tag k="maxspeed" v="50"/>
    <tag k="motorroad" v="yes"/>
    <tag k="oneway" v="yes"/>
    <tag k="ref" v="K 4229"/>
    <tag k="source" v="interpolation"/>
  </way>
  <way id="29118472" version="12" timestamp="2012-07-17T02:17:12Z" uid="722137" user="OSMF Redaction Account" changeset="12255273">
    <nd ref="10785181"/>
    <nd ref="1720590254"/>
    <nd ref="1720590252"/>
    <nd ref="1720590255"/>
    <nd ref="1720590258"/>
    <nd ref="1720590260"/>
    <nd ref="1720590268"/>
    <nd ref="262946851"/>
    <tag k="highway" v="primary_link"/>
    <tag k="maxspeed" v="50"/>
    <tag k="oneway" v="yes"/>
    <tag k="ref" v="K 4229"/>
    <tag k="source" v="interpolation"/>
  </way>
  <way id="29118472" version="13" timestamp="2012-08-29T03:18:10Z" uid="680576" user="mushroommapper" changeset="12900088">
    <nd ref="10785181"/>
    <nd ref="1720590254"/>
    <nd ref="1720590252"/>
    <nd ref="1720590255"/>
    <nd ref="1720590258"/>
    <nd ref="1720590260"/>
    <nd ref="1720590268"/>
    <nd ref="262946851"/>
    <tag k="highway" v="primary_link"/>
    <tag k="lit" v="no"/>
    <tag k="maxspeed" v="50"/>
    <tag k="oneway" v="yes"/>
    <tag k="ref" v="K 4229"/>
    <tag k="source" v="interpolation"/>
  </way>
  <way id="29118473" version="10" timestamp="2012-04-17T14:12:34Z" uid="136321" user="Teddy73" changeset="11332755">
    <nd ref="262946851"/>
    <nd ref="1720590270"/>
    <nd ref="1720590271"/>
    <nd ref="262946856"/>
    <nd ref="262946858"/>
    <nd ref="262946860"/>
    <nd ref="262946863"/>
    <nd ref="262946872"/>
    <tag k="embankment" v="yes"/>
    <tag k="highway" v="secondary"/>
    <tag k="maxspeed" v="50"/>
    <tag k="motorroad" v="yes"/>
    <tag k="ref" v="K 4229"/>
  </way>
  <way id="29118473" version="11" timestamp="2012-04-30T21:33:27Z" uid="60824" user="Carsten Güse" changeset="11464803">
    <nd ref="262946851"/>
    <nd ref="1720590271"/>
    <nd ref="262946856"/>
    <nd ref="262946858"/>
    <nd ref="262946860"/>
    <nd ref="1736699353"/>
    <nd ref="262946863"/>
    <nd ref="262946872"/>
    <tag k="embankment" v="yes"/>
    <tag k="highway" v="secondary"/>
    <tag k="maxspeed" v="50"/>
    <tag k="motorroad" v="yes"/>
    <tag k="ref" v="K 4229"/>
  </way>
  <way id="29118473" version="12" timestamp="2012-05-31T22:17:43Z" uid="680576" user="mushroommapper" changeset="11762626">
    <nd ref="262946851"/>
    <nd ref="1720590271"/>
    <nd ref="262946856"/>
    <nd ref="262946858"/>
    <nd ref="262946860"/>
    <nd ref="1736699353"/>
    <nd ref="262946863"/>
    <nd ref="262946872"/>
    <tag k="embankment" v="yes"/>
    <tag k="highway" v="secondary"/>
    <tag k="lit" v="no"/>
    <tag k="maxspeed" v="50"/>
    <tag k="motorroad" v="yes"/>
    <tag k="ref" v="K 4229"/>
  </way>
  <way id="29118473" version="13" timestamp="2012-07-17T02:17:12Z" uid="722137" user="OSMF Redaction Account" changeset="12255273">
    <nd ref="262946851"/>
    <nd ref="1720590271"/>
    <nd ref="262946856"/>
    <nd ref="262946858"/>
    <nd ref="262946860"/>
    <nd ref="1736699353"/>
    <nd ref="262946863"/>
    <nd ref="262946872"/>
    <tag k="highway" v="primary_link"/>
    <tag k="lit" v="no"/>
    <tag k="maxspeed" v="50"/>
    <tag k="ref" v="K 4229"/>
  </way>
  <way id="29118474" version="4" timestamp="2012-04-17T14:12:42Z" uid="136321" user="Teddy73" changeset="11332755"/>
  <way id="29118714" version="4" timestamp="2012-07-17T11:52:36Z" uid="722137" user="OSMF Redaction Account" changeset="12264539">
    <nd ref="108259493"/>
    <nd ref="1229196337"/>
    <nd ref="30259866"/>
    <tag k="cycleway" v="track"/>
    <tag k="highway" v="secondary"/>
    <tag k="name" v="An der Grenzpappel"/>
    <tag k="oneway" v="yes"/>
  </way>
  <way id="29118716" version="6" timestamp="2012-07-17T11:52:38Z" uid="722137" user="OSMF Redaction Account" changeset="12264539">
    <nd ref="197766128"/>
    <nd ref="76469976"/>
    <nd ref="712601043"/>
    <nd ref="108259539"/>
    <tag k="cycleway" v="track"/>
    <tag k="highway" v="secondary"/>
    <tag k="name" v="Zum Allerhafen"/>
    <tag k="oneway" v="yes"/>
  </way>
  <way id="29118717" version="6" timestamp="2012-07-17T11:52:50Z" uid="722137" user="OSMF Redaction Account" changeset="12264539">
    <nd ref="159943225"/>
    <nd ref="159943220"/>
    <nd ref="776070381"/>
    <nd ref="171310727"/>
    <tag k="cycleway" v="track"/>
    <tag k="highway" v="secondary"/>
    <tag k="maxspeed" v="30"/>
    <tag k="name" v="Zum Sebaldsbrücker Bahnhof"/>
  </way>
  <way id="29118717" version="7" timestamp="2012-07-22T21:27:10Z" uid="31846" user="Tracker" changeset="12440673">
    <nd ref="159943225"/>
    <nd ref="159943220"/>
    <nd ref="776070381"/>
    <nd ref="171310727"/>
    <nd ref="1683885708"/>
    <tag k="cycleway" v="track"/>
    <tag k="highway" v="secondary"/>
    <tag k="maxspeed" v="30"/>
    <tag k="name" v="Zum Sebaldsbrücker Bahnhof"/>
  </way>
  <way id="29118928" version="3" timestamp="2012-05-01T17:06:36Z" uid="66904" user="OSchlüter" changeset="11472010">
    <nd ref="320329719"/>
    <nd ref="1737480774"/>
    <tag k="highway" v="steps"/>
    <tag k="source" v="GPS Tracks"/>
  </way>
  <way id="29118928" version="4" timestamp="2012-07-11T18:33:01Z" uid="75388" user="Svalbard" changeset="12188857">
    <nd ref="1821774886"/>
    <nd ref="320329719"/>
    <tag k="foot" v="yes"/>
    <tag k="highway" v="path"/>
  </way>
</osm>
