<?xml version='1.0' encoding='UTF-8'?>
<osm version="0.6" generator="libosmium/2.20.0">
  <way id="29129203" version="1" timestamp="2008-12-21T09:30:38Z" uid="18775" user="drlizau" changeset="525678">
    <nd ref="247304423"/>
    <nd ref="320459709"/>
    <nd ref="320459714"/>
    <nd ref="320459719"/>
    <nd ref="320459724"/>
    <tag k="highway" v="unclassified"/>
    <tag k="name" v="South Lake Drive"/>
  </way>
  <way id="29129203" version="2" timestamp="2010-12-20T12:29:49Z" uid="19626" user="Swamp" changeset="6715499">
    <nd ref="247304423"/>
    <nd ref="320459709"/>
    <nd ref="320459714"/>
    <nd ref="320459719"/>
    <nd ref="320459724"/>
    <tag k="highway" v="unclassified"/>
    <tag k="maxspeed" v="50"/>
    <tag k="name" v="South Lake Drive"/>
  </way>
  <way id="29129522" version="2" timestamp="2009-11-29T22:46:50Z" uid="200463" user="harmagedon" changeset="3251061">
    <nd ref="320462127"/>
    <nd ref="320462128"/>
    <nd ref="320462129"/>
    <nd ref="320462130"/>
    <nd ref="320462131"/>
    <nd ref="320462132"/>
    <nd ref="320462133"/>
    <nd ref="320462134"/>
    <tag k="highway" v="service"/>
  </way>
  <way id="29129584" version="1" timestamp="2008-12-21T09:37:53Z" uid="58091" user="Andreas M" changeset="514916">
    <nd ref="127358204"/>
    <nd ref="127358205"/>
    <tag k="created_by" v="Potlatch 0.5b"/>
    <tag k="highway" v="residential"/>
    <tag k="name" v="Karl-Drescher-Gasse"/>
  </way>
  <way id="29129585" version="1" timestamp="2008-12-21T09:37:53Z" uid="58091" user="Andreas M" changeset="514916">
    <nd ref="108219378"/>
    <nd ref="108218783"/>
    <nd ref="280563030"/>
    <nd ref="280562093"/>
    <nd ref="108218784"/>
    <nd ref="108218786"/>
    <tag k="created_by" v="Potlatch 0.10"/>
    <tag k="highway" v="residential"/>
    <tag k="name" v="Pretschgasse"/>
  </way>
  <way id="29129585" version="2" timestamp="2009-01-21T18:02:05Z" uid="92725" user="Albin74" changeset="822522">
    <nd ref="108219378"/>
    <nd ref="108218783"/>
    <nd ref="280563030"/>
    <nd ref="280562093"/>
    <nd ref="108218784"/>
    <nd ref="108218786"/>
    <tag k="created_by" v="Potlatch 0.10f"/>
    <tag k="highway" v="residential"/>
    <tag k="maxspeed" v="30"/>
    <tag k="name" v="Pretschgasse"/>
  </way>
  <way id="29129585" version="3" timestamp="2009-01-21T18:13:33Z" uid="92725" user="Albin74" changeset="822522">
    <nd ref="108219378"/>
    <nd ref="108218783"/>
    <nd ref="280563030"/>
    <nd ref="280562093"/>
    <nd ref="108218784"/>
    <nd ref="108218786"/>
    <tag k="created_by" v="Potlatch 0.10f"/>
    <tag k="highway" v="residential"/>
    <tag k="maxspeed" v="30"/>
    <tag k="name" v="Pretschgasse"/>
  </way>
  <way id="29129585" version="4" timestamp="2009-01-21T18:14:07Z" uid="92725" user="Albin74" changeset="822522">
    <nd ref="108219378"/>
    <nd ref="334651542"/>
    <nd ref="108218783"/>
    <nd ref="280563030"/>
    <nd ref="280562093"/>
    <nd ref="108218784"/>
    <nd ref="108218786"/>
    <tag k="created_by" v="Potlatch 0.10f"/>
    <tag k="highway" v="residential"/>
    <tag k="maxspeed" v="30"/>
    <tag k="name" v="Pretschgasse"/>
  </way>
  <way id="29129585" version="5" timestamp="2009-01-21T18:15:07Z" uid="92725" user="Albin74" changeset="822522">
    <nd ref="334651542"/>
    <nd ref="108218783"/>
    <nd ref="280563030"/>
    <nd ref="280562093"/>
    <nd ref="108218784"/>
    <nd ref="108218786"/>
    <tag k="created_by" v="Potlatch 0.10f"/>
    <tag k="highway" v="residential"/>
    <tag k="maxspeed" v="30"/>
    <tag k="name" v="Pretschgasse"/>
  </way>
  <way id="29129585" version="6" timestamp="2011-02-24T10:44:49Z" uid="411359" user="Thomas Passauer" changeset="7380306">
    <nd ref="334651542"/>
    <nd ref="108218783"/>
    <nd ref="280563030"/>
    <nd ref="280562093"/>
    <nd ref="1169789599"/>
    <nd ref="108218784"/>
    <nd ref="108218786"/>
    <tag k="highway" v="residential"/>
    <tag k="maxspeed" v="30"/>
    <tag k="name" v="Pretschgasse"/>
  </way>
  <way id="29129586" version="1" timestamp="2008-12-21T09:37:54Z" uid="58091" user="Andreas M" changeset="514916">
    <nd ref="108218786"/>
    <nd ref="108218787"/>
    <nd ref="108218788"/>
    <nd ref="108218789"/>
    <nd ref="108218791"/>
    <nd ref="108218792"/>
    <tag k="created_by" v="Potlatch 0.10"/>
    <tag k="highway" v="residential"/>
    <tag k="name" v="Anton-Steinböck-Gasse"/>
  </way>
  <way id="29129586" version="2" timestamp="2009-01-21T18:02:15Z" uid="92725" user="Albin74" changeset="822522">
    <nd ref="108218786"/>
    <nd ref="108218787"/>
    <nd ref="108218788"/>
    <nd ref="108218789"/>
    <nd ref="108218791"/>
    <nd ref="108218792"/>
    <tag k="created_by" v="Potlatch 0.10f"/>
    <tag k="highway" v="residential"/>
    <tag k="maxspeed" v="30"/>
    <tag k="name" v="Anton-Steinböck-Gasse"/>
  </way>
  <way id="29129586" version="3" timestamp="2009-02-23T07:06:14Z" uid="92725" user="Albin74" changeset="634086">
    <nd ref="108218786"/>
    <nd ref="108218787"/>
    <nd ref="108218788"/>
    <nd ref="108218789"/>
    <nd ref="108218791"/>
    <nd ref="349767869"/>
    <nd ref="108218792"/>
    <tag k="created_by" v="Potlatch 0.10f"/>
    <tag k="highway" v="residential"/>
    <tag k="maxspeed" v="30"/>
    <tag k="name" v="Anton-Steinböck-Gasse"/>
  </way>
  <way id="29129586" version="4" timestamp="2010-01-12T21:25:58Z" uid="78656" user="Walter Schlögl" changeset="3606268">
    <nd ref="108218786"/>
    <nd ref="108218787"/>
    <nd ref="346143929"/>
    <nd ref="108218788"/>
    <nd ref="108218789"/>
    <nd ref="108218791"/>
    <nd ref="349767869"/>
    <nd ref="108218792"/>
    <tag k="highway" v="residential"/>
    <tag k="maxspeed" v="30"/>
    <tag k="name" v="Anton-Steinböck-Gasse"/>
  </way>
  <way id="29129586" version="5" timestamp="2011-02-22T15:20:38Z" uid="411359" user="Thomas Passauer" changeset="7364323">
    <nd ref="108218786"/>
    <nd ref="108218787"/>
    <nd ref="346143929"/>
    <nd ref="108218788"/>
    <nd ref="108218789"/>
    <nd ref="108218791"/>
    <nd ref="1166529502"/>
    <nd ref="1166529505"/>
    <nd ref="349767869"/>
    <nd ref="108218792"/>
    <tag k="highway" v="residential"/>
    <tag k="maxspeed" v="30"/>
    <tag k="name" v="Anton-Steinböck-Gasse"/>
  </way>
  <way id="29129586" version="6" timestamp="2011-02-22T16:16:43Z" uid="411359" user="Thomas Passauer" changeset="7364806">
    <nd ref="108218786"/>
    <nd ref="108218787"/>
    <nd ref="346143929"/>
    <nd ref="108218788"/>
    <nd ref="108218789"/>
    <nd ref="1166639816"/>
    <nd ref="108218791"/>
    <nd ref="1166529502"/>
    <nd ref="1166529505"/>
    <nd ref="349767869"/>
    <nd ref="108218792"/>
    <tag k="highway" v="residential"/>
    <tag k="maxspeed" v="30"/>
    <tag k="name" v="Anton-Steinböck-Gasse"/>
  </way>
  <way id="29129586" version="7" timestamp="2011-02-22T17:55:55Z" uid="411359" user="Thomas Passauer" changeset="7365688">
    <nd ref="108218786"/>
    <nd ref="108218787"/>
    <nd ref="346143929"/>
    <nd ref="108218788"/>
    <nd ref="108218789"/>
    <nd ref="1166639816"/>
    <nd ref="108218791"/>
    <nd ref="1166529502"/>
    <nd ref="1166529505"/>
    <nd ref="349767869"/>
    <nd ref="1166806923"/>
    <nd ref="108218792"/>
    <tag k="highway" v="residential"/>
    <tag k="maxspeed" v="30"/>
    <tag k="name" v="Anton-Steinböck-Gasse"/>
  </way>
  <way id="29129586" version="8" timestamp="2011-02-22T18:21:56Z" uid="411359" user="Thomas Passauer" changeset="7365904">
    <nd ref="108218786"/>
    <nd ref="108218787"/>
    <nd ref="346143929"/>
    <nd ref="108218788"/>
    <nd ref="108218789"/>
    <nd ref="1166639816"/>
    <nd ref="108218791"/>
    <nd ref="1166529502"/>
    <nd ref="1166529505"/>
    <nd ref="349767869"/>
    <nd ref="108218792"/>
    <tag k="highway" v="residential"/>
    <tag k="maxspeed" v="30"/>
    <tag k="name" v="Anton-Steinböck-Gasse"/>
  </way>
  <way id="29129587" version="1" timestamp="2008-12-21T09:37:54Z" uid="58091" user="Andreas M" changeset="514916">
    <nd ref="320462785"/>
    <nd ref="117589234"/>
    <tag k="created_by" v="Potlatch 0.10"/>
    <tag k="highway" v="residential"/>
    <tag k="name" v="Wilhelm-Kreß-Platz"/>
  </way>
  <way id="29129587" version="2" timestamp="2009-01-21T18:01:24Z" uid="92725" user="Albin74" changeset="822522">
    <nd ref="320462785"/>
    <nd ref="117589234"/>
    <tag k="created_by" v="Potlatch 0.10f"/>
    <tag k="highway" v="residential"/>
    <tag k="maxspeed" v="30"/>
    <tag k="name" v="Wilhelm-Kreß-Platz"/>
  </way>
  <way id="29129587" version="3" timestamp="2009-02-25T05:42:30Z" uid="92725" user="Albin74" changeset="669391">
    <nd ref="320462785"/>
    <nd ref="117589234"/>
    <tag k="created_by" v="Potlatch 0.10f"/>
    <tag k="highway" v="residential"/>
    <tag k="maxspeed" v="30"/>
    <tag k="name" v="Wilhelm-Kreß-Platz"/>
  </way>
  <way id="29129587" version="4" timestamp="2009-02-25T05:43:38Z" uid="92725" user="Albin74" changeset="669391">
    <nd ref="352280856"/>
    <nd ref="352280505"/>
    <nd ref="352280856"/>
    <nd ref="117589234"/>
    <tag k="created_by" v="Potlatch 0.10f"/>
    <tag k="highway" v="residential"/>
    <tag k="maxspeed" v="30"/>
    <tag k="name" v="Wilhelm-Kreß-Platz"/>
  </way>
  <way id="29129587" version="5" timestamp="2009-12-30T18:41:28Z" uid="45347" user="eriosw" changeset="3492585"/>
  <way id="29129588" version="1" timestamp="2008-12-21T09:37:54Z" uid="58091" user="Andreas M" changeset="514916">
    <nd ref="117588489"/>
    <nd ref="280562017"/>
    <nd ref="117588490"/>
    <tag k="created_by" v="Potlatch 0.10"/>
    <tag k="highway" v="residential"/>
    <tag k="name" v="Petzoldgasse"/>
  </way>
  <way id="29129588" version="2" timestamp="2009-01-21T18:02:29Z" uid="92725" user="Albin74" changeset="822522">
    <nd ref="117588489"/>
    <nd ref="280562017"/>
    <nd ref="117588490"/>
    <tag k="created_by" v="Potlatch 0.10f"/>
    <tag k="highway" v="residential"/>
    <tag k="maxspeed" v="30"/>
    <tag k="name" v="Petzoldgasse"/>
  </way>
  <way id="29129589" version="1" timestamp="2008-12-21T09:37:54Z" uid="58091" user="Andreas M" changeset="514916">
    <nd ref="117575166"/>
    <nd ref="108218792"/>
    <nd ref="117588717"/>
    <nd ref="117588489"/>
    <tag k="created_by" v="Potlatch 0.10"/>
    <tag k="highway" v="residential"/>
    <tag k="name" v="Reischekgasse"/>
  </way>
  <way id="29129589" version="2" timestamp="2009-01-21T18:03:18Z" uid="92725" user="Albin74" changeset="822522">
    <nd ref="117575166"/>
    <nd ref="108218792"/>
    <nd ref="117588717"/>
    <nd ref="117588489"/>
    <tag k="created_by" v="Potlatch 0.10f"/>
    <tag k="highway" v="residential"/>
    <tag k="maxspeed" v="30"/>
    <tag k="name" v="Reischekgasse"/>
  </way>
  <way id="29129589" version="3" timestamp="2011-02-22T15:20:05Z" uid="411359" user="Thomas Passauer" changeset="7364323">
    <nd ref="117575166"/>
    <nd ref="108218792"/>
    <nd ref="117588717"/>
    <nd ref="1166529511"/>
    <nd ref="117588489"/>
    <tag k="highway" v="residential"/>
    <tag k="maxspeed" v="30"/>
    <tag k="name" v="Reischekgasse"/>
  </way>
  <way id="29129590" version="1" timestamp="2008-12-21T09:37:54Z" uid="58091" user="Andreas M" changeset="514916">
    <nd ref="108219378"/>
    <nd ref="108219356"/>
    <nd ref="117588490"/>
    <nd ref="280562762"/>
    <tag k="created_by" v="Potlatch 0.10e"/>
    <tag k="highway" v="residential"/>
    <tag k="name" v="Weißenböckstraße"/>
  </way>
  <way id="29129590" version="2" timestamp="2009-01-21T18:01:32Z" uid="92725" user="Albin74" changeset="822522">
    <nd ref="108219378"/>
    <nd ref="108219356"/>
    <nd ref="117588490"/>
    <nd ref="280562762"/>
    <tag k="created_by" v="Potlatch 0.10f"/>
    <tag k="highway" v="residential"/>
    <tag k="maxspeed" v="30"/>
    <tag k="name" v="Weißenböckstraße"/>
  </way>
  <way id="29129590" version="3" timestamp="2009-01-21T18:13:33Z" uid="92725" user="Albin74" changeset="822522">
    <nd ref="108219378"/>
    <nd ref="108219356"/>
    <nd ref="117588490"/>
    <nd ref="280562762"/>
    <tag k="created_by" v="Potlatch 0.10f"/>
    <tag k="highway" v="residential"/>
    <tag k="maxspeed" v="30"/>
    <tag k="name" v="Weißenböckstraße"/>
  </way>
  <way id="29129590" version="4" timestamp="2009-01-21T18:13:58Z" uid="92725" user="Albin74" changeset="822522">
    <nd ref="108219378"/>
    <nd ref="334651536"/>
    <nd ref="108219356"/>
    <nd ref="117588490"/>
    <nd ref="280562762"/>
    <tag k="created_by" v="Potlatch 0.10f"/>
    <tag k="highway" v="residential"/>
    <tag k="maxspeed" v="30"/>
    <tag k="name" v="Weißenböckstraße"/>
  </way>
  <way id="29129590" version="5" timestamp="2009-01-21T18:14:38Z" uid="92725" user="Albin74" changeset="822522">
    <nd ref="108219378"/>
    <nd ref="334651536"/>
    <nd ref="108219356"/>
    <nd ref="117588490"/>
    <nd ref="280562762"/>
    <tag k="created_by" v="Potlatch 0.10f"/>
    <tag k="highway" v="residential"/>
    <tag k="maxspeed" v="30"/>
    <tag k="name" v="Weißenböckstraße"/>
  </way>
  <way id="29129590" version="6" timestamp="2009-01-21T18:14:48Z" uid="92725" user="Albin74" changeset="822522">
    <nd ref="108219378"/>
    <nd ref="334651536"/>
    <nd ref="108219356"/>
    <nd ref="117588490"/>
    <nd ref="280562762"/>
    <tag k="created_by" v="Potlatch 0.10f"/>
    <tag k="highway" v="residential"/>
    <tag k="maxspeed" v="30"/>
    <tag k="name" v="Weißenböckstraße"/>
  </way>
  <way id="29129590" version="7" timestamp="2009-01-21T18:15:31Z" uid="92725" user="Albin74" changeset="822522">
    <nd ref="334651536"/>
    <nd ref="334651536"/>
    <nd ref="108219356"/>
    <nd ref="117588490"/>
    <nd ref="280562762"/>
    <tag k="created_by" v="Potlatch 0.10f"/>
    <tag k="highway" v="residential"/>
    <tag k="maxspeed" v="30"/>
    <tag k="name" v="Weißenböckstraße"/>
  </way>
  <way id="29129590" version="8" timestamp="2009-07-20T03:25:52Z" uid="1679" user="andrewpmk" changeset="1880379">
    <nd ref="334651536"/>
    <nd ref="108219356"/>
    <nd ref="117588490"/>
    <nd ref="280562762"/>
    <tag k="highway" v="residential"/>
    <tag k="maxspeed" v="30"/>
    <tag k="name" v="Weißenböckstraße"/>
  </way>
  <way id="29129590" version="9" timestamp="2011-02-22T15:20:08Z" uid="411359" user="Thomas Passauer" changeset="7364323">
    <nd ref="334651536"/>
    <nd ref="108219356"/>
    <nd ref="117588490"/>
    <nd ref="1166529513"/>
    <nd ref="280562762"/>
    <tag k="highway" v="residential"/>
    <tag k="maxspeed" v="30"/>
    <tag k="name" v="Weißenböckstraße"/>
  </way>
  <way id="29129591" version="1" timestamp="2008-12-21T09:37:55Z" uid="58091" user="Andreas M" changeset="514916">
    <nd ref="280562762"/>
    <nd ref="117589234"/>
    <nd ref="117570406"/>
    <nd ref="280562856"/>
    <tag k="created_by" v="Potlatch 0.10e"/>
    <tag k="highway" v="residential"/>
    <tag k="name" v="Wilhelm-Kreß-Platz"/>
  </way>
  <way id="29129591" version="2" timestamp="2009-01-04T11:39:14Z" uid="54806" user="_al" changeset="728571">
    <nd ref="280562762"/>
    <nd ref="117589234"/>
    <nd ref="117570406"/>
    <nd ref="280562856"/>
    <tag k="created_by" v="Potlatch 0.10f"/>
    <tag k="highway" v="residential"/>
    <tag k="name" v="Wilhelm-Kreß-Platz"/>
  </way>
  <way id="29129591" version="3" timestamp="2009-11-30T01:02:24Z" uid="28205" user="kelvan" changeset="3252270">
    <nd ref="280562762"/>
    <nd ref="117589234"/>
    <nd ref="575340811"/>
    <nd ref="117570406"/>
    <nd ref="280562856"/>
    <tag k="highway" v="residential"/>
    <tag k="name" v="Wilhelm-Kreß-Platz"/>
  </way>
  <way id="29129592" version="1" timestamp="2008-12-21T09:37:55Z" uid="58091" user="Andreas M" changeset="514916">
    <nd ref="280562856"/>
    <nd ref="108219357"/>
    <nd ref="117573907"/>
    <nd ref="117570968"/>
    <nd ref="29666815"/>
    <tag k="created_by" v="Potlatch 0.10e"/>
    <tag k="highway" v="residential"/>
    <tag k="name" v="Weißenböckstraße"/>
  </way>
  <way id="29129592" version="2" timestamp="2009-01-21T17:44:40Z" uid="92725" user="Albin74" changeset="822522">
    <nd ref="280562856"/>
    <nd ref="108219357"/>
    <nd ref="117573907"/>
    <nd ref="117570968"/>
    <nd ref="29666815"/>
    <tag k="created_by" v="Potlatch 0.10f"/>
    <tag k="highway" v="residential"/>
    <tag k="name" v="Weißenböckstraße"/>
  </way>
  <way id="29129592" version="3" timestamp="2009-01-21T18:00:55Z" uid="92725" user="Albin74" changeset="822522">
    <nd ref="280562856"/>
    <nd ref="108219357"/>
    <nd ref="117573907"/>
    <nd ref="117570968"/>
    <nd ref="29666815"/>
    <tag k="created_by" v="Potlatch 0.10f"/>
    <tag k="highway" v="residential"/>
    <tag k="maxspeed" v="30"/>
    <tag k="name" v="Weißenböckstraße"/>
  </way>
  <way id="29129592" version="4" timestamp="2009-11-30T00:58:54Z" uid="28205" user="kelvan" changeset="3252252">
    <nd ref="280562856"/>
    <nd ref="108219357"/>
    <nd ref="117573907"/>
    <nd ref="575337040"/>
    <nd ref="117570968"/>
    <nd ref="29666815"/>
    <tag k="highway" v="residential"/>
    <tag k="maxspeed" v="30"/>
    <tag k="name" v="Weißenböckstraße"/>
  </way>
  <way id="29129592" version="5" timestamp="2011-02-22T15:20:41Z" uid="411359" user="Thomas Passauer" changeset="7364323">
    <nd ref="280562856"/>
    <nd ref="1166529507"/>
    <nd ref="108219357"/>
    <nd ref="117573907"/>
    <nd ref="575337040"/>
    <nd ref="117570968"/>
    <nd ref="29666815"/>
    <tag k="highway" v="residential"/>
    <tag k="maxspeed" v="30"/>
    <tag k="name" v="Weißenböckstraße"/>
  </way>
  <way id="29129593" version="1" timestamp="2008-12-21T09:37:55Z" uid="58091" user="Andreas M" changeset="514916">
    <nd ref="320462787"/>
    <nd ref="320462790"/>
    <nd ref="108224395"/>
    <nd ref="108224396"/>
    <nd ref="108224372"/>
    <tag k="created_by" v="Potlatch 0.10f"/>
    <tag k="highway" v="residential"/>
    <tag k="name" v="Ewaldgasse"/>
    <tag k="oneway" v="yes"/>
  </way>
  <way id="29129593" version="2" timestamp="2008-12-22T13:03:56Z" uid="58091" user="Andreas M" changeset="555602">
    <nd ref="320462787"/>
    <nd ref="320462790"/>
    <nd ref="108224395"/>
    <nd ref="108224396"/>
    <nd ref="108224372"/>
    <tag k="created_by" v="Potlatch 0.10f"/>
    <tag k="highway" v="residential"/>
    <tag k="name" v="Ewaldgasse"/>
  </way>
  <way id="29129593" version="3" timestamp="2009-01-04T11:37:29Z" uid="54806" user="_al" changeset="728571">
    <nd ref="320462787"/>
    <nd ref="320462790"/>
    <nd ref="108224395"/>
    <nd ref="108224396"/>
    <nd ref="108224372"/>
    <tag k="created_by" v="Potlatch 0.10f"/>
    <tag k="highway" v="residential"/>
    <tag k="name" v="Ewaldgasse"/>
  </way>
  <way id="29129593" version="4" timestamp="2009-02-20T21:55:00Z" uid="92725" user="Albin74" changeset="582768">
    <nd ref="320462787"/>
    <nd ref="320462790"/>
    <nd ref="108224395"/>
    <tag k="created_by" v="Potlatch 0.10f"/>
    <tag k="highway" v="residential"/>
    <tag k="name" v="Ewaldgasse"/>
  </way>
  <way id="29129593" version="5" timestamp="2009-02-20T21:55:46Z" uid="92725" user="Albin74" changeset="582768">
    <nd ref="320462787"/>
    <nd ref="320462790"/>
    <nd ref="108224395"/>
    <tag k="access" v="private"/>
    <tag k="created_by" v="Potlatch 0.10f"/>
    <tag k="highway" v="service"/>
  </way>
  <way id="29129593" version="6" timestamp="2009-10-06T03:47:11Z" uid="92725" user="Albin74" changeset="2756921"/>
  <way id="29129747" version="14" timestamp="2010-04-22T02:29:37Z" uid="4467" user="Rosscoe" changeset="4492200"/>
  <way id="29129203" version="3" timestamp="2012-07-19T07:45:56Z" uid="722137" user="OSMF Redaction Account" changeset="12312501"/>
  <way id="29129522" version="3" timestamp="2012-04-07T07:25:48Z" uid="149876" user="dbusse" changeset="11210183"/>
  <way id="29129584" version="2" timestamp="2012-07-16T23:39:25Z" uid="722137" user="OSMF Redaction Account" changeset="12253597"/>
  <way id="29129585" version="7" timestamp="2012-07-16T23:36:11Z" uid="722137" user="OSMF Redaction Account" changeset="12253552">
    <nd ref="334651542"/>
    <nd ref="1169789599"/>
    <tag k="maxspeed" v="30"/>
  </way>
  <way id="29129585" version="8" timestamp="2012-08-06T21:15:49Z" uid="660222" user="lemi74" changeset="12639108">
    <nd ref="334651542"/>
    <nd ref="1169789599"/>
    <tag k="highway" v="residential"/>
    <tag k="maxspeed" v="30"/>
    <tag k="name" v="Pretschgasse"/>
  </way>
  <way id="29129585" version="9" timestamp="2012-08-08T12:47:27Z" uid="202392" user="imagic" changeset="12656890">
    <nd ref="334651542"/>
    <nd ref="280563030"/>
    <nd ref="280562093"/>
    <nd ref="1169789599"/>
    <tag k="highway" v="residential"/>
    <tag k="maxspeed" v="30"/>
    <tag k="name" v="Pretschgasse"/>
  </way>
  <way id="29129586" version="9" timestamp="2012-07-16T23:36:11Z" uid="722137" user="OSMF Redaction Account" changeset="12253552">
    <nd ref="346143929"/>
    <nd ref="1166639816"/>
    <nd ref="1166529502"/>
    <nd ref="1166529505"/>
    <nd ref="349767869"/>
    <tag k="maxspeed" v="30"/>
  </way>
  <way id="29129586" version="10" timestamp="2012-07-19T23:52:55Z" uid="302363" user="fkv" changeset="12351817">
    <nd ref="346143929"/>
    <nd ref="108218788"/>
    <nd ref="108218789"/>
    <nd ref="1166639816"/>
    <nd ref="108218791"/>
    <nd ref="1831577914"/>
    <nd ref="1831577911"/>
    <nd ref="1831577913"/>
    <nd ref="1166529502"/>
    <nd ref="1166529505"/>
    <nd ref="1831577912"/>
    <nd ref="349767869"/>
    <nd ref="108218792"/>
    <tag k="highway" v="residential"/>
    <tag k="maxspeed" v="30"/>
    <tag k="name" v="Anton-Steinböck-Gasse"/>
  </way>
  <way id="29129588" version="3" timestamp="2012-07-16T23:39:23Z" uid="722137" user="OSMF Redaction Account" changeset="12253597"/>
  <way id="29129589" version="4" timestamp="2012-07-16T23:39:24Z" uid="722137" user="OSMF Redaction Account" changeset="12253597"/>
  <way id="29129590" version="10" timestamp="2012-07-16T23:36:11Z" uid="722137" user="OSMF Redaction Account" changeset="12253552">
    <nd ref="334651536"/>
    <nd ref="1166529513"/>
    <tag k="maxspeed" v="30"/>
  </way>
  <way id="29129590" version="11" timestamp="2012-07-19T23:52:54Z" uid="302363" user="fkv" changeset="12351817">
    <nd ref="334651536"/>
    <nd ref="117588490"/>
    <nd ref="1166529513"/>
    <tag k="highway" v="residential"/>
    <tag k="maxspeed" v="30"/>
    <tag k="name" v="Weißenböckstraße"/>
  </way>
  <way id="29129591" version="4" timestamp="2012-07-16T23:39:24Z" uid="722137" user="OSMF Redaction Account" changeset="12253597"/>
  <way id="29129592" version="6" timestamp="2012-07-16T23:36:15Z" uid="722137" user="OSMF Redaction Account" changeset="12253552">
    <nd ref="1166529507"/>
    <nd ref="575337040"/>
    <tag k="maxspeed" v="30"/>
  </way>
  <way id="29129592" version="7" timestamp="2012-07-19T23:52:53Z" uid="302363" user="fkv" changeset="12351817">
    <nd ref="280562856"/>
    <nd ref="1831577909"/>
    <nd ref="1166529507"/>
    <nd ref="575337040"/>
    <nd ref="117570968"/>
    <nd ref="62647436"/>
    <nd ref="29666815"/>
    <tag k="highway" v="residential"/>
    <tag k="maxspeed" v="30"/>
    <tag k="name" v="Weißenböckstraße"/>
  </way>
  <way id="29129592" version="8" timestamp="2012-08-08T12:47:31Z" uid="202392" user="imagic" changeset="12656890">
    <nd ref="280562856"/>
    <nd ref="1831577909"/>
    <nd ref="1166529507"/>
    <nd ref="108219357"/>
    <nd ref="117573907"/>
    <nd ref="575337040"/>
    <nd ref="117570968"/>
    <nd ref="62647436"/>
    <nd ref="29666815"/>
    <tag k="highway" v="residential"/>
    <tag k="maxspeed" v="30"/>
    <tag k="name" v="Weißenböckstraße"/>
  </way>
</osm>
