<?xml version='1.0' encoding='UTF-8'?>
<osm version="0.6" generator="libosmium/2.20.0">
  <way id="29137205" version="2" timestamp="2010-07-07T08:48:21Z" uid="74617" user="JohnSmith" changeset="5156250">
    <nd ref="26733886"/>
    <nd ref="26733887"/>
    <tag k="bridge" v="yes"/>
    <tag k="highway" v="residential"/>
    <tag k="layer" v="1"/>
    <tag k="maxspeed" v="50"/>
    <tag k="maxspeed:source" v="default residential speed limit in Australia"/>
    <tag k="name" v="Masson Street"/>
  </way>
  <way id="29137205" version="3" timestamp="2010-09-04T12:36:25Z" uid="12434" user="nm7s9" changeset="5678450">
    <nd ref="26733886"/>
    <nd ref="26733887"/>
    <tag k="bridge" v="yes"/>
    <tag k="bridge_number" v="2043"/>
    <tag k="highway" v="residential"/>
    <tag k="layer" v="1"/>
    <tag k="maxspeed" v="50"/>
    <tag k="maxspeed:source" v="default residential speed limit in Australia"/>
    <tag k="name" v="Masson Street"/>
  </way>
  <way id="29137205" version="4" timestamp="2010-09-13T06:50:54Z" uid="12434" user="nm7s9" changeset="5766608">
    <nd ref="26733886"/>
    <nd ref="26733887"/>
    <tag k="bridge" v="yes"/>
    <tag k="bridge_number" v="2043"/>
    <tag k="highway" v="residential"/>
    <tag k="layer" v="1"/>
    <tag k="maxspeed" v="50"/>
    <tag k="maxspeed:source" v="default residential speed limit in Australia"/>
    <tag k="name" v="Masson Street"/>
    <tag k="source" v="survey"/>
  </way>
  <way id="29137205" version="5" timestamp="2012-01-18T00:43:17Z" uid="147510" user="woodpeck_fixbot" changeset="10423581">
    <nd ref="26733886"/>
    <nd ref="26733887"/>
    <tag k="bridge" v="yes"/>
    <tag k="bridge_number" v="2043"/>
    <tag k="highway" v="residential"/>
    <tag k="layer" v="1"/>
    <tag k="name" v="Masson Street"/>
    <tag k="source" v="survey"/>
  </way>
  <way id="29137207" version="2" timestamp="2010-07-07T08:49:53Z" uid="74617" user="JohnSmith" changeset="5156250">
    <nd ref="26733887"/>
    <nd ref="29173678"/>
    <nd ref="26733852"/>
    <nd ref="26733853"/>
    <nd ref="26733854"/>
    <nd ref="26733844"/>
    <tag k="highway" v="residential"/>
    <tag k="maxspeed" v="50"/>
    <tag k="maxspeed:source" v="default residential speed limit in Australia"/>
    <tag k="name" v="Masson Street"/>
  </way>
  <way id="29137207" version="3" timestamp="2010-08-27T10:31:03Z" uid="232912" user="Jack Kirby" changeset="5606029">
    <nd ref="26733887"/>
    <nd ref="29173678"/>
    <nd ref="26733852"/>
    <nd ref="26733853"/>
    <nd ref="882250801"/>
    <nd ref="26733854"/>
    <nd ref="882250648"/>
    <nd ref="26733844"/>
    <tag k="highway" v="residential"/>
    <tag k="maxspeed" v="50"/>
    <tag k="maxspeed:source" v="default residential speed limit in Australia"/>
    <tag k="name" v="Masson Street"/>
  </way>
  <way id="29137207" version="4" timestamp="2010-08-27T10:56:21Z" uid="232912" user="Jack Kirby" changeset="5606029">
    <nd ref="26733887"/>
    <nd ref="29173678"/>
    <nd ref="26733852"/>
    <nd ref="882288936"/>
    <nd ref="26733853"/>
    <nd ref="882250801"/>
    <nd ref="26733854"/>
    <nd ref="882250648"/>
    <nd ref="26733844"/>
    <tag k="highway" v="residential"/>
    <tag k="maxspeed" v="50"/>
    <tag k="maxspeed:source" v="default residential speed limit in Australia"/>
    <tag k="name" v="Masson Street"/>
  </way>
  <way id="29137207" version="5" timestamp="2010-09-06T11:23:20Z" uid="232912" user="Jack Kirby" changeset="5697024">
    <nd ref="26733887"/>
    <nd ref="29173678"/>
    <nd ref="898998876"/>
    <nd ref="26733852"/>
    <nd ref="898998831"/>
    <nd ref="882288936"/>
    <nd ref="26733853"/>
    <nd ref="898998663"/>
    <nd ref="882250801"/>
    <nd ref="26733854"/>
    <nd ref="882250648"/>
    <nd ref="898998709"/>
    <nd ref="26733844"/>
    <tag k="highway" v="residential"/>
    <tag k="maxspeed" v="50"/>
    <tag k="maxspeed:source" v="default residential speed limit in Australia"/>
    <tag k="name" v="Masson Street"/>
  </way>
  <way id="29137207" version="6" timestamp="2012-01-18T00:43:18Z" uid="147510" user="woodpeck_fixbot" changeset="10423581">
    <nd ref="26733887"/>
    <nd ref="29173678"/>
    <nd ref="898998876"/>
    <nd ref="26733852"/>
    <nd ref="898998831"/>
    <nd ref="882288936"/>
    <nd ref="26733853"/>
    <nd ref="898998663"/>
    <nd ref="882250801"/>
    <nd ref="26733854"/>
    <nd ref="882250648"/>
    <nd ref="898998709"/>
    <nd ref="26733844"/>
    <tag k="highway" v="residential"/>
    <tag k="name" v="Masson Street"/>
  </way>
  <way id="29137985" version="4" timestamp="2009-01-03T17:28:54Z" uid="6975" user="ulfl" changeset="722303">
    <nd ref="320548338"/>
    <nd ref="320548472"/>
    <nd ref="320548473"/>
    <nd ref="320548474"/>
    <tag k="highway" v="track"/>
    <tag k="name" v="Teki Blanka utca"/>
    <tag k="tracktype" v="grade4"/>
  </way>
  <way id="29137985" version="5" timestamp="2011-02-25T20:46:17Z" uid="213945" user="kosba" changeset="7394084">
    <nd ref="320548338"/>
    <nd ref="1172921373"/>
    <nd ref="320548472"/>
    <nd ref="320548473"/>
    <nd ref="1172921464"/>
    <nd ref="320548474"/>
    <tag k="highway" v="residential"/>
    <tag k="name" v="Teki Blanka utca"/>
    <tag k="tracktype" v="grade4"/>
  </way>
  <way id="29137985" version="6" timestamp="2012-07-16T16:14:00Z" uid="722137" user="OSMF Redaction Account" changeset="12247450">
    <nd ref="320548338"/>
    <nd ref="1172921373"/>
    <nd ref="320548472"/>
    <nd ref="320548473"/>
    <nd ref="1172921464"/>
    <nd ref="320548474"/>
    <tag k="highway" v="residential"/>
    <tag k="name" v="Teki Blanka utca"/>
  </way>
</osm>
