<?xml version='1.0' encoding='UTF-8'?>
<osm version="0.6" generator="libosmium/2.20.0">
  <way id="29178000" version="1" timestamp="2008-12-22T13:15:18Z" uid="7617" user="Franc" changeset="550099">
    <nd ref="320888136"/>
    <nd ref="320888137"/>
    <tag k="highway" v="residential"/>
    <tag k="source" v="yahoo"/>
  </way>
  <way id="29178000" version="2" timestamp="2009-06-28T10:08:31Z" uid="7617" user="Franc" changeset="1660922">
    <nd ref="320888136"/>
    <nd ref="320888137"/>
    <tag k="highway" v="residential"/>
    <tag k="source" v="yahoo"/>
  </way>
  <way id="29178000" version="3" timestamp="2010-06-26T10:45:04Z" uid="7617" user="Franc" changeset="5079987">
    <nd ref="320888136"/>
    <nd ref="320888137"/>
    <tag k="highway" v="residential"/>
    <tag k="name" v="Hassarati Place"/>
    <tag k="source" v="survey"/>
  </way>
  <way id="29178000" version="4" timestamp="2010-07-07T22:35:55Z" uid="74617" user="JohnSmith" changeset="5162525">
    <nd ref="320888136"/>
    <nd ref="320888137"/>
    <tag k="highway" v="residential"/>
    <tag k="maxspeed" v="50"/>
    <tag k="maxspeed:source" v="default residential speed limit in Australia"/>
    <tag k="name" v="Hassarati Place"/>
    <tag k="source" v="survey"/>
  </way>
  <way id="29178000" version="5" timestamp="2012-01-18T00:48:29Z" uid="147510" user="woodpeck_fixbot" changeset="10423581">
    <nd ref="320888136"/>
    <nd ref="320888137"/>
    <tag k="highway" v="residential"/>
    <tag k="name" v="Hassarati Place"/>
    <tag k="source" v="survey"/>
  </way>
  <way id="29178001" version="1" timestamp="2008-12-22T13:15:18Z" uid="7617" user="Franc" changeset="550099">
    <nd ref="320888138"/>
    <nd ref="320888139"/>
    <nd ref="320888140"/>
    <tag k="highway" v="residential"/>
    <tag k="source" v="yahoo"/>
  </way>
  <way id="29178001" version="2" timestamp="2009-05-16T04:07:34Z" uid="7617" user="Franc" changeset="1205849">
    <nd ref="320888138"/>
    <nd ref="320888139"/>
    <nd ref="320888140"/>
    <tag k="highway" v="residential"/>
    <tag k="name" v="Lavender Close"/>
    <tag k="source" v="yahoo"/>
  </way>
  <way id="29178001" version="3" timestamp="2010-07-07T22:27:29Z" uid="74617" user="JohnSmith" changeset="5162525">
    <nd ref="320888138"/>
    <nd ref="320888139"/>
    <nd ref="320888140"/>
    <tag k="highway" v="residential"/>
    <tag k="maxspeed" v="50"/>
    <tag k="maxspeed:source" v="default residential speed limit in Australia"/>
    <tag k="name" v="Lavender Close"/>
    <tag k="source" v="yahoo"/>
  </way>
  <way id="29178001" version="4" timestamp="2012-01-18T00:48:30Z" uid="147510" user="woodpeck_fixbot" changeset="10423581">
    <nd ref="320888138"/>
    <nd ref="320888139"/>
    <nd ref="320888140"/>
    <tag k="highway" v="residential"/>
    <tag k="name" v="Lavender Close"/>
    <tag k="source" v="yahoo"/>
  </way>
  <way id="29178002" version="1" timestamp="2008-12-22T13:15:19Z" uid="7617" user="Franc" changeset="550099">
    <nd ref="320888142"/>
    <nd ref="320888145"/>
    <nd ref="320888196"/>
    <nd ref="320888143"/>
    <tag k="highway" v="residential"/>
    <tag k="source" v="yahoo"/>
  </way>
  <way id="29178002" version="2" timestamp="2009-05-16T04:07:34Z" uid="7617" user="Franc" changeset="1205849">
    <nd ref="320888142"/>
    <nd ref="320888145"/>
    <nd ref="320888196"/>
    <nd ref="401421384"/>
    <tag k="highway" v="residential"/>
    <tag k="name" v="Bottlebrush Avenue"/>
    <tag k="source" v="survey"/>
  </way>
  <way id="29178002" version="3" timestamp="2010-07-07T22:32:03Z" uid="74617" user="JohnSmith" changeset="5162525">
    <nd ref="320888142"/>
    <nd ref="320888145"/>
    <nd ref="320888196"/>
    <nd ref="401421384"/>
    <tag k="highway" v="residential"/>
    <tag k="maxspeed" v="50"/>
    <tag k="maxspeed:source" v="default residential speed limit in Australia"/>
    <tag k="name" v="Bottlebrush Avenue"/>
    <tag k="source" v="survey"/>
  </way>
  <way id="29178002" version="4" timestamp="2012-01-18T00:48:32Z" uid="147510" user="woodpeck_fixbot" changeset="10423581">
    <nd ref="320888142"/>
    <nd ref="320888145"/>
    <nd ref="320888196"/>
    <nd ref="401421384"/>
    <tag k="highway" v="residential"/>
    <tag k="name" v="Bottlebrush Avenue"/>
    <tag k="source" v="survey"/>
  </way>
  <way id="29178003" version="1" timestamp="2008-12-22T13:15:20Z" uid="7617" user="Franc" changeset="550099">
    <nd ref="320888145"/>
    <nd ref="320888207"/>
    <nd ref="320888208"/>
    <nd ref="297583632"/>
    <tag k="highway" v="residential"/>
    <tag k="source" v="yahoo"/>
  </way>
  <way id="29178003" version="2" timestamp="2009-05-16T04:07:34Z" uid="7617" user="Franc" changeset="1205849">
    <nd ref="320888145"/>
    <nd ref="320888207"/>
    <nd ref="320888208"/>
    <nd ref="297583632"/>
    <tag k="highway" v="residential"/>
    <tag k="name" v="Fox Grove Road"/>
    <tag k="source" v="survey"/>
  </way>
  <way id="29178003" version="3" timestamp="2010-07-07T22:33:59Z" uid="74617" user="JohnSmith" changeset="5162525">
    <nd ref="320888145"/>
    <nd ref="320888207"/>
    <nd ref="320888208"/>
    <nd ref="297583632"/>
    <tag k="highway" v="residential"/>
    <tag k="maxspeed" v="50"/>
    <tag k="maxspeed:source" v="default residential speed limit in Australia"/>
    <tag k="name" v="Fox Grove Road"/>
    <tag k="source" v="survey"/>
  </way>
  <way id="29178003" version="4" timestamp="2012-01-18T00:48:33Z" uid="147510" user="woodpeck_fixbot" changeset="10423581">
    <nd ref="320888145"/>
    <nd ref="320888207"/>
    <nd ref="320888208"/>
    <nd ref="297583632"/>
    <tag k="highway" v="residential"/>
    <tag k="name" v="Fox Grove Road"/>
    <tag k="source" v="survey"/>
  </way>
  <way id="29178004" version="1" timestamp="2008-12-22T13:15:21Z" uid="7617" user="Franc" changeset="550099">
    <nd ref="320888150"/>
    <nd ref="320888183"/>
    <nd ref="320888143"/>
    <tag k="highway" v="residential"/>
    <tag k="source" v="yahoo"/>
  </way>
  <way id="29178004" version="2" timestamp="2009-05-16T04:07:34Z" uid="7617" user="Franc" changeset="1205849">
    <nd ref="320888150"/>
    <nd ref="320888183"/>
    <nd ref="401421385"/>
    <tag k="highway" v="residential"/>
    <tag k="name" v="Bottlebrush Avenue"/>
    <tag k="source" v="survey"/>
  </way>
  <way id="29178004" version="3" timestamp="2010-07-07T22:34:27Z" uid="74617" user="JohnSmith" changeset="5162525">
    <nd ref="320888150"/>
    <nd ref="320888183"/>
    <nd ref="401421385"/>
    <tag k="highway" v="residential"/>
    <tag k="maxspeed" v="50"/>
    <tag k="maxspeed:source" v="default residential speed limit in Australia"/>
    <tag k="name" v="Bottlebrush Avenue"/>
    <tag k="source" v="survey"/>
  </way>
  <way id="29178004" version="4" timestamp="2012-01-18T00:48:34Z" uid="147510" user="woodpeck_fixbot" changeset="10423581">
    <nd ref="320888150"/>
    <nd ref="320888183"/>
    <nd ref="401421385"/>
    <tag k="highway" v="residential"/>
    <tag k="name" v="Bottlebrush Avenue"/>
    <tag k="source" v="survey"/>
  </way>
  <way id="29178005" version="1" timestamp="2008-12-22T13:15:22Z" uid="7617" user="Franc" changeset="550099">
    <nd ref="320888155"/>
    <nd ref="320888190"/>
    <nd ref="320888161"/>
    <tag k="highway" v="residential"/>
    <tag k="source" v="yahoo"/>
  </way>
  <way id="29178005" version="2" timestamp="2009-05-16T04:07:34Z" uid="7617" user="Franc" changeset="1205849">
    <nd ref="320888155"/>
    <nd ref="320888190"/>
    <nd ref="320888161"/>
    <tag k="highway" v="residential"/>
    <tag k="name" v="Darcy Street"/>
    <tag k="source" v="survey"/>
  </way>
  <way id="29178005" version="3" timestamp="2010-07-07T22:36:27Z" uid="74617" user="JohnSmith" changeset="5162525">
    <nd ref="320888155"/>
    <nd ref="320888190"/>
    <nd ref="320888161"/>
    <tag k="highway" v="residential"/>
    <tag k="maxspeed" v="50"/>
    <tag k="maxspeed:source" v="default residential speed limit in Australia"/>
    <tag k="name" v="Darcy Street"/>
    <tag k="source" v="survey"/>
  </way>
  <way id="29178005" version="4" timestamp="2012-01-18T00:48:35Z" uid="147510" user="woodpeck_fixbot" changeset="10423581">
    <nd ref="320888155"/>
    <nd ref="320888190"/>
    <nd ref="320888161"/>
    <tag k="highway" v="residential"/>
    <tag k="name" v="Darcy Street"/>
    <tag k="source" v="survey"/>
  </way>
  <way id="29178006" version="1" timestamp="2008-12-22T13:15:22Z" uid="7617" user="Franc" changeset="550099">
    <nd ref="320888165"/>
    <nd ref="320888167"/>
    <nd ref="320888182"/>
    <nd ref="320888168"/>
    <tag k="highway" v="residential"/>
    <tag k="source" v="yahoo"/>
  </way>
  <way id="29178006" version="2" timestamp="2009-05-16T04:07:34Z" uid="7617" user="Franc" changeset="1205849">
    <nd ref="320888165"/>
    <nd ref="320888167"/>
    <nd ref="320888182"/>
    <nd ref="320888168"/>
    <tag k="highway" v="residential"/>
    <tag k="name" v="Marjorie Close"/>
    <tag k="source" v="survey"/>
  </way>
  <way id="29178006" version="3" timestamp="2010-07-07T22:30:31Z" uid="74617" user="JohnSmith" changeset="5162525">
    <nd ref="320888165"/>
    <nd ref="320888167"/>
    <nd ref="320888182"/>
    <nd ref="320888168"/>
    <tag k="highway" v="residential"/>
    <tag k="maxspeed" v="50"/>
    <tag k="maxspeed:source" v="default residential speed limit in Australia"/>
    <tag k="name" v="Marjorie Close"/>
    <tag k="source" v="survey"/>
  </way>
  <way id="29178006" version="4" timestamp="2012-01-18T00:48:36Z" uid="147510" user="woodpeck_fixbot" changeset="10423581">
    <nd ref="320888165"/>
    <nd ref="320888167"/>
    <nd ref="320888182"/>
    <nd ref="320888168"/>
    <tag k="highway" v="residential"/>
    <tag k="name" v="Marjorie Close"/>
    <tag k="source" v="survey"/>
  </way>
  <way id="29178008" version="1" timestamp="2008-12-22T13:15:23Z" uid="7617" user="Franc" changeset="550099">
    <nd ref="320888182"/>
    <nd ref="320888183"/>
    <tag k="highway" v="residential"/>
    <tag k="source" v="yahoo"/>
  </way>
  <way id="29178008" version="2" timestamp="2009-05-16T04:07:34Z" uid="7617" user="Franc" changeset="1205849">
    <nd ref="320888182"/>
    <nd ref="320888183"/>
    <tag k="highway" v="residential"/>
    <tag k="name" v="Marjorie Close"/>
    <tag k="source" v="survey"/>
  </way>
  <way id="29178008" version="3" timestamp="2010-07-07T22:33:10Z" uid="74617" user="JohnSmith" changeset="5162525">
    <nd ref="320888182"/>
    <nd ref="320888183"/>
    <tag k="highway" v="residential"/>
    <tag k="maxspeed" v="50"/>
    <tag k="maxspeed:source" v="default residential speed limit in Australia"/>
    <tag k="name" v="Marjorie Close"/>
    <tag k="source" v="survey"/>
  </way>
  <way id="29178008" version="4" timestamp="2012-01-18T00:48:38Z" uid="147510" user="woodpeck_fixbot" changeset="10423581">
    <nd ref="320888182"/>
    <nd ref="320888183"/>
    <tag k="highway" v="residential"/>
    <tag k="name" v="Marjorie Close"/>
    <tag k="source" v="survey"/>
  </way>
  <way id="29178009" version="1" timestamp="2008-12-22T13:15:24Z" uid="7617" user="Franc" changeset="550099">
    <nd ref="320888188"/>
    <nd ref="320888197"/>
    <nd ref="320888198"/>
    <nd ref="320888199"/>
    <nd ref="320888189"/>
    <nd ref="320888200"/>
    <nd ref="320888201"/>
    <nd ref="320888190"/>
    <tag k="highway" v="residential"/>
    <tag k="source" v="yahoo"/>
  </way>
  <way id="29178009" version="2" timestamp="2009-05-16T04:07:34Z" uid="7617" user="Franc" changeset="1205849">
    <nd ref="320888188"/>
    <nd ref="320888197"/>
    <nd ref="320888198"/>
    <nd ref="320888199"/>
    <nd ref="320888189"/>
    <nd ref="320888200"/>
    <nd ref="320888201"/>
    <nd ref="320888190"/>
    <tag k="highway" v="residential"/>
    <tag k="name" v="Erin Place"/>
    <tag k="source" v="survey"/>
  </way>
  <way id="29178009" version="3" timestamp="2010-07-07T22:34:59Z" uid="74617" user="JohnSmith" changeset="5162525">
    <nd ref="320888188"/>
    <nd ref="320888197"/>
    <nd ref="320888198"/>
    <nd ref="320888199"/>
    <nd ref="320888189"/>
    <nd ref="320888200"/>
    <nd ref="320888201"/>
    <nd ref="320888190"/>
    <tag k="highway" v="residential"/>
    <tag k="maxspeed" v="50"/>
    <tag k="maxspeed:source" v="default residential speed limit in Australia"/>
    <tag k="name" v="Erin Place"/>
    <tag k="source" v="survey"/>
  </way>
  <way id="29178009" version="4" timestamp="2012-01-18T00:48:39Z" uid="147510" user="woodpeck_fixbot" changeset="10423581">
    <nd ref="320888188"/>
    <nd ref="320888197"/>
    <nd ref="320888198"/>
    <nd ref="320888199"/>
    <nd ref="320888189"/>
    <nd ref="320888200"/>
    <nd ref="320888201"/>
    <nd ref="320888190"/>
    <tag k="highway" v="residential"/>
    <tag k="name" v="Erin Place"/>
    <tag k="source" v="survey"/>
  </way>
  <way id="29178010" version="1" timestamp="2008-12-22T13:15:24Z" uid="7617" user="Franc" changeset="550099">
    <nd ref="320888192"/>
    <nd ref="320888193"/>
    <nd ref="320888206"/>
    <nd ref="320888205"/>
    <nd ref="320888194"/>
    <nd ref="320888203"/>
    <nd ref="320888202"/>
    <nd ref="320888195"/>
    <nd ref="320888192"/>
    <nd ref="320888196"/>
    <tag k="highway" v="residential"/>
    <tag k="source" v="yahoo"/>
  </way>
  <way id="29178010" version="2" timestamp="2009-05-16T04:07:33Z" uid="7617" user="Franc" changeset="1205849">
    <nd ref="320888192"/>
    <nd ref="320888193"/>
    <nd ref="320888206"/>
    <nd ref="320888205"/>
    <nd ref="320888194"/>
    <nd ref="320888203"/>
    <nd ref="320888202"/>
    <nd ref="320888195"/>
    <tag k="highway" v="residential"/>
    <tag k="name" v="Paperbark Circuit"/>
    <tag k="source" v="survey"/>
  </way>
  <way id="29178010" version="3" timestamp="2010-07-07T22:29:00Z" uid="74617" user="JohnSmith" changeset="5162525">
    <nd ref="320888192"/>
    <nd ref="320888193"/>
    <nd ref="320888206"/>
    <nd ref="320888205"/>
    <nd ref="320888194"/>
    <nd ref="320888203"/>
    <nd ref="320888202"/>
    <nd ref="320888195"/>
    <tag k="highway" v="residential"/>
    <tag k="maxspeed" v="50"/>
    <tag k="maxspeed:source" v="default residential speed limit in Australia"/>
    <tag k="name" v="Paperbark Circuit"/>
    <tag k="source" v="survey"/>
  </way>
  <way id="29178010" version="4" timestamp="2012-01-18T00:48:41Z" uid="147510" user="woodpeck_fixbot" changeset="10423581">
    <nd ref="320888192"/>
    <nd ref="320888193"/>
    <nd ref="320888206"/>
    <nd ref="320888205"/>
    <nd ref="320888194"/>
    <nd ref="320888203"/>
    <nd ref="320888202"/>
    <nd ref="320888195"/>
    <tag k="highway" v="residential"/>
    <tag k="name" v="Paperbark Circuit"/>
    <tag k="source" v="survey"/>
  </way>
  <way id="29178089" version="1" timestamp="2008-12-22T13:20:05Z" uid="58091" user="Andreas M" changeset="555602">
    <nd ref="320889090"/>
    <nd ref="320889092"/>
    <nd ref="320889094"/>
    <tag k="highway" v="residential"/>
    <tag k="name" v="Wallagasse"/>
  </way>
  <way id="29178089" version="2" timestamp="2011-03-02T22:32:39Z" uid="12295" user="mapper_07" changeset="7441940">
    <nd ref="320889090"/>
    <nd ref="320889092"/>
    <nd ref="1183573093"/>
    <nd ref="320889094"/>
    <nd ref="1183573035"/>
    <tag k="highway" v="residential"/>
    <tag k="name" v="Wallagasse"/>
  </way>
  <way id="29178169" version="1" timestamp="2008-12-22T13:21:26Z" uid="58091" user="Andreas M" changeset="555602">
    <nd ref="320889348"/>
    <nd ref="320889349"/>
    <nd ref="99126822"/>
    <tag k="highway" v="residential"/>
    <tag k="name" v="Wiedermanngasse"/>
  </way>
  <way id="29178214" version="1" timestamp="2008-12-22T13:24:49Z" uid="58091" user="Andreas M" changeset="555602">
    <nd ref="33823428"/>
    <nd ref="117790771"/>
    <nd ref="117790769"/>
    <nd ref="117790768"/>
    <nd ref="99127398"/>
    <tag k="created_by" v="Potlatch 0.5a"/>
    <tag k="highway" v="residential"/>
    <tag k="name" v="Wopenkastraße"/>
  </way>
  <way id="29178214" version="2" timestamp="2009-01-06T05:37:17Z" uid="54806" user="_al" changeset="743280">
    <nd ref="33823428"/>
    <nd ref="117790771"/>
    <nd ref="117790769"/>
    <nd ref="117790768"/>
    <nd ref="99127398"/>
    <tag k="created_by" v="Potlatch 0.10f"/>
    <tag k="highway" v="residential"/>
    <tag k="name" v="Wopenkastraße"/>
  </way>
  <way id="29178307" version="1" timestamp="2008-12-22T13:28:25Z" uid="58091" user="Andreas M" changeset="555602">
    <nd ref="320891539"/>
    <nd ref="320891540"/>
    <tag k="highway" v="footway"/>
  </way>
  <way id="29178309" version="1" timestamp="2008-12-22T13:28:25Z" uid="58091" user="Andreas M" changeset="555602">
    <nd ref="320891540"/>
    <nd ref="320891541"/>
    <tag k="highway" v="residential"/>
    <tag k="name" v="Zwicklgasse"/>
  </way>
  <way id="29178310" version="1" timestamp="2008-12-22T13:28:26Z" uid="58091" user="Andreas M" changeset="555602">
    <nd ref="320891541"/>
    <nd ref="320891542"/>
    <tag k="highway" v="residential"/>
    <tag k="name" v="Münnichplatz"/>
  </way>
  <way id="29178448" version="1" timestamp="2008-12-22T13:33:00Z" uid="58091" user="Andreas M" changeset="555602">
    <nd ref="320892947"/>
    <nd ref="320892948"/>
    <tag k="highway" v="unclassified"/>
    <tag k="name" v="8. Haidequerstraße"/>
  </way>
  <way id="29178448" version="2" timestamp="2009-12-23T18:02:38Z" uid="78656" user="Walter Schlögl" changeset="3436470">
    <nd ref="320892947"/>
    <nd ref="320892948"/>
    <tag k="highway" v="residential"/>
    <tag k="name" v="8. Haidequerstraße"/>
  </way>
  <way id="29178449" version="1" timestamp="2008-12-22T13:33:00Z" uid="58091" user="Andreas M" changeset="555602">
    <nd ref="320892949"/>
    <nd ref="273104699"/>
    <tag k="highway" v="unclassified"/>
    <tag k="name" v="9. Haidequerstraße"/>
  </way>
  <way id="29178449" version="2" timestamp="2009-12-23T18:02:42Z" uid="78656" user="Walter Schlögl" changeset="3436470">
    <nd ref="320892949"/>
    <nd ref="273104699"/>
    <tag k="highway" v="residential"/>
    <tag k="name" v="9. Haidequerstraße"/>
  </way>
  <way id="29178555" version="1" timestamp="2008-12-22T13:39:34Z" uid="58091" user="Andreas M" changeset="555602">
    <nd ref="127371712"/>
    <nd ref="320893758"/>
    <tag k="highway" v="footway"/>
    <tag k="name" v="Grillgassenbrücke"/>
  </way>
  <way id="29178555" version="2" timestamp="2008-12-22T13:39:47Z" uid="58091" user="Andreas M" changeset="555602">
    <nd ref="127371712"/>
    <nd ref="320893758"/>
    <tag k="bicycle" v="yes"/>
    <tag k="highway" v="footway"/>
    <tag k="name" v="Grillgassenbrücke"/>
  </way>
  <way id="29178555" version="3" timestamp="2010-09-23T23:17:51Z" uid="231980" user="boerl2" changeset="5858736">
    <nd ref="127371712"/>
    <nd ref="320893758"/>
    <tag k="highway" v="steps"/>
    <tag k="name" v="Grillgassenbrücke"/>
  </way>
  <way id="29178555" version="4" timestamp="2012-02-04T22:02:48Z" uid="135339" user="mplusplus" changeset="10589014">
    <nd ref="127371712"/>
    <nd ref="1618220459"/>
    <nd ref="1618220444"/>
    <nd ref="320893758"/>
    <tag k="highway" v="steps"/>
    <tag k="name" v="Grillgassenbrücke"/>
    <tag k="source" v="geoimage.at hires"/>
  </way>
  <way id="29178556" version="1" timestamp="2008-12-22T13:39:34Z" uid="58091" user="Andreas M" changeset="555602">
    <nd ref="320893758"/>
    <nd ref="320893760"/>
    <tag k="bridge" v="yes"/>
    <tag k="highway" v="footway"/>
    <tag k="layer" v="1"/>
    <tag k="name" v="Grillgassenbrücke"/>
  </way>
  <way id="29178556" version="2" timestamp="2008-12-22T13:39:48Z" uid="58091" user="Andreas M" changeset="555602">
    <nd ref="320893758"/>
    <nd ref="320893760"/>
    <tag k="bicycle" v="yes"/>
    <tag k="bridge" v="yes"/>
    <tag k="highway" v="footway"/>
    <tag k="layer" v="1"/>
    <tag k="name" v="Grillgassenbrücke"/>
  </way>
  <way id="29178556" version="3" timestamp="2010-09-23T23:17:43Z" uid="231980" user="boerl2" changeset="5858736">
    <nd ref="320893758"/>
    <nd ref="923566830"/>
    <nd ref="320893760"/>
    <tag k="bicycle" v="yes"/>
    <tag k="bridge" v="yes"/>
    <tag k="highway" v="footway"/>
    <tag k="layer" v="1"/>
    <tag k="name" v="Grillgassenbrücke"/>
  </way>
  <way id="29178557" version="1" timestamp="2008-12-22T13:39:34Z" uid="58091" user="Andreas M" changeset="555602">
    <nd ref="320893760"/>
    <nd ref="320893763"/>
    <nd ref="320893764"/>
    <nd ref="320893765"/>
    <nd ref="29006511"/>
    <tag k="highway" v="footway"/>
    <tag k="name" v="Grillgassenbrücke"/>
  </way>
  <way id="29178557" version="2" timestamp="2008-12-22T13:39:48Z" uid="58091" user="Andreas M" changeset="555602">
    <nd ref="320893760"/>
    <nd ref="320893763"/>
    <nd ref="320893764"/>
    <nd ref="320893765"/>
    <nd ref="29006511"/>
    <tag k="bicycle" v="yes"/>
    <tag k="highway" v="footway"/>
    <tag k="name" v="Grillgassenbrücke"/>
  </way>
  <way id="29178557" version="3" timestamp="2010-09-23T23:17:46Z" uid="231980" user="boerl2" changeset="5858736">
    <nd ref="320893763"/>
    <nd ref="320893760"/>
    <tag k="highway" v="steps"/>
    <tag k="name" v="Grillgassenbrücke"/>
  </way>
  <way id="29178645" version="1" timestamp="2008-12-22T13:44:32Z" uid="58091" user="Andreas M" changeset="555602">
    <nd ref="320894585"/>
    <nd ref="320894587"/>
    <nd ref="320894588"/>
    <nd ref="320894589"/>
    <nd ref="320894590"/>
    <nd ref="320894591"/>
    <nd ref="320894594"/>
    <nd ref="320894597"/>
    <nd ref="320894601"/>
    <nd ref="320894604"/>
    <nd ref="320894606"/>
    <nd ref="320894608"/>
    <nd ref="320894585"/>
    <tag k="highway" v="residential"/>
    <tag k="junction" v="roundabout"/>
    <tag k="name" v="Anton-Stilling-Platz"/>
  </way>
  <way id="29178645" version="2" timestamp="2011-03-19T15:10:03Z" uid="411359" user="Thomas Passauer" changeset="7605954">
    <nd ref="320894606"/>
    <nd ref="320894608"/>
    <nd ref="320894585"/>
    <nd ref="320894587"/>
    <nd ref="320894588"/>
    <nd ref="320894589"/>
    <nd ref="320894590"/>
    <tag k="highway" v="residential"/>
    <tag k="junction" v="roundabout"/>
    <tag k="name" v="Anton-Stilling-Platz"/>
  </way>
  <way id="29178646" version="1" timestamp="2008-12-22T13:44:32Z" uid="58091" user="Andreas M" changeset="555602">
    <nd ref="320894594"/>
    <nd ref="117532078"/>
    <tag k="created_by" v="Potlatch 0.10f"/>
    <tag k="highway" v="residential"/>
    <tag k="name" v="Anton-Stilling-Platz"/>
    <tag k="oneway" v="yes"/>
  </way>
  <way id="29178646" version="2" timestamp="2009-02-27T18:56:31Z" uid="92725" user="Albin74" changeset="690158">
    <nd ref="320894594"/>
    <nd ref="117532078"/>
    <tag k="created_by" v="Potlatch 0.10f"/>
    <tag k="highway" v="residential"/>
    <tag k="name" v="Anton-Stilling-Platz"/>
  </way>
  <way id="29178647" version="1" timestamp="2008-12-22T13:44:33Z" uid="58091" user="Andreas M" changeset="555602">
    <nd ref="320894590"/>
    <nd ref="320894609"/>
    <tag k="created_by" v="Potlatch 0.10f"/>
    <tag k="highway" v="residential"/>
    <tag k="name" v="Anton-Stilling-Platz"/>
  </way>
  <way id="29178647" version="2" timestamp="2011-03-12T15:15:36Z" uid="411359" user="Thomas Passauer" changeset="7534257">
    <nd ref="320894590"/>
    <nd ref="1198520428"/>
    <nd ref="320894609"/>
    <tag k="highway" v="residential"/>
    <tag k="name" v="Anton-Stilling-Platz"/>
  </way>
  <way id="29178648" version="1" timestamp="2008-12-22T13:44:34Z" uid="58091" user="Andreas M" changeset="555602">
    <nd ref="117532078"/>
    <nd ref="76463102"/>
    <nd ref="76463103"/>
    <nd ref="108224394"/>
    <nd ref="108224395"/>
    <tag k="created_by" v="Potlatch 0.10f"/>
    <tag k="highway" v="residential"/>
    <tag k="name" v="Lorystraße"/>
    <tag k="oneway" v="yes"/>
  </way>
  <way id="29178648" version="2" timestamp="2009-01-04T11:36:11Z" uid="54806" user="_al" changeset="728571">
    <nd ref="117532078"/>
    <nd ref="76463102"/>
    <nd ref="76463103"/>
    <nd ref="108224394"/>
    <nd ref="108224395"/>
    <tag k="created_by" v="Potlatch 0.10f"/>
    <tag k="highway" v="residential"/>
    <tag k="lcn" v="yes"/>
    <tag k="name" v="Lorystraße"/>
    <tag k="oneway" v="yes"/>
  </way>
  <way id="29178648" version="3" timestamp="2009-01-04T11:37:18Z" uid="54806" user="_al" changeset="728571">
    <nd ref="117532078"/>
    <nd ref="76463102"/>
    <nd ref="76463103"/>
    <nd ref="108224394"/>
    <nd ref="108224395"/>
    <tag k="created_by" v="Potlatch 0.10f"/>
    <tag k="highway" v="residential"/>
    <tag k="lcn" v="yes"/>
    <tag k="name" v="Lorystraße"/>
  </way>
  <way id="29178648" version="4" timestamp="2009-01-04T11:37:43Z" uid="54806" user="_al" changeset="728571">
    <nd ref="117532078"/>
    <nd ref="76463102"/>
    <nd ref="76463103"/>
    <nd ref="108224394"/>
    <nd ref="108224395"/>
    <nd ref="325668297"/>
    <tag k="created_by" v="Potlatch 0.10f"/>
    <tag k="highway" v="residential"/>
    <tag k="lcn" v="yes"/>
    <tag k="name" v="Lorystraße"/>
  </way>
  <way id="29178648" version="5" timestamp="2009-02-23T19:24:00Z" uid="92725" user="Albin74" changeset="643668">
    <nd ref="117532078"/>
    <nd ref="76463102"/>
    <nd ref="76463103"/>
    <nd ref="108224394"/>
    <nd ref="108224395"/>
    <nd ref="325668297"/>
    <tag k="created_by" v="Potlatch 0.10f"/>
    <tag k="highway" v="residential"/>
    <tag k="lcn" v="yes"/>
    <tag k="name" v="Lorystraße"/>
  </way>
  <way id="29178648" version="6" timestamp="2009-02-23T19:24:14Z" uid="92725" user="Albin74" changeset="643668">
    <nd ref="117532078"/>
    <nd ref="76463102"/>
    <nd ref="76463103"/>
    <nd ref="108224394"/>
    <nd ref="108224395"/>
    <nd ref="325668297"/>
    <tag k="created_by" v="Potlatch 0.10f"/>
    <tag k="highway" v="residential"/>
    <tag k="lcn" v="yes"/>
    <tag k="name" v="Lorystraße"/>
  </way>
  <way id="29178648" version="7" timestamp="2009-02-23T19:24:28Z" uid="92725" user="Albin74" changeset="643668">
    <nd ref="117532078"/>
    <nd ref="76463102"/>
    <nd ref="76463103"/>
    <nd ref="108224394"/>
    <nd ref="108224395"/>
    <nd ref="325668297"/>
    <nd ref="350433073"/>
    <nd ref="280561652"/>
    <nd ref="280562522"/>
    <nd ref="280562521"/>
    <tag k="created_by" v="Potlatch 0.10f"/>
    <tag k="foot" v="yes"/>
    <tag k="highway" v="residential; cycleway"/>
    <tag k="lcn" v="yes"/>
    <tag k="name" v="Lorystraße"/>
  </way>
  <way id="29178648" version="8" timestamp="2009-02-23T19:25:10Z" uid="92725" user="Albin74" changeset="643668">
    <nd ref="117532078"/>
    <nd ref="76463102"/>
    <nd ref="76463103"/>
    <nd ref="108224394"/>
    <nd ref="108224395"/>
    <nd ref="325668297"/>
    <nd ref="350433073"/>
    <nd ref="280561652"/>
    <nd ref="280562522"/>
    <nd ref="350433588"/>
    <nd ref="280562521"/>
    <tag k="created_by" v="Potlatch 0.10f"/>
    <tag k="foot" v="yes"/>
    <tag k="highway" v="residential; cycleway"/>
    <tag k="lcn" v="yes"/>
    <tag k="name" v="Lorystraße"/>
  </way>
  <way id="29178648" version="9" timestamp="2009-02-23T19:32:10Z" uid="92725" user="Albin74" changeset="643668">
    <nd ref="117532078"/>
    <nd ref="76463102"/>
    <nd ref="76463103"/>
    <nd ref="108224394"/>
    <nd ref="108224395"/>
    <nd ref="325668297"/>
    <tag k="created_by" v="Potlatch 0.10f"/>
    <tag k="foot" v="yes"/>
    <tag k="highway" v="residential; cycleway"/>
    <tag k="lcn" v="yes"/>
    <tag k="name" v="Lorystraße"/>
  </way>
  <way id="29178648" version="10" timestamp="2009-02-23T19:32:19Z" uid="92725" user="Albin74" changeset="643668">
    <nd ref="117532078"/>
    <nd ref="76463102"/>
    <nd ref="76463103"/>
    <nd ref="108224394"/>
    <nd ref="108224395"/>
    <nd ref="325668297"/>
    <tag k="created_by" v="Potlatch 0.10f"/>
    <tag k="highway" v="residential"/>
    <tag k="lcn" v="yes"/>
    <tag k="name" v="Lorystraße"/>
  </way>
  <way id="29178648" version="11" timestamp="2011-07-26T17:49:59Z" uid="411359" user="Thomas Passauer" changeset="8838087">
    <nd ref="117532078"/>
    <nd ref="76463102"/>
    <nd ref="76463103"/>
    <nd ref="1375024689"/>
    <tag k="highway" v="residential"/>
    <tag k="lcn" v="yes"/>
    <tag k="name" v="Lorystraße"/>
  </way>
  <way id="29178648" version="12" timestamp="2011-07-26T17:59:40Z" uid="411359" user="Thomas Passauer" changeset="8838198">
    <nd ref="117532078"/>
    <nd ref="76463102"/>
    <nd ref="76463103"/>
    <nd ref="1375024689"/>
    <tag k="highway" v="residential"/>
    <tag k="lcn" v="yes"/>
    <tag k="maxspeed" v="30"/>
    <tag k="name" v="Lorystraße"/>
  </way>
  <way id="29178649" version="1" timestamp="2008-12-22T13:44:35Z" uid="58091" user="Andreas M" changeset="555602">
    <nd ref="320894609"/>
    <nd ref="127347037"/>
    <nd ref="78494372"/>
    <nd ref="127347245"/>
    <nd ref="127347397"/>
    <nd ref="78494373"/>
    <nd ref="127347581"/>
    <nd ref="312537830"/>
    <nd ref="78494374"/>
    <nd ref="122752357"/>
    <tag k="created_by" v="Potlatch 0.10f"/>
    <tag k="highway" v="residential"/>
    <tag k="name" v="Hasenleitengasse"/>
  </way>
  <way id="29178649" version="2" timestamp="2009-12-01T00:21:48Z" uid="28205" user="kelvan" changeset="3261055">
    <nd ref="320894609"/>
    <nd ref="127347037"/>
    <nd ref="78494372"/>
    <nd ref="127347245"/>
    <nd ref="127347397"/>
    <nd ref="78494373"/>
    <nd ref="127347581"/>
    <tag k="highway" v="residential"/>
    <tag k="name" v="Hasenleitengasse"/>
  </way>
  <way id="29178649" version="3" timestamp="2011-03-12T15:07:34Z" uid="411359" user="Thomas Passauer" changeset="7534179">
    <nd ref="320894609"/>
    <nd ref="127347037"/>
    <nd ref="78494372"/>
    <nd ref="127347245"/>
    <nd ref="372819705"/>
    <nd ref="127347397"/>
    <nd ref="78494373"/>
    <nd ref="127347581"/>
    <tag k="highway" v="residential"/>
    <tag k="name" v="Hasenleitengasse"/>
  </way>
  <way id="29178722" version="1" timestamp="2008-12-22T13:48:32Z" uid="58091" user="Andreas M" changeset="555602">
    <nd ref="320895212"/>
    <nd ref="320895216"/>
    <nd ref="320895218"/>
    <nd ref="320895220"/>
    <nd ref="320895222"/>
    <nd ref="320895224"/>
    <nd ref="320895225"/>
    <nd ref="320895226"/>
    <tag k="highway" v="unclassified"/>
    <tag k="name" v="Kanzelgarten"/>
  </way>
  <way id="29178722" version="2" timestamp="2009-01-21T05:09:39Z" uid="54806" user="_al" changeset="819303">
    <nd ref="320895212"/>
    <nd ref="320895216"/>
    <nd ref="320895218"/>
    <nd ref="320895220"/>
    <nd ref="320895222"/>
    <nd ref="320895224"/>
    <nd ref="320895225"/>
    <nd ref="320895226"/>
    <tag k="created_by" v="Potlatch 0.10f"/>
    <tag k="highway" v="unclassified"/>
    <tag k="name" v="Kanzelgarten"/>
  </way>
  <way id="29178722" version="3" timestamp="2009-12-23T17:57:19Z" uid="78656" user="Walter Schlögl" changeset="3436451">
    <nd ref="320895212"/>
    <nd ref="320895216"/>
    <nd ref="320895218"/>
    <nd ref="320895220"/>
    <nd ref="320895222"/>
    <nd ref="320895224"/>
    <nd ref="320895225"/>
    <nd ref="320895226"/>
    <tag k="highway" v="residential"/>
    <tag k="name" v="Kanzelgarten"/>
  </way>
  <way id="29178722" version="4" timestamp="2011-03-01T23:16:06Z" uid="12295" user="mapper_07" changeset="7434176">
    <nd ref="320895212"/>
    <nd ref="1181637172"/>
    <nd ref="1181636970"/>
    <nd ref="1181636638"/>
    <nd ref="320895216"/>
    <nd ref="320895218"/>
    <nd ref="320895220"/>
    <nd ref="320895222"/>
    <nd ref="320895224"/>
    <nd ref="320895225"/>
    <nd ref="320895226"/>
    <tag k="highway" v="residential"/>
    <tag k="name" v="Kanzelgarten"/>
  </way>
  <way id="29178748" version="2" timestamp="2009-09-29T01:35:47Z" uid="36809" user="pfoten_weg_!_" changeset="2672113">
    <nd ref="320895401"/>
    <nd ref="320895402"/>
    <nd ref="177615166"/>
    <nd ref="320895403"/>
    <nd ref="320895404"/>
    <tag k="access" v="no"/>
    <tag k="highway" v="service"/>
  </way>
  <way id="29178754" version="2" timestamp="2009-05-31T18:52:18Z" uid="17602" user="B10xyz" changeset="1372368">
    <nd ref="29306564"/>
    <nd ref="29306565"/>
    <nd ref="29306566"/>
    <nd ref="31317272"/>
    <nd ref="413599359"/>
    <tag k="created_by" v="Potlatch 0.10f"/>
    <tag k="name" v="Rio delle Vergini San Gerolamo"/>
    <tag k="waterway" v="canal"/>
    <tag k="width" v="8"/>
  </way>
  <way id="29178754" version="3" timestamp="2009-11-17T18:08:41Z" uid="17602" user="B10xyz" changeset="3143268">
    <nd ref="29306564"/>
    <nd ref="29306565"/>
    <nd ref="29306566"/>
    <nd ref="31317272"/>
    <nd ref="413599359"/>
    <tag k="name" v="Rio delle Vergini San Gerolamo"/>
    <tag k="waterway" v="canal"/>
    <tag k="width" v="8"/>
  </way>
  <way id="29178756" version="3" timestamp="2009-05-31T18:52:17Z" uid="17602" user="B10xyz" changeset="1372368">
    <nd ref="29306569"/>
    <nd ref="29306570"/>
    <nd ref="29306572"/>
    <nd ref="31317225"/>
    <nd ref="29306573"/>
    <tag k="created_by" v="Potlatch 0.10f"/>
    <tag k="name" v="Rio di Sant&apos;Anna"/>
    <tag k="waterway" v="canal"/>
    <tag k="width" v="8"/>
  </way>
  <way id="29178756" version="4" timestamp="2009-11-17T18:08:41Z" uid="17602" user="B10xyz" changeset="3143268">
    <nd ref="29306569"/>
    <nd ref="29306570"/>
    <nd ref="29306572"/>
    <nd ref="31317225"/>
    <nd ref="29306573"/>
    <tag k="name" v="Rio di Sant&apos;Anna"/>
    <tag k="waterway" v="canal"/>
    <tag k="width" v="8"/>
  </way>
  <way id="29178823" version="2" timestamp="2009-08-24T23:16:43Z" uid="36809" user="pfoten_weg_!_" changeset="2251012">
    <nd ref="320896316"/>
    <nd ref="320896317"/>
    <nd ref="320896318"/>
    <nd ref="320896319"/>
    <nd ref="320896316"/>
    <tag k="power" v="station"/>
  </way>
  <way id="29178823" version="3" timestamp="2010-02-13T23:09:16Z" uid="72235" user="Basstoelpel" changeset="3869334">
    <nd ref="320896316"/>
    <nd ref="320896317"/>
    <nd ref="320896318"/>
    <nd ref="320896319"/>
    <nd ref="320896316"/>
    <tag k="power" v="station"/>
    <tag k="voltage" v="110000"/>
  </way>
  <way id="29178823" version="4" timestamp="2011-11-23T20:13:50Z" uid="384060" user="aliponte" changeset="9925699">
    <nd ref="320896316"/>
    <nd ref="320896317"/>
    <nd ref="320896318"/>
    <nd ref="320896319"/>
    <nd ref="320896316"/>
    <tag k="power" v="cable_transition"/>
    <tag k="voltage" v="110000"/>
  </way>
  <way id="29178823" version="5" timestamp="2012-03-12T15:28:29Z" uid="544675" user="Obelixx" changeset="10956131">
    <nd ref="320896316"/>
    <nd ref="320896317"/>
    <nd ref="320896318"/>
    <nd ref="320896319"/>
    <nd ref="320896316"/>
    <tag k="power" v="station"/>
    <tag k="voltage" v="110000"/>
  </way>
  <way id="29178894" version="2" timestamp="2009-01-03T17:17:24Z" uid="6975" user="ulfl" changeset="722303">
    <nd ref="320896769"/>
    <nd ref="320896770"/>
    <tag k="highway" v="unclassified"/>
    <tag k="layer" v="-1"/>
    <tag k="name" v="Icknield Street"/>
    <tag k="rcn_ref" v="55"/>
    <tag k="source" v="survey"/>
    <tag k="tunnel" v="yes"/>
  </way>
  <way id="29178894" version="3" timestamp="2009-06-27T15:46:54Z" uid="32675" user="Xoff" changeset="1651056">
    <nd ref="320896769"/>
    <nd ref="320896770"/>
    <tag k="highway" v="unclassified"/>
    <tag k="layer" v="-1"/>
    <tag k="name" v="Icknield Street"/>
    <tag k="source" v="survey"/>
    <tag k="tunnel" v="yes"/>
  </way>
  <way id="29178936" version="2" timestamp="2009-11-17T18:09:02Z" uid="17602" user="B10xyz" changeset="3143268">
    <nd ref="31060117"/>
    <nd ref="29544681"/>
    <tag k="name" v="Rio della Ca&apos; Di DIo"/>
    <tag k="waterway" v="canal"/>
    <tag k="width" v="8"/>
  </way>
  <way id="29178950" version="3" timestamp="2009-11-17T18:10:31Z" uid="17602" user="B10xyz" changeset="3143268">
    <nd ref="31060946"/>
    <nd ref="31060947"/>
    <nd ref="31060948"/>
    <nd ref="31060949"/>
    <tag k="name" v="Rio dei Scudi Santa Ternita&apos;"/>
    <tag k="waterway" v="canal"/>
    <tag k="width" v="8"/>
  </way>
  <way id="29178950" version="4" timestamp="2011-04-07T12:00:32Z" uid="175551" user="coso" changeset="7793947">
    <nd ref="31060946"/>
    <nd ref="31060947"/>
    <nd ref="31060948"/>
    <nd ref="1235881113"/>
    <nd ref="31060949"/>
    <tag k="name" v="Rio dei Scudi Santa Ternita&apos;"/>
    <tag k="waterway" v="canal"/>
    <tag k="width" v="8"/>
  </way>
  <way id="29178000" version="6" timestamp="2012-07-22T04:18:33Z" uid="722137" user="OSMF Redaction Account" changeset="12425247"/>
  <way id="29178001" version="5" timestamp="2012-07-22T04:18:31Z" uid="722137" user="OSMF Redaction Account" changeset="12425247"/>
  <way id="29178002" version="5" timestamp="2012-07-22T04:18:30Z" uid="722137" user="OSMF Redaction Account" changeset="12425247"/>
  <way id="29178003" version="5" timestamp="2012-07-22T04:18:30Z" uid="722137" user="OSMF Redaction Account" changeset="12425247"/>
  <way id="29178004" version="5" timestamp="2012-07-22T04:18:30Z" uid="722137" user="OSMF Redaction Account" changeset="12425247"/>
  <way id="29178005" version="5" timestamp="2012-07-22T04:18:29Z" uid="722137" user="OSMF Redaction Account" changeset="12425247"/>
  <way id="29178006" version="5" timestamp="2012-07-22T04:18:31Z" uid="722137" user="OSMF Redaction Account" changeset="12425247"/>
  <way id="29178008" version="5" timestamp="2012-07-22T04:18:31Z" uid="722137" user="OSMF Redaction Account" changeset="12425247"/>
  <way id="29178009" version="5" timestamp="2012-07-22T04:18:28Z" uid="722137" user="OSMF Redaction Account" changeset="12425247"/>
  <way id="29178010" version="5" timestamp="2012-07-22T04:18:29Z" uid="722137" user="OSMF Redaction Account" changeset="12425247"/>
  <way id="29178089" version="3" timestamp="2012-07-16T23:19:39Z" uid="722137" user="OSMF Redaction Account" changeset="12253316">
    <nd ref="1183573093"/>
    <nd ref="1183573035"/>
  </way>
  <way id="29178089" version="4" timestamp="2012-08-05T19:30:46Z" uid="660222" user="lemi74" changeset="12625179"/>
  <way id="29178169" version="2" timestamp="2012-07-16T23:20:30Z" uid="722137" user="OSMF Redaction Account" changeset="12253342"/>
  <way id="29178214" version="3" timestamp="2012-07-16T23:20:27Z" uid="722137" user="OSMF Redaction Account" changeset="12253342"/>
  <way id="29178307" version="2" timestamp="2012-07-16T23:20:28Z" uid="722137" user="OSMF Redaction Account" changeset="12253342"/>
  <way id="29178309" version="2" timestamp="2012-07-16T23:20:28Z" uid="722137" user="OSMF Redaction Account" changeset="12253342"/>
  <way id="29178310" version="2" timestamp="2012-07-16T23:20:29Z" uid="722137" user="OSMF Redaction Account" changeset="12253342"/>
  <way id="29178448" version="3" timestamp="2012-07-16T23:20:31Z" uid="722137" user="OSMF Redaction Account" changeset="12253342"/>
  <way id="29178449" version="3" timestamp="2012-07-16T23:20:30Z" uid="722137" user="OSMF Redaction Account" changeset="12253342"/>
  <way id="29178555" version="5" timestamp="2012-07-16T23:36:22Z" uid="722137" user="OSMF Redaction Account" changeset="12253552">
    <nd ref="1618220459"/>
    <nd ref="1618220444"/>
    <tag k="highway" v="steps"/>
    <tag k="source" v="geoimage.at hires"/>
  </way>
  <way id="29178556" version="4" timestamp="2012-07-16T23:39:26Z" uid="722137" user="OSMF Redaction Account" changeset="12253597"/>
  <way id="29178557" version="4" timestamp="2012-07-16T23:39:26Z" uid="722137" user="OSMF Redaction Account" changeset="12253597"/>
  <way id="29178645" version="3" timestamp="2012-07-16T23:39:26Z" uid="722137" user="OSMF Redaction Account" changeset="12253597"/>
  <way id="29178646" version="3" timestamp="2012-07-16T23:39:26Z" uid="722137" user="OSMF Redaction Account" changeset="12253597"/>
  <way id="29178647" version="3" timestamp="2012-07-16T23:39:26Z" uid="722137" user="OSMF Redaction Account" changeset="12253597"/>
  <way id="29178648" version="13" timestamp="2012-07-12T13:14:17Z" uid="46912" user="ircecho" changeset="12195807">
    <nd ref="117532078"/>
    <nd ref="76463102"/>
    <nd ref="1822945871"/>
    <nd ref="76463103"/>
    <nd ref="1375024689"/>
    <tag k="highway" v="residential"/>
    <tag k="lcn" v="yes"/>
    <tag k="maxspeed" v="30"/>
    <tag k="name" v="Lorystraße"/>
  </way>
  <way id="29178648" version="14" timestamp="2012-07-16T23:36:21Z" uid="722137" user="OSMF Redaction Account" changeset="12253552">
    <nd ref="1822945871"/>
    <nd ref="1375024689"/>
    <tag k="lcn" v="yes"/>
    <tag k="maxspeed" v="30"/>
  </way>
  <way id="29178648" version="15" timestamp="2012-07-26T18:52:24Z" uid="129531" user="almich" changeset="12502639">
    <nd ref="1822945871"/>
    <nd ref="1375024689"/>
    <tag k="highway" v="residential"/>
    <tag k="lcn" v="yes"/>
    <tag k="maxspeed" v="30"/>
    <tag k="name" v="Lorystraße"/>
    <tag k="source" v="wien.gv.at"/>
  </way>
  <way id="29178649" version="4" timestamp="2012-07-16T23:39:26Z" uid="722137" user="OSMF Redaction Account" changeset="12253597"/>
  <way id="29178722" version="5" timestamp="2012-07-16T23:19:28Z" uid="722137" user="OSMF Redaction Account" changeset="12253316">
    <nd ref="1181637172"/>
    <nd ref="1181636970"/>
    <nd ref="1181636638"/>
    <tag k="highway" v="residential"/>
  </way>
  <way id="29178754" version="4" timestamp="2012-07-16T19:26:47Z" uid="722137" user="OSMF Redaction Account" changeset="12250238">
    <nd ref="29306564"/>
    <nd ref="29306565"/>
    <nd ref="29306566"/>
    <tag k="name" v="Rio delle Vergini San Gerolamo"/>
    <tag k="waterway" v="canal"/>
    <tag k="width" v="8"/>
  </way>
  <way id="29178754" version="5" timestamp="2012-07-30T14:05:24Z" uid="492784" user="Erkki Haarahaukka" changeset="12548615">
    <nd ref="1844015340"/>
    <nd ref="29306564"/>
    <nd ref="29306565"/>
    <nd ref="29306566"/>
    <tag k="name" v="Rio delle Vergini San Gerolamo"/>
    <tag k="waterway" v="canal"/>
    <tag k="width" v="8"/>
  </way>
  <way id="29178754" version="6" timestamp="2012-07-30T14:41:13Z" uid="492784" user="Erkki Haarahaukka" changeset="12549018">
    <nd ref="1844015340"/>
    <nd ref="29306564"/>
    <nd ref="1844067177"/>
    <nd ref="1844067175"/>
    <nd ref="1844067188"/>
    <nd ref="1844067250"/>
    <tag k="name" v="Rio delle Vergini San Gerolamo"/>
    <tag k="waterway" v="canal"/>
    <tag k="width" v="8"/>
  </way>
  <way id="29178756" version="5" timestamp="2012-07-16T19:28:55Z" uid="722137" user="OSMF Redaction Account" changeset="12250297"/>
  <way id="29178823" version="6" timestamp="2012-07-18T18:32:00Z" uid="384060" user="aliponte" changeset="12292686">
    <nd ref="320896316"/>
    <nd ref="320896317"/>
    <nd ref="320896318"/>
    <nd ref="320896319"/>
    <nd ref="320896316"/>
    <tag k="power" v="cable_transition"/>
  </way>
  <way id="29178936" version="3" timestamp="2012-07-16T19:28:53Z" uid="722137" user="OSMF Redaction Account" changeset="12250297"/>
  <way id="29178950" version="5" timestamp="2012-07-16T19:26:45Z" uid="722137" user="OSMF Redaction Account" changeset="12250238">
    <nd ref="31060948"/>
    <nd ref="1235881113"/>
    <nd ref="31060949"/>
    <tag k="name" v="Rio dei Scudi Santa Ternita&apos;"/>
    <tag k="waterway" v="canal"/>
    <tag k="width" v="8"/>
  </way>
  <way id="29178950" version="6" timestamp="2012-08-07T21:31:01Z" uid="334258" user="Kurt34" changeset="12650860">
    <nd ref="1844121263"/>
    <nd ref="1844121273"/>
    <nd ref="1844121264"/>
    <nd ref="1844121276"/>
    <nd ref="31060948"/>
    <nd ref="1235881113"/>
    <nd ref="31060949"/>
    <tag k="name" v="Rio dei Scudi Santa Ternita&apos;"/>
    <tag k="waterway" v="canal"/>
    <tag k="width" v="8"/>
  </way>
  <way id="29178950" version="7" timestamp="2012-08-31T19:42:49Z" uid="175551" user="coso" changeset="12935227">
    <nd ref="1844121263"/>
    <nd ref="1844121273"/>
    <nd ref="1844121264"/>
    <nd ref="1844121276"/>
    <nd ref="31060948"/>
    <nd ref="1235881113"/>
    <nd ref="1892078167"/>
    <nd ref="31060949"/>
    <tag k="name" v="Rio dei Scudi Santa Ternita&apos;"/>
    <tag k="waterway" v="canal"/>
    <tag k="width" v="8"/>
  </way>
</osm>
