<?xml version='1.0' encoding='UTF-8'?>
<osm version="0.6" generator="libosmium/2.20.0">
  <way id="29194055" version="5" timestamp="2009-01-09T19:39:08Z" uid="27600" user="Islanit" changeset="762808">
    <nd ref="321277821"/>
    <nd ref="321277820"/>
    <nd ref="321054356"/>
    <nd ref="321054358"/>
    <nd ref="321054359"/>
    <nd ref="321054362"/>
    <nd ref="321283336"/>
    <nd ref="321054364"/>
    <nd ref="321054367"/>
    <tag k="created_by" v="Potlatch 0.10f"/>
    <tag k="highway" v="residential"/>
    <tag k="name" v="Albert Schweizer Strasse"/>
    <tag k="source" v="DOP_LVA_BY_01"/>
  </way>
  <way id="29194055" version="6" timestamp="2009-01-14T19:13:59Z" uid="70696" user="xybot" changeset="788758">
    <nd ref="321277821"/>
    <nd ref="321277820"/>
    <nd ref="321054356"/>
    <nd ref="321054358"/>
    <nd ref="321054359"/>
    <nd ref="321054362"/>
    <nd ref="321283336"/>
    <nd ref="321054364"/>
    <nd ref="321054367"/>
    <tag k="created_by" v="xybot"/>
    <tag k="highway" v="residential"/>
    <tag k="name" v="Albert Schweizer Straße"/>
    <tag k="source" v="DOP_LVA_BY_01"/>
  </way>
  <way id="29194055" version="7" timestamp="2009-06-06T17:32:45Z" uid="72235" user="Basstoelpel" changeset="1440665">
    <nd ref="321277821"/>
    <nd ref="321277820"/>
    <nd ref="321054356"/>
    <nd ref="321054358"/>
    <nd ref="321054359"/>
    <nd ref="321054362"/>
    <nd ref="321283336"/>
    <nd ref="321054364"/>
    <nd ref="321054367"/>
    <tag k="created_by" v="xybot"/>
    <tag k="highway" v="residential"/>
    <tag k="name" v="Albert-Schweitzer-Straße"/>
    <tag k="source" v="DOP_LVA_BY_01"/>
  </way>
  <way id="29194055" version="8" timestamp="2009-09-05T12:59:48Z" uid="83881" user="jsflex" changeset="2380372">
    <nd ref="472347412"/>
    <nd ref="484628104"/>
    <nd ref="484628109"/>
    <nd ref="484628114"/>
    <tag k="highway" v="footway"/>
  </way>
  <way id="29194092" version="2" timestamp="2010-06-29T19:11:42Z" uid="74617" user="JohnSmith" changeset="5108182">
    <nd ref="321056797"/>
    <nd ref="321056798"/>
    <nd ref="321056799"/>
    <nd ref="321056800"/>
    <nd ref="321056802"/>
    <nd ref="321056803"/>
    <nd ref="321056804"/>
    <nd ref="321056797"/>
    <tag k="fixme" v="sport=football is ambiguous, see http://wiki.osm.org/wiki/Football for more details"/>
    <tag k="leisure" v="stadium"/>
    <tag k="name" v="Fizpatrick Stadium"/>
    <tag k="sport" v="football"/>
  </way>
  <way id="29194396" version="3" timestamp="2010-07-15T03:07:00Z" uid="4467" user="Rosscoe" changeset="5223253">
    <nd ref="249073658"/>
    <nd ref="321076802"/>
    <nd ref="321076810"/>
    <nd ref="249073657"/>
    <nd ref="321071659"/>
    <nd ref="249073656"/>
    <nd ref="818415363"/>
    <nd ref="321076936"/>
    <tag k="highway" v="trunk"/>
    <tag k="maxspeed" v="100"/>
    <tag k="name" v="Victor Harbor Road"/>
    <tag k="oneway" v="yes"/>
    <tag k="ref" v="A13"/>
    <tag k="source" v="knowledge;nearmap"/>
  </way>
  <way id="29194574" version="2" timestamp="2010-06-29T19:14:12Z" uid="74617" user="JohnSmith" changeset="5108182">
    <nd ref="321085008"/>
    <nd ref="321085009"/>
    <nd ref="321085010"/>
    <nd ref="321085014"/>
    <nd ref="321085008"/>
    <tag k="fixme" v="sport=football is ambiguous, see http://wiki.osm.org/wiki/Football for more details"/>
    <tag k="leisure" v="pitch"/>
    <tag k="sport" v="football"/>
  </way>
  <way id="29194092" version="3" timestamp="2012-07-18T20:45:46Z" uid="722137" user="OSMF Redaction Account" changeset="12297800">
    <nd ref="321056797"/>
    <nd ref="321056798"/>
    <nd ref="321056799"/>
    <nd ref="321056800"/>
    <nd ref="321056802"/>
    <nd ref="321056803"/>
    <nd ref="321056804"/>
    <nd ref="321056797"/>
    <tag k="leisure" v="stadium"/>
    <tag k="name" v="Fizpatrick Stadium"/>
    <tag k="sport" v="football"/>
  </way>
  <way id="29194396" version="4" timestamp="2012-07-04T11:28:23Z" uid="328538" user="o&apos;cholio" changeset="12109475">
    <nd ref="249073658"/>
    <nd ref="321076802"/>
    <nd ref="321076810"/>
    <nd ref="249073657"/>
    <nd ref="321071659"/>
    <nd ref="249073656"/>
    <nd ref="818415363"/>
    <nd ref="1812374240"/>
    <nd ref="321076936"/>
    <tag k="highway" v="trunk"/>
    <tag k="maxspeed" v="100"/>
    <tag k="name" v="Victor Harbor Road"/>
    <tag k="oneway" v="yes"/>
    <tag k="ref" v="A13"/>
    <tag k="source" v="knowledge;nearmap"/>
  </way>
  <way id="29194396" version="5" timestamp="2012-07-19T09:35:20Z" uid="722137" user="OSMF Redaction Account" changeset="12316363">
    <nd ref="249073658"/>
    <nd ref="321076802"/>
    <nd ref="321076810"/>
    <nd ref="249073657"/>
    <nd ref="321071659"/>
    <nd ref="249073656"/>
    <nd ref="1812374240"/>
    <tag k="highway" v="trunk"/>
    <tag k="maxspeed" v="100"/>
    <tag k="name" v="Victor Harbor Road"/>
    <tag k="ref" v="A13"/>
    <tag k="source" v="knowledge;nearmap"/>
  </way>
  <way id="29194396" version="6" timestamp="2012-07-20T07:07:01Z" uid="328538" user="o&apos;cholio" changeset="12365318">
    <nd ref="249073658"/>
    <nd ref="321076802"/>
    <nd ref="321076810"/>
    <nd ref="249073657"/>
    <nd ref="321071659"/>
    <nd ref="249073656"/>
    <nd ref="1812374240"/>
    <nd ref="321076936"/>
    <tag k="highway" v="trunk"/>
    <tag k="maxspeed" v="100"/>
    <tag k="name" v="Victor Harbor Road"/>
    <tag k="oneway" v="yes"/>
    <tag k="ref" v="A13"/>
    <tag k="source" v="knowledge;nearmap"/>
  </way>
  <way id="29194574" version="3" timestamp="2012-07-18T19:46:16Z" uid="722137" user="OSMF Redaction Account" changeset="12295554">
    <nd ref="321085008"/>
    <nd ref="321085009"/>
    <nd ref="321085010"/>
    <nd ref="321085014"/>
    <nd ref="321085008"/>
    <tag k="leisure" v="pitch"/>
    <tag k="sport" v="football"/>
  </way>
</osm>
