<?xml version='1.0' encoding='UTF-8'?>
<osm version="0.6" generator="libosmium/2.20.0">
  <way id="29331039" version="3" timestamp="2010-07-09T04:01:43Z" uid="74617" user="JohnSmith" changeset="5170825">
    <nd ref="688363955"/>
    <nd ref="322680419"/>
    <nd ref="688363963"/>
    <tag k="highway" v="residential"/>
    <tag k="maxspeed" v="50"/>
    <tag k="maxspeed:source" v="default residential speed limit in Australia"/>
    <tag k="name" v="Hawdon Street"/>
    <tag k="oneway" v="yes"/>
    <tag k="source" v="MMBW"/>
  </way>
  <way id="29331039" version="4" timestamp="2012-01-18T01:29:04Z" uid="147510" user="woodpeck_fixbot" changeset="10423581">
    <nd ref="688363955"/>
    <nd ref="322680419"/>
    <nd ref="688363963"/>
    <tag k="highway" v="residential"/>
    <tag k="name" v="Hawdon Street"/>
    <tag k="oneway" v="yes"/>
    <tag k="source" v="MMBW"/>
  </way>
  <way id="29331060" version="4" timestamp="2010-07-09T04:04:12Z" uid="74617" user="JohnSmith" changeset="5170825">
    <nd ref="322681045"/>
    <nd ref="322681046"/>
    <tag k="bridge" v="yes"/>
    <tag k="highway" v="residential"/>
    <tag k="layer" v="1"/>
    <tag k="maxspeed" v="50"/>
    <tag k="maxspeed:source" v="default residential speed limit in Australia"/>
    <tag k="name" v="Brown Street"/>
  </way>
  <way id="29331060" version="5" timestamp="2012-01-18T01:29:05Z" uid="147510" user="woodpeck_fixbot" changeset="10423581">
    <nd ref="322681045"/>
    <nd ref="322681046"/>
    <tag k="bridge" v="yes"/>
    <tag k="highway" v="residential"/>
    <tag k="layer" v="1"/>
    <tag k="name" v="Brown Street"/>
  </way>
  <way id="29331063" version="2" timestamp="2010-04-22T08:27:08Z" uid="4467" user="Rosscoe" changeset="4493416">
    <nd ref="322681046"/>
    <nd ref="703597220"/>
    <tag k="highway" v="residential"/>
    <tag k="name" v="Brown Street"/>
  </way>
  <way id="29331063" version="3" timestamp="2010-07-09T04:10:16Z" uid="74617" user="JohnSmith" changeset="5170825">
    <nd ref="322681046"/>
    <nd ref="703597220"/>
    <tag k="highway" v="residential"/>
    <tag k="maxspeed" v="50"/>
    <tag k="maxspeed:source" v="default residential speed limit in Australia"/>
    <tag k="name" v="Brown Street"/>
  </way>
  <way id="29331063" version="4" timestamp="2012-01-18T01:29:06Z" uid="147510" user="woodpeck_fixbot" changeset="10423581">
    <nd ref="322681046"/>
    <nd ref="703597220"/>
    <tag k="highway" v="residential"/>
    <tag k="name" v="Brown Street"/>
  </way>
  <way id="29331063" version="5" timestamp="2012-03-02T22:35:53Z" uid="211804" user="KenS" changeset="10853151">
    <nd ref="322681046"/>
    <nd ref="1656779137"/>
    <nd ref="703597220"/>
    <tag k="highway" v="residential"/>
    <tag k="name" v="Brown Street"/>
  </way>
  <way id="29331139" version="4" timestamp="2010-07-09T04:08:47Z" uid="74617" user="JohnSmith" changeset="5170825">
    <nd ref="322681343"/>
    <nd ref="688374209"/>
    <nd ref="688374136"/>
    <nd ref="322681496"/>
    <tag k="highway" v="residential"/>
    <tag k="maxspeed" v="50"/>
    <tag k="maxspeed:source" v="default residential speed limit in Australia"/>
    <tag k="name" v="Cartmell Street"/>
  </way>
  <way id="29331139" version="5" timestamp="2012-01-18T01:29:07Z" uid="147510" user="woodpeck_fixbot" changeset="10423581">
    <nd ref="322681343"/>
    <nd ref="688374209"/>
    <nd ref="688374136"/>
    <nd ref="322681496"/>
    <tag k="highway" v="residential"/>
    <tag k="name" v="Cartmell Street"/>
  </way>
  <way id="29331171" version="2" timestamp="2010-07-09T04:12:19Z" uid="74617" user="JohnSmith" changeset="5170825">
    <nd ref="322681869"/>
    <nd ref="322681914"/>
    <nd ref="322681915"/>
    <nd ref="321991907"/>
    <tag k="highway" v="residential"/>
    <tag k="maxspeed" v="50"/>
    <tag k="maxspeed:source" v="default residential speed limit in Australia"/>
    <tag k="name" v="Durham Street"/>
    <tag k="source" v="MMBW"/>
  </way>
  <way id="29331171" version="3" timestamp="2012-01-18T01:29:08Z" uid="147510" user="woodpeck_fixbot" changeset="10423581">
    <nd ref="322681869"/>
    <nd ref="322681914"/>
    <nd ref="322681915"/>
    <nd ref="321991907"/>
    <tag k="highway" v="residential"/>
    <tag k="name" v="Durham Street"/>
    <tag k="source" v="MMBW"/>
  </way>
  <way id="29331193" version="2" timestamp="2010-07-09T04:08:02Z" uid="74617" user="JohnSmith" changeset="5170825">
    <nd ref="322679380"/>
    <nd ref="322682253"/>
    <nd ref="322682254"/>
    <nd ref="322682255"/>
    <nd ref="322682256"/>
    <nd ref="322682258"/>
    <nd ref="322679380"/>
    <tag k="highway" v="residential"/>
    <tag k="junction" v="roundabout"/>
    <tag k="maxspeed" v="50"/>
    <tag k="maxspeed:source" v="default residential speed limit in Australia"/>
  </way>
  <way id="29331193" version="3" timestamp="2010-07-12T13:48:33Z" uid="4467" user="Rosscoe" changeset="5199261">
    <nd ref="322679380"/>
    <nd ref="322682253"/>
    <nd ref="322682254"/>
    <nd ref="813425077"/>
    <nd ref="322682255"/>
    <nd ref="322682256"/>
    <nd ref="813424648"/>
    <nd ref="322682258"/>
    <nd ref="322679380"/>
    <tag k="highway" v="residential"/>
    <tag k="junction" v="roundabout"/>
    <tag k="maxspeed" v="50"/>
    <tag k="maxspeed:source" v="default residential speed limit in Australia"/>
  </way>
  <way id="29331193" version="4" timestamp="2012-01-18T01:29:10Z" uid="147510" user="woodpeck_fixbot" changeset="10423581">
    <nd ref="322679380"/>
    <nd ref="322682253"/>
    <nd ref="322682254"/>
    <nd ref="813425077"/>
    <nd ref="322682255"/>
    <nd ref="322682256"/>
    <nd ref="813424648"/>
    <nd ref="322682258"/>
    <nd ref="322679380"/>
    <tag k="highway" v="residential"/>
    <tag k="junction" v="roundabout"/>
  </way>
  <way id="29331196" version="3" timestamp="2010-07-09T04:13:44Z" uid="74617" user="JohnSmith" changeset="5170825">
    <nd ref="322682262"/>
    <nd ref="322682284"/>
    <nd ref="322682256"/>
    <tag k="highway" v="residential"/>
    <tag k="maxspeed" v="50"/>
    <tag k="maxspeed:source" v="default residential speed limit in Australia"/>
    <tag k="name" v="Durham Street"/>
    <tag k="oneway" v="yes"/>
  </way>
  <way id="29331196" version="4" timestamp="2012-01-18T01:29:11Z" uid="147510" user="woodpeck_fixbot" changeset="10423581">
    <nd ref="322682262"/>
    <nd ref="322682284"/>
    <nd ref="322682256"/>
    <tag k="highway" v="residential"/>
    <tag k="name" v="Durham Street"/>
    <tag k="oneway" v="yes"/>
  </way>
  <way id="29331204" version="4" timestamp="2010-07-09T04:02:45Z" uid="74617" user="JohnSmith" changeset="5170825">
    <nd ref="322682258"/>
    <nd ref="322682368"/>
    <nd ref="322682287"/>
    <tag k="highway" v="residential"/>
    <tag k="maxspeed" v="50"/>
    <tag k="maxspeed:source" v="default residential speed limit in Australia"/>
    <tag k="name" v="Durham Street"/>
    <tag k="oneway" v="yes"/>
  </way>
  <way id="29331204" version="5" timestamp="2010-07-12T13:48:15Z" uid="4467" user="Rosscoe" changeset="5199261">
    <nd ref="322682258"/>
    <nd ref="322682287"/>
    <tag k="highway" v="residential"/>
    <tag k="maxspeed" v="50"/>
    <tag k="maxspeed:source" v="default residential speed limit in Australia"/>
    <tag k="name" v="Durham Street"/>
    <tag k="oneway" v="yes"/>
  </way>
  <way id="29331204" version="6" timestamp="2012-01-18T01:29:12Z" uid="147510" user="woodpeck_fixbot" changeset="10423581">
    <nd ref="322682258"/>
    <nd ref="322682287"/>
    <tag k="highway" v="residential"/>
    <tag k="name" v="Durham Street"/>
    <tag k="oneway" v="yes"/>
  </way>
  <way id="29331228" version="2" timestamp="2009-01-11T08:18:15Z" uid="43863" user="Rundling" changeset="770337">
    <nd ref="322682315"/>
    <nd ref="322682348"/>
    <nd ref="322682371"/>
    <nd ref="322682382"/>
    <nd ref="322682388"/>
    <nd ref="322682393"/>
    <nd ref="322682399"/>
    <nd ref="322682467"/>
    <nd ref="322682475"/>
    <nd ref="322682477"/>
    <nd ref="322682482"/>
    <nd ref="322682483"/>
    <tag k="agricultural" v="yes"/>
    <tag k="highway" v="unclassified"/>
    <tag k="maxweight" v="5"/>
    <tag k="name" v="Marschstraße"/>
  </way>
  <way id="29331228" version="3" timestamp="2010-10-23T12:11:52Z" uid="323886" user="hermann51" changeset="6144471">
    <nd ref="322682315"/>
    <nd ref="961426032"/>
    <nd ref="322682348"/>
    <nd ref="322682371"/>
    <nd ref="322682382"/>
    <nd ref="322682388"/>
    <nd ref="322682393"/>
    <nd ref="322682399"/>
    <nd ref="322682467"/>
    <nd ref="322682475"/>
    <nd ref="322682477"/>
    <nd ref="322682482"/>
    <nd ref="322682483"/>
    <tag k="agricultural" v="yes"/>
    <tag k="highway" v="unclassified"/>
    <tag k="maxweight" v="5"/>
    <tag k="name" v="Marschstraße"/>
  </way>
  <way id="29331338" version="3" timestamp="2010-06-22T11:01:38Z" uid="13367" user="nubok" changeset="5050176">
    <nd ref="34707441"/>
    <nd ref="781487975"/>
    <nd ref="322683402"/>
    <tag k="bridge" v="yes"/>
    <tag k="electrified" v="contact_line"/>
    <tag k="frequency" v="16.67"/>
    <tag k="layer" v="1"/>
    <tag k="railway" v="rail"/>
    <tag k="voltage" v="15000"/>
  </way>
  <way id="29331338" version="4" timestamp="2010-12-27T17:31:24Z" uid="9176" user="Maarten Deen" changeset="6779778">
    <nd ref="34707441"/>
    <nd ref="781487975"/>
    <nd ref="322683402"/>
    <tag k="bridge" v="yes"/>
    <tag k="electrified" v="contact_line"/>
    <tag k="frequency" v="16.7"/>
    <tag k="layer" v="1"/>
    <tag k="railway" v="rail"/>
    <tag k="voltage" v="15000"/>
  </way>
  <way id="29331338" version="5" timestamp="2011-07-17T15:55:57Z" uid="83876" user="BurnyB" changeset="8749388">
    <nd ref="34707441"/>
    <nd ref="1364650421"/>
    <tag k="bridge" v="yes"/>
    <tag k="electrified" v="contact_line"/>
    <tag k="frequency" v="16.7"/>
    <tag k="layer" v="1"/>
    <tag k="railway" v="rail"/>
    <tag k="voltage" v="15000"/>
  </way>
  <way id="29331338" version="6" timestamp="2011-11-03T14:41:25Z" uid="42429" user="FK270673" changeset="9730879">
    <nd ref="34707441"/>
    <nd ref="1364650421"/>
    <tag k="bridge" v="yes"/>
    <tag k="electrified" v="contact_line"/>
    <tag k="frequency" v="16.7"/>
    <tag k="gauge" v="1435"/>
    <tag k="layer" v="1"/>
    <tag k="railway" v="rail"/>
    <tag k="voltage" v="15000"/>
  </way>
  <way id="29331368" version="1" timestamp="2008-12-28T21:44:34Z" uid="16922" user="amai" changeset="648734">
    <nd ref="322683694"/>
    <nd ref="322683695"/>
    <nd ref="322683696"/>
    <nd ref="322683697"/>
    <nd ref="322683698"/>
    <nd ref="322683699"/>
    <nd ref="322683700"/>
    <nd ref="322683701"/>
    <nd ref="322683702"/>
    <nd ref="322683703"/>
    <nd ref="322683704"/>
    <nd ref="322683706"/>
    <nd ref="322683707"/>
    <nd ref="322683709"/>
    <nd ref="322683694"/>
    <tag k="created_by" v="Potlatch 0.10f"/>
    <tag k="landuse" v="residential"/>
  </way>
  <way id="29331368" version="2" timestamp="2008-12-28T21:47:24Z" uid="16922" user="amai" changeset="648734">
    <nd ref="322683694"/>
    <nd ref="322683695"/>
    <nd ref="322683696"/>
    <nd ref="322683697"/>
    <nd ref="322683698"/>
    <nd ref="322683699"/>
    <nd ref="322683700"/>
    <nd ref="322683701"/>
    <nd ref="322683702"/>
    <nd ref="322683703"/>
    <nd ref="322683704"/>
    <nd ref="322683706"/>
    <nd ref="322684135"/>
    <nd ref="322683707"/>
    <nd ref="322684136"/>
    <nd ref="322683709"/>
    <nd ref="322683694"/>
    <tag k="created_by" v="Potlatch 0.10f"/>
    <tag k="landuse" v="residential"/>
  </way>
  <way id="29331368" version="3" timestamp="2010-02-06T11:11:41Z" uid="16922" user="amai" changeset="3804084">
    <nd ref="322683694"/>
    <nd ref="322683695"/>
    <nd ref="322683696"/>
    <nd ref="322683697"/>
    <nd ref="631480383"/>
    <nd ref="631480384"/>
    <nd ref="631480385"/>
    <nd ref="631480386"/>
    <nd ref="322683698"/>
    <nd ref="322683699"/>
    <nd ref="322683700"/>
    <nd ref="322683701"/>
    <nd ref="322683702"/>
    <nd ref="322683703"/>
    <nd ref="322683704"/>
    <nd ref="322683706"/>
    <nd ref="322684135"/>
    <nd ref="322683707"/>
    <nd ref="322684136"/>
    <nd ref="322683709"/>
    <nd ref="322683694"/>
    <tag k="landuse" v="residential"/>
  </way>
  <way id="29331368" version="4" timestamp="2012-01-22T07:34:14Z" uid="157286" user="SGiersch" changeset="10462118"/>
  <way id="29331415" version="2" timestamp="2010-07-09T04:08:10Z" uid="74617" user="JohnSmith" changeset="5170825">
    <nd ref="322682254"/>
    <nd ref="322683960"/>
    <nd ref="322683961"/>
    <nd ref="322263312"/>
    <tag k="highway" v="residential"/>
    <tag k="maxspeed" v="50"/>
    <tag k="maxspeed:source" v="default residential speed limit in Australia"/>
    <tag k="name" v="Durham Street"/>
    <tag k="source" v="MMBW"/>
  </way>
  <way id="29331415" version="3" timestamp="2011-12-31T11:58:16Z" uid="211804" user="KenS" changeset="10253897">
    <nd ref="322682254"/>
    <nd ref="322683960"/>
    <nd ref="1570968283"/>
    <nd ref="322683961"/>
    <nd ref="322263312"/>
    <tag k="highway" v="residential"/>
    <tag k="maxspeed" v="50"/>
    <tag k="maxspeed:source" v="default residential speed limit in Australia"/>
    <tag k="name" v="Durham Street"/>
    <tag k="source" v="MMBW"/>
  </way>
  <way id="29331415" version="4" timestamp="2012-01-18T01:29:13Z" uid="147510" user="woodpeck_fixbot" changeset="10423581">
    <nd ref="322682254"/>
    <nd ref="322683960"/>
    <nd ref="1570968283"/>
    <nd ref="322683961"/>
    <nd ref="322263312"/>
    <tag k="highway" v="residential"/>
    <tag k="name" v="Durham Street"/>
    <tag k="source" v="MMBW"/>
  </way>
  <way id="29331446" version="5" timestamp="2010-07-09T03:57:46Z" uid="74617" user="JohnSmith" changeset="5170825">
    <nd ref="322683997"/>
    <nd ref="322684406"/>
    <nd ref="321991910"/>
    <nd ref="322684142"/>
    <nd ref="322684143"/>
    <tag k="highway" v="residential"/>
    <tag k="maxspeed" v="50"/>
    <tag k="maxspeed:source" v="default residential speed limit in Australia"/>
    <tag k="name" v="Devon Street"/>
    <tag k="oneway" v="yes"/>
  </way>
  <way id="29331446" version="6" timestamp="2012-01-18T01:29:15Z" uid="147510" user="woodpeck_fixbot" changeset="10423581">
    <nd ref="322683997"/>
    <nd ref="322684406"/>
    <nd ref="321991910"/>
    <nd ref="322684142"/>
    <nd ref="322684143"/>
    <tag k="highway" v="residential"/>
    <tag k="name" v="Devon Street"/>
    <tag k="oneway" v="yes"/>
  </way>
  <way id="29331452" version="4" timestamp="2010-07-09T04:01:02Z" uid="74617" user="JohnSmith" changeset="5170825">
    <nd ref="322684143"/>
    <nd ref="322684232"/>
    <nd ref="322684033"/>
    <nd ref="322684009"/>
    <tag k="highway" v="residential"/>
    <tag k="maxspeed" v="50"/>
    <tag k="maxspeed:source" v="default residential speed limit in Australia"/>
    <tag k="name" v="Devon Street"/>
    <tag k="oneway" v="yes"/>
  </way>
  <way id="29331452" version="5" timestamp="2012-01-18T01:29:16Z" uid="147510" user="woodpeck_fixbot" changeset="10423581">
    <nd ref="322684143"/>
    <nd ref="322684232"/>
    <nd ref="322684033"/>
    <nd ref="322684009"/>
    <tag k="highway" v="residential"/>
    <tag k="name" v="Devon Street"/>
    <tag k="oneway" v="yes"/>
  </way>
  <way id="29331494" version="3" timestamp="2010-07-09T04:13:00Z" uid="74617" user="JohnSmith" changeset="5170825">
    <nd ref="322684143"/>
    <nd ref="322684259"/>
    <nd ref="322684260"/>
    <tag k="highway" v="residential"/>
    <tag k="maxspeed" v="50"/>
    <tag k="maxspeed:source" v="default residential speed limit in Australia"/>
    <tag k="name" v="Devon Street"/>
    <tag k="source" v="MMBW"/>
  </way>
  <way id="29331494" version="4" timestamp="2012-01-18T01:29:17Z" uid="147510" user="woodpeck_fixbot" changeset="10423581">
    <nd ref="322684143"/>
    <nd ref="322684259"/>
    <nd ref="322684260"/>
    <tag k="highway" v="residential"/>
    <tag k="name" v="Devon Street"/>
    <tag k="source" v="MMBW"/>
  </way>
  <way id="29331517" version="3" timestamp="2010-07-09T04:05:19Z" uid="74617" user="JohnSmith" changeset="5170825">
    <nd ref="322684406"/>
    <nd ref="322682255"/>
    <tag k="highway" v="residential"/>
    <tag k="maxspeed" v="50"/>
    <tag k="maxspeed:source" v="default residential speed limit in Australia"/>
    <tag k="name" v="Hawdon Street"/>
    <tag k="source" v="MMBW"/>
  </way>
  <way id="29331517" version="4" timestamp="2012-01-18T01:29:19Z" uid="147510" user="woodpeck_fixbot" changeset="10423581">
    <nd ref="322684406"/>
    <nd ref="322682255"/>
    <tag k="highway" v="residential"/>
    <tag k="name" v="Hawdon Street"/>
    <tag k="source" v="MMBW"/>
  </way>
  <way id="29331544" version="5" timestamp="2010-07-09T04:10:00Z" uid="74617" user="JohnSmith" changeset="5170825">
    <nd ref="322263305"/>
    <nd ref="322684726"/>
    <nd ref="322684727"/>
    <nd ref="322685401"/>
    <nd ref="322685175"/>
    <nd ref="322685150"/>
    <nd ref="322684728"/>
    <nd ref="322684729"/>
    <tag k="highway" v="residential"/>
    <tag k="maxspeed" v="50"/>
    <tag k="maxspeed:source" v="default residential speed limit in Australia"/>
    <tag k="name" v="Carlsberg Road"/>
    <tag k="source" v="MMBW"/>
  </way>
  <way id="29331544" version="6" timestamp="2012-01-18T01:29:20Z" uid="147510" user="woodpeck_fixbot" changeset="10423581">
    <nd ref="322263305"/>
    <nd ref="322684726"/>
    <nd ref="322684727"/>
    <nd ref="322685401"/>
    <nd ref="322685175"/>
    <nd ref="322685150"/>
    <nd ref="322684728"/>
    <nd ref="322684729"/>
    <tag k="highway" v="residential"/>
    <tag k="name" v="Carlsberg Road"/>
    <tag k="source" v="MMBW"/>
  </way>
  <way id="29331558" version="4" timestamp="2010-07-09T05:34:54Z" uid="74617" user="JohnSmith" changeset="5170986">
    <nd ref="322684968"/>
    <nd ref="322685155"/>
    <nd ref="322685135"/>
    <nd ref="322684970"/>
    <tag k="highway" v="residential"/>
    <tag k="maxspeed" v="50"/>
    <tag k="maxspeed:source" v="default residential speed limit in Australia"/>
    <tag k="name" v="The Eyrie"/>
    <tag k="source" v="MMBW"/>
  </way>
  <way id="29331558" version="5" timestamp="2012-01-18T01:29:21Z" uid="147510" user="woodpeck_fixbot" changeset="10423581">
    <nd ref="322684968"/>
    <nd ref="322685155"/>
    <nd ref="322685135"/>
    <nd ref="322684970"/>
    <tag k="highway" v="residential"/>
    <tag k="name" v="The Eyrie"/>
    <tag k="source" v="MMBW"/>
  </way>
  <way id="29331605" version="2" timestamp="2010-07-09T04:05:02Z" uid="74617" user="JohnSmith" changeset="5170825">
    <nd ref="322685135"/>
    <nd ref="322685150"/>
    <tag k="highway" v="residential"/>
    <tag k="maxspeed" v="50"/>
    <tag k="maxspeed:source" v="default residential speed limit in Australia"/>
    <tag k="name" v="Lawrence Street"/>
    <tag k="source" v="MMBW"/>
  </way>
  <way id="29331605" version="3" timestamp="2012-01-18T01:29:23Z" uid="147510" user="woodpeck_fixbot" changeset="10423581">
    <nd ref="322685135"/>
    <nd ref="322685150"/>
    <tag k="highway" v="residential"/>
    <tag k="name" v="Lawrence Street"/>
    <tag k="source" v="MMBW"/>
  </way>
  <way id="29331613" version="2" timestamp="2010-07-09T03:59:36Z" uid="74617" user="JohnSmith" changeset="5170825">
    <nd ref="322685155"/>
    <nd ref="322685175"/>
    <tag k="highway" v="residential"/>
    <tag k="maxspeed" v="50"/>
    <tag k="maxspeed:source" v="default residential speed limit in Australia"/>
    <tag k="name" v="Warne Street"/>
    <tag k="source" v="MMBW"/>
  </way>
  <way id="29331613" version="3" timestamp="2012-01-18T01:29:24Z" uid="147510" user="woodpeck_fixbot" changeset="10423581">
    <nd ref="322685155"/>
    <nd ref="322685175"/>
    <tag k="highway" v="residential"/>
    <tag k="name" v="Warne Street"/>
    <tag k="source" v="MMBW"/>
  </way>
  <way id="29331641" version="4" timestamp="2010-07-09T04:01:23Z" uid="74617" user="JohnSmith" changeset="5170825">
    <nd ref="322685242"/>
    <nd ref="322685377"/>
    <nd ref="322685378"/>
    <nd ref="322685379"/>
    <nd ref="322685380"/>
    <nd ref="322688228"/>
    <nd ref="322688144"/>
    <nd ref="322685381"/>
    <nd ref="322685382"/>
    <nd ref="322685383"/>
    <nd ref="322685384"/>
    <nd ref="322685385"/>
    <nd ref="322685386"/>
    <nd ref="322685387"/>
    <nd ref="322685388"/>
    <nd ref="322685389"/>
    <nd ref="322685390"/>
    <nd ref="322685391"/>
    <nd ref="322685392"/>
    <nd ref="322685393"/>
    <nd ref="322685394"/>
    <nd ref="322685395"/>
    <nd ref="322685396"/>
    <nd ref="322685397"/>
    <nd ref="322685398"/>
    <nd ref="322685399"/>
    <nd ref="322685400"/>
    <nd ref="322684968"/>
    <nd ref="322685401"/>
    <tag k="highway" v="residential"/>
    <tag k="maxspeed" v="50"/>
    <tag k="maxspeed:source" v="default residential speed limit in Australia"/>
    <tag k="name" v="Outlook Drive"/>
    <tag k="source" v="MMBW"/>
  </way>
  <way id="29331641" version="5" timestamp="2011-04-23T12:46:56Z" uid="104757" user="dogcutter" changeset="7943271">
    <nd ref="322685242"/>
    <nd ref="322685377"/>
    <nd ref="322685378"/>
    <nd ref="322685379"/>
    <nd ref="322685380"/>
    <nd ref="322688228"/>
    <nd ref="322688144"/>
    <nd ref="322685381"/>
    <nd ref="322685382"/>
    <nd ref="322685383"/>
    <nd ref="322685384"/>
    <nd ref="322685385"/>
    <nd ref="1256655013"/>
    <nd ref="322685386"/>
    <nd ref="322685387"/>
    <nd ref="322685388"/>
    <nd ref="322685389"/>
    <nd ref="322685390"/>
    <nd ref="322685391"/>
    <nd ref="322685392"/>
    <nd ref="322685393"/>
    <nd ref="322685394"/>
    <nd ref="322685395"/>
    <nd ref="322685396"/>
    <nd ref="322685397"/>
    <nd ref="322685398"/>
    <nd ref="322685399"/>
    <nd ref="322685400"/>
    <nd ref="322684968"/>
    <nd ref="322685401"/>
    <tag k="highway" v="residential"/>
    <tag k="maxspeed" v="50"/>
    <tag k="maxspeed:source" v="default residential speed limit in Australia"/>
    <tag k="name" v="Outlook Drive"/>
    <tag k="source" v="MMBW"/>
  </way>
  <way id="29331641" version="6" timestamp="2012-01-18T01:29:25Z" uid="147510" user="woodpeck_fixbot" changeset="10423581">
    <nd ref="322685242"/>
    <nd ref="322685377"/>
    <nd ref="322685378"/>
    <nd ref="322685379"/>
    <nd ref="322685380"/>
    <nd ref="322688228"/>
    <nd ref="322688144"/>
    <nd ref="322685381"/>
    <nd ref="322685382"/>
    <nd ref="322685383"/>
    <nd ref="322685384"/>
    <nd ref="322685385"/>
    <nd ref="1256655013"/>
    <nd ref="322685386"/>
    <nd ref="322685387"/>
    <nd ref="322685388"/>
    <nd ref="322685389"/>
    <nd ref="322685390"/>
    <nd ref="322685391"/>
    <nd ref="322685392"/>
    <nd ref="322685393"/>
    <nd ref="322685394"/>
    <nd ref="322685395"/>
    <nd ref="322685396"/>
    <nd ref="322685397"/>
    <nd ref="322685398"/>
    <nd ref="322685399"/>
    <nd ref="322685400"/>
    <nd ref="322684968"/>
    <nd ref="322685401"/>
    <tag k="highway" v="residential"/>
    <tag k="name" v="Outlook Drive"/>
    <tag k="source" v="MMBW"/>
  </way>
  <way id="29331677" version="2" timestamp="2010-04-03T04:07:04Z" uid="20587" user="balrog-kun" changeset="4309442">
    <nd ref="322685979"/>
    <nd ref="322685981"/>
    <tag k="created_by" v="Merkaartor 0.12"/>
    <tag k="highway" v="unclassified"/>
    <tag k="name" v="West Roeser Road"/>
  </way>
  <way id="29331677" version="3" timestamp="2011-07-31T04:41:22Z" uid="292665" user="Dr Kludge" changeset="8877397">
    <nd ref="322685979"/>
    <nd ref="322685981"/>
    <tag k="highway" v="residential"/>
    <tag k="name" v="West Roeser Road"/>
  </way>
  <way id="29331678" version="2" timestamp="2010-04-03T04:07:04Z" uid="20587" user="balrog-kun" changeset="4309442">
    <nd ref="322685977"/>
    <nd ref="322685986"/>
    <tag k="created_by" v="Merkaartor 0.12"/>
    <tag k="highway" v="unclassified"/>
    <tag k="name" v="West Chambers Avenue"/>
  </way>
  <way id="29331678" version="3" timestamp="2011-07-31T04:41:19Z" uid="292665" user="Dr Kludge" changeset="8877397">
    <nd ref="322685977"/>
    <nd ref="322685986"/>
    <tag k="highway" v="residential"/>
    <tag k="name" v="West Chambers Avenue"/>
  </way>
  <way id="29331679" version="2" timestamp="2010-04-03T04:07:04Z" uid="20587" user="balrog-kun" changeset="4309442">
    <nd ref="322685992"/>
    <nd ref="322685993"/>
    <nd ref="322685994"/>
    <tag k="created_by" v="Merkaartor 0.12"/>
    <tag k="highway" v="unclassified"/>
    <tag k="name" v="West Sunland Avenue"/>
  </way>
  <way id="29331679" version="3" timestamp="2011-07-31T04:09:16Z" uid="292665" user="Dr Kludge" changeset="8877337">
    <nd ref="322685992"/>
    <nd ref="322685993"/>
    <nd ref="322685994"/>
    <tag k="highway" v="residential"/>
    <tag k="name" v="West Sunland Avenue"/>
  </way>
  <way id="29331680" version="2" timestamp="2010-04-03T04:07:05Z" uid="20587" user="balrog-kun" changeset="4309442">
    <nd ref="322685993"/>
    <nd ref="322685995"/>
    <nd ref="322685996"/>
    <tag k="created_by" v="Merkaartor 0.12"/>
    <tag k="highway" v="unclassified"/>
    <tag k="name" v="South 114th Avenue"/>
  </way>
  <way id="29331680" version="3" timestamp="2011-07-31T04:09:16Z" uid="292665" user="Dr Kludge" changeset="8877337">
    <nd ref="322685993"/>
    <nd ref="322685995"/>
    <nd ref="322685996"/>
    <tag k="highway" v="residential"/>
    <tag k="name" v="South 114th Avenue"/>
  </way>
  <way id="29331682" version="2" timestamp="2010-04-03T04:07:05Z" uid="20587" user="balrog-kun" changeset="4309442">
    <nd ref="322685975"/>
    <nd ref="322686004"/>
    <tag k="created_by" v="Merkaartor 0.12"/>
    <tag k="highway" v="unclassified"/>
    <tag k="name" v="West Atlanta Avenue"/>
  </way>
  <way id="29331682" version="3" timestamp="2011-07-31T04:09:17Z" uid="292665" user="Dr Kludge" changeset="8877337">
    <nd ref="322685975"/>
    <nd ref="322686004"/>
    <tag k="highway" v="residential"/>
    <tag k="name" v="West Atlanta Avenue"/>
  </way>
  <way id="29331683" version="2" timestamp="2010-04-03T04:07:05Z" uid="20587" user="balrog-kun" changeset="4309442">
    <nd ref="322685961"/>
    <nd ref="322685995"/>
    <nd ref="322686006"/>
    <tag k="created_by" v="Merkaartor 0.12"/>
    <tag k="highway" v="unclassified"/>
    <tag k="name" v="West Hidalgo Avenue"/>
  </way>
  <way id="29331683" version="3" timestamp="2011-07-31T04:09:17Z" uid="292665" user="Dr Kludge" changeset="8877337">
    <nd ref="322685961"/>
    <nd ref="322685995"/>
    <nd ref="322686006"/>
    <tag k="highway" v="residential"/>
    <tag k="name" v="West Hidalgo Avenue"/>
  </way>
  <way id="29331685" version="2" timestamp="2010-04-03T04:07:05Z" uid="20587" user="balrog-kun" changeset="4309442">
    <nd ref="319589714"/>
    <nd ref="322686016"/>
    <tag k="created_by" v="Merkaartor 0.12"/>
    <tag k="highway" v="unclassified"/>
    <tag k="name" v="South 129th Avenue"/>
  </way>
  <way id="29331685" version="3" timestamp="2011-07-31T04:09:17Z" uid="292665" user="Dr Kludge" changeset="8877337">
    <nd ref="319589714"/>
    <nd ref="322686016"/>
    <tag k="highway" v="residential"/>
    <tag k="name" v="South 129th Avenue"/>
  </way>
  <way id="29331686" version="2" timestamp="2010-04-03T04:07:05Z" uid="20587" user="balrog-kun" changeset="4309442">
    <nd ref="322686020"/>
    <nd ref="322686022"/>
    <tag k="created_by" v="Merkaartor 0.12"/>
    <tag k="highway" v="unclassified"/>
    <tag k="name" v="West Sunland Avenue"/>
  </way>
  <way id="29331686" version="3" timestamp="2011-07-31T04:09:17Z" uid="292665" user="Dr Kludge" changeset="8877337">
    <nd ref="322686020"/>
    <nd ref="322686022"/>
    <tag k="highway" v="residential"/>
    <tag k="name" v="West Sunland Avenue"/>
  </way>
  <way id="29331688" version="2" timestamp="2010-04-03T04:07:05Z" uid="20587" user="balrog-kun" changeset="4309442">
    <nd ref="322686024"/>
    <nd ref="322686026"/>
    <tag k="created_by" v="Merkaartor 0.12"/>
    <tag k="highway" v="unclassified"/>
    <tag k="name" v="West Hidalgo Avenue"/>
  </way>
  <way id="29331688" version="3" timestamp="2011-07-31T04:09:17Z" uid="292665" user="Dr Kludge" changeset="8877337">
    <nd ref="322686024"/>
    <nd ref="322686026"/>
    <tag k="highway" v="residential"/>
    <tag k="name" v="West Hidalgo Avenue"/>
  </way>
  <way id="29331690" version="2" timestamp="2010-07-09T04:11:18Z" uid="74617" user="JohnSmith" changeset="5170825">
    <nd ref="322685956"/>
    <nd ref="322684727"/>
    <tag k="highway" v="residential"/>
    <tag k="maxspeed" v="50"/>
    <tag k="maxspeed:source" v="default residential speed limit in Australia"/>
    <tag k="name" v="The Panorama"/>
    <tag k="source" v="MMBW"/>
  </way>
  <way id="29331690" version="3" timestamp="2012-01-18T01:29:28Z" uid="147510" user="woodpeck_fixbot" changeset="10423581">
    <nd ref="322685956"/>
    <nd ref="322684727"/>
    <tag k="highway" v="residential"/>
    <tag k="name" v="The Panorama"/>
    <tag k="source" v="MMBW"/>
  </way>
  <way id="29331692" version="2" timestamp="2010-04-03T04:07:05Z" uid="20587" user="balrog-kun" changeset="4309442">
    <nd ref="322685981"/>
    <nd ref="322685983"/>
    <tag k="bridge" v="yes"/>
    <tag k="created_by" v="Merkaartor 0.12"/>
    <tag k="highway" v="unclassified"/>
    <tag k="layer" v="1"/>
    <tag k="name" v="West Roeser Road"/>
  </way>
  <way id="29331692" version="3" timestamp="2011-07-31T04:41:22Z" uid="292665" user="Dr Kludge" changeset="8877397">
    <nd ref="322685981"/>
    <nd ref="322685983"/>
    <tag k="bridge" v="yes"/>
    <tag k="highway" v="residential"/>
    <tag k="layer" v="1"/>
    <tag k="name" v="West Roeser Road"/>
  </way>
  <way id="29331693" version="2" timestamp="2010-04-03T04:07:05Z" uid="20587" user="balrog-kun" changeset="4309442">
    <nd ref="322685983"/>
    <nd ref="322685985"/>
    <tag k="created_by" v="Merkaartor 0.12"/>
    <tag k="highway" v="unclassified"/>
    <tag k="name" v="West Roeser Road"/>
  </way>
  <way id="29331693" version="3" timestamp="2011-07-31T04:09:17Z" uid="292665" user="Dr Kludge" changeset="8877337">
    <nd ref="322685983"/>
    <nd ref="322685985"/>
    <tag k="highway" v="residential"/>
    <tag k="name" v="West Roeser Road"/>
  </way>
  <way id="29331694" version="2" timestamp="2010-04-03T04:07:05Z" uid="20587" user="balrog-kun" changeset="4309442">
    <nd ref="322685986"/>
    <nd ref="322685989"/>
    <tag k="bridge" v="yes"/>
    <tag k="created_by" v="Merkaartor 0.12"/>
    <tag k="highway" v="unclassified"/>
    <tag k="layer" v="1"/>
    <tag k="name" v="West Chambers Avenue"/>
  </way>
  <way id="29331694" version="3" timestamp="2011-07-31T04:41:19Z" uid="292665" user="Dr Kludge" changeset="8877397">
    <nd ref="322685986"/>
    <nd ref="322685989"/>
    <tag k="bridge" v="yes"/>
    <tag k="highway" v="residential"/>
    <tag k="layer" v="1"/>
    <tag k="name" v="West Chambers Avenue"/>
  </way>
  <way id="29331695" version="2" timestamp="2010-04-03T04:07:06Z" uid="20587" user="balrog-kun" changeset="4309442">
    <nd ref="322685989"/>
    <nd ref="322685990"/>
    <tag k="created_by" v="Merkaartor 0.12"/>
    <tag k="highway" v="unclassified"/>
    <tag k="name" v="West Chambers Avenue"/>
  </way>
  <way id="29331695" version="3" timestamp="2011-07-31T04:09:17Z" uid="292665" user="Dr Kludge" changeset="8877337">
    <nd ref="322685989"/>
    <nd ref="322685990"/>
    <tag k="highway" v="residential"/>
    <tag k="name" v="West Chambers Avenue"/>
  </way>
  <way id="29331707" version="6" timestamp="2009-12-09T20:25:40Z" uid="200463" user="harmagedon" changeset="3336536">
    <nd ref="321803674"/>
    <nd ref="322686230"/>
    <nd ref="322686232"/>
    <nd ref="322686234"/>
    <nd ref="322686235"/>
    <nd ref="130054388"/>
    <nd ref="322686237"/>
    <tag k="highway" v="track"/>
  </way>
  <way id="29331711" version="3" timestamp="2009-12-09T20:25:53Z" uid="200463" user="harmagedon" changeset="3336536">
    <nd ref="322686292"/>
    <nd ref="322686294"/>
    <nd ref="322686297"/>
    <nd ref="322686298"/>
    <nd ref="322686301"/>
    <nd ref="322686303"/>
    <nd ref="322686304"/>
    <tag k="highway" v="track"/>
  </way>
  <way id="29331717" version="3" timestamp="2010-07-09T03:59:18Z" uid="74617" user="JohnSmith" changeset="5170825">
    <nd ref="322256553"/>
    <nd ref="322686377"/>
    <nd ref="322686378"/>
    <nd ref="322686380"/>
    <nd ref="322686381"/>
    <nd ref="322686382"/>
    <nd ref="322686383"/>
    <nd ref="322686384"/>
    <nd ref="322686386"/>
    <nd ref="322686387"/>
    <nd ref="322686388"/>
    <nd ref="322686389"/>
    <nd ref="322686390"/>
    <tag k="highway" v="residential"/>
    <tag k="maxspeed" v="50"/>
    <tag k="maxspeed:source" v="default residential speed limit in Australia"/>
    <tag k="name" v="Summit Drive"/>
    <tag k="source" v="MMBW"/>
  </way>
  <way id="29331717" version="4" timestamp="2012-01-18T01:29:28Z" uid="147510" user="woodpeck_fixbot" changeset="10423581">
    <nd ref="322256553"/>
    <nd ref="322686377"/>
    <nd ref="322686378"/>
    <nd ref="322686380"/>
    <nd ref="322686381"/>
    <nd ref="322686382"/>
    <nd ref="322686383"/>
    <nd ref="322686384"/>
    <nd ref="322686386"/>
    <nd ref="322686387"/>
    <nd ref="322686388"/>
    <nd ref="322686389"/>
    <nd ref="322686390"/>
    <tag k="highway" v="residential"/>
    <tag k="name" v="Summit Drive"/>
    <tag k="source" v="MMBW"/>
  </way>
  <way id="29331720" version="4" timestamp="2010-07-09T05:35:01Z" uid="74617" user="JohnSmith" changeset="5170986">
    <nd ref="322685381"/>
    <nd ref="322686390"/>
    <tag k="highway" v="residential"/>
    <tag k="maxspeed" v="50"/>
    <tag k="maxspeed:source" v="default residential speed limit in Australia"/>
    <tag k="name" v="Summit Drive"/>
  </way>
  <way id="29331720" version="5" timestamp="2012-01-18T01:29:30Z" uid="147510" user="woodpeck_fixbot" changeset="10423581">
    <nd ref="322685381"/>
    <nd ref="322686390"/>
    <tag k="highway" v="residential"/>
    <tag k="name" v="Summit Drive"/>
  </way>
  <way id="29331723" version="4" timestamp="2010-07-09T05:35:24Z" uid="74617" user="JohnSmith" changeset="5170986">
    <nd ref="322685383"/>
    <nd ref="322686390"/>
    <tag k="highway" v="residential"/>
    <tag k="maxspeed" v="50"/>
    <tag k="maxspeed:source" v="default residential speed limit in Australia"/>
    <tag k="name" v="Summit Drive"/>
  </way>
  <way id="29331723" version="5" timestamp="2012-01-18T01:29:31Z" uid="147510" user="woodpeck_fixbot" changeset="10423581">
    <nd ref="322685383"/>
    <nd ref="322686390"/>
    <tag k="highway" v="residential"/>
    <tag k="name" v="Summit Drive"/>
  </way>
  <way id="29331780" version="3" timestamp="2010-07-09T04:10:42Z" uid="74617" user="JohnSmith" changeset="5170825">
    <nd ref="322687126"/>
    <nd ref="322690832"/>
    <nd ref="322687148"/>
    <tag k="highway" v="residential"/>
    <tag k="maxspeed" v="50"/>
    <tag k="maxspeed:source" v="default residential speed limit in Australia"/>
    <tag k="name" v="The Righi"/>
    <tag k="source" v="MMBW"/>
  </way>
  <way id="29331780" version="4" timestamp="2012-01-18T01:29:32Z" uid="147510" user="woodpeck_fixbot" changeset="10423581">
    <nd ref="322687126"/>
    <nd ref="322690832"/>
    <nd ref="322687148"/>
    <tag k="highway" v="residential"/>
    <tag k="name" v="The Righi"/>
    <tag k="source" v="MMBW"/>
  </way>
  <way id="29331788" version="4" timestamp="2010-07-09T04:05:38Z" uid="74617" user="JohnSmith" changeset="5170825">
    <nd ref="496956773"/>
    <nd ref="322690833"/>
    <nd ref="322687209"/>
    <nd ref="322687210"/>
    <nd ref="322687211"/>
    <nd ref="322687212"/>
    <tag k="highway" v="residential"/>
    <tag k="maxspeed" v="50"/>
    <tag k="maxspeed:source" v="default residential speed limit in Australia"/>
    <tag k="name" v="Ormond Road"/>
    <tag k="source" v="MMBW"/>
  </way>
  <way id="29331788" version="5" timestamp="2012-01-18T01:29:33Z" uid="147510" user="woodpeck_fixbot" changeset="10423581">
    <nd ref="496956773"/>
    <nd ref="322690833"/>
    <nd ref="322687209"/>
    <nd ref="322687210"/>
    <nd ref="322687211"/>
    <nd ref="322687212"/>
    <tag k="highway" v="residential"/>
    <tag k="name" v="Ormond Road"/>
    <tag k="source" v="MMBW"/>
  </way>
  <way id="29331886" version="2" timestamp="2010-07-09T05:35:33Z" uid="74617" user="JohnSmith" changeset="5170986">
    <nd ref="322687209"/>
    <nd ref="322688125"/>
    <nd ref="322688126"/>
    <nd ref="322688127"/>
    <nd ref="322688129"/>
    <nd ref="322688130"/>
    <nd ref="322688131"/>
    <nd ref="322688132"/>
    <nd ref="322688134"/>
    <nd ref="322688135"/>
    <nd ref="322688136"/>
    <nd ref="322688137"/>
    <nd ref="322688138"/>
    <nd ref="322688140"/>
    <nd ref="322688142"/>
    <nd ref="322688144"/>
    <tag k="highway" v="residential"/>
    <tag k="maxspeed" v="50"/>
    <tag k="maxspeed:source" v="default residential speed limit in Australia"/>
    <tag k="name" v="Glen Drive"/>
    <tag k="source" v="MMBW"/>
  </way>
  <way id="29331886" version="3" timestamp="2012-01-18T01:29:34Z" uid="147510" user="woodpeck_fixbot" changeset="10423581">
    <nd ref="322687209"/>
    <nd ref="322688125"/>
    <nd ref="322688126"/>
    <nd ref="322688127"/>
    <nd ref="322688129"/>
    <nd ref="322688130"/>
    <nd ref="322688131"/>
    <nd ref="322688132"/>
    <nd ref="322688134"/>
    <nd ref="322688135"/>
    <nd ref="322688136"/>
    <nd ref="322688137"/>
    <nd ref="322688138"/>
    <nd ref="322688140"/>
    <nd ref="322688142"/>
    <nd ref="322688144"/>
    <tag k="highway" v="residential"/>
    <tag k="name" v="Glen Drive"/>
    <tag k="source" v="MMBW"/>
  </way>
  <way id="29331893" version="2" timestamp="2010-07-09T05:35:09Z" uid="74617" user="JohnSmith" changeset="5170986">
    <nd ref="322688142"/>
    <nd ref="322688228"/>
    <tag k="highway" v="residential"/>
    <tag k="maxspeed" v="50"/>
    <tag k="maxspeed:source" v="default residential speed limit in Australia"/>
    <tag k="name" v="Glen Drive"/>
  </way>
  <way id="29331893" version="3" timestamp="2012-01-18T01:29:36Z" uid="147510" user="woodpeck_fixbot" changeset="10423581">
    <nd ref="322688142"/>
    <nd ref="322688228"/>
    <tag k="highway" v="residential"/>
    <tag k="name" v="Glen Drive"/>
  </way>
  <way id="29331903" version="2" timestamp="2010-07-09T05:35:12Z" uid="74617" user="JohnSmith" changeset="5170986">
    <nd ref="279109634"/>
    <nd ref="322688126"/>
    <tag k="highway" v="residential"/>
    <tag k="maxspeed" v="50"/>
    <tag k="maxspeed:source" v="default residential speed limit in Australia"/>
    <tag k="name" v="Brooke Street"/>
    <tag k="source" v="MMBW"/>
  </way>
  <way id="29331903" version="3" timestamp="2012-01-18T01:29:37Z" uid="147510" user="woodpeck_fixbot" changeset="10423581">
    <nd ref="279109634"/>
    <nd ref="322688126"/>
    <tag k="highway" v="residential"/>
    <tag k="name" v="Brooke Street"/>
    <tag k="source" v="MMBW"/>
  </way>
  <way id="29331910" version="6" timestamp="2010-08-22T00:49:31Z" uid="4467" user="Rosscoe" changeset="5557147">
    <nd ref="322688623"/>
    <nd ref="870499294"/>
    <tag k="bridge" v="yes"/>
    <tag k="highway" v="secondary"/>
    <tag k="layer" v="1"/>
    <tag k="name" v="Chichester Avenue"/>
    <tag k="old_ref_legislative" v="A-1136"/>
    <tag k="ref" v="SR3009"/>
    <tag k="tiger:cfcc" v="A41"/>
    <tag k="tiger:name_base" v="Chichester"/>
    <tag k="tiger:name_type" v="Ave"/>
    <tag k="tiger:reviewed" v="no"/>
    <tag k="tiger:separated" v="no"/>
    <tag k="tiger:source" v="tiger_import_dch_v0.7_20071112"/>
    <tag k="tiger:tlid" v="134906899:134890577:134890685:134890691:134890738:134890819:134890740:134890675:134890830:134890835:134890837:134890846:134890893:134890821:134899378"/>
    <tag k="tiger:zip_left" v="19061"/>
    <tag k="tiger:zip_right" v="19061"/>
  </way>
  <way id="29331911" version="2" timestamp="2010-07-09T04:14:37Z" uid="74617" user="JohnSmith" changeset="5170825">
    <nd ref="322688127"/>
    <nd ref="322688624"/>
    <nd ref="322688625"/>
    <tag k="highway" v="residential"/>
    <tag k="maxspeed" v="50"/>
    <tag k="maxspeed:source" v="default residential speed limit in Australia"/>
    <tag k="name" v="Burley Griffin Place"/>
  </way>
  <way id="29331911" version="3" timestamp="2012-01-18T01:29:39Z" uid="147510" user="woodpeck_fixbot" changeset="10423581">
    <nd ref="322688127"/>
    <nd ref="322688624"/>
    <nd ref="322688625"/>
    <tag k="highway" v="residential"/>
    <tag k="name" v="Burley Griffin Place"/>
  </way>
  <way id="29331929" version="5" timestamp="2010-07-09T04:08:06Z" uid="74617" user="JohnSmith" changeset="5170825">
    <nd ref="322699191"/>
    <nd ref="322699322"/>
    <nd ref="322699207"/>
    <nd ref="32999375"/>
    <nd ref="322690729"/>
    <nd ref="322689013"/>
    <nd ref="322689015"/>
    <nd ref="322689016"/>
    <nd ref="322689017"/>
    <nd ref="322689018"/>
    <nd ref="322689019"/>
    <nd ref="322689020"/>
    <nd ref="322689022"/>
    <nd ref="322689023"/>
    <tag k="highway" v="residential"/>
    <tag k="maxspeed" v="50"/>
    <tag k="maxspeed:source" v="default residential speed limit in Australia"/>
    <tag k="name" v="Hopetoun Grove"/>
    <tag k="source" v="MMBW"/>
  </way>
  <way id="29331929" version="6" timestamp="2012-01-18T01:29:40Z" uid="147510" user="woodpeck_fixbot" changeset="10423581">
    <nd ref="322699191"/>
    <nd ref="322699322"/>
    <nd ref="322699207"/>
    <nd ref="32999375"/>
    <nd ref="322690729"/>
    <nd ref="322689013"/>
    <nd ref="322689015"/>
    <nd ref="322689016"/>
    <nd ref="322689017"/>
    <nd ref="322689018"/>
    <nd ref="322689019"/>
    <nd ref="322689020"/>
    <nd ref="322689022"/>
    <nd ref="322689023"/>
    <tag k="highway" v="residential"/>
    <tag k="name" v="Hopetoun Grove"/>
    <tag k="source" v="MMBW"/>
  </way>
  <way id="29331063" version="6" timestamp="2012-07-20T00:03:05Z" uid="722137" user="OSMF Redaction Account" changeset="12351950">
    <nd ref="322681046"/>
    <nd ref="1656779137"/>
    <tag k="highway" v="residential"/>
    <tag k="name" v="Brown Street"/>
  </way>
  <way id="29331063" version="7" timestamp="2012-07-24T12:31:45Z" uid="211804" user="KenS" changeset="12465483">
    <nd ref="322681046"/>
    <nd ref="1656779137"/>
    <nd ref="703597220"/>
    <tag k="highway" v="residential"/>
    <tag k="name" v="Brown Street"/>
  </way>
  <way id="29331171" version="4" timestamp="2012-07-23T10:28:17Z" uid="211804" user="KenS" changeset="12448090">
    <nd ref="322681869"/>
    <nd ref="1835188291"/>
    <nd ref="322681914"/>
    <nd ref="322681915"/>
    <nd ref="321991907"/>
    <tag k="highway" v="residential"/>
    <tag k="name" v="Durham Street"/>
    <tag k="source" v="MMBW"/>
  </way>
  <way id="29331193" version="5" timestamp="2012-07-20T00:00:51Z" uid="722137" user="OSMF Redaction Account" changeset="12351914">
    <nd ref="322679380"/>
    <nd ref="322682253"/>
    <nd ref="322682254"/>
    <nd ref="322682255"/>
    <nd ref="322682256"/>
    <nd ref="322682258"/>
    <nd ref="322679380"/>
    <tag k="highway" v="residential"/>
    <tag k="junction" v="roundabout"/>
  </way>
  <way id="29331910" version="7" timestamp="2012-08-09T14:04:47Z" uid="207745" user="NE2" changeset="12668958">
    <nd ref="322688623"/>
    <nd ref="322688621"/>
    <tag k="bridge" v="yes"/>
    <tag k="highway" v="secondary"/>
    <tag k="layer" v="1"/>
    <tag k="name" v="Chichester Avenue"/>
    <tag k="old_ref_legislative" v="A-1136"/>
    <tag k="ref" v="SR3009"/>
    <tag k="tiger:cfcc" v="A41"/>
    <tag k="tiger:name_base" v="Chichester"/>
    <tag k="tiger:name_type" v="Ave"/>
    <tag k="tiger:reviewed" v="no"/>
    <tag k="tiger:separated" v="no"/>
    <tag k="tiger:source" v="tiger_import_dch_v0.7_20071112"/>
    <tag k="tiger:tlid" v="134906899:134890577:134890685:134890691:134890738:134890819:134890740:134890675:134890830:134890835:134890837:134890846:134890893:134890821:134899378"/>
    <tag k="tiger:zip_left" v="19061"/>
    <tag k="tiger:zip_right" v="19061"/>
  </way>
</osm>
