<?xml version='1.0' encoding='UTF-8'?>
<osm version="0.6" generator="libosmium/2.20.0">
  <way id="29456341" version="1" timestamp="2009-01-02T14:42:59Z" uid="20587" user="balrog-kun" changeset="708284">
    <nd ref="324640359"/>
    <nd ref="324640364"/>
    <nd ref="324640366"/>
    <nd ref="324640361"/>
    <nd ref="324640359"/>
    <tag k="addr:housenumber" v="2"/>
    <tag k="addr:street" v="Pabianicka"/>
    <tag k="building" v="yes"/>
    <tag k="name" v="Urząd Stanu Cywilnego"/>
    <tag k="old_name" v="Willa Ernsta Leonhardta"/>
    <tag k="source:name" v="wikipedia"/>
  </way>
  <way id="29456341" version="2" timestamp="2011-06-10T22:46:19Z" uid="66036" user="h4v" changeset="8401653">
    <nd ref="324640359"/>
    <nd ref="324640364"/>
    <nd ref="324640366"/>
    <nd ref="324640361"/>
    <nd ref="324640359"/>
    <tag k="addr:housenumber" v="2"/>
    <tag k="addr:street" v="Pabianicka"/>
    <tag k="amenity" v="public_building"/>
    <tag k="building" v="yes"/>
    <tag k="name" v="Urząd Stanu Cywilnego"/>
    <tag k="old_name" v="Willa Ernsta Leonhardta"/>
    <tag k="source:name" v="wikipedia"/>
  </way>
  <way id="29456342" version="1" timestamp="2009-01-02T14:42:59Z" uid="20587" user="balrog-kun" changeset="708284">
    <nd ref="324640368"/>
    <nd ref="324640371"/>
    <nd ref="324640376"/>
    <nd ref="324640374"/>
    <nd ref="324640368"/>
    <tag k="addr:housenumber" v="15"/>
    <tag k="addr:street" v="Bednarska"/>
    <tag k="name" v="Państwowy Dom Dziecka imienia Stanisława Jachowicza"/>
    <tag k="source" v="wikipedia"/>
  </way>
  <way id="29456342" version="2" timestamp="2009-01-02T17:37:56Z" uid="20587" user="balrog-kun" changeset="712561">
    <nd ref="324640368"/>
    <nd ref="324640371"/>
    <nd ref="324640376"/>
    <nd ref="324640374"/>
    <nd ref="324640368"/>
    <tag k="addr:housenumber" v="15"/>
    <tag k="addr:street" v="Bednarska"/>
    <tag k="building" v="yes"/>
    <tag k="name" v="Państwowy Dom Dziecka imienia Stanisława Jachowicza"/>
    <tag k="source" v="wikipedia"/>
  </way>
  <way id="29456775" version="4" timestamp="2009-09-23T08:18:57Z" uid="9581" user="Lobelt" changeset="2591895">
    <nd ref="324643791"/>
    <nd ref="434498582"/>
    <nd ref="324643792"/>
    <nd ref="324643793"/>
    <nd ref="506104311"/>
    <nd ref="324643794"/>
    <nd ref="324643796"/>
    <nd ref="324643797"/>
    <tag k="highway" v="residential"/>
    <tag k="name" v="Mozartstraße"/>
  </way>
  <way id="29456982" version="2" timestamp="2010-07-06T08:50:32Z" uid="74617" user="JohnSmith" changeset="5147679">
    <nd ref="324645247"/>
    <nd ref="324645255"/>
    <nd ref="324645262"/>
    <nd ref="324645273"/>
    <nd ref="324645281"/>
    <nd ref="324201474"/>
    <tag k="highway" v="residential"/>
    <tag k="maxspeed" v="50"/>
    <tag k="maxspeed:source" v="default residential speed limit in Australia"/>
    <tag k="oneway" v="yes"/>
  </way>
  <way id="29456982" version="3" timestamp="2012-01-18T01:54:28Z" uid="147510" user="woodpeck_fixbot" changeset="10423581">
    <nd ref="324645247"/>
    <nd ref="324645255"/>
    <nd ref="324645262"/>
    <nd ref="324645273"/>
    <nd ref="324645281"/>
    <nd ref="324201474"/>
    <tag k="highway" v="residential"/>
    <tag k="oneway" v="yes"/>
  </way>
  <way id="29456997" version="1" timestamp="2009-01-02T14:52:51Z" uid="58091" user="Andreas M" changeset="708469">
    <nd ref="60216508"/>
    <nd ref="324645418"/>
    <nd ref="62663059"/>
    <nd ref="62663060"/>
    <nd ref="62663061"/>
    <nd ref="62663062"/>
    <nd ref="62663063"/>
    <nd ref="267428521"/>
    <nd ref="62663064"/>
    <tag k="created_by" v="Potlatch 0.10e"/>
    <tag k="name" v="1"/>
    <tag k="railway" v="tram"/>
  </way>
  <way id="29456997" version="2" timestamp="2009-05-31T19:15:04Z" uid="56311" user="Elandrion" changeset="1372571">
    <nd ref="60216508"/>
    <nd ref="324645418"/>
    <nd ref="62663059"/>
    <nd ref="62663060"/>
    <nd ref="62663061"/>
    <nd ref="62663062"/>
    <nd ref="62663063"/>
    <nd ref="267428521"/>
    <nd ref="62663064"/>
    <tag k="name" v="1"/>
    <tag k="railway" v="tram"/>
    <tag k="tracks" v="2"/>
  </way>
  <way id="29456997" version="3" timestamp="2010-04-18T19:59:25Z" uid="129531" user="almich" changeset="4462273">
    <nd ref="60216508"/>
    <nd ref="324645418"/>
    <nd ref="62663059"/>
    <nd ref="62663060"/>
    <nd ref="62663061"/>
    <nd ref="62663062"/>
    <nd ref="62663063"/>
    <nd ref="267428521"/>
    <nd ref="62663064"/>
    <tag k="gauge" v="1435"/>
    <tag k="name" v="1"/>
    <tag k="railway" v="tram"/>
    <tag k="tracks" v="2"/>
  </way>
  <way id="29456997" version="4" timestamp="2010-04-18T20:24:27Z" uid="129531" user="almich" changeset="4462598">
    <nd ref="60216508"/>
    <nd ref="324645418"/>
    <nd ref="62663059"/>
    <nd ref="62663060"/>
    <nd ref="62663061"/>
    <nd ref="62663062"/>
    <nd ref="62663063"/>
    <nd ref="267428521"/>
    <nd ref="62663064"/>
    <tag k="electrified" v="contact_line"/>
    <tag k="frequency" v="0"/>
    <tag k="gauge" v="1435"/>
    <tag k="name" v="1"/>
    <tag k="railway" v="tram"/>
    <tag k="tracks" v="2"/>
  </way>
  <way id="29456997" version="5" timestamp="2011-11-08T00:47:20Z" uid="129531" user="almich" changeset="9770160">
    <nd ref="60216508"/>
    <nd ref="324645418"/>
    <nd ref="62663059"/>
    <nd ref="62663060"/>
    <nd ref="62663061"/>
    <nd ref="62663062"/>
    <nd ref="62663063"/>
    <nd ref="267428521"/>
    <nd ref="62663064"/>
    <tag k="electrified" v="contact_line"/>
    <tag k="frequency" v="0"/>
    <tag k="gauge" v="1435"/>
    <tag k="name" v="1"/>
    <tag k="railway" v="tram"/>
    <tag k="tracks" v="2"/>
    <tag k="voltage" v="600"/>
  </way>
  <way id="29456997" version="6" timestamp="2012-01-30T18:16:48Z" uid="129531" user="almich" changeset="10542272"/>
  <way id="29456341" version="3" timestamp="2012-07-24T14:55:49Z" uid="722137" user="OSMF Redaction Account" changeset="12468457">
    <nd ref="324640359"/>
    <nd ref="324640364"/>
    <nd ref="324640366"/>
    <nd ref="324640361"/>
    <nd ref="324640359"/>
    <tag k="addr:housenumber" v="2"/>
    <tag k="addr:street" v="Pabianicka"/>
    <tag k="building" v="yes"/>
    <tag k="name" v="Urząd Stanu Cywilnego"/>
    <tag k="old_name" v="Willa Ernsta Leonhardta"/>
    <tag k="source:name" v="wikipedia"/>
  </way>
  <way id="29456342" version="3" timestamp="2012-07-10T19:16:40Z" uid="707169" user="damndog" changeset="12178168">
    <nd ref="324640368"/>
    <nd ref="1820683808"/>
    <nd ref="1820683807"/>
    <nd ref="324640371"/>
    <nd ref="324640376"/>
    <nd ref="324640374"/>
    <nd ref="324640368"/>
    <tag k="addr:housenumber" v="15a"/>
    <tag k="addr:street" v="Bednarska"/>
    <tag k="building" v="yes"/>
    <tag k="name" v="Państwowy Dom Dziecka imienia Stanisława Jachowicza"/>
    <tag k="source" v="wikipedia"/>
  </way>
  <way id="29456775" version="5" timestamp="2012-07-19T06:50:19Z" uid="722137" user="OSMF Redaction Account" changeset="12310774">
    <nd ref="324643791"/>
    <nd ref="434498582"/>
    <nd ref="324643792"/>
    <nd ref="324643793"/>
    <nd ref="324643794"/>
    <nd ref="324643796"/>
    <nd ref="324643797"/>
    <tag k="highway" v="residential"/>
    <tag k="name" v="Mozartstraße"/>
  </way>
  <way id="29456775" version="6" timestamp="2012-07-23T20:42:42Z" uid="89943" user="Bengatzer" changeset="12456796">
    <nd ref="324643791"/>
    <nd ref="434498582"/>
    <nd ref="324643792"/>
    <nd ref="324643793"/>
    <nd ref="1835301910"/>
    <nd ref="324643794"/>
    <nd ref="324643796"/>
    <nd ref="324643797"/>
    <tag k="highway" v="residential"/>
    <tag k="name" v="Mozartstraße"/>
  </way>
</osm>
