<?xml version='1.0' encoding='UTF-8'?>
<osm version="0.6" generator="libosmium/2.20.0">
  <way id="29458135" version="1" timestamp="2009-01-02T15:18:37Z" uid="58091" user="Andreas M" changeset="708469">
    <nd ref="60210198"/>
    <nd ref="314051535"/>
    <nd ref="321885232"/>
    <nd ref="33470754"/>
    <nd ref="60211238"/>
    <nd ref="60211241"/>
    <nd ref="60211245"/>
    <nd ref="302855276"/>
    <tag k="created_by" v="Potlatch 0.10f"/>
    <tag k="name" v="2"/>
    <tag k="railway" v="tram"/>
  </way>
  <way id="29458135" version="2" timestamp="2009-01-02T15:26:51Z" uid="58091" user="Andreas M" changeset="708469"/>
  <way id="29458325" version="1" timestamp="2009-01-02T15:26:46Z" uid="58091" user="Andreas M" changeset="708469">
    <nd ref="33470883"/>
    <nd ref="60211248"/>
    <nd ref="60211224"/>
    <nd ref="60211202"/>
    <nd ref="60210120"/>
    <tag k="created_by" v="Potlatch 0.10b"/>
    <tag k="highway" v="secondary"/>
    <tag k="name" v="Nordbahnstraße"/>
  </way>
  <way id="29458325" version="2" timestamp="2009-01-06T16:58:36Z" uid="54806" user="_al" changeset="748438">
    <nd ref="33470883"/>
    <nd ref="60211248"/>
    <nd ref="60211224"/>
    <nd ref="60211202"/>
    <nd ref="60210120"/>
    <tag k="created_by" v="Potlatch 0.10f"/>
    <tag k="highway" v="secondary"/>
    <tag k="name" v="Nordbahnstraße"/>
  </way>
  <way id="29458325" version="3" timestamp="2009-01-09T02:02:31Z" uid="76050" user="Wolfgang_Wasserburger" changeset="759958">
    <nd ref="33470883"/>
    <nd ref="330372031"/>
    <nd ref="60211248"/>
    <nd ref="60211224"/>
    <nd ref="60211202"/>
    <nd ref="60210120"/>
    <tag k="created_by" v="Potlatch 0.10f"/>
    <tag k="highway" v="secondary"/>
    <tag k="name" v="Nordbahnstraße"/>
  </way>
  <way id="29458325" version="4" timestamp="2009-09-28T13:19:37Z" uid="12295" user="mapper_07" changeset="2664589">
    <nd ref="33470883"/>
    <nd ref="330372031"/>
    <nd ref="60211248"/>
    <nd ref="60211224"/>
    <nd ref="60211202"/>
    <nd ref="60210120"/>
    <tag k="highway" v="secondary"/>
    <tag k="maxspeed" v="50"/>
    <tag k="name" v="Nordbahnstraße"/>
  </way>
  <way id="29458325" version="5" timestamp="2010-06-18T00:43:22Z" uid="303158" user="ameno" changeset="5013332">
    <nd ref="33470883"/>
    <nd ref="330372031"/>
    <nd ref="60211248"/>
    <nd ref="60211224"/>
    <nd ref="60211202"/>
    <nd ref="60210120"/>
    <tag k="cycleway" v="track"/>
    <tag k="highway" v="secondary"/>
    <tag k="lcn" v="yes"/>
    <tag k="maxspeed" v="50"/>
    <tag k="name" v="Nordbahnstraße"/>
  </way>
  <way id="29458325" version="6" timestamp="2011-03-06T09:34:45Z" uid="99800" user="wolfbert" changeset="7471062">
    <nd ref="33470883"/>
    <nd ref="1188875861"/>
    <tag k="cycleway" v="track"/>
    <tag k="highway" v="secondary"/>
    <tag k="lcn" v="yes"/>
    <tag k="maxspeed" v="50"/>
    <tag k="name" v="Nordbahnstraße"/>
  </way>
  <way id="29458325" version="7" timestamp="2011-03-06T16:02:00Z" uid="99800" user="wolfbert" changeset="7474736">
    <nd ref="33470883"/>
    <nd ref="1188875861"/>
    <tag k="cycleway" v="track"/>
    <tag k="highway" v="secondary"/>
    <tag k="lcn" v="yes"/>
    <tag k="maxspeed" v="50"/>
    <tag k="name" v="Nordbahnstraße"/>
    <tag k="source:maxspeed" v="AT:urban"/>
  </way>
  <way id="29458325" version="8" timestamp="2011-05-14T08:20:01Z" uid="56501" user="Rudolf_H" changeset="8138302">
    <nd ref="33470883"/>
    <nd ref="1283781411"/>
    <nd ref="1188875861"/>
    <tag k="cycleway" v="track"/>
    <tag k="highway" v="secondary"/>
    <tag k="lcn" v="yes"/>
    <tag k="maxspeed" v="50"/>
    <tag k="name" v="Nordbahnstraße"/>
    <tag k="source:maxspeed" v="AT:urban"/>
  </way>
  <way id="29458325" version="9" timestamp="2011-09-07T17:16:31Z" uid="298560" user="evod" changeset="9238725">
    <nd ref="33470883"/>
    <nd ref="1283781411"/>
    <nd ref="1188875861"/>
    <tag k="highway" v="secondary"/>
    <tag k="lcn" v="yes"/>
    <tag k="maxspeed" v="50"/>
    <tag k="name" v="Nordbahnstraße"/>
    <tag k="source:maxspeed" v="AT:urban"/>
  </way>
  <way id="29458325" version="10" timestamp="2012-02-05T18:55:20Z" uid="129531" user="almich" changeset="10596985"/>
  <way id="29458327" version="1" timestamp="2009-01-02T15:26:47Z" uid="58091" user="Andreas M" changeset="708469">
    <nd ref="122109711"/>
    <nd ref="314051524"/>
    <nd ref="302855516"/>
    <nd ref="302855517"/>
    <nd ref="314051518"/>
    <nd ref="60296238"/>
    <nd ref="60296239"/>
    <nd ref="60296240"/>
    <nd ref="60296242"/>
    <nd ref="60296243"/>
    <nd ref="60296244"/>
    <tag k="name" v="2"/>
    <tag k="railway" v="tram"/>
  </way>
  <way id="29458327" version="2" timestamp="2009-01-02T15:49:24Z" uid="58091" user="Andreas M" changeset="708469">
    <nd ref="122109711"/>
    <nd ref="314051524"/>
    <nd ref="302855516"/>
    <nd ref="302855517"/>
    <nd ref="314051518"/>
    <nd ref="60296238"/>
    <tag k="name" v="2"/>
    <tag k="railway" v="tram"/>
  </way>
  <way id="29458327" version="3" timestamp="2009-01-06T16:41:25Z" uid="54806" user="_al" changeset="748438">
    <nd ref="122109711"/>
    <nd ref="314051524"/>
    <nd ref="302855516"/>
    <nd ref="302855517"/>
    <nd ref="314051518"/>
    <nd ref="60296238"/>
    <tag k="created_by" v="Potlatch 0.10f"/>
    <tag k="name" v="2"/>
    <tag k="railway" v="tram"/>
  </way>
  <way id="29458327" version="4" timestamp="2009-01-06T16:41:39Z" uid="54806" user="_al" changeset="748438">
    <nd ref="122109711"/>
    <nd ref="314051524"/>
    <nd ref="302855516"/>
    <nd ref="302855517"/>
    <nd ref="314051518"/>
    <nd ref="60296238"/>
    <tag k="created_by" v="Potlatch 0.10f"/>
    <tag k="name" v="2"/>
    <tag k="railway" v="tram"/>
  </way>
  <way id="29458327" version="5" timestamp="2010-03-22T19:44:50Z" uid="58091" user="Andreas M" changeset="4206118">
    <nd ref="122109711"/>
    <nd ref="314051524"/>
    <nd ref="302855516"/>
    <nd ref="302855517"/>
    <nd ref="672322667"/>
    <nd ref="314051518"/>
    <nd ref="60296238"/>
    <tag k="name" v="2"/>
    <tag k="railway" v="tram"/>
  </way>
  <way id="29458327" version="6" timestamp="2010-04-18T20:01:06Z" uid="129531" user="almich" changeset="4462273">
    <nd ref="122109711"/>
    <nd ref="314051524"/>
    <nd ref="302855516"/>
    <nd ref="302855517"/>
    <nd ref="672322667"/>
    <nd ref="314051518"/>
    <nd ref="60296238"/>
    <tag k="gauge" v="1435"/>
    <tag k="name" v="2"/>
    <tag k="railway" v="tram"/>
  </way>
  <way id="29458327" version="7" timestamp="2010-04-18T20:25:51Z" uid="129531" user="almich" changeset="4462598">
    <nd ref="122109711"/>
    <nd ref="314051524"/>
    <nd ref="302855516"/>
    <nd ref="302855517"/>
    <nd ref="672322667"/>
    <nd ref="314051518"/>
    <nd ref="60296238"/>
    <tag k="electrified" v="contact_line"/>
    <tag k="frequency" v="0"/>
    <tag k="gauge" v="1435"/>
    <tag k="name" v="2"/>
    <tag k="railway" v="tram"/>
  </way>
  <way id="29458327" version="8" timestamp="2010-05-18T06:09:44Z" uid="12295" user="mapper_07" changeset="4735544">
    <nd ref="122109711"/>
    <nd ref="314051524"/>
    <nd ref="302855516"/>
    <nd ref="302855517"/>
    <nd ref="672322667"/>
    <nd ref="314051518"/>
    <nd ref="738208025"/>
    <nd ref="738208027"/>
    <nd ref="738208024"/>
    <nd ref="738208028"/>
    <nd ref="738208023"/>
    <nd ref="737873573"/>
    <tag k="electrified" v="contact_line"/>
    <tag k="frequency" v="0"/>
    <tag k="gauge" v="1435"/>
    <tag k="name" v="2"/>
    <tag k="railway" v="tram"/>
  </way>
  <way id="29458327" version="9" timestamp="2011-03-31T22:38:27Z" uid="232372" user="wosm20" changeset="7730814">
    <nd ref="122109711"/>
    <nd ref="1227298960"/>
    <nd ref="314051524"/>
    <nd ref="1227298951"/>
    <nd ref="302855516"/>
    <nd ref="302855517"/>
    <nd ref="672322667"/>
    <nd ref="314051518"/>
    <nd ref="738208025"/>
    <nd ref="738208027"/>
    <nd ref="738208024"/>
    <nd ref="738208028"/>
    <nd ref="738208023"/>
    <nd ref="737873573"/>
    <tag k="electrified" v="contact_line"/>
    <tag k="frequency" v="0"/>
    <tag k="gauge" v="1435"/>
    <tag k="name" v="2"/>
    <tag k="railway" v="tram"/>
  </way>
  <way id="29458327" version="10" timestamp="2011-08-13T05:52:17Z" uid="56501" user="Rudolf_H" changeset="9002279">
    <nd ref="122109711"/>
    <nd ref="1227298960"/>
    <nd ref="1396657291"/>
    <nd ref="314051524"/>
    <nd ref="302855516"/>
    <nd ref="302855517"/>
    <nd ref="672322667"/>
    <nd ref="314051518"/>
    <nd ref="738208025"/>
    <nd ref="738208027"/>
    <nd ref="738208024"/>
    <nd ref="738208028"/>
    <nd ref="738208023"/>
    <nd ref="737873573"/>
    <tag k="electrified" v="contact_line"/>
    <tag k="frequency" v="0"/>
    <tag k="gauge" v="1435"/>
    <tag k="name" v="2"/>
    <tag k="railway" v="tram"/>
  </way>
  <way id="29458327" version="11" timestamp="2011-11-08T00:47:28Z" uid="129531" user="almich" changeset="9770160">
    <nd ref="122109711"/>
    <nd ref="1227298960"/>
    <nd ref="1396657291"/>
    <nd ref="314051524"/>
    <nd ref="302855516"/>
    <nd ref="302855517"/>
    <nd ref="672322667"/>
    <nd ref="314051518"/>
    <nd ref="738208025"/>
    <nd ref="738208027"/>
    <nd ref="738208024"/>
    <nd ref="738208028"/>
    <nd ref="738208023"/>
    <nd ref="737873573"/>
    <tag k="electrified" v="contact_line"/>
    <tag k="frequency" v="0"/>
    <tag k="gauge" v="1435"/>
    <tag k="name" v="2"/>
    <tag k="railway" v="tram"/>
    <tag k="voltage" v="600"/>
  </way>
  <way id="29458327" version="12" timestamp="2012-02-04T17:19:36Z" uid="129531" user="almich" changeset="10586540"/>
  <way id="29458599" version="1" timestamp="2009-01-02T15:49:18Z" uid="58091" user="Andreas M" changeset="708469">
    <nd ref="60296227"/>
    <nd ref="274611982"/>
    <nd ref="378904"/>
    <nd ref="274612221"/>
    <nd ref="33254423"/>
    <nd ref="33254419"/>
    <nd ref="378950"/>
    <nd ref="33254415"/>
    <nd ref="294460755"/>
    <nd ref="33254405"/>
    <nd ref="33254400"/>
    <nd ref="60296220"/>
    <nd ref="294460757"/>
    <nd ref="60296218"/>
    <tag k="created_by" v="Potlatch 0.9c"/>
    <tag k="highway" v="tertiary"/>
    <tag k="is_in" v="Austria,Vienna,Wien"/>
    <tag k="maxspeed" v="50"/>
    <tag k="name" v="Klosterneuburger Straße"/>
    <tag k="railway" v="tram"/>
    <tag k="source" v="yahoo"/>
  </way>
  <way id="29458599" version="2" timestamp="2009-01-05T09:25:11Z" uid="54806" user="_al" changeset="736548">
    <nd ref="60296227"/>
    <nd ref="274611982"/>
    <nd ref="378904"/>
    <nd ref="274612221"/>
    <nd ref="33254423"/>
    <nd ref="33254419"/>
    <nd ref="378950"/>
    <nd ref="33254415"/>
    <nd ref="294460755"/>
    <nd ref="33254405"/>
    <nd ref="33254400"/>
    <nd ref="60296220"/>
    <nd ref="294460757"/>
    <nd ref="60296218"/>
    <tag k="created_by" v="Potlatch 0.10f"/>
    <tag k="highway" v="tertiary"/>
    <tag k="is_in" v="Austria,Vienna,Wien"/>
    <tag k="maxspeed" v="50"/>
    <tag k="name" v="Klosterneuburger Straße"/>
    <tag k="railway" v="tram"/>
    <tag k="source" v="yahoo"/>
  </way>
  <way id="29458599" version="3" timestamp="2009-01-05T09:25:27Z" uid="54806" user="_al" changeset="736548">
    <nd ref="60296227"/>
    <nd ref="274611982"/>
    <nd ref="378904"/>
    <nd ref="274612221"/>
    <nd ref="33254423"/>
    <nd ref="33254419"/>
    <nd ref="378950"/>
    <nd ref="33254415"/>
    <nd ref="294460755"/>
    <nd ref="33254405"/>
    <nd ref="33254400"/>
    <nd ref="60296220"/>
    <nd ref="294460757"/>
    <nd ref="60296218"/>
    <tag k="created_by" v="Potlatch 0.10f"/>
    <tag k="highway" v="tertiary"/>
    <tag k="is_in" v="Austria,Vienna,Wien"/>
    <tag k="maxspeed" v="50"/>
    <tag k="name" v="Klosterneuburger Straße"/>
    <tag k="railway" v="tram"/>
    <tag k="source" v="yahoo"/>
  </way>
  <way id="29458599" version="4" timestamp="2009-01-15T14:13:48Z" uid="43577" user="dorni74" changeset="792355">
    <nd ref="60296227"/>
    <nd ref="274611982"/>
    <nd ref="378904"/>
    <nd ref="274612221"/>
    <nd ref="33254423"/>
    <nd ref="33254419"/>
    <nd ref="378950"/>
    <tag k="created_by" v="Potlatch 0.10f"/>
    <tag k="highway" v="tertiary"/>
    <tag k="is_in" v="Austria,Vienna,Wien"/>
    <tag k="maxspeed" v="50"/>
    <tag k="name" v="Klosterneuburger Straße"/>
    <tag k="railway" v="tram"/>
    <tag k="source" v="yahoo"/>
  </way>
  <way id="29458599" version="5" timestamp="2009-05-31T19:14:51Z" uid="56311" user="Elandrion" changeset="1372571">
    <nd ref="60296227"/>
    <nd ref="274611982"/>
    <nd ref="378904"/>
    <nd ref="274612221"/>
    <nd ref="33254423"/>
    <nd ref="33254419"/>
    <nd ref="378950"/>
    <tag k="highway" v="tertiary"/>
    <tag k="is_in" v="Austria,Vienna,Wien"/>
    <tag k="maxspeed" v="50"/>
    <tag k="name" v="Klosterneuburger Straße"/>
    <tag k="railway" v="tram"/>
    <tag k="source" v="yahoo"/>
    <tag k="tracks" v="2"/>
  </way>
  <way id="29458599" version="6" timestamp="2010-04-18T20:01:02Z" uid="129531" user="almich" changeset="4462273">
    <nd ref="60296227"/>
    <nd ref="274611982"/>
    <nd ref="378904"/>
    <nd ref="274612221"/>
    <nd ref="33254423"/>
    <nd ref="33254419"/>
    <nd ref="378950"/>
    <tag k="gauge" v="1435"/>
    <tag k="highway" v="tertiary"/>
    <tag k="is_in" v="Austria,Vienna,Wien"/>
    <tag k="maxspeed" v="50"/>
    <tag k="name" v="Klosterneuburger Straße"/>
    <tag k="railway" v="tram"/>
    <tag k="source" v="yahoo"/>
    <tag k="tracks" v="2"/>
  </way>
  <way id="29458599" version="7" timestamp="2010-04-18T20:25:49Z" uid="129531" user="almich" changeset="4462598">
    <nd ref="60296227"/>
    <nd ref="274611982"/>
    <nd ref="378904"/>
    <nd ref="274612221"/>
    <nd ref="33254423"/>
    <nd ref="33254419"/>
    <nd ref="378950"/>
    <tag k="electrified" v="contact_line"/>
    <tag k="frequency" v="0"/>
    <tag k="gauge" v="1435"/>
    <tag k="highway" v="tertiary"/>
    <tag k="is_in" v="Austria,Vienna,Wien"/>
    <tag k="maxspeed" v="50"/>
    <tag k="name" v="Klosterneuburger Straße"/>
    <tag k="railway" v="tram"/>
    <tag k="source" v="yahoo"/>
    <tag k="tracks" v="2"/>
  </way>
  <way id="29458599" version="8" timestamp="2010-05-21T15:01:47Z" uid="285891" user="Jango" changeset="4766830">
    <nd ref="60296227"/>
    <nd ref="274611982"/>
    <nd ref="378904"/>
    <nd ref="274612221"/>
    <nd ref="33254423"/>
    <nd ref="33254419"/>
    <nd ref="378950"/>
    <nd ref="378950"/>
    <tag k="electrified" v="contact_line"/>
    <tag k="frequency" v="0"/>
    <tag k="gauge" v="1435"/>
    <tag k="highway" v="tertiary"/>
    <tag k="is_in" v="Austria,Vienna,Wien"/>
    <tag k="maxspeed" v="50"/>
    <tag k="name" v="Klosterneuburger Straße"/>
    <tag k="railway" v="tram"/>
    <tag k="source" v="yahoo"/>
    <tag k="tracks" v="2"/>
  </way>
  <way id="29458599" version="9" timestamp="2010-05-21T19:01:24Z" uid="70696" user="xybot" changeset="4768326">
    <nd ref="60296227"/>
    <nd ref="274611982"/>
    <nd ref="378904"/>
    <nd ref="274612221"/>
    <nd ref="33254423"/>
    <nd ref="33254419"/>
    <nd ref="378950"/>
    <tag k="electrified" v="contact_line"/>
    <tag k="frequency" v="0"/>
    <tag k="gauge" v="1435"/>
    <tag k="highway" v="tertiary"/>
    <tag k="is_in" v="Austria,Vienna,Wien"/>
    <tag k="maxspeed" v="50"/>
    <tag k="name" v="Klosterneuburger Straße"/>
    <tag k="railway" v="tram"/>
    <tag k="source" v="yahoo"/>
    <tag k="tracks" v="2"/>
  </way>
  <way id="29458599" version="10" timestamp="2010-07-23T13:08:05Z" uid="323033" user="mbue" changeset="5295497">
    <nd ref="60296227"/>
    <nd ref="378904"/>
    <nd ref="33254423"/>
    <nd ref="33254419"/>
    <nd ref="378950"/>
    <tag k="electrified" v="contact_line"/>
    <tag k="frequency" v="0"/>
    <tag k="gauge" v="1435"/>
    <tag k="highway" v="tertiary"/>
    <tag k="is_in" v="Austria,Vienna,Wien"/>
    <tag k="maxspeed" v="50"/>
    <tag k="name" v="Klosterneuburger Straße"/>
    <tag k="railway" v="tram"/>
    <tag k="source" v="yahoo"/>
    <tag k="tracks" v="2"/>
  </way>
  <way id="29458599" version="11" timestamp="2010-07-28T17:10:52Z" uid="323033" user="mbue" changeset="5339824">
    <nd ref="60296227"/>
    <nd ref="378904"/>
    <nd ref="33254423"/>
    <nd ref="33254419"/>
    <nd ref="378950"/>
    <tag k="electrified" v="contact_line"/>
    <tag k="frequency" v="0"/>
    <tag k="gauge" v="1435"/>
    <tag k="highway" v="tertiary"/>
    <tag k="is_in" v="Austria,Vienna,Wien"/>
    <tag k="maxspeed" v="50"/>
    <tag k="name" v="Klosterneuburger Straße"/>
    <tag k="railway" v="tram"/>
    <tag k="source" v="yahoo"/>
    <tag k="tracks" v="2"/>
  </way>
  <way id="29458599" version="12" timestamp="2011-03-22T17:41:42Z" uid="298560" user="evod" changeset="7639222">
    <nd ref="60296227"/>
    <nd ref="1213578843"/>
    <nd ref="1213578834"/>
    <nd ref="33254423"/>
    <nd ref="33254419"/>
    <nd ref="378950"/>
    <tag k="electrified" v="contact_line"/>
    <tag k="frequency" v="0"/>
    <tag k="gauge" v="1435"/>
    <tag k="highway" v="tertiary"/>
    <tag k="is_in" v="Austria,Vienna,Wien"/>
    <tag k="maxspeed" v="50"/>
    <tag k="name" v="Klosterneuburger Straße"/>
    <tag k="railway" v="tram"/>
    <tag k="source" v="yahoo"/>
    <tag k="tracks" v="2"/>
  </way>
  <way id="29458599" version="13" timestamp="2011-08-14T20:03:30Z" uid="56501" user="Rudolf_H" changeset="9020461">
    <nd ref="60296227"/>
    <nd ref="1213578843"/>
    <nd ref="1213578834"/>
    <nd ref="33254423"/>
    <nd ref="33254419"/>
    <nd ref="378950"/>
    <tag k="electrified" v="contact_line"/>
    <tag k="frequency" v="0"/>
    <tag k="gauge" v="1435"/>
    <tag k="highway" v="tertiary"/>
    <tag k="maxspeed" v="50"/>
    <tag k="name" v="Klosterneuburger Straße"/>
    <tag k="railway" v="tram"/>
    <tag k="tracks" v="2"/>
  </way>
  <way id="29458599" version="14" timestamp="2011-11-08T00:00:26Z" uid="129531" user="almich" changeset="9770029">
    <nd ref="60296227"/>
    <nd ref="1213578843"/>
    <nd ref="1213578834"/>
    <nd ref="33254423"/>
    <nd ref="33254419"/>
    <nd ref="378950"/>
    <tag k="electrified" v="contact_line"/>
    <tag k="frequency" v="0"/>
    <tag k="gauge" v="1435"/>
    <tag k="highway" v="tertiary"/>
    <tag k="maxspeed" v="50"/>
    <tag k="name" v="Klosterneuburger Straße"/>
    <tag k="railway" v="tram"/>
    <tag k="tracks" v="2"/>
    <tag k="voltage" v="600"/>
  </way>
  <way id="29458599" version="15" timestamp="2011-11-30T21:23:05Z" uid="104947" user="My Friend" changeset="10003393">
    <nd ref="1525320846"/>
    <nd ref="1213578843"/>
    <nd ref="1213578834"/>
    <nd ref="33254423"/>
    <nd ref="33254419"/>
    <nd ref="378950"/>
    <tag k="electrified" v="contact_line"/>
    <tag k="frequency" v="0"/>
    <tag k="gauge" v="1435"/>
    <tag k="highway" v="tertiary"/>
    <tag k="maxspeed" v="50"/>
    <tag k="name" v="Klosterneuburger Straße"/>
    <tag k="railway" v="tram"/>
    <tag k="tracks" v="2"/>
    <tag k="voltage" v="600"/>
  </way>
  <way id="29458599" version="16" timestamp="2012-02-05T18:55:20Z" uid="129531" user="almich" changeset="10596985"/>
  <way id="29458600" version="1" timestamp="2009-01-02T15:49:19Z" uid="58091" user="Andreas M" changeset="708469">
    <nd ref="60296243"/>
    <nd ref="60732835"/>
    <tag k="created_by" v="Potlatch 0.10b"/>
    <tag k="highway" v="tertiary"/>
    <tag k="name" v="Marchfeldstraße"/>
  </way>
  <way id="29458600" version="2" timestamp="2009-06-02T13:42:03Z" uid="56501" user="Rudolf_H" changeset="1404117">
    <nd ref="60296243"/>
    <nd ref="414721579"/>
    <nd ref="60732835"/>
    <tag k="created_by" v="Potlatch 0.10b"/>
    <tag k="highway" v="tertiary"/>
    <tag k="name" v="Marchfeldstraße"/>
  </way>
  <way id="29458600" version="3" timestamp="2009-10-20T14:10:38Z" uid="12295" user="mapper_07" changeset="2903548">
    <nd ref="60296243"/>
    <nd ref="414721579"/>
    <nd ref="60732835"/>
    <tag k="highway" v="tertiary"/>
    <tag k="maxspeed" v="50"/>
    <tag k="name" v="Marchfeldstraße"/>
  </way>
  <way id="29458600" version="4" timestamp="2011-08-13T03:50:36Z" uid="56501" user="Rudolf_H" changeset="9001871">
    <nd ref="60296243"/>
    <nd ref="1396617896"/>
    <nd ref="1396617897"/>
    <nd ref="414721579"/>
    <nd ref="60732835"/>
    <tag k="highway" v="tertiary"/>
    <tag k="maxspeed" v="50"/>
    <tag k="name" v="Marchfeldstraße"/>
  </way>
  <way id="29458601" version="1" timestamp="2009-01-02T15:49:19Z" uid="58091" user="Andreas M" changeset="708469">
    <nd ref="60296238"/>
    <nd ref="60296239"/>
    <tag k="created_by" v="Potlatch 0.10b"/>
    <tag k="highway" v="tertiary"/>
    <tag k="name" v="Höchstädtplatz"/>
    <tag k="railway" v="tram"/>
  </way>
  <way id="29458601" version="2" timestamp="2009-09-25T12:36:19Z" uid="58091" user="Andreas M" changeset="2618494">
    <nd ref="60296238"/>
    <nd ref="314051520"/>
    <nd ref="60296239"/>
    <tag k="highway" v="tertiary"/>
    <tag k="name" v="Höchstädtplatz"/>
    <tag k="railway" v="tram"/>
  </way>
  <way id="29458601" version="3" timestamp="2010-04-18T20:01:05Z" uid="129531" user="almich" changeset="4462273">
    <nd ref="60296238"/>
    <nd ref="314051520"/>
    <nd ref="60296239"/>
    <tag k="gauge" v="1435"/>
    <tag k="highway" v="tertiary"/>
    <tag k="name" v="Höchstädtplatz"/>
    <tag k="railway" v="tram"/>
  </way>
  <way id="29458601" version="4" timestamp="2010-04-18T20:25:51Z" uid="129531" user="almich" changeset="4462598">
    <nd ref="60296238"/>
    <nd ref="314051520"/>
    <nd ref="60296239"/>
    <tag k="electrified" v="contact_line"/>
    <tag k="frequency" v="0"/>
    <tag k="gauge" v="1435"/>
    <tag k="highway" v="tertiary"/>
    <tag k="name" v="Höchstädtplatz"/>
    <tag k="railway" v="tram"/>
  </way>
  <way id="29458601" version="5" timestamp="2010-05-17T18:40:04Z" uid="12295" user="mapper_07" changeset="4731482"/>
  <way id="29458602" version="1" timestamp="2009-01-02T15:49:19Z" uid="58091" user="Andreas M" changeset="708469">
    <nd ref="60296243"/>
    <nd ref="60296244"/>
    <tag k="name" v="2"/>
    <tag k="railway" v="tram"/>
  </way>
  <way id="29458602" version="2" timestamp="2010-04-18T20:01:07Z" uid="129531" user="almich" changeset="4462273">
    <nd ref="60296243"/>
    <nd ref="60296244"/>
    <tag k="gauge" v="1435"/>
    <tag k="name" v="2"/>
    <tag k="railway" v="tram"/>
  </way>
  <way id="29458602" version="3" timestamp="2010-04-18T20:25:53Z" uid="129531" user="almich" changeset="4462598">
    <nd ref="60296243"/>
    <nd ref="60296244"/>
    <tag k="electrified" v="contact_line"/>
    <tag k="frequency" v="0"/>
    <tag k="gauge" v="1435"/>
    <tag k="name" v="2"/>
    <tag k="railway" v="tram"/>
  </way>
  <way id="29458602" version="4" timestamp="2010-09-03T19:52:24Z" uid="129531" user="almich" changeset="5673667">
    <nd ref="60296243"/>
    <nd ref="60296244"/>
    <tag k="electrified" v="contact_line"/>
    <tag k="frequency" v="0"/>
    <tag k="gauge" v="1435"/>
    <tag k="name" v="2"/>
    <tag k="railway" v="tram"/>
    <tag k="tracks" v="2"/>
  </way>
  <way id="29458602" version="5" timestamp="2011-11-08T00:47:28Z" uid="129531" user="almich" changeset="9770160">
    <nd ref="60296243"/>
    <nd ref="60296244"/>
    <tag k="electrified" v="contact_line"/>
    <tag k="frequency" v="0"/>
    <tag k="gauge" v="1435"/>
    <tag k="name" v="2"/>
    <tag k="railway" v="tram"/>
    <tag k="tracks" v="2"/>
    <tag k="voltage" v="600"/>
  </way>
  <way id="29458602" version="6" timestamp="2012-01-20T06:15:55Z" uid="104947" user="My Friend" changeset="10443434"/>
  <way id="29458603" version="1" timestamp="2009-01-02T15:49:19Z" uid="58091" user="Andreas M" changeset="708469">
    <nd ref="314051514"/>
    <nd ref="294453907"/>
    <nd ref="60296244"/>
    <tag k="name" v="2"/>
    <tag k="railway" v="tram"/>
  </way>
  <way id="29458603" version="2" timestamp="2010-04-18T20:01:08Z" uid="129531" user="almich" changeset="4462273">
    <nd ref="314051514"/>
    <nd ref="294453907"/>
    <nd ref="60296244"/>
    <tag k="gauge" v="1435"/>
    <tag k="name" v="2"/>
    <tag k="railway" v="tram"/>
  </way>
  <way id="29458603" version="3" timestamp="2010-04-18T20:25:53Z" uid="129531" user="almich" changeset="4462598">
    <nd ref="314051514"/>
    <nd ref="294453907"/>
    <nd ref="60296244"/>
    <tag k="electrified" v="contact_line"/>
    <tag k="frequency" v="0"/>
    <tag k="gauge" v="1435"/>
    <tag k="name" v="2"/>
    <tag k="railway" v="tram"/>
  </way>
  <way id="29458603" version="4" timestamp="2010-09-03T19:52:26Z" uid="129531" user="almich" changeset="5673667">
    <nd ref="314051514"/>
    <nd ref="294453907"/>
    <nd ref="60296244"/>
    <tag k="electrified" v="contact_line"/>
    <tag k="frequency" v="0"/>
    <tag k="gauge" v="1435"/>
    <tag k="name" v="2"/>
    <tag k="railway" v="tram"/>
    <tag k="tracks" v="2"/>
  </way>
  <way id="29458603" version="5" timestamp="2011-02-21T10:39:52Z" uid="321862" user="DanX" changeset="7352246">
    <nd ref="314051514"/>
    <nd ref="294453907"/>
    <nd ref="60296244"/>
    <tag k="electrified" v="contact_line"/>
    <tag k="frequency" v="0"/>
    <tag k="gauge" v="1435"/>
    <tag k="name" v="2, 31, 33"/>
    <tag k="railway" v="tram"/>
    <tag k="tracks" v="2"/>
  </way>
  <way id="29458603" version="6" timestamp="2011-03-17T01:19:31Z" uid="232372" user="wosm20" changeset="7581414">
    <nd ref="314051514"/>
    <nd ref="294453907"/>
    <nd ref="1205085771"/>
    <nd ref="1205085836"/>
    <nd ref="1205085824"/>
    <nd ref="1205085805"/>
    <nd ref="60296244"/>
    <tag k="electrified" v="contact_line"/>
    <tag k="frequency" v="0"/>
    <tag k="gauge" v="1435"/>
    <tag k="name" v="2, 31, 33"/>
    <tag k="railway" v="tram"/>
    <tag k="tracks" v="2"/>
  </way>
  <way id="29458603" version="7" timestamp="2011-08-13T03:50:36Z" uid="56501" user="Rudolf_H" changeset="9001871">
    <nd ref="314051514"/>
    <nd ref="294453907"/>
    <nd ref="1205085836"/>
    <nd ref="1205085824"/>
    <nd ref="1205085805"/>
    <nd ref="60296244"/>
    <tag k="electrified" v="contact_line"/>
    <tag k="frequency" v="0"/>
    <tag k="gauge" v="1435"/>
    <tag k="name" v="2, 31, 33"/>
    <tag k="railway" v="tram"/>
    <tag k="tracks" v="2"/>
  </way>
  <way id="29458603" version="8" timestamp="2011-11-08T00:47:32Z" uid="129531" user="almich" changeset="9770160">
    <nd ref="314051514"/>
    <nd ref="294453907"/>
    <nd ref="1205085836"/>
    <nd ref="1205085824"/>
    <nd ref="1205085805"/>
    <nd ref="60296244"/>
    <tag k="electrified" v="contact_line"/>
    <tag k="frequency" v="0"/>
    <tag k="gauge" v="1435"/>
    <tag k="name" v="2, 31, 33"/>
    <tag k="railway" v="tram"/>
    <tag k="tracks" v="2"/>
    <tag k="voltage" v="600"/>
  </way>
  <way id="29458603" version="9" timestamp="2012-01-20T05:46:59Z" uid="104947" user="My Friend" changeset="10443348">
    <nd ref="314051514"/>
    <nd ref="294453907"/>
    <nd ref="1205085836"/>
    <nd ref="1205085824"/>
    <nd ref="1205085805"/>
    <nd ref="60296244"/>
    <tag k="electrified" v="contact_line"/>
    <tag k="frequency" v="0"/>
    <tag k="gauge" v="1435"/>
    <tag k="name" v="2, 31, 33"/>
    <tag k="railway" v="tram"/>
    <tag k="tracks" v="2"/>
    <tag k="voltage" v="600"/>
  </way>
  <way id="29458603" version="10" timestamp="2012-01-20T06:15:44Z" uid="104947" user="My Friend" changeset="10443434">
    <nd ref="314051514"/>
    <nd ref="1598483877"/>
    <nd ref="294453907"/>
    <nd ref="1205085836"/>
    <nd ref="1205085824"/>
    <nd ref="1205085805"/>
    <nd ref="1598483867"/>
    <nd ref="60296242"/>
    <tag k="electrified" v="contact_line"/>
    <tag k="frequency" v="0"/>
    <tag k="gauge" v="1435"/>
    <tag k="oneway" v="yes"/>
    <tag k="railway" v="tram"/>
    <tag k="ref" v="2, 31, 33"/>
    <tag k="tracks" v="1"/>
    <tag k="voltage" v="600"/>
  </way>
  <way id="29458603" version="11" timestamp="2012-01-20T11:39:41Z" uid="104947" user="My Friend" changeset="10445416">
    <nd ref="314051514"/>
    <nd ref="1598483877"/>
    <nd ref="294453907"/>
    <nd ref="1205085836"/>
    <nd ref="1205085824"/>
    <nd ref="1205085805"/>
    <nd ref="1598483867"/>
    <nd ref="1598823137"/>
    <nd ref="1598823134"/>
    <nd ref="60296239"/>
    <tag k="electrified" v="contact_line"/>
    <tag k="frequency" v="0"/>
    <tag k="gauge" v="1435"/>
    <tag k="oneway" v="yes"/>
    <tag k="railway" v="tram"/>
    <tag k="ref" v="2, 31, 33"/>
    <tag k="tracks" v="1"/>
    <tag k="voltage" v="600"/>
  </way>
  <way id="29458603" version="12" timestamp="2012-02-04T17:19:36Z" uid="129531" user="almich" changeset="10586540"/>
  <way id="29458604" version="1" timestamp="2009-01-02T15:49:20Z" uid="58091" user="Andreas M" changeset="708469">
    <nd ref="314051514"/>
    <nd ref="60296246"/>
    <nd ref="60296247"/>
    <nd ref="294453911"/>
    <nd ref="60296248"/>
    <nd ref="60296249"/>
    <nd ref="281824894"/>
    <tag k="created_by" v="Potlatch 0.10b"/>
    <tag k="layer" v="1"/>
    <tag k="railway" v="tram"/>
    <tag k="ref" v="31"/>
  </way>
  <way id="29458604" version="2" timestamp="2009-01-03T17:49:05Z" uid="58091" user="Andreas M" changeset="721411">
    <nd ref="314051514"/>
    <nd ref="60296246"/>
    <nd ref="60296247"/>
    <tag k="created_by" v="Potlatch 0.10b"/>
    <tag k="layer" v="1"/>
    <tag k="railway" v="tram"/>
    <tag k="ref" v="31"/>
  </way>
  <way id="29458604" version="3" timestamp="2010-04-18T20:01:08Z" uid="129531" user="almich" changeset="4462273">
    <nd ref="314051514"/>
    <nd ref="60296246"/>
    <nd ref="60296247"/>
    <tag k="gauge" v="1435"/>
    <tag k="layer" v="1"/>
    <tag k="railway" v="tram"/>
    <tag k="ref" v="31"/>
  </way>
  <way id="29458604" version="4" timestamp="2010-04-18T20:25:53Z" uid="129531" user="almich" changeset="4462598">
    <nd ref="314051514"/>
    <nd ref="60296246"/>
    <nd ref="60296247"/>
    <tag k="electrified" v="contact_line"/>
    <tag k="frequency" v="0"/>
    <tag k="gauge" v="1435"/>
    <tag k="layer" v="1"/>
    <tag k="railway" v="tram"/>
    <tag k="ref" v="31"/>
  </way>
  <way id="29458604" version="5" timestamp="2011-02-21T10:39:52Z" uid="321862" user="DanX" changeset="7352246">
    <nd ref="314051514"/>
    <nd ref="60296246"/>
    <nd ref="60296247"/>
    <tag k="electrified" v="contact_line"/>
    <tag k="frequency" v="0"/>
    <tag k="gauge" v="1435"/>
    <tag k="layer" v="1"/>
    <tag k="name" v="31"/>
    <tag k="railway" v="tram"/>
    <tag k="ref" v="31"/>
  </way>
  <way id="29458604" version="6" timestamp="2011-03-17T01:19:33Z" uid="232372" user="wosm20" changeset="7581414">
    <nd ref="314051514"/>
    <nd ref="1205085800"/>
    <nd ref="60296246"/>
    <nd ref="60296247"/>
    <tag k="electrified" v="contact_line"/>
    <tag k="frequency" v="0"/>
    <tag k="gauge" v="1435"/>
    <tag k="layer" v="1"/>
    <tag k="name" v="31"/>
    <tag k="railway" v="tram"/>
    <tag k="ref" v="31"/>
  </way>
  <way id="29458604" version="7" timestamp="2011-11-08T00:47:45Z" uid="129531" user="almich" changeset="9770160">
    <nd ref="314051514"/>
    <nd ref="1205085800"/>
    <nd ref="60296246"/>
    <nd ref="60296247"/>
    <tag k="electrified" v="contact_line"/>
    <tag k="frequency" v="0"/>
    <tag k="gauge" v="1435"/>
    <tag k="layer" v="1"/>
    <tag k="name" v="31"/>
    <tag k="railway" v="tram"/>
    <tag k="ref" v="31"/>
    <tag k="voltage" v="600"/>
  </way>
  <way id="29458604" version="8" timestamp="2012-01-20T05:47:01Z" uid="104947" user="My Friend" changeset="10443348"/>
  <way id="29458623" version="1" timestamp="2009-01-02T15:51:22Z" uid="58091" user="Andreas M" changeset="708469">
    <nd ref="69693540"/>
    <nd ref="69693470"/>
    <tag k="bridge" v="yes"/>
    <tag k="created_by" v="Potlatch 0.10e"/>
    <tag k="layer" v="1"/>
    <tag k="name" v="5,33"/>
    <tag k="railway" v="tram"/>
  </way>
  <way id="29458623" version="2" timestamp="2010-01-31T18:59:02Z" uid="58091" user="Andreas M" changeset="3762200"/>
  <way id="29458624" version="1" timestamp="2009-01-02T15:51:23Z" uid="58091" user="Andreas M" changeset="708469">
    <nd ref="69693470"/>
    <nd ref="123879804"/>
    <nd ref="33301357"/>
    <nd ref="303353298"/>
    <nd ref="303353300"/>
    <nd ref="303353299"/>
    <nd ref="293253367"/>
    <nd ref="303352191"/>
    <nd ref="286684503"/>
    <nd ref="303352140"/>
    <nd ref="303352136"/>
    <nd ref="303352109"/>
    <nd ref="378945"/>
    <nd ref="303352096"/>
    <nd ref="122145923"/>
    <nd ref="378933"/>
    <nd ref="122149069"/>
    <tag k="created_by" v="Potlatch 0.10e"/>
    <tag k="name" v="5,33"/>
    <tag k="railway" v="tram"/>
  </way>
  <way id="29458624" version="2" timestamp="2009-06-02T18:56:58Z" uid="56311" user="Elandrion" changeset="1407301">
    <nd ref="69693470"/>
    <nd ref="123879804"/>
    <nd ref="33301357"/>
    <nd ref="303353298"/>
    <nd ref="303353300"/>
    <nd ref="414965223"/>
    <nd ref="303353299"/>
    <nd ref="293253367"/>
    <nd ref="414965160"/>
    <nd ref="303352191"/>
    <nd ref="286684503"/>
    <nd ref="303352140"/>
    <nd ref="303352136"/>
    <nd ref="303352109"/>
    <nd ref="378945"/>
    <nd ref="303352096"/>
    <nd ref="122145923"/>
    <nd ref="378933"/>
    <nd ref="122149069"/>
    <tag k="name" v="5,33"/>
    <tag k="railway" v="tram"/>
    <tag k="tracks" v="2"/>
  </way>
  <way id="29458624" version="3" timestamp="2010-01-31T18:59:01Z" uid="58091" user="Andreas M" changeset="3762200"/>
  <way id="29458774" version="3" timestamp="2010-06-29T19:10:30Z" uid="74617" user="JohnSmith" changeset="5108182">
    <nd ref="324662111"/>
    <nd ref="324662112"/>
    <nd ref="324662113"/>
    <nd ref="324662114"/>
    <nd ref="324662111"/>
    <tag k="fixme" v="sport=football is ambiguous, see http://wiki.osm.org/wiki/Football for more details"/>
    <tag k="layer" v="1"/>
    <tag k="leisure" v="pitch"/>
    <tag k="sport" v="football"/>
  </way>
  <way id="29458774" version="4" timestamp="2011-12-30T21:07:38Z" uid="592" user="JonS" changeset="10249714">
    <nd ref="324662111"/>
    <nd ref="324662112"/>
    <nd ref="324662113"/>
    <nd ref="324662114"/>
    <nd ref="324662111"/>
    <tag k="layer" v="1"/>
    <tag k="leisure" v="pitch"/>
    <tag k="odbl" v="clean"/>
    <tag k="sport" v="football"/>
  </way>
  <way id="29458854" version="4" timestamp="2009-01-02T22:37:54Z" uid="6975" user="ulfl" changeset="711688">
    <nd ref="324662866"/>
    <nd ref="324662868"/>
    <nd ref="324662869"/>
    <nd ref="324662870"/>
    <nd ref="324662871"/>
    <nd ref="324662872"/>
    <nd ref="324662873"/>
    <nd ref="324662866"/>
    <tag k="amenity" v="parking"/>
  </way>
  <way id="29458600" version="5" timestamp="2012-04-22T10:13:14Z" uid="99800" user="wolfbert" changeset="11382235">
    <nd ref="60296243"/>
    <nd ref="1396617896"/>
    <nd ref="1726317131"/>
    <nd ref="1396617897"/>
    <nd ref="60732835"/>
    <tag k="highway" v="tertiary"/>
    <tag k="maxspeed" v="50"/>
    <tag k="name" v="Marchfeldstraße"/>
  </way>
  <way id="29458600" version="6" timestamp="2012-04-25T17:09:27Z" uid="99800" user="wolfbert" changeset="11417000"/>
</osm>
