<?xml version='1.0' encoding='UTF-8'?>
<osm version="0.6" generator="libosmium/2.20.0">
  <way id="29460011" version="5" timestamp="2011-05-01T21:53:08Z" uid="9581" user="Lobelt" changeset="8026477">
    <nd ref="324676091"/>
    <nd ref="324676093"/>
    <nd ref="324676097"/>
    <nd ref="324675678"/>
    <nd ref="324675679"/>
    <nd ref="324675332"/>
    <nd ref="324675333"/>
    <tag k="highway" v="track"/>
    <tag k="tracktype" v="grade2"/>
  </way>
  <way id="29460840" version="6" timestamp="2010-03-07T10:40:27Z" uid="58091" user="Andreas M" changeset="4059365">
    <nd ref="324540023"/>
    <nd ref="324689237"/>
    <nd ref="324689238"/>
    <nd ref="324689239"/>
    <nd ref="330911575"/>
    <tag k="addr:county" v="AT"/>
    <tag k="fixme" v="check import"/>
    <tag k="highway" v="residential"/>
    <tag k="is_in:city" v="Falkenstein"/>
    <tag k="name" v="Uteln"/>
    <tag k="note" v="imported from plan.at; (C)=CC-by-sa or oDBL; feel free to change if necessary"/>
    <tag k="plan_at:acad_id" v="mi178"/>
    <tag k="postal_code" v="2162"/>
    <tag k="source" v="plan.at 2009"/>
    <tag k="uploaded_by" v="Wolfgang W. Wasserburger"/>
  </way>
  <way id="29460840" version="7" timestamp="2011-01-07T21:44:21Z" uid="53306" user="Wolfgang B" changeset="6897910">
    <nd ref="324540023"/>
    <nd ref="1089290184"/>
    <nd ref="324689237"/>
    <nd ref="324689238"/>
    <nd ref="324689239"/>
    <nd ref="330911575"/>
    <tag k="addr:county" v="AT"/>
    <tag k="fixme" v="check import"/>
    <tag k="highway" v="residential"/>
    <tag k="is_in:city" v="Falkenstein"/>
    <tag k="name" v="Uteln"/>
    <tag k="note" v="imported from plan.at; (C)=CC-by-sa or oDBL; feel free to change if necessary"/>
    <tag k="plan_at:acad_id" v="mi178"/>
    <tag k="postal_code" v="2162"/>
    <tag k="source" v="plan.at 2009"/>
    <tag k="uploaded_by" v="Wolfgang W. Wasserburger"/>
  </way>
  <way id="29460840" version="8" timestamp="2011-02-19T15:01:15Z" uid="74896" user="tevake" changeset="7332681">
    <nd ref="324540023"/>
    <nd ref="1089290184"/>
    <nd ref="324689237"/>
    <nd ref="324689239"/>
    <nd ref="330911575"/>
    <tag k="addr:county" v="AT"/>
    <tag k="fixme" v="check import"/>
    <tag k="highway" v="residential"/>
    <tag k="is_in:city" v="Falkenstein"/>
    <tag k="name" v="Uteln"/>
    <tag k="note" v="imported from plan.at; (C)=CC-by-sa or oDBL; feel free to change if necessary"/>
    <tag k="plan_at:acad_id" v="mi178"/>
    <tag k="postal_code" v="2162"/>
    <tag k="source" v="plan.at 2009"/>
    <tag k="uploaded_by" v="Wolfgang W. Wasserburger"/>
  </way>
  <way id="29460840" version="9" timestamp="2011-07-24T11:47:21Z" uid="491845" user="data_at" changeset="8814808">
    <nd ref="324540023"/>
    <nd ref="1089290184"/>
    <nd ref="324689237"/>
    <nd ref="324689239"/>
    <nd ref="330911575"/>
    <tag k="fixme" v="check import"/>
    <tag k="highway" v="residential"/>
    <tag k="is_in:city" v="Falkenstein"/>
    <tag k="name" v="Uteln"/>
    <tag k="postal_code" v="2162"/>
    <tag k="source" v="plan.at 2009"/>
  </way>
  <way id="29460840" version="10" timestamp="2011-10-20T14:30:55Z" uid="53306" user="Wolfgang B" changeset="9609174">
    <nd ref="324540023"/>
    <nd ref="1474220663"/>
    <nd ref="1089290184"/>
    <nd ref="1474220651"/>
    <nd ref="324689237"/>
    <nd ref="324689239"/>
    <nd ref="1474220648"/>
    <nd ref="1474220647"/>
    <tag k="highway" v="residential"/>
    <tag k="name" v="Uteln"/>
  </way>
  <way id="29460840" version="11" timestamp="2012-07-16T20:45:14Z" uid="722137" user="OSMF Redaction Account" changeset="12251551">
    <nd ref="324540023"/>
    <nd ref="1474220663"/>
    <nd ref="1089290184"/>
    <nd ref="1474220651"/>
    <nd ref="324689237"/>
    <nd ref="324689239"/>
    <nd ref="1474220648"/>
    <nd ref="1474220647"/>
    <tag k="addr:city" v="Falkenstein"/>
    <tag k="addr:postcode" v="2162"/>
    <tag k="addr:street" v="Uteln"/>
    <tag k="highway" v="residential"/>
  </way>
</osm>
