<?xml version='1.0' encoding='UTF-8'?>
<osm version="0.6" generator="libosmium/2.20.0">
  <way id="29615256" version="2" timestamp="2009-10-03T14:21:07Z" uid="179968" user="Ich_hasse_doitsche_OSM-Korinthenkacker" changeset="2724403">
    <nd ref="326176254"/>
    <nd ref="326176265"/>
    <tag k="highway" v="residential"/>
    <tag k="name" v="Radvanstraße"/>
  </way>
  <way id="29615256" version="3" timestamp="2010-07-24T16:30:11Z" uid="67020" user="Nibbler" changeset="5305288">
    <nd ref="326176254"/>
    <nd ref="831504176"/>
    <nd ref="326176265"/>
    <tag k="highway" v="residential"/>
    <tag k="name" v="Radvanstraße"/>
  </way>
  <way id="29615473" version="2" timestamp="2009-12-09T16:09:45Z" uid="200463" user="harmagedon" changeset="3334003">
    <nd ref="326177042"/>
    <nd ref="326177067"/>
    <tag k="bridge" v="yes"/>
    <tag k="highway" v="primary"/>
    <tag k="int_ref" v="E 53"/>
    <tag k="layer" v="1"/>
    <tag k="ref" v="27"/>
    <tag k="ref:bridge" v="27-110"/>
  </way>
</osm>
