<?xml version='1.0' encoding='UTF-8'?>
<osm version="0.6" generator="libosmium/2.20.0">
  <way id="29629234" version="1" timestamp="2009-01-04T23:34:49Z" uid="30201" user="rrankin" changeset="734641">
    <nd ref="326234640"/>
    <nd ref="326234647"/>
    <tag k="highway" v="residential"/>
    <tag k="name" v="Scott Avenue"/>
  </way>
  <way id="29629239" version="1" timestamp="2009-01-04T23:34:50Z" uid="30201" user="rrankin" changeset="734641">
    <nd ref="326234656"/>
    <nd ref="326234661"/>
    <tag k="highway" v="residential"/>
    <tag k="name" v="Kaylene Crescent"/>
  </way>
  <way id="29629243" version="1" timestamp="2009-01-04T23:34:51Z" uid="30201" user="rrankin" changeset="734641">
    <nd ref="325674100"/>
    <nd ref="326234673"/>
    <nd ref="326234687"/>
    <tag k="highway" v="unclassified"/>
    <tag k="name" v="Mill Road"/>
    <tag k="source" v="landsat"/>
    <tag k="source:name" v="survey"/>
  </way>
  <way id="29629507" version="3" timestamp="2010-04-03T13:44:02Z" uid="20587" user="balrog-kun" changeset="4312927">
    <nd ref="82921716"/>
    <nd ref="82926566"/>
    <nd ref="82931715"/>
    <nd ref="425483323"/>
    <nd ref="326233825"/>
    <nd ref="82918233"/>
    <nd ref="82931717"/>
    <nd ref="82925537"/>
    <nd ref="82910699"/>
    <nd ref="425483333"/>
    <nd ref="82931719"/>
    <nd ref="425483348"/>
    <nd ref="82922384"/>
    <tag k="created_by" v="Potlatch 0.10f"/>
    <tag k="highway" v="residential"/>
    <tag k="name" v="Boulevard"/>
    <tag k="name_1" v="Canyon Boulevard"/>
    <tag k="tiger:cfcc" v="A41"/>
    <tag k="tiger:county" v="Cache, UT"/>
    <tag k="tiger:name_base" v="Boulevard"/>
    <tag k="tiger:name_base_1" v="Canyon"/>
    <tag k="tiger:name_type_1" v="Blvd"/>
    <tag k="tiger:reviewed" v="no"/>
    <tag k="tiger:separated" v="no"/>
    <tag k="tiger:source" v="tiger_import_dch_v0.6_20070830"/>
    <tag k="tiger:tlid" v="155093982:155094028:155094040:155094074:155094107:155095008:155094069:155093995"/>
    <tag k="tiger:zip_left" v="84321"/>
    <tag k="tiger:zip_right" v="84321"/>
  </way>
  <way id="29629733" version="3" timestamp="2010-04-03T13:44:02Z" uid="20587" user="balrog-kun" changeset="4312927">
    <nd ref="82931713"/>
    <nd ref="82921716"/>
    <tag k="created_by" v="Potlatch 0.10f"/>
    <tag k="highway" v="residential"/>
    <tag k="name" v="Boulevard"/>
    <tag k="name_1" v="Canyon Boulevard"/>
    <tag k="oneway" v="yes"/>
    <tag k="tiger:cfcc" v="A41"/>
    <tag k="tiger:county" v="Cache, UT"/>
    <tag k="tiger:name_base" v="Boulevard"/>
    <tag k="tiger:name_base_1" v="Canyon"/>
    <tag k="tiger:name_type_1" v="Blvd"/>
    <tag k="tiger:reviewed" v="no"/>
    <tag k="tiger:separated" v="no"/>
    <tag k="tiger:source" v="tiger_import_dch_v0.6_20070830"/>
    <tag k="tiger:tlid" v="155093982:155094028:155094040:155094074:155094107:155095008:155094069:155093995"/>
    <tag k="tiger:zip_left" v="84321"/>
    <tag k="tiger:zip_right" v="84321"/>
  </way>
  <way id="29629811" version="3" timestamp="2009-03-08T15:12:35Z" uid="6975" user="ulfl" changeset="757880">
    <nd ref="326189617"/>
    <nd ref="326210165"/>
    <nd ref="326181826"/>
    <nd ref="326200440"/>
    <nd ref="326215012"/>
    <nd ref="326226076"/>
    <nd ref="326203544"/>
    <nd ref="326218604"/>
    <nd ref="326189617"/>
    <tag k="addr:housenumber" v="483"/>
    <tag k="addr:street" v="Somerville Ave"/>
    <tag k="area" v="yes"/>
    <tag k="building" v="yes"/>
    <tag k="name" v="Detroit Auto Center"/>
    <tag k="shop" v="car_repair"/>
    <tag k="source" v="MassGIS Buildings (http://www.mass.gov/mgis/lidarbuildingfp2d.htm)"/>
  </way>
  <way id="29629234" version="2" timestamp="2012-07-18T13:55:43Z" uid="67896" user="mrpulley" changeset="12283852"/>
  <way id="29629239" version="2" timestamp="2012-07-18T13:55:43Z" uid="67896" user="mrpulley" changeset="12283852"/>
  <way id="29629243" version="2" timestamp="2012-07-18T13:55:05Z" uid="67896" user="mrpulley" changeset="12283852">
    <nd ref="1829744952"/>
    <nd ref="326234673"/>
    <nd ref="326234687"/>
    <tag k="highway" v="unclassified"/>
    <tag k="name" v="Mill Road"/>
    <tag k="source" v="landsat"/>
    <tag k="source:name" v="survey"/>
  </way>
  <way id="29629243" version="3" timestamp="2012-07-19T12:52:25Z" uid="722137" user="OSMF Redaction Account" changeset="12327015"/>
</osm>
