<?xml version='1.0' encoding='UTF-8'?>
<osm version="0.6" generator="libosmium/2.20.0">
  <way id="29643366" version="7" timestamp="2009-08-09T15:38:14Z" uid="143719" user="DarkoS" changeset="2087189">
    <nd ref="20840528"/>
    <nd ref="341458667"/>
    <nd ref="320534932"/>
    <nd ref="320534983"/>
    <nd ref="20840691"/>
    <nd ref="360053839"/>
    <nd ref="21775134"/>
    <nd ref="20969277"/>
    <nd ref="20969524"/>
    <nd ref="27125846"/>
    <nd ref="21775273"/>
    <nd ref="25929931"/>
    <nd ref="20968481"/>
    <nd ref="20840367"/>
    <tag k="complete" v="no"/>
    <tag k="highway" v="residential"/>
    <tag k="name" v="Ivane Brlić Mažuranić"/>
  </way>
  <way id="29643366" version="8" timestamp="2009-08-09T21:11:02Z" uid="143719" user="DarkoS" changeset="2091178">
    <nd ref="20840528"/>
    <nd ref="341458667"/>
    <nd ref="320534932"/>
    <nd ref="320534983"/>
    <nd ref="20840691"/>
    <nd ref="360053839"/>
    <nd ref="21775134"/>
    <nd ref="20969277"/>
    <nd ref="20969524"/>
    <nd ref="27125846"/>
    <nd ref="21775273"/>
    <nd ref="25929931"/>
    <nd ref="20968481"/>
    <nd ref="20840367"/>
    <tag k="highway" v="tertiary"/>
    <tag k="name" v="Ivane Brlić Mažuranić"/>
  </way>
  <way id="29643366" version="9" timestamp="2009-11-11T14:54:00Z" uid="94569" user="breakpoint" changeset="3090664">
    <nd ref="20840528"/>
    <nd ref="341458667"/>
    <nd ref="320534932"/>
    <nd ref="320534983"/>
    <nd ref="20840691"/>
    <nd ref="21775134"/>
    <nd ref="20969277"/>
    <nd ref="20969524"/>
    <nd ref="27125846"/>
    <nd ref="21775273"/>
    <nd ref="25929931"/>
    <nd ref="20968481"/>
    <nd ref="20840367"/>
    <tag k="highway" v="tertiary"/>
    <tag k="name" v="Ivane Brlić Mažuranić"/>
  </way>
  <way id="29643366" version="10" timestamp="2009-11-18T23:17:31Z" uid="52552" user="Matija Nalis" changeset="3154594">
    <nd ref="20840528"/>
    <nd ref="341458667"/>
    <nd ref="320534932"/>
    <nd ref="320534983"/>
    <nd ref="20840691"/>
    <nd ref="360053839"/>
    <nd ref="21775134"/>
    <nd ref="20969277"/>
    <nd ref="20969524"/>
    <nd ref="27125846"/>
    <nd ref="21775273"/>
    <nd ref="25929931"/>
    <nd ref="20968481"/>
    <nd ref="20840367"/>
    <tag k="highway" v="tertiary"/>
    <tag k="name" v="Ivane Brlić Mažuranić"/>
  </way>
  <way id="29643366" version="11" timestamp="2010-11-27T00:36:02Z" uid="244754" user="Janjko" changeset="6466420">
    <nd ref="20840528"/>
    <nd ref="341458667"/>
    <nd ref="320534932"/>
    <nd ref="320534983"/>
    <nd ref="20840691"/>
    <nd ref="360053839"/>
    <nd ref="21775134"/>
    <nd ref="20969277"/>
    <nd ref="20969524"/>
    <nd ref="27125846"/>
    <nd ref="21775273"/>
    <nd ref="25929931"/>
    <nd ref="20968481"/>
    <nd ref="20840367"/>
    <tag k="highway" v="tertiary"/>
    <tag k="name" v="Ivane Brlić Mažuranić"/>
    <tag k="ref" v="10029"/>
  </way>
  <way id="29643366" version="12" timestamp="2011-05-23T20:19:34Z" uid="244754" user="Janjko" changeset="8229710">
    <nd ref="20840528"/>
    <nd ref="341458667"/>
    <nd ref="320534932"/>
    <nd ref="320534983"/>
    <nd ref="20840691"/>
    <tag k="highway" v="tertiary"/>
    <tag k="name" v="Ivane Brlić Mažuranić"/>
    <tag k="ref" v="10029"/>
  </way>
  <way id="29643366" version="13" timestamp="2011-06-21T15:01:54Z" uid="244754" user="Janjko" changeset="8505432">
    <nd ref="20840528"/>
    <nd ref="341458667"/>
    <nd ref="320534932"/>
    <nd ref="20840691"/>
    <tag k="highway" v="tertiary"/>
    <tag k="name" v="Ivane Brlić Mažuranić"/>
    <tag k="ref" v="10029"/>
  </way>
  <way id="29643366" version="14" timestamp="2011-06-21T15:04:56Z" uid="244754" user="Janjko" changeset="8505457">
    <nd ref="20840528"/>
    <nd ref="341458667"/>
    <nd ref="320534932"/>
    <nd ref="1333686236"/>
    <nd ref="20840691"/>
    <tag k="highway" v="tertiary"/>
    <tag k="name" v="Ivane Brlić Mažuranić"/>
    <tag k="ref" v="10029"/>
  </way>
  <way id="29643366" version="15" timestamp="2011-06-21T15:07:18Z" uid="244754" user="Janjko" changeset="8505481">
    <nd ref="20840528"/>
    <nd ref="1333687274"/>
    <nd ref="341458667"/>
    <nd ref="320534932"/>
    <nd ref="1333686236"/>
    <nd ref="20840691"/>
    <tag k="highway" v="tertiary"/>
    <tag k="name" v="Ivane Brlić Mažuranić"/>
    <tag k="ref" v="10029"/>
  </way>
  <way id="29643366" version="16" timestamp="2011-12-30T13:12:49Z" uid="176920" user="SilverSpace" changeset="10245042"/>
  <way id="29643370" version="2" timestamp="2009-08-09T21:11:02Z" uid="143719" user="DarkoS" changeset="2091178">
    <nd ref="326268280"/>
    <nd ref="20840528"/>
    <tag k="bridge" v="yes"/>
    <tag k="highway" v="residential"/>
    <tag k="layer" v="1"/>
  </way>
  <way id="29643370" version="3" timestamp="2010-09-30T14:53:19Z" uid="244754" user="Janjko" changeset="5920657">
    <nd ref="326268280"/>
    <nd ref="20840528"/>
    <tag k="bridge" v="yes"/>
    <tag k="highway" v="tertiary"/>
    <tag k="layer" v="1"/>
  </way>
  <way id="29643370" version="4" timestamp="2010-11-27T00:36:24Z" uid="244754" user="Janjko" changeset="6466420">
    <nd ref="326268280"/>
    <nd ref="20840528"/>
    <tag k="bridge" v="yes"/>
    <tag k="highway" v="tertiary"/>
    <tag k="layer" v="1"/>
    <tag k="ref" v="10029"/>
  </way>
  <way id="29643370" version="5" timestamp="2011-12-30T13:12:53Z" uid="176920" user="SilverSpace" changeset="10245042"/>
  <way id="29643622" version="2" timestamp="2009-12-09T16:12:02Z" uid="200463" user="harmagedon" changeset="3334003">
    <nd ref="75081735"/>
    <nd ref="75071611"/>
    <nd ref="282374241"/>
    <tag k="bicycle" v="yes"/>
    <tag k="highway" v="unclassified"/>
    <tag k="motorcar" v="no"/>
    <tag k="motorcycle" v="no"/>
    <tag k="psv" v="yes"/>
  </way>
  <way id="29643625" version="3" timestamp="2009-12-09T16:12:05Z" uid="200463" user="harmagedon" changeset="3334003">
    <nd ref="282374247"/>
    <nd ref="152231545"/>
    <tag k="highway" v="secondary"/>
    <tag k="source" v="HELP SERVICE - REMOTE SENSING spol. s r.o. http://www.bnhelp.cz"/>
  </way>
  <way id="29643676" version="1" timestamp="2009-01-05T00:59:17Z" uid="30201" user="rrankin" changeset="734641">
    <nd ref="326150941"/>
    <nd ref="325681487"/>
    <nd ref="326150960"/>
    <nd ref="326150975"/>
    <nd ref="326150991"/>
    <tag k="highway" v="residential"/>
    <tag k="name" v="Homer Street"/>
    <tag k="source" v="survey"/>
  </way>
  <way id="29643676" version="2" timestamp="2010-01-30T13:12:17Z" uid="67896" user="mrpulley" changeset="3749568">
    <nd ref="326150941"/>
    <nd ref="623068798"/>
    <nd ref="325681487"/>
    <nd ref="326150960"/>
    <nd ref="326150975"/>
    <nd ref="326150991"/>
    <tag k="highway" v="residential"/>
    <tag k="name" v="Homer Street"/>
    <tag k="source" v="survey"/>
  </way>
  <way id="29643622" version="3" timestamp="2012-06-08T00:01:27Z" uid="695417" user="borovak001" changeset="11831043">
    <nd ref="75081735"/>
    <nd ref="75071611"/>
    <nd ref="282374241"/>
    <tag k="bicycle" v="yes"/>
    <tag k="highway" v="tertiary_link"/>
    <tag k="motorcar" v="no"/>
    <tag k="motorcycle" v="no"/>
    <tag k="psv" v="yes"/>
    <tag k="ref" v="169"/>
  </way>
  <way id="29643676" version="3" timestamp="2012-07-18T13:55:40Z" uid="67896" user="mrpulley" changeset="12283852"/>
</osm>
