<?xml version='1.0' encoding='UTF-8'?>
<osm version="0.6" generator="libosmium/2.20.0">
  <way id="29697710" version="17" timestamp="2010-03-18T05:01:25Z" uid="74617" user="JohnSmith" changeset="4158637">
    <nd ref="255337526"/>
    <nd ref="330758064"/>
    <nd ref="255337525"/>
    <nd ref="255337524"/>
    <nd ref="255337523"/>
    <nd ref="255337522"/>
    <nd ref="255337520"/>
    <nd ref="255337518"/>
    <nd ref="255337517"/>
    <nd ref="255337516"/>
    <nd ref="329638845"/>
    <nd ref="330346253"/>
    <nd ref="330345963"/>
    <nd ref="255337515"/>
    <nd ref="255337514"/>
    <nd ref="255367907"/>
    <tag k="highway" v="secondary"/>
    <tag k="maxspeed" v="60"/>
    <tag k="name" v="David Street"/>
    <tag k="source" v="survey"/>
  </way>
  <way id="29697710" version="18" timestamp="2010-03-18T15:50:40Z" uid="74617" user="JohnSmith" changeset="4162330">
    <nd ref="668947369"/>
    <nd ref="668947371"/>
    <nd ref="668947370"/>
    <nd ref="668947368"/>
    <nd ref="668947367"/>
    <nd ref="255337526"/>
    <tag k="highway" v="secondary"/>
    <tag k="maxspeed" v="60"/>
    <tag k="name" v="David Street"/>
    <tag k="oneway" v="yes"/>
    <tag k="source" v="survey"/>
  </way>
  <way id="29697769" version="3" timestamp="2010-03-18T05:01:19Z" uid="74617" user="JohnSmith" changeset="4158637">
    <nd ref="326985740"/>
    <nd ref="326986689"/>
    <tag k="highway" v="tertiary"/>
    <tag k="name" v="Clarke Street"/>
  </way>
  <way id="29697769" version="4" timestamp="2010-03-19T10:24:02Z" uid="18775" user="drlizau" changeset="4168743">
    <nd ref="326985740"/>
    <nd ref="326986689"/>
    <tag k="highway" v="residential"/>
    <tag k="name" v="Clarke Street"/>
  </way>
  <way id="29697769" version="5" timestamp="2010-07-07T07:51:52Z" uid="74617" user="JohnSmith" changeset="5156250">
    <nd ref="326985740"/>
    <nd ref="326986689"/>
    <tag k="highway" v="residential"/>
    <tag k="maxspeed" v="50"/>
    <tag k="maxspeed:source" v="default residential speed limit in Australia"/>
    <tag k="name" v="Clarke Street"/>
  </way>
  <way id="29697769" version="6" timestamp="2012-01-18T02:12:06Z" uid="147510" user="woodpeck_fixbot" changeset="10423581">
    <nd ref="326985740"/>
    <nd ref="326986689"/>
    <tag k="highway" v="residential"/>
    <tag k="name" v="Clarke Street"/>
  </way>
  <way id="29697710" version="19" timestamp="2012-07-19T06:19:31Z" uid="722137" user="OSMF Redaction Account" changeset="12310198"/>
  <way id="29697769" version="7" timestamp="2012-07-19T06:17:37Z" uid="722137" user="OSMF Redaction Account" changeset="12310131">
    <nd ref="326985740"/>
    <nd ref="326986689"/>
    <tag k="highway" v="tertiary"/>
    <tag k="name" v="Clarke Street"/>
  </way>
</osm>
