<?xml version='1.0' encoding='UTF-8'?>
<osm version="0.6" generator="libosmium/2.20.0">
  <way id="29729186" version="2" timestamp="2009-01-13T22:26:22Z" uid="4667" user="MapZ" changeset="783285">
    <nd ref="327489002"/>
    <nd ref="327489023"/>
    <nd ref="331946591"/>
    <nd ref="331946592"/>
    <tag k="highway" v="residential"/>
    <tag k="name" v="Esdrada Dr. Agostinho Cardoso"/>
    <tag k="note" v="FIXME: incomplete"/>
    <tag k="surface" v="paved"/>
  </way>
  <way id="29729186" version="3" timestamp="2010-01-08T18:57:17Z" uid="33705" user="hermann_sl" changeset="3572575">
    <nd ref="327489002"/>
    <nd ref="331946591"/>
    <nd ref="331946592"/>
    <tag k="highway" v="residential"/>
    <tag k="name" v="Esdrada Dr. Agostinho Cardoso"/>
    <tag k="note" v="FIXME: incomplete"/>
    <tag k="surface" v="paved"/>
  </way>
  <way id="29729186" version="4" timestamp="2011-11-17T14:42:48Z" uid="539744" user="solana" changeset="9854503"/>
  <way id="29729269" version="2" timestamp="2009-02-01T20:15:04Z" uid="6975" user="ulfl" changeset="27333">
    <nd ref="327489718"/>
    <nd ref="327480519"/>
    <tag k="highway" v="unclassified"/>
    <tag k="name" v="Pierwszego Maja"/>
  </way>
  <way id="29729269" version="3" timestamp="2009-03-13T16:32:39Z" uid="98361" user="Paul167" changeset="803279">
    <nd ref="327489718"/>
    <nd ref="327480519"/>
    <tag k="highway" v="unclassified"/>
    <tag k="name" v="1 Maja"/>
  </way>
  <way id="29729269" version="4" timestamp="2009-08-27T11:55:02Z" uid="98361" user="Paul167" changeset="2277153">
    <nd ref="327489718"/>
    <nd ref="475023632"/>
    <nd ref="327480519"/>
    <tag k="highway" v="unclassified"/>
    <tag k="name" v="1 Maja"/>
  </way>
  <way id="29729269" version="5" timestamp="2009-09-24T17:33:35Z" uid="157655" user="sep" changeset="2608152">
    <nd ref="327489718"/>
    <nd ref="475023632"/>
    <nd ref="506735672"/>
    <nd ref="327480519"/>
    <tag k="highway" v="unclassified"/>
    <tag k="name" v="1 Maja"/>
  </way>
  <way id="29729269" version="6" timestamp="2010-02-27T18:45:04Z" uid="91056" user="Yarl" changeset="3991340">
    <nd ref="327489718"/>
    <nd ref="475023632"/>
    <nd ref="506735672"/>
    <nd ref="327480519"/>
    <tag k="highway" v="unclassified"/>
    <tag k="is_in:city" v="Katowice"/>
    <tag k="is_in:country" v="Poland"/>
    <tag k="name" v="1 Maja"/>
  </way>
</osm>
