<?xml version='1.0' encoding='UTF-8'?>
<osm version="0.6" generator="libosmium/2.20.0">
  <way id="29752400" version="12" timestamp="2010-11-23T20:27:10Z" uid="43967" user="railsnail" changeset="6442255">
    <nd ref="327718459"/>
    <nd ref="1001301581"/>
    <nd ref="924271232"/>
    <tag k="addr:postcode" v="8043"/>
    <tag k="admin_level" v="9"/>
    <tag k="at:maxspeed" v="Ortsgebiet"/>
    <tag k="boundary" v="administrative"/>
    <tag k="highway" v="path"/>
    <tag k="is_in" v="Graz,Graz,Steiermark,Österreich,Europe"/>
    <tag k="name" v="Plattensteig"/>
    <tag k="note" v="imported from plan.at; (C)=CC-by-sa or oDBL; feel free to change if necessary"/>
    <tag k="plan_at:acad_id" v="g#3F69"/>
    <tag k="source" v="plan.at 2009"/>
    <tag k="uploaded_by" v="Wolfgang W. Wasserburger"/>
  </way>
  <way id="29752400" version="13" timestamp="2011-06-30T09:51:19Z" uid="115612" user="tyr_asd" changeset="8588785">
    <nd ref="327718459"/>
    <nd ref="1001301581"/>
    <tag k="addr:postcode" v="8043"/>
    <tag k="admin_level" v="9"/>
    <tag k="at:maxspeed" v="Ortsgebiet"/>
    <tag k="boundary" v="administrative"/>
    <tag k="is_in" v="Graz,Graz,Steiermark,Österreich,Europe"/>
    <tag k="name" v="Plattensteig"/>
    <tag k="note" v="imported from plan.at; (C)=CC-by-sa or oDBL; feel free to change if necessary"/>
    <tag k="plan_at:acad_id" v="g#3F69"/>
    <tag k="source" v="plan.at 2009"/>
    <tag k="uploaded_by" v="Wolfgang W. Wasserburger"/>
  </way>
  <way id="29752400" version="14" timestamp="2011-07-16T21:21:22Z" uid="99800" user="wolfbert" changeset="8743171">
    <nd ref="327718459"/>
    <nd ref="1001301581"/>
    <tag k="addr:postcode" v="8043"/>
    <tag k="admin_level" v="9"/>
    <tag k="boundary" v="administrative"/>
    <tag k="is_in" v="Graz,Graz,Steiermark,Österreich,Europe"/>
    <tag k="name" v="Plattensteig"/>
    <tag k="note" v="imported from plan.at; (C)=CC-by-sa or oDBL; feel free to change if necessary"/>
    <tag k="plan_at:acad_id" v="g#3F69"/>
    <tag k="source" v="plan.at 2009"/>
    <tag k="uploaded_by" v="Wolfgang W. Wasserburger"/>
  </way>
  <way id="29752400" version="15" timestamp="2011-07-28T14:19:58Z" uid="491845" user="data_at" changeset="8855054">
    <nd ref="327718459"/>
    <nd ref="1001301581"/>
    <tag k="addr:postcode" v="8043"/>
    <tag k="admin_level" v="9"/>
    <tag k="boundary" v="administrative"/>
    <tag k="is_in" v="Graz,Graz,Steiermark,Österreich,Europe"/>
    <tag k="name" v="Plattensteig"/>
    <tag k="source" v="plan.at 2009"/>
  </way>
  <way id="29752401" version="9" timestamp="2010-11-23T20:27:09Z" uid="43967" user="railsnail" changeset="6442255">
    <nd ref="327755960"/>
    <nd ref="1001301556"/>
    <nd ref="1001301564"/>
    <nd ref="1001301570"/>
    <nd ref="457857070"/>
    <nd ref="457857068"/>
    <nd ref="600490641"/>
    <tag k="addr:postcode" v="8043"/>
    <tag k="at:maxspeed" v="Ortsgebiet"/>
    <tag k="highway" v="residential"/>
    <tag k="is_in" v="Graz,Graz,Steiermark,Österreich,Europe"/>
    <tag k="name" v="Plattensteig"/>
    <tag k="note" v="imported from plan.at; (C)=CC-by-sa or oDBL; feel free to change if necessary"/>
    <tag k="plan_at:acad_id" v="g#3F66"/>
    <tag k="source" v="plan.at 2009"/>
    <tag k="uploaded_by" v="Wolfgang W. Wasserburger"/>
  </way>
  <way id="29752401" version="10" timestamp="2010-12-04T15:49:47Z" uid="115612" user="tyr_asd" changeset="6539416">
    <nd ref="327755960"/>
    <nd ref="1020206896"/>
    <nd ref="1001301556"/>
    <nd ref="1001301564"/>
    <nd ref="1020206791"/>
    <nd ref="1001301570"/>
    <nd ref="457857070"/>
    <nd ref="457857068"/>
    <nd ref="600490641"/>
    <tag k="addr:postcode" v="8043"/>
    <tag k="at:maxspeed" v="Ortsgebiet"/>
    <tag k="highway" v="residential"/>
    <tag k="is_in" v="Graz,Graz,Steiermark,Österreich,Europe"/>
    <tag k="name" v="Plattensteig"/>
    <tag k="note" v="imported from plan.at; (C)=CC-by-sa or oDBL; feel free to change if necessary"/>
    <tag k="plan_at:acad_id" v="g#3F66"/>
    <tag k="source" v="plan.at 2009"/>
    <tag k="uploaded_by" v="Wolfgang W. Wasserburger"/>
  </way>
  <way id="29752401" version="11" timestamp="2011-07-26T15:38:45Z" uid="491845" user="data_at" changeset="8836923">
    <nd ref="327755960"/>
    <nd ref="1020206896"/>
    <nd ref="1001301556"/>
    <nd ref="1001301564"/>
    <nd ref="1020206791"/>
    <nd ref="1001301570"/>
    <nd ref="457857070"/>
    <nd ref="457857068"/>
    <nd ref="600490641"/>
    <tag k="highway" v="residential"/>
    <tag k="is_in" v="Graz,Graz,Steiermark,Österreich,Europe"/>
    <tag k="name" v="Plattensteig"/>
    <tag k="source" v="plan.at 2009"/>
  </way>
  <way id="29752401" version="12" timestamp="2011-12-04T10:19:19Z" uid="449374" user="geobene" changeset="10031512">
    <nd ref="327755960"/>
    <nd ref="1020206896"/>
    <nd ref="1001301556"/>
    <nd ref="1001301564"/>
    <nd ref="1020206791"/>
    <nd ref="1001301570"/>
    <nd ref="1530892124"/>
    <nd ref="457857070"/>
    <nd ref="457857068"/>
    <nd ref="600490641"/>
    <tag k="highway" v="residential"/>
    <tag k="is_in" v="Graz,Graz,Steiermark,Österreich,Europe"/>
    <tag k="name" v="Plattensteig"/>
    <tag k="source" v="plan.at 2009"/>
  </way>
  <way id="29752611" version="1" timestamp="2009-01-05T23:54:52Z" uid="30201" user="rrankin" changeset="743034">
    <nd ref="327668940"/>
    <nd ref="26620040"/>
    <nd ref="32082951"/>
    <nd ref="32083059"/>
    <tag k="created_by" v="JOSM"/>
    <tag k="highway" v="residential"/>
    <tag k="name" v="Kingston Street"/>
  </way>
  <way id="29752611" version="2" timestamp="2010-07-07T23:00:14Z" uid="74617" user="JohnSmith" changeset="5162525">
    <nd ref="327668940"/>
    <nd ref="26620040"/>
    <nd ref="32082951"/>
    <nd ref="32083059"/>
    <tag k="highway" v="residential"/>
    <tag k="maxspeed" v="50"/>
    <tag k="maxspeed:source" v="default residential speed limit in Australia"/>
    <tag k="name" v="Kingston Street"/>
  </way>
  <way id="29752611" version="3" timestamp="2012-01-18T02:14:55Z" uid="147510" user="woodpeck_fixbot" changeset="10424025">
    <nd ref="327668940"/>
    <nd ref="26620040"/>
    <nd ref="32082951"/>
    <nd ref="32083059"/>
    <tag k="highway" v="residential"/>
    <tag k="name" v="Kingston Street"/>
  </way>
  <way id="29752614" version="1" timestamp="2009-01-05T23:54:53Z" uid="30201" user="rrankin" changeset="743034">
    <nd ref="327668976"/>
    <nd ref="327757738"/>
    <nd ref="327757749"/>
    <tag k="highway" v="residential"/>
    <tag k="name" v="Cawarra Street"/>
    <tag k="source" v="yahoo"/>
  </way>
  <way id="29752614" version="2" timestamp="2010-07-07T23:02:04Z" uid="74617" user="JohnSmith" changeset="5162525">
    <nd ref="327668976"/>
    <nd ref="327757738"/>
    <nd ref="327757749"/>
    <tag k="highway" v="residential"/>
    <tag k="maxspeed" v="50"/>
    <tag k="maxspeed:source" v="default residential speed limit in Australia"/>
    <tag k="name" v="Cawarra Street"/>
    <tag k="source" v="yahoo"/>
  </way>
  <way id="29752614" version="3" timestamp="2012-01-18T02:14:57Z" uid="147510" user="woodpeck_fixbot" changeset="10424025">
    <nd ref="327668976"/>
    <nd ref="327757738"/>
    <nd ref="327757749"/>
    <tag k="highway" v="residential"/>
    <tag k="name" v="Cawarra Street"/>
    <tag k="source" v="yahoo"/>
  </way>
  <way id="29752616" version="1" timestamp="2009-01-05T23:54:54Z" uid="30201" user="rrankin" changeset="743034">
    <nd ref="327757763"/>
    <nd ref="327757764"/>
    <tag k="highway" v="residential"/>
    <tag k="name" v="Seppelt Street"/>
    <tag k="source" v="yahoo"/>
  </way>
  <way id="29752616" version="2" timestamp="2010-07-07T22:58:52Z" uid="74617" user="JohnSmith" changeset="5162525">
    <nd ref="327757763"/>
    <nd ref="327757764"/>
    <tag k="highway" v="residential"/>
    <tag k="maxspeed" v="50"/>
    <tag k="maxspeed:source" v="default residential speed limit in Australia"/>
    <tag k="name" v="Seppelt Street"/>
    <tag k="source" v="yahoo"/>
  </way>
  <way id="29752616" version="3" timestamp="2012-01-18T02:14:59Z" uid="147510" user="woodpeck_fixbot" changeset="10424025">
    <nd ref="327757763"/>
    <nd ref="327757764"/>
    <tag k="highway" v="residential"/>
    <tag k="name" v="Seppelt Street"/>
    <tag k="source" v="yahoo"/>
  </way>
  <way id="29752617" version="1" timestamp="2009-01-05T23:54:54Z" uid="30201" user="rrankin" changeset="743034">
    <nd ref="327757768"/>
    <nd ref="327757774"/>
    <nd ref="327757812"/>
    <nd ref="327757777"/>
    <nd ref="327757782"/>
    <tag k="highway" v="residential"/>
    <tag k="name" v="Penfold Street"/>
    <tag k="source" v="yahoo"/>
  </way>
  <way id="29752617" version="2" timestamp="2010-07-07T23:01:48Z" uid="74617" user="JohnSmith" changeset="5162525">
    <nd ref="327757768"/>
    <nd ref="327757774"/>
    <nd ref="327757812"/>
    <nd ref="327757777"/>
    <nd ref="327757782"/>
    <tag k="highway" v="residential"/>
    <tag k="maxspeed" v="50"/>
    <tag k="maxspeed:source" v="default residential speed limit in Australia"/>
    <tag k="name" v="Penfold Street"/>
    <tag k="source" v="yahoo"/>
  </way>
  <way id="29752617" version="3" timestamp="2012-01-18T02:15:01Z" uid="147510" user="woodpeck_fixbot" changeset="10424025">
    <nd ref="327757768"/>
    <nd ref="327757774"/>
    <nd ref="327757812"/>
    <nd ref="327757777"/>
    <nd ref="327757782"/>
    <tag k="highway" v="residential"/>
    <tag k="name" v="Penfold Street"/>
    <tag k="source" v="yahoo"/>
  </way>
  <way id="29752619" version="1" timestamp="2009-01-05T23:54:55Z" uid="30201" user="rrankin" changeset="743034">
    <nd ref="234926650"/>
    <nd ref="234926652"/>
    <nd ref="32082953"/>
    <nd ref="32082980"/>
    <nd ref="32082979"/>
    <nd ref="234924450"/>
    <nd ref="32082978"/>
    <nd ref="32082977"/>
    <nd ref="32082976"/>
    <nd ref="234921064"/>
    <nd ref="32082975"/>
    <nd ref="32082974"/>
    <nd ref="32082973"/>
    <nd ref="32082972"/>
    <nd ref="234923646"/>
    <nd ref="32082971"/>
    <tag k="created_by" v="Potlatch 0.6b"/>
    <tag k="highway" v="residential"/>
    <tag k="name" v="Fleurs Street"/>
  </way>
  <way id="29752619" version="2" timestamp="2010-01-12T11:00:40Z" uid="7617" user="Franc" changeset="3602207">
    <nd ref="234926650"/>
    <nd ref="234926652"/>
    <nd ref="612079974"/>
    <tag k="highway" v="residential"/>
    <tag k="name" v="Fleurs Street"/>
  </way>
  <way id="29752619" version="3" timestamp="2010-07-07T23:02:54Z" uid="74617" user="JohnSmith" changeset="5162525">
    <nd ref="234926650"/>
    <nd ref="234926652"/>
    <nd ref="612079974"/>
    <tag k="highway" v="residential"/>
    <tag k="maxspeed" v="50"/>
    <tag k="maxspeed:source" v="default residential speed limit in Australia"/>
    <tag k="name" v="Fleurs Street"/>
  </way>
  <way id="29752619" version="4" timestamp="2011-04-05T14:58:53Z" uid="4467" user="Rosscoe" changeset="7775666">
    <nd ref="234926650"/>
    <nd ref="234926652"/>
    <nd ref="1233665232"/>
    <nd ref="612079974"/>
    <tag k="highway" v="residential"/>
    <tag k="maxspeed" v="50"/>
    <tag k="maxspeed:source" v="default residential speed limit in Australia"/>
    <tag k="name" v="Fleurs Street"/>
  </way>
  <way id="29752619" version="5" timestamp="2012-01-18T02:15:04Z" uid="147510" user="woodpeck_fixbot" changeset="10424025">
    <nd ref="234926650"/>
    <nd ref="234926652"/>
    <nd ref="1233665232"/>
    <nd ref="612079974"/>
    <tag k="highway" v="residential"/>
    <tag k="name" v="Fleurs Street"/>
  </way>
  <way id="29752620" version="1" timestamp="2009-01-05T23:54:56Z" uid="30201" user="rrankin" changeset="743034">
    <nd ref="327757803"/>
    <nd ref="327757812"/>
    <nd ref="327757820"/>
    <tag k="highway" v="residential"/>
    <tag k="name" v="Reynell Street"/>
    <tag k="source" v="yahoo"/>
  </way>
  <way id="29752620" version="2" timestamp="2010-07-07T23:03:49Z" uid="74617" user="JohnSmith" changeset="5162525">
    <nd ref="327757803"/>
    <nd ref="327757812"/>
    <nd ref="327757820"/>
    <tag k="highway" v="residential"/>
    <tag k="maxspeed" v="50"/>
    <tag k="maxspeed:source" v="default residential speed limit in Australia"/>
    <tag k="name" v="Reynell Street"/>
    <tag k="source" v="yahoo"/>
  </way>
  <way id="29752620" version="3" timestamp="2012-01-18T02:15:06Z" uid="147510" user="woodpeck_fixbot" changeset="10424025">
    <nd ref="327757803"/>
    <nd ref="327757812"/>
    <nd ref="327757820"/>
    <tag k="highway" v="residential"/>
    <tag k="name" v="Reynell Street"/>
    <tag k="source" v="yahoo"/>
  </way>
  <way id="29752622" version="1" timestamp="2009-01-05T23:54:57Z" uid="30201" user="rrankin" changeset="743034">
    <nd ref="327757823"/>
    <nd ref="327757827"/>
    <nd ref="327757831"/>
    <tag k="highway" v="residential"/>
    <tag k="name" v="Beggs Road"/>
    <tag k="source" v="yahoo"/>
  </way>
  <way id="29752622" version="2" timestamp="2010-07-07T23:05:07Z" uid="74617" user="JohnSmith" changeset="5162525">
    <nd ref="327757823"/>
    <nd ref="327757827"/>
    <nd ref="327757831"/>
    <tag k="highway" v="residential"/>
    <tag k="maxspeed" v="50"/>
    <tag k="maxspeed:source" v="default residential speed limit in Australia"/>
    <tag k="name" v="Beggs Road"/>
    <tag k="source" v="yahoo"/>
  </way>
  <way id="29752622" version="3" timestamp="2012-01-18T02:15:09Z" uid="147510" user="woodpeck_fixbot" changeset="10424025">
    <nd ref="327757823"/>
    <nd ref="327757827"/>
    <nd ref="327757831"/>
    <tag k="highway" v="residential"/>
    <tag k="name" v="Beggs Road"/>
    <tag k="source" v="yahoo"/>
  </way>
  <way id="29752624" version="1" timestamp="2009-01-05T23:54:58Z" uid="30201" user="rrankin" changeset="743034">
    <nd ref="327757840"/>
    <nd ref="327757856"/>
    <nd ref="327757847"/>
    <nd ref="327757850"/>
    <tag k="highway" v="residential"/>
    <tag k="name" v="St Agnes Avenue"/>
    <tag k="source" v="yahoo"/>
  </way>
  <way id="29752624" version="2" timestamp="2010-07-07T23:05:03Z" uid="74617" user="JohnSmith" changeset="5162525">
    <nd ref="327757840"/>
    <nd ref="327757856"/>
    <nd ref="327757847"/>
    <nd ref="327757850"/>
    <tag k="highway" v="residential"/>
    <tag k="maxspeed" v="50"/>
    <tag k="maxspeed:source" v="default residential speed limit in Australia"/>
    <tag k="name" v="St Agnes Avenue"/>
    <tag k="source" v="yahoo"/>
  </way>
  <way id="29752624" version="3" timestamp="2012-01-18T02:15:11Z" uid="147510" user="woodpeck_fixbot" changeset="10424025">
    <nd ref="327757840"/>
    <nd ref="327757856"/>
    <nd ref="327757847"/>
    <nd ref="327757850"/>
    <tag k="highway" v="residential"/>
    <tag k="name" v="St Agnes Avenue"/>
    <tag k="source" v="yahoo"/>
  </way>
  <way id="29752625" version="1" timestamp="2009-01-05T23:54:58Z" uid="30201" user="rrankin" changeset="743034">
    <nd ref="327757856"/>
    <nd ref="327757863"/>
    <tag k="highway" v="residential"/>
    <tag k="name" v="Doctor Lawson Place"/>
    <tag k="source" v="yahoo"/>
  </way>
  <way id="29752625" version="2" timestamp="2010-07-07T23:00:43Z" uid="74617" user="JohnSmith" changeset="5162525">
    <nd ref="327757856"/>
    <nd ref="327757863"/>
    <tag k="highway" v="residential"/>
    <tag k="maxspeed" v="50"/>
    <tag k="maxspeed:source" v="default residential speed limit in Australia"/>
    <tag k="name" v="Doctor Lawson Place"/>
    <tag k="source" v="yahoo"/>
  </way>
  <way id="29752625" version="3" timestamp="2012-01-18T02:15:15Z" uid="147510" user="woodpeck_fixbot" changeset="10424025">
    <nd ref="327757856"/>
    <nd ref="327757863"/>
    <tag k="highway" v="residential"/>
    <tag k="name" v="Doctor Lawson Place"/>
    <tag k="source" v="yahoo"/>
  </way>
  <way id="29752626" version="1" timestamp="2009-01-05T23:54:59Z" uid="30201" user="rrankin" changeset="743034">
    <nd ref="327757873"/>
    <nd ref="327757886"/>
    <nd ref="327757879"/>
    <tag k="highway" v="residential"/>
    <tag k="name" v="Albert Parade"/>
    <tag k="source" v="yahoo"/>
  </way>
  <way id="29752626" version="2" timestamp="2010-07-07T22:58:48Z" uid="74617" user="JohnSmith" changeset="5162525">
    <nd ref="327757873"/>
    <nd ref="327757886"/>
    <nd ref="327757879"/>
    <tag k="highway" v="residential"/>
    <tag k="maxspeed" v="50"/>
    <tag k="maxspeed:source" v="default residential speed limit in Australia"/>
    <tag k="name" v="Albert Parade"/>
    <tag k="source" v="yahoo"/>
  </way>
  <way id="29752626" version="3" timestamp="2012-01-18T02:15:18Z" uid="147510" user="woodpeck_fixbot" changeset="10424025">
    <nd ref="327757873"/>
    <nd ref="327757886"/>
    <nd ref="327757879"/>
    <tag k="highway" v="residential"/>
    <tag k="name" v="Albert Parade"/>
    <tag k="source" v="yahoo"/>
  </way>
  <way id="29752627" version="1" timestamp="2009-01-05T23:55:00Z" uid="30201" user="rrankin" changeset="743034">
    <nd ref="327757886"/>
    <nd ref="327757906"/>
    <nd ref="327757920"/>
    <nd ref="327757896"/>
    <tag k="highway" v="residential"/>
    <tag k="name" v="Willeroo Avenue"/>
    <tag k="source" v="yahoo"/>
  </way>
  <way id="29752627" version="2" timestamp="2010-07-07T23:01:43Z" uid="74617" user="JohnSmith" changeset="5162525">
    <nd ref="327757886"/>
    <nd ref="327757906"/>
    <nd ref="327757920"/>
    <nd ref="327757896"/>
    <tag k="highway" v="residential"/>
    <tag k="maxspeed" v="50"/>
    <tag k="maxspeed:source" v="default residential speed limit in Australia"/>
    <tag k="name" v="Willeroo Avenue"/>
    <tag k="source" v="yahoo"/>
  </way>
  <way id="29752627" version="3" timestamp="2012-01-18T02:15:22Z" uid="147510" user="woodpeck_fixbot" changeset="10424025">
    <nd ref="327757886"/>
    <nd ref="327757906"/>
    <nd ref="327757920"/>
    <nd ref="327757896"/>
    <tag k="highway" v="residential"/>
    <tag k="name" v="Willeroo Avenue"/>
    <tag k="source" v="yahoo"/>
  </way>
  <way id="29752628" version="1" timestamp="2009-01-05T23:55:01Z" uid="30201" user="rrankin" changeset="743034">
    <nd ref="327757905"/>
    <nd ref="327757906"/>
    <nd ref="327757912"/>
    <tag k="highway" v="residential"/>
    <tag k="name" v="Waratah Street"/>
    <tag k="source" v="yahoo"/>
  </way>
  <way id="29752628" version="2" timestamp="2010-07-07T23:02:34Z" uid="74617" user="JohnSmith" changeset="5162525">
    <nd ref="327757905"/>
    <nd ref="327757906"/>
    <nd ref="327757912"/>
    <tag k="highway" v="residential"/>
    <tag k="maxspeed" v="50"/>
    <tag k="maxspeed:source" v="default residential speed limit in Australia"/>
    <tag k="name" v="Waratah Street"/>
    <tag k="source" v="yahoo"/>
  </way>
  <way id="29752628" version="3" timestamp="2012-01-18T02:15:25Z" uid="147510" user="woodpeck_fixbot" changeset="10424025">
    <nd ref="327757905"/>
    <nd ref="327757906"/>
    <nd ref="327757912"/>
    <tag k="highway" v="residential"/>
    <tag k="name" v="Waratah Street"/>
    <tag k="source" v="yahoo"/>
  </way>
  <way id="29752630" version="1" timestamp="2009-01-05T23:55:01Z" uid="30201" user="rrankin" changeset="743034">
    <nd ref="327757913"/>
    <nd ref="327757920"/>
    <nd ref="327757938"/>
    <tag k="highway" v="residential"/>
    <tag k="name" v="Leighton Street"/>
    <tag k="source" v="yahoo"/>
  </way>
  <way id="29752630" version="2" timestamp="2010-07-07T23:03:47Z" uid="74617" user="JohnSmith" changeset="5162525">
    <nd ref="327757913"/>
    <nd ref="327757920"/>
    <nd ref="327757938"/>
    <tag k="highway" v="residential"/>
    <tag k="maxspeed" v="50"/>
    <tag k="maxspeed:source" v="default residential speed limit in Australia"/>
    <tag k="name" v="Leighton Street"/>
    <tag k="source" v="yahoo"/>
  </way>
  <way id="29752630" version="3" timestamp="2012-01-18T02:15:30Z" uid="147510" user="woodpeck_fixbot" changeset="10424025">
    <nd ref="327757913"/>
    <nd ref="327757920"/>
    <nd ref="327757938"/>
    <tag k="highway" v="residential"/>
    <tag k="name" v="Leighton Street"/>
    <tag k="source" v="yahoo"/>
  </way>
  <way id="29752632" version="1" timestamp="2009-01-05T23:55:02Z" uid="30201" user="rrankin" changeset="743034">
    <nd ref="327757962"/>
    <nd ref="327757976"/>
    <nd ref="327757938"/>
    <nd ref="327757972"/>
    <nd ref="327757975"/>
    <tag k="highway" v="unclassified"/>
    <tag k="name" v="Orcam Lane"/>
    <tag k="source" v="yahoo"/>
  </way>
  <way id="29752634" version="1" timestamp="2009-01-05T23:55:03Z" uid="30201" user="rrankin" changeset="743034">
    <nd ref="327757976"/>
    <nd ref="327757979"/>
    <nd ref="327757986"/>
    <nd ref="327757987"/>
    <tag k="highway" v="service"/>
    <tag k="source" v="yahoo"/>
  </way>
  <way id="29752636" version="1" timestamp="2009-01-05T23:55:04Z" uid="30201" user="rrankin" changeset="743034">
    <nd ref="257893746"/>
    <nd ref="327757988"/>
    <nd ref="327757989"/>
    <nd ref="327758048"/>
    <tag k="highway" v="residential"/>
    <tag k="name" v="Beaconsfield Road"/>
    <tag k="source" v="yahoo"/>
  </way>
  <way id="29752636" version="2" timestamp="2009-01-06T00:27:49Z" uid="30201" user="rrankin" changeset="743034">
    <nd ref="257893746"/>
    <nd ref="327757988"/>
    <nd ref="327773364"/>
    <nd ref="327757989"/>
    <nd ref="327758048"/>
    <tag k="highway" v="residential"/>
    <tag k="name" v="Beaconsfield Road"/>
    <tag k="source" v="yahoo"/>
  </way>
  <way id="29752636" version="3" timestamp="2009-01-30T11:02:17Z" uid="32600" user="markX" changeset="856000">
    <nd ref="257893746"/>
    <nd ref="339089392"/>
    <nd ref="327773364"/>
    <nd ref="339089448"/>
    <nd ref="327757989"/>
    <nd ref="327758048"/>
    <tag k="highway" v="residential"/>
    <tag k="name" v="Beaconsfield Road"/>
    <tag k="source" v="yahoo"/>
  </way>
  <way id="29752636" version="4" timestamp="2010-01-08T23:41:49Z" uid="7617" user="Franc" changeset="3574697">
    <nd ref="609967714"/>
    <nd ref="609967706"/>
    <nd ref="339089392"/>
    <nd ref="327773364"/>
    <nd ref="339089448"/>
    <nd ref="327757989"/>
    <nd ref="327758048"/>
    <tag k="highway" v="residential"/>
    <tag k="name" v="Beaconsfield Road"/>
    <tag k="source" v="nearmap"/>
  </way>
  <way id="29752636" version="5" timestamp="2010-07-07T22:58:14Z" uid="74617" user="JohnSmith" changeset="5162525">
    <nd ref="609967714"/>
    <nd ref="609967706"/>
    <nd ref="339089392"/>
    <nd ref="327773364"/>
    <nd ref="339089448"/>
    <nd ref="327757989"/>
    <nd ref="327758048"/>
    <tag k="highway" v="residential"/>
    <tag k="maxspeed" v="50"/>
    <tag k="maxspeed:source" v="default residential speed limit in Australia"/>
    <tag k="name" v="Beaconsfield Road"/>
    <tag k="source" v="nearmap"/>
  </way>
  <way id="29752636" version="6" timestamp="2012-01-18T02:15:32Z" uid="147510" user="woodpeck_fixbot" changeset="10424025">
    <nd ref="609967714"/>
    <nd ref="609967706"/>
    <nd ref="339089392"/>
    <nd ref="327773364"/>
    <nd ref="339089448"/>
    <nd ref="327757989"/>
    <nd ref="327758048"/>
    <tag k="highway" v="residential"/>
    <tag k="name" v="Beaconsfield Road"/>
    <tag k="source" v="nearmap"/>
  </way>
  <way id="29752924" version="2" timestamp="2010-04-07T13:16:21Z" uid="20587" user="balrog-kun" changeset="4353646">
    <nd ref="224760044"/>
    <nd ref="224760047"/>
    <nd ref="224760051"/>
    <nd ref="224760055"/>
    <nd ref="224760059"/>
    <nd ref="224760064"/>
    <nd ref="224760070"/>
    <nd ref="224733784"/>
    <tag k="created_by" v="Potlatch 0.10f"/>
    <tag k="highway" v="residential"/>
    <tag k="name" v="East Hill Street"/>
    <tag k="tiger:cfcc" v="A41"/>
    <tag k="tiger:county" v="Grimes, TX"/>
    <tag k="tiger:name_base" v="Hill"/>
    <tag k="tiger:name_direction_prefix" v="E"/>
    <tag k="tiger:name_type" v="St"/>
    <tag k="tiger:reviewed" v="no"/>
    <tag k="tiger:separated" v="no"/>
    <tag k="tiger:source" v="tiger_import_dch_v0.6_20070829"/>
    <tag k="tiger:tlid" v="21893988:21893961:21894026:21894068:21894046:21894738:21894085:21894109:21894888:21894552:21894547"/>
    <tag k="tiger:zip_left" v="77868"/>
  </way>
  <way id="29752924" version="3" timestamp="2011-10-09T00:32:59Z" uid="37392" user="25or6to4" changeset="9508067">
    <nd ref="224760044"/>
    <nd ref="224760047"/>
    <nd ref="224760051"/>
    <nd ref="224760055"/>
    <nd ref="224760059"/>
    <nd ref="224760064"/>
    <nd ref="224760070"/>
    <nd ref="1459421807"/>
    <nd ref="224733784"/>
    <tag k="highway" v="residential"/>
    <tag k="name" v="East Hill Street"/>
    <tag k="tiger:cfcc" v="A41"/>
    <tag k="tiger:county" v="Grimes, TX"/>
    <tag k="tiger:name_base" v="Hill"/>
    <tag k="tiger:name_direction_prefix" v="E"/>
    <tag k="tiger:name_type" v="St"/>
    <tag k="tiger:reviewed" v="no"/>
    <tag k="tiger:separated" v="no"/>
    <tag k="tiger:source" v="tiger_import_dch_v0.6_20070829"/>
    <tag k="tiger:tlid" v="21893988:21893961:21894026:21894068:21894046:21894738:21894085:21894109:21894888:21894552:21894547"/>
    <tag k="tiger:zip_left" v="77868"/>
  </way>
  <way id="29752400" version="16" timestamp="2012-06-30T09:31:51Z" uid="9605" user="a_uller" changeset="12063950"/>
  <way id="29752401" version="13" timestamp="2012-07-16T15:51:17Z" uid="722137" user="OSMF Redaction Account" changeset="12247138">
    <nd ref="327755960"/>
    <nd ref="1020206896"/>
    <nd ref="1020206791"/>
    <nd ref="1530892124"/>
    <nd ref="457857070"/>
    <nd ref="457857068"/>
    <nd ref="600490641"/>
    <tag k="highway" v="residential"/>
    <tag k="is_in" v="Graz,Graz,Steiermark,Österreich,Europe"/>
    <tag k="name" v="Plattensteig"/>
    <tag k="source" v="plan.at 2009"/>
  </way>
  <way id="29752611" version="4" timestamp="2012-07-22T05:18:29Z" uid="722137" user="OSMF Redaction Account" changeset="12425738"/>
  <way id="29752614" version="4" timestamp="2012-07-22T05:18:30Z" uid="722137" user="OSMF Redaction Account" changeset="12425738"/>
  <way id="29752616" version="4" timestamp="2012-07-22T05:18:30Z" uid="722137" user="OSMF Redaction Account" changeset="12425738"/>
  <way id="29752617" version="4" timestamp="2012-07-22T05:18:30Z" uid="722137" user="OSMF Redaction Account" changeset="12425738"/>
  <way id="29752619" version="6" timestamp="2012-07-22T05:18:30Z" uid="722137" user="OSMF Redaction Account" changeset="12425738"/>
  <way id="29752620" version="4" timestamp="2012-07-22T05:18:31Z" uid="722137" user="OSMF Redaction Account" changeset="12425738"/>
  <way id="29752622" version="4" timestamp="2012-07-22T05:18:32Z" uid="722137" user="OSMF Redaction Account" changeset="12425738"/>
  <way id="29752624" version="4" timestamp="2012-07-22T05:18:32Z" uid="722137" user="OSMF Redaction Account" changeset="12425738"/>
  <way id="29752625" version="4" timestamp="2012-07-22T05:18:33Z" uid="722137" user="OSMF Redaction Account" changeset="12425738"/>
  <way id="29752626" version="4" timestamp="2012-07-22T05:18:35Z" uid="722137" user="OSMF Redaction Account" changeset="12425738"/>
  <way id="29752627" version="4" timestamp="2012-07-22T05:18:35Z" uid="722137" user="OSMF Redaction Account" changeset="12425738"/>
  <way id="29752628" version="4" timestamp="2012-07-22T05:18:36Z" uid="722137" user="OSMF Redaction Account" changeset="12425738"/>
  <way id="29752630" version="4" timestamp="2012-07-22T05:18:36Z" uid="722137" user="OSMF Redaction Account" changeset="12425738"/>
  <way id="29752632" version="2" timestamp="2012-07-22T05:18:35Z" uid="722137" user="OSMF Redaction Account" changeset="12425738"/>
  <way id="29752634" version="2" timestamp="2012-07-22T05:18:35Z" uid="722137" user="OSMF Redaction Account" changeset="12425738"/>
  <way id="29752636" version="7" timestamp="2012-07-22T05:16:16Z" uid="722137" user="OSMF Redaction Account" changeset="12425716">
    <nd ref="339089392"/>
    <nd ref="339089448"/>
  </way>
  <way id="29752636" version="8" timestamp="2012-08-03T21:36:15Z" uid="510836" user="Rub21" changeset="12603361">
    <nd ref="339089392"/>
    <nd ref="1850633935"/>
    <nd ref="339089448"/>
  </way>
  <way id="29752636" version="9" timestamp="2012-08-20T14:01:19Z" uid="751139" user="Hampsterman" changeset="12796476">
    <nd ref="339089392"/>
    <nd ref="1850633935"/>
    <nd ref="339089448"/>
    <tag k="highway" v="residential"/>
  </way>
</osm>
