<?xml version='1.0' encoding='UTF-8'?>
<osm version="0.6" generator="libosmium/2.20.0">
  <way id="29776361" version="5" timestamp="2009-08-13T01:04:21Z" uid="4467" user="Rosscoe" changeset="2125668">
    <nd ref="27170585"/>
    <nd ref="327980168"/>
    <nd ref="27170585"/>
    <tag k="highway" v="tertiary"/>
    <tag k="name" v="Snedden Drive"/>
    <tag k="osmarender:renderName" v="no"/>
  </way>
  <way id="29776361" version="6" timestamp="2009-08-13T01:46:08Z" uid="4467" user="Rosscoe" changeset="2125878">
    <nd ref="27170585"/>
    <nd ref="327980168"/>
    <tag k="highway" v="tertiary"/>
    <tag k="name" v="Snedden Drive"/>
    <tag k="osmarender:renderName" v="no"/>
  </way>
  <way id="29776361" version="7" timestamp="2011-09-01T02:39:47Z" uid="207745" user="NE2" changeset="9181205">
    <nd ref="27170585"/>
    <nd ref="327980168"/>
    <tag k="highway" v="tertiary"/>
    <tag k="name" v="Snedden Drive"/>
  </way>
  <way id="29776361" version="8" timestamp="2012-01-18T01:35:52Z" uid="11111" user="melb_guy" changeset="10423933">
    <nd ref="27170585"/>
    <tag k="highway" v="tertiary"/>
    <tag k="name" v="Snedden Drive"/>
  </way>
  <way id="29776361" version="9" timestamp="2012-01-18T20:14:09Z" uid="70696" user="xybot" changeset="10430781"/>
  <way id="29776449" version="4" timestamp="2009-08-13T01:04:21Z" uid="4467" user="Rosscoe" changeset="2125668">
    <nd ref="327979206"/>
    <nd ref="327980171"/>
    <tag k="highway" v="tertiary"/>
    <tag k="name" v="Snedden Drive"/>
    <tag k="osmarender:renderName" v="no"/>
  </way>
  <way id="29776449" version="5" timestamp="2011-01-06T20:43:06Z" uid="207745" user="NE2" changeset="6886621">
    <nd ref="327979206"/>
    <nd ref="327980171"/>
    <tag k="highway" v="tertiary"/>
    <tag k="name" v="Snedden Drive"/>
  </way>
  <way id="29776449" version="6" timestamp="2012-01-18T01:35:52Z" uid="11111" user="melb_guy" changeset="10423933">
    <nd ref="327979206"/>
    <nd ref="327980171"/>
    <tag k="highway" v="tertiary_link"/>
    <tag k="surface" v="asphalt"/>
  </way>
  <way id="29776498" version="4" timestamp="2009-08-13T01:04:20Z" uid="4467" user="Rosscoe" changeset="2125668">
    <nd ref="327979196"/>
    <nd ref="327980182"/>
    <tag k="highway" v="tertiary"/>
    <tag k="name" v="Snedden Drive"/>
    <tag k="osmarender:renderName" v="no"/>
  </way>
  <way id="29776498" version="5" timestamp="2011-09-01T02:39:46Z" uid="207745" user="NE2" changeset="9181205">
    <nd ref="327979196"/>
    <nd ref="327980182"/>
    <tag k="highway" v="tertiary"/>
    <tag k="name" v="Snedden Drive"/>
  </way>
  <way id="29776498" version="6" timestamp="2012-01-18T01:35:52Z" uid="11111" user="melb_guy" changeset="10423933">
    <nd ref="327979196"/>
    <nd ref="327980182"/>
    <tag k="highway" v="tertiary_link"/>
    <tag k="surface" v="asphalt"/>
  </way>
  <way id="29776523" version="3" timestamp="2009-08-13T01:04:21Z" uid="4467" user="Rosscoe" changeset="2125668">
    <nd ref="327998475"/>
    <nd ref="327998535"/>
    <tag k="highway" v="tertiary"/>
    <tag k="name" v="Snedden Drive"/>
    <tag k="osmarender:renderName" v="no"/>
  </way>
  <way id="29776523" version="4" timestamp="2011-01-06T21:14:02Z" uid="207745" user="NE2" changeset="6886621">
    <nd ref="327998475"/>
    <nd ref="327998535"/>
    <tag k="highway" v="tertiary"/>
    <tag k="name" v="Snedden Drive"/>
  </way>
  <way id="29776523" version="5" timestamp="2012-01-18T01:35:53Z" uid="11111" user="melb_guy" changeset="10423933">
    <nd ref="327998475"/>
    <nd ref="327998535"/>
    <tag k="highway" v="tertiary_link"/>
    <tag k="surface" v="asphalt"/>
  </way>
  <way id="29776449" version="7" timestamp="2012-07-19T23:41:53Z" uid="722137" user="OSMF Redaction Account" changeset="12351699">
    <nd ref="327979206"/>
    <nd ref="327980171"/>
    <tag k="highway" v="tertiary_link"/>
    <tag k="osmarenderName" v="no"/>
    <tag k="surface" v="asphalt"/>
  </way>
  <way id="29776498" version="7" timestamp="2012-07-19T23:41:49Z" uid="722137" user="OSMF Redaction Account" changeset="12351699">
    <nd ref="327979196"/>
    <nd ref="327980182"/>
    <tag k="highway" v="tertiary_link"/>
    <tag k="osmarenderName" v="no"/>
    <tag k="surface" v="asphalt"/>
  </way>
  <way id="29776523" version="6" timestamp="2012-07-19T23:41:51Z" uid="722137" user="OSMF Redaction Account" changeset="12351699">
    <nd ref="327998475"/>
    <nd ref="327998535"/>
    <tag k="highway" v="tertiary_link"/>
    <tag k="osmarenderName" v="no"/>
    <tag k="surface" v="asphalt"/>
  </way>
</osm>
