<?xml version='1.0' encoding='UTF-8'?>
<osm version="0.6" generator="libosmium/2.20.0">
  <way id="29863288" version="2" timestamp="2010-05-10T06:46:10Z" uid="4467" user="Rosscoe" changeset="4656302">
    <nd ref="329047045"/>
    <nd ref="329047042"/>
    <nd ref="728178799"/>
    <nd ref="30142148"/>
    <nd ref="82498107"/>
    <nd ref="141099002"/>
    <nd ref="32836865"/>
    <nd ref="148918233"/>
    <nd ref="148920539"/>
    <nd ref="302585989"/>
    <nd ref="302586162"/>
    <nd ref="32836867"/>
    <nd ref="302586131"/>
    <nd ref="32836868"/>
    <nd ref="148918369"/>
    <nd ref="148918370"/>
    <nd ref="32836869"/>
    <nd ref="148918372"/>
    <nd ref="148918373"/>
    <nd ref="32836870"/>
    <tag k="highway" v="primary"/>
    <tag k="name" v="Adelaide Road"/>
    <tag k="ref" v="B37"/>
  </way>
  <way id="29863288" version="3" timestamp="2011-02-12T15:12:11Z" uid="4467" user="Rosscoe" changeset="7265815">
    <nd ref="1149155078"/>
    <nd ref="1149155025"/>
    <nd ref="1149155067"/>
    <nd ref="1149155008"/>
    <nd ref="1149155057"/>
    <nd ref="1149154989"/>
    <nd ref="1149154982"/>
    <tag k="highway" v="primary"/>
    <tag k="name" v="North Terrace; Adelaide Road"/>
    <tag k="oneway" v="yes"/>
    <tag k="ref" v="B37"/>
    <tag k="source" v="nearmap"/>
  </way>
  <way id="29863288" version="4" timestamp="2011-07-10T09:34:59Z" uid="428465" user="markinspace" changeset="8681490">
    <nd ref="1149155078"/>
    <nd ref="1149155025"/>
    <nd ref="1149155067"/>
    <nd ref="1149155008"/>
    <nd ref="1149155057"/>
    <nd ref="1149154989"/>
    <nd ref="1149154982"/>
    <tag k="highway" v="primary"/>
    <tag k="maxspeed" v="60"/>
    <tag k="name" v="North Terrace; Adelaide Road"/>
    <tag k="oneway" v="yes"/>
    <tag k="ref" v="B37"/>
    <tag k="source" v="nearmap"/>
  </way>
  <way id="29863288" version="5" timestamp="2011-07-30T10:53:43Z" uid="428465" user="markinspace" changeset="8870916">
    <nd ref="1149155078"/>
    <nd ref="1149155025"/>
    <nd ref="1149155067"/>
    <nd ref="1149155008"/>
    <nd ref="1149155057"/>
    <nd ref="1149154989"/>
    <nd ref="1149154982"/>
    <tag k="highway" v="primary"/>
    <tag k="lanes" v="2"/>
    <tag k="maxspeed" v="60"/>
    <tag k="name" v="North Terrace; Adelaide Road"/>
    <tag k="oneway" v="yes"/>
    <tag k="ref" v="B37"/>
    <tag k="source" v="nearmap"/>
  </way>
  <way id="29863302" version="2" timestamp="2010-05-10T06:46:09Z" uid="4467" user="Rosscoe" changeset="4656302">
    <nd ref="329047050"/>
    <nd ref="329047039"/>
    <nd ref="253020622"/>
    <tag k="highway" v="primary"/>
    <tag k="is_in" v="Mount Barker,South Australia,Australia"/>
    <tag k="name" v="Adelaide Road"/>
    <tag k="postal_code" v="5251"/>
    <tag k="ref" v="B37"/>
    <tag k="source" v="nearmap"/>
  </way>
  <way id="29863302" version="3" timestamp="2011-02-12T15:12:40Z" uid="4467" user="Rosscoe" changeset="7265815">
    <nd ref="437953624"/>
    <nd ref="1149155076"/>
    <nd ref="329047039"/>
    <nd ref="253020622"/>
    <tag k="highway" v="primary"/>
    <tag k="is_in" v="Mount Barker,South Australia,Australia"/>
    <tag k="name" v="Adelaide Road"/>
    <tag k="oneway" v="yes"/>
    <tag k="postal_code" v="5251"/>
    <tag k="ref" v="B37"/>
    <tag k="source" v="nearmap"/>
  </way>
  <way id="29863302" version="4" timestamp="2011-07-10T09:35:00Z" uid="428465" user="markinspace" changeset="8681490">
    <nd ref="437953624"/>
    <nd ref="1149155076"/>
    <nd ref="329047039"/>
    <nd ref="253020622"/>
    <tag k="highway" v="primary"/>
    <tag k="is_in" v="Mount Barker,South Australia,Australia"/>
    <tag k="maxspeed" v="60"/>
    <tag k="name" v="Adelaide Road"/>
    <tag k="oneway" v="yes"/>
    <tag k="postal_code" v="5251"/>
    <tag k="ref" v="B37"/>
    <tag k="source" v="nearmap"/>
  </way>
  <way id="29863302" version="5" timestamp="2011-07-30T10:53:44Z" uid="428465" user="markinspace" changeset="8870916">
    <nd ref="437953624"/>
    <nd ref="1149155076"/>
    <nd ref="329047039"/>
    <nd ref="253020622"/>
    <tag k="highway" v="primary"/>
    <tag k="is_in" v="Mount Barker,South Australia,Australia"/>
    <tag k="lanes" v="2"/>
    <tag k="maxspeed" v="60"/>
    <tag k="name" v="Adelaide Road"/>
    <tag k="oneway" v="yes"/>
    <tag k="postal_code" v="5251"/>
    <tag k="ref" v="B37"/>
    <tag k="source" v="nearmap"/>
  </way>
  <way id="29863311" version="3" timestamp="2010-05-10T06:33:17Z" uid="4467" user="Rosscoe" changeset="4656229">
    <nd ref="329047048"/>
    <nd ref="253020628"/>
    <nd ref="638875390"/>
    <nd ref="638875391"/>
    <nd ref="32836993"/>
    <nd ref="32836994"/>
    <nd ref="142825719"/>
    <nd ref="32836995"/>
    <nd ref="32836996"/>
    <nd ref="32836997"/>
    <nd ref="142829712"/>
    <nd ref="728177459"/>
    <nd ref="728177453"/>
    <tag k="highway" v="tertiary"/>
    <tag k="name" v="Mann Street"/>
  </way>
  <way id="29863311" version="4" timestamp="2010-05-10T06:46:08Z" uid="4467" user="Rosscoe" changeset="4656302">
    <nd ref="329047048"/>
    <nd ref="728178798"/>
    <nd ref="253020628"/>
    <nd ref="638875390"/>
    <nd ref="32836993"/>
    <nd ref="32836994"/>
    <nd ref="142825719"/>
    <nd ref="728178807"/>
    <tag k="highway" v="tertiary"/>
    <tag k="name" v="Mann Street"/>
    <tag k="source" v="nearmap"/>
  </way>
  <way id="29863318" version="3" timestamp="2010-05-10T06:46:09Z" uid="4467" user="Rosscoe" changeset="4656302">
    <nd ref="329047045"/>
    <nd ref="437953631"/>
    <nd ref="437953623"/>
    <nd ref="437953632"/>
    <nd ref="329047048"/>
    <nd ref="437953634"/>
    <nd ref="437953624"/>
    <nd ref="437953635"/>
    <nd ref="329047050"/>
    <nd ref="437953636"/>
    <nd ref="437953626"/>
    <nd ref="437953638"/>
    <nd ref="329047053"/>
    <nd ref="437953628"/>
    <nd ref="437953621"/>
    <nd ref="437953629"/>
    <nd ref="329047045"/>
    <tag k="highway" v="primary"/>
    <tag k="junction" v="roundabout"/>
    <tag k="source" v="nearmap"/>
  </way>
  <way id="29863318" version="4" timestamp="2011-02-12T15:12:18Z" uid="4467" user="Rosscoe" changeset="7265815">
    <nd ref="1149154987"/>
    <nd ref="437953631"/>
    <nd ref="437953623"/>
    <nd ref="437953632"/>
    <nd ref="329047048"/>
    <nd ref="437953634"/>
    <nd ref="437953624"/>
    <nd ref="437953635"/>
    <nd ref="329047050"/>
    <nd ref="437953636"/>
    <nd ref="437953626"/>
    <nd ref="437953638"/>
    <nd ref="329047053"/>
    <nd ref="437953628"/>
    <nd ref="329047045"/>
    <nd ref="437953629"/>
    <nd ref="1149154987"/>
    <tag k="highway" v="primary"/>
    <tag k="junction" v="roundabout"/>
    <tag k="source" v="nearmap"/>
  </way>
  <way id="29863318" version="5" timestamp="2011-07-30T10:53:44Z" uid="428465" user="markinspace" changeset="8870916">
    <nd ref="1149154987"/>
    <nd ref="437953631"/>
    <nd ref="437953623"/>
    <nd ref="437953632"/>
    <nd ref="329047048"/>
    <nd ref="437953634"/>
    <nd ref="437953624"/>
    <nd ref="437953635"/>
    <nd ref="329047050"/>
    <nd ref="437953636"/>
    <nd ref="437953626"/>
    <nd ref="437953638"/>
    <nd ref="329047053"/>
    <nd ref="437953628"/>
    <nd ref="329047045"/>
    <nd ref="437953629"/>
    <nd ref="1149154987"/>
    <tag k="highway" v="primary"/>
    <tag k="junction" v="roundabout"/>
    <tag k="lanes" v="2"/>
    <tag k="source" v="nearmap"/>
  </way>
  <way id="29863605" version="4" timestamp="2010-09-02T12:17:17Z" uid="49111" user="Markus B" changeset="5661808">
    <nd ref="307961211"/>
    <nd ref="891530463"/>
    <nd ref="892628690"/>
    <nd ref="307961212"/>
    <nd ref="307961213"/>
    <tag k="highway" v="primary_link"/>
  </way>
  <way id="29863605" version="5" timestamp="2010-09-02T13:14:39Z" uid="15686" user="Dimitri_Junker" changeset="5662204"/>
  <way id="29863288" version="6" timestamp="2012-05-30T14:07:13Z" uid="328538" user="o&apos;cholio" changeset="11749023">
    <nd ref="1149155078"/>
    <nd ref="1149155025"/>
    <nd ref="1149155067"/>
    <nd ref="1149155008"/>
    <nd ref="1149155057"/>
    <nd ref="1149154989"/>
    <nd ref="1770474570"/>
    <tag k="highway" v="primary"/>
    <tag k="lanes" v="2"/>
    <tag k="maxspeed" v="60"/>
    <tag k="name" v="North Terrace; Adelaide Road"/>
    <tag k="oneway" v="yes"/>
    <tag k="ref" v="B37"/>
    <tag k="source" v="nearmap"/>
  </way>
  <way id="29863288" version="7" timestamp="2012-07-19T08:11:24Z" uid="722137" user="OSMF Redaction Account" changeset="12313308"/>
  <way id="29863302" version="6" timestamp="2012-07-19T08:10:13Z" uid="722137" user="OSMF Redaction Account" changeset="12313283">
    <nd ref="329047039"/>
    <nd ref="253020622"/>
    <tag k="highway" v="primary"/>
    <tag k="is_in" v="Mount Barker,South Australia,Australia"/>
    <tag k="lanes" v="2"/>
    <tag k="maxspeed" v="60"/>
    <tag k="name" v="Adelaide Road"/>
    <tag k="postal_code" v="5251"/>
    <tag k="ref" v="B37"/>
  </way>
  <way id="29863302" version="7" timestamp="2012-07-27T03:09:03Z" uid="46482" user="Leon K" changeset="12506318">
    <nd ref="329047050"/>
    <nd ref="329047039"/>
    <nd ref="253020622"/>
    <nd ref="253020621"/>
    <nd ref="148921865"/>
    <nd ref="32836532"/>
    <tag k="highway" v="primary"/>
    <tag k="is_in" v="Mount Barker,South Australia,Australia"/>
    <tag k="lanes" v="2"/>
    <tag k="maxspeed" v="60"/>
    <tag k="name" v="Adelaide Road"/>
    <tag k="postal_code" v="5251"/>
    <tag k="ref" v="B37"/>
  </way>
  <way id="29863311" version="5" timestamp="2012-07-19T08:10:13Z" uid="722137" user="OSMF Redaction Account" changeset="12313283">
    <nd ref="329047048"/>
    <nd ref="253020628"/>
    <nd ref="638875390"/>
    <nd ref="32836993"/>
    <nd ref="32836994"/>
    <nd ref="142825719"/>
    <tag k="highway" v="tertiary"/>
    <tag k="name" v="Mann Street"/>
  </way>
  <way id="29863311" version="6" timestamp="2012-07-27T03:09:03Z" uid="46482" user="Leon K" changeset="12506318">
    <nd ref="329047048"/>
    <nd ref="253020628"/>
    <nd ref="32836993"/>
    <nd ref="32836994"/>
    <nd ref="142825719"/>
    <tag k="highway" v="tertiary"/>
    <tag k="name" v="Mann Street"/>
  </way>
  <way id="29863311" version="7" timestamp="2012-08-18T07:16:32Z" uid="46482" user="Leon K" changeset="12769870">
    <nd ref="329047048"/>
    <nd ref="253020628"/>
    <nd ref="32836993"/>
    <nd ref="32836994"/>
    <nd ref="142825719"/>
    <nd ref="1870967263"/>
    <nd ref="32836996"/>
    <nd ref="1870967289"/>
    <nd ref="1870967278"/>
    <nd ref="914416392"/>
    <nd ref="1870967261"/>
    <tag k="highway" v="tertiary"/>
    <tag k="name" v="Mann Street"/>
  </way>
  <way id="29863318" version="6" timestamp="2012-07-19T08:10:13Z" uid="722137" user="OSMF Redaction Account" changeset="12313283">
    <nd ref="329047045"/>
    <nd ref="437953631"/>
    <nd ref="437953623"/>
    <nd ref="437953632"/>
    <nd ref="329047048"/>
    <nd ref="437953634"/>
    <nd ref="437953624"/>
    <nd ref="437953635"/>
    <nd ref="329047050"/>
    <nd ref="437953636"/>
    <nd ref="437953626"/>
    <nd ref="437953638"/>
    <nd ref="329047053"/>
    <nd ref="437953628"/>
    <nd ref="437953629"/>
    <tag k="highway" v="primary"/>
    <tag k="junction" v="roundabout"/>
    <tag k="lanes" v="2"/>
  </way>
  <way id="29863318" version="7" timestamp="2012-07-27T03:09:04Z" uid="46482" user="Leon K" changeset="12506318">
    <nd ref="437953629"/>
    <nd ref="329047045"/>
    <nd ref="437953631"/>
    <nd ref="437953623"/>
    <nd ref="437953632"/>
    <nd ref="329047048"/>
    <nd ref="437953634"/>
    <nd ref="437953624"/>
    <nd ref="437953635"/>
    <nd ref="329047050"/>
    <nd ref="437953636"/>
    <nd ref="437953626"/>
    <nd ref="437953638"/>
    <nd ref="329047053"/>
    <nd ref="437953628"/>
    <nd ref="437953629"/>
    <tag k="highway" v="primary"/>
    <tag k="junction" v="roundabout"/>
    <tag k="lanes" v="2"/>
  </way>
</osm>
