<?xml version='1.0' encoding='UTF-8'?>
<osm version="0.6" generator="libosmium/2.20.0">
  <way id="29883192" version="1" timestamp="2009-01-06T17:09:46Z" uid="43967" user="railsnail" changeset="748125">
    <nd ref="270523414"/>
    <nd ref="278535411"/>
    <nd ref="270523415"/>
    <tag k="bicycle" v="yes"/>
    <tag k="created_by" v="Potlatch 0.10f"/>
    <tag k="highway" v="footway"/>
    <tag k="name" v="Schleinitzweg"/>
  </way>
  <way id="29883192" version="2" timestamp="2009-01-06T17:10:34Z" uid="43967" user="railsnail" changeset="748125">
    <nd ref="270523414"/>
    <nd ref="278535411"/>
    <nd ref="270523415"/>
    <tag k="addr:postcode" v="9900"/>
    <tag k="at:maxspeed" v="Ortsgebiet"/>
    <tag k="bicycle" v="yes"/>
    <tag k="created_by" v="Potlatch 0.10f"/>
    <tag k="highway" v="residential"/>
    <tag k="is_in" v="...,Bezirk Lienz,Tirol,Österreich,Europa"/>
    <tag k="name" v="Schleinitzweg"/>
    <tag k="note" v="imported from plan.at; (C)=CC-by-sa or oDBL; feel free to change if necessary"/>
    <tag k="plan_at:acad_id" v="lz322"/>
    <tag k="source" v="plan.at 2008"/>
    <tag k="uploaded_by" v="Wolfgang W. Wasserburger"/>
  </way>
  <way id="29883192" version="3" timestamp="2009-01-08T15:47:27Z" uid="43967" user="railsnail" changeset="756428">
    <nd ref="270523414"/>
    <nd ref="278535411"/>
    <nd ref="330236120"/>
    <nd ref="270523415"/>
    <tag k="addr:postcode" v="9900"/>
    <tag k="at:maxspeed" v="Ortsgebiet"/>
    <tag k="bicycle" v="yes"/>
    <tag k="created_by" v="Potlatch 0.10f"/>
    <tag k="highway" v="residential"/>
    <tag k="is_in" v="...,Bezirk Lienz,Tirol,Österreich,Europa"/>
    <tag k="name" v="Schleinitzweg"/>
    <tag k="note" v="imported from plan.at; (C)=CC-by-sa or oDBL; feel free to change if necessary"/>
    <tag k="plan_at:acad_id" v="lz322"/>
    <tag k="source" v="plan.at 2008"/>
    <tag k="uploaded_by" v="Wolfgang W. Wasserburger"/>
  </way>
  <way id="29883192" version="4" timestamp="2009-10-16T16:38:05Z" uid="43967" user="railsnail" changeset="2866192">
    <nd ref="270523414"/>
    <nd ref="278535411"/>
    <nd ref="330236120"/>
    <nd ref="270523415"/>
    <tag k="addr:postcode" v="9900"/>
    <tag k="at:maxspeed" v="Ortsgebiet"/>
    <tag k="bicycle" v="yes"/>
    <tag k="highway" v="residential"/>
    <tag k="is_in" v="...,Bezirk Lienz,Tirol,Österreich,Europa"/>
    <tag k="name" v="Schleinitzweg"/>
    <tag k="note" v="imported from plan.at; (C)=CC-by-sa or oDBL; feel free to change if necessary"/>
    <tag k="plan_at:acad_id" v="lz322"/>
    <tag k="source" v="plan.at 2008"/>
    <tag k="uploaded_by" v="Wolfgang W. Wasserburger"/>
  </way>
  <way id="29883192" version="5" timestamp="2010-03-24T15:47:31Z" uid="43967" user="railsnail" changeset="4222053">
    <nd ref="270523414"/>
    <nd ref="278535411"/>
    <nd ref="330236120"/>
    <nd ref="673443244"/>
    <nd ref="673443246"/>
    <nd ref="673443248"/>
    <nd ref="270523415"/>
    <tag k="addr:postcode" v="9900"/>
    <tag k="at:maxspeed" v="Ortsgebiet"/>
    <tag k="bicycle" v="yes"/>
    <tag k="highway" v="residential"/>
    <tag k="is_in" v="...,Bezirk Lienz,Tirol,Österreich,Europa"/>
    <tag k="name" v="Schleinitzweg"/>
    <tag k="note" v="imported from plan.at; (C)=CC-by-sa or oDBL; feel free to change if necessary"/>
    <tag k="plan_at:acad_id" v="lz322"/>
    <tag k="source" v="plan.at 2008"/>
    <tag k="uploaded_by" v="Wolfgang W. Wasserburger"/>
  </way>
  <way id="29883192" version="6" timestamp="2011-04-29T04:57:39Z" uid="45347" user="eriosw" changeset="8000389">
    <nd ref="270523414"/>
    <nd ref="278535411"/>
    <nd ref="330236120"/>
    <nd ref="673443244"/>
    <nd ref="673443246"/>
    <nd ref="673443248"/>
    <nd ref="270523415"/>
    <tag k="addr:postcode" v="9900"/>
    <tag k="bicycle" v="yes"/>
    <tag k="highway" v="residential"/>
    <tag k="is_in" v="Lienz,Lienz,Tirol,Österreich,Europe"/>
    <tag k="name" v="Schleinitzweg"/>
    <tag k="note" v="imported from plan.at; (C)=CC-by-sa or oDBL; feel free to change if necessary"/>
    <tag k="plan_at:acad_id" v="lz322"/>
    <tag k="source" v="plan.at 2008"/>
    <tag k="uploaded_by" v="Wolfgang W. Wasserburger"/>
  </way>
  <way id="29883192" version="7" timestamp="2011-05-12T18:15:52Z" uid="45347" user="eriosw" changeset="8124781">
    <nd ref="270523414"/>
    <nd ref="278535411"/>
    <nd ref="330236120"/>
    <nd ref="673443244"/>
    <nd ref="673443246"/>
    <nd ref="673443248"/>
    <nd ref="270523415"/>
    <tag k="addr:postcode" v="9900"/>
    <tag k="bicycle" v="yes"/>
    <tag k="highway" v="residential"/>
    <tag k="is_in" v="Lienz,Lienz,Tirol,Österreich,Europe"/>
    <tag k="name" v="Schleinitzweg"/>
    <tag k="source" v="plan.at 2008"/>
    <tag k="uploaded_by" v="Wolfgang W. Wasserburger"/>
  </way>
  <way id="29883192" version="8" timestamp="2011-07-27T09:56:17Z" uid="491845" user="data_at" changeset="8843285">
    <nd ref="270523414"/>
    <nd ref="278535411"/>
    <nd ref="330236120"/>
    <nd ref="673443244"/>
    <nd ref="673443246"/>
    <nd ref="673443248"/>
    <nd ref="270523415"/>
    <tag k="bicycle" v="yes"/>
    <tag k="highway" v="residential"/>
    <tag k="is_in" v="Lienz,Lienz,Tirol,Österreich,Europe"/>
    <tag k="name" v="Schleinitzweg"/>
    <tag k="source" v="plan.at 2008"/>
  </way>
  <way id="29883192" version="9" timestamp="2012-02-08T17:44:02Z" uid="590643" user="seppls" changeset="10626650">
    <nd ref="270523414"/>
    <nd ref="278535411"/>
    <nd ref="330236120"/>
    <nd ref="673443244"/>
    <nd ref="673443246"/>
    <nd ref="673443248"/>
    <nd ref="270523415"/>
    <tag k="bicycle" v="yes"/>
    <tag k="highway" v="residential"/>
    <tag k="is_in" v="Lienz,Lienz,Tirol,Österreich,Europe"/>
    <tag k="name" v="Schleinitzweg"/>
    <tag k="source" v="plan.at 2008"/>
  </way>
  <way id="29883192" version="10" timestamp="2012-02-16T00:20:12Z" uid="45481" user="borisC" changeset="10698039">
    <nd ref="270523414"/>
    <nd ref="278535411"/>
    <nd ref="330236120"/>
    <nd ref="673443244"/>
    <nd ref="673443246"/>
    <nd ref="1634709774"/>
    <tag k="bicycle" v="yes"/>
    <tag k="highway" v="residential"/>
    <tag k="is_in" v="Lienz,Lienz,Tirol,Österreich,Europe"/>
    <tag k="name" v="Schleinitzweg"/>
    <tag k="source" v="plan.at 2008"/>
  </way>
  <way id="29883580" version="1" timestamp="2009-01-06T17:14:34Z" uid="43967" user="railsnail" changeset="748125">
    <nd ref="269868497"/>
    <nd ref="270732341"/>
    <nd ref="270321940"/>
    <nd ref="269868690"/>
    <tag k="created_by" v="Potlatch 0.10f"/>
    <tag k="highway" v="residential"/>
    <tag k="name" v="Josef E. Ploner-Straße"/>
  </way>
  <way id="29883580" version="2" timestamp="2009-01-06T17:14:49Z" uid="43967" user="railsnail" changeset="748125">
    <nd ref="270917568"/>
    <nd ref="269868497"/>
    <nd ref="270732341"/>
    <nd ref="270321940"/>
    <nd ref="269868690"/>
    <tag k="created_by" v="Potlatch 0.10f"/>
    <tag k="highway" v="residential"/>
    <tag k="name" v="Josef E. Ploner-Straße"/>
  </way>
  <way id="29883580" version="3" timestamp="2009-01-06T17:15:29Z" uid="43967" user="railsnail" changeset="748125">
    <nd ref="322930213"/>
    <nd ref="270917568"/>
    <nd ref="269868497"/>
    <nd ref="270732341"/>
    <nd ref="270321940"/>
    <nd ref="269868690"/>
    <tag k="created_by" v="Potlatch 0.10f"/>
    <tag k="highway" v="residential"/>
    <tag k="name" v="Josef E. Ploner-Straße"/>
  </way>
  <way id="29883580" version="4" timestamp="2009-01-06T17:15:42Z" uid="43967" user="railsnail" changeset="748125">
    <nd ref="322930213"/>
    <nd ref="270917568"/>
    <nd ref="269868497"/>
    <nd ref="270732341"/>
    <nd ref="270321940"/>
    <nd ref="269868690"/>
    <tag k="addr:postcode" v="9900"/>
    <tag k="at:maxspeed" v="Ortsgebiet"/>
    <tag k="created_by" v="Potlatch 0.10f"/>
    <tag k="highway" v="residential"/>
    <tag k="is_in" v="...,Bezirk Lienz,Tirol,Österreich,Europa"/>
    <tag k="name" v="Prof.-Ploner-Straße"/>
    <tag k="note" v="imported from plan.at; (C)=CC-by-sa or oDBL; feel free to change if necessary"/>
    <tag k="plan_at:acad_id" v="lz2FB"/>
    <tag k="source" v="plan.at 2008"/>
    <tag k="uploaded_by" v="Wolfgang W. Wasserburger"/>
  </way>
  <way id="29883580" version="5" timestamp="2011-02-06T17:15:49Z" uid="43967" user="railsnail" changeset="7206465">
    <nd ref="322930213"/>
    <nd ref="270917568"/>
    <nd ref="269868497"/>
    <nd ref="270732341"/>
    <nd ref="270321940"/>
    <nd ref="1139430257"/>
    <nd ref="269868690"/>
    <tag k="addr:postcode" v="9900"/>
    <tag k="at:maxspeed" v="Ortsgebiet"/>
    <tag k="highway" v="residential"/>
    <tag k="is_in" v="...,Bezirk Lienz,Tirol,Österreich,Europa"/>
    <tag k="name" v="Prof.-Ploner-Straße"/>
    <tag k="note" v="imported from plan.at; (C)=CC-by-sa or oDBL; feel free to change if necessary"/>
    <tag k="plan_at:acad_id" v="lz2FB"/>
    <tag k="source" v="plan.at 2008"/>
    <tag k="uploaded_by" v="Wolfgang W. Wasserburger"/>
  </way>
  <way id="29883580" version="6" timestamp="2011-04-29T04:57:32Z" uid="45347" user="eriosw" changeset="8000389">
    <nd ref="322930213"/>
    <nd ref="270917568"/>
    <nd ref="269868497"/>
    <nd ref="270732341"/>
    <nd ref="270321940"/>
    <nd ref="1139430257"/>
    <nd ref="269868690"/>
    <tag k="addr:postcode" v="9900"/>
    <tag k="highway" v="residential"/>
    <tag k="is_in" v="Lienz,Lienz,Tirol,Österreich,Europe"/>
    <tag k="name" v="Prof.-Ploner-Straße"/>
    <tag k="note" v="imported from plan.at; (C)=CC-by-sa or oDBL; feel free to change if necessary"/>
    <tag k="plan_at:acad_id" v="lz2FB"/>
    <tag k="source" v="plan.at 2008"/>
    <tag k="uploaded_by" v="Wolfgang W. Wasserburger"/>
  </way>
  <way id="29883580" version="7" timestamp="2011-05-12T18:16:08Z" uid="45347" user="eriosw" changeset="8124781">
    <nd ref="322930213"/>
    <nd ref="270917568"/>
    <nd ref="269868497"/>
    <nd ref="270732341"/>
    <nd ref="270321940"/>
    <nd ref="1139430257"/>
    <nd ref="269868690"/>
    <tag k="addr:postcode" v="9900"/>
    <tag k="highway" v="residential"/>
    <tag k="is_in" v="Lienz,Lienz,Tirol,Österreich,Europe"/>
    <tag k="name" v="Prof.-Ploner-Straße"/>
    <tag k="source" v="plan.at 2008"/>
    <tag k="uploaded_by" v="Wolfgang W. Wasserburger"/>
  </way>
  <way id="29883580" version="8" timestamp="2011-07-27T09:54:46Z" uid="491845" user="data_at" changeset="8843285">
    <nd ref="322930213"/>
    <nd ref="270917568"/>
    <nd ref="269868497"/>
    <nd ref="270732341"/>
    <nd ref="270321940"/>
    <nd ref="1139430257"/>
    <nd ref="269868690"/>
    <tag k="highway" v="residential"/>
    <tag k="is_in" v="Lienz,Lienz,Tirol,Österreich,Europe"/>
    <tag k="name" v="Prof.-Ploner-Straße"/>
    <tag k="source" v="plan.at 2008"/>
  </way>
  <way id="29883192" version="11" timestamp="2012-04-05T19:12:40Z" uid="25510" user="Apo42" changeset="11193152"/>
  <way id="29883580" version="9" timestamp="2012-04-05T19:12:38Z" uid="25510" user="Apo42" changeset="11193152"/>
</osm>
