<?xml version='1.0' encoding='UTF-8'?>
<osm version="0.6" generator="libosmium/2.20.0">
  <way id="29884192" version="1" timestamp="2009-01-06T17:19:11Z" uid="43967" user="railsnail" changeset="748125">
    <nd ref="270732621"/>
    <nd ref="206376888"/>
    <tag k="created_by" v="Potlatch 0.10f"/>
    <tag k="highway" v="residential"/>
    <tag k="name" v="Fanny-Wibmer-Pedit-Straße; Josef-Schraffl-Gasse"/>
  </way>
  <way id="29884192" version="2" timestamp="2009-01-06T17:20:03Z" uid="43967" user="railsnail" changeset="748125"/>
  <way id="29884345" version="1" timestamp="2009-01-06T17:20:02Z" uid="43967" user="railsnail" changeset="748125">
    <nd ref="270732621"/>
    <nd ref="206376888"/>
    <tag k="created_by" v="Potlatch 0.10f"/>
    <tag k="highway" v="residential"/>
    <tag k="name" v="Fanny-Wibmer-Pedit-Straße; Josef-Schraffl-Gasse"/>
  </way>
  <way id="29884345" version="2" timestamp="2009-01-06T17:20:21Z" uid="43967" user="railsnail" changeset="748125">
    <nd ref="270732534"/>
    <nd ref="270732621"/>
    <nd ref="206376888"/>
    <tag k="created_by" v="Potlatch 0.10f"/>
    <tag k="highway" v="residential"/>
    <tag k="name" v="Vinzenz-Goller-Straße"/>
  </way>
  <way id="29884345" version="3" timestamp="2009-01-06T17:20:57Z" uid="43967" user="railsnail" changeset="748125">
    <nd ref="270732534"/>
    <nd ref="270732621"/>
    <nd ref="206376888"/>
    <tag k="addr:postcode" v="9900"/>
    <tag k="at:maxspeed" v="Ortsgebiet"/>
    <tag k="created_by" v="Potlatch 0.10f"/>
    <tag k="highway" v="residential"/>
    <tag k="is_in" v="...,Bezirk Lienz,Tirol,Österreich,Europa"/>
    <tag k="name" v="Vinzenz-Goller-Straße"/>
    <tag k="note" v="imported from plan.at; (C)=CC-by-sa or oDBL; feel free to change if necessary"/>
    <tag k="plan_at:acad_id" v="lz361"/>
    <tag k="source" v="plan.at 2008"/>
    <tag k="uploaded_by" v="Wolfgang W. Wasserburger"/>
  </way>
  <way id="29884345" version="4" timestamp="2010-05-12T12:37:31Z" uid="43967" user="railsnail" changeset="4676850">
    <nd ref="270732534"/>
    <nd ref="270732621"/>
    <nd ref="730793267"/>
    <nd ref="206376888"/>
    <tag k="addr:postcode" v="9900"/>
    <tag k="at:maxspeed" v="Ortsgebiet"/>
    <tag k="highway" v="residential"/>
    <tag k="is_in" v="...,Bezirk Lienz,Tirol,Österreich,Europa"/>
    <tag k="name" v="Vinzenz-Goller-Straße"/>
    <tag k="note" v="imported from plan.at; (C)=CC-by-sa or oDBL; feel free to change if necessary"/>
    <tag k="plan_at:acad_id" v="lz361"/>
    <tag k="source" v="plan.at 2008"/>
    <tag k="uploaded_by" v="Wolfgang W. Wasserburger"/>
  </way>
  <way id="29884345" version="5" timestamp="2011-04-29T04:56:48Z" uid="45347" user="eriosw" changeset="8000389">
    <nd ref="270732534"/>
    <nd ref="270732621"/>
    <nd ref="730793267"/>
    <nd ref="206376888"/>
    <tag k="addr:postcode" v="9900"/>
    <tag k="highway" v="residential"/>
    <tag k="is_in" v="Lienz,Lienz,Tirol,Österreich,Europe"/>
    <tag k="name" v="Vinzenz-Goller-Straße"/>
    <tag k="note" v="imported from plan.at; (C)=CC-by-sa or oDBL; feel free to change if necessary"/>
    <tag k="plan_at:acad_id" v="lz361"/>
    <tag k="source" v="plan.at 2008"/>
    <tag k="uploaded_by" v="Wolfgang W. Wasserburger"/>
  </way>
  <way id="29884345" version="6" timestamp="2011-05-12T18:15:30Z" uid="45347" user="eriosw" changeset="8124781">
    <nd ref="270732534"/>
    <nd ref="270732621"/>
    <nd ref="730793267"/>
    <nd ref="206376888"/>
    <tag k="addr:postcode" v="9900"/>
    <tag k="highway" v="residential"/>
    <tag k="is_in" v="Lienz,Lienz,Tirol,Österreich,Europe"/>
    <tag k="name" v="Vinzenz-Goller-Straße"/>
    <tag k="source" v="plan.at 2008"/>
    <tag k="uploaded_by" v="Wolfgang W. Wasserburger"/>
  </way>
  <way id="29884345" version="7" timestamp="2011-07-25T17:39:05Z" uid="42393" user="mawi42" changeset="8828356">
    <nd ref="270732534"/>
    <nd ref="1373997533"/>
    <nd ref="270732621"/>
    <nd ref="730793267"/>
    <nd ref="206376888"/>
    <tag k="addr:postcode" v="9900"/>
    <tag k="highway" v="residential"/>
    <tag k="is_in" v="Lienz,Lienz,Tirol,Österreich,Europe"/>
    <tag k="name" v="Vinzenz-Goller-Straße"/>
    <tag k="source" v="plan.at 2008"/>
    <tag k="uploaded_by" v="Wolfgang W. Wasserburger"/>
  </way>
  <way id="29884345" version="8" timestamp="2011-07-27T10:02:13Z" uid="491845" user="data_at" changeset="8843285">
    <nd ref="270732534"/>
    <nd ref="1373997533"/>
    <nd ref="270732621"/>
    <nd ref="730793267"/>
    <nd ref="206376888"/>
    <tag k="highway" v="residential"/>
    <tag k="is_in" v="Lienz,Lienz,Tirol,Österreich,Europe"/>
    <tag k="name" v="Vinzenz-Goller-Straße"/>
    <tag k="source" v="plan.at 2008"/>
  </way>
  <way id="29884345" version="9" timestamp="2012-02-02T19:19:47Z" uid="590643" user="seppls" changeset="10570384">
    <nd ref="270732534"/>
    <nd ref="1373997533"/>
    <nd ref="270732621"/>
    <nd ref="730793267"/>
    <nd ref="206376888"/>
    <tag k="highway" v="residential"/>
    <tag k="is_in" v="Lienz,Lienz,Tirol,Österreich,Europe"/>
    <tag k="name" v="Vinzenz-Goller-Straße"/>
    <tag k="source" v="plan.at 2008"/>
  </way>
  <way id="29884345" version="10" timestamp="2012-02-08T17:44:22Z" uid="590643" user="seppls" changeset="10626650">
    <nd ref="270732534"/>
    <nd ref="1373997533"/>
    <nd ref="270732621"/>
    <nd ref="730793267"/>
    <nd ref="206376888"/>
    <tag k="highway" v="residential"/>
    <tag k="is_in" v="Lienz,Lienz,Tirol,Österreich,Europe"/>
    <tag k="name" v="Vinzenz-Goller-Straße"/>
    <tag k="source" v="plan.at 2008"/>
  </way>
  <way id="29884937" version="1" timestamp="2009-01-06T17:22:54Z" uid="43967" user="railsnail" changeset="748125">
    <nd ref="271734593"/>
    <nd ref="271734594"/>
    <nd ref="271281104"/>
    <nd ref="271281103"/>
    <nd ref="271281102"/>
    <nd ref="271281101"/>
    <nd ref="271281100"/>
    <nd ref="206376888"/>
    <tag k="created_by" v="Potlatch 0.10f"/>
    <tag k="highway" v="residential"/>
    <tag k="name" v="Ignaz-Mitterer-Straße"/>
  </way>
  <way id="29884937" version="2" timestamp="2009-01-09T20:01:00Z" uid="43967" user="railsnail" changeset="763383">
    <nd ref="271734593"/>
    <nd ref="271734594"/>
    <nd ref="330628505"/>
    <nd ref="271281104"/>
    <nd ref="271281103"/>
    <nd ref="271281102"/>
    <nd ref="271281101"/>
    <nd ref="271281100"/>
    <nd ref="206376888"/>
    <tag k="created_by" v="Potlatch 0.10f"/>
    <tag k="highway" v="residential"/>
    <tag k="name" v="Ignaz-Mitterer-Straße"/>
  </way>
  <way id="29884937" version="3" timestamp="2009-03-18T19:16:20Z" uid="43967" user="railsnail" changeset="828760">
    <nd ref="271734593"/>
    <nd ref="271734594"/>
    <nd ref="330628505"/>
    <nd ref="271281104"/>
    <nd ref="271281103"/>
    <nd ref="271281102"/>
    <nd ref="271281101"/>
    <nd ref="271281100"/>
    <nd ref="206376888"/>
    <tag k="addr:postcode" v="9900"/>
    <tag k="at:maxspeed" v="Ortsgebiet"/>
    <tag k="created_by" v="Potlatch 0.10f"/>
    <tag k="fixme" v="check import"/>
    <tag k="highway" v="plan.at:lz:residential"/>
    <tag k="is_in" v="...,Bezirk Lienz,Tirol,Österreich,Europa"/>
    <tag k="name" v="Ignaz-Mitterer-Straße"/>
    <tag k="note" v="imported from plan.at; (C)=CC-by-sa or oDBL; feel free to change if necessary"/>
    <tag k="plan_at:acad_id" v="lzDC"/>
    <tag k="source" v="plan.at 2008"/>
    <tag k="uploaded_by" v="Wolfgang W. Wasserburger"/>
  </way>
  <way id="29884937" version="4" timestamp="2009-03-18T19:16:36Z" uid="43967" user="railsnail" changeset="828760">
    <nd ref="271734593"/>
    <nd ref="271734594"/>
    <nd ref="330628505"/>
    <nd ref="271281104"/>
    <nd ref="271281103"/>
    <nd ref="271281102"/>
    <nd ref="271281101"/>
    <nd ref="271281100"/>
    <nd ref="206376888"/>
    <tag k="addr:postcode" v="9900"/>
    <tag k="at:maxspeed" v="Ortsgebiet"/>
    <tag k="created_by" v="Potlatch 0.10f"/>
    <tag k="fixme" v="check import"/>
    <tag k="highway" v="residential"/>
    <tag k="is_in" v="...,Bezirk Lienz,Tirol,Österreich,Europa"/>
    <tag k="name" v="Ignaz-Mitterer-Straße"/>
    <tag k="note" v="imported from plan.at; (C)=CC-by-sa or oDBL; feel free to change if necessary"/>
    <tag k="plan_at:acad_id" v="lzDC"/>
    <tag k="source" v="plan.at 2008"/>
    <tag k="uploaded_by" v="Wolfgang W. Wasserburger"/>
  </way>
  <way id="29884937" version="5" timestamp="2009-03-18T19:16:51Z" uid="43967" user="railsnail" changeset="828760">
    <nd ref="271734593"/>
    <nd ref="271734594"/>
    <tag k="addr:postcode" v="9900"/>
    <tag k="at:maxspeed" v="Ortsgebiet"/>
    <tag k="created_by" v="Potlatch 0.10f"/>
    <tag k="fixme" v="check import"/>
    <tag k="highway" v="residential"/>
    <tag k="is_in" v="...,Bezirk Lienz,Tirol,Österreich,Europa"/>
    <tag k="name" v="Ignaz-Mitterer-Straße"/>
    <tag k="note" v="imported from plan.at; (C)=CC-by-sa or oDBL; feel free to change if necessary"/>
    <tag k="plan_at:acad_id" v="lzDC"/>
    <tag k="source" v="plan.at 2008"/>
    <tag k="uploaded_by" v="Wolfgang W. Wasserburger"/>
  </way>
  <way id="29884937" version="6" timestamp="2009-03-18T19:17:01Z" uid="43967" user="railsnail" changeset="828760">
    <nd ref="271734591"/>
    <nd ref="271734592"/>
    <nd ref="271734593"/>
    <nd ref="271734594"/>
    <tag k="addr:postcode" v="9900"/>
    <tag k="at:maxspeed" v="Ortsgebiet"/>
    <tag k="created_by" v="Potlatch 0.10f"/>
    <tag k="fixme" v="check import"/>
    <tag k="highway" v="residential"/>
    <tag k="is_in" v="...,Bezirk Lienz,Tirol,Österreich,Europa"/>
    <tag k="name" v="Schillerstraße"/>
    <tag k="note" v="imported from plan.at; (C)=CC-by-sa or oDBL; feel free to change if necessary"/>
    <tag k="plan_at:acad_id" v="lz31F"/>
    <tag k="source" v="plan.at 2008"/>
    <tag k="uploaded_by" v="Wolfgang W. Wasserburger"/>
  </way>
  <way id="29884937" version="7" timestamp="2011-04-29T04:56:54Z" uid="45347" user="eriosw" changeset="8000389">
    <nd ref="271734591"/>
    <nd ref="271734592"/>
    <nd ref="271734593"/>
    <nd ref="271734594"/>
    <tag k="addr:postcode" v="9900"/>
    <tag k="fixme" v="check import"/>
    <tag k="highway" v="residential"/>
    <tag k="is_in" v="Lienz,Lienz,Tirol,Österreich,Europe"/>
    <tag k="name" v="Schillerstraße"/>
    <tag k="note" v="imported from plan.at; (C)=CC-by-sa or oDBL; feel free to change if necessary"/>
    <tag k="plan_at:acad_id" v="lz31F"/>
    <tag k="source" v="plan.at 2008"/>
    <tag k="uploaded_by" v="Wolfgang W. Wasserburger"/>
  </way>
  <way id="29884937" version="8" timestamp="2011-05-12T18:16:12Z" uid="45347" user="eriosw" changeset="8124781">
    <nd ref="271734591"/>
    <nd ref="271734592"/>
    <nd ref="271734593"/>
    <nd ref="271734594"/>
    <tag k="addr:postcode" v="9900"/>
    <tag k="fixme" v="check import"/>
    <tag k="highway" v="residential"/>
    <tag k="is_in" v="Lienz,Lienz,Tirol,Österreich,Europe"/>
    <tag k="name" v="Schillerstraße"/>
    <tag k="source" v="plan.at 2008"/>
    <tag k="uploaded_by" v="Wolfgang W. Wasserburger"/>
  </way>
  <way id="29884937" version="9" timestamp="2011-07-22T07:55:09Z" uid="491845" user="data_at" changeset="8795291">
    <nd ref="271734591"/>
    <nd ref="271734592"/>
    <nd ref="271734593"/>
    <nd ref="271734594"/>
    <tag k="fixme" v="check import"/>
    <tag k="highway" v="residential"/>
    <tag k="is_in" v="Lienz,Lienz,Tirol,Österreich,Europe"/>
    <tag k="name" v="Schillerstraße"/>
    <tag k="source" v="plan.at 2008"/>
  </way>
  <way id="29884937" version="10" timestamp="2012-01-06T15:57:11Z" uid="45481" user="borisC" changeset="10312899">
    <nd ref="271734591"/>
    <nd ref="271734592"/>
    <nd ref="271734593"/>
    <nd ref="271734594"/>
    <tag k="highway" v="residential"/>
    <tag k="is_in" v="Lienz,Lienz,Tirol,Österreich,Europe"/>
    <tag k="name" v="Schillerstraße"/>
    <tag k="source" v="plan.at 2008"/>
  </way>
  <way id="29884937" version="11" timestamp="2012-02-08T17:44:01Z" uid="590643" user="seppls" changeset="10626650">
    <nd ref="271734591"/>
    <nd ref="271734592"/>
    <nd ref="271734593"/>
    <nd ref="271734594"/>
    <tag k="highway" v="residential"/>
    <tag k="is_in" v="Lienz,Lienz,Tirol,Österreich,Europe"/>
    <tag k="name" v="Schillerstraße"/>
    <tag k="source" v="plan.at 2008"/>
  </way>
  <way id="29884937" version="12" timestamp="2012-02-08T22:18:54Z" uid="45481" user="borisC" changeset="10629440">
    <nd ref="1624555431"/>
    <nd ref="271734592"/>
    <nd ref="271734593"/>
    <nd ref="271734594"/>
    <tag k="highway" v="residential"/>
    <tag k="is_in" v="Lienz,Lienz,Tirol,Österreich,Europe"/>
    <tag k="name" v="Schillerstraße"/>
    <tag k="source" v="plan.at 2008"/>
  </way>
  <way id="29884977" version="2" timestamp="2011-01-04T16:16:16Z" uid="9581" user="Lobelt" changeset="6862399">
    <nd ref="329365530"/>
    <nd ref="325635744"/>
    <tag k="highway" v="footway"/>
  </way>
  <way id="29884977" version="3" timestamp="2011-11-28T17:40:08Z" uid="192395" user="BBO" changeset="9980046"/>
  <way id="29884345" version="11" timestamp="2012-04-05T19:33:00Z" uid="25510" user="Apo42" changeset="11193407"/>
  <way id="29884937" version="13" timestamp="2012-04-05T19:33:00Z" uid="25510" user="Apo42" changeset="11193407"/>
</osm>
