<?xml version='1.0' encoding='UTF-8'?>
<osm version="0.6" generator="libosmium/2.20.0">
  <way id="29928693" version="1" timestamp="2009-01-07T00:55:40Z" uid="30201" user="rrankin" changeset="749929">
    <nd ref="329776961"/>
    <nd ref="329776962"/>
    <nd ref="329776967"/>
    <tag k="highway" v="residential"/>
    <tag k="name" v="Appleby Place"/>
    <tag k="source" v="yahoo"/>
  </way>
  <way id="29928693" version="2" timestamp="2010-07-07T23:05:37Z" uid="74617" user="JohnSmith" changeset="5162525">
    <nd ref="329776961"/>
    <nd ref="329776962"/>
    <nd ref="329776967"/>
    <tag k="highway" v="residential"/>
    <tag k="maxspeed" v="50"/>
    <tag k="maxspeed:source" v="default residential speed limit in Australia"/>
    <tag k="name" v="Appleby Place"/>
    <tag k="source" v="yahoo"/>
  </way>
  <way id="29928693" version="3" timestamp="2012-01-18T02:23:02Z" uid="147510" user="woodpeck_fixbot" changeset="10424025">
    <nd ref="329776961"/>
    <nd ref="329776962"/>
    <nd ref="329776967"/>
    <tag k="highway" v="residential"/>
    <tag k="name" v="Appleby Place"/>
    <tag k="source" v="yahoo"/>
  </way>
  <way id="29928693" version="4" timestamp="2012-07-22T05:19:17Z" uid="722137" user="OSMF Redaction Account" changeset="12425745"/>
</osm>
