<?xml version='1.0' encoding='UTF-8'?>
<osm version="0.6" generator="libosmium/2.20.0">
  <way id="29968278" version="1" timestamp="2009-01-07T05:51:04Z" uid="30201" user="rrankin" changeset="751417">
    <nd ref="262074473"/>
    <nd ref="329943022"/>
    <tag k="highway" v="motorway_link"/>
  </way>
  <way id="29968278" version="2" timestamp="2010-06-19T01:53:42Z" uid="299678" user="peteramjet" changeset="5020602">
    <nd ref="262074473"/>
    <nd ref="775911742"/>
    <nd ref="775911749"/>
    <nd ref="775911750"/>
    <nd ref="775911748"/>
    <nd ref="775911748"/>
    <tag k="highway" v="motorway_link"/>
    <tag k="name" v="Westlink M7"/>
    <tag k="oneway" v="yes"/>
  </way>
  <way id="29968278" version="3" timestamp="2010-06-19T19:32:36Z" uid="70696" user="xybot" changeset="5026580">
    <nd ref="262074473"/>
    <nd ref="775911742"/>
    <nd ref="775911749"/>
    <nd ref="775911750"/>
    <nd ref="775911748"/>
    <tag k="highway" v="motorway_link"/>
    <tag k="name" v="Westlink M7"/>
    <tag k="oneway" v="yes"/>
  </way>
  <way id="29968278" version="4" timestamp="2011-06-28T03:40:55Z" uid="11111" user="melb_guy" changeset="8567958">
    <nd ref="262074473"/>
    <nd ref="775911742"/>
    <nd ref="775911749"/>
    <nd ref="775911750"/>
    <nd ref="775911748"/>
    <tag k="highway" v="motorway_link"/>
    <tag k="name" v="Westlink M7"/>
    <tag k="oneway" v="yes"/>
    <tag k="toll" v="yes"/>
  </way>
  <way id="29968278" version="5" timestamp="2012-01-30T07:28:29Z" uid="54784" user="Tom Hollander" changeset="10536990">
    <nd ref="262074473"/>
    <nd ref="775911742"/>
    <nd ref="775911749"/>
    <nd ref="775911750"/>
    <nd ref="775911748"/>
    <tag k="highway" v="motorway_link"/>
    <tag k="name" v="Westlink M7"/>
    <tag k="oneway" v="yes"/>
    <tag k="ref" v="M7"/>
    <tag k="toll" v="yes"/>
  </way>
  <way id="29968280" version="1" timestamp="2009-01-07T05:51:07Z" uid="30201" user="rrankin" changeset="751417">
    <nd ref="329943035"/>
    <nd ref="329943047"/>
    <tag k="highway" v="motorway_link"/>
  </way>
  <way id="29968280" version="2" timestamp="2010-06-19T01:53:39Z" uid="299678" user="peteramjet" changeset="5020602">
    <nd ref="775911730"/>
    <nd ref="775911731"/>
    <nd ref="775911732"/>
    <nd ref="775911733"/>
    <nd ref="775911734"/>
    <nd ref="775911735"/>
    <nd ref="775911736"/>
    <nd ref="775911737"/>
    <nd ref="329943047"/>
    <tag k="highway" v="motorway_link"/>
    <tag k="name" v="Woodstock Avenue Exit"/>
    <tag k="oneway" v="yes"/>
  </way>
  <way id="29968280" version="3" timestamp="2010-07-05T01:57:26Z" uid="299678" user="peteramjet" changeset="5138502">
    <nd ref="801621643"/>
    <nd ref="775911731"/>
    <nd ref="775911732"/>
    <nd ref="775911733"/>
    <nd ref="775911734"/>
    <nd ref="775911735"/>
    <nd ref="775911736"/>
    <nd ref="775911737"/>
    <nd ref="329943047"/>
    <tag k="highway" v="motorway_link"/>
    <tag k="name" v="Woodstock Avenue Exit"/>
    <tag k="oneway" v="yes"/>
  </way>
  <way id="29968280" version="4" timestamp="2011-06-28T03:40:55Z" uid="11111" user="melb_guy" changeset="8567958">
    <nd ref="801621643"/>
    <nd ref="775911731"/>
    <nd ref="775911732"/>
    <nd ref="775911733"/>
    <nd ref="775911734"/>
    <nd ref="775911735"/>
    <nd ref="775911736"/>
    <nd ref="775911737"/>
    <nd ref="329943047"/>
    <tag k="highway" v="motorway_link"/>
    <tag k="name" v="Woodstock Avenue Exit"/>
    <tag k="oneway" v="yes"/>
    <tag k="toll" v="yes"/>
  </way>
  <way id="29968541" version="6" timestamp="2010-07-09T03:23:24Z" uid="74617" user="JohnSmith" changeset="5170713">
    <nd ref="329944574"/>
    <nd ref="329944575"/>
    <nd ref="329944577"/>
    <nd ref="582516753"/>
    <nd ref="329948373"/>
    <nd ref="329944578"/>
    <tag k="highway" v="residential"/>
    <tag k="maxspeed" v="50"/>
    <tag k="maxspeed:source" v="default residential speed limit in Australia"/>
    <tag k="name" v="Bridge Street"/>
    <tag k="source" v="yahoo"/>
    <tag k="source:name" v="survey"/>
  </way>
  <way id="29968541" version="7" timestamp="2012-01-18T02:24:32Z" uid="147510" user="woodpeck_fixbot" changeset="10424025">
    <nd ref="329944574"/>
    <nd ref="329944575"/>
    <nd ref="329944577"/>
    <nd ref="582516753"/>
    <nd ref="329948373"/>
    <nd ref="329944578"/>
    <tag k="highway" v="residential"/>
    <tag k="name" v="Bridge Street"/>
    <tag k="source" v="yahoo"/>
    <tag k="source:name" v="survey"/>
  </way>
  <way id="29968773" version="4" timestamp="2010-07-09T03:24:18Z" uid="74617" user="JohnSmith" changeset="5170713">
    <nd ref="329944228"/>
    <nd ref="778874833"/>
    <nd ref="329945862"/>
    <tag k="highway" v="residential"/>
    <tag k="maxspeed" v="50"/>
    <tag k="maxspeed:source" v="default residential speed limit in Australia"/>
    <tag k="name" v="Montrose Avenue"/>
    <tag k="source" v="yahoo"/>
    <tag k="source:name" v="survey"/>
  </way>
  <way id="29968773" version="5" timestamp="2012-01-18T02:24:34Z" uid="147510" user="woodpeck_fixbot" changeset="10424025">
    <nd ref="329944228"/>
    <nd ref="778874833"/>
    <nd ref="329945862"/>
    <tag k="highway" v="residential"/>
    <tag k="name" v="Montrose Avenue"/>
    <tag k="source" v="yahoo"/>
    <tag k="source:name" v="survey"/>
  </way>
  <way id="29968983" version="7" timestamp="2010-07-09T03:16:57Z" uid="74617" user="JohnSmith" changeset="5170713">
    <nd ref="329947104"/>
    <nd ref="329947114"/>
    <nd ref="29904844"/>
    <nd ref="330132194"/>
    <nd ref="330132764"/>
    <nd ref="330132069"/>
    <nd ref="329947478"/>
    <nd ref="329947217"/>
    <nd ref="329947218"/>
    <tag k="highway" v="residential"/>
    <tag k="maxspeed" v="50"/>
    <tag k="maxspeed:source" v="default residential speed limit in Australia"/>
    <tag k="name" v="Ebden Street"/>
    <tag k="source" v="yahoo"/>
    <tag k="source:name" v="survey"/>
  </way>
  <way id="29968983" version="8" timestamp="2011-03-26T07:10:07Z" uid="11111" user="melb_guy" changeset="7672260">
    <nd ref="1218595405"/>
    <nd ref="1218595397"/>
    <nd ref="1218595348"/>
    <nd ref="1218595533"/>
    <nd ref="1218595552"/>
    <nd ref="1218595363"/>
    <nd ref="1218595538"/>
    <nd ref="1218595412"/>
    <tag k="highway" v="residential"/>
    <tag k="maxspeed" v="50"/>
    <tag k="maxspeed:source" v="default residential speed limit in Australia"/>
    <tag k="name" v="Ebden Street"/>
    <tag k="oneway" v="yes"/>
    <tag k="source" v="nearmap"/>
    <tag k="source:name" v="survey"/>
  </way>
  <way id="29968983" version="9" timestamp="2012-01-18T02:24:35Z" uid="147510" user="woodpeck_fixbot" changeset="10424025">
    <nd ref="1218595405"/>
    <nd ref="1218595397"/>
    <nd ref="1218595348"/>
    <nd ref="1218595533"/>
    <nd ref="1218595552"/>
    <nd ref="1218595363"/>
    <nd ref="1218595538"/>
    <nd ref="1218595412"/>
    <tag k="highway" v="residential"/>
    <tag k="name" v="Ebden Street"/>
    <tag k="oneway" v="yes"/>
    <tag k="source" v="nearmap"/>
    <tag k="source:name" v="survey"/>
  </way>
  <way id="29968278" version="6" timestamp="2012-07-22T05:17:11Z" uid="722137" user="OSMF Redaction Account" changeset="12425716">
    <nd ref="775911742"/>
    <nd ref="775911749"/>
    <nd ref="775911750"/>
    <nd ref="775911748"/>
    <tag k="name" v="Westlink M7"/>
    <tag k="oneway" v="yes"/>
    <tag k="ref" v="M7"/>
    <tag k="toll" v="yes"/>
  </way>
  <way id="29968278" version="7" timestamp="2012-07-22T21:34:02Z" uid="105255" user="Sven L" changeset="12440714">
    <nd ref="775911742"/>
    <nd ref="775911749"/>
    <nd ref="775911750"/>
    <nd ref="775911748"/>
    <tag k="highway" v="motorway_link"/>
    <tag k="name" v="Westlink M7"/>
    <tag k="oneway" v="yes"/>
    <tag k="ref" v="M7"/>
    <tag k="toll" v="yes"/>
  </way>
  <way id="29968280" version="5" timestamp="2012-07-22T05:17:10Z" uid="722137" user="OSMF Redaction Account" changeset="12425716">
    <nd ref="801621643"/>
    <nd ref="775911731"/>
    <nd ref="775911732"/>
    <nd ref="775911733"/>
    <nd ref="775911734"/>
    <nd ref="775911735"/>
    <nd ref="775911736"/>
    <nd ref="775911737"/>
    <tag k="name" v="Woodstock Avenue Exit"/>
    <tag k="oneway" v="yes"/>
    <tag k="toll" v="yes"/>
  </way>
  <way id="29968280" version="6" timestamp="2012-07-22T21:34:02Z" uid="105255" user="Sven L" changeset="12440714">
    <nd ref="801621643"/>
    <nd ref="775911731"/>
    <nd ref="775911732"/>
    <nd ref="775911733"/>
    <nd ref="775911734"/>
    <nd ref="775911735"/>
    <nd ref="775911736"/>
    <nd ref="775911737"/>
    <tag k="highway" v="motorway_link"/>
    <tag k="name" v="Woodstock Avenue Exit"/>
    <tag k="oneway" v="yes"/>
    <tag k="toll" v="yes"/>
  </way>
</osm>
