<?xml version='1.0' encoding='UTF-8'?>
<osm version="0.6" generator="libosmium/2.20.0">
  <way id="30209033" version="2" timestamp="2009-01-18T18:42:49Z" uid="49111" user="Markus B" changeset="807616">
    <nd ref="268912895"/>
    <nd ref="268912896"/>
    <nd ref="268912897"/>
    <nd ref="268912898"/>
    <tag k="highway" v="residential"/>
  </way>
  <way id="30209033" version="3" timestamp="2010-01-05T13:12:18Z" uid="118856" user="staehler" changeset="3545160">
    <nd ref="268912895"/>
    <nd ref="268912896"/>
    <nd ref="268912897"/>
    <nd ref="268912898"/>
    <tag k="highway" v="residential"/>
    <tag k="name" v="An der Klostermauer"/>
  </way>
  <way id="30209033" version="4" timestamp="2010-11-15T16:33:39Z" uid="359695" user="geomehr" changeset="6378623">
    <nd ref="268912895"/>
    <nd ref="268912896"/>
    <nd ref="990198928"/>
    <nd ref="268912897"/>
    <nd ref="268912898"/>
    <tag k="highway" v="residential"/>
    <tag k="name" v="An der Klostermauer"/>
  </way>
  <way id="30209078" version="10" timestamp="2010-05-07T16:37:22Z" uid="4467" user="Rosscoe" changeset="4631572">
    <nd ref="270485503"/>
    <nd ref="332911687"/>
    <nd ref="332911688"/>
    <nd ref="332911689"/>
    <nd ref="332933763"/>
    <nd ref="332911690"/>
    <nd ref="332933764"/>
    <nd ref="332911692"/>
    <nd ref="332911693"/>
    <nd ref="332911694"/>
    <tag k="highway" v="unclassified"/>
    <tag k="name" v="Cowie Close"/>
  </way>
  <way id="30209078" version="11" timestamp="2010-05-08T05:58:03Z" uid="4467" user="Rosscoe" changeset="4635843">
    <nd ref="270485503"/>
    <nd ref="332911688"/>
    <nd ref="332911689"/>
    <nd ref="332933763"/>
    <nd ref="332911690"/>
    <nd ref="332933764"/>
    <nd ref="332911692"/>
    <nd ref="332911693"/>
    <nd ref="332911694"/>
    <tag k="highway" v="unclassified"/>
    <tag k="name" v="Cowie Close"/>
  </way>
  <way id="30209078" version="12" timestamp="2010-07-09T21:43:57Z" uid="74617" user="JohnSmith" changeset="5176956">
    <nd ref="270485503"/>
    <nd ref="332911688"/>
    <nd ref="332911689"/>
    <nd ref="332933763"/>
    <nd ref="332911690"/>
    <nd ref="332933764"/>
    <nd ref="332911692"/>
    <nd ref="332911693"/>
    <nd ref="332911694"/>
    <tag k="highway" v="unclassified"/>
    <tag k="maxspeed" v="50"/>
    <tag k="maxspeed:source" v="default residential speed limit in Australia"/>
    <tag k="name" v="Cowie Close"/>
  </way>
  <way id="30209078" version="13" timestamp="2012-01-18T03:37:20Z" uid="147510" user="woodpeck_fixbot" changeset="10424025">
    <nd ref="270485503"/>
    <nd ref="332911688"/>
    <nd ref="332911689"/>
    <nd ref="332933763"/>
    <nd ref="332911690"/>
    <nd ref="332933764"/>
    <nd ref="332911692"/>
    <nd ref="332911693"/>
    <nd ref="332911694"/>
    <tag k="highway" v="unclassified"/>
    <tag k="name" v="Cowie Close"/>
  </way>
  <way id="30209197" version="7" timestamp="2010-03-07T10:45:08Z" uid="58091" user="Andreas M" changeset="4059427">
    <nd ref="332906462"/>
    <nd ref="332913084"/>
    <nd ref="332913085"/>
    <nd ref="332913086"/>
    <nd ref="332913087"/>
    <nd ref="332913088"/>
    <nd ref="332913089"/>
    <nd ref="332913090"/>
    <nd ref="332913091"/>
    <tag k="fixme" v="check import"/>
    <tag k="highway" v="residential"/>
    <tag k="is_in:city" v="Bad Pirawarth"/>
    <tag k="is_in:country_code" v="AT"/>
    <tag k="name" v="Kurhausstraße"/>
    <tag k="postal_code" v="2222"/>
    <tag k="source" v="plan.at 2009"/>
  </way>
  <way id="30209197" version="8" timestamp="2010-11-28T18:04:18Z" uid="3486" user="priwo" changeset="6480563">
    <nd ref="332906462"/>
    <nd ref="332913084"/>
    <nd ref="332913085"/>
    <nd ref="332913086"/>
    <nd ref="332913087"/>
    <nd ref="332913088"/>
    <nd ref="332913089"/>
    <nd ref="332913090"/>
    <nd ref="332913091"/>
    <tag k="fixme" v="check import"/>
    <tag k="highway" v="residential"/>
    <tag k="is_in:city" v="Bad Pirawarth"/>
    <tag k="is_in:country_code" v="AT"/>
    <tag k="postal_code" v="2222"/>
    <tag k="source" v="plan.at 2009"/>
  </way>
  <way id="30209197" version="9" timestamp="2010-12-08T13:40:12Z" uid="12295" user="mapper_07" changeset="6585237"/>
  <way id="30209201" version="7" timestamp="2010-03-07T10:45:07Z" uid="58091" user="Andreas M" changeset="4059427">
    <nd ref="332910594"/>
    <nd ref="332913100"/>
    <nd ref="332913101"/>
    <nd ref="332913102"/>
    <nd ref="332913103"/>
    <nd ref="332913104"/>
    <nd ref="332913105"/>
    <tag k="fixme" v="check import"/>
    <tag k="highway" v="residential"/>
    <tag k="is_in:city" v="Bad Pirawarth"/>
    <tag k="name" v="Kurhausstraße"/>
    <tag k="postal_code" v="2222"/>
    <tag k="source" v="plan.at 2009"/>
  </way>
  <way id="30209201" version="8" timestamp="2010-05-26T20:28:02Z" uid="47064" user="7503146" changeset="4816622">
    <nd ref="332910594"/>
    <nd ref="332913100"/>
    <nd ref="332913101"/>
    <nd ref="332913102"/>
    <nd ref="332913103"/>
    <nd ref="332913104"/>
    <nd ref="332913105"/>
    <tag k="highway" v="residential"/>
    <tag k="is_in:city" v="Bad Pirawarth"/>
    <tag k="name" v="Kurhausstraße"/>
    <tag k="postal_code" v="2222"/>
    <tag k="source" v="survey"/>
  </way>
  <way id="30209201" version="9" timestamp="2010-12-12T11:34:53Z" uid="12295" user="mapper_07" changeset="6634818">
    <nd ref="332910594"/>
    <nd ref="332913100"/>
    <nd ref="332913101"/>
    <nd ref="332913102"/>
    <nd ref="332913103"/>
    <nd ref="332913104"/>
    <nd ref="332913105"/>
    <tag k="highway" v="residential"/>
    <tag k="is_in:city" v="Bad Pirawarth"/>
    <tag k="maxspeed" v="30"/>
    <tag k="name" v="Kurhausstraße"/>
    <tag k="postal_code" v="2222"/>
    <tag k="source" v="survey"/>
  </way>
  <way id="30209201" version="10" timestamp="2011-03-26T14:25:43Z" uid="74896" user="tevake" changeset="7675955">
    <nd ref="332910594"/>
    <nd ref="332913101"/>
    <nd ref="332913102"/>
    <nd ref="332913103"/>
    <nd ref="1219072149"/>
    <nd ref="332913104"/>
    <nd ref="332913105"/>
    <tag k="highway" v="residential"/>
    <tag k="is_in:city" v="Bad Pirawarth"/>
    <tag k="maxspeed" v="30"/>
    <tag k="name" v="Kurhausstraße"/>
    <tag k="postal_code" v="2222"/>
    <tag k="source" v="survey"/>
  </way>
  <way id="30209201" version="11" timestamp="2012-02-21T14:18:00Z" uid="53306" user="Wolfgang B" changeset="10750547">
    <nd ref="332910594"/>
    <nd ref="1641829801"/>
    <nd ref="332913101"/>
    <nd ref="332913102"/>
    <nd ref="1641829877"/>
    <nd ref="332913103"/>
    <nd ref="1219072149"/>
    <nd ref="1641829864"/>
    <nd ref="332913105"/>
    <tag k="highway" v="residential"/>
    <tag k="is_in:city" v="Bad Pirawarth"/>
    <tag k="maxspeed" v="30"/>
    <tag k="name" v="Kurhausstraße"/>
    <tag k="postal_code" v="2222"/>
    <tag k="source" v="survey"/>
  </way>
  <way id="30209205" version="6" timestamp="2010-03-07T10:45:02Z" uid="58091" user="Andreas M" changeset="4059427">
    <nd ref="332908446"/>
    <nd ref="332913122"/>
    <nd ref="332913123"/>
    <nd ref="332913124"/>
    <nd ref="332913125"/>
    <tag k="fixme" v="check import"/>
    <tag k="highway" v="residential"/>
    <tag k="is_in:city" v="Bad Pirawarth"/>
    <tag k="is_in:country_code" v="AT"/>
    <tag k="name" v="Konstantinhügel"/>
    <tag k="postal_code" v="2222"/>
    <tag k="source" v="plan.at 2009"/>
  </way>
  <way id="30209205" version="7" timestamp="2011-03-26T13:56:10Z" uid="74896" user="tevake" changeset="7675674">
    <nd ref="332908446"/>
    <nd ref="332913122"/>
    <nd ref="332913123"/>
    <nd ref="332913124"/>
    <nd ref="332913125"/>
    <nd ref="1219024306"/>
    <nd ref="1219024401"/>
    <nd ref="332915896"/>
    <tag k="fixme" v="check import"/>
    <tag k="highway" v="residential"/>
    <tag k="is_in:city" v="Bad Pirawarth"/>
    <tag k="is_in:country_code" v="AT"/>
    <tag k="name" v="Konstantinhügel"/>
    <tag k="postal_code" v="2222"/>
    <tag k="source" v="plan.at 2009"/>
  </way>
  <way id="30209216" version="7" timestamp="2010-03-07T10:45:07Z" uid="58091" user="Andreas M" changeset="4059427">
    <nd ref="332913182"/>
    <nd ref="332913183"/>
    <nd ref="332913181"/>
    <nd ref="332913184"/>
    <nd ref="332913185"/>
    <nd ref="332913186"/>
    <nd ref="332910594"/>
    <tag k="fixme" v="check import"/>
    <tag k="highway" v="residential"/>
    <tag k="is_in:country_code" v="AT"/>
    <tag k="name" v="Kirchengasse"/>
    <tag k="postal_code" v="2222"/>
    <tag k="source" v="plan.at 2009"/>
  </way>
  <way id="30209216" version="8" timestamp="2010-05-26T20:36:51Z" uid="47064" user="7503146" changeset="4816622">
    <nd ref="332913182"/>
    <nd ref="332913183"/>
    <nd ref="332913181"/>
    <nd ref="332913184"/>
    <nd ref="332913185"/>
    <nd ref="332913186"/>
    <nd ref="749931700"/>
    <nd ref="332910594"/>
    <tag k="highway" v="residential"/>
    <tag k="is_in:country_code" v="AT"/>
    <tag k="name" v="Kirchengasse"/>
    <tag k="postal_code" v="2222"/>
    <tag k="source" v="survey"/>
  </way>
  <way id="30209216" version="9" timestamp="2010-05-26T21:04:12Z" uid="47064" user="7503146" changeset="4816834">
    <nd ref="332913182"/>
    <nd ref="332913183"/>
    <nd ref="332913181"/>
    <nd ref="332913184"/>
    <nd ref="332913185"/>
    <nd ref="332913186"/>
    <nd ref="749934824"/>
    <nd ref="332910594"/>
    <tag k="highway" v="residential"/>
    <tag k="is_in:country_code" v="AT"/>
    <tag k="name" v="Kirchengasse"/>
    <tag k="postal_code" v="2222"/>
    <tag k="source" v="survey"/>
  </way>
  <way id="30209216" version="10" timestamp="2010-12-12T11:34:51Z" uid="12295" user="mapper_07" changeset="6634818">
    <nd ref="332913182"/>
    <nd ref="332913183"/>
    <nd ref="332913181"/>
    <nd ref="332913184"/>
    <nd ref="332913185"/>
    <nd ref="332913186"/>
    <nd ref="749934824"/>
    <nd ref="332910594"/>
    <tag k="highway" v="residential"/>
    <tag k="is_in:country_code" v="AT"/>
    <tag k="maxspeed" v="30"/>
    <tag k="name" v="Kirchengasse"/>
    <tag k="postal_code" v="2222"/>
    <tag k="source" v="survey"/>
  </way>
  <way id="30209216" version="11" timestamp="2011-03-23T12:43:26Z" uid="74896" user="tevake" changeset="7646151">
    <nd ref="332913182"/>
    <nd ref="332913183"/>
    <nd ref="332913181"/>
    <nd ref="332913184"/>
    <nd ref="332913185"/>
    <nd ref="1214781779"/>
    <nd ref="332913186"/>
    <nd ref="749934824"/>
    <nd ref="332910594"/>
    <tag k="highway" v="residential"/>
    <tag k="is_in:country_code" v="AT"/>
    <tag k="maxspeed" v="30"/>
    <tag k="name" v="Kirchengasse"/>
    <tag k="postal_code" v="2222"/>
    <tag k="source" v="survey"/>
  </way>
  <way id="30209216" version="12" timestamp="2011-03-26T14:25:48Z" uid="74896" user="tevake" changeset="7675955">
    <nd ref="332913182"/>
    <nd ref="332913181"/>
    <nd ref="332913184"/>
    <nd ref="332913185"/>
    <nd ref="1219072029"/>
    <nd ref="1214781779"/>
    <nd ref="332913186"/>
    <nd ref="749934824"/>
    <nd ref="332910594"/>
    <tag k="highway" v="residential"/>
    <tag k="is_in:country_code" v="AT"/>
    <tag k="maxspeed" v="30"/>
    <tag k="name" v="Kirchengasse"/>
    <tag k="postal_code" v="2222"/>
    <tag k="source" v="survey"/>
  </way>
  <way id="30209216" version="13" timestamp="2012-02-21T14:18:01Z" uid="53306" user="Wolfgang B" changeset="10750547">
    <nd ref="332913182"/>
    <nd ref="332913181"/>
    <tag k="highway" v="residential"/>
    <tag k="is_in:country_code" v="AT"/>
    <tag k="maxspeed" v="30"/>
    <tag k="name" v="Kirchengasse"/>
    <tag k="postal_code" v="2222"/>
    <tag k="source" v="survey"/>
  </way>
  <way id="30209217" version="5" timestamp="2010-03-07T10:45:02Z" uid="58091" user="Andreas M" changeset="4059427">
    <nd ref="332913091"/>
    <nd ref="332913187"/>
    <nd ref="332913188"/>
    <nd ref="332913189"/>
    <nd ref="332913190"/>
    <nd ref="332913191"/>
    <tag k="fixme" v="check import"/>
    <tag k="highway" v="residential"/>
    <tag k="is_in:city" v="Bad Pirawarth"/>
    <tag k="is_in:country_code" v="AT"/>
    <tag k="name" v="Kellerweg"/>
    <tag k="postal_code" v="2222"/>
    <tag k="source" v="plan.at 2009"/>
  </way>
  <way id="30209334" version="3" timestamp="2010-07-09T21:44:49Z" uid="74617" user="JohnSmith" changeset="5176956">
    <nd ref="270727596"/>
    <nd ref="270727597"/>
    <tag k="highway" v="residential"/>
    <tag k="maxspeed" v="50"/>
    <tag k="maxspeed:source" v="default residential speed limit in Australia"/>
    <tag k="name" v="Pascoe Street"/>
  </way>
  <way id="30209334" version="4" timestamp="2011-12-04T03:58:13Z" uid="142807" user="SDavies" changeset="10029929">
    <nd ref="270727596"/>
    <nd ref="1530472593"/>
    <nd ref="1530472589"/>
    <nd ref="1530472595"/>
    <nd ref="270727597"/>
    <tag k="highway" v="residential"/>
    <tag k="maxspeed" v="50"/>
    <tag k="maxspeed:source" v="default residential speed limit in Australia"/>
    <tag k="name" v="Pascoe Street"/>
  </way>
  <way id="30209334" version="5" timestamp="2012-01-18T03:37:22Z" uid="147510" user="woodpeck_fixbot" changeset="10424025">
    <nd ref="270727596"/>
    <nd ref="1530472593"/>
    <nd ref="1530472589"/>
    <nd ref="1530472595"/>
    <nd ref="270727597"/>
    <tag k="highway" v="residential"/>
    <tag k="name" v="Pascoe Street"/>
  </way>
  <way id="30209346" version="7" timestamp="2010-03-07T10:45:02Z" uid="58091" user="Andreas M" changeset="4059427">
    <nd ref="332913091"/>
    <nd ref="332914404"/>
    <nd ref="332914405"/>
    <nd ref="332914406"/>
    <nd ref="31439221"/>
    <tag k="fixme" v="check import"/>
    <tag k="highway" v="residential"/>
    <tag k="is_in:city" v="Bad Pirawarth"/>
    <tag k="is_in:country_code" v="AT"/>
    <tag k="name" v="Kurhausstraße"/>
    <tag k="postal_code" v="2222"/>
    <tag k="source" v="plan.at 2009"/>
  </way>
  <way id="30209346" version="8" timestamp="2010-11-28T18:04:21Z" uid="3486" user="priwo" changeset="6480563">
    <nd ref="332913091"/>
    <nd ref="332914404"/>
    <nd ref="332914405"/>
    <nd ref="332914406"/>
    <nd ref="31439221"/>
    <tag k="fixme" v="check import"/>
    <tag k="highway" v="residential"/>
    <tag k="is_in:city" v="Bad Pirawarth"/>
    <tag k="is_in:country_code" v="AT"/>
    <tag k="postal_code" v="2222"/>
    <tag k="source" v="plan.at 2009"/>
  </way>
  <way id="30209346" version="9" timestamp="2010-12-06T20:26:45Z" uid="3486" user="priwo" changeset="6568265">
    <nd ref="332913091"/>
    <nd ref="332914404"/>
    <nd ref="332914405"/>
    <nd ref="332914406"/>
    <nd ref="31439221"/>
    <tag k="highway" v="residential"/>
    <tag k="is_in:city" v="Bad Pirawarth"/>
    <tag k="is_in:country_code" v="AT"/>
    <tag k="postal_code" v="2222"/>
    <tag k="source" v="plan.at 2009"/>
  </way>
  <way id="30209346" version="10" timestamp="2010-12-06T20:27:02Z" uid="3486" user="priwo" changeset="6568265">
    <nd ref="332913091"/>
    <nd ref="332914404"/>
    <nd ref="332914405"/>
    <nd ref="332914406"/>
    <nd ref="31439221"/>
    <tag k="highway" v="residential"/>
    <tag k="is_in:city" v="Bad Pirawarth"/>
    <tag k="is_in:country_code" v="AT"/>
    <tag k="name" v="Herrengasse"/>
    <tag k="postal_code" v="2222"/>
    <tag k="source" v="plan.at 2009"/>
  </way>
  <way id="30209423" version="2" timestamp="2009-04-10T20:29:24Z" uid="49111" user="Markus B" changeset="386726">
    <nd ref="332915196"/>
    <nd ref="332915197"/>
    <nd ref="332915198"/>
    <tag k="created_by" v="Potlatch 0.10f"/>
    <tag k="highway" v="track"/>
    <tag k="maxspeed" v="30"/>
    <tag k="note" v="checkit"/>
    <tag k="source" v="yahoo"/>
    <tag k="tracktype" v="grade1"/>
  </way>
  <way id="30209423" version="3" timestamp="2009-04-13T17:48:41Z" uid="49111" user="Markus B" changeset="490011"/>
  <way id="30209500" version="9" timestamp="2010-03-07T10:45:01Z" uid="58091" user="Andreas M" changeset="4059427">
    <nd ref="332915877"/>
    <nd ref="332915878"/>
    <nd ref="332915879"/>
    <nd ref="332915880"/>
    <nd ref="332915881"/>
    <nd ref="332915882"/>
    <nd ref="332915883"/>
    <nd ref="332906541"/>
    <nd ref="332915884"/>
    <nd ref="332852655"/>
    <nd ref="332915885"/>
    <nd ref="332915886"/>
    <nd ref="332915887"/>
    <nd ref="332915888"/>
    <nd ref="332915889"/>
    <nd ref="332908446"/>
    <nd ref="332915890"/>
    <nd ref="332915891"/>
    <nd ref="332915892"/>
    <nd ref="332915893"/>
    <tag k="fixme" v="check import"/>
    <tag k="highway" v="residential"/>
    <tag k="is_in:city" v="Bad Pirawarth"/>
    <tag k="is_in:country_code" v="AT"/>
    <tag k="name" v="Föhrenwaldstraße"/>
    <tag k="postal_code" v="2222"/>
  </way>
  <way id="30209500" version="10" timestamp="2010-03-17T21:16:17Z" uid="53306" user="Wolfgang B" changeset="4156988">
    <nd ref="332915877"/>
    <nd ref="332915878"/>
    <nd ref="332915879"/>
    <nd ref="332915880"/>
    <nd ref="332915881"/>
    <nd ref="332915882"/>
    <nd ref="332915883"/>
    <nd ref="332906541"/>
    <nd ref="332915884"/>
    <nd ref="668193613"/>
    <tag k="fixme" v="check import"/>
    <tag k="highway" v="residential"/>
    <tag k="is_in:city" v="Bad Pirawarth"/>
    <tag k="is_in:country_code" v="AT"/>
    <tag k="name" v="Föhrenwaldstraße"/>
    <tag k="postal_code" v="2222"/>
  </way>
  <way id="30209502" version="9" timestamp="2010-03-07T10:45:10Z" uid="58091" user="Andreas M" changeset="4059427">
    <nd ref="335455994"/>
    <nd ref="332915906"/>
    <nd ref="332915907"/>
    <nd ref="255278934"/>
    <nd ref="335524492"/>
    <tag k="fixme" v="check import"/>
    <tag k="highway" v="residential"/>
    <tag k="is_in:city" v="Bad Pirawarth"/>
    <tag k="is_in:country_code" v="AT"/>
    <tag k="name" v="Kurhausstraße"/>
    <tag k="postal_code" v="2222"/>
    <tag k="source" v="plan.at 2009"/>
  </way>
  <way id="30209502" version="10" timestamp="2010-03-17T21:16:28Z" uid="53306" user="Wolfgang B" changeset="4156988">
    <nd ref="335455994"/>
    <nd ref="332915906"/>
    <nd ref="332915907"/>
    <nd ref="255278934"/>
    <nd ref="668193667"/>
    <tag k="fixme" v="check import"/>
    <tag k="highway" v="residential"/>
    <tag k="is_in:city" v="Bad Pirawarth"/>
    <tag k="is_in:country_code" v="AT"/>
    <tag k="name" v="Kurhausstraße"/>
    <tag k="postal_code" v="2222"/>
    <tag k="source" v="plan.at 2009"/>
  </way>
  <way id="30209502" version="11" timestamp="2010-11-28T18:01:19Z" uid="3486" user="priwo" changeset="6480563">
    <nd ref="335455994"/>
    <nd ref="332915906"/>
    <nd ref="332915907"/>
    <nd ref="255278934"/>
    <nd ref="668193667"/>
    <tag k="highway" v="residential"/>
    <tag k="is_in:city" v="Bad Pirawarth"/>
    <tag k="is_in:country_code" v="AT"/>
    <tag k="postal_code" v="2222"/>
    <tag k="source" v="plan.at 2009"/>
  </way>
  <way id="30209502" version="12" timestamp="2010-11-28T18:01:28Z" uid="3486" user="priwo" changeset="6480563">
    <nd ref="335455994"/>
    <nd ref="332915906"/>
    <tag k="highway" v="residential"/>
    <tag k="is_in:city" v="Bad Pirawarth"/>
    <tag k="is_in:country_code" v="AT"/>
    <tag k="postal_code" v="2222"/>
    <tag k="source" v="plan.at 2009"/>
  </way>
  <way id="30209502" version="13" timestamp="2010-11-28T18:03:48Z" uid="3486" user="priwo" changeset="6480563"/>
  <way id="30209508" version="6" timestamp="2010-03-07T10:45:05Z" uid="58091" user="Andreas M" changeset="4059427">
    <nd ref="332915933"/>
    <nd ref="332915934"/>
    <nd ref="332915935"/>
    <nd ref="332915936"/>
    <nd ref="332915937"/>
    <nd ref="332915938"/>
    <nd ref="31439221"/>
    <tag k="fixme" v="check import"/>
    <tag k="highway" v="residential"/>
    <tag k="is_in:city" v="Bad Pirawarth"/>
    <tag k="is_in:country_code" v="AT"/>
    <tag k="name" v="Feldgasse"/>
    <tag k="postal_code" v="2222"/>
    <tag k="source" v="plan.at 2009"/>
  </way>
  <way id="30209511" version="7" timestamp="2010-03-07T10:45:07Z" uid="58091" user="Andreas M" changeset="4059427">
    <nd ref="31439197"/>
    <nd ref="332915951"/>
    <nd ref="332915952"/>
    <nd ref="332915953"/>
    <nd ref="332915954"/>
    <nd ref="332915955"/>
    <nd ref="332915956"/>
    <nd ref="332910681"/>
    <nd ref="332915957"/>
    <nd ref="246738726"/>
    <nd ref="332915958"/>
    <nd ref="332915959"/>
    <nd ref="332915960"/>
    <nd ref="332915961"/>
    <nd ref="332915962"/>
    <nd ref="332915963"/>
    <nd ref="332909995"/>
    <nd ref="332915964"/>
    <nd ref="332906462"/>
    <tag k="fixme" v="check import"/>
    <tag k="highway" v="residential"/>
    <tag k="is_in:city" v="Bad Pirawarth"/>
    <tag k="name" v="Fasangasse"/>
    <tag k="plan_at:acad_id" v="gf1D96"/>
    <tag k="postal_code" v="2222"/>
    <tag k="source" v="plan.at 2009"/>
  </way>
  <way id="30209511" version="8" timestamp="2010-05-27T19:15:50Z" uid="47064" user="7503146" changeset="4825064">
    <nd ref="31439197"/>
    <nd ref="332915951"/>
    <nd ref="332915952"/>
    <nd ref="332915953"/>
    <nd ref="332915954"/>
    <nd ref="332915955"/>
    <nd ref="332915956"/>
    <nd ref="332910681"/>
    <nd ref="332915957"/>
    <nd ref="246738726"/>
    <nd ref="332915958"/>
    <nd ref="332915959"/>
    <nd ref="332915960"/>
    <nd ref="332915961"/>
    <nd ref="332915962"/>
    <nd ref="332915963"/>
    <nd ref="332909995"/>
    <nd ref="332915964"/>
    <nd ref="332906462"/>
    <tag k="fixme" v="check import"/>
    <tag k="highway" v="residential"/>
    <tag k="is_in:city" v="Bad Pirawarth"/>
    <tag k="name" v="Fasangasse"/>
    <tag k="postal_code" v="2222"/>
    <tag k="source" v="plan.at 2009"/>
  </way>
  <way id="30209511" version="9" timestamp="2010-11-06T12:43:00Z" uid="12295" user="mapper_07" changeset="6302072">
    <nd ref="31439197"/>
    <nd ref="332915951"/>
    <nd ref="332915952"/>
    <nd ref="332915953"/>
    <nd ref="332915954"/>
    <nd ref="332915955"/>
    <nd ref="332915956"/>
    <nd ref="332910681"/>
    <nd ref="978853648"/>
    <nd ref="332915957"/>
    <nd ref="246738726"/>
    <nd ref="332915958"/>
    <nd ref="332915959"/>
    <nd ref="332915960"/>
    <nd ref="332915961"/>
    <nd ref="332915962"/>
    <nd ref="332915963"/>
    <nd ref="332909995"/>
    <nd ref="332915964"/>
    <nd ref="332906462"/>
    <tag k="fixme" v="check import"/>
    <tag k="highway" v="residential"/>
    <tag k="is_in:city" v="Bad Pirawarth"/>
    <tag k="name" v="Fasangasse"/>
    <tag k="postal_code" v="2222"/>
    <tag k="source" v="plan.at 2009"/>
  </way>
  <way id="30209511" version="10" timestamp="2010-12-12T11:34:52Z" uid="12295" user="mapper_07" changeset="6634818">
    <nd ref="31439197"/>
    <nd ref="332915951"/>
    <nd ref="332915952"/>
    <nd ref="332915953"/>
    <nd ref="332915954"/>
    <nd ref="332915955"/>
    <nd ref="332915956"/>
    <tag k="access" v="destination"/>
    <tag k="fixme" v="check import"/>
    <tag k="highway" v="residential"/>
    <tag k="is_in:city" v="Bad Pirawarth"/>
    <tag k="name" v="Fasangasse"/>
    <tag k="postal_code" v="2222"/>
    <tag k="source" v="plan.at 2009"/>
  </way>
  <way id="30209511" version="11" timestamp="2011-07-28T05:22:10Z" uid="12295" user="mapper_07" changeset="8851004">
    <nd ref="31439197"/>
    <nd ref="1376430545"/>
    <nd ref="332915951"/>
    <nd ref="332915952"/>
    <nd ref="332915953"/>
    <nd ref="332915954"/>
    <nd ref="332915955"/>
    <nd ref="332915956"/>
    <tag k="access" v="destination"/>
    <tag k="fixme" v="check import"/>
    <tag k="highway" v="residential"/>
    <tag k="is_in:city" v="Bad Pirawarth"/>
    <tag k="name" v="Fasangasse"/>
    <tag k="postal_code" v="2222"/>
    <tag k="source" v="plan.at 2009"/>
  </way>
  <way id="30209662" version="5" timestamp="2010-03-07T10:45:09Z" uid="58091" user="Andreas M" changeset="4059427">
    <nd ref="332910617"/>
    <nd ref="332917080"/>
    <nd ref="332917081"/>
    <nd ref="332852603"/>
    <nd ref="332917082"/>
    <nd ref="332913182"/>
    <tag k="fixme" v="check import"/>
    <tag k="highway" v="residential"/>
    <tag k="is_in:city" v="Bad Pirawarth"/>
    <tag k="is_in:country_code" v="AT"/>
    <tag k="name" v="Brundlgasse"/>
    <tag k="postal_code" v="2222"/>
    <tag k="source" v="plan.at 2009"/>
  </way>
  <way id="30209662" version="6" timestamp="2010-03-17T21:16:30Z" uid="53306" user="Wolfgang B" changeset="4156988">
    <nd ref="332910617"/>
    <nd ref="332917080"/>
    <nd ref="332917081"/>
    <tag k="fixme" v="check import"/>
    <tag k="highway" v="residential"/>
    <tag k="is_in:city" v="Bad Pirawarth"/>
    <tag k="is_in:country_code" v="AT"/>
    <tag k="name" v="Brundlgasse"/>
    <tag k="postal_code" v="2222"/>
    <tag k="source" v="plan.at 2009"/>
  </way>
  <way id="30209662" version="7" timestamp="2011-07-28T05:22:07Z" uid="12295" user="mapper_07" changeset="8851004">
    <nd ref="332910617"/>
    <nd ref="332917080"/>
    <nd ref="1376430534"/>
    <nd ref="332917081"/>
    <tag k="fixme" v="check import"/>
    <tag k="highway" v="residential"/>
    <tag k="is_in:city" v="Bad Pirawarth"/>
    <tag k="is_in:country_code" v="AT"/>
    <tag k="name" v="Brundlgasse"/>
    <tag k="postal_code" v="2222"/>
    <tag k="source" v="plan.at 2009"/>
  </way>
  <way id="30209672" version="6" timestamp="2010-03-07T10:45:05Z" uid="58091" user="Andreas M" changeset="4059427">
    <nd ref="31439221"/>
    <nd ref="332917137"/>
    <nd ref="332917138"/>
    <nd ref="332917139"/>
    <nd ref="332917140"/>
    <nd ref="332915877"/>
    <nd ref="332917141"/>
    <nd ref="332917142"/>
    <tag k="fixme" v="check import"/>
    <tag k="highway" v="residential"/>
    <tag k="is_in:city" v="Bad Pirawarth"/>
    <tag k="name" v="Bahnstraße"/>
    <tag k="postal_code" v="2222"/>
    <tag k="source" v="plan.at 2009"/>
  </way>
  <way id="30209672" version="7" timestamp="2010-11-06T13:59:41Z" uid="12295" user="mapper_07" changeset="6302636">
    <nd ref="31439221"/>
    <nd ref="332917137"/>
    <nd ref="332917138"/>
    <nd ref="332917139"/>
    <nd ref="332917140"/>
    <nd ref="332915877"/>
    <nd ref="979020819"/>
    <nd ref="332917141"/>
    <nd ref="332917142"/>
    <tag k="fixme" v="check import"/>
    <tag k="highway" v="residential"/>
    <tag k="is_in:city" v="Bad Pirawarth"/>
    <tag k="name" v="Bahnstraße"/>
    <tag k="postal_code" v="2222"/>
    <tag k="source" v="plan.at 2009"/>
  </way>
  <way id="30209672" version="8" timestamp="2010-12-08T11:45:04Z" uid="12295" user="mapper_07" changeset="6584295">
    <nd ref="31439221"/>
    <nd ref="332917137"/>
    <nd ref="332917138"/>
    <nd ref="332917139"/>
    <nd ref="332917140"/>
    <nd ref="332915877"/>
    <nd ref="979020819"/>
    <nd ref="332917141"/>
    <nd ref="332917142"/>
    <tag k="highway" v="residential"/>
    <tag k="is_in:city" v="Bad Pirawarth"/>
    <tag k="name" v="Bahnstraße"/>
    <tag k="postal_code" v="2222"/>
  </way>
  <way id="30209714" version="6" timestamp="2010-03-07T10:45:08Z" uid="58091" user="Andreas M" changeset="4059427">
    <nd ref="332906657"/>
    <nd ref="332917471"/>
    <nd ref="332913087"/>
    <tag k="fixme" v="check import"/>
    <tag k="highway" v="residential"/>
    <tag k="is_in:city" v="Bad Pirawarth"/>
    <tag k="is_in:country_code" v="AT"/>
    <tag k="name" v="Kurhausstraße"/>
    <tag k="postal_code" v="2222"/>
    <tag k="source" v="plan.at 2009"/>
  </way>
  <way id="30209714" version="7" timestamp="2010-11-28T18:12:45Z" uid="3486" user="priwo" changeset="6480563">
    <nd ref="332906657"/>
    <nd ref="332917471"/>
    <nd ref="332913087"/>
    <tag k="fixme" v="check import"/>
    <tag k="highway" v="residential"/>
    <tag k="is_in:city" v="Bad Pirawarth"/>
    <tag k="is_in:country_code" v="AT"/>
    <tag k="postal_code" v="2222"/>
    <tag k="source" v="plan.at 2009"/>
  </way>
  <way id="30209714" version="8" timestamp="2010-12-08T13:38:59Z" uid="12295" user="mapper_07" changeset="6585237">
    <nd ref="332906657"/>
    <nd ref="332917471"/>
    <nd ref="1028023492"/>
    <nd ref="332913087"/>
    <tag k="fixme" v="check import"/>
    <tag k="highway" v="residential"/>
    <tag k="is_in:city" v="Bad Pirawarth"/>
    <tag k="is_in:country_code" v="AT"/>
    <tag k="postal_code" v="2222"/>
    <tag k="source" v="plan.at 2009"/>
  </way>
  <way id="30209714" version="9" timestamp="2010-12-12T11:34:50Z" uid="12295" user="mapper_07" changeset="6634818">
    <nd ref="332906657"/>
    <nd ref="1035501743"/>
    <nd ref="332917471"/>
    <nd ref="1028023492"/>
    <nd ref="332913087"/>
    <tag k="fixme" v="check import"/>
    <tag k="highway" v="residential"/>
    <tag k="is_in:city" v="Bad Pirawarth"/>
    <tag k="is_in:country_code" v="AT"/>
    <tag k="postal_code" v="2222"/>
    <tag k="source" v="plan.at 2009"/>
  </way>
  <way id="30209714" version="10" timestamp="2011-07-28T05:22:24Z" uid="12295" user="mapper_07" changeset="8851004">
    <nd ref="332906657"/>
    <nd ref="1376430405"/>
    <nd ref="1035501743"/>
    <nd ref="332917471"/>
    <nd ref="1376430404"/>
    <nd ref="1028023492"/>
    <nd ref="332913087"/>
    <tag k="fixme" v="check import"/>
    <tag k="highway" v="residential"/>
    <tag k="is_in:city" v="Bad Pirawarth"/>
    <tag k="is_in:country_code" v="AT"/>
    <tag k="postal_code" v="2222"/>
    <tag k="source" v="plan.at 2009"/>
  </way>
  <way id="30209724" version="6" timestamp="2010-03-07T10:45:08Z" uid="58091" user="Andreas M" changeset="4059427">
    <nd ref="332906460"/>
    <nd ref="332917524"/>
    <nd ref="332906659"/>
    <nd ref="332917525"/>
    <nd ref="332917526"/>
    <nd ref="332917527"/>
    <nd ref="332913084"/>
    <tag k="fixme" v="check import"/>
    <tag k="highway" v="residential"/>
    <tag k="is_in:city" v="Bad Pirawarth"/>
    <tag k="is_in:country_code" v="AT"/>
    <tag k="name" v="Kurhausstraße"/>
    <tag k="postal_code" v="2222"/>
    <tag k="source" v="plan.at 2009"/>
  </way>
  <way id="30209724" version="7" timestamp="2010-12-08T13:39:17Z" uid="12295" user="mapper_07" changeset="6585237">
    <nd ref="332906460"/>
    <nd ref="332917524"/>
    <nd ref="332906659"/>
    <nd ref="1028023014"/>
    <nd ref="332913084"/>
    <tag k="fixme" v="check import"/>
    <tag k="highway" v="residential"/>
    <tag k="is_in:city" v="Bad Pirawarth"/>
    <tag k="is_in:country_code" v="AT"/>
    <tag k="name" v="Kurhausstraße"/>
    <tag k="postal_code" v="2222"/>
    <tag k="source" v="plan.at 2009"/>
  </way>
  <way id="30209724" version="8" timestamp="2011-07-28T05:22:12Z" uid="12295" user="mapper_07" changeset="8851004">
    <nd ref="332906460"/>
    <nd ref="332917524"/>
    <nd ref="1376430412"/>
    <nd ref="1376430410"/>
    <nd ref="332906659"/>
    <nd ref="1028023014"/>
    <nd ref="332913084"/>
    <tag k="fixme" v="check import"/>
    <tag k="highway" v="residential"/>
    <tag k="is_in:city" v="Bad Pirawarth"/>
    <tag k="is_in:country_code" v="AT"/>
    <tag k="name" v="Kurhausstraße"/>
    <tag k="postal_code" v="2222"/>
    <tag k="source" v="plan.at 2009"/>
  </way>
  <way id="30209744" version="6" timestamp="2010-03-07T10:45:09Z" uid="58091" user="Andreas M" changeset="4059427">
    <nd ref="332913184"/>
    <nd ref="332917686"/>
    <nd ref="332917687"/>
    <nd ref="332917688"/>
    <nd ref="332917689"/>
    <nd ref="332917691"/>
    <nd ref="332917692"/>
    <nd ref="332917693"/>
    <nd ref="332917694"/>
    <nd ref="332917695"/>
    <nd ref="332917696"/>
    <tag k="fixme" v="check import"/>
    <tag k="highway" v="residential"/>
    <tag k="is_in:city" v="Bad Pirawarth"/>
    <tag k="is_in:country_code" v="AT"/>
    <tag k="name" v="Am Kaffeeberg"/>
    <tag k="postal_code" v="2222"/>
    <tag k="source" v="plan.at 2009"/>
  </way>
  <way id="30209744" version="7" timestamp="2011-01-21T17:40:27Z" uid="45347" user="eriosw" changeset="7042624">
    <nd ref="332913184"/>
    <nd ref="332917686"/>
    <nd ref="332917687"/>
    <nd ref="332917688"/>
    <nd ref="332917689"/>
    <nd ref="332917691"/>
    <nd ref="332917692"/>
    <nd ref="332917693"/>
    <nd ref="332917694"/>
    <nd ref="332917695"/>
    <nd ref="1113397428"/>
    <nd ref="1113397420"/>
    <nd ref="1113397457"/>
    <nd ref="332917696"/>
    <tag k="highway" v="residential"/>
    <tag k="is_in:city" v="Bad Pirawarth"/>
    <tag k="is_in:country_code" v="AT"/>
    <tag k="name" v="Am Kaffeeberg"/>
    <tag k="postal_code" v="2222"/>
    <tag k="source" v="plan.at 2009"/>
  </way>
  <way id="30209744" version="8" timestamp="2012-02-21T14:18:06Z" uid="53306" user="Wolfgang B" changeset="10750547">
    <nd ref="332913184"/>
    <nd ref="332917686"/>
    <nd ref="332917687"/>
    <nd ref="332917688"/>
    <nd ref="332917689"/>
    <tag k="highway" v="residential"/>
    <tag k="is_in:city" v="Bad Pirawarth"/>
    <tag k="is_in:country_code" v="AT"/>
    <tag k="name" v="Am Kaffeeberg"/>
    <tag k="postal_code" v="2222"/>
    <tag k="source" v="plan.at 2009"/>
  </way>
  <way id="30209750" version="6" timestamp="2010-03-07T10:45:08Z" uid="58091" user="Andreas M" changeset="4059427">
    <nd ref="332906459"/>
    <nd ref="332909993"/>
    <nd ref="332917735"/>
    <nd ref="332915962"/>
    <tag k="fixme" v="check import"/>
    <tag k="highway" v="residential"/>
    <tag k="is_in:city" v="Bad Pirawarth"/>
    <tag k="is_in:country_code" v="AT"/>
    <tag k="name" v="Kurhausstraße"/>
    <tag k="postal_code" v="2222"/>
    <tag k="source" v="plan.at 2009"/>
  </way>
  <way id="30209750" version="7" timestamp="2010-12-08T13:40:05Z" uid="12295" user="mapper_07" changeset="6585237">
    <nd ref="332906459"/>
    <nd ref="332909993"/>
    <nd ref="332915962"/>
    <tag k="fixme" v="check import"/>
    <tag k="highway" v="residential"/>
    <tag k="is_in:city" v="Bad Pirawarth"/>
    <tag k="is_in:country_code" v="AT"/>
    <tag k="name" v="Kurhausstraße"/>
    <tag k="postal_code" v="2222"/>
    <tag k="source" v="plan.at 2009"/>
  </way>
  <way id="30209866" version="2" timestamp="2010-07-06T08:51:20Z" uid="74617" user="JohnSmith" changeset="5147679">
    <nd ref="269460862"/>
    <nd ref="332918521"/>
    <nd ref="332918530"/>
    <tag k="highway" v="residential"/>
    <tag k="maxspeed" v="50"/>
    <tag k="maxspeed:source" v="default residential speed limit in Australia"/>
    <tag k="name" v="Houston Street"/>
  </way>
  <way id="30209866" version="3" timestamp="2012-01-18T03:37:23Z" uid="147510" user="woodpeck_fixbot" changeset="10424025">
    <nd ref="269460862"/>
    <nd ref="332918521"/>
    <nd ref="332918530"/>
    <tag k="highway" v="residential"/>
    <tag k="name" v="Houston Street"/>
  </way>
  <way id="30209869" version="2" timestamp="2010-07-06T08:51:48Z" uid="74617" user="JohnSmith" changeset="5147679">
    <nd ref="332918567"/>
    <nd ref="332918552"/>
    <nd ref="332918539"/>
    <nd ref="332918530"/>
    <tag k="highway" v="residential"/>
    <tag k="maxspeed" v="50"/>
    <tag k="maxspeed:source" v="default residential speed limit in Australia"/>
    <tag k="name" v="Glenhurst Street"/>
  </way>
  <way id="30209869" version="3" timestamp="2012-01-18T03:37:25Z" uid="147510" user="woodpeck_fixbot" changeset="10424025">
    <nd ref="332918567"/>
    <nd ref="332918552"/>
    <nd ref="332918539"/>
    <nd ref="332918530"/>
    <tag k="highway" v="residential"/>
    <tag k="name" v="Glenhurst Street"/>
  </way>
  <way id="30209934" version="7" timestamp="2010-03-07T10:45:11Z" uid="58091" user="Andreas M" changeset="4059427">
    <nd ref="335526514"/>
    <nd ref="332919115"/>
    <nd ref="332919116"/>
    <nd ref="335459851"/>
    <tag k="fixme" v="check import"/>
    <tag k="highway" v="residential"/>
    <tag k="is_in:city" v="Kollnbrunn"/>
    <tag k="is_in:country_code" v="AT"/>
    <tag k="name" v="Am Kellerberg"/>
    <tag k="postal_code" v="2222"/>
    <tag k="source" v="plan.at 2009"/>
  </way>
  <way id="30209977" version="5" timestamp="2010-07-22T07:57:42Z" uid="4467" user="Rosscoe" changeset="5284829">
    <nd ref="332919109"/>
    <nd ref="828476234"/>
    <nd ref="332919123"/>
    <nd ref="828476123"/>
    <nd ref="332919341"/>
    <nd ref="828476276"/>
    <nd ref="332919360"/>
    <nd ref="828476145"/>
    <nd ref="332919376"/>
    <nd ref="828476387"/>
    <nd ref="332863296"/>
    <nd ref="828476174"/>
    <nd ref="332919109"/>
    <tag k="highway" v="tertiary"/>
    <tag k="junction" v="roundabout"/>
    <tag k="source" v="survey"/>
  </way>
  <way id="30209978" version="5" timestamp="2010-07-06T08:33:56Z" uid="74617" user="JohnSmith" changeset="5147679">
    <nd ref="332919129"/>
    <nd ref="332919398"/>
    <tag k="highway" v="residential"/>
    <tag k="maxspeed" v="50"/>
    <tag k="maxspeed:source" v="default residential speed limit in Australia"/>
    <tag k="name" v="Goldieslie Park"/>
    <tag k="source" v="Yahoo"/>
  </way>
  <way id="30209978" version="6" timestamp="2012-01-18T03:37:26Z" uid="147510" user="woodpeck_fixbot" changeset="10424025">
    <nd ref="332919129"/>
    <nd ref="332919398"/>
    <tag k="highway" v="residential"/>
    <tag k="name" v="Goldieslie Park"/>
    <tag k="source" v="Yahoo"/>
  </way>
  <way id="30209078" version="14" timestamp="2012-04-06T18:59:05Z" uid="18174" user="browny_au" changeset="11205699">
    <nd ref="270485503"/>
    <nd ref="332911688"/>
    <nd ref="332911689"/>
    <nd ref="332933763"/>
    <nd ref="332911690"/>
    <nd ref="332933764"/>
    <nd ref="332911692"/>
    <nd ref="332911693"/>
    <nd ref="1704926921"/>
    <tag k="highway" v="unclassified"/>
    <tag k="name" v="Cowie Close"/>
  </way>
  <way id="30209078" version="15" timestamp="2012-07-19T19:31:15Z" uid="722137" user="OSMF Redaction Account" changeset="12345040"/>
  <way id="30209201" version="12" timestamp="2012-07-16T21:47:05Z" uid="722137" user="OSMF Redaction Account" changeset="12252319">
    <nd ref="332910594"/>
    <nd ref="1641829801"/>
    <nd ref="332913101"/>
    <nd ref="332913102"/>
    <nd ref="1641829877"/>
    <nd ref="332913103"/>
    <nd ref="1219072149"/>
    <nd ref="1641829864"/>
    <nd ref="332913105"/>
    <tag k="addr:city" v="Bad Pirawarth"/>
    <tag k="addr:postcode" v="2222"/>
    <tag k="addr:street" v="Kurhausstraße"/>
    <tag k="highway" v="residential"/>
    <tag k="maxspeed" v="30"/>
    <tag k="source" v="survey"/>
  </way>
  <way id="30209205" version="8" timestamp="2012-05-09T20:26:38Z" uid="45756" user="magellan" changeset="11553187">
    <nd ref="332908446"/>
    <nd ref="332913122"/>
    <nd ref="332913125"/>
    <nd ref="1219024306"/>
    <nd ref="1219024401"/>
    <nd ref="332915896"/>
    <tag k="addr:city" v="Bad Pirawarth"/>
    <tag k="addr:country" v="AT"/>
    <tag k="addr:postcode" v="2222"/>
    <tag k="fixme" v="check import"/>
    <tag k="highway" v="residential"/>
    <tag k="name" v="Konstantinhügel"/>
    <tag k="source" v="plan.at 2009"/>
  </way>
  <way id="30209205" version="9" timestamp="2012-05-31T19:22:56Z" uid="474183" user="ratrun" changeset="11761165">
    <nd ref="332908446"/>
    <nd ref="332913122"/>
    <nd ref="332913125"/>
    <nd ref="1219024306"/>
    <nd ref="1219024401"/>
    <nd ref="1771732010"/>
    <nd ref="332915896"/>
    <tag k="addr:city" v="Bad Pirawarth"/>
    <tag k="addr:country" v="AT"/>
    <tag k="addr:postcode" v="2222"/>
    <tag k="highway" v="residential"/>
    <tag k="name" v="Konstantinhügel"/>
    <tag k="source" v="plan.at 2009,geoimage.at"/>
  </way>
  <way id="30209205" version="10" timestamp="2012-07-16T21:47:00Z" uid="722137" user="OSMF Redaction Account" changeset="12252319">
    <nd ref="332908446"/>
    <nd ref="332913122"/>
    <nd ref="332913125"/>
    <nd ref="1219024306"/>
    <nd ref="1219024401"/>
    <nd ref="1771732010"/>
    <nd ref="332915896"/>
    <tag k="addr:city" v="Bad Pirawarth"/>
    <tag k="addr:country" v="AT"/>
    <tag k="addr:postcode" v="2222"/>
    <tag k="addr:street" v="Konstantinhügel"/>
    <tag k="highway" v="residential"/>
    <tag k="source" v="plan.at 2009,geoimage.at"/>
  </way>
  <way id="30209216" version="14" timestamp="2012-07-16T21:47:06Z" uid="722137" user="OSMF Redaction Account" changeset="12252319">
    <nd ref="332913182"/>
    <nd ref="332913181"/>
    <tag k="addr:country" v="AT"/>
    <tag k="addr:postcode" v="2222"/>
    <tag k="addr:street" v="Kirchengasse"/>
    <tag k="highway" v="residential"/>
    <tag k="maxspeed" v="30"/>
    <tag k="source" v="survey"/>
  </way>
  <way id="30209217" version="6" timestamp="2012-05-10T06:13:27Z" uid="45756" user="magellan" changeset="11555569">
    <nd ref="332913091"/>
    <nd ref="332913187"/>
    <nd ref="332913188"/>
    <nd ref="332913189"/>
    <nd ref="332913190"/>
    <tag k="fixme" v="check import"/>
    <tag k="highway" v="residential"/>
    <tag k="is_in:city" v="Bad Pirawarth"/>
    <tag k="is_in:country_code" v="AT"/>
    <tag k="name" v="Kellerweg"/>
    <tag k="postal_code" v="2222"/>
    <tag k="source" v="plan.at 2009"/>
  </way>
  <way id="30209217" version="7" timestamp="2012-05-31T19:22:53Z" uid="474183" user="ratrun" changeset="11761165">
    <nd ref="332913091"/>
    <nd ref="332913187"/>
    <nd ref="332913188"/>
    <nd ref="1771732012"/>
    <nd ref="332913189"/>
    <nd ref="332913190"/>
    <tag k="highway" v="residential"/>
    <tag k="is_in:city" v="Bad Pirawarth"/>
    <tag k="is_in:country_code" v="AT"/>
    <tag k="name" v="Kellerweg"/>
    <tag k="postal_code" v="2222"/>
    <tag k="source" v="plan.at 2009,geoimage.at"/>
  </way>
  <way id="30209217" version="8" timestamp="2012-07-16T21:47:02Z" uid="722137" user="OSMF Redaction Account" changeset="12252319">
    <nd ref="332913091"/>
    <nd ref="332913187"/>
    <nd ref="332913188"/>
    <nd ref="1771732012"/>
    <nd ref="332913189"/>
    <nd ref="332913190"/>
    <tag k="addr:city" v="Bad Pirawarth"/>
    <tag k="addr:country" v="AT"/>
    <tag k="addr:postcode" v="2222"/>
    <tag k="addr:street" v="Kellerweg"/>
    <tag k="highway" v="residential"/>
    <tag k="source" v="plan.at 2009,geoimage.at"/>
  </way>
  <way id="30209334" version="6" timestamp="2012-07-30T17:03:12Z" uid="18174" user="browny_au" changeset="12550699">
    <nd ref="1844256021"/>
    <nd ref="270727597"/>
    <tag k="highway" v="residential"/>
    <tag k="name" v="Pascoe Street"/>
  </way>
  <way id="30209346" version="11" timestamp="2012-05-05T17:22:57Z" uid="45756" user="magellan" changeset="11510280">
    <nd ref="332913091"/>
    <nd ref="332914404"/>
    <nd ref="1741735910"/>
    <nd ref="332914405"/>
    <nd ref="332914406"/>
    <nd ref="31439221"/>
    <tag k="highway" v="residential"/>
    <tag k="is_in:city" v="Bad Pirawarth"/>
    <tag k="is_in:country_code" v="AT"/>
    <tag k="name" v="Herrengasse"/>
    <tag k="postal_code" v="2222"/>
    <tag k="source" v="plan.at 2009"/>
  </way>
  <way id="30209346" version="12" timestamp="2012-07-16T21:47:02Z" uid="722137" user="OSMF Redaction Account" changeset="12252319">
    <nd ref="332913091"/>
    <nd ref="332914404"/>
    <nd ref="1741735910"/>
    <nd ref="332914405"/>
    <nd ref="332914406"/>
    <nd ref="31439221"/>
    <tag k="addr:city" v="Bad Pirawarth"/>
    <tag k="addr:country" v="AT"/>
    <tag k="addr:postcode" v="2222"/>
    <tag k="addr:street" v="Kurhausstraße"/>
    <tag k="highway" v="residential"/>
    <tag k="name" v="Herrengasse"/>
    <tag k="source" v="plan.at 2009"/>
  </way>
  <way id="30209500" version="11" timestamp="2012-05-09T20:29:54Z" uid="45756" user="magellan" changeset="11553226">
    <nd ref="332915877"/>
    <nd ref="332915878"/>
    <nd ref="332915879"/>
    <nd ref="332915880"/>
    <nd ref="332915882"/>
    <nd ref="332906541"/>
    <nd ref="332915884"/>
    <nd ref="668193613"/>
    <tag k="addr:city" v="Bad Pirawarth"/>
    <tag k="addr:country" v="AT"/>
    <tag k="addr:postcode" v="2222"/>
    <tag k="highway" v="residential"/>
    <tag k="name" v="Föhrenwaldstraße"/>
  </way>
  <way id="30209500" version="12" timestamp="2012-07-16T21:47:01Z" uid="722137" user="OSMF Redaction Account" changeset="12252319">
    <nd ref="332915877"/>
    <nd ref="332915878"/>
    <nd ref="332915879"/>
    <nd ref="332915880"/>
    <nd ref="332915882"/>
    <nd ref="332906541"/>
    <nd ref="332915884"/>
    <nd ref="668193613"/>
    <tag k="addr:city" v="Bad Pirawarth"/>
    <tag k="addr:country" v="AT"/>
    <tag k="addr:postcode" v="2222"/>
    <tag k="addr:street" v="Föhrenwaldstraße"/>
    <tag k="highway" v="residential"/>
  </way>
  <way id="30209508" version="7" timestamp="2012-05-31T19:22:41Z" uid="474183" user="ratrun" changeset="11761165">
    <nd ref="332915933"/>
    <nd ref="332915934"/>
    <nd ref="332915935"/>
    <nd ref="332915936"/>
    <nd ref="332915937"/>
    <nd ref="332915938"/>
    <nd ref="31439221"/>
    <tag k="highway" v="residential"/>
    <tag k="is_in:city" v="Bad Pirawarth"/>
    <tag k="is_in:country_code" v="AT"/>
    <tag k="name" v="Feldgasse"/>
    <tag k="postal_code" v="2222"/>
    <tag k="source" v="plan.at 2009,geoimage.at"/>
  </way>
  <way id="30209508" version="8" timestamp="2012-07-16T21:47:01Z" uid="722137" user="OSMF Redaction Account" changeset="12252319">
    <nd ref="332915933"/>
    <nd ref="332915934"/>
    <nd ref="332915935"/>
    <nd ref="332915936"/>
    <nd ref="332915937"/>
    <nd ref="332915938"/>
    <nd ref="31439221"/>
    <tag k="addr:city" v="Bad Pirawarth"/>
    <tag k="addr:country" v="AT"/>
    <tag k="addr:postcode" v="2222"/>
    <tag k="addr:street" v="Feldgasse"/>
    <tag k="highway" v="residential"/>
    <tag k="source" v="plan.at 2009,geoimage.at"/>
  </way>
  <way id="30209511" version="12" timestamp="2012-05-31T19:22:41Z" uid="474183" user="ratrun" changeset="11761165">
    <nd ref="31439197"/>
    <nd ref="1376430545"/>
    <nd ref="332915951"/>
    <nd ref="332915952"/>
    <nd ref="332915953"/>
    <nd ref="332915954"/>
    <nd ref="332915955"/>
    <nd ref="332915956"/>
    <tag k="access" v="destination"/>
    <tag k="highway" v="residential"/>
    <tag k="is_in:city" v="Bad Pirawarth"/>
    <tag k="name" v="Fasangasse"/>
    <tag k="postal_code" v="2222"/>
    <tag k="source" v="plan.at 2009,bing"/>
  </way>
  <way id="30209511" version="13" timestamp="2012-07-16T21:47:06Z" uid="722137" user="OSMF Redaction Account" changeset="12252319">
    <nd ref="31439197"/>
    <nd ref="1376430545"/>
    <nd ref="332915951"/>
    <nd ref="332915952"/>
    <nd ref="332915953"/>
    <nd ref="332915954"/>
    <nd ref="332915955"/>
    <nd ref="332915956"/>
    <tag k="access" v="destination"/>
    <tag k="addr:city" v="Bad Pirawarth"/>
    <tag k="addr:postcode" v="2222"/>
    <tag k="addr:street" v="Fasangasse"/>
    <tag k="highway" v="residential"/>
    <tag k="source" v="plan.at 2009,bing"/>
  </way>
  <way id="30209662" version="8" timestamp="2012-05-31T19:22:37Z" uid="474183" user="ratrun" changeset="11761165">
    <nd ref="332910617"/>
    <nd ref="332917080"/>
    <nd ref="1376430534"/>
    <nd ref="332917081"/>
    <tag k="highway" v="residential"/>
    <tag k="is_in:city" v="Bad Pirawarth"/>
    <tag k="is_in:country_code" v="AT"/>
    <tag k="name" v="Brundlgasse"/>
    <tag k="postal_code" v="2222"/>
    <tag k="source" v="plan.at 2009,bing"/>
  </way>
  <way id="30209662" version="9" timestamp="2012-07-16T21:47:06Z" uid="722137" user="OSMF Redaction Account" changeset="12252319">
    <nd ref="332910617"/>
    <nd ref="332917080"/>
    <nd ref="1376430534"/>
    <nd ref="332917081"/>
    <tag k="addr:city" v="Bad Pirawarth"/>
    <tag k="addr:country" v="AT"/>
    <tag k="addr:postcode" v="2222"/>
    <tag k="addr:street" v="Brundlgasse"/>
    <tag k="highway" v="residential"/>
    <tag k="source" v="plan.at 2009,bing"/>
  </way>
  <way id="30209672" version="9" timestamp="2012-07-16T21:47:02Z" uid="722137" user="OSMF Redaction Account" changeset="12252319">
    <nd ref="31439221"/>
    <nd ref="332917137"/>
    <nd ref="332917138"/>
    <nd ref="332917139"/>
    <nd ref="332917140"/>
    <nd ref="332915877"/>
    <nd ref="979020819"/>
    <nd ref="332917141"/>
    <nd ref="332917142"/>
    <tag k="addr:city" v="Bad Pirawarth"/>
    <tag k="addr:postcode" v="2222"/>
    <tag k="addr:street" v="Bahnstraße"/>
    <tag k="highway" v="residential"/>
  </way>
  <way id="30209714" version="11" timestamp="2012-05-31T19:23:33Z" uid="474183" user="ratrun" changeset="11761165">
    <nd ref="332906657"/>
    <nd ref="1376430405"/>
    <nd ref="1035501743"/>
    <nd ref="332917471"/>
    <nd ref="1376430404"/>
    <nd ref="1028023492"/>
    <nd ref="332913087"/>
    <tag k="highway" v="residential"/>
    <tag k="is_in:city" v="Bad Pirawarth"/>
    <tag k="is_in:country_code" v="AT"/>
    <tag k="postal_code" v="2222"/>
    <tag k="source" v="plan.at 2009,bing"/>
  </way>
  <way id="30209714" version="12" timestamp="2012-07-16T21:47:03Z" uid="722137" user="OSMF Redaction Account" changeset="12252319">
    <nd ref="332906657"/>
    <nd ref="1376430405"/>
    <nd ref="1035501743"/>
    <nd ref="332917471"/>
    <nd ref="1376430404"/>
    <nd ref="1028023492"/>
    <nd ref="332913087"/>
    <tag k="addr:city" v="Bad Pirawarth"/>
    <tag k="addr:country" v="AT"/>
    <tag k="addr:postcode" v="2222"/>
    <tag k="addr:street" v="Kurhausstraße"/>
    <tag k="highway" v="residential"/>
    <tag k="source" v="plan.at 2009,bing"/>
  </way>
  <way id="30209724" version="9" timestamp="2012-05-31T19:22:58Z" uid="474183" user="ratrun" changeset="11761165">
    <nd ref="332906460"/>
    <nd ref="332917524"/>
    <nd ref="1376430412"/>
    <nd ref="1376430410"/>
    <nd ref="332906659"/>
    <nd ref="1028023014"/>
    <nd ref="332913084"/>
    <tag k="highway" v="residential"/>
    <tag k="is_in:city" v="Bad Pirawarth"/>
    <tag k="is_in:country_code" v="AT"/>
    <tag k="name" v="Kurhausstraße"/>
    <tag k="postal_code" v="2222"/>
    <tag k="source" v="plan.at 2009,bing"/>
  </way>
  <way id="30209724" version="10" timestamp="2012-07-16T21:47:04Z" uid="722137" user="OSMF Redaction Account" changeset="12252319">
    <nd ref="332906460"/>
    <nd ref="332917524"/>
    <nd ref="1376430412"/>
    <nd ref="1376430410"/>
    <nd ref="332906659"/>
    <nd ref="1028023014"/>
    <nd ref="332913084"/>
    <tag k="addr:city" v="Bad Pirawarth"/>
    <tag k="addr:country" v="AT"/>
    <tag k="addr:postcode" v="2222"/>
    <tag k="addr:street" v="Kurhausstraße"/>
    <tag k="highway" v="residential"/>
    <tag k="source" v="plan.at 2009,bing"/>
  </way>
  <way id="30209744" version="9" timestamp="2012-07-16T21:47:05Z" uid="722137" user="OSMF Redaction Account" changeset="12252319">
    <nd ref="332913184"/>
    <nd ref="332917686"/>
    <nd ref="332917687"/>
    <nd ref="332917688"/>
    <nd ref="332917689"/>
    <tag k="addr:city" v="Bad Pirawarth"/>
    <tag k="addr:country" v="AT"/>
    <tag k="addr:postcode" v="2222"/>
    <tag k="addr:street" v="Am Kaffeeberg"/>
    <tag k="highway" v="residential"/>
    <tag k="source" v="plan.at 2009"/>
  </way>
  <way id="30209750" version="8" timestamp="2012-05-31T19:22:58Z" uid="474183" user="ratrun" changeset="11761165">
    <nd ref="332906459"/>
    <nd ref="332909993"/>
    <nd ref="332915962"/>
    <tag k="highway" v="residential"/>
    <tag k="is_in:city" v="Bad Pirawarth"/>
    <tag k="is_in:country_code" v="AT"/>
    <tag k="name" v="Kurhausstraße"/>
    <tag k="postal_code" v="2222"/>
    <tag k="source" v="plan.at 2009,bing"/>
  </way>
  <way id="30209750" version="9" timestamp="2012-07-16T21:47:03Z" uid="722137" user="OSMF Redaction Account" changeset="12252319">
    <nd ref="332906459"/>
    <nd ref="332909993"/>
    <nd ref="332915962"/>
    <tag k="addr:city" v="Bad Pirawarth"/>
    <tag k="addr:country" v="AT"/>
    <tag k="addr:postcode" v="2222"/>
    <tag k="addr:street" v="Kurhausstraße"/>
    <tag k="highway" v="residential"/>
    <tag k="source" v="plan.at 2009,bing"/>
  </way>
  <way id="30209866" version="4" timestamp="2012-07-20T07:31:12Z" uid="735" user="blackadder" changeset="12366179">
    <nd ref="269460862"/>
    <nd ref="1831776045"/>
    <nd ref="332918521"/>
    <nd ref="332918530"/>
    <tag k="highway" v="residential"/>
    <tag k="name" v="Houston Street"/>
  </way>
  <way id="30209869" version="4" timestamp="2012-07-20T07:31:11Z" uid="735" user="blackadder" changeset="12366179">
    <nd ref="332918567"/>
    <nd ref="332918539"/>
    <nd ref="332918530"/>
    <tag k="highway" v="residential"/>
    <tag k="name" v="Glenhurst Street"/>
  </way>
  <way id="30209934" version="8" timestamp="2012-05-31T19:22:33Z" uid="474183" user="ratrun" changeset="11761165">
    <nd ref="267224195"/>
    <nd ref="1771732045"/>
    <nd ref="1771732043"/>
    <nd ref="1771732040"/>
    <nd ref="1771732037"/>
    <nd ref="332919115"/>
    <nd ref="332919116"/>
    <nd ref="1771732034"/>
    <nd ref="335459851"/>
    <tag k="highway" v="residential"/>
    <tag k="is_in:city" v="Kollnbrunn"/>
    <tag k="is_in:country_code" v="AT"/>
    <tag k="name" v="Am Kellerberg"/>
    <tag k="postal_code" v="2222"/>
    <tag k="source" v="plan.at 2009,bing"/>
  </way>
  <way id="30209934" version="9" timestamp="2012-07-16T21:47:09Z" uid="722137" user="OSMF Redaction Account" changeset="12252319">
    <nd ref="267224195"/>
    <nd ref="1771732045"/>
    <nd ref="1771732043"/>
    <nd ref="1771732040"/>
    <nd ref="1771732037"/>
    <nd ref="332919115"/>
    <nd ref="332919116"/>
    <nd ref="1771732034"/>
    <nd ref="335459851"/>
    <tag k="addr:city" v="Kollnbrunn"/>
    <tag k="addr:country" v="AT"/>
    <tag k="addr:postcode" v="2222"/>
    <tag k="addr:street" v="Am Kellerberg"/>
    <tag k="highway" v="residential"/>
    <tag k="source" v="plan.at 2009,bing"/>
  </way>
  <way id="30209977" version="6" timestamp="2012-07-19T15:37:06Z" uid="722137" user="OSMF Redaction Account" changeset="12335506">
    <nd ref="332919109"/>
    <nd ref="332919123"/>
    <nd ref="332919341"/>
    <nd ref="332919360"/>
    <nd ref="332919376"/>
    <nd ref="332863296"/>
    <nd ref="332919109"/>
    <tag k="highway" v="tertiary"/>
    <tag k="junction" v="roundabout"/>
    <tag k="source" v="survey"/>
  </way>
</osm>
