<?xml version='1.0' encoding='UTF-8'?>
<osm version="0.6" generator="libosmium/2.20.0">
  <way id="30206173" version="4" timestamp="2010-03-16T10:10:25Z" uid="58091" user="Andreas M" changeset="4142055">
    <nd ref="332888826"/>
    <nd ref="332888827"/>
    <nd ref="332888829"/>
    <nd ref="332888831"/>
    <nd ref="332888833"/>
    <nd ref="332888834"/>
    <nd ref="334652273"/>
    <tag k="addr:postcode" v="3741"/>
    <tag k="at:maxspeed" v="Ortsgebiet"/>
    <tag k="created_by" v="WWWOSM 0.1"/>
    <tag k="fixme" v="check import"/>
    <tag k="highway" v="residential"/>
    <tag k="highway:plan.at:hl" v="residential"/>
    <tag k="is_in" v="...,Bezirk Hollabrunn,Niederösterreich,Österreich,Europa"/>
    <tag k="name" v="Leodagger"/>
    <tag k="note" v="imported from plan.at; (C)=CC-by-sa or oDBL; feel free to change if necessary"/>
    <tag k="plan_at:acad_id" v="hl7F4"/>
    <tag k="source" v="plan.at 2009"/>
    <tag k="uploaded_by" v="Wolfgang W. Wasserburger"/>
  </way>
  <way id="30206173" version="5" timestamp="2010-12-18T15:38:27Z" uid="342419" user="hzim" changeset="6696993">
    <nd ref="332888826"/>
    <nd ref="332888827"/>
    <nd ref="332888829"/>
    <nd ref="332888831"/>
    <nd ref="332888833"/>
    <nd ref="332888834"/>
    <nd ref="1045274300"/>
    <nd ref="1045274440"/>
    <nd ref="334652273"/>
    <tag k="addr:postcode" v="3741"/>
    <tag k="at:maxspeed" v="Ortsgebiet"/>
    <tag k="highway" v="residential"/>
    <tag k="name" v="Leodagger"/>
    <tag k="source" v="Bing"/>
  </way>
  <way id="30206173" version="6" timestamp="2011-07-26T15:36:03Z" uid="491845" user="data_at" changeset="8836923">
    <nd ref="332888826"/>
    <nd ref="332888827"/>
    <nd ref="332888829"/>
    <nd ref="332888831"/>
    <nd ref="332888833"/>
    <nd ref="332888834"/>
    <nd ref="1045274300"/>
    <nd ref="1045274440"/>
    <nd ref="334652273"/>
    <tag k="highway" v="residential"/>
    <tag k="name" v="Leodagger"/>
    <tag k="source" v="Bing"/>
  </way>
  <way id="30206176" version="4" timestamp="2010-03-16T10:10:41Z" uid="58091" user="Andreas M" changeset="4142055">
    <nd ref="332888855"/>
    <nd ref="332888857"/>
    <nd ref="332888859"/>
    <nd ref="332888861"/>
    <tag k="addr:postcode" v="3741"/>
    <tag k="at:maxspeed" v="Ortsgebiet"/>
    <tag k="created_by" v="WWWOSM 0.1"/>
    <tag k="fixme" v="check import"/>
    <tag k="highway" v="residential"/>
    <tag k="highway:plan.at:hl" v="residential"/>
    <tag k="is_in" v="...,Bezirk Hollabrunn,Niederösterreich,Österreich,Europa"/>
    <tag k="name" v="Leodagger"/>
    <tag k="note" v="imported from plan.at; (C)=CC-by-sa or oDBL; feel free to change if necessary"/>
    <tag k="plan_at:acad_id" v="hl7EE"/>
    <tag k="source" v="plan.at 2009"/>
    <tag k="uploaded_by" v="Wolfgang W. Wasserburger"/>
  </way>
  <way id="30206176" version="5" timestamp="2010-12-18T15:38:03Z" uid="342419" user="hzim" changeset="6696993">
    <nd ref="332888855"/>
    <nd ref="332888857"/>
    <nd ref="332888859"/>
    <tag k="addr:postcode" v="3741"/>
    <tag k="at:maxspeed" v="Ortsgebiet"/>
    <tag k="highway" v="residential"/>
    <tag k="name" v="Leodagger"/>
    <tag k="source" v="Bing"/>
  </way>
  <way id="30206176" version="6" timestamp="2011-07-26T15:36:03Z" uid="491845" user="data_at" changeset="8836923">
    <nd ref="332888855"/>
    <nd ref="332888857"/>
    <nd ref="332888859"/>
    <tag k="highway" v="residential"/>
    <tag k="name" v="Leodagger"/>
    <tag k="source" v="Bing"/>
  </way>
  <way id="30206178" version="5" timestamp="2010-03-16T10:10:39Z" uid="58091" user="Andreas M" changeset="4142055">
    <nd ref="332888865"/>
    <nd ref="332888866"/>
    <nd ref="332888867"/>
    <nd ref="332888869"/>
    <nd ref="332888871"/>
    <nd ref="332888873"/>
    <nd ref="332888875"/>
    <tag k="addr:postcode" v="3741"/>
    <tag k="at:maxspeed" v="Ortsgebiet"/>
    <tag k="created_by" v="WWWOSM 0.1"/>
    <tag k="fixme" v="check import"/>
    <tag k="highway" v="residential"/>
    <tag k="highway:plan.at:hl" v="residential"/>
    <tag k="is_in" v="...,Bezirk Hollabrunn,Niederösterreich,Österreich,Europa"/>
    <tag k="note" v="imported from plan.at; (C)=CC-by-sa or oDBL; feel free to change if necessary"/>
    <tag k="plan_at:acad_id" v="hl7EB"/>
    <tag k="source" v="plan.at 2009"/>
    <tag k="uploaded_by" v="Wolfgang W. Wasserburger"/>
  </way>
  <way id="30206178" version="6" timestamp="2010-11-13T16:02:27Z" uid="342419" user="hzim" changeset="6359301">
    <nd ref="332888865"/>
    <nd ref="332888866"/>
    <nd ref="987803905"/>
    <nd ref="332888867"/>
    <nd ref="332888869"/>
    <nd ref="332888871"/>
    <nd ref="332888873"/>
    <nd ref="332888875"/>
    <tag k="highway" v="residential"/>
    <tag k="source" v="GPS"/>
  </way>
  <way id="30206178" version="7" timestamp="2010-12-18T15:47:28Z" uid="342419" user="hzim" changeset="6697099">
    <nd ref="332888865"/>
    <nd ref="332888866"/>
    <nd ref="987803905"/>
    <nd ref="332888867"/>
    <nd ref="332888869"/>
    <nd ref="1045299945"/>
    <nd ref="332888871"/>
    <nd ref="332888873"/>
    <nd ref="332888875"/>
    <tag k="highway" v="residential"/>
    <tag k="source" v="GPS"/>
  </way>
  <way id="30206179" version="6" timestamp="2010-03-16T10:10:37Z" uid="58091" user="Andreas M" changeset="4142055">
    <nd ref="332888879"/>
    <nd ref="335881852"/>
    <nd ref="510155805"/>
    <nd ref="332888881"/>
    <nd ref="332888883"/>
    <nd ref="332888865"/>
    <tag k="addr:postcode" v="3741"/>
    <tag k="at:maxspeed" v="Ortsgebiet"/>
    <tag k="fixme" v="check import"/>
    <tag k="highway" v="residential"/>
    <tag k="highway:plan.at:hl" v="residential"/>
    <tag k="is_in" v="...,Bezirk Hollabrunn,Niederösterreich,Österreich,Europa"/>
    <tag k="name" v="Leodagger"/>
    <tag k="note" v="imported from plan.at; (C)=CC-by-sa or oDBL; feel free to change if necessary"/>
    <tag k="plan_at:acad_id" v="hl7E8"/>
    <tag k="source" v="plan.at 2009"/>
    <tag k="uploaded_by" v="Wolfgang W. Wasserburger"/>
  </way>
  <way id="30206179" version="7" timestamp="2010-04-13T19:31:15Z" uid="47064" user="7503146" changeset="4416900">
    <nd ref="332888879"/>
    <nd ref="335881852"/>
    <nd ref="510155805"/>
    <tag k="addr:postcode" v="3741"/>
    <tag k="at:maxspeed" v="Ortsgebiet"/>
    <tag k="fixme" v="check import"/>
    <tag k="highway" v="residential"/>
    <tag k="highway:plan.at:hl" v="residential"/>
    <tag k="is_in" v="...,Bezirk Hollabrunn,Niederösterreich,Österreich,Europa"/>
    <tag k="name" v="Leodagger"/>
    <tag k="note" v="imported from plan.at; (C)=CC-by-sa or oDBL; feel free to change if necessary"/>
    <tag k="plan_at:acad_id" v="hl7E8"/>
    <tag k="source" v="plan.at 2009"/>
    <tag k="uploaded_by" v="Wolfgang W. Wasserburger"/>
  </way>
  <way id="30206179" version="8" timestamp="2010-11-13T16:02:26Z" uid="342419" user="hzim" changeset="6359301">
    <nd ref="987803974"/>
    <nd ref="987803875"/>
    <nd ref="987803920"/>
    <nd ref="987803968"/>
    <nd ref="987803949"/>
    <nd ref="987803994"/>
    <nd ref="987803889"/>
    <nd ref="987803930"/>
    <nd ref="987803956"/>
    <nd ref="987803897"/>
    <nd ref="987803877"/>
    <nd ref="987803922"/>
    <nd ref="987804005"/>
    <nd ref="987803872"/>
    <nd ref="987803915"/>
    <nd ref="987803945"/>
    <nd ref="332888879"/>
    <nd ref="335881852"/>
    <nd ref="510155805"/>
    <tag k="addr:postcode" v="3741"/>
    <tag k="highway" v="unclassified"/>
    <tag k="source" v="GPS"/>
  </way>
  <way id="30206179" version="9" timestamp="2011-05-26T20:05:18Z" uid="342419" user="hzim" changeset="8256830">
    <nd ref="987803974"/>
    <nd ref="987803875"/>
    <nd ref="987803920"/>
    <nd ref="987803968"/>
    <nd ref="987803949"/>
    <nd ref="987803994"/>
    <nd ref="987803889"/>
    <nd ref="987803930"/>
    <nd ref="987803956"/>
    <nd ref="987803897"/>
    <nd ref="987803877"/>
    <nd ref="987803922"/>
    <nd ref="987804005"/>
    <nd ref="987803872"/>
    <nd ref="987803915"/>
    <nd ref="987803945"/>
    <nd ref="1301147465"/>
    <nd ref="332888879"/>
    <nd ref="335881852"/>
    <nd ref="510155805"/>
    <tag k="addr:postcode" v="3741"/>
    <tag k="highway" v="unclassified"/>
    <tag k="source" v="GPS"/>
  </way>
  <way id="30206179" version="10" timestamp="2011-05-29T12:37:30Z" uid="342419" user="hzim" changeset="8280494">
    <nd ref="987803974"/>
    <nd ref="1304746099"/>
    <nd ref="987803875"/>
    <nd ref="987803920"/>
    <nd ref="987803968"/>
    <nd ref="987803949"/>
    <nd ref="987803994"/>
    <nd ref="987803889"/>
    <nd ref="987803930"/>
    <nd ref="987803956"/>
    <nd ref="987803897"/>
    <nd ref="987803877"/>
    <nd ref="987803922"/>
    <nd ref="987804005"/>
    <nd ref="987803872"/>
    <nd ref="987803915"/>
    <nd ref="987803945"/>
    <nd ref="1301147465"/>
    <nd ref="332888879"/>
    <nd ref="335881852"/>
    <nd ref="510155805"/>
    <tag k="addr:postcode" v="3741"/>
    <tag k="highway" v="unclassified"/>
    <tag k="source" v="GPS"/>
  </way>
  <way id="30206179" version="11" timestamp="2011-07-28T11:48:47Z" uid="491845" user="data_at" changeset="8853715">
    <nd ref="987803974"/>
    <nd ref="1304746099"/>
    <nd ref="987803875"/>
    <nd ref="987803920"/>
    <nd ref="987803968"/>
    <nd ref="987803949"/>
    <nd ref="987803994"/>
    <nd ref="987803889"/>
    <nd ref="987803930"/>
    <nd ref="987803956"/>
    <nd ref="987803897"/>
    <nd ref="987803877"/>
    <nd ref="987803922"/>
    <nd ref="987804005"/>
    <nd ref="987803872"/>
    <nd ref="987803915"/>
    <nd ref="987803945"/>
    <nd ref="1301147465"/>
    <nd ref="332888879"/>
    <nd ref="335881852"/>
    <nd ref="510155805"/>
    <tag k="highway" v="unclassified"/>
    <tag k="source" v="GPS"/>
  </way>
  <way id="30206179" version="12" timestamp="2011-10-16T07:49:04Z" uid="342419" user="hzim" changeset="9569624">
    <nd ref="987803974"/>
    <nd ref="1304746099"/>
    <nd ref="987803875"/>
    <nd ref="987803920"/>
    <nd ref="987803968"/>
    <nd ref="987803949"/>
    <nd ref="987803994"/>
    <nd ref="987803889"/>
    <nd ref="987803930"/>
    <nd ref="987803956"/>
    <nd ref="987803897"/>
    <nd ref="987803877"/>
    <nd ref="987803922"/>
    <nd ref="987804005"/>
    <nd ref="987803872"/>
    <nd ref="987803915"/>
    <nd ref="987803945"/>
    <nd ref="1301147465"/>
    <nd ref="332888879"/>
    <nd ref="1468973115"/>
    <nd ref="510155805"/>
    <tag k="highway" v="unclassified"/>
    <tag k="source" v="GPS"/>
  </way>
  <way id="30206179" version="13" timestamp="2012-03-15T21:47:13Z" uid="53306" user="Wolfgang B" changeset="10993296">
    <nd ref="987803974"/>
    <nd ref="1304746099"/>
    <nd ref="987803875"/>
    <nd ref="987803920"/>
    <nd ref="987803968"/>
    <nd ref="987803949"/>
    <nd ref="987803994"/>
    <nd ref="987803889"/>
    <nd ref="987803930"/>
    <nd ref="987803956"/>
    <nd ref="987803897"/>
    <nd ref="987803877"/>
    <nd ref="987803922"/>
    <nd ref="987804005"/>
    <nd ref="987803872"/>
    <nd ref="987803915"/>
    <nd ref="987803945"/>
    <nd ref="1301147465"/>
    <nd ref="332888879"/>
    <nd ref="1468973115"/>
    <nd ref="510155805"/>
    <tag k="highway" v="track"/>
    <tag k="source" v="GPS"/>
  </way>
  <way id="30206181" version="5" timestamp="2010-03-16T10:10:34Z" uid="58091" user="Andreas M" changeset="4142055">
    <nd ref="332888886"/>
    <nd ref="332888888"/>
    <nd ref="332888889"/>
    <nd ref="332888890"/>
    <nd ref="386143439"/>
    <tag k="addr:postcode" v="3741"/>
    <tag k="at:maxspeed" v="Ortsgebiet"/>
    <tag k="created_by" v="WWWOSM 0.1"/>
    <tag k="fixme" v="check import"/>
    <tag k="highway" v="residential"/>
    <tag k="highway:plan.at:hl" v="residential"/>
    <tag k="is_in" v="...,Bezirk Hollabrunn,Niederösterreich,Österreich,Europa"/>
    <tag k="name" v="Leodagger"/>
    <tag k="note" v="imported from plan.at; (C)=CC-by-sa or oDBL; feel free to change if necessary"/>
    <tag k="plan_at:acad_id" v="hl7E5"/>
    <tag k="source" v="plan.at 2009"/>
    <tag k="uploaded_by" v="Wolfgang W. Wasserburger"/>
  </way>
  <way id="30206181" version="6" timestamp="2010-12-18T15:38:07Z" uid="342419" user="hzim" changeset="6696993">
    <nd ref="332888886"/>
    <nd ref="332888888"/>
    <nd ref="332888889"/>
    <nd ref="1045274362"/>
    <tag k="addr:postcode" v="3741"/>
    <tag k="at:maxspeed" v="Ortsgebiet"/>
    <tag k="highway" v="residential"/>
    <tag k="name" v="Leodagger"/>
    <tag k="source" v="Bing"/>
  </way>
  <way id="30206181" version="7" timestamp="2011-07-26T15:36:03Z" uid="491845" user="data_at" changeset="8836923">
    <nd ref="332888886"/>
    <nd ref="332888888"/>
    <nd ref="332888889"/>
    <nd ref="1045274362"/>
    <tag k="highway" v="residential"/>
    <tag k="name" v="Leodagger"/>
    <tag k="source" v="Bing"/>
  </way>
  <way id="30206183" version="7" timestamp="2010-03-16T10:10:32Z" uid="58091" user="Andreas M" changeset="4142055">
    <nd ref="332888893"/>
    <nd ref="332888895"/>
    <nd ref="332888897"/>
    <tag k="addr:postcode" v="3741"/>
    <tag k="at:maxspeed" v="Ortsgebiet"/>
    <tag k="created_by" v="Potlatch 0.10f"/>
    <tag k="fixme" v="check import"/>
    <tag k="highway" v="residential"/>
    <tag k="highway:plan.at:hl" v="residential"/>
    <tag k="is_in" v="...,Bezirk Hollabrunn,Niederösterreich,Österreich,Europa"/>
    <tag k="name" v="Leodagger"/>
    <tag k="note" v="imported from plan.at; (C)=CC-by-sa or oDBL; feel free to change if necessary"/>
    <tag k="plan_at:acad_id" v="hl7E2"/>
    <tag k="source" v="plan.at 2009"/>
    <tag k="uploaded_by" v="Wolfgang W. Wasserburger"/>
  </way>
  <way id="30206183" version="8" timestamp="2010-12-30T18:07:55Z" uid="342419" user="hzim" changeset="6812373">
    <nd ref="332888893"/>
    <nd ref="332888895"/>
    <nd ref="332888897"/>
    <tag k="highway" v="residential"/>
    <tag k="source" v="Bing"/>
  </way>
  <way id="30206513" version="6" timestamp="2010-03-16T10:11:37Z" uid="58091" user="Andreas M" changeset="4142055">
    <nd ref="332890789"/>
    <nd ref="332890790"/>
    <nd ref="332890791"/>
    <nd ref="332890793"/>
    <nd ref="332890795"/>
    <nd ref="332890796"/>
    <nd ref="581250469"/>
    <tag k="addr:postcode" v="3741"/>
    <tag k="at:maxspeed" v="Ortsgebiet"/>
    <tag k="fixme" v="check import"/>
    <tag k="highway" v="residential"/>
    <tag k="highway:plan.at:hl" v="residential"/>
    <tag k="is_in" v="...,Bezirk Hollabrunn,Niederösterreich,Österreich,Europa"/>
    <tag k="note" v="imported from plan.at; (C)=CC-by-sa or oDBL; feel free to change if necessary"/>
    <tag k="plan_at:acad_id" v="hl5D2"/>
    <tag k="source" v="plan.at 2009"/>
    <tag k="uploaded_by" v="Wolfgang W. Wasserburger"/>
  </way>
  <way id="30206513" version="7" timestamp="2010-05-26T05:18:07Z" uid="95813" user="stefan_hochstoeger" changeset="4809846">
    <nd ref="332890789"/>
    <nd ref="332890790"/>
    <nd ref="332890791"/>
    <nd ref="332890793"/>
    <nd ref="332890795"/>
    <nd ref="332890796"/>
    <nd ref="581250469"/>
    <tag k="addr:postcode" v="3741"/>
    <tag k="at:maxspeed" v="Ortsgebiet"/>
    <tag k="fixme" v="check import"/>
    <tag k="highway" v="residential"/>
    <tag k="highway:plan.at:hl" v="residential"/>
    <tag k="is_in" v="...,Bezirk Hollabrunn,Niederösterreich,Österreich,Europa"/>
    <tag k="note" v="imported from plan.at; (C)=CC-by-sa or oDBL; feel free to change if necessary"/>
    <tag k="source" v="plan.at 2009"/>
  </way>
  <way id="30206513" version="8" timestamp="2010-12-07T12:13:43Z" uid="12295" user="mapper_07" changeset="6573893">
    <nd ref="332890789"/>
    <nd ref="332890790"/>
    <nd ref="332890791"/>
    <nd ref="332890793"/>
    <nd ref="332890795"/>
    <nd ref="581250469"/>
    <tag k="addr:postcode" v="3741"/>
    <tag k="at:maxspeed" v="Ortsgebiet"/>
    <tag k="fixme" v="check import"/>
    <tag k="highway" v="residential"/>
    <tag k="highway:plan.at:hl" v="residential"/>
    <tag k="is_in" v="...,Bezirk Hollabrunn,Niederösterreich,Österreich,Europa"/>
    <tag k="note" v="imported from plan.at; (C)=CC-by-sa or oDBL; feel free to change if necessary"/>
    <tag k="source" v="plan.at 2009"/>
  </way>
  <way id="30206513" version="9" timestamp="2010-12-18T15:02:11Z" uid="342419" user="hzim" changeset="6696598">
    <nd ref="332890789"/>
    <nd ref="332890790"/>
    <nd ref="332890791"/>
    <nd ref="332890793"/>
    <nd ref="332890795"/>
    <nd ref="581250469"/>
    <tag k="addr:postcode" v="3741"/>
    <tag k="at:maxspeed" v="Ortsgebiet"/>
    <tag k="highway" v="residential"/>
    <tag k="highway:plan.at:hl" v="residential"/>
    <tag k="is_in" v="...,Bezirk Hollabrunn,Niederösterreich,Österreich,Europa"/>
    <tag k="note" v="imported from plan.at; (C)=CC-by-sa or oDBL; feel free to change if necessary"/>
    <tag k="source" v="plan.at 2009"/>
  </way>
  <way id="30206513" version="10" timestamp="2011-01-26T17:56:45Z" uid="45347" user="eriosw" changeset="7095887">
    <nd ref="332890789"/>
    <nd ref="332890790"/>
    <nd ref="332890791"/>
    <nd ref="332890793"/>
    <nd ref="332890795"/>
    <nd ref="581250469"/>
    <tag k="addr:postcode" v="3741"/>
    <tag k="at:maxspeed" v="Ortsgebiet"/>
    <tag k="highway" v="residential"/>
    <tag k="highway:plan.at:hl" v="residential"/>
    <tag k="is_in" v="Pulkau,Hollabrunn,Niederösterreich,Österreich,Europe"/>
    <tag k="note" v="imported from plan.at; (C)=CC-by-sa or oDBL; feel free to change if necessary"/>
    <tag k="source" v="plan.at 2009"/>
  </way>
  <way id="30206513" version="11" timestamp="2011-03-28T19:23:48Z" uid="99800" user="wolfbert" changeset="7700472">
    <nd ref="332890789"/>
    <nd ref="332890790"/>
    <nd ref="332890791"/>
    <nd ref="332890793"/>
    <nd ref="332890795"/>
    <nd ref="581250469"/>
    <tag k="addr:postcode" v="3741"/>
    <tag k="highway" v="residential"/>
    <tag k="is_in" v="Pulkau,Hollabrunn,Niederösterreich,Österreich,Europe"/>
    <tag k="note" v="imported from plan.at; (C)=CC-by-sa or oDBL; feel free to change if necessary"/>
    <tag k="source" v="plan.at 2009"/>
  </way>
  <way id="30206513" version="12" timestamp="2011-07-28T11:51:43Z" uid="491845" user="data_at" changeset="8853715">
    <nd ref="332890789"/>
    <nd ref="332890790"/>
    <nd ref="332890791"/>
    <nd ref="332890793"/>
    <nd ref="332890795"/>
    <nd ref="581250469"/>
    <tag k="highway" v="residential"/>
    <tag k="is_in" v="Pulkau,Hollabrunn,Niederösterreich,Österreich,Europe"/>
    <tag k="source" v="plan.at 2009"/>
  </way>
  <way id="30206515" version="7" timestamp="2010-03-16T10:11:24Z" uid="58091" user="Andreas M" changeset="4142055">
    <nd ref="172966175"/>
    <nd ref="332890804"/>
    <nd ref="581250466"/>
    <tag k="addr:postcode" v="3741"/>
    <tag k="at:maxspeed" v="Ortsgebiet"/>
    <tag k="fixme" v="check import"/>
    <tag k="highway" v="residential"/>
    <tag k="is_in" v="...,Bezirk Hollabrunn,Niederösterreich,Österreich,Europa"/>
    <tag k="note" v="imported from plan.at; (C)=CC-by-sa or oDBL; feel free to change if necessary"/>
    <tag k="plan_at:acad_id" v="hl5CF"/>
    <tag k="source" v="plan.at 2009"/>
    <tag k="uploaded_by" v="Wolfgang W. Wasserburger"/>
  </way>
  <way id="30206515" version="8" timestamp="2010-05-26T05:17:57Z" uid="95813" user="stefan_hochstoeger" changeset="4809846">
    <nd ref="172966175"/>
    <nd ref="332890804"/>
    <nd ref="581250466"/>
    <tag k="addr:postcode" v="3741"/>
    <tag k="at:maxspeed" v="Ortsgebiet"/>
    <tag k="fixme" v="check import"/>
    <tag k="highway" v="residential"/>
    <tag k="is_in" v="...,Bezirk Hollabrunn,Niederösterreich,Österreich,Europa"/>
    <tag k="note" v="imported from plan.at; (C)=CC-by-sa or oDBL; feel free to change if necessary"/>
    <tag k="source" v="plan.at 2009"/>
  </way>
  <way id="30206515" version="9" timestamp="2010-11-20T16:27:14Z" uid="47064" user="7503146" changeset="6415543">
    <nd ref="172966175"/>
    <nd ref="332890804"/>
    <nd ref="581250466"/>
    <tag k="addr:postcode" v="3741"/>
    <tag k="fixme" v="check import"/>
    <tag k="highway" v="residential"/>
    <tag k="is_in" v="...,Bezirk Hollabrunn,Niederösterreich,Österreich,Europa"/>
    <tag k="source" v="plan.at 2009"/>
  </way>
  <way id="30206515" version="10" timestamp="2011-01-26T17:56:47Z" uid="45347" user="eriosw" changeset="7095887"/>
  <way id="30206516" version="9" timestamp="2010-03-16T10:11:43Z" uid="58091" user="Andreas M" changeset="4142055">
    <nd ref="332890812"/>
    <nd ref="332890789"/>
    <nd ref="581250468"/>
    <tag k="addr:postcode" v="3741"/>
    <tag k="at:maxspeed" v="Ortsgebiet"/>
    <tag k="fixme" v="check import"/>
    <tag k="highway" v="residential"/>
    <tag k="highway:plan.at:hl" v="residential"/>
    <tag k="is_in" v="...,Bezirk Hollabrunn,Niederösterreich,Österreich,Europa"/>
    <tag k="note" v="imported from plan.at; (C)=CC-by-sa or oDBL; feel free to change if necessary"/>
    <tag k="plan_at:acad_id" v="hl5CC"/>
    <tag k="source" v="plan.at 2009"/>
    <tag k="uploaded_by" v="Wolfgang W. Wasserburger"/>
  </way>
  <way id="30206516" version="10" timestamp="2010-05-26T05:17:58Z" uid="95813" user="stefan_hochstoeger" changeset="4809846">
    <nd ref="332890812"/>
    <nd ref="332890789"/>
    <nd ref="581250468"/>
    <tag k="addr:postcode" v="3741"/>
    <tag k="at:maxspeed" v="Ortsgebiet"/>
    <tag k="fixme" v="check import"/>
    <tag k="highway" v="residential"/>
    <tag k="highway:plan.at:hl" v="residential"/>
    <tag k="is_in" v="...,Bezirk Hollabrunn,Niederösterreich,Österreich,Europa"/>
    <tag k="note" v="imported from plan.at; (C)=CC-by-sa or oDBL; feel free to change if necessary"/>
    <tag k="source" v="plan.at 2009"/>
  </way>
  <way id="30206516" version="11" timestamp="2010-12-07T12:13:39Z" uid="12295" user="mapper_07" changeset="6573893">
    <nd ref="332890812"/>
    <nd ref="1026373857"/>
    <nd ref="332890789"/>
    <nd ref="581250468"/>
    <tag k="addr:postcode" v="3741"/>
    <tag k="at:maxspeed" v="Ortsgebiet"/>
    <tag k="fixme" v="check import"/>
    <tag k="highway" v="residential"/>
    <tag k="highway:plan.at:hl" v="residential"/>
    <tag k="is_in" v="...,Bezirk Hollabrunn,Niederösterreich,Österreich,Europa"/>
    <tag k="note" v="imported from plan.at; (C)=CC-by-sa or oDBL; feel free to change if necessary"/>
    <tag k="source" v="plan.at 2009"/>
  </way>
  <way id="30206516" version="12" timestamp="2010-12-18T15:02:00Z" uid="342419" user="hzim" changeset="6696598">
    <nd ref="332890812"/>
    <nd ref="1026373857"/>
    <nd ref="332890789"/>
    <nd ref="581250468"/>
    <tag k="addr:postcode" v="3741"/>
    <tag k="at:maxspeed" v="Ortsgebiet"/>
    <tag k="highway" v="residential"/>
    <tag k="highway:plan.at:hl" v="residential"/>
    <tag k="is_in" v="...,Bezirk Hollabrunn,Niederösterreich,Österreich,Europa"/>
    <tag k="note" v="imported from plan.at; (C)=CC-by-sa or oDBL; feel free to change if necessary"/>
    <tag k="source" v="plan.at 2009"/>
  </way>
  <way id="30206516" version="13" timestamp="2011-01-26T17:56:42Z" uid="45347" user="eriosw" changeset="7095887">
    <nd ref="332890812"/>
    <nd ref="1026373857"/>
    <nd ref="332890789"/>
    <nd ref="581250468"/>
    <tag k="addr:postcode" v="3741"/>
    <tag k="at:maxspeed" v="Ortsgebiet"/>
    <tag k="highway" v="residential"/>
    <tag k="highway:plan.at:hl" v="residential"/>
    <tag k="is_in" v="Pulkau,Hollabrunn,Niederösterreich,Österreich,Europe"/>
    <tag k="note" v="imported from plan.at; (C)=CC-by-sa or oDBL; feel free to change if necessary"/>
    <tag k="source" v="plan.at 2009"/>
  </way>
  <way id="30206516" version="14" timestamp="2011-03-28T19:23:47Z" uid="99800" user="wolfbert" changeset="7700472">
    <nd ref="332890812"/>
    <nd ref="1026373857"/>
    <nd ref="332890789"/>
    <nd ref="581250468"/>
    <tag k="addr:postcode" v="3741"/>
    <tag k="highway" v="residential"/>
    <tag k="is_in" v="Pulkau,Hollabrunn,Niederösterreich,Österreich,Europe"/>
    <tag k="note" v="imported from plan.at; (C)=CC-by-sa or oDBL; feel free to change if necessary"/>
    <tag k="source" v="plan.at 2009"/>
  </way>
  <way id="30206516" version="15" timestamp="2011-07-28T11:50:45Z" uid="491845" user="data_at" changeset="8853715">
    <nd ref="332890812"/>
    <nd ref="1026373857"/>
    <nd ref="332890789"/>
    <nd ref="581250468"/>
    <tag k="highway" v="residential"/>
    <tag k="is_in" v="Pulkau,Hollabrunn,Niederösterreich,Österreich,Europe"/>
    <tag k="source" v="plan.at 2009"/>
  </way>
  <way id="30206519" version="5" timestamp="2010-03-16T10:11:25Z" uid="58091" user="Andreas M" changeset="4142055">
    <nd ref="332890818"/>
    <nd ref="332890821"/>
    <nd ref="332890823"/>
    <nd ref="332890825"/>
    <nd ref="332890827"/>
    <tag k="addr:postcode" v="3741"/>
    <tag k="at:maxspeed" v="Ortsgebiet"/>
    <tag k="created_by" v="WWWOSM 0.1"/>
    <tag k="fixme" v="check import"/>
    <tag k="highway" v="residential"/>
    <tag k="highway:plan.at:hl" v="residential"/>
    <tag k="is_in" v="...,Bezirk Hollabrunn,Niederösterreich,Österreich,Europa"/>
    <tag k="note" v="imported from plan.at; (C)=CC-by-sa or oDBL; feel free to change if necessary"/>
    <tag k="plan_at:acad_id" v="hl5C9"/>
    <tag k="source" v="plan.at 2009"/>
    <tag k="uploaded_by" v="Wolfgang W. Wasserburger"/>
  </way>
  <way id="30206519" version="6" timestamp="2010-05-26T05:18:17Z" uid="95813" user="stefan_hochstoeger" changeset="4809846">
    <nd ref="332890818"/>
    <nd ref="332890821"/>
    <nd ref="332890823"/>
    <nd ref="332890825"/>
    <nd ref="332890827"/>
    <tag k="addr:postcode" v="3741"/>
    <tag k="at:maxspeed" v="Ortsgebiet"/>
    <tag k="fixme" v="check import"/>
    <tag k="highway" v="residential"/>
    <tag k="highway:plan.at:hl" v="residential"/>
    <tag k="is_in" v="...,Bezirk Hollabrunn,Niederösterreich,Österreich,Europa"/>
    <tag k="note" v="imported from plan.at; (C)=CC-by-sa or oDBL; feel free to change if necessary"/>
    <tag k="source" v="plan.at 2009"/>
  </way>
  <way id="30206519" version="7" timestamp="2011-01-26T17:56:33Z" uid="45347" user="eriosw" changeset="7095887">
    <nd ref="332890818"/>
    <nd ref="332890821"/>
    <nd ref="332890823"/>
    <nd ref="332890825"/>
    <nd ref="332890827"/>
    <tag k="addr:postcode" v="3741"/>
    <tag k="at:maxspeed" v="Ortsgebiet"/>
    <tag k="fixme" v="check import"/>
    <tag k="highway" v="residential"/>
    <tag k="highway:plan.at:hl" v="residential"/>
    <tag k="is_in" v="Pulkau,Hollabrunn,Niederösterreich,Österreich,Europe"/>
    <tag k="note" v="imported from plan.at; (C)=CC-by-sa or oDBL; feel free to change if necessary"/>
    <tag k="source" v="plan.at 2009"/>
  </way>
  <way id="30206519" version="8" timestamp="2011-03-28T19:23:46Z" uid="99800" user="wolfbert" changeset="7700472">
    <nd ref="332890818"/>
    <nd ref="332890821"/>
    <nd ref="332890823"/>
    <nd ref="332890825"/>
    <nd ref="332890827"/>
    <tag k="addr:postcode" v="3741"/>
    <tag k="fixme" v="check import"/>
    <tag k="highway" v="residential"/>
    <tag k="is_in" v="Pulkau,Hollabrunn,Niederösterreich,Österreich,Europe"/>
    <tag k="note" v="imported from plan.at; (C)=CC-by-sa or oDBL; feel free to change if necessary"/>
    <tag k="source" v="plan.at 2009"/>
  </way>
  <way id="30206519" version="9" timestamp="2011-07-24T09:05:15Z" uid="491845" user="data_at" changeset="8813157">
    <nd ref="332890818"/>
    <nd ref="332890821"/>
    <nd ref="332890823"/>
    <nd ref="332890825"/>
    <nd ref="332890827"/>
    <tag k="fixme" v="check import"/>
    <tag k="highway" v="residential"/>
    <tag k="is_in" v="Pulkau,Hollabrunn,Niederösterreich,Österreich,Europe"/>
    <tag k="source" v="plan.at 2009"/>
  </way>
  <way id="30206519" version="10" timestamp="2011-09-16T16:30:23Z" uid="342419" user="hzim" changeset="9317462">
    <nd ref="332890818"/>
    <nd ref="332890821"/>
    <nd ref="332890823"/>
    <nd ref="332890825"/>
    <nd ref="332890827"/>
    <tag k="highway" v="residential"/>
    <tag k="source" v="plan.at 2009"/>
  </way>
  <way id="30206521" version="5" timestamp="2010-03-16T10:11:27Z" uid="58091" user="Andreas M" changeset="4142055">
    <nd ref="332890829"/>
    <nd ref="332890831"/>
    <nd ref="332890833"/>
    <nd ref="332890825"/>
    <tag k="addr:postcode" v="3741"/>
    <tag k="at:maxspeed" v="Ortsgebiet"/>
    <tag k="created_by" v="WWWOSM 0.1"/>
    <tag k="fixme" v="check import"/>
    <tag k="highway" v="residential"/>
    <tag k="highway:plan.at:hl" v="residential"/>
    <tag k="is_in" v="...,Bezirk Hollabrunn,Niederösterreich,Österreich,Europa"/>
    <tag k="note" v="imported from plan.at; (C)=CC-by-sa or oDBL; feel free to change if necessary"/>
    <tag k="plan_at:acad_id" v="hl5C6"/>
    <tag k="source" v="plan.at 2009"/>
    <tag k="uploaded_by" v="Wolfgang W. Wasserburger"/>
  </way>
  <way id="30206521" version="6" timestamp="2010-05-26T05:18:56Z" uid="95813" user="stefan_hochstoeger" changeset="4809846">
    <nd ref="332890829"/>
    <nd ref="332890831"/>
    <nd ref="332890833"/>
    <nd ref="332890825"/>
    <tag k="addr:postcode" v="3741"/>
    <tag k="at:maxspeed" v="Ortsgebiet"/>
    <tag k="fixme" v="check import"/>
    <tag k="highway" v="residential"/>
    <tag k="highway:plan.at:hl" v="residential"/>
    <tag k="is_in" v="...,Bezirk Hollabrunn,Niederösterreich,Österreich,Europa"/>
    <tag k="note" v="imported from plan.at; (C)=CC-by-sa or oDBL; feel free to change if necessary"/>
    <tag k="source" v="plan.at 2009"/>
  </way>
  <way id="30206521" version="7" timestamp="2011-01-26T17:56:28Z" uid="45347" user="eriosw" changeset="7095887">
    <nd ref="332890829"/>
    <nd ref="332890831"/>
    <nd ref="332890833"/>
    <nd ref="332890825"/>
    <tag k="addr:postcode" v="3741"/>
    <tag k="at:maxspeed" v="Ortsgebiet"/>
    <tag k="fixme" v="check import"/>
    <tag k="highway" v="residential"/>
    <tag k="highway:plan.at:hl" v="residential"/>
    <tag k="is_in" v="Pulkau,Hollabrunn,Niederösterreich,Österreich,Europe"/>
    <tag k="note" v="imported from plan.at; (C)=CC-by-sa or oDBL; feel free to change if necessary"/>
    <tag k="source" v="plan.at 2009"/>
  </way>
  <way id="30206521" version="8" timestamp="2011-03-29T14:18:59Z" uid="99800" user="wolfbert" changeset="7707188"/>
  <way id="30206522" version="6" timestamp="2010-03-16T10:11:51Z" uid="58091" user="Andreas M" changeset="4142055">
    <nd ref="332890804"/>
    <nd ref="332890837"/>
    <nd ref="332890839"/>
    <nd ref="332890841"/>
    <nd ref="335877875"/>
    <tag k="addr:postcode" v="3741"/>
    <tag k="at:maxspeed" v="Ortsgebiet"/>
    <tag k="created_by" v="Potlatch 0.10f"/>
    <tag k="fixme" v="check import"/>
    <tag k="highway" v="residential"/>
    <tag k="highway:plan.at:hl" v="residential"/>
    <tag k="is_in" v="...,Bezirk Hollabrunn,Niederösterreich,Österreich,Europa"/>
    <tag k="note" v="imported from plan.at; (C)=CC-by-sa or oDBL; feel free to change if necessary"/>
    <tag k="plan_at:acad_id" v="hl5C3"/>
    <tag k="source" v="plan.at 2009"/>
    <tag k="uploaded_by" v="Wolfgang W. Wasserburger"/>
  </way>
  <way id="30206522" version="7" timestamp="2010-05-26T05:17:55Z" uid="95813" user="stefan_hochstoeger" changeset="4809846">
    <nd ref="332890804"/>
    <nd ref="332890837"/>
    <nd ref="332890839"/>
    <nd ref="332890841"/>
    <nd ref="335877875"/>
    <tag k="addr:postcode" v="3741"/>
    <tag k="at:maxspeed" v="Ortsgebiet"/>
    <tag k="fixme" v="check import"/>
    <tag k="highway" v="residential"/>
    <tag k="highway:plan.at:hl" v="residential"/>
    <tag k="is_in" v="...,Bezirk Hollabrunn,Niederösterreich,Österreich,Europa"/>
    <tag k="note" v="imported from plan.at; (C)=CC-by-sa or oDBL; feel free to change if necessary"/>
    <tag k="source" v="plan.at 2009"/>
  </way>
  <way id="30206522" version="8" timestamp="2010-11-20T16:24:39Z" uid="47064" user="7503146" changeset="6415543">
    <nd ref="332890804"/>
    <nd ref="332890837"/>
    <nd ref="332890839"/>
    <nd ref="332890841"/>
    <nd ref="335877875"/>
    <tag k="addr:postcode" v="3741"/>
    <tag k="fixme" v="check import"/>
    <tag k="highway" v="residential"/>
    <tag k="highway:plan.at:hl" v="residential"/>
    <tag k="is_in" v="...,Bezirk Hollabrunn,Niederösterreich,Österreich,Europa"/>
    <tag k="source" v="plan.at 2009"/>
  </way>
  <way id="30206522" version="9" timestamp="2010-12-18T15:02:04Z" uid="342419" user="hzim" changeset="6696598">
    <nd ref="332890804"/>
    <nd ref="332890837"/>
    <nd ref="332890839"/>
    <nd ref="332890841"/>
    <nd ref="1045152322"/>
    <nd ref="335877875"/>
    <tag k="addr:postcode" v="3741"/>
    <tag k="fixme" v="check import"/>
    <tag k="highway" v="residential"/>
    <tag k="highway:plan.at:hl" v="residential"/>
    <tag k="is_in" v="...,Bezirk Hollabrunn,Niederösterreich,Österreich,Europa"/>
    <tag k="source" v="plan.at 2009"/>
  </way>
  <way id="30206522" version="10" timestamp="2011-01-26T17:56:30Z" uid="45347" user="eriosw" changeset="7095887">
    <nd ref="332890804"/>
    <nd ref="332890837"/>
    <nd ref="332890839"/>
    <nd ref="332890841"/>
    <nd ref="1045152322"/>
    <nd ref="335877875"/>
    <tag k="addr:postcode" v="3741"/>
    <tag k="fixme" v="check import"/>
    <tag k="highway" v="residential"/>
    <tag k="highway:plan.at:hl" v="residential"/>
    <tag k="is_in" v="Pulkau,Hollabrunn,Niederösterreich,Österreich,Europe"/>
    <tag k="source" v="plan.at 2009"/>
  </way>
  <way id="30206522" version="11" timestamp="2011-03-28T19:23:47Z" uid="99800" user="wolfbert" changeset="7700472">
    <nd ref="332890804"/>
    <nd ref="332890837"/>
    <nd ref="332890839"/>
    <nd ref="332890841"/>
    <nd ref="1045152322"/>
    <nd ref="335877875"/>
    <tag k="addr:postcode" v="3741"/>
    <tag k="fixme" v="check import"/>
    <tag k="highway" v="residential"/>
    <tag k="is_in" v="Pulkau,Hollabrunn,Niederösterreich,Österreich,Europe"/>
    <tag k="source" v="plan.at 2009"/>
  </way>
  <way id="30206522" version="12" timestamp="2011-07-24T09:05:46Z" uid="491845" user="data_at" changeset="8813157">
    <nd ref="332890804"/>
    <nd ref="332890837"/>
    <nd ref="332890839"/>
    <nd ref="332890841"/>
    <nd ref="1045152322"/>
    <nd ref="335877875"/>
    <tag k="fixme" v="check import"/>
    <tag k="highway" v="residential"/>
    <tag k="is_in" v="Pulkau,Hollabrunn,Niederösterreich,Österreich,Europe"/>
    <tag k="source" v="plan.at 2009"/>
  </way>
  <way id="30206522" version="13" timestamp="2011-09-16T16:30:24Z" uid="342419" user="hzim" changeset="9317462">
    <nd ref="332890804"/>
    <nd ref="332890837"/>
    <nd ref="332890839"/>
    <nd ref="332890841"/>
    <nd ref="1045152322"/>
    <nd ref="335877875"/>
    <tag k="highway" v="residential"/>
    <tag k="is_in" v="Pulkau,Hollabrunn,Niederösterreich,Österreich,Europe"/>
    <tag k="source" v="plan.at 2009"/>
  </way>
  <way id="30206529" version="6" timestamp="2010-03-16T10:10:44Z" uid="58091" user="Andreas M" changeset="4142055">
    <nd ref="335877333"/>
    <nd ref="332890860"/>
    <nd ref="332890861"/>
    <nd ref="332890862"/>
    <nd ref="332890856"/>
    <tag k="addr:postcode" v="3741"/>
    <tag k="at:maxspeed" v="Ortsgebiet"/>
    <tag k="created_by" v="Potlatch 0.10f"/>
    <tag k="fixme" v="check import"/>
    <tag k="highway" v="residential"/>
    <tag k="highway:plan.at:hl" v="residential"/>
    <tag k="is_in" v="...,Bezirk Hollabrunn,Niederösterreich,Österreich,Europa"/>
    <tag k="note" v="imported from plan.at; (C)=CC-by-sa or oDBL; feel free to change if necessary"/>
    <tag k="plan_at:acad_id" v="hl5BA"/>
    <tag k="source" v="plan.at 2009"/>
    <tag k="uploaded_by" v="Wolfgang W. Wasserburger"/>
  </way>
  <way id="30206529" version="7" timestamp="2010-05-26T05:18:57Z" uid="95813" user="stefan_hochstoeger" changeset="4809846">
    <nd ref="335877333"/>
    <nd ref="332890860"/>
    <nd ref="332890861"/>
    <nd ref="332890862"/>
    <nd ref="332890856"/>
    <tag k="addr:postcode" v="3741"/>
    <tag k="at:maxspeed" v="Ortsgebiet"/>
    <tag k="fixme" v="check import"/>
    <tag k="highway" v="residential"/>
    <tag k="highway:plan.at:hl" v="residential"/>
    <tag k="is_in" v="...,Bezirk Hollabrunn,Niederösterreich,Österreich,Europa"/>
    <tag k="note" v="imported from plan.at; (C)=CC-by-sa or oDBL; feel free to change if necessary"/>
    <tag k="source" v="plan.at 2009"/>
  </way>
  <way id="30206529" version="8" timestamp="2010-11-20T16:27:17Z" uid="47064" user="7503146" changeset="6415543">
    <nd ref="335877333"/>
    <nd ref="332890860"/>
    <nd ref="332890861"/>
    <nd ref="332890862"/>
    <nd ref="332890856"/>
    <tag k="addr:postcode" v="3741"/>
    <tag k="fixme" v="check import"/>
    <tag k="highway" v="residential"/>
    <tag k="highway:plan.at:hl" v="residential"/>
    <tag k="is_in" v="...,Bezirk Hollabrunn,Niederösterreich,Österreich,Europa"/>
    <tag k="source" v="plan.at 2009"/>
  </way>
  <way id="30206529" version="9" timestamp="2010-12-18T15:02:13Z" uid="342419" user="hzim" changeset="6696598">
    <nd ref="335877333"/>
    <nd ref="332890860"/>
    <nd ref="332890861"/>
    <nd ref="332890862"/>
    <nd ref="332890856"/>
    <tag k="addr:postcode" v="3741"/>
    <tag k="highway" v="residential"/>
    <tag k="highway:plan.at:hl" v="residential"/>
    <tag k="is_in" v="...,Bezirk Hollabrunn,Niederösterreich,Österreich,Europa"/>
    <tag k="source" v="plan.at 2009"/>
  </way>
  <way id="30206529" version="10" timestamp="2011-01-26T17:56:37Z" uid="45347" user="eriosw" changeset="7095887">
    <nd ref="335877333"/>
    <nd ref="332890860"/>
    <nd ref="332890861"/>
    <nd ref="332890862"/>
    <nd ref="332890856"/>
    <tag k="addr:postcode" v="3741"/>
    <tag k="highway" v="residential"/>
    <tag k="highway:plan.at:hl" v="residential"/>
    <tag k="is_in" v="Pulkau,Hollabrunn,Niederösterreich,Österreich,Europe"/>
    <tag k="source" v="plan.at 2009"/>
  </way>
  <way id="30206529" version="11" timestamp="2011-03-28T19:23:47Z" uid="99800" user="wolfbert" changeset="7700472">
    <nd ref="335877333"/>
    <nd ref="332890860"/>
    <nd ref="332890861"/>
    <nd ref="332890862"/>
    <nd ref="332890856"/>
    <tag k="addr:postcode" v="3741"/>
    <tag k="highway" v="residential"/>
    <tag k="is_in" v="Pulkau,Hollabrunn,Niederösterreich,Österreich,Europe"/>
    <tag k="source" v="plan.at 2009"/>
  </way>
  <way id="30206529" version="12" timestamp="2011-07-28T11:51:27Z" uid="491845" user="data_at" changeset="8853715">
    <nd ref="335877333"/>
    <nd ref="332890860"/>
    <nd ref="332890861"/>
    <nd ref="332890862"/>
    <nd ref="332890856"/>
    <tag k="highway" v="residential"/>
    <tag k="is_in" v="Pulkau,Hollabrunn,Niederösterreich,Österreich,Europe"/>
    <tag k="source" v="plan.at 2009"/>
  </way>
  <way id="30206663" version="5" timestamp="2010-03-16T10:10:52Z" uid="58091" user="Andreas M" changeset="4142055">
    <nd ref="332891489"/>
    <nd ref="332891491"/>
    <nd ref="332891493"/>
    <nd ref="332891495"/>
    <nd ref="332891497"/>
    <nd ref="332891499"/>
    <nd ref="332891500"/>
    <nd ref="332891501"/>
    <nd ref="332891502"/>
    <tag k="addr:postcode" v="3741"/>
    <tag k="at:maxspeed" v="Ortsgebiet"/>
    <tag k="fixme" v="check import"/>
    <tag k="highway" v="residential"/>
    <tag k="highway:plan.at:hl" v="residential"/>
    <tag k="is_in" v="...,Bezirk Hollabrunn,Niederösterreich,Österreich,Europa"/>
    <tag k="note" v="imported from plan.at; (C)=CC-by-sa or oDBL; feel free to change if necessary"/>
    <tag k="plan_at:acad_id" v="hl4E8"/>
    <tag k="source" v="plan.at 2009"/>
    <tag k="uploaded_by" v="Wolfgang W. Wasserburger"/>
  </way>
  <way id="30206663" version="6" timestamp="2010-05-26T05:19:20Z" uid="95813" user="stefan_hochstoeger" changeset="4809846">
    <nd ref="332891489"/>
    <nd ref="332891491"/>
    <nd ref="332891493"/>
    <nd ref="332891495"/>
    <nd ref="332891497"/>
    <nd ref="332891499"/>
    <nd ref="332891500"/>
    <nd ref="332891501"/>
    <nd ref="332891502"/>
    <tag k="addr:postcode" v="3741"/>
    <tag k="at:maxspeed" v="Ortsgebiet"/>
    <tag k="fixme" v="check import"/>
    <tag k="highway" v="residential"/>
    <tag k="highway:plan.at:hl" v="residential"/>
    <tag k="is_in" v="...,Bezirk Hollabrunn,Niederösterreich,Österreich,Europa"/>
    <tag k="note" v="imported from plan.at; (C)=CC-by-sa or oDBL; feel free to change if necessary"/>
    <tag k="source" v="plan.at 2009"/>
  </way>
  <way id="30206663" version="7" timestamp="2010-11-11T23:03:37Z" uid="12295" user="mapper_07" changeset="6347758">
    <nd ref="332891489"/>
    <nd ref="332891491"/>
    <nd ref="332891493"/>
    <nd ref="332891495"/>
    <nd ref="332891497"/>
    <nd ref="332891500"/>
    <nd ref="332891501"/>
    <nd ref="332891502"/>
    <tag k="addr:postcode" v="3741"/>
    <tag k="at:maxspeed" v="Ortsgebiet"/>
    <tag k="fixme" v="check import"/>
    <tag k="highway" v="residential"/>
    <tag k="highway:plan.at:hl" v="residential"/>
    <tag k="is_in" v="...,Bezirk Hollabrunn,Niederösterreich,Österreich,Europa"/>
    <tag k="note" v="imported from plan.at; (C)=CC-by-sa or oDBL; feel free to change if necessary"/>
    <tag k="source" v="plan.at 2009"/>
  </way>
  <way id="30206663" version="8" timestamp="2010-11-20T16:25:12Z" uid="47064" user="7503146" changeset="6415543">
    <nd ref="332891489"/>
    <nd ref="332891491"/>
    <nd ref="332891493"/>
    <nd ref="332891495"/>
    <nd ref="332891497"/>
    <nd ref="332891500"/>
    <nd ref="332891501"/>
    <nd ref="332891502"/>
    <tag k="addr:postcode" v="3741"/>
    <tag k="fixme" v="check import"/>
    <tag k="highway" v="residential"/>
    <tag k="highway:plan.at:hl" v="residential"/>
    <tag k="is_in" v="...,Bezirk Hollabrunn,Niederösterreich,Österreich,Europa"/>
    <tag k="source" v="plan.at 2009"/>
  </way>
  <way id="30206663" version="9" timestamp="2011-01-26T17:56:11Z" uid="45347" user="eriosw" changeset="7095887">
    <nd ref="332891489"/>
    <nd ref="332891491"/>
    <nd ref="332891493"/>
    <nd ref="332891495"/>
    <nd ref="332891497"/>
    <nd ref="332891500"/>
    <nd ref="332891501"/>
    <nd ref="332891502"/>
    <tag k="addr:postcode" v="3741"/>
    <tag k="fixme" v="check import"/>
    <tag k="highway" v="residential"/>
    <tag k="highway:plan.at:hl" v="residential"/>
    <tag k="is_in" v="Pulkau,Hollabrunn,Niederösterreich,Österreich,Europe"/>
    <tag k="source" v="plan.at 2009"/>
  </way>
  <way id="30206663" version="10" timestamp="2011-03-28T19:23:50Z" uid="99800" user="wolfbert" changeset="7700472">
    <nd ref="332891489"/>
    <nd ref="332891491"/>
    <nd ref="332891493"/>
    <nd ref="332891495"/>
    <nd ref="332891497"/>
    <nd ref="332891500"/>
    <nd ref="332891501"/>
    <nd ref="332891502"/>
    <tag k="addr:postcode" v="3741"/>
    <tag k="fixme" v="check import"/>
    <tag k="highway" v="residential"/>
    <tag k="is_in" v="Pulkau,Hollabrunn,Niederösterreich,Österreich,Europe"/>
    <tag k="source" v="plan.at 2009"/>
  </way>
  <way id="30206663" version="11" timestamp="2011-07-24T09:07:07Z" uid="491845" user="data_at" changeset="8813157">
    <nd ref="332891489"/>
    <nd ref="332891491"/>
    <nd ref="332891493"/>
    <nd ref="332891495"/>
    <nd ref="332891497"/>
    <nd ref="332891500"/>
    <nd ref="332891501"/>
    <nd ref="332891502"/>
    <tag k="fixme" v="check import"/>
    <tag k="highway" v="residential"/>
    <tag k="is_in" v="Pulkau,Hollabrunn,Niederösterreich,Österreich,Europe"/>
    <tag k="source" v="plan.at 2009"/>
  </way>
  <way id="30206665" version="5" timestamp="2010-03-16T10:10:54Z" uid="58091" user="Andreas M" changeset="4142055">
    <nd ref="332891504"/>
    <nd ref="332891506"/>
    <nd ref="332891484"/>
    <nd ref="332891508"/>
    <nd ref="332891489"/>
    <nd ref="332891509"/>
    <nd ref="332891510"/>
    <nd ref="332891519"/>
    <nd ref="332891528"/>
    <nd ref="332891536"/>
    <nd ref="332891538"/>
    <nd ref="332891540"/>
    <nd ref="332891542"/>
    <nd ref="332891544"/>
    <nd ref="332891546"/>
    <nd ref="332891548"/>
    <tag k="addr:postcode" v="3741"/>
    <tag k="at:maxspeed" v="Ortsgebiet"/>
    <tag k="fixme" v="check import"/>
    <tag k="highway" v="residential"/>
    <tag k="highway:plan.at:hl" v="residential"/>
    <tag k="is_in" v="...,Bezirk Hollabrunn,Niederösterreich,Österreich,Europa"/>
    <tag k="note" v="imported from plan.at; (C)=CC-by-sa or oDBL; feel free to change if necessary"/>
    <tag k="plan_at:acad_id" v="hl4E5"/>
    <tag k="source" v="plan.at 2009"/>
    <tag k="uploaded_by" v="Wolfgang W. Wasserburger"/>
  </way>
  <way id="30206665" version="6" timestamp="2010-05-26T05:18:07Z" uid="95813" user="stefan_hochstoeger" changeset="4809846">
    <nd ref="332891504"/>
    <nd ref="332891506"/>
    <nd ref="332891484"/>
    <nd ref="332891508"/>
    <nd ref="332891489"/>
    <nd ref="332891509"/>
    <nd ref="332891510"/>
    <nd ref="332891519"/>
    <nd ref="332891528"/>
    <nd ref="332891536"/>
    <nd ref="332891538"/>
    <nd ref="332891540"/>
    <nd ref="332891542"/>
    <nd ref="332891544"/>
    <nd ref="332891546"/>
    <nd ref="332891548"/>
    <tag k="addr:postcode" v="3741"/>
    <tag k="at:maxspeed" v="Ortsgebiet"/>
    <tag k="fixme" v="check import"/>
    <tag k="highway" v="residential"/>
    <tag k="highway:plan.at:hl" v="residential"/>
    <tag k="is_in" v="...,Bezirk Hollabrunn,Niederösterreich,Österreich,Europa"/>
    <tag k="note" v="imported from plan.at; (C)=CC-by-sa or oDBL; feel free to change if necessary"/>
    <tag k="source" v="plan.at 2009"/>
  </way>
  <way id="30206665" version="7" timestamp="2010-10-23T21:29:58Z" uid="12295" user="mapper_07" changeset="6151827">
    <nd ref="332891504"/>
    <nd ref="962274433"/>
    <nd ref="332891506"/>
    <nd ref="332891484"/>
    <nd ref="332891508"/>
    <nd ref="332891489"/>
    <nd ref="332891509"/>
    <nd ref="332891510"/>
    <nd ref="332891519"/>
    <nd ref="332891528"/>
    <nd ref="332891536"/>
    <nd ref="332891538"/>
    <nd ref="332891540"/>
    <nd ref="332891542"/>
    <nd ref="332891544"/>
    <nd ref="332891546"/>
    <nd ref="332891548"/>
    <tag k="addr:postcode" v="3741"/>
    <tag k="at:maxspeed" v="Ortsgebiet"/>
    <tag k="fixme" v="check import"/>
    <tag k="highway" v="residential"/>
    <tag k="highway:plan.at:hl" v="residential"/>
    <tag k="is_in" v="...,Bezirk Hollabrunn,Niederösterreich,Österreich,Europa"/>
    <tag k="note" v="imported from plan.at; (C)=CC-by-sa or oDBL; feel free to change if necessary"/>
    <tag k="source" v="plan.at 2009"/>
  </way>
  <way id="30206665" version="8" timestamp="2010-10-29T21:54:30Z" uid="45756" user="magellan" changeset="6222913">
    <nd ref="335878282"/>
    <nd ref="332891607"/>
    <nd ref="332891548"/>
    <nd ref="332891546"/>
    <nd ref="332891544"/>
    <nd ref="332891542"/>
    <tag k="highway" v="secondary"/>
    <tag k="ref" v="L 1151"/>
  </way>
  <way id="30206665" version="9" timestamp="2010-11-10T14:41:37Z" uid="19261" user="QEDquid" changeset="6336408">
    <nd ref="335878282"/>
    <nd ref="332891607"/>
    <nd ref="332891548"/>
    <nd ref="332891546"/>
    <nd ref="332891544"/>
    <nd ref="332891542"/>
    <tag k="highway" v="tertiary"/>
    <tag k="ref" v="L 1151"/>
  </way>
  <way id="30206665" version="10" timestamp="2011-03-13T21:15:13Z" uid="12295" user="mapper_07" changeset="7550479">
    <nd ref="335878282"/>
    <nd ref="1200782714"/>
    <nd ref="332891607"/>
    <nd ref="1200785469"/>
    <nd ref="1200785053"/>
    <nd ref="332891548"/>
    <nd ref="332891546"/>
    <nd ref="332891544"/>
    <nd ref="332891542"/>
    <tag k="highway" v="tertiary"/>
    <tag k="ref" v="L 1151"/>
  </way>
  <way id="30206665" version="11" timestamp="2011-03-14T19:08:28Z" uid="12295" user="mapper_07" changeset="7559786">
    <nd ref="335878282"/>
    <nd ref="1200782714"/>
    <nd ref="332891607"/>
    <nd ref="1200785469"/>
    <nd ref="1200785053"/>
    <nd ref="1201966283"/>
    <nd ref="332891548"/>
    <nd ref="332891546"/>
    <nd ref="1201966305"/>
    <nd ref="332891544"/>
    <nd ref="332891542"/>
    <tag k="highway" v="tertiary"/>
    <tag k="ref" v="L 1151"/>
  </way>
  <way id="30206667" version="5" timestamp="2010-03-16T10:11:23Z" uid="58091" user="Andreas M" changeset="4142055">
    <nd ref="332891564"/>
    <nd ref="332891566"/>
    <nd ref="332891508"/>
    <tag k="addr:postcode" v="3741"/>
    <tag k="at:maxspeed" v="Ortsgebiet"/>
    <tag k="fixme" v="check import"/>
    <tag k="highway" v="residential"/>
    <tag k="highway:plan.at:hl" v="residential"/>
    <tag k="is_in" v="...,Bezirk Hollabrunn,Niederösterreich,Österreich,Europa"/>
    <tag k="note" v="imported from plan.at; (C)=CC-by-sa or oDBL; feel free to change if necessary"/>
    <tag k="plan_at:acad_id" v="hl4DF"/>
    <tag k="source" v="plan.at 2009"/>
    <tag k="uploaded_by" v="Wolfgang W. Wasserburger"/>
  </way>
  <way id="30206667" version="6" timestamp="2010-05-26T05:17:58Z" uid="95813" user="stefan_hochstoeger" changeset="4809846">
    <nd ref="332891564"/>
    <nd ref="332891566"/>
    <nd ref="332891508"/>
    <tag k="addr:postcode" v="3741"/>
    <tag k="at:maxspeed" v="Ortsgebiet"/>
    <tag k="fixme" v="check import"/>
    <tag k="highway" v="residential"/>
    <tag k="highway:plan.at:hl" v="residential"/>
    <tag k="is_in" v="...,Bezirk Hollabrunn,Niederösterreich,Österreich,Europa"/>
    <tag k="note" v="imported from plan.at; (C)=CC-by-sa or oDBL; feel free to change if necessary"/>
    <tag k="source" v="plan.at 2009"/>
  </way>
  <way id="30206667" version="7" timestamp="2010-10-23T21:29:50Z" uid="12295" user="mapper_07" changeset="6151827">
    <nd ref="962273427"/>
    <nd ref="962274219"/>
    <nd ref="332891564"/>
    <nd ref="332891566"/>
    <nd ref="962274412"/>
    <nd ref="962273384"/>
    <nd ref="332891508"/>
    <tag k="addr:postcode" v="3741"/>
    <tag k="at:maxspeed" v="Ortsgebiet"/>
    <tag k="fixme" v="check import"/>
    <tag k="highway" v="residential"/>
    <tag k="highway:plan.at:hl" v="residential"/>
    <tag k="is_in" v="...,Bezirk Hollabrunn,Niederösterreich,Österreich,Europa"/>
    <tag k="note" v="imported from plan.at; (C)=CC-by-sa or oDBL; feel free to change if necessary"/>
    <tag k="source" v="plan.at 2009"/>
  </way>
  <way id="30206667" version="8" timestamp="2010-11-20T16:25:02Z" uid="47064" user="7503146" changeset="6415543">
    <nd ref="962273427"/>
    <nd ref="962274219"/>
    <nd ref="332891564"/>
    <nd ref="332891566"/>
    <nd ref="962274412"/>
    <nd ref="962273384"/>
    <nd ref="332891508"/>
    <tag k="addr:postcode" v="3741"/>
    <tag k="fixme" v="check import"/>
    <tag k="highway" v="residential"/>
    <tag k="highway:plan.at:hl" v="residential"/>
    <tag k="is_in" v="...,Bezirk Hollabrunn,Niederösterreich,Österreich,Europa"/>
    <tag k="source" v="plan.at 2009"/>
  </way>
  <way id="30206667" version="9" timestamp="2011-01-26T17:56:23Z" uid="45347" user="eriosw" changeset="7095887">
    <nd ref="962273427"/>
    <nd ref="962274219"/>
    <nd ref="332891564"/>
    <nd ref="332891566"/>
    <nd ref="962274412"/>
    <nd ref="962273384"/>
    <nd ref="332891508"/>
    <tag k="addr:postcode" v="3741"/>
    <tag k="fixme" v="check import"/>
    <tag k="highway" v="residential"/>
    <tag k="highway:plan.at:hl" v="residential"/>
    <tag k="is_in" v="Pulkau,Hollabrunn,Niederösterreich,Österreich,Europe"/>
    <tag k="source" v="plan.at 2009"/>
  </way>
  <way id="30206667" version="10" timestamp="2011-03-28T19:23:46Z" uid="99800" user="wolfbert" changeset="7700472">
    <nd ref="962273427"/>
    <nd ref="962274219"/>
    <nd ref="332891564"/>
    <nd ref="332891566"/>
    <nd ref="962274412"/>
    <nd ref="962273384"/>
    <nd ref="332891508"/>
    <tag k="addr:postcode" v="3741"/>
    <tag k="fixme" v="check import"/>
    <tag k="highway" v="residential"/>
    <tag k="is_in" v="Pulkau,Hollabrunn,Niederösterreich,Österreich,Europe"/>
    <tag k="source" v="plan.at 2009"/>
  </way>
  <way id="30206667" version="11" timestamp="2011-07-24T09:06:40Z" uid="491845" user="data_at" changeset="8813157">
    <nd ref="962273427"/>
    <nd ref="962274219"/>
    <nd ref="332891564"/>
    <nd ref="332891566"/>
    <nd ref="962274412"/>
    <nd ref="962273384"/>
    <nd ref="332891508"/>
    <tag k="fixme" v="check import"/>
    <tag k="highway" v="residential"/>
    <tag k="is_in" v="Pulkau,Hollabrunn,Niederösterreich,Österreich,Europe"/>
    <tag k="source" v="plan.at 2009"/>
  </way>
  <way id="30206667" version="12" timestamp="2011-08-05T13:44:28Z" uid="342419" user="hzim" changeset="8929240">
    <nd ref="962273427"/>
    <nd ref="962274219"/>
    <nd ref="332891564"/>
    <nd ref="332891566"/>
    <nd ref="1387503047"/>
    <nd ref="962274412"/>
    <nd ref="962273384"/>
    <nd ref="332891508"/>
    <tag k="highway" v="residential"/>
    <tag k="source" v="plan.at 2009"/>
  </way>
  <way id="30206668" version="4" timestamp="2010-03-16T10:10:50Z" uid="58091" user="Andreas M" changeset="4142055">
    <nd ref="332891536"/>
    <nd ref="332891500"/>
    <tag k="addr:postcode" v="3741"/>
    <tag k="at:maxspeed" v="Ortsgebiet"/>
    <tag k="created_by" v="WWWOSM 0.1"/>
    <tag k="fixme" v="check import"/>
    <tag k="highway" v="residential"/>
    <tag k="highway:plan.at:hl" v="residential"/>
    <tag k="is_in" v="...,Bezirk Hollabrunn,Niederösterreich,Österreich,Europa"/>
    <tag k="name" v="Rafing"/>
    <tag k="note" v="imported from plan.at; (C)=CC-by-sa or oDBL; feel free to change if necessary"/>
    <tag k="plan_at:acad_id" v="hl4DC"/>
    <tag k="source" v="plan.at 2009"/>
    <tag k="uploaded_by" v="Wolfgang W. Wasserburger"/>
  </way>
  <way id="30206668" version="5" timestamp="2010-05-26T05:18:00Z" uid="95813" user="stefan_hochstoeger" changeset="4809846">
    <nd ref="332891536"/>
    <nd ref="332891500"/>
    <tag k="addr:postcode" v="3741"/>
    <tag k="at:maxspeed" v="Ortsgebiet"/>
    <tag k="fixme" v="check import"/>
    <tag k="highway" v="residential"/>
    <tag k="highway:plan.at:hl" v="residential"/>
    <tag k="is_in" v="...,Bezirk Hollabrunn,Niederösterreich,Österreich,Europa"/>
    <tag k="name" v="Rafing"/>
    <tag k="note" v="imported from plan.at; (C)=CC-by-sa or oDBL; feel free to change if necessary"/>
    <tag k="source" v="plan.at 2009"/>
  </way>
  <way id="30206668" version="6" timestamp="2010-08-09T12:25:15Z" uid="19261" user="QEDquid" changeset="5443203">
    <nd ref="332891536"/>
    <nd ref="332891500"/>
    <tag k="addr:postcode" v="3741"/>
    <tag k="at:maxspeed" v="Ortsgebiet"/>
    <tag k="fixme" v="check import"/>
    <tag k="highway" v="residential"/>
    <tag k="highway:plan.at:hl" v="residential"/>
    <tag k="is_in" v="...,Bezirk Hollabrunn,Niederösterreich,Österreich,Europa"/>
    <tag k="note" v="imported from plan.at; (C)=CC-by-sa or oDBL; feel free to change if necessary"/>
    <tag k="source" v="plan.at 2009"/>
  </way>
  <way id="30206668" version="7" timestamp="2010-11-20T16:26:01Z" uid="47064" user="7503146" changeset="6415543">
    <nd ref="332891536"/>
    <nd ref="332891500"/>
    <tag k="addr:postcode" v="3741"/>
    <tag k="fixme" v="check import"/>
    <tag k="highway" v="residential"/>
    <tag k="highway:plan.at:hl" v="residential"/>
    <tag k="is_in" v="...,Bezirk Hollabrunn,Niederösterreich,Österreich,Europa"/>
    <tag k="source" v="plan.at 2009"/>
  </way>
  <way id="30206668" version="8" timestamp="2011-01-26T17:56:41Z" uid="45347" user="eriosw" changeset="7095887">
    <nd ref="332891536"/>
    <nd ref="332891500"/>
    <tag k="addr:postcode" v="3741"/>
    <tag k="fixme" v="check import"/>
    <tag k="highway" v="residential"/>
    <tag k="highway:plan.at:hl" v="residential"/>
    <tag k="is_in" v="Pulkau,Hollabrunn,Niederösterreich,Österreich,Europe"/>
    <tag k="source" v="plan.at 2009"/>
  </way>
  <way id="30206668" version="9" timestamp="2011-03-28T19:23:53Z" uid="99800" user="wolfbert" changeset="7700472">
    <nd ref="332891536"/>
    <nd ref="332891500"/>
    <tag k="addr:postcode" v="3741"/>
    <tag k="fixme" v="check import"/>
    <tag k="highway" v="residential"/>
    <tag k="is_in" v="Pulkau,Hollabrunn,Niederösterreich,Österreich,Europe"/>
    <tag k="source" v="plan.at 2009"/>
  </way>
  <way id="30206668" version="10" timestamp="2011-07-24T09:00:57Z" uid="491845" user="data_at" changeset="8813157">
    <nd ref="332891536"/>
    <nd ref="332891500"/>
    <tag k="fixme" v="check import"/>
    <tag k="highway" v="residential"/>
    <tag k="is_in" v="Pulkau,Hollabrunn,Niederösterreich,Österreich,Europe"/>
    <tag k="source" v="plan.at 2009"/>
  </way>
  <way id="30206668" version="11" timestamp="2011-08-05T13:44:26Z" uid="342419" user="hzim" changeset="8929240">
    <nd ref="332891536"/>
    <nd ref="332891500"/>
    <tag k="highway" v="residential"/>
    <tag k="source" v="plan.at 2009"/>
  </way>
  <way id="30206670" version="4" timestamp="2010-03-16T10:11:19Z" uid="58091" user="Andreas M" changeset="4142055">
    <nd ref="332891570"/>
    <nd ref="332891571"/>
    <nd ref="332891510"/>
    <tag k="addr:postcode" v="3741"/>
    <tag k="at:maxspeed" v="Ortsgebiet"/>
    <tag k="created_by" v="WWWOSM 0.1"/>
    <tag k="fixme" v="check import"/>
    <tag k="highway" v="residential"/>
    <tag k="highway:plan.at:hl" v="residential"/>
    <tag k="is_in" v="...,Bezirk Hollabrunn,Niederösterreich,Österreich,Europa"/>
    <tag k="name" v="Rafing"/>
    <tag k="note" v="imported from plan.at; (C)=CC-by-sa or oDBL; feel free to change if necessary"/>
    <tag k="plan_at:acad_id" v="hl4D9"/>
    <tag k="source" v="plan.at 2009"/>
    <tag k="uploaded_by" v="Wolfgang W. Wasserburger"/>
  </way>
  <way id="30206670" version="5" timestamp="2010-05-26T05:19:18Z" uid="95813" user="stefan_hochstoeger" changeset="4809846">
    <nd ref="332891570"/>
    <nd ref="332891571"/>
    <nd ref="332891510"/>
    <tag k="addr:postcode" v="3741"/>
    <tag k="at:maxspeed" v="Ortsgebiet"/>
    <tag k="fixme" v="check import"/>
    <tag k="highway" v="residential"/>
    <tag k="highway:plan.at:hl" v="residential"/>
    <tag k="is_in" v="...,Bezirk Hollabrunn,Niederösterreich,Österreich,Europa"/>
    <tag k="name" v="Rafing"/>
    <tag k="note" v="imported from plan.at; (C)=CC-by-sa or oDBL; feel free to change if necessary"/>
    <tag k="source" v="plan.at 2009"/>
  </way>
  <way id="30206670" version="6" timestamp="2010-08-09T12:24:21Z" uid="19261" user="QEDquid" changeset="5443203">
    <nd ref="332891570"/>
    <nd ref="332891571"/>
    <nd ref="332891510"/>
    <tag k="addr:postcode" v="3741"/>
    <tag k="at:maxspeed" v="Ortsgebiet"/>
    <tag k="fixme" v="check import"/>
    <tag k="highway" v="residential"/>
    <tag k="highway:plan.at:hl" v="residential"/>
    <tag k="is_in" v="...,Bezirk Hollabrunn,Niederösterreich,Österreich,Europa"/>
    <tag k="note" v="imported from plan.at; (C)=CC-by-sa or oDBL; feel free to change if necessary"/>
    <tag k="source" v="plan.at 2009"/>
  </way>
  <way id="30206670" version="7" timestamp="2010-11-20T16:25:35Z" uid="47064" user="7503146" changeset="6415543">
    <nd ref="332891570"/>
    <nd ref="332891571"/>
    <nd ref="332891510"/>
    <tag k="addr:postcode" v="3741"/>
    <tag k="fixme" v="check import"/>
    <tag k="highway" v="residential"/>
    <tag k="highway:plan.at:hl" v="residential"/>
    <tag k="is_in" v="...,Bezirk Hollabrunn,Niederösterreich,Österreich,Europa"/>
    <tag k="source" v="plan.at 2009"/>
  </way>
  <way id="30206670" version="8" timestamp="2011-01-26T17:56:16Z" uid="45347" user="eriosw" changeset="7095887">
    <nd ref="332891570"/>
    <nd ref="332891571"/>
    <nd ref="332891510"/>
    <tag k="addr:postcode" v="3741"/>
    <tag k="fixme" v="check import"/>
    <tag k="highway" v="residential"/>
    <tag k="highway:plan.at:hl" v="residential"/>
    <tag k="is_in" v="Pulkau,Hollabrunn,Niederösterreich,Österreich,Europe"/>
    <tag k="source" v="plan.at 2009"/>
  </way>
  <way id="30206670" version="9" timestamp="2011-03-28T19:23:56Z" uid="99800" user="wolfbert" changeset="7700472">
    <nd ref="332891570"/>
    <nd ref="332891571"/>
    <nd ref="332891510"/>
    <tag k="addr:postcode" v="3741"/>
    <tag k="fixme" v="check import"/>
    <tag k="highway" v="residential"/>
    <tag k="is_in" v="Pulkau,Hollabrunn,Niederösterreich,Österreich,Europe"/>
    <tag k="source" v="plan.at 2009"/>
  </way>
  <way id="30206670" version="10" timestamp="2011-07-24T09:03:07Z" uid="491845" user="data_at" changeset="8813157">
    <nd ref="332891570"/>
    <nd ref="332891571"/>
    <nd ref="332891510"/>
    <tag k="fixme" v="check import"/>
    <tag k="highway" v="residential"/>
    <tag k="is_in" v="Pulkau,Hollabrunn,Niederösterreich,Österreich,Europe"/>
    <tag k="source" v="plan.at 2009"/>
  </way>
  <way id="30206670" version="11" timestamp="2011-08-05T13:44:27Z" uid="342419" user="hzim" changeset="8929240">
    <nd ref="332891570"/>
    <nd ref="332891571"/>
    <nd ref="332891510"/>
    <tag k="highway" v="residential"/>
    <tag k="is_in" v="Pulkau,Hollabrunn,Niederösterreich,Österreich,Europe"/>
    <tag k="source" v="plan.at 2009"/>
  </way>
  <way id="30206676" version="8" timestamp="2010-03-16T10:11:14Z" uid="58091" user="Andreas M" changeset="4142055">
    <nd ref="335878282"/>
    <nd ref="332891607"/>
    <nd ref="332891548"/>
    <tag k="addr:postcode" v="3741"/>
    <tag k="created_by" v="Potlatch 0.10f"/>
    <tag k="fixme" v="check import"/>
    <tag k="highway" v="unclassified"/>
    <tag k="highway:plan.at:hl" v="residential"/>
    <tag k="is_in" v="...,Bezirk Hollabrunn,Niederösterreich,Österreich,Europa"/>
    <tag k="note" v="imported from plan.at; (C)=CC-by-sa or oDBL; feel free to change if necessary"/>
    <tag k="plan_at:acad_id" v="hl4D0"/>
    <tag k="source" v="plan.at 2009"/>
    <tag k="uploaded_by" v="Wolfgang W. Wasserburger"/>
  </way>
  <way id="30206676" version="9" timestamp="2010-05-26T05:19:17Z" uid="95813" user="stefan_hochstoeger" changeset="4809846">
    <nd ref="335878282"/>
    <nd ref="332891607"/>
    <nd ref="332891548"/>
    <tag k="addr:postcode" v="3741"/>
    <tag k="fixme" v="check import"/>
    <tag k="highway" v="unclassified"/>
    <tag k="highway:plan.at:hl" v="residential"/>
    <tag k="is_in" v="...,Bezirk Hollabrunn,Niederösterreich,Österreich,Europa"/>
    <tag k="note" v="imported from plan.at; (C)=CC-by-sa or oDBL; feel free to change if necessary"/>
    <tag k="source" v="plan.at 2009"/>
  </way>
  <way id="30206676" version="10" timestamp="2010-10-29T21:54:51Z" uid="45756" user="magellan" changeset="6222913"/>
  <way id="30206687" version="9" timestamp="2010-03-07T10:58:33Z" uid="58091" user="Andreas M" changeset="4059582">
    <nd ref="334326717"/>
    <nd ref="488279362"/>
    <nd ref="332891659"/>
    <nd ref="332891661"/>
    <nd ref="332891662"/>
    <nd ref="332891666"/>
    <nd ref="332891668"/>
    <tag k="fixme" v="check import"/>
    <tag k="highway" v="residential"/>
    <tag k="is_in:city" v="Unterretzbach"/>
    <tag k="is_in:country_code" v="AT"/>
    <tag k="name" v="Sterngasse"/>
    <tag k="postal_code" v="2074"/>
    <tag k="source" v="plan.at 2009"/>
  </way>
  <way id="30206687" version="10" timestamp="2010-12-30T15:14:09Z" uid="342419" user="hzim" changeset="6810494">
    <nd ref="334326717"/>
    <nd ref="488279362"/>
    <nd ref="332891659"/>
    <nd ref="332891661"/>
    <nd ref="332891662"/>
    <nd ref="1073032269"/>
    <nd ref="1073032222"/>
    <nd ref="332891666"/>
    <nd ref="332891668"/>
    <tag k="highway" v="residential"/>
    <tag k="is_in:city" v="Unterretzbach"/>
    <tag k="is_in:country_code" v="AT"/>
    <tag k="name" v="Sterngasse"/>
    <tag k="postal_code" v="2074"/>
    <tag k="source" v="Bing"/>
  </way>
  <way id="30206701" version="9" timestamp="2010-03-07T10:58:31Z" uid="58091" user="Andreas M" changeset="4059582">
    <nd ref="334322566"/>
    <nd ref="332891720"/>
    <nd ref="332891725"/>
    <nd ref="332891728"/>
    <nd ref="332891730"/>
    <nd ref="332891735"/>
    <nd ref="646743936"/>
    <nd ref="332891697"/>
    <nd ref="332891743"/>
    <nd ref="332891659"/>
    <tag k="highway" v="residential"/>
    <tag k="is_in:city" v="Unterretzbach"/>
    <tag k="is_in:country_code" v="AT"/>
    <tag k="name" v="Weinberggasse"/>
    <tag k="postal_code" v="2074"/>
  </way>
  <way id="30206701" version="10" timestamp="2011-01-06T20:03:42Z" uid="12295" user="mapper_07" changeset="6886410">
    <nd ref="334322566"/>
    <nd ref="332891720"/>
    <nd ref="1086572469"/>
    <nd ref="332891725"/>
    <nd ref="332891728"/>
    <nd ref="332891730"/>
    <nd ref="332891735"/>
    <nd ref="646743936"/>
    <nd ref="332891697"/>
    <nd ref="332891743"/>
    <nd ref="332891659"/>
    <tag k="highway" v="residential"/>
    <tag k="is_in:city" v="Unterretzbach"/>
    <tag k="is_in:country_code" v="AT"/>
    <tag k="name" v="Weinberggasse"/>
    <tag k="postal_code" v="2074"/>
  </way>
  <way id="30206704" version="12" timestamp="2010-03-07T10:58:31Z" uid="58091" user="Andreas M" changeset="4059582">
    <nd ref="332891699"/>
    <nd ref="332891701"/>
    <nd ref="332891703"/>
    <nd ref="332891704"/>
    <nd ref="332891708"/>
    <nd ref="332891710"/>
    <nd ref="332891711"/>
    <nd ref="332891712"/>
    <nd ref="332891714"/>
    <nd ref="332891655"/>
    <nd ref="332891685"/>
    <nd ref="332891751"/>
    <nd ref="581065207"/>
    <tag k="fixme" v="check import"/>
    <tag k="highway" v="residential"/>
    <tag k="is_in:city" v="Unterretzbach"/>
    <tag k="is_in:country_code" v="AT"/>
    <tag k="name" v="Dorfstraße"/>
    <tag k="postal_code" v="2074"/>
    <tag k="source" v="plan.at 2009"/>
  </way>
  <way id="30206704" version="13" timestamp="2010-12-30T15:14:02Z" uid="342419" user="hzim" changeset="6810494">
    <nd ref="332891701"/>
    <nd ref="332891703"/>
    <nd ref="332891704"/>
    <nd ref="332891708"/>
    <nd ref="332891710"/>
    <nd ref="332891711"/>
    <nd ref="332891714"/>
    <nd ref="1073032245"/>
    <nd ref="332891655"/>
    <nd ref="1073032226"/>
    <nd ref="1073032202"/>
    <nd ref="332891685"/>
    <nd ref="332891751"/>
    <nd ref="581065207"/>
    <tag k="highway" v="residential"/>
    <tag k="is_in:city" v="Unterretzbach"/>
    <tag k="name" v="Dorfstraße"/>
    <tag k="postal_code" v="2074"/>
    <tag k="source" v="Bing"/>
  </way>
  <way id="30206728" version="7" timestamp="2010-03-07T10:58:34Z" uid="58091" user="Andreas M" changeset="4059582">
    <nd ref="332891974"/>
    <nd ref="332891976"/>
    <nd ref="332891978"/>
    <nd ref="332891671"/>
    <nd ref="332891980"/>
    <tag k="fixme" v="check import"/>
    <tag k="highway" v="residential"/>
    <tag k="is_in:city" v="Unterretzbach"/>
    <tag k="is_in:country_code" v="AT"/>
    <tag k="name" v="Spitzweg"/>
    <tag k="postal_code" v="2074"/>
    <tag k="source" v="plan.at 2009"/>
  </way>
  <way id="30206728" version="8" timestamp="2010-12-30T15:14:06Z" uid="342419" user="hzim" changeset="6810494">
    <nd ref="332891974"/>
    <nd ref="1073032266"/>
    <nd ref="332891976"/>
    <nd ref="332891978"/>
    <nd ref="332891671"/>
    <nd ref="332891980"/>
    <tag k="highway" v="residential"/>
    <tag k="is_in:city" v="Unterretzbach"/>
    <tag k="name" v="Spitzweg"/>
    <tag k="postal_code" v="2074"/>
    <tag k="source" v="Bing"/>
  </way>
  <way id="30206732" version="7" timestamp="2010-03-07T10:58:34Z" uid="58091" user="Andreas M" changeset="4059582">
    <nd ref="332891735"/>
    <nd ref="332892005"/>
    <tag k="fixme" v="check import"/>
    <tag k="highway" v="residential"/>
    <tag k="is_in:city" v="Unterretzbach"/>
    <tag k="is_in:country_code" v="AT"/>
    <tag k="name" v="Halblehenweg"/>
    <tag k="postal_code" v="2074"/>
    <tag k="source" v="plan.at 2009"/>
  </way>
  <way id="30206732" version="8" timestamp="2010-12-30T15:14:00Z" uid="342419" user="hzim" changeset="6810494">
    <nd ref="332891735"/>
    <nd ref="1073032250"/>
    <nd ref="1073032292"/>
    <nd ref="332892005"/>
    <tag k="highway" v="residential"/>
    <tag k="is_in:city" v="Unterretzbach"/>
    <tag k="name" v="Halblehenweg"/>
    <tag k="postal_code" v="2074"/>
    <tag k="source" v="Bing"/>
  </way>
  <way id="30206748" version="6" timestamp="2010-03-07T10:58:34Z" uid="58091" user="Andreas M" changeset="4059582">
    <nd ref="332891659"/>
    <nd ref="332892103"/>
    <nd ref="332892106"/>
    <tag k="fixme" v="check import"/>
    <tag k="highway" v="residential"/>
    <tag k="is_in:city" v="Unterretzbach"/>
    <tag k="is_in:country_code" v="AT"/>
    <tag k="name" v="Kirchfeldgasse"/>
    <tag k="postal_code" v="2074"/>
    <tag k="source" v="plan.at 2009"/>
  </way>
  <way id="30206748" version="7" timestamp="2010-12-30T15:14:20Z" uid="342419" user="hzim" changeset="6810494">
    <nd ref="332891659"/>
    <nd ref="332892103"/>
    <nd ref="1073032295"/>
    <nd ref="1073032251"/>
    <nd ref="332892106"/>
    <tag k="highway" v="residential"/>
    <tag k="is_in:city" v="Unterretzbach"/>
    <tag k="name" v="Kirchfeldgasse"/>
    <tag k="postal_code" v="2074"/>
    <tag k="source" v="plan.at 2009"/>
  </way>
  <way id="30206755" version="7" timestamp="2010-03-07T10:58:34Z" uid="58091" user="Andreas M" changeset="4059582">
    <nd ref="332892132"/>
    <nd ref="332892005"/>
    <nd ref="332892136"/>
    <nd ref="332892138"/>
    <nd ref="332892140"/>
    <nd ref="332892142"/>
    <nd ref="332892145"/>
    <nd ref="332892063"/>
    <nd ref="332892147"/>
    <nd ref="332892149"/>
    <tag k="fixme" v="check import"/>
    <tag k="highway" v="residential"/>
    <tag k="is_in:city" v="Unterretzbach"/>
    <tag k="is_in:country_code" v="AT"/>
    <tag k="name" v="Halblehenweg"/>
    <tag k="postal_code" v="2074"/>
    <tag k="source" v="plan.at 2009"/>
  </way>
  <way id="30206755" version="8" timestamp="2010-12-30T15:14:10Z" uid="342419" user="hzim" changeset="6810494">
    <nd ref="332892132"/>
    <nd ref="1073032197"/>
    <nd ref="1073032204"/>
    <nd ref="332892005"/>
    <nd ref="332892136"/>
    <nd ref="332892138"/>
    <nd ref="332892140"/>
    <nd ref="332892142"/>
    <nd ref="1073032278"/>
    <nd ref="332892145"/>
    <nd ref="332892063"/>
    <nd ref="332892147"/>
    <nd ref="332892149"/>
    <tag k="highway" v="residential"/>
    <tag k="is_in:city" v="Unterretzbach"/>
    <tag k="name" v="Halblehenweg"/>
    <tag k="postal_code" v="2074"/>
    <tag k="source" v="Bing"/>
  </way>
  <way id="30206755" version="9" timestamp="2012-03-13T16:14:35Z" uid="623329" user="Norret" changeset="10968507">
    <nd ref="1673532681"/>
    <nd ref="1673532704"/>
    <nd ref="1673532656"/>
    <nd ref="1673532671"/>
    <nd ref="1673532619"/>
    <nd ref="1673532674"/>
    <nd ref="332892132"/>
    <nd ref="1073032197"/>
    <nd ref="1073032204"/>
    <nd ref="332892005"/>
    <nd ref="332892136"/>
    <nd ref="332892138"/>
    <nd ref="332892140"/>
    <nd ref="332892142"/>
    <nd ref="1073032278"/>
    <nd ref="332892145"/>
    <nd ref="332892063"/>
    <nd ref="332892147"/>
    <nd ref="332892149"/>
    <tag k="highway" v="residential"/>
    <tag k="is_in:city" v="Unterretzbach"/>
    <tag k="name" v="Halblehenweg"/>
    <tag k="postal_code" v="2074"/>
    <tag k="source" v="Bing"/>
  </way>
  <way id="30206755" version="10" timestamp="2012-03-15T13:53:04Z" uid="623329" user="Norret" changeset="10988567">
    <nd ref="1673532681"/>
    <nd ref="1673532704"/>
    <nd ref="1673532656"/>
    <nd ref="1673532671"/>
    <nd ref="1673532619"/>
    <nd ref="1673532674"/>
    <nd ref="332892132"/>
    <nd ref="1073032197"/>
    <nd ref="1073032204"/>
    <nd ref="332892005"/>
    <nd ref="1675777963"/>
    <nd ref="332892136"/>
    <nd ref="332892138"/>
    <nd ref="1675777968"/>
    <nd ref="332892140"/>
    <nd ref="332892142"/>
    <nd ref="1073032278"/>
    <nd ref="332892145"/>
    <nd ref="332892063"/>
    <nd ref="332892147"/>
    <nd ref="332892149"/>
    <tag k="highway" v="residential"/>
    <tag k="is_in:city" v="Unterretzbach"/>
    <tag k="name" v="Halblehenweg"/>
    <tag k="postal_code" v="2074"/>
    <tag k="source" v="Bing"/>
  </way>
  <way id="30206760" version="8" timestamp="2010-03-07T10:58:34Z" uid="58091" user="Andreas M" changeset="4059582">
    <nd ref="332892103"/>
    <nd ref="332892170"/>
    <nd ref="332892172"/>
    <nd ref="332892174"/>
    <nd ref="332892176"/>
    <nd ref="332892180"/>
    <nd ref="332892184"/>
    <nd ref="332892015"/>
    <nd ref="332892187"/>
    <tag k="fixme" v="check import"/>
    <tag k="highway" v="unclassified"/>
    <tag k="is_in:city" v="Unterretzbach"/>
    <tag k="is_in:country_code" v="AT"/>
    <tag k="name" v="Lindengasse"/>
    <tag k="postal_code" v="2074"/>
    <tag k="source" v="plan.at 2009"/>
  </way>
  <way id="30206760" version="9" timestamp="2010-12-30T15:14:01Z" uid="342419" user="hzim" changeset="6810494">
    <nd ref="332892103"/>
    <nd ref="332892170"/>
    <nd ref="332892172"/>
    <nd ref="332892174"/>
    <nd ref="332892176"/>
    <nd ref="332892180"/>
    <nd ref="332892184"/>
    <nd ref="1073032285"/>
    <nd ref="1073032192"/>
    <nd ref="332892015"/>
    <nd ref="332892187"/>
    <tag k="highway" v="unclassified"/>
    <tag k="is_in:city" v="Unterretzbach"/>
    <tag k="is_in:country_code" v="AT"/>
    <tag k="name" v="Lindengasse"/>
    <tag k="postal_code" v="2074"/>
    <tag k="source" v="GPS"/>
  </way>
  <way id="30206760" version="10" timestamp="2011-04-27T16:41:47Z" uid="12295" user="mapper_07" changeset="7986748">
    <nd ref="332892103"/>
    <nd ref="332892170"/>
    <nd ref="332892172"/>
    <nd ref="332892174"/>
    <nd ref="332892176"/>
    <nd ref="332892180"/>
    <nd ref="332892184"/>
    <nd ref="1073032285"/>
    <nd ref="1262264982"/>
    <nd ref="1073032192"/>
    <nd ref="332892015"/>
    <nd ref="332892187"/>
    <tag k="highway" v="unclassified"/>
    <tag k="is_in:city" v="Unterretzbach"/>
    <tag k="is_in:country_code" v="AT"/>
    <tag k="name" v="Lindengasse"/>
    <tag k="postal_code" v="2074"/>
    <tag k="source" v="GPS"/>
  </way>
  <way id="30206760" version="11" timestamp="2012-01-25T10:37:32Z" uid="474183" user="ratrun" changeset="10492220">
    <nd ref="332892103"/>
    <nd ref="332892170"/>
    <nd ref="332892172"/>
    <nd ref="332892174"/>
    <nd ref="332892176"/>
    <nd ref="332892180"/>
    <nd ref="332892184"/>
    <nd ref="1073032285"/>
    <nd ref="1262264982"/>
    <nd ref="1073032192"/>
    <nd ref="332892015"/>
    <nd ref="332892187"/>
    <tag k="highway" v="unclassified"/>
    <tag k="is_in:city" v="Unterretzbach"/>
    <tag k="is_in:country_code" v="AT"/>
    <tag k="name" v="Lindengasse"/>
    <tag k="source" v="GPS"/>
  </way>
  <way id="30206787" version="7" timestamp="2010-03-07T10:58:31Z" uid="58091" user="Andreas M" changeset="4059582">
    <nd ref="221130535"/>
    <nd ref="332892322"/>
    <nd ref="332892323"/>
    <nd ref="332892324"/>
    <nd ref="332892326"/>
    <nd ref="332892327"/>
    <nd ref="332892329"/>
    <tag k="fixme" v="check import"/>
    <tag k="highway" v="residential"/>
    <tag k="is_in:city" v="Retz"/>
    <tag k="is_in:country_code" v="AT"/>
    <tag k="name" v="Sandweggasse"/>
    <tag k="postal_code" v="2070"/>
    <tag k="source" v="plan.at 2009"/>
  </way>
  <way id="30206787" version="8" timestamp="2010-03-16T05:09:22Z" uid="45756" user="magellan" changeset="4140588">
    <nd ref="221130535"/>
    <nd ref="332892322"/>
    <nd ref="332892323"/>
    <nd ref="332892324"/>
    <nd ref="332892326"/>
    <nd ref="332892327"/>
    <nd ref="332892329"/>
    <tag k="addr:city" v="Retz"/>
    <tag k="addr:country" v="AT"/>
    <tag k="addr:postcode" v="2070"/>
    <tag k="addr:street" v="Sandweggasse"/>
    <tag k="fixme" v="check import"/>
    <tag k="highway" v="residential"/>
    <tag k="name" v="Sandweggasse"/>
    <tag k="source" v="plan.at 2009"/>
  </way>
  <way id="30206787" version="9" timestamp="2011-07-29T10:15:53Z" uid="491845" user="data_at" changeset="8861652">
    <nd ref="221130535"/>
    <nd ref="332892322"/>
    <nd ref="332892323"/>
    <nd ref="332892324"/>
    <nd ref="332892326"/>
    <nd ref="332892327"/>
    <nd ref="332892329"/>
    <tag k="fixme" v="check import"/>
    <tag k="highway" v="residential"/>
    <tag k="name" v="Sandweggasse"/>
    <tag k="source" v="plan.at 2009"/>
  </way>
  <way id="30206816" version="4" timestamp="2010-03-07T10:52:45Z" uid="58091" user="Andreas M" changeset="4059516">
    <nd ref="332892572"/>
    <nd ref="333757850"/>
    <tag k="fixme" v="check import"/>
    <tag k="highway" v="residential"/>
    <tag k="name" v="Seifriedweg"/>
    <tag k="postal_code" v="2231"/>
    <tag k="source" v="plan.at 2009"/>
  </way>
  <way id="30206816" version="5" timestamp="2012-01-07T13:07:13Z" uid="74896" user="tevake" changeset="10320828">
    <nd ref="332892572"/>
    <nd ref="333757850"/>
    <tag k="fixme" v="check import"/>
    <tag k="highway" v="service"/>
    <tag k="name" v="Seifriedweg"/>
    <tag k="postal_code" v="2231"/>
    <tag k="service" v="Gasse1"/>
    <tag k="source" v="plan.at 2009"/>
  </way>
  <way id="30206824" version="12" timestamp="2010-03-07T10:58:33Z" uid="58091" user="Andreas M" changeset="4059582">
    <nd ref="332892329"/>
    <nd ref="332892596"/>
    <nd ref="492916612"/>
    <nd ref="492916613"/>
    <nd ref="332892598"/>
    <nd ref="332892599"/>
    <nd ref="332892600"/>
    <nd ref="332892602"/>
    <nd ref="332892603"/>
    <nd ref="386148215"/>
    <tag k="highway" v="residential"/>
    <tag k="is_in:city" v="Retz"/>
    <tag k="is_in:country_code" v="AT"/>
    <tag k="name" v="Im Stadtfeld"/>
    <tag k="postal_code" v="2070"/>
  </way>
  <way id="30206824" version="13" timestamp="2010-03-16T04:45:13Z" uid="45756" user="magellan" changeset="4140588">
    <nd ref="332892329"/>
    <nd ref="332892596"/>
    <nd ref="492916612"/>
    <nd ref="492916613"/>
    <nd ref="332892598"/>
    <nd ref="332892599"/>
    <nd ref="332892600"/>
    <nd ref="332892602"/>
    <nd ref="332892603"/>
    <nd ref="386148215"/>
    <tag k="addr:city" v="Retz"/>
    <tag k="addr:country" v="AT"/>
    <tag k="addr:postcode" v="2070"/>
    <tag k="addr:street" v="Im Stadtfeld"/>
    <tag k="highway" v="residential"/>
    <tag k="name" v="Im Stadtfeld"/>
  </way>
  <way id="30206824" version="14" timestamp="2010-12-26T11:07:01Z" uid="342419" user="hzim" changeset="6766974">
    <nd ref="332892329"/>
    <nd ref="1065427854"/>
    <nd ref="332892596"/>
    <nd ref="492916612"/>
    <nd ref="492916613"/>
    <nd ref="332892598"/>
    <nd ref="332892599"/>
    <nd ref="332892600"/>
    <nd ref="332892602"/>
    <nd ref="332892603"/>
    <nd ref="102148139"/>
    <tag k="addr:city" v="Retz"/>
    <tag k="addr:country" v="AT"/>
    <tag k="addr:postcode" v="2070"/>
    <tag k="addr:street" v="Im Stadtfeld"/>
    <tag k="highway" v="residential"/>
    <tag k="name" v="Im Stadtfeld"/>
  </way>
  <way id="30206824" version="15" timestamp="2011-07-29T10:10:40Z" uid="491845" user="data_at" changeset="8861652">
    <nd ref="332892329"/>
    <nd ref="1065427854"/>
    <nd ref="332892596"/>
    <nd ref="492916612"/>
    <nd ref="492916613"/>
    <nd ref="332892598"/>
    <nd ref="332892599"/>
    <nd ref="332892600"/>
    <nd ref="332892602"/>
    <nd ref="332892603"/>
    <nd ref="102148139"/>
    <tag k="highway" v="residential"/>
    <tag k="name" v="Im Stadtfeld"/>
  </way>
  <way id="30206832" version="8" timestamp="2010-03-07T10:58:33Z" uid="58091" user="Andreas M" changeset="4059582">
    <nd ref="332894747"/>
    <nd ref="490166944"/>
    <nd ref="488892257"/>
    <nd ref="332892664"/>
    <nd ref="332892596"/>
    <tag k="highway" v="residential"/>
    <tag k="is_in:city" v="Retz"/>
    <tag k="is_in:country_code" v="AT"/>
    <tag k="name" v="Landesbahnstraße"/>
    <tag k="postal_code" v="2070"/>
  </way>
  <way id="30206832" version="9" timestamp="2010-03-16T04:45:11Z" uid="45756" user="magellan" changeset="4140588">
    <nd ref="332894747"/>
    <nd ref="490166944"/>
    <nd ref="488892257"/>
    <nd ref="332892664"/>
    <nd ref="332892596"/>
    <tag k="addr:city" v="Retz"/>
    <tag k="addr:country" v="AT"/>
    <tag k="addr:postcode" v="2070"/>
    <tag k="addr:street" v="Landesbahnstraße"/>
    <tag k="highway" v="residential"/>
    <tag k="name" v="Landesbahnstraße"/>
  </way>
  <way id="30206832" version="10" timestamp="2011-07-29T10:10:43Z" uid="491845" user="data_at" changeset="8861652">
    <nd ref="332894747"/>
    <nd ref="490166944"/>
    <nd ref="488892257"/>
    <nd ref="332892664"/>
    <nd ref="332892596"/>
    <tag k="highway" v="residential"/>
    <tag k="name" v="Landesbahnstraße"/>
  </way>
  <way id="30206893" version="6" timestamp="2010-03-07T10:58:32Z" uid="58091" user="Andreas M" changeset="4059582">
    <nd ref="332892329"/>
    <nd ref="488880734"/>
    <nd ref="488880735"/>
    <nd ref="332893207"/>
    <nd ref="332892664"/>
    <tag k="highway" v="residential"/>
    <tag k="is_in:city" v="Retz"/>
    <tag k="is_in:country_code" v="AT"/>
    <tag k="name" v="Pfarrer Josef Schnabl Gasse"/>
    <tag k="postal_code" v="2070"/>
  </way>
  <way id="30206893" version="7" timestamp="2010-03-16T05:09:22Z" uid="45756" user="magellan" changeset="4140588">
    <nd ref="332892329"/>
    <nd ref="488880734"/>
    <nd ref="488880735"/>
    <nd ref="332893207"/>
    <nd ref="332892664"/>
    <tag k="addr:city" v="Retz"/>
    <tag k="addr:country" v="AT"/>
    <tag k="addr:postcode" v="2070"/>
    <tag k="addr:street" v="Pfarrer Josef Schnabl Gasse"/>
    <tag k="highway" v="residential"/>
    <tag k="name" v="Pfarrer Josef Schnabl Gasse"/>
  </way>
  <way id="30206893" version="8" timestamp="2011-07-29T10:10:44Z" uid="491845" user="data_at" changeset="8861652">
    <nd ref="332892329"/>
    <nd ref="488880734"/>
    <nd ref="488880735"/>
    <nd ref="332893207"/>
    <nd ref="332892664"/>
    <tag k="highway" v="residential"/>
    <tag k="name" v="Pfarrer Josef Schnabl Gasse"/>
  </way>
  <way id="30206173" version="7" timestamp="2012-04-17T22:25:40Z" uid="473925" user="caigner" changeset="11338765">
    <nd ref="332888826"/>
    <nd ref="332888827"/>
    <nd ref="332888829"/>
    <nd ref="332888831"/>
    <nd ref="1721213028"/>
    <nd ref="1721213023"/>
    <nd ref="332888833"/>
    <nd ref="1721213020"/>
    <nd ref="1721213017"/>
    <nd ref="332888834"/>
    <nd ref="1721213012"/>
    <nd ref="1721213008"/>
    <nd ref="1045274300"/>
    <nd ref="1721213001"/>
    <nd ref="1045274440"/>
    <nd ref="1721212998"/>
    <nd ref="1721212997"/>
    <nd ref="1721212984"/>
    <nd ref="334652273"/>
    <tag k="highway" v="residential"/>
    <tag k="name" v="Leodagger"/>
    <tag k="source" v="Bing"/>
  </way>
  <way id="30206176" version="7" timestamp="2012-04-17T22:25:41Z" uid="473925" user="caigner" changeset="11338765">
    <nd ref="332888855"/>
    <nd ref="332888857"/>
    <nd ref="1721213007"/>
    <nd ref="1721213010"/>
    <nd ref="1721213016"/>
    <nd ref="1721213018"/>
    <nd ref="332888859"/>
    <tag k="highway" v="residential"/>
    <tag k="name" v="Leodagger"/>
    <tag k="source" v="Bing"/>
  </way>
  <way id="30206178" version="8" timestamp="2012-04-17T22:25:43Z" uid="473925" user="caigner" changeset="11338765">
    <nd ref="332888865"/>
    <nd ref="1721212969"/>
    <nd ref="332888866"/>
    <nd ref="1721212966"/>
    <nd ref="1721212960"/>
    <nd ref="1721212956"/>
    <nd ref="1721212953"/>
    <nd ref="1721212951"/>
    <nd ref="1721212949"/>
    <nd ref="1721212946"/>
    <nd ref="987803905"/>
    <nd ref="332888867"/>
    <nd ref="1721212913"/>
    <nd ref="332888869"/>
    <nd ref="1721212904"/>
    <nd ref="1045299945"/>
    <nd ref="1721212897"/>
    <nd ref="1721212900"/>
    <nd ref="332888871"/>
    <nd ref="1721212910"/>
    <nd ref="1721212937"/>
    <nd ref="332888873"/>
    <nd ref="1721212943"/>
    <nd ref="1721212944"/>
    <nd ref="1721212941"/>
    <nd ref="1721212939"/>
    <nd ref="332888875"/>
    <tag k="highway" v="residential"/>
    <tag k="source" v="GPS"/>
  </way>
  <way id="30206178" version="9" timestamp="2012-04-17T22:31:02Z" uid="473925" user="caigner" changeset="11338808">
    <nd ref="332888865"/>
    <nd ref="1721212969"/>
    <nd ref="332888866"/>
    <nd ref="1721212966"/>
    <nd ref="1721212960"/>
    <nd ref="1721212956"/>
    <nd ref="1721212953"/>
    <nd ref="1721212951"/>
    <nd ref="1721212949"/>
    <nd ref="1721212946"/>
    <nd ref="987803905"/>
    <nd ref="332888867"/>
    <nd ref="1721212913"/>
    <nd ref="332888869"/>
    <nd ref="1721212904"/>
    <nd ref="1045299945"/>
    <nd ref="1721212897"/>
    <nd ref="1721212900"/>
    <nd ref="332888871"/>
    <nd ref="1721212910"/>
    <nd ref="1721212937"/>
    <nd ref="332888873"/>
    <nd ref="1721212943"/>
    <nd ref="1721212944"/>
    <nd ref="1721212941"/>
    <nd ref="1721212939"/>
    <nd ref="332888875"/>
    <tag k="highway" v="tertiary"/>
    <tag k="source" v="GPS"/>
  </way>
  <way id="30206178" version="10" timestamp="2012-04-17T22:34:11Z" uid="473925" user="caigner" changeset="11338831">
    <nd ref="332888865"/>
    <nd ref="1721212969"/>
    <nd ref="332888866"/>
    <nd ref="1721212966"/>
    <nd ref="1721212960"/>
    <nd ref="1721212956"/>
    <nd ref="1721212953"/>
    <nd ref="1721212951"/>
    <nd ref="1721212949"/>
    <nd ref="1721212946"/>
    <nd ref="987803905"/>
    <nd ref="332888867"/>
    <nd ref="1721212913"/>
    <nd ref="332888869"/>
    <nd ref="1721212904"/>
    <nd ref="1045299945"/>
    <nd ref="1721212897"/>
    <nd ref="1721212900"/>
    <nd ref="332888871"/>
    <nd ref="1721212910"/>
    <nd ref="1721212937"/>
    <nd ref="332888873"/>
    <nd ref="1721212943"/>
    <nd ref="1721212944"/>
    <nd ref="1721212941"/>
    <nd ref="1721212939"/>
    <nd ref="332888875"/>
    <tag k="highway" v="unclassified"/>
    <tag k="source" v="GPS"/>
  </way>
  <way id="30206179" version="14" timestamp="2012-04-20T07:15:13Z" uid="473925" user="caigner" changeset="11360922">
    <nd ref="987803974"/>
    <nd ref="1304746099"/>
    <nd ref="987803875"/>
    <nd ref="987803920"/>
    <nd ref="987803968"/>
    <nd ref="987803949"/>
    <nd ref="987803994"/>
    <nd ref="987803889"/>
    <nd ref="987803930"/>
    <nd ref="1723655475"/>
    <nd ref="1723655474"/>
    <nd ref="1723655473"/>
    <nd ref="1723655471"/>
    <nd ref="1723655472"/>
    <nd ref="1723655470"/>
    <nd ref="987803956"/>
    <nd ref="1723655469"/>
    <nd ref="1723655468"/>
    <nd ref="1723655467"/>
    <nd ref="1723655466"/>
    <nd ref="1723655465"/>
    <nd ref="1723655464"/>
    <nd ref="987803897"/>
    <nd ref="1723655463"/>
    <nd ref="1723655462"/>
    <nd ref="1723655461"/>
    <nd ref="1723655460"/>
    <nd ref="987803877"/>
    <nd ref="1723655459"/>
    <nd ref="1723655458"/>
    <nd ref="987803922"/>
    <nd ref="1723655457"/>
    <nd ref="1723655456"/>
    <nd ref="987804005"/>
    <nd ref="1723655455"/>
    <nd ref="1723655454"/>
    <nd ref="1723655453"/>
    <nd ref="1723655452"/>
    <nd ref="987803872"/>
    <nd ref="987803915"/>
    <nd ref="987803945"/>
    <nd ref="1301147465"/>
    <nd ref="332888879"/>
    <nd ref="1468973115"/>
    <nd ref="510155805"/>
    <tag k="highway" v="track"/>
    <tag k="source" v="GPS"/>
  </way>
  <way id="30206179" version="15" timestamp="2012-04-20T13:01:08Z" uid="473925" user="caigner" changeset="11363792">
    <nd ref="987803974"/>
    <nd ref="1304746099"/>
    <nd ref="987803875"/>
    <nd ref="987803920"/>
    <nd ref="987803968"/>
    <nd ref="987803949"/>
    <nd ref="987803994"/>
    <nd ref="987803889"/>
    <nd ref="987803930"/>
    <nd ref="1723655475"/>
    <nd ref="1723655474"/>
    <nd ref="1723655473"/>
    <nd ref="1723655471"/>
    <nd ref="1723655472"/>
    <nd ref="1723655470"/>
    <nd ref="987803956"/>
    <nd ref="1723655469"/>
    <nd ref="1723655468"/>
    <nd ref="1723655467"/>
    <nd ref="1723655466"/>
    <nd ref="1723655465"/>
    <nd ref="1723655464"/>
    <nd ref="987803897"/>
    <nd ref="1723655463"/>
    <nd ref="1723655462"/>
    <nd ref="1723655461"/>
    <nd ref="1723655460"/>
    <nd ref="987803877"/>
    <nd ref="1723655459"/>
    <nd ref="1723655458"/>
    <nd ref="987803922"/>
    <nd ref="1723655457"/>
    <nd ref="1723655456"/>
    <nd ref="987804005"/>
    <nd ref="1723655455"/>
    <nd ref="1723655454"/>
    <nd ref="1723655453"/>
    <nd ref="1723655452"/>
    <nd ref="1724062328"/>
    <nd ref="1724062322"/>
    <nd ref="987803872"/>
    <nd ref="1724062315"/>
    <nd ref="987803915"/>
    <nd ref="1724062312"/>
    <nd ref="1724062306"/>
    <nd ref="987803945"/>
    <nd ref="1724062302"/>
    <nd ref="1301147465"/>
    <nd ref="1724062270"/>
    <nd ref="1724062265"/>
    <nd ref="332888879"/>
    <nd ref="1724062261"/>
    <nd ref="1724062257"/>
    <nd ref="1468973115"/>
    <nd ref="510155805"/>
    <tag k="highway" v="track"/>
    <tag k="source" v="GPS"/>
    <tag k="tracktype" v="grade1"/>
  </way>
  <way id="30206179" version="16" timestamp="2012-04-20T13:16:49Z" uid="473925" user="caigner" changeset="11363975">
    <nd ref="987803974"/>
    <nd ref="1304746099"/>
    <nd ref="987803875"/>
    <nd ref="987803920"/>
    <nd ref="987803968"/>
    <nd ref="987803949"/>
    <nd ref="987803994"/>
    <nd ref="987803889"/>
    <nd ref="987803930"/>
    <nd ref="1723655475"/>
    <nd ref="1723655474"/>
    <nd ref="1723655473"/>
    <nd ref="1723655471"/>
    <nd ref="1723655472"/>
    <nd ref="1723655470"/>
    <nd ref="987803956"/>
    <nd ref="1723655469"/>
    <nd ref="1723655468"/>
    <nd ref="1723655467"/>
    <nd ref="1723655466"/>
    <nd ref="1723655465"/>
    <nd ref="1723655464"/>
    <nd ref="987803897"/>
    <nd ref="1723655463"/>
    <nd ref="1723655462"/>
    <nd ref="1723655461"/>
    <nd ref="1723655460"/>
    <nd ref="987803877"/>
    <nd ref="1723655459"/>
    <nd ref="1723655458"/>
    <nd ref="987803922"/>
    <nd ref="1723655457"/>
    <nd ref="1723655456"/>
    <nd ref="987804005"/>
    <nd ref="1723655455"/>
    <nd ref="1723655454"/>
    <nd ref="1723655453"/>
    <nd ref="1723655452"/>
    <nd ref="1724062328"/>
    <nd ref="1724062322"/>
    <nd ref="987803872"/>
    <nd ref="1724062315"/>
    <nd ref="987803915"/>
    <nd ref="1724062312"/>
    <nd ref="1724062306"/>
    <nd ref="987803945"/>
    <nd ref="1724062302"/>
    <nd ref="1301147465"/>
    <nd ref="1724062270"/>
    <nd ref="1724062265"/>
    <nd ref="332888879"/>
    <nd ref="1724062261"/>
    <nd ref="1724062257"/>
    <nd ref="1724095923"/>
    <nd ref="1468973115"/>
    <nd ref="1724095916"/>
    <nd ref="510155805"/>
    <tag k="highway" v="track"/>
    <tag k="source" v="GPS"/>
    <tag k="tracktype" v="grade1"/>
  </way>
  <way id="30206179" version="17" timestamp="2012-04-20T13:24:12Z" uid="473925" user="caigner" changeset="11364051">
    <nd ref="987803974"/>
    <nd ref="1304746099"/>
    <nd ref="987803875"/>
    <nd ref="987803920"/>
    <nd ref="987803968"/>
    <nd ref="987803949"/>
    <nd ref="987803994"/>
    <nd ref="987803889"/>
    <nd ref="987803930"/>
    <nd ref="1723655475"/>
    <nd ref="1723655474"/>
    <nd ref="1723655473"/>
    <nd ref="1723655471"/>
    <nd ref="1723655472"/>
    <nd ref="1723655470"/>
    <nd ref="987803956"/>
    <nd ref="1723655469"/>
    <nd ref="1723655468"/>
    <nd ref="1723655467"/>
    <nd ref="1723655466"/>
    <nd ref="1723655465"/>
    <nd ref="1723655464"/>
    <nd ref="987803897"/>
    <nd ref="1723655463"/>
    <nd ref="1723655462"/>
    <nd ref="1723655461"/>
    <nd ref="1723655460"/>
    <nd ref="987803877"/>
    <nd ref="1723655459"/>
    <nd ref="1723655458"/>
    <nd ref="987803922"/>
    <nd ref="1723655457"/>
    <nd ref="1723655456"/>
    <nd ref="987804005"/>
    <nd ref="1723655455"/>
    <nd ref="1723655454"/>
    <nd ref="1723655453"/>
    <nd ref="1723655452"/>
    <nd ref="1724062328"/>
    <nd ref="1724062322"/>
    <nd ref="987803872"/>
    <nd ref="1724062315"/>
    <nd ref="987803915"/>
    <nd ref="1724062312"/>
    <nd ref="1724062306"/>
    <nd ref="987803945"/>
    <nd ref="1724062302"/>
    <nd ref="1301147465"/>
    <nd ref="1724062270"/>
    <nd ref="1724062265"/>
    <nd ref="332888879"/>
    <nd ref="1724062261"/>
    <nd ref="1724062257"/>
    <nd ref="1724095923"/>
    <tag k="highway" v="track"/>
    <tag k="source" v="GPS"/>
    <tag k="tracktype" v="grade1"/>
  </way>
  <way id="30206183" version="9" timestamp="2012-04-17T22:25:44Z" uid="473925" user="caigner" changeset="11338765">
    <nd ref="332888893"/>
    <nd ref="1721213014"/>
    <nd ref="332888895"/>
    <nd ref="332888897"/>
    <tag k="highway" v="residential"/>
    <tag k="source" v="Bing"/>
  </way>
  <way id="30206513" version="13" timestamp="2012-04-20T15:21:27Z" uid="473925" user="caigner" changeset="11365268">
    <nd ref="332890789"/>
    <nd ref="1724255311"/>
    <nd ref="332890790"/>
    <nd ref="332890791"/>
    <nd ref="332890793"/>
    <nd ref="332890795"/>
    <nd ref="1724255301"/>
    <nd ref="1724255304"/>
    <nd ref="581250469"/>
    <tag k="highway" v="residential"/>
    <tag k="is_in" v="Pulkau,Hollabrunn,Niederösterreich,Österreich,Europe"/>
    <tag k="source" v="plan.at 2009"/>
  </way>
  <way id="30206516" version="16" timestamp="2012-04-20T15:21:24Z" uid="473925" user="caigner" changeset="11365268">
    <nd ref="332890812"/>
    <nd ref="1724255326"/>
    <nd ref="1724255329"/>
    <nd ref="1724255327"/>
    <nd ref="1026373857"/>
    <nd ref="1724255312"/>
    <nd ref="1724255314"/>
    <nd ref="332890789"/>
    <nd ref="1724255319"/>
    <nd ref="1724255331"/>
    <nd ref="581250468"/>
    <tag k="highway" v="residential"/>
    <tag k="is_in" v="Pulkau,Hollabrunn,Niederösterreich,Österreich,Europe"/>
    <tag k="source" v="plan.at 2009"/>
  </way>
  <way id="30206519" version="11" timestamp="2012-04-20T15:21:26Z" uid="473925" user="caigner" changeset="11365268">
    <nd ref="332890818"/>
    <nd ref="332890821"/>
    <nd ref="332890823"/>
    <nd ref="332890825"/>
    <tag k="highway" v="residential"/>
    <tag k="source" v="plan.at 2009"/>
  </way>
  <way id="30206522" version="14" timestamp="2012-04-20T15:39:20Z" uid="473925" user="caigner" changeset="11365426">
    <nd ref="332890804"/>
    <nd ref="1724279538"/>
    <nd ref="1724279541"/>
    <nd ref="1724279546"/>
    <nd ref="1724279548"/>
    <nd ref="1724279550"/>
    <nd ref="1724279551"/>
    <nd ref="332890837"/>
    <nd ref="1724279554"/>
    <nd ref="1724279555"/>
    <nd ref="1724279558"/>
    <nd ref="332890839"/>
    <nd ref="1724279557"/>
    <nd ref="1724279553"/>
    <nd ref="1724279552"/>
    <nd ref="1724279549"/>
    <nd ref="1724279545"/>
    <nd ref="1724279543"/>
    <nd ref="1724279540"/>
    <nd ref="332890841"/>
    <nd ref="1724279532"/>
    <nd ref="1045152322"/>
    <nd ref="1724279527"/>
    <nd ref="335877875"/>
    <tag k="highway" v="residential"/>
    <tag k="is_in" v="Pulkau,Hollabrunn,Niederösterreich,Österreich,Europe"/>
    <tag k="source" v="plan.at 2009"/>
  </way>
  <way id="30206529" version="13" timestamp="2012-04-20T15:39:20Z" uid="473925" user="caigner" changeset="11365426">
    <nd ref="335877333"/>
    <nd ref="332890860"/>
    <nd ref="332890861"/>
    <nd ref="332890862"/>
    <nd ref="1724279483"/>
    <nd ref="1724279478"/>
    <nd ref="332890856"/>
    <tag k="highway" v="residential"/>
    <tag k="is_in" v="Pulkau,Hollabrunn,Niederösterreich,Österreich,Europe"/>
    <tag k="source" v="plan.at 2009"/>
  </way>
  <way id="30206663" version="12" timestamp="2012-06-06T17:00:36Z" uid="474183" user="ratrun" changeset="11817489">
    <nd ref="332891489"/>
    <nd ref="332891491"/>
    <nd ref="332891493"/>
    <nd ref="332891495"/>
    <nd ref="332891497"/>
    <nd ref="332891500"/>
    <nd ref="332891501"/>
    <nd ref="332891502"/>
    <tag k="highway" v="residential"/>
    <tag k="is_in" v="Pulkau,Hollabrunn,Niederösterreich,Österreich,Europe"/>
    <tag k="source" v="plan.at 2009,bing"/>
  </way>
  <way id="30206687" version="11" timestamp="2012-06-01T23:26:06Z" uid="668889" user="friep" changeset="11772793">
    <nd ref="334326717"/>
    <nd ref="488279362"/>
    <nd ref="1773127299"/>
    <nd ref="332891659"/>
    <nd ref="332891661"/>
    <nd ref="332891662"/>
    <nd ref="1073032269"/>
    <nd ref="1073032222"/>
    <nd ref="332891666"/>
    <nd ref="332891668"/>
    <tag k="highway" v="residential"/>
    <tag k="is_in:city" v="Unterretzbach"/>
    <tag k="is_in:country_code" v="AT"/>
    <tag k="name" v="Sterngasse"/>
    <tag k="postal_code" v="2074"/>
    <tag k="source" v="Bing"/>
  </way>
  <way id="30206687" version="12" timestamp="2012-07-16T22:20:14Z" uid="722137" user="OSMF Redaction Account" changeset="12252690">
    <nd ref="334326717"/>
    <nd ref="488279362"/>
    <nd ref="1773127299"/>
    <nd ref="332891659"/>
    <nd ref="332891661"/>
    <nd ref="332891662"/>
    <nd ref="1073032269"/>
    <nd ref="1073032222"/>
    <nd ref="332891666"/>
    <nd ref="332891668"/>
    <tag k="addr:city" v="Unterretzbach"/>
    <tag k="addr:country" v="AT"/>
    <tag k="addr:postcode" v="2074"/>
    <tag k="addr:street" v="Sterngasse"/>
    <tag k="highway" v="residential"/>
    <tag k="source" v="Bing"/>
  </way>
  <way id="30206687" version="13" timestamp="2012-08-04T22:05:43Z" uid="334334" user="m4rtink" changeset="12614924">
    <nd ref="334326717"/>
    <nd ref="488279362"/>
    <nd ref="1773127299"/>
    <nd ref="332891659"/>
    <nd ref="332891661"/>
    <nd ref="332891662"/>
    <nd ref="1073032269"/>
    <nd ref="1852169051"/>
    <nd ref="1852169123"/>
    <nd ref="1073032222"/>
    <nd ref="332891666"/>
    <nd ref="332891668"/>
    <tag k="addr:city" v="Unterretzbach"/>
    <tag k="addr:country" v="AT"/>
    <tag k="addr:postcode" v="2074"/>
    <tag k="addr:street" v="Sterngasse"/>
    <tag k="highway" v="residential"/>
    <tag k="source" v="Bing"/>
  </way>
  <way id="30206687" version="14" timestamp="2012-08-13T13:55:44Z" uid="623329" user="Norret" changeset="12714195">
    <nd ref="334326717"/>
    <nd ref="488279362"/>
    <nd ref="1773127299"/>
    <nd ref="332891659"/>
    <nd ref="332891661"/>
    <nd ref="332891662"/>
    <nd ref="1073032269"/>
    <nd ref="1852169051"/>
    <nd ref="1852169123"/>
    <nd ref="1073032222"/>
    <nd ref="332891666"/>
    <nd ref="332891668"/>
    <tag k="addr:city" v="Unterretzbach"/>
    <tag k="addr:country" v="AT"/>
    <tag k="addr:postcode" v="2074"/>
    <tag k="addr:street" v="Sterngasse"/>
    <tag k="highway" v="residential"/>
    <tag k="name" v="Sterngasse"/>
    <tag k="source" v="Bing"/>
  </way>
  <way id="30206701" version="11" timestamp="2012-06-01T23:26:08Z" uid="668889" user="friep" changeset="11772793">
    <nd ref="334322566"/>
    <nd ref="332891720"/>
    <nd ref="1086572469"/>
    <tag k="highway" v="residential"/>
    <tag k="is_in:city" v="Unterretzbach"/>
    <tag k="is_in:country_code" v="AT"/>
    <tag k="name" v="Weinberggasse"/>
    <tag k="postal_code" v="2074"/>
  </way>
  <way id="30206701" version="12" timestamp="2012-06-04T04:19:59Z" uid="45756" user="magellan" changeset="11792786">
    <nd ref="334322566"/>
    <nd ref="332891720"/>
    <tag k="highway" v="residential"/>
    <tag k="is_in:city" v="Unterretzbach"/>
    <tag k="is_in:country_code" v="AT"/>
    <tag k="name" v="Weinberggasse"/>
    <tag k="postal_code" v="2074"/>
  </way>
  <way id="30206701" version="13" timestamp="2012-07-17T02:25:39Z" uid="722137" user="OSMF Redaction Account" changeset="12255366">
    <nd ref="334322566"/>
    <nd ref="332891720"/>
    <tag k="addr:city" v="Unterretzbach"/>
    <tag k="addr:country" v="AT"/>
    <tag k="addr:postcode" v="2074"/>
    <tag k="addr:street" v="Weinberggasse"/>
    <tag k="highway" v="residential"/>
  </way>
  <way id="30206704" version="14" timestamp="2012-06-14T16:46:30Z" uid="53306" user="Wolfgang B" changeset="11896888">
    <nd ref="332891701"/>
    <nd ref="332891703"/>
    <nd ref="332891704"/>
    <nd ref="332891708"/>
    <nd ref="332891710"/>
    <nd ref="332891711"/>
    <nd ref="332891714"/>
    <nd ref="1073032245"/>
    <nd ref="332891655"/>
    <nd ref="1073032226"/>
    <nd ref="1073032202"/>
    <nd ref="332891685"/>
    <nd ref="1787503485"/>
    <nd ref="332891751"/>
    <nd ref="581065207"/>
    <tag k="highway" v="residential"/>
    <tag k="is_in:city" v="Unterretzbach"/>
    <tag k="name" v="Dorfstraße"/>
    <tag k="postal_code" v="2074"/>
    <tag k="source" v="Bing"/>
  </way>
  <way id="30206704" version="15" timestamp="2012-07-17T02:25:39Z" uid="722137" user="OSMF Redaction Account" changeset="12255366">
    <nd ref="332891701"/>
    <nd ref="332891703"/>
    <nd ref="332891704"/>
    <nd ref="332891708"/>
    <nd ref="332891710"/>
    <nd ref="332891711"/>
    <nd ref="332891714"/>
    <nd ref="1073032245"/>
    <nd ref="332891655"/>
    <nd ref="1073032226"/>
    <nd ref="1073032202"/>
    <nd ref="332891685"/>
    <nd ref="1787503485"/>
    <nd ref="332891751"/>
    <nd ref="581065207"/>
    <tag k="addr:city" v="Unterretzbach"/>
    <tag k="addr:country" v="AT"/>
    <tag k="addr:postcode" v="2074"/>
    <tag k="addr:street" v="Dorfstraße"/>
    <tag k="highway" v="residential"/>
    <tag k="source" v="Bing"/>
  </way>
  <way id="30206704" version="16" timestamp="2012-08-04T13:33:45Z" uid="334334" user="m4rtink" changeset="12609457">
    <nd ref="332891701"/>
    <nd ref="1851506117"/>
    <nd ref="332891703"/>
    <nd ref="332891704"/>
    <nd ref="332891708"/>
    <nd ref="332891710"/>
    <nd ref="332891711"/>
    <nd ref="332891714"/>
    <nd ref="1073032245"/>
    <nd ref="332891655"/>
    <nd ref="1851505798"/>
    <nd ref="1073032226"/>
    <nd ref="1073032202"/>
    <nd ref="332891685"/>
    <nd ref="1787503485"/>
    <nd ref="332891751"/>
    <nd ref="581065207"/>
    <tag k="addr:city" v="Unterretzbach"/>
    <tag k="addr:country" v="AT"/>
    <tag k="addr:postcode" v="2074"/>
    <tag k="addr:street" v="Dorfstraße"/>
    <tag k="highway" v="residential"/>
    <tag k="source" v="Bing"/>
  </way>
  <way id="30206704" version="17" timestamp="2012-08-04T17:13:46Z" uid="334334" user="m4rtink" changeset="12611779">
    <nd ref="332891701"/>
    <nd ref="1851506117"/>
    <nd ref="332891703"/>
    <nd ref="332891704"/>
    <nd ref="332891708"/>
    <nd ref="332891710"/>
    <nd ref="332891711"/>
    <nd ref="332891714"/>
    <nd ref="1073032245"/>
    <nd ref="332891655"/>
    <nd ref="1851505798"/>
    <nd ref="1073032226"/>
    <nd ref="1073032202"/>
    <nd ref="332891685"/>
    <nd ref="1787503485"/>
    <nd ref="332891751"/>
    <nd ref="1851771417"/>
    <nd ref="581065207"/>
    <tag k="addr:city" v="Unterretzbach"/>
    <tag k="addr:country" v="AT"/>
    <tag k="addr:postcode" v="2074"/>
    <tag k="addr:street" v="Dorfstraße"/>
    <tag k="highway" v="residential"/>
    <tag k="source" v="Bing"/>
  </way>
  <way id="30206704" version="18" timestamp="2012-08-13T13:55:44Z" uid="623329" user="Norret" changeset="12714195">
    <nd ref="332891701"/>
    <nd ref="1851506117"/>
    <nd ref="332891703"/>
    <nd ref="332891704"/>
    <nd ref="332891708"/>
    <nd ref="332891710"/>
    <nd ref="332891711"/>
    <nd ref="332891714"/>
    <nd ref="1073032245"/>
    <nd ref="332891655"/>
    <nd ref="1851505798"/>
    <nd ref="1073032226"/>
    <nd ref="1073032202"/>
    <nd ref="332891685"/>
    <nd ref="1787503485"/>
    <nd ref="332891751"/>
    <nd ref="1851771417"/>
    <nd ref="581065207"/>
    <tag k="addr:city" v="Unterretzbach"/>
    <tag k="addr:country" v="AT"/>
    <tag k="addr:postcode" v="2074"/>
    <tag k="addr:street" v="Dorfstraße"/>
    <tag k="highway" v="residential"/>
    <tag k="name" v="Dorfstrasse"/>
    <tag k="source" v="Bing"/>
  </way>
  <way id="30206704" version="19" timestamp="2012-08-28T12:33:46Z" uid="70696" user="xybot" changeset="12891138">
    <nd ref="332891701"/>
    <nd ref="1851506117"/>
    <nd ref="332891703"/>
    <nd ref="332891704"/>
    <nd ref="332891708"/>
    <nd ref="332891710"/>
    <nd ref="332891711"/>
    <nd ref="332891714"/>
    <nd ref="1073032245"/>
    <nd ref="332891655"/>
    <nd ref="1851505798"/>
    <nd ref="1073032226"/>
    <nd ref="1073032202"/>
    <nd ref="332891685"/>
    <nd ref="1787503485"/>
    <nd ref="332891751"/>
    <nd ref="1851771417"/>
    <nd ref="581065207"/>
    <tag k="addr:city" v="Unterretzbach"/>
    <tag k="addr:country" v="AT"/>
    <tag k="addr:postcode" v="2074"/>
    <tag k="addr:street" v="Dorfstraße"/>
    <tag k="highway" v="residential"/>
    <tag k="name" v="Dorfstraße"/>
    <tag k="source" v="Bing"/>
  </way>
  <way id="30206728" version="9" timestamp="2012-07-17T02:25:38Z" uid="722137" user="OSMF Redaction Account" changeset="12255366">
    <nd ref="332891974"/>
    <nd ref="1073032266"/>
    <nd ref="332891976"/>
    <nd ref="332891978"/>
    <nd ref="332891671"/>
    <nd ref="332891980"/>
    <tag k="addr:city" v="Unterretzbach"/>
    <tag k="addr:country" v="AT"/>
    <tag k="addr:postcode" v="2074"/>
    <tag k="addr:street" v="Spitzweg"/>
    <tag k="highway" v="residential"/>
    <tag k="source" v="Bing"/>
  </way>
  <way id="30206728" version="10" timestamp="2012-08-04T13:33:49Z" uid="334334" user="m4rtink" changeset="12609457">
    <nd ref="332891974"/>
    <nd ref="1073032266"/>
    <nd ref="332891976"/>
    <nd ref="332891978"/>
    <nd ref="1851505197"/>
    <nd ref="1851505203"/>
    <nd ref="1851505248"/>
    <nd ref="332891671"/>
    <nd ref="332891980"/>
    <tag k="addr:city" v="Unterretzbach"/>
    <tag k="addr:country" v="AT"/>
    <tag k="addr:postcode" v="2074"/>
    <tag k="addr:street" v="Spitzweg"/>
    <tag k="highway" v="residential"/>
    <tag k="source" v="Bing"/>
  </way>
  <way id="30206728" version="11" timestamp="2012-08-13T13:55:45Z" uid="623329" user="Norret" changeset="12714195">
    <nd ref="332891974"/>
    <nd ref="1073032266"/>
    <nd ref="332891976"/>
    <nd ref="332891978"/>
    <nd ref="1851505197"/>
    <nd ref="1851505203"/>
    <nd ref="1851505248"/>
    <nd ref="332891671"/>
    <nd ref="332891980"/>
    <tag k="addr:city" v="Unterretzbach"/>
    <tag k="addr:country" v="AT"/>
    <tag k="addr:postcode" v="2074"/>
    <tag k="addr:street" v="Spitzweg"/>
    <tag k="highway" v="residential"/>
    <tag k="name" v="Spitzweg"/>
    <tag k="source" v="Bing"/>
  </way>
  <way id="30206732" version="9" timestamp="2012-07-17T02:25:39Z" uid="722137" user="OSMF Redaction Account" changeset="12255366">
    <nd ref="332891735"/>
    <nd ref="1073032250"/>
    <nd ref="1073032292"/>
    <nd ref="332892005"/>
    <tag k="addr:city" v="Unterretzbach"/>
    <tag k="addr:country" v="AT"/>
    <tag k="addr:postcode" v="2074"/>
    <tag k="addr:street" v="Halblehenweg"/>
    <tag k="highway" v="residential"/>
    <tag k="source" v="Bing"/>
  </way>
  <way id="30206748" version="8" timestamp="2012-06-04T03:37:55Z" uid="45756" user="magellan" changeset="11792669">
    <nd ref="332891659"/>
    <nd ref="332892103"/>
    <nd ref="1073032295"/>
    <nd ref="1073032251"/>
    <nd ref="1775751889"/>
    <nd ref="332892106"/>
    <tag k="highway" v="residential"/>
    <tag k="is_in:city" v="Unterretzbach"/>
    <tag k="name" v="Kirchfeldgasse"/>
    <tag k="postal_code" v="2074"/>
    <tag k="source" v="plan.at 2009"/>
  </way>
  <way id="30206748" version="9" timestamp="2012-06-14T16:46:29Z" uid="53306" user="Wolfgang B" changeset="11896888">
    <nd ref="332891659"/>
    <nd ref="332892103"/>
    <nd ref="1787503406"/>
    <nd ref="1073032295"/>
    <nd ref="1073032251"/>
    <nd ref="1787503400"/>
    <nd ref="1775751889"/>
    <nd ref="332892106"/>
    <nd ref="1669942557"/>
    <nd ref="1669942554"/>
    <nd ref="1669942570"/>
    <nd ref="1669942563"/>
    <nd ref="1669942581"/>
    <nd ref="1669942550"/>
    <nd ref="1669942546"/>
    <nd ref="1669942544"/>
    <nd ref="1669942584"/>
    <nd ref="1669942580"/>
    <nd ref="1787503500"/>
    <nd ref="1669942559"/>
    <nd ref="1669942552"/>
    <nd ref="1669942579"/>
    <nd ref="1787503540"/>
    <nd ref="1669942561"/>
    <nd ref="1669942568"/>
    <nd ref="1669942578"/>
    <nd ref="1669942577"/>
    <nd ref="1787503415"/>
    <nd ref="1669929430"/>
    <nd ref="498459986"/>
    <tag k="highway" v="residential"/>
    <tag k="is_in:city" v="Unterretzbach"/>
    <tag k="name" v="Kirchfeldgasse"/>
  </way>
  <way id="30206748" version="10" timestamp="2012-07-16T22:20:14Z" uid="722137" user="OSMF Redaction Account" changeset="12252690">
    <nd ref="332891659"/>
    <nd ref="332892103"/>
    <nd ref="1787503406"/>
    <nd ref="1073032295"/>
    <nd ref="1073032251"/>
    <nd ref="1787503400"/>
    <nd ref="1775751889"/>
    <nd ref="332892106"/>
    <nd ref="1669942557"/>
    <nd ref="1669942554"/>
    <nd ref="1669942570"/>
    <nd ref="1669942563"/>
    <nd ref="1669942581"/>
    <nd ref="1669942550"/>
    <nd ref="1669942546"/>
    <nd ref="1669942544"/>
    <nd ref="1669942584"/>
    <nd ref="1669942580"/>
    <nd ref="1787503500"/>
    <nd ref="1669942559"/>
    <nd ref="1669942552"/>
    <nd ref="1669942579"/>
    <nd ref="1787503540"/>
    <nd ref="1669942561"/>
    <nd ref="1669942568"/>
    <nd ref="1669942578"/>
    <nd ref="1669942577"/>
    <nd ref="1787503415"/>
    <nd ref="1669929430"/>
    <nd ref="498459986"/>
    <tag k="addr:city" v="Unterretzbach"/>
    <tag k="addr:country" v="AT"/>
    <tag k="addr:postcode" v="2074"/>
    <tag k="addr:street" v="Kirchfeldgasse"/>
    <tag k="highway" v="residential"/>
  </way>
  <way id="30206748" version="11" timestamp="2012-08-13T13:55:45Z" uid="623329" user="Norret" changeset="12714195">
    <nd ref="332891659"/>
    <nd ref="332892103"/>
    <nd ref="1787503406"/>
    <nd ref="1073032295"/>
    <nd ref="1073032251"/>
    <nd ref="1787503400"/>
    <nd ref="1775751889"/>
    <nd ref="332892106"/>
    <nd ref="1669942557"/>
    <nd ref="1669942554"/>
    <nd ref="1669942570"/>
    <nd ref="1669942563"/>
    <nd ref="1669942581"/>
    <nd ref="1669942550"/>
    <nd ref="1669942546"/>
    <nd ref="1669942544"/>
    <nd ref="1669942584"/>
    <nd ref="1669942580"/>
    <nd ref="1787503500"/>
    <nd ref="1669942559"/>
    <nd ref="1669942552"/>
    <nd ref="1669942579"/>
    <nd ref="1787503540"/>
    <nd ref="1669942561"/>
    <nd ref="1669942568"/>
    <nd ref="1669942578"/>
    <nd ref="1669942577"/>
    <nd ref="1787503415"/>
    <nd ref="1669929430"/>
    <nd ref="498459986"/>
    <tag k="addr:city" v="Unterretzbach"/>
    <tag k="addr:country" v="AT"/>
    <tag k="addr:postcode" v="2074"/>
    <tag k="addr:street" v="Kirchfeldgasse"/>
    <tag k="highway" v="residential"/>
    <tag k="name" v="Kirchfeldgasse"/>
  </way>
  <way id="30206755" version="11" timestamp="2012-06-04T03:44:35Z" uid="45756" user="magellan" changeset="11792691">
    <nd ref="1673532681"/>
    <nd ref="1673532704"/>
    <nd ref="1673532656"/>
    <nd ref="1673532671"/>
    <nd ref="1673532619"/>
    <nd ref="1673532674"/>
    <nd ref="332892132"/>
    <nd ref="1073032197"/>
    <nd ref="1073032204"/>
    <nd ref="332892005"/>
    <nd ref="1675777963"/>
    <nd ref="332892136"/>
    <nd ref="332892138"/>
    <nd ref="1675777968"/>
    <nd ref="332892140"/>
    <nd ref="332892142"/>
    <nd ref="1073032278"/>
    <nd ref="332892145"/>
    <nd ref="1775752975"/>
    <nd ref="332892063"/>
    <nd ref="332892147"/>
    <nd ref="332892149"/>
    <tag k="highway" v="residential"/>
    <tag k="name" v="Halblehenweg"/>
    <tag k="postal_code" v="2074"/>
    <tag k="source" v="Bing"/>
  </way>
  <way id="30206755" version="12" timestamp="2012-06-04T04:05:41Z" uid="45756" user="magellan" changeset="11792749">
    <nd ref="1673532681"/>
    <nd ref="1673532704"/>
    <nd ref="1673532619"/>
    <nd ref="1775756507"/>
    <nd ref="1673532674"/>
    <nd ref="332892132"/>
    <nd ref="1775756505"/>
    <nd ref="1073032197"/>
    <nd ref="1775756502"/>
    <nd ref="1073032204"/>
    <nd ref="1775756500"/>
    <nd ref="332892005"/>
    <tag k="highway" v="track"/>
    <tag k="source" v="Bing"/>
    <tag k="tracktype" v="grade1"/>
  </way>
  <way id="30206755" version="13" timestamp="2012-07-17T02:25:39Z" uid="722137" user="OSMF Redaction Account" changeset="12255366">
    <nd ref="1673532681"/>
    <nd ref="1673532704"/>
    <nd ref="1673532619"/>
    <nd ref="1775756507"/>
    <nd ref="1673532674"/>
    <nd ref="332892132"/>
    <nd ref="1775756505"/>
    <nd ref="1073032197"/>
    <nd ref="1775756502"/>
    <nd ref="1073032204"/>
    <nd ref="1775756500"/>
    <nd ref="332892005"/>
    <tag k="addr:city" v="Unterretzbach"/>
    <tag k="addr:country" v="AT"/>
    <tag k="addr:postcode" v="2074"/>
    <tag k="addr:street" v="Halblehenweg"/>
    <tag k="highway" v="track"/>
    <tag k="source" v="Bing"/>
    <tag k="tracktype" v="grade1"/>
  </way>
  <way id="30206760" version="12" timestamp="2012-05-19T09:41:49Z" uid="53306" user="Wolfgang B" changeset="11640830">
    <nd ref="332892103"/>
    <nd ref="332892170"/>
    <nd ref="332892172"/>
    <nd ref="332892174"/>
    <nd ref="332892176"/>
    <nd ref="1758214013"/>
    <nd ref="332892180"/>
    <nd ref="332892184"/>
    <nd ref="1073032285"/>
    <nd ref="1262264982"/>
    <nd ref="1073032192"/>
    <nd ref="332892015"/>
    <nd ref="332892187"/>
    <tag k="highway" v="unclassified"/>
    <tag k="is_in:city" v="Unterretzbach"/>
    <tag k="is_in:country_code" v="AT"/>
    <tag k="name" v="Lindengasse"/>
    <tag k="source" v="GPS"/>
  </way>
  <way id="30206760" version="13" timestamp="2012-06-01T23:26:06Z" uid="668889" user="friep" changeset="11772793">
    <nd ref="1773127299"/>
    <nd ref="332892103"/>
    <nd ref="332892170"/>
    <nd ref="332892172"/>
    <nd ref="332892174"/>
    <nd ref="332892176"/>
    <nd ref="1758214013"/>
    <nd ref="332892180"/>
    <nd ref="332892184"/>
    <nd ref="1073032285"/>
    <nd ref="1262264982"/>
    <tag k="highway" v="unclassified"/>
    <tag k="is_in:city" v="Unterretzbach"/>
    <tag k="is_in:country_code" v="AT"/>
    <tag k="name" v="Lindengasse"/>
    <tag k="source" v="GPS"/>
  </way>
  <way id="30206760" version="14" timestamp="2012-06-03T18:14:41Z" uid="45756" user="magellan" changeset="11789548">
    <nd ref="1773127299"/>
    <nd ref="332892103"/>
    <nd ref="332892170"/>
    <nd ref="332892172"/>
    <nd ref="332892174"/>
    <nd ref="332892176"/>
    <nd ref="1758214013"/>
    <nd ref="332892180"/>
    <nd ref="332892184"/>
    <tag k="highway" v="unclassified"/>
    <tag k="is_in:city" v="Unterretzbach"/>
    <tag k="is_in:country_code" v="AT"/>
    <tag k="name" v="Lindengasse"/>
    <tag k="source" v="GPS"/>
  </way>
  <way id="30206760" version="15" timestamp="2012-06-14T16:46:30Z" uid="53306" user="Wolfgang B" changeset="11896888">
    <nd ref="1773127299"/>
    <nd ref="332892103"/>
    <nd ref="332892170"/>
    <nd ref="332892172"/>
    <nd ref="332892174"/>
    <tag k="highway" v="residential"/>
    <tag k="is_in:city" v="Unterretzbach"/>
    <tag k="name" v="Lindengasse"/>
    <tag k="source" v="GPS"/>
  </way>
  <way id="30206760" version="16" timestamp="2012-07-16T22:20:14Z" uid="722137" user="OSMF Redaction Account" changeset="12252690">
    <nd ref="1773127299"/>
    <nd ref="332892103"/>
    <nd ref="332892170"/>
    <nd ref="332892172"/>
    <nd ref="332892174"/>
    <tag k="addr:city" v="Unterretzbach"/>
    <tag k="addr:country" v="AT"/>
    <tag k="addr:postcode" v="2074"/>
    <tag k="addr:street" v="Lindengasse"/>
    <tag k="highway" v="residential"/>
    <tag k="source" v="GPS"/>
  </way>
  <way id="30206760" version="17" timestamp="2012-08-13T13:40:37Z" uid="623329" user="Norret" changeset="12714195">
    <nd ref="1773127299"/>
    <nd ref="332892103"/>
    <nd ref="332892170"/>
    <nd ref="332892172"/>
    <nd ref="332892174"/>
    <tag k="addr:city" v="Unterretzbach"/>
    <tag k="addr:country" v="AT"/>
    <tag k="addr:postcode" v="2074"/>
    <tag k="addr:street" v="Lindengasse"/>
    <tag k="highway" v="residential"/>
    <tag k="name" v="Lindengasse"/>
    <tag k="source" v="GPS"/>
  </way>
  <way id="30206760" version="18" timestamp="2012-08-13T13:55:46Z" uid="623329" user="Norret" changeset="12714195">
    <nd ref="1773127299"/>
    <nd ref="332892103"/>
    <nd ref="332892170"/>
    <nd ref="332892172"/>
    <nd ref="332892174"/>
    <nd ref="1864281714"/>
    <nd ref="1864281713"/>
    <nd ref="1864281717"/>
    <nd ref="1864281712"/>
    <nd ref="1864281715"/>
    <nd ref="1864281716"/>
    <nd ref="332892184"/>
    <tag k="addr:city" v="Unterretzbach"/>
    <tag k="addr:country" v="AT"/>
    <tag k="addr:postcode" v="2074"/>
    <tag k="addr:street" v="Lindengasse"/>
    <tag k="highway" v="residential"/>
    <tag k="name" v="Lindengasse"/>
    <tag k="source" v="GPS"/>
  </way>
  <way id="30206760" version="19" timestamp="2012-08-13T14:16:59Z" uid="623329" user="Norret" changeset="12714195">
    <nd ref="1773127299"/>
    <nd ref="332892103"/>
    <nd ref="332892170"/>
    <nd ref="332892172"/>
    <nd ref="1864311197"/>
    <nd ref="332892174"/>
    <nd ref="1864281714"/>
    <nd ref="1864281713"/>
    <nd ref="1864281717"/>
    <nd ref="1864281712"/>
    <nd ref="1864281715"/>
    <nd ref="1864281716"/>
    <nd ref="332892184"/>
    <tag k="addr:city" v="Unterretzbach"/>
    <tag k="addr:country" v="AT"/>
    <tag k="addr:postcode" v="2074"/>
    <tag k="addr:street" v="Lindengasse"/>
    <tag k="highway" v="residential"/>
    <tag k="name" v="Lindengasse"/>
    <tag k="source" v="GPS"/>
  </way>
  <way id="30206787" version="10" timestamp="2012-05-22T17:02:05Z" uid="53306" user="Wolfgang B" changeset="11673527">
    <nd ref="221130535"/>
    <nd ref="332892322"/>
    <nd ref="1762316100"/>
    <nd ref="332892323"/>
    <nd ref="332892324"/>
    <nd ref="1762316101"/>
    <nd ref="332892326"/>
    <nd ref="332892327"/>
    <nd ref="488880734"/>
    <tag k="fixme" v="check import"/>
    <tag k="highway" v="residential"/>
    <tag k="name" v="Sandweggasse"/>
    <tag k="source" v="plan.at 2009"/>
  </way>
  <way id="30206787" version="11" timestamp="2012-06-06T16:59:27Z" uid="474183" user="ratrun" changeset="11817489">
    <nd ref="221130535"/>
    <nd ref="332892322"/>
    <nd ref="1762316100"/>
    <nd ref="332892323"/>
    <nd ref="332892324"/>
    <nd ref="1762316101"/>
    <nd ref="332892326"/>
    <nd ref="332892327"/>
    <nd ref="488880734"/>
    <tag k="highway" v="residential"/>
    <tag k="name" v="Sandweggasse"/>
    <tag k="source" v="plan.at 2009,bing"/>
  </way>
  <way id="30206787" version="12" timestamp="2012-07-17T02:25:38Z" uid="722137" user="OSMF Redaction Account" changeset="12255366">
    <nd ref="221130535"/>
    <nd ref="332892322"/>
    <nd ref="1762316100"/>
    <nd ref="332892323"/>
    <nd ref="332892324"/>
    <nd ref="1762316101"/>
    <nd ref="332892326"/>
    <nd ref="332892327"/>
    <nd ref="488880734"/>
    <tag k="highway" v="residential"/>
    <tag k="source" v="plan.at 2009,bing"/>
  </way>
  <way id="30206787" version="13" timestamp="2012-08-13T14:16:59Z" uid="623329" user="Norret" changeset="12714195">
    <nd ref="221130535"/>
    <nd ref="332892322"/>
    <nd ref="1762316100"/>
    <nd ref="332892323"/>
    <nd ref="332892324"/>
    <nd ref="1762316101"/>
    <nd ref="332892326"/>
    <nd ref="332892327"/>
    <nd ref="488880734"/>
    <tag k="highway" v="residential"/>
    <tag k="name" v="Sandweg"/>
    <tag k="source" v="plan.at 2009,bing"/>
  </way>
  <way id="30206816" version="6" timestamp="2012-05-04T16:27:56Z" uid="602358" user="urbanexplorer-at" changeset="11499438">
    <nd ref="332892572"/>
    <nd ref="333757850"/>
    <tag k="highway" v="service"/>
    <tag k="name" v="Seifriedweg"/>
    <tag k="postal_code" v="2231"/>
    <tag k="service" v="alley"/>
    <tag k="source" v="plan.at 2009"/>
  </way>
  <way id="30206816" version="7" timestamp="2012-07-16T21:46:02Z" uid="722137" user="OSMF Redaction Account" changeset="12252306">
    <nd ref="332892572"/>
    <nd ref="333757850"/>
    <tag k="addr:postcode" v="2231"/>
    <tag k="addr:street" v="Seifriedweg"/>
    <tag k="highway" v="service"/>
    <tag k="service" v="alley"/>
    <tag k="source" v="plan.at 2009"/>
  </way>
  <way id="30206824" version="16" timestamp="2012-05-17T09:02:26Z" uid="53306" user="Wolfgang B" changeset="11621379">
    <nd ref="332892329"/>
    <nd ref="1065427854"/>
    <nd ref="332892596"/>
    <nd ref="1755875254"/>
    <nd ref="492916612"/>
    <nd ref="492916613"/>
    <nd ref="332892598"/>
    <nd ref="332892599"/>
    <nd ref="332892600"/>
    <nd ref="332892602"/>
    <nd ref="332892603"/>
    <nd ref="102148139"/>
    <tag k="highway" v="residential"/>
    <tag k="name" v="Im Stadtfeld"/>
  </way>
  <way id="30206824" version="17" timestamp="2012-05-18T19:25:16Z" uid="53306" user="Wolfgang B" changeset="11636477">
    <nd ref="332892329"/>
    <nd ref="1065427854"/>
    <nd ref="332892596"/>
    <nd ref="1757523342"/>
    <nd ref="1757523341"/>
    <nd ref="1757523343"/>
    <nd ref="1757523344"/>
    <nd ref="1757523339"/>
    <nd ref="1755875254"/>
    <nd ref="492916612"/>
    <nd ref="492916613"/>
    <nd ref="1757523390"/>
    <nd ref="1757523349"/>
    <nd ref="1757523350"/>
    <nd ref="1757523351"/>
    <nd ref="332892598"/>
    <tag k="highway" v="residential"/>
    <tag k="name" v="Im Stadtfeld"/>
  </way>
  <way id="30206824" version="18" timestamp="2012-05-22T17:02:09Z" uid="53306" user="Wolfgang B" changeset="11673527">
    <nd ref="1762316102"/>
    <nd ref="1065427854"/>
    <nd ref="1762316133"/>
    <nd ref="332892596"/>
    <tag k="highway" v="residential"/>
    <tag k="name" v="Höfleiner Straße"/>
  </way>
  <way id="30206832" version="11" timestamp="2012-05-18T20:00:00Z" uid="53306" user="Wolfgang B" changeset="11636811">
    <nd ref="332894747"/>
    <nd ref="1757571091"/>
    <nd ref="488892257"/>
    <nd ref="1757571112"/>
    <nd ref="332892664"/>
    <nd ref="332892596"/>
    <tag k="highway" v="residential"/>
    <tag k="name" v="Landesbahnstraße"/>
  </way>
  <way id="30206832" version="12" timestamp="2012-05-22T17:02:09Z" uid="53306" user="Wolfgang B" changeset="11673527">
    <nd ref="332894747"/>
    <nd ref="1757571091"/>
    <nd ref="488892257"/>
    <nd ref="1757571112"/>
    <nd ref="332892664"/>
    <nd ref="1762316131"/>
    <nd ref="1762316132"/>
    <nd ref="332892596"/>
    <tag k="highway" v="residential"/>
    <tag k="name" v="Landesbahnstraße"/>
  </way>
  <way id="30206832" version="13" timestamp="2012-07-17T02:25:37Z" uid="722137" user="OSMF Redaction Account" changeset="12255366">
    <nd ref="332894747"/>
    <nd ref="1757571091"/>
    <nd ref="488892257"/>
    <nd ref="1757571112"/>
    <nd ref="332892664"/>
    <nd ref="1762316131"/>
    <nd ref="1762316132"/>
    <nd ref="332892596"/>
    <tag k="highway" v="residential"/>
  </way>
  <way id="30206832" version="14" timestamp="2012-08-13T14:17:00Z" uid="623329" user="Norret" changeset="12714195">
    <nd ref="332894747"/>
    <nd ref="1757571091"/>
    <nd ref="488892257"/>
    <nd ref="1757571112"/>
    <nd ref="332892664"/>
    <nd ref="1762316131"/>
    <nd ref="1762316132"/>
    <nd ref="332892596"/>
    <tag k="highway" v="residential"/>
    <tag k="name" v="Landesbahnstraße"/>
  </way>
  <way id="30206893" version="9" timestamp="2012-05-22T17:02:06Z" uid="53306" user="Wolfgang B" changeset="11673527">
    <nd ref="1762316102"/>
    <nd ref="488880734"/>
    <nd ref="488880735"/>
    <nd ref="332893207"/>
    <nd ref="1762316110"/>
    <nd ref="332892664"/>
    <tag k="highway" v="residential"/>
    <tag k="name" v="Pfarrer Josef Schnabl Gasse"/>
  </way>
  <way id="30206893" version="10" timestamp="2012-07-17T02:25:38Z" uid="722137" user="OSMF Redaction Account" changeset="12255366">
    <nd ref="1762316102"/>
    <nd ref="488880734"/>
    <nd ref="488880735"/>
    <nd ref="332893207"/>
    <nd ref="1762316110"/>
    <nd ref="332892664"/>
    <tag k="highway" v="residential"/>
  </way>
  <way id="30206893" version="11" timestamp="2012-08-13T14:17:00Z" uid="623329" user="Norret" changeset="12714195">
    <nd ref="1762316102"/>
    <nd ref="488880734"/>
    <nd ref="488880735"/>
    <nd ref="332893207"/>
    <nd ref="1762316110"/>
    <nd ref="332892664"/>
    <tag k="highway" v="residential"/>
    <tag k="name" v="Pfarrer Josef Schnabl Gasse"/>
  </way>
</osm>
