<?xml version='1.0' encoding='UTF-8'?>
<osm version="0.6" generator="libosmium/2.20.0">
  <way id="30225020" version="12" timestamp="2010-04-10T20:43:48Z" uid="33382" user="de_muur" changeset="4387082">
    <nd ref="302695615"/>
    <nd ref="333100356"/>
    <nd ref="333100357"/>
    <nd ref="333100358"/>
    <nd ref="685605775"/>
    <nd ref="333100359"/>
    <nd ref="333100366"/>
    <nd ref="333100375"/>
    <nd ref="333100380"/>
    <nd ref="333100382"/>
    <nd ref="534673597"/>
    <nd ref="333100386"/>
    <nd ref="333100387"/>
    <nd ref="431865847"/>
    <nd ref="413749818"/>
    <nd ref="333100388"/>
    <nd ref="333100389"/>
    <nd ref="413749810"/>
    <nd ref="333100391"/>
    <nd ref="413749809"/>
    <nd ref="333100394"/>
    <nd ref="333100395"/>
    <nd ref="333100396"/>
    <nd ref="333100397"/>
    <nd ref="333100398"/>
    <nd ref="333100399"/>
    <nd ref="333100400"/>
    <nd ref="333100401"/>
    <nd ref="333100403"/>
    <nd ref="333100405"/>
    <nd ref="333100406"/>
    <nd ref="333100407"/>
    <nd ref="333100408"/>
    <nd ref="333100409"/>
    <nd ref="685605798"/>
    <nd ref="333100410"/>
    <nd ref="333100411"/>
    <tag k="highway" v="secondary"/>
    <tag k="name" v="Sulinger Straße"/>
    <tag k="ref" v="L 202"/>
    <tag k="surface" v="paved"/>
  </way>
  <way id="30225020" version="13" timestamp="2010-05-19T11:16:15Z" uid="267363" user="velomobil" changeset="4747108">
    <nd ref="302695615"/>
    <nd ref="333100356"/>
    <nd ref="333100357"/>
    <nd ref="333100358"/>
    <nd ref="685605775"/>
    <nd ref="333100359"/>
    <nd ref="333100366"/>
    <nd ref="333100375"/>
    <nd ref="333100380"/>
    <nd ref="333100382"/>
    <nd ref="534673597"/>
    <nd ref="333100386"/>
    <nd ref="333100387"/>
    <nd ref="431865847"/>
    <nd ref="413749818"/>
    <nd ref="333100388"/>
    <nd ref="333100389"/>
    <nd ref="413749810"/>
    <nd ref="333100391"/>
    <nd ref="413749809"/>
    <nd ref="333100394"/>
    <nd ref="333100395"/>
    <nd ref="333100396"/>
    <nd ref="333100397"/>
    <nd ref="333100398"/>
    <nd ref="333100399"/>
    <nd ref="333100400"/>
    <nd ref="739411220"/>
    <nd ref="333100401"/>
    <nd ref="333100403"/>
    <nd ref="333100405"/>
    <nd ref="333100406"/>
    <nd ref="333100407"/>
    <nd ref="333100408"/>
    <nd ref="333100409"/>
    <nd ref="685605798"/>
    <nd ref="333100410"/>
    <nd ref="333100411"/>
    <tag k="highway" v="secondary"/>
    <tag k="name" v="Sulinger Straße"/>
    <tag k="ref" v="L 202"/>
    <tag k="surface" v="paved"/>
  </way>
  <way id="30225020" version="14" timestamp="2010-06-14T23:01:04Z" uid="294623" user="hatina" changeset="4992321">
    <nd ref="302695615"/>
    <nd ref="333100356"/>
    <nd ref="333100357"/>
    <nd ref="333100358"/>
    <nd ref="685605775"/>
    <nd ref="333100359"/>
    <nd ref="333100366"/>
    <nd ref="333100375"/>
    <nd ref="333100380"/>
    <nd ref="333100382"/>
    <nd ref="534673597"/>
    <nd ref="333100386"/>
    <nd ref="333100387"/>
    <nd ref="431865847"/>
    <nd ref="413749818"/>
    <nd ref="333100388"/>
    <nd ref="773004666"/>
    <nd ref="333100389"/>
    <nd ref="413749810"/>
    <nd ref="333100391"/>
    <nd ref="413749809"/>
    <nd ref="333100394"/>
    <nd ref="333100395"/>
    <nd ref="333100396"/>
    <nd ref="333100397"/>
    <nd ref="333100398"/>
    <nd ref="333100399"/>
    <nd ref="333100400"/>
    <nd ref="739411220"/>
    <nd ref="333100401"/>
    <nd ref="333100403"/>
    <nd ref="333100405"/>
    <nd ref="333100406"/>
    <nd ref="333100407"/>
    <nd ref="333100408"/>
    <nd ref="333100409"/>
    <nd ref="685605798"/>
    <nd ref="333100410"/>
    <nd ref="333100411"/>
    <tag k="highway" v="secondary"/>
    <tag k="name" v="Sulinger Straße"/>
    <tag k="ref" v="L 202"/>
    <tag k="surface" v="paved"/>
  </way>
  <way id="30225020" version="15" timestamp="2010-06-18T13:43:29Z" uid="294623" user="hatina" changeset="5016372">
    <nd ref="302695615"/>
    <nd ref="333100356"/>
    <nd ref="333100357"/>
    <nd ref="333100358"/>
    <nd ref="685605775"/>
    <nd ref="333100359"/>
    <nd ref="333100366"/>
    <nd ref="333100375"/>
    <nd ref="333100380"/>
    <tag k="highway" v="secondary"/>
    <tag k="lanes" v="2"/>
    <tag k="maxspeed" v="700"/>
    <tag k="name" v="Sulinger Straße"/>
    <tag k="ref" v="L 202"/>
    <tag k="surface" v="paved"/>
  </way>
  <way id="30225020" version="16" timestamp="2010-07-29T20:57:39Z" uid="35560" user="HeikoE" changeset="5350294">
    <nd ref="302695615"/>
    <nd ref="333100356"/>
    <nd ref="333100357"/>
    <nd ref="333100358"/>
    <nd ref="685605775"/>
    <nd ref="333100359"/>
    <nd ref="333100366"/>
    <nd ref="333100375"/>
    <nd ref="333100380"/>
    <tag k="highway" v="secondary"/>
    <tag k="lanes" v="2"/>
    <tag k="maxspeed" v="70"/>
    <tag k="name" v="Sulinger Straße"/>
    <tag k="ref" v="L 202"/>
    <tag k="surface" v="paved"/>
  </way>
  <way id="30225020" version="17" timestamp="2011-11-19T19:02:09Z" uid="76114" user="Letus" changeset="9876136">
    <nd ref="302695615"/>
    <nd ref="333100356"/>
    <nd ref="333100357"/>
    <nd ref="333100358"/>
    <nd ref="685605775"/>
    <nd ref="333100359"/>
    <nd ref="333100366"/>
    <nd ref="1508869731"/>
    <nd ref="333100375"/>
    <nd ref="333100380"/>
    <tag k="highway" v="secondary"/>
    <tag k="lanes" v="2"/>
    <tag k="maxspeed" v="70"/>
    <tag k="name" v="Sulinger Straße"/>
    <tag k="ref" v="L 202"/>
    <tag k="surface" v="paved"/>
  </way>
  <way id="30225020" version="18" timestamp="2012-01-01T11:22:29Z" uid="57645" user="KartoGrapHiti" changeset="10260485">
    <nd ref="302695615"/>
    <nd ref="333100356"/>
    <nd ref="333100357"/>
    <nd ref="1572494645"/>
    <nd ref="1572494643"/>
    <nd ref="333100358"/>
    <nd ref="685605775"/>
    <nd ref="1572494632"/>
    <nd ref="333100359"/>
    <nd ref="333100366"/>
    <nd ref="1508869731"/>
    <nd ref="333100375"/>
    <nd ref="333100380"/>
    <tag k="highway" v="secondary"/>
    <tag k="lanes" v="2"/>
    <tag k="maxspeed" v="70"/>
    <tag k="name" v="Sulinger Straße"/>
    <tag k="ref" v="L 202"/>
    <tag k="surface" v="paved"/>
  </way>
  <way id="30225816" version="4" timestamp="2010-11-11T09:08:21Z" uid="115477" user="wowik" changeset="6341972">
    <nd ref="333101361"/>
    <nd ref="985044455"/>
    <tag k="addr:postcode" v="111024"/>
    <tag k="cladr:code" v="77000000000029800"/>
    <tag k="cladr:name" v="Магазинный"/>
    <tag k="cladr:suffix" v="Тупик"/>
    <tag k="highway" v="residential"/>
    <tag k="name" v="Магазинный тупик"/>
    <tag k="omkum:code" v="14440"/>
    <tag k="sorting_name" v="Магазинный  тупик"/>
  </way>
  <way id="30225020" version="19" timestamp="2012-04-10T20:45:26Z" uid="294623" user="hatina" changeset="11257328">
    <nd ref="302695615"/>
    <nd ref="333100356"/>
    <nd ref="333100357"/>
    <nd ref="1572494645"/>
    <nd ref="1572494643"/>
    <nd ref="333100358"/>
    <nd ref="685605775"/>
    <nd ref="1572494632"/>
    <nd ref="333100359"/>
    <nd ref="333100366"/>
    <nd ref="1508869731"/>
    <nd ref="333100375"/>
    <nd ref="333100380"/>
    <tag k="access" v="yes"/>
    <tag k="bicycle" v="yes"/>
    <tag k="cycleway" v="track"/>
    <tag k="foot" v="yes"/>
    <tag k="highway" v="secondary"/>
    <tag k="lanes" v="2"/>
    <tag k="layer" v="1"/>
    <tag k="maxspeed" v="100"/>
    <tag k="motor_vehicle" v="yes"/>
    <tag k="name" v="Sulinger Straße"/>
    <tag k="oneway" v="no"/>
    <tag k="ref" v="L 202"/>
    <tag k="surface" v="asphalt"/>
    <tag k="width" v="6"/>
  </way>
  <way id="30225816" version="5" timestamp="2012-04-27T08:17:23Z" uid="336354" user="esaulenka" changeset="11430490"/>
</osm>
