<?xml version='1.0' encoding='UTF-8'?>
<osm version="0.6" generator="libosmium/2.20.0">
  <way id="30231248" version="2" timestamp="2009-10-18T12:22:48Z" uid="36809" user="pfoten_weg_!_" changeset="2882318">
    <nd ref="65009921"/>
    <nd ref="333111986"/>
    <nd ref="333111989"/>
    <nd ref="333111996"/>
    <nd ref="333112001"/>
    <nd ref="333112004"/>
    <tag k="highway" v="residential"/>
    <tag k="oneway" v="no"/>
  </way>
  <way id="30231248" version="3" timestamp="2009-12-09T19:28:23Z" uid="189353" user="RettungsElch" changeset="3336264">
    <nd ref="65009921"/>
    <nd ref="333111986"/>
    <nd ref="333111989"/>
    <nd ref="333111996"/>
    <nd ref="333112001"/>
    <nd ref="333112004"/>
    <tag k="highway" v="residential"/>
    <tag k="name" v="Ötzstraße"/>
    <tag k="oneway" v="no"/>
  </way>
  <way id="30231248" version="4" timestamp="2011-01-23T10:34:58Z" uid="62236" user="Paulchen Panther" changeset="7059361">
    <nd ref="65009921"/>
    <nd ref="333111986"/>
    <nd ref="333111996"/>
    <nd ref="333112001"/>
    <nd ref="333112004"/>
    <tag k="highway" v="residential"/>
    <tag k="name" v="Ötzstraße"/>
    <tag k="oneway" v="no"/>
  </way>
  <way id="30231255" version="2" timestamp="2009-10-18T12:22:47Z" uid="36809" user="pfoten_weg_!_" changeset="2882318">
    <nd ref="65019913"/>
    <nd ref="333112024"/>
    <tag k="highway" v="residential"/>
  </way>
  <way id="30231255" version="3" timestamp="2009-12-09T19:28:22Z" uid="189353" user="RettungsElch" changeset="3336264">
    <nd ref="65019913"/>
    <nd ref="333112024"/>
    <tag k="highway" v="residential"/>
    <tag k="name" v="Tegernseer Straße"/>
  </way>
  <way id="30231266" version="2" timestamp="2009-10-18T12:22:49Z" uid="36809" user="pfoten_weg_!_" changeset="2882318">
    <nd ref="65006124"/>
    <nd ref="333112043"/>
    <nd ref="333112047"/>
    <nd ref="333112050"/>
    <nd ref="333112053"/>
    <nd ref="333112055"/>
    <nd ref="333112058"/>
    <nd ref="333112062"/>
    <nd ref="333112067"/>
    <nd ref="333112070"/>
    <tag k="highway" v="primary_link"/>
    <tag k="oneway" v="yes"/>
  </way>
  <way id="30231312" version="1" timestamp="2009-01-18T14:28:42Z" uid="20587" user="balrog-kun" changeset="804828">
    <nd ref="333111398"/>
    <nd ref="333111397"/>
    <nd ref="333111399"/>
    <nd ref="333111401"/>
    <nd ref="333111394"/>
    <nd ref="333111396"/>
    <nd ref="333111398"/>
    <tag k="addr:housenumber" v="45"/>
    <tag k="addr:street" v="Osowska"/>
    <tag k="building" v="yes"/>
    <tag k="source:addr" v="msi"/>
  </way>
  <way id="30231314" version="1" timestamp="2009-01-18T14:28:42Z" uid="20587" user="balrog-kun" changeset="804828">
    <nd ref="333111399"/>
    <nd ref="333111402"/>
    <nd ref="333111403"/>
    <nd ref="333111401"/>
    <nd ref="333111399"/>
    <tag k="addr:housenumber" v="47"/>
    <tag k="addr:street" v="Osowska"/>
    <tag k="building" v="yes"/>
    <tag k="source:addr" v="msi"/>
  </way>
  <way id="30231317" version="1" timestamp="2009-01-18T14:28:43Z" uid="20587" user="balrog-kun" changeset="804828">
    <nd ref="333111405"/>
    <nd ref="333111410"/>
    <nd ref="333111412"/>
    <nd ref="333111407"/>
    <nd ref="333111405"/>
    <tag k="addr:housenumber" v="14"/>
    <tag k="addr:street" v="Lubiniecka"/>
    <tag k="building" v="yes"/>
    <tag k="building:levels" v="1"/>
    <tag k="source:addr" v="msi"/>
  </way>
  <way id="30231320" version="1" timestamp="2009-01-18T14:28:43Z" uid="20587" user="balrog-kun" changeset="804828">
    <nd ref="333111414"/>
    <nd ref="333111419"/>
    <nd ref="333111421"/>
    <nd ref="333111416"/>
    <nd ref="333111434"/>
    <nd ref="333111437"/>
    <nd ref="333111432"/>
    <nd ref="333111414"/>
    <tag k="addr:housenumber" v="10"/>
    <tag k="addr:street" v="Lubiniecka"/>
    <tag k="building" v="yes"/>
    <tag k="source:addr" v="msi"/>
  </way>
  <way id="30231323" version="1" timestamp="2009-01-18T14:28:43Z" uid="20587" user="balrog-kun" changeset="804828">
    <nd ref="333111423"/>
    <nd ref="333111425"/>
    <nd ref="333111430"/>
    <nd ref="333111428"/>
    <nd ref="333111423"/>
    <tag k="addr:housenumber" v="4"/>
    <tag k="addr:street" v="Lubiniecka"/>
    <tag k="building" v="yes"/>
    <tag k="source:addr" v="msi"/>
  </way>
  <way id="30231326" version="1" timestamp="2009-01-18T14:28:43Z" uid="20587" user="balrog-kun" changeset="804828">
    <nd ref="333111445"/>
    <nd ref="333111443"/>
    <nd ref="333111439"/>
    <nd ref="333111441"/>
    <nd ref="333111445"/>
    <tag k="addr:housenumber" v="3"/>
    <tag k="addr:street" v="Lubiniecka"/>
    <tag k="building" v="yes"/>
    <tag k="source:addr" v="msi"/>
  </way>
  <way id="30231329" version="1" timestamp="2009-01-18T14:28:44Z" uid="20587" user="balrog-kun" changeset="804828">
    <nd ref="333111448"/>
    <nd ref="333111445"/>
    <nd ref="333111441"/>
    <nd ref="333111450"/>
    <nd ref="333111448"/>
    <tag k="addr:housenumber" v="5"/>
    <tag k="addr:street" v="Lubiniecka"/>
    <tag k="building" v="yes"/>
    <tag k="source:addr" v="msi"/>
  </way>
  <way id="30231332" version="1" timestamp="2009-01-18T14:28:44Z" uid="20587" user="balrog-kun" changeset="804828">
    <nd ref="333111452"/>
    <nd ref="333111454"/>
    <nd ref="333111459"/>
    <nd ref="333111457"/>
    <nd ref="333111452"/>
    <tag k="addr:housenumber" v="7"/>
    <tag k="addr:street" v="Lubiniecka"/>
    <tag k="building" v="yes"/>
    <tag k="source:addr" v="msi"/>
  </way>
  <way id="30231334" version="1" timestamp="2009-01-18T14:28:44Z" uid="20587" user="balrog-kun" changeset="804828">
    <nd ref="333111461"/>
    <nd ref="333111457"/>
    <nd ref="333111459"/>
    <nd ref="333111463"/>
    <nd ref="333111461"/>
    <tag k="addr:housenumber" v="9"/>
    <tag k="addr:street" v="Lubiniecka"/>
    <tag k="building" v="yes"/>
    <tag k="source:addr" v="msi"/>
  </way>
  <way id="30231335" version="1" timestamp="2009-01-18T14:28:45Z" uid="20587" user="balrog-kun" changeset="804828">
    <nd ref="333111466"/>
    <nd ref="333111681"/>
    <nd ref="333111684"/>
    <nd ref="333111461"/>
    <nd ref="333111463"/>
    <nd ref="333111468"/>
    <nd ref="333111466"/>
    <tag k="addr:housenumber" v="11"/>
    <tag k="addr:street" v="Lubiniecka"/>
    <tag k="building" v="yes"/>
    <tag k="source:addr" v="msi"/>
  </way>
  <way id="30231337" version="1" timestamp="2009-01-18T14:28:45Z" uid="20587" user="balrog-kun" changeset="804828">
    <nd ref="333111470"/>
    <nd ref="333111472"/>
    <nd ref="333111477"/>
    <nd ref="333111475"/>
    <nd ref="333111470"/>
    <tag k="addr:housenumber" v="13"/>
    <tag k="addr:street" v="Lubiniecka"/>
    <tag k="building" v="yes"/>
    <tag k="source:addr" v="msi"/>
  </way>
  <way id="30231339" version="1" timestamp="2009-01-18T14:28:45Z" uid="20587" user="balrog-kun" changeset="804828">
    <nd ref="333111479"/>
    <nd ref="333111484"/>
    <nd ref="333111490"/>
    <nd ref="333111493"/>
    <nd ref="333111488"/>
    <nd ref="333111486"/>
    <nd ref="333111481"/>
    <nd ref="333111479"/>
    <tag k="addr:housenumber" v="49"/>
    <tag k="addr:street" v="Osowska"/>
    <tag k="building" v="yes"/>
    <tag k="source:addr" v="msi"/>
  </way>
  <way id="30231340" version="1" timestamp="2009-01-18T14:28:46Z" uid="20587" user="balrog-kun" changeset="804828">
    <nd ref="333111495"/>
    <nd ref="333111497"/>
    <nd ref="333111517"/>
    <nd ref="333111519"/>
    <nd ref="333111495"/>
    <tag k="addr:housenumber" v="48"/>
    <tag k="addr:street" v="Osowska"/>
    <tag k="building" v="yes"/>
    <tag k="source:addr" v="msi"/>
  </way>
  <way id="30231340" version="2" timestamp="2011-05-01T07:58:32Z" uid="343168" user="Rafalsky" changeset="8018253"/>
  <way id="30231342" version="1" timestamp="2009-01-18T14:28:46Z" uid="20587" user="balrog-kun" changeset="804828">
    <nd ref="333111521"/>
    <nd ref="333111523"/>
    <nd ref="333111527"/>
    <nd ref="333111525"/>
    <nd ref="333111521"/>
    <tag k="addr:housenumber" v="15"/>
    <tag k="addr:street" v="Księdza Jana Sztuki"/>
    <tag k="building" v="yes"/>
    <tag k="source:addr" v="msi"/>
  </way>
  <way id="30231342" version="2" timestamp="2009-05-15T20:57:15Z" uid="20587" user="balrog-kun" changeset="1204501">
    <nd ref="333111521"/>
    <nd ref="333111523"/>
    <nd ref="333111527"/>
    <nd ref="333111525"/>
    <nd ref="333111521"/>
    <tag k="addr:housenumber" v="15"/>
    <tag k="addr:street" v="Księdza Jana Sztuki"/>
    <tag k="building" v="yes"/>
    <tag k="building:levels" v="3"/>
    <tag k="source:addr" v="msi"/>
  </way>
  <way id="30231342" version="3" timestamp="2011-05-01T07:58:31Z" uid="343168" user="Rafalsky" changeset="8018253"/>
  <way id="30231344" version="1" timestamp="2009-01-18T14:28:46Z" uid="20587" user="balrog-kun" changeset="804828">
    <nd ref="333111536"/>
    <nd ref="333111541"/>
    <nd ref="333111539"/>
    <nd ref="333111534"/>
    <nd ref="333111536"/>
    <tag k="addr:housenumber" v="19"/>
    <tag k="addr:street" v="Księdza Jana Sztuki"/>
    <tag k="building" v="yes"/>
    <tag k="source:addr" v="msi"/>
  </way>
  <way id="30231344" version="2" timestamp="2009-05-15T20:57:15Z" uid="20587" user="balrog-kun" changeset="1204501">
    <nd ref="333111536"/>
    <nd ref="333111541"/>
    <nd ref="333111539"/>
    <nd ref="333111534"/>
    <nd ref="333111536"/>
    <tag k="addr:housenumber" v="19"/>
    <tag k="addr:street" v="Księdza Jana Sztuki"/>
    <tag k="building" v="yes"/>
    <tag k="building:levels" v="3"/>
    <tag k="source:addr" v="msi"/>
  </way>
  <way id="30231346" version="1" timestamp="2009-01-18T14:28:47Z" uid="20587" user="balrog-kun" changeset="804828">
    <nd ref="333111532"/>
    <nd ref="333111536"/>
    <nd ref="333111534"/>
    <nd ref="333111530"/>
    <nd ref="333111532"/>
    <tag k="addr:housenumber" v="17"/>
    <tag k="addr:street" v="Księdza Jana Sztuki"/>
    <tag k="building" v="yes"/>
    <tag k="source:addr" v="msi"/>
  </way>
  <way id="30231346" version="2" timestamp="2009-05-15T20:57:15Z" uid="20587" user="balrog-kun" changeset="1204501">
    <nd ref="333111532"/>
    <nd ref="333111536"/>
    <nd ref="333111534"/>
    <nd ref="333111530"/>
    <nd ref="333111532"/>
    <tag k="addr:housenumber" v="17"/>
    <tag k="addr:street" v="Księdza Jana Sztuki"/>
    <tag k="building" v="yes"/>
    <tag k="building:levels" v="3"/>
    <tag k="source:addr" v="msi"/>
  </way>
  <way id="30231348" version="1" timestamp="2009-01-18T14:28:48Z" uid="20587" user="balrog-kun" changeset="804828">
    <nd ref="333111513"/>
    <nd ref="333111498"/>
    <nd ref="333111502"/>
    <nd ref="333111515"/>
    <nd ref="333111513"/>
    <tag k="addr:housenumber" v="48a"/>
    <tag k="addr:street" v="Osowska"/>
    <tag k="building" v="yes"/>
    <tag k="source:addr" v="msi"/>
  </way>
  <way id="30231350" version="1" timestamp="2009-01-18T14:28:48Z" uid="20587" user="balrog-kun" changeset="804828">
    <nd ref="333111506"/>
    <nd ref="333111504"/>
    <nd ref="333111513"/>
    <nd ref="333111515"/>
    <nd ref="333111506"/>
    <tag k="addr:housenumber" v="48b"/>
    <tag k="addr:street" v="Osowska"/>
    <tag k="building" v="yes"/>
    <tag k="source:addr" v="msi"/>
  </way>
  <way id="30231351" version="1" timestamp="2009-01-18T14:28:48Z" uid="20587" user="balrog-kun" changeset="804828">
    <nd ref="333111585"/>
    <nd ref="333111587"/>
    <nd ref="333111583"/>
    <nd ref="333111580"/>
    <nd ref="333111585"/>
    <tag k="addr:housenumber" v="58"/>
    <tag k="addr:street" v="Osowska"/>
    <tag k="building" v="yes"/>
    <tag k="source:addr" v="msi"/>
  </way>
  <way id="30231352" version="1" timestamp="2009-01-18T14:28:49Z" uid="20587" user="balrog-kun" changeset="804828">
    <nd ref="333111577"/>
    <nd ref="333111578"/>
    <nd ref="333111575"/>
    <nd ref="333111572"/>
    <nd ref="333111577"/>
    <tag k="addr:housenumber" v="56"/>
    <tag k="addr:street" v="Osowska"/>
    <tag k="building" v="yes"/>
    <tag k="source:addr" v="msi"/>
  </way>
  <way id="30231353" version="1" timestamp="2009-01-18T14:28:49Z" uid="20587" user="balrog-kun" changeset="804828">
    <nd ref="333111572"/>
    <nd ref="333111575"/>
    <nd ref="333111545"/>
    <nd ref="333111543"/>
    <nd ref="333111572"/>
    <tag k="addr:housenumber" v="54"/>
    <tag k="addr:street" v="Osowska"/>
    <tag k="building" v="yes"/>
    <tag k="source:addr" v="msi"/>
  </way>
  <way id="30231354" version="1" timestamp="2009-01-18T14:28:50Z" uid="20587" user="balrog-kun" changeset="804828">
    <nd ref="333111543"/>
    <nd ref="333111545"/>
    <nd ref="333111508"/>
    <nd ref="333111510"/>
    <nd ref="333111543"/>
    <tag k="addr:housenumber" v="52"/>
    <tag k="addr:street" v="Osowska"/>
    <tag k="building" v="yes"/>
    <tag k="source:addr" v="msi"/>
  </way>
  <way id="30231355" version="1" timestamp="2009-01-18T14:28:50Z" uid="20587" user="balrog-kun" changeset="804828">
    <nd ref="333111589"/>
    <nd ref="333111594"/>
    <nd ref="333111596"/>
    <nd ref="333111591"/>
    <nd ref="333111589"/>
    <tag k="building" v="yes"/>
  </way>
  <way id="30231357" version="1" timestamp="2009-01-18T14:28:50Z" uid="20587" user="balrog-kun" changeset="804828">
    <nd ref="333111650"/>
    <nd ref="333111647"/>
    <nd ref="333111652"/>
    <nd ref="333111654"/>
    <nd ref="333111650"/>
    <tag k="addr:housenumber" v="22"/>
    <tag k="addr:street" v="Lubartowska"/>
    <tag k="building" v="yes"/>
    <tag k="source:addr" v="msi"/>
  </way>
  <way id="30231358" version="1" timestamp="2009-01-18T14:28:51Z" uid="20587" user="balrog-kun" changeset="804828">
    <nd ref="333111650"/>
    <nd ref="333111654"/>
    <nd ref="333111659"/>
    <nd ref="333111661"/>
    <nd ref="333111668"/>
    <nd ref="333111656"/>
    <nd ref="333111650"/>
    <tag k="addr:housenumber" v="24"/>
    <tag k="addr:street" v="Lubartowska"/>
    <tag k="building" v="yes"/>
    <tag k="source:addr" v="msi"/>
  </way>
  <way id="30231361" version="1" timestamp="2009-01-18T14:28:52Z" uid="20587" user="balrog-kun" changeset="804828">
    <nd ref="333111656"/>
    <nd ref="333111668"/>
    <nd ref="333111670"/>
    <nd ref="333111663"/>
    <nd ref="333111666"/>
    <nd ref="333111656"/>
    <tag k="addr:housenumber" v="26"/>
    <tag k="addr:street" v="Lubartowska"/>
    <tag k="building" v="yes"/>
    <tag k="source:addr" v="msi"/>
  </way>
  <way id="30231363" version="1" timestamp="2009-01-18T14:28:52Z" uid="20587" user="balrog-kun" changeset="804828">
    <nd ref="333111672"/>
    <nd ref="333111677"/>
    <nd ref="333111679"/>
    <nd ref="333111675"/>
    <nd ref="333111672"/>
    <tag k="building" v="yes"/>
  </way>
  <way id="30231365" version="1" timestamp="2009-01-18T14:28:52Z" uid="20587" user="balrog-kun" changeset="804828">
    <nd ref="333111639"/>
    <nd ref="333111642"/>
    <nd ref="333111645"/>
    <nd ref="333111644"/>
    <nd ref="333111639"/>
    <tag k="addr:housenumber" v="18"/>
    <tag k="addr:street" v="Lubartowska"/>
    <tag k="building" v="yes"/>
    <tag k="source:addr" v="msi"/>
  </way>
  <way id="30231366" version="1" timestamp="2009-01-18T14:28:53Z" uid="20587" user="balrog-kun" changeset="804828">
    <nd ref="333111635"/>
    <nd ref="333111637"/>
    <nd ref="333111642"/>
    <nd ref="333111639"/>
    <nd ref="333111635"/>
    <tag k="addr:housenumber" v="16"/>
    <tag k="addr:street" v="Lubartowska"/>
    <tag k="building" v="yes"/>
    <tag k="source:addr" v="msi"/>
  </way>
  <way id="30231368" version="1" timestamp="2009-01-18T14:28:54Z" uid="20587" user="balrog-kun" changeset="804828">
    <nd ref="333111635"/>
    <nd ref="333111630"/>
    <nd ref="333111633"/>
    <nd ref="333111637"/>
    <nd ref="333111635"/>
    <tag k="addr:housenumber" v="14"/>
    <tag k="addr:street" v="Lubartowska"/>
    <tag k="building" v="yes"/>
    <tag k="source:addr" v="msi"/>
  </way>
  <way id="30231370" version="1" timestamp="2009-01-18T14:28:54Z" uid="20587" user="balrog-kun" changeset="804828">
    <nd ref="333111619"/>
    <nd ref="333111621"/>
    <nd ref="333111628"/>
    <nd ref="333111626"/>
    <nd ref="333111619"/>
    <tag k="addr:housenumber" v="12"/>
    <tag k="addr:street" v="Lubartowska"/>
    <tag k="building" v="yes"/>
    <tag k="source:addr" v="msi"/>
  </way>
  <way id="30231372" version="1" timestamp="2009-01-18T14:28:54Z" uid="20587" user="balrog-kun" changeset="804828">
    <nd ref="333111615"/>
    <nd ref="333111617"/>
    <nd ref="333111624"/>
    <nd ref="333111621"/>
    <nd ref="333111619"/>
    <nd ref="333111615"/>
    <tag k="addr:housenumber" v="10"/>
    <tag k="addr:street" v="Lubartowska"/>
    <tag k="building" v="yes"/>
    <tag k="source:addr" v="msi"/>
  </way>
  <way id="30231374" version="1" timestamp="2009-01-18T14:28:55Z" uid="20587" user="balrog-kun" changeset="804828">
    <nd ref="333111610"/>
    <nd ref="333111612"/>
    <nd ref="333111617"/>
    <nd ref="333111615"/>
    <nd ref="333111610"/>
    <tag k="addr:housenumber" v="8"/>
    <tag k="addr:street" v="Lubartowska"/>
    <tag k="building" v="yes"/>
    <tag k="source:addr" v="msi"/>
  </way>
  <way id="30231376" version="1" timestamp="2009-01-18T14:28:55Z" uid="20587" user="balrog-kun" changeset="804828">
    <nd ref="333111603"/>
    <nd ref="333111607"/>
    <nd ref="333111612"/>
    <nd ref="333111610"/>
    <nd ref="333111603"/>
    <tag k="addr:housenumber" v="6"/>
    <tag k="addr:street" v="Lubartowska"/>
    <tag k="building" v="yes"/>
    <tag k="source:addr" v="msi"/>
  </way>
  <way id="30231378" version="1" timestamp="2009-01-18T14:28:56Z" uid="20587" user="balrog-kun" changeset="804828">
    <nd ref="333111603"/>
    <nd ref="333111598"/>
    <nd ref="333111600"/>
    <nd ref="333111605"/>
    <nd ref="333111607"/>
    <nd ref="333111603"/>
    <tag k="addr:housenumber" v="4"/>
    <tag k="addr:street" v="Lubartowska"/>
    <tag k="building" v="yes"/>
    <tag k="source:addr" v="msi"/>
  </way>
  <way id="30231379" version="1" timestamp="2009-01-18T14:28:57Z" uid="20587" user="balrog-kun" changeset="804828">
    <nd ref="333111686"/>
    <nd ref="333111688"/>
    <nd ref="333111693"/>
    <nd ref="333111697"/>
    <nd ref="333111702"/>
    <nd ref="333111699"/>
    <nd ref="333111695"/>
    <nd ref="333111706"/>
    <nd ref="333111704"/>
    <nd ref="333111690"/>
    <nd ref="333111686"/>
    <tag k="addr:street" v="Lubartowska"/>
    <tag k="building" v="yes"/>
  </way>
  <way id="30231381" version="1" timestamp="2009-01-18T14:28:57Z" uid="20587" user="balrog-kun" changeset="804828">
    <nd ref="333111708"/>
    <nd ref="333111710"/>
    <nd ref="333111714"/>
    <nd ref="333111712"/>
    <nd ref="333111708"/>
    <tag k="addr:housenumber" v="13"/>
    <tag k="addr:street" v="Lubartowska"/>
    <tag k="building" v="yes"/>
  </way>
  <way id="30231383" version="1" timestamp="2009-01-18T14:28:58Z" uid="20587" user="balrog-kun" changeset="804828">
    <nd ref="333111721"/>
    <nd ref="333111716"/>
    <nd ref="333111719"/>
    <nd ref="333111723"/>
    <nd ref="333111721"/>
    <tag k="addr:housenumber" v="17"/>
    <tag k="addr:street" v="Lubartowska"/>
    <tag k="building" v="yes"/>
  </way>
  <way id="30231385" version="1" timestamp="2009-01-18T14:28:58Z" uid="20587" user="balrog-kun" changeset="804828">
    <nd ref="333111730"/>
    <nd ref="333111732"/>
    <nd ref="333111737"/>
    <nd ref="333111734"/>
    <nd ref="333111730"/>
    <tag k="addr:housenumber" v="23"/>
    <tag k="addr:street" v="Lubartowska"/>
    <tag k="building" v="yes"/>
  </way>
  <way id="30231387" version="1" timestamp="2009-01-18T14:28:59Z" uid="20587" user="balrog-kun" changeset="804828">
    <nd ref="333111776"/>
    <nd ref="333111778"/>
    <nd ref="333111783"/>
    <nd ref="333111780"/>
    <nd ref="333111776"/>
    <tag k="addr:housenumber" v="26"/>
    <tag k="addr:street" v="Serocka"/>
    <tag k="building" v="yes"/>
    <tag k="source:addr" v="msi"/>
  </way>
  <way id="30231389" version="1" timestamp="2009-01-18T14:29:00Z" uid="20587" user="balrog-kun" changeset="804828">
    <nd ref="333111793"/>
    <nd ref="333111787"/>
    <nd ref="333111785"/>
    <nd ref="333111791"/>
    <nd ref="333111793"/>
    <tag k="addr:housenumber" v="10"/>
    <tag k="addr:street" v="Serocka"/>
    <tag k="building" v="yes"/>
    <tag k="source:addr" v="msi"/>
  </way>
  <way id="30231391" version="1" timestamp="2009-01-18T14:29:00Z" uid="20587" user="balrog-kun" changeset="804828">
    <nd ref="333111799"/>
    <nd ref="333111801"/>
    <nd ref="333111806"/>
    <nd ref="333111803"/>
    <nd ref="333111799"/>
    <tag k="addr:housenumber" v="6"/>
    <tag k="addr:street" v="Serocka"/>
    <tag k="building" v="yes"/>
    <tag k="source:addr" v="msi"/>
  </way>
  <way id="30231393" version="1" timestamp="2009-01-18T14:29:00Z" uid="20587" user="balrog-kun" changeset="804828">
    <nd ref="333111817"/>
    <nd ref="333111814"/>
    <nd ref="333111812"/>
    <nd ref="333111808"/>
    <nd ref="333111810"/>
    <nd ref="333111817"/>
    <tag k="addr:housenumber" v="9/11"/>
    <tag k="addr:street" v="Serocka"/>
    <tag k="building" v="yes"/>
    <tag k="source:addr" v="msi"/>
  </way>
  <way id="30231393" version="2" timestamp="2009-02-09T19:58:42Z" uid="20587" user="balrog-kun" changeset="304409">
    <nd ref="333111817"/>
    <nd ref="333111814"/>
    <nd ref="333111812"/>
    <nd ref="333111808"/>
    <nd ref="333111810"/>
    <nd ref="333111817"/>
    <tag k="addr:housenumber" v="9/11"/>
    <tag k="addr:street" v="Serocka"/>
    <tag k="building" v="residential"/>
    <tag k="source:addr" v="msi"/>
  </way>
  <way id="30231395" version="1" timestamp="2009-01-18T14:29:03Z" uid="20587" user="balrog-kun" changeset="804828">
    <nd ref="333111849"/>
    <nd ref="333111851"/>
    <nd ref="333111856"/>
    <nd ref="333111853"/>
    <nd ref="333111849"/>
    <tag k="addr:housenumber" v="22"/>
    <tag k="addr:street" v="Dubieńska"/>
    <tag k="building" v="yes"/>
  </way>
  <way id="30231397" version="1" timestamp="2009-01-18T14:29:03Z" uid="20587" user="balrog-kun" changeset="804828">
    <nd ref="333111859"/>
    <nd ref="333111863"/>
    <nd ref="333111870"/>
    <nd ref="333111887"/>
    <nd ref="333111883"/>
    <nd ref="333111877"/>
    <nd ref="333111873"/>
    <nd ref="333111866"/>
    <nd ref="333111859"/>
    <tag k="addr:housenumber" v="24"/>
    <tag k="addr:street" v="Dubieńska"/>
    <tag k="building" v="yes"/>
    <tag k="source:addr" v="msi"/>
  </way>
  <way id="30231399" version="1" timestamp="2009-01-18T14:29:03Z" uid="20587" user="balrog-kun" changeset="804828">
    <nd ref="333111797"/>
    <nd ref="333111793"/>
    <nd ref="333111791"/>
    <nd ref="333111795"/>
    <nd ref="333111797"/>
    <tag k="addr:housenumber" v="8"/>
    <tag k="addr:street" v="Serocka"/>
    <tag k="building" v="yes"/>
    <tag k="source:addr" v="msi"/>
  </way>
  <way id="30231400" version="1" timestamp="2009-01-18T14:29:03Z" uid="20587" user="balrog-kun" changeset="804828">
    <nd ref="333111890"/>
    <nd ref="333111757"/>
    <nd ref="333111739"/>
    <nd ref="333111741"/>
    <nd ref="333111743"/>
    <nd ref="333111890"/>
    <tag k="addr:housenumber" v="15"/>
    <tag k="addr:street" v="Lubartowska"/>
    <tag k="building" v="yes"/>
    <tag k="source:addr" v="msi"/>
  </way>
  <way id="30231403" version="1" timestamp="2009-01-18T14:29:04Z" uid="20587" user="balrog-kun" changeset="804828">
    <nd ref="333111721"/>
    <nd ref="333111723"/>
    <nd ref="333111728"/>
    <nd ref="333111725"/>
    <nd ref="333111721"/>
    <tag k="addr:housenumber" v="19"/>
    <tag k="addr:street" v="Lubartowska"/>
    <tag k="building" v="yes"/>
  </way>
  <way id="30231405" version="1" timestamp="2009-01-18T14:29:04Z" uid="20587" user="balrog-kun" changeset="804828">
    <nd ref="333111746"/>
    <nd ref="333111759"/>
    <nd ref="333111890"/>
    <nd ref="333111743"/>
    <nd ref="333111747"/>
    <nd ref="333111749"/>
    <nd ref="333111755"/>
    <nd ref="333111752"/>
    <nd ref="333111746"/>
    <tag k="addr:housenumber" v="22"/>
    <tag k="addr:street" v="Serocka"/>
    <tag k="building" v="yes"/>
    <tag k="source:addr" v="msi"/>
  </way>
  <way id="30231407" version="1" timestamp="2009-01-18T14:29:05Z" uid="20587" user="balrog-kun" changeset="804828">
    <nd ref="333111897"/>
    <nd ref="333111890"/>
    <nd ref="333111759"/>
    <nd ref="333111764"/>
    <nd ref="333111766"/>
    <nd ref="333111769"/>
    <nd ref="333111897"/>
    <tag k="addr:housenumber" v="20"/>
    <tag k="addr:street" v="Serocka"/>
    <tag k="building" v="yes"/>
    <tag k="source:addr" v="msi"/>
  </way>
  <way id="30231409" version="1" timestamp="2009-01-18T14:29:05Z" uid="20587" user="balrog-kun" changeset="804828">
    <nd ref="333111897"/>
    <nd ref="333111767"/>
    <nd ref="333111761"/>
    <nd ref="333111757"/>
    <nd ref="333111890"/>
    <nd ref="333111897"/>
    <tag k="addr:housenumber" v="18"/>
    <tag k="addr:street" v="Serocka"/>
    <tag k="building" v="yes"/>
    <tag k="source:addr" v="msi"/>
  </way>
  <way id="30231410" version="1" timestamp="2009-01-18T14:29:05Z" uid="20587" user="balrog-kun" changeset="804828">
    <nd ref="333111894"/>
    <nd ref="333111900"/>
    <nd ref="333111761"/>
    <nd ref="333111767"/>
    <nd ref="333111894"/>
    <tag k="addr:housenumber" v="16"/>
    <tag k="addr:street" v="Serocka"/>
    <tag k="building" v="yes"/>
    <tag k="source:addr" v="msi"/>
  </way>
  <way id="30231412" version="1" timestamp="2009-01-18T14:29:05Z" uid="20587" user="balrog-kun" changeset="804828">
    <nd ref="333111894"/>
    <nd ref="333111774"/>
    <nd ref="333111772"/>
    <nd ref="333111900"/>
    <nd ref="333111894"/>
    <tag k="addr:housenumber" v="14"/>
    <tag k="addr:street" v="Serocka"/>
    <tag k="building" v="yes"/>
    <tag k="source:addr" v="msi"/>
  </way>
  <way id="30231414" version="1" timestamp="2009-01-18T14:29:05Z" uid="20587" user="balrog-kun" changeset="804828">
    <nd ref="333111903"/>
    <nd ref="333111907"/>
    <nd ref="333111913"/>
    <nd ref="333111910"/>
    <nd ref="333111903"/>
    <tag k="addr:housenumber" v="24"/>
    <tag k="addr:street" v="Serocka"/>
    <tag k="building" v="yes"/>
    <tag k="source:addr" v="msi"/>
  </way>
  <way id="30231416" version="1" timestamp="2009-01-18T14:29:06Z" uid="20587" user="balrog-kun" changeset="804828">
    <nd ref="333111827"/>
    <nd ref="333111831"/>
    <nd ref="333111844"/>
    <nd ref="333111847"/>
    <nd ref="333111827"/>
    <tag k="addr:housenumber" v="17"/>
    <tag k="addr:street" v="Serocka"/>
    <tag k="building" v="yes"/>
    <tag k="source:addr" v="msi"/>
  </way>
  <way id="30231423" version="1" timestamp="2009-01-18T14:29:06Z" uid="20587" user="balrog-kun" changeset="804828">
    <nd ref="333111819"/>
    <nd ref="333111817"/>
    <nd ref="333111810"/>
    <nd ref="333111821"/>
    <nd ref="333111825"/>
    <nd ref="333111819"/>
    <tag k="addr:housenumber" v="13"/>
    <tag k="addr:street" v="Serocka"/>
    <tag k="building" v="yes"/>
    <tag k="source:addr" v="msi"/>
  </way>
  <way id="30231425" version="1" timestamp="2009-01-18T14:29:06Z" uid="20587" user="balrog-kun" changeset="804828">
    <nd ref="333111917"/>
    <nd ref="333111924"/>
    <nd ref="333111928"/>
    <nd ref="333111920"/>
    <nd ref="333111917"/>
    <tag k="addr:street" v="Serocka"/>
    <tag k="building" v="yes"/>
    <tag k="source:addr" v="msi"/>
  </way>
  <way id="30231425" version="2" timestamp="2009-01-18T14:45:41Z" uid="20587" user="balrog-kun" changeset="804828">
    <nd ref="333111917"/>
    <nd ref="333111924"/>
    <nd ref="333111928"/>
    <nd ref="333111920"/>
    <nd ref="333111917"/>
    <tag k="addr:housenumber" v="25"/>
    <tag k="addr:street" v="Serocka"/>
    <tag k="building" v="yes"/>
    <tag k="source:addr" v="msi"/>
  </way>
  <way id="30231428" version="1" timestamp="2009-01-18T14:29:07Z" uid="20587" user="balrog-kun" changeset="804828">
    <nd ref="333111825"/>
    <nd ref="333111827"/>
    <nd ref="333111847"/>
    <nd ref="333111829"/>
    <nd ref="333111819"/>
    <nd ref="333111825"/>
    <tag k="addr:housenumber" v="15"/>
    <tag k="addr:street" v="Serocka"/>
    <tag k="building" v="yes"/>
    <tag k="source:addr" v="msi"/>
  </way>
  <way id="30231430" version="1" timestamp="2009-01-18T14:29:07Z" uid="20587" user="balrog-kun" changeset="804828">
    <nd ref="333111831"/>
    <nd ref="333111836"/>
    <nd ref="333111842"/>
    <nd ref="333111833"/>
    <nd ref="333111844"/>
    <nd ref="333111831"/>
    <tag k="addr:housenumber" v="19"/>
    <tag k="addr:street" v="Serocka"/>
    <tag k="building" v="yes"/>
    <tag k="source:addr" v="msi"/>
  </way>
  <way id="30231432" version="1" timestamp="2009-01-18T14:29:07Z" uid="20587" user="balrog-kun" changeset="804828">
    <nd ref="333111935"/>
    <nd ref="333111938"/>
    <nd ref="333111945"/>
    <nd ref="333111942"/>
    <nd ref="333111935"/>
    <tag k="leisure" v="pitch"/>
  </way>
  <way id="30231435" version="1" timestamp="2009-01-18T14:29:07Z" uid="20587" user="balrog-kun" changeset="804828">
    <nd ref="333111949"/>
    <nd ref="333111952"/>
    <nd ref="333111960"/>
    <nd ref="333111956"/>
    <nd ref="333111949"/>
    <tag k="amenity" v="parking"/>
  </way>
  <way id="30231438" version="1" timestamp="2009-01-18T14:29:08Z" uid="20587" user="balrog-kun" changeset="804828">
    <nd ref="309479367"/>
    <nd ref="309479366"/>
    <nd ref="309479364"/>
    <nd ref="309479368"/>
    <nd ref="309479365"/>
    <nd ref="309479367"/>
    <tag k="addr:housenumber" v="50"/>
    <tag k="addr:street" v="Augustyna Kordeckiego"/>
    <tag k="building" v="yes"/>
  </way>
  <way id="30231440" version="1" timestamp="2009-01-18T14:29:08Z" uid="20587" user="balrog-kun" changeset="804828">
    <nd ref="309479369"/>
    <nd ref="333111964"/>
    <nd ref="333111967"/>
    <nd ref="309479370"/>
    <nd ref="309479369"/>
    <tag k="addr:housenumber" v="5"/>
    <tag k="addr:postcode" v="04-331"/>
    <tag k="addr:street" v="Dubieńska"/>
    <tag k="building" v="yes"/>
  </way>
  <way id="30231442" version="1" timestamp="2009-01-18T14:29:08Z" uid="20587" user="balrog-kun" changeset="804828">
    <nd ref="333111970"/>
    <nd ref="333111974"/>
    <nd ref="333111977"/>
    <nd ref="333111972"/>
    <nd ref="333111970"/>
    <tag k="addr:housenumber" v="9"/>
    <tag k="addr:postcode" v="04-331"/>
    <tag k="addr:street" v="Dubieńska"/>
    <tag k="building" v="yes"/>
  </way>
  <way id="30231444" version="1" timestamp="2009-01-18T14:29:09Z" uid="20587" user="balrog-kun" changeset="804828">
    <nd ref="333111983"/>
    <nd ref="333111967"/>
    <nd ref="333111964"/>
    <nd ref="333111970"/>
    <nd ref="333111972"/>
    <nd ref="333111981"/>
    <nd ref="333111983"/>
    <tag k="addr:housenumber" v="7"/>
    <tag k="addr:postcode" v="04-331"/>
    <tag k="addr:street" v="Dubieńska"/>
    <tag k="building" v="yes"/>
  </way>
  <way id="30231447" version="1" timestamp="2009-01-18T14:29:09Z" uid="20587" user="balrog-kun" changeset="804828">
    <nd ref="333111974"/>
    <nd ref="333111979"/>
    <nd ref="333111980"/>
    <nd ref="333111977"/>
    <nd ref="333111974"/>
    <tag k="addr:housenumber" v="11"/>
    <tag k="addr:street" v="Dubieńska"/>
    <tag k="building" v="yes"/>
    <tag k="source:addr" v="msi"/>
  </way>
  <way id="30231449" version="1" timestamp="2009-01-18T14:29:09Z" uid="20587" user="balrog-kun" changeset="804828">
    <nd ref="333111985"/>
    <nd ref="333111988"/>
    <nd ref="333111998"/>
    <nd ref="333111991"/>
    <nd ref="333111985"/>
    <tag k="addr:housenumber" v="44"/>
    <tag k="addr:street" v="Augustyna Kordeckiego"/>
    <tag k="building" v="yes"/>
    <tag k="source:addr" v="msi"/>
  </way>
  <way id="30231451" version="1" timestamp="2009-01-18T14:29:10Z" uid="20587" user="balrog-kun" changeset="804828">
    <nd ref="333112007"/>
    <nd ref="333112002"/>
    <nd ref="333112005"/>
    <nd ref="333112009"/>
    <nd ref="333112007"/>
    <tag k="addr:housenumber" v="10"/>
    <tag k="addr:street" v="Dubieńska"/>
    <tag k="building" v="yes"/>
    <tag k="source:addr" v="msi"/>
  </way>
  <way id="30231453" version="1" timestamp="2009-01-18T14:29:10Z" uid="20587" user="balrog-kun" changeset="804828">
    <nd ref="333112007"/>
    <nd ref="333112009"/>
    <nd ref="333112013"/>
    <nd ref="333112011"/>
    <nd ref="333112007"/>
    <tag k="addr:housenumber" v="12"/>
    <tag k="addr:street" v="Dubieńska"/>
    <tag k="building" v="yes"/>
    <tag k="source:addr" v="msi"/>
  </way>
  <way id="30231455" version="1" timestamp="2009-01-18T14:29:10Z" uid="20587" user="balrog-kun" changeset="804828">
    <nd ref="333112011"/>
    <nd ref="333112013"/>
    <nd ref="333112019"/>
    <nd ref="333112016"/>
    <nd ref="333112011"/>
    <tag k="addr:housenumber" v="14"/>
    <tag k="addr:street" v="Dubieńska"/>
    <tag k="building" v="yes"/>
    <tag k="source:addr" v="msi"/>
  </way>
  <way id="30231457" version="1" timestamp="2009-01-18T14:29:10Z" uid="20587" user="balrog-kun" changeset="804828">
    <nd ref="333112021"/>
    <nd ref="333112023"/>
    <nd ref="333112029"/>
    <nd ref="333112027"/>
    <nd ref="333112021"/>
    <tag k="building" v="yes"/>
  </way>
  <way id="30231458" version="1" timestamp="2009-01-18T14:29:11Z" uid="20587" user="balrog-kun" changeset="804828">
    <nd ref="333112030"/>
    <nd ref="333112032"/>
    <nd ref="333112038"/>
    <nd ref="333112035"/>
    <nd ref="333112030"/>
    <tag k="building" v="yes"/>
  </way>
  <way id="30231459" version="1" timestamp="2009-01-18T14:29:11Z" uid="20587" user="balrog-kun" changeset="804828">
    <nd ref="333112040"/>
    <nd ref="333112042"/>
    <nd ref="333112049"/>
    <nd ref="333112045"/>
    <nd ref="333112040"/>
    <tag k="addr:housenumber" v="18"/>
    <tag k="addr:street" v="Dubieńska"/>
    <tag k="building" v="yes"/>
    <tag k="source:addr" v="msi"/>
  </way>
  <way id="30231461" version="1" timestamp="2009-01-18T14:29:12Z" uid="20587" user="balrog-kun" changeset="804828">
    <nd ref="333112052"/>
    <nd ref="333112059"/>
    <nd ref="333112063"/>
    <nd ref="333112056"/>
    <nd ref="333112052"/>
    <tag k="addr:housenumber" v="20"/>
    <tag k="addr:street" v="Dubieńska"/>
    <tag k="building" v="yes"/>
    <tag k="source:addr" v="msi"/>
  </way>
  <way id="30231463" version="1" timestamp="2009-01-18T14:29:12Z" uid="20587" user="balrog-kun" changeset="804828">
    <nd ref="333112075"/>
    <nd ref="333112072"/>
    <nd ref="333112065"/>
    <nd ref="333112069"/>
    <nd ref="333112075"/>
    <tag k="addr:housenumber" v="17"/>
    <tag k="addr:street" v="Dubieńska"/>
    <tag k="building" v="yes"/>
    <tag k="source:addr" v="msi"/>
  </way>
  <way id="30231465" version="1" timestamp="2009-01-18T14:29:12Z" uid="20587" user="balrog-kun" changeset="804828">
    <nd ref="333112079"/>
    <nd ref="333112084"/>
    <nd ref="333112081"/>
    <nd ref="333112077"/>
    <nd ref="333112079"/>
    <tag k="addr:housenumber" v="21"/>
    <tag k="addr:street" v="Dubieńska"/>
    <tag k="building" v="yes"/>
    <tag k="source:addr" v="msi"/>
  </way>
  <way id="30231467" version="1" timestamp="2009-01-18T14:29:12Z" uid="20587" user="balrog-kun" changeset="804828">
    <nd ref="333112079"/>
    <nd ref="333112077"/>
    <nd ref="333112088"/>
    <nd ref="333112086"/>
    <nd ref="333112072"/>
    <nd ref="333112075"/>
    <nd ref="333112079"/>
    <tag k="addr:housenumber" v="19"/>
    <tag k="addr:street" v="Dubieńska"/>
    <tag k="building" v="yes"/>
    <tag k="source:addr" v="msi"/>
  </way>
  <way id="30231469" version="1" timestamp="2009-01-18T14:29:13Z" uid="20587" user="balrog-kun" changeset="804828">
    <nd ref="333112090"/>
    <nd ref="333112093"/>
    <nd ref="333112097"/>
    <nd ref="333112095"/>
    <nd ref="333112090"/>
    <tag k="addr:housenumber" v="25"/>
    <tag k="addr:street" v="Dubieńska"/>
    <tag k="building" v="yes"/>
    <tag k="source:addr" v="msi"/>
  </way>
  <way id="30231471" version="1" timestamp="2009-01-18T14:29:13Z" uid="20587" user="balrog-kun" changeset="804828">
    <nd ref="333112099"/>
    <nd ref="333112106"/>
    <nd ref="333112109"/>
    <nd ref="333112103"/>
    <nd ref="333112099"/>
    <tag k="addr:housenumber" v="6/10"/>
    <tag k="addr:street" v="Pułtuska"/>
    <tag k="building" v="yes"/>
    <tag k="source:addr" v="msi"/>
  </way>
  <way id="30231471" version="2" timestamp="2009-02-09T19:58:44Z" uid="20587" user="balrog-kun" changeset="304409">
    <nd ref="333112099"/>
    <nd ref="333112106"/>
    <nd ref="333112109"/>
    <nd ref="333112103"/>
    <nd ref="333112099"/>
    <tag k="addr:housenumber" v="6/10"/>
    <tag k="addr:street" v="Pułtuska"/>
    <tag k="building" v="residential"/>
    <tag k="source:addr" v="msi"/>
  </way>
  <way id="30231472" version="1" timestamp="2009-01-18T14:29:13Z" uid="20587" user="balrog-kun" changeset="804828">
    <nd ref="333112112"/>
    <nd ref="333112115"/>
    <nd ref="333112119"/>
    <nd ref="333112117"/>
    <nd ref="333112112"/>
    <tag k="building" v="yes"/>
  </way>
  <way id="30231474" version="1" timestamp="2009-01-18T14:29:13Z" uid="20587" user="balrog-kun" changeset="804828">
    <nd ref="333112157"/>
    <nd ref="333112159"/>
    <nd ref="333112161"/>
    <nd ref="333112160"/>
    <nd ref="333112157"/>
    <tag k="building" v="yes"/>
  </way>
  <way id="30231476" version="1" timestamp="2009-01-18T14:29:14Z" uid="20587" user="balrog-kun" changeset="804828">
    <nd ref="333112124"/>
    <nd ref="333112121"/>
    <nd ref="333112126"/>
    <nd ref="333112131"/>
    <nd ref="333112134"/>
    <nd ref="333112128"/>
    <nd ref="333112124"/>
    <tag k="addr:housenumber" v="16"/>
    <tag k="addr:street" v="Pułtuska"/>
    <tag k="building" v="yes"/>
    <tag k="source:addr" v="msi"/>
  </way>
  <way id="30231478" version="1" timestamp="2009-01-18T14:29:14Z" uid="20587" user="balrog-kun" changeset="804828">
    <nd ref="333112128"/>
    <nd ref="333112136"/>
    <nd ref="333112138"/>
    <nd ref="333112124"/>
    <nd ref="333112128"/>
    <tag k="addr:housenumber" v="18"/>
    <tag k="addr:street" v="Pułtuska"/>
    <tag k="building" v="yes"/>
    <tag k="source:addr" v="msi"/>
  </way>
  <way id="30231480" version="1" timestamp="2009-01-18T14:29:14Z" uid="20587" user="balrog-kun" changeset="804828">
    <nd ref="333112138"/>
    <nd ref="333112136"/>
    <nd ref="333112140"/>
    <nd ref="333112145"/>
    <nd ref="333112143"/>
    <nd ref="333112138"/>
    <tag k="addr:housenumber" v="20"/>
    <tag k="addr:street" v="Pułtuska"/>
    <tag k="building" v="yes"/>
    <tag k="source:addr" v="msi"/>
  </way>
  <way id="30231482" version="1" timestamp="2009-01-18T14:29:15Z" uid="20587" user="balrog-kun" changeset="804828">
    <nd ref="333112145"/>
    <nd ref="333112140"/>
    <nd ref="333112147"/>
    <nd ref="333112149"/>
    <nd ref="333112146"/>
    <nd ref="333112145"/>
    <tag k="addr:housenumber" v="22"/>
    <tag k="addr:street" v="Pułtuska"/>
    <tag k="building" v="yes"/>
    <tag k="source:addr" v="msi"/>
  </way>
  <way id="30231484" version="1" timestamp="2009-01-18T14:29:15Z" uid="20587" user="balrog-kun" changeset="804828">
    <nd ref="333112146"/>
    <nd ref="333112149"/>
    <nd ref="333112150"/>
    <nd ref="333112155"/>
    <nd ref="333112156"/>
    <nd ref="333112152"/>
    <nd ref="333112154"/>
    <nd ref="333112151"/>
    <nd ref="333112146"/>
    <tag k="addr:housenumber" v="24"/>
    <tag k="addr:street" v="Pułtuska"/>
    <tag k="building" v="yes"/>
    <tag k="source:addr" v="msi"/>
  </way>
  <way id="30231485" version="1" timestamp="2009-01-18T14:29:16Z" uid="20587" user="balrog-kun" changeset="804828">
    <nd ref="333112168"/>
    <nd ref="333112166"/>
    <nd ref="333112205"/>
    <nd ref="333112164"/>
    <nd ref="333112208"/>
    <nd ref="333112163"/>
    <nd ref="333112168"/>
    <tag k="addr:housenumber" v="14"/>
    <tag k="addr:street" v="Nasielska"/>
    <tag k="building" v="yes"/>
  </way>
  <way id="30231487" version="1" timestamp="2009-01-18T14:29:16Z" uid="20587" user="balrog-kun" changeset="804828">
    <nd ref="333112171"/>
    <nd ref="333112173"/>
    <nd ref="333112168"/>
    <nd ref="333112163"/>
    <nd ref="333112171"/>
    <tag k="addr:housenumber" v="16"/>
    <tag k="addr:street" v="Nasielska"/>
    <tag k="building" v="yes"/>
  </way>
  <way id="30231489" version="1" timestamp="2009-01-18T14:29:17Z" uid="20587" user="balrog-kun" changeset="804828">
    <nd ref="333112208"/>
    <nd ref="333112164"/>
    <nd ref="333112205"/>
    <nd ref="333112180"/>
    <nd ref="333112175"/>
    <nd ref="333112177"/>
    <nd ref="333112182"/>
    <nd ref="333112191"/>
    <nd ref="333112188"/>
    <nd ref="333112199"/>
    <nd ref="333112193"/>
    <nd ref="333112185"/>
    <nd ref="333112208"/>
    <tag k="building" v="yes"/>
  </way>
  <way id="30231491" version="1" timestamp="2009-01-18T14:29:17Z" uid="20587" user="balrog-kun" changeset="804828">
    <nd ref="333112213"/>
    <nd ref="333112216"/>
    <nd ref="333112221"/>
    <nd ref="333112224"/>
    <nd ref="333112226"/>
    <nd ref="333112218"/>
    <nd ref="333112213"/>
    <tag k="addr:housenumber" v="7"/>
    <tag k="addr:street" v="Pułtuska"/>
    <tag k="building" v="yes"/>
    <tag k="source:addr" v="msi"/>
  </way>
  <way id="30231493" version="1" timestamp="2009-01-18T14:29:17Z" uid="20587" user="balrog-kun" changeset="804828">
    <nd ref="333112262"/>
    <nd ref="333112265"/>
    <nd ref="333112271"/>
    <nd ref="333112278"/>
    <nd ref="333112285"/>
    <nd ref="333112281"/>
    <nd ref="333112291"/>
    <nd ref="333112288"/>
    <nd ref="333112275"/>
    <nd ref="333112268"/>
    <nd ref="333112262"/>
    <tag k="addr:street" v="Pułtuska"/>
    <tag k="building" v="yes"/>
  </way>
  <way id="30231495" version="1" timestamp="2009-01-18T14:29:18Z" uid="20587" user="balrog-kun" changeset="804828">
    <nd ref="333112294"/>
    <nd ref="333112297"/>
    <nd ref="333112303"/>
    <nd ref="333112300"/>
    <nd ref="333112294"/>
    <tag k="building" v="yes"/>
  </way>
  <way id="30231497" version="1" timestamp="2009-01-18T14:29:18Z" uid="20587" user="balrog-kun" changeset="804828">
    <nd ref="333112224"/>
    <nd ref="333112233"/>
    <nd ref="333112236"/>
    <nd ref="333112248"/>
    <nd ref="333112259"/>
    <nd ref="333112255"/>
    <nd ref="333112251"/>
    <nd ref="333112245"/>
    <nd ref="333112242"/>
    <nd ref="333112238"/>
    <nd ref="333112230"/>
    <nd ref="333112226"/>
    <nd ref="333112224"/>
    <tag k="addr:street" v="Pułtuska"/>
    <tag k="building" v="yes"/>
    <tag k="note" v="TODO: housenumber"/>
  </way>
  <way id="30231266" version="3" timestamp="2012-04-30T23:20:10Z" uid="2675" user="Eckhart Wörner" changeset="11465231">
    <nd ref="65006120"/>
    <nd ref="333112058"/>
    <tag k="highway" v="primary_link"/>
    <tag k="oneway" v="yes"/>
  </way>
  <way id="30231432" version="2" timestamp="2012-07-07T19:26:59Z" uid="475943" user="sir-mapalot" changeset="12143312"/>
  <way id="30231435" version="2" timestamp="2012-07-07T19:26:59Z" uid="475943" user="sir-mapalot" changeset="12143312"/>
</osm>
