<?xml version='1.0' encoding='UTF-8'?>
<osm version="0.6" generator="libosmium/2.20.0">
  <way id="30352006" version="4" timestamp="2009-02-10T09:37:23Z" uid="9581" user="Lobelt" changeset="317304">
    <nd ref="344068913"/>
    <nd ref="334761859"/>
    <nd ref="334761861"/>
    <tag k="created_by" v="Potlatch 0.10f"/>
    <tag k="highway" v="residential"/>
  </way>
  <way id="30352006" version="5" timestamp="2009-02-21T16:40:55Z" uid="101305" user="celtic099" changeset="603406">
    <nd ref="344068913"/>
    <nd ref="334761859"/>
    <nd ref="334761861"/>
    <tag k="created_by" v="Potlatch 0.10f"/>
    <tag k="highway" v="residential"/>
    <tag k="name" v="WaldstraÃŸe"/>
  </way>
  <way id="30352006" version="6" timestamp="2009-03-30T14:55:39Z" uid="46862" user="Mayer" changeset="870466">
    <nd ref="344068913"/>
    <nd ref="334761859"/>
    <nd ref="334761861"/>
    <tag k="created_by" v="Potlatch 0.10f"/>
    <tag k="highway" v="residential"/>
    <tag k="name" v="Waldstraße"/>
  </way>
  <way id="30352006" version="7" timestamp="2010-09-11T20:53:43Z" uid="110639" user="aighes" changeset="5753577">
    <nd ref="344068913"/>
    <nd ref="334761859"/>
    <nd ref="334761861"/>
    <tag k="highway" v="residential"/>
    <tag k="name" v="Waldstraße"/>
  </way>
  <way id="30352006" version="8" timestamp="2011-04-01T06:10:21Z" uid="46862" user="Mayer" changeset="7732268">
    <nd ref="344068913"/>
    <nd ref="334761859"/>
    <nd ref="334761861"/>
    <tag k="highway" v="residential"/>
    <tag k="name" v="Waldallee"/>
    <tag k="old name" v="Waldstraße"/>
  </way>
  <way id="30352006" version="9" timestamp="2011-05-06T09:39:40Z" uid="31231" user="Andre68" changeset="8063709">
    <nd ref="344068913"/>
    <nd ref="334761859"/>
    <nd ref="334761861"/>
    <tag k="highway" v="residential"/>
    <tag k="name" v="Waldallee"/>
    <tag k="old_name" v="Waldstraße"/>
  </way>
  <way id="30352006" version="10" timestamp="2012-02-09T19:17:04Z" uid="195713" user="_torsten_" changeset="10637095"/>
  <way id="30352185" version="6" timestamp="2009-06-27T15:51:47Z" uid="33382" user="de_muur" changeset="1651101">
    <nd ref="293669594"/>
    <nd ref="293669595"/>
    <tag k="bridge" v="yes"/>
    <tag k="created_by" v="Potlatch 0.10f"/>
    <tag k="layer" v="1"/>
    <tag k="name" v="Buxtrup"/>
    <tag k="surface" v="paved"/>
  </way>
  <way id="30352185" version="7" timestamp="2009-08-24T20:32:36Z" uid="87807" user="hami-123" changeset="2249940"/>
</osm>
