<?xml version='1.0' encoding='UTF-8'?>
<osm version="0.6" generator="libosmium/2.20.0">
  <way id="30381025" version="3" timestamp="2009-12-08T08:42:23Z" uid="200463" user="harmagedon" changeset="3322149">
    <nd ref="289343866"/>
    <nd ref="289343865"/>
    <nd ref="326117366"/>
    <tag k="addr:postcode" v="5280"/>
    <tag k="highway" v="residential"/>
    <tag k="is_in" v="...,Bezirk Braunau,Oberösterreich,Österreich,Europa"/>
    <tag k="name" v="Friedrich Seitz Straße"/>
    <tag k="source" v="GPS"/>
  </way>
  <way id="30381025" version="4" timestamp="2010-06-15T18:00:02Z" uid="70696" user="xybot" changeset="4993390">
    <nd ref="289343866"/>
    <nd ref="289343865"/>
    <nd ref="326117366"/>
    <tag k="addr:postcode" v="5280"/>
    <tag k="highway" v="residential"/>
    <tag k="is_in" v="...,Bezirk Braunau,Oberösterreich,Österreich,Europa"/>
    <tag k="name" v="Friedrich-Seitz-Straße"/>
    <tag k="source" v="GPS"/>
  </way>
  <way id="30381025" version="5" timestamp="2011-04-19T18:24:32Z" uid="45347" user="eriosw" changeset="7909142">
    <nd ref="289343866"/>
    <nd ref="289343865"/>
    <nd ref="326117366"/>
    <tag k="addr:postcode" v="5280"/>
    <tag k="highway" v="residential"/>
    <tag k="is_in" v="Braunau am Inn,Braunau am Inn,Oberösterreich,Österreich,Europe"/>
    <tag k="name" v="Friedrich-Seitz-Straße"/>
    <tag k="source" v="GPS"/>
  </way>
  <way id="30381025" version="6" timestamp="2011-07-28T06:08:22Z" uid="491845" user="data_at" changeset="8851221">
    <nd ref="289343866"/>
    <nd ref="289343865"/>
    <nd ref="326117366"/>
    <tag k="highway" v="residential"/>
    <tag k="is_in" v="Braunau am Inn,Braunau am Inn,Oberösterreich,Österreich,Europe"/>
    <tag k="name" v="Friedrich-Seitz-Straße"/>
    <tag k="source" v="GPS"/>
  </way>
  <way id="30381051" version="4" timestamp="2009-10-11T02:41:28Z" uid="20587" user="balrog-kun" changeset="2809762"/>
  <way id="30381076" version="2" timestamp="2009-10-11T02:41:45Z" uid="20587" user="balrog-kun" changeset="2809762"/>
  <way id="30381121" version="4" timestamp="2009-10-11T02:41:32Z" uid="20587" user="balrog-kun" changeset="2809762"/>
  <way id="30381214" version="4" timestamp="2009-04-28T18:44:28Z" uid="30632" user="antblant" changeset="1007844">
    <nd ref="365731408"/>
    <nd ref="365852509"/>
    <tag k="created_by" v="Potlatch 0.10f"/>
    <tag k="highway" v="tertiary"/>
    <tag k="name" v="Fryderyka Chopina"/>
  </way>
  <way id="30381214" version="5" timestamp="2009-10-11T02:41:59Z" uid="20587" user="balrog-kun" changeset="2809762"/>
  <way id="30381228" version="5" timestamp="2009-10-11T02:41:45Z" uid="20587" user="balrog-kun" changeset="2809762"/>
  <way id="30381282" version="4" timestamp="2009-10-11T02:41:37Z" uid="20587" user="balrog-kun" changeset="2809762"/>
  <way id="30381324" version="7" timestamp="2009-10-11T02:41:52Z" uid="20587" user="balrog-kun" changeset="2809762"/>
  <way id="30381353" version="2" timestamp="2009-10-11T02:40:24Z" uid="20587" user="balrog-kun" changeset="2809762">
    <nd ref="335286663"/>
    <nd ref="335286665"/>
    <nd ref="335286666"/>
    <nd ref="335286667"/>
    <nd ref="335286668"/>
    <tag k="highway" v="service"/>
  </way>
  <way id="30381569" version="5" timestamp="2009-04-28T18:44:00Z" uid="30632" user="antblant" changeset="1007844">
    <nd ref="335292049"/>
    <nd ref="335292051"/>
    <nd ref="335292720"/>
    <nd ref="335292722"/>
    <nd ref="335292724"/>
    <tag k="created_by" v="Potlatch 0.10f"/>
    <tag k="highway" v="tertiary"/>
    <tag k="name" v="Marszałka Józefa Piłsudskiego"/>
  </way>
  <way id="30381569" version="6" timestamp="2009-10-11T02:41:38Z" uid="20587" user="balrog-kun" changeset="2809762"/>
  <way id="30381625" version="3" timestamp="2009-10-11T02:41:59Z" uid="20587" user="balrog-kun" changeset="2809762"/>
  <way id="30381025" version="7" timestamp="2012-05-23T19:42:19Z" uid="351554" user="hurricane" changeset="11683824">
    <nd ref="289343866"/>
    <nd ref="289343865"/>
    <nd ref="326117366"/>
    <tag k="highway" v="residential"/>
    <tag k="is_in" v="Braunau am Inn,Braunau am Inn,Oberösterreich,Österreich,Europe"/>
    <tag k="name" v="Friedrich-Seitz-Straße"/>
    <tag k="source" v="geoimage.at"/>
  </way>
</osm>
