<?xml version='1.0' encoding='UTF-8'?>
<osm version="0.6" generator="libosmium/2.20.0">
  <way id="30398519" version="8" timestamp="2010-03-16T22:00:53Z" uid="163746" user="anti_bot-nonsense" changeset="4147354">
    <nd ref="150605169"/>
    <nd ref="150605170"/>
    <nd ref="150605171"/>
    <nd ref="353479273"/>
    <nd ref="150607323"/>
    <tag k="highway" v="primary"/>
    <tag k="int_ref" v="E 261"/>
    <tag k="lanes" v="4"/>
    <tag k="name" v="Jana Pawła II"/>
    <tag k="oneway" v="yes"/>
    <tag k="ref" v="5"/>
  </way>
  <way id="30398519" version="9" timestamp="2011-07-31T13:07:40Z" uid="498374" user="sleg" changeset="8880673">
    <nd ref="452967657"/>
    <nd ref="150605168"/>
    <nd ref="150605169"/>
    <nd ref="150605170"/>
    <nd ref="150605171"/>
    <nd ref="353479273"/>
    <nd ref="150607323"/>
    <tag k="highway" v="primary"/>
    <tag k="int_ref" v="E 261"/>
    <tag k="lanes" v="4; 2"/>
    <tag k="name" v="Jana Pawła II"/>
    <tag k="oneway" v="yes"/>
    <tag k="ref" v="5"/>
  </way>
  <way id="30398519" version="10" timestamp="2011-09-18T12:09:19Z" uid="91056" user="Yarl" changeset="9332192">
    <nd ref="315098278"/>
    <nd ref="639130385"/>
    <nd ref="150605160"/>
    <nd ref="150605161"/>
    <nd ref="150605162"/>
    <nd ref="150605164"/>
    <nd ref="150605165"/>
    <nd ref="150605167"/>
    <nd ref="452967669"/>
    <nd ref="452967657"/>
    <nd ref="150605168"/>
    <nd ref="150605169"/>
    <tag k="highway" v="primary"/>
    <tag k="int_ref" v="E 261"/>
    <tag k="lanes" v="2"/>
    <tag k="name" v="Jana Pawła II"/>
    <tag k="oneway" v="yes"/>
    <tag k="ref" v="5"/>
    <tag k="wikipedia" v="pl:Ulica Jana Pawła II w Poznaniu"/>
  </way>
  <way id="30398519" version="11" timestamp="2012-06-03T21:39:57Z" uid="318486" user="tomaszko90" changeset="11791248">
    <nd ref="315098278"/>
    <nd ref="639130385"/>
    <nd ref="150605160"/>
    <nd ref="150605161"/>
    <nd ref="150605162"/>
    <nd ref="150605164"/>
    <nd ref="150605165"/>
    <nd ref="150605167"/>
    <nd ref="452967669"/>
    <nd ref="452967657"/>
    <nd ref="150605168"/>
    <nd ref="150605169"/>
    <tag k="highway" v="primary"/>
    <tag k="int_ref" v="E 261"/>
    <tag k="lanes" v="2"/>
    <tag k="name" v="Jana Pawła II"/>
    <tag k="oneway" v="yes"/>
    <tag k="wikipedia" v="pl:Ulica Jana Pawła II w Poznaniu"/>
  </way>
  <way id="30398519" version="12" timestamp="2012-06-03T21:40:16Z" uid="318486" user="tomaszko90" changeset="11791248">
    <nd ref="315098278"/>
    <nd ref="639130385"/>
    <nd ref="150605160"/>
    <nd ref="150605161"/>
    <nd ref="150605162"/>
    <nd ref="150605164"/>
    <nd ref="150605165"/>
    <nd ref="150605167"/>
    <nd ref="452967669"/>
    <nd ref="452967657"/>
    <nd ref="150605168"/>
    <nd ref="150605169"/>
    <tag k="highway" v="primary"/>
    <tag k="lanes" v="2"/>
    <tag k="name" v="Jana Pawła II"/>
    <tag k="oneway" v="yes"/>
    <tag k="wikipedia" v="pl:Ulica Jana Pawła II w Poznaniu"/>
  </way>
  <way id="30398519" version="13" timestamp="2012-06-04T20:34:10Z" uid="88909" user="miko101" changeset="11800631">
    <nd ref="315098278"/>
    <nd ref="639130385"/>
    <nd ref="150605160"/>
    <nd ref="150605161"/>
    <nd ref="150605162"/>
    <nd ref="150605164"/>
    <nd ref="150605165"/>
    <nd ref="150605167"/>
    <nd ref="452967669"/>
    <nd ref="452967657"/>
    <nd ref="150605168"/>
    <nd ref="150605169"/>
    <tag k="highway" v="secondary"/>
    <tag k="lanes" v="2"/>
    <tag k="name" v="Jana Pawła II"/>
    <tag k="oneway" v="yes"/>
    <tag k="wikipedia" v="pl:Ulica Jana Pawła II w Poznaniu"/>
  </way>
</osm>
