<?xml version='1.0' encoding='UTF-8'?>
<osm version="0.6" generator="libosmium/2.20.0">
  <way id="30391282" version="3" timestamp="2009-08-16T10:00:49Z" uid="4667" user="MapZ" changeset="2163128">
    <nd ref="469120611"/>
    <nd ref="469120608"/>
    <nd ref="290342854"/>
    <tag k="highway" v="footway"/>
    <tag k="name" v="Località San Giuseppe A.l."/>
  </way>
  <way id="30391282" version="4" timestamp="2010-05-17T16:26:06Z" uid="43967" user="railsnail" changeset="4730095">
    <nd ref="469120611"/>
    <nd ref="469120608"/>
    <nd ref="737624982"/>
    <tag k="highway" v="footway"/>
    <tag k="name" v="Località San Giuseppe A.l."/>
  </way>
  <way id="30391282" version="5" timestamp="2010-05-17T16:26:35Z" uid="43967" user="railsnail" changeset="4730095">
    <nd ref="469120611"/>
    <nd ref="469120608"/>
    <nd ref="737625983"/>
    <nd ref="737624982"/>
    <tag k="highway" v="footway"/>
    <tag k="name" v="Località San Giuseppe A.l."/>
  </way>
  <way id="30391461" version="7" timestamp="2010-03-07T10:45:07Z" uid="58091" user="Andreas M" changeset="4059427">
    <nd ref="332913105"/>
    <nd ref="332917094"/>
    <nd ref="332907552"/>
    <nd ref="332917095"/>
    <nd ref="332917096"/>
    <nd ref="332917097"/>
    <nd ref="332910603"/>
    <tag k="fixme" v="check import"/>
    <tag k="highway" v="residential"/>
    <tag k="is_in:country_code" v="AT"/>
    <tag k="name" v="Bindergasse"/>
    <tag k="postal_code" v="2222"/>
    <tag k="source" v="plan.at 2009"/>
  </way>
  <way id="30391461" version="8" timestamp="2012-02-21T14:18:00Z" uid="53306" user="Wolfgang B" changeset="10750547">
    <nd ref="332913105"/>
    <nd ref="1641829596"/>
    <nd ref="1641829579"/>
    <nd ref="332917094"/>
    <nd ref="332907552"/>
    <nd ref="332917095"/>
    <nd ref="332917096"/>
    <nd ref="332917097"/>
    <nd ref="332910603"/>
    <tag k="fixme" v="check import"/>
    <tag k="highway" v="residential"/>
    <tag k="is_in:country_code" v="AT"/>
    <tag k="name" v="Bindergasse"/>
    <tag k="postal_code" v="2222"/>
    <tag k="source" v="plan.at 2009"/>
  </way>
  <way id="30391491" version="4" timestamp="2010-03-16T21:59:48Z" uid="163746" user="anti_bot-nonsense" changeset="4147354">
    <nd ref="162728825"/>
    <nd ref="335456597"/>
    <nd ref="335456598"/>
    <tag k="highway" v="tertiary"/>
    <tag k="name" v="Feliksa Nowowiejskiego"/>
    <tag k="oneway" v="yes"/>
  </way>
  <way id="30391491" version="5" timestamp="2011-09-09T09:35:29Z" uid="91056" user="Yarl" changeset="9252679"/>
  <way id="30391868" version="8" timestamp="2010-03-16T21:58:46Z" uid="163746" user="anti_bot-nonsense" changeset="4147354">
    <nd ref="335460416"/>
    <nd ref="335460611"/>
    <nd ref="335460613"/>
    <tag k="bridge" v="yes"/>
    <tag k="highway" v="residential"/>
    <tag k="layer" v="1"/>
    <tag k="name" v="Dworcowa"/>
    <tag k="oneway" v="yes"/>
  </way>
  <way id="30391868" version="9" timestamp="2011-08-24T12:58:01Z" uid="19417" user="xjr" changeset="9112365">
    <nd ref="335460416"/>
    <nd ref="1411216070"/>
    <nd ref="335460611"/>
    <nd ref="335460613"/>
    <tag k="bridge" v="yes"/>
    <tag k="highway" v="residential"/>
    <tag k="layer" v="1"/>
    <tag k="name" v="Dworcowa"/>
    <tag k="oneway" v="yes"/>
  </way>
  <way id="30391282" version="6" timestamp="2012-05-12T12:15:00Z" uid="115612" user="tyr_asd" changeset="11575745">
    <nd ref="469120611"/>
    <nd ref="1749587292"/>
    <nd ref="1749587294"/>
    <nd ref="469120608"/>
    <nd ref="1749587295"/>
    <nd ref="737625983"/>
    <nd ref="1749587293"/>
    <nd ref="737624982"/>
    <tag k="highway" v="footway"/>
    <tag k="name" v="Località San Giuseppe A.l."/>
  </way>
  <way id="30391282" version="7" timestamp="2012-07-16T16:02:38Z" uid="722137" user="OSMF Redaction Account" changeset="12247284">
    <nd ref="1749587292"/>
    <nd ref="1749587294"/>
    <nd ref="1749587295"/>
    <nd ref="1749587293"/>
    <tag k="highway" v="residential"/>
    <tag k="name" v="Località San Giuseppe A.l."/>
  </way>
  <way id="30391282" version="8" timestamp="2012-07-17T12:48:08Z" uid="115612" user="tyr_asd" changeset="12265550">
    <nd ref="1749587292"/>
    <nd ref="1749587294"/>
    <nd ref="737625983"/>
    <nd ref="1749587293"/>
    <nd ref="1828529488"/>
    <nd ref="737624982"/>
    <tag k="highway" v="residential"/>
    <tag k="name" v="Località San Giuseppe A.l."/>
  </way>
  <way id="30391461" version="9" timestamp="2012-05-05T17:22:56Z" uid="45756" user="magellan" changeset="11510280">
    <nd ref="332913105"/>
    <nd ref="1641829596"/>
    <nd ref="332917094"/>
    <nd ref="332907552"/>
    <nd ref="332917096"/>
    <nd ref="1741735912"/>
    <nd ref="332910603"/>
    <tag k="addr:country" v="AT"/>
    <tag k="addr:postcode" v="2222"/>
    <tag k="highway" v="residential"/>
    <tag k="name" v="Bindergasse"/>
    <tag k="source" v="plan.at 2009"/>
  </way>
  <way id="30391461" version="10" timestamp="2012-07-16T21:47:04Z" uid="722137" user="OSMF Redaction Account" changeset="12252319">
    <nd ref="332913105"/>
    <nd ref="1641829596"/>
    <nd ref="332917094"/>
    <nd ref="332907552"/>
    <nd ref="332917096"/>
    <nd ref="1741735912"/>
    <nd ref="332910603"/>
    <tag k="addr:country" v="AT"/>
    <tag k="addr:postcode" v="2222"/>
    <tag k="addr:street" v="Bindergasse"/>
    <tag k="highway" v="residential"/>
    <tag k="source" v="plan.at 2009"/>
  </way>
  <way id="30391868" version="10" timestamp="2012-04-27T13:51:06Z" uid="88909" user="miko101" changeset="11432862">
    <nd ref="335460416"/>
    <nd ref="1411216070"/>
    <nd ref="335460611"/>
    <nd ref="335460613"/>
    <tag k="bridge" v="yes"/>
    <tag k="highway" v="residential"/>
    <tag k="layer" v="1"/>
    <tag k="lit" v="yes"/>
    <tag k="name" v="Dworcowa"/>
    <tag k="oneway" v="yes"/>
  </way>
</osm>
