<?xml version='1.0' encoding='UTF-8'?>
<osm version="0.6" generator="libosmium/2.20.0">
  <way id="30419809" version="3" timestamp="2009-02-08T15:55:00Z" uid="49111" user="Markus B" changeset="271257">
    <nd ref="335708656"/>
    <nd ref="335708657"/>
    <nd ref="335708659"/>
    <nd ref="335708660"/>
    <nd ref="335708656"/>
    <tag k="created_by" v="Potlatch 0.10f"/>
    <tag k="landuse" v="forest"/>
  </way>
  <way id="30419810" version="3" timestamp="2009-05-09T13:34:28Z" uid="20587" user="balrog-kun" changeset="1127620">
    <nd ref="335708664"/>
    <nd ref="392682658"/>
    <nd ref="147058712"/>
    <tag k="created_by" v="Potlatch 0.10f"/>
    <tag k="highway" v="secondary"/>
    <tag k="name" v="Towarowa"/>
    <tag k="oneway" v="yes"/>
  </way>
  <way id="30419810" version="4" timestamp="2009-07-16T11:06:07Z" uid="19417" user="xjr" changeset="1843997">
    <nd ref="335708664"/>
    <nd ref="392682658"/>
    <nd ref="147058712"/>
    <nd ref="428468777"/>
    <nd ref="442550577"/>
    <tag k="created_by" v="Potlatch 0.10f"/>
    <tag k="highway" v="secondary"/>
    <tag k="name" v="Towarowa"/>
    <tag k="oneway" v="yes"/>
  </way>
  <way id="30419810" version="5" timestamp="2009-11-20T16:21:45Z" uid="88909" user="miko101" changeset="3169610">
    <nd ref="335708664"/>
    <nd ref="567449717"/>
    <nd ref="392682658"/>
    <nd ref="147058712"/>
    <nd ref="428468777"/>
    <nd ref="442550577"/>
    <tag k="highway" v="secondary"/>
    <tag k="name" v="Towarowa"/>
    <tag k="oneway" v="yes"/>
  </way>
  <way id="30419810" version="6" timestamp="2010-02-13T21:21:03Z" uid="20587" user="balrog-kun" changeset="3868613">
    <nd ref="335708664"/>
    <nd ref="567449717"/>
    <nd ref="392682658"/>
    <nd ref="147058712"/>
    <nd ref="428468777"/>
    <nd ref="638736647"/>
    <nd ref="638736649"/>
    <nd ref="442550577"/>
    <tag k="highway" v="secondary"/>
    <tag k="name" v="Towarowa"/>
    <tag k="oneway" v="yes"/>
  </way>
  <way id="30419810" version="7" timestamp="2010-06-27T18:23:52Z" uid="19417" user="xjr" changeset="5091745">
    <nd ref="335708664"/>
    <nd ref="567449717"/>
    <nd ref="392682658"/>
    <nd ref="147058712"/>
    <nd ref="428468777"/>
    <nd ref="638736647"/>
    <nd ref="638736649"/>
    <nd ref="442550577"/>
    <tag k="highway" v="secondary"/>
    <tag k="name" v="Stanisława Matyi"/>
    <tag k="old_name" v="Towarowa"/>
    <tag k="oneway" v="yes"/>
  </way>
  <way id="30419810" version="8" timestamp="2011-01-05T20:58:10Z" uid="101884" user="Antwelm" changeset="6876197">
    <nd ref="335708573"/>
    <nd ref="567449717"/>
    <nd ref="392682658"/>
    <nd ref="147058712"/>
    <nd ref="428468777"/>
    <nd ref="638736647"/>
    <nd ref="638736649"/>
    <nd ref="442550577"/>
    <tag k="highway" v="secondary"/>
    <tag k="name" v="Stanisława Matyi"/>
    <tag k="old_name" v="Towarowa"/>
    <tag k="oneway" v="yes"/>
  </way>
  <way id="30419810" version="9" timestamp="2011-02-17T18:48:56Z" uid="88909" user="miko101" changeset="7316019">
    <nd ref="335708573"/>
    <nd ref="1157786756"/>
    <nd ref="567449717"/>
    <nd ref="392682658"/>
    <nd ref="147058712"/>
    <nd ref="428468777"/>
    <nd ref="638736647"/>
    <nd ref="638736649"/>
    <nd ref="442550577"/>
    <tag k="highway" v="secondary"/>
    <tag k="name" v="Stanisława Matyi"/>
    <tag k="old_name" v="Towarowa"/>
    <tag k="oneway" v="yes"/>
  </way>
  <way id="30419810" version="10" timestamp="2011-09-10T10:48:02Z" uid="91056" user="Yarl" changeset="9261094">
    <nd ref="335708573"/>
    <nd ref="1157786756"/>
    <nd ref="567449717"/>
    <nd ref="392682658"/>
    <nd ref="147058712"/>
    <nd ref="428468777"/>
    <nd ref="638736647"/>
    <nd ref="638736649"/>
    <nd ref="442550577"/>
    <tag k="highway" v="tertiary"/>
    <tag k="name" v="Stanisława Matyi"/>
    <tag k="old_name" v="Towarowa"/>
    <tag k="oneway" v="yes"/>
  </way>
  <way id="30419810" version="11" timestamp="2011-09-18T12:34:32Z" uid="88909" user="miko101" changeset="9332390">
    <nd ref="335708573"/>
    <nd ref="1157786756"/>
    <nd ref="567449717"/>
    <nd ref="392682658"/>
    <nd ref="147058712"/>
    <nd ref="428468777"/>
    <nd ref="1436425090"/>
    <nd ref="638736647"/>
    <nd ref="638736649"/>
    <nd ref="442550577"/>
    <tag k="highway" v="tertiary"/>
    <tag k="name" v="Stanisława Matyi"/>
    <tag k="old_name" v="Towarowa"/>
    <tag k="oneway" v="yes"/>
  </way>
  <way id="30419862" version="16" timestamp="2010-04-29T10:52:42Z" uid="115477" user="wowik" changeset="4556825">
    <nd ref="311966585"/>
    <nd ref="266875728"/>
    <nd ref="266875726"/>
    <nd ref="266875725"/>
    <nd ref="266875724"/>
    <nd ref="335709798"/>
    <nd ref="198311881"/>
    <nd ref="387807658"/>
    <nd ref="198311882"/>
    <nd ref="711747411"/>
    <nd ref="338900848"/>
    <nd ref="387807395"/>
    <nd ref="198295539"/>
    <tag k="addr:postcode" v="125047"/>
    <tag k="cladr:code" v="77000000000711300"/>
    <tag k="cladr:name" v="Тверская Застава"/>
    <tag k="cladr:suffix" v="Площадь"/>
    <tag k="highway" v="tertiary"/>
    <tag k="name" v="площадь Тверская Застава"/>
    <tag k="omkum:code" v="01665"/>
    <tag k="omkum:old_name" v="площадь Белорусского Вокзала (1948 г.) площадь Тверская Застава (до 1917 г.)"/>
    <tag k="oneway" v="yes"/>
    <tag k="sorting_name" v="Тверская Застава  площадь"/>
  </way>
  <way id="30419862" version="17" timestamp="2010-05-13T08:59:50Z" uid="115477" user="wowik" changeset="4683588">
    <nd ref="311966585"/>
    <nd ref="266875728"/>
    <nd ref="266875726"/>
    <nd ref="266875725"/>
    <nd ref="266875724"/>
    <nd ref="335709798"/>
    <nd ref="198311881"/>
    <nd ref="387807658"/>
    <nd ref="198311882"/>
    <nd ref="711747411"/>
    <nd ref="338900848"/>
    <nd ref="387807395"/>
    <nd ref="731909324"/>
    <nd ref="198295539"/>
    <tag k="addr:postcode" v="125047"/>
    <tag k="cladr:code" v="77000000000711300"/>
    <tag k="cladr:name" v="Тверская Застава"/>
    <tag k="cladr:suffix" v="Площадь"/>
    <tag k="highway" v="tertiary"/>
    <tag k="name" v="площадь Тверская Застава"/>
    <tag k="omkum:code" v="01665"/>
    <tag k="omkum:old_name" v="площадь Белорусского Вокзала (1948 г.) площадь Тверская Застава (до 1917 г.)"/>
    <tag k="oneway" v="yes"/>
    <tag k="sorting_name" v="Тверская Застава  площадь"/>
  </way>
  <way id="30419862" version="18" timestamp="2010-09-17T17:55:12Z" uid="115477" user="wowik" changeset="5805758">
    <nd ref="311966585"/>
    <nd ref="266875728"/>
    <nd ref="266875726"/>
    <nd ref="266875725"/>
    <nd ref="266875724"/>
    <nd ref="915715045"/>
    <nd ref="335709798"/>
    <nd ref="198311882"/>
    <nd ref="711747411"/>
    <nd ref="338900848"/>
    <nd ref="387807395"/>
    <nd ref="731909324"/>
    <nd ref="198295539"/>
    <tag k="addr:postcode" v="125047"/>
    <tag k="cladr:code" v="77000000000711300"/>
    <tag k="cladr:name" v="Тверская Застава"/>
    <tag k="cladr:suffix" v="Площадь"/>
    <tag k="highway" v="tertiary"/>
    <tag k="name" v="площадь Тверская Застава"/>
    <tag k="omkum:code" v="01665"/>
    <tag k="omkum:old_name" v="площадь Белорусского Вокзала (1948 г.) площадь Тверская Застава (до 1917 г.)"/>
    <tag k="oneway" v="yes"/>
    <tag k="sorting_name" v="Тверская Застава  площадь"/>
  </way>
  <way id="30419862" version="19" timestamp="2010-10-29T11:52:38Z" uid="115477" user="wowik" changeset="6217738">
    <nd ref="311966585"/>
    <nd ref="266875728"/>
    <nd ref="266875726"/>
    <nd ref="266875725"/>
    <nd ref="266875724"/>
    <nd ref="915715045"/>
    <nd ref="968613447"/>
    <nd ref="335709798"/>
    <nd ref="198311882"/>
    <nd ref="711747411"/>
    <nd ref="338900848"/>
    <nd ref="387807395"/>
    <nd ref="731909324"/>
    <nd ref="198295539"/>
    <tag k="addr:postcode" v="125047"/>
    <tag k="cladr:code" v="77000000000711300"/>
    <tag k="cladr:name" v="Тверская Застава"/>
    <tag k="cladr:suffix" v="Площадь"/>
    <tag k="highway" v="tertiary"/>
    <tag k="name" v="площадь Тверская Застава"/>
    <tag k="omkum:code" v="01665"/>
    <tag k="omkum:old_name" v="площадь Белорусского Вокзала (1948 г.) площадь Тверская Застава (до 1917 г.)"/>
    <tag k="oneway" v="yes"/>
    <tag k="sorting_name" v="Тверская Застава  площадь"/>
  </way>
  <way id="30419862" version="20" timestamp="2010-11-02T10:48:08Z" uid="260756" user="Felis Pimeja" changeset="6266651">
    <nd ref="311966585"/>
    <nd ref="974446044"/>
    <nd ref="974448694"/>
    <nd ref="974447869"/>
    <nd ref="974444446"/>
    <nd ref="974447666"/>
    <nd ref="974447040"/>
    <nd ref="974447364"/>
    <nd ref="974449577"/>
    <nd ref="974440995"/>
    <nd ref="974444996"/>
    <nd ref="974444416"/>
    <nd ref="974447510"/>
    <nd ref="974446345"/>
    <nd ref="974449755"/>
    <nd ref="266875728"/>
    <nd ref="974440890"/>
    <nd ref="266875726"/>
    <nd ref="974447501"/>
    <nd ref="974440531"/>
    <nd ref="974440213"/>
    <nd ref="266875725"/>
    <nd ref="974440475"/>
    <nd ref="974444918"/>
    <nd ref="974448663"/>
    <nd ref="974446559"/>
    <nd ref="974444441"/>
    <nd ref="974447506"/>
    <nd ref="974447460"/>
    <nd ref="266875724"/>
    <nd ref="974446006"/>
    <tag k="addr:postcode" v="125047"/>
    <tag k="cladr:code" v="77000000000711300"/>
    <tag k="cladr:name" v="Тверская Застава"/>
    <tag k="cladr:suffix" v="Площадь"/>
    <tag k="highway" v="tertiary"/>
    <tag k="name" v="площадь Тверская Застава"/>
    <tag k="omkum:code" v="01665"/>
    <tag k="omkum:old_name" v="площадь Белорусского Вокзала (1948 г.) площадь Тверская Застава (до 1917 г.)"/>
    <tag k="oneway" v="yes"/>
    <tag k="sorting_name" v="Тверская Застава  площадь"/>
  </way>
  <way id="30419862" version="21" timestamp="2010-11-10T20:47:29Z" uid="260756" user="Felis Pimeja" changeset="6339439">
    <nd ref="311966585"/>
    <nd ref="974446044"/>
    <nd ref="974448694"/>
    <nd ref="974447869"/>
    <nd ref="974444446"/>
    <nd ref="974447666"/>
    <nd ref="974447040"/>
    <nd ref="974447364"/>
    <nd ref="974449577"/>
    <nd ref="974440995"/>
    <nd ref="974444996"/>
    <nd ref="974444416"/>
    <nd ref="974447510"/>
    <nd ref="974446345"/>
    <nd ref="974449755"/>
    <nd ref="266875728"/>
    <nd ref="974440890"/>
    <nd ref="266875726"/>
    <nd ref="974447501"/>
    <nd ref="974440531"/>
    <nd ref="974440213"/>
    <nd ref="266875725"/>
    <nd ref="974440475"/>
    <nd ref="974444918"/>
    <nd ref="974448663"/>
    <nd ref="974446559"/>
    <nd ref="974444441"/>
    <nd ref="974447506"/>
    <nd ref="974447460"/>
    <nd ref="266875724"/>
    <nd ref="974446006"/>
    <tag k="addr:postcode" v="125047"/>
    <tag k="cladr:code" v="77000000000711300"/>
    <tag k="cladr:name" v="Тверская Застава"/>
    <tag k="cladr:suffix" v="Площадь"/>
    <tag k="foot" v="no"/>
    <tag k="highway" v="tertiary"/>
    <tag k="name" v="площадь Тверская Застава"/>
    <tag k="omkum:code" v="01665"/>
    <tag k="omkum:old_name" v="площадь Белорусского Вокзала (1948 г.) площадь Тверская Застава (до 1917 г.)"/>
    <tag k="oneway" v="yes"/>
    <tag k="sorting_name" v="Тверская Застава  площадь"/>
  </way>
  <way id="30419862" version="22" timestamp="2010-11-13T12:41:16Z" uid="260756" user="Felis Pimeja" changeset="6357813">
    <nd ref="311966585"/>
    <nd ref="974446044"/>
    <nd ref="974448694"/>
    <nd ref="974447869"/>
    <nd ref="974444446"/>
    <nd ref="974447666"/>
    <nd ref="974447040"/>
    <nd ref="974447364"/>
    <nd ref="974449577"/>
    <nd ref="974440995"/>
    <nd ref="974444996"/>
    <nd ref="974444416"/>
    <nd ref="974447510"/>
    <nd ref="974446345"/>
    <nd ref="974449755"/>
    <nd ref="266875728"/>
    <nd ref="974440890"/>
    <nd ref="266875726"/>
    <nd ref="974447501"/>
    <nd ref="974440531"/>
    <nd ref="974440213"/>
    <nd ref="266875725"/>
    <nd ref="974440475"/>
    <nd ref="974444918"/>
    <nd ref="974448663"/>
    <nd ref="974446559"/>
    <nd ref="974444441"/>
    <nd ref="974447506"/>
    <nd ref="974447460"/>
    <nd ref="266875724"/>
    <nd ref="974446006"/>
    <tag k="addr:postcode" v="125047"/>
    <tag k="cladr:code" v="77000000000711300"/>
    <tag k="cladr:name" v="Тверская Застава"/>
    <tag k="cladr:suffix" v="Площадь"/>
    <tag k="foot" v="no"/>
    <tag k="highway" v="tertiary"/>
    <tag k="name" v="площадь Тверская Застава"/>
    <tag k="omkum:code" v="01665"/>
    <tag k="omkum:old_name" v="площадь Белорусского Вокзала (1948 г.) площадь Тверская Застава (до 1917 г.)"/>
    <tag k="oneway" v="yes"/>
    <tag k="sorting_name" v="Тверская Застава  площадь"/>
    <tag k="surface" v="asphalt"/>
  </way>
  <way id="30419862" version="23" timestamp="2011-01-27T06:19:56Z" uid="260756" user="Felis Pimeja" changeset="7100492">
    <nd ref="311966585"/>
    <nd ref="1123090991"/>
    <nd ref="1123091092"/>
    <nd ref="266875728"/>
    <nd ref="974440890"/>
    <nd ref="266875726"/>
    <nd ref="974447501"/>
    <nd ref="974440531"/>
    <nd ref="974440213"/>
    <nd ref="266875725"/>
    <nd ref="974440475"/>
    <nd ref="974444918"/>
    <nd ref="974448663"/>
    <nd ref="974446559"/>
    <nd ref="974444441"/>
    <nd ref="974447506"/>
    <nd ref="974447460"/>
    <nd ref="266875724"/>
    <nd ref="974446006"/>
    <tag k="addr:postcode" v="125047"/>
    <tag k="cladr:code" v="77000000000711300"/>
    <tag k="cladr:name" v="Тверская Застава"/>
    <tag k="cladr:suffix" v="Площадь"/>
    <tag k="foot" v="no"/>
    <tag k="highway" v="tertiary"/>
    <tag k="name" v="площадь Тверская Застава"/>
    <tag k="omkum:code" v="01665"/>
    <tag k="omkum:old_name" v="площадь Белорусского Вокзала (1948 г.) площадь Тверская Застава (до 1917 г.)"/>
    <tag k="oneway" v="yes"/>
    <tag k="sorting_name" v="Тверская Застава  площадь"/>
    <tag k="surface" v="asphalt"/>
  </way>
  <way id="30419862" version="24" timestamp="2011-08-12T12:29:37Z" uid="260756" user="Felis Pimeja" changeset="8995556">
    <nd ref="311966585"/>
    <nd ref="1123090991"/>
    <nd ref="1123091092"/>
    <nd ref="266875728"/>
    <nd ref="974440890"/>
    <nd ref="266875726"/>
    <nd ref="974447501"/>
    <nd ref="974440531"/>
    <nd ref="974440213"/>
    <nd ref="266875725"/>
    <nd ref="974440475"/>
    <nd ref="974444918"/>
    <nd ref="974448663"/>
    <nd ref="974446559"/>
    <nd ref="974444441"/>
    <nd ref="974447506"/>
    <nd ref="974447460"/>
    <nd ref="266875724"/>
    <nd ref="974446006"/>
    <tag k="addr:postcode" v="125047"/>
    <tag k="cladr:code" v="77000000000711300"/>
    <tag k="cladr:name" v="Тверская Застава"/>
    <tag k="cladr:suffix" v="Площадь"/>
    <tag k="foot" v="no"/>
    <tag k="highway" v="tertiary"/>
    <tag k="lit" v="yes"/>
    <tag k="name" v="площадь Тверская Застава"/>
    <tag k="omkum:code" v="01665"/>
    <tag k="omkum:old_name" v="площадь Белорусского Вокзала (1948 г.) площадь Тверская Застава (до 1917 г.)"/>
    <tag k="oneway" v="yes"/>
    <tag k="sorting_name" v="Тверская Застава  площадь"/>
    <tag k="surface" v="asphalt"/>
  </way>
  <way id="30419862" version="25" timestamp="2011-10-13T08:15:20Z" uid="481934" user="iWowik" changeset="9544633">
    <nd ref="311966585"/>
    <nd ref="1123090991"/>
    <nd ref="1123091092"/>
    <nd ref="266875728"/>
    <nd ref="974440890"/>
    <nd ref="266875726"/>
    <nd ref="974447501"/>
    <nd ref="974440531"/>
    <nd ref="974440213"/>
    <nd ref="266875725"/>
    <nd ref="974440475"/>
    <nd ref="974444918"/>
    <nd ref="974448663"/>
    <nd ref="974446559"/>
    <nd ref="974444441"/>
    <nd ref="974447506"/>
    <nd ref="974447460"/>
    <nd ref="266875724"/>
    <nd ref="974446006"/>
    <tag k="addr:postcode" v="125047"/>
    <tag k="cladr:code" v="77000000000711300"/>
    <tag k="cladr:name" v="Тверская Застава"/>
    <tag k="cladr:suffix" v="Площадь"/>
    <tag k="foot" v="no"/>
    <tag k="highway" v="tertiary"/>
    <tag k="lit" v="yes"/>
    <tag k="name" v="площадь Тверская Застава"/>
    <tag k="name:be" v="плошча Цвярская Застава"/>
    <tag k="omkum:code" v="01665"/>
    <tag k="omkum:old_name" v="площадь Белорусского Вокзала (1948 г.) площадь Тверская Застава (до 1917 г.)"/>
    <tag k="oneway" v="yes"/>
    <tag k="sorting_name" v="Тверская Застава  площадь"/>
    <tag k="surface" v="asphalt"/>
  </way>
  <way id="30419862" version="26" timestamp="2011-12-12T21:22:17Z" uid="397326" user="trolleway" changeset="10103164">
    <nd ref="311966585"/>
    <nd ref="1123090991"/>
    <nd ref="1123091092"/>
    <nd ref="266875728"/>
    <tag k="addr:postcode" v="125047"/>
    <tag k="cladr:code" v="77000000000711300"/>
    <tag k="cladr:name" v="Тверская Застава"/>
    <tag k="cladr:suffix" v="Площадь"/>
    <tag k="foot" v="no"/>
    <tag k="highway" v="tertiary"/>
    <tag k="lit" v="yes"/>
    <tag k="name" v="площадь Тверская Застава"/>
    <tag k="name:be" v="плошча Цвярская Застава"/>
    <tag k="omkum:code" v="01665"/>
    <tag k="omkum:old_name" v="площадь Белорусского Вокзала (1948 г.) площадь Тверская Застава (до 1917 г.)"/>
    <tag k="oneway" v="yes"/>
    <tag k="sorting_name" v="Тверская Застава  площадь"/>
    <tag k="surface" v="asphalt"/>
  </way>
  <way id="30419964" version="6" timestamp="2010-03-16T21:59:24Z" uid="163746" user="anti_bot-nonsense" changeset="4147354">
    <nd ref="335710405"/>
    <nd ref="335710406"/>
    <nd ref="335710407"/>
    <nd ref="335710408"/>
    <nd ref="335710409"/>
    <tag k="name" v="6 - 11"/>
    <tag k="railway" v="tram"/>
  </way>
  <way id="30419964" version="7" timestamp="2010-12-28T21:01:54Z" uid="88909" user="miko101" changeset="6792457">
    <nd ref="876485032"/>
    <nd ref="1069784341"/>
    <nd ref="335710406"/>
    <nd ref="335710407"/>
    <nd ref="335710408"/>
    <nd ref="335710409"/>
    <tag k="name" v="6 - 11"/>
    <tag k="railway" v="tram"/>
  </way>
  <way id="30419964" version="8" timestamp="2011-12-21T01:07:34Z" uid="88909" user="miko101" changeset="10168342"/>
  <way id="30419974" version="5" timestamp="2010-03-15T23:41:00Z" uid="163746" user="anti_bot-nonsense" changeset="4139871">
    <nd ref="335710450"/>
    <nd ref="335710451"/>
    <nd ref="335710452"/>
    <nd ref="335710453"/>
    <nd ref="335710454"/>
    <nd ref="335710455"/>
    <tag k="name" v="3 - 12"/>
    <tag k="railway" v="tram"/>
  </way>
  <way id="30419974" version="6" timestamp="2010-04-17T16:51:45Z" uid="19417" user="xjr" changeset="4449568">
    <nd ref="335710405"/>
    <nd ref="335710451"/>
    <nd ref="335710452"/>
    <nd ref="335710453"/>
    <nd ref="335710454"/>
    <nd ref="335710455"/>
    <tag k="name" v="3 - 12"/>
    <tag k="railway" v="tram"/>
  </way>
  <way id="30419974" version="7" timestamp="2011-12-21T01:07:34Z" uid="88909" user="miko101" changeset="10168342"/>
  <way id="30419977" version="3" timestamp="2009-10-18T00:08:48Z" uid="36809" user="pfoten_weg_!_" changeset="2879001">
    <nd ref="335710472"/>
    <nd ref="499309252"/>
    <nd ref="335710473"/>
    <tag k="highway" v="service"/>
    <tag k="oneway" v="no"/>
    <tag k="service" v="parking_aisle"/>
  </way>
  <way id="30419980" version="3" timestamp="2009-10-18T00:08:34Z" uid="36809" user="pfoten_weg_!_" changeset="2879001">
    <nd ref="335710479"/>
    <nd ref="335710481"/>
    <nd ref="335710482"/>
    <nd ref="50775543"/>
    <nd ref="335710480"/>
    <nd ref="335710479"/>
    <tag k="amenity" v="parking"/>
  </way>
  <way id="30419981" version="8" timestamp="2009-10-18T00:08:30Z" uid="36809" user="pfoten_weg_!_" changeset="2879001">
    <nd ref="310923078"/>
    <nd ref="335710483"/>
    <nd ref="335710484"/>
    <nd ref="335710485"/>
    <nd ref="357490535"/>
    <tag k="highway" v="residential"/>
    <tag k="name" v="Tölzer Straße"/>
    <tag k="oneway" v="no"/>
  </way>
  <way id="30419981" version="9" timestamp="2009-11-26T12:12:29Z" uid="64756" user="alegria6208" changeset="3219690">
    <nd ref="310923078"/>
    <nd ref="335710483"/>
    <nd ref="335710484"/>
    <nd ref="335710485"/>
    <nd ref="571423704"/>
    <nd ref="357490535"/>
    <tag k="highway" v="residential"/>
    <tag k="name" v="Tölzer Straße"/>
    <tag k="oneway" v="no"/>
  </way>
  <way id="30419981" version="10" timestamp="2009-11-26T12:44:54Z" uid="64756" user="alegria6208" changeset="3219914">
    <nd ref="310923078"/>
    <nd ref="335710483"/>
    <nd ref="335710484"/>
    <nd ref="335710485"/>
    <nd ref="571431240"/>
    <nd ref="571423704"/>
    <nd ref="357490535"/>
    <tag k="highway" v="residential"/>
    <tag k="name" v="Tölzer Straße"/>
    <tag k="oneway" v="no"/>
  </way>
  <way id="30419981" version="11" timestamp="2009-12-14T13:10:49Z" uid="64756" user="alegria6208" changeset="3371437">
    <nd ref="357490535"/>
    <nd ref="571423704"/>
    <nd ref="571431240"/>
    <nd ref="335710485"/>
    <nd ref="335710484"/>
    <nd ref="335710483"/>
    <nd ref="310923078"/>
    <tag k="highway" v="residential"/>
    <tag k="maxspeed" v="30"/>
    <tag k="name" v="Tölzer Straße"/>
    <tag k="oneway" v="no"/>
  </way>
  <way id="30419983" version="3" timestamp="2009-10-18T00:08:36Z" uid="36809" user="pfoten_weg_!_" changeset="2879001">
    <nd ref="335710493"/>
    <nd ref="335710494"/>
    <nd ref="335710495"/>
    <nd ref="335710496"/>
    <nd ref="335710497"/>
    <nd ref="335710498"/>
    <nd ref="335710493"/>
    <tag k="access" v="private"/>
    <tag k="amenity" v="parking"/>
  </way>
  <way id="30419985" version="3" timestamp="2009-10-18T00:08:34Z" uid="36809" user="pfoten_weg_!_" changeset="2879001">
    <nd ref="335710483"/>
    <nd ref="335710501"/>
    <tag k="highway" v="residential"/>
    <tag k="oneway" v="no"/>
  </way>
  <way id="30419810" version="12" timestamp="2012-04-27T13:23:55Z" uid="88909" user="miko101" changeset="11432672">
    <nd ref="335708573"/>
    <nd ref="1157786756"/>
    <nd ref="567449717"/>
    <nd ref="392682658"/>
    <nd ref="147058712"/>
    <nd ref="428468777"/>
    <nd ref="1436425090"/>
    <nd ref="638736647"/>
    <nd ref="638736649"/>
    <nd ref="442550577"/>
    <tag k="highway" v="tertiary"/>
    <tag k="lit" v="yes"/>
    <tag k="name" v="Stanisława Matyi"/>
    <tag k="old_name" v="Towarowa"/>
    <tag k="oneway" v="yes"/>
  </way>
  <way id="30419981" version="12" timestamp="2012-07-09T20:50:41Z" uid="475825" user="aschauerf" changeset="12166943">
    <nd ref="357490535"/>
    <nd ref="571423704"/>
    <tag k="highway" v="residential"/>
    <tag k="maxspeed" v="30"/>
    <tag k="name" v="Tölzer Straße"/>
    <tag k="oneway" v="no"/>
  </way>
</osm>
