<?xml version='1.0' encoding='UTF-8'?>
<osm version="0.6" generator="libosmium/2.20.0">
  <way id="30440065" version="5" timestamp="2009-12-20T02:50:52Z" uid="4467" user="Rosscoe" changeset="3411199">
    <nd ref="335928575"/>
    <nd ref="502950912"/>
    <nd ref="502950913"/>
    <nd ref="502950915"/>
    <nd ref="502950916"/>
    <nd ref="335928574"/>
    <tag k="highway" v="secondary"/>
    <tag k="name" v="Oakey Flat Road"/>
    <tag k="oneway" v="yes"/>
    <tag k="source" v="nearmap"/>
  </way>
  <way id="30440065" version="6" timestamp="2010-08-12T07:58:53Z" uid="4467" user="Rosscoe" changeset="5469915">
    <nd ref="335928575"/>
    <nd ref="502950915"/>
    <nd ref="335928574"/>
    <tag k="highway" v="secondary"/>
    <tag k="name" v="Oakey Flat Road"/>
    <tag k="oneway" v="yes"/>
    <tag k="source" v="nearmap"/>
  </way>
  <way id="30440066" version="7" timestamp="2009-12-19T14:02:16Z" uid="4467" user="Rosscoe" changeset="3406928">
    <nd ref="596233066"/>
    <nd ref="596233070"/>
    <nd ref="335913250"/>
    <nd ref="596233069"/>
    <nd ref="335913234"/>
    <nd ref="596233060"/>
    <nd ref="596233062"/>
    <nd ref="335913210"/>
    <nd ref="501832766"/>
    <nd ref="335915606"/>
    <nd ref="335928589"/>
    <nd ref="585146590"/>
    <nd ref="335928585"/>
    <nd ref="585146673"/>
    <nd ref="585146676"/>
    <nd ref="335928577"/>
    <nd ref="502955831"/>
    <nd ref="561197156"/>
    <nd ref="585146926"/>
    <nd ref="502955832"/>
    <nd ref="585146902"/>
    <nd ref="502955834"/>
    <nd ref="502955835"/>
    <nd ref="583259481"/>
    <nd ref="583259479"/>
    <tag k="highway" v="tertiary"/>
  </way>
  <way id="30440066" version="8" timestamp="2009-12-19T15:10:01Z" uid="4467" user="Rosscoe" changeset="3407353">
    <nd ref="596233066"/>
    <nd ref="596233070"/>
    <nd ref="335913250"/>
    <nd ref="596233069"/>
    <nd ref="335913234"/>
    <nd ref="596233060"/>
    <nd ref="596233062"/>
    <nd ref="335913210"/>
    <nd ref="501832766"/>
    <nd ref="335915606"/>
    <nd ref="596344330"/>
    <tag k="highway" v="tertiary"/>
  </way>
  <way id="30440066" version="9" timestamp="2009-12-20T02:50:48Z" uid="4467" user="Rosscoe" changeset="3411199">
    <nd ref="596233066"/>
    <nd ref="596233070"/>
    <nd ref="335913250"/>
    <nd ref="596233069"/>
    <nd ref="335913234"/>
    <nd ref="596233060"/>
    <nd ref="596233062"/>
    <nd ref="335913210"/>
    <nd ref="596935696"/>
    <nd ref="501832766"/>
    <nd ref="596935693"/>
    <nd ref="335915606"/>
    <nd ref="596935707"/>
    <nd ref="596935706"/>
    <nd ref="596935705"/>
    <nd ref="596344330"/>
    <tag k="highway" v="tertiary"/>
    <tag k="source" v="nearmap"/>
  </way>
  <way id="30440066" version="10" timestamp="2010-01-09T09:53:22Z" uid="22094" user="Chadzopkyo" changeset="3576198">
    <nd ref="596233066"/>
    <nd ref="596233070"/>
    <nd ref="335913250"/>
    <nd ref="596233069"/>
    <nd ref="335913234"/>
    <nd ref="596233060"/>
    <nd ref="596233062"/>
    <nd ref="335913210"/>
    <nd ref="596935696"/>
    <nd ref="501832766"/>
    <nd ref="596935693"/>
    <nd ref="335915606"/>
    <nd ref="596935707"/>
    <nd ref="596935706"/>
    <nd ref="596935705"/>
    <nd ref="596344330"/>
    <tag k="highway" v="tertiary"/>
    <tag k="name" v="Walkers Road"/>
    <tag k="source" v="nearmap"/>
  </way>
  <way id="30440067" version="10" timestamp="2009-12-20T02:27:23Z" uid="4467" user="Rosscoe" changeset="3411156"/>
  <way id="30440068" version="7" timestamp="2009-12-20T02:50:50Z" uid="4467" user="Rosscoe" changeset="3411199">
    <nd ref="583259479"/>
    <nd ref="583259483"/>
    <nd ref="502874318"/>
    <nd ref="502957248"/>
    <nd ref="502957249"/>
    <nd ref="335928574"/>
    <tag k="highway" v="secondary"/>
    <tag k="name" v="Oakey Flat Road"/>
    <tag k="source" v="nearmap"/>
  </way>
  <way id="30440068" version="8" timestamp="2010-02-09T02:20:03Z" uid="74617" user="JohnSmith" changeset="3828739"/>
  <way id="30440392" version="1" timestamp="2009-01-24T15:13:27Z" uid="64977" user="CLoeser" changeset="831992">
    <nd ref="335933298"/>
    <nd ref="335933301"/>
    <nd ref="335933303"/>
    <nd ref="335933304"/>
    <nd ref="335933306"/>
    <nd ref="335933307"/>
    <nd ref="335933309"/>
    <tag k="created_by" v="Potlatch 0.10f"/>
  </way>
  <way id="30440392" version="2" timestamp="2009-01-24T15:17:49Z" uid="64977" user="CLoeser" changeset="831992">
    <nd ref="335933298"/>
    <nd ref="335933301"/>
    <nd ref="335933303"/>
    <nd ref="335933304"/>
    <nd ref="335933306"/>
    <nd ref="335933307"/>
    <nd ref="335933309"/>
    <nd ref="335934590"/>
    <nd ref="335934591"/>
    <nd ref="335934592"/>
    <nd ref="335934593"/>
    <nd ref="335934594"/>
    <nd ref="335934595"/>
    <nd ref="335934597"/>
    <nd ref="335934598"/>
    <tag k="created_by" v="Potlatch 0.10f"/>
  </way>
  <way id="30440392" version="3" timestamp="2009-01-24T15:20:13Z" uid="64977" user="CLoeser" changeset="831992">
    <nd ref="335933298"/>
    <nd ref="335933301"/>
    <nd ref="335933303"/>
    <nd ref="335933304"/>
    <nd ref="335933306"/>
    <nd ref="335933307"/>
    <nd ref="335933309"/>
    <nd ref="335934590"/>
    <nd ref="335934591"/>
    <nd ref="335934592"/>
    <nd ref="335934593"/>
    <nd ref="335934594"/>
    <nd ref="335934595"/>
    <nd ref="335934597"/>
    <nd ref="335934598"/>
    <nd ref="335935075"/>
    <nd ref="335935076"/>
    <nd ref="335935077"/>
    <nd ref="335935078"/>
    <tag k="created_by" v="Potlatch 0.10f"/>
  </way>
  <way id="30440392" version="4" timestamp="2009-01-24T15:22:55Z" uid="64977" user="CLoeser" changeset="831992">
    <nd ref="335935078"/>
    <nd ref="335935637"/>
    <nd ref="335935639"/>
    <nd ref="335935641"/>
    <nd ref="335935643"/>
    <nd ref="335935645"/>
    <nd ref="335935647"/>
    <nd ref="335935649"/>
    <nd ref="335935651"/>
    <nd ref="335935653"/>
    <nd ref="335935655"/>
    <nd ref="335935657"/>
    <nd ref="335935659"/>
    <nd ref="335935661"/>
    <nd ref="335933298"/>
    <nd ref="335933301"/>
    <nd ref="335933303"/>
    <nd ref="335933304"/>
    <nd ref="335933306"/>
    <nd ref="335933307"/>
    <nd ref="335933309"/>
    <nd ref="335934590"/>
    <nd ref="335934591"/>
    <nd ref="335934592"/>
    <nd ref="335934593"/>
    <nd ref="335934594"/>
    <nd ref="335934595"/>
    <nd ref="335934597"/>
    <nd ref="335934598"/>
    <nd ref="335935075"/>
    <nd ref="335935076"/>
    <nd ref="335935077"/>
    <nd ref="335935078"/>
    <tag k="created_by" v="Potlatch 0.10f"/>
    <tag k="landuse" v="residential"/>
  </way>
  <way id="30440392" version="5" timestamp="2010-05-10T08:07:43Z" uid="75388" user="Svalbard" changeset="4656799">
    <nd ref="335935078"/>
    <nd ref="335935637"/>
    <nd ref="335935639"/>
    <nd ref="335935641"/>
    <nd ref="335935643"/>
    <nd ref="335935645"/>
    <nd ref="335935647"/>
    <nd ref="335935649"/>
    <nd ref="335935651"/>
    <nd ref="335935653"/>
    <nd ref="335935655"/>
    <nd ref="335935657"/>
    <nd ref="335935659"/>
    <nd ref="335935661"/>
    <nd ref="335933298"/>
    <nd ref="335933301"/>
    <nd ref="335933303"/>
    <nd ref="335933304"/>
    <nd ref="335933306"/>
    <nd ref="335933307"/>
    <nd ref="335933309"/>
    <nd ref="335934590"/>
    <nd ref="335934591"/>
    <nd ref="335934592"/>
    <nd ref="335934593"/>
    <nd ref="335934594"/>
    <nd ref="335934595"/>
    <nd ref="335934597"/>
    <nd ref="335934598"/>
    <nd ref="335935075"/>
    <nd ref="335935076"/>
    <nd ref="335935077"/>
    <nd ref="335935078"/>
    <tag k="landuse" v="residential"/>
  </way>
  <way id="30440587" version="3" timestamp="2009-02-13T14:27:16Z" uid="9581" user="Lobelt" changeset="399324">
    <nd ref="344904574"/>
    <nd ref="335935391"/>
    <nd ref="343352621"/>
    <nd ref="335935394"/>
    <nd ref="274863756"/>
    <nd ref="274863757"/>
    <tag k="created_by" v="Potlatch 0.9c"/>
    <tag k="highway" v="residential"/>
    <tag k="name" v="Friedensstraße"/>
  </way>
  <way id="30440587" version="4" timestamp="2009-03-15T19:06:32Z" uid="16019" user="Thommse" changeset="814568">
    <nd ref="344904574"/>
    <nd ref="335935391"/>
    <nd ref="343352621"/>
    <nd ref="335935394"/>
    <nd ref="274863756"/>
    <nd ref="360836762"/>
    <nd ref="274863757"/>
    <tag k="created_by" v="Potlatch 0.9c"/>
    <tag k="highway" v="residential"/>
    <tag k="name" v="Friedensstraße"/>
  </way>
  <way id="30440587" version="5" timestamp="2011-12-10T21:48:49Z" uid="15720" user="J budissin" changeset="10085244">
    <nd ref="344904574"/>
    <nd ref="335935391"/>
    <nd ref="343352621"/>
    <nd ref="335935394"/>
    <nd ref="274863756"/>
    <nd ref="360836762"/>
    <nd ref="274863757"/>
    <tag k="highway" v="residential"/>
    <tag k="name" v="Friedensstraße"/>
    <tag k="name:hsb" v="Měrowa"/>
  </way>
  <way id="30440589" version="2" timestamp="2009-02-13T14:27:16Z" uid="9581" user="Lobelt" changeset="399324">
    <nd ref="274863751"/>
    <nd ref="335935389"/>
    <nd ref="335935390"/>
    <nd ref="335935391"/>
    <tag k="created_by" v="Potlatch 0.9c"/>
    <tag k="highway" v="residential"/>
    <tag k="name" v="Südstraße"/>
    <tag k="oneway" v="yes"/>
  </way>
  <way id="30440675" version="3" timestamp="2010-01-08T03:34:45Z" uid="23543" user="jkjk" changeset="3567513">
    <nd ref="335937232"/>
    <nd ref="335937326"/>
    <nd ref="608887514"/>
    <tag k="highway" v="residential"/>
  </way>
  <way id="30440689" version="2" timestamp="2009-02-06T16:02:00Z" uid="8328" user="benpre" changeset="196018">
    <nd ref="335937287"/>
    <nd ref="335937291"/>
    <nd ref="335937293"/>
    <nd ref="335937296"/>
    <nd ref="335937287"/>
    <tag k="amenity" v="university"/>
    <tag k="building" v="yes"/>
    <tag k="name" v="Backsteingebäude"/>
  </way>
  <way id="30440689" version="3" timestamp="2009-08-14T11:03:39Z" uid="13846" user="JojoK" changeset="2141410">
    <nd ref="335937287"/>
    <nd ref="335937291"/>
    <nd ref="465264415"/>
    <nd ref="335937293"/>
    <nd ref="335937296"/>
    <nd ref="335937287"/>
    <tag k="amenity" v="university"/>
    <tag k="building" v="yes"/>
    <tag k="name" v="Backsteingebäude"/>
  </way>
  <way id="30440689" version="4" timestamp="2010-05-31T21:08:51Z" uid="293774" user="Oli-Wan" changeset="4868537">
    <nd ref="335937287"/>
    <nd ref="335937291"/>
    <nd ref="465264415"/>
    <nd ref="335937293"/>
    <nd ref="335937296"/>
    <nd ref="335937287"/>
    <tag k="amenity" v="university"/>
    <tag k="building" v="yes"/>
    <tag k="name" v="Backsteingebäude"/>
    <tag k="website" v="http://www.rwth-aachen.de/go/id/en/"/>
  </way>
  <way id="30440689" version="5" timestamp="2010-06-11T18:21:42Z" uid="293774" user="Oli-Wan" changeset="4964399">
    <nd ref="335937287"/>
    <nd ref="335937291"/>
    <nd ref="465264415"/>
    <nd ref="335937293"/>
    <nd ref="335937296"/>
    <nd ref="335937287"/>
    <tag k="addr:housenumber" v="86"/>
    <tag k="amenity" v="university"/>
    <tag k="building" v="yes"/>
    <tag k="name" v="Backsteingebäude"/>
    <tag k="website" v="http://www.rwth-aachen.de/go/id/en/"/>
  </way>
  <way id="30440689" version="6" timestamp="2010-07-19T07:20:06Z" uid="67862" user="HolgerJeromin" changeset="5258151">
    <nd ref="335937287"/>
    <nd ref="335937291"/>
    <nd ref="824103109"/>
    <nd ref="824103111"/>
    <nd ref="465264415"/>
    <nd ref="335937293"/>
    <nd ref="335937296"/>
    <nd ref="335937287"/>
    <tag k="amenity" v="university"/>
    <tag k="building" v="yes"/>
    <tag k="name" v="Backsteingebäude"/>
    <tag k="website" v="http://www.rwth-aachen.de/go/id/en/"/>
  </way>
  <way id="30440689" version="7" timestamp="2010-07-23T07:34:31Z" uid="293774" user="Oli-Wan" changeset="5293185">
    <nd ref="335937287"/>
    <nd ref="335937291"/>
    <nd ref="824103109"/>
    <nd ref="465264415"/>
    <nd ref="335937293"/>
    <nd ref="335937296"/>
    <nd ref="335937287"/>
    <tag k="amenity" v="university"/>
    <tag k="building" v="yes"/>
    <tag k="name" v="Backsteingebäude"/>
    <tag k="website" v="http://www.rwth-aachen.de/go/id/en/"/>
  </way>
  <way id="30440689" version="8" timestamp="2011-05-19T09:56:27Z" uid="67862" user="HolgerJeromin" changeset="8188302">
    <nd ref="335937287"/>
    <nd ref="335937291"/>
    <nd ref="824103109"/>
    <nd ref="465264415"/>
    <nd ref="335937293"/>
    <nd ref="335937296"/>
    <nd ref="335937287"/>
    <tag k="addr:housename" v="Backsteingebäude"/>
    <tag k="amenity" v="university"/>
    <tag k="building" v="yes"/>
    <tag k="website" v="http://www.rwth-aachen.de/go/id/en/"/>
  </way>
  <way id="30440689" version="9" timestamp="2011-05-30T17:10:10Z" uid="293774" user="Oli-Wan" changeset="8294015">
    <nd ref="335937287"/>
    <nd ref="335937291"/>
    <nd ref="465264415"/>
    <nd ref="335937293"/>
    <nd ref="335937296"/>
    <nd ref="335937287"/>
    <tag k="addr:housename" v="Backsteingebäude"/>
    <tag k="amenity" v="university"/>
    <tag k="building" v="yes"/>
    <tag k="ref:RWTH" v="1190"/>
    <tag k="website" v="http://www.rwth-aachen.de/go/id/en/"/>
  </way>
  <way id="30440689" version="10" timestamp="2011-12-13T18:00:03Z" uid="67862" user="HolgerJeromin" changeset="10109087"/>
  <way id="30440690" version="2" timestamp="2009-02-06T16:01:45Z" uid="8328" user="benpre" changeset="196018">
    <nd ref="335937298"/>
    <nd ref="335937300"/>
    <nd ref="335937302"/>
    <nd ref="335937306"/>
    <nd ref="335937298"/>
    <tag k="amenity" v="university"/>
    <tag k="building" v="yes"/>
    <tag k="name" v="Semi90"/>
  </way>
  <way id="30440690" version="3" timestamp="2009-03-23T19:39:52Z" uid="13846" user="JojoK" changeset="849144">
    <nd ref="335937298"/>
    <nd ref="335937300"/>
    <nd ref="335937302"/>
    <nd ref="335937306"/>
    <nd ref="335937298"/>
    <tag k="addr:city" v="Aachen"/>
    <tag k="addr:housenumber" v="90"/>
    <tag k="addr:street" v="Templergraben"/>
    <tag k="amenity" v="university"/>
    <tag k="building" v="yes"/>
    <tag k="name" v="Semi90"/>
  </way>
  <way id="30440690" version="4" timestamp="2010-05-31T21:08:52Z" uid="293774" user="Oli-Wan" changeset="4868537">
    <nd ref="335937298"/>
    <nd ref="335937300"/>
    <nd ref="335937302"/>
    <nd ref="335937306"/>
    <nd ref="335937298"/>
    <tag k="addr:city" v="Aachen"/>
    <tag k="addr:housenumber" v="90"/>
    <tag k="addr:street" v="Templergraben"/>
    <tag k="amenity" v="university"/>
    <tag k="building" v="yes"/>
    <tag k="name" v="Semi90"/>
    <tag k="website" v="www.rwth-aachen.de"/>
  </way>
  <way id="30440690" version="5" timestamp="2010-08-27T13:54:50Z" uid="67862" user="HolgerJeromin" changeset="5607902">
    <nd ref="335937298"/>
    <nd ref="335937300"/>
    <nd ref="335937302"/>
    <nd ref="335937306"/>
    <nd ref="335937298"/>
    <tag k="amenity" v="university"/>
    <tag k="building" v="yes"/>
    <tag k="name" v="Semi90"/>
  </way>
  <way id="30440690" version="6" timestamp="2011-05-27T11:37:05Z" uid="293774" user="Oli-Wan" changeset="8261840">
    <nd ref="335937298"/>
    <nd ref="335937300"/>
    <nd ref="335937302"/>
    <nd ref="335937306"/>
    <nd ref="335937298"/>
    <tag k="amenity" v="university"/>
    <tag k="building" v="yes"/>
    <tag k="name" v="Semi90"/>
    <tag k="ref:RWTH" v="1580"/>
  </way>
  <way id="30440690" version="7" timestamp="2011-09-27T16:19:12Z" uid="293774" user="Oli-Wan" changeset="9412034">
    <nd ref="335937298"/>
    <nd ref="335937300"/>
    <nd ref="335937302"/>
    <nd ref="335937306"/>
    <nd ref="335937298"/>
    <tag k="amenity" v="university"/>
    <tag k="building" v="yes"/>
    <tag k="name" v="Semi90"/>
    <tag k="ref:RWTH" v="1580"/>
    <tag k="wheelchair" v="yes"/>
  </way>
  <way id="30440690" version="8" timestamp="2011-12-13T18:00:00Z" uid="67862" user="HolgerJeromin" changeset="10109087">
    <nd ref="335937298"/>
    <nd ref="335937300"/>
    <nd ref="335937302"/>
    <nd ref="335937306"/>
    <nd ref="335937298"/>
    <tag k="addr:city" v="Aachen"/>
    <tag k="addr:housenumber" v="90"/>
    <tag k="addr:postcode" v="52062"/>
    <tag k="amenity" v="university"/>
    <tag k="building" v="yes"/>
    <tag k="name" v="Semi90"/>
    <tag k="ref:RWTH" v="1580"/>
    <tag k="wheelchair" v="yes"/>
  </way>
  <way id="30440690" version="9" timestamp="2012-01-03T10:37:35Z" uid="25504" user="Head" changeset="10279777">
    <nd ref="335937298"/>
    <nd ref="335937300"/>
    <nd ref="335937302"/>
    <nd ref="335937306"/>
    <nd ref="335937298"/>
    <tag k="addr:city" v="Aachen"/>
    <tag k="addr:country" v="DE"/>
    <tag k="addr:housenumber" v="90"/>
    <tag k="addr:postcode" v="52062"/>
    <tag k="amenity" v="university"/>
    <tag k="building" v="yes"/>
    <tag k="name" v="Semi90"/>
    <tag k="ref:RWTH" v="1580"/>
    <tag k="wheelchair" v="yes"/>
  </way>
  <way id="30440690" version="10" timestamp="2012-01-03T16:40:08Z" uid="67862" user="HolgerJeromin" changeset="10282986">
    <nd ref="335937298"/>
    <nd ref="335937300"/>
    <nd ref="335937302"/>
    <nd ref="335937306"/>
    <nd ref="335937298"/>
    <tag k="addr:city" v="Aachen"/>
    <tag k="addr:country" v="DE"/>
    <tag k="addr:housenumber" v="90"/>
    <tag k="addr:postcode" v="52062"/>
    <tag k="amenity" v="university"/>
    <tag k="building" v="yes"/>
    <tag k="name" v="Semi90"/>
    <tag k="odbl" v="clean"/>
    <tag k="ref:RWTH" v="1580"/>
    <tag k="wheelchair" v="yes"/>
  </way>
  <way id="30440696" version="2" timestamp="2009-02-06T16:01:44Z" uid="8328" user="benpre" changeset="196018">
    <nd ref="335937416"/>
    <nd ref="335937419"/>
    <nd ref="335937447"/>
    <nd ref="335937421"/>
    <nd ref="335937424"/>
    <nd ref="335937442"/>
    <nd ref="335937444"/>
    <nd ref="335937445"/>
    <nd ref="335937416"/>
    <tag k="amenity" v="university"/>
    <tag k="building" v="yes"/>
    <tag k="name" v="Efeuhaus"/>
  </way>
  <way id="30440696" version="3" timestamp="2011-05-19T09:56:27Z" uid="67862" user="HolgerJeromin" changeset="8188302">
    <nd ref="335937416"/>
    <nd ref="335937419"/>
    <nd ref="335937447"/>
    <nd ref="335937421"/>
    <nd ref="335937424"/>
    <nd ref="335937442"/>
    <nd ref="335937444"/>
    <nd ref="335937445"/>
    <nd ref="335937416"/>
    <tag k="addr:housename" v="Efeuhaus"/>
    <tag k="amenity" v="university"/>
    <tag k="building" v="yes"/>
  </way>
  <way id="30440696" version="4" timestamp="2011-06-21T18:53:57Z" uid="293774" user="Oli-Wan" changeset="8507338">
    <nd ref="335937416"/>
    <nd ref="335937445"/>
    <nd ref="335937444"/>
    <nd ref="335937442"/>
    <nd ref="335937424"/>
    <nd ref="335937421"/>
    <nd ref="335937447"/>
    <nd ref="335937419"/>
    <nd ref="335937416"/>
    <tag k="addr:housename" v="Efeuhaus"/>
    <tag k="amenity" v="university"/>
    <tag k="building" v="yes"/>
    <tag k="ref:RWTH" v="1020"/>
  </way>
  <way id="30440696" version="5" timestamp="2011-10-20T06:41:33Z" uid="67862" user="HolgerJeromin" changeset="9605664">
    <nd ref="335937416"/>
    <nd ref="335937445"/>
    <nd ref="335937444"/>
    <nd ref="335937442"/>
    <nd ref="335937424"/>
    <nd ref="1474005672"/>
    <nd ref="335937421"/>
    <nd ref="335937447"/>
    <nd ref="335937419"/>
    <nd ref="335937416"/>
    <tag k="addr:housename" v="Efeuhaus"/>
    <tag k="amenity" v="university"/>
    <tag k="building" v="yes"/>
    <tag k="ref:RWTH" v="1020"/>
  </way>
  <way id="30440696" version="6" timestamp="2012-01-03T16:38:37Z" uid="67862" user="HolgerJeromin" changeset="10282986">
    <nd ref="335937416"/>
    <nd ref="335937445"/>
    <nd ref="335937444"/>
    <nd ref="335937442"/>
    <nd ref="335937424"/>
    <nd ref="1474005672"/>
    <nd ref="335937421"/>
    <nd ref="335937447"/>
    <nd ref="335937419"/>
    <nd ref="335937416"/>
    <tag k="addr:housename" v="Efeuhaus"/>
    <tag k="amenity" v="university"/>
    <tag k="building" v="yes"/>
    <tag k="odbl" v="clean"/>
    <tag k="ref:RWTH" v="1020"/>
  </way>
  <way id="30440697" version="3" timestamp="2010-01-08T03:34:45Z" uid="23543" user="jkjk" changeset="3567513">
    <nd ref="335937516"/>
    <nd ref="335937432"/>
    <nd ref="383401575"/>
    <nd ref="608887557"/>
    <tag k="highway" v="residential"/>
  </way>
  <way id="30440697" version="4" timestamp="2012-02-28T18:09:17Z" uid="18885" user="Tommy" changeset="10821096">
    <nd ref="335937516"/>
    <nd ref="335937432"/>
    <nd ref="608887557"/>
    <tag k="highway" v="residential"/>
  </way>
  <way id="30440777" version="3" timestamp="2010-07-06T09:19:57Z" uid="74617" user="JohnSmith" changeset="5147679">
    <nd ref="335713343"/>
    <nd ref="558410343"/>
    <nd ref="335713338"/>
    <nd ref="335713345"/>
    <tag k="highway" v="residential"/>
    <tag k="maxspeed" v="50"/>
    <tag k="maxspeed:source" v="default residential speed limit in Australia"/>
    <tag k="name" v="Macarthur Place"/>
  </way>
  <way id="30440777" version="4" timestamp="2012-01-18T04:10:20Z" uid="147510" user="woodpeck_fixbot" changeset="10424025">
    <nd ref="335713343"/>
    <nd ref="558410343"/>
    <nd ref="335713338"/>
    <nd ref="335713345"/>
    <tag k="highway" v="residential"/>
    <tag k="name" v="Macarthur Place"/>
  </way>
  <way id="30440778" version="3" timestamp="2010-07-06T09:15:35Z" uid="74617" user="JohnSmith" changeset="5147679">
    <nd ref="335713638"/>
    <nd ref="335713652"/>
    <nd ref="335713665"/>
    <nd ref="335713677"/>
    <nd ref="335713695"/>
    <nd ref="558410247"/>
    <nd ref="335713404"/>
    <tag k="highway" v="residential"/>
    <tag k="maxspeed" v="50"/>
    <tag k="maxspeed:source" v="default residential speed limit in Australia"/>
    <tag k="name" v="Batchelor Place"/>
  </way>
  <way id="30440778" version="4" timestamp="2012-01-18T04:10:22Z" uid="147510" user="woodpeck_fixbot" changeset="10424025">
    <nd ref="335713638"/>
    <nd ref="335713652"/>
    <nd ref="335713665"/>
    <nd ref="335713677"/>
    <nd ref="335713695"/>
    <nd ref="558410247"/>
    <nd ref="335713404"/>
    <tag k="highway" v="residential"/>
    <tag k="name" v="Batchelor Place"/>
  </way>
  <way id="30440065" version="7" timestamp="2012-07-19T18:25:44Z" uid="722137" user="OSMF Redaction Account" changeset="12343089">
    <nd ref="335928575"/>
    <nd ref="502950915"/>
    <nd ref="335928574"/>
    <tag k="highway" v="unclassified"/>
    <tag k="name" v="Oakey Flat Road"/>
    <tag k="oneway" v="yes"/>
  </way>
  <way id="30440066" version="11" timestamp="2012-07-19T18:40:31Z" uid="722137" user="OSMF Redaction Account" changeset="12343505">
    <nd ref="335913250"/>
    <nd ref="335913234"/>
    <nd ref="335913210"/>
    <nd ref="501832766"/>
    <nd ref="335915606"/>
    <tag k="highway" v="tertiary"/>
    <tag k="name" v="Walkers Road"/>
  </way>
  <way id="30440392" version="6" timestamp="2012-04-24T18:53:35Z" uid="75388" user="Svalbard" changeset="11408317">
    <nd ref="335935078"/>
    <nd ref="335935637"/>
    <nd ref="335935639"/>
    <nd ref="335935641"/>
    <nd ref="335935643"/>
    <nd ref="335935645"/>
    <nd ref="335935647"/>
    <nd ref="335935649"/>
    <nd ref="335935653"/>
    <nd ref="335935655"/>
    <nd ref="335935657"/>
    <nd ref="335935659"/>
    <nd ref="335935661"/>
    <nd ref="335933298"/>
    <nd ref="335933301"/>
    <nd ref="335933303"/>
    <nd ref="335933304"/>
    <nd ref="335933306"/>
    <nd ref="335933307"/>
    <nd ref="335933309"/>
    <nd ref="335934590"/>
    <nd ref="335934591"/>
    <nd ref="335934592"/>
    <nd ref="335934593"/>
    <nd ref="335934594"/>
    <nd ref="335934595"/>
    <nd ref="335934597"/>
    <nd ref="335934598"/>
    <nd ref="335935075"/>
    <nd ref="335935076"/>
    <nd ref="335935077"/>
    <nd ref="335935078"/>
    <tag k="landuse" v="residential"/>
  </way>
  <way id="30440392" version="7" timestamp="2012-07-18T22:55:34Z" uid="722137" user="OSMF Redaction Account" changeset="12301133"/>
  <way id="30440587" version="6" timestamp="2012-04-12T17:06:48Z" uid="269223" user="ddgb" changeset="11278166">
    <nd ref="344904574"/>
    <nd ref="335935391"/>
    <nd ref="343352621"/>
    <nd ref="335935394"/>
    <nd ref="1713011210"/>
    <nd ref="360836762"/>
    <nd ref="274863757"/>
    <tag k="highway" v="residential"/>
    <tag k="name" v="Friedensstraße"/>
    <tag k="name:hsb" v="Měrowa"/>
  </way>
  <way id="30440587" version="7" timestamp="2012-07-17T09:45:09Z" uid="722137" user="OSMF Redaction Account" changeset="12262095">
    <nd ref="335935391"/>
    <nd ref="343352621"/>
    <nd ref="335935394"/>
    <nd ref="1713011210"/>
    <nd ref="360836762"/>
    <tag k="highway" v="residential"/>
    <tag k="name" v="Friedensstraße"/>
    <tag k="name:hsb" v="Měrowa"/>
  </way>
  <way id="30440587" version="8" timestamp="2012-07-25T21:20:39Z" uid="269223" user="ddgb" changeset="12491272">
    <nd ref="335935391"/>
    <nd ref="343352621"/>
    <nd ref="1838203119"/>
    <nd ref="335935394"/>
    <nd ref="1713011210"/>
    <nd ref="360836762"/>
    <nd ref="1838203104"/>
    <tag k="highway" v="residential"/>
    <tag k="name" v="Friedensstraße"/>
    <tag k="name:hsb" v="Měrowa"/>
  </way>
  <way id="30440587" version="9" timestamp="2012-09-02T23:28:44Z" uid="71555" user="JochenB" changeset="12961530">
    <nd ref="335935391"/>
    <nd ref="343352621"/>
    <tag k="highway" v="residential"/>
    <tag k="name" v="Friedensstraße"/>
    <tag k="name:hsb" v="M?rowa"/>
  </way>
  <way id="30440589" version="3" timestamp="2012-07-17T09:45:15Z" uid="722137" user="OSMF Redaction Account" changeset="12262095">
    <nd ref="335935391"/>
    <nd ref="335935390"/>
    <nd ref="335935389"/>
    <nd ref="274863751"/>
    <tag k="highway" v="residential"/>
    <tag k="name" v="Südstraße"/>
  </way>
  <way id="30440589" version="4" timestamp="2012-07-25T21:20:41Z" uid="269223" user="ddgb" changeset="12491272">
    <nd ref="335935391"/>
    <nd ref="335935390"/>
    <nd ref="1838203117"/>
    <nd ref="335935389"/>
    <nd ref="1838203112"/>
    <nd ref="274863751"/>
    <tag k="highway" v="residential"/>
    <tag k="name" v="Südstraße"/>
    <tag k="name:hsb" v="Južna"/>
    <tag k="oneway" v="yes"/>
  </way>
  <way id="30440589" version="5" timestamp="2012-08-23T10:37:58Z" uid="269223" user="ddgb" changeset="12831024">
    <nd ref="335935391"/>
    <nd ref="335935390"/>
    <nd ref="335935389"/>
    <nd ref="274863751"/>
    <tag k="highway" v="residential"/>
    <tag k="name" v="Südstraße"/>
    <tag k="name:hsb" v="Južna"/>
    <tag k="oneway" v="yes"/>
  </way>
  <way id="30440675" version="4" timestamp="2012-06-14T00:28:18Z" uid="18885" user="Tommy" changeset="11890685">
    <nd ref="335937232"/>
    <nd ref="335937213"/>
    <nd ref="335937326"/>
    <nd ref="608887514"/>
    <tag k="highway" v="residential"/>
  </way>
  <way id="30440675" version="5" timestamp="2012-07-20T13:05:54Z" uid="722137" user="OSMF Redaction Account" changeset="12377029">
    <nd ref="335937232"/>
    <nd ref="335937213"/>
    <nd ref="335937326"/>
    <tag k="highway" v="residential"/>
  </way>
  <way id="30440690" version="11" timestamp="2012-04-12T15:06:05Z" uid="293774" user="Oli-Wan" changeset="11277440">
    <nd ref="335937298"/>
    <nd ref="335937300"/>
    <nd ref="335937302"/>
    <nd ref="335937306"/>
    <nd ref="335937298"/>
    <tag k="addr:city" v="Aachen"/>
    <tag k="addr:country" v="DE"/>
    <tag k="addr:housenumber" v="90"/>
    <tag k="addr:postcode" v="52062"/>
    <tag k="addr:street" v="Templergraben"/>
    <tag k="amenity" v="university"/>
    <tag k="building" v="yes"/>
    <tag k="name" v="Semi90"/>
    <tag k="odbl" v="clean"/>
    <tag k="ref:RWTH" v="1580"/>
    <tag k="wheelchair" v="yes"/>
  </way>
  <way id="30440697" version="5" timestamp="2012-07-20T13:05:36Z" uid="722137" user="OSMF Redaction Account" changeset="12377029">
    <nd ref="335937516"/>
    <nd ref="335937432"/>
    <tag k="highway" v="residential"/>
  </way>
</osm>
