<?xml version='1.0' encoding='UTF-8'?>
<osm version="0.6" generator="libosmium/2.20.0">
  <way id="30459875" version="8" timestamp="2010-07-09T05:02:34Z" uid="74617" user="JohnSmith" changeset="5170986">
    <nd ref="336168233"/>
    <nd ref="336168627"/>
    <nd ref="336168325"/>
    <nd ref="336168310"/>
    <nd ref="336168274"/>
    <nd ref="336168275"/>
    <nd ref="336168276"/>
    <tag k="highway" v="residential"/>
    <tag k="maxspeed" v="50"/>
    <tag k="maxspeed:source" v="default residential speed limit in Australia"/>
    <tag k="name" v="The Mews"/>
  </way>
  <way id="30459875" version="9" timestamp="2012-01-18T04:13:39Z" uid="147510" user="woodpeck_fixbot" changeset="10424025">
    <nd ref="336168233"/>
    <nd ref="336168627"/>
    <nd ref="336168325"/>
    <nd ref="336168310"/>
    <nd ref="336168274"/>
    <nd ref="336168275"/>
    <nd ref="336168276"/>
    <tag k="highway" v="residential"/>
    <tag k="name" v="The Mews"/>
  </way>
  <way id="30459890" version="5" timestamp="2010-07-09T05:01:26Z" uid="74617" user="JohnSmith" changeset="5170986">
    <nd ref="336168274"/>
    <nd ref="336168303"/>
    <tag k="highway" v="residential"/>
    <tag k="maxspeed" v="50"/>
    <tag k="maxspeed:source" v="default residential speed limit in Australia"/>
    <tag k="name" v="Littlejohn Court"/>
  </way>
  <way id="30459890" version="6" timestamp="2012-01-18T04:13:40Z" uid="147510" user="woodpeck_fixbot" changeset="10424025">
    <nd ref="336168274"/>
    <nd ref="336168303"/>
    <tag k="highway" v="residential"/>
    <tag k="name" v="Littlejohn Court"/>
  </way>
  <way id="30459905" version="5" timestamp="2010-07-09T05:03:20Z" uid="74617" user="JohnSmith" changeset="5170986">
    <nd ref="336168310"/>
    <nd ref="336168326"/>
    <tag k="highway" v="residential"/>
    <tag k="maxspeed" v="50"/>
    <tag k="maxspeed:source" v="default residential speed limit in Australia"/>
    <tag k="name" v="Longstaff Court"/>
  </way>
  <way id="30459905" version="6" timestamp="2012-01-18T04:13:41Z" uid="147510" user="woodpeck_fixbot" changeset="10424025">
    <nd ref="336168310"/>
    <nd ref="336168326"/>
    <tag k="highway" v="residential"/>
    <tag k="name" v="Longstaff Court"/>
  </way>
  <way id="30459984" version="4" timestamp="2010-07-09T05:05:57Z" uid="74617" user="JohnSmith" changeset="5170986">
    <nd ref="336168325"/>
    <nd ref="336168436"/>
    <nd ref="336168437"/>
    <nd ref="336168438"/>
    <nd ref="336168439"/>
    <nd ref="336168440"/>
    <nd ref="336168441"/>
    <nd ref="336168442"/>
    <nd ref="336168443"/>
    <nd ref="336168444"/>
    <nd ref="336168445"/>
    <nd ref="336168446"/>
    <nd ref="336168447"/>
    <nd ref="331786041"/>
    <tag k="highway" v="residential"/>
    <tag k="maxspeed" v="50"/>
    <tag k="maxspeed:source" v="default residential speed limit in Australia"/>
    <tag k="name" v="Holyrood Drive"/>
  </way>
  <way id="30459984" version="5" timestamp="2010-07-12T12:59:20Z" uid="4467" user="Rosscoe" changeset="5198846"/>
</osm>
