<?xml version='1.0' encoding='UTF-8'?>
<osm version="0.6" generator="libosmium/2.20.0">
  <way id="30479021" version="4" timestamp="2010-07-08T16:26:41Z" uid="74617" user="JohnSmith" changeset="5167338">
    <nd ref="338168448"/>
    <nd ref="338168449"/>
    <nd ref="336301116"/>
    <nd ref="336301117"/>
    <nd ref="336301119"/>
    <nd ref="336301121"/>
    <nd ref="336301122"/>
    <nd ref="336301124"/>
    <nd ref="336301126"/>
    <nd ref="336301129"/>
    <nd ref="336301131"/>
    <nd ref="336301134"/>
    <nd ref="336301136"/>
    <nd ref="336301137"/>
    <nd ref="336301140"/>
    <nd ref="336301142"/>
    <nd ref="336301143"/>
    <nd ref="336301145"/>
    <nd ref="336301146"/>
    <nd ref="336301148"/>
    <nd ref="336301150"/>
    <nd ref="336301152"/>
    <nd ref="336301153"/>
    <nd ref="336301155"/>
    <nd ref="336301156"/>
    <nd ref="336301158"/>
    <nd ref="336301160"/>
    <nd ref="336301162"/>
    <nd ref="336301117"/>
    <tag k="highway" v="residential"/>
    <tag k="maxspeed" v="50"/>
    <tag k="maxspeed:source" v="default residential speed limit in Australia"/>
    <tag k="name" v="Lorimer Street"/>
    <tag k="source" v="GPS"/>
  </way>
  <way id="30479021" version="5" timestamp="2012-01-18T04:16:10Z" uid="147510" user="woodpeck_fixbot" changeset="10424025">
    <nd ref="338168448"/>
    <nd ref="338168449"/>
    <nd ref="336301116"/>
    <nd ref="336301117"/>
    <nd ref="336301119"/>
    <nd ref="336301121"/>
    <nd ref="336301122"/>
    <nd ref="336301124"/>
    <nd ref="336301126"/>
    <nd ref="336301129"/>
    <nd ref="336301131"/>
    <nd ref="336301134"/>
    <nd ref="336301136"/>
    <nd ref="336301137"/>
    <nd ref="336301140"/>
    <nd ref="336301142"/>
    <nd ref="336301143"/>
    <nd ref="336301145"/>
    <nd ref="336301146"/>
    <nd ref="336301148"/>
    <nd ref="336301150"/>
    <nd ref="336301152"/>
    <nd ref="336301153"/>
    <nd ref="336301155"/>
    <nd ref="336301156"/>
    <nd ref="336301158"/>
    <nd ref="336301160"/>
    <nd ref="336301162"/>
    <nd ref="336301117"/>
    <tag k="highway" v="residential"/>
    <tag k="name" v="Lorimer Street"/>
    <tag k="source" v="GPS"/>
  </way>
  <way id="30479022" version="5" timestamp="2010-05-02T16:42:07Z" uid="58091" user="Andreas M" changeset="4587162"/>
  <way id="30479053" version="2" timestamp="2010-07-08T16:30:49Z" uid="74617" user="JohnSmith" changeset="5167338">
    <nd ref="336301160"/>
    <nd ref="336301515"/>
    <nd ref="336301517"/>
    <nd ref="336301520"/>
    <nd ref="336301522"/>
    <nd ref="336301525"/>
    <tag k="highway" v="residential"/>
    <tag k="maxspeed" v="50"/>
    <tag k="maxspeed:source" v="default residential speed limit in Australia"/>
    <tag k="name" v="Beavis Place"/>
    <tag k="source" v="GPS"/>
  </way>
  <way id="30479053" version="3" timestamp="2012-01-18T04:16:14Z" uid="147510" user="woodpeck_fixbot" changeset="10424025">
    <nd ref="336301160"/>
    <nd ref="336301515"/>
    <nd ref="336301517"/>
    <nd ref="336301520"/>
    <nd ref="336301522"/>
    <nd ref="336301525"/>
    <tag k="highway" v="residential"/>
    <tag k="name" v="Beavis Place"/>
    <tag k="source" v="GPS"/>
  </way>
  <way id="30479071" version="2" timestamp="2010-07-08T16:30:14Z" uid="74617" user="JohnSmith" changeset="5167338">
    <nd ref="336301156"/>
    <nd ref="336301987"/>
    <nd ref="336301988"/>
    <tag k="highway" v="residential"/>
    <tag k="maxspeed" v="50"/>
    <tag k="maxspeed:source" v="default residential speed limit in Australia"/>
    <tag k="name" v="Bean Place"/>
    <tag k="source" v="GPS"/>
  </way>
  <way id="30479071" version="3" timestamp="2012-01-18T04:16:15Z" uid="147510" user="woodpeck_fixbot" changeset="10424025">
    <nd ref="336301156"/>
    <nd ref="336301987"/>
    <nd ref="336301988"/>
    <tag k="highway" v="residential"/>
    <tag k="name" v="Bean Place"/>
    <tag k="source" v="GPS"/>
  </way>
  <way id="30479089" version="2" timestamp="2010-07-08T16:30:07Z" uid="74617" user="JohnSmith" changeset="5167338">
    <nd ref="336301155"/>
    <nd ref="336302419"/>
    <nd ref="336302420"/>
    <nd ref="336302421"/>
    <nd ref="336302422"/>
    <tag k="highway" v="residential"/>
    <tag k="maxspeed" v="50"/>
    <tag k="maxspeed:source" v="default residential speed limit in Australia"/>
    <tag k="name" v="Sherman Place"/>
    <tag k="source" v="GPS"/>
  </way>
  <way id="30479089" version="3" timestamp="2012-01-18T04:16:17Z" uid="147510" user="woodpeck_fixbot" changeset="10424025">
    <nd ref="336301155"/>
    <nd ref="336302419"/>
    <nd ref="336302420"/>
    <nd ref="336302421"/>
    <nd ref="336302422"/>
    <tag k="highway" v="residential"/>
    <tag k="name" v="Sherman Place"/>
    <tag k="source" v="GPS"/>
  </way>
  <way id="30479120" version="2" timestamp="2009-09-22T05:59:26Z" uid="4467" user="Rosscoe" changeset="2565302">
    <nd ref="336303592"/>
    <nd ref="336303594"/>
    <nd ref="336303595"/>
    <nd ref="336303596"/>
    <nd ref="336303598"/>
    <tag k="highway" v="residential"/>
    <tag k="name" v="Endurance Court"/>
    <tag k="source" v="survey"/>
  </way>
  <way id="30479120" version="3" timestamp="2010-07-08T16:26:54Z" uid="74617" user="JohnSmith" changeset="5167338">
    <nd ref="336303592"/>
    <nd ref="336303594"/>
    <nd ref="336303595"/>
    <nd ref="336303596"/>
    <nd ref="336303598"/>
    <tag k="highway" v="residential"/>
    <tag k="maxspeed" v="50"/>
    <tag k="maxspeed:source" v="default residential speed limit in Australia"/>
    <tag k="name" v="Endurance Court"/>
    <tag k="source" v="survey"/>
  </way>
  <way id="30479120" version="4" timestamp="2012-01-18T04:16:19Z" uid="147510" user="woodpeck_fixbot" changeset="10424025">
    <nd ref="336303592"/>
    <nd ref="336303594"/>
    <nd ref="336303595"/>
    <nd ref="336303596"/>
    <nd ref="336303598"/>
    <tag k="highway" v="residential"/>
    <tag k="name" v="Endurance Court"/>
    <tag k="source" v="survey"/>
  </way>
  <way id="30479162" version="4" timestamp="2010-05-07T12:56:04Z" uid="4467" user="Rosscoe" changeset="4629833">
    <nd ref="269359695"/>
    <nd ref="269358917"/>
    <nd ref="336304549"/>
    <nd ref="332050052"/>
    <nd ref="336304547"/>
    <nd ref="332050004"/>
    <nd ref="269359589"/>
    <nd ref="269359695"/>
    <tag k="highway" v="primary"/>
    <tag k="junction" v="roundabout"/>
    <tag k="name" v="Grandstand Road"/>
  </way>
  <way id="30479162" version="5" timestamp="2010-05-08T05:28:58Z" uid="4467" user="Rosscoe" changeset="4635779">
    <nd ref="269359695"/>
    <nd ref="725884310"/>
    <nd ref="269358917"/>
    <nd ref="336304549"/>
    <nd ref="332050052"/>
    <nd ref="725884318"/>
    <nd ref="336304547"/>
    <nd ref="332050004"/>
    <nd ref="269359589"/>
    <nd ref="269359695"/>
    <tag k="highway" v="primary"/>
    <tag k="junction" v="roundabout"/>
  </way>
  <way id="30479162" version="6" timestamp="2010-05-31T00:17:23Z" uid="294850" user="Q4004" changeset="4858803"/>
  <way id="30479164" version="2" timestamp="2010-07-08T16:29:18Z" uid="74617" user="JohnSmith" changeset="5167338">
    <nd ref="336299155"/>
    <nd ref="336304567"/>
    <nd ref="336304568"/>
    <nd ref="336303595"/>
    <tag k="highway" v="residential"/>
    <tag k="maxspeed" v="50"/>
    <tag k="maxspeed:source" v="default residential speed limit in Australia"/>
    <tag k="name" v="Stinson Street"/>
    <tag k="source" v="GPS"/>
  </way>
  <way id="30479164" version="3" timestamp="2012-01-18T04:16:20Z" uid="147510" user="woodpeck_fixbot" changeset="10424025">
    <nd ref="336299155"/>
    <nd ref="336304567"/>
    <nd ref="336304568"/>
    <nd ref="336303595"/>
    <tag k="highway" v="residential"/>
    <tag k="name" v="Stinson Street"/>
    <tag k="source" v="GPS"/>
  </way>
  <way id="30479181" version="2" timestamp="2010-07-08T16:26:59Z" uid="74617" user="JohnSmith" changeset="5167338">
    <nd ref="336304568"/>
    <nd ref="336305019"/>
    <nd ref="336305020"/>
    <nd ref="336305021"/>
    <tag k="highway" v="residential"/>
    <tag k="maxspeed" v="50"/>
    <tag k="maxspeed:source" v="default residential speed limit in Australia"/>
    <tag k="name" v="Wild Close"/>
    <tag k="source" v="GPS"/>
  </way>
  <way id="30479181" version="3" timestamp="2012-01-18T04:16:22Z" uid="147510" user="woodpeck_fixbot" changeset="10424025">
    <nd ref="336304568"/>
    <nd ref="336305019"/>
    <nd ref="336305020"/>
    <nd ref="336305021"/>
    <tag k="highway" v="residential"/>
    <tag k="name" v="Wild Close"/>
    <tag k="source" v="GPS"/>
  </way>
  <way id="30479197" version="2" timestamp="2010-07-08T16:29:33Z" uid="74617" user="JohnSmith" changeset="5167338">
    <nd ref="336301137"/>
    <nd ref="336305762"/>
    <nd ref="336305763"/>
    <nd ref="336305764"/>
    <nd ref="336305765"/>
    <nd ref="336304567"/>
    <tag k="highway" v="residential"/>
    <tag k="maxspeed" v="50"/>
    <tag k="maxspeed:source" v="default residential speed limit in Australia"/>
    <tag k="name" v="Braham Street"/>
  </way>
  <way id="30479197" version="3" timestamp="2012-01-18T04:16:24Z" uid="147510" user="woodpeck_fixbot" changeset="10424025">
    <nd ref="336301137"/>
    <nd ref="336305762"/>
    <nd ref="336305763"/>
    <nd ref="336305764"/>
    <nd ref="336305765"/>
    <nd ref="336304567"/>
    <tag k="highway" v="residential"/>
    <tag k="name" v="Braham Street"/>
  </way>
  <way id="30479222" version="1" timestamp="2009-01-25T14:18:46Z" uid="58091" user="Andreas M" changeset="834065">
    <nd ref="17314590"/>
    <nd ref="336306161"/>
    <nd ref="336306164"/>
    <nd ref="336306169"/>
    <nd ref="336306173"/>
    <nd ref="336306176"/>
    <nd ref="336306179"/>
    <nd ref="336306182"/>
    <nd ref="17314592"/>
    <tag k="access" v="private"/>
    <tag k="highway" v="service"/>
    <tag k="oneway" v="yes"/>
  </way>
  <way id="30479222" version="2" timestamp="2011-08-13T13:12:17Z" uid="56501" user="Rudolf_H" changeset="9005403">
    <nd ref="17314590"/>
    <nd ref="336306161"/>
    <nd ref="336306164"/>
    <nd ref="336306169"/>
    <nd ref="336306173"/>
    <nd ref="336306176"/>
    <nd ref="336306179"/>
    <nd ref="1397059963"/>
    <nd ref="336306182"/>
    <nd ref="17314592"/>
    <tag k="access" v="private"/>
    <tag k="highway" v="service"/>
    <tag k="oneway" v="yes"/>
  </way>
  <way id="30479223" version="1" timestamp="2009-01-25T14:18:46Z" uid="58091" user="Andreas M" changeset="834065">
    <nd ref="17314585"/>
    <nd ref="33469878"/>
    <nd ref="17314582"/>
    <tag k="created_by" v="Potlatch 0.10f"/>
    <tag k="highway" v="residential"/>
    <tag k="name" v="Engerthstraße"/>
  </way>
  <way id="30479223" version="2" timestamp="2009-06-02T23:10:36Z" uid="56501" user="Rudolf_H" changeset="1409332">
    <nd ref="17314585"/>
    <nd ref="33469878"/>
    <nd ref="17314582"/>
    <tag k="highway" v="residential"/>
    <tag k="name" v="Engerthstraße"/>
  </way>
  <way id="30479223" version="3" timestamp="2012-03-15T21:16:17Z" uid="99800" user="wolfbert" changeset="10992957"/>
  <way id="30479224" version="1" timestamp="2009-01-25T14:18:47Z" uid="58091" user="Andreas M" changeset="834065">
    <nd ref="31384790"/>
    <nd ref="17314587"/>
    <nd ref="31384850"/>
    <nd ref="316826425"/>
    <nd ref="27209217"/>
    <nd ref="316826436"/>
    <nd ref="316826476"/>
    <nd ref="17314589"/>
    <nd ref="31384853"/>
    <nd ref="316826738"/>
    <nd ref="316827078"/>
    <nd ref="17314590"/>
    <tag k="created_by" v="Potlatch 0.10f"/>
    <tag k="highway" v="unclassified"/>
    <tag k="name" v="Vorgartenstraße"/>
  </way>
  <way id="30479224" version="2" timestamp="2009-02-26T06:07:15Z" uid="99800" user="wolfbert" changeset="672522">
    <nd ref="31384790"/>
    <nd ref="17314587"/>
    <nd ref="31384850"/>
    <tag k="created_by" v="Potlatch 0.10f"/>
    <tag k="highway" v="unclassified"/>
    <tag k="name" v="Vorgartenstraße"/>
  </way>
  <way id="30479224" version="3" timestamp="2011-11-02T22:00:19Z" uid="547762" user="Viennaliving" changeset="9726255">
    <nd ref="31384790"/>
    <nd ref="17314587"/>
    <nd ref="31384850"/>
    <tag k="addr:street" v="vorgartenstrasse 188"/>
    <tag k="highway" v="living_street"/>
    <tag k="name" v="www.viennaliving.at"/>
    <tag k="tourism" v="guest_house"/>
  </way>
  <way id="30479224" version="4" timestamp="2011-11-03T07:00:37Z" uid="507210" user="slurm" changeset="9728037">
    <nd ref="31384790"/>
    <nd ref="17314587"/>
    <nd ref="31384850"/>
    <tag k="highway" v="unclassified"/>
    <tag k="name" v="Vorgartenstraße"/>
  </way>
  <way id="30479224" version="5" timestamp="2012-03-15T21:16:17Z" uid="99800" user="wolfbert" changeset="10992957"/>
  <way id="30479225" version="1" timestamp="2009-01-25T14:18:48Z" uid="58091" user="Andreas M" changeset="834065">
    <nd ref="60627240"/>
    <nd ref="17314583"/>
    <tag k="created_by" v="Potlatch 0.10f"/>
    <tag k="highway" v="tertiary"/>
    <tag k="is_in" v="Austria,Wien"/>
    <tag k="maxspeed" v="50"/>
    <tag k="name" v="Vorgartenstraße"/>
  </way>
  <way id="30479225" version="2" timestamp="2011-02-26T19:12:37Z" uid="99800" user="wolfbert" changeset="7403329">
    <nd ref="60627240"/>
    <nd ref="17314583"/>
    <tag k="highway" v="tertiary"/>
    <tag k="is_in" v="Austria,Wien"/>
    <tag k="maxspeed" v="50"/>
    <tag k="name" v="Vorgartenstraße"/>
    <tag k="source:maxspeed" v="AT:urban"/>
  </way>
  <way id="30479225" version="3" timestamp="2011-03-08T22:16:45Z" uid="99800" user="wolfbert" changeset="7499247">
    <nd ref="60627240"/>
    <nd ref="1193538899"/>
    <nd ref="17314583"/>
    <tag k="highway" v="tertiary"/>
    <tag k="is_in" v="Austria,Wien"/>
    <tag k="maxspeed" v="50"/>
    <tag k="name" v="Vorgartenstraße"/>
    <tag k="source:maxspeed" v="AT:urban"/>
  </way>
  <way id="30479225" version="4" timestamp="2012-02-01T17:18:19Z" uid="289334" user="Soldier Boy" changeset="10560593">
    <nd ref="60627240"/>
    <nd ref="1193538899"/>
    <nd ref="1614426051"/>
    <nd ref="17314583"/>
    <tag k="highway" v="tertiary"/>
    <tag k="is_in" v="Austria,Wien"/>
    <tag k="maxspeed" v="50"/>
    <tag k="name" v="Vorgartenstraße"/>
    <tag k="source:maxspeed" v="AT:urban"/>
  </way>
  <way id="30479225" version="5" timestamp="2012-03-15T21:16:17Z" uid="99800" user="wolfbert" changeset="10992957"/>
  <way id="30479226" version="1" timestamp="2009-01-25T14:18:48Z" uid="58091" user="Andreas M" changeset="834065">
    <nd ref="33370339"/>
    <nd ref="60627223"/>
    <nd ref="60627249"/>
    <tag k="created_by" v="Potlatch 0.10f"/>
    <tag k="highway" v="secondary"/>
    <tag k="maxspeed" v="50"/>
    <tag k="name" v="Ausstellungsstraße"/>
  </way>
  <way id="30479226" version="2" timestamp="2011-02-27T13:38:48Z" uid="99800" user="wolfbert" changeset="7410754">
    <nd ref="33370339"/>
    <nd ref="60627223"/>
    <nd ref="60627249"/>
    <tag k="highway" v="secondary"/>
    <tag k="maxspeed" v="50"/>
    <tag k="name" v="Ausstellungsstraße"/>
  </way>
  <way id="30479226" version="3" timestamp="2012-02-01T17:09:25Z" uid="129531" user="almich" changeset="10560511"/>
  <way id="30479228" version="1" timestamp="2009-01-25T14:18:49Z" uid="58091" user="Andreas M" changeset="834065">
    <nd ref="76766421"/>
    <nd ref="33370283"/>
    <nd ref="33370339"/>
    <tag k="created_by" v="Potlatch 0.10f"/>
    <tag k="highway" v="secondary"/>
    <tag k="maxspeed" v="50"/>
    <tag k="name" v="Ausstellungsstraße"/>
  </way>
  <way id="30479228" version="2" timestamp="2011-02-27T13:38:52Z" uid="99800" user="wolfbert" changeset="7410754">
    <nd ref="76766421"/>
    <nd ref="33370283"/>
    <nd ref="33370339"/>
    <tag k="highway" v="secondary"/>
    <tag k="maxspeed" v="50"/>
    <tag k="name" v="Ausstellungsstraße"/>
  </way>
  <way id="30479228" version="3" timestamp="2011-08-13T13:52:33Z" uid="99800" user="wolfbert" changeset="9005685">
    <nd ref="76766421"/>
    <nd ref="33370283"/>
    <tag k="highway" v="secondary"/>
    <tag k="maxspeed" v="50"/>
    <tag k="name" v="Ausstellungsstraße"/>
  </way>
  <way id="30479228" version="4" timestamp="2012-02-01T17:09:25Z" uid="129531" user="almich" changeset="10560511"/>
  <way id="30479229" version="1" timestamp="2009-01-25T14:18:49Z" uid="58091" user="Andreas M" changeset="834065">
    <nd ref="33471924"/>
    <nd ref="33472353"/>
    <nd ref="26977736"/>
    <tag k="created_by" v="Potlatch 0.10f"/>
    <tag k="highway" v="residential"/>
    <tag k="name" v="Ennsgasse"/>
    <tag k="oneway" v="yes"/>
  </way>
  <way id="30479229" version="2" timestamp="2009-02-17T17:52:43Z" uid="58091" user="Andreas M" changeset="518785">
    <nd ref="33471924"/>
    <nd ref="33472353"/>
    <nd ref="346894913"/>
    <nd ref="26977736"/>
    <tag k="created_by" v="Potlatch 0.10f"/>
    <tag k="highway" v="residential"/>
    <tag k="name" v="Ennsgasse"/>
    <tag k="oneway" v="yes"/>
  </way>
  <way id="30479229" version="3" timestamp="2009-02-18T17:18:22Z" uid="58091" user="Andreas M" changeset="544027">
    <nd ref="33471924"/>
    <nd ref="347330483"/>
    <nd ref="33472353"/>
    <nd ref="346894913"/>
    <nd ref="26977736"/>
    <tag k="created_by" v="Potlatch 0.10f"/>
    <tag k="highway" v="residential"/>
    <tag k="name" v="Ennsgasse"/>
    <tag k="oneway" v="yes"/>
  </way>
  <way id="30479229" version="4" timestamp="2009-02-19T16:14:16Z" uid="58091" user="Andreas M" changeset="554467">
    <nd ref="33471924"/>
    <nd ref="347330483"/>
    <nd ref="33472353"/>
    <nd ref="346894913"/>
    <nd ref="26977736"/>
    <tag k="created_by" v="Potlatch 0.10f"/>
    <tag k="highway" v="residential"/>
    <tag k="maxspeed" v="30"/>
    <tag k="name" v="Ennsgasse"/>
    <tag k="oneway" v="yes"/>
  </way>
  <way id="30479229" version="5" timestamp="2009-02-20T13:51:03Z" uid="58091" user="Andreas M" changeset="572748">
    <nd ref="33471924"/>
    <nd ref="347330483"/>
    <nd ref="348036214"/>
    <nd ref="33472353"/>
    <nd ref="348036215"/>
    <nd ref="346894913"/>
    <nd ref="26977736"/>
    <tag k="created_by" v="Potlatch 0.10f"/>
    <tag k="highway" v="residential"/>
    <tag k="maxspeed" v="30"/>
    <tag k="name" v="Ennsgasse"/>
    <tag k="oneway" v="yes"/>
  </way>
  <way id="30479229" version="6" timestamp="2011-02-25T14:27:00Z" uid="99800" user="wolfbert" changeset="7390913">
    <nd ref="33471924"/>
    <nd ref="347330483"/>
    <nd ref="348036214"/>
    <nd ref="33472353"/>
    <nd ref="348036215"/>
    <nd ref="346894913"/>
    <nd ref="1172270138"/>
    <nd ref="26977736"/>
    <tag k="highway" v="residential"/>
    <tag k="maxspeed" v="30"/>
    <tag k="name" v="Ennsgasse"/>
    <tag k="oneway" v="yes"/>
  </way>
  <way id="30479229" version="7" timestamp="2011-02-25T20:13:54Z" uid="99800" user="wolfbert" changeset="7393980">
    <nd ref="33471924"/>
    <nd ref="347330483"/>
    <nd ref="348036214"/>
    <nd ref="33472353"/>
    <nd ref="348036215"/>
    <nd ref="346894913"/>
    <nd ref="1172270253"/>
    <nd ref="1172270138"/>
    <nd ref="26977736"/>
    <tag k="highway" v="residential"/>
    <tag k="maxspeed" v="30"/>
    <tag k="name" v="Ennsgasse"/>
    <tag k="oneway" v="yes"/>
  </way>
  <way id="30479229" version="8" timestamp="2011-02-26T18:29:52Z" uid="99800" user="wolfbert" changeset="7402895">
    <nd ref="33471924"/>
    <nd ref="347330483"/>
    <nd ref="348036214"/>
    <nd ref="33472353"/>
    <nd ref="348036215"/>
    <nd ref="346894913"/>
    <nd ref="1172270253"/>
    <nd ref="1172270138"/>
    <nd ref="26977736"/>
    <tag k="highway" v="residential"/>
    <tag k="maxspeed" v="30"/>
    <tag k="name" v="Ennsgasse"/>
    <tag k="oneway" v="yes"/>
    <tag k="source:maxspeed" v="zone"/>
  </way>
  <way id="30479229" version="9" timestamp="2011-02-27T14:18:24Z" uid="99800" user="wolfbert" changeset="7411182">
    <nd ref="33471924"/>
    <nd ref="347330483"/>
    <nd ref="348036214"/>
    <nd ref="33472353"/>
    <nd ref="348036215"/>
    <nd ref="346894913"/>
    <nd ref="1172270253"/>
    <nd ref="1172270138"/>
    <nd ref="26977736"/>
    <tag k="highway" v="residential"/>
    <tag k="maxspeed" v="30"/>
    <tag k="name" v="Ennsgasse"/>
    <tag k="oneway" v="yes"/>
    <tag k="source:maxspeed" v="AT:zone"/>
  </way>
  <way id="30479229" version="10" timestamp="2011-03-08T11:13:02Z" uid="99800" user="wolfbert" changeset="7492964">
    <nd ref="33471924"/>
    <nd ref="347330483"/>
    <nd ref="348036214"/>
    <nd ref="33472353"/>
    <nd ref="348036215"/>
    <nd ref="346894913"/>
    <nd ref="1172270253"/>
    <nd ref="1172270138"/>
    <nd ref="26977736"/>
    <tag k="highway" v="residential"/>
    <tag k="maxspeed" v="30"/>
    <tag k="name" v="Ennsgasse"/>
    <tag k="oneway" v="yes"/>
    <tag k="source:maxspeed" v="AT:zone:30"/>
  </way>
  <way id="30479229" version="11" timestamp="2012-02-22T16:46:34Z" uid="99800" user="wolfbert" changeset="10760808">
    <nd ref="33471924"/>
    <nd ref="347330483"/>
    <nd ref="348036214"/>
    <nd ref="33472353"/>
    <nd ref="348036215"/>
    <nd ref="346894913"/>
    <nd ref="1172270253"/>
    <nd ref="1172270138"/>
    <nd ref="26977736"/>
    <tag k="highway" v="residential"/>
    <tag k="maxspeed" v="30"/>
    <tag k="name" v="Ennsgasse"/>
    <tag k="odbl" v="clean"/>
    <tag k="oneway" v="yes"/>
    <tag k="source:maxspeed" v="AT:zone:30"/>
  </way>
  <way id="30479229" version="12" timestamp="2012-03-02T12:23:03Z" uid="99800" user="wolfbert" changeset="10847705">
    <nd ref="33471924"/>
    <nd ref="347330483"/>
    <nd ref="348036214"/>
    <nd ref="33472353"/>
    <nd ref="348036215"/>
    <nd ref="346894913"/>
    <nd ref="1172270253"/>
    <nd ref="1172270138"/>
    <nd ref="26977736"/>
    <tag k="highway" v="residential"/>
    <tag k="maxspeed" v="30"/>
    <tag k="name" v="Ennsgasse"/>
    <tag k="oneway" v="yes"/>
    <tag k="source:maxspeed" v="AT:zone:30"/>
  </way>
  <way id="30479229" version="13" timestamp="2012-03-10T00:08:08Z" uid="99800" user="wolfbert" changeset="10927244"/>
  <way id="30479230" version="1" timestamp="2009-01-25T14:18:49Z" uid="58091" user="Andreas M" changeset="834065">
    <nd ref="32452092"/>
    <nd ref="32452135"/>
    <nd ref="32451981"/>
    <nd ref="223622837"/>
    <nd ref="60627212"/>
    <nd ref="60627211"/>
    <nd ref="247749760"/>
    <tag k="created_by" v="JOSM"/>
    <tag k="highway" v="residential"/>
    <tag k="name" v="Walcherstraße"/>
  </way>
  <way id="30479230" version="2" timestamp="2009-01-25T14:39:00Z" uid="58091" user="Andreas M" changeset="834065">
    <nd ref="32452092"/>
    <nd ref="32452135"/>
    <nd ref="32451981"/>
    <nd ref="223622837"/>
    <tag k="created_by" v="JOSM"/>
    <tag k="highway" v="residential"/>
    <tag k="name" v="Walcherstraße"/>
  </way>
  <way id="30479230" version="3" timestamp="2009-10-08T17:18:43Z" uid="181274" user="fossie" changeset="2785441">
    <nd ref="32452092"/>
    <nd ref="526018858"/>
    <nd ref="32452135"/>
    <nd ref="32451981"/>
    <nd ref="223622837"/>
    <tag k="highway" v="residential"/>
    <tag k="name" v="Walcherstraße"/>
  </way>
  <way id="30479230" version="4" timestamp="2012-02-12T18:55:58Z" uid="302363" user="fkv" changeset="10666629">
    <nd ref="1630231400"/>
    <nd ref="526018858"/>
    <nd ref="32452135"/>
    <nd ref="32451981"/>
    <nd ref="223622837"/>
    <tag k="highway" v="residential"/>
    <tag k="name" v="Walcherstraße"/>
  </way>
  <way id="30479230" version="5" timestamp="2012-03-10T15:14:54Z" uid="99800" user="wolfbert" changeset="10932830">
    <nd ref="1630231502"/>
    <nd ref="526018858"/>
    <nd ref="32452135"/>
    <nd ref="32451981"/>
    <nd ref="223622837"/>
    <tag k="highway" v="residential"/>
    <tag k="name" v="Walcherstraße"/>
  </way>
  <way id="30479231" version="1" timestamp="2009-01-25T14:18:50Z" uid="58091" user="Andreas M" changeset="834065">
    <nd ref="223621943"/>
    <nd ref="223621948"/>
    <nd ref="247749760"/>
    <tag k="created_by" v="Potlatch 0.7b"/>
    <tag k="highway" v="residential"/>
    <tag k="oneway" v="yes"/>
  </way>
  <way id="30479231" version="2" timestamp="2009-01-25T14:47:34Z" uid="58091" user="Andreas M" changeset="834065">
    <nd ref="684998"/>
    <nd ref="223621932"/>
    <nd ref="223621936"/>
    <nd ref="223621940"/>
    <nd ref="223621943"/>
    <nd ref="223621948"/>
    <tag k="created_by" v="Potlatch 0.7b"/>
    <tag k="highway" v="residential"/>
    <tag k="name" v="Walcherstraße"/>
    <tag k="oneway" v="yes"/>
  </way>
  <way id="30479231" version="3" timestamp="2009-03-20T17:53:43Z" uid="58091" user="Andreas M" changeset="837012">
    <nd ref="684998"/>
    <nd ref="223621932"/>
    <nd ref="223621936"/>
    <nd ref="223621940"/>
    <nd ref="364113341"/>
    <nd ref="223621943"/>
    <nd ref="223621948"/>
    <tag k="created_by" v="Potlatch 0.7b"/>
    <tag k="highway" v="residential"/>
    <tag k="name" v="Walcherstraße"/>
    <tag k="oneway" v="yes"/>
  </way>
  <way id="30479231" version="4" timestamp="2009-03-28T16:47:04Z" uid="58091" user="Andreas M" changeset="865858">
    <nd ref="684998"/>
    <nd ref="223621932"/>
    <nd ref="223621936"/>
    <nd ref="366606159"/>
    <nd ref="223621940"/>
    <nd ref="364113341"/>
    <nd ref="223621943"/>
    <nd ref="223621948"/>
    <tag k="created_by" v="Potlatch 0.7b"/>
    <tag k="highway" v="residential"/>
    <tag k="name" v="Walcherstraße"/>
    <tag k="oneway" v="yes"/>
  </way>
  <way id="30479231" version="5" timestamp="2009-10-06T11:02:22Z" uid="162286" user="sdsiudv" changeset="2759573">
    <nd ref="684998"/>
    <nd ref="522726059"/>
    <nd ref="223621932"/>
    <nd ref="366606159"/>
    <nd ref="223621940"/>
    <nd ref="364113341"/>
    <nd ref="223621943"/>
    <nd ref="223621948"/>
    <tag k="highway" v="residential"/>
    <tag k="name" v="Walcherstraße"/>
    <tag k="oneway" v="yes"/>
  </way>
  <way id="30479231" version="6" timestamp="2009-12-08T00:57:13Z" uid="162286" user="sdsiudv" changeset="3321364">
    <nd ref="684998"/>
    <nd ref="522726059"/>
    <nd ref="223621932"/>
    <nd ref="366606159"/>
    <nd ref="223621940"/>
    <nd ref="364113341"/>
    <nd ref="223621943"/>
    <tag k="highway" v="residential"/>
    <tag k="name" v="Walcherstraße"/>
    <tag k="oneway" v="yes"/>
  </way>
  <way id="30479231" version="7" timestamp="2010-05-02T22:19:51Z" uid="76050" user="Wolfgang_Wasserburger" changeset="4590854">
    <nd ref="684998"/>
    <nd ref="522726059"/>
    <nd ref="223621932"/>
    <tag k="highway" v="residential"/>
    <tag k="name" v="Walcherstraße"/>
  </way>
  <way id="30479231" version="8" timestamp="2010-05-19T15:15:51Z" uid="58091" user="Andreas M" changeset="4749043">
    <nd ref="684998"/>
    <nd ref="739515705"/>
    <nd ref="522726059"/>
    <nd ref="223621932"/>
    <tag k="highway" v="service"/>
  </way>
  <way id="30479231" version="9" timestamp="2012-03-10T12:02:08Z" uid="99800" user="wolfbert" changeset="10930830"/>
  <way id="30479249" version="2" timestamp="2009-08-09T12:46:54Z" uid="4467" user="Rosscoe" changeset="2085146">
    <nd ref="336306993"/>
    <nd ref="336306994"/>
    <tag k="highway" v="residential"/>
    <tag k="name" v="Rosehill Street"/>
    <tag k="source" v="survey"/>
  </way>
  <way id="30479249" version="3" timestamp="2010-07-08T16:30:29Z" uid="74617" user="JohnSmith" changeset="5167338">
    <nd ref="336306993"/>
    <nd ref="336306994"/>
    <tag k="highway" v="residential"/>
    <tag k="maxspeed" v="50"/>
    <tag k="maxspeed:source" v="default residential speed limit in Australia"/>
    <tag k="name" v="Rosehill Street"/>
    <tag k="source" v="survey"/>
  </way>
  <way id="30479249" version="4" timestamp="2012-01-18T04:16:25Z" uid="147510" user="woodpeck_fixbot" changeset="10424025">
    <nd ref="336306993"/>
    <nd ref="336306994"/>
    <tag k="highway" v="residential"/>
    <tag k="name" v="Rosehill Street"/>
    <tag k="source" v="survey"/>
  </way>
  <way id="30479266" version="7" timestamp="2010-07-08T16:28:09Z" uid="74617" user="JohnSmith" changeset="5167338">
    <nd ref="330821051"/>
    <nd ref="336306993"/>
    <nd ref="336308281"/>
    <nd ref="330819953"/>
    <nd ref="330819954"/>
    <nd ref="336310622"/>
    <nd ref="340186661"/>
    <tag k="highway" v="residential"/>
    <tag k="maxspeed" v="50"/>
    <tag k="maxspeed:source" v="default residential speed limit in Australia"/>
    <tag k="name" v="Macquarie Street"/>
  </way>
  <way id="30479266" version="8" timestamp="2012-01-18T04:16:28Z" uid="147510" user="woodpeck_fixbot" changeset="10424025">
    <nd ref="330821051"/>
    <nd ref="336306993"/>
    <nd ref="336308281"/>
    <nd ref="330819953"/>
    <nd ref="330819954"/>
    <nd ref="336310622"/>
    <nd ref="340186661"/>
    <tag k="highway" v="residential"/>
    <tag k="name" v="Macquarie Street"/>
  </way>
  <way id="30479317" version="2" timestamp="2009-08-09T12:46:36Z" uid="4467" user="Rosscoe" changeset="2085146">
    <nd ref="336308281"/>
    <nd ref="336308284"/>
    <tag k="highway" v="residential"/>
    <tag k="name" v="Golsby Street"/>
    <tag k="source" v="survey"/>
  </way>
  <way id="30479317" version="3" timestamp="2010-07-08T16:26:46Z" uid="74617" user="JohnSmith" changeset="5167338">
    <nd ref="336308281"/>
    <nd ref="336308284"/>
    <tag k="highway" v="residential"/>
    <tag k="maxspeed" v="50"/>
    <tag k="maxspeed:source" v="default residential speed limit in Australia"/>
    <tag k="name" v="Golsby Street"/>
    <tag k="source" v="survey"/>
  </way>
  <way id="30479317" version="4" timestamp="2012-01-18T04:16:30Z" uid="147510" user="woodpeck_fixbot" changeset="10424025">
    <nd ref="336308281"/>
    <nd ref="336308284"/>
    <tag k="highway" v="residential"/>
    <tag k="name" v="Golsby Street"/>
    <tag k="source" v="survey"/>
  </way>
  <way id="30479349" version="2" timestamp="2009-08-09T12:46:37Z" uid="4467" user="Rosscoe" changeset="2085146">
    <nd ref="330846824"/>
    <nd ref="336308788"/>
    <nd ref="336308791"/>
    <nd ref="336308281"/>
    <tag k="highway" v="residential"/>
    <tag k="name" v="Patna Street"/>
    <tag k="source" v="survey"/>
  </way>
  <way id="30479349" version="3" timestamp="2010-07-08T16:30:51Z" uid="74617" user="JohnSmith" changeset="5167338">
    <nd ref="330846824"/>
    <nd ref="336308788"/>
    <nd ref="336308791"/>
    <nd ref="336308281"/>
    <tag k="highway" v="residential"/>
    <tag k="maxspeed" v="50"/>
    <tag k="maxspeed:source" v="default residential speed limit in Australia"/>
    <tag k="name" v="Patna Street"/>
    <tag k="source" v="survey"/>
  </way>
  <way id="30479349" version="4" timestamp="2012-01-18T04:16:31Z" uid="147510" user="woodpeck_fixbot" changeset="10424025">
    <nd ref="330846824"/>
    <nd ref="336308788"/>
    <nd ref="336308791"/>
    <nd ref="336308281"/>
    <tag k="highway" v="residential"/>
    <tag k="name" v="Patna Street"/>
    <tag k="source" v="survey"/>
  </way>
  <way id="30479369" version="4" timestamp="2010-06-17T21:06:58Z" uid="151899" user="Bikeman2000" changeset="5012383">
    <nd ref="336309001"/>
    <nd ref="336309005"/>
    <nd ref="775341904"/>
    <nd ref="336309009"/>
    <nd ref="775341897"/>
    <nd ref="336465750"/>
    <nd ref="775341953"/>
    <nd ref="336309013"/>
    <nd ref="336465755"/>
    <nd ref="336465763"/>
    <nd ref="336465768"/>
    <nd ref="336465773"/>
    <nd ref="336465783"/>
    <tag k="bicycle" v="yes"/>
    <tag k="highway" v="footway"/>
    <tag k="source" v="survey"/>
    <tag k="surface" v="unpaved"/>
  </way>
  <way id="30479369" version="5" timestamp="2010-06-18T18:14:48Z" uid="151899" user="Bikeman2000" changeset="5018225">
    <nd ref="336309001"/>
    <nd ref="336309005"/>
    <nd ref="775341904"/>
    <nd ref="336309009"/>
    <nd ref="775341897"/>
    <nd ref="336465750"/>
    <nd ref="775341953"/>
    <nd ref="336309013"/>
    <nd ref="336465755"/>
    <nd ref="775769315"/>
    <nd ref="336465763"/>
    <nd ref="775769318"/>
    <nd ref="336465768"/>
    <nd ref="336465773"/>
    <nd ref="336465783"/>
    <tag k="bicycle" v="yes"/>
    <tag k="highway" v="footway"/>
    <tag k="source" v="survey"/>
    <tag k="surface" v="unpaved"/>
  </way>
  <way id="30479369" version="6" timestamp="2011-03-13T19:27:25Z" uid="105839" user="jotzt" changeset="7549276">
    <nd ref="1200610446"/>
    <nd ref="1200610336"/>
    <nd ref="1200610708"/>
    <nd ref="1200610323"/>
    <nd ref="1200610653"/>
    <nd ref="1200610451"/>
    <nd ref="1200610341"/>
    <nd ref="1200610752"/>
    <nd ref="1200610405"/>
    <nd ref="1200610847"/>
    <nd ref="1200610563"/>
    <nd ref="1200610429"/>
    <nd ref="1200610529"/>
    <nd ref="1200610406"/>
    <nd ref="336465783"/>
    <tag k="bicycle" v="yes"/>
    <tag k="highway" v="footway"/>
    <tag k="source" v="survey"/>
    <tag k="surface" v="unpaved"/>
  </way>
  <way id="30479369" version="7" timestamp="2011-03-13T19:52:02Z" uid="105839" user="jotzt" changeset="7549560">
    <nd ref="1200610446"/>
    <nd ref="1200610336"/>
    <nd ref="1200610708"/>
    <nd ref="1200610323"/>
    <nd ref="1200610432"/>
    <nd ref="1200610451"/>
    <nd ref="1200610341"/>
    <nd ref="1200610752"/>
    <nd ref="1200610405"/>
    <nd ref="1200610847"/>
    <nd ref="1200610563"/>
    <nd ref="1200610429"/>
    <nd ref="1200610529"/>
    <nd ref="1200610406"/>
    <nd ref="336465783"/>
    <tag k="bicycle" v="yes"/>
    <tag k="highway" v="footway"/>
    <tag k="source" v="survey"/>
    <tag k="surface" v="unpaved"/>
  </way>
  <way id="30479369" version="8" timestamp="2011-03-22T18:04:44Z" uid="105839" user="jotzt" changeset="7639436">
    <nd ref="1200610446"/>
    <nd ref="1200610336"/>
    <nd ref="1200610708"/>
    <nd ref="1200610323"/>
    <nd ref="1200610432"/>
    <nd ref="1200610451"/>
    <nd ref="1200610341"/>
    <nd ref="1200610752"/>
    <nd ref="1200610405"/>
    <nd ref="1200610847"/>
    <nd ref="1200610563"/>
    <nd ref="1200610429"/>
    <nd ref="1200610529"/>
    <nd ref="1200610406"/>
    <nd ref="336465783"/>
    <tag k="bicycle" v="yes"/>
    <tag k="foot" v="yes"/>
    <tag k="highway" v="path"/>
    <tag k="source" v="survey"/>
    <tag k="surface" v="unpaved"/>
  </way>
  <way id="30479369" version="9" timestamp="2012-01-28T05:46:55Z" uid="173844" user="Antikalk" changeset="10518366"/>
  <way id="30479375" version="2" timestamp="2010-05-01T10:19:48Z" uid="151899" user="Bikeman2000" changeset="4573308">
    <nd ref="336309056"/>
    <nd ref="336309064"/>
    <nd ref="336309067"/>
    <nd ref="336309080"/>
    <nd ref="715157759"/>
    <nd ref="336309078"/>
    <nd ref="193235611"/>
    <nd ref="336309072"/>
    <nd ref="336309075"/>
    <nd ref="253878641"/>
    <tag k="highway" v="footway"/>
    <tag k="source" v="survey"/>
  </way>
  <way id="30479375" version="3" timestamp="2010-05-05T19:37:25Z" uid="151899" user="Bikeman2000" changeset="4616122">
    <nd ref="336309056"/>
    <nd ref="336309064"/>
    <nd ref="336309067"/>
    <nd ref="336309080"/>
    <nd ref="715157759"/>
    <nd ref="336309078"/>
    <nd ref="193235611"/>
    <nd ref="336309072"/>
    <nd ref="336309075"/>
    <nd ref="722867516"/>
    <nd ref="253878641"/>
    <tag k="highway" v="footway"/>
    <tag k="source" v="survey"/>
  </way>
  <way id="30479375" version="4" timestamp="2010-05-08T22:44:46Z" uid="151899" user="Bikeman2000" changeset="4643844">
    <nd ref="336309056"/>
    <nd ref="336309064"/>
    <nd ref="336309067"/>
    <nd ref="336309080"/>
    <nd ref="715157759"/>
    <nd ref="336309078"/>
    <nd ref="193235611"/>
    <nd ref="336309072"/>
    <nd ref="336309075"/>
    <nd ref="722867516"/>
    <nd ref="726894985"/>
    <nd ref="253878641"/>
    <tag k="highway" v="footway"/>
    <tag k="source" v="survey"/>
  </way>
  <way id="30479375" version="5" timestamp="2010-05-11T11:07:34Z" uid="151899" user="Bikeman2000" changeset="4667477">
    <nd ref="336309056"/>
    <nd ref="336309064"/>
    <nd ref="336309067"/>
    <nd ref="336309080"/>
    <nd ref="715157759"/>
    <nd ref="336309078"/>
    <nd ref="193235611"/>
    <nd ref="336309072"/>
    <nd ref="729632245"/>
    <nd ref="336309075"/>
    <nd ref="729632246"/>
    <nd ref="729632256"/>
    <nd ref="722867516"/>
    <nd ref="726894985"/>
    <nd ref="253878641"/>
    <tag k="highway" v="footway"/>
    <tag k="source" v="survey"/>
  </way>
  <way id="30479375" version="6" timestamp="2010-07-01T08:11:52Z" uid="12610" user="Burkhard" changeset="5118682">
    <nd ref="797852520"/>
    <nd ref="797852624"/>
    <nd ref="797852611"/>
    <nd ref="797852524"/>
    <nd ref="797852616"/>
    <nd ref="336309056"/>
    <nd ref="336309064"/>
    <nd ref="336309067"/>
    <nd ref="336309080"/>
    <nd ref="715157759"/>
    <nd ref="336309078"/>
    <nd ref="193235611"/>
    <nd ref="336309072"/>
    <nd ref="729632245"/>
    <nd ref="336309075"/>
    <nd ref="729632246"/>
    <nd ref="729632256"/>
    <nd ref="722867516"/>
    <nd ref="726894985"/>
    <nd ref="253878641"/>
    <tag k="highway" v="footway"/>
    <tag k="source" v="survey"/>
  </way>
  <way id="30479375" version="7" timestamp="2010-07-29T11:21:10Z" uid="12610" user="Burkhard" changeset="5345843">
    <nd ref="797852520"/>
    <nd ref="797852624"/>
    <nd ref="837381153"/>
    <nd ref="837381170"/>
    <nd ref="837381227"/>
    <nd ref="797852611"/>
    <nd ref="797852524"/>
    <nd ref="797852616"/>
    <nd ref="336309056"/>
    <nd ref="336309064"/>
    <nd ref="336309067"/>
    <nd ref="336309080"/>
    <nd ref="715157759"/>
    <nd ref="336309078"/>
    <nd ref="193235611"/>
    <nd ref="336309072"/>
    <nd ref="729632245"/>
    <nd ref="336309075"/>
    <nd ref="729632246"/>
    <nd ref="729632256"/>
    <nd ref="722867516"/>
    <nd ref="726894985"/>
    <nd ref="253878641"/>
    <tag k="highway" v="footway"/>
    <tag k="source" v="survey"/>
  </way>
  <way id="30479375" version="8" timestamp="2010-11-29T21:29:02Z" uid="365589" user="duesseldorf" changeset="6490015"/>
  <way id="30479378" version="3" timestamp="2010-05-06T09:29:48Z" uid="151899" user="Bikeman2000" changeset="4619837">
    <nd ref="336309082"/>
    <nd ref="724035829"/>
    <nd ref="724035843"/>
    <nd ref="336309084"/>
    <nd ref="724035845"/>
    <nd ref="258359560"/>
    <nd ref="379738757"/>
    <tag k="highway" v="footway"/>
  </way>
  <way id="30479378" version="4" timestamp="2010-07-01T08:11:56Z" uid="12610" user="Burkhard" changeset="5118682"/>
  <way id="30479401" version="2" timestamp="2009-08-09T12:46:48Z" uid="4467" user="Rosscoe" changeset="2085146">
    <nd ref="336309785"/>
    <nd ref="336309786"/>
    <nd ref="336309788"/>
    <nd ref="336309790"/>
    <tag k="highway" v="residential"/>
    <tag k="name" v="Beddie Street"/>
    <tag k="source" v="survey"/>
  </way>
  <way id="30479401" version="3" timestamp="2010-07-08T16:30:03Z" uid="74617" user="JohnSmith" changeset="5167338">
    <nd ref="336309785"/>
    <nd ref="336309786"/>
    <nd ref="336309788"/>
    <nd ref="336309790"/>
    <tag k="highway" v="residential"/>
    <tag k="maxspeed" v="50"/>
    <tag k="maxspeed:source" v="default residential speed limit in Australia"/>
    <tag k="name" v="Beddie Street"/>
    <tag k="source" v="survey"/>
  </way>
  <way id="30479401" version="4" timestamp="2012-01-18T04:16:32Z" uid="147510" user="woodpeck_fixbot" changeset="10424025">
    <nd ref="336309785"/>
    <nd ref="336309786"/>
    <nd ref="336309788"/>
    <nd ref="336309790"/>
    <tag k="highway" v="residential"/>
    <tag k="name" v="Beddie Street"/>
    <tag k="source" v="survey"/>
  </way>
  <way id="30479444" version="6" timestamp="2010-04-11T13:53:53Z" uid="74617" user="JohnSmith" changeset="4393903">
    <nd ref="332301255"/>
    <nd ref="332340125"/>
    <nd ref="336309668"/>
    <nd ref="336310211"/>
    <nd ref="336309680"/>
    <nd ref="336310273"/>
    <nd ref="336309692"/>
    <nd ref="336309701"/>
    <nd ref="339611232"/>
    <nd ref="336309713"/>
    <nd ref="336309724"/>
    <nd ref="336309737"/>
    <nd ref="336309752"/>
    <nd ref="336309763"/>
    <nd ref="342523643"/>
    <nd ref="336309777"/>
    <nd ref="342523531"/>
    <nd ref="336319055"/>
    <nd ref="336318808"/>
    <nd ref="336309832"/>
    <nd ref="336309845"/>
    <nd ref="336309856"/>
    <nd ref="336309867"/>
    <nd ref="693071100"/>
    <nd ref="693071104"/>
    <nd ref="336309880"/>
    <nd ref="336309886"/>
    <nd ref="336309901"/>
    <nd ref="336309914"/>
    <nd ref="336309927"/>
    <nd ref="693071105"/>
    <nd ref="693071108"/>
    <nd ref="336310113"/>
    <nd ref="693071110"/>
    <nd ref="693071111"/>
    <nd ref="336310129"/>
    <nd ref="693071113"/>
    <nd ref="693071115"/>
    <nd ref="336310146"/>
    <tag k="highway" v="secondary"/>
    <tag k="name" v="Old Landsborough Road"/>
    <tag k="source" v="survey"/>
  </way>
  <way id="30479444" version="7" timestamp="2010-04-11T14:09:49Z" uid="74617" user="JohnSmith" changeset="4393903">
    <nd ref="332301255"/>
    <nd ref="332340125"/>
    <nd ref="336309668"/>
    <nd ref="336310211"/>
    <nd ref="336309680"/>
    <nd ref="336310273"/>
    <nd ref="336309692"/>
    <nd ref="336309701"/>
    <nd ref="339611232"/>
    <nd ref="336309713"/>
    <nd ref="336309724"/>
    <nd ref="336309737"/>
    <nd ref="336309752"/>
    <nd ref="336309763"/>
    <nd ref="342523643"/>
    <nd ref="336309777"/>
    <nd ref="342523531"/>
    <nd ref="336319055"/>
    <nd ref="336318808"/>
    <nd ref="336309832"/>
    <nd ref="336309845"/>
    <nd ref="336309856"/>
    <nd ref="336309867"/>
    <nd ref="693071100"/>
    <nd ref="693071104"/>
    <nd ref="336309880"/>
    <nd ref="336309886"/>
    <nd ref="336309901"/>
    <nd ref="336309914"/>
    <nd ref="336309927"/>
    <nd ref="693071105"/>
    <nd ref="693071108"/>
    <nd ref="336310113"/>
    <nd ref="693071110"/>
    <nd ref="693071111"/>
    <nd ref="336310129"/>
    <nd ref="693071113"/>
    <nd ref="693071115"/>
    <nd ref="693100387"/>
    <nd ref="336310146"/>
    <tag k="highway" v="secondary"/>
    <tag k="name" v="Old Landsborough Road"/>
    <tag k="source" v="survey"/>
  </way>
  <way id="30479444" version="8" timestamp="2010-07-31T01:44:07Z" uid="84644" user="Ash Kyd" changeset="5359486">
    <nd ref="332301255"/>
    <nd ref="332340125"/>
    <nd ref="336309668"/>
    <nd ref="336310211"/>
    <nd ref="336309680"/>
    <nd ref="336310273"/>
    <nd ref="336309692"/>
    <nd ref="336309701"/>
    <nd ref="339611232"/>
    <nd ref="336309713"/>
    <nd ref="336309724"/>
    <nd ref="336309737"/>
    <nd ref="336309752"/>
    <nd ref="336309763"/>
    <nd ref="342523643"/>
    <nd ref="336309777"/>
    <nd ref="342523531"/>
    <nd ref="336319055"/>
    <nd ref="336318808"/>
    <nd ref="336309832"/>
    <nd ref="336309845"/>
    <nd ref="336309856"/>
    <nd ref="336309867"/>
    <nd ref="693071100"/>
    <nd ref="693071104"/>
    <nd ref="336309880"/>
    <nd ref="336309886"/>
    <nd ref="839549141"/>
    <tag k="highway" v="secondary"/>
    <tag k="name" v="Old Landsborough Road"/>
    <tag k="source" v="survey"/>
  </way>
  <way id="30479447" version="4" timestamp="2010-04-12T01:47:51Z" uid="74617" user="JohnSmith" changeset="4400693">
    <nd ref="336310175"/>
    <nd ref="693974255"/>
    <nd ref="693974254"/>
    <nd ref="336310191"/>
    <nd ref="336310159"/>
    <tag k="highway" v="residential"/>
    <tag k="name" v="Katherine Street"/>
    <tag k="source" v="survey"/>
    <tag k="surface" v="paved"/>
  </way>
  <way id="30479447" version="5" timestamp="2010-07-06T18:50:06Z" uid="74617" user="JohnSmith" changeset="5152225">
    <nd ref="336310175"/>
    <nd ref="693974255"/>
    <nd ref="693974254"/>
    <nd ref="336310191"/>
    <nd ref="336310159"/>
    <tag k="highway" v="residential"/>
    <tag k="maxspeed" v="50"/>
    <tag k="maxspeed:source" v="default residential speed limit in Australia"/>
    <tag k="name" v="Katherine Street"/>
    <tag k="source" v="survey"/>
    <tag k="surface" v="paved"/>
  </way>
  <way id="30479447" version="6" timestamp="2012-01-18T04:16:34Z" uid="147510" user="woodpeck_fixbot" changeset="10424025">
    <nd ref="336310175"/>
    <nd ref="693974255"/>
    <nd ref="693974254"/>
    <nd ref="336310191"/>
    <nd ref="336310159"/>
    <tag k="highway" v="residential"/>
    <tag k="name" v="Katherine Street"/>
    <tag k="source" v="survey"/>
    <tag k="surface" v="paved"/>
  </way>
  <way id="30479448" version="3" timestamp="2010-07-06T18:56:35Z" uid="74617" user="JohnSmith" changeset="5152225">
    <nd ref="336310201"/>
    <nd ref="336310221"/>
    <nd ref="336310211"/>
    <tag k="highway" v="residential"/>
    <tag k="maxspeed" v="50"/>
    <tag k="maxspeed:source" v="default residential speed limit in Australia"/>
    <tag k="name" v="Greber Road"/>
    <tag k="source" v="survey"/>
    <tag k="surface" v="paved"/>
  </way>
  <way id="30479448" version="4" timestamp="2012-01-18T04:16:35Z" uid="147510" user="woodpeck_fixbot" changeset="10424025">
    <nd ref="336310201"/>
    <nd ref="336310221"/>
    <nd ref="336310211"/>
    <tag k="highway" v="residential"/>
    <tag k="name" v="Greber Road"/>
    <tag k="source" v="survey"/>
    <tag k="surface" v="paved"/>
  </way>
  <way id="30479450" version="4" timestamp="2010-07-06T18:54:49Z" uid="74617" user="JohnSmith" changeset="5152225">
    <nd ref="345560163"/>
    <nd ref="345560176"/>
    <nd ref="345560158"/>
    <nd ref="345560182"/>
    <nd ref="336310221"/>
    <nd ref="336310232"/>
    <tag k="highway" v="residential"/>
    <tag k="maxspeed" v="50"/>
    <tag k="maxspeed:source" v="default residential speed limit in Australia"/>
    <tag k="name" v="Acacia Drive"/>
    <tag k="source" v="survey"/>
    <tag k="surface" v="paved"/>
  </way>
  <way id="30479450" version="5" timestamp="2012-01-18T04:16:36Z" uid="147510" user="woodpeck_fixbot" changeset="10424025">
    <nd ref="345560163"/>
    <nd ref="345560176"/>
    <nd ref="345560158"/>
    <nd ref="345560182"/>
    <nd ref="336310221"/>
    <nd ref="336310232"/>
    <tag k="highway" v="residential"/>
    <tag k="name" v="Acacia Drive"/>
    <tag k="source" v="survey"/>
    <tag k="surface" v="paved"/>
  </way>
  <way id="30479451" version="3" timestamp="2010-07-06T18:49:24Z" uid="74617" user="JohnSmith" changeset="5152225">
    <nd ref="336310288"/>
    <nd ref="336309692"/>
    <tag k="highway" v="residential"/>
    <tag k="maxspeed" v="50"/>
    <tag k="maxspeed:source" v="default residential speed limit in Australia"/>
    <tag k="name" v="Newells Road"/>
    <tag k="source" v="survey"/>
    <tag k="surface" v="paved"/>
  </way>
  <way id="30479451" version="4" timestamp="2012-01-18T04:16:38Z" uid="147510" user="woodpeck_fixbot" changeset="10424025">
    <nd ref="336310288"/>
    <nd ref="336309692"/>
    <tag k="highway" v="residential"/>
    <tag k="name" v="Newells Road"/>
    <tag k="source" v="survey"/>
    <tag k="surface" v="paved"/>
  </way>
  <way id="30479452" version="3" timestamp="2010-07-06T18:52:18Z" uid="74617" user="JohnSmith" changeset="5152225">
    <nd ref="336310232"/>
    <nd ref="336310245"/>
    <nd ref="336310259"/>
    <nd ref="336310273"/>
    <tag k="highway" v="residential"/>
    <tag k="maxspeed" v="50"/>
    <tag k="maxspeed:source" v="default residential speed limit in Australia"/>
    <tag k="name" v="Montrose Street"/>
    <tag k="source" v="survey"/>
    <tag k="surface" v="paved"/>
  </way>
  <way id="30479452" version="4" timestamp="2012-01-18T04:16:40Z" uid="147510" user="woodpeck_fixbot" changeset="10424025">
    <nd ref="336310232"/>
    <nd ref="336310245"/>
    <nd ref="336310259"/>
    <nd ref="336310273"/>
    <tag k="highway" v="residential"/>
    <tag k="name" v="Montrose Street"/>
    <tag k="source" v="survey"/>
    <tag k="surface" v="paved"/>
  </way>
  <way id="30479454" version="4" timestamp="2010-07-06T18:50:32Z" uid="74617" user="JohnSmith" changeset="5152225">
    <nd ref="336309668"/>
    <nd ref="336310159"/>
    <nd ref="345560187"/>
    <nd ref="345560196"/>
    <nd ref="345560197"/>
    <tag k="highway" v="residential"/>
    <tag k="maxspeed" v="50"/>
    <tag k="maxspeed:source" v="default residential speed limit in Australia"/>
    <tag k="name" v="North Street"/>
    <tag k="source" v="survey"/>
    <tag k="surface" v="paved"/>
  </way>
  <way id="30479454" version="5" timestamp="2012-01-18T04:16:47Z" uid="147510" user="woodpeck_fixbot" changeset="10424025">
    <nd ref="336309668"/>
    <nd ref="336310159"/>
    <nd ref="345560187"/>
    <nd ref="345560196"/>
    <nd ref="345560197"/>
    <tag k="highway" v="residential"/>
    <tag k="name" v="North Street"/>
    <tag k="source" v="survey"/>
    <tag k="surface" v="paved"/>
  </way>
  <way id="30479456" version="2" timestamp="2009-08-09T12:46:53Z" uid="4467" user="Rosscoe" changeset="2085146">
    <nd ref="336310622"/>
    <nd ref="336310624"/>
    <tag k="highway" v="residential"/>
    <tag k="name" v="Annesley Street"/>
    <tag k="source" v="survey"/>
  </way>
  <way id="30479456" version="3" timestamp="2010-07-08T16:27:13Z" uid="74617" user="JohnSmith" changeset="5167338">
    <nd ref="336310622"/>
    <nd ref="336310624"/>
    <tag k="highway" v="residential"/>
    <tag k="maxspeed" v="50"/>
    <tag k="maxspeed:source" v="default residential speed limit in Australia"/>
    <tag k="name" v="Annesley Street"/>
    <tag k="source" v="survey"/>
  </way>
  <way id="30479456" version="4" timestamp="2012-01-18T04:16:48Z" uid="147510" user="woodpeck_fixbot" changeset="10424025">
    <nd ref="336310622"/>
    <nd ref="336310624"/>
    <tag k="highway" v="residential"/>
    <tag k="name" v="Annesley Street"/>
    <tag k="source" v="survey"/>
  </way>
  <way id="30479487" version="4" timestamp="2009-02-01T20:55:32Z" uid="6975" user="ulfl" changeset="27333">
    <nd ref="294643660"/>
    <nd ref="336311163"/>
    <nd ref="336311164"/>
    <nd ref="113375438"/>
    <tag k="foot" v="Fußweg"/>
    <tag k="highway" v="footway"/>
    <tag k="surface" v="sand"/>
  </way>
  <way id="30479487" version="5" timestamp="2009-03-05T21:02:38Z" uid="43566" user="anbr" changeset="740666">
    <nd ref="294643660"/>
    <nd ref="336311163"/>
    <nd ref="336311164"/>
    <nd ref="113375438"/>
    <tag k="foot" v="yes"/>
    <tag k="highway" v="footway"/>
    <tag k="surface" v="sand"/>
  </way>
  <way id="30479487" version="6" timestamp="2009-08-05T04:22:17Z" uid="152008" user="Christof" changeset="2041570">
    <nd ref="294643660"/>
    <nd ref="456685765"/>
    <nd ref="456685764"/>
    <nd ref="456685767"/>
    <nd ref="456685766"/>
    <nd ref="456685769"/>
    <nd ref="456685768"/>
    <nd ref="456685770"/>
    <nd ref="336311163"/>
    <nd ref="456685772"/>
    <nd ref="456685773"/>
    <nd ref="456685771"/>
    <nd ref="456685775"/>
    <nd ref="456685774"/>
    <nd ref="456685777"/>
    <nd ref="456685776"/>
    <nd ref="336311164"/>
    <nd ref="113375438"/>
    <tag k="foot" v="yes"/>
    <tag k="highway" v="footway"/>
    <tag k="surface" v="sand"/>
  </way>
  <way id="30479487" version="7" timestamp="2009-08-07T21:07:09Z" uid="152008" user="Christof" changeset="2070350">
    <nd ref="294643660"/>
    <nd ref="456685765"/>
    <nd ref="456685764"/>
    <nd ref="456685767"/>
    <nd ref="456685766"/>
    <nd ref="456685769"/>
    <nd ref="456685768"/>
    <nd ref="456685770"/>
    <nd ref="336311163"/>
    <nd ref="456685772"/>
    <nd ref="456685773"/>
    <nd ref="456685771"/>
    <nd ref="456685775"/>
    <nd ref="456685774"/>
    <nd ref="456685777"/>
    <nd ref="456685776"/>
    <nd ref="336311164"/>
    <nd ref="458465878"/>
    <nd ref="113375438"/>
    <tag k="foot" v="yes"/>
    <tag k="highway" v="footway"/>
    <tag k="surface" v="sand"/>
  </way>
  <way id="30479524" version="3" timestamp="2009-08-09T12:46:39Z" uid="4467" user="Rosscoe" changeset="2085146">
    <nd ref="336311666"/>
    <nd ref="336311668"/>
    <nd ref="336311669"/>
    <nd ref="336311671"/>
    <nd ref="336311673"/>
    <tag k="highway" v="residential"/>
    <tag k="name" v="McKell Street"/>
    <tag k="source" v="survey"/>
  </way>
  <way id="30479524" version="4" timestamp="2010-07-08T16:28:15Z" uid="74617" user="JohnSmith" changeset="5167338">
    <nd ref="336311666"/>
    <nd ref="336311668"/>
    <nd ref="336311669"/>
    <nd ref="336311671"/>
    <nd ref="336311673"/>
    <tag k="highway" v="residential"/>
    <tag k="maxspeed" v="50"/>
    <tag k="maxspeed:source" v="default residential speed limit in Australia"/>
    <tag k="name" v="McKell Street"/>
    <tag k="source" v="survey"/>
  </way>
  <way id="30479524" version="5" timestamp="2012-01-18T04:16:49Z" uid="147510" user="woodpeck_fixbot" changeset="10424025">
    <nd ref="336311666"/>
    <nd ref="336311668"/>
    <nd ref="336311669"/>
    <nd ref="336311671"/>
    <nd ref="336311673"/>
    <tag k="highway" v="residential"/>
    <tag k="name" v="McKell Street"/>
    <tag k="source" v="survey"/>
  </way>
  <way id="30479571" version="2" timestamp="2009-08-09T12:46:52Z" uid="4467" user="Rosscoe" changeset="2085146">
    <nd ref="336312624"/>
    <nd ref="336312625"/>
    <nd ref="336311666"/>
    <nd ref="336312627"/>
    <nd ref="336312628"/>
    <nd ref="336312630"/>
    <tag k="highway" v="residential"/>
    <tag k="name" v="Keppel Street"/>
    <tag k="source" v="survey"/>
  </way>
  <way id="30479571" version="3" timestamp="2010-07-08T16:30:40Z" uid="74617" user="JohnSmith" changeset="5167338">
    <nd ref="336312624"/>
    <nd ref="336312625"/>
    <nd ref="336311666"/>
    <nd ref="336312627"/>
    <nd ref="336312628"/>
    <nd ref="336312630"/>
    <tag k="highway" v="residential"/>
    <tag k="maxspeed" v="50"/>
    <tag k="maxspeed:source" v="default residential speed limit in Australia"/>
    <tag k="name" v="Keppel Street"/>
    <tag k="source" v="survey"/>
  </way>
  <way id="30479571" version="4" timestamp="2012-01-18T04:16:51Z" uid="147510" user="woodpeck_fixbot" changeset="10424025">
    <nd ref="336312624"/>
    <nd ref="336312625"/>
    <nd ref="336311666"/>
    <nd ref="336312627"/>
    <nd ref="336312628"/>
    <nd ref="336312630"/>
    <tag k="highway" v="residential"/>
    <tag k="name" v="Keppel Street"/>
    <tag k="source" v="survey"/>
  </way>
  <way id="30479759" version="3" timestamp="2010-07-08T16:30:51Z" uid="74617" user="JohnSmith" changeset="5167338">
    <nd ref="336317042"/>
    <nd ref="336314970"/>
    <tag k="highway" v="residential"/>
    <tag k="maxspeed" v="50"/>
    <tag k="maxspeed:source" v="default residential speed limit in Australia"/>
    <tag k="name" v="Keppel Street"/>
    <tag k="oneway" v="yes"/>
  </way>
  <way id="30479759" version="4" timestamp="2012-01-18T04:16:52Z" uid="147510" user="woodpeck_fixbot" changeset="10424025">
    <nd ref="336317042"/>
    <nd ref="336314970"/>
    <tag k="highway" v="residential"/>
    <tag k="name" v="Keppel Street"/>
    <tag k="oneway" v="yes"/>
  </way>
  <way id="30479775" version="9" timestamp="2009-08-09T12:46:34Z" uid="4467" user="Rosscoe" changeset="2085146">
    <nd ref="340187058"/>
    <nd ref="336314967"/>
    <nd ref="338166778"/>
    <nd ref="336314970"/>
    <nd ref="336317294"/>
    <tag k="highway" v="residential"/>
    <tag k="name" v="Keppel Street"/>
    <tag k="source" v="survey"/>
  </way>
  <way id="30479775" version="10" timestamp="2010-07-08T16:28:51Z" uid="74617" user="JohnSmith" changeset="5167338">
    <nd ref="340187058"/>
    <nd ref="336314967"/>
    <nd ref="338166778"/>
    <nd ref="336314970"/>
    <nd ref="336317294"/>
    <tag k="highway" v="residential"/>
    <tag k="maxspeed" v="50"/>
    <tag k="maxspeed:source" v="default residential speed limit in Australia"/>
    <tag k="name" v="Keppel Street"/>
    <tag k="source" v="survey"/>
  </way>
  <way id="30479775" version="11" timestamp="2012-01-18T04:16:55Z" uid="147510" user="woodpeck_fixbot" changeset="10424025">
    <nd ref="340187058"/>
    <nd ref="336314967"/>
    <nd ref="338166778"/>
    <nd ref="336314970"/>
    <nd ref="336317294"/>
    <tag k="highway" v="residential"/>
    <tag k="name" v="Keppel Street"/>
    <tag k="source" v="survey"/>
  </way>
  <way id="30479863" version="7" timestamp="2009-08-09T12:46:52Z" uid="4467" user="Rosscoe" changeset="2085146">
    <nd ref="336314967"/>
    <nd ref="340186856"/>
    <nd ref="338166758"/>
    <tag k="highway" v="residential"/>
    <tag k="name" v="Commonwealth Street"/>
    <tag k="source" v="survey"/>
  </way>
  <way id="30479863" version="8" timestamp="2010-07-08T16:30:57Z" uid="74617" user="JohnSmith" changeset="5167338">
    <nd ref="336314967"/>
    <nd ref="340186856"/>
    <nd ref="338166758"/>
    <tag k="highway" v="residential"/>
    <tag k="maxspeed" v="50"/>
    <tag k="maxspeed:source" v="default residential speed limit in Australia"/>
    <tag k="name" v="Commonwealth Street"/>
    <tag k="source" v="survey"/>
  </way>
  <way id="30479863" version="9" timestamp="2012-01-18T04:16:57Z" uid="147510" user="woodpeck_fixbot" changeset="10424025">
    <nd ref="336314967"/>
    <nd ref="340186856"/>
    <nd ref="338166758"/>
    <tag k="highway" v="residential"/>
    <tag k="name" v="Commonwealth Street"/>
    <tag k="source" v="survey"/>
  </way>
  <way id="30479872" version="2" timestamp="2010-04-11T13:53:55Z" uid="74617" user="JohnSmith" changeset="4393903">
    <nd ref="336318781"/>
    <nd ref="336318808"/>
    <tag k="highway" v="residential"/>
    <tag k="name" v="Edwin Drive"/>
    <tag k="source" v="survey"/>
  </way>
  <way id="30479872" version="3" timestamp="2010-07-06T18:52:45Z" uid="74617" user="JohnSmith" changeset="5152225">
    <nd ref="336318781"/>
    <nd ref="336318808"/>
    <tag k="highway" v="residential"/>
    <tag k="maxspeed" v="50"/>
    <tag k="maxspeed:source" v="default residential speed limit in Australia"/>
    <tag k="name" v="Edwin Drive"/>
    <tag k="source" v="survey"/>
  </way>
  <way id="30479872" version="4" timestamp="2012-01-18T04:16:58Z" uid="147510" user="woodpeck_fixbot" changeset="10424025">
    <nd ref="336318781"/>
    <nd ref="336318808"/>
    <tag k="highway" v="residential"/>
    <tag k="name" v="Edwin Drive"/>
    <tag k="source" v="survey"/>
  </way>
  <way id="30479874" version="2" timestamp="2010-04-11T13:53:55Z" uid="74617" user="JohnSmith" changeset="4393903">
    <nd ref="336318834"/>
    <nd ref="336319146"/>
    <nd ref="336318866"/>
    <nd ref="336319135"/>
    <nd ref="336318781"/>
    <nd ref="336319111"/>
    <nd ref="336318912"/>
    <nd ref="336318956"/>
    <nd ref="336318992"/>
    <nd ref="336319005"/>
    <nd ref="336319078"/>
    <nd ref="336319018"/>
    <nd ref="336319031"/>
    <tag k="highway" v="residential"/>
    <tag k="name" v="Gower Drive"/>
    <tag k="source" v="survey"/>
  </way>
  <way id="30479874" version="3" timestamp="2010-07-06T18:50:52Z" uid="74617" user="JohnSmith" changeset="5152225">
    <nd ref="336318834"/>
    <nd ref="336319146"/>
    <nd ref="336318866"/>
    <nd ref="336319135"/>
    <nd ref="336318781"/>
    <nd ref="336319111"/>
    <nd ref="336318912"/>
    <nd ref="336318956"/>
    <nd ref="336318992"/>
    <nd ref="336319005"/>
    <nd ref="336319078"/>
    <nd ref="336319018"/>
    <nd ref="336319031"/>
    <tag k="highway" v="residential"/>
    <tag k="maxspeed" v="50"/>
    <tag k="maxspeed:source" v="default residential speed limit in Australia"/>
    <tag k="name" v="Gower Drive"/>
    <tag k="source" v="survey"/>
  </way>
  <way id="30479874" version="4" timestamp="2012-01-18T04:16:59Z" uid="147510" user="woodpeck_fixbot" changeset="10424025">
    <nd ref="336318834"/>
    <nd ref="336319146"/>
    <nd ref="336318866"/>
    <nd ref="336319135"/>
    <nd ref="336318781"/>
    <nd ref="336319111"/>
    <nd ref="336318912"/>
    <nd ref="336318956"/>
    <nd ref="336318992"/>
    <nd ref="336319005"/>
    <nd ref="336319078"/>
    <nd ref="336319018"/>
    <nd ref="336319031"/>
    <tag k="highway" v="residential"/>
    <tag k="name" v="Gower Drive"/>
    <tag k="source" v="survey"/>
  </way>
  <way id="30479876" version="5" timestamp="2010-05-07T23:41:54Z" uid="4467" user="Rosscoe" changeset="4635033">
    <nd ref="332858953"/>
    <nd ref="270727663"/>
    <tag k="cycleway" v="lane"/>
    <tag k="highway" v="tertiary"/>
    <tag k="name" v="Billing Street"/>
  </way>
  <way id="30479876" version="6" timestamp="2010-05-08T05:53:14Z" uid="4467" user="Rosscoe" changeset="4635833">
    <nd ref="725885908"/>
    <nd ref="270727663"/>
    <tag k="cycleway" v="lane"/>
    <tag k="highway" v="tertiary"/>
    <tag k="name" v="Billing Street"/>
  </way>
  <way id="30479876" version="7" timestamp="2010-05-08T05:58:02Z" uid="4467" user="Rosscoe" changeset="4635843">
    <nd ref="725885908"/>
    <nd ref="270727663"/>
    <tag k="cycleway" v="lane"/>
    <tag k="highway" v="tertiary"/>
    <tag k="name" v="Clayton Street"/>
  </way>
  <way id="30479876" version="8" timestamp="2010-05-30T11:14:56Z" uid="258497" user="Brendan_Cherry" changeset="4850736">
    <nd ref="725885908"/>
    <nd ref="270727663"/>
    <tag k="cycleway" v="lane"/>
    <tag k="highway" v="secondary"/>
    <tag k="name" v="Clayton Street"/>
  </way>
  <way id="30479876" version="9" timestamp="2011-12-04T04:22:11Z" uid="142807" user="SDavies" changeset="10030040">
    <nd ref="725885908"/>
    <nd ref="1530481909"/>
    <nd ref="270727663"/>
    <tag k="cycleway" v="lane"/>
    <tag k="highway" v="secondary"/>
    <tag k="name" v="Clayton Street"/>
  </way>
  <way id="30479877" version="4" timestamp="2010-05-07T23:41:50Z" uid="4467" user="Rosscoe" changeset="4635033">
    <nd ref="332858953"/>
    <nd ref="270727606"/>
    <tag k="highway" v="residential"/>
    <tag k="name" v="Henkin Street"/>
  </way>
  <way id="30479877" version="5" timestamp="2010-05-08T05:53:18Z" uid="4467" user="Rosscoe" changeset="4635833"/>
  <way id="30479879" version="2" timestamp="2010-07-06T18:54:47Z" uid="74617" user="JohnSmith" changeset="5152225">
    <nd ref="336319047"/>
    <nd ref="336319031"/>
    <nd ref="336319055"/>
    <tag k="highway" v="residential"/>
    <tag k="maxspeed" v="50"/>
    <tag k="maxspeed:source" v="default residential speed limit in Australia"/>
    <tag k="name" v="Plover Drive"/>
    <tag k="source" v="survey"/>
    <tag k="surface" v="paved"/>
  </way>
  <way id="30479879" version="3" timestamp="2012-01-18T04:17:01Z" uid="147510" user="woodpeck_fixbot" changeset="10424025">
    <nd ref="336319047"/>
    <nd ref="336319031"/>
    <nd ref="336319055"/>
    <tag k="highway" v="residential"/>
    <tag k="name" v="Plover Drive"/>
    <tag k="source" v="survey"/>
    <tag k="surface" v="paved"/>
  </way>
  <way id="30479880" version="2" timestamp="2010-07-06T18:48:40Z" uid="74617" user="JohnSmith" changeset="5152225">
    <nd ref="336319063"/>
    <nd ref="336319078"/>
    <tag k="highway" v="residential"/>
    <tag k="maxspeed" v="50"/>
    <tag k="maxspeed:source" v="default residential speed limit in Australia"/>
    <tag k="name" v="Firth Court"/>
    <tag k="source" v="survey"/>
    <tag k="surface" v="paved"/>
  </way>
  <way id="30479880" version="3" timestamp="2012-01-18T04:17:04Z" uid="147510" user="woodpeck_fixbot" changeset="10424025">
    <nd ref="336319063"/>
    <nd ref="336319078"/>
    <tag k="highway" v="residential"/>
    <tag k="name" v="Firth Court"/>
    <tag k="source" v="survey"/>
    <tag k="surface" v="paved"/>
  </way>
  <way id="30479882" version="2" timestamp="2010-04-11T13:53:54Z" uid="74617" user="JohnSmith" changeset="4393903">
    <nd ref="336319093"/>
    <nd ref="336318992"/>
    <tag k="highway" v="residential"/>
    <tag k="name" v="Tutt Court"/>
    <tag k="source" v="survey"/>
  </way>
  <way id="30479882" version="3" timestamp="2010-07-06T18:59:13Z" uid="74617" user="JohnSmith" changeset="5152225">
    <nd ref="336319093"/>
    <nd ref="336318992"/>
    <tag k="highway" v="residential"/>
    <tag k="maxspeed" v="50"/>
    <tag k="maxspeed:source" v="default residential speed limit in Australia"/>
    <tag k="name" v="Tutt Court"/>
    <tag k="source" v="survey"/>
  </way>
  <way id="30479882" version="4" timestamp="2012-01-18T04:17:05Z" uid="147510" user="woodpeck_fixbot" changeset="10424025">
    <nd ref="336319093"/>
    <nd ref="336318992"/>
    <tag k="highway" v="residential"/>
    <tag k="name" v="Tutt Court"/>
    <tag k="source" v="survey"/>
  </way>
  <way id="30479883" version="2" timestamp="2010-04-11T13:53:55Z" uid="74617" user="JohnSmith" changeset="4393903">
    <nd ref="336319102"/>
    <nd ref="336319111"/>
    <tag k="highway" v="residential"/>
    <tag k="name" v="Layt Court"/>
    <tag k="source" v="survey"/>
  </way>
  <way id="30479883" version="3" timestamp="2010-07-06T18:53:26Z" uid="74617" user="JohnSmith" changeset="5152225">
    <nd ref="336319102"/>
    <nd ref="336319111"/>
    <tag k="highway" v="residential"/>
    <tag k="maxspeed" v="50"/>
    <tag k="maxspeed:source" v="default residential speed limit in Australia"/>
    <tag k="name" v="Layt Court"/>
    <tag k="source" v="survey"/>
  </way>
  <way id="30479883" version="4" timestamp="2012-01-18T04:17:06Z" uid="147510" user="woodpeck_fixbot" changeset="10424025">
    <nd ref="336319102"/>
    <nd ref="336319111"/>
    <tag k="highway" v="residential"/>
    <tag k="name" v="Layt Court"/>
    <tag k="source" v="survey"/>
  </way>
  <way id="30479884" version="2" timestamp="2010-04-11T13:53:55Z" uid="74617" user="JohnSmith" changeset="4393903">
    <nd ref="336319120"/>
    <nd ref="336319135"/>
    <tag k="highway" v="residential"/>
    <tag k="name" v="Winston Court"/>
    <tag k="source" v="survey"/>
  </way>
  <way id="30479884" version="3" timestamp="2010-07-06T18:57:02Z" uid="74617" user="JohnSmith" changeset="5152225">
    <nd ref="336319120"/>
    <nd ref="336319135"/>
    <tag k="highway" v="residential"/>
    <tag k="maxspeed" v="50"/>
    <tag k="maxspeed:source" v="default residential speed limit in Australia"/>
    <tag k="name" v="Winston Court"/>
    <tag k="source" v="survey"/>
  </way>
  <way id="30479884" version="4" timestamp="2012-01-18T04:17:07Z" uid="147510" user="woodpeck_fixbot" changeset="10424025">
    <nd ref="336319120"/>
    <nd ref="336319135"/>
    <tag k="highway" v="residential"/>
    <tag k="name" v="Winston Court"/>
    <tag k="source" v="survey"/>
  </way>
  <way id="30479886" version="2" timestamp="2010-04-11T13:53:55Z" uid="74617" user="JohnSmith" changeset="4393903">
    <nd ref="336319141"/>
    <nd ref="336319146"/>
    <tag k="highway" v="residential"/>
    <tag k="name" v="Earl Court"/>
    <tag k="source" v="survey"/>
  </way>
  <way id="30479886" version="3" timestamp="2010-07-06T18:55:22Z" uid="74617" user="JohnSmith" changeset="5152225">
    <nd ref="336319141"/>
    <nd ref="336319146"/>
    <tag k="highway" v="residential"/>
    <tag k="maxspeed" v="50"/>
    <tag k="maxspeed:source" v="default residential speed limit in Australia"/>
    <tag k="name" v="Earl Court"/>
    <tag k="source" v="survey"/>
  </way>
  <way id="30479886" version="4" timestamp="2012-01-18T04:17:08Z" uid="147510" user="woodpeck_fixbot" changeset="10424025">
    <nd ref="336319141"/>
    <nd ref="336319146"/>
    <tag k="highway" v="residential"/>
    <tag k="name" v="Earl Court"/>
    <tag k="source" v="survey"/>
  </way>
  <way id="30479890" version="4" timestamp="2010-07-08T16:30:04Z" uid="74617" user="JohnSmith" changeset="5167338">
    <nd ref="254534876"/>
    <nd ref="336320846"/>
    <nd ref="254534877"/>
    <nd ref="340186194"/>
    <nd ref="336319293"/>
    <tag k="highway" v="residential"/>
    <tag k="maxspeed" v="50"/>
    <tag k="maxspeed:source" v="default residential speed limit in Australia"/>
    <tag k="name" v="Commonwealth Street"/>
    <tag k="source" v="survey"/>
  </way>
  <way id="30479890" version="5" timestamp="2010-08-31T01:08:04Z" uid="4467" user="Rosscoe" changeset="5641734">
    <nd ref="254534876"/>
    <nd ref="336320846"/>
    <nd ref="254534877"/>
    <nd ref="340186194"/>
    <nd ref="336319293"/>
    <tag k="highway" v="residential"/>
    <tag k="maxspeed" v="50"/>
    <tag k="maxspeed:source" v="default residential speed limit in Australia"/>
    <tag k="name" v="Commonwealth Street"/>
    <tag k="source" v="survey"/>
  </way>
  <way id="30479890" version="6" timestamp="2012-01-18T04:17:09Z" uid="147510" user="woodpeck_fixbot" changeset="10424025">
    <nd ref="254534876"/>
    <nd ref="336320846"/>
    <nd ref="254534877"/>
    <nd ref="340186194"/>
    <nd ref="336319293"/>
    <tag k="highway" v="residential"/>
    <tag k="name" v="Commonwealth Street"/>
    <tag k="source" v="survey"/>
  </way>
  <way id="30479927" version="3" timestamp="2009-02-23T13:34:26Z" uid="34428" user="usm78-gis" changeset="634299"/>
  <way id="30479928" version="3" timestamp="2009-02-23T12:42:10Z" uid="34428" user="usm78-gis" changeset="634299"/>
  <way id="30479985" version="3" timestamp="2010-07-08T16:27:54Z" uid="74617" user="JohnSmith" changeset="5167338">
    <nd ref="336320846"/>
    <nd ref="336320848"/>
    <tag k="highway" v="residential"/>
    <tag k="maxspeed" v="50"/>
    <tag k="maxspeed:source" v="default residential speed limit in Australia"/>
    <tag k="name" v="Short Street"/>
    <tag k="source" v="survey"/>
    <tag k="surface" v="asphalt"/>
  </way>
  <way id="30479985" version="4" timestamp="2012-01-18T04:17:11Z" uid="147510" user="woodpeck_fixbot" changeset="10424025">
    <nd ref="336320846"/>
    <nd ref="336320848"/>
    <tag k="highway" v="residential"/>
    <tag k="name" v="Short Street"/>
    <tag k="source" v="survey"/>
    <tag k="surface" v="asphalt"/>
  </way>
  <way id="30479120" version="5" timestamp="2012-07-19T14:03:57Z" uid="722137" user="OSMF Redaction Account" changeset="12330833">
    <nd ref="336303592"/>
    <nd ref="336303594"/>
    <nd ref="336303595"/>
    <nd ref="336303596"/>
    <nd ref="336303598"/>
    <tag k="highway" v="residential"/>
    <tag k="name" v="Endurance Court"/>
    <tag k="source" v="GPS"/>
  </way>
  <way id="30479222" version="3" timestamp="2012-07-16T23:39:39Z" uid="722137" user="OSMF Redaction Account" changeset="12253597"/>
  <way id="30479230" version="6" timestamp="2012-04-05T07:35:42Z" uid="99800" user="wolfbert" changeset="11185685"/>
  <way id="30479249" version="5" timestamp="2012-07-19T13:59:00Z" uid="722137" user="OSMF Redaction Account" changeset="12330692">
    <nd ref="336306993"/>
    <nd ref="336306994"/>
    <tag k="highway" v="residential"/>
    <tag k="name" v="Rosehill Street"/>
    <tag k="source" v="GPS"/>
  </way>
  <way id="30479317" version="5" timestamp="2012-07-19T13:58:59Z" uid="722137" user="OSMF Redaction Account" changeset="12330692">
    <nd ref="336308281"/>
    <nd ref="336308284"/>
    <tag k="highway" v="residential"/>
    <tag k="name" v="Golsby Street"/>
    <tag k="source" v="GPS"/>
  </way>
  <way id="30479349" version="5" timestamp="2012-07-19T13:58:59Z" uid="722137" user="OSMF Redaction Account" changeset="12330692">
    <nd ref="330846824"/>
    <nd ref="336308788"/>
    <nd ref="336308791"/>
    <nd ref="336308281"/>
    <tag k="highway" v="residential"/>
    <tag k="name" v="Patna Street"/>
    <tag k="source" v="GPS"/>
  </way>
  <way id="30479401" version="5" timestamp="2012-07-19T13:58:57Z" uid="722137" user="OSMF Redaction Account" changeset="12330692">
    <nd ref="336309785"/>
    <nd ref="336309786"/>
    <nd ref="336309788"/>
    <nd ref="336309790"/>
    <tag k="highway" v="residential"/>
    <tag k="name" v="Beddie Street"/>
    <tag k="source" v="GPS"/>
  </way>
  <way id="30479444" version="9" timestamp="2012-07-19T14:23:35Z" uid="722137" user="OSMF Redaction Account" changeset="12331267">
    <nd ref="332301255"/>
    <nd ref="332340125"/>
    <nd ref="336309668"/>
    <nd ref="336310211"/>
    <nd ref="336309680"/>
    <nd ref="336310273"/>
    <nd ref="336309692"/>
    <nd ref="336309701"/>
    <nd ref="339611232"/>
    <nd ref="336309713"/>
    <nd ref="336309724"/>
    <nd ref="336309737"/>
    <nd ref="336309752"/>
    <nd ref="336309763"/>
    <nd ref="342523643"/>
    <nd ref="336309777"/>
    <nd ref="342523531"/>
    <nd ref="336319055"/>
    <nd ref="336318808"/>
    <nd ref="336309832"/>
    <nd ref="336309845"/>
    <nd ref="336309856"/>
    <nd ref="336309867"/>
    <nd ref="336309880"/>
    <nd ref="336309886"/>
    <nd ref="839549141"/>
    <tag k="highway" v="secondary"/>
    <tag k="name" v="Old Landsborough Road"/>
    <tag k="source" v="survey"/>
  </way>
  <way id="30479447" version="7" timestamp="2012-07-19T14:23:37Z" uid="722137" user="OSMF Redaction Account" changeset="12331267">
    <nd ref="336310175"/>
    <nd ref="336310191"/>
    <nd ref="336310159"/>
    <tag k="highway" v="residential"/>
    <tag k="name" v="Katherine Street"/>
    <tag k="source" v="survey"/>
    <tag k="surface" v="paved"/>
  </way>
  <way id="30479456" version="5" timestamp="2012-07-19T13:58:57Z" uid="722137" user="OSMF Redaction Account" changeset="12330692">
    <nd ref="336310622"/>
    <nd ref="336310624"/>
    <tag k="highway" v="residential"/>
    <tag k="name" v="Annesley Street"/>
    <tag k="source" v="GPS"/>
  </way>
  <way id="30479524" version="6" timestamp="2012-07-19T13:58:54Z" uid="722137" user="OSMF Redaction Account" changeset="12330692">
    <nd ref="336311666"/>
    <nd ref="336311668"/>
    <nd ref="336311669"/>
    <nd ref="336311671"/>
    <nd ref="336311673"/>
    <tag k="highway" v="residential"/>
    <tag k="name" v="McKell Street"/>
    <tag k="source" v="GPS"/>
  </way>
  <way id="30479571" version="5" timestamp="2012-07-19T13:58:54Z" uid="722137" user="OSMF Redaction Account" changeset="12330692">
    <nd ref="336312624"/>
    <nd ref="336312625"/>
    <nd ref="336311666"/>
    <nd ref="336312627"/>
    <nd ref="336312628"/>
    <nd ref="336312630"/>
    <tag k="highway" v="residential"/>
    <tag k="name" v="Keppel Street"/>
    <tag k="source" v="GPS"/>
  </way>
  <way id="30479775" version="12" timestamp="2012-04-10T09:40:53Z" uid="119007" user="imroy" changeset="11249914">
    <nd ref="1709780302"/>
    <nd ref="336314967"/>
    <nd ref="338166778"/>
    <nd ref="336314970"/>
    <nd ref="336317294"/>
    <tag k="highway" v="residential"/>
    <tag k="name" v="Keppel Street"/>
    <tag k="source" v="survey"/>
  </way>
  <way id="30479775" version="13" timestamp="2012-04-17T14:42:32Z" uid="119007" user="imroy" changeset="11333560">
    <nd ref="340187058"/>
    <nd ref="336314967"/>
    <nd ref="338166778"/>
    <nd ref="336314970"/>
    <nd ref="336317294"/>
    <tag k="highway" v="residential"/>
    <tag k="name" v="Keppel Street"/>
    <tag k="source" v="survey"/>
  </way>
  <way id="30479775" version="14" timestamp="2012-07-19T13:58:53Z" uid="722137" user="OSMF Redaction Account" changeset="12330692">
    <nd ref="340187058"/>
    <nd ref="336314967"/>
    <nd ref="338166778"/>
    <nd ref="336314970"/>
    <nd ref="336317294"/>
    <tag k="highway" v="residential"/>
    <tag k="name" v="Keppel Street"/>
    <tag k="source" v="GPS"/>
  </way>
  <way id="30479863" version="10" timestamp="2012-07-19T13:58:52Z" uid="722137" user="OSMF Redaction Account" changeset="12330692">
    <nd ref="336314967"/>
    <nd ref="340186856"/>
    <nd ref="338166758"/>
    <tag k="highway" v="residential"/>
    <tag k="name" v="Commonwealth Street"/>
    <tag k="source" v="GPS"/>
  </way>
  <way id="30479876" version="10" timestamp="2012-07-19T19:31:14Z" uid="722137" user="OSMF Redaction Account" changeset="12345029"/>
</osm>
