<?xml version='1.0' encoding='UTF-8'?>
<osm version="0.6" generator="libosmium/2.20.0">
  <way id="30501106" version="1" timestamp="2009-01-25T21:32:09Z" uid="68769" user="david lynch" changeset="835218">
    <nd ref="336640873"/>
    <nd ref="336638295"/>
    <nd ref="336644054"/>
    <nd ref="336644057"/>
    <nd ref="336644059"/>
    <nd ref="336644062"/>
    <nd ref="336644064"/>
    <nd ref="336636398"/>
    <nd ref="336644574"/>
    <nd ref="336640874"/>
    <nd ref="336640873"/>
    <tag k="created_by" v="Potlatch 0.10f"/>
    <tag k="leisure" v="common"/>
  </way>
  <way id="30501106" version="2" timestamp="2011-04-08T01:08:09Z" uid="47892" user="richlv" changeset="7800041">
    <nd ref="336640873"/>
    <nd ref="336638295"/>
    <nd ref="336644054"/>
    <nd ref="336644057"/>
    <nd ref="336644062"/>
    <nd ref="336644064"/>
    <nd ref="336636398"/>
    <nd ref="336644574"/>
    <nd ref="1236792996"/>
    <nd ref="1236793105"/>
    <nd ref="336640873"/>
    <tag k="leisure" v="common"/>
  </way>
  <way id="30501106" version="3" timestamp="2011-11-15T19:41:02Z" uid="332709" user="moosejaw" changeset="9838159">
    <nd ref="336640873"/>
    <nd ref="336638295"/>
    <nd ref="336644054"/>
    <nd ref="336644057"/>
    <nd ref="336644062"/>
    <nd ref="336644064"/>
    <nd ref="336636398"/>
    <nd ref="336644574"/>
    <nd ref="1236792996"/>
    <nd ref="1236793105"/>
    <nd ref="336640873"/>
    <tag k="leisure" v="park"/>
    <tag k="name" v="Triangle Park"/>
  </way>
  <way id="30501191" version="4" timestamp="2009-04-04T16:28:42Z" uid="9581" user="Lobelt" changeset="177516">
    <nd ref="296473560"/>
    <nd ref="281230667"/>
    <nd ref="13888235"/>
    <tag k="created_by" v="Potlatch 0.10f"/>
    <tag k="highway" v="primary"/>
    <tag k="maxspeed" v="50"/>
    <tag k="name" v="Landstraße"/>
    <tag k="ref" v="B 3"/>
  </way>
  <way id="30501191" version="5" timestamp="2009-12-28T18:41:03Z" uid="35560" user="HeikoE" changeset="3474546">
    <nd ref="296473560"/>
    <nd ref="281230667"/>
    <nd ref="13888235"/>
    <tag k="highway" v="primary"/>
    <tag k="maxspeed" v="DE:urban"/>
    <tag k="name" v="Landstraße"/>
    <tag k="ref" v="B 3"/>
  </way>
  <way id="30501191" version="6" timestamp="2010-07-06T21:29:19Z" uid="35560" user="HeikoE" changeset="5154613">
    <nd ref="296473560"/>
    <nd ref="281230667"/>
    <nd ref="13888235"/>
    <tag k="highway" v="primary"/>
    <tag k="maxspeed" v="50"/>
    <tag k="name" v="Landstraße"/>
    <tag k="ref" v="B 3"/>
    <tag k="source:maxspeed" v="DE:urban"/>
  </way>
  <way id="30501191" version="7" timestamp="2010-09-13T15:41:15Z" uid="104779" user="ABRob" changeset="5768179">
    <nd ref="296473560"/>
    <nd ref="281230667"/>
    <nd ref="13888235"/>
    <tag k="highway" v="primary"/>
    <tag k="maxspeed" v="50"/>
    <tag k="name" v="Landstraße"/>
    <tag k="ref" v="B 3"/>
    <tag k="source:maxspeed" v="DE:urban"/>
    <tag k="zone:traffic" v="DE:urban"/>
  </way>
  <way id="30501195" version="6" timestamp="2009-04-04T16:28:43Z" uid="9581" user="Lobelt" changeset="177516">
    <nd ref="13888235"/>
    <nd ref="28985567"/>
    <nd ref="24913509"/>
    <nd ref="343591654"/>
    <nd ref="296473558"/>
    <nd ref="13888236"/>
    <nd ref="13888237"/>
    <nd ref="28143043"/>
    <nd ref="28142927"/>
    <nd ref="13888238"/>
    <nd ref="13888239"/>
    <tag k="created_by" v="Potlatch 0.10f"/>
    <tag k="highway" v="primary"/>
    <tag k="maxspeed" v="50"/>
    <tag k="name" v="Landstraße"/>
    <tag k="ref" v="B 3"/>
  </way>
  <way id="30501195" version="7" timestamp="2009-12-28T18:41:03Z" uid="35560" user="HeikoE" changeset="3474546">
    <nd ref="13888235"/>
    <nd ref="28985567"/>
    <nd ref="24913509"/>
    <nd ref="343591654"/>
    <nd ref="296473558"/>
    <nd ref="13888236"/>
    <nd ref="13888237"/>
    <nd ref="28143043"/>
    <nd ref="28142927"/>
    <nd ref="13888238"/>
    <nd ref="13888239"/>
    <tag k="highway" v="primary"/>
    <tag k="maxspeed" v="DE:urban"/>
    <tag k="name" v="Landstraße"/>
    <tag k="ref" v="B 3"/>
  </way>
  <way id="30501195" version="8" timestamp="2010-03-18T16:36:00Z" uid="140064" user="debfreak" changeset="4162673">
    <nd ref="13888235"/>
    <nd ref="28985567"/>
    <nd ref="24913509"/>
    <nd ref="343591654"/>
    <nd ref="13888236"/>
    <nd ref="13888237"/>
    <nd ref="28143043"/>
    <nd ref="28142927"/>
    <nd ref="13888238"/>
    <nd ref="13888239"/>
    <tag k="highway" v="primary"/>
    <tag k="maxspeed" v="DE:urban"/>
    <tag k="name" v="Landstraße"/>
    <tag k="ref" v="B 3"/>
  </way>
  <way id="30501195" version="9" timestamp="2010-04-05T12:29:19Z" uid="18049" user="Stefan Weil (Ladenburg)" changeset="4332515">
    <nd ref="13888235"/>
    <nd ref="28985567"/>
    <nd ref="24913509"/>
    <tag k="highway" v="primary"/>
    <tag k="maxspeed" v="DE:urban"/>
    <tag k="name" v="Landstraße"/>
    <tag k="ref" v="B 3"/>
  </way>
  <way id="30501195" version="10" timestamp="2010-07-06T21:29:15Z" uid="35560" user="HeikoE" changeset="5154613">
    <nd ref="13888235"/>
    <nd ref="28985567"/>
    <nd ref="24913509"/>
    <tag k="highway" v="primary"/>
    <tag k="maxspeed" v="50"/>
    <tag k="name" v="Landstraße"/>
    <tag k="ref" v="B 3"/>
    <tag k="source:maxspeed" v="DE:urban"/>
  </way>
  <way id="30501195" version="11" timestamp="2010-09-13T16:19:54Z" uid="104779" user="ABRob" changeset="5768179">
    <nd ref="13888235"/>
    <nd ref="28985567"/>
    <nd ref="24913509"/>
    <tag k="highway" v="primary"/>
    <tag k="maxspeed" v="50"/>
    <tag k="name" v="Landstraße"/>
    <tag k="ref" v="B 3"/>
    <tag k="source:maxspeed" v="DE:urban"/>
    <tag k="zone:traffic" v="DE:urban"/>
  </way>
  <way id="30501195" version="12" timestamp="2012-03-13T21:00:48Z" uid="136321" user="Teddy73" changeset="10971981">
    <nd ref="13888235"/>
    <nd ref="28985567"/>
    <nd ref="1673837073"/>
    <tag k="highway" v="primary"/>
    <tag k="maxspeed" v="50"/>
    <tag k="name" v="Landstraße"/>
    <tag k="ref" v="B 3"/>
    <tag k="source:maxspeed" v="DE:urban"/>
    <tag k="zone:traffic" v="DE:urban"/>
  </way>
  <way id="30501206" version="7" timestamp="2010-04-14T19:39:57Z" uid="9581" user="Lobelt" changeset="4425588">
    <nd ref="267905905"/>
    <nd ref="267905909"/>
    <nd ref="267905912"/>
    <nd ref="267905922"/>
    <nd ref="697031999"/>
    <nd ref="267905938"/>
    <nd ref="267905941"/>
    <nd ref="267905944"/>
    <nd ref="267905948"/>
    <nd ref="267905952"/>
    <nd ref="267905976"/>
    <tag k="highway" v="secondary"/>
    <tag k="name" v="Johann-Wilhelm-Straße"/>
    <tag k="oneway" v="no"/>
    <tag k="ref" v="L 536"/>
    <tag k="source" v="survey"/>
  </way>
  <way id="30501206" version="8" timestamp="2011-03-01T21:10:50Z" uid="52239" user="ipofanes" changeset="7433137">
    <nd ref="267905905"/>
    <nd ref="267905909"/>
    <tag k="highway" v="secondary"/>
    <tag k="name" v="Johann-Wilhelm-Straße"/>
    <tag k="oneway" v="no"/>
    <tag k="ref" v="L 536"/>
    <tag k="source" v="survey"/>
  </way>
  <way id="30501206" version="9" timestamp="2011-07-10T18:30:16Z" uid="202726" user="whb" changeset="8686831">
    <nd ref="267905905"/>
    <nd ref="1356931459"/>
    <nd ref="267905909"/>
    <tag k="highway" v="secondary"/>
    <tag k="name" v="Johann-Wilhelm-Straße"/>
    <tag k="oneway" v="no"/>
    <tag k="ref" v="L 536"/>
    <tag k="source" v="survey"/>
  </way>
  <way id="30501447" version="2" timestamp="2009-02-01T20:21:31Z" uid="6975" user="ulfl" changeset="27333">
    <nd ref="336655111"/>
    <nd ref="336655118"/>
    <nd ref="336655127"/>
    <nd ref="336655134"/>
    <nd ref="336655111"/>
    <tag k="leisure" v="pitch"/>
    <tag k="sport" v="basketball"/>
  </way>
  <way id="30501447" version="3" timestamp="2011-12-08T21:49:23Z" uid="71557" user="Taroc" changeset="10069108"/>
  <way id="30501520" version="1" timestamp="2009-01-25T21:37:12Z" uid="30632" user="antblant" changeset="835919">
    <nd ref="296018876"/>
    <nd ref="325218687"/>
    <nd ref="325218680"/>
    <nd ref="296018875"/>
    <nd ref="296018876"/>
    <tag k="building" v="yes"/>
    <tag k="building:levels" v="10"/>
    <tag k="created_by" v="Potlatch 0.10f"/>
  </way>
  <way id="30501520" version="2" timestamp="2009-11-03T15:07:27Z" uid="36809" user="pfoten_weg_!_" changeset="3025069">
    <nd ref="296018876"/>
    <nd ref="325218687"/>
    <nd ref="325218680"/>
    <nd ref="296018875"/>
    <nd ref="296018876"/>
    <tag k="building" v="yes"/>
    <tag k="building:levels" v="10"/>
  </way>
  <way id="30501520" version="3" timestamp="2010-06-09T18:16:18Z" uid="30632" user="antblant" changeset="4947611"/>
  <way id="30501521" version="1" timestamp="2009-01-25T21:37:13Z" uid="30632" user="antblant" changeset="835919">
    <nd ref="325218661"/>
    <nd ref="325218669"/>
    <nd ref="336656091"/>
    <nd ref="325218659"/>
    <nd ref="325218661"/>
    <tag k="building" v="yes"/>
    <tag k="building:levels" v="10"/>
    <tag k="created_by" v="Potlatch 0.10f"/>
  </way>
  <way id="30501521" version="2" timestamp="2009-11-03T15:03:47Z" uid="36809" user="pfoten_weg_!_" changeset="3025069">
    <nd ref="325218661"/>
    <nd ref="325218669"/>
    <nd ref="336656091"/>
    <nd ref="325218659"/>
    <nd ref="325218661"/>
    <tag k="building" v="yes"/>
    <tag k="building:levels" v="10"/>
  </way>
  <way id="30501521" version="3" timestamp="2010-06-09T18:16:24Z" uid="30632" user="antblant" changeset="4947611"/>
  <way id="30501523" version="1" timestamp="2009-01-25T21:37:15Z" uid="30632" user="antblant" changeset="835919">
    <nd ref="336656095"/>
    <nd ref="336656096"/>
    <nd ref="325233355"/>
    <nd ref="325233359"/>
    <nd ref="325233360"/>
    <nd ref="325233336"/>
    <nd ref="336656095"/>
    <tag k="building" v="yes"/>
    <tag k="building:levels" v="5"/>
    <tag k="created_by" v="Potlatch 0.10f"/>
  </way>
  <way id="30501523" version="2" timestamp="2009-11-03T15:02:31Z" uid="36809" user="pfoten_weg_!_" changeset="3025069">
    <nd ref="336656095"/>
    <nd ref="336656096"/>
    <nd ref="325233355"/>
    <nd ref="325233359"/>
    <nd ref="325233360"/>
    <nd ref="325233336"/>
    <nd ref="336656095"/>
    <tag k="building" v="yes"/>
    <tag k="building:levels" v="5"/>
  </way>
  <way id="30501523" version="3" timestamp="2010-06-09T18:16:30Z" uid="30632" user="antblant" changeset="4947611"/>
  <way id="30501525" version="1" timestamp="2009-01-25T21:37:15Z" uid="30632" user="antblant" changeset="835919">
    <nd ref="336656099"/>
    <nd ref="336656102"/>
    <nd ref="331042338"/>
    <nd ref="336656105"/>
    <nd ref="336656109"/>
    <nd ref="336656099"/>
    <tag k="building" v="yes"/>
    <tag k="building:levels" v="5"/>
  </way>
  <way id="30501525" version="2" timestamp="2010-06-09T18:16:20Z" uid="30632" user="antblant" changeset="4947611"/>
  <way id="30501722" version="3" timestamp="2010-04-03T04:09:31Z" uid="20587" user="balrog-kun" changeset="4309442">
    <nd ref="41890561"/>
    <nd ref="42031631"/>
    <nd ref="42031625"/>
    <nd ref="42031620"/>
    <nd ref="42031611"/>
    <nd ref="42031603"/>
    <nd ref="41630865"/>
    <tag k="created_by" v="Potlatch 0.10f"/>
    <tag k="highway" v="residential"/>
    <tag k="name" v="West Escuda Drive"/>
    <tag k="tiger:cfcc" v="A41"/>
    <tag k="tiger:county" v="Maricopa, AZ"/>
    <tag k="tiger:name_base" v="Escuda"/>
    <tag k="tiger:name_direction_prefix" v="W"/>
    <tag k="tiger:name_type" v="Dr"/>
    <tag k="tiger:reviewed" v="no"/>
    <tag k="tiger:separated" v="no"/>
    <tag k="tiger:source" v="tiger_import_dch_v0.6_20070809"/>
    <tag k="tiger:tlid" v="128259088:128259090"/>
    <tag k="tiger:zip_left" v="85308"/>
    <tag k="tiger:zip_right" v="85308"/>
  </way>
  <way id="30501722" version="4" timestamp="2011-10-24T18:17:22Z" uid="465150" user="namannik" changeset="9645817">
    <nd ref="41890561"/>
    <nd ref="42031631"/>
    <nd ref="42031625"/>
    <nd ref="42031620"/>
    <nd ref="1479335035"/>
    <nd ref="42031611"/>
    <nd ref="42031603"/>
    <nd ref="41630865"/>
    <tag k="highway" v="residential"/>
    <tag k="name" v="West Escuda Drive"/>
    <tag k="tiger:cfcc" v="A41"/>
    <tag k="tiger:county" v="Maricopa, AZ"/>
    <tag k="tiger:name_base" v="Escuda"/>
    <tag k="tiger:name_direction_prefix" v="W"/>
    <tag k="tiger:name_type" v="Dr"/>
    <tag k="tiger:reviewed" v="no"/>
    <tag k="tiger:separated" v="no"/>
    <tag k="tiger:source" v="tiger_import_dch_v0.6_20070809"/>
    <tag k="tiger:tlid" v="128259088:128259090"/>
    <tag k="tiger:zip_left" v="85308"/>
    <tag k="tiger:zip_right" v="85308"/>
  </way>
  <way id="30501887" version="2" timestamp="2009-02-01T17:48:00Z" uid="6975" user="ulfl" changeset="27333">
    <nd ref="336656669"/>
    <nd ref="336656680"/>
    <tag k="cycleway" v="track"/>
    <tag k="foot" v="yes"/>
    <tag k="highway" v="cycleway"/>
    <tag k="lanes" v="1"/>
  </way>
  <way id="30501887" version="3" timestamp="2010-07-19T11:51:39Z" uid="293774" user="Oli-Wan" changeset="5260288">
    <nd ref="336656669"/>
    <nd ref="336656680"/>
    <tag k="bridge" v="yes"/>
    <tag k="cycleway" v="track"/>
    <tag k="foot" v="yes"/>
    <tag k="highway" v="cycleway"/>
    <tag k="lanes" v="1"/>
  </way>
  <way id="30501106" version="4" timestamp="2012-07-18T13:11:36Z" uid="722137" user="OSMF Redaction Account" changeset="12282918">
    <nd ref="1236792996"/>
    <nd ref="1236793105"/>
    <tag k="leisure" v="park"/>
    <tag k="name" v="Triangle Park"/>
  </way>
  <way id="30501106" version="5" timestamp="2012-09-09T02:19:34Z" uid="10786" user="stucki1" changeset="13039954">
    <nd ref="1236792996"/>
    <nd ref="1906220799"/>
    <nd ref="1236793105"/>
    <nd ref="1236792996"/>
    <tag k="leisure" v="park"/>
    <tag k="name" v="Triangle Park"/>
  </way>
  <way id="30501191" version="8" timestamp="2012-07-17T05:25:21Z" uid="722137" user="OSMF Redaction Account" changeset="12257655">
    <nd ref="296473560"/>
    <nd ref="281230667"/>
    <nd ref="13888235"/>
    <tag k="highway" v="primary"/>
    <tag k="name" v="Landstraße"/>
    <tag k="ref" v="B 3"/>
    <tag k="source:maxspeed" v="DE:urban"/>
    <tag k="zone:traffic" v="DE:urban"/>
  </way>
  <way id="30501195" version="13" timestamp="2012-07-17T05:25:22Z" uid="722137" user="OSMF Redaction Account" changeset="12257655">
    <nd ref="13888235"/>
    <nd ref="28985567"/>
    <nd ref="1673837073"/>
    <tag k="highway" v="primary"/>
    <tag k="name" v="Landstraße"/>
    <tag k="ref" v="B 3"/>
    <tag k="source:maxspeed" v="DE:urban"/>
    <tag k="zone:traffic" v="DE:urban"/>
  </way>
</osm>
