<?xml version='1.0' encoding='UTF-8'?>
<osm version="0.6" generator="libosmium/2.20.0">
  <way id="30605187" version="9" timestamp="2010-01-04T10:29:38Z" uid="27600" user="Islanit" changeset="3535886">
    <nd ref="338417842"/>
    <nd ref="338897168"/>
    <nd ref="338418832"/>
    <nd ref="338418833"/>
    <tag k="bridge" v="yes"/>
    <tag k="highway" v="motorway"/>
    <tag k="layer" v="1"/>
    <tag k="name" v="Grant McConachie Way"/>
    <tag k="oneway" v="yes"/>
  </way>
  <way id="30605187" version="10" timestamp="2010-02-20T01:44:16Z" uid="134600" user="klusark" changeset="3920203">
    <nd ref="338417842"/>
    <nd ref="338897168"/>
    <nd ref="338418832"/>
    <nd ref="338418833"/>
    <tag k="bridge" v="yes"/>
    <tag k="highway" v="secondary"/>
    <tag k="layer" v="1"/>
    <tag k="name" v="Grant McConachie Way"/>
    <tag k="oneway" v="yes"/>
  </way>
  <way id="30605187" version="11" timestamp="2011-06-05T00:28:10Z" uid="14351" user="WBSKI" changeset="8344435">
    <nd ref="338417842"/>
    <nd ref="338897168"/>
    <nd ref="338418832"/>
    <nd ref="338418833"/>
    <tag k="bridge" v="yes"/>
    <tag k="cycleway" v="lane"/>
    <tag k="highway" v="secondary"/>
    <tag k="layer" v="1"/>
    <tag k="name" v="Grant McConachie Way"/>
    <tag k="oneway" v="yes"/>
  </way>
  <way id="30605187" version="12" timestamp="2012-03-26T06:01:14Z" uid="355617" user="pnorman" changeset="11102236">
    <nd ref="338417842"/>
    <nd ref="338897168"/>
    <nd ref="338418832"/>
    <nd ref="338418833"/>
    <tag k="bridge" v="yes"/>
    <tag k="cycleway" v="lane"/>
    <tag k="highway" v="secondary"/>
    <tag k="layer" v="1"/>
    <tag k="name" v="Arthur Laing Bridge"/>
    <tag k="name:en" v="Arthur Laing Bridge"/>
    <tag k="name:fr" v="Pont Arthur Laing"/>
    <tag k="odbl" v="clean"/>
    <tag k="oneway" v="yes"/>
  </way>
  <way id="30605200" version="2" timestamp="2009-10-08T22:07:53Z" uid="179968" user="Ich_hasse_doitsche_OSM-Korinthenkacker" changeset="2788120">
    <nd ref="270190802"/>
    <nd ref="270190803"/>
    <nd ref="270190697"/>
    <nd ref="245456951"/>
    <nd ref="270190888"/>
    <tag k="cycleway" v="track"/>
    <tag k="highway" v="secondary"/>
    <tag k="maxspeed" v="city_limits"/>
    <tag k="ref" v="L 266"/>
  </way>
  <way id="30605200" version="3" timestamp="2010-01-17T14:47:47Z" uid="35560" user="HeikoE" changeset="3641710">
    <nd ref="270190802"/>
    <nd ref="270190803"/>
    <nd ref="270190697"/>
    <nd ref="245456951"/>
    <nd ref="270190888"/>
    <tag k="cycleway" v="track"/>
    <tag k="highway" v="secondary"/>
    <tag k="maxspeed" v="50"/>
    <tag k="ref" v="L 266"/>
    <tag k="source:maxspeed" v="DE:urban"/>
  </way>
  <way id="30605200" version="4" timestamp="2010-09-13T15:55:00Z" uid="104779" user="ABRob" changeset="5768179">
    <nd ref="270190802"/>
    <nd ref="270190803"/>
    <nd ref="270190697"/>
    <nd ref="245456951"/>
    <nd ref="270190888"/>
    <tag k="cycleway" v="track"/>
    <tag k="highway" v="secondary"/>
    <tag k="maxspeed" v="50"/>
    <tag k="ref" v="L 266"/>
    <tag k="source:maxspeed" v="DE:urban"/>
    <tag k="zone:traffic" v="DE:urban"/>
  </way>
  <way id="30605213" version="2" timestamp="2009-06-27T06:13:08Z" uid="33382" user="de_muur" changeset="1646246">
    <nd ref="270178879"/>
    <nd ref="270178880"/>
    <tag k="created_by" v="Potlatch 0.9c"/>
    <tag k="highway" v="cycleway"/>
  </way>
  <way id="30605213" version="3" timestamp="2009-09-09T16:16:58Z" uid="135239" user="chateau_reblaus" changeset="2427057">
    <nd ref="270178880"/>
    <nd ref="270178879"/>
    <tag k="created_by" v="Potlatch 0.9c"/>
    <tag k="highway" v="cycleway"/>
  </way>
  <way id="30605288" version="3" timestamp="2009-02-01T20:50:52Z" uid="6975" user="ulfl" changeset="27333">
    <nd ref="338419329"/>
    <nd ref="338419331"/>
    <nd ref="338419333"/>
    <nd ref="338419335"/>
    <nd ref="338419329"/>
    <tag k="building" v="yes"/>
    <tag k="name" v="Aldi"/>
    <tag k="shop" v="supermarket"/>
  </way>
  <way id="30605288" version="4" timestamp="2011-07-15T12:13:33Z" uid="12614" user="rabenkind" changeset="8730692"/>
  <way id="30605289" version="3" timestamp="2009-02-01T20:50:53Z" uid="6975" user="ulfl" changeset="27333">
    <nd ref="338419337"/>
    <nd ref="338419339"/>
    <nd ref="338419341"/>
    <nd ref="338419342"/>
    <nd ref="338419337"/>
    <tag k="building" v="yes"/>
    <tag k="name" v="Zentex Teppichcenter"/>
    <tag k="shop" v="supermarket"/>
  </way>
  <way id="30605289" version="4" timestamp="2011-07-15T12:13:33Z" uid="12614" user="rabenkind" changeset="8730692"/>
  <way id="30605292" version="2" timestamp="2009-02-01T20:50:49Z" uid="6975" user="ulfl" changeset="27333">
    <nd ref="338419378"/>
    <nd ref="338419399"/>
    <nd ref="338419404"/>
    <nd ref="338419408"/>
    <nd ref="338419378"/>
    <tag k="landuse" v="retail"/>
    <tag k="name" v="Penny Markt"/>
    <tag k="shop" v="supermarket"/>
  </way>
  <way id="30605292" version="3" timestamp="2010-10-17T13:59:21Z" uid="141931" user="Sharlin" changeset="6067332">
    <nd ref="338419378"/>
    <nd ref="338419399"/>
    <nd ref="338419404"/>
    <nd ref="338419408"/>
    <nd ref="338419378"/>
    <tag k="addr:city" v="Erkrath"/>
    <tag k="addr:country" v="DE"/>
    <tag k="addr:housenumber" v="3"/>
    <tag k="addr:postcode" v="40699"/>
    <tag k="addr:street" v="Am Gatherfeld"/>
    <tag k="name" v="Penny Markt"/>
    <tag k="opening_hours" v="Mo-Sa 07:00-22:00"/>
    <tag k="shop" v="supermarket"/>
    <tag k="website" v="http://www.penny.de/"/>
  </way>
  <way id="30605292" version="4" timestamp="2010-10-17T15:14:31Z" uid="141931" user="Sharlin" changeset="6067984">
    <nd ref="338419378"/>
    <nd ref="338419399"/>
    <nd ref="338419404"/>
    <nd ref="338419408"/>
    <nd ref="338419378"/>
    <tag k="addr:city" v="Erkrath"/>
    <tag k="addr:country" v="DE"/>
    <tag k="addr:housenumber" v="3"/>
    <tag k="addr:postcode" v="40699"/>
    <tag k="addr:street" v="Am Gatherfeld"/>
    <tag k="building" v="yes"/>
    <tag k="name" v="Penny Markt"/>
    <tag k="opening_hours" v="Mo-Sa 07:00-22:00"/>
    <tag k="shop" v="supermarket"/>
    <tag k="website" v="http://www.penny.de/"/>
  </way>
  <way id="30605292" version="5" timestamp="2011-07-15T18:30:41Z" uid="12614" user="rabenkind" changeset="8733558">
    <nd ref="338419378"/>
    <nd ref="338419399"/>
    <nd ref="258979347"/>
    <nd ref="258979348"/>
    <nd ref="338419408"/>
    <nd ref="338419378"/>
    <tag k="addr:city" v="Erkrath"/>
    <tag k="addr:country" v="DE"/>
    <tag k="addr:housenumber" v="3"/>
    <tag k="addr:postcode" v="40699"/>
    <tag k="addr:street" v="Am Gatherfeld"/>
    <tag k="building" v="yes"/>
    <tag k="name" v="Penny Markt"/>
    <tag k="opening_hours" v="Mo-Sa 07:00-22:00"/>
    <tag k="shop" v="supermarket"/>
    <tag k="website" v="http://www.penny.de/"/>
  </way>
  <way id="30605292" version="6" timestamp="2011-12-21T16:53:55Z" uid="12614" user="rabenkind" changeset="10173319"/>
  <way id="30605307" version="1" timestamp="2009-01-27T17:43:44Z" uid="43863" user="Rundling" changeset="845097">
    <nd ref="338420043"/>
    <nd ref="338420044"/>
    <nd ref="338420045"/>
    <nd ref="338420046"/>
    <nd ref="338420047"/>
    <nd ref="338420050"/>
    <nd ref="338420051"/>
    <nd ref="338420053"/>
    <nd ref="338420043"/>
    <tag k="building" v="yes"/>
    <tag k="name" v="SVO"/>
  </way>
  <way id="30605307" version="2" timestamp="2009-06-28T06:48:17Z" uid="43863" user="Rundling" changeset="1659198">
    <nd ref="338420043"/>
    <nd ref="338420044"/>
    <nd ref="338420045"/>
    <nd ref="338420046"/>
    <nd ref="338420047"/>
    <nd ref="338420050"/>
    <nd ref="338420051"/>
    <nd ref="338420053"/>
    <nd ref="338420043"/>
    <tag k="addr:city" v="Uelzen"/>
    <tag k="addr:country" v="DE"/>
    <tag k="addr:housename" v="SVO Energie GmbH"/>
    <tag k="addr:housenumber" v="21"/>
    <tag k="addr:postcode" v="29525"/>
    <tag k="addr:street" v="Auf dem Rahlande"/>
    <tag k="building" v="yes"/>
    <tag k="name" v="SVO"/>
  </way>
  <way id="30605307" version="3" timestamp="2009-07-03T15:44:49Z" uid="43863" user="Rundling" changeset="1722179">
    <nd ref="433065457"/>
    <nd ref="433065458"/>
    <nd ref="338420045"/>
    <nd ref="338420046"/>
    <nd ref="433065454"/>
    <nd ref="433065456"/>
    <nd ref="338420051"/>
    <nd ref="338420053"/>
    <nd ref="433065457"/>
    <tag k="addr:city" v="Uelzen"/>
    <tag k="addr:country" v="DE"/>
    <tag k="addr:housename" v="SVO Energie GmbH"/>
    <tag k="addr:housenumber" v="21"/>
    <tag k="addr:postcode" v="29525"/>
    <tag k="addr:street" v="Auf dem Rahlande"/>
    <tag k="building" v="yes"/>
    <tag k="name" v="SVO"/>
  </way>
  <way id="30605307" version="4" timestamp="2009-07-03T17:28:12Z" uid="43863" user="Rundling" changeset="1723050">
    <nd ref="433196612"/>
    <nd ref="433196615"/>
    <nd ref="338420046"/>
    <nd ref="433065454"/>
    <nd ref="433065456"/>
    <nd ref="338420051"/>
    <nd ref="433196617"/>
    <nd ref="433196621"/>
    <nd ref="433196612"/>
    <tag k="addr:city" v="Uelzen"/>
    <tag k="addr:country" v="DE"/>
    <tag k="addr:housename" v="SVO Energie GmbH"/>
    <tag k="addr:housenumber" v="21"/>
    <tag k="addr:postcode" v="29525"/>
    <tag k="addr:street" v="Auf dem Rahlande"/>
    <tag k="building" v="yes"/>
    <tag k="name" v="SVO"/>
  </way>
  <way id="30605307" version="5" timestamp="2009-07-03T19:34:47Z" uid="43863" user="Rundling" changeset="1724157">
    <nd ref="433196615"/>
    <nd ref="338420046"/>
    <nd ref="433328437"/>
    <nd ref="433328441"/>
    <nd ref="433328450"/>
    <nd ref="433328452"/>
    <nd ref="433328443"/>
    <nd ref="433328446"/>
    <nd ref="433196615"/>
    <tag k="addr:city" v="Uelzen"/>
    <tag k="addr:country" v="DE"/>
    <tag k="addr:housename" v="SVO Energie GmbH"/>
    <tag k="addr:housenumber" v="21"/>
    <tag k="addr:postcode" v="29525"/>
    <tag k="addr:street" v="Auf dem Rahlande"/>
    <tag k="building" v="yes"/>
    <tag k="name" v="SVO"/>
  </way>
  <way id="30605307" version="6" timestamp="2009-07-04T05:04:34Z" uid="43863" user="Rundling" changeset="1726601">
    <nd ref="338420046"/>
    <nd ref="433559723"/>
    <nd ref="433559724"/>
    <nd ref="433559725"/>
    <nd ref="433559721"/>
    <nd ref="433559722"/>
    <nd ref="433559719"/>
    <nd ref="433559720"/>
    <nd ref="338420046"/>
    <tag k="addr:city" v="Uelzen"/>
    <tag k="addr:country" v="DE"/>
    <tag k="addr:housename" v="SVO Energie GmbH"/>
    <tag k="addr:housenumber" v="21"/>
    <tag k="addr:postcode" v="29525"/>
    <tag k="addr:street" v="Auf dem Rahlande"/>
    <tag k="building" v="yes"/>
    <tag k="name" v="SVO"/>
  </way>
  <way id="30605307" version="7" timestamp="2009-07-04T06:24:30Z" uid="43863" user="Rundling" changeset="1726977">
    <nd ref="338420046"/>
    <nd ref="433559723"/>
    <nd ref="433559724"/>
    <nd ref="433559725"/>
    <nd ref="433559721"/>
    <nd ref="433569704"/>
    <nd ref="433569705"/>
    <nd ref="433559720"/>
    <nd ref="338420046"/>
    <tag k="addr:city" v="Uelzen"/>
    <tag k="addr:country" v="DE"/>
    <tag k="addr:housename" v="SVO Energie GmbH"/>
    <tag k="addr:housenumber" v="21"/>
    <tag k="addr:postcode" v="29525"/>
    <tag k="addr:street" v="Auf dem Rahlande"/>
    <tag k="building" v="yes"/>
    <tag k="name" v="SVO"/>
  </way>
  <way id="30605400" version="2" timestamp="2009-02-01T20:35:37Z" uid="6975" user="ulfl" changeset="27333">
    <nd ref="338421115"/>
    <nd ref="338421116"/>
    <nd ref="338421117"/>
    <nd ref="338421118"/>
    <nd ref="338421119"/>
    <nd ref="338421120"/>
    <nd ref="338421115"/>
    <tag k="leisure" v="sports_centre"/>
    <tag k="sport" v="swimming"/>
  </way>
  <way id="30605400" version="3" timestamp="2011-01-08T13:54:59Z" uid="44938" user="ianlopez1115" changeset="6903888">
    <nd ref="338421115"/>
    <nd ref="338421116"/>
    <nd ref="338421117"/>
    <nd ref="338421118"/>
    <nd ref="338421119"/>
    <nd ref="338421120"/>
    <nd ref="338421115"/>
    <tag k="leisure" v="swimming_pool"/>
    <tag k="sport" v="swimming"/>
  </way>
  <way id="30605400" version="4" timestamp="2011-06-10T07:51:00Z" uid="84952" user="remzamora" changeset="8394670">
    <nd ref="338421115"/>
    <nd ref="338421116"/>
    <nd ref="338421117"/>
    <nd ref="338421118"/>
    <nd ref="338421119"/>
    <nd ref="338421120"/>
    <nd ref="338421115"/>
    <tag k="leisure" v="swimming_pool"/>
    <tag k="name" v="University Pool"/>
    <tag k="sport" v="swimming"/>
  </way>
  <way id="30605565" version="2" timestamp="2009-10-08T22:08:14Z" uid="179968" user="Ich_hasse_doitsche_OSM-Korinthenkacker" changeset="2788120">
    <nd ref="277861901"/>
    <nd ref="277861913"/>
    <nd ref="277861909"/>
    <nd ref="277861912"/>
    <nd ref="277861900"/>
    <nd ref="277861902"/>
    <nd ref="277861903"/>
    <nd ref="277861906"/>
    <nd ref="277861907"/>
    <nd ref="277861908"/>
    <nd ref="277861910"/>
    <nd ref="247793626"/>
    <tag k="highway" v="cycleway"/>
  </way>
  <way id="30605565" version="3" timestamp="2010-06-01T21:14:11Z" uid="101355" user="ottokar55" changeset="4878662">
    <nd ref="277861901"/>
    <nd ref="277861913"/>
    <nd ref="277861909"/>
    <nd ref="277861912"/>
    <nd ref="277861900"/>
    <nd ref="761718385"/>
    <nd ref="277861902"/>
    <nd ref="277861903"/>
    <nd ref="277861906"/>
    <nd ref="277861907"/>
    <nd ref="277861908"/>
    <nd ref="277861910"/>
    <nd ref="247793626"/>
    <tag k="highway" v="cycleway"/>
  </way>
  <way id="30605644" version="1" timestamp="2009-01-27T18:05:16Z" uid="67142" user="zottel" changeset="843927">
    <nd ref="338424912"/>
    <nd ref="338424923"/>
    <nd ref="338424913"/>
    <nd ref="338424914"/>
    <nd ref="338424915"/>
    <nd ref="338424916"/>
    <nd ref="338424917"/>
    <nd ref="338424918"/>
    <nd ref="338424919"/>
    <nd ref="338424920"/>
    <nd ref="338424921"/>
    <nd ref="338424922"/>
    <nd ref="338424912"/>
    <tag k="feeding" v="no"/>
    <tag k="layer" v="1"/>
    <tag k="leisure" v="park"/>
    <tag k="name" v="Steinbock"/>
  </way>
  <way id="30605644" version="2" timestamp="2009-01-28T12:41:01Z" uid="67142" user="zottel" changeset="847713">
    <nd ref="338424912"/>
    <nd ref="338424923"/>
    <nd ref="338424913"/>
    <nd ref="338424914"/>
    <nd ref="338424915"/>
    <nd ref="338424916"/>
    <nd ref="338424917"/>
    <nd ref="338424918"/>
    <nd ref="338424919"/>
    <nd ref="338424920"/>
    <nd ref="338424921"/>
    <nd ref="338424922"/>
    <nd ref="338424912"/>
    <tag k="feeding" v="no"/>
    <tag k="layer" v="1"/>
    <tag k="leisure" v="park"/>
    <tag k="name" v="Steinbock"/>
    <tag k="tourism" v="enclosure"/>
  </way>
  <way id="30605644" version="3" timestamp="2009-02-22T19:08:23Z" uid="67142" user="zottel" changeset="619624">
    <nd ref="338424912"/>
    <nd ref="338424923"/>
    <nd ref="338424913"/>
    <nd ref="338424914"/>
    <nd ref="338424915"/>
    <nd ref="338424916"/>
    <nd ref="338424917"/>
    <nd ref="338424918"/>
    <nd ref="338424919"/>
    <nd ref="338424920"/>
    <nd ref="338424921"/>
    <nd ref="338424922"/>
    <nd ref="338424912"/>
    <tag k="feeding" v="no"/>
    <tag k="image" v="http://osm.dev-random.de/upload/wildpark-pf-steinbock.jpg"/>
    <tag k="layer" v="1"/>
    <tag k="leisure" v="park"/>
    <tag k="name" v="Steinbock"/>
    <tag k="tourism" v="enclosure"/>
  </way>
  <way id="30605644" version="4" timestamp="2011-11-06T14:01:22Z" uid="5862" user="sturmflut" changeset="9755385">
    <nd ref="338424912"/>
    <nd ref="338424923"/>
    <nd ref="338424913"/>
    <nd ref="338424914"/>
    <nd ref="338424915"/>
    <nd ref="338424916"/>
    <nd ref="338424917"/>
    <nd ref="338424918"/>
    <nd ref="338424919"/>
    <nd ref="338424920"/>
    <nd ref="338424921"/>
    <nd ref="338424922"/>
    <nd ref="338424912"/>
    <tag k="feeding" v="no"/>
    <tag k="image" v="http://osm.dev-random.de/upload/wildpark-pf-steinbock.jpg"/>
    <tag k="layer" v="1"/>
    <tag k="name" v="Steinbock"/>
    <tag k="tourism" v="attraction"/>
  </way>
  <way id="30605644" version="5" timestamp="2011-11-18T12:33:52Z" uid="442210" user="dwausr" changeset="9863299"/>
  <way id="30605645" version="1" timestamp="2009-01-27T18:05:17Z" uid="67142" user="zottel" changeset="843927">
    <nd ref="338424924"/>
    <nd ref="338424912"/>
    <nd ref="338424922"/>
    <nd ref="338424925"/>
    <nd ref="338424926"/>
    <nd ref="338424927"/>
    <nd ref="338424924"/>
    <tag k="feeding" v="no"/>
    <tag k="layer" v="1"/>
    <tag k="leisure" v="park"/>
    <tag k="name" v="Gämse"/>
  </way>
  <way id="30605645" version="2" timestamp="2009-01-28T12:41:01Z" uid="67142" user="zottel" changeset="847713">
    <nd ref="338424924"/>
    <nd ref="338424912"/>
    <nd ref="338424922"/>
    <nd ref="338424925"/>
    <nd ref="338424926"/>
    <nd ref="338424927"/>
    <nd ref="338424924"/>
    <tag k="feeding" v="no"/>
    <tag k="layer" v="1"/>
    <tag k="leisure" v="park"/>
    <tag k="name" v="Gämse"/>
    <tag k="tourism" v="enclosure"/>
  </way>
  <way id="30605645" version="3" timestamp="2011-11-06T14:01:10Z" uid="5862" user="sturmflut" changeset="9755385">
    <nd ref="338424924"/>
    <nd ref="338424912"/>
    <nd ref="338424922"/>
    <nd ref="338424925"/>
    <nd ref="338424926"/>
    <nd ref="338424927"/>
    <nd ref="338424924"/>
    <tag k="feeding" v="no"/>
    <tag k="layer" v="1"/>
    <tag k="name" v="Gämse"/>
    <tag k="tourism" v="attraction"/>
  </way>
  <way id="30605645" version="4" timestamp="2011-11-18T12:33:43Z" uid="442210" user="dwausr" changeset="9863299"/>
  <way id="30605646" version="1" timestamp="2009-01-27T18:05:18Z" uid="67142" user="zottel" changeset="843927">
    <nd ref="338424928"/>
    <nd ref="338424929"/>
    <nd ref="338424930"/>
    <nd ref="338424932"/>
    <nd ref="338424933"/>
    <nd ref="338424934"/>
    <nd ref="338424935"/>
    <nd ref="338424936"/>
    <nd ref="338424937"/>
    <nd ref="338424938"/>
    <nd ref="338424924"/>
    <nd ref="338424927"/>
    <nd ref="338424939"/>
    <nd ref="338424944"/>
    <nd ref="338424945"/>
    <nd ref="338424946"/>
    <nd ref="338424947"/>
    <nd ref="338424948"/>
    <nd ref="338424949"/>
    <nd ref="338424950"/>
    <nd ref="338424951"/>
    <nd ref="338424952"/>
    <nd ref="338424953"/>
    <nd ref="338424928"/>
    <tag k="feeding" v="no"/>
    <tag k="layer" v="1"/>
    <tag k="leisure" v="park"/>
    <tag k="name" v="Rehwild"/>
  </way>
  <way id="30605646" version="2" timestamp="2009-01-28T12:41:02Z" uid="67142" user="zottel" changeset="847713">
    <nd ref="338424928"/>
    <nd ref="338424929"/>
    <nd ref="338424930"/>
    <nd ref="338424932"/>
    <nd ref="338424933"/>
    <nd ref="338424934"/>
    <nd ref="338424935"/>
    <nd ref="338424936"/>
    <nd ref="338424937"/>
    <nd ref="338424938"/>
    <nd ref="338424924"/>
    <nd ref="338424927"/>
    <nd ref="338424939"/>
    <nd ref="338424944"/>
    <nd ref="338424945"/>
    <nd ref="338424946"/>
    <nd ref="338424947"/>
    <nd ref="338424948"/>
    <nd ref="338424949"/>
    <nd ref="338424950"/>
    <nd ref="338424951"/>
    <nd ref="338424952"/>
    <nd ref="338424953"/>
    <nd ref="338424928"/>
    <tag k="feeding" v="no"/>
    <tag k="layer" v="1"/>
    <tag k="leisure" v="park"/>
    <tag k="name" v="Rehwild"/>
    <tag k="tourism" v="enclosure"/>
  </way>
  <way id="30605646" version="3" timestamp="2011-11-06T14:01:18Z" uid="5862" user="sturmflut" changeset="9755385">
    <nd ref="338424928"/>
    <nd ref="338424929"/>
    <nd ref="338424930"/>
    <nd ref="338424932"/>
    <nd ref="338424933"/>
    <nd ref="338424934"/>
    <nd ref="338424935"/>
    <nd ref="338424936"/>
    <nd ref="338424937"/>
    <nd ref="338424938"/>
    <nd ref="338424924"/>
    <nd ref="338424927"/>
    <nd ref="338424939"/>
    <nd ref="338424944"/>
    <nd ref="338424945"/>
    <nd ref="338424946"/>
    <nd ref="338424947"/>
    <nd ref="338424948"/>
    <nd ref="338424949"/>
    <nd ref="338424950"/>
    <nd ref="338424951"/>
    <nd ref="338424952"/>
    <nd ref="338424953"/>
    <nd ref="338424928"/>
    <tag k="feeding" v="no"/>
    <tag k="layer" v="1"/>
    <tag k="name" v="Rehwild"/>
    <tag k="tourism" v="attraction"/>
  </way>
  <way id="30605646" version="4" timestamp="2011-11-18T12:33:49Z" uid="442210" user="dwausr" changeset="9863299"/>
  <way id="30605647" version="1" timestamp="2009-01-27T18:05:18Z" uid="67142" user="zottel" changeset="843927">
    <nd ref="338424954"/>
    <nd ref="338424955"/>
    <nd ref="338424956"/>
    <nd ref="338424957"/>
    <nd ref="338424958"/>
    <nd ref="338424959"/>
    <nd ref="338424960"/>
    <nd ref="338424961"/>
    <nd ref="338424962"/>
    <nd ref="338424963"/>
    <nd ref="338424964"/>
    <nd ref="338424965"/>
    <nd ref="338424966"/>
    <nd ref="338424967"/>
    <nd ref="338424968"/>
    <nd ref="338424969"/>
    <nd ref="338424970"/>
    <nd ref="338424972"/>
    <nd ref="338424928"/>
    <nd ref="338424953"/>
    <nd ref="338424952"/>
    <nd ref="338424951"/>
    <nd ref="338424950"/>
    <nd ref="338424949"/>
    <nd ref="338424948"/>
    <nd ref="338424947"/>
    <nd ref="338424979"/>
    <nd ref="338424980"/>
    <nd ref="338424989"/>
    <nd ref="338424990"/>
    <nd ref="338424991"/>
    <nd ref="338424992"/>
    <nd ref="338424994"/>
    <nd ref="338424995"/>
    <nd ref="338424996"/>
    <nd ref="338424997"/>
    <nd ref="338424998"/>
    <nd ref="338424954"/>
    <tag k="feeding" v="yes"/>
    <tag k="layer" v="1"/>
    <tag k="leisure" v="park"/>
    <tag k="name" v="Rotwild"/>
  </way>
  <way id="30605647" version="2" timestamp="2009-01-27T22:11:39Z" uid="67142" user="zottel" changeset="846943">
    <nd ref="338424954"/>
    <nd ref="338424955"/>
    <nd ref="338424956"/>
    <nd ref="338424957"/>
    <nd ref="338424958"/>
    <nd ref="338424959"/>
    <nd ref="338424960"/>
    <nd ref="338424961"/>
    <nd ref="338424962"/>
    <nd ref="338424963"/>
    <nd ref="338424964"/>
    <nd ref="338424965"/>
    <nd ref="338424966"/>
    <nd ref="338424967"/>
    <nd ref="338424968"/>
    <nd ref="338424969"/>
    <nd ref="338424970"/>
    <nd ref="338424972"/>
    <nd ref="338424928"/>
    <nd ref="338424953"/>
    <nd ref="338424952"/>
    <nd ref="338424951"/>
    <nd ref="338424950"/>
    <nd ref="338424949"/>
    <nd ref="338424948"/>
    <nd ref="338424947"/>
    <nd ref="338424979"/>
    <nd ref="338424980"/>
    <nd ref="338424989"/>
    <nd ref="338424990"/>
    <nd ref="338424991"/>
    <nd ref="338424992"/>
    <nd ref="338424994"/>
    <nd ref="338424995"/>
    <nd ref="338424996"/>
    <nd ref="338486748"/>
    <nd ref="338424997"/>
    <nd ref="338424998"/>
    <nd ref="338486749"/>
    <nd ref="338424954"/>
    <tag k="feeding" v="yes"/>
    <tag k="layer" v="1"/>
    <tag k="leisure" v="park"/>
    <tag k="name" v="Rotwild"/>
  </way>
  <way id="30605647" version="3" timestamp="2009-01-28T12:41:03Z" uid="67142" user="zottel" changeset="847713">
    <nd ref="338424954"/>
    <nd ref="338424955"/>
    <nd ref="338424956"/>
    <nd ref="338424957"/>
    <nd ref="338424958"/>
    <nd ref="338424959"/>
    <nd ref="338424960"/>
    <nd ref="338424961"/>
    <nd ref="338424962"/>
    <nd ref="338424963"/>
    <nd ref="338424964"/>
    <nd ref="338424965"/>
    <nd ref="338424966"/>
    <nd ref="338424967"/>
    <nd ref="338424968"/>
    <nd ref="338424969"/>
    <nd ref="338424970"/>
    <nd ref="338424972"/>
    <nd ref="338424928"/>
    <nd ref="338424953"/>
    <nd ref="338424952"/>
    <nd ref="338424951"/>
    <nd ref="338424950"/>
    <nd ref="338424949"/>
    <nd ref="338424948"/>
    <nd ref="338424947"/>
    <nd ref="338424979"/>
    <nd ref="338424980"/>
    <nd ref="338424989"/>
    <nd ref="338424990"/>
    <nd ref="338424991"/>
    <nd ref="338424992"/>
    <nd ref="338424994"/>
    <nd ref="338424995"/>
    <nd ref="338424996"/>
    <nd ref="338486748"/>
    <nd ref="338424997"/>
    <nd ref="338424998"/>
    <nd ref="338486749"/>
    <nd ref="338424954"/>
    <tag k="feeding" v="yes"/>
    <tag k="layer" v="1"/>
    <tag k="leisure" v="park"/>
    <tag k="name" v="Rotwild"/>
    <tag k="tourism" v="enclosure"/>
  </way>
  <way id="30605647" version="4" timestamp="2009-02-22T19:08:24Z" uid="67142" user="zottel" changeset="619624">
    <nd ref="338424954"/>
    <nd ref="338424955"/>
    <nd ref="338424956"/>
    <nd ref="338424957"/>
    <nd ref="338424958"/>
    <nd ref="338424959"/>
    <nd ref="338424960"/>
    <nd ref="338424961"/>
    <nd ref="338424962"/>
    <nd ref="338424963"/>
    <nd ref="338424964"/>
    <nd ref="338424965"/>
    <nd ref="338424966"/>
    <nd ref="338424967"/>
    <nd ref="338424968"/>
    <nd ref="338424969"/>
    <nd ref="338424970"/>
    <nd ref="338424972"/>
    <nd ref="338424928"/>
    <nd ref="338424953"/>
    <nd ref="338424952"/>
    <nd ref="338424951"/>
    <nd ref="338424950"/>
    <nd ref="338424949"/>
    <nd ref="338424948"/>
    <nd ref="338424947"/>
    <nd ref="338424979"/>
    <nd ref="338424980"/>
    <nd ref="338424989"/>
    <nd ref="338424990"/>
    <nd ref="338424991"/>
    <nd ref="338424992"/>
    <nd ref="338424994"/>
    <nd ref="338424995"/>
    <nd ref="338424996"/>
    <nd ref="338486748"/>
    <nd ref="338424997"/>
    <nd ref="338424998"/>
    <nd ref="338486749"/>
    <nd ref="338424954"/>
    <tag k="feeding" v="yes"/>
    <tag k="image" v="http://osm.dev-random.de/upload/wildpark-pf-rotwild.jpg"/>
    <tag k="layer" v="1"/>
    <tag k="leisure" v="park"/>
    <tag k="name" v="Rotwild"/>
    <tag k="tourism" v="enclosure"/>
  </way>
  <way id="30605647" version="5" timestamp="2011-11-06T14:01:19Z" uid="5862" user="sturmflut" changeset="9755385">
    <nd ref="338424954"/>
    <nd ref="338424955"/>
    <nd ref="338424956"/>
    <nd ref="338424957"/>
    <nd ref="338424958"/>
    <nd ref="338424959"/>
    <nd ref="338424960"/>
    <nd ref="338424961"/>
    <nd ref="338424962"/>
    <nd ref="338424963"/>
    <nd ref="338424964"/>
    <nd ref="338424965"/>
    <nd ref="338424966"/>
    <nd ref="338424967"/>
    <nd ref="338424968"/>
    <nd ref="338424969"/>
    <nd ref="338424970"/>
    <nd ref="338424972"/>
    <nd ref="338424928"/>
    <nd ref="338424953"/>
    <nd ref="338424952"/>
    <nd ref="338424951"/>
    <nd ref="338424950"/>
    <nd ref="338424949"/>
    <nd ref="338424948"/>
    <nd ref="338424947"/>
    <nd ref="338424979"/>
    <nd ref="338424980"/>
    <nd ref="338424989"/>
    <nd ref="338424990"/>
    <nd ref="338424991"/>
    <nd ref="338424992"/>
    <nd ref="338424994"/>
    <nd ref="338424995"/>
    <nd ref="338424996"/>
    <nd ref="338486748"/>
    <nd ref="338424997"/>
    <nd ref="338424998"/>
    <nd ref="338486749"/>
    <nd ref="338424954"/>
    <tag k="feeding" v="yes"/>
    <tag k="image" v="http://osm.dev-random.de/upload/wildpark-pf-rotwild.jpg"/>
    <tag k="layer" v="1"/>
    <tag k="name" v="Rotwild"/>
    <tag k="tourism" v="attraction"/>
  </way>
  <way id="30605647" version="6" timestamp="2011-11-18T12:33:49Z" uid="442210" user="dwausr" changeset="9863299"/>
  <way id="30605648" version="1" timestamp="2009-01-27T18:05:19Z" uid="67142" user="zottel" changeset="843927">
    <nd ref="338424999"/>
    <nd ref="338425000"/>
    <nd ref="338425001"/>
    <nd ref="338425002"/>
    <nd ref="338425003"/>
    <nd ref="338424957"/>
    <nd ref="338424956"/>
    <nd ref="338425004"/>
    <nd ref="338425005"/>
    <nd ref="338425006"/>
    <nd ref="338425043"/>
    <nd ref="338425044"/>
    <nd ref="338424999"/>
    <tag k="feeding" v="yes"/>
    <tag k="layer" v="1"/>
    <tag k="leisure" v="park"/>
    <tag k="name" v="Wildschwei"/>
  </way>
  <way id="30605648" version="2" timestamp="2009-01-27T22:11:40Z" uid="67142" user="zottel" changeset="846943">
    <nd ref="338424999"/>
    <nd ref="338425000"/>
    <nd ref="338425001"/>
    <nd ref="338425002"/>
    <nd ref="338425003"/>
    <nd ref="338424957"/>
    <nd ref="338424956"/>
    <nd ref="338425004"/>
    <nd ref="338425005"/>
    <nd ref="338425006"/>
    <nd ref="338425043"/>
    <nd ref="338425044"/>
    <nd ref="338424999"/>
    <tag k="feeding" v="yes"/>
    <tag k="layer" v="1"/>
    <tag k="leisure" v="park"/>
    <tag k="name" v="Wildschwein"/>
  </way>
  <way id="30605648" version="3" timestamp="2009-01-28T12:41:05Z" uid="67142" user="zottel" changeset="847713">
    <nd ref="338424999"/>
    <nd ref="338425000"/>
    <nd ref="338425001"/>
    <nd ref="338425002"/>
    <nd ref="338425003"/>
    <nd ref="338424957"/>
    <nd ref="338424956"/>
    <nd ref="338425004"/>
    <nd ref="338425005"/>
    <nd ref="338425006"/>
    <nd ref="338425043"/>
    <nd ref="338425044"/>
    <nd ref="338424999"/>
    <tag k="feeding" v="yes"/>
    <tag k="layer" v="1"/>
    <tag k="leisure" v="park"/>
    <tag k="name" v="Wildschwein"/>
    <tag k="tourism" v="enclosure"/>
  </way>
  <way id="30605648" version="4" timestamp="2009-02-22T19:08:25Z" uid="67142" user="zottel" changeset="619624">
    <nd ref="338424999"/>
    <nd ref="338425000"/>
    <nd ref="338425001"/>
    <nd ref="338425002"/>
    <nd ref="338425003"/>
    <nd ref="338424957"/>
    <nd ref="338424956"/>
    <nd ref="338425004"/>
    <nd ref="338425005"/>
    <nd ref="338425006"/>
    <nd ref="338425043"/>
    <nd ref="338425044"/>
    <nd ref="338424999"/>
    <tag k="feeding" v="yes"/>
    <tag k="image" v="http://osm.dev-random.de/upload/wildpark-pf-wildschwein.jpg"/>
    <tag k="layer" v="1"/>
    <tag k="leisure" v="park"/>
    <tag k="name" v="Wildschwein"/>
    <tag k="tourism" v="enclosure"/>
  </way>
  <way id="30605648" version="5" timestamp="2011-11-06T14:01:27Z" uid="5862" user="sturmflut" changeset="9755385">
    <nd ref="338424999"/>
    <nd ref="338425000"/>
    <nd ref="338425001"/>
    <nd ref="338425002"/>
    <nd ref="338425003"/>
    <nd ref="338424957"/>
    <nd ref="338424956"/>
    <nd ref="338425004"/>
    <nd ref="338425005"/>
    <nd ref="338425006"/>
    <nd ref="338425043"/>
    <nd ref="338425044"/>
    <nd ref="338424999"/>
    <tag k="feeding" v="yes"/>
    <tag k="image" v="http://osm.dev-random.de/upload/wildpark-pf-wildschwein.jpg"/>
    <tag k="layer" v="1"/>
    <tag k="name" v="Wildschwein"/>
    <tag k="tourism" v="attraction"/>
  </way>
  <way id="30605648" version="6" timestamp="2011-11-18T12:34:06Z" uid="442210" user="dwausr" changeset="9863299"/>
  <way id="30605758" version="5" timestamp="2010-03-28T00:57:31Z" uid="20587" user="balrog-kun" changeset="4250871">
    <nd ref="49751231"/>
    <nd ref="49751232"/>
    <tag k="created_by" v="Potlatch 0.10f"/>
    <tag k="highway" v="motorway"/>
    <tag k="name" v="I-5"/>
    <tag k="name_1" v="San Diego Freeway"/>
    <tag k="oneway" v="yes"/>
    <tag k="ref" v="I 5"/>
    <tag k="tiger:cfcc" v="A15"/>
    <tag k="tiger:county" v="San Diego, CA"/>
    <tag k="tiger:name_base" v="I-5"/>
    <tag k="tiger:name_base_1" v="San Diego"/>
    <tag k="tiger:name_type_1" v="Fwy"/>
    <tag k="tiger:separated" v="yes"/>
    <tag k="tiger:source" v="tiger_import_dch_v0.6_20070809"/>
    <tag k="tiger:tlid" v="195708625:195708628:195753004:195753005:195738446:195708576:195708577:195745212:195745213:195456733:195456734:195752999"/>
  </way>
  <way id="30605758" version="6" timestamp="2010-03-29T22:46:59Z" uid="239998" user="Sundance" changeset="4272322">
    <nd ref="49751231"/>
    <nd ref="49751232"/>
    <tag k="highway" v="motorway"/>
    <tag k="is_in" v="San Diego, CA"/>
    <tag k="name" v="Interstate 5"/>
    <tag k="name_1" v="San Diego Freeway"/>
    <tag k="oneway" v="yes"/>
    <tag k="ref" v="I 5"/>
  </way>
  <way id="30605758" version="7" timestamp="2010-05-07T06:21:34Z" uid="82317" user="AM909" changeset="4627290"/>
  <way id="30605759" version="6" timestamp="2010-03-28T00:57:31Z" uid="20587" user="balrog-kun" changeset="4250871">
    <nd ref="49751228"/>
    <nd ref="49751231"/>
    <tag k="bridge" v="yes"/>
    <tag k="created_by" v="Potlatch 0.10f"/>
    <tag k="highway" v="motorway"/>
    <tag k="layer" v="1"/>
    <tag k="name" v="I-5"/>
    <tag k="name_1" v="San Diego Freeway"/>
    <tag k="oneway" v="yes"/>
    <tag k="ref" v="I 5"/>
    <tag k="tiger:cfcc" v="A15"/>
    <tag k="tiger:county" v="San Diego, CA"/>
    <tag k="tiger:name_base" v="I-5"/>
    <tag k="tiger:name_base_1" v="San Diego"/>
    <tag k="tiger:name_type_1" v="Fwy"/>
    <tag k="tiger:separated" v="yes"/>
    <tag k="tiger:source" v="tiger_import_dch_v0.6_20070809"/>
    <tag k="tiger:tlid" v="195708625:195708628:195753004:195753005:195738446:195708576:195708577:195745212:195745213:195456733:195456734:195752999"/>
  </way>
  <way id="30605759" version="7" timestamp="2010-03-29T22:46:44Z" uid="239998" user="Sundance" changeset="4272322">
    <nd ref="49751228"/>
    <nd ref="49751231"/>
    <tag k="bridge" v="yes"/>
    <tag k="highway" v="motorway"/>
    <tag k="is_in" v="San Diego, CA"/>
    <tag k="layer" v="1"/>
    <tag k="name" v="Interstate 5"/>
    <tag k="name_1" v="San Diego Freeway"/>
    <tag k="oneway" v="yes"/>
    <tag k="ref" v="I 5"/>
  </way>
  <way id="30605759" version="8" timestamp="2010-05-07T06:21:23Z" uid="82317" user="AM909" changeset="4627290">
    <nd ref="49751228"/>
    <nd ref="49751231"/>
    <tag k="bridge" v="yes"/>
    <tag k="bridge_name" v="San Onofre Creek UC"/>
    <tag k="bridge_ref" v="5/SD/57-02"/>
    <tag k="highway" v="motorway"/>
    <tag k="is_in" v="San Diego, CA"/>
    <tag k="is_in:state_code" v="CA"/>
    <tag k="layer" v="1"/>
    <tag k="milepost:county" v="R71.03"/>
    <tag k="name" v="San Diego Freeway"/>
    <tag k="note" v="Bridge ref pic from I-5 South"/>
    <tag k="oneway" v="yes"/>
    <tag k="ref" v="I 5"/>
    <tag k="source:bridge" v="yahoo_imagery;survey;image"/>
    <tag k="source_ref:bridge" v="AM909_DSCU2620"/>
  </way>
  <way id="30605759" version="9" timestamp="2010-05-07T12:00:04Z" uid="82317" user="AM909" changeset="4629441">
    <nd ref="49751228"/>
    <nd ref="49751231"/>
    <tag k="bridge" v="yes"/>
    <tag k="bridge_name" v="San Onofre Creek UC"/>
    <tag k="bridge_ref" v="5/SD/57-02"/>
    <tag k="highway" v="motorway"/>
    <tag k="is_in" v="San Diego, CA"/>
    <tag k="is_in:state_code" v="CA"/>
    <tag k="milepost:county" v="R71.03"/>
    <tag k="name" v="San Diego Freeway"/>
    <tag k="note" v="Bridge ref pic from I-5 South"/>
    <tag k="oneway" v="yes"/>
    <tag k="ref" v="I 5"/>
    <tag k="source:bridge" v="yahoo_imagery;survey;image"/>
    <tag k="source_ref:bridge" v="AM909_DSCU2620"/>
  </way>
  <way id="30605759" version="10" timestamp="2010-05-31T21:08:53Z" uid="194231" user="Chris Bell in California" changeset="4868551">
    <nd ref="49751228"/>
    <nd ref="49751231"/>
    <tag k="bridge" v="yes"/>
    <tag k="bridge_name" v="San Onofre Creek UC"/>
    <tag k="bridge_ref" v="5/SD/57-02"/>
    <tag k="highway" v="motorway"/>
    <tag k="is_in" v="San Diego, CA"/>
    <tag k="is_in:state_code" v="CA"/>
    <tag k="layer" v="1"/>
    <tag k="milepost:county" v="R71.03"/>
    <tag k="name" v="San Diego Freeway"/>
    <tag k="note" v="Bridge ref pic from I-5 South"/>
    <tag k="oneway" v="yes"/>
    <tag k="ref" v="I 5"/>
    <tag k="source:bridge" v="yahoo_imagery;survey;image"/>
    <tag k="source_ref:bridge" v="AM909_DSCU2620"/>
  </way>
  <way id="30605759" version="11" timestamp="2011-08-02T08:07:52Z" uid="207745" user="NE2" changeset="8898279">
    <nd ref="49751228"/>
    <nd ref="49751231"/>
    <tag k="bridge" v="yes"/>
    <tag k="bridge_name" v="San Onofre Creek UC"/>
    <tag k="bridge_ref" v="5/SD/57-02"/>
    <tag k="highway" v="motorway"/>
    <tag k="is_in" v="San Diego, CA"/>
    <tag k="is_in:state_code" v="CA"/>
    <tag k="lanes" v="4"/>
    <tag k="layer" v="1"/>
    <tag k="milepost:county" v="R71.03"/>
    <tag k="name" v="San Diego Freeway"/>
    <tag k="note" v="Bridge ref pic from I-5 South"/>
    <tag k="oneway" v="yes"/>
    <tag k="ref" v="I 5"/>
    <tag k="source:bridge" v="yahoo_imagery;survey;image"/>
    <tag k="source_ref:bridge" v="AM909_DSCU2620"/>
  </way>
  <way id="30605759" version="12" timestamp="2011-11-25T15:08:43Z" uid="207745" user="NE2" changeset="9943893">
    <nd ref="49751228"/>
    <nd ref="49751231"/>
    <tag k="bridge" v="yes"/>
    <tag k="bridge_name" v="San Onofre Creek UC"/>
    <tag k="bridge_ref" v="5/SD/57-02"/>
    <tag k="hgv" v="designated"/>
    <tag k="highway" v="motorway"/>
    <tag k="is_in" v="San Diego, CA"/>
    <tag k="is_in:state_code" v="CA"/>
    <tag k="lanes" v="4"/>
    <tag k="layer" v="1"/>
    <tag k="milepost:county" v="R71.03"/>
    <tag k="name" v="San Diego Freeway"/>
    <tag k="note" v="Bridge ref pic from I-5 South"/>
    <tag k="oneway" v="yes"/>
    <tag k="ref" v="I 5"/>
    <tag k="source:bridge" v="yahoo_imagery;survey;image"/>
    <tag k="source_ref:bridge" v="AM909_DSCU2620"/>
  </way>
  <way id="30605763" version="5" timestamp="2010-03-28T00:57:31Z" uid="20587" user="balrog-kun" changeset="4250871">
    <nd ref="49752500"/>
    <nd ref="49752498"/>
    <tag k="bridge" v="yes"/>
    <tag k="created_by" v="Potlatch 0.10f"/>
    <tag k="highway" v="motorway"/>
    <tag k="layer" v="1"/>
    <tag k="name" v="I-5"/>
    <tag k="name_1" v="San Diego Freeway"/>
    <tag k="oneway" v="yes"/>
    <tag k="ref" v="I 5"/>
    <tag k="tiger:cfcc" v="A15"/>
    <tag k="tiger:county" v="San Diego, CA"/>
    <tag k="tiger:name_base" v="I-5"/>
    <tag k="tiger:name_base_1" v="San Diego"/>
    <tag k="tiger:name_type_1" v="Fwy"/>
    <tag k="tiger:separated" v="yes"/>
    <tag k="tiger:source" v="tiger_import_dch_v0.6_20070809"/>
    <tag k="tiger:tlid" v="195708645:195708646:195708607:195708608:195278888:195278869:195278876:195696044:195696045:195278896:195761418"/>
  </way>
  <way id="30605763" version="6" timestamp="2010-03-29T22:46:28Z" uid="239998" user="Sundance" changeset="4272322">
    <nd ref="49752500"/>
    <nd ref="49752498"/>
    <tag k="bridge" v="yes"/>
    <tag k="highway" v="motorway"/>
    <tag k="is_in" v="San Diego, CA"/>
    <tag k="layer" v="1"/>
    <tag k="name" v="Interstate 5"/>
    <tag k="name_1" v="San Diego Freeway"/>
    <tag k="oneway" v="yes"/>
    <tag k="ref" v="I 5"/>
  </way>
  <way id="30605763" version="7" timestamp="2010-05-07T06:20:13Z" uid="82317" user="AM909" changeset="4627290">
    <nd ref="49752500"/>
    <nd ref="49752498"/>
    <tag k="bridge" v="yes"/>
    <tag k="bridge_name" v="San Onofre Creek UC"/>
    <tag k="bridge_ref" v="5/SD/57-02"/>
    <tag k="highway" v="motorway"/>
    <tag k="is_in" v="San Diego, CA"/>
    <tag k="is_in:state_code" v="CA"/>
    <tag k="layer" v="1"/>
    <tag k="milepost:county" v="R71.03"/>
    <tag k="name" v="San Diego Freeway"/>
    <tag k="note" v="Bridge ref pic from I-5 South"/>
    <tag k="oneway" v="yes"/>
    <tag k="ref" v="I 5"/>
    <tag k="source:bridge" v="yahoo_imagery;survey;image"/>
    <tag k="source_ref:bridge" v="AM909_DSCU2620"/>
  </way>
  <way id="30605763" version="8" timestamp="2010-05-07T11:59:51Z" uid="82317" user="AM909" changeset="4629441">
    <nd ref="49752500"/>
    <nd ref="49752498"/>
    <tag k="bridge" v="yes"/>
    <tag k="bridge_name" v="San Onofre Creek UC"/>
    <tag k="bridge_ref" v="5/SD/57-02"/>
    <tag k="highway" v="motorway"/>
    <tag k="is_in" v="San Diego, CA"/>
    <tag k="is_in:state_code" v="CA"/>
    <tag k="milepost:county" v="R71.03"/>
    <tag k="name" v="San Diego Freeway"/>
    <tag k="note" v="Bridge ref pic from I-5 South"/>
    <tag k="oneway" v="yes"/>
    <tag k="ref" v="I 5"/>
    <tag k="source:bridge" v="yahoo_imagery;survey;image"/>
    <tag k="source_ref:bridge" v="AM909_DSCU2620"/>
  </way>
  <way id="30605763" version="9" timestamp="2010-05-31T21:09:37Z" uid="194231" user="Chris Bell in California" changeset="4868551">
    <nd ref="49752500"/>
    <nd ref="49752498"/>
    <tag k="bridge" v="yes"/>
    <tag k="bridge_name" v="San Onofre Creek UC"/>
    <tag k="bridge_ref" v="5/SD/57-02"/>
    <tag k="highway" v="motorway"/>
    <tag k="is_in" v="San Diego, CA"/>
    <tag k="is_in:state_code" v="CA"/>
    <tag k="layer" v="1"/>
    <tag k="milepost:county" v="R71.03"/>
    <tag k="name" v="San Diego Freeway"/>
    <tag k="note" v="Bridge ref pic from I-5 South"/>
    <tag k="oneway" v="yes"/>
    <tag k="ref" v="I 5"/>
    <tag k="source:bridge" v="yahoo_imagery;survey;image"/>
    <tag k="source_ref:bridge" v="AM909_DSCU2620"/>
  </way>
  <way id="30605763" version="10" timestamp="2011-08-02T08:07:51Z" uid="207745" user="NE2" changeset="8898279">
    <nd ref="49752500"/>
    <nd ref="49752498"/>
    <tag k="bridge" v="yes"/>
    <tag k="bridge_name" v="San Onofre Creek UC"/>
    <tag k="bridge_ref" v="5/SD/57-02"/>
    <tag k="highway" v="motorway"/>
    <tag k="is_in" v="San Diego, CA"/>
    <tag k="is_in:state_code" v="CA"/>
    <tag k="lanes" v="4"/>
    <tag k="layer" v="1"/>
    <tag k="milepost:county" v="R71.03"/>
    <tag k="name" v="San Diego Freeway"/>
    <tag k="note" v="Bridge ref pic from I-5 South"/>
    <tag k="oneway" v="yes"/>
    <tag k="ref" v="I 5"/>
    <tag k="source:bridge" v="yahoo_imagery;survey;image"/>
    <tag k="source_ref:bridge" v="AM909_DSCU2620"/>
  </way>
  <way id="30605763" version="11" timestamp="2011-11-25T15:10:27Z" uid="207745" user="NE2" changeset="9943893">
    <nd ref="49752500"/>
    <nd ref="49752498"/>
    <tag k="bridge" v="yes"/>
    <tag k="bridge_name" v="San Onofre Creek UC"/>
    <tag k="bridge_ref" v="5/SD/57-02"/>
    <tag k="hgv" v="designated"/>
    <tag k="highway" v="motorway"/>
    <tag k="is_in" v="San Diego, CA"/>
    <tag k="is_in:state_code" v="CA"/>
    <tag k="lanes" v="4"/>
    <tag k="layer" v="1"/>
    <tag k="milepost:county" v="R71.03"/>
    <tag k="name" v="San Diego Freeway"/>
    <tag k="note" v="Bridge ref pic from I-5 South"/>
    <tag k="oneway" v="yes"/>
    <tag k="ref" v="I 5"/>
    <tag k="source:bridge" v="yahoo_imagery;survey;image"/>
    <tag k="source_ref:bridge" v="AM909_DSCU2620"/>
  </way>
  <way id="30605764" version="4" timestamp="2010-03-28T00:57:31Z" uid="20587" user="balrog-kun" changeset="4250871">
    <nd ref="49752498"/>
    <nd ref="48900273"/>
    <nd ref="49752496"/>
    <nd ref="49752494"/>
    <nd ref="49752492"/>
    <nd ref="48900280"/>
    <nd ref="49752490"/>
    <nd ref="49752487"/>
    <nd ref="49752486"/>
    <nd ref="49752485"/>
    <nd ref="49752484"/>
    <nd ref="291124168"/>
    <tag k="created_by" v="Potlatch 0.10f"/>
    <tag k="highway" v="motorway"/>
    <tag k="name" v="I-5"/>
    <tag k="name_1" v="San Diego Freeway"/>
    <tag k="oneway" v="yes"/>
    <tag k="ref" v="I 5"/>
    <tag k="tiger:cfcc" v="A15"/>
    <tag k="tiger:county" v="San Diego, CA"/>
    <tag k="tiger:name_base" v="I-5"/>
    <tag k="tiger:name_base_1" v="San Diego"/>
    <tag k="tiger:name_type_1" v="Fwy"/>
    <tag k="tiger:separated" v="yes"/>
    <tag k="tiger:source" v="tiger_import_dch_v0.6_20070809"/>
    <tag k="tiger:tlid" v="195708645:195708646:195708607:195708608:195278888:195278869:195278876:195696044:195696045:195278896:195761418"/>
  </way>
  <way id="30605764" version="5" timestamp="2010-03-29T22:46:13Z" uid="239998" user="Sundance" changeset="4272322">
    <nd ref="49752498"/>
    <nd ref="48900273"/>
    <nd ref="49752496"/>
    <nd ref="49752494"/>
    <nd ref="49752492"/>
    <nd ref="48900280"/>
    <nd ref="49752490"/>
    <nd ref="49752487"/>
    <nd ref="49752486"/>
    <nd ref="49752485"/>
    <nd ref="49752484"/>
    <nd ref="291124168"/>
    <tag k="highway" v="motorway"/>
    <tag k="is_in" v="San Diego, CA"/>
    <tag k="name" v="Interstate 5"/>
    <tag k="name_1" v="San Diego Freeway"/>
    <tag k="oneway" v="yes"/>
    <tag k="ref" v="I 5"/>
  </way>
  <way id="30605764" version="6" timestamp="2010-05-07T06:21:34Z" uid="82317" user="AM909" changeset="4627290">
    <nd ref="49752498"/>
    <nd ref="48900273"/>
    <nd ref="49752496"/>
    <nd ref="49752494"/>
    <nd ref="49752492"/>
    <nd ref="48900280"/>
    <nd ref="49752490"/>
    <nd ref="49752487"/>
    <nd ref="49752486"/>
    <nd ref="49752485"/>
    <nd ref="49752484"/>
    <nd ref="291124168"/>
    <tag k="highway" v="motorway"/>
    <tag k="is_in" v="San Diego, CA"/>
    <tag k="name" v="San Diego Freeway"/>
    <tag k="oneway" v="yes"/>
    <tag k="ref" v="I 5"/>
  </way>
  <way id="30605764" version="7" timestamp="2010-06-21T22:20:00Z" uid="239998" user="Sundance" changeset="5047227">
    <nd ref="49752498"/>
    <nd ref="48900273"/>
    <nd ref="49752496"/>
    <nd ref="49752494"/>
    <nd ref="49752492"/>
    <nd ref="48900280"/>
    <nd ref="49752490"/>
    <nd ref="49752487"/>
    <nd ref="49752486"/>
    <nd ref="49752485"/>
    <nd ref="49752484"/>
    <nd ref="291124168"/>
    <tag k="highway" v="motorway"/>
    <tag k="is_in" v="San Diego, CA"/>
    <tag k="name" v="San Diego Freeway"/>
    <tag k="name_1" v="Interstate 5"/>
    <tag k="oneway" v="yes"/>
    <tag k="ref" v="I 5"/>
  </way>
  <way id="30605764" version="8" timestamp="2011-08-02T08:07:20Z" uid="207745" user="NE2" changeset="8898279">
    <nd ref="49752498"/>
    <nd ref="48900273"/>
    <nd ref="49752496"/>
    <nd ref="49752494"/>
    <nd ref="49752492"/>
    <nd ref="48900280"/>
    <nd ref="49752490"/>
    <nd ref="49752487"/>
    <nd ref="49752486"/>
    <nd ref="49752485"/>
    <nd ref="49752484"/>
    <nd ref="291124168"/>
    <tag k="highway" v="motorway"/>
    <tag k="is_in" v="San Diego, CA"/>
    <tag k="lanes" v="4"/>
    <tag k="name" v="San Diego Freeway"/>
    <tag k="oneway" v="yes"/>
    <tag k="ref" v="I 5"/>
  </way>
  <way id="30605764" version="9" timestamp="2011-11-25T15:04:20Z" uid="207745" user="NE2" changeset="9943893">
    <nd ref="49752498"/>
    <nd ref="48900273"/>
    <nd ref="49752496"/>
    <nd ref="49752494"/>
    <nd ref="49752492"/>
    <nd ref="48900280"/>
    <nd ref="49752490"/>
    <nd ref="49752487"/>
    <nd ref="49752486"/>
    <nd ref="49752485"/>
    <nd ref="49752484"/>
    <nd ref="291124168"/>
    <tag k="hgv" v="designated"/>
    <tag k="highway" v="motorway"/>
    <tag k="is_in" v="San Diego, CA"/>
    <tag k="lanes" v="4"/>
    <tag k="name" v="San Diego Freeway"/>
    <tag k="oneway" v="yes"/>
    <tag k="ref" v="I 5"/>
  </way>
  <way id="30605794" version="5" timestamp="2010-03-28T00:57:32Z" uid="20587" user="balrog-kun" changeset="4250871">
    <nd ref="338426935"/>
    <nd ref="49717055"/>
    <nd ref="49717057"/>
    <nd ref="49717059"/>
    <nd ref="48988987"/>
    <nd ref="49717063"/>
    <nd ref="49717065"/>
    <nd ref="49717069"/>
    <nd ref="49717072"/>
    <nd ref="49717074"/>
    <nd ref="49717075"/>
    <nd ref="49717076"/>
    <nd ref="49717078"/>
    <nd ref="338426706"/>
    <nd ref="49717081"/>
    <nd ref="49717083"/>
    <nd ref="49717084"/>
    <nd ref="49012451"/>
    <nd ref="49717086"/>
    <nd ref="49717088"/>
    <nd ref="48913238"/>
    <nd ref="49717090"/>
    <nd ref="49717092"/>
    <nd ref="49717094"/>
    <nd ref="49717096"/>
    <nd ref="49717098"/>
    <nd ref="49717100"/>
    <nd ref="49717103"/>
    <nd ref="49717105"/>
    <nd ref="49717107"/>
    <nd ref="49717109"/>
    <nd ref="49717111"/>
    <nd ref="49717113"/>
    <nd ref="49717116"/>
    <nd ref="49717117"/>
    <nd ref="49717119"/>
    <nd ref="49717122"/>
    <nd ref="49717125"/>
    <nd ref="49717127"/>
    <nd ref="49717130"/>
    <nd ref="49717133"/>
    <nd ref="49717136"/>
    <nd ref="49717137"/>
    <nd ref="49717138"/>
    <nd ref="49717139"/>
    <nd ref="49717143"/>
    <nd ref="49717144"/>
    <nd ref="49717147"/>
    <nd ref="49717149"/>
    <nd ref="49717152"/>
    <nd ref="49717154"/>
    <nd ref="49717156"/>
    <nd ref="49717159"/>
    <nd ref="49717161"/>
    <nd ref="49717163"/>
    <nd ref="49717166"/>
    <nd ref="49717168"/>
    <nd ref="49717170"/>
    <nd ref="49717173"/>
    <nd ref="49717176"/>
    <nd ref="49717179"/>
    <nd ref="49717181"/>
    <nd ref="49717185"/>
    <nd ref="49717187"/>
    <nd ref="49717190"/>
    <nd ref="49717192"/>
    <nd ref="49717195"/>
    <nd ref="49717198"/>
    <nd ref="49717201"/>
    <nd ref="49717205"/>
    <nd ref="49717209"/>
    <nd ref="49717212"/>
    <nd ref="49717215"/>
    <nd ref="49717218"/>
    <nd ref="49717221"/>
    <nd ref="49717223"/>
    <nd ref="49717224"/>
    <nd ref="49717225"/>
    <nd ref="49717228"/>
    <nd ref="49717230"/>
    <nd ref="49717232"/>
    <nd ref="49717233"/>
    <nd ref="49717235"/>
    <nd ref="49717237"/>
    <nd ref="49717239"/>
    <nd ref="49717241"/>
    <nd ref="49717242"/>
    <nd ref="49717243"/>
    <nd ref="49717244"/>
    <nd ref="49717247"/>
    <nd ref="49717248"/>
    <nd ref="49717250"/>
    <nd ref="49717252"/>
    <nd ref="49717254"/>
    <nd ref="49717255"/>
    <nd ref="49717257"/>
    <nd ref="49717259"/>
    <nd ref="49717260"/>
    <nd ref="49717263"/>
    <nd ref="49717264"/>
    <nd ref="49717265"/>
    <nd ref="49717268"/>
    <nd ref="49717270"/>
    <nd ref="49717272"/>
    <nd ref="49717274"/>
    <nd ref="49717276"/>
    <nd ref="49717278"/>
    <nd ref="49717279"/>
    <nd ref="49717282"/>
    <nd ref="49717285"/>
    <nd ref="49717287"/>
    <nd ref="49717289"/>
    <nd ref="49717290"/>
    <nd ref="49717292"/>
    <tag k="highway" v="residential"/>
    <tag k="name" v="Old Pacific Highway"/>
    <tag k="tiger:cfcc" v="A41"/>
    <tag k="tiger:county" v="San Diego, CA"/>
    <tag k="tiger:name_base" v="Old Pacific"/>
    <tag k="tiger:name_type" v="Hwy"/>
    <tag k="tiger:reviewed" v="no"/>
    <tag k="tiger:separated" v="no"/>
    <tag k="tiger:source" v="tiger_import_dch_v0.6_20070809"/>
    <tag k="tiger:tlid" v="195750227:195279364:195750226:195457080:195742808:195742809:195708743:195708758:195708688:195457045:195708662:195708663:195742790:195742791:195457067"/>
  </way>
  <way id="30605794" version="6" timestamp="2010-03-29T23:00:05Z" uid="239998" user="Sundance" changeset="4272372">
    <nd ref="338426935"/>
    <nd ref="49717055"/>
    <nd ref="49717057"/>
    <nd ref="49717059"/>
    <nd ref="48988987"/>
    <nd ref="49717063"/>
    <nd ref="49717065"/>
    <nd ref="49717069"/>
    <nd ref="49717072"/>
    <nd ref="49717074"/>
    <nd ref="49717075"/>
    <nd ref="49717076"/>
    <nd ref="49717078"/>
    <nd ref="338426706"/>
    <nd ref="49717081"/>
    <nd ref="49717083"/>
    <nd ref="49717084"/>
    <nd ref="49012451"/>
    <nd ref="49717086"/>
    <nd ref="49717088"/>
    <nd ref="48913238"/>
    <nd ref="49717090"/>
    <nd ref="49717092"/>
    <nd ref="49717094"/>
    <nd ref="49717096"/>
    <nd ref="49717098"/>
    <nd ref="49717100"/>
    <nd ref="49717103"/>
    <nd ref="49717105"/>
    <nd ref="49717107"/>
    <nd ref="49717109"/>
    <nd ref="49717111"/>
    <nd ref="49717113"/>
    <nd ref="49717116"/>
    <nd ref="49717117"/>
    <nd ref="49717119"/>
    <nd ref="49717122"/>
    <nd ref="49717125"/>
    <nd ref="49717127"/>
    <nd ref="49717130"/>
    <nd ref="49717133"/>
    <nd ref="49717136"/>
    <nd ref="49717137"/>
    <nd ref="49717138"/>
    <nd ref="49717139"/>
    <nd ref="49717143"/>
    <nd ref="49717144"/>
    <nd ref="49717147"/>
    <nd ref="49717149"/>
    <nd ref="49717152"/>
    <nd ref="49717154"/>
    <nd ref="49717156"/>
    <nd ref="49717159"/>
    <nd ref="49717161"/>
    <nd ref="49717163"/>
    <nd ref="49717166"/>
    <nd ref="49717168"/>
    <nd ref="49717170"/>
    <nd ref="49717173"/>
    <nd ref="49717176"/>
    <nd ref="49717179"/>
    <nd ref="49717181"/>
    <nd ref="49717185"/>
    <nd ref="49717187"/>
    <nd ref="49717190"/>
    <nd ref="49717192"/>
    <nd ref="49717195"/>
    <nd ref="49717198"/>
    <nd ref="49717201"/>
    <nd ref="49717205"/>
    <nd ref="49717209"/>
    <nd ref="49717212"/>
    <nd ref="49717215"/>
    <nd ref="49717218"/>
    <nd ref="49717221"/>
    <nd ref="49717223"/>
    <nd ref="49717224"/>
    <nd ref="49717225"/>
    <nd ref="49717228"/>
    <nd ref="49717230"/>
    <nd ref="49717232"/>
    <nd ref="49717233"/>
    <nd ref="49717235"/>
    <nd ref="49717237"/>
    <nd ref="49717239"/>
    <nd ref="49717241"/>
    <nd ref="49717242"/>
    <nd ref="49717243"/>
    <nd ref="49717244"/>
    <nd ref="49717247"/>
    <nd ref="49717248"/>
    <nd ref="49717250"/>
    <nd ref="49717252"/>
    <nd ref="49717254"/>
    <nd ref="49717255"/>
    <nd ref="49717257"/>
    <nd ref="49717259"/>
    <nd ref="49717260"/>
    <nd ref="49717263"/>
    <nd ref="49717264"/>
    <nd ref="49717265"/>
    <nd ref="49717268"/>
    <nd ref="49717270"/>
    <nd ref="49717272"/>
    <nd ref="49717274"/>
    <nd ref="49717276"/>
    <nd ref="49717278"/>
    <nd ref="49717279"/>
    <nd ref="49717282"/>
    <nd ref="49717285"/>
    <nd ref="49717287"/>
    <nd ref="49717289"/>
    <nd ref="49717290"/>
    <nd ref="49717292"/>
    <tag k="highway" v="residential"/>
    <tag k="is_in" v="San Diego, CA"/>
    <tag k="name" v="Old Pacific Highway"/>
    <tag k="source" v="Yahoo,TIGER"/>
  </way>
  <way id="30605794" version="7" timestamp="2010-05-07T09:37:06Z" uid="82317" user="AM909" changeset="4628426">
    <nd ref="338426935"/>
    <nd ref="49717055"/>
    <nd ref="49717057"/>
    <nd ref="49717059"/>
    <nd ref="48988987"/>
    <nd ref="49717063"/>
    <nd ref="49717065"/>
    <nd ref="49717069"/>
    <nd ref="49717072"/>
    <nd ref="49717074"/>
    <nd ref="49717075"/>
    <nd ref="49717076"/>
    <nd ref="49717078"/>
    <nd ref="338426706"/>
    <nd ref="49717081"/>
    <nd ref="49717083"/>
    <nd ref="49717084"/>
    <nd ref="49012451"/>
    <nd ref="49717086"/>
    <nd ref="49717088"/>
    <nd ref="48913238"/>
    <nd ref="49717090"/>
    <nd ref="49717092"/>
    <nd ref="49717094"/>
    <nd ref="49717096"/>
    <nd ref="49717098"/>
    <nd ref="49717100"/>
    <nd ref="49717103"/>
    <nd ref="49717105"/>
    <nd ref="49717107"/>
    <nd ref="49717109"/>
    <nd ref="49717111"/>
    <nd ref="49717113"/>
    <nd ref="49717116"/>
    <nd ref="49717117"/>
    <nd ref="49717119"/>
    <nd ref="49717122"/>
    <nd ref="49717125"/>
    <nd ref="49717127"/>
    <nd ref="49717130"/>
    <nd ref="49717133"/>
    <nd ref="49717136"/>
    <nd ref="49717137"/>
    <nd ref="49717138"/>
    <nd ref="49717139"/>
    <nd ref="49717143"/>
    <nd ref="49717144"/>
    <nd ref="49717147"/>
    <nd ref="49717149"/>
    <nd ref="49717152"/>
    <nd ref="49717154"/>
    <nd ref="49717156"/>
    <nd ref="49717159"/>
    <nd ref="49717161"/>
    <nd ref="49717163"/>
    <nd ref="49717166"/>
    <nd ref="49717168"/>
    <nd ref="49717170"/>
    <nd ref="49717173"/>
    <nd ref="49717176"/>
    <nd ref="49717179"/>
    <nd ref="49717181"/>
    <nd ref="49717185"/>
    <nd ref="49717187"/>
    <nd ref="49717190"/>
    <nd ref="49717192"/>
    <nd ref="49717195"/>
    <nd ref="49717198"/>
    <nd ref="49717201"/>
    <nd ref="49717205"/>
    <nd ref="49717209"/>
    <nd ref="49717212"/>
    <nd ref="49717215"/>
    <nd ref="49717218"/>
    <nd ref="49717221"/>
    <nd ref="49717223"/>
    <nd ref="49717224"/>
    <nd ref="49717225"/>
    <nd ref="49717228"/>
    <nd ref="49717230"/>
    <nd ref="49717232"/>
    <nd ref="49717233"/>
    <nd ref="49717235"/>
    <nd ref="49717237"/>
    <nd ref="49717239"/>
    <nd ref="49717241"/>
    <nd ref="49717242"/>
    <nd ref="49717243"/>
    <nd ref="49717244"/>
    <nd ref="49717247"/>
    <nd ref="49717248"/>
    <nd ref="49717250"/>
    <nd ref="49717252"/>
    <nd ref="49717254"/>
    <nd ref="49717255"/>
    <nd ref="49717257"/>
    <nd ref="49717259"/>
    <nd ref="49717260"/>
    <nd ref="49717263"/>
    <nd ref="49717264"/>
    <nd ref="49717265"/>
    <nd ref="49717268"/>
    <nd ref="49717270"/>
    <nd ref="49717272"/>
    <nd ref="49717274"/>
    <nd ref="49717276"/>
    <nd ref="49717278"/>
    <nd ref="49717279"/>
    <nd ref="49717282"/>
    <nd ref="49717285"/>
    <nd ref="49717287"/>
    <nd ref="49717289"/>
    <nd ref="49717290"/>
    <tag k="highway" v="residential"/>
    <tag k="name" v="Old Pacific Highway"/>
    <tag k="source" v="yahoo_imagery;PVS10"/>
  </way>
  <way id="30605794" version="8" timestamp="2010-05-07T12:00:00Z" uid="82317" user="AM909" changeset="4629441">
    <nd ref="338426935"/>
    <nd ref="49717055"/>
    <nd ref="49717057"/>
    <nd ref="49717059"/>
    <nd ref="48988987"/>
    <nd ref="49717063"/>
    <nd ref="49717065"/>
    <nd ref="49717069"/>
    <nd ref="49717072"/>
    <nd ref="49717074"/>
    <nd ref="49717075"/>
    <nd ref="49717076"/>
    <nd ref="49717078"/>
    <nd ref="338426706"/>
    <nd ref="49717081"/>
    <nd ref="49717083"/>
    <nd ref="49717084"/>
    <nd ref="49012451"/>
    <nd ref="49717086"/>
    <nd ref="49717088"/>
    <nd ref="725132305"/>
    <tag k="highway" v="residential"/>
    <tag k="maxspeed" v="45 mph"/>
    <tag k="name" v="Old Pacific Highway"/>
    <tag k="source" v="yahoo_imagery;PVS10"/>
    <tag k="source:maxspeed" v="survey;image"/>
    <tag k="source_ref:maxspeed" v="AM909_DSCU2668;AM909_DSCU2680"/>
  </way>
  <way id="30605795" version="3" timestamp="2010-03-28T00:57:32Z" uid="20587" user="balrog-kun" changeset="4250871">
    <nd ref="338426934"/>
    <nd ref="338426935"/>
    <tag k="bridge" v="yes"/>
    <tag k="created_by" v="Potlatch 0.10f"/>
    <tag k="highway" v="residential"/>
    <tag k="layer" v="1"/>
    <tag k="name" v="Old Pacific Highway"/>
    <tag k="tiger:cfcc" v="A41"/>
    <tag k="tiger:county" v="San Diego, CA"/>
    <tag k="tiger:name_base" v="Old Pacific"/>
    <tag k="tiger:name_type" v="Hwy"/>
    <tag k="tiger:reviewed" v="no"/>
    <tag k="tiger:separated" v="no"/>
    <tag k="tiger:source" v="tiger_import_dch_v0.6_20070809"/>
    <tag k="tiger:tlid" v="195750227:195279364:195750226:195457080:195742808:195742809:195708743:195708758:195708688:195457045:195708662:195708663:195742790:195742791:195457067"/>
  </way>
  <way id="30605795" version="4" timestamp="2010-05-07T11:59:57Z" uid="82317" user="AM909" changeset="4629441">
    <nd ref="338426934"/>
    <nd ref="338426935"/>
    <tag k="bridge" v="yes"/>
    <tag k="highway" v="residential"/>
    <tag k="layer" v="1"/>
    <tag k="maxspeed" v="45 mph"/>
    <tag k="name" v="Old Pacific Highway"/>
    <tag k="source:maxspeed" v="survey;image"/>
    <tag k="source_ref:maxspeed" v="AM909_DSCU2667"/>
    <tag k="tiger:cfcc" v="A41"/>
    <tag k="tiger:county" v="San Diego, CA"/>
    <tag k="tiger:name_base" v="Old Pacific"/>
    <tag k="tiger:name_type" v="Hwy"/>
    <tag k="tiger:separated" v="no"/>
    <tag k="tiger:source" v="tiger_import_dch_v0.6_20070809"/>
    <tag k="tiger:tlid" v="195750227:195279364:195750226:195457080:195742808:195742809:195708743:195708758:195708688:195457045:195708662:195708663:195742790:195742791:195457067"/>
  </way>
  <way id="30605795" version="5" timestamp="2010-06-26T10:27:26Z" uid="82317" user="AM909" changeset="5079875">
    <nd ref="338426934"/>
    <nd ref="338426935"/>
    <tag k="bridge" v="yes"/>
    <tag k="highway" v="residential"/>
    <tag k="is_in:state_code" v="CA"/>
    <tag k="layer" v="1"/>
    <tag k="maxspeed" v="45 mph"/>
    <tag k="name" v="Old Pacific Highway"/>
    <tag k="source:bridge" v="usgs_imagery_2006;survey;image"/>
    <tag k="source:maxspeed" v="survey;image"/>
    <tag k="source_ref:bridge" v="AM909_DSCU7722"/>
    <tag k="source_ref:maxspeed" v="AM909_DSCU2667"/>
    <tag k="tiger:cfcc" v="A41"/>
    <tag k="tiger:county" v="San Diego, CA"/>
    <tag k="tiger:name_base" v="Old Pacific"/>
    <tag k="tiger:name_type" v="Hwy"/>
    <tag k="tiger:separated" v="no"/>
    <tag k="tiger:source" v="tiger_import_dch_v0.6_20070809"/>
    <tag k="tiger:tlid" v="195750227:195279364:195750226:195457080:195742808:195742809:195708743:195708758:195708688:195457045:195708662:195708663:195742790:195742791:195457067"/>
  </way>
  <way id="30605808" version="1" timestamp="2009-01-27T18:20:28Z" uid="43863" user="Rundling" changeset="845097">
    <nd ref="338427930"/>
    <nd ref="338427933"/>
    <nd ref="338427936"/>
    <nd ref="338427931"/>
    <nd ref="338427930"/>
    <tag k="building" v="yes"/>
  </way>
  <way id="30605808" version="2" timestamp="2009-03-19T18:15:18Z" uid="43863" user="Rundling" changeset="833119">
    <nd ref="338427933"/>
    <nd ref="338427936"/>
    <nd ref="363799242"/>
    <nd ref="363799245"/>
    <nd ref="338427933"/>
    <tag k="building" v="yes"/>
  </way>
  <way id="30605808" version="3" timestamp="2012-03-17T17:40:13Z" uid="141931" user="Sharlin" changeset="11010500"/>
  <way id="30605866" version="2" timestamp="2009-10-08T22:06:56Z" uid="179968" user="Ich_hasse_doitsche_OSM-Korinthenkacker" changeset="2788120">
    <nd ref="24915520"/>
    <nd ref="24915522"/>
    <nd ref="24915524"/>
    <nd ref="24915525"/>
    <nd ref="24915527"/>
    <nd ref="24915529"/>
    <nd ref="24915530"/>
    <nd ref="24915532"/>
    <nd ref="24915533"/>
    <nd ref="24915537"/>
    <nd ref="24915539"/>
    <nd ref="24915540"/>
    <nd ref="24915541"/>
    <nd ref="24915542"/>
    <nd ref="24915544"/>
    <nd ref="24915547"/>
    <nd ref="24915549"/>
    <nd ref="24915554"/>
    <nd ref="24915561"/>
    <nd ref="24915565"/>
    <nd ref="24915567"/>
    <nd ref="24915569"/>
    <nd ref="24915571"/>
    <nd ref="24915575"/>
    <nd ref="24915577"/>
    <nd ref="24915578"/>
    <nd ref="24915579"/>
    <nd ref="24915580"/>
    <nd ref="24915581"/>
    <nd ref="24915583"/>
    <nd ref="24915586"/>
    <nd ref="24915589"/>
    <nd ref="24915590"/>
    <tag k="name" v="Achterwasser"/>
    <tag k="natural" v="coastline"/>
    <tag k="source" v="PGS(could be inacurately)"/>
  </way>
  <way id="30605866" version="3" timestamp="2010-08-03T06:26:46Z" uid="126254" user="sebastiank" changeset="5387000">
    <nd ref="24915520"/>
    <nd ref="24915522"/>
    <nd ref="24915524"/>
    <nd ref="24915525"/>
    <nd ref="24915527"/>
    <nd ref="24915529"/>
    <nd ref="24915530"/>
    <nd ref="24915532"/>
    <nd ref="24915533"/>
    <nd ref="24915537"/>
    <nd ref="24915539"/>
    <nd ref="24915540"/>
    <nd ref="24915541"/>
    <nd ref="24915542"/>
    <nd ref="24915544"/>
    <nd ref="844469756"/>
    <tag k="name" v="Achterwasser"/>
    <tag k="natural" v="coastline"/>
    <tag k="source" v="PGS(could be inacurately)"/>
  </way>
  <way id="30605866" version="4" timestamp="2011-01-14T16:37:27Z" uid="195713" user="_torsten_" changeset="6968832">
    <nd ref="24915520"/>
    <nd ref="24915522"/>
    <nd ref="24915524"/>
    <nd ref="24915525"/>
    <nd ref="24915527"/>
    <nd ref="24915529"/>
    <nd ref="24915530"/>
    <nd ref="24915532"/>
    <nd ref="24915533"/>
    <nd ref="1103420689"/>
    <nd ref="24915537"/>
    <nd ref="24915539"/>
    <nd ref="24915540"/>
    <nd ref="24915541"/>
    <nd ref="24915542"/>
    <nd ref="24915544"/>
    <nd ref="844469756"/>
    <tag k="name" v="Achterwasser"/>
    <tag k="natural" v="coastline"/>
    <tag k="source" v="PGS(could be inacurately)"/>
  </way>
  <way id="30605901" version="3" timestamp="2009-02-01T20:48:46Z" uid="6975" user="ulfl" changeset="27333">
    <nd ref="338430396"/>
    <nd ref="338430400"/>
    <nd ref="338430398"/>
    <nd ref="338430397"/>
    <nd ref="338430396"/>
    <tag k="building" v="yes"/>
    <tag k="shop" v="florist"/>
  </way>
  <way id="30605953" version="1" timestamp="2009-01-27T18:30:09Z" uid="43863" user="Rundling" changeset="845097">
    <nd ref="338430698"/>
    <nd ref="338430700"/>
    <nd ref="338430706"/>
    <nd ref="338430701"/>
    <nd ref="338430703"/>
    <nd ref="338430708"/>
    <nd ref="338430717"/>
    <nd ref="338430698"/>
    <tag k="barrier" v="fence"/>
    <tag k="landuse" v="commercial"/>
    <tag k="name" v="Stromversorgung Osthannover"/>
  </way>
  <way id="30605953" version="2" timestamp="2009-01-27T18:31:02Z" uid="43863" user="Rundling" changeset="845097">
    <nd ref="338430698"/>
    <nd ref="338430700"/>
    <nd ref="338430706"/>
    <nd ref="338430701"/>
    <nd ref="338430926"/>
    <nd ref="338430703"/>
    <nd ref="338430708"/>
    <nd ref="338430717"/>
    <nd ref="338430698"/>
    <tag k="barrier" v="fence"/>
    <tag k="landuse" v="commercial"/>
    <tag k="name" v="Stromversorgung Osthannover"/>
  </way>
  <way id="30605953" version="3" timestamp="2009-07-03T15:44:50Z" uid="43863" user="Rundling" changeset="1722179">
    <nd ref="338430698"/>
    <nd ref="338430700"/>
    <nd ref="338430706"/>
    <nd ref="338430701"/>
    <nd ref="338430926"/>
    <nd ref="338430703"/>
    <nd ref="338430698"/>
    <tag k="barrier" v="fence"/>
    <tag k="landuse" v="commercial"/>
    <tag k="name" v="Stromversorgung Osthannover"/>
  </way>
  <way id="30605953" version="4" timestamp="2009-07-03T18:50:46Z" uid="43863" user="Rundling" changeset="1723766">
    <nd ref="338430698"/>
    <nd ref="338430700"/>
    <nd ref="338430706"/>
    <nd ref="338430701"/>
    <nd ref="338430926"/>
    <nd ref="338430703"/>
    <nd ref="433305873"/>
    <nd ref="433305876"/>
    <nd ref="433305875"/>
    <nd ref="433305872"/>
    <nd ref="338430698"/>
    <tag k="barrier" v="fence"/>
    <tag k="landuse" v="commercial"/>
    <tag k="name" v="Stromversorgung Osthannover"/>
  </way>
  <way id="30605953" version="5" timestamp="2009-07-03T19:18:49Z" uid="43863" user="Rundling" changeset="1724017">
    <nd ref="338430698"/>
    <nd ref="338430700"/>
    <nd ref="338430706"/>
    <nd ref="338430701"/>
    <nd ref="338430926"/>
    <nd ref="338430703"/>
    <nd ref="433305873"/>
    <nd ref="433305876"/>
    <nd ref="433305875"/>
    <nd ref="433305872"/>
    <nd ref="338430698"/>
    <tag k="barrier" v="fence"/>
    <tag k="landuse" v="commercial"/>
  </way>
  <way id="30605953" version="6" timestamp="2009-07-04T05:04:35Z" uid="43863" user="Rundling" changeset="1726601">
    <nd ref="338430698"/>
    <nd ref="433559717"/>
    <nd ref="338430700"/>
    <nd ref="338430706"/>
    <nd ref="338430701"/>
    <nd ref="338430926"/>
    <nd ref="338430703"/>
    <nd ref="433305873"/>
    <nd ref="433305876"/>
    <nd ref="433305875"/>
    <nd ref="433305872"/>
    <nd ref="338430698"/>
    <tag k="barrier" v="fence"/>
    <tag k="landuse" v="commercial"/>
  </way>
  <way id="30605953" version="7" timestamp="2009-07-12T05:02:14Z" uid="43863" user="Rundling" changeset="1803177">
    <nd ref="338430698"/>
    <nd ref="433559717"/>
    <nd ref="338430700"/>
    <nd ref="440599237"/>
    <nd ref="338430926"/>
    <nd ref="338430703"/>
    <nd ref="433305873"/>
    <nd ref="433305876"/>
    <nd ref="433305875"/>
    <nd ref="433305872"/>
    <nd ref="338430698"/>
    <tag k="barrier" v="fence"/>
    <tag k="landuse" v="commercial"/>
  </way>
  <way id="30605954" version="1" timestamp="2009-01-27T18:30:09Z" uid="43863" user="Rundling" changeset="845097">
    <nd ref="338430710"/>
    <nd ref="338430711"/>
    <nd ref="338430717"/>
    <nd ref="338430713"/>
    <nd ref="338430715"/>
    <tag k="highway" v="service"/>
    <tag k="surface" v="paved"/>
  </way>
  <way id="30605954" version="2" timestamp="2009-07-03T15:44:49Z" uid="43863" user="Rundling" changeset="1722179">
    <nd ref="338430710"/>
    <nd ref="338430711"/>
    <nd ref="338430713"/>
    <nd ref="338430715"/>
    <tag k="highway" v="service"/>
    <tag k="surface" v="paved"/>
  </way>
  <way id="30605954" version="3" timestamp="2009-07-03T19:34:47Z" uid="43863" user="Rundling" changeset="1724157">
    <nd ref="338430710"/>
    <nd ref="338430711"/>
    <nd ref="338430713"/>
    <nd ref="433328454"/>
    <tag k="highway" v="service"/>
    <tag k="surface" v="paved"/>
  </way>
  <way id="30605954" version="4" timestamp="2009-07-04T05:04:35Z" uid="43863" user="Rundling" changeset="1726601"/>
  <way id="30605955" version="1" timestamp="2009-01-27T18:30:09Z" uid="43863" user="Rundling" changeset="845097">
    <nd ref="338430721"/>
    <nd ref="338430723"/>
    <nd ref="338430725"/>
    <nd ref="338430727"/>
    <nd ref="338430721"/>
    <tag k="access" v="private"/>
    <tag k="amenity" v="parking"/>
    <tag k="disabled_spaces" v="yes"/>
    <tag k="parking" v="surface"/>
  </way>
  <way id="30605955" version="2" timestamp="2009-07-03T19:34:47Z" uid="43863" user="Rundling" changeset="1724157"/>
  <way id="30605307" version="8" timestamp="2012-07-18T18:19:37Z" uid="722137" user="OSMF Redaction Account" changeset="12292026"/>
  <way id="30605565" version="4" timestamp="2012-09-04T12:57:43Z" uid="282726" user="kaiD" changeset="12981648">
    <nd ref="277861901"/>
    <nd ref="1898281473"/>
    <nd ref="277861913"/>
    <nd ref="1898281465"/>
    <nd ref="1898281461"/>
    <nd ref="277861909"/>
    <nd ref="277861912"/>
    <nd ref="277861900"/>
    <nd ref="761718385"/>
    <nd ref="277861902"/>
    <nd ref="277861903"/>
    <nd ref="277861906"/>
    <nd ref="277861907"/>
    <nd ref="277861908"/>
    <nd ref="277861910"/>
    <nd ref="247793626"/>
    <tag k="highway" v="cycleway"/>
  </way>
  <way id="30605759" version="13" timestamp="2012-08-27T07:17:55Z" uid="207745" user="NE2" changeset="12875049">
    <nd ref="49751228"/>
    <nd ref="49751231"/>
    <tag k="bridge" v="yes"/>
    <tag k="bridge_name" v="San Onofre Creek UC"/>
    <tag k="bridge_ref" v="5/SD/57-02"/>
    <tag k="hgv" v="designated"/>
    <tag k="highway" v="motorway"/>
    <tag k="is_in:state_code" v="CA"/>
    <tag k="lanes" v="4"/>
    <tag k="layer" v="1"/>
    <tag k="milepost:county" v="R71.03"/>
    <tag k="name" v="San Diego Freeway"/>
    <tag k="note" v="Bridge ref pic from I-5 South"/>
    <tag k="oneway" v="yes"/>
    <tag k="ref" v="I 5"/>
    <tag k="source:bridge" v="yahoo_imagery;survey;image"/>
    <tag k="source_ref:bridge" v="AM909_DSCU2620"/>
  </way>
  <way id="30605763" version="12" timestamp="2012-08-27T07:18:01Z" uid="207745" user="NE2" changeset="12875049">
    <nd ref="49752500"/>
    <nd ref="49752498"/>
    <tag k="bridge" v="yes"/>
    <tag k="bridge_name" v="San Onofre Creek UC"/>
    <tag k="bridge_ref" v="5/SD/57-02"/>
    <tag k="hgv" v="designated"/>
    <tag k="highway" v="motorway"/>
    <tag k="is_in:state_code" v="CA"/>
    <tag k="lanes" v="4"/>
    <tag k="layer" v="1"/>
    <tag k="milepost:county" v="R71.03"/>
    <tag k="name" v="San Diego Freeway"/>
    <tag k="note" v="Bridge ref pic from I-5 South"/>
    <tag k="oneway" v="yes"/>
    <tag k="ref" v="I 5"/>
    <tag k="source:bridge" v="yahoo_imagery;survey;image"/>
    <tag k="source_ref:bridge" v="AM909_DSCU2620"/>
  </way>
  <way id="30605764" version="10" timestamp="2012-08-27T07:17:44Z" uid="207745" user="NE2" changeset="12875049">
    <nd ref="49752498"/>
    <nd ref="48900273"/>
    <nd ref="49752496"/>
    <nd ref="49752494"/>
    <nd ref="49752492"/>
    <nd ref="48900280"/>
    <nd ref="49752490"/>
    <nd ref="49752487"/>
    <nd ref="49752486"/>
    <nd ref="49752485"/>
    <nd ref="49752484"/>
    <nd ref="291124168"/>
    <tag k="hgv" v="designated"/>
    <tag k="highway" v="motorway"/>
    <tag k="lanes" v="4"/>
    <tag k="name" v="San Diego Freeway"/>
    <tag k="oneway" v="yes"/>
    <tag k="ref" v="I 5"/>
  </way>
  <way id="30605953" version="8" timestamp="2012-07-18T18:19:35Z" uid="722137" user="OSMF Redaction Account" changeset="12292026"/>
</osm>
