<?xml version='1.0' encoding='UTF-8'?>
<osm version="0.6" generator="libosmium/2.20.0">
  <way id="3080825" version="2" timestamp="2008-07-30T03:10:40Z" uid="7617" user="Franc" changeset="625215">
    <nd ref="26377562"/>
    <nd ref="14693487"/>
    <nd ref="14693493"/>
    <nd ref="14693472"/>
    <tag k="abutters" v="mixed"/>
    <tag k="created_by" v="JOSM"/>
    <tag k="highway" v="secondary"/>
    <tag k="name" v="Riley Street"/>
  </way>
  <way id="3080825" version="3" timestamp="2008-08-27T09:10:46Z" uid="61114" user="Trav" changeset="432852">
    <nd ref="26377562"/>
    <nd ref="291540434"/>
    <nd ref="14693487"/>
    <nd ref="291540433"/>
    <nd ref="14693493"/>
    <nd ref="14693472"/>
    <tag k="abutters" v="mixed"/>
    <tag k="created_by" v="JOSM"/>
    <tag k="highway" v="secondary"/>
    <tag k="name" v="Riley Street"/>
  </way>
  <way id="3080825" version="4" timestamp="2008-10-08T09:48:38Z" uid="61114" user="Trav" changeset="175174">
    <nd ref="26377562"/>
    <nd ref="291540434"/>
    <nd ref="14693487"/>
    <nd ref="291540433"/>
    <nd ref="303035317"/>
    <nd ref="14693493"/>
    <nd ref="14693472"/>
    <tag k="abutters" v="mixed"/>
    <tag k="created_by" v="Merkaartor 0.13"/>
    <tag k="highway" v="secondary"/>
    <tag k="name" v="Riley Street"/>
  </way>
  <way id="3080825" version="5" timestamp="2009-11-14T03:08:39Z" uid="117890" user="Jonathan Trott" changeset="3110420">
    <nd ref="26377562"/>
    <nd ref="291540434"/>
    <nd ref="14693487"/>
    <nd ref="291540433"/>
    <nd ref="303035317"/>
    <nd ref="14693493"/>
    <nd ref="14693472"/>
    <tag k="abutters" v="mixed"/>
    <tag k="highway" v="secondary"/>
    <tag k="name" v="Riley Street"/>
  </way>
  <way id="3080825" version="6" timestamp="2009-12-16T04:52:39Z" uid="30201" user="rrankin" changeset="3384480">
    <nd ref="26377562"/>
    <nd ref="291540434"/>
    <nd ref="14693487"/>
    <nd ref="291540433"/>
    <nd ref="303035317"/>
    <nd ref="14693493"/>
    <nd ref="14693472"/>
    <tag k="highway" v="secondary"/>
    <tag k="name" v="Riley Street"/>
  </way>
  <way id="3080825" version="7" timestamp="2010-02-17T09:53:34Z" uid="20949" user="Ebenezer" changeset="3899315">
    <nd ref="26377562"/>
    <nd ref="291540434"/>
    <nd ref="14693487"/>
    <nd ref="291540433"/>
    <nd ref="303035317"/>
    <nd ref="14693493"/>
    <nd ref="14693472"/>
    <tag k="cycleway" v="lane"/>
    <tag k="highway" v="secondary"/>
    <tag k="lcn" v="yes"/>
    <tag k="name" v="Riley Street"/>
  </way>
  <way id="3080825" version="8" timestamp="2010-03-11T13:24:11Z" uid="7617" user="Franc" changeset="4097674">
    <nd ref="26377562"/>
    <nd ref="291540434"/>
    <nd ref="14693487"/>
    <nd ref="291540433"/>
    <nd ref="664020856"/>
    <nd ref="303035317"/>
    <nd ref="14693493"/>
    <nd ref="14693472"/>
    <tag k="cycleway" v="lane"/>
    <tag k="highway" v="secondary"/>
    <tag k="lcn" v="yes"/>
    <tag k="name" v="Riley Street"/>
  </way>
  <way id="3080825" version="9" timestamp="2010-09-13T10:58:50Z" uid="79475" user="AlexOnTheBus" changeset="5768543">
    <nd ref="26377562"/>
    <nd ref="291540434"/>
    <nd ref="14693487"/>
    <nd ref="291540433"/>
    <nd ref="664020856"/>
    <nd ref="303035317"/>
    <nd ref="14693493"/>
    <nd ref="14693472"/>
    <tag k="cycleway" v="lane"/>
    <tag k="highway" v="unclassified"/>
    <tag k="lcn" v="yes"/>
    <tag k="name" v="Riley Street"/>
  </way>
  <way id="3080825" version="10" timestamp="2012-02-29T09:17:57Z" uid="7523" user="inas" changeset="10826051">
    <nd ref="26377562"/>
    <nd ref="291540434"/>
    <nd ref="14693487"/>
    <nd ref="291540433"/>
    <nd ref="303035317"/>
    <nd ref="14693493"/>
    <nd ref="14693472"/>
    <tag k="cycleway" v="lane"/>
    <tag k="highway" v="unclassified"/>
    <tag k="lcn" v="yes"/>
    <tag k="name" v="Riley Street"/>
  </way>
  <way id="3080826" version="2" timestamp="2008-03-21T12:44:25Z" uid="7617" user="Franc" changeset="364835">
    <nd ref="14693752"/>
    <nd ref="253165957"/>
    <nd ref="14693760"/>
    <nd ref="25921082"/>
    <nd ref="25921201"/>
    <nd ref="14693765"/>
    <nd ref="14693768"/>
    <tag k="abutters" v="mixed"/>
    <tag k="created_by" v="JOSM"/>
    <tag k="highway" v="secondary"/>
    <tag k="name" v="Darlinghurst Road"/>
  </way>
  <way id="3080826" version="3" timestamp="2008-05-25T03:39:27Z" uid="30201" user="rrankin" changeset="514315">
    <nd ref="14693752"/>
    <nd ref="253165957"/>
    <nd ref="14693760"/>
    <nd ref="25921082"/>
    <nd ref="25921201"/>
    <nd ref="14693765"/>
    <nd ref="266724598"/>
    <nd ref="14693768"/>
    <tag k="abutters" v="mixed"/>
    <tag k="created_by" v="JOSM"/>
    <tag k="highway" v="secondary"/>
    <tag k="name" v="Darlinghurst Road"/>
  </way>
  <way id="3080826" version="4" timestamp="2008-06-11T22:10:09Z" uid="44011" user="alibi" changeset="145900">
    <nd ref="14693752"/>
    <nd ref="253165957"/>
    <nd ref="14693760"/>
    <nd ref="25921082"/>
    <nd ref="25921201"/>
    <nd ref="269789039"/>
    <nd ref="14693765"/>
    <nd ref="266724598"/>
    <nd ref="14693768"/>
    <tag k="abutters" v="mixed"/>
    <tag k="created_by" v="Potlatch 0.9c"/>
    <tag k="highway" v="secondary"/>
    <tag k="name" v="Darlinghurst Road"/>
  </way>
  <way id="3080826" version="5" timestamp="2008-06-11T22:13:08Z" uid="44011" user="alibi" changeset="145900">
    <nd ref="14693752"/>
    <nd ref="253165957"/>
    <nd ref="14693760"/>
    <nd ref="25921082"/>
    <nd ref="25921201"/>
    <nd ref="269789039"/>
    <nd ref="269789226"/>
    <nd ref="14693765"/>
    <nd ref="266724598"/>
    <nd ref="14693768"/>
    <tag k="abutters" v="mixed"/>
    <tag k="created_by" v="Potlatch 0.9c"/>
    <tag k="highway" v="secondary"/>
    <tag k="name" v="Darlinghurst Road"/>
  </way>
  <way id="3080826" version="6" timestamp="2008-11-13T08:38:26Z" uid="7617" user="Franc" changeset="741820">
    <nd ref="14693752"/>
    <nd ref="253165957"/>
    <nd ref="14693760"/>
    <nd ref="25921082"/>
    <nd ref="25921201"/>
    <nd ref="311720824"/>
    <nd ref="269789039"/>
    <nd ref="269789226"/>
    <nd ref="14693765"/>
    <nd ref="266724598"/>
    <nd ref="14693768"/>
    <tag k="abutters" v="mixed"/>
    <tag k="created_by" v="Potlatch 0.9c"/>
    <tag k="highway" v="secondary"/>
    <tag k="name" v="Darlinghurst Road"/>
  </way>
  <way id="3080826" version="7" timestamp="2009-11-14T03:08:49Z" uid="117890" user="Jonathan Trott" changeset="3110420">
    <nd ref="14693752"/>
    <nd ref="253165957"/>
    <nd ref="14693760"/>
    <nd ref="25921082"/>
    <nd ref="25921201"/>
    <nd ref="311720824"/>
    <nd ref="269789039"/>
    <nd ref="269789226"/>
    <nd ref="14693765"/>
    <nd ref="266724598"/>
    <nd ref="14693768"/>
    <tag k="abutters" v="mixed"/>
    <tag k="highway" v="secondary"/>
    <tag k="name" v="Darlinghurst Road"/>
  </way>
  <way id="3080826" version="8" timestamp="2009-11-28T22:07:55Z" uid="7617" user="Franc" changeset="3240948">
    <nd ref="14693752"/>
    <nd ref="253165957"/>
    <nd ref="14693760"/>
    <nd ref="25921082"/>
    <nd ref="25921201"/>
    <nd ref="311720824"/>
    <nd ref="269789039"/>
    <nd ref="269789226"/>
    <nd ref="14693765"/>
    <nd ref="573770098"/>
    <nd ref="14693768"/>
    <tag k="abutters" v="mixed"/>
    <tag k="highway" v="secondary"/>
    <tag k="name" v="Darlinghurst Road"/>
  </way>
  <way id="3080826" version="9" timestamp="2009-11-28T22:19:31Z" uid="7617" user="Franc" changeset="3241035">
    <nd ref="14693752"/>
    <nd ref="253165957"/>
    <nd ref="14693760"/>
    <nd ref="25921082"/>
    <nd ref="573781778"/>
    <nd ref="25921201"/>
    <nd ref="311720824"/>
    <nd ref="269789039"/>
    <nd ref="269789226"/>
    <nd ref="14693765"/>
    <nd ref="573770098"/>
    <nd ref="14693768"/>
    <tag k="abutters" v="mixed"/>
    <tag k="highway" v="secondary"/>
    <tag k="name" v="Darlinghurst Road"/>
  </way>
  <way id="3080826" version="10" timestamp="2009-12-01T18:06:07Z" uid="47419" user="ploppy" changeset="3266086">
    <nd ref="577292492"/>
    <nd ref="577292494"/>
    <nd ref="253165957"/>
    <nd ref="14693760"/>
    <nd ref="25921082"/>
    <nd ref="573781778"/>
    <nd ref="25921201"/>
    <nd ref="311720824"/>
    <nd ref="269789039"/>
    <nd ref="269789226"/>
    <nd ref="14693765"/>
    <nd ref="573770098"/>
    <nd ref="14693768"/>
    <tag k="abutters" v="mixed"/>
    <tag k="highway" v="secondary"/>
    <tag k="name" v="Darlinghurst Road"/>
  </way>
  <way id="3080826" version="11" timestamp="2009-12-16T04:52:58Z" uid="30201" user="rrankin" changeset="3384480">
    <nd ref="577292492"/>
    <nd ref="577292494"/>
    <nd ref="253165957"/>
    <nd ref="14693760"/>
    <nd ref="25921082"/>
    <nd ref="573781778"/>
    <nd ref="25921201"/>
    <nd ref="311720824"/>
    <nd ref="269789039"/>
    <nd ref="269789226"/>
    <nd ref="14693765"/>
    <nd ref="573770098"/>
    <nd ref="14693768"/>
    <tag k="highway" v="secondary"/>
    <tag k="name" v="Darlinghurst Road"/>
  </way>
  <way id="3080826" version="12" timestamp="2010-03-11T13:24:16Z" uid="7617" user="Franc" changeset="4097674">
    <nd ref="577292492"/>
    <nd ref="577292494"/>
    <nd ref="253165957"/>
    <nd ref="14693760"/>
    <nd ref="25921082"/>
    <nd ref="664020881"/>
    <nd ref="573781778"/>
    <nd ref="664020883"/>
    <nd ref="25921201"/>
    <nd ref="311720824"/>
    <nd ref="269789039"/>
    <nd ref="269789226"/>
    <nd ref="14693765"/>
    <nd ref="573770098"/>
    <nd ref="14693768"/>
    <tag k="highway" v="secondary"/>
    <tag k="name" v="Darlinghurst Road"/>
  </way>
  <way id="3080826" version="13" timestamp="2010-09-13T11:41:41Z" uid="79475" user="AlexOnTheBus" changeset="5768834">
    <nd ref="577292492"/>
    <nd ref="577292494"/>
    <nd ref="253165957"/>
    <nd ref="14693760"/>
    <nd ref="25921082"/>
    <nd ref="664020881"/>
    <nd ref="573781778"/>
    <nd ref="664020883"/>
    <nd ref="25921201"/>
    <nd ref="311720824"/>
    <nd ref="269789039"/>
    <nd ref="269789226"/>
    <nd ref="14693765"/>
    <nd ref="573770098"/>
    <nd ref="14693768"/>
    <tag k="highway" v="tertiary"/>
    <tag k="name" v="Darlinghurst Road"/>
  </way>
  <way id="3080826" version="14" timestamp="2010-10-24T02:05:19Z" uid="7617" user="Franc" changeset="6152962">
    <nd ref="577292492"/>
    <nd ref="577292494"/>
    <nd ref="253165957"/>
    <nd ref="14693760"/>
    <nd ref="962625840"/>
    <nd ref="25921082"/>
    <nd ref="664020881"/>
    <nd ref="664020883"/>
    <nd ref="25921201"/>
    <nd ref="311720824"/>
    <nd ref="269789039"/>
    <nd ref="269789226"/>
    <nd ref="14693765"/>
    <nd ref="573770098"/>
    <nd ref="14693768"/>
    <tag k="highway" v="tertiary"/>
    <tag k="name" v="Darlinghurst Road"/>
  </way>
  <way id="3080826" version="15" timestamp="2011-02-26T03:15:37Z" uid="389517" user="good2010" changeset="7396302">
    <nd ref="577292492"/>
    <nd ref="577292494"/>
    <nd ref="253165957"/>
    <nd ref="14693760"/>
    <nd ref="962625840"/>
    <nd ref="25921082"/>
    <tag k="highway" v="tertiary"/>
    <tag k="name" v="Darlinghurst Road"/>
  </way>
  <way id="3080826" version="16" timestamp="2011-02-26T03:32:41Z" uid="389517" user="good2010" changeset="7396337">
    <nd ref="577292492"/>
    <nd ref="577292494"/>
    <nd ref="253165957"/>
    <nd ref="14693760"/>
    <nd ref="1173835553"/>
    <nd ref="962625840"/>
    <nd ref="25921082"/>
    <tag k="highway" v="tertiary"/>
    <tag k="name" v="Darlinghurst Road"/>
  </way>
  <way id="3080827" version="2" timestamp="2008-03-21T12:44:24Z" uid="7617" user="Franc" changeset="364835">
    <nd ref="14693768"/>
    <nd ref="14693767"/>
    <nd ref="14693770"/>
    <nd ref="26410558"/>
    <nd ref="25921204"/>
    <nd ref="14693775"/>
    <tag k="abutters" v="retail"/>
    <tag k="created_by" v="Mike Collinson"/>
    <tag k="highway" v="secondary"/>
    <tag k="name" v="Victoria Street"/>
  </way>
  <way id="3080827" version="3" timestamp="2008-09-26T03:39:12Z" uid="20949" user="Ebenezer" changeset="698699">
    <nd ref="14693768"/>
    <nd ref="14693767"/>
    <nd ref="14693770"/>
    <nd ref="26410558"/>
    <nd ref="25921204"/>
    <nd ref="14693775"/>
    <tag k="abutters" v="retail"/>
    <tag k="created_by" v="Potlatch 0.10b"/>
    <tag k="highway" v="secondary"/>
    <tag k="name" v="Victoria Street"/>
    <tag k="oneway" v="yes"/>
  </way>
  <way id="3080827" version="4" timestamp="2009-06-11T08:55:39Z" uid="9477" user="NilbogAus" changeset="1484884">
    <nd ref="14693768"/>
    <nd ref="14693767"/>
    <nd ref="14693770"/>
    <nd ref="26410558"/>
    <nd ref="25921204"/>
    <nd ref="14693775"/>
    <tag k="abutters" v="retail"/>
    <tag k="created_by" v="Potlatch 0.10b"/>
    <tag k="highway" v="secondary"/>
    <tag k="name" v="Victoria Street"/>
    <tag k="oneway" v="yes"/>
    <tag k="source" v="survey"/>
  </way>
  <way id="3080827" version="5" timestamp="2009-11-14T03:08:49Z" uid="117890" user="Jonathan Trott" changeset="3110420">
    <nd ref="14693768"/>
    <nd ref="14693767"/>
    <nd ref="14693770"/>
    <nd ref="26410558"/>
    <nd ref="25921204"/>
    <nd ref="14693775"/>
    <tag k="abutters" v="retail"/>
    <tag k="highway" v="secondary"/>
    <tag k="name" v="Victoria Street"/>
    <tag k="oneway" v="yes"/>
    <tag k="source" v="survey"/>
  </way>
  <way id="3080827" version="6" timestamp="2009-11-28T22:07:55Z" uid="7617" user="Franc" changeset="3240948">
    <nd ref="14693768"/>
    <nd ref="14693767"/>
    <nd ref="14693770"/>
    <nd ref="573770054"/>
    <nd ref="26410558"/>
    <nd ref="25921204"/>
    <nd ref="14693775"/>
    <tag k="abutters" v="retail"/>
    <tag k="highway" v="secondary"/>
    <tag k="name" v="Victoria Street"/>
    <tag k="oneway" v="yes"/>
    <tag k="source" v="survey"/>
  </way>
  <way id="3080827" version="7" timestamp="2009-12-16T04:52:57Z" uid="30201" user="rrankin" changeset="3384480">
    <nd ref="14693768"/>
    <nd ref="14693767"/>
    <nd ref="14693770"/>
    <nd ref="573770054"/>
    <nd ref="26410558"/>
    <nd ref="25921204"/>
    <nd ref="14693775"/>
    <tag k="highway" v="secondary"/>
    <tag k="name" v="Victoria Street"/>
    <tag k="oneway" v="yes"/>
    <tag k="source" v="survey"/>
  </way>
  <way id="3080827" version="8" timestamp="2010-01-06T00:58:09Z" uid="30201" user="rrankin" changeset="3550442">
    <nd ref="14693768"/>
    <nd ref="606267646"/>
    <nd ref="14693767"/>
    <nd ref="14693770"/>
    <nd ref="573770054"/>
    <nd ref="26410558"/>
    <nd ref="25921204"/>
    <nd ref="14693775"/>
    <tag k="highway" v="secondary"/>
    <tag k="name" v="Victoria Street"/>
    <tag k="oneway" v="yes"/>
    <tag k="source" v="survey"/>
  </way>
  <way id="3080827" version="9" timestamp="2010-03-11T13:24:16Z" uid="7617" user="Franc" changeset="4097674">
    <nd ref="14693768"/>
    <nd ref="606267646"/>
    <nd ref="14693767"/>
    <nd ref="14693770"/>
    <nd ref="573770054"/>
    <nd ref="26410558"/>
    <nd ref="25921204"/>
    <nd ref="664020876"/>
    <nd ref="14693775"/>
    <tag k="highway" v="secondary"/>
    <tag k="name" v="Victoria Street"/>
    <tag k="oneway" v="yes"/>
    <tag k="source" v="survey"/>
  </way>
  <way id="3080827" version="10" timestamp="2010-09-13T11:41:37Z" uid="79475" user="AlexOnTheBus" changeset="5768834">
    <nd ref="14693768"/>
    <nd ref="606267646"/>
    <nd ref="14693767"/>
    <nd ref="14693770"/>
    <nd ref="573770054"/>
    <nd ref="26410558"/>
    <nd ref="25921204"/>
    <nd ref="664020876"/>
    <nd ref="14693775"/>
    <tag k="highway" v="tertiary"/>
    <tag k="name" v="Victoria Street"/>
    <tag k="oneway" v="yes"/>
    <tag k="source" v="survey"/>
  </way>
  <way id="3080827" version="11" timestamp="2010-10-24T02:04:59Z" uid="7617" user="Franc" changeset="6152962">
    <nd ref="14693768"/>
    <nd ref="606267646"/>
    <nd ref="14693767"/>
    <nd ref="14693770"/>
    <nd ref="573770054"/>
    <nd ref="26410558"/>
    <nd ref="25921204"/>
    <nd ref="962625910"/>
    <nd ref="664020876"/>
    <nd ref="14693775"/>
    <tag k="highway" v="tertiary"/>
    <tag k="name" v="Victoria Street"/>
    <tag k="oneway" v="yes"/>
    <tag k="source" v="survey"/>
  </way>
  <way id="3080827" version="12" timestamp="2011-02-26T03:08:14Z" uid="389517" user="good2010" changeset="7396296">
    <nd ref="14693767"/>
    <nd ref="14693770"/>
    <nd ref="573770054"/>
    <nd ref="26410558"/>
    <nd ref="25921204"/>
    <nd ref="962625910"/>
    <nd ref="664020876"/>
    <nd ref="14693775"/>
    <tag k="highway" v="tertiary"/>
    <tag k="maxspeed" v="40"/>
    <tag k="name" v="Victoria Street"/>
    <tag k="oneway" v="yes"/>
    <tag k="source" v="survey"/>
  </way>
  <way id="3080825" version="11" timestamp="2012-07-20T00:54:19Z" uid="722137" user="OSMF Redaction Account" changeset="12353530">
    <nd ref="26377562"/>
    <nd ref="14693487"/>
    <nd ref="14693493"/>
    <nd ref="14693472"/>
    <tag k="cycleway" v="lane"/>
    <tag k="highway" v="unclassified"/>
    <tag k="lcn" v="yes"/>
    <tag k="name" v="Riley Street"/>
  </way>
  <way id="3080825" version="12" timestamp="2012-07-24T12:45:49Z" uid="9065" user="brianboru" changeset="12465798">
    <nd ref="26377562"/>
    <nd ref="1836527114"/>
    <nd ref="14693487"/>
    <nd ref="14693493"/>
    <nd ref="14693472"/>
    <tag k="cycleway" v="lane"/>
    <tag k="highway" v="unclassified"/>
    <tag k="lcn" v="yes"/>
    <tag k="name" v="Riley Street"/>
  </way>
  <way id="3080825" version="13" timestamp="2012-07-31T20:46:03Z" uid="510836" user="Rub21" changeset="12567064">
    <nd ref="26377562"/>
    <nd ref="1846081754"/>
    <nd ref="1836527114"/>
    <nd ref="14693487"/>
    <nd ref="14693493"/>
    <nd ref="14693472"/>
    <tag k="cycleway" v="lane"/>
    <tag k="highway" v="unclassified"/>
    <tag k="lcn" v="yes"/>
    <tag k="name" v="Riley Street"/>
  </way>
  <way id="3080826" version="17" timestamp="2012-07-20T00:59:10Z" uid="722137" user="OSMF Redaction Account" changeset="12353872">
    <nd ref="577292492"/>
    <nd ref="577292494"/>
    <nd ref="14693760"/>
    <nd ref="1173835553"/>
    <nd ref="25921082"/>
    <tag k="highway" v="tertiary"/>
    <tag k="name" v="Darlinghurst Road"/>
  </way>
  <way id="3080827" version="13" timestamp="2012-06-23T23:17:33Z" uid="7523" user="inas" changeset="11994456">
    <nd ref="14693767"/>
    <nd ref="14693770"/>
    <nd ref="26410558"/>
    <nd ref="25921204"/>
    <nd ref="962625910"/>
    <nd ref="664020876"/>
    <nd ref="14693775"/>
    <tag k="highway" v="tertiary"/>
    <tag k="maxspeed" v="40"/>
    <tag k="name" v="Victoria Street"/>
    <tag k="oneway" v="yes"/>
    <tag k="source" v="survey"/>
  </way>
  <way id="3080827" version="14" timestamp="2012-07-18T16:14:37Z" uid="713671" user="auspod" changeset="12286812">
    <nd ref="14693767"/>
    <nd ref="14693770"/>
    <nd ref="1829857219"/>
    <nd ref="25921204"/>
    <nd ref="962625910"/>
    <nd ref="664020876"/>
    <nd ref="14693775"/>
    <tag k="highway" v="tertiary"/>
    <tag k="maxspeed" v="40"/>
    <tag k="name" v="Victoria Street"/>
    <tag k="oneway" v="yes"/>
    <tag k="source" v="survey"/>
  </way>
  <way id="3080827" version="15" timestamp="2012-07-20T00:54:07Z" uid="722137" user="OSMF Redaction Account" changeset="12353530">
    <nd ref="14693770"/>
    <nd ref="1829857219"/>
    <nd ref="25921204"/>
    <nd ref="14693775"/>
    <tag k="highway" v="tertiary"/>
    <tag k="maxspeed" v="40"/>
    <tag k="name" v="Victoria Street"/>
    <tag k="oneway" v="yes"/>
    <tag k="source" v="survey"/>
  </way>
  <way id="3080827" version="16" timestamp="2012-07-31T20:20:24Z" uid="510836" user="Rub21" changeset="12566712">
    <nd ref="606267646"/>
    <nd ref="14693770"/>
    <nd ref="1829857219"/>
    <nd ref="25921204"/>
    <nd ref="14693775"/>
    <tag k="highway" v="tertiary"/>
    <tag k="maxspeed" v="40"/>
    <tag k="name" v="Victoria Street"/>
    <tag k="oneway" v="yes"/>
    <tag k="source" v="survey"/>
  </way>
  <way id="3080827" version="17" timestamp="2012-08-14T05:30:01Z" uid="18675" user="JeLuF" changeset="12722476">
    <nd ref="606267646"/>
    <nd ref="1865250324"/>
    <nd ref="14693770"/>
    <nd ref="1829857219"/>
    <nd ref="25921204"/>
    <nd ref="14693775"/>
    <tag k="highway" v="tertiary"/>
    <tag k="maxspeed" v="40"/>
    <tag k="name" v="Victoria Street"/>
    <tag k="oneway" v="yes"/>
    <tag k="source" v="survey"/>
  </way>
</osm>
