<?xml version='1.0' encoding='UTF-8'?>
<osm version="0.6" generator="libosmium/2.20.0">
  <way id="30854019" version="2" timestamp="2009-10-02T19:51:54Z" uid="86259" user="hasse_osm_korinthenkacker" changeset="2716821">
    <nd ref="318332611"/>
    <nd ref="318333624"/>
    <nd ref="318333626"/>
    <nd ref="318332614"/>
    <nd ref="318332611"/>
    <tag k="building" v="yes"/>
  </way>
  <way id="30854379" version="2" timestamp="2009-03-29T15:54:34Z" uid="20587" user="balrog-kun" changeset="867550">
    <nd ref="33147102"/>
    <nd ref="366948211"/>
    <nd ref="33147231"/>
    <nd ref="366948209"/>
    <nd ref="33147101"/>
    <tag k="created_by" v="JOSM"/>
    <tag k="highway" v="primary"/>
    <tag k="oneway" v="yes"/>
  </way>
  <way id="30854379" version="3" timestamp="2009-11-08T14:17:29Z" uid="103253" user="gormur" changeset="3064091">
    <nd ref="33147100"/>
    <nd ref="366948216"/>
    <nd ref="33147229"/>
    <nd ref="366948214"/>
    <nd ref="33147102"/>
    <nd ref="366948211"/>
    <nd ref="33147231"/>
    <nd ref="366948209"/>
    <nd ref="33147101"/>
    <nd ref="366948206"/>
    <nd ref="33147230"/>
    <nd ref="298486336"/>
    <nd ref="33147100"/>
    <tag k="highway" v="primary"/>
    <tag k="int_ref" v="E 15"/>
    <tag k="junction" v="roundabout"/>
  </way>
  <way id="30854379" version="4" timestamp="2009-12-09T23:33:02Z" uid="170106" user="sanchi" changeset="3338262">
    <nd ref="584220777"/>
    <nd ref="33147100"/>
    <nd ref="366948216"/>
    <nd ref="33147229"/>
    <nd ref="366948214"/>
    <nd ref="33147102"/>
    <nd ref="366948211"/>
    <nd ref="33147231"/>
    <nd ref="366948209"/>
    <nd ref="33147101"/>
    <nd ref="366948206"/>
    <nd ref="33147230"/>
    <nd ref="298486336"/>
    <nd ref="584220777"/>
    <nd ref="33147100"/>
    <tag k="highway" v="primary"/>
    <tag k="int_ref" v="E 15"/>
    <tag k="junction" v="roundabout"/>
  </way>
  <way id="30854379" version="5" timestamp="2009-12-11T22:41:54Z" uid="170106" user="sanchi" changeset="3352776">
    <nd ref="584220777"/>
    <nd ref="33147100"/>
    <nd ref="366948216"/>
    <nd ref="33147229"/>
    <nd ref="366948214"/>
    <nd ref="33147102"/>
    <nd ref="366948211"/>
    <nd ref="33147231"/>
    <nd ref="366948209"/>
    <nd ref="33147101"/>
    <nd ref="366948206"/>
    <nd ref="33147230"/>
    <nd ref="298486336"/>
    <nd ref="584220777"/>
    <nd ref="33147100"/>
    <tag k="highway" v="primary"/>
    <tag k="int_ref" v="E 15"/>
    <tag k="junction" v="roundabout"/>
    <tag k="oneway" v="yes"/>
  </way>
  <way id="30854379" version="6" timestamp="2009-12-12T16:39:30Z" uid="122503" user="benjavalero" changeset="3357003">
    <nd ref="584220777"/>
    <nd ref="587760119"/>
    <nd ref="366948216"/>
    <nd ref="33147229"/>
    <nd ref="366948214"/>
    <nd ref="33147102"/>
    <nd ref="366948211"/>
    <nd ref="33147231"/>
    <nd ref="366948209"/>
    <nd ref="33147101"/>
    <nd ref="366948206"/>
    <nd ref="33147230"/>
    <nd ref="298486336"/>
    <nd ref="584220777"/>
    <tag k="highway" v="primary"/>
    <tag k="int_ref" v="E 15"/>
    <tag k="junction" v="roundabout"/>
    <tag k="oneway" v="yes"/>
  </way>
  <way id="30854379" version="7" timestamp="2010-03-12T14:21:49Z" uid="93506" user="Muro de Aguas" changeset="4106669">
    <nd ref="584220777"/>
    <nd ref="587760119"/>
    <nd ref="366948216"/>
    <nd ref="33147229"/>
    <nd ref="366948214"/>
    <nd ref="33147102"/>
    <nd ref="366948211"/>
    <nd ref="33147231"/>
    <nd ref="366948209"/>
    <nd ref="33147101"/>
    <nd ref="366948206"/>
    <nd ref="33147230"/>
    <nd ref="298486336"/>
    <nd ref="584220777"/>
    <tag k="highway" v="trunk_link"/>
    <tag k="int_ref" v="E 15"/>
    <tag k="junction" v="roundabout"/>
    <tag k="oneway" v="yes"/>
  </way>
  <way id="30854379" version="8" timestamp="2010-03-12T14:24:46Z" uid="93506" user="Muro de Aguas" changeset="4106669">
    <nd ref="584220777"/>
    <nd ref="587760119"/>
    <nd ref="366948216"/>
    <nd ref="33147229"/>
    <nd ref="366948214"/>
    <nd ref="33147102"/>
    <nd ref="366948211"/>
    <nd ref="33147231"/>
    <nd ref="366948209"/>
    <nd ref="33147101"/>
    <nd ref="366948206"/>
    <nd ref="33147230"/>
    <nd ref="298486336"/>
    <nd ref="584220777"/>
    <tag k="highway" v="trunk_link"/>
    <tag k="int_ref" v="E 15"/>
    <tag k="junction" v="roundabout"/>
  </way>
  <way id="30854379" version="9" timestamp="2010-11-05T10:49:01Z" uid="26599" user="cdavila" changeset="6294341">
    <nd ref="584220777"/>
    <nd ref="587760119"/>
    <nd ref="366948216"/>
    <nd ref="33147229"/>
    <nd ref="366948214"/>
    <nd ref="33147102"/>
    <nd ref="366948211"/>
    <nd ref="33147231"/>
    <nd ref="366948209"/>
    <nd ref="33147101"/>
    <nd ref="366948206"/>
    <nd ref="33147230"/>
    <nd ref="298486336"/>
    <nd ref="584220777"/>
    <tag k="highway" v="trunk_link"/>
    <tag k="int_ref" v="E 15"/>
    <tag k="junction" v="roundabout"/>
    <tag k="oneway" v="yes"/>
  </way>
  <way id="30854379" version="10" timestamp="2011-08-18T15:04:29Z" uid="235316" user="jacksparrow" changeset="9057681">
    <nd ref="584220777"/>
    <nd ref="587760119"/>
    <nd ref="366948216"/>
    <nd ref="33147229"/>
    <nd ref="366948214"/>
    <nd ref="33147102"/>
    <nd ref="366948211"/>
    <nd ref="33147231"/>
    <nd ref="366948209"/>
    <nd ref="33147101"/>
    <nd ref="366948206"/>
    <nd ref="33147230"/>
    <nd ref="298486336"/>
    <nd ref="584220777"/>
    <tag k="highway" v="trunk"/>
    <tag k="junction" v="roundabout"/>
    <tag k="oneway" v="yes"/>
    <tag k="ref" v="N-340"/>
  </way>
  <way id="30854379" version="11" timestamp="2011-08-22T13:01:17Z" uid="24070" user="Antonio Eugenio Burriel" changeset="9093606">
    <nd ref="584220777"/>
    <nd ref="587760119"/>
    <nd ref="366948216"/>
    <nd ref="33147229"/>
    <nd ref="366948214"/>
    <nd ref="33147102"/>
    <nd ref="366948211"/>
    <nd ref="33147231"/>
    <nd ref="366948209"/>
    <nd ref="33147101"/>
    <nd ref="366948206"/>
    <nd ref="33147230"/>
    <nd ref="298486336"/>
    <nd ref="584220777"/>
    <tag k="highway" v="trunk"/>
    <tag k="junction" v="roundabout"/>
    <tag k="ref" v="N-340"/>
  </way>
  <way id="30854386" version="3" timestamp="2010-03-28T00:59:34Z" uid="20587" user="balrog-kun" changeset="4250871">
    <nd ref="123072901"/>
    <nd ref="343199517"/>
    <nd ref="343199520"/>
    <nd ref="343199524"/>
    <nd ref="343199528"/>
    <nd ref="343199532"/>
    <nd ref="123074421"/>
    <nd ref="123074423"/>
    <tag k="created_by" v="Potlatch 0.10f"/>
    <tag k="highway" v="residential"/>
    <tag k="name" v="Nannestad Street"/>
    <tag k="tiger:cfcc" v="A41"/>
    <tag k="tiger:county" v="Los Angeles, CA"/>
    <tag k="tiger:name_base" v="Nannestad"/>
    <tag k="tiger:name_type" v="St"/>
    <tag k="tiger:reviewed" v="no"/>
    <tag k="tiger:separated" v="no"/>
    <tag k="tiger:source" v="tiger_import_dch_v0.6_20070809"/>
    <tag k="tiger:tlid" v="141640588:141640593; 141640575:141640578"/>
    <tag k="tiger:zip_left" v="91770"/>
    <tag k="tiger:zip_right" v="91770"/>
  </way>
  <way id="30854386" version="4" timestamp="2010-05-18T23:36:29Z" uid="82317" user="AM909" changeset="4743938">
    <nd ref="123072901"/>
    <nd ref="343199517"/>
    <nd ref="343199520"/>
    <nd ref="343199524"/>
    <nd ref="343199528"/>
    <nd ref="343199532"/>
    <nd ref="123074421"/>
    <nd ref="123074423"/>
    <tag k="highway" v="residential"/>
    <tag k="name" v="Nannestad Street"/>
    <tag k="source" v="usgs_imagery;survey;image"/>
    <tag k="source_ref" v="AM909_DSCU3408"/>
    <tag k="tiger:cfcc" v="A41"/>
    <tag k="tiger:county" v="Los Angeles, CA"/>
    <tag k="tiger:name_base" v="Nannestad"/>
    <tag k="tiger:name_type" v="St"/>
    <tag k="tiger:reviewed" v="no"/>
    <tag k="tiger:separated" v="no"/>
    <tag k="tiger:source" v="tiger_import_dch_v0.6_20070809"/>
    <tag k="tiger:tlid" v="141640588:141640593; 141640575:141640578"/>
    <tag k="tiger:zip_left" v="91770"/>
    <tag k="tiger:zip_right" v="91770"/>
  </way>
  <way id="30854399" version="2" timestamp="2010-03-12T05:23:11Z" uid="245275" user="Marianian" changeset="4103581">
    <nd ref="38438624"/>
    <nd ref="224602949"/>
    <tag k="highway" v="trunk"/>
    <tag k="ref" v="A39"/>
  </way>
  <way id="30854399" version="3" timestamp="2010-03-12T05:24:10Z" uid="245275" user="Marianian" changeset="4103581"/>
  <way id="30854399" version="4" timestamp="2010-03-17T14:51:23Z" uid="108295" user="OSMF Data Revert" changeset="4153427">
    <nd ref="38438624"/>
    <nd ref="224602949"/>
    <nd ref="224609052"/>
    <nd ref="224609499"/>
    <tag k="created_by" v="Potlatch 0.10f"/>
    <tag k="highway" v="trunk"/>
    <tag k="ref" v="A39"/>
  </way>
  <way id="30854399" version="5" timestamp="2010-07-31T11:31:56Z" uid="115848" user="Molescott" changeset="5361882">
    <nd ref="38438624"/>
    <nd ref="224602949"/>
    <nd ref="224609052"/>
    <nd ref="224609499"/>
    <tag k="highway" v="trunk"/>
    <tag k="ref" v="A361"/>
  </way>
  <way id="30854399" version="6" timestamp="2010-11-09T16:02:47Z" uid="115848" user="Molescott" changeset="6329097">
    <nd ref="38438624"/>
    <nd ref="224602949"/>
    <nd ref="224609052"/>
    <nd ref="224609499"/>
    <tag k="highway" v="trunk"/>
    <tag k="maxspeed" v="60 mph"/>
    <tag k="ref" v="A361"/>
  </way>
  <way id="30854399" version="7" timestamp="2011-03-12T04:55:59Z" uid="8235" user="chriscf" changeset="7529644">
    <nd ref="38438624"/>
    <nd ref="224602949"/>
    <nd ref="224609052"/>
    <nd ref="224609499"/>
    <tag k="FIXME:nsl" v="inferred single-carriageway NSL - remove this tag once verified"/>
    <tag k="highway" v="trunk"/>
    <tag k="maxspeed" v="60 mph"/>
    <tag k="ref" v="A361"/>
    <tag k="source:maxspeed" v="UK:nsl_single"/>
  </way>
  <way id="30854399" version="8" timestamp="2011-10-23T08:24:04Z" uid="4951" user="PeterIto" changeset="9630289">
    <nd ref="38438624"/>
    <nd ref="224602949"/>
    <nd ref="224609052"/>
    <nd ref="224609499"/>
    <tag k="FIXME:nsl" v="inferred single-carriageway NSL - remove this tag once verified"/>
    <tag k="highway" v="trunk"/>
    <tag k="lanes" v="3"/>
    <tag k="maxspeed" v="60 mph"/>
    <tag k="ref" v="A361"/>
    <tag k="source:maxspeed" v="UK:nsl_single"/>
  </way>
  <way id="30854402" version="3" timestamp="2010-03-12T05:09:23Z" uid="245275" user="Marianian" changeset="4103532">
    <nd ref="664337455"/>
    <nd ref="331822051"/>
    <nd ref="331822052"/>
    <nd ref="331822053"/>
    <nd ref="331822054"/>
    <nd ref="38438625"/>
    <tag k="cutting" v="yes"/>
    <tag k="highway" v="trunk"/>
    <tag k="ref" v="A39"/>
  </way>
  <way id="30854402" version="4" timestamp="2010-03-12T05:09:59Z" uid="245275" user="Marianian" changeset="4103532">
    <nd ref="664337455"/>
    <nd ref="331822052"/>
    <nd ref="331822053"/>
    <nd ref="331822054"/>
    <nd ref="38438625"/>
    <tag k="cutting" v="yes"/>
    <tag k="highway" v="trunk"/>
    <tag k="ref" v="A39"/>
  </way>
  <way id="30854402" version="5" timestamp="2010-03-12T05:24:27Z" uid="245275" user="Marianian" changeset="4103581"/>
  <way id="30854402" version="6" timestamp="2010-03-17T14:51:24Z" uid="108295" user="OSMF Data Revert" changeset="4153427">
    <nd ref="331822049"/>
    <nd ref="331822050"/>
    <nd ref="331822051"/>
    <nd ref="331822052"/>
    <nd ref="331822053"/>
    <nd ref="331822054"/>
    <nd ref="38438625"/>
    <tag k="created_by" v="Potlatch 0.10f"/>
    <tag k="cutting" v="yes"/>
    <tag k="highway" v="trunk"/>
    <tag k="ref" v="A39"/>
  </way>
  <way id="30854402" version="7" timestamp="2010-07-31T11:31:56Z" uid="115848" user="Molescott" changeset="5361882">
    <nd ref="331822049"/>
    <nd ref="331822050"/>
    <nd ref="331822051"/>
    <nd ref="331822052"/>
    <nd ref="331822053"/>
    <nd ref="331822054"/>
    <nd ref="38438625"/>
    <tag k="cutting" v="yes"/>
    <tag k="highway" v="trunk"/>
    <tag k="ref" v="A361"/>
  </way>
  <way id="30854402" version="8" timestamp="2010-11-09T16:04:09Z" uid="115848" user="Molescott" changeset="6329097">
    <nd ref="331822049"/>
    <nd ref="331822050"/>
    <nd ref="331822051"/>
    <nd ref="331822052"/>
    <nd ref="331822053"/>
    <nd ref="331822054"/>
    <nd ref="38438625"/>
    <tag k="cutting" v="yes"/>
    <tag k="highway" v="trunk"/>
    <tag k="maxspeed" v="60 mph"/>
    <tag k="ref" v="A361"/>
  </way>
  <way id="30854402" version="9" timestamp="2011-01-10T20:26:21Z" uid="115848" user="Molescott" changeset="6930640">
    <nd ref="331822049"/>
    <nd ref="331822050"/>
    <nd ref="1096996125"/>
    <nd ref="331822051"/>
    <nd ref="331822052"/>
    <nd ref="331822053"/>
    <nd ref="331822054"/>
    <nd ref="38438625"/>
    <tag k="cutting" v="yes"/>
    <tag k="highway" v="trunk"/>
    <tag k="maxspeed" v="60 mph"/>
    <tag k="ref" v="A361"/>
  </way>
  <way id="30854402" version="10" timestamp="2011-03-12T05:28:47Z" uid="8235" user="chriscf" changeset="7529644">
    <nd ref="331822049"/>
    <nd ref="331822050"/>
    <nd ref="1096996125"/>
    <nd ref="331822051"/>
    <nd ref="331822052"/>
    <nd ref="331822053"/>
    <nd ref="331822054"/>
    <nd ref="38438625"/>
    <tag k="FIXME:nsl" v="inferred single-carriageway NSL - remove this tag once verified"/>
    <tag k="cutting" v="yes"/>
    <tag k="highway" v="trunk"/>
    <tag k="maxspeed" v="60 mph"/>
    <tag k="ref" v="A361"/>
    <tag k="source:maxspeed" v="UK:nsl_single"/>
  </way>
  <way id="30854402" version="11" timestamp="2011-10-23T08:24:04Z" uid="4951" user="PeterIto" changeset="9630289">
    <nd ref="331822049"/>
    <nd ref="331822050"/>
    <nd ref="1096996125"/>
    <nd ref="331822051"/>
    <nd ref="1477535359"/>
    <tag k="FIXME:nsl" v="inferred single-carriageway NSL - remove this tag once verified"/>
    <tag k="cutting" v="yes"/>
    <tag k="highway" v="trunk"/>
    <tag k="lanes" v="3"/>
    <tag k="lanes:forward" v="2"/>
    <tag k="maxspeed" v="60 mph"/>
    <tag k="ref" v="A361"/>
    <tag k="source:maxspeed" v="UK:nsl_single"/>
  </way>
  <way id="30854585" version="1" timestamp="2009-02-07T21:29:57Z" uid="45985" user="janrikard" changeset="246297">
    <nd ref="343205808"/>
    <nd ref="343205814"/>
    <tag k="brigde" v="yes"/>
    <tag k="highway" v="footway"/>
  </way>
  <way id="30854585" version="2" timestamp="2009-02-08T22:54:27Z" uid="6975" user="ulfl" changeset="302124">
    <nd ref="343205808"/>
    <nd ref="343205814"/>
    <tag k="bridge" v="yes"/>
    <tag k="highway" v="footway"/>
  </way>
  <way id="30854585" version="3" timestamp="2009-08-03T18:08:23Z" uid="2797" user="rycee" changeset="2028323">
    <nd ref="343205808"/>
    <nd ref="343205814"/>
    <tag k="bridge" v="yes"/>
    <tag k="highway" v="path"/>
    <tag k="sac_scale" v="hiking"/>
  </way>
  <way id="30854678" version="3" timestamp="2010-03-07T11:08:08Z" uid="58091" user="Andreas M" changeset="4059658">
    <nd ref="133076590"/>
    <nd ref="133076596"/>
    <tag k="highway" v="unclassified"/>
    <tag k="is_in:city" v="Kitzbühel"/>
    <tag k="is_in:country_code" v="AT"/>
    <tag k="name" v="Josef-Herold-Straße"/>
    <tag k="postal_code" v="6370"/>
  </way>
  <way id="30854679" version="3" timestamp="2009-06-17T22:05:29Z" uid="36809" user="pfoten_weg_!_" changeset="1550007">
    <nd ref="332728269"/>
    <nd ref="343209132"/>
    <nd ref="343209135"/>
    <nd ref="343209137"/>
    <nd ref="343209141"/>
    <nd ref="343209144"/>
    <tag k="created_by" v="RambaZamba"/>
    <tag k="highway" v="residential"/>
    <tag k="name" v="Waldstraße"/>
    <tag k="oneway" v="no"/>
  </way>
  <way id="30854679" version="4" timestamp="2009-08-24T23:49:33Z" uid="36809" user="pfoten_weg_!_" changeset="2251146">
    <nd ref="332728269"/>
    <nd ref="343209132"/>
    <nd ref="343209135"/>
    <nd ref="343209137"/>
    <nd ref="343209141"/>
    <nd ref="343209144"/>
    <tag k="discovered_by" v="RambaZamba"/>
    <tag k="highway" v="residential"/>
    <tag k="name" v="Waldstraße"/>
    <tag k="oneway" v="no"/>
  </way>
  <way id="30854679" version="5" timestamp="2009-08-28T20:04:48Z" uid="156995" user="HampelZamba" changeset="2294580">
    <nd ref="332728269"/>
    <nd ref="343209132"/>
    <nd ref="343209135"/>
    <nd ref="343209137"/>
    <nd ref="343209141"/>
    <nd ref="343209144"/>
    <tag k="highway" v="residential"/>
    <tag k="name" v="Waldstraße"/>
    <tag k="oneway" v="no"/>
  </way>
  <way id="30854679" version="6" timestamp="2009-08-28T22:19:28Z" uid="36809" user="pfoten_weg_!_" changeset="2295907">
    <nd ref="332728269"/>
    <nd ref="343209132"/>
    <nd ref="343209135"/>
    <nd ref="343209137"/>
    <nd ref="343209141"/>
    <nd ref="343209144"/>
    <tag k="discovered_by" v="RambaZamba"/>
    <tag k="highway" v="residential"/>
    <tag k="name" v="Waldstraße"/>
    <tag k="oneway" v="no"/>
    <tag k="source" v="survey"/>
  </way>
  <way id="30854679" version="7" timestamp="2009-08-30T09:31:18Z" uid="156995" user="HampelZamba" changeset="2310659">
    <nd ref="332728269"/>
    <nd ref="343209132"/>
    <nd ref="343209135"/>
    <nd ref="343209137"/>
    <nd ref="343209141"/>
    <nd ref="343209144"/>
    <tag k="highway" v="residential"/>
    <tag k="name" v="Waldstraße"/>
    <tag k="oneway" v="no"/>
    <tag k="source" v="survey"/>
  </way>
  <way id="30854679" version="8" timestamp="2009-08-30T11:30:17Z" uid="36809" user="pfoten_weg_!_" changeset="2311952">
    <nd ref="332728269"/>
    <nd ref="343209132"/>
    <nd ref="343209135"/>
    <nd ref="343209137"/>
    <nd ref="343209141"/>
    <nd ref="343209144"/>
    <tag k="highway" v="residential"/>
    <tag k="name" v="Waldstraße"/>
    <tag k="oneway" v="no"/>
    <tag k="source" v="survey"/>
  </way>
  <way id="30854679" version="9" timestamp="2009-10-28T07:21:10Z" uid="36809" user="pfoten_weg_!_" changeset="2971189">
    <nd ref="332728269"/>
    <nd ref="343209132"/>
    <nd ref="343209135"/>
    <nd ref="343209137"/>
    <nd ref="343209141"/>
    <nd ref="343209144"/>
    <tag k="highway" v="residential"/>
    <tag k="name" v="Waldstraße"/>
    <tag k="oneway" v="no"/>
  </way>
  <way id="30854679" version="10" timestamp="2009-12-10T09:10:30Z" uid="194664" user="mardin" changeset="3339957">
    <nd ref="332728269"/>
    <nd ref="584950575"/>
    <nd ref="343209132"/>
    <nd ref="343209135"/>
    <nd ref="343209137"/>
    <nd ref="343209141"/>
    <nd ref="343209144"/>
    <tag k="highway" v="residential"/>
    <tag k="name" v="Waldstraße"/>
    <tag k="oneway" v="no"/>
  </way>
  <way id="30854679" version="11" timestamp="2009-12-26T13:52:38Z" uid="64756" user="alegria6208" changeset="3454894"/>
  <way id="30854700" version="6" timestamp="2010-01-26T17:08:04Z" uid="115477" user="wowik" changeset="3721159">
    <nd ref="620786847"/>
    <nd ref="620786848"/>
    <nd ref="343210317"/>
    <tag k="cladr:code" v="50011001000014900"/>
    <tag k="cladr:name" v="Чайковского"/>
    <tag k="cladr:suffix" v="Улица"/>
    <tag k="highway" v="residential"/>
    <tag k="name" v="Чайковского улица"/>
    <tag k="oneway" v="yes"/>
  </way>
  <way id="30854700" version="7" timestamp="2010-12-29T17:48:30Z" uid="133332" user="AMDmi3" changeset="6801271">
    <nd ref="620786847"/>
    <nd ref="620786848"/>
    <nd ref="343210317"/>
    <tag k="cladr:code" v="50011001000014900"/>
    <tag k="cladr:name" v="Чайковского"/>
    <tag k="cladr:suffix" v="Улица"/>
    <tag k="highway" v="residential"/>
    <tag k="name" v="улица Чайковского"/>
    <tag k="oneway" v="yes"/>
  </way>
  <way id="30854700" version="8" timestamp="2011-04-28T07:18:18Z" uid="422115" user="sndrz" changeset="7991736">
    <nd ref="620786847"/>
    <nd ref="1263098408"/>
    <nd ref="620786848"/>
    <nd ref="343210317"/>
    <tag k="cladr:code" v="50011001000014900"/>
    <tag k="cladr:name" v="Чайковского"/>
    <tag k="cladr:suffix" v="Улица"/>
    <tag k="highway" v="residential"/>
    <tag k="name" v="улица Чайковского"/>
    <tag k="oneway" v="yes"/>
  </way>
  <way id="30854740" version="8" timestamp="2010-03-28T00:59:34Z" uid="20587" user="balrog-kun" changeset="4250871">
    <nd ref="343210802"/>
    <nd ref="268169281"/>
    <nd ref="268541557"/>
    <nd ref="268541559"/>
    <nd ref="268541560"/>
    <nd ref="352873713"/>
    <nd ref="352873806"/>
    <tag k="highway" v="motorway"/>
    <tag k="layer" v="1"/>
    <tag k="name" v="San Bernardino Freeway"/>
    <tag k="oneway" v="yes"/>
    <tag k="ref" v="I 10"/>
  </way>
  <way id="30854740" version="9" timestamp="2010-06-22T07:44:41Z" uid="82317" user="AM909" changeset="5048963">
    <nd ref="343210802"/>
    <nd ref="268169281"/>
    <nd ref="781124165"/>
    <tag k="highway" v="motorway"/>
    <tag k="layer" v="1"/>
    <tag k="name" v="San Bernardino Freeway"/>
    <tag k="oneway" v="yes"/>
    <tag k="ref" v="I 10"/>
  </way>
  <way id="30854740" version="10" timestamp="2010-07-09T18:42:22Z" uid="239998" user="Sundance" changeset="5176036">
    <nd ref="343210802"/>
    <nd ref="268169281"/>
    <nd ref="781124165"/>
    <tag k="highway" v="motorway"/>
    <tag k="name" v="San Bernardino Freeway"/>
    <tag k="name_1" v="Interstate 10"/>
    <tag k="oneway" v="yes"/>
    <tag k="ref" v="I 10"/>
  </way>
  <way id="30854740" version="11" timestamp="2011-08-02T08:06:28Z" uid="207745" user="NE2" changeset="8898279">
    <nd ref="343210802"/>
    <nd ref="268169281"/>
    <nd ref="781124165"/>
    <tag k="highway" v="motorway"/>
    <tag k="lanes" v="4"/>
    <tag k="name" v="San Bernardino Freeway"/>
    <tag k="oneway" v="yes"/>
    <tag k="ref" v="I 10"/>
    <tag k="x" v="x"/>
  </way>
  <way id="30854740" version="12" timestamp="2011-11-25T15:02:32Z" uid="207745" user="NE2" changeset="9943893">
    <nd ref="343210802"/>
    <nd ref="268169281"/>
    <nd ref="781124165"/>
    <tag k="hgv" v="designated"/>
    <tag k="highway" v="motorway"/>
    <tag k="lanes" v="4"/>
    <tag k="name" v="San Bernardino Freeway"/>
    <tag k="oneway" v="yes"/>
    <tag k="ref" v="I 10"/>
    <tag k="x" v="x"/>
  </way>
  <way id="30854740" version="13" timestamp="2012-02-07T09:30:22Z" uid="207745" user="NE2" changeset="10610324">
    <nd ref="343210802"/>
    <nd ref="268169281"/>
    <nd ref="781124165"/>
    <tag k="hgv" v="designated"/>
    <tag k="highway" v="motorway"/>
    <tag k="lanes" v="4"/>
    <tag k="name" v="San Bernardino Freeway"/>
    <tag k="oneway" v="yes"/>
    <tag k="ref" v="I 10"/>
  </way>
  <way id="30854379" version="12" timestamp="2012-04-13T10:28:44Z" uid="55462" user="Lübeck" changeset="11285941">
    <nd ref="584220777"/>
    <nd ref="587760119"/>
    <nd ref="366948216"/>
    <nd ref="33147229"/>
    <nd ref="366948214"/>
    <nd ref="33147102"/>
    <nd ref="366948211"/>
    <nd ref="33147231"/>
    <nd ref="366948209"/>
    <nd ref="33147101"/>
    <nd ref="366948206"/>
    <nd ref="33147230"/>
    <nd ref="298486336"/>
    <nd ref="584220777"/>
    <tag k="highway" v="primary"/>
    <tag k="junction" v="roundabout"/>
    <tag k="ref" v="N-340"/>
  </way>
  <way id="30854379" version="13" timestamp="2012-04-30T10:34:09Z" uid="235316" user="jacksparrow" changeset="11458410">
    <nd ref="584220777"/>
    <nd ref="587760119"/>
    <nd ref="366948216"/>
    <nd ref="33147229"/>
    <nd ref="366948214"/>
    <nd ref="33147102"/>
    <nd ref="366948211"/>
    <nd ref="33147231"/>
    <nd ref="366948209"/>
    <nd ref="33147101"/>
    <nd ref="366948206"/>
    <nd ref="33147230"/>
    <nd ref="298486336"/>
    <nd ref="584220777"/>
    <tag k="highway" v="trunk"/>
    <tag k="junction" v="roundabout"/>
    <tag k="ref" v="N-340"/>
  </way>
  <way id="30854678" version="4" timestamp="2012-07-17T01:15:32Z" uid="722137" user="OSMF Redaction Account" changeset="12254620">
    <nd ref="133076590"/>
    <nd ref="133076596"/>
    <tag k="addr:city" v="Kitzbühel"/>
    <tag k="addr:country" v="AT"/>
    <tag k="addr:postcode" v="6370"/>
    <tag k="addr:street" v="Josef-Herold-Straße"/>
    <tag k="highway" v="unclassified"/>
  </way>
  <way id="30854700" version="9" timestamp="2012-05-10T13:03:05Z" uid="422115" user="sndrz" changeset="11558627"/>
  <way id="30854740" version="14" timestamp="2012-09-01T01:06:26Z" uid="207745" user="NE2" changeset="12937943">
    <nd ref="343210802"/>
    <nd ref="268169281"/>
    <nd ref="781124165"/>
    <tag k="bicycle" v="no"/>
    <tag k="hgv" v="designated"/>
    <tag k="highway" v="motorway"/>
    <tag k="lanes" v="4"/>
    <tag k="name" v="San Bernardino Freeway"/>
    <tag k="oneway" v="yes"/>
    <tag k="ref" v="I 10"/>
  </way>
</osm>
