<?xml version='1.0' encoding='UTF-8'?>
<osm version="0.6" generator="libosmium/2.20.0">
  <way id="30866596" version="1" timestamp="2009-02-08T01:18:24Z" uid="26515" user="Simon Ward" changeset="276237">
    <nd ref="333464189"/>
    <nd ref="343288678"/>
    <nd ref="343288313"/>
    <tag k="highway" v="footway"/>
    <tag k="source" v="survey"/>
    <tag k="surface" v="paved"/>
  </way>
  <way id="30866596" version="2" timestamp="2009-02-08T01:26:09Z" uid="26515" user="Simon Ward" changeset="276237">
    <nd ref="333464189"/>
    <nd ref="343288678"/>
    <nd ref="309132581"/>
    <tag k="highway" v="footway"/>
    <tag k="source" v="survey"/>
    <tag k="surface" v="paved"/>
  </way>
  <way id="30866664" version="1" timestamp="2009-02-08T01:18:49Z" uid="20587" user="balrog-kun" changeset="256625">
    <nd ref="343283655"/>
    <nd ref="343283657"/>
    <nd ref="343283620"/>
    <nd ref="343283617"/>
    <nd ref="343283633"/>
    <nd ref="343283632"/>
    <nd ref="343283647"/>
    <nd ref="343283646"/>
    <nd ref="343288685"/>
    <nd ref="343283655"/>
    <tag k="addr:housenumber" v="15"/>
    <tag k="addr:street" v="Aleja Wyzwolenia"/>
    <tag k="building" v="yes"/>
    <tag k="source:addr" v="msi"/>
  </way>
  <way id="30866664" version="2" timestamp="2009-04-27T21:51:51Z" uid="20587" user="balrog-kun" changeset="997856">
    <nd ref="343283655"/>
    <nd ref="343283657"/>
    <nd ref="343283620"/>
    <nd ref="343283617"/>
    <nd ref="343283633"/>
    <nd ref="343283632"/>
    <nd ref="343283647"/>
    <nd ref="343283646"/>
    <nd ref="343288685"/>
    <nd ref="343283655"/>
    <tag k="addr:housenumber" v="15"/>
    <tag k="addr:street" v="Aleja Wyzwolenia"/>
    <tag k="building" v="residential"/>
    <tag k="source:addr" v="msi"/>
  </way>
  <way id="30866664" version="3" timestamp="2011-08-26T10:12:50Z" uid="508862" user="KeiDii" changeset="9128116">
    <nd ref="343283655"/>
    <nd ref="343283657"/>
    <nd ref="343283620"/>
    <nd ref="343283617"/>
    <nd ref="343283633"/>
    <nd ref="343283632"/>
    <nd ref="343283647"/>
    <nd ref="343288685"/>
    <nd ref="343283655"/>
    <tag k="addr:housenumber" v="15"/>
    <tag k="addr:street" v="Aleja Wyzwolenia"/>
    <tag k="building" v="residential"/>
    <tag k="source:addr" v="msi"/>
  </way>
  <way id="30866666" version="1" timestamp="2009-02-08T01:18:50Z" uid="20587" user="balrog-kun" changeset="256625">
    <nd ref="343288694"/>
    <nd ref="343288695"/>
    <nd ref="343288709"/>
    <nd ref="343288693"/>
    <nd ref="343288686"/>
    <nd ref="343288694"/>
    <tag k="addr:housenumber" v="9"/>
    <tag k="addr:street" v="Aleja Wyzwolenia"/>
    <tag k="building" v="yes"/>
    <tag k="source:addr" v="msi"/>
  </way>
  <way id="30866666" version="2" timestamp="2009-04-27T21:51:52Z" uid="20587" user="balrog-kun" changeset="997856">
    <nd ref="343288694"/>
    <nd ref="343288695"/>
    <nd ref="343288709"/>
    <nd ref="343288693"/>
    <nd ref="343288686"/>
    <nd ref="343288694"/>
    <tag k="addr:housenumber" v="9"/>
    <tag k="addr:street" v="Aleja Wyzwolenia"/>
    <tag k="building" v="residential"/>
    <tag k="source:addr" v="msi"/>
  </way>
  <way id="30866667" version="1" timestamp="2009-02-08T01:18:50Z" uid="20587" user="balrog-kun" changeset="256625">
    <nd ref="343288688"/>
    <nd ref="343288691"/>
    <nd ref="343288692"/>
    <nd ref="343288710"/>
    <nd ref="343288690"/>
    <nd ref="343288688"/>
    <tag k="addr:housenumber" v="10"/>
    <tag k="addr:street" v="Aleja Wyzwolenia"/>
    <tag k="building" v="yes"/>
    <tag k="source:addr" v="msi"/>
  </way>
  <way id="30866667" version="2" timestamp="2009-04-27T21:51:52Z" uid="20587" user="balrog-kun" changeset="997856">
    <nd ref="343288688"/>
    <nd ref="343288691"/>
    <nd ref="343288692"/>
    <nd ref="343288710"/>
    <nd ref="343288690"/>
    <nd ref="343288688"/>
    <tag k="addr:housenumber" v="10"/>
    <tag k="addr:street" v="Aleja Wyzwolenia"/>
    <tag k="building" v="residential"/>
    <tag k="source:addr" v="msi"/>
  </way>
  <way id="30866667" version="3" timestamp="2011-08-25T22:29:13Z" uid="508862" user="KeiDii" changeset="9125625">
    <nd ref="343288688"/>
    <nd ref="343288691"/>
    <nd ref="1412641631"/>
    <nd ref="1412641616"/>
    <nd ref="343288692"/>
    <nd ref="343288710"/>
    <nd ref="343288690"/>
    <nd ref="1412641595"/>
    <nd ref="320018068"/>
    <nd ref="343288688"/>
    <tag k="addr:housenumber" v="10"/>
    <tag k="addr:street" v="Aleja Wyzwolenia"/>
    <tag k="building" v="residential"/>
    <tag k="source:addr" v="msi"/>
  </way>
  <way id="30866669" version="1" timestamp="2009-02-08T01:18:50Z" uid="20587" user="balrog-kun" changeset="256625">
    <nd ref="343288718"/>
    <nd ref="343288716"/>
    <nd ref="343288706"/>
    <nd ref="343288693"/>
    <nd ref="343288709"/>
    <nd ref="343288707"/>
    <nd ref="343288708"/>
    <nd ref="343288713"/>
    <nd ref="343288712"/>
    <nd ref="343288718"/>
    <tag k="addr:housenumber" v="3/5"/>
    <tag k="addr:street" v="Aleja Wyzwolenia"/>
    <tag k="building" v="yes"/>
    <tag k="source:addr" v="msi"/>
  </way>
  <way id="30866669" version="2" timestamp="2009-04-27T21:51:52Z" uid="20587" user="balrog-kun" changeset="997856">
    <nd ref="343288718"/>
    <nd ref="343288716"/>
    <nd ref="343288706"/>
    <nd ref="343288693"/>
    <nd ref="343288709"/>
    <nd ref="343288707"/>
    <nd ref="343288708"/>
    <nd ref="343288713"/>
    <nd ref="343288712"/>
    <nd ref="343288718"/>
    <tag k="addr:housenumber" v="3/5"/>
    <tag k="addr:street" v="Aleja Wyzwolenia"/>
    <tag k="building" v="residential"/>
    <tag k="source:addr" v="msi"/>
  </way>
  <way id="30866671" version="1" timestamp="2009-02-08T01:18:50Z" uid="20587" user="balrog-kun" changeset="256625">
    <nd ref="343288717"/>
    <nd ref="343288711"/>
    <nd ref="343288714"/>
    <nd ref="343288705"/>
    <nd ref="343288704"/>
    <nd ref="343288710"/>
    <nd ref="343288690"/>
    <nd ref="343288703"/>
    <nd ref="343288715"/>
    <nd ref="343288717"/>
    <tag k="addr:housenumber" v="6"/>
    <tag k="addr:street" v="Aleja Wyzwolenia"/>
    <tag k="building" v="yes"/>
    <tag k="source:addr" v="msi"/>
  </way>
  <way id="30866671" version="2" timestamp="2009-04-27T21:51:52Z" uid="20587" user="balrog-kun" changeset="997856">
    <nd ref="343288717"/>
    <nd ref="343288711"/>
    <nd ref="343288714"/>
    <nd ref="343288705"/>
    <nd ref="343288704"/>
    <nd ref="343288710"/>
    <nd ref="343288690"/>
    <nd ref="343288703"/>
    <nd ref="343288715"/>
    <nd ref="343288717"/>
    <tag k="addr:housenumber" v="6"/>
    <tag k="addr:street" v="Aleja Wyzwolenia"/>
    <tag k="building" v="residential"/>
    <tag k="source:addr" v="msi"/>
  </way>
  <way id="30866672" version="1" timestamp="2009-02-08T01:18:50Z" uid="20587" user="balrog-kun" changeset="256625">
    <nd ref="343283661"/>
    <nd ref="343283663"/>
    <nd ref="343283664"/>
    <nd ref="343283666"/>
    <nd ref="343283667"/>
    <nd ref="343283669"/>
    <nd ref="343283661"/>
    <tag k="addr:housenumber" v="6"/>
    <tag k="addr:street" v="Plac Zbawiciela"/>
    <tag k="building" v="yes"/>
    <tag k="source:addr" v="msi"/>
  </way>
  <way id="30866672" version="2" timestamp="2009-04-27T21:51:52Z" uid="20587" user="balrog-kun" changeset="997856">
    <nd ref="343283661"/>
    <nd ref="343283663"/>
    <nd ref="343283664"/>
    <nd ref="343283666"/>
    <nd ref="343283667"/>
    <nd ref="343283669"/>
    <nd ref="343283661"/>
    <tag k="addr:housenumber" v="6"/>
    <tag k="addr:street" v="Plac Zbawiciela"/>
    <tag k="building" v="residential"/>
    <tag k="source:addr" v="msi"/>
  </way>
  <way id="30866672" version="3" timestamp="2009-07-26T16:47:41Z" uid="20587" user="balrog-kun" changeset="1946779">
    <nd ref="343283661"/>
    <nd ref="343283663"/>
    <nd ref="343283664"/>
    <nd ref="343283666"/>
    <nd ref="343283667"/>
    <nd ref="343283669"/>
    <nd ref="343283661"/>
    <tag k="addr:housenumber" v="6"/>
    <tag k="addr:street" v="Plac Zbawiciela"/>
    <tag k="building" v="residential"/>
    <tag k="name" v="Metodyści"/>
    <tag k="source:addr" v="msi"/>
  </way>
  <way id="30866672" version="4" timestamp="2011-08-26T10:12:58Z" uid="508862" user="KeiDii" changeset="9128116">
    <nd ref="343283661"/>
    <nd ref="343283663"/>
    <nd ref="1412975421"/>
    <nd ref="1412975429"/>
    <nd ref="343283664"/>
    <nd ref="343283666"/>
    <nd ref="343283669"/>
    <nd ref="343283661"/>
    <tag k="addr:housenumber" v="6"/>
    <tag k="addr:street" v="Plac Zbawiciela"/>
    <tag k="building" v="residential"/>
    <tag k="name" v="Metodyści"/>
    <tag k="source:addr" v="msi"/>
  </way>
  <way id="30866674" version="1" timestamp="2009-02-08T01:18:51Z" uid="20587" user="balrog-kun" changeset="256625">
    <nd ref="343288723"/>
    <nd ref="343288724"/>
    <nd ref="343288725"/>
    <nd ref="343288726"/>
    <nd ref="343288727"/>
    <nd ref="343288728"/>
    <nd ref="343288694"/>
    <nd ref="343288696"/>
    <nd ref="343288729"/>
    <nd ref="343288730"/>
    <nd ref="343288735"/>
    <nd ref="343288731"/>
    <nd ref="343288732"/>
    <nd ref="343288734"/>
    <nd ref="343288733"/>
    <nd ref="343288721"/>
    <nd ref="343288723"/>
    <tag k="addr:housenumber" v="3"/>
    <tag k="addr:street" v="Stefanii Sempołowskiej"/>
    <tag k="building" v="yes"/>
    <tag k="source:addr" v="msi"/>
  </way>
  <way id="30866676" version="1" timestamp="2009-02-08T01:18:51Z" uid="20587" user="balrog-kun" changeset="256625">
    <nd ref="282495812"/>
    <nd ref="282495813"/>
    <nd ref="282495814"/>
    <nd ref="282495815"/>
    <nd ref="343288720"/>
    <nd ref="343288722"/>
    <nd ref="343288723"/>
    <nd ref="343288721"/>
    <nd ref="343288719"/>
    <nd ref="333136642"/>
    <nd ref="343288734"/>
    <nd ref="343288732"/>
    <nd ref="343288731"/>
    <nd ref="343288735"/>
    <nd ref="333136643"/>
    <nd ref="282495816"/>
    <nd ref="282495803"/>
    <nd ref="282495804"/>
    <nd ref="282495812"/>
    <tag k="addr:housenumber" v="28"/>
    <tag k="addr:postcode" v="00-639"/>
    <tag k="addr:street" v="Marszałkowska"/>
    <tag k="building" v="yes"/>
  </way>
  <way id="30866676" version="2" timestamp="2009-04-27T21:51:52Z" uid="20587" user="balrog-kun" changeset="997856">
    <nd ref="282495812"/>
    <nd ref="282495813"/>
    <nd ref="282495814"/>
    <nd ref="282495815"/>
    <nd ref="343288720"/>
    <nd ref="343288722"/>
    <nd ref="343288723"/>
    <nd ref="343288721"/>
    <nd ref="343288719"/>
    <nd ref="333136642"/>
    <nd ref="343288734"/>
    <nd ref="343288732"/>
    <nd ref="343288731"/>
    <nd ref="343288735"/>
    <nd ref="333136643"/>
    <nd ref="282495816"/>
    <nd ref="282495803"/>
    <nd ref="282495804"/>
    <nd ref="282495812"/>
    <tag k="addr:housenumber" v="28"/>
    <tag k="addr:postcode" v="00-639"/>
    <tag k="addr:street" v="Marszałkowska"/>
    <tag k="building" v="residential"/>
  </way>
  <way id="30866678" version="1" timestamp="2009-02-08T01:18:51Z" uid="20587" user="balrog-kun" changeset="256625">
    <nd ref="343288737"/>
    <nd ref="343288748"/>
    <nd ref="343288751"/>
    <nd ref="343288739"/>
    <nd ref="343288740"/>
    <nd ref="343288742"/>
    <nd ref="343288743"/>
    <nd ref="343288750"/>
    <nd ref="343288749"/>
    <nd ref="343288744"/>
    <nd ref="343288741"/>
    <nd ref="343288738"/>
    <nd ref="343288737"/>
    <tag k="addr:housenumber" v="4"/>
    <tag k="addr:street" v="Stefanii Sempołowskiej"/>
    <tag k="building" v="yes"/>
    <tag k="source:addr" v="msi"/>
  </way>
  <way id="30866679" version="1" timestamp="2009-02-08T01:18:51Z" uid="20587" user="balrog-kun" changeset="256625">
    <nd ref="343288752"/>
    <nd ref="343288753"/>
    <nd ref="343288755"/>
    <nd ref="343288754"/>
    <nd ref="343288752"/>
    <tag k="addr:housenumber" v="6"/>
    <tag k="building" v="yes"/>
    <tag k="note" v="TODO: street"/>
    <tag k="source:addr" v="msi"/>
  </way>
  <way id="30866679" version="2" timestamp="2009-04-27T21:51:53Z" uid="20587" user="balrog-kun" changeset="997856">
    <nd ref="343288752"/>
    <nd ref="343288753"/>
    <nd ref="343288755"/>
    <nd ref="343288754"/>
    <nd ref="343288752"/>
    <tag k="addr:housenumber" v="6"/>
    <tag k="building" v="residential"/>
    <tag k="note" v="TODO: street"/>
    <tag k="source:addr" v="msi"/>
  </way>
  <way id="30866681" version="1" timestamp="2009-02-08T01:18:52Z" uid="20587" user="balrog-kun" changeset="256625">
    <nd ref="46852326"/>
    <nd ref="255582549"/>
    <tag k="created_by" v="JOSM"/>
    <tag k="highway" v="service"/>
    <tag k="name" v="Faustyna Czerwijowskiego"/>
  </way>
  <way id="30866682" version="1" timestamp="2009-02-08T01:18:52Z" uid="20587" user="balrog-kun" changeset="256625">
    <nd ref="343288758"/>
    <nd ref="343288759"/>
    <nd ref="343288761"/>
    <nd ref="343288760"/>
    <nd ref="343288758"/>
    <tag k="addr:housenumber" v="2a"/>
    <tag k="addr:street" v="Stefanii Sempołowskiej"/>
    <tag k="building" v="yes"/>
    <tag k="source:addr" v="msi"/>
  </way>
  <way id="30866684" version="1" timestamp="2009-02-08T01:18:52Z" uid="20587" user="balrog-kun" changeset="256625">
    <nd ref="343288763"/>
    <nd ref="343288764"/>
    <nd ref="343288766"/>
    <nd ref="343288765"/>
    <nd ref="343288763"/>
    <tag k="addr:housenumber" v="4"/>
    <tag k="building" v="yes"/>
    <tag k="note" v="TODO: street"/>
    <tag k="source:addr" v="msi"/>
  </way>
  <way id="30866684" version="2" timestamp="2009-04-27T21:51:52Z" uid="20587" user="balrog-kun" changeset="997856">
    <nd ref="343288763"/>
    <nd ref="343288764"/>
    <nd ref="343288766"/>
    <nd ref="343288765"/>
    <nd ref="343288763"/>
    <tag k="addr:housenumber" v="4"/>
    <tag k="building" v="residential"/>
    <tag k="note" v="TODO: street"/>
    <tag k="source:addr" v="msi"/>
  </way>
  <way id="30866686" version="1" timestamp="2009-02-08T01:18:52Z" uid="20587" user="balrog-kun" changeset="256625">
    <nd ref="343288767"/>
    <nd ref="343288769"/>
    <nd ref="343288771"/>
    <nd ref="343288773"/>
    <nd ref="343288774"/>
    <nd ref="343288772"/>
    <nd ref="343288770"/>
    <nd ref="343288768"/>
    <nd ref="343288767"/>
    <tag k="addr:housenumber" v="3"/>
    <tag k="addr:street" v="Aleja Wyzwolenia"/>
    <tag k="building" v="yes"/>
    <tag k="source:addr" v="msi"/>
  </way>
  <way id="30866686" version="2" timestamp="2009-04-27T21:51:52Z" uid="20587" user="balrog-kun" changeset="997856">
    <nd ref="343288767"/>
    <nd ref="343288769"/>
    <nd ref="343288771"/>
    <nd ref="343288773"/>
    <nd ref="343288774"/>
    <nd ref="343288772"/>
    <nd ref="343288770"/>
    <nd ref="343288768"/>
    <nd ref="343288767"/>
    <tag k="addr:housenumber" v="3"/>
    <tag k="addr:street" v="Aleja Wyzwolenia"/>
    <tag k="building" v="residential"/>
    <tag k="source:addr" v="msi"/>
  </way>
  <way id="30866686" version="3" timestamp="2012-03-06T14:29:53Z" uid="338611" user="marek kleciak" changeset="10890333">
    <nd ref="343288767"/>
    <nd ref="343288769"/>
    <nd ref="1662433239"/>
    <nd ref="343288771"/>
    <nd ref="343288773"/>
    <nd ref="343288774"/>
    <nd ref="343288772"/>
    <nd ref="1662433231"/>
    <nd ref="343288770"/>
    <nd ref="343288768"/>
    <nd ref="343288767"/>
    <tag k="addr:housenumber" v="3"/>
    <tag k="addr:street" v="Aleja Wyzwolenia"/>
    <tag k="building" v="residential"/>
    <tag k="source:addr" v="msi"/>
  </way>
  <way id="30866687" version="1" timestamp="2009-02-08T01:18:52Z" uid="20587" user="balrog-kun" changeset="256625">
    <nd ref="343288779"/>
    <nd ref="343288781"/>
    <nd ref="343288780"/>
    <nd ref="343288776"/>
    <nd ref="343288782"/>
    <nd ref="343288775"/>
    <nd ref="343288777"/>
    <nd ref="343288778"/>
    <nd ref="343288779"/>
    <tag k="addr:housenumber" v="2"/>
    <tag k="addr:street" v="Aleja Wyzwolenia"/>
    <tag k="building" v="yes"/>
    <tag k="source:addr" v="msi"/>
  </way>
  <way id="30866687" version="2" timestamp="2009-04-27T21:51:52Z" uid="20587" user="balrog-kun" changeset="997856">
    <nd ref="343288779"/>
    <nd ref="343288781"/>
    <nd ref="343288780"/>
    <nd ref="343288776"/>
    <nd ref="343288782"/>
    <nd ref="343288775"/>
    <nd ref="343288777"/>
    <nd ref="343288778"/>
    <nd ref="343288779"/>
    <tag k="addr:housenumber" v="2"/>
    <tag k="addr:street" v="Aleja Wyzwolenia"/>
    <tag k="building" v="residential"/>
    <tag k="source:addr" v="msi"/>
  </way>
  <way id="30866687" version="3" timestamp="2012-03-06T14:29:53Z" uid="338611" user="marek kleciak" changeset="10890333">
    <nd ref="343288779"/>
    <tag k="addr:housenumber" v="2"/>
    <tag k="addr:street" v="Aleja Wyzwolenia"/>
    <tag k="building" v="residential"/>
    <tag k="source:addr" v="msi"/>
  </way>
  <way id="30866687" version="4" timestamp="2012-03-06T20:56:24Z" uid="70696" user="xybot" changeset="10893278"/>
  <way id="30866596" version="3" timestamp="2012-07-13T19:29:15Z" uid="722137" user="OSMF Redaction Account" changeset="12210299"/>
  <way id="30866666" version="3" timestamp="2012-09-10T15:36:50Z" uid="99386" user="masti" changeset="13058480">
    <nd ref="343288694"/>
    <nd ref="1908514922"/>
    <nd ref="1908514921"/>
    <nd ref="343288695"/>
    <nd ref="343288709"/>
    <nd ref="343288693"/>
    <nd ref="1908514923"/>
    <nd ref="1908514924"/>
    <nd ref="343288686"/>
    <nd ref="343288694"/>
    <tag k="addr:housenumber" v="9"/>
    <tag k="addr:street" v="Aleja Wyzwolenia"/>
    <tag k="building" v="residential"/>
    <tag k="source:addr" v="msi"/>
  </way>
</osm>
