<?xml version='1.0' encoding='UTF-8'?>
<osm version="0.6" generator="libosmium/2.20.0">
  <way id="30951019" version="4" timestamp="2010-07-23T08:13:05Z" uid="4467" user="Rosscoe" changeset="5293400">
    <nd ref="265136592"/>
    <nd ref="450518698"/>
    <tag k="highway" v="footway"/>
  </way>
  <way id="30951022" version="3" timestamp="2010-07-23T06:26:56Z" uid="4467" user="Rosscoe" changeset="5292797">
    <nd ref="344125640"/>
    <nd ref="829814793"/>
    <nd ref="261594483"/>
    <tag k="highway" v="footway"/>
  </way>
  <way id="30951032" version="2" timestamp="2010-07-06T09:18:16Z" uid="74617" user="JohnSmith" changeset="5147679">
    <nd ref="344126346"/>
    <nd ref="344126349"/>
    <tag k="highway" v="residential"/>
    <tag k="maxspeed" v="50"/>
    <tag k="maxspeed:source" v="default residential speed limit in Australia"/>
    <tag k="name" v="Cerise Street"/>
  </way>
  <way id="30951032" version="3" timestamp="2012-01-18T05:38:26Z" uid="147510" user="woodpeck_fixbot" changeset="10424371">
    <nd ref="344126346"/>
    <nd ref="344126349"/>
    <tag k="highway" v="residential"/>
    <tag k="name" v="Cerise Street"/>
  </way>
  <way id="30951033" version="3" timestamp="2009-07-15T08:31:51Z" uid="7617" user="Franc" changeset="1834216">
    <nd ref="344161668"/>
    <nd ref="344126349"/>
    <nd ref="265090413"/>
    <nd ref="344126353"/>
    <nd ref="344126361"/>
    <nd ref="344126364"/>
    <tag k="created_by" v="Potlatch 0.9a"/>
    <tag k="highway" v="residential"/>
    <tag k="name" v="Glenside Street"/>
  </way>
  <way id="30951033" version="4" timestamp="2010-07-06T09:13:26Z" uid="74617" user="JohnSmith" changeset="5147679">
    <nd ref="344161668"/>
    <nd ref="344126349"/>
    <nd ref="265090413"/>
    <nd ref="344126353"/>
    <nd ref="344126361"/>
    <nd ref="344126364"/>
    <tag k="highway" v="residential"/>
    <tag k="maxspeed" v="50"/>
    <tag k="maxspeed:source" v="default residential speed limit in Australia"/>
    <tag k="name" v="Glenside Street"/>
  </way>
  <way id="30951033" version="5" timestamp="2012-01-18T05:38:27Z" uid="147510" user="woodpeck_fixbot" changeset="10424371">
    <nd ref="344161668"/>
    <nd ref="344126349"/>
    <nd ref="265090413"/>
    <nd ref="344126353"/>
    <nd ref="344126361"/>
    <nd ref="344126364"/>
    <tag k="highway" v="residential"/>
    <tag k="name" v="Glenside Street"/>
  </way>
  <way id="30951034" version="3" timestamp="2010-07-06T09:19:46Z" uid="74617" user="JohnSmith" changeset="5147679">
    <nd ref="344126366"/>
    <nd ref="344126371"/>
    <tag k="highway" v="residential"/>
    <tag k="maxspeed" v="50"/>
    <tag k="maxspeed:source" v="default residential speed limit in Australia"/>
    <tag k="name" v="Violet Place"/>
  </way>
  <way id="30951034" version="4" timestamp="2012-01-18T05:38:28Z" uid="147510" user="woodpeck_fixbot" changeset="10424371">
    <nd ref="344126366"/>
    <nd ref="344126371"/>
    <tag k="highway" v="residential"/>
    <tag k="name" v="Violet Place"/>
  </way>
  <way id="30951035" version="3" timestamp="2010-07-06T09:15:22Z" uid="74617" user="JohnSmith" changeset="5147679">
    <nd ref="344126373"/>
    <nd ref="344126375"/>
    <tag k="highway" v="residential"/>
    <tag k="maxspeed" v="50"/>
    <tag k="maxspeed:source" v="default residential speed limit in Australia"/>
    <tag k="name" v="Lavendar Close"/>
  </way>
  <way id="30951035" version="4" timestamp="2012-01-18T05:38:29Z" uid="147510" user="woodpeck_fixbot" changeset="10424371">
    <nd ref="344126373"/>
    <nd ref="344126375"/>
    <tag k="highway" v="residential"/>
    <tag k="name" v="Lavendar Close"/>
  </way>
  <way id="30951036" version="3" timestamp="2010-07-06T09:14:57Z" uid="74617" user="JohnSmith" changeset="5147679">
    <nd ref="344126387"/>
    <nd ref="344126389"/>
    <nd ref="344126373"/>
    <nd ref="344126391"/>
    <nd ref="344126404"/>
    <nd ref="344126407"/>
    <nd ref="344126405"/>
    <nd ref="344126393"/>
    <nd ref="344126398"/>
    <nd ref="344126399"/>
    <nd ref="344126401"/>
    <tag k="highway" v="residential"/>
    <tag k="maxspeed" v="50"/>
    <tag k="maxspeed:source" v="default residential speed limit in Australia"/>
    <tag k="name" v="Turquoise Place"/>
  </way>
  <way id="30951036" version="4" timestamp="2012-01-18T05:38:31Z" uid="147510" user="woodpeck_fixbot" changeset="10424371">
    <nd ref="344126387"/>
    <nd ref="344126389"/>
    <nd ref="344126373"/>
    <nd ref="344126391"/>
    <nd ref="344126404"/>
    <nd ref="344126407"/>
    <nd ref="344126405"/>
    <nd ref="344126393"/>
    <nd ref="344126398"/>
    <nd ref="344126399"/>
    <nd ref="344126401"/>
    <tag k="highway" v="residential"/>
    <tag k="name" v="Turquoise Place"/>
  </way>
  <way id="30951038" version="3" timestamp="2010-06-23T02:09:35Z" uid="4467" user="Rosscoe" changeset="5055981">
    <nd ref="344166548"/>
    <nd ref="344126408"/>
    <tag k="foot" v="yes"/>
    <tag k="highway" v="path"/>
  </way>
  <way id="30951042" version="3" timestamp="2010-06-23T02:09:32Z" uid="4467" user="Rosscoe" changeset="5055981">
    <nd ref="344126364"/>
    <nd ref="344126453"/>
    <nd ref="344126366"/>
    <nd ref="344126458"/>
    <nd ref="344126387"/>
    <nd ref="344126463"/>
    <nd ref="344126471"/>
    <nd ref="344126494"/>
    <nd ref="344126364"/>
    <tag k="highway" v="residential"/>
    <tag k="junction" v="roundabout"/>
  </way>
  <way id="30951042" version="4" timestamp="2010-07-06T09:13:19Z" uid="74617" user="JohnSmith" changeset="5147679">
    <nd ref="344126364"/>
    <nd ref="344126453"/>
    <nd ref="344126366"/>
    <nd ref="344126458"/>
    <nd ref="344126387"/>
    <nd ref="344126463"/>
    <nd ref="344126471"/>
    <nd ref="344126494"/>
    <nd ref="344126364"/>
    <tag k="highway" v="residential"/>
    <tag k="junction" v="roundabout"/>
    <tag k="maxspeed" v="50"/>
    <tag k="maxspeed:source" v="default residential speed limit in Australia"/>
  </way>
  <way id="30951042" version="5" timestamp="2012-01-18T05:38:32Z" uid="147510" user="woodpeck_fixbot" changeset="10424371">
    <nd ref="344126364"/>
    <nd ref="344126453"/>
    <nd ref="344126366"/>
    <nd ref="344126458"/>
    <nd ref="344126387"/>
    <nd ref="344126463"/>
    <nd ref="344126471"/>
    <nd ref="344126494"/>
    <nd ref="344126364"/>
    <tag k="highway" v="residential"/>
    <tag k="junction" v="roundabout"/>
  </way>
  <way id="30951293" version="3" timestamp="2010-06-02T08:01:41Z" uid="4467" user="Rosscoe" changeset="4881676">
    <nd ref="344031642"/>
    <nd ref="344031643"/>
    <nd ref="344031383"/>
    <tag k="created_by" v="Potlatch 0.10f"/>
    <tag k="highway" v="residential"/>
    <tag k="name" v="Wiese Street"/>
    <tag k="source" v="GPS"/>
  </way>
  <way id="30951439" version="4" timestamp="2010-07-01T12:37:27Z" uid="13367" user="nubok" changeset="5120297">
    <nd ref="441327796"/>
    <nd ref="798350686"/>
    <nd ref="798350701"/>
    <nd ref="441327794"/>
    <tag k="highway" v="residential"/>
    <tag k="name" v="Neuer Weg"/>
  </way>
  <way id="30951667" version="7" timestamp="2010-03-28T01:00:16Z" uid="20587" user="balrog-kun" changeset="4250871">
    <nd ref="344132756"/>
    <nd ref="344138330"/>
    <nd ref="344138331"/>
    <nd ref="344138332"/>
    <nd ref="344138333"/>
    <nd ref="344138334"/>
    <nd ref="344138335"/>
    <nd ref="344138336"/>
    <nd ref="344138337"/>
    <nd ref="344138338"/>
    <nd ref="344138339"/>
    <nd ref="344138340"/>
    <nd ref="344138341"/>
    <nd ref="344138342"/>
    <nd ref="356270724"/>
    <nd ref="344138343"/>
    <nd ref="123272554"/>
    <tag k="highway" v="track"/>
    <tag k="name" v="Hall-Beckly Canyon Road"/>
    <tag k="tracktype" v="grade2"/>
  </way>
  <way id="30951676" version="2" timestamp="2009-05-08T23:31:51Z" uid="6269" user="Mueck" changeset="1122795">
    <nd ref="344138402"/>
    <nd ref="31092800"/>
    <nd ref="441055"/>
    <tag k="bicycle" v="no"/>
    <tag k="created_by" v="Merkaartor 0.13"/>
    <tag k="highway" v="trunk"/>
    <tag k="maxspeed" v="80"/>
    <tag k="motorroad" v="yes"/>
    <tag k="name" v="Südtangente"/>
    <tag k="oneway" v="yes"/>
    <tag k="ref" v="K9652"/>
  </way>
  <way id="30951676" version="3" timestamp="2009-06-07T22:22:09Z" uid="24920" user="Schusch" changeset="1454289">
    <nd ref="344138402"/>
    <nd ref="31092800"/>
    <nd ref="441055"/>
    <tag k="bicycle" v="no"/>
    <tag k="created_by" v="Merkaartor 0.13"/>
    <tag k="highway" v="trunk"/>
    <tag k="maxspeed" v="80"/>
    <tag k="motorroad" v="yes"/>
    <tag k="name" v="Südtangente"/>
    <tag k="oneway" v="yes"/>
    <tag k="ref" v="K 9652"/>
  </way>
  <way id="30951676" version="4" timestamp="2009-08-09T18:42:11Z" uid="109925" user="WanMil" changeset="2089460">
    <nd ref="344138402"/>
    <nd ref="31092800"/>
    <nd ref="441055"/>
    <tag k="bicycle" v="no"/>
    <tag k="highway" v="trunk"/>
    <tag k="maxspeed" v="80"/>
    <tag k="motorroad" v="yes"/>
    <tag k="name" v="Südtangente"/>
    <tag k="oneway" v="yes"/>
    <tag k="ref" v="K 9652"/>
  </way>
  <way id="30951676" version="5" timestamp="2010-06-08T13:58:55Z" uid="152744" user="skyper" changeset="4937349">
    <nd ref="344138402"/>
    <nd ref="31092800"/>
    <tag k="highway" v="trunk"/>
    <tag k="maxspeed" v="80"/>
    <tag k="motorroad" v="yes"/>
    <tag k="name" v="Südtangente"/>
    <tag k="oneway" v="yes"/>
    <tag k="ref" v="K 9652"/>
  </way>
  <way id="30951676" version="6" timestamp="2011-10-04T14:37:16Z" uid="4499" user="Jochen Topf" changeset="9469948">
    <nd ref="344138402"/>
    <nd ref="31092800"/>
    <tag k="highway" v="trunk"/>
    <tag k="maxspeed" v="80"/>
    <tag k="motorroad" v="yes"/>
    <tag k="name" v="Südtangente"/>
    <tag k="oneway" v="yes"/>
    <tag k="ref" v="K 9652"/>
    <tag k="tmc" v="DE:54873-30884"/>
  </way>
  <way id="30951676" version="7" timestamp="2011-10-12T10:45:12Z" uid="165061" user="keinname" changeset="9537439">
    <nd ref="344138402"/>
    <nd ref="31092800"/>
    <tag k="bicycle" v="no"/>
    <tag k="highway" v="trunk"/>
    <tag k="lanes" v="3"/>
    <tag k="lanes:turnright" v="1"/>
    <tag k="maxspeed" v="80"/>
    <tag k="motorroad" v="yes"/>
    <tag k="name" v="Südtangente"/>
    <tag k="oneway" v="yes"/>
    <tag k="ref" v="K 9652"/>
    <tag k="tmc" v="DE:54873-30884"/>
  </way>
  <way id="30951676" version="8" timestamp="2011-10-13T15:03:47Z" uid="4499" user="Jochen Topf" changeset="9547928">
    <nd ref="344138402"/>
    <nd ref="31092800"/>
    <tag k="bicycle" v="no"/>
    <tag k="highway" v="trunk"/>
    <tag k="lanes" v="3"/>
    <tag k="lanes:turnright" v="1"/>
    <tag k="maxspeed" v="80"/>
    <tag k="motorroad" v="yes"/>
    <tag k="name" v="Südtangente"/>
    <tag k="oneway" v="yes"/>
    <tag k="ref" v="K 9652"/>
    <tag k="tmc" v="DE:30884+54873"/>
  </way>
  <way id="30951676" version="9" timestamp="2012-01-14T09:35:38Z" uid="136321" user="Teddy73" changeset="10385401"/>
  <way id="30951678" version="2" timestamp="2009-05-08T23:31:45Z" uid="6269" user="Mueck" changeset="1122795">
    <nd ref="344138401"/>
    <nd ref="31092798"/>
    <nd ref="16812773"/>
    <nd ref="344138402"/>
    <tag k="bicycle" v="no"/>
    <tag k="created_by" v="Merkaartor 0.13"/>
    <tag k="highway" v="trunk"/>
    <tag k="lanes" v="3"/>
    <tag k="maxspeed" v="80"/>
    <tag k="motorroad" v="yes"/>
    <tag k="name" v="Südtangente"/>
    <tag k="oneway" v="yes"/>
    <tag k="ref" v="K9652"/>
  </way>
  <way id="30951678" version="3" timestamp="2009-06-07T22:22:09Z" uid="24920" user="Schusch" changeset="1454289">
    <nd ref="344138401"/>
    <nd ref="31092798"/>
    <nd ref="16812773"/>
    <nd ref="344138402"/>
    <tag k="bicycle" v="no"/>
    <tag k="created_by" v="Merkaartor 0.13"/>
    <tag k="highway" v="trunk"/>
    <tag k="lanes" v="3"/>
    <tag k="maxspeed" v="80"/>
    <tag k="motorroad" v="yes"/>
    <tag k="name" v="Südtangente"/>
    <tag k="oneway" v="yes"/>
    <tag k="ref" v="K 9652"/>
  </way>
  <way id="30951678" version="4" timestamp="2009-08-09T18:42:14Z" uid="109925" user="WanMil" changeset="2089460">
    <nd ref="344138401"/>
    <nd ref="31092798"/>
    <nd ref="16812773"/>
    <nd ref="344138402"/>
    <tag k="bicycle" v="no"/>
    <tag k="highway" v="trunk"/>
    <tag k="lanes" v="3"/>
    <tag k="maxspeed" v="80"/>
    <tag k="motorroad" v="yes"/>
    <tag k="name" v="Südtangente"/>
    <tag k="oneway" v="yes"/>
    <tag k="ref" v="K 9652"/>
  </way>
  <way id="30951678" version="5" timestamp="2011-01-28T16:15:24Z" uid="163673" user="Free_Jan" changeset="7114335">
    <nd ref="344138401"/>
    <nd ref="31092798"/>
    <nd ref="1124989987"/>
    <nd ref="1124990034"/>
    <nd ref="16812773"/>
    <nd ref="1124989838"/>
    <nd ref="344138402"/>
    <tag k="bicycle" v="no"/>
    <tag k="highway" v="trunk"/>
    <tag k="lanes" v="3"/>
    <tag k="maxspeed" v="80"/>
    <tag k="motorroad" v="yes"/>
    <tag k="name" v="Südtangente"/>
    <tag k="oneway" v="yes"/>
    <tag k="ref" v="K 9652"/>
  </way>
  <way id="30951678" version="6" timestamp="2011-10-04T14:37:21Z" uid="4499" user="Jochen Topf" changeset="9469948">
    <nd ref="344138401"/>
    <nd ref="31092798"/>
    <nd ref="1124989987"/>
    <nd ref="1124990034"/>
    <nd ref="16812773"/>
    <nd ref="1124989838"/>
    <nd ref="344138402"/>
    <tag k="bicycle" v="no"/>
    <tag k="highway" v="trunk"/>
    <tag k="lanes" v="3"/>
    <tag k="maxspeed" v="80"/>
    <tag k="motorroad" v="yes"/>
    <tag k="name" v="Südtangente"/>
    <tag k="oneway" v="yes"/>
    <tag k="ref" v="K 9652"/>
    <tag k="tmc" v="DE:54873-30884"/>
  </way>
  <way id="30951678" version="7" timestamp="2011-10-12T10:45:14Z" uid="165061" user="keinname" changeset="9537439">
    <nd ref="344138401"/>
    <nd ref="31092798"/>
    <nd ref="1124989987"/>
    <nd ref="1124990034"/>
    <nd ref="16812773"/>
    <nd ref="1124989838"/>
    <nd ref="344138402"/>
    <tag k="bicycle" v="no"/>
    <tag k="highway" v="trunk"/>
    <tag k="lanes" v="3"/>
    <tag k="lanes:turnright" v="1"/>
    <tag k="maxspeed" v="80"/>
    <tag k="motorroad" v="yes"/>
    <tag k="name" v="Südtangente"/>
    <tag k="oneway" v="yes"/>
    <tag k="ref" v="K 9652"/>
    <tag k="tmc" v="DE:54873-30884"/>
  </way>
  <way id="30951678" version="8" timestamp="2011-10-14T09:01:29Z" uid="4499" user="Jochen Topf" changeset="9553698">
    <nd ref="344138401"/>
    <nd ref="31092798"/>
    <nd ref="1124989987"/>
    <nd ref="1124990034"/>
    <nd ref="16812773"/>
    <nd ref="1124989838"/>
    <nd ref="344138402"/>
    <tag k="bicycle" v="no"/>
    <tag k="highway" v="trunk"/>
    <tag k="lanes" v="3"/>
    <tag k="lanes:turnright" v="1"/>
    <tag k="maxspeed" v="80"/>
    <tag k="motorroad" v="yes"/>
    <tag k="name" v="Südtangente"/>
    <tag k="oneway" v="yes"/>
    <tag k="ref" v="K 9652"/>
    <tag k="tmc" v="DE:30884+54873"/>
  </way>
  <way id="30951678" version="9" timestamp="2012-01-14T09:35:38Z" uid="136321" user="Teddy73" changeset="10385401"/>
  <way id="30951680" version="2" timestamp="2009-05-08T23:19:02Z" uid="6269" user="Mueck" changeset="1122795">
    <nd ref="344138439"/>
    <nd ref="321775854"/>
    <nd ref="524442"/>
    <nd ref="296883774"/>
    <nd ref="524443"/>
    <tag k="created_by" v="Merkaartor 0.13"/>
    <tag k="highway" v="trunk"/>
    <tag k="lanes" v="3"/>
    <tag k="maxspeed" v="80"/>
    <tag k="motorroad" v="yes"/>
    <tag k="name" v="Südtangente"/>
    <tag k="oneway" v="yes"/>
  </way>
  <way id="30951680" version="3" timestamp="2009-05-08T23:35:27Z" uid="6269" user="Mueck" changeset="1122795">
    <nd ref="344138439"/>
    <nd ref="321775854"/>
    <nd ref="524442"/>
    <nd ref="296883774"/>
    <nd ref="524443"/>
    <tag k="created_by" v="Merkaartor 0.13"/>
    <tag k="highway" v="trunk"/>
    <tag k="lanes" v="3"/>
    <tag k="maxspeed" v="80"/>
    <tag k="motorroad" v="yes"/>
    <tag k="name" v="Südtangente"/>
    <tag k="oneway" v="yes"/>
    <tag k="ref" v="K9657"/>
  </way>
  <way id="30951680" version="4" timestamp="2009-06-07T22:22:08Z" uid="24920" user="Schusch" changeset="1454289">
    <nd ref="344138439"/>
    <nd ref="321775854"/>
    <nd ref="524442"/>
    <nd ref="296883774"/>
    <nd ref="524443"/>
    <tag k="created_by" v="Merkaartor 0.13"/>
    <tag k="highway" v="trunk"/>
    <tag k="lanes" v="3"/>
    <tag k="maxspeed" v="80"/>
    <tag k="motorroad" v="yes"/>
    <tag k="name" v="Südtangente"/>
    <tag k="oneway" v="yes"/>
    <tag k="ref" v="K 9657"/>
  </way>
  <way id="30951680" version="5" timestamp="2009-06-21T18:27:00Z" uid="85761" user="klausis" changeset="1586628">
    <nd ref="344138439"/>
    <nd ref="321775854"/>
    <nd ref="524442"/>
    <nd ref="296883774"/>
    <nd ref="524443"/>
    <tag k="highway" v="trunk"/>
    <tag k="lanes" v="3"/>
    <tag k="maxspeed" v="80"/>
    <tag k="motorroad" v="yes"/>
    <tag k="name" v="Südtangente"/>
    <tag k="oneway" v="yes"/>
    <tag k="ref" v="K 9657"/>
  </way>
  <way id="30951680" version="6" timestamp="2010-12-22T15:52:46Z" uid="29717" user="eumiro" changeset="6736662">
    <nd ref="344138439"/>
    <nd ref="296883774"/>
    <nd ref="524443"/>
    <tag k="highway" v="trunk"/>
    <tag k="lanes" v="3"/>
    <tag k="maxspeed" v="80"/>
    <tag k="motorroad" v="yes"/>
    <tag k="name" v="Südtangente"/>
    <tag k="oneway" v="yes"/>
    <tag k="ref" v="K 9657"/>
  </way>
  <way id="30951680" version="7" timestamp="2011-01-28T16:15:41Z" uid="163673" user="Free_Jan" changeset="7114335">
    <nd ref="344138439"/>
    <nd ref="524443"/>
    <tag k="highway" v="trunk"/>
    <tag k="lanes" v="3"/>
    <tag k="maxspeed" v="80"/>
    <tag k="motorroad" v="yes"/>
    <tag k="name" v="Südtangente"/>
    <tag k="oneway" v="yes"/>
    <tag k="ref" v="K 9657"/>
  </way>
  <way id="30951680" version="8" timestamp="2011-10-04T14:37:17Z" uid="4499" user="Jochen Topf" changeset="9469948">
    <nd ref="344138439"/>
    <nd ref="524443"/>
    <tag k="highway" v="trunk"/>
    <tag k="lanes" v="3"/>
    <tag k="maxspeed" v="80"/>
    <tag k="motorroad" v="yes"/>
    <tag k="name" v="Südtangente"/>
    <tag k="oneway" v="yes"/>
    <tag k="ref" v="K 9657"/>
    <tag k="tmc" v="DE:30883-30882"/>
  </way>
  <way id="30951680" version="9" timestamp="2011-10-12T11:53:09Z" uid="165061" user="keinname" changeset="9537439"/>
  <way id="30951681" version="3" timestamp="2009-05-08T23:19:16Z" uid="6269" user="Mueck" changeset="1122795">
    <nd ref="524443"/>
    <nd ref="524444"/>
    <nd ref="524445"/>
    <nd ref="524446"/>
    <nd ref="524447"/>
    <nd ref="321775850"/>
    <nd ref="524448"/>
    <nd ref="524449"/>
    <nd ref="321775849"/>
    <nd ref="524450"/>
    <nd ref="524452"/>
    <nd ref="321775847"/>
    <nd ref="15843438"/>
    <nd ref="341915164"/>
    <tag k="created_by" v="Merkaartor 0.13"/>
    <tag k="highway" v="trunk"/>
    <tag k="maxspeed" v="80"/>
    <tag k="motorroad" v="yes"/>
    <tag k="name" v="Südtangente"/>
    <tag k="oneway" v="yes"/>
    <tag k="ref" v="B 10"/>
  </way>
  <way id="30951681" version="4" timestamp="2009-05-08T23:35:36Z" uid="6269" user="Mueck" changeset="1122795">
    <nd ref="524443"/>
    <nd ref="524444"/>
    <nd ref="524445"/>
    <nd ref="524446"/>
    <nd ref="524447"/>
    <nd ref="321775850"/>
    <nd ref="524448"/>
    <nd ref="524449"/>
    <nd ref="321775849"/>
    <nd ref="524450"/>
    <nd ref="524452"/>
    <nd ref="321775847"/>
    <nd ref="15843438"/>
    <nd ref="341915164"/>
    <tag k="created_by" v="Merkaartor 0.13"/>
    <tag k="highway" v="trunk"/>
    <tag k="maxspeed" v="80"/>
    <tag k="motorroad" v="yes"/>
    <tag k="name" v="Südtangente"/>
    <tag k="oneway" v="yes"/>
    <tag k="ref" v="K9657"/>
  </way>
  <way id="30951681" version="5" timestamp="2009-05-23T12:22:21Z" uid="7009" user="giggls" changeset="1294575">
    <nd ref="524443"/>
    <nd ref="524444"/>
    <nd ref="524445"/>
    <nd ref="524446"/>
    <nd ref="524447"/>
    <nd ref="321775850"/>
    <nd ref="524448"/>
    <nd ref="524449"/>
    <nd ref="321775849"/>
    <nd ref="524450"/>
    <nd ref="524452"/>
    <nd ref="410163962"/>
    <nd ref="321775847"/>
    <nd ref="410163973"/>
    <nd ref="15843438"/>
    <nd ref="341915164"/>
    <tag k="created_by" v="Merkaartor 0.13"/>
    <tag k="highway" v="trunk"/>
    <tag k="maxspeed" v="80"/>
    <tag k="motorroad" v="yes"/>
    <tag k="name" v="Südtangente"/>
    <tag k="oneway" v="yes"/>
    <tag k="ref" v="K9657"/>
  </way>
  <way id="30951681" version="6" timestamp="2009-06-07T22:22:07Z" uid="24920" user="Schusch" changeset="1454289">
    <nd ref="524443"/>
    <nd ref="524444"/>
    <nd ref="524445"/>
    <nd ref="524446"/>
    <nd ref="524447"/>
    <nd ref="321775850"/>
    <nd ref="524448"/>
    <nd ref="524449"/>
    <nd ref="321775849"/>
    <nd ref="524450"/>
    <nd ref="524452"/>
    <nd ref="410163962"/>
    <nd ref="321775847"/>
    <nd ref="410163973"/>
    <nd ref="15843438"/>
    <nd ref="341915164"/>
    <tag k="created_by" v="Merkaartor 0.13"/>
    <tag k="highway" v="trunk"/>
    <tag k="maxspeed" v="80"/>
    <tag k="motorroad" v="yes"/>
    <tag k="name" v="Südtangente"/>
    <tag k="oneway" v="yes"/>
    <tag k="ref" v="K 9657"/>
  </way>
  <way id="30951681" version="7" timestamp="2009-06-21T18:27:00Z" uid="85761" user="klausis" changeset="1586628">
    <nd ref="524443"/>
    <nd ref="524444"/>
    <nd ref="524445"/>
    <nd ref="524446"/>
    <nd ref="524447"/>
    <nd ref="321775850"/>
    <nd ref="524448"/>
    <nd ref="524449"/>
    <nd ref="321775849"/>
    <nd ref="524450"/>
    <nd ref="524452"/>
    <nd ref="410163962"/>
    <nd ref="321775847"/>
    <nd ref="410163973"/>
    <nd ref="15843438"/>
    <nd ref="341915164"/>
    <tag k="highway" v="trunk"/>
    <tag k="maxspeed" v="80"/>
    <tag k="motorroad" v="yes"/>
    <tag k="name" v="Südtangente"/>
    <tag k="oneway" v="yes"/>
    <tag k="ref" v="K 9657"/>
  </way>
  <way id="30951681" version="8" timestamp="2010-06-08T13:57:15Z" uid="152744" user="skyper" changeset="4937349">
    <nd ref="524443"/>
    <nd ref="524444"/>
    <nd ref="524445"/>
    <nd ref="524446"/>
    <nd ref="524447"/>
    <nd ref="321775850"/>
    <nd ref="524448"/>
    <nd ref="524449"/>
    <nd ref="321775849"/>
    <nd ref="524450"/>
    <nd ref="524452"/>
    <tag k="highway" v="trunk"/>
    <tag k="maxspeed" v="80"/>
    <tag k="motorroad" v="yes"/>
    <tag k="name" v="Südtangente"/>
    <tag k="oneway" v="yes"/>
    <tag k="ref" v="K 9657"/>
  </way>
  <way id="30951681" version="9" timestamp="2010-12-15T10:10:53Z" uid="243707" user="Essimo" changeset="6666088">
    <nd ref="524443"/>
    <nd ref="524444"/>
    <nd ref="524445"/>
    <nd ref="524446"/>
    <nd ref="524447"/>
    <nd ref="1039045375"/>
    <nd ref="321775850"/>
    <nd ref="524448"/>
    <nd ref="1039045378"/>
    <nd ref="1039045407"/>
    <nd ref="524449"/>
    <nd ref="321775849"/>
    <nd ref="524450"/>
    <nd ref="524452"/>
    <tag k="highway" v="trunk"/>
    <tag k="maxspeed" v="80"/>
    <tag k="motorroad" v="yes"/>
    <tag k="name" v="Südtangente"/>
    <tag k="oneway" v="yes"/>
    <tag k="ref" v="K 9657"/>
  </way>
  <way id="30951681" version="10" timestamp="2011-01-28T16:15:24Z" uid="163673" user="Free_Jan" changeset="7114335">
    <nd ref="524443"/>
    <nd ref="524444"/>
    <nd ref="524445"/>
    <nd ref="524446"/>
    <nd ref="1124990038"/>
    <nd ref="524447"/>
    <nd ref="1039045375"/>
    <nd ref="1124989742"/>
    <nd ref="321775850"/>
    <nd ref="1124990073"/>
    <nd ref="524448"/>
    <nd ref="1039045378"/>
    <nd ref="1039045407"/>
    <nd ref="524449"/>
    <nd ref="1124989893"/>
    <nd ref="321775849"/>
    <nd ref="524450"/>
    <nd ref="1124989795"/>
    <nd ref="524452"/>
    <tag k="highway" v="trunk"/>
    <tag k="maxspeed" v="80"/>
    <tag k="motorroad" v="yes"/>
    <tag k="name" v="Südtangente"/>
    <tag k="oneway" v="yes"/>
    <tag k="ref" v="K 9657"/>
  </way>
  <way id="30951681" version="11" timestamp="2011-08-08T09:37:38Z" uid="165061" user="keinname" changeset="8954947">
    <nd ref="524443"/>
    <nd ref="524444"/>
    <nd ref="524445"/>
    <nd ref="524446"/>
    <nd ref="1390602098"/>
    <nd ref="1124990038"/>
    <nd ref="524447"/>
    <nd ref="1039045375"/>
    <nd ref="1124989742"/>
    <nd ref="321775850"/>
    <nd ref="1124990073"/>
    <nd ref="524448"/>
    <nd ref="1039045378"/>
    <nd ref="1039045407"/>
    <nd ref="524449"/>
    <nd ref="1124989893"/>
    <nd ref="321775849"/>
    <nd ref="524450"/>
    <nd ref="1124989795"/>
    <nd ref="524452"/>
    <tag k="highway" v="trunk"/>
    <tag k="maxspeed" v="80"/>
    <tag k="motorroad" v="yes"/>
    <tag k="name" v="Südtangente"/>
    <tag k="oneway" v="yes"/>
    <tag k="ref" v="K 9657"/>
  </way>
  <way id="30951681" version="12" timestamp="2011-10-04T14:37:18Z" uid="4499" user="Jochen Topf" changeset="9469948">
    <nd ref="524443"/>
    <nd ref="524444"/>
    <nd ref="524445"/>
    <nd ref="524446"/>
    <nd ref="1390602098"/>
    <nd ref="1124990038"/>
    <nd ref="524447"/>
    <nd ref="1039045375"/>
    <nd ref="1124989742"/>
    <nd ref="321775850"/>
    <nd ref="1124990073"/>
    <nd ref="524448"/>
    <nd ref="1039045378"/>
    <nd ref="1039045407"/>
    <nd ref="524449"/>
    <nd ref="1124989893"/>
    <nd ref="321775849"/>
    <nd ref="524450"/>
    <nd ref="1124989795"/>
    <nd ref="524452"/>
    <tag k="highway" v="trunk"/>
    <tag k="maxspeed" v="80"/>
    <tag k="motorroad" v="yes"/>
    <tag k="name" v="Südtangente"/>
    <tag k="oneway" v="yes"/>
    <tag k="ref" v="K 9657"/>
    <tag k="tmc" v="DE:30883-30882"/>
  </way>
  <way id="30951681" version="13" timestamp="2011-10-12T11:53:09Z" uid="165061" user="keinname" changeset="9537439"/>
  <way id="30951711" version="6" timestamp="2009-07-07T01:58:59Z" uid="20587" user="balrog-kun" changeset="1758480">
    <nd ref="337346461"/>
    <nd ref="432700711"/>
    <nd ref="432653959"/>
    <nd ref="432700712"/>
    <nd ref="332418296"/>
    <tag k="highway" v="tertiary"/>
    <tag k="lanes" v="3"/>
    <tag k="name" v="Avenida de José Mesa y López"/>
    <tag k="oneway" v="yes"/>
  </way>
  <way id="30951711" version="7" timestamp="2009-07-07T23:21:42Z" uid="20587" user="balrog-kun" changeset="1767379">
    <nd ref="337346461"/>
    <nd ref="436659447"/>
    <nd ref="436659449"/>
    <nd ref="432700711"/>
    <nd ref="432653959"/>
    <nd ref="432700712"/>
    <nd ref="332418296"/>
    <tag k="highway" v="tertiary"/>
    <tag k="lanes" v="3"/>
    <tag k="name" v="Avenida de José Mesa y López"/>
    <tag k="oneway" v="yes"/>
  </way>
  <way id="30951711" version="8" timestamp="2009-07-07T23:27:42Z" uid="20587" user="balrog-kun" changeset="1767398">
    <nd ref="337346461"/>
    <nd ref="436659447"/>
    <nd ref="436664139"/>
    <nd ref="436659449"/>
    <nd ref="432700711"/>
    <nd ref="432653959"/>
    <nd ref="432700712"/>
    <nd ref="332418296"/>
    <tag k="highway" v="tertiary"/>
    <tag k="lanes" v="3"/>
    <tag k="name" v="Avenida de José Mesa y López"/>
    <tag k="oneway" v="yes"/>
  </way>
  <way id="30951746" version="7" timestamp="2011-01-24T18:49:57Z" uid="6269" user="Mueck" changeset="7076352">
    <nd ref="344139585"/>
    <nd ref="1119072786"/>
    <nd ref="526090"/>
    <nd ref="1119073045"/>
    <nd ref="1119072954"/>
    <nd ref="21480339"/>
    <nd ref="526089"/>
    <nd ref="1119072476"/>
    <nd ref="1119072340"/>
    <nd ref="1119072915"/>
    <nd ref="1119072402"/>
    <nd ref="14911371"/>
    <tag k="highway" v="primary"/>
    <tag k="name" v="Ettlinger Straße"/>
    <tag k="note" v="im SHP des NVK: I"/>
    <tag k="oneway" v="yes"/>
  </way>
  <way id="30951746" version="8" timestamp="2011-02-16T22:50:02Z" uid="165061" user="keinname" changeset="7308551">
    <nd ref="344139585"/>
    <nd ref="1119072786"/>
    <nd ref="526090"/>
    <nd ref="1119073045"/>
    <nd ref="1156915836"/>
    <nd ref="1119072954"/>
    <nd ref="21480339"/>
    <nd ref="526089"/>
    <nd ref="1119072476"/>
    <nd ref="1119072340"/>
    <nd ref="1119072915"/>
    <nd ref="1119072402"/>
    <nd ref="14911371"/>
    <tag k="highway" v="primary"/>
    <tag k="name" v="Ettlinger Straße"/>
    <tag k="note" v="im SHP des NVK: I"/>
    <tag k="oneway" v="yes"/>
  </way>
  <way id="30951746" version="9" timestamp="2011-06-17T16:55:49Z" uid="165061" user="keinname" changeset="8466542">
    <nd ref="344139585"/>
    <nd ref="1119072786"/>
    <nd ref="526090"/>
    <nd ref="1119073045"/>
    <nd ref="1156915836"/>
    <nd ref="1119072954"/>
    <nd ref="21480339"/>
    <nd ref="526089"/>
    <nd ref="1119072476"/>
    <nd ref="1119072340"/>
    <nd ref="1119072915"/>
    <nd ref="1119072402"/>
    <nd ref="14911371"/>
    <tag k="highway" v="primary"/>
    <tag k="maxspeed" v="50"/>
    <tag k="name" v="Ettlinger Straße"/>
    <tag k="note" v="im SHP des NVK: I"/>
    <tag k="oneway" v="yes"/>
    <tag k="source:maxspeed" v="DE:urban"/>
  </way>
  <way id="30951746" version="10" timestamp="2011-10-24T21:34:49Z" uid="165061" user="keinname" changeset="9647879">
    <nd ref="344139585"/>
    <nd ref="1119072786"/>
    <nd ref="526090"/>
    <nd ref="1479504251"/>
    <nd ref="1119073045"/>
    <nd ref="1156915836"/>
    <nd ref="1119072954"/>
    <nd ref="21480339"/>
    <nd ref="526089"/>
    <nd ref="1119072476"/>
    <nd ref="1119072340"/>
    <nd ref="1119072915"/>
    <nd ref="1119072402"/>
    <nd ref="14911371"/>
    <tag k="highway" v="primary"/>
    <tag k="maxspeed" v="50"/>
    <tag k="name" v="Ettlinger Straße"/>
    <tag k="note" v="im SHP des NVK: I"/>
    <tag k="oneway" v="yes"/>
    <tag k="source:maxspeed" v="DE:urban"/>
    <tag k="zone:traffic" v="DE:urban"/>
  </way>
  <way id="30951746" version="11" timestamp="2012-02-07T15:17:17Z" uid="165061" user="keinname" changeset="10613056">
    <nd ref="344139585"/>
    <nd ref="1119072786"/>
    <nd ref="526090"/>
    <nd ref="1479504251"/>
    <nd ref="1119073045"/>
    <nd ref="1156915836"/>
    <nd ref="1119072954"/>
    <nd ref="21480339"/>
    <nd ref="526089"/>
    <nd ref="1119072476"/>
    <nd ref="1119072340"/>
    <nd ref="1119072915"/>
    <nd ref="1119072402"/>
    <nd ref="14911371"/>
    <tag k="highway" v="primary"/>
    <tag k="lanes" v="2"/>
    <tag k="maxspeed" v="50"/>
    <tag k="name" v="Ettlinger Straße"/>
    <tag k="note" v="im SHP des NVK: I"/>
    <tag k="oneway" v="yes"/>
    <tag k="source:maxspeed" v="DE:urban"/>
    <tag k="zone:traffic" v="DE:urban"/>
  </way>
  <way id="30951746" version="12" timestamp="2012-02-14T18:40:33Z" uid="60137" user="michael2402" changeset="10685803">
    <nd ref="344139585"/>
    <nd ref="1119072786"/>
    <nd ref="526090"/>
    <nd ref="1479504251"/>
    <nd ref="1119073045"/>
    <nd ref="1156915836"/>
    <nd ref="1119072954"/>
    <nd ref="21480339"/>
    <nd ref="526089"/>
    <nd ref="1119072476"/>
    <nd ref="1119072340"/>
    <nd ref="1119072915"/>
    <nd ref="1119072402"/>
    <nd ref="14911371"/>
    <tag k="highway" v="primary"/>
    <tag k="lanes" v="2"/>
    <tag k="maxspeed" v="50"/>
    <tag k="name" v="Ettlinger Straße"/>
    <tag k="obdl" v="clean"/>
    <tag k="oneway" v="yes"/>
    <tag k="source:maxspeed" v="DE:urban"/>
    <tag k="zone:traffic" v="DE:urban"/>
  </way>
  <way id="30951746" version="13" timestamp="2012-03-27T08:10:14Z" uid="178186" user="mdk" changeset="11113731">
    <nd ref="344139585"/>
    <nd ref="1119072786"/>
    <nd ref="526090"/>
    <nd ref="1479504251"/>
    <nd ref="1119073045"/>
    <nd ref="1156915836"/>
    <nd ref="1119072954"/>
    <nd ref="21480339"/>
    <nd ref="526089"/>
    <nd ref="1119072476"/>
    <nd ref="1119072340"/>
    <nd ref="1119072915"/>
    <nd ref="1119072402"/>
    <nd ref="14911371"/>
    <tag k="highway" v="primary"/>
    <tag k="lanes" v="2"/>
    <tag k="maxspeed" v="50"/>
    <tag k="name" v="Ettlinger Straße"/>
    <tag k="odbl" v="clean"/>
    <tag k="oneway" v="yes"/>
    <tag k="source:maxspeed" v="DE:urban"/>
    <tag k="zone:traffic" v="DE:urban"/>
  </way>
  <way id="30951755" version="2" timestamp="2009-07-07T01:58:55Z" uid="20587" user="balrog-kun" changeset="1758480">
    <nd ref="332418298"/>
    <nd ref="435950779"/>
    <nd ref="435950777"/>
    <nd ref="435950799"/>
    <nd ref="344139682"/>
    <tag k="created_by" v="Potlatch 0.10f"/>
    <tag k="highway" v="tertiary"/>
    <tag k="lanes" v="2"/>
    <tag k="name" v="Avenida de José Mesa y López"/>
    <tag k="oneway" v="yes"/>
  </way>
  <way id="30951755" version="3" timestamp="2009-07-07T02:05:20Z" uid="20587" user="balrog-kun" changeset="1758496">
    <nd ref="332418298"/>
    <nd ref="435950779"/>
    <nd ref="435950777"/>
    <nd ref="435950799"/>
    <nd ref="435956954"/>
    <nd ref="344139682"/>
    <nd ref="435956949"/>
    <tag k="created_by" v="Potlatch 0.10f"/>
    <tag k="highway" v="tertiary"/>
    <tag k="lanes" v="2"/>
    <tag k="name" v="Avenida de José Mesa y López"/>
    <tag k="oneway" v="yes"/>
  </way>
  <way id="30951755" version="4" timestamp="2009-07-07T03:09:14Z" uid="20587" user="balrog-kun" changeset="1758708">
    <nd ref="332418298"/>
    <nd ref="436010560"/>
    <nd ref="435950779"/>
    <nd ref="435950777"/>
    <nd ref="435950799"/>
    <nd ref="435956954"/>
    <nd ref="344139682"/>
    <nd ref="435956949"/>
    <tag k="created_by" v="Potlatch 0.10f"/>
    <tag k="highway" v="tertiary"/>
    <tag k="lanes" v="2"/>
    <tag k="name" v="Avenida de José Mesa y López"/>
    <tag k="oneway" v="yes"/>
  </way>
  <way id="30951781" version="6" timestamp="2011-03-15T01:27:59Z" uid="6269" user="Mueck" changeset="7562772"/>
  <way id="30951783" version="5" timestamp="2011-01-24T20:22:09Z" uid="6269" user="Mueck" changeset="7077480">
    <nd ref="344140399"/>
    <nd ref="1119217243"/>
    <nd ref="344140400"/>
    <tag k="highway" v="primary"/>
    <tag k="lanes" v="4"/>
    <tag k="name" v="Ettlinger Straße"/>
    <tag k="oneway" v="yes"/>
  </way>
  <way id="30951783" version="6" timestamp="2011-03-15T01:27:59Z" uid="6269" user="Mueck" changeset="7562772"/>
  <way id="30951784" version="10" timestamp="2011-01-24T20:22:10Z" uid="6269" user="Mueck" changeset="7077480">
    <nd ref="344140400"/>
    <nd ref="1119217237"/>
    <nd ref="247393631"/>
    <nd ref="1119216869"/>
    <nd ref="1119217025"/>
    <nd ref="1119217870"/>
    <nd ref="1119217218"/>
    <nd ref="247393647"/>
    <nd ref="1119216776"/>
    <nd ref="1119217456"/>
    <nd ref="548952763"/>
    <nd ref="758881946"/>
    <nd ref="21492576"/>
    <nd ref="17493014"/>
    <nd ref="950892934"/>
    <nd ref="412397"/>
    <tag k="highway" v="primary"/>
    <tag k="name" v="Ettlinger Straße"/>
    <tag k="oneway" v="yes"/>
  </way>
  <way id="30951784" version="11" timestamp="2011-01-28T13:09:03Z" uid="6269" user="Mueck" changeset="7112784">
    <nd ref="344140400"/>
    <nd ref="1119217237"/>
    <nd ref="247393631"/>
    <nd ref="1119216869"/>
    <nd ref="1119217025"/>
    <nd ref="1119217870"/>
    <nd ref="1119217218"/>
    <nd ref="247393647"/>
    <nd ref="1119216776"/>
    <nd ref="1119217456"/>
    <nd ref="548952763"/>
    <nd ref="1124828555"/>
    <nd ref="1124828627"/>
    <nd ref="758881946"/>
    <nd ref="1124828641"/>
    <nd ref="1124828618"/>
    <nd ref="21492576"/>
    <nd ref="1124828585"/>
    <nd ref="1124828614"/>
    <nd ref="17493014"/>
    <nd ref="1124828581"/>
    <nd ref="1124828651"/>
    <nd ref="26027122"/>
    <tag k="highway" v="primary"/>
    <tag k="name" v="Ettlinger Straße"/>
    <tag k="oneway" v="yes"/>
  </way>
  <way id="30951784" version="12" timestamp="2011-02-05T16:29:37Z" uid="165061" user="keinname" changeset="7194288">
    <nd ref="344140400"/>
    <nd ref="1119217237"/>
    <nd ref="247393631"/>
    <nd ref="1137650673"/>
    <nd ref="1119216869"/>
    <nd ref="1119217025"/>
    <nd ref="1119217870"/>
    <nd ref="1119217218"/>
    <nd ref="247393647"/>
    <nd ref="1119216776"/>
    <nd ref="1119217456"/>
    <nd ref="548952763"/>
    <nd ref="1124828555"/>
    <nd ref="1124828627"/>
    <nd ref="758881946"/>
    <nd ref="1124828641"/>
    <nd ref="1124828618"/>
    <nd ref="21492576"/>
    <nd ref="1124828585"/>
    <nd ref="1124828614"/>
    <nd ref="17493014"/>
    <nd ref="1124828581"/>
    <nd ref="1124828651"/>
    <nd ref="26027122"/>
    <tag k="highway" v="primary"/>
    <tag k="name" v="Ettlinger Straße"/>
    <tag k="oneway" v="yes"/>
  </way>
  <way id="30951784" version="13" timestamp="2011-03-15T01:27:59Z" uid="6269" user="Mueck" changeset="7562772"/>
  <way id="30951842" version="2" timestamp="2009-07-07T03:09:14Z" uid="20587" user="balrog-kun" changeset="1758708">
    <nd ref="344141244"/>
    <nd ref="344141247"/>
    <nd ref="339101344"/>
    <nd ref="339101343"/>
    <nd ref="344141244"/>
    <tag k="area" v="yes"/>
    <tag k="created_by" v="Potlatch 0.10f"/>
    <tag k="leisure" v="sports_centre"/>
    <tag k="sport" v="basketball"/>
  </way>
  <way id="30951861" version="1" timestamp="2009-02-10T13:33:18Z" uid="9581" user="Lobelt" changeset="328524">
    <nd ref="335712082"/>
    <nd ref="344142009"/>
    <nd ref="344142007"/>
    <nd ref="344142006"/>
    <nd ref="344142004"/>
    <nd ref="344142003"/>
    <nd ref="344142002"/>
    <nd ref="344142000"/>
    <nd ref="344141998"/>
    <nd ref="344141996"/>
    <nd ref="344141995"/>
    <nd ref="344141994"/>
    <nd ref="344141992"/>
    <nd ref="344141990"/>
    <nd ref="344141988"/>
    <nd ref="344141986"/>
    <nd ref="344141984"/>
    <nd ref="344141981"/>
    <nd ref="344141979"/>
    <nd ref="344141978"/>
    <nd ref="344141977"/>
    <nd ref="344141975"/>
    <nd ref="344141974"/>
    <nd ref="344141973"/>
    <nd ref="344141971"/>
    <nd ref="344141970"/>
    <nd ref="344141968"/>
    <nd ref="344141967"/>
    <nd ref="344141965"/>
    <nd ref="344141964"/>
    <nd ref="344141962"/>
    <nd ref="344141961"/>
    <nd ref="344141959"/>
    <nd ref="344141958"/>
    <nd ref="344141956"/>
    <nd ref="344141955"/>
    <nd ref="344141953"/>
    <nd ref="344141951"/>
    <nd ref="344141950"/>
    <nd ref="344141948"/>
    <nd ref="344141947"/>
    <nd ref="344141946"/>
    <nd ref="344141945"/>
    <nd ref="344141942"/>
    <nd ref="344141940"/>
    <nd ref="344141939"/>
    <nd ref="344141937"/>
    <nd ref="344141936"/>
    <nd ref="344141934"/>
    <nd ref="344141932"/>
    <nd ref="344141931"/>
    <nd ref="344141928"/>
    <nd ref="344141926"/>
    <nd ref="344141925"/>
    <nd ref="344141923"/>
    <nd ref="344141922"/>
    <nd ref="344141920"/>
    <nd ref="344141919"/>
    <nd ref="344141917"/>
    <nd ref="344141915"/>
    <nd ref="344141913"/>
    <nd ref="344141911"/>
    <nd ref="344141910"/>
    <nd ref="344141908"/>
    <nd ref="344141552"/>
    <nd ref="344141554"/>
    <nd ref="344141555"/>
    <nd ref="344141557"/>
    <nd ref="344141558"/>
    <nd ref="344141560"/>
    <nd ref="344141561"/>
    <nd ref="344141562"/>
    <nd ref="344141564"/>
    <nd ref="344141565"/>
    <nd ref="344141567"/>
    <nd ref="344141568"/>
    <nd ref="344141571"/>
    <nd ref="344141575"/>
    <nd ref="344141577"/>
    <nd ref="344141579"/>
    <nd ref="344141580"/>
    <nd ref="344141581"/>
    <nd ref="344141583"/>
    <nd ref="344141584"/>
    <nd ref="344141587"/>
    <nd ref="344141589"/>
    <nd ref="344141590"/>
    <nd ref="344141591"/>
    <nd ref="344141593"/>
    <nd ref="344141595"/>
    <nd ref="344141597"/>
    <nd ref="344141600"/>
    <nd ref="344141602"/>
    <nd ref="344141606"/>
    <nd ref="344141608"/>
    <nd ref="344141610"/>
    <nd ref="344141612"/>
    <nd ref="344141614"/>
    <nd ref="344141617"/>
    <nd ref="344141619"/>
    <nd ref="344141622"/>
    <nd ref="344141624"/>
    <nd ref="344141626"/>
    <nd ref="344141628"/>
    <nd ref="344141630"/>
    <nd ref="344141632"/>
    <nd ref="344141634"/>
    <nd ref="344141635"/>
    <nd ref="344141637"/>
    <nd ref="344141640"/>
    <nd ref="344141642"/>
    <nd ref="344141643"/>
    <nd ref="344141645"/>
    <nd ref="344141647"/>
    <nd ref="344141649"/>
    <nd ref="344141651"/>
    <nd ref="344141652"/>
    <nd ref="344141654"/>
    <nd ref="344141657"/>
    <nd ref="344141659"/>
    <nd ref="344141661"/>
    <nd ref="344141663"/>
    <nd ref="344141665"/>
    <nd ref="344141666"/>
    <nd ref="344141668"/>
    <nd ref="344141670"/>
    <nd ref="344141671"/>
    <nd ref="344141673"/>
    <nd ref="344141675"/>
    <nd ref="344141677"/>
    <nd ref="344141678"/>
    <nd ref="344141680"/>
    <nd ref="344141681"/>
    <nd ref="344141683"/>
    <nd ref="344141685"/>
    <nd ref="344141686"/>
    <nd ref="344141688"/>
    <nd ref="344141689"/>
    <nd ref="344141691"/>
    <nd ref="344141693"/>
    <nd ref="344141694"/>
    <nd ref="344141696"/>
    <nd ref="344141697"/>
    <nd ref="344141699"/>
    <nd ref="344141700"/>
    <nd ref="344141702"/>
    <nd ref="344141704"/>
    <nd ref="344141705"/>
    <nd ref="344141707"/>
    <nd ref="344141708"/>
    <nd ref="344141710"/>
    <nd ref="344141712"/>
    <nd ref="344141714"/>
    <nd ref="344141716"/>
    <nd ref="344141718"/>
    <nd ref="344141720"/>
    <nd ref="344141721"/>
    <nd ref="344141722"/>
    <nd ref="344141723"/>
    <nd ref="344141725"/>
    <nd ref="344141726"/>
    <nd ref="344141727"/>
    <nd ref="344141728"/>
    <nd ref="344141729"/>
    <nd ref="344141731"/>
    <nd ref="344141732"/>
    <nd ref="344141733"/>
    <nd ref="344141735"/>
    <nd ref="344141736"/>
    <nd ref="344141738"/>
    <nd ref="344141740"/>
    <nd ref="344141741"/>
    <nd ref="344141743"/>
    <nd ref="344141744"/>
    <nd ref="344141746"/>
    <nd ref="344141747"/>
    <nd ref="344141749"/>
    <nd ref="344141751"/>
    <nd ref="344141752"/>
    <nd ref="344141754"/>
    <nd ref="344141755"/>
    <nd ref="344141757"/>
    <nd ref="344141758"/>
    <nd ref="344141760"/>
    <nd ref="344141761"/>
    <nd ref="344141874"/>
    <nd ref="344141877"/>
    <nd ref="344141879"/>
    <nd ref="344141881"/>
    <nd ref="344141883"/>
    <nd ref="344141884"/>
    <nd ref="344141886"/>
    <nd ref="344141888"/>
    <nd ref="344141890"/>
    <nd ref="344141892"/>
    <nd ref="344141894"/>
    <nd ref="344141897"/>
    <nd ref="344141899"/>
    <nd ref="344141901"/>
    <nd ref="344141902"/>
    <nd ref="344141904"/>
    <nd ref="344141906"/>
    <tag k="note" v="4*double"/>
    <tag k="operator" v="DB_Energie"/>
    <tag k="power" v="line"/>
    <tag k="wires" v="double"/>
  </way>
  <way id="30951861" version="2" timestamp="2009-03-08T14:51:41Z" uid="13203" user="bahnpirat" changeset="756149"/>
  <way id="30951022" version="4" timestamp="2012-07-20T03:35:05Z" uid="722137" user="OSMF Redaction Account" changeset="12359497">
    <nd ref="344125640"/>
    <nd ref="261594483"/>
    <tag k="highway" v="footway"/>
  </way>
  <way id="30951038" version="4" timestamp="2012-07-20T03:38:00Z" uid="722137" user="OSMF Redaction Account" changeset="12359545">
    <nd ref="344166548"/>
    <nd ref="344126408"/>
    <tag k="foot" v="yes"/>
  </way>
  <way id="30951439" version="5" timestamp="2012-07-18T10:02:56Z" uid="722137" user="OSMF Redaction Account" changeset="12277098">
    <nd ref="441327796"/>
    <nd ref="441327794"/>
    <tag k="highway" v="residential"/>
    <tag k="name" v="Neuer Weg"/>
  </way>
  <way id="30951439" version="6" timestamp="2012-08-31T16:34:51Z" uid="390227" user="richtkreiser" changeset="12933131">
    <nd ref="441327796"/>
    <nd ref="1891819200"/>
    <nd ref="441327794"/>
    <tag k="highway" v="residential"/>
    <tag k="name" v="Neuer Weg"/>
  </way>
  <way id="30951746" version="14" timestamp="2012-04-21T20:11:33Z" uid="35468" user="Blunauer" changeset="11377659">
    <nd ref="344139585"/>
    <nd ref="1119072786"/>
    <nd ref="526090"/>
    <nd ref="1479504251"/>
    <nd ref="1119073045"/>
    <nd ref="1156915836"/>
    <nd ref="1119072954"/>
    <nd ref="21480339"/>
    <nd ref="526089"/>
    <nd ref="1119072476"/>
    <nd ref="1119072340"/>
    <nd ref="1119072915"/>
    <nd ref="1725794505"/>
    <nd ref="14911371"/>
    <tag k="highway" v="primary"/>
    <tag k="lanes" v="2"/>
    <tag k="maxspeed" v="50"/>
    <tag k="name" v="Ettlinger Straße"/>
    <tag k="odbl" v="clean"/>
    <tag k="oneway" v="yes"/>
    <tag k="source:maxspeed" v="DE:urban"/>
    <tag k="zone:traffic" v="DE:urban"/>
  </way>
  <way id="30951746" version="15" timestamp="2012-07-19T19:37:29Z" uid="722137" user="OSMF Redaction Account" changeset="12345081">
    <nd ref="344139585"/>
    <nd ref="526090"/>
    <nd ref="1479504251"/>
    <nd ref="1156915836"/>
    <nd ref="21480339"/>
    <nd ref="526089"/>
    <nd ref="1725794505"/>
    <nd ref="14911371"/>
    <tag k="highway" v="primary"/>
    <tag k="lanes" v="2"/>
    <tag k="maxspeed" v="50"/>
    <tag k="name" v="Ettlinger Straße"/>
    <tag k="odbl" v="clean"/>
    <tag k="oneway" v="yes"/>
    <tag k="source:maxspeed" v="DE:urban"/>
    <tag k="zone:traffic" v="DE:urban"/>
  </way>
  <way id="30951746" version="16" timestamp="2012-07-30T15:00:51Z" uid="42208" user="JanTH" changeset="12549262">
    <nd ref="344139585"/>
    <nd ref="526090"/>
    <nd ref="1479504251"/>
    <nd ref="1156915836"/>
    <nd ref="21480339"/>
    <nd ref="1844102619"/>
    <nd ref="526089"/>
    <nd ref="1844102621"/>
    <nd ref="1844102622"/>
    <nd ref="1725794505"/>
    <nd ref="14911371"/>
    <tag k="highway" v="primary"/>
    <tag k="lanes" v="2"/>
    <tag k="maxspeed" v="50"/>
    <tag k="name" v="Ettlinger Straße"/>
    <tag k="odbl" v="clean"/>
    <tag k="oneway" v="yes"/>
    <tag k="source:maxspeed" v="DE:urban"/>
    <tag k="zone:traffic" v="DE:urban"/>
  </way>
  <way id="30951746" version="17" timestamp="2012-08-11T13:01:07Z" uid="189170" user="Videoüberwachter" changeset="12691018">
    <nd ref="344139585"/>
    <nd ref="526090"/>
    <nd ref="1479504251"/>
    <nd ref="1156915836"/>
    <nd ref="1861527570"/>
    <nd ref="21480339"/>
    <nd ref="1844102619"/>
    <nd ref="526089"/>
    <nd ref="1844102621"/>
    <nd ref="1844102622"/>
    <nd ref="1725794505"/>
    <nd ref="14911371"/>
    <tag k="highway" v="primary"/>
    <tag k="lanes" v="2"/>
    <tag k="maxspeed" v="50"/>
    <tag k="name" v="Ettlinger Straße"/>
    <tag k="odbl" v="clean"/>
    <tag k="oneway" v="yes"/>
    <tag k="source:maxspeed" v="DE:urban"/>
    <tag k="zone:traffic" v="DE:urban"/>
  </way>
  <way id="30951755" version="5" timestamp="2012-08-22T13:07:23Z" uid="792881" user="nukeidon" changeset="12820731">
    <nd ref="332418298"/>
    <nd ref="436010560"/>
    <nd ref="435950779"/>
    <nd ref="435950777"/>
    <nd ref="435950799"/>
    <nd ref="435956954"/>
    <nd ref="344139682"/>
    <nd ref="1877604539"/>
    <tag k="highway" v="tertiary"/>
    <tag k="lanes" v="2"/>
    <tag k="name" v="Avenida de José Mesa y López"/>
    <tag k="oneway" v="yes"/>
  </way>
  <way id="30951755" version="6" timestamp="2012-09-09T12:55:05Z" uid="792881" user="nukeidon" changeset="13044074">
    <nd ref="332418298"/>
    <nd ref="436010560"/>
    <nd ref="435950779"/>
    <nd ref="435950777"/>
    <nd ref="435950799"/>
    <nd ref="435956954"/>
    <nd ref="344139682"/>
    <nd ref="1877604539"/>
    <tag k="highway" v="tertiary"/>
    <tag k="lanes" v="2"/>
    <tag k="maxspeed" v="40"/>
    <tag k="name" v="Avenida de José Mesa y López"/>
    <tag k="oneway" v="yes"/>
    <tag k="surface" v="asphalt"/>
  </way>
  <way id="30951842" version="3" timestamp="2012-08-21T01:46:38Z" uid="792881" user="nukeidon" changeset="12802980"/>
</osm>
