<?xml version='1.0' encoding='UTF-8'?>
<osm version="0.6" generator="libosmium/2.20.0">
  <way id="30991007" version="5" timestamp="2010-04-07T15:07:02Z" uid="20587" user="balrog-kun" changeset="4353646">
    <nd ref="344583745"/>
    <nd ref="344583746"/>
    <nd ref="344583747"/>
    <nd ref="344583748"/>
    <nd ref="344583749"/>
    <nd ref="229397089"/>
    <nd ref="229397093"/>
    <nd ref="229397097"/>
    <nd ref="229397100"/>
    <nd ref="229397103"/>
    <nd ref="229397107"/>
    <nd ref="229397111"/>
    <nd ref="229397115"/>
    <tag k="highway" v="tertiary"/>
    <tag k="name" v="East Calton Road"/>
    <tag k="tiger:cfcc" v="A41"/>
    <tag k="tiger:county" v="Webb, TX"/>
    <tag k="tiger:name_base" v="Calton"/>
    <tag k="tiger:name_direction_prefix" v="E"/>
    <tag k="tiger:name_type" v="Rd"/>
    <tag k="tiger:reviewed" v="no"/>
    <tag k="tiger:separated" v="no"/>
    <tag k="tiger:source" v="tiger_import_dch_v0.6_20070830"/>
    <tag k="tiger:tlid" v="21672810:21672791:21672709:21672711:21672713:21672680:21672809:21672666:21672702:21685208:21685209:21676268:21676263:21670980:21670989:21671102:21671108:21671123:21671126:21670947:21670976:21681523:21678687:21670936"/>
    <tag k="tiger:zip_left" v="78041"/>
    <tag k="tiger:zip_right" v="78041"/>
  </way>
  <way id="30991007" version="6" timestamp="2010-10-12T07:24:49Z" uid="36121" user="Chris Lawrence" changeset="6018184">
    <nd ref="344583745"/>
    <nd ref="344583746"/>
    <nd ref="344583747"/>
    <nd ref="344583748"/>
    <nd ref="344583749"/>
    <nd ref="229397089"/>
    <tag k="highway" v="tertiary"/>
    <tag k="name" v="East Calton Road"/>
    <tag k="tiger:cfcc" v="A41"/>
    <tag k="tiger:county" v="Webb, TX"/>
    <tag k="tiger:name_base" v="Calton"/>
    <tag k="tiger:name_direction_prefix" v="E"/>
    <tag k="tiger:name_type" v="Rd"/>
    <tag k="tiger:reviewed" v="no"/>
    <tag k="tiger:separated" v="no"/>
    <tag k="tiger:source" v="tiger_import_dch_v0.6_20070830"/>
    <tag k="tiger:tlid" v="21672810:21672791:21672709:21672711:21672713:21672680:21672809:21672666:21672702:21685208:21685209:21676268:21676263:21670980:21670989:21671102:21671108:21671123:21671126:21670947:21670976:21681523:21678687:21670936"/>
    <tag k="tiger:zip_left" v="78041"/>
    <tag k="tiger:zip_right" v="78041"/>
  </way>
  <way id="30991010" version="2" timestamp="2009-04-30T21:19:23Z" uid="6269" user="Mueck" changeset="1031076">
    <nd ref="14892149"/>
    <nd ref="21498829"/>
    <nd ref="278070632"/>
    <tag k="created_by" v="Potlatch 0.10a"/>
    <tag k="highway" v="secondary"/>
    <tag k="oneway" v="yes"/>
  </way>
  <way id="30991010" version="3" timestamp="2009-05-24T14:01:38Z" uid="6269" user="Mueck" changeset="1305941">
    <nd ref="14892149"/>
    <nd ref="21498829"/>
    <nd ref="278070632"/>
    <tag k="created_by" v="Potlatch 0.10a"/>
    <tag k="cycleway" v="track"/>
    <tag k="highway" v="secondary"/>
    <tag k="oneway" v="yes"/>
  </way>
  <way id="30991010" version="4" timestamp="2009-06-19T13:02:14Z" uid="85761" user="klausis" changeset="1564619">
    <nd ref="14892149"/>
    <nd ref="21498829"/>
    <nd ref="278070632"/>
    <tag k="cycleway" v="track"/>
    <tag k="highway" v="secondary"/>
    <tag k="oneway" v="yes"/>
  </way>
  <way id="30991010" version="5" timestamp="2010-03-28T23:43:48Z" uid="6269" user="Mueck" changeset="4263037">
    <nd ref="14892149"/>
    <nd ref="21498829"/>
    <nd ref="278070632"/>
    <tag k="cycleway" v="track"/>
    <tag k="highway" v="secondary"/>
    <tag k="name" v="Kapellenstraße"/>
    <tag k="oneway" v="yes"/>
  </way>
  <way id="30991010" version="6" timestamp="2011-02-03T01:28:16Z" uid="6269" user="Mueck" changeset="7170427">
    <nd ref="14892149"/>
    <nd ref="21498829"/>
    <nd ref="1133166075"/>
    <nd ref="1133166056"/>
    <nd ref="278070632"/>
    <tag k="cycleway" v="track"/>
    <tag k="highway" v="secondary"/>
    <tag k="name" v="Kapellenstraße"/>
    <tag k="oneway" v="yes"/>
  </way>
  <way id="30991010" version="7" timestamp="2011-02-12T20:58:30Z" uid="165061" user="keinname" changeset="7269399">
    <nd ref="14892149"/>
    <nd ref="1149592853"/>
    <nd ref="21498829"/>
    <nd ref="1133166075"/>
    <nd ref="1133166056"/>
    <nd ref="278070632"/>
    <tag k="cycleway" v="track"/>
    <tag k="highway" v="secondary"/>
    <tag k="lanes" v="2"/>
    <tag k="name" v="Kapellenstraße"/>
    <tag k="oneway" v="yes"/>
  </way>
  <way id="30991010" version="8" timestamp="2011-06-17T16:55:45Z" uid="165061" user="keinname" changeset="8466542">
    <nd ref="14892149"/>
    <nd ref="1149592853"/>
    <nd ref="21498829"/>
    <nd ref="1133166075"/>
    <nd ref="1133166056"/>
    <nd ref="278070632"/>
    <tag k="cycleway" v="track"/>
    <tag k="highway" v="secondary"/>
    <tag k="lanes" v="2"/>
    <tag k="maxspeed" v="50"/>
    <tag k="name" v="Kapellenstraße"/>
    <tag k="oneway" v="yes"/>
    <tag k="source:maxspeed" v="DE:urban"/>
  </way>
  <way id="30991010" version="9" timestamp="2011-08-02T21:18:26Z" uid="493999" user="BastiaanH" changeset="8905384">
    <nd ref="14892149"/>
    <nd ref="1149592853"/>
    <nd ref="21498829"/>
    <nd ref="1133166075"/>
    <nd ref="1133166056"/>
    <nd ref="278070632"/>
    <tag k="highway" v="secondary"/>
    <tag k="lanes" v="2"/>
    <tag k="maxspeed" v="50"/>
    <tag k="name" v="Kapellenstraße"/>
    <tag k="oneway" v="yes"/>
    <tag k="source:maxspeed" v="DE:urban"/>
  </way>
  <way id="30991010" version="10" timestamp="2011-09-13T20:11:18Z" uid="165061" user="keinname" changeset="9292929">
    <nd ref="14892149"/>
    <nd ref="1149592853"/>
    <nd ref="21498829"/>
    <nd ref="1133166075"/>
    <nd ref="1133166056"/>
    <nd ref="278070632"/>
    <tag k="highway" v="secondary"/>
    <tag k="lanes" v="2"/>
    <tag k="maxspeed" v="50"/>
    <tag k="name" v="Kapellenstraße"/>
    <tag k="oneway" v="no"/>
    <tag k="source:maxspeed" v="DE:urban"/>
  </way>
  <way id="30991011" version="3" timestamp="2009-05-08T23:47:42Z" uid="6269" user="Mueck" changeset="1122795">
    <nd ref="412335"/>
    <nd ref="412334"/>
    <nd ref="412333"/>
    <tag k="created_by" v="Potlatch 0.9c"/>
    <tag k="highway" v="trunk"/>
    <tag k="maxspeed" v="80"/>
    <tag k="motorroad" v="yes"/>
    <tag k="name" v="Südtangente"/>
    <tag k="oneway" v="yes"/>
    <tag k="ref" v="B 10;B 36"/>
  </way>
  <way id="30991011" version="4" timestamp="2009-06-21T15:27:27Z" uid="85761" user="klausis" changeset="1584316">
    <nd ref="412335"/>
    <nd ref="412334"/>
    <nd ref="412333"/>
    <tag k="highway" v="trunk"/>
    <tag k="maxspeed" v="80"/>
    <tag k="motorroad" v="yes"/>
    <tag k="name" v="Südtangente"/>
    <tag k="oneway" v="yes"/>
    <tag k="ref" v="B 10;B 36"/>
  </way>
  <way id="30991011" version="5" timestamp="2011-01-29T17:34:18Z" uid="163673" user="Free_Jan" changeset="7124835">
    <nd ref="412335"/>
    <nd ref="1126475748"/>
    <nd ref="1126475633"/>
    <nd ref="412334"/>
    <nd ref="412333"/>
    <tag k="highway" v="trunk"/>
    <tag k="maxspeed" v="80"/>
    <tag k="motorroad" v="yes"/>
    <tag k="name" v="Südtangente"/>
    <tag k="oneway" v="yes"/>
    <tag k="ref" v="B 10;B 36"/>
  </way>
  <way id="30991011" version="6" timestamp="2011-06-17T18:13:55Z" uid="165061" user="keinname" changeset="8466931">
    <nd ref="412335"/>
    <nd ref="1126475748"/>
    <nd ref="1126475633"/>
    <nd ref="412334"/>
    <nd ref="412333"/>
    <tag k="highway" v="trunk"/>
    <tag k="lanes" v="3"/>
    <tag k="maxspeed" v="80"/>
    <tag k="motorroad" v="yes"/>
    <tag k="name" v="Südtangente"/>
    <tag k="oneway" v="yes"/>
    <tag k="ref" v="B 10;B 36"/>
  </way>
  <way id="30991011" version="7" timestamp="2011-10-13T10:20:46Z" uid="165061" user="keinname" changeset="9545481">
    <nd ref="412335"/>
    <nd ref="1126475748"/>
    <nd ref="1126475633"/>
    <nd ref="412334"/>
    <nd ref="1464989421"/>
    <nd ref="1464989422"/>
    <nd ref="1127997634"/>
    <tag k="highway" v="trunk"/>
    <tag k="lanes" v="3"/>
    <tag k="lanes:through" v="2"/>
    <tag k="lanes:turnright" v="2"/>
    <tag k="maxspeed" v="80"/>
    <tag k="motorroad" v="yes"/>
    <tag k="name" v="Südtangente"/>
    <tag k="oneway" v="yes"/>
    <tag k="ref" v="B 10;B 36"/>
  </way>
  <way id="30991013" version="6" timestamp="2011-02-14T23:32:29Z" uid="6269" user="Mueck" changeset="7290890">
    <nd ref="26470133"/>
    <nd ref="1126475618"/>
    <nd ref="26470134"/>
    <nd ref="26470135"/>
    <nd ref="1153718384"/>
    <nd ref="26470136"/>
    <tag k="bridge" v="yes"/>
    <tag k="highway" v="primary"/>
    <tag k="layer" v="1"/>
    <tag k="maxspeed" v="50"/>
    <tag k="name" v="Vogesenbrücke"/>
    <tag k="oneway" v="yes"/>
    <tag k="ref" v="B 36"/>
  </way>
  <way id="30991013" version="7" timestamp="2012-02-07T22:59:24Z" uid="165061" user="keinname" changeset="10618069">
    <nd ref="26470133"/>
    <nd ref="1126475618"/>
    <nd ref="26470134"/>
    <nd ref="26470135"/>
    <nd ref="1153718384"/>
    <nd ref="26470136"/>
    <tag k="bridge" v="yes"/>
    <tag k="highway" v="primary"/>
    <tag k="lanes" v="2"/>
    <tag k="layer" v="1"/>
    <tag k="maxspeed" v="50"/>
    <tag k="name" v="Vogesenbrücke"/>
    <tag k="oneway" v="yes"/>
    <tag k="ref" v="B 36"/>
  </way>
  <way id="30991014" version="3" timestamp="2009-05-08T23:47:01Z" uid="6269" user="Mueck" changeset="1122795">
    <nd ref="412339"/>
    <nd ref="412338"/>
    <nd ref="29399613"/>
    <tag k="created_by" v="Potlatch 0.9c"/>
    <tag k="highway" v="trunk"/>
    <tag k="maxspeed" v="80"/>
    <tag k="motorroad" v="yes"/>
    <tag k="name" v="Südtangente"/>
    <tag k="oneway" v="yes"/>
    <tag k="ref" v="B 10"/>
  </way>
  <way id="30991014" version="4" timestamp="2009-06-21T15:27:22Z" uid="85761" user="klausis" changeset="1584316">
    <nd ref="412339"/>
    <nd ref="412338"/>
    <nd ref="29399613"/>
    <tag k="highway" v="trunk"/>
    <tag k="maxspeed" v="80"/>
    <tag k="motorroad" v="yes"/>
    <tag k="name" v="Südtangente"/>
    <tag k="oneway" v="yes"/>
    <tag k="ref" v="B 10"/>
  </way>
  <way id="30991014" version="5" timestamp="2011-01-29T17:33:51Z" uid="163673" user="Free_Jan" changeset="7124835">
    <nd ref="412339"/>
    <nd ref="1126475841"/>
    <nd ref="1126475523"/>
    <nd ref="1126475877"/>
    <nd ref="412338"/>
    <nd ref="1126475472"/>
    <nd ref="1126475546"/>
    <nd ref="29399613"/>
    <tag k="highway" v="trunk"/>
    <tag k="maxspeed" v="80"/>
    <tag k="motorroad" v="yes"/>
    <tag k="name" v="Südtangente"/>
    <tag k="oneway" v="yes"/>
    <tag k="ref" v="B 10"/>
  </way>
  <way id="30991014" version="6" timestamp="2011-06-17T18:14:57Z" uid="165061" user="keinname" changeset="8466931">
    <nd ref="412339"/>
    <nd ref="1126475841"/>
    <nd ref="1126475523"/>
    <nd ref="1126475877"/>
    <nd ref="412338"/>
    <nd ref="1126475472"/>
    <nd ref="1126475546"/>
    <nd ref="29399613"/>
    <tag k="highway" v="trunk"/>
    <tag k="lanes" v="3"/>
    <tag k="maxspeed" v="80"/>
    <tag k="motorroad" v="yes"/>
    <tag k="name" v="Südtangente"/>
    <tag k="oneway" v="yes"/>
    <tag k="ref" v="B 10"/>
  </way>
  <way id="30991014" version="7" timestamp="2012-03-29T17:44:56Z" uid="35468" user="Blunauer" changeset="11141503">
    <nd ref="1696474697"/>
    <nd ref="1126475841"/>
    <nd ref="1126475523"/>
    <nd ref="1126475877"/>
    <nd ref="412338"/>
    <nd ref="1126475472"/>
    <nd ref="1126475546"/>
    <nd ref="29399613"/>
    <tag k="highway" v="trunk"/>
    <tag k="lanes" v="3"/>
    <tag k="maxspeed" v="80"/>
    <tag k="motorroad" v="yes"/>
    <tag k="name" v="Südtangente"/>
    <tag k="oneway" v="yes"/>
    <tag k="ref" v="B 10"/>
  </way>
  <way id="30991015" version="4" timestamp="2009-05-08T23:40:12Z" uid="6269" user="Mueck" changeset="1122795">
    <nd ref="31118141"/>
    <nd ref="15843212"/>
    <nd ref="342902"/>
    <nd ref="15848793"/>
    <nd ref="342900"/>
    <nd ref="342899"/>
    <nd ref="342898"/>
    <nd ref="30122609"/>
    <tag k="created_by" v="Potlatch 0.10f"/>
    <tag k="highway" v="trunk"/>
    <tag k="maxspeed" v="80"/>
    <tag k="motorroad" v="yes"/>
    <tag k="name" v="Südtangente"/>
    <tag k="oneway" v="yes"/>
    <tag k="ref" v="K9657"/>
  </way>
  <way id="30991015" version="5" timestamp="2009-05-09T08:09:41Z" uid="6269" user="Mueck" changeset="1124719">
    <nd ref="31118141"/>
    <nd ref="15843212"/>
    <nd ref="342902"/>
    <nd ref="15848793"/>
    <nd ref="342900"/>
    <nd ref="342899"/>
    <nd ref="342898"/>
    <nd ref="30122609"/>
    <nd ref="31118145"/>
    <tag k="created_by" v="Potlatch 0.10f; JOSM"/>
    <tag k="highway" v="trunk"/>
    <tag k="maxspeed" v="80"/>
    <tag k="motorroad" v="yes"/>
    <tag k="name" v="Südtangente"/>
    <tag k="oneway" v="yes"/>
    <tag k="ref" v="K9657"/>
  </way>
  <way id="30991015" version="6" timestamp="2009-06-07T22:22:05Z" uid="24920" user="Schusch" changeset="1454289">
    <nd ref="31118141"/>
    <nd ref="15843212"/>
    <nd ref="342902"/>
    <nd ref="15848793"/>
    <nd ref="342900"/>
    <nd ref="342899"/>
    <nd ref="342898"/>
    <nd ref="30122609"/>
    <nd ref="31118145"/>
    <tag k="created_by" v="Potlatch 0.10f; JOSM"/>
    <tag k="highway" v="trunk"/>
    <tag k="maxspeed" v="80"/>
    <tag k="motorroad" v="yes"/>
    <tag k="name" v="Südtangente"/>
    <tag k="oneway" v="yes"/>
    <tag k="ref" v="K 9657"/>
  </way>
  <way id="30991015" version="7" timestamp="2009-06-21T15:27:24Z" uid="85761" user="klausis" changeset="1584316">
    <nd ref="31118141"/>
    <nd ref="15843212"/>
    <nd ref="342902"/>
    <nd ref="15848793"/>
    <nd ref="342900"/>
    <nd ref="342899"/>
    <nd ref="342898"/>
    <nd ref="30122609"/>
    <nd ref="31118145"/>
    <tag k="highway" v="trunk"/>
    <tag k="maxspeed" v="80"/>
    <tag k="motorroad" v="yes"/>
    <tag k="name" v="Südtangente"/>
    <tag k="oneway" v="yes"/>
    <tag k="ref" v="K 9657"/>
  </way>
  <way id="30991015" version="8" timestamp="2009-08-09T14:15:04Z" uid="149205" user="Anubis" changeset="2086155">
    <nd ref="31118141"/>
    <nd ref="15843212"/>
    <nd ref="342902"/>
    <nd ref="15848793"/>
    <nd ref="459673326"/>
    <nd ref="342900"/>
    <nd ref="342899"/>
    <nd ref="459673314"/>
    <nd ref="342898"/>
    <nd ref="30122609"/>
    <nd ref="31118145"/>
    <tag k="highway" v="trunk"/>
    <tag k="maxspeed" v="80"/>
    <tag k="motorroad" v="yes"/>
    <tag k="name" v="Südtangente"/>
    <tag k="oneway" v="yes"/>
    <tag k="ref" v="K 9657"/>
  </way>
  <way id="30991015" version="9" timestamp="2009-08-09T19:45:56Z" uid="149205" user="Anubis" changeset="2090282">
    <nd ref="31118141"/>
    <nd ref="15843212"/>
    <nd ref="342902"/>
    <nd ref="15848793"/>
    <nd ref="459673340"/>
    <nd ref="342900"/>
    <nd ref="342899"/>
    <nd ref="459673314"/>
    <nd ref="342898"/>
    <nd ref="30122609"/>
    <nd ref="31118145"/>
    <tag k="highway" v="trunk"/>
    <tag k="maxspeed" v="80"/>
    <tag k="motorroad" v="yes"/>
    <tag k="name" v="Südtangente"/>
    <tag k="oneway" v="yes"/>
    <tag k="ref" v="K 9657"/>
  </way>
  <way id="30991015" version="10" timestamp="2011-01-27T18:05:52Z" uid="163673" user="Free_Jan" changeset="7105928">
    <nd ref="31118141"/>
    <nd ref="1123642119"/>
    <nd ref="1123642108"/>
    <nd ref="15843212"/>
    <nd ref="1123642131"/>
    <nd ref="342902"/>
    <nd ref="15848793"/>
    <nd ref="1123642046"/>
    <nd ref="1123642082"/>
    <nd ref="342900"/>
    <nd ref="1123642079"/>
    <nd ref="1123642063"/>
    <nd ref="1123642117"/>
    <nd ref="342899"/>
    <nd ref="459673314"/>
    <nd ref="1123642106"/>
    <nd ref="342898"/>
    <nd ref="30122609"/>
    <nd ref="31118145"/>
    <tag k="highway" v="trunk"/>
    <tag k="maxspeed" v="80"/>
    <tag k="motorroad" v="yes"/>
    <tag k="name" v="Südtangente"/>
    <tag k="oneway" v="yes"/>
    <tag k="ref" v="K 9657"/>
  </way>
  <way id="30991015" version="11" timestamp="2011-01-28T22:03:43Z" uid="163673" user="Free_Jan" changeset="7117670">
    <nd ref="31118141"/>
    <nd ref="1123642119"/>
    <nd ref="1123642108"/>
    <nd ref="15843212"/>
    <nd ref="1123642131"/>
    <nd ref="342902"/>
    <nd ref="15848793"/>
    <nd ref="1123642046"/>
    <nd ref="1123642082"/>
    <nd ref="342898"/>
    <nd ref="1125495842"/>
    <nd ref="1125496351"/>
    <nd ref="1125495970"/>
    <nd ref="1125495876"/>
    <nd ref="1125496317"/>
    <nd ref="1125496233"/>
    <nd ref="30122609"/>
    <nd ref="1125495953"/>
    <nd ref="31118145"/>
    <tag k="highway" v="trunk"/>
    <tag k="maxspeed" v="80"/>
    <tag k="motorroad" v="yes"/>
    <tag k="name" v="Südtangente"/>
    <tag k="oneway" v="yes"/>
    <tag k="ref" v="K 9657"/>
  </way>
  <way id="30991015" version="12" timestamp="2011-10-13T10:20:43Z" uid="165061" user="keinname" changeset="9545481">
    <nd ref="31118141"/>
    <nd ref="1123642119"/>
    <nd ref="1123642108"/>
    <nd ref="15843212"/>
    <nd ref="1123642131"/>
    <nd ref="342902"/>
    <nd ref="15848793"/>
    <nd ref="1123642046"/>
    <nd ref="1123642082"/>
    <nd ref="342898"/>
    <nd ref="1125495842"/>
    <nd ref="1125496351"/>
    <nd ref="1125495970"/>
    <nd ref="1125495876"/>
    <nd ref="1125496317"/>
    <nd ref="1125496233"/>
    <nd ref="30122609"/>
    <nd ref="1125495953"/>
    <nd ref="31118145"/>
    <tag k="highway" v="trunk"/>
    <tag k="lanes" v="2"/>
    <tag k="maxspeed" v="80"/>
    <tag k="motorroad" v="yes"/>
    <tag k="name" v="Südtangente"/>
    <tag k="oneway" v="yes"/>
    <tag k="ref" v="K 9657"/>
  </way>
  <way id="30991015" version="13" timestamp="2011-10-13T10:31:51Z" uid="165061" user="keinname" changeset="9545481">
    <nd ref="31118141"/>
    <nd ref="1123642119"/>
    <nd ref="1123642108"/>
    <nd ref="15843212"/>
    <nd ref="1123642131"/>
    <nd ref="342902"/>
    <nd ref="15848793"/>
    <nd ref="1123642046"/>
    <nd ref="1464994066"/>
    <tag k="highway" v="trunk"/>
    <tag k="lanes" v="2"/>
    <tag k="maxspeed" v="80"/>
    <tag k="motorroad" v="yes"/>
    <tag k="name" v="Südtangente"/>
    <tag k="oneway" v="yes"/>
    <tag k="ref" v="K 9657"/>
  </way>
  <way id="30991018" version="7" timestamp="2011-03-27T17:36:16Z" uid="6269" user="Mueck" changeset="7688761">
    <nd ref="526073"/>
    <nd ref="16718471"/>
    <nd ref="410168185"/>
    <nd ref="548906917"/>
    <nd ref="687898183"/>
    <nd ref="601492130"/>
    <nd ref="16718474"/>
    <nd ref="1221942281"/>
    <nd ref="16718515"/>
    <tag k="highway" v="secondary"/>
    <tag k="name" v="Fautenbruchstraße"/>
    <tag k="note" v="im SHP des NVK: II"/>
  </way>
  <way id="30991018" version="8" timestamp="2011-08-29T16:48:27Z" uid="60137" user="michael2402" changeset="9159134">
    <nd ref="526073"/>
    <nd ref="16718471"/>
    <nd ref="410168185"/>
    <nd ref="548906917"/>
    <nd ref="687898183"/>
    <nd ref="1417313600"/>
    <nd ref="601492130"/>
    <nd ref="16718474"/>
    <nd ref="1221942281"/>
    <nd ref="16718515"/>
    <tag k="highway" v="secondary"/>
    <tag k="name" v="Fautenbruchstraße"/>
    <tag k="note" v="im SHP des NVK: II"/>
  </way>
  <way id="30991018" version="9" timestamp="2011-08-29T16:58:44Z" uid="60137" user="michael2402" changeset="9159134">
    <nd ref="526073"/>
    <nd ref="16718471"/>
    <nd ref="410168185"/>
    <nd ref="548906917"/>
    <nd ref="1417317807"/>
    <nd ref="1417317814"/>
    <nd ref="687898183"/>
    <nd ref="1417313600"/>
    <nd ref="601492130"/>
    <nd ref="16718474"/>
    <nd ref="1221942281"/>
    <nd ref="16718515"/>
    <tag k="highway" v="secondary"/>
    <tag k="name" v="Fautenbruchstraße"/>
    <tag k="note" v="im SHP des NVK: II"/>
  </way>
  <way id="30991018" version="10" timestamp="2011-08-29T17:25:22Z" uid="60137" user="michael2402" changeset="9159757">
    <nd ref="526073"/>
    <nd ref="16718471"/>
    <nd ref="410168185"/>
    <nd ref="1417335056"/>
    <nd ref="1417335060"/>
    <nd ref="548906917"/>
    <nd ref="1417317807"/>
    <nd ref="1417317814"/>
    <nd ref="687898183"/>
    <nd ref="1417313600"/>
    <nd ref="601492130"/>
    <nd ref="16718474"/>
    <nd ref="1221942281"/>
    <nd ref="16718515"/>
    <tag k="highway" v="secondary"/>
    <tag k="name" v="Fautenbruchstraße"/>
    <tag k="note" v="im SHP des NVK: II"/>
  </way>
  <way id="30991018" version="11" timestamp="2011-09-02T15:28:44Z" uid="60137" user="michael2402" changeset="9193877">
    <nd ref="526073"/>
    <nd ref="16718471"/>
    <nd ref="410168185"/>
    <nd ref="1417335056"/>
    <tag k="bicycle" v="no"/>
    <tag k="highway" v="secondary"/>
    <tag k="name" v="Fautenbruchstraße"/>
    <tag k="note" v="im SHP des NVK: II"/>
  </way>
  <way id="30991018" version="12" timestamp="2011-11-18T11:24:57Z" uid="165061" user="keinname" changeset="9862687">
    <nd ref="526073"/>
    <nd ref="16718471"/>
    <nd ref="1507201275"/>
    <nd ref="410168185"/>
    <nd ref="1417335056"/>
    <tag k="bicycle" v="no"/>
    <tag k="highway" v="secondary"/>
    <tag k="name" v="Fautenbruchstraße"/>
    <tag k="note" v="im SHP des NVK: II"/>
  </way>
  <way id="30991018" version="13" timestamp="2012-01-16T18:33:44Z" uid="165061" user="keinname" changeset="10410364">
    <nd ref="526073"/>
    <nd ref="16718471"/>
    <nd ref="1507201275"/>
    <nd ref="410168185"/>
    <nd ref="1417335056"/>
    <tag k="bicycle" v="no"/>
    <tag k="highway" v="secondary"/>
    <tag k="lanes" v="2"/>
    <tag k="name" v="Fautenbruchstraße"/>
    <tag k="note" v="im SHP des NVK: II"/>
  </way>
  <way id="30991018" version="14" timestamp="2012-02-20T08:55:51Z" uid="151736" user="Jennifer Neubauer" changeset="10738264">
    <nd ref="526073"/>
    <nd ref="16718471"/>
    <nd ref="1507201275"/>
    <nd ref="1640243557"/>
    <nd ref="410168185"/>
    <nd ref="1417335056"/>
    <tag k="bicycle" v="no"/>
    <tag k="highway" v="secondary"/>
    <tag k="lanes" v="2"/>
    <tag k="name" v="Fautenbruchstraße"/>
    <tag k="note" v="im SHP des NVK: II"/>
  </way>
  <way id="30991020" version="5" timestamp="2011-02-20T02:42:25Z" uid="6269" user="Mueck" changeset="7338246">
    <nd ref="31410608"/>
    <nd ref="31410944"/>
    <nd ref="1162700704"/>
    <nd ref="15432589"/>
    <nd ref="1162700784"/>
    <nd ref="89337223"/>
    <nd ref="707960767"/>
    <nd ref="249138732"/>
    <nd ref="249138730"/>
    <nd ref="89313571"/>
    <nd ref="15432623"/>
    <nd ref="94614071"/>
    <nd ref="24956905"/>
    <nd ref="15432406"/>
    <nd ref="94617102"/>
    <nd ref="15432412"/>
    <tag k="highway" v="primary"/>
    <tag k="lanes" v="2"/>
    <tag k="maxspeed" v="60"/>
    <tag k="name" v="Neureuter Straße"/>
    <tag k="oneway" v="yes"/>
    <tag k="ref" v="B 36"/>
  </way>
  <way id="30991020" version="6" timestamp="2011-10-07T22:25:50Z" uid="212553" user="ARWIE" changeset="9498255">
    <nd ref="31410608"/>
    <nd ref="31410944"/>
    <nd ref="1162700704"/>
    <nd ref="15432589"/>
    <nd ref="1162700784"/>
    <nd ref="89337223"/>
    <nd ref="707960767"/>
    <nd ref="249138732"/>
    <nd ref="249138730"/>
    <nd ref="89313571"/>
    <nd ref="1458174942"/>
    <nd ref="1458174943"/>
    <nd ref="1458174945"/>
    <nd ref="94614071"/>
    <nd ref="24956905"/>
    <nd ref="15432406"/>
    <nd ref="94617102"/>
    <nd ref="15432412"/>
    <tag k="highway" v="primary"/>
    <tag k="lanes" v="2"/>
    <tag k="maxspeed" v="60"/>
    <tag k="name" v="Neureuter Straße"/>
    <tag k="oneway" v="yes"/>
    <tag k="ref" v="B 36"/>
  </way>
  <way id="30991020" version="7" timestamp="2012-01-20T19:57:52Z" uid="16330" user="aluka" changeset="10449984">
    <nd ref="31410608"/>
    <nd ref="31410944"/>
    <nd ref="1162700704"/>
    <nd ref="1599165226"/>
    <nd ref="1162700784"/>
    <nd ref="89337223"/>
    <nd ref="707960767"/>
    <nd ref="249138732"/>
    <nd ref="249138730"/>
    <nd ref="89313571"/>
    <nd ref="1458174942"/>
    <nd ref="1458174943"/>
    <nd ref="1458174945"/>
    <nd ref="94614071"/>
    <nd ref="24956905"/>
    <nd ref="15432406"/>
    <nd ref="94617102"/>
    <nd ref="15432412"/>
    <tag k="highway" v="primary"/>
    <tag k="lanes" v="2"/>
    <tag k="maxspeed" v="60"/>
    <tag k="name" v="Neureuter Straße"/>
    <tag k="oneway" v="yes"/>
    <tag k="ref" v="B 36"/>
  </way>
  <way id="30991020" version="8" timestamp="2012-01-29T17:20:12Z" uid="16330" user="aluka" changeset="10532469">
    <nd ref="31410608"/>
    <nd ref="31410944"/>
    <nd ref="1162700704"/>
    <nd ref="1599165226"/>
    <nd ref="1610779231"/>
    <nd ref="89337223"/>
    <nd ref="707960767"/>
    <nd ref="249138732"/>
    <nd ref="249138730"/>
    <nd ref="89313571"/>
    <nd ref="1458174942"/>
    <nd ref="1458174943"/>
    <nd ref="1458174945"/>
    <nd ref="94614071"/>
    <nd ref="24956905"/>
    <nd ref="15432406"/>
    <nd ref="94617102"/>
    <nd ref="15432412"/>
    <tag k="highway" v="primary"/>
    <tag k="lanes" v="2"/>
    <tag k="maxspeed" v="60"/>
    <tag k="name" v="Neureuter Straße"/>
    <tag k="oneway" v="yes"/>
    <tag k="ref" v="B 36"/>
  </way>
  <way id="30991105" version="6" timestamp="2010-07-08T19:38:56Z" uid="74617" user="JohnSmith" changeset="5168688">
    <nd ref="344580131"/>
    <nd ref="344583926"/>
    <nd ref="344585068"/>
    <nd ref="344585028"/>
    <nd ref="344585029"/>
    <nd ref="344585030"/>
    <nd ref="344585031"/>
    <nd ref="344585032"/>
    <nd ref="344585033"/>
    <nd ref="344585034"/>
    <nd ref="344585035"/>
    <tag k="highway" v="residential"/>
    <tag k="maxspeed" v="50"/>
    <tag k="maxspeed:source" v="default residential speed limit in Australia"/>
    <tag k="name" v="Clegg Avenue"/>
  </way>
  <way id="30991105" version="7" timestamp="2012-01-18T05:41:52Z" uid="147510" user="woodpeck_fixbot" changeset="10424371">
    <nd ref="344580131"/>
    <nd ref="344583926"/>
    <nd ref="344585068"/>
    <nd ref="344585028"/>
    <nd ref="344585029"/>
    <nd ref="344585030"/>
    <nd ref="344585031"/>
    <nd ref="344585032"/>
    <nd ref="344585033"/>
    <nd ref="344585034"/>
    <nd ref="344585035"/>
    <tag k="highway" v="residential"/>
    <tag k="name" v="Clegg Avenue"/>
  </way>
  <way id="30991106" version="4" timestamp="2010-05-01T03:36:00Z" uid="4467" user="Rosscoe" changeset="4571405">
    <nd ref="344583926"/>
    <nd ref="344583927"/>
    <nd ref="344583965"/>
    <nd ref="344583966"/>
    <nd ref="714468151"/>
    <tag k="highway" v="residential"/>
    <tag k="name" v="Mount Dandenong Road Service Road"/>
  </way>
  <way id="30991106" version="5" timestamp="2010-07-08T19:41:52Z" uid="74617" user="JohnSmith" changeset="5168688">
    <nd ref="344583926"/>
    <nd ref="344583927"/>
    <nd ref="344583965"/>
    <nd ref="344583966"/>
    <nd ref="714468151"/>
    <tag k="highway" v="residential"/>
    <tag k="maxspeed" v="50"/>
    <tag k="maxspeed:source" v="default residential speed limit in Australia"/>
    <tag k="name" v="Mount Dandenong Road Service Road"/>
  </way>
  <way id="30991106" version="6" timestamp="2012-01-18T05:41:53Z" uid="147510" user="woodpeck_fixbot" changeset="10424371">
    <nd ref="344583926"/>
    <nd ref="344583927"/>
    <nd ref="344583965"/>
    <nd ref="344583966"/>
    <nd ref="714468151"/>
    <tag k="highway" v="residential"/>
    <tag k="name" v="Mount Dandenong Road Service Road"/>
  </way>
  <way id="30991110" version="3" timestamp="2010-04-07T15:07:03Z" uid="20587" user="balrog-kun" changeset="4353646">
    <nd ref="229380684"/>
    <nd ref="344583949"/>
    <nd ref="344583950"/>
    <nd ref="344583951"/>
    <nd ref="344583952"/>
    <nd ref="344583752"/>
    <nd ref="344583953"/>
    <nd ref="344583954"/>
    <nd ref="344583955"/>
    <nd ref="344583745"/>
    <nd ref="344583956"/>
    <nd ref="344583957"/>
    <nd ref="344583958"/>
    <nd ref="229380684"/>
    <tag k="created_by" v="Potlatch 0.10f"/>
    <tag k="highway" v="tertiary"/>
    <tag k="junction" v="roundabout"/>
    <tag k="name" v="East Calton Road"/>
    <tag k="oneway" v="yes"/>
  </way>
  <way id="30991110" version="4" timestamp="2010-10-12T22:27:21Z" uid="36121" user="Chris Lawrence" changeset="6025735">
    <nd ref="229380684"/>
    <nd ref="344583949"/>
    <nd ref="344583950"/>
    <nd ref="344583951"/>
    <nd ref="946257780"/>
    <nd ref="344583952"/>
    <nd ref="344583752"/>
    <nd ref="344583953"/>
    <nd ref="344583954"/>
    <nd ref="946257800"/>
    <nd ref="344583955"/>
    <nd ref="344583745"/>
    <nd ref="946257801"/>
    <nd ref="344583956"/>
    <nd ref="344583957"/>
    <nd ref="344583958"/>
    <nd ref="946257823"/>
    <nd ref="229380684"/>
    <tag k="highway" v="tertiary"/>
    <tag k="junction" v="roundabout"/>
    <tag k="name" v="East Calton Road"/>
    <tag k="oneway" v="yes"/>
  </way>
  <way id="30991115" version="4" timestamp="2010-05-01T03:35:48Z" uid="4467" user="Rosscoe" changeset="4571405">
    <nd ref="714468245"/>
    <nd ref="714468243"/>
    <nd ref="344584007"/>
    <nd ref="344583973"/>
    <nd ref="344583974"/>
    <nd ref="344583975"/>
    <tag k="highway" v="residential"/>
    <tag k="name" v="Mount Dandenong Road Service Road"/>
    <tag k="oneway" v="yes"/>
  </way>
  <way id="30991115" version="5" timestamp="2010-07-08T19:37:51Z" uid="74617" user="JohnSmith" changeset="5168688">
    <nd ref="714468245"/>
    <nd ref="714468243"/>
    <nd ref="344584007"/>
    <nd ref="344583973"/>
    <nd ref="344583974"/>
    <nd ref="344583975"/>
    <tag k="highway" v="residential"/>
    <tag k="maxspeed" v="50"/>
    <tag k="maxspeed:source" v="default residential speed limit in Australia"/>
    <tag k="name" v="Mount Dandenong Road Service Road"/>
    <tag k="oneway" v="yes"/>
  </way>
  <way id="30991115" version="6" timestamp="2012-01-18T05:41:54Z" uid="147510" user="woodpeck_fixbot" changeset="10424371">
    <nd ref="714468245"/>
    <nd ref="714468243"/>
    <nd ref="344584007"/>
    <nd ref="344583973"/>
    <nd ref="344583974"/>
    <nd ref="344583975"/>
    <tag k="highway" v="residential"/>
    <tag k="name" v="Mount Dandenong Road Service Road"/>
    <tag k="oneway" v="yes"/>
  </way>
  <way id="30991119" version="9" timestamp="2009-08-13T12:35:04Z" uid="4467" user="Rosscoe" changeset="2130930">
    <nd ref="26968397"/>
    <nd ref="281124765"/>
    <nd ref="448779230"/>
    <nd ref="281125014"/>
    <nd ref="30678224"/>
    <nd ref="281126236"/>
    <nd ref="29822928"/>
    <nd ref="344587720"/>
    <nd ref="344587721"/>
    <nd ref="344587722"/>
    <tag k="highway" v="primary"/>
    <tag k="maxspeed" v="60"/>
    <tag k="name" v="Mount Dandenong Road"/>
    <tag k="oneway" v="yes"/>
    <tag k="ref" v="S62"/>
  </way>
  <way id="30991119" version="10" timestamp="2009-10-07T21:47:11Z" uid="11111" user="lakeyboy" changeset="2776767">
    <nd ref="26968397"/>
    <nd ref="524734694"/>
    <nd ref="281124765"/>
    <nd ref="448779230"/>
    <nd ref="281125014"/>
    <nd ref="30678224"/>
    <nd ref="281126236"/>
    <nd ref="29822928"/>
    <nd ref="344587720"/>
    <nd ref="344587721"/>
    <nd ref="344587722"/>
    <tag k="highway" v="primary"/>
    <tag k="maxspeed" v="60"/>
    <tag k="name" v="Mount Dandenong Road"/>
    <tag k="oneway" v="yes"/>
    <tag k="ref" v="S62"/>
  </way>
  <way id="30991119" version="11" timestamp="2009-10-13T23:51:07Z" uid="11111" user="lakeyboy" changeset="2841242">
    <nd ref="26968397"/>
    <nd ref="524734694"/>
    <nd ref="281124765"/>
    <nd ref="448779230"/>
    <nd ref="281125014"/>
    <nd ref="30678224"/>
    <nd ref="281126236"/>
    <nd ref="29822928"/>
    <nd ref="344587720"/>
    <nd ref="344587721"/>
    <nd ref="344587722"/>
    <tag k="highway" v="primary"/>
    <tag k="maxspeed" v="60"/>
    <tag k="name" v="Mount Dandenong Road"/>
    <tag k="oneway" v="yes"/>
  </way>
  <way id="30991119" version="12" timestamp="2010-03-06T10:43:43Z" uid="46482" user="Leon K" changeset="4048624">
    <nd ref="26968397"/>
    <nd ref="524734694"/>
    <nd ref="281124765"/>
    <nd ref="661030929"/>
    <nd ref="661030930"/>
    <nd ref="448779230"/>
    <nd ref="281125014"/>
    <nd ref="30678224"/>
    <nd ref="281126236"/>
    <nd ref="29822928"/>
    <nd ref="344587720"/>
    <nd ref="344587721"/>
    <nd ref="344587722"/>
    <tag k="highway" v="primary"/>
    <tag k="maxspeed" v="60"/>
    <tag k="name" v="Mount Dandenong Road"/>
    <tag k="oneway" v="yes"/>
  </way>
  <way id="30991119" version="13" timestamp="2010-03-06T10:43:55Z" uid="46482" user="Leon K" changeset="4048624">
    <nd ref="26968397"/>
    <nd ref="524734694"/>
    <nd ref="281124765"/>
    <nd ref="661030929"/>
    <nd ref="661030940"/>
    <nd ref="661030930"/>
    <nd ref="448779230"/>
    <nd ref="281125014"/>
    <nd ref="30678224"/>
    <nd ref="281126236"/>
    <nd ref="29822928"/>
    <nd ref="344587720"/>
    <nd ref="344587721"/>
    <nd ref="344587722"/>
    <tag k="highway" v="primary"/>
    <tag k="maxspeed" v="60"/>
    <tag k="name" v="Mount Dandenong Road"/>
    <tag k="oneway" v="yes"/>
  </way>
  <way id="30991119" version="14" timestamp="2010-03-06T10:45:53Z" uid="46482" user="Leon K" changeset="4048624">
    <nd ref="26968397"/>
    <nd ref="661031472"/>
    <nd ref="524734694"/>
    <nd ref="281124765"/>
    <nd ref="661030929"/>
    <nd ref="661030940"/>
    <nd ref="661030930"/>
    <nd ref="448779230"/>
    <nd ref="281125014"/>
    <nd ref="30678224"/>
    <nd ref="281126236"/>
    <nd ref="29822928"/>
    <nd ref="344587720"/>
    <nd ref="344587721"/>
    <nd ref="344587722"/>
    <tag k="highway" v="primary"/>
    <tag k="maxspeed" v="60"/>
    <tag k="name" v="Mount Dandenong Road"/>
    <tag k="oneway" v="yes"/>
  </way>
  <way id="30991119" version="15" timestamp="2010-03-06T10:46:23Z" uid="46482" user="Leon K" changeset="4048624">
    <nd ref="26968397"/>
    <nd ref="661031472"/>
    <nd ref="524734694"/>
    <nd ref="281124765"/>
    <nd ref="661030929"/>
    <nd ref="661030940"/>
    <nd ref="661030930"/>
    <nd ref="448779230"/>
    <nd ref="281125014"/>
    <nd ref="661031552"/>
    <nd ref="30678224"/>
    <nd ref="281126236"/>
    <nd ref="29822928"/>
    <nd ref="344587720"/>
    <nd ref="344587721"/>
    <nd ref="344587722"/>
    <tag k="highway" v="primary"/>
    <tag k="maxspeed" v="60"/>
    <tag k="name" v="Mount Dandenong Road"/>
    <tag k="oneway" v="yes"/>
  </way>
  <way id="30991119" version="16" timestamp="2010-08-17T07:17:54Z" uid="4467" user="Rosscoe" changeset="5515084">
    <nd ref="26968397"/>
    <nd ref="864430013"/>
    <nd ref="661031472"/>
    <nd ref="524734694"/>
    <nd ref="281124765"/>
    <nd ref="661030929"/>
    <nd ref="661030940"/>
    <nd ref="661030930"/>
    <nd ref="448779230"/>
    <nd ref="281125014"/>
    <nd ref="661031552"/>
    <nd ref="30678224"/>
    <nd ref="281126236"/>
    <nd ref="29822928"/>
    <nd ref="344587720"/>
    <nd ref="344587721"/>
    <nd ref="344587722"/>
    <tag k="highway" v="primary"/>
    <tag k="maxspeed" v="60"/>
    <tag k="name" v="Mount Dandenong Road"/>
    <tag k="oneway" v="yes"/>
  </way>
  <way id="30991119" version="17" timestamp="2010-08-17T07:24:10Z" uid="4467" user="Rosscoe" changeset="5515107">
    <nd ref="26968397"/>
    <nd ref="864430013"/>
    <nd ref="661031472"/>
    <nd ref="524734694"/>
    <nd ref="281124765"/>
    <nd ref="661030929"/>
    <nd ref="661030940"/>
    <nd ref="661030930"/>
    <nd ref="448779230"/>
    <nd ref="281125014"/>
    <nd ref="661031552"/>
    <nd ref="30678224"/>
    <nd ref="281126236"/>
    <nd ref="29822928"/>
    <nd ref="344587720"/>
    <nd ref="344587721"/>
    <nd ref="344587722"/>
    <tag k="highway" v="primary"/>
    <tag k="maxspeed" v="60"/>
    <tag k="name" v="Mount Dandenong Road"/>
    <tag k="oneway" v="yes"/>
  </way>
  <way id="30991119" version="18" timestamp="2010-08-17T07:33:05Z" uid="4467" user="Rosscoe" changeset="5515151">
    <nd ref="26968397"/>
    <nd ref="864430013"/>
    <nd ref="661031472"/>
    <nd ref="524734694"/>
    <nd ref="281124765"/>
    <nd ref="661030929"/>
    <nd ref="661030940"/>
    <nd ref="661030930"/>
    <nd ref="448779230"/>
    <nd ref="281125014"/>
    <nd ref="661031552"/>
    <nd ref="30678224"/>
    <nd ref="281126236"/>
    <nd ref="29822928"/>
    <nd ref="344587720"/>
    <nd ref="344587721"/>
    <nd ref="344587722"/>
    <tag k="highway" v="primary"/>
    <tag k="maxspeed" v="60"/>
    <tag k="name" v="Mount Dandenong Road"/>
    <tag k="oneway" v="yes"/>
  </way>
  <way id="30991133" version="2" timestamp="2010-07-09T05:18:08Z" uid="74617" user="JohnSmith" changeset="5170986">
    <nd ref="344581260"/>
    <nd ref="344584191"/>
    <tag k="highway" v="residential"/>
    <tag k="maxspeed" v="50"/>
    <tag k="maxspeed:source" v="default residential speed limit in Australia"/>
    <tag k="name" v="Lawson Street"/>
    <tag k="source" v="Yahoo"/>
    <tag k="source:name" v="Collins 1936"/>
  </way>
  <way id="30991133" version="3" timestamp="2012-01-18T05:41:55Z" uid="147510" user="woodpeck_fixbot" changeset="10424371">
    <nd ref="344581260"/>
    <nd ref="344584191"/>
    <tag k="highway" v="residential"/>
    <tag k="name" v="Lawson Street"/>
    <tag k="source" v="Yahoo"/>
    <tag k="source:name" v="Collins 1936"/>
  </way>
  <way id="30991139" version="2" timestamp="2010-07-09T05:17:16Z" uid="74617" user="JohnSmith" changeset="5170986">
    <nd ref="344584194"/>
    <nd ref="344584210"/>
    <nd ref="344584211"/>
    <tag k="highway" v="residential"/>
    <tag k="maxspeed" v="50"/>
    <tag k="maxspeed:source" v="default residential speed limit in Australia"/>
    <tag k="name" v="Musk Street"/>
    <tag k="source" v="Yahoo"/>
    <tag k="source:name" v="Collins 1936"/>
  </way>
  <way id="30991139" version="3" timestamp="2012-01-18T05:41:56Z" uid="147510" user="woodpeck_fixbot" changeset="10424371">
    <nd ref="344584194"/>
    <nd ref="344584210"/>
    <nd ref="344584211"/>
    <tag k="highway" v="residential"/>
    <tag k="name" v="Musk Street"/>
    <tag k="source" v="Yahoo"/>
    <tag k="source:name" v="Collins 1936"/>
  </way>
  <way id="30991225" version="5" timestamp="2010-07-08T19:41:54Z" uid="74617" user="JohnSmith" changeset="5168688">
    <nd ref="344585266"/>
    <nd ref="344585065"/>
    <nd ref="344585166"/>
    <nd ref="344585267"/>
    <nd ref="344585268"/>
    <nd ref="455751017"/>
    <nd ref="344585269"/>
    <tag k="highway" v="residential"/>
    <tag k="maxspeed" v="50"/>
    <tag k="maxspeed:source" v="default residential speed limit in Australia"/>
    <tag k="name" v="Ross Road"/>
  </way>
  <way id="30991225" version="6" timestamp="2012-01-18T05:41:57Z" uid="147510" user="woodpeck_fixbot" changeset="10424371">
    <nd ref="344585266"/>
    <nd ref="344585065"/>
    <nd ref="344585166"/>
    <nd ref="344585267"/>
    <nd ref="344585268"/>
    <nd ref="455751017"/>
    <nd ref="344585269"/>
    <tag k="highway" v="residential"/>
    <tag k="name" v="Ross Road"/>
  </way>
  <way id="30991231" version="5" timestamp="2010-04-02T17:29:15Z" uid="20587" user="balrog-kun" changeset="4304500">
    <nd ref="48712526"/>
    <nd ref="257374383"/>
    <tag k="bridge" v="yes"/>
    <tag k="highway" v="residential"/>
    <tag k="layer" v="1"/>
    <tag k="name" v="Red Bridge Road"/>
    <tag k="tiger:cfcc" v="A41"/>
    <tag k="tiger:county" v="Kittitas, WA"/>
    <tag k="tiger:name_base" v="Red Bridge"/>
    <tag k="tiger:name_type" v="Rd"/>
    <tag k="tiger:reviewed" v="no"/>
    <tag k="tiger:separated" v="no"/>
    <tag k="tiger:source" v="tiger_import_dch_v0.6_20070830"/>
    <tag k="tiger:tlid" v="157199989:157200137:157222096:157199988:157226386:157226387:157200420:157222108"/>
    <tag k="tiger:zip_left" v="98922"/>
    <tag k="tiger:zip_right" v="98922"/>
  </way>
  <way id="30991234" version="2" timestamp="2010-04-02T17:29:16Z" uid="20587" user="balrog-kun" changeset="4304500">
    <nd ref="257374383"/>
    <nd ref="48712528"/>
    <nd ref="48712531"/>
    <nd ref="48712532"/>
    <nd ref="48712534"/>
    <nd ref="48712536"/>
    <nd ref="257374384"/>
    <nd ref="48712537"/>
    <nd ref="257374385"/>
    <nd ref="257374386"/>
    <nd ref="48712538"/>
    <nd ref="257374387"/>
    <nd ref="257374388"/>
    <nd ref="48712541"/>
    <nd ref="48712543"/>
    <nd ref="48712544"/>
    <nd ref="48712546"/>
    <nd ref="257374389"/>
    <nd ref="257374390"/>
    <nd ref="257374391"/>
    <nd ref="257374392"/>
    <nd ref="48712549"/>
    <nd ref="48712551"/>
    <nd ref="48634718"/>
    <nd ref="257374393"/>
    <nd ref="48712554"/>
    <nd ref="257374394"/>
    <nd ref="48712556"/>
    <nd ref="48609706"/>
    <nd ref="257373518"/>
    <nd ref="257373477"/>
    <nd ref="48712559"/>
    <nd ref="257373478"/>
    <nd ref="257373479"/>
    <nd ref="48712561"/>
    <nd ref="48712563"/>
    <nd ref="257373480"/>
    <nd ref="257373481"/>
    <nd ref="48712564"/>
    <nd ref="48712565"/>
    <nd ref="257373482"/>
    <nd ref="257373483"/>
    <nd ref="48712567"/>
    <nd ref="48712569"/>
    <nd ref="48712571"/>
    <nd ref="48712573"/>
    <nd ref="257373484"/>
    <nd ref="257373485"/>
    <nd ref="48712575"/>
    <nd ref="257373486"/>
    <nd ref="48712577"/>
    <nd ref="257373487"/>
    <nd ref="48712579"/>
    <nd ref="257373488"/>
    <nd ref="257373489"/>
    <nd ref="257373490"/>
    <nd ref="257373491"/>
    <nd ref="257373492"/>
    <nd ref="48712581"/>
    <nd ref="48712583"/>
    <nd ref="48712585"/>
    <tag k="created_by" v="Potlatch 0.10f"/>
    <tag k="highway" v="residential"/>
    <tag k="name" v="Red Bridge Road"/>
    <tag k="tiger:cfcc" v="A41"/>
    <tag k="tiger:county" v="Kittitas, WA"/>
    <tag k="tiger:name_base" v="Red Bridge"/>
    <tag k="tiger:name_type" v="Rd"/>
    <tag k="tiger:reviewed" v="no"/>
    <tag k="tiger:separated" v="no"/>
    <tag k="tiger:source" v="tiger_import_dch_v0.6_20070830"/>
    <tag k="tiger:tlid" v="157199989:157200137:157222096:157199988:157226386:157226387:157200420:157222108"/>
    <tag k="tiger:zip_left" v="98922"/>
    <tag k="tiger:zip_right" v="98922"/>
  </way>
  <way id="30991244" version="5" timestamp="2010-07-08T19:39:12Z" uid="74617" user="JohnSmith" changeset="5168688">
    <nd ref="344585340"/>
    <nd ref="552751757"/>
    <nd ref="344585312"/>
    <tag k="highway" v="residential"/>
    <tag k="maxspeed" v="50"/>
    <tag k="maxspeed:source" v="default residential speed limit in Australia"/>
    <tag k="name" v="Beaufort Road"/>
    <tag k="oneway" v="yes"/>
  </way>
  <way id="30991244" version="6" timestamp="2011-03-04T11:02:37Z" uid="4467" user="Rosscoe" changeset="7453371"/>
  <way id="30991245" version="4" timestamp="2011-03-04T11:02:35Z" uid="4467" user="Rosscoe" changeset="7453371">
    <nd ref="344585339"/>
    <nd ref="344585340"/>
    <nd ref="552751757"/>
    <nd ref="1185698398"/>
    <tag k="highway" v="residential"/>
    <tag k="maxspeed" v="50"/>
    <tag k="maxspeed:source" v="default residential speed limit in Australia"/>
    <tag k="name" v="Beaufort Road"/>
    <tag k="oneway" v="yes"/>
  </way>
  <way id="30991251" version="4" timestamp="2010-07-08T19:39:24Z" uid="74617" user="JohnSmith" changeset="5168688">
    <nd ref="344585307"/>
    <nd ref="344585356"/>
    <nd ref="344585462"/>
    <nd ref="344585463"/>
    <nd ref="344579816"/>
    <tag k="highway" v="residential"/>
    <tag k="maxspeed" v="50"/>
    <tag k="maxspeed:source" v="default residential speed limit in Australia"/>
    <tag k="name" v="Diana Street"/>
  </way>
  <way id="30991251" version="5" timestamp="2012-01-18T05:41:59Z" uid="147510" user="woodpeck_fixbot" changeset="10424371">
    <nd ref="344585307"/>
    <nd ref="344585356"/>
    <nd ref="344585462"/>
    <nd ref="344585463"/>
    <nd ref="344579816"/>
    <tag k="highway" v="residential"/>
    <tag k="name" v="Diana Street"/>
  </way>
  <way id="30991257" version="3" timestamp="2010-07-08T19:45:45Z" uid="74617" user="JohnSmith" changeset="5168688">
    <nd ref="344585301"/>
    <nd ref="344585269"/>
    <nd ref="344585384"/>
    <tag k="highway" v="residential"/>
    <tag k="maxspeed" v="50"/>
    <tag k="maxspeed:source" v="default residential speed limit in Australia"/>
    <tag k="name" v="Edith Avenue"/>
  </way>
  <way id="30991257" version="4" timestamp="2012-01-18T05:42:00Z" uid="147510" user="woodpeck_fixbot" changeset="10424371">
    <nd ref="344585301"/>
    <nd ref="344585269"/>
    <nd ref="344585384"/>
    <tag k="highway" v="residential"/>
    <tag k="name" v="Edith Avenue"/>
  </way>
  <way id="30991385" version="1" timestamp="2009-02-12T07:57:00Z" uid="20587" user="balrog-kun" changeset="366239">
    <nd ref="344587112"/>
    <nd ref="344587113"/>
    <nd ref="344587114"/>
    <nd ref="344587115"/>
    <tag k="highway" v="service"/>
  </way>
  <way id="30991386" version="1" timestamp="2009-02-12T07:57:00Z" uid="20587" user="balrog-kun" changeset="366239">
    <nd ref="344587117"/>
    <nd ref="344587118"/>
    <nd ref="344587119"/>
    <nd ref="344587120"/>
    <tag k="highway" v="living_street"/>
  </way>
  <way id="30991387" version="1" timestamp="2009-02-12T07:57:00Z" uid="20587" user="balrog-kun" changeset="366239">
    <nd ref="61225307"/>
    <nd ref="344587121"/>
    <nd ref="344587122"/>
    <nd ref="344587123"/>
    <tag k="highway" v="living_street"/>
  </way>
  <way id="30991388" version="1" timestamp="2009-02-12T07:57:00Z" uid="20587" user="balrog-kun" changeset="366239">
    <nd ref="344587124"/>
    <nd ref="344587125"/>
    <tag k="highway" v="service"/>
  </way>
  <way id="30991389" version="1" timestamp="2009-02-12T07:57:01Z" uid="20587" user="balrog-kun" changeset="366239">
    <nd ref="344583323"/>
    <nd ref="344587117"/>
    <nd ref="26405528"/>
    <nd ref="344587124"/>
    <nd ref="344587125"/>
    <nd ref="344587126"/>
    <nd ref="344583323"/>
    <tag k="landuse" v="retail"/>
  </way>
  <way id="30991390" version="1" timestamp="2009-02-12T07:57:01Z" uid="20587" user="balrog-kun" changeset="366239">
    <nd ref="344587131"/>
    <nd ref="344587132"/>
    <nd ref="344587134"/>
    <nd ref="344587133"/>
    <nd ref="344587131"/>
    <tag k="leisure" v="pitch"/>
  </way>
  <way id="30991391" version="1" timestamp="2009-02-12T07:57:01Z" uid="20587" user="balrog-kun" changeset="366239">
    <nd ref="344587135"/>
    <nd ref="344587137"/>
    <nd ref="344587138"/>
    <nd ref="344587136"/>
    <nd ref="344587135"/>
    <tag k="amenity" v="school"/>
  </way>
  <way id="30991392" version="1" timestamp="2009-02-12T07:57:01Z" uid="20587" user="balrog-kun" changeset="366239">
    <nd ref="344587139"/>
    <nd ref="344587140"/>
    <nd ref="344587142"/>
    <nd ref="344587141"/>
    <nd ref="344587139"/>
    <tag k="addr:housenumber" v="16"/>
    <tag k="addr:street" v="Gotarda"/>
    <tag k="building" v="yes"/>
    <tag k="building:levels" v="2"/>
    <tag k="name" v="Dom Kultury Kadr"/>
  </way>
  <way id="30991393" version="1" timestamp="2009-02-12T07:57:01Z" uid="20587" user="balrog-kun" changeset="366239">
    <nd ref="344587143"/>
    <nd ref="344587144"/>
    <nd ref="344587146"/>
    <nd ref="344587145"/>
    <nd ref="344587143"/>
    <tag k="amenity" v="parking"/>
  </way>
  <way id="30991394" version="1" timestamp="2009-02-12T07:57:02Z" uid="20587" user="balrog-kun" changeset="366239">
    <nd ref="344587202"/>
    <nd ref="344587209"/>
    <nd ref="344587221"/>
    <nd ref="344587222"/>
    <nd ref="344587223"/>
    <nd ref="344587224"/>
    <nd ref="344587225"/>
    <nd ref="344587226"/>
    <nd ref="344587214"/>
    <nd ref="344587202"/>
    <tag k="amenity" v="parking"/>
  </way>
  <way id="30991395" version="1" timestamp="2009-02-12T07:57:02Z" uid="20587" user="balrog-kun" changeset="366239">
    <nd ref="344587228"/>
    <nd ref="344587229"/>
    <nd ref="344587230"/>
    <nd ref="344587231"/>
    <nd ref="344587232"/>
    <nd ref="344587233"/>
    <nd ref="344587234"/>
    <nd ref="344587235"/>
    <nd ref="344587236"/>
    <nd ref="344587237"/>
    <nd ref="344587239"/>
    <nd ref="344587228"/>
    <tag k="amenity" v="parking"/>
  </way>
  <way id="30991396" version="1" timestamp="2009-02-12T07:57:02Z" uid="20587" user="balrog-kun" changeset="366239">
    <nd ref="344587241"/>
    <nd ref="344587242"/>
    <nd ref="344587244"/>
    <nd ref="344587255"/>
    <nd ref="344587256"/>
    <nd ref="344587246"/>
    <nd ref="344587248"/>
    <nd ref="344587249"/>
    <nd ref="344587251"/>
    <nd ref="344587252"/>
    <nd ref="344587250"/>
    <nd ref="344587247"/>
    <nd ref="344587245"/>
    <nd ref="344587253"/>
    <nd ref="344587254"/>
    <nd ref="344587243"/>
    <nd ref="344587241"/>
    <tag k="addr:housenumber" v="35"/>
    <tag k="addr:street" v="Wincentego Rzymowskiego"/>
    <tag k="building" v="yes"/>
  </way>
  <way id="30991397" version="1" timestamp="2009-02-12T07:57:02Z" uid="20587" user="balrog-kun" changeset="366239">
    <nd ref="344587258"/>
    <nd ref="344587260"/>
    <nd ref="344587261"/>
    <nd ref="344587259"/>
    <nd ref="344587258"/>
    <tag k="addr:housenumber" v="37"/>
    <tag k="addr:street" v="Wincentego Rzymowskiego"/>
    <tag k="building" v="yes"/>
    <tag k="building:levels" v="2"/>
    <tag k="name" v="Cukiernia Antolak"/>
  </way>
  <way id="30991398" version="1" timestamp="2009-02-12T07:57:03Z" uid="20587" user="balrog-kun" changeset="366239">
    <nd ref="344587262"/>
    <nd ref="344587263"/>
    <nd ref="344587264"/>
    <nd ref="344587265"/>
    <nd ref="344587266"/>
    <nd ref="344587267"/>
    <nd ref="344587268"/>
    <tag k="highway" v="service"/>
  </way>
  <way id="30991398" version="2" timestamp="2009-02-20T10:18:40Z" uid="59223" user="Briquollo" changeset="571257">
    <nd ref="344587262"/>
    <nd ref="344587264"/>
    <nd ref="344587265"/>
    <nd ref="344587268"/>
    <tag k="highway" v="service"/>
  </way>
  <way id="30991398" version="3" timestamp="2011-11-16T09:24:30Z" uid="550476" user="fishcrosser" changeset="9842483">
    <nd ref="344587262"/>
    <nd ref="344587264"/>
    <nd ref="344587265"/>
    <nd ref="1504938295"/>
    <nd ref="344587268"/>
    <tag k="highway" v="service"/>
  </way>
  <way id="30991399" version="1" timestamp="2009-02-12T07:57:03Z" uid="20587" user="balrog-kun" changeset="366239">
    <nd ref="344587278"/>
    <nd ref="344587279"/>
    <nd ref="344587280"/>
    <nd ref="344587281"/>
    <nd ref="344587282"/>
    <nd ref="344587283"/>
    <nd ref="344587284"/>
    <nd ref="344587285"/>
    <nd ref="344587286"/>
    <nd ref="344587287"/>
    <nd ref="344587288"/>
    <nd ref="344587289"/>
    <nd ref="344587290"/>
    <nd ref="344587291"/>
    <nd ref="344587292"/>
    <nd ref="344587293"/>
    <nd ref="344587294"/>
    <nd ref="344587295"/>
    <nd ref="344587272"/>
    <nd ref="344587273"/>
    <nd ref="344587274"/>
    <nd ref="344587296"/>
    <nd ref="344587275"/>
    <nd ref="344587276"/>
    <nd ref="344587277"/>
    <nd ref="344587278"/>
    <tag k="addr:housenumber" v="69"/>
    <tag k="addr:street" v="Aleja Niepodległości"/>
    <tag k="building" v="yes"/>
    <tag k="building:levels" v="10"/>
    <tag k="name" v="BTC Metro"/>
    <tag k="operator" v="GTS Energis"/>
  </way>
  <way id="30991399" version="2" timestamp="2009-12-23T20:04:30Z" uid="52087" user="kocio" changeset="3437045">
    <nd ref="344587278"/>
    <nd ref="344587279"/>
    <nd ref="344587280"/>
    <nd ref="344587281"/>
    <nd ref="344587282"/>
    <nd ref="344587283"/>
    <nd ref="344587284"/>
    <nd ref="344587285"/>
    <nd ref="344587286"/>
    <nd ref="344587287"/>
    <nd ref="344587288"/>
    <nd ref="344587289"/>
    <nd ref="344587290"/>
    <nd ref="344587291"/>
    <nd ref="344587292"/>
    <nd ref="344587293"/>
    <nd ref="344587294"/>
    <nd ref="344587295"/>
    <nd ref="598668124"/>
    <nd ref="344587272"/>
    <nd ref="344587273"/>
    <nd ref="344587274"/>
    <nd ref="344587296"/>
    <nd ref="344587275"/>
    <nd ref="344587276"/>
    <nd ref="344587277"/>
    <nd ref="344587278"/>
    <tag k="addr:housenumber" v="69"/>
    <tag k="addr:street" v="Aleja Niepodległości"/>
    <tag k="building" v="yes"/>
    <tag k="building:levels" v="10"/>
    <tag k="name" v="BTC Metro"/>
    <tag k="operator" v="GTS Energis"/>
  </way>
  <way id="30991400" version="1" timestamp="2009-02-12T07:57:03Z" uid="20587" user="balrog-kun" changeset="366239">
    <nd ref="344587303"/>
    <nd ref="344587315"/>
    <nd ref="344587317"/>
    <nd ref="344587304"/>
    <nd ref="344587303"/>
    <tag k="amenity" v="parking"/>
  </way>
  <way id="30991401" version="1" timestamp="2009-02-12T07:57:04Z" uid="20587" user="balrog-kun" changeset="366239">
    <nd ref="344587305"/>
    <nd ref="344587311"/>
    <nd ref="344587313"/>
    <nd ref="344587328"/>
    <nd ref="344587306"/>
    <nd ref="344587305"/>
    <tag k="amenity" v="parking"/>
  </way>
  <way id="30991402" version="1" timestamp="2009-02-12T07:57:04Z" uid="20587" user="balrog-kun" changeset="366239">
    <nd ref="344587307"/>
    <nd ref="344587324"/>
    <nd ref="344587309"/>
    <nd ref="344587310"/>
    <nd ref="344587308"/>
    <nd ref="344587307"/>
    <tag k="amenity" v="parking"/>
  </way>
  <way id="30991403" version="1" timestamp="2009-02-12T07:57:04Z" uid="20587" user="balrog-kun" changeset="366239">
    <nd ref="344587320"/>
    <nd ref="344587322"/>
    <nd ref="344587323"/>
    <nd ref="344587324"/>
    <nd ref="344587325"/>
    <nd ref="344587326"/>
    <nd ref="344587327"/>
    <nd ref="344587328"/>
    <nd ref="344587329"/>
    <tag k="highway" v="service"/>
  </way>
  <way id="30991404" version="1" timestamp="2009-02-12T07:57:04Z" uid="20587" user="balrog-kun" changeset="366239">
    <nd ref="344587337"/>
    <nd ref="344587338"/>
    <nd ref="344587339"/>
    <nd ref="344587340"/>
    <nd ref="344587341"/>
    <nd ref="344587342"/>
    <nd ref="344587337"/>
    <tag k="amenity" v="school"/>
  </way>
  <way id="30991404" version="2" timestamp="2009-05-24T20:16:18Z" uid="20587" user="balrog-kun" changeset="1310894">
    <nd ref="344587337"/>
    <nd ref="344587338"/>
    <nd ref="344587339"/>
    <nd ref="344587340"/>
    <nd ref="344587341"/>
    <nd ref="344587342"/>
    <nd ref="344587337"/>
    <tag k="amenity" v="school"/>
    <tag k="name" v="Centrum Kształcenia Nauczycieli"/>
  </way>
  <way id="30991405" version="1" timestamp="2009-02-12T07:57:05Z" uid="20587" user="balrog-kun" changeset="366239">
    <nd ref="26206617"/>
    <nd ref="344587346"/>
    <nd ref="344587345"/>
    <nd ref="344587344"/>
    <nd ref="344587343"/>
    <tag k="created_by" v="JOSM"/>
    <tag k="highway" v="residential"/>
    <tag k="name" v="Zygmunta Modzelewskiego"/>
    <tag k="oneway" v="yes"/>
  </way>
  <way id="30991405" version="2" timestamp="2009-06-21T10:00:38Z" uid="20587" user="balrog-kun" changeset="1581238">
    <nd ref="26206617"/>
    <nd ref="344587346"/>
    <nd ref="344587345"/>
    <nd ref="344587344"/>
    <nd ref="344587343"/>
    <tag k="created_by" v="JOSM"/>
    <tag k="highway" v="residential"/>
    <tag k="name" v="Wincentego Rzymowskiego"/>
    <tag k="oneway" v="yes"/>
  </way>
  <way id="30991405" version="3" timestamp="2011-07-27T22:32:02Z" uid="100448" user="kietlak" changeset="8849903">
    <nd ref="26206617"/>
    <nd ref="344587346"/>
    <nd ref="344587345"/>
    <nd ref="344587344"/>
    <nd ref="344587343"/>
    <tag k="highway" v="residential"/>
    <tag k="name" v="Antoniego Pallutha"/>
    <tag k="oneway" v="yes"/>
  </way>
  <way id="30991405" version="4" timestamp="2012-01-01T12:20:32Z" uid="359526" user="arturek" changeset="10260832"/>
  <way id="30991406" version="1" timestamp="2009-02-12T07:57:05Z" uid="20587" user="balrog-kun" changeset="366239">
    <nd ref="344587343"/>
    <nd ref="344587347"/>
    <nd ref="344587348"/>
    <nd ref="344587349"/>
    <nd ref="344587350"/>
    <nd ref="344587351"/>
    <tag k="created_by" v="JOSM"/>
    <tag k="highway" v="residential"/>
    <tag k="name" v="Zygmunta Modzelewskiego"/>
    <tag k="oneway" v="yes"/>
  </way>
  <way id="30991406" version="2" timestamp="2009-06-21T10:00:38Z" uid="20587" user="balrog-kun" changeset="1581238">
    <nd ref="344587343"/>
    <nd ref="344587347"/>
    <nd ref="344587348"/>
    <nd ref="344587349"/>
    <nd ref="344587350"/>
    <nd ref="344587351"/>
    <tag k="created_by" v="JOSM"/>
    <tag k="highway" v="residential"/>
    <tag k="name" v="Wincentego Rzymowskiego"/>
    <tag k="oneway" v="yes"/>
  </way>
  <way id="30991406" version="3" timestamp="2011-07-27T22:32:02Z" uid="100448" user="kietlak" changeset="8849903">
    <nd ref="344587343"/>
    <nd ref="344587347"/>
    <nd ref="344587348"/>
    <nd ref="344587349"/>
    <nd ref="344587350"/>
    <nd ref="344587351"/>
    <tag k="highway" v="residential"/>
    <tag k="name" v="Antoniego Pallutha"/>
    <tag k="oneway" v="yes"/>
  </way>
  <way id="30991406" version="4" timestamp="2012-01-01T12:20:31Z" uid="359526" user="arturek" changeset="10260832">
    <nd ref="344587343"/>
    <nd ref="344587347"/>
    <nd ref="344587348"/>
    <nd ref="344587349"/>
    <nd ref="344587350"/>
    <tag k="highway" v="residential"/>
    <tag k="name" v="Antoniego Pallutha"/>
    <tag k="oneway" v="yes"/>
  </way>
  <way id="30991459" version="3" timestamp="2009-10-04T00:12:57Z" uid="20587" user="balrog-kun" changeset="2730731">
    <nd ref="344588104"/>
    <nd ref="344588105"/>
    <nd ref="344588106"/>
    <nd ref="344588107"/>
    <nd ref="344588108"/>
    <nd ref="344588109"/>
    <nd ref="344588110"/>
    <nd ref="344588111"/>
    <nd ref="344588112"/>
    <nd ref="344588113"/>
    <nd ref="344588114"/>
    <nd ref="344588115"/>
    <nd ref="344588116"/>
    <nd ref="344588117"/>
    <nd ref="344588104"/>
    <tag k="building" v="yes"/>
    <tag k="name" v="Tesco"/>
    <tag k="operator" v="Tesco"/>
    <tag k="shop" v="mall"/>
  </way>
  <way id="30991459" version="4" timestamp="2010-09-18T16:27:54Z" uid="98542" user="wajak" changeset="5813032">
    <nd ref="344588104"/>
    <nd ref="344588105"/>
    <nd ref="344588106"/>
    <nd ref="344588108"/>
    <nd ref="344588109"/>
    <nd ref="344588110"/>
    <nd ref="344588111"/>
    <nd ref="344588112"/>
    <nd ref="344588113"/>
    <nd ref="344588114"/>
    <nd ref="344588115"/>
    <nd ref="344588116"/>
    <nd ref="344588117"/>
    <nd ref="344588104"/>
    <tag k="building" v="yes"/>
    <tag k="name" v="Tesco"/>
    <tag k="operator" v="Tesco"/>
    <tag k="shop" v="mall"/>
  </way>
  <way id="30991459" version="5" timestamp="2010-12-03T07:55:04Z" uid="98542" user="wajak" changeset="6523093">
    <nd ref="344588104"/>
    <nd ref="344588105"/>
    <nd ref="344588106"/>
    <nd ref="1017733824"/>
    <nd ref="1017733826"/>
    <nd ref="344588109"/>
    <nd ref="344588110"/>
    <nd ref="344588111"/>
    <nd ref="344588112"/>
    <nd ref="344588113"/>
    <nd ref="344588114"/>
    <nd ref="344588115"/>
    <nd ref="344588116"/>
    <nd ref="344588117"/>
    <nd ref="344588104"/>
    <tag k="building" v="yes"/>
    <tag k="name" v="Tesco"/>
    <tag k="operator" v="Tesco"/>
    <tag k="shop" v="mall"/>
  </way>
  <way id="30991459" version="6" timestamp="2010-12-03T08:37:46Z" uid="98542" user="wajak" changeset="6523438">
    <nd ref="344588104"/>
    <nd ref="344588105"/>
    <nd ref="344588106"/>
    <nd ref="1017733824"/>
    <nd ref="1017783357"/>
    <nd ref="1017733826"/>
    <nd ref="344588109"/>
    <nd ref="344588110"/>
    <nd ref="344588111"/>
    <nd ref="344588112"/>
    <nd ref="344588113"/>
    <nd ref="344588115"/>
    <nd ref="344588116"/>
    <nd ref="344588117"/>
    <nd ref="344588104"/>
    <tag k="building" v="yes"/>
    <tag k="name" v="Tesco"/>
    <tag k="operator" v="Tesco"/>
    <tag k="shop" v="mall"/>
  </way>
  <way id="30991459" version="7" timestamp="2010-12-23T18:41:10Z" uid="98542" user="wajak" changeset="6748369">
    <nd ref="344588104"/>
    <nd ref="344588105"/>
    <nd ref="344588106"/>
    <nd ref="1017733824"/>
    <nd ref="1017783357"/>
    <nd ref="1017733826"/>
    <nd ref="344588109"/>
    <nd ref="344588110"/>
    <nd ref="344588111"/>
    <nd ref="344588112"/>
    <nd ref="344588113"/>
    <nd ref="344588115"/>
    <nd ref="344588116"/>
    <nd ref="344588117"/>
    <nd ref="344588104"/>
    <tag k="addr:city" v="Piastów"/>
    <tag k="addr:country" v="PL"/>
    <tag k="addr:housenumber" v="7"/>
    <tag k="addr:postcode" v="05-820"/>
    <tag k="addr:street" v="Aleja Tysiąclecia"/>
    <tag k="building" v="yes"/>
    <tag k="name" v="Tesco"/>
    <tag k="operator" v="Tesco"/>
    <tag k="shop" v="mall"/>
  </way>
  <way id="30991459" version="8" timestamp="2011-04-25T08:41:10Z" uid="243642" user="krzysiek" changeset="7960621">
    <nd ref="344588104"/>
    <nd ref="344588105"/>
    <nd ref="344588106"/>
    <nd ref="1017733824"/>
    <nd ref="1017783357"/>
    <nd ref="1017733826"/>
    <nd ref="344588109"/>
    <nd ref="344588110"/>
    <nd ref="344588111"/>
    <nd ref="344588112"/>
    <nd ref="344588113"/>
    <nd ref="344588115"/>
    <nd ref="344588116"/>
    <nd ref="344588117"/>
    <nd ref="344588104"/>
    <tag k="addr:city" v="Piastów"/>
    <tag k="addr:country" v="PL"/>
    <tag k="addr:housenumber" v="7"/>
    <tag k="addr:postcode" v="05-820"/>
    <tag k="addr:street" v="Aleja Tysiąclecia"/>
    <tag k="amenity" v="shop"/>
    <tag k="building" v="yes"/>
    <tag k="name" v="Tesco"/>
    <tag k="operator" v="Tesco"/>
    <tag k="shop" v="mall"/>
  </way>
  <way id="30991477" version="3" timestamp="2009-10-04T00:12:56Z" uid="20587" user="balrog-kun" changeset="2730731">
    <nd ref="344589046"/>
    <nd ref="344589053"/>
    <tag k="highway" v="service"/>
    <tag k="service" v="parking_aisle"/>
  </way>
  <way id="30991477" version="4" timestamp="2010-12-18T18:57:05Z" uid="98542" user="wajak" changeset="6699187">
    <nd ref="344589046"/>
    <nd ref="1045803368"/>
    <nd ref="1045803374"/>
    <nd ref="344589053"/>
    <tag k="highway" v="service"/>
    <tag k="oneway" v="yes"/>
    <tag k="service" v="parking_aisle"/>
  </way>
  <way id="30991477" version="5" timestamp="2010-12-21T20:27:28Z" uid="98542" user="wajak" changeset="6729852">
    <nd ref="777385044"/>
    <nd ref="344589046"/>
    <nd ref="1045803368"/>
    <nd ref="1045803374"/>
    <nd ref="344589053"/>
    <tag k="highway" v="service"/>
    <tag k="oneway" v="yes"/>
    <tag k="service" v="driveway"/>
  </way>
  <way id="30991477" version="6" timestamp="2011-01-07T07:58:48Z" uid="98542" user="wajak" changeset="6889984">
    <nd ref="777385044"/>
    <nd ref="344589046"/>
    <nd ref="1087912384"/>
    <nd ref="1045803374"/>
    <nd ref="344589053"/>
    <tag k="highway" v="service"/>
    <tag k="oneway" v="yes"/>
    <tag k="service" v="driveway"/>
  </way>
  <way id="30991527" version="1" timestamp="2009-02-12T08:14:26Z" uid="20587" user="balrog-kun" changeset="366239">
    <nd ref="320069170"/>
    <nd ref="320069143"/>
    <nd ref="320069149"/>
    <tag k="highway" v="residential"/>
    <tag k="name" v="Władysława Reymonta"/>
  </way>
  <way id="30991528" version="1" timestamp="2009-02-12T08:14:26Z" uid="20587" user="balrog-kun" changeset="366239">
    <nd ref="344589616"/>
    <nd ref="344589617"/>
    <nd ref="344589619"/>
    <nd ref="344589620"/>
    <tag k="highway" v="residential"/>
    <tag k="name" v="Jana III Sobieskiego"/>
  </way>
  <way id="30991529" version="1" timestamp="2009-02-12T08:14:26Z" uid="20587" user="balrog-kun" changeset="366239">
    <nd ref="344589625"/>
    <nd ref="344589626"/>
    <nd ref="344589627"/>
    <nd ref="344589628"/>
    <nd ref="344589629"/>
    <nd ref="344589630"/>
    <nd ref="344589625"/>
    <tag k="amenity" v="grave_yard"/>
    <tag k="name" v="Cmentarz Żydowski"/>
  </way>
  <way id="30991529" version="2" timestamp="2009-10-20T22:45:44Z" uid="20587" user="balrog-kun" changeset="2908055">
    <nd ref="344589625"/>
    <nd ref="344589626"/>
    <nd ref="344589627"/>
    <nd ref="344589628"/>
    <nd ref="344589629"/>
    <nd ref="344589630"/>
    <nd ref="344589625"/>
    <tag k="amenity" v="grave_yard"/>
    <tag k="name" v="Cmentarz Żydowski"/>
    <tag k="relation" v="jewish"/>
  </way>
  <way id="30991529" version="3" timestamp="2009-10-31T22:50:05Z" uid="20587" user="balrog-kun" changeset="3002253">
    <nd ref="344589625"/>
    <nd ref="344589626"/>
    <nd ref="344589627"/>
    <nd ref="344589628"/>
    <nd ref="344589629"/>
    <nd ref="344589630"/>
    <nd ref="344589625"/>
    <tag k="amenity" v="grave_yard"/>
    <tag k="name" v="Cmentarz Żydowski"/>
    <tag k="religion" v="jewish"/>
  </way>
  <way id="30991530" version="1" timestamp="2009-02-12T08:14:27Z" uid="20587" user="balrog-kun" changeset="366239">
    <nd ref="344589631"/>
    <nd ref="344589632"/>
    <nd ref="344589634"/>
    <nd ref="344589633"/>
    <nd ref="344589631"/>
    <tag k="addr:housenumber" v="5"/>
    <tag k="addr:street" v="Juliana Tuwima"/>
    <tag k="building" v="residential"/>
  </way>
  <way id="30991531" version="1" timestamp="2009-02-12T08:14:27Z" uid="20587" user="balrog-kun" changeset="366239">
    <nd ref="344589637"/>
    <nd ref="344589638"/>
    <nd ref="344589639"/>
    <nd ref="344589636"/>
    <nd ref="344589637"/>
    <tag k="addr:housenumber" v="6"/>
    <tag k="addr:street" v="Juliana Tuwima"/>
    <tag k="building" v="residential"/>
  </way>
  <way id="30991532" version="1" timestamp="2009-02-12T08:14:27Z" uid="20587" user="balrog-kun" changeset="366239">
    <nd ref="344589642"/>
    <nd ref="344589643"/>
    <nd ref="344589641"/>
    <nd ref="344589644"/>
    <nd ref="344589642"/>
    <tag k="addr:housenumber" v="3"/>
    <tag k="addr:street" v="Juliana Tuwima"/>
    <tag k="building" v="residential"/>
  </way>
  <way id="30991533" version="1" timestamp="2009-02-12T08:14:28Z" uid="20587" user="balrog-kun" changeset="366239">
    <nd ref="344589648"/>
    <nd ref="344589645"/>
    <nd ref="344589646"/>
    <nd ref="344589647"/>
    <nd ref="344589648"/>
    <tag k="addr:housenumber" v="4"/>
    <tag k="addr:street" v="Juliana Tuwima"/>
    <tag k="building" v="residential"/>
  </way>
  <way id="30991629" version="1" timestamp="2009-02-12T08:22:54Z" uid="20587" user="balrog-kun" changeset="366239">
    <nd ref="344590637"/>
    <nd ref="344590638"/>
    <tag k="addr:interpolation" v="odd"/>
  </way>
  <way id="30991631" version="1" timestamp="2009-02-12T08:22:55Z" uid="20587" user="balrog-kun" changeset="366239">
    <nd ref="344590673"/>
    <nd ref="344590682"/>
    <tag k="addr:interpolation" v="even"/>
  </way>
  <way id="30991631" version="2" timestamp="2009-04-15T16:42:50Z" uid="20587" user="balrog-kun" changeset="561631"/>
  <way id="30991682" version="2" timestamp="2009-06-08T09:44:20Z" uid="18775" user="drlizau" changeset="1456883">
    <nd ref="344591206"/>
    <nd ref="344591207"/>
    <nd ref="344591208"/>
    <nd ref="344591209"/>
    <nd ref="344591210"/>
    <nd ref="344591211"/>
    <nd ref="344591212"/>
    <nd ref="344591213"/>
    <nd ref="344591214"/>
    <nd ref="344591216"/>
    <nd ref="344591217"/>
    <nd ref="344591219"/>
    <nd ref="344591221"/>
    <nd ref="344591223"/>
    <nd ref="344591224"/>
    <nd ref="344591225"/>
    <nd ref="344591226"/>
    <nd ref="344591227"/>
    <nd ref="344591228"/>
    <nd ref="344591229"/>
    <tag k="highway" v="unclassified"/>
    <tag k="name" v="Yamma Road"/>
  </way>
  <way id="30991682" version="3" timestamp="2009-07-05T01:05:32Z" uid="19626" user="Swamp" changeset="1734643">
    <nd ref="344591206"/>
    <nd ref="344591207"/>
    <nd ref="344591208"/>
    <nd ref="344591209"/>
    <nd ref="344591210"/>
    <nd ref="344591211"/>
    <nd ref="344591212"/>
    <nd ref="344591213"/>
    <nd ref="344591214"/>
    <nd ref="344591216"/>
    <nd ref="344591217"/>
    <nd ref="344591219"/>
    <nd ref="344591221"/>
    <nd ref="344591223"/>
    <nd ref="344591224"/>
    <nd ref="344591225"/>
    <nd ref="344591226"/>
    <nd ref="344591227"/>
    <nd ref="434271984"/>
    <nd ref="344591228"/>
    <nd ref="344591229"/>
    <tag k="highway" v="unclassified"/>
    <tag k="name" v="Yamma Road"/>
  </way>
  <way id="30991682" version="4" timestamp="2009-07-05T01:37:21Z" uid="19626" user="Swamp" changeset="1734699">
    <nd ref="344591206"/>
    <nd ref="344591207"/>
    <nd ref="344591208"/>
    <nd ref="344591209"/>
    <nd ref="344591210"/>
    <nd ref="344591211"/>
    <nd ref="344591212"/>
    <nd ref="344591213"/>
    <nd ref="344591214"/>
    <nd ref="344591216"/>
    <nd ref="344591217"/>
    <nd ref="344591219"/>
    <nd ref="344591221"/>
    <nd ref="344591223"/>
    <nd ref="344591224"/>
    <nd ref="344591225"/>
    <nd ref="344591226"/>
    <nd ref="344591227"/>
    <nd ref="434271984"/>
    <nd ref="434281055"/>
    <nd ref="344591228"/>
    <nd ref="434281059"/>
    <nd ref="344591229"/>
    <tag k="highway" v="unclassified"/>
    <tag k="name" v="Yamma Road"/>
  </way>
  <way id="30991682" version="5" timestamp="2009-07-05T01:53:42Z" uid="19626" user="Swamp" changeset="1734741">
    <nd ref="344591206"/>
    <nd ref="344591207"/>
    <nd ref="344591208"/>
    <nd ref="344591209"/>
    <nd ref="344591210"/>
    <nd ref="344591211"/>
    <nd ref="344591212"/>
    <nd ref="344591213"/>
    <nd ref="344591214"/>
    <nd ref="344591216"/>
    <nd ref="344591217"/>
    <nd ref="344591219"/>
    <nd ref="344591221"/>
    <nd ref="344591223"/>
    <nd ref="344591224"/>
    <nd ref="344591225"/>
    <nd ref="344591226"/>
    <nd ref="344591227"/>
    <nd ref="434271984"/>
    <nd ref="434283494"/>
    <tag k="highway" v="unclassified"/>
    <tag k="name" v="Yamma Road"/>
  </way>
  <way id="30991682" version="6" timestamp="2009-07-11T07:48:21Z" uid="18775" user="drlizau" changeset="1794829">
    <nd ref="344591206"/>
    <nd ref="344591207"/>
    <nd ref="344591208"/>
    <nd ref="344591209"/>
    <nd ref="344591210"/>
    <nd ref="344591211"/>
    <nd ref="344591212"/>
    <nd ref="344591213"/>
    <nd ref="344591214"/>
    <nd ref="344591216"/>
    <nd ref="344591217"/>
    <nd ref="344591219"/>
    <nd ref="344591221"/>
    <nd ref="344591223"/>
    <nd ref="344591224"/>
    <nd ref="344591225"/>
    <nd ref="344591226"/>
    <nd ref="344591227"/>
    <nd ref="434271984"/>
    <nd ref="434283494"/>
    <tag k="highway" v="tertiary"/>
    <tag k="name" v="Yamma Road"/>
  </way>
  <way id="30991703" version="2" timestamp="2009-07-05T01:05:32Z" uid="19626" user="Swamp" changeset="1734643">
    <nd ref="434271899"/>
    <nd ref="434271898"/>
    <nd ref="434271897"/>
    <nd ref="434271895"/>
    <nd ref="344591350"/>
    <nd ref="344591351"/>
    <nd ref="344591352"/>
    <nd ref="344591354"/>
    <nd ref="344591355"/>
    <nd ref="434271894"/>
    <nd ref="344591356"/>
    <nd ref="344591357"/>
    <nd ref="344591358"/>
    <nd ref="344591206"/>
    <tag k="created_by" v="Potlatch 0.10f"/>
    <tag k="highway" v="unclassified"/>
  </way>
  <way id="30991786" version="1" timestamp="2009-02-12T08:31:25Z" uid="20587" user="balrog-kun" changeset="366239">
    <nd ref="311520999"/>
    <nd ref="344591907"/>
    <tag k="highway" v="track"/>
    <tag k="name" v="Blasku Księżyca"/>
  </way>
  <way id="30991788" version="1" timestamp="2009-02-12T08:31:25Z" uid="20587" user="balrog-kun" changeset="366239">
    <nd ref="344591908"/>
    <nd ref="344591909"/>
    <tag k="highway" v="residential"/>
    <tag k="name" v="Białej Róży"/>
  </way>
  <way id="30991010" version="11" timestamp="2012-04-21T11:31:47Z" uid="35468" user="Blunauer" changeset="11372756">
    <nd ref="14892149"/>
    <nd ref="1149592853"/>
    <nd ref="21498829"/>
    <nd ref="1725225421"/>
    <nd ref="1133166056"/>
    <nd ref="278070632"/>
    <tag k="highway" v="secondary"/>
    <tag k="lanes" v="2"/>
    <tag k="maxspeed" v="50"/>
    <tag k="name" v="Kapellenstraße"/>
    <tag k="oneway" v="no"/>
    <tag k="source:maxspeed" v="DE:urban"/>
  </way>
  <way id="30991010" version="12" timestamp="2012-07-17T13:29:39Z" uid="722137" user="OSMF Redaction Account" changeset="12266545">
    <nd ref="14892149"/>
    <nd ref="1149592853"/>
    <nd ref="21498829"/>
    <nd ref="1725225421"/>
    <tag k="highway" v="secondary"/>
    <tag k="lanes" v="2"/>
    <tag k="maxspeed" v="50"/>
    <tag k="oneway" v="no"/>
    <tag k="source:maxspeed" v="DE:urban"/>
  </way>
  <way id="30991010" version="13" timestamp="2012-07-17T17:11:29Z" uid="42208" user="JanTH" changeset="12267174">
    <nd ref="14892149"/>
    <nd ref="1149592853"/>
    <nd ref="21498829"/>
    <nd ref="1725225421"/>
    <tag k="highway" v="secondary"/>
    <tag k="lanes" v="2"/>
    <tag k="maxspeed" v="50"/>
    <tag k="name" v="Kapellenstraße"/>
    <tag k="oneway" v="no"/>
    <tag k="source:maxspeed" v="DE:urban"/>
  </way>
  <way id="30991010" version="14" timestamp="2012-09-10T13:52:31Z" uid="165061" user="mapper999" changeset="13057271">
    <nd ref="14892149"/>
    <nd ref="1149592853"/>
    <nd ref="21498829"/>
    <tag k="highway" v="secondary"/>
    <tag k="lanes" v="2"/>
    <tag k="maxspeed" v="50"/>
    <tag k="name" v="Kapellenstraße"/>
    <tag k="oneway" v="no"/>
    <tag k="source:maxspeed" v="DE:urban"/>
  </way>
  <way id="30991011" version="8" timestamp="2012-07-17T14:53:14Z" uid="722137" user="OSMF Redaction Account" changeset="12267763">
    <nd ref="412335"/>
    <nd ref="1126475748"/>
    <nd ref="1126475633"/>
    <nd ref="412334"/>
    <nd ref="1464989421"/>
    <nd ref="1464989422"/>
    <nd ref="1127997634"/>
    <tag k="highway" v="trunk"/>
    <tag k="lanes" v="3"/>
    <tag k="lanes:through" v="2"/>
    <tag k="lanes:turnright" v="2"/>
    <tag k="maxspeed" v="80"/>
    <tag k="name" v="Südtangente"/>
    <tag k="oneway" v="yes"/>
    <tag k="ref" v="B 10;B 36"/>
  </way>
  <way id="30991011" version="9" timestamp="2012-08-07T09:26:54Z" uid="747709" user="synyx" changeset="12642963">
    <nd ref="412335"/>
    <nd ref="1126475748"/>
    <nd ref="1126475633"/>
    <nd ref="412334"/>
    <nd ref="1464989421"/>
    <nd ref="1464989422"/>
    <nd ref="1127997634"/>
    <tag k="highway" v="trunk"/>
    <tag k="lanes" v="3"/>
    <tag k="lanes:through" v="2"/>
    <tag k="lanes:turnright" v="2"/>
    <tag k="maxspeed" v="80"/>
    <tag k="name" v="Südtangente"/>
    <tag k="oneway" v="yes"/>
    <tag k="ref" v="B 10;B 36"/>
    <tag k="toll:N3" v="yes"/>
  </way>
  <way id="30991013" version="8" timestamp="2012-07-17T14:51:47Z" uid="722137" user="OSMF Redaction Account" changeset="12267710">
    <nd ref="26470133"/>
    <nd ref="1126475618"/>
    <nd ref="26470134"/>
    <nd ref="26470135"/>
    <nd ref="26470136"/>
    <tag k="bridge" v="yes"/>
    <tag k="highway" v="primary"/>
    <tag k="lanes" v="2"/>
    <tag k="layer" v="1"/>
    <tag k="name" v="Vogesenbrücke"/>
    <tag k="oneway" v="yes"/>
    <tag k="ref" v="B 36"/>
  </way>
  <way id="30991013" version="9" timestamp="2012-07-18T20:58:00Z" uid="7010" user="GarryX3D" changeset="12298229">
    <nd ref="26470133"/>
    <nd ref="1126475618"/>
    <nd ref="26470134"/>
    <nd ref="26470135"/>
    <nd ref="26470136"/>
    <nd ref="1830184353"/>
    <nd ref="1830184346"/>
    <nd ref="26470139"/>
    <tag k="bridge" v="yes"/>
    <tag k="highway" v="primary"/>
    <tag k="lanes" v="2"/>
    <tag k="layer" v="1"/>
    <tag k="name" v="Vogesenbrücke"/>
    <tag k="oneway" v="yes"/>
    <tag k="ref" v="B 36"/>
  </way>
  <way id="30991013" version="10" timestamp="2012-07-19T16:28:51Z" uid="165061" user="mapper999" changeset="12318312">
    <nd ref="26470133"/>
    <nd ref="1126475618"/>
    <nd ref="26470134"/>
    <nd ref="1831123826"/>
    <nd ref="26470135"/>
    <nd ref="26470136"/>
    <nd ref="1830184353"/>
    <nd ref="1830184346"/>
    <nd ref="26470139"/>
    <tag k="bridge" v="yes"/>
    <tag k="highway" v="primary"/>
    <tag k="lanes" v="2"/>
    <tag k="layer" v="1"/>
    <tag k="name" v="Vogesenbrücke"/>
    <tag k="oneway" v="yes"/>
    <tag k="ref" v="B 36"/>
  </way>
  <way id="30991013" version="11" timestamp="2012-07-23T10:51:12Z" uid="165061" user="mapper999" changeset="12447223">
    <nd ref="26470133"/>
    <nd ref="1126475618"/>
    <nd ref="26470134"/>
    <nd ref="1831123826"/>
    <nd ref="26470135"/>
    <nd ref="26470136"/>
    <tag k="bridge" v="yes"/>
    <tag k="highway" v="primary"/>
    <tag k="lanes" v="2"/>
    <tag k="layer" v="1"/>
    <tag k="name" v="Vogesenbrücke"/>
    <tag k="oneway" v="yes"/>
    <tag k="ref" v="B 36"/>
  </way>
  <way id="30991014" version="8" timestamp="2012-07-17T14:53:08Z" uid="722137" user="OSMF Redaction Account" changeset="12267763">
    <nd ref="1696474697"/>
    <nd ref="1126475841"/>
    <nd ref="1126475523"/>
    <nd ref="1126475877"/>
    <nd ref="412338"/>
    <nd ref="1126475472"/>
    <nd ref="1126475546"/>
    <nd ref="29399613"/>
    <tag k="highway" v="trunk"/>
    <tag k="lanes" v="3"/>
    <tag k="maxspeed" v="80"/>
    <tag k="name" v="Südtangente"/>
    <tag k="oneway" v="yes"/>
    <tag k="ref" v="B 10"/>
  </way>
  <way id="30991014" version="9" timestamp="2012-08-07T09:26:55Z" uid="747709" user="synyx" changeset="12642963">
    <nd ref="1696474697"/>
    <nd ref="1126475841"/>
    <nd ref="1126475523"/>
    <nd ref="1126475877"/>
    <nd ref="412338"/>
    <nd ref="1126475472"/>
    <nd ref="1126475546"/>
    <nd ref="29399613"/>
    <tag k="highway" v="trunk"/>
    <tag k="lanes" v="3"/>
    <tag k="maxspeed" v="80"/>
    <tag k="name" v="Südtangente"/>
    <tag k="oneway" v="yes"/>
    <tag k="ref" v="B 10"/>
    <tag k="toll:N3" v="yes"/>
  </way>
  <way id="30991015" version="14" timestamp="2012-07-19T19:50:19Z" uid="722137" user="OSMF Redaction Account" changeset="12345410">
    <nd ref="31118141"/>
    <nd ref="1123642119"/>
    <nd ref="1123642108"/>
    <nd ref="15843212"/>
    <nd ref="1123642131"/>
    <nd ref="342902"/>
    <nd ref="15848793"/>
    <nd ref="1123642046"/>
    <nd ref="1464994066"/>
    <tag k="highway" v="trunk"/>
    <tag k="lanes" v="2"/>
    <tag k="maxspeed" v="80"/>
    <tag k="name" v="Südtangente"/>
    <tag k="oneway" v="yes"/>
    <tag k="ref" v="B 10"/>
  </way>
  <way id="30991018" version="15" timestamp="2012-09-03T17:35:01Z" uid="165061" user="mapper999" changeset="12970297">
    <nd ref="526073"/>
    <nd ref="16718471"/>
    <nd ref="1507201275"/>
    <nd ref="1640243557"/>
    <nd ref="410168185"/>
    <nd ref="1896623400"/>
    <nd ref="1417335056"/>
    <tag k="bicycle" v="no"/>
    <tag k="highway" v="secondary"/>
    <tag k="lanes" v="2"/>
    <tag k="name" v="Fautenbruchstraße"/>
    <tag k="note" v="im SHP des NVK: II"/>
  </way>
  <way id="30991020" version="9" timestamp="2012-07-17T14:53:46Z" uid="722137" user="OSMF Redaction Account" changeset="12267763">
    <nd ref="31410608"/>
    <nd ref="31410944"/>
    <nd ref="1599165226"/>
    <nd ref="1610779231"/>
    <nd ref="89337223"/>
    <nd ref="707960767"/>
    <nd ref="249138732"/>
    <nd ref="249138730"/>
    <nd ref="89313571"/>
    <nd ref="1458174942"/>
    <nd ref="1458174943"/>
    <nd ref="1458174945"/>
    <nd ref="94614071"/>
    <nd ref="24956905"/>
    <nd ref="15432406"/>
    <nd ref="94617102"/>
    <nd ref="15432412"/>
    <tag k="highway" v="primary"/>
    <tag k="lanes" v="2"/>
    <tag k="maxspeed" v="60"/>
    <tag k="name" v="Neureuter Straße"/>
    <tag k="oneway" v="yes"/>
    <tag k="ref" v="B 36"/>
  </way>
  <way id="30991020" version="10" timestamp="2012-07-31T13:04:04Z" uid="42208" user="JanTH" changeset="12561044">
    <nd ref="31410608"/>
    <nd ref="31410944"/>
    <nd ref="1599165226"/>
    <nd ref="1610779231"/>
    <nd ref="89337223"/>
    <nd ref="707960767"/>
    <nd ref="249138732"/>
    <nd ref="249138730"/>
    <nd ref="89313571"/>
    <nd ref="1458174942"/>
    <nd ref="1458174943"/>
    <nd ref="1458174945"/>
    <nd ref="1845299356"/>
    <tag k="highway" v="primary"/>
    <tag k="lanes" v="2"/>
    <tag k="maxspeed" v="60"/>
    <tag k="name" v="Neureuter Straße"/>
    <tag k="oneway" v="yes"/>
    <tag k="ref" v="B 36"/>
  </way>
  <way id="30991106" version="7" timestamp="2012-07-19T19:36:41Z" uid="722137" user="OSMF Redaction Account" changeset="12345149">
    <nd ref="344583926"/>
    <nd ref="344583927"/>
    <nd ref="344583965"/>
    <nd ref="344583966"/>
    <tag k="highway" v="residential"/>
    <tag k="name" v="Mount Dandenong Road Service Road"/>
  </way>
  <way id="30991106" version="8" timestamp="2012-08-24T04:30:00Z" uid="95583" user="Geodes" changeset="12840518">
    <nd ref="344583926"/>
    <nd ref="344583927"/>
    <nd ref="1880348422"/>
    <nd ref="344583966"/>
    <nd ref="1880348421"/>
    <tag k="highway" v="residential"/>
    <tag k="name" v="Mount Dandenong Road Service Road"/>
  </way>
  <way id="30991115" version="7" timestamp="2012-07-19T19:36:41Z" uid="722137" user="OSMF Redaction Account" changeset="12345149">
    <nd ref="344584007"/>
    <nd ref="344583973"/>
    <nd ref="344583974"/>
    <nd ref="344583975"/>
    <tag k="highway" v="residential"/>
    <tag k="name" v="Mount Dandenong Road Service Road"/>
    <tag k="oneway" v="yes"/>
  </way>
  <way id="30991115" version="8" timestamp="2012-08-24T04:30:01Z" uid="95583" user="Geodes" changeset="12840518">
    <nd ref="1880348420"/>
    <nd ref="344584007"/>
    <nd ref="344583973"/>
    <nd ref="344583974"/>
    <nd ref="344583975"/>
    <tag k="highway" v="residential"/>
    <tag k="name" v="Mount Dandenong Road Service Road"/>
    <tag k="oneway" v="yes"/>
  </way>
  <way id="30991119" version="19" timestamp="2012-06-02T13:15:32Z" uid="637652" user="steve91" changeset="11776969">
    <nd ref="26968397"/>
    <nd ref="864430013"/>
    <nd ref="661031472"/>
    <nd ref="524734694"/>
    <nd ref="281124765"/>
    <nd ref="661030929"/>
    <nd ref="661030940"/>
    <nd ref="661030930"/>
    <nd ref="448779230"/>
    <nd ref="281125014"/>
    <nd ref="661031552"/>
    <nd ref="30678224"/>
    <tag k="highway" v="primary"/>
    <tag k="maxspeed" v="60"/>
    <tag k="name" v="Mount Dandenong Road"/>
    <tag k="oneway" v="yes"/>
  </way>
  <way id="30991119" version="20" timestamp="2012-06-03T08:03:50Z" uid="637652" user="steve91" changeset="11783499">
    <nd ref="26968397"/>
    <nd ref="864430013"/>
    <tag k="highway" v="primary"/>
    <tag k="maxspeed" v="60"/>
    <tag k="name" v="Mount Dandenong Road"/>
    <tag k="oneway" v="yes"/>
  </way>
  <way id="30991119" version="21" timestamp="2012-07-19T19:41:17Z" uid="722137" user="OSMF Redaction Account" changeset="12345250"/>
  <way id="30991245" version="5" timestamp="2012-07-19T19:36:36Z" uid="722137" user="OSMF Redaction Account" changeset="12345149">
    <nd ref="344585339"/>
    <nd ref="344585340"/>
    <tag k="highway" v="trunk_link"/>
    <tag k="oneway" v="yes"/>
  </way>
  <way id="30991398" version="4" timestamp="2012-06-25T10:27:17Z" uid="44414" user="marimil" changeset="12009536">
    <nd ref="344587262"/>
    <nd ref="344587264"/>
    <nd ref="344587265"/>
    <nd ref="1504938295"/>
    <nd ref="1801539014"/>
    <nd ref="344587268"/>
    <tag k="highway" v="service"/>
  </way>
  <way id="30991398" version="5" timestamp="2012-06-29T12:51:03Z" uid="52087" user="kocio" changeset="12055338">
    <nd ref="344587262"/>
    <nd ref="1806101548"/>
    <nd ref="344587264"/>
    <nd ref="344587265"/>
    <nd ref="1504938295"/>
    <nd ref="1801539014"/>
    <nd ref="344587268"/>
    <tag k="highway" v="service"/>
  </way>
  <way id="30991404" version="3" timestamp="2012-08-02T23:39:36Z" uid="777830" user="Adytata" changeset="12592331">
    <nd ref="344587337"/>
    <nd ref="344587342"/>
    <nd ref="344587341"/>
    <nd ref="344587340"/>
    <nd ref="344587339"/>
    <nd ref="344587338"/>
    <nd ref="344587337"/>
    <tag k="addr:housenumber" v="36"/>
    <tag k="addr:postcode" v="02-697"/>
    <tag k="addr:street" v="Rzymowskiego"/>
    <tag k="amenity" v="school"/>
    <tag k="name" v="Zespól Szkół Nr 27"/>
  </way>
  <way id="30991682" version="7" timestamp="2012-07-19T08:35:46Z" uid="722137" user="OSMF Redaction Account" changeset="12314148">
    <nd ref="344591206"/>
    <nd ref="344591207"/>
    <nd ref="344591208"/>
    <nd ref="344591209"/>
    <nd ref="344591210"/>
    <nd ref="344591211"/>
    <nd ref="344591212"/>
    <nd ref="344591213"/>
    <nd ref="344591214"/>
    <nd ref="344591216"/>
    <nd ref="344591217"/>
    <nd ref="344591219"/>
    <nd ref="344591221"/>
    <nd ref="344591223"/>
    <nd ref="344591224"/>
    <nd ref="344591225"/>
    <nd ref="344591226"/>
    <nd ref="344591227"/>
    <tag k="highway" v="unclassified"/>
  </way>
  <way id="30991703" version="3" timestamp="2012-07-19T08:35:47Z" uid="722137" user="OSMF Redaction Account" changeset="12314148">
    <nd ref="344591350"/>
    <nd ref="344591351"/>
    <nd ref="344591352"/>
    <nd ref="344591354"/>
    <nd ref="344591355"/>
    <nd ref="344591356"/>
    <nd ref="344591357"/>
    <nd ref="344591358"/>
    <nd ref="344591206"/>
    <tag k="highway" v="unclassified"/>
  </way>
  <way id="30991703" version="4" timestamp="2012-09-07T19:03:45Z" uid="437598" user="dmgroom_ct" changeset="13026647">
    <nd ref="1904614314"/>
    <nd ref="1904614312"/>
    <nd ref="1904614310"/>
    <nd ref="1904614308"/>
    <nd ref="1904614287"/>
    <nd ref="1904614260"/>
    <nd ref="1904614256"/>
    <nd ref="1904614254"/>
    <nd ref="1904614249"/>
    <nd ref="1904614246"/>
    <nd ref="344591350"/>
    <nd ref="344591351"/>
    <nd ref="344591352"/>
    <nd ref="344591354"/>
    <nd ref="344591355"/>
    <nd ref="344591356"/>
    <nd ref="344591357"/>
    <nd ref="344591358"/>
    <nd ref="344591206"/>
    <tag k="highway" v="unclassified"/>
  </way>
</osm>
