<?xml version='1.0' encoding='UTF-8'?>
<osm version="0.6" generator="libosmium/2.20.0">
  <way id="3100113" version="3" timestamp="2008-07-30T09:56:47Z" uid="6269" user="Mueck" changeset="628766">
    <nd ref="14791406"/>
    <nd ref="14791411"/>
    <nd ref="14791371"/>
    <nd ref="14791370"/>
    <nd ref="14791366"/>
    <nd ref="278974160"/>
    <nd ref="14791361"/>
    <nd ref="14791360"/>
    <nd ref="31261893"/>
    <nd ref="14791355"/>
    <nd ref="14791354"/>
    <tag k="created_by" v="Potlatch 0.10a"/>
    <tag k="highway" v="tertiary"/>
    <tag k="name" v="Am Fasanengarten"/>
    <tag k="note" v="im SHP des NVK: III"/>
  </way>
  <way id="3100113" version="4" timestamp="2008-08-14T20:52:44Z" uid="10897" user="Jens MÃ¼ller" changeset="246494">
    <nd ref="14791406"/>
    <nd ref="14791411"/>
    <nd ref="14791371"/>
    <nd ref="14791370"/>
    <nd ref="14791366"/>
    <nd ref="278974160"/>
    <nd ref="14791361"/>
    <nd ref="14791360"/>
    <nd ref="31261893"/>
    <nd ref="14791355"/>
    <nd ref="288005326"/>
    <nd ref="14791354"/>
    <tag k="created_by" v="Potlatch 0.10a"/>
    <tag k="highway" v="tertiary"/>
    <tag k="name" v="Am Fasanengarten"/>
    <tag k="note" v="im SHP des NVK: III"/>
  </way>
  <way id="3100113" version="5" timestamp="2008-12-28T12:57:56Z" uid="16330" user="aluka" changeset="648651">
    <nd ref="14791406"/>
    <nd ref="322514951"/>
    <nd ref="14791411"/>
    <nd ref="14791371"/>
    <nd ref="14791370"/>
    <nd ref="14791366"/>
    <nd ref="278974160"/>
    <nd ref="14791361"/>
    <nd ref="14791360"/>
    <nd ref="31261893"/>
    <nd ref="14791355"/>
    <nd ref="288005326"/>
    <nd ref="14791354"/>
    <tag k="created_by" v="Potlatch 0.10a"/>
    <tag k="highway" v="tertiary"/>
    <tag k="name" v="Am Fasanengarten"/>
    <tag k="note" v="im SHP des NVK: III"/>
  </way>
  <way id="3100113" version="6" timestamp="2009-01-09T08:58:39Z" uid="84848" user="elisa" changeset="764369">
    <nd ref="14791406"/>
    <nd ref="322514951"/>
    <nd ref="14791411"/>
    <nd ref="14791371"/>
    <nd ref="14791370"/>
    <nd ref="14791366"/>
    <nd ref="278974160"/>
    <nd ref="14791361"/>
    <nd ref="14791360"/>
    <nd ref="31261893"/>
    <nd ref="14791355"/>
    <nd ref="288005326"/>
    <nd ref="14791354"/>
    <tag k="created_by" v="Merkaartor 0.13"/>
    <tag k="highway" v="tertiary"/>
    <tag k="maxspeed" v="30"/>
    <tag k="name" v="Am Fasanengarten"/>
    <tag k="note" v="im SHP des NVK: III"/>
  </way>
  <way id="3100113" version="7" timestamp="2009-02-09T15:29:02Z" uid="84848" user="elisa" changeset="311226">
    <nd ref="14791406"/>
    <nd ref="343685006"/>
    <tag k="created_by" v="Merkaartor 0.13"/>
    <tag k="highway" v="tertiary"/>
    <tag k="maxspeed" v="30"/>
    <tag k="name" v="Am Fasanengarten"/>
    <tag k="note" v="im SHP des NVK: III"/>
  </way>
  <way id="3100113" version="8" timestamp="2009-03-26T13:57:57Z" uid="94579" user="Cali42" changeset="860886">
    <nd ref="14791406"/>
    <nd ref="365925556"/>
    <nd ref="343685006"/>
    <tag k="created_by" v="Merkaartor 0.13"/>
    <tag k="highway" v="tertiary"/>
    <tag k="maxspeed" v="30"/>
    <tag k="name" v="Am Fasanengarten"/>
    <tag k="note" v="im SHP des NVK: III"/>
  </way>
  <way id="3100113" version="9" timestamp="2009-06-19T13:02:16Z" uid="85761" user="klausis" changeset="1564619">
    <nd ref="14791406"/>
    <nd ref="365925556"/>
    <nd ref="343685006"/>
    <tag k="highway" v="tertiary"/>
    <tag k="maxspeed" v="30"/>
    <tag k="name" v="Am Fasanengarten"/>
    <tag k="note" v="im SHP des NVK: III"/>
  </way>
  <way id="3100113" version="10" timestamp="2011-01-03T23:13:24Z" uid="165061" user="keinname" changeset="6856128">
    <nd ref="14791406"/>
    <nd ref="365925556"/>
    <nd ref="343685006"/>
    <nd ref="322514951"/>
    <nd ref="14791411"/>
    <nd ref="14791371"/>
    <nd ref="14791370"/>
    <tag k="highway" v="tertiary"/>
    <tag k="lanes" v="3"/>
    <tag k="maxspeed" v="30"/>
    <tag k="name" v="Am Fasanengarten"/>
    <tag k="note" v="im SHP des NVK: III"/>
  </way>
  <way id="3100113" version="11" timestamp="2011-04-05T23:38:28Z" uid="6269" user="Mueck" changeset="7780144">
    <nd ref="14791406"/>
    <nd ref="365925556"/>
    <nd ref="322514951"/>
    <nd ref="14791411"/>
    <nd ref="14791371"/>
    <nd ref="14791370"/>
    <tag k="highway" v="tertiary"/>
    <tag k="lanes" v="3"/>
    <tag k="maxspeed" v="30"/>
    <tag k="name" v="Am Fasanengarten"/>
    <tag k="note" v="im SHP des NVK: III"/>
  </way>
  <way id="3100113" version="12" timestamp="2011-08-01T14:15:00Z" uid="493999" user="BastiaanH" changeset="8891261">
    <nd ref="14791406"/>
    <nd ref="365925556"/>
    <nd ref="322514951"/>
    <nd ref="14791411"/>
    <nd ref="14791371"/>
    <nd ref="1381789448"/>
    <nd ref="14791370"/>
    <tag k="highway" v="tertiary"/>
    <tag k="lanes" v="3"/>
    <tag k="maxspeed" v="30"/>
    <tag k="name" v="Am Fasanengarten"/>
    <tag k="note" v="im SHP des NVK: III"/>
  </way>
  <way id="3100113" version="13" timestamp="2011-11-09T13:26:00Z" uid="165061" user="keinname" changeset="9781104">
    <nd ref="14791406"/>
    <nd ref="365925556"/>
    <nd ref="322514951"/>
    <nd ref="14791411"/>
    <nd ref="14791371"/>
    <nd ref="1381789448"/>
    <nd ref="14791370"/>
    <tag k="highway" v="tertiary"/>
    <tag k="lanes" v="3"/>
    <tag k="maxspeed" v="30"/>
    <tag k="name" v="Am Fasanengarten"/>
    <tag k="note" v="im SHP des NVK: III"/>
    <tag k="parking:lane:both" v="no_stopping"/>
  </way>
  <way id="3100113" version="14" timestamp="2011-12-06T20:52:05Z" uid="165061" user="keinname" changeset="10053494">
    <nd ref="14791406"/>
    <nd ref="365925556"/>
    <nd ref="322514951"/>
    <nd ref="14791411"/>
    <nd ref="14791371"/>
    <nd ref="1381789448"/>
    <nd ref="14791370"/>
    <tag k="highway" v="tertiary"/>
    <tag k="lanes" v="3"/>
    <tag k="maxspeed" v="30"/>
    <tag k="name" v="Am Fasanengarten"/>
    <tag k="note" v="im SHP des NVK: III"/>
    <tag k="parking:lane:left" v="no_stopping"/>
    <tag k="parking:lane:right" v="no_parking"/>
  </way>
  <way id="3100113" version="15" timestamp="2012-03-16T16:16:45Z" uid="35468" user="Blunauer" changeset="10999859"/>
  <way id="3100643" version="2" timestamp="2008-02-20T13:53:29Z" uid="6269" user="Mueck" changeset="164462">
    <nd ref="14795306"/>
    <nd ref="14795308"/>
    <tag k="created_by" v="Potlatch 0.7b"/>
    <tag k="highway" v="residential"/>
    <tag k="name" v="Scheffelplatz"/>
  </way>
  <way id="3100643" version="3" timestamp="2009-06-19T13:05:14Z" uid="85761" user="klausis" changeset="1564619">
    <nd ref="14795306"/>
    <nd ref="14795308"/>
    <tag k="highway" v="residential"/>
    <tag k="name" v="Scheffelplatz"/>
  </way>
</osm>
