<?xml version='1.0' encoding='UTF-8'?>
<osm version="0.6" generator="libosmium/2.20.0">
  <way id="31137073" version="1" timestamp="2009-02-16T17:10:54Z" uid="58091" user="Andreas M" changeset="492281">
    <nd ref="346241109"/>
    <nd ref="346241108"/>
    <tag k="addr:city" v="Wien"/>
    <tag k="addr:interpolation" v="odd"/>
    <tag k="addr:postcode" v="1020"/>
    <tag k="addr:street" v="Erlafstraße"/>
  </way>
  <way id="31137073" version="2" timestamp="2009-03-15T19:45:18Z" uid="58091" user="Andreas M" changeset="815744">
    <nd ref="346241109"/>
    <nd ref="346241108"/>
    <tag k="addr:interpolation" v="odd"/>
  </way>
  <way id="31137073" version="3" timestamp="2009-03-29T14:03:23Z" uid="58091" user="Andreas M" changeset="868283"/>
  <way id="31137075" version="1" timestamp="2009-02-16T17:10:54Z" uid="58091" user="Andreas M" changeset="492281">
    <nd ref="346241110"/>
    <nd ref="346241112"/>
    <tag k="addr:city" v="Wien"/>
    <tag k="addr:interpolation" v="even"/>
    <tag k="addr:postcode" v="1020"/>
    <tag k="addr:street" v="Erlafstraße"/>
  </way>
  <way id="31137075" version="2" timestamp="2009-03-15T19:45:18Z" uid="58091" user="Andreas M" changeset="815744">
    <nd ref="346241110"/>
    <nd ref="346241112"/>
    <tag k="addr:interpolation" v="even"/>
  </way>
  <way id="31137075" version="3" timestamp="2009-05-31T15:33:46Z" uid="58091" user="Andreas M" changeset="1370272"/>
  <way id="31137076" version="1" timestamp="2009-02-16T17:10:54Z" uid="58091" user="Andreas M" changeset="492281">
    <nd ref="346241114"/>
    <nd ref="346241113"/>
    <tag k="addr:city" v="Wien"/>
    <tag k="addr:interpolation" v="even"/>
    <tag k="addr:postcode" v="1020"/>
    <tag k="addr:street" v="Wohlmutstraße"/>
  </way>
  <way id="31137076" version="2" timestamp="2009-03-15T19:45:17Z" uid="58091" user="Andreas M" changeset="815744">
    <nd ref="346241114"/>
    <nd ref="346241113"/>
    <tag k="addr:interpolation" v="even"/>
  </way>
  <way id="31137076" version="3" timestamp="2009-03-29T14:03:25Z" uid="58091" user="Andreas M" changeset="868283"/>
  <way id="31137077" version="1" timestamp="2009-02-16T17:10:54Z" uid="58091" user="Andreas M" changeset="492281">
    <nd ref="346241119"/>
    <nd ref="346241120"/>
    <nd ref="346241118"/>
    <tag k="addr:city" v="Wien"/>
    <tag k="addr:interpolation" v="even"/>
    <tag k="addr:postcode" v="1020"/>
    <tag k="addr:street" v="Wohlmutstraße"/>
  </way>
  <way id="31137077" version="2" timestamp="2009-03-15T19:45:17Z" uid="58091" user="Andreas M" changeset="815744">
    <nd ref="346241119"/>
    <nd ref="346241120"/>
    <nd ref="346241118"/>
    <tag k="addr:interpolation" v="even"/>
  </way>
  <way id="31137077" version="3" timestamp="2009-03-21T13:18:32Z" uid="58091" user="Andreas M" changeset="840918">
    <nd ref="346241119"/>
    <nd ref="346241120"/>
    <tag k="addr:interpolation" v="even"/>
  </way>
  <way id="31137077" version="4" timestamp="2009-05-31T15:33:46Z" uid="58091" user="Andreas M" changeset="1370272"/>
  <way id="31137078" version="1" timestamp="2009-02-16T17:10:55Z" uid="58091" user="Andreas M" changeset="492281">
    <nd ref="346241123"/>
    <nd ref="346241122"/>
    <tag k="addr:city" v="Wien"/>
    <tag k="addr:interpolation" v="odd"/>
    <tag k="addr:postcode" v="1020"/>
    <tag k="addr:street" v="Wohlmutstraße"/>
  </way>
  <way id="31137078" version="2" timestamp="2009-03-15T19:45:17Z" uid="58091" user="Andreas M" changeset="815744">
    <nd ref="346241123"/>
    <nd ref="346241122"/>
    <tag k="addr:interpolation" v="odd"/>
  </way>
  <way id="31137078" version="3" timestamp="2009-06-01T11:47:09Z" uid="58091" user="Andreas M" changeset="1378863"/>
  <way id="31137094" version="8" timestamp="2009-11-06T18:04:30Z" uid="64756" user="alegria6208" changeset="3050461">
    <nd ref="346241469"/>
    <nd ref="442138861"/>
    <nd ref="365144601"/>
    <nd ref="346241474"/>
    <nd ref="454011304"/>
    <nd ref="346241486"/>
    <nd ref="346241488"/>
    <nd ref="365144603"/>
    <nd ref="346241494"/>
    <nd ref="454139796"/>
    <nd ref="346241497"/>
    <nd ref="454139808"/>
    <nd ref="346241503"/>
    <nd ref="346241512"/>
    <nd ref="365144605"/>
    <nd ref="454139810"/>
    <tag k="bicycle" v="yes"/>
    <tag k="foot" v="yes"/>
    <tag k="highway" v="footway"/>
    <tag k="segregated" v="no"/>
    <tag k="surface" v="gravel"/>
  </way>
  <way id="31137094" version="9" timestamp="2009-11-08T03:14:05Z" uid="36809" user="pfoten_weg_!_" changeset="3060646">
    <nd ref="346241469"/>
    <nd ref="442138861"/>
    <nd ref="365144601"/>
    <nd ref="346241474"/>
    <nd ref="454011304"/>
    <nd ref="346241486"/>
    <nd ref="346241488"/>
    <nd ref="365144603"/>
    <nd ref="346241494"/>
    <nd ref="454139796"/>
    <nd ref="346241497"/>
    <nd ref="454139808"/>
    <nd ref="346241503"/>
    <nd ref="346241512"/>
    <nd ref="365144605"/>
    <nd ref="454139810"/>
    <tag k="bicycle" v="yes"/>
    <tag k="foot" v="yes"/>
    <tag k="highway" v="footway"/>
    <tag k="segregated" v="no"/>
    <tag k="surface" v="gravel"/>
  </way>
  <way id="31137098" version="5" timestamp="2010-04-02T17:29:32Z" uid="20587" user="balrog-kun" changeset="4304500">
    <nd ref="346241587"/>
    <nd ref="346241588"/>
    <tag k="bridge" v="yes"/>
    <tag k="created_by" v="Potlatch 0.10f"/>
    <tag k="highway" v="residential"/>
    <tag k="layer" v="1"/>
    <tag k="name" v="South 136th Street"/>
    <tag k="tiger:cfcc" v="A41"/>
    <tag k="tiger:county" v="King, WA"/>
    <tag k="tiger:name_base" v="136th"/>
    <tag k="tiger:name_direction_prefix" v="S"/>
    <tag k="tiger:reviewed" v="no"/>
    <tag k="tiger:separated" v="no"/>
    <tag k="tiger:source" v="tiger_import_dch_v0.6_20070830"/>
    <tag k="tiger:tlid" v="186626426:186626324:186626328:186626356:186626359:186626367:186626372"/>
  </way>
  <way id="31137098" version="6" timestamp="2010-12-07T11:07:35Z" uid="121241" user="zephyr" changeset="6573310">
    <nd ref="346241587"/>
    <nd ref="346241588"/>
    <tag k="bridge" v="yes"/>
    <tag k="highway" v="residential"/>
    <tag k="layer" v="1"/>
    <tag k="name" v="South 136th Street"/>
    <tag k="tiger:cfcc" v="A41"/>
    <tag k="tiger:county" v="King, WA"/>
    <tag k="tiger:name_base" v="136th"/>
    <tag k="tiger:name_direction_prefix" v="S"/>
    <tag k="tiger:separated" v="no"/>
    <tag k="tiger:source" v="tiger_import_dch_v0.6_20070830"/>
    <tag k="tiger:tlid" v="186626426:186626324:186626328:186626356:186626359:186626367:186626372"/>
  </way>
  <way id="31137098" version="7" timestamp="2010-12-07T18:45:58Z" uid="121241" user="zephyr" changeset="6578018">
    <nd ref="346241587"/>
    <nd ref="346241588"/>
    <tag k="bridge" v="yes"/>
    <tag k="highway" v="tertiary"/>
    <tag k="layer" v="1"/>
    <tag k="name" v="South 136th Street"/>
    <tag k="tiger:cfcc" v="A41"/>
    <tag k="tiger:county" v="King, WA"/>
    <tag k="tiger:name_base" v="136th"/>
    <tag k="tiger:name_direction_prefix" v="S"/>
    <tag k="tiger:separated" v="no"/>
    <tag k="tiger:source" v="tiger_import_dch_v0.6_20070830"/>
    <tag k="tiger:tlid" v="186626426:186626324:186626328:186626356:186626359:186626367:186626372"/>
  </way>
  <way id="31137099" version="4" timestamp="2010-04-02T17:29:32Z" uid="20587" user="balrog-kun" changeset="4304500">
    <nd ref="346241588"/>
    <nd ref="53202913"/>
    <nd ref="660058409"/>
    <nd ref="53202915"/>
    <nd ref="53202916"/>
    <nd ref="53151801"/>
    <nd ref="53165615"/>
    <nd ref="53202917"/>
    <nd ref="53188367"/>
    <nd ref="53202919"/>
    <nd ref="53202920"/>
    <nd ref="53202921"/>
    <nd ref="53134872"/>
    <nd ref="53202922"/>
    <nd ref="53130410"/>
    <nd ref="53202923"/>
    <nd ref="53202924"/>
    <tag k="highway" v="residential"/>
    <tag k="name" v="South 136th Street"/>
    <tag k="tiger:cfcc" v="A41"/>
    <tag k="tiger:county" v="King, WA"/>
    <tag k="tiger:name_base" v="136th"/>
    <tag k="tiger:name_direction_prefix" v="S"/>
    <tag k="tiger:reviewed" v="no"/>
    <tag k="tiger:separated" v="no"/>
    <tag k="tiger:source" v="tiger_import_dch_v0.6_20070830"/>
    <tag k="tiger:tlid" v="186626426:186626324:186626328:186626356:186626359:186626367:186626372"/>
  </way>
  <way id="31137099" version="5" timestamp="2010-12-07T08:15:33Z" uid="121241" user="zephyr" changeset="6571944">
    <nd ref="346241588"/>
    <nd ref="53202913"/>
    <nd ref="660058409"/>
    <nd ref="53202915"/>
    <nd ref="53202916"/>
    <nd ref="53151801"/>
    <nd ref="53165615"/>
    <nd ref="53202917"/>
    <nd ref="53188367"/>
    <nd ref="53202919"/>
    <nd ref="53202920"/>
    <nd ref="53202921"/>
    <nd ref="53134872"/>
    <nd ref="53202922"/>
    <nd ref="53130410"/>
    <nd ref="53202923"/>
    <nd ref="53202924"/>
    <tag k="highway" v="residential"/>
    <tag k="name" v="South 136th Street"/>
    <tag k="tiger:cfcc" v="A41"/>
    <tag k="tiger:county" v="King, WA"/>
    <tag k="tiger:name_base" v="136th"/>
    <tag k="tiger:name_direction_prefix" v="S"/>
    <tag k="tiger:separated" v="no"/>
    <tag k="tiger:source" v="tiger_import_dch_v0.6_20070830"/>
    <tag k="tiger:tlid" v="186626426:186626324:186626328:186626356:186626359:186626367:186626372"/>
  </way>
  <way id="31137099" version="6" timestamp="2010-12-07T18:46:01Z" uid="121241" user="zephyr" changeset="6578018">
    <nd ref="346241588"/>
    <nd ref="53202913"/>
    <nd ref="660058409"/>
    <nd ref="53202915"/>
    <nd ref="53202916"/>
    <nd ref="53151801"/>
    <nd ref="53165615"/>
    <nd ref="53202917"/>
    <nd ref="53188367"/>
    <nd ref="53202919"/>
    <nd ref="53202920"/>
    <nd ref="53202921"/>
    <nd ref="53134872"/>
    <nd ref="53202922"/>
    <nd ref="53130410"/>
    <nd ref="53202923"/>
    <nd ref="53202924"/>
    <tag k="highway" v="tertiary"/>
    <tag k="name" v="South 136th Street"/>
    <tag k="tiger:cfcc" v="A41"/>
    <tag k="tiger:county" v="King, WA"/>
    <tag k="tiger:name_base" v="136th"/>
    <tag k="tiger:name_direction_prefix" v="S"/>
    <tag k="tiger:separated" v="no"/>
    <tag k="tiger:source" v="tiger_import_dch_v0.6_20070830"/>
    <tag k="tiger:tlid" v="186626426:186626324:186626328:186626356:186626359:186626367:186626372"/>
  </way>
  <way id="31137099" version="7" timestamp="2012-03-16T02:41:57Z" uid="621151" user="The Wapiti" changeset="10994723">
    <nd ref="346241588"/>
    <nd ref="53202913"/>
    <nd ref="660058409"/>
    <nd ref="53202915"/>
    <nd ref="53202916"/>
    <nd ref="53151801"/>
    <nd ref="53165615"/>
    <nd ref="53202917"/>
    <nd ref="53188367"/>
    <nd ref="53202919"/>
    <nd ref="53202920"/>
    <nd ref="53202921"/>
    <nd ref="1676405892"/>
    <nd ref="53134872"/>
    <nd ref="53202922"/>
    <nd ref="53130410"/>
    <nd ref="53202924"/>
    <tag k="highway" v="tertiary"/>
    <tag k="name" v="South 136th Street"/>
    <tag k="tiger:cfcc" v="A41"/>
    <tag k="tiger:county" v="King, WA"/>
    <tag k="tiger:name_base" v="136th"/>
    <tag k="tiger:name_direction_prefix" v="S"/>
    <tag k="tiger:separated" v="no"/>
    <tag k="tiger:source" v="tiger_import_dch_v0.6_20070830"/>
    <tag k="tiger:tlid" v="186626426:186626324:186626328:186626356:186626359:186626367:186626372"/>
  </way>
  <way id="31137144" version="1" timestamp="2009-02-16T17:14:17Z" uid="58091" user="Andreas M" changeset="492281">
    <nd ref="346242457"/>
    <nd ref="346242456"/>
    <tag k="addr:city" v="Wien"/>
    <tag k="addr:interpolation" v="odd"/>
    <tag k="addr:postcode" v="1020"/>
    <tag k="addr:street" v="Radingerstraße"/>
  </way>
  <way id="31137144" version="2" timestamp="2009-03-15T19:29:03Z" uid="58091" user="Andreas M" changeset="815744">
    <nd ref="346242457"/>
    <nd ref="346242456"/>
    <tag k="addr:interpolation" v="odd"/>
  </way>
  <way id="31137144" version="3" timestamp="2011-03-11T22:19:18Z" uid="99800" user="wolfbert" changeset="7528167"/>
  <way id="31137145" version="1" timestamp="2009-02-16T17:14:18Z" uid="58091" user="Andreas M" changeset="492281">
    <nd ref="346242462"/>
    <nd ref="346242460"/>
    <tag k="addr:city" v="Wien"/>
    <tag k="addr:interpolation" v="odd"/>
    <tag k="addr:postcode" v="1020"/>
    <tag k="addr:street" v="Radingerstraße"/>
  </way>
  <way id="31137145" version="2" timestamp="2009-03-15T19:29:03Z" uid="58091" user="Andreas M" changeset="815744">
    <nd ref="346242462"/>
    <nd ref="346242460"/>
    <tag k="addr:interpolation" v="odd"/>
  </way>
  <way id="31137145" version="3" timestamp="2011-03-11T22:19:18Z" uid="99800" user="wolfbert" changeset="7528167"/>
  <way id="31137146" version="1" timestamp="2009-02-16T17:14:18Z" uid="58091" user="Andreas M" changeset="492281">
    <nd ref="346242466"/>
    <nd ref="346242464"/>
    <tag k="addr:city" v="Wien"/>
    <tag k="addr:interpolation" v="even"/>
    <tag k="addr:postcode" v="1020"/>
    <tag k="addr:street" v="Radingerstraße"/>
  </way>
  <way id="31137146" version="2" timestamp="2009-03-15T19:29:04Z" uid="58091" user="Andreas M" changeset="815744">
    <nd ref="346242466"/>
    <nd ref="346242464"/>
    <tag k="addr:interpolation" v="even"/>
  </way>
  <way id="31137146" version="3" timestamp="2009-06-02T15:30:45Z" uid="58091" user="Andreas M" changeset="1405042"/>
  <way id="31137180" version="4" timestamp="2010-04-02T17:29:33Z" uid="20587" user="balrog-kun" changeset="4304500">
    <nd ref="53095334"/>
    <nd ref="346243149"/>
    <nd ref="346243150"/>
    <nd ref="346243151"/>
    <nd ref="53095335"/>
    <tag k="created_by" v="Potlatch 0.10f"/>
    <tag k="highway" v="tertiary"/>
    <tag k="name" v="South 126th Street"/>
    <tag k="tiger:cfcc" v="A41"/>
    <tag k="tiger:county" v="King, WA"/>
    <tag k="tiger:name_base" v="126th"/>
    <tag k="tiger:name_direction_prefix" v="S"/>
    <tag k="tiger:reviewed" v="no"/>
    <tag k="tiger:separated" v="no"/>
    <tag k="tiger:source" v="tiger_import_dch_v0.6_20070830"/>
    <tag k="tiger:tlid" v="186624334:186624345"/>
    <tag k="tiger:zip_left" v="98168"/>
    <tag k="tiger:zip_right" v="98168"/>
  </way>
  <way id="31137214" version="3" timestamp="2009-10-28T02:08:39Z" uid="23543" user="jkjk" changeset="2970454">
    <nd ref="346244030"/>
    <nd ref="346244032"/>
    <nd ref="346244034"/>
    <nd ref="346244036"/>
    <nd ref="346244038"/>
    <nd ref="346244040"/>
    <tag k="highway" v="unclassified"/>
    <tag k="kct_blue" v="major"/>
    <tag k="name" v="Muzikova"/>
  </way>
  <way id="31137214" version="4" timestamp="2009-12-23T21:57:40Z" uid="17615" user="Petr Dlouhý" changeset="3438109">
    <nd ref="346244030"/>
    <nd ref="346244032"/>
    <nd ref="346244034"/>
    <nd ref="346244036"/>
    <nd ref="346244038"/>
    <nd ref="346244040"/>
    <tag k="highway" v="unclassified"/>
    <tag k="name" v="Muzikova"/>
  </way>
  <way id="31137214" version="5" timestamp="2011-08-31T21:32:28Z" uid="17615" user="Petr Dlouhý" changeset="9180376">
    <nd ref="346244030"/>
    <nd ref="1419597186"/>
    <nd ref="346244032"/>
    <nd ref="346244034"/>
    <nd ref="346244036"/>
    <nd ref="346244038"/>
    <nd ref="346244040"/>
    <tag k="highway" v="unclassified"/>
    <tag k="name" v="Muzikova"/>
  </way>
  <way id="31137215" version="2" timestamp="2009-10-28T02:08:39Z" uid="23543" user="jkjk" changeset="2970454">
    <nd ref="346244040"/>
    <nd ref="346244042"/>
    <tag k="highway" v="steps"/>
    <tag k="kct_blue" v="major"/>
    <tag k="name" v="Eichlerova"/>
  </way>
  <way id="31137215" version="3" timestamp="2009-12-23T21:57:41Z" uid="17615" user="Petr Dlouhý" changeset="3438109">
    <nd ref="346244040"/>
    <nd ref="346244042"/>
    <tag k="highway" v="steps"/>
    <tag k="name" v="Eichlerova"/>
  </way>
  <way id="31137216" version="2" timestamp="2009-10-28T02:08:42Z" uid="23543" user="jkjk" changeset="2970454">
    <nd ref="346244042"/>
    <nd ref="245501218"/>
    <nd ref="245501216"/>
    <tag k="highway" v="footway"/>
    <tag k="kct_blue" v="major"/>
  </way>
  <way id="31137216" version="3" timestamp="2009-12-23T21:57:41Z" uid="17615" user="Petr Dlouhý" changeset="3438109">
    <nd ref="346244042"/>
    <nd ref="245501218"/>
    <nd ref="245501216"/>
    <tag k="highway" v="footway"/>
  </way>
  <way id="31137216" version="4" timestamp="2010-12-19T15:26:25Z" uid="17615" user="Petr Dlouhý" changeset="6707007">
    <nd ref="346244042"/>
    <nd ref="245501218"/>
    <nd ref="1049088802"/>
    <nd ref="245501216"/>
    <tag k="highway" v="footway"/>
  </way>
  <way id="31137218" version="2" timestamp="2010-12-31T00:19:49Z" uid="23543" user="jkjk" changeset="6815571">
    <nd ref="346244052"/>
    <nd ref="1074216362"/>
    <nd ref="346244054"/>
    <nd ref="21597613"/>
    <nd ref="21597614"/>
    <nd ref="21597615"/>
    <nd ref="21597616"/>
    <nd ref="21597617"/>
    <nd ref="21597618"/>
    <nd ref="21597619"/>
    <nd ref="21597620"/>
    <nd ref="21597621"/>
    <nd ref="21597622"/>
    <nd ref="21597623"/>
    <nd ref="21597624"/>
    <nd ref="21597625"/>
    <nd ref="21597626"/>
    <tag k="highway" v="unclassified"/>
  </way>
  <way id="31137219" version="3" timestamp="2010-12-31T00:20:00Z" uid="23543" user="jkjk" changeset="6815571"/>
  <way id="31137249" version="2" timestamp="2010-04-02T17:29:33Z" uid="20587" user="balrog-kun" changeset="4304500">
    <nd ref="53184661"/>
    <nd ref="345453107"/>
    <nd ref="60890633"/>
    <nd ref="346244416"/>
    <nd ref="60890629"/>
    <tag k="bridge" v="yes"/>
    <tag k="created_by" v="Potlatch 0.10f"/>
    <tag k="highway" v="secondary"/>
    <tag k="layer" v="1"/>
    <tag k="name" v="South Cloverdale Street"/>
    <tag k="oneway" v="yes"/>
    <tag k="tiger:cfcc" v="A41"/>
    <tag k="tiger:county" v="King, WA"/>
    <tag k="tiger:name_base" v="Cloverdale"/>
    <tag k="tiger:name_direction_prefix" v="S"/>
    <tag k="tiger:name_type" v="St"/>
    <tag k="tiger:reviewed" v="no"/>
    <tag k="tiger:separated" v="no"/>
    <tag k="tiger:source" v="tiger_import_dch_v0.6_20070830"/>
    <tag k="tiger:tlid" v="186595710:186592444:186595690:186595695:186664613"/>
    <tag k="tiger:zip_left" v="98108"/>
    <tag k="tiger:zip_right" v="98108"/>
  </way>
  <way id="31137249" version="3" timestamp="2010-08-07T16:47:45Z" uid="282329" user="compdude" changeset="5425989">
    <nd ref="53184661"/>
    <nd ref="345453107"/>
    <nd ref="60890633"/>
    <nd ref="346244416"/>
    <nd ref="60890629"/>
    <tag k="bridge" v="yes"/>
    <tag k="highway" v="secondary"/>
    <tag k="layer" v="1"/>
    <tag k="name" v="South Cloverdale Street"/>
    <tag k="tiger:cfcc" v="A41"/>
    <tag k="tiger:county" v="King, WA"/>
    <tag k="tiger:name_base" v="Cloverdale"/>
    <tag k="tiger:name_direction_prefix" v="S"/>
    <tag k="tiger:name_type" v="St"/>
    <tag k="tiger:reviewed" v="no"/>
    <tag k="tiger:separated" v="no"/>
    <tag k="tiger:source" v="tiger_import_dch_v0.6_20070830"/>
    <tag k="tiger:tlid" v="186595710:186592444:186595690:186595695:186664613"/>
    <tag k="tiger:zip_left" v="98108"/>
    <tag k="tiger:zip_right" v="98108"/>
  </way>
  <way id="31137266" version="1" timestamp="2009-02-16T17:22:25Z" uid="58091" user="Andreas M" changeset="492281">
    <nd ref="346244995"/>
    <nd ref="346244996"/>
    <tag k="addr:city" v="Wien"/>
    <tag k="addr:interpolation" v="even"/>
    <tag k="addr:postcode" v="1020"/>
    <tag k="addr:street" v="Wohlmutstraße"/>
  </way>
  <way id="31137266" version="2" timestamp="2009-03-15T19:45:22Z" uid="58091" user="Andreas M" changeset="815744">
    <nd ref="346244995"/>
    <nd ref="346244996"/>
    <tag k="addr:interpolation" v="even"/>
  </way>
  <way id="31137266" version="3" timestamp="2009-05-31T14:45:28Z" uid="58091" user="Andreas M" changeset="1369798"/>
  <way id="31137267" version="1" timestamp="2009-02-16T17:22:25Z" uid="58091" user="Andreas M" changeset="492281">
    <nd ref="346244998"/>
    <nd ref="346244997"/>
    <tag k="addr:city" v="Wien"/>
    <tag k="addr:interpolation" v="odd"/>
    <tag k="addr:postcode" v="1020"/>
    <tag k="addr:street" v="Wohlmutstraße"/>
  </way>
  <way id="31137267" version="2" timestamp="2009-03-15T19:45:21Z" uid="58091" user="Andreas M" changeset="815744">
    <nd ref="346244998"/>
    <nd ref="346244997"/>
    <tag k="addr:interpolation" v="odd"/>
  </way>
  <way id="31137267" version="3" timestamp="2009-06-01T08:01:35Z" uid="58091" user="Andreas M" changeset="1376724"/>
  <way id="31137268" version="1" timestamp="2009-02-16T17:22:25Z" uid="58091" user="Andreas M" changeset="492281">
    <nd ref="346244999"/>
    <nd ref="346245000"/>
    <tag k="addr:city" v="Wien"/>
    <tag k="addr:interpolation" v="odd"/>
    <tag k="addr:postcode" v="1020"/>
    <tag k="addr:street" v="Wohlmutstraße"/>
  </way>
  <way id="31137268" version="2" timestamp="2009-03-15T19:45:22Z" uid="58091" user="Andreas M" changeset="815744">
    <nd ref="346244999"/>
    <nd ref="346245000"/>
    <tag k="addr:interpolation" v="odd"/>
  </way>
  <way id="31137268" version="3" timestamp="2009-06-01T08:01:35Z" uid="58091" user="Andreas M" changeset="1376724"/>
  <way id="31137306" version="1" timestamp="2009-02-16T17:25:15Z" uid="58091" user="Andreas M" changeset="492281">
    <nd ref="346245540"/>
    <nd ref="346245539"/>
    <tag k="addr:city" v="Wien"/>
    <tag k="addr:interpolation" v="even"/>
    <tag k="addr:postcode" v="1020"/>
    <tag k="addr:street" v="Schrotzbergstraße"/>
  </way>
  <way id="31137306" version="2" timestamp="2009-02-18T17:04:59Z" uid="58091" user="Andreas M" changeset="544027"/>
  <way id="31137307" version="1" timestamp="2009-02-16T17:25:15Z" uid="58091" user="Andreas M" changeset="492281">
    <nd ref="346245542"/>
    <nd ref="346245543"/>
    <tag k="addr:city" v="Wien"/>
    <tag k="addr:interpolation" v="even"/>
    <tag k="addr:postcode" v="1020"/>
    <tag k="addr:street" v="Schrotzbergstraße"/>
  </way>
  <way id="31137307" version="2" timestamp="2009-02-18T17:04:59Z" uid="58091" user="Andreas M" changeset="544027"/>
  <way id="31137308" version="1" timestamp="2009-02-16T17:25:15Z" uid="58091" user="Andreas M" changeset="492281">
    <nd ref="346245545"/>
    <nd ref="346245544"/>
    <tag k="addr:city" v="Wien"/>
    <tag k="addr:interpolation" v="odd"/>
    <tag k="addr:postcode" v="1020"/>
    <tag k="addr:street" v="Schrotzbergstraße"/>
  </way>
  <way id="31137308" version="2" timestamp="2009-02-18T17:04:59Z" uid="58091" user="Andreas M" changeset="544027"/>
  <way id="31137309" version="1" timestamp="2009-02-16T17:25:16Z" uid="58091" user="Andreas M" changeset="492281">
    <nd ref="346245547"/>
    <nd ref="346245546"/>
    <tag k="addr:city" v="Wien"/>
    <tag k="addr:interpolation" v="odd"/>
    <tag k="addr:postcode" v="1020"/>
    <tag k="addr:street" v="Schrotzbergstraße"/>
  </way>
  <way id="31137309" version="2" timestamp="2009-03-15T19:49:44Z" uid="58091" user="Andreas M" changeset="815744">
    <nd ref="346245547"/>
    <nd ref="346245546"/>
    <tag k="addr:interpolation" v="odd"/>
  </way>
  <way id="31137309" version="3" timestamp="2011-03-11T22:19:18Z" uid="99800" user="wolfbert" changeset="7528167"/>
  <way id="31137354" version="4" timestamp="2010-05-29T09:51:05Z" uid="7336" user="Computerteddy" changeset="4840903">
    <nd ref="346246389"/>
    <nd ref="755820439"/>
    <nd ref="738218543"/>
    <nd ref="346936664"/>
    <nd ref="346246392"/>
    <tag k="highway" v="service"/>
    <tag k="surface" v="cobblestone"/>
  </way>
  <way id="31137354" version="5" timestamp="2010-06-05T21:19:16Z" uid="107674" user="GeoCounter" changeset="4912219">
    <nd ref="346246389"/>
    <nd ref="738218543"/>
    <nd ref="346936664"/>
    <nd ref="346246392"/>
    <tag k="highway" v="service"/>
    <tag k="surface" v="cobblestone"/>
  </way>
  <way id="31137354" version="6" timestamp="2011-09-05T14:35:50Z" uid="65364" user="Harry99" changeset="9217531">
    <nd ref="346246389"/>
    <nd ref="1424096560"/>
    <nd ref="346936664"/>
    <nd ref="346246392"/>
    <tag k="highway" v="service"/>
    <tag k="surface" v="cobblestone"/>
  </way>
  <way id="31137355" version="5" timestamp="2010-05-29T09:51:04Z" uid="7336" user="Computerteddy" changeset="4840903">
    <nd ref="346246393"/>
    <nd ref="755820435"/>
    <nd ref="738218537"/>
    <nd ref="346936659"/>
    <nd ref="346246398"/>
    <nd ref="346246396"/>
    <tag k="highway" v="service"/>
    <tag k="layer" v="0"/>
    <tag k="surface" v="cobblestone"/>
  </way>
  <way id="31137355" version="6" timestamp="2010-06-05T21:19:15Z" uid="107674" user="GeoCounter" changeset="4912219">
    <nd ref="346246393"/>
    <nd ref="738218537"/>
    <nd ref="346936659"/>
    <nd ref="346246398"/>
    <nd ref="346246396"/>
    <tag k="highway" v="service"/>
    <tag k="layer" v="0"/>
    <tag k="surface" v="cobblestone"/>
  </way>
  <way id="31137355" version="7" timestamp="2011-09-05T14:35:51Z" uid="65364" user="Harry99" changeset="9217531">
    <nd ref="346246393"/>
    <nd ref="1424096557"/>
    <nd ref="1424096563"/>
    <nd ref="346246398"/>
    <nd ref="346246396"/>
    <tag k="highway" v="service"/>
    <tag k="layer" v="0"/>
    <tag k="surface" v="cobblestone"/>
  </way>
  <way id="31137358" version="3" timestamp="2010-05-29T09:51:05Z" uid="7336" user="Computerteddy" changeset="4840903">
    <nd ref="346246401"/>
    <nd ref="346246392"/>
    <nd ref="738218539"/>
    <nd ref="755820438"/>
    <nd ref="57913394"/>
    <tag k="highway" v="service"/>
    <tag k="surface" v="cobblestone"/>
  </way>
  <way id="31137358" version="4" timestamp="2010-06-05T21:19:14Z" uid="107674" user="GeoCounter" changeset="4912219">
    <nd ref="346246401"/>
    <nd ref="346246392"/>
    <nd ref="57913394"/>
    <tag k="highway" v="service"/>
    <tag k="surface" v="cobblestone"/>
  </way>
  <way id="31137364" version="6" timestamp="2009-11-06T18:12:07Z" uid="64756" user="alegria6208" changeset="3050520">
    <nd ref="346246703"/>
    <nd ref="443613765"/>
    <nd ref="346246708"/>
    <nd ref="346246712"/>
    <nd ref="346246716"/>
    <nd ref="443613760"/>
    <nd ref="346246720"/>
    <tag k="bicycle" v="yes"/>
    <tag k="foot" v="yes"/>
    <tag k="highway" v="footway"/>
    <tag k="segregated" v="no"/>
  </way>
  <way id="31137364" version="7" timestamp="2009-11-08T03:14:58Z" uid="36809" user="pfoten_weg_!_" changeset="3060646">
    <nd ref="346246703"/>
    <nd ref="443613765"/>
    <nd ref="346246708"/>
    <nd ref="346246712"/>
    <nd ref="346246716"/>
    <nd ref="443613760"/>
    <nd ref="346246720"/>
    <tag k="bicycle" v="yes"/>
    <tag k="foot" v="yes"/>
    <tag k="highway" v="footway"/>
    <tag k="segregated" v="no"/>
  </way>
  <way id="31137482" version="3" timestamp="2010-06-17T14:43:39Z" uid="43967" user="railsnail" changeset="5009343">
    <nd ref="165172494"/>
    <nd ref="346247167"/>
    <nd ref="774888061"/>
    <nd ref="774888077"/>
    <nd ref="346247168"/>
    <nd ref="346247170"/>
    <nd ref="346247182"/>
    <nd ref="774888042"/>
    <nd ref="346247188"/>
    <nd ref="346247191"/>
    <nd ref="346247199"/>
    <nd ref="346247209"/>
    <nd ref="346247217"/>
    <nd ref="346259940"/>
    <nd ref="346259934"/>
    <tag k="highway" v="unclassified"/>
  </way>
  <way id="31137482" version="4" timestamp="2010-10-25T19:14:38Z" uid="360538" user="ToX" changeset="6176496">
    <nd ref="165172494"/>
    <nd ref="965194679"/>
    <nd ref="346247167"/>
    <nd ref="965194858"/>
    <nd ref="774888061"/>
    <nd ref="965194888"/>
    <nd ref="774888077"/>
    <nd ref="965194909"/>
    <nd ref="346247168"/>
    <nd ref="965195199"/>
    <nd ref="965194972"/>
    <nd ref="346247170"/>
    <nd ref="346247182"/>
    <nd ref="965195099"/>
    <nd ref="774888042"/>
    <nd ref="346247188"/>
    <nd ref="346247191"/>
    <nd ref="346247199"/>
    <nd ref="965195287"/>
    <nd ref="965195481"/>
    <nd ref="346247209"/>
    <nd ref="346247217"/>
    <nd ref="346259940"/>
    <nd ref="346259934"/>
    <tag k="highway" v="unclassified"/>
  </way>
  <way id="31137482" version="5" timestamp="2010-11-02T19:53:03Z" uid="68842" user="noperante" changeset="6270798">
    <nd ref="165172494"/>
    <nd ref="965194679"/>
    <nd ref="346247167"/>
    <nd ref="965194858"/>
    <nd ref="774888061"/>
    <nd ref="965194888"/>
    <nd ref="774888077"/>
    <nd ref="965194909"/>
    <nd ref="346247168"/>
    <nd ref="965195199"/>
    <nd ref="965194972"/>
    <nd ref="346247170"/>
    <nd ref="346247182"/>
    <nd ref="965195099"/>
    <nd ref="975097885"/>
    <nd ref="774888042"/>
    <nd ref="346247188"/>
    <nd ref="346247191"/>
    <nd ref="346247199"/>
    <nd ref="965195287"/>
    <nd ref="965195481"/>
    <nd ref="346247209"/>
    <nd ref="346247217"/>
    <nd ref="346259940"/>
    <nd ref="346259934"/>
    <tag k="highway" v="unclassified"/>
  </way>
  <way id="31137482" version="6" timestamp="2011-05-26T06:47:38Z" uid="397527" user="Stans" changeset="8250664">
    <nd ref="165172494"/>
    <nd ref="965194679"/>
    <nd ref="346247167"/>
    <nd ref="965194858"/>
    <nd ref="774888061"/>
    <nd ref="965194888"/>
    <nd ref="774888077"/>
    <nd ref="965194909"/>
    <nd ref="346247168"/>
    <nd ref="965195199"/>
    <nd ref="965194972"/>
    <nd ref="346247170"/>
    <nd ref="346247182"/>
    <nd ref="965195099"/>
    <nd ref="975097885"/>
    <nd ref="774888042"/>
    <nd ref="346247188"/>
    <nd ref="346247191"/>
    <nd ref="1300442497"/>
    <nd ref="346247199"/>
    <nd ref="965195287"/>
    <nd ref="965195481"/>
    <nd ref="346247209"/>
    <nd ref="346247217"/>
    <nd ref="346259940"/>
    <nd ref="346259934"/>
    <tag k="highway" v="unclassified"/>
    <tag k="name" v="Lungogesso Papa Giovanni XXIII"/>
  </way>
  <way id="31137482" version="7" timestamp="2011-05-26T12:05:08Z" uid="397527" user="Stans" changeset="8252956">
    <nd ref="165172494"/>
    <nd ref="965194679"/>
    <nd ref="346247167"/>
    <nd ref="965194858"/>
    <nd ref="774888061"/>
    <nd ref="965194888"/>
    <nd ref="774888077"/>
    <nd ref="1300595342"/>
    <nd ref="965194909"/>
    <nd ref="346247168"/>
    <nd ref="965195199"/>
    <nd ref="965194972"/>
    <nd ref="346247170"/>
    <nd ref="346247182"/>
    <nd ref="965195099"/>
    <nd ref="975097885"/>
    <nd ref="774888042"/>
    <nd ref="346247188"/>
    <nd ref="346247191"/>
    <nd ref="1300442497"/>
    <nd ref="346247199"/>
    <nd ref="965195287"/>
    <nd ref="965195481"/>
    <nd ref="346247209"/>
    <nd ref="346247217"/>
    <nd ref="346259940"/>
    <nd ref="346259934"/>
    <tag k="highway" v="unclassified"/>
    <tag k="name" v="Lungogesso Papa Giovanni XXIII"/>
  </way>
  <way id="31137483" version="4" timestamp="2010-06-17T14:54:09Z" uid="43967" user="railsnail" changeset="5009437">
    <nd ref="774901844"/>
    <nd ref="774901848"/>
    <nd ref="774901802"/>
    <nd ref="774901817"/>
    <nd ref="774901869"/>
    <nd ref="268696278"/>
    <tag k="highway" v="footway"/>
  </way>
  <way id="31137483" version="5" timestamp="2011-09-06T10:18:05Z" uid="67289" user="Gautama" changeset="9225556">
    <nd ref="774901844"/>
    <nd ref="774901848"/>
    <nd ref="774901802"/>
    <nd ref="774901817"/>
    <nd ref="774901869"/>
    <nd ref="268696278"/>
    <tag k="highway" v="steps"/>
  </way>
  <way id="31137488" version="13" timestamp="2011-02-22T20:43:16Z" uid="16922" user="amai" changeset="7367336">
    <nd ref="346197899"/>
    <nd ref="346247254"/>
    <nd ref="346643256"/>
    <nd ref="346247256"/>
    <nd ref="346247257"/>
    <nd ref="346247258"/>
    <nd ref="1167025969"/>
    <nd ref="346247259"/>
    <nd ref="1167025995"/>
    <nd ref="346247260"/>
    <tag k="highway" v="secondary"/>
    <tag k="name" v="เลี่ยงเมืองปากเกร็ด"/>
  </way>
  <way id="31137488" version="14" timestamp="2012-02-24T07:02:10Z" uid="100662" user="Paul_012" changeset="10775218">
    <nd ref="346247260"/>
    <nd ref="1167025995"/>
    <nd ref="346247259"/>
    <nd ref="1167025969"/>
    <nd ref="346247258"/>
    <nd ref="346247257"/>
    <nd ref="346247256"/>
    <nd ref="346643256"/>
    <nd ref="346247254"/>
    <nd ref="1645239639"/>
    <nd ref="346197899"/>
    <tag k="highway" v="tertiary"/>
    <tag k="name" v="เลี่ยงเมืองปากเกร็ด"/>
    <tag k="oneway" v="yes"/>
  </way>
  <way id="31137488" version="15" timestamp="2012-02-25T17:55:29Z" uid="100662" user="Paul_012" changeset="10789556">
    <nd ref="346247260"/>
    <nd ref="1647309905"/>
    <nd ref="1167025995"/>
    <nd ref="346247259"/>
    <nd ref="1167025969"/>
    <nd ref="346247258"/>
    <nd ref="346247257"/>
    <nd ref="346247256"/>
    <nd ref="346643256"/>
    <nd ref="346247254"/>
    <nd ref="1645239639"/>
    <nd ref="346197899"/>
    <tag k="highway" v="tertiary"/>
    <tag k="name" v="เลี่ยงเมืองปากเกร็ด"/>
    <tag k="oneway" v="yes"/>
  </way>
  <way id="31137488" version="16" timestamp="2012-03-02T16:22:01Z" uid="100662" user="Paul_012" changeset="10849983">
    <nd ref="346247260"/>
    <nd ref="1647309905"/>
    <nd ref="1167025995"/>
    <nd ref="346247259"/>
    <nd ref="1167025969"/>
    <nd ref="346247258"/>
    <nd ref="1656125987"/>
    <nd ref="346247257"/>
    <nd ref="346247256"/>
    <nd ref="346643256"/>
    <nd ref="346247254"/>
    <nd ref="1645239639"/>
    <nd ref="346197899"/>
    <tag k="highway" v="tertiary"/>
    <tag k="name" v="เลี่ยงเมืองปากเกร็ด"/>
    <tag k="oneway" v="yes"/>
  </way>
  <way id="31137488" version="17" timestamp="2012-03-25T16:47:43Z" uid="61891" user="stephankn" changeset="11097067"/>
  <way id="31137491" version="2" timestamp="2010-04-02T17:29:33Z" uid="20587" user="balrog-kun" changeset="4304500">
    <nd ref="346247163"/>
    <nd ref="346247299"/>
    <nd ref="346247300"/>
    <nd ref="346247301"/>
    <nd ref="346247302"/>
    <nd ref="346247304"/>
    <nd ref="346247306"/>
    <tag k="created_by" v="Potlatch 0.10f"/>
    <tag k="highway" v="secondary"/>
    <tag k="name" v="Highland Park Way Southwest"/>
    <tag k="oneway" v="yes"/>
    <tag k="tiger:cfcc" v="A41"/>
    <tag k="tiger:county" v="King, WA"/>
    <tag k="tiger:name_base" v="Highland Park"/>
    <tag k="tiger:name_direction_suffix" v="SW"/>
    <tag k="tiger:name_type" v="Way"/>
    <tag k="tiger:reviewed" v="no"/>
    <tag k="tiger:separated" v="no"/>
    <tag k="tiger:source" v="tiger_import_dch_v0.6_20070830"/>
    <tag k="tiger:tlid" v="186696089:186591420:186666353:186591430:186591433"/>
    <tag k="tiger:zip_left" v="98106"/>
    <tag k="tiger:zip_right" v="98106"/>
  </way>
  <way id="31137504" version="3" timestamp="2010-04-02T17:29:33Z" uid="20587" user="balrog-kun" changeset="4304500">
    <nd ref="346247687"/>
    <nd ref="346247617"/>
    <nd ref="53139112"/>
    <nd ref="344853001"/>
    <tag k="created_by" v="Potlatch 0.10f"/>
    <tag k="highway" v="residential"/>
    <tag k="name" v="13th Avenue Southwest"/>
    <tag k="tiger:cfcc" v="A41"/>
    <tag k="tiger:county" v="King, WA"/>
    <tag k="tiger:name_base" v="13th"/>
    <tag k="tiger:name_direction_suffix" v="SW"/>
    <tag k="tiger:name_type" v="Ave"/>
    <tag k="tiger:reviewed" v="no"/>
    <tag k="tiger:separated" v="no"/>
    <tag k="tiger:source" v="tiger_import_dch_v0.6_20070830"/>
    <tag k="tiger:tlid" v="186591510:186591517:186591522:186591363:186591367:186591400:186591403:186591409:186704296:186591550"/>
    <tag k="tiger:zip_left" v="98106"/>
    <tag k="tiger:zip_right" v="98106"/>
  </way>
  <way id="31137505" version="2" timestamp="2010-07-09T18:37:19Z" uid="74617" user="JohnSmith" changeset="5175636">
    <nd ref="179346256"/>
    <nd ref="346247644"/>
    <tag k="highway" v="residential"/>
    <tag k="maxspeed" v="50"/>
    <tag k="maxspeed:source" v="default residential speed limit in Australia"/>
    <tag k="source" v="Yahoo Imagery"/>
  </way>
  <way id="31137505" version="3" timestamp="2011-10-03T11:51:36Z" uid="142807" user="SDavies" changeset="9459440">
    <nd ref="179346256"/>
    <nd ref="346247644"/>
    <tag k="highway" v="residential"/>
    <tag k="maxspeed" v="50"/>
    <tag k="maxspeed:source" v="default residential speed limit in Australia"/>
    <tag k="name" v="Roe Place"/>
    <tag k="source" v="Yahoo Imagery"/>
  </way>
  <way id="31137505" version="4" timestamp="2012-01-18T06:19:47Z" uid="147510" user="woodpeck_fixbot" changeset="10424371">
    <nd ref="179346256"/>
    <nd ref="346247644"/>
    <tag k="highway" v="residential"/>
    <tag k="name" v="Roe Place"/>
    <tag k="source" v="Yahoo Imagery"/>
  </way>
  <way id="31137511" version="4" timestamp="2010-04-02T17:29:34Z" uid="20587" user="balrog-kun" changeset="4304500">
    <nd ref="53106071"/>
    <nd ref="346247953"/>
    <nd ref="346247954"/>
    <nd ref="346247955"/>
    <nd ref="53234583"/>
    <nd ref="346248320"/>
    <nd ref="346248321"/>
    <nd ref="346248322"/>
    <nd ref="346248323"/>
    <nd ref="346248325"/>
    <nd ref="53139109"/>
    <nd ref="346248326"/>
    <nd ref="346248327"/>
    <nd ref="346248328"/>
    <nd ref="346248329"/>
    <nd ref="53190369"/>
    <nd ref="346248331"/>
    <nd ref="346248332"/>
    <nd ref="346248333"/>
    <nd ref="53186358"/>
    <tag k="created_by" v="Potlatch 0.10f"/>
    <tag k="highway" v="residential"/>
    <tag k="name" v="14th Avenue Southwest"/>
    <tag k="tiger:cfcc" v="A41"/>
    <tag k="tiger:county" v="King, WA"/>
    <tag k="tiger:name_base" v="14th"/>
    <tag k="tiger:name_direction_suffix" v="SW"/>
    <tag k="tiger:name_type" v="Ave"/>
    <tag k="tiger:reviewed" v="no"/>
    <tag k="tiger:separated" v="no"/>
    <tag k="tiger:source" v="tiger_import_dch_v0.6_20070830"/>
    <tag k="tiger:tlid" v="186591406:186591411:186591412:186666359"/>
    <tag k="tiger:zip_left" v="98106"/>
    <tag k="tiger:zip_right" v="98106"/>
  </way>
  <way id="31137519" version="3" timestamp="2010-04-02T17:29:34Z" uid="20587" user="balrog-kun" changeset="4304500">
    <nd ref="346247968"/>
    <nd ref="53104628"/>
    <tag k="created_by" v="Potlatch 0.10f"/>
    <tag k="highway" v="residential"/>
    <tag k="name" v="Southwest Donovan Street"/>
    <tag k="tiger:cfcc" v="A41"/>
    <tag k="tiger:county" v="King, WA"/>
    <tag k="tiger:name_base" v="Donovan"/>
    <tag k="tiger:name_direction_prefix" v="SW"/>
    <tag k="tiger:name_type" v="St"/>
    <tag k="tiger:reviewed" v="no"/>
    <tag k="tiger:separated" v="no"/>
    <tag k="tiger:source" v="tiger_import_dch_v0.6_20070830"/>
    <tag k="tiger:tlid" v="186591488"/>
    <tag k="tiger:zip_left" v="98106"/>
    <tag k="tiger:zip_right" v="98106"/>
  </way>
  <way id="31137732" version="1" timestamp="2009-02-16T17:50:53Z" uid="58091" user="Andreas M" changeset="492281">
    <nd ref="346255381"/>
    <nd ref="346255377"/>
    <tag k="addr:city" v="Wien"/>
    <tag k="addr:interpolation" v="even"/>
    <tag k="addr:postcode" v="1020"/>
    <tag k="addr:street" v="Vorgartenstraße"/>
  </way>
  <way id="31137732" version="2" timestamp="2009-03-15T19:29:01Z" uid="58091" user="Andreas M" changeset="815744">
    <nd ref="346255381"/>
    <nd ref="346255377"/>
    <tag k="addr:interpolation" v="even"/>
  </way>
  <way id="31137732" version="3" timestamp="2011-03-11T22:19:19Z" uid="99800" user="wolfbert" changeset="7528167"/>
  <way id="31137791" version="2" timestamp="2010-07-09T18:37:45Z" uid="74617" user="JohnSmith" changeset="5175636">
    <nd ref="129375157"/>
    <nd ref="129375154"/>
    <nd ref="129375155"/>
    <tag k="highway" v="residential"/>
    <tag k="maxspeed" v="50"/>
    <tag k="maxspeed:source" v="default residential speed limit in Australia"/>
    <tag k="name" v="Calway Rise"/>
  </way>
  <way id="31137791" version="3" timestamp="2012-01-18T06:19:48Z" uid="147510" user="woodpeck_fixbot" changeset="10424371">
    <nd ref="129375157"/>
    <nd ref="129375154"/>
    <nd ref="129375155"/>
    <tag k="highway" v="residential"/>
    <tag k="name" v="Calway Rise"/>
  </way>
  <way id="31137792" version="2" timestamp="2010-07-09T18:25:13Z" uid="74617" user="JohnSmith" changeset="5175636">
    <nd ref="129373209"/>
    <nd ref="129373206"/>
    <nd ref="129373207"/>
    <tag k="highway" v="residential"/>
    <tag k="maxspeed" v="50"/>
    <tag k="maxspeed:source" v="default residential speed limit in Australia"/>
    <tag k="name" v="Penley Glade"/>
  </way>
  <way id="31137792" version="3" timestamp="2012-01-18T06:19:49Z" uid="147510" user="woodpeck_fixbot" changeset="10424371">
    <nd ref="129373209"/>
    <nd ref="129373206"/>
    <nd ref="129373207"/>
    <tag k="highway" v="residential"/>
    <tag k="name" v="Penley Glade"/>
  </way>
  <way id="31137793" version="2" timestamp="2010-07-09T18:35:15Z" uid="74617" user="JohnSmith" changeset="5175636">
    <nd ref="129376993"/>
    <nd ref="129376991"/>
    <nd ref="129376994"/>
    <nd ref="129376996"/>
    <nd ref="129376999"/>
    <tag k="highway" v="residential"/>
    <tag k="maxspeed" v="50"/>
    <tag k="maxspeed:source" v="default residential speed limit in Australia"/>
    <tag k="name" v="Bowood Pathway"/>
  </way>
  <way id="31137793" version="3" timestamp="2012-01-18T06:19:50Z" uid="147510" user="woodpeck_fixbot" changeset="10424371">
    <nd ref="129376993"/>
    <nd ref="129376991"/>
    <nd ref="129376994"/>
    <nd ref="129376996"/>
    <nd ref="129376999"/>
    <tag k="highway" v="residential"/>
    <tag k="name" v="Bowood Pathway"/>
  </way>
  <way id="31137794" version="2" timestamp="2010-07-09T18:28:04Z" uid="74617" user="JohnSmith" changeset="5175636">
    <nd ref="129363267"/>
    <nd ref="129363264"/>
    <nd ref="129363270"/>
    <tag k="highway" v="residential"/>
    <tag k="maxspeed" v="50"/>
    <tag k="maxspeed:source" v="default residential speed limit in Australia"/>
    <tag k="name" v="Romsey Grove"/>
  </way>
  <way id="31137794" version="3" timestamp="2012-01-18T06:19:52Z" uid="147510" user="woodpeck_fixbot" changeset="10424371">
    <nd ref="129363267"/>
    <nd ref="129363264"/>
    <nd ref="129363270"/>
    <tag k="highway" v="residential"/>
    <tag k="name" v="Romsey Grove"/>
  </way>
  <way id="31137795" version="2" timestamp="2010-07-09T18:39:06Z" uid="74617" user="JohnSmith" changeset="5175636">
    <nd ref="129373198"/>
    <nd ref="346255755"/>
    <nd ref="346255758"/>
    <tag k="highway" v="residential"/>
    <tag k="maxspeed" v="50"/>
    <tag k="maxspeed:source" v="default residential speed limit in Australia"/>
  </way>
  <way id="31137795" version="3" timestamp="2012-01-18T06:19:53Z" uid="147510" user="woodpeck_fixbot" changeset="10424371">
    <nd ref="129373198"/>
    <nd ref="346255755"/>
    <nd ref="346255758"/>
    <tag k="highway" v="residential"/>
  </way>
  <way id="31137800" version="5" timestamp="2010-04-07T15:08:39Z" uid="20587" user="balrog-kun" changeset="4353646">
    <nd ref="346256000"/>
    <nd ref="346252587"/>
    <nd ref="346256127"/>
    <nd ref="346252588"/>
    <nd ref="147518644"/>
    <tag k="created_by" v="Potlatch 0.10f"/>
    <tag k="highway" v="residential"/>
    <tag k="name" v="Oakwood Street"/>
    <tag k="tiger:cfcc" v="A41"/>
    <tag k="tiger:county" v="Oklahoma, OK"/>
    <tag k="tiger:name_base" v="Oakwood"/>
    <tag k="tiger:name_type" v="St"/>
    <tag k="tiger:reviewed" v="no"/>
    <tag k="tiger:separated" v="no"/>
    <tag k="tiger:source" v="tiger_import_dch_v0.6_20070829"/>
    <tag k="tiger:tlid" v="100417241:100417242:100417234"/>
    <tag k="tiger:zip_left" v="73084"/>
    <tag k="tiger:zip_right" v="73084"/>
  </way>
  <way id="31137812" version="2" timestamp="2010-04-07T15:08:39Z" uid="20587" user="balrog-kun" changeset="4353646">
    <nd ref="147518644"/>
    <nd ref="346252590"/>
    <nd ref="147486068"/>
    <nd ref="346252591"/>
    <nd ref="147417994"/>
    <tag k="created_by" v="Potlatch 0.10f"/>
    <tag k="highway" v="residential"/>
    <tag k="name" v="Oakwood Street"/>
    <tag k="tiger:cfcc" v="A41"/>
    <tag k="tiger:county" v="Oklahoma, OK"/>
    <tag k="tiger:name_base" v="Oakwood"/>
    <tag k="tiger:name_type" v="St"/>
    <tag k="tiger:reviewed" v="no"/>
    <tag k="tiger:separated" v="no"/>
    <tag k="tiger:source" v="tiger_import_dch_v0.6_20070829"/>
    <tag k="tiger:tlid" v="100417241:100417242:100417234"/>
    <tag k="tiger:zip_left" v="73084"/>
    <tag k="tiger:zip_right" v="73084"/>
  </way>
  <way id="31137827" version="6" timestamp="2010-04-07T15:08:40Z" uid="20587" user="balrog-kun" changeset="4353646">
    <nd ref="147518644"/>
    <nd ref="346255033"/>
    <nd ref="346255032"/>
    <nd ref="346256503"/>
    <nd ref="346255031"/>
    <tag k="created_by" v="Potlatch 0.10f"/>
    <tag k="highway" v="residential"/>
    <tag k="name" v="Oakwood Street"/>
    <tag k="tiger:cfcc" v="A41"/>
    <tag k="tiger:county" v="Oklahoma, OK"/>
    <tag k="tiger:name_base" v="Oakwood"/>
    <tag k="tiger:name_type" v="St"/>
    <tag k="tiger:reviewed" v="no"/>
    <tag k="tiger:separated" v="no"/>
    <tag k="tiger:source" v="tiger_import_dch_v0.6_20070829"/>
    <tag k="tiger:tlid" v="100417241:100417242:100417234"/>
    <tag k="tiger:zip_left" v="73084"/>
    <tag k="tiger:zip_right" v="73084"/>
  </way>
  <way id="31137970" version="3" timestamp="2010-06-29T20:48:53Z" uid="74617" user="JohnSmith" changeset="5109183">
    <nd ref="9111878"/>
    <nd ref="430077756"/>
    <nd ref="346258676"/>
    <nd ref="346258677"/>
    <nd ref="346258679"/>
    <nd ref="9111879"/>
    <nd ref="9111878"/>
    <tag k="fixme" v="sport=rugby is ambiguous, see http://wiki.osm.org/wiki/Tag:sport%3Drugby for more details"/>
    <tag k="sport" v="rugby"/>
  </way>
  <way id="31137970" version="4" timestamp="2012-03-01T21:18:13Z" uid="501777" user="Zorac" changeset="10841938"/>
  <way id="31137094" version="10" timestamp="2012-07-25T18:31:10Z" uid="140064" user="debfreak" changeset="12490215">
    <nd ref="346241469"/>
    <nd ref="442138861"/>
    <nd ref="365144601"/>
    <nd ref="346241474"/>
    <nd ref="454011304"/>
    <nd ref="346241486"/>
    <nd ref="346241488"/>
    <nd ref="365144603"/>
    <nd ref="1837924280"/>
    <nd ref="346241494"/>
    <nd ref="454139796"/>
    <nd ref="346241497"/>
    <nd ref="454139808"/>
    <nd ref="346241503"/>
    <nd ref="346241512"/>
    <nd ref="365144605"/>
    <nd ref="454139810"/>
    <tag k="bicycle" v="yes"/>
    <tag k="foot" v="yes"/>
    <tag k="highway" v="footway"/>
    <tag k="segregated" v="no"/>
    <tag k="surface" v="gravel"/>
  </way>
  <way id="31137099" version="8" timestamp="2012-05-28T23:12:20Z" uid="447903" user="Glassman" changeset="11732731">
    <nd ref="346241588"/>
    <nd ref="53202913"/>
    <nd ref="660058409"/>
    <nd ref="53202915"/>
    <nd ref="1769052792"/>
    <nd ref="53202916"/>
    <nd ref="1769052791"/>
    <nd ref="53151801"/>
    <nd ref="53165615"/>
    <nd ref="53202917"/>
    <nd ref="53188367"/>
    <nd ref="53202919"/>
    <nd ref="53202920"/>
    <nd ref="53202921"/>
    <nd ref="1676405892"/>
    <nd ref="53134872"/>
    <nd ref="53202922"/>
    <nd ref="53130410"/>
    <nd ref="53202924"/>
    <tag k="highway" v="tertiary"/>
    <tag k="name" v="South 136th Street"/>
    <tag k="tiger:cfcc" v="A41"/>
    <tag k="tiger:county" v="King, WA"/>
    <tag k="tiger:name_base" v="136th"/>
    <tag k="tiger:name_direction_prefix" v="S"/>
    <tag k="tiger:separated" v="no"/>
    <tag k="tiger:source" v="tiger_import_dch_v0.6_20070830"/>
    <tag k="tiger:tlid" v="186626426:186626324:186626328:186626356:186626359:186626367:186626372"/>
  </way>
  <way id="31137099" version="9" timestamp="2012-05-30T02:26:16Z" uid="447903" user="Glassman" changeset="11744264">
    <nd ref="346241588"/>
    <nd ref="53202913"/>
    <nd ref="660058409"/>
    <nd ref="53202915"/>
    <nd ref="1769052792"/>
    <nd ref="53202916"/>
    <nd ref="1769052791"/>
    <nd ref="53151801"/>
    <nd ref="53165615"/>
    <nd ref="1770157517"/>
    <nd ref="53188367"/>
    <nd ref="1770157518"/>
    <nd ref="1770157519"/>
    <nd ref="53202919"/>
    <nd ref="53202920"/>
    <nd ref="53202921"/>
    <nd ref="1676405892"/>
    <nd ref="53134872"/>
    <nd ref="53202922"/>
    <nd ref="53130410"/>
    <nd ref="53202924"/>
    <tag k="highway" v="tertiary"/>
    <tag k="name" v="South 136th Street"/>
    <tag k="tiger:cfcc" v="A41"/>
    <tag k="tiger:county" v="King, WA"/>
    <tag k="tiger:name_base" v="136th"/>
    <tag k="tiger:name_direction_prefix" v="S"/>
    <tag k="tiger:separated" v="no"/>
    <tag k="tiger:source" v="tiger_import_dch_v0.6_20070830"/>
    <tag k="tiger:tlid" v="186626426:186626324:186626328:186626356:186626359:186626367:186626372"/>
  </way>
  <way id="31137218" version="3" timestamp="2012-05-19T12:51:05Z" uid="367303" user="Vaekk" changeset="11642297"/>
  <way id="31137354" version="7" timestamp="2012-07-24T20:24:19Z" uid="212553" user="ARWIE" changeset="12475685">
    <nd ref="346246389"/>
    <nd ref="1424096560"/>
    <nd ref="346936664"/>
    <nd ref="1836961527"/>
    <nd ref="346246392"/>
    <tag k="highway" v="service"/>
    <tag k="surface" v="cobblestone"/>
  </way>
  <way id="31137482" version="8" timestamp="2012-07-16T04:48:15Z" uid="722137" user="OSMF Redaction Account" changeset="12239477">
    <nd ref="165172494"/>
    <nd ref="965194679"/>
    <nd ref="346247167"/>
    <nd ref="965194858"/>
    <nd ref="965194888"/>
    <nd ref="1300595342"/>
    <nd ref="965194909"/>
    <nd ref="346247168"/>
    <nd ref="965195199"/>
    <nd ref="965194972"/>
    <nd ref="346247170"/>
    <nd ref="346247182"/>
    <nd ref="965195099"/>
    <nd ref="975097885"/>
    <nd ref="346247188"/>
    <nd ref="346247191"/>
    <nd ref="1300442497"/>
    <nd ref="346247199"/>
    <nd ref="965195287"/>
    <nd ref="965195481"/>
    <nd ref="346247209"/>
    <nd ref="346247217"/>
    <nd ref="346259940"/>
    <nd ref="346259934"/>
    <tag k="highway" v="unclassified"/>
    <tag k="name" v="Lungogesso Papa Giovanni XXIII"/>
  </way>
  <way id="31137482" version="9" timestamp="2012-07-25T21:56:53Z" uid="492756" user="Botaler" changeset="12492753">
    <nd ref="165172494"/>
    <nd ref="965194679"/>
    <nd ref="346247167"/>
    <nd ref="965194858"/>
    <nd ref="1838233518"/>
    <nd ref="965194888"/>
    <nd ref="1300595342"/>
    <nd ref="965194909"/>
    <nd ref="346247168"/>
    <nd ref="965195199"/>
    <nd ref="965194972"/>
    <nd ref="346247170"/>
    <nd ref="346247182"/>
    <nd ref="965195099"/>
    <nd ref="975097885"/>
    <nd ref="346247188"/>
    <nd ref="346247191"/>
    <nd ref="1300442497"/>
    <nd ref="346247199"/>
    <nd ref="965195287"/>
    <nd ref="965195481"/>
    <nd ref="346247209"/>
    <nd ref="346247217"/>
    <nd ref="346259940"/>
    <nd ref="346259934"/>
    <tag k="highway" v="tertiary"/>
    <tag k="name" v="Lungogesso Papa Giovanni XXIII"/>
  </way>
  <way id="31137482" version="10" timestamp="2012-08-01T21:50:55Z" uid="33286" user="Gigi" changeset="12578984">
    <nd ref="165172494"/>
    <nd ref="965194679"/>
    <nd ref="346247167"/>
    <nd ref="1847451568"/>
    <nd ref="965194858"/>
    <nd ref="1838233518"/>
    <nd ref="965194888"/>
    <nd ref="1300595342"/>
    <nd ref="965194909"/>
    <nd ref="346247168"/>
    <nd ref="965195199"/>
    <nd ref="965194972"/>
    <nd ref="346247170"/>
    <nd ref="346247182"/>
    <nd ref="965195099"/>
    <nd ref="975097885"/>
    <nd ref="346247188"/>
    <nd ref="346247191"/>
    <nd ref="1300442497"/>
    <nd ref="346247199"/>
    <nd ref="965195287"/>
    <nd ref="965195481"/>
    <nd ref="346247209"/>
    <nd ref="346247217"/>
    <nd ref="346259940"/>
    <nd ref="346259934"/>
    <tag k="highway" v="tertiary"/>
    <tag k="name" v="Lungogesso Papa Giovanni XXIII"/>
  </way>
  <way id="31137482" version="11" timestamp="2012-08-01T21:55:00Z" uid="33286" user="Gigi" changeset="12578984">
    <nd ref="165172494"/>
    <nd ref="965194679"/>
    <nd ref="346247167"/>
    <nd ref="1847451568"/>
    <nd ref="965194858"/>
    <nd ref="1838233518"/>
    <nd ref="965194888"/>
    <nd ref="1847455714"/>
    <nd ref="1300595342"/>
    <nd ref="965194909"/>
    <nd ref="346247168"/>
    <nd ref="965195199"/>
    <nd ref="965194972"/>
    <nd ref="346247170"/>
    <nd ref="346247182"/>
    <nd ref="965195099"/>
    <nd ref="975097885"/>
    <nd ref="346247188"/>
    <nd ref="346247191"/>
    <nd ref="1300442497"/>
    <nd ref="346247199"/>
    <nd ref="965195287"/>
    <nd ref="965195481"/>
    <nd ref="346247209"/>
    <nd ref="346247217"/>
    <nd ref="346259940"/>
    <nd ref="346259934"/>
    <tag k="highway" v="tertiary"/>
    <tag k="name" v="Lungogesso Papa Giovanni XXIII"/>
  </way>
  <way id="31137483" version="6" timestamp="2012-07-16T04:48:22Z" uid="722137" user="OSMF Redaction Account" changeset="12239477"/>
  <way id="31137505" version="5" timestamp="2012-07-19T10:49:24Z" uid="722137" user="OSMF Redaction Account" changeset="12319560"/>
  <way id="31137791" version="4" timestamp="2012-07-19T11:10:16Z" uid="722137" user="OSMF Redaction Account" changeset="12320750"/>
  <way id="31137792" version="4" timestamp="2012-07-19T11:10:16Z" uid="722137" user="OSMF Redaction Account" changeset="12320750"/>
  <way id="31137793" version="4" timestamp="2012-07-19T11:10:16Z" uid="722137" user="OSMF Redaction Account" changeset="12320750"/>
  <way id="31137794" version="4" timestamp="2012-07-19T11:10:16Z" uid="722137" user="OSMF Redaction Account" changeset="12320750"/>
  <way id="31137795" version="4" timestamp="2012-07-26T12:24:37Z" uid="142807" user="SDavies" changeset="12498542">
    <nd ref="129373198"/>
    <nd ref="346255755"/>
    <nd ref="1838690900"/>
    <nd ref="346255758"/>
    <tag k="fixme" v="Ground survey required to check status of way"/>
    <tag k="highway" v="service"/>
  </way>
</osm>
