<?xml version='1.0' encoding='UTF-8'?>
<osm version="0.6" generator="libosmium/2.20.0">
  <way id="31185028" version="2" timestamp="2009-10-31T22:56:39Z" uid="36809" user="pfoten_weg_!_" changeset="3002314">
    <nd ref="347045809"/>
    <nd ref="347045812"/>
    <nd ref="30042260"/>
    <nd ref="347045816"/>
    <nd ref="347045822"/>
    <tag k="name" v="Valepp"/>
    <tag k="note" v="FIXME: both ends"/>
    <tag k="oneway" v="-1"/>
    <tag k="waterway" v="river"/>
  </way>
  <way id="31185028" version="3" timestamp="2009-10-31T23:19:22Z" uid="36809" user="pfoten_weg_!_" changeset="3002500">
    <nd ref="347045809"/>
    <nd ref="347045812"/>
    <nd ref="30042260"/>
    <nd ref="347045816"/>
    <nd ref="347045822"/>
    <tag k="name" v="Valepp"/>
    <tag k="note" v="FIXME: both ends"/>
    <tag k="oneway" v="-1"/>
    <tag k="waterway" v="river"/>
  </way>
  <way id="31185028" version="4" timestamp="2009-10-31T23:34:37Z" uid="36809" user="pfoten_weg_!_" changeset="3002613">
    <nd ref="347045809"/>
    <nd ref="347045812"/>
    <nd ref="30042260"/>
    <nd ref="347045816"/>
    <nd ref="347045822"/>
    <tag k="name" v="Valepp"/>
    <tag k="note" v="FIXME: both ends"/>
    <tag k="oneway" v="-1"/>
    <tag k="waterway" v="river"/>
  </way>
  <way id="31185028" version="5" timestamp="2010-02-14T20:11:40Z" uid="62236" user="Paulchen Panther" changeset="3877986">
    <nd ref="347045822"/>
    <nd ref="347045816"/>
    <nd ref="30042260"/>
    <nd ref="347045812"/>
    <nd ref="347045809"/>
    <tag k="name" v="Valepp"/>
    <tag k="note" v="FIXME: both ends"/>
    <tag k="waterway" v="river"/>
  </way>
  <way id="31185028" version="6" timestamp="2010-06-06T17:22:07Z" uid="64756" user="alegria6208" changeset="4920251"/>
  <way id="31185065" version="2" timestamp="2010-04-07T13:27:22Z" uid="20587" user="balrog-kun" changeset="4353646">
    <nd ref="222838902"/>
    <nd ref="347046120"/>
    <nd ref="347046122"/>
    <nd ref="347046123"/>
    <nd ref="347046125"/>
    <nd ref="347046126"/>
    <nd ref="347046127"/>
    <nd ref="347046128"/>
    <nd ref="347046129"/>
    <nd ref="347046131"/>
    <nd ref="347046132"/>
    <nd ref="347046133"/>
    <nd ref="347046134"/>
    <nd ref="347046135"/>
    <nd ref="347046137"/>
    <nd ref="347046139"/>
    <nd ref="347046140"/>
    <nd ref="347046141"/>
    <nd ref="347046142"/>
    <nd ref="347046143"/>
    <nd ref="347046144"/>
    <nd ref="347046146"/>
    <nd ref="347046147"/>
    <nd ref="347046148"/>
    <nd ref="347046149"/>
    <nd ref="347046151"/>
    <nd ref="347046152"/>
    <nd ref="347046153"/>
    <nd ref="347046154"/>
    <nd ref="347046155"/>
    <nd ref="347046157"/>
    <tag k="created_by" v="Potlatch 0.10f"/>
    <tag k="highway" v="residential"/>
    <tag k="name" v="Sports Park Boulevard"/>
  </way>
  <way id="31185065" version="3" timestamp="2011-07-08T20:47:58Z" uid="6424" user="Lambertus" changeset="8669506">
    <nd ref="222838902"/>
    <nd ref="347046120"/>
    <nd ref="347046122"/>
    <nd ref="347046123"/>
    <nd ref="347046126"/>
    <nd ref="347046127"/>
    <nd ref="347046128"/>
    <nd ref="347046129"/>
    <nd ref="347046131"/>
    <nd ref="347046132"/>
    <nd ref="347046133"/>
    <nd ref="347046134"/>
    <nd ref="347046135"/>
    <nd ref="347046137"/>
    <nd ref="347046139"/>
    <nd ref="347046140"/>
    <nd ref="347046141"/>
    <nd ref="347046142"/>
    <nd ref="347046143"/>
    <nd ref="347046144"/>
    <nd ref="347046146"/>
    <nd ref="347046147"/>
    <nd ref="347046148"/>
    <nd ref="347046149"/>
    <nd ref="347046151"/>
    <nd ref="347046152"/>
    <nd ref="347046153"/>
    <nd ref="347046154"/>
    <nd ref="347046155"/>
    <nd ref="347046157"/>
    <tag k="highway" v="residential"/>
    <tag k="name" v="Sports Park Boulevard"/>
  </way>
  <way id="31185316" version="5" timestamp="2010-04-05T16:35:58Z" uid="163746" user="anti_bot-nonsense" changeset="4334877">
    <nd ref="288186211"/>
    <nd ref="347046458"/>
    <nd ref="347046460"/>
    <nd ref="347046463"/>
    <nd ref="347046465"/>
    <nd ref="347046466"/>
    <nd ref="347046467"/>
    <nd ref="347048611"/>
    <nd ref="347048613"/>
    <nd ref="347048616"/>
    <nd ref="347048618"/>
    <nd ref="347048620"/>
    <nd ref="347048622"/>
    <nd ref="347040886"/>
    <tag k="highway" v="primary"/>
    <tag k="maxweight" v="30"/>
    <tag k="name" v="Al. Ks. Jerzego Popiełuszki"/>
    <tag k="oneway" v="yes"/>
    <tag k="ref" v="67"/>
  </way>
  <way id="31185316" version="6" timestamp="2011-01-10T03:36:30Z" uid="163896" user="Zbigniew Czernik" changeset="6922848">
    <nd ref="288186211"/>
    <nd ref="347046458"/>
    <nd ref="347046460"/>
    <nd ref="347046463"/>
    <nd ref="347046465"/>
    <nd ref="1095850189"/>
    <nd ref="347048618"/>
    <nd ref="347048620"/>
    <nd ref="347040877"/>
    <tag k="highway" v="primary"/>
    <tag k="maxweight" v="30"/>
    <tag k="name" v="Al. Ks. Jerzego Popiełuszki"/>
    <tag k="oneway" v="yes"/>
    <tag k="ref" v="67"/>
  </way>
  <way id="31185361" version="2" timestamp="2010-04-07T13:27:22Z" uid="20587" user="balrog-kun" changeset="4353646">
    <nd ref="347049491"/>
    <nd ref="222943343"/>
    <nd ref="222890838"/>
    <nd ref="222943346"/>
    <nd ref="347046157"/>
    <nd ref="347024041"/>
    <tag k="created_by" v="Potlatch 0.10f"/>
    <tag k="highway" v="residential"/>
    <tag k="name" v="Old Alice Road"/>
    <tag k="name_1" v="County Road 1575"/>
    <tag k="tiger:cfcc" v="A41"/>
    <tag k="tiger:county" v="Cameron, TX"/>
    <tag k="tiger:name_base" v="Old Alice"/>
    <tag k="tiger:name_base_1" v="County Road 1575"/>
    <tag k="tiger:name_type" v="Rd"/>
    <tag k="tiger:reviewed" v="no"/>
    <tag k="tiger:separated" v="no"/>
    <tag k="tiger:source" v="tiger_import_dch_v0.6_20070829"/>
    <tag k="tiger:tlid" v="90013665:90013667:90013668:90013491:90013492:89995873:89995874:89995876:89995877:90004910"/>
    <tag k="tiger:zip_left" v="78566"/>
  </way>
  <way id="31185364" version="2" timestamp="2009-03-08T13:05:50Z" uid="6975" user="ulfl" changeset="757880">
    <nd ref="347049546"/>
    <nd ref="347049548"/>
    <nd ref="347049552"/>
    <nd ref="347049555"/>
    <nd ref="347049546"/>
    <tag k="building" v="yes"/>
  </way>
  <way id="31185364" version="3" timestamp="2009-07-02T14:50:09Z" uid="515" user="Frankie Roberto" changeset="1710709">
    <nd ref="347049546"/>
    <nd ref="347049548"/>
    <nd ref="347049552"/>
    <nd ref="347049555"/>
    <nd ref="347049546"/>
    <tag k="building" v="yes"/>
    <tag k="name" v="King Street Chambers"/>
  </way>
  <way id="31185364" version="4" timestamp="2009-07-04T11:49:17Z" uid="515" user="Frankie Roberto" changeset="1728727">
    <nd ref="347049546"/>
    <nd ref="347049548"/>
    <nd ref="347049552"/>
    <nd ref="347049555"/>
    <nd ref="347049546"/>
    <tag k="architect" v="Clegg &amp; Knowles"/>
    <tag k="building" v="yes"/>
    <tag k="name" v="King Street Chambers"/>
    <tag k="start_date" v="1875"/>
  </way>
  <way id="31185371" version="8" timestamp="2010-04-05T16:51:42Z" uid="163746" user="anti_bot-nonsense" changeset="4334877">
    <nd ref="347040921"/>
    <nd ref="347050244"/>
    <nd ref="347049608"/>
    <nd ref="347050684"/>
    <nd ref="347050687"/>
    <nd ref="347049612"/>
    <nd ref="347049614"/>
    <nd ref="347049616"/>
    <nd ref="347050868"/>
    <nd ref="347049620"/>
    <nd ref="347049622"/>
    <nd ref="347049624"/>
    <nd ref="347049627"/>
    <nd ref="347049629"/>
    <nd ref="347049631"/>
    <nd ref="347050282"/>
    <nd ref="288186211"/>
    <tag k="highway" v="primary"/>
    <tag k="maxweight" v="30"/>
    <tag k="name" v="Al. Ks. Jerzego Popiełuszki"/>
    <tag k="oneway" v="yes"/>
    <tag k="ref" v="67"/>
  </way>
  <way id="31185584" version="3" timestamp="2010-05-01T04:02:26Z" uid="4467" user="Rosscoe" changeset="4571452">
    <nd ref="714521050"/>
    <nd ref="60818188"/>
    <nd ref="347051804"/>
    <nd ref="60818149"/>
    <nd ref="347052146"/>
    <nd ref="714521138"/>
    <tag k="highway" v="secondary"/>
    <tag k="name" v="Stoneham Street"/>
    <tag k="source" v="Yahoo Imagery"/>
  </way>
  <way id="31185584" version="4" timestamp="2012-01-06T12:59:18Z" uid="142807" user="SDavies" changeset="10311122">
    <nd ref="714521050"/>
    <nd ref="60818188"/>
    <nd ref="347051804"/>
    <nd ref="60818149"/>
    <nd ref="347052146"/>
    <nd ref="714521138"/>
    <tag k="highway" v="tertiary"/>
    <tag k="name" v="Stoneham Street"/>
    <tag k="source" v="Yahoo Imagery"/>
  </way>
  <way id="31185586" version="5" timestamp="2010-05-01T04:02:32Z" uid="4467" user="Rosscoe" changeset="4571452">
    <nd ref="60818093"/>
    <nd ref="60818013"/>
    <nd ref="359029913"/>
    <nd ref="714521160"/>
    <tag k="highway" v="secondary"/>
    <tag k="name" v="Cape Street"/>
    <tag k="source" v="nearmap"/>
  </way>
  <way id="31185586" version="6" timestamp="2012-01-07T15:47:53Z" uid="142807" user="SDavies" changeset="10322362">
    <nd ref="60818093"/>
    <nd ref="60818013"/>
    <nd ref="359029913"/>
    <nd ref="714521160"/>
    <tag k="highway" v="tertiary"/>
    <tag k="name" v="Cape Street"/>
    <tag k="source" v="nearmap"/>
  </way>
  <way id="31185591" version="4" timestamp="2010-07-09T21:44:01Z" uid="74617" user="JohnSmith" changeset="5176956">
    <nd ref="347051797"/>
    <nd ref="347051804"/>
    <nd ref="347052201"/>
    <nd ref="347052232"/>
    <nd ref="347051853"/>
    <nd ref="347051811"/>
    <tag k="highway" v="residential"/>
    <tag k="maxspeed" v="50"/>
    <tag k="maxspeed:source" v="default residential speed limit in Australia"/>
    <tag k="name" v="Hodgson Street"/>
    <tag k="source" v="Yahoo Imagery"/>
  </way>
  <way id="31185591" version="5" timestamp="2012-01-18T06:38:11Z" uid="147510" user="woodpeck_fixbot" changeset="10424702">
    <nd ref="347051797"/>
    <nd ref="347051804"/>
    <nd ref="347052201"/>
    <nd ref="347052232"/>
    <nd ref="347051853"/>
    <nd ref="347051811"/>
    <tag k="highway" v="residential"/>
    <tag k="name" v="Hodgson Street"/>
    <tag k="source" v="Yahoo Imagery"/>
  </way>
  <way id="31185592" version="4" timestamp="2010-07-09T21:41:44Z" uid="74617" user="JohnSmith" changeset="5176956">
    <nd ref="347051822"/>
    <nd ref="347051838"/>
    <nd ref="347051832"/>
    <tag k="highway" v="residential"/>
    <tag k="maxspeed" v="50"/>
    <tag k="maxspeed:source" v="default residential speed limit in Australia"/>
    <tag k="name" v="Hector Street"/>
    <tag k="source" v="Yahoo Imagery"/>
  </way>
  <way id="31185592" version="5" timestamp="2012-01-18T06:38:12Z" uid="147510" user="woodpeck_fixbot" changeset="10424702">
    <nd ref="347051822"/>
    <nd ref="347051838"/>
    <nd ref="347051832"/>
    <tag k="highway" v="residential"/>
    <tag k="name" v="Hector Street"/>
    <tag k="source" v="Yahoo Imagery"/>
  </way>
  <way id="31185594" version="7" timestamp="2010-07-09T21:09:18Z" uid="74617" user="JohnSmith" changeset="5176956">
    <nd ref="347051863"/>
    <nd ref="347052036"/>
    <nd ref="60818419"/>
    <nd ref="347051981"/>
    <nd ref="426425222"/>
    <nd ref="694018509"/>
    <tag k="highway" v="residential"/>
    <tag k="maxspeed" v="50"/>
    <tag k="maxspeed:source" v="default residential speed limit in Australia"/>
    <tag k="name" v="Osborne Street"/>
    <tag k="source" v="Yahoo Imagery"/>
  </way>
  <way id="31185594" version="8" timestamp="2012-01-18T06:38:14Z" uid="147510" user="woodpeck_fixbot" changeset="10424702">
    <nd ref="347051863"/>
    <nd ref="347052036"/>
    <nd ref="60818419"/>
    <nd ref="347051981"/>
    <nd ref="426425222"/>
    <nd ref="694018509"/>
    <tag k="highway" v="residential"/>
    <tag k="name" v="Osborne Street"/>
    <tag k="source" v="Yahoo Imagery"/>
  </way>
  <way id="31185596" version="4" timestamp="2010-07-09T21:00:11Z" uid="74617" user="JohnSmith" changeset="5176956">
    <nd ref="347051884"/>
    <nd ref="347051889"/>
    <nd ref="347051880"/>
    <nd ref="347051874"/>
    <tag k="highway" v="residential"/>
    <tag k="maxspeed" v="50"/>
    <tag k="maxspeed:source" v="default residential speed limit in Australia"/>
    <tag k="name" v="Joondanna Drive"/>
    <tag k="source" v="Yahoo Imagery"/>
  </way>
  <way id="31185596" version="5" timestamp="2012-01-18T06:38:15Z" uid="147510" user="woodpeck_fixbot" changeset="10424702">
    <nd ref="347051884"/>
    <nd ref="347051889"/>
    <nd ref="347051880"/>
    <nd ref="347051874"/>
    <tag k="highway" v="residential"/>
    <tag k="name" v="Joondanna Drive"/>
    <tag k="source" v="Yahoo Imagery"/>
  </way>
  <way id="31185597" version="5" timestamp="2010-07-09T21:04:35Z" uid="74617" user="JohnSmith" changeset="5176956">
    <nd ref="347052045"/>
    <nd ref="60818413"/>
    <nd ref="347051889"/>
    <nd ref="347051893"/>
    <tag k="highway" v="residential"/>
    <tag k="maxspeed" v="50"/>
    <tag k="maxspeed:source" v="default residential speed limit in Australia"/>
    <tag k="name" v="French Street"/>
    <tag k="source" v="Yahoo Imagery"/>
  </way>
  <way id="31185597" version="6" timestamp="2012-01-18T06:38:16Z" uid="147510" user="woodpeck_fixbot" changeset="10424702">
    <nd ref="347052045"/>
    <nd ref="60818413"/>
    <nd ref="347051889"/>
    <nd ref="347051893"/>
    <tag k="highway" v="residential"/>
    <tag k="name" v="French Street"/>
    <tag k="source" v="Yahoo Imagery"/>
  </way>
  <way id="31185599" version="5" timestamp="2010-05-01T04:02:31Z" uid="4467" user="Rosscoe" changeset="4571452">
    <nd ref="347051898"/>
    <nd ref="347051884"/>
    <nd ref="60818416"/>
    <nd ref="347051949"/>
    <nd ref="347051975"/>
    <nd ref="347052086"/>
    <nd ref="347052227"/>
    <nd ref="347052130"/>
    <nd ref="347052232"/>
    <nd ref="347051822"/>
    <nd ref="347052165"/>
    <nd ref="714521168"/>
    <tag k="highway" v="tertiary"/>
    <tag k="name" v="Banksia Street"/>
    <tag k="source" v="Yahoo Imagery"/>
  </way>
  <way id="31185599" version="6" timestamp="2012-01-06T12:59:18Z" uid="142807" user="SDavies" changeset="10311122">
    <nd ref="347051898"/>
    <nd ref="347051884"/>
    <nd ref="60818416"/>
    <nd ref="347051949"/>
    <nd ref="347051975"/>
    <nd ref="347052086"/>
    <nd ref="347052227"/>
    <nd ref="347052130"/>
    <nd ref="347052232"/>
    <nd ref="347051822"/>
    <nd ref="347052165"/>
    <nd ref="714521168"/>
    <tag k="highway" v="residential"/>
    <tag k="name" v="Banksia Street"/>
    <tag k="source" v="Yahoo Imagery"/>
  </way>
  <way id="31185601" version="4" timestamp="2010-07-09T21:02:51Z" uid="74617" user="JohnSmith" changeset="5176956">
    <nd ref="347051903"/>
    <nd ref="347051910"/>
    <nd ref="347051915"/>
    <nd ref="347051927"/>
    <nd ref="347052045"/>
    <nd ref="347051949"/>
    <tag k="highway" v="residential"/>
    <tag k="maxspeed" v="50"/>
    <tag k="maxspeed:source" v="default residential speed limit in Australia"/>
    <tag k="name" v="Short Street"/>
    <tag k="source" v="Yahoo Imagery"/>
  </way>
  <way id="31185601" version="5" timestamp="2012-01-18T06:38:18Z" uid="147510" user="woodpeck_fixbot" changeset="10424702">
    <nd ref="347051903"/>
    <nd ref="347051910"/>
    <nd ref="347051915"/>
    <nd ref="347051927"/>
    <nd ref="347052045"/>
    <nd ref="347051949"/>
    <tag k="highway" v="residential"/>
    <tag k="name" v="Short Street"/>
    <tag k="source" v="Yahoo Imagery"/>
  </way>
  <way id="31185603" version="4" timestamp="2010-07-09T20:52:50Z" uid="74617" user="JohnSmith" changeset="5176956">
    <nd ref="347051990"/>
    <nd ref="347051996"/>
    <nd ref="60818421"/>
    <tag k="highway" v="residential"/>
    <tag k="maxspeed" v="50"/>
    <tag k="maxspeed:source" v="default residential speed limit in Australia"/>
    <tag k="name" v="Miller Street"/>
    <tag k="source" v="Yahoo Imagery"/>
  </way>
  <way id="31185603" version="5" timestamp="2012-01-18T06:38:19Z" uid="147510" user="woodpeck_fixbot" changeset="10424702">
    <nd ref="347051990"/>
    <nd ref="347051996"/>
    <nd ref="60818421"/>
    <tag k="highway" v="residential"/>
    <tag k="name" v="Miller Street"/>
    <tag k="source" v="Yahoo Imagery"/>
  </way>
  <way id="31185605" version="4" timestamp="2010-07-09T21:06:20Z" uid="74617" user="JohnSmith" changeset="5176956">
    <nd ref="347051996"/>
    <nd ref="347052001"/>
    <nd ref="347052011"/>
    <tag k="highway" v="residential"/>
    <tag k="maxspeed" v="50"/>
    <tag k="maxspeed:source" v="default residential speed limit in Australia"/>
    <tag k="name" v="Bantock Street"/>
    <tag k="source" v="Yahoo Imagery"/>
  </way>
  <way id="31185605" version="5" timestamp="2012-01-18T06:38:21Z" uid="147510" user="woodpeck_fixbot" changeset="10424702">
    <nd ref="347051996"/>
    <nd ref="347052001"/>
    <nd ref="347052011"/>
    <tag k="highway" v="residential"/>
    <tag k="name" v="Bantock Street"/>
    <tag k="source" v="Yahoo Imagery"/>
  </way>
  <way id="31185607" version="4" timestamp="2010-07-09T20:56:38Z" uid="74617" user="JohnSmith" changeset="5176956">
    <nd ref="347052021"/>
    <nd ref="60818417"/>
    <nd ref="347052026"/>
    <nd ref="347052093"/>
    <nd ref="347052104"/>
    <nd ref="347052112"/>
    <tag k="highway" v="residential"/>
    <tag k="maxspeed" v="50"/>
    <tag k="maxspeed:source" v="default residential speed limit in Australia"/>
    <tag k="name" v="Edinboro Street"/>
    <tag k="source" v="Yahoo Imagery"/>
  </way>
  <way id="31185607" version="5" timestamp="2012-01-18T06:38:22Z" uid="147510" user="woodpeck_fixbot" changeset="10424702">
    <nd ref="347052021"/>
    <nd ref="60818417"/>
    <nd ref="347052026"/>
    <nd ref="347052093"/>
    <nd ref="347052104"/>
    <nd ref="347052112"/>
    <tag k="highway" v="residential"/>
    <tag k="name" v="Edinboro Street"/>
    <tag k="source" v="Yahoo Imagery"/>
  </way>
  <way id="31185608" version="4" timestamp="2010-07-09T21:05:15Z" uid="74617" user="JohnSmith" changeset="5176956">
    <nd ref="347052036"/>
    <nd ref="347052041"/>
    <tag k="highway" v="residential"/>
    <tag k="maxspeed" v="50"/>
    <tag k="maxspeed:source" v="default residential speed limit in Australia"/>
    <tag k="name" v="Elanora Street"/>
    <tag k="source" v="Yahoo Imagery"/>
  </way>
  <way id="31185608" version="5" timestamp="2012-01-18T06:38:23Z" uid="147510" user="woodpeck_fixbot" changeset="10424702">
    <nd ref="347052036"/>
    <nd ref="347052041"/>
    <tag k="highway" v="residential"/>
    <tag k="name" v="Elanora Street"/>
    <tag k="source" v="Yahoo Imagery"/>
  </way>
  <way id="31185611" version="4" timestamp="2010-07-09T21:00:43Z" uid="74617" user="JohnSmith" changeset="5176956">
    <nd ref="347052045"/>
    <nd ref="347052050"/>
    <tag k="highway" v="residential"/>
    <tag k="maxspeed" v="50"/>
    <tag k="maxspeed:source" v="default residential speed limit in Australia"/>
    <tag k="name" v="French Street"/>
    <tag k="source" v="Yahoo Imagery"/>
  </way>
  <way id="31185611" version="5" timestamp="2012-01-18T06:38:23Z" uid="147510" user="woodpeck_fixbot" changeset="10424702">
    <nd ref="347052045"/>
    <nd ref="347052050"/>
    <tag k="highway" v="residential"/>
    <tag k="name" v="French Street"/>
    <tag k="source" v="Yahoo Imagery"/>
  </way>
  <way id="31185614" version="4" timestamp="2010-07-09T20:59:19Z" uid="74617" user="JohnSmith" changeset="5176956">
    <nd ref="347052055"/>
    <nd ref="347052060"/>
    <nd ref="347052065"/>
    <nd ref="347052069"/>
    <nd ref="347052081"/>
    <nd ref="347052086"/>
    <tag k="highway" v="residential"/>
    <tag k="maxspeed" v="50"/>
    <tag k="maxspeed:source" v="default residential speed limit in Australia"/>
    <tag k="name" v="Kinsella Street"/>
    <tag k="source" v="Yahoo Imagery"/>
  </way>
  <way id="31185614" version="5" timestamp="2012-01-18T06:38:25Z" uid="147510" user="woodpeck_fixbot" changeset="10424702">
    <nd ref="347052055"/>
    <nd ref="347052060"/>
    <nd ref="347052065"/>
    <nd ref="347052069"/>
    <nd ref="347052081"/>
    <nd ref="347052086"/>
    <tag k="highway" v="residential"/>
    <tag k="name" v="Kinsella Street"/>
    <tag k="source" v="Yahoo Imagery"/>
  </way>
  <way id="31185615" version="4" timestamp="2010-07-09T21:03:40Z" uid="74617" user="JohnSmith" changeset="5176956">
    <nd ref="347052076"/>
    <nd ref="347052081"/>
    <nd ref="347052050"/>
    <tag k="highway" v="residential"/>
    <tag k="maxspeed" v="50"/>
    <tag k="maxspeed:source" v="default residential speed limit in Australia"/>
    <tag k="name" v="French Street"/>
    <tag k="source" v="Yahoo Imagery"/>
  </way>
  <way id="31185615" version="5" timestamp="2012-01-18T06:38:26Z" uid="147510" user="woodpeck_fixbot" changeset="10424702">
    <nd ref="347052076"/>
    <nd ref="347052081"/>
    <nd ref="347052050"/>
    <tag k="highway" v="residential"/>
    <tag k="name" v="French Street"/>
    <tag k="source" v="Yahoo Imagery"/>
  </way>
  <way id="31185616" version="4" timestamp="2010-07-09T21:06:52Z" uid="74617" user="JohnSmith" changeset="5176956">
    <nd ref="347052117"/>
    <nd ref="347052122"/>
    <nd ref="347052125"/>
    <tag k="highway" v="residential"/>
    <tag k="maxspeed" v="50"/>
    <tag k="maxspeed:source" v="default residential speed limit in Australia"/>
    <tag k="name" v="Orchid Street"/>
    <tag k="source" v="Yahoo Imagery"/>
  </way>
  <way id="31185616" version="5" timestamp="2012-01-18T06:38:28Z" uid="147510" user="woodpeck_fixbot" changeset="10424702">
    <nd ref="347052117"/>
    <nd ref="347052122"/>
    <nd ref="347052125"/>
    <tag k="highway" v="residential"/>
    <tag k="name" v="Orchid Street"/>
    <tag k="source" v="Yahoo Imagery"/>
  </way>
  <way id="31185617" version="4" timestamp="2010-07-09T21:11:55Z" uid="74617" user="JohnSmith" changeset="5176956">
    <nd ref="347052141"/>
    <nd ref="347052146"/>
    <tag k="highway" v="residential"/>
    <tag k="maxspeed" v="50"/>
    <tag k="maxspeed:source" v="default residential speed limit in Australia"/>
    <tag k="name" v="Wade Street"/>
    <tag k="source" v="Yahoo Imagery"/>
  </way>
  <way id="31185617" version="5" timestamp="2012-01-18T06:38:29Z" uid="147510" user="woodpeck_fixbot" changeset="10424702">
    <nd ref="347052141"/>
    <nd ref="347052146"/>
    <tag k="highway" v="residential"/>
    <tag k="name" v="Wade Street"/>
    <tag k="source" v="Yahoo Imagery"/>
  </way>
  <way id="31185618" version="4" timestamp="2010-07-09T21:41:52Z" uid="74617" user="JohnSmith" changeset="5176956">
    <nd ref="347052151"/>
    <nd ref="347052156"/>
    <nd ref="347052162"/>
    <nd ref="347052165"/>
    <nd ref="347052170"/>
    <nd ref="347052176"/>
    <tag k="highway" v="residential"/>
    <tag k="maxspeed" v="50"/>
    <tag k="maxspeed:source" v="default residential speed limit in Australia"/>
    <tag k="name" v="Grenville Street"/>
    <tag k="source" v="Yahoo Imagery"/>
  </way>
  <way id="31185618" version="5" timestamp="2012-01-18T06:38:42Z" uid="147510" user="woodpeck_fixbot" changeset="10424702">
    <nd ref="347052151"/>
    <nd ref="347052156"/>
    <nd ref="347052162"/>
    <nd ref="347052165"/>
    <nd ref="347052170"/>
    <nd ref="347052176"/>
    <tag k="highway" v="residential"/>
    <tag k="name" v="Grenville Street"/>
    <tag k="source" v="Yahoo Imagery"/>
  </way>
  <way id="31185621" version="5" timestamp="2010-07-09T21:41:09Z" uid="74617" user="JohnSmith" changeset="5176956">
    <nd ref="347052195"/>
    <nd ref="347052201"/>
    <nd ref="347052206"/>
    <tag k="highway" v="residential"/>
    <tag k="maxspeed" v="50"/>
    <tag k="maxspeed:source" v="default residential speed limit in Australia"/>
    <tag k="name" v="French Street"/>
    <tag k="source" v="Yahoo Imagery"/>
  </way>
  <way id="31185621" version="6" timestamp="2012-01-18T06:38:43Z" uid="147510" user="woodpeck_fixbot" changeset="10424702">
    <nd ref="347052195"/>
    <nd ref="347052201"/>
    <nd ref="347052206"/>
    <tag k="highway" v="residential"/>
    <tag k="name" v="French Street"/>
    <tag k="source" v="Yahoo Imagery"/>
  </way>
  <way id="31185625" version="5" timestamp="2010-07-09T21:41:42Z" uid="74617" user="JohnSmith" changeset="5176956">
    <nd ref="60818147"/>
    <nd ref="347052216"/>
    <tag k="highway" v="residential"/>
    <tag k="maxspeed" v="50"/>
    <tag k="maxspeed:source" v="default residential speed limit in Australia"/>
    <tag k="name" v="Myers Street"/>
    <tag k="source" v="Yahoo Imagery"/>
  </way>
  <way id="31185625" version="6" timestamp="2012-01-18T06:38:44Z" uid="147510" user="woodpeck_fixbot" changeset="10424702">
    <nd ref="60818147"/>
    <nd ref="347052216"/>
    <tag k="highway" v="residential"/>
    <tag k="name" v="Myers Street"/>
    <tag k="source" v="Yahoo Imagery"/>
  </way>
  <way id="31185719" version="10" timestamp="2010-04-05T17:04:58Z" uid="163746" user="anti_bot-nonsense" changeset="4334877">
    <nd ref="347053451"/>
    <nd ref="347053713"/>
    <nd ref="347055629"/>
    <nd ref="347055630"/>
    <nd ref="347055631"/>
    <nd ref="347053707"/>
    <nd ref="347053701"/>
    <nd ref="347053696"/>
    <nd ref="347055634"/>
    <nd ref="347055635"/>
    <nd ref="347055636"/>
    <nd ref="347055637"/>
    <nd ref="347053694"/>
    <nd ref="347053692"/>
    <nd ref="347053688"/>
    <nd ref="347053686"/>
    <nd ref="347053684"/>
    <nd ref="347040919"/>
    <tag k="highway" v="primary"/>
    <tag k="name" v="Płocka"/>
    <tag k="oneway" v="yes"/>
    <tag k="ref" v="62"/>
  </way>
  <way id="31185719" version="11" timestamp="2011-07-17T14:03:46Z" uid="467703" user="Zibi" changeset="8748270">
    <nd ref="347053451"/>
    <nd ref="347053713"/>
    <nd ref="347055635"/>
    <nd ref="347053686"/>
    <nd ref="347040919"/>
    <tag k="highway" v="primary"/>
    <tag k="name" v="Płocka"/>
    <tag k="oneway" v="yes"/>
    <tag k="ref" v="62"/>
  </way>
  <way id="31185735" version="11" timestamp="2010-04-05T16:45:24Z" uid="163746" user="anti_bot-nonsense" changeset="4334877">
    <nd ref="347071821"/>
    <nd ref="347080513"/>
    <nd ref="347053870"/>
    <nd ref="347053871"/>
    <nd ref="347053873"/>
    <nd ref="347053875"/>
    <nd ref="347053878"/>
    <nd ref="347053879"/>
    <nd ref="347053880"/>
    <nd ref="347053881"/>
    <nd ref="347053883"/>
    <nd ref="347053460"/>
    <tag k="highway" v="primary"/>
  </way>
  <way id="31185897" version="3" timestamp="2009-10-14T00:02:49Z" uid="36809" user="pfoten_weg_!_" changeset="2841284">
    <nd ref="244043769"/>
    <nd ref="244043781"/>
    <tag k="highway" v="unclassified"/>
    <tag k="merano:way_id" v="332"/>
    <tag k="name" v="Meinhardstraße / Via Mainardo"/>
    <tag k="name:de" v="Meinhardstraße"/>
    <tag k="name:it" v="Via Mainardo"/>
  </way>
  <way id="31185897" version="4" timestamp="2011-03-26T08:45:33Z" uid="42429" user="FK270673" changeset="7673031">
    <nd ref="244043769"/>
    <nd ref="244043781"/>
    <tag k="highway" v="unclassified"/>
    <tag k="lit" v="yes"/>
    <tag k="maxspeed" v="30"/>
    <tag k="merano:way_id" v="332"/>
    <tag k="name" v="Meinhardstraße / Via Mainardo"/>
    <tag k="name:de" v="Meinhardstraße"/>
    <tag k="name:it" v="Via Mainardo"/>
  </way>
  <way id="31185897" version="5" timestamp="2011-09-07T13:41:11Z" uid="66497" user="seichter" changeset="9237071">
    <nd ref="244043769"/>
    <nd ref="244043781"/>
    <tag k="highway" v="residential"/>
    <tag k="lit" v="yes"/>
    <tag k="maxspeed" v="30"/>
    <tag k="merano:way_id" v="332"/>
    <tag k="name" v="Meinhardstraße / Via Mainardo"/>
    <tag k="name:de" v="Meinhardstraße"/>
    <tag k="name:it" v="Via Mainardo"/>
  </way>
  <way id="31185897" version="6" timestamp="2012-03-03T15:59:42Z" uid="606933" user="immaterial" changeset="10859155">
    <nd ref="244043769"/>
    <nd ref="244043781"/>
    <tag k="highway" v="residential"/>
    <tag k="lit" v="yes"/>
    <tag k="maxspeed" v="30"/>
    <tag k="merano:way_id" v="332"/>
    <tag k="name" v="Meinhardstraße - Via Mainardo"/>
    <tag k="name:de" v="Meinhardstraße"/>
    <tag k="name:it" v="Via Mainardo"/>
  </way>
  <way id="31185902" version="4" timestamp="2009-10-14T00:02:49Z" uid="36809" user="pfoten_weg_!_" changeset="2841284">
    <nd ref="244043773"/>
    <nd ref="244043776"/>
    <nd ref="244043769"/>
    <tag k="highway" v="unclassified"/>
    <tag k="merano:way_id" v="332"/>
    <tag k="name" v="Meinhardstrasse / Via Mainardo"/>
    <tag k="name:de" v="Meinhardstrasse"/>
    <tag k="name:it" v="Via Mainardo"/>
  </way>
  <way id="31185316" version="7" timestamp="2012-06-29T14:56:30Z" uid="645253" user="zbyza" changeset="12057437">
    <nd ref="288186211"/>
    <nd ref="347046458"/>
    <nd ref="347046460"/>
    <nd ref="347046463"/>
    <nd ref="347046465"/>
    <nd ref="1095850189"/>
    <nd ref="347048618"/>
    <nd ref="347048620"/>
    <nd ref="1806192814"/>
    <nd ref="347040877"/>
    <tag k="highway" v="primary"/>
    <tag k="maxweight" v="30"/>
    <tag k="name" v="Al. Ks. Jerzego Popiełuszki"/>
    <tag k="oneway" v="yes"/>
    <tag k="ref" v="67"/>
  </way>
  <way id="31185316" version="8" timestamp="2012-07-28T21:23:16Z" uid="645253" user="zbyza" changeset="12528559">
    <nd ref="288186211"/>
    <nd ref="347046458"/>
    <nd ref="347046460"/>
    <nd ref="347046463"/>
    <nd ref="347046465"/>
    <nd ref="1095850189"/>
    <nd ref="347048618"/>
    <nd ref="347048620"/>
    <nd ref="1806192814"/>
    <nd ref="347040877"/>
    <tag k="highway" v="primary"/>
    <tag k="maxweight" v="30"/>
    <tag k="name" v="Aleja Księdza Jerzego Popiełuszki"/>
    <tag k="oneway" v="yes"/>
    <tag k="ref" v="67"/>
  </way>
  <way id="31185371" version="9" timestamp="2012-07-28T21:23:16Z" uid="645253" user="zbyza" changeset="12528559">
    <nd ref="347040921"/>
    <nd ref="347050244"/>
    <nd ref="347049608"/>
    <nd ref="347050684"/>
    <nd ref="347050687"/>
    <nd ref="347049612"/>
    <nd ref="347049614"/>
    <nd ref="347049616"/>
    <nd ref="347050868"/>
    <nd ref="347049620"/>
    <nd ref="347049622"/>
    <nd ref="347049624"/>
    <nd ref="347049627"/>
    <nd ref="347049629"/>
    <nd ref="347049631"/>
    <nd ref="347050282"/>
    <nd ref="288186211"/>
    <tag k="highway" v="primary"/>
    <tag k="maxweight" v="30"/>
    <tag k="name" v="Aleja Księdza Jerzego Popiełuszki"/>
    <tag k="oneway" v="yes"/>
    <tag k="ref" v="67"/>
  </way>
  <way id="31185584" version="5" timestamp="2012-07-19T12:37:11Z" uid="722137" user="OSMF Redaction Account" changeset="12325642">
    <nd ref="60818188"/>
    <nd ref="347051804"/>
    <nd ref="60818149"/>
    <nd ref="347052146"/>
    <tag k="highway" v="tertiary"/>
    <tag k="name" v="Stoneham Street"/>
    <tag k="source" v="Yahoo Imagery"/>
  </way>
  <way id="31185584" version="6" timestamp="2012-08-01T15:38:24Z" uid="142807" user="SDavies" changeset="12575771">
    <nd ref="60818188"/>
    <nd ref="347051804"/>
    <nd ref="60818149"/>
    <nd ref="347052146"/>
    <nd ref="1846965002"/>
    <tag k="highway" v="tertiary"/>
    <tag k="name" v="Stoneham Street"/>
    <tag k="source" v="Yahoo Imagery"/>
  </way>
  <way id="31185586" version="7" timestamp="2012-07-19T12:37:10Z" uid="722137" user="OSMF Redaction Account" changeset="12325642">
    <nd ref="60818093"/>
    <nd ref="60818013"/>
    <nd ref="359029913"/>
    <tag k="highway" v="tertiary"/>
    <tag k="name" v="Cape Street"/>
  </way>
  <way id="31185586" version="8" timestamp="2012-08-01T15:38:22Z" uid="142807" user="SDavies" changeset="12575771">
    <nd ref="60818093"/>
    <nd ref="60818013"/>
    <nd ref="1846964873"/>
    <nd ref="359029913"/>
    <nd ref="1846964877"/>
    <nd ref="1846964881"/>
    <nd ref="1846964883"/>
    <tag k="highway" v="tertiary"/>
    <tag k="name" v="Cape Street"/>
  </way>
  <way id="31185599" version="7" timestamp="2012-07-19T12:37:11Z" uid="722137" user="OSMF Redaction Account" changeset="12325642">
    <nd ref="347051898"/>
    <nd ref="347051884"/>
    <nd ref="60818416"/>
    <nd ref="347051949"/>
    <nd ref="347051975"/>
    <nd ref="347052086"/>
    <nd ref="347052227"/>
    <nd ref="347052130"/>
    <nd ref="347052232"/>
    <nd ref="347051822"/>
    <nd ref="347052165"/>
    <tag k="highway" v="residential"/>
    <tag k="name" v="Banksia Street"/>
    <tag k="source" v="Yahoo Imagery"/>
  </way>
  <way id="31185599" version="8" timestamp="2012-08-01T15:38:22Z" uid="142807" user="SDavies" changeset="12575771">
    <nd ref="347051898"/>
    <nd ref="347051884"/>
    <nd ref="60818416"/>
    <nd ref="347051949"/>
    <nd ref="347051975"/>
    <nd ref="347052086"/>
    <nd ref="347052227"/>
    <nd ref="347052130"/>
    <nd ref="347052232"/>
    <nd ref="347051822"/>
    <nd ref="347052165"/>
    <nd ref="1846964945"/>
    <tag k="highway" v="residential"/>
    <tag k="name" v="Banksia Street"/>
    <tag k="source" v="Yahoo Imagery"/>
  </way>
  <way id="31185618" version="6" timestamp="2012-08-01T15:38:23Z" uid="142807" user="SDavies" changeset="12575771">
    <nd ref="359029971"/>
    <nd ref="359029996"/>
    <nd ref="359030014"/>
    <nd ref="359030008"/>
    <nd ref="60818166"/>
    <nd ref="359029948"/>
    <nd ref="347052151"/>
    <nd ref="347052156"/>
    <nd ref="347052162"/>
    <nd ref="347052165"/>
    <nd ref="347052170"/>
    <nd ref="347052176"/>
    <tag k="highway" v="residential"/>
    <tag k="name" v="Grenville Street"/>
    <tag k="source" v="Yahoo Imagery"/>
  </way>
  <way id="31185735" version="12" timestamp="2012-06-26T20:04:45Z" uid="645253" user="zbyza" changeset="12030145">
    <nd ref="347071821"/>
    <nd ref="347080513"/>
    <nd ref="347053870"/>
    <nd ref="347053871"/>
    <nd ref="347053873"/>
    <nd ref="347053875"/>
    <nd ref="347053878"/>
    <nd ref="347053879"/>
    <nd ref="347053880"/>
    <nd ref="347053881"/>
    <nd ref="347053883"/>
    <nd ref="347053460"/>
    <tag k="highway" v="primary_link"/>
  </way>
  <way id="31185897" version="7" timestamp="2012-07-16T12:50:06Z" uid="722137" user="OSMF Redaction Account" changeset="12244464"/>
  <way id="31185902" version="5" timestamp="2012-07-16T12:50:06Z" uid="722137" user="OSMF Redaction Account" changeset="12244464"/>
</osm>
