<?xml version='1.0' encoding='UTF-8'?>
<osm version="0.6" generator="libosmium/2.20.0">
  <way id="31220036" version="3" timestamp="2010-05-11T12:22:12Z" uid="171838" user="argrath" changeset="4668078">
    <nd ref="347198085"/>
    <nd ref="347198086"/>
    <nd ref="347198087"/>
    <nd ref="347198088"/>
    <nd ref="347198089"/>
    <nd ref="347198091"/>
    <nd ref="347198092"/>
    <nd ref="347198095"/>
    <nd ref="347198098"/>
    <nd ref="347198101"/>
    <nd ref="347198103"/>
    <nd ref="347198104"/>
    <nd ref="347198107"/>
    <nd ref="347198111"/>
    <nd ref="347198109"/>
    <tag k="KSJ2:INT" v="4"/>
    <tag k="KSJ2:INT_label" v="民営鉄道"/>
    <tag k="KSJ2:LIN" v="西大阪線"/>
    <tag k="KSJ2:OPC" v="阪神電気鉄道"/>
    <tag k="KSJ2:RAC" v="12"/>
    <tag k="KSJ2:RAC_label" v="普通鉄道"/>
    <tag k="name" v="阪神電気鉄道西大阪線"/>
    <tag k="name:ja" v="阪神電気鉄道西大阪線"/>
    <tag k="note" v="National-Land Numerical Information (Railway) 2007, MLIT Japan"/>
    <tag k="note:ja" v="国土数値情報（鉄道データ）平成19年　国土交通省"/>
    <tag k="operator" v="阪神電気鉄道"/>
    <tag k="operator:ja" v="阪神電気鉄道"/>
    <tag k="railway" v="rail"/>
    <tag k="source" v="KSJ2"/>
    <tag k="source_ref" v="http://nlftp.mlit.go.jp/ksj/jpgis/datalist/KsjTmplt-N02-v1_1.html"/>
  </way>
  <way id="31220036" version="4" timestamp="2010-10-29T12:17:28Z" uid="355481" user="chnkshm" changeset="6218061">
    <nd ref="347198085"/>
    <nd ref="347198086"/>
    <nd ref="347198087"/>
    <nd ref="347198088"/>
    <nd ref="347198089"/>
    <nd ref="347198091"/>
    <nd ref="347198092"/>
    <nd ref="347198095"/>
    <nd ref="347198098"/>
    <nd ref="347198101"/>
    <nd ref="347198103"/>
    <nd ref="549236952"/>
    <nd ref="347198107"/>
    <nd ref="347198111"/>
    <nd ref="347198109"/>
    <tag k="KSJ2:INT" v="4"/>
    <tag k="KSJ2:INT_label" v="民営鉄道"/>
    <tag k="KSJ2:LIN" v="西大阪線"/>
    <tag k="KSJ2:OPC" v="阪神電気鉄道"/>
    <tag k="KSJ2:RAC" v="12"/>
    <tag k="KSJ2:RAC_label" v="普通鉄道"/>
    <tag k="name" v="阪神電気鉄道西大阪線"/>
    <tag k="name:ja" v="阪神電気鉄道西大阪線"/>
    <tag k="note" v="National-Land Numerical Information (Railway) 2007, MLIT Japan"/>
    <tag k="note:ja" v="国土数値情報（鉄道データ）平成19年　国土交通省"/>
    <tag k="operator" v="阪神電気鉄道"/>
    <tag k="operator:ja" v="阪神電気鉄道"/>
    <tag k="railway" v="rail"/>
    <tag k="source" v="KSJ2"/>
    <tag k="source_ref" v="http://nlftp.mlit.go.jp/ksj/jpgis/datalist/KsjTmplt-N02-v1_1.html"/>
  </way>
  <way id="31220036" version="5" timestamp="2011-04-16T04:52:29Z" uid="24685" user="tosihisa" changeset="7875270">
    <nd ref="347198085"/>
    <nd ref="347198086"/>
    <nd ref="347198087"/>
    <nd ref="347198088"/>
    <nd ref="347198089"/>
    <nd ref="347198091"/>
    <nd ref="347198092"/>
    <nd ref="347198095"/>
    <nd ref="347198098"/>
    <nd ref="347198101"/>
    <nd ref="347198103"/>
    <nd ref="549236952"/>
    <nd ref="347198107"/>
    <nd ref="347198111"/>
    <nd ref="347198109"/>
    <tag k="KSJ2:INT" v="4"/>
    <tag k="KSJ2:INT_label" v="民営鉄道"/>
    <tag k="KSJ2:LIN" v="なんば線"/>
    <tag k="KSJ2:OPC" v="阪神電気鉄道"/>
    <tag k="KSJ2:RAC" v="12"/>
    <tag k="KSJ2:RAC_label" v="普通鉄道"/>
    <tag k="name" v="阪神電気鉄道なんば線"/>
    <tag k="name:ja" v="阪神電気鉄道なんば線"/>
    <tag k="note" v="National-Land Numerical Information (Railway) 2007, MLIT Japan"/>
    <tag k="note:ja" v="国土数値情報（鉄道データ）平成19年　国土交通省"/>
    <tag k="operator" v="阪神電気鉄道"/>
    <tag k="operator:ja" v="阪神電気鉄道"/>
    <tag k="railway" v="rail"/>
    <tag k="source" v="KSJ2"/>
    <tag k="source_ref" v="http://nlftp.mlit.go.jp/ksj/jpgis/datalist/KsjTmplt-N02-v1_1.html"/>
  </way>
  <way id="31220143" version="3" timestamp="2010-04-07T13:27:28Z" uid="20587" user="balrog-kun" changeset="4353646">
    <nd ref="147514638"/>
    <nd ref="347198406"/>
    <nd ref="347198407"/>
    <nd ref="347198408"/>
    <nd ref="147392645"/>
    <tag k="created_by" v="Potlatch 0.10f"/>
    <tag k="highway" v="residential"/>
    <tag k="name" v="Pond Meadow Drive"/>
    <tag k="tiger:cfcc" v="A41"/>
    <tag k="tiger:county" v="Oklahoma, OK"/>
    <tag k="tiger:name_base" v="Pond Meadow"/>
    <tag k="tiger:name_type" v="Dr"/>
    <tag k="tiger:reviewed" v="no"/>
    <tag k="tiger:separated" v="no"/>
    <tag k="tiger:source" v="tiger_import_dch_v0.6_20070829"/>
    <tag k="tiger:tlid" v="100434013"/>
    <tag k="tiger:zip_left" v="73151"/>
    <tag k="tiger:zip_left_1" v="73013"/>
    <tag k="tiger:zip_right" v="73151"/>
  </way>
  <way id="31220190" version="3" timestamp="2010-07-08T19:18:52Z" uid="74617" user="JohnSmith" changeset="5168688">
    <nd ref="290312983"/>
    <nd ref="347198192"/>
    <nd ref="347198193"/>
    <nd ref="347198194"/>
    <nd ref="347198195"/>
    <nd ref="347198196"/>
    <nd ref="347198197"/>
    <nd ref="347198198"/>
    <tag k="highway" v="residential"/>
    <tag k="maxspeed" v="50"/>
    <tag k="maxspeed:source" v="default residential speed limit in Australia"/>
    <tag k="name" v="Albatross Avenue"/>
  </way>
  <way id="31220190" version="4" timestamp="2012-01-18T06:41:09Z" uid="147510" user="woodpeck_fixbot" changeset="10424702">
    <nd ref="290312983"/>
    <nd ref="347198192"/>
    <nd ref="347198193"/>
    <nd ref="347198194"/>
    <nd ref="347198195"/>
    <nd ref="347198196"/>
    <nd ref="347198197"/>
    <nd ref="347198198"/>
    <tag k="highway" v="residential"/>
    <tag k="name" v="Albatross Avenue"/>
  </way>
  <way id="31220192" version="3" timestamp="2010-07-08T19:20:12Z" uid="74617" user="JohnSmith" changeset="5168688">
    <nd ref="347198199"/>
    <nd ref="347198197"/>
    <tag k="highway" v="residential"/>
    <tag k="maxspeed" v="50"/>
    <tag k="maxspeed:source" v="default residential speed limit in Australia"/>
    <tag k="name" v="Miner Court"/>
  </way>
  <way id="31220192" version="4" timestamp="2012-01-18T06:41:30Z" uid="147510" user="woodpeck_fixbot" changeset="10424702">
    <nd ref="347198199"/>
    <nd ref="347198197"/>
    <tag k="highway" v="residential"/>
    <tag k="name" v="Miner Court"/>
  </way>
  <way id="31220194" version="3" timestamp="2010-07-08T19:27:09Z" uid="74617" user="JohnSmith" changeset="5168688">
    <nd ref="347198195"/>
    <nd ref="347198200"/>
    <nd ref="347198201"/>
    <nd ref="347198202"/>
    <nd ref="347198203"/>
    <nd ref="347198204"/>
    <nd ref="347198206"/>
    <nd ref="347198205"/>
    <tag k="highway" v="residential"/>
    <tag k="maxspeed" v="50"/>
    <tag k="maxspeed:source" v="default residential speed limit in Australia"/>
    <tag k="name" v="Pigeon Street"/>
  </way>
  <way id="31220194" version="4" timestamp="2012-01-18T06:41:45Z" uid="147510" user="woodpeck_fixbot" changeset="10424702">
    <nd ref="347198195"/>
    <nd ref="347198200"/>
    <nd ref="347198201"/>
    <nd ref="347198202"/>
    <nd ref="347198203"/>
    <nd ref="347198204"/>
    <nd ref="347198206"/>
    <nd ref="347198205"/>
    <tag k="highway" v="residential"/>
    <tag k="name" v="Pigeon Street"/>
  </way>
  <way id="31220196" version="3" timestamp="2010-07-08T19:18:19Z" uid="74617" user="JohnSmith" changeset="5168688">
    <nd ref="347198206"/>
    <nd ref="347198207"/>
    <nd ref="347198208"/>
    <nd ref="347198209"/>
    <tag k="highway" v="residential"/>
    <tag k="maxspeed" v="50"/>
    <tag k="maxspeed:source" v="default residential speed limit in Australia"/>
    <tag k="name" v="Condor Court"/>
  </way>
  <way id="31220196" version="4" timestamp="2012-01-18T06:41:53Z" uid="147510" user="woodpeck_fixbot" changeset="10424702">
    <nd ref="347198206"/>
    <nd ref="347198207"/>
    <nd ref="347198208"/>
    <nd ref="347198209"/>
    <tag k="highway" v="residential"/>
    <tag k="name" v="Condor Court"/>
  </way>
  <way id="31220198" version="3" timestamp="2010-07-08T19:25:15Z" uid="74617" user="JohnSmith" changeset="5168688">
    <nd ref="347198210"/>
    <nd ref="347198211"/>
    <nd ref="347198212"/>
    <nd ref="347198193"/>
    <tag k="highway" v="residential"/>
    <tag k="maxspeed" v="50"/>
    <tag k="maxspeed:source" v="default residential speed limit in Australia"/>
    <tag k="name" v="Kite Court"/>
  </way>
  <way id="31220198" version="4" timestamp="2012-01-18T06:41:57Z" uid="147510" user="woodpeck_fixbot" changeset="10424702">
    <nd ref="347198210"/>
    <nd ref="347198211"/>
    <nd ref="347198212"/>
    <nd ref="347198193"/>
    <tag k="highway" v="residential"/>
    <tag k="name" v="Kite Court"/>
  </way>
  <way id="31220200" version="3" timestamp="2010-07-08T19:23:49Z" uid="74617" user="JohnSmith" changeset="5168688">
    <nd ref="347198213"/>
    <nd ref="347198205"/>
    <nd ref="347198214"/>
    <nd ref="347198215"/>
    <nd ref="347198216"/>
    <nd ref="290313038"/>
    <tag k="highway" v="residential"/>
    <tag k="maxspeed" v="50"/>
    <tag k="maxspeed:source" v="default residential speed limit in Australia"/>
    <tag k="name" v="Osprey Street"/>
  </way>
  <way id="31220200" version="4" timestamp="2012-01-18T06:42:02Z" uid="147510" user="woodpeck_fixbot" changeset="10424702">
    <nd ref="347198213"/>
    <nd ref="347198205"/>
    <nd ref="347198214"/>
    <nd ref="347198215"/>
    <nd ref="347198216"/>
    <nd ref="290313038"/>
    <tag k="highway" v="residential"/>
    <tag k="name" v="Osprey Street"/>
  </way>
  <way id="31220202" version="4" timestamp="2010-07-08T19:18:47Z" uid="74617" user="JohnSmith" changeset="5168688">
    <nd ref="347198217"/>
    <nd ref="347198218"/>
    <nd ref="347198219"/>
    <nd ref="347198220"/>
    <nd ref="347198221"/>
    <nd ref="347198229"/>
    <nd ref="347198222"/>
    <nd ref="347198223"/>
    <nd ref="347198224"/>
    <tag k="highway" v="residential"/>
    <tag k="maxspeed" v="50"/>
    <tag k="maxspeed:source" v="default residential speed limit in Australia"/>
    <tag k="name" v="Daphne Crescent"/>
  </way>
  <way id="31220202" version="5" timestamp="2012-01-18T06:42:04Z" uid="147510" user="woodpeck_fixbot" changeset="10424702">
    <nd ref="347198217"/>
    <nd ref="347198218"/>
    <nd ref="347198219"/>
    <nd ref="347198220"/>
    <nd ref="347198221"/>
    <nd ref="347198229"/>
    <nd ref="347198222"/>
    <nd ref="347198223"/>
    <nd ref="347198224"/>
    <tag k="highway" v="residential"/>
    <tag k="name" v="Daphne Crescent"/>
  </way>
  <way id="31220205" version="3" timestamp="2010-07-08T19:24:35Z" uid="74617" user="JohnSmith" changeset="5168688">
    <nd ref="347198227"/>
    <nd ref="347198228"/>
    <nd ref="347198229"/>
    <tag k="highway" v="residential"/>
    <tag k="maxspeed" v="50"/>
    <tag k="maxspeed:source" v="default residential speed limit in Australia"/>
    <tag k="name" v="Blueberry Court"/>
  </way>
  <way id="31220205" version="4" timestamp="2012-01-18T06:42:06Z" uid="147510" user="woodpeck_fixbot" changeset="10424702">
    <nd ref="347198227"/>
    <nd ref="347198228"/>
    <nd ref="347198229"/>
    <tag k="highway" v="residential"/>
    <tag k="name" v="Blueberry Court"/>
  </way>
  <way id="31220207" version="3" timestamp="2010-07-08T19:19:29Z" uid="74617" user="JohnSmith" changeset="5168688">
    <nd ref="347198230"/>
    <nd ref="347198231"/>
    <nd ref="347198232"/>
    <nd ref="347198233"/>
    <tag k="highway" v="residential"/>
    <tag k="maxspeed" v="50"/>
    <tag k="maxspeed:source" v="default residential speed limit in Australia"/>
    <tag k="name" v="Thornbill Drive"/>
  </way>
  <way id="31220207" version="4" timestamp="2012-01-18T06:42:08Z" uid="147510" user="woodpeck_fixbot" changeset="10424702">
    <nd ref="347198230"/>
    <nd ref="347198231"/>
    <nd ref="347198232"/>
    <nd ref="347198233"/>
    <tag k="highway" v="residential"/>
    <tag k="name" v="Thornbill Drive"/>
  </way>
  <way id="31220209" version="3" timestamp="2010-07-08T19:27:39Z" uid="74617" user="JohnSmith" changeset="5168688">
    <nd ref="347198192"/>
    <nd ref="347198233"/>
    <nd ref="347198234"/>
    <nd ref="347198235"/>
    <nd ref="347198244"/>
    <nd ref="347198236"/>
    <nd ref="347198237"/>
    <nd ref="347198238"/>
    <nd ref="347198239"/>
    <nd ref="347198240"/>
    <tag k="highway" v="residential"/>
    <tag k="maxspeed" v="50"/>
    <tag k="maxspeed:source" v="default residential speed limit in Australia"/>
    <tag k="name" v="Sanderling Street"/>
  </way>
  <way id="31220209" version="4" timestamp="2012-01-18T06:42:10Z" uid="147510" user="woodpeck_fixbot" changeset="10424702">
    <nd ref="347198192"/>
    <nd ref="347198233"/>
    <nd ref="347198234"/>
    <nd ref="347198235"/>
    <nd ref="347198244"/>
    <nd ref="347198236"/>
    <nd ref="347198237"/>
    <nd ref="347198238"/>
    <nd ref="347198239"/>
    <nd ref="347198240"/>
    <tag k="highway" v="residential"/>
    <tag k="name" v="Sanderling Street"/>
  </way>
  <way id="31220211" version="3" timestamp="2010-07-08T19:22:12Z" uid="74617" user="JohnSmith" changeset="5168688">
    <nd ref="347198235"/>
    <nd ref="347198241"/>
    <nd ref="347198242"/>
    <tag k="highway" v="residential"/>
    <tag k="maxspeed" v="50"/>
    <tag k="maxspeed:source" v="default residential speed limit in Australia"/>
    <tag k="name" v="Petrel Court"/>
  </way>
  <way id="31220211" version="4" timestamp="2012-01-18T06:42:11Z" uid="147510" user="woodpeck_fixbot" changeset="10424702">
    <nd ref="347198235"/>
    <nd ref="347198241"/>
    <nd ref="347198242"/>
    <tag k="highway" v="residential"/>
    <tag k="name" v="Petrel Court"/>
  </way>
  <way id="31220213" version="3" timestamp="2010-07-08T19:25:29Z" uid="74617" user="JohnSmith" changeset="5168688">
    <nd ref="347198243"/>
    <nd ref="347198244"/>
    <tag k="highway" v="residential"/>
    <tag k="maxspeed" v="50"/>
    <tag k="maxspeed:source" v="default residential speed limit in Australia"/>
    <tag k="name" v="Hawk Court"/>
  </way>
  <way id="31220213" version="4" timestamp="2012-01-18T06:42:12Z" uid="147510" user="woodpeck_fixbot" changeset="10424702">
    <nd ref="347198243"/>
    <nd ref="347198244"/>
    <tag k="highway" v="residential"/>
    <tag k="name" v="Hawk Court"/>
  </way>
  <way id="31220215" version="3" timestamp="2010-07-08T19:20:29Z" uid="74617" user="JohnSmith" changeset="5168688">
    <nd ref="347198238"/>
    <nd ref="347198245"/>
    <nd ref="347198246"/>
    <nd ref="347198247"/>
    <tag k="highway" v="residential"/>
    <tag k="maxspeed" v="50"/>
    <tag k="maxspeed:source" v="default residential speed limit in Australia"/>
    <tag k="name" v="Magpie Court"/>
  </way>
  <way id="31220215" version="4" timestamp="2012-01-18T06:42:14Z" uid="147510" user="woodpeck_fixbot" changeset="10424702">
    <nd ref="347198238"/>
    <nd ref="347198245"/>
    <nd ref="347198246"/>
    <nd ref="347198247"/>
    <tag k="highway" v="residential"/>
    <tag k="name" v="Magpie Court"/>
  </way>
  <way id="31220217" version="3" timestamp="2010-07-08T19:19:02Z" uid="74617" user="JohnSmith" changeset="5168688">
    <nd ref="347198248"/>
    <nd ref="290312992"/>
    <tag k="highway" v="residential"/>
    <tag k="maxspeed" v="50"/>
    <tag k="maxspeed:source" v="default residential speed limit in Australia"/>
    <tag k="name" v="Jay Court"/>
  </way>
  <way id="31220217" version="4" timestamp="2012-01-18T06:42:15Z" uid="147510" user="woodpeck_fixbot" changeset="10424702">
    <nd ref="347198248"/>
    <nd ref="290312992"/>
    <tag k="highway" v="residential"/>
    <tag k="name" v="Jay Court"/>
  </way>
  <way id="31220219" version="3" timestamp="2010-07-08T19:25:52Z" uid="74617" user="JohnSmith" changeset="5168688">
    <nd ref="347141015"/>
    <nd ref="347198249"/>
    <nd ref="347198250"/>
    <nd ref="347198251"/>
    <nd ref="347198252"/>
    <nd ref="347198253"/>
    <nd ref="347198254"/>
    <nd ref="347198255"/>
    <nd ref="347198274"/>
    <nd ref="347198263"/>
    <nd ref="347198273"/>
    <nd ref="347198256"/>
    <nd ref="347198257"/>
    <nd ref="347198258"/>
    <nd ref="347198259"/>
    <nd ref="347198261"/>
    <nd ref="347198260"/>
    <tag k="highway" v="residential"/>
    <tag k="maxspeed" v="50"/>
    <tag k="maxspeed:source" v="default residential speed limit in Australia"/>
    <tag k="name" v="Argyle Crescent"/>
  </way>
  <way id="31220219" version="4" timestamp="2012-01-18T06:42:16Z" uid="147510" user="woodpeck_fixbot" changeset="10424702">
    <nd ref="347141015"/>
    <nd ref="347198249"/>
    <nd ref="347198250"/>
    <nd ref="347198251"/>
    <nd ref="347198252"/>
    <nd ref="347198253"/>
    <nd ref="347198254"/>
    <nd ref="347198255"/>
    <nd ref="347198274"/>
    <nd ref="347198263"/>
    <nd ref="347198273"/>
    <nd ref="347198256"/>
    <nd ref="347198257"/>
    <nd ref="347198258"/>
    <nd ref="347198259"/>
    <nd ref="347198261"/>
    <nd ref="347198260"/>
    <tag k="highway" v="residential"/>
    <tag k="name" v="Argyle Crescent"/>
  </way>
  <way id="31220221" version="3" timestamp="2010-07-08T19:17:10Z" uid="74617" user="JohnSmith" changeset="5168688">
    <nd ref="347198261"/>
    <nd ref="347198262"/>
    <tag k="highway" v="residential"/>
    <tag k="maxspeed" v="50"/>
    <tag k="maxspeed:source" v="default residential speed limit in Australia"/>
    <tag k="name" v="Berrigan Court"/>
  </way>
  <way id="31220221" version="4" timestamp="2012-01-18T06:42:17Z" uid="147510" user="woodpeck_fixbot" changeset="10424702">
    <nd ref="347198261"/>
    <nd ref="347198262"/>
    <tag k="highway" v="residential"/>
    <tag k="name" v="Berrigan Court"/>
  </way>
  <way id="31220223" version="3" timestamp="2010-07-08T19:24:11Z" uid="74617" user="JohnSmith" changeset="5168688">
    <nd ref="347198263"/>
    <nd ref="347198264"/>
    <tag k="highway" v="residential"/>
    <tag k="maxspeed" v="50"/>
    <tag k="maxspeed:source" v="default residential speed limit in Australia"/>
    <tag k="name" v="Settler Court"/>
  </way>
  <way id="31220223" version="4" timestamp="2012-01-18T06:42:18Z" uid="147510" user="woodpeck_fixbot" changeset="10424702">
    <nd ref="347198263"/>
    <nd ref="347198264"/>
    <tag k="highway" v="residential"/>
    <tag k="name" v="Settler Court"/>
  </way>
  <way id="31220225" version="3" timestamp="2010-07-08T19:22:58Z" uid="74617" user="JohnSmith" changeset="5168688">
    <nd ref="347198258"/>
    <nd ref="347198265"/>
    <nd ref="347198266"/>
    <nd ref="347198267"/>
    <nd ref="347198268"/>
    <nd ref="347198269"/>
    <tag k="highway" v="residential"/>
    <tag k="maxspeed" v="50"/>
    <tag k="maxspeed:source" v="default residential speed limit in Australia"/>
    <tag k="name" v="Squatter Court"/>
  </way>
  <way id="31220225" version="4" timestamp="2012-01-18T06:42:19Z" uid="147510" user="woodpeck_fixbot" changeset="10424702">
    <nd ref="347198258"/>
    <nd ref="347198265"/>
    <nd ref="347198266"/>
    <nd ref="347198267"/>
    <nd ref="347198268"/>
    <nd ref="347198269"/>
    <tag k="highway" v="residential"/>
    <tag k="name" v="Squatter Court"/>
  </way>
  <way id="31220227" version="3" timestamp="2010-07-08T19:17:57Z" uid="74617" user="JohnSmith" changeset="5168688">
    <nd ref="347198256"/>
    <nd ref="347198270"/>
    <nd ref="347198271"/>
    <tag k="highway" v="residential"/>
    <tag k="maxspeed" v="50"/>
    <tag k="maxspeed:source" v="default residential speed limit in Australia"/>
    <tag k="name" v="Melton Close"/>
  </way>
  <way id="31220227" version="4" timestamp="2012-01-18T06:42:21Z" uid="147510" user="woodpeck_fixbot" changeset="10424702">
    <nd ref="347198256"/>
    <nd ref="347198270"/>
    <nd ref="347198271"/>
    <tag k="highway" v="residential"/>
    <tag k="name" v="Melton Close"/>
  </way>
  <way id="31220229" version="3" timestamp="2010-07-08T19:21:07Z" uid="74617" user="JohnSmith" changeset="5168688">
    <nd ref="347198272"/>
    <nd ref="347198273"/>
    <tag k="highway" v="residential"/>
    <tag k="maxspeed" v="50"/>
    <tag k="maxspeed:source" v="default residential speed limit in Australia"/>
    <tag k="name" v="Pioneer Court"/>
  </way>
  <way id="31220229" version="4" timestamp="2012-01-18T06:42:21Z" uid="147510" user="woodpeck_fixbot" changeset="10424702">
    <nd ref="347198272"/>
    <nd ref="347198273"/>
    <tag k="highway" v="residential"/>
    <tag k="name" v="Pioneer Court"/>
  </way>
  <way id="31220231" version="3" timestamp="2010-07-08T19:16:13Z" uid="74617" user="JohnSmith" changeset="5168688">
    <nd ref="347198274"/>
    <nd ref="347198275"/>
    <tag k="highway" v="residential"/>
    <tag k="maxspeed" v="50"/>
    <tag k="maxspeed:source" v="default residential speed limit in Australia"/>
    <tag k="name" v="Samuel Court"/>
  </way>
  <way id="31220231" version="4" timestamp="2012-01-18T06:42:22Z" uid="147510" user="woodpeck_fixbot" changeset="10424702">
    <nd ref="347198274"/>
    <nd ref="347198275"/>
    <tag k="highway" v="residential"/>
    <tag k="name" v="Samuel Court"/>
  </way>
  <way id="31220234" version="3" timestamp="2010-07-08T19:19:07Z" uid="74617" user="JohnSmith" changeset="5168688">
    <nd ref="347198253"/>
    <nd ref="347198276"/>
    <nd ref="347198277"/>
    <nd ref="347198278"/>
    <tag k="highway" v="residential"/>
    <tag k="maxspeed" v="50"/>
    <tag k="maxspeed:source" v="default residential speed limit in Australia"/>
    <tag k="name" v="Grazier Court"/>
  </way>
  <way id="31220234" version="4" timestamp="2012-01-18T06:42:23Z" uid="147510" user="woodpeck_fixbot" changeset="10424702">
    <nd ref="347198253"/>
    <nd ref="347198276"/>
    <nd ref="347198277"/>
    <nd ref="347198278"/>
    <tag k="highway" v="residential"/>
    <tag k="name" v="Grazier Court"/>
  </way>
  <way id="31220237" version="3" timestamp="2010-07-08T19:24:57Z" uid="74617" user="JohnSmith" changeset="5168688">
    <nd ref="347198279"/>
    <nd ref="347198280"/>
    <nd ref="347198281"/>
    <nd ref="347198286"/>
    <nd ref="347198282"/>
    <nd ref="290313035"/>
    <tag k="highway" v="residential"/>
    <tag k="maxspeed" v="50"/>
    <tag k="maxspeed:source" v="default residential speed limit in Australia"/>
    <tag k="name" v="Newbury Street"/>
  </way>
  <way id="31220237" version="4" timestamp="2012-01-18T06:42:25Z" uid="147510" user="woodpeck_fixbot" changeset="10424702">
    <nd ref="347198279"/>
    <nd ref="347198280"/>
    <nd ref="347198281"/>
    <nd ref="347198286"/>
    <nd ref="347198282"/>
    <nd ref="290313035"/>
    <tag k="highway" v="residential"/>
    <tag k="name" v="Newbury Street"/>
  </way>
  <way id="31220239" version="3" timestamp="2010-07-08T19:19:50Z" uid="74617" user="JohnSmith" changeset="5168688">
    <nd ref="347198283"/>
    <nd ref="347198284"/>
    <nd ref="347198286"/>
    <tag k="highway" v="residential"/>
    <tag k="maxspeed" v="50"/>
    <tag k="maxspeed:source" v="default residential speed limit in Australia"/>
    <tag k="name" v="Pratt Court"/>
  </way>
  <way id="31220239" version="4" timestamp="2012-01-18T06:42:26Z" uid="147510" user="woodpeck_fixbot" changeset="10424702">
    <nd ref="347198283"/>
    <nd ref="347198284"/>
    <nd ref="347198286"/>
    <tag k="highway" v="residential"/>
    <tag k="name" v="Pratt Court"/>
  </way>
  <way id="31220241" version="3" timestamp="2010-07-08T19:15:52Z" uid="74617" user="JohnSmith" changeset="5168688">
    <nd ref="347198280"/>
    <nd ref="347198288"/>
    <nd ref="347198290"/>
    <tag k="highway" v="residential"/>
    <tag k="maxspeed" v="50"/>
    <tag k="maxspeed:source" v="default residential speed limit in Australia"/>
    <tag k="name" v="Darvall Court"/>
  </way>
  <way id="31220241" version="4" timestamp="2012-01-18T06:42:27Z" uid="147510" user="woodpeck_fixbot" changeset="10424702">
    <nd ref="347198280"/>
    <nd ref="347198288"/>
    <nd ref="347198290"/>
    <tag k="highway" v="residential"/>
    <tag k="name" v="Darvall Court"/>
  </way>
  <way id="31220243" version="3" timestamp="2010-07-08T19:22:33Z" uid="74617" user="JohnSmith" changeset="5168688">
    <nd ref="290313046"/>
    <nd ref="347198315"/>
    <nd ref="347198291"/>
    <nd ref="347198314"/>
    <nd ref="347198293"/>
    <nd ref="347198279"/>
    <nd ref="347198326"/>
    <nd ref="347198294"/>
    <nd ref="347198295"/>
    <nd ref="347198296"/>
    <nd ref="347198297"/>
    <nd ref="347198298"/>
    <tag k="highway" v="residential"/>
    <tag k="maxspeed" v="50"/>
    <tag k="maxspeed:source" v="default residential speed limit in Australia"/>
    <tag k="name" v="Kramer Street"/>
  </way>
  <way id="31220243" version="4" timestamp="2011-02-24T03:58:12Z" uid="4467" user="Rosscoe" changeset="7378631">
    <nd ref="290313046"/>
    <nd ref="1169362636"/>
    <nd ref="347198315"/>
    <nd ref="347198291"/>
    <nd ref="347198314"/>
    <nd ref="347198293"/>
    <nd ref="347198279"/>
    <nd ref="347198326"/>
    <nd ref="347198294"/>
    <nd ref="347198295"/>
    <nd ref="347198296"/>
    <nd ref="347198297"/>
    <nd ref="347198298"/>
    <tag k="highway" v="residential"/>
    <tag k="maxspeed" v="50"/>
    <tag k="maxspeed:source" v="default residential speed limit in Australia"/>
    <tag k="name" v="Kramer Street"/>
  </way>
  <way id="31220243" version="5" timestamp="2012-01-18T06:42:28Z" uid="147510" user="woodpeck_fixbot" changeset="10424702">
    <nd ref="290313046"/>
    <nd ref="1169362636"/>
    <nd ref="347198315"/>
    <nd ref="347198291"/>
    <nd ref="347198314"/>
    <nd ref="347198293"/>
    <nd ref="347198279"/>
    <nd ref="347198326"/>
    <nd ref="347198294"/>
    <nd ref="347198295"/>
    <nd ref="347198296"/>
    <nd ref="347198297"/>
    <nd ref="347198298"/>
    <tag k="highway" v="residential"/>
    <tag k="name" v="Kramer Street"/>
  </way>
  <way id="31220245" version="3" timestamp="2010-07-08T19:25:47Z" uid="74617" user="JohnSmith" changeset="5168688">
    <nd ref="347198299"/>
    <nd ref="347198300"/>
    <nd ref="347198301"/>
    <nd ref="347198302"/>
    <nd ref="347198303"/>
    <nd ref="347198304"/>
    <nd ref="347198298"/>
    <nd ref="347198312"/>
    <nd ref="347198305"/>
    <nd ref="347198306"/>
    <nd ref="347198307"/>
    <nd ref="347198308"/>
    <nd ref="347198309"/>
    <nd ref="347198310"/>
    <nd ref="347198282"/>
    <tag k="highway" v="residential"/>
    <tag k="maxspeed" v="50"/>
    <tag k="maxspeed:source" v="default residential speed limit in Australia"/>
    <tag k="name" v="Nightingale Drive"/>
  </way>
  <way id="31220245" version="4" timestamp="2012-01-18T06:42:30Z" uid="147510" user="woodpeck_fixbot" changeset="10424702">
    <nd ref="347198299"/>
    <nd ref="347198300"/>
    <nd ref="347198301"/>
    <nd ref="347198302"/>
    <nd ref="347198303"/>
    <nd ref="347198304"/>
    <nd ref="347198298"/>
    <nd ref="347198312"/>
    <nd ref="347198305"/>
    <nd ref="347198306"/>
    <nd ref="347198307"/>
    <nd ref="347198308"/>
    <nd ref="347198309"/>
    <nd ref="347198310"/>
    <nd ref="347198282"/>
    <tag k="highway" v="residential"/>
    <tag k="name" v="Nightingale Drive"/>
  </way>
  <way id="31220247" version="3" timestamp="2010-07-08T19:20:45Z" uid="74617" user="JohnSmith" changeset="5168688">
    <nd ref="347198311"/>
    <nd ref="347198307"/>
    <tag k="highway" v="residential"/>
    <tag k="maxspeed" v="50"/>
    <tag k="maxspeed:source" v="default residential speed limit in Australia"/>
    <tag k="name" v="Jago Court"/>
  </way>
  <way id="31220247" version="4" timestamp="2012-01-18T06:42:31Z" uid="147510" user="woodpeck_fixbot" changeset="10424702">
    <nd ref="347198311"/>
    <nd ref="347198307"/>
    <tag k="highway" v="residential"/>
    <tag k="name" v="Jago Court"/>
  </way>
  <way id="31220249" version="3" timestamp="2010-07-08T19:19:23Z" uid="74617" user="JohnSmith" changeset="5168688">
    <nd ref="347198312"/>
    <nd ref="290313221"/>
    <tag k="highway" v="residential"/>
    <tag k="maxspeed" v="50"/>
    <tag k="maxspeed:source" v="default residential speed limit in Australia"/>
    <tag k="name" v="Sibley Street"/>
  </way>
  <way id="31220249" version="4" timestamp="2012-01-18T06:42:32Z" uid="147510" user="woodpeck_fixbot" changeset="10424702">
    <nd ref="347198312"/>
    <nd ref="290313221"/>
    <tag k="highway" v="residential"/>
    <tag k="name" v="Sibley Street"/>
  </way>
  <way id="31220251" version="3" timestamp="2010-07-08T19:26:11Z" uid="74617" user="JohnSmith" changeset="5168688">
    <nd ref="347198313"/>
    <nd ref="347198314"/>
    <tag k="highway" v="residential"/>
    <tag k="maxspeed" v="50"/>
    <tag k="maxspeed:source" v="default residential speed limit in Australia"/>
    <tag k="name" v="Dove Court"/>
  </way>
  <way id="31220251" version="4" timestamp="2012-01-18T06:42:34Z" uid="147510" user="woodpeck_fixbot" changeset="10424702">
    <nd ref="347198313"/>
    <nd ref="347198314"/>
    <tag k="highway" v="residential"/>
    <tag k="name" v="Dove Court"/>
  </way>
  <way id="31220253" version="4" timestamp="2010-07-08T19:17:31Z" uid="74617" user="JohnSmith" changeset="5168688">
    <nd ref="347198315"/>
    <nd ref="347198329"/>
    <nd ref="347198316"/>
    <nd ref="347198317"/>
    <nd ref="347198318"/>
    <nd ref="347198319"/>
    <nd ref="444669325"/>
    <nd ref="444669326"/>
    <nd ref="347198320"/>
    <nd ref="347198321"/>
    <nd ref="347198322"/>
    <nd ref="444669333"/>
    <nd ref="347198323"/>
    <nd ref="347198324"/>
    <nd ref="347198325"/>
    <nd ref="347198326"/>
    <tag k="highway" v="residential"/>
    <tag k="maxspeed" v="50"/>
    <tag k="maxspeed:source" v="default residential speed limit in Australia"/>
    <tag k="name" v="Dobell Crescent"/>
  </way>
  <way id="31220253" version="5" timestamp="2012-01-18T06:42:35Z" uid="147510" user="woodpeck_fixbot" changeset="10424702">
    <nd ref="347198315"/>
    <nd ref="347198329"/>
    <nd ref="347198316"/>
    <nd ref="347198317"/>
    <nd ref="347198318"/>
    <nd ref="347198319"/>
    <nd ref="444669325"/>
    <nd ref="444669326"/>
    <nd ref="347198320"/>
    <nd ref="347198321"/>
    <nd ref="347198322"/>
    <nd ref="444669333"/>
    <nd ref="347198323"/>
    <nd ref="347198324"/>
    <nd ref="347198325"/>
    <nd ref="347198326"/>
    <tag k="highway" v="residential"/>
    <tag k="name" v="Dobell Crescent"/>
  </way>
  <way id="31220255" version="3" timestamp="2010-07-08T19:24:31Z" uid="74617" user="JohnSmith" changeset="5168688">
    <nd ref="347198327"/>
    <nd ref="347198328"/>
    <nd ref="347198329"/>
    <tag k="highway" v="residential"/>
    <tag k="maxspeed" v="50"/>
    <tag k="maxspeed:source" v="default residential speed limit in Australia"/>
    <tag k="name" v="Troy Court"/>
  </way>
  <way id="31220255" version="4" timestamp="2012-01-18T06:42:36Z" uid="147510" user="woodpeck_fixbot" changeset="10424702">
    <nd ref="347198327"/>
    <nd ref="347198328"/>
    <nd ref="347198329"/>
    <tag k="highway" v="residential"/>
    <tag k="name" v="Troy Court"/>
  </way>
  <way id="31220257" version="3" timestamp="2010-07-08T19:25:41Z" uid="74617" user="JohnSmith" changeset="5168688">
    <nd ref="347198330"/>
    <nd ref="347198331"/>
    <nd ref="347198295"/>
    <tag k="highway" v="residential"/>
    <tag k="maxspeed" v="50"/>
    <tag k="maxspeed:source" v="default residential speed limit in Australia"/>
    <tag k="name" v="Giles Court"/>
  </way>
  <way id="31220257" version="4" timestamp="2012-01-18T06:42:37Z" uid="147510" user="woodpeck_fixbot" changeset="10424702">
    <nd ref="347198330"/>
    <nd ref="347198331"/>
    <nd ref="347198295"/>
    <tag k="highway" v="residential"/>
    <tag k="name" v="Giles Court"/>
  </way>
  <way id="31220258" version="3" timestamp="2010-07-08T19:18:07Z" uid="74617" user="JohnSmith" changeset="5168688">
    <nd ref="347198332"/>
    <nd ref="347198333"/>
    <nd ref="347198334"/>
    <nd ref="347198335"/>
    <tag k="highway" v="residential"/>
    <tag k="maxspeed" v="50"/>
    <tag k="maxspeed:source" v="default residential speed limit in Australia"/>
    <tag k="name" v="Sherrin Court"/>
  </way>
  <way id="31220258" version="4" timestamp="2012-01-18T06:42:38Z" uid="147510" user="woodpeck_fixbot" changeset="10424702">
    <nd ref="347198332"/>
    <nd ref="347198333"/>
    <nd ref="347198334"/>
    <nd ref="347198335"/>
    <tag k="highway" v="residential"/>
    <tag k="name" v="Sherrin Court"/>
  </way>
  <way id="31220261" version="5" timestamp="2010-07-08T19:23:55Z" uid="74617" user="JohnSmith" changeset="5168688">
    <nd ref="347198336"/>
    <nd ref="347198338"/>
    <nd ref="347198339"/>
    <tag k="highway" v="residential"/>
    <tag k="maxspeed" v="50"/>
    <tag k="maxspeed:source" v="default residential speed limit in Australia"/>
    <tag k="name" v="Owen Court"/>
  </way>
  <way id="31220261" version="6" timestamp="2012-01-18T06:42:40Z" uid="147510" user="woodpeck_fixbot" changeset="10424702">
    <nd ref="347198336"/>
    <nd ref="347198338"/>
    <nd ref="347198339"/>
    <tag k="highway" v="residential"/>
    <tag k="name" v="Owen Court"/>
  </way>
  <way id="31220263" version="3" timestamp="2010-07-08T19:18:51Z" uid="74617" user="JohnSmith" changeset="5168688">
    <nd ref="347198340"/>
    <nd ref="347198341"/>
    <tag k="highway" v="residential"/>
    <tag k="maxspeed" v="50"/>
    <tag k="maxspeed:source" v="default residential speed limit in Australia"/>
    <tag k="name" v="Upton Court"/>
  </way>
  <way id="31220263" version="4" timestamp="2012-01-18T06:42:41Z" uid="147510" user="woodpeck_fixbot" changeset="10424702">
    <nd ref="347198340"/>
    <nd ref="347198341"/>
    <tag k="highway" v="residential"/>
    <tag k="name" v="Upton Court"/>
  </way>
  <way id="31220265" version="3" timestamp="2010-07-08T19:17:25Z" uid="74617" user="JohnSmith" changeset="5168688">
    <nd ref="347198342"/>
    <nd ref="347198343"/>
    <tag k="highway" v="residential"/>
    <tag k="maxspeed" v="50"/>
    <tag k="maxspeed:source" v="default residential speed limit in Australia"/>
    <tag k="name" v="Olsen Court"/>
  </way>
  <way id="31220265" version="4" timestamp="2012-01-18T06:42:42Z" uid="147510" user="woodpeck_fixbot" changeset="10424702">
    <nd ref="347198342"/>
    <nd ref="347198343"/>
    <tag k="highway" v="residential"/>
    <tag k="name" v="Olsen Court"/>
  </way>
  <way id="31220267" version="3" timestamp="2010-07-08T19:24:26Z" uid="74617" user="JohnSmith" changeset="5168688">
    <nd ref="347198344"/>
    <nd ref="347198345"/>
    <nd ref="347198346"/>
    <nd ref="347198367"/>
    <nd ref="347198366"/>
    <nd ref="347198347"/>
    <nd ref="347198348"/>
    <nd ref="347198349"/>
    <nd ref="347198350"/>
    <tag k="highway" v="residential"/>
    <tag k="maxspeed" v="50"/>
    <tag k="maxspeed:source" v="default residential speed limit in Australia"/>
    <tag k="name" v="Malleehen Street"/>
  </way>
  <way id="31220267" version="4" timestamp="2011-12-07T04:13:08Z" uid="11111" user="melb_guy" changeset="10055001">
    <nd ref="347198344"/>
    <nd ref="347198345"/>
    <nd ref="347198346"/>
    <nd ref="347198367"/>
    <nd ref="347198366"/>
    <nd ref="347198347"/>
    <nd ref="347198348"/>
    <nd ref="347198349"/>
    <nd ref="1534869906"/>
    <nd ref="347198350"/>
    <tag k="highway" v="residential"/>
    <tag k="maxspeed" v="50"/>
    <tag k="maxspeed:source" v="default residential speed limit in Australia"/>
    <tag k="name" v="Malleehen Street"/>
  </way>
  <way id="31220267" version="5" timestamp="2012-01-18T06:42:43Z" uid="147510" user="woodpeck_fixbot" changeset="10424702">
    <nd ref="347198344"/>
    <nd ref="347198345"/>
    <nd ref="347198346"/>
    <nd ref="347198367"/>
    <nd ref="347198366"/>
    <nd ref="347198347"/>
    <nd ref="347198348"/>
    <nd ref="347198349"/>
    <nd ref="1534869906"/>
    <nd ref="347198350"/>
    <tag k="highway" v="residential"/>
    <tag k="name" v="Malleehen Street"/>
  </way>
  <way id="31220269" version="3" timestamp="2010-07-08T19:15:47Z" uid="74617" user="JohnSmith" changeset="5168688">
    <nd ref="347198349"/>
    <nd ref="347198351"/>
    <nd ref="347198353"/>
    <nd ref="347198352"/>
    <tag k="highway" v="residential"/>
    <tag k="maxspeed" v="50"/>
    <tag k="maxspeed:source" v="default residential speed limit in Australia"/>
    <tag k="name" v="Harrier Street"/>
  </way>
  <way id="31220269" version="4" timestamp="2012-01-18T06:42:44Z" uid="147510" user="woodpeck_fixbot" changeset="10424702">
    <nd ref="347198349"/>
    <nd ref="347198351"/>
    <nd ref="347198353"/>
    <nd ref="347198352"/>
    <tag k="highway" v="residential"/>
    <tag k="name" v="Harrier Street"/>
  </way>
  <way id="31220271" version="3" timestamp="2010-07-08T19:22:29Z" uid="74617" user="JohnSmith" changeset="5168688">
    <nd ref="347198353"/>
    <nd ref="347198354"/>
    <nd ref="347198355"/>
    <nd ref="347198363"/>
    <nd ref="347198362"/>
    <nd ref="347198356"/>
    <nd ref="347198357"/>
    <nd ref="347198358"/>
    <nd ref="347198359"/>
    <tag k="highway" v="residential"/>
    <tag k="maxspeed" v="50"/>
    <tag k="maxspeed:source" v="default residential speed limit in Australia"/>
    <tag k="name" v="Falcon Street"/>
  </way>
  <way id="31220271" version="4" timestamp="2012-01-18T06:42:46Z" uid="147510" user="woodpeck_fixbot" changeset="10424702">
    <nd ref="347198353"/>
    <nd ref="347198354"/>
    <nd ref="347198355"/>
    <nd ref="347198363"/>
    <nd ref="347198362"/>
    <nd ref="347198356"/>
    <nd ref="347198357"/>
    <nd ref="347198358"/>
    <nd ref="347198359"/>
    <tag k="highway" v="residential"/>
    <tag k="name" v="Falcon Street"/>
  </way>
  <way id="31220273" version="3" timestamp="2010-07-08T19:18:23Z" uid="74617" user="JohnSmith" changeset="5168688">
    <nd ref="347198360"/>
    <nd ref="347198361"/>
    <nd ref="347198362"/>
    <tag k="highway" v="residential"/>
    <tag k="maxspeed" v="50"/>
    <tag k="maxspeed:source" v="default residential speed limit in Australia"/>
    <tag k="name" v="Tern Court"/>
  </way>
  <way id="31220273" version="4" timestamp="2012-01-18T06:42:47Z" uid="147510" user="woodpeck_fixbot" changeset="10424702">
    <nd ref="347198360"/>
    <nd ref="347198361"/>
    <nd ref="347198362"/>
    <tag k="highway" v="residential"/>
    <tag k="name" v="Tern Court"/>
  </way>
  <way id="31220275" version="3" timestamp="2010-07-08T19:25:20Z" uid="74617" user="JohnSmith" changeset="5168688">
    <nd ref="347198363"/>
    <nd ref="347198364"/>
    <tag k="highway" v="residential"/>
    <tag k="maxspeed" v="50"/>
    <tag k="maxspeed:source" v="default residential speed limit in Australia"/>
    <tag k="name" v="Emu Court"/>
  </way>
  <way id="31220275" version="4" timestamp="2012-01-18T06:42:48Z" uid="147510" user="woodpeck_fixbot" changeset="10424702">
    <nd ref="347198363"/>
    <nd ref="347198364"/>
    <tag k="highway" v="residential"/>
    <tag k="name" v="Emu Court"/>
  </way>
  <way id="31220277" version="3" timestamp="2010-07-08T19:16:39Z" uid="74617" user="JohnSmith" changeset="5168688">
    <nd ref="347198365"/>
    <nd ref="347198366"/>
    <tag k="highway" v="residential"/>
    <tag k="maxspeed" v="50"/>
    <tag k="maxspeed:source" v="default residential speed limit in Australia"/>
    <tag k="name" v="Lark Court"/>
  </way>
  <way id="31220277" version="4" timestamp="2012-01-18T06:42:49Z" uid="147510" user="woodpeck_fixbot" changeset="10424702">
    <nd ref="347198365"/>
    <nd ref="347198366"/>
    <tag k="highway" v="residential"/>
    <tag k="name" v="Lark Court"/>
  </way>
  <way id="31220279" version="3" timestamp="2010-07-08T19:23:26Z" uid="74617" user="JohnSmith" changeset="5168688">
    <nd ref="347198367"/>
    <nd ref="347198368"/>
    <nd ref="347198359"/>
    <nd ref="347198369"/>
    <nd ref="347198370"/>
    <nd ref="347198400"/>
    <nd ref="347198371"/>
    <nd ref="347198372"/>
    <tag k="highway" v="residential"/>
    <tag k="maxspeed" v="50"/>
    <tag k="maxspeed:source" v="default residential speed limit in Australia"/>
    <tag k="name" v="Swallow Street"/>
  </way>
  <way id="31220279" version="4" timestamp="2012-01-18T06:42:50Z" uid="147510" user="woodpeck_fixbot" changeset="10424702">
    <nd ref="347198367"/>
    <nd ref="347198368"/>
    <nd ref="347198359"/>
    <nd ref="347198369"/>
    <nd ref="347198370"/>
    <nd ref="347198400"/>
    <nd ref="347198371"/>
    <nd ref="347198372"/>
    <tag k="highway" v="residential"/>
    <tag k="name" v="Swallow Street"/>
  </way>
  <way id="31220281" version="3" timestamp="2010-07-08T19:21:59Z" uid="74617" user="JohnSmith" changeset="5168688">
    <nd ref="347198371"/>
    <nd ref="347198373"/>
    <nd ref="347198374"/>
    <nd ref="347198375"/>
    <nd ref="347198352"/>
    <nd ref="347198376"/>
    <nd ref="347198377"/>
    <tag k="highway" v="residential"/>
    <tag k="maxspeed" v="50"/>
    <tag k="maxspeed:source" v="default residential speed limit in Australia"/>
    <tag k="name" v="Pelican Place"/>
  </way>
  <way id="31220281" version="4" timestamp="2012-01-18T06:42:52Z" uid="147510" user="woodpeck_fixbot" changeset="10424702">
    <nd ref="347198371"/>
    <nd ref="347198373"/>
    <nd ref="347198374"/>
    <nd ref="347198375"/>
    <nd ref="347198352"/>
    <nd ref="347198376"/>
    <nd ref="347198377"/>
    <tag k="highway" v="residential"/>
    <tag k="name" v="Pelican Place"/>
  </way>
  <way id="31220283" version="3" timestamp="2010-07-08T19:17:00Z" uid="74617" user="JohnSmith" changeset="5168688">
    <nd ref="290313217"/>
    <nd ref="347198426"/>
    <nd ref="347198378"/>
    <nd ref="347198377"/>
    <nd ref="347198379"/>
    <nd ref="347198380"/>
    <nd ref="347198350"/>
    <nd ref="347198381"/>
    <nd ref="347198382"/>
    <nd ref="38712042"/>
    <tag k="highway" v="residential"/>
    <tag k="maxspeed" v="50"/>
    <tag k="maxspeed:source" v="default residential speed limit in Australia"/>
    <tag k="name" v="Parakeet Road"/>
  </way>
  <way id="31220283" version="4" timestamp="2011-12-07T04:13:07Z" uid="11111" user="melb_guy" changeset="10055001">
    <nd ref="290313217"/>
    <nd ref="1534870035"/>
    <tag k="highway" v="residential"/>
    <tag k="maxspeed" v="50"/>
    <tag k="name" v="Parakeet Road"/>
    <tag k="surface" v="asphalt"/>
  </way>
  <way id="31220283" version="5" timestamp="2012-01-18T06:42:54Z" uid="147510" user="woodpeck_fixbot" changeset="10424702">
    <nd ref="290313217"/>
    <nd ref="1534870035"/>
    <tag k="highway" v="residential"/>
    <tag k="name" v="Parakeet Road"/>
    <tag k="surface" v="asphalt"/>
  </way>
  <way id="31220285" version="3" timestamp="2010-07-08T19:20:17Z" uid="74617" user="JohnSmith" changeset="5168688">
    <nd ref="347198383"/>
    <nd ref="347198384"/>
    <nd ref="347198385"/>
    <nd ref="347198386"/>
    <nd ref="347198375"/>
    <tag k="highway" v="residential"/>
    <tag k="maxspeed" v="50"/>
    <tag k="maxspeed:source" v="default residential speed limit in Australia"/>
    <tag k="name" v="Wren Court"/>
  </way>
  <way id="31220285" version="4" timestamp="2012-01-18T06:42:55Z" uid="147510" user="woodpeck_fixbot" changeset="10424702">
    <nd ref="347198383"/>
    <nd ref="347198384"/>
    <nd ref="347198385"/>
    <nd ref="347198386"/>
    <nd ref="347198375"/>
    <tag k="highway" v="residential"/>
    <tag k="name" v="Wren Court"/>
  </way>
  <way id="31220286" version="3" timestamp="2010-07-08T19:24:41Z" uid="74617" user="JohnSmith" changeset="5168688">
    <nd ref="347198348"/>
    <nd ref="347198388"/>
    <nd ref="347198387"/>
    <tag k="highway" v="residential"/>
    <tag k="maxspeed" v="50"/>
    <tag k="maxspeed:source" v="default residential speed limit in Australia"/>
    <tag k="name" v="Gannet Street"/>
  </way>
  <way id="31220286" version="4" timestamp="2011-12-07T04:13:08Z" uid="11111" user="melb_guy" changeset="10055001">
    <nd ref="347198348"/>
    <nd ref="347198388"/>
    <nd ref="1534869931"/>
    <nd ref="347198387"/>
    <tag k="highway" v="residential"/>
    <tag k="maxspeed" v="50"/>
    <tag k="maxspeed:source" v="default residential speed limit in Australia"/>
    <tag k="name" v="Gannet Street"/>
  </way>
  <way id="31220286" version="5" timestamp="2012-01-18T06:42:56Z" uid="147510" user="woodpeck_fixbot" changeset="10424702">
    <nd ref="347198348"/>
    <nd ref="347198388"/>
    <nd ref="1534869931"/>
    <nd ref="347198387"/>
    <tag k="highway" v="residential"/>
    <tag k="name" v="Gannet Street"/>
  </way>
  <way id="31220289" version="3" timestamp="2010-07-08T19:16:31Z" uid="74617" user="JohnSmith" changeset="5168688">
    <nd ref="347198388"/>
    <nd ref="347198389"/>
    <tag k="highway" v="residential"/>
    <tag k="maxspeed" v="50"/>
    <tag k="maxspeed:source" v="default residential speed limit in Australia"/>
    <tag k="name" v="Quail Court"/>
  </way>
  <way id="31220289" version="4" timestamp="2012-01-18T06:42:58Z" uid="147510" user="woodpeck_fixbot" changeset="10424702">
    <nd ref="347198388"/>
    <nd ref="347198389"/>
    <tag k="highway" v="residential"/>
    <tag k="name" v="Quail Court"/>
  </way>
  <way id="31220291" version="3" timestamp="2010-07-08T19:23:18Z" uid="74617" user="JohnSmith" changeset="5168688">
    <nd ref="347198390"/>
    <nd ref="347198391"/>
    <nd ref="347198392"/>
    <nd ref="347198393"/>
    <tag k="highway" v="residential"/>
    <tag k="maxspeed" v="50"/>
    <tag k="maxspeed:source" v="default residential speed limit in Australia"/>
    <tag k="name" v="Thrush Court"/>
  </way>
  <way id="31220291" version="4" timestamp="2011-12-07T02:56:44Z" uid="11111" user="melb_guy" changeset="10054872">
    <nd ref="347198390"/>
    <nd ref="1534839495"/>
    <nd ref="347198391"/>
    <nd ref="1534839562"/>
    <nd ref="1534839559"/>
    <nd ref="1534839551"/>
    <nd ref="347198392"/>
    <nd ref="1534839496"/>
    <nd ref="347198393"/>
    <tag k="highway" v="residential"/>
    <tag k="maxspeed" v="50"/>
    <tag k="maxspeed:source" v="default residential speed limit in Australia"/>
    <tag k="name" v="Thrush Court"/>
  </way>
  <way id="31220291" version="5" timestamp="2012-01-18T06:42:59Z" uid="147510" user="woodpeck_fixbot" changeset="10424702">
    <nd ref="347198390"/>
    <nd ref="1534839495"/>
    <nd ref="347198391"/>
    <nd ref="1534839562"/>
    <nd ref="1534839559"/>
    <nd ref="1534839551"/>
    <nd ref="347198392"/>
    <nd ref="1534839496"/>
    <nd ref="347198393"/>
    <tag k="highway" v="residential"/>
    <tag k="name" v="Thrush Court"/>
  </way>
  <way id="31220293" version="3" timestamp="2010-07-08T19:26:31Z" uid="74617" user="JohnSmith" changeset="5168688">
    <nd ref="347198394"/>
    <nd ref="347198395"/>
    <nd ref="347198368"/>
    <tag k="highway" v="residential"/>
    <tag k="maxspeed" v="50"/>
    <tag k="maxspeed:source" v="default residential speed limit in Australia"/>
    <tag k="name" v="Redpath Court"/>
  </way>
  <way id="31220293" version="4" timestamp="2012-01-18T06:43:00Z" uid="147510" user="woodpeck_fixbot" changeset="10424702">
    <nd ref="347198394"/>
    <nd ref="347198395"/>
    <nd ref="347198368"/>
    <tag k="highway" v="residential"/>
    <tag k="name" v="Redpath Court"/>
  </way>
  <way id="31220295" version="3" timestamp="2010-07-08T19:21:22Z" uid="74617" user="JohnSmith" changeset="5168688">
    <nd ref="347198396"/>
    <nd ref="347198397"/>
    <nd ref="347198398"/>
    <nd ref="347198399"/>
    <nd ref="347198400"/>
    <tag k="highway" v="residential"/>
    <tag k="maxspeed" v="50"/>
    <tag k="maxspeed:source" v="default residential speed limit in Australia"/>
    <tag k="name" v="Boyd Court"/>
  </way>
  <way id="31220295" version="4" timestamp="2012-01-18T06:43:02Z" uid="147510" user="woodpeck_fixbot" changeset="10424702">
    <nd ref="347198396"/>
    <nd ref="347198397"/>
    <nd ref="347198398"/>
    <nd ref="347198399"/>
    <nd ref="347198400"/>
    <tag k="highway" v="residential"/>
    <tag k="name" v="Boyd Court"/>
  </way>
  <way id="31220297" version="3" timestamp="2010-05-11T08:10:24Z" uid="4467" user="Rosscoe" changeset="4666326">
    <nd ref="290312835"/>
    <nd ref="729571267"/>
    <nd ref="347198434"/>
    <nd ref="347198401"/>
    <nd ref="347198415"/>
    <nd ref="347198402"/>
    <nd ref="347198403"/>
    <nd ref="347198404"/>
    <nd ref="347198424"/>
    <nd ref="347198405"/>
    <nd ref="347198409"/>
    <nd ref="347198410"/>
    <nd ref="347198420"/>
    <nd ref="347198382"/>
    <tag k="highway" v="residential"/>
    <tag k="name" v="Cormorant Crescent"/>
  </way>
  <way id="31220297" version="4" timestamp="2010-07-08T19:20:10Z" uid="74617" user="JohnSmith" changeset="5168688">
    <nd ref="290312835"/>
    <nd ref="729571267"/>
    <nd ref="347198434"/>
    <nd ref="347198401"/>
    <nd ref="347198415"/>
    <nd ref="347198402"/>
    <nd ref="347198403"/>
    <nd ref="347198404"/>
    <nd ref="347198424"/>
    <nd ref="347198405"/>
    <nd ref="347198409"/>
    <nd ref="347198410"/>
    <nd ref="347198420"/>
    <nd ref="347198382"/>
    <tag k="highway" v="residential"/>
    <tag k="maxspeed" v="50"/>
    <tag k="maxspeed:source" v="default residential speed limit in Australia"/>
    <tag k="name" v="Cormorant Crescent"/>
  </way>
  <way id="31220297" version="5" timestamp="2011-12-07T04:13:09Z" uid="11111" user="melb_guy" changeset="10055001">
    <nd ref="290312835"/>
    <nd ref="729571267"/>
    <nd ref="347198434"/>
    <nd ref="347198401"/>
    <nd ref="347198415"/>
    <nd ref="347198402"/>
    <nd ref="347198403"/>
    <nd ref="347198404"/>
    <nd ref="347198424"/>
    <nd ref="347198405"/>
    <nd ref="347198409"/>
    <nd ref="347198410"/>
    <nd ref="347198420"/>
    <nd ref="1534869999"/>
    <nd ref="347198382"/>
    <tag k="highway" v="residential"/>
    <tag k="maxspeed" v="50"/>
    <tag k="maxspeed:source" v="default residential speed limit in Australia"/>
    <tag k="name" v="Cormorant Crescent"/>
  </way>
  <way id="31220297" version="6" timestamp="2012-01-18T06:43:03Z" uid="147510" user="woodpeck_fixbot" changeset="10424702">
    <nd ref="290312835"/>
    <nd ref="729571267"/>
    <nd ref="347198434"/>
    <nd ref="347198401"/>
    <nd ref="347198415"/>
    <nd ref="347198402"/>
    <nd ref="347198403"/>
    <nd ref="347198404"/>
    <nd ref="347198424"/>
    <nd ref="347198405"/>
    <nd ref="347198409"/>
    <nd ref="347198410"/>
    <nd ref="347198420"/>
    <nd ref="1534869999"/>
    <nd ref="347198382"/>
    <tag k="highway" v="residential"/>
    <tag k="name" v="Cormorant Crescent"/>
  </way>
  <way id="31220299" version="3" timestamp="2010-07-08T19:27:07Z" uid="74617" user="JohnSmith" changeset="5168688">
    <nd ref="347198380"/>
    <nd ref="347198411"/>
    <nd ref="347198412"/>
    <nd ref="347198413"/>
    <nd ref="347198414"/>
    <nd ref="347198415"/>
    <tag k="highway" v="residential"/>
    <tag k="maxspeed" v="50"/>
    <tag k="maxspeed:source" v="default residential speed limit in Australia"/>
    <tag k="name" v="Cobbler Street"/>
  </way>
  <way id="31220299" version="4" timestamp="2012-01-18T06:43:04Z" uid="147510" user="woodpeck_fixbot" changeset="10424702">
    <nd ref="347198380"/>
    <nd ref="347198411"/>
    <nd ref="347198412"/>
    <nd ref="347198413"/>
    <nd ref="347198414"/>
    <nd ref="347198415"/>
    <tag k="highway" v="residential"/>
    <tag k="name" v="Cobbler Street"/>
  </way>
  <way id="31220301" version="3" timestamp="2010-07-08T19:18:16Z" uid="74617" user="JohnSmith" changeset="5168688">
    <nd ref="347198412"/>
    <nd ref="347198416"/>
    <nd ref="347198417"/>
    <nd ref="347198418"/>
    <nd ref="347198419"/>
    <nd ref="347198420"/>
    <tag k="highway" v="residential"/>
    <tag k="maxspeed" v="50"/>
    <tag k="maxspeed:source" v="default residential speed limit in Australia"/>
    <tag k="name" v="Sandpiper Street"/>
  </way>
  <way id="31220301" version="4" timestamp="2012-01-18T06:43:05Z" uid="147510" user="woodpeck_fixbot" changeset="10424702">
    <nd ref="347198412"/>
    <nd ref="347198416"/>
    <nd ref="347198417"/>
    <nd ref="347198418"/>
    <nd ref="347198419"/>
    <nd ref="347198420"/>
    <tag k="highway" v="residential"/>
    <tag k="name" v="Sandpiper Street"/>
  </way>
  <way id="31220304" version="3" timestamp="2010-07-08T19:18:33Z" uid="74617" user="JohnSmith" changeset="5168688">
    <nd ref="347198413"/>
    <nd ref="347198421"/>
    <nd ref="347198422"/>
    <tag k="highway" v="residential"/>
    <tag k="maxspeed" v="50"/>
    <tag k="maxspeed:source" v="default residential speed limit in Australia"/>
    <tag k="name" v="Kea Court"/>
  </way>
  <way id="31220304" version="4" timestamp="2012-01-18T06:43:06Z" uid="147510" user="woodpeck_fixbot" changeset="10424702">
    <nd ref="347198413"/>
    <nd ref="347198421"/>
    <nd ref="347198422"/>
    <tag k="highway" v="residential"/>
    <tag k="name" v="Kea Court"/>
  </way>
  <way id="31220306" version="3" timestamp="2010-07-08T19:25:27Z" uid="74617" user="JohnSmith" changeset="5168688">
    <nd ref="347198423"/>
    <nd ref="347198425"/>
    <nd ref="347198424"/>
    <tag k="highway" v="residential"/>
    <tag k="maxspeed" v="50"/>
    <tag k="maxspeed:source" v="default residential speed limit in Australia"/>
    <tag k="name" v="Ibis Court"/>
  </way>
  <way id="31220306" version="4" timestamp="2012-01-18T06:43:08Z" uid="147510" user="woodpeck_fixbot" changeset="10424702">
    <nd ref="347198423"/>
    <nd ref="347198425"/>
    <nd ref="347198424"/>
    <tag k="highway" v="residential"/>
    <tag k="name" v="Ibis Court"/>
  </way>
  <way id="31220308" version="3" timestamp="2010-07-08T19:16:48Z" uid="74617" user="JohnSmith" changeset="5168688">
    <nd ref="347198426"/>
    <nd ref="347198427"/>
    <nd ref="347198428"/>
    <tag k="highway" v="residential"/>
    <tag k="maxspeed" v="50"/>
    <tag k="maxspeed:source" v="default residential speed limit in Australia"/>
    <tag k="name" v="Snipe Court"/>
  </way>
  <way id="31220308" version="4" timestamp="2011-12-07T04:13:09Z" uid="11111" user="melb_guy" changeset="10055001">
    <nd ref="347198426"/>
    <nd ref="1534869915"/>
    <nd ref="347198427"/>
    <nd ref="347198428"/>
    <tag k="highway" v="residential"/>
    <tag k="maxspeed" v="50"/>
    <tag k="maxspeed:source" v="default residential speed limit in Australia"/>
    <tag k="name" v="Snipe Court"/>
  </way>
  <way id="31220308" version="5" timestamp="2012-01-18T06:43:09Z" uid="147510" user="woodpeck_fixbot" changeset="10424702">
    <nd ref="347198426"/>
    <nd ref="1534869915"/>
    <nd ref="347198427"/>
    <nd ref="347198428"/>
    <tag k="highway" v="residential"/>
    <tag k="name" v="Snipe Court"/>
  </way>
  <way id="31220310" version="3" timestamp="2010-07-08T19:23:36Z" uid="74617" user="JohnSmith" changeset="5168688">
    <nd ref="347198379"/>
    <nd ref="347198429"/>
    <nd ref="347198430"/>
    <nd ref="347198431"/>
    <tag k="highway" v="residential"/>
    <tag k="maxspeed" v="50"/>
    <tag k="maxspeed:source" v="default residential speed limit in Australia"/>
    <tag k="name" v="Grouse Court"/>
  </way>
  <way id="31220310" version="4" timestamp="2012-01-18T06:43:10Z" uid="147510" user="woodpeck_fixbot" changeset="10424702">
    <nd ref="347198379"/>
    <nd ref="347198429"/>
    <nd ref="347198430"/>
    <nd ref="347198431"/>
    <tag k="highway" v="residential"/>
    <tag k="name" v="Grouse Court"/>
  </way>
  <way id="31220312" version="3" timestamp="2010-05-11T08:10:23Z" uid="4467" user="Rosscoe" changeset="4666326">
    <nd ref="347198432"/>
    <nd ref="347198433"/>
    <nd ref="347198434"/>
    <tag k="highway" v="residential"/>
    <tag k="name" v="Budgie Court"/>
    <tag k="source" v="nearmap"/>
  </way>
  <way id="31220312" version="4" timestamp="2010-07-08T19:22:11Z" uid="74617" user="JohnSmith" changeset="5168688">
    <nd ref="347198432"/>
    <nd ref="347198433"/>
    <nd ref="347198434"/>
    <tag k="highway" v="residential"/>
    <tag k="maxspeed" v="50"/>
    <tag k="maxspeed:source" v="default residential speed limit in Australia"/>
    <tag k="name" v="Budgie Court"/>
    <tag k="source" v="nearmap"/>
  </way>
  <way id="31220312" version="5" timestamp="2012-01-18T06:43:11Z" uid="147510" user="woodpeck_fixbot" changeset="10424702">
    <nd ref="347198432"/>
    <nd ref="347198433"/>
    <nd ref="347198434"/>
    <tag k="highway" v="residential"/>
    <tag k="name" v="Budgie Court"/>
    <tag k="source" v="nearmap"/>
  </way>
  <way id="31220314" version="3" timestamp="2010-07-08T19:17:09Z" uid="74617" user="JohnSmith" changeset="5168688">
    <nd ref="347198435"/>
    <nd ref="347198437"/>
    <nd ref="347198401"/>
    <tag k="highway" v="residential"/>
    <tag k="maxspeed" v="50"/>
    <tag k="maxspeed:source" v="default residential speed limit in Australia"/>
    <tag k="name" v="Brolga Court"/>
  </way>
  <way id="31220314" version="4" timestamp="2012-01-18T06:43:12Z" uid="147510" user="woodpeck_fixbot" changeset="10424702">
    <nd ref="347198435"/>
    <nd ref="347198437"/>
    <nd ref="347198401"/>
    <tag k="highway" v="residential"/>
    <tag k="name" v="Brolga Court"/>
  </way>
  <way id="31220451" version="5" timestamp="2010-07-08T19:27:28Z" uid="74617" user="JohnSmith" changeset="5168688">
    <nd ref="347198440"/>
    <nd ref="347198441"/>
    <nd ref="347198443"/>
    <nd ref="347198445"/>
    <nd ref="347198921"/>
    <nd ref="347198446"/>
    <tag k="highway" v="residential"/>
    <tag k="maxspeed" v="50"/>
    <tag k="maxspeed:source" v="default residential speed limit in Australia"/>
    <tag k="name" v="Rutman Close"/>
  </way>
  <way id="31220451" version="6" timestamp="2012-01-18T06:43:13Z" uid="147510" user="woodpeck_fixbot" changeset="10424702">
    <nd ref="347198440"/>
    <nd ref="347198441"/>
    <nd ref="347198443"/>
    <nd ref="347198445"/>
    <nd ref="347198921"/>
    <nd ref="347198446"/>
    <tag k="highway" v="residential"/>
    <tag k="name" v="Rutman Close"/>
  </way>
  <way id="31220454" version="3" timestamp="2010-07-08T19:22:50Z" uid="74617" user="JohnSmith" changeset="5168688">
    <nd ref="347198456"/>
    <nd ref="347198440"/>
    <nd ref="347198458"/>
    <tag k="highway" v="residential"/>
    <tag k="maxspeed" v="50"/>
    <tag k="maxspeed:source" v="default residential speed limit in Australia"/>
    <tag k="name" v="Rutman Close"/>
  </way>
  <way id="31220454" version="4" timestamp="2012-01-18T06:43:14Z" uid="147510" user="woodpeck_fixbot" changeset="10424702">
    <nd ref="347198456"/>
    <nd ref="347198440"/>
    <nd ref="347198458"/>
    <tag k="highway" v="residential"/>
    <tag k="name" v="Rutman Close"/>
  </way>
  <way id="31220580" version="5" timestamp="2010-04-07T13:27:29Z" uid="20587" user="balrog-kun" changeset="4353646">
    <nd ref="147392643"/>
    <nd ref="347438827"/>
    <nd ref="347438828"/>
    <nd ref="147444478"/>
    <nd ref="147460008"/>
    <nd ref="147460009"/>
    <nd ref="147458784"/>
    <tag k="created_by" v="Potlatch 0.10f"/>
    <tag k="highway" v="tertiary"/>
    <tag k="name" v="North Sooner Road"/>
    <tag k="tiger:cfcc" v="A41"/>
    <tag k="tiger:county" v="Oklahoma, OK"/>
    <tag k="tiger:name_base" v="Sooner"/>
    <tag k="tiger:name_direction_prefix" v="N"/>
    <tag k="tiger:name_type" v="Rd"/>
    <tag k="tiger:reviewed" v="no"/>
    <tag k="tiger:separated" v="no"/>
    <tag k="tiger:source" v="tiger_import_dch_v0.6_20070829"/>
    <tag k="tiger:tlid" v="100427843:100427844:100429221:100429222:100411320"/>
    <tag k="tiger:zip_left" v="73013"/>
    <tag k="tiger:zip_right" v="73034"/>
  </way>
  <way id="31220580" version="6" timestamp="2012-01-22T09:43:34Z" uid="262151" user="ToeBee" changeset="10462620">
    <nd ref="147392643"/>
    <nd ref="347438827"/>
    <nd ref="347438828"/>
    <nd ref="147444478"/>
    <nd ref="147460008"/>
    <nd ref="147460009"/>
    <nd ref="147458784"/>
    <tag k="highway" v="tertiary"/>
    <tag k="name" v="North Sooner Road"/>
    <tag k="tiger:cfcc" v="A41"/>
    <tag k="tiger:county" v="Oklahoma, OK"/>
    <tag k="tiger:name_base" v="Sooner"/>
    <tag k="tiger:name_direction_prefix" v="N"/>
    <tag k="tiger:name_type" v="Rd"/>
    <tag k="tiger:reviewed" v="no"/>
    <tag k="tiger:source" v="tiger_import_dch_v0.6_20070829"/>
    <tag k="tiger:tlid" v="100427843:100427844:100429221:100429222:100411320"/>
    <tag k="tiger:zip_left" v="73013"/>
    <tag k="tiger:zip_right" v="73034"/>
  </way>
  <way id="31220713" version="5" timestamp="2010-05-11T08:04:04Z" uid="4467" user="Rosscoe" changeset="4666284">
    <nd ref="290313029"/>
    <nd ref="347199341"/>
    <nd ref="347199340"/>
    <nd ref="347199339"/>
    <nd ref="347199338"/>
    <nd ref="347199337"/>
    <nd ref="347199336"/>
    <nd ref="347199335"/>
    <nd ref="347199334"/>
    <nd ref="347199333"/>
    <nd ref="347199486"/>
    <nd ref="347199332"/>
    <nd ref="347199331"/>
    <nd ref="347199330"/>
    <nd ref="347199329"/>
    <nd ref="347199328"/>
    <nd ref="347199327"/>
    <nd ref="729566809"/>
    <tag k="highway" v="residential"/>
    <tag k="name" v="Oriole Drive"/>
  </way>
  <way id="31220713" version="6" timestamp="2010-07-08T19:21:32Z" uid="74617" user="JohnSmith" changeset="5168688">
    <nd ref="290313029"/>
    <nd ref="347199341"/>
    <nd ref="347199340"/>
    <nd ref="347199339"/>
    <nd ref="347199338"/>
    <nd ref="347199337"/>
    <nd ref="347199336"/>
    <nd ref="347199335"/>
    <nd ref="347199334"/>
    <nd ref="347199333"/>
    <nd ref="347199486"/>
    <nd ref="347199332"/>
    <nd ref="347199331"/>
    <nd ref="347199330"/>
    <nd ref="347199329"/>
    <nd ref="347199328"/>
    <nd ref="347199327"/>
    <nd ref="729566809"/>
    <tag k="highway" v="residential"/>
    <tag k="maxspeed" v="50"/>
    <tag k="maxspeed:source" v="default residential speed limit in Australia"/>
    <tag k="name" v="Oriole Drive"/>
  </way>
  <way id="31220713" version="7" timestamp="2012-01-18T06:43:15Z" uid="147510" user="woodpeck_fixbot" changeset="10424702">
    <nd ref="290313029"/>
    <nd ref="347199341"/>
    <nd ref="347199340"/>
    <nd ref="347199339"/>
    <nd ref="347199338"/>
    <nd ref="347199337"/>
    <nd ref="347199336"/>
    <nd ref="347199335"/>
    <nd ref="347199334"/>
    <nd ref="347199333"/>
    <nd ref="347199486"/>
    <nd ref="347199332"/>
    <nd ref="347199331"/>
    <nd ref="347199330"/>
    <nd ref="347199329"/>
    <nd ref="347199328"/>
    <nd ref="347199327"/>
    <nd ref="729566809"/>
    <tag k="highway" v="residential"/>
    <tag k="name" v="Oriole Drive"/>
  </way>
  <way id="31220715" version="3" timestamp="2010-05-11T08:04:01Z" uid="4467" user="Rosscoe" changeset="4666284">
    <nd ref="347198917"/>
    <nd ref="347198920"/>
    <tag k="highway" v="residential"/>
    <tag k="name" v="Fisher Court"/>
    <tag k="source" v="nearmap"/>
  </way>
  <way id="31220715" version="4" timestamp="2010-07-08T19:16:39Z" uid="74617" user="JohnSmith" changeset="5168688">
    <nd ref="347198917"/>
    <nd ref="347198920"/>
    <tag k="highway" v="residential"/>
    <tag k="maxspeed" v="50"/>
    <tag k="maxspeed:source" v="default residential speed limit in Australia"/>
    <tag k="name" v="Fisher Court"/>
    <tag k="source" v="nearmap"/>
  </way>
  <way id="31220715" version="5" timestamp="2012-01-18T06:43:16Z" uid="147510" user="woodpeck_fixbot" changeset="10424702">
    <nd ref="347198917"/>
    <nd ref="347198920"/>
    <tag k="highway" v="residential"/>
    <tag k="name" v="Fisher Court"/>
    <tag k="source" v="nearmap"/>
  </way>
  <way id="31220717" version="3" timestamp="2010-05-11T08:04:03Z" uid="4467" user="Rosscoe" changeset="4666284">
    <nd ref="347198921"/>
    <nd ref="347198922"/>
    <nd ref="347198923"/>
    <nd ref="347198924"/>
    <tag k="highway" v="residential"/>
    <tag k="name" v="Wavish Court"/>
    <tag k="source" v="nearmap"/>
  </way>
  <way id="31220717" version="4" timestamp="2010-07-08T19:19:51Z" uid="74617" user="JohnSmith" changeset="5168688">
    <nd ref="347198921"/>
    <nd ref="347198922"/>
    <nd ref="347198923"/>
    <nd ref="347198924"/>
    <tag k="highway" v="residential"/>
    <tag k="maxspeed" v="50"/>
    <tag k="maxspeed:source" v="default residential speed limit in Australia"/>
    <tag k="name" v="Wavish Court"/>
    <tag k="source" v="nearmap"/>
  </way>
  <way id="31220717" version="5" timestamp="2012-01-18T06:43:17Z" uid="147510" user="woodpeck_fixbot" changeset="10424702">
    <nd ref="347198921"/>
    <nd ref="347198922"/>
    <nd ref="347198923"/>
    <nd ref="347198924"/>
    <tag k="highway" v="residential"/>
    <tag k="name" v="Wavish Court"/>
    <tag k="source" v="nearmap"/>
  </way>
  <way id="31220719" version="3" timestamp="2010-07-08T19:26:41Z" uid="74617" user="JohnSmith" changeset="5168688">
    <nd ref="347198926"/>
    <nd ref="347198924"/>
    <nd ref="347198928"/>
    <tag k="highway" v="residential"/>
    <tag k="maxspeed" v="50"/>
    <tag k="maxspeed:source" v="default residential speed limit in Australia"/>
    <tag k="name" v="Wavish Court"/>
  </way>
  <way id="31220719" version="4" timestamp="2012-01-18T06:43:18Z" uid="147510" user="woodpeck_fixbot" changeset="10424702">
    <nd ref="347198926"/>
    <nd ref="347198924"/>
    <nd ref="347198928"/>
    <tag k="highway" v="residential"/>
    <tag k="name" v="Wavish Court"/>
  </way>
  <way id="31220721" version="3" timestamp="2010-07-08T19:22:35Z" uid="74617" user="JohnSmith" changeset="5168688">
    <nd ref="347198930"/>
    <nd ref="347198454"/>
    <nd ref="347198931"/>
    <tag k="highway" v="residential"/>
    <tag k="maxspeed" v="50"/>
    <tag k="maxspeed:source" v="default residential speed limit in Australia"/>
    <tag k="name" v="Egan Close"/>
  </way>
  <way id="31220721" version="4" timestamp="2012-01-18T06:43:19Z" uid="147510" user="woodpeck_fixbot" changeset="10424702">
    <nd ref="347198930"/>
    <nd ref="347198454"/>
    <nd ref="347198931"/>
    <tag k="highway" v="residential"/>
    <tag k="name" v="Egan Close"/>
  </way>
  <way id="31220723" version="3" timestamp="2010-05-11T08:04:03Z" uid="4467" user="Rosscoe" changeset="4666284">
    <nd ref="729566814"/>
    <nd ref="347198932"/>
    <nd ref="347198933"/>
    <nd ref="347198934"/>
    <nd ref="347198936"/>
    <nd ref="347198937"/>
    <nd ref="347198938"/>
    <nd ref="347198939"/>
    <nd ref="347198940"/>
    <nd ref="347198941"/>
    <nd ref="347198942"/>
    <nd ref="347198943"/>
    <nd ref="347198944"/>
    <nd ref="347198945"/>
    <nd ref="347198946"/>
    <nd ref="347198947"/>
    <nd ref="347198948"/>
    <nd ref="347198949"/>
    <nd ref="347198950"/>
    <nd ref="347198951"/>
    <nd ref="347198952"/>
    <nd ref="347198953"/>
    <nd ref="347198955"/>
    <nd ref="347198958"/>
    <nd ref="347198976"/>
    <nd ref="347198961"/>
    <nd ref="347198963"/>
    <nd ref="347198964"/>
    <nd ref="347198965"/>
    <nd ref="729566797"/>
    <tag k="highway" v="residential"/>
    <tag k="name" v="Silvereye Crescent"/>
  </way>
  <way id="31220723" version="4" timestamp="2010-07-08T19:17:32Z" uid="74617" user="JohnSmith" changeset="5168688">
    <nd ref="729566814"/>
    <nd ref="347198932"/>
    <nd ref="347198933"/>
    <nd ref="347198934"/>
    <nd ref="347198936"/>
    <nd ref="347198937"/>
    <nd ref="347198938"/>
    <nd ref="347198939"/>
    <nd ref="347198940"/>
    <nd ref="347198941"/>
    <nd ref="347198942"/>
    <nd ref="347198943"/>
    <nd ref="347198944"/>
    <nd ref="347198945"/>
    <nd ref="347198946"/>
    <nd ref="347198947"/>
    <nd ref="347198948"/>
    <nd ref="347198949"/>
    <nd ref="347198950"/>
    <nd ref="347198951"/>
    <nd ref="347198952"/>
    <nd ref="347198953"/>
    <nd ref="347198955"/>
    <nd ref="347198958"/>
    <nd ref="347198976"/>
    <nd ref="347198961"/>
    <nd ref="347198963"/>
    <nd ref="347198964"/>
    <nd ref="347198965"/>
    <nd ref="729566797"/>
    <tag k="highway" v="residential"/>
    <tag k="maxspeed" v="50"/>
    <tag k="maxspeed:source" v="default residential speed limit in Australia"/>
    <tag k="name" v="Silvereye Crescent"/>
  </way>
  <way id="31220723" version="5" timestamp="2012-01-18T06:43:20Z" uid="147510" user="woodpeck_fixbot" changeset="10424702">
    <nd ref="729566814"/>
    <nd ref="347198932"/>
    <nd ref="347198933"/>
    <nd ref="347198934"/>
    <nd ref="347198936"/>
    <nd ref="347198937"/>
    <nd ref="347198938"/>
    <nd ref="347198939"/>
    <nd ref="347198940"/>
    <nd ref="347198941"/>
    <nd ref="347198942"/>
    <nd ref="347198943"/>
    <nd ref="347198944"/>
    <nd ref="347198945"/>
    <nd ref="347198946"/>
    <nd ref="347198947"/>
    <nd ref="347198948"/>
    <nd ref="347198949"/>
    <nd ref="347198950"/>
    <nd ref="347198951"/>
    <nd ref="347198952"/>
    <nd ref="347198953"/>
    <nd ref="347198955"/>
    <nd ref="347198958"/>
    <nd ref="347198976"/>
    <nd ref="347198961"/>
    <nd ref="347198963"/>
    <nd ref="347198964"/>
    <nd ref="347198965"/>
    <nd ref="729566797"/>
    <tag k="highway" v="residential"/>
    <tag k="name" v="Silvereye Crescent"/>
  </way>
  <way id="31220725" version="3" timestamp="2010-05-11T08:04:02Z" uid="4467" user="Rosscoe" changeset="4666284">
    <nd ref="347198965"/>
    <nd ref="347198966"/>
    <nd ref="347198967"/>
    <nd ref="347198970"/>
    <tag k="highway" v="residential"/>
    <tag k="name" v="Bittern Court"/>
    <tag k="source" v="nearmap"/>
  </way>
  <way id="31220725" version="4" timestamp="2010-07-08T19:20:45Z" uid="74617" user="JohnSmith" changeset="5168688">
    <nd ref="347198965"/>
    <nd ref="347198966"/>
    <nd ref="347198967"/>
    <nd ref="347198970"/>
    <tag k="highway" v="residential"/>
    <tag k="maxspeed" v="50"/>
    <tag k="maxspeed:source" v="default residential speed limit in Australia"/>
    <tag k="name" v="Bittern Court"/>
    <tag k="source" v="nearmap"/>
  </way>
  <way id="31220725" version="5" timestamp="2012-01-18T06:43:22Z" uid="147510" user="woodpeck_fixbot" changeset="10424702">
    <nd ref="347198965"/>
    <nd ref="347198966"/>
    <nd ref="347198967"/>
    <nd ref="347198970"/>
    <tag k="highway" v="residential"/>
    <tag k="name" v="Bittern Court"/>
    <tag k="source" v="nearmap"/>
  </way>
  <way id="31220727" version="3" timestamp="2010-07-08T19:15:53Z" uid="74617" user="JohnSmith" changeset="5168688">
    <nd ref="347198971"/>
    <nd ref="347198972"/>
    <nd ref="347198973"/>
    <nd ref="347198976"/>
    <tag k="highway" v="residential"/>
    <tag k="maxspeed" v="50"/>
    <tag k="maxspeed:source" v="default residential speed limit in Australia"/>
    <tag k="name" v="Dotterel Court"/>
  </way>
  <way id="31220727" version="4" timestamp="2012-01-18T06:43:23Z" uid="147510" user="woodpeck_fixbot" changeset="10424702">
    <nd ref="347198971"/>
    <nd ref="347198972"/>
    <nd ref="347198973"/>
    <nd ref="347198976"/>
    <tag k="highway" v="residential"/>
    <tag k="name" v="Dotterel Court"/>
  </way>
  <way id="31220730" version="3" timestamp="2010-05-11T08:04:04Z" uid="4467" user="Rosscoe" changeset="4666284">
    <nd ref="347198979"/>
    <nd ref="347198983"/>
    <nd ref="347198933"/>
    <tag k="highway" v="residential"/>
    <tag k="name" v="Weebill Court"/>
    <tag k="source" v="nearmap"/>
  </way>
  <way id="31220730" version="4" timestamp="2010-07-08T19:18:41Z" uid="74617" user="JohnSmith" changeset="5168688">
    <nd ref="347198979"/>
    <nd ref="347198983"/>
    <nd ref="347198933"/>
    <tag k="highway" v="residential"/>
    <tag k="maxspeed" v="50"/>
    <tag k="maxspeed:source" v="default residential speed limit in Australia"/>
    <tag k="name" v="Weebill Court"/>
    <tag k="source" v="nearmap"/>
  </way>
  <way id="31220730" version="5" timestamp="2012-01-18T06:43:24Z" uid="147510" user="woodpeck_fixbot" changeset="10424702">
    <nd ref="347198979"/>
    <nd ref="347198983"/>
    <nd ref="347198933"/>
    <tag k="highway" v="residential"/>
    <tag k="name" v="Weebill Court"/>
    <tag k="source" v="nearmap"/>
  </way>
  <way id="31220732" version="3" timestamp="2010-07-08T19:21:48Z" uid="74617" user="JohnSmith" changeset="5168688">
    <nd ref="347198986"/>
    <nd ref="347198989"/>
    <nd ref="347198936"/>
    <tag k="highway" v="residential"/>
    <tag k="maxspeed" v="50"/>
    <tag k="maxspeed:source" v="default residential speed limit in Australia"/>
    <tag k="name" v="Greenshank Court"/>
  </way>
  <way id="31220732" version="4" timestamp="2012-01-18T06:43:25Z" uid="147510" user="woodpeck_fixbot" changeset="10424702">
    <nd ref="347198986"/>
    <nd ref="347198989"/>
    <nd ref="347198936"/>
    <tag k="highway" v="residential"/>
    <tag k="name" v="Greenshank Court"/>
  </way>
  <way id="31220734" version="3" timestamp="2010-07-08T19:16:53Z" uid="74617" user="JohnSmith" changeset="5168688">
    <nd ref="347198993"/>
    <nd ref="347198938"/>
    <tag k="highway" v="residential"/>
    <tag k="maxspeed" v="50"/>
    <tag k="maxspeed:source" v="default residential speed limit in Australia"/>
    <tag k="name" v="Lyrebird Court"/>
  </way>
  <way id="31220734" version="4" timestamp="2012-01-18T06:43:26Z" uid="147510" user="woodpeck_fixbot" changeset="10424702">
    <nd ref="347198993"/>
    <nd ref="347198938"/>
    <tag k="highway" v="residential"/>
    <tag k="name" v="Lyrebird Court"/>
  </way>
  <way id="31220737" version="3" timestamp="2010-07-08T19:18:18Z" uid="74617" user="JohnSmith" changeset="5168688">
    <nd ref="347198995"/>
    <nd ref="347198943"/>
    <tag k="highway" v="residential"/>
    <tag k="maxspeed" v="50"/>
    <tag k="maxspeed:source" v="default residential speed limit in Australia"/>
    <tag k="name" v="Bellbird Court"/>
  </way>
  <way id="31220737" version="4" timestamp="2012-01-18T06:43:27Z" uid="147510" user="woodpeck_fixbot" changeset="10424702">
    <nd ref="347198995"/>
    <nd ref="347198943"/>
    <tag k="highway" v="residential"/>
    <tag k="name" v="Bellbird Court"/>
  </way>
  <way id="31220739" version="3" timestamp="2010-07-08T19:25:14Z" uid="74617" user="JohnSmith" changeset="5168688">
    <nd ref="347198999"/>
    <nd ref="347199002"/>
    <nd ref="347199005"/>
    <nd ref="347199008"/>
    <nd ref="347198952"/>
    <tag k="highway" v="residential"/>
    <tag k="maxspeed" v="50"/>
    <tag k="maxspeed:source" v="default residential speed limit in Australia"/>
    <tag k="name" v="Wanderer Court"/>
  </way>
  <way id="31220739" version="4" timestamp="2012-01-18T06:43:28Z" uid="147510" user="woodpeck_fixbot" changeset="10424702">
    <nd ref="347198999"/>
    <nd ref="347199002"/>
    <nd ref="347199005"/>
    <nd ref="347199008"/>
    <nd ref="347198952"/>
    <tag k="highway" v="residential"/>
    <tag k="name" v="Wanderer Court"/>
  </way>
  <way id="31220742" version="3" timestamp="2010-07-08T19:20:49Z" uid="74617" user="JohnSmith" changeset="5168688">
    <nd ref="347199012"/>
    <nd ref="347199015"/>
    <nd ref="347199018"/>
    <nd ref="347198958"/>
    <tag k="highway" v="residential"/>
    <tag k="maxspeed" v="50"/>
    <tag k="maxspeed:source" v="default residential speed limit in Australia"/>
    <tag k="name" v="Stilt Court"/>
  </way>
  <way id="31220742" version="4" timestamp="2012-01-18T06:43:30Z" uid="147510" user="woodpeck_fixbot" changeset="10424702">
    <nd ref="347199012"/>
    <nd ref="347199015"/>
    <nd ref="347199018"/>
    <nd ref="347198958"/>
    <tag k="highway" v="residential"/>
    <tag k="name" v="Stilt Court"/>
  </way>
  <way id="31220816" version="5" timestamp="2010-05-11T08:04:04Z" uid="4467" user="Rosscoe" changeset="4666284">
    <nd ref="729566794"/>
    <nd ref="347199161"/>
    <nd ref="347199162"/>
    <nd ref="347199163"/>
    <nd ref="347199164"/>
    <nd ref="347199165"/>
    <nd ref="347199166"/>
    <nd ref="347199168"/>
    <nd ref="444669190"/>
    <nd ref="347199169"/>
    <nd ref="347199170"/>
    <nd ref="347199171"/>
    <nd ref="347199172"/>
    <nd ref="347199215"/>
    <nd ref="347199198"/>
    <nd ref="125087892"/>
    <nd ref="290310675"/>
    <tag k="highway" v="tertiary"/>
    <tag k="name" v="Cassowary Avenue"/>
  </way>
  <way id="31220863" version="3" timestamp="2010-07-08T19:16:00Z" uid="74617" user="JohnSmith" changeset="5168688">
    <nd ref="347199176"/>
    <nd ref="347199163"/>
    <tag k="highway" v="residential"/>
    <tag k="maxspeed" v="50"/>
    <tag k="maxspeed:source" v="default residential speed limit in Australia"/>
    <tag k="name" v="Pitta Close"/>
  </way>
  <way id="31220863" version="4" timestamp="2012-01-18T06:43:32Z" uid="147510" user="woodpeck_fixbot" changeset="10424702">
    <nd ref="347199176"/>
    <nd ref="347199163"/>
    <tag k="highway" v="residential"/>
    <tag k="name" v="Pitta Close"/>
  </way>
  <way id="31220965" version="3" timestamp="2010-07-08T19:25:43Z" uid="74617" user="JohnSmith" changeset="5168688">
    <nd ref="347199183"/>
    <nd ref="290313030"/>
    <tag k="highway" v="residential"/>
    <tag k="maxspeed" v="50"/>
    <tag k="maxspeed:source" v="default residential speed limit in Australia"/>
    <tag k="name" v="Fieldlark Court"/>
  </way>
  <way id="31220965" version="4" timestamp="2012-01-18T06:43:32Z" uid="147510" user="woodpeck_fixbot" changeset="10424702">
    <nd ref="347199183"/>
    <nd ref="290313030"/>
    <tag k="highway" v="residential"/>
    <tag k="name" v="Fieldlark Court"/>
  </way>
  <way id="31220036" version="7" timestamp="2012-07-21T17:51:42Z" uid="699950" user="JetStreamSuper31" changeset="12416514">
    <nd ref="346489227"/>
    <nd ref="347198084"/>
    <nd ref="1833393382"/>
    <nd ref="1833393345"/>
    <nd ref="1833393301"/>
    <nd ref="347198115"/>
    <nd ref="1833393186"/>
    <nd ref="1833393184"/>
    <nd ref="1833393139"/>
    <nd ref="1833393078"/>
    <nd ref="347198119"/>
    <nd ref="1833392947"/>
    <nd ref="1833392899"/>
    <nd ref="1833392861"/>
    <nd ref="1833392787"/>
    <nd ref="1833392706"/>
    <nd ref="1833392661"/>
    <nd ref="347198117"/>
    <nd ref="347198122"/>
    <nd ref="347198121"/>
    <nd ref="347198085"/>
    <nd ref="1833392457"/>
    <nd ref="347198087"/>
    <nd ref="347198088"/>
    <nd ref="347198089"/>
    <nd ref="1833392432"/>
    <nd ref="347198092"/>
    <nd ref="1833392422"/>
    <nd ref="347198098"/>
    <nd ref="347198101"/>
    <nd ref="1833392412"/>
    <nd ref="347198103"/>
    <nd ref="347198107"/>
    <nd ref="1833392397"/>
    <tag k="bridge" v="yes"/>
    <tag k="KSJ2:INT" v="4"/>
    <tag k="KSJ2:INT_label" v="民営鉄道"/>
    <tag k="KSJ2:LIN" v="なんば線"/>
    <tag k="KSJ2:OPC" v="阪神電気鉄道"/>
    <tag k="KSJ2:RAC" v="12"/>
    <tag k="KSJ2:RAC_label" v="普通鉄道"/>
    <tag k="layer" v="1"/>
    <tag k="name" v="阪神電気鉄道なんば線"/>
    <tag k="name:ja" v="阪神電気鉄道なんば線"/>
    <tag k="note" v="National-Land Numerical Information (Railway) 2007, MLIT Japan"/>
    <tag k="note:ja" v="国土数値情報（鉄道データ）平成19年　国土交通省"/>
    <tag k="operator" v="阪神電気鉄道"/>
    <tag k="operator:ja" v="阪神電気鉄道"/>
    <tag k="railway" v="rail"/>
    <tag k="source" v="KSJ2"/>
    <tag k="source_ref" v="http://nlftp.mlit.go.jp/ksj/jpgis/datalist/KsjTmplt-N02-v1_1.html"/>
  </way>
  <way id="31220243" version="6" timestamp="2012-07-19T16:04:06Z" uid="722137" user="OSMF Redaction Account" changeset="12337551">
    <nd ref="290313046"/>
    <nd ref="347198315"/>
    <nd ref="347198291"/>
    <nd ref="347198314"/>
    <nd ref="347198293"/>
    <nd ref="347198279"/>
    <nd ref="347198326"/>
    <nd ref="347198294"/>
    <nd ref="347198295"/>
    <nd ref="347198296"/>
    <nd ref="347198297"/>
    <nd ref="347198298"/>
    <tag k="highway" v="residential"/>
    <tag k="name" v="Kramer Street"/>
  </way>
  <way id="31220297" version="7" timestamp="2012-07-19T16:04:10Z" uid="722137" user="OSMF Redaction Account" changeset="12337551">
    <nd ref="290312835"/>
    <nd ref="347198434"/>
    <nd ref="347198401"/>
    <nd ref="347198415"/>
    <nd ref="347198402"/>
    <nd ref="347198403"/>
    <nd ref="347198404"/>
    <nd ref="347198424"/>
    <nd ref="347198405"/>
    <nd ref="347198409"/>
    <nd ref="347198410"/>
    <nd ref="347198420"/>
    <nd ref="1534869999"/>
    <nd ref="347198382"/>
    <tag k="highway" v="residential"/>
    <tag k="name" v="Cormorant Crescent"/>
  </way>
  <way id="31220312" version="6" timestamp="2012-07-19T16:04:51Z" uid="722137" user="OSMF Redaction Account" changeset="12337551">
    <nd ref="347198432"/>
    <nd ref="347198433"/>
    <nd ref="347198434"/>
    <tag k="highway" v="residential"/>
    <tag k="name" v="Budgie Court"/>
  </way>
  <way id="31220580" version="7" timestamp="2012-08-19T06:50:12Z" uid="262151" user="ToeBee" changeset="12779821">
    <nd ref="147392643"/>
    <nd ref="347438827"/>
    <nd ref="347438828"/>
    <nd ref="147444478"/>
    <nd ref="1872283852"/>
    <tag k="highway" v="tertiary"/>
    <tag k="name" v="North Sooner Road"/>
    <tag k="tiger:cfcc" v="A41"/>
    <tag k="tiger:county" v="Oklahoma, OK"/>
    <tag k="tiger:name_base" v="Sooner"/>
    <tag k="tiger:name_direction_prefix" v="N"/>
    <tag k="tiger:name_type" v="Rd"/>
    <tag k="tiger:reviewed" v="no"/>
    <tag k="tiger:zip_left" v="73013"/>
    <tag k="tiger:zip_right" v="73034"/>
  </way>
  <way id="31220713" version="8" timestamp="2012-07-19T16:04:00Z" uid="722137" user="OSMF Redaction Account" changeset="12337551">
    <nd ref="290313029"/>
    <nd ref="347199341"/>
    <nd ref="347199340"/>
    <nd ref="347199339"/>
    <nd ref="347199338"/>
    <nd ref="347199337"/>
    <nd ref="347199336"/>
    <nd ref="347199335"/>
    <nd ref="347199334"/>
    <nd ref="347199333"/>
    <nd ref="347199486"/>
    <nd ref="347199332"/>
    <nd ref="347199331"/>
    <nd ref="347199330"/>
    <nd ref="347199329"/>
    <nd ref="347199328"/>
    <nd ref="347199327"/>
    <tag k="highway" v="residential"/>
    <tag k="name" v="Oriole Drive"/>
  </way>
  <way id="31220715" version="6" timestamp="2012-07-19T16:04:54Z" uid="722137" user="OSMF Redaction Account" changeset="12337551">
    <nd ref="347198917"/>
    <nd ref="347198920"/>
    <tag k="highway" v="residential"/>
    <tag k="name" v="Fisher Court"/>
  </way>
  <way id="31220717" version="6" timestamp="2012-07-19T16:04:54Z" uid="722137" user="OSMF Redaction Account" changeset="12337551">
    <nd ref="347198921"/>
    <nd ref="347198922"/>
    <nd ref="347198923"/>
    <nd ref="347198924"/>
    <tag k="highway" v="residential"/>
    <tag k="name" v="Wavish Court"/>
  </way>
  <way id="31220723" version="6" timestamp="2012-07-19T16:03:55Z" uid="722137" user="OSMF Redaction Account" changeset="12337551">
    <nd ref="347198932"/>
    <nd ref="347198933"/>
    <nd ref="347198934"/>
    <nd ref="347198936"/>
    <nd ref="347198937"/>
    <nd ref="347198938"/>
    <nd ref="347198939"/>
    <nd ref="347198940"/>
    <nd ref="347198941"/>
    <nd ref="347198942"/>
    <nd ref="347198943"/>
    <nd ref="347198944"/>
    <nd ref="347198945"/>
    <nd ref="347198946"/>
    <nd ref="347198947"/>
    <nd ref="347198948"/>
    <nd ref="347198949"/>
    <nd ref="347198950"/>
    <nd ref="347198951"/>
    <nd ref="347198952"/>
    <nd ref="347198953"/>
    <nd ref="347198955"/>
    <nd ref="347198958"/>
    <nd ref="347198976"/>
    <nd ref="347198961"/>
    <nd ref="347198963"/>
    <nd ref="347198964"/>
    <nd ref="347198965"/>
    <tag k="highway" v="residential"/>
    <tag k="name" v="Silvereye Crescent"/>
  </way>
  <way id="31220725" version="6" timestamp="2012-07-19T16:04:56Z" uid="722137" user="OSMF Redaction Account" changeset="12337551">
    <nd ref="347198965"/>
    <nd ref="347198966"/>
    <nd ref="347198967"/>
    <nd ref="347198970"/>
    <tag k="highway" v="residential"/>
    <tag k="name" v="Bittern Court"/>
  </way>
  <way id="31220730" version="6" timestamp="2012-07-19T16:04:55Z" uid="722137" user="OSMF Redaction Account" changeset="12337551">
    <nd ref="347198979"/>
    <nd ref="347198983"/>
    <nd ref="347198933"/>
    <tag k="highway" v="residential"/>
    <tag k="name" v="Weebill Court"/>
  </way>
  <way id="31220816" version="6" timestamp="2012-07-19T16:04:03Z" uid="722137" user="OSMF Redaction Account" changeset="12337551">
    <nd ref="347199161"/>
    <nd ref="347199162"/>
    <nd ref="347199163"/>
    <nd ref="347199164"/>
    <nd ref="347199165"/>
    <nd ref="347199166"/>
    <nd ref="347199168"/>
    <nd ref="444669190"/>
    <nd ref="347199169"/>
    <nd ref="347199170"/>
    <nd ref="347199171"/>
    <nd ref="347199172"/>
    <nd ref="347199215"/>
    <nd ref="347199198"/>
    <nd ref="125087892"/>
    <nd ref="290310675"/>
    <tag k="highway" v="tertiary"/>
    <tag k="name" v="Cassowary Avenue"/>
  </way>
</osm>
