<?xml version='1.0' encoding='UTF-8'?>
<osm version="0.6" generator="libosmium/2.20.0">
  <way id="31445596" version="1" timestamp="2009-02-24T03:30:51Z" uid="68769" user="david lynch" changeset="657320">
    <nd ref="29592826"/>
    <nd ref="29592827"/>
    <nd ref="29592828"/>
    <nd ref="29592829"/>
    <nd ref="315162033"/>
    <nd ref="29592830"/>
    <nd ref="315161953"/>
    <nd ref="315161955"/>
    <nd ref="315161956"/>
    <nd ref="29592831"/>
    <nd ref="315161957"/>
    <nd ref="29592832"/>
    <nd ref="29592833"/>
    <nd ref="29592834"/>
    <nd ref="29592835"/>
    <nd ref="29592836"/>
    <tag k="created_by" v="Potlatch 0.10f"/>
    <tag k="highway" v="motorway"/>
    <tag k="name" v="State Highway 45 North"/>
    <tag k="oneway" v="yes"/>
    <tag k="ref" v="TX 45"/>
    <tag k="toll" v="yes"/>
  </way>
  <way id="31445596" version="2" timestamp="2009-02-24T03:30:59Z" uid="68769" user="david lynch" changeset="657320">
    <nd ref="29592826"/>
    <nd ref="350980669"/>
    <tag k="bridge" v="yes"/>
    <tag k="created_by" v="Potlatch 0.10f"/>
    <tag k="highway" v="motorway"/>
    <tag k="name" v="State Highway 45 North"/>
    <tag k="oneway" v="yes"/>
    <tag k="ref" v="TX 45"/>
    <tag k="toll" v="yes"/>
  </way>
  <way id="31445596" version="3" timestamp="2011-03-15T01:26:50Z" uid="37392" user="25or6to4" changeset="7562767">
    <nd ref="29592826"/>
    <nd ref="350980669"/>
    <tag k="bridge" v="yes"/>
    <tag k="highway" v="motorway"/>
    <tag k="name" v="State Highway 45"/>
    <tag k="oneway" v="yes"/>
    <tag k="ref" v="TX 45"/>
    <tag k="toll" v="yes"/>
  </way>
  <way id="31445596" version="4" timestamp="2011-07-26T17:23:35Z" uid="207745" user="NE2" changeset="8837814">
    <nd ref="29592826"/>
    <nd ref="350980669"/>
    <tag k="bridge" v="yes"/>
    <tag k="highway" v="motorway"/>
    <tag k="lanes" v="4"/>
    <tag k="oneway" v="yes"/>
    <tag k="ref" v="TX 45"/>
    <tag k="toll" v="yes"/>
  </way>
  <way id="31445596" version="5" timestamp="2012-01-09T13:25:34Z" uid="207745" user="NE2" changeset="10341589">
    <nd ref="29592826"/>
    <nd ref="350980669"/>
    <tag k="bridge" v="yes"/>
    <tag k="highway" v="motorway"/>
    <tag k="lanes" v="4"/>
    <tag k="oneway" v="yes"/>
    <tag k="ref" v="Toll 45"/>
    <tag k="toll" v="yes"/>
  </way>
  <way id="31445596" version="6" timestamp="2012-02-05T06:35:11Z" uid="262151" user="ToeBee" changeset="10590548"/>
  <way id="31445598" version="1" timestamp="2009-02-24T03:30:54Z" uid="68769" user="david lynch" changeset="657320">
    <nd ref="350980669"/>
    <nd ref="29592827"/>
    <nd ref="29592828"/>
    <nd ref="29592829"/>
    <nd ref="315162033"/>
    <nd ref="29592830"/>
    <nd ref="315161953"/>
    <nd ref="315161955"/>
    <nd ref="315161956"/>
    <nd ref="29592831"/>
    <nd ref="315161957"/>
    <nd ref="29592832"/>
    <nd ref="29592833"/>
    <nd ref="29592834"/>
    <nd ref="29592835"/>
    <nd ref="29592836"/>
    <tag k="created_by" v="Potlatch 0.10f"/>
    <tag k="highway" v="motorway"/>
    <tag k="name" v="State Highway 45 North"/>
    <tag k="oneway" v="yes"/>
    <tag k="ref" v="TX 45"/>
    <tag k="toll" v="yes"/>
  </way>
  <way id="31445598" version="2" timestamp="2010-12-27T19:19:59Z" uid="388279" user="Tylan" changeset="6780807">
    <nd ref="350980669"/>
    <nd ref="29592827"/>
    <nd ref="29592828"/>
    <nd ref="29592829"/>
    <nd ref="315162033"/>
    <nd ref="29592830"/>
    <nd ref="315161953"/>
    <nd ref="315161955"/>
    <nd ref="315161956"/>
    <nd ref="29592831"/>
    <nd ref="315161957"/>
    <nd ref="29592832"/>
    <nd ref="29592833"/>
    <nd ref="29592835"/>
    <nd ref="29592836"/>
    <tag k="highway" v="motorway"/>
    <tag k="name" v="State Highway 45 North"/>
    <tag k="oneway" v="yes"/>
    <tag k="ref" v="TX 45"/>
    <tag k="toll" v="yes"/>
  </way>
  <way id="31445598" version="3" timestamp="2011-03-15T01:27:03Z" uid="37392" user="25or6to4" changeset="7562767">
    <nd ref="350980669"/>
    <nd ref="29592827"/>
    <nd ref="29592828"/>
    <nd ref="29592829"/>
    <nd ref="315162033"/>
    <nd ref="29592830"/>
    <nd ref="315161953"/>
    <nd ref="315161955"/>
    <nd ref="315161956"/>
    <nd ref="29592831"/>
    <nd ref="315161957"/>
    <nd ref="29592832"/>
    <nd ref="29592833"/>
    <nd ref="29592835"/>
    <nd ref="29592836"/>
    <tag k="highway" v="motorway"/>
    <tag k="name" v="State Highway 45"/>
    <tag k="oneway" v="yes"/>
    <tag k="ref" v="TX 45"/>
    <tag k="toll" v="yes"/>
  </way>
  <way id="31445598" version="4" timestamp="2011-06-17T23:55:24Z" uid="388279" user="Tylan" changeset="8468556">
    <nd ref="350980669"/>
    <nd ref="29592827"/>
    <nd ref="29592828"/>
    <nd ref="29592829"/>
    <nd ref="315162033"/>
    <nd ref="29592830"/>
    <nd ref="315161953"/>
    <nd ref="315161955"/>
    <nd ref="315161956"/>
    <nd ref="29592831"/>
    <nd ref="315161957"/>
    <nd ref="29592832"/>
    <nd ref="29592833"/>
    <nd ref="1329121388"/>
    <nd ref="29592836"/>
    <tag k="highway" v="motorway"/>
    <tag k="name" v="State Highway 45"/>
    <tag k="oneway" v="yes"/>
    <tag k="ref" v="TX 45"/>
    <tag k="toll" v="yes"/>
  </way>
  <way id="31445598" version="5" timestamp="2011-07-26T17:23:32Z" uid="207745" user="NE2" changeset="8837814">
    <nd ref="350980669"/>
    <nd ref="29592827"/>
    <nd ref="29592828"/>
    <nd ref="29592829"/>
    <nd ref="315162033"/>
    <nd ref="29592830"/>
    <nd ref="315161953"/>
    <nd ref="315161955"/>
    <nd ref="315161956"/>
    <nd ref="29592831"/>
    <nd ref="315161957"/>
    <nd ref="29592832"/>
    <nd ref="29592833"/>
    <nd ref="1329121388"/>
    <nd ref="29592836"/>
    <tag k="highway" v="motorway"/>
    <tag k="lanes" v="4"/>
    <tag k="oneway" v="yes"/>
    <tag k="ref" v="TX 45"/>
    <tag k="toll" v="yes"/>
  </way>
  <way id="31445598" version="6" timestamp="2012-01-09T13:25:32Z" uid="207745" user="NE2" changeset="10341589">
    <nd ref="350980669"/>
    <nd ref="29592827"/>
    <nd ref="29592828"/>
    <nd ref="29592829"/>
    <nd ref="315162033"/>
    <nd ref="29592830"/>
    <nd ref="315161953"/>
    <nd ref="315161955"/>
    <nd ref="315161956"/>
    <nd ref="29592831"/>
    <nd ref="315161957"/>
    <nd ref="29592832"/>
    <nd ref="29592833"/>
    <nd ref="1329121388"/>
    <nd ref="29592836"/>
    <tag k="highway" v="motorway"/>
    <tag k="lanes" v="4"/>
    <tag k="oneway" v="yes"/>
    <tag k="ref" v="Toll 45"/>
    <tag k="toll" v="yes"/>
  </way>
  <way id="31445598" version="7" timestamp="2012-02-05T06:35:12Z" uid="262151" user="ToeBee" changeset="10590548"/>
  <way id="31445601" version="1" timestamp="2009-02-24T03:31:01Z" uid="68769" user="david lynch" changeset="657320">
    <nd ref="350980794"/>
    <nd ref="29609395"/>
    <nd ref="350910055"/>
    <nd ref="29609396"/>
    <nd ref="29609397"/>
    <nd ref="315159116"/>
    <nd ref="315159117"/>
    <tag k="created_by" v="Potlatch 0.10f"/>
    <tag k="highway" v="motorway"/>
    <tag k="name" v="State Highway 45 North"/>
    <tag k="oneway" v="yes"/>
    <tag k="ref" v="TX 45"/>
    <tag k="toll" v="yes"/>
  </way>
  <way id="31445601" version="2" timestamp="2011-03-15T01:26:49Z" uid="37392" user="25or6to4" changeset="7562767">
    <nd ref="350980794"/>
    <nd ref="29609395"/>
    <nd ref="350910055"/>
    <nd ref="29609396"/>
    <nd ref="29609397"/>
    <nd ref="315159116"/>
    <nd ref="315159117"/>
    <tag k="highway" v="motorway"/>
    <tag k="name" v="State Highway 45"/>
    <tag k="oneway" v="yes"/>
    <tag k="ref" v="TX 45"/>
    <tag k="toll" v="yes"/>
  </way>
  <way id="31445601" version="3" timestamp="2011-07-26T17:23:50Z" uid="207745" user="NE2" changeset="8837814">
    <nd ref="350980794"/>
    <nd ref="29609395"/>
    <nd ref="350910055"/>
    <nd ref="29609396"/>
    <nd ref="29609397"/>
    <nd ref="315159116"/>
    <nd ref="315159117"/>
    <tag k="highway" v="motorway"/>
    <tag k="lanes" v="4"/>
    <tag k="oneway" v="yes"/>
    <tag k="ref" v="TX 45"/>
    <tag k="toll" v="yes"/>
  </way>
  <way id="31445601" version="4" timestamp="2012-01-09T13:26:02Z" uid="207745" user="NE2" changeset="10341589">
    <nd ref="350980794"/>
    <nd ref="29609395"/>
    <nd ref="350910055"/>
    <nd ref="29609396"/>
    <nd ref="29609397"/>
    <nd ref="315159116"/>
    <nd ref="315159117"/>
    <tag k="highway" v="motorway"/>
    <tag k="lanes" v="4"/>
    <tag k="oneway" v="yes"/>
    <tag k="ref" v="Toll 45"/>
    <tag k="toll" v="yes"/>
  </way>
  <way id="31445601" version="5" timestamp="2012-02-05T06:35:11Z" uid="262151" user="ToeBee" changeset="10590548"/>
  <way id="31445607" version="1" timestamp="2009-02-24T03:31:08Z" uid="68769" user="david lynch" changeset="657320">
    <nd ref="350980941"/>
    <nd ref="350980794"/>
    <tag k="created_by" v="Potlatch 0.10f"/>
    <tag k="highway" v="motorway"/>
    <tag k="name" v="State Highway 45 North"/>
    <tag k="oneway" v="yes"/>
    <tag k="ref" v="TX 45"/>
    <tag k="toll" v="yes"/>
  </way>
  <way id="31445607" version="2" timestamp="2009-02-24T03:31:15Z" uid="68769" user="david lynch" changeset="657320">
    <nd ref="350980941"/>
    <nd ref="350980794"/>
    <tag k="bridge" v="yes"/>
    <tag k="created_by" v="Potlatch 0.10f"/>
    <tag k="highway" v="motorway"/>
    <tag k="name" v="State Highway 45 North"/>
    <tag k="oneway" v="yes"/>
    <tag k="ref" v="TX 45"/>
    <tag k="toll" v="yes"/>
  </way>
  <way id="31445607" version="3" timestamp="2011-03-15T01:27:04Z" uid="37392" user="25or6to4" changeset="7562767">
    <nd ref="350980941"/>
    <nd ref="350980794"/>
    <tag k="bridge" v="yes"/>
    <tag k="highway" v="motorway"/>
    <tag k="name" v="State Highway 45"/>
    <tag k="oneway" v="yes"/>
    <tag k="ref" v="TX 45"/>
    <tag k="toll" v="yes"/>
  </way>
  <way id="31445607" version="4" timestamp="2011-07-26T17:23:37Z" uid="207745" user="NE2" changeset="8837814">
    <nd ref="350980941"/>
    <nd ref="350980794"/>
    <tag k="bridge" v="yes"/>
    <tag k="highway" v="motorway"/>
    <tag k="lanes" v="4"/>
    <tag k="oneway" v="yes"/>
    <tag k="ref" v="TX 45"/>
    <tag k="toll" v="yes"/>
  </way>
  <way id="31445607" version="5" timestamp="2012-01-09T13:25:38Z" uid="207745" user="NE2" changeset="10341589">
    <nd ref="350980941"/>
    <nd ref="350980794"/>
    <tag k="bridge" v="yes"/>
    <tag k="highway" v="motorway"/>
    <tag k="lanes" v="4"/>
    <tag k="oneway" v="yes"/>
    <tag k="ref" v="Toll 45"/>
    <tag k="toll" v="yes"/>
  </way>
  <way id="31445607" version="6" timestamp="2012-02-05T06:35:12Z" uid="262151" user="ToeBee" changeset="10590548"/>
</osm>
