<?xml version='1.0' encoding='UTF-8'?>
<osm version="0.6" generator="libosmium/2.20.0">
  <way id="31523052" version="3" timestamp="2009-03-08T14:26:40Z" uid="6975" user="ulfl" changeset="757880">
    <nd ref="352778414"/>
    <nd ref="352778415"/>
    <nd ref="352778416"/>
    <nd ref="352778417"/>
    <nd ref="352778414"/>
    <tag k="amenity" v="bank"/>
    <tag k="atm" v="yes"/>
    <tag k="building" v="yes"/>
    <tag k="name" v="Sparkasse"/>
    <tag k="opening_hours" v="fixme"/>
    <tag k="operator" v="Sparkasse"/>
  </way>
  <way id="31523052" version="4" timestamp="2009-06-10T08:42:07Z" uid="42123" user="Ropino" changeset="1475305">
    <nd ref="352778414"/>
    <nd ref="352778415"/>
    <nd ref="352778416"/>
    <nd ref="352778417"/>
    <nd ref="352778414"/>
    <tag k="amenity" v="bank"/>
    <tag k="atm" v="yes"/>
    <tag k="building" v="yes"/>
    <tag k="name" v="Sparkasse"/>
    <tag k="operator" v="Sparkasse"/>
  </way>
  <way id="31523052" version="5" timestamp="2009-11-30T16:16:20Z" uid="80537" user="Dr S Görg" changeset="3257069">
    <nd ref="352778414"/>
    <nd ref="352778415"/>
    <nd ref="352778416"/>
    <nd ref="352778417"/>
    <nd ref="352778414"/>
    <tag k="addr:city" v="Duisburg"/>
    <tag k="addr:country" v="DE"/>
    <tag k="addr:postcode" v="47226"/>
    <tag k="addr:street" v="Friedrich-Ebert-Straße"/>
    <tag k="amenity" v="bank"/>
    <tag k="atm" v="yes"/>
    <tag k="building" v="yes"/>
    <tag k="name" v="Sparkasse"/>
    <tag k="operator" v="Sparkasse"/>
  </way>
  <way id="31523052" version="6" timestamp="2010-02-08T16:54:05Z" uid="80537" user="Dr S Görg" changeset="3824932">
    <nd ref="352778414"/>
    <nd ref="352778415"/>
    <nd ref="352778416"/>
    <nd ref="352778417"/>
    <nd ref="352778414"/>
    <tag k="addr:city" v="Duisburg"/>
    <tag k="addr:country" v="DE"/>
    <tag k="addr:housenumber" v="21"/>
    <tag k="addr:postcode" v="47226"/>
    <tag k="addr:street" v="Friedrich-Ebert-Straße"/>
    <tag k="amenity" v="bank"/>
    <tag k="atm" v="yes"/>
    <tag k="building" v="yes"/>
    <tag k="name" v="Sparkasse Duisburg (Rheinhausen)"/>
    <tag k="opening_hours" v="Mo, Tu 08:30-13:00 14:00-16:00; We, Fr 08:30-13:00 14:00-15:30; Th 08:30-13:00 14:00-18:00"/>
    <tag k="operator" v="Sparkasse Duisburg"/>
  </way>
  <way id="31523052" version="7" timestamp="2010-12-08T20:05:51Z" uid="292007" user="mstriewe" changeset="6588849">
    <nd ref="352778414"/>
    <nd ref="352778415"/>
    <nd ref="352778416"/>
    <nd ref="352778417"/>
    <nd ref="352778414"/>
    <tag k="addr:city" v="Duisburg"/>
    <tag k="addr:country" v="DE"/>
    <tag k="addr:housenumber" v="21"/>
    <tag k="addr:postcode" v="47226"/>
    <tag k="addr:street" v="Friedrich-Ebert-Straße"/>
    <tag k="amenity" v="bank"/>
    <tag k="atm" v="yes"/>
    <tag k="building" v="yes"/>
    <tag k="name" v="Sparkasse Duisburg (Rheinhausen)"/>
    <tag k="opening_hours" v="Mo, Tu 08:30-13:00, 14:00-16:00; We, Fr 08:30-13:00, 14:00-15:30; Th 08:30-13:00, 14:00-18:00"/>
    <tag k="operator" v="Sparkasse Duisburg"/>
  </way>
  <way id="31523112" version="3" timestamp="2010-03-28T01:07:32Z" uid="20587" user="balrog-kun" changeset="4250871">
    <nd ref="57786110"/>
    <nd ref="258151899"/>
    <nd ref="258151818"/>
    <nd ref="57792912"/>
    <nd ref="258152048"/>
    <nd ref="352777930"/>
    <tag k="created_by" v="Potlatch 0.10f"/>
    <tag k="highway" v="tertiary"/>
    <tag k="name" v="Stone Valley Road"/>
    <tag k="oneway" v="yes"/>
    <tag k="tiger:cfcc" v="A41"/>
    <tag k="tiger:county" v="Contra Costa, CA"/>
    <tag k="tiger:name_base" v="Stone Valley"/>
    <tag k="tiger:name_type" v="Rd"/>
    <tag k="tiger:reviewed" v="no"/>
    <tag k="tiger:separated" v="no"/>
    <tag k="tiger:source" v="tiger_import_dch_v0.6_20070809"/>
    <tag k="tiger:tlid" v="192076066:192064202:192064209:192097218:192064214:192064215:192064250:192064251:192064252:192064253:192097215:192064217:192102845:192102846:192076054:192064126:192064131:192064135:192096190:192096191:192111812:192111813:192063601:192063605:192107621:19210"/>
    <tag k="tiger:zip_left" v="94507"/>
    <tag k="tiger:zip_right" v="94507"/>
  </way>
  <way id="31523112" version="4" timestamp="2012-03-06T01:46:25Z" uid="482916" user="bill42" changeset="10886379">
    <nd ref="57786110"/>
    <nd ref="258151899"/>
    <nd ref="258151818"/>
    <nd ref="57792912"/>
    <nd ref="258152048"/>
    <nd ref="1661730313"/>
    <nd ref="352777930"/>
    <tag k="highway" v="tertiary"/>
    <tag k="name" v="Stone Valley Road"/>
    <tag k="oneway" v="yes"/>
    <tag k="tiger:cfcc" v="A41"/>
    <tag k="tiger:county" v="Contra Costa, CA"/>
    <tag k="tiger:name_base" v="Stone Valley"/>
    <tag k="tiger:name_type" v="Rd"/>
    <tag k="tiger:reviewed" v="no"/>
    <tag k="tiger:separated" v="no"/>
    <tag k="tiger:source" v="tiger_import_dch_v0.6_20070809"/>
    <tag k="tiger:tlid" v="192076066:192064202:192064209:192097218:192064214:192064215:192064250:192064251:192064252:192064253:192097215:192064217:192102845:192102846:192076054:192064126:192064131:192064135:192096190:192096191:192111812:192111813:192063601:192063605:192107621:19210"/>
    <tag k="tiger:zip_left" v="94507"/>
    <tag k="tiger:zip_right" v="94507"/>
  </way>
  <way id="31523203" version="2" timestamp="2010-02-02T18:31:22Z" uid="23543" user="jkjk" changeset="3777802">
    <nd ref="352778629"/>
    <nd ref="352778696"/>
    <nd ref="352778697"/>
    <nd ref="352778700"/>
    <nd ref="352778722"/>
    <nd ref="352778702"/>
    <nd ref="352778704"/>
    <nd ref="352778705"/>
    <nd ref="352778707"/>
    <nd ref="352778708"/>
    <nd ref="352778710"/>
    <nd ref="352778714"/>
    <nd ref="352778718"/>
    <nd ref="352778719"/>
    <nd ref="352778720"/>
    <nd ref="352778722"/>
    <tag k="highway" v="service"/>
    <tag k="source" v="cuzk:km"/>
  </way>
  <way id="31523203" version="3" timestamp="2010-06-16T20:04:01Z" uid="3516" user="BiIbo" changeset="5003752">
    <nd ref="352778629"/>
    <nd ref="352778696"/>
    <nd ref="352778697"/>
    <nd ref="352778700"/>
    <tag k="highway" v="service"/>
    <tag k="source" v="cuzk:km"/>
  </way>
  <way id="31523203" version="4" timestamp="2010-06-17T17:25:02Z" uid="3516" user="BiIbo" changeset="5010490">
    <nd ref="352778629"/>
    <nd ref="775173540"/>
    <nd ref="352778696"/>
    <nd ref="352778697"/>
    <nd ref="352778700"/>
    <tag k="highway" v="service"/>
    <tag k="source" v="cuzk:km"/>
  </way>
  <way id="31523280" version="4" timestamp="2010-03-30T22:43:21Z" uid="163746" user="anti_bot-nonsense" changeset="4281484">
    <nd ref="315478459"/>
    <nd ref="352779536"/>
    <nd ref="352779538"/>
    <nd ref="146969592"/>
    <nd ref="315478448"/>
    <nd ref="315478459"/>
    <tag k="area" v="yes"/>
    <tag k="highway" v="tertiary"/>
  </way>
  <way id="31523280" version="5" timestamp="2011-03-22T11:30:19Z" uid="160373" user="turks" changeset="7636183"/>
  <way id="31523303" version="6" timestamp="2010-04-03T04:11:05Z" uid="20587" user="balrog-kun" changeset="4309442">
    <nd ref="352781168"/>
    <nd ref="352780885"/>
    <nd ref="352780886"/>
    <nd ref="352780887"/>
    <nd ref="352780888"/>
    <nd ref="352780889"/>
    <nd ref="173925890"/>
    <nd ref="173925893"/>
    <nd ref="173925895"/>
    <nd ref="173915630"/>
    <tag k="created_by" v="Potlatch 0.10f"/>
    <tag k="highway" v="residential"/>
    <tag k="name" v="North Sulphur Springs Street"/>
    <tag k="tiger:cfcc" v="A41"/>
    <tag k="tiger:county" v="Cochise, AZ"/>
    <tag k="tiger:name_base" v="Sulphur Springs"/>
    <tag k="tiger:name_direction_prefix" v="N"/>
    <tag k="tiger:name_type" v="St"/>
    <tag k="tiger:reviewed" v="no"/>
    <tag k="tiger:separated" v="no"/>
    <tag k="tiger:source" v="tiger_import_dch_v0.6_20070809"/>
    <tag k="tiger:tlid" v="120987358:120910252:120986475:120910279:120910975"/>
    <tag k="tiger:zip_left" v="85607"/>
    <tag k="tiger:zip_right" v="85607"/>
  </way>
  <way id="31523331" version="2" timestamp="2009-11-12T03:28:16Z" uid="36809" user="pfoten_weg_!_" changeset="3095316">
    <nd ref="352779698"/>
    <nd ref="352779701"/>
    <nd ref="352779702"/>
    <nd ref="352779703"/>
    <nd ref="352779705"/>
    <nd ref="352779707"/>
    <nd ref="352779708"/>
    <nd ref="352779711"/>
    <nd ref="352779712"/>
    <nd ref="352779714"/>
    <nd ref="352779716"/>
    <nd ref="352779717"/>
    <nd ref="352779718"/>
    <nd ref="352779721"/>
    <nd ref="352779722"/>
    <nd ref="352779726"/>
    <nd ref="352779727"/>
    <nd ref="352779730"/>
    <nd ref="352779731"/>
    <nd ref="352779734"/>
    <nd ref="352779735"/>
    <nd ref="352779736"/>
    <nd ref="352779739"/>
    <nd ref="352779740"/>
    <nd ref="352779742"/>
    <nd ref="352779746"/>
    <nd ref="352779749"/>
    <nd ref="352779751"/>
    <nd ref="352779755"/>
    <nd ref="352779757"/>
    <nd ref="352779760"/>
    <nd ref="352779762"/>
    <nd ref="352779764"/>
    <nd ref="352779766"/>
    <nd ref="352779769"/>
    <nd ref="352779771"/>
    <nd ref="352779773"/>
    <nd ref="352779774"/>
    <nd ref="352779777"/>
    <nd ref="352779781"/>
    <nd ref="352779783"/>
    <nd ref="352779787"/>
    <nd ref="352779789"/>
    <nd ref="352779791"/>
    <nd ref="352779794"/>
    <nd ref="352779795"/>
    <nd ref="352779797"/>
    <nd ref="352779799"/>
    <nd ref="352779801"/>
    <nd ref="352779803"/>
    <nd ref="352779804"/>
    <nd ref="352779807"/>
    <nd ref="352779808"/>
    <nd ref="352779810"/>
    <nd ref="352779812"/>
    <nd ref="352779814"/>
    <nd ref="352779815"/>
    <nd ref="352779818"/>
    <nd ref="352779819"/>
    <nd ref="352779821"/>
    <nd ref="352779823"/>
    <nd ref="352779825"/>
    <nd ref="352779826"/>
    <nd ref="352779829"/>
    <nd ref="352779830"/>
    <nd ref="352779832"/>
    <nd ref="352779698"/>
    <tag k="natural" v="water"/>
    <tag k="source" v="Landsat"/>
  </way>
  <way id="31523407" version="3" timestamp="2010-03-30T22:40:42Z" uid="163746" user="anti_bot-nonsense" changeset="4281484">
    <nd ref="146969592"/>
    <nd ref="352779538"/>
    <nd ref="315478483"/>
    <nd ref="315478490"/>
    <nd ref="315478493"/>
    <nd ref="315478494"/>
    <nd ref="315478495"/>
    <nd ref="148062051"/>
    <nd ref="148062050"/>
    <nd ref="148062049"/>
    <nd ref="148064081"/>
    <nd ref="147015699"/>
    <nd ref="147015698"/>
    <nd ref="147015697"/>
  </way>
  <way id="31523407" version="4" timestamp="2010-04-14T18:46:18Z" uid="19417" user="xjr" changeset="4425057">
    <nd ref="146969592"/>
    <nd ref="352779538"/>
    <nd ref="315478483"/>
    <nd ref="315478490"/>
    <nd ref="315478493"/>
    <nd ref="315478494"/>
    <nd ref="315478495"/>
    <nd ref="148062051"/>
    <nd ref="148062050"/>
    <nd ref="148062049"/>
    <nd ref="697000322"/>
    <nd ref="148064081"/>
    <nd ref="147015699"/>
    <nd ref="147015698"/>
    <nd ref="147015697"/>
  </way>
  <way id="31523407" version="5" timestamp="2011-03-22T11:30:18Z" uid="160373" user="turks" changeset="7636183">
    <nd ref="146969592"/>
    <nd ref="315478483"/>
    <nd ref="315478490"/>
    <nd ref="315478493"/>
    <nd ref="315478494"/>
    <nd ref="315478495"/>
    <nd ref="148062051"/>
    <nd ref="148062050"/>
    <nd ref="148062049"/>
    <nd ref="697000322"/>
    <nd ref="148064081"/>
    <nd ref="147015699"/>
    <nd ref="147015698"/>
    <nd ref="147015697"/>
  </way>
  <way id="31523407" version="6" timestamp="2011-03-22T13:17:24Z" uid="160373" user="turks" changeset="7636947"/>
  <way id="31523473" version="7" timestamp="2011-03-03T21:36:45Z" uid="123700" user="Mala" changeset="7449989">
    <nd ref="147017523"/>
    <nd ref="315481376"/>
    <nd ref="147029248"/>
    <nd ref="1185021410"/>
    <nd ref="147029249"/>
    <nd ref="1185021507"/>
    <nd ref="147029250"/>
    <nd ref="352802035"/>
    <nd ref="147029252"/>
    <nd ref="352802414"/>
    <nd ref="352802415"/>
    <nd ref="352802416"/>
    <tag k="highway" v="tertiary"/>
    <tag k="name" v="Ostrowska"/>
  </way>
  <way id="31523530" version="4" timestamp="2009-03-08T13:34:11Z" uid="6975" user="ulfl" changeset="757880">
    <nd ref="352781209"/>
    <nd ref="352781210"/>
    <nd ref="352782243"/>
    <tag k="highway" v="residential"/>
    <tag k="maxheight" v="2.6 m"/>
    <tag k="maxspeed" v="30"/>
    <tag k="name" v="Apfelbaumweg"/>
    <tag k="note" v="Enge Durchfahrt Torgebäude, Breite nicht notiert"/>
  </way>
  <way id="31523530" version="5" timestamp="2009-05-20T06:29:02Z" uid="99078" user="ulrich-dtmd" changeset="1258581">
    <nd ref="252982144"/>
    <nd ref="352781209"/>
    <nd ref="352781210"/>
    <nd ref="352782243"/>
    <tag k="access" v="destination"/>
    <tag k="created_by" v="Potlatch 0.10f"/>
    <tag k="highway" v="residential"/>
    <tag k="maxheight" v="2.6 m"/>
    <tag k="maxspeed" v="30"/>
    <tag k="name" v="Apfelbaumweg"/>
    <tag k="note" v="Enge Durchfahrt Torgebäude, Breite nicht notiert"/>
    <tag k="oneway" v="yes"/>
  </way>
  <way id="31523530" version="6" timestamp="2009-12-30T13:31:14Z" uid="149097" user="AlexanderF" changeset="3489873">
    <nd ref="252982144"/>
    <nd ref="352781209"/>
    <nd ref="352781210"/>
    <nd ref="352782243"/>
    <tag k="access" v="destination"/>
    <tag k="highway" v="residential"/>
    <tag k="maxheight" v="2.6"/>
    <tag k="maxspeed" v="30"/>
    <tag k="name" v="Apfelbaumweg"/>
    <tag k="note" v="Enge Durchfahrt Torgebäude, Breite nicht notiert"/>
    <tag k="oneway" v="yes"/>
  </way>
  <way id="31523530" version="7" timestamp="2010-05-04T10:24:54Z" uid="65364" user="Harry99" changeset="4603007">
    <nd ref="252982144"/>
    <nd ref="720634464"/>
    <nd ref="352781209"/>
    <nd ref="352781210"/>
    <nd ref="352782243"/>
    <tag k="access" v="destination"/>
    <tag k="highway" v="residential"/>
    <tag k="maxheight" v="2.6"/>
    <tag k="maxspeed" v="30"/>
    <tag k="name" v="Apfelbaumweg"/>
    <tag k="note" v="Enge Durchfahrt Torgebäude, Breite nicht notiert"/>
    <tag k="oneway" v="yes"/>
  </way>
  <way id="31523530" version="8" timestamp="2010-05-11T13:45:03Z" uid="184969" user="EvanE" changeset="4668723">
    <nd ref="252982144"/>
    <nd ref="720634464"/>
    <nd ref="352781209"/>
    <nd ref="352781210"/>
    <tag k="access" v="destination"/>
    <tag k="highway" v="residential"/>
    <tag k="maxheight" v="2.6"/>
    <tag k="maxspeed" v="30"/>
    <tag k="name" v="Apfelbaumweg"/>
    <tag k="note" v="Enge Durchfahrt Torgebäude, Breite nicht notiert"/>
    <tag k="oneway" v="yes"/>
  </way>
  <way id="31523530" version="9" timestamp="2010-05-15T21:24:27Z" uid="65364" user="Harry99" changeset="4710788">
    <nd ref="252982144"/>
    <nd ref="735741914"/>
    <nd ref="720634464"/>
    <nd ref="352781209"/>
    <nd ref="735741800"/>
    <nd ref="352781210"/>
    <tag k="access" v="destination"/>
    <tag k="highway" v="residential"/>
    <tag k="maxheight" v="2.6"/>
    <tag k="maxspeed" v="30"/>
    <tag k="name" v="Apfelbaumweg"/>
    <tag k="note" v="Enge Durchfahrt Torgebäude, Breite nicht notiert"/>
    <tag k="oneway" v="yes"/>
    <tag k="source" v="HiRes aerial imagery"/>
  </way>
  <way id="31523533" version="5" timestamp="2010-03-28T01:07:32Z" uid="20587" user="balrog-kun" changeset="4250871">
    <nd ref="57829993"/>
    <nd ref="57829995"/>
    <nd ref="57791252"/>
    <nd ref="57857286"/>
    <nd ref="57798797"/>
    <tag k="highway" v="primary"/>
    <tag k="name" v="East 18th Street"/>
    <tag k="name_1" v="Victory Highway"/>
    <tag k="name_2" v="State Route 4"/>
    <tag k="oneway" v="yes"/>
    <tag k="ref" v="CA 4"/>
    <tag k="tiger:cfcc" v="A31"/>
    <tag k="tiger:county" v="Contra Costa, CA"/>
    <tag k="tiger:name_base" v="18th"/>
    <tag k="tiger:name_base_1" v="Victory"/>
    <tag k="tiger:name_base_2" v="State Route 4"/>
    <tag k="tiger:name_direction_prefix" v="E"/>
    <tag k="tiger:name_type" v="St"/>
    <tag k="tiger:name_type_1" v="Hwy"/>
    <tag k="tiger:reviewed" v="no"/>
    <tag k="tiger:separated" v="no"/>
    <tag k="tiger:source" v="tiger_import_dch_v0.6_20070809"/>
    <tag k="tiger:tlid" v="192033003:192033004:192086506:192109775:192107214"/>
  </way>
  <way id="31523533" version="6" timestamp="2011-06-26T23:08:21Z" uid="473471" user="NE3" changeset="8557411">
    <nd ref="57829993"/>
    <nd ref="57829995"/>
    <nd ref="57791252"/>
    <nd ref="57857286"/>
    <nd ref="57798797"/>
    <tag k="highway" v="primary"/>
    <tag k="lanes" v="2"/>
    <tag k="name" v="East 18th Street"/>
    <tag k="name_1" v="Victory Highway"/>
    <tag k="name_2" v="State Route 4"/>
    <tag k="oneway" v="yes"/>
    <tag k="ref" v="CA 4"/>
    <tag k="tiger:cfcc" v="A31"/>
    <tag k="tiger:county" v="Contra Costa, CA"/>
    <tag k="tiger:name_base" v="18th"/>
    <tag k="tiger:name_base_1" v="Victory"/>
    <tag k="tiger:name_base_2" v="State Route 4"/>
    <tag k="tiger:name_direction_prefix" v="E"/>
    <tag k="tiger:name_type" v="St"/>
    <tag k="tiger:name_type_1" v="Hwy"/>
    <tag k="tiger:reviewed" v="no"/>
    <tag k="tiger:separated" v="no"/>
    <tag k="tiger:source" v="tiger_import_dch_v0.6_20070809"/>
    <tag k="tiger:tlid" v="192033003:192033004:192086506:192109775:192107214"/>
  </way>
  <way id="31523533" version="7" timestamp="2011-08-07T11:28:59Z" uid="207745" user="NE2" changeset="8945765">
    <nd ref="57829993"/>
    <nd ref="57829995"/>
    <nd ref="57791252"/>
    <nd ref="57857286"/>
    <nd ref="57798797"/>
    <tag k="highway" v="primary"/>
    <tag k="lanes" v="2"/>
    <tag k="name" v="East 18th Street"/>
    <tag k="name_1" v="Victory Highway"/>
    <tag k="oneway" v="yes"/>
    <tag k="ref" v="CA 4"/>
    <tag k="tiger:cfcc" v="A31"/>
    <tag k="tiger:county" v="Contra Costa, CA"/>
    <tag k="tiger:name_base" v="18th"/>
    <tag k="tiger:name_base_1" v="Victory"/>
    <tag k="tiger:name_base_2" v="State Route 4"/>
    <tag k="tiger:name_direction_prefix" v="E"/>
    <tag k="tiger:name_type" v="St"/>
    <tag k="tiger:name_type_1" v="Hwy"/>
    <tag k="tiger:reviewed" v="no"/>
    <tag k="tiger:separated" v="no"/>
    <tag k="tiger:source" v="tiger_import_dch_v0.6_20070809"/>
    <tag k="tiger:tlid" v="192033003:192033004:192086506:192109775:192107214"/>
  </way>
  <way id="31523533" version="8" timestamp="2012-02-14T18:17:14Z" uid="594525" user="esuor" changeset="10685601">
    <nd ref="57829993"/>
    <nd ref="57829995"/>
    <nd ref="57791252"/>
    <nd ref="57857286"/>
    <nd ref="57798797"/>
    <tag k="highway" v="primary"/>
    <tag k="lanes" v="2"/>
    <tag k="name" v="East 18th Street"/>
    <tag k="name_1" v="Victory Highway"/>
    <tag k="oneway" v="yes"/>
    <tag k="tiger:cfcc" v="A31"/>
    <tag k="tiger:county" v="Contra Costa, CA"/>
    <tag k="tiger:name_base" v="18th"/>
    <tag k="tiger:name_base_1" v="Victory"/>
    <tag k="tiger:name_base_2" v="State Route 4"/>
    <tag k="tiger:name_direction_prefix" v="E"/>
    <tag k="tiger:name_type" v="St"/>
    <tag k="tiger:name_type_1" v="Hwy"/>
    <tag k="tiger:reviewed" v="no"/>
    <tag k="tiger:separated" v="no"/>
    <tag k="tiger:source" v="tiger_import_dch_v0.6_20070809"/>
    <tag k="tiger:tlid" v="192033003:192033004:192086506:192109775:192107214"/>
  </way>
  <way id="31523664" version="5" timestamp="2010-03-28T01:07:32Z" uid="20587" user="balrog-kun" changeset="4250871">
    <nd ref="352782459"/>
    <nd ref="347405619"/>
    <tag k="highway" v="secondary"/>
    <tag k="name" v="East Fork Road"/>
  </way>
  <way id="31523720" version="4" timestamp="2009-03-08T14:36:58Z" uid="6975" user="ulfl" changeset="757880">
    <nd ref="352783756"/>
    <nd ref="352783757"/>
    <nd ref="352783758"/>
    <nd ref="352783759"/>
    <nd ref="352783760"/>
    <nd ref="352783756"/>
    <tag k="amenity" v="place_of_worship"/>
    <tag k="architect" v="Antonio Nieto"/>
    <tag k="building" v="yes"/>
    <tag k="name" v="Mezquita"/>
    <tag k="religion" v="muslim"/>
  </way>
  <way id="31523808" version="9" timestamp="2009-03-08T14:36:59Z" uid="6975" user="ulfl" changeset="757880">
    <nd ref="352784623"/>
    <nd ref="352784624"/>
    <nd ref="352784625"/>
    <nd ref="352784626"/>
    <nd ref="352784623"/>
    <tag k="amenity" v="place_of_worship"/>
    <tag k="building" v="yes"/>
  </way>
  <way id="31523816" version="6" timestamp="2010-04-03T04:11:06Z" uid="20587" user="balrog-kun" changeset="4309442">
    <nd ref="352778419"/>
    <nd ref="352778463"/>
    <nd ref="352778465"/>
    <nd ref="352787088"/>
    <nd ref="352787093"/>
    <nd ref="352787097"/>
    <nd ref="352787100"/>
    <nd ref="352792099"/>
    <tag k="created_by" v="Potlatch 0.10f"/>
    <tag k="highway" v="primary"/>
    <tag k="name" v="16th Street"/>
    <tag k="ref" v="AZ 80; US 191"/>
    <tag k="tiger:cfcc" v="A33"/>
    <tag k="tiger:county" v="Cochise, AZ"/>
    <tag k="tiger:name_base" v="State Route 80"/>
    <tag k="tiger:name_base_1" v="G"/>
    <tag k="tiger:name_type_1" v="Ave"/>
    <tag k="tiger:reviewed" v="no"/>
    <tag k="tiger:separated" v="no"/>
    <tag k="tiger:source" v="tiger_import_dch_v0.6_20070809"/>
    <tag k="tiger:tlid" v="120987366:120981107:120981108:120956492"/>
    <tag k="tiger:zip_left" v="85607"/>
    <tag k="tiger:zip_right" v="85607"/>
  </way>
  <way id="31523816" version="7" timestamp="2010-12-25T02:02:41Z" uid="207745" user="NE2" changeset="6758528">
    <nd ref="352778419"/>
    <nd ref="352778463"/>
    <nd ref="352778465"/>
    <nd ref="352787088"/>
    <nd ref="352787093"/>
    <nd ref="352787097"/>
    <nd ref="352787100"/>
    <nd ref="352792099"/>
    <tag k="highway" v="primary"/>
    <tag k="name" v="16th Street"/>
    <tag k="ref" v="AZ 80"/>
    <tag k="tiger:cfcc" v="A33"/>
    <tag k="tiger:county" v="Cochise, AZ"/>
    <tag k="tiger:name_base" v="State Route 80"/>
    <tag k="tiger:name_base_1" v="G"/>
    <tag k="tiger:name_type_1" v="Ave"/>
    <tag k="tiger:reviewed" v="no"/>
    <tag k="tiger:separated" v="no"/>
    <tag k="tiger:source" v="tiger_import_dch_v0.6_20070809"/>
    <tag k="tiger:tlid" v="120987366:120981107:120981108:120956492"/>
    <tag k="tiger:zip_left" v="85607"/>
    <tag k="tiger:zip_right" v="85607"/>
  </way>
  <way id="31523816" version="8" timestamp="2011-07-18T08:21:04Z" uid="473471" user="NE3" changeset="8755472">
    <nd ref="352778419"/>
    <nd ref="352778463"/>
    <nd ref="352778465"/>
    <nd ref="352787088"/>
    <nd ref="352787093"/>
    <nd ref="352787097"/>
    <nd ref="352787100"/>
    <nd ref="352792099"/>
    <tag k="NHS" v="yes"/>
    <tag k="highway" v="primary"/>
    <tag k="name" v="16th Street"/>
    <tag k="ref" v="AZ 80"/>
    <tag k="tiger:cfcc" v="A33"/>
    <tag k="tiger:county" v="Cochise, AZ"/>
    <tag k="tiger:name_base" v="State Route 80"/>
    <tag k="tiger:name_base_1" v="G"/>
    <tag k="tiger:name_type_1" v="Ave"/>
    <tag k="tiger:reviewed" v="no"/>
    <tag k="tiger:separated" v="no"/>
    <tag k="tiger:source" v="tiger_import_dch_v0.6_20070809"/>
    <tag k="tiger:tlid" v="120987366:120981107:120981108:120956492"/>
    <tag k="tiger:zip_left" v="85607"/>
    <tag k="tiger:zip_right" v="85607"/>
  </way>
  <way id="31523816" version="9" timestamp="2011-09-25T23:03:43Z" uid="207745" user="NE2" changeset="9397798">
    <nd ref="352778419"/>
    <nd ref="352778463"/>
    <nd ref="352778465"/>
    <nd ref="352787088"/>
    <nd ref="352787093"/>
    <nd ref="352787097"/>
    <nd ref="352787100"/>
    <nd ref="352792099"/>
    <tag k="NHS" v="yes"/>
    <tag k="highway" v="primary"/>
    <tag k="lanes" v="4"/>
    <tag k="name" v="16th Street"/>
    <tag k="ref" v="AZ 80"/>
    <tag k="tiger:cfcc" v="A33"/>
    <tag k="tiger:county" v="Cochise, AZ"/>
    <tag k="tiger:name_base" v="State Route 80"/>
    <tag k="tiger:name_base_1" v="G"/>
    <tag k="tiger:name_type_1" v="Ave"/>
    <tag k="tiger:reviewed" v="no"/>
    <tag k="tiger:separated" v="no"/>
    <tag k="tiger:source" v="tiger_import_dch_v0.6_20070809"/>
    <tag k="tiger:tlid" v="120987366:120981107:120981108:120956492"/>
    <tag k="tiger:zip_left" v="85607"/>
    <tag k="tiger:zip_right" v="85607"/>
  </way>
  <way id="31523816" version="10" timestamp="2011-11-22T06:17:01Z" uid="207745" user="NE2" changeset="9905294">
    <nd ref="352778419"/>
    <nd ref="352778463"/>
    <nd ref="352778465"/>
    <nd ref="352787088"/>
    <nd ref="352787093"/>
    <nd ref="352787097"/>
    <nd ref="352787100"/>
    <nd ref="352792099"/>
    <tag k="NHS" v="yes"/>
    <tag k="hgv" v="designated"/>
    <tag k="hgv:national_network" v="yes"/>
    <tag k="highway" v="primary"/>
    <tag k="lanes" v="4"/>
    <tag k="name" v="16th Street"/>
    <tag k="ref" v="AZ 80"/>
    <tag k="source:hgv:national_network" v="Title 23: Highways Part 658 http://ecfr.gpoaccess.gov/cgi/t/text/text-idx?c=ecfr&amp;rgn=div5&amp;view=text&amp;node=23:1.0.1.7.33&amp;idno=23"/>
    <tag k="tiger:cfcc" v="A33"/>
    <tag k="tiger:county" v="Cochise, AZ"/>
    <tag k="tiger:name_base" v="State Route 80"/>
    <tag k="tiger:name_base_1" v="G"/>
    <tag k="tiger:name_type_1" v="Ave"/>
    <tag k="tiger:reviewed" v="no"/>
    <tag k="tiger:separated" v="no"/>
    <tag k="tiger:source" v="tiger_import_dch_v0.6_20070809"/>
    <tag k="tiger:tlid" v="120987366:120981107:120981108:120956492"/>
    <tag k="tiger:zip_left" v="85607"/>
    <tag k="tiger:zip_right" v="85607"/>
  </way>
  <way id="31523858" version="5" timestamp="2010-03-28T01:07:33Z" uid="20587" user="balrog-kun" changeset="4250871">
    <nd ref="352785682"/>
    <nd ref="352785692"/>
    <tag k="bridge" v="yes"/>
    <tag k="highway" v="track"/>
    <tag k="layer" v="1"/>
    <tag k="name" v="Upper Monroe Road"/>
    <tag k="name_1" v="Forest Route 2N16"/>
    <tag k="name_2" v="Monroe Truck Trail"/>
    <tag k="tiger:cfcc" v="A51"/>
    <tag k="tiger:county" v="Los Angeles, CA"/>
    <tag k="tiger:name_base" v="Upper Monroe"/>
    <tag k="tiger:name_base_1" v="Forest Route 2N16"/>
    <tag k="tiger:name_base_2" v="Monroe Truck Trail"/>
    <tag k="tiger:name_type" v="Rd"/>
    <tag k="tiger:separated" v="no"/>
    <tag k="tiger:source" v="tiger_import_dch_v0.6_20070809"/>
    <tag k="tiger:tlid" v="142248442"/>
  </way>
  <way id="31523868" version="4" timestamp="2010-03-28T01:07:33Z" uid="20587" user="balrog-kun" changeset="4250871">
    <nd ref="352785692"/>
    <nd ref="352785841"/>
    <nd ref="352785844"/>
    <nd ref="352785846"/>
    <nd ref="672152478"/>
    <tag k="highway" v="track"/>
    <tag k="name" v="Upper Monroe Road"/>
    <tag k="name_1" v="Forest Route 2N16"/>
    <tag k="name_2" v="Monroe Truck Trail"/>
    <tag k="tiger:cfcc" v="A51"/>
    <tag k="tiger:county" v="Los Angeles, CA"/>
    <tag k="tiger:name_base" v="Upper Monroe"/>
    <tag k="tiger:name_base_1" v="Forest Route 2N16"/>
    <tag k="tiger:name_base_2" v="Monroe Truck Trail"/>
    <tag k="tiger:name_type" v="Rd"/>
    <tag k="tiger:separated" v="no"/>
    <tag k="tiger:source" v="tiger_import_dch_v0.6_20070809"/>
    <tag k="tiger:tlid" v="142248442"/>
  </way>
  <way id="31523052" version="8" timestamp="2012-08-05T08:23:32Z" uid="749254" user="bob bob" changeset="12617125">
    <nd ref="352778414"/>
    <nd ref="1852483199"/>
    <nd ref="1852483190"/>
    <nd ref="1852483188"/>
    <nd ref="1852483201"/>
    <nd ref="1852483189"/>
    <nd ref="1852483202"/>
    <nd ref="1852483204"/>
    <nd ref="352778415"/>
    <nd ref="1852483187"/>
    <nd ref="352778416"/>
    <nd ref="352778417"/>
    <nd ref="352778414"/>
    <tag k="addr:city" v="Duisburg"/>
    <tag k="addr:country" v="DE"/>
    <tag k="addr:housenumber" v="21"/>
    <tag k="addr:postcode" v="47226"/>
    <tag k="addr:street" v="Friedrich-Ebert-Straße"/>
    <tag k="amenity" v="bank"/>
    <tag k="atm" v="yes"/>
    <tag k="building" v="yes"/>
    <tag k="name" v="Sparkasse Duisburg (Rheinhausen)"/>
    <tag k="opening_hours" v="Mo, Tu 08:30-13:00, 14:00-16:00; We, Fr 08:30-13:00, 14:00-15:30; Th 08:30-13:00, 14:00-18:00"/>
    <tag k="operator" v="Sparkasse Duisburg"/>
  </way>
  <way id="31523203" version="5" timestamp="2012-07-24T11:27:26Z" uid="722137" user="OSMF Redaction Account" changeset="12464256">
    <nd ref="352778629"/>
    <nd ref="775173540"/>
    <nd ref="352778696"/>
    <nd ref="352778697"/>
    <nd ref="352778700"/>
    <tag k="highway" v="road"/>
    <tag k="source" v="cuzk:km"/>
  </way>
  <way id="31523303" version="7" timestamp="2012-05-16T03:13:17Z" uid="91347" user="jonathanpatt" changeset="11610553">
    <nd ref="352781168"/>
    <nd ref="1754442744"/>
    <nd ref="1754442749"/>
    <nd ref="352780887"/>
    <nd ref="352780888"/>
    <nd ref="352780889"/>
    <nd ref="173925890"/>
    <nd ref="173925893"/>
    <nd ref="1754442708"/>
    <nd ref="1754442777"/>
    <nd ref="173915630"/>
    <tag k="highway" v="residential"/>
    <tag k="name" v="North Sulphur Springs Street"/>
    <tag k="tiger:cfcc" v="A41"/>
    <tag k="tiger:county" v="Cochise, AZ"/>
    <tag k="tiger:name_base" v="Sulphur Springs"/>
    <tag k="tiger:name_direction_prefix" v="N"/>
    <tag k="tiger:name_type" v="St"/>
    <tag k="tiger:reviewed" v="no"/>
    <tag k="tiger:separated" v="no"/>
    <tag k="tiger:source" v="tiger_import_dch_v0.6_20070809"/>
    <tag k="tiger:tlid" v="120987358:120910252:120986475:120910279:120910975"/>
    <tag k="tiger:zip_left" v="85607"/>
    <tag k="tiger:zip_right" v="85607"/>
  </way>
  <way id="31523473" version="8" timestamp="2012-06-06T14:53:19Z" uid="641600" user="piottr" changeset="11816510">
    <nd ref="147017523"/>
    <nd ref="315481376"/>
    <nd ref="147029248"/>
    <nd ref="1185021410"/>
    <nd ref="147029249"/>
    <nd ref="1185021507"/>
    <nd ref="147029250"/>
    <nd ref="1778149358"/>
    <nd ref="352802035"/>
    <nd ref="147029252"/>
    <nd ref="352802414"/>
    <nd ref="352802415"/>
    <nd ref="352802416"/>
    <tag k="highway" v="tertiary"/>
    <tag k="name" v="Ostrowska"/>
  </way>
  <way id="31523816" version="11" timestamp="2012-05-16T04:16:05Z" uid="91347" user="jonathanpatt" changeset="11610676">
    <nd ref="352778419"/>
    <nd ref="352778463"/>
    <nd ref="1754509785"/>
    <nd ref="352778465"/>
    <nd ref="1754509779"/>
    <nd ref="352787088"/>
    <nd ref="352787093"/>
    <nd ref="352787097"/>
    <nd ref="352787100"/>
    <nd ref="352792099"/>
    <tag k="hgv" v="designated"/>
    <tag k="hgv:national_network" v="yes"/>
    <tag k="highway" v="primary"/>
    <tag k="lanes" v="4"/>
    <tag k="name" v="16th Street"/>
    <tag k="NHS" v="yes"/>
    <tag k="ref" v="AZ 80"/>
    <tag k="source:hgv:national_network" v="Title 23: Highways Part 658 http://ecfr.gpoaccess.gov/cgi/t/text/text-idx?c=ecfr&amp;rgn=div5&amp;view=text&amp;node=23:1.0.1.7.33&amp;idno=23"/>
    <tag k="tiger:cfcc" v="A33"/>
    <tag k="tiger:county" v="Cochise, AZ"/>
    <tag k="tiger:name_base" v="State Route 80"/>
    <tag k="tiger:name_base_1" v="G"/>
    <tag k="tiger:name_type_1" v="Ave"/>
    <tag k="tiger:reviewed" v="no"/>
    <tag k="tiger:separated" v="no"/>
    <tag k="tiger:source" v="tiger_import_dch_v0.6_20070809"/>
    <tag k="tiger:tlid" v="120987366:120981107:120981108:120956492"/>
    <tag k="tiger:zip_left" v="85607"/>
    <tag k="tiger:zip_right" v="85607"/>
  </way>
  <way id="31523816" version="12" timestamp="2012-05-16T04:25:18Z" uid="91347" user="jonathanpatt" changeset="11610676">
    <nd ref="352778419"/>
    <nd ref="352778463"/>
    <nd ref="1754509785"/>
    <nd ref="352778465"/>
    <nd ref="1754509779"/>
    <nd ref="352787088"/>
    <nd ref="352787093"/>
    <nd ref="352787097"/>
    <nd ref="352792099"/>
    <tag k="hgv" v="designated"/>
    <tag k="hgv:national_network" v="yes"/>
    <tag k="highway" v="primary"/>
    <tag k="lanes" v="4"/>
    <tag k="name" v="16th Street"/>
    <tag k="NHS" v="yes"/>
    <tag k="ref" v="AZ 80"/>
    <tag k="source:hgv:national_network" v="Title 23: Highways Part 658 http://ecfr.gpoaccess.gov/cgi/t/text/text-idx?c=ecfr&amp;rgn=div5&amp;view=text&amp;node=23:1.0.1.7.33&amp;idno=23"/>
    <tag k="tiger:cfcc" v="A33"/>
    <tag k="tiger:county" v="Cochise, AZ"/>
    <tag k="tiger:name_base" v="State Route 80"/>
    <tag k="tiger:name_base_1" v="G"/>
    <tag k="tiger:name_type_1" v="Ave"/>
    <tag k="tiger:reviewed" v="no"/>
    <tag k="tiger:separated" v="no"/>
    <tag k="tiger:source" v="tiger_import_dch_v0.6_20070809"/>
    <tag k="tiger:tlid" v="120987366:120981107:120981108:120956492"/>
    <tag k="tiger:zip_left" v="85607"/>
    <tag k="tiger:zip_right" v="85607"/>
  </way>
</osm>
