<?xml version='1.0' encoding='UTF-8'?>
<osm version="0.6" generator="libosmium/2.20.0">
  <way id="31524081" version="2" timestamp="2011-03-03T21:11:39Z" uid="123700" user="Mala" changeset="7449705">
    <nd ref="352786661"/>
    <nd ref="310082364"/>
    <nd ref="310082365"/>
    <nd ref="1184977846"/>
    <nd ref="1184978068"/>
    <nd ref="310082366"/>
    <nd ref="310082367"/>
    <nd ref="310082368"/>
    <nd ref="299945583"/>
    <tag k="highway" v="tertiary"/>
    <tag k="name" v="Szczepankowo"/>
  </way>
  <way id="31524156" version="2" timestamp="2011-03-03T21:36:46Z" uid="123700" user="Mala" changeset="7449989">
    <nd ref="352782154"/>
    <nd ref="1185021443"/>
    <nd ref="352782156"/>
    <nd ref="147029247"/>
    <nd ref="147017523"/>
    <tag k="highway" v="tertiary"/>
    <tag k="name" v="Ostrowska"/>
  </way>
  <way id="31524247" version="2" timestamp="2011-03-03T21:11:34Z" uid="123700" user="Mala" changeset="7449705">
    <nd ref="352782136"/>
    <nd ref="352782139"/>
    <nd ref="352782142"/>
    <nd ref="1184977984"/>
    <nd ref="352782146"/>
    <nd ref="1184977971"/>
    <nd ref="352782150"/>
    <tag k="highway" v="tertiary"/>
    <tag k="name" v="Ostrowska"/>
  </way>
  <way id="31524247" version="3" timestamp="2011-09-20T09:52:44Z" uid="518566" user="piatastronaswiata" changeset="9349652">
    <nd ref="352782136"/>
    <nd ref="352782139"/>
    <nd ref="352782142"/>
    <nd ref="1438202346"/>
    <nd ref="1184977984"/>
    <nd ref="352782146"/>
    <nd ref="1184977971"/>
    <nd ref="352782150"/>
    <tag k="highway" v="tertiary"/>
    <tag k="name" v="Ostrowska"/>
  </way>
  <way id="31524336" version="7" timestamp="2010-03-28T01:07:33Z" uid="20587" user="balrog-kun" changeset="4250871">
    <nd ref="352790758"/>
    <nd ref="57793768"/>
    <nd ref="57807935"/>
    <nd ref="57881801"/>
    <nd ref="57881802"/>
    <nd ref="57881805"/>
    <nd ref="57881807"/>
    <nd ref="57827185"/>
    <nd ref="57881810"/>
    <nd ref="57881812"/>
    <nd ref="57881814"/>
    <nd ref="57881815"/>
    <nd ref="57857340"/>
    <nd ref="57881816"/>
    <nd ref="57881817"/>
    <nd ref="57881819"/>
    <nd ref="57881821"/>
    <nd ref="57881823"/>
    <nd ref="352844989"/>
    <tag k="created_by" v="Potlatch 0.10f"/>
    <tag k="highway" v="tertiary"/>
    <tag k="name" v="Hillcrest Avenue"/>
    <tag k="tiger:cfcc" v="A41"/>
    <tag k="tiger:county" v="Contra Costa, CA"/>
    <tag k="tiger:name_base" v="Hillcrest"/>
    <tag k="tiger:name_type" v="Ave"/>
    <tag k="tiger:reviewed" v="no"/>
    <tag k="tiger:separated" v="no"/>
    <tag k="tiger:source" v="tiger_import_dch_v0.6_20070809"/>
    <tag k="tiger:tlid" v="192085303:192100247:192100248:192068636:192085223:192085167"/>
    <tag k="tiger:zip_left" v="94509"/>
    <tag k="tiger:zip_left_1" v="94531"/>
    <tag k="tiger:zip_left_10" v="94531"/>
    <tag k="tiger:zip_left_11" v="94509"/>
    <tag k="tiger:zip_left_2" v="94531"/>
    <tag k="tiger:zip_left_3" v="94509"/>
    <tag k="tiger:zip_left_4" v="94531"/>
    <tag k="tiger:zip_left_5" v="94509"/>
    <tag k="tiger:zip_left_6" v="94531"/>
    <tag k="tiger:zip_left_7" v="94531"/>
    <tag k="tiger:zip_left_8" v="94531"/>
    <tag k="tiger:zip_left_9" v="94531"/>
    <tag k="tiger:zip_right" v="94509"/>
  </way>
  <way id="31524336" version="8" timestamp="2010-07-18T00:59:21Z" uid="82317" user="AM909" changeset="5247358">
    <nd ref="352790758"/>
    <nd ref="57793768"/>
    <nd ref="57807935"/>
    <nd ref="57881801"/>
    <nd ref="57881802"/>
    <nd ref="57881805"/>
    <nd ref="57881807"/>
    <nd ref="57827185"/>
    <nd ref="57881810"/>
    <nd ref="57881812"/>
    <nd ref="57881814"/>
    <nd ref="57881815"/>
    <nd ref="57857340"/>
    <nd ref="57881816"/>
    <nd ref="57881817"/>
    <nd ref="57881819"/>
    <nd ref="57881821"/>
    <nd ref="57881823"/>
    <nd ref="352844989"/>
    <tag k="highway" v="tertiary"/>
    <tag k="name" v="Hillcrest Avenue"/>
    <tag k="tiger:cfcc" v="A41"/>
    <tag k="tiger:county" v="Contra Costa, CA"/>
    <tag k="tiger:name_base" v="Hillcrest"/>
    <tag k="tiger:name_type" v="Ave"/>
    <tag k="tiger:reviewed" v="no"/>
    <tag k="tiger:separated" v="no"/>
    <tag k="tiger:source" v="tiger_import_dch_v0.6_20070809"/>
    <tag k="tiger:tlid" v="192085303:192100247:192100248:192068636:192085223:192085167"/>
    <tag k="tiger:zip_left" v="94509"/>
    <tag k="tiger:zip_left_1" v="94531"/>
    <tag k="tiger:zip_right" v="94509"/>
  </way>
  <way id="31524341" version="2" timestamp="2010-03-28T01:07:34Z" uid="20587" user="balrog-kun" changeset="4250871">
    <nd ref="352790786"/>
    <nd ref="352790758"/>
    <tag k="bridge" v="yes"/>
    <tag k="created_by" v="Potlatch 0.10f"/>
    <tag k="highway" v="tertiary"/>
    <tag k="layer" v="1"/>
    <tag k="name" v="Hillcrest Avenue"/>
    <tag k="tiger:cfcc" v="A41"/>
    <tag k="tiger:county" v="Contra Costa, CA"/>
    <tag k="tiger:name_base" v="Hillcrest"/>
    <tag k="tiger:name_type" v="Ave"/>
    <tag k="tiger:reviewed" v="no"/>
    <tag k="tiger:separated" v="no"/>
    <tag k="tiger:source" v="tiger_import_dch_v0.6_20070809"/>
    <tag k="tiger:tlid" v="192085303:192100247:192100248:192068636:192085223:192085167"/>
    <tag k="tiger:zip_left" v="94509"/>
    <tag k="tiger:zip_left_1" v="94531"/>
    <tag k="tiger:zip_left_10" v="94531"/>
    <tag k="tiger:zip_left_11" v="94509"/>
    <tag k="tiger:zip_left_2" v="94531"/>
    <tag k="tiger:zip_left_3" v="94509"/>
    <tag k="tiger:zip_left_4" v="94531"/>
    <tag k="tiger:zip_left_5" v="94509"/>
    <tag k="tiger:zip_left_6" v="94531"/>
    <tag k="tiger:zip_left_7" v="94531"/>
    <tag k="tiger:zip_left_8" v="94531"/>
    <tag k="tiger:zip_left_9" v="94531"/>
    <tag k="tiger:zip_right" v="94509"/>
  </way>
  <way id="31524341" version="3" timestamp="2010-07-18T01:04:38Z" uid="82317" user="AM909" changeset="5247358">
    <nd ref="352790786"/>
    <nd ref="352790758"/>
    <tag k="bridge" v="yes"/>
    <tag k="highway" v="tertiary"/>
    <tag k="layer" v="1"/>
    <tag k="name" v="Hillcrest Avenue"/>
    <tag k="tiger:cfcc" v="A41"/>
    <tag k="tiger:county" v="Contra Costa, CA"/>
    <tag k="tiger:name_base" v="Hillcrest"/>
    <tag k="tiger:name_type" v="Ave"/>
    <tag k="tiger:reviewed" v="no"/>
    <tag k="tiger:separated" v="no"/>
    <tag k="tiger:source" v="tiger_import_dch_v0.6_20070809"/>
    <tag k="tiger:tlid" v="192085303:192100247:192100248:192068636:192085223:192085167"/>
    <tag k="tiger:zip_left" v="94509"/>
    <tag k="tiger:zip_left_1" v="94531"/>
    <tag k="tiger:zip_right" v="94509"/>
  </way>
  <way id="31524427" version="2" timestamp="2011-03-03T21:11:36Z" uid="123700" user="Mala" changeset="7449705">
    <nd ref="352792007"/>
    <nd ref="1184977952"/>
    <nd ref="1184978022"/>
    <nd ref="352792008"/>
    <tag k="highway" v="residential"/>
    <tag k="name" v="Gospodarska"/>
  </way>
  <way id="31524558" version="5" timestamp="2010-03-28T01:07:34Z" uid="20587" user="balrog-kun" changeset="4250871">
    <nd ref="352793263"/>
    <nd ref="352793264"/>
    <tag k="bridge" v="yes"/>
    <tag k="highway" v="secondary"/>
    <tag k="name" v="East Fork Road"/>
  </way>
  <way id="31524856" version="3" timestamp="2009-12-07T00:13:03Z" uid="200463" user="harmagedon" changeset="3311752">
    <nd ref="257937209"/>
    <nd ref="327774623"/>
    <nd ref="327774626"/>
    <nd ref="327774629"/>
    <nd ref="327774632"/>
    <nd ref="327774635"/>
    <nd ref="327774638"/>
    <nd ref="327774641"/>
    <nd ref="327774644"/>
    <nd ref="327774647"/>
    <nd ref="327774649"/>
    <nd ref="327774650"/>
    <nd ref="327774653"/>
    <nd ref="327774656"/>
    <tag k="addr:postcode" v="4910"/>
    <tag k="at:maxspeed" v="Ortsgebiet"/>
    <tag k="fixme" v="check import"/>
    <tag k="highway" v="residential"/>
    <tag k="is_in" v="...,Bezirk Ried im Innkreis,Oberösterreich,Österreich,Europa"/>
    <tag k="name" v="Hohenzeller Straße"/>
    <tag k="note" v="imported from plan.at; (C)=CC-by-sa or oDBL; feel free to change if necessary"/>
    <tag k="plan_at:acad_id" v="riCD3"/>
    <tag k="source" v="plan.at 2009"/>
  </way>
  <way id="31524856" version="4" timestamp="2010-02-18T17:00:18Z" uid="45347" user="eriosw" changeset="3910445">
    <nd ref="257937209"/>
    <nd ref="327774623"/>
    <nd ref="327774626"/>
    <nd ref="327774629"/>
    <nd ref="327774632"/>
    <tag k="addr:postcode" v="4910"/>
    <tag k="at:maxspeed" v="Ortsgebiet"/>
    <tag k="fixme" v="check import"/>
    <tag k="highway" v="residential"/>
    <tag k="is_in" v="...,Bezirk Ried im Innkreis,Oberösterreich,Österreich,Europa"/>
    <tag k="name" v="Hohenzeller Straße"/>
    <tag k="note" v="imported from plan.at; (C)=CC-by-sa or oDBL; feel free to change if necessary"/>
    <tag k="plan_at:acad_id" v="riCD3"/>
    <tag k="source" v="plan.at 2009"/>
  </way>
  <way id="31524856" version="5" timestamp="2010-04-10T19:21:51Z" uid="92455" user="dasilva" changeset="4386179">
    <nd ref="327774632"/>
    <nd ref="327774629"/>
    <nd ref="327774626"/>
    <nd ref="327774623"/>
    <nd ref="257937209"/>
    <tag k="highway" v="tertiary"/>
    <tag k="name" v="Rieder Hochstraße"/>
    <tag k="ref" v="L1081"/>
  </way>
  <way id="31524856" version="6" timestamp="2010-10-20T20:44:50Z" uid="35673" user="gzin" changeset="6119928">
    <nd ref="327774632"/>
    <nd ref="327774629"/>
    <nd ref="958693989"/>
    <nd ref="327774626"/>
    <nd ref="327774623"/>
    <nd ref="958693982"/>
    <nd ref="958693952"/>
    <nd ref="958693962"/>
    <nd ref="257937209"/>
    <tag k="highway" v="tertiary"/>
    <tag k="name" v="Rieder Hochstraße"/>
    <tag k="ref" v="L1081"/>
  </way>
  <way id="31524856" version="7" timestamp="2012-02-02T11:48:40Z" uid="35673" user="gzin" changeset="10566669">
    <nd ref="327774632"/>
    <nd ref="327774629"/>
    <nd ref="958693989"/>
    <nd ref="327774626"/>
    <nd ref="1615534969"/>
    <nd ref="327774623"/>
    <nd ref="958693982"/>
    <nd ref="958693952"/>
    <nd ref="958693962"/>
    <nd ref="257937209"/>
    <tag k="highway" v="tertiary"/>
    <tag k="name" v="Rieder Hochstraße"/>
    <tag k="ref" v="L1081"/>
  </way>
  <way id="31524856" version="8" timestamp="2012-02-02T13:04:58Z" uid="35673" user="gzin" changeset="10567259"/>
  <way id="31524858" version="2" timestamp="2009-12-07T00:11:11Z" uid="200463" user="harmagedon" changeset="3311752">
    <nd ref="327787537"/>
    <nd ref="327787538"/>
    <nd ref="327787539"/>
    <nd ref="327787540"/>
    <nd ref="327787541"/>
    <nd ref="327787544"/>
    <nd ref="327787545"/>
    <nd ref="257936920"/>
    <nd ref="327774582"/>
    <tag k="addr:postcode" v="4921"/>
    <tag k="highway" v="tertiary"/>
    <tag k="is_in" v="...,Bezirk Ried im Innkreis,Oberösterreich,Österreich,Europa"/>
    <tag k="name" v="Rieder Hochstraße"/>
    <tag k="ref" v="L1081"/>
    <tag k="source" v="GPS"/>
  </way>
  <way id="31524858" version="3" timestamp="2009-12-07T12:06:15Z" uid="200463" user="harmagedon" changeset="3314630">
    <nd ref="327787537"/>
    <nd ref="327787538"/>
    <nd ref="327787539"/>
    <nd ref="327787540"/>
    <nd ref="327787541"/>
    <nd ref="327787544"/>
    <nd ref="327787545"/>
    <nd ref="257936920"/>
    <nd ref="327774582"/>
    <tag k="addr:postcode" v="4921"/>
    <tag k="highway" v="tertiary"/>
    <tag k="is_in" v="...,Bezirk Ried im Innkreis,Oberösterreich,Österreich,Europa"/>
    <tag k="name" v="Rieder Hochstraße"/>
    <tag k="ref" v="L1081"/>
    <tag k="source" v="GPS"/>
  </way>
  <way id="31524858" version="4" timestamp="2010-04-10T19:21:50Z" uid="92455" user="dasilva" changeset="4386179">
    <nd ref="327774582"/>
    <nd ref="257936920"/>
    <nd ref="327787545"/>
    <nd ref="327787544"/>
    <nd ref="327787541"/>
    <nd ref="327787540"/>
    <nd ref="327787539"/>
    <nd ref="327787538"/>
    <nd ref="327787537"/>
    <tag k="highway" v="tertiary"/>
    <tag k="name" v="Rieder Hochstraße"/>
    <tag k="ref" v="L1081"/>
    <tag k="source" v="GPS"/>
  </way>
  <way id="31524859" version="2" timestamp="2009-12-07T00:13:20Z" uid="200463" user="harmagedon" changeset="3311752">
    <nd ref="327777795"/>
    <nd ref="327777801"/>
    <nd ref="347676278"/>
    <nd ref="327777036"/>
    <tag k="addr:postcode" v="4910"/>
    <tag k="at:maxspeed" v="Ortsgebiet"/>
    <tag k="highway" v="secondary"/>
    <tag k="is_in" v="...,Bezirk Ried im Innkreis,Oberösterreich,Österreich,Europa"/>
    <tag k="name" v="Kapuzinerberg"/>
    <tag k="source" v="GPS"/>
  </way>
  <way id="31524859" version="3" timestamp="2011-04-13T16:11:37Z" uid="45347" user="eriosw" changeset="7853232">
    <nd ref="327777795"/>
    <nd ref="327777801"/>
    <nd ref="347676278"/>
    <nd ref="327777036"/>
    <tag k="addr:postcode" v="4910"/>
    <tag k="at:maxspeed" v="Ortsgebiet"/>
    <tag k="highway" v="secondary"/>
    <tag k="is_in" v="Ried im Innkreis,Ried im Innkreis,Oberösterreich,Österreich,Europe"/>
    <tag k="name" v="Kapuzinerberg"/>
    <tag k="source" v="GPS"/>
  </way>
  <way id="31524859" version="4" timestamp="2011-05-03T20:17:58Z" uid="234764" user="m5st" changeset="8043423">
    <nd ref="327777795"/>
    <nd ref="327777801"/>
    <nd ref="347676278"/>
    <nd ref="327777036"/>
    <tag k="addr:postcode" v="4910"/>
    <tag k="highway" v="secondary"/>
    <tag k="is_in" v="Ried im Innkreis,Ried im Innkreis,Oberösterreich,Österreich,Europe"/>
    <tag k="name" v="Kapuzinerberg"/>
    <tag k="source" v="GPS"/>
  </way>
  <way id="31524859" version="5" timestamp="2011-07-28T06:11:37Z" uid="491845" user="data_at" changeset="8851221">
    <nd ref="327777795"/>
    <nd ref="327777801"/>
    <nd ref="347676278"/>
    <nd ref="327777036"/>
    <tag k="highway" v="secondary"/>
    <tag k="is_in" v="Ried im Innkreis,Ried im Innkreis,Oberösterreich,Österreich,Europe"/>
    <tag k="name" v="Kapuzinerberg"/>
    <tag k="source" v="GPS"/>
  </way>
  <way id="31524859" version="6" timestamp="2012-03-22T12:46:51Z" uid="211966" user="Hetzi" changeset="11062483">
    <nd ref="327777795"/>
    <nd ref="327777801"/>
    <nd ref="347676278"/>
    <nd ref="327777036"/>
    <tag k="highway" v="secondary"/>
    <tag k="is_in" v="Ried im Innkreis,Ried im Innkreis,Oberösterreich,Österreich,Europe"/>
    <tag k="maxspeed" v="50"/>
    <tag k="name" v="Kapuzinerberg"/>
    <tag k="source" v="GPS"/>
  </way>
  <way id="31524081" version="3" timestamp="2012-08-14T23:50:09Z" uid="307399" user="Pawcio" changeset="12733301">
    <nd ref="352786661"/>
    <nd ref="310082364"/>
    <nd ref="310082365"/>
    <nd ref="1184977846"/>
    <nd ref="1184978068"/>
    <nd ref="310082366"/>
    <nd ref="310082367"/>
    <nd ref="310082368"/>
    <tag k="highway" v="tertiary"/>
    <tag k="name" v="Szczepankowo"/>
  </way>
  <way id="31524336" version="9" timestamp="2012-07-18T18:05:43Z" uid="153669" user="dchiles" changeset="12291510">
    <nd ref="352790758"/>
    <nd ref="57793768"/>
    <nd ref="57807935"/>
    <nd ref="57881801"/>
    <nd ref="1829966033"/>
    <nd ref="57881802"/>
    <nd ref="1829966030"/>
    <nd ref="57881805"/>
    <nd ref="1829966015"/>
    <nd ref="57881807"/>
    <nd ref="1829966011"/>
    <nd ref="1829966008"/>
    <nd ref="1829966007"/>
    <nd ref="57827185"/>
    <tag k="highway" v="tertiary"/>
    <tag k="name" v="Hillcrest Avenue"/>
    <tag k="oneway" v="yes"/>
    <tag k="tiger:cfcc" v="A41"/>
    <tag k="tiger:county" v="Contra Costa, CA"/>
    <tag k="tiger:name_base" v="Hillcrest"/>
    <tag k="tiger:name_type" v="Ave"/>
    <tag k="tiger:reviewed" v="no"/>
    <tag k="tiger:separated" v="no"/>
    <tag k="tiger:source" v="tiger_import_dch_v0.6_20070809"/>
    <tag k="tiger:tlid" v="192085303:192100247:192100248:192068636:192085223:192085167"/>
    <tag k="tiger:zip_left" v="94509"/>
    <tag k="tiger:zip_left_1" v="94531"/>
    <tag k="tiger:zip_right" v="94509"/>
  </way>
</osm>
