<?xml version='1.0' encoding='UTF-8'?>
<osm version="0.6" generator="libosmium/2.20.0">
  <way id="31525054" version="1" timestamp="2009-02-25T20:18:52Z" uid="6269" user="Mueck" changeset="665332">
    <nd ref="352801056"/>
    <nd ref="18915951"/>
    <tag k="bridge" v="true"/>
    <tag k="created_by" v="Potlatch 0.10f"/>
    <tag k="highway" v="secondary"/>
    <tag k="name" v="Hagsfelder Brücke"/>
  </way>
  <way id="31525054" version="2" timestamp="2009-02-25T20:19:13Z" uid="6269" user="Mueck" changeset="665332">
    <nd ref="352801056"/>
    <nd ref="18915951"/>
    <nd ref="26213970"/>
    <nd ref="286475454"/>
    <nd ref="82505109"/>
    <nd ref="25379587"/>
    <nd ref="25379585"/>
    <nd ref="15843183"/>
    <tag k="created_by" v="Potlatch 0.10f"/>
    <tag k="highway" v="secondary"/>
    <tag k="name" v="Karlsruher Straße"/>
  </way>
  <way id="31525054" version="3" timestamp="2009-06-01T12:02:17Z" uid="28237" user="lyx" changeset="1378991">
    <nd ref="352801056"/>
    <nd ref="26213974"/>
    <nd ref="18915951"/>
    <nd ref="26213970"/>
    <nd ref="286475454"/>
    <nd ref="82505109"/>
    <nd ref="25379587"/>
    <nd ref="25379585"/>
    <nd ref="15843183"/>
    <tag k="created_by" v="Potlatch 0.10f"/>
    <tag k="highway" v="secondary"/>
    <tag k="name" v="Karlsruher Straße"/>
  </way>
  <way id="31525054" version="4" timestamp="2009-07-01T22:56:04Z" uid="6269" user="Mueck" changeset="1705642">
    <nd ref="352801056"/>
    <nd ref="26213974"/>
    <nd ref="18915951"/>
    <nd ref="26213970"/>
    <nd ref="286475454"/>
    <nd ref="82505109"/>
    <nd ref="25379587"/>
    <nd ref="432028197"/>
    <tag k="created_by" v="Potlatch 0.10f"/>
    <tag k="highway" v="secondary"/>
    <tag k="name" v="Karlsruher Straße"/>
  </way>
  <way id="31525054" version="5" timestamp="2011-01-31T20:11:32Z" uid="165061" user="keinname" changeset="7148592">
    <nd ref="352801056"/>
    <nd ref="26213974"/>
    <nd ref="18915951"/>
    <tag k="highway" v="secondary"/>
    <tag k="name" v="Karlsruher Straße"/>
  </way>
  <way id="31525054" version="6" timestamp="2011-02-04T20:32:14Z" uid="165061" user="keinname" changeset="7186564">
    <nd ref="352801056"/>
    <nd ref="26213974"/>
    <nd ref="1136294215"/>
    <nd ref="1136294164"/>
    <nd ref="18915951"/>
    <tag k="highway" v="secondary"/>
    <tag k="name" v="Karlsruher Straße"/>
  </way>
  <way id="31525054" version="7" timestamp="2011-03-13T01:15:37Z" uid="6269" user="Mueck" changeset="7540152">
    <nd ref="352801056"/>
    <nd ref="26213974"/>
    <nd ref="1199536262"/>
    <nd ref="1136294215"/>
    <nd ref="1136294164"/>
    <nd ref="18915951"/>
    <tag k="highway" v="secondary"/>
    <tag k="name" v="Karlsruher Straße"/>
  </way>
  <way id="31525054" version="8" timestamp="2012-01-16T12:59:47Z" uid="165061" user="keinname" changeset="10408116">
    <nd ref="352801056"/>
    <nd ref="26213974"/>
    <nd ref="1199536262"/>
    <nd ref="1136294215"/>
    <nd ref="1136294164"/>
    <nd ref="18915951"/>
    <tag k="highway" v="secondary"/>
    <tag k="lanes" v="2"/>
    <tag k="maxspeed" v="50"/>
    <tag k="name" v="Karlsruher Straße"/>
    <tag k="source:maxspeed" v="DE:urban"/>
  </way>
  <way id="31525054" version="9" timestamp="2012-03-25T09:59:08Z" uid="35468" user="Blunauer" changeset="11093144">
    <nd ref="1690161772"/>
    <nd ref="26213974"/>
    <nd ref="1199536262"/>
    <nd ref="1136294215"/>
    <nd ref="1136294164"/>
    <nd ref="18915951"/>
    <tag k="highway" v="secondary"/>
    <tag k="lanes" v="2"/>
    <tag k="maxspeed" v="50"/>
    <tag k="name" v="Karlsruher Straße"/>
    <tag k="source:maxspeed" v="DE:urban"/>
  </way>
  <way id="31525054" version="10" timestamp="2012-03-25T10:05:54Z" uid="35468" user="Blunauer" changeset="11093223"/>
  <way id="31525345" version="1" timestamp="2009-02-25T20:21:38Z" uid="6269" user="Mueck" changeset="665332">
    <nd ref="352802009"/>
    <nd ref="352802141"/>
    <nd ref="352802143"/>
    <tag k="created_by" v="Potlatch 0.10f"/>
    <tag k="highway" v="cycleway"/>
    <tag k="oneway" v="yes"/>
  </way>
  <way id="31525345" version="2" timestamp="2009-08-03T09:19:09Z" uid="151735" user="Sophie Werner" changeset="2023239">
    <nd ref="352802009"/>
    <nd ref="352802141"/>
    <nd ref="352802143"/>
    <tag k="foot " v=""/>
    <tag k="highway" v="path"/>
    <tag k="oneway" v="yes"/>
  </way>
  <way id="31525345" version="3" timestamp="2009-08-04T10:21:58Z" uid="70696" user="xybot" changeset="2033543">
    <nd ref="352802009"/>
    <nd ref="352802141"/>
    <nd ref="352802143"/>
    <tag k="foot " v=""/>
    <tag k="highway" v="path"/>
    <tag k="oneway" v="yes"/>
  </way>
  <way id="31525345" version="4" timestamp="2009-08-04T13:36:31Z" uid="70696" user="xybot" changeset="2034985">
    <nd ref="352802009"/>
    <nd ref="352802141"/>
    <nd ref="352802143"/>
    <tag k="highway" v="path"/>
    <tag k="oneway" v="yes"/>
  </way>
  <way id="31525345" version="5" timestamp="2011-03-13T01:15:37Z" uid="6269" user="Mueck" changeset="7540152">
    <nd ref="352802009"/>
    <nd ref="352802141"/>
    <nd ref="352802143"/>
    <tag k="foot" v="yes"/>
    <tag k="highway" v="cycleway"/>
    <tag k="oneway" v="yes"/>
  </way>
  <way id="31525345" version="6" timestamp="2012-02-21T08:41:42Z" uid="165061" user="keinname" changeset="10748136"/>
  <way id="31525385" version="1" timestamp="2009-02-25T20:22:21Z" uid="36809" user="pfoten_weg_!_" changeset="666985">
    <nd ref="352802413"/>
    <nd ref="352802411"/>
    <nd ref="352802412"/>
    <nd ref="352802410"/>
    <nd ref="352802413"/>
    <tag k="addr:city" v="München"/>
    <tag k="addr:country" v="DE"/>
    <tag k="addr:housenumber" v="30"/>
    <tag k="addr:postcode" v="81476"/>
    <tag k="addr:street" v="Liesl-Karlstadt-Straße"/>
    <tag k="building" v="yes"/>
    <tag k="created_by" v="RambaZamba"/>
    <tag k="source" v="survey"/>
  </way>
  <way id="31525385" version="2" timestamp="2009-02-25T20:30:52Z" uid="36809" user="pfoten_weg_!_" changeset="666985"/>
  <way id="31525485" version="2" timestamp="2009-04-16T21:22:25Z" uid="30632" user="antblant" changeset="598077">
    <nd ref="142460285"/>
    <nd ref="146644980"/>
    <tag k="created_by" v="Potlatch 0.10f"/>
    <tag k="highway" v="primary"/>
    <tag k="name" v="Bolesława Krzywoustego"/>
    <tag k="oneway" v="yes"/>
    <tag k="ref" v="11"/>
  </way>
  <way id="31525485" version="3" timestamp="2010-03-15T23:41:17Z" uid="163746" user="anti_bot-nonsense" changeset="4139871">
    <nd ref="142460285"/>
    <nd ref="146644980"/>
    <tag k="highway" v="primary"/>
    <tag k="name" v="Bolesława Krzywoustego"/>
    <tag k="oneway" v="yes"/>
    <tag k="ref" v="11"/>
  </way>
  <way id="31525485" version="4" timestamp="2010-03-29T01:38:14Z" uid="88909" user="miko101" changeset="4263416">
    <nd ref="142460285"/>
    <nd ref="146644980"/>
    <tag k="highway" v="trunk"/>
    <tag k="incline" v="up"/>
    <tag k="name" v="Bolesława Krzywoustego"/>
    <tag k="oneway" v="yes"/>
    <tag k="ref" v="11"/>
    <tag k="source" v="WikiProject Poland/Klasyfikacja dróg"/>
  </way>
  <way id="31525485" version="5" timestamp="2011-01-06T20:13:44Z" uid="318486" user="tomaszko90" changeset="6886513">
    <nd ref="142460285"/>
    <nd ref="146644980"/>
    <tag k="highway" v="primary"/>
    <tag k="incline" v="up"/>
    <tag k="name" v="Bolesława Krzywoustego"/>
    <tag k="oneway" v="yes"/>
    <tag k="ref" v="11"/>
    <tag k="source" v="WikiProject Poland/Klasyfikacja dróg"/>
  </way>
  <way id="31525485" version="6" timestamp="2011-06-17T11:19:40Z" uid="88909" user="miko101" changeset="8463732">
    <nd ref="142460285"/>
    <nd ref="146644980"/>
    <tag k="highway" v="trunk"/>
    <tag k="incline" v="up"/>
    <tag k="name" v="Bolesława Krzywoustego"/>
    <tag k="oneway" v="yes"/>
    <tag k="ref" v="11"/>
    <tag k="source" v="WikiProject Poland/Klasyfikacja dróg"/>
  </way>
  <way id="31525485" version="7" timestamp="2012-01-26T20:59:09Z" uid="88909" user="miko101" changeset="10507194">
    <nd ref="142460285"/>
    <nd ref="1606914489"/>
    <nd ref="146644980"/>
    <tag k="highway" v="trunk"/>
    <tag k="incline" v="up"/>
    <tag k="name" v="Bolesława Krzywoustego"/>
    <tag k="oneway" v="yes"/>
    <tag k="ref" v="11"/>
    <tag k="source" v="WikiProject Poland/Klasyfikacja dróg"/>
  </way>
  <way id="31525641" version="4" timestamp="2011-04-20T12:57:24Z" uid="115477" user="wowik" changeset="7916018">
    <nd ref="352804838"/>
    <nd ref="352804841"/>
    <nd ref="352804843"/>
    <nd ref="352804844"/>
    <nd ref="352804847"/>
    <nd ref="352804849"/>
    <nd ref="352804851"/>
    <nd ref="352804854"/>
    <nd ref="352804838"/>
    <tag k="addr:city" v="Москва"/>
    <tag k="addr:country" v="RU"/>
    <tag k="addr:housenumber" v="9 с2"/>
    <tag k="addr:street" v="Газетный переулок"/>
    <tag k="building" v="yes"/>
  </way>
  <way id="31525644" version="5" timestamp="2011-04-20T12:57:39Z" uid="115477" user="wowik" changeset="7916018">
    <nd ref="352804856"/>
    <nd ref="352804858"/>
    <nd ref="352804860"/>
    <nd ref="352804862"/>
    <nd ref="352804865"/>
    <nd ref="352804867"/>
    <nd ref="352804869"/>
    <nd ref="352804856"/>
    <tag k="addr:city" v="Москва"/>
    <tag k="addr:country" v="RU"/>
    <tag k="addr:housenumber" v="21"/>
    <tag k="addr:street" v="Брюсов переулок"/>
    <tag k="building" v="yes"/>
    <tag k="cladr:code" v="77000000000703600"/>
  </way>
  <way id="31525648" version="3" timestamp="2011-04-20T13:00:02Z" uid="115477" user="wowik" changeset="7916018">
    <nd ref="352804885"/>
    <nd ref="352804893"/>
    <nd ref="352804896"/>
    <nd ref="352804889"/>
    <nd ref="352804885"/>
    <tag k="addr:city" v="Москва"/>
    <tag k="addr:country" v="RU"/>
    <tag k="building" v="yes"/>
    <tag k="cladr:code" v="77000000000287700"/>
  </way>
  <way id="31525650" version="3" timestamp="2011-04-20T12:57:38Z" uid="115477" user="wowik" changeset="7916018">
    <nd ref="352804901"/>
    <nd ref="352804912"/>
    <nd ref="352804916"/>
    <nd ref="352804907"/>
    <nd ref="352804901"/>
    <tag k="addr:city" v="Москва"/>
    <tag k="addr:country" v="RU"/>
    <tag k="addr:housenumber" v="9 c5"/>
    <tag k="addr:street" v="Газетный переулок"/>
    <tag k="building" v="yes"/>
  </way>
  <way id="31525652" version="6" timestamp="2011-04-20T12:57:17Z" uid="115477" user="wowik" changeset="7916018">
    <nd ref="352804924"/>
    <nd ref="352804930"/>
    <nd ref="352804934"/>
    <nd ref="352804938"/>
    <nd ref="352804944"/>
    <nd ref="352804948"/>
    <nd ref="352804952"/>
    <nd ref="352804955"/>
    <nd ref="352804924"/>
    <tag k="addr:city" v="Москва"/>
    <tag k="addr:country" v="RU"/>
    <tag k="addr:housenumber" v="8-10"/>
    <tag k="addr:street" v="Брюсов переулок"/>
    <tag k="building" v="yes"/>
    <tag k="cladr:code" v="77000000000703600"/>
  </way>
  <way id="31525653" version="5" timestamp="2011-04-20T12:57:29Z" uid="115477" user="wowik" changeset="7916018">
    <nd ref="352804958"/>
    <nd ref="352804988"/>
    <nd ref="352804983"/>
    <nd ref="352804972"/>
    <nd ref="352805024"/>
    <nd ref="352805018"/>
    <nd ref="352804976"/>
    <nd ref="352805012"/>
    <nd ref="352804965"/>
    <nd ref="352805006"/>
    <nd ref="352804958"/>
    <tag k="addr:city" v="Москва"/>
    <tag k="addr:country" v="RU"/>
    <tag k="addr:housenumber" v="19"/>
    <tag k="addr:street" v="Брюсов переулок"/>
    <tag k="building" v="yes"/>
    <tag k="cladr:code" v="77000000000703600"/>
  </way>
  <way id="31525655" version="4" timestamp="2011-04-20T12:57:06Z" uid="115477" user="wowik" changeset="7916018">
    <nd ref="352805031"/>
    <nd ref="352805040"/>
    <nd ref="352805047"/>
    <nd ref="352805052"/>
    <nd ref="352805056"/>
    <nd ref="352805059"/>
    <nd ref="352805063"/>
    <nd ref="352805073"/>
    <nd ref="352805082"/>
    <nd ref="352805087"/>
    <nd ref="352805090"/>
    <nd ref="352805099"/>
    <nd ref="352805031"/>
    <tag k="addr:city" v="Москва"/>
    <tag k="addr:country" v="RU"/>
    <tag k="addr:housenumber" v="7"/>
    <tag k="addr:street" v="Брюсов переулок"/>
    <tag k="building" v="yes"/>
    <tag k="cladr:code" v="77000000000711100"/>
  </way>
  <way id="31525739" version="1" timestamp="2009-02-25T20:30:52Z" uid="36809" user="pfoten_weg_!_" changeset="666985">
    <nd ref="352805387"/>
    <nd ref="352805381"/>
    <nd ref="352805389"/>
    <nd ref="352805383"/>
    <nd ref="352805387"/>
    <tag k="addr:city" v="München"/>
    <tag k="addr:country" v="DE"/>
    <tag k="addr:housenumber" v="30"/>
    <tag k="addr:postcode" v="81476"/>
    <tag k="addr:street" v="Liesl-Karlstadt-Straße"/>
    <tag k="building" v="yes"/>
    <tag k="created_by" v="RambaZamba"/>
    <tag k="source" v="survey"/>
  </way>
  <way id="31525739" version="2" timestamp="2009-08-28T20:05:15Z" uid="156995" user="HampelZamba" changeset="2294580">
    <nd ref="352805387"/>
    <nd ref="352805381"/>
    <nd ref="352805389"/>
    <nd ref="352805383"/>
    <nd ref="352805387"/>
    <tag k="addr:city" v="München"/>
    <tag k="addr:country" v="DE"/>
    <tag k="addr:housenumber" v="30"/>
    <tag k="addr:postcode" v="81476"/>
    <tag k="addr:street" v="Liesl-Karlstadt-Straße"/>
    <tag k="building" v="yes"/>
    <tag k="source" v="survey"/>
  </way>
  <way id="31525739" version="3" timestamp="2009-08-28T21:12:19Z" uid="36809" user="pfoten_weg_!_" changeset="2295155">
    <nd ref="352805387"/>
    <nd ref="352805381"/>
    <nd ref="352805389"/>
    <nd ref="352805383"/>
    <nd ref="352805387"/>
    <tag k="addr:city" v="München"/>
    <tag k="addr:country" v="DE"/>
    <tag k="addr:housenumber" v="30"/>
    <tag k="addr:postcode" v="81476"/>
    <tag k="addr:street" v="Liesl-Karlstadt-Straße"/>
    <tag k="building" v="yes"/>
    <tag k="discovered_by" v="RambaZamba"/>
    <tag k="source" v="survey"/>
  </way>
  <way id="31525739" version="4" timestamp="2009-08-30T09:31:39Z" uid="156995" user="HampelZamba" changeset="2310659">
    <nd ref="352805387"/>
    <nd ref="352805381"/>
    <nd ref="352805389"/>
    <nd ref="352805383"/>
    <nd ref="352805387"/>
    <tag k="addr:city" v="München"/>
    <tag k="addr:country" v="DE"/>
    <tag k="addr:housenumber" v="30"/>
    <tag k="addr:postcode" v="81476"/>
    <tag k="addr:street" v="Liesl-Karlstadt-Straße"/>
    <tag k="building" v="yes"/>
    <tag k="source" v="survey"/>
  </way>
  <way id="31525739" version="5" timestamp="2009-09-01T10:35:48Z" uid="36809" user="pfoten_weg_!_" changeset="2335754">
    <nd ref="352805387"/>
    <nd ref="352805381"/>
    <nd ref="352805389"/>
    <nd ref="352805383"/>
    <nd ref="352805387"/>
    <tag k="addr:city" v="München"/>
    <tag k="addr:country" v="DE"/>
    <tag k="addr:housenumber" v="30"/>
    <tag k="addr:postcode" v="81476"/>
    <tag k="addr:street" v="Liesl-Karlstadt-Straße"/>
    <tag k="building" v="yes"/>
    <tag k="source" v="survey"/>
  </way>
  <way id="31525739" version="6" timestamp="2009-10-02T20:43:24Z" uid="86259" user="hasse_osm_korinthenkacker" changeset="2717407"/>
  <way id="31525823" version="12" timestamp="2010-03-28T01:07:34Z" uid="20587" user="balrog-kun" changeset="4250871">
    <nd ref="57839383"/>
    <nd ref="57839381"/>
    <nd ref="57791297"/>
    <nd ref="57839379"/>
    <nd ref="57839378"/>
    <nd ref="352804077"/>
    <nd ref="57839377"/>
    <nd ref="352807023"/>
    <nd ref="352807022"/>
    <nd ref="352807021"/>
    <nd ref="352807020"/>
    <nd ref="352807112"/>
    <nd ref="352807019"/>
    <nd ref="352807176"/>
    <nd ref="352807174"/>
    <nd ref="352807274"/>
    <nd ref="352807662"/>
    <nd ref="352807661"/>
    <nd ref="352807659"/>
    <nd ref="352807657"/>
    <nd ref="352807745"/>
    <nd ref="352807744"/>
    <nd ref="352807743"/>
    <nd ref="352807742"/>
    <tag k="created_by" v="Potlatch 0.10f"/>
    <tag k="highway" v="tertiary"/>
    <tag k="name" v="James Donlon Boulevard"/>
    <tag k="oneway" v="yes"/>
    <tag k="tiger:cfcc" v="A41"/>
    <tag k="tiger:county" v="Contra Costa, CA"/>
    <tag k="tiger:name_base" v="James Donlon"/>
    <tag k="tiger:name_type" v="Blvd"/>
    <tag k="tiger:reviewed" v="no"/>
    <tag k="tiger:separated" v="no"/>
    <tag k="tiger:source" v="tiger_import_dch_v0.6_20070809"/>
    <tag k="tiger:tlid" v="192074715:192074725:192068180:192068182:192074728:192068026:192090292:192074740:192068242:192068308:192068204:192113850:192113851:192068493:192068361:192068371:192068329:192090124"/>
  </way>
  <way id="31525865" version="6" timestamp="2010-03-28T01:07:35Z" uid="20587" user="balrog-kun" changeset="4250871">
    <nd ref="57786786"/>
    <nd ref="352808526"/>
    <nd ref="57839333"/>
    <nd ref="352808527"/>
    <nd ref="352808528"/>
    <nd ref="352808530"/>
    <nd ref="57839347"/>
    <nd ref="57839349"/>
    <nd ref="352729350"/>
    <nd ref="57802935"/>
    <nd ref="57839359"/>
    <nd ref="352806723"/>
    <nd ref="352806725"/>
    <nd ref="352806764"/>
    <nd ref="352808704"/>
    <nd ref="352808706"/>
    <nd ref="352808707"/>
    <nd ref="352808870"/>
    <nd ref="352808872"/>
    <nd ref="352808874"/>
    <nd ref="57839383"/>
    <tag k="created_by" v="Potlatch 0.10f"/>
    <tag k="highway" v="tertiary"/>
    <tag k="name" v="James Donlon Boulevard"/>
    <tag k="oneway" v="yes"/>
    <tag k="tiger:cfcc" v="A41"/>
    <tag k="tiger:county" v="Contra Costa, CA"/>
    <tag k="tiger:name_base" v="James Donlon"/>
    <tag k="tiger:name_type" v="Blvd"/>
    <tag k="tiger:reviewed" v="no"/>
    <tag k="tiger:separated" v="no"/>
    <tag k="tiger:source" v="tiger_import_dch_v0.6_20070809"/>
    <tag k="tiger:tlid" v="192074715:192074725:192068180:192068182:192074728:192068026:192090292:192074740:192068242:192068308:192068204:192113850:192113851:192068493:192068361:192068371:192068329:192090124"/>
  </way>
  <way id="31525889" version="2" timestamp="2010-03-30T22:41:15Z" uid="163746" user="anti_bot-nonsense" changeset="4281484">
    <nd ref="352807760"/>
    <nd ref="352807761"/>
    <nd ref="352807762"/>
    <nd ref="352807763"/>
    <nd ref="352807764"/>
    <nd ref="352807766"/>
    <nd ref="352807767"/>
    <nd ref="352807769"/>
    <nd ref="352807760"/>
    <tag k="landuse" v="allotments"/>
    <tag k="name" v="Ogródki działkowe"/>
  </way>
  <way id="31525935" version="2" timestamp="2010-03-30T22:35:48Z" uid="163746" user="anti_bot-nonsense" changeset="4281484">
    <nd ref="352808041"/>
    <nd ref="352808042"/>
    <nd ref="352808043"/>
    <nd ref="352808044"/>
    <nd ref="352808041"/>
    <tag k="landuse" v="allotments"/>
    <tag k="name" v="Ogródki działkowe"/>
  </way>
  <way id="31525485" version="8" timestamp="2012-05-01T22:17:44Z" uid="88909" user="miko101" changeset="11474969">
    <nd ref="142460285"/>
    <nd ref="1606914489"/>
    <nd ref="146644980"/>
    <tag k="highway" v="trunk"/>
    <tag k="incline" v="up"/>
    <tag k="lit" v="yes"/>
    <tag k="name" v="Bolesława Krzywoustego"/>
    <tag k="oneway" v="yes"/>
    <tag k="ref" v="11"/>
    <tag k="source" v="WikiProject Poland/Klasyfikacja dróg"/>
  </way>
  <way id="31525485" version="9" timestamp="2012-08-24T16:06:51Z" uid="88909" user="miko101" changeset="12846594">
    <nd ref="142460285"/>
    <nd ref="1606914489"/>
    <nd ref="146644980"/>
    <tag k="highway" v="trunk"/>
    <tag k="incline" v="up"/>
    <tag k="lanes" v="3"/>
    <tag k="lit" v="yes"/>
    <tag k="name" v="Bolesława Krzywoustego"/>
    <tag k="oneway" v="yes"/>
    <tag k="ref" v="11"/>
    <tag k="source" v="WikiProject Poland/Klasyfikacja dróg"/>
  </way>
  <way id="31525641" version="5" timestamp="2012-07-20T11:55:30Z" uid="722137" user="OSMF Redaction Account" changeset="12374517">
    <nd ref="352804838"/>
    <nd ref="352804841"/>
    <nd ref="352804843"/>
    <nd ref="352804844"/>
    <nd ref="352804847"/>
    <nd ref="352804849"/>
    <nd ref="352804851"/>
    <nd ref="352804854"/>
    <nd ref="352804838"/>
    <tag k="addr:housenumber" v="9 с2"/>
    <tag k="addr:street" v="Газетный переулок"/>
    <tag k="building" v="yes"/>
  </way>
  <way id="31525644" version="6" timestamp="2012-07-20T11:56:19Z" uid="722137" user="OSMF Redaction Account" changeset="12374517">
    <nd ref="352804856"/>
    <nd ref="352804858"/>
    <nd ref="352804860"/>
    <nd ref="352804862"/>
    <nd ref="352804865"/>
    <nd ref="352804867"/>
    <nd ref="352804869"/>
    <nd ref="352804856"/>
    <tag k="addr:housenumber" v="21"/>
    <tag k="addr:street" v="Брюсов переулок"/>
    <tag k="building" v="yes"/>
    <tag k="cladr:code" v="77000000000703600"/>
  </way>
  <way id="31525648" version="4" timestamp="2012-05-10T18:53:39Z" uid="440644" user="markhor" changeset="11561731">
    <nd ref="352804885"/>
    <nd ref="352804893"/>
    <nd ref="1747837582"/>
    <nd ref="352804896"/>
    <nd ref="352804889"/>
    <nd ref="352804885"/>
    <tag k="addr:city" v="Москва"/>
    <tag k="addr:country" v="RU"/>
    <tag k="building" v="yes"/>
    <tag k="cladr:code" v="77000000000287700"/>
  </way>
  <way id="31525648" version="5" timestamp="2012-07-20T11:56:13Z" uid="722137" user="OSMF Redaction Account" changeset="12374517">
    <nd ref="352804885"/>
    <nd ref="352804893"/>
    <nd ref="1747837582"/>
    <nd ref="352804896"/>
    <nd ref="352804889"/>
    <nd ref="352804885"/>
    <tag k="building" v="yes"/>
    <tag k="cladr:code" v="77000000000287700"/>
  </way>
  <way id="31525650" version="4" timestamp="2012-07-20T11:55:42Z" uid="722137" user="OSMF Redaction Account" changeset="12374517">
    <nd ref="352804901"/>
    <nd ref="352804912"/>
    <nd ref="352804916"/>
    <nd ref="352804907"/>
    <nd ref="352804901"/>
    <tag k="addr:housenumber" v="9 c5"/>
    <tag k="addr:street" v="Газетный переулок"/>
    <tag k="building" v="yes"/>
  </way>
  <way id="31525652" version="7" timestamp="2012-07-20T11:56:12Z" uid="722137" user="OSMF Redaction Account" changeset="12374517">
    <nd ref="352804924"/>
    <nd ref="352804930"/>
    <nd ref="352804934"/>
    <nd ref="352804938"/>
    <nd ref="352804944"/>
    <nd ref="352804948"/>
    <nd ref="352804952"/>
    <nd ref="352804955"/>
    <nd ref="352804924"/>
    <tag k="addr:housenumber" v="8-10"/>
    <tag k="addr:street" v="Брюсов переулок"/>
    <tag k="building" v="yes"/>
    <tag k="cladr:code" v="77000000000703600"/>
  </way>
  <way id="31525653" version="6" timestamp="2012-07-20T11:56:23Z" uid="722137" user="OSMF Redaction Account" changeset="12374517">
    <nd ref="352804958"/>
    <nd ref="352804988"/>
    <nd ref="352804983"/>
    <nd ref="352804972"/>
    <nd ref="352805024"/>
    <nd ref="352805018"/>
    <nd ref="352804976"/>
    <nd ref="352805012"/>
    <nd ref="352804965"/>
    <nd ref="352805006"/>
    <nd ref="352804958"/>
    <tag k="addr:housenumber" v="19"/>
    <tag k="addr:street" v="Брюсов переулок"/>
    <tag k="building" v="yes"/>
    <tag k="cladr:code" v="77000000000703600"/>
  </way>
  <way id="31525655" version="5" timestamp="2012-07-20T11:55:34Z" uid="722137" user="OSMF Redaction Account" changeset="12374517">
    <nd ref="352805031"/>
    <nd ref="352805040"/>
    <nd ref="352805047"/>
    <nd ref="352805052"/>
    <nd ref="352805056"/>
    <nd ref="352805059"/>
    <nd ref="352805063"/>
    <nd ref="352805073"/>
    <nd ref="352805082"/>
    <nd ref="352805087"/>
    <nd ref="352805090"/>
    <nd ref="352805099"/>
    <nd ref="352805031"/>
    <tag k="addr:housenumber" v="7"/>
    <tag k="addr:street" v="Брюсов переулок"/>
    <tag k="building" v="yes"/>
    <tag k="cladr:code" v="77000000000711100"/>
  </way>
  <way id="31525889" version="3" timestamp="2012-06-06T10:45:07Z" uid="641600" user="piottr" changeset="11814553">
    <nd ref="352807760"/>
    <nd ref="352807761"/>
    <nd ref="352807762"/>
    <nd ref="352807763"/>
    <nd ref="352807764"/>
    <nd ref="352807766"/>
    <nd ref="352807767"/>
    <nd ref="1777888013"/>
    <nd ref="1777888021"/>
    <nd ref="352807769"/>
    <nd ref="1777888050"/>
    <nd ref="1777888099"/>
    <nd ref="352807760"/>
    <tag k="landuse" v="allotments"/>
    <tag k="name" v="Ogródki działkowe"/>
  </way>
  <way id="31525935" version="3" timestamp="2012-06-06T09:26:13Z" uid="641600" user="piottr" changeset="11813928">
    <nd ref="352808041"/>
    <nd ref="352808042"/>
    <nd ref="1777856148"/>
    <nd ref="1777856141"/>
    <nd ref="1777856123"/>
    <nd ref="352808043"/>
    <nd ref="352808044"/>
    <nd ref="352808041"/>
    <tag k="landuse" v="allotments"/>
    <tag k="name" v="Ogródki działkowe"/>
  </way>
</osm>
