<?xml version='1.0' encoding='UTF-8'?>
<osm version="0.6" generator="libosmium/2.20.0">
  <way id="31534033" version="4" timestamp="2010-07-09T05:16:23Z" uid="74617" user="JohnSmith" changeset="5170986">
    <nd ref="70523088"/>
    <nd ref="771076481"/>
    <nd ref="70523089"/>
    <tag k="highway" v="residential"/>
    <tag k="lanes" v="2"/>
    <tag k="maxspeed" v="50"/>
    <tag k="maxspeed:source" v="default residential speed limit in Australia"/>
    <tag k="name" v="Wattle Street"/>
    <tag k="source" v="Yahoo"/>
    <tag k="source:name" v="Collins 1936"/>
    <tag k="surface" v="paved"/>
  </way>
  <way id="31534033" version="5" timestamp="2012-01-18T07:54:22Z" uid="147510" user="woodpeck_fixbot" changeset="10424702">
    <nd ref="70523088"/>
    <nd ref="771076481"/>
    <nd ref="70523089"/>
    <tag k="highway" v="residential"/>
    <tag k="lanes" v="2"/>
    <tag k="name" v="Wattle Street"/>
    <tag k="source" v="Yahoo"/>
    <tag k="source:name" v="Collins 1936"/>
    <tag k="surface" v="paved"/>
  </way>
  <way id="31534296" version="3" timestamp="2010-07-09T05:14:05Z" uid="74617" user="JohnSmith" changeset="5170986">
    <nd ref="70530409"/>
    <nd ref="61736603"/>
    <tag k="highway" v="residential"/>
    <tag k="maxspeed" v="50"/>
    <tag k="maxspeed:source" v="default residential speed limit in Australia"/>
    <tag k="name" v="Grenville Street"/>
    <tag k="source" v="Yahoo"/>
    <tag k="source:name" v="Collins 1936"/>
  </way>
  <way id="31534296" version="4" timestamp="2012-01-18T07:54:24Z" uid="147510" user="woodpeck_fixbot" changeset="10424702">
    <nd ref="70530409"/>
    <nd ref="61736603"/>
    <tag k="highway" v="residential"/>
    <tag k="name" v="Grenville Street"/>
    <tag k="source" v="Yahoo"/>
    <tag k="source:name" v="Collins 1936"/>
  </way>
  <way id="31534347" version="4" timestamp="2010-07-09T05:15:40Z" uid="74617" user="JohnSmith" changeset="5170986">
    <nd ref="272360506"/>
    <nd ref="352888551"/>
    <nd ref="352888552"/>
    <nd ref="352888553"/>
    <tag k="highway" v="residential"/>
    <tag k="maxspeed" v="50"/>
    <tag k="maxspeed:source" v="default residential speed limit in Australia"/>
    <tag k="name" v="Goodard Court"/>
  </way>
  <way id="31534347" version="5" timestamp="2012-01-18T07:54:25Z" uid="147510" user="woodpeck_fixbot" changeset="10424702">
    <nd ref="272360506"/>
    <nd ref="352888551"/>
    <nd ref="352888552"/>
    <nd ref="352888553"/>
    <tag k="highway" v="residential"/>
    <tag k="name" v="Goodard Court"/>
  </way>
  <way id="31534559" version="4" timestamp="2010-07-09T05:16:38Z" uid="74617" user="JohnSmith" changeset="5170986">
    <nd ref="293137072"/>
    <nd ref="352888793"/>
    <nd ref="352888984"/>
    <nd ref="352888827"/>
    <nd ref="352888794"/>
    <tag k="highway" v="residential"/>
    <tag k="maxspeed" v="50"/>
    <tag k="maxspeed:source" v="default residential speed limit in Australia"/>
    <tag k="name" v="Ashley Street"/>
    <tag k="source" v="Yahoo"/>
    <tag k="source:name" v="Collins 1936"/>
  </way>
  <way id="31534559" version="5" timestamp="2012-01-18T07:54:26Z" uid="147510" user="woodpeck_fixbot" changeset="10424702">
    <nd ref="293137072"/>
    <nd ref="352888793"/>
    <nd ref="352888984"/>
    <nd ref="352888827"/>
    <nd ref="352888794"/>
    <tag k="highway" v="residential"/>
    <tag k="name" v="Ashley Street"/>
    <tag k="source" v="Yahoo"/>
    <tag k="source:name" v="Collins 1936"/>
  </way>
  <way id="31534562" version="2" timestamp="2010-07-09T05:12:48Z" uid="74617" user="JohnSmith" changeset="5170986">
    <nd ref="352888827"/>
    <nd ref="352888874"/>
    <tag k="highway" v="residential"/>
    <tag k="maxspeed" v="50"/>
    <tag k="maxspeed:source" v="default residential speed limit in Australia"/>
    <tag k="name" v="Fortune Street"/>
    <tag k="source" v="Yahoo"/>
    <tag k="source:name" v="Collins 1936"/>
  </way>
  <way id="31534562" version="3" timestamp="2011-10-05T12:09:54Z" uid="11111" user="melb_guy" changeset="9477035">
    <nd ref="352888827"/>
    <nd ref="1455845583"/>
    <nd ref="352888874"/>
    <tag k="highway" v="residential"/>
    <tag k="maxspeed" v="50"/>
    <tag k="maxspeed:source" v="default residential speed limit in Australia"/>
    <tag k="name" v="Fortune Street"/>
    <tag k="source" v="Yahoo"/>
    <tag k="source:name" v="Collins 1936"/>
  </way>
  <way id="31534562" version="4" timestamp="2012-01-18T07:54:27Z" uid="147510" user="woodpeck_fixbot" changeset="10424702">
    <nd ref="352888827"/>
    <nd ref="1455845583"/>
    <nd ref="352888874"/>
    <tag k="highway" v="residential"/>
    <tag k="name" v="Fortune Street"/>
    <tag k="source" v="Yahoo"/>
    <tag k="source:name" v="Collins 1936"/>
  </way>
  <way id="31534578" version="3" timestamp="2010-07-09T05:17:42Z" uid="74617" user="JohnSmith" changeset="5170986">
    <nd ref="352888984"/>
    <nd ref="352889112"/>
    <nd ref="352889083"/>
    <tag k="highway" v="residential"/>
    <tag k="maxspeed" v="50"/>
    <tag k="maxspeed:source" v="default residential speed limit in Australia"/>
    <tag k="name" v="Caroline Street"/>
    <tag k="source" v="Yahoo"/>
    <tag k="source:name" v="Collins 1936"/>
  </way>
  <way id="31534578" version="4" timestamp="2011-10-05T12:09:54Z" uid="11111" user="melb_guy" changeset="9477035">
    <nd ref="352888984"/>
    <nd ref="352889112"/>
    <nd ref="1455845560"/>
    <nd ref="352889083"/>
    <tag k="highway" v="residential"/>
    <tag k="maxspeed" v="50"/>
    <tag k="maxspeed:source" v="default residential speed limit in Australia"/>
    <tag k="name" v="Caroline Street"/>
    <tag k="source" v="Yahoo"/>
    <tag k="source:name" v="Collins 1936"/>
  </way>
  <way id="31534578" version="5" timestamp="2012-01-18T07:54:28Z" uid="147510" user="woodpeck_fixbot" changeset="10424702">
    <nd ref="352888984"/>
    <nd ref="352889112"/>
    <nd ref="1455845560"/>
    <nd ref="352889083"/>
    <tag k="highway" v="residential"/>
    <tag k="name" v="Caroline Street"/>
    <tag k="source" v="Yahoo"/>
    <tag k="source:name" v="Collins 1936"/>
  </way>
  <way id="31534583" version="3" timestamp="2010-07-09T05:17:14Z" uid="74617" user="JohnSmith" changeset="5170986">
    <nd ref="352889112"/>
    <nd ref="352889133"/>
    <tag k="highway" v="residential"/>
    <tag k="maxspeed" v="50"/>
    <tag k="maxspeed:source" v="default residential speed limit in Australia"/>
    <tag k="name" v="Alberta Avenue"/>
  </way>
  <way id="31534583" version="4" timestamp="2012-01-18T07:54:29Z" uid="147510" user="woodpeck_fixbot" changeset="10424702">
    <nd ref="352889112"/>
    <nd ref="352889133"/>
    <tag k="highway" v="residential"/>
    <tag k="name" v="Alberta Avenue"/>
  </way>
  <way id="31534597" version="4" timestamp="2010-07-09T05:13:11Z" uid="74617" user="JohnSmith" changeset="5170986">
    <nd ref="352888457"/>
    <nd ref="352889271"/>
    <nd ref="352889272"/>
    <nd ref="719349154"/>
    <nd ref="352889273"/>
    <tag k="highway" v="residential"/>
    <tag k="maxspeed" v="50"/>
    <tag k="maxspeed:source" v="default residential speed limit in Australia"/>
    <tag k="name" v="Packham Street"/>
  </way>
  <way id="31534597" version="5" timestamp="2012-01-18T07:54:30Z" uid="147510" user="woodpeck_fixbot" changeset="10424702">
    <nd ref="352888457"/>
    <nd ref="352889271"/>
    <nd ref="352889272"/>
    <nd ref="719349154"/>
    <nd ref="352889273"/>
    <tag k="highway" v="residential"/>
    <tag k="name" v="Packham Street"/>
  </way>
  <way id="31534602" version="3" timestamp="2010-07-09T05:15:49Z" uid="74617" user="JohnSmith" changeset="5170986">
    <nd ref="352889276"/>
    <nd ref="352889341"/>
    <nd ref="352889342"/>
    <nd ref="352889343"/>
    <nd ref="352889344"/>
    <tag k="highway" v="residential"/>
    <tag k="maxspeed" v="50"/>
    <tag k="maxspeed:source" v="default residential speed limit in Australia"/>
    <tag k="name" v="Werder Street"/>
  </way>
  <way id="31534602" version="4" timestamp="2012-01-18T07:54:31Z" uid="147510" user="woodpeck_fixbot" changeset="10424702">
    <nd ref="352889276"/>
    <nd ref="352889341"/>
    <nd ref="352889342"/>
    <nd ref="352889343"/>
    <nd ref="352889344"/>
    <tag k="highway" v="residential"/>
    <tag k="name" v="Werder Street"/>
  </way>
  <way id="31534603" version="6" timestamp="2010-07-09T05:14:08Z" uid="74617" user="JohnSmith" changeset="5170986">
    <nd ref="352889349"/>
    <nd ref="352889460"/>
    <nd ref="352889417"/>
    <nd ref="352889438"/>
    <nd ref="352889353"/>
    <tag k="highway" v="residential"/>
    <tag k="maxspeed" v="50"/>
    <tag k="maxspeed:source" v="default residential speed limit in Australia"/>
    <tag k="name" v="Twyford Street"/>
  </way>
  <way id="31534603" version="7" timestamp="2012-01-18T07:54:33Z" uid="147510" user="woodpeck_fixbot" changeset="10424702">
    <nd ref="352889349"/>
    <nd ref="352889460"/>
    <nd ref="352889417"/>
    <nd ref="352889438"/>
    <nd ref="352889353"/>
    <tag k="highway" v="residential"/>
    <tag k="name" v="Twyford Street"/>
  </way>
  <way id="31534605" version="7" timestamp="2010-07-09T05:18:41Z" uid="74617" user="JohnSmith" changeset="5170986">
    <nd ref="352889370"/>
    <nd ref="352889456"/>
    <nd ref="352889434"/>
    <nd ref="352889493"/>
    <nd ref="352889379"/>
    <tag k="highway" v="residential"/>
    <tag k="maxspeed" v="50"/>
    <tag k="maxspeed:source" v="default residential speed limit in Australia"/>
    <tag k="name" v="Marshall Road"/>
  </way>
  <way id="31534605" version="8" timestamp="2012-01-18T07:54:34Z" uid="147510" user="woodpeck_fixbot" changeset="10424702">
    <nd ref="352889370"/>
    <nd ref="352889456"/>
    <nd ref="352889434"/>
    <nd ref="352889493"/>
    <nd ref="352889379"/>
    <tag k="highway" v="residential"/>
    <tag k="name" v="Marshall Road"/>
  </way>
  <way id="31534607" version="5" timestamp="2010-07-09T05:15:20Z" uid="74617" user="JohnSmith" changeset="5170986">
    <nd ref="352889399"/>
    <nd ref="582558484"/>
    <nd ref="352889435"/>
    <nd ref="352889411"/>
    <tag k="highway" v="residential"/>
    <tag k="maxspeed" v="50"/>
    <tag k="maxspeed:source" v="default residential speed limit in Australia"/>
    <tag k="name" v="Karen Street"/>
  </way>
  <way id="31534607" version="6" timestamp="2012-01-18T07:54:35Z" uid="147510" user="woodpeck_fixbot" changeset="10424702">
    <nd ref="352889399"/>
    <nd ref="582558484"/>
    <nd ref="352889435"/>
    <nd ref="352889411"/>
    <tag k="highway" v="residential"/>
    <tag k="name" v="Karen Street"/>
  </way>
  <way id="31534608" version="3" timestamp="2010-07-09T05:18:30Z" uid="74617" user="JohnSmith" changeset="5170986">
    <nd ref="352889417"/>
    <nd ref="352889434"/>
    <nd ref="352889435"/>
    <tag k="highway" v="residential"/>
    <tag k="maxspeed" v="50"/>
    <tag k="maxspeed:source" v="default residential speed limit in Australia"/>
    <tag k="name" v="Warwick Street"/>
  </way>
  <way id="31534608" version="4" timestamp="2012-01-18T07:54:36Z" uid="147510" user="woodpeck_fixbot" changeset="10424702">
    <nd ref="352889417"/>
    <nd ref="352889434"/>
    <nd ref="352889435"/>
    <tag k="highway" v="residential"/>
    <tag k="name" v="Warwick Street"/>
  </way>
  <way id="31534610" version="3" timestamp="2010-07-09T05:15:09Z" uid="74617" user="JohnSmith" changeset="5170986">
    <nd ref="352889438"/>
    <nd ref="352889456"/>
    <tag k="highway" v="residential"/>
    <tag k="maxspeed" v="50"/>
    <tag k="maxspeed:source" v="default residential speed limit in Australia"/>
    <tag k="name" v="Essex Street"/>
  </way>
  <way id="31534610" version="4" timestamp="2012-01-18T07:54:38Z" uid="147510" user="woodpeck_fixbot" changeset="10424702">
    <nd ref="352889438"/>
    <nd ref="352889456"/>
    <tag k="highway" v="residential"/>
    <tag k="name" v="Essex Street"/>
  </way>
  <way id="31534614" version="3" timestamp="2010-07-09T05:16:23Z" uid="74617" user="JohnSmith" changeset="5170986">
    <nd ref="352889460"/>
    <nd ref="352889493"/>
    <tag k="highway" v="residential"/>
    <tag k="maxspeed" v="50"/>
    <tag k="maxspeed:source" v="default residential speed limit in Australia"/>
    <tag k="name" v="Sussex Street"/>
  </way>
  <way id="31534614" version="4" timestamp="2012-01-18T07:54:39Z" uid="147510" user="woodpeck_fixbot" changeset="10424702">
    <nd ref="352889460"/>
    <nd ref="352889493"/>
    <tag k="highway" v="residential"/>
    <tag k="name" v="Sussex Street"/>
  </way>
  <way id="31534616" version="3" timestamp="2010-07-09T05:16:07Z" uid="74617" user="JohnSmith" changeset="5170986">
    <nd ref="352889498"/>
    <nd ref="352889520"/>
    <nd ref="352889521"/>
    <nd ref="352889522"/>
    <nd ref="352889523"/>
    <nd ref="352889353"/>
    <tag k="highway" v="residential"/>
    <tag k="maxspeed" v="50"/>
    <tag k="maxspeed:source" v="default residential speed limit in Australia"/>
    <tag k="name" v="Twyford Street"/>
  </way>
  <way id="31534616" version="4" timestamp="2012-01-18T07:54:40Z" uid="147510" user="woodpeck_fixbot" changeset="10424702">
    <nd ref="352889498"/>
    <nd ref="352889520"/>
    <nd ref="352889521"/>
    <nd ref="352889522"/>
    <nd ref="352889523"/>
    <nd ref="352889353"/>
    <tag k="highway" v="residential"/>
    <tag k="name" v="Twyford Street"/>
  </way>
  <way id="31534618" version="3" timestamp="2010-07-09T05:12:38Z" uid="74617" user="JohnSmith" changeset="5170986">
    <nd ref="352889523"/>
    <nd ref="352889536"/>
    <tag k="highway" v="residential"/>
    <tag k="maxspeed" v="50"/>
    <tag k="maxspeed:source" v="default residential speed limit in Australia"/>
    <tag k="name" v="Taldra Street"/>
  </way>
  <way id="31534618" version="4" timestamp="2012-01-18T07:54:42Z" uid="147510" user="woodpeck_fixbot" changeset="10424702">
    <nd ref="352889523"/>
    <nd ref="352889536"/>
    <tag k="highway" v="residential"/>
    <tag k="name" v="Taldra Street"/>
  </way>
  <way id="31534619" version="3" timestamp="2010-07-09T05:18:59Z" uid="74617" user="JohnSmith" changeset="5170986">
    <nd ref="352889521"/>
    <nd ref="352889555"/>
    <tag k="highway" v="residential"/>
    <tag k="maxspeed" v="50"/>
    <tag k="maxspeed:source" v="default residential speed limit in Australia"/>
    <tag k="name" v="Marama Street"/>
  </way>
  <way id="31534619" version="4" timestamp="2012-01-18T07:54:44Z" uid="147510" user="woodpeck_fixbot" changeset="10424702">
    <nd ref="352889521"/>
    <nd ref="352889555"/>
    <tag k="highway" v="residential"/>
    <tag k="name" v="Marama Street"/>
  </way>
  <way id="31534626" version="3" timestamp="2010-07-09T05:16:26Z" uid="74617" user="JohnSmith" changeset="5170986">
    <nd ref="352889590"/>
    <nd ref="352889680"/>
    <nd ref="352889681"/>
    <nd ref="352889682"/>
    <nd ref="352889683"/>
    <nd ref="352889684"/>
    <nd ref="352889685"/>
    <nd ref="352889686"/>
    <nd ref="352889590"/>
    <tag k="highway" v="residential"/>
    <tag k="junction" v="roundabout"/>
    <tag k="maxspeed" v="50"/>
    <tag k="maxspeed:source" v="default residential speed limit in Australia"/>
  </way>
  <way id="31534626" version="4" timestamp="2012-01-18T07:54:46Z" uid="147510" user="woodpeck_fixbot" changeset="10424702">
    <nd ref="352889590"/>
    <nd ref="352889680"/>
    <nd ref="352889681"/>
    <nd ref="352889682"/>
    <nd ref="352889683"/>
    <nd ref="352889684"/>
    <nd ref="352889685"/>
    <nd ref="352889686"/>
    <nd ref="352889590"/>
    <tag k="highway" v="residential"/>
    <tag k="junction" v="roundabout"/>
  </way>
  <way id="31534628" version="3" timestamp="2010-07-09T05:13:03Z" uid="74617" user="JohnSmith" changeset="5170986">
    <nd ref="352889683"/>
    <nd ref="352889708"/>
    <tag k="highway" v="residential"/>
    <tag k="maxspeed" v="50"/>
    <tag k="maxspeed:source" v="default residential speed limit in Australia"/>
    <tag k="name" v="Heathfield Rise"/>
  </way>
  <way id="31534628" version="4" timestamp="2012-01-18T07:54:48Z" uid="147510" user="woodpeck_fixbot" changeset="10424702">
    <nd ref="352889683"/>
    <nd ref="352889708"/>
    <tag k="highway" v="residential"/>
    <tag k="name" v="Heathfield Rise"/>
  </way>
  <way id="31534631" version="7" timestamp="2010-07-09T05:16:01Z" uid="74617" user="JohnSmith" changeset="5170986">
    <nd ref="352889681"/>
    <nd ref="352889890"/>
    <nd ref="352889872"/>
    <nd ref="352889844"/>
    <nd ref="352889811"/>
    <tag k="highway" v="residential"/>
    <tag k="maxspeed" v="50"/>
    <tag k="maxspeed:source" v="default residential speed limit in Australia"/>
    <tag k="name" v="Second Avenue"/>
  </way>
  <way id="31534631" version="8" timestamp="2012-01-18T07:54:49Z" uid="147510" user="woodpeck_fixbot" changeset="10424702">
    <nd ref="352889681"/>
    <nd ref="352889890"/>
    <nd ref="352889872"/>
    <nd ref="352889844"/>
    <nd ref="352889811"/>
    <tag k="highway" v="residential"/>
    <tag k="name" v="Second Avenue"/>
  </way>
  <way id="31534633" version="3" timestamp="2010-04-07T13:29:32Z" uid="20587" user="balrog-kun" changeset="4353646">
    <nd ref="227503782"/>
    <nd ref="227503784"/>
    <nd ref="227503788"/>
    <nd ref="227503790"/>
    <nd ref="227503797"/>
    <nd ref="572076980"/>
    <nd ref="227503802"/>
    <nd ref="227503811"/>
    <tag k="highway" v="residential"/>
    <tag k="name" v="1st Street"/>
    <tag k="tiger:cfcc" v="A41"/>
    <tag k="tiger:county" v="Nueces, TX"/>
    <tag k="tiger:name_base" v="1st"/>
    <tag k="tiger:name_type" v="St"/>
    <tag k="tiger:reviewed" v="no"/>
    <tag k="tiger:separated" v="no"/>
    <tag k="tiger:source" v="tiger_import_dch_v0.6_20070830"/>
    <tag k="tiger:tlid" v="178523961:178523975:178523978:178546841:178522713:178522955:178522959:178523955"/>
  </way>
  <way id="31534636" version="5" timestamp="2010-07-09T05:18:35Z" uid="74617" user="JohnSmith" changeset="5170986">
    <nd ref="352889820"/>
    <nd ref="440591853"/>
    <nd ref="352889844"/>
    <nd ref="440591970"/>
    <nd ref="352889845"/>
    <tag k="highway" v="residential"/>
    <tag k="maxspeed" v="50"/>
    <tag k="maxspeed:source" v="default residential speed limit in Australia"/>
    <tag k="name" v="Cherry Orchard Rise"/>
  </way>
  <way id="31534636" version="6" timestamp="2012-01-18T07:54:50Z" uid="147510" user="woodpeck_fixbot" changeset="10424702">
    <nd ref="352889820"/>
    <nd ref="440591853"/>
    <nd ref="352889844"/>
    <nd ref="440591970"/>
    <nd ref="352889845"/>
    <tag k="highway" v="residential"/>
    <tag k="name" v="Cherry Orchard Rise"/>
  </way>
  <way id="31534637" version="2" timestamp="2010-04-07T13:29:32Z" uid="20587" user="balrog-kun" changeset="4353646">
    <nd ref="227503773"/>
    <nd ref="227503778"/>
    <tag k="created_by" v="Potlatch 0.10f"/>
    <tag k="highway" v="residential"/>
    <tag k="name" v="1st Street"/>
    <tag k="tiger:cfcc" v="A41"/>
    <tag k="tiger:county" v="Nueces, TX"/>
    <tag k="tiger:name_base" v="1st"/>
    <tag k="tiger:name_type" v="St"/>
    <tag k="tiger:reviewed" v="no"/>
    <tag k="tiger:separated" v="no"/>
    <tag k="tiger:source" v="tiger_import_dch_v0.6_20070830"/>
    <tag k="tiger:tlid" v="178523961:178523975:178523978:178546841:178522713:178522955:178522959:178523955"/>
  </way>
  <way id="31534638" version="4" timestamp="2010-07-09T05:15:13Z" uid="74617" user="JohnSmith" changeset="5170986">
    <nd ref="352889849"/>
    <nd ref="352889872"/>
    <nd ref="352889873"/>
    <tag k="highway" v="residential"/>
    <tag k="maxspeed" v="50"/>
    <tag k="maxspeed:source" v="default residential speed limit in Australia"/>
    <tag k="name" v="Toogoods Rise"/>
  </way>
  <way id="31534638" version="5" timestamp="2012-01-18T07:54:51Z" uid="147510" user="woodpeck_fixbot" changeset="10424702">
    <nd ref="352889849"/>
    <nd ref="352889872"/>
    <nd ref="352889873"/>
    <tag k="highway" v="residential"/>
    <tag k="name" v="Toogoods Rise"/>
  </way>
  <way id="31534640" version="3" timestamp="2010-07-09T05:16:45Z" uid="74617" user="JohnSmith" changeset="5170986">
    <nd ref="352889875"/>
    <nd ref="352889890"/>
    <tag k="highway" v="residential"/>
    <tag k="maxspeed" v="50"/>
    <tag k="maxspeed:source" v="default residential speed limit in Australia"/>
    <tag k="name" v="Luther Street"/>
  </way>
  <way id="31534640" version="4" timestamp="2012-01-18T07:54:52Z" uid="147510" user="woodpeck_fixbot" changeset="10424702">
    <nd ref="352889875"/>
    <nd ref="352889890"/>
    <tag k="highway" v="residential"/>
    <tag k="name" v="Luther Street"/>
  </way>
  <way id="31534642" version="3" timestamp="2010-07-09T05:13:21Z" uid="74617" user="JohnSmith" changeset="5170986">
    <nd ref="352889900"/>
    <nd ref="352889933"/>
    <tag k="highway" v="residential"/>
    <tag k="maxspeed" v="50"/>
    <tag k="maxspeed:source" v="default residential speed limit in Australia"/>
    <tag k="name" v="Vista Court"/>
  </way>
  <way id="31534642" version="4" timestamp="2012-01-18T07:54:54Z" uid="147510" user="woodpeck_fixbot" changeset="10424702">
    <nd ref="352889900"/>
    <nd ref="352889933"/>
    <tag k="highway" v="residential"/>
    <tag k="name" v="Vista Court"/>
  </way>
  <way id="31534649" version="7" timestamp="2010-03-20T00:32:06Z" uid="110593" user="esetzer" changeset="4175842">
    <nd ref="352890045"/>
    <nd ref="352890046"/>
    <nd ref="352890047"/>
    <nd ref="352890048"/>
    <nd ref="352890049"/>
    <nd ref="352890051"/>
    <nd ref="352890052"/>
    <nd ref="352890053"/>
    <nd ref="352890054"/>
    <nd ref="352890055"/>
    <nd ref="352890056"/>
    <nd ref="352887753"/>
    <tag k="created_by" v="Potlatch 0.10f"/>
    <tag k="highway" v="motorway"/>
    <tag k="maxheight" v="191inches"/>
    <tag k="name" v="Belt Route"/>
    <tag k="oneway" v="yes"/>
    <tag k="ref" v="I-215"/>
    <tag k="source:maxheight" v="sign"/>
  </way>
  <way id="31534649" version="8" timestamp="2011-02-26T06:17:50Z" uid="207745" user="NE2" changeset="7396724">
    <nd ref="352890045"/>
    <nd ref="352890046"/>
    <nd ref="352890047"/>
    <nd ref="352890048"/>
    <nd ref="352890049"/>
    <nd ref="352890051"/>
    <nd ref="352890052"/>
    <nd ref="352890053"/>
    <nd ref="352890054"/>
    <nd ref="352890055"/>
    <nd ref="352890056"/>
    <nd ref="352887753"/>
    <tag k="highway" v="motorway"/>
    <tag k="maxheight" v="191inches"/>
    <tag k="name" v="Belt Route"/>
    <tag k="oneway" v="yes"/>
    <tag k="ref" v="I 215"/>
    <tag k="source:maxheight" v="sign"/>
  </way>
  <way id="31534649" version="9" timestamp="2011-03-24T09:58:29Z" uid="207745" user="NE2" changeset="7654300">
    <nd ref="352890045"/>
    <nd ref="352890046"/>
    <nd ref="352890047"/>
    <nd ref="352890048"/>
    <nd ref="352890049"/>
    <nd ref="352890051"/>
    <nd ref="352890052"/>
    <nd ref="352890053"/>
    <nd ref="352890054"/>
    <nd ref="352890055"/>
    <nd ref="352890056"/>
    <nd ref="352887753"/>
    <tag k="highway" v="motorway"/>
    <tag k="maxheight" v="191inches"/>
    <tag k="name" v="Belt Route"/>
    <tag k="old_ref" v="SR 5"/>
    <tag k="oneway" v="yes"/>
    <tag k="ref" v="I 215"/>
    <tag k="source:maxheight" v="sign"/>
  </way>
  <way id="31534649" version="10" timestamp="2011-08-04T10:23:50Z" uid="207745" user="NE2" changeset="8918286">
    <nd ref="352890045"/>
    <nd ref="352890046"/>
    <nd ref="352890047"/>
    <nd ref="352890048"/>
    <nd ref="352890049"/>
    <nd ref="352890051"/>
    <nd ref="352890052"/>
    <nd ref="352890053"/>
    <nd ref="352890054"/>
    <tag k="highway" v="motorway"/>
    <tag k="lanes" v="3"/>
    <tag k="maxheight" v="191inches"/>
    <tag k="name" v="Belt Route"/>
    <tag k="old_ref" v="SR 5"/>
    <tag k="oneway" v="yes"/>
    <tag k="ref" v="I 215"/>
    <tag k="source:maxheight" v="sign"/>
  </way>
  <way id="31534649" version="11" timestamp="2011-10-16T03:28:31Z" uid="207745" user="NE2" changeset="9568940">
    <nd ref="352890045"/>
    <nd ref="352890046"/>
    <nd ref="352890047"/>
    <nd ref="352890048"/>
    <nd ref="352890049"/>
    <nd ref="352890051"/>
    <nd ref="352890052"/>
    <nd ref="352890053"/>
    <nd ref="352890054"/>
    <tag k="bicycle" v="no"/>
    <tag k="highway" v="motorway"/>
    <tag k="lanes" v="3"/>
    <tag k="maxheight" v="191inches"/>
    <tag k="name" v="Belt Route"/>
    <tag k="old_ref" v="SR 5"/>
    <tag k="oneway" v="yes"/>
    <tag k="ref" v="I 215"/>
    <tag k="source:maxheight" v="sign"/>
  </way>
  <way id="31534649" version="12" timestamp="2011-12-05T20:05:02Z" uid="207745" user="NE2" changeset="10045043">
    <nd ref="352890045"/>
    <nd ref="352890046"/>
    <nd ref="352890047"/>
    <nd ref="352890048"/>
    <nd ref="352890049"/>
    <nd ref="352890051"/>
    <nd ref="352890052"/>
    <nd ref="352890053"/>
    <nd ref="352890054"/>
    <tag k="bicycle" v="no"/>
    <tag k="hgv" v="designated"/>
    <tag k="highway" v="motorway"/>
    <tag k="lanes" v="3"/>
    <tag k="maxheight" v="191inches"/>
    <tag k="name" v="Belt Route"/>
    <tag k="old_ref" v="SR 5"/>
    <tag k="oneway" v="yes"/>
    <tag k="ref" v="I 215"/>
    <tag k="source:maxheight" v="sign"/>
  </way>
  <way id="31534910" version="4" timestamp="2010-03-20T00:31:59Z" uid="110593" user="esetzer" changeset="4175842">
    <nd ref="352890192"/>
    <nd ref="352891609"/>
    <nd ref="352891610"/>
    <nd ref="352891611"/>
    <nd ref="352891612"/>
    <nd ref="352891613"/>
    <nd ref="352891614"/>
    <nd ref="352891615"/>
    <nd ref="352891491"/>
    <tag k="created_by" v="Potlatch 0.10f"/>
    <tag k="highway" v="motorway_link"/>
    <tag k="maxheight" v="191inches"/>
    <tag k="oneway" v="yes"/>
  </way>
  <way id="31534910" version="5" timestamp="2010-11-30T05:45:15Z" uid="65769" user="Val" changeset="6491706">
    <nd ref="352890192"/>
    <nd ref="352891609"/>
    <nd ref="352891610"/>
    <nd ref="352891611"/>
    <nd ref="352891612"/>
    <nd ref="352891613"/>
    <nd ref="352891614"/>
    <nd ref="352891615"/>
    <nd ref="352891491"/>
    <tag k="highway" v="motorway_link"/>
    <tag k="maxheight" v="191inches"/>
    <tag k="oneway" v="yes"/>
  </way>
  <way id="31534910" version="6" timestamp="2011-10-16T03:46:11Z" uid="207745" user="NE2" changeset="9568940">
    <nd ref="352890192"/>
    <nd ref="352891609"/>
    <nd ref="352891610"/>
    <nd ref="352891611"/>
    <nd ref="352891612"/>
    <nd ref="352891613"/>
    <nd ref="352891614"/>
    <nd ref="352891615"/>
    <nd ref="352891491"/>
    <tag k="bicycle" v="no"/>
    <tag k="highway" v="motorway_link"/>
    <tag k="maxheight" v="191inches"/>
    <tag k="oneway" v="yes"/>
  </way>
  <way id="31534919" version="2" timestamp="2010-03-20T00:32:00Z" uid="110593" user="esetzer" changeset="4175842">
    <nd ref="352891609"/>
    <nd ref="352892055"/>
    <nd ref="352892056"/>
    <nd ref="352892057"/>
    <nd ref="352892058"/>
    <nd ref="352892059"/>
    <nd ref="352892060"/>
    <nd ref="352892061"/>
    <nd ref="352892062"/>
    <nd ref="352892063"/>
    <nd ref="352892064"/>
    <nd ref="352892065"/>
    <nd ref="352892067"/>
    <nd ref="352892068"/>
    <nd ref="352892069"/>
    <nd ref="352892070"/>
    <nd ref="352892071"/>
    <nd ref="352892072"/>
    <nd ref="352892073"/>
    <nd ref="352892074"/>
    <tag k="created_by" v="Potlatch 0.10f"/>
    <tag k="highway" v="motorway_link"/>
    <tag k="maxheight" v="191inches"/>
    <tag k="oneway" v="yes"/>
  </way>
  <way id="31534919" version="3" timestamp="2011-10-16T03:43:01Z" uid="207745" user="NE2" changeset="9568940">
    <nd ref="352891609"/>
    <nd ref="352892055"/>
    <nd ref="352892056"/>
    <nd ref="352892057"/>
    <nd ref="352892058"/>
    <nd ref="352892059"/>
    <nd ref="352892060"/>
    <nd ref="352892061"/>
    <nd ref="352892062"/>
    <nd ref="352892063"/>
    <nd ref="352892064"/>
    <nd ref="352892065"/>
    <nd ref="352892067"/>
    <nd ref="352892068"/>
    <nd ref="352892069"/>
    <nd ref="352892070"/>
    <nd ref="352892071"/>
    <nd ref="352892072"/>
    <nd ref="352892073"/>
    <nd ref="352892074"/>
    <tag k="bicycle" v="no"/>
    <tag k="highway" v="motorway_link"/>
    <tag k="maxheight" v="191inches"/>
    <tag k="oneway" v="yes"/>
  </way>
  <way id="31534649" version="13" timestamp="2012-06-10T16:26:22Z" uid="2675" user="Eckhart Wörner" changeset="11856207">
    <nd ref="352890045"/>
    <nd ref="352890046"/>
    <nd ref="352890047"/>
    <nd ref="352890048"/>
    <nd ref="352890049"/>
    <nd ref="352890051"/>
    <nd ref="352890052"/>
    <nd ref="352890053"/>
    <nd ref="352890054"/>
    <tag k="bicycle" v="no"/>
    <tag k="hgv" v="designated"/>
    <tag k="highway" v="motorway"/>
    <tag k="lanes" v="3"/>
    <tag k="maxheight" v="15&apos;11&quot;"/>
    <tag k="name" v="Belt Route"/>
    <tag k="old_ref" v="SR 5"/>
    <tag k="oneway" v="yes"/>
    <tag k="ref" v="I 215"/>
    <tag k="source:maxheight" v="sign"/>
  </way>
  <way id="31534649" version="14" timestamp="2012-06-15T03:44:29Z" uid="117055" user="GPS_dr" changeset="11900903">
    <nd ref="352890045"/>
    <nd ref="1788099664"/>
    <nd ref="352890046"/>
    <nd ref="352890047"/>
    <nd ref="1788099679"/>
    <nd ref="1788099697"/>
    <nd ref="352890048"/>
    <nd ref="352890049"/>
    <nd ref="1788099666"/>
    <nd ref="1788099683"/>
    <nd ref="352890051"/>
    <nd ref="352890052"/>
    <nd ref="352890053"/>
    <nd ref="352890054"/>
    <tag k="bicycle" v="no"/>
    <tag k="hgv" v="designated"/>
    <tag k="highway" v="motorway"/>
    <tag k="lanes" v="3"/>
    <tag k="maxheight" v="15&apos;11&quot;"/>
    <tag k="name" v="Belt Route"/>
    <tag k="old_ref" v="SR 5"/>
    <tag k="oneway" v="yes"/>
    <tag k="ref" v="I 215"/>
    <tag k="source:maxheight" v="sign"/>
  </way>
  <way id="31534649" version="15" timestamp="2012-07-18T19:25:43Z" uid="722137" user="OSMF Redaction Account" changeset="12294723">
    <nd ref="352890045"/>
    <nd ref="1788099664"/>
    <nd ref="352890046"/>
    <nd ref="352890047"/>
    <nd ref="1788099679"/>
    <nd ref="1788099697"/>
    <nd ref="352890048"/>
    <nd ref="352890049"/>
    <nd ref="1788099666"/>
    <nd ref="1788099683"/>
    <nd ref="352890051"/>
    <nd ref="352890052"/>
    <nd ref="352890053"/>
    <nd ref="352890054"/>
    <tag k="bicycle" v="no"/>
    <tag k="hgv" v="designated"/>
    <tag k="highway" v="motorway"/>
    <tag k="lanes" v="3"/>
    <tag k="maxheight" v="15&apos;11&quot;"/>
    <tag k="name" v="Belt Route"/>
    <tag k="old_ref" v="SR 5"/>
    <tag k="oneway" v="yes"/>
    <tag k="ref" v="I 215"/>
  </way>
  <way id="31534910" version="7" timestamp="2012-06-10T16:26:23Z" uid="2675" user="Eckhart Wörner" changeset="11856207">
    <nd ref="352890192"/>
    <nd ref="352891609"/>
    <nd ref="352891610"/>
    <nd ref="352891611"/>
    <nd ref="352891612"/>
    <nd ref="352891613"/>
    <nd ref="352891614"/>
    <nd ref="352891615"/>
    <nd ref="352891491"/>
    <tag k="bicycle" v="no"/>
    <tag k="highway" v="motorway_link"/>
    <tag k="maxheight" v="15&apos;11&quot;"/>
    <tag k="oneway" v="yes"/>
  </way>
  <way id="31534919" version="4" timestamp="2012-06-10T16:26:22Z" uid="2675" user="Eckhart Wörner" changeset="11856207">
    <nd ref="352891609"/>
    <nd ref="352892055"/>
    <nd ref="352892056"/>
    <nd ref="352892057"/>
    <nd ref="352892058"/>
    <nd ref="352892059"/>
    <nd ref="352892060"/>
    <nd ref="352892061"/>
    <nd ref="352892062"/>
    <nd ref="352892063"/>
    <nd ref="352892064"/>
    <nd ref="352892065"/>
    <nd ref="352892067"/>
    <nd ref="352892068"/>
    <nd ref="352892069"/>
    <nd ref="352892070"/>
    <nd ref="352892071"/>
    <nd ref="352892072"/>
    <nd ref="352892073"/>
    <nd ref="352892074"/>
    <tag k="bicycle" v="no"/>
    <tag k="highway" v="motorway_link"/>
    <tag k="maxheight" v="15&apos;11&quot;"/>
    <tag k="oneway" v="yes"/>
  </way>
</osm>
