<?xml version='1.0' encoding='UTF-8'?>
<osm version="0.6" generator="libosmium/2.20.0">
  <way id="31550095" version="4" timestamp="2010-03-28T01:07:57Z" uid="20587" user="balrog-kun" changeset="4250871">
    <nd ref="122979177"/>
    <nd ref="123373103"/>
    <nd ref="353046181"/>
    <tag k="created_by" v="Potlatch 0.10f"/>
    <tag k="highway" v="residential"/>
    <tag k="name" v="Brownstone Street"/>
    <tag k="tiger:cfcc" v="A41"/>
    <tag k="tiger:county" v="Los Angeles, CA"/>
    <tag k="tiger:name_base" v="Brownstone"/>
    <tag k="tiger:name_type" v="St"/>
    <tag k="tiger:reviewed" v="no"/>
    <tag k="tiger:separated" v="no"/>
    <tag k="tiger:source" v="tiger_import_dch_v0.6_20070809"/>
    <tag k="tiger:tlid" v="141587680:141587689"/>
    <tag k="tiger:zip_left" v="91040"/>
    <tag k="tiger:zip_right" v="91040"/>
  </way>
  <way id="31550125" version="3" timestamp="2010-03-28T01:07:57Z" uid="20587" user="balrog-kun" changeset="4250871">
    <nd ref="353045921"/>
    <nd ref="353045885"/>
    <tag k="created_by" v="Potlatch 0.10f"/>
    <tag k="highway" v="residential"/>
    <tag k="name" v="Brownstone Street"/>
    <tag k="tiger:cfcc" v="A41"/>
    <tag k="tiger:county" v="Los Angeles, CA"/>
    <tag k="tiger:name_base" v="Brownstone"/>
    <tag k="tiger:name_type" v="St"/>
    <tag k="tiger:reviewed" v="no"/>
    <tag k="tiger:separated" v="no"/>
    <tag k="tiger:source" v="tiger_import_dch_v0.6_20070809"/>
    <tag k="tiger:tlid" v="141587680:141587689"/>
    <tag k="tiger:zip_left" v="91040"/>
    <tag k="tiger:zip_right" v="91040"/>
  </way>
  <way id="31550237" version="1" timestamp="2009-02-26T20:07:17Z" uid="68769" user="david lynch" changeset="674432">
    <nd ref="353046855"/>
    <nd ref="353046856"/>
    <nd ref="151608398"/>
    <tag k="created_by" v="Potlatch 0.10f"/>
    <tag k="highway" v="primary"/>
    <tag k="ref" v="TX 80"/>
    <tag k="tiger:cfcc" v="A31"/>
    <tag k="tiger:county" v="Hays, TX"/>
    <tag k="tiger:name_base" v="State Highway 80"/>
    <tag k="tiger:reviewed" v="no"/>
    <tag k="tiger:separated" v="no"/>
    <tag k="tiger:source" v="tiger_import_dch_v0.6_20070830"/>
    <tag k="tiger:tlid" v="63826435:63845519:63845520"/>
    <tag k="tiger:upload_uuid" v="bulk_upload.pl-a170b62b-143d-4da1-a941-18646a7f660b"/>
  </way>
  <way id="31550237" version="2" timestamp="2011-02-08T00:29:48Z" uid="37392" user="25or6to4" changeset="7222642">
    <nd ref="353046855"/>
    <nd ref="1141537681"/>
    <nd ref="1141537682"/>
    <nd ref="353046856"/>
    <nd ref="151608398"/>
    <tag k="highway" v="primary"/>
    <tag k="name" v="State Highway 80"/>
    <tag k="ref" v="TX 80"/>
    <tag k="tiger:cfcc" v="A31"/>
    <tag k="tiger:county" v="Hays, TX"/>
    <tag k="tiger:name_base" v="State Highway 80"/>
    <tag k="tiger:separated" v="no"/>
    <tag k="tiger:source" v="tiger_import_dch_v0.6_20070830"/>
    <tag k="tiger:tlid" v="63826435:63845519:63845520"/>
    <tag k="tiger:upload_uuid" v="bulk_upload.pl-a170b62b-143d-4da1-a941-18646a7f660b"/>
  </way>
  <way id="31550237" version="3" timestamp="2012-01-09T09:22:58Z" uid="207745" user="NE2" changeset="10339779">
    <nd ref="353046855"/>
    <nd ref="1141537681"/>
    <nd ref="1141537682"/>
    <nd ref="353046856"/>
    <nd ref="151608398"/>
    <tag k="highway" v="primary"/>
    <tag k="ref" v="TX 80"/>
    <tag k="tiger:cfcc" v="A31"/>
    <tag k="tiger:county" v="Hays, TX"/>
    <tag k="tiger:name_base" v="State Highway 80"/>
    <tag k="tiger:separated" v="no"/>
    <tag k="tiger:source" v="tiger_import_dch_v0.6_20070830"/>
    <tag k="tiger:tlid" v="63826435:63845519:63845520"/>
    <tag k="tiger:upload_uuid" v="bulk_upload.pl-a170b62b-143d-4da1-a941-18646a7f660b"/>
  </way>
  <way id="31550238" version="1" timestamp="2009-02-26T20:07:19Z" uid="68769" user="david lynch" changeset="674432">
    <nd ref="353046858"/>
    <nd ref="353046855"/>
    <tag k="created_by" v="Potlatch 0.10f"/>
    <tag k="highway" v="primary"/>
    <tag k="ref" v="TX 80"/>
    <tag k="tiger:cfcc" v="A31"/>
    <tag k="tiger:county" v="Hays, TX"/>
    <tag k="tiger:name_base" v="State Highway 80"/>
    <tag k="tiger:reviewed" v="no"/>
    <tag k="tiger:separated" v="no"/>
    <tag k="tiger:source" v="tiger_import_dch_v0.6_20070830"/>
    <tag k="tiger:tlid" v="63826435:63845519:63845520"/>
    <tag k="tiger:upload_uuid" v="bulk_upload.pl-a170b62b-143d-4da1-a941-18646a7f660b"/>
  </way>
  <way id="31550238" version="2" timestamp="2009-02-26T20:07:23Z" uid="68769" user="david lynch" changeset="674432">
    <nd ref="353046858"/>
    <nd ref="353046855"/>
    <tag k="bridge" v="yes"/>
    <tag k="created_by" v="Potlatch 0.10f"/>
    <tag k="highway" v="primary"/>
    <tag k="ref" v="TX 80"/>
    <tag k="tiger:cfcc" v="A31"/>
    <tag k="tiger:county" v="Hays, TX"/>
    <tag k="tiger:name_base" v="State Highway 80"/>
    <tag k="tiger:reviewed" v="no"/>
    <tag k="tiger:separated" v="no"/>
    <tag k="tiger:source" v="tiger_import_dch_v0.6_20070830"/>
    <tag k="tiger:tlid" v="63826435:63845519:63845520"/>
    <tag k="tiger:upload_uuid" v="bulk_upload.pl-a170b62b-143d-4da1-a941-18646a7f660b"/>
  </way>
  <way id="31550238" version="3" timestamp="2011-02-08T00:29:41Z" uid="37392" user="25or6to4" changeset="7222642">
    <nd ref="353046858"/>
    <nd ref="353046855"/>
    <tag k="bridge" v="yes"/>
    <tag k="highway" v="primary"/>
    <tag k="name" v="State Highway 80"/>
    <tag k="ref" v="TX 80"/>
    <tag k="tiger:cfcc" v="A31"/>
    <tag k="tiger:county" v="Hays, TX"/>
    <tag k="tiger:name_base" v="State Highway 80"/>
    <tag k="tiger:separated" v="no"/>
    <tag k="tiger:source" v="tiger_import_dch_v0.6_20070830"/>
    <tag k="tiger:tlid" v="63826435:63845519:63845520"/>
    <tag k="tiger:upload_uuid" v="bulk_upload.pl-a170b62b-143d-4da1-a941-18646a7f660b"/>
  </way>
  <way id="31550238" version="4" timestamp="2012-01-09T09:22:49Z" uid="207745" user="NE2" changeset="10339779">
    <nd ref="353046858"/>
    <nd ref="353046855"/>
    <tag k="bridge" v="yes"/>
    <tag k="highway" v="primary"/>
    <tag k="ref" v="TX 80"/>
    <tag k="tiger:cfcc" v="A31"/>
    <tag k="tiger:county" v="Hays, TX"/>
    <tag k="tiger:name_base" v="State Highway 80"/>
    <tag k="tiger:separated" v="no"/>
    <tag k="tiger:source" v="tiger_import_dch_v0.6_20070830"/>
    <tag k="tiger:tlid" v="63826435:63845519:63845520"/>
    <tag k="tiger:upload_uuid" v="bulk_upload.pl-a170b62b-143d-4da1-a941-18646a7f660b"/>
  </way>
  <way id="31550321" version="5" timestamp="2011-04-20T12:57:08Z" uid="115477" user="wowik" changeset="7916018">
    <nd ref="353047184"/>
    <nd ref="353047188"/>
    <nd ref="353047189"/>
    <nd ref="353047186"/>
    <nd ref="353047184"/>
    <tag k="addr:city" v="Москва"/>
    <tag k="addr:country" v="RU"/>
    <tag k="addr:housenumber" v="9 с5"/>
    <tag k="addr:street" v="улица Большая Дмитровка"/>
    <tag k="building" v="yes"/>
    <tag k="cladr:code" v="77000000000716700"/>
  </way>
  <way id="31550322" version="5" timestamp="2011-04-20T12:57:44Z" uid="115477" user="wowik" changeset="7916018">
    <nd ref="353047196"/>
    <nd ref="353047191"/>
    <nd ref="353047194"/>
    <nd ref="353047193"/>
    <nd ref="353047196"/>
    <tag k="addr:city" v="Москва"/>
    <tag k="addr:country" v="RU"/>
    <tag k="addr:housenumber" v="9 с6"/>
    <tag k="addr:street" v="улица Большая Дмитровка"/>
    <tag k="building" v="yes"/>
    <tag k="cladr:code" v="77000000000716700"/>
  </way>
  <way id="31550323" version="8" timestamp="2011-04-20T12:57:57Z" uid="115477" user="wowik" changeset="7916018">
    <nd ref="353047197"/>
    <nd ref="666830142"/>
    <nd ref="666830143"/>
    <nd ref="353047199"/>
    <nd ref="353047200"/>
    <nd ref="594987198"/>
    <nd ref="594987195"/>
    <nd ref="353047202"/>
    <nd ref="353047203"/>
    <nd ref="353047205"/>
    <nd ref="353047206"/>
    <nd ref="666830140"/>
    <nd ref="353047208"/>
    <nd ref="353047197"/>
    <tag k="addr:city" v="Москва"/>
    <tag k="addr:country" v="RU"/>
    <tag k="addr:housenumber" v="6 с7"/>
    <tag k="addr:street" v="Тверская улица"/>
    <tag k="building" v="yes"/>
    <tag k="cladr:code" v="77000000000287700"/>
  </way>
  <way id="31550324" version="9" timestamp="2011-04-20T12:57:25Z" uid="115477" user="wowik" changeset="7916018">
    <nd ref="594987260"/>
    <nd ref="594987219"/>
    <nd ref="353047212"/>
    <nd ref="353047214"/>
    <nd ref="670864812"/>
    <nd ref="594987260"/>
    <tag k="addr:city" v="Москва"/>
    <tag k="addr:country" v="RU"/>
    <tag k="addr:housenumber" v="7/5 с3"/>
    <tag k="addr:housenumber2" v="5/7 с3"/>
    <tag k="addr:street" v="улица Большая Дмитровка"/>
    <tag k="addr:street2" v="Камергерский переулок"/>
    <tag k="building" v="yes"/>
    <tag k="cladr:code" v="77000000000716700"/>
  </way>
  <way id="31550326" version="7" timestamp="2011-04-20T12:57:02Z" uid="115477" user="wowik" changeset="7916018">
    <nd ref="353047224"/>
    <nd ref="353047225"/>
    <nd ref="353047228"/>
    <nd ref="353047229"/>
    <nd ref="353047232"/>
    <nd ref="594987139"/>
    <nd ref="353047239"/>
    <nd ref="353047243"/>
    <nd ref="353047224"/>
    <tag k="addr:city" v="Москва"/>
    <tag k="addr:country" v="RU"/>
    <tag k="addr:housenumber" v="2"/>
    <tag k="addr:street" v="Камергерский переулок"/>
    <tag k="amenity" v="college"/>
    <tag k="building" v="yes"/>
    <tag k="cladr:code" v="77000000000142900"/>
    <tag k="name" v="Российская академия живописи, ваяния и зодчества"/>
  </way>
  <way id="31550328" version="8" timestamp="2011-04-20T12:59:57Z" uid="115477" user="wowik" changeset="7916018">
    <nd ref="594986973"/>
    <nd ref="594986984"/>
    <nd ref="594986999"/>
    <nd ref="594986986"/>
    <nd ref="594987004"/>
    <nd ref="594987001"/>
    <nd ref="353047267"/>
    <nd ref="353047255"/>
    <nd ref="353047256"/>
    <nd ref="353047258"/>
    <nd ref="353047259"/>
    <nd ref="353047261"/>
    <nd ref="594987308"/>
    <nd ref="594987028"/>
    <nd ref="594987034"/>
    <nd ref="594987020"/>
    <nd ref="594987026"/>
    <nd ref="594987041"/>
    <nd ref="594987051"/>
    <nd ref="594987038"/>
    <nd ref="594987400"/>
    <nd ref="594987031"/>
    <nd ref="594987035"/>
    <nd ref="594987023"/>
    <nd ref="594986977"/>
    <nd ref="594986980"/>
    <nd ref="594986982"/>
    <nd ref="594986973"/>
    <tag k="addr:city" v="Москва"/>
    <tag k="addr:country" v="RU"/>
    <tag k="building" v="yes"/>
    <tag k="cladr:code" v="77000000000287700"/>
    <tag k="int_name" v="Duma (the lower house of the parliament)"/>
    <tag k="name" v="Государственная дума"/>
    <tag k="office" v="government"/>
  </way>
  <way id="31550328" version="9" timestamp="2011-08-15T20:02:45Z" uid="266092" user="luch86" changeset="9030914">
    <nd ref="594986973"/>
    <nd ref="594986984"/>
    <nd ref="594986999"/>
    <nd ref="594986986"/>
    <nd ref="594987004"/>
    <nd ref="594987001"/>
    <nd ref="353047267"/>
    <nd ref="353047255"/>
    <nd ref="353047256"/>
    <nd ref="353047258"/>
    <nd ref="353047259"/>
    <nd ref="353047261"/>
    <nd ref="594987308"/>
    <nd ref="594987028"/>
    <nd ref="594987034"/>
    <nd ref="594987020"/>
    <nd ref="594987026"/>
    <nd ref="594987041"/>
    <nd ref="594987051"/>
    <nd ref="594987038"/>
    <nd ref="594987400"/>
    <nd ref="594987031"/>
    <nd ref="594987035"/>
    <nd ref="594987023"/>
    <nd ref="1400255571"/>
    <nd ref="1400255544"/>
    <nd ref="594986977"/>
    <nd ref="594986980"/>
    <nd ref="594986982"/>
    <nd ref="594986973"/>
    <tag k="addr:city" v="Москва"/>
    <tag k="addr:country" v="RU"/>
    <tag k="building" v="yes"/>
    <tag k="cladr:code" v="77000000000287700"/>
    <tag k="int_name" v="Duma (the lower house of the parliament)"/>
    <tag k="name" v="Государственная дума"/>
    <tag k="office" v="government"/>
  </way>
  <way id="31550328" version="10" timestamp="2011-08-31T18:51:49Z" uid="397326" user="trolleway" changeset="9178801">
    <nd ref="594987041"/>
    <nd ref="594987051"/>
    <nd ref="594987038"/>
    <nd ref="594987400"/>
    <nd ref="594987031"/>
    <nd ref="594987035"/>
    <nd ref="594987023"/>
    <nd ref="1400255571"/>
    <nd ref="1400255544"/>
    <nd ref="594986977"/>
    <nd ref="594986980"/>
    <nd ref="594986982"/>
    <nd ref="594986973"/>
    <nd ref="594986984"/>
    <nd ref="594987041"/>
    <tag k="addr:city" v="Москва"/>
    <tag k="addr:country" v="RU"/>
    <tag k="building" v="yes"/>
    <tag k="building:levels" v="10"/>
    <tag k="cladr:code" v="77000000000287700"/>
    <tag k="int_name" v="Duma (the lower house of the parliament)"/>
    <tag k="name" v="Государственная дума"/>
    <tag k="office" v="government"/>
  </way>
  <way id="31550328" version="11" timestamp="2011-10-09T22:10:04Z" uid="314211" user="OldIvantey" changeset="9517854">
    <nd ref="594987041"/>
    <nd ref="594987051"/>
    <nd ref="594987038"/>
    <nd ref="594987400"/>
    <nd ref="594987031"/>
    <nd ref="594987035"/>
    <nd ref="594987023"/>
    <nd ref="1400255571"/>
    <nd ref="1400255544"/>
    <nd ref="594986977"/>
    <nd ref="594986980"/>
    <nd ref="594986982"/>
    <nd ref="594986973"/>
    <nd ref="594986984"/>
    <nd ref="594987041"/>
    <tag k="addr:city" v="Москва"/>
    <tag k="addr:country" v="RU"/>
    <tag k="addr:housenumber" v="1"/>
    <tag k="addr:street" v="улица Охотный Ряд"/>
    <tag k="building" v="yes"/>
    <tag k="building:levels" v="10"/>
    <tag k="cladr:code" v="77000000000287700"/>
    <tag k="int_name" v="Duma (the lower house of the parliament)"/>
    <tag k="name" v="Государственная дума"/>
    <tag k="office" v="government"/>
  </way>
  <way id="31550328" version="12" timestamp="2011-12-29T07:52:53Z" uid="260756" user="Felis Pimeja" changeset="10232711">
    <nd ref="594987041"/>
    <nd ref="594987051"/>
    <nd ref="594987038"/>
    <nd ref="594987400"/>
    <nd ref="594987031"/>
    <nd ref="594987035"/>
    <nd ref="594987023"/>
    <nd ref="1400255571"/>
    <nd ref="1400255544"/>
    <nd ref="594986977"/>
    <nd ref="594986980"/>
    <nd ref="594986982"/>
    <nd ref="594986973"/>
    <nd ref="1566761506"/>
    <nd ref="594986984"/>
    <nd ref="594987041"/>
    <tag k="addr:city" v="Москва"/>
    <tag k="addr:country" v="RU"/>
    <tag k="addr:housenumber" v="1"/>
    <tag k="addr:street" v="улица Охотный Ряд"/>
    <tag k="building" v="yes"/>
    <tag k="building:levels" v="10"/>
    <tag k="cladr:code" v="77000000000287700"/>
    <tag k="int_name" v="Duma (the lower house of the parliament)"/>
    <tag k="name" v="Государственная дума"/>
    <tag k="office" v="government"/>
  </way>
  <way id="31550329" version="7" timestamp="2011-04-20T12:56:50Z" uid="115477" user="wowik" changeset="7916018">
    <nd ref="353047268"/>
    <nd ref="353047272"/>
    <nd ref="353047624"/>
    <nd ref="353047630"/>
    <nd ref="353047270"/>
    <nd ref="353047268"/>
    <tag k="addr:city" v="Москва"/>
    <tag k="addr:country" v="RU"/>
    <tag k="addr:housenumber" v="5/6 с4"/>
    <tag k="addr:housenumber2" v="6/5 с4"/>
    <tag k="addr:street" v="улица Большая Дмитровка"/>
    <tag k="addr:street2" v="Камергерский переулок"/>
    <tag k="building" v="yes"/>
    <tag k="cladr:code" v="77000000000716700"/>
  </way>
  <way id="31550330" version="6" timestamp="2011-04-20T12:57:32Z" uid="115477" user="wowik" changeset="7916018">
    <nd ref="353047276"/>
    <nd ref="670800459"/>
    <nd ref="670800474"/>
    <nd ref="353047280"/>
    <nd ref="353047282"/>
    <nd ref="353047278"/>
    <nd ref="353047276"/>
    <tag k="addr:city" v="Москва"/>
    <tag k="addr:country" v="RU"/>
    <tag k="addr:housenumber" v="3 с6"/>
    <tag k="addr:street" v="Камергерский переулок"/>
    <tag k="building" v="yes"/>
    <tag k="cladr:code" v="77000000000142900"/>
  </way>
  <way id="31550331" version="6" timestamp="2011-04-20T12:57:40Z" uid="115477" user="wowik" changeset="7916018">
    <nd ref="353047288"/>
    <nd ref="353047295"/>
    <nd ref="353047298"/>
    <nd ref="353047294"/>
    <nd ref="353047288"/>
    <tag k="addr:city" v="Москва"/>
    <tag k="addr:country" v="RU"/>
    <tag k="addr:housenumber" v="7/5 с5"/>
    <tag k="addr:housenumber2" v="5/7 с5"/>
    <tag k="addr:street" v="улица Большая Дмитровка"/>
    <tag k="addr:street2" v="Камергерский переулок"/>
    <tag k="building" v="yes"/>
    <tag k="cladr:code" v="77000000000716700"/>
  </way>
  <way id="31550331" version="7" timestamp="2011-12-27T14:36:49Z" uid="260756" user="Felis Pimeja" changeset="10216246">
    <nd ref="353047288"/>
    <nd ref="353047295"/>
    <nd ref="353047298"/>
    <nd ref="353047294"/>
    <nd ref="1563601088"/>
    <nd ref="353047288"/>
    <tag k="addr:city" v="Москва"/>
    <tag k="addr:country" v="RU"/>
    <tag k="addr:housenumber" v="7/5 с5"/>
    <tag k="addr:housenumber2" v="5/7 с5"/>
    <tag k="addr:street" v="улица Большая Дмитровка"/>
    <tag k="addr:street2" v="Камергерский переулок"/>
    <tag k="building" v="yes"/>
    <tag k="cladr:code" v="77000000000716700"/>
  </way>
  <way id="31550333" version="6" timestamp="2011-04-20T12:57:21Z" uid="115477" user="wowik" changeset="7916018">
    <nd ref="353047302"/>
    <nd ref="353047306"/>
    <nd ref="670800532"/>
    <nd ref="670800535"/>
    <nd ref="670800537"/>
    <nd ref="670800533"/>
    <nd ref="670800528"/>
    <nd ref="670800530"/>
    <nd ref="670800521"/>
    <nd ref="670800526"/>
    <nd ref="353047304"/>
    <nd ref="353047299"/>
    <nd ref="353047302"/>
    <tag k="addr:city" v="Москва"/>
    <tag k="addr:country" v="RU"/>
    <tag k="addr:housenumber" v="6 с2"/>
    <tag k="addr:street" v="Столешников переулок"/>
    <tag k="building" v="yes"/>
    <tag k="cladr:code" v="77000000000060200"/>
  </way>
  <way id="31550334" version="5" timestamp="2011-04-20T12:57:59Z" uid="115477" user="wowik" changeset="7916018">
    <nd ref="353047308"/>
    <nd ref="353047310"/>
    <nd ref="353047312"/>
    <nd ref="353047315"/>
    <nd ref="353047316"/>
    <nd ref="353047320"/>
    <nd ref="353047308"/>
    <tag k="addr:city" v="Москва"/>
    <tag k="addr:country" v="RU"/>
    <tag k="addr:housenumber" v="6 с5"/>
    <tag k="addr:street" v="Столешников переулок"/>
    <tag k="building" v="yes"/>
    <tag k="cladr:code" v="77000000000060200"/>
  </way>
  <way id="31550335" version="4" timestamp="2011-04-20T12:56:58Z" uid="115477" user="wowik" changeset="7916018">
    <nd ref="353047322"/>
    <nd ref="353047325"/>
    <nd ref="353047328"/>
    <nd ref="353047332"/>
    <nd ref="353047334"/>
    <nd ref="353047338"/>
    <nd ref="353047322"/>
    <tag k="addr:city" v="Москва"/>
    <tag k="addr:country" v="RU"/>
    <tag k="addr:housenumber" v="6"/>
    <tag k="addr:street" v="Столешников переулок"/>
    <tag k="building" v="yes"/>
    <tag k="cladr:code" v="77000000000060200"/>
  </way>
  <way id="31550337" version="6" timestamp="2011-04-20T12:57:52Z" uid="115477" user="wowik" changeset="7916018">
    <nd ref="353047342"/>
    <nd ref="353047355"/>
    <nd ref="670800550"/>
    <nd ref="670800518"/>
    <nd ref="353606782"/>
    <nd ref="670800525"/>
    <nd ref="670800523"/>
    <nd ref="353047349"/>
    <nd ref="353047342"/>
    <tag k="addr:city" v="Москва"/>
    <tag k="addr:country" v="RU"/>
    <tag k="addr:housenumber" v="11 с7"/>
    <tag k="addr:street" v="улица Большая Дмитровка"/>
    <tag k="building" v="yes"/>
    <tag k="cladr:code" v="77000000000716700"/>
  </way>
  <way id="31550339" version="5" timestamp="2011-04-20T12:57:32Z" uid="115477" user="wowik" changeset="7916018">
    <nd ref="353047361"/>
    <nd ref="353047373"/>
    <nd ref="353047377"/>
    <nd ref="353047364"/>
    <nd ref="353047361"/>
    <tag k="addr:city" v="Москва"/>
    <tag k="addr:country" v="RU"/>
    <tag k="addr:housenumber" v="9 с2"/>
    <tag k="addr:street" v="улица Большая Дмитровка"/>
    <tag k="building" v="yes"/>
    <tag k="cladr:code" v="77000000000716700"/>
  </way>
  <way id="31550339" version="6" timestamp="2011-12-27T14:36:50Z" uid="260756" user="Felis Pimeja" changeset="10216246">
    <nd ref="353047361"/>
    <nd ref="1563601088"/>
    <nd ref="353047377"/>
    <nd ref="353047364"/>
    <nd ref="353047361"/>
    <tag k="addr:city" v="Москва"/>
    <tag k="addr:country" v="RU"/>
    <tag k="addr:housenumber" v="9 с2"/>
    <tag k="addr:street" v="улица Большая Дмитровка"/>
    <tag k="building" v="yes"/>
    <tag k="cladr:code" v="77000000000716700"/>
  </way>
  <way id="31550347" version="3" timestamp="2011-04-20T12:57:16Z" uid="115477" user="wowik" changeset="7916018">
    <nd ref="353047579"/>
    <nd ref="353047586"/>
    <nd ref="353047589"/>
    <nd ref="353047582"/>
    <nd ref="353047579"/>
    <tag k="addr:city" v="Москва"/>
    <tag k="addr:country" v="RU"/>
    <tag k="addr:housenumber" v="9"/>
    <tag k="addr:street" v="Газетный переулок"/>
    <tag k="building" v="yes"/>
  </way>
  <way id="31550348" version="6" timestamp="2011-04-20T12:57:54Z" uid="115477" user="wowik" changeset="7916018">
    <nd ref="353047593"/>
    <nd ref="353047600"/>
    <nd ref="353047604"/>
    <nd ref="353047596"/>
    <nd ref="353047593"/>
    <tag k="addr:city" v="Москва"/>
    <tag k="addr:country" v="RU"/>
    <tag k="addr:housenumber" v="15"/>
    <tag k="addr:street" v="Газетный переулок"/>
    <tag k="amenity" v="place_of_worship"/>
    <tag k="building" v="yes"/>
    <tag k="denomination" v="russian_orthodox"/>
    <tag k="landuse" v="commercial"/>
    <tag k="name" v="Храм Успения Пресвятой Богородицы на Успенском вражке"/>
    <tag k="religion" v="christian"/>
  </way>
  <way id="31550348" version="7" timestamp="2011-09-13T10:31:37Z" uid="29320" user="Komяpa" changeset="9288237">
    <nd ref="353047593"/>
    <nd ref="353047600"/>
    <nd ref="353047604"/>
    <nd ref="353047596"/>
    <nd ref="353047593"/>
    <tag k="addr:city" v="Москва"/>
    <tag k="addr:country" v="RU"/>
    <tag k="addr:housenumber" v="15"/>
    <tag k="addr:street" v="Газетный переулок"/>
    <tag k="amenity" v="place_of_worship"/>
    <tag k="building" v="commercial"/>
    <tag k="denomination" v="russian_orthodox"/>
    <tag k="name" v="Храм Успения Пресвятой Богородицы на Успенском вражке"/>
    <tag k="religion" v="christian"/>
  </way>
  <way id="31550350" version="6" timestamp="2011-04-20T12:57:33Z" uid="115477" user="wowik" changeset="7916018">
    <nd ref="353047609"/>
    <nd ref="353047616"/>
    <nd ref="353047619"/>
    <nd ref="353047612"/>
    <nd ref="666830111"/>
    <nd ref="666830110"/>
    <nd ref="353047609"/>
    <tag k="addr:city" v="Москва"/>
    <tag k="addr:country" v="RU"/>
    <tag k="addr:housenumber" v="9 с7"/>
    <tag k="addr:street" v="Тверская улица"/>
    <tag k="building" v="yes"/>
    <tag k="cladr:code" v="77000000000287700"/>
  </way>
  <way id="31550351" version="8" timestamp="2011-04-20T12:57:43Z" uid="115477" user="wowik" changeset="7916018">
    <nd ref="353047624"/>
    <nd ref="594987479"/>
    <nd ref="594987482"/>
    <nd ref="353047626"/>
    <nd ref="353047628"/>
    <nd ref="353047630"/>
    <nd ref="353047624"/>
    <tag k="addr:city" v="Москва"/>
    <tag k="addr:country" v="RU"/>
    <tag k="addr:housenumber" v="5/6 с5"/>
    <tag k="addr:housenumber2" v="6/5 с5"/>
    <tag k="addr:street" v="улица Большая Дмитровка"/>
    <tag k="addr:street2" v="Камергерский переулок"/>
    <tag k="building" v="yes"/>
    <tag k="cladr:code" v="77000000000716700"/>
  </way>
  <way id="31550354" version="4" timestamp="2011-04-20T12:57:52Z" uid="115477" user="wowik" changeset="7916018">
    <nd ref="353047646"/>
    <nd ref="353047648"/>
    <nd ref="353047649"/>
    <nd ref="353047651"/>
    <nd ref="353047646"/>
    <tag k="addr:city" v="Москва"/>
    <tag k="addr:country" v="RU"/>
    <tag k="addr:housenumber" v="4/2"/>
    <tag k="addr:housenumber2" v="2/4"/>
    <tag k="addr:street" v="улица Большая Дмитровка"/>
    <tag k="addr:street2" v="Копьевский переулок"/>
    <tag k="building" v="yes"/>
    <tag k="cladr:code" v="77000000000716700"/>
  </way>
  <way id="31550354" version="5" timestamp="2011-09-30T23:12:30Z" uid="133332" user="AMDmi3" changeset="9439527">
    <nd ref="353047646"/>
    <nd ref="353047648"/>
    <nd ref="353047649"/>
    <nd ref="353047651"/>
    <nd ref="353047646"/>
    <tag k="addr:city" v="Москва"/>
    <tag k="addr:country" v="RU"/>
    <tag k="addr:housenumber" v="4/2"/>
    <tag k="addr:housenumber2" v="2/4"/>
    <tag k="addr:street" v="улица Большая Дмитровка"/>
    <tag k="addr:street2" v="Копьёвский переулок"/>
    <tag k="building" v="yes"/>
    <tag k="cladr:code" v="77000000000716700"/>
  </way>
  <way id="31550354" version="6" timestamp="2011-12-29T13:01:57Z" uid="260756" user="Felis Pimeja" changeset="10235073"/>
  <way id="31550356" version="5" timestamp="2011-04-20T12:57:32Z" uid="115477" user="wowik" changeset="7916018">
    <nd ref="353047653"/>
    <nd ref="353047656"/>
    <nd ref="353047657"/>
    <nd ref="353047654"/>
    <nd ref="353047653"/>
    <tag k="addr:city" v="Москва"/>
    <tag k="addr:country" v="RU"/>
    <tag k="addr:housenumber" v="2"/>
    <tag k="addr:street" v="Дмитровский переулок"/>
    <tag k="building" v="yes"/>
    <tag k="cladr:code" v="77000000000054400"/>
  </way>
  <way id="31550356" version="6" timestamp="2011-12-29T13:19:49Z" uid="260756" user="Felis Pimeja" changeset="10235236">
    <nd ref="353047653"/>
    <nd ref="353047656"/>
    <nd ref="353047657"/>
    <nd ref="353047654"/>
    <nd ref="353047653"/>
    <tag k="addr:city" v="Москва"/>
    <tag k="addr:country" v="RU"/>
    <tag k="addr:housenumber" v="2"/>
    <tag k="addr:street" v="Дмитровский переулок"/>
    <tag k="building" v="yes"/>
    <tag k="cladr:code" v="77000000000054400"/>
  </way>
  <way id="31550358" version="6" timestamp="2011-04-20T12:57:10Z" uid="115477" user="wowik" changeset="7916018">
    <nd ref="353047659"/>
    <nd ref="353047660"/>
    <nd ref="353047662"/>
    <nd ref="670864869"/>
    <nd ref="667423730"/>
    <nd ref="353047672"/>
    <nd ref="353047659"/>
    <tag k="addr:city" v="Москва"/>
    <tag k="addr:country" v="RU"/>
    <tag k="addr:housenumber" v="10 с4"/>
    <tag k="addr:street" v="улица Большая Дмитровка"/>
    <tag k="building" v="yes"/>
    <tag k="cladr:code" v="77000000000716700"/>
  </way>
  <way id="31550358" version="7" timestamp="2011-12-29T13:19:48Z" uid="260756" user="Felis Pimeja" changeset="10235236">
    <nd ref="353047659"/>
    <nd ref="353047660"/>
    <nd ref="353047662"/>
    <nd ref="1567189080"/>
    <nd ref="1567189088"/>
    <nd ref="1567189077"/>
    <nd ref="1567189072"/>
    <nd ref="1567189070"/>
    <nd ref="1567189042"/>
    <nd ref="1567189037"/>
    <nd ref="1567189031"/>
    <nd ref="670864869"/>
    <nd ref="667423730"/>
    <nd ref="353047672"/>
    <nd ref="353047659"/>
    <tag k="addr:city" v="Москва"/>
    <tag k="addr:country" v="RU"/>
    <tag k="addr:housenumber" v="10 с4"/>
    <tag k="addr:street" v="улица Большая Дмитровка"/>
    <tag k="building" v="yes"/>
    <tag k="cladr:code" v="77000000000716700"/>
  </way>
  <way id="31550360" version="5" timestamp="2011-04-20T12:58:01Z" uid="115477" user="wowik" changeset="7916018">
    <nd ref="353047673"/>
    <nd ref="353047675"/>
    <nd ref="353047676"/>
    <nd ref="353047677"/>
    <nd ref="353047679"/>
    <nd ref="353047680"/>
    <nd ref="353047682"/>
    <nd ref="353047683"/>
    <nd ref="353047685"/>
    <nd ref="353047686"/>
    <nd ref="353047673"/>
    <tag k="addr:city" v="Москва"/>
    <tag k="addr:country" v="RU"/>
    <tag k="addr:housenumber" v="8 к1"/>
    <tag k="addr:street" v="Тверская улица"/>
    <tag k="building" v="yes"/>
    <tag k="cladr:code" v="77000000000287700"/>
  </way>
  <way id="31550361" version="5" timestamp="2011-04-20T12:57:00Z" uid="115477" user="wowik" changeset="7916018">
    <nd ref="353047688"/>
    <nd ref="353047692"/>
    <nd ref="353047694"/>
    <nd ref="353047696"/>
    <nd ref="353047698"/>
    <nd ref="353047701"/>
    <nd ref="353047703"/>
    <nd ref="353047706"/>
    <nd ref="353047708"/>
    <nd ref="353047711"/>
    <nd ref="353047715"/>
    <nd ref="353047718"/>
    <nd ref="353047688"/>
    <tag k="addr:city" v="Москва"/>
    <tag k="addr:country" v="RU"/>
    <tag k="addr:housenumber" v="8 к2"/>
    <tag k="addr:street" v="Тверская улица"/>
    <tag k="building" v="yes"/>
    <tag k="cladr:code" v="77000000000287700"/>
  </way>
  <way id="31550469" version="4" timestamp="2010-03-28T01:07:58Z" uid="20587" user="balrog-kun" changeset="4250871">
    <nd ref="353049137"/>
    <nd ref="353049139"/>
    <nd ref="353049142"/>
    <nd ref="353049143"/>
    <nd ref="353049144"/>
    <tag k="created_by" v="Potlatch 0.10f"/>
    <tag k="highway" v="residential"/>
    <tag k="name" v="Fenwick Street"/>
    <tag k="source" v="Yahoo"/>
    <tag k="tiger:cfcc" v="A41"/>
    <tag k="tiger:county" v="Los Angeles, CA"/>
    <tag k="tiger:name_base" v="Fenwick"/>
    <tag k="tiger:name_type" v="St"/>
    <tag k="tiger:separated" v="no"/>
    <tag k="tiger:source" v="tiger_import_dch_v0.6_20070809"/>
    <tag k="tiger:tlid" v="141586339:141586338:141586340:141587490:141587512:141817452:141586351"/>
    <tag k="tiger:zip_left" v="91040"/>
    <tag k="tiger:zip_right" v="91040"/>
  </way>
  <way id="31550237" version="4" timestamp="2012-04-09T04:22:18Z" uid="37392" user="25or6to4" changeset="11233098"/>
  <way id="31550238" version="5" timestamp="2012-04-09T04:22:18Z" uid="37392" user="25or6to4" changeset="11233098"/>
  <way id="31550321" version="6" timestamp="2012-07-20T11:56:45Z" uid="722137" user="OSMF Redaction Account" changeset="12374517">
    <nd ref="353047184"/>
    <nd ref="353047188"/>
    <nd ref="353047189"/>
    <nd ref="353047186"/>
    <nd ref="353047184"/>
    <tag k="addr:housenumber" v="9 с5"/>
    <tag k="addr:street" v="улица Большая Дмитровка"/>
    <tag k="building" v="yes"/>
    <tag k="cladr:code" v="77000000000716700"/>
  </way>
  <way id="31550322" version="6" timestamp="2012-07-20T11:56:49Z" uid="722137" user="OSMF Redaction Account" changeset="12374517">
    <nd ref="353047196"/>
    <nd ref="353047191"/>
    <nd ref="353047194"/>
    <nd ref="353047193"/>
    <nd ref="353047196"/>
    <tag k="addr:housenumber" v="9 с6"/>
    <tag k="addr:street" v="улица Большая Дмитровка"/>
    <tag k="building" v="yes"/>
    <tag k="cladr:code" v="77000000000716700"/>
  </way>
  <way id="31550323" version="9" timestamp="2012-07-20T11:56:09Z" uid="722137" user="OSMF Redaction Account" changeset="12374517">
    <nd ref="353047197"/>
    <nd ref="666830142"/>
    <nd ref="666830143"/>
    <nd ref="353047199"/>
    <nd ref="353047200"/>
    <nd ref="594987198"/>
    <nd ref="594987195"/>
    <nd ref="353047202"/>
    <nd ref="353047203"/>
    <nd ref="353047205"/>
    <nd ref="353047206"/>
    <nd ref="666830140"/>
    <nd ref="353047208"/>
    <nd ref="353047197"/>
    <tag k="addr:housenumber" v="6 с7"/>
    <tag k="addr:street" v="Тверская улица"/>
    <tag k="building" v="yes"/>
    <tag k="cladr:code" v="77000000000287700"/>
  </way>
  <way id="31550324" version="10" timestamp="2012-04-17T18:13:54Z" uid="260756" user="Felis Pimeja" changeset="11335985">
    <nd ref="594987260"/>
    <nd ref="594987219"/>
    <nd ref="353047212"/>
    <nd ref="353047214"/>
    <nd ref="670864812"/>
    <nd ref="594987260"/>
  </way>
  <way id="31550324" version="11" timestamp="2012-04-27T08:13:56Z" uid="39086" user="AlexeyS" changeset="11430467"/>
  <way id="31550326" version="8" timestamp="2012-07-20T11:56:02Z" uid="722137" user="OSMF Redaction Account" changeset="12374517">
    <nd ref="353047224"/>
    <nd ref="353047225"/>
    <nd ref="353047228"/>
    <nd ref="353047229"/>
    <nd ref="353047232"/>
    <nd ref="594987139"/>
    <nd ref="353047239"/>
    <nd ref="353047243"/>
    <nd ref="353047224"/>
    <tag k="addr:housenumber" v="2"/>
    <tag k="addr:street" v="Камергерский переулок"/>
    <tag k="amenity" v="college"/>
    <tag k="building" v="yes"/>
    <tag k="cladr:code" v="77000000000142900"/>
    <tag k="name" v="Российская академия живописи, ваяния и зодчества"/>
  </way>
  <way id="31550328" version="13" timestamp="2012-07-20T11:55:37Z" uid="722137" user="OSMF Redaction Account" changeset="12374517">
    <nd ref="594987041"/>
    <nd ref="594987051"/>
    <nd ref="594987038"/>
    <nd ref="594987400"/>
    <nd ref="594987031"/>
    <nd ref="594987035"/>
    <nd ref="594987023"/>
    <nd ref="1400255571"/>
    <nd ref="1400255544"/>
    <nd ref="594986977"/>
    <nd ref="594986980"/>
    <nd ref="594986982"/>
    <nd ref="594986973"/>
    <nd ref="1566761506"/>
    <nd ref="594986984"/>
    <nd ref="594987041"/>
    <tag k="addr:housenumber" v="1"/>
    <tag k="addr:street" v="улица Охотный Ряд"/>
    <tag k="building" v="yes"/>
    <tag k="building:levels" v="10"/>
    <tag k="cladr:code" v="77000000000287700"/>
    <tag k="int_name" v="Duma (the lower house of the parliament)"/>
    <tag k="name" v="Государственная дума"/>
    <tag k="office" v="government"/>
  </way>
  <way id="31550329" version="8" timestamp="2012-07-20T11:56:25Z" uid="722137" user="OSMF Redaction Account" changeset="12374517">
    <nd ref="353047268"/>
    <nd ref="353047272"/>
    <nd ref="353047624"/>
    <nd ref="353047630"/>
    <nd ref="353047270"/>
    <nd ref="353047268"/>
    <tag k="addr:country" v="RU"/>
    <tag k="addr:housenumber" v="5/6 с4"/>
    <tag k="addr:housenumber2" v="6/5 с4"/>
    <tag k="addr:street" v="улица Большая Дмитровка"/>
    <tag k="addr:street2" v="Камергерский переулок"/>
    <tag k="building" v="yes"/>
    <tag k="cladr:code" v="77000000000716700"/>
  </way>
  <way id="31550330" version="7" timestamp="2012-07-20T11:56:50Z" uid="722137" user="OSMF Redaction Account" changeset="12374517">
    <nd ref="353047276"/>
    <nd ref="670800459"/>
    <nd ref="670800474"/>
    <nd ref="353047280"/>
    <nd ref="353047282"/>
    <nd ref="353047278"/>
    <nd ref="353047276"/>
    <tag k="addr:housenumber" v="3 с6"/>
    <tag k="addr:street" v="Камергерский переулок"/>
    <tag k="building" v="yes"/>
    <tag k="cladr:code" v="77000000000142900"/>
  </way>
  <way id="31550331" version="8" timestamp="2012-07-20T11:56:39Z" uid="722137" user="OSMF Redaction Account" changeset="12374517">
    <nd ref="353047288"/>
    <nd ref="353047295"/>
    <nd ref="353047298"/>
    <nd ref="353047294"/>
    <nd ref="1563601088"/>
    <nd ref="353047288"/>
    <tag k="addr:country" v="RU"/>
    <tag k="addr:housenumber" v="7/5 с5"/>
    <tag k="addr:housenumber2" v="5/7 с5"/>
    <tag k="addr:street" v="улица Большая Дмитровка"/>
    <tag k="addr:street2" v="Камергерский переулок"/>
    <tag k="building" v="yes"/>
    <tag k="cladr:code" v="77000000000716700"/>
  </way>
  <way id="31550333" version="7" timestamp="2012-07-20T11:57:08Z" uid="722137" user="OSMF Redaction Account" changeset="12374517">
    <nd ref="353047302"/>
    <nd ref="353047306"/>
    <nd ref="670800532"/>
    <nd ref="670800535"/>
    <nd ref="670800537"/>
    <nd ref="670800533"/>
    <nd ref="670800528"/>
    <nd ref="670800530"/>
    <nd ref="670800521"/>
    <nd ref="670800526"/>
    <nd ref="353047304"/>
    <nd ref="353047299"/>
    <nd ref="353047302"/>
    <tag k="addr:housenumber" v="6 с2"/>
    <tag k="addr:street" v="Столешников переулок"/>
    <tag k="building" v="yes"/>
    <tag k="cladr:code" v="77000000000060200"/>
  </way>
  <way id="31550334" version="6" timestamp="2012-07-20T11:57:15Z" uid="722137" user="OSMF Redaction Account" changeset="12374517">
    <nd ref="353047308"/>
    <nd ref="353047310"/>
    <nd ref="353047312"/>
    <nd ref="353047315"/>
    <nd ref="353047316"/>
    <nd ref="353047320"/>
    <nd ref="353047308"/>
    <tag k="addr:housenumber" v="6 с5"/>
    <tag k="addr:street" v="Столешников переулок"/>
    <tag k="building" v="yes"/>
    <tag k="cladr:code" v="77000000000060200"/>
  </way>
  <way id="31550335" version="5" timestamp="2012-07-20T11:57:16Z" uid="722137" user="OSMF Redaction Account" changeset="12374517">
    <nd ref="353047322"/>
    <nd ref="353047325"/>
    <nd ref="353047328"/>
    <nd ref="353047332"/>
    <nd ref="353047334"/>
    <nd ref="353047338"/>
    <nd ref="353047322"/>
    <tag k="addr:housenumber" v="6"/>
    <tag k="addr:street" v="Столешников переулок"/>
    <tag k="building" v="yes"/>
    <tag k="cladr:code" v="77000000000060200"/>
  </way>
  <way id="31550337" version="7" timestamp="2012-07-20T11:57:07Z" uid="722137" user="OSMF Redaction Account" changeset="12374517">
    <nd ref="353047342"/>
    <nd ref="353047355"/>
    <nd ref="670800550"/>
    <nd ref="670800518"/>
    <nd ref="353606782"/>
    <nd ref="670800525"/>
    <nd ref="670800523"/>
    <nd ref="353047349"/>
    <nd ref="353047342"/>
    <tag k="addr:housenumber" v="11 с7"/>
    <tag k="addr:street" v="улица Большая Дмитровка"/>
    <tag k="building" v="yes"/>
    <tag k="cladr:code" v="77000000000716700"/>
  </way>
  <way id="31550339" version="7" timestamp="2012-07-20T11:56:48Z" uid="722137" user="OSMF Redaction Account" changeset="12374517">
    <nd ref="353047361"/>
    <nd ref="1563601088"/>
    <nd ref="353047377"/>
    <nd ref="353047364"/>
    <nd ref="353047361"/>
    <tag k="addr:housenumber" v="9 с2"/>
    <tag k="addr:street" v="улица Большая Дмитровка"/>
    <tag k="building" v="yes"/>
    <tag k="cladr:code" v="77000000000716700"/>
  </way>
  <way id="31550347" version="4" timestamp="2012-07-20T11:55:40Z" uid="722137" user="OSMF Redaction Account" changeset="12374517">
    <nd ref="353047579"/>
    <nd ref="353047586"/>
    <nd ref="353047589"/>
    <nd ref="353047582"/>
    <nd ref="353047579"/>
    <tag k="addr:housenumber" v="9"/>
    <tag k="addr:street" v="Газетный переулок"/>
    <tag k="building" v="yes"/>
  </way>
  <way id="31550348" version="8" timestamp="2012-06-07T19:52:13Z" uid="478018" user="Fantomas" changeset="11829072">
    <nd ref="353047593"/>
    <nd ref="353047600"/>
    <nd ref="353047604"/>
    <nd ref="353047596"/>
    <nd ref="353047593"/>
    <tag k="addr:city" v="Москва"/>
    <tag k="addr:country" v="RU"/>
    <tag k="addr:housenumber" v="15"/>
    <tag k="addr:street" v="Газетный переулок"/>
    <tag k="amenity" v="place_of_worship"/>
    <tag k="building" v="church"/>
    <tag k="denomination" v="russian_orthodox"/>
    <tag k="name" v="Храм Успения Пресвятой Богородицы на Успенском вражке"/>
    <tag k="religion" v="christian"/>
  </way>
  <way id="31550348" version="9" timestamp="2012-07-20T11:55:47Z" uid="722137" user="OSMF Redaction Account" changeset="12374517">
    <nd ref="353047593"/>
    <nd ref="353047600"/>
    <nd ref="353047604"/>
    <nd ref="353047596"/>
    <nd ref="353047593"/>
    <tag k="addr:housenumber" v="15"/>
    <tag k="addr:street" v="Газетный переулок"/>
    <tag k="amenity" v="place_of_worship"/>
    <tag k="building" v="church"/>
    <tag k="denomination" v="russian_orthodox"/>
    <tag k="name" v="Храм Успения Пресвятой Богородицы на Успенском вражке"/>
    <tag k="religion" v="christian"/>
  </way>
  <way id="31550350" version="7" timestamp="2012-05-10T18:53:39Z" uid="440644" user="markhor" changeset="11561731">
    <nd ref="353047609"/>
    <nd ref="353047616"/>
    <nd ref="353047619"/>
    <nd ref="1747837577"/>
    <nd ref="353047609"/>
    <tag k="addr:city" v="Москва"/>
    <tag k="addr:country" v="RU"/>
    <tag k="addr:housenumber" v="9 с7"/>
    <tag k="addr:street" v="Тверская улица"/>
    <tag k="building" v="yes"/>
    <tag k="cladr:code" v="77000000000287700"/>
  </way>
  <way id="31550350" version="8" timestamp="2012-07-20T11:56:08Z" uid="722137" user="OSMF Redaction Account" changeset="12374517">
    <nd ref="353047609"/>
    <nd ref="353047616"/>
    <nd ref="353047619"/>
    <nd ref="1747837577"/>
    <nd ref="353047609"/>
    <tag k="addr:housenumber" v="9 с7"/>
    <tag k="addr:street" v="Тверская улица"/>
    <tag k="building" v="yes"/>
    <tag k="cladr:code" v="77000000000287700"/>
  </way>
  <way id="31550351" version="9" timestamp="2012-07-20T11:56:25Z" uid="722137" user="OSMF Redaction Account" changeset="12374517">
    <nd ref="353047624"/>
    <nd ref="594987479"/>
    <nd ref="594987482"/>
    <nd ref="353047626"/>
    <nd ref="353047628"/>
    <nd ref="353047630"/>
    <nd ref="353047624"/>
    <tag k="addr:country" v="RU"/>
    <tag k="addr:housenumber" v="5/6 с5"/>
    <tag k="addr:housenumber2" v="6/5 с5"/>
    <tag k="addr:street" v="улица Большая Дмитровка"/>
    <tag k="addr:street2" v="Камергерский переулок"/>
    <tag k="building" v="yes"/>
    <tag k="cladr:code" v="77000000000716700"/>
  </way>
  <way id="31550356" version="7" timestamp="2012-04-17T13:50:31Z" uid="260756" user="Felis Pimeja" changeset="11332014">
    <nd ref="353047653"/>
    <nd ref="353047656"/>
    <nd ref="353047657"/>
    <nd ref="353047654"/>
    <nd ref="353047653"/>
    <tag k="addr:city" v="Москва"/>
    <tag k="addr:country" v="RU"/>
    <tag k="addr:housenumber" v="2"/>
    <tag k="addr:street" v="Дмитровский переулок"/>
    <tag k="building" v="yes"/>
    <tag k="cladr:code" v="77000000000054400"/>
  </way>
  <way id="31550356" version="8" timestamp="2012-07-20T11:57:05Z" uid="722137" user="OSMF Redaction Account" changeset="12374517">
    <nd ref="353047653"/>
    <nd ref="353047656"/>
    <nd ref="353047657"/>
    <nd ref="353047654"/>
    <nd ref="353047653"/>
    <tag k="addr:housenumber" v="2"/>
    <tag k="addr:street" v="Дмитровский переулок"/>
    <tag k="building" v="yes"/>
    <tag k="cladr:code" v="77000000000054400"/>
  </way>
  <way id="31550358" version="8" timestamp="2012-07-20T11:56:59Z" uid="722137" user="OSMF Redaction Account" changeset="12374517">
    <nd ref="353047659"/>
    <nd ref="353047660"/>
    <nd ref="353047662"/>
    <nd ref="1567189080"/>
    <nd ref="1567189088"/>
    <nd ref="1567189077"/>
    <nd ref="1567189072"/>
    <nd ref="1567189070"/>
    <nd ref="1567189042"/>
    <nd ref="1567189037"/>
    <nd ref="1567189031"/>
    <nd ref="670864869"/>
    <nd ref="667423730"/>
    <nd ref="353047672"/>
    <nd ref="353047659"/>
    <tag k="addr:housenumber" v="10 с4"/>
    <tag k="addr:street" v="улица Большая Дмитровка"/>
    <tag k="building" v="yes"/>
    <tag k="cladr:code" v="77000000000716700"/>
  </way>
  <way id="31550360" version="6" timestamp="2012-07-20T11:57:30Z" uid="722137" user="OSMF Redaction Account" changeset="12374517">
    <nd ref="353047673"/>
    <nd ref="353047675"/>
    <nd ref="353047676"/>
    <nd ref="353047677"/>
    <nd ref="353047679"/>
    <nd ref="353047680"/>
    <nd ref="353047682"/>
    <nd ref="353047683"/>
    <nd ref="353047685"/>
    <nd ref="353047686"/>
    <nd ref="353047673"/>
    <tag k="addr:housenumber" v="8 к1"/>
    <tag k="addr:street" v="Тверская улица"/>
    <tag k="building" v="yes"/>
    <tag k="cladr:code" v="77000000000287700"/>
  </way>
  <way id="31550361" version="6" timestamp="2012-07-20T11:57:15Z" uid="722137" user="OSMF Redaction Account" changeset="12374517">
    <nd ref="353047688"/>
    <nd ref="353047692"/>
    <nd ref="353047694"/>
    <nd ref="353047696"/>
    <nd ref="353047698"/>
    <nd ref="353047701"/>
    <nd ref="353047703"/>
    <nd ref="353047706"/>
    <nd ref="353047708"/>
    <nd ref="353047711"/>
    <nd ref="353047715"/>
    <nd ref="353047718"/>
    <nd ref="353047688"/>
    <tag k="addr:housenumber" v="8 к2"/>
    <tag k="addr:street" v="Тверская улица"/>
    <tag k="building" v="yes"/>
    <tag k="cladr:code" v="77000000000287700"/>
  </way>
</osm>
