<?xml version='1.0' encoding='UTF-8'?>
<osm version="0.6" generator="libosmium/2.20.0">
  <way id="31637065" version="2" timestamp="2010-03-02T13:11:49Z" uid="49111" user="Markus B" changeset="4016689">
    <nd ref="69047239"/>
    <nd ref="309392023"/>
    <nd ref="20967203"/>
    <nd ref="320583988"/>
    <nd ref="659173047"/>
    <nd ref="659173045"/>
    <nd ref="267221997"/>
    <nd ref="659173021"/>
    <nd ref="659173005"/>
    <nd ref="320583981"/>
    <tag k="highway" v="secondary"/>
    <tag k="maxspeed" v="50"/>
    <tag k="name" v="Am Plärrer"/>
    <tag k="oneway" v="yes"/>
  </way>
  <way id="31637065" version="3" timestamp="2010-03-02T14:47:19Z" uid="49111" user="Markus B" changeset="4017414">
    <nd ref="69047239"/>
    <nd ref="309392023"/>
    <nd ref="320583988"/>
    <nd ref="659173047"/>
    <nd ref="659173045"/>
    <nd ref="267221997"/>
    <nd ref="659173021"/>
    <nd ref="659173005"/>
    <nd ref="320583981"/>
    <tag k="highway" v="secondary"/>
    <tag k="maxspeed" v="50"/>
    <tag k="name" v="Am Plärrer"/>
    <tag k="oneway" v="yes"/>
  </way>
  <way id="31637065" version="4" timestamp="2010-04-28T21:02:21Z" uid="10712" user="Kraeml" changeset="4553738">
    <nd ref="69047239"/>
    <nd ref="309392023"/>
    <nd ref="320583988"/>
    <tag k="cycleway" v="opposite_lane"/>
    <tag k="highway" v="secondary"/>
    <tag k="maxspeed" v="50"/>
    <tag k="name" v="Am Plärrer"/>
    <tag k="oneway" v="yes"/>
  </way>
  <way id="31637065" version="5" timestamp="2010-07-19T13:20:45Z" uid="319840" user="octo" changeset="5261067">
    <nd ref="69047239"/>
    <nd ref="309392023"/>
    <nd ref="824460834"/>
    <nd ref="320583988"/>
    <tag k="cycleway" v="opposite_lane"/>
    <tag k="highway" v="secondary"/>
    <tag k="maxspeed" v="50"/>
    <tag k="name" v="Am Plärrer"/>
    <tag k="oneway" v="yes"/>
  </way>
  <way id="31637065" version="6" timestamp="2011-02-08T23:05:21Z" uid="346758" user="kukuk" changeset="7231923">
    <nd ref="69047239"/>
    <nd ref="309392023"/>
    <nd ref="824460834"/>
    <tag k="highway" v="secondary"/>
    <tag k="maxspeed" v="50"/>
    <tag k="name" v="Am Plärrer"/>
    <tag k="oneway" v="yes"/>
  </way>
  <way id="31637065" version="7" timestamp="2011-03-27T21:47:28Z" uid="346758" user="kukuk" changeset="7691564"/>
  <way id="31637067" version="2" timestamp="2010-04-28T21:02:18Z" uid="10712" user="Kraeml" changeset="4553738">
    <nd ref="69047239"/>
    <nd ref="21643368"/>
    <tag k="cycleway" v="opposite_lane"/>
    <tag k="highway" v="secondary"/>
    <tag k="maxspeed" v="50"/>
  </way>
  <way id="31637067" version="3" timestamp="2010-07-20T12:22:56Z" uid="319840" user="octo" changeset="5269932">
    <nd ref="69047239"/>
    <nd ref="21643368"/>
    <tag k="cycleway" v="opposite_lane"/>
    <tag k="highway" v="secondary"/>
    <tag k="maxspeed" v="50"/>
    <tag k="name" v="Am Plärrer"/>
  </way>
  <way id="31637067" version="4" timestamp="2011-02-08T23:05:27Z" uid="346758" user="kukuk" changeset="7231923">
    <nd ref="69047239"/>
    <nd ref="21643368"/>
    <tag k="highway" v="secondary"/>
    <tag k="maxspeed" v="50"/>
    <tag k="name" v="Am Plärrer"/>
  </way>
  <way id="31637067" version="5" timestamp="2011-03-28T09:33:39Z" uid="346758" user="kukuk" changeset="7694849">
    <nd ref="69047239"/>
    <nd ref="21643368"/>
    <tag k="bicycle" v="no"/>
    <tag k="foot" v="no"/>
    <tag k="highway" v="secondary"/>
    <tag k="maxspeed" v="50"/>
    <tag k="name" v="Am Plärrer"/>
  </way>
  <way id="31637067" version="6" timestamp="2011-11-21T18:10:11Z" uid="346758" user="kukuk" changeset="9899815"/>
  <way id="31637068" version="3" timestamp="2010-04-28T21:01:17Z" uid="10712" user="Kraeml" changeset="4553738">
    <nd ref="29812270"/>
    <nd ref="27361762"/>
    <nd ref="27361761"/>
    <tag k="cycleway" v="lane"/>
    <tag k="highway" v="secondary"/>
    <tag k="maxspeed" v="50"/>
    <tag k="name" v="Fürther Straße"/>
    <tag k="oneway" v="yes"/>
  </way>
  <way id="31637068" version="4" timestamp="2011-03-27T21:12:06Z" uid="346758" user="kukuk" changeset="7691244">
    <nd ref="29812270"/>
    <nd ref="27361762"/>
    <tag k="cycleway" v="lane"/>
    <tag k="highway" v="secondary"/>
    <tag k="maxspeed" v="50"/>
    <tag k="name" v="Fürther Straße"/>
    <tag k="oneway" v="yes"/>
  </way>
  <way id="31637068" version="5" timestamp="2011-09-28T18:50:06Z" uid="524138" user="TheAlfred" changeset="9421895">
    <nd ref="29812270"/>
    <nd ref="1448373808"/>
    <tag k="highway" v="secondary"/>
    <tag k="maxspeed" v="50"/>
    <tag k="name" v="Fürther Straße"/>
    <tag k="oneway" v="yes"/>
  </way>
  <way id="31637068" version="6" timestamp="2011-12-03T08:03:51Z" uid="71557" user="Taroc" changeset="10022435"/>
  <way id="31637071" version="2" timestamp="2010-04-28T21:01:31Z" uid="10712" user="Kraeml" changeset="4553738">
    <nd ref="27361763"/>
    <nd ref="353896030"/>
    <nd ref="28097019"/>
    <nd ref="27361764"/>
    <nd ref="162751041"/>
    <nd ref="33198833"/>
    <nd ref="31906191"/>
    <tag k="cycleway" v="lane"/>
    <tag k="highway" v="secondary"/>
    <tag k="maxspeed" v="50"/>
    <tag k="name" v="Fürther Straße"/>
    <tag k="oneway" v="yes"/>
  </way>
  <way id="31637071" version="3" timestamp="2010-05-13T14:06:42Z" uid="6270" user="mikes" changeset="4686459">
    <nd ref="27361763"/>
    <nd ref="353896030"/>
    <nd ref="28097019"/>
    <nd ref="27361764"/>
    <nd ref="162751041"/>
    <nd ref="732233910"/>
    <nd ref="31906191"/>
    <tag k="cycleway" v="lane"/>
    <tag k="highway" v="secondary"/>
    <tag k="maxspeed" v="50"/>
    <tag k="name" v="Fürther Straße"/>
    <tag k="oneway" v="yes"/>
  </way>
  <way id="31637071" version="4" timestamp="2010-07-25T19:47:14Z" uid="202858" user="kellerma" changeset="5315870">
    <nd ref="27361763"/>
    <nd ref="353896030"/>
    <nd ref="28097019"/>
    <nd ref="833350238"/>
    <nd ref="27361764"/>
    <nd ref="162751041"/>
    <nd ref="732233910"/>
    <nd ref="31906191"/>
    <tag k="cycleway" v="lane"/>
    <tag k="highway" v="secondary"/>
    <tag k="maxspeed" v="50"/>
    <tag k="name" v="Fürther Straße"/>
    <tag k="oneway" v="yes"/>
  </way>
  <way id="31637071" version="5" timestamp="2010-08-11T11:22:18Z" uid="319840" user="octo" changeset="5461904">
    <nd ref="27361763"/>
    <nd ref="353896030"/>
    <nd ref="28097019"/>
    <nd ref="833350238"/>
    <nd ref="27361764"/>
    <nd ref="162751041"/>
    <nd ref="732233910"/>
    <tag k="cycleway" v="lane"/>
    <tag k="highway" v="secondary"/>
    <tag k="maxspeed" v="50"/>
    <tag k="name" v="Fürther Straße"/>
    <tag k="oneway" v="yes"/>
  </way>
  <way id="31637071" version="6" timestamp="2011-09-20T16:17:20Z" uid="524138" user="TheAlfred" changeset="9352803">
    <nd ref="27361763"/>
    <nd ref="353896030"/>
    <nd ref="28097019"/>
    <nd ref="833350238"/>
    <nd ref="27361764"/>
    <nd ref="732233910"/>
    <tag k="cycleway" v="lane"/>
    <tag k="highway" v="secondary"/>
    <tag k="maxspeed" v="50"/>
    <tag k="name" v="Fürther Straße"/>
    <tag k="oneway" v="yes"/>
  </way>
  <way id="31637071" version="7" timestamp="2011-09-28T18:50:11Z" uid="524138" user="TheAlfred" changeset="9421895">
    <nd ref="27361763"/>
    <nd ref="353896030"/>
    <nd ref="28097019"/>
    <nd ref="833350238"/>
    <nd ref="27361764"/>
    <nd ref="732233910"/>
    <tag k="highway" v="secondary"/>
    <tag k="maxspeed" v="50"/>
    <tag k="name" v="Fürther Straße"/>
    <tag k="oneway" v="yes"/>
  </way>
  <way id="31637071" version="8" timestamp="2011-12-03T08:03:51Z" uid="71557" user="Taroc" changeset="10022435"/>
  <way id="31637073" version="4" timestamp="2010-04-28T21:02:16Z" uid="10712" user="Kraeml" changeset="4553738">
    <nd ref="354447341"/>
    <nd ref="354447345"/>
    <nd ref="353896019"/>
    <nd ref="353896020"/>
    <nd ref="353896022"/>
    <tag k="highway" v="secondary"/>
    <tag k="maxspeed" v="50"/>
    <tag k="name" v="Fürther Straße"/>
    <tag k="oneway" v="yes"/>
  </way>
  <way id="31637073" version="5" timestamp="2010-05-11T01:09:27Z" uid="74437" user="Mike FABIAN" changeset="4664959">
    <nd ref="354447341"/>
    <nd ref="354447345"/>
    <nd ref="353896019"/>
    <nd ref="353896020"/>
    <nd ref="729351490"/>
    <tag k="highway" v="secondary"/>
    <tag k="maxspeed" v="50"/>
    <tag k="name" v="Fürther Straße"/>
    <tag k="oneway" v="yes"/>
  </way>
  <way id="31637073" version="6" timestamp="2010-05-12T20:03:09Z" uid="202858" user="kellerma" changeset="4680529">
    <nd ref="354447341"/>
    <nd ref="354447345"/>
    <nd ref="353896019"/>
    <nd ref="353896020"/>
    <nd ref="353896022"/>
    <tag k="highway" v="secondary"/>
    <tag k="maxspeed" v="50"/>
    <tag k="name" v="Fürther Straße"/>
    <tag k="oneway" v="yes"/>
  </way>
  <way id="31637073" version="7" timestamp="2011-12-03T06:25:21Z" uid="346758" user="kukuk" changeset="10022016">
    <nd ref="354447341"/>
    <nd ref="354447345"/>
    <nd ref="353896019"/>
    <nd ref="353896020"/>
    <nd ref="1529175278"/>
    <nd ref="353896022"/>
    <tag k="highway" v="secondary"/>
    <tag k="maxspeed" v="50"/>
    <tag k="name" v="Fürther Straße"/>
    <tag k="oneway" v="yes"/>
  </way>
  <way id="31637073" version="8" timestamp="2011-12-03T15:30:36Z" uid="71557" user="Taroc" changeset="10025504"/>
  <way id="31637854" version="5" timestamp="2009-03-08T13:41:06Z" uid="6975" user="ulfl" changeset="757880">
    <nd ref="353898599"/>
    <nd ref="353898600"/>
    <nd ref="353898601"/>
    <nd ref="353898602"/>
    <nd ref="353898603"/>
    <nd ref="353898605"/>
    <nd ref="353898606"/>
    <nd ref="353898599"/>
    <tag k="amenity" v="school"/>
    <tag k="building" v="yes"/>
    <tag k="name" v="Dreieichschule"/>
    <tag k="operator" v="Kreis Offenbach"/>
    <tag k="type" v="Gymnasium"/>
  </way>
  <way id="31637854" version="6" timestamp="2009-03-09T09:21:08Z" uid="31075" user="wieland" changeset="767188">
    <nd ref="353898599"/>
    <nd ref="357870256"/>
    <nd ref="353898601"/>
    <nd ref="353898602"/>
    <nd ref="353898603"/>
    <nd ref="353898605"/>
    <nd ref="353898606"/>
    <nd ref="353898599"/>
    <tag k="amenity" v="school"/>
    <tag k="building" v="yes"/>
    <tag k="name" v="Dreieichschule"/>
    <tag k="operator" v="Kreis Offenbach"/>
    <tag k="type" v="Gymnasium"/>
  </way>
  <way id="31637854" version="7" timestamp="2009-03-09T09:21:27Z" uid="31075" user="wieland" changeset="767188">
    <nd ref="353898599"/>
    <nd ref="357870256"/>
    <nd ref="353898601"/>
    <nd ref="353898602"/>
    <nd ref="353898603"/>
    <nd ref="353898605"/>
    <nd ref="353898599"/>
    <tag k="amenity" v="school"/>
    <tag k="building" v="yes"/>
    <tag k="name" v="Dreieichschule"/>
    <tag k="operator" v="Kreis Offenbach"/>
    <tag k="type" v="Gymnasium"/>
  </way>
  <way id="31637854" version="8" timestamp="2011-05-06T17:34:07Z" uid="23785" user="greecemapper" changeset="8067103">
    <nd ref="353898599"/>
    <nd ref="357870256"/>
    <nd ref="353898601"/>
    <nd ref="353898602"/>
    <nd ref="353898603"/>
    <nd ref="353898605"/>
    <nd ref="353898599"/>
    <tag k="building" v="yes"/>
  </way>
  <way id="31637990" version="2" timestamp="2010-06-29T19:15:13Z" uid="74617" user="JohnSmith" changeset="5108182">
    <nd ref="353898990"/>
    <nd ref="353898995"/>
    <nd ref="353899000"/>
    <nd ref="353898992"/>
    <nd ref="353898990"/>
    <tag k="fixme" v="sport=football is ambiguous, see http://wiki.osm.org/wiki/Football for more details"/>
    <tag k="leisure" v="pitch"/>
    <tag k="sport" v="football"/>
  </way>
  <way id="31637990" version="3" timestamp="2011-10-31T19:35:32Z" uid="35638" user="ddixon" changeset="9706977"/>
  <way id="31637854" version="9" timestamp="2012-05-09T13:45:45Z" uid="201359" user="wambacher" changeset="11549323">
    <nd ref="353898599"/>
    <nd ref="357870256"/>
    <nd ref="353898601"/>
    <nd ref="353898602"/>
    <nd ref="353898603"/>
    <nd ref="353898605"/>
    <nd ref="353898599"/>
    <tag k="building" v="school"/>
  </way>
</osm>
