<?xml version='1.0' encoding='UTF-8'?>
<osm version="0.6" generator="libosmium/2.20.0">
  <way id="31652057" version="3" timestamp="2010-03-28T01:08:38Z" uid="20587" user="balrog-kun" changeset="4250871">
    <nd ref="354061959"/>
    <nd ref="123289144"/>
    <tag k="created_by" v="Potlatch 0.10f"/>
    <tag k="highway" v="residential"/>
    <tag k="name" v="Mather Avenue"/>
    <tag k="tiger:cfcc" v="A41"/>
    <tag k="tiger:county" v="Los Angeles, CA"/>
    <tag k="tiger:name_base" v="Mather"/>
    <tag k="tiger:name_type" v="Ave"/>
    <tag k="tiger:reviewed" v="no"/>
    <tag k="tiger:separated" v="no"/>
    <tag k="tiger:source" v="tiger_import_dch_v0.6_20070809"/>
    <tag k="tiger:tlid" v="141587814:141587818:141824908:141587820"/>
    <tag k="tiger:zip_left" v="91040"/>
    <tag k="tiger:zip_right" v="91040"/>
  </way>
  <way id="31652327" version="4" timestamp="2011-03-31T16:51:31Z" uid="23543" user="jkjk" changeset="7727674">
    <nd ref="353067162"/>
    <nd ref="353975150"/>
    <nd ref="1226840709"/>
    <nd ref="353975265"/>
    <nd ref="353975266"/>
    <nd ref="353975268"/>
    <nd ref="353975269"/>
    <nd ref="353975271"/>
    <nd ref="353975272"/>
    <tag k="highway" v="tertiary"/>
  </way>
  <way id="31652327" version="5" timestamp="2011-06-06T12:31:46Z" uid="364209" user="ppkmoby" changeset="8359820">
    <nd ref="353067162"/>
    <nd ref="1314058202"/>
    <nd ref="353975150"/>
    <nd ref="1226840709"/>
    <nd ref="353975265"/>
    <nd ref="353975266"/>
    <nd ref="353975268"/>
    <nd ref="353975269"/>
    <nd ref="353975271"/>
    <nd ref="353975272"/>
    <tag k="highway" v="tertiary"/>
  </way>
  <way id="31652370" version="4" timestamp="2010-07-09T07:58:57Z" uid="74617" user="JohnSmith" changeset="5171412">
    <nd ref="354064849"/>
    <nd ref="354064823"/>
    <nd ref="354065183"/>
    <nd ref="354065139"/>
    <nd ref="354065385"/>
    <nd ref="354065004"/>
    <nd ref="354065018"/>
    <nd ref="31341905"/>
    <tag k="highway" v="residential"/>
    <tag k="maxspeed" v="50"/>
    <tag k="maxspeed:source" v="default residential speed limit in Australia"/>
    <tag k="name" v="Aurelian Street"/>
  </way>
  <way id="31652370" version="5" timestamp="2012-01-18T08:06:42Z" uid="147510" user="woodpeck_fixbot" changeset="10424702">
    <nd ref="354064849"/>
    <nd ref="354064823"/>
    <nd ref="354065183"/>
    <nd ref="354065139"/>
    <nd ref="354065385"/>
    <nd ref="354065004"/>
    <nd ref="354065018"/>
    <nd ref="31341905"/>
    <tag k="highway" v="residential"/>
    <tag k="name" v="Aurelian Street"/>
  </way>
  <way id="31652371" version="7" timestamp="2010-07-09T08:01:36Z" uid="74617" user="JohnSmith" changeset="5171412">
    <nd ref="354066076"/>
    <nd ref="354066344"/>
    <nd ref="354066334"/>
    <nd ref="354066330"/>
    <nd ref="355796504"/>
    <nd ref="354066324"/>
    <nd ref="354066321"/>
    <nd ref="354066317"/>
    <nd ref="354066313"/>
    <nd ref="354064826"/>
    <tag k="highway" v="residential"/>
    <tag k="maxspeed" v="50"/>
    <tag k="maxspeed:source" v="default residential speed limit in Australia"/>
    <tag k="name" v="Luffingham Street"/>
  </way>
  <way id="31652371" version="8" timestamp="2012-01-18T08:06:43Z" uid="147510" user="woodpeck_fixbot" changeset="10424702">
    <nd ref="354066076"/>
    <nd ref="354066344"/>
    <nd ref="354066334"/>
    <nd ref="354066330"/>
    <nd ref="355796504"/>
    <nd ref="354066324"/>
    <nd ref="354066321"/>
    <nd ref="354066317"/>
    <nd ref="354066313"/>
    <nd ref="354064826"/>
    <tag k="highway" v="residential"/>
    <tag k="name" v="Luffingham Street"/>
  </way>
  <way id="31652372" version="4" timestamp="2010-06-11T07:00:25Z" uid="4467" user="Rosscoe" changeset="4960110">
    <nd ref="354064837"/>
    <nd ref="769043217"/>
    <tag k="highway" v="residential"/>
    <tag k="name" v="Tamar Street"/>
  </way>
  <way id="31652372" version="5" timestamp="2010-07-09T08:02:45Z" uid="74617" user="JohnSmith" changeset="5171412">
    <nd ref="354064837"/>
    <nd ref="769043217"/>
    <tag k="highway" v="residential"/>
    <tag k="maxspeed" v="50"/>
    <tag k="maxspeed:source" v="default residential speed limit in Australia"/>
    <tag k="name" v="Tamar Street"/>
  </way>
  <way id="31652372" version="6" timestamp="2012-01-18T08:06:45Z" uid="147510" user="woodpeck_fixbot" changeset="10424702">
    <nd ref="354064837"/>
    <nd ref="769043217"/>
    <tag k="highway" v="residential"/>
    <tag k="name" v="Tamar Street"/>
  </way>
  <way id="31652373" version="5" timestamp="2010-11-01T16:11:31Z" uid="9581" user="Lobelt" changeset="6256728">
    <nd ref="481032"/>
    <nd ref="481034"/>
    <nd ref="368839546"/>
    <nd ref="481038"/>
    <nd ref="481042"/>
    <tag k="highway" v="motorway"/>
    <tag k="int_ref" v="E 451"/>
    <tag k="lanes" v="2"/>
    <tag k="maxspeed" v="signals"/>
    <tag k="oneway" v="yes"/>
    <tag k="ref" v="A 5"/>
  </way>
  <way id="31652373" version="6" timestamp="2011-08-21T08:54:27Z" uid="30077" user="ChristianW" changeset="9081783">
    <nd ref="481032"/>
    <nd ref="481034"/>
    <nd ref="368839546"/>
    <nd ref="481038"/>
    <nd ref="481042"/>
    <tag k="highway" v="motorway"/>
    <tag k="int_ref" v="E 451"/>
    <tag k="lanes" v="2"/>
    <tag k="lit" v="no"/>
    <tag k="maxspeed" v="signals"/>
    <tag k="oneway" v="yes"/>
    <tag k="ref" v="A 5"/>
    <tag k="source:lit" v="http://www.autobahn-bilder.de"/>
  </way>
  <way id="31652373" version="7" timestamp="2011-12-30T12:20:32Z" uid="302852" user="be-ju" changeset="10244556">
    <nd ref="481032"/>
    <nd ref="481034"/>
    <nd ref="1569113440"/>
    <nd ref="481038"/>
    <nd ref="481042"/>
    <tag k="highway" v="motorway"/>
    <tag k="int_ref" v="E 451"/>
    <tag k="lanes" v="2"/>
    <tag k="lit" v="no"/>
    <tag k="maxspeed" v="signals"/>
    <tag k="oneway" v="yes"/>
    <tag k="ref" v="A 5"/>
    <tag k="source:lit" v="http://www.autobahn-bilder.de"/>
  </way>
  <way id="31652373" version="8" timestamp="2012-01-04T21:01:32Z" uid="302852" user="be-ju" changeset="10295282"/>
  <way id="31652374" version="4" timestamp="2010-07-09T07:56:40Z" uid="74617" user="JohnSmith" changeset="5171412">
    <nd ref="354064853"/>
    <nd ref="354064868"/>
    <nd ref="354065167"/>
    <nd ref="354064893"/>
    <nd ref="354065146"/>
    <nd ref="354064947"/>
    <nd ref="354064978"/>
    <nd ref="354065001"/>
    <nd ref="354064858"/>
    <nd ref="354064863"/>
    <tag k="highway" v="residential"/>
    <tag k="maxspeed" v="50"/>
    <tag k="maxspeed:source" v="default residential speed limit in Australia"/>
    <tag k="name" v="McGregor Road"/>
  </way>
  <way id="31652374" version="5" timestamp="2012-01-18T08:06:46Z" uid="147510" user="woodpeck_fixbot" changeset="10424702">
    <nd ref="354064853"/>
    <nd ref="354064868"/>
    <nd ref="354065167"/>
    <nd ref="354064893"/>
    <nd ref="354065146"/>
    <nd ref="354064947"/>
    <nd ref="354064978"/>
    <nd ref="354065001"/>
    <nd ref="354064858"/>
    <nd ref="354064863"/>
    <tag k="highway" v="residential"/>
    <tag k="name" v="McGregor Road"/>
  </way>
  <way id="31652375" version="3" timestamp="2010-07-09T07:59:45Z" uid="74617" user="JohnSmith" changeset="5171412">
    <nd ref="354064868"/>
    <nd ref="354064871"/>
    <nd ref="354064875"/>
    <nd ref="354064880"/>
    <nd ref="354064884"/>
    <nd ref="354064889"/>
    <tag k="highway" v="residential"/>
    <tag k="maxspeed" v="50"/>
    <tag k="maxspeed:source" v="default residential speed limit in Australia"/>
  </way>
  <way id="31652375" version="4" timestamp="2012-01-18T08:06:47Z" uid="147510" user="woodpeck_fixbot" changeset="10424702">
    <nd ref="354064868"/>
    <nd ref="354064871"/>
    <nd ref="354064875"/>
    <nd ref="354064880"/>
    <nd ref="354064884"/>
    <nd ref="354064889"/>
    <tag k="highway" v="residential"/>
  </way>
  <way id="31652376" version="3" timestamp="2010-07-09T07:54:34Z" uid="74617" user="JohnSmith" changeset="5171412">
    <nd ref="354064893"/>
    <nd ref="354064897"/>
    <tag k="highway" v="residential"/>
    <tag k="maxspeed" v="50"/>
    <tag k="maxspeed:source" v="default residential speed limit in Australia"/>
  </way>
  <way id="31652376" version="4" timestamp="2012-01-18T08:06:48Z" uid="147510" user="woodpeck_fixbot" changeset="10424702">
    <nd ref="354064893"/>
    <nd ref="354064897"/>
    <tag k="highway" v="residential"/>
  </way>
  <way id="31652377" version="3" timestamp="2010-07-09T07:58:08Z" uid="74617" user="JohnSmith" changeset="5171412">
    <nd ref="354064907"/>
    <nd ref="354064933"/>
    <nd ref="354064897"/>
    <nd ref="354064939"/>
    <nd ref="354064942"/>
    <tag k="highway" v="residential"/>
    <tag k="maxspeed" v="50"/>
    <tag k="maxspeed:source" v="default residential speed limit in Australia"/>
  </way>
  <way id="31652377" version="4" timestamp="2012-01-18T08:06:49Z" uid="147510" user="woodpeck_fixbot" changeset="10424702">
    <nd ref="354064907"/>
    <nd ref="354064933"/>
    <nd ref="354064897"/>
    <nd ref="354064939"/>
    <nd ref="354064942"/>
    <tag k="highway" v="residential"/>
  </way>
  <way id="31652378" version="3" timestamp="2010-07-09T08:03:24Z" uid="74617" user="JohnSmith" changeset="5171412">
    <nd ref="354064947"/>
    <nd ref="354064952"/>
    <tag k="highway" v="residential"/>
    <tag k="maxspeed" v="50"/>
    <tag k="maxspeed:source" v="default residential speed limit in Australia"/>
    <tag k="name" v="Hird Place"/>
  </way>
  <way id="31652378" version="4" timestamp="2012-01-18T08:07:03Z" uid="147510" user="woodpeck_fixbot" changeset="10424702">
    <nd ref="354064947"/>
    <nd ref="354064952"/>
    <tag k="highway" v="residential"/>
    <tag k="name" v="Hird Place"/>
  </way>
  <way id="31652379" version="3" timestamp="2010-07-09T08:08:09Z" uid="74617" user="JohnSmith" changeset="5171412">
    <nd ref="354064956"/>
    <nd ref="354064960"/>
    <nd ref="354064952"/>
    <nd ref="354064966"/>
    <nd ref="354064972"/>
    <tag k="highway" v="residential"/>
    <tag k="maxspeed" v="50"/>
    <tag k="maxspeed:source" v="default residential speed limit in Australia"/>
    <tag k="name" v="Hird Place"/>
  </way>
  <way id="31652379" version="4" timestamp="2012-01-18T08:07:03Z" uid="147510" user="woodpeck_fixbot" changeset="10424702">
    <nd ref="354064956"/>
    <nd ref="354064960"/>
    <nd ref="354064952"/>
    <nd ref="354064966"/>
    <nd ref="354064972"/>
    <tag k="highway" v="residential"/>
    <tag k="name" v="Hird Place"/>
  </way>
  <way id="31652381" version="3" timestamp="2010-07-09T07:55:34Z" uid="74617" user="JohnSmith" changeset="5171412">
    <nd ref="354064978"/>
    <nd ref="354064983"/>
    <nd ref="354064987"/>
    <nd ref="354064992"/>
    <nd ref="354064997"/>
    <tag k="highway" v="residential"/>
    <tag k="maxspeed" v="50"/>
    <tag k="maxspeed:source" v="default residential speed limit in Australia"/>
    <tag k="name" v="Moody Glen"/>
  </way>
  <way id="31652381" version="4" timestamp="2010-08-17T01:35:59Z" uid="334455" user="Vonrichthoffen" changeset="5514113">
    <nd ref="354064978"/>
    <nd ref="354064987"/>
    <nd ref="354064992"/>
    <nd ref="354064997"/>
    <tag k="highway" v="residential"/>
    <tag k="maxspeed" v="50"/>
    <tag k="maxspeed:source" v="default residential speed limit in Australia"/>
    <tag k="name" v="Moody Glen"/>
  </way>
  <way id="31652381" version="5" timestamp="2012-01-18T08:07:05Z" uid="147510" user="woodpeck_fixbot" changeset="10424702">
    <nd ref="354064978"/>
    <nd ref="354064987"/>
    <nd ref="354064992"/>
    <nd ref="354064997"/>
    <tag k="highway" v="residential"/>
    <tag k="name" v="Moody Glen"/>
  </way>
  <way id="31652382" version="4" timestamp="2010-06-11T06:59:49Z" uid="4467" user="Rosscoe" changeset="4960110">
    <nd ref="354065001"/>
    <nd ref="354065155"/>
    <nd ref="769043252"/>
    <nd ref="60311646"/>
    <nd ref="354065004"/>
    <nd ref="354065411"/>
    <nd ref="354065010"/>
    <nd ref="354065015"/>
    <nd ref="354065270"/>
    <tag k="highway" v="residential"/>
    <tag k="name" v="Baal Street"/>
  </way>
  <way id="31652382" version="5" timestamp="2010-07-09T08:00:50Z" uid="74617" user="JohnSmith" changeset="5171412">
    <nd ref="354065001"/>
    <nd ref="354065155"/>
    <nd ref="769043252"/>
    <nd ref="60311646"/>
    <nd ref="354065004"/>
    <nd ref="354065411"/>
    <nd ref="354065010"/>
    <nd ref="354065015"/>
    <nd ref="354065270"/>
    <tag k="highway" v="residential"/>
    <tag k="maxspeed" v="50"/>
    <tag k="maxspeed:source" v="default residential speed limit in Australia"/>
    <tag k="name" v="Baal Street"/>
  </way>
  <way id="31652382" version="6" timestamp="2012-01-18T08:07:06Z" uid="147510" user="woodpeck_fixbot" changeset="10424702">
    <nd ref="354065001"/>
    <nd ref="354065155"/>
    <nd ref="769043252"/>
    <nd ref="60311646"/>
    <nd ref="354065004"/>
    <nd ref="354065411"/>
    <nd ref="354065010"/>
    <nd ref="354065015"/>
    <nd ref="354065270"/>
    <tag k="highway" v="residential"/>
    <tag k="name" v="Baal Street"/>
  </way>
  <way id="31652383" version="3" timestamp="2010-05-01T06:53:20Z" uid="4467" user="Rosscoe" changeset="4571914">
    <nd ref="31003952"/>
    <nd ref="354064858"/>
    <nd ref="354065160"/>
    <nd ref="60311702"/>
    <nd ref="354065018"/>
    <nd ref="354065415"/>
    <nd ref="714825270"/>
    <tag k="highway" v="residential"/>
    <tag k="name" v="Justinian Street"/>
  </way>
  <way id="31652383" version="4" timestamp="2010-06-11T06:06:37Z" uid="4467" user="Rosscoe" changeset="4959872">
    <nd ref="769008266"/>
    <nd ref="31003952"/>
    <nd ref="354064858"/>
    <nd ref="354065160"/>
    <nd ref="60311702"/>
    <nd ref="354065018"/>
    <nd ref="354065415"/>
    <nd ref="714825270"/>
    <tag k="highway" v="residential"/>
    <tag k="name" v="Justinian Street"/>
  </way>
  <way id="31652383" version="5" timestamp="2010-06-11T07:00:18Z" uid="4467" user="Rosscoe" changeset="4960110">
    <nd ref="769008266"/>
    <nd ref="31003952"/>
    <nd ref="354064858"/>
    <nd ref="354065160"/>
    <nd ref="769043818"/>
    <nd ref="60311702"/>
    <nd ref="354065018"/>
    <nd ref="354065415"/>
    <nd ref="714825270"/>
    <tag k="highway" v="residential"/>
    <tag k="name" v="Justinian Street"/>
  </way>
  <way id="31652383" version="6" timestamp="2010-07-09T08:04:51Z" uid="74617" user="JohnSmith" changeset="5171412">
    <nd ref="769008266"/>
    <nd ref="31003952"/>
    <nd ref="354064858"/>
    <nd ref="354065160"/>
    <nd ref="769043818"/>
    <nd ref="60311702"/>
    <nd ref="354065018"/>
    <nd ref="354065415"/>
    <nd ref="714825270"/>
    <tag k="highway" v="residential"/>
    <tag k="maxspeed" v="50"/>
    <tag k="maxspeed:source" v="default residential speed limit in Australia"/>
    <tag k="name" v="Justinian Street"/>
  </way>
  <way id="31652383" version="7" timestamp="2012-01-18T08:07:07Z" uid="147510" user="woodpeck_fixbot" changeset="10424702">
    <nd ref="769008266"/>
    <nd ref="31003952"/>
    <nd ref="354064858"/>
    <nd ref="354065160"/>
    <nd ref="769043818"/>
    <nd ref="60311702"/>
    <nd ref="354065018"/>
    <nd ref="354065415"/>
    <nd ref="714825270"/>
    <tag k="highway" v="residential"/>
    <tag k="name" v="Justinian Street"/>
  </way>
  <way id="31652384" version="4" timestamp="2010-07-09T17:27:31Z" uid="74617" user="JohnSmith" changeset="5175333">
    <nd ref="354065038"/>
    <nd ref="354065316"/>
    <nd ref="354065338"/>
    <nd ref="354065031"/>
    <nd ref="354065344"/>
    <nd ref="354065348"/>
    <nd ref="354065274"/>
    <nd ref="354065284"/>
    <nd ref="354065281"/>
    <nd ref="354065043"/>
    <nd ref="354065202"/>
    <nd ref="354065208"/>
    <nd ref="354065236"/>
    <nd ref="354065214"/>
    <nd ref="354065232"/>
    <nd ref="354065220"/>
    <nd ref="354065225"/>
    <nd ref="354065222"/>
    <tag k="highway" v="residential"/>
    <tag k="maxspeed" v="50"/>
    <tag k="maxspeed:source" v="default residential speed limit in Australia"/>
    <tag k="name" v="Hammad Street"/>
  </way>
  <way id="31652384" version="5" timestamp="2012-01-18T08:07:08Z" uid="147510" user="woodpeck_fixbot" changeset="10424702">
    <nd ref="354065038"/>
    <nd ref="354065316"/>
    <nd ref="354065338"/>
    <nd ref="354065031"/>
    <nd ref="354065344"/>
    <nd ref="354065348"/>
    <nd ref="354065274"/>
    <nd ref="354065284"/>
    <nd ref="354065281"/>
    <nd ref="354065043"/>
    <nd ref="354065202"/>
    <nd ref="354065208"/>
    <nd ref="354065236"/>
    <nd ref="354065214"/>
    <nd ref="354065232"/>
    <nd ref="354065220"/>
    <nd ref="354065225"/>
    <nd ref="354065222"/>
    <tag k="highway" v="residential"/>
    <tag k="name" v="Hammad Street"/>
  </way>
  <way id="31652385" version="4" timestamp="2010-05-01T06:53:20Z" uid="4467" user="Rosscoe" changeset="4571914">
    <nd ref="354065051"/>
    <nd ref="354065055"/>
    <nd ref="354065063"/>
    <nd ref="714825544"/>
    <tag k="highway" v="secondary"/>
    <tag k="name" v="Elvira Street"/>
  </way>
  <way id="31652385" version="5" timestamp="2012-01-09T17:32:07Z" uid="142807" user="SDavies" changeset="10343949">
    <nd ref="354065051"/>
    <nd ref="354065055"/>
    <nd ref="354065063"/>
    <nd ref="714825544"/>
    <tag k="highway" v="tertiary"/>
    <tag k="name" v="Elvira Street"/>
  </way>
  <way id="31652387" version="4" timestamp="2010-05-01T06:53:24Z" uid="4467" user="Rosscoe" changeset="4571914">
    <nd ref="354065116"/>
    <nd ref="354065124"/>
    <nd ref="354065015"/>
    <nd ref="714825455"/>
    <tag k="highway" v="residential"/>
    <tag k="name" v="Solomon Street"/>
  </way>
  <way id="31652388" version="4" timestamp="2010-07-09T07:57:11Z" uid="74617" user="JohnSmith" changeset="5171412">
    <nd ref="354065148"/>
    <nd ref="354065177"/>
    <nd ref="354065152"/>
    <nd ref="354065155"/>
    <nd ref="354065160"/>
    <nd ref="354065162"/>
    <tag k="highway" v="residential"/>
    <tag k="maxspeed" v="50"/>
    <tag k="maxspeed:source" v="default residential speed limit in Australia"/>
    <tag k="name" v="Forrest Street"/>
  </way>
  <way id="31652388" version="5" timestamp="2012-01-18T08:07:09Z" uid="147510" user="woodpeck_fixbot" changeset="10424702">
    <nd ref="354065148"/>
    <nd ref="354065177"/>
    <nd ref="354065152"/>
    <nd ref="354065155"/>
    <nd ref="354065160"/>
    <nd ref="354065162"/>
    <tag k="highway" v="residential"/>
    <tag k="name" v="Forrest Street"/>
  </way>
  <way id="31652390" version="4" timestamp="2010-06-11T07:00:29Z" uid="4467" user="Rosscoe" changeset="4960110">
    <nd ref="354065167"/>
    <nd ref="354065177"/>
    <nd ref="769042555"/>
    <nd ref="60311595"/>
    <nd ref="354065183"/>
    <nd ref="354064841"/>
    <nd ref="354065190"/>
    <nd ref="354065254"/>
    <nd ref="354065094"/>
    <nd ref="354065197"/>
    <nd ref="354065214"/>
    <nd ref="32017940"/>
    <tag k="highway" v="residential"/>
    <tag k="name" v="Adrian Street"/>
  </way>
  <way id="31652390" version="5" timestamp="2010-07-09T08:07:01Z" uid="74617" user="JohnSmith" changeset="5171412">
    <nd ref="354065167"/>
    <nd ref="354065177"/>
    <nd ref="769042555"/>
    <nd ref="60311595"/>
    <nd ref="354065183"/>
    <nd ref="354064841"/>
    <nd ref="354065190"/>
    <nd ref="354065254"/>
    <nd ref="354065094"/>
    <nd ref="354065197"/>
    <nd ref="354065214"/>
    <nd ref="32017940"/>
    <tag k="highway" v="residential"/>
    <tag k="maxspeed" v="50"/>
    <tag k="maxspeed:source" v="default residential speed limit in Australia"/>
    <tag k="name" v="Adrian Street"/>
  </way>
  <way id="31652390" version="6" timestamp="2012-01-18T08:07:10Z" uid="147510" user="woodpeck_fixbot" changeset="10424702">
    <nd ref="354065167"/>
    <nd ref="354065177"/>
    <nd ref="769042555"/>
    <nd ref="60311595"/>
    <nd ref="354065183"/>
    <nd ref="354064841"/>
    <nd ref="354065190"/>
    <nd ref="354065254"/>
    <nd ref="354065094"/>
    <nd ref="354065197"/>
    <nd ref="354065214"/>
    <nd ref="32017940"/>
    <tag k="highway" v="residential"/>
    <tag k="name" v="Adrian Street"/>
  </way>
  <way id="31652395" version="4" timestamp="2010-07-09T17:27:06Z" uid="74617" user="JohnSmith" changeset="5175333">
    <nd ref="354065225"/>
    <nd ref="354065230"/>
    <tag k="highway" v="residential"/>
    <tag k="maxspeed" v="50"/>
    <tag k="maxspeed:source" v="default residential speed limit in Australia"/>
    <tag k="name" v="Anthony Street"/>
  </way>
  <way id="31652395" version="5" timestamp="2012-01-18T08:07:12Z" uid="147510" user="woodpeck_fixbot" changeset="10424702">
    <nd ref="354065225"/>
    <nd ref="354065230"/>
    <tag k="highway" v="residential"/>
    <tag k="name" v="Anthony Street"/>
  </way>
  <way id="31652396" version="2" timestamp="2011-03-31T16:51:49Z" uid="23543" user="jkjk" changeset="7727674">
    <nd ref="354065544"/>
    <nd ref="354065545"/>
    <nd ref="354065546"/>
    <nd ref="301280205"/>
    <nd ref="1226841622"/>
    <nd ref="354065547"/>
    <nd ref="354065373"/>
    <tag k="fixme" v="yes"/>
    <tag k="highway" v="tertiary"/>
  </way>
  <way id="31652397" version="5" timestamp="2010-06-10T14:28:21Z" uid="4467" user="Rosscoe" changeset="4954607">
    <nd ref="354065232"/>
    <nd ref="768598433"/>
    <tag k="highway" v="residential"/>
    <tag k="name" v="Hannibal Street"/>
  </way>
  <way id="31652397" version="6" timestamp="2010-06-10T14:39:12Z" uid="4467" user="Rosscoe" changeset="4954607">
    <nd ref="354065232"/>
    <nd ref="768598433"/>
    <tag k="highway" v="residential"/>
    <tag k="name" v="Hannibal Street"/>
  </way>
  <way id="31652397" version="7" timestamp="2010-07-09T17:22:19Z" uid="74617" user="JohnSmith" changeset="5175333">
    <nd ref="354065232"/>
    <nd ref="768598433"/>
    <tag k="highway" v="residential"/>
    <tag k="maxspeed" v="50"/>
    <tag k="maxspeed:source" v="default residential speed limit in Australia"/>
    <tag k="name" v="Hannibal Street"/>
  </way>
  <way id="31652397" version="8" timestamp="2012-01-18T08:07:13Z" uid="147510" user="woodpeck_fixbot" changeset="10424702">
    <nd ref="354065232"/>
    <nd ref="768598433"/>
    <tag k="highway" v="residential"/>
    <tag k="name" v="Hannibal Street"/>
  </way>
  <way id="31652398" version="4" timestamp="2010-07-09T17:24:18Z" uid="74617" user="JohnSmith" changeset="5175333">
    <nd ref="354065236"/>
    <nd ref="354065240"/>
    <tag k="highway" v="residential"/>
    <tag k="maxspeed" v="50"/>
    <tag k="maxspeed:source" v="default residential speed limit in Australia"/>
    <tag k="name" v="Palin Street"/>
  </way>
  <way id="31652398" version="5" timestamp="2012-01-18T08:07:13Z" uid="147510" user="woodpeck_fixbot" changeset="10424702">
    <nd ref="354065236"/>
    <nd ref="354065240"/>
    <tag k="highway" v="residential"/>
    <tag k="name" v="Palin Street"/>
  </way>
  <way id="31652400" version="4" timestamp="2010-07-09T17:22:39Z" uid="74617" user="JohnSmith" changeset="5175333">
    <nd ref="354065270"/>
    <nd ref="354065063"/>
    <nd ref="354065274"/>
    <tag k="highway" v="residential"/>
    <tag k="maxspeed" v="50"/>
    <tag k="maxspeed:source" v="default residential speed limit in Australia"/>
    <tag k="name" v="Baal Street"/>
  </way>
  <way id="31652400" version="5" timestamp="2012-01-18T08:07:17Z" uid="147510" user="woodpeck_fixbot" changeset="10424702">
    <nd ref="354065270"/>
    <nd ref="354065063"/>
    <nd ref="354065274"/>
    <tag k="highway" v="residential"/>
    <tag k="name" v="Baal Street"/>
  </way>
  <way id="31652402" version="4" timestamp="2010-07-09T17:26:09Z" uid="74617" user="JohnSmith" changeset="5175333">
    <nd ref="354065281"/>
    <nd ref="310730598"/>
    <tag k="highway" v="residential"/>
    <tag k="maxspeed" v="50"/>
    <tag k="maxspeed:source" v="default residential speed limit in Australia"/>
    <tag k="name" v="Foss Street"/>
  </way>
  <way id="31652402" version="5" timestamp="2012-01-18T08:07:18Z" uid="147510" user="woodpeck_fixbot" changeset="10424702">
    <nd ref="354065281"/>
    <nd ref="310730598"/>
    <tag k="highway" v="residential"/>
    <tag k="name" v="Foss Street"/>
  </way>
  <way id="31652403" version="4" timestamp="2010-07-09T17:27:42Z" uid="74617" user="JohnSmith" changeset="5175333">
    <nd ref="354065284"/>
    <nd ref="354065293"/>
    <nd ref="32017942"/>
    <tag k="highway" v="residential"/>
    <tag k="maxspeed" v="50"/>
    <tag k="maxspeed:source" v="default residential speed limit in Australia"/>
    <tag k="name" v="Harris Street"/>
  </way>
  <way id="31652403" version="5" timestamp="2012-01-18T08:07:20Z" uid="147510" user="woodpeck_fixbot" changeset="10424702">
    <nd ref="354065284"/>
    <nd ref="354065293"/>
    <nd ref="32017942"/>
    <tag k="highway" v="residential"/>
    <tag k="name" v="Harris Street"/>
  </way>
  <way id="31652404" version="4" timestamp="2010-07-09T17:20:44Z" uid="74617" user="JohnSmith" changeset="5175333">
    <nd ref="354065293"/>
    <nd ref="354065356"/>
    <nd ref="354065298"/>
    <nd ref="354065306"/>
    <nd ref="354065332"/>
    <nd ref="354065322"/>
    <nd ref="354065310"/>
    <tag k="highway" v="residential"/>
    <tag k="maxspeed" v="50"/>
    <tag k="maxspeed:source" v="default residential speed limit in Australia"/>
    <tag k="name" v="Boyd Street"/>
  </way>
  <way id="31652404" version="5" timestamp="2012-01-18T08:07:21Z" uid="147510" user="woodpeck_fixbot" changeset="10424702">
    <nd ref="354065293"/>
    <nd ref="354065356"/>
    <nd ref="354065298"/>
    <nd ref="354065306"/>
    <nd ref="354065332"/>
    <nd ref="354065322"/>
    <nd ref="354065310"/>
    <tag k="highway" v="residential"/>
    <tag k="name" v="Boyd Street"/>
  </way>
  <way id="31652405" version="4" timestamp="2010-06-10T14:32:10Z" uid="4467" user="Rosscoe" changeset="4954607">
    <nd ref="354065316"/>
    <nd ref="354065322"/>
    <nd ref="768598401"/>
    <nd ref="310731716"/>
    <tag k="highway" v="residential"/>
    <tag k="name" v="Waddell Road"/>
  </way>
  <way id="31652405" version="5" timestamp="2010-06-10T14:41:32Z" uid="4467" user="Rosscoe" changeset="4954607">
    <nd ref="354065316"/>
    <nd ref="354065322"/>
    <nd ref="768598401"/>
    <nd ref="310731716"/>
    <tag k="highway" v="residential"/>
    <tag k="name" v="Waddell Road"/>
  </way>
  <way id="31652405" version="6" timestamp="2010-07-09T17:23:10Z" uid="74617" user="JohnSmith" changeset="5175333">
    <nd ref="354065316"/>
    <nd ref="354065322"/>
    <nd ref="768598401"/>
    <nd ref="310731716"/>
    <tag k="highway" v="residential"/>
    <tag k="maxspeed" v="50"/>
    <tag k="maxspeed:source" v="default residential speed limit in Australia"/>
    <tag k="name" v="Waddell Road"/>
  </way>
  <way id="31652405" version="7" timestamp="2012-01-18T08:07:22Z" uid="147510" user="woodpeck_fixbot" changeset="10424702">
    <nd ref="354065316"/>
    <nd ref="354065322"/>
    <nd ref="768598401"/>
    <nd ref="310731716"/>
    <tag k="highway" v="residential"/>
    <tag k="name" v="Waddell Road"/>
  </way>
  <way id="31652406" version="4" timestamp="2010-06-10T14:29:39Z" uid="4467" user="Rosscoe" changeset="4954607">
    <nd ref="32017943"/>
    <nd ref="768598418"/>
    <nd ref="354065332"/>
    <nd ref="354065338"/>
    <tag k="highway" v="residential"/>
    <tag k="name" v="Hope Road"/>
  </way>
  <way id="31652406" version="5" timestamp="2010-06-10T14:40:07Z" uid="4467" user="Rosscoe" changeset="4954607">
    <nd ref="32017943"/>
    <nd ref="768598418"/>
    <nd ref="354065332"/>
    <nd ref="354065338"/>
    <tag k="highway" v="residential"/>
    <tag k="name" v="Hope Road"/>
  </way>
  <way id="31652406" version="6" timestamp="2010-07-09T17:24:59Z" uid="74617" user="JohnSmith" changeset="5175333">
    <nd ref="32017943"/>
    <nd ref="768598418"/>
    <nd ref="354065332"/>
    <nd ref="354065338"/>
    <tag k="highway" v="residential"/>
    <tag k="maxspeed" v="50"/>
    <tag k="maxspeed:source" v="default residential speed limit in Australia"/>
    <tag k="name" v="Hope Road"/>
  </way>
  <way id="31652406" version="7" timestamp="2012-01-18T08:07:23Z" uid="147510" user="woodpeck_fixbot" changeset="10424702">
    <nd ref="32017943"/>
    <nd ref="768598418"/>
    <nd ref="354065332"/>
    <nd ref="354065338"/>
    <tag k="highway" v="residential"/>
    <tag k="name" v="Hope Road"/>
  </way>
  <way id="31652407" version="4" timestamp="2010-06-10T14:34:18Z" uid="4467" user="Rosscoe" changeset="4954607">
    <nd ref="354065344"/>
    <nd ref="354065298"/>
    <nd ref="768598484"/>
    <tag k="highway" v="residential"/>
    <tag k="name" v="Murray Road"/>
  </way>
  <way id="31652407" version="5" timestamp="2010-06-10T14:43:23Z" uid="4467" user="Rosscoe" changeset="4954607">
    <nd ref="354065344"/>
    <nd ref="354065298"/>
    <nd ref="768598484"/>
    <tag k="highway" v="residential"/>
    <tag k="name" v="Murray Road"/>
  </way>
  <way id="31652407" version="6" timestamp="2010-07-09T17:26:36Z" uid="74617" user="JohnSmith" changeset="5175333">
    <nd ref="354065344"/>
    <nd ref="354065298"/>
    <nd ref="768598484"/>
    <tag k="highway" v="residential"/>
    <tag k="maxspeed" v="50"/>
    <tag k="maxspeed:source" v="default residential speed limit in Australia"/>
    <tag k="name" v="Murray Road"/>
  </way>
  <way id="31652407" version="7" timestamp="2012-01-18T08:07:25Z" uid="147510" user="woodpeck_fixbot" changeset="10424702">
    <nd ref="354065344"/>
    <nd ref="354065298"/>
    <nd ref="768598484"/>
    <tag k="highway" v="residential"/>
    <tag k="name" v="Murray Road"/>
  </way>
  <way id="31652408" version="4" timestamp="2010-07-09T17:25:17Z" uid="74617" user="JohnSmith" changeset="5175333">
    <nd ref="354065348"/>
    <nd ref="354065356"/>
    <nd ref="354065360"/>
    <tag k="highway" v="residential"/>
    <tag k="maxspeed" v="50"/>
    <tag k="maxspeed:source" v="default residential speed limit in Australia"/>
    <tag k="name" v="Weld Road"/>
  </way>
  <way id="31652408" version="5" timestamp="2012-01-18T08:07:25Z" uid="147510" user="woodpeck_fixbot" changeset="10424702">
    <nd ref="354065348"/>
    <nd ref="354065356"/>
    <nd ref="354065360"/>
    <tag k="highway" v="residential"/>
    <tag k="name" v="Weld Road"/>
  </way>
  <way id="31652409" version="4" timestamp="2010-07-09T08:01:01Z" uid="74617" user="JohnSmith" changeset="5171412">
    <nd ref="354065385"/>
    <nd ref="354065392"/>
    <nd ref="354065397"/>
    <nd ref="354065407"/>
    <nd ref="354065411"/>
    <nd ref="354065415"/>
    <nd ref="354065420"/>
    <tag k="highway" v="residential"/>
    <tag k="maxspeed" v="50"/>
    <tag k="maxspeed:source" v="default residential speed limit in Australia"/>
    <tag k="name" v="Tamar Street"/>
  </way>
  <way id="31652409" version="5" timestamp="2012-01-18T08:07:27Z" uid="147510" user="woodpeck_fixbot" changeset="10424702">
    <nd ref="354065385"/>
    <nd ref="354065392"/>
    <nd ref="354065397"/>
    <nd ref="354065407"/>
    <nd ref="354065411"/>
    <nd ref="354065415"/>
    <nd ref="354065420"/>
    <tag k="highway" v="residential"/>
    <tag k="name" v="Tamar Street"/>
  </way>
  <way id="31652417" version="3" timestamp="2011-03-31T16:51:28Z" uid="23543" user="jkjk" changeset="7727674">
    <nd ref="1178859399"/>
    <nd ref="1178859277"/>
    <nd ref="1226841456"/>
    <nd ref="353906767"/>
    <nd ref="353906769"/>
    <nd ref="1178858743"/>
    <nd ref="353906770"/>
    <nd ref="353906610"/>
    <nd ref="353906773"/>
    <nd ref="1178859043"/>
    <nd ref="353906776"/>
    <tag k="highway" v="tertiary"/>
  </way>
  <way id="31652449" version="5" timestamp="2010-07-09T17:25:47Z" uid="74617" user="JohnSmith" changeset="5175333">
    <nd ref="354066074"/>
    <nd ref="355796519"/>
    <nd ref="354066076"/>
    <nd ref="355796418"/>
    <nd ref="355796822"/>
    <nd ref="355796420"/>
    <nd ref="355509750"/>
    <nd ref="355796437"/>
    <nd ref="355796442"/>
    <tag k="highway" v="residential"/>
    <tag k="maxspeed" v="50"/>
    <tag k="maxspeed:source" v="default residential speed limit in Australia"/>
    <tag k="name" v="McLean Street"/>
  </way>
  <way id="31652449" version="6" timestamp="2012-01-18T08:07:28Z" uid="147510" user="woodpeck_fixbot" changeset="10424702">
    <nd ref="354066074"/>
    <nd ref="355796519"/>
    <nd ref="354066076"/>
    <nd ref="355796418"/>
    <nd ref="355796822"/>
    <nd ref="355796420"/>
    <nd ref="355509750"/>
    <nd ref="355796437"/>
    <nd ref="355796442"/>
    <tag k="highway" v="residential"/>
    <tag k="name" v="McLean Street"/>
  </way>
  <way id="31652760" version="3" timestamp="2010-04-03T04:11:06Z" uid="20587" user="balrog-kun" changeset="4309442">
    <nd ref="354075150"/>
    <nd ref="173949986"/>
    <nd ref="173918152"/>
    <nd ref="173983922"/>
    <nd ref="173986992"/>
    <nd ref="173989345"/>
    <nd ref="173986341"/>
    <nd ref="173988522"/>
    <nd ref="174026819"/>
    <nd ref="173949722"/>
    <nd ref="174043257"/>
    <nd ref="352760949"/>
    <tag k="created_by" v="Potlatch 0.10f"/>
    <tag k="highway" v="residential"/>
    <tag k="name" v="H Avenue"/>
    <tag k="tiger:cfcc" v="A41"/>
    <tag k="tiger:county" v="Cochise, AZ"/>
    <tag k="tiger:name_base" v="H"/>
    <tag k="tiger:name_type" v="Ave"/>
    <tag k="tiger:reviewed" v="no"/>
    <tag k="tiger:separated" v="no"/>
    <tag k="tiger:source" v="tiger_import_dch_v0.6_20070809"/>
    <tag k="tiger:tlid" v="120910496:120910607:120910691:120910770:120910737:120910546:120911545:120910879:120969215:120969218:120910858:120910815"/>
    <tag k="tiger:zip_left" v="85607"/>
    <tag k="tiger:zip_right" v="85607"/>
  </way>
  <way id="31652796" version="3" timestamp="2010-04-03T04:11:06Z" uid="20587" user="balrog-kun" changeset="4309442">
    <nd ref="354073527"/>
    <nd ref="352761077"/>
    <nd ref="352761059"/>
    <nd ref="352756233"/>
    <nd ref="352761134"/>
    <nd ref="352760944"/>
    <nd ref="352760945"/>
    <nd ref="352760947"/>
    <nd ref="352760948"/>
    <nd ref="352760949"/>
    <nd ref="352760950"/>
    <nd ref="352760951"/>
    <nd ref="352757189"/>
    <nd ref="352777123"/>
    <nd ref="352776738"/>
    <nd ref="352777347"/>
    <nd ref="173975780"/>
    <tag k="highway" v="primary"/>
    <tag k="name" v="Pan American Avenue"/>
    <tag k="ref" v="US 191 Business"/>
    <tag k="tiger:cfcc" v="A41"/>
    <tag k="tiger:county" v="Cochise, AZ"/>
    <tag k="tiger:name_base" v="Pan American"/>
    <tag k="tiger:name_base_1" v="US Hwy 666 (Bus)"/>
    <tag k="tiger:name_type" v="Ave"/>
    <tag k="tiger:reviewed" v="no"/>
    <tag k="tiger:separated" v="no"/>
    <tag k="tiger:source" v="tiger_import_dch_v0.6_20070809"/>
    <tag k="tiger:tlid" v="120910448:120910494:120910411:120910605:120910545:120910948:120910767:120945912:120910876:120960014:120987335:120910933:120910946:120910914:120910667"/>
    <tag k="tiger:zip_left" v="85607"/>
    <tag k="tiger:zip_right" v="85607"/>
  </way>
  <way id="31652796" version="4" timestamp="2010-12-25T02:02:47Z" uid="207745" user="NE2" changeset="6758528">
    <nd ref="173996449"/>
    <nd ref="354076294"/>
    <nd ref="173926877"/>
    <nd ref="354076980"/>
    <nd ref="354076981"/>
    <nd ref="354076928"/>
    <tag k="highway" v="primary"/>
    <tag k="name" v="Pan American Avenue"/>
    <tag k="oneway" v="yes"/>
    <tag k="ref" v="US 191 Business"/>
    <tag k="tiger:cfcc" v="A41"/>
    <tag k="tiger:county" v="Cochise, AZ"/>
    <tag k="tiger:name_base" v="Pan American"/>
    <tag k="tiger:name_base_1" v="US Hwy 666 (Bus)"/>
    <tag k="tiger:name_type" v="Ave"/>
    <tag k="tiger:reviewed" v="no"/>
    <tag k="tiger:separated" v="no"/>
    <tag k="tiger:source" v="tiger_import_dch_v0.6_20070809"/>
    <tag k="tiger:tlid" v="120910448:120910494:120910411:120910605:120910545:120910948:120910767:120945912:120910876:120960014:120987335:120910933:120910946:120910914:120910667"/>
    <tag k="tiger:zip_left" v="85607"/>
    <tag k="tiger:zip_right" v="85607"/>
  </way>
  <way id="31652796" version="5" timestamp="2011-03-23T17:24:52Z" uid="207745" user="NE2" changeset="7648212">
    <nd ref="173996449"/>
    <nd ref="354076294"/>
    <nd ref="173926877"/>
    <nd ref="354076980"/>
    <nd ref="354076981"/>
    <nd ref="354076928"/>
    <tag k="highway" v="primary"/>
    <tag k="name" v="Pan American Avenue"/>
    <tag k="old_ref" v="US 666 Business"/>
    <tag k="oneway" v="yes"/>
    <tag k="ref" v="US 191 Business"/>
    <tag k="tiger:cfcc" v="A41"/>
    <tag k="tiger:county" v="Cochise, AZ"/>
    <tag k="tiger:name_base" v="Pan American"/>
    <tag k="tiger:name_base_1" v="US Hwy 666 (Bus)"/>
    <tag k="tiger:name_type" v="Ave"/>
    <tag k="tiger:reviewed" v="no"/>
    <tag k="tiger:separated" v="no"/>
    <tag k="tiger:source" v="tiger_import_dch_v0.6_20070809"/>
    <tag k="tiger:tlid" v="120910448:120910494:120910411:120910605:120910545:120910948:120910767:120945912:120910876:120960014:120987335:120910933:120910946:120910914:120910667"/>
    <tag k="tiger:zip_left" v="85607"/>
    <tag k="tiger:zip_right" v="85607"/>
  </way>
  <way id="31652796" version="6" timestamp="2011-07-18T08:17:36Z" uid="473471" user="NE3" changeset="8755472">
    <nd ref="173996449"/>
    <nd ref="354076294"/>
    <nd ref="173926877"/>
    <nd ref="354076980"/>
    <nd ref="354076981"/>
    <nd ref="354076928"/>
    <tag k="NHS" v="yes"/>
    <tag k="highway" v="primary"/>
    <tag k="name" v="Pan American Avenue"/>
    <tag k="old_ref" v="US 666 Business"/>
    <tag k="oneway" v="yes"/>
    <tag k="ref" v="US 191 Business"/>
    <tag k="tiger:cfcc" v="A41"/>
    <tag k="tiger:county" v="Cochise, AZ"/>
    <tag k="tiger:name_base" v="Pan American"/>
    <tag k="tiger:name_base_1" v="US Hwy 666 (Bus)"/>
    <tag k="tiger:name_type" v="Ave"/>
    <tag k="tiger:reviewed" v="no"/>
    <tag k="tiger:separated" v="no"/>
    <tag k="tiger:source" v="tiger_import_dch_v0.6_20070809"/>
    <tag k="tiger:tlid" v="120910448:120910494:120910411:120910605:120910545:120910948:120910767:120945912:120910876:120960014:120987335:120910933:120910946:120910914:120910667"/>
    <tag k="tiger:zip_left" v="85607"/>
    <tag k="tiger:zip_right" v="85607"/>
  </way>
  <way id="31652796" version="7" timestamp="2011-09-27T21:41:00Z" uid="207745" user="NE2" changeset="9415126">
    <nd ref="173996449"/>
    <nd ref="354076294"/>
    <nd ref="173926877"/>
    <nd ref="354076980"/>
    <nd ref="354076981"/>
    <nd ref="354076928"/>
    <tag k="NHS" v="yes"/>
    <tag k="highway" v="primary"/>
    <tag k="lanes" v="2"/>
    <tag k="name" v="Pan American Avenue"/>
    <tag k="old_ref" v="US 666 Business"/>
    <tag k="oneway" v="yes"/>
    <tag k="ref" v="US 191 Business"/>
    <tag k="tiger:cfcc" v="A41"/>
    <tag k="tiger:county" v="Cochise, AZ"/>
    <tag k="tiger:name_base" v="Pan American"/>
    <tag k="tiger:name_base_1" v="US Hwy 666 (Bus)"/>
    <tag k="tiger:name_type" v="Ave"/>
    <tag k="tiger:reviewed" v="no"/>
    <tag k="tiger:separated" v="no"/>
    <tag k="tiger:source" v="tiger_import_dch_v0.6_20070809"/>
    <tag k="tiger:tlid" v="120910448:120910494:120910411:120910605:120910545:120910948:120910767:120945912:120910876:120960014:120987335:120910933:120910946:120910914:120910667"/>
    <tag k="tiger:zip_left" v="85607"/>
    <tag k="tiger:zip_right" v="85607"/>
  </way>
  <way id="31652796" version="8" timestamp="2011-11-22T06:02:30Z" uid="207745" user="NE2" changeset="9905294">
    <nd ref="173996449"/>
    <nd ref="354076294"/>
    <nd ref="173926877"/>
    <nd ref="354076980"/>
    <nd ref="354076981"/>
    <nd ref="354076928"/>
    <tag k="NHS" v="yes"/>
    <tag k="hgv" v="designated"/>
    <tag k="hgv:national_network" v="yes"/>
    <tag k="highway" v="primary"/>
    <tag k="lanes" v="2"/>
    <tag k="name" v="Pan American Avenue"/>
    <tag k="old_ref" v="US 666 Business"/>
    <tag k="oneway" v="yes"/>
    <tag k="ref" v="US 191 Business"/>
    <tag k="source:hgv:national_network" v="Title 23: Highways Part 658 http://ecfr.gpoaccess.gov/cgi/t/text/text-idx?c=ecfr&amp;rgn=div5&amp;view=text&amp;node=23:1.0.1.7.33&amp;idno=23"/>
    <tag k="tiger:cfcc" v="A41"/>
    <tag k="tiger:county" v="Cochise, AZ"/>
    <tag k="tiger:name_base" v="Pan American"/>
    <tag k="tiger:name_base_1" v="US Hwy 666 (Bus)"/>
    <tag k="tiger:name_type" v="Ave"/>
    <tag k="tiger:reviewed" v="no"/>
    <tag k="tiger:separated" v="no"/>
    <tag k="tiger:source" v="tiger_import_dch_v0.6_20070809"/>
    <tag k="tiger:tlid" v="120910448:120910494:120910411:120910605:120910545:120910948:120910767:120945912:120910876:120960014:120987335:120910933:120910946:120910914:120910667"/>
    <tag k="tiger:zip_left" v="85607"/>
    <tag k="tiger:zip_right" v="85607"/>
  </way>
  <way id="31652817" version="2" timestamp="2010-07-09T08:00:06Z" uid="74617" user="JohnSmith" changeset="5171412">
    <nd ref="60311586"/>
    <nd ref="60311584"/>
    <nd ref="60311597"/>
    <nd ref="60311354"/>
    <nd ref="60311600"/>
    <nd ref="60312133"/>
    <tag k="highway" v="residential"/>
    <tag k="maxspeed" v="50"/>
    <tag k="maxspeed:source" v="default residential speed limit in Australia"/>
    <tag k="name" v="Coode Street"/>
  </way>
  <way id="31652817" version="3" timestamp="2012-01-18T08:07:29Z" uid="147510" user="woodpeck_fixbot" changeset="10424702">
    <nd ref="60311586"/>
    <nd ref="60311584"/>
    <nd ref="60311597"/>
    <nd ref="60311354"/>
    <nd ref="60311600"/>
    <nd ref="60312133"/>
    <tag k="highway" v="residential"/>
    <tag k="name" v="Coode Street"/>
  </way>
  <way id="31652818" version="4" timestamp="2010-06-10T14:32:41Z" uid="4467" user="Rosscoe" changeset="4954607">
    <nd ref="2306306"/>
    <nd ref="768598457"/>
    <nd ref="354074819"/>
    <nd ref="354074850"/>
    <nd ref="354074789"/>
    <tag k="highway" v="residential"/>
    <tag k="name" v="Irwin Street"/>
  </way>
  <way id="31652818" version="5" timestamp="2010-06-10T14:42:00Z" uid="4467" user="Rosscoe" changeset="4954607">
    <nd ref="2306306"/>
    <nd ref="768598457"/>
    <nd ref="354074819"/>
    <nd ref="354074850"/>
    <nd ref="354074789"/>
    <tag k="highway" v="residential"/>
    <tag k="name" v="Irwin Street"/>
  </way>
  <way id="31652818" version="6" timestamp="2010-07-09T08:06:53Z" uid="74617" user="JohnSmith" changeset="5171412">
    <nd ref="2306306"/>
    <nd ref="768598457"/>
    <nd ref="354074819"/>
    <nd ref="354074850"/>
    <nd ref="354074789"/>
    <tag k="highway" v="residential"/>
    <tag k="maxspeed" v="50"/>
    <tag k="maxspeed:source" v="default residential speed limit in Australia"/>
    <tag k="name" v="Irwin Street"/>
  </way>
  <way id="31652818" version="7" timestamp="2012-01-18T08:07:31Z" uid="147510" user="woodpeck_fixbot" changeset="10424702">
    <nd ref="2306306"/>
    <nd ref="768598457"/>
    <nd ref="354074819"/>
    <nd ref="354074850"/>
    <nd ref="354074789"/>
    <tag k="highway" v="residential"/>
    <tag k="name" v="Irwin Street"/>
  </way>
  <way id="31652819" version="4" timestamp="2010-06-10T14:30:22Z" uid="4467" user="Rosscoe" changeset="4954607">
    <nd ref="768598426"/>
    <nd ref="354074797"/>
    <nd ref="354074800"/>
    <tag k="highway" v="residential"/>
    <tag k="name" v="Gill Street"/>
  </way>
  <way id="31652819" version="5" timestamp="2010-06-10T14:40:37Z" uid="4467" user="Rosscoe" changeset="4954607">
    <nd ref="768598426"/>
    <nd ref="354074797"/>
    <nd ref="354074800"/>
    <tag k="highway" v="residential"/>
    <tag k="name" v="Gill Street"/>
  </way>
  <way id="31652819" version="6" timestamp="2010-07-09T17:23:09Z" uid="74617" user="JohnSmith" changeset="5175333">
    <nd ref="768598426"/>
    <nd ref="354074797"/>
    <nd ref="354074800"/>
    <tag k="highway" v="residential"/>
    <tag k="maxspeed" v="50"/>
    <tag k="maxspeed:source" v="default residential speed limit in Australia"/>
    <tag k="name" v="Gill Street"/>
  </way>
  <way id="31652819" version="7" timestamp="2012-01-18T08:07:32Z" uid="147510" user="woodpeck_fixbot" changeset="10424702">
    <nd ref="768598426"/>
    <nd ref="354074797"/>
    <nd ref="354074800"/>
    <tag k="highway" v="residential"/>
    <tag k="name" v="Gill Street"/>
  </way>
  <way id="31652820" version="4" timestamp="2010-06-10T14:31:00Z" uid="4467" user="Rosscoe" changeset="4954607">
    <nd ref="354074803"/>
    <nd ref="354074807"/>
    <nd ref="354074810"/>
    <nd ref="354074814"/>
    <nd ref="768598314"/>
    <tag k="highway" v="residential"/>
    <tag k="name" v="Walter Street"/>
  </way>
  <way id="31652820" version="5" timestamp="2010-06-10T14:41:10Z" uid="4467" user="Rosscoe" changeset="4954607">
    <nd ref="354074803"/>
    <nd ref="354074807"/>
    <nd ref="354074810"/>
    <nd ref="354074814"/>
    <nd ref="768598314"/>
    <tag k="highway" v="residential"/>
    <tag k="name" v="Walter Street"/>
  </way>
  <way id="31652820" version="6" timestamp="2010-07-09T17:24:58Z" uid="74617" user="JohnSmith" changeset="5175333">
    <nd ref="354074803"/>
    <nd ref="354074807"/>
    <nd ref="354074810"/>
    <nd ref="354074814"/>
    <nd ref="768598314"/>
    <tag k="highway" v="residential"/>
    <tag k="maxspeed" v="50"/>
    <tag k="maxspeed:source" v="default residential speed limit in Australia"/>
    <tag k="name" v="Walter Street"/>
  </way>
  <way id="31652820" version="7" timestamp="2012-01-18T08:07:33Z" uid="147510" user="woodpeck_fixbot" changeset="10424702">
    <nd ref="354074803"/>
    <nd ref="354074807"/>
    <nd ref="354074810"/>
    <nd ref="354074814"/>
    <nd ref="768598314"/>
    <tag k="highway" v="residential"/>
    <tag k="name" v="Walter Street"/>
  </way>
  <way id="31652821" version="4" timestamp="2010-06-10T14:29:26Z" uid="4467" user="Rosscoe" changeset="4954607">
    <nd ref="60311577"/>
    <nd ref="354074856"/>
    <nd ref="354074818"/>
    <nd ref="768598446"/>
    <nd ref="354074792"/>
    <tag k="highway" v="residential"/>
    <tag k="name" v="Fortesque Street"/>
  </way>
  <way id="31652821" version="5" timestamp="2010-06-10T14:39:53Z" uid="4467" user="Rosscoe" changeset="4954607">
    <nd ref="60311577"/>
    <nd ref="354074856"/>
    <nd ref="354074818"/>
    <nd ref="768598446"/>
    <nd ref="354074792"/>
    <tag k="highway" v="residential"/>
    <tag k="name" v="Fortesque Street"/>
  </way>
  <way id="31652821" version="6" timestamp="2010-07-09T07:58:01Z" uid="74617" user="JohnSmith" changeset="5171412">
    <nd ref="60311577"/>
    <nd ref="354074856"/>
    <nd ref="354074818"/>
    <nd ref="768598446"/>
    <nd ref="354074792"/>
    <tag k="highway" v="residential"/>
    <tag k="maxspeed" v="50"/>
    <tag k="maxspeed:source" v="default residential speed limit in Australia"/>
    <tag k="name" v="Fortesque Street"/>
  </way>
  <way id="31652821" version="7" timestamp="2012-01-18T08:07:35Z" uid="147510" user="woodpeck_fixbot" changeset="10424702">
    <nd ref="60311577"/>
    <nd ref="354074856"/>
    <nd ref="354074818"/>
    <nd ref="768598446"/>
    <nd ref="354074792"/>
    <tag k="highway" v="residential"/>
    <tag k="name" v="Fortesque Street"/>
  </way>
  <way id="31652823" version="4" timestamp="2010-06-10T14:32:12Z" uid="4467" user="Rosscoe" changeset="4954607">
    <nd ref="60311572"/>
    <nd ref="354074861"/>
    <nd ref="768598431"/>
    <nd ref="768598319"/>
    <nd ref="31128160"/>
    <tag k="highway" v="residential"/>
    <tag k="name" v="Dalgety Street"/>
  </way>
  <way id="31652823" version="5" timestamp="2010-06-10T14:41:35Z" uid="4467" user="Rosscoe" changeset="4954607">
    <nd ref="60311572"/>
    <nd ref="354074861"/>
    <nd ref="768598431"/>
    <nd ref="768598319"/>
    <nd ref="31128160"/>
    <tag k="highway" v="residential"/>
    <tag k="name" v="Dalgety Street"/>
  </way>
  <way id="31652823" version="6" timestamp="2010-07-09T08:07:59Z" uid="74617" user="JohnSmith" changeset="5171412">
    <nd ref="60311572"/>
    <nd ref="354074861"/>
    <nd ref="768598431"/>
    <nd ref="768598319"/>
    <nd ref="31128160"/>
    <tag k="highway" v="residential"/>
    <tag k="maxspeed" v="50"/>
    <tag k="maxspeed:source" v="default residential speed limit in Australia"/>
    <tag k="name" v="Dalgety Street"/>
  </way>
  <way id="31652823" version="7" timestamp="2012-01-18T08:07:37Z" uid="147510" user="woodpeck_fixbot" changeset="10424702">
    <nd ref="60311572"/>
    <nd ref="354074861"/>
    <nd ref="768598431"/>
    <nd ref="768598319"/>
    <nd ref="31128160"/>
    <tag k="highway" v="residential"/>
    <tag k="name" v="Dalgety Street"/>
  </way>
  <way id="31652826" version="4" timestamp="2010-07-09T07:55:02Z" uid="74617" user="JohnSmith" changeset="5171412">
    <nd ref="354074833"/>
    <nd ref="354074843"/>
    <nd ref="354074850"/>
    <nd ref="354074856"/>
    <nd ref="354074861"/>
    <nd ref="354074867"/>
    <nd ref="354074878"/>
    <nd ref="354074885"/>
    <nd ref="354074910"/>
    <nd ref="354074892"/>
    <tag k="highway" v="residential"/>
    <tag k="maxspeed" v="50"/>
    <tag k="maxspeed:source" v="default residential speed limit in Australia"/>
    <tag k="name" v="Fletcher Street"/>
  </way>
  <way id="31652826" version="5" timestamp="2012-01-18T08:07:39Z" uid="147510" user="woodpeck_fixbot" changeset="10424702">
    <nd ref="354074833"/>
    <nd ref="354074843"/>
    <nd ref="354074850"/>
    <nd ref="354074856"/>
    <nd ref="354074861"/>
    <nd ref="354074867"/>
    <nd ref="354074878"/>
    <nd ref="354074885"/>
    <nd ref="354074910"/>
    <nd ref="354074892"/>
    <tag k="highway" v="residential"/>
    <tag k="name" v="Fletcher Street"/>
  </way>
  <way id="31652827" version="4" timestamp="2010-07-09T07:58:31Z" uid="74617" user="JohnSmith" changeset="5171412">
    <nd ref="60311565"/>
    <nd ref="354074878"/>
    <nd ref="354074899"/>
    <tag k="highway" v="residential"/>
    <tag k="maxspeed" v="50"/>
    <tag k="maxspeed:source" v="default residential speed limit in Australia"/>
    <tag k="name" v="Allen Street"/>
  </way>
  <way id="31652827" version="5" timestamp="2012-01-18T08:07:42Z" uid="147510" user="woodpeck_fixbot" changeset="10424702">
    <nd ref="60311565"/>
    <nd ref="354074878"/>
    <nd ref="354074899"/>
    <tag k="highway" v="residential"/>
    <tag k="name" v="Allen Street"/>
  </way>
  <way id="31652828" version="4" timestamp="2010-07-09T07:59:18Z" uid="74617" user="JohnSmith" changeset="5171412">
    <nd ref="354074903"/>
    <nd ref="354074910"/>
    <nd ref="354074915"/>
    <tag k="highway" v="residential"/>
    <tag k="maxspeed" v="50"/>
    <tag k="maxspeed:source" v="default residential speed limit in Australia"/>
    <tag k="name" v="Hamilton Street"/>
  </way>
  <way id="31652828" version="5" timestamp="2012-01-18T08:07:43Z" uid="147510" user="woodpeck_fixbot" changeset="10424702">
    <nd ref="354074903"/>
    <nd ref="354074910"/>
    <nd ref="354074915"/>
    <tag k="highway" v="residential"/>
    <tag k="name" v="Hamilton Street"/>
  </way>
  <way id="31652829" version="7" timestamp="2010-07-09T08:02:02Z" uid="74617" user="JohnSmith" changeset="5171412">
    <nd ref="60311563"/>
    <nd ref="60311560"/>
    <nd ref="354075717"/>
    <nd ref="354075740"/>
    <nd ref="354074919"/>
    <tag k="highway" v="residential"/>
    <tag k="maxspeed" v="50"/>
    <tag k="maxspeed:source" v="default residential speed limit in Australia"/>
    <tag k="name" v="Moss Street"/>
  </way>
  <way id="31652829" version="8" timestamp="2012-01-18T08:07:44Z" uid="147510" user="woodpeck_fixbot" changeset="10424702">
    <nd ref="60311563"/>
    <nd ref="60311560"/>
    <nd ref="354075717"/>
    <nd ref="354075740"/>
    <nd ref="354074919"/>
    <tag k="highway" v="residential"/>
    <tag k="name" v="Moss Street"/>
  </way>
  <way id="31652830" version="4" timestamp="2010-07-09T17:22:38Z" uid="74617" user="JohnSmith" changeset="5175333">
    <nd ref="354074960"/>
    <nd ref="354074964"/>
    <nd ref="354075260"/>
    <nd ref="354075218"/>
    <nd ref="354074967"/>
    <nd ref="50396819"/>
    <nd ref="354075109"/>
    <nd ref="354075083"/>
    <nd ref="354074803"/>
    <nd ref="443610959"/>
    <nd ref="354074800"/>
    <nd ref="354075068"/>
    <nd ref="50404590"/>
    <nd ref="354075042"/>
    <nd ref="354075535"/>
    <nd ref="354074953"/>
    <nd ref="354074977"/>
    <nd ref="354074983"/>
    <tag k="highway" v="residential"/>
    <tag k="maxspeed" v="50"/>
    <tag k="maxspeed:source" v="default residential speed limit in Australia"/>
    <tag k="name" v="Fraser Street"/>
  </way>
  <way id="31652830" version="5" timestamp="2012-01-18T08:07:46Z" uid="147510" user="woodpeck_fixbot" changeset="10424702">
    <nd ref="354074960"/>
    <nd ref="354074964"/>
    <nd ref="354075260"/>
    <nd ref="354075218"/>
    <nd ref="354074967"/>
    <nd ref="50396819"/>
    <nd ref="354075109"/>
    <nd ref="354075083"/>
    <nd ref="354074803"/>
    <nd ref="443610959"/>
    <nd ref="354074800"/>
    <nd ref="354075068"/>
    <nd ref="50404590"/>
    <nd ref="354075042"/>
    <nd ref="354075535"/>
    <nd ref="354074953"/>
    <nd ref="354074977"/>
    <nd ref="354074983"/>
    <tag k="highway" v="residential"/>
    <tag k="name" v="Fraser Street"/>
  </way>
  <way id="31652831" version="4" timestamp="2010-06-10T14:29:04Z" uid="4467" user="Rosscoe" changeset="4954607">
    <nd ref="354074977"/>
    <nd ref="354075054"/>
    <nd ref="354074988"/>
    <nd ref="354074995"/>
    <nd ref="354075002"/>
    <nd ref="354075493"/>
    <nd ref="354075523"/>
    <nd ref="354075477"/>
    <nd ref="354075012"/>
    <nd ref="768598434"/>
    <tag k="highway" v="residential"/>
    <tag k="name" v="Staton Road"/>
  </way>
  <way id="31652831" version="5" timestamp="2010-06-10T14:39:35Z" uid="4467" user="Rosscoe" changeset="4954607">
    <nd ref="354074977"/>
    <nd ref="354075054"/>
    <nd ref="354074988"/>
    <nd ref="354074995"/>
    <nd ref="354075002"/>
    <nd ref="354075493"/>
    <nd ref="354075523"/>
    <nd ref="354075477"/>
    <nd ref="354075012"/>
    <nd ref="768598434"/>
    <tag k="highway" v="residential"/>
    <tag k="name" v="Staton Road"/>
  </way>
  <way id="31652831" version="6" timestamp="2010-07-09T17:24:30Z" uid="74617" user="JohnSmith" changeset="5175333">
    <nd ref="354074977"/>
    <nd ref="354075054"/>
    <nd ref="354074988"/>
    <nd ref="354074995"/>
    <nd ref="354075002"/>
    <nd ref="354075493"/>
    <nd ref="354075523"/>
    <nd ref="354075477"/>
    <nd ref="354075012"/>
    <nd ref="768598434"/>
    <tag k="highway" v="residential"/>
    <tag k="maxspeed" v="50"/>
    <tag k="maxspeed:source" v="default residential speed limit in Australia"/>
    <tag k="name" v="Staton Road"/>
  </way>
  <way id="31652831" version="7" timestamp="2012-01-18T08:07:47Z" uid="147510" user="woodpeck_fixbot" changeset="10424702">
    <nd ref="354074977"/>
    <nd ref="354075054"/>
    <nd ref="354074988"/>
    <nd ref="354074995"/>
    <nd ref="354075002"/>
    <nd ref="354075493"/>
    <nd ref="354075523"/>
    <nd ref="354075477"/>
    <nd ref="354075012"/>
    <nd ref="768598434"/>
    <tag k="highway" v="residential"/>
    <tag k="name" v="Staton Road"/>
  </way>
  <way id="31652832" version="4" timestamp="2010-07-09T17:24:54Z" uid="74617" user="JohnSmith" changeset="5175333">
    <nd ref="354075021"/>
    <nd ref="354074995"/>
    <nd ref="354074941"/>
    <nd ref="354075033"/>
    <tag k="highway" v="residential"/>
    <tag k="maxspeed" v="50"/>
    <tag k="maxspeed:source" v="default residential speed limit in Australia"/>
    <tag k="name" v="Wolsely Road"/>
  </way>
  <way id="31652832" version="5" timestamp="2012-01-18T08:07:49Z" uid="147510" user="woodpeck_fixbot" changeset="10424702">
    <nd ref="354075021"/>
    <nd ref="354074995"/>
    <nd ref="354074941"/>
    <nd ref="354075033"/>
    <tag k="highway" v="residential"/>
    <tag k="name" v="Wolsely Road"/>
  </way>
  <way id="31652833" version="4" timestamp="2010-07-09T17:26:31Z" uid="74617" user="JohnSmith" changeset="5175333">
    <nd ref="354075040"/>
    <nd ref="354075033"/>
    <nd ref="354075049"/>
    <nd ref="354075042"/>
    <tag k="highway" v="residential"/>
    <tag k="maxspeed" v="50"/>
    <tag k="maxspeed:source" v="default residential speed limit in Australia"/>
    <tag k="name" v="Osborne Road"/>
  </way>
  <way id="31652833" version="5" timestamp="2012-01-18T08:07:50Z" uid="147510" user="woodpeck_fixbot" changeset="10424702">
    <nd ref="354075040"/>
    <nd ref="354075033"/>
    <nd ref="354075049"/>
    <nd ref="354075042"/>
    <tag k="highway" v="residential"/>
    <tag k="name" v="Osborne Road"/>
  </way>
  <way id="31652834" version="4" timestamp="2010-07-09T17:28:03Z" uid="74617" user="JohnSmith" changeset="5175333">
    <nd ref="354075049"/>
    <nd ref="354075563"/>
    <nd ref="354074945"/>
    <nd ref="354075054"/>
    <nd ref="354075060"/>
    <tag k="highway" v="residential"/>
    <tag k="maxspeed" v="50"/>
    <tag k="maxspeed:source" v="default residential speed limit in Australia"/>
    <tag k="name" v="Coolgardie Avenue"/>
  </way>
  <way id="31652834" version="5" timestamp="2012-01-18T08:07:51Z" uid="147510" user="woodpeck_fixbot" changeset="10424702">
    <nd ref="354075049"/>
    <nd ref="354075563"/>
    <nd ref="354074945"/>
    <nd ref="354075054"/>
    <nd ref="354075060"/>
    <tag k="highway" v="residential"/>
    <tag k="name" v="Coolgardie Avenue"/>
  </way>
  <way id="31652835" version="4" timestamp="2010-07-09T17:21:20Z" uid="74617" user="JohnSmith" changeset="5175333">
    <nd ref="354075063"/>
    <nd ref="354075068"/>
    <tag k="highway" v="residential"/>
    <tag k="maxspeed" v="50"/>
    <tag k="maxspeed:source" v="default residential speed limit in Australia"/>
    <tag k="name" v="Windsor Road"/>
  </way>
  <way id="31652835" version="5" timestamp="2012-01-18T08:07:52Z" uid="147510" user="woodpeck_fixbot" changeset="10424702">
    <nd ref="354075063"/>
    <nd ref="354075068"/>
    <tag k="highway" v="residential"/>
    <tag k="name" v="Windsor Road"/>
  </way>
  <way id="31652836" version="4" timestamp="2010-06-10T14:32:28Z" uid="4467" user="Rosscoe" changeset="4954607">
    <nd ref="768598308"/>
    <nd ref="354075075"/>
    <nd ref="354075083"/>
    <tag k="highway" v="residential"/>
    <tag k="name" v="Stratford Street"/>
  </way>
  <way id="31652836" version="5" timestamp="2010-06-10T14:41:42Z" uid="4467" user="Rosscoe" changeset="4954607">
    <nd ref="768598308"/>
    <nd ref="354075075"/>
    <nd ref="354075083"/>
    <tag k="highway" v="residential"/>
    <tag k="name" v="Stratford Street"/>
  </way>
  <way id="31652836" version="6" timestamp="2010-07-09T17:23:39Z" uid="74617" user="JohnSmith" changeset="5175333">
    <nd ref="768598308"/>
    <nd ref="354075075"/>
    <nd ref="354075083"/>
    <tag k="highway" v="residential"/>
    <tag k="maxspeed" v="50"/>
    <tag k="maxspeed:source" v="default residential speed limit in Australia"/>
    <tag k="name" v="Stratford Street"/>
  </way>
  <way id="31652836" version="7" timestamp="2012-01-18T08:07:53Z" uid="147510" user="woodpeck_fixbot" changeset="10424702">
    <nd ref="768598308"/>
    <nd ref="354075075"/>
    <nd ref="354075083"/>
    <tag k="highway" v="residential"/>
    <tag k="name" v="Stratford Street"/>
  </way>
  <way id="31652837" version="4" timestamp="2010-06-10T14:29:44Z" uid="4467" user="Rosscoe" changeset="4954607">
    <nd ref="768598422"/>
    <nd ref="31128162"/>
    <nd ref="354075089"/>
    <nd ref="354075109"/>
    <nd ref="354075116"/>
    <nd ref="50405193"/>
    <nd ref="50394676"/>
    <nd ref="354075118"/>
    <tag k="highway" v="residential"/>
    <tag k="name" v="Clayton Street"/>
  </way>
  <way id="31652837" version="5" timestamp="2010-06-10T14:40:15Z" uid="4467" user="Rosscoe" changeset="4954607">
    <nd ref="768598422"/>
    <nd ref="31128162"/>
    <nd ref="354075089"/>
    <nd ref="354075109"/>
    <nd ref="354075116"/>
    <nd ref="50405193"/>
    <nd ref="50394676"/>
    <nd ref="354075118"/>
    <tag k="highway" v="residential"/>
    <tag k="name" v="Clayton Street"/>
  </way>
  <way id="31652837" version="6" timestamp="2010-07-09T17:25:23Z" uid="74617" user="JohnSmith" changeset="5175333">
    <nd ref="768598422"/>
    <nd ref="31128162"/>
    <nd ref="354075089"/>
    <nd ref="354075109"/>
    <nd ref="354075116"/>
    <nd ref="50405193"/>
    <nd ref="50394676"/>
    <nd ref="354075118"/>
    <tag k="highway" v="residential"/>
    <tag k="maxspeed" v="50"/>
    <tag k="maxspeed:source" v="default residential speed limit in Australia"/>
    <tag k="name" v="Clayton Street"/>
  </way>
  <way id="31652837" version="7" timestamp="2012-01-18T08:07:54Z" uid="147510" user="woodpeck_fixbot" changeset="10424702">
    <nd ref="768598422"/>
    <nd ref="31128162"/>
    <nd ref="354075089"/>
    <nd ref="354075109"/>
    <nd ref="354075116"/>
    <nd ref="50405193"/>
    <nd ref="50394676"/>
    <nd ref="354075118"/>
    <tag k="highway" v="residential"/>
    <tag k="name" v="Clayton Street"/>
  </way>
  <way id="31652838" version="7" timestamp="2010-07-09T17:26:56Z" uid="74617" user="JohnSmith" changeset="5175333">
    <nd ref="354075123"/>
    <nd ref="354075283"/>
    <nd ref="354074967"/>
    <nd ref="50394674"/>
    <nd ref="354075126"/>
    <nd ref="354075130"/>
    <nd ref="354075134"/>
    <nd ref="354075140"/>
    <nd ref="354075146"/>
    <nd ref="354075148"/>
    <nd ref="710326495"/>
    <tag k="highway" v="residential"/>
    <tag k="maxspeed" v="50"/>
    <tag k="maxspeed:source" v="default residential speed limit in Australia"/>
    <tag k="name" v="Westbury Crescent"/>
  </way>
  <way id="31652838" version="8" timestamp="2012-01-18T08:07:55Z" uid="147510" user="woodpeck_fixbot" changeset="10424702">
    <nd ref="354075123"/>
    <nd ref="354075283"/>
    <nd ref="354074967"/>
    <nd ref="50394674"/>
    <nd ref="354075126"/>
    <nd ref="354075130"/>
    <nd ref="354075134"/>
    <nd ref="354075140"/>
    <nd ref="354075146"/>
    <nd ref="354075148"/>
    <nd ref="710326495"/>
    <tag k="highway" v="residential"/>
    <tag k="name" v="Westbury Crescent"/>
  </way>
  <way id="31652839" version="3" timestamp="2009-08-06T13:27:02Z" uid="4467" user="Rosscoe" changeset="2056126">
    <nd ref="354075155"/>
    <nd ref="354075160"/>
    <nd ref="354075164"/>
    <nd ref="354075171"/>
    <nd ref="354075177"/>
    <nd ref="354075186"/>
    <nd ref="354075218"/>
    <nd ref="50414351"/>
    <tag k="highway" v="residential"/>
    <tag k="name" v="Birdwood Circuit"/>
  </way>
  <way id="31652839" version="4" timestamp="2010-07-09T17:28:31Z" uid="74617" user="JohnSmith" changeset="5175333">
    <nd ref="354075155"/>
    <nd ref="354075160"/>
    <nd ref="354075164"/>
    <nd ref="354075171"/>
    <nd ref="354075177"/>
    <nd ref="354075186"/>
    <nd ref="354075218"/>
    <nd ref="50414351"/>
    <tag k="highway" v="residential"/>
    <tag k="maxspeed" v="50"/>
    <tag k="maxspeed:source" v="default residential speed limit in Australia"/>
    <tag k="name" v="Birdwood Circuit"/>
  </way>
  <way id="31652839" version="5" timestamp="2012-01-18T08:07:56Z" uid="147510" user="woodpeck_fixbot" changeset="10424702">
    <nd ref="354075155"/>
    <nd ref="354075160"/>
    <nd ref="354075164"/>
    <nd ref="354075171"/>
    <nd ref="354075177"/>
    <nd ref="354075186"/>
    <nd ref="354075218"/>
    <nd ref="50414351"/>
    <tag k="highway" v="residential"/>
    <tag k="name" v="Birdwood Circuit"/>
  </way>
  <way id="31652841" version="3" timestamp="2009-08-06T13:27:02Z" uid="4467" user="Rosscoe" changeset="2056126">
    <nd ref="354075225"/>
    <nd ref="354075155"/>
    <tag k="highway" v="residential"/>
    <tag k="name" v="Whittle Court"/>
  </way>
  <way id="31652841" version="4" timestamp="2010-07-09T17:20:01Z" uid="74617" user="JohnSmith" changeset="5175333">
    <nd ref="354075225"/>
    <nd ref="354075155"/>
    <tag k="highway" v="residential"/>
    <tag k="maxspeed" v="50"/>
    <tag k="maxspeed:source" v="default residential speed limit in Australia"/>
    <tag k="name" v="Whittle Court"/>
  </way>
  <way id="31652841" version="5" timestamp="2012-01-18T08:07:58Z" uid="147510" user="woodpeck_fixbot" changeset="10424702">
    <nd ref="354075225"/>
    <nd ref="354075155"/>
    <tag k="highway" v="residential"/>
    <tag k="name" v="Whittle Court"/>
  </way>
  <way id="31652842" version="3" timestamp="2009-08-06T13:27:02Z" uid="4467" user="Rosscoe" changeset="2056126">
    <nd ref="354075155"/>
    <nd ref="354075250"/>
    <nd ref="354075235"/>
    <nd ref="354075246"/>
    <nd ref="354075254"/>
    <nd ref="354075257"/>
    <nd ref="354075260"/>
    <nd ref="354075263"/>
    <nd ref="354075267"/>
    <nd ref="354075271"/>
    <nd ref="354075274"/>
    <nd ref="354075277"/>
    <nd ref="354075279"/>
    <nd ref="50414343"/>
    <tag k="highway" v="residential"/>
    <tag k="name" v="Birdwood Circuit"/>
  </way>
  <way id="31652842" version="4" timestamp="2010-07-09T17:22:29Z" uid="74617" user="JohnSmith" changeset="5175333">
    <nd ref="354075155"/>
    <nd ref="354075250"/>
    <nd ref="354075235"/>
    <nd ref="354075246"/>
    <nd ref="354075254"/>
    <nd ref="354075257"/>
    <nd ref="354075260"/>
    <nd ref="354075263"/>
    <nd ref="354075267"/>
    <nd ref="354075271"/>
    <nd ref="354075274"/>
    <nd ref="354075277"/>
    <nd ref="354075279"/>
    <nd ref="50414343"/>
    <tag k="highway" v="residential"/>
    <tag k="maxspeed" v="50"/>
    <tag k="maxspeed:source" v="default residential speed limit in Australia"/>
    <tag k="name" v="Birdwood Circuit"/>
  </way>
  <way id="31652842" version="5" timestamp="2012-01-18T08:07:59Z" uid="147510" user="woodpeck_fixbot" changeset="10424702">
    <nd ref="354075155"/>
    <nd ref="354075250"/>
    <nd ref="354075235"/>
    <nd ref="354075246"/>
    <nd ref="354075254"/>
    <nd ref="354075257"/>
    <nd ref="354075260"/>
    <nd ref="354075263"/>
    <nd ref="354075267"/>
    <nd ref="354075271"/>
    <nd ref="354075274"/>
    <nd ref="354075277"/>
    <nd ref="354075279"/>
    <nd ref="50414343"/>
    <tag k="highway" v="residential"/>
    <tag k="name" v="Birdwood Circuit"/>
  </way>
  <way id="31652844" version="4" timestamp="2009-08-06T13:27:01Z" uid="4467" user="Rosscoe" changeset="2056126">
    <nd ref="354075335"/>
    <nd ref="354075341"/>
    <nd ref="354075354"/>
    <nd ref="354075363"/>
    <nd ref="354075370"/>
    <nd ref="354075378"/>
    <nd ref="354075060"/>
    <tag k="highway" v="residential"/>
    <tag k="name" v="Tingira Circuit"/>
  </way>
  <way id="31652844" version="5" timestamp="2010-07-09T17:26:04Z" uid="74617" user="JohnSmith" changeset="5175333">
    <nd ref="354075335"/>
    <nd ref="354075341"/>
    <nd ref="354075354"/>
    <nd ref="354075363"/>
    <nd ref="354075370"/>
    <nd ref="354075378"/>
    <nd ref="354075060"/>
    <tag k="highway" v="residential"/>
    <tag k="maxspeed" v="50"/>
    <tag k="maxspeed:source" v="default residential speed limit in Australia"/>
    <tag k="name" v="Tingira Circuit"/>
  </way>
  <way id="31652844" version="6" timestamp="2012-01-18T08:08:00Z" uid="147510" user="woodpeck_fixbot" changeset="10424702">
    <nd ref="354075335"/>
    <nd ref="354075341"/>
    <nd ref="354075354"/>
    <nd ref="354075363"/>
    <nd ref="354075370"/>
    <nd ref="354075378"/>
    <nd ref="354075060"/>
    <tag k="highway" v="residential"/>
    <tag k="name" v="Tingira Circuit"/>
  </way>
  <way id="31652845" version="4" timestamp="2010-07-09T17:27:37Z" uid="74617" user="JohnSmith" changeset="5175333">
    <nd ref="354075444"/>
    <nd ref="354075449"/>
    <nd ref="354075461"/>
    <nd ref="354075412"/>
    <tag k="highway" v="residential"/>
    <tag k="maxspeed" v="50"/>
    <tag k="maxspeed:source" v="default residential speed limit in Australia"/>
    <tag k="name" v="Reynolds Street"/>
  </way>
  <way id="31652845" version="5" timestamp="2010-07-26T12:12:24Z" uid="324131" user="Sleepyhead" changeset="5320546"/>
  <way id="31652846" version="4" timestamp="2010-07-09T17:20:40Z" uid="74617" user="JohnSmith" changeset="5175333">
    <nd ref="354075467"/>
    <nd ref="354075477"/>
    <nd ref="354075483"/>
    <tag k="highway" v="residential"/>
    <tag k="maxspeed" v="50"/>
    <tag k="maxspeed:source" v="default residential speed limit in Australia"/>
    <tag k="name" v="Alcester Street"/>
  </way>
  <way id="31652846" version="5" timestamp="2012-01-18T08:08:01Z" uid="147510" user="woodpeck_fixbot" changeset="10424702">
    <nd ref="354075467"/>
    <nd ref="354075477"/>
    <nd ref="354075483"/>
    <tag k="highway" v="residential"/>
    <tag k="name" v="Alcester Street"/>
  </way>
  <way id="31652848" version="4" timestamp="2010-07-09T17:27:46Z" uid="74617" user="JohnSmith" changeset="5175333">
    <nd ref="354075493"/>
    <nd ref="354075500"/>
    <tag k="highway" v="residential"/>
    <tag k="maxspeed" v="50"/>
    <tag k="maxspeed:source" v="default residential speed limit in Australia"/>
    <tag k="name" v="Salvado Street"/>
  </way>
  <way id="31652848" version="5" timestamp="2012-01-18T08:08:02Z" uid="147510" user="woodpeck_fixbot" changeset="10424702">
    <nd ref="354075493"/>
    <nd ref="354075500"/>
    <tag k="highway" v="residential"/>
    <tag k="name" v="Salvado Street"/>
  </way>
  <way id="31652849" version="4" timestamp="2010-07-09T17:20:53Z" uid="74617" user="JohnSmith" changeset="5175333">
    <nd ref="354075508"/>
    <nd ref="354075523"/>
    <tag k="highway" v="residential"/>
    <tag k="maxspeed" v="50"/>
    <tag k="maxspeed:source" v="default residential speed limit in Australia"/>
    <tag k="name" v="Parry Avenue"/>
  </way>
  <way id="31652849" version="5" timestamp="2012-01-18T08:08:03Z" uid="147510" user="woodpeck_fixbot" changeset="10424702">
    <nd ref="354075508"/>
    <nd ref="354075523"/>
    <tag k="highway" v="residential"/>
    <tag k="name" v="Parry Avenue"/>
  </way>
  <way id="31652850" version="3" timestamp="2010-07-09T17:23:17Z" uid="74617" user="JohnSmith" changeset="5175333">
    <nd ref="354075535"/>
    <nd ref="354075545"/>
    <nd ref="354075556"/>
    <nd ref="354075563"/>
    <tag k="highway" v="residential"/>
    <tag k="maxspeed" v="50"/>
    <tag k="maxspeed:source" v="default residential speed limit in Australia"/>
  </way>
  <way id="31652850" version="4" timestamp="2012-01-18T08:08:04Z" uid="147510" user="woodpeck_fixbot" changeset="10424702">
    <nd ref="354075535"/>
    <nd ref="354075545"/>
    <nd ref="354075556"/>
    <nd ref="354075563"/>
    <tag k="highway" v="residential"/>
  </way>
  <way id="31652851" version="3" timestamp="2010-05-18T03:39:21Z" uid="4467" user="Rosscoe" changeset="4735096">
    <nd ref="354075722"/>
    <nd ref="60311342"/>
    <nd ref="354075767"/>
    <nd ref="354075756"/>
    <nd ref="354075750"/>
    <nd ref="354075577"/>
    <tag k="highway" v="residential"/>
    <tag k="name" v="Richmond Crescent"/>
  </way>
  <way id="31652851" version="4" timestamp="2010-07-09T07:57:17Z" uid="74617" user="JohnSmith" changeset="5171412">
    <nd ref="354075722"/>
    <nd ref="60311342"/>
    <nd ref="354075767"/>
    <nd ref="354075756"/>
    <nd ref="354075750"/>
    <nd ref="354075577"/>
    <tag k="highway" v="residential"/>
    <tag k="maxspeed" v="50"/>
    <tag k="maxspeed:source" v="default residential speed limit in Australia"/>
    <tag k="name" v="Richmond Crescent"/>
  </way>
  <way id="31652851" version="5" timestamp="2012-01-18T08:08:05Z" uid="147510" user="woodpeck_fixbot" changeset="10424702">
    <nd ref="354075722"/>
    <nd ref="60311342"/>
    <nd ref="354075767"/>
    <nd ref="354075756"/>
    <nd ref="354075750"/>
    <nd ref="354075577"/>
    <tag k="highway" v="residential"/>
    <tag k="name" v="Richmond Crescent"/>
  </way>
  <way id="31652852" version="4" timestamp="2010-07-09T07:58:12Z" uid="74617" user="JohnSmith" changeset="5171412">
    <nd ref="354075610"/>
    <nd ref="354075629"/>
    <nd ref="354075590"/>
    <nd ref="354075650"/>
    <nd ref="60311345"/>
    <tag k="highway" v="residential"/>
    <tag k="maxspeed" v="50"/>
    <tag k="maxspeed:source" v="default residential speed limit in Australia"/>
    <tag k="name" v="Bay Patch Street"/>
  </way>
  <way id="31652852" version="5" timestamp="2012-01-18T08:08:07Z" uid="147510" user="woodpeck_fixbot" changeset="10424702">
    <nd ref="354075610"/>
    <nd ref="354075629"/>
    <nd ref="354075590"/>
    <nd ref="354075650"/>
    <nd ref="60311345"/>
    <tag k="highway" v="residential"/>
    <tag k="name" v="Bay Patch Street"/>
  </way>
  <way id="31652853" version="4" timestamp="2010-05-10T13:33:18Z" uid="4467" user="Rosscoe" changeset="4659334">
    <nd ref="60311338"/>
    <nd ref="728492987"/>
    <tag k="highway" v="residential"/>
    <tag k="name" v="Speedy Cheval Street"/>
  </way>
  <way id="31652853" version="5" timestamp="2010-07-09T08:00:53Z" uid="74617" user="JohnSmith" changeset="5171412">
    <nd ref="60311338"/>
    <nd ref="728492987"/>
    <tag k="highway" v="residential"/>
    <tag k="maxspeed" v="50"/>
    <tag k="maxspeed:source" v="default residential speed limit in Australia"/>
    <tag k="name" v="Speedy Cheval Street"/>
  </way>
  <way id="31652853" version="6" timestamp="2012-01-18T08:08:09Z" uid="147510" user="woodpeck_fixbot" changeset="10424702">
    <nd ref="60311338"/>
    <nd ref="728492987"/>
    <tag k="highway" v="residential"/>
    <tag k="name" v="Speedy Cheval Street"/>
  </way>
  <way id="31652854" version="3" timestamp="2010-07-09T08:08:15Z" uid="74617" user="JohnSmith" changeset="5171412">
    <nd ref="60311336"/>
    <nd ref="354075722"/>
    <tag k="highway" v="residential"/>
    <tag k="maxspeed" v="50"/>
    <tag k="maxspeed:source" v="default residential speed limit in Australia"/>
    <tag k="name" v="Polo Way"/>
  </way>
  <way id="31652854" version="4" timestamp="2012-01-18T08:08:10Z" uid="147510" user="woodpeck_fixbot" changeset="10424702">
    <nd ref="60311336"/>
    <nd ref="354075722"/>
    <tag k="highway" v="residential"/>
    <tag k="name" v="Polo Way"/>
  </way>
  <way id="31652856" version="3" timestamp="2010-07-09T08:06:00Z" uid="74617" user="JohnSmith" changeset="5171412">
    <nd ref="354075734"/>
    <nd ref="354075740"/>
    <tag k="highway" v="residential"/>
    <tag k="maxspeed" v="50"/>
    <tag k="maxspeed:source" v="default residential speed limit in Australia"/>
    <tag k="name" v="Tondarup Way"/>
  </way>
  <way id="31652856" version="4" timestamp="2012-01-18T08:08:13Z" uid="147510" user="woodpeck_fixbot" changeset="10424702">
    <nd ref="354075734"/>
    <nd ref="354075740"/>
    <tag k="highway" v="residential"/>
    <tag k="name" v="Tondarup Way"/>
  </way>
  <way id="31652858" version="4" timestamp="2010-05-18T03:39:21Z" uid="4467" user="Rosscoe" changeset="4735096">
    <nd ref="354075577"/>
    <nd ref="354075771"/>
    <nd ref="354075776"/>
    <nd ref="354075787"/>
    <nd ref="354075734"/>
    <nd ref="60311340"/>
    <nd ref="710565219"/>
    <tag k="highway" v="residential"/>
    <tag k="name" v="Richmond Crescent"/>
  </way>
  <way id="31652858" version="5" timestamp="2010-07-09T07:58:43Z" uid="74617" user="JohnSmith" changeset="5171412">
    <nd ref="354075577"/>
    <nd ref="354075771"/>
    <nd ref="354075776"/>
    <nd ref="354075787"/>
    <nd ref="354075734"/>
    <nd ref="60311340"/>
    <nd ref="710565219"/>
    <tag k="highway" v="residential"/>
    <tag k="maxspeed" v="50"/>
    <tag k="maxspeed:source" v="default residential speed limit in Australia"/>
    <tag k="name" v="Richmond Crescent"/>
  </way>
  <way id="31652858" version="6" timestamp="2012-01-18T08:08:14Z" uid="147510" user="woodpeck_fixbot" changeset="10424702">
    <nd ref="354075577"/>
    <nd ref="354075771"/>
    <nd ref="354075776"/>
    <nd ref="354075787"/>
    <nd ref="354075734"/>
    <nd ref="60311340"/>
    <nd ref="710565219"/>
    <tag k="highway" v="residential"/>
    <tag k="name" v="Richmond Crescent"/>
  </way>
  <way id="31652861" version="5" timestamp="2010-05-10T13:33:06Z" uid="4467" user="Rosscoe" changeset="4659334">
    <nd ref="354075722"/>
    <nd ref="728492873"/>
    <nd ref="25647275"/>
    <nd ref="710565241"/>
    <tag k="highway" v="residential"/>
    <tag k="name" v="May Street"/>
  </way>
  <way id="31652861" version="6" timestamp="2010-07-09T08:07:06Z" uid="74617" user="JohnSmith" changeset="5171412">
    <nd ref="354075722"/>
    <nd ref="728492873"/>
    <nd ref="25647275"/>
    <nd ref="710565241"/>
    <tag k="highway" v="residential"/>
    <tag k="maxspeed" v="50"/>
    <tag k="maxspeed:source" v="default residential speed limit in Australia"/>
    <tag k="name" v="May Street"/>
  </way>
  <way id="31652861" version="7" timestamp="2012-01-18T08:08:15Z" uid="147510" user="woodpeck_fixbot" changeset="10424702">
    <nd ref="354075722"/>
    <nd ref="728492873"/>
    <nd ref="25647275"/>
    <nd ref="710565241"/>
    <tag k="highway" v="residential"/>
    <tag k="name" v="May Street"/>
  </way>
  <way id="31652864" version="4" timestamp="2010-06-10T14:31:07Z" uid="4467" user="Rosscoe" changeset="4954607">
    <nd ref="354075808"/>
    <nd ref="768598309"/>
    <nd ref="25647278"/>
    <tag k="highway" v="residential"/>
    <tag k="name" v="May Street"/>
  </way>
  <way id="31652864" version="5" timestamp="2010-06-10T14:41:12Z" uid="4467" user="Rosscoe" changeset="4954607">
    <nd ref="354075808"/>
    <nd ref="768598309"/>
    <nd ref="25647278"/>
    <tag k="highway" v="residential"/>
    <tag k="name" v="May Street"/>
  </way>
  <way id="31652872" version="5" timestamp="2010-07-09T08:08:01Z" uid="74617" user="JohnSmith" changeset="5171412">
    <nd ref="354075895"/>
    <nd ref="354075886"/>
    <nd ref="68431479"/>
    <nd ref="60311324"/>
    <nd ref="60311326"/>
    <tag k="highway" v="residential"/>
    <tag k="maxspeed" v="50"/>
    <tag k="maxspeed:source" v="default residential speed limit in Australia"/>
    <tag k="name" v="Sewell Street"/>
  </way>
  <way id="31652872" version="6" timestamp="2012-01-18T08:08:16Z" uid="147510" user="woodpeck_fixbot" changeset="10424702">
    <nd ref="354075895"/>
    <nd ref="354075886"/>
    <nd ref="68431479"/>
    <nd ref="60311324"/>
    <nd ref="60311326"/>
    <tag k="highway" v="residential"/>
    <tag k="name" v="Sewell Street"/>
  </way>
  <way id="31652874" version="5" timestamp="2010-07-09T08:00:07Z" uid="74617" user="JohnSmith" changeset="5171412">
    <nd ref="301316039"/>
    <nd ref="301316052"/>
    <nd ref="301316053"/>
    <nd ref="646674143"/>
    <nd ref="301317814"/>
    <nd ref="300781572"/>
    <nd ref="301317809"/>
    <nd ref="710618152"/>
    <nd ref="335129813"/>
    <nd ref="300785002"/>
    <nd ref="710618135"/>
    <nd ref="301315859"/>
    <tag k="highway" v="residential"/>
    <tag k="maxspeed" v="50"/>
    <tag k="maxspeed:source" v="default residential speed limit in Australia"/>
    <tag k="name" v="Amherst Street"/>
  </way>
  <way id="31652874" version="6" timestamp="2012-01-18T08:08:18Z" uid="147510" user="woodpeck_fixbot" changeset="10424702">
    <nd ref="301316039"/>
    <nd ref="301316052"/>
    <nd ref="301316053"/>
    <nd ref="646674143"/>
    <nd ref="301317814"/>
    <nd ref="300781572"/>
    <nd ref="301317809"/>
    <nd ref="710618152"/>
    <nd ref="335129813"/>
    <nd ref="300785002"/>
    <nd ref="710618135"/>
    <nd ref="301315859"/>
    <tag k="highway" v="residential"/>
    <tag k="name" v="Amherst Street"/>
  </way>
  <way id="31652879" version="3" timestamp="2010-07-09T08:00:46Z" uid="74617" user="JohnSmith" changeset="5171412">
    <nd ref="354075985"/>
    <nd ref="354075979"/>
    <nd ref="354075910"/>
    <nd ref="354075990"/>
    <tag k="highway" v="residential"/>
    <tag k="maxspeed" v="50"/>
    <tag k="maxspeed:source" v="default residential speed limit in Australia"/>
    <tag k="name" v="Wood Street"/>
  </way>
  <way id="31652879" version="4" timestamp="2012-01-18T08:08:19Z" uid="147510" user="woodpeck_fixbot" changeset="10424702">
    <nd ref="354075985"/>
    <nd ref="354075979"/>
    <nd ref="354075910"/>
    <nd ref="354075990"/>
    <tag k="highway" v="residential"/>
    <tag k="name" v="Wood Street"/>
  </way>
  <way id="31652882" version="4" timestamp="2010-07-09T08:05:40Z" uid="74617" user="JohnSmith" changeset="5171412">
    <nd ref="354075910"/>
    <nd ref="354075916"/>
    <nd ref="354075928"/>
    <nd ref="354075947"/>
    <nd ref="354075951"/>
    <tag k="highway" v="residential"/>
    <tag k="maxspeed" v="50"/>
    <tag k="maxspeed:source" v="default residential speed limit in Australia"/>
    <tag k="name" v="Holland Street"/>
  </way>
  <way id="31652882" version="5" timestamp="2012-01-18T08:08:20Z" uid="147510" user="woodpeck_fixbot" changeset="10424702">
    <nd ref="354075910"/>
    <nd ref="354075916"/>
    <nd ref="354075928"/>
    <nd ref="354075947"/>
    <nd ref="354075951"/>
    <tag k="highway" v="residential"/>
    <tag k="name" v="Holland Street"/>
  </way>
  <way id="31652883" version="5" timestamp="2010-06-11T06:00:00Z" uid="4467" user="Rosscoe" changeset="4959872">
    <nd ref="25647243"/>
    <nd ref="68431455"/>
    <nd ref="60311319"/>
    <nd ref="60311321"/>
    <nd ref="354076000"/>
    <nd ref="354075966"/>
    <nd ref="354075928"/>
    <nd ref="31003972"/>
    <tag k="highway" v="residential"/>
    <tag k="name" v="Hubble Street"/>
  </way>
  <way id="31652883" version="6" timestamp="2010-07-09T08:09:25Z" uid="74617" user="JohnSmith" changeset="5171412">
    <nd ref="25647243"/>
    <nd ref="68431455"/>
    <nd ref="60311319"/>
    <nd ref="60311321"/>
    <nd ref="354076000"/>
    <nd ref="354075966"/>
    <nd ref="354075928"/>
    <nd ref="31003972"/>
    <tag k="highway" v="residential"/>
    <tag k="maxspeed" v="50"/>
    <tag k="maxspeed:source" v="default residential speed limit in Australia"/>
    <tag k="name" v="Hubble Street"/>
  </way>
  <way id="31652883" version="7" timestamp="2012-01-18T08:08:22Z" uid="147510" user="woodpeck_fixbot" changeset="10424702">
    <nd ref="25647243"/>
    <nd ref="68431455"/>
    <nd ref="60311319"/>
    <nd ref="60311321"/>
    <nd ref="354076000"/>
    <nd ref="354075966"/>
    <nd ref="354075928"/>
    <nd ref="31003972"/>
    <tag k="highway" v="residential"/>
    <tag k="name" v="Hubble Street"/>
  </way>
  <way id="31652884" version="5" timestamp="2010-07-09T07:53:27Z" uid="74617" user="JohnSmith" changeset="5171412">
    <nd ref="60311317"/>
    <nd ref="60311314"/>
    <nd ref="68431431"/>
    <nd ref="354076012"/>
    <tag k="highway" v="residential"/>
    <tag k="maxspeed" v="50"/>
    <tag k="maxspeed:source" v="default residential speed limit in Australia"/>
    <tag k="name" v="Glyde Street"/>
  </way>
  <way id="31652884" version="6" timestamp="2012-01-18T08:08:23Z" uid="147510" user="woodpeck_fixbot" changeset="10424702">
    <nd ref="60311317"/>
    <nd ref="60311314"/>
    <nd ref="68431431"/>
    <nd ref="354076012"/>
    <tag k="highway" v="residential"/>
    <tag k="name" v="Glyde Street"/>
  </way>
  <way id="31652885" version="6" timestamp="2010-06-10T14:31:31Z" uid="4467" user="Rosscoe" changeset="4954607">
    <nd ref="354076564"/>
    <nd ref="354076535"/>
    <nd ref="620392688"/>
    <nd ref="354076527"/>
    <nd ref="354076516"/>
    <nd ref="354076021"/>
    <nd ref="354076595"/>
    <tag k="highway" v="residential"/>
    <tag k="name" v="Tuckfield Street"/>
    <tag k="oneway" v="yes"/>
  </way>
  <way id="31652885" version="7" timestamp="2010-06-10T14:41:21Z" uid="4467" user="Rosscoe" changeset="4954607">
    <nd ref="354076564"/>
    <nd ref="354076535"/>
    <nd ref="620392688"/>
    <nd ref="354076527"/>
    <nd ref="354076516"/>
    <nd ref="354076021"/>
    <nd ref="354076595"/>
    <tag k="highway" v="residential"/>
    <tag k="name" v="Tuckfield Street"/>
    <tag k="oneway" v="yes"/>
  </way>
  <way id="31652886" version="5" timestamp="2010-07-09T08:02:03Z" uid="74617" user="JohnSmith" changeset="5171412">
    <nd ref="354076060"/>
    <nd ref="354076067"/>
    <nd ref="354076049"/>
    <nd ref="710618148"/>
    <nd ref="354076029"/>
    <tag k="highway" v="residential"/>
    <tag k="maxspeed" v="50"/>
    <tag k="maxspeed:source" v="default residential speed limit in Australia"/>
    <tag k="name" v="Malcolm Street"/>
  </way>
  <way id="31652886" version="6" timestamp="2012-01-18T08:08:24Z" uid="147510" user="woodpeck_fixbot" changeset="10424702">
    <nd ref="354076060"/>
    <nd ref="354076067"/>
    <nd ref="354076049"/>
    <nd ref="710618148"/>
    <nd ref="354076029"/>
    <tag k="highway" v="residential"/>
    <tag k="name" v="Malcolm Street"/>
  </way>
  <way id="31652889" version="4" timestamp="2010-07-09T08:04:06Z" uid="74617" user="JohnSmith" changeset="5171412">
    <nd ref="354076049"/>
    <nd ref="354076078"/>
    <nd ref="354076074"/>
    <nd ref="354076043"/>
    <tag k="highway" v="residential"/>
    <tag k="maxspeed" v="50"/>
    <tag k="maxspeed:source" v="default residential speed limit in Australia"/>
    <tag k="name" v="Malcolm Street"/>
  </way>
  <way id="31652889" version="5" timestamp="2012-01-18T08:08:26Z" uid="147510" user="woodpeck_fixbot" changeset="10424702">
    <nd ref="354076049"/>
    <nd ref="354076078"/>
    <nd ref="354076074"/>
    <nd ref="354076043"/>
    <tag k="highway" v="residential"/>
    <tag k="name" v="Malcolm Street"/>
  </way>
  <way id="31652890" version="4" timestamp="2010-06-10T14:31:51Z" uid="4467" user="Rosscoe" changeset="4954607">
    <nd ref="354076084"/>
    <nd ref="768598486"/>
    <nd ref="52173387"/>
    <nd ref="354076135"/>
    <nd ref="354076034"/>
    <nd ref="354076097"/>
    <nd ref="354076108"/>
    <nd ref="354076113"/>
    <nd ref="354076122"/>
    <tag k="highway" v="residential"/>
    <tag k="name" v="Burt Street"/>
  </way>
  <way id="31652890" version="5" timestamp="2010-06-10T14:41:26Z" uid="4467" user="Rosscoe" changeset="4954607">
    <nd ref="354076084"/>
    <nd ref="768598486"/>
    <nd ref="52173387"/>
    <nd ref="354076135"/>
    <nd ref="354076034"/>
    <nd ref="354076097"/>
    <nd ref="354076108"/>
    <nd ref="354076113"/>
    <nd ref="354076122"/>
    <tag k="highway" v="residential"/>
    <tag k="name" v="Burt Street"/>
  </way>
  <way id="31652890" version="6" timestamp="2010-07-09T07:54:05Z" uid="74617" user="JohnSmith" changeset="5171412">
    <nd ref="354076084"/>
    <nd ref="768598486"/>
    <nd ref="52173387"/>
    <nd ref="354076135"/>
    <nd ref="354076034"/>
    <nd ref="354076097"/>
    <nd ref="354076108"/>
    <nd ref="354076113"/>
    <nd ref="354076122"/>
    <tag k="highway" v="residential"/>
    <tag k="maxspeed" v="50"/>
    <tag k="maxspeed:source" v="default residential speed limit in Australia"/>
    <tag k="name" v="Burt Street"/>
  </way>
  <way id="31652890" version="7" timestamp="2012-01-18T08:08:28Z" uid="147510" user="woodpeck_fixbot" changeset="10424702">
    <nd ref="354076084"/>
    <nd ref="768598486"/>
    <nd ref="52173387"/>
    <nd ref="354076135"/>
    <nd ref="354076034"/>
    <nd ref="354076097"/>
    <nd ref="354076108"/>
    <nd ref="354076113"/>
    <nd ref="354076122"/>
    <tag k="highway" v="residential"/>
    <tag k="name" v="Burt Street"/>
  </way>
  <way id="31652892" version="5" timestamp="2010-07-09T07:58:33Z" uid="74617" user="JohnSmith" changeset="5171412">
    <nd ref="354076127"/>
    <nd ref="620393903"/>
    <tag k="highway" v="residential"/>
    <tag k="maxspeed" v="50"/>
    <tag k="maxspeed:source" v="default residential speed limit in Australia"/>
    <tag k="name" v="Tuckfield Street"/>
  </way>
  <way id="31652892" version="6" timestamp="2012-01-18T08:08:30Z" uid="147510" user="woodpeck_fixbot" changeset="10424702">
    <nd ref="354076127"/>
    <nd ref="620393903"/>
    <tag k="highway" v="residential"/>
    <tag k="name" v="Tuckfield Street"/>
  </way>
  <way id="31652894" version="5" timestamp="2010-07-09T08:08:32Z" uid="74617" user="JohnSmith" changeset="5171412">
    <nd ref="43201269"/>
    <nd ref="354076127"/>
    <nd ref="620388740"/>
    <nd ref="354076145"/>
    <tag k="highway" v="residential"/>
    <tag k="maxspeed" v="50"/>
    <tag k="maxspeed:source" v="default residential speed limit in Australia"/>
    <tag k="name" v="Finnerty Street"/>
  </way>
  <way id="31652894" version="6" timestamp="2012-01-18T08:08:31Z" uid="147510" user="woodpeck_fixbot" changeset="10424702">
    <nd ref="43201269"/>
    <nd ref="354076127"/>
    <nd ref="620388740"/>
    <nd ref="354076145"/>
    <tag k="highway" v="residential"/>
    <tag k="name" v="Finnerty Street"/>
  </way>
  <way id="31652895" version="6" timestamp="2010-07-09T07:55:03Z" uid="74617" user="JohnSmith" changeset="5171412">
    <nd ref="354076179"/>
    <nd ref="354076145"/>
    <nd ref="620395055"/>
    <nd ref="620395044"/>
    <nd ref="354076135"/>
    <tag k="highway" v="residential"/>
    <tag k="maxspeed" v="50"/>
    <tag k="maxspeed:source" v="default residential speed limit in Australia"/>
    <tag k="name" v="Skinner Street"/>
  </way>
  <way id="31652895" version="7" timestamp="2012-01-18T08:08:32Z" uid="147510" user="woodpeck_fixbot" changeset="10424702">
    <nd ref="354076179"/>
    <nd ref="354076145"/>
    <nd ref="620395055"/>
    <nd ref="620395044"/>
    <nd ref="354076135"/>
    <tag k="highway" v="residential"/>
    <tag k="name" v="Skinner Street"/>
  </way>
  <way id="31652896" version="4" timestamp="2010-07-09T08:06:29Z" uid="74617" user="JohnSmith" changeset="5171412">
    <nd ref="354076192"/>
    <nd ref="354076250"/>
    <nd ref="51787098"/>
    <tag k="highway" v="residential"/>
    <tag k="maxspeed" v="50"/>
    <tag k="maxspeed:source" v="default residential speed limit in Australia"/>
    <tag k="name" v="Dorothy Street"/>
  </way>
  <way id="31652896" version="5" timestamp="2011-08-26T09:27:50Z" uid="338866" user="tiger" changeset="9127804">
    <nd ref="354076192"/>
    <nd ref="620397370"/>
    <nd ref="354076250"/>
    <nd ref="51787098"/>
    <tag k="highway" v="residential"/>
    <tag k="maxspeed" v="50"/>
    <tag k="maxspeed:source" v="default residential speed limit in Australia"/>
    <tag k="name" v="Dorothy Street"/>
  </way>
  <way id="31652896" version="6" timestamp="2012-01-18T08:08:34Z" uid="147510" user="woodpeck_fixbot" changeset="10424702">
    <nd ref="354076192"/>
    <nd ref="620397370"/>
    <nd ref="354076250"/>
    <nd ref="51787098"/>
    <tag k="highway" v="residential"/>
    <tag k="name" v="Dorothy Street"/>
  </way>
  <way id="31652904" version="4" timestamp="2010-07-09T07:54:39Z" uid="74617" user="JohnSmith" changeset="5171412">
    <nd ref="25647267"/>
    <nd ref="25647268"/>
    <nd ref="25647269"/>
    <nd ref="25647270"/>
    <nd ref="25647271"/>
    <nd ref="25647272"/>
    <nd ref="25647265"/>
    <nd ref="354076510"/>
    <tag k="highway" v="residential"/>
    <tag k="maxspeed" v="50"/>
    <tag k="maxspeed:source" v="default residential speed limit in Australia"/>
    <tag k="name" v="Duke Street"/>
  </way>
  <way id="31652904" version="5" timestamp="2012-01-18T08:08:35Z" uid="147510" user="woodpeck_fixbot" changeset="10424702">
    <nd ref="25647267"/>
    <nd ref="25647268"/>
    <nd ref="25647269"/>
    <nd ref="25647270"/>
    <nd ref="25647271"/>
    <nd ref="25647272"/>
    <nd ref="25647265"/>
    <nd ref="354076510"/>
    <tag k="highway" v="residential"/>
    <tag k="name" v="Duke Street"/>
  </way>
  <way id="31652905" version="5" timestamp="2010-06-10T14:34:16Z" uid="4467" user="Rosscoe" changeset="4954607">
    <nd ref="354076595"/>
    <nd ref="354076613"/>
    <nd ref="620384572"/>
    <nd ref="354076626"/>
    <nd ref="354076639"/>
    <tag k="highway" v="residential"/>
    <tag k="name" v="Tuckfield Street"/>
    <tag k="oneway" v="yes"/>
  </way>
  <way id="31652905" version="6" timestamp="2010-06-10T14:43:21Z" uid="4467" user="Rosscoe" changeset="4954607">
    <nd ref="354076595"/>
    <nd ref="354076613"/>
    <nd ref="620384572"/>
    <nd ref="354076626"/>
    <nd ref="354076639"/>
    <tag k="highway" v="residential"/>
    <tag k="name" v="Tuckfield Street"/>
    <tag k="oneway" v="yes"/>
  </way>
  <way id="31652908" version="4" timestamp="2010-05-08T03:13:09Z" uid="4467" user="Rosscoe" changeset="4635535">
    <nd ref="31003993"/>
    <nd ref="354076646"/>
    <nd ref="354076654"/>
    <nd ref="354076668"/>
    <tag k="highway" v="primary_link"/>
  </way>
  <way id="31652908" version="5" timestamp="2010-06-10T14:30:57Z" uid="4467" user="Rosscoe" changeset="4954607">
    <nd ref="31003993"/>
    <nd ref="354076646"/>
    <nd ref="768598430"/>
    <tag k="highway" v="trunk_link"/>
    <tag k="oneway" v="yes"/>
    <tag k="source" v="nearmap"/>
  </way>
  <way id="31652908" version="6" timestamp="2010-06-10T14:41:06Z" uid="4467" user="Rosscoe" changeset="4954607">
    <nd ref="31003993"/>
    <nd ref="354076646"/>
    <nd ref="768598430"/>
    <tag k="highway" v="trunk_link"/>
    <tag k="oneway" v="yes"/>
    <tag k="source" v="nearmap"/>
  </way>
  <way id="31652908" version="7" timestamp="2010-06-11T04:10:57Z" uid="4467" user="Rosscoe" changeset="4959671">
    <nd ref="31003993"/>
    <nd ref="354076646"/>
    <nd ref="768598430"/>
    <tag k="highway" v="primary_link"/>
    <tag k="oneway" v="yes"/>
    <tag k="source" v="nearmap"/>
  </way>
  <way id="31652908" version="8" timestamp="2010-12-18T02:24:07Z" uid="294850" user="Q4004" changeset="6692511">
    <nd ref="31003993"/>
    <nd ref="354076646"/>
    <nd ref="768598430"/>
    <tag k="highway" v="trunk"/>
    <tag k="oneway" v="yes"/>
    <tag k="source" v="nearmap"/>
  </way>
  <way id="31652961" version="5" timestamp="2010-05-08T03:13:47Z" uid="4467" user="Rosscoe" changeset="4635535">
    <nd ref="354078116"/>
    <nd ref="627517518"/>
    <nd ref="627517784"/>
    <nd ref="354078104"/>
    <tag k="highway" v="secondary"/>
  </way>
  <way id="31652961" version="6" timestamp="2010-06-10T14:28:15Z" uid="4467" user="Rosscoe" changeset="4954607">
    <nd ref="687148798"/>
    <nd ref="354078116"/>
    <nd ref="627517518"/>
    <nd ref="627517784"/>
    <nd ref="354078104"/>
    <tag k="highway" v="secondary"/>
    <tag k="oneway" v="yes"/>
  </way>
  <way id="31652961" version="7" timestamp="2010-06-10T14:39:08Z" uid="4467" user="Rosscoe" changeset="4954607">
    <nd ref="687148798"/>
    <nd ref="354078116"/>
    <nd ref="627517518"/>
    <nd ref="627517784"/>
    <nd ref="354078104"/>
    <tag k="highway" v="secondary"/>
    <tag k="oneway" v="yes"/>
  </way>
  <way id="31652961" version="8" timestamp="2012-01-09T17:19:01Z" uid="142807" user="SDavies" changeset="10343800">
    <nd ref="687148798"/>
    <nd ref="354078116"/>
    <nd ref="627517518"/>
    <tag k="highway" v="trunk"/>
    <tag k="oneway" v="yes"/>
  </way>
  <way id="31652962" version="5" timestamp="2010-05-08T03:13:45Z" uid="4467" user="Rosscoe" changeset="4635535">
    <nd ref="354078156"/>
    <nd ref="627517791"/>
    <nd ref="354078145"/>
    <nd ref="354078137"/>
    <nd ref="354078123"/>
    <tag k="highway" v="secondary"/>
  </way>
  <way id="31652962" version="6" timestamp="2010-06-10T14:32:56Z" uid="4467" user="Rosscoe" changeset="4954607">
    <nd ref="354078156"/>
    <nd ref="627517791"/>
    <nd ref="354078145"/>
    <nd ref="354078137"/>
    <nd ref="354078123"/>
    <tag k="highway" v="secondary"/>
    <tag k="oneway" v="yes"/>
  </way>
  <way id="31652962" version="7" timestamp="2010-06-10T14:42:21Z" uid="4467" user="Rosscoe" changeset="4954607">
    <nd ref="354078156"/>
    <nd ref="627517791"/>
    <nd ref="354078145"/>
    <nd ref="354078137"/>
    <nd ref="354078123"/>
    <tag k="highway" v="secondary"/>
    <tag k="oneway" v="yes"/>
  </way>
  <way id="31652962" version="8" timestamp="2012-01-09T17:19:01Z" uid="142807" user="SDavies" changeset="10343800">
    <nd ref="354078156"/>
    <nd ref="627517791"/>
    <nd ref="354078145"/>
    <nd ref="354078137"/>
    <nd ref="354078123"/>
    <tag k="highway" v="trunk"/>
    <tag k="oneway" v="yes"/>
  </way>
  <way id="31652327" version="6" timestamp="2012-07-20T02:20:16Z" uid="722137" user="OSMF Redaction Account" changeset="12357957">
    <nd ref="353067162"/>
    <nd ref="1314058202"/>
    <nd ref="353975150"/>
    <nd ref="353975265"/>
    <nd ref="353975266"/>
    <nd ref="353975268"/>
    <nd ref="353975269"/>
    <nd ref="353975271"/>
    <nd ref="353975272"/>
    <tag k="highway" v="tertiary"/>
  </way>
  <way id="31652372" version="7" timestamp="2012-07-19T17:00:59Z" uid="722137" user="OSMF Redaction Account" changeset="12341081"/>
  <way id="31652374" version="6" timestamp="2012-07-20T05:58:57Z" uid="189263" user="wildmyron" changeset="12362494">
    <nd ref="354064853"/>
    <nd ref="354064868"/>
    <nd ref="354065167"/>
    <nd ref="354064893"/>
    <nd ref="354065146"/>
    <nd ref="354064947"/>
    <nd ref="1831712118"/>
    <nd ref="354064978"/>
    <nd ref="354065001"/>
    <nd ref="1831712119"/>
    <nd ref="354064858"/>
    <nd ref="354064863"/>
    <tag k="highway" v="residential"/>
    <tag k="name" v="McGregor Road"/>
  </way>
  <way id="31652375" version="5" timestamp="2012-08-23T00:40:46Z" uid="418724" user="wintersportler" changeset="12827412">
    <nd ref="354064868"/>
    <nd ref="354064871"/>
    <nd ref="354064875"/>
    <nd ref="354064880"/>
    <nd ref="354064884"/>
    <nd ref="354064889"/>
    <tag k="fixme" v="name"/>
    <tag k="highway" v="residential"/>
  </way>
  <way id="31652376" version="5" timestamp="2012-08-23T00:33:25Z" uid="418724" user="wintersportler" changeset="12827412">
    <nd ref="354064893"/>
    <nd ref="354064897"/>
    <tag k="fixme" v="name"/>
    <tag k="highway" v="residential"/>
  </way>
  <way id="31652377" version="5" timestamp="2012-08-23T00:39:10Z" uid="418724" user="wintersportler" changeset="12827412">
    <nd ref="354064907"/>
    <nd ref="354064933"/>
    <nd ref="354064897"/>
    <nd ref="354064939"/>
    <nd ref="354064942"/>
    <tag k="fixme" v="name"/>
    <tag k="highway" v="residential"/>
  </way>
  <way id="31652381" version="6" timestamp="2012-07-20T05:58:57Z" uid="189263" user="wildmyron" changeset="12362494">
    <nd ref="354064978"/>
    <nd ref="354064987"/>
    <nd ref="1831712120"/>
    <nd ref="354064992"/>
    <nd ref="354064997"/>
    <tag k="highway" v="residential"/>
    <tag k="name" v="Moody Glen"/>
  </way>
  <way id="31652382" version="7" timestamp="2012-07-04T09:58:28Z" uid="189263" user="wildmyron" changeset="12108596">
    <nd ref="354065001"/>
    <nd ref="354065155"/>
    <nd ref="1812296353"/>
    <nd ref="60311646"/>
    <nd ref="354065004"/>
    <nd ref="354065411"/>
    <nd ref="354065010"/>
    <nd ref="354065015"/>
    <nd ref="354065270"/>
    <tag k="highway" v="residential"/>
    <tag k="name" v="Baal Street"/>
  </way>
  <way id="31652383" version="8" timestamp="2012-07-04T09:58:29Z" uid="189263" user="wildmyron" changeset="12108596">
    <nd ref="769008266"/>
    <nd ref="31003952"/>
    <nd ref="354064858"/>
    <nd ref="354065160"/>
    <nd ref="1812296351"/>
    <nd ref="60311702"/>
    <nd ref="354065018"/>
    <nd ref="354065415"/>
    <nd ref="714825270"/>
    <tag k="highway" v="residential"/>
    <tag k="name" v="Justinian Street"/>
  </way>
  <way id="31652383" version="9" timestamp="2012-07-19T16:58:34Z" uid="722137" user="OSMF Redaction Account" changeset="12341011">
    <nd ref="31003952"/>
    <nd ref="354064858"/>
    <nd ref="354065160"/>
    <nd ref="1812296351"/>
    <nd ref="60311702"/>
    <nd ref="354065018"/>
    <nd ref="354065415"/>
    <tag k="highway" v="residential"/>
    <tag k="name" v="Justinian Street"/>
  </way>
  <way id="31652383" version="10" timestamp="2012-07-20T05:58:56Z" uid="189263" user="wildmyron" changeset="12362494">
    <nd ref="223482335"/>
    <nd ref="31003952"/>
    <nd ref="354064858"/>
    <nd ref="354065160"/>
    <nd ref="1812296351"/>
    <nd ref="60311702"/>
    <nd ref="354065018"/>
    <nd ref="354065415"/>
    <tag k="highway" v="residential"/>
    <tag k="name" v="Justinian Street"/>
  </way>
  <way id="31652383" version="11" timestamp="2012-07-26T12:10:56Z" uid="57380" user="JennyH" changeset="12498256">
    <nd ref="223482335"/>
    <nd ref="31003952"/>
    <nd ref="354064858"/>
    <nd ref="354065160"/>
    <nd ref="1812296351"/>
    <nd ref="60311702"/>
    <nd ref="354065018"/>
    <nd ref="354065415"/>
    <nd ref="1838683313"/>
    <tag k="highway" v="residential"/>
    <tag k="name" v="Justinian Street"/>
  </way>
  <way id="31652385" version="6" timestamp="2012-07-19T16:58:30Z" uid="722137" user="OSMF Redaction Account" changeset="12341011">
    <nd ref="354065051"/>
    <nd ref="354065055"/>
    <nd ref="354065063"/>
    <tag k="highway" v="tertiary"/>
    <tag k="name" v="Elvira Street"/>
  </way>
  <way id="31652387" version="5" timestamp="2012-07-19T16:58:33Z" uid="722137" user="OSMF Redaction Account" changeset="12341011">
    <nd ref="354065116"/>
    <nd ref="354065124"/>
    <nd ref="354065015"/>
    <tag k="highway" v="residential"/>
    <tag k="name" v="Solomon Street"/>
  </way>
  <way id="31652390" version="7" timestamp="2012-07-04T09:58:27Z" uid="189263" user="wildmyron" changeset="12108596">
    <nd ref="354065167"/>
    <nd ref="354065177"/>
    <nd ref="1812296354"/>
    <nd ref="60311595"/>
    <nd ref="354065183"/>
    <nd ref="354064841"/>
    <nd ref="354065190"/>
    <nd ref="354065254"/>
    <nd ref="354065094"/>
    <nd ref="354065197"/>
    <nd ref="354065214"/>
    <nd ref="32017940"/>
    <tag k="highway" v="residential"/>
    <tag k="name" v="Adrian Street"/>
  </way>
  <way id="31652396" version="3" timestamp="2012-07-20T02:20:16Z" uid="722137" user="OSMF Redaction Account" changeset="12357957">
    <nd ref="354065544"/>
    <nd ref="354065545"/>
    <nd ref="354065546"/>
    <nd ref="301280205"/>
    <nd ref="354065547"/>
    <nd ref="354065373"/>
    <tag k="highway" v="tertiary"/>
  </way>
  <way id="31652397" version="9" timestamp="2012-07-19T17:01:02Z" uid="722137" user="OSMF Redaction Account" changeset="12341081"/>
  <way id="31652405" version="8" timestamp="2012-07-19T16:58:25Z" uid="722137" user="OSMF Redaction Account" changeset="12341011">
    <nd ref="354065316"/>
    <nd ref="354065322"/>
    <nd ref="310731716"/>
    <tag k="highway" v="residential"/>
    <tag k="name" v="Waddell Road"/>
  </way>
  <way id="31652406" version="8" timestamp="2012-07-19T16:58:26Z" uid="722137" user="OSMF Redaction Account" changeset="12341011">
    <nd ref="32017943"/>
    <nd ref="354065332"/>
    <nd ref="354065338"/>
    <tag k="highway" v="residential"/>
    <tag k="name" v="Hope Road"/>
  </way>
  <way id="31652407" version="8" timestamp="2012-07-19T16:58:26Z" uid="722137" user="OSMF Redaction Account" changeset="12341011">
    <nd ref="354065344"/>
    <nd ref="354065298"/>
    <tag k="highway" v="residential"/>
    <tag k="name" v="Murray Road"/>
  </way>
  <way id="31652417" version="4" timestamp="2012-07-20T02:20:06Z" uid="722137" user="OSMF Redaction Account" changeset="12357952">
    <nd ref="1178859399"/>
    <nd ref="1178859277"/>
    <nd ref="353906767"/>
    <nd ref="353906769"/>
    <nd ref="1178858743"/>
    <nd ref="353906770"/>
    <nd ref="353906610"/>
    <nd ref="353906773"/>
    <nd ref="1178859043"/>
    <nd ref="353906776"/>
    <tag k="highway" v="tertiary"/>
  </way>
  <way id="31652796" version="9" timestamp="2012-05-16T03:53:31Z" uid="91347" user="jonathanpatt" changeset="11610676">
    <nd ref="1678359174"/>
    <nd ref="1754505415"/>
    <nd ref="1754505417"/>
    <nd ref="1754505409"/>
    <nd ref="1754505384"/>
    <nd ref="1754505413"/>
    <nd ref="1754505393"/>
    <nd ref="1754505405"/>
    <nd ref="1754505407"/>
    <nd ref="1754505389"/>
    <nd ref="1754505403"/>
    <nd ref="1754505395"/>
    <nd ref="173926877"/>
    <nd ref="354076980"/>
    <nd ref="354076981"/>
    <nd ref="354076928"/>
    <tag k="hgv" v="designated"/>
    <tag k="hgv:national_network" v="yes"/>
    <tag k="highway" v="primary"/>
    <tag k="lanes" v="2"/>
    <tag k="name" v="Pan American Avenue"/>
    <tag k="NHS" v="yes"/>
    <tag k="old_ref" v="US 666 Business"/>
    <tag k="oneway" v="yes"/>
    <tag k="ref" v="US 191 Business"/>
    <tag k="source:hgv:national_network" v="Title 23: Highways Part 658 http://ecfr.gpoaccess.gov/cgi/t/text/text-idx?c=ecfr&amp;rgn=div5&amp;view=text&amp;node=23:1.0.1.7.33&amp;idno=23"/>
    <tag k="tiger:cfcc" v="A41"/>
    <tag k="tiger:county" v="Cochise, AZ"/>
    <tag k="tiger:name_base" v="Pan American"/>
    <tag k="tiger:name_base_1" v="US Hwy 666 (Bus)"/>
    <tag k="tiger:name_type" v="Ave"/>
    <tag k="tiger:reviewed" v="no"/>
    <tag k="tiger:separated" v="no"/>
    <tag k="tiger:source" v="tiger_import_dch_v0.6_20070809"/>
    <tag k="tiger:tlid" v="120910448:120910494:120910411:120910605:120910545:120910948:120910767:120945912:120910876:120960014:120987335:120910933:120910946:120910914:120910667"/>
    <tag k="tiger:zip_left" v="85607"/>
    <tag k="tiger:zip_right" v="85607"/>
  </way>
  <way id="31652796" version="10" timestamp="2012-08-07T14:07:36Z" uid="207745" user="NE2" changeset="12645911">
    <nd ref="1678359174"/>
    <nd ref="1754505415"/>
    <nd ref="1754505417"/>
    <nd ref="1754505409"/>
    <nd ref="1754505384"/>
    <nd ref="1754505413"/>
    <nd ref="1754505393"/>
    <nd ref="1754505405"/>
    <nd ref="1754505407"/>
    <nd ref="1754505389"/>
    <nd ref="1754505403"/>
    <nd ref="1754505395"/>
    <nd ref="173926877"/>
    <tag k="FIXME" v="yes"/>
    <tag k="highway" v="primary_link"/>
    <tag k="oneway" v="yes"/>
    <tag k="tiger:cfcc" v="A41"/>
    <tag k="tiger:county" v="Cochise, AZ"/>
    <tag k="tiger:name_base" v="Pan American"/>
    <tag k="tiger:name_base_1" v="US Hwy 666 (Bus)"/>
    <tag k="tiger:name_type" v="Ave"/>
    <tag k="tiger:reviewed" v="no"/>
    <tag k="tiger:separated" v="no"/>
    <tag k="tiger:source" v="tiger_import_dch_v0.6_20070809"/>
    <tag k="tiger:tlid" v="120910448:120910494:120910411:120910605:120910545:120910948:120910767:120945912:120910876:120960014:120987335:120910933:120910946:120910914:120910667"/>
    <tag k="tiger:zip_left" v="85607"/>
    <tag k="tiger:zip_right" v="85607"/>
  </way>
  <way id="31652818" version="8" timestamp="2012-07-19T16:58:29Z" uid="722137" user="OSMF Redaction Account" changeset="12341011">
    <nd ref="2306306"/>
    <nd ref="354074819"/>
    <nd ref="354074850"/>
    <nd ref="354074789"/>
    <tag k="highway" v="residential"/>
    <tag k="name" v="Irwin Street"/>
  </way>
  <way id="31652819" version="8" timestamp="2012-07-19T16:58:29Z" uid="722137" user="OSMF Redaction Account" changeset="12341011">
    <nd ref="354074797"/>
    <nd ref="354074800"/>
    <tag k="highway" v="residential"/>
    <tag k="name" v="Gill Street"/>
  </way>
  <way id="31652820" version="8" timestamp="2012-07-19T16:58:29Z" uid="722137" user="OSMF Redaction Account" changeset="12341011">
    <nd ref="354074803"/>
    <nd ref="354074807"/>
    <nd ref="354074810"/>
    <nd ref="354074814"/>
    <tag k="highway" v="residential"/>
    <tag k="name" v="Walter Street"/>
  </way>
  <way id="31652821" version="8" timestamp="2012-07-19T16:58:29Z" uid="722137" user="OSMF Redaction Account" changeset="12341011">
    <nd ref="60311577"/>
    <nd ref="354074856"/>
    <nd ref="354074818"/>
    <nd ref="354074792"/>
    <tag k="highway" v="residential"/>
    <tag k="name" v="Fortesque Street"/>
  </way>
  <way id="31652823" version="8" timestamp="2012-07-19T16:58:29Z" uid="722137" user="OSMF Redaction Account" changeset="12341011">
    <nd ref="60311572"/>
    <nd ref="354074861"/>
    <nd ref="31128160"/>
    <tag k="highway" v="residential"/>
    <tag k="name" v="Dalgety Street"/>
  </way>
  <way id="31652830" version="6" timestamp="2012-07-19T16:58:26Z" uid="722137" user="OSMF Redaction Account" changeset="12341011">
    <nd ref="354074960"/>
    <nd ref="354074964"/>
    <nd ref="354075260"/>
    <nd ref="354075218"/>
    <nd ref="354074967"/>
    <nd ref="354075109"/>
    <nd ref="354075083"/>
    <nd ref="354074803"/>
    <nd ref="443610959"/>
    <nd ref="354074800"/>
    <nd ref="354075068"/>
    <nd ref="50404590"/>
    <nd ref="354075042"/>
    <nd ref="354075535"/>
    <nd ref="354074953"/>
    <nd ref="354074977"/>
    <nd ref="354074983"/>
    <tag k="highway" v="residential"/>
    <tag k="name" v="Fraser Street"/>
  </way>
  <way id="31652830" version="7" timestamp="2012-07-26T12:25:17Z" uid="57380" user="JennyH" changeset="12498256">
    <nd ref="354074960"/>
    <nd ref="354074964"/>
    <nd ref="354075260"/>
    <nd ref="354075218"/>
    <nd ref="354074967"/>
    <nd ref="1838691407"/>
    <nd ref="354075109"/>
    <nd ref="354075083"/>
    <nd ref="354074803"/>
    <nd ref="443610959"/>
    <nd ref="354074800"/>
    <nd ref="354075068"/>
    <nd ref="50404590"/>
    <nd ref="354075042"/>
    <nd ref="354075535"/>
    <nd ref="354074953"/>
    <nd ref="354074977"/>
    <nd ref="354074983"/>
    <tag k="highway" v="residential"/>
    <tag k="name" v="Fraser Street"/>
  </way>
  <way id="31652831" version="8" timestamp="2012-07-19T16:58:31Z" uid="722137" user="OSMF Redaction Account" changeset="12341011">
    <nd ref="354074977"/>
    <nd ref="354075054"/>
    <nd ref="354074988"/>
    <nd ref="354074995"/>
    <nd ref="354075002"/>
    <nd ref="354075493"/>
    <nd ref="354075523"/>
    <nd ref="354075477"/>
    <nd ref="354075012"/>
    <tag k="highway" v="residential"/>
    <tag k="name" v="Staton Road"/>
  </way>
  <way id="31652836" version="8" timestamp="2012-07-19T16:58:29Z" uid="722137" user="OSMF Redaction Account" changeset="12341011">
    <nd ref="354075075"/>
    <nd ref="354075083"/>
    <tag k="highway" v="residential"/>
    <tag k="name" v="Stratford Street"/>
  </way>
  <way id="31652837" version="8" timestamp="2012-04-09T19:02:29Z" uid="654027" user="FlyDazzleFly" changeset="11243807">
    <nd ref="768598422"/>
    <nd ref="31128162"/>
    <nd ref="354075089"/>
    <nd ref="354075109"/>
    <nd ref="354075116"/>
    <nd ref="50405193"/>
    <nd ref="50394676"/>
    <nd ref="354075118"/>
    <nd ref="165876589"/>
    <tag k="bicycle" v="yes"/>
    <tag k="cycleway" v="no"/>
    <tag k="foot" v="designated"/>
    <tag k="highway" v="residential"/>
    <tag k="maxspeed" v="50"/>
    <tag k="name" v="Clayton Street"/>
    <tag k="oneway" v="no"/>
    <tag k="surface" v="asphalt"/>
  </way>
  <way id="31652837" version="9" timestamp="2012-07-19T16:58:23Z" uid="722137" user="OSMF Redaction Account" changeset="12341011">
    <nd ref="31128162"/>
    <nd ref="354075089"/>
    <nd ref="354075109"/>
    <nd ref="354075116"/>
    <nd ref="50405193"/>
    <nd ref="354075118"/>
    <nd ref="165876589"/>
    <tag k="bicycle" v="yes"/>
    <tag k="cycleway" v="no"/>
    <tag k="foot" v="designated"/>
    <tag k="highway" v="residential"/>
    <tag k="name" v="Clayton Street"/>
    <tag k="oneway" v="no"/>
    <tag k="surface" v="asphalt"/>
  </way>
  <way id="31652837" version="10" timestamp="2012-07-26T12:16:23Z" uid="57380" user="JennyH" changeset="12498256">
    <nd ref="31128162"/>
    <nd ref="354075089"/>
    <nd ref="354075109"/>
    <nd ref="354075116"/>
    <nd ref="50405193"/>
    <nd ref="1838686976"/>
    <nd ref="354075118"/>
    <nd ref="165876589"/>
    <tag k="bicycle" v="yes"/>
    <tag k="cycleway" v="no"/>
    <tag k="foot" v="designated"/>
    <tag k="highway" v="residential"/>
    <tag k="name" v="Clayton Street"/>
    <tag k="oneway" v="no"/>
    <tag k="surface" v="asphalt"/>
  </way>
  <way id="31652837" version="11" timestamp="2012-08-22T23:54:12Z" uid="418724" user="wintersportler" changeset="12827232"/>
  <way id="31652838" version="9" timestamp="2012-07-19T16:58:24Z" uid="722137" user="OSMF Redaction Account" changeset="12341011">
    <nd ref="354075123"/>
    <nd ref="354075283"/>
    <nd ref="354074967"/>
    <nd ref="354075126"/>
    <nd ref="354075130"/>
    <nd ref="354075134"/>
    <nd ref="354075140"/>
    <nd ref="354075146"/>
    <nd ref="354075148"/>
    <nd ref="710326495"/>
    <tag k="highway" v="residential"/>
    <tag k="name" v="Westbury Crescent"/>
  </way>
  <way id="31652838" version="10" timestamp="2012-07-26T12:25:18Z" uid="57380" user="JennyH" changeset="12498256">
    <nd ref="354075123"/>
    <nd ref="354075283"/>
    <nd ref="354074967"/>
    <nd ref="1838691415"/>
    <nd ref="354075126"/>
    <nd ref="354075130"/>
    <nd ref="354075134"/>
    <nd ref="354075140"/>
    <nd ref="354075146"/>
    <nd ref="354075148"/>
    <nd ref="710326495"/>
    <tag k="highway" v="residential"/>
    <tag k="name" v="Westbury Crescent"/>
  </way>
  <way id="31652839" version="6" timestamp="2012-07-19T16:58:24Z" uid="722137" user="OSMF Redaction Account" changeset="12341011">
    <nd ref="354075155"/>
    <nd ref="354075160"/>
    <nd ref="354075164"/>
    <nd ref="354075171"/>
    <nd ref="354075177"/>
    <nd ref="354075186"/>
    <nd ref="354075218"/>
    <tag k="highway" v="residential"/>
    <tag k="name" v="Birdwood Cir"/>
  </way>
  <way id="31652842" version="6" timestamp="2012-07-19T16:58:21Z" uid="722137" user="OSMF Redaction Account" changeset="12341011">
    <nd ref="354075155"/>
    <nd ref="354075250"/>
    <nd ref="354075235"/>
    <nd ref="354075246"/>
    <nd ref="354075254"/>
    <nd ref="354075257"/>
    <nd ref="354075260"/>
    <nd ref="354075263"/>
    <nd ref="354075267"/>
    <nd ref="354075271"/>
    <nd ref="354075274"/>
    <nd ref="354075277"/>
    <nd ref="354075279"/>
    <tag k="highway" v="residential"/>
    <tag k="name" v="Birdwood Cir"/>
  </way>
  <way id="31652842" version="7" timestamp="2012-07-26T12:25:17Z" uid="57380" user="JennyH" changeset="12498256">
    <nd ref="354075155"/>
    <nd ref="354075250"/>
    <nd ref="354075235"/>
    <nd ref="354075246"/>
    <nd ref="354075254"/>
    <nd ref="354075257"/>
    <nd ref="354075260"/>
    <nd ref="354075263"/>
    <nd ref="354075267"/>
    <nd ref="354075271"/>
    <nd ref="354075274"/>
    <nd ref="354075277"/>
    <nd ref="354075279"/>
    <nd ref="1838691413"/>
    <tag k="highway" v="residential"/>
    <tag k="name" v="Birdwood Cir"/>
  </way>
  <way id="31652844" version="7" timestamp="2012-07-19T16:59:37Z" uid="722137" user="OSMF Redaction Account" changeset="12341011">
    <nd ref="354075335"/>
    <nd ref="354075341"/>
    <nd ref="354075354"/>
    <nd ref="354075363"/>
    <nd ref="354075370"/>
    <nd ref="354075378"/>
    <nd ref="354075060"/>
    <tag k="highway" v="residential"/>
    <tag k="name" v="Tingira Cir"/>
  </way>
  <way id="31652850" version="5" timestamp="2012-08-23T00:38:58Z" uid="418724" user="wintersportler" changeset="12827412">
    <nd ref="354075535"/>
    <nd ref="354075545"/>
    <nd ref="354075556"/>
    <nd ref="354075563"/>
    <tag k="fixme" v="name"/>
    <tag k="highway" v="residential"/>
  </way>
  <way id="31652851" version="6" timestamp="2012-07-19T16:59:33Z" uid="722137" user="OSMF Redaction Account" changeset="12341011">
    <nd ref="354075722"/>
    <nd ref="60311342"/>
    <nd ref="354075767"/>
    <nd ref="354075756"/>
    <nd ref="354075750"/>
    <nd ref="354075577"/>
    <tag k="highway" v="residential"/>
    <tag k="name" v="Richmond Crcs"/>
  </way>
  <way id="31652853" version="7" timestamp="2012-07-19T17:00:58Z" uid="722137" user="OSMF Redaction Account" changeset="12341071"/>
  <way id="31652858" version="7" timestamp="2012-07-19T16:59:33Z" uid="722137" user="OSMF Redaction Account" changeset="12341011">
    <nd ref="354075577"/>
    <nd ref="354075771"/>
    <nd ref="354075776"/>
    <nd ref="354075787"/>
    <nd ref="354075734"/>
    <nd ref="60311340"/>
    <nd ref="710565219"/>
    <tag k="highway" v="residential"/>
    <tag k="name" v="Richmond Crcs"/>
  </way>
  <way id="31652861" version="8" timestamp="2012-07-19T16:58:37Z" uid="722137" user="OSMF Redaction Account" changeset="12341011">
    <nd ref="354075722"/>
    <nd ref="25647275"/>
    <nd ref="710565241"/>
    <tag k="highway" v="residential"/>
    <tag k="name" v="May Street"/>
  </way>
  <way id="31652864" version="6" timestamp="2012-07-19T16:58:31Z" uid="722137" user="OSMF Redaction Account" changeset="12341011">
    <nd ref="354075808"/>
    <nd ref="25647278"/>
    <tag k="highway" v="residential"/>
    <tag k="name" v="May Street"/>
  </way>
  <way id="31652872" version="7" timestamp="2012-07-24T18:34:37Z" uid="142807" user="SDavies" changeset="12473391">
    <nd ref="1836844404"/>
    <nd ref="354075895"/>
    <nd ref="354075886"/>
    <nd ref="68431479"/>
    <nd ref="60311324"/>
    <nd ref="60311326"/>
    <tag k="highway" v="residential"/>
    <tag k="name" v="Sewell Street"/>
  </way>
  <way id="31652874" version="7" timestamp="2012-07-20T06:06:46Z" uid="189263" user="wildmyron" changeset="12362494">
    <nd ref="301316039"/>
    <nd ref="1831715070"/>
    <nd ref="301316052"/>
    <nd ref="301316053"/>
    <nd ref="646674143"/>
    <nd ref="301317814"/>
    <nd ref="300781572"/>
    <nd ref="301317809"/>
    <nd ref="710618152"/>
    <nd ref="335129813"/>
    <nd ref="300785002"/>
    <nd ref="710618135"/>
    <nd ref="301315859"/>
    <tag k="highway" v="residential"/>
    <tag k="name" v="Amherst Street"/>
  </way>
  <way id="31652885" version="8" timestamp="2012-07-19T16:59:35Z" uid="722137" user="OSMF Redaction Account" changeset="12341011">
    <nd ref="354076564"/>
    <nd ref="354076535"/>
    <nd ref="620392688"/>
    <nd ref="354076527"/>
    <nd ref="354076516"/>
    <nd ref="354076021"/>
    <nd ref="354076595"/>
    <tag k="highway" v="residential"/>
    <tag k="name" v="Tuckfield Street"/>
  </way>
  <way id="31652890" version="8" timestamp="2012-07-19T16:58:36Z" uid="722137" user="OSMF Redaction Account" changeset="12341011">
    <nd ref="354076084"/>
    <nd ref="52173387"/>
    <nd ref="354076135"/>
    <nd ref="354076034"/>
    <nd ref="354076097"/>
    <nd ref="354076108"/>
    <nd ref="354076113"/>
    <nd ref="354076122"/>
    <tag k="highway" v="residential"/>
    <tag k="name" v="Burt Street"/>
  </way>
  <way id="31652890" version="9" timestamp="2012-08-16T11:59:36Z" uid="57380" user="JennyH" changeset="12749793">
    <nd ref="1868582462"/>
    <nd ref="354076084"/>
    <nd ref="1868582484"/>
    <nd ref="52173387"/>
    <nd ref="354076135"/>
    <nd ref="354076034"/>
    <nd ref="354076097"/>
    <nd ref="354076108"/>
    <nd ref="354076113"/>
    <nd ref="354076122"/>
    <tag k="highway" v="residential"/>
    <tag k="name" v="Burt Street"/>
  </way>
  <way id="31652890" version="10" timestamp="2012-09-06T17:44:30Z" uid="418724" user="wintersportler" changeset="13012963">
    <nd ref="1868582462"/>
    <nd ref="1868582484"/>
    <nd ref="52173387"/>
    <nd ref="354076135"/>
    <nd ref="354076034"/>
    <nd ref="354076097"/>
    <nd ref="354076108"/>
    <nd ref="354076113"/>
    <nd ref="354076122"/>
    <tag k="highway" v="residential"/>
    <tag k="name" v="Burt Street"/>
  </way>
  <way id="31652892" version="7" timestamp="2012-09-06T17:44:39Z" uid="418724" user="wintersportler" changeset="13012963">
    <nd ref="354076127"/>
    <nd ref="1902715225"/>
    <nd ref="1902715224"/>
    <nd ref="620393903"/>
    <tag k="highway" v="residential"/>
    <tag k="name" v="Tuckfield Street"/>
  </way>
  <way id="31652905" version="7" timestamp="2012-07-19T16:59:35Z" uid="722137" user="OSMF Redaction Account" changeset="12341011">
    <nd ref="354076595"/>
    <nd ref="354076613"/>
    <nd ref="620384572"/>
    <nd ref="354076626"/>
    <nd ref="354076639"/>
    <tag k="highway" v="residential"/>
    <tag k="name" v="Tuckfield Street"/>
  </way>
  <way id="31652908" version="9" timestamp="2012-07-19T17:01:00Z" uid="722137" user="OSMF Redaction Account" changeset="12341081"/>
  <way id="31652961" version="9" timestamp="2012-07-19T16:59:33Z" uid="722137" user="OSMF Redaction Account" changeset="12341011">
    <nd ref="354078116"/>
    <nd ref="627517518"/>
    <tag k="highway" v="trunk"/>
  </way>
  <way id="31652961" version="10" timestamp="2012-08-16T11:59:36Z" uid="57380" user="JennyH" changeset="12749793">
    <nd ref="354078116"/>
    <nd ref="1868582479"/>
    <nd ref="627517518"/>
    <tag k="highway" v="trunk"/>
  </way>
  <way id="31652961" version="11" timestamp="2012-08-23T00:35:39Z" uid="418724" user="wintersportler" changeset="12827412">
    <nd ref="354078116"/>
    <nd ref="1868582479"/>
    <nd ref="627517518"/>
    <tag k="fixme" v="name"/>
    <tag k="highway" v="trunk"/>
  </way>
  <way id="31652961" version="12" timestamp="2012-09-06T17:44:41Z" uid="418724" user="wintersportler" changeset="13012963">
    <nd ref="354078116"/>
    <nd ref="1868582479"/>
    <nd ref="627517518"/>
    <tag k="fixme" v="name"/>
    <tag k="highway" v="trunk"/>
    <tag k="oneway" v="yes"/>
  </way>
  <way id="31652962" version="9" timestamp="2012-07-19T16:59:35Z" uid="722137" user="OSMF Redaction Account" changeset="12341011">
    <nd ref="354078156"/>
    <nd ref="627517791"/>
    <nd ref="354078145"/>
    <nd ref="354078137"/>
    <nd ref="354078123"/>
    <tag k="highway" v="trunk"/>
  </way>
  <way id="31652962" version="10" timestamp="2012-08-16T11:59:36Z" uid="57380" user="JennyH" changeset="12749793">
    <nd ref="354078156"/>
    <nd ref="627517791"/>
    <nd ref="354078145"/>
    <nd ref="354078137"/>
    <nd ref="1868582465"/>
    <nd ref="354078123"/>
    <tag k="highway" v="trunk"/>
  </way>
  <way id="31652962" version="11" timestamp="2012-08-23T00:40:44Z" uid="418724" user="wintersportler" changeset="12827412">
    <nd ref="354078156"/>
    <nd ref="627517791"/>
    <nd ref="354078145"/>
    <nd ref="354078137"/>
    <nd ref="1868582465"/>
    <nd ref="354078123"/>
    <tag k="fixme" v="name"/>
    <tag k="highway" v="trunk"/>
  </way>
  <way id="31652962" version="12" timestamp="2012-09-06T17:44:42Z" uid="418724" user="wintersportler" changeset="13012963">
    <nd ref="354078156"/>
    <nd ref="627517791"/>
    <nd ref="354078145"/>
    <nd ref="354078137"/>
    <nd ref="1868582465"/>
    <nd ref="354078123"/>
    <tag k="fixme" v="name"/>
    <tag k="highway" v="trunk"/>
    <tag k="oneway" v="yes"/>
  </way>
</osm>
