<?xml version='1.0' encoding='UTF-8'?>
<osm version="0.6" generator="libosmium/2.20.0">
  <way id="3168507" version="1" timestamp="2007-09-15T13:05:29Z" uid="7617" user="Franc" changeset="437118">
    <nd ref="15158952"/>
    <nd ref="15157049"/>
    <nd ref="15157045"/>
    <nd ref="15157043"/>
    <nd ref="18462867"/>
    <nd ref="15157035"/>
    <nd ref="15157034"/>
    <nd ref="15157030"/>
    <nd ref="15157018"/>
    <tag k="abutters" v="mixed"/>
    <tag k="created_by" v="JOSM"/>
    <tag k="highway" v="unclassified"/>
    <tag k="name" v="Abercrombie Street"/>
  </way>
  <way id="3168507" version="2" timestamp="2008-02-29T11:59:46Z" uid="7617" user="Franc" changeset="231874">
    <nd ref="52051659"/>
    <nd ref="15158952"/>
    <nd ref="15157049"/>
    <nd ref="15157045"/>
    <nd ref="15157043"/>
    <tag k="abutters" v="mixed"/>
    <tag k="created_by" v="JOSM"/>
    <tag k="highway" v="tertiary"/>
    <tag k="name" v="Abercrombie Street"/>
  </way>
  <way id="3168507" version="3" timestamp="2008-05-20T03:08:45Z" uid="38571" user="Spirou" changeset="483865">
    <nd ref="52051631"/>
    <nd ref="15158952"/>
    <nd ref="15157049"/>
    <nd ref="15157045"/>
    <nd ref="15157043"/>
    <tag k="abutters" v="mixed"/>
    <tag k="created_by" v="JOSM"/>
    <tag k="highway" v="tertiary"/>
    <tag k="name" v="Abercrombie Street"/>
  </way>
  <way id="3168507" version="4" timestamp="2009-01-31T03:01:28Z" uid="7617" user="Franc" changeset="857276">
    <nd ref="52051631"/>
    <nd ref="339267703"/>
    <nd ref="15158952"/>
    <nd ref="15157049"/>
    <nd ref="15157045"/>
    <nd ref="15157043"/>
    <tag k="abutters" v="mixed"/>
    <tag k="created_by" v="JOSM"/>
    <tag k="highway" v="tertiary"/>
    <tag k="name" v="Abercrombie Street"/>
  </way>
  <way id="3168507" version="5" timestamp="2009-06-19T16:57:27Z" uid="47419" user="ploppy" changeset="1566799">
    <nd ref="52051631"/>
    <nd ref="339267703"/>
    <nd ref="15158952"/>
    <nd ref="15157049"/>
    <nd ref="15157045"/>
    <tag k="abutters" v="mixed"/>
    <tag k="created_by" v="JOSM"/>
    <tag k="highway" v="tertiary"/>
    <tag k="name" v="Abercrombie Street"/>
  </way>
  <way id="3168507" version="6" timestamp="2009-08-13T21:30:19Z" uid="104101" user="swanilli" changeset="2137086">
    <nd ref="52051631"/>
    <nd ref="339267703"/>
    <nd ref="464776469"/>
    <nd ref="15158952"/>
    <nd ref="15157049"/>
    <nd ref="15157045"/>
    <tag k="abutters" v="mixed"/>
    <tag k="highway" v="tertiary"/>
    <tag k="name" v="Abercrombie Street"/>
  </way>
  <way id="3168507" version="7" timestamp="2009-11-14T12:06:12Z" uid="117890" user="Jonathan Trott" changeset="3112508">
    <nd ref="52051631"/>
    <nd ref="339267703"/>
    <nd ref="464776469"/>
    <nd ref="15158952"/>
    <nd ref="15157049"/>
    <nd ref="15157045"/>
    <tag k="abutters" v="mixed"/>
    <tag k="highway" v="tertiary"/>
    <tag k="name" v="Abercrombie Street"/>
  </way>
  <way id="3168507" version="8" timestamp="2009-12-24T10:27:44Z" uid="30201" user="rrankin" changeset="3440994">
    <nd ref="52051631"/>
    <nd ref="339267703"/>
    <nd ref="464776469"/>
    <nd ref="15158952"/>
    <nd ref="15157049"/>
    <nd ref="15157045"/>
    <tag k="highway" v="tertiary"/>
    <tag k="name" v="Abercrombie Street"/>
  </way>
  <way id="3168507" version="9" timestamp="2009-12-25T01:01:17Z" uid="30201" user="rrankin" changeset="3445791"/>
  <way id="3168690" version="2" timestamp="2007-10-16T08:52:27Z" uid="7617" user="Franc" changeset="200414">
    <nd ref="15157045"/>
    <nd ref="15157050"/>
    <tag k="abutters" v="residential"/>
    <tag k="created_by" v="JOSM"/>
    <tag k="highway" v="residential"/>
    <tag k="name" v="Ivy Street"/>
    <tag k="oneway" v="yes"/>
  </way>
  <way id="3168690" version="3" timestamp="2009-11-14T12:08:21Z" uid="117890" user="Jonathan Trott" changeset="3112508">
    <nd ref="15157045"/>
    <nd ref="15157050"/>
    <tag k="abutters" v="residential"/>
    <tag k="highway" v="residential"/>
    <tag k="name" v="Ivy Street"/>
    <tag k="oneway" v="yes"/>
  </way>
  <way id="3168690" version="4" timestamp="2009-12-24T10:27:50Z" uid="30201" user="rrankin" changeset="3440994">
    <nd ref="15157045"/>
    <nd ref="15157050"/>
    <tag k="highway" v="residential"/>
    <tag k="name" v="Ivy Street"/>
    <tag k="oneway" v="yes"/>
  </way>
  <way id="3168690" version="5" timestamp="2010-07-07T22:10:11Z" uid="74617" user="JohnSmith" changeset="5161069">
    <nd ref="15157045"/>
    <nd ref="15157050"/>
    <tag k="highway" v="residential"/>
    <tag k="maxspeed" v="50"/>
    <tag k="maxspeed:source" v="default residential speed limit in Australia"/>
    <tag k="name" v="Ivy Street"/>
    <tag k="oneway" v="yes"/>
  </way>
  <way id="3168690" version="6" timestamp="2012-01-08T02:31:38Z" uid="147510" user="woodpeck_fixbot" changeset="10327743">
    <nd ref="15157045"/>
    <nd ref="15157050"/>
    <tag k="highway" v="residential"/>
    <tag k="name" v="Ivy Street"/>
    <tag k="oneway" v="yes"/>
  </way>
  <way id="3168690" version="7" timestamp="2012-02-24T03:48:47Z" uid="7523" user="inas" changeset="10774611">
    <nd ref="15157045"/>
    <nd ref="1645166679"/>
    <tag k="highway" v="residential"/>
    <tag k="name" v="Ivy Street"/>
    <tag k="oneway" v="yes"/>
    <tag k="source:name" v="sign (southern end)"/>
    <tag k="source_ref:name" v="http://www.panoramio.com/photo/67349621"/>
  </way>
  <way id="3168691" version="2" timestamp="2008-03-21T04:23:36Z" uid="7617" user="Franc" changeset="361294">
    <nd ref="15157050"/>
    <nd ref="15157054"/>
    <tag k="bicycle" v="yes"/>
    <tag k="car" v="no"/>
    <tag k="created_by" v="JOSM"/>
    <tag k="foot" v="yes"/>
    <tag k="highway" v="pedestrian"/>
  </way>
  <way id="3168691" version="3" timestamp="2008-11-22T01:05:34Z" uid="20949" user="Ebenezer" changeset="779243">
    <nd ref="15157050"/>
    <nd ref="15157054"/>
    <tag k="bicycle" v="yes"/>
    <tag k="car" v="no"/>
    <tag k="created_by" v="Potlatch 0.10f"/>
    <tag k="foot" v="yes"/>
    <tag k="highway" v="footway"/>
    <tag k="lcn" v="yes"/>
  </way>
  <way id="3168691" version="4" timestamp="2009-09-22T01:36:53Z" uid="4467" user="Rosscoe" changeset="2563938">
    <nd ref="15157050"/>
    <nd ref="15157054"/>
    <tag k="bicycle" v="yes"/>
    <tag k="foot" v="yes"/>
    <tag k="highway" v="footway"/>
    <tag k="lcn" v="yes"/>
    <tag k="motorcar" v="no"/>
  </way>
  <way id="3168691" version="5" timestamp="2009-11-14T12:08:21Z" uid="117890" user="Jonathan Trott" changeset="3112508">
    <nd ref="15157050"/>
    <nd ref="15157054"/>
    <tag k="bicycle" v="yes"/>
    <tag k="foot" v="yes"/>
    <tag k="highway" v="footway"/>
    <tag k="lcn" v="yes"/>
    <tag k="motorcar" v="no"/>
  </way>
  <way id="3168691" version="6" timestamp="2009-12-25T01:01:14Z" uid="30201" user="rrankin" changeset="3445791">
    <nd ref="415550626"/>
    <nd ref="15157054"/>
    <nd ref="15157050"/>
    <tag k="bicycle" v="yes"/>
    <tag k="foot" v="yes"/>
    <tag k="highway" v="cycleway"/>
    <tag k="lcn" v="yes"/>
    <tag k="motorcar" v="no"/>
    <tag k="name" v="Little Everleigh Street"/>
  </way>
  <way id="3168691" version="7" timestamp="2010-07-24T01:42:50Z" uid="318819" user="ZaliBeagle" changeset="5300244">
    <nd ref="415550626"/>
    <nd ref="15157054"/>
    <nd ref="15157050"/>
    <tag k="bicycle" v="yes"/>
    <tag k="foot" v="yes"/>
    <tag k="highway" v="cycleway"/>
    <tag k="lcn" v="yes"/>
    <tag k="motorcar" v="no"/>
  </way>
  <way id="3168691" version="8" timestamp="2011-04-09T02:30:52Z" uid="7617" user="Franc" changeset="7809509">
    <nd ref="415550626"/>
    <nd ref="1237992959"/>
    <nd ref="15157054"/>
    <nd ref="15157050"/>
    <tag k="bicycle" v="yes"/>
    <tag k="foot" v="yes"/>
    <tag k="highway" v="cycleway"/>
    <tag k="lcn" v="yes"/>
    <tag k="motorcar" v="no"/>
  </way>
  <way id="3168691" version="9" timestamp="2012-02-23T00:04:06Z" uid="7523" user="inas" changeset="10764611"/>
  <way id="3168692" version="3" timestamp="2009-12-24T10:27:50Z" uid="30201" user="rrankin" changeset="3440994">
    <nd ref="18464112"/>
    <nd ref="18464109"/>
    <nd ref="15158966"/>
    <nd ref="18464078"/>
    <nd ref="15157045"/>
    <tag k="highway" v="residential"/>
    <tag k="name" v="Ivy Street"/>
  </way>
  <way id="3168692" version="4" timestamp="2010-06-24T10:32:05Z" uid="7617" user="Franc" changeset="5065038">
    <nd ref="18464112"/>
    <nd ref="786898332"/>
    <nd ref="786898334"/>
    <nd ref="18464109"/>
    <nd ref="15158966"/>
    <nd ref="18464078"/>
    <nd ref="15157045"/>
    <tag k="highway" v="residential"/>
    <tag k="name" v="Ivy Street"/>
  </way>
  <way id="3168692" version="5" timestamp="2010-07-07T22:11:13Z" uid="74617" user="JohnSmith" changeset="5161069">
    <nd ref="18464112"/>
    <nd ref="786898332"/>
    <nd ref="786898334"/>
    <nd ref="18464109"/>
    <nd ref="15158966"/>
    <nd ref="18464078"/>
    <nd ref="15157045"/>
    <tag k="highway" v="residential"/>
    <tag k="maxspeed" v="50"/>
    <tag k="maxspeed:source" v="default residential speed limit in Australia"/>
    <tag k="name" v="Ivy Street"/>
  </way>
  <way id="3168692" version="6" timestamp="2010-10-23T02:44:18Z" uid="7617" user="Franc" changeset="6141823">
    <nd ref="18464112"/>
    <nd ref="786898332"/>
    <nd ref="18464109"/>
    <nd ref="15158966"/>
    <nd ref="18464078"/>
    <nd ref="15157045"/>
    <tag k="highway" v="residential"/>
    <tag k="maxspeed" v="50"/>
    <tag k="maxspeed:source" v="default residential speed limit in Australia"/>
    <tag k="name" v="Ivy Street"/>
  </way>
  <way id="3168692" version="7" timestamp="2011-04-09T02:30:51Z" uid="7617" user="Franc" changeset="7809509">
    <nd ref="18464112"/>
    <nd ref="786898332"/>
    <nd ref="1237992961"/>
    <nd ref="18464109"/>
    <nd ref="15158966"/>
    <nd ref="18464078"/>
    <nd ref="15157045"/>
    <tag k="highway" v="residential"/>
    <tag k="maxspeed" v="50"/>
    <tag k="maxspeed:source" v="default residential speed limit in Australia"/>
    <tag k="name" v="Ivy Street"/>
  </way>
  <way id="3168692" version="8" timestamp="2012-01-08T02:31:40Z" uid="147510" user="woodpeck_fixbot" changeset="10327743">
    <nd ref="18464112"/>
    <nd ref="786898332"/>
    <nd ref="1237992961"/>
    <nd ref="18464109"/>
    <nd ref="15158966"/>
    <nd ref="18464078"/>
    <nd ref="15157045"/>
    <tag k="highway" v="residential"/>
    <tag k="name" v="Ivy Street"/>
  </way>
  <way id="3168693" version="2" timestamp="2007-10-16T09:02:14Z" uid="7617" user="Franc" changeset="200414">
    <nd ref="15158945"/>
    <nd ref="18463487"/>
    <nd ref="15158952"/>
    <tag k="abutters" v="residential"/>
    <tag k="created_by" v="JOSM"/>
    <tag k="highway" v="residential"/>
    <tag k="name" v="Shepard Street"/>
  </way>
  <way id="3168693" version="3" timestamp="2008-02-06T04:22:13Z" uid="7617" user="Franc" changeset="52343">
    <nd ref="15158945"/>
    <nd ref="18463487"/>
    <nd ref="15158952"/>
    <tag k="abutters" v="residential"/>
    <tag k="created_by" v="JOSM"/>
    <tag k="highway" v="residential"/>
    <tag k="name" v="Sheperd Street"/>
  </way>
  <way id="3168693" version="4" timestamp="2008-02-06T04:22:44Z" uid="7617" user="Franc" changeset="52343">
    <nd ref="15158945"/>
    <nd ref="18463487"/>
    <nd ref="15158952"/>
    <tag k="abutters" v="residential"/>
    <tag k="created_by" v="JOSM"/>
    <tag k="highway" v="residential"/>
    <tag k="name" v="Shepherd Street"/>
  </way>
  <way id="3168693" version="5" timestamp="2008-05-20T03:08:47Z" uid="38571" user="Spirou" changeset="483865">
    <nd ref="15158943"/>
    <nd ref="18463487"/>
    <nd ref="15158952"/>
    <tag k="abutters" v="residential"/>
    <tag k="created_by" v="JOSM"/>
    <tag k="highway" v="residential"/>
    <tag k="name" v="Shepherd Street"/>
  </way>
  <way id="3168693" version="6" timestamp="2008-11-22T01:05:45Z" uid="20949" user="Ebenezer" changeset="779243">
    <nd ref="15158943"/>
    <nd ref="18463487"/>
    <nd ref="15158952"/>
    <tag k="abutters" v="residential"/>
    <tag k="created_by" v="Potlatch 0.10f"/>
    <tag k="highway" v="residential"/>
    <tag k="lcn" v="yes"/>
    <tag k="name" v="Shepherd Street"/>
  </way>
  <way id="3168693" version="7" timestamp="2009-11-14T12:08:21Z" uid="117890" user="Jonathan Trott" changeset="3112508">
    <nd ref="15158943"/>
    <nd ref="18463487"/>
    <nd ref="15158952"/>
    <tag k="abutters" v="residential"/>
    <tag k="highway" v="residential"/>
    <tag k="lcn" v="yes"/>
    <tag k="name" v="Shepherd Street"/>
  </way>
  <way id="3168693" version="8" timestamp="2009-12-24T10:27:50Z" uid="30201" user="rrankin" changeset="3440994">
    <nd ref="15158943"/>
    <nd ref="18463487"/>
    <nd ref="15158952"/>
    <tag k="highway" v="residential"/>
    <tag k="lcn" v="yes"/>
    <tag k="name" v="Shepherd Street"/>
  </way>
  <way id="3168693" version="9" timestamp="2010-01-18T11:36:48Z" uid="7617" user="Franc" changeset="3649518">
    <nd ref="616151300"/>
    <nd ref="18463487"/>
    <nd ref="15158952"/>
    <tag k="highway" v="residential"/>
    <tag k="lcn" v="yes"/>
    <tag k="name" v="Shepherd Street"/>
  </way>
  <way id="3168693" version="10" timestamp="2010-07-07T22:10:17Z" uid="74617" user="JohnSmith" changeset="5161069">
    <nd ref="616151300"/>
    <nd ref="18463487"/>
    <nd ref="15158952"/>
    <tag k="highway" v="residential"/>
    <tag k="lcn" v="yes"/>
    <tag k="maxspeed" v="50"/>
    <tag k="maxspeed:source" v="default residential speed limit in Australia"/>
    <tag k="name" v="Shepherd Street"/>
  </way>
  <way id="3168693" version="11" timestamp="2012-01-08T02:31:41Z" uid="147510" user="woodpeck_fixbot" changeset="10327743">
    <nd ref="616151300"/>
    <nd ref="18463487"/>
    <nd ref="15158952"/>
    <tag k="highway" v="residential"/>
    <tag k="lcn" v="yes"/>
    <tag k="name" v="Shepherd Street"/>
  </way>
  <way id="3168693" version="12" timestamp="2012-01-12T22:39:16Z" uid="7523" user="inas" changeset="10374433">
    <nd ref="616151300"/>
    <nd ref="18463487"/>
    <nd ref="15158952"/>
    <nd ref="18464079"/>
    <nd ref="1319621116"/>
    <nd ref="249454647"/>
    <nd ref="18464318"/>
    <nd ref="469089295"/>
    <nd ref="18464091"/>
    <nd ref="890193110"/>
    <nd ref="18464082"/>
    <nd ref="18464112"/>
    <nd ref="961054443"/>
    <nd ref="890193120"/>
    <nd ref="18464092"/>
    <nd ref="17850378"/>
    <tag k="highway" v="residential"/>
    <tag k="lcn" v="yes"/>
    <tag k="name" v="Shepherd Street"/>
  </way>
  <way id="3168693" version="13" timestamp="2012-01-22T22:58:43Z" uid="7523" user="inas" changeset="10470999">
    <nd ref="1601786954"/>
    <nd ref="18463487"/>
    <nd ref="15158952"/>
    <nd ref="18464079"/>
    <nd ref="1319621116"/>
    <nd ref="249454647"/>
    <nd ref="18464318"/>
    <nd ref="469089295"/>
    <nd ref="18464091"/>
    <nd ref="890193110"/>
    <nd ref="18464082"/>
    <nd ref="18464112"/>
    <nd ref="961054443"/>
    <nd ref="890193120"/>
    <nd ref="18464092"/>
    <nd ref="17850378"/>
    <tag k="highway" v="residential"/>
    <tag k="lcn" v="yes"/>
    <tag k="maxspeed" v="50"/>
    <tag k="name" v="Shepherd Street"/>
    <tag k="source:maxspeed" v="survey"/>
  </way>
  <way id="3168693" version="14" timestamp="2012-02-23T00:14:26Z" uid="7523" user="inas" changeset="10764650">
    <nd ref="1601786954"/>
    <nd ref="18463487"/>
    <nd ref="15158952"/>
    <nd ref="18464079"/>
    <nd ref="1319621116"/>
    <nd ref="249454647"/>
    <nd ref="18464318"/>
    <nd ref="469089295"/>
    <nd ref="18464091"/>
    <nd ref="18464082"/>
    <nd ref="18464112"/>
    <nd ref="961054443"/>
    <nd ref="18464092"/>
    <nd ref="17850378"/>
    <tag k="highway" v="residential"/>
    <tag k="lcn" v="yes"/>
    <tag k="maxspeed" v="50"/>
    <tag k="name" v="Shepherd Street"/>
    <tag k="source:maxspeed" v="survey"/>
  </way>
  <way id="3168695" version="1" timestamp="2007-09-15T12:54:47Z" uid="7617" user="Franc" changeset="437118">
    <nd ref="15158979"/>
    <nd ref="15158987"/>
    <nd ref="15158975"/>
    <nd ref="15158983"/>
    <nd ref="15158979"/>
    <nd ref="15158943"/>
    <tag k="created_by" v="JOSM"/>
    <tag k="highway" v="residential"/>
  </way>
  <way id="3168695" version="2" timestamp="2008-03-21T04:23:36Z" uid="7617" user="Franc" changeset="361294">
    <nd ref="15158979"/>
    <nd ref="15158987"/>
    <nd ref="15158975"/>
    <nd ref="15158983"/>
    <nd ref="15158979"/>
    <tag k="created_by" v="JOSM"/>
    <tag k="highway" v="residential"/>
    <tag k="junction" v="roundabout"/>
  </way>
  <way id="3168695" version="3" timestamp="2008-05-20T03:08:48Z" uid="38571" user="Spirou" changeset="483865"/>
  <way id="3168697" version="3" timestamp="2008-03-09T23:47:50Z" uid="7617" user="Franc" changeset="297420">
    <nd ref="15159001"/>
    <nd ref="15159000"/>
    <nd ref="15158996"/>
    <nd ref="15158998"/>
    <nd ref="15159001"/>
    <tag k="highway" v="tertiary"/>
    <tag k="junction" v="roundabout"/>
  </way>
  <way id="3168697" version="4" timestamp="2008-05-17T11:36:47Z" uid="20949" user="Ebenezer" changeset="466149">
    <nd ref="15159001"/>
    <nd ref="15159000"/>
    <nd ref="15158996"/>
    <nd ref="15158998"/>
    <nd ref="15159001"/>
    <tag k="created_by" v="Potlatch 0.9a"/>
    <tag k="highway" v="tertiary"/>
    <tag k="junction" v="roundabout"/>
    <tag k="lcn" v="yes"/>
  </way>
  <way id="3168697" version="5" timestamp="2008-05-20T03:08:49Z" uid="38571" user="Spirou" changeset="483865"/>
  <way id="3168698" version="2" timestamp="2008-04-10T11:45:37Z" uid="30201" user="rrankin" changeset="106371">
    <nd ref="15159006"/>
    <nd ref="14750533"/>
    <tag k="created_by" v="Potlatch 0.8a"/>
    <tag k="highway" v="primary"/>
    <tag k="name" v="Wilson Street"/>
  </way>
  <way id="3168698" version="3" timestamp="2009-11-14T12:06:39Z" uid="117890" user="Jonathan Trott" changeset="3112508">
    <nd ref="15159006"/>
    <nd ref="14750533"/>
    <tag k="highway" v="primary"/>
    <tag k="name" v="Wilson Street"/>
  </way>
  <way id="3168698" version="4" timestamp="2009-11-25T12:41:08Z" uid="7617" user="Franc" changeset="3211848">
    <nd ref="15159006"/>
    <nd ref="570757502"/>
    <nd ref="570757505"/>
    <nd ref="14750533"/>
    <tag k="highway" v="primary"/>
    <tag k="name" v="Wilson Street"/>
  </way>
  <way id="3168698" version="5" timestamp="2010-02-08T11:57:17Z" uid="7617" user="Franc" changeset="3822585">
    <nd ref="15159006"/>
    <nd ref="633202043"/>
    <nd ref="570757502"/>
    <nd ref="570757505"/>
    <nd ref="14750533"/>
    <tag k="highway" v="primary"/>
    <tag k="name" v="Wilson Street"/>
  </way>
  <way id="3168690" version="8" timestamp="2012-07-20T00:58:52Z" uid="722137" user="OSMF Redaction Account" changeset="12353764">
    <nd ref="15157045"/>
    <nd ref="1645166679"/>
    <tag k="highway" v="residential"/>
    <tag k="name" v="Ivy Street"/>
    <tag k="source:name" v="sign (southern end)"/>
    <tag k="source_ref:name" v="http://www.panoramio.com/photo/67349621"/>
  </way>
  <way id="3168690" version="9" timestamp="2012-07-31T22:02:38Z" uid="717576" user="samuelrussell" changeset="12567883">
    <nd ref="15157045"/>
    <nd ref="1645166679"/>
    <tag k="highway" v="residential"/>
    <tag k="name" v="Ivy Street"/>
    <tag k="oneway" v="yes"/>
    <tag k="source:name" v="sign (southern end)"/>
    <tag k="source_ref:name" v="http://www.panoramio.com/photo/67349621"/>
  </way>
  <way id="3168692" version="9" timestamp="2012-07-20T00:55:04Z" uid="722137" user="OSMF Redaction Account" changeset="12353530">
    <nd ref="18464112"/>
    <nd ref="18464109"/>
    <nd ref="15158966"/>
    <nd ref="18464078"/>
    <nd ref="15157045"/>
    <tag k="highway" v="residential"/>
    <tag k="name" v="Ivy Street"/>
  </way>
  <way id="3168692" version="10" timestamp="2012-07-30T08:19:13Z" uid="717576" user="samuelrussell" changeset="12544584">
    <nd ref="18464112"/>
    <nd ref="1843600749"/>
    <nd ref="18464109"/>
    <nd ref="15158966"/>
    <nd ref="18464078"/>
    <nd ref="15157045"/>
    <tag k="highway" v="residential"/>
    <tag k="name" v="Ivy Street"/>
  </way>
  <way id="3168692" version="11" timestamp="2012-07-31T16:59:56Z" uid="510836" user="Rub21" changeset="12563984">
    <nd ref="18464112"/>
    <nd ref="1843600749"/>
    <nd ref="18464109"/>
    <nd ref="1845672222"/>
    <nd ref="15158966"/>
    <nd ref="18464078"/>
    <nd ref="15157045"/>
    <tag k="highway" v="residential"/>
    <tag k="name" v="Ivy Street"/>
  </way>
  <way id="3168692" version="12" timestamp="2012-07-31T22:02:39Z" uid="717576" user="samuelrussell" changeset="12567883">
    <nd ref="18464112"/>
    <nd ref="1843600749"/>
    <nd ref="18464109"/>
    <nd ref="1846203936"/>
    <nd ref="1845672222"/>
    <nd ref="15158966"/>
    <nd ref="1846203891"/>
    <nd ref="18464078"/>
    <nd ref="15157045"/>
    <tag k="highway" v="residential"/>
    <tag k="name" v="Ivy Street"/>
  </way>
  <way id="3168693" version="15" timestamp="2012-07-20T00:55:03Z" uid="722137" user="OSMF Redaction Account" changeset="12353530">
    <nd ref="1601786954"/>
    <nd ref="18463487"/>
    <nd ref="15158952"/>
    <nd ref="1319621116"/>
    <nd ref="18464091"/>
    <nd ref="18464082"/>
    <nd ref="18464112"/>
    <nd ref="18464092"/>
    <nd ref="17850378"/>
    <tag k="highway" v="residential"/>
    <tag k="lcn" v="yes"/>
    <tag k="name" v="Codrington Street"/>
    <tag k="source:maxspeed" v="survey"/>
  </way>
  <way id="3168693" version="16" timestamp="2012-07-31T16:59:54Z" uid="510836" user="Rub21" changeset="12563984">
    <nd ref="1601786954"/>
    <nd ref="18463487"/>
    <nd ref="15158952"/>
    <nd ref="1845672249"/>
    <nd ref="1319621116"/>
    <nd ref="1845672240"/>
    <nd ref="18464091"/>
    <nd ref="18464082"/>
    <nd ref="18464112"/>
    <nd ref="18464092"/>
    <nd ref="17850378"/>
    <tag k="highway" v="residential"/>
    <tag k="lcn" v="yes"/>
    <tag k="name" v="Codrington Street"/>
    <tag k="source:maxspeed" v="survey"/>
  </way>
  <way id="3168693" version="17" timestamp="2012-07-31T22:02:38Z" uid="717576" user="samuelrussell" changeset="12567883">
    <nd ref="1601786954"/>
    <nd ref="18463487"/>
    <nd ref="15158952"/>
    <nd ref="1845672249"/>
    <nd ref="1319621116"/>
    <nd ref="1846203930"/>
    <nd ref="1845672240"/>
    <nd ref="1846203883"/>
    <nd ref="18464091"/>
    <nd ref="18464082"/>
    <nd ref="18464112"/>
    <nd ref="18464092"/>
    <nd ref="17850378"/>
    <tag k="highway" v="residential"/>
    <tag k="lcn" v="yes"/>
    <tag k="name" v="Codrington Street"/>
    <tag k="source:maxspeed" v="survey"/>
  </way>
  <way id="3168693" version="18" timestamp="2012-08-10T07:06:08Z" uid="308" user="MichaelCollinson" changeset="12676157">
    <nd ref="1601786954"/>
    <nd ref="18463487"/>
    <nd ref="15158952"/>
    <nd ref="1859782318"/>
    <nd ref="1845672249"/>
    <nd ref="1319621116"/>
    <nd ref="1846203930"/>
    <nd ref="1845672240"/>
    <nd ref="1846203883"/>
    <nd ref="18464091"/>
    <nd ref="18464082"/>
    <nd ref="18464112"/>
    <nd ref="18464092"/>
    <nd ref="17850378"/>
    <tag k="highway" v="residential"/>
    <tag k="lcn" v="yes"/>
    <tag k="name" v="Codrington Street"/>
    <tag k="source:maxspeed" v="survey"/>
  </way>
  <way id="3168693" version="19" timestamp="2012-08-10T20:31:26Z" uid="717576" user="samuelrussell" changeset="12684577">
    <nd ref="1601786954"/>
    <nd ref="18463487"/>
    <nd ref="15158952"/>
    <nd ref="1859782318"/>
    <nd ref="1845672249"/>
    <nd ref="1319621116"/>
    <nd ref="1846203930"/>
    <nd ref="1845672240"/>
    <nd ref="1846203883"/>
    <nd ref="18464091"/>
    <nd ref="18464082"/>
    <nd ref="18464112"/>
    <nd ref="1860729281"/>
    <nd ref="18464092"/>
    <nd ref="17850378"/>
    <tag k="highway" v="residential"/>
    <tag k="lcn" v="yes"/>
    <tag k="name" v="Codrington Street"/>
    <tag k="source:maxspeed" v="survey"/>
  </way>
  <way id="3168693" version="20" timestamp="2012-08-14T04:50:40Z" uid="7523" user="inas" changeset="12722247">
    <nd ref="1601786954"/>
    <nd ref="18463487"/>
    <nd ref="15158952"/>
    <nd ref="1859782318"/>
    <nd ref="1845672249"/>
    <nd ref="1319621116"/>
    <nd ref="1846203930"/>
    <nd ref="1845672240"/>
    <nd ref="1846203883"/>
    <nd ref="18464091"/>
    <nd ref="18464082"/>
    <nd ref="18464112"/>
    <nd ref="1860729281"/>
    <nd ref="18464092"/>
    <nd ref="17850378"/>
    <tag k="highway" v="residential"/>
    <tag k="lcn" v="yes"/>
    <tag k="name" v="Shepherd Street"/>
  </way>
  <way id="3168693" version="21" timestamp="2012-08-14T08:10:30Z" uid="58305" user="fiveisalive" changeset="12723695">
    <nd ref="1601786954"/>
    <nd ref="18463487"/>
    <nd ref="15158952"/>
    <nd ref="1859782318"/>
    <tag k="highway" v="residential"/>
    <tag k="lcn" v="yes"/>
    <tag k="name" v="Shepherd Street"/>
  </way>
  <way id="3168693" version="22" timestamp="2012-08-14T08:14:25Z" uid="58305" user="fiveisalive" changeset="12723695">
    <nd ref="1601786954"/>
    <nd ref="18463487"/>
    <nd ref="15158952"/>
    <tag k="highway" v="residential"/>
    <tag k="lcn" v="yes"/>
    <tag k="name" v="Shepherd Street"/>
  </way>
  <way id="3168698" version="6" timestamp="2012-05-20T10:25:09Z" uid="424509" user="naught101" changeset="11649942">
    <nd ref="15159006"/>
    <nd ref="633202043"/>
    <nd ref="570757502"/>
    <nd ref="570757505"/>
    <nd ref="14750533"/>
    <tag k="bicycle" v="yes"/>
    <tag k="highway" v="primary"/>
    <tag k="name" v="Wilson Street"/>
  </way>
  <way id="3168698" version="7" timestamp="2012-07-05T00:04:36Z" uid="717576" user="samuelrussell" changeset="12115893">
    <nd ref="15159006"/>
    <nd ref="633202043"/>
    <nd ref="570757502"/>
    <nd ref="570757505"/>
    <nd ref="14750533"/>
    <tag k="bicycle" v="yes"/>
    <tag k="highway" v="primary"/>
    <tag k="lcn" v="yes"/>
    <tag k="name" v="Wilson Street"/>
    <tag k="source:lcn" v="knowledge"/>
  </way>
  <way id="3168698" version="8" timestamp="2012-07-20T02:51:53Z" uid="722137" user="OSMF Redaction Account" changeset="12358709"/>
</osm>
