<?xml version='1.0' encoding='UTF-8'?>
<osm version="0.6" generator="libosmium/2.20.0">
  <way id="31817486" version="4" timestamp="2010-07-08T19:29:46Z" uid="74617" user="JohnSmith" changeset="5168730">
    <nd ref="356261944"/>
    <nd ref="582795400"/>
    <nd ref="356261952"/>
    <tag k="highway" v="residential"/>
    <tag k="maxspeed" v="50"/>
    <tag k="maxspeed:source" v="default residential speed limit in Australia"/>
    <tag k="name" v="Maynard Place"/>
  </way>
  <way id="31817486" version="5" timestamp="2012-01-18T10:03:12Z" uid="147510" user="woodpeck_fixbot" changeset="10425524">
    <nd ref="356261944"/>
    <nd ref="582795400"/>
    <nd ref="356261952"/>
    <tag k="highway" v="residential"/>
    <tag k="name" v="Maynard Place"/>
  </way>
  <way id="31817487" version="3" timestamp="2010-07-08T19:35:20Z" uid="74617" user="JohnSmith" changeset="5168730">
    <nd ref="356261953"/>
    <nd ref="356261954"/>
    <tag k="highway" v="residential"/>
    <tag k="maxspeed" v="50"/>
    <tag k="maxspeed:source" v="default residential speed limit in Australia"/>
    <tag k="name" v="Chorley Place"/>
  </way>
  <way id="31817487" version="4" timestamp="2012-01-18T10:03:13Z" uid="147510" user="woodpeck_fixbot" changeset="10425524">
    <nd ref="356261953"/>
    <nd ref="356261954"/>
    <tag k="highway" v="residential"/>
    <tag k="name" v="Chorley Place"/>
  </way>
  <way id="31817489" version="3" timestamp="2010-07-08T19:41:35Z" uid="74617" user="JohnSmith" changeset="5168730">
    <nd ref="356261955"/>
    <nd ref="356261956"/>
    <nd ref="356261957"/>
    <tag k="highway" v="residential"/>
    <tag k="maxspeed" v="50"/>
    <tag k="maxspeed:source" v="default residential speed limit in Australia"/>
    <tag k="name" v="Tallerk Court"/>
  </way>
  <way id="31817489" version="4" timestamp="2012-01-18T10:03:15Z" uid="147510" user="woodpeck_fixbot" changeset="10425524">
    <nd ref="356261955"/>
    <nd ref="356261956"/>
    <nd ref="356261957"/>
    <tag k="highway" v="residential"/>
    <tag k="name" v="Tallerk Court"/>
  </way>
  <way id="31817491" version="3" timestamp="2010-07-08T19:31:49Z" uid="74617" user="JohnSmith" changeset="5168730">
    <nd ref="356261958"/>
    <nd ref="356261959"/>
    <nd ref="356261961"/>
    <tag k="highway" v="residential"/>
    <tag k="maxspeed" v="50"/>
    <tag k="maxspeed:source" v="default residential speed limit in Australia"/>
    <tag k="name" v="Edale Close"/>
  </way>
  <way id="31817491" version="4" timestamp="2012-01-18T10:03:15Z" uid="147510" user="woodpeck_fixbot" changeset="10425524">
    <nd ref="356261958"/>
    <nd ref="356261959"/>
    <nd ref="356261961"/>
    <tag k="highway" v="residential"/>
    <tag k="name" v="Edale Close"/>
  </way>
  <way id="31817493" version="4" timestamp="2010-07-08T19:38:52Z" uid="74617" user="JohnSmith" changeset="5168730">
    <nd ref="356261962"/>
    <nd ref="356261964"/>
    <nd ref="356261965"/>
    <nd ref="356261967"/>
    <nd ref="582795294"/>
    <nd ref="356261970"/>
    <nd ref="356261944"/>
    <nd ref="356261972"/>
    <tag k="highway" v="residential"/>
    <tag k="maxspeed" v="50"/>
    <tag k="maxspeed:source" v="default residential speed limit in Australia"/>
    <tag k="name" v="Chetwyn Drive"/>
  </way>
  <way id="31817493" version="5" timestamp="2012-01-18T10:03:24Z" uid="147510" user="woodpeck_fixbot" changeset="10425524">
    <nd ref="356261962"/>
    <nd ref="356261964"/>
    <nd ref="356261965"/>
    <nd ref="356261967"/>
    <nd ref="582795294"/>
    <nd ref="356261970"/>
    <nd ref="356261944"/>
    <nd ref="356261972"/>
    <tag k="highway" v="residential"/>
    <tag k="name" v="Chetwyn Drive"/>
  </way>
  <way id="31817495" version="3" timestamp="2010-07-08T19:26:35Z" uid="74617" user="JohnSmith" changeset="5168730">
    <nd ref="356261973"/>
    <nd ref="356261975"/>
    <nd ref="356261976"/>
    <nd ref="356261978"/>
    <tag k="highway" v="residential"/>
    <tag k="maxspeed" v="50"/>
    <tag k="maxspeed:source" v="default residential speed limit in Australia"/>
    <tag k="name" v="Stockton Place"/>
  </way>
  <way id="31817495" version="4" timestamp="2012-01-18T10:03:26Z" uid="147510" user="woodpeck_fixbot" changeset="10425524">
    <nd ref="356261973"/>
    <nd ref="356261975"/>
    <nd ref="356261976"/>
    <nd ref="356261978"/>
    <tag k="highway" v="residential"/>
    <tag k="name" v="Stockton Place"/>
  </way>
  <way id="31817497" version="3" timestamp="2010-07-08T19:34:18Z" uid="74617" user="JohnSmith" changeset="5168730">
    <nd ref="356261979"/>
    <nd ref="356261980"/>
    <nd ref="356261981"/>
    <nd ref="356261973"/>
    <nd ref="356261962"/>
    <nd ref="356261957"/>
    <nd ref="356261982"/>
    <nd ref="356261961"/>
    <nd ref="356261983"/>
    <nd ref="356261984"/>
    <nd ref="356261986"/>
    <nd ref="356261953"/>
    <nd ref="356261987"/>
    <tag k="highway" v="residential"/>
    <tag k="maxspeed" v="50"/>
    <tag k="maxspeed:source" v="default residential speed limit in Australia"/>
    <tag k="name" v="Lambeth Street"/>
  </way>
  <way id="31817497" version="4" timestamp="2011-12-08T05:12:39Z" uid="11111" user="melb_guy" changeset="10062338">
    <nd ref="356261979"/>
    <nd ref="356261980"/>
    <nd ref="356261981"/>
    <nd ref="356261973"/>
    <nd ref="356261962"/>
    <nd ref="356261957"/>
    <nd ref="356261982"/>
    <nd ref="356261961"/>
    <nd ref="356261983"/>
    <nd ref="356261984"/>
    <nd ref="356261986"/>
    <nd ref="356261953"/>
    <nd ref="356261987"/>
    <tag k="highway" v="residential"/>
    <tag k="maxspeed" v="50"/>
    <tag k="name" v="Lambeth Street"/>
    <tag k="surface" v="asphalt"/>
  </way>
  <way id="31817497" version="5" timestamp="2012-01-18T10:03:28Z" uid="147510" user="woodpeck_fixbot" changeset="10425524">
    <nd ref="356261979"/>
    <nd ref="356261980"/>
    <nd ref="356261981"/>
    <nd ref="356261973"/>
    <nd ref="356261962"/>
    <nd ref="356261957"/>
    <nd ref="356261982"/>
    <nd ref="356261961"/>
    <nd ref="356261983"/>
    <nd ref="356261984"/>
    <nd ref="356261986"/>
    <nd ref="356261953"/>
    <nd ref="356261987"/>
    <tag k="highway" v="residential"/>
    <tag k="name" v="Lambeth Street"/>
    <tag k="surface" v="asphalt"/>
  </way>
  <way id="31817498" version="3" timestamp="2010-07-08T19:42:40Z" uid="74617" user="JohnSmith" changeset="5168730">
    <nd ref="356261399"/>
    <nd ref="356261988"/>
    <nd ref="356261991"/>
    <nd ref="356261992"/>
    <nd ref="356261993"/>
    <nd ref="356261994"/>
    <nd ref="356261995"/>
    <nd ref="356261996"/>
    <nd ref="356261263"/>
    <nd ref="232342912"/>
    <tag k="highway" v="residential"/>
    <tag k="maxspeed" v="50"/>
    <tag k="maxspeed:source" v="default residential speed limit in Australia"/>
    <tag k="name" v="Cheleon Way"/>
  </way>
  <way id="31817498" version="4" timestamp="2011-12-08T05:12:39Z" uid="11111" user="melb_guy" changeset="10062338">
    <nd ref="356261399"/>
    <nd ref="356261988"/>
    <nd ref="356261991"/>
    <nd ref="356261992"/>
    <nd ref="356261993"/>
    <nd ref="356261994"/>
    <nd ref="356261995"/>
    <nd ref="356261996"/>
    <nd ref="356261263"/>
    <nd ref="232342912"/>
    <tag k="highway" v="tertiary"/>
    <tag k="maxspeed" v="50"/>
    <tag k="name" v="Cheleon Way"/>
    <tag k="surface" v="asphalt"/>
  </way>
  <way id="31817498" version="5" timestamp="2012-01-18T10:03:29Z" uid="147510" user="woodpeck_fixbot" changeset="10425524">
    <nd ref="356261399"/>
    <nd ref="356261988"/>
    <nd ref="356261991"/>
    <nd ref="356261992"/>
    <nd ref="356261993"/>
    <nd ref="356261994"/>
    <nd ref="356261995"/>
    <nd ref="356261996"/>
    <nd ref="356261263"/>
    <nd ref="232342912"/>
    <tag k="highway" v="tertiary"/>
    <tag k="name" v="Cheleon Way"/>
    <tag k="surface" v="asphalt"/>
  </way>
  <way id="31817502" version="3" timestamp="2010-07-08T19:39:46Z" uid="74617" user="JohnSmith" changeset="5168730">
    <nd ref="356261998"/>
    <nd ref="356261999"/>
    <tag k="highway" v="residential"/>
    <tag k="maxspeed" v="50"/>
    <tag k="maxspeed:source" v="default residential speed limit in Australia"/>
    <tag k="name" v="Tanglewood Street"/>
  </way>
  <way id="31817502" version="4" timestamp="2012-01-18T10:03:30Z" uid="147510" user="woodpeck_fixbot" changeset="10425524">
    <nd ref="356261998"/>
    <nd ref="356261999"/>
    <tag k="highway" v="residential"/>
    <tag k="name" v="Tanglewood Street"/>
  </way>
  <way id="31817504" version="3" timestamp="2010-07-08T19:44:57Z" uid="74617" user="JohnSmith" changeset="5168730">
    <nd ref="232343102"/>
    <nd ref="356262011"/>
    <nd ref="356262009"/>
    <nd ref="356261999"/>
    <nd ref="356262007"/>
    <nd ref="356262004"/>
    <nd ref="356262001"/>
    <nd ref="266969525"/>
    <tag k="highway" v="residential"/>
    <tag k="maxspeed" v="50"/>
    <tag k="maxspeed:source" v="default residential speed limit in Australia"/>
    <tag k="name" v="Maplewood Road"/>
  </way>
  <way id="31817504" version="4" timestamp="2012-01-18T10:03:31Z" uid="147510" user="woodpeck_fixbot" changeset="10425524">
    <nd ref="232343102"/>
    <nd ref="356262011"/>
    <nd ref="356262009"/>
    <nd ref="356261999"/>
    <nd ref="356262007"/>
    <nd ref="356262004"/>
    <nd ref="356262001"/>
    <nd ref="266969525"/>
    <tag k="highway" v="residential"/>
    <tag k="name" v="Maplewood Road"/>
  </way>
  <way id="31817506" version="3" timestamp="2010-07-08T19:36:16Z" uid="74617" user="JohnSmith" changeset="5168730">
    <nd ref="356262000"/>
    <nd ref="356262001"/>
    <tag k="highway" v="residential"/>
    <tag k="maxspeed" v="50"/>
    <tag k="maxspeed:source" v="default residential speed limit in Australia"/>
    <tag k="name" v="Meadowbank Court"/>
  </way>
  <way id="31817506" version="4" timestamp="2012-01-18T10:03:32Z" uid="147510" user="woodpeck_fixbot" changeset="10425524">
    <nd ref="356262000"/>
    <nd ref="356262001"/>
    <tag k="highway" v="residential"/>
    <tag k="name" v="Meadowbank Court"/>
  </way>
  <way id="31817508" version="3" timestamp="2010-07-08T19:41:56Z" uid="74617" user="JohnSmith" changeset="5168730">
    <nd ref="356262002"/>
    <nd ref="356262003"/>
    <tag k="highway" v="residential"/>
    <tag k="maxspeed" v="50"/>
    <tag k="maxspeed:source" v="default residential speed limit in Australia"/>
    <tag k="name" v="Lisbon Court"/>
  </way>
  <way id="31817508" version="4" timestamp="2012-01-18T10:03:34Z" uid="147510" user="woodpeck_fixbot" changeset="10425524">
    <nd ref="356262002"/>
    <nd ref="356262003"/>
    <tag k="highway" v="residential"/>
    <tag k="name" v="Lisbon Court"/>
  </way>
  <way id="31817509" version="3" timestamp="2010-07-08T19:22:49Z" uid="74617" user="JohnSmith" changeset="5168730">
    <nd ref="356262005"/>
    <nd ref="356262007"/>
    <tag k="highway" v="residential"/>
    <tag k="maxspeed" v="50"/>
    <tag k="maxspeed:source" v="default residential speed limit in Australia"/>
    <tag k="name" v="Hazelwood Court"/>
  </way>
  <way id="31817509" version="4" timestamp="2012-01-18T10:03:36Z" uid="147510" user="woodpeck_fixbot" changeset="10425524">
    <nd ref="356262005"/>
    <nd ref="356262007"/>
    <tag k="highway" v="residential"/>
    <tag k="name" v="Hazelwood Court"/>
  </way>
  <way id="31817511" version="3" timestamp="2010-07-08T19:38:11Z" uid="74617" user="JohnSmith" changeset="5168730">
    <nd ref="356262008"/>
    <nd ref="356262009"/>
    <tag k="highway" v="residential"/>
    <tag k="maxspeed" v="50"/>
    <tag k="maxspeed:source" v="default residential speed limit in Australia"/>
    <tag k="name" v="Valencia Court"/>
  </way>
  <way id="31817511" version="4" timestamp="2012-01-18T10:03:37Z" uid="147510" user="woodpeck_fixbot" changeset="10425524">
    <nd ref="356262008"/>
    <nd ref="356262009"/>
    <tag k="highway" v="residential"/>
    <tag k="name" v="Valencia Court"/>
  </way>
  <way id="31817513" version="3" timestamp="2010-07-08T19:43:05Z" uid="74617" user="JohnSmith" changeset="5168730">
    <nd ref="356262010"/>
    <nd ref="356262011"/>
    <tag k="highway" v="residential"/>
    <tag k="maxspeed" v="50"/>
    <tag k="maxspeed:source" v="default residential speed limit in Australia"/>
    <tag k="name" v="Seville Court"/>
  </way>
  <way id="31817513" version="4" timestamp="2012-01-18T10:03:38Z" uid="147510" user="woodpeck_fixbot" changeset="10425524">
    <nd ref="356262010"/>
    <nd ref="356262011"/>
    <tag k="highway" v="residential"/>
    <tag k="name" v="Seville Court"/>
  </way>
  <way id="31817515" version="3" timestamp="2010-07-08T19:33:46Z" uid="74617" user="JohnSmith" changeset="5168730">
    <nd ref="356262012"/>
    <nd ref="356262013"/>
    <tag k="highway" v="residential"/>
    <tag k="maxspeed" v="50"/>
    <tag k="maxspeed:source" v="default residential speed limit in Australia"/>
    <tag k="name" v="Penghana Place"/>
  </way>
  <way id="31817515" version="4" timestamp="2012-01-18T10:03:39Z" uid="147510" user="woodpeck_fixbot" changeset="10425524">
    <nd ref="356262012"/>
    <nd ref="356262013"/>
    <tag k="highway" v="residential"/>
    <tag k="name" v="Penghana Place"/>
  </way>
  <way id="31817517" version="3" timestamp="2010-07-08T19:40:10Z" uid="74617" user="JohnSmith" changeset="5168730">
    <nd ref="356262014"/>
    <nd ref="356262015"/>
    <nd ref="356262017"/>
    <nd ref="356262018"/>
    <nd ref="356262019"/>
    <tag k="highway" v="residential"/>
    <tag k="maxspeed" v="50"/>
    <tag k="maxspeed:source" v="default residential speed limit in Australia"/>
    <tag k="name" v="Mica Court"/>
  </way>
  <way id="31817517" version="4" timestamp="2012-01-18T10:03:40Z" uid="147510" user="woodpeck_fixbot" changeset="10425524">
    <nd ref="356262014"/>
    <nd ref="356262015"/>
    <nd ref="356262017"/>
    <nd ref="356262018"/>
    <nd ref="356262019"/>
    <tag k="highway" v="residential"/>
    <tag k="name" v="Mica Court"/>
  </way>
  <way id="31817521" version="3" timestamp="2010-05-11T03:42:26Z" uid="4467" user="Rosscoe" changeset="4665335">
    <nd ref="356262020"/>
    <nd ref="356262021"/>
    <nd ref="356262026"/>
    <nd ref="356262027"/>
    <nd ref="356262028"/>
    <nd ref="356262014"/>
    <nd ref="729432050"/>
    <tag k="highway" v="residential"/>
    <tag k="name" v="Kambalda Circuit"/>
  </way>
  <way id="31817521" version="4" timestamp="2010-07-08T19:37:12Z" uid="74617" user="JohnSmith" changeset="5168730">
    <nd ref="356262020"/>
    <nd ref="356262021"/>
    <nd ref="356262026"/>
    <nd ref="356262027"/>
    <nd ref="356262028"/>
    <nd ref="356262014"/>
    <nd ref="729432050"/>
    <tag k="highway" v="residential"/>
    <tag k="maxspeed" v="50"/>
    <tag k="maxspeed:source" v="default residential speed limit in Australia"/>
    <tag k="name" v="Kambalda Circuit"/>
  </way>
  <way id="31817521" version="5" timestamp="2012-01-18T10:03:41Z" uid="147510" user="woodpeck_fixbot" changeset="10425524">
    <nd ref="356262020"/>
    <nd ref="356262021"/>
    <nd ref="356262026"/>
    <nd ref="356262027"/>
    <nd ref="356262028"/>
    <nd ref="356262014"/>
    <nd ref="729432050"/>
    <tag k="highway" v="residential"/>
    <tag k="name" v="Kambalda Circuit"/>
  </way>
  <way id="31817522" version="3" timestamp="2010-07-08T19:44:16Z" uid="74617" user="JohnSmith" changeset="5168730">
    <nd ref="356262029"/>
    <nd ref="356262030"/>
    <nd ref="356262031"/>
    <nd ref="309593066"/>
    <tag k="highway" v="residential"/>
    <tag k="maxspeed" v="50"/>
    <tag k="maxspeed:source" v="default residential speed limit in Australia"/>
    <tag k="name" v="Hedland Place"/>
  </way>
  <way id="31817522" version="4" timestamp="2012-01-18T10:03:42Z" uid="147510" user="woodpeck_fixbot" changeset="10425524">
    <nd ref="356262029"/>
    <nd ref="356262030"/>
    <nd ref="356262031"/>
    <nd ref="309593066"/>
    <tag k="highway" v="residential"/>
    <tag k="name" v="Hedland Place"/>
  </way>
  <way id="31817524" version="3" timestamp="2010-07-08T19:26:13Z" uid="74617" user="JohnSmith" changeset="5168730">
    <nd ref="356262032"/>
    <nd ref="356262033"/>
    <nd ref="356262034"/>
    <nd ref="266969876"/>
    <tag k="highway" v="residential"/>
    <tag k="maxspeed" v="50"/>
    <tag k="maxspeed:source" v="default residential speed limit in Australia"/>
    <tag k="name" v="Goldsworthy Court"/>
  </way>
  <way id="31817524" version="4" timestamp="2012-01-18T10:03:44Z" uid="147510" user="woodpeck_fixbot" changeset="10425524">
    <nd ref="356262032"/>
    <nd ref="356262033"/>
    <nd ref="356262034"/>
    <nd ref="266969876"/>
    <tag k="highway" v="residential"/>
    <tag k="name" v="Goldsworthy Court"/>
  </way>
  <way id="31817525" version="3" timestamp="2010-07-08T19:32:58Z" uid="74617" user="JohnSmith" changeset="5168730">
    <nd ref="356262035"/>
    <nd ref="356262036"/>
    <nd ref="356262037"/>
    <nd ref="356262038"/>
    <tag k="highway" v="residential"/>
    <tag k="maxspeed" v="50"/>
    <tag k="maxspeed:source" v="default residential speed limit in Australia"/>
    <tag k="name" v="Pilbara Court"/>
  </way>
  <way id="31817525" version="4" timestamp="2012-01-18T10:03:46Z" uid="147510" user="woodpeck_fixbot" changeset="10425524">
    <nd ref="356262035"/>
    <nd ref="356262036"/>
    <nd ref="356262037"/>
    <nd ref="356262038"/>
    <tag k="highway" v="residential"/>
    <tag k="name" v="Pilbara Court"/>
  </way>
  <way id="31817527" version="3" timestamp="2010-07-08T19:22:05Z" uid="74617" user="JohnSmith" changeset="5168730">
    <nd ref="356262039"/>
    <nd ref="356262040"/>
    <nd ref="356262041"/>
    <tag k="highway" v="residential"/>
    <tag k="maxspeed" v="50"/>
    <tag k="maxspeed:source" v="default residential speed limit in Australia"/>
    <tag k="name" v="Eureka Court"/>
  </way>
  <way id="31817527" version="4" timestamp="2012-01-18T10:03:47Z" uid="147510" user="woodpeck_fixbot" changeset="10425524">
    <nd ref="356262039"/>
    <nd ref="356262040"/>
    <nd ref="356262041"/>
    <tag k="highway" v="residential"/>
    <tag k="name" v="Eureka Court"/>
  </way>
  <way id="31817529" version="3" timestamp="2010-07-08T19:28:22Z" uid="74617" user="JohnSmith" changeset="5168730">
    <nd ref="356262042"/>
    <nd ref="356262043"/>
    <tag k="highway" v="residential"/>
    <tag k="maxspeed" v="50"/>
    <tag k="maxspeed:source" v="default residential speed limit in Australia"/>
    <tag k="name" v="Cobar Place"/>
  </way>
  <way id="31817529" version="4" timestamp="2012-01-18T10:03:48Z" uid="147510" user="woodpeck_fixbot" changeset="10425524">
    <nd ref="356262042"/>
    <nd ref="356262043"/>
    <tag k="highway" v="residential"/>
    <tag k="name" v="Cobar Place"/>
  </way>
  <way id="31817530" version="4" timestamp="2010-07-08T19:38:40Z" uid="74617" user="JohnSmith" changeset="5168730">
    <nd ref="36042100"/>
    <nd ref="266969546"/>
    <nd ref="266969569"/>
    <nd ref="356261998"/>
    <nd ref="232343069"/>
    <nd ref="356261997"/>
    <tag k="highway" v="residential"/>
    <tag k="maxspeed" v="50"/>
    <tag k="maxspeed:source" v="default residential speed limit in Australia"/>
    <tag k="name" v="Braeswood Road"/>
  </way>
  <way id="31817530" version="5" timestamp="2012-01-18T10:03:50Z" uid="147510" user="woodpeck_fixbot" changeset="10425524">
    <nd ref="36042100"/>
    <nd ref="266969546"/>
    <nd ref="266969569"/>
    <nd ref="356261998"/>
    <nd ref="232343069"/>
    <nd ref="356261997"/>
    <tag k="highway" v="residential"/>
    <tag k="name" v="Braeswood Road"/>
  </way>
  <way id="31817532" version="5" timestamp="2010-07-08T19:43:31Z" uid="74617" user="JohnSmith" changeset="5168730">
    <nd ref="356262044"/>
    <nd ref="356265782"/>
    <tag k="highway" v="residential"/>
    <tag k="maxspeed" v="50"/>
    <tag k="maxspeed:source" v="default residential speed limit in Australia"/>
    <tag k="name" v="Cresmont Court"/>
  </way>
  <way id="31817532" version="6" timestamp="2012-01-18T10:03:53Z" uid="147510" user="woodpeck_fixbot" changeset="10425524">
    <nd ref="356262044"/>
    <nd ref="356265782"/>
    <tag k="highway" v="residential"/>
    <tag k="name" v="Cresmont Court"/>
  </way>
  <way id="31817533" version="5" timestamp="2010-07-08T19:24:27Z" uid="74617" user="JohnSmith" changeset="5168730">
    <nd ref="356262046"/>
    <nd ref="356265783"/>
    <tag k="highway" v="residential"/>
    <tag k="maxspeed" v="50"/>
    <tag k="maxspeed:source" v="default residential speed limit in Australia"/>
    <tag k="name" v="Cory Court"/>
  </way>
  <way id="31817533" version="6" timestamp="2012-01-18T10:03:54Z" uid="147510" user="woodpeck_fixbot" changeset="10425524">
    <nd ref="356262046"/>
    <nd ref="356265783"/>
    <tag k="highway" v="residential"/>
    <tag k="name" v="Cory Court"/>
  </way>
  <way id="31817537" version="3" timestamp="2010-07-08T19:44:41Z" uid="74617" user="JohnSmith" changeset="5168730">
    <nd ref="36042360"/>
    <nd ref="356262052"/>
    <nd ref="356262051"/>
    <nd ref="266969407"/>
    <nd ref="266969511"/>
    <nd ref="232343447"/>
    <tag k="highway" v="residential"/>
    <tag k="maxspeed" v="50"/>
    <tag k="maxspeed:source" v="default residential speed limit in Australia"/>
    <tag k="name" v="Rex Street"/>
  </way>
  <way id="31817537" version="4" timestamp="2012-01-18T10:03:55Z" uid="147510" user="woodpeck_fixbot" changeset="10425524">
    <nd ref="36042360"/>
    <nd ref="356262052"/>
    <nd ref="356262051"/>
    <nd ref="266969407"/>
    <nd ref="266969511"/>
    <nd ref="232343447"/>
    <tag k="highway" v="residential"/>
    <tag k="name" v="Rex Street"/>
  </way>
  <way id="31817539" version="3" timestamp="2010-07-08T19:35:45Z" uid="74617" user="JohnSmith" changeset="5168730">
    <nd ref="356262052"/>
    <nd ref="356262054"/>
    <nd ref="356262053"/>
    <tag k="highway" v="residential"/>
    <tag k="maxspeed" v="50"/>
    <tag k="maxspeed:source" v="default residential speed limit in Australia"/>
    <tag k="name" v="Alan Street"/>
  </way>
  <way id="31817539" version="4" timestamp="2012-01-18T10:03:56Z" uid="147510" user="woodpeck_fixbot" changeset="10425524">
    <nd ref="356262052"/>
    <nd ref="356262054"/>
    <nd ref="356262053"/>
    <tag k="highway" v="residential"/>
    <tag k="name" v="Alan Street"/>
  </way>
  <way id="31817544" version="3" timestamp="2010-07-08T19:33:28Z" uid="74617" user="JohnSmith" changeset="5168730">
    <nd ref="356262055"/>
    <nd ref="266969381"/>
    <tag k="highway" v="residential"/>
    <tag k="maxspeed" v="50"/>
    <tag k="maxspeed:source" v="default residential speed limit in Australia"/>
    <tag k="name" v="Mallee Court"/>
  </way>
  <way id="31817544" version="4" timestamp="2012-01-18T10:03:58Z" uid="147510" user="woodpeck_fixbot" changeset="10425524">
    <nd ref="356262055"/>
    <nd ref="266969381"/>
    <tag k="highway" v="residential"/>
    <tag k="name" v="Mallee Court"/>
  </way>
  <way id="31817546" version="5" timestamp="2010-07-08T19:22:34Z" uid="74617" user="JohnSmith" changeset="5168730">
    <nd ref="266971145"/>
    <nd ref="356262060"/>
    <nd ref="356262061"/>
    <nd ref="356262062"/>
    <nd ref="356262063"/>
    <nd ref="356263434"/>
    <nd ref="582795535"/>
    <nd ref="356262064"/>
    <nd ref="356262065"/>
    <nd ref="356262069"/>
    <nd ref="356262066"/>
    <nd ref="356262068"/>
    <tag k="highway" v="residential"/>
    <tag k="maxspeed" v="50"/>
    <tag k="maxspeed:source" v="default residential speed limit in Australia"/>
    <tag k="name" v="Paraburdoo Lane"/>
  </way>
  <way id="31817546" version="6" timestamp="2012-01-18T10:03:59Z" uid="147510" user="woodpeck_fixbot" changeset="10425524">
    <nd ref="266971145"/>
    <nd ref="356262060"/>
    <nd ref="356262061"/>
    <nd ref="356262062"/>
    <nd ref="356262063"/>
    <nd ref="356263434"/>
    <nd ref="582795535"/>
    <nd ref="356262064"/>
    <nd ref="356262065"/>
    <nd ref="356262069"/>
    <nd ref="356262066"/>
    <nd ref="356262068"/>
    <tag k="highway" v="residential"/>
    <tag k="name" v="Paraburdoo Lane"/>
  </way>
  <way id="31817548" version="4" timestamp="2010-07-08T19:28:53Z" uid="74617" user="JohnSmith" changeset="5168730">
    <nd ref="356262069"/>
    <nd ref="356262070"/>
    <nd ref="356262071"/>
    <nd ref="356262072"/>
    <nd ref="356262073"/>
    <nd ref="356262075"/>
    <nd ref="356262076"/>
    <nd ref="356262077"/>
    <nd ref="582795534"/>
    <nd ref="356262078"/>
    <nd ref="356262080"/>
    <nd ref="356262085"/>
    <nd ref="356262086"/>
    <nd ref="356262087"/>
    <nd ref="356262088"/>
    <nd ref="356262089"/>
    <nd ref="266971155"/>
    <tag k="highway" v="residential"/>
    <tag k="maxspeed" v="50"/>
    <tag k="maxspeed:source" v="default residential speed limit in Australia"/>
    <tag k="name" v="Galena Crescent"/>
  </way>
  <way id="31817548" version="5" timestamp="2012-01-18T10:04:03Z" uid="147510" user="woodpeck_fixbot" changeset="10425524">
    <nd ref="356262069"/>
    <nd ref="356262070"/>
    <nd ref="356262071"/>
    <nd ref="356262072"/>
    <nd ref="356262073"/>
    <nd ref="356262075"/>
    <nd ref="356262076"/>
    <nd ref="356262077"/>
    <nd ref="582795534"/>
    <nd ref="356262078"/>
    <nd ref="356262080"/>
    <nd ref="356262085"/>
    <nd ref="356262086"/>
    <nd ref="356262087"/>
    <nd ref="356262088"/>
    <nd ref="356262089"/>
    <nd ref="266971155"/>
    <tag k="highway" v="residential"/>
    <tag k="name" v="Galena Crescent"/>
  </way>
  <way id="31817549" version="3" timestamp="2010-07-08T19:34:30Z" uid="74617" user="JohnSmith" changeset="5168730">
    <nd ref="356262090"/>
    <nd ref="356262093"/>
    <nd ref="356262096"/>
    <nd ref="266971146"/>
    <tag k="highway" v="residential"/>
    <tag k="maxspeed" v="50"/>
    <tag k="maxspeed:source" v="default residential speed limit in Australia"/>
    <tag k="name" v="Kingfisher Court"/>
  </way>
  <way id="31817549" version="4" timestamp="2012-01-18T10:04:06Z" uid="147510" user="woodpeck_fixbot" changeset="10425524">
    <nd ref="356262090"/>
    <nd ref="356262093"/>
    <nd ref="356262096"/>
    <nd ref="266971146"/>
    <tag k="highway" v="residential"/>
    <tag k="name" v="Kingfisher Court"/>
  </way>
  <way id="31817552" version="3" timestamp="2010-07-08T19:24:48Z" uid="74617" user="JohnSmith" changeset="5168730">
    <nd ref="356262097"/>
    <nd ref="356262098"/>
    <nd ref="356262100"/>
    <nd ref="266971133"/>
    <tag k="highway" v="residential"/>
    <tag k="maxspeed" v="50"/>
    <tag k="maxspeed:source" v="default residential speed limit in Australia"/>
    <tag k="name" v="Tullus Court"/>
  </way>
  <way id="31817552" version="4" timestamp="2012-01-18T10:04:09Z" uid="147510" user="woodpeck_fixbot" changeset="10425524">
    <nd ref="356262097"/>
    <nd ref="356262098"/>
    <nd ref="356262100"/>
    <nd ref="266971133"/>
    <tag k="highway" v="residential"/>
    <tag k="name" v="Tullus Court"/>
  </way>
  <way id="31817554" version="3" timestamp="2010-07-08T19:39:53Z" uid="74617" user="JohnSmith" changeset="5168730">
    <nd ref="356262101"/>
    <nd ref="356262102"/>
    <nd ref="266971129"/>
    <tag k="highway" v="residential"/>
    <tag k="maxspeed" v="50"/>
    <tag k="maxspeed:source" v="default residential speed limit in Australia"/>
    <tag k="name" v="English Court"/>
  </way>
  <way id="31817554" version="4" timestamp="2012-01-18T10:04:11Z" uid="147510" user="woodpeck_fixbot" changeset="10425524">
    <nd ref="356262101"/>
    <nd ref="356262102"/>
    <nd ref="266971129"/>
    <tag k="highway" v="residential"/>
    <tag k="name" v="English Court"/>
  </way>
  <way id="31817556" version="3" timestamp="2010-07-08T19:21:42Z" uid="74617" user="JohnSmith" changeset="5168730">
    <nd ref="356262103"/>
    <nd ref="266970942"/>
    <tag k="highway" v="residential"/>
    <tag k="maxspeed" v="50"/>
    <tag k="maxspeed:source" v="default residential speed limit in Australia"/>
    <tag k="name" v="Coach Court"/>
  </way>
  <way id="31817556" version="4" timestamp="2012-01-18T10:04:15Z" uid="147510" user="woodpeck_fixbot" changeset="10425524">
    <nd ref="356262103"/>
    <nd ref="266970942"/>
    <tag k="highway" v="residential"/>
    <tag k="name" v="Coach Court"/>
  </way>
  <way id="31817559" version="3" timestamp="2010-07-08T19:40:59Z" uid="74617" user="JohnSmith" changeset="5168730">
    <nd ref="356262104"/>
    <nd ref="266970895"/>
    <tag k="highway" v="residential"/>
    <tag k="maxspeed" v="50"/>
    <tag k="maxspeed:source" v="default residential speed limit in Australia"/>
    <tag k="name" v="Dragon Way"/>
  </way>
  <way id="31817559" version="4" timestamp="2012-01-18T10:04:26Z" uid="147510" user="woodpeck_fixbot" changeset="10425524">
    <nd ref="356262104"/>
    <nd ref="266970895"/>
    <tag k="highway" v="residential"/>
    <tag k="name" v="Dragon Way"/>
  </way>
  <way id="31817775" version="2" timestamp="2010-07-24T01:58:39Z" uid="4467" user="Rosscoe" changeset="5300342">
    <nd ref="282648138"/>
    <nd ref="356262342"/>
    <tag k="bridge" v="yes"/>
    <tag k="highway" v="tertiary"/>
    <tag k="layer" v="1"/>
    <tag k="name" v="Shotts South Road"/>
  </way>
  <way id="31817504" version="5" timestamp="2012-05-24T03:32:28Z" uid="11111" user="melb_guy" changeset="11686342">
    <nd ref="232343102"/>
    <nd ref="356262011"/>
    <nd ref="356262009"/>
    <nd ref="356261999"/>
    <nd ref="356262007"/>
    <nd ref="356262004"/>
    <nd ref="1763800744"/>
    <nd ref="356262001"/>
    <nd ref="1763800806"/>
    <nd ref="266969525"/>
    <tag k="highway" v="residential"/>
    <tag k="lanes" v="2"/>
    <tag k="maxspeed" v="50"/>
    <tag k="name" v="Maplewood Road"/>
    <tag k="surface" v="asphalt"/>
  </way>
  <way id="31817504" version="6" timestamp="2012-07-19T11:22:12Z" uid="722137" user="OSMF Redaction Account" changeset="12321281">
    <nd ref="232343102"/>
    <nd ref="356262011"/>
    <nd ref="356262009"/>
    <nd ref="356261999"/>
    <nd ref="356262007"/>
    <nd ref="356262004"/>
    <nd ref="1763800744"/>
    <nd ref="356262001"/>
    <nd ref="1763800806"/>
    <nd ref="266969525"/>
    <tag k="highway" v="residential"/>
    <tag k="lanes" v="2"/>
    <tag k="name" v="Maplewood Road"/>
    <tag k="surface" v="asphalt"/>
  </way>
  <way id="31817506" version="5" timestamp="2012-05-24T03:32:28Z" uid="11111" user="melb_guy" changeset="11686342">
    <nd ref="356262000"/>
    <nd ref="356262001"/>
    <tag k="highway" v="residential"/>
    <tag k="lanes" v="2"/>
    <tag k="maxspeed" v="50"/>
    <tag k="name" v="Meadowbank Court"/>
    <tag k="surface" v="asphalt"/>
  </way>
  <way id="31817506" version="6" timestamp="2012-07-19T11:22:15Z" uid="722137" user="OSMF Redaction Account" changeset="12321281">
    <nd ref="356262000"/>
    <nd ref="356262001"/>
    <tag k="highway" v="residential"/>
    <tag k="lanes" v="2"/>
    <tag k="name" v="Meadowbank Court"/>
    <tag k="surface" v="asphalt"/>
  </way>
  <way id="31817508" version="5" timestamp="2012-05-24T03:32:29Z" uid="11111" user="melb_guy" changeset="11686342">
    <nd ref="356262002"/>
    <nd ref="1763800756"/>
    <nd ref="356262003"/>
    <tag k="highway" v="residential"/>
    <tag k="lanes" v="2"/>
    <tag k="maxspeed" v="50"/>
    <tag k="name" v="Lisbon Court"/>
    <tag k="surface" v="asphalt"/>
  </way>
  <way id="31817508" version="6" timestamp="2012-07-19T11:22:15Z" uid="722137" user="OSMF Redaction Account" changeset="12321281">
    <nd ref="356262002"/>
    <nd ref="1763800756"/>
    <nd ref="356262003"/>
    <tag k="highway" v="residential"/>
    <tag k="lanes" v="2"/>
    <tag k="name" v="Lisbon Court"/>
    <tag k="surface" v="asphalt"/>
  </way>
  <way id="31817509" version="5" timestamp="2012-05-24T03:32:28Z" uid="11111" user="melb_guy" changeset="11686342">
    <nd ref="356262005"/>
    <nd ref="356262007"/>
    <tag k="highway" v="residential"/>
    <tag k="lanes" v="2"/>
    <tag k="maxspeed" v="50"/>
    <tag k="name" v="Hazelwood Court"/>
    <tag k="surface" v="asphalt"/>
  </way>
  <way id="31817509" version="6" timestamp="2012-07-19T11:22:15Z" uid="722137" user="OSMF Redaction Account" changeset="12321281">
    <nd ref="356262005"/>
    <nd ref="356262007"/>
    <tag k="highway" v="residential"/>
    <tag k="lanes" v="2"/>
    <tag k="name" v="Hazelwood Court"/>
    <tag k="surface" v="asphalt"/>
  </way>
  <way id="31817521" version="6" timestamp="2012-07-19T11:21:57Z" uid="722137" user="OSMF Redaction Account" changeset="12321281">
    <nd ref="356262020"/>
    <nd ref="356262021"/>
    <nd ref="356262026"/>
    <nd ref="356262027"/>
    <nd ref="356262028"/>
    <nd ref="356262014"/>
    <tag k="highway" v="residential"/>
    <tag k="name" v="Kambalda Circuit"/>
  </way>
  <way id="31817530" version="6" timestamp="2012-05-23T03:30:39Z" uid="11111" user="melb_guy" changeset="11677409">
    <nd ref="1762741216"/>
    <nd ref="266969546"/>
    <nd ref="266969569"/>
    <nd ref="356261998"/>
    <nd ref="232343069"/>
    <nd ref="356261997"/>
    <tag k="highway" v="residential"/>
    <tag k="lanes" v="2"/>
    <tag k="maxspeed" v="50"/>
    <tag k="name" v="Braeswood Road"/>
    <tag k="surface" v="asphalt"/>
  </way>
  <way id="31817530" version="7" timestamp="2012-05-24T03:32:29Z" uid="11111" user="melb_guy" changeset="11686342">
    <nd ref="1762741216"/>
    <nd ref="1763800870"/>
    <nd ref="266969546"/>
    <tag k="highway" v="residential"/>
    <tag k="lanes" v="2"/>
    <tag k="maxspeed" v="50"/>
    <tag k="name" v="Braeswood Road"/>
    <tag k="surface" v="asphalt"/>
  </way>
  <way id="31817530" version="8" timestamp="2012-07-19T11:22:21Z" uid="722137" user="OSMF Redaction Account" changeset="12321281">
    <nd ref="1762741216"/>
    <nd ref="1763800870"/>
    <nd ref="266969546"/>
    <tag k="highway" v="residential"/>
    <tag k="lanes" v="2"/>
    <tag k="name" v="Braeswood Road"/>
    <tag k="surface" v="asphalt"/>
  </way>
  <way id="31817532" version="7" timestamp="2012-05-24T03:32:28Z" uid="11111" user="melb_guy" changeset="11686342">
    <nd ref="356262044"/>
    <nd ref="1763800779"/>
    <nd ref="356265782"/>
    <tag k="highway" v="residential"/>
    <tag k="lanes" v="2"/>
    <tag k="maxspeed" v="50"/>
    <tag k="name" v="Cresmont Court"/>
    <tag k="surface" v="asphalt"/>
  </way>
  <way id="31817532" version="8" timestamp="2012-07-19T11:22:19Z" uid="722137" user="OSMF Redaction Account" changeset="12321281">
    <nd ref="356262044"/>
    <nd ref="1763800779"/>
    <nd ref="356265782"/>
    <tag k="highway" v="residential"/>
    <tag k="lanes" v="2"/>
    <tag k="name" v="Cresmont Court"/>
    <tag k="surface" v="asphalt"/>
  </way>
  <way id="31817533" version="7" timestamp="2012-05-24T03:32:29Z" uid="11111" user="melb_guy" changeset="11686342">
    <nd ref="356262046"/>
    <nd ref="1763800892"/>
    <nd ref="356265783"/>
    <tag k="highway" v="residential"/>
    <tag k="name" v="Cory Court"/>
  </way>
  <way id="31817537" version="5" timestamp="2012-05-23T03:30:39Z" uid="11111" user="melb_guy" changeset="11677409">
    <nd ref="36042360"/>
    <nd ref="1762741138"/>
    <nd ref="1762741262"/>
    <nd ref="356262052"/>
    <nd ref="356262051"/>
    <nd ref="266969407"/>
    <nd ref="266969511"/>
    <nd ref="232343447"/>
    <tag k="highway" v="residential"/>
    <tag k="name" v="Rex Street"/>
  </way>
  <way id="31817537" version="6" timestamp="2012-05-24T03:32:29Z" uid="11111" user="melb_guy" changeset="11686342">
    <nd ref="36042360"/>
    <nd ref="1762741138"/>
    <nd ref="1762741262"/>
    <tag k="highway" v="residential"/>
    <tag k="lanes" v="2"/>
    <tag k="maxspeed" v="50"/>
    <tag k="name" v="Rex Street"/>
    <tag k="oneway" v="yes"/>
    <tag k="surface" v="asphalt"/>
  </way>
  <way id="31817537" version="7" timestamp="2012-07-19T11:22:20Z" uid="722137" user="OSMF Redaction Account" changeset="12321281">
    <nd ref="36042360"/>
    <nd ref="1762741138"/>
    <nd ref="1762741262"/>
    <tag k="highway" v="residential"/>
    <tag k="lanes" v="2"/>
    <tag k="name" v="Rex Street"/>
    <tag k="oneway" v="yes"/>
    <tag k="surface" v="asphalt"/>
  </way>
  <way id="31817775" version="3" timestamp="2012-07-19T10:47:44Z" uid="722137" user="OSMF Redaction Account" changeset="12319512">
    <nd ref="282648138"/>
    <nd ref="356262342"/>
    <tag k="bridge" v="yes"/>
  </way>
</osm>
