<?xml version='1.0' encoding='UTF-8'?>
<osm version="0.6" generator="libosmium/2.20.0">
  <way id="3182111" version="9" timestamp="2010-03-27T07:39:06Z" uid="20587" user="balrog-kun" changeset="4244079">
    <nd ref="268548023"/>
    <nd ref="123207073"/>
    <nd ref="502752378"/>
    <nd ref="502752380"/>
    <nd ref="15291938"/>
    <tag k="highway" v="residential"/>
    <tag k="name" v="Campbell Avenue"/>
  </way>
  <way id="3182111" version="10" timestamp="2011-03-28T17:45:56Z" uid="82317" user="AM909" changeset="7699256">
    <nd ref="268548023"/>
    <nd ref="123207073"/>
    <nd ref="502752378"/>
    <nd ref="502752380"/>
    <nd ref="15291938"/>
    <tag k="highway" v="residential"/>
    <tag k="name" v="Campbell Avenue"/>
    <tag k="source" v="bing_imagery_0.06m_200801;survey;image"/>
    <tag k="source_ref" v="AM909_DSCW8800"/>
  </way>
  <way id="3182111" version="11" timestamp="2012-04-27T01:29:12Z" uid="82317" user="AM909" changeset="11429194">
    <nd ref="268548023"/>
    <nd ref="123207073"/>
    <nd ref="502752378"/>
    <nd ref="502752380"/>
    <nd ref="15291938"/>
    <tag k="highway" v="residential"/>
    <tag k="name" v="Campbell Avenue"/>
    <tag k="odbl" v="clean"/>
    <tag k="source" v="bing_imagery_0.06m_200801;survey;image"/>
    <tag k="source_ref" v="AM909_DSCW8800"/>
  </way>
</osm>
