<?xml version='1.0' encoding='UTF-8'?>
<osm version="0.6" generator="libosmium/2.20.0">
  <way id="31934740" version="6" timestamp="2010-04-03T13:45:08Z" uid="20587" user="balrog-kun" changeset="4312927">
    <nd ref="83626268"/>
    <nd ref="83626270"/>
    <nd ref="83563724"/>
    <tag k="created_by" v="Potlatch 0.10f"/>
    <tag k="highway" v="secondary"/>
    <tag k="name" v="East 300 North"/>
    <tag k="name_1" v="East 3rd North"/>
    <tag k="ref" v="SR-186"/>
    <tag k="tiger:cfcc" v="A41"/>
    <tag k="tiger:county" v="Salt Lake, UT"/>
    <tag k="tiger:name_base" v="300 North"/>
    <tag k="tiger:name_base_1" v="3rd North"/>
    <tag k="tiger:name_direction_prefix" v="E"/>
    <tag k="tiger:name_direction_prefix_1" v="E"/>
    <tag k="tiger:reviewed" v="no"/>
    <tag k="tiger:separated" v="no"/>
    <tag k="tiger:source" v="tiger_import_dch_v0.6_20070830"/>
    <tag k="tiger:tlid" v="176097178"/>
  </way>
  <way id="31934740" version="7" timestamp="2010-08-05T07:19:03Z" uid="321736" user="Kevin Atkinson" changeset="5405091">
    <nd ref="83626268"/>
    <nd ref="83626270"/>
    <nd ref="83563724"/>
    <tag k="highway" v="secondary"/>
    <tag k="loc_name" v="3rd North"/>
    <tag k="name" v="300 North"/>
    <tag k="name:full" v="East 300 North"/>
    <tag k="name:prefix" v="E"/>
    <tag k="ref" v="SR-186"/>
    <tag k="tiger:cfcc" v="A41"/>
    <tag k="tiger:county" v="Salt Lake, UT"/>
    <tag k="tiger:name_base" v="300 North"/>
    <tag k="tiger:name_base_1" v="3rd North"/>
    <tag k="tiger:name_direction_prefix" v="E"/>
    <tag k="tiger:name_direction_prefix_1" v="E"/>
    <tag k="tiger:reviewed" v="no"/>
    <tag k="tiger:separated" v="no"/>
    <tag k="tiger:source" v="tiger_import_dch_v0.6_20070830"/>
    <tag k="tiger:tlid" v="176097178"/>
  </way>
  <way id="31934740" version="8" timestamp="2012-03-06T23:06:48Z" uid="8909" user="mvexel" changeset="10895526">
    <nd ref="83626268"/>
    <nd ref="1663354205"/>
    <nd ref="83626270"/>
    <nd ref="1663354210"/>
    <nd ref="1663354211"/>
    <nd ref="83563724"/>
    <tag k="highway" v="secondary"/>
    <tag k="loc_name" v="3rd North"/>
    <tag k="name" v="300 North"/>
    <tag k="name:full" v="East 300 North"/>
    <tag k="name:prefix" v="E"/>
    <tag k="ref" v="SR-186"/>
    <tag k="tiger:cfcc" v="A41"/>
    <tag k="tiger:county" v="Salt Lake, UT"/>
    <tag k="tiger:name_base" v="300 North"/>
    <tag k="tiger:name_base_1" v="3rd North"/>
    <tag k="tiger:name_direction_prefix" v="E"/>
    <tag k="tiger:name_direction_prefix_1" v="E"/>
    <tag k="tiger:reviewed" v="no"/>
    <tag k="tiger:separated" v="no"/>
    <tag k="tiger:source" v="tiger_import_dch_v0.6_20070830"/>
    <tag k="tiger:tlid" v="176097178"/>
  </way>
</osm>
