<?xml version='1.0' encoding='UTF-8'?>
<osm version="0.6" generator="libosmium/2.20.0">
  <way id="31996065" version="2" timestamp="2010-07-08T17:22:11Z" uid="74617" user="JohnSmith" changeset="5167338">
    <nd ref="358610376"/>
    <nd ref="358610387"/>
    <nd ref="358610396"/>
    <nd ref="358610408"/>
    <nd ref="358610417"/>
    <nd ref="358610425"/>
    <nd ref="358610435"/>
    <nd ref="358610443"/>
    <nd ref="358610451"/>
    <nd ref="358610463"/>
    <nd ref="358610478"/>
    <nd ref="358610493"/>
    <nd ref="358610507"/>
    <nd ref="358610534"/>
    <nd ref="358610546"/>
    <nd ref="358610558"/>
    <tag k="highway" v="residential"/>
    <tag k="maxspeed" v="50"/>
    <tag k="maxspeed:source" v="default residential speed limit in Australia"/>
    <tag k="name" v="Greenfinch Way"/>
    <tag k="surface" v="paved"/>
  </way>
  <way id="31996065" version="3" timestamp="2012-01-18T11:36:02Z" uid="147510" user="woodpeck_fixbot" changeset="10425524">
    <nd ref="358610376"/>
    <nd ref="358610387"/>
    <nd ref="358610396"/>
    <nd ref="358610408"/>
    <nd ref="358610417"/>
    <nd ref="358610425"/>
    <nd ref="358610435"/>
    <nd ref="358610443"/>
    <nd ref="358610451"/>
    <nd ref="358610463"/>
    <nd ref="358610478"/>
    <nd ref="358610493"/>
    <nd ref="358610507"/>
    <nd ref="358610534"/>
    <nd ref="358610546"/>
    <nd ref="358610558"/>
    <tag k="highway" v="residential"/>
    <tag k="name" v="Greenfinch Way"/>
    <tag k="surface" v="paved"/>
  </way>
  <way id="31996076" version="2" timestamp="2010-07-08T17:15:47Z" uid="74617" user="JohnSmith" changeset="5167338">
    <nd ref="358610570"/>
    <nd ref="358610579"/>
    <nd ref="358610591"/>
    <nd ref="358610602"/>
    <nd ref="358610387"/>
    <tag k="highway" v="residential"/>
    <tag k="maxspeed" v="50"/>
    <tag k="maxspeed:source" v="default residential speed limit in Australia"/>
    <tag k="name" v="Sunhill Court"/>
    <tag k="surface" v="paved"/>
  </way>
  <way id="31996076" version="3" timestamp="2012-01-18T11:36:13Z" uid="147510" user="woodpeck_fixbot" changeset="10425524">
    <nd ref="358610570"/>
    <nd ref="358610579"/>
    <nd ref="358610591"/>
    <nd ref="358610602"/>
    <nd ref="358610387"/>
    <tag k="highway" v="residential"/>
    <tag k="name" v="Sunhill Court"/>
    <tag k="surface" v="paved"/>
  </way>
  <way id="31996081" version="2" timestamp="2010-07-08T17:16:01Z" uid="74617" user="JohnSmith" changeset="5167338">
    <nd ref="358610611"/>
    <nd ref="358610627"/>
    <nd ref="358610706"/>
    <nd ref="358610639"/>
    <nd ref="358610651"/>
    <nd ref="358610660"/>
    <nd ref="358610668"/>
    <nd ref="358610674"/>
    <nd ref="358610686"/>
    <nd ref="349008654"/>
    <tag k="highway" v="residential"/>
    <tag k="maxspeed" v="50"/>
    <tag k="maxspeed:source" v="default residential speed limit in Australia"/>
    <tag k="name" v="Xavier Court"/>
  </way>
  <way id="31996081" version="3" timestamp="2012-01-18T11:36:47Z" uid="147510" user="woodpeck_fixbot" changeset="10425524">
    <nd ref="358610611"/>
    <nd ref="358610627"/>
    <nd ref="358610706"/>
    <nd ref="358610639"/>
    <nd ref="358610651"/>
    <nd ref="358610660"/>
    <nd ref="358610668"/>
    <nd ref="358610674"/>
    <nd ref="358610686"/>
    <nd ref="349008654"/>
    <tag k="highway" v="residential"/>
    <tag k="name" v="Xavier Court"/>
  </way>
  <way id="31996088" version="3" timestamp="2010-07-08T17:21:08Z" uid="74617" user="JohnSmith" changeset="5167338">
    <nd ref="358610699"/>
    <nd ref="358610627"/>
    <tag k="highway" v="residential"/>
    <tag k="maxspeed" v="50"/>
    <tag k="maxspeed:source" v="default residential speed limit in Australia"/>
    <tag k="name" v="Xavier Court"/>
    <tag k="surface" v="paved"/>
  </way>
  <way id="31996088" version="4" timestamp="2012-01-18T11:36:56Z" uid="147510" user="woodpeck_fixbot" changeset="10425524">
    <nd ref="358610699"/>
    <nd ref="358610627"/>
    <tag k="highway" v="residential"/>
    <tag k="name" v="Xavier Court"/>
    <tag k="surface" v="paved"/>
  </way>
  <way id="31996092" version="2" timestamp="2010-07-08T17:19:33Z" uid="74617" user="JohnSmith" changeset="5167338">
    <nd ref="358610706"/>
    <nd ref="358610714"/>
    <tag k="highway" v="residential"/>
    <tag k="maxspeed" v="50"/>
    <tag k="maxspeed:source" v="default residential speed limit in Australia"/>
    <tag k="name" v="Kates Court"/>
    <tag k="surface" v="paved"/>
  </way>
  <way id="31996092" version="3" timestamp="2012-01-18T11:37:03Z" uid="147510" user="woodpeck_fixbot" changeset="10425524">
    <nd ref="358610706"/>
    <nd ref="358610714"/>
    <tag k="highway" v="residential"/>
    <tag k="name" v="Kates Court"/>
    <tag k="surface" v="paved"/>
  </way>
  <way id="31996561" version="5" timestamp="2010-03-28T01:15:19Z" uid="20587" user="balrog-kun" changeset="4250871">
    <nd ref="90414521"/>
    <nd ref="90274127"/>
    <nd ref="90475371"/>
    <nd ref="90475368"/>
    <nd ref="90475361"/>
    <nd ref="90475357"/>
    <nd ref="90249258"/>
    <nd ref="90475354"/>
    <nd ref="90475352"/>
    <nd ref="90275318"/>
    <tag k="highway" v="secondary"/>
    <tag k="name" v="Sunrise Boulevard"/>
    <tag k="oneway" v="yes"/>
    <tag k="ref" v="E2"/>
    <tag k="tiger:cfcc" v="A41"/>
    <tag k="tiger:county" v="Sacramento, CA"/>
    <tag k="tiger:name_base" v="Sunrise"/>
    <tag k="tiger:name_type" v="Blvd"/>
    <tag k="tiger:reviewed" v="no"/>
    <tag k="tiger:separated" v="no"/>
    <tag k="tiger:source" v="tiger_import_dch_v0.6_20070809"/>
    <tag k="tiger:tlid" v="133346055:133346061:133362194:133346152"/>
    <tag k="tiger:zip_left" v="95628"/>
    <tag k="tiger:zip_right" v="95628"/>
  </way>
  <way id="31996561" version="6" timestamp="2011-08-30T03:46:26Z" uid="513142" user="Sonzai" changeset="9163600">
    <nd ref="90414521"/>
    <nd ref="90274127"/>
    <nd ref="90475371"/>
    <nd ref="90475368"/>
    <nd ref="90475361"/>
    <nd ref="90475357"/>
    <nd ref="90249258"/>
    <nd ref="90475354"/>
    <nd ref="90475352"/>
    <nd ref="90275318"/>
    <tag k="highway" v="primary"/>
    <tag k="name" v="Sunrise Boulevard"/>
    <tag k="oneway" v="yes"/>
    <tag k="ref" v="E2"/>
    <tag k="tiger:cfcc" v="A41"/>
    <tag k="tiger:county" v="Sacramento, CA"/>
    <tag k="tiger:name_base" v="Sunrise"/>
    <tag k="tiger:name_type" v="Blvd"/>
    <tag k="tiger:reviewed" v="no"/>
    <tag k="tiger:separated" v="no"/>
    <tag k="tiger:source" v="tiger_import_dch_v0.6_20070809"/>
    <tag k="tiger:tlid" v="133346055:133346061:133362194:133346152"/>
    <tag k="tiger:zip_left" v="95628"/>
    <tag k="tiger:zip_right" v="95628"/>
  </way>
  <way id="31996561" version="7" timestamp="2012-08-26T23:48:43Z" uid="207745" user="NE2" changeset="12873214">
    <nd ref="90414521"/>
    <nd ref="90274127"/>
    <nd ref="90475371"/>
    <nd ref="90475368"/>
    <nd ref="90475361"/>
    <nd ref="90475357"/>
    <nd ref="90249258"/>
    <nd ref="90475354"/>
    <nd ref="90475352"/>
    <nd ref="90275318"/>
    <tag k="highway" v="primary"/>
    <tag k="name" v="Sunrise Boulevard"/>
    <tag k="oneway" v="yes"/>
    <tag k="ref" v="CR E2"/>
    <tag k="tiger:cfcc" v="A41"/>
    <tag k="tiger:county" v="Sacramento, CA"/>
    <tag k="tiger:name_base" v="Sunrise"/>
    <tag k="tiger:name_type" v="Blvd"/>
    <tag k="tiger:reviewed" v="no"/>
    <tag k="tiger:separated" v="no"/>
    <tag k="tiger:source" v="tiger_import_dch_v0.6_20070809"/>
    <tag k="tiger:tlid" v="133346055:133346061:133362194:133346152"/>
    <tag k="tiger:zip_left" v="95628"/>
    <tag k="tiger:zip_right" v="95628"/>
  </way>
</osm>
