<?xml version='1.0' encoding='UTF-8'?>
<osm version="0.6" generator="libosmium/2.20.0">
  <way id="32113054" version="17" timestamp="2010-04-03T04:11:54Z" uid="20587" user="balrog-kun" changeset="4309442">
    <nd ref="364060099"/>
    <nd ref="473373312"/>
    <nd ref="175272525"/>
    <nd ref="473373313"/>
    <nd ref="175272521"/>
    <nd ref="473373314"/>
    <nd ref="175272516"/>
    <nd ref="175272514"/>
    <nd ref="175272510"/>
    <nd ref="175262209"/>
    <nd ref="175262122"/>
    <nd ref="175051401"/>
    <tag k="highway" v="secondary"/>
    <tag k="name" v="East Tanque Verde Road"/>
    <tag k="oneway" v="yes"/>
    <tag k="tiger:cfcc" v="A41"/>
    <tag k="tiger:county" v="Pima, AZ"/>
    <tag k="tiger:name_base" v="Tanque Verde"/>
    <tag k="tiger:name_direction_prefix" v="E"/>
    <tag k="tiger:name_type" v="Rd"/>
    <tag k="tiger:reviewed" v="no"/>
    <tag k="tiger:separated" v="no"/>
    <tag k="tiger:source" v="tiger_import_dch_v0.6_20070809"/>
    <tag k="tiger:tlid" v="121192727:121200461:121189462:121207931:121402795:121189441:121189446:121402877:121188565:121412980:121189374:121188563:121188562:121192644:121199655:121395150:121188527:121188532:121188533:121408451:121188520:121188522:121405253:121405254:121188062:12118"/>
    <tag k="tiger:zip_left" v="85749"/>
    <tag k="tiger:zip_right" v="85749"/>
  </way>
  <way id="32113061" version="1" timestamp="2009-03-14T20:39:31Z" uid="6269" user="Mueck" changeset="807216">
    <nd ref="360414764"/>
    <nd ref="360414858"/>
    <nd ref="360414859"/>
    <nd ref="360414860"/>
    <tag k="created_by" v="Potlatch 0.10f"/>
  </way>
  <way id="32113061" version="2" timestamp="2009-03-14T20:39:51Z" uid="6269" user="Mueck" changeset="807216">
    <nd ref="360414764"/>
    <nd ref="360414858"/>
    <nd ref="360414859"/>
    <nd ref="360414860"/>
    <tag k="created_by" v="Potlatch 0.10f"/>
    <tag k="highway" v="track"/>
    <tag k="smoothness" v="bad"/>
    <tag k="surface" v="ground"/>
    <tag k="tracktype" v="grade5"/>
  </way>
  <way id="32113061" version="3" timestamp="2009-11-14T18:56:27Z" uid="85761" user="klausis" changeset="3115920">
    <nd ref="360414764"/>
    <nd ref="360414858"/>
    <nd ref="360414859"/>
    <nd ref="360414860"/>
    <tag k="highway" v="track"/>
    <tag k="smoothness" v="bad"/>
    <tag k="surface" v="ground"/>
    <tag k="tracktype" v="grade5"/>
  </way>
  <way id="32113092" version="1" timestamp="2009-03-14T20:40:44Z" uid="6269" user="Mueck" changeset="807216">
    <nd ref="360415426"/>
    <nd ref="360415428"/>
    <tag k="created_by" v="Potlatch 0.10f"/>
  </way>
  <way id="32113092" version="2" timestamp="2009-03-14T20:40:59Z" uid="6269" user="Mueck" changeset="807216">
    <nd ref="360415602"/>
    <nd ref="360415604"/>
    <nd ref="360415426"/>
    <nd ref="360415428"/>
    <tag k="created_by" v="Potlatch 0.10f"/>
  </way>
  <way id="32113092" version="3" timestamp="2009-03-14T20:41:21Z" uid="6269" user="Mueck" changeset="807216">
    <nd ref="360415602"/>
    <nd ref="360415604"/>
    <nd ref="360415426"/>
    <nd ref="360415428"/>
    <tag k="created_by" v="Potlatch 0.10f"/>
    <tag k="highway" v="track"/>
    <tag k="noexit" v="yes"/>
    <tag k="smoothness" v="bad"/>
    <tag k="surface" v="ground"/>
    <tag k="tracktype" v="grade5"/>
  </way>
  <way id="32113092" version="4" timestamp="2009-03-14T20:41:49Z" uid="6269" user="Mueck" changeset="807216">
    <nd ref="360416115"/>
    <nd ref="360415602"/>
    <nd ref="360415604"/>
    <nd ref="360415426"/>
    <nd ref="360415428"/>
    <tag k="created_by" v="Potlatch 0.10f"/>
    <tag k="highway" v="track"/>
    <tag k="noexit" v="yes"/>
    <tag k="smoothness" v="bad"/>
    <tag k="surface" v="ground"/>
    <tag k="tracktype" v="grade5"/>
  </way>
  <way id="32113092" version="5" timestamp="2009-03-14T20:43:06Z" uid="6269" user="Mueck" changeset="807216">
    <nd ref="360416115"/>
    <nd ref="360415604"/>
    <nd ref="360415426"/>
    <nd ref="360415428"/>
    <tag k="created_by" v="Potlatch 0.10f"/>
    <tag k="highway" v="track"/>
    <tag k="noexit" v="yes"/>
    <tag k="note" v="zu Hochstand"/>
    <tag k="smoothness" v="bad"/>
    <tag k="surface" v="ground"/>
    <tag k="tracktype" v="grade5"/>
  </way>
  <way id="32113092" version="6" timestamp="2009-11-14T18:56:26Z" uid="85761" user="klausis" changeset="3115920">
    <nd ref="360416115"/>
    <nd ref="360415604"/>
    <nd ref="360415426"/>
    <nd ref="360415428"/>
    <tag k="highway" v="track"/>
    <tag k="noexit" v="yes"/>
    <tag k="note" v="zu Hochstand"/>
    <tag k="smoothness" v="bad"/>
    <tag k="surface" v="ground"/>
    <tag k="tracktype" v="grade5"/>
  </way>
  <way id="32113100" version="1" timestamp="2009-03-14T20:40:46Z" uid="6269" user="Mueck" changeset="807216">
    <nd ref="360415461"/>
    <nd ref="360415426"/>
    <tag k="created_by" v="Potlatch 0.10f"/>
  </way>
  <way id="32113100" version="2" timestamp="2009-03-14T20:42:12Z" uid="6269" user="Mueck" changeset="807216">
    <nd ref="360415461"/>
    <nd ref="360415426"/>
    <tag k="created_by" v="Potlatch 0.10f"/>
    <tag k="note" v="Weg offenbar aufgehoben"/>
  </way>
  <way id="32113100" version="3" timestamp="2009-05-25T11:10:56Z" uid="6269" user="Mueck" changeset="1315432">
    <nd ref="360415461"/>
    <nd ref="360415426"/>
    <tag k="created_by" v="Potlatch 0.10f"/>
    <tag k="highway" v="no"/>
    <tag k="note" v="Weg offenbar aufgehoben"/>
    <tag k="smoothness" v="impassable"/>
  </way>
  <way id="32113100" version="4" timestamp="2009-11-14T18:56:27Z" uid="85761" user="klausis" changeset="3115920">
    <nd ref="360415461"/>
    <nd ref="360415426"/>
    <tag k="highway" v="no"/>
    <tag k="note" v="Weg offenbar aufgehoben"/>
    <tag k="smoothness" v="impassable"/>
  </way>
  <way id="32113104" version="1" timestamp="2009-03-14T20:40:49Z" uid="6269" user="Mueck" changeset="807216">
    <nd ref="360414996"/>
    <nd ref="360415485"/>
    <nd ref="360414858"/>
    <nd ref="360415488"/>
    <nd ref="360415489"/>
    <nd ref="360415461"/>
    <tag k="created_by" v="Potlatch 0.10f"/>
  </way>
  <way id="32113104" version="2" timestamp="2009-03-14T20:41:04Z" uid="6269" user="Mueck" changeset="807216">
    <nd ref="360414996"/>
    <nd ref="360415485"/>
    <nd ref="360414858"/>
    <nd ref="360415488"/>
    <nd ref="360415489"/>
    <nd ref="360415461"/>
    <tag k="created_by" v="Potlatch 0.10f"/>
    <tag k="highway" v="track"/>
    <tag k="smoothness" v="bad"/>
    <tag k="surface" v="ground"/>
    <tag k="tracktype" v="grade5"/>
  </way>
  <way id="32113104" version="3" timestamp="2009-03-14T20:41:29Z" uid="6269" user="Mueck" changeset="807216">
    <nd ref="360414996"/>
    <nd ref="360415485"/>
    <nd ref="360414858"/>
    <nd ref="360415488"/>
    <nd ref="360415489"/>
    <nd ref="360415461"/>
    <tag k="created_by" v="Potlatch 0.10f"/>
    <tag k="highway" v="track"/>
    <tag k="noexit" v="yes"/>
    <tag k="smoothness" v="bad"/>
    <tag k="surface" v="ground"/>
    <tag k="tracktype" v="grade5"/>
  </way>
  <way id="32113104" version="4" timestamp="2009-03-14T20:41:57Z" uid="6269" user="Mueck" changeset="807216">
    <nd ref="360414996"/>
    <nd ref="360415485"/>
    <nd ref="360414858"/>
    <nd ref="360415488"/>
    <nd ref="360415489"/>
    <nd ref="360415461"/>
    <tag k="created_by" v="Potlatch 0.10f"/>
    <tag k="highway" v="track"/>
    <tag k="noexit" v="yes"/>
    <tag k="smoothness" v="bad"/>
    <tag k="surface" v="ground"/>
    <tag k="tracktype" v="grade5"/>
  </way>
  <way id="32113104" version="5" timestamp="2009-03-14T20:43:39Z" uid="6269" user="Mueck" changeset="807216">
    <nd ref="360414996"/>
    <nd ref="360415485"/>
    <nd ref="360414858"/>
    <nd ref="360415488"/>
    <nd ref="360415489"/>
    <nd ref="360415461"/>
    <tag k="created_by" v="Potlatch 0.10f"/>
    <tag k="highway" v="track"/>
    <tag k="noexit" v="yes"/>
    <tag k="smoothness" v="bad"/>
    <tag k="surface" v="ground"/>
    <tag k="tracktype" v="grade5"/>
  </way>
  <way id="32113104" version="6" timestamp="2009-11-14T18:56:26Z" uid="85761" user="klausis" changeset="3115920">
    <nd ref="360414996"/>
    <nd ref="360415485"/>
    <nd ref="360414858"/>
    <nd ref="360415488"/>
    <nd ref="360415489"/>
    <nd ref="360415461"/>
    <tag k="highway" v="track"/>
    <tag k="noexit" v="yes"/>
    <tag k="smoothness" v="bad"/>
    <tag k="surface" v="ground"/>
    <tag k="tracktype" v="grade5"/>
  </way>
  <way id="32113148" version="4" timestamp="2010-04-03T04:11:55Z" uid="20587" user="balrog-kun" changeset="4309442">
    <nd ref="360414663"/>
    <nd ref="360414666"/>
    <tag k="bridge" v="yes"/>
    <tag k="created_by" v="Potlatch 0.10f"/>
    <tag k="highway" v="secondary"/>
    <tag k="layer" v="1"/>
    <tag k="name" v="East Tanque Verde Road"/>
    <tag k="oneway" v="yes"/>
  </way>
  <way id="32113155" version="12" timestamp="2010-04-03T04:11:55Z" uid="20587" user="balrog-kun" changeset="4309442">
    <nd ref="360414666"/>
    <nd ref="360416909"/>
    <nd ref="360417138"/>
    <nd ref="360428436"/>
    <tag k="created_by" v="Potlatch 0.10f"/>
    <tag k="highway" v="secondary"/>
    <tag k="name" v="East Tanque Verde Road"/>
    <tag k="oneway" v="yes"/>
  </way>
  <way id="32113157" version="7" timestamp="2010-04-03T04:11:55Z" uid="20587" user="balrog-kun" changeset="4309442">
    <nd ref="175272490"/>
    <nd ref="360415450"/>
    <nd ref="360415452"/>
    <nd ref="360415454"/>
    <nd ref="175272445"/>
    <nd ref="364060213"/>
    <nd ref="473373319"/>
    <nd ref="473373320"/>
    <nd ref="175272492"/>
    <nd ref="175272500"/>
    <nd ref="473373315"/>
    <nd ref="364060062"/>
    <nd ref="364060065"/>
    <nd ref="364060066"/>
    <nd ref="364060067"/>
    <nd ref="364060143"/>
    <nd ref="364060144"/>
    <nd ref="364060099"/>
    <tag k="highway" v="secondary"/>
    <tag k="name" v="East Tanque Verde Road"/>
    <tag k="oneway" v="yes"/>
    <tag k="tiger:cfcc" v="A41"/>
    <tag k="tiger:county" v="Pima, AZ"/>
    <tag k="tiger:name_base" v="Tanque Verde"/>
    <tag k="tiger:name_direction_prefix" v="E"/>
    <tag k="tiger:name_type" v="Rd"/>
    <tag k="tiger:reviewed" v="no"/>
    <tag k="tiger:separated" v="no"/>
    <tag k="tiger:source" v="tiger_import_dch_v0.6_20070809"/>
    <tag k="tiger:tlid" v="121192727:121200461:121189462:121207931:121402795:121189441:121189446:121402877:121188565:121412980:121189374:121188563:121188562:121192644:121199655:121395150:121188527:121188532:121188533:121408451:121188520:121188522:121405253:121405254:121188062:12118"/>
    <tag k="tiger:zip_left" v="85749"/>
    <tag k="tiger:zip_right" v="85749"/>
  </way>
  <way id="32113158" version="3" timestamp="2010-04-03T04:11:55Z" uid="20587" user="balrog-kun" changeset="4309442">
    <nd ref="175272485"/>
    <nd ref="175272490"/>
    <tag k="bridge" v="yes"/>
    <tag k="created_by" v="Potlatch 0.10f"/>
    <tag k="highway" v="secondary"/>
    <tag k="layer" v="1"/>
    <tag k="name" v="East Tanque Verde Road"/>
    <tag k="oneway" v="yes"/>
    <tag k="tiger:cfcc" v="A41"/>
    <tag k="tiger:county" v="Pima, AZ"/>
    <tag k="tiger:name_base" v="Tanque Verde"/>
    <tag k="tiger:name_direction_prefix" v="E"/>
    <tag k="tiger:name_type" v="Rd"/>
    <tag k="tiger:reviewed" v="no"/>
    <tag k="tiger:separated" v="no"/>
    <tag k="tiger:source" v="tiger_import_dch_v0.6_20070809"/>
    <tag k="tiger:tlid" v="121192727:121200461:121189462:121207931:121402795:121189441:121189446:121402877:121188565:121412980:121189374:121188563:121188562:121192644:121199655:121395150:121188527:121188532:121188533:121408451:121188520:121188522:121405253:121405254:121188062:12118"/>
    <tag k="tiger:zip_left" v="85749"/>
    <tag k="tiger:zip_right" v="85749"/>
  </way>
  <way id="32113206" version="1" timestamp="2009-03-14T20:43:18Z" uid="6269" user="Mueck" changeset="807216">
    <nd ref="360416738"/>
    <nd ref="360416739"/>
    <nd ref="360416115"/>
    <nd ref="360416741"/>
    <nd ref="360416738"/>
    <tag k="created_by" v="Potlatch 0.10f"/>
  </way>
  <way id="32113206" version="2" timestamp="2009-11-14T18:56:25Z" uid="85761" user="klausis" changeset="3115920">
    <nd ref="360416738"/>
    <nd ref="360416739"/>
    <nd ref="360416115"/>
    <nd ref="360416741"/>
    <nd ref="360416738"/>
  </way>
  <way id="32113219" version="1" timestamp="2009-03-14T20:44:00Z" uid="6269" user="Mueck" changeset="807216">
    <nd ref="360416967"/>
    <nd ref="360415485"/>
    <nd ref="360416968"/>
    <tag k="created_by" v="Potlatch 0.10f"/>
    <tag k="note" v="Rückeweg"/>
  </way>
  <way id="32113219" version="2" timestamp="2009-05-25T11:04:20Z" uid="6269" user="Mueck" changeset="1315274">
    <nd ref="360416967"/>
    <nd ref="360415485"/>
    <nd ref="360416968"/>
    <tag k="created_by" v="Potlatch 0.10f"/>
    <tag k="highway" v="no"/>
    <tag k="note" v="Rückeweg"/>
    <tag k="smoothness" v="very_horrible"/>
  </way>
  <way id="32113219" version="3" timestamp="2009-11-14T18:56:19Z" uid="85761" user="klausis" changeset="3115920">
    <nd ref="360416967"/>
    <nd ref="360415485"/>
    <nd ref="360416968"/>
    <tag k="highway" v="no"/>
    <tag k="note" v="Rückeweg"/>
    <tag k="smoothness" v="very_horrible"/>
  </way>
  <way id="32113223" version="1" timestamp="2009-03-14T20:44:20Z" uid="6269" user="Mueck" changeset="807216">
    <nd ref="360417000"/>
    <nd ref="360415488"/>
    <nd ref="360417091"/>
    <tag k="created_by" v="Potlatch 0.10f"/>
    <tag k="note" v="Rückeweg"/>
  </way>
  <way id="32113223" version="2" timestamp="2009-05-25T11:04:17Z" uid="6269" user="Mueck" changeset="1315274">
    <nd ref="360417000"/>
    <nd ref="360415488"/>
    <nd ref="360417091"/>
    <tag k="created_by" v="Potlatch 0.10f"/>
    <tag k="highway" v="no"/>
    <tag k="note" v="Rückeweg"/>
    <tag k="smoothness" v="very_horrible"/>
  </way>
  <way id="32113223" version="3" timestamp="2009-11-14T18:56:19Z" uid="85761" user="klausis" changeset="3115920">
    <nd ref="360417000"/>
    <nd ref="360415488"/>
    <nd ref="360417091"/>
    <tag k="highway" v="no"/>
    <tag k="note" v="Rückeweg"/>
    <tag k="smoothness" v="very_horrible"/>
  </way>
  <way id="32113349" version="1" timestamp="2009-03-14T20:47:09Z" uid="6269" user="Mueck" changeset="807216">
    <nd ref="25931465"/>
    <nd ref="360418533"/>
    <nd ref="360418612"/>
    <tag k="created_by" v="Potlatch 0.10f"/>
  </way>
  <way id="32113349" version="2" timestamp="2009-03-14T20:47:29Z" uid="6269" user="Mueck" changeset="807216">
    <nd ref="25931465"/>
    <nd ref="360418533"/>
    <tag k="created_by" v="Potlatch 0.10f"/>
    <tag k="highway" v="track"/>
    <tag k="smoothness" v="intermediate"/>
    <tag k="surface" v="gravel"/>
    <tag k="tracktype" v="grade4"/>
  </way>
  <way id="32113349" version="3" timestamp="2009-03-14T20:47:37Z" uid="6269" user="Mueck" changeset="807216">
    <nd ref="25931465"/>
    <nd ref="360418533"/>
    <tag k="created_by" v="Potlatch 0.10f"/>
    <tag k="highway" v="track"/>
    <tag k="smoothness" v="intermediate"/>
    <tag k="surface" v="ground"/>
    <tag k="tracktype" v="grade5"/>
  </way>
  <way id="32113349" version="4" timestamp="2009-03-14T21:01:13Z" uid="6269" user="Mueck" changeset="807216">
    <nd ref="25931465"/>
    <nd ref="360424030"/>
    <nd ref="360418533"/>
    <tag k="created_by" v="Potlatch 0.10f"/>
    <tag k="highway" v="track"/>
    <tag k="smoothness" v="intermediate"/>
    <tag k="surface" v="ground"/>
    <tag k="tracktype" v="grade5"/>
  </way>
  <way id="32113367" version="1" timestamp="2009-03-14T20:47:26Z" uid="6269" user="Mueck" changeset="807216">
    <nd ref="360418533"/>
    <nd ref="360418612"/>
    <tag k="created_by" v="Potlatch 0.10f"/>
    <tag k="highway" v="track"/>
    <tag k="smoothness" v="intermediate"/>
    <tag k="surface" v="gravel"/>
    <tag k="tracktype" v="grade4"/>
  </way>
  <way id="32113367" version="2" timestamp="2009-03-14T20:59:40Z" uid="6269" user="Mueck" changeset="807216">
    <nd ref="360418533"/>
    <nd ref="360423477"/>
    <nd ref="360418612"/>
    <tag k="created_by" v="Potlatch 0.10f"/>
    <tag k="highway" v="track"/>
    <tag k="smoothness" v="intermediate"/>
    <tag k="surface" v="gravel"/>
    <tag k="tracktype" v="grade4"/>
  </way>
  <way id="32113367" version="3" timestamp="2009-06-04T14:03:45Z" uid="6269" user="Mueck" changeset="1421087">
    <nd ref="360418533"/>
    <nd ref="360423477"/>
    <nd ref="360418612"/>
    <tag k="created_by" v="Potlatch 0.10f"/>
    <tag k="highway" v="track"/>
    <tag k="smoothness" v="intermediate"/>
    <tag k="surface" v="compacted"/>
    <tag k="tracktype" v="grade4"/>
  </way>
  <way id="32113417" version="5" timestamp="2009-03-16T23:26:54Z" uid="34428" user="usm78-gis" changeset="823928">
    <nd ref="360419292"/>
    <nd ref="360419293"/>
    <nd ref="360420043"/>
    <nd ref="360420555"/>
    <nd ref="360419296"/>
    <nd ref="360419299"/>
    <tag k="created_by" v="Potlatch 0.10f"/>
    <tag k="highway" v="unclassified"/>
    <tag k="oneway" v="yes"/>
  </way>
  <way id="32113417" version="6" timestamp="2009-03-17T00:26:01Z" uid="34428" user="usm78-gis" changeset="823928">
    <nd ref="360419292"/>
    <nd ref="360419293"/>
    <nd ref="360420043"/>
    <nd ref="360420555"/>
    <nd ref="360419296"/>
    <nd ref="360419299"/>
    <tag k="created_by" v="Potlatch 0.10f"/>
    <tag k="highway" v="unclassified"/>
    <tag k="oneway" v="yes"/>
  </way>
  <way id="32113417" version="7" timestamp="2009-03-28T20:06:02Z" uid="34428" user="usm78-gis" changeset="865258">
    <nd ref="360419292"/>
    <nd ref="360419293"/>
    <nd ref="360420043"/>
    <tag k="created_by" v="Potlatch 0.10f"/>
    <tag k="highway" v="unclassified"/>
    <tag k="oneway" v="yes"/>
  </way>
  <way id="32113417" version="8" timestamp="2009-06-03T08:23:03Z" uid="81821" user="alexsaf" changeset="1411010">
    <nd ref="360419292"/>
    <nd ref="415280320"/>
    <nd ref="360419293"/>
    <nd ref="360420043"/>
    <tag k="created_by" v="Potlatch 0.10f"/>
    <tag k="highway" v="unclassified"/>
    <tag k="oneway" v="yes"/>
  </way>
  <way id="32113417" version="9" timestamp="2010-01-16T07:04:03Z" uid="24305" user="ZCC" changeset="3629466">
    <nd ref="360419292"/>
    <nd ref="415280320"/>
    <tag k="highway" v="service"/>
    <tag k="oneway" v="yes"/>
  </way>
  <way id="32113417" version="10" timestamp="2011-07-25T01:20:12Z" uid="39040" user="Dinamik" changeset="8822594">
    <nd ref="360419292"/>
    <nd ref="415280320"/>
    <tag k="highway" v="residential"/>
    <tag k="oneway" v="yes"/>
  </way>
  <way id="32113417" version="11" timestamp="2011-09-21T13:17:34Z" uid="504828" user="leonm" changeset="9360365">
    <nd ref="360419292"/>
    <nd ref="415280320"/>
    <tag k="highway" v="residential"/>
    <tag k="name" v="Площадь Пулково 2"/>
    <tag k="oneway" v="yes"/>
  </way>
  <way id="32113417" version="12" timestamp="2012-01-15T20:29:24Z" uid="392109" user="GaM" changeset="10402993">
    <nd ref="360419292"/>
    <nd ref="415280320"/>
    <tag k="highway" v="service"/>
    <tag k="oneway" v="yes"/>
  </way>
  <way id="32113444" version="7" timestamp="2011-04-20T11:25:48Z" uid="115477" user="wowik" changeset="7915253">
    <nd ref="360417282"/>
    <nd ref="360417286"/>
    <nd ref="360417298"/>
    <nd ref="1067899920"/>
    <nd ref="1067899893"/>
    <nd ref="360417316"/>
    <nd ref="360417348"/>
    <nd ref="360417366"/>
    <nd ref="360417376"/>
    <nd ref="360417389"/>
    <nd ref="360417399"/>
    <nd ref="360417412"/>
    <nd ref="360417282"/>
    <tag k="addr:city" v="Москва"/>
    <tag k="addr:country" v="RU"/>
    <tag k="addr:housenumber" v="1"/>
    <tag k="addr:street" v="Большая Садовая улица"/>
    <tag k="building" v="yes"/>
    <tag k="cladr:code" v="77000000000254200"/>
    <tag k="name" v="Центральная Городская Юношеская Библиотека им. М.А. Светлова‎"/>
  </way>
  <way id="32113444" version="8" timestamp="2011-04-21T06:42:44Z" uid="24305" user="ZCC" changeset="7922488">
    <nd ref="360417282"/>
    <nd ref="360417286"/>
    <nd ref="360417298"/>
    <nd ref="1067899920"/>
    <nd ref="1067899893"/>
    <nd ref="360417316"/>
    <nd ref="360417348"/>
    <nd ref="360417366"/>
    <nd ref="360417376"/>
    <nd ref="360417389"/>
    <nd ref="360417399"/>
    <nd ref="360417412"/>
    <nd ref="360417282"/>
    <tag k="addr:city" v="Москва"/>
    <tag k="addr:country" v="RU"/>
    <tag k="addr:housenumber" v="1"/>
    <tag k="addr:postcode" v="123001"/>
    <tag k="addr:street" v="Большая Садовая улица"/>
    <tag k="building" v="yes"/>
    <tag k="cladr:code" v="77000000000254200"/>
    <tag k="name" v="Центральная Городская Юношеская Библиотека им. М.А. Светлова‎"/>
  </way>
  <way id="32113448" version="7" timestamp="2011-04-20T11:26:32Z" uid="115477" user="wowik" changeset="7915253">
    <nd ref="670501989"/>
    <nd ref="670631601"/>
    <nd ref="670631602"/>
    <nd ref="670501991"/>
    <nd ref="670501992"/>
    <nd ref="670501994"/>
    <nd ref="670501990"/>
    <nd ref="670501995"/>
    <nd ref="670501993"/>
    <nd ref="360418326"/>
    <nd ref="670502001"/>
    <nd ref="670502000"/>
    <nd ref="670501999"/>
    <nd ref="360418319"/>
    <nd ref="360418322"/>
    <nd ref="670501998"/>
    <nd ref="670501996"/>
    <nd ref="670501997"/>
    <nd ref="670501989"/>
    <tag k="addr:city" v="Москва"/>
    <tag k="addr:country" v="RU"/>
    <tag k="addr:housenumber" v="22-26"/>
    <tag k="addr:street" v="Ермолаевский переулок"/>
    <tag k="amenity" v="doctors"/>
    <tag k="building" v="yes"/>
    <tag k="cladr:code" v="77000000000702200"/>
  </way>
  <way id="32113448" version="8" timestamp="2011-06-01T16:50:34Z" uid="241531" user="dik_man" changeset="8311791">
    <nd ref="670501989"/>
    <nd ref="670631601"/>
    <nd ref="670631602"/>
    <nd ref="670501991"/>
    <nd ref="670501992"/>
    <nd ref="670501994"/>
    <nd ref="670501990"/>
    <nd ref="670501995"/>
    <nd ref="670501993"/>
    <nd ref="360418326"/>
    <nd ref="670502001"/>
    <nd ref="670502000"/>
    <nd ref="670501999"/>
    <nd ref="360418319"/>
    <nd ref="360418322"/>
    <nd ref="670501998"/>
    <nd ref="670501996"/>
    <nd ref="670501997"/>
    <nd ref="670501989"/>
    <tag k="addr:city" v="Москва"/>
    <tag k="addr:country" v="RU"/>
    <tag k="addr:housenumber" v="22-26 ст 1"/>
    <tag k="addr:street" v="Ермолаевский переулок"/>
    <tag k="amenity" v="doctors"/>
    <tag k="building" v="yes"/>
    <tag k="cladr:code" v="77000000000702200"/>
  </way>
  <way id="32113448" version="9" timestamp="2011-06-01T16:51:27Z" uid="241531" user="dik_man" changeset="8311797">
    <nd ref="670501989"/>
    <nd ref="670631601"/>
    <nd ref="670631602"/>
    <nd ref="670501991"/>
    <nd ref="670501992"/>
    <nd ref="670501994"/>
    <nd ref="670501990"/>
    <nd ref="670501995"/>
    <nd ref="670501993"/>
    <nd ref="360418326"/>
    <nd ref="670502001"/>
    <nd ref="670502000"/>
    <nd ref="670501999"/>
    <nd ref="360418319"/>
    <nd ref="360418322"/>
    <nd ref="670501998"/>
    <nd ref="670501996"/>
    <nd ref="670501997"/>
    <nd ref="670501989"/>
    <tag k="addr:city" v="Москва"/>
    <tag k="addr:country" v="RU"/>
    <tag k="addr:housenumber" v="22-26 с1"/>
    <tag k="addr:street" v="Ермолаевский переулок"/>
    <tag k="amenity" v="doctors"/>
    <tag k="building" v="yes"/>
    <tag k="cladr:code" v="77000000000702200"/>
  </way>
  <way id="32113449" version="4" timestamp="2011-04-20T11:26:43Z" uid="115477" user="wowik" changeset="7915253">
    <nd ref="360418334"/>
    <nd ref="360418341"/>
    <nd ref="360418344"/>
    <nd ref="360418337"/>
    <nd ref="360418334"/>
    <tag k="addr:city" v="Москва"/>
    <tag k="addr:country" v="RU"/>
    <tag k="addr:housenumber" v="28-30"/>
    <tag k="addr:street" v="Садовая-Кудринская улица"/>
    <tag k="building" v="yes"/>
    <tag k="cladr:code" v="77000000000255100"/>
  </way>
  <way id="32113450" version="7" timestamp="2011-04-20T11:25:57Z" uid="115477" user="wowik" changeset="7915253">
    <nd ref="360418347"/>
    <nd ref="360418352"/>
    <nd ref="360418354"/>
    <nd ref="360418349"/>
    <nd ref="360418347"/>
    <tag k="addr:city" v="Москва"/>
    <tag k="addr:country" v="RU"/>
    <tag k="addr:housenumber" v="26/40 с4"/>
    <tag k="addr:housenumber2" v="40/26 с4"/>
    <tag k="addr:street" v="Садовая-Кудринская улица"/>
    <tag k="addr:street2" v="улица Спиридоновка"/>
    <tag k="building" v="yes"/>
    <tag k="cladr:code" v="77000000000255100"/>
  </way>
  <way id="32113451" version="5" timestamp="2011-04-20T11:26:13Z" uid="115477" user="wowik" changeset="7915253">
    <nd ref="670660722"/>
    <nd ref="715786735"/>
    <nd ref="360418357"/>
    <nd ref="360418365"/>
    <nd ref="670660750"/>
    <nd ref="670660716"/>
    <nd ref="670660701"/>
    <nd ref="664020721"/>
    <nd ref="670660690"/>
    <nd ref="670660703"/>
    <nd ref="670660702"/>
    <nd ref="670660719"/>
    <nd ref="670660715"/>
    <nd ref="670660714"/>
    <nd ref="670660722"/>
    <tag k="addr:city" v="Москва"/>
    <tag k="addr:country" v="RU"/>
    <tag k="addr:housenumber" v="11"/>
    <tag k="addr:street" v="Садовая-Кудринская улица"/>
    <tag k="building" v="yes"/>
    <tag k="cladr:code" v="77000000000255100"/>
  </way>
  <way id="32113451" version="6" timestamp="2011-08-30T18:48:15Z" uid="433361" user="Dima M" changeset="9170068">
    <nd ref="670660722"/>
    <nd ref="715786735"/>
    <nd ref="360418357"/>
    <nd ref="360418365"/>
    <nd ref="670660750"/>
    <nd ref="670660716"/>
    <nd ref="670660701"/>
    <nd ref="664020721"/>
    <nd ref="670660690"/>
    <nd ref="670660703"/>
    <nd ref="670660702"/>
    <nd ref="670660719"/>
    <nd ref="670660715"/>
    <nd ref="670660714"/>
    <nd ref="670660722"/>
    <tag k="addr:city" v="Москва"/>
    <tag k="addr:country" v="RU"/>
    <tag k="addr:housenumber" v="11 c1"/>
    <tag k="addr:street" v="Садовая-Кудринская улица"/>
    <tag k="building" v="yes"/>
    <tag k="cladr:code" v="77000000000255100"/>
  </way>
  <way id="32113452" version="4" timestamp="2011-04-20T11:27:07Z" uid="115477" user="wowik" changeset="7915253">
    <nd ref="360418374"/>
    <nd ref="360418378"/>
    <nd ref="360418383"/>
    <nd ref="360418388"/>
    <nd ref="360418390"/>
    <nd ref="360418393"/>
    <nd ref="360418397"/>
    <nd ref="360418401"/>
    <nd ref="360418405"/>
    <nd ref="360418408"/>
    <nd ref="360418412"/>
    <nd ref="360418416"/>
    <nd ref="360418374"/>
    <tag k="addr:city" v="Москва"/>
    <tag k="addr:country" v="RU"/>
    <tag k="addr:housenumber" v="19"/>
    <tag k="addr:street" v="Садовая-Кудринская улица"/>
    <tag k="building" v="yes"/>
    <tag k="cladr:code" v="77000000000255100"/>
  </way>
  <way id="32113452" version="5" timestamp="2011-08-30T18:48:17Z" uid="433361" user="Dima M" changeset="9170068">
    <nd ref="360418374"/>
    <nd ref="360418378"/>
    <nd ref="360418383"/>
    <nd ref="360418388"/>
    <nd ref="360418390"/>
    <nd ref="360418393"/>
    <nd ref="360418397"/>
    <nd ref="360418401"/>
    <nd ref="360418405"/>
    <nd ref="360418408"/>
    <nd ref="360418412"/>
    <nd ref="360418416"/>
    <nd ref="360418374"/>
    <tag k="addr:city" v="Москва"/>
    <tag k="addr:country" v="RU"/>
    <tag k="addr:housenumber" v="19 c1"/>
    <tag k="addr:street" v="Садовая-Кудринская улица"/>
    <tag k="building" v="yes"/>
    <tag k="cladr:code" v="77000000000255100"/>
  </way>
  <way id="32113453" version="5" timestamp="2011-04-20T11:25:42Z" uid="115477" user="wowik" changeset="7915253">
    <nd ref="360418405"/>
    <nd ref="360418419"/>
    <nd ref="360418422"/>
    <nd ref="360418401"/>
    <nd ref="360418405"/>
    <tag k="addr:city" v="Москва"/>
    <tag k="addr:country" v="RU"/>
    <tag k="addr:housenumber" v="21А"/>
    <tag k="addr:street" v="Садовая-Кудринская улица"/>
    <tag k="building" v="yes"/>
    <tag k="cladr:code" v="77000000000255100"/>
  </way>
  <way id="32113461" version="3" timestamp="2011-04-20T11:28:28Z" uid="115477" user="wowik" changeset="7915253">
    <nd ref="360418657"/>
    <nd ref="360418660"/>
    <nd ref="360418662"/>
    <nd ref="360418666"/>
    <nd ref="360418673"/>
    <nd ref="360418679"/>
    <nd ref="360418657"/>
    <tag k="addr:city" v="Москва"/>
    <tag k="addr:country" v="RU"/>
    <tag k="building" v="yes"/>
    <tag k="cladr:code" v="77000000000255100"/>
  </way>
  <way id="32113461" version="4" timestamp="2012-02-23T19:52:19Z" uid="336354" user="esaulenka" changeset="10771836"/>
  <way id="32113462" version="5" timestamp="2011-04-20T11:26:03Z" uid="115477" user="wowik" changeset="7915253">
    <nd ref="360418685"/>
    <nd ref="360418691"/>
    <nd ref="360418694"/>
    <nd ref="360418688"/>
    <nd ref="360418685"/>
    <tag k="addr:city" v="Москва"/>
    <tag k="addr:country" v="RU"/>
    <tag k="addr:housenumber" v="23 с3"/>
    <tag k="addr:street" v="Садовая-Кудринская улица"/>
    <tag k="building" v="yes"/>
    <tag k="cladr:code" v="77000000000255100"/>
  </way>
  <way id="32113463" version="5" timestamp="2011-04-20T11:26:20Z" uid="115477" user="wowik" changeset="7915253">
    <nd ref="360418699"/>
    <nd ref="360418702"/>
    <nd ref="360418705"/>
    <nd ref="360418707"/>
    <nd ref="670661063"/>
    <nd ref="670661048"/>
    <nd ref="360418699"/>
    <tag k="addr:city" v="Москва"/>
    <tag k="addr:country" v="RU"/>
    <tag k="addr:housenumber" v="25"/>
    <tag k="addr:street" v="Садовая-Кудринская улица"/>
    <tag k="building" v="yes"/>
    <tag k="cladr:code" v="77000000000255100"/>
  </way>
  <way id="32113464" version="5" timestamp="2011-04-20T11:25:28Z" uid="115477" user="wowik" changeset="7915253">
    <nd ref="360418716"/>
    <nd ref="360418720"/>
    <nd ref="360418725"/>
    <nd ref="360418728"/>
    <nd ref="360418733"/>
    <nd ref="360418736"/>
    <nd ref="360418716"/>
    <tag k="addr:city" v="Москва"/>
    <tag k="addr:country" v="RU"/>
    <tag k="addr:housenumber" v="31/13"/>
    <tag k="addr:housenumber2" v="13/31"/>
    <tag k="addr:street" v="Малая Бронная улица"/>
    <tag k="addr:street2" v="Ермолаевский переулок"/>
    <tag k="building" v="yes"/>
    <tag k="cladr:code" v="77000000000090700"/>
  </way>
  <way id="32113464" version="6" timestamp="2011-07-19T18:05:09Z" uid="397326" user="trolleway" changeset="8770997">
    <nd ref="360418716"/>
    <nd ref="360418720"/>
    <nd ref="360418725"/>
    <nd ref="360418728"/>
    <nd ref="360418733"/>
    <nd ref="360418736"/>
    <nd ref="360418716"/>
    <tag k="addr:city" v="Москва"/>
    <tag k="addr:country" v="RU"/>
    <tag k="addr:housenumber" v="31/13"/>
    <tag k="addr:housenumber2" v="13/31"/>
    <tag k="addr:street" v="Малая Бронная улица"/>
    <tag k="addr:street2" v="Ермолаевский переулок"/>
    <tag k="building" v="yes"/>
    <tag k="building:levels" v="6"/>
    <tag k="cladr:code" v="77000000000090700"/>
  </way>
  <way id="32113464" version="7" timestamp="2012-03-19T22:02:04Z" uid="260756" user="Felis Pimeja" changeset="11035572">
    <nd ref="360418716"/>
    <nd ref="1682353810"/>
    <nd ref="1682353802"/>
    <nd ref="360418720"/>
    <nd ref="360418725"/>
    <nd ref="360418728"/>
    <nd ref="360418733"/>
    <nd ref="360418736"/>
    <nd ref="360418716"/>
    <tag k="addr:city" v="Москва"/>
    <tag k="addr:country" v="RU"/>
    <tag k="addr:housenumber" v="31/13"/>
    <tag k="addr:housenumber2" v="13/31"/>
    <tag k="addr:street" v="Малая Бронная улица"/>
    <tag k="addr:street2" v="Ермолаевский переулок"/>
    <tag k="building" v="yes"/>
    <tag k="building:levels" v="6"/>
    <tag k="cladr:code" v="77000000000090700"/>
  </way>
  <way id="32113465" version="6" timestamp="2011-04-20T11:25:47Z" uid="115477" user="wowik" changeset="7915253">
    <nd ref="360418739"/>
    <nd ref="360418741"/>
    <nd ref="360418743"/>
    <nd ref="360418746"/>
    <nd ref="360418739"/>
    <tag k="addr:city" v="Москва"/>
    <tag k="addr:country" v="RU"/>
    <tag k="addr:housenumber" v="32 с1"/>
    <tag k="addr:street" v="Садовая-Кудринская улица"/>
    <tag k="building" v="yes"/>
    <tag k="cladr:code" v="77000000000255100"/>
  </way>
  <way id="32113475" version="4" timestamp="2011-04-20T11:26:46Z" uid="115477" user="wowik" changeset="7915253">
    <nd ref="360418989"/>
    <nd ref="360418996"/>
    <nd ref="670502308"/>
    <nd ref="670502312"/>
    <nd ref="360418992"/>
    <nd ref="360418989"/>
    <tag k="addr:city" v="Москва"/>
    <tag k="addr:country" v="RU"/>
    <tag k="addr:housenumber" v="9"/>
    <tag k="addr:street" v="Трёхпрудный переулок"/>
    <tag k="building" v="yes"/>
    <tag k="cladr:code" v="77000000000292400"/>
  </way>
  <way id="32113476" version="5" timestamp="2011-04-20T11:25:59Z" uid="115477" user="wowik" changeset="7915253">
    <nd ref="360419004"/>
    <nd ref="360419009"/>
    <nd ref="360419014"/>
    <nd ref="360419019"/>
    <nd ref="360419023"/>
    <nd ref="360419026"/>
    <nd ref="360419004"/>
    <tag k="FIXME" v="addr:housenumber Нестандартный и/или странный адрес. Проверить и/или привести к стандарту http://wiki.osm.org/RU:Key:addr"/>
    <tag k="addr:city" v="Москва"/>
    <tag k="addr:country" v="RU"/>
    <tag k="addr:housenumber" v="11-13 с5"/>
    <tag k="addr:street" v="Трёхпрудный переулок"/>
    <tag k="building" v="yes"/>
    <tag k="cladr:code" v="77000000000292400"/>
  </way>
  <way id="32113479" version="4" timestamp="2011-04-20T11:25:44Z" uid="115477" user="wowik" changeset="7915253">
    <nd ref="360419030"/>
    <nd ref="360419037"/>
    <nd ref="360419040"/>
    <nd ref="360419033"/>
    <nd ref="360419030"/>
    <tag k="addr:city" v="Москва"/>
    <tag k="addr:country" v="RU"/>
    <tag k="addr:housenumber" v="10/2"/>
    <tag k="addr:housenumber2" v="2/10"/>
    <tag k="addr:street" v="Трёхпрудный переулок"/>
    <tag k="addr:street2" v="Мамоновский переулок"/>
    <tag k="building" v="yes"/>
    <tag k="cladr:code" v="77000000000292400"/>
  </way>
  <way id="32113480" version="4" timestamp="2011-04-20T11:26:38Z" uid="115477" user="wowik" changeset="7915253">
    <nd ref="360419046"/>
    <nd ref="360419052"/>
    <nd ref="360419057"/>
    <nd ref="360419065"/>
    <nd ref="360419070"/>
    <nd ref="360419074"/>
    <nd ref="360419078"/>
    <nd ref="360419081"/>
    <nd ref="360419085"/>
    <nd ref="360419088"/>
    <nd ref="360419046"/>
    <tag k="addr:city" v="Москва"/>
    <tag k="addr:country" v="RU"/>
    <tag k="addr:housenumber" v="3"/>
    <tag k="addr:street" v="Большой Палашёвский переулок"/>
    <tag k="building" v="yes"/>
    <tag k="cladr:code" v="77000000000706800"/>
  </way>
  <way id="32113481" version="6" timestamp="2011-04-20T11:26:53Z" uid="115477" user="wowik" changeset="7915253">
    <nd ref="360419093"/>
    <nd ref="360419097"/>
    <nd ref="360419101"/>
    <nd ref="360419105"/>
    <nd ref="360419110"/>
    <nd ref="360419116"/>
    <nd ref="360419093"/>
    <tag k="addr:city" v="Москва"/>
    <tag k="addr:country" v="RU"/>
    <tag k="addr:housenumber" v="16/6"/>
    <tag k="addr:housenumber2" v="6/16"/>
    <tag k="addr:postcode" v="123104"/>
    <tag k="addr:street" v="Богословский переулок"/>
    <tag k="addr:street2" v="Большой Палашёвский переулок"/>
    <tag k="building" v="yes"/>
    <tag k="cladr:code" v="77000000000086900"/>
  </way>
  <way id="32113481" version="7" timestamp="2011-09-14T14:43:18Z" uid="338289" user="PShA" changeset="9300094">
    <nd ref="360419093"/>
    <nd ref="360419097"/>
    <nd ref="1432712371"/>
    <nd ref="360419101"/>
    <nd ref="1432712333"/>
    <nd ref="360419105"/>
    <nd ref="360419110"/>
    <nd ref="360419116"/>
    <nd ref="360419093"/>
    <tag k="addr:city" v="Москва"/>
    <tag k="addr:country" v="RU"/>
    <tag k="addr:housenumber" v="16/6"/>
    <tag k="addr:housenumber2" v="6/16"/>
    <tag k="addr:postcode" v="123104"/>
    <tag k="addr:street" v="Богословский переулок"/>
    <tag k="addr:street2" v="Большой Палашёвский переулок"/>
    <tag k="building" v="yes"/>
    <tag k="cladr:code" v="77000000000086900"/>
  </way>
  <way id="32113481" version="8" timestamp="2011-09-15T18:18:21Z" uid="338289" user="PShA" changeset="9310189">
    <nd ref="360419093"/>
    <nd ref="360419097"/>
    <nd ref="1432712371"/>
    <nd ref="1433696661"/>
    <nd ref="360419101"/>
    <nd ref="1432712333"/>
    <nd ref="360419105"/>
    <nd ref="1433696669"/>
    <nd ref="1433696649"/>
    <nd ref="1433696668"/>
    <nd ref="1433696634"/>
    <nd ref="1433696678"/>
    <nd ref="1433696644"/>
    <nd ref="1433696664"/>
    <nd ref="1433696671"/>
    <nd ref="360419110"/>
    <nd ref="1433696657"/>
    <nd ref="1433696687"/>
    <nd ref="1433696680"/>
    <nd ref="360419116"/>
    <nd ref="360419093"/>
    <tag k="addr:city" v="Москва"/>
    <tag k="addr:country" v="RU"/>
    <tag k="addr:housenumber" v="16/6"/>
    <tag k="addr:housenumber2" v="6/16"/>
    <tag k="addr:postcode" v="123104"/>
    <tag k="addr:street" v="Богословский переулок"/>
    <tag k="addr:street2" v="Большой Палашёвский переулок"/>
    <tag k="building" v="yes"/>
    <tag k="cladr:code" v="77000000000086900"/>
  </way>
  <way id="32113482" version="4" timestamp="2011-04-20T11:26:06Z" uid="115477" user="wowik" changeset="7915253">
    <nd ref="360419120"/>
    <nd ref="360419127"/>
    <nd ref="360419134"/>
    <nd ref="360419138"/>
    <nd ref="360419142"/>
    <nd ref="360419150"/>
    <nd ref="360419120"/>
    <tag k="addr:city" v="Москва"/>
    <tag k="addr:country" v="RU"/>
    <tag k="addr:housenumber" v="16/3"/>
    <tag k="addr:housenumber2" v="3/16"/>
    <tag k="addr:street" v="Малый Козихинский переулок"/>
    <tag k="addr:street2" v="Трёхпрудный переулок"/>
    <tag k="building" v="yes"/>
    <tag k="cladr:code" v="77000000000149600"/>
  </way>
  <way id="32113482" version="5" timestamp="2011-07-19T18:12:53Z" uid="397326" user="trolleway" changeset="8770997">
    <nd ref="360419120"/>
    <nd ref="360419127"/>
    <nd ref="360419134"/>
    <nd ref="360419138"/>
    <nd ref="360419142"/>
    <nd ref="360419150"/>
    <nd ref="360419120"/>
    <tag k="addr:city" v="Москва"/>
    <tag k="addr:country" v="RU"/>
    <tag k="addr:housenumber" v="16/3"/>
    <tag k="addr:housenumber2" v="3/16"/>
    <tag k="addr:street" v="Малый Козихинский переулок"/>
    <tag k="addr:street2" v="Трёхпрудный переулок"/>
    <tag k="building" v="yes"/>
    <tag k="building:levels" v="4"/>
    <tag k="cladr:code" v="77000000000149600"/>
  </way>
  <way id="32113483" version="4" timestamp="2011-04-20T11:26:24Z" uid="115477" user="wowik" changeset="7915253">
    <nd ref="360419156"/>
    <nd ref="360419166"/>
    <nd ref="360419170"/>
    <nd ref="360419161"/>
    <nd ref="360419156"/>
    <tag k="addr:city" v="Москва"/>
    <tag k="addr:country" v="RU"/>
    <tag k="addr:housenumber" v="4"/>
    <tag k="addr:street" v="Трёхпрудный переулок"/>
    <tag k="building" v="yes"/>
    <tag k="cladr:code" v="77000000000292400"/>
  </way>
  <way id="32113483" version="5" timestamp="2011-07-19T18:12:56Z" uid="397326" user="trolleway" changeset="8770997">
    <nd ref="360419156"/>
    <nd ref="360419166"/>
    <nd ref="360419170"/>
    <nd ref="360419161"/>
    <nd ref="360419156"/>
    <tag k="addr:city" v="Москва"/>
    <tag k="addr:country" v="RU"/>
    <tag k="addr:housenumber" v="4"/>
    <tag k="addr:street" v="Трёхпрудный переулок"/>
    <tag k="building" v="yes"/>
    <tag k="building:levels" v="5"/>
    <tag k="cladr:code" v="77000000000292400"/>
  </way>
  <way id="32113485" version="6" timestamp="2011-04-20T11:25:52Z" uid="115477" user="wowik" changeset="7915253">
    <nd ref="360419207"/>
    <nd ref="360419210"/>
    <nd ref="360419213"/>
    <nd ref="360419217"/>
    <nd ref="360419220"/>
    <nd ref="360419224"/>
    <nd ref="360419227"/>
    <nd ref="360419229"/>
    <nd ref="360419207"/>
    <tag k="addr:city" v="Москва"/>
    <tag k="addr:country" v="RU"/>
    <tag k="addr:housenumber" v="3"/>
    <tag k="addr:street" v="Мамоновский переулок"/>
    <tag k="amenity" v="embassy"/>
    <tag k="building" v="yes"/>
    <tag k="cladr:code" v="77000000000722500"/>
    <tag k="country" v="JO"/>
    <tag k="name" v="посольство Иордании"/>
    <tag k="name:en" v="Embassy of Jordan"/>
    <tag k="name:ru" v="посольство Иордании"/>
  </way>
  <way id="32113486" version="4" timestamp="2011-04-20T11:26:46Z" uid="115477" user="wowik" changeset="7915253">
    <nd ref="360419231"/>
    <nd ref="360419233"/>
    <nd ref="360419235"/>
    <nd ref="360419237"/>
    <nd ref="360419239"/>
    <nd ref="360419240"/>
    <nd ref="360419242"/>
    <nd ref="360419245"/>
    <nd ref="360419247"/>
    <nd ref="360419251"/>
    <nd ref="360419254"/>
    <nd ref="360419258"/>
    <nd ref="360419231"/>
    <tag k="addr:city" v="Москва"/>
    <tag k="addr:country" v="RU"/>
    <tag k="addr:housenumber" v="8"/>
    <tag k="addr:street" v="Трёхпрудный переулок"/>
    <tag k="building" v="yes"/>
    <tag k="cladr:code" v="77000000000292400"/>
  </way>
  <way id="32113486" version="5" timestamp="2011-07-19T18:12:59Z" uid="397326" user="trolleway" changeset="8770997">
    <nd ref="360419231"/>
    <nd ref="360419233"/>
    <nd ref="360419235"/>
    <nd ref="360419237"/>
    <nd ref="360419239"/>
    <nd ref="360419240"/>
    <nd ref="360419242"/>
    <nd ref="360419245"/>
    <nd ref="360419247"/>
    <nd ref="360419251"/>
    <nd ref="360419254"/>
    <nd ref="360419258"/>
    <nd ref="360419231"/>
    <tag k="addr:city" v="Москва"/>
    <tag k="addr:country" v="RU"/>
    <tag k="addr:housenumber" v="8"/>
    <tag k="addr:street" v="Трёхпрудный переулок"/>
    <tag k="building" v="yes"/>
    <tag k="building:levels" v="6"/>
    <tag k="cladr:code" v="77000000000292400"/>
  </way>
  <way id="32113487" version="4" timestamp="2011-04-20T11:27:02Z" uid="115477" user="wowik" changeset="7915253">
    <nd ref="360419262"/>
    <nd ref="360419266"/>
    <nd ref="360419271"/>
    <nd ref="360419274"/>
    <nd ref="360419277"/>
    <nd ref="360419281"/>
    <nd ref="360419285"/>
    <nd ref="360419289"/>
    <nd ref="360419295"/>
    <nd ref="360419262"/>
    <tag k="addr:city" v="Москва"/>
    <tag k="addr:country" v="RU"/>
    <tag k="addr:housenumber" v="7"/>
    <tag k="addr:street" v="Малый Козихинский переулок"/>
    <tag k="building" v="yes"/>
    <tag k="cladr:code" v="77000000000149600"/>
  </way>
  <way id="32113487" version="5" timestamp="2011-07-19T18:05:10Z" uid="397326" user="trolleway" changeset="8770997">
    <nd ref="360419262"/>
    <nd ref="360419266"/>
    <nd ref="360419271"/>
    <nd ref="360419274"/>
    <nd ref="360419277"/>
    <nd ref="360419281"/>
    <nd ref="360419285"/>
    <nd ref="360419289"/>
    <nd ref="360419295"/>
    <nd ref="360419262"/>
    <tag k="addr:city" v="Москва"/>
    <tag k="addr:country" v="RU"/>
    <tag k="addr:housenumber" v="7"/>
    <tag k="addr:street" v="Малый Козихинский переулок"/>
    <tag k="building" v="yes"/>
    <tag k="building:levels" v="8"/>
    <tag k="cladr:code" v="77000000000149600"/>
  </way>
  <way id="32113488" version="5" timestamp="2011-04-20T11:26:04Z" uid="115477" user="wowik" changeset="7915253">
    <nd ref="360419303"/>
    <nd ref="360419307"/>
    <nd ref="360419311"/>
    <nd ref="360419326"/>
    <nd ref="360419303"/>
    <tag k="addr:city" v="Москва"/>
    <tag k="addr:country" v="RU"/>
    <tag k="addr:housenumber" v="1 с2"/>
    <tag k="addr:street" v="Большой Палашёвский переулок"/>
    <tag k="building" v="yes"/>
    <tag k="cladr:code" v="77000000000706800"/>
  </way>
  <way id="32113490" version="4" timestamp="2011-04-20T11:25:31Z" uid="115477" user="wowik" changeset="7915253">
    <nd ref="360419393"/>
    <nd ref="360419396"/>
    <nd ref="360419399"/>
    <nd ref="360419402"/>
    <nd ref="360419406"/>
    <nd ref="360419409"/>
    <nd ref="360419412"/>
    <nd ref="360419414"/>
    <nd ref="360419415"/>
    <nd ref="670631338"/>
    <nd ref="360419393"/>
    <tag k="addr:city" v="Москва"/>
    <tag k="addr:country" v="RU"/>
    <tag k="addr:housenumber" v="24"/>
    <tag k="addr:street" v="Малая Бронная улица"/>
    <tag k="building" v="yes"/>
    <tag k="cladr:code" v="77000000000090700"/>
  </way>
  <way id="32113491" version="4" timestamp="2011-04-20T11:25:50Z" uid="115477" user="wowik" changeset="7915253">
    <nd ref="360419417"/>
    <nd ref="360419419"/>
    <nd ref="360419421"/>
    <nd ref="360419423"/>
    <nd ref="360419427"/>
    <nd ref="360419429"/>
    <nd ref="670631387"/>
    <nd ref="670631400"/>
    <nd ref="360419433"/>
    <nd ref="360419417"/>
    <tag k="addr:city" v="Москва"/>
    <tag k="addr:country" v="RU"/>
    <tag k="addr:housenumber" v="7"/>
    <tag k="addr:street" v="Ермолаевский переулок"/>
    <tag k="building" v="yes"/>
    <tag k="cladr:code" v="77000000000702200"/>
  </way>
  <way id="32113492" version="4" timestamp="2011-04-20T11:26:44Z" uid="115477" user="wowik" changeset="7915253">
    <nd ref="360419435"/>
    <nd ref="360419438"/>
    <nd ref="360419440"/>
    <nd ref="360419442"/>
    <nd ref="360419443"/>
    <nd ref="360419445"/>
    <nd ref="360419448"/>
    <nd ref="360419450"/>
    <nd ref="360419452"/>
    <nd ref="360419454"/>
    <nd ref="360419456"/>
    <nd ref="360419458"/>
    <nd ref="360419435"/>
    <tag k="addr:city" v="Москва"/>
    <tag k="addr:country" v="RU"/>
    <tag k="addr:housenumber" v="9"/>
    <tag k="addr:street" v="Ермолаевский переулок"/>
    <tag k="building" v="yes"/>
    <tag k="cladr:code" v="77000000000702200"/>
  </way>
  <way id="32113492" version="5" timestamp="2011-07-19T18:05:11Z" uid="397326" user="trolleway" changeset="8770997">
    <nd ref="360419435"/>
    <nd ref="360419438"/>
    <nd ref="360419440"/>
    <nd ref="360419442"/>
    <nd ref="360419443"/>
    <nd ref="360419445"/>
    <nd ref="360419448"/>
    <nd ref="360419450"/>
    <nd ref="360419452"/>
    <nd ref="360419454"/>
    <nd ref="360419456"/>
    <nd ref="360419458"/>
    <nd ref="360419435"/>
    <tag k="addr:city" v="Москва"/>
    <tag k="addr:country" v="RU"/>
    <tag k="addr:housenumber" v="9"/>
    <tag k="addr:street" v="Ермолаевский переулок"/>
    <tag k="building" v="yes"/>
    <tag k="building:levels" v="3"/>
    <tag k="cladr:code" v="77000000000702200"/>
  </way>
  <way id="32113493" version="6" timestamp="2011-04-20T11:27:01Z" uid="115477" user="wowik" changeset="7915253">
    <nd ref="360419460"/>
    <nd ref="360419462"/>
    <nd ref="360419464"/>
    <nd ref="360419466"/>
    <nd ref="360419468"/>
    <nd ref="360419470"/>
    <nd ref="360419491"/>
    <nd ref="360419473"/>
    <nd ref="360419476"/>
    <nd ref="360419481"/>
    <nd ref="360419484"/>
    <nd ref="360419488"/>
    <nd ref="360419460"/>
    <tag k="addr:city" v="Москва"/>
    <tag k="addr:country" v="RU"/>
    <tag k="addr:housenumber" v="26/40 с3"/>
    <tag k="addr:housenumber2" v="40/26 с3"/>
    <tag k="addr:street" v="Садовая-Кудринская улица"/>
    <tag k="addr:street2" v="улица Спиридоновка"/>
    <tag k="building" v="yes"/>
    <tag k="cladr:code" v="77000000000255100"/>
  </way>
  <way id="32113504" version="1" timestamp="2009-03-14T20:49:46Z" uid="6269" user="Mueck" changeset="807216">
    <nd ref="360419812"/>
    <nd ref="26349758"/>
    <tag k="created_by" v="Potlatch 0.10f"/>
  </way>
  <way id="32113504" version="2" timestamp="2009-03-14T20:50:21Z" uid="6269" user="Mueck" changeset="807216">
    <nd ref="360419812"/>
    <nd ref="26349758"/>
    <tag k="created_by" v="Potlatch 0.10f"/>
    <tag k="highway" v="track"/>
    <tag k="smoothness" v="bad"/>
    <tag k="surface" v="ground"/>
    <tag k="tracktype" v="grade4"/>
  </way>
  <way id="32113504" version="3" timestamp="2009-03-14T20:50:26Z" uid="6269" user="Mueck" changeset="807216"/>
  <way id="32113521" version="3" timestamp="2009-04-04T17:35:46Z" uid="34428" user="usm78-gis" changeset="171721">
    <nd ref="245082773"/>
    <nd ref="360420727"/>
    <nd ref="270597376"/>
    <tag k="created_by" v="Potlatch 0.10f"/>
    <tag k="highway" v="unclassified"/>
  </way>
  <way id="32113521" version="4" timestamp="2009-04-04T17:47:10Z" uid="34428" user="usm78-gis" changeset="171721"/>
  <way id="32113538" version="3" timestamp="2009-06-08T13:40:38Z" uid="36809" user="pfoten_weg_!_" changeset="1458869">
    <nd ref="360420348"/>
    <nd ref="314633237"/>
    <tag k="created_by" v="RambaZamba"/>
    <tag k="highway" v="secondary"/>
    <tag k="maxspeed" v="50"/>
    <tag k="name" v="Grünwalder Weg"/>
    <tag k="source" v="survey"/>
  </way>
  <way id="32113538" version="4" timestamp="2009-08-28T20:06:42Z" uid="156995" user="HampelZamba" changeset="2294580">
    <nd ref="360420348"/>
    <nd ref="314633237"/>
    <tag k="highway" v="secondary"/>
    <tag k="maxspeed" v="50"/>
    <tag k="name" v="Grünwalder Weg"/>
    <tag k="source" v="survey"/>
  </way>
  <way id="32113538" version="5" timestamp="2012-03-01T22:29:30Z" uid="224490" user="Geo-Tobi" changeset="10843043">
    <nd ref="360420348"/>
    <nd ref="314633237"/>
    <tag k="highway" v="secondary"/>
    <tag k="lanes" v="2"/>
    <tag k="maxspeed" v="50"/>
    <tag k="name" v="Grünwalder Weg"/>
    <tag k="source" v="survey"/>
  </way>
  <way id="32113538" version="6" timestamp="2012-03-13T19:35:55Z" uid="8748" user="ToniE" changeset="10970874">
    <nd ref="360420348"/>
    <nd ref="314633237"/>
    <tag k="highway" v="secondary"/>
    <tag k="lanes" v="2"/>
    <tag k="maxspeed" v="50"/>
    <tag k="name" v="Grünwalder Weg"/>
    <tag k="smoothness" v="good"/>
    <tag k="source" v="survey"/>
    <tag k="surface" v="asphalt"/>
  </way>
  <way id="32113545" version="6" timestamp="2009-03-28T20:06:19Z" uid="34428" user="usm78-gis" changeset="865258">
    <nd ref="360420555"/>
    <nd ref="360420553"/>
    <nd ref="360420551"/>
    <nd ref="360420549"/>
    <tag k="created_by" v="Potlatch 0.10f"/>
    <tag k="highway" v="unclassified"/>
    <tag k="oneway" v="yes"/>
  </way>
  <way id="32113545" version="7" timestamp="2010-01-16T07:04:02Z" uid="24305" user="ZCC" changeset="3629466">
    <nd ref="360420555"/>
    <nd ref="360420553"/>
    <nd ref="360420551"/>
    <nd ref="360420549"/>
    <tag k="access" v="permissive"/>
    <tag k="highway" v="service"/>
    <tag k="oneway" v="yes"/>
  </way>
  <way id="32113545" version="8" timestamp="2011-07-25T01:20:11Z" uid="39040" user="Dinamik" changeset="8822594">
    <nd ref="360420555"/>
    <nd ref="360420553"/>
    <nd ref="360420551"/>
    <nd ref="360420549"/>
    <tag k="access" v="permissive"/>
    <tag k="highway" v="residential"/>
    <tag k="oneway" v="yes"/>
  </way>
  <way id="32113545" version="9" timestamp="2011-09-21T13:17:37Z" uid="504828" user="leonm" changeset="9360365">
    <nd ref="360420555"/>
    <nd ref="360420553"/>
    <nd ref="360420551"/>
    <nd ref="360420549"/>
    <tag k="access" v="permissive"/>
    <tag k="highway" v="residential"/>
    <tag k="name" v="Площадь Пулково 2"/>
    <tag k="oneway" v="yes"/>
  </way>
  <way id="32113545" version="10" timestamp="2012-01-15T20:29:25Z" uid="392109" user="GaM" changeset="10402993">
    <nd ref="360420555"/>
    <nd ref="360420553"/>
    <nd ref="360420551"/>
    <nd ref="360420549"/>
    <tag k="highway" v="service"/>
    <tag k="oneway" v="yes"/>
    <tag k="vehicle" v="permissive"/>
  </way>
  <way id="32113573" version="8" timestamp="2010-04-03T04:11:56Z" uid="20587" user="balrog-kun" changeset="4309442">
    <nd ref="175272398"/>
    <nd ref="360414160"/>
    <nd ref="360414253"/>
    <nd ref="175272407"/>
    <nd ref="175272417"/>
    <nd ref="360422651"/>
    <nd ref="360422217"/>
    <tag k="created_by" v="Potlatch 0.10f"/>
    <tag k="highway" v="secondary"/>
    <tag k="name" v="East Tanque Verde Road"/>
    <tag k="oneway" v="yes"/>
    <tag k="tiger:cfcc" v="A41"/>
    <tag k="tiger:county" v="Pima, AZ"/>
    <tag k="tiger:name_base" v="Tanque Verde"/>
    <tag k="tiger:name_direction_prefix" v="E"/>
    <tag k="tiger:name_type" v="Rd"/>
    <tag k="tiger:reviewed" v="no"/>
    <tag k="tiger:separated" v="no"/>
    <tag k="tiger:source" v="tiger_import_dch_v0.6_20070809"/>
    <tag k="tiger:tlid" v="121393571:121393572:121182251:121211878:121211879:121393547"/>
    <tag k="tiger:zip_left" v="85715"/>
    <tag k="tiger:zip_right" v="85715"/>
  </way>
  <way id="32113578" version="1" timestamp="2009-03-14T20:53:09Z" uid="6269" user="Mueck" changeset="807216">
    <nd ref="25967733"/>
    <nd ref="360421042"/>
    <nd ref="360421045"/>
    <nd ref="360421046"/>
    <nd ref="360421047"/>
    <nd ref="360421049"/>
    <nd ref="360421051"/>
    <nd ref="360421053"/>
    <nd ref="360421054"/>
    <nd ref="360421056"/>
    <nd ref="360421058"/>
    <nd ref="360421059"/>
    <nd ref="360421060"/>
    <nd ref="360421061"/>
    <nd ref="360421063"/>
    <nd ref="360421065"/>
    <nd ref="360421066"/>
    <nd ref="360421067"/>
    <nd ref="360421068"/>
    <nd ref="360421070"/>
    <nd ref="360421071"/>
    <nd ref="360421072"/>
    <nd ref="360421074"/>
    <tag k="created_by" v="Potlatch 0.10f"/>
  </way>
  <way id="32113578" version="2" timestamp="2009-03-14T20:53:49Z" uid="6269" user="Mueck" changeset="807216">
    <nd ref="25967733"/>
    <nd ref="360421042"/>
    <nd ref="360421045"/>
    <nd ref="360421046"/>
    <nd ref="360421047"/>
    <nd ref="360421049"/>
    <nd ref="360421051"/>
    <nd ref="360421053"/>
    <nd ref="360421054"/>
    <nd ref="360421056"/>
    <nd ref="360421058"/>
    <nd ref="360421059"/>
    <nd ref="360421060"/>
    <nd ref="360421061"/>
    <nd ref="360421063"/>
    <nd ref="360421065"/>
    <nd ref="360421066"/>
    <nd ref="360421067"/>
    <nd ref="360421068"/>
    <nd ref="360421070"/>
    <nd ref="360421071"/>
    <nd ref="360421072"/>
    <nd ref="360421074"/>
    <tag k="created_by" v="Potlatch 0.10f"/>
    <tag k="highway" v="track"/>
    <tag k="smoothness" v="bad"/>
    <tag k="surface" v="ground"/>
    <tag k="tracktype" v="grade5"/>
  </way>
  <way id="32113578" version="3" timestamp="2009-11-16T13:54:30Z" uid="7009" user="giggls" changeset="3131977"/>
  <way id="32113620" version="1" timestamp="2009-03-14T20:54:38Z" uid="6269" user="Mueck" changeset="807216">
    <nd ref="360421476"/>
    <nd ref="360421624"/>
    <tag k="created_by" v="Potlatch 0.10f"/>
  </way>
  <way id="32113620" version="2" timestamp="2009-03-14T20:54:57Z" uid="6269" user="Mueck" changeset="807216">
    <nd ref="360421476"/>
    <nd ref="360421624"/>
    <tag k="created_by" v="Potlatch 0.10f"/>
    <tag k="highway" v="track"/>
    <tag k="smoothness" v="bad"/>
    <tag k="surface" v="ground"/>
    <tag k="tracktype" v="grade5"/>
  </way>
  <way id="32113646" version="1" timestamp="2009-03-14T20:55:16Z" uid="6269" user="Mueck" changeset="807216">
    <nd ref="360421884"/>
    <nd ref="360421885"/>
    <tag k="created_by" v="Potlatch 0.10f"/>
  </way>
  <way id="32113646" version="2" timestamp="2009-03-14T20:55:48Z" uid="6269" user="Mueck" changeset="807216">
    <nd ref="360421884"/>
    <nd ref="360421885"/>
    <tag k="created_by" v="Potlatch 0.10f"/>
    <tag k="highway" v="track"/>
    <tag k="smoothness" v="good"/>
    <tag k="surface" v="asphalt"/>
    <tag k="tracktype" v="grade1"/>
  </way>
  <way id="32113660" version="1" timestamp="2009-03-14T20:56:04Z" uid="6269" user="Mueck" changeset="807216">
    <nd ref="360422147"/>
    <nd ref="360422148"/>
    <tag k="created_by" v="Potlatch 0.10f"/>
    <tag k="highway" v="track"/>
    <tag k="smoothness" v="good"/>
    <tag k="surface" v="asphalt"/>
    <tag k="tracktype" v="grade1"/>
  </way>
  <way id="32113660" version="2" timestamp="2009-05-17T20:49:48Z" uid="6269" user="Mueck" changeset="1229279">
    <nd ref="360422147"/>
    <nd ref="403475011"/>
    <tag k="created_by" v="Potlatch 0.10f"/>
    <tag k="highway" v="track"/>
    <tag k="smoothness" v="good"/>
    <tag k="surface" v="asphalt"/>
    <tag k="tracktype" v="grade1"/>
  </way>
  <way id="32113661" version="2" timestamp="2009-03-28T20:05:59Z" uid="34428" user="usm78-gis" changeset="865258">
    <nd ref="360422212"/>
    <nd ref="360422214"/>
    <nd ref="360422215"/>
    <nd ref="360420043"/>
    <tag k="created_by" v="Potlatch 0.10f"/>
    <tag k="highway" v="unclassified"/>
    <tag k="oneway" v="yes"/>
  </way>
  <way id="32113661" version="3" timestamp="2009-03-28T20:06:25Z" uid="34428" user="usm78-gis" changeset="865258">
    <nd ref="360420549"/>
    <nd ref="360422214"/>
    <nd ref="360422215"/>
    <nd ref="360420043"/>
    <tag k="created_by" v="Potlatch 0.10f"/>
    <tag k="highway" v="unclassified"/>
    <tag k="oneway" v="yes"/>
  </way>
  <way id="32113661" version="4" timestamp="2010-01-16T07:04:02Z" uid="24305" user="ZCC" changeset="3629466">
    <nd ref="360420549"/>
    <nd ref="360422214"/>
    <nd ref="360422215"/>
    <nd ref="360420043"/>
    <tag k="access" v="permissive"/>
    <tag k="highway" v="service"/>
    <tag k="oneway" v="yes"/>
  </way>
  <way id="32113661" version="5" timestamp="2011-07-25T01:20:10Z" uid="39040" user="Dinamik" changeset="8822594">
    <nd ref="360420549"/>
    <nd ref="360422214"/>
    <nd ref="360422215"/>
    <nd ref="360420043"/>
    <tag k="access" v="permissive"/>
    <tag k="highway" v="residential"/>
    <tag k="oneway" v="yes"/>
  </way>
  <way id="32113661" version="6" timestamp="2011-09-21T13:17:35Z" uid="504828" user="leonm" changeset="9360365">
    <nd ref="360420549"/>
    <nd ref="360422214"/>
    <nd ref="360422215"/>
    <nd ref="360420043"/>
    <tag k="access" v="permissive"/>
    <tag k="highway" v="residential"/>
    <tag k="name" v="Площадь Пулково 2"/>
    <tag k="oneway" v="yes"/>
  </way>
  <way id="32113661" version="7" timestamp="2012-01-15T20:29:25Z" uid="392109" user="GaM" changeset="10402993">
    <nd ref="360420549"/>
    <nd ref="360422214"/>
    <nd ref="360422215"/>
    <nd ref="360420043"/>
    <tag k="highway" v="service"/>
    <tag k="oneway" v="yes"/>
    <tag k="vehicle" v="permissive"/>
  </way>
  <way id="32113662" version="3" timestamp="2010-04-03T04:11:56Z" uid="20587" user="balrog-kun" changeset="4309442">
    <nd ref="360422217"/>
    <nd ref="360411935"/>
    <nd ref="360422094"/>
    <nd ref="175129206"/>
    <nd ref="360421928"/>
    <tag k="bridge" v="yes"/>
    <tag k="created_by" v="Potlatch 0.10f"/>
    <tag k="highway" v="secondary"/>
    <tag k="layer" v="1"/>
    <tag k="name" v="East Tanque Verde Road"/>
    <tag k="oneway" v="yes"/>
    <tag k="tiger:cfcc" v="A41"/>
    <tag k="tiger:county" v="Pima, AZ"/>
    <tag k="tiger:name_base" v="Tanque Verde"/>
    <tag k="tiger:name_direction_prefix" v="E"/>
    <tag k="tiger:name_type" v="Rd"/>
    <tag k="tiger:reviewed" v="no"/>
    <tag k="tiger:separated" v="no"/>
    <tag k="tiger:source" v="tiger_import_dch_v0.6_20070809"/>
    <tag k="tiger:tlid" v="121393571:121393572:121182251:121211878:121211879:121393547"/>
    <tag k="tiger:zip_left" v="85715"/>
    <tag k="tiger:zip_right" v="85715"/>
  </way>
  <way id="32113673" version="1" timestamp="2009-03-14T20:57:27Z" uid="6269" user="Mueck" changeset="807216">
    <nd ref="360421049"/>
    <nd ref="360422694"/>
    <nd ref="360422696"/>
    <nd ref="360422697"/>
    <nd ref="360422698"/>
    <nd ref="360422699"/>
    <nd ref="360422700"/>
    <tag k="created_by" v="Potlatch 0.10f"/>
    <tag k="highway" v="track"/>
    <tag k="noexit" v="yes"/>
    <tag k="smoothness" v="bad"/>
    <tag k="surface" v="ground"/>
    <tag k="tracktype" v="grade5"/>
  </way>
  <way id="32113673" version="2" timestamp="2009-03-14T20:57:50Z" uid="6269" user="Mueck" changeset="807216">
    <nd ref="360421049"/>
    <nd ref="360422694"/>
    <nd ref="360422696"/>
    <nd ref="360422836"/>
    <nd ref="360422697"/>
    <nd ref="360422698"/>
    <nd ref="360422699"/>
    <nd ref="360422700"/>
    <tag k="created_by" v="Potlatch 0.10f"/>
    <tag k="highway" v="track"/>
    <tag k="noexit" v="yes"/>
    <tag k="smoothness" v="bad"/>
    <tag k="surface" v="ground"/>
    <tag k="tracktype" v="grade5"/>
  </way>
  <way id="32113675" version="3" timestamp="2009-03-28T20:00:42Z" uid="34428" user="usm78-gis" changeset="865258">
    <nd ref="366669499"/>
    <nd ref="360422745"/>
    <nd ref="360422746"/>
    <nd ref="360422747"/>
    <tag k="created_by" v="Potlatch 0.10f"/>
    <tag k="highway" v="secondary"/>
  </way>
  <way id="32113675" version="4" timestamp="2009-03-28T20:01:15Z" uid="34428" user="usm78-gis" changeset="865258">
    <nd ref="366669499"/>
    <nd ref="360422745"/>
    <nd ref="360422746"/>
    <nd ref="366669681"/>
    <tag k="created_by" v="Potlatch 0.10f"/>
    <tag k="highway" v="secondary"/>
  </way>
  <way id="32113675" version="5" timestamp="2009-03-29T14:38:45Z" uid="34428" user="usm78-gis" changeset="867422">
    <nd ref="366669499"/>
    <nd ref="360422745"/>
    <tag k="created_by" v="Potlatch 0.10f"/>
    <tag k="highway" v="secondary"/>
  </way>
  <way id="32113675" version="6" timestamp="2009-04-14T05:50:58Z" uid="112107" user="Temich83" changeset="511985">
    <nd ref="366669499"/>
    <nd ref="360422745"/>
    <tag k="created_by" v="Potlatch 0.10f"/>
    <tag k="highway" v="residential"/>
  </way>
  <way id="32113675" version="7" timestamp="2010-09-24T13:29:51Z" uid="290271" user="Zverik" changeset="5862803">
    <nd ref="366669499"/>
    <nd ref="360422745"/>
    <tag k="highway" v="residential"/>
    <tag k="surface" v="asphalt"/>
  </way>
  <way id="32113675" version="8" timestamp="2011-07-13T12:47:49Z" uid="392109" user="GaM" changeset="8712349">
    <nd ref="366669499"/>
    <nd ref="360422745"/>
    <nd ref="360422746"/>
    <nd ref="1314331646"/>
    <nd ref="366669681"/>
    <tag k="highway" v="residential"/>
    <tag k="name" v="Быковская улица"/>
    <tag k="surface" v="asphalt"/>
  </way>
  <way id="32113675" version="9" timestamp="2011-08-03T17:15:30Z" uid="143266" user="Sergey Astakhov" changeset="8912121">
    <nd ref="366669499"/>
    <nd ref="360422745"/>
    <nd ref="1384921510"/>
    <nd ref="1384921541"/>
    <nd ref="360422746"/>
    <nd ref="1314331646"/>
    <nd ref="366669681"/>
    <tag k="highway" v="residential"/>
    <tag k="name" v="Быковская улица"/>
    <tag k="surface" v="asphalt"/>
  </way>
  <way id="32113675" version="10" timestamp="2011-08-16T16:26:15Z" uid="65083" user="deep125" changeset="9038506">
    <nd ref="366669499"/>
    <nd ref="1401197201"/>
    <nd ref="360422745"/>
    <nd ref="1384921510"/>
    <nd ref="1384921541"/>
    <nd ref="360422746"/>
    <nd ref="1314331646"/>
    <nd ref="366669681"/>
    <tag k="highway" v="residential"/>
    <tag k="name" v="Быковская улица"/>
    <tag k="surface" v="asphalt"/>
  </way>
  <way id="32113675" version="11" timestamp="2012-03-03T17:28:42Z" uid="368493" user="fserges" changeset="10860147">
    <nd ref="366669499"/>
    <nd ref="1401197201"/>
    <nd ref="360422745"/>
    <nd ref="1384921510"/>
    <nd ref="1384921541"/>
    <nd ref="1657756413"/>
    <nd ref="360422746"/>
    <nd ref="1314331646"/>
    <nd ref="366669681"/>
    <tag k="highway" v="residential"/>
    <tag k="name" v="Быковская улица"/>
    <tag k="surface" v="asphalt"/>
  </way>
  <way id="32113675" version="12" timestamp="2012-03-03T18:25:20Z" uid="368493" user="fserges" changeset="10860668">
    <nd ref="366669499"/>
    <nd ref="1401197201"/>
    <nd ref="1657839803"/>
    <nd ref="360422745"/>
    <nd ref="1657839810"/>
    <nd ref="1657839905"/>
    <nd ref="1384921510"/>
    <nd ref="1657839916"/>
    <nd ref="1384921541"/>
    <nd ref="1657756413"/>
    <nd ref="360422746"/>
    <nd ref="1657839998"/>
    <nd ref="1314331646"/>
    <nd ref="366669681"/>
    <tag k="highway" v="residential"/>
    <tag k="name" v="Быковская улица"/>
    <tag k="surface" v="asphalt"/>
  </way>
  <way id="32113679" version="1" timestamp="2009-03-14T20:57:49Z" uid="6269" user="Mueck" changeset="807216">
    <nd ref="360422835"/>
    <nd ref="360422697"/>
    <nd ref="360422836"/>
    <nd ref="360422838"/>
    <nd ref="360422835"/>
    <tag k="created_by" v="Potlatch 0.10f"/>
  </way>
  <way id="32113687" version="7" timestamp="2011-02-06T13:48:06Z" uid="23543" user="jkjk" changeset="7203771">
    <nd ref="7295125"/>
    <nd ref="298296558"/>
    <nd ref="539142371"/>
    <nd ref="443913871"/>
    <nd ref="7295134"/>
    <tag k="highway" v="tertiary"/>
    <tag k="name" v="Formanská"/>
  </way>
  <way id="32113687" version="8" timestamp="2011-03-24T15:31:22Z" uid="25867" user="adamos" changeset="7656880">
    <nd ref="7295125"/>
    <nd ref="1216009344"/>
    <nd ref="298296558"/>
    <nd ref="539142371"/>
    <nd ref="443913871"/>
    <nd ref="7295134"/>
    <tag k="highway" v="tertiary"/>
    <tag k="name" v="Formanská"/>
  </way>
  <way id="32113687" version="9" timestamp="2011-05-17T10:40:41Z" uid="13114" user="nijel" changeset="8170297">
    <nd ref="7295125"/>
    <nd ref="1288898441"/>
    <nd ref="1216009344"/>
    <nd ref="298296558"/>
    <nd ref="539142371"/>
    <nd ref="443913871"/>
    <nd ref="7295134"/>
    <tag k="highway" v="tertiary"/>
    <tag k="name" v="Formanská"/>
  </way>
  <way id="32113687" version="10" timestamp="2011-05-23T11:55:17Z" uid="13114" user="nijel" changeset="8225633">
    <nd ref="7295125"/>
    <nd ref="1297205229"/>
    <nd ref="1288898441"/>
    <nd ref="1216009344"/>
    <nd ref="298296558"/>
    <nd ref="539142371"/>
    <nd ref="443913871"/>
    <nd ref="7295134"/>
    <tag k="highway" v="tertiary"/>
    <tag k="name" v="Formanská"/>
  </way>
  <way id="32113688" version="2" timestamp="2010-01-10T16:26:03Z" uid="23543" user="jkjk" changeset="3588673">
    <nd ref="7295134"/>
    <nd ref="298294045"/>
    <nd ref="298293992"/>
    <nd ref="610991372"/>
    <nd ref="7295140"/>
    <nd ref="298293994"/>
    <tag k="highway" v="residential"/>
    <tag k="name" v="Josefa Bíbrdlíka"/>
  </way>
  <way id="32113688" version="3" timestamp="2011-09-30T02:49:25Z" uid="527259" user="Vratislav Filler" changeset="9432139">
    <nd ref="7295134"/>
    <nd ref="298294045"/>
    <nd ref="298293992"/>
    <nd ref="610991372"/>
    <nd ref="7295140"/>
    <nd ref="298293994"/>
    <tag k="highway" v="tertiary"/>
    <tag k="name" v="Josefa Bíbrdlíka"/>
  </way>
  <way id="32113706" version="2" timestamp="2009-03-28T19:56:48Z" uid="34428" user="usm78-gis" changeset="865258">
    <nd ref="360423334"/>
    <nd ref="360423335"/>
    <nd ref="366667762"/>
    <tag k="created_by" v="Potlatch 0.10f"/>
    <tag k="highway" v="secondary"/>
  </way>
  <way id="32113706" version="3" timestamp="2009-03-28T19:57:08Z" uid="34428" user="usm78-gis" changeset="865258">
    <nd ref="360423334"/>
    <nd ref="360423335"/>
    <nd ref="360422745"/>
    <nd ref="366667762"/>
    <tag k="created_by" v="Potlatch 0.10f"/>
    <tag k="highway" v="secondary"/>
  </way>
  <way id="32113706" version="4" timestamp="2009-03-28T19:57:14Z" uid="34428" user="usm78-gis" changeset="865258">
    <nd ref="360423334"/>
    <nd ref="360423335"/>
    <nd ref="360422745"/>
    <tag k="created_by" v="Potlatch 0.10f"/>
    <tag k="highway" v="secondary"/>
  </way>
  <way id="32113706" version="5" timestamp="2009-03-28T20:04:00Z" uid="34428" user="usm78-gis" changeset="865258">
    <nd ref="366671000"/>
    <nd ref="360423335"/>
    <nd ref="360422745"/>
    <tag k="created_by" v="Potlatch 0.10f"/>
    <tag k="highway" v="secondary"/>
  </way>
  <way id="32113706" version="6" timestamp="2009-03-28T20:04:38Z" uid="34428" user="usm78-gis" changeset="865258">
    <nd ref="366671000"/>
    <nd ref="366671374"/>
    <nd ref="360423335"/>
    <nd ref="360422745"/>
    <tag k="created_by" v="Potlatch 0.10f"/>
    <tag k="highway" v="secondary"/>
  </way>
  <way id="32113706" version="7" timestamp="2009-03-28T20:04:42Z" uid="34428" user="usm78-gis" changeset="865258">
    <nd ref="366671000"/>
    <nd ref="366671374"/>
    <tag k="created_by" v="Potlatch 0.10f"/>
    <tag k="highway" v="secondary"/>
  </way>
  <way id="32113706" version="8" timestamp="2009-04-14T05:50:56Z" uid="112107" user="Temich83" changeset="511985">
    <nd ref="366671000"/>
    <nd ref="366671374"/>
    <tag k="created_by" v="Potlatch 0.10f"/>
    <tag k="highway" v="residential"/>
    <tag k="name" v="Толмачевская ул."/>
  </way>
  <way id="32113706" version="9" timestamp="2009-04-15T05:04:19Z" uid="30590" user="KekcuHa" changeset="562275">
    <nd ref="366671000"/>
    <nd ref="366671374"/>
    <tag k="addr:postcode" v="196210"/>
    <tag k="cladr:code" v="78000000000188100"/>
    <tag k="cladr:name" v="Толмачевская"/>
    <tag k="cladr:suffix" v="Улица"/>
    <tag k="created_by" v="Potlatch 0.10f"/>
    <tag k="highway" v="residential"/>
    <tag k="name" v="Толмачевская ул."/>
  </way>
  <way id="32113706" version="10" timestamp="2010-09-24T13:29:47Z" uid="290271" user="Zverik" changeset="5862803">
    <nd ref="366671000"/>
    <nd ref="366671374"/>
    <tag k="addr:postcode" v="196210"/>
    <tag k="cladr:code" v="78000000000188100"/>
    <tag k="cladr:name" v="Толмачевская"/>
    <tag k="cladr:suffix" v="Улица"/>
    <tag k="highway" v="residential"/>
    <tag k="name" v="Толмачевская ул."/>
    <tag k="surface" v="asphalt"/>
  </way>
  <way id="32113706" version="11" timestamp="2011-03-05T20:27:15Z" uid="392109" user="GaM" changeset="7467453">
    <nd ref="366671000"/>
    <nd ref="366671374"/>
    <tag k="addr:postcode" v="196210"/>
    <tag k="cladr:code" v="78000000000188100"/>
    <tag k="cladr:name" v="Толмачевская"/>
    <tag k="cladr:suffix" v="Улица"/>
    <tag k="highway" v="residential"/>
    <tag k="name" v="Толмачевская улица"/>
    <tag k="surface" v="asphalt"/>
  </way>
  <way id="32113706" version="12" timestamp="2011-07-13T12:47:50Z" uid="392109" user="GaM" changeset="8712349">
    <nd ref="366671000"/>
    <nd ref="366671374"/>
    <tag k="addr:postcode" v="196210"/>
    <tag k="highway" v="residential"/>
    <tag k="name" v="Толмачевская улица"/>
    <tag k="surface" v="asphalt"/>
  </way>
  <way id="32113706" version="13" timestamp="2011-08-03T17:15:33Z" uid="143266" user="Sergey Astakhov" changeset="8912121">
    <nd ref="366671000"/>
    <nd ref="1384921868"/>
    <nd ref="366671374"/>
    <tag k="addr:postcode" v="196210"/>
    <tag k="highway" v="residential"/>
    <tag k="name" v="Толмачевская улица"/>
    <tag k="surface" v="asphalt"/>
  </way>
  <way id="32113706" version="14" timestamp="2011-11-16T04:24:27Z" uid="392109" user="GaM" changeset="9841064">
    <nd ref="366671000"/>
    <nd ref="1384921868"/>
    <nd ref="1504688746"/>
    <nd ref="366671374"/>
    <tag k="addr:postcode" v="196210"/>
    <tag k="highway" v="residential"/>
    <tag k="name" v="Толмачевская улица"/>
    <tag k="surface" v="asphalt"/>
  </way>
  <way id="32113706" version="15" timestamp="2011-12-13T09:28:45Z" uid="133332" user="AMDmi3" changeset="10106041">
    <nd ref="366671000"/>
    <nd ref="1384921868"/>
    <nd ref="1504688746"/>
    <nd ref="366671374"/>
    <tag k="addr:postcode" v="196210"/>
    <tag k="highway" v="residential"/>
    <tag k="name" v="Толмачёвская улица"/>
    <tag k="surface" v="asphalt"/>
  </way>
  <way id="32113713" version="2" timestamp="2009-03-28T20:04:03Z" uid="34428" user="usm78-gis" changeset="865258">
    <nd ref="360423447"/>
    <nd ref="366671000"/>
    <tag k="created_by" v="Potlatch 0.10f"/>
    <tag k="highway" v="residential"/>
  </way>
  <way id="32113713" version="3" timestamp="2009-03-28T20:04:10Z" uid="34428" user="usm78-gis" changeset="865258">
    <nd ref="366671000"/>
    <nd ref="366671116"/>
    <tag k="created_by" v="Potlatch 0.10f"/>
    <tag k="highway" v="residential"/>
  </way>
  <way id="32113713" version="4" timestamp="2010-09-24T13:29:58Z" uid="290271" user="Zverik" changeset="5862803">
    <nd ref="366671000"/>
    <nd ref="366671116"/>
    <tag k="highway" v="residential"/>
    <tag k="surface" v="asphalt"/>
  </way>
  <way id="32113713" version="5" timestamp="2011-04-02T21:31:18Z" uid="303945" user="Дмитрий Кудряшов" changeset="7748639">
    <nd ref="366671000"/>
    <nd ref="366671116"/>
    <tag k="highway" v="unclassified"/>
    <tag k="name" v="Домодедовская улица"/>
    <tag k="surface" v="asphalt"/>
  </way>
  <way id="32113716" version="1" timestamp="2009-03-14T20:59:39Z" uid="6269" user="Mueck" changeset="807216">
    <nd ref="360423237"/>
    <nd ref="360423467"/>
    <nd ref="360423468"/>
    <nd ref="360423470"/>
    <nd ref="360423472"/>
    <nd ref="360423475"/>
    <nd ref="360423477"/>
    <nd ref="360423480"/>
    <nd ref="360423481"/>
    <tag k="created_by" v="Potlatch 0.10f"/>
    <tag k="highway" v="bridleway"/>
  </way>
  <way id="32113716" version="2" timestamp="2009-03-14T21:00:32Z" uid="6269" user="Mueck" changeset="807216">
    <nd ref="360423237"/>
    <nd ref="360423467"/>
    <nd ref="360423468"/>
    <nd ref="360423470"/>
    <nd ref="360423472"/>
    <nd ref="360423475"/>
    <nd ref="360423477"/>
    <nd ref="360423480"/>
    <nd ref="360423481"/>
    <tag k="created_by" v="Potlatch 0.10f"/>
    <tag k="highway" v="bridleway"/>
    <tag k="note" v="Verlauf nicht ganz sicher..."/>
    <tag k="smoothness" v="bad"/>
    <tag k="surface" v="ground"/>
  </way>
  <way id="32113716" version="3" timestamp="2009-03-14T21:01:09Z" uid="6269" user="Mueck" changeset="807216">
    <nd ref="360423237"/>
    <nd ref="360423467"/>
    <nd ref="360423468"/>
    <nd ref="360423470"/>
    <nd ref="360423472"/>
    <nd ref="360423475"/>
    <nd ref="360423477"/>
    <nd ref="360423480"/>
    <nd ref="360424017"/>
    <tag k="created_by" v="Potlatch 0.10f"/>
    <tag k="highway" v="bridleway"/>
    <tag k="note" v="Verlauf nicht ganz sicher..."/>
    <tag k="smoothness" v="bad"/>
    <tag k="surface" v="ground"/>
  </way>
  <way id="32113720" version="1" timestamp="2009-03-14T20:59:45Z" uid="6269" user="Mueck" changeset="807216">
    <nd ref="360423237"/>
    <nd ref="25931447"/>
    <tag k="created_by" v="Potlatch 0.10f"/>
    <tag k="highway" v="track"/>
    <tag k="name" v="Baro-Allee"/>
    <tag k="smoothness" v="intermediate"/>
    <tag k="surface" v="gravel"/>
    <tag k="tracktype" v="grade2"/>
  </way>
  <way id="32113720" version="2" timestamp="2009-03-14T20:59:57Z" uid="6269" user="Mueck" changeset="807216">
    <nd ref="360423237"/>
    <nd ref="25931447"/>
    <tag k="created_by" v="Potlatch 0.10f"/>
    <tag k="highway" v="track"/>
    <tag k="horse" v="yes"/>
    <tag k="name" v="Baro-Allee"/>
    <tag k="smoothness" v="intermediate"/>
    <tag k="surface" v="gravel"/>
    <tag k="tracktype" v="grade2"/>
  </way>
  <way id="32113720" version="3" timestamp="2009-06-04T14:03:56Z" uid="6269" user="Mueck" changeset="1421087">
    <nd ref="360423237"/>
    <nd ref="25931447"/>
    <tag k="created_by" v="Potlatch 0.10f"/>
    <tag k="highway" v="track"/>
    <tag k="horse" v="yes"/>
    <tag k="name" v="Baro-Allee"/>
    <tag k="smoothness" v="intermediate"/>
    <tag k="surface" v="compacted"/>
    <tag k="tracktype" v="grade2"/>
  </way>
  <way id="32113728" version="4" timestamp="2009-04-15T05:58:35Z" uid="6975" user="ulfl" changeset="553994">
    <nd ref="360423691"/>
    <nd ref="360423693"/>
    <nd ref="360423695"/>
    <nd ref="360423698"/>
    <nd ref="360423700"/>
    <nd ref="360423702"/>
    <nd ref="360423691"/>
    <tag k="amenity" v="kindergarten"/>
    <tag k="name" v="Montessori-Kinderhaus am Eselsberg"/>
  </way>
  <way id="32113728" version="5" timestamp="2010-10-14T15:34:19Z" uid="13072" user="Kai Brühne" changeset="6040293">
    <nd ref="360423691"/>
    <nd ref="360423693"/>
    <nd ref="360423695"/>
    <nd ref="360423698"/>
    <nd ref="360423700"/>
    <nd ref="360423702"/>
    <nd ref="360423691"/>
    <tag k="addr:city" v="Ulm"/>
    <tag k="addr:housenumber" v="6"/>
    <tag k="addr:postcode" v="89075"/>
    <tag k="addr:street" v="Cartesiusstraße"/>
    <tag k="amenity" v="kindergarten"/>
    <tag k="name" v="Montessori-Kinderhaus am Eselsberg"/>
  </way>
  <way id="32113755" version="1" timestamp="2009-03-14T21:01:25Z" uid="6269" user="Mueck" changeset="807216">
    <nd ref="360424030"/>
    <nd ref="360424045"/>
    <tag k="created_by" v="Potlatch 0.10f"/>
  </way>
  <way id="32113755" version="2" timestamp="2009-03-14T21:01:29Z" uid="6269" user="Mueck" changeset="807216">
    <nd ref="360424030"/>
    <nd ref="360424045"/>
    <tag k="created_by" v="Potlatch 0.10f"/>
    <tag k="highway" v="track"/>
    <tag k="smoothness" v="intermediate"/>
    <tag k="surface" v="ground"/>
    <tag k="tracktype" v="grade5"/>
  </way>
  <way id="32113756" version="1" timestamp="2009-03-14T21:01:30Z" uid="43967" user="railsnail" changeset="808202">
    <nd ref="360424086"/>
    <nd ref="207149813"/>
    <nd ref="79723720"/>
    <nd ref="79723721"/>
    <nd ref="207146008"/>
    <nd ref="79723722"/>
    <nd ref="79723723"/>
    <nd ref="79724116"/>
    <nd ref="79724117"/>
    <nd ref="79724118"/>
    <nd ref="79724119"/>
    <nd ref="79724120"/>
    <nd ref="207150498"/>
    <nd ref="79724121"/>
    <nd ref="79724122"/>
    <nd ref="33793786"/>
    <tag k="created_by" v="Potlatch 0.10f"/>
    <tag k="highway" v="primary"/>
    <tag k="int_ref" v="E66"/>
    <tag k="nat_ref" v="B100"/>
  </way>
  <way id="32113756" version="2" timestamp="2009-03-14T21:01:56Z" uid="43967" user="railsnail" changeset="808202">
    <nd ref="360424086"/>
    <nd ref="207149813"/>
    <nd ref="79723720"/>
    <nd ref="79723721"/>
    <nd ref="207146008"/>
    <nd ref="79723722"/>
    <nd ref="79723723"/>
    <nd ref="79724116"/>
    <nd ref="79724117"/>
    <nd ref="79724118"/>
    <nd ref="79724119"/>
    <nd ref="79724120"/>
    <nd ref="207150498"/>
    <nd ref="79724121"/>
    <nd ref="79724122"/>
    <nd ref="33793786"/>
    <tag k="addr:postcode" v="9900"/>
    <tag k="at:maxspeed" v="Ortsgebiet"/>
    <tag k="created_by" v="Potlatch 0.10f"/>
    <tag k="highway" v="primary"/>
    <tag k="int_ref" v="E66"/>
    <tag k="is_in" v="...,Bezirk Lienz,Tirol,Österreich,Europa"/>
    <tag k="name" v="Pustertaler Straße"/>
    <tag k="nat_ref" v="B100"/>
    <tag k="note" v="imported from plan.at; (C)=CC-by-sa or oDBL; feel free to change if necessary"/>
    <tag k="plan_at:acad_id" v="lz304"/>
    <tag k="ref" v="100/E66"/>
    <tag k="source" v="plan.at 2008"/>
    <tag k="uploaded_by" v="Wolfgang W. Wasserburger"/>
  </way>
  <way id="32113756" version="3" timestamp="2009-03-14T21:02:57Z" uid="43967" user="railsnail" changeset="808202">
    <nd ref="360424086"/>
    <nd ref="207149813"/>
    <nd ref="79723720"/>
    <nd ref="79723721"/>
    <nd ref="207146008"/>
    <nd ref="79723722"/>
    <nd ref="79723723"/>
    <nd ref="79724116"/>
    <nd ref="79724117"/>
    <nd ref="79724118"/>
    <nd ref="79724119"/>
    <nd ref="79724120"/>
    <nd ref="207150498"/>
    <nd ref="79724121"/>
    <nd ref="79724122"/>
    <nd ref="33793786"/>
    <tag k="addr:postcode" v="9900"/>
    <tag k="at:maxspeed" v="Ortsgebiet"/>
    <tag k="created_by" v="Potlatch 0.10f"/>
    <tag k="highway" v="primary"/>
    <tag k="int_ref" v="E66"/>
    <tag k="is_in" v="...,Bezirk Lienz,Tirol,Österreich,Europa"/>
    <tag k="name" v="Pustertaler Straße"/>
    <tag k="nat_ref" v="B100"/>
    <tag k="note" v="imported from plan.at; (C)=CC-by-sa or oDBL; feel free to change if necessary"/>
    <tag k="plan_at:acad_id" v="lz304"/>
    <tag k="ref" v="100/E66"/>
    <tag k="source" v="plan.at 2008"/>
    <tag k="uploaded_by" v="Wolfgang W. Wasserburger"/>
  </way>
  <way id="32113756" version="4" timestamp="2009-08-21T14:05:40Z" uid="43967" user="railsnail" changeset="2224495">
    <nd ref="360424086"/>
    <nd ref="207149813"/>
    <nd ref="471949404"/>
    <nd ref="79723720"/>
    <nd ref="79723721"/>
    <nd ref="207146008"/>
    <nd ref="79723722"/>
    <nd ref="79723723"/>
    <nd ref="79724116"/>
    <nd ref="79724117"/>
    <nd ref="79724118"/>
    <nd ref="79724119"/>
    <nd ref="79724120"/>
    <nd ref="207150498"/>
    <nd ref="79724121"/>
    <nd ref="79724122"/>
    <nd ref="33793786"/>
    <tag k="addr:postcode" v="9900"/>
    <tag k="at:maxspeed" v="Ortsgebiet"/>
    <tag k="created_by" v="Potlatch 0.10f"/>
    <tag k="highway" v="primary"/>
    <tag k="int_ref" v="E66"/>
    <tag k="is_in" v="...,Bezirk Lienz,Tirol,Österreich,Europa"/>
    <tag k="name" v="Pustertaler Straße"/>
    <tag k="nat_ref" v="B100"/>
    <tag k="note" v="imported from plan.at; (C)=CC-by-sa or oDBL; feel free to change if necessary"/>
    <tag k="plan_at:acad_id" v="lz304"/>
    <tag k="ref" v="100/E66"/>
    <tag k="source" v="plan.at 2008"/>
    <tag k="uploaded_by" v="Wolfgang W. Wasserburger"/>
  </way>
  <way id="32113756" version="5" timestamp="2010-02-10T23:41:32Z" uid="45481" user="borisC" changeset="3844758">
    <nd ref="360424086"/>
    <nd ref="207149813"/>
    <nd ref="471949404"/>
    <nd ref="79723720"/>
    <nd ref="79723721"/>
    <nd ref="207146008"/>
    <nd ref="79723722"/>
    <nd ref="79723723"/>
    <nd ref="79724116"/>
    <nd ref="79724117"/>
    <nd ref="79724118"/>
    <nd ref="79724119"/>
    <nd ref="79724120"/>
    <nd ref="207150498"/>
    <nd ref="79724121"/>
    <nd ref="79724122"/>
    <nd ref="33793786"/>
    <tag k="highway" v="primary"/>
    <tag k="int_ref" v="E66"/>
    <tag k="name" v="Pustertaler Straße"/>
    <tag k="ref" v="B100"/>
    <tag k="source" v="plan.at 2008"/>
  </way>
  <way id="32113756" version="6" timestamp="2010-12-04T18:10:44Z" uid="9176" user="Maarten Deen" changeset="6541195">
    <nd ref="360424086"/>
    <nd ref="207149813"/>
    <nd ref="471949404"/>
    <nd ref="79723720"/>
    <nd ref="79723721"/>
    <nd ref="207146008"/>
    <nd ref="79723722"/>
    <nd ref="79723723"/>
    <nd ref="79724116"/>
    <nd ref="79724117"/>
    <nd ref="79724118"/>
    <nd ref="79724119"/>
    <nd ref="79724120"/>
    <nd ref="207150498"/>
    <nd ref="79724121"/>
    <nd ref="79724122"/>
    <nd ref="33793786"/>
    <tag k="highway" v="primary"/>
    <tag k="int_ref" v="E 66"/>
    <tag k="name" v="Pustertaler Straße"/>
    <tag k="ref" v="B100"/>
    <tag k="source" v="plan.at 2008"/>
  </way>
  <way id="32113756" version="7" timestamp="2011-04-04T16:55:32Z" uid="78656" user="Walter Schlögl" changeset="7766873">
    <nd ref="360424086"/>
    <nd ref="207149813"/>
    <nd ref="471949404"/>
    <nd ref="79723720"/>
    <nd ref="79723721"/>
    <nd ref="207146008"/>
    <nd ref="79723722"/>
    <nd ref="79723723"/>
    <nd ref="79724116"/>
    <nd ref="79724117"/>
    <nd ref="79724118"/>
    <nd ref="79724119"/>
    <nd ref="79724120"/>
    <nd ref="207150498"/>
    <nd ref="79724122"/>
    <nd ref="33793786"/>
    <tag k="highway" v="primary"/>
    <tag k="int_ref" v="E 66"/>
    <tag k="name" v="Pustertaler Straße"/>
    <tag k="ref" v="B100"/>
    <tag k="source" v="plan.at 2008"/>
  </way>
  <way id="32113756" version="8" timestamp="2012-01-27T10:57:08Z" uid="45481" user="borisC" changeset="10511132"/>
  <way id="32113774" version="1" timestamp="2009-03-14T21:02:11Z" uid="6269" user="Mueck" changeset="807216">
    <nd ref="360424250"/>
    <nd ref="360424380"/>
    <tag k="created_by" v="Potlatch 0.10f"/>
  </way>
  <way id="32113774" version="2" timestamp="2009-03-14T21:02:18Z" uid="6269" user="Mueck" changeset="807216">
    <nd ref="360424250"/>
    <nd ref="360424380"/>
    <tag k="created_by" v="Potlatch 0.10f"/>
    <tag k="highway" v="track"/>
    <tag k="smoothness" v="bad"/>
    <tag k="surface" v="ground"/>
    <tag k="tracktype" v="grade5"/>
  </way>
  <way id="32113774" version="3" timestamp="2009-03-14T21:02:39Z" uid="6269" user="Mueck" changeset="807216">
    <nd ref="360424250"/>
    <nd ref="360424380"/>
    <tag k="created_by" v="Potlatch 0.10f"/>
    <tag k="note" v="nur Rückeweg?"/>
    <tag k="smoothness" v="bad"/>
    <tag k="surface" v="ground"/>
    <tag k="tracktype" v="grade5"/>
  </way>
  <way id="32113779" version="1" timestamp="2009-03-14T21:02:17Z" uid="43967" user="railsnail" changeset="808202">
    <nd ref="207149714"/>
    <nd ref="207149724"/>
    <nd ref="207149721"/>
    <nd ref="207149754"/>
    <nd ref="207149813"/>
    <tag k="created_by" v="Potlatch 0.10f"/>
    <tag k="highway" v="residential"/>
    <tag k="name" v="Leisach"/>
  </way>
  <way id="32113779" version="2" timestamp="2009-03-14T21:02:33Z" uid="43967" user="railsnail" changeset="808202">
    <nd ref="207149714"/>
    <nd ref="207149724"/>
    <nd ref="207149721"/>
    <nd ref="207149754"/>
    <nd ref="207149813"/>
    <tag k="addr:postcode" v="9900"/>
    <tag k="at:maxspeed" v="Ortsgebiet"/>
    <tag k="created_by" v="Potlatch 0.10f"/>
    <tag k="highway" v="residential"/>
    <tag k="is_in" v="...,Bezirk Lienz,Tirol,Österreich,Europa"/>
    <tag k="name" v="Lienz"/>
    <tag k="note" v="imported from plan.at; (C)=CC-by-sa or oDBL; feel free to change if necessary"/>
    <tag k="plan_at:acad_id" v="lz181"/>
    <tag k="source" v="plan.at 2008"/>
    <tag k="uploaded_by" v="Wolfgang W. Wasserburger"/>
  </way>
  <way id="32113779" version="3" timestamp="2011-04-29T04:56:54Z" uid="45347" user="eriosw" changeset="8000389">
    <nd ref="207149714"/>
    <nd ref="207149724"/>
    <nd ref="207149721"/>
    <nd ref="207149754"/>
    <nd ref="207149813"/>
    <tag k="addr:postcode" v="9900"/>
    <tag k="highway" v="residential"/>
    <tag k="is_in" v="Lienz,Lienz,Tirol,Österreich,Europe"/>
    <tag k="name" v="Lienz"/>
    <tag k="note" v="imported from plan.at; (C)=CC-by-sa or oDBL; feel free to change if necessary"/>
    <tag k="plan_at:acad_id" v="lz181"/>
    <tag k="source" v="plan.at 2008"/>
    <tag k="uploaded_by" v="Wolfgang W. Wasserburger"/>
  </way>
  <way id="32113779" version="4" timestamp="2011-05-12T18:16:11Z" uid="45347" user="eriosw" changeset="8124781">
    <nd ref="207149714"/>
    <nd ref="207149724"/>
    <nd ref="207149721"/>
    <nd ref="207149754"/>
    <nd ref="207149813"/>
    <tag k="addr:postcode" v="9900"/>
    <tag k="highway" v="residential"/>
    <tag k="is_in" v="Lienz,Lienz,Tirol,Österreich,Europe"/>
    <tag k="name" v="Lienz"/>
    <tag k="source" v="plan.at 2008"/>
    <tag k="uploaded_by" v="Wolfgang W. Wasserburger"/>
  </way>
  <way id="32113779" version="5" timestamp="2011-07-27T10:29:26Z" uid="491845" user="data_at" changeset="8843646">
    <nd ref="207149714"/>
    <nd ref="207149724"/>
    <nd ref="207149721"/>
    <nd ref="207149754"/>
    <nd ref="207149813"/>
    <tag k="highway" v="residential"/>
    <tag k="is_in" v="Lienz,Lienz,Tirol,Österreich,Europe"/>
    <tag k="name" v="Lienz"/>
    <tag k="source" v="plan.at 2008"/>
  </way>
  <way id="32113779" version="6" timestamp="2012-01-30T12:01:02Z" uid="40843" user="Bene" changeset="10539064">
    <nd ref="207149714"/>
    <nd ref="207149724"/>
    <nd ref="207149721"/>
    <nd ref="207149754"/>
    <nd ref="207149813"/>
    <tag k="highway" v="residential"/>
    <tag k="is_in" v="Lienz,Lienz,Tirol,Österreich,Europe"/>
    <tag k="name" v="Lienz"/>
    <tag k="source" v="plan.at 2008"/>
  </way>
  <way id="32113779" version="7" timestamp="2012-01-30T15:54:35Z" uid="40843" user="Bene" changeset="10540910">
    <nd ref="207149714"/>
    <nd ref="207149724"/>
    <nd ref="207149721"/>
    <nd ref="207149754"/>
    <nd ref="207149813"/>
    <tag k="highway" v="residential"/>
    <tag k="is_in" v="Lienz,Lienz,Tirol,Österreich,Europe"/>
    <tag k="name" v="Lienz"/>
    <tag k="source" v="plan.at 2008"/>
  </way>
  <way id="32113779" version="8" timestamp="2012-02-12T10:36:32Z" uid="40843" user="Bene" changeset="10661254">
    <nd ref="207149714"/>
    <nd ref="1629473195"/>
    <nd ref="207149724"/>
    <nd ref="207149721"/>
    <nd ref="207149754"/>
    <nd ref="207149813"/>
    <tag k="highway" v="residential"/>
    <tag k="is_in" v="Lienz,Lienz,Tirol,Österreich,Europe"/>
    <tag k="name" v="Lienz"/>
    <tag k="source" v="plan.at 2008"/>
  </way>
  <way id="32113791" version="1" timestamp="2009-03-14T21:03:14Z" uid="43967" user="railsnail" changeset="808202">
    <nd ref="79723720"/>
    <nd ref="360424713"/>
    <tag k="created_by" v="Potlatch 0.10f"/>
    <tag k="highway" v="service"/>
  </way>
  <way id="32113791" version="2" timestamp="2012-01-30T12:01:08Z" uid="40843" user="Bene" changeset="10539064">
    <nd ref="79723720"/>
    <nd ref="360424713"/>
    <tag k="highway" v="service"/>
  </way>
  <way id="32113791" version="3" timestamp="2012-02-12T10:36:49Z" uid="40843" user="Bene" changeset="10661254">
    <nd ref="79723720"/>
    <nd ref="360424713"/>
    <tag k="highway" v="service"/>
  </way>
  <way id="32113793" version="1" timestamp="2009-03-14T21:03:46Z" uid="43967" user="railsnail" changeset="808202">
    <nd ref="360424874"/>
    <nd ref="360424875"/>
    <nd ref="360424876"/>
    <tag k="created_by" v="Potlatch 0.10f"/>
    <tag k="foot" v="yes"/>
    <tag k="highway" v="footway"/>
  </way>
  <way id="32113793" version="2" timestamp="2009-03-14T21:04:06Z" uid="43967" user="railsnail" changeset="808202">
    <nd ref="360424874"/>
    <nd ref="360424980"/>
    <nd ref="360424875"/>
    <nd ref="360424876"/>
    <tag k="created_by" v="Potlatch 0.10f"/>
    <tag k="foot" v="yes"/>
    <tag k="highway" v="footway"/>
  </way>
  <way id="32113793" version="3" timestamp="2009-03-14T21:07:15Z" uid="43967" user="railsnail" changeset="808202">
    <nd ref="360424874"/>
    <nd ref="360424980"/>
    <nd ref="360424875"/>
    <nd ref="360424876"/>
    <nd ref="360426212"/>
    <nd ref="360426213"/>
    <nd ref="360426160"/>
    <nd ref="360426214"/>
    <nd ref="360426215"/>
    <nd ref="360426217"/>
    <nd ref="360426218"/>
    <nd ref="360426219"/>
    <nd ref="360426220"/>
    <nd ref="360426221"/>
    <nd ref="360426222"/>
    <nd ref="360426223"/>
    <nd ref="360426225"/>
    <nd ref="360426226"/>
    <nd ref="360426227"/>
    <nd ref="360426228"/>
    <nd ref="360426229"/>
    <nd ref="360426230"/>
    <nd ref="360426232"/>
    <nd ref="360426234"/>
    <nd ref="360426235"/>
    <nd ref="360426236"/>
    <nd ref="360426237"/>
    <nd ref="360426238"/>
    <nd ref="360426239"/>
    <nd ref="360426240"/>
    <nd ref="360426242"/>
    <nd ref="360426243"/>
    <nd ref="360426244"/>
    <nd ref="360426245"/>
    <nd ref="360426246"/>
    <nd ref="360426247"/>
    <nd ref="360426248"/>
    <nd ref="360426250"/>
    <nd ref="360426251"/>
    <nd ref="360426252"/>
    <nd ref="360426253"/>
    <nd ref="360426254"/>
    <nd ref="360426255"/>
    <nd ref="360426256"/>
    <nd ref="360426258"/>
    <nd ref="360426259"/>
    <nd ref="360426260"/>
    <nd ref="360426261"/>
    <nd ref="360426262"/>
    <nd ref="360426264"/>
    <nd ref="360426265"/>
    <nd ref="360426266"/>
    <nd ref="360426267"/>
    <nd ref="360426268"/>
    <nd ref="360426270"/>
    <nd ref="360426271"/>
    <nd ref="360426272"/>
    <nd ref="360426274"/>
    <nd ref="360426275"/>
    <nd ref="360426276"/>
    <nd ref="360426277"/>
    <nd ref="360426279"/>
    <nd ref="360426280"/>
    <nd ref="360426196"/>
    <tag k="created_by" v="Potlatch 0.10f"/>
    <tag k="foot" v="yes"/>
    <tag k="highway" v="footway"/>
  </way>
  <way id="32113793" version="4" timestamp="2009-03-14T21:27:10Z" uid="43967" user="railsnail" changeset="808202">
    <nd ref="360424874"/>
    <nd ref="360424980"/>
    <nd ref="360424875"/>
    <nd ref="360424876"/>
    <nd ref="360426212"/>
    <nd ref="360426213"/>
    <nd ref="360426160"/>
    <nd ref="360426214"/>
    <nd ref="360426215"/>
    <nd ref="360426217"/>
    <nd ref="360426218"/>
    <nd ref="360426219"/>
    <nd ref="360426220"/>
    <nd ref="360426221"/>
    <nd ref="360426222"/>
    <nd ref="360426223"/>
    <nd ref="360426225"/>
    <nd ref="360426226"/>
    <nd ref="360426227"/>
    <nd ref="360426228"/>
    <nd ref="360426229"/>
    <nd ref="360426230"/>
    <nd ref="360426232"/>
    <nd ref="360426234"/>
    <nd ref="360426235"/>
    <nd ref="360426236"/>
    <nd ref="360426237"/>
    <nd ref="360426238"/>
    <nd ref="360426239"/>
    <nd ref="360426240"/>
    <nd ref="360426242"/>
    <nd ref="360426243"/>
    <nd ref="360426244"/>
    <nd ref="360426245"/>
    <nd ref="360426246"/>
    <nd ref="360426247"/>
    <nd ref="360426248"/>
    <nd ref="360426250"/>
    <nd ref="360426251"/>
    <nd ref="360426252"/>
    <nd ref="360426253"/>
    <nd ref="360426254"/>
    <nd ref="360426255"/>
    <nd ref="360426256"/>
    <nd ref="360426258"/>
    <nd ref="360426259"/>
    <nd ref="360426260"/>
    <nd ref="360426261"/>
    <nd ref="360426262"/>
    <nd ref="360426264"/>
    <nd ref="360426265"/>
    <nd ref="360426266"/>
    <nd ref="360426267"/>
    <nd ref="360426268"/>
    <nd ref="360426270"/>
    <nd ref="360426271"/>
    <nd ref="360426272"/>
    <tag k="created_by" v="Potlatch 0.10f"/>
    <tag k="foot" v="yes"/>
    <tag k="highway" v="footway"/>
  </way>
  <way id="32113793" version="5" timestamp="2009-04-25T08:14:17Z" uid="43967" user="railsnail" changeset="941048">
    <nd ref="384379006"/>
    <nd ref="384379010"/>
    <nd ref="384379012"/>
    <nd ref="384379014"/>
    <nd ref="384379016"/>
    <nd ref="384379018"/>
    <nd ref="384379020"/>
    <nd ref="384379023"/>
    <nd ref="384379026"/>
    <nd ref="384379029"/>
    <nd ref="384379032"/>
    <nd ref="384379034"/>
    <nd ref="384379037"/>
    <nd ref="384379040"/>
    <nd ref="384379043"/>
    <nd ref="384379045"/>
    <nd ref="384379048"/>
    <nd ref="384379051"/>
    <nd ref="384379053"/>
    <nd ref="384379056"/>
    <nd ref="384379058"/>
    <nd ref="384379061"/>
    <nd ref="384379063"/>
    <nd ref="384379066"/>
    <nd ref="384379068"/>
    <nd ref="384379071"/>
    <nd ref="384379073"/>
    <nd ref="384379076"/>
    <nd ref="384379078"/>
    <nd ref="384379081"/>
    <nd ref="384379084"/>
    <nd ref="384379086"/>
    <nd ref="384379089"/>
    <nd ref="384379091"/>
    <nd ref="384379094"/>
    <nd ref="384379096"/>
    <nd ref="384379099"/>
    <nd ref="384379102"/>
    <nd ref="384379104"/>
    <nd ref="384379107"/>
    <nd ref="384379110"/>
    <nd ref="384379112"/>
    <nd ref="384379113"/>
    <nd ref="384379114"/>
    <nd ref="384379115"/>
    <nd ref="384379116"/>
    <nd ref="360424874"/>
    <nd ref="360424980"/>
    <nd ref="360424875"/>
    <nd ref="360424876"/>
    <nd ref="360426212"/>
    <nd ref="360426213"/>
    <nd ref="360426160"/>
    <nd ref="360426214"/>
    <nd ref="360426215"/>
    <nd ref="360426217"/>
    <nd ref="360426218"/>
    <nd ref="360426219"/>
    <nd ref="360426220"/>
    <nd ref="360426221"/>
    <nd ref="360426222"/>
    <nd ref="360426223"/>
    <nd ref="360426225"/>
    <nd ref="360426226"/>
    <nd ref="360426227"/>
    <nd ref="360426228"/>
    <nd ref="360426229"/>
    <nd ref="360426230"/>
    <nd ref="360426232"/>
    <nd ref="360426234"/>
    <nd ref="360426235"/>
    <nd ref="360426236"/>
    <nd ref="360426237"/>
    <nd ref="360426238"/>
    <nd ref="360426239"/>
    <nd ref="360426240"/>
    <nd ref="360426242"/>
    <nd ref="360426243"/>
    <nd ref="360426244"/>
    <nd ref="360426245"/>
    <nd ref="360426246"/>
    <nd ref="360426247"/>
    <nd ref="360426248"/>
    <nd ref="360426250"/>
    <nd ref="360426251"/>
    <nd ref="360426252"/>
    <nd ref="360426253"/>
    <nd ref="360426254"/>
    <nd ref="360426255"/>
    <nd ref="360426256"/>
    <nd ref="360426258"/>
    <nd ref="360426259"/>
    <nd ref="360426260"/>
    <nd ref="360426261"/>
    <nd ref="360426262"/>
    <nd ref="360426264"/>
    <nd ref="360426265"/>
    <nd ref="360426266"/>
    <nd ref="360426267"/>
    <nd ref="360426268"/>
    <nd ref="360426270"/>
    <nd ref="360426271"/>
    <nd ref="360426272"/>
    <tag k="created_by" v="Potlatch 0.10f"/>
    <tag k="foot" v="yes"/>
    <tag k="highway" v="footway"/>
  </way>
  <way id="32113793" version="6" timestamp="2009-04-25T08:19:01Z" uid="43967" user="railsnail" changeset="941048">
    <nd ref="384379006"/>
    <nd ref="384383059"/>
    <nd ref="384379010"/>
    <nd ref="384379012"/>
    <nd ref="384379014"/>
    <nd ref="384379016"/>
    <nd ref="384379018"/>
    <nd ref="384379020"/>
    <nd ref="384379023"/>
    <nd ref="384379026"/>
    <nd ref="384379029"/>
    <nd ref="384379032"/>
    <nd ref="384379034"/>
    <nd ref="384379037"/>
    <nd ref="384379040"/>
    <nd ref="384379043"/>
    <nd ref="384379045"/>
    <nd ref="384379048"/>
    <nd ref="384379051"/>
    <nd ref="384379053"/>
    <nd ref="384379056"/>
    <nd ref="384379058"/>
    <nd ref="384379061"/>
    <nd ref="384379063"/>
    <nd ref="384379066"/>
    <nd ref="384379068"/>
    <nd ref="384379071"/>
    <nd ref="384379073"/>
    <nd ref="384379076"/>
    <nd ref="384379078"/>
    <nd ref="384379081"/>
    <nd ref="384379084"/>
    <nd ref="384379086"/>
    <nd ref="384379089"/>
    <nd ref="384379091"/>
    <nd ref="384379094"/>
    <nd ref="384379096"/>
    <nd ref="384379099"/>
    <nd ref="384379102"/>
    <nd ref="384379104"/>
    <nd ref="384379107"/>
    <nd ref="384379110"/>
    <nd ref="384379112"/>
    <nd ref="384379113"/>
    <nd ref="384379114"/>
    <nd ref="384379115"/>
    <nd ref="384379116"/>
    <nd ref="360424874"/>
    <nd ref="360424980"/>
    <nd ref="360424875"/>
    <nd ref="360424876"/>
    <nd ref="360426212"/>
    <nd ref="360426213"/>
    <nd ref="360426160"/>
    <nd ref="360426214"/>
    <nd ref="360426215"/>
    <nd ref="360426217"/>
    <nd ref="360426218"/>
    <nd ref="360426219"/>
    <nd ref="360426220"/>
    <nd ref="360426221"/>
    <nd ref="360426222"/>
    <nd ref="360426223"/>
    <nd ref="360426225"/>
    <nd ref="360426226"/>
    <nd ref="360426227"/>
    <nd ref="360426228"/>
    <nd ref="360426229"/>
    <nd ref="360426230"/>
    <nd ref="360426232"/>
    <nd ref="360426234"/>
    <nd ref="360426235"/>
    <nd ref="360426236"/>
    <nd ref="360426237"/>
    <nd ref="360426238"/>
    <nd ref="360426239"/>
    <nd ref="360426240"/>
    <nd ref="360426242"/>
    <nd ref="360426243"/>
    <nd ref="360426244"/>
    <nd ref="360426245"/>
    <nd ref="360426246"/>
    <nd ref="360426247"/>
    <nd ref="360426248"/>
    <nd ref="360426250"/>
    <nd ref="360426251"/>
    <nd ref="360426252"/>
    <nd ref="360426253"/>
    <nd ref="360426254"/>
    <nd ref="360426255"/>
    <nd ref="360426256"/>
    <nd ref="360426258"/>
    <nd ref="360426259"/>
    <nd ref="360426260"/>
    <nd ref="360426261"/>
    <nd ref="360426262"/>
    <nd ref="360426264"/>
    <nd ref="360426265"/>
    <nd ref="360426266"/>
    <nd ref="360426267"/>
    <nd ref="360426268"/>
    <nd ref="360426270"/>
    <nd ref="360426271"/>
    <nd ref="360426272"/>
    <tag k="created_by" v="Potlatch 0.10f"/>
    <tag k="foot" v="yes"/>
    <tag k="highway" v="footway"/>
  </way>
  <way id="32113793" version="7" timestamp="2009-04-25T08:22:45Z" uid="43967" user="railsnail" changeset="941048">
    <nd ref="384379006"/>
    <nd ref="384383059"/>
    <nd ref="384379010"/>
    <nd ref="384379012"/>
    <nd ref="384379014"/>
    <nd ref="384379016"/>
    <nd ref="384379018"/>
    <nd ref="384379020"/>
    <nd ref="384379023"/>
    <nd ref="384379026"/>
    <nd ref="384379029"/>
    <nd ref="384379032"/>
    <nd ref="384379034"/>
    <nd ref="384379037"/>
    <nd ref="384379040"/>
    <nd ref="384379043"/>
    <nd ref="384379045"/>
    <nd ref="384379048"/>
    <nd ref="384379051"/>
    <nd ref="384379053"/>
    <nd ref="384379056"/>
    <nd ref="384379058"/>
    <nd ref="384379061"/>
    <nd ref="384379063"/>
    <nd ref="384379066"/>
    <nd ref="384379068"/>
    <nd ref="384379071"/>
    <nd ref="384379073"/>
    <nd ref="384379076"/>
    <nd ref="384379078"/>
    <nd ref="384379081"/>
    <nd ref="384379084"/>
    <nd ref="384379086"/>
    <nd ref="384379089"/>
    <nd ref="384379091"/>
    <nd ref="384379094"/>
    <nd ref="384379096"/>
    <nd ref="384379099"/>
    <nd ref="384379102"/>
    <nd ref="384379104"/>
    <nd ref="384379107"/>
    <nd ref="384379110"/>
    <nd ref="384379112"/>
    <nd ref="384379113"/>
    <nd ref="384379114"/>
    <nd ref="384379115"/>
    <nd ref="384389866"/>
    <nd ref="384379116"/>
    <nd ref="360424874"/>
    <nd ref="360424980"/>
    <nd ref="360424875"/>
    <nd ref="360424876"/>
    <nd ref="360426212"/>
    <nd ref="360426213"/>
    <nd ref="360426160"/>
    <nd ref="360426214"/>
    <nd ref="360426215"/>
    <nd ref="360426217"/>
    <nd ref="360426218"/>
    <nd ref="360426219"/>
    <nd ref="360426220"/>
    <nd ref="360426221"/>
    <nd ref="360426222"/>
    <nd ref="360426223"/>
    <nd ref="360426225"/>
    <nd ref="360426226"/>
    <nd ref="360426227"/>
    <nd ref="360426228"/>
    <nd ref="360426229"/>
    <nd ref="360426230"/>
    <nd ref="360426232"/>
    <nd ref="360426234"/>
    <nd ref="360426235"/>
    <nd ref="360426236"/>
    <nd ref="360426237"/>
    <nd ref="360426238"/>
    <nd ref="360426239"/>
    <nd ref="360426240"/>
    <nd ref="360426242"/>
    <nd ref="360426243"/>
    <nd ref="360426244"/>
    <nd ref="360426245"/>
    <nd ref="360426246"/>
    <nd ref="360426247"/>
    <nd ref="360426248"/>
    <nd ref="360426250"/>
    <nd ref="360426251"/>
    <nd ref="360426252"/>
    <nd ref="360426253"/>
    <nd ref="360426254"/>
    <nd ref="360426255"/>
    <nd ref="360426256"/>
    <nd ref="360426258"/>
    <nd ref="360426259"/>
    <nd ref="360426260"/>
    <nd ref="360426261"/>
    <nd ref="360426262"/>
    <nd ref="360426264"/>
    <nd ref="360426265"/>
    <nd ref="360426266"/>
    <nd ref="360426267"/>
    <nd ref="360426268"/>
    <nd ref="360426270"/>
    <nd ref="360426271"/>
    <nd ref="360426272"/>
    <tag k="created_by" v="Potlatch 0.10f"/>
    <tag k="foot" v="yes"/>
    <tag k="highway" v="footway"/>
  </way>
  <way id="32113793" version="8" timestamp="2010-03-20T16:44:56Z" uid="29765" user="Glg11" changeset="4181853">
    <nd ref="384379006"/>
    <nd ref="384383059"/>
    <nd ref="384379010"/>
    <nd ref="384379012"/>
    <nd ref="384379014"/>
    <nd ref="384379016"/>
    <nd ref="384379018"/>
    <nd ref="384379020"/>
    <nd ref="384379023"/>
    <nd ref="384379026"/>
    <nd ref="384379029"/>
    <nd ref="384379034"/>
    <nd ref="384379037"/>
    <nd ref="384379040"/>
    <nd ref="384379043"/>
    <nd ref="384379045"/>
    <nd ref="384379048"/>
    <nd ref="384379051"/>
    <nd ref="384379053"/>
    <nd ref="384379056"/>
    <nd ref="384379061"/>
    <nd ref="384379063"/>
    <nd ref="384379066"/>
    <nd ref="384379068"/>
    <nd ref="384379071"/>
    <nd ref="384379073"/>
    <nd ref="384379076"/>
    <nd ref="384379078"/>
    <nd ref="384379081"/>
    <nd ref="384379084"/>
    <nd ref="384379086"/>
    <nd ref="384379089"/>
    <nd ref="384379091"/>
    <nd ref="384379094"/>
    <nd ref="384379096"/>
    <nd ref="384379099"/>
    <nd ref="384379102"/>
    <nd ref="384379104"/>
    <nd ref="384379107"/>
    <nd ref="384379110"/>
    <nd ref="384379112"/>
    <nd ref="384379113"/>
    <nd ref="384379114"/>
    <nd ref="384379115"/>
    <nd ref="384389866"/>
    <nd ref="384379116"/>
    <nd ref="360424874"/>
    <nd ref="360424980"/>
    <nd ref="360424875"/>
    <nd ref="360424876"/>
    <nd ref="360426212"/>
    <nd ref="360426213"/>
    <nd ref="360426160"/>
    <nd ref="360426214"/>
    <nd ref="360426215"/>
    <nd ref="360426217"/>
    <nd ref="360426218"/>
    <nd ref="360426219"/>
    <nd ref="360426220"/>
    <nd ref="360426221"/>
    <nd ref="360426222"/>
    <nd ref="360426223"/>
    <nd ref="360426226"/>
    <nd ref="360426227"/>
    <nd ref="360426228"/>
    <nd ref="360426229"/>
    <nd ref="360426230"/>
    <nd ref="360426232"/>
    <nd ref="360426234"/>
    <nd ref="360426235"/>
    <nd ref="360426236"/>
    <nd ref="360426237"/>
    <nd ref="360426238"/>
    <nd ref="360426239"/>
    <nd ref="360426240"/>
    <nd ref="360426242"/>
    <nd ref="360426243"/>
    <nd ref="360426244"/>
    <nd ref="360426245"/>
    <nd ref="360426246"/>
    <nd ref="360426247"/>
    <nd ref="360426248"/>
    <nd ref="360426250"/>
    <nd ref="360426252"/>
    <nd ref="360426253"/>
    <nd ref="360426254"/>
    <nd ref="360426255"/>
    <nd ref="360426256"/>
    <nd ref="360426258"/>
    <nd ref="360426259"/>
    <nd ref="360426260"/>
    <nd ref="360426261"/>
    <nd ref="360426262"/>
    <nd ref="360426264"/>
    <nd ref="360426265"/>
    <nd ref="360426266"/>
    <nd ref="360426267"/>
    <nd ref="360426270"/>
    <nd ref="360426271"/>
    <nd ref="360426272"/>
    <tag k="foot" v="yes"/>
    <tag k="highway" v="footway"/>
  </way>
  <way id="32113793" version="9" timestamp="2010-05-31T15:35:54Z" uid="43967" user="railsnail" changeset="4864817">
    <nd ref="384379006"/>
    <nd ref="384383059"/>
    <nd ref="384379010"/>
    <nd ref="384379012"/>
    <nd ref="384379014"/>
    <nd ref="384379016"/>
    <nd ref="760459152"/>
    <nd ref="384379018"/>
    <nd ref="384379020"/>
    <nd ref="384379023"/>
    <nd ref="384379026"/>
    <nd ref="384379029"/>
    <nd ref="760459153"/>
    <nd ref="384379034"/>
    <nd ref="384379037"/>
    <nd ref="384379040"/>
    <nd ref="384379043"/>
    <nd ref="384379045"/>
    <nd ref="384379048"/>
    <nd ref="384379051"/>
    <nd ref="384379053"/>
    <nd ref="384379056"/>
    <nd ref="384379061"/>
    <nd ref="384379063"/>
    <nd ref="384379066"/>
    <nd ref="384379068"/>
    <nd ref="384379071"/>
    <nd ref="384379073"/>
    <nd ref="384379076"/>
    <nd ref="384379078"/>
    <nd ref="384379081"/>
    <nd ref="384379084"/>
    <nd ref="384379086"/>
    <nd ref="384379089"/>
    <nd ref="384379091"/>
    <nd ref="384379094"/>
    <nd ref="384379096"/>
    <nd ref="384379099"/>
    <nd ref="384379102"/>
    <nd ref="384379104"/>
    <nd ref="384379107"/>
    <nd ref="384379110"/>
    <nd ref="384379112"/>
    <nd ref="384379113"/>
    <nd ref="384379114"/>
    <nd ref="384379115"/>
    <nd ref="384389866"/>
    <nd ref="384379116"/>
    <nd ref="360424874"/>
    <nd ref="360424980"/>
    <nd ref="360424875"/>
    <nd ref="360424876"/>
    <nd ref="360426212"/>
    <nd ref="360426213"/>
    <nd ref="360426160"/>
    <nd ref="360426214"/>
    <nd ref="360426215"/>
    <nd ref="360426217"/>
    <nd ref="360426218"/>
    <nd ref="360426219"/>
    <nd ref="360426220"/>
    <nd ref="360426221"/>
    <nd ref="360426222"/>
    <nd ref="360426223"/>
    <nd ref="360426226"/>
    <nd ref="360426227"/>
    <nd ref="360426228"/>
    <nd ref="360426229"/>
    <nd ref="360426230"/>
    <nd ref="360426232"/>
    <nd ref="360426234"/>
    <nd ref="360426235"/>
    <nd ref="360426236"/>
    <nd ref="360426237"/>
    <nd ref="360426238"/>
    <nd ref="360426239"/>
    <nd ref="360426240"/>
    <nd ref="360426242"/>
    <nd ref="360426243"/>
    <nd ref="360426244"/>
    <nd ref="360426245"/>
    <nd ref="360426246"/>
    <nd ref="360426247"/>
    <nd ref="360426248"/>
    <nd ref="360426250"/>
    <nd ref="360426252"/>
    <nd ref="360426253"/>
    <nd ref="360426254"/>
    <nd ref="360426255"/>
    <nd ref="360426256"/>
    <nd ref="360426258"/>
    <nd ref="360426259"/>
    <nd ref="360426260"/>
    <nd ref="360426261"/>
    <nd ref="360426262"/>
    <nd ref="360426264"/>
    <nd ref="360426265"/>
    <nd ref="360426266"/>
    <nd ref="360426267"/>
    <nd ref="360426270"/>
    <nd ref="360426271"/>
    <nd ref="360426272"/>
    <tag k="foot" v="yes"/>
    <tag k="highway" v="footway"/>
  </way>
  <way id="32113793" version="10" timestamp="2012-01-06T15:16:24Z" uid="45481" user="borisC" changeset="10312522">
    <nd ref="384379006"/>
    <nd ref="384383059"/>
    <nd ref="384379010"/>
    <nd ref="384379012"/>
    <nd ref="384379014"/>
    <nd ref="384379016"/>
    <nd ref="760459152"/>
    <nd ref="384379018"/>
    <nd ref="384379020"/>
    <nd ref="384379023"/>
    <nd ref="384379026"/>
    <nd ref="384379029"/>
    <nd ref="760459153"/>
    <nd ref="384379034"/>
    <nd ref="384379037"/>
    <nd ref="384379040"/>
    <nd ref="384379043"/>
    <nd ref="384379045"/>
    <nd ref="384379048"/>
    <nd ref="384379051"/>
    <nd ref="384379053"/>
    <nd ref="384379056"/>
    <nd ref="384379061"/>
    <nd ref="384379063"/>
    <nd ref="384379066"/>
    <nd ref="384379068"/>
    <nd ref="384379071"/>
    <nd ref="384379073"/>
    <nd ref="384379076"/>
    <nd ref="384379078"/>
    <nd ref="384379081"/>
    <nd ref="384379084"/>
    <nd ref="384379086"/>
    <nd ref="384379089"/>
    <nd ref="384379091"/>
    <nd ref="384379094"/>
    <nd ref="384379096"/>
    <nd ref="384379099"/>
    <nd ref="384379102"/>
    <nd ref="384379104"/>
    <nd ref="384379107"/>
    <nd ref="384379110"/>
    <nd ref="384379112"/>
    <nd ref="384379113"/>
    <nd ref="384379114"/>
    <nd ref="384379115"/>
    <nd ref="384389866"/>
    <nd ref="384379116"/>
    <nd ref="360424874"/>
    <nd ref="360424980"/>
    <nd ref="360424875"/>
    <nd ref="360424876"/>
    <nd ref="360426212"/>
    <nd ref="360426213"/>
    <nd ref="360426160"/>
    <nd ref="360426214"/>
    <nd ref="360426215"/>
    <nd ref="360426217"/>
    <nd ref="360426218"/>
    <nd ref="360426219"/>
    <nd ref="360426220"/>
    <nd ref="360426221"/>
    <nd ref="360426222"/>
    <nd ref="360426223"/>
    <nd ref="360426226"/>
    <nd ref="360426227"/>
    <nd ref="360426228"/>
    <nd ref="360426229"/>
    <nd ref="360426230"/>
    <nd ref="360426232"/>
    <nd ref="360426234"/>
    <nd ref="360426235"/>
    <nd ref="360426236"/>
    <nd ref="360426237"/>
    <nd ref="360426238"/>
    <nd ref="360426239"/>
    <nd ref="360426240"/>
    <nd ref="360426242"/>
    <nd ref="360426243"/>
    <nd ref="360426244"/>
    <nd ref="360426245"/>
    <nd ref="360426246"/>
    <nd ref="360426247"/>
    <nd ref="360426248"/>
    <nd ref="360426250"/>
    <nd ref="360426252"/>
    <nd ref="360426253"/>
    <nd ref="360426254"/>
    <nd ref="360426255"/>
    <nd ref="360426256"/>
    <nd ref="360426258"/>
    <nd ref="360426259"/>
    <nd ref="360426260"/>
    <nd ref="360426261"/>
    <nd ref="360426262"/>
    <nd ref="360426264"/>
    <nd ref="360426265"/>
    <nd ref="360426266"/>
    <nd ref="360426267"/>
    <nd ref="360426270"/>
    <nd ref="360426271"/>
    <nd ref="360426272"/>
    <tag k="foot" v="yes"/>
    <tag k="highway" v="path"/>
  </way>
  <way id="32113801" version="1" timestamp="2009-03-14T21:04:05Z" uid="43967" user="railsnail" changeset="808202">
    <nd ref="360424713"/>
    <nd ref="360424973"/>
    <nd ref="360424975"/>
    <nd ref="360424976"/>
    <nd ref="360424977"/>
    <nd ref="360424978"/>
    <nd ref="360424980"/>
    <tag k="created_by" v="Potlatch 0.10f"/>
    <tag k="foot" v="yes"/>
    <tag k="highway" v="footway"/>
  </way>
  <way id="32113801" version="2" timestamp="2012-01-06T15:16:26Z" uid="45481" user="borisC" changeset="10312522">
    <nd ref="360424713"/>
    <nd ref="360424973"/>
    <nd ref="360424975"/>
    <nd ref="360424976"/>
    <nd ref="360424977"/>
    <nd ref="360424978"/>
    <nd ref="360424980"/>
    <tag k="foot" v="yes"/>
    <tag k="highway" v="path"/>
  </way>
  <way id="32113801" version="3" timestamp="2012-02-12T10:36:58Z" uid="40843" user="Bene" changeset="10661254">
    <nd ref="360424713"/>
    <nd ref="360424973"/>
    <nd ref="360424975"/>
    <nd ref="360424976"/>
    <nd ref="360424977"/>
    <nd ref="360424978"/>
    <nd ref="360424980"/>
    <tag k="foot" v="yes"/>
    <tag k="highway" v="path"/>
  </way>
  <way id="32113812" version="1" timestamp="2009-03-14T21:04:30Z" uid="43967" user="railsnail" changeset="808202">
    <nd ref="360425110"/>
    <nd ref="360425114"/>
    <tag k="created_by" v="Potlatch 0.10f"/>
    <tag k="foot" v="yes"/>
    <tag k="highway" v="footway"/>
  </way>
  <way id="32113812" version="2" timestamp="2009-03-14T21:07:03Z" uid="43967" user="railsnail" changeset="808202">
    <nd ref="360425110"/>
    <nd ref="360426160"/>
    <nd ref="360425114"/>
    <tag k="created_by" v="Potlatch 0.10f"/>
    <tag k="foot" v="yes"/>
    <tag k="highway" v="footway"/>
  </way>
  <way id="32113812" version="3" timestamp="2012-01-06T15:57:01Z" uid="45481" user="borisC" changeset="10312899">
    <nd ref="360425110"/>
    <nd ref="360426160"/>
    <nd ref="360425114"/>
    <tag k="foot" v="yes"/>
    <tag k="highway" v="path"/>
  </way>
  <way id="32113812" version="4" timestamp="2012-01-30T12:01:12Z" uid="40843" user="Bene" changeset="10539064">
    <nd ref="360425110"/>
    <nd ref="360426160"/>
    <nd ref="360425114"/>
    <tag k="foot" v="yes"/>
    <tag k="highway" v="path"/>
  </way>
  <way id="32113813" version="8" timestamp="2010-04-03T04:11:56Z" uid="20587" user="balrog-kun" changeset="4309442">
    <nd ref="175208144"/>
    <nd ref="360427903"/>
    <nd ref="360425834"/>
    <nd ref="360425612"/>
    <nd ref="360425616"/>
    <nd ref="360425170"/>
    <nd ref="360425132"/>
    <tag k="created_by" v="Potlatch 0.10f"/>
    <tag k="highway" v="secondary"/>
    <tag k="name" v="North Pantano Road"/>
    <tag k="oneway" v="yes"/>
  </way>
  <way id="32113818" version="7" timestamp="2010-04-03T04:11:56Z" uid="20587" user="balrog-kun" changeset="4309442">
    <nd ref="360425132"/>
    <nd ref="175432718"/>
    <nd ref="175432719"/>
    <nd ref="360410317"/>
    <nd ref="360429676"/>
    <nd ref="360426301"/>
    <nd ref="360427847"/>
    <nd ref="175208144"/>
    <tag k="created_by" v="Potlatch 0.10f"/>
    <tag k="highway" v="secondary"/>
    <tag k="name" v="North Pantano Road"/>
    <tag k="oneway" v="yes"/>
    <tag k="tiger:cfcc" v="A41"/>
    <tag k="tiger:county" v="Pima, AZ"/>
    <tag k="tiger:name_base" v="Pantano"/>
    <tag k="tiger:name_direction_prefix" v="N"/>
    <tag k="tiger:name_type" v="Rd"/>
    <tag k="tiger:reviewed" v="no"/>
    <tag k="tiger:separated" v="no"/>
    <tag k="tiger:source" v="tiger_import_dch_v0.6_20070809"/>
    <tag k="tiger:tlid" v="121406951:121406952:121210376:121178938:121182286:121192534:121178536:121192544:121182287:121182289:121182291:121382806:121382807:121194033:121382880:121382881:121194029:121194035:121182320:121182423:121182426:121182428:121412198:121182432:121182434:12118"/>
    <tag k="tiger:zip_left" v="85715"/>
    <tag k="tiger:zip_right" v="85715"/>
  </way>
  <way id="32113846" version="2" timestamp="2009-03-16T23:36:42Z" uid="34428" user="usm78-gis" changeset="823928">
    <nd ref="360425775"/>
    <nd ref="360425777"/>
    <tag k="created_by" v="Potlatch 0.10f"/>
    <tag k="highway" v="residential"/>
    <tag k="name" v="Быковская ул."/>
  </way>
  <way id="32113846" version="3" timestamp="2009-03-17T06:02:50Z" uid="30590" user="KekcuHa" changeset="823875">
    <nd ref="360425775"/>
    <nd ref="360425777"/>
    <tag k="addr:postcode" v="196210"/>
    <tag k="cladr:code" v="78000000000187800"/>
    <tag k="cladr:name" v="Быковская"/>
    <tag k="cladr:suffix" v="Улица"/>
    <tag k="highway" v="residential"/>
    <tag k="name" v="Быковская улица"/>
  </way>
  <way id="32113846" version="4" timestamp="2009-03-17T06:39:06Z" uid="30590" user="KekcuHa" changeset="823875">
    <nd ref="360425775"/>
    <nd ref="360425777"/>
    <tag k="addr:postcode" v="196210"/>
    <tag k="cladr:code" v="78000000000187800"/>
    <tag k="cladr:name" v="Быковская"/>
    <tag k="cladr:suffix" v="Улица"/>
    <tag k="highway" v="residential"/>
    <tag k="name" v="Быковская улица"/>
  </way>
  <way id="32113846" version="5" timestamp="2009-03-19T23:07:32Z" uid="34428" user="usm78-gis" changeset="836582">
    <nd ref="363951716"/>
    <nd ref="360425775"/>
    <nd ref="360425777"/>
    <tag k="addr:postcode" v="196210"/>
    <tag k="cladr:code" v="78000000000187800"/>
    <tag k="cladr:name" v="Быковская"/>
    <tag k="cladr:suffix" v="Улица"/>
    <tag k="highway" v="residential"/>
    <tag k="name" v="Быковская ул."/>
  </way>
  <way id="32113846" version="6" timestamp="2010-05-11T17:14:48Z" uid="43262" user="KonTur" changeset="4670388">
    <nd ref="363951716"/>
    <nd ref="360425777"/>
    <tag k="addr:postcode" v="196210"/>
    <tag k="cladr:code" v="78000000000187800"/>
    <tag k="cladr:name" v="Быковская"/>
    <tag k="cladr:suffix" v="Улица"/>
    <tag k="highway" v="residential"/>
    <tag k="name" v="Быковская ул."/>
  </way>
  <way id="32113846" version="7" timestamp="2011-04-18T15:52:36Z" uid="133332" user="AMDmi3" changeset="7898227">
    <nd ref="363951716"/>
    <nd ref="360425777"/>
    <tag k="addr:postcode" v="196210"/>
    <tag k="cladr:code" v="78000000000187800"/>
    <tag k="cladr:name" v="Быковская"/>
    <tag k="cladr:suffix" v="Улица"/>
    <tag k="highway" v="residential"/>
    <tag k="name" v="Быковская улица"/>
  </way>
  <way id="32113846" version="8" timestamp="2011-07-13T12:47:51Z" uid="392109" user="GaM" changeset="8712349">
    <nd ref="363951716"/>
    <nd ref="360425777"/>
    <tag k="highway" v="unclassified"/>
  </way>
  <way id="32113960" version="2" timestamp="2009-03-28T19:55:30Z" uid="34428" user="usm78-gis" changeset="865258">
    <nd ref="366667105"/>
    <nd ref="360426354"/>
    <nd ref="360426355"/>
    <nd ref="360426356"/>
    <tag k="created_by" v="Potlatch 0.10f"/>
    <tag k="highway" v="residential"/>
  </way>
  <way id="32113960" version="3" timestamp="2011-03-01T16:23:24Z" uid="136198" user="tmprec" changeset="7430534">
    <nd ref="366667105"/>
    <nd ref="360426354"/>
    <nd ref="360426355"/>
    <nd ref="360426356"/>
    <tag k="highway" v="residential"/>
  </way>
  <way id="32113960" version="4" timestamp="2011-04-02T21:32:00Z" uid="303945" user="Дмитрий Кудряшов" changeset="7748639">
    <nd ref="366667105"/>
    <nd ref="360426354"/>
    <nd ref="360426355"/>
    <nd ref="360426356"/>
    <tag k="highway" v="unclassified"/>
  </way>
  <way id="32113960" version="5" timestamp="2011-08-30T15:06:32Z" uid="143266" user="Sergey Astakhov" changeset="9168196">
    <nd ref="366667105"/>
    <nd ref="1418154304"/>
    <nd ref="1418154288"/>
    <nd ref="360426354"/>
    <nd ref="360426355"/>
    <nd ref="360426356"/>
    <tag k="highway" v="unclassified"/>
  </way>
  <way id="32113960" version="6" timestamp="2011-11-16T04:24:42Z" uid="392109" user="GaM" changeset="9841064">
    <nd ref="366667105"/>
    <nd ref="1504688836"/>
    <nd ref="1504688796"/>
    <nd ref="1418154304"/>
    <nd ref="1418154288"/>
    <nd ref="360426354"/>
    <nd ref="360426355"/>
    <nd ref="360426356"/>
    <tag k="highway" v="unclassified"/>
  </way>
  <way id="32113961" version="1" timestamp="2009-03-14T21:07:39Z" uid="43967" user="railsnail" changeset="808202">
    <nd ref="360426196"/>
    <nd ref="322932284"/>
    <nd ref="322932286"/>
    <nd ref="322932287"/>
    <nd ref="322932288"/>
    <nd ref="322932291"/>
    <nd ref="322932295"/>
    <nd ref="322932298"/>
    <nd ref="322931723"/>
    <nd ref="322932300"/>
    <nd ref="322932301"/>
    <nd ref="322932302"/>
    <nd ref="322932304"/>
    <nd ref="322932305"/>
    <nd ref="322932308"/>
    <nd ref="322932309"/>
    <nd ref="322932311"/>
    <nd ref="322929978"/>
    <nd ref="322932312"/>
    <nd ref="322932314"/>
    <nd ref="322932315"/>
    <nd ref="322932317"/>
    <nd ref="322932318"/>
    <nd ref="322929984"/>
    <nd ref="330925634"/>
    <tag k="addr:postcode" v="9900"/>
    <tag k="at:maxspeed" v="Ortsgebiet"/>
    <tag k="created_by" v="Potlatch 0.10f"/>
    <tag k="fixme" v="check import"/>
    <tag k="highway" v="plan.at:lz:residential"/>
    <tag k="is_in" v="...,Bezirk Lienz,Tirol,Österreich,Europa"/>
    <tag k="name" v="Lienz"/>
    <tag k="note" v="imported from plan.at; (C)=CC-by-sa or oDBL; feel free to change if necessary"/>
    <tag k="plan_at:acad_id" v="lz130"/>
    <tag k="source" v="plan.at 2008"/>
    <tag k="uploaded_by" v="Wolfgang W. Wasserburger"/>
  </way>
  <way id="32113961" version="2" timestamp="2009-03-14T21:09:56Z" uid="43967" user="railsnail" changeset="808202">
    <nd ref="360426196"/>
    <nd ref="322932284"/>
    <nd ref="322932286"/>
    <nd ref="322932287"/>
    <nd ref="360427391"/>
    <nd ref="322932288"/>
    <nd ref="322932291"/>
    <nd ref="322932295"/>
    <nd ref="322932298"/>
    <nd ref="322931723"/>
    <nd ref="322932300"/>
    <nd ref="322932301"/>
    <nd ref="322932302"/>
    <nd ref="322932304"/>
    <nd ref="322932305"/>
    <nd ref="322932308"/>
    <nd ref="322932309"/>
    <nd ref="322932311"/>
    <nd ref="322929978"/>
    <nd ref="322932312"/>
    <nd ref="322932314"/>
    <nd ref="322932315"/>
    <nd ref="322932317"/>
    <nd ref="322932318"/>
    <nd ref="322929984"/>
    <nd ref="330925634"/>
    <tag k="addr:postcode" v="9900"/>
    <tag k="at:maxspeed" v="Ortsgebiet"/>
    <tag k="created_by" v="Potlatch 0.10f"/>
    <tag k="fixme" v="check import"/>
    <tag k="highway" v="service"/>
    <tag k="is_in" v="...,Bezirk Lienz,Tirol,Österreich,Europa"/>
    <tag k="note" v="imported from plan.at; (C)=CC-by-sa or oDBL; feel free to change if necessary"/>
    <tag k="plan_at:acad_id" v="lz130"/>
    <tag k="source" v="plan.at 2008"/>
    <tag k="uploaded_by" v="Wolfgang W. Wasserburger"/>
  </way>
  <way id="32113961" version="3" timestamp="2009-03-14T21:20:33Z" uid="43967" user="railsnail" changeset="808202">
    <nd ref="360426196"/>
    <nd ref="322932284"/>
    <nd ref="322932286"/>
    <nd ref="322932287"/>
    <nd ref="360427391"/>
    <nd ref="322932288"/>
    <nd ref="322932291"/>
    <nd ref="322932295"/>
    <nd ref="322932298"/>
    <nd ref="322931723"/>
    <nd ref="322932300"/>
    <nd ref="322932301"/>
    <nd ref="322932302"/>
    <nd ref="322932304"/>
    <nd ref="322932305"/>
    <nd ref="322932308"/>
    <nd ref="322932309"/>
    <nd ref="322932311"/>
    <nd ref="322929978"/>
    <nd ref="322932312"/>
    <nd ref="322932314"/>
    <nd ref="322932315"/>
    <nd ref="322932317"/>
    <nd ref="322932318"/>
    <nd ref="322929984"/>
    <nd ref="330925634"/>
    <tag k="addr:postcode" v="9900"/>
    <tag k="at:maxspeed" v="Ortsgebiet"/>
    <tag k="created_by" v="Potlatch 0.10f"/>
    <tag k="fixme" v="check import"/>
    <tag k="highway" v="service"/>
    <tag k="is_in" v="...,Bezirk Lienz,Tirol,Österreich,Europa"/>
    <tag k="note" v="imported from plan.at; (C)=CC-by-sa or oDBL; feel free to change if necessary"/>
    <tag k="plan_at:acad_id" v="lz130"/>
    <tag k="source" v="plan.at 2008"/>
    <tag k="uploaded_by" v="Wolfgang W. Wasserburger"/>
  </way>
  <way id="32113961" version="4" timestamp="2009-03-14T21:24:51Z" uid="43967" user="railsnail" changeset="808202">
    <nd ref="360426196"/>
    <nd ref="360434223"/>
    <nd ref="322932284"/>
    <nd ref="322932286"/>
    <nd ref="322932287"/>
    <nd ref="360427391"/>
    <nd ref="322932288"/>
    <nd ref="322932291"/>
    <nd ref="322932295"/>
    <nd ref="322932298"/>
    <nd ref="322931723"/>
    <nd ref="322932300"/>
    <nd ref="322932301"/>
    <nd ref="322932302"/>
    <nd ref="322932304"/>
    <nd ref="322932305"/>
    <nd ref="322932308"/>
    <nd ref="322932309"/>
    <nd ref="322932311"/>
    <nd ref="322929978"/>
    <nd ref="322932312"/>
    <nd ref="322932314"/>
    <nd ref="322932315"/>
    <nd ref="322932317"/>
    <nd ref="322932318"/>
    <nd ref="322929984"/>
    <nd ref="330925634"/>
    <tag k="addr:postcode" v="9900"/>
    <tag k="at:maxspeed" v="Ortsgebiet"/>
    <tag k="created_by" v="Potlatch 0.10f"/>
    <tag k="fixme" v="check import"/>
    <tag k="highway" v="service"/>
    <tag k="is_in" v="...,Bezirk Lienz,Tirol,Österreich,Europa"/>
    <tag k="note" v="imported from plan.at; (C)=CC-by-sa or oDBL; feel free to change if necessary"/>
    <tag k="plan_at:acad_id" v="lz130"/>
    <tag k="source" v="plan.at 2008"/>
    <tag k="uploaded_by" v="Wolfgang W. Wasserburger"/>
  </way>
  <way id="32113961" version="5" timestamp="2009-03-15T09:23:24Z" uid="43967" user="railsnail" changeset="811099">
    <nd ref="360426196"/>
    <nd ref="360434223"/>
    <nd ref="322932284"/>
    <nd ref="322932286"/>
    <nd ref="322932287"/>
    <nd ref="360427391"/>
    <nd ref="322932288"/>
    <nd ref="322932291"/>
    <nd ref="322932295"/>
    <nd ref="322932298"/>
    <nd ref="322931723"/>
    <nd ref="322932300"/>
    <nd ref="322932301"/>
    <nd ref="322932302"/>
    <nd ref="322932304"/>
    <nd ref="322932305"/>
    <nd ref="322932308"/>
    <nd ref="322932309"/>
    <nd ref="322932311"/>
    <nd ref="322929978"/>
    <nd ref="322932312"/>
    <nd ref="322932314"/>
    <nd ref="322932315"/>
    <nd ref="322932317"/>
    <nd ref="322932318"/>
    <nd ref="322929984"/>
    <nd ref="330925634"/>
    <tag k="addr:postcode" v="9900"/>
    <tag k="at:maxspeed" v="Ortsgebiet"/>
    <tag k="created_by" v="Potlatch 0.10f"/>
    <tag k="fixme" v="check import"/>
    <tag k="highway" v="unclassified"/>
    <tag k="is_in" v="...,Bezirk Lienz,Tirol,Österreich,Europa"/>
    <tag k="note" v="imported from plan.at; (C)=CC-by-sa or oDBL; feel free to change if necessary"/>
    <tag k="plan_at:acad_id" v="lz130"/>
    <tag k="source" v="plan.at 2008"/>
    <tag k="uploaded_by" v="Wolfgang W. Wasserburger"/>
  </way>
  <way id="32113961" version="6" timestamp="2009-10-27T14:43:15Z" uid="43967" user="railsnail" changeset="2965652">
    <nd ref="360426196"/>
    <nd ref="360434223"/>
    <nd ref="322932284"/>
    <nd ref="322932286"/>
    <nd ref="322932287"/>
    <nd ref="360427391"/>
    <nd ref="322932288"/>
    <nd ref="322932291"/>
    <nd ref="322932295"/>
    <nd ref="322932298"/>
    <nd ref="322931723"/>
    <nd ref="322932300"/>
    <nd ref="322932301"/>
    <nd ref="322932302"/>
    <nd ref="322932304"/>
    <nd ref="322932305"/>
    <nd ref="322932308"/>
    <nd ref="322932309"/>
    <nd ref="322932311"/>
    <nd ref="322929978"/>
    <nd ref="322932312"/>
    <nd ref="322932314"/>
    <nd ref="322932315"/>
    <nd ref="322932317"/>
    <nd ref="322932318"/>
    <nd ref="322929984"/>
    <nd ref="541644735"/>
    <nd ref="541644736"/>
    <nd ref="541644737"/>
    <nd ref="541644738"/>
    <nd ref="330925634"/>
    <tag k="addr:postcode" v="9900"/>
    <tag k="at:maxspeed" v="Ortsgebiet"/>
    <tag k="fixme" v="check import"/>
    <tag k="highway" v="unclassified"/>
    <tag k="is_in" v="...,Bezirk Lienz,Tirol,Österreich,Europa"/>
    <tag k="note" v="imported from plan.at; (C)=CC-by-sa or oDBL; feel free to change if necessary"/>
    <tag k="plan_at:acad_id" v="lz130"/>
    <tag k="source" v="plan.at 2008"/>
    <tag k="uploaded_by" v="Wolfgang W. Wasserburger"/>
  </way>
  <way id="32113961" version="7" timestamp="2010-06-11T16:39:27Z" uid="95813" user="stefan_hochstoeger" changeset="4963764">
    <nd ref="360426196"/>
    <nd ref="360434223"/>
    <nd ref="322932284"/>
    <nd ref="322932286"/>
    <nd ref="322932287"/>
    <nd ref="360427391"/>
    <nd ref="322932288"/>
    <nd ref="322932291"/>
    <nd ref="322932295"/>
    <nd ref="322932298"/>
    <nd ref="322931723"/>
    <nd ref="322932300"/>
    <nd ref="322932301"/>
    <nd ref="322932302"/>
    <nd ref="322932304"/>
    <nd ref="322932305"/>
    <nd ref="322932308"/>
    <nd ref="322932309"/>
    <nd ref="322932311"/>
    <nd ref="322929978"/>
    <nd ref="322932312"/>
    <nd ref="322932314"/>
    <nd ref="322932315"/>
    <nd ref="322932317"/>
    <nd ref="322932318"/>
    <nd ref="322929984"/>
    <nd ref="541644735"/>
    <nd ref="541644736"/>
    <nd ref="541644737"/>
    <nd ref="541644738"/>
    <nd ref="330925634"/>
    <tag k="addr:postcode" v="9900"/>
    <tag k="at:maxspeed" v="Ortsgebiet"/>
    <tag k="fixme" v="check import"/>
    <tag k="highway" v="unclassified"/>
    <tag k="is_in" v="...,Bezirk Lienz,Tirol,Österreich,Europa"/>
    <tag k="note" v="imported from plan.at; (C)=CC-by-sa or oDBL; feel free to change if necessary"/>
    <tag k="source" v="plan.at 2008"/>
  </way>
  <way id="32113961" version="8" timestamp="2010-08-14T19:10:38Z" uid="43967" user="railsnail" changeset="5493616">
    <nd ref="360426196"/>
    <nd ref="360434223"/>
    <nd ref="322932284"/>
    <nd ref="322932286"/>
    <nd ref="322932287"/>
    <nd ref="360427391"/>
    <nd ref="322932288"/>
    <nd ref="322932291"/>
    <nd ref="322932295"/>
    <nd ref="322932298"/>
    <nd ref="322931723"/>
    <nd ref="322932300"/>
    <nd ref="322932301"/>
    <nd ref="322932302"/>
    <nd ref="322932304"/>
    <nd ref="322932305"/>
    <nd ref="322932308"/>
    <nd ref="322932309"/>
    <nd ref="322932311"/>
    <nd ref="322929978"/>
    <nd ref="322932312"/>
    <nd ref="322932314"/>
    <nd ref="322932315"/>
    <nd ref="322932317"/>
    <nd ref="322932318"/>
    <nd ref="322929984"/>
    <nd ref="860471709"/>
    <nd ref="541644735"/>
    <nd ref="541644736"/>
    <nd ref="541644737"/>
    <nd ref="541644738"/>
    <nd ref="330925634"/>
    <tag k="addr:postcode" v="9900"/>
    <tag k="at:maxspeed" v="Ortsgebiet"/>
    <tag k="fixme" v="check import"/>
    <tag k="highway" v="unclassified"/>
    <tag k="is_in" v="...,Bezirk Lienz,Tirol,Österreich,Europa"/>
    <tag k="note" v="imported from plan.at; (C)=CC-by-sa or oDBL; feel free to change if necessary"/>
    <tag k="source" v="plan.at 2008"/>
  </way>
  <way id="32113961" version="9" timestamp="2011-04-29T04:57:00Z" uid="45347" user="eriosw" changeset="8000389">
    <nd ref="360426196"/>
    <nd ref="360434223"/>
    <nd ref="322932284"/>
    <nd ref="322932286"/>
    <nd ref="322932287"/>
    <nd ref="360427391"/>
    <nd ref="322932288"/>
    <nd ref="322932291"/>
    <nd ref="322932295"/>
    <nd ref="322932298"/>
    <nd ref="322931723"/>
    <nd ref="322932300"/>
    <nd ref="322932301"/>
    <nd ref="322932302"/>
    <nd ref="322932304"/>
    <nd ref="322932305"/>
    <nd ref="322932308"/>
    <nd ref="322932309"/>
    <nd ref="322932311"/>
    <nd ref="322929978"/>
    <nd ref="322932312"/>
    <nd ref="322932314"/>
    <nd ref="322932315"/>
    <nd ref="322932317"/>
    <nd ref="322932318"/>
    <nd ref="322929984"/>
    <nd ref="860471709"/>
    <nd ref="541644735"/>
    <nd ref="541644736"/>
    <nd ref="541644737"/>
    <nd ref="541644738"/>
    <nd ref="330925634"/>
    <tag k="addr:postcode" v="9900"/>
    <tag k="fixme" v="check import"/>
    <tag k="highway" v="unclassified"/>
    <tag k="is_in" v="Lienz,Lienz,Tirol,Österreich,Europe"/>
    <tag k="note" v="imported from plan.at; (C)=CC-by-sa or oDBL; feel free to change if necessary"/>
    <tag k="source" v="plan.at 2008"/>
  </way>
  <way id="32113961" version="10" timestamp="2011-05-12T18:15:53Z" uid="45347" user="eriosw" changeset="8124781">
    <nd ref="360426196"/>
    <nd ref="360434223"/>
    <nd ref="322932284"/>
    <nd ref="322932286"/>
    <nd ref="322932287"/>
    <nd ref="360427391"/>
    <nd ref="322932288"/>
    <nd ref="322932291"/>
    <nd ref="322932295"/>
    <nd ref="322932298"/>
    <nd ref="322931723"/>
    <nd ref="322932300"/>
    <nd ref="322932301"/>
    <nd ref="322932302"/>
    <nd ref="322932304"/>
    <nd ref="322932305"/>
    <nd ref="322932308"/>
    <nd ref="322932309"/>
    <nd ref="322932311"/>
    <nd ref="322929978"/>
    <nd ref="322932312"/>
    <nd ref="322932314"/>
    <nd ref="322932315"/>
    <nd ref="322932317"/>
    <nd ref="322932318"/>
    <nd ref="322929984"/>
    <nd ref="860471709"/>
    <nd ref="541644735"/>
    <nd ref="541644736"/>
    <nd ref="541644737"/>
    <nd ref="541644738"/>
    <nd ref="330925634"/>
    <tag k="addr:postcode" v="9900"/>
    <tag k="fixme" v="check import"/>
    <tag k="highway" v="unclassified"/>
    <tag k="is_in" v="Lienz,Lienz,Tirol,Österreich,Europe"/>
    <tag k="source" v="plan.at 2008"/>
  </way>
  <way id="32113961" version="11" timestamp="2011-06-25T14:22:16Z" uid="16170" user="ste" changeset="8542964">
    <nd ref="360426196"/>
    <nd ref="360434223"/>
    <nd ref="322932284"/>
    <nd ref="1338440384"/>
    <tag k="addr:postcode" v="9900"/>
    <tag k="fixme" v="check import"/>
    <tag k="highway" v="unclassified"/>
    <tag k="is_in" v="Lienz,Lienz,Tirol,Österreich,Europe"/>
    <tag k="source" v="plan.at 2008"/>
  </way>
  <way id="32113961" version="12" timestamp="2011-07-22T07:57:24Z" uid="491845" user="data_at" changeset="8795291">
    <nd ref="360426196"/>
    <nd ref="360434223"/>
    <nd ref="322932284"/>
    <nd ref="1338440384"/>
    <tag k="fixme" v="check import"/>
    <tag k="highway" v="unclassified"/>
    <tag k="is_in" v="Lienz,Lienz,Tirol,Österreich,Europe"/>
    <tag k="source" v="plan.at 2008"/>
  </way>
  <way id="32113961" version="13" timestamp="2012-01-01T16:47:03Z" uid="45481" user="borisC" changeset="10263100">
    <nd ref="360426196"/>
    <nd ref="360434223"/>
    <nd ref="322932284"/>
    <nd ref="1338440384"/>
    <tag k="highway" v="unclassified"/>
    <tag k="is_in" v="Lienz,Lienz,Tirol,Österreich,Europe"/>
    <tag k="source" v="plan.at 2008"/>
  </way>
  <way id="32113961" version="14" timestamp="2012-03-23T13:11:51Z" uid="45481" user="borisC" changeset="11073724"/>
  <way id="32113976" version="2" timestamp="2009-03-28T19:55:04Z" uid="34428" user="usm78-gis" changeset="865258">
    <nd ref="366666877"/>
    <nd ref="360426724"/>
    <nd ref="360426725"/>
    <nd ref="360426726"/>
    <nd ref="360426727"/>
    <nd ref="360426729"/>
    <nd ref="360426730"/>
    <tag k="created_by" v="Potlatch 0.10f"/>
    <tag k="highway" v="residential"/>
  </way>
  <way id="32113976" version="3" timestamp="2011-02-25T00:11:20Z" uid="392109" user="GaM" changeset="7386632">
    <nd ref="366666877"/>
    <nd ref="1171200651"/>
    <nd ref="1171200551"/>
    <nd ref="1171200681"/>
    <nd ref="360426724"/>
    <nd ref="360426725"/>
    <nd ref="360426726"/>
    <nd ref="360426727"/>
    <nd ref="360426729"/>
    <nd ref="360426730"/>
    <tag k="highway" v="residential"/>
  </way>
  <way id="32113976" version="4" timestamp="2011-04-02T21:31:31Z" uid="303945" user="Дмитрий Кудряшов" changeset="7748639">
    <nd ref="366666877"/>
    <nd ref="1171200651"/>
    <nd ref="1171200551"/>
    <nd ref="1229865668"/>
    <nd ref="1171200681"/>
    <nd ref="1229866311"/>
    <nd ref="360426724"/>
    <nd ref="360426725"/>
    <nd ref="360426726"/>
    <nd ref="360426727"/>
    <nd ref="360426729"/>
    <nd ref="360426730"/>
    <tag k="highway" v="unclassified"/>
  </way>
  <way id="32113054" version="18" timestamp="2012-04-14T05:21:56Z" uid="280679" user="Tom Layo" changeset="11294794">
    <nd ref="364060099"/>
    <nd ref="473373312"/>
    <nd ref="175272525"/>
    <nd ref="473373313"/>
    <nd ref="175272521"/>
    <nd ref="473373314"/>
    <nd ref="175272516"/>
    <nd ref="175272514"/>
    <nd ref="175272510"/>
    <nd ref="175262209"/>
    <nd ref="175262122"/>
    <nd ref="175051401"/>
    <tag k="highway" v="secondary"/>
    <tag k="name" v="East Tanque Verde Road"/>
    <tag k="oneway" v="yes"/>
    <tag k="tiger:cfcc" v="A41"/>
    <tag k="tiger:county" v="Pima, AZ"/>
    <tag k="tiger:name_base" v="Tanque Verde"/>
    <tag k="tiger:name_direction_prefix" v="E"/>
    <tag k="tiger:name_type" v="Rd"/>
    <tag k="tiger:reviewed" v="no"/>
    <tag k="tiger:separated" v="no"/>
    <tag k="tiger:source" v="tiger_import_dch_v0.6_20070809"/>
    <tag k="tiger:tlid" v="121192727:121200461:121189462:121207931:121402795:121189441:121189446:121402877:121188565:121412980:121189374:121188563:121188562:121192644:121199655:121395150:121188527:121188532:121188533:121408451:121188520:121188522:121405253:121405254:121188062:12118"/>
    <tag k="tiger:zip_left" v="85749"/>
    <tag k="tiger:zip_right" v="85749"/>
  </way>
  <way id="32113061" version="4" timestamp="2012-04-12T21:26:33Z" uid="35468" user="Blunauer" changeset="11281592"/>
  <way id="32113092" version="7" timestamp="2012-04-12T21:26:33Z" uid="35468" user="Blunauer" changeset="11281592"/>
  <way id="32113100" version="5" timestamp="2012-04-12T21:26:29Z" uid="35468" user="Blunauer" changeset="11281592">
    <nd ref="1713344233"/>
    <nd ref="1713344228"/>
    <tag k="highway" v="no"/>
    <tag k="note" v="Weg offenbar aufgehoben"/>
    <tag k="smoothness" v="impassable"/>
  </way>
  <way id="32113100" version="6" timestamp="2012-07-17T13:33:09Z" uid="722137" user="OSMF Redaction Account" changeset="12266591">
    <nd ref="1713344233"/>
    <nd ref="1713344228"/>
  </way>
  <way id="32113100" version="7" timestamp="2012-07-25T11:06:27Z" uid="442210" user="dwausr" changeset="12485310">
    <nd ref="1713344233"/>
    <nd ref="1713344228"/>
    <tag k="highway" v="track"/>
    <tag k="noexit" v="yes"/>
    <tag k="smoothness" v="bad"/>
    <tag k="surface" v="ground"/>
    <tag k="tracktype" v="grade5"/>
  </way>
  <way id="32113104" version="7" timestamp="2012-04-12T21:26:32Z" uid="35468" user="Blunauer" changeset="11281592"/>
  <way id="32113206" version="3" timestamp="2012-04-12T21:26:33Z" uid="35468" user="Blunauer" changeset="11281592"/>
  <way id="32113219" version="4" timestamp="2012-04-12T21:26:31Z" uid="35468" user="Blunauer" changeset="11281592">
    <nd ref="360416967"/>
    <nd ref="1713344208"/>
    <nd ref="360416968"/>
    <tag k="highway" v="no"/>
    <tag k="note" v="Rückeweg"/>
    <tag k="smoothness" v="very_horrible"/>
  </way>
  <way id="32113219" version="5" timestamp="2012-07-17T13:37:24Z" uid="722137" user="OSMF Redaction Account" changeset="12266683"/>
  <way id="32113223" version="4" timestamp="2012-04-12T21:26:30Z" uid="35468" user="Blunauer" changeset="11281592">
    <nd ref="360417000"/>
    <nd ref="1713344226"/>
    <nd ref="360417091"/>
    <tag k="highway" v="no"/>
    <tag k="note" v="Rückeweg"/>
    <tag k="smoothness" v="very_horrible"/>
  </way>
  <way id="32113223" version="5" timestamp="2012-07-17T13:37:26Z" uid="722137" user="OSMF Redaction Account" changeset="12266690"/>
  <way id="32113349" version="5" timestamp="2012-04-18T15:51:58Z" uid="35468" user="Blunauer" changeset="11345503"/>
  <way id="32113367" version="4" timestamp="2012-04-18T15:51:58Z" uid="35468" user="Blunauer" changeset="11345503"/>
  <way id="32113417" version="13" timestamp="2012-07-20T10:59:03Z" uid="722137" user="OSMF Redaction Account" changeset="12372049"/>
  <way id="32113444" version="9" timestamp="2012-07-20T11:58:54Z" uid="722137" user="OSMF Redaction Account" changeset="12374607">
    <nd ref="360417282"/>
    <nd ref="360417286"/>
    <nd ref="360417298"/>
    <nd ref="1067899920"/>
    <nd ref="1067899893"/>
    <nd ref="360417316"/>
    <nd ref="360417348"/>
    <nd ref="360417366"/>
    <nd ref="360417376"/>
    <nd ref="360417389"/>
    <nd ref="360417399"/>
    <nd ref="360417412"/>
    <nd ref="360417282"/>
    <tag k="addr:housenumber" v="1"/>
    <tag k="addr:postcode" v="123001"/>
    <tag k="addr:street" v="Большая Садовая улица"/>
    <tag k="building" v="yes"/>
    <tag k="cladr:code" v="77000000000254200"/>
    <tag k="name" v="Центральная Городская Юношеская Библиотека им. М.А. Светлова‎"/>
  </way>
  <way id="32113448" version="10" timestamp="2012-07-20T11:58:55Z" uid="722137" user="OSMF Redaction Account" changeset="12374607">
    <nd ref="670501989"/>
    <nd ref="670631601"/>
    <nd ref="670631602"/>
    <nd ref="670501991"/>
    <nd ref="670501992"/>
    <nd ref="670501994"/>
    <nd ref="670501990"/>
    <nd ref="670501995"/>
    <nd ref="670501993"/>
    <nd ref="360418326"/>
    <nd ref="670502001"/>
    <nd ref="670502000"/>
    <nd ref="670501999"/>
    <nd ref="360418319"/>
    <nd ref="360418322"/>
    <nd ref="670501998"/>
    <nd ref="670501996"/>
    <nd ref="670501997"/>
    <nd ref="670501989"/>
    <tag k="addr:housenumber" v="22-26 с1"/>
    <tag k="addr:street" v="Ермолаевский переулок"/>
    <tag k="amenity" v="doctors"/>
    <tag k="building" v="yes"/>
    <tag k="cladr:code" v="77000000000702200"/>
  </way>
  <way id="32113449" version="5" timestamp="2012-07-20T11:58:17Z" uid="722137" user="OSMF Redaction Account" changeset="12374607">
    <nd ref="360418334"/>
    <nd ref="360418341"/>
    <nd ref="360418344"/>
    <nd ref="360418337"/>
    <nd ref="360418334"/>
    <tag k="addr:housenumber" v="28-30"/>
    <tag k="addr:street" v="Садовая-Кудринская улица"/>
    <tag k="building" v="yes"/>
    <tag k="cladr:code" v="77000000000255100"/>
  </way>
  <way id="32113450" version="8" timestamp="2012-07-20T11:58:03Z" uid="722137" user="OSMF Redaction Account" changeset="12374607">
    <nd ref="360418347"/>
    <nd ref="360418352"/>
    <nd ref="360418354"/>
    <nd ref="360418349"/>
    <nd ref="360418347"/>
    <tag k="addr:country" v="RU"/>
    <tag k="addr:housenumber" v="26/40 с4"/>
    <tag k="addr:housenumber2" v="40/26 с4"/>
    <tag k="addr:street" v="Садовая-Кудринская улица"/>
    <tag k="addr:street2" v="улица Спиридоновка"/>
    <tag k="building" v="yes"/>
    <tag k="cladr:code" v="77000000000255100"/>
  </way>
  <way id="32113451" version="7" timestamp="2012-07-20T11:58:13Z" uid="722137" user="OSMF Redaction Account" changeset="12374607">
    <nd ref="670660722"/>
    <nd ref="715786735"/>
    <nd ref="360418357"/>
    <nd ref="360418365"/>
    <nd ref="670660750"/>
    <nd ref="670660716"/>
    <nd ref="670660701"/>
    <nd ref="664020721"/>
    <nd ref="670660690"/>
    <nd ref="670660703"/>
    <nd ref="670660702"/>
    <nd ref="670660719"/>
    <nd ref="670660715"/>
    <nd ref="670660714"/>
    <nd ref="670660722"/>
    <tag k="addr:housenumber" v="11 c1"/>
    <tag k="addr:street" v="Садовая-Кудринская улица"/>
    <tag k="building" v="yes"/>
    <tag k="cladr:code" v="77000000000255100"/>
  </way>
  <way id="32113452" version="6" timestamp="2012-07-20T11:58:26Z" uid="722137" user="OSMF Redaction Account" changeset="12374607">
    <nd ref="360418374"/>
    <nd ref="360418378"/>
    <nd ref="360418383"/>
    <nd ref="360418388"/>
    <nd ref="360418390"/>
    <nd ref="360418393"/>
    <nd ref="360418397"/>
    <nd ref="360418401"/>
    <nd ref="360418405"/>
    <nd ref="360418408"/>
    <nd ref="360418412"/>
    <nd ref="360418416"/>
    <nd ref="360418374"/>
    <tag k="addr:housenumber" v="19 c1"/>
    <tag k="addr:street" v="Садовая-Кудринская улица"/>
    <tag k="building" v="yes"/>
    <tag k="cladr:code" v="77000000000255100"/>
  </way>
  <way id="32113453" version="6" timestamp="2012-07-20T11:58:32Z" uid="722137" user="OSMF Redaction Account" changeset="12374607">
    <nd ref="360418405"/>
    <nd ref="360418419"/>
    <nd ref="360418422"/>
    <nd ref="360418401"/>
    <nd ref="360418405"/>
    <tag k="addr:housenumber" v="21А"/>
    <tag k="addr:street" v="Садовая-Кудринская улица"/>
    <tag k="building" v="yes"/>
    <tag k="cladr:code" v="77000000000255100"/>
  </way>
  <way id="32113462" version="6" timestamp="2012-07-20T11:58:51Z" uid="722137" user="OSMF Redaction Account" changeset="12374607">
    <nd ref="360418685"/>
    <nd ref="360418691"/>
    <nd ref="360418694"/>
    <nd ref="360418688"/>
    <nd ref="360418685"/>
    <tag k="addr:housenumber" v="23 с3"/>
    <tag k="addr:street" v="Садовая-Кудринская улица"/>
    <tag k="building" v="yes"/>
    <tag k="cladr:code" v="77000000000255100"/>
  </way>
  <way id="32113463" version="6" timestamp="2012-04-17T18:14:04Z" uid="260756" user="Felis Pimeja" changeset="11335985">
    <nd ref="360418699"/>
    <nd ref="360418702"/>
    <nd ref="360418705"/>
    <nd ref="360418707"/>
    <nd ref="670661063"/>
    <nd ref="670661048"/>
    <nd ref="360418699"/>
  </way>
  <way id="32113464" version="8" timestamp="2012-07-20T11:58:37Z" uid="722137" user="OSMF Redaction Account" changeset="12374607">
    <nd ref="360418716"/>
    <nd ref="1682353810"/>
    <nd ref="1682353802"/>
    <nd ref="360418720"/>
    <nd ref="360418725"/>
    <nd ref="360418728"/>
    <nd ref="360418733"/>
    <nd ref="360418736"/>
    <nd ref="360418716"/>
    <tag k="addr:housenumber" v="31/13"/>
    <tag k="addr:housenumber2" v="13/31"/>
    <tag k="addr:street" v="Малая Бронная улица"/>
    <tag k="addr:street2" v="Ермолаевский переулок"/>
    <tag k="building" v="yes"/>
    <tag k="building:levels" v="6"/>
    <tag k="cladr:code" v="77000000000090700"/>
  </way>
  <way id="32113465" version="7" timestamp="2012-07-20T11:58:41Z" uid="722137" user="OSMF Redaction Account" changeset="12374607">
    <nd ref="360418739"/>
    <nd ref="360418741"/>
    <nd ref="360418743"/>
    <nd ref="360418746"/>
    <nd ref="360418739"/>
    <tag k="addr:housenumber" v="32 с1"/>
    <tag k="addr:street" v="Садовая-Кудринская улица"/>
    <tag k="building" v="yes"/>
    <tag k="cladr:code" v="77000000000255100"/>
  </way>
  <way id="32113475" version="5" timestamp="2012-07-20T11:58:31Z" uid="722137" user="OSMF Redaction Account" changeset="12374607">
    <nd ref="360418989"/>
    <nd ref="360418996"/>
    <nd ref="670502308"/>
    <nd ref="670502312"/>
    <nd ref="360418992"/>
    <nd ref="360418989"/>
    <tag k="addr:housenumber" v="9"/>
    <tag k="addr:street" v="Трёхпрудный переулок"/>
    <tag k="building" v="yes"/>
    <tag k="cladr:code" v="77000000000292400"/>
  </way>
  <way id="32113476" version="6" timestamp="2012-07-20T11:58:45Z" uid="722137" user="OSMF Redaction Account" changeset="12374607">
    <nd ref="360419004"/>
    <nd ref="360419009"/>
    <nd ref="360419014"/>
    <nd ref="360419019"/>
    <nd ref="360419023"/>
    <nd ref="360419026"/>
    <nd ref="360419004"/>
    <tag k="addr:country" v="RU"/>
    <tag k="addr:housenumber" v="11-13 с5"/>
    <tag k="addr:street" v="Трёхпрудный переулок"/>
    <tag k="building" v="yes"/>
    <tag k="cladr:code" v="77000000000292400"/>
    <tag k="FIXME" v="addr:housenumber Нестандартный и/или странный адрес. Проверить и/или привести к стандарту http://wiki.osm.org/RU:Key:addr"/>
  </way>
  <way id="32113479" version="5" timestamp="2012-07-20T11:58:44Z" uid="722137" user="OSMF Redaction Account" changeset="12374607">
    <nd ref="360419030"/>
    <nd ref="360419037"/>
    <nd ref="360419040"/>
    <nd ref="360419033"/>
    <nd ref="360419030"/>
    <tag k="addr:housenumber" v="10/2"/>
    <tag k="addr:housenumber2" v="2/10"/>
    <tag k="addr:street" v="Трёхпрудный переулок"/>
    <tag k="addr:street2" v="Мамоновский переулок"/>
    <tag k="building" v="yes"/>
    <tag k="cladr:code" v="77000000000292400"/>
  </way>
  <way id="32113480" version="5" timestamp="2012-07-20T11:58:15Z" uid="722137" user="OSMF Redaction Account" changeset="12374607">
    <nd ref="360419046"/>
    <nd ref="360419052"/>
    <nd ref="360419057"/>
    <nd ref="360419065"/>
    <nd ref="360419070"/>
    <nd ref="360419074"/>
    <nd ref="360419078"/>
    <nd ref="360419081"/>
    <nd ref="360419085"/>
    <nd ref="360419088"/>
    <nd ref="360419046"/>
    <tag k="addr:housenumber" v="3"/>
    <tag k="addr:street" v="Большой Палашёвский переулок"/>
    <tag k="building" v="yes"/>
    <tag k="cladr:code" v="77000000000706800"/>
  </way>
  <way id="32113481" version="9" timestamp="2012-07-20T11:58:11Z" uid="722137" user="OSMF Redaction Account" changeset="12374607">
    <nd ref="360419093"/>
    <nd ref="360419097"/>
    <nd ref="1432712371"/>
    <nd ref="1433696661"/>
    <nd ref="360419101"/>
    <nd ref="1432712333"/>
    <nd ref="360419105"/>
    <nd ref="1433696669"/>
    <nd ref="1433696649"/>
    <nd ref="1433696668"/>
    <nd ref="1433696634"/>
    <nd ref="1433696678"/>
    <nd ref="1433696644"/>
    <nd ref="1433696664"/>
    <nd ref="1433696671"/>
    <nd ref="360419110"/>
    <nd ref="1433696657"/>
    <nd ref="1433696687"/>
    <nd ref="1433696680"/>
    <nd ref="360419116"/>
    <nd ref="360419093"/>
    <tag k="addr:housenumber" v="16/6"/>
    <tag k="addr:housenumber2" v="6/16"/>
    <tag k="addr:postcode" v="123104"/>
    <tag k="addr:street" v="Богословский переулок"/>
    <tag k="addr:street2" v="Большой Палашёвский переулок"/>
    <tag k="building" v="yes"/>
    <tag k="cladr:code" v="77000000000086900"/>
  </way>
  <way id="32113482" version="6" timestamp="2012-07-20T11:58:22Z" uid="722137" user="OSMF Redaction Account" changeset="12374607">
    <nd ref="360419120"/>
    <nd ref="360419127"/>
    <nd ref="360419134"/>
    <nd ref="360419138"/>
    <nd ref="360419142"/>
    <nd ref="360419150"/>
    <nd ref="360419120"/>
    <tag k="addr:housenumber" v="16/3"/>
    <tag k="addr:housenumber2" v="3/16"/>
    <tag k="addr:street" v="Малый Козихинский переулок"/>
    <tag k="addr:street2" v="Трёхпрудный переулок"/>
    <tag k="building" v="yes"/>
    <tag k="building:levels" v="4"/>
    <tag k="cladr:code" v="77000000000149600"/>
  </way>
  <way id="32113483" version="6" timestamp="2012-07-20T11:58:28Z" uid="722137" user="OSMF Redaction Account" changeset="12374607">
    <nd ref="360419156"/>
    <nd ref="360419166"/>
    <nd ref="360419170"/>
    <nd ref="360419161"/>
    <nd ref="360419156"/>
    <tag k="addr:housenumber" v="4"/>
    <tag k="addr:street" v="Трёхпрудный переулок"/>
    <tag k="building" v="yes"/>
    <tag k="building:levels" v="5"/>
    <tag k="cladr:code" v="77000000000292400"/>
  </way>
  <way id="32113485" version="7" timestamp="2012-07-20T11:58:45Z" uid="722137" user="OSMF Redaction Account" changeset="12374607">
    <nd ref="360419207"/>
    <nd ref="360419210"/>
    <nd ref="360419213"/>
    <nd ref="360419217"/>
    <nd ref="360419220"/>
    <nd ref="360419224"/>
    <nd ref="360419227"/>
    <nd ref="360419229"/>
    <nd ref="360419207"/>
    <tag k="addr:housenumber" v="3"/>
    <tag k="addr:street" v="Мамоновский переулок"/>
    <tag k="building" v="yes"/>
    <tag k="cladr:code" v="77000000000722500"/>
  </way>
  <way id="32113486" version="6" timestamp="2012-07-20T11:58:36Z" uid="722137" user="OSMF Redaction Account" changeset="12374607">
    <nd ref="360419231"/>
    <nd ref="360419233"/>
    <nd ref="360419235"/>
    <nd ref="360419237"/>
    <nd ref="360419239"/>
    <nd ref="360419240"/>
    <nd ref="360419242"/>
    <nd ref="360419245"/>
    <nd ref="360419247"/>
    <nd ref="360419251"/>
    <nd ref="360419254"/>
    <nd ref="360419258"/>
    <nd ref="360419231"/>
    <tag k="addr:housenumber" v="8"/>
    <tag k="addr:street" v="Трёхпрудный переулок"/>
    <tag k="building" v="yes"/>
    <tag k="building:levels" v="6"/>
    <tag k="cladr:code" v="77000000000292400"/>
  </way>
  <way id="32113487" version="6" timestamp="2012-07-20T11:58:21Z" uid="722137" user="OSMF Redaction Account" changeset="12374607">
    <nd ref="360419262"/>
    <nd ref="360419266"/>
    <nd ref="360419271"/>
    <nd ref="360419274"/>
    <nd ref="360419277"/>
    <nd ref="360419281"/>
    <nd ref="360419285"/>
    <nd ref="360419289"/>
    <nd ref="360419295"/>
    <nd ref="360419262"/>
    <tag k="addr:housenumber" v="7"/>
    <tag k="addr:street" v="Малый Козихинский переулок"/>
    <tag k="building" v="yes"/>
    <tag k="building:levels" v="8"/>
    <tag k="cladr:code" v="77000000000149600"/>
  </way>
  <way id="32113488" version="6" timestamp="2012-07-20T11:58:11Z" uid="722137" user="OSMF Redaction Account" changeset="12374607">
    <nd ref="360419303"/>
    <nd ref="360419307"/>
    <nd ref="360419311"/>
    <nd ref="360419326"/>
    <nd ref="360419303"/>
    <tag k="addr:housenumber" v="1 с2"/>
    <tag k="addr:street" v="Большой Палашёвский переулок"/>
    <tag k="building" v="yes"/>
    <tag k="cladr:code" v="77000000000706800"/>
  </way>
  <way id="32113490" version="5" timestamp="2012-07-20T11:57:57Z" uid="722137" user="OSMF Redaction Account" changeset="12374607">
    <nd ref="360419393"/>
    <nd ref="360419396"/>
    <nd ref="360419399"/>
    <nd ref="360419402"/>
    <nd ref="360419406"/>
    <nd ref="360419409"/>
    <nd ref="360419412"/>
    <nd ref="360419414"/>
    <nd ref="360419415"/>
    <nd ref="670631338"/>
    <nd ref="360419393"/>
    <tag k="addr:housenumber" v="24"/>
    <tag k="addr:street" v="Малая Бронная улица"/>
    <tag k="building" v="yes"/>
    <tag k="cladr:code" v="77000000000090700"/>
  </way>
  <way id="32113491" version="5" timestamp="2012-07-20T11:58:20Z" uid="722137" user="OSMF Redaction Account" changeset="12374607">
    <nd ref="360419417"/>
    <nd ref="360419419"/>
    <nd ref="360419421"/>
    <nd ref="360419423"/>
    <nd ref="360419427"/>
    <nd ref="360419429"/>
    <nd ref="670631387"/>
    <nd ref="670631400"/>
    <nd ref="360419433"/>
    <nd ref="360419417"/>
    <tag k="addr:housenumber" v="7"/>
    <tag k="addr:street" v="Ермолаевский переулок"/>
    <tag k="building" v="yes"/>
    <tag k="cladr:code" v="77000000000702200"/>
  </way>
  <way id="32113492" version="6" timestamp="2012-07-20T11:58:20Z" uid="722137" user="OSMF Redaction Account" changeset="12374607">
    <nd ref="360419435"/>
    <nd ref="360419438"/>
    <nd ref="360419440"/>
    <nd ref="360419442"/>
    <nd ref="360419443"/>
    <nd ref="360419445"/>
    <nd ref="360419448"/>
    <nd ref="360419450"/>
    <nd ref="360419452"/>
    <nd ref="360419454"/>
    <nd ref="360419456"/>
    <nd ref="360419458"/>
    <nd ref="360419435"/>
    <tag k="addr:housenumber" v="9"/>
    <tag k="addr:street" v="Ермолаевский переулок"/>
    <tag k="building" v="yes"/>
    <tag k="building:levels" v="3"/>
    <tag k="cladr:code" v="77000000000702200"/>
  </way>
  <way id="32113493" version="7" timestamp="2012-07-20T11:58:03Z" uid="722137" user="OSMF Redaction Account" changeset="12374607">
    <nd ref="360419460"/>
    <nd ref="360419462"/>
    <nd ref="360419464"/>
    <nd ref="360419466"/>
    <nd ref="360419468"/>
    <nd ref="360419470"/>
    <nd ref="360419491"/>
    <nd ref="360419473"/>
    <nd ref="360419476"/>
    <nd ref="360419481"/>
    <nd ref="360419484"/>
    <nd ref="360419488"/>
    <nd ref="360419460"/>
    <tag k="addr:country" v="RU"/>
    <tag k="addr:housenumber" v="26/40 с3"/>
    <tag k="addr:housenumber2" v="40/26 с3"/>
    <tag k="addr:street" v="Садовая-Кудринская улица"/>
    <tag k="addr:street2" v="улица Спиридоновка"/>
    <tag k="building" v="yes"/>
    <tag k="cladr:code" v="77000000000255100"/>
  </way>
  <way id="32113538" version="7" timestamp="2012-07-17T19:49:24Z" uid="722137" user="OSMF Redaction Account" changeset="12271332">
    <nd ref="360420348"/>
    <nd ref="314633237"/>
    <tag k="highway" v="secondary"/>
    <tag k="lanes" v="2"/>
    <tag k="maxspeed" v="50"/>
    <tag k="name" v="Grünwalder Weg"/>
    <tag k="smoothness" v="good"/>
    <tag k="surface" v="asphalt"/>
  </way>
  <way id="32113545" version="11" timestamp="2012-05-01T20:47:43Z" uid="288925" user="BoomEngine" changeset="11474295">
    <nd ref="360420555"/>
    <nd ref="1737703573"/>
    <nd ref="1737703574"/>
    <nd ref="1737703578"/>
    <nd ref="1737703581"/>
    <nd ref="1737703583"/>
    <nd ref="360420549"/>
    <tag k="highway" v="service"/>
    <tag k="oneway" v="yes"/>
    <tag k="vehicle" v="permissive"/>
  </way>
  <way id="32113545" version="12" timestamp="2012-07-20T10:58:31Z" uid="722137" user="OSMF Redaction Account" changeset="12372049">
    <nd ref="1737703573"/>
    <nd ref="1737703574"/>
    <nd ref="1737703578"/>
    <nd ref="1737703581"/>
    <nd ref="1737703583"/>
    <tag k="vehicle" v="permissive"/>
  </way>
  <way id="32113545" version="13" timestamp="2012-07-21T20:30:36Z" uid="143266" user="Sergey Astakhov" changeset="12419534">
    <nd ref="360420555"/>
    <nd ref="1737703573"/>
    <nd ref="1737703574"/>
    <nd ref="1737703578"/>
    <nd ref="1737703581"/>
    <nd ref="1737703583"/>
    <nd ref="360420549"/>
    <nd ref="1737703585"/>
    <nd ref="1737703587"/>
    <nd ref="1737703586"/>
    <nd ref="1737703584"/>
    <nd ref="360420043"/>
    <tag k="highway" v="service"/>
    <tag k="vehicle" v="permissive"/>
  </way>
  <way id="32113620" version="3" timestamp="2012-04-18T15:51:57Z" uid="35468" user="Blunauer" changeset="11345503"/>
  <way id="32113646" version="3" timestamp="2012-04-28T17:52:44Z" uid="35468" user="Blunauer" changeset="11443137"/>
  <way id="32113660" version="3" timestamp="2012-04-18T15:51:57Z" uid="35468" user="Blunauer" changeset="11345503"/>
  <way id="32113661" version="8" timestamp="2012-05-01T20:47:43Z" uid="288925" user="BoomEngine" changeset="11474295">
    <nd ref="360420549"/>
    <nd ref="1737703585"/>
    <nd ref="1737703587"/>
    <nd ref="1737703586"/>
    <nd ref="1737703584"/>
    <nd ref="360420043"/>
    <tag k="highway" v="service"/>
    <tag k="oneway" v="yes"/>
    <tag k="vehicle" v="permissive"/>
  </way>
  <way id="32113661" version="9" timestamp="2012-07-20T10:58:31Z" uid="722137" user="OSMF Redaction Account" changeset="12372049">
    <nd ref="1737703585"/>
    <nd ref="1737703587"/>
    <nd ref="1737703586"/>
    <nd ref="1737703584"/>
    <tag k="highway" v="service"/>
    <tag k="vehicle" v="permissive"/>
  </way>
  <way id="32113661" version="10" timestamp="2012-07-21T20:30:48Z" uid="143266" user="Sergey Astakhov" changeset="12419534"/>
  <way id="32113673" version="3" timestamp="2012-04-27T20:33:17Z" uid="35468" user="Blunauer" changeset="11436104"/>
  <way id="32113675" version="13" timestamp="2012-07-20T10:48:29Z" uid="722137" user="OSMF Redaction Account" changeset="12371732">
    <nd ref="1401197201"/>
    <nd ref="1657839803"/>
    <nd ref="1657839810"/>
    <nd ref="1657839905"/>
    <nd ref="1384921510"/>
    <nd ref="1657839916"/>
    <nd ref="1384921541"/>
    <nd ref="1657756413"/>
    <nd ref="360422746"/>
    <nd ref="1657839998"/>
    <nd ref="1314331646"/>
    <nd ref="366669681"/>
    <tag k="highway" v="residential"/>
    <tag k="name" v="Быковская улица"/>
    <tag k="surface" v="asphalt"/>
  </way>
  <way id="32113675" version="14" timestamp="2012-08-02T08:22:19Z" uid="368493" user="fserges" changeset="12582728">
    <nd ref="1401197201"/>
    <nd ref="1657839803"/>
    <nd ref="1657839810"/>
    <nd ref="1657839905"/>
    <nd ref="1384921510"/>
    <nd ref="1657839916"/>
    <nd ref="1384921541"/>
    <nd ref="1657756413"/>
    <nd ref="360422746"/>
    <nd ref="1657839998"/>
    <nd ref="1314331646"/>
    <nd ref="366669681"/>
    <tag k="highway" v="unclassified"/>
    <tag k="name" v="Быковская улица"/>
    <tag k="surface" v="asphalt"/>
  </way>
  <way id="32113675" version="15" timestamp="2012-08-29T20:11:12Z" uid="143266" user="Sergey Astakhov" changeset="12910088">
    <nd ref="366669499"/>
    <nd ref="1401197201"/>
    <nd ref="1657839803"/>
    <nd ref="1657839810"/>
    <nd ref="1657839905"/>
    <nd ref="1384921510"/>
    <nd ref="1657839916"/>
    <nd ref="1384921541"/>
    <nd ref="1657756413"/>
    <nd ref="360422746"/>
    <nd ref="1657839998"/>
    <nd ref="1314331646"/>
    <nd ref="366669681"/>
    <tag k="highway" v="unclassified"/>
    <tag k="name" v="Быковская улица"/>
    <tag k="surface" v="asphalt"/>
  </way>
  <way id="32113679" version="2" timestamp="2012-04-27T20:33:17Z" uid="35468" user="Blunauer" changeset="11436104"/>
  <way id="32113687" version="11" timestamp="2012-07-24T11:27:26Z" uid="722137" user="OSMF Redaction Account" changeset="12464256">
    <nd ref="7295125"/>
    <nd ref="1297205229"/>
    <nd ref="1288898441"/>
    <nd ref="1216009344"/>
    <nd ref="298296558"/>
    <nd ref="539142371"/>
    <nd ref="443913871"/>
    <nd ref="7295134"/>
    <tag k="highway" v="residential"/>
    <tag k="name" v="Formanská"/>
  </way>
  <way id="32113687" version="12" timestamp="2012-07-24T14:42:07Z" uid="8612" user="Kubajz" changeset="12468196">
    <nd ref="7295125"/>
    <nd ref="1297205229"/>
    <nd ref="1288898441"/>
    <nd ref="1216009344"/>
    <nd ref="298296558"/>
    <nd ref="539142371"/>
    <nd ref="443913871"/>
    <nd ref="7295134"/>
    <tag k="highway" v="tertiary"/>
    <tag k="name" v="Formanská"/>
    <tag k="ref" v="0037"/>
    <tag k="source:ref" v="rsd_cr"/>
  </way>
  <way id="32113688" version="4" timestamp="2012-07-24T11:26:31Z" uid="722137" user="OSMF Redaction Account" changeset="12464256">
    <nd ref="7295134"/>
    <nd ref="298294045"/>
    <nd ref="298293992"/>
    <nd ref="7295140"/>
    <nd ref="298293994"/>
    <tag k="highway" v="tertiary"/>
    <tag k="name" v="Josefa Bíbrdlíka"/>
  </way>
  <way id="32113706" version="16" timestamp="2012-04-29T23:36:08Z" uid="392109" user="GaM" changeset="11455398">
    <nd ref="366671000"/>
    <nd ref="1735882647"/>
    <nd ref="1735882641"/>
    <nd ref="1384921868"/>
    <nd ref="1504688746"/>
    <nd ref="366671374"/>
    <tag k="addr:postcode" v="196210"/>
    <tag k="highway" v="residential"/>
    <tag k="name" v="Толмачёвская улица"/>
    <tag k="surface" v="asphalt"/>
  </way>
  <way id="32113706" version="17" timestamp="2012-07-20T10:48:31Z" uid="722137" user="OSMF Redaction Account" changeset="12371732">
    <nd ref="1735882647"/>
    <nd ref="1735882641"/>
    <nd ref="1384921868"/>
    <nd ref="1504688746"/>
    <tag k="addr:postcode" v="196210"/>
    <tag k="highway" v="residential"/>
    <tag k="name" v="Толмачёвская улица"/>
    <tag k="surface" v="asphalt"/>
  </way>
  <way id="32113706" version="18" timestamp="2012-07-21T20:30:48Z" uid="143266" user="Sergey Astakhov" changeset="12419534"/>
  <way id="32113713" version="6" timestamp="2012-07-06T12:24:40Z" uid="226626" user="sokolgeo" changeset="12129851">
    <nd ref="366671000"/>
    <nd ref="1814824304"/>
    <nd ref="366671116"/>
    <tag k="highway" v="unclassified"/>
    <tag k="name" v="Домодедовская улица"/>
    <tag k="surface" v="asphalt"/>
  </way>
  <way id="32113713" version="7" timestamp="2012-07-20T10:49:09Z" uid="722137" user="OSMF Redaction Account" changeset="12371732"/>
  <way id="32113716" version="4" timestamp="2012-04-18T15:51:58Z" uid="35468" user="Blunauer" changeset="11345503"/>
  <way id="32113720" version="4" timestamp="2012-04-18T15:51:57Z" uid="35468" user="Blunauer" changeset="11345503"/>
  <way id="32113755" version="3" timestamp="2012-04-18T15:51:58Z" uid="35468" user="Blunauer" changeset="11345503"/>
  <way id="32113774" version="4" timestamp="2012-07-17T13:37:26Z" uid="722137" user="OSMF Redaction Account" changeset="12266690"/>
  <way id="32113779" version="9" timestamp="2012-05-04T01:56:31Z" uid="45481" user="borisC" changeset="11494076"/>
  <way id="32113791" version="4" timestamp="2012-05-12T13:06:08Z" uid="45481" user="borisC" changeset="11576359"/>
  <way id="32113793" version="11" timestamp="2012-04-11T12:32:00Z" uid="45481" user="borisC" changeset="11264493">
    <nd ref="1711381187"/>
    <nd ref="384383059"/>
    <nd ref="384379010"/>
    <nd ref="384379012"/>
    <nd ref="384379014"/>
    <nd ref="384379016"/>
    <nd ref="760459152"/>
    <nd ref="384379018"/>
    <nd ref="384379020"/>
    <nd ref="384379023"/>
    <nd ref="384379026"/>
    <nd ref="384379029"/>
    <nd ref="760459153"/>
    <nd ref="384379034"/>
    <nd ref="384379037"/>
    <nd ref="384379040"/>
    <nd ref="384379043"/>
    <nd ref="384379045"/>
    <nd ref="384379048"/>
    <nd ref="384379051"/>
    <nd ref="384379053"/>
    <nd ref="384379056"/>
    <nd ref="384379061"/>
    <nd ref="384379063"/>
    <nd ref="384379066"/>
    <nd ref="384379068"/>
    <nd ref="384379071"/>
    <nd ref="384379073"/>
    <nd ref="384379076"/>
    <nd ref="384379078"/>
    <nd ref="384379081"/>
    <nd ref="384379084"/>
    <nd ref="384379086"/>
    <nd ref="384379089"/>
    <nd ref="384379091"/>
    <nd ref="384379094"/>
    <nd ref="384379096"/>
    <nd ref="384379099"/>
    <nd ref="384379102"/>
    <nd ref="384379104"/>
    <nd ref="384379107"/>
    <nd ref="384379110"/>
    <nd ref="384379112"/>
    <nd ref="384379113"/>
    <nd ref="384379114"/>
    <nd ref="384379115"/>
    <nd ref="384389866"/>
    <nd ref="384379116"/>
    <nd ref="360424874"/>
    <nd ref="360424980"/>
    <nd ref="360424875"/>
    <nd ref="360424876"/>
    <nd ref="360426212"/>
    <nd ref="360426213"/>
    <nd ref="360426160"/>
    <nd ref="360426214"/>
    <nd ref="360426215"/>
    <nd ref="360426217"/>
    <nd ref="360426218"/>
    <nd ref="360426219"/>
    <nd ref="360426220"/>
    <nd ref="360426221"/>
    <nd ref="360426222"/>
    <nd ref="360426223"/>
    <nd ref="360426226"/>
    <nd ref="360426227"/>
    <nd ref="360426228"/>
    <nd ref="360426229"/>
    <nd ref="360426230"/>
    <nd ref="360426232"/>
    <nd ref="360426234"/>
    <nd ref="360426235"/>
    <nd ref="360426236"/>
    <nd ref="360426237"/>
    <nd ref="360426238"/>
    <nd ref="360426239"/>
    <nd ref="360426240"/>
    <nd ref="360426242"/>
    <nd ref="360426243"/>
    <nd ref="360426244"/>
    <nd ref="360426245"/>
    <nd ref="360426246"/>
    <nd ref="360426247"/>
    <nd ref="360426248"/>
    <nd ref="360426250"/>
    <nd ref="360426252"/>
    <nd ref="360426253"/>
    <nd ref="360426254"/>
    <nd ref="360426255"/>
    <nd ref="360426256"/>
    <nd ref="360426258"/>
    <nd ref="360426259"/>
    <nd ref="360426260"/>
    <nd ref="360426261"/>
    <nd ref="360426262"/>
    <nd ref="360426264"/>
    <nd ref="360426265"/>
    <nd ref="360426266"/>
    <nd ref="360426267"/>
    <nd ref="360426270"/>
    <nd ref="360426271"/>
    <nd ref="360426272"/>
    <tag k="foot" v="yes"/>
    <tag k="highway" v="path"/>
  </way>
  <way id="32113793" version="12" timestamp="2012-05-04T01:56:31Z" uid="45481" user="borisC" changeset="11494076"/>
  <way id="32113801" version="4" timestamp="2012-05-04T01:56:30Z" uid="45481" user="borisC" changeset="11494076"/>
  <way id="32113812" version="5" timestamp="2012-05-04T01:56:31Z" uid="45481" user="borisC" changeset="11494076"/>
  <way id="32113846" version="9" timestamp="2012-07-20T10:49:09Z" uid="722137" user="OSMF Redaction Account" changeset="12371732"/>
  <way id="32113960" version="7" timestamp="2012-07-20T10:58:32Z" uid="722137" user="OSMF Redaction Account" changeset="12372049">
    <nd ref="1504688836"/>
    <nd ref="1504688796"/>
    <nd ref="1418154304"/>
    <nd ref="1418154288"/>
    <tag k="highway" v="unclassified"/>
  </way>
  <way id="32113960" version="8" timestamp="2012-07-22T13:23:03Z" uid="39040" user="Dinamik" changeset="12432803">
    <nd ref="1418154288"/>
    <nd ref="1418154304"/>
    <nd ref="1504688796"/>
    <nd ref="1504688836"/>
    <nd ref="366667105"/>
    <tag k="highway" v="unclassified"/>
  </way>
  <way id="32113976" version="5" timestamp="2012-04-29T23:53:10Z" uid="392109" user="GaM" changeset="11455461">
    <nd ref="366666877"/>
    <nd ref="1735897633"/>
    <nd ref="1171200651"/>
    <nd ref="1171200551"/>
    <nd ref="1735897618"/>
    <nd ref="1229865668"/>
    <nd ref="1171200681"/>
    <nd ref="1229866311"/>
    <nd ref="360426724"/>
    <nd ref="360426725"/>
    <nd ref="360426726"/>
    <nd ref="360426727"/>
    <nd ref="360426729"/>
    <nd ref="360426730"/>
    <tag k="highway" v="unclassified"/>
  </way>
  <way id="32113976" version="6" timestamp="2012-07-20T10:58:32Z" uid="722137" user="OSMF Redaction Account" changeset="12372049">
    <nd ref="1735897633"/>
    <nd ref="1171200651"/>
    <nd ref="1171200551"/>
    <nd ref="1735897618"/>
    <nd ref="1229865668"/>
    <nd ref="1171200681"/>
    <nd ref="1229866311"/>
    <tag k="highway" v="unclassified"/>
  </way>
  <way id="32113976" version="7" timestamp="2012-07-22T13:23:42Z" uid="39040" user="Dinamik" changeset="12432814">
    <nd ref="1229866311"/>
    <nd ref="1171200681"/>
    <nd ref="1229865668"/>
    <nd ref="1735897618"/>
    <nd ref="1171200551"/>
    <nd ref="1171200651"/>
    <nd ref="1735897633"/>
    <nd ref="366666877"/>
    <tag k="highway" v="unclassified"/>
  </way>
</osm>
