<?xml version='1.0' encoding='UTF-8'?>
<osm version="0.6" generator="libosmium/2.20.0">
  <way id="32379018" version="1" timestamp="2009-03-21T12:10:38Z" uid="12188" user="Babis" changeset="838946">
    <nd ref="364342992"/>
    <nd ref="251123021"/>
    <tag k="created_by" v="Potlatch 0.10f"/>
    <tag k="highway" v="residential"/>
    <tag k="name" v="Σωκιών"/>
    <tag k="source" v="GPS"/>
  </way>
  <way id="32379018" version="2" timestamp="2009-03-21T12:11:10Z" uid="12188" user="Babis" changeset="838946">
    <nd ref="364342992"/>
    <nd ref="251123021"/>
    <tag k="created_by" v="Potlatch 0.10f"/>
    <tag k="highway" v="residential"/>
    <tag k="name" v="Μεταμορφώσεως"/>
    <tag k="source" v="GPS"/>
  </way>
  <way id="32379018" version="3" timestamp="2009-11-28T13:25:54Z" uid="23785" user="Simon Kokolakis" changeset="3235859"/>
  <way id="32379153" version="1" timestamp="2009-03-21T12:11:40Z" uid="12188" user="Babis" changeset="838946">
    <nd ref="364343004"/>
    <nd ref="364342992"/>
    <tag k="created_by" v="Potlatch 0.10f"/>
    <tag k="highway" v="residential"/>
    <tag k="name" v="Σωκιών"/>
    <tag k="source" v="GPS"/>
  </way>
  <way id="32379153" version="2" timestamp="2009-09-11T21:43:44Z" uid="51324" user="OPerivar" changeset="2452248">
    <nd ref="364343004"/>
    <nd ref="364623230"/>
    <nd ref="364342992"/>
    <tag k="highway" v="residential"/>
    <tag k="name" v="Σωκιών"/>
    <tag k="source" v="GPS"/>
  </way>
  <way id="32379153" version="3" timestamp="2009-11-28T13:25:54Z" uid="23785" user="Simon Kokolakis" changeset="3235859"/>
  <way id="32379337" version="4" timestamp="2009-04-01T05:23:51Z" uid="27600" user="Islanit" changeset="4185">
    <nd ref="364343597"/>
    <nd ref="364343598"/>
    <nd ref="364343599"/>
    <nd ref="364343600"/>
    <nd ref="364343601"/>
    <nd ref="364343602"/>
    <nd ref="364343603"/>
    <nd ref="364343604"/>
    <nd ref="364343597"/>
    <tag k="addr:city" v="Hamburg"/>
    <tag k="addr:housenumber" v="49"/>
    <tag k="addr:street" v="Richard-Linde-Weg"/>
    <tag k="amenity" v="school"/>
    <tag k="created_by" v="Potlatch 0.10f"/>
    <tag k="name" v="Schule Richard-Linde-Weg "/>
    <tag k="note" v="/ ab 7. Kl."/>
  </way>
  <way id="32379337" version="5" timestamp="2009-04-03T17:32:58Z" uid="70696" user="xybot" changeset="141703">
    <nd ref="364343597"/>
    <nd ref="364343598"/>
    <nd ref="364343599"/>
    <nd ref="364343600"/>
    <nd ref="364343601"/>
    <nd ref="364343602"/>
    <nd ref="364343603"/>
    <nd ref="364343604"/>
    <nd ref="364343597"/>
    <tag k="addr:city" v="Hamburg"/>
    <tag k="addr:housenumber" v="49"/>
    <tag k="addr:street" v="Richard-Linde-Weg"/>
    <tag k="amenity" v="school"/>
    <tag k="created_by" v="Potlatch 0.10f"/>
    <tag k="name" v="Schule Richard-Linde-Weg"/>
    <tag k="note" v="/ ab 7. Kl."/>
  </way>
  <way id="32379337" version="6" timestamp="2010-02-04T20:23:19Z" uid="63375" user="Divjo" changeset="3793178">
    <nd ref="364343597"/>
    <nd ref="364343598"/>
    <nd ref="364343599"/>
    <nd ref="364343600"/>
    <nd ref="364343601"/>
    <nd ref="364343602"/>
    <nd ref="364343603"/>
    <nd ref="364343604"/>
    <nd ref="364343597"/>
    <tag k="addr:city" v="Hamburg"/>
    <tag k="addr:housenumber" v="49"/>
    <tag k="addr:street" v="Richard-Linde-Weg"/>
    <tag k="amenity" v="school"/>
    <tag k="name" v="Schule Richard-Linde-Weg"/>
    <tag k="note" v="/ ab 7. Kl."/>
  </way>
  <way id="32379337" version="7" timestamp="2012-01-09T21:55:17Z" uid="167616" user="ajeba" changeset="10346639">
    <nd ref="364343597"/>
    <nd ref="364343598"/>
    <nd ref="364343599"/>
    <nd ref="364343600"/>
    <nd ref="364343601"/>
    <nd ref="364343602"/>
    <nd ref="364343603"/>
    <nd ref="1584101848"/>
    <nd ref="364343604"/>
    <nd ref="364343597"/>
    <tag k="addr:city" v="Hamburg"/>
    <tag k="addr:housenumber" v="49"/>
    <tag k="addr:street" v="Richard-Linde-Weg"/>
    <tag k="amenity" v="school"/>
    <tag k="name" v="Schule Richard-Linde-Weg"/>
    <tag k="note" v="/ ab 7. Kl."/>
  </way>
  <way id="32379500" version="2" timestamp="2010-02-15T06:35:22Z" uid="74617" user="JohnSmith" changeset="3880421">
    <nd ref="364343736"/>
    <nd ref="364343737"/>
    <nd ref="364343738"/>
    <nd ref="364343739"/>
    <nd ref="364343741"/>
    <nd ref="364343743"/>
    <nd ref="364343746"/>
    <nd ref="364343749"/>
    <nd ref="364343751"/>
    <nd ref="364343755"/>
    <nd ref="364343759"/>
    <nd ref="364343763"/>
    <nd ref="364343765"/>
    <nd ref="364343767"/>
    <nd ref="364343768"/>
    <nd ref="364343770"/>
    <nd ref="364343772"/>
    <nd ref="364343773"/>
    <nd ref="364343775"/>
    <nd ref="364343776"/>
    <nd ref="364343778"/>
    <nd ref="364343736"/>
    <tag k="amenity" v="school"/>
  </way>
  <way id="32379500" version="3" timestamp="2010-10-30T10:11:03Z" uid="22094" user="Chadzopkyo" changeset="6225224">
    <nd ref="364343738"/>
    <nd ref="364343741"/>
    <nd ref="970028749"/>
    <nd ref="364343751"/>
    <nd ref="364343755"/>
    <nd ref="970028731"/>
    <nd ref="364343763"/>
    <nd ref="364343767"/>
    <nd ref="364343768"/>
    <nd ref="364343770"/>
    <nd ref="364343775"/>
    <nd ref="364343776"/>
    <nd ref="364343738"/>
    <tag k="amenity" v="school"/>
    <tag k="name" v="Durack State School"/>
  </way>
  <way id="32379500" version="4" timestamp="2010-10-30T10:40:04Z" uid="22094" user="Chadzopkyo" changeset="6225439">
    <nd ref="364343738"/>
    <nd ref="364343741"/>
    <nd ref="970028749"/>
    <nd ref="364343751"/>
    <nd ref="364343755"/>
    <nd ref="970028731"/>
    <nd ref="364343763"/>
    <nd ref="970060236"/>
    <nd ref="364343767"/>
    <nd ref="364343768"/>
    <nd ref="364343770"/>
    <nd ref="364343775"/>
    <nd ref="364343776"/>
    <nd ref="364343738"/>
    <tag k="amenity" v="school"/>
    <tag k="name" v="Durack State School"/>
  </way>
  <way id="32379500" version="5" timestamp="2011-12-07T06:01:06Z" uid="22094" user="Chadzopkyo" changeset="10055220">
    <nd ref="364343767"/>
    <nd ref="364343768"/>
    <nd ref="364343770"/>
  </way>
  <way id="32379732" version="1" timestamp="2009-03-21T12:16:53Z" uid="12188" user="Babis" changeset="838946">
    <nd ref="364344032"/>
    <nd ref="364344033"/>
    <nd ref="364344034"/>
    <tag k="created_by" v="Potlatch 0.10f"/>
    <tag k="highway" v="residential"/>
    <tag k="oneway" v="yes"/>
  </way>
  <way id="32379857" version="2" timestamp="2010-02-15T06:35:23Z" uid="74617" user="JohnSmith" changeset="3880421">
    <nd ref="130975329"/>
    <nd ref="364344187"/>
    <nd ref="364344189"/>
    <nd ref="364344191"/>
    <nd ref="364344193"/>
    <nd ref="364344195"/>
    <nd ref="364344197"/>
    <nd ref="364344199"/>
    <nd ref="364344201"/>
    <nd ref="364344203"/>
    <nd ref="364344205"/>
    <nd ref="364344207"/>
    <tag k="highway" v="residential"/>
    <tag k="maxspeed" v="50"/>
  </way>
  <way id="32379857" version="3" timestamp="2010-10-30T10:11:12Z" uid="22094" user="Chadzopkyo" changeset="6225224">
    <nd ref="130975329"/>
    <nd ref="364344189"/>
    <nd ref="364344191"/>
    <nd ref="364344193"/>
    <nd ref="364344195"/>
    <nd ref="364344197"/>
    <nd ref="364344199"/>
    <nd ref="970028733"/>
    <nd ref="364344201"/>
    <nd ref="970028763"/>
    <nd ref="364344203"/>
    <nd ref="364344205"/>
    <nd ref="364344207"/>
    <tag k="highway" v="residential"/>
    <tag k="maxspeed" v="50"/>
  </way>
  <way id="32379857" version="4" timestamp="2012-01-18T15:04:42Z" uid="147510" user="woodpeck_fixbot" changeset="10427327">
    <nd ref="130975329"/>
    <nd ref="364344189"/>
    <nd ref="364344191"/>
    <nd ref="364344193"/>
    <nd ref="364344195"/>
    <nd ref="364344197"/>
    <nd ref="364344199"/>
    <nd ref="970028733"/>
    <nd ref="364344201"/>
    <nd ref="970028763"/>
    <nd ref="364344203"/>
    <nd ref="364344205"/>
    <nd ref="364344207"/>
    <tag k="highway" v="residential"/>
  </way>
  <way id="32379862" version="1" timestamp="2009-03-21T12:17:47Z" uid="12188" user="Babis" changeset="838946">
    <nd ref="364344032"/>
    <nd ref="362564564"/>
    <tag k="created_by" v="Potlatch 0.10f"/>
    <tag k="highway" v="residential"/>
    <tag k="name" v="Ασυρμάτου"/>
    <tag k="source" v="GPS"/>
  </way>
  <way id="32379862" version="2" timestamp="2009-03-21T12:18:12Z" uid="12188" user="Babis" changeset="838946">
    <nd ref="364344032"/>
    <nd ref="362564564"/>
    <tag k="created_by" v="Potlatch 0.10f"/>
    <tag k="highway" v="residential"/>
    <tag k="name" v="Ασυρμάτου"/>
    <tag k="oneway" v="yes"/>
    <tag k="source" v="GPS"/>
  </way>
  <way id="32379984" version="1" timestamp="2009-03-21T12:18:40Z" uid="12188" user="Babis" changeset="838946">
    <nd ref="364344381"/>
    <nd ref="364343568"/>
    <tag k="created_by" v="Potlatch 0.10f"/>
    <tag k="highway" v="residential"/>
  </way>
  <way id="32379984" version="2" timestamp="2009-03-22T07:59:19Z" uid="12188" user="Babis" changeset="843134">
    <nd ref="364623504"/>
    <nd ref="364344381"/>
    <nd ref="364343568"/>
    <tag k="created_by" v="Potlatch 0.10f"/>
    <tag k="highway" v="residential"/>
  </way>
  <way id="32379984" version="3" timestamp="2009-03-22T08:01:32Z" uid="12188" user="Babis" changeset="843134">
    <nd ref="364623504"/>
    <nd ref="364344381"/>
    <nd ref="364343568"/>
    <tag k="created_by" v="Potlatch 0.10f"/>
    <tag k="highway" v="residential"/>
    <tag k="name" v="Χρήστου Καράκη"/>
    <tag k="name:en" v="Hristou Karaki"/>
  </way>
  <way id="32379984" version="4" timestamp="2009-03-22T08:02:16Z" uid="12188" user="Babis" changeset="843134">
    <nd ref="364623504"/>
    <nd ref="364344381"/>
    <nd ref="364623863"/>
    <nd ref="364343568"/>
    <tag k="created_by" v="Potlatch 0.10f"/>
    <tag k="highway" v="residential"/>
    <tag k="name" v="Χρήστου Καράκη"/>
    <tag k="name:en" v="Hristou Karaki"/>
  </way>
  <way id="32379984" version="5" timestamp="2009-03-22T08:06:55Z" uid="12188" user="Babis" changeset="843134">
    <nd ref="364623504"/>
    <nd ref="364344381"/>
    <nd ref="364623863"/>
    <nd ref="364624541"/>
    <nd ref="364343568"/>
    <tag k="created_by" v="Potlatch 0.10f"/>
    <tag k="highway" v="residential"/>
    <tag k="name" v="Χρήστου Καράκη"/>
    <tag k="name:en" v="Hristou Karaki"/>
  </way>
  <way id="32379337" version="8" timestamp="2012-06-13T21:21:21Z" uid="349191" user="Glühwürmchen" changeset="11889726">
    <nd ref="364343597"/>
    <nd ref="364343598"/>
    <nd ref="364343599"/>
    <nd ref="364343600"/>
    <nd ref="1786640901"/>
    <nd ref="1786640905"/>
    <nd ref="364343601"/>
    <nd ref="364343602"/>
    <nd ref="364343603"/>
    <nd ref="1786640893"/>
    <nd ref="364343604"/>
    <nd ref="364343597"/>
    <tag k="addr:city" v="Hamburg"/>
    <tag k="addr:housenumber" v="49"/>
    <tag k="addr:street" v="Richard-Linde-Weg"/>
    <tag k="amenity" v="school"/>
    <tag k="name" v="Schule Richard-Linde-Weg"/>
    <tag k="note" v="/ ab 7. Kl."/>
  </way>
  <way id="32379337" version="9" timestamp="2012-07-06T16:52:43Z" uid="349191" user="Glühwürmchen" changeset="12132436">
    <nd ref="364343597"/>
    <nd ref="364343598"/>
    <nd ref="364343599"/>
    <nd ref="1786640901"/>
    <nd ref="1786640905"/>
    <nd ref="364343601"/>
    <nd ref="364343602"/>
    <nd ref="364343603"/>
    <nd ref="1786640893"/>
    <nd ref="364343604"/>
    <nd ref="364343597"/>
    <tag k="addr:city" v="Hamburg"/>
    <tag k="addr:housenumber" v="49"/>
    <tag k="addr:street" v="Richard-Linde-Weg"/>
    <tag k="amenity" v="school"/>
    <tag k="name" v="Schule Richard-Linde-Weg"/>
    <tag k="note" v="/ ab 7. Kl."/>
  </way>
  <way id="32379337" version="10" timestamp="2012-07-17T11:09:48Z" uid="722137" user="OSMF Redaction Account" changeset="12263788">
    <nd ref="364343597"/>
    <nd ref="364343598"/>
    <nd ref="364343599"/>
    <nd ref="1786640901"/>
    <nd ref="1786640905"/>
    <nd ref="364343601"/>
    <nd ref="364343602"/>
    <nd ref="364343603"/>
    <nd ref="1786640893"/>
    <nd ref="364343604"/>
    <nd ref="364343597"/>
    <tag k="addr:city" v="Hamburg"/>
    <tag k="addr:housenumber" v="49"/>
    <tag k="addr:street" v="Richard-Linde-Weg"/>
    <tag k="amenity" v="school"/>
    <tag k="name" v="Schule Richard-Linde-Weg / ab 7. Kl."/>
  </way>
  <way id="32379732" version="2" timestamp="2012-07-20T03:41:42Z" uid="722137" user="OSMF Redaction Account" changeset="12359659"/>
  <way id="32379862" version="3" timestamp="2012-07-20T03:41:42Z" uid="722137" user="OSMF Redaction Account" changeset="12359659"/>
  <way id="32379984" version="6" timestamp="2012-07-20T03:41:43Z" uid="722137" user="OSMF Redaction Account" changeset="12359659"/>
</osm>
