<?xml version='1.0' encoding='UTF-8'?>
<osm version="0.6" generator="libosmium/2.20.0">
  <way id="32375032" version="1" timestamp="2009-03-21T11:41:39Z" uid="12188" user="Babis" changeset="838946">
    <nd ref="364339264"/>
    <nd ref="364339265"/>
    <nd ref="364339266"/>
    <tag k="created_by" v="Potlatch 0.10f"/>
    <tag k="highway" v="residential"/>
    <tag k="name" v="Ακτή Σαχτούρη"/>
    <tag k="oneway" v="yes"/>
    <tag k="source" v="GPS"/>
  </way>
  <way id="32375032" version="2" timestamp="2009-11-28T13:29:22Z" uid="23785" user="Simon Kokolakis" changeset="3235859">
    <nd ref="364339264"/>
    <nd ref="364339265"/>
    <tag k="highway" v="residential"/>
    <tag k="name" v="Ακτή Σαχτούρη"/>
    <tag k="source" v="GPS"/>
  </way>
  <way id="32375155" version="2" timestamp="2010-02-15T06:35:17Z" uid="74617" user="JohnSmith" changeset="3880421">
    <nd ref="364339023"/>
    <nd ref="364339290"/>
    <nd ref="364339291"/>
    <nd ref="364339292"/>
    <nd ref="364339293"/>
    <nd ref="364339294"/>
    <nd ref="364339295"/>
    <nd ref="364339296"/>
    <nd ref="364339297"/>
    <nd ref="364339298"/>
    <nd ref="364339299"/>
    <nd ref="364339300"/>
    <nd ref="364339301"/>
    <tag k="highway" v="residential"/>
    <tag k="maxspeed" v="50"/>
  </way>
  <way id="32375155" version="3" timestamp="2012-01-18T15:04:07Z" uid="147510" user="woodpeck_fixbot" changeset="10427327">
    <nd ref="364339023"/>
    <nd ref="364339290"/>
    <nd ref="364339291"/>
    <nd ref="364339292"/>
    <nd ref="364339293"/>
    <nd ref="364339294"/>
    <nd ref="364339295"/>
    <nd ref="364339296"/>
    <nd ref="364339297"/>
    <nd ref="364339298"/>
    <nd ref="364339299"/>
    <nd ref="364339300"/>
    <nd ref="364339301"/>
    <tag k="highway" v="residential"/>
  </way>
  <way id="32375241" version="1" timestamp="2009-03-21T11:43:02Z" uid="12188" user="Babis" changeset="838946">
    <nd ref="364307606"/>
    <nd ref="364339349"/>
    <nd ref="364339351"/>
    <tag k="created_by" v="Potlatch 0.10f"/>
    <tag k="highway" v="residential"/>
    <tag k="name" v="Λάμπρου Κατσώνη"/>
    <tag k="oneway" v="yes"/>
    <tag k="source" v="GPS"/>
  </way>
  <way id="32375293" version="5" timestamp="2009-06-23T14:25:09Z" uid="20587" user="balrog-kun" changeset="1602929"/>
  <way id="32375344" version="1" timestamp="2009-03-21T11:43:43Z" uid="12188" user="Babis" changeset="838946">
    <nd ref="362573800"/>
    <nd ref="364339451"/>
    <tag k="created_by" v="Potlatch 0.10f"/>
    <tag k="highway" v="residential"/>
    <tag k="name" v="28ης Οκτωβρίου"/>
    <tag k="source" v="Yahoo"/>
  </way>
  <way id="32375344" version="2" timestamp="2009-03-21T11:44:12Z" uid="12188" user="Babis" changeset="838946">
    <nd ref="362573800"/>
    <nd ref="364339451"/>
    <tag k="created_by" v="Potlatch 0.10f"/>
    <tag k="highway" v="residential"/>
    <tag k="name" v="Ουρανίας"/>
    <tag k="oneway" v="yes"/>
    <tag k="source" v="GPS"/>
  </way>
  <way id="32375344" version="3" timestamp="2009-03-21T11:45:42Z" uid="12188" user="Babis" changeset="838946">
    <nd ref="362573800"/>
    <nd ref="364339451"/>
    <tag k="created_by" v="Potlatch 0.10f"/>
    <tag k="highway" v="residential"/>
    <tag k="name" v="Ουρανίας"/>
    <tag k="source" v="GPS"/>
  </way>
  <way id="32375395" version="4" timestamp="2010-02-15T06:35:28Z" uid="74617" user="JohnSmith" changeset="3880421">
    <nd ref="100018546"/>
    <nd ref="364339473"/>
    <nd ref="364339474"/>
    <nd ref="364339475"/>
    <nd ref="364339476"/>
    <nd ref="364339477"/>
    <nd ref="364339397"/>
    <tag k="highway" v="secondary_link"/>
    <tag k="name" v="Inala Avenue"/>
    <tag k="oneway" v="yes"/>
  </way>
  <way id="32375395" version="5" timestamp="2010-05-05T07:25:07Z" uid="4467" user="Rosscoe" changeset="4610401">
    <nd ref="364339473"/>
    <nd ref="364339474"/>
    <nd ref="364339476"/>
    <nd ref="100018806"/>
    <tag k="highway" v="primary_link"/>
    <tag k="oneway" v="yes"/>
    <tag k="source" v="nearmap"/>
  </way>
  <way id="32375595" version="1" timestamp="2009-03-21T11:45:34Z" uid="12188" user="Babis" changeset="838946">
    <nd ref="362573795"/>
    <nd ref="364339556"/>
    <tag k="created_by" v="Potlatch 0.10f"/>
    <tag k="highway" v="residential"/>
    <tag k="name" v="Ουρανίας"/>
    <tag k="source" v="GPS"/>
  </way>
  <way id="32375611" version="3" timestamp="2010-02-15T06:31:44Z" uid="74617" user="JohnSmith" changeset="3880421">
    <nd ref="364339445"/>
    <nd ref="364339566"/>
    <nd ref="364339567"/>
    <nd ref="364339569"/>
    <nd ref="364339570"/>
    <tag k="highway" v="secondary_link"/>
    <tag k="name" v="Inala Avenue"/>
    <tag k="oneway" v="yes"/>
  </way>
  <way id="32375611" version="4" timestamp="2010-05-05T07:25:19Z" uid="4467" user="Rosscoe" changeset="4610401"/>
  <way id="32375678" version="8" timestamp="2009-06-23T14:25:09Z" uid="20587" user="balrog-kun" changeset="1602929"/>
  <way id="32375711" version="2" timestamp="2010-02-15T06:35:27Z" uid="74617" user="JohnSmith" changeset="3880421">
    <nd ref="364338937"/>
    <nd ref="364339593"/>
    <nd ref="364339594"/>
    <nd ref="364339595"/>
    <nd ref="364339596"/>
    <tag k="highway" v="residential"/>
    <tag k="maxspeed" v="50"/>
    <tag k="oneway" v="yes"/>
  </way>
  <way id="32375711" version="3" timestamp="2010-05-05T13:03:26Z" uid="4467" user="Rosscoe" changeset="4612702"/>
  <way id="32375718" version="5" timestamp="2009-06-05T19:53:07Z" uid="132212" user="Migro" changeset="1432497">
    <nd ref="364339597"/>
    <nd ref="364339598"/>
    <nd ref="364339599"/>
    <nd ref="364339600"/>
    <tag k="created_by" v="Potlatch 0.10f"/>
    <tag k="highway" v="residential"/>
    <tag k="name" v="Dalvägen"/>
    <tag k="name:fi" v="Dalintie"/>
    <tag k="name:sv" v="Dalvägen"/>
  </way>
  <way id="32375718" version="6" timestamp="2009-08-11T17:52:45Z" uid="82162" user="MaxiMouse" changeset="2110841">
    <nd ref="364339597"/>
    <nd ref="364339598"/>
    <nd ref="364339599"/>
    <nd ref="461902556"/>
    <nd ref="364339600"/>
    <tag k="created_by" v="Potlatch 0.10f"/>
    <tag k="highway" v="residential"/>
    <tag k="name" v="Dalvägen"/>
    <tag k="name:fi" v="Dalintie"/>
    <tag k="name:sv" v="Dalvägen"/>
  </way>
  <way id="32375718" version="7" timestamp="2010-08-04T10:21:56Z" uid="4660" user="alv" changeset="5397609">
    <nd ref="364339597"/>
    <nd ref="364339598"/>
    <nd ref="364339599"/>
    <nd ref="461902556"/>
    <nd ref="845816754"/>
    <nd ref="364339600"/>
    <tag k="highway" v="residential"/>
    <tag k="maxspeed" v="30"/>
    <tag k="name" v="Dalvägen"/>
    <tag k="name:fi" v="Dalintie"/>
    <tag k="name:sv" v="Dalvägen"/>
  </way>
  <way id="32375798" version="5" timestamp="2010-06-29T19:11:33Z" uid="74617" user="JohnSmith" changeset="5108182">
    <nd ref="364339606"/>
    <nd ref="364339444"/>
    <nd ref="243663891"/>
    <nd ref="364339552"/>
    <nd ref="364339606"/>
    <tag k="fixme" v="sport=football is ambiguous, see http://wiki.osm.org/wiki/Football for more details"/>
    <tag k="leisure" v="sports_centre"/>
    <tag k="sport" v="football"/>
  </way>
  <way id="32375931" version="1" timestamp="2009-03-21T11:47:48Z" uid="12188" user="Babis" changeset="838946">
    <nd ref="364339004"/>
    <nd ref="278346889"/>
    <tag k="created_by" v="Potlatch 0.10f"/>
    <tag k="highway" v="residential"/>
    <tag k="layer" v="1"/>
    <tag k="name" v="Κουμουνδούρου"/>
    <tag k="source" v="GPS"/>
  </way>
  <way id="32375933" version="1" timestamp="2009-03-21T11:47:48Z" uid="12188" user="Babis" changeset="838946">
    <nd ref="250927401"/>
    <nd ref="364307612"/>
    <nd ref="364339004"/>
    <tag k="created_by" v="Potlatch 0.10f"/>
    <tag k="highway" v="residential"/>
    <tag k="layer" v="1"/>
    <tag k="name" v="Κουμουνδούρου"/>
    <tag k="source" v="GPS"/>
  </way>
  <way id="32375933" version="2" timestamp="2009-03-21T11:48:20Z" uid="12188" user="Babis" changeset="838946">
    <nd ref="364339004"/>
    <nd ref="364307612"/>
    <nd ref="250927401"/>
    <tag k="created_by" v="Potlatch 0.10f"/>
    <tag k="highway" v="residential"/>
    <tag k="name" v="Κουμουνδούρου"/>
    <tag k="oneway" v="yes"/>
    <tag k="source" v="GPS"/>
  </way>
  <way id="32375933" version="3" timestamp="2010-12-01T17:22:07Z" uid="23785" user="greecemapper" changeset="6506083">
    <nd ref="364339004"/>
    <nd ref="1014794584"/>
    <nd ref="364307612"/>
    <nd ref="1014794583"/>
    <nd ref="250927401"/>
    <tag k="highway" v="residential"/>
    <tag k="name" v="Κουμουνδούρου"/>
    <tag k="oneway" v="yes"/>
    <tag k="source" v="GPS"/>
  </way>
  <way id="32375032" version="3" timestamp="2012-07-20T03:41:18Z" uid="722137" user="OSMF Redaction Account" changeset="12359644"/>
  <way id="32375241" version="2" timestamp="2012-07-20T03:41:21Z" uid="722137" user="OSMF Redaction Account" changeset="12359644"/>
  <way id="32375344" version="4" timestamp="2012-07-20T03:41:19Z" uid="722137" user="OSMF Redaction Account" changeset="12359644"/>
  <way id="32375395" version="6" timestamp="2012-07-19T20:42:49Z" uid="722137" user="OSMF Redaction Account" changeset="12346679">
    <nd ref="364339473"/>
    <nd ref="364339474"/>
    <nd ref="364339476"/>
    <tag k="highway" v="secondary_link"/>
    <tag k="oneway" v="yes"/>
  </way>
  <way id="32375395" version="7" timestamp="2012-07-30T09:58:45Z" uid="437598" user="dmgroom_ct" changeset="12545672">
    <nd ref="364339445"/>
    <nd ref="364339473"/>
    <nd ref="364339474"/>
    <nd ref="364339476"/>
    <nd ref="100018806"/>
    <tag k="highway" v="secondary_link"/>
    <tag k="oneway" v="yes"/>
  </way>
  <way id="32375595" version="2" timestamp="2012-07-20T03:41:20Z" uid="722137" user="OSMF Redaction Account" changeset="12359644"/>
  <way id="32375718" version="8" timestamp="2012-07-20T04:18:02Z" uid="722137" user="OSMF Redaction Account" changeset="12360293">
    <nd ref="364339597"/>
    <nd ref="364339598"/>
    <nd ref="364339599"/>
    <nd ref="461902556"/>
    <nd ref="845816754"/>
    <nd ref="364339600"/>
    <tag k="highway" v="residential"/>
    <tag k="maxspeed" v="30"/>
    <tag k="name" v="Dalintie"/>
    <tag k="name:fi" v="Dalintie"/>
    <tag k="name:sv" v="Dalvägen"/>
  </way>
  <way id="32375798" version="6" timestamp="2012-07-13T23:08:49Z" uid="722137" user="OSMF Redaction Account" changeset="12212362">
    <nd ref="364339606"/>
    <nd ref="364339444"/>
    <nd ref="243663891"/>
    <nd ref="364339552"/>
    <nd ref="364339606"/>
    <tag k="leisure" v="sports_centre"/>
    <tag k="sport" v="football"/>
  </way>
  <way id="32375931" version="2" timestamp="2012-07-20T03:41:18Z" uid="722137" user="OSMF Redaction Account" changeset="12359644"/>
  <way id="32375933" version="4" timestamp="2012-07-20T03:39:07Z" uid="722137" user="OSMF Redaction Account" changeset="12359551">
    <nd ref="1014794584"/>
    <nd ref="1014794583"/>
  </way>
  <way id="32375933" version="5" timestamp="2012-08-07T15:20:07Z" uid="24247" user="Vlad" changeset="12646817">
    <nd ref="1014794584"/>
    <nd ref="364307612"/>
    <nd ref="1014794583"/>
    <nd ref="250927401"/>
    <tag k="highway" v="residential"/>
  </way>
  <way id="32375933" version="6" timestamp="2012-08-08T12:27:45Z" uid="411246" user="makmar" changeset="12656665">
    <nd ref="364307612"/>
    <nd ref="1014794583"/>
    <nd ref="250927401"/>
    <tag k="highway" v="residential"/>
  </way>
</osm>
