<?xml version='1.0' encoding='UTF-8'?>
<osm version="0.6" generator="libosmium/2.20.0">
  <way id="32746117" version="2" timestamp="2010-08-31T02:27:45Z" uid="4467" user="Rosscoe" changeset="5641882">
    <nd ref="368446371"/>
    <nd ref="368446397"/>
    <nd ref="368446415"/>
    <nd ref="368446436"/>
    <nd ref="368446371"/>
    <tag k="addr:city" v="Brunswick"/>
    <tag k="addr:country" v="AU"/>
    <tag k="addr:housenumber" v="423"/>
    <tag k="addr:postcode" v="3056"/>
    <tag k="addr:street" v="Victoria Street"/>
    <tag k="building" v="yes"/>
    <tag k="name" v="Bas Foods"/>
  </way>
  <way id="32746118" version="2" timestamp="2010-08-31T02:27:41Z" uid="4467" user="Rosscoe" changeset="5641882">
    <nd ref="368446505"/>
    <nd ref="368446483"/>
    <nd ref="368446459"/>
    <nd ref="368446521"/>
    <nd ref="368446505"/>
    <tag k="addr:city" v="Brunswick"/>
    <tag k="addr:country" v="AU"/>
    <tag k="addr:housenumber" v="419"/>
    <tag k="addr:postcode" v="3056"/>
    <tag k="addr:street" v="Victoria Street"/>
    <tag k="building" v="yes"/>
    <tag k="name" v="Bas Foods"/>
  </way>
  <way id="32746119" version="2" timestamp="2010-08-31T02:27:47Z" uid="4467" user="Rosscoe" changeset="5641882">
    <nd ref="368446534"/>
    <nd ref="368446556"/>
    <nd ref="889687797"/>
    <nd ref="889687707"/>
    <nd ref="889687673"/>
    <nd ref="889687765"/>
    <nd ref="889687729"/>
    <nd ref="889687781"/>
    <nd ref="368446534"/>
    <tag k="addr:city" v="Brunswick"/>
    <tag k="addr:country" v="AU"/>
    <tag k="addr:housenumber" v="421"/>
    <tag k="addr:postcode" v="3056"/>
    <tag k="addr:street" v="Victoria Street"/>
    <tag k="building" v="yes"/>
    <tag k="name" v="Tyco Electronics"/>
  </way>
  <way id="32746125" version="2" timestamp="2010-08-31T02:27:46Z" uid="4467" user="Rosscoe" changeset="5641882">
    <nd ref="368447138"/>
    <nd ref="368447156"/>
    <nd ref="368447178"/>
    <nd ref="368447203"/>
    <nd ref="368447138"/>
    <tag k="addr:city" v="Brunswick"/>
    <tag k="addr:country" v="AU"/>
    <tag k="addr:housenumber" v="420"/>
    <tag k="addr:postcode" v="3056"/>
    <tag k="addr:street" v="Victoria Street"/>
    <tag k="building" v="yes"/>
    <tag k="name" v="Brunswick Business Incubator"/>
  </way>
  <way id="32746131" version="2" timestamp="2010-08-31T02:27:42Z" uid="4467" user="Rosscoe" changeset="5641882">
    <nd ref="368447421"/>
    <nd ref="368447431"/>
    <nd ref="368447497"/>
    <nd ref="368447556"/>
    <nd ref="368447421"/>
    <tag k="addr:city" v="Brunswick"/>
    <tag k="addr:country" v="AU"/>
    <tag k="addr:housenumber" v="346"/>
    <tag k="addr:postcode" v="3056"/>
    <tag k="addr:street" v="Albert Street"/>
    <tag k="building" v="yes"/>
    <tag k="name" v="Playgroup Victoria"/>
  </way>
  <way id="32746506" version="5" timestamp="2009-08-07T12:24:03Z" uid="151465" user="harter_hund" changeset="2065486">
    <nd ref="368461410"/>
    <nd ref="368461415"/>
    <nd ref="411917703"/>
    <nd ref="411917693"/>
    <nd ref="368461417"/>
    <nd ref="411917694"/>
    <nd ref="368461420"/>
    <nd ref="411917713"/>
    <nd ref="411917695"/>
    <nd ref="30585605"/>
    <nd ref="368461422"/>
    <nd ref="411917696"/>
    <nd ref="368461423"/>
    <nd ref="368461425"/>
    <nd ref="368461427"/>
    <nd ref="368461429"/>
    <nd ref="368461431"/>
    <nd ref="457960826"/>
    <nd ref="368461432"/>
    <nd ref="368461434"/>
    <nd ref="368461435"/>
    <nd ref="368461437"/>
    <nd ref="368461438"/>
    <nd ref="368461440"/>
    <nd ref="368461442"/>
    <nd ref="368461445"/>
    <nd ref="368461454"/>
    <nd ref="368461458"/>
    <nd ref="368461459"/>
    <nd ref="368461461"/>
    <nd ref="368461465"/>
    <nd ref="368461466"/>
    <nd ref="368461468"/>
    <nd ref="368461472"/>
    <nd ref="368461474"/>
    <nd ref="368461477"/>
    <nd ref="368461479"/>
    <nd ref="368461481"/>
    <nd ref="368461484"/>
    <nd ref="368461485"/>
    <nd ref="368461486"/>
    <nd ref="368461489"/>
    <nd ref="368461492"/>
    <nd ref="368461493"/>
    <nd ref="368461495"/>
    <nd ref="368461497"/>
    <nd ref="368461498"/>
    <nd ref="368461500"/>
    <nd ref="368461503"/>
    <nd ref="368461506"/>
    <nd ref="368461508"/>
    <nd ref="368461511"/>
    <nd ref="368461513"/>
    <nd ref="368461515"/>
    <nd ref="368461517"/>
    <nd ref="324714895"/>
    <tag k="foot" v="yes"/>
    <tag k="highway" v="footway"/>
  </way>
  <way id="32746506" version="6" timestamp="2009-08-28T08:43:33Z" uid="162855" user="hubinuz" changeset="2287421">
    <nd ref="368461410"/>
    <nd ref="368461415"/>
    <nd ref="411917703"/>
    <nd ref="411917693"/>
    <nd ref="368461417"/>
    <nd ref="411917694"/>
    <nd ref="368461420"/>
    <nd ref="411917713"/>
    <nd ref="411917695"/>
    <nd ref="30585605"/>
    <nd ref="368461422"/>
    <nd ref="411917696"/>
    <nd ref="368461423"/>
    <tag k="foot" v="yes"/>
    <tag k="highway" v="footway"/>
  </way>
  <way id="32746506" version="7" timestamp="2011-10-16T14:40:58Z" uid="32112" user="SverigeFan" changeset="9572911">
    <nd ref="368461410"/>
    <nd ref="368461415"/>
    <nd ref="411917703"/>
    <nd ref="411917693"/>
    <nd ref="368461417"/>
    <nd ref="1469277477"/>
    <nd ref="411917694"/>
    <nd ref="368461420"/>
    <nd ref="411917713"/>
    <nd ref="411917695"/>
    <nd ref="30585605"/>
    <nd ref="368461422"/>
    <nd ref="411917696"/>
    <nd ref="368461423"/>
    <tag k="foot" v="yes"/>
    <tag k="highway" v="footway"/>
  </way>
  <way id="32746117" version="3" timestamp="2012-07-19T11:52:16Z" uid="722137" user="OSMF Redaction Account" changeset="12322905">
    <nd ref="368446371"/>
    <nd ref="368446397"/>
    <nd ref="368446415"/>
    <nd ref="368446436"/>
    <nd ref="368446371"/>
    <tag k="addr:city" v="Brunswick"/>
    <tag k="addr:country" v="AU"/>
    <tag k="addr:housename" v="Bas Foods"/>
    <tag k="addr:housenumber" v="423"/>
    <tag k="addr:postcode" v="3056"/>
    <tag k="addr:street" v="Victoria Street"/>
    <tag k="building" v="yes"/>
  </way>
  <way id="32746118" version="3" timestamp="2012-07-19T11:52:15Z" uid="722137" user="OSMF Redaction Account" changeset="12322905">
    <nd ref="368446505"/>
    <nd ref="368446483"/>
    <nd ref="368446459"/>
    <nd ref="368446521"/>
    <nd ref="368446505"/>
    <tag k="addr:city" v="Brunswick"/>
    <tag k="addr:country" v="AU"/>
    <tag k="addr:housename" v="Bas Foods"/>
    <tag k="addr:housenumber" v="419"/>
    <tag k="addr:postcode" v="3056"/>
    <tag k="addr:street" v="Victoria Street"/>
    <tag k="building" v="yes"/>
  </way>
  <way id="32746119" version="3" timestamp="2012-07-19T11:41:55Z" uid="722137" user="OSMF Redaction Account" changeset="12322246">
    <nd ref="368446534"/>
    <nd ref="368446556"/>
    <nd ref="368446534"/>
    <tag k="addr:city" v="Brunswick"/>
    <tag k="addr:country" v="AU"/>
    <tag k="addr:housename" v="Tyco Electronics"/>
    <tag k="addr:housenumber" v="421"/>
    <tag k="addr:postcode" v="3056"/>
    <tag k="addr:street" v="Victoria Street"/>
    <tag k="building" v="yes"/>
  </way>
  <way id="32746125" version="3" timestamp="2012-07-19T11:52:14Z" uid="722137" user="OSMF Redaction Account" changeset="12322905">
    <nd ref="368447138"/>
    <nd ref="368447156"/>
    <nd ref="368447178"/>
    <nd ref="368447203"/>
    <nd ref="368447138"/>
    <tag k="addr:city" v="Brunswick"/>
    <tag k="addr:country" v="AU"/>
    <tag k="addr:housename" v="Brunswick Business Incubator"/>
    <tag k="addr:housenumber" v="420"/>
    <tag k="addr:postcode" v="3056"/>
    <tag k="addr:street" v="Victoria Street"/>
    <tag k="building" v="yes"/>
  </way>
  <way id="32746131" version="3" timestamp="2012-07-19T11:52:10Z" uid="722137" user="OSMF Redaction Account" changeset="12322905">
    <nd ref="368447421"/>
    <nd ref="368447431"/>
    <nd ref="368447497"/>
    <nd ref="368447556"/>
    <nd ref="368447421"/>
    <tag k="addr:city" v="Brunswick"/>
    <tag k="addr:country" v="AU"/>
    <tag k="addr:housename" v="Playgroup Victoria"/>
    <tag k="addr:housenumber" v="346"/>
    <tag k="addr:postcode" v="3056"/>
    <tag k="addr:street" v="Albert Street"/>
    <tag k="building" v="yes"/>
  </way>
  <way id="32746506" version="8" timestamp="2012-05-29T15:06:56Z" uid="195713" user="_torsten_" changeset="11739132"/>
</osm>
