<?xml version='1.0' encoding='UTF-8'?>
<osm version="0.6" generator="libosmium/2.20.0">
  <way id="32749173" version="1" timestamp="2009-04-02T11:04:44Z" uid="49111" user="Markus B" changeset="79942">
    <nd ref="368536327"/>
    <nd ref="368539235"/>
    <nd ref="368539236"/>
    <nd ref="368539239"/>
    <nd ref="368539241"/>
    <nd ref="368539243"/>
    <tag k="created_by" v="Potlatch 0.10f"/>
  </way>
  <way id="32749173" version="2" timestamp="2009-04-02T11:05:28Z" uid="49111" user="Markus B" changeset="79942">
    <nd ref="368536327"/>
    <nd ref="368539235"/>
    <nd ref="368539236"/>
    <tag k="created_by" v="Potlatch 0.10f"/>
  </way>
  <way id="32749173" version="3" timestamp="2009-04-02T11:05:58Z" uid="49111" user="Markus B" changeset="79942">
    <nd ref="368536327"/>
    <nd ref="368539235"/>
    <nd ref="368539236"/>
    <tag k="created_by" v="Potlatch 0.10f"/>
    <tag k="highway" v="residential"/>
    <tag k="name" v="Ackerstraße"/>
  </way>
  <way id="32749173" version="4" timestamp="2010-08-04T09:18:20Z" uid="8464" user="MichaH" changeset="5397104">
    <nd ref="368536327"/>
    <nd ref="368539235"/>
    <nd ref="368539236"/>
    <tag k="highway" v="residential"/>
    <tag k="name" v="Ackerstraße"/>
  </way>
  <way id="32749178" version="1" timestamp="2009-04-02T11:04:53Z" uid="49111" user="Markus B" changeset="79942">
    <nd ref="368539239"/>
    <nd ref="368539438"/>
    <tag k="created_by" v="Potlatch 0.10f"/>
  </way>
  <way id="32749178" version="2" timestamp="2009-04-02T11:08:17Z" uid="49111" user="Markus B" changeset="79942">
    <nd ref="368539239"/>
    <nd ref="368539438"/>
    <tag k="created_by" v="Potlatch 0.10f"/>
    <tag k="highway" v="residential"/>
    <tag k="name" v="Ackerstraße"/>
  </way>
  <way id="32749178" version="3" timestamp="2010-08-04T09:18:31Z" uid="8464" user="MichaH" changeset="5397104">
    <nd ref="368539239"/>
    <nd ref="368539438"/>
    <tag k="highway" v="residential"/>
    <tag k="name" v="Ackerstraße"/>
  </way>
  <way id="32749178" version="4" timestamp="2011-11-08T10:02:51Z" uid="238266" user="bangla" changeset="9771833"/>
  <way id="32749195" version="1" timestamp="2009-04-02T11:05:16Z" uid="49111" user="Markus B" changeset="79942">
    <nd ref="368539236"/>
    <nd ref="368540229"/>
    <tag k="created_by" v="Potlatch 0.10f"/>
  </way>
  <way id="32749195" version="2" timestamp="2009-04-02T11:07:15Z" uid="49111" user="Markus B" changeset="79942">
    <nd ref="368539236"/>
    <nd ref="368540229"/>
    <tag k="created_by" v="Potlatch 0.10f"/>
  </way>
  <way id="32749195" version="3" timestamp="2009-04-02T11:07:56Z" uid="49111" user="Markus B" changeset="79942">
    <nd ref="368539236"/>
    <nd ref="368540229"/>
    <tag k="created_by" v="Potlatch 0.10f"/>
    <tag k="highway" v="residential"/>
    <tag k="name" v="Ackerstraße"/>
  </way>
  <way id="32749195" version="4" timestamp="2010-08-04T09:17:55Z" uid="8464" user="MichaH" changeset="5397104">
    <nd ref="368539236"/>
    <nd ref="368540229"/>
    <tag k="highway" v="residential"/>
    <tag k="name" v="Ackerstraße"/>
  </way>
  <way id="32749195" version="5" timestamp="2011-11-08T10:07:22Z" uid="238266" user="bangla" changeset="9771858"/>
  <way id="32749201" version="1" timestamp="2009-04-02T11:05:27Z" uid="49111" user="Markus B" changeset="79942">
    <nd ref="368539236"/>
    <nd ref="368539239"/>
    <nd ref="368539241"/>
    <nd ref="368539243"/>
    <tag k="created_by" v="Potlatch 0.10f"/>
  </way>
  <way id="32749201" version="2" timestamp="2009-04-02T11:07:36Z" uid="49111" user="Markus B" changeset="79942">
    <nd ref="368539236"/>
    <nd ref="368539239"/>
    <nd ref="368539241"/>
    <nd ref="368539243"/>
    <tag k="created_by" v="Potlatch 0.10f"/>
    <tag k="highway" v="residential"/>
    <tag k="name" v="Ackerstraße"/>
  </way>
  <way id="32749201" version="3" timestamp="2009-04-22T12:26:59Z" uid="13363" user="CaptainCrunch" changeset="897767">
    <nd ref="368539236"/>
    <nd ref="368539239"/>
    <nd ref="368539241"/>
    <nd ref="373110524"/>
    <tag k="created_by" v="Potlatch 0.10f"/>
    <tag k="highway" v="residential"/>
    <tag k="name" v="Ackerstraße"/>
  </way>
  <way id="32749201" version="4" timestamp="2010-08-04T09:18:11Z" uid="8464" user="MichaH" changeset="5397104">
    <nd ref="368539236"/>
    <nd ref="368539239"/>
    <nd ref="368539241"/>
    <nd ref="373110524"/>
    <tag k="highway" v="residential"/>
    <tag k="name" v="Ackerstraße"/>
  </way>
  <way id="32749201" version="5" timestamp="2011-11-08T10:11:35Z" uid="238266" user="bangla" changeset="9771890"/>
  <way id="32749320" version="1" timestamp="2009-04-02T11:09:30Z" uid="49111" user="Markus B" changeset="79942">
    <nd ref="368546187"/>
    <nd ref="368546188"/>
    <nd ref="368546189"/>
    <nd ref="368546192"/>
    <nd ref="368546187"/>
    <tag k="addr:housenumber" v="4"/>
    <tag k="addr:street" v="Acherstraße"/>
    <tag k="building" v="yes"/>
    <tag k="created_by" v="Potlatch 0.10f"/>
  </way>
  <way id="32749320" version="2" timestamp="2010-08-04T09:17:54Z" uid="8464" user="MichaH" changeset="5397104">
    <nd ref="368546187"/>
    <nd ref="368546188"/>
    <nd ref="368546189"/>
    <nd ref="368546192"/>
    <nd ref="368546187"/>
    <tag k="addr:housenumber" v="4"/>
    <tag k="addr:street" v="Acherstraße"/>
    <tag k="building" v="yes"/>
  </way>
  <way id="32749320" version="3" timestamp="2011-09-24T19:56:00Z" uid="202858" user="kellerma" changeset="9387386">
    <nd ref="368546187"/>
    <nd ref="368546188"/>
    <nd ref="368546189"/>
    <nd ref="368546192"/>
    <nd ref="368546187"/>
    <tag k="addr:city" v="Fürth"/>
    <tag k="addr:country" v="DE"/>
    <tag k="addr:housenumber" v="4"/>
    <tag k="addr:street" v="Ackerstraße"/>
    <tag k="building" v="yes"/>
  </way>
  <way id="32749320" version="4" timestamp="2011-09-24T20:01:54Z" uid="202858" user="kellerma" changeset="9387444">
    <nd ref="368546187"/>
    <nd ref="368546188"/>
    <nd ref="368546189"/>
    <nd ref="368546192"/>
    <nd ref="368546187"/>
    <tag k="addr:country" v="DE"/>
    <tag k="addr:housenumber" v="4"/>
    <tag k="addr:street" v="Ackerstraße"/>
    <tag k="building" v="yes"/>
  </way>
</osm>
