<?xml version='1.0' encoding='UTF-8'?>
<osm version="0.6" generator="libosmium/2.20.0">
  <way id="32754212" version="3" timestamp="2009-10-08T22:20:56Z" uid="179968" user="Ich_hasse_doitsche_OSM-Korinthenkacker" changeset="2788120">
    <nd ref="368732555"/>
    <nd ref="368732561"/>
    <nd ref="368732564"/>
    <nd ref="368732568"/>
    <nd ref="368732573"/>
    <nd ref="368732577"/>
    <nd ref="368732580"/>
    <nd ref="368732583"/>
    <nd ref="368732587"/>
    <nd ref="368732592"/>
    <nd ref="368732594"/>
    <nd ref="368732595"/>
    <nd ref="368732597"/>
    <tag k="railway" v="abandoned"/>
  </way>
  <way id="32754212" version="4" timestamp="2012-01-21T12:59:57Z" uid="86932" user="bialy111" changeset="10455183">
    <nd ref="367588812"/>
    <nd ref="368732561"/>
    <nd ref="368732564"/>
    <nd ref="368732568"/>
    <nd ref="368732573"/>
    <nd ref="368732577"/>
    <nd ref="368732580"/>
    <nd ref="368732583"/>
    <nd ref="368732587"/>
    <nd ref="368732592"/>
    <nd ref="368732594"/>
    <nd ref="368732595"/>
    <nd ref="368732597"/>
    <tag k="railway" v="abandoned"/>
  </way>
  <way id="32754259" version="3" timestamp="2009-10-08T22:19:39Z" uid="179968" user="Ich_hasse_doitsche_OSM-Korinthenkacker" changeset="2788120">
    <nd ref="368734698"/>
    <nd ref="368734703"/>
    <nd ref="368734709"/>
    <tag k="railway" v="abandoned"/>
    <tag k="route" v="ferry"/>
  </way>
  <way id="32754285" version="3" timestamp="2009-10-08T22:19:50Z" uid="179968" user="Ich_hasse_doitsche_OSM-Korinthenkacker" changeset="2788120">
    <nd ref="368735555"/>
    <nd ref="368735560"/>
    <nd ref="366700328"/>
    <tag k="railway" v="abandoned"/>
  </way>
  <way id="32754549" version="2" timestamp="2009-07-10T15:15:46Z" uid="43863" user="Rundling" changeset="1789943">
    <nd ref="368747821"/>
    <nd ref="368747828"/>
    <tag k="bridge" v="yes"/>
    <tag k="highway" v="primary"/>
    <tag k="layer" v="1"/>
    <tag k="ref" v="B 3; B 71"/>
  </way>
  <way id="32754549" version="3" timestamp="2009-12-28T11:33:21Z" uid="35560" user="HeikoE" changeset="3470478">
    <nd ref="368747821"/>
    <nd ref="368747828"/>
    <tag k="bridge" v="yes"/>
    <tag k="highway" v="primary"/>
    <tag k="layer" v="1"/>
    <tag k="ref" v="B 3;B 71"/>
  </way>
  <way id="32754549" version="4" timestamp="2010-06-06T11:06:39Z" uid="45882" user="smarties" changeset="4916541">
    <nd ref="368747821"/>
    <nd ref="368747828"/>
    <tag k="bridge" v="yes"/>
    <tag k="cycleway" v="track"/>
    <tag k="highway" v="primary"/>
    <tag k="layer" v="1"/>
    <tag k="ref" v="B 3;B 71"/>
  </way>
  <way id="32754549" version="5" timestamp="2010-06-06T11:14:12Z" uid="45882" user="smarties" changeset="4916592">
    <nd ref="765651781"/>
    <nd ref="368747828"/>
    <tag k="bridge" v="yes"/>
    <tag k="cycleway" v="track"/>
    <tag k="highway" v="primary"/>
    <tag k="layer" v="1"/>
    <tag k="ref" v="B 3;B 71"/>
  </way>
  <way id="32754549" version="6" timestamp="2011-03-29T19:51:46Z" uid="175523" user="mapistanbul" changeset="7710241">
    <nd ref="765651781"/>
    <nd ref="368747828"/>
    <tag k="bridge" v="yes"/>
    <tag k="cycleway" v="track"/>
    <tag k="highway" v="primary"/>
    <tag k="layer" v="1"/>
    <tag k="maxspeed" v="50"/>
    <tag k="ref" v="B 3;B 71"/>
  </way>
  <way id="32754549" version="7" timestamp="2012-02-27T00:05:07Z" uid="45882" user="smarties" changeset="10804643"/>
  <way id="32754804" version="1" timestamp="2009-04-02T13:29:44Z" uid="20587" user="balrog-kun" changeset="58274">
    <nd ref="368760741"/>
    <nd ref="308757824"/>
    <nd ref="368760756"/>
    <nd ref="368760748"/>
    <nd ref="368760741"/>
    <tag k="building" v="yes"/>
    <tag k="building:levels" v="1"/>
    <tag k="name" v="Carrefour"/>
    <tag k="note" v="TODO"/>
    <tag k="operator" v="Carrefour"/>
    <tag k="shop" v="supermarket"/>
  </way>
  <way id="32754804" version="2" timestamp="2009-04-02T16:19:50Z" uid="20587" user="balrog-kun" changeset="73521"/>
  <way id="32754805" version="1" timestamp="2009-04-02T13:29:45Z" uid="20587" user="balrog-kun" changeset="58274">
    <nd ref="368760779"/>
    <nd ref="368760774"/>
    <nd ref="368760761"/>
    <nd ref="368760767"/>
    <nd ref="368760779"/>
    <tag k="addr:housenumber" v="3a"/>
    <tag k="addr:street" v="3 Maja"/>
    <tag k="amenity" v="cafe"/>
    <tag k="building" v="yes"/>
    <tag k="building:levels" v="1"/>
    <tag k="name" v="Jazz Cafe"/>
  </way>
  <way id="32754805" version="2" timestamp="2009-04-04T01:50:33Z" uid="20587" user="balrog-kun" changeset="169466">
    <nd ref="368760779"/>
    <nd ref="368760774"/>
    <nd ref="368760761"/>
    <nd ref="368760767"/>
    <nd ref="368760779"/>
    <tag k="addr:housenumber" v="3b"/>
    <tag k="addr:street" v="3 Maja"/>
    <tag k="amenity" v="cafe"/>
    <tag k="building" v="yes"/>
    <tag k="building:levels" v="1"/>
    <tag k="name" v="Jazz Cafe"/>
  </way>
  <way id="32754805" version="3" timestamp="2009-04-15T07:22:37Z" uid="20587" user="balrog-kun" changeset="546735">
    <nd ref="368760779"/>
    <nd ref="368760774"/>
    <nd ref="368760761"/>
    <nd ref="368760767"/>
    <nd ref="368760779"/>
    <tag k="addr:housenumber" v="3b"/>
    <tag k="addr:street" v="3 Maja"/>
    <tag k="amenity" v="cafe"/>
    <tag k="building" v="yes"/>
    <tag k="building:levels" v="1"/>
    <tag k="name" v="Jazz Pub"/>
  </way>
  <way id="32754907" version="4" timestamp="2009-04-15T06:24:22Z" uid="6975" user="ulfl" changeset="553994">
    <nd ref="368758927"/>
    <nd ref="366778665"/>
    <tag k="foot" v="yes"/>
    <tag k="highway" v="steps"/>
  </way>
</osm>
