<?xml version='1.0' encoding='UTF-8'?>
<osm version="0.6" generator="libosmium/2.20.0">
  <way id="32772109" version="1" timestamp="2009-04-02T22:11:33Z" uid="110593" user="esetzer" changeset="104634">
    <nd ref="369101672"/>
    <nd ref="369101681"/>
    <nd ref="83539718"/>
    <nd ref="369101683"/>
    <nd ref="369101686"/>
    <nd ref="83588654"/>
    <nd ref="369101689"/>
    <nd ref="83588651"/>
    <nd ref="369101691"/>
    <nd ref="369101681"/>
    <nd ref="369101672"/>
    <tag k="created_by" v="Merkaartor 0.11"/>
    <tag k="landuse" v="retail"/>
  </way>
  <way id="32772109" version="2" timestamp="2009-04-09T22:04:04Z" uid="110593" user="esetzer" changeset="364343">
    <nd ref="369101672"/>
    <nd ref="369101681"/>
    <nd ref="83539718"/>
    <nd ref="369101683"/>
    <nd ref="371240897"/>
    <nd ref="369101686"/>
    <nd ref="83588654"/>
    <nd ref="369101689"/>
    <nd ref="83588651"/>
    <nd ref="369101691"/>
    <nd ref="369101681"/>
    <nd ref="369101672"/>
    <tag k="created_by" v="Merkaartor 0.11"/>
    <tag k="landuse" v="retail"/>
  </way>
  <way id="32772109" version="3" timestamp="2009-07-30T20:09:49Z" uid="110593" user="esetzer" changeset="1988820"/>
  <way id="32772111" version="1" timestamp="2009-04-02T22:11:35Z" uid="110593" user="esetzer" changeset="104634">
    <nd ref="369101689"/>
    <nd ref="369101711"/>
    <nd ref="369101713"/>
    <nd ref="83588651"/>
    <nd ref="369101715"/>
    <nd ref="369101689"/>
    <tag k="created_by" v="Merkaartor 0.11"/>
    <tag k="landuse" v="retail"/>
  </way>
  <way id="32772111" version="2" timestamp="2009-07-30T20:35:21Z" uid="110593" user="esetzer" changeset="1989087"/>
  <way id="32772168" version="2" timestamp="2010-04-07T13:35:32Z" uid="20587" user="balrog-kun" changeset="4353646">
    <nd ref="369103315"/>
    <nd ref="369103316"/>
    <nd ref="369103458"/>
    <nd ref="369103317"/>
    <nd ref="369103318"/>
    <nd ref="369103320"/>
    <nd ref="369103322"/>
    <nd ref="369103323"/>
    <nd ref="369103325"/>
    <tag k="created_by" v="Potlatch 0.10f"/>
    <tag k="highway" v="residential"/>
    <tag k="name" v="Christine Drive"/>
    <tag k="tiger:cfcc" v="A41"/>
    <tag k="tiger:county" v="Williamson, TX"/>
    <tag k="tiger:name_base" v="Christine"/>
    <tag k="tiger:name_type" v="Dr"/>
    <tag k="tiger:reviewed" v="no"/>
    <tag k="tiger:separated" v="no"/>
    <tag k="tiger:source" v="tiger_import_dch_v0.6_20070830"/>
    <tag k="tiger:tlid" v="126496614"/>
  </way>
  <way id="32772168" version="3" timestamp="2011-03-16T01:45:40Z" uid="77990" user="varmint" changeset="7572071">
    <nd ref="369103315"/>
    <nd ref="369103316"/>
    <nd ref="369103458"/>
    <nd ref="369103317"/>
    <nd ref="369103318"/>
    <nd ref="369103320"/>
    <nd ref="369103322"/>
    <nd ref="369103323"/>
    <nd ref="369103325"/>
    <tag k="highway" v="residential"/>
    <tag k="name" v="Christine Drive"/>
    <tag k="tiger:cfcc" v="A41"/>
    <tag k="tiger:county" v="Williamson, TX"/>
    <tag k="tiger:name_base" v="Christine"/>
    <tag k="tiger:name_type" v="Dr"/>
    <tag k="tiger:reviewed" v="yes"/>
    <tag k="tiger:separated" v="no"/>
    <tag k="tiger:source" v="tiger_import_dch_v0.6_20070830"/>
    <tag k="tiger:tlid" v="126496614"/>
  </way>
  <way id="32772171" version="1" timestamp="2009-04-02T22:13:36Z" uid="87590" user="Alois_Paul" changeset="125404">
    <nd ref="369103788"/>
    <nd ref="369103789"/>
    <nd ref="369103790"/>
    <nd ref="369103791"/>
    <nd ref="369103793"/>
    <nd ref="369103794"/>
    <nd ref="369103795"/>
    <nd ref="369103796"/>
    <nd ref="369103797"/>
    <nd ref="369103798"/>
    <nd ref="369103799"/>
    <nd ref="369103800"/>
    <nd ref="369103801"/>
    <nd ref="369103803"/>
    <nd ref="369103804"/>
    <nd ref="369103805"/>
    <nd ref="369099381"/>
    <tag k="created_by" v="Potlatch 0.10f"/>
    <tag k="highway" v="track"/>
    <tag k="surface" v="dirt"/>
  </way>
  <way id="32772171" version="2" timestamp="2009-04-02T23:31:09Z" uid="87590" user="Alois_Paul" changeset="125404">
    <nd ref="369103788"/>
    <nd ref="369103789"/>
    <nd ref="369103790"/>
    <nd ref="369103791"/>
    <nd ref="369103793"/>
    <nd ref="369103794"/>
    <nd ref="369103795"/>
    <nd ref="369103796"/>
    <nd ref="369103797"/>
    <nd ref="369103798"/>
    <nd ref="369103799"/>
    <nd ref="369103800"/>
    <nd ref="369103801"/>
    <nd ref="369103803"/>
    <nd ref="369103804"/>
    <nd ref="369103805"/>
    <nd ref="369099381"/>
    <tag k="created_by" v="Potlatch 0.10f"/>
    <tag k="highway" v="path"/>
    <tag k="surface" v="dirt"/>
    <tag k="tracktype" v="grade5"/>
  </way>
  <way id="32772171" version="3" timestamp="2009-04-03T22:21:49Z" uid="87590" user="Alois_Paul" changeset="188126">
    <nd ref="369103788"/>
    <nd ref="369103789"/>
    <nd ref="369103790"/>
    <nd ref="369103791"/>
    <nd ref="369103793"/>
    <nd ref="369103794"/>
    <nd ref="369103795"/>
    <nd ref="369103796"/>
    <nd ref="369103797"/>
    <nd ref="369103798"/>
    <nd ref="369103799"/>
    <nd ref="369103800"/>
    <nd ref="369103801"/>
    <nd ref="369103803"/>
    <nd ref="369103804"/>
    <nd ref="369103805"/>
    <nd ref="369099381"/>
    <tag k="created_by" v="Potlatch 0.10f"/>
    <tag k="highway" v="path"/>
    <tag k="tracktype" v="grade5"/>
  </way>
  <way id="32772171" version="4" timestamp="2009-07-29T13:15:29Z" uid="85761" user="klausis" changeset="1975712">
    <nd ref="450683037"/>
    <nd ref="369103789"/>
    <nd ref="369103790"/>
    <nd ref="369103791"/>
    <nd ref="369103793"/>
    <nd ref="369103794"/>
    <nd ref="369103795"/>
    <nd ref="369103796"/>
    <nd ref="369103797"/>
    <nd ref="369103798"/>
    <nd ref="369103799"/>
    <nd ref="369103800"/>
    <nd ref="369103801"/>
    <nd ref="369103803"/>
    <nd ref="369103804"/>
    <nd ref="369103805"/>
    <nd ref="369099381"/>
    <tag k="highway" v="path"/>
    <tag k="tracktype" v="grade5"/>
  </way>
  <way id="32772171" version="5" timestamp="2009-10-17T13:10:12Z" uid="24748" user="mabapla" changeset="2873792">
    <nd ref="450683037"/>
    <nd ref="369103789"/>
    <nd ref="369103796"/>
    <nd ref="369103798"/>
    <nd ref="369103803"/>
    <nd ref="369099381"/>
    <tag k="highway" v="path"/>
    <tag k="tracktype" v="grade5"/>
  </way>
  <way id="32772171" version="6" timestamp="2012-03-25T03:11:28Z" uid="146680" user="ceyockey" changeset="11090835">
    <nd ref="450683037"/>
    <nd ref="369103789"/>
    <nd ref="369103796"/>
    <nd ref="369103798"/>
    <nd ref="369103803"/>
    <nd ref="369099381"/>
    <tag k="FIXME" v="created by user declining ODbL"/>
    <tag k="highway" v="path"/>
    <tag k="tracktype" v="grade5"/>
  </way>
  <way id="32772171" version="7" timestamp="2012-03-25T17:48:16Z" uid="446310" user="Wisco87" changeset="11097661"/>
  <way id="32772174" version="3" timestamp="2010-04-07T13:35:32Z" uid="20587" user="balrog-kun" changeset="4353646">
    <nd ref="369101086"/>
    <nd ref="369103849"/>
    <nd ref="369103848"/>
    <nd ref="369103315"/>
    <tag k="created_by" v="Potlatch 0.10f"/>
    <tag k="highway" v="residential"/>
    <tag k="name" v="Christine Drive"/>
    <tag k="oneway" v="yes"/>
    <tag k="tiger:cfcc" v="A41"/>
    <tag k="tiger:county" v="Williamson, TX"/>
    <tag k="tiger:name_base" v="Christine"/>
    <tag k="tiger:name_type" v="Dr"/>
    <tag k="tiger:reviewed" v="no"/>
    <tag k="tiger:separated" v="no"/>
    <tag k="tiger:source" v="tiger_import_dch_v0.6_20070830"/>
    <tag k="tiger:tlid" v="126496614"/>
  </way>
  <way id="32772174" version="4" timestamp="2011-03-16T01:59:52Z" uid="77990" user="varmint" changeset="7572104">
    <nd ref="369101086"/>
    <nd ref="369103849"/>
    <nd ref="369103848"/>
    <nd ref="369103315"/>
    <tag k="highway" v="residential"/>
    <tag k="name" v="Christine Drive"/>
    <tag k="oneway" v="yes"/>
    <tag k="tiger:cfcc" v="A41"/>
    <tag k="tiger:county" v="Williamson, TX"/>
    <tag k="tiger:name_base" v="Christine"/>
    <tag k="tiger:name_type" v="Dr"/>
    <tag k="tiger:reviewed" v="yes"/>
    <tag k="tiger:separated" v="no"/>
    <tag k="tiger:source" v="tiger_import_dch_v0.6_20070830"/>
    <tag k="tiger:tlid" v="126496614"/>
  </way>
  <way id="32772337" version="6" timestamp="2010-07-08T18:42:13Z" uid="74617" user="JohnSmith" changeset="5167338">
    <nd ref="31318920"/>
    <nd ref="612021690"/>
    <nd ref="369107642"/>
    <nd ref="369107643"/>
    <nd ref="369107644"/>
    <nd ref="369107645"/>
    <nd ref="369107647"/>
    <nd ref="369107650"/>
    <nd ref="369107651"/>
    <nd ref="369107652"/>
    <nd ref="622249481"/>
    <nd ref="369107653"/>
    <nd ref="369107654"/>
    <tag k="highway" v="residential"/>
    <tag k="maxspeed" v="50"/>
    <tag k="maxspeed:source" v="default residential speed limit in Australia"/>
    <tag k="name" v="Fielding Drive"/>
  </way>
  <way id="32772337" version="7" timestamp="2011-11-10T08:26:53Z" uid="320632" user="Zulu99" changeset="9787001">
    <nd ref="31318920"/>
    <nd ref="1497111902"/>
    <nd ref="612021690"/>
    <nd ref="369107642"/>
    <nd ref="369107643"/>
    <nd ref="369107644"/>
    <nd ref="369107645"/>
    <nd ref="369107647"/>
    <nd ref="369107650"/>
    <nd ref="369107651"/>
    <nd ref="369107652"/>
    <nd ref="622249481"/>
    <nd ref="369107653"/>
    <nd ref="369107654"/>
    <tag k="highway" v="residential"/>
    <tag k="maxspeed" v="50"/>
    <tag k="maxspeed:source" v="default residential speed limit in Australia"/>
    <tag k="name" v="Fielding Drive"/>
  </way>
  <way id="32772337" version="8" timestamp="2012-01-18T16:49:07Z" uid="147510" user="woodpeck_fixbot" changeset="10427327">
    <nd ref="31318920"/>
    <nd ref="1497111902"/>
    <nd ref="612021690"/>
    <nd ref="369107642"/>
    <nd ref="369107643"/>
    <nd ref="369107644"/>
    <nd ref="369107645"/>
    <nd ref="369107647"/>
    <nd ref="369107650"/>
    <nd ref="369107651"/>
    <nd ref="369107652"/>
    <nd ref="622249481"/>
    <nd ref="369107653"/>
    <nd ref="369107654"/>
    <tag k="highway" v="residential"/>
    <tag k="name" v="Fielding Drive"/>
  </way>
  <way id="32772338" version="5" timestamp="2010-07-08T18:35:16Z" uid="74617" user="JohnSmith" changeset="5167338">
    <nd ref="369107661"/>
    <nd ref="369107666"/>
    <nd ref="369107654"/>
    <tag k="highway" v="residential"/>
    <tag k="maxspeed" v="50"/>
    <tag k="maxspeed:source" v="default residential speed limit in Australia"/>
    <tag k="name" v="Puffin Close"/>
  </way>
  <way id="32772338" version="6" timestamp="2012-01-18T16:49:10Z" uid="147510" user="woodpeck_fixbot" changeset="10427327">
    <nd ref="369107661"/>
    <nd ref="369107666"/>
    <nd ref="369107654"/>
    <tag k="highway" v="residential"/>
    <tag k="name" v="Puffin Close"/>
  </way>
  <way id="32772341" version="4" timestamp="2010-07-08T18:36:56Z" uid="74617" user="JohnSmith" changeset="5167338">
    <nd ref="369107743"/>
    <nd ref="369107750"/>
    <nd ref="369107759"/>
    <tag k="highway" v="residential"/>
    <tag k="maxspeed" v="50"/>
    <tag k="maxspeed:source" v="default residential speed limit in Australia"/>
    <tag k="name" v="Gerald Court"/>
  </way>
  <way id="32772341" version="5" timestamp="2012-01-18T16:49:14Z" uid="147510" user="woodpeck_fixbot" changeset="10427327">
    <nd ref="369107743"/>
    <nd ref="369107750"/>
    <nd ref="369107759"/>
    <tag k="highway" v="residential"/>
    <tag k="name" v="Gerald Court"/>
  </way>
  <way id="32772342" version="4" timestamp="2010-07-08T18:30:26Z" uid="74617" user="JohnSmith" changeset="5167338">
    <nd ref="369107750"/>
    <nd ref="369107766"/>
    <nd ref="369107768"/>
    <nd ref="612021192"/>
    <nd ref="369107770"/>
    <nd ref="369107773"/>
    <nd ref="369107777"/>
    <nd ref="369107781"/>
    <tag k="highway" v="residential"/>
    <tag k="maxspeed" v="50"/>
    <tag k="maxspeed:source" v="default residential speed limit in Australia"/>
    <tag k="name" v="Jabiru Drive"/>
  </way>
  <way id="32772342" version="5" timestamp="2012-01-18T16:49:17Z" uid="147510" user="woodpeck_fixbot" changeset="10427327">
    <nd ref="369107750"/>
    <nd ref="369107766"/>
    <nd ref="369107768"/>
    <nd ref="612021192"/>
    <nd ref="369107770"/>
    <nd ref="369107773"/>
    <nd ref="369107777"/>
    <nd ref="369107781"/>
    <tag k="highway" v="residential"/>
    <tag k="name" v="Jabiru Drive"/>
  </way>
  <way id="32772343" version="3" timestamp="2010-07-08T18:20:36Z" uid="74617" user="JohnSmith" changeset="5167338">
    <nd ref="369107777"/>
    <nd ref="369107788"/>
    <tag k="highway" v="residential"/>
    <tag k="maxspeed" v="50"/>
    <tag k="maxspeed:source" v="default residential speed limit in Australia"/>
    <tag k="name" v="Panorama Drive"/>
  </way>
  <way id="32772343" version="4" timestamp="2012-01-18T16:49:38Z" uid="147510" user="woodpeck_fixbot" changeset="10427327">
    <nd ref="369107777"/>
    <nd ref="369107788"/>
    <tag k="highway" v="residential"/>
    <tag k="name" v="Panorama Drive"/>
  </way>
  <way id="32772344" version="4" timestamp="2010-07-08T18:25:38Z" uid="74617" user="JohnSmith" changeset="5167338">
    <nd ref="369107703"/>
    <nd ref="560339145"/>
    <nd ref="369107796"/>
    <nd ref="369107800"/>
    <tag k="highway" v="residential"/>
    <tag k="maxspeed" v="50"/>
    <tag k="maxspeed:source" v="default residential speed limit in Australia"/>
    <tag k="name" v="Brolga Avenue"/>
  </way>
  <way id="32772344" version="5" timestamp="2012-01-18T16:50:04Z" uid="147510" user="woodpeck_fixbot" changeset="10427327">
    <nd ref="369107703"/>
    <nd ref="560339145"/>
    <nd ref="369107796"/>
    <nd ref="369107800"/>
    <tag k="highway" v="residential"/>
    <tag k="name" v="Brolga Avenue"/>
  </way>
  <way id="32772345" version="3" timestamp="2010-07-08T18:16:12Z" uid="74617" user="JohnSmith" changeset="5167338">
    <nd ref="369107717"/>
    <nd ref="369107805"/>
    <tag k="highway" v="residential"/>
    <tag k="maxspeed" v="50"/>
    <tag k="maxspeed:source" v="default residential speed limit in Australia"/>
    <tag k="name" v="Kennedy Avenue"/>
  </way>
  <way id="32772345" version="4" timestamp="2012-01-18T16:50:19Z" uid="147510" user="woodpeck_fixbot" changeset="10427327">
    <nd ref="369107717"/>
    <nd ref="369107805"/>
    <tag k="highway" v="residential"/>
    <tag k="name" v="Kennedy Avenue"/>
  </way>
  <way id="32772346" version="3" timestamp="2010-07-08T18:45:15Z" uid="74617" user="JohnSmith" changeset="5167338">
    <nd ref="369107710"/>
    <nd ref="369107770"/>
    <tag k="highway" v="residential"/>
    <tag k="maxspeed" v="50"/>
    <tag k="maxspeed:source" v="default residential speed limit in Australia"/>
    <tag k="name" v="Wilton Close"/>
  </way>
  <way id="32772346" version="4" timestamp="2012-01-18T16:50:30Z" uid="147510" user="woodpeck_fixbot" changeset="10427327">
    <nd ref="369107710"/>
    <nd ref="369107770"/>
    <tag k="highway" v="residential"/>
    <tag k="name" v="Wilton Close"/>
  </way>
  <way id="32772351" version="3" timestamp="2010-07-08T18:33:27Z" uid="74617" user="JohnSmith" changeset="5167338">
    <nd ref="369107691"/>
    <nd ref="369107832"/>
    <nd ref="369107833"/>
    <tag k="highway" v="residential"/>
    <tag k="maxspeed" v="50"/>
    <tag k="maxspeed:source" v="default residential speed limit in Australia"/>
    <tag k="name" v="Skye Court"/>
  </way>
  <way id="32772351" version="4" timestamp="2012-01-18T16:50:32Z" uid="147510" user="woodpeck_fixbot" changeset="10427327">
    <nd ref="369107691"/>
    <nd ref="369107832"/>
    <nd ref="369107833"/>
    <tag k="highway" v="residential"/>
    <tag k="name" v="Skye Court"/>
  </way>
  <way id="32772352" version="3" timestamp="2010-07-08T18:22:01Z" uid="74617" user="JohnSmith" changeset="5167338">
    <nd ref="369107644"/>
    <nd ref="369107834"/>
    <nd ref="369107835"/>
    <tag k="highway" v="residential"/>
    <tag k="maxspeed" v="50"/>
    <tag k="maxspeed:source" v="default residential speed limit in Australia"/>
    <tag k="name" v="Neptune Street"/>
  </way>
  <way id="32772352" version="4" timestamp="2012-01-18T16:50:39Z" uid="147510" user="woodpeck_fixbot" changeset="10427327">
    <nd ref="369107644"/>
    <nd ref="369107834"/>
    <nd ref="369107835"/>
    <tag k="highway" v="residential"/>
    <tag k="name" v="Neptune Street"/>
  </way>
  <way id="32772353" version="3" timestamp="2010-07-08T18:47:58Z" uid="74617" user="JohnSmith" changeset="5167338">
    <nd ref="369107838"/>
    <nd ref="369107835"/>
    <nd ref="369107839"/>
    <nd ref="369107840"/>
    <tag k="highway" v="residential"/>
    <tag k="maxspeed" v="50"/>
    <tag k="maxspeed:source" v="default residential speed limit in Australia"/>
    <tag k="name" v="Taleb Court"/>
  </way>
  <way id="32772353" version="4" timestamp="2010-10-25T01:24:42Z" uid="26446" user="ghostgum" changeset="6166469">
    <nd ref="369107838"/>
    <nd ref="369107835"/>
    <nd ref="369107839"/>
    <nd ref="369107840"/>
    <tag k="highway" v="residential"/>
    <tag k="maxspeed" v="50"/>
    <tag k="maxspeed:source" v="default residential speed limit in Australia"/>
    <tag k="name" v="Talab Court"/>
  </way>
  <way id="32772353" version="5" timestamp="2012-01-18T16:50:41Z" uid="147510" user="woodpeck_fixbot" changeset="10427327">
    <nd ref="369107838"/>
    <nd ref="369107835"/>
    <nd ref="369107839"/>
    <nd ref="369107840"/>
    <tag k="highway" v="residential"/>
    <tag k="name" v="Talab Court"/>
  </way>
  <way id="32772355" version="3" timestamp="2010-07-08T18:35:48Z" uid="74617" user="JohnSmith" changeset="5167338">
    <nd ref="369107834"/>
    <nd ref="369107846"/>
    <tag k="highway" v="residential"/>
    <tag k="maxspeed" v="50"/>
    <tag k="maxspeed:source" v="default residential speed limit in Australia"/>
    <tag k="name" v="Mint Court"/>
  </way>
  <way id="32772355" version="4" timestamp="2012-01-18T16:50:44Z" uid="147510" user="woodpeck_fixbot" changeset="10427327">
    <nd ref="369107834"/>
    <nd ref="369107846"/>
    <tag k="highway" v="residential"/>
    <tag k="name" v="Mint Court"/>
  </way>
  <way id="32772358" version="3" timestamp="2010-07-08T18:37:46Z" uid="74617" user="JohnSmith" changeset="5167338">
    <nd ref="369107645"/>
    <nd ref="369107847"/>
    <nd ref="369107848"/>
    <tag k="highway" v="residential"/>
    <tag k="maxspeed" v="50"/>
    <tag k="maxspeed:source" v="default residential speed limit in Australia"/>
    <tag k="name" v="Zeus Court"/>
  </way>
  <way id="32772358" version="4" timestamp="2012-01-18T16:50:50Z" uid="147510" user="woodpeck_fixbot" changeset="10427327">
    <nd ref="369107645"/>
    <nd ref="369107847"/>
    <nd ref="369107848"/>
    <tag k="highway" v="residential"/>
    <tag k="name" v="Zeus Court"/>
  </way>
  <way id="32772359" version="3" timestamp="2010-07-08T18:31:06Z" uid="74617" user="JohnSmith" changeset="5167338">
    <nd ref="369107643"/>
    <nd ref="369107849"/>
    <tag k="highway" v="residential"/>
    <tag k="maxspeed" v="50"/>
    <tag k="maxspeed:source" v="default residential speed limit in Australia"/>
    <tag k="name" v="Moralla Court"/>
  </way>
  <way id="32772359" version="4" timestamp="2012-01-18T16:50:53Z" uid="147510" user="woodpeck_fixbot" changeset="10427327">
    <nd ref="369107643"/>
    <nd ref="369107849"/>
    <tag k="highway" v="residential"/>
    <tag k="name" v="Moralla Court"/>
  </way>
  <way id="32772361" version="3" timestamp="2010-07-08T18:26:31Z" uid="74617" user="JohnSmith" changeset="5167338">
    <nd ref="369107642"/>
    <nd ref="369107863"/>
    <tag k="highway" v="residential"/>
    <tag k="maxspeed" v="50"/>
    <tag k="maxspeed:source" v="default residential speed limit in Australia"/>
    <tag k="name" v="Dryad Court"/>
  </way>
  <way id="32772361" version="4" timestamp="2012-01-18T16:50:54Z" uid="147510" user="woodpeck_fixbot" changeset="10427327">
    <nd ref="369107642"/>
    <nd ref="369107863"/>
    <tag k="highway" v="residential"/>
    <tag k="name" v="Dryad Court"/>
  </way>
  <way id="32772365" version="4" timestamp="2010-07-08T18:18:35Z" uid="74617" user="JohnSmith" changeset="5167338">
    <nd ref="369107882"/>
    <nd ref="560339145"/>
    <tag k="highway" v="residential"/>
    <tag k="maxspeed" v="50"/>
    <tag k="maxspeed:source" v="default residential speed limit in Australia"/>
    <tag k="name" v="Muir Court"/>
  </way>
  <way id="32772365" version="5" timestamp="2012-01-18T16:50:57Z" uid="147510" user="woodpeck_fixbot" changeset="10427327">
    <nd ref="369107882"/>
    <nd ref="560339145"/>
    <tag k="highway" v="residential"/>
    <tag k="name" v="Muir Court"/>
  </way>
  <way id="32772366" version="3" timestamp="2010-07-08T18:46:57Z" uid="74617" user="JohnSmith" changeset="5167338">
    <nd ref="369107796"/>
    <nd ref="369107902"/>
    <tag k="highway" v="residential"/>
    <tag k="maxspeed" v="50"/>
    <tag k="maxspeed:source" v="default residential speed limit in Australia"/>
    <tag k="name" v="Olive Court"/>
  </way>
  <way id="32772366" version="4" timestamp="2012-01-18T16:50:59Z" uid="147510" user="woodpeck_fixbot" changeset="10427327">
    <nd ref="369107796"/>
    <nd ref="369107902"/>
    <tag k="highway" v="residential"/>
    <tag k="name" v="Olive Court"/>
  </way>
  <way id="32772367" version="3" timestamp="2009-08-10T00:25:08Z" uid="4467" user="Rosscoe" changeset="2092115">
    <nd ref="369107916"/>
    <nd ref="369107800"/>
    <nd ref="369107805"/>
    <nd ref="369107921"/>
    <nd ref="369107927"/>
    <nd ref="369107935"/>
    <nd ref="369107940"/>
    <nd ref="369107946"/>
    <nd ref="369107954"/>
    <nd ref="369108022"/>
    <nd ref="31318896"/>
    <tag k="highway" v="residential"/>
    <tag k="name" v="Seccull Drive"/>
  </way>
  <way id="32772367" version="4" timestamp="2010-07-08T18:40:47Z" uid="74617" user="JohnSmith" changeset="5167338">
    <nd ref="369107916"/>
    <nd ref="369107800"/>
    <nd ref="369107805"/>
    <nd ref="369107921"/>
    <nd ref="369107927"/>
    <nd ref="369107935"/>
    <nd ref="369107940"/>
    <nd ref="369107946"/>
    <nd ref="369107954"/>
    <nd ref="369108022"/>
    <nd ref="31318896"/>
    <tag k="highway" v="residential"/>
    <tag k="maxspeed" v="50"/>
    <tag k="maxspeed:source" v="default residential speed limit in Australia"/>
    <tag k="name" v="Seccull Drive"/>
  </way>
  <way id="32772367" version="5" timestamp="2012-01-18T16:51:00Z" uid="147510" user="woodpeck_fixbot" changeset="10427327">
    <nd ref="369107916"/>
    <nd ref="369107800"/>
    <nd ref="369107805"/>
    <nd ref="369107921"/>
    <nd ref="369107927"/>
    <nd ref="369107935"/>
    <nd ref="369107940"/>
    <nd ref="369107946"/>
    <nd ref="369107954"/>
    <nd ref="369108022"/>
    <nd ref="31318896"/>
    <tag k="highway" v="residential"/>
    <tag k="name" v="Seccull Drive"/>
  </way>
  <way id="32772369" version="3" timestamp="2010-07-08T18:29:33Z" uid="74617" user="JohnSmith" changeset="5167338">
    <nd ref="369107946"/>
    <nd ref="369107973"/>
    <nd ref="369107980"/>
    <tag k="highway" v="residential"/>
    <tag k="maxspeed" v="50"/>
    <tag k="maxspeed:source" v="default residential speed limit in Australia"/>
    <tag k="name" v="Sutton Street"/>
  </way>
  <way id="32772369" version="4" timestamp="2012-01-18T16:51:02Z" uid="147510" user="woodpeck_fixbot" changeset="10427327">
    <nd ref="369107946"/>
    <nd ref="369107973"/>
    <nd ref="369107980"/>
    <tag k="highway" v="residential"/>
    <tag k="name" v="Sutton Street"/>
  </way>
  <way id="32772370" version="3" timestamp="2010-07-08T18:19:49Z" uid="74617" user="JohnSmith" changeset="5167338">
    <nd ref="369107973"/>
    <nd ref="369108001"/>
    <tag k="highway" v="residential"/>
    <tag k="maxspeed" v="50"/>
    <tag k="maxspeed:source" v="default residential speed limit in Australia"/>
    <tag k="name" v="Lynne Street"/>
  </way>
  <way id="32772370" version="4" timestamp="2012-01-18T16:51:04Z" uid="147510" user="woodpeck_fixbot" changeset="10427327">
    <nd ref="369107973"/>
    <nd ref="369108001"/>
    <tag k="highway" v="residential"/>
    <tag k="name" v="Lynne Street"/>
  </way>
  <way id="32772373" version="2" timestamp="2009-08-10T00:25:06Z" uid="4467" user="Rosscoe" changeset="2092115">
    <nd ref="369108001"/>
    <nd ref="369108022"/>
    <nd ref="369108024"/>
    <nd ref="369108028"/>
    <tag k="highway" v="service"/>
  </way>
  <way id="32772375" version="5" timestamp="2010-07-08T18:43:44Z" uid="74617" user="JohnSmith" changeset="5167338">
    <nd ref="369107935"/>
    <nd ref="369108031"/>
    <tag k="highway" v="residential"/>
    <tag k="maxspeed" v="50"/>
    <tag k="maxspeed:source" v="default residential speed limit in Australia"/>
    <tag k="name" v="Roche Court"/>
  </way>
  <way id="32772375" version="6" timestamp="2012-01-18T16:51:05Z" uid="147510" user="woodpeck_fixbot" changeset="10427327">
    <nd ref="369107935"/>
    <nd ref="369108031"/>
    <tag k="highway" v="residential"/>
    <tag k="name" v="Roche Court"/>
  </way>
  <way id="32772376" version="4" timestamp="2010-07-08T18:46:11Z" uid="74617" user="JohnSmith" changeset="5167338">
    <nd ref="369107921"/>
    <nd ref="369108032"/>
    <nd ref="369107721"/>
    <tag k="highway" v="residential"/>
    <tag k="maxspeed" v="50"/>
    <tag k="maxspeed:source" v="default residential speed limit in Australia"/>
    <tag k="name" v="Gruchy Avenue"/>
  </way>
  <way id="32772376" version="5" timestamp="2012-01-18T16:51:06Z" uid="147510" user="woodpeck_fixbot" changeset="10427327">
    <nd ref="369107921"/>
    <nd ref="369108032"/>
    <nd ref="369107721"/>
    <tag k="highway" v="residential"/>
    <tag k="name" v="Gruchy Avenue"/>
  </way>
  <way id="32772377" version="4" timestamp="2010-07-08T18:39:43Z" uid="74617" user="JohnSmith" changeset="5167338">
    <nd ref="369108032"/>
    <nd ref="369108033"/>
    <nd ref="369108034"/>
    <nd ref="369108035"/>
    <tag k="highway" v="residential"/>
    <tag k="maxspeed" v="50"/>
    <tag k="maxspeed:source" v="default residential speed limit in Australia"/>
    <tag k="name" v="Linton Close"/>
  </way>
  <way id="32772377" version="5" timestamp="2012-01-18T16:51:08Z" uid="147510" user="woodpeck_fixbot" changeset="10427327">
    <nd ref="369108032"/>
    <nd ref="369108033"/>
    <nd ref="369108034"/>
    <nd ref="369108035"/>
    <tag k="highway" v="residential"/>
    <tag k="name" v="Linton Close"/>
  </way>
  <way id="32772378" version="4" timestamp="2010-07-08T18:32:51Z" uid="74617" user="JohnSmith" changeset="5167338">
    <nd ref="369107940"/>
    <nd ref="606289000"/>
    <nd ref="369108036"/>
    <tag k="highway" v="residential"/>
    <tag k="maxspeed" v="50"/>
    <tag k="maxspeed:source" v="default residential speed limit in Australia"/>
    <tag k="name" v="Mayo Court"/>
  </way>
  <way id="32772378" version="5" timestamp="2012-01-18T16:51:10Z" uid="147510" user="woodpeck_fixbot" changeset="10427327">
    <nd ref="369107940"/>
    <nd ref="606289000"/>
    <nd ref="369108036"/>
    <tag k="highway" v="residential"/>
    <tag k="name" v="Mayo Court"/>
  </way>
  <way id="32772380" version="5" timestamp="2010-07-08T18:41:34Z" uid="74617" user="JohnSmith" changeset="5167338">
    <nd ref="369107726"/>
    <nd ref="369108037"/>
    <tag k="highway" v="residential"/>
    <tag k="maxspeed" v="50"/>
    <tag k="maxspeed:source" v="default residential speed limit in Australia"/>
    <tag k="name" v="Jennison Court"/>
  </way>
  <way id="32772380" version="6" timestamp="2012-01-18T16:51:11Z" uid="147510" user="woodpeck_fixbot" changeset="10427327">
    <nd ref="369107726"/>
    <nd ref="369108037"/>
    <tag k="highway" v="residential"/>
    <tag k="name" v="Jennison Court"/>
  </way>
  <way id="32772381" version="5" timestamp="2010-07-08T18:34:43Z" uid="74617" user="JohnSmith" changeset="5167338">
    <nd ref="369107730"/>
    <nd ref="369108044"/>
    <tag k="highway" v="residential"/>
    <tag k="maxspeed" v="50"/>
    <tag k="maxspeed:source" v="default residential speed limit in Australia"/>
    <tag k="name" v="Teresa Court"/>
  </way>
  <way id="32772381" version="6" timestamp="2012-01-18T16:51:12Z" uid="147510" user="woodpeck_fixbot" changeset="10427327">
    <nd ref="369107730"/>
    <nd ref="369108044"/>
    <tag k="highway" v="residential"/>
    <tag k="name" v="Teresa Court"/>
  </way>
  <way id="32772385" version="4" timestamp="2010-07-08T18:22:31Z" uid="74617" user="JohnSmith" changeset="5167338">
    <nd ref="369107740"/>
    <nd ref="369108050"/>
    <tag k="highway" v="residential"/>
    <tag k="maxspeed" v="50"/>
    <tag k="maxspeed:source" v="default residential speed limit in Australia"/>
    <tag k="name" v="Anton Court"/>
  </way>
  <way id="32772385" version="5" timestamp="2012-01-18T16:51:13Z" uid="147510" user="woodpeck_fixbot" changeset="10427327">
    <nd ref="369107740"/>
    <nd ref="369108050"/>
    <tag k="highway" v="residential"/>
    <tag k="name" v="Anton Court"/>
  </way>
  <way id="32772387" version="4" timestamp="2010-07-08T18:43:20Z" uid="74617" user="JohnSmith" changeset="5167338">
    <nd ref="369107766"/>
    <nd ref="369108055"/>
    <tag k="highway" v="residential"/>
    <tag k="maxspeed" v="50"/>
    <tag k="maxspeed:source" v="default residential speed limit in Australia"/>
    <tag k="name" v="Flora Court"/>
  </way>
  <way id="32772387" version="5" timestamp="2012-01-18T16:51:15Z" uid="147510" user="woodpeck_fixbot" changeset="10427327">
    <nd ref="369107766"/>
    <nd ref="369108055"/>
    <tag k="highway" v="residential"/>
    <tag k="name" v="Flora Court"/>
  </way>
  <way id="32772502" version="2" timestamp="2009-04-07T18:57:58Z" uid="6975" user="ulfl" changeset="298062">
    <nd ref="367072450"/>
    <nd ref="369108967"/>
    <nd ref="369108968"/>
    <nd ref="369108969"/>
    <nd ref="367072450"/>
    <tag k="building" v="yes"/>
    <tag k="loc_ref" v="66"/>
  </way>
  <way id="32772502" version="3" timestamp="2011-01-07T15:07:50Z" uid="55782" user="fluteflute" changeset="6893645"/>
  <way id="32772516" version="2" timestamp="2010-06-29T19:03:31Z" uid="74617" user="JohnSmith" changeset="5108182">
    <nd ref="369108980"/>
    <nd ref="369108981"/>
    <nd ref="369108982"/>
    <nd ref="369108983"/>
    <nd ref="369108980"/>
    <tag k="fixme" v="sport=football is ambiguous, see http://wiki.osm.org/wiki/Football for more details"/>
    <tag k="leisure" v="pitch"/>
    <tag k="note" v="Form des Feldes schwer abgrenzbar"/>
    <tag k="source" v="survey"/>
    <tag k="sport" v="football"/>
  </way>
  <way id="32772533" version="4" timestamp="2010-07-09T03:56:37Z" uid="74617" user="JohnSmith" changeset="5170838">
    <nd ref="298045614"/>
    <nd ref="369109139"/>
    <nd ref="369109134"/>
    <tag k="highway" v="unclassified"/>
    <tag k="maxspeed" v="50"/>
    <tag k="maxspeed:source" v="default residential speed limit in Australia"/>
    <tag k="name" v="Fanning Street"/>
  </way>
  <way id="32772533" version="5" timestamp="2012-01-18T16:51:16Z" uid="147510" user="woodpeck_fixbot" changeset="10427327">
    <nd ref="298045614"/>
    <nd ref="369109139"/>
    <nd ref="369109134"/>
    <tag k="highway" v="unclassified"/>
    <tag k="name" v="Fanning Street"/>
  </way>
  <way id="32772540" version="2" timestamp="2010-07-09T03:55:59Z" uid="74617" user="JohnSmith" changeset="5170838">
    <nd ref="243097133"/>
    <nd ref="369109139"/>
    <tag k="highway" v="unclassified"/>
    <tag k="maxspeed" v="50"/>
    <tag k="maxspeed:source" v="default residential speed limit in Australia"/>
    <tag k="name" v="Fawkner Street"/>
  </way>
  <way id="32772540" version="3" timestamp="2012-01-18T16:51:17Z" uid="147510" user="woodpeck_fixbot" changeset="10427327">
    <nd ref="243097133"/>
    <nd ref="369109139"/>
    <tag k="highway" v="unclassified"/>
    <tag k="name" v="Fawkner Street"/>
  </way>
  <way id="32772629" version="3" timestamp="2010-07-08T18:37:57Z" uid="74617" user="JohnSmith" changeset="5167338">
    <nd ref="369109871"/>
    <nd ref="369109873"/>
    <nd ref="369109878"/>
    <tag k="highway" v="residential"/>
    <tag k="maxspeed" v="50"/>
    <tag k="maxspeed:source" v="default residential speed limit in Australia"/>
    <tag k="name" v="Sixth Avenue"/>
  </way>
  <way id="32772629" version="4" timestamp="2012-01-18T16:51:18Z" uid="147510" user="woodpeck_fixbot" changeset="10427327">
    <nd ref="369109871"/>
    <nd ref="369109873"/>
    <nd ref="369109878"/>
    <tag k="highway" v="residential"/>
    <tag k="name" v="Sixth Avenue"/>
  </way>
  <way id="32772632" version="4" timestamp="2010-07-08T18:26:58Z" uid="74617" user="JohnSmith" changeset="5167338">
    <nd ref="369109882"/>
    <nd ref="458399466"/>
    <tag k="highway" v="residential"/>
    <tag k="maxspeed" v="50"/>
    <tag k="maxspeed:source" v="default residential speed limit in Australia"/>
    <tag k="name" v="Third Avenue"/>
  </way>
  <way id="32772632" version="5" timestamp="2012-01-18T16:51:23Z" uid="147510" user="woodpeck_fixbot" changeset="10427327">
    <nd ref="369109882"/>
    <nd ref="458399466"/>
    <tag k="highway" v="residential"/>
    <tag k="name" v="Third Avenue"/>
  </way>
  <way id="32772633" version="4" timestamp="2010-07-08T18:16:55Z" uid="74617" user="JohnSmith" changeset="5167338">
    <nd ref="369109884"/>
    <nd ref="458399465"/>
    <tag k="highway" v="residential"/>
    <tag k="maxspeed" v="50"/>
    <tag k="maxspeed:source" v="default residential speed limit in Australia"/>
    <tag k="name" v="Second Avenue"/>
  </way>
  <way id="32772633" version="5" timestamp="2012-01-18T16:51:26Z" uid="147510" user="woodpeck_fixbot" changeset="10427327">
    <nd ref="369109884"/>
    <nd ref="458399465"/>
    <tag k="highway" v="residential"/>
    <tag k="name" v="Second Avenue"/>
  </way>
  <way id="32772635" version="6" timestamp="2010-07-08T18:39:07Z" uid="74617" user="JohnSmith" changeset="5167338">
    <nd ref="369109886"/>
    <nd ref="612021091"/>
    <nd ref="458399463"/>
    <tag k="highway" v="residential"/>
    <tag k="maxspeed" v="50"/>
    <tag k="maxspeed:source" v="default residential speed limit in Australia"/>
    <tag k="name" v="First Avenue"/>
  </way>
  <way id="32772635" version="7" timestamp="2012-01-18T16:51:28Z" uid="147510" user="woodpeck_fixbot" changeset="10427327">
    <nd ref="369109886"/>
    <nd ref="612021091"/>
    <nd ref="458399463"/>
    <tag k="highway" v="residential"/>
    <tag k="name" v="First Avenue"/>
  </way>
  <way id="32772636" version="7" timestamp="2010-07-08T18:18:55Z" uid="74617" user="JohnSmith" changeset="5167338">
    <nd ref="458399468"/>
    <nd ref="422579071"/>
    <nd ref="418994413"/>
    <nd ref="418994414"/>
    <nd ref="418994415"/>
    <nd ref="418994416"/>
    <tag k="highway" v="residential"/>
    <tag k="maxspeed" v="50"/>
    <tag k="maxspeed:source" v="default residential speed limit in Australia"/>
    <tag k="name" v="Fourth Avenue"/>
  </way>
  <way id="32772636" version="8" timestamp="2012-01-18T16:51:30Z" uid="147510" user="woodpeck_fixbot" changeset="10427327">
    <nd ref="458399468"/>
    <nd ref="422579071"/>
    <nd ref="418994413"/>
    <nd ref="418994414"/>
    <nd ref="418994415"/>
    <nd ref="418994416"/>
    <tag k="highway" v="residential"/>
    <tag k="name" v="Fourth Avenue"/>
  </way>
  <way id="32772637" version="5" timestamp="2010-07-08T18:47:08Z" uid="74617" user="JohnSmith" changeset="5167338">
    <nd ref="418994414"/>
    <nd ref="369109872"/>
    <nd ref="369109878"/>
    <nd ref="606288871"/>
    <nd ref="369109898"/>
    <tag k="highway" v="residential"/>
    <tag k="maxspeed" v="50"/>
    <tag k="maxspeed:source" v="default residential speed limit in Australia"/>
    <tag k="name" v="Eighth Avenue"/>
  </way>
  <way id="32772637" version="6" timestamp="2012-01-18T16:51:33Z" uid="147510" user="woodpeck_fixbot" changeset="10427327">
    <nd ref="418994414"/>
    <nd ref="369109872"/>
    <nd ref="369109878"/>
    <nd ref="606288871"/>
    <nd ref="369109898"/>
    <tag k="highway" v="residential"/>
    <tag k="name" v="Eighth Avenue"/>
  </way>
  <way id="32772639" version="8" timestamp="2010-07-08T18:34:20Z" uid="74617" user="JohnSmith" changeset="5167338">
    <nd ref="31318877"/>
    <nd ref="606288870"/>
    <nd ref="369109899"/>
    <nd ref="369109900"/>
    <nd ref="369109901"/>
    <nd ref="369109902"/>
    <nd ref="369109903"/>
    <nd ref="369109897"/>
    <nd ref="369109904"/>
    <nd ref="369109905"/>
    <nd ref="458402010"/>
    <nd ref="369109906"/>
    <nd ref="458402011"/>
    <nd ref="369109907"/>
    <nd ref="369109908"/>
    <nd ref="369109909"/>
    <nd ref="369109910"/>
    <nd ref="369109911"/>
    <nd ref="369109912"/>
    <nd ref="606288587"/>
    <nd ref="760195599"/>
    <nd ref="369109913"/>
    <nd ref="369109914"/>
    <nd ref="369109915"/>
    <nd ref="369109919"/>
    <nd ref="606288843"/>
    <nd ref="369109921"/>
    <tag k="highway" v="residential"/>
    <tag k="maxspeed" v="50"/>
    <tag k="maxspeed:source" v="default residential speed limit in Australia"/>
    <tag k="name" v="Amaroo Drive"/>
  </way>
  <way id="32772639" version="9" timestamp="2012-01-18T16:51:36Z" uid="147510" user="woodpeck_fixbot" changeset="10427327">
    <nd ref="31318877"/>
    <nd ref="606288870"/>
    <nd ref="369109899"/>
    <nd ref="369109900"/>
    <nd ref="369109901"/>
    <nd ref="369109902"/>
    <nd ref="369109903"/>
    <nd ref="369109897"/>
    <nd ref="369109904"/>
    <nd ref="369109905"/>
    <nd ref="458402010"/>
    <nd ref="369109906"/>
    <nd ref="458402011"/>
    <nd ref="369109907"/>
    <nd ref="369109908"/>
    <nd ref="369109909"/>
    <nd ref="369109910"/>
    <nd ref="369109911"/>
    <nd ref="369109912"/>
    <nd ref="606288587"/>
    <nd ref="760195599"/>
    <nd ref="369109913"/>
    <nd ref="369109914"/>
    <nd ref="369109915"/>
    <nd ref="369109919"/>
    <nd ref="606288843"/>
    <nd ref="369109921"/>
    <tag k="highway" v="residential"/>
    <tag k="name" v="Amaroo Drive"/>
  </way>
  <way id="32772640" version="6" timestamp="2010-07-08T18:44:45Z" uid="74617" user="JohnSmith" changeset="5167338">
    <nd ref="369109915"/>
    <nd ref="760195513"/>
    <nd ref="369109923"/>
    <tag k="highway" v="residential"/>
    <tag k="maxspeed" v="50"/>
    <tag k="maxspeed:source" v="default residential speed limit in Australia"/>
    <tag k="name" v="Tarana Court"/>
    <tag k="source" v="nearmap"/>
  </way>
  <way id="32772640" version="7" timestamp="2012-01-18T16:51:39Z" uid="147510" user="woodpeck_fixbot" changeset="10427327">
    <nd ref="369109915"/>
    <nd ref="760195513"/>
    <nd ref="369109923"/>
    <tag k="highway" v="residential"/>
    <tag k="name" v="Tarana Court"/>
    <tag k="source" v="nearmap"/>
  </way>
  <way id="32772641" version="4" timestamp="2010-07-08T18:37:45Z" uid="74617" user="JohnSmith" changeset="5167338">
    <nd ref="369109919"/>
    <nd ref="369109924"/>
    <tag k="highway" v="residential"/>
    <tag k="maxspeed" v="50"/>
    <tag k="maxspeed:source" v="default residential speed limit in Australia"/>
    <tag k="name" v="Lamark Court"/>
  </way>
  <way id="32772641" version="5" timestamp="2012-01-18T16:51:40Z" uid="147510" user="woodpeck_fixbot" changeset="10427327">
    <nd ref="369109919"/>
    <nd ref="369109924"/>
    <tag k="highway" v="residential"/>
    <tag k="name" v="Lamark Court"/>
  </way>
  <way id="32772642" version="3" timestamp="2010-07-08T18:31:06Z" uid="74617" user="JohnSmith" changeset="5167338">
    <nd ref="369109914"/>
    <nd ref="369109930"/>
    <nd ref="369109934"/>
    <tag k="highway" v="residential"/>
    <tag k="maxspeed" v="50"/>
    <tag k="maxspeed:source" v="default residential speed limit in Australia"/>
    <tag k="name" v="Bradina Court"/>
  </way>
  <way id="32772642" version="4" timestamp="2012-01-18T16:51:42Z" uid="147510" user="woodpeck_fixbot" changeset="10427327">
    <nd ref="369109914"/>
    <nd ref="369109930"/>
    <nd ref="369109934"/>
    <tag k="highway" v="residential"/>
    <tag k="name" v="Bradina Court"/>
  </way>
  <way id="32772648" version="3" timestamp="2010-07-08T18:18:33Z" uid="74617" user="JohnSmith" changeset="5167338">
    <nd ref="369109913"/>
    <nd ref="369109938"/>
    <nd ref="369109940"/>
    <nd ref="369109945"/>
    <tag k="highway" v="residential"/>
    <tag k="maxspeed" v="50"/>
    <tag k="maxspeed:source" v="default residential speed limit in Australia"/>
    <tag k="name" v="Nariel Court"/>
  </way>
  <way id="32772648" version="4" timestamp="2012-01-18T16:51:44Z" uid="147510" user="woodpeck_fixbot" changeset="10427327">
    <nd ref="369109913"/>
    <nd ref="369109938"/>
    <nd ref="369109940"/>
    <nd ref="369109945"/>
    <tag k="highway" v="residential"/>
    <tag k="name" v="Nariel Court"/>
  </way>
  <way id="32772651" version="4" timestamp="2010-07-08T18:34:06Z" uid="74617" user="JohnSmith" changeset="5167338">
    <nd ref="369109909"/>
    <nd ref="369109960"/>
    <tag k="highway" v="residential"/>
    <tag k="maxspeed" v="50"/>
    <tag k="maxspeed:source" v="default residential speed limit in Australia"/>
    <tag k="name" v="Orana Place"/>
  </way>
  <way id="32772651" version="5" timestamp="2012-01-18T16:51:46Z" uid="147510" user="woodpeck_fixbot" changeset="10427327">
    <nd ref="369109909"/>
    <nd ref="369109960"/>
    <tag k="highway" v="residential"/>
    <tag k="name" v="Orana Place"/>
  </way>
  <way id="32772653" version="4" timestamp="2010-07-08T18:42:51Z" uid="74617" user="JohnSmith" changeset="5167338">
    <nd ref="369109966"/>
    <nd ref="369109908"/>
    <tag k="highway" v="residential"/>
    <tag k="maxspeed" v="50"/>
    <tag k="maxspeed:source" v="default residential speed limit in Australia"/>
    <tag k="name" v="Tikanti Court"/>
  </way>
  <way id="32772653" version="5" timestamp="2012-01-18T16:51:47Z" uid="147510" user="woodpeck_fixbot" changeset="10427327">
    <nd ref="369109966"/>
    <nd ref="369109908"/>
    <tag k="highway" v="residential"/>
    <tag k="name" v="Tikanti Court"/>
  </way>
  <way id="32772655" version="5" timestamp="2010-07-08T18:28:45Z" uid="74617" user="JohnSmith" changeset="5167338">
    <nd ref="369109907"/>
    <nd ref="369109980"/>
    <nd ref="369109981"/>
    <nd ref="369109983"/>
    <nd ref="606288747"/>
    <nd ref="369109985"/>
    <tag k="highway" v="residential"/>
    <tag k="maxspeed" v="50"/>
    <tag k="maxspeed:source" v="default residential speed limit in Australia"/>
    <tag k="name" v="Clarood Crescent"/>
  </way>
  <way id="32772655" version="6" timestamp="2012-01-18T16:51:49Z" uid="147510" user="woodpeck_fixbot" changeset="10427327">
    <nd ref="369109907"/>
    <nd ref="369109980"/>
    <nd ref="369109981"/>
    <nd ref="369109983"/>
    <nd ref="606288747"/>
    <nd ref="369109985"/>
    <tag k="highway" v="residential"/>
    <tag k="name" v="Clarood Crescent"/>
  </way>
  <way id="32772656" version="3" timestamp="2010-07-08T18:23:07Z" uid="74617" user="JohnSmith" changeset="5167338">
    <nd ref="369109980"/>
    <nd ref="369109989"/>
    <tag k="highway" v="residential"/>
    <tag k="maxspeed" v="50"/>
    <tag k="maxspeed:source" v="default residential speed limit in Australia"/>
    <tag k="name" v="Kiwi Court"/>
  </way>
  <way id="32772656" version="4" timestamp="2012-01-18T16:51:50Z" uid="147510" user="woodpeck_fixbot" changeset="10427327">
    <nd ref="369109980"/>
    <nd ref="369109989"/>
    <tag k="highway" v="residential"/>
    <tag k="name" v="Kiwi Court"/>
  </way>
  <way id="32772657" version="3" timestamp="2010-07-08T18:48:21Z" uid="74617" user="JohnSmith" changeset="5167338">
    <nd ref="369109906"/>
    <nd ref="369109992"/>
    <tag k="highway" v="residential"/>
    <tag k="maxspeed" v="50"/>
    <tag k="maxspeed:source" v="default residential speed limit in Australia"/>
    <tag k="name" v="Challenger Court"/>
  </way>
  <way id="32772657" version="4" timestamp="2012-01-18T16:51:51Z" uid="147510" user="woodpeck_fixbot" changeset="10427327">
    <nd ref="369109906"/>
    <nd ref="369109992"/>
    <tag k="highway" v="residential"/>
    <tag k="name" v="Challenger Court"/>
  </way>
  <way id="32772658" version="3" timestamp="2010-07-08T18:43:43Z" uid="74617" user="JohnSmith" changeset="5167338">
    <nd ref="369109905"/>
    <nd ref="369109995"/>
    <tag k="highway" v="residential"/>
    <tag k="maxspeed" v="50"/>
    <tag k="maxspeed:source" v="default residential speed limit in Australia"/>
    <tag k="name" v="Georgiana Close"/>
  </way>
  <way id="32772658" version="4" timestamp="2012-01-18T16:51:52Z" uid="147510" user="woodpeck_fixbot" changeset="10427327">
    <nd ref="369109905"/>
    <nd ref="369109995"/>
    <tag k="highway" v="residential"/>
    <tag k="name" v="Georgiana Close"/>
  </way>
  <way id="32772659" version="4" timestamp="2010-07-08T18:36:19Z" uid="74617" user="JohnSmith" changeset="5167338">
    <nd ref="369109897"/>
    <nd ref="369109997"/>
    <nd ref="369109999"/>
    <nd ref="369110001"/>
    <tag k="highway" v="residential"/>
    <tag k="maxspeed" v="50"/>
    <tag k="maxspeed:source" v="default residential speed limit in Australia"/>
    <tag k="name" v="Endeavour Drive"/>
  </way>
  <way id="32772659" version="5" timestamp="2012-01-18T16:51:53Z" uid="147510" user="woodpeck_fixbot" changeset="10427327">
    <nd ref="369109897"/>
    <nd ref="369109997"/>
    <nd ref="369109999"/>
    <nd ref="369110001"/>
    <tag k="highway" v="residential"/>
    <tag k="name" v="Endeavour Drive"/>
  </way>
  <way id="32772662" version="3" timestamp="2010-07-08T18:38:24Z" uid="74617" user="JohnSmith" changeset="5167338">
    <nd ref="369109999"/>
    <nd ref="369110010"/>
    <nd ref="369110021"/>
    <tag k="highway" v="residential"/>
    <tag k="maxspeed" v="50"/>
    <tag k="maxspeed:source" v="default residential speed limit in Australia"/>
    <tag k="name" v="Dunscombe Place"/>
  </way>
  <way id="32772662" version="4" timestamp="2012-01-18T16:51:55Z" uid="147510" user="woodpeck_fixbot" changeset="10427327">
    <nd ref="369109999"/>
    <nd ref="369110010"/>
    <nd ref="369110021"/>
    <tag k="highway" v="residential"/>
    <tag k="name" v="Dunscombe Place"/>
  </way>
  <way id="32772663" version="5" timestamp="2010-07-08T18:31:48Z" uid="74617" user="JohnSmith" changeset="5167338">
    <nd ref="418994413"/>
    <nd ref="369110108"/>
    <tag k="highway" v="residential"/>
    <tag k="maxspeed" v="50"/>
    <tag k="maxspeed:source" v="default residential speed limit in Australia"/>
    <tag k="name" v="Amron Street"/>
  </way>
  <way id="32772663" version="6" timestamp="2012-01-18T16:51:56Z" uid="147510" user="woodpeck_fixbot" changeset="10427327">
    <nd ref="418994413"/>
    <nd ref="369110108"/>
    <tag k="highway" v="residential"/>
    <tag k="name" v="Amron Street"/>
  </way>
  <way id="32772664" version="3" timestamp="2010-07-08T18:34:43Z" uid="74617" user="JohnSmith" changeset="5167338">
    <nd ref="369109892"/>
    <nd ref="369110174"/>
    <tag k="highway" v="residential"/>
    <tag k="maxspeed" v="50"/>
    <tag k="maxspeed:source" v="default residential speed limit in Australia"/>
    <tag k="name" v="Broadbent Court"/>
  </way>
  <way id="32772664" version="4" timestamp="2012-01-18T16:51:57Z" uid="147510" user="woodpeck_fixbot" changeset="10427327">
    <nd ref="369109892"/>
    <nd ref="369110174"/>
    <tag k="highway" v="residential"/>
    <tag k="name" v="Broadbent Court"/>
  </way>
  <way id="32772666" version="3" timestamp="2010-07-08T18:17:21Z" uid="74617" user="JohnSmith" changeset="5167338">
    <nd ref="369109901"/>
    <nd ref="369110177"/>
    <tag k="highway" v="residential"/>
    <tag k="maxspeed" v="50"/>
    <tag k="maxspeed:source" v="default residential speed limit in Australia"/>
    <tag k="name" v="Enmore Court"/>
  </way>
  <way id="32772666" version="4" timestamp="2012-01-18T16:51:58Z" uid="147510" user="woodpeck_fixbot" changeset="10427327">
    <nd ref="369109901"/>
    <nd ref="369110177"/>
    <tag k="highway" v="residential"/>
    <tag k="name" v="Enmore Court"/>
  </way>
  <way id="32772667" version="3" timestamp="2010-07-08T18:46:11Z" uid="74617" user="JohnSmith" changeset="5167338">
    <nd ref="369109900"/>
    <nd ref="369110180"/>
    <tag k="highway" v="residential"/>
    <tag k="maxspeed" v="50"/>
    <tag k="maxspeed:source" v="default residential speed limit in Australia"/>
    <tag k="name" v="Platina Place"/>
  </way>
  <way id="32772667" version="4" timestamp="2012-01-18T16:51:59Z" uid="147510" user="woodpeck_fixbot" changeset="10427327">
    <nd ref="369109900"/>
    <nd ref="369110180"/>
    <tag k="highway" v="residential"/>
    <tag k="name" v="Platina Place"/>
  </way>
  <way id="32772668" version="3" timestamp="2010-07-08T18:29:32Z" uid="74617" user="JohnSmith" changeset="5167338">
    <nd ref="369109899"/>
    <nd ref="369110183"/>
    <tag k="highway" v="residential"/>
    <tag k="maxspeed" v="50"/>
    <tag k="maxspeed:source" v="default residential speed limit in Australia"/>
    <tag k="name" v="Lysander Court"/>
  </way>
  <way id="32772668" version="4" timestamp="2012-01-18T16:52:00Z" uid="147510" user="woodpeck_fixbot" changeset="10427327">
    <nd ref="369109899"/>
    <nd ref="369110183"/>
    <tag k="highway" v="residential"/>
    <tag k="name" v="Lysander Court"/>
  </way>
  <way id="32772669" version="5" timestamp="2010-07-08T18:19:49Z" uid="74617" user="JohnSmith" changeset="5167338">
    <nd ref="369110186"/>
    <nd ref="369110188"/>
    <nd ref="369110190"/>
    <nd ref="369110192"/>
    <nd ref="369110194"/>
    <nd ref="369110196"/>
    <tag k="highway" v="residential"/>
    <tag k="maxspeed" v="50"/>
    <tag k="maxspeed:source" v="default residential speed limit in Australia"/>
    <tag k="name" v="Ashley Park Drive"/>
  </way>
  <way id="32772669" version="6" timestamp="2012-01-18T16:52:01Z" uid="147510" user="woodpeck_fixbot" changeset="10427327">
    <nd ref="369110186"/>
    <nd ref="369110188"/>
    <nd ref="369110190"/>
    <nd ref="369110192"/>
    <nd ref="369110194"/>
    <nd ref="369110196"/>
    <tag k="highway" v="residential"/>
    <tag k="name" v="Ashley Park Drive"/>
  </way>
  <way id="32772693" version="1" timestamp="2009-04-02T22:34:45Z" uid="87590" user="Alois_Paul" changeset="125404">
    <nd ref="369110412"/>
    <nd ref="369110413"/>
    <nd ref="369110414"/>
    <nd ref="369110415"/>
    <nd ref="369110416"/>
    <nd ref="369110417"/>
    <nd ref="369110418"/>
    <nd ref="369110419"/>
    <nd ref="369110420"/>
    <nd ref="369110421"/>
    <nd ref="369110422"/>
    <nd ref="369110423"/>
    <nd ref="369110424"/>
    <nd ref="369110425"/>
    <nd ref="369110426"/>
    <nd ref="369110427"/>
    <nd ref="369110428"/>
    <nd ref="369110429"/>
    <nd ref="369110430"/>
    <nd ref="369110431"/>
    <nd ref="369110432"/>
    <nd ref="367051942"/>
    <tag k="created_by" v="Potlatch 0.10f"/>
    <tag k="highway" v="track"/>
    <tag k="tracktype" v="grade5"/>
  </way>
  <way id="32772693" version="2" timestamp="2009-07-29T13:15:30Z" uid="85761" user="klausis" changeset="1975712">
    <nd ref="450683035"/>
    <nd ref="369110413"/>
    <nd ref="369110414"/>
    <nd ref="369110415"/>
    <nd ref="369110416"/>
    <nd ref="369110417"/>
    <nd ref="369110418"/>
    <nd ref="369110419"/>
    <nd ref="369110420"/>
    <nd ref="369110421"/>
    <nd ref="369110422"/>
    <nd ref="369110423"/>
    <nd ref="369110424"/>
    <nd ref="369110425"/>
    <nd ref="369110426"/>
    <nd ref="369110427"/>
    <nd ref="369110428"/>
    <nd ref="369110429"/>
    <nd ref="369110430"/>
    <nd ref="369110431"/>
    <nd ref="369110432"/>
    <nd ref="367051942"/>
    <tag k="highway" v="track"/>
    <tag k="tracktype" v="grade5"/>
  </way>
  <way id="32772693" version="3" timestamp="2009-10-17T13:10:13Z" uid="24748" user="mabapla" changeset="2873792">
    <nd ref="450683035"/>
    <nd ref="369110415"/>
    <nd ref="369110420"/>
    <nd ref="369110426"/>
    <nd ref="369110429"/>
    <nd ref="367051942"/>
    <tag k="highway" v="track"/>
    <tag k="tracktype" v="grade5"/>
  </way>
  <way id="32772693" version="4" timestamp="2012-03-25T03:06:26Z" uid="146680" user="ceyockey" changeset="11090835">
    <nd ref="450683035"/>
    <nd ref="369110415"/>
    <nd ref="369110420"/>
    <nd ref="369110426"/>
    <nd ref="369110429"/>
    <nd ref="367051942"/>
    <tag k="FIXME" v="created by user declining ODbL"/>
    <tag k="highway" v="track"/>
    <tag k="tracktype" v="grade5"/>
  </way>
  <way id="32772693" version="5" timestamp="2012-03-25T12:05:29Z" uid="446310" user="Wisco87" changeset="11093417"/>
  <way id="32772708" version="9" timestamp="2010-07-08T18:18:08Z" uid="74617" user="JohnSmith" changeset="5167338">
    <nd ref="369110496"/>
    <nd ref="606288842"/>
    <nd ref="369110497"/>
    <nd ref="369110498"/>
    <nd ref="606288583"/>
    <nd ref="369110499"/>
    <nd ref="760195697"/>
    <nd ref="369110500"/>
    <nd ref="760195750"/>
    <nd ref="369110501"/>
    <nd ref="369110502"/>
    <nd ref="369110506"/>
    <nd ref="369110507"/>
    <nd ref="369110508"/>
    <nd ref="369110511"/>
    <nd ref="369110512"/>
    <nd ref="369110513"/>
    <nd ref="369110514"/>
    <nd ref="178787030"/>
    <nd ref="369110515"/>
    <nd ref="369110516"/>
    <nd ref="606288816"/>
    <nd ref="369110517"/>
    <nd ref="477084241"/>
    <tag k="highway" v="residential"/>
    <tag k="maxspeed" v="50"/>
    <tag k="maxspeed:source" v="default residential speed limit in Australia"/>
    <tag k="name" v="Enterprize Avenue"/>
  </way>
  <way id="32772708" version="10" timestamp="2012-01-18T16:52:02Z" uid="147510" user="woodpeck_fixbot" changeset="10427327">
    <nd ref="369110496"/>
    <nd ref="606288842"/>
    <nd ref="369110497"/>
    <nd ref="369110498"/>
    <nd ref="606288583"/>
    <nd ref="369110499"/>
    <nd ref="760195697"/>
    <nd ref="369110500"/>
    <nd ref="760195750"/>
    <nd ref="369110501"/>
    <nd ref="369110502"/>
    <nd ref="369110506"/>
    <nd ref="369110507"/>
    <nd ref="369110508"/>
    <nd ref="369110511"/>
    <nd ref="369110512"/>
    <nd ref="369110513"/>
    <nd ref="369110514"/>
    <nd ref="178787030"/>
    <nd ref="369110515"/>
    <nd ref="369110516"/>
    <nd ref="606288816"/>
    <nd ref="369110517"/>
    <nd ref="477084241"/>
    <tag k="highway" v="residential"/>
    <tag k="name" v="Enterprize Avenue"/>
  </way>
  <way id="32772709" version="4" timestamp="2010-07-08T18:46:49Z" uid="74617" user="JohnSmith" changeset="5167338">
    <nd ref="369110512"/>
    <nd ref="369110518"/>
    <nd ref="369110519"/>
    <tag k="highway" v="residential"/>
    <tag k="maxspeed" v="50"/>
    <tag k="maxspeed:source" v="default residential speed limit in Australia"/>
    <tag k="name" v="Isabella Close"/>
  </way>
  <way id="32772709" version="5" timestamp="2012-01-18T16:52:05Z" uid="147510" user="woodpeck_fixbot" changeset="10427327">
    <nd ref="369110512"/>
    <nd ref="369110518"/>
    <nd ref="369110519"/>
    <tag k="highway" v="residential"/>
    <tag k="name" v="Isabella Close"/>
  </way>
  <way id="32772710" version="3" timestamp="2010-07-08T18:40:34Z" uid="74617" user="JohnSmith" changeset="5167338">
    <nd ref="369110514"/>
    <nd ref="369110520"/>
    <tag k="highway" v="residential"/>
    <tag k="maxspeed" v="50"/>
    <tag k="maxspeed:source" v="default residential speed limit in Australia"/>
    <tag k="name" v="Pickwick Place"/>
  </way>
  <way id="32772710" version="4" timestamp="2012-01-18T16:52:06Z" uid="147510" user="woodpeck_fixbot" changeset="10427327">
    <nd ref="369110514"/>
    <nd ref="369110520"/>
    <tag k="highway" v="residential"/>
    <tag k="name" v="Pickwick Place"/>
  </way>
  <way id="32772711" version="3" timestamp="2010-07-08T18:33:51Z" uid="74617" user="JohnSmith" changeset="5167338">
    <nd ref="369110507"/>
    <nd ref="369110521"/>
    <nd ref="369110522"/>
    <nd ref="369110523"/>
    <nd ref="369110524"/>
    <nd ref="369110525"/>
    <nd ref="369110497"/>
    <tag k="highway" v="residential"/>
    <tag k="maxspeed" v="50"/>
    <tag k="maxspeed:source" v="default residential speed limit in Australia"/>
    <tag k="name" v="Armistan Crescent"/>
  </way>
  <way id="32772711" version="4" timestamp="2012-01-18T16:52:08Z" uid="147510" user="woodpeck_fixbot" changeset="10427327">
    <nd ref="369110507"/>
    <nd ref="369110521"/>
    <nd ref="369110522"/>
    <nd ref="369110523"/>
    <nd ref="369110524"/>
    <nd ref="369110525"/>
    <nd ref="369110497"/>
    <tag k="highway" v="residential"/>
    <tag k="name" v="Armistan Crescent"/>
  </way>
  <way id="32772712" version="4" timestamp="2010-07-08T18:36:29Z" uid="74617" user="JohnSmith" changeset="5167338">
    <nd ref="369110526"/>
    <nd ref="369110527"/>
    <tag k="highway" v="residential"/>
    <tag k="maxspeed" v="50"/>
    <tag k="maxspeed:source" v="default residential speed limit in Australia"/>
    <tag k="name" v="Aquilla Court"/>
  </way>
  <way id="32772712" version="5" timestamp="2012-01-18T16:52:12Z" uid="147510" user="woodpeck_fixbot" changeset="10427327">
    <nd ref="369110526"/>
    <nd ref="369110527"/>
    <tag k="highway" v="residential"/>
    <tag k="name" v="Aquilla Court"/>
  </way>
  <way id="32772713" version="4" timestamp="2010-07-08T18:29:43Z" uid="74617" user="JohnSmith" changeset="5167338">
    <nd ref="760196013"/>
    <nd ref="369110528"/>
    <nd ref="369110498"/>
    <tag k="highway" v="residential"/>
    <tag k="maxspeed" v="50"/>
    <tag k="maxspeed:source" v="default residential speed limit in Australia"/>
    <tag k="name" v="Rebecca Close"/>
  </way>
  <way id="32772713" version="5" timestamp="2012-01-18T16:52:13Z" uid="147510" user="woodpeck_fixbot" changeset="10427327">
    <nd ref="760196013"/>
    <nd ref="369110528"/>
    <nd ref="369110498"/>
    <tag k="highway" v="residential"/>
    <tag k="name" v="Rebecca Close"/>
  </way>
  <way id="32772714" version="3" timestamp="2010-07-08T18:20:05Z" uid="74617" user="JohnSmith" changeset="5167338">
    <nd ref="369110523"/>
    <nd ref="369110529"/>
    <nd ref="369110530"/>
    <tag k="highway" v="residential"/>
    <tag k="maxspeed" v="50"/>
    <tag k="maxspeed:source" v="default residential speed limit in Australia"/>
    <tag k="name" v="Nimrod Rise"/>
  </way>
  <way id="32772714" version="4" timestamp="2012-01-18T16:52:15Z" uid="147510" user="woodpeck_fixbot" changeset="10427327">
    <nd ref="369110523"/>
    <nd ref="369110529"/>
    <nd ref="369110530"/>
    <tag k="highway" v="residential"/>
    <tag k="name" v="Nimrod Rise"/>
  </way>
  <way id="32772715" version="3" timestamp="2010-07-08T18:47:24Z" uid="74617" user="JohnSmith" changeset="5167338">
    <nd ref="369110500"/>
    <nd ref="369110591"/>
    <nd ref="369110605"/>
    <tag k="highway" v="residential"/>
    <tag k="maxspeed" v="50"/>
    <tag k="maxspeed:source" v="default residential speed limit in Australia"/>
    <tag k="name" v="Conway Court"/>
  </way>
  <way id="32772715" version="4" timestamp="2012-01-18T16:52:16Z" uid="147510" user="woodpeck_fixbot" changeset="10427327">
    <nd ref="369110500"/>
    <nd ref="369110591"/>
    <nd ref="369110605"/>
    <tag k="highway" v="residential"/>
    <tag k="name" v="Conway Court"/>
  </way>
  <way id="32772717" version="4" timestamp="2010-04-26T12:12:48Z" uid="4467" user="Rosscoe" changeset="4531219">
    <nd ref="707239174"/>
    <nd ref="369110626"/>
    <nd ref="606288574"/>
    <nd ref="369110627"/>
    <tag k="highway" v="residential"/>
    <tag k="name" v="Kestrel Close"/>
  </way>
  <way id="32772717" version="5" timestamp="2010-05-31T07:06:08Z" uid="201443" user="stevage" changeset="4860200">
    <nd ref="707239174"/>
    <nd ref="760196217"/>
    <nd ref="369110626"/>
    <nd ref="606288574"/>
    <nd ref="369110627"/>
    <tag k="highway" v="residential"/>
    <tag k="name" v="Kestrel Close"/>
  </way>
  <way id="32772717" version="6" timestamp="2010-07-08T18:23:22Z" uid="74617" user="JohnSmith" changeset="5167338">
    <nd ref="707239174"/>
    <nd ref="760196217"/>
    <nd ref="369110626"/>
    <nd ref="606288574"/>
    <nd ref="369110627"/>
    <tag k="highway" v="residential"/>
    <tag k="maxspeed" v="50"/>
    <tag k="maxspeed:source" v="default residential speed limit in Australia"/>
    <tag k="name" v="Kestrel Close"/>
  </way>
  <way id="32772717" version="7" timestamp="2012-01-18T16:52:17Z" uid="147510" user="woodpeck_fixbot" changeset="10427327">
    <nd ref="707239174"/>
    <nd ref="760196217"/>
    <nd ref="369110626"/>
    <nd ref="606288574"/>
    <nd ref="369110627"/>
    <tag k="highway" v="residential"/>
    <tag k="name" v="Kestrel Close"/>
  </way>
  <way id="32772719" version="3" timestamp="2010-07-08T18:43:54Z" uid="74617" user="JohnSmith" changeset="5167338">
    <nd ref="369110626"/>
    <nd ref="369110643"/>
    <nd ref="369110648"/>
    <nd ref="369110649"/>
    <tag k="highway" v="residential"/>
    <tag k="maxspeed" v="50"/>
    <tag k="maxspeed:source" v="default residential speed limit in Australia"/>
    <tag k="name" v="Dotterel Court"/>
  </way>
  <way id="32772719" version="4" timestamp="2012-01-18T16:52:19Z" uid="147510" user="woodpeck_fixbot" changeset="10427327">
    <nd ref="369110626"/>
    <nd ref="369110643"/>
    <nd ref="369110648"/>
    <nd ref="369110649"/>
    <tag k="highway" v="residential"/>
    <tag k="name" v="Dotterel Court"/>
  </way>
  <way id="32772746" version="1" timestamp="2009-04-02T22:37:48Z" uid="87590" user="Alois_Paul" changeset="125404">
    <nd ref="369110931"/>
    <nd ref="369110933"/>
    <nd ref="369110935"/>
    <nd ref="369110936"/>
    <nd ref="369110937"/>
    <nd ref="369110939"/>
    <nd ref="369110940"/>
    <nd ref="369110943"/>
    <nd ref="369110944"/>
    <nd ref="369110946"/>
    <nd ref="369110947"/>
    <nd ref="369110948"/>
    <nd ref="369110950"/>
    <nd ref="369110951"/>
    <nd ref="369110953"/>
    <nd ref="369110954"/>
    <tag k="created_by" v="Potlatch 0.10f"/>
  </way>
  <way id="32772746" version="2" timestamp="2009-04-02T22:38:24Z" uid="87590" user="Alois_Paul" changeset="125404">
    <nd ref="369110931"/>
    <nd ref="369110933"/>
    <nd ref="369110935"/>
    <nd ref="369110936"/>
    <nd ref="369110937"/>
    <nd ref="369110940"/>
    <nd ref="369110943"/>
    <nd ref="369110944"/>
    <nd ref="369110946"/>
    <nd ref="369110947"/>
    <nd ref="369110948"/>
    <nd ref="369110950"/>
    <nd ref="369110951"/>
    <nd ref="369110953"/>
    <nd ref="369110954"/>
    <tag k="created_by" v="Potlatch 0.10f"/>
    <tag k="highway" v="track"/>
    <tag k="tracktype" v="grade3"/>
  </way>
  <way id="32772746" version="3" timestamp="2009-04-07T18:32:41Z" uid="87590" user="Alois_Paul" changeset="307183">
    <nd ref="369110931"/>
    <nd ref="369110933"/>
    <nd ref="369110935"/>
    <nd ref="369110936"/>
    <nd ref="369110937"/>
    <nd ref="369110940"/>
    <nd ref="369110943"/>
    <nd ref="369110944"/>
    <nd ref="369110946"/>
    <nd ref="369110947"/>
    <nd ref="369110948"/>
    <nd ref="369110950"/>
    <nd ref="369110951"/>
    <nd ref="369110953"/>
    <nd ref="369110954"/>
    <tag k="bicycle" v="yes"/>
    <tag k="created_by" v="Potlatch 0.10f"/>
    <tag k="foot" v="yes"/>
    <tag k="highway" v="track"/>
    <tag k="motorcar" v="no"/>
    <tag k="tracktype" v="grade2"/>
  </way>
  <way id="32772746" version="4" timestamp="2009-07-29T13:15:41Z" uid="85761" user="klausis" changeset="1975712">
    <nd ref="369110931"/>
    <nd ref="369110933"/>
    <nd ref="369110935"/>
    <nd ref="369110936"/>
    <nd ref="369110937"/>
    <nd ref="369110940"/>
    <nd ref="369110943"/>
    <nd ref="369110944"/>
    <nd ref="369110946"/>
    <nd ref="369110947"/>
    <nd ref="369110948"/>
    <nd ref="369110950"/>
    <nd ref="369110951"/>
    <nd ref="369110953"/>
    <nd ref="369110954"/>
    <tag k="bicycle" v="yes"/>
    <tag k="foot" v="yes"/>
    <tag k="highway" v="track"/>
    <tag k="motorcar" v="no"/>
    <tag k="tracktype" v="grade2"/>
  </way>
  <way id="32772746" version="5" timestamp="2009-07-29T14:23:06Z" uid="85761" user="klausis" changeset="1976229">
    <nd ref="369111284"/>
    <nd ref="369110933"/>
    <nd ref="369110935"/>
    <nd ref="369110936"/>
    <nd ref="369110937"/>
    <nd ref="369110940"/>
    <nd ref="369110943"/>
    <nd ref="369110944"/>
    <nd ref="369110946"/>
    <nd ref="369110947"/>
    <nd ref="369110948"/>
    <nd ref="369110950"/>
    <nd ref="369110951"/>
    <nd ref="369110953"/>
    <nd ref="369110954"/>
    <tag k="bicycle" v="yes"/>
    <tag k="foot" v="yes"/>
    <tag k="highway" v="track"/>
    <tag k="motorcar" v="no"/>
    <tag k="tracktype" v="grade2"/>
  </way>
  <way id="32772746" version="6" timestamp="2009-10-17T13:10:10Z" uid="24748" user="mabapla" changeset="2873792">
    <nd ref="369111284"/>
    <nd ref="369110937"/>
    <nd ref="369110943"/>
    <nd ref="369110946"/>
    <nd ref="369110950"/>
    <nd ref="369110954"/>
    <tag k="bicycle" v="yes"/>
    <tag k="foot" v="yes"/>
    <tag k="highway" v="track"/>
    <tag k="motorcar" v="no"/>
    <tag k="tracktype" v="grade2"/>
  </way>
  <way id="32772746" version="7" timestamp="2012-01-04T10:08:01Z" uid="446310" user="Wisco87" changeset="10289294"/>
  <way id="32772757" version="6" timestamp="2010-07-08T20:14:15Z" uid="74617" user="JohnSmith" changeset="5168730">
    <nd ref="292461100"/>
    <nd ref="583091371"/>
    <nd ref="387944118"/>
    <nd ref="583091334"/>
    <nd ref="369111027"/>
    <tag k="highway" v="residential"/>
    <tag k="maxspeed" v="50"/>
    <tag k="maxspeed:source" v="default residential speed limit in Australia"/>
    <tag k="name" v="Market Street"/>
    <tag k="oneway" v="yes"/>
  </way>
  <way id="32772757" version="7" timestamp="2012-01-18T16:52:20Z" uid="147510" user="woodpeck_fixbot" changeset="10427327">
    <nd ref="292461100"/>
    <nd ref="583091371"/>
    <nd ref="387944118"/>
    <nd ref="583091334"/>
    <nd ref="369111027"/>
    <tag k="highway" v="residential"/>
    <tag k="name" v="Market Street"/>
    <tag k="oneway" v="yes"/>
  </way>
  <way id="32772779" version="1" timestamp="2009-04-02T22:40:24Z" uid="87590" user="Alois_Paul" changeset="125404">
    <nd ref="369111284"/>
    <nd ref="369111286"/>
    <nd ref="369111287"/>
    <nd ref="369111288"/>
    <nd ref="369111290"/>
    <nd ref="369111291"/>
    <nd ref="369111292"/>
    <nd ref="369111294"/>
    <tag k="boat" v="yes"/>
    <tag k="created_by" v="Potlatch 0.10f"/>
    <tag k="foot" v="permissive"/>
    <tag k="highway" v="footway"/>
  </way>
  <way id="32772779" version="2" timestamp="2009-04-02T23:31:36Z" uid="87590" user="Alois_Paul" changeset="125404">
    <nd ref="369111284"/>
    <nd ref="369111286"/>
    <nd ref="369111287"/>
    <nd ref="369111288"/>
    <nd ref="369111290"/>
    <nd ref="369111291"/>
    <nd ref="369111292"/>
    <nd ref="369111294"/>
    <tag k="created_by" v="Potlatch 0.10f"/>
    <tag k="foot" v="permissive"/>
    <tag k="highway" v="path"/>
    <tag k="surface" v="dirt"/>
    <tag k="tracktype" v="grade5"/>
  </way>
  <way id="32772779" version="3" timestamp="2009-07-29T13:15:40Z" uid="85761" user="klausis" changeset="1975712">
    <nd ref="369111284"/>
    <nd ref="369111286"/>
    <nd ref="369111287"/>
    <nd ref="369111288"/>
    <nd ref="369111290"/>
    <nd ref="369111291"/>
    <nd ref="369111292"/>
    <nd ref="369111294"/>
    <tag k="foot" v="permissive"/>
    <tag k="highway" v="path"/>
    <tag k="surface" v="dirt"/>
    <tag k="tracktype" v="grade5"/>
  </way>
  <way id="32772779" version="4" timestamp="2009-10-17T13:10:10Z" uid="24748" user="mabapla" changeset="2873792">
    <nd ref="369111284"/>
    <nd ref="369111294"/>
    <tag k="foot" v="permissive"/>
    <tag k="highway" v="path"/>
    <tag k="surface" v="dirt"/>
    <tag k="tracktype" v="grade5"/>
  </way>
  <way id="32772779" version="5" timestamp="2012-03-25T03:06:24Z" uid="146680" user="ceyockey" changeset="11090835">
    <nd ref="369111284"/>
    <nd ref="369111294"/>
    <tag k="FIXME" v="created by user declining ODbL"/>
    <tag k="foot" v="permissive"/>
    <tag k="highway" v="path"/>
    <tag k="surface" v="dirt"/>
    <tag k="tracktype" v="grade5"/>
  </way>
  <way id="32772779" version="6" timestamp="2012-03-25T11:53:30Z" uid="446310" user="Wisco87" changeset="11093417"/>
  <way id="32772880" version="2" timestamp="2009-04-15T06:02:10Z" uid="6975" user="ulfl" changeset="553994">
    <nd ref="369111791"/>
    <nd ref="369111792"/>
    <nd ref="369111793"/>
    <nd ref="369111794"/>
    <nd ref="369111791"/>
    <tag k="building" v="yes"/>
    <tag k="name" v="Seegersches Husle"/>
    <tag k="tourism" v="museum"/>
  </way>
  <way id="32772921" version="6" timestamp="2010-07-08T20:13:52Z" uid="74617" user="JohnSmith" changeset="5168730">
    <nd ref="369111968"/>
    <nd ref="369112043"/>
    <tag k="highway" v="residential"/>
    <tag k="maxspeed" v="50"/>
    <tag k="maxspeed:source" v="default residential speed limit in Australia"/>
    <tag k="name" v="Ross Street"/>
    <tag k="source" v="nearmap"/>
  </way>
  <way id="32772921" version="7" timestamp="2010-07-13T05:43:51Z" uid="211804" user="KenS" changeset="5204761">
    <nd ref="369111968"/>
    <nd ref="388005184"/>
    <nd ref="369112042"/>
    <nd ref="369112043"/>
    <tag k="highway" v="residential"/>
    <tag k="maxspeed" v="50"/>
    <tag k="maxspeed:source" v="default residential speed limit in Australia"/>
    <tag k="name" v="Ross Street"/>
    <tag k="source" v="nearmap"/>
  </way>
  <way id="32772921" version="8" timestamp="2012-01-18T16:52:23Z" uid="147510" user="woodpeck_fixbot" changeset="10427327">
    <nd ref="369111968"/>
    <nd ref="388005184"/>
    <nd ref="369112042"/>
    <nd ref="369112043"/>
    <tag k="highway" v="residential"/>
    <tag k="name" v="Ross Street"/>
    <tag k="source" v="nearmap"/>
  </way>
  <way id="32772367" version="6" timestamp="2012-07-19T08:37:45Z" uid="722137" user="OSMF Redaction Account" changeset="12314176">
    <nd ref="369107916"/>
    <nd ref="369107800"/>
    <nd ref="369107805"/>
    <nd ref="369107921"/>
    <nd ref="369107927"/>
    <nd ref="369107935"/>
    <nd ref="369107940"/>
    <nd ref="369107946"/>
    <nd ref="369107954"/>
    <nd ref="31318896"/>
    <tag k="highway" v="residential"/>
    <tag k="name" v="Seccull Drive"/>
  </way>
  <way id="32772516" version="3" timestamp="2012-07-18T13:26:16Z" uid="722137" user="OSMF Redaction Account" changeset="12283215">
    <nd ref="369108980"/>
    <nd ref="369108981"/>
    <nd ref="369108982"/>
    <nd ref="369108983"/>
    <nd ref="369108980"/>
    <tag k="leisure" v="pitch"/>
    <tag k="note" v="Form des Feldes schwer abgrenzbar"/>
    <tag k="source" v="survey"/>
    <tag k="sport" v="football"/>
  </way>
  <way id="32772717" version="8" timestamp="2012-07-19T08:37:47Z" uid="722137" user="OSMF Redaction Account" changeset="12314176">
    <nd ref="760196217"/>
    <nd ref="369110626"/>
    <nd ref="606288574"/>
    <nd ref="369110627"/>
    <tag k="highway" v="residential"/>
    <tag k="name" v="Kestrel Close"/>
  </way>
  <way id="32772717" version="9" timestamp="2012-07-21T12:38:00Z" uid="46482" user="Leon K" changeset="12408838">
    <nd ref="1833084283"/>
    <nd ref="760196217"/>
    <nd ref="369110626"/>
    <nd ref="606288574"/>
    <nd ref="369110627"/>
    <tag k="highway" v="residential"/>
    <tag k="name" v="Kestrel Close"/>
  </way>
  <way id="32772757" version="8" timestamp="2012-07-19T11:44:28Z" uid="722137" user="OSMF Redaction Account" changeset="12322246">
    <nd ref="583091371"/>
    <nd ref="387944118"/>
    <nd ref="583091334"/>
    <nd ref="369111027"/>
    <tag k="highway" v="residential"/>
    <tag k="name" v="Market Street"/>
    <tag k="oneway" v="yes"/>
  </way>
</osm>
