<?xml version='1.0' encoding='UTF-8'?>
<osm version="0.6" generator="libosmium/2.20.0">
  <way id="32863023" version="2" timestamp="2010-09-19T23:38:14Z" uid="23543" user="jkjk" changeset="5825237">
    <nd ref="306689985"/>
    <nd ref="307054419"/>
    <nd ref="306689989"/>
    <nd ref="306689993"/>
    <nd ref="919222833"/>
    <tag k="highway" v="footway"/>
  </way>
  <way id="32863023" version="3" timestamp="2011-08-14T12:03:15Z" uid="17615" user="Petr Dlouhý" changeset="9015111">
    <nd ref="306689985"/>
    <nd ref="307054419"/>
    <nd ref="306689989"/>
    <nd ref="306689993"/>
    <nd ref="919222833"/>
    <tag k="bicycle" v="yes"/>
    <tag k="highway" v="footway"/>
  </way>
  <way id="32863023" version="4" timestamp="2011-09-28T16:49:18Z" uid="527259" user="Vratislav Filler" changeset="9421015">
    <nd ref="306689985"/>
    <nd ref="307054419"/>
    <nd ref="306689989"/>
    <nd ref="306689993"/>
    <nd ref="919222833"/>
    <tag k="bicycle" v="designated"/>
    <tag k="foot" v="designated"/>
    <tag k="highway" v="path"/>
    <tag k="segregated" v="no"/>
    <tag k="surface" v="asphalt"/>
    <tag k="width" v="3"/>
  </way>
  <way id="32863023" version="5" timestamp="2012-02-15T16:36:58Z" uid="527259" user="Vratislav Filler" changeset="10693817"/>
  <way id="32863024" version="2" timestamp="2010-09-19T23:38:20Z" uid="23543" user="jkjk" changeset="5825237">
    <nd ref="306689968"/>
    <nd ref="306689972"/>
    <nd ref="306689979"/>
    <nd ref="306689984"/>
    <tag k="highway" v="footway"/>
  </way>
  <way id="32863024" version="3" timestamp="2011-08-25T17:46:50Z" uid="17615" user="Petr Dlouhý" changeset="9123347">
    <nd ref="306689968"/>
    <nd ref="1412444660"/>
    <nd ref="1412444661"/>
    <nd ref="306689972"/>
    <nd ref="306689979"/>
    <nd ref="306689984"/>
    <tag k="highway" v="footway"/>
  </way>
  <way id="32863024" version="4" timestamp="2011-09-25T17:45:57Z" uid="527259" user="Vratislav Filler" changeset="9394766">
    <nd ref="306689968"/>
    <nd ref="1412444660"/>
    <nd ref="1412444661"/>
    <nd ref="306689972"/>
    <nd ref="306689979"/>
    <nd ref="306689984"/>
    <tag k="foot" v="yes"/>
    <tag k="highway" v="cycleway"/>
    <tag k="segregated" v="no"/>
  </way>
  <way id="32863024" version="5" timestamp="2011-09-28T16:49:18Z" uid="527259" user="Vratislav Filler" changeset="9421015">
    <nd ref="306689968"/>
    <nd ref="1412444660"/>
    <nd ref="1412444661"/>
    <nd ref="306689972"/>
    <nd ref="306689979"/>
    <nd ref="306689984"/>
    <tag k="bicycle" v="designated"/>
    <tag k="foot" v="designated"/>
    <tag k="highway" v="path"/>
    <tag k="segregated" v="no"/>
    <tag k="surface" v="asphalt"/>
  </way>
  <way id="32863024" version="6" timestamp="2012-02-15T16:36:59Z" uid="527259" user="Vratislav Filler" changeset="10693817"/>
  <way id="32863026" version="2" timestamp="2010-09-19T23:38:14Z" uid="23543" user="jkjk" changeset="5825237">
    <nd ref="306690837"/>
    <nd ref="307054448"/>
    <nd ref="919222864"/>
    <nd ref="306690838"/>
    <nd ref="306690839"/>
    <nd ref="306689985"/>
    <tag k="highway" v="footway"/>
  </way>
  <way id="32863026" version="3" timestamp="2012-02-15T16:36:58Z" uid="527259" user="Vratislav Filler" changeset="10693817"/>
  <way id="32863027" version="2" timestamp="2010-03-15T18:16:41Z" uid="23543" user="jkjk" changeset="4136799">
    <nd ref="305309881"/>
    <nd ref="311517597"/>
    <nd ref="311517661"/>
    <nd ref="306690843"/>
    <nd ref="246686625"/>
    <nd ref="308540575"/>
    <nd ref="666989772"/>
    <nd ref="308540599"/>
    <nd ref="703430"/>
    <tag k="highway" v="residential"/>
    <tag k="name" v="U Modré školy"/>
  </way>
  <way id="32863027" version="3" timestamp="2011-02-06T13:48:48Z" uid="23543" user="jkjk" changeset="7203771">
    <nd ref="305309881"/>
    <nd ref="311517597"/>
    <nd ref="311517661"/>
    <nd ref="306690843"/>
    <nd ref="246686625"/>
    <nd ref="308540575"/>
    <nd ref="666989772"/>
    <nd ref="308540599"/>
    <nd ref="703430"/>
    <tag k="highway" v="tertiary"/>
    <tag k="name" v="U Modré školy"/>
  </way>
  <way id="32863027" version="4" timestamp="2011-11-21T11:53:38Z" uid="527259" user="Vratislav Filler" changeset="9896290">
    <nd ref="305309881"/>
    <nd ref="311517597"/>
    <nd ref="311517661"/>
    <nd ref="306690843"/>
    <nd ref="246686625"/>
    <tag k="highway" v="tertiary"/>
    <tag k="name" v="U Modré školy"/>
  </way>
  <way id="32863027" version="5" timestamp="2012-02-15T17:42:32Z" uid="527259" user="Vratislav Filler" changeset="10694484"/>
  <way id="32863028" version="2" timestamp="2010-03-24T14:25:41Z" uid="23543" user="jkjk" changeset="4221544">
    <nd ref="223476160"/>
    <nd ref="246688639"/>
    <nd ref="673419633"/>
    <nd ref="246688641"/>
    <tag k="highway" v="residential"/>
    <tag k="name" v="Novomeského"/>
  </way>
  <way id="32863028" version="3" timestamp="2010-11-26T12:14:43Z" uid="13114" user="nijel" changeset="6461549">
    <nd ref="223476160"/>
    <nd ref="246688639"/>
    <nd ref="673419633"/>
    <nd ref="246688641"/>
    <nd ref="360208418"/>
    <tag k="highway" v="residential"/>
    <tag k="name" v="Novomeského"/>
    <tag k="source" v="cuzk:km;uhul:ortofoto"/>
  </way>
  <way id="32863029" version="2" timestamp="2009-10-20T15:45:10Z" uid="23543" user="jkjk" changeset="2904404">
    <nd ref="370183303"/>
    <nd ref="370183308"/>
    <nd ref="536744928"/>
    <nd ref="536744959"/>
    <nd ref="370183309"/>
    <nd ref="370183314"/>
    <nd ref="246685736"/>
    <tag k="highway" v="track"/>
  </way>
  <way id="32863029" version="3" timestamp="2010-01-13T22:20:25Z" uid="23543" user="jkjk" changeset="3613710">
    <nd ref="370183303"/>
    <nd ref="370183308"/>
    <nd ref="536744928"/>
    <nd ref="536744959"/>
    <nd ref="370183309"/>
    <nd ref="370183314"/>
    <nd ref="246685736"/>
    <tag k="highway" v="track"/>
    <tag k="motorcar" v="no"/>
    <tag k="motorcycle" v="no"/>
  </way>
  <way id="32863029" version="4" timestamp="2011-05-17T09:24:04Z" uid="25867" user="adamos" changeset="8169745">
    <nd ref="370183303"/>
    <nd ref="370183308"/>
    <nd ref="536744928"/>
    <nd ref="536744959"/>
    <nd ref="370183309"/>
    <nd ref="246685736"/>
    <tag k="highway" v="track"/>
    <tag k="motorcar" v="no"/>
    <tag k="motorcycle" v="no"/>
  </way>
  <way id="32863030" version="3" timestamp="2009-10-28T03:20:27Z" uid="23543" user="jkjk" changeset="2970587">
    <nd ref="370183303"/>
    <nd ref="246688625"/>
    <nd ref="539142414"/>
    <nd ref="246688621"/>
    <nd ref="542896911"/>
    <nd ref="246688637"/>
    <nd ref="223476160"/>
    <tag k="highway" v="residential"/>
    <tag k="name" v="Stříbrského"/>
  </way>
  <way id="32863030" version="4" timestamp="2010-03-24T14:25:40Z" uid="23543" user="jkjk" changeset="4221544">
    <nd ref="370183303"/>
    <nd ref="246688625"/>
    <nd ref="539142414"/>
    <nd ref="673419662"/>
    <nd ref="246688621"/>
    <nd ref="542896911"/>
    <nd ref="246688637"/>
    <nd ref="223476160"/>
    <tag k="highway" v="residential"/>
    <tag k="name" v="Stříbrského"/>
  </way>
  <way id="32863031" version="2" timestamp="2009-08-30T18:59:59Z" uid="23543" user="jkjk" changeset="2318059">
    <nd ref="8811030"/>
    <nd ref="246685715"/>
    <nd ref="8811029"/>
    <nd ref="246685714"/>
    <nd ref="477021470"/>
    <nd ref="223474409"/>
    <nd ref="703441"/>
    <tag k="highway" v="tertiary"/>
    <tag k="name" v="Výstavní"/>
  </way>
  <way id="32863031" version="3" timestamp="2011-05-17T09:24:04Z" uid="25867" user="adamos" changeset="8169745">
    <nd ref="8811030"/>
    <nd ref="1288839620"/>
    <nd ref="246685715"/>
    <nd ref="8811029"/>
    <nd ref="246685714"/>
    <nd ref="477021470"/>
    <nd ref="223474409"/>
    <nd ref="703441"/>
    <tag k="highway" v="tertiary"/>
    <tag k="name" v="Výstavní"/>
  </way>
  <way id="32863031" version="4" timestamp="2011-09-30T02:49:43Z" uid="527259" user="Vratislav Filler" changeset="9432139">
    <nd ref="8811030"/>
    <nd ref="1288839620"/>
    <nd ref="246685715"/>
    <nd ref="8811029"/>
    <nd ref="246685714"/>
    <nd ref="477021470"/>
    <nd ref="223474409"/>
    <nd ref="703441"/>
    <tag k="highway" v="secondary"/>
    <tag k="name" v="Výstavní"/>
  </way>
  <way id="32863031" version="5" timestamp="2011-12-21T17:20:30Z" uid="3516" user="BiIbo" changeset="10173414">
    <nd ref="8811030"/>
    <nd ref="1288839620"/>
    <nd ref="246685715"/>
    <nd ref="8811029"/>
    <nd ref="246685714"/>
    <nd ref="477021470"/>
    <nd ref="223474409"/>
    <nd ref="1557312010"/>
    <nd ref="703441"/>
    <tag k="highway" v="secondary"/>
    <tag k="name" v="Výstavní"/>
  </way>
  <way id="32863032" version="2" timestamp="2010-02-02T18:31:22Z" uid="23543" user="jkjk" changeset="3777802">
    <nd ref="65281344"/>
    <nd ref="29820810"/>
    <nd ref="65281342"/>
    <nd ref="265745801"/>
    <nd ref="26509900"/>
    <nd ref="265745281"/>
    <nd ref="29820802"/>
    <tag k="highway" v="tertiary"/>
  </way>
  <way id="32863032" version="3" timestamp="2010-07-18T09:55:46Z" uid="3516" user="BiIbo" changeset="5248857">
    <nd ref="65281344"/>
    <nd ref="29820810"/>
    <nd ref="822673507"/>
    <nd ref="65281342"/>
    <nd ref="265745801"/>
    <nd ref="26509900"/>
    <nd ref="265745281"/>
    <nd ref="29820802"/>
    <tag k="highway" v="tertiary"/>
  </way>
  <way id="32863032" version="4" timestamp="2010-12-17T10:45:27Z" uid="13114" user="nijel" changeset="6685346">
    <nd ref="65281344"/>
    <nd ref="29820810"/>
    <nd ref="822673507"/>
    <nd ref="65281342"/>
    <nd ref="265745801"/>
    <nd ref="26509900"/>
    <nd ref="265745281"/>
    <nd ref="29820802"/>
    <tag k="highway" v="tertiary"/>
    <tag k="name" v="Novopetrovická"/>
  </way>
  <way id="32863032" version="5" timestamp="2011-09-30T02:49:31Z" uid="527259" user="Vratislav Filler" changeset="9432139">
    <nd ref="65281344"/>
    <nd ref="29820810"/>
    <nd ref="822673507"/>
    <nd ref="65281342"/>
    <nd ref="265745801"/>
    <nd ref="26509900"/>
    <nd ref="265745281"/>
    <nd ref="29820802"/>
    <tag k="highway" v="secondary"/>
    <tag k="name" v="Novopetrovická"/>
  </way>
  <way id="32863034" version="2" timestamp="2009-09-01T00:27:38Z" uid="23543" user="jkjk" changeset="2332611">
    <nd ref="27109624"/>
    <nd ref="8811410"/>
    <nd ref="311118230"/>
    <tag k="highway" v="residential"/>
    <tag k="kct_green" v="yes"/>
    <tag k="kct_red" v="yes"/>
    <tag k="name" v="nám. Protifašistických bojovníků"/>
  </way>
  <way id="32863034" version="3" timestamp="2009-09-09T21:38:57Z" uid="17615" user="Petr Dlouhý" changeset="2430703">
    <nd ref="27109624"/>
    <nd ref="8811410"/>
    <nd ref="311118230"/>
    <tag k="highway" v="residential"/>
    <tag k="name" v="nám. Protifašistických bojovníků"/>
  </way>
  <way id="32863034" version="4" timestamp="2011-09-05T19:42:37Z" uid="17615" user="Petr Dlouhý" changeset="9221322">
    <nd ref="27109624"/>
    <nd ref="1424387416"/>
    <nd ref="8811410"/>
    <nd ref="311118230"/>
    <tag k="highway" v="residential"/>
    <tag k="name" v="nám. Protifašistických bojovníků"/>
  </way>
  <way id="32863035" version="5" timestamp="2009-09-01T00:27:49Z" uid="23543" user="jkjk" changeset="2332611">
    <nd ref="7080847"/>
    <nd ref="7080844"/>
    <nd ref="412271504"/>
    <nd ref="355906082"/>
    <nd ref="412344499"/>
    <nd ref="344247186"/>
    <tag k="highway" v="primary"/>
    <tag k="name" v="Přátelství"/>
    <tag k="note" v="Hlavní cesta Praha - Říčany"/>
    <tag k="ref" v="2"/>
    <tag k="source:ref" v="survey"/>
  </way>
  <way id="32863035" version="6" timestamp="2010-11-14T23:18:04Z" uid="8007" user="vrabcak" changeset="6372013">
    <nd ref="7080847"/>
    <nd ref="7080844"/>
    <nd ref="344249018"/>
    <nd ref="412271504"/>
    <nd ref="355906082"/>
    <nd ref="412344499"/>
    <nd ref="344247186"/>
    <tag k="highway" v="primary"/>
    <tag k="name" v="Přátelství"/>
    <tag k="note" v="Hlavní cesta Praha - Říčany"/>
    <tag k="ref" v="2"/>
    <tag k="source:ref" v="survey"/>
  </way>
  <way id="32863035" version="7" timestamp="2011-02-24T11:26:20Z" uid="25867" user="adamos" changeset="7380620">
    <nd ref="7080847"/>
    <nd ref="1169894068"/>
    <nd ref="7080844"/>
    <nd ref="344249018"/>
    <nd ref="412271504"/>
    <nd ref="355906082"/>
    <nd ref="412344499"/>
    <nd ref="344247186"/>
    <tag k="highway" v="primary"/>
    <tag k="name" v="Přátelství"/>
    <tag k="note" v="Hlavní cesta Praha - Říčany"/>
    <tag k="ref" v="2"/>
    <tag k="source:ref" v="survey"/>
  </way>
  <way id="32863035" version="8" timestamp="2011-10-08T07:28:20Z" uid="527259" user="Vratislav Filler" changeset="9499792">
    <nd ref="7080847"/>
    <nd ref="1169894068"/>
    <nd ref="7080844"/>
    <nd ref="344249018"/>
    <nd ref="412271504"/>
    <nd ref="355906082"/>
    <nd ref="1458467432"/>
    <nd ref="412344499"/>
    <nd ref="344247186"/>
    <tag k="highway" v="primary"/>
    <tag k="name" v="Přátelství"/>
    <tag k="note" v="Hlavní cesta Praha - Říčany"/>
    <tag k="ref" v="2"/>
    <tag k="source:ref" v="survey"/>
  </way>
  <way id="32863035" version="9" timestamp="2011-10-08T17:35:42Z" uid="527259" user="Vratislav Filler" changeset="9504913">
    <nd ref="7080847"/>
    <nd ref="1169894068"/>
    <nd ref="7080844"/>
    <nd ref="344249018"/>
    <nd ref="412271504"/>
    <nd ref="1459107060"/>
    <nd ref="355906082"/>
    <nd ref="1458467432"/>
    <nd ref="412344499"/>
    <nd ref="344247186"/>
    <tag k="highway" v="primary"/>
    <tag k="name" v="Přátelství"/>
    <tag k="note" v="Hlavní cesta Praha - Říčany"/>
    <tag k="ref" v="2"/>
    <tag k="source:ref" v="survey"/>
  </way>
  <way id="32863035" version="10" timestamp="2011-12-12T22:26:44Z" uid="507276" user="FuckOSMFandODbL" changeset="10103763">
    <nd ref="7080847"/>
    <nd ref="1169894068"/>
    <nd ref="7080844"/>
    <nd ref="344249018"/>
    <nd ref="412271504"/>
    <nd ref="1459107060"/>
    <nd ref="355906082"/>
    <tag k="highway" v="primary"/>
    <tag k="name" v="Přátelství"/>
    <tag k="note" v="Hlavní cesta Praha - Říčany"/>
    <tag k="ref" v="2"/>
    <tag k="source:ref" v="survey"/>
  </way>
  <way id="32863144" version="4" timestamp="2010-06-29T19:17:48Z" uid="74617" user="JohnSmith" changeset="5108182">
    <nd ref="370184679"/>
    <nd ref="370184680"/>
    <nd ref="370184682"/>
    <nd ref="370184683"/>
    <nd ref="370184685"/>
    <nd ref="370184686"/>
    <nd ref="370184679"/>
    <tag k="fixme" v="sport=football is ambiguous, see http://wiki.osm.org/wiki/Football for more details"/>
    <tag k="leisure" v="pitch"/>
    <tag k="sport" v="football"/>
  </way>
  <way id="32863295" version="2" timestamp="2010-04-05T15:53:27Z" uid="20587" user="balrog-kun" changeset="4334369">
    <nd ref="176560049"/>
    <nd ref="176560051"/>
    <tag k="highway" v="residential"/>
    <tag k="name" v="15th Street"/>
    <tag k="tiger:cfcc" v="A49"/>
    <tag k="tiger:county" v="Clear Creek, CO"/>
    <tag k="tiger:name_base" v="15th"/>
    <tag k="tiger:name_type" v="St"/>
    <tag k="tiger:reviewed" v="no"/>
    <tag k="tiger:source" v="tiger_import_dch_v0.6_20070809"/>
    <tag k="tiger:tlid" v="179828437"/>
  </way>
  <way id="32863296" version="2" timestamp="2010-04-05T15:53:27Z" uid="20587" user="balrog-kun" changeset="4334369">
    <nd ref="176560041"/>
    <nd ref="176560049"/>
    <tag k="bridge" v="yes"/>
    <tag k="highway" v="residential"/>
    <tag k="layer" v="1"/>
    <tag k="name" v="15th Street"/>
    <tag k="tiger:cfcc" v="A49"/>
    <tag k="tiger:county" v="Clear Creek, CO"/>
    <tag k="tiger:name_base" v="15th"/>
    <tag k="tiger:name_type" v="St"/>
    <tag k="tiger:reviewed" v="no"/>
    <tag k="tiger:source" v="tiger_import_dch_v0.6_20070809"/>
    <tag k="tiger:tlid" v="179828437"/>
  </way>
  <way id="32863448" version="3" timestamp="2009-11-10T15:43:32Z" uid="23543" user="jkjk" changeset="3082914">
    <nd ref="31563950"/>
    <nd ref="21312351"/>
    <tag k="highway" v="motorway"/>
    <tag k="lanes" v="2"/>
    <tag k="maxspeed" v="130"/>
    <tag k="oneway" v="yes"/>
    <tag k="ref" v="D5"/>
  </way>
  <way id="32863448" version="4" timestamp="2011-06-11T12:25:27Z" uid="30077" user="ChristianW" changeset="8405334">
    <nd ref="31563950"/>
    <nd ref="21312351"/>
    <tag k="highway" v="motorway"/>
    <tag k="lanes" v="2"/>
    <tag k="maxspeed" v="130"/>
    <tag k="note:reg_name" v="reg_name je převzat z Wikipedie příslušný článek."/>
    <tag k="oneway" v="yes"/>
    <tag k="ref" v="D5"/>
    <tag k="reg_name" v="Via Carolina"/>
    <tag k="wikipedia:reg_name" v="Dálnice D5"/>
  </way>
  <way id="32863448" version="5" timestamp="2011-09-13T13:33:00Z" uid="248441" user="Jandrs" changeset="9289638">
    <nd ref="31563950"/>
    <nd ref="21312351"/>
    <tag k="highway" v="trunk"/>
    <tag k="lanes" v="2"/>
    <tag k="maxspeed" v="130"/>
    <tag k="motorroad" v="yes"/>
    <tag k="note:reg_name" v="reg_name je převzat z Wikipedie příslušný článek."/>
    <tag k="oneway" v="yes"/>
    <tag k="ref" v="5"/>
    <tag k="reg_name" v="Via Carolina"/>
    <tag k="wikipedia:reg_name" v="Dálnice D5"/>
  </way>
  <way id="32863448" version="6" timestamp="2011-12-20T19:10:02Z" uid="572321" user="L324" changeset="10165558">
    <nd ref="31563950"/>
    <nd ref="21312351"/>
    <tag k="highway" v="trunk"/>
    <tag k="lanes" v="2"/>
    <tag k="maxspeed" v="130"/>
    <tag k="motorroad" v="yes"/>
    <tag k="name" v="Rozvadovská spojka"/>
    <tag k="note:reg_name" v="reg_name je převzat z Wikipedie příslušný článek."/>
    <tag k="oneway" v="yes"/>
    <tag k="ref" v="R5"/>
    <tag k="reg_name" v="Via Carolina"/>
    <tag k="wikipedia:reg_name" v="Dálnice D5"/>
  </way>
  <way id="32863633" version="3" timestamp="2009-04-07T19:06:34Z" uid="6975" user="ulfl" changeset="298062">
    <nd ref="370189642"/>
    <nd ref="370189644"/>
    <nd ref="370189645"/>
    <nd ref="370189646"/>
    <nd ref="370189642"/>
    <tag k="building" v="yes"/>
    <tag k="name" v="Macy&apos;s"/>
    <tag k="shop" v="department_store"/>
  </way>
  <way id="32863633" version="4" timestamp="2009-05-29T21:00:56Z" uid="81497" user="RaffyO" changeset="1354383">
    <nd ref="370189642"/>
    <nd ref="370189644"/>
    <nd ref="412571274"/>
    <nd ref="412571275"/>
    <nd ref="370189645"/>
    <nd ref="370189646"/>
    <nd ref="370189642"/>
    <tag k="building" v="yes"/>
    <tag k="name" v="Macy&apos;s"/>
    <tag k="shop" v="department_store"/>
  </way>
  <way id="32863633" version="5" timestamp="2012-01-28T16:02:36Z" uid="236172" user="saikofish" changeset="10522232">
    <nd ref="370189642"/>
    <nd ref="370189644"/>
    <nd ref="412576420"/>
    <nd ref="412576160"/>
    <nd ref="412571274"/>
    <nd ref="412571275"/>
    <nd ref="412571285"/>
    <nd ref="412579267"/>
    <nd ref="370189645"/>
    <nd ref="370189646"/>
    <nd ref="370189642"/>
    <tag k="building" v="yes"/>
    <tag k="name" v="Macy&apos;s"/>
    <tag k="shop" v="department_store"/>
  </way>
  <way id="32863760" version="1" timestamp="2009-04-05T21:59:16Z" uid="36809" user="pfoten_weg_!_" changeset="246170">
    <nd ref="370190848"/>
    <nd ref="370190845"/>
    <nd ref="370190852"/>
    <nd ref="370190850"/>
    <nd ref="370190848"/>
    <tag k="building" v="yes"/>
    <tag k="created_by" v="RambaZamba"/>
    <tag k="name" v="Haus"/>
    <tag k="source" v="survey"/>
  </way>
  <way id="32863760" version="2" timestamp="2009-04-07T00:59:35Z" uid="36809" user="pfoten_weg_!_" changeset="301365"/>
  <way id="32863761" version="1" timestamp="2009-04-05T21:59:16Z" uid="36809" user="pfoten_weg_!_" changeset="246170">
    <nd ref="370190846"/>
    <nd ref="370190851"/>
    <nd ref="370190844"/>
    <nd ref="370190854"/>
    <nd ref="370190856"/>
    <nd ref="370190853"/>
    <nd ref="370190846"/>
    <tag k="amenity" v="biergarten"/>
    <tag k="created_by" v="RambaZamba"/>
    <tag k="landuse" v="recreation_ground"/>
    <tag k="name" v="Freie Gelände"/>
    <tag k="source" v="survey"/>
  </way>
  <way id="32863761" version="2" timestamp="2009-04-07T00:59:35Z" uid="36809" user="pfoten_weg_!_" changeset="301365"/>
  <way id="32863791" version="1" timestamp="2009-04-05T22:00:46Z" uid="30632" user="antblant" changeset="249231">
    <nd ref="361453986"/>
    <nd ref="370191246"/>
    <nd ref="370191247"/>
    <tag k="created_by" v="Potlatch 0.10f"/>
    <tag k="highway" v="footway"/>
  </way>
  <way id="32863791" version="2" timestamp="2009-04-05T22:00:51Z" uid="30632" user="antblant" changeset="249231">
    <nd ref="361453986"/>
    <nd ref="370191246"/>
    <nd ref="370191247"/>
    <tag k="created_by" v="Potlatch 0.10f"/>
    <tag k="highway" v="steps"/>
  </way>
  <way id="32863791" version="3" timestamp="2009-11-03T15:06:43Z" uid="36809" user="pfoten_weg_!_" changeset="3025069">
    <nd ref="361453986"/>
    <nd ref="370191246"/>
    <nd ref="370191247"/>
    <tag k="highway" v="steps"/>
  </way>
  <way id="32863815" version="2" timestamp="2010-03-28T01:41:43Z" uid="20587" user="balrog-kun" changeset="4250871">
    <nd ref="87461921"/>
    <nd ref="87461922"/>
    <nd ref="87461924"/>
    <tag k="created_by" v="Potlatch 0.10f"/>
    <tag k="highway" v="residential"/>
    <tag k="name" v="Olivene Court"/>
    <tag k="tiger:cfcc" v="A41"/>
    <tag k="tiger:county" v="El Dorado, CA"/>
    <tag k="tiger:name_base" v="Olivene"/>
    <tag k="tiger:name_type" v="Ct"/>
    <tag k="tiger:reviewed" v="no"/>
    <tag k="tiger:separated" v="no"/>
    <tag k="tiger:source" v="tiger_import_dch_v0.6_20070809"/>
    <tag k="tiger:tlid" v="133069427"/>
  </way>
  <way id="32863839" version="3" timestamp="2010-03-28T01:41:44Z" uid="20587" user="balrog-kun" changeset="4250871">
    <nd ref="65435567"/>
    <nd ref="65574518"/>
    <nd ref="65553430"/>
    <nd ref="65512116"/>
    <nd ref="65574521"/>
    <tag k="created_by" v="Potlatch 0.10f"/>
    <tag k="highway" v="residential"/>
    <tag k="name" v="Post Street"/>
    <tag k="tiger:cfcc" v="A41"/>
    <tag k="tiger:county" v="Santa Clara, CA"/>
    <tag k="tiger:name_base" v="Post"/>
    <tag k="tiger:name_type" v="St"/>
    <tag k="tiger:separated" v="no"/>
    <tag k="tiger:source" v="tiger_import_dch_v0.6_20070809"/>
    <tag k="tiger:tlid" v="122907836:122907838:122907847:122907849:122907855"/>
    <tag k="tiger:zip_left" v="95113"/>
    <tag k="tiger:zip_right" v="95113"/>
  </way>
  <way id="32863028" version="4" timestamp="2012-07-24T11:26:15Z" uid="722137" user="OSMF Redaction Account" changeset="12464256">
    <nd ref="223476160"/>
    <nd ref="246688639"/>
    <nd ref="246688641"/>
    <nd ref="360208418"/>
    <tag k="highway" v="residential"/>
    <tag k="name" v="Novomeského"/>
    <tag k="source" v="cuzk:km;uhul:ortofoto"/>
  </way>
  <way id="32863029" version="5" timestamp="2012-06-09T20:18:45Z" uid="507276" user="FuckOSMFandODbL" changeset="11848695">
    <nd ref="370183303"/>
    <nd ref="370183308"/>
    <nd ref="536744928"/>
    <nd ref="536744959"/>
    <nd ref="370183309"/>
    <nd ref="1781915282"/>
    <nd ref="246685736"/>
    <tag k="highway" v="track"/>
    <tag k="motorcar" v="no"/>
    <tag k="motorcycle" v="no"/>
  </way>
  <way id="32863029" version="6" timestamp="2012-07-24T11:26:41Z" uid="722137" user="OSMF Redaction Account" changeset="12464256">
    <nd ref="370183303"/>
    <nd ref="370183308"/>
    <nd ref="370183309"/>
    <nd ref="1781915282"/>
    <nd ref="246685736"/>
    <tag k="highway" v="track"/>
  </way>
  <way id="32863029" version="7" timestamp="2012-07-25T09:51:28Z" uid="527259" user="Vratislav Filler" changeset="12484367">
    <nd ref="370183303"/>
    <nd ref="370183308"/>
    <tag k="highway" v="footway"/>
    <tag k="surface" v="asphalt"/>
  </way>
  <way id="32863030" version="5" timestamp="2012-06-09T20:18:42Z" uid="507276" user="FuckOSMFandODbL" changeset="11848695">
    <nd ref="370183303"/>
    <nd ref="246688625"/>
    <nd ref="539142414"/>
    <nd ref="673419662"/>
    <nd ref="246688621"/>
    <nd ref="1781915228"/>
    <nd ref="542896911"/>
    <nd ref="246688637"/>
    <nd ref="1781915192"/>
    <nd ref="223476160"/>
    <tag k="highway" v="residential"/>
    <tag k="name" v="Stříbrského"/>
  </way>
  <way id="32863030" version="6" timestamp="2012-07-24T11:26:14Z" uid="722137" user="OSMF Redaction Account" changeset="12464256">
    <nd ref="370183303"/>
    <nd ref="246688625"/>
    <nd ref="539142414"/>
    <nd ref="246688621"/>
    <nd ref="1781915228"/>
    <nd ref="246688637"/>
    <nd ref="1781915192"/>
    <nd ref="223476160"/>
    <tag k="highway" v="residential"/>
    <tag k="name" v="Stříbrského"/>
  </way>
  <way id="32863031" version="6" timestamp="2012-07-24T11:27:27Z" uid="722137" user="OSMF Redaction Account" changeset="12464256">
    <nd ref="8811030"/>
    <nd ref="1288839620"/>
    <nd ref="246685715"/>
    <nd ref="8811029"/>
    <nd ref="246685714"/>
    <nd ref="223474409"/>
    <nd ref="1557312010"/>
    <nd ref="703441"/>
    <tag k="highway" v="secondary"/>
    <tag k="name" v="Výstavní"/>
  </way>
  <way id="32863031" version="7" timestamp="2012-07-24T19:56:06Z" uid="527259" user="Vratislav Filler" changeset="12475155">
    <nd ref="8811030"/>
    <nd ref="1288839620"/>
    <nd ref="246685715"/>
    <nd ref="8811029"/>
    <nd ref="246685714"/>
    <nd ref="477021470"/>
    <nd ref="223474409"/>
    <nd ref="1557312010"/>
    <nd ref="703441"/>
    <tag k="highway" v="secondary"/>
    <tag k="name" v="Výstavní"/>
  </way>
  <way id="32863035" version="11" timestamp="2012-04-30T08:45:14Z" uid="305367" user="Tomas Pajonk" changeset="11457460">
    <nd ref="7080847"/>
    <nd ref="1169894068"/>
    <nd ref="7080844"/>
    <nd ref="344249018"/>
    <nd ref="412271504"/>
    <nd ref="1459107060"/>
    <nd ref="355906082"/>
    <tag k="highway" v="primary"/>
    <tag k="maxspeed" v="50"/>
    <tag k="name" v="Přátelství"/>
    <tag k="note" v="Hlavní cesta Praha - Říčany"/>
    <tag k="ref" v="2"/>
    <tag k="source:ref" v="survey"/>
  </way>
  <way id="32863144" version="5" timestamp="2012-07-18T17:25:25Z" uid="722137" user="OSMF Redaction Account" changeset="12290479">
    <nd ref="370184679"/>
    <nd ref="370184680"/>
    <nd ref="370184682"/>
    <nd ref="370184683"/>
    <nd ref="370184685"/>
    <nd ref="370184686"/>
    <nd ref="370184679"/>
    <tag k="leisure" v="pitch"/>
    <tag k="sport" v="football"/>
  </way>
  <way id="32863448" version="7" timestamp="2012-05-23T14:37:16Z" uid="26974" user="master" changeset="11681336">
    <nd ref="31563950"/>
    <nd ref="21312351"/>
    <tag k="highway" v="trunk"/>
    <tag k="lanes" v="2"/>
    <tag k="maxspeed" v="130"/>
    <tag k="motorroad" v="yes"/>
    <tag k="name" v="Rozvadovská spojka"/>
    <tag k="note:reg_name" v="reg_name je převzat z Wikipedie příslušný článek."/>
    <tag k="oneway" v="yes"/>
    <tag k="ref" v="R5"/>
    <tag k="reg_name" v="Via Carolina"/>
    <tag k="wikipedia:cs" v="Dálnice D5"/>
  </way>
  <way id="32863448" version="8" timestamp="2012-07-20T20:59:14Z" uid="10353" user="gorn" changeset="12391498">
    <nd ref="31563950"/>
    <nd ref="21312351"/>
    <tag k="highway" v="trunk"/>
    <tag k="lanes" v="2"/>
    <tag k="maxspeed" v="130"/>
    <tag k="motorroad" v="yes"/>
    <tag k="name" v="Rozvadovská spojka"/>
    <tag k="note:reg_name" v="reg_name je převzat z Wikipedie příslušný článek."/>
    <tag k="oneway" v="yes"/>
    <tag k="ref" v="5"/>
    <tag k="reg_name" v="Via Carolina"/>
    <tag k="source:ref" v="rsd_cr"/>
    <tag k="wikipedia:cs" v="Dálnice D5"/>
  </way>
  <way id="32863633" version="6" timestamp="2012-05-02T04:50:24Z" uid="236172" user="saikofish" changeset="11476121">
    <nd ref="370189642"/>
    <nd ref="370189644"/>
    <nd ref="412576420"/>
    <nd ref="412576160"/>
    <nd ref="412571274"/>
    <nd ref="412571275"/>
    <nd ref="412571285"/>
    <nd ref="412579267"/>
    <nd ref="370189645"/>
    <nd ref="370189646"/>
    <nd ref="370189642"/>
    <tag k="addr:housenumber" v="251-281"/>
    <tag k="addr:street" v="Geary Street"/>
    <tag k="building" v="yes"/>
    <tag k="name" v="Macy&apos;s"/>
    <tag k="shop" v="department_store"/>
    <tag k="year_start" v="1910"/>
  </way>
  <way id="32863633" version="7" timestamp="2012-09-05T16:00:52Z" uid="1679" user="andrewpmk" changeset="12998050">
    <nd ref="370189642"/>
    <nd ref="370189644"/>
    <nd ref="412576420"/>
    <nd ref="412576160"/>
    <nd ref="412571274"/>
    <nd ref="412571275"/>
    <nd ref="412571285"/>
    <nd ref="412579267"/>
    <nd ref="370189645"/>
    <nd ref="370189646"/>
    <nd ref="370189642"/>
    <tag k="addr:housenumber" v="251-281"/>
    <tag k="addr:street" v="Geary Street"/>
    <tag k="building" v="retail"/>
    <tag k="name" v="Macy&apos;s"/>
    <tag k="shop" v="department_store"/>
    <tag k="year_start" v="1910"/>
  </way>
</osm>
