<?xml version='1.0' encoding='UTF-8'?>
<osm version="0.6" generator="libosmium/2.20.0">
  <way id="32918049" version="2" timestamp="2010-04-05T15:53:31Z" uid="20587" user="balrog-kun" changeset="4334369">
    <nd ref="370702078"/>
    <nd ref="370702074"/>
    <tag k="bridge" v="yes"/>
    <tag k="highway" v="residential"/>
    <tag k="layer" v="1"/>
    <tag k="name" v="Rainbow Hill Road"/>
    <tag k="tiger:cfcc" v="A41"/>
    <tag k="tiger:county" v="Jefferson, CO"/>
    <tag k="tiger:name_base" v="Rainbow Hill"/>
    <tag k="tiger:name_type" v="Rd"/>
    <tag k="tiger:reviewed" v="no"/>
    <tag k="tiger:separated" v="no"/>
    <tag k="tiger:source" v="tiger_import_dch_v0.6_20070809"/>
    <tag k="tiger:tlid" v="177758109:177394750:177394754:177394764:177388250:177394760:177388253:177274843:177732253:177274850:177383591:177274912:177753705:177753703:177753707"/>
    <tag k="tiger:zip_left" v="80401"/>
    <tag k="tiger:zip_right" v="80401"/>
  </way>
  <way id="32918051" version="2" timestamp="2010-04-05T15:53:32Z" uid="20587" user="balrog-kun" changeset="4334369">
    <nd ref="370702074"/>
    <nd ref="177241812"/>
    <nd ref="177276397"/>
    <nd ref="370699825"/>
    <nd ref="177239750"/>
    <nd ref="177276403"/>
    <nd ref="177243427"/>
    <nd ref="177239992"/>
    <nd ref="177238525"/>
    <nd ref="177276405"/>
    <nd ref="177255796"/>
    <nd ref="177276407"/>
    <nd ref="177276409"/>
    <nd ref="177234674"/>
    <nd ref="177234642"/>
    <nd ref="177238540"/>
    <nd ref="177255803"/>
    <nd ref="177276411"/>
    <nd ref="177276413"/>
    <nd ref="177276414"/>
    <tag k="highway" v="residential"/>
    <tag k="name" v="Rainbow Hill Road"/>
    <tag k="tiger:cfcc" v="A41"/>
    <tag k="tiger:county" v="Jefferson, CO"/>
    <tag k="tiger:name_base" v="Rainbow Hill"/>
    <tag k="tiger:name_type" v="Rd"/>
    <tag k="tiger:reviewed" v="no"/>
    <tag k="tiger:separated" v="no"/>
    <tag k="tiger:source" v="tiger_import_dch_v0.6_20070809"/>
    <tag k="tiger:tlid" v="177758109:177394750:177394754:177394764:177388250:177394760:177388253:177274843:177732253:177274850:177383591:177274912:177753705:177753703:177753707"/>
    <tag k="tiger:zip_left" v="80401"/>
    <tag k="tiger:zip_right" v="80401"/>
  </way>
  <way id="32918051" version="3" timestamp="2011-06-18T16:36:44Z" uid="97369" user="fcrump" changeset="8475195">
    <nd ref="370702074"/>
    <nd ref="177241812"/>
    <nd ref="177276397"/>
    <nd ref="370699825"/>
    <nd ref="177239750"/>
    <nd ref="177276403"/>
    <nd ref="177243427"/>
    <nd ref="177239992"/>
    <nd ref="1329789157"/>
    <nd ref="1329789161"/>
    <nd ref="1329789156"/>
    <nd ref="1329789155"/>
    <nd ref="1329789159"/>
    <nd ref="177238525"/>
    <nd ref="177276405"/>
    <nd ref="177255796"/>
    <nd ref="177276407"/>
    <nd ref="177276409"/>
    <nd ref="177234674"/>
    <nd ref="177234642"/>
    <nd ref="177238540"/>
    <nd ref="177255803"/>
    <nd ref="177276411"/>
    <nd ref="177276413"/>
    <nd ref="177276414"/>
    <tag k="highway" v="residential"/>
    <tag k="name" v="Rainbow Hill Road"/>
    <tag k="tiger:cfcc" v="A41"/>
    <tag k="tiger:county" v="Jefferson, CO"/>
    <tag k="tiger:name_base" v="Rainbow Hill"/>
    <tag k="tiger:name_type" v="Rd"/>
    <tag k="tiger:reviewed" v="no"/>
    <tag k="tiger:separated" v="no"/>
    <tag k="tiger:source" v="tiger_import_dch_v0.6_20070809"/>
    <tag k="tiger:tlid" v="177758109:177394750:177394754:177394764:177388250:177394760:177388253:177274843:177732253:177274850:177383591:177274912:177753705:177753703:177753707"/>
    <tag k="tiger:zip_left" v="80401"/>
    <tag k="tiger:zip_right" v="80401"/>
  </way>
  <way id="32918052" version="2" timestamp="2010-04-05T15:53:32Z" uid="20587" user="balrog-kun" changeset="4334369">
    <nd ref="177373443"/>
    <nd ref="177373445"/>
    <nd ref="177372102"/>
    <nd ref="177373430"/>
    <tag k="highway" v="residential"/>
    <tag k="name" v="Swede Gulch Road"/>
    <tag k="tiger:cfcc" v="A41"/>
    <tag k="tiger:county" v="Jefferson, CO"/>
    <tag k="tiger:name_base" v="Swede Gulch"/>
    <tag k="tiger:name_type" v="Rd"/>
    <tag k="tiger:reviewed" v="no"/>
    <tag k="tiger:separated" v="no"/>
    <tag k="tiger:source" v="tiger_import_dch_v0.6_20070809"/>
    <tag k="tiger:tlid" v="177744344:177759974:177735254"/>
    <tag k="tiger:zip_left" v="80401"/>
    <tag k="tiger:zip_right" v="80401"/>
  </way>
  <way id="32918167" version="2" timestamp="2009-04-22T21:28:02Z" uid="26515" user="Simon Ward" changeset="907696">
    <nd ref="370703230"/>
    <nd ref="370703228"/>
    <nd ref="369775674"/>
    <nd ref="369775680"/>
    <nd ref="381535174"/>
    <tag k="created_by" v="JOSM"/>
    <tag k="highway" v="primary"/>
    <tag k="name" v="Bromford Road"/>
    <tag k="ref" v="A4043"/>
  </way>
  <way id="32918167" version="3" timestamp="2011-07-07T19:10:52Z" uid="460951" user="tompople" changeset="8660200">
    <nd ref="370703230"/>
    <nd ref="370703228"/>
    <nd ref="1352857304"/>
    <nd ref="369775674"/>
    <nd ref="369775680"/>
    <nd ref="381535174"/>
    <tag k="highway" v="primary"/>
    <tag k="name" v="Bromford Road"/>
    <tag k="ref" v="A4043"/>
  </way>
  <way id="32918167" version="4" timestamp="2011-11-08T16:24:11Z" uid="121664" user="fingerpuppet" changeset="9774552">
    <nd ref="370703230"/>
    <nd ref="370703228"/>
    <nd ref="1352857304"/>
    <nd ref="369775674"/>
    <nd ref="369775680"/>
    <nd ref="381535174"/>
    <tag k="highway" v="primary"/>
    <tag k="name" v="Bromford Road"/>
    <tag k="ref" v="A4034"/>
  </way>
  <way id="32918167" version="5" timestamp="2011-11-12T14:15:09Z" uid="105474" user="Miked29" changeset="9804707">
    <nd ref="370703230"/>
    <nd ref="370703228"/>
    <nd ref="1352857304"/>
    <nd ref="369775674"/>
    <nd ref="369775680"/>
    <nd ref="381535174"/>
    <tag k="gritting" v="priority_1"/>
    <tag k="gritting_operator" v="Sandwell MBC"/>
    <tag k="gritting_route_ref" v="5"/>
    <tag k="highway" v="primary"/>
    <tag k="maintenance" v="gritting"/>
    <tag k="name" v="Bromford Road"/>
    <tag k="ref" v="A4034"/>
  </way>
  <way id="32918167" version="6" timestamp="2011-12-09T16:04:10Z" uid="9065" user="brianboru" changeset="10074081">
    <nd ref="370703230"/>
    <nd ref="370703228"/>
    <nd ref="369775674"/>
    <nd ref="369775680"/>
    <nd ref="381535174"/>
    <tag k="gritting" v="priority_1"/>
    <tag k="gritting_operator" v="Sandwell MBC"/>
    <tag k="gritting_route_ref" v="5"/>
    <tag k="highway" v="primary"/>
    <tag k="maintenance" v="gritting"/>
    <tag k="name" v="Bromford Road"/>
    <tag k="ref" v="A4034"/>
  </way>
  <way id="32918169" version="2" timestamp="2009-04-26T01:07:25Z" uid="26515" user="Simon Ward" changeset="965360">
    <nd ref="370703243"/>
    <nd ref="370703244"/>
    <nd ref="370703246"/>
    <nd ref="370703248"/>
    <nd ref="370703250"/>
    <nd ref="370703252"/>
    <nd ref="370703254"/>
    <tag k="abutters" v="industrial"/>
    <tag k="highway" v="unclassified"/>
    <tag k="lit" v="yes"/>
    <tag k="name" v="Oldbury Road Industrial Estate"/>
    <tag k="noexit" v="yes"/>
    <tag k="source" v="survey"/>
    <tag k="surface" v="paved"/>
  </way>
  <way id="32918281" version="3" timestamp="2010-07-06T11:57:02Z" uid="43863" user="Rundling" changeset="5149884">
    <nd ref="292010230"/>
    <nd ref="370704484"/>
    <nd ref="370704486"/>
    <nd ref="370704487"/>
    <nd ref="370704489"/>
    <nd ref="370704491"/>
    <nd ref="370704492"/>
    <nd ref="791710398"/>
    <nd ref="370704494"/>
    <nd ref="370704495"/>
    <nd ref="370704497"/>
    <nd ref="370704501"/>
    <nd ref="370704503"/>
    <nd ref="370704504"/>
    <nd ref="370704508"/>
    <nd ref="370704510"/>
    <nd ref="370704511"/>
    <nd ref="284768032"/>
    <tag k="highway" v="track"/>
    <tag k="surface" v="gravel"/>
    <tag k="tracktype" v="grade2"/>
  </way>
  <way id="32918281" version="4" timestamp="2011-03-28T23:07:06Z" uid="391611" user="Syncronius" changeset="7702495">
    <nd ref="292010230"/>
    <nd ref="370704484"/>
    <nd ref="1223810670"/>
    <nd ref="370704486"/>
    <nd ref="370704487"/>
    <nd ref="370704489"/>
    <nd ref="370704491"/>
    <nd ref="370704492"/>
    <nd ref="791710398"/>
    <nd ref="370704494"/>
    <nd ref="370704495"/>
    <nd ref="370704497"/>
    <nd ref="370704501"/>
    <nd ref="370704503"/>
    <nd ref="370704504"/>
    <nd ref="370704508"/>
    <nd ref="370704510"/>
    <nd ref="370704511"/>
    <nd ref="284768032"/>
    <tag k="highway" v="track"/>
    <tag k="surface" v="gravel"/>
    <tag k="tracktype" v="grade2"/>
  </way>
  <way id="32918281" version="5" timestamp="2011-06-22T20:33:54Z" uid="174247" user="mmki" changeset="8518065">
    <nd ref="292010230"/>
    <nd ref="370704484"/>
    <nd ref="1223810670"/>
    <nd ref="370704486"/>
    <nd ref="370704487"/>
    <nd ref="370704489"/>
    <nd ref="370704491"/>
    <nd ref="370704492"/>
    <nd ref="791710398"/>
    <nd ref="370704494"/>
    <nd ref="370704495"/>
    <nd ref="370704497"/>
    <nd ref="370704501"/>
    <nd ref="370704503"/>
    <nd ref="370704504"/>
    <nd ref="370704508"/>
    <nd ref="370704510"/>
    <nd ref="370704511"/>
    <nd ref="1334893732"/>
    <nd ref="1334893783"/>
    <nd ref="1334893661"/>
    <nd ref="284768032"/>
    <tag k="highway" v="track"/>
    <tag k="surface" v="gravel"/>
    <tag k="tracktype" v="grade2"/>
  </way>
  <way id="32918288" version="1" timestamp="2009-04-07T23:43:33Z" uid="99207" user="Lar Kiesel" changeset="321012">
    <nd ref="370704524"/>
    <nd ref="370704550"/>
    <nd ref="370704553"/>
    <nd ref="370704557"/>
    <nd ref="370704560"/>
    <nd ref="370704563"/>
    <nd ref="370704567"/>
    <nd ref="370704570"/>
    <nd ref="370704573"/>
    <nd ref="370704575"/>
    <nd ref="370704576"/>
    <nd ref="370704604"/>
    <nd ref="370704577"/>
    <nd ref="370704581"/>
    <nd ref="370704582"/>
    <nd ref="370704482"/>
    <tag k="highway" v="residential"/>
    <tag k="name" v="Harmon Creek Dr"/>
  </way>
  <way id="32918288" version="2" timestamp="2009-10-31T01:19:26Z" uid="99207" user="Lar Kiesel" changeset="2994497">
    <nd ref="370704524"/>
    <nd ref="370704550"/>
    <nd ref="370704553"/>
    <nd ref="370704557"/>
    <nd ref="370704560"/>
    <nd ref="370704563"/>
    <nd ref="370704567"/>
    <nd ref="370704570"/>
    <nd ref="370704573"/>
    <nd ref="370704575"/>
    <nd ref="370704604"/>
    <nd ref="370704577"/>
    <nd ref="370704581"/>
    <nd ref="370704582"/>
    <nd ref="370704482"/>
    <tag k="highway" v="residential"/>
    <tag k="name" v="Harmon Creek Dr"/>
  </way>
  <way id="32918288" version="3" timestamp="2011-05-12T18:39:05Z" uid="84873" user="tigers" changeset="8125039">
    <nd ref="370704520"/>
    <nd ref="370704553"/>
    <nd ref="370704557"/>
    <nd ref="370704560"/>
    <nd ref="370704563"/>
    <nd ref="370704567"/>
    <nd ref="370704570"/>
    <nd ref="370704573"/>
    <nd ref="370704575"/>
    <nd ref="370704604"/>
    <nd ref="370704577"/>
    <nd ref="370704581"/>
    <nd ref="370704582"/>
    <nd ref="370704482"/>
    <tag k="highway" v="residential"/>
    <tag k="name" v="Harmon Creek Dr"/>
  </way>
  <way id="32918289" version="1" timestamp="2009-04-07T23:43:34Z" uid="99207" user="Lar Kiesel" changeset="321012">
    <nd ref="370704583"/>
    <nd ref="370704584"/>
    <nd ref="370704586"/>
    <nd ref="370704587"/>
    <nd ref="370704588"/>
    <nd ref="370704590"/>
    <nd ref="370704591"/>
    <nd ref="370704557"/>
    <tag k="highway" v="residential"/>
    <tag k="name" v="Harmon Creek Ct"/>
  </way>
  <way id="32918290" version="1" timestamp="2009-04-07T23:43:35Z" uid="99207" user="Lar Kiesel" changeset="321012">
    <nd ref="370704592"/>
    <nd ref="370704593"/>
    <nd ref="370704594"/>
    <nd ref="370704595"/>
    <nd ref="370704596"/>
    <nd ref="370704597"/>
    <nd ref="370704598"/>
    <nd ref="370704563"/>
    <tag k="highway" v="residential"/>
    <tag k="name" v="Cregar Ct"/>
  </way>
  <way id="32918291" version="1" timestamp="2009-04-07T23:43:36Z" uid="99207" user="Lar Kiesel" changeset="321012">
    <nd ref="370704602"/>
    <nd ref="370704603"/>
    <nd ref="370704604"/>
    <tag k="highway" v="residential"/>
    <tag k="name" v="Hallbick Ct"/>
  </way>
  <way id="32918292" version="1" timestamp="2009-04-07T23:43:36Z" uid="99207" user="Lar Kiesel" changeset="321012">
    <nd ref="370704605"/>
    <nd ref="370704606"/>
    <nd ref="370704607"/>
    <tag k="highway" v="residential"/>
    <tag k="name" v="Deweese Ct"/>
  </way>
  <way id="32918469" version="2" timestamp="2009-04-15T04:49:46Z" uid="6975" user="ulfl" changeset="553994">
    <nd ref="370705745"/>
    <nd ref="370705746"/>
    <nd ref="370705747"/>
    <nd ref="370705748"/>
    <nd ref="370705745"/>
    <tag k="building" v="yes"/>
  </way>
  <way id="32918498" version="1" timestamp="2009-04-08T00:06:05Z" uid="99207" user="Lar Kiesel" changeset="321012">
    <nd ref="370705898"/>
    <nd ref="370705899"/>
    <nd ref="370705900"/>
    <nd ref="370705901"/>
    <nd ref="370705902"/>
    <nd ref="370705903"/>
    <nd ref="370705904"/>
    <nd ref="370705905"/>
    <nd ref="370705906"/>
    <nd ref="370705911"/>
    <nd ref="370705907"/>
    <nd ref="370705908"/>
    <tag k="highway" v="residential"/>
    <tag k="name" v="Stoney Creek Ln"/>
  </way>
  <way id="32918499" version="1" timestamp="2009-04-08T00:06:05Z" uid="99207" user="Lar Kiesel" changeset="321012">
    <nd ref="370705909"/>
    <nd ref="370705910"/>
    <nd ref="370705911"/>
    <tag k="highway" v="residential"/>
    <tag k="name" v="Stoney Creek Ct"/>
  </way>
  <way id="32918501" version="1" timestamp="2009-04-08T00:06:06Z" uid="99207" user="Lar Kiesel" changeset="321012">
    <nd ref="370705912"/>
    <nd ref="370705913"/>
    <nd ref="370705914"/>
    <nd ref="370705915"/>
    <nd ref="370705916"/>
    <nd ref="370705917"/>
    <nd ref="370705918"/>
    <nd ref="370705920"/>
    <nd ref="370705927"/>
    <nd ref="370705932"/>
    <nd ref="370705903"/>
    <tag k="highway" v="residential"/>
    <tag k="name" v="Ridge Top Rd"/>
  </way>
  <way id="32918501" version="2" timestamp="2010-05-02T02:22:43Z" uid="99207" user="Lar Kiesel" changeset="4580860">
    <nd ref="370705912"/>
    <nd ref="370705913"/>
    <nd ref="370705914"/>
    <nd ref="370705915"/>
    <nd ref="370705916"/>
    <nd ref="370705917"/>
    <nd ref="716153668"/>
    <nd ref="370705918"/>
    <nd ref="716153676"/>
    <nd ref="370705920"/>
    <nd ref="716153682"/>
    <nd ref="370705927"/>
    <nd ref="370705932"/>
    <nd ref="370705903"/>
    <tag k="highway" v="residential"/>
    <tag k="name" v="Ridge Top Rd"/>
  </way>
  <way id="32918757" version="3" timestamp="2009-12-13T14:32:10Z" uid="4467" user="Rosscoe" changeset="3363305">
    <nd ref="588501214"/>
    <nd ref="370708113"/>
    <nd ref="370708114"/>
    <tag k="highway" v="unclassified"/>
    <tag k="name" v="Kororoit Street"/>
    <tag k="source" v="Yahoo"/>
    <tag k="source:name" v="survey"/>
  </way>
  <way id="32918758" version="3" timestamp="2009-12-13T14:32:09Z" uid="4467" user="Rosscoe" changeset="3363305">
    <nd ref="588501208"/>
    <nd ref="588501207"/>
    <nd ref="588501211"/>
    <nd ref="370708263"/>
    <nd ref="370708264"/>
    <tag k="highway" v="unclassified"/>
    <tag k="name" v="Whitely Parade"/>
    <tag k="source" v="Yahoo"/>
    <tag k="source:name" v="survey"/>
  </way>
  <way id="32918771" version="3" timestamp="2009-07-26T23:39:06Z" uid="4467" user="Rosscoe" changeset="1950604">
    <nd ref="253539094"/>
    <nd ref="370708342"/>
    <nd ref="370708343"/>
    <tag k="highway" v="unclassified"/>
    <tag k="name" v="Cromwell Parade"/>
    <tag k="source" v="Yahoo"/>
    <tag k="source:name" v="survey"/>
  </way>
  <way id="32918771" version="4" timestamp="2009-12-13T14:32:09Z" uid="4467" user="Rosscoe" changeset="3363305">
    <nd ref="588501204"/>
    <nd ref="370708342"/>
    <nd ref="370708343"/>
    <tag k="highway" v="unclassified"/>
    <tag k="name" v="Cromwell Parade"/>
    <tag k="source" v="nearmap"/>
    <tag k="source:name" v="survey"/>
  </way>
  <way id="32918799" version="3" timestamp="2009-12-13T14:32:10Z" uid="4467" user="Rosscoe" changeset="3363305">
    <nd ref="253539043"/>
    <nd ref="36022329"/>
    <nd ref="588501206"/>
    <nd ref="370708380"/>
    <nd ref="370708381"/>
    <tag k="highway" v="unclassified"/>
    <tag k="name" v="Mitford Parade"/>
    <tag k="source" v="nearmap"/>
    <tag k="source:name" v="survey"/>
  </way>
  <way id="32918838" version="2" timestamp="2009-12-13T13:09:43Z" uid="4467" user="Rosscoe" changeset="3362650">
    <nd ref="370708382"/>
    <nd ref="362905908"/>
    <nd ref="588465776"/>
    <tag k="highway" v="unclassified"/>
    <tag k="name" v="Tottenham Parade"/>
  </way>
  <way id="32918838" version="3" timestamp="2009-12-13T14:32:09Z" uid="4467" user="Rosscoe" changeset="3363305">
    <nd ref="588501201"/>
    <nd ref="362905908"/>
    <nd ref="588465776"/>
    <tag k="highway" v="unclassified"/>
    <tag k="name" v="Tottenham Parade"/>
    <tag k="source" v="nearmap"/>
  </way>
  <way id="32918892" version="2" timestamp="2009-12-13T14:32:14Z" uid="4467" user="Rosscoe" changeset="3363305">
    <nd ref="370708625"/>
    <nd ref="588501250"/>
    <nd ref="370708635"/>
    <tag k="highway" v="unclassified"/>
    <tag k="name" v="Lyell Street"/>
  </way>
  <way id="32918892" version="3" timestamp="2010-07-09T03:56:14Z" uid="74617" user="JohnSmith" changeset="5170838">
    <nd ref="370708625"/>
    <nd ref="588501250"/>
    <nd ref="370708635"/>
    <tag k="highway" v="unclassified"/>
    <tag k="maxspeed" v="50"/>
    <tag k="maxspeed:source" v="default residential speed limit in Australia"/>
    <tag k="name" v="Lyell Street"/>
  </way>
  <way id="32918892" version="4" timestamp="2012-01-18T18:13:49Z" uid="147510" user="woodpeck_fixbot" changeset="10429293">
    <nd ref="370708625"/>
    <nd ref="588501250"/>
    <nd ref="370708635"/>
    <tag k="highway" v="unclassified"/>
    <tag k="name" v="Lyell Street"/>
  </way>
  <way id="32918928" version="3" timestamp="2010-07-08T20:18:53Z" uid="74617" user="JohnSmith" changeset="5168730">
    <nd ref="370708990"/>
    <nd ref="380059945"/>
    <nd ref="370708991"/>
    <tag k="highway" v="residential"/>
    <tag k="maxspeed" v="50"/>
    <tag k="maxspeed:source" v="default residential speed limit in Australia"/>
    <tag k="name" v="Charles Street"/>
    <tag k="source" v="Yahoo"/>
    <tag k="source:name" v="survey"/>
  </way>
  <way id="32918928" version="4" timestamp="2012-01-18T18:13:50Z" uid="147510" user="woodpeck_fixbot" changeset="10429293">
    <nd ref="370708990"/>
    <nd ref="380059945"/>
    <nd ref="370708991"/>
    <tag k="highway" v="residential"/>
    <tag k="name" v="Charles Street"/>
    <tag k="source" v="Yahoo"/>
    <tag k="source:name" v="survey"/>
  </way>
  <way id="32918930" version="2" timestamp="2010-07-08T20:16:45Z" uid="74617" user="JohnSmith" changeset="5168730">
    <nd ref="370709000"/>
    <nd ref="370709011"/>
    <tag k="highway" v="residential"/>
    <tag k="maxspeed" v="50"/>
    <tag k="maxspeed:source" v="default residential speed limit in Australia"/>
    <tag k="name" v="Union Street"/>
    <tag k="oneway" v="yes"/>
    <tag k="source" v="Yahoo"/>
    <tag k="source:name" v="survey"/>
  </way>
  <way id="32918930" version="3" timestamp="2012-01-18T18:13:52Z" uid="147510" user="woodpeck_fixbot" changeset="10429293">
    <nd ref="370709000"/>
    <nd ref="370709011"/>
    <tag k="highway" v="residential"/>
    <tag k="name" v="Union Street"/>
    <tag k="oneway" v="yes"/>
    <tag k="source" v="Yahoo"/>
    <tag k="source:name" v="survey"/>
  </way>
  <way id="32918935" version="3" timestamp="2010-07-08T20:16:59Z" uid="74617" user="JohnSmith" changeset="5168730">
    <nd ref="370709030"/>
    <nd ref="370709018"/>
    <tag k="highway" v="residential"/>
    <tag k="maxspeed" v="50"/>
    <tag k="maxspeed:source" v="default residential speed limit in Australia"/>
    <tag k="name" v="Hotham Street"/>
    <tag k="oneway" v="yes"/>
    <tag k="source" v="Yahoo"/>
    <tag k="source:name" v="survey"/>
  </way>
  <way id="32918935" version="4" timestamp="2012-01-18T18:13:53Z" uid="147510" user="woodpeck_fixbot" changeset="10429293">
    <nd ref="370709030"/>
    <nd ref="370709018"/>
    <tag k="highway" v="residential"/>
    <tag k="name" v="Hotham Street"/>
    <tag k="oneway" v="yes"/>
    <tag k="source" v="Yahoo"/>
    <tag k="source:name" v="survey"/>
  </way>
  <way id="32918944" version="2" timestamp="2010-07-08T20:15:18Z" uid="74617" user="JohnSmith" changeset="5168730">
    <nd ref="370709094"/>
    <nd ref="370709102"/>
    <tag k="highway" v="residential"/>
    <tag k="maxspeed" v="50"/>
    <tag k="maxspeed:source" v="default residential speed limit in Australia"/>
    <tag k="name" v="St. Luke Street"/>
    <tag k="source" v="Yahoo"/>
    <tag k="source:name" v="survey"/>
  </way>
  <way id="32918944" version="3" timestamp="2012-01-18T18:13:55Z" uid="147510" user="woodpeck_fixbot" changeset="10429293">
    <nd ref="370709094"/>
    <nd ref="370709102"/>
    <tag k="highway" v="residential"/>
    <tag k="name" v="St. Luke Street"/>
    <tag k="source" v="Yahoo"/>
    <tag k="source:name" v="survey"/>
  </way>
  <way id="32918953" version="2" timestamp="2010-07-08T20:14:27Z" uid="74617" user="JohnSmith" changeset="5168730">
    <nd ref="370709115"/>
    <nd ref="370709150"/>
    <tag k="highway" v="residential"/>
    <tag k="maxspeed" v="50"/>
    <tag k="maxspeed:source" v="default residential speed limit in Australia"/>
    <tag k="name" v="Craine Street"/>
    <tag k="oneway" v="yes"/>
    <tag k="source" v="Yahoo"/>
    <tag k="source:name" v="survey"/>
  </way>
  <way id="32918953" version="3" timestamp="2012-01-18T18:13:56Z" uid="147510" user="woodpeck_fixbot" changeset="10429293">
    <nd ref="370709115"/>
    <nd ref="370709150"/>
    <tag k="highway" v="residential"/>
    <tag k="name" v="Craine Street"/>
    <tag k="oneway" v="yes"/>
    <tag k="source" v="Yahoo"/>
    <tag k="source:name" v="survey"/>
  </way>
  <way id="32918954" version="2" timestamp="2010-07-08T20:17:07Z" uid="74617" user="JohnSmith" changeset="5168730">
    <nd ref="370709151"/>
    <nd ref="370709153"/>
    <tag k="highway" v="residential"/>
    <tag k="maxspeed" v="50"/>
    <tag k="maxspeed:source" v="default residential speed limit in Australia"/>
    <tag k="name" v="Yarra Street"/>
    <tag k="oneway" v="yes"/>
    <tag k="source" v="Yahoo"/>
    <tag k="source:name" v="survey"/>
  </way>
  <way id="32918954" version="3" timestamp="2012-01-18T18:13:58Z" uid="147510" user="woodpeck_fixbot" changeset="10429293">
    <nd ref="370709151"/>
    <nd ref="370709153"/>
    <tag k="highway" v="residential"/>
    <tag k="name" v="Yarra Street"/>
    <tag k="oneway" v="yes"/>
    <tag k="source" v="Yahoo"/>
    <tag k="source:name" v="survey"/>
  </way>
  <way id="32918962" version="7" timestamp="2010-07-08T20:14:57Z" uid="74617" user="JohnSmith" changeset="5168730">
    <nd ref="370709183"/>
    <nd ref="388005191"/>
    <nd ref="370709150"/>
    <nd ref="292461230"/>
    <nd ref="370709151"/>
    <nd ref="370709326"/>
    <nd ref="370709178"/>
    <tag k="highway" v="residential"/>
    <tag k="maxspeed" v="50"/>
    <tag k="maxspeed:source" v="default residential speed limit in Australia"/>
    <tag k="name" v="York Street"/>
    <tag k="oneway" v="yes"/>
  </way>
  <way id="32918962" version="8" timestamp="2012-01-18T18:14:00Z" uid="147510" user="woodpeck_fixbot" changeset="10429293">
    <nd ref="370709183"/>
    <nd ref="388005191"/>
    <nd ref="370709150"/>
    <nd ref="292461230"/>
    <nd ref="370709151"/>
    <nd ref="370709326"/>
    <nd ref="370709178"/>
    <tag k="highway" v="residential"/>
    <tag k="name" v="York Street"/>
    <tag k="oneway" v="yes"/>
  </way>
  <way id="32918965" version="2" timestamp="2010-07-08T20:18:06Z" uid="74617" user="JohnSmith" changeset="5168730">
    <nd ref="370709251"/>
    <nd ref="370709257"/>
    <tag k="highway" v="residential"/>
    <tag k="maxspeed" v="50"/>
    <tag k="maxspeed:source" v="default residential speed limit in Australia"/>
    <tag k="name" v="Little Moray Place"/>
  </way>
  <way id="32918965" version="3" timestamp="2012-01-18T18:14:02Z" uid="147510" user="woodpeck_fixbot" changeset="10429293">
    <nd ref="370709251"/>
    <nd ref="370709257"/>
    <tag k="highway" v="residential"/>
    <tag k="name" v="Little Moray Place"/>
  </way>
  <way id="32918971" version="4" timestamp="2010-06-01T14:07:56Z" uid="4467" user="Rosscoe" changeset="4874856">
    <nd ref="370709325"/>
    <nd ref="367837477"/>
    <nd ref="367837478"/>
    <nd ref="367837479"/>
    <nd ref="367837480"/>
    <nd ref="367837481"/>
    <nd ref="367837482"/>
    <tag k="highway" v="secondary"/>
    <tag k="name" v="Harris River Road"/>
  </way>
  <way id="32918971" version="5" timestamp="2010-06-08T11:52:06Z" uid="18846" user="Treadly" changeset="4936531">
    <nd ref="370709325"/>
    <nd ref="367837477"/>
    <nd ref="367837478"/>
    <nd ref="767173004"/>
    <nd ref="367837479"/>
    <nd ref="367837480"/>
    <nd ref="367837481"/>
    <nd ref="367837482"/>
    <tag k="highway" v="secondary"/>
    <tag k="name" v="Harris River Road"/>
  </way>
  <way id="32918976" version="3" timestamp="2010-07-08T20:19:33Z" uid="74617" user="JohnSmith" changeset="5168730">
    <nd ref="370709273"/>
    <nd ref="550880862"/>
    <nd ref="370709326"/>
    <tag k="highway" v="residential"/>
    <tag k="maxspeed" v="50"/>
    <tag k="maxspeed:source" v="default residential speed limit in Australia"/>
    <tag k="name" v="Yarra Place"/>
    <tag k="oneway" v="yes"/>
  </way>
  <way id="32918976" version="4" timestamp="2012-01-18T18:14:03Z" uid="147510" user="woodpeck_fixbot" changeset="10429293">
    <nd ref="370709273"/>
    <nd ref="550880862"/>
    <nd ref="370709326"/>
    <tag k="highway" v="residential"/>
    <tag k="name" v="Yarra Place"/>
    <tag k="oneway" v="yes"/>
  </way>
  <way id="32918052" version="3" timestamp="2012-07-21T04:49:42Z" uid="748175" user="XenonofArcticus" changeset="12399156"/>
  <way id="32918167" version="7" timestamp="2012-07-14T00:24:55Z" uid="722137" user="OSMF Redaction Account" changeset="12212857">
    <nd ref="370703230"/>
    <nd ref="370703228"/>
    <nd ref="369775674"/>
    <nd ref="369775680"/>
    <tag k="gritting" v="priority_1"/>
    <tag k="gritting_operator" v="Sandwell MBC"/>
    <tag k="gritting_route_ref" v="5"/>
    <tag k="highway" v="primary"/>
    <tag k="maintenance" v="gritting"/>
    <tag k="name" v="Bromford Road"/>
    <tag k="ref" v="A4034"/>
  </way>
  <way id="32918167" version="8" timestamp="2012-08-04T18:01:16Z" uid="9065" user="brianboru" changeset="12612384">
    <nd ref="370703230"/>
    <nd ref="370703228"/>
    <nd ref="369775674"/>
    <nd ref="369775680"/>
    <nd ref="381535174"/>
    <tag k="gritting" v="priority_1"/>
    <tag k="gritting_operator" v="Sandwell MBC"/>
    <tag k="gritting_route_ref" v="5"/>
    <tag k="highway" v="primary"/>
    <tag k="maintenance" v="gritting"/>
    <tag k="name" v="Bromford Road"/>
    <tag k="ref" v="A4034"/>
  </way>
  <way id="32918169" version="3" timestamp="2012-07-14T00:24:56Z" uid="722137" user="OSMF Redaction Account" changeset="12212857">
    <nd ref="370703243"/>
    <nd ref="370703244"/>
    <nd ref="370703246"/>
    <nd ref="370703248"/>
    <nd ref="370703250"/>
    <nd ref="370703252"/>
    <nd ref="370703254"/>
    <tag k="highway" v="unclassified"/>
    <tag k="name" v="Oldbury Road Industrial Estate"/>
  </way>
  <way id="32918281" version="6" timestamp="2012-04-07T08:28:46Z" uid="90689" user="HansJ" changeset="11210668"/>
  <way id="32918288" version="4" timestamp="2012-07-18T17:39:31Z" uid="722137" user="OSMF Redaction Account" changeset="12290904"/>
  <way id="32918289" version="2" timestamp="2012-07-18T17:39:31Z" uid="722137" user="OSMF Redaction Account" changeset="12290904"/>
  <way id="32918290" version="2" timestamp="2012-07-18T17:39:31Z" uid="722137" user="OSMF Redaction Account" changeset="12290904"/>
  <way id="32918291" version="2" timestamp="2012-07-18T17:39:30Z" uid="722137" user="OSMF Redaction Account" changeset="12290904"/>
  <way id="32918292" version="2" timestamp="2012-07-18T17:39:30Z" uid="722137" user="OSMF Redaction Account" changeset="12290904"/>
  <way id="32918498" version="2" timestamp="2012-07-18T17:39:30Z" uid="722137" user="OSMF Redaction Account" changeset="12290904"/>
  <way id="32918499" version="2" timestamp="2012-07-18T17:39:30Z" uid="722137" user="OSMF Redaction Account" changeset="12290904"/>
  <way id="32918501" version="3" timestamp="2012-07-18T17:39:30Z" uid="722137" user="OSMF Redaction Account" changeset="12290904"/>
  <way id="32918757" version="4" timestamp="2012-07-19T13:35:12Z" uid="722137" user="OSMF Redaction Account" changeset="12329511">
    <nd ref="370708113"/>
    <nd ref="370708114"/>
    <tag k="highway" v="unclassified"/>
    <tag k="name" v="Kororoit Street"/>
    <tag k="source" v="Yahoo"/>
    <tag k="source:name" v="survey"/>
  </way>
  <way id="32918758" version="4" timestamp="2012-07-19T13:35:13Z" uid="722137" user="OSMF Redaction Account" changeset="12329511">
    <nd ref="370708263"/>
    <nd ref="370708264"/>
    <tag k="highway" v="unclassified"/>
    <tag k="name" v="Whitely Parade"/>
    <tag k="source" v="Yahoo"/>
    <tag k="source:name" v="survey"/>
  </way>
  <way id="32918771" version="5" timestamp="2012-07-19T13:35:13Z" uid="722137" user="OSMF Redaction Account" changeset="12329511">
    <nd ref="370708342"/>
    <nd ref="370708343"/>
    <tag k="highway" v="unclassified"/>
    <tag k="name" v="Cromwell Parade"/>
    <tag k="source" v="Yahoo"/>
    <tag k="source:name" v="survey"/>
  </way>
  <way id="32918799" version="4" timestamp="2012-07-19T13:35:13Z" uid="722137" user="OSMF Redaction Account" changeset="12329511">
    <nd ref="36022329"/>
    <nd ref="370708380"/>
    <nd ref="370708381"/>
    <tag k="highway" v="unclassified"/>
    <tag k="name" v="Mitford Parade"/>
    <tag k="source" v="Yahoo"/>
    <tag k="source:name" v="survey"/>
  </way>
  <way id="32918838" version="4" timestamp="2012-07-19T13:40:18Z" uid="722137" user="OSMF Redaction Account" changeset="12329827"/>
  <way id="32918892" version="5" timestamp="2012-07-19T12:47:51Z" uid="722137" user="OSMF Redaction Account" changeset="12326399">
    <nd ref="370708625"/>
    <nd ref="370708635"/>
    <tag k="highway" v="unclassified"/>
    <tag k="name" v="Lyell Street"/>
  </way>
  <way id="32918971" version="6" timestamp="2012-08-10T00:21:23Z" uid="418724" user="wintersportler" changeset="12675073">
    <nd ref="370709325"/>
    <nd ref="367837477"/>
    <nd ref="367837478"/>
    <nd ref="767173004"/>
    <nd ref="367837479"/>
    <nd ref="367837480"/>
    <nd ref="367837481"/>
    <nd ref="367837482"/>
    <tag k="highway" v="unclassified"/>
    <tag k="name" v="Harris River Road"/>
  </way>
</osm>
