<?xml version='1.0' encoding='UTF-8'?>
<osm version="0.6" generator="libosmium/2.20.0">
  <way id="33144423" version="3" timestamp="2010-10-07T18:42:45Z" uid="9581" user="Lobelt" changeset="5980318">
    <nd ref="288587212"/>
    <nd ref="374433013"/>
    <nd ref="374433027"/>
    <nd ref="374433041"/>
    <nd ref="374433056"/>
    <nd ref="374433069"/>
    <nd ref="374433084"/>
    <nd ref="374433099"/>
    <nd ref="374433119"/>
    <nd ref="374433144"/>
    <nd ref="374433162"/>
    <nd ref="374433178"/>
    <nd ref="374433191"/>
    <nd ref="374433208"/>
    <nd ref="374433229"/>
    <nd ref="374433250"/>
    <nd ref="374433265"/>
    <nd ref="374433278"/>
    <nd ref="374433291"/>
    <nd ref="374433310"/>
    <nd ref="374433328"/>
    <nd ref="374433342"/>
    <nd ref="374433357"/>
    <nd ref="374433370"/>
    <nd ref="374433395"/>
    <nd ref="374433409"/>
    <nd ref="374433435"/>
    <nd ref="374433447"/>
    <nd ref="374433470"/>
    <nd ref="374433602"/>
    <nd ref="374433623"/>
    <nd ref="374433636"/>
    <nd ref="374433655"/>
    <nd ref="374433672"/>
    <nd ref="374433803"/>
    <nd ref="374433818"/>
    <nd ref="374433831"/>
    <nd ref="374433840"/>
    <nd ref="374433862"/>
    <tag k="access" v="permissive"/>
    <tag k="highway" v="track"/>
    <tag k="motorcar" v="permissive"/>
    <tag k="motorcycle" v="agricultural"/>
    <tag k="surface" v="gravel"/>
    <tag k="tracktype" v="grade3"/>
    <tag k="width" v="2.5"/>
  </way>
  <way id="33144423" version="4" timestamp="2012-01-13T10:28:04Z" uid="131968" user="changchun_1" changeset="10377133"/>
  <way id="33144582" version="1" timestamp="2009-04-13T21:41:42Z" uid="30632" user="antblant" changeset="487279">
    <nd ref="300761406"/>
    <nd ref="300761417"/>
    <tag k="created_by" v="Potlatch 0.10f"/>
    <tag k="highway" v="primary"/>
    <tag k="name" v="Chwaszczyńska"/>
    <tag k="ref" v="20"/>
    <tag k="source" v="UMP-PL, ./UMP-Gdansk/src/GDYNIA.ulice.txt"/>
  </way>
  <way id="33144582" version="2" timestamp="2009-04-13T21:42:09Z" uid="30632" user="antblant" changeset="487279">
    <nd ref="300761406"/>
    <nd ref="300761417"/>
    <tag k="created_by" v="Potlatch 0.10f"/>
    <tag k="highway" v="secondary"/>
    <tag k="name" v="Chwaszczyńska"/>
    <tag k="ref" v="474"/>
    <tag k="source" v="UMP-PL, ./UMP-Gdansk/src/GDYNIA.ulice.txt"/>
  </way>
  <way id="33144582" version="3" timestamp="2009-05-02T21:13:34Z" uid="76623" user="DLX" changeset="1054293">
    <nd ref="300761406"/>
    <nd ref="300761417"/>
    <tag k="created_by" v="Potlatch 0.10f"/>
    <tag k="highway" v="primary"/>
    <tag k="name" v="Chwaszczyńska"/>
    <tag k="ref" v="474"/>
    <tag k="source" v="UMP-PL, ./UMP-Gdansk/src/GDYNIA.ulice.txt"/>
  </way>
  <way id="33144582" version="4" timestamp="2010-07-08T14:23:48Z" uid="86932" user="bialy111" changeset="5166619">
    <nd ref="300761406"/>
    <nd ref="300761417"/>
    <tag k="highway" v="primary"/>
    <tag k="name" v="Chwaszczyńska"/>
    <tag k="oneway" v="yes"/>
    <tag k="ref" v="474"/>
    <tag k="source" v="UMP-PL, ./UMP-Gdansk/src/GDYNIA.ulice.txt"/>
  </way>
  <way id="33144582" version="5" timestamp="2011-09-30T09:01:38Z" uid="378154" user="rosomak" changeset="9433567">
    <nd ref="300761406"/>
    <nd ref="300761417"/>
    <tag k="highway" v="primary"/>
    <tag k="name" v="Chwaszczyńska"/>
    <tag k="oneway" v="yes"/>
    <tag k="ref" v="474"/>
  </way>
  <way id="33144584" version="1" timestamp="2009-04-13T21:41:43Z" uid="30632" user="antblant" changeset="487279">
    <nd ref="300761309"/>
    <nd ref="300761302"/>
    <nd ref="300761303"/>
    <nd ref="300761304"/>
    <nd ref="300761305"/>
    <nd ref="300761370"/>
    <nd ref="300761371"/>
    <nd ref="300761372"/>
    <nd ref="300761373"/>
    <nd ref="300761366"/>
    <nd ref="300761367"/>
    <nd ref="300761368"/>
    <nd ref="300761369"/>
    <nd ref="300761400"/>
    <nd ref="300761401"/>
    <nd ref="300761402"/>
    <tag k="created_by" v="Potlatch 0.10f"/>
    <tag k="highway" v="primary"/>
    <tag k="name" v="Chwaszczyńska"/>
    <tag k="ref" v="20"/>
    <tag k="source" v="UMP-PL, ./UMP-Gdansk/src/GDYNIA.ulice.txt"/>
  </way>
  <way id="33144584" version="2" timestamp="2010-06-20T21:48:31Z" uid="86932" user="bialy111" changeset="5037946">
    <nd ref="300761309"/>
    <nd ref="300761302"/>
    <nd ref="300761303"/>
    <nd ref="300761304"/>
    <nd ref="300761305"/>
    <nd ref="300761370"/>
    <nd ref="300761371"/>
    <nd ref="300761372"/>
    <nd ref="300761373"/>
    <nd ref="300761366"/>
    <nd ref="300761367"/>
    <nd ref="300761368"/>
    <tag k="highway" v="primary"/>
    <tag k="name" v="Chwaszczyńska"/>
    <tag k="oneway" v="yes"/>
    <tag k="ref" v="20"/>
    <tag k="source" v="UMP-PL, ./UMP-Gdansk/src/GDYNIA.ulice.txt"/>
  </way>
  <way id="33144584" version="3" timestamp="2011-09-30T09:01:37Z" uid="378154" user="rosomak" changeset="9433567">
    <nd ref="300761309"/>
    <nd ref="300761302"/>
    <nd ref="300761303"/>
    <nd ref="300761304"/>
    <nd ref="300761305"/>
    <nd ref="300761370"/>
    <nd ref="300761371"/>
    <nd ref="300761372"/>
    <nd ref="300761373"/>
    <nd ref="300761366"/>
    <nd ref="300761367"/>
    <nd ref="300761368"/>
    <tag k="highway" v="primary"/>
    <tag k="name" v="Chwaszczyńska"/>
    <tag k="oneway" v="yes"/>
    <tag k="ref" v="20"/>
  </way>
  <way id="33144594" version="3" timestamp="2010-10-07T18:41:16Z" uid="9581" user="Lobelt" changeset="5980318">
    <nd ref="374433041"/>
    <nd ref="374438764"/>
    <nd ref="374438780"/>
    <nd ref="374438807"/>
    <nd ref="374438823"/>
    <nd ref="374438844"/>
    <nd ref="374438857"/>
    <nd ref="374438881"/>
    <nd ref="374438898"/>
    <nd ref="374438922"/>
    <nd ref="374438938"/>
    <tag k="access" v="permissive"/>
    <tag k="highway" v="track"/>
    <tag k="motorcar" v="agricultural"/>
    <tag k="motorcycle" v="agricultural"/>
    <tag k="surface" v="gravel"/>
    <tag k="tracktype" v="grade3"/>
    <tag k="width" v="2.5"/>
  </way>
  <way id="33144594" version="4" timestamp="2012-01-13T10:28:06Z" uid="131968" user="changchun_1" changeset="10377133"/>
  <way id="33144683" version="3" timestamp="2010-10-07T18:41:06Z" uid="9581" user="Lobelt" changeset="5980318">
    <nd ref="374433278"/>
    <nd ref="374440607"/>
    <nd ref="374440663"/>
    <nd ref="374440675"/>
    <nd ref="374440690"/>
    <nd ref="374440699"/>
    <nd ref="371752888"/>
    <tag k="access" v="permissive"/>
    <tag k="highway" v="track"/>
    <tag k="motorcar" v="agricultural"/>
    <tag k="motorcycle" v="agricultural"/>
    <tag k="surface" v="gravel"/>
    <tag k="tracktype" v="grade3"/>
    <tag k="width" v="2.5"/>
  </way>
  <way id="33144683" version="4" timestamp="2012-01-13T10:28:02Z" uid="131968" user="changchun_1" changeset="10377133"/>
  <way id="33144695" version="2" timestamp="2009-06-10T04:04:04Z" uid="20587" user="balrog-kun" changeset="1473633">
    <nd ref="374440664"/>
    <nd ref="374440707"/>
    <nd ref="374440695"/>
    <nd ref="374440680"/>
    <nd ref="374440664"/>
    <nd ref="374440652"/>
    <tag k="highway" v="residential"/>
    <tag k="name" v="Ostoja"/>
  </way>
  <way id="33144697" version="2" timestamp="2009-06-10T04:04:04Z" uid="20587" user="balrog-kun" changeset="1473633">
    <nd ref="374440638"/>
    <nd ref="374440721"/>
    <nd ref="374440739"/>
    <tag k="highway" v="residential"/>
    <tag k="name" v="Miła"/>
  </way>
  <way id="33144697" version="3" timestamp="2010-04-17T18:06:51Z" uid="79873" user="ciachooown" changeset="4450295">
    <nd ref="374440638"/>
    <nd ref="374440721"/>
    <nd ref="700067133"/>
    <nd ref="374440739"/>
    <tag k="highway" v="residential"/>
    <tag k="name" v="Miła"/>
  </way>
  <way id="33144582" version="6" timestamp="2012-04-23T07:58:05Z" uid="598860" user="Marek-M" changeset="11392123">
    <nd ref="300761406"/>
    <nd ref="1727446681"/>
    <nd ref="1727446630"/>
    <nd ref="300761417"/>
    <tag k="highway" v="primary"/>
    <tag k="name" v="Chwaszczyńska"/>
    <tag k="oneway" v="yes"/>
    <tag k="ref" v="474"/>
  </way>
  <way id="33144582" version="7" timestamp="2012-05-19T13:15:07Z" uid="681295" user="przemas75" changeset="11642480">
    <nd ref="300761406"/>
    <nd ref="1758400725"/>
    <nd ref="1727446681"/>
    <nd ref="1727446630"/>
    <nd ref="300761417"/>
    <tag k="highway" v="primary"/>
    <tag k="name" v="Chwaszczyńska"/>
    <tag k="oneway" v="yes"/>
    <tag k="ref" v="474"/>
  </way>
  <way id="33144582" version="8" timestamp="2012-06-06T08:46:25Z" uid="681295" user="przemas75" changeset="11813634">
    <nd ref="300761406"/>
    <nd ref="1758400725"/>
    <nd ref="1727446681"/>
    <nd ref="1727446630"/>
    <nd ref="300761417"/>
    <tag k="highway" v="primary"/>
    <tag k="lanes" v="2"/>
    <tag k="lit" v="yes"/>
    <tag k="name" v="Chwaszczyńska"/>
    <tag k="oneway" v="yes"/>
    <tag k="ref" v="474"/>
    <tag k="surface" v="asphalt"/>
  </way>
  <way id="33144582" version="9" timestamp="2012-07-20T08:33:03Z" uid="681295" user="przemas75" changeset="12368455">
    <nd ref="300761406"/>
    <nd ref="1758400725"/>
    <nd ref="1727446681"/>
    <nd ref="1727446630"/>
    <nd ref="300761417"/>
    <tag k="highway" v="primary"/>
    <tag k="lanes" v="2"/>
    <tag k="lit" v="yes"/>
    <tag k="name" v="Chwaszczyńska"/>
    <tag k="odbl" v="clean"/>
    <tag k="oneway" v="yes"/>
    <tag k="ref" v="474"/>
    <tag k="surface" v="asphalt"/>
  </way>
  <way id="33144582" version="10" timestamp="2012-08-18T19:40:18Z" uid="626371" user="serekmedia" changeset="12776516">
    <nd ref="300761406"/>
    <nd ref="1758400725"/>
    <nd ref="1727446681"/>
    <tag k="highway" v="primary"/>
    <tag k="lanes" v="2"/>
    <tag k="lit" v="yes"/>
    <tag k="name" v="Chwaszczyńska"/>
    <tag k="odbl" v="clean"/>
    <tag k="oneway" v="yes"/>
    <tag k="surface" v="asphalt"/>
  </way>
  <way id="33144584" version="4" timestamp="2012-04-23T07:58:05Z" uid="598860" user="Marek-M" changeset="11392123">
    <nd ref="300761309"/>
    <nd ref="1727446672"/>
    <nd ref="1727446677"/>
    <nd ref="300761302"/>
    <nd ref="300761303"/>
    <nd ref="300761304"/>
    <nd ref="300761305"/>
    <nd ref="300761370"/>
    <nd ref="300761371"/>
    <nd ref="300761372"/>
    <nd ref="300761373"/>
    <nd ref="300761366"/>
    <nd ref="300761367"/>
    <nd ref="300761368"/>
    <tag k="highway" v="primary"/>
    <tag k="name" v="Chwaszczyńska"/>
    <tag k="oneway" v="yes"/>
    <tag k="ref" v="20"/>
  </way>
  <way id="33144584" version="5" timestamp="2012-05-27T21:03:08Z" uid="681295" user="przemas75" changeset="11720175">
    <nd ref="300761309"/>
    <nd ref="1727446672"/>
    <nd ref="1727446677"/>
    <nd ref="300761302"/>
    <nd ref="300761303"/>
    <nd ref="300761304"/>
    <nd ref="300761305"/>
    <nd ref="300761370"/>
    <nd ref="300761371"/>
    <nd ref="300761372"/>
    <nd ref="300761373"/>
    <nd ref="300761366"/>
    <nd ref="300761367"/>
    <tag k="highway" v="primary"/>
    <tag k="name" v="Chwaszczyńska"/>
    <tag k="oneway" v="yes"/>
    <tag k="ref" v="20"/>
  </way>
  <way id="33144584" version="6" timestamp="2012-05-28T07:39:58Z" uid="681295" user="przemas75" changeset="11723392">
    <nd ref="300761309"/>
    <nd ref="1727446672"/>
    <nd ref="1727446677"/>
    <nd ref="300761302"/>
    <nd ref="300761303"/>
    <nd ref="300761304"/>
    <nd ref="300761305"/>
    <nd ref="300761370"/>
    <nd ref="300761371"/>
    <nd ref="300761372"/>
    <nd ref="300761373"/>
    <nd ref="300761366"/>
    <tag k="highway" v="primary"/>
    <tag k="name" v="Chwaszczyńska"/>
    <tag k="oneway" v="yes"/>
    <tag k="ref" v="20"/>
  </way>
  <way id="33144584" version="7" timestamp="2012-05-28T15:14:52Z" uid="681295" user="przemas75" changeset="11727814">
    <nd ref="300761309"/>
    <nd ref="1727446672"/>
    <nd ref="1727446677"/>
    <nd ref="300761302"/>
    <nd ref="300761303"/>
    <nd ref="300761304"/>
    <nd ref="300761305"/>
    <nd ref="300761370"/>
    <nd ref="300761371"/>
    <nd ref="300761372"/>
    <nd ref="300761373"/>
    <nd ref="300761366"/>
    <tag k="highway" v="primary"/>
    <tag k="lit" v="yes"/>
    <tag k="name" v="Chwaszczyńska"/>
    <tag k="oneway" v="yes"/>
    <tag k="ref" v="20"/>
  </way>
  <way id="33144584" version="8" timestamp="2012-06-04T16:18:04Z" uid="681295" user="przemas75" changeset="11798062">
    <nd ref="300761309"/>
    <nd ref="1727446672"/>
    <nd ref="1727446677"/>
    <nd ref="300761302"/>
    <nd ref="300761303"/>
    <nd ref="300761304"/>
    <nd ref="300761305"/>
    <nd ref="300761370"/>
    <nd ref="300761371"/>
    <nd ref="300761372"/>
    <nd ref="300761373"/>
    <nd ref="300761366"/>
    <tag k="highway" v="primary"/>
    <tag k="lanes" v="2"/>
    <tag k="lit" v="yes"/>
    <tag k="maxspeed" v="70"/>
    <tag k="name" v="Chwaszczyńska"/>
    <tag k="oneway" v="yes"/>
    <tag k="ref" v="20"/>
  </way>
  <way id="33144584" version="9" timestamp="2012-06-06T07:51:49Z" uid="681295" user="przemas75" changeset="11813238">
    <nd ref="300761309"/>
    <nd ref="1727446672"/>
    <nd ref="1727446677"/>
    <nd ref="300761302"/>
    <nd ref="300761303"/>
    <nd ref="300761304"/>
    <nd ref="300761305"/>
    <nd ref="300761370"/>
    <nd ref="300761371"/>
    <nd ref="300761372"/>
    <nd ref="300761373"/>
    <nd ref="300761366"/>
    <tag k="highway" v="primary"/>
    <tag k="lanes" v="2"/>
    <tag k="lit" v="yes"/>
    <tag k="maxspeed" v="70"/>
    <tag k="name" v="Chwaszczyńska"/>
    <tag k="oneway" v="yes"/>
    <tag k="ref" v="20"/>
    <tag k="surface" v="asphalt"/>
  </way>
  <way id="33144584" version="10" timestamp="2012-06-16T09:01:53Z" uid="681295" user="przemas75" changeset="11912315">
    <nd ref="300761309"/>
    <nd ref="1727446672"/>
    <nd ref="1727446677"/>
    <nd ref="300761302"/>
    <nd ref="300761303"/>
    <nd ref="300761304"/>
    <nd ref="300761305"/>
    <nd ref="300761370"/>
    <nd ref="300761371"/>
    <nd ref="300761372"/>
    <nd ref="300761373"/>
    <nd ref="1789679781"/>
    <nd ref="1789679767"/>
    <nd ref="300761366"/>
    <tag k="highway" v="primary"/>
    <tag k="lanes" v="2"/>
    <tag k="lit" v="yes"/>
    <tag k="maxspeed" v="70"/>
    <tag k="name" v="Chwaszczyńska"/>
    <tag k="oneway" v="yes"/>
    <tag k="ref" v="20"/>
    <tag k="surface" v="asphalt"/>
  </way>
  <way id="33144584" version="11" timestamp="2012-06-20T21:13:28Z" uid="681295" user="przemas75" changeset="11963292">
    <nd ref="300761309"/>
    <nd ref="1727446672"/>
    <nd ref="1727446677"/>
    <nd ref="300761302"/>
    <nd ref="300761303"/>
    <nd ref="300761304"/>
    <nd ref="300761305"/>
    <nd ref="300761370"/>
    <nd ref="300761371"/>
    <nd ref="300761372"/>
    <nd ref="300761373"/>
    <nd ref="1789679781"/>
    <nd ref="1789679767"/>
    <nd ref="1796366306"/>
    <nd ref="300761366"/>
    <tag k="highway" v="primary"/>
    <tag k="lanes" v="2"/>
    <tag k="lit" v="yes"/>
    <tag k="maxspeed" v="70"/>
    <tag k="name" v="Chwaszczyńska"/>
    <tag k="oneway" v="yes"/>
    <tag k="ref" v="20"/>
    <tag k="surface" v="asphalt"/>
  </way>
  <way id="33144584" version="12" timestamp="2012-06-23T19:25:43Z" uid="681295" user="przemas75" changeset="11992592">
    <nd ref="300761309"/>
    <nd ref="1727446672"/>
    <nd ref="1727446677"/>
    <nd ref="300761302"/>
    <nd ref="300761303"/>
    <nd ref="300761304"/>
    <nd ref="300761305"/>
    <nd ref="300761370"/>
    <nd ref="1799740954"/>
    <nd ref="1799740948"/>
    <nd ref="300761371"/>
    <nd ref="300761372"/>
    <nd ref="300761373"/>
    <nd ref="1789679781"/>
    <nd ref="1789679767"/>
    <nd ref="1796366306"/>
    <nd ref="300761366"/>
    <tag k="highway" v="primary"/>
    <tag k="lanes" v="2"/>
    <tag k="lit" v="yes"/>
    <tag k="maxspeed" v="70"/>
    <tag k="name" v="Chwaszczyńska"/>
    <tag k="oneway" v="yes"/>
    <tag k="ref" v="20"/>
    <tag k="surface" v="asphalt"/>
  </way>
  <way id="33144584" version="13" timestamp="2012-07-20T08:32:59Z" uid="681295" user="przemas75" changeset="12368455">
    <nd ref="300761309"/>
    <nd ref="1727446672"/>
    <nd ref="1727446677"/>
    <nd ref="300761302"/>
    <nd ref="300761303"/>
    <nd ref="300761304"/>
    <nd ref="300761305"/>
    <nd ref="300761370"/>
    <nd ref="1799740954"/>
    <nd ref="1799740948"/>
    <nd ref="300761371"/>
    <nd ref="300761372"/>
    <nd ref="300761373"/>
    <nd ref="1789679781"/>
    <nd ref="1789679767"/>
    <nd ref="1796366306"/>
    <nd ref="300761366"/>
    <tag k="highway" v="primary"/>
    <tag k="lanes" v="2"/>
    <tag k="lit" v="yes"/>
    <tag k="maxspeed" v="70"/>
    <tag k="name" v="Chwaszczyńska"/>
    <tag k="odbl" v="clean"/>
    <tag k="oneway" v="yes"/>
    <tag k="ref" v="20"/>
    <tag k="surface" v="asphalt"/>
  </way>
  <way id="33144584" version="14" timestamp="2012-07-24T17:28:55Z" uid="722137" user="OSMF Redaction Account" changeset="12471862">
    <nd ref="300761309"/>
    <nd ref="1727446672"/>
    <nd ref="1727446677"/>
    <nd ref="300761302"/>
    <nd ref="300761303"/>
    <nd ref="300761370"/>
    <nd ref="1799740954"/>
    <nd ref="1799740948"/>
    <nd ref="300761371"/>
    <nd ref="300761372"/>
    <nd ref="300761373"/>
    <nd ref="1789679781"/>
    <nd ref="1789679767"/>
    <nd ref="1796366306"/>
    <nd ref="300761366"/>
    <tag k="highway" v="primary"/>
    <tag k="lanes" v="2"/>
    <tag k="lit" v="yes"/>
    <tag k="maxspeed" v="70"/>
    <tag k="name" v="Chwaszczyńska"/>
    <tag k="odbl" v="clean"/>
    <tag k="oneway" v="yes"/>
    <tag k="ref" v="20"/>
    <tag k="surface" v="asphalt"/>
  </way>
  <way id="33144695" version="3" timestamp="2012-07-16T10:26:26Z" uid="504620" user="JakubS" changeset="12242166">
    <nd ref="374440664"/>
    <nd ref="374440707"/>
    <nd ref="374440695"/>
    <nd ref="374440680"/>
    <nd ref="374440664"/>
    <nd ref="374440652"/>
    <nd ref="417973832"/>
    <tag k="addr:city" v="Ostoja"/>
    <tag k="highway" v="residential"/>
    <tag k="name" v="Ostoja"/>
    <tag k="source" v="http://ump.waw.pl/ retrieved 13:50:02 06/07/09 (UMP-Kielce/src/KIELCE.drogi.txt)"/>
  </way>
  <way id="33144695" version="4" timestamp="2012-07-24T13:17:32Z" uid="722137" user="OSMF Redaction Account" changeset="12466395">
    <nd ref="374440664"/>
    <nd ref="374440707"/>
    <nd ref="374440695"/>
    <nd ref="374440680"/>
    <nd ref="374440664"/>
    <nd ref="374440652"/>
    <tag k="addr:city" v="Ostoja"/>
    <tag k="highway" v="residential"/>
    <tag k="name" v="Ostoja"/>
    <tag k="source" v="http://ump.waw.pl/ retrieved 13:50:02 06/07/09 (UMP-Kielce/src/KIELCE.drogi.txt)"/>
  </way>
</osm>
