<?xml version='1.0' encoding='UTF-8'?>
<osm version="0.6" generator="libosmium/2.20.0">
  <way id="33150504" version="4" timestamp="2010-07-09T03:17:23Z" uid="74617" user="JohnSmith" changeset="5170739">
    <nd ref="374574717"/>
    <nd ref="374624785"/>
    <nd ref="374627080"/>
    <nd ref="374624795"/>
    <tag k="highway" v="residential"/>
    <tag k="maxspeed" v="50"/>
    <tag k="maxspeed:source" v="default residential speed limit in Australia"/>
    <tag k="name" v="Glen Park Avenue"/>
  </way>
  <way id="33150504" version="5" timestamp="2012-01-18T19:28:35Z" uid="147510" user="woodpeck_fixbot" changeset="10429293">
    <nd ref="374574717"/>
    <nd ref="374624785"/>
    <nd ref="374627080"/>
    <nd ref="374624795"/>
    <tag k="highway" v="residential"/>
    <tag k="name" v="Glen Park Avenue"/>
  </way>
  <way id="33150517" version="2" timestamp="2010-07-09T03:17:00Z" uid="74617" user="JohnSmith" changeset="5170739">
    <nd ref="374624785"/>
    <nd ref="374625096"/>
    <tag k="highway" v="residential"/>
    <tag k="maxspeed" v="50"/>
    <tag k="maxspeed:source" v="default residential speed limit in Australia"/>
  </way>
  <way id="33150517" version="3" timestamp="2011-08-01T06:17:57Z" uid="11111" user="melb_guy" changeset="8886859">
    <nd ref="374624785"/>
    <nd ref="374625096"/>
    <tag k="highway" v="residential"/>
    <tag k="maxspeed" v="50"/>
    <tag k="maxspeed:source" v="default residential speed limit in Australia"/>
    <tag k="name" v="Augustine Terrace"/>
    <tag k="source" v="Yahoo"/>
    <tag k="source:name" v="Collins 1936"/>
  </way>
  <way id="33150517" version="4" timestamp="2012-01-18T19:28:37Z" uid="147510" user="woodpeck_fixbot" changeset="10429293">
    <nd ref="374624785"/>
    <nd ref="374625096"/>
    <tag k="highway" v="residential"/>
    <tag k="name" v="Augustine Terrace"/>
    <tag k="source" v="Yahoo"/>
    <tag k="source:name" v="Collins 1936"/>
  </way>
  <way id="33150604" version="2" timestamp="2010-07-09T03:11:58Z" uid="74617" user="JohnSmith" changeset="5170739">
    <nd ref="374627404"/>
    <nd ref="374628366"/>
    <nd ref="374628373"/>
    <nd ref="374624795"/>
    <tag k="highway" v="residential"/>
    <tag k="maxspeed" v="50"/>
    <tag k="maxspeed:source" v="default residential speed limit in Australia"/>
    <tag k="name" v="Centre Way"/>
  </way>
  <way id="33150604" version="3" timestamp="2012-01-18T19:28:39Z" uid="147510" user="woodpeck_fixbot" changeset="10429293">
    <nd ref="374627404"/>
    <nd ref="374628366"/>
    <nd ref="374628373"/>
    <nd ref="374624795"/>
    <tag k="highway" v="residential"/>
    <tag k="name" v="Centre Way"/>
  </way>
  <way id="33150680" version="6" timestamp="2010-07-09T03:08:47Z" uid="74617" user="JohnSmith" changeset="5170739">
    <nd ref="374630593"/>
    <nd ref="374631826"/>
    <nd ref="374631835"/>
    <nd ref="374631841"/>
    <nd ref="374631849"/>
    <nd ref="374631857"/>
    <nd ref="374685391"/>
    <nd ref="374631865"/>
    <nd ref="374631874"/>
    <nd ref="374631885"/>
    <nd ref="374631890"/>
    <nd ref="374631895"/>
    <nd ref="389458492"/>
    <nd ref="374631901"/>
    <nd ref="374631912"/>
    <nd ref="374633826"/>
    <nd ref="374635759"/>
    <nd ref="374631918"/>
    <nd ref="374631921"/>
    <nd ref="374631928"/>
    <tag k="highway" v="residential"/>
    <tag k="maxspeed" v="50"/>
    <tag k="maxspeed:source" v="default residential speed limit in Australia"/>
    <tag k="name" v="Valley Crescent"/>
  </way>
  <way id="33150680" version="7" timestamp="2012-01-18T19:28:41Z" uid="147510" user="woodpeck_fixbot" changeset="10429293">
    <nd ref="374630593"/>
    <nd ref="374631826"/>
    <nd ref="374631835"/>
    <nd ref="374631841"/>
    <nd ref="374631849"/>
    <nd ref="374631857"/>
    <nd ref="374685391"/>
    <nd ref="374631865"/>
    <nd ref="374631874"/>
    <nd ref="374631885"/>
    <nd ref="374631890"/>
    <nd ref="374631895"/>
    <nd ref="389458492"/>
    <nd ref="374631901"/>
    <nd ref="374631912"/>
    <nd ref="374633826"/>
    <nd ref="374635759"/>
    <nd ref="374631918"/>
    <nd ref="374631921"/>
    <nd ref="374631928"/>
    <tag k="highway" v="residential"/>
    <tag k="name" v="Valley Crescent"/>
  </way>
  <way id="33150700" version="4" timestamp="2010-07-09T03:17:17Z" uid="74617" user="JohnSmith" changeset="5170739">
    <nd ref="374632361"/>
    <nd ref="374635107"/>
    <nd ref="374632964"/>
    <nd ref="374632970"/>
    <nd ref="374632976"/>
    <nd ref="374632982"/>
    <tag k="highway" v="residential"/>
    <tag k="maxspeed" v="50"/>
    <tag k="maxspeed:source" v="default residential speed limit in Australia"/>
    <tag k="name" v="Ridgeway Avenue"/>
  </way>
  <way id="33150700" version="5" timestamp="2012-01-18T19:28:43Z" uid="147510" user="woodpeck_fixbot" changeset="10429293">
    <nd ref="374632361"/>
    <nd ref="374635107"/>
    <nd ref="374632964"/>
    <nd ref="374632970"/>
    <nd ref="374632976"/>
    <nd ref="374632982"/>
    <tag k="highway" v="residential"/>
    <tag k="name" v="Ridgeway Avenue"/>
  </way>
  <way id="33150738" version="5" timestamp="2010-07-09T03:14:00Z" uid="74617" user="JohnSmith" changeset="5170739">
    <nd ref="374633826"/>
    <nd ref="374635056"/>
    <nd ref="374635066"/>
    <nd ref="374635074"/>
    <nd ref="389458493"/>
    <nd ref="374636876"/>
    <nd ref="374632982"/>
    <nd ref="374635093"/>
    <nd ref="374635100"/>
    <nd ref="374635107"/>
    <tag k="highway" v="residential"/>
    <tag k="maxspeed" v="50"/>
    <tag k="maxspeed:source" v="default residential speed limit in Australia"/>
    <tag k="name" v="Moonee Boulevard"/>
  </way>
  <way id="33150738" version="6" timestamp="2012-01-18T19:28:45Z" uid="147510" user="woodpeck_fixbot" changeset="10429293">
    <nd ref="374633826"/>
    <nd ref="374635056"/>
    <nd ref="374635066"/>
    <nd ref="374635074"/>
    <nd ref="389458493"/>
    <nd ref="374636876"/>
    <nd ref="374632982"/>
    <nd ref="374635093"/>
    <nd ref="374635100"/>
    <nd ref="374635107"/>
    <tag k="highway" v="residential"/>
    <tag k="name" v="Moonee Boulevard"/>
  </way>
  <way id="33150772" version="2" timestamp="2010-07-09T03:16:41Z" uid="74617" user="JohnSmith" changeset="5170739">
    <nd ref="374635759"/>
    <nd ref="374636866"/>
    <nd ref="374636876"/>
    <tag k="highway" v="residential"/>
    <tag k="maxspeed" v="50"/>
    <tag k="maxspeed:source" v="default residential speed limit in Australia"/>
    <tag k="name" v="Cross Terrace"/>
  </way>
  <way id="33150772" version="3" timestamp="2012-01-18T19:28:46Z" uid="147510" user="woodpeck_fixbot" changeset="10429293">
    <nd ref="374635759"/>
    <nd ref="374636866"/>
    <nd ref="374636876"/>
    <tag k="highway" v="residential"/>
    <tag k="name" v="Cross Terrace"/>
  </way>
  <way id="33150788" version="2" timestamp="2010-07-09T03:11:07Z" uid="74617" user="JohnSmith" changeset="5170739">
    <nd ref="374631928"/>
    <nd ref="374635107"/>
    <tag k="highway" v="residential"/>
    <tag k="maxspeed" v="50"/>
    <tag k="maxspeed:source" v="default residential speed limit in Australia"/>
  </way>
  <way id="33150788" version="3" timestamp="2012-01-18T19:28:48Z" uid="147510" user="woodpeck_fixbot" changeset="10429293">
    <nd ref="374631928"/>
    <nd ref="374635107"/>
    <tag k="highway" v="residential"/>
  </way>
  <way id="33150797" version="3" timestamp="2010-07-09T03:09:29Z" uid="74617" user="JohnSmith" changeset="5170739">
    <nd ref="374637874"/>
    <nd ref="374638082"/>
    <tag k="highway" v="residential"/>
    <tag k="maxspeed" v="50"/>
    <tag k="maxspeed:source" v="default residential speed limit in Australia"/>
    <tag k="name" v="McDonald Place"/>
  </way>
  <way id="33150797" version="4" timestamp="2012-01-18T19:28:49Z" uid="147510" user="woodpeck_fixbot" changeset="10429293">
    <nd ref="374637874"/>
    <nd ref="374638082"/>
    <tag k="highway" v="residential"/>
    <tag k="name" v="McDonald Place"/>
  </way>
  <way id="33150819" version="3" timestamp="2010-07-09T03:11:23Z" uid="74617" user="JohnSmith" changeset="5170739">
    <nd ref="374638485"/>
    <nd ref="374638763"/>
    <nd ref="374638767"/>
    <tag k="highway" v="residential"/>
    <tag k="maxspeed" v="50"/>
    <tag k="maxspeed:source" v="default residential speed limit in Australia"/>
    <tag k="name" v="Reserve Court"/>
  </way>
  <way id="33150819" version="4" timestamp="2012-01-18T19:28:50Z" uid="147510" user="woodpeck_fixbot" changeset="10429293">
    <nd ref="374638485"/>
    <nd ref="374638763"/>
    <nd ref="374638767"/>
    <tag k="highway" v="residential"/>
    <tag k="name" v="Reserve Court"/>
  </way>
  <way id="33150965" version="1" timestamp="2009-04-14T00:06:46Z" uid="20587" user="balrog-kun" changeset="511475">
    <nd ref="374645409"/>
    <nd ref="374645813"/>
    <nd ref="374645799"/>
    <nd ref="374645787"/>
    <nd ref="374645778"/>
    <nd ref="374645763"/>
    <nd ref="374645749"/>
    <nd ref="374645736"/>
    <nd ref="374645718"/>
    <nd ref="374645705"/>
    <nd ref="374645691"/>
    <nd ref="374645674"/>
    <nd ref="374645661"/>
    <nd ref="374645648"/>
    <nd ref="374645626"/>
    <nd ref="374645602"/>
    <nd ref="374645588"/>
    <nd ref="374645563"/>
    <nd ref="374645546"/>
    <nd ref="374645527"/>
    <nd ref="374645509"/>
    <nd ref="374645493"/>
    <nd ref="374645473"/>
    <nd ref="374645449"/>
    <nd ref="374645425"/>
    <nd ref="374645409"/>
    <tag k="natural" v="land"/>
  </way>
  <way id="33150967" version="1" timestamp="2009-04-14T00:06:46Z" uid="20587" user="balrog-kun" changeset="511475">
    <nd ref="374645945"/>
    <nd ref="374645959"/>
    <tag k="highway" v="residential"/>
    <tag k="name" v="Grabowa"/>
  </way>
  <way id="33150968" version="1" timestamp="2009-04-14T00:06:47Z" uid="20587" user="balrog-kun" changeset="511475">
    <nd ref="311432191"/>
    <nd ref="311432192"/>
    <nd ref="374646836"/>
    <nd ref="311432193"/>
    <tag k="highway" v="track"/>
  </way>
  <way id="33150968" version="2" timestamp="2009-10-20T22:42:31Z" uid="20587" user="balrog-kun" changeset="2908055">
    <nd ref="311432191"/>
    <nd ref="311432192"/>
    <nd ref="374646836"/>
    <nd ref="537200512"/>
    <nd ref="537200510"/>
    <nd ref="311432193"/>
    <tag k="highway" v="track"/>
  </way>
  <way id="33150968" version="3" timestamp="2009-11-02T13:09:33Z" uid="20587" user="balrog-kun" changeset="3016114">
    <nd ref="311432191"/>
    <nd ref="311432192"/>
    <nd ref="374646836"/>
    <tag k="highway" v="track"/>
  </way>
  <way id="33150968" version="4" timestamp="2011-06-23T20:08:02Z" uid="98542" user="wajak" changeset="8526369"/>
  <way id="33150969" version="1" timestamp="2009-04-14T00:06:47Z" uid="20587" user="balrog-kun" changeset="511475">
    <nd ref="374645991"/>
    <nd ref="374645999"/>
    <tag k="highway" v="unsurfaced"/>
    <tag k="name" v="Klonowa"/>
  </way>
  <way id="33150969" version="2" timestamp="2011-12-25T16:37:06Z" uid="467703" user="Zbigniew Czernik" changeset="10201059">
    <nd ref="374645991"/>
    <nd ref="374645999"/>
    <tag k="highway" v="track"/>
    <tag k="name" v="Klonowa"/>
    <tag k="tracktype" v="grade1"/>
  </way>
  <way id="33150972" version="1" timestamp="2009-04-14T00:06:47Z" uid="20587" user="balrog-kun" changeset="511475">
    <nd ref="374646024"/>
    <nd ref="374646330"/>
    <nd ref="374646016"/>
    <tag k="highway" v="unsurfaced"/>
    <tag k="name" v="Porannej Zorzy"/>
  </way>
  <way id="33150972" version="2" timestamp="2011-12-25T16:38:33Z" uid="467703" user="Zbigniew Czernik" changeset="10201059">
    <nd ref="374646024"/>
    <nd ref="374646330"/>
    <nd ref="374646016"/>
    <tag k="highway" v="track"/>
    <tag k="name" v="Porannej Zorzy"/>
    <tag k="tracktype" v="grade1"/>
  </way>
  <way id="33150974" version="1" timestamp="2009-04-14T00:06:48Z" uid="20587" user="balrog-kun" changeset="511475">
    <nd ref="374646038"/>
    <nd ref="374646048"/>
    <tag k="highway" v="residential"/>
    <tag k="name" v="Wierzbowa"/>
    <tag k="surface" v="unpaved"/>
  </way>
  <way id="33150975" version="1" timestamp="2009-04-14T00:06:48Z" uid="20587" user="balrog-kun" changeset="511475">
    <nd ref="374646063"/>
    <nd ref="374646075"/>
    <tag k="highway" v="residential"/>
    <tag k="name" v="Balladyny"/>
    <tag k="surface" v="unpaved"/>
  </way>
  <way id="33150977" version="1" timestamp="2009-04-14T00:06:49Z" uid="20587" user="balrog-kun" changeset="511475">
    <nd ref="374646089"/>
    <nd ref="374646104"/>
    <nd ref="374646118"/>
    <tag k="highway" v="residential"/>
    <tag k="name" v="Szarotki"/>
    <tag k="note" v="TODO"/>
    <tag k="surface" v="unpaved"/>
  </way>
  <way id="33150978" version="1" timestamp="2009-04-14T00:06:49Z" uid="20587" user="balrog-kun" changeset="511475">
    <nd ref="373606831"/>
    <nd ref="374646133"/>
    <nd ref="374646147"/>
    <tag k="highway" v="unsurfaced"/>
    <tag k="name" v="Calineczki"/>
  </way>
  <way id="33150978" version="2" timestamp="2011-12-25T16:36:04Z" uid="467703" user="Zbigniew Czernik" changeset="10201059">
    <nd ref="373606831"/>
    <nd ref="374646133"/>
    <nd ref="374646147"/>
    <tag k="highway" v="track"/>
    <tag k="name" v="Calineczki"/>
    <tag k="tracktype" v="grade1"/>
  </way>
  <way id="33150979" version="1" timestamp="2009-04-14T00:06:50Z" uid="20587" user="balrog-kun" changeset="511475">
    <nd ref="374646163"/>
    <nd ref="374646179"/>
    <tag k="highway" v="unsurfaced"/>
    <tag k="name" v="Za Siedmioma Górami"/>
  </way>
  <way id="33150979" version="2" timestamp="2011-02-15T23:34:37Z" uid="277387" user="rogal" changeset="7300223">
    <nd ref="1155510954"/>
    <nd ref="374646163"/>
    <nd ref="374646179"/>
    <tag k="highway" v="residential"/>
    <tag k="name" v="Za Siedmioma Górami"/>
    <tag k="surface" v="unpaved"/>
  </way>
  <way id="33150980" version="1" timestamp="2009-04-14T00:06:50Z" uid="20587" user="balrog-kun" changeset="511475">
    <nd ref="374646192"/>
    <nd ref="374646211"/>
    <nd ref="374646222"/>
    <tag k="highway" v="residential"/>
    <tag k="name" v="Wieczornego Zmierzchu"/>
    <tag k="surface" v="unpaved"/>
  </way>
  <way id="33150981" version="1" timestamp="2009-04-14T00:06:51Z" uid="20587" user="balrog-kun" changeset="511475">
    <nd ref="374646275"/>
    <nd ref="374646016"/>
    <nd ref="311432191"/>
    <tag k="highway" v="residential"/>
    <tag k="name" v="Wiosenna"/>
    <tag k="surface" v="unpaved"/>
  </way>
  <way id="33150982" version="1" timestamp="2009-04-14T00:06:51Z" uid="20587" user="balrog-kun" changeset="511475">
    <nd ref="374646330"/>
    <nd ref="374646340"/>
    <tag k="highway" v="residential"/>
    <tag k="name" v="Słonecznego Lata"/>
    <tag k="surface" v="unpaved"/>
  </way>
  <way id="33150983" version="1" timestamp="2009-04-14T00:06:52Z" uid="20587" user="balrog-kun" changeset="511475">
    <nd ref="374646351"/>
    <nd ref="374646024"/>
    <nd ref="374646361"/>
    <tag k="highway" v="residential"/>
    <tag k="name" v="Kubusia Puchatka"/>
    <tag k="note" v="TODO"/>
    <tag k="surface" v="unpaved"/>
  </way>
  <way id="33150984" version="1" timestamp="2009-04-14T00:06:52Z" uid="20587" user="balrog-kun" changeset="511475">
    <nd ref="311432191"/>
    <nd ref="374646075"/>
    <nd ref="374646147"/>
    <nd ref="374646747"/>
    <nd ref="374646222"/>
    <nd ref="374646286"/>
    <nd ref="374646298"/>
    <nd ref="374646808"/>
    <nd ref="374646263"/>
    <tag k="highway" v="residential"/>
    <tag k="name" v="Rusałek"/>
    <tag k="surface" v="unpaved"/>
  </way>
  <way id="33150984" version="2" timestamp="2011-06-23T20:07:56Z" uid="98542" user="wajak" changeset="8526369">
    <nd ref="311432191"/>
    <nd ref="374646075"/>
    <nd ref="374646147"/>
    <nd ref="374646747"/>
    <nd ref="374646222"/>
    <nd ref="374646286"/>
    <nd ref="374646298"/>
    <nd ref="374646808"/>
    <nd ref="1336000678"/>
    <nd ref="374646263"/>
    <tag k="highway" v="residential"/>
    <tag k="name" v="Rusałek"/>
  </way>
  <way id="33150985" version="1" timestamp="2009-04-14T00:06:52Z" uid="20587" user="balrog-kun" changeset="511475">
    <nd ref="374646263"/>
    <nd ref="374646311"/>
    <nd ref="374646467"/>
    <nd ref="374646321"/>
    <tag k="highway" v="residential"/>
    <tag k="name" v="Szmaragdowych Żuków"/>
    <tag k="surface" v="unpaved"/>
  </way>
  <way id="33150987" version="1" timestamp="2009-04-14T00:06:53Z" uid="20587" user="balrog-kun" changeset="511475">
    <nd ref="373606829"/>
    <nd ref="374646372"/>
    <nd ref="374646450"/>
    <nd ref="374646384"/>
    <tag k="highway" v="residential"/>
    <tag k="name" v="Biedronki"/>
    <tag k="surface" v="unpaved"/>
  </way>
  <way id="33150988" version="1" timestamp="2009-04-14T00:06:53Z" uid="20587" user="balrog-kun" changeset="511475">
    <nd ref="374646913"/>
    <nd ref="374646396"/>
    <nd ref="374646898"/>
    <nd ref="374646408"/>
    <nd ref="374646511"/>
    <nd ref="374646423"/>
    <nd ref="374646321"/>
    <nd ref="374646384"/>
    <nd ref="373606814"/>
    <tag k="highway" v="residential"/>
    <tag k="name" v="Wzgórz"/>
    <tag k="surface" v="unpaved"/>
  </way>
  <way id="33150988" version="2" timestamp="2009-10-20T22:42:29Z" uid="20587" user="balrog-kun" changeset="2908055">
    <nd ref="374646913"/>
    <nd ref="374646396"/>
    <nd ref="374646898"/>
    <nd ref="537200487"/>
    <nd ref="374646408"/>
    <nd ref="374646511"/>
    <nd ref="374646423"/>
    <nd ref="374646321"/>
    <nd ref="374646384"/>
    <nd ref="537200488"/>
    <nd ref="373606814"/>
    <tag k="highway" v="residential"/>
    <tag k="name" v="Wzgórz"/>
    <tag k="surface" v="unpaved"/>
  </way>
  <way id="33150989" version="1" timestamp="2009-04-14T00:06:54Z" uid="20587" user="balrog-kun" changeset="511475">
    <nd ref="374646434"/>
    <nd ref="374646450"/>
    <nd ref="374646467"/>
    <nd ref="374646480"/>
    <nd ref="374646571"/>
    <nd ref="374646496"/>
    <tag k="highway" v="unsurfaced"/>
    <tag k="name" v="Leszczynowa"/>
  </way>
  <way id="33150989" version="2" timestamp="2011-12-25T16:37:34Z" uid="467703" user="Zbigniew Czernik" changeset="10201059">
    <nd ref="374646434"/>
    <nd ref="374646450"/>
    <nd ref="374646467"/>
    <nd ref="374646480"/>
    <nd ref="374646571"/>
    <nd ref="374646496"/>
    <tag k="highway" v="track"/>
    <tag k="name" v="Leszczynowa"/>
    <tag k="tracktype" v="grade1"/>
  </way>
  <way id="33150990" version="1" timestamp="2009-04-14T00:06:55Z" uid="20587" user="balrog-kun" changeset="511475">
    <nd ref="374646511"/>
    <nd ref="374646521"/>
    <nd ref="374646545"/>
    <nd ref="374646556"/>
    <nd ref="374646571"/>
    <nd ref="374646583"/>
    <nd ref="374646620"/>
    <nd ref="374646598"/>
    <nd ref="373606835"/>
    <nd ref="374646608"/>
    <tag k="highway" v="residential"/>
    <tag k="name" v="Urocza"/>
    <tag k="surface" v="unpaved"/>
  </way>
  <way id="33150992" version="1" timestamp="2009-04-14T00:06:56Z" uid="20587" user="balrog-kun" changeset="511475">
    <nd ref="373606835"/>
    <nd ref="374646634"/>
    <nd ref="374647045"/>
    <nd ref="374646648"/>
    <nd ref="374646663"/>
    <nd ref="374646881"/>
    <nd ref="374646678"/>
    <nd ref="374647065"/>
    <nd ref="374646695"/>
    <nd ref="374646708"/>
    <tag k="highway" v="track"/>
    <tag k="name" v="Nowinek"/>
  </way>
  <way id="33150992" version="2" timestamp="2009-11-02T13:09:34Z" uid="20587" user="balrog-kun" changeset="3016114">
    <nd ref="373606835"/>
    <nd ref="374646634"/>
    <nd ref="374647045"/>
    <nd ref="374646648"/>
    <nd ref="374646663"/>
    <nd ref="374646881"/>
    <tag k="highway" v="track"/>
    <tag k="name" v="Nowinek"/>
  </way>
  <way id="33150994" version="1" timestamp="2009-04-14T00:06:56Z" uid="20587" user="balrog-kun" changeset="511475">
    <nd ref="311432192"/>
    <nd ref="374646722"/>
    <nd ref="374646762"/>
    <nd ref="374646733"/>
    <tag k="highway" v="residential"/>
    <tag k="name" v="Słowików"/>
    <tag k="surface" v="unpaved"/>
  </way>
  <way id="33150995" version="1" timestamp="2009-04-14T00:06:57Z" uid="20587" user="balrog-kun" changeset="511475">
    <nd ref="374646747"/>
    <nd ref="374646762"/>
    <tag k="highway" v="residential"/>
    <tag k="name" v="Kukułki"/>
    <tag k="note" v="TODO"/>
    <tag k="surface" v="unpaved"/>
  </way>
  <way id="33150996" version="1" timestamp="2009-04-14T00:06:57Z" uid="20587" user="balrog-kun" changeset="511475">
    <nd ref="374646298"/>
    <nd ref="374646785"/>
    <tag k="highway" v="track"/>
    <tag k="name" v="Grających Świerszczy"/>
    <tag k="note" v="TODO (completely invisible in Yahoo! Aerial)"/>
  </way>
  <way id="33150996" version="2" timestamp="2011-06-23T20:07:59Z" uid="98542" user="wajak" changeset="8526369">
    <nd ref="374646298"/>
    <nd ref="374646733"/>
    <tag k="highway" v="residential"/>
    <tag k="name" v="Grających Świerszczy"/>
  </way>
  <way id="33150997" version="1" timestamp="2009-04-14T00:06:58Z" uid="20587" user="balrog-kun" changeset="511475">
    <nd ref="374646799"/>
    <nd ref="374646808"/>
    <tag k="highway" v="track"/>
    <tag k="name" v="Zielonych Żabek"/>
    <tag k="note" v="TODO (completely invisible in Yahoo! Aerial)"/>
  </way>
  <way id="33150999" version="1" timestamp="2009-04-14T00:06:58Z" uid="20587" user="balrog-kun" changeset="511475">
    <nd ref="374646824"/>
    <nd ref="374646836"/>
    <nd ref="374646850"/>
    <nd ref="374646865"/>
    <nd ref="374646881"/>
    <tag k="highway" v="track"/>
  </way>
  <way id="33150999" version="2" timestamp="2009-11-02T13:09:33Z" uid="20587" user="balrog-kun" changeset="3016114">
    <nd ref="374646824"/>
    <nd ref="374646836"/>
    <tag k="highway" v="track"/>
  </way>
</osm>
