<?xml version='1.0' encoding='UTF-8'?>
<osm version="0.6" generator="libosmium/2.20.0">
  <way id="33162229" version="4" timestamp="2010-07-09T03:08:56Z" uid="74617" user="JohnSmith" changeset="5170713">
    <nd ref="375234872"/>
    <nd ref="308404518"/>
    <nd ref="308404519"/>
    <nd ref="308404520"/>
    <nd ref="308405229"/>
    <nd ref="308404522"/>
    <nd ref="308404523"/>
    <nd ref="308404524"/>
    <nd ref="308404525"/>
    <nd ref="308404526"/>
    <nd ref="308404528"/>
    <nd ref="308403161"/>
    <nd ref="308403162"/>
    <nd ref="724660289"/>
    <nd ref="308403163"/>
    <nd ref="724660050"/>
    <nd ref="724660052"/>
    <nd ref="724660054"/>
    <nd ref="724660034"/>
    <tag k="highway" v="residential"/>
    <tag k="maxspeed" v="50"/>
    <tag k="maxspeed:source" v="default residential speed limit in Australia"/>
    <tag k="name" v="North Avenue"/>
    <tag k="source" v="MMBW,nearmap"/>
  </way>
  <way id="33162229" version="5" timestamp="2012-01-18T19:30:45Z" uid="147510" user="woodpeck_fixbot" changeset="10429293">
    <nd ref="375234872"/>
    <nd ref="308404518"/>
    <nd ref="308404519"/>
    <nd ref="308404520"/>
    <nd ref="308405229"/>
    <nd ref="308404522"/>
    <nd ref="308404523"/>
    <nd ref="308404524"/>
    <nd ref="308404525"/>
    <nd ref="308404526"/>
    <nd ref="308404528"/>
    <nd ref="308403161"/>
    <nd ref="308403162"/>
    <nd ref="724660289"/>
    <nd ref="308403163"/>
    <nd ref="724660050"/>
    <nd ref="724660052"/>
    <nd ref="724660054"/>
    <nd ref="724660034"/>
    <tag k="highway" v="residential"/>
    <tag k="name" v="North Avenue"/>
    <tag k="source" v="MMBW,nearmap"/>
  </way>
  <way id="33162230" version="2" timestamp="2010-07-09T03:07:28Z" uid="74617" user="JohnSmith" changeset="5170713">
    <nd ref="375234919"/>
    <nd ref="308403158"/>
    <nd ref="308403494"/>
    <nd ref="308403159"/>
    <nd ref="308403160"/>
    <nd ref="308403161"/>
    <tag k="highway" v="residential"/>
    <tag k="maxspeed" v="50"/>
    <tag k="maxspeed:source" v="default residential speed limit in Australia"/>
    <tag k="name" v="South Avenue"/>
    <tag k="source" v="MMBW"/>
  </way>
  <way id="33162230" version="3" timestamp="2012-01-18T19:31:11Z" uid="147510" user="woodpeck_fixbot" changeset="10429293">
    <nd ref="375234919"/>
    <nd ref="308403158"/>
    <nd ref="308403494"/>
    <nd ref="308403159"/>
    <nd ref="308403160"/>
    <nd ref="308403161"/>
    <tag k="highway" v="residential"/>
    <tag k="name" v="South Avenue"/>
    <tag k="source" v="MMBW"/>
  </way>
  <way id="33162266" version="6" timestamp="2010-04-04T01:31:35Z" uid="20587" user="balrog-kun" changeset="4318254">
    <nd ref="376133088"/>
    <nd ref="376133091"/>
    <nd ref="376138112"/>
    <nd ref="376133093"/>
    <nd ref="376133096"/>
    <nd ref="376133097"/>
    <nd ref="376133098"/>
    <nd ref="375243089"/>
    <nd ref="375241113"/>
    <nd ref="376133099"/>
    <nd ref="376133101"/>
    <nd ref="376133104"/>
    <nd ref="375239248"/>
    <nd ref="376133106"/>
    <nd ref="375236792"/>
    <nd ref="375236811"/>
    <tag k="addr:city" v="Casper, WY"/>
    <tag k="addr:postcode" v="82604"/>
    <tag k="created_by" v="Potlatch 0.10f"/>
    <tag k="highway" v="residential"/>
    <tag k="name" v="Painted Horse Trail"/>
  </way>
  <way id="33162290" version="3" timestamp="2010-04-04T01:31:36Z" uid="20587" user="balrog-kun" changeset="4318254">
    <nd ref="375239248"/>
    <nd ref="375239249"/>
    <tag k="addr:city" v="Casper, WY"/>
    <tag k="addr:postcode" v="82604"/>
    <tag k="created_by" v="Potlatch 0.10f"/>
    <tag k="highway" v="residential"/>
    <tag k="name" v="Little Moon Trail"/>
  </way>
  <way id="33162323" version="3" timestamp="2010-04-04T01:31:36Z" uid="20587" user="balrog-kun" changeset="4318254">
    <nd ref="375241111"/>
    <nd ref="375241113"/>
    <nd ref="375241120"/>
    <nd ref="375241128"/>
    <nd ref="375241131"/>
    <nd ref="375241134"/>
    <tag k="addr:city" v="Casper, WY"/>
    <tag k="addr:postcode" v="82604"/>
    <tag k="created_by" v="Potlatch 0.10f"/>
    <tag k="highway" v="residential"/>
    <tag k="name" v="Chief Washakie Road"/>
  </way>
  <way id="33162361" version="3" timestamp="2010-04-04T01:31:36Z" uid="20587" user="balrog-kun" changeset="4318254">
    <nd ref="375243087"/>
    <nd ref="375243089"/>
    <nd ref="375243096"/>
    <nd ref="375243103"/>
    <nd ref="376133088"/>
    <nd ref="375243109"/>
    <tag k="addr:city" v="Casper, WY"/>
    <tag k="addr:postcode" v="82604"/>
    <tag k="created_by" v="Potlatch 0.10f"/>
    <tag k="highway" v="residential"/>
    <tag k="name" v="Squash Blossom Road"/>
  </way>
  <way id="33162459" version="8" timestamp="2009-04-14T21:36:14Z" uid="110593" user="esetzer" changeset="544140">
    <nd ref="364000959"/>
    <nd ref="375252290"/>
    <nd ref="375252191"/>
    <nd ref="375249949"/>
    <nd ref="375249954"/>
    <nd ref="375257342"/>
    <nd ref="364000959"/>
    <tag k="amenity" v="parking"/>
    <tag k="created_by" v="Potlatch 0.10f"/>
    <tag k="name" v="Main Street Plaza"/>
    <tag k="notes" v="formerly part of Main Street - public access easement exists"/>
    <tag k="parking" v="underground"/>
  </way>
  <way id="33162459" version="11" timestamp="2010-02-23T15:16:11Z" uid="113023" user="glaucos" changeset="3954396">
    <nd ref="364000959"/>
    <nd ref="375252290"/>
    <nd ref="375252191"/>
    <nd ref="375249949"/>
    <nd ref="375249954"/>
    <nd ref="375257342"/>
    <nd ref="364000959"/>
    <tag k="leisure" v="park"/>
    <tag k="name" v="Main Street Plaza"/>
    <tag k="note" v="formerly part of Main Street - public access easement exists"/>
    <tag k="parking" v="underground"/>
  </way>
  <way id="33162459" version="12" timestamp="2012-03-06T04:51:19Z" uid="8909" user="mvexel" changeset="10886840">
    <nd ref="364000959"/>
    <nd ref="375252290"/>
    <nd ref="375252191"/>
    <nd ref="375249954"/>
    <nd ref="375257342"/>
    <nd ref="364000959"/>
    <tag k="leisure" v="park"/>
    <tag k="name" v="Main Street Plaza"/>
    <tag k="note" v="formerly part of Main Street - public access easement exists"/>
    <tag k="parking" v="underground"/>
  </way>
  <way id="33162696" version="1" timestamp="2009-04-14T03:33:17Z" uid="104930" user="butlerm" changeset="539800">
    <nd ref="375266680"/>
    <nd ref="375266682"/>
    <nd ref="375266683"/>
    <nd ref="375266685"/>
    <nd ref="375266690"/>
    <nd ref="375266694"/>
    <nd ref="375266680"/>
    <tag k="building" v="yes"/>
    <tag k="created_by" v="Potlatch 0.10f"/>
    <tag k="denomination " v="LDS"/>
    <tag k="name" v="Church History Museum"/>
  </way>
  <way id="33162696" version="2" timestamp="2009-04-14T03:35:19Z" uid="104930" user="butlerm" changeset="539800">
    <nd ref="375266680"/>
    <nd ref="375266682"/>
    <nd ref="375266683"/>
    <nd ref="375266685"/>
    <nd ref="375266690"/>
    <nd ref="375266694"/>
    <nd ref="375266680"/>
    <tag k="building" v="museum"/>
    <tag k="created_by" v="Potlatch 0.10f"/>
    <tag k="denomination " v="LDS"/>
    <tag k="name" v="Church History Museum"/>
  </way>
  <way id="33162696" version="3" timestamp="2009-04-14T03:35:34Z" uid="104930" user="butlerm" changeset="539800">
    <nd ref="375266680"/>
    <nd ref="375266682"/>
    <nd ref="375266683"/>
    <nd ref="375266685"/>
    <nd ref="375266690"/>
    <nd ref="375266694"/>
    <nd ref="375266680"/>
    <tag k="building" v="museum"/>
    <tag k="created_by" v="Potlatch 0.10f"/>
    <tag k="denomination " v="LDS"/>
    <tag k="name" v="Church History Museum"/>
    <tag k="tourism" v="attraction"/>
  </way>
  <way id="33162696" version="4" timestamp="2009-04-15T04:53:40Z" uid="6975" user="ulfl" changeset="553994">
    <nd ref="375266680"/>
    <nd ref="375266682"/>
    <nd ref="375266683"/>
    <nd ref="375266685"/>
    <nd ref="375266690"/>
    <nd ref="375266694"/>
    <nd ref="375266680"/>
    <tag k="building" v="museum"/>
    <tag k="denomination" v="LDS"/>
    <tag k="name" v="Church History Museum"/>
    <tag k="tourism" v="attraction"/>
  </way>
  <way id="33162696" version="5" timestamp="2010-03-09T02:50:08Z" uid="1679" user="andrewpmk" changeset="4077899">
    <nd ref="375266680"/>
    <nd ref="375266682"/>
    <nd ref="375266683"/>
    <nd ref="375266685"/>
    <nd ref="375266690"/>
    <nd ref="375266694"/>
    <nd ref="375266680"/>
    <tag k="building" v="museum"/>
    <tag k="denomination" v="LDS"/>
    <tag k="name" v="Church History Museum"/>
    <tag k="operator" v="The Church of Jesus Christ of Latter-day Saints"/>
    <tag k="tourism" v="attraction"/>
  </way>
  <way id="33162696" version="6" timestamp="2010-12-20T22:02:37Z" uid="51045" user="Geogast" changeset="6720757">
    <nd ref="375266680"/>
    <nd ref="375266682"/>
    <nd ref="375266683"/>
    <nd ref="375266685"/>
    <nd ref="375266690"/>
    <nd ref="375266694"/>
    <nd ref="375266680"/>
    <tag k="building" v="museum"/>
    <tag k="denomination" v="mormon"/>
    <tag k="name" v="Church History Museum"/>
    <tag k="operator" v="The Church of Jesus Christ of Latter-day Saints"/>
    <tag k="religion" v="christian"/>
    <tag k="tourism" v="attraction"/>
  </way>
  <way id="33162726" version="1" timestamp="2009-04-14T03:34:51Z" uid="18775" user="drlizau" changeset="510610">
    <nd ref="375269577"/>
    <nd ref="375269493"/>
    <tag k="highway" v="unclassified"/>
    <tag k="name" v="Nancarrow Lane"/>
  </way>
  <way id="33162726" version="2" timestamp="2009-04-14T10:18:48Z" uid="18775" user="drlizau" changeset="527072">
    <nd ref="375269577"/>
    <nd ref="375269493"/>
    <tag k="highway" v="unclassified"/>
    <tag k="name" v="Nancarrow Lane"/>
    <tag k="source" v="landsat"/>
    <tag k="source:name" v="survey"/>
  </way>
  <way id="33162726" version="3" timestamp="2010-05-31T14:48:32Z" uid="67896" user="mrpulley" changeset="4864114">
    <nd ref="760432677"/>
    <nd ref="760432678"/>
    <nd ref="760432679"/>
    <nd ref="760432681"/>
    <nd ref="760432689"/>
    <nd ref="760432691"/>
    <nd ref="760432693"/>
    <nd ref="375269577"/>
    <nd ref="760432696"/>
    <nd ref="760432657"/>
    <nd ref="760432698"/>
    <nd ref="760432636"/>
    <tag k="highway" v="unclassified"/>
    <tag k="name" v="Nancarrow Lane"/>
    <tag k="source" v="survey"/>
    <tag k="source:name" v="survey"/>
    <tag k="surface" v="asphalt"/>
  </way>
  <way id="33162727" version="1" timestamp="2009-04-14T03:34:53Z" uid="18775" user="drlizau" changeset="510610">
    <nd ref="375269493"/>
    <nd ref="375269532"/>
    <tag k="highway" v="unclassified"/>
    <tag k="name" v="Nashdale Lane"/>
  </way>
  <way id="33162727" version="2" timestamp="2009-04-14T10:18:49Z" uid="18775" user="drlizau" changeset="527072">
    <nd ref="375269493"/>
    <nd ref="375269532"/>
    <tag k="highway" v="unclassified"/>
    <tag k="name" v="Nashdale Lane"/>
    <tag k="source" v="landsat"/>
    <tag k="source:name" v="survey"/>
  </way>
  <way id="33162727" version="3" timestamp="2010-05-31T14:48:20Z" uid="67896" user="mrpulley" changeset="4864114">
    <nd ref="375269532"/>
    <nd ref="760432636"/>
    <tag k="highway" v="unclassified"/>
    <tag k="name" v="Nashdale Lane"/>
    <tag k="source" v="landsat"/>
    <tag k="source:name" v="survey"/>
  </way>
  <way id="33162459" version="13" timestamp="2012-07-18T18:37:36Z" uid="722137" user="OSMF Redaction Account" changeset="12292918">
    <nd ref="364000959"/>
    <nd ref="375252290"/>
    <nd ref="375252191"/>
    <nd ref="375249954"/>
    <nd ref="375257342"/>
    <nd ref="364000959"/>
    <tag k="leisure" v="park"/>
    <tag k="name" v="Main Street Plaza"/>
    <tag k="note" v="formerly part of Main Street - public access easement exists"/>
  </way>
  <way id="33162726" version="4" timestamp="2012-07-15T14:14:36Z" uid="67896" user="mrpulley" changeset="12229488"/>
  <way id="33162727" version="4" timestamp="2012-07-19T14:52:06Z" uid="722137" user="OSMF Redaction Account" changeset="12332193"/>
</osm>
