<?xml version='1.0' encoding='UTF-8'?>
<osm version="0.6" generator="libosmium/2.20.0">
  <way id="3318953" version="2" timestamp="2008-07-05T17:12:12Z" uid="6975" user="ulfl" changeset="398437">
    <nd ref="401008"/>
    <nd ref="401009"/>
    <nd ref="16350758"/>
    <tag k="bicycleRoute" v="NR5"/>
    <tag k="highway" v="residential"/>
    <tag k="name" v="Bertie Place"/>
    <tag k="ncn_ref" v="5"/>
    <tag k="route" v="ncn"/>
  </way>
  <way id="3318953" version="3" timestamp="2009-01-17T21:43:09Z" uid="7037" user="Gregory Williams" changeset="800355">
    <nd ref="401008"/>
    <nd ref="401009"/>
    <nd ref="16350758"/>
    <tag k="highway" v="residential"/>
    <tag k="name" v="Bertie Place"/>
    <tag k="ncn_ref" v="5"/>
    <tag k="route" v="ncn"/>
  </way>
  <way id="3318953" version="4" timestamp="2009-01-29T21:35:33Z" uid="74570" user="Richard Mann" changeset="856610">
    <nd ref="401008"/>
    <nd ref="339010808"/>
    <nd ref="401009"/>
    <nd ref="16350758"/>
    <tag k="created_by" v="Potlatch 0.10f"/>
    <tag k="highway" v="residential"/>
    <tag k="name" v="Bertie Place"/>
    <tag k="ncn_ref" v="5"/>
    <tag k="route" v="ncn"/>
  </way>
  <way id="3318953" version="5" timestamp="2009-01-29T21:39:35Z" uid="74570" user="Richard Mann" changeset="856610">
    <nd ref="401008"/>
    <nd ref="339010808"/>
    <tag k="created_by" v="Potlatch 0.10f"/>
    <tag k="highway" v="residential"/>
    <tag k="name" v="Bertie Place"/>
    <tag k="ncn_ref" v="5"/>
    <tag k="route" v="ncn"/>
  </way>
  <way id="3318953" version="6" timestamp="2009-01-29T21:39:43Z" uid="74570" user="Richard Mann" changeset="856610">
    <nd ref="401008"/>
    <nd ref="339010808"/>
    <tag k="created_by" v="Potlatch 0.10f"/>
    <tag k="highway" v="residential"/>
    <tag k="name" v="Bertie Place"/>
  </way>
  <way id="3318953" version="7" timestamp="2009-08-26T15:54:20Z" uid="27408" user="Andrew Chadwick" changeset="2268869">
    <nd ref="401008"/>
    <nd ref="339010808"/>
    <tag k="highway" v="residential"/>
    <tag k="maxspeed" v="20 mph"/>
    <tag k="maxspeed:note" v="Oxford 20 mph zone"/>
    <tag k="name" v="Bertie Place"/>
  </way>
  <way id="3318953" version="8" timestamp="2010-07-18T10:29:26Z" uid="312077" user="Engybengy" changeset="5249741"/>
</osm>
