<?xml version='1.0' encoding='UTF-8'?>
<osm version="0.6" generator="libosmium/2.20.0">
  <way id="33245159" version="4" timestamp="2010-04-03T04:13:47Z" uid="20587" user="balrog-kun" changeset="4309442">
    <nd ref="175367393"/>
    <nd ref="175395118"/>
    <tag k="created_by" v="Potlatch 0.10f"/>
    <tag k="highway" v="pedestrian"/>
    <tag k="name" v="East 5th Street"/>
    <tag k="tiger:cfcc" v="A41"/>
    <tag k="tiger:county" v="Pima, AZ"/>
    <tag k="tiger:name_base" v="5th"/>
    <tag k="tiger:name_direction_prefix" v="E"/>
    <tag k="tiger:name_type" v="St"/>
    <tag k="tiger:reviewed" v="no"/>
    <tag k="tiger:separated" v="no"/>
    <tag k="tiger:source" v="tiger_import_dch_v0.6_20070809"/>
    <tag k="tiger:tlid" v="121399504"/>
    <tag k="tiger:zip_left" v="85719"/>
    <tag k="tiger:zip_right" v="85719"/>
  </way>
  <way id="33245162" version="5" timestamp="2011-03-14T15:25:56Z" uid="4467" user="Rosscoe" changeset="7557457">
    <nd ref="377274186"/>
    <nd ref="1201689402"/>
    <nd ref="377274192"/>
    <nd ref="377274201"/>
    <nd ref="377274209"/>
    <nd ref="377274186"/>
    <tag k="leisure" v="pitch"/>
    <tag k="name" v="Royal South Yarra Lawn Tennis Club"/>
    <tag k="sport" v="tennis"/>
  </way>
  <way id="33245162" version="6" timestamp="2011-07-05T13:42:40Z" uid="371324" user="Rudi Heitbaum" changeset="8639259">
    <nd ref="377274186"/>
    <nd ref="1201689402"/>
    <nd ref="377274192"/>
    <nd ref="377274201"/>
    <nd ref="377274209"/>
    <nd ref="377274186"/>
    <tag k="leisure" v="sports_centre"/>
    <tag k="name" v="Royal South Yarra Lawn Tennis Club"/>
    <tag k="sport" v="tennis"/>
  </way>
  <way id="33245293" version="6" timestamp="2011-03-14T15:26:43Z" uid="4467" user="Rosscoe" changeset="7557457">
    <nd ref="210510786"/>
    <nd ref="344807080"/>
    <nd ref="210510837"/>
    <nd ref="210510915"/>
    <tag k="highway" v="tertiary"/>
    <tag k="is_in" v="Toorak,Victoria,Australia"/>
    <tag k="name" v="Orrong Road"/>
    <tag k="postal_code" v="3142"/>
  </way>
  <way id="33245390" version="2" timestamp="2010-07-09T05:00:20Z" uid="74617" user="JohnSmith" changeset="5170972">
    <nd ref="377282602"/>
    <nd ref="377282843"/>
    <tag k="highway" v="residential"/>
    <tag k="maxspeed" v="50"/>
    <tag k="maxspeed:source" v="default residential speed limit in Australia"/>
    <tag k="name" v="Gahan Place"/>
  </way>
  <way id="33245390" version="3" timestamp="2012-01-18T19:35:14Z" uid="147510" user="woodpeck_fixbot" changeset="10429293">
    <nd ref="377282602"/>
    <nd ref="377282843"/>
    <tag k="highway" v="residential"/>
    <tag k="name" v="Gahan Place"/>
  </way>
  <way id="33245406" version="2" timestamp="2010-07-09T04:56:13Z" uid="74617" user="JohnSmith" changeset="5170972">
    <nd ref="377283021"/>
    <nd ref="377283485"/>
    <tag k="highway" v="residential"/>
    <tag k="maxspeed" v="50"/>
    <tag k="maxspeed:source" v="default residential speed limit in Australia"/>
    <tag k="name" v="Blackfriars Close"/>
  </way>
  <way id="33245406" version="3" timestamp="2012-01-18T19:35:15Z" uid="147510" user="woodpeck_fixbot" changeset="10429293">
    <nd ref="377283021"/>
    <nd ref="377283485"/>
    <tag k="highway" v="residential"/>
    <tag k="name" v="Blackfriars Close"/>
  </way>
  <way id="33245162" version="7" timestamp="2012-07-20T00:22:15Z" uid="722137" user="OSMF Redaction Account" changeset="12352151">
    <nd ref="377274186"/>
    <nd ref="377274192"/>
    <nd ref="377274201"/>
    <nd ref="377274209"/>
    <nd ref="377274186"/>
    <tag k="leisure" v="sports_centre"/>
    <tag k="name" v="Royal South Yarra Lawn Tennis Club"/>
    <tag k="sport" v="tennis"/>
  </way>
</osm>
