<?xml version='1.0' encoding='UTF-8'?>
<osm version="0.6" generator="libosmium/2.20.0">
  <way id="33456002" version="2" timestamp="2010-05-25T21:16:45Z" uid="9581" user="Lobelt" changeset="4808350">
    <nd ref="748424570"/>
    <nd ref="380725127"/>
    <nd ref="380726519"/>
    <nd ref="380726521"/>
    <tag k="highway" v="residential"/>
    <tag k="name" v="Treidlergasse"/>
  </way>
  <way id="33456002" version="3" timestamp="2012-01-07T13:22:39Z" uid="183436" user="mtb" changeset="10320949">
    <nd ref="1580890754"/>
    <nd ref="380725127"/>
    <nd ref="380726521"/>
    <tag k="highway" v="residential"/>
    <tag k="name" v="Treidlergasse"/>
  </way>
  <way id="33456002" version="4" timestamp="2012-02-14T20:46:29Z" uid="183436" user="mtb" changeset="10687071">
    <nd ref="1580890754"/>
    <nd ref="380725127"/>
    <nd ref="380726521"/>
    <tag k="highway" v="residential"/>
    <tag k="name" v="Treidlergasse"/>
    <tag k="odbl" v="clean"/>
  </way>
  <way id="33456004" version="2" timestamp="2010-04-07T13:36:01Z" uid="20587" user="balrog-kun" changeset="4353646">
    <nd ref="151337602"/>
    <nd ref="151327489"/>
    <nd ref="151337604"/>
    <nd ref="151337605"/>
    <nd ref="151337606"/>
    <tag k="highway" v="residential"/>
    <tag k="name" v="Lark Avenue"/>
    <tag k="tiger:cfcc" v="A41"/>
    <tag k="tiger:county" v="Hidalgo, TX"/>
    <tag k="tiger:name_base" v="Lark"/>
    <tag k="tiger:name_type" v="Ave"/>
    <tag k="tiger:reviewed" v="no"/>
    <tag k="tiger:separated" v="no"/>
    <tag k="tiger:source" v="tiger_import_dch_v0.6_20070830"/>
    <tag k="tiger:tlid" v="71494483:71494486:71530120:71494494:71493672"/>
    <tag k="tiger:zip_left" v="78504"/>
    <tag k="tiger:zip_right" v="78504"/>
  </way>
  <way id="33456351" version="8" timestamp="2010-11-26T18:48:09Z" uid="9581" user="Lobelt" changeset="6464209">
    <nd ref="380731900"/>
    <nd ref="1005754937"/>
    <nd ref="1005755038"/>
    <nd ref="380730513"/>
    <nd ref="380731879"/>
    <nd ref="380730521"/>
    <nd ref="380730525"/>
    <nd ref="64716645"/>
    <tag k="bicycle" v="designated"/>
    <tag k="foot" v="designated"/>
    <tag k="highway" v="path"/>
    <tag k="segregated" v="no"/>
  </way>
  <way id="33456351" version="9" timestamp="2012-03-09T20:48:25Z" uid="55687" user="dschuwa" changeset="10925293"/>
  <way id="33456494" version="12" timestamp="2009-06-24T22:12:00Z" uid="138868" user="zokiNBGD" changeset="1617491">
    <nd ref="290342941"/>
    <nd ref="380734272"/>
    <nd ref="380734055"/>
    <nd ref="380731894"/>
    <nd ref="380731895"/>
    <nd ref="386579046"/>
    <nd ref="380731896"/>
    <nd ref="380731941"/>
    <nd ref="380731897"/>
    <nd ref="412108793"/>
    <nd ref="387265871"/>
    <nd ref="387265997"/>
    <nd ref="387266054"/>
    <nd ref="290342921"/>
    <tag k="highway" v="tertiary"/>
    <tag k="name" v="Тошин бунар"/>
  </way>
  <way id="33456494" version="13" timestamp="2009-08-27T04:17:08Z" uid="144397" user="[Sx]" changeset="2273765">
    <nd ref="290342941"/>
    <nd ref="380734272"/>
    <nd ref="380734055"/>
    <nd ref="380731894"/>
    <nd ref="380731895"/>
    <nd ref="386579046"/>
    <nd ref="380731896"/>
    <nd ref="380731941"/>
    <nd ref="380731897"/>
    <nd ref="412108793"/>
    <nd ref="387265871"/>
    <nd ref="387265997"/>
    <nd ref="387266054"/>
    <nd ref="290342921"/>
    <tag k="highway" v="tertiary"/>
    <tag k="name:sr@cyrillic" v="Тошин бунар"/>
  </way>
  <way id="33456494" version="14" timestamp="2009-08-27T04:20:10Z" uid="144397" user="[Sx]" changeset="2273765">
    <nd ref="290342941"/>
    <nd ref="474952674"/>
    <nd ref="380734272"/>
    <nd ref="380734055"/>
    <nd ref="380731894"/>
    <nd ref="380731895"/>
    <nd ref="386579046"/>
    <nd ref="380731896"/>
    <nd ref="380731941"/>
    <nd ref="380731897"/>
    <nd ref="412108793"/>
    <nd ref="387265871"/>
    <nd ref="387265997"/>
    <nd ref="387266054"/>
    <nd ref="290342921"/>
    <tag k="highway" v="tertiary"/>
    <tag k="name" v="Tošin bunar"/>
    <tag k="name:sr@cyrillic" v="Тошин бунар"/>
    <tag k="oneway" v="yes"/>
  </way>
  <way id="33456494" version="15" timestamp="2011-03-17T00:01:11Z" uid="107878" user="Eldarion" changeset="7581099">
    <nd ref="290342941"/>
    <nd ref="474952674"/>
    <nd ref="380734272"/>
    <nd ref="1205052368"/>
    <nd ref="380734055"/>
    <nd ref="380731894"/>
    <nd ref="380731895"/>
    <nd ref="386579046"/>
    <nd ref="380731896"/>
    <nd ref="380731941"/>
    <nd ref="380731897"/>
    <nd ref="412108793"/>
    <nd ref="387265871"/>
    <nd ref="387265997"/>
    <nd ref="387266054"/>
    <nd ref="290342921"/>
    <tag k="highway" v="tertiary"/>
    <tag k="name" v="Tošin bunar"/>
    <tag k="name:sr@cyrillic" v="Тошин бунар"/>
    <tag k="oneway" v="yes"/>
  </way>
  <way id="33456494" version="16" timestamp="2011-11-19T01:14:27Z" uid="441816" user="kmilos" changeset="9869379">
    <nd ref="290342941"/>
    <nd ref="474952674"/>
    <nd ref="380734272"/>
    <nd ref="380734055"/>
    <nd ref="380731894"/>
    <nd ref="380731895"/>
    <nd ref="386579046"/>
    <nd ref="380731896"/>
    <nd ref="380731941"/>
    <nd ref="380731897"/>
    <nd ref="412108793"/>
    <nd ref="387265871"/>
    <nd ref="387265997"/>
    <nd ref="387266054"/>
    <nd ref="290342921"/>
    <tag k="alt_name" v="Tosin bunar"/>
    <tag k="highway" v="tertiary"/>
    <tag k="name" v="Tošin bunar"/>
    <tag k="name:sr" v="Тошин бунар"/>
    <tag k="oneway" v="yes"/>
  </way>
  <way id="33456494" version="17" timestamp="2012-03-04T13:02:10Z" uid="441816" user="kmilos" changeset="10868106">
    <nd ref="290342941"/>
    <nd ref="474952674"/>
    <nd ref="380734272"/>
    <nd ref="380734055"/>
    <nd ref="380731894"/>
    <nd ref="380731895"/>
    <nd ref="386579046"/>
    <nd ref="380731896"/>
    <nd ref="380731941"/>
    <nd ref="380731897"/>
    <nd ref="412108793"/>
    <nd ref="387265871"/>
    <nd ref="387266054"/>
    <nd ref="290342921"/>
    <tag k="alt_name" v="Tosin bunar"/>
    <tag k="highway" v="tertiary"/>
    <tag k="name" v="Tošin bunar"/>
    <tag k="name:sr" v="Тошин бунар"/>
    <tag k="oneway" v="yes"/>
  </way>
  <way id="33456494" version="18" timestamp="2012-03-10T12:16:16Z" uid="441816" user="kmilos" changeset="10930352">
    <nd ref="290342941"/>
    <nd ref="474952674"/>
    <nd ref="380734272"/>
    <nd ref="380734055"/>
    <nd ref="380731894"/>
    <nd ref="380731895"/>
    <nd ref="386579046"/>
    <nd ref="380731896"/>
    <nd ref="380731941"/>
    <nd ref="380731897"/>
    <nd ref="412108793"/>
    <nd ref="387265871"/>
    <nd ref="387266054"/>
    <nd ref="290342921"/>
    <tag k="highway" v="tertiary"/>
    <tag k="name" v="Тошин бунар"/>
    <tag k="name:sr" v="Тошин бунар"/>
    <tag k="name:sr-Latn" v="Tošin bunar"/>
    <tag k="oneway" v="yes"/>
  </way>
  <way id="33456679" version="7" timestamp="2010-05-25T21:16:38Z" uid="9581" user="Lobelt" changeset="4808350">
    <nd ref="477792411"/>
    <nd ref="477792414"/>
    <nd ref="477792417"/>
    <nd ref="477792419"/>
    <nd ref="748424392"/>
    <nd ref="477792423"/>
    <nd ref="477792427"/>
    <nd ref="477792429"/>
    <nd ref="477792432"/>
    <nd ref="477792434"/>
    <nd ref="477792436"/>
    <nd ref="477792459"/>
    <nd ref="477792437"/>
    <nd ref="477792438"/>
    <nd ref="477792439"/>
    <nd ref="477792441"/>
    <nd ref="477792442"/>
    <nd ref="477792444"/>
    <nd ref="477792445"/>
    <nd ref="477792447"/>
    <nd ref="477792448"/>
    <nd ref="477792450"/>
    <nd ref="477792452"/>
    <nd ref="477792453"/>
    <nd ref="477792456"/>
    <tag k="highway" v="unclassified"/>
    <tag k="name" v="Inselstraße"/>
  </way>
  <way id="33456679" version="8" timestamp="2012-02-14T20:46:06Z" uid="183436" user="mtb" changeset="10687071">
    <nd ref="477792411"/>
    <nd ref="477792414"/>
    <nd ref="477792417"/>
    <nd ref="477792419"/>
    <nd ref="748424392"/>
    <nd ref="477792423"/>
    <nd ref="477792427"/>
    <nd ref="477792429"/>
    <nd ref="477792432"/>
    <nd ref="477792434"/>
    <nd ref="477792436"/>
    <nd ref="477792459"/>
    <nd ref="477792437"/>
    <nd ref="477792438"/>
    <nd ref="477792439"/>
    <nd ref="477792441"/>
    <nd ref="477792442"/>
    <nd ref="477792444"/>
    <nd ref="477792445"/>
    <nd ref="477792447"/>
    <nd ref="477792448"/>
    <nd ref="477792450"/>
    <nd ref="477792452"/>
    <nd ref="477792453"/>
    <nd ref="477792456"/>
    <tag k="highway" v="unclassified"/>
    <tag k="name" v="Inselstraße"/>
    <tag k="odbl" v="clean"/>
  </way>
  <way id="33456778" version="5" timestamp="2010-05-25T21:16:52Z" uid="9581" user="Lobelt" changeset="4808350">
    <nd ref="380734482"/>
    <nd ref="380736614"/>
    <nd ref="380736616"/>
    <nd ref="380738653"/>
    <nd ref="380738654"/>
    <nd ref="748424416"/>
    <nd ref="380808581"/>
    <nd ref="380808584"/>
    <tag k="highway" v="residential"/>
    <tag k="maxspeed" v="30"/>
    <tag k="name" v="Maximilianstraße"/>
  </way>
  <way id="33456778" version="6" timestamp="2012-02-14T20:46:18Z" uid="183436" user="mtb" changeset="10687071">
    <nd ref="380734482"/>
    <nd ref="380736614"/>
    <nd ref="380736616"/>
    <nd ref="380738653"/>
    <nd ref="380738654"/>
    <nd ref="748424416"/>
    <nd ref="380808581"/>
    <nd ref="380808584"/>
    <tag k="highway" v="residential"/>
    <tag k="maxspeed" v="30"/>
    <tag k="name" v="Maximilianstraße"/>
    <tag k="odbl" v="clean"/>
  </way>
  <way id="33456778" version="7" timestamp="2012-03-12T07:09:47Z" uid="42429" user="FK270673" changeset="10951537">
    <nd ref="380734482"/>
    <nd ref="380736616"/>
    <nd ref="380738653"/>
    <nd ref="380738654"/>
    <nd ref="748424416"/>
    <nd ref="380808581"/>
    <nd ref="380808584"/>
    <tag k="highway" v="residential"/>
    <tag k="maxspeed" v="30"/>
    <tag k="name" v="Maximilianstraße"/>
    <tag k="odbl" v="clean"/>
  </way>
  <way id="33456933" version="2" timestamp="2009-10-21T00:26:59Z" uid="36809" user="pfoten_weg_!_" changeset="2908255">
    <nd ref="371145575"/>
    <nd ref="371145579"/>
    <tag k="access" v="private"/>
    <tag k="highway" v="unclassified"/>
    <tag k="maxspeed" v="40"/>
  </way>
  <way id="33456935" version="2" timestamp="2009-10-21T00:26:56Z" uid="36809" user="pfoten_weg_!_" changeset="2908255">
    <nd ref="371145570"/>
    <nd ref="371145571"/>
    <nd ref="371145572"/>
    <nd ref="371145573"/>
    <nd ref="371145574"/>
    <nd ref="371145575"/>
    <tag k="access" v="private"/>
    <tag k="highway" v="unclassified"/>
    <tag k="maxspeed" v="40"/>
    <tag k="oneway" v="yes"/>
  </way>
  <way id="33456937" version="2" timestamp="2009-10-21T00:27:00Z" uid="36809" user="pfoten_weg_!_" changeset="2908255">
    <nd ref="380738049"/>
    <nd ref="380738052"/>
    <nd ref="380738054"/>
    <nd ref="380738055"/>
    <nd ref="380738049"/>
    <tag k="amenity" v="parking"/>
  </way>
  <way id="33456938" version="4" timestamp="2010-05-25T21:16:40Z" uid="9581" user="Lobelt" changeset="4808350">
    <nd ref="300026190"/>
    <nd ref="748424286"/>
    <nd ref="300026198"/>
    <nd ref="380737418"/>
    <nd ref="380738325"/>
    <nd ref="380738068"/>
    <nd ref="380804075"/>
    <nd ref="380804077"/>
    <tag k="highway" v="residential"/>
    <tag k="name" v="Landeckstraße"/>
  </way>
  <way id="33456938" version="5" timestamp="2011-10-08T16:57:25Z" uid="226994" user="Wegabschneider" changeset="9504571">
    <nd ref="300026190"/>
    <nd ref="748424286"/>
    <nd ref="300026198"/>
    <nd ref="380737418"/>
    <nd ref="380738325"/>
    <nd ref="380738068"/>
    <nd ref="380804077"/>
    <tag k="highway" v="residential"/>
    <tag k="name" v="Landeckstraße"/>
  </way>
  <way id="33456938" version="6" timestamp="2012-02-14T20:46:12Z" uid="183436" user="mtb" changeset="10687071">
    <nd ref="300026190"/>
    <nd ref="748424286"/>
    <nd ref="300026198"/>
    <nd ref="380737418"/>
    <nd ref="380738325"/>
    <nd ref="380738068"/>
    <nd ref="380804077"/>
    <tag k="highway" v="residential"/>
    <tag k="name" v="Landeckstraße"/>
    <tag k="odbl" v="clean"/>
  </way>
  <way id="33456984" version="3" timestamp="2010-04-07T13:36:02Z" uid="20587" user="balrog-kun" changeset="4353646">
    <nd ref="151337971"/>
    <nd ref="380738753"/>
    <nd ref="151360652"/>
    <nd ref="380719174"/>
    <nd ref="380719179"/>
    <nd ref="151354743"/>
    <tag k="highway" v="residential"/>
    <tag k="name" v="North 35th Street"/>
    <tag k="tiger:cfcc" v="A41"/>
    <tag k="tiger:county" v="Hidalgo, TX"/>
    <tag k="tiger:name_base" v="35th"/>
    <tag k="tiger:name_direction_prefix" v="N"/>
    <tag k="tiger:name_type" v="St"/>
    <tag k="tiger:reviewed" v="no"/>
    <tag k="tiger:separated" v="no"/>
    <tag k="tiger:source" v="tiger_import_dch_v0.6_20070830"/>
    <tag k="tiger:tlid" v="71529959"/>
    <tag k="tiger:zip_left" v="78504"/>
    <tag k="tiger:zip_right" v="78504"/>
  </way>
  <way id="33456494" version="19" timestamp="2012-04-12T12:00:56Z" uid="399714" user="miros mari" changeset="11275614"/>
  <way id="33456494" version="20" timestamp="2012-04-18T08:25:07Z" uid="212207" user="SunCobalt" changeset="11341204">
    <nd ref="290342941"/>
    <nd ref="474952674"/>
    <nd ref="380734272"/>
    <nd ref="380734055"/>
    <nd ref="380731894"/>
    <nd ref="380731895"/>
    <nd ref="386579046"/>
    <nd ref="380731896"/>
    <nd ref="380731941"/>
    <nd ref="380731897"/>
    <nd ref="412108793"/>
    <nd ref="387265871"/>
    <nd ref="387266054"/>
    <nd ref="290342921"/>
    <tag k="highway" v="tertiary"/>
    <tag k="name" v="Тошин бунар"/>
    <tag k="name:sr" v="Тошин бунар"/>
    <tag k="name:sr-Latn" v="Tošin bunar"/>
    <tag k="oneway" v="yes"/>
  </way>
  <way id="33456494" version="21" timestamp="2012-05-12T22:43:09Z" uid="680513" user="TwisterMJ" changeset="11581416">
    <nd ref="290342941"/>
    <nd ref="474952674"/>
    <nd ref="380734272"/>
    <nd ref="380734055"/>
    <nd ref="380731894"/>
    <nd ref="1750333933"/>
    <nd ref="380731895"/>
    <nd ref="1750333950"/>
    <nd ref="386579046"/>
    <nd ref="380731896"/>
    <nd ref="380731941"/>
    <nd ref="380731897"/>
    <nd ref="412108793"/>
    <nd ref="387265871"/>
    <nd ref="387266054"/>
    <nd ref="290342921"/>
    <tag k="highway" v="tertiary"/>
    <tag k="name" v="Тошин бунар"/>
    <tag k="name:sr" v="Тошин бунар"/>
    <tag k="name:sr-Latn" v="Tošin bunar"/>
    <tag k="oneway" v="yes"/>
  </way>
  <way id="33456494" version="22" timestamp="2012-05-12T22:46:51Z" uid="680513" user="TwisterMJ" changeset="11581416">
    <nd ref="290342941"/>
    <nd ref="474952674"/>
    <nd ref="380734272"/>
    <nd ref="380734055"/>
    <nd ref="380731894"/>
    <nd ref="1750333933"/>
    <nd ref="380731895"/>
    <nd ref="1750333950"/>
    <nd ref="386579046"/>
    <nd ref="380731896"/>
    <nd ref="1750335083"/>
    <nd ref="380731941"/>
    <nd ref="380731897"/>
    <nd ref="412108793"/>
    <nd ref="387265871"/>
    <nd ref="387266054"/>
    <nd ref="290342921"/>
    <tag k="highway" v="tertiary"/>
    <tag k="name" v="Тошин бунар"/>
    <tag k="name:sr" v="Тошин бунар"/>
    <tag k="name:sr-Latn" v="Tošin bunar"/>
    <tag k="oneway" v="yes"/>
  </way>
  <way id="33456494" version="23" timestamp="2012-05-12T23:08:42Z" uid="680513" user="TwisterMJ" changeset="11581416">
    <nd ref="290342941"/>
    <nd ref="474952674"/>
    <nd ref="380734272"/>
    <nd ref="380734055"/>
    <tag k="highway" v="tertiary"/>
    <tag k="name" v="Тошин бунар"/>
    <tag k="name:sr" v="Тошин бунар"/>
    <tag k="name:sr-Latn" v="Tošin bunar"/>
    <tag k="oneway" v="yes"/>
  </way>
  <way id="33456494" version="24" timestamp="2012-07-20T02:09:54Z" uid="722137" user="OSMF Redaction Account" changeset="12357631">
    <nd ref="290342941"/>
    <nd ref="474952674"/>
    <nd ref="380734272"/>
    <nd ref="380734055"/>
    <tag k="highway" v="tertiary"/>
    <tag k="name:sr" v="Тошин бунар"/>
    <tag k="name:sr-Latn" v="Tošin bunar"/>
    <tag k="oneway" v="yes"/>
  </way>
  <way id="33456679" version="9" timestamp="2012-05-21T20:20:45Z" uid="183436" user="mtb" changeset="11666014">
    <nd ref="477792411"/>
    <nd ref="477792414"/>
    <nd ref="477792417"/>
    <nd ref="748424392"/>
    <nd ref="477792423"/>
    <nd ref="477792427"/>
    <nd ref="477792429"/>
    <nd ref="477792432"/>
    <nd ref="477792434"/>
    <nd ref="477792436"/>
    <nd ref="477792459"/>
    <nd ref="477792437"/>
    <nd ref="477792438"/>
    <nd ref="477792439"/>
    <nd ref="477792441"/>
    <nd ref="477792442"/>
    <nd ref="477792444"/>
    <nd ref="477792445"/>
    <nd ref="477792447"/>
    <nd ref="477792448"/>
    <nd ref="477792450"/>
    <nd ref="477792452"/>
    <nd ref="477792453"/>
    <nd ref="477792456"/>
    <tag k="highway" v="unclassified"/>
    <tag k="name" v="Inselstraße"/>
    <tag k="odbl" v="clean"/>
  </way>
  <way id="33456778" version="8" timestamp="2012-06-01T17:44:42Z" uid="165061" user="mapper999" changeset="11766869">
    <nd ref="380734482"/>
    <nd ref="380736616"/>
    <nd ref="380738653"/>
    <nd ref="380738654"/>
    <nd ref="1772852467"/>
    <nd ref="748424416"/>
    <nd ref="380808581"/>
    <nd ref="380808584"/>
    <tag k="highway" v="residential"/>
    <tag k="maxspeed" v="30"/>
    <tag k="name" v="Maximilianstraße"/>
    <tag k="odbl" v="clean"/>
  </way>
  <way id="33456938" version="7" timestamp="2012-06-01T17:44:42Z" uid="165061" user="mapper999" changeset="11766869">
    <nd ref="300026190"/>
    <nd ref="748424286"/>
    <nd ref="1772852465"/>
    <nd ref="300026198"/>
    <nd ref="380737418"/>
    <nd ref="380738325"/>
    <nd ref="380738068"/>
    <nd ref="380804077"/>
    <tag k="highway" v="residential"/>
    <tag k="name" v="Landeckstraße"/>
    <tag k="odbl" v="clean"/>
  </way>
</osm>
