<?xml version='1.0' encoding='UTF-8'?>
<osm version="0.6" generator="libosmium/2.20.0">
  <way id="3353400" version="6" timestamp="2010-11-06T08:21:00Z" uid="9581" user="Lobelt" changeset="6300466">
    <nd ref="16463101"/>
    <nd ref="498051689"/>
    <nd ref="312216416"/>
    <nd ref="498051685"/>
    <nd ref="320327898"/>
    <nd ref="498051681"/>
    <nd ref="310562895"/>
    <nd ref="310562898"/>
    <nd ref="498051677"/>
    <nd ref="312216412"/>
    <nd ref="312216421"/>
    <nd ref="978369130"/>
    <nd ref="498051669"/>
    <nd ref="10993522"/>
    <nd ref="498051696"/>
    <nd ref="312216418"/>
    <nd ref="498051700"/>
    <nd ref="10993902"/>
    <nd ref="498051692"/>
    <nd ref="16463101"/>
    <tag k="highway" v="secondary"/>
    <tag k="junction" v="roundabout"/>
    <tag k="maxspeed" v="30"/>
    <tag k="name" v="Grundelbachstraße"/>
    <tag k="ref" v="L 3257"/>
    <tag k="source" v="survey"/>
  </way>
  <way id="3353400" version="7" timestamp="2012-03-29T00:44:27Z" uid="110838" user="Bernhard W" changeset="11132529">
    <nd ref="16463101"/>
    <nd ref="498051689"/>
    <nd ref="312216416"/>
    <nd ref="498051685"/>
    <nd ref="320327898"/>
    <nd ref="498051681"/>
    <nd ref="310562895"/>
    <nd ref="310562898"/>
    <nd ref="498051677"/>
    <nd ref="312216412"/>
    <nd ref="312216421"/>
    <nd ref="978369130"/>
    <nd ref="498051669"/>
    <nd ref="10993522"/>
    <nd ref="498051696"/>
    <nd ref="312216418"/>
    <nd ref="498051700"/>
    <nd ref="10993902"/>
    <nd ref="498051692"/>
    <nd ref="16463101"/>
    <tag k="highway" v="secondary"/>
    <tag k="junction" v="roundabout"/>
    <tag k="maxspeed" v="30"/>
    <tag k="name" v="Grundelbachstraße"/>
    <tag k="odbl" v="clean"/>
    <tag k="ref" v="L 3257"/>
    <tag k="source" v="survey"/>
  </way>
  <way id="3353400" version="8" timestamp="2012-03-30T22:57:42Z" uid="110838" user="Bernhard W" changeset="11160985">
    <nd ref="16463101"/>
    <nd ref="498051689"/>
    <nd ref="312216416"/>
    <nd ref="498051685"/>
    <nd ref="320327898"/>
    <nd ref="498051681"/>
    <nd ref="310562895"/>
    <nd ref="310562898"/>
    <nd ref="498051677"/>
    <nd ref="312216412"/>
    <nd ref="312216421"/>
    <nd ref="978369130"/>
    <nd ref="498051669"/>
    <nd ref="10993522"/>
    <nd ref="498051696"/>
    <nd ref="312216418"/>
    <nd ref="498051700"/>
    <nd ref="10993902"/>
    <nd ref="498051692"/>
    <nd ref="16463101"/>
    <tag k="highway" v="secondary"/>
    <tag k="junction" v="roundabout"/>
    <tag k="maxspeed" v="30"/>
    <tag k="name" v="Grundelbachstraße"/>
    <tag k="ref" v="L 3257"/>
    <tag k="source" v="survey"/>
  </way>
  <way id="3353654" version="2" timestamp="2010-07-24T16:05:46Z" uid="9581" user="Lobelt" changeset="5305139">
    <nd ref="16546237"/>
    <nd ref="16546235"/>
    <nd ref="831471482"/>
    <tag k="highway" v="steps"/>
    <tag k="name" v="Spiegelgaesschen"/>
  </way>
  <way id="3353654" version="3" timestamp="2012-03-28T20:25:24Z" uid="110838" user="Bernhard W" changeset="11130920">
    <nd ref="16546237"/>
    <nd ref="16546235"/>
    <nd ref="831471482"/>
    <tag k="highway" v="steps"/>
    <tag k="name" v="Spiegelgaesschen"/>
    <tag k="odbl" v="clear"/>
  </way>
  <way id="3353654" version="4" timestamp="2012-03-29T00:50:34Z" uid="110838" user="Bernhard W" changeset="11132529">
    <nd ref="16546237"/>
    <nd ref="16546235"/>
    <nd ref="831471482"/>
    <tag k="highway" v="steps"/>
    <tag k="name" v="Spiegelgaesschen"/>
    <tag k="odbl" v="clean"/>
  </way>
  <way id="3353654" version="5" timestamp="2012-03-30T23:10:42Z" uid="110838" user="Bernhard W" changeset="11161051">
    <nd ref="16546237"/>
    <nd ref="16546235"/>
    <nd ref="831471482"/>
    <tag k="highway" v="steps"/>
    <tag k="name" v="Spiegelgaesschen"/>
  </way>
  <way id="3353655" version="2" timestamp="2010-07-24T16:05:41Z" uid="9581" user="Lobelt" changeset="5305139">
    <nd ref="16546227"/>
    <nd ref="16546211"/>
    <tag k="highway" v="residential"/>
    <tag k="name" v="Lohgasse"/>
  </way>
  <way id="3353793" version="3" timestamp="2010-10-03T20:16:29Z" uid="9581" user="Lobelt" changeset="5948350">
    <nd ref="16547303"/>
    <nd ref="16547302"/>
    <nd ref="16547301"/>
    <nd ref="16547300"/>
    <nd ref="16547294"/>
    <tag k="highway" v="residential"/>
    <tag k="name" v="Obertorstraße"/>
  </way>
  <way id="3353793" version="4" timestamp="2011-08-15T11:16:40Z" uid="297419" user="Dresl" changeset="9025934">
    <nd ref="16547303"/>
    <nd ref="16547302"/>
    <nd ref="1399683727"/>
    <tag k="highway" v="residential"/>
    <tag k="name" v="Obertorstraße"/>
  </way>
  <way id="3353793" version="5" timestamp="2011-08-15T11:28:03Z" uid="297419" user="Dresl" changeset="9026026">
    <nd ref="16547303"/>
    <nd ref="1399690494"/>
    <nd ref="16547302"/>
    <nd ref="1399683727"/>
    <tag k="highway" v="residential"/>
    <tag k="name" v="Obertorstraße"/>
  </way>
  <way id="3353794" version="2" timestamp="2010-11-06T08:21:04Z" uid="9581" user="Lobelt" changeset="6300466">
    <nd ref="16463077"/>
    <nd ref="16463078"/>
    <tag k="highway" v="pedestrian"/>
    <tag k="motorcar" v="no"/>
    <tag k="name" v="Marktplatz"/>
    <tag k="width" v="10"/>
  </way>
  <way id="3353794" version="3" timestamp="2011-06-05T09:12:47Z" uid="57645" user="KartoGrapHiti" changeset="8346795">
    <nd ref="16463077"/>
    <nd ref="16463078"/>
    <tag k="highway" v="pedestrian"/>
    <tag k="name" v="Marktplatz"/>
    <tag k="vehicle" v="no"/>
    <tag k="width" v="10"/>
  </way>
  <way id="3353807" version="3" timestamp="2010-11-06T08:21:03Z" uid="9581" user="Lobelt" changeset="6300466">
    <nd ref="16547615"/>
    <nd ref="16932668"/>
    <tag k="highway" v="residential"/>
    <tag k="name" v="Schlossergässchen"/>
    <tag k="oneway" v="yes"/>
  </way>
  <way id="3353807" version="4" timestamp="2012-03-28T20:25:25Z" uid="110838" user="Bernhard W" changeset="11130920">
    <nd ref="16547615"/>
    <nd ref="16932668"/>
    <tag k="highway" v="residential"/>
    <tag k="name" v="Schlossergässchen"/>
    <tag k="odbl" v="clear"/>
    <tag k="oneway" v="yes"/>
  </way>
  <way id="3353807" version="5" timestamp="2012-03-29T00:47:46Z" uid="110838" user="Bernhard W" changeset="11132529">
    <nd ref="16547615"/>
    <nd ref="16932668"/>
    <tag k="highway" v="residential"/>
    <tag k="name" v="Schlossergässchen"/>
    <tag k="odbl" v="clean"/>
    <tag k="oneway" v="yes"/>
  </way>
  <way id="3353807" version="6" timestamp="2012-03-30T23:10:42Z" uid="110838" user="Bernhard W" changeset="11161051">
    <nd ref="16547615"/>
    <nd ref="16932668"/>
    <tag k="highway" v="residential"/>
    <tag k="name" v="Schlossergässchen"/>
    <tag k="oneway" v="yes"/>
  </way>
  <way id="3353400" version="9" timestamp="2012-07-17T02:15:03Z" uid="722137" user="OSMF Redaction Account" changeset="12255249">
    <nd ref="16463101"/>
    <nd ref="498051689"/>
    <nd ref="312216416"/>
    <nd ref="498051685"/>
    <nd ref="320327898"/>
    <nd ref="498051681"/>
    <nd ref="310562895"/>
    <nd ref="310562898"/>
    <nd ref="498051677"/>
    <nd ref="312216412"/>
    <nd ref="312216421"/>
    <nd ref="498051669"/>
    <nd ref="10993522"/>
    <nd ref="498051696"/>
    <nd ref="312216418"/>
    <nd ref="498051700"/>
    <nd ref="10993902"/>
    <nd ref="498051692"/>
    <nd ref="16463101"/>
    <tag k="highway" v="secondary"/>
    <tag k="junction" v="roundabout"/>
    <tag k="maxspeed" v="30"/>
    <tag k="name" v="Grundelbachstraße"/>
    <tag k="ref" v="L 3257"/>
    <tag k="source" v="survey"/>
  </way>
  <way id="3353654" version="6" timestamp="2012-07-17T02:15:12Z" uid="722137" user="OSMF Redaction Account" changeset="12255249">
    <nd ref="16546237"/>
    <nd ref="16546235"/>
    <tag k="highway" v="steps"/>
    <tag k="name" v="Spiegelgaesschen"/>
  </way>
  <way id="3353793" version="6" timestamp="2012-05-11T22:21:37Z" uid="406370" user="maptin" changeset="11572218">
    <nd ref="16547303"/>
    <nd ref="16547302"/>
    <nd ref="1749027692"/>
    <tag k="highway" v="residential"/>
    <tag k="name" v="Obertorstraße"/>
  </way>
  <way id="3353807" version="7" timestamp="2012-07-17T02:22:52Z" uid="722137" user="OSMF Redaction Account" changeset="12255326"/>
</osm>
