<?xml version='1.0' encoding='UTF-8'?>
<osm version="0.6" generator="libosmium/2.20.0">
  <way id="33570145" version="2" timestamp="2009-05-03T10:46:59Z" uid="34428" user="usm78-gis" changeset="1059167">
    <nd ref="383446474"/>
    <nd ref="383446495"/>
    <nd ref="383445326"/>
    <nd ref="383446496"/>
    <nd ref="389498577"/>
    <tag k="area" v="yes"/>
    <tag k="highway" v="service"/>
  </way>
  <way id="33570145" version="3" timestamp="2009-05-03T10:47:11Z" uid="34428" user="usm78-gis" changeset="1059167">
    <nd ref="383446474"/>
    <nd ref="383446495"/>
    <nd ref="383445326"/>
    <tag k="area" v="yes"/>
    <tag k="highway" v="service"/>
  </way>
  <way id="33570145" version="4" timestamp="2009-05-18T05:55:19Z" uid="47799" user="cetus" changeset="1232605"/>
  <way id="33570314" version="1" timestamp="2009-04-24T14:34:17Z" uid="107674" user="GeoCounter" changeset="928845">
    <nd ref="383459346"/>
    <nd ref="383459350"/>
    <nd ref="383459353"/>
    <nd ref="383459356"/>
    <nd ref="383459346"/>
    <tag k="amenity" v="school"/>
    <tag k="building" v="yes"/>
    <tag k="ref" v="A-Bau"/>
  </way>
  <way id="33570314" version="2" timestamp="2009-06-08T19:09:40Z" uid="107674" user="GeoCounter" changeset="1462239">
    <nd ref="383459346"/>
    <nd ref="383459350"/>
    <nd ref="383459353"/>
    <nd ref="383459356"/>
    <nd ref="383459346"/>
    <tag k="building" v="yes"/>
    <tag k="ref" v="A-Bau"/>
  </way>
  <way id="33570314" version="3" timestamp="2009-07-30T19:27:11Z" uid="107674" user="GeoCounter" changeset="1988344">
    <nd ref="383459346"/>
    <nd ref="383459350"/>
    <nd ref="383459353"/>
    <nd ref="383459356"/>
    <nd ref="383459346"/>
    <tag k="building" v="yes"/>
    <tag k="name" v="A-Bau"/>
  </way>
  <way id="33570314" version="4" timestamp="2009-08-12T17:46:30Z" uid="107674" user="GeoCounter" changeset="2121544">
    <nd ref="383459346"/>
    <nd ref="383459356"/>
    <nd ref="383459353"/>
    <nd ref="383459350"/>
    <nd ref="383459346"/>
    <tag k="building" v="yes"/>
    <tag k="name" v="A-Bau"/>
  </way>
  <way id="33570314" version="5" timestamp="2010-08-05T11:01:16Z" uid="107674" user="GeoCounter" changeset="5406970">
    <nd ref="383459346"/>
    <nd ref="383459356"/>
    <nd ref="383459353"/>
    <nd ref="383459350"/>
    <nd ref="383459346"/>
  </way>
  <way id="33570314" version="6" timestamp="2011-01-11T15:06:24Z" uid="212553" user="ARWIE" changeset="6937677">
    <nd ref="383459346"/>
    <nd ref="1098084513"/>
    <nd ref="1098084495"/>
    <nd ref="1098084538"/>
    <nd ref="1098084552"/>
    <nd ref="383459356"/>
    <nd ref="383459353"/>
    <nd ref="383459350"/>
    <nd ref="383459346"/>
  </way>
  <way id="33570314" version="7" timestamp="2012-01-01T22:34:06Z" uid="65364" user="Harry99" changeset="10265589"/>
  <way id="33570315" version="1" timestamp="2009-04-24T14:34:17Z" uid="107674" user="GeoCounter" changeset="928845">
    <nd ref="383459358"/>
    <nd ref="383459361"/>
    <nd ref="383459363"/>
    <nd ref="383459365"/>
    <nd ref="383459358"/>
  </way>
  <way id="33570315" version="2" timestamp="2012-01-01T22:34:06Z" uid="65364" user="Harry99" changeset="10265589"/>
  <way id="33570316" version="1" timestamp="2009-04-24T14:34:17Z" uid="107674" user="GeoCounter" changeset="928845">
    <nd ref="383459367"/>
    <nd ref="383459369"/>
    <nd ref="383459372"/>
    <nd ref="383459375"/>
    <nd ref="383459367"/>
    <tag k="amenity" v="school"/>
    <tag k="building" v="yes"/>
    <tag k="ref" v="C-Bau"/>
  </way>
  <way id="33570316" version="2" timestamp="2009-06-08T19:09:39Z" uid="107674" user="GeoCounter" changeset="1462239">
    <nd ref="383459367"/>
    <nd ref="383459369"/>
    <nd ref="383459372"/>
    <nd ref="383459375"/>
    <nd ref="383459367"/>
    <tag k="building" v="yes"/>
    <tag k="ref" v="C-Bau"/>
  </way>
  <way id="33570316" version="3" timestamp="2009-07-30T19:27:10Z" uid="107674" user="GeoCounter" changeset="1988344">
    <nd ref="383459367"/>
    <nd ref="383459369"/>
    <nd ref="383459372"/>
    <nd ref="383459375"/>
    <nd ref="383459367"/>
    <tag k="building" v="yes"/>
    <tag k="name" v="C-Bau"/>
  </way>
  <way id="33570316" version="4" timestamp="2011-12-31T14:53:50Z" uid="91490" user="Heinz_V" changeset="10255528"/>
  <way id="33570317" version="1" timestamp="2009-04-24T14:34:17Z" uid="107674" user="GeoCounter" changeset="928845">
    <nd ref="383459378"/>
    <nd ref="383459381"/>
    <nd ref="383459385"/>
    <nd ref="383459387"/>
    <nd ref="383459378"/>
    <tag k="area" v="yes"/>
    <tag k="sport" v="multi"/>
  </way>
  <way id="33570317" version="2" timestamp="2009-06-14T13:40:56Z" uid="107674" user="GeoCounter" changeset="1514392">
    <nd ref="383459378"/>
    <nd ref="383459381"/>
    <nd ref="383459385"/>
    <nd ref="383459387"/>
    <nd ref="383459378"/>
    <tag k="access" v="private"/>
    <tag k="area" v="yes"/>
    <tag k="leisure" v="pitch"/>
  </way>
  <way id="33570317" version="3" timestamp="2011-12-31T14:53:50Z" uid="91490" user="Heinz_V" changeset="10255528"/>
  <way id="33570318" version="1" timestamp="2009-04-24T14:34:17Z" uid="107674" user="GeoCounter" changeset="928845">
    <nd ref="383459391"/>
    <nd ref="383459393"/>
    <nd ref="383459396"/>
    <nd ref="383459400"/>
    <nd ref="383459403"/>
    <nd ref="383459406"/>
    <nd ref="383459409"/>
    <nd ref="383459413"/>
    <nd ref="383459391"/>
    <tag k="amenity" v="school"/>
    <tag k="building" v="yes"/>
    <tag k="ref" v="B-Bau"/>
  </way>
  <way id="33570318" version="2" timestamp="2009-06-08T19:09:39Z" uid="107674" user="GeoCounter" changeset="1462239">
    <nd ref="383459391"/>
    <nd ref="383459393"/>
    <nd ref="383459396"/>
    <nd ref="383459400"/>
    <nd ref="383459403"/>
    <nd ref="383459406"/>
    <nd ref="383459409"/>
    <nd ref="383459413"/>
    <nd ref="383459391"/>
    <tag k="building" v="yes"/>
    <tag k="ref" v="B-Bau"/>
  </way>
  <way id="33570318" version="3" timestamp="2009-07-30T19:27:10Z" uid="107674" user="GeoCounter" changeset="1988344">
    <nd ref="383459391"/>
    <nd ref="383459393"/>
    <nd ref="383459396"/>
    <nd ref="383459400"/>
    <nd ref="383459403"/>
    <nd ref="383459406"/>
    <nd ref="383459409"/>
    <nd ref="383459413"/>
    <nd ref="383459391"/>
    <tag k="building" v="yes"/>
    <tag k="name" v="B-Bau"/>
  </way>
  <way id="33570318" version="4" timestamp="2011-01-11T15:06:30Z" uid="212553" user="ARWIE" changeset="6937677"/>
  <way id="33570319" version="1" timestamp="2009-04-24T14:34:18Z" uid="107674" user="GeoCounter" changeset="928845">
    <nd ref="383459416"/>
    <nd ref="383459400"/>
    <nd ref="383459403"/>
    <nd ref="383459419"/>
    <nd ref="383459421"/>
    <nd ref="383459424"/>
    <nd ref="383459416"/>
    <tag k="amenity" v="school"/>
    <tag k="building" v="yes"/>
    <tag k="ref" v="Lehrerzimmer"/>
  </way>
  <way id="33570319" version="2" timestamp="2009-06-08T19:09:39Z" uid="107674" user="GeoCounter" changeset="1462239">
    <nd ref="383459416"/>
    <nd ref="383459400"/>
    <nd ref="383459403"/>
    <nd ref="383459419"/>
    <nd ref="383459421"/>
    <nd ref="383459424"/>
    <nd ref="383459416"/>
    <tag k="building" v="yes"/>
    <tag k="ref" v="Lehrerzimmer"/>
  </way>
  <way id="33570319" version="3" timestamp="2009-07-30T19:27:10Z" uid="107674" user="GeoCounter" changeset="1988344">
    <nd ref="383459416"/>
    <nd ref="383459400"/>
    <nd ref="383459403"/>
    <nd ref="383459419"/>
    <nd ref="383459421"/>
    <nd ref="383459424"/>
    <nd ref="383459416"/>
    <tag k="building" v="yes"/>
    <tag k="name" v="Lehrerzimmer"/>
  </way>
  <way id="33570319" version="4" timestamp="2011-01-11T15:06:11Z" uid="212553" user="ARWIE" changeset="6937677">
    <nd ref="383459416"/>
    <nd ref="383459400"/>
    <nd ref="1098084540"/>
    <nd ref="383459403"/>
    <nd ref="1098084554"/>
    <nd ref="383459419"/>
    <nd ref="383459421"/>
    <nd ref="383459424"/>
    <nd ref="1098084498"/>
    <nd ref="1098084601"/>
    <nd ref="1098084578"/>
    <nd ref="1098084595"/>
    <nd ref="383459416"/>
    <tag k="building" v="yes"/>
    <tag k="name" v="Lehrerzimmer"/>
  </way>
  <way id="33570319" version="5" timestamp="2012-01-01T22:34:06Z" uid="65364" user="Harry99" changeset="10265589"/>
  <way id="33570320" version="1" timestamp="2009-04-24T14:34:18Z" uid="107674" user="GeoCounter" changeset="928845">
    <nd ref="383459456"/>
    <nd ref="383459457"/>
    <nd ref="383459458"/>
    <nd ref="383459459"/>
    <nd ref="383459456"/>
    <tag k="amenity" v="school"/>
    <tag k="building" v="yes"/>
    <tag k="ref" v="K-Bau"/>
  </way>
  <way id="33570320" version="2" timestamp="2009-06-08T19:09:38Z" uid="107674" user="GeoCounter" changeset="1462239">
    <nd ref="383459456"/>
    <nd ref="383459457"/>
    <nd ref="383459458"/>
    <nd ref="383459459"/>
    <nd ref="383459456"/>
    <tag k="building" v="yes"/>
    <tag k="ref" v="K-Bau"/>
  </way>
  <way id="33570320" version="3" timestamp="2009-07-30T19:27:10Z" uid="107674" user="GeoCounter" changeset="1988344">
    <nd ref="383459456"/>
    <nd ref="383459457"/>
    <nd ref="383459458"/>
    <nd ref="383459459"/>
    <nd ref="383459456"/>
    <tag k="building" v="yes"/>
    <tag k="name" v="K-Bau"/>
  </way>
  <way id="33570320" version="4" timestamp="2011-12-31T14:53:50Z" uid="91490" user="Heinz_V" changeset="10255528"/>
  <way id="33570321" version="1" timestamp="2009-04-24T14:34:18Z" uid="107674" user="GeoCounter" changeset="928845">
    <nd ref="383459460"/>
    <nd ref="383459462"/>
    <nd ref="383459464"/>
    <nd ref="383459466"/>
    <nd ref="383459460"/>
    <tag k="amenity" v="school"/>
    <tag k="building" v="yes"/>
    <tag k="ref" v="Sporthalle"/>
  </way>
  <way id="33570321" version="2" timestamp="2009-06-08T19:09:38Z" uid="107674" user="GeoCounter" changeset="1462239">
    <nd ref="383459460"/>
    <nd ref="383459462"/>
    <nd ref="383459464"/>
    <nd ref="383459466"/>
    <nd ref="383459460"/>
    <tag k="building" v="yes"/>
    <tag k="ref" v="Sporthalle"/>
  </way>
  <way id="33570321" version="3" timestamp="2009-07-30T19:27:10Z" uid="107674" user="GeoCounter" changeset="1988344">
    <nd ref="383459460"/>
    <nd ref="383459462"/>
    <nd ref="383459464"/>
    <nd ref="383459466"/>
    <nd ref="383459460"/>
    <tag k="building" v="yes"/>
    <tag k="name" v="Sporthalle"/>
  </way>
  <way id="33570321" version="4" timestamp="2011-01-11T15:06:11Z" uid="212553" user="ARWIE" changeset="6937677">
    <nd ref="383459460"/>
    <nd ref="383459462"/>
    <nd ref="383459464"/>
    <nd ref="1098084504"/>
    <nd ref="383459466"/>
    <nd ref="383459460"/>
    <tag k="building" v="yes"/>
    <tag k="name" v="Sporthalle"/>
  </way>
  <way id="33570321" version="5" timestamp="2012-01-02T22:59:46Z" uid="65364" user="Harry99" changeset="10277279"/>
  <way id="33570469" version="1" timestamp="2009-04-24T14:36:43Z" uid="30632" user="antblant" changeset="928816">
    <nd ref="254060722"/>
    <nd ref="254060779"/>
    <tag k="created_by" v="Potlatch 0.10f"/>
    <tag k="highway" v="tertiary"/>
    <tag k="name" v="Teofila Firlika"/>
    <tag k="oneway" v="yes"/>
    <tag k="source" v="UMP-PL, ./UMP-Szczecin/src/SZCZECIN.ulice.txt"/>
  </way>
  <way id="33570469" version="2" timestamp="2009-04-24T14:36:49Z" uid="30632" user="antblant" changeset="928816">
    <nd ref="254060722"/>
    <nd ref="254060779"/>
    <tag k="created_by" v="Potlatch 0.10f"/>
    <tag k="highway" v="tertiary"/>
  </way>
  <way id="33570469" version="3" timestamp="2009-04-24T14:41:37Z" uid="30632" user="antblant" changeset="928816">
    <nd ref="254060722"/>
    <nd ref="254060779"/>
    <tag k="created_by" v="Potlatch 0.10f"/>
    <tag k="highway" v="tertiary"/>
    <tag k="name" v="Hutnicza"/>
  </way>
  <way id="33570469" version="4" timestamp="2009-10-26T19:22:30Z" uid="30632" user="antblant" changeset="2959242">
    <nd ref="254060722"/>
    <nd ref="254060779"/>
    <tag k="highway" v="tertiary"/>
    <tag k="name" v="Andrzeja Antosiewicza"/>
    <tag k="old_name" v="Hutnicza"/>
  </way>
  <way id="33570469" version="5" timestamp="2012-03-10T18:35:44Z" uid="603523" user="diverpl" changeset="10935069"/>
  <way id="33570482" version="1" timestamp="2009-04-24T14:37:11Z" uid="30632" user="antblant" changeset="928816">
    <nd ref="269588404"/>
    <nd ref="278222667"/>
    <nd ref="383464776"/>
    <tag k="created_by" v="Potlatch 0.9c"/>
    <tag k="highway" v="residential"/>
    <tag k="name" v="Emili Plater"/>
  </way>
  <way id="33570482" version="2" timestamp="2009-04-24T14:37:19Z" uid="30632" user="antblant" changeset="928816">
    <nd ref="269588404"/>
    <nd ref="278222667"/>
    <nd ref="383464776"/>
    <tag k="created_by" v="Potlatch 0.9c"/>
    <tag k="highway" v="tertiary"/>
    <tag k="name" v="Teofila Firlika"/>
  </way>
  <way id="33570482" version="3" timestamp="2009-11-03T02:05:34Z" uid="36809" user="pfoten_weg_!_" changeset="3021530">
    <nd ref="269588404"/>
    <nd ref="278222667"/>
    <nd ref="383464776"/>
    <tag k="highway" v="tertiary"/>
    <tag k="name" v="Teofila Firlika"/>
  </way>
  <way id="33570514" version="1" timestamp="2009-04-24T14:40:08Z" uid="30632" user="antblant" changeset="928816">
    <nd ref="254060702"/>
    <nd ref="254060700"/>
    <nd ref="254060698"/>
    <nd ref="268817370"/>
    <nd ref="268817380"/>
    <nd ref="254060695"/>
    <nd ref="383464776"/>
    <nd ref="254060693"/>
    <nd ref="254060722"/>
    <tag k="created_by" v="Potlatch 0.10f"/>
    <tag k="highway" v="tertiary"/>
    <tag k="name" v="Teofila Firlika"/>
    <tag k="oneway" v="yes"/>
    <tag k="source" v="UMP-PL, ./UMP-Szczecin/src/SZCZECIN.ulice.txt"/>
  </way>
  <way id="33570514" version="2" timestamp="2009-04-24T14:40:22Z" uid="30632" user="antblant" changeset="928816">
    <nd ref="254060702"/>
    <nd ref="254060700"/>
    <nd ref="254060698"/>
    <nd ref="268817370"/>
    <nd ref="268817380"/>
    <nd ref="254060695"/>
    <nd ref="383464776"/>
    <nd ref="254060693"/>
    <nd ref="254060722"/>
    <tag k="created_by" v="Potlatch 0.10f"/>
    <tag k="highway" v="tertiary"/>
    <tag k="name" v="Łady"/>
    <tag k="oneway" v="yes"/>
    <tag k="source" v="UMP-PL, ./UMP-Szczecin/src/SZCZECIN.ulice.txt"/>
  </way>
  <way id="33570514" version="3" timestamp="2009-04-24T14:40:33Z" uid="30632" user="antblant" changeset="928816">
    <nd ref="254060702"/>
    <nd ref="254060700"/>
    <nd ref="254060698"/>
    <nd ref="268817370"/>
    <nd ref="268817380"/>
    <tag k="created_by" v="Potlatch 0.10f"/>
    <tag k="highway" v="tertiary"/>
    <tag k="name" v="Łady"/>
    <tag k="oneway" v="yes"/>
    <tag k="source" v="UMP-PL, ./UMP-Szczecin/src/SZCZECIN.ulice.txt"/>
  </way>
  <way id="33570514" version="4" timestamp="2009-11-03T01:38:08Z" uid="36809" user="pfoten_weg_!_" changeset="3021530">
    <nd ref="254060702"/>
    <nd ref="254060700"/>
    <nd ref="254060698"/>
    <nd ref="268817370"/>
    <nd ref="268817380"/>
    <tag k="highway" v="tertiary"/>
    <tag k="name" v="Łady"/>
    <tag k="oneway" v="yes"/>
    <tag k="source" v="UMP-PL, ./UMP-Szczecin/src/SZCZECIN.ulice.txt"/>
  </way>
  <way id="33570514" version="5" timestamp="2010-04-04T11:16:54Z" uid="20587" user="balrog-kun" changeset="4321611">
    <nd ref="254060702"/>
    <nd ref="254060700"/>
    <nd ref="254060698"/>
    <nd ref="268817370"/>
    <nd ref="683883843"/>
    <nd ref="268817380"/>
    <tag k="highway" v="tertiary"/>
    <tag k="name" v="Łady"/>
    <tag k="oneway" v="yes"/>
    <tag k="source" v="UMP-PL, ./UMP-Szczecin/src/SZCZECIN.ulice.txt"/>
  </way>
  <way id="33570514" version="6" timestamp="2012-03-10T15:17:00Z" uid="603523" user="diverpl" changeset="10932854">
    <nd ref="254060702"/>
    <nd ref="1668777934"/>
    <nd ref="254060700"/>
    <nd ref="1668777953"/>
    <nd ref="254060698"/>
    <nd ref="268817370"/>
    <nd ref="683883843"/>
    <nd ref="268817380"/>
    <tag k="highway" v="tertiary"/>
    <tag k="name" v="Łady"/>
    <tag k="oneway" v="yes"/>
    <tag k="source" v="UMP-PL, ./UMP-Szczecin/src/SZCZECIN.ulice.txt"/>
  </way>
  <way id="33570514" version="7" timestamp="2012-03-10T15:45:14Z" uid="603523" user="diverpl" changeset="10932854">
    <nd ref="254060702"/>
    <nd ref="1668777934"/>
    <nd ref="254060700"/>
    <nd ref="1668777953"/>
    <nd ref="254060698"/>
    <nd ref="1668811091"/>
    <nd ref="268817370"/>
    <nd ref="1668811113"/>
    <nd ref="683883843"/>
    <nd ref="268817380"/>
    <tag k="highway" v="tertiary"/>
    <tag k="name" v="Łady"/>
    <tag k="oneway" v="yes"/>
    <tag k="source" v="UMP-PL, ./UMP-Szczecin/src/SZCZECIN.ulice.txt"/>
  </way>
  <way id="33570534" version="1" timestamp="2009-04-24T14:40:33Z" uid="30632" user="antblant" changeset="928816">
    <nd ref="268817380"/>
    <nd ref="254060695"/>
    <nd ref="383464776"/>
    <nd ref="254060693"/>
    <nd ref="254060722"/>
    <tag k="created_by" v="Potlatch 0.10f"/>
    <tag k="highway" v="tertiary"/>
    <tag k="name" v="Łady"/>
    <tag k="oneway" v="yes"/>
    <tag k="source" v="UMP-PL, ./UMP-Szczecin/src/SZCZECIN.ulice.txt"/>
  </way>
  <way id="33570534" version="2" timestamp="2009-04-24T14:40:39Z" uid="30632" user="antblant" changeset="928816">
    <nd ref="268817380"/>
    <nd ref="254060695"/>
    <nd ref="383464776"/>
    <nd ref="254060693"/>
    <nd ref="254060722"/>
    <tag k="created_by" v="Potlatch 0.10f"/>
    <tag k="highway" v="tertiary"/>
    <tag k="name" v="Teofila Firlika"/>
    <tag k="oneway" v="yes"/>
    <tag k="source" v="UMP-PL, ./UMP-Szczecin/src/SZCZECIN.ulice.txt"/>
  </way>
  <way id="33570534" version="3" timestamp="2009-11-03T02:05:33Z" uid="36809" user="pfoten_weg_!_" changeset="3021530">
    <nd ref="268817380"/>
    <nd ref="254060695"/>
    <nd ref="383464776"/>
    <nd ref="254060693"/>
    <nd ref="254060722"/>
    <tag k="highway" v="tertiary"/>
    <tag k="name" v="Teofila Firlika"/>
    <tag k="oneway" v="yes"/>
    <tag k="source" v="UMP-PL, ./UMP-Szczecin/src/SZCZECIN.ulice.txt"/>
  </way>
  <way id="33570534" version="4" timestamp="2012-02-13T00:20:19Z" uid="603523" user="diverpl" changeset="10668950">
    <nd ref="268817380"/>
    <nd ref="254060695"/>
    <nd ref="383464776"/>
    <tag k="highway" v="tertiary"/>
    <tag k="name" v="Teofila Firlika"/>
    <tag k="oneway" v="yes"/>
    <tag k="source" v="UMP-PL, ./UMP-Szczecin/src/SZCZECIN.ulice.txt"/>
  </way>
  <way id="33570534" version="5" timestamp="2012-03-10T15:45:13Z" uid="603523" user="diverpl" changeset="10932854">
    <nd ref="268817380"/>
    <nd ref="1668811183"/>
    <nd ref="254060695"/>
    <nd ref="1668811201"/>
    <nd ref="383464776"/>
    <tag k="highway" v="tertiary"/>
    <tag k="name" v="Teofila Firlika"/>
    <tag k="oneway" v="yes"/>
    <tag k="source" v="UMP-PL, ./UMP-Szczecin/src/SZCZECIN.ulice.txt"/>
  </way>
  <way id="33570538" version="1" timestamp="2009-04-24T14:41:22Z" uid="30632" user="antblant" changeset="928816">
    <nd ref="254060719"/>
    <nd ref="254060718"/>
    <nd ref="304113912"/>
    <nd ref="254060715"/>
    <tag k="created_by" v="Potlatch 0.10f"/>
    <tag k="highway" v="tertiary"/>
    <tag k="name" v="Jana z Kolna"/>
    <tag k="oneway" v="yes"/>
    <tag k="railway" v="tram"/>
    <tag k="source" v="UMP-PL, ./UMP-Szczecin/src/SZCZECIN.ulice.txt"/>
  </way>
  <way id="33570538" version="2" timestamp="2009-04-24T14:42:17Z" uid="30632" user="antblant" changeset="928816">
    <nd ref="254060719"/>
    <nd ref="254060718"/>
    <nd ref="304113912"/>
    <nd ref="254060715"/>
    <tag k="created_by" v="Potlatch 0.10f"/>
    <tag k="highway" v="tertiary"/>
    <tag k="name" v="Tomasza Nocznickiego"/>
    <tag k="oneway" v="yes"/>
    <tag k="railway" v="tram"/>
    <tag k="source" v="UMP-PL, ./UMP-Szczecin/src/SZCZECIN.ulice.txt"/>
  </way>
  <way id="33570538" version="3" timestamp="2009-11-03T02:05:39Z" uid="36809" user="pfoten_weg_!_" changeset="3021530">
    <nd ref="254060719"/>
    <nd ref="254060718"/>
    <nd ref="304113912"/>
    <nd ref="254060715"/>
    <tag k="highway" v="tertiary"/>
    <tag k="name" v="Tomasza Nocznickiego"/>
    <tag k="oneway" v="yes"/>
    <tag k="railway" v="tram"/>
    <tag k="source" v="UMP-PL, ./UMP-Szczecin/src/SZCZECIN.ulice.txt"/>
  </way>
  <way id="33570538" version="4" timestamp="2012-02-18T22:12:25Z" uid="603523" user="diverpl" changeset="10724297">
    <nd ref="254060719"/>
    <nd ref="1638314028"/>
    <nd ref="254060718"/>
    <nd ref="304113912"/>
    <nd ref="254060715"/>
    <tag k="highway" v="tertiary"/>
    <tag k="name" v="Tomasza Nocznickiego"/>
    <tag k="oneway" v="yes"/>
    <tag k="railway" v="tram"/>
    <tag k="source" v="UMP-PL, ./UMP-Szczecin/src/SZCZECIN.ulice.txt"/>
  </way>
  <way id="33570538" version="5" timestamp="2012-03-10T18:35:35Z" uid="603523" user="diverpl" changeset="10935069">
    <nd ref="254060719"/>
    <nd ref="1669024817"/>
    <nd ref="1669024818"/>
    <nd ref="1669024819"/>
    <nd ref="1638314028"/>
    <nd ref="254060718"/>
    <nd ref="1669024764"/>
    <nd ref="1669024833"/>
    <nd ref="254060715"/>
    <tag k="highway" v="tertiary"/>
    <tag k="name" v="Tomasza Nocznickiego"/>
    <tag k="oneway" v="yes"/>
    <tag k="source" v="UMP-PL, ./UMP-Szczecin/src/SZCZECIN.ulice.txt"/>
  </way>
  <way id="33570961" version="2" timestamp="2009-12-10T00:07:30Z" uid="200463" user="harmagedon" changeset="3338481">
    <nd ref="383484172"/>
    <nd ref="383484173"/>
    <tag k="bridge" v="yes"/>
    <tag k="highway" v="trunk"/>
    <tag k="lanes" v="3"/>
    <tag k="layer" v="1"/>
    <tag k="maxspeed" v="100"/>
    <tag k="ref" v="B 178"/>
  </way>
  <way id="33570961" version="3" timestamp="2010-10-27T18:13:52Z" uid="263596" user="Oberförster" changeset="6199145">
    <nd ref="383484172"/>
    <nd ref="383484173"/>
    <tag k="bridge" v="yes"/>
    <tag k="highway" v="trunk"/>
    <tag k="lanes" v="3"/>
    <tag k="layer" v="1"/>
    <tag k="maxspeed" v="100"/>
    <tag k="motorroad" v="yes"/>
    <tag k="ref" v="B 178"/>
  </way>
  <way id="33570963" version="2" timestamp="2009-12-10T00:05:53Z" uid="200463" user="harmagedon" changeset="3338481">
    <nd ref="383484173"/>
    <nd ref="206933122"/>
    <nd ref="367455402"/>
    <nd ref="206933125"/>
    <nd ref="247429889"/>
    <nd ref="206933129"/>
    <tag k="highway" v="trunk"/>
    <tag k="lanes" v="3"/>
    <tag k="maxspeed" v="100"/>
    <tag k="ref" v="B 178"/>
  </way>
  <way id="33570963" version="3" timestamp="2010-04-28T14:23:32Z" uid="249331" user="noasenmann" changeset="4549988">
    <nd ref="383484173"/>
    <nd ref="206933122"/>
    <nd ref="367455402"/>
    <nd ref="206933125"/>
    <nd ref="710560143"/>
    <tag k="highway" v="trunk"/>
    <tag k="lanes" v="3"/>
    <tag k="maxspeed" v="100"/>
    <tag k="ref" v="B 178"/>
  </way>
  <way id="33570963" version="4" timestamp="2010-04-28T14:27:34Z" uid="249331" user="noasenmann" changeset="4550018">
    <nd ref="383484173"/>
    <nd ref="206933122"/>
    <nd ref="367455402"/>
    <nd ref="206933125"/>
    <nd ref="710567009"/>
    <tag k="highway" v="trunk"/>
    <tag k="lanes" v="3"/>
    <tag k="maxspeed" v="100"/>
    <tag k="ref" v="B 178"/>
  </way>
  <way id="33570963" version="5" timestamp="2010-10-27T18:13:46Z" uid="263596" user="Oberförster" changeset="6199145">
    <nd ref="383484173"/>
    <nd ref="206933122"/>
    <nd ref="367455402"/>
    <nd ref="206933125"/>
    <nd ref="710567009"/>
    <tag k="highway" v="trunk"/>
    <tag k="lanes" v="3"/>
    <tag k="maxspeed" v="100"/>
    <tag k="motorroad" v="yes"/>
    <tag k="ref" v="B 178"/>
  </way>
  <way id="33570992" version="1" timestamp="2009-04-24T14:47:48Z" uid="30632" user="antblant" changeset="928983">
    <nd ref="268817018"/>
    <nd ref="268816802"/>
    <nd ref="268816900"/>
    <nd ref="268816803"/>
    <nd ref="268816804"/>
    <tag k="created_by" v="Potlatch 0.9c"/>
    <tag k="highway" v="residential"/>
    <tag k="name" v="Szarotki"/>
    <tag k="oneway" v="yes"/>
  </way>
  <way id="33570992" version="2" timestamp="2009-05-16T20:31:52Z" uid="115651" user="Konrad Aust" changeset="1215312">
    <nd ref="268817018"/>
    <nd ref="268816802"/>
    <nd ref="268816900"/>
    <nd ref="268816803"/>
    <nd ref="268816804"/>
    <tag k="created_by" v="Potlatch 0.9c"/>
    <tag k="highway" v="residential"/>
    <tag k="name" v="Szarotki"/>
    <tag k="old_name" v="Blumenstraße"/>
    <tag k="oneway" v="yes"/>
  </way>
  <way id="33570992" version="3" timestamp="2009-11-03T01:47:35Z" uid="36809" user="pfoten_weg_!_" changeset="3021530">
    <nd ref="268817018"/>
    <nd ref="268816802"/>
    <nd ref="268816900"/>
    <nd ref="268816803"/>
    <nd ref="268816804"/>
    <tag k="highway" v="residential"/>
    <tag k="name" v="Szarotki"/>
    <tag k="old_name" v="Blumenstraße"/>
    <tag k="oneway" v="yes"/>
  </way>
  <way id="33570992" version="4" timestamp="2010-03-27T00:58:00Z" uid="20587" user="balrog-kun" changeset="4243209">
    <nd ref="268817018"/>
    <nd ref="268816802"/>
    <nd ref="268816900"/>
    <nd ref="675391931"/>
    <nd ref="268816803"/>
    <nd ref="268816804"/>
    <tag k="highway" v="residential"/>
    <tag k="name" v="Szarotki"/>
    <tag k="old_name" v="Blumenstraße"/>
    <tag k="oneway" v="yes"/>
  </way>
  <way id="33570992" version="5" timestamp="2012-03-10T15:16:53Z" uid="603523" user="diverpl" changeset="10932854">
    <nd ref="268817018"/>
    <nd ref="268816802"/>
    <nd ref="268816900"/>
    <nd ref="675391931"/>
    <nd ref="268816803"/>
    <nd ref="1668777937"/>
    <nd ref="1668777936"/>
    <nd ref="1668777935"/>
    <nd ref="1668777933"/>
    <nd ref="1668777932"/>
    <nd ref="1668777929"/>
    <nd ref="1668777928"/>
    <nd ref="1668777927"/>
    <nd ref="1668777924"/>
    <nd ref="1668777922"/>
    <nd ref="1668777920"/>
    <nd ref="1668777917"/>
    <tag k="highway" v="residential"/>
    <tag k="name" v="Szarotki"/>
    <tag k="old_name" v="Blumenstraße"/>
    <tag k="oneway" v="yes"/>
  </way>
  <way id="33570514" version="8" timestamp="2012-05-04T21:01:13Z" uid="603523" user="diverpl" changeset="11502018">
    <nd ref="254060702"/>
    <nd ref="1668777934"/>
    <nd ref="254060700"/>
    <nd ref="1668777953"/>
    <nd ref="254060698"/>
    <nd ref="1668811091"/>
    <tag k="highway" v="tertiary"/>
    <tag k="name" v="Łady"/>
    <tag k="oneway" v="yes"/>
    <tag k="source" v="UMP-PL, ./UMP-Szczecin/src/SZCZECIN.ulice.txt"/>
  </way>
  <way id="33570514" version="9" timestamp="2012-05-12T17:22:51Z" uid="473784" user="antblant" changeset="11578777">
    <nd ref="254060702"/>
    <nd ref="1668777934"/>
    <nd ref="254060700"/>
    <nd ref="1668777953"/>
    <nd ref="1749924054"/>
    <nd ref="254060698"/>
    <nd ref="1668811091"/>
    <tag k="highway" v="tertiary"/>
    <tag k="name" v="Łady"/>
    <tag k="oneway" v="yes"/>
    <tag k="source" v="UMP-PL, ./UMP-Szczecin/src/SZCZECIN.ulice.txt"/>
  </way>
  <way id="33570514" version="10" timestamp="2012-08-17T11:59:29Z" uid="138679" user="morganek" changeset="12761681">
    <nd ref="254060702"/>
    <nd ref="1668777934"/>
    <nd ref="254060700"/>
    <nd ref="1668777953"/>
    <nd ref="1749924054"/>
    <nd ref="254060698"/>
    <nd ref="1668811091"/>
    <tag k="highway" v="tertiary"/>
    <tag k="name" v="Łady"/>
    <tag k="oneway" v="yes"/>
  </way>
  <way id="33570534" version="6" timestamp="2012-08-17T11:59:30Z" uid="138679" user="morganek" changeset="12761681">
    <nd ref="268817380"/>
    <nd ref="1668811183"/>
    <nd ref="254060695"/>
    <nd ref="1668811201"/>
    <nd ref="383464776"/>
    <tag k="highway" v="tertiary"/>
    <tag k="name" v="Teofila Firlika"/>
    <tag k="oneway" v="yes"/>
  </way>
  <way id="33570961" version="4" timestamp="2012-06-12T11:32:41Z" uid="445671" user="flierfy" changeset="11873338">
    <nd ref="383484172"/>
    <nd ref="383484173"/>
    <tag k="bridge" v="yes"/>
    <tag k="highway" v="primary"/>
    <tag k="lanes" v="3"/>
    <tag k="layer" v="1"/>
    <tag k="maxspeed" v="100"/>
    <tag k="motorroad" v="yes"/>
    <tag k="ref" v="B 178"/>
  </way>
  <way id="33570963" version="6" timestamp="2012-06-12T11:32:41Z" uid="445671" user="flierfy" changeset="11873338">
    <nd ref="383484173"/>
    <nd ref="206933122"/>
    <nd ref="367455402"/>
    <nd ref="206933125"/>
    <nd ref="710567009"/>
    <tag k="highway" v="primary"/>
    <tag k="lanes" v="3"/>
    <tag k="maxspeed" v="100"/>
    <tag k="motorroad" v="yes"/>
    <tag k="ref" v="B 178"/>
  </way>
</osm>
