<?xml version='1.0' encoding='UTF-8'?>
<osm version="0.6" generator="libosmium/2.20.0">
  <way id="33581410" version="3" timestamp="2010-03-28T01:48:26Z" uid="20587" user="balrog-kun" changeset="4250871">
    <nd ref="383733538"/>
    <nd ref="383733539"/>
    <tag k="highway" v="residential"/>
    <tag k="name" v="Mono Lake Avenue"/>
  </way>
  <way id="33581454" version="3" timestamp="2010-03-28T01:48:26Z" uid="20587" user="balrog-kun" changeset="4250871">
    <nd ref="383733815"/>
    <nd ref="383733817"/>
    <tag k="highway" v="residential"/>
    <tag k="name" v="Citadel Avenue"/>
  </way>
  <way id="33581471" version="3" timestamp="2010-03-28T01:48:26Z" uid="20587" user="balrog-kun" changeset="4250871">
    <nd ref="383734261"/>
    <nd ref="383734262"/>
    <tag k="highway" v="residential"/>
    <tag k="name" v="Pyramid Avenue"/>
  </way>
  <way id="33581752" version="1" timestamp="2009-04-24T17:32:39Z" uid="36809" user="pfoten_weg_!_" changeset="931184">
    <nd ref="383737381"/>
    <nd ref="383737378"/>
    <tag k="bridge" v="yes"/>
    <tag k="created_by" v="RambaZamba"/>
    <tag k="highway" v="secondary"/>
    <tag k="layer" v="0"/>
    <tag k="maxspeed" v="70"/>
    <tag k="name" v="Hauptstraße"/>
    <tag k="ref" v="St 2068"/>
    <tag k="source" v="survey"/>
  </way>
  <way id="33581752" version="2" timestamp="2009-07-27T21:35:27Z" uid="36809" user="pfoten_weg_!_" changeset="1960118">
    <nd ref="383737381"/>
    <nd ref="383737378"/>
    <tag k="bridge" v="yes"/>
    <tag k="discovered_by" v="RambaZamba"/>
    <tag k="highway" v="secondary"/>
    <tag k="layer" v="0"/>
    <tag k="maxspeed" v="70"/>
    <tag k="name" v="Hauptstraße"/>
    <tag k="ref" v="St 2068"/>
    <tag k="source" v="survey"/>
  </way>
  <way id="33581752" version="3" timestamp="2009-08-28T20:08:54Z" uid="156995" user="HampelZamba" changeset="2294580">
    <nd ref="383737381"/>
    <nd ref="383737378"/>
    <tag k="bridge" v="yes"/>
    <tag k="highway" v="secondary"/>
    <tag k="layer" v="0"/>
    <tag k="maxspeed" v="70"/>
    <tag k="name" v="Hauptstraße"/>
    <tag k="ref" v="St 2068"/>
    <tag k="source" v="survey"/>
  </way>
  <way id="33581752" version="4" timestamp="2009-08-28T21:18:37Z" uid="36809" user="pfoten_weg_!_" changeset="2295155">
    <nd ref="383737381"/>
    <nd ref="383737378"/>
    <tag k="bridge" v="yes"/>
    <tag k="discovered_by" v="RambaZamba"/>
    <tag k="highway" v="secondary"/>
    <tag k="layer" v="0"/>
    <tag k="maxspeed" v="70"/>
    <tag k="name" v="Hauptstraße"/>
    <tag k="ref" v="St 2068"/>
    <tag k="source" v="survey"/>
  </way>
  <way id="33581752" version="5" timestamp="2009-08-30T09:33:57Z" uid="156995" user="HampelZamba" changeset="2310659">
    <nd ref="383737381"/>
    <nd ref="383737378"/>
    <tag k="bridge" v="yes"/>
    <tag k="highway" v="secondary"/>
    <tag k="layer" v="0"/>
    <tag k="maxspeed" v="70"/>
    <tag k="name" v="Hauptstraße"/>
    <tag k="ref" v="St 2068"/>
    <tag k="source" v="survey"/>
  </way>
  <way id="33581752" version="6" timestamp="2009-08-31T17:50:08Z" uid="36809" user="pfoten_weg_!_" changeset="2328905">
    <nd ref="383737381"/>
    <nd ref="383737378"/>
    <tag k="bridge" v="yes"/>
    <tag k="highway" v="secondary"/>
    <tag k="layer" v="0"/>
    <tag k="maxspeed" v="70"/>
    <tag k="name" v="Hauptstraße"/>
    <tag k="ref" v="St 2068"/>
    <tag k="source" v="survey"/>
  </way>
  <way id="33581752" version="7" timestamp="2009-10-02T19:26:43Z" uid="86259" user="hasse_osm_korinthenkacker" changeset="2716617">
    <nd ref="383737381"/>
    <nd ref="383737378"/>
    <tag k="bridge" v="yes"/>
    <tag k="highway" v="secondary"/>
    <tag k="layer" v="0"/>
    <tag k="maxspeed" v="70"/>
    <tag k="name" v="Hauptstraße"/>
    <tag k="ref" v="St 2068"/>
  </way>
  <way id="33581752" version="8" timestamp="2012-01-16T20:51:23Z" uid="313192" user="Ohr" changeset="10412037"/>
  <way id="33581753" version="1" timestamp="2009-04-24T17:32:39Z" uid="36809" user="pfoten_weg_!_" changeset="931184">
    <nd ref="383737378"/>
    <nd ref="370148795"/>
    <nd ref="370148805"/>
    <nd ref="370148807"/>
    <nd ref="370148827"/>
    <nd ref="370148812"/>
    <nd ref="383737384"/>
    <tag k="created_by" v="RambaZamba"/>
    <tag k="highway" v="secondary"/>
    <tag k="maxspeed" v="70"/>
    <tag k="name" v="Hauptstraße"/>
    <tag k="ref" v="St 2068"/>
    <tag k="source" v="survey"/>
  </way>
  <way id="33581753" version="2" timestamp="2009-08-24T23:15:23Z" uid="36809" user="pfoten_weg_!_" changeset="2251012">
    <nd ref="383737378"/>
    <nd ref="370148795"/>
    <nd ref="370148805"/>
    <nd ref="370148807"/>
    <nd ref="370148827"/>
    <nd ref="370148812"/>
    <nd ref="383737384"/>
    <tag k="discovered_by" v="RambaZamba"/>
    <tag k="highway" v="secondary"/>
    <tag k="maxspeed" v="70"/>
    <tag k="name" v="Hauptstraße"/>
    <tag k="ref" v="St 2068"/>
    <tag k="source" v="survey"/>
  </way>
  <way id="33581753" version="3" timestamp="2009-08-28T20:08:54Z" uid="156995" user="HampelZamba" changeset="2294580">
    <nd ref="383737378"/>
    <nd ref="370148795"/>
    <nd ref="370148805"/>
    <nd ref="370148807"/>
    <nd ref="370148827"/>
    <nd ref="370148812"/>
    <nd ref="383737384"/>
    <tag k="highway" v="secondary"/>
    <tag k="maxspeed" v="70"/>
    <tag k="name" v="Hauptstraße"/>
    <tag k="ref" v="St 2068"/>
    <tag k="source" v="survey"/>
  </way>
  <way id="33581753" version="4" timestamp="2009-08-28T21:02:29Z" uid="36809" user="pfoten_weg_!_" changeset="2295155">
    <nd ref="383737378"/>
    <nd ref="370148795"/>
    <nd ref="370148805"/>
    <nd ref="370148807"/>
    <nd ref="370148827"/>
    <nd ref="370148812"/>
    <nd ref="383737384"/>
    <tag k="discovered_by" v="RambaZamba"/>
    <tag k="highway" v="secondary"/>
    <tag k="maxspeed" v="70"/>
    <tag k="name" v="Hauptstraße"/>
    <tag k="ref" v="St 2068"/>
    <tag k="source" v="survey"/>
  </way>
  <way id="33581753" version="5" timestamp="2009-08-30T09:33:58Z" uid="156995" user="HampelZamba" changeset="2310659">
    <nd ref="383737378"/>
    <nd ref="370148795"/>
    <nd ref="370148805"/>
    <nd ref="370148807"/>
    <nd ref="370148827"/>
    <nd ref="370148812"/>
    <nd ref="383737384"/>
    <tag k="highway" v="secondary"/>
    <tag k="maxspeed" v="70"/>
    <tag k="name" v="Hauptstraße"/>
    <tag k="ref" v="St 2068"/>
    <tag k="source" v="survey"/>
  </way>
  <way id="33581753" version="6" timestamp="2009-08-31T17:45:59Z" uid="36809" user="pfoten_weg_!_" changeset="2328905">
    <nd ref="383737378"/>
    <nd ref="370148795"/>
    <nd ref="370148805"/>
    <nd ref="370148807"/>
    <nd ref="370148827"/>
    <nd ref="370148812"/>
    <nd ref="383737384"/>
    <tag k="highway" v="secondary"/>
    <tag k="maxspeed" v="70"/>
    <tag k="name" v="Hauptstraße"/>
    <tag k="ref" v="St 2068"/>
    <tag k="source" v="survey"/>
  </way>
  <way id="33581753" version="7" timestamp="2009-10-02T19:26:43Z" uid="86259" user="hasse_osm_korinthenkacker" changeset="2716617">
    <nd ref="383737378"/>
    <nd ref="370148795"/>
    <nd ref="370148805"/>
    <nd ref="370148807"/>
    <nd ref="370148827"/>
    <nd ref="370148812"/>
    <nd ref="383737384"/>
    <tag k="highway" v="secondary"/>
    <tag k="maxspeed" v="70"/>
    <tag k="name" v="Hauptstraße"/>
    <tag k="ref" v="St 2068"/>
  </way>
  <way id="33581753" version="8" timestamp="2012-01-16T20:51:24Z" uid="313192" user="Ohr" changeset="10412037"/>
  <way id="33581754" version="1" timestamp="2009-04-24T17:32:39Z" uid="36809" user="pfoten_weg_!_" changeset="931184">
    <nd ref="383737384"/>
    <nd ref="383737386"/>
    <tag k="bridge" v="yes"/>
    <tag k="created_by" v="RambaZamba"/>
    <tag k="highway" v="secondary"/>
    <tag k="layer" v="0"/>
    <tag k="maxspeed" v="70"/>
    <tag k="name" v="Hauptstraße"/>
    <tag k="ref" v="St 2068"/>
    <tag k="source" v="survey"/>
  </way>
  <way id="33581754" version="2" timestamp="2009-08-24T23:16:46Z" uid="36809" user="pfoten_weg_!_" changeset="2251012">
    <nd ref="383737384"/>
    <nd ref="383737386"/>
    <tag k="bridge" v="yes"/>
    <tag k="discovered_by" v="RambaZamba"/>
    <tag k="highway" v="secondary"/>
    <tag k="layer" v="0"/>
    <tag k="maxspeed" v="70"/>
    <tag k="name" v="Hauptstraße"/>
    <tag k="ref" v="St 2068"/>
    <tag k="source" v="survey"/>
  </way>
  <way id="33581754" version="3" timestamp="2009-08-28T20:08:55Z" uid="156995" user="HampelZamba" changeset="2294580">
    <nd ref="383737384"/>
    <nd ref="383737386"/>
    <tag k="bridge" v="yes"/>
    <tag k="highway" v="secondary"/>
    <tag k="layer" v="0"/>
    <tag k="maxspeed" v="70"/>
    <tag k="name" v="Hauptstraße"/>
    <tag k="ref" v="St 2068"/>
    <tag k="source" v="survey"/>
  </way>
  <way id="33581754" version="4" timestamp="2009-08-31T17:49:46Z" uid="36809" user="pfoten_weg_!_" changeset="2328905">
    <nd ref="383737384"/>
    <nd ref="383737386"/>
    <tag k="bridge" v="yes"/>
    <tag k="highway" v="secondary"/>
    <tag k="layer" v="0"/>
    <tag k="maxspeed" v="70"/>
    <tag k="name" v="Hauptstraße"/>
    <tag k="ref" v="St 2068"/>
    <tag k="source" v="survey"/>
  </way>
  <way id="33581754" version="5" timestamp="2009-10-02T19:26:43Z" uid="86259" user="hasse_osm_korinthenkacker" changeset="2716617">
    <nd ref="383737384"/>
    <nd ref="383737386"/>
    <tag k="bridge" v="yes"/>
    <tag k="highway" v="secondary"/>
    <tag k="layer" v="0"/>
    <tag k="maxspeed" v="70"/>
    <tag k="name" v="Hauptstraße"/>
    <tag k="ref" v="St 2068"/>
  </way>
  <way id="33581754" version="6" timestamp="2012-01-16T20:51:24Z" uid="313192" user="Ohr" changeset="10412037"/>
  <way id="33581756" version="1" timestamp="2009-04-24T17:32:39Z" uid="36809" user="pfoten_weg_!_" changeset="931184">
    <nd ref="383737386"/>
    <nd ref="370148802"/>
    <nd ref="34578854"/>
    <tag k="created_by" v="RambaZamba"/>
    <tag k="highway" v="secondary"/>
    <tag k="maxspeed" v="70"/>
    <tag k="name" v="Hauptstraße"/>
    <tag k="ref" v="St 2068"/>
    <tag k="source" v="survey"/>
  </way>
  <way id="33581756" version="2" timestamp="2009-08-24T23:19:19Z" uid="36809" user="pfoten_weg_!_" changeset="2251012">
    <nd ref="383737386"/>
    <nd ref="370148802"/>
    <nd ref="34578854"/>
    <tag k="discovered_by" v="RambaZamba"/>
    <tag k="highway" v="secondary"/>
    <tag k="maxspeed" v="70"/>
    <tag k="name" v="Hauptstraße"/>
    <tag k="ref" v="St 2068"/>
    <tag k="source" v="survey"/>
  </way>
  <way id="33581756" version="3" timestamp="2009-08-28T20:08:55Z" uid="156995" user="HampelZamba" changeset="2294580">
    <nd ref="383737386"/>
    <nd ref="370148802"/>
    <nd ref="34578854"/>
    <tag k="highway" v="secondary"/>
    <tag k="maxspeed" v="70"/>
    <tag k="name" v="Hauptstraße"/>
    <tag k="ref" v="St 2068"/>
    <tag k="source" v="survey"/>
  </way>
  <way id="33581756" version="4" timestamp="2009-08-31T17:43:22Z" uid="36809" user="pfoten_weg_!_" changeset="2328905">
    <nd ref="383737386"/>
    <nd ref="370148802"/>
    <nd ref="34578854"/>
    <tag k="highway" v="secondary"/>
    <tag k="maxspeed" v="70"/>
    <tag k="name" v="Hauptstraße"/>
    <tag k="ref" v="St 2068"/>
    <tag k="source" v="survey"/>
  </way>
  <way id="33581756" version="5" timestamp="2009-10-02T19:26:43Z" uid="86259" user="hasse_osm_korinthenkacker" changeset="2716617">
    <nd ref="383737386"/>
    <nd ref="370148802"/>
    <nd ref="34578854"/>
    <tag k="highway" v="secondary"/>
    <tag k="maxspeed" v="70"/>
    <tag k="name" v="Hauptstraße"/>
    <tag k="ref" v="St 2068"/>
  </way>
  <way id="33581756" version="6" timestamp="2012-01-16T20:51:24Z" uid="313192" user="Ohr" changeset="10412037"/>
  <way id="33581831" version="3" timestamp="2010-06-29T19:03:38Z" uid="74617" user="JohnSmith" changeset="5108182">
    <nd ref="383738175"/>
    <nd ref="383738177"/>
    <nd ref="383738178"/>
    <nd ref="383738180"/>
    <nd ref="383738175"/>
    <tag k="fixme" v="sport=football is ambiguous, see http://wiki.osm.org/wiki/Football for more details"/>
    <tag k="leisure" v="stadium"/>
    <tag k="sport" v="football"/>
  </way>
  <way id="33581831" version="4" timestamp="2010-08-31T06:03:11Z" uid="8007" user="vrabcak" changeset="5642406">
    <nd ref="383738175"/>
    <nd ref="383738177"/>
    <nd ref="383738178"/>
    <nd ref="383738180"/>
    <nd ref="383738175"/>
    <tag k="leisure" v="stadium"/>
    <tag k="sport" v="soccer"/>
  </way>
  <way id="33581832" version="3" timestamp="2010-06-29T19:17:17Z" uid="74617" user="JohnSmith" changeset="5108182">
    <nd ref="383738189"/>
    <nd ref="383738182"/>
    <nd ref="383738187"/>
    <nd ref="383738185"/>
    <nd ref="383738189"/>
    <tag k="fixme" v="sport=football is ambiguous, see http://wiki.osm.org/wiki/Football for more details"/>
    <tag k="leisure" v="stadium"/>
    <tag k="sport" v="football"/>
  </way>
  <way id="33581832" version="4" timestamp="2010-08-31T06:03:10Z" uid="8007" user="vrabcak" changeset="5642406">
    <nd ref="383738189"/>
    <nd ref="383738182"/>
    <nd ref="383738187"/>
    <nd ref="383738185"/>
    <nd ref="383738189"/>
    <tag k="leisure" v="stadium"/>
    <tag k="sport" v="soccer"/>
  </way>
  <way id="33581882" version="2" timestamp="2009-07-05T15:55:17Z" uid="43863" user="Rundling" changeset="1740833"/>
  <way id="33581883" version="2" timestamp="2009-07-05T15:55:17Z" uid="43863" user="Rundling" changeset="1740833"/>
  <way id="33581884" version="2" timestamp="2009-07-05T15:55:17Z" uid="43863" user="Rundling" changeset="1740833"/>
  <way id="33581885" version="2" timestamp="2009-07-05T15:55:17Z" uid="43863" user="Rundling" changeset="1740833"/>
  <way id="33581886" version="2" timestamp="2009-07-05T15:55:17Z" uid="43863" user="Rundling" changeset="1740833"/>
  <way id="33581887" version="2" timestamp="2009-07-05T15:55:17Z" uid="43863" user="Rundling" changeset="1740833"/>
  <way id="33581888" version="2" timestamp="2009-07-05T15:55:17Z" uid="43863" user="Rundling" changeset="1740833"/>
  <way id="33581889" version="2" timestamp="2009-07-05T15:55:17Z" uid="43863" user="Rundling" changeset="1740833"/>
  <way id="33581890" version="2" timestamp="2009-07-05T15:55:17Z" uid="43863" user="Rundling" changeset="1740833"/>
  <way id="33581891" version="2" timestamp="2009-07-05T15:55:17Z" uid="43863" user="Rundling" changeset="1740833"/>
  <way id="33581892" version="2" timestamp="2009-07-05T15:55:17Z" uid="43863" user="Rundling" changeset="1740833"/>
  <way id="33581893" version="2" timestamp="2009-07-05T15:55:17Z" uid="43863" user="Rundling" changeset="1740833"/>
  <way id="33581410" version="4" timestamp="2012-07-11T23:05:07Z" uid="169004" user="oldtopos" changeset="12191235">
    <nd ref="383733538"/>
    <nd ref="1822276582"/>
    <nd ref="383733539"/>
    <tag k="highway" v="residential"/>
    <tag k="name" v="Mono Lake Avenue"/>
  </way>
  <way id="33581410" version="5" timestamp="2012-07-18T16:50:36Z" uid="722137" user="OSMF Redaction Account" changeset="12289535"/>
  <way id="33581454" version="4" timestamp="2012-07-11T23:05:01Z" uid="169004" user="oldtopos" changeset="12191235">
    <nd ref="383733815"/>
    <nd ref="1822276584"/>
    <nd ref="383733817"/>
    <tag k="highway" v="residential"/>
    <tag k="name" v="Citadel Avenue"/>
  </way>
  <way id="33581454" version="5" timestamp="2012-07-18T16:50:36Z" uid="722137" user="OSMF Redaction Account" changeset="12289535"/>
  <way id="33581471" version="4" timestamp="2012-07-11T23:05:08Z" uid="169004" user="oldtopos" changeset="12191235">
    <nd ref="383734261"/>
    <nd ref="1822276586"/>
    <nd ref="383734262"/>
    <tag k="highway" v="residential"/>
    <tag k="name" v="Pyramid Avenue"/>
  </way>
  <way id="33581471" version="5" timestamp="2012-07-18T16:50:36Z" uid="722137" user="OSMF Redaction Account" changeset="12289535"/>
</osm>
