<?xml version='1.0' encoding='UTF-8'?>
<osm version="0.6" generator="libosmium/2.20.0">
  <way id="33626204" version="7" timestamp="2011-02-01T07:58:40Z" uid="4467" user="Rosscoe" changeset="7152257">
    <nd ref="321434149"/>
    <nd ref="250431201"/>
    <nd ref="250431202"/>
    <nd ref="250431203"/>
    <nd ref="527560562"/>
    <nd ref="250431205"/>
    <nd ref="250431206"/>
    <nd ref="250431207"/>
    <nd ref="250431209"/>
    <nd ref="250431210"/>
    <tag k="highway" v="tertiary"/>
    <tag k="name" v="Racecourse Crescent"/>
  </way>
  <way id="33626323" version="3" timestamp="2010-07-09T05:38:57Z" uid="74617" user="JohnSmith" changeset="5170986">
    <nd ref="322728222"/>
    <nd ref="323054840"/>
    <nd ref="384624489"/>
    <nd ref="384624490"/>
    <nd ref="384624491"/>
    <nd ref="384624492"/>
    <nd ref="384624493"/>
    <nd ref="384624494"/>
    <nd ref="384624495"/>
    <nd ref="384624496"/>
    <nd ref="384624497"/>
    <nd ref="384624498"/>
    <tag k="highway" v="residential"/>
    <tag k="maxspeed" v="50"/>
    <tag k="maxspeed:source" v="default residential speed limit in Australia"/>
    <tag k="name" v="Vermont Road"/>
  </way>
  <way id="33626323" version="4" timestamp="2011-10-28T03:56:47Z" uid="543761" user="brooss" changeset="9673341">
    <nd ref="322728222"/>
    <nd ref="323054840"/>
    <nd ref="384624489"/>
    <nd ref="384624490"/>
    <nd ref="384624491"/>
    <nd ref="384624492"/>
    <nd ref="384624493"/>
    <nd ref="384624494"/>
    <nd ref="384624495"/>
    <nd ref="384624496"/>
    <nd ref="384624497"/>
    <nd ref="384624498"/>
    <tag k="highway" v="residential"/>
    <tag k="maxspeed" v="50"/>
    <tag k="maxspeed:source" v="default residential speed limit in Australia"/>
    <tag k="name" v="Vermont Road"/>
  </way>
  <way id="33626323" version="5" timestamp="2012-01-18T20:06:53Z" uid="147510" user="woodpeck_fixbot" changeset="10429293">
    <nd ref="322728222"/>
    <nd ref="323054840"/>
    <nd ref="384624489"/>
    <nd ref="384624490"/>
    <nd ref="384624491"/>
    <nd ref="384624492"/>
    <nd ref="384624493"/>
    <nd ref="384624494"/>
    <nd ref="384624495"/>
    <nd ref="384624496"/>
    <nd ref="384624497"/>
    <nd ref="384624498"/>
    <tag k="highway" v="residential"/>
    <tag k="name" v="Vermont Road"/>
  </way>
  <way id="33626336" version="3" timestamp="2009-08-15T13:15:04Z" uid="4467" user="Rosscoe" changeset="2153975">
    <nd ref="384622298"/>
    <nd ref="384622300"/>
    <tag k="bridge" v="yes"/>
    <tag k="highway" v="tertiary"/>
    <tag k="layer" v="1"/>
    <tag k="name" v="Henry Street"/>
  </way>
  <way id="33626431" version="5" timestamp="2010-07-09T05:39:19Z" uid="74617" user="JohnSmith" changeset="5170986">
    <nd ref="384627012"/>
    <nd ref="384630876"/>
    <nd ref="384636225"/>
    <nd ref="384630174"/>
    <nd ref="384627013"/>
    <tag k="highway" v="residential"/>
    <tag k="maxspeed" v="50"/>
    <tag k="maxspeed:source" v="default residential speed limit in Australia"/>
    <tag k="name" v="Bonella Street"/>
  </way>
  <way id="33626431" version="6" timestamp="2011-03-06T12:15:12Z" uid="79620" user="CraigRat" changeset="7472473">
    <nd ref="384627012"/>
    <nd ref="1189121961"/>
    <nd ref="384630876"/>
    <nd ref="384636225"/>
    <nd ref="384630174"/>
    <nd ref="384627013"/>
    <tag k="highway" v="residential"/>
    <tag k="maxspeed" v="50"/>
    <tag k="maxspeed:source" v="default residential speed limit in Australia"/>
    <tag k="name" v="Bonella Street"/>
  </way>
  <way id="33626431" version="7" timestamp="2012-01-18T20:06:55Z" uid="147510" user="woodpeck_fixbot" changeset="10429293">
    <nd ref="384627012"/>
    <nd ref="1189121961"/>
    <nd ref="384630876"/>
    <nd ref="384636225"/>
    <nd ref="384630174"/>
    <nd ref="384627013"/>
    <tag k="highway" v="residential"/>
    <tag k="name" v="Bonella Street"/>
  </way>
  <way id="33626480" version="3" timestamp="2010-07-09T05:40:21Z" uid="74617" user="JohnSmith" changeset="5170986">
    <nd ref="384630174"/>
    <nd ref="384630176"/>
    <nd ref="384630179"/>
    <nd ref="384630889"/>
    <nd ref="384630181"/>
    <tag k="highway" v="residential"/>
    <tag k="maxspeed" v="50"/>
    <tag k="maxspeed:source" v="default residential speed limit in Australia"/>
    <tag k="name" v="Booth Street"/>
  </way>
  <way id="33626480" version="4" timestamp="2011-03-06T12:15:12Z" uid="79620" user="CraigRat" changeset="7472473">
    <nd ref="384630174"/>
    <nd ref="384630176"/>
    <nd ref="384630179"/>
    <nd ref="384630889"/>
    <nd ref="1189121749"/>
    <nd ref="384630181"/>
    <tag k="highway" v="residential"/>
    <tag k="maxspeed" v="50"/>
    <tag k="maxspeed:source" v="default residential speed limit in Australia"/>
    <tag k="name" v="Booth Street"/>
  </way>
  <way id="33626480" version="5" timestamp="2012-01-18T20:06:56Z" uid="147510" user="woodpeck_fixbot" changeset="10429293">
    <nd ref="384630174"/>
    <nd ref="384630176"/>
    <nd ref="384630179"/>
    <nd ref="384630889"/>
    <nd ref="1189121749"/>
    <nd ref="384630181"/>
    <tag k="highway" v="residential"/>
    <tag k="name" v="Booth Street"/>
  </way>
  <way id="33626484" version="3" timestamp="2010-07-09T05:40:57Z" uid="74617" user="JohnSmith" changeset="5170986">
    <nd ref="384630876"/>
    <nd ref="384630879"/>
    <nd ref="384630881"/>
    <nd ref="384630884"/>
    <nd ref="384630887"/>
    <nd ref="384630889"/>
    <tag k="highway" v="residential"/>
    <tag k="maxspeed" v="50"/>
    <tag k="maxspeed:source" v="default residential speed limit in Australia"/>
    <tag k="name" v="Binney Street"/>
  </way>
  <way id="33626484" version="4" timestamp="2011-03-06T12:15:10Z" uid="79620" user="CraigRat" changeset="7472473">
    <nd ref="384630876"/>
    <nd ref="384630879"/>
    <nd ref="384630881"/>
    <nd ref="1189121902"/>
    <nd ref="384630884"/>
    <nd ref="384630887"/>
    <nd ref="384630889"/>
    <tag k="highway" v="residential"/>
    <tag k="maxspeed" v="50"/>
    <tag k="maxspeed:source" v="default residential speed limit in Australia"/>
    <tag k="name" v="Binney Street"/>
  </way>
  <way id="33626484" version="5" timestamp="2012-01-18T20:06:57Z" uid="147510" user="woodpeck_fixbot" changeset="10429293">
    <nd ref="384630876"/>
    <nd ref="384630879"/>
    <nd ref="384630881"/>
    <nd ref="1189121902"/>
    <nd ref="384630884"/>
    <nd ref="384630887"/>
    <nd ref="384630889"/>
    <tag k="highway" v="residential"/>
    <tag k="name" v="Binney Street"/>
  </way>
  <way id="33626500" version="2" timestamp="2010-07-09T05:41:11Z" uid="74617" user="JohnSmith" changeset="5170986">
    <nd ref="384629632"/>
    <nd ref="384631797"/>
    <nd ref="384631800"/>
    <nd ref="384631802"/>
    <nd ref="384631804"/>
    <nd ref="384631807"/>
    <nd ref="384631809"/>
    <nd ref="384629642"/>
    <tag k="highway" v="residential"/>
    <tag k="maxspeed" v="50"/>
    <tag k="maxspeed:source" v="default residential speed limit in Australia"/>
    <tag k="name" v="Ballina Crescent"/>
  </way>
  <way id="33626500" version="3" timestamp="2012-01-18T20:06:59Z" uid="147510" user="woodpeck_fixbot" changeset="10429293">
    <nd ref="384629632"/>
    <nd ref="384631797"/>
    <nd ref="384631800"/>
    <nd ref="384631802"/>
    <nd ref="384631804"/>
    <nd ref="384631807"/>
    <nd ref="384631809"/>
    <nd ref="384629642"/>
    <tag k="highway" v="residential"/>
    <tag k="name" v="Ballina Crescent"/>
  </way>
  <way id="33626540" version="2" timestamp="2010-07-09T05:38:56Z" uid="74617" user="JohnSmith" changeset="5170986">
    <nd ref="384633656"/>
    <nd ref="384633660"/>
    <nd ref="384633663"/>
    <nd ref="384627012"/>
    <nd ref="384633667"/>
    <nd ref="384633671"/>
    <nd ref="384633674"/>
    <nd ref="384633678"/>
    <nd ref="384633681"/>
    <nd ref="384633684"/>
    <nd ref="384633688"/>
    <tag k="highway" v="residential"/>
    <tag k="maxspeed" v="50"/>
    <tag k="maxspeed:source" v="default residential speed limit in Australia"/>
    <tag k="name" v="Faulkner Road"/>
  </way>
  <way id="33626540" version="3" timestamp="2012-01-18T20:07:00Z" uid="147510" user="woodpeck_fixbot" changeset="10429293">
    <nd ref="384633656"/>
    <nd ref="384633660"/>
    <nd ref="384633663"/>
    <nd ref="384627012"/>
    <nd ref="384633667"/>
    <nd ref="384633671"/>
    <nd ref="384633674"/>
    <nd ref="384633678"/>
    <nd ref="384633681"/>
    <nd ref="384633684"/>
    <nd ref="384633688"/>
    <tag k="highway" v="residential"/>
    <tag k="name" v="Faulkner Road"/>
  </way>
  <way id="33626559" version="2" timestamp="2010-07-09T05:38:50Z" uid="74617" user="JohnSmith" changeset="5170986">
    <nd ref="384634339"/>
    <nd ref="384633681"/>
    <tag k="highway" v="residential"/>
    <tag k="maxspeed" v="50"/>
    <tag k="maxspeed:source" v="default residential speed limit in Australia"/>
    <tag k="name" v="Cromwell Street"/>
  </way>
  <way id="33626559" version="3" timestamp="2012-01-18T20:07:01Z" uid="147510" user="woodpeck_fixbot" changeset="10429293">
    <nd ref="384634339"/>
    <nd ref="384633681"/>
    <tag k="highway" v="residential"/>
    <tag k="name" v="Cromwell Street"/>
  </way>
  <way id="33626565" version="2" timestamp="2010-07-09T05:42:07Z" uid="74617" user="JohnSmith" changeset="5170986">
    <nd ref="384634665"/>
    <nd ref="384634667"/>
    <nd ref="384634339"/>
    <tag k="highway" v="residential"/>
    <tag k="maxspeed" v="50"/>
    <tag k="maxspeed:source" v="default residential speed limit in Australia"/>
    <tag k="name" v="Dean Street"/>
  </way>
  <way id="33626565" version="3" timestamp="2012-01-18T20:07:02Z" uid="147510" user="woodpeck_fixbot" changeset="10429293">
    <nd ref="384634665"/>
    <nd ref="384634667"/>
    <nd ref="384634339"/>
    <tag k="highway" v="residential"/>
    <tag k="name" v="Dean Street"/>
  </way>
  <way id="33626572" version="3" timestamp="2010-07-09T05:41:44Z" uid="74617" user="JohnSmith" changeset="5170986">
    <nd ref="434439360"/>
    <nd ref="384633684"/>
    <nd ref="384634667"/>
    <tag k="highway" v="residential"/>
    <tag k="maxspeed" v="50"/>
    <tag k="maxspeed:source" v="default residential speed limit in Australia"/>
    <tag k="name" v="Chapple Street"/>
    <tag k="source" v="survey"/>
  </way>
  <way id="33626572" version="4" timestamp="2012-01-18T20:07:12Z" uid="147510" user="woodpeck_fixbot" changeset="10429293">
    <nd ref="434439360"/>
    <nd ref="384633684"/>
    <nd ref="384634667"/>
    <tag k="highway" v="residential"/>
    <tag k="name" v="Chapple Street"/>
    <tag k="source" v="survey"/>
  </way>
  <way id="33626583" version="3" timestamp="2010-07-09T05:38:44Z" uid="74617" user="JohnSmith" changeset="5170986">
    <nd ref="384636211"/>
    <nd ref="384636214"/>
    <nd ref="384636216"/>
    <nd ref="384636219"/>
    <nd ref="384636221"/>
    <nd ref="384638689"/>
    <nd ref="384636223"/>
    <nd ref="384636225"/>
    <tag k="highway" v="residential"/>
    <tag k="maxspeed" v="50"/>
    <tag k="maxspeed:source" v="default residential speed limit in Australia"/>
    <tag k="name" v="Seymour Street"/>
  </way>
  <way id="33626583" version="4" timestamp="2012-01-18T20:07:17Z" uid="147510" user="woodpeck_fixbot" changeset="10429293">
    <nd ref="384636211"/>
    <nd ref="384636214"/>
    <nd ref="384636216"/>
    <nd ref="384636219"/>
    <nd ref="384636221"/>
    <nd ref="384638689"/>
    <nd ref="384636223"/>
    <nd ref="384636225"/>
    <tag k="highway" v="residential"/>
    <tag k="name" v="Seymour Street"/>
  </way>
  <way id="33626596" version="2" timestamp="2010-07-09T05:42:03Z" uid="74617" user="JohnSmith" changeset="5170986">
    <nd ref="384636519"/>
    <nd ref="384636216"/>
    <nd ref="384636522"/>
    <tag k="highway" v="residential"/>
    <tag k="maxspeed" v="50"/>
    <tag k="maxspeed:source" v="default residential speed limit in Australia"/>
    <tag k="name" v="Suncrest Place"/>
  </way>
  <way id="33626596" version="3" timestamp="2012-01-18T20:07:18Z" uid="147510" user="woodpeck_fixbot" changeset="10429293">
    <nd ref="384636519"/>
    <nd ref="384636216"/>
    <nd ref="384636522"/>
    <tag k="highway" v="residential"/>
    <tag k="name" v="Suncrest Place"/>
  </way>
  <way id="33626638" version="2" timestamp="2010-07-09T05:41:50Z" uid="74617" user="JohnSmith" changeset="5170986">
    <nd ref="384633678"/>
    <nd ref="384636219"/>
    <nd ref="384637574"/>
    <nd ref="384628432"/>
    <tag k="highway" v="residential"/>
    <tag k="maxspeed" v="50"/>
    <tag k="maxspeed:source" v="default residential speed limit in Australia"/>
    <tag k="name" v="Stoke Street"/>
  </way>
  <way id="33626638" version="3" timestamp="2012-01-18T20:07:19Z" uid="147510" user="woodpeck_fixbot" changeset="10429293">
    <nd ref="384633678"/>
    <nd ref="384636219"/>
    <nd ref="384637574"/>
    <nd ref="384628432"/>
    <tag k="highway" v="residential"/>
    <tag k="name" v="Stoke Street"/>
  </way>
  <way id="33626652" version="3" timestamp="2010-04-06T15:32:35Z" uid="20587" user="balrog-kun" changeset="4342727">
    <nd ref="80292018"/>
    <nd ref="80292020"/>
    <nd ref="80276571"/>
    <nd ref="80245472"/>
    <nd ref="80292022"/>
    <nd ref="80292024"/>
    <nd ref="80238236"/>
    <nd ref="80292026"/>
    <nd ref="80292028"/>
    <nd ref="80292030"/>
    <nd ref="80292032"/>
    <nd ref="80292034"/>
    <nd ref="80292036"/>
    <nd ref="80292038"/>
    <nd ref="80283013"/>
    <nd ref="80292040"/>
    <nd ref="80252726"/>
    <nd ref="80292042"/>
    <nd ref="80292044"/>
    <nd ref="80292046"/>
    <nd ref="80292048"/>
    <nd ref="80292050"/>
    <nd ref="80292054"/>
    <nd ref="80292056"/>
    <nd ref="80292058"/>
    <nd ref="80292060"/>
    <nd ref="80292062"/>
    <nd ref="80292064"/>
    <nd ref="80292066"/>
    <nd ref="80281462"/>
    <nd ref="80292070"/>
    <nd ref="80254342"/>
    <nd ref="80292072"/>
    <nd ref="80292074"/>
    <nd ref="80292076"/>
    <nd ref="80292078"/>
    <nd ref="80292080"/>
    <nd ref="80245109"/>
    <nd ref="80292086"/>
    <tag k="highway" v="residential"/>
    <tag k="name" v="293rd Street"/>
    <tag k="tiger:cfcc" v="A41"/>
    <tag k="tiger:county" v="Lincoln, SD"/>
    <tag k="tiger:name_base" v="293rd"/>
    <tag k="tiger:name_type" v="St"/>
    <tag k="tiger:reviewed" v="no"/>
    <tag k="tiger:separated" v="no"/>
    <tag k="tiger:source" v="tiger_import_dch_v0.6_20070829"/>
    <tag k="tiger:tlid" v="176323228:176323230:176323231:176314472:176323208:176323210:176323212:176323213:176323220:176323222:176323223:176323216:176323218:176323219:176332049:176314494:176314495:176314338:176314166:176314358:176323234:176323235:176314170:176314171:176317201:17631"/>
    <tag k="tiger:zip_left" v="57004"/>
    <tag k="tiger:zip_right" v="57004"/>
  </way>
  <way id="33626657" version="2" timestamp="2010-07-09T05:42:27Z" uid="74617" user="JohnSmith" changeset="5170986">
    <nd ref="384628429"/>
    <nd ref="384638169"/>
    <nd ref="384636221"/>
    <nd ref="384633674"/>
    <tag k="highway" v="residential"/>
    <tag k="maxspeed" v="50"/>
    <tag k="maxspeed:source" v="default residential speed limit in Australia"/>
    <tag k="name" v="Trethewie Street"/>
  </way>
  <way id="33626657" version="3" timestamp="2011-03-06T12:15:08Z" uid="79620" user="CraigRat" changeset="7472473">
    <nd ref="384628429"/>
    <nd ref="384638169"/>
    <nd ref="1189121755"/>
    <nd ref="1189121770"/>
    <nd ref="384636221"/>
    <nd ref="384633674"/>
    <tag k="highway" v="residential"/>
    <tag k="maxspeed" v="50"/>
    <tag k="maxspeed:source" v="default residential speed limit in Australia"/>
    <tag k="name" v="Trethewie Street"/>
  </way>
  <way id="33626657" version="4" timestamp="2012-01-18T20:07:20Z" uid="147510" user="woodpeck_fixbot" changeset="10429293">
    <nd ref="384628429"/>
    <nd ref="384638169"/>
    <nd ref="1189121755"/>
    <nd ref="1189121770"/>
    <nd ref="384636221"/>
    <nd ref="384633674"/>
    <tag k="highway" v="residential"/>
    <tag k="name" v="Trethewie Street"/>
  </way>
  <way id="33626658" version="2" timestamp="2010-07-09T05:41:35Z" uid="74617" user="JohnSmith" changeset="5170986">
    <nd ref="384638689"/>
    <nd ref="384638690"/>
    <nd ref="384633671"/>
    <tag k="highway" v="residential"/>
    <tag k="maxspeed" v="50"/>
    <tag k="maxspeed:source" v="default residential speed limit in Australia"/>
    <tag k="name" v="Ormond Street"/>
  </way>
  <way id="33626658" version="3" timestamp="2012-01-18T20:07:21Z" uid="147510" user="woodpeck_fixbot" changeset="10429293">
    <nd ref="384638689"/>
    <nd ref="384638690"/>
    <nd ref="384633671"/>
    <tag k="highway" v="residential"/>
    <tag k="name" v="Ormond Street"/>
  </way>
  <way id="33626665" version="3" timestamp="2010-07-09T05:41:13Z" uid="74617" user="JohnSmith" changeset="5170986">
    <nd ref="384638858"/>
    <nd ref="384638860"/>
    <tag k="highway" v="residential"/>
    <tag k="maxspeed" v="50"/>
    <tag k="maxspeed:source" v="default residential speed limit in Australia"/>
    <tag k="name" v="Indigo Court"/>
  </way>
  <way id="33626665" version="4" timestamp="2012-01-18T20:07:22Z" uid="147510" user="woodpeck_fixbot" changeset="10429293">
    <nd ref="384638858"/>
    <nd ref="384638860"/>
    <tag k="highway" v="residential"/>
    <tag k="name" v="Indigo Court"/>
  </way>
  <way id="33626669" version="3" timestamp="2010-07-09T05:41:46Z" uid="74617" user="JohnSmith" changeset="5170986">
    <nd ref="384638932"/>
    <nd ref="384638933"/>
    <tag k="highway" v="residential"/>
    <tag k="maxspeed" v="50"/>
    <tag k="maxspeed:source" v="default residential speed limit in Australia"/>
    <tag k="name" v="Iona Court"/>
  </way>
  <way id="33626669" version="4" timestamp="2012-01-18T20:07:23Z" uid="147510" user="woodpeck_fixbot" changeset="10429293">
    <nd ref="384638932"/>
    <nd ref="384638933"/>
    <tag k="highway" v="residential"/>
    <tag k="name" v="Iona Court"/>
  </way>
  <way id="33626672" version="3" timestamp="2010-07-09T05:41:42Z" uid="74617" user="JohnSmith" changeset="5170986">
    <nd ref="384638988"/>
    <nd ref="384638934"/>
    <tag k="highway" v="residential"/>
    <tag k="maxspeed" v="50"/>
    <tag k="maxspeed:source" v="default residential speed limit in Australia"/>
    <tag k="name" v="Nelson Court"/>
  </way>
  <way id="33626672" version="4" timestamp="2012-01-18T20:07:24Z" uid="147510" user="woodpeck_fixbot" changeset="10429293">
    <nd ref="384638988"/>
    <nd ref="384638934"/>
    <tag k="highway" v="residential"/>
    <tag k="name" v="Nelson Court"/>
  </way>
  <way id="33626712" version="3" timestamp="2010-07-09T05:39:07Z" uid="74617" user="JohnSmith" changeset="5170986">
    <nd ref="384640312"/>
    <nd ref="384640313"/>
    <tag k="highway" v="residential"/>
    <tag k="maxspeed" v="50"/>
    <tag k="maxspeed:source" v="default residential speed limit in Australia"/>
    <tag k="name" v="Toora Court"/>
  </way>
  <way id="33626712" version="4" timestamp="2012-01-18T20:07:25Z" uid="147510" user="woodpeck_fixbot" changeset="10429293">
    <nd ref="384640312"/>
    <nd ref="384640313"/>
    <tag k="highway" v="residential"/>
    <tag k="name" v="Toora Court"/>
  </way>
  <way id="33626741" version="3" timestamp="2011-01-23T18:23:55Z" uid="9581" user="Lobelt" changeset="7065211">
    <nd ref="384640808"/>
    <nd ref="384640810"/>
    <nd ref="279648069"/>
    <nd ref="1117297531"/>
    <nd ref="279648068"/>
    <tag k="highway" v="residential"/>
    <tag k="name" v="Draisstraße"/>
  </way>
  <way id="33626741" version="4" timestamp="2012-03-28T20:18:14Z" uid="110838" user="Bernhard W" changeset="11130920">
    <nd ref="384640808"/>
    <nd ref="384640810"/>
    <nd ref="279648069"/>
    <nd ref="1117297531"/>
    <nd ref="279648068"/>
    <tag k="highway" v="residential"/>
    <tag k="name" v="Draisstraße"/>
    <tag k="odbl" v="clear"/>
  </way>
  <way id="33626741" version="5" timestamp="2012-03-29T00:09:23Z" uid="110838" user="Bernhard W" changeset="11132529">
    <nd ref="384640808"/>
    <nd ref="384640810"/>
    <nd ref="279648069"/>
    <nd ref="1117297531"/>
    <nd ref="279648068"/>
    <tag k="highway" v="residential"/>
    <tag k="name" v="Draisstraße"/>
    <tag k="odbl" v="clean"/>
  </way>
  <way id="33626741" version="6" timestamp="2012-03-30T22:29:45Z" uid="110838" user="Bernhard W" changeset="11160827">
    <nd ref="384640808"/>
    <nd ref="384640810"/>
    <nd ref="279648069"/>
    <nd ref="1117297531"/>
    <nd ref="279648068"/>
    <tag k="highway" v="residential"/>
    <tag k="name" v="Draisstraße"/>
  </way>
  <way id="33626746" version="4" timestamp="2010-09-04T19:30:18Z" uid="9581" user="Lobelt" changeset="5681884">
    <nd ref="384640822"/>
    <nd ref="384640823"/>
    <nd ref="896189611"/>
    <nd ref="384640821"/>
    <nd ref="409542187"/>
    <tag k="highway" v="residential"/>
    <tag k="name" v="Marienburger Straße"/>
  </way>
  <way id="33626747" version="3" timestamp="2010-09-04T19:30:25Z" uid="9581" user="Lobelt" changeset="5681884">
    <nd ref="312256964"/>
    <nd ref="384640824"/>
    <nd ref="896189521"/>
    <nd ref="384640966"/>
    <tag k="highway" v="residential"/>
    <tag k="name" v="Rotäckerweg"/>
  </way>
  <way id="33626751" version="3" timestamp="2010-03-07T18:26:44Z" uid="9581" user="Lobelt" changeset="4064534">
    <nd ref="410467118"/>
    <nd ref="384640854"/>
    <nd ref="662436132"/>
    <nd ref="662436131"/>
    <nd ref="410467119"/>
    <tag k="highway" v="residential"/>
    <tag k="name" v="Königshütter Straße"/>
  </way>
  <way id="33626770" version="5" timestamp="2010-09-04T19:30:19Z" uid="9581" user="Lobelt" changeset="5681884">
    <nd ref="384640826"/>
    <nd ref="896189705"/>
    <nd ref="410193399"/>
    <nd ref="384640827"/>
    <nd ref="384640829"/>
    <nd ref="384640963"/>
    <nd ref="410496400"/>
    <tag k="highway" v="residential"/>
    <tag k="name" v="Giselherstraße"/>
  </way>
  <way id="33626770" version="6" timestamp="2010-12-16T17:50:33Z" uid="81272" user="boddlnagg" changeset="6679117">
    <nd ref="384640826"/>
    <nd ref="896189705"/>
    <nd ref="410193399"/>
    <nd ref="384640827"/>
    <nd ref="384640829"/>
    <nd ref="384640963"/>
    <nd ref="1041520437"/>
    <nd ref="410496400"/>
    <tag k="highway" v="residential"/>
    <tag k="name" v="Giselherstraße"/>
  </way>
  <way id="33626803" version="4" timestamp="2010-07-09T05:38:33Z" uid="74617" user="JohnSmith" changeset="5170986">
    <nd ref="384644712"/>
    <nd ref="384644719"/>
    <nd ref="384644723"/>
    <nd ref="384644726"/>
    <nd ref="434439364"/>
    <nd ref="434439366"/>
    <nd ref="384644732"/>
    <nd ref="384642101"/>
    <nd ref="362482289"/>
    <nd ref="362482287"/>
    <nd ref="362482286"/>
    <nd ref="362482285"/>
    <nd ref="362482284"/>
    <nd ref="362482283"/>
    <nd ref="362482282"/>
    <nd ref="434439361"/>
    <nd ref="362482281"/>
    <tag k="highway" v="residential"/>
    <tag k="maxspeed" v="50"/>
    <tag k="maxspeed:source" v="default residential speed limit in Australia"/>
    <tag k="name" v="Prossers Forest Road"/>
  </way>
  <way id="33626803" version="5" timestamp="2012-01-18T20:07:29Z" uid="147510" user="woodpeck_fixbot" changeset="10429293">
    <nd ref="384644712"/>
    <nd ref="384644719"/>
    <nd ref="384644723"/>
    <nd ref="384644726"/>
    <nd ref="434439364"/>
    <nd ref="434439366"/>
    <nd ref="384644732"/>
    <nd ref="384642101"/>
    <nd ref="362482289"/>
    <nd ref="362482287"/>
    <nd ref="362482286"/>
    <nd ref="362482285"/>
    <nd ref="362482284"/>
    <nd ref="362482283"/>
    <nd ref="362482282"/>
    <nd ref="434439361"/>
    <nd ref="362482281"/>
    <tag k="highway" v="residential"/>
    <tag k="name" v="Prossers Forest Road"/>
  </way>
  <way id="33626867" version="2" timestamp="2010-07-09T05:40:38Z" uid="74617" user="JohnSmith" changeset="5170986">
    <nd ref="384628429"/>
    <nd ref="384644719"/>
    <tag k="highway" v="residential"/>
    <tag k="maxspeed" v="50"/>
    <tag k="maxspeed:source" v="default residential speed limit in Australia"/>
  </way>
  <way id="33626867" version="3" timestamp="2012-01-18T20:07:31Z" uid="147510" user="woodpeck_fixbot" changeset="10429293">
    <nd ref="384628429"/>
    <nd ref="384644719"/>
    <tag k="highway" v="residential"/>
  </way>
  <way id="33626888" version="2" timestamp="2010-07-09T05:42:08Z" uid="74617" user="JohnSmith" changeset="5170986">
    <nd ref="384646893"/>
    <nd ref="384628443"/>
    <nd ref="384646897"/>
    <nd ref="384646900"/>
    <nd ref="384646903"/>
    <nd ref="384646908"/>
    <nd ref="384646914"/>
    <nd ref="384646919"/>
    <nd ref="384646924"/>
    <nd ref="384642101"/>
    <tag k="highway" v="residential"/>
    <tag k="maxspeed" v="50"/>
    <tag k="maxspeed:source" v="default residential speed limit in Australia"/>
    <tag k="name" v="Castlemaine Road"/>
  </way>
  <way id="33626888" version="3" timestamp="2012-01-18T20:07:32Z" uid="147510" user="woodpeck_fixbot" changeset="10429293">
    <nd ref="384646893"/>
    <nd ref="384628443"/>
    <nd ref="384646897"/>
    <nd ref="384646900"/>
    <nd ref="384646903"/>
    <nd ref="384646908"/>
    <nd ref="384646914"/>
    <nd ref="384646919"/>
    <nd ref="384646924"/>
    <nd ref="384642101"/>
    <tag k="highway" v="residential"/>
    <tag k="name" v="Castlemaine Road"/>
  </way>
  <way id="33626914" version="4" timestamp="2010-04-06T15:32:35Z" uid="20587" user="balrog-kun" changeset="4342727">
    <nd ref="384646535"/>
    <nd ref="80266317"/>
    <nd ref="80242792"/>
    <nd ref="80311207"/>
    <nd ref="80297170"/>
    <nd ref="80311209"/>
    <nd ref="80311211"/>
    <nd ref="80217328"/>
    <nd ref="80217240"/>
    <nd ref="80283008"/>
    <nd ref="80311213"/>
    <nd ref="80311215"/>
    <nd ref="80227094"/>
    <nd ref="80311217"/>
    <nd ref="80294271"/>
    <nd ref="80311219"/>
    <nd ref="80264157"/>
    <nd ref="80311221"/>
    <nd ref="80311223"/>
    <nd ref="80303623"/>
    <nd ref="80311225"/>
    <nd ref="80311227"/>
    <nd ref="80250146"/>
    <nd ref="80250117"/>
    <nd ref="80311229"/>
    <nd ref="80311231"/>
    <nd ref="80311233"/>
    <nd ref="80311235"/>
    <nd ref="80281453"/>
    <nd ref="80311237"/>
    <nd ref="80250055"/>
    <nd ref="80311238"/>
    <nd ref="80216723"/>
    <nd ref="80311240"/>
    <nd ref="80292242"/>
    <nd ref="80311242"/>
    <nd ref="80216776"/>
    <nd ref="80216739"/>
    <nd ref="80301714"/>
    <tag k="highway" v="residential"/>
    <tag k="name" v="294th Street"/>
    <tag k="name_1" v="County Highway 152"/>
    <tag k="tiger:cfcc" v="A41"/>
    <tag k="tiger:county" v="Lincoln, SD"/>
    <tag k="tiger:name_base" v="294th"/>
    <tag k="tiger:name_base_1" v="County Highway 152"/>
    <tag k="tiger:name_type" v="St"/>
    <tag k="tiger:reviewed" v="no"/>
    <tag k="tiger:separated" v="no"/>
    <tag k="tiger:source" v="tiger_import_dch_v0.6_20070829"/>
    <tag k="tiger:tlid" v="176313587:176318004:176321423:176313591"/>
    <tag k="tiger:zip_left" v="57004"/>
    <tag k="tiger:zip_right" v="57014"/>
  </way>
  <way id="33626204" version="8" timestamp="2012-07-20T12:44:37Z" uid="46482" user="Leon K" changeset="12376314">
    <nd ref="1832007697"/>
    <nd ref="1832007705"/>
    <nd ref="321434149"/>
    <nd ref="250431202"/>
    <nd ref="250431203"/>
    <nd ref="527560562"/>
    <nd ref="250431205"/>
    <nd ref="250431206"/>
    <nd ref="250431207"/>
    <nd ref="250431209"/>
    <nd ref="250431210"/>
    <tag k="highway" v="tertiary"/>
    <tag k="name" v="Racecourse Crescent"/>
  </way>
  <way id="33626336" version="4" timestamp="2012-07-19T09:45:39Z" uid="722137" user="OSMF Redaction Account" changeset="12316692">
    <nd ref="384622298"/>
    <nd ref="384622300"/>
    <tag k="bridge" v="yes"/>
    <tag k="highway" v="tertiary"/>
    <tag k="name" v="Henry Street"/>
  </way>
  <way id="33626741" version="7" timestamp="2012-04-23T01:09:45Z" uid="328555" user="peb12345" changeset="11390607">
    <nd ref="384640808"/>
    <nd ref="384640810"/>
    <nd ref="279648069"/>
    <nd ref="1727256728"/>
    <nd ref="279648068"/>
    <tag k="highway" v="residential"/>
    <tag k="name" v="Draisstraße"/>
  </way>
  <way id="33626746" version="5" timestamp="2012-04-17T14:12:37Z" uid="136321" user="Teddy73" changeset="11332755">
    <nd ref="384640822"/>
    <nd ref="384640823"/>
    <nd ref="1720590303"/>
    <nd ref="1720590305"/>
    <nd ref="384640821"/>
    <nd ref="409542187"/>
    <tag k="highway" v="residential"/>
    <tag k="name" v="Marienburger Straße"/>
  </way>
  <way id="33626746" version="6" timestamp="2012-08-19T01:57:13Z" uid="680576" user="mushroommapper" changeset="12778759">
    <nd ref="384640822"/>
    <nd ref="384640823"/>
    <nd ref="1720590303"/>
    <nd ref="1720590305"/>
    <nd ref="384640821"/>
    <nd ref="409542187"/>
    <tag k="highway" v="residential"/>
    <tag k="lit" v="yes"/>
    <tag k="name" v="Marienburger Straße"/>
  </way>
  <way id="33626747" version="4" timestamp="2012-04-17T14:12:38Z" uid="136321" user="Teddy73" changeset="11332755">
    <nd ref="312256964"/>
    <nd ref="384640824"/>
    <nd ref="1720590307"/>
    <nd ref="384640966"/>
    <tag k="highway" v="residential"/>
    <tag k="name" v="Rotäckerweg"/>
  </way>
  <way id="33626747" version="5" timestamp="2012-08-19T01:57:13Z" uid="680576" user="mushroommapper" changeset="12778759">
    <nd ref="312256964"/>
    <nd ref="384640824"/>
    <nd ref="1720590307"/>
    <nd ref="384640966"/>
    <tag k="highway" v="residential"/>
    <tag k="lit" v="yes"/>
    <tag k="name" v="Rotäckerweg"/>
  </way>
  <way id="33626751" version="4" timestamp="2012-07-17T02:14:38Z" uid="722137" user="OSMF Redaction Account" changeset="12255249">
    <nd ref="410467118"/>
    <nd ref="384640854"/>
    <nd ref="410467119"/>
    <tag k="highway" v="residential"/>
    <tag k="name" v="Königshütter Straße"/>
  </way>
  <way id="33626751" version="5" timestamp="2012-08-19T01:25:40Z" uid="680576" user="mushroommapper" changeset="12778759">
    <nd ref="410467118"/>
    <nd ref="384640854"/>
    <nd ref="410467119"/>
    <tag k="highway" v="residential"/>
    <tag k="lit" v="yes"/>
    <tag k="name" v="Königshütter Straße"/>
  </way>
  <way id="33626770" version="7" timestamp="2012-05-13T23:22:39Z" uid="680576" user="mushroommapper" changeset="11590457">
    <nd ref="384640826"/>
    <nd ref="896189705"/>
    <nd ref="410193399"/>
    <nd ref="384640827"/>
    <nd ref="384640829"/>
    <nd ref="384640963"/>
    <nd ref="1041520437"/>
    <nd ref="1751812324"/>
    <nd ref="410496400"/>
    <tag k="highway" v="residential"/>
    <tag k="name" v="Giselherstraße"/>
  </way>
  <way id="33626770" version="8" timestamp="2012-07-17T02:14:42Z" uid="722137" user="OSMF Redaction Account" changeset="12255249">
    <nd ref="384640826"/>
    <nd ref="410193399"/>
    <nd ref="384640827"/>
    <nd ref="384640829"/>
    <nd ref="384640963"/>
    <nd ref="1041520437"/>
    <nd ref="1751812324"/>
    <nd ref="410496400"/>
    <tag k="highway" v="residential"/>
    <tag k="name" v="Giselherstraße"/>
  </way>
  <way id="33626770" version="9" timestamp="2012-08-19T01:25:41Z" uid="680576" user="mushroommapper" changeset="12778759">
    <nd ref="384640826"/>
    <nd ref="410193399"/>
    <nd ref="384640827"/>
    <nd ref="384640829"/>
    <nd ref="384640963"/>
    <nd ref="1041520437"/>
    <nd ref="1751812324"/>
    <nd ref="410496400"/>
    <tag k="highway" v="residential"/>
    <tag k="lit" v="yes"/>
    <tag k="name" v="Giselherstraße"/>
  </way>
  <way id="33626803" version="6" timestamp="2012-07-19T09:44:23Z" uid="722137" user="OSMF Redaction Account" changeset="12316692">
    <nd ref="384644712"/>
    <nd ref="384644719"/>
    <nd ref="384644723"/>
    <nd ref="384644726"/>
    <nd ref="434439364"/>
    <nd ref="434439366"/>
    <nd ref="384644732"/>
    <nd ref="384642101"/>
    <nd ref="434439361"/>
    <nd ref="362482281"/>
    <tag k="highway" v="residential"/>
    <tag k="name" v="Prossers Forest Road"/>
  </way>
</osm>
