<?xml version='1.0' encoding='UTF-8'?>
<osm version="0.6" generator="libosmium/2.20.0">
  <way id="33692001" version="1" timestamp="2009-04-26T12:49:33Z" uid="64977" user="CLoeser" changeset="973400">
    <nd ref="385211038"/>
    <nd ref="385211047"/>
    <nd ref="385211051"/>
    <nd ref="385211055"/>
    <nd ref="385211057"/>
    <nd ref="385210724"/>
  </way>
  <way id="33692001" version="2" timestamp="2009-04-26T12:50:11Z" uid="64977" user="CLoeser" changeset="973400">
    <nd ref="385212047"/>
    <nd ref="385211038"/>
    <nd ref="385211047"/>
    <nd ref="385211051"/>
    <nd ref="385211055"/>
    <nd ref="385211057"/>
    <nd ref="385210724"/>
  </way>
  <way id="33692001" version="3" timestamp="2009-04-26T12:50:17Z" uid="64977" user="CLoeser" changeset="973400">
    <nd ref="385212047"/>
    <nd ref="385211038"/>
  </way>
  <way id="33692001" version="4" timestamp="2009-04-26T12:50:37Z" uid="64977" user="CLoeser" changeset="973400">
    <nd ref="385210724"/>
    <nd ref="385211057"/>
    <nd ref="385211055"/>
    <nd ref="385211051"/>
    <nd ref="385211047"/>
    <nd ref="385212047"/>
    <tag k="highway" v="track"/>
  </way>
  <way id="33692021" version="1" timestamp="2009-04-26T12:50:17Z" uid="64977" user="CLoeser" changeset="973400">
    <nd ref="385211038"/>
    <nd ref="385211047"/>
    <nd ref="385211051"/>
    <nd ref="385211055"/>
    <nd ref="385211057"/>
    <nd ref="385210724"/>
  </way>
  <way id="33692021" version="2" timestamp="2009-04-26T12:50:24Z" uid="64977" user="CLoeser" changeset="973400">
    <nd ref="385211047"/>
    <nd ref="385211051"/>
    <nd ref="385211055"/>
    <nd ref="385211057"/>
    <nd ref="385210724"/>
  </way>
  <way id="33692021" version="3" timestamp="2009-04-26T12:50:37Z" uid="64977" user="CLoeser" changeset="973400"/>
  <way id="33692192" version="1" timestamp="2009-04-26T12:51:15Z" uid="64977" user="CLoeser" changeset="973400">
    <nd ref="385214205"/>
    <nd ref="385214206"/>
    <nd ref="385214207"/>
    <nd ref="385214209"/>
    <nd ref="385214212"/>
    <nd ref="385214215"/>
    <nd ref="385214205"/>
    <tag k="description" v="wassergefüllte Senke"/>
    <tag k="natural" v="water"/>
  </way>
  <way id="33692192" version="2" timestamp="2009-04-26T12:51:22Z" uid="64977" user="CLoeser" changeset="973400">
    <nd ref="385214205"/>
    <nd ref="385214206"/>
    <nd ref="385214207"/>
    <nd ref="385214209"/>
    <nd ref="385214212"/>
    <nd ref="385214215"/>
    <nd ref="385214205"/>
    <tag k="description" v="wassergefüllte Senke"/>
    <tag k="natural" v="water"/>
    <tag k="source" v="survey"/>
  </way>
  <way id="33692201" version="1" timestamp="2009-04-26T12:51:33Z" uid="64977" user="CLoeser" changeset="973400">
    <nd ref="385214688"/>
    <nd ref="385214689"/>
    <nd ref="385214690"/>
    <nd ref="385214692"/>
    <nd ref="385214694"/>
    <nd ref="385214696"/>
    <nd ref="385214688"/>
  </way>
  <way id="33692201" version="2" timestamp="2009-04-26T12:51:37Z" uid="64977" user="CLoeser" changeset="973400">
    <nd ref="385214688"/>
    <nd ref="385214689"/>
    <nd ref="385214690"/>
    <nd ref="385214692"/>
    <nd ref="385214694"/>
    <nd ref="385214696"/>
    <nd ref="385214688"/>
    <tag k="description" v="wassergefüllte Senke"/>
    <tag k="natural" v="water"/>
    <tag k="source" v="survey"/>
  </way>
  <way id="33692262" version="1" timestamp="2009-04-26T12:51:48Z" uid="64977" user="CLoeser" changeset="973400">
    <nd ref="385214823"/>
    <nd ref="385214825"/>
    <nd ref="385214827"/>
    <nd ref="385214830"/>
    <nd ref="385214832"/>
    <nd ref="385214833"/>
    <nd ref="385214823"/>
    <tag k="description" v="wassergefüllte Senke"/>
    <tag k="natural" v="water"/>
    <tag k="source" v="survey"/>
  </way>
  <way id="33692734" version="1" timestamp="2009-04-26T12:56:04Z" uid="64977" user="CLoeser" changeset="973400">
    <nd ref="385216668"/>
    <nd ref="385216670"/>
    <nd ref="385216674"/>
    <nd ref="385216678"/>
    <nd ref="385216681"/>
    <nd ref="385216684"/>
    <nd ref="385216688"/>
    <nd ref="385216693"/>
    <nd ref="310532110"/>
    <tag k="bicycle" v="yes"/>
    <tag k="foot" v="yes"/>
    <tag k="highway" v="track"/>
    <tag k="surface" v="paved"/>
    <tag k="tracktype" v="grade1"/>
  </way>
  <way id="33692734" version="2" timestamp="2009-04-26T12:56:39Z" uid="64977" user="CLoeser" changeset="973400">
    <nd ref="385216668"/>
    <nd ref="385216670"/>
    <nd ref="385216674"/>
    <nd ref="385216678"/>
    <nd ref="385216681"/>
    <nd ref="385216684"/>
    <nd ref="385216688"/>
    <nd ref="385216693"/>
    <nd ref="310532110"/>
    <tag k="bicycle" v="yes"/>
    <tag k="foot" v="yes"/>
    <tag k="highway" v="track"/>
    <tag k="source" v="gps: gpx 366330"/>
    <tag k="surface" v="paved"/>
    <tag k="tracktype" v="grade1"/>
  </way>
  <way id="33692734" version="3" timestamp="2009-06-18T20:10:20Z" uid="58950" user="mfi" changeset="1558305">
    <nd ref="424338711"/>
    <nd ref="385216668"/>
    <nd ref="385216670"/>
    <nd ref="385216674"/>
    <nd ref="385216678"/>
    <nd ref="385216681"/>
    <nd ref="385216684"/>
    <nd ref="385216688"/>
    <nd ref="385216693"/>
    <nd ref="310532110"/>
    <tag k="bicycle" v="yes"/>
    <tag k="foot" v="yes"/>
    <tag k="highway" v="track"/>
    <tag k="source" v="gps: gpx 366330"/>
    <tag k="surface" v="paved"/>
    <tag k="tracktype" v="grade1"/>
  </way>
  <way id="33692734" version="4" timestamp="2009-10-15T16:32:01Z" uid="64977" user="CLoeser" changeset="2856541">
    <nd ref="424338711"/>
    <nd ref="385216668"/>
    <nd ref="385216670"/>
    <nd ref="385216674"/>
    <nd ref="532004998"/>
    <nd ref="385216678"/>
    <nd ref="385216681"/>
    <nd ref="532005053"/>
    <nd ref="385216684"/>
    <nd ref="385216688"/>
    <nd ref="385216693"/>
    <nd ref="310532110"/>
    <tag k="bicycle" v="yes"/>
    <tag k="foot" v="yes"/>
    <tag k="highway" v="track"/>
    <tag k="source" v="gps: gpx 366330"/>
    <tag k="surface" v="paved"/>
    <tag k="tracktype" v="grade1"/>
  </way>
  <way id="33692737" version="1" timestamp="2009-04-26T12:56:07Z" uid="64977" user="CLoeser" changeset="973400">
    <nd ref="385216688"/>
    <nd ref="366086053"/>
  </way>
  <way id="33692737" version="2" timestamp="2009-04-26T12:56:12Z" uid="64977" user="CLoeser" changeset="973400">
    <nd ref="385216688"/>
    <nd ref="366086053"/>
    <tag k="bicycle" v="yes"/>
    <tag k="foot" v="yes"/>
    <tag k="highway" v="track"/>
    <tag k="surface" v="paved"/>
    <tag k="tracktype" v="grade1"/>
  </way>
  <way id="33692895" version="5" timestamp="2010-04-22T16:26:13Z" uid="6269" user="Mueck" changeset="4496332">
    <nd ref="14769609"/>
    <nd ref="14954773"/>
    <nd ref="26027395"/>
    <nd ref="15848809"/>
    <nd ref="465226659"/>
    <nd ref="15848810"/>
    <nd ref="15520058"/>
    <nd ref="15520030"/>
    <tag k="highway" v="primary"/>
    <tag k="motorroad" v="no"/>
    <tag k="name" v="Kriegsstraße"/>
    <tag k="oneway" v="yes"/>
    <tag k="ref" v="B 10"/>
  </way>
  <way id="33692895" version="6" timestamp="2010-07-14T06:00:23Z" uid="11776" user="Marcus Wolschon" changeset="5214079">
    <nd ref="14769609"/>
    <nd ref="816366724"/>
    <nd ref="14954773"/>
    <nd ref="26027395"/>
    <nd ref="15848809"/>
    <nd ref="465226659"/>
    <nd ref="15848810"/>
    <nd ref="15520058"/>
    <nd ref="15520030"/>
    <tag k="created_by" v="Vespucci 0.6.6-beta2"/>
    <tag k="highway" v="primary"/>
    <tag k="motorroad" v="no"/>
    <tag k="name" v="Kriegsstraße"/>
    <tag k="oneway" v="yes"/>
    <tag k="ref" v="B 10"/>
  </way>
  <way id="33692895" version="7" timestamp="2010-10-15T22:39:19Z" uid="149205" user="Anubis" changeset="6053065">
    <nd ref="14769609"/>
    <nd ref="816366724"/>
    <nd ref="14954773"/>
    <nd ref="26027395"/>
    <nd ref="15848809"/>
    <nd ref="465226659"/>
    <nd ref="15848810"/>
    <nd ref="950892868"/>
    <nd ref="15520058"/>
    <nd ref="15520030"/>
    <tag k="highway" v="primary"/>
    <tag k="motorroad" v="no"/>
    <tag k="name" v="Kriegsstraße"/>
    <tag k="oneway" v="yes"/>
    <tag k="ref" v="B 10"/>
  </way>
  <way id="33692895" version="8" timestamp="2011-02-26T01:58:21Z" uid="6269" user="Mueck" changeset="7395904">
    <nd ref="14769609"/>
    <nd ref="816366724"/>
    <nd ref="14954773"/>
    <nd ref="26027395"/>
    <nd ref="15848809"/>
    <nd ref="465226659"/>
    <nd ref="15848810"/>
    <nd ref="15520058"/>
    <nd ref="15520030"/>
    <tag k="highway" v="primary"/>
    <tag k="motorroad" v="no"/>
    <tag k="name" v="Kriegsstraße"/>
    <tag k="oneway" v="yes"/>
    <tag k="ref" v="B 10"/>
  </way>
  <way id="33692895" version="9" timestamp="2011-03-20T02:16:39Z" uid="6269" user="Mueck" changeset="7612251">
    <nd ref="14769609"/>
    <nd ref="1210005935"/>
    <nd ref="816366724"/>
    <nd ref="14954773"/>
    <nd ref="1210005913"/>
    <nd ref="1210006002"/>
    <nd ref="1210005893"/>
    <nd ref="26027395"/>
    <nd ref="15848809"/>
    <nd ref="465226659"/>
    <nd ref="15848810"/>
    <nd ref="1210006054"/>
    <nd ref="1210005976"/>
    <nd ref="15520058"/>
    <nd ref="15520030"/>
    <tag k="highway" v="primary"/>
    <tag k="motorroad" v="no"/>
    <tag k="name" v="Kriegsstraße"/>
    <tag k="oneway" v="yes"/>
    <tag k="ref" v="B 10"/>
  </way>
  <way id="33692895" version="10" timestamp="2011-03-30T22:14:09Z" uid="6269" user="Mueck" changeset="7720894">
    <nd ref="14769609"/>
    <nd ref="1210005935"/>
    <nd ref="816366724"/>
    <nd ref="14954773"/>
    <nd ref="1210005913"/>
    <nd ref="1210006002"/>
    <nd ref="1210005893"/>
    <nd ref="26027395"/>
    <nd ref="15848809"/>
    <nd ref="465226659"/>
    <nd ref="15848810"/>
    <nd ref="1210006054"/>
    <nd ref="1210005976"/>
    <nd ref="15520058"/>
    <nd ref="1226055831"/>
    <nd ref="1226055822"/>
    <nd ref="15520030"/>
    <tag k="highway" v="primary"/>
    <tag k="motorroad" v="no"/>
    <tag k="name" v="Kriegsstraße"/>
    <tag k="oneway" v="yes"/>
    <tag k="ref" v="B 10"/>
  </way>
  <way id="33692895" version="11" timestamp="2011-04-13T20:04:58Z" uid="47784" user="siski" changeset="7855391">
    <nd ref="14769609"/>
    <nd ref="1210005935"/>
    <nd ref="816366724"/>
    <nd ref="14954773"/>
    <nd ref="1210005913"/>
    <nd ref="1210006002"/>
    <nd ref="1210005893"/>
    <nd ref="26027395"/>
    <nd ref="15848809"/>
    <nd ref="465226659"/>
    <nd ref="15848810"/>
    <nd ref="1210006054"/>
    <nd ref="1210005976"/>
    <nd ref="15520058"/>
    <nd ref="1226055831"/>
    <nd ref="1226055822"/>
    <nd ref="15520030"/>
    <tag k="highway" v="primary"/>
    <tag k="maxspeed" v="50"/>
    <tag k="motorroad" v="no"/>
    <tag k="name" v="Kriegsstraße"/>
    <tag k="oneway" v="yes"/>
    <tag k="ref" v="B 10"/>
  </way>
  <way id="33692895" version="12" timestamp="2011-09-14T14:24:08Z" uid="165061" user="keinname" changeset="9299099">
    <nd ref="14769609"/>
    <nd ref="1210005935"/>
    <nd ref="816366724"/>
    <nd ref="1432687161"/>
    <nd ref="14954773"/>
    <nd ref="1432687069"/>
    <nd ref="1210005913"/>
    <nd ref="1210006002"/>
    <nd ref="1210005893"/>
    <nd ref="26027395"/>
    <nd ref="15848809"/>
    <nd ref="465226659"/>
    <nd ref="15848810"/>
    <nd ref="1210006054"/>
    <nd ref="1432687411"/>
    <nd ref="1210005976"/>
    <nd ref="15520058"/>
    <nd ref="1226055831"/>
    <nd ref="1226055822"/>
    <nd ref="15520030"/>
    <tag k="highway" v="primary"/>
    <tag k="maxspeed" v="50"/>
    <tag k="motorroad" v="no"/>
    <tag k="name" v="Kriegsstraße"/>
    <tag k="oneway" v="yes"/>
    <tag k="ref" v="B 10"/>
  </way>
  <way id="33692895" version="13" timestamp="2011-10-10T16:48:52Z" uid="4499" user="Jochen Topf" changeset="9523441">
    <nd ref="14769609"/>
    <nd ref="1210005935"/>
    <nd ref="816366724"/>
    <nd ref="1432687161"/>
    <nd ref="14954773"/>
    <nd ref="1432687069"/>
    <nd ref="1210005913"/>
    <nd ref="1210006002"/>
    <nd ref="1210005893"/>
    <tag k="highway" v="primary"/>
    <tag k="maxspeed" v="50"/>
    <tag k="motorroad" v="no"/>
    <tag k="name" v="Kriegsstraße"/>
    <tag k="oneway" v="yes"/>
    <tag k="ref" v="B 10"/>
    <tag k="tmc" v="DE:30889-30888"/>
  </way>
  <way id="33692895" version="14" timestamp="2011-10-13T15:33:27Z" uid="4499" user="Jochen Topf" changeset="9548199">
    <nd ref="14769609"/>
    <nd ref="1210005935"/>
    <tag k="highway" v="primary"/>
    <tag k="maxspeed" v="50"/>
    <tag k="motorroad" v="no"/>
    <tag k="name" v="Kriegsstraße"/>
    <tag k="oneway" v="yes"/>
    <tag k="ref" v="B 10"/>
    <tag k="tmc" v="DE:30889+30890"/>
  </way>
  <way id="33692895" version="15" timestamp="2012-01-14T01:05:05Z" uid="5164" user="woodpeck" changeset="10384383"/>
  <way id="33692902" version="5" timestamp="2010-04-22T16:26:03Z" uid="6269" user="Mueck" changeset="4496332">
    <nd ref="26027399"/>
    <nd ref="26027137"/>
    <tag k="highway" v="primary"/>
    <tag k="motorroad" v="no"/>
    <tag k="name" v="Kriegsstraße"/>
    <tag k="oneway" v="yes"/>
    <tag k="ref" v="B 10"/>
  </way>
  <way id="33692902" version="6" timestamp="2010-07-13T16:59:01Z" uid="11776" user="Marcus Wolschon" changeset="5209841">
    <nd ref="26027399"/>
    <nd ref="26027137"/>
    <tag k="created_by" v="Vespucci 0.6.6-beta2"/>
    <tag k="highway" v="primary"/>
    <tag k="minspeed" v="30"/>
    <tag k="motorroad" v="no"/>
    <tag k="name" v="Kriegsstraße"/>
    <tag k="oneway" v="yes"/>
    <tag k="ref" v="B 10"/>
  </way>
  <way id="33692902" version="7" timestamp="2010-10-15T22:38:39Z" uid="149205" user="Anubis" changeset="6053065">
    <nd ref="26027399"/>
    <nd ref="26027137"/>
    <tag k="highway" v="primary"/>
    <tag k="minspeed" v="30"/>
    <tag k="motorroad" v="no"/>
    <tag k="name" v="Kriegsstraße"/>
    <tag k="oneway" v="yes"/>
    <tag k="ref" v="B 10"/>
  </way>
  <way id="33692902" version="8" timestamp="2010-10-27T20:48:33Z" uid="263596" user="Oberförster" changeset="6201739">
    <nd ref="26027399"/>
    <nd ref="26027137"/>
    <tag k="highway" v="primary"/>
    <tag k="minspeed" v="30"/>
    <tag k="motorroad" v="yes"/>
    <tag k="name" v="Kriegsstraße"/>
    <tag k="oneway" v="yes"/>
    <tag k="ref" v="B 10"/>
  </way>
  <way id="33692902" version="9" timestamp="2010-11-04T18:36:38Z" uid="6269" user="Mueck" changeset="6290631">
    <nd ref="26027399"/>
    <nd ref="26027137"/>
    <tag k="highway" v="primary"/>
    <tag k="minspeed" v="30"/>
    <tag k="motorroad" v="no"/>
    <tag k="name" v="Kriegsstraße"/>
    <tag k="oneway" v="yes"/>
    <tag k="ref" v="B 10"/>
  </way>
  <way id="33692902" version="10" timestamp="2011-04-04T16:20:22Z" uid="6269" user="Mueck" changeset="7766537">
    <nd ref="26027399"/>
    <nd ref="1232515827"/>
    <nd ref="1232515824"/>
    <nd ref="1232515843"/>
    <nd ref="26027137"/>
    <tag k="highway" v="primary"/>
    <tag k="minspeed" v="30"/>
    <tag k="motorroad" v="no"/>
    <tag k="name" v="Kriegsstraße"/>
    <tag k="oneway" v="yes"/>
    <tag k="ref" v="B 10"/>
  </way>
  <way id="33692902" version="11" timestamp="2011-10-10T16:48:50Z" uid="4499" user="Jochen Topf" changeset="9523441">
    <nd ref="26027399"/>
    <nd ref="1232515827"/>
    <nd ref="1232515824"/>
    <nd ref="1232515843"/>
    <nd ref="26027137"/>
    <tag k="highway" v="primary"/>
    <tag k="minspeed" v="30"/>
    <tag k="motorroad" v="no"/>
    <tag k="name" v="Kriegsstraße"/>
    <tag k="oneway" v="yes"/>
    <tag k="ref" v="B 10"/>
    <tag k="tmc" v="DE:30889+30890"/>
  </way>
  <way id="33692902" version="12" timestamp="2011-10-13T15:33:30Z" uid="4499" user="Jochen Topf" changeset="9548199">
    <nd ref="26027399"/>
    <nd ref="1232515827"/>
    <nd ref="1232515824"/>
    <nd ref="1232515843"/>
    <nd ref="26027137"/>
    <tag k="highway" v="primary"/>
    <tag k="minspeed" v="30"/>
    <tag k="motorroad" v="no"/>
    <tag k="name" v="Kriegsstraße"/>
    <tag k="oneway" v="yes"/>
    <tag k="ref" v="B 10"/>
    <tag k="tmc" v="DE:30889-30888"/>
  </way>
  <way id="33692902" version="13" timestamp="2012-01-14T01:05:05Z" uid="5164" user="woodpeck" changeset="10384383"/>
  <way id="33692994" version="4" timestamp="2010-04-22T16:21:12Z" uid="6269" user="Mueck" changeset="4496332">
    <nd ref="21492597"/>
    <nd ref="26009952"/>
    <nd ref="26009946"/>
    <nd ref="26009945"/>
    <nd ref="26026262"/>
    <nd ref="30123960"/>
    <nd ref="26026268"/>
    <nd ref="26009943"/>
    <nd ref="26009941"/>
    <tag k="highway" v="primary"/>
    <tag k="motorroad" v="no"/>
    <tag k="name" v="Kriegsstraße"/>
    <tag k="oneway" v="yes"/>
    <tag k="ref" v="B 10"/>
  </way>
  <way id="33692994" version="5" timestamp="2010-08-21T09:08:47Z" uid="335216" user="ssjw" changeset="5550061">
    <nd ref="21492597"/>
    <nd ref="26009952"/>
    <nd ref="26009946"/>
    <nd ref="871718388"/>
    <nd ref="26009945"/>
    <nd ref="26026262"/>
    <nd ref="30123960"/>
    <nd ref="26026268"/>
    <nd ref="26009943"/>
    <nd ref="26009941"/>
    <tag k="highway" v="primary"/>
    <tag k="motorroad" v="no"/>
    <tag k="name" v="Kriegsstraße"/>
    <tag k="oneway" v="yes"/>
    <tag k="ref" v="B 10"/>
  </way>
  <way id="33692994" version="6" timestamp="2011-01-29T00:17:26Z" uid="6269" user="Mueck" changeset="7118148">
    <nd ref="21492597"/>
    <nd ref="26009952"/>
    <nd ref="26009946"/>
    <nd ref="871718388"/>
    <nd ref="26009945"/>
    <nd ref="26026262"/>
    <nd ref="30123960"/>
    <nd ref="1125621786"/>
    <nd ref="1125621716"/>
    <nd ref="26026268"/>
    <nd ref="26009943"/>
    <nd ref="26009941"/>
    <tag k="highway" v="primary"/>
    <tag k="motorroad" v="no"/>
    <tag k="name" v="Kriegsstraße"/>
    <tag k="oneway" v="yes"/>
    <tag k="ref" v="B 10"/>
  </way>
  <way id="33692994" version="7" timestamp="2011-01-29T02:00:27Z" uid="6269" user="Mueck" changeset="7118869">
    <nd ref="21492597"/>
    <nd ref="26009952"/>
    <nd ref="26009946"/>
    <nd ref="871718388"/>
    <nd ref="26009945"/>
    <nd ref="26026262"/>
    <nd ref="30123960"/>
    <nd ref="1125621786"/>
    <nd ref="1125698434"/>
    <nd ref="1125621716"/>
    <nd ref="1125698426"/>
    <nd ref="26026268"/>
    <nd ref="26009943"/>
    <nd ref="26009941"/>
    <tag k="highway" v="primary"/>
    <tag k="motorroad" v="no"/>
    <tag k="name" v="Kriegsstraße"/>
    <tag k="oneway" v="yes"/>
    <tag k="ref" v="B 10"/>
  </way>
  <way id="33692994" version="8" timestamp="2011-01-29T02:14:46Z" uid="6269" user="Mueck" changeset="7118886">
    <nd ref="21492597"/>
    <nd ref="26009952"/>
    <nd ref="1125708553"/>
    <nd ref="26009946"/>
    <nd ref="871718388"/>
    <nd ref="26009945"/>
    <nd ref="26026262"/>
    <nd ref="30123960"/>
    <nd ref="1125621786"/>
    <nd ref="1125698434"/>
    <nd ref="1125621716"/>
    <nd ref="1125698426"/>
    <nd ref="26026268"/>
    <nd ref="26009943"/>
    <nd ref="26009941"/>
    <tag k="highway" v="primary"/>
    <tag k="motorroad" v="no"/>
    <tag k="name" v="Kriegsstraße"/>
    <tag k="oneway" v="yes"/>
    <tag k="ref" v="B 10"/>
  </way>
  <way id="33692994" version="9" timestamp="2011-02-03T01:28:22Z" uid="6269" user="Mueck" changeset="7170427">
    <nd ref="21492597"/>
    <nd ref="26009952"/>
    <nd ref="1125708553"/>
    <nd ref="26009946"/>
    <nd ref="871718388"/>
    <nd ref="1133166029"/>
    <nd ref="26009945"/>
    <nd ref="26026262"/>
    <nd ref="30123960"/>
    <nd ref="1125621786"/>
    <nd ref="1125698434"/>
    <nd ref="1125621716"/>
    <nd ref="1125698426"/>
    <nd ref="26026268"/>
    <nd ref="26009943"/>
    <nd ref="26009941"/>
    <tag k="highway" v="primary"/>
    <tag k="motorroad" v="no"/>
    <tag k="name" v="Kriegsstraße"/>
    <tag k="oneway" v="yes"/>
    <tag k="ref" v="B 10"/>
  </way>
  <way id="33692994" version="10" timestamp="2011-02-05T13:30:07Z" uid="165061" user="keinname" changeset="7192384">
    <nd ref="21492597"/>
    <nd ref="26009952"/>
    <nd ref="1125708553"/>
    <nd ref="1137482945"/>
    <nd ref="26009946"/>
    <nd ref="871718388"/>
    <nd ref="1133166029"/>
    <nd ref="26009945"/>
    <nd ref="26026262"/>
    <nd ref="30123960"/>
    <nd ref="1125621786"/>
    <nd ref="1125698434"/>
    <nd ref="1125621716"/>
    <nd ref="1125698426"/>
    <nd ref="26026268"/>
    <nd ref="26009943"/>
    <nd ref="26009941"/>
    <tag k="highway" v="primary"/>
    <tag k="motorroad" v="no"/>
    <tag k="name" v="Kriegsstraße"/>
    <tag k="oneway" v="yes"/>
    <tag k="ref" v="B 10"/>
  </way>
  <way id="33692994" version="11" timestamp="2011-04-01T22:57:01Z" uid="6269" user="Mueck" changeset="7740223">
    <nd ref="21492597"/>
    <nd ref="1228567528"/>
    <nd ref="26009952"/>
    <nd ref="1125708553"/>
    <nd ref="1137482945"/>
    <nd ref="26009946"/>
    <nd ref="871718388"/>
    <nd ref="1133166029"/>
    <nd ref="26009945"/>
    <nd ref="26026262"/>
    <nd ref="30123960"/>
    <nd ref="1125621786"/>
    <nd ref="1125698434"/>
    <nd ref="1125621716"/>
    <nd ref="1125698426"/>
    <nd ref="26026268"/>
    <nd ref="26009943"/>
    <nd ref="26009941"/>
    <tag k="highway" v="primary"/>
    <tag k="motorroad" v="no"/>
    <tag k="name" v="Kriegsstraße"/>
    <tag k="oneway" v="yes"/>
    <tag k="ref" v="B 10"/>
  </way>
  <way id="33692994" version="12" timestamp="2011-10-10T16:48:51Z" uid="4499" user="Jochen Topf" changeset="9523441">
    <nd ref="21492597"/>
    <nd ref="1228567528"/>
    <nd ref="26009952"/>
    <nd ref="1125708553"/>
    <nd ref="1137482945"/>
    <tag k="highway" v="primary"/>
    <tag k="motorroad" v="no"/>
    <tag k="name" v="Kriegsstraße"/>
    <tag k="oneway" v="yes"/>
    <tag k="ref" v="B 10"/>
    <tag k="tmc" v="DE:30890+30891"/>
  </way>
  <way id="33692994" version="13" timestamp="2011-10-13T15:33:29Z" uid="4499" user="Jochen Topf" changeset="9548199">
    <nd ref="21492597"/>
    <nd ref="1228567528"/>
    <nd ref="26009952"/>
    <nd ref="1125708553"/>
    <nd ref="1137482945"/>
    <tag k="highway" v="primary"/>
    <tag k="motorroad" v="no"/>
    <tag k="name" v="Kriegsstraße"/>
    <tag k="oneway" v="yes"/>
    <tag k="ref" v="B 10"/>
    <tag k="tmc" v="DE:30891-30890"/>
  </way>
  <way id="33692994" version="14" timestamp="2012-01-16T18:14:59Z" uid="165061" user="keinname" changeset="10410364">
    <nd ref="21492597"/>
    <nd ref="1228567528"/>
    <nd ref="26009952"/>
    <nd ref="1125708553"/>
    <nd ref="1137482945"/>
    <tag k="highway" v="primary"/>
    <tag k="lanes" v="2"/>
    <tag k="motorroad" v="no"/>
    <tag k="name" v="Kriegsstraße"/>
    <tag k="oneway" v="yes"/>
    <tag k="ref" v="B 10"/>
    <tag k="tmc" v="DE:30891-30890"/>
  </way>
  <way id="33692994" version="15" timestamp="2012-01-30T13:48:45Z" uid="165061" user="keinname" changeset="10539782">
    <nd ref="21492597"/>
    <nd ref="1228567528"/>
    <nd ref="26009952"/>
    <nd ref="1125708553"/>
    <nd ref="1137482945"/>
    <tag k="highway" v="primary"/>
    <tag k="lanes" v="2"/>
    <tag k="maxspeed" v="50"/>
    <tag k="motorroad" v="no"/>
    <tag k="name" v="Kriegsstraße"/>
    <tag k="oneway" v="yes"/>
    <tag k="ref" v="B 10"/>
    <tag k="tmc" v="DE:30891-30890"/>
  </way>
  <way id="33692994" version="16" timestamp="2012-02-09T12:39:19Z" uid="60137" user="michael2402" changeset="10633465">
    <nd ref="21492597"/>
    <nd ref="1228567528"/>
    <nd ref="1625201195"/>
    <nd ref="26009952"/>
    <nd ref="1125708553"/>
    <nd ref="1137482945"/>
    <tag k="highway" v="primary"/>
    <tag k="lanes" v="2"/>
    <tag k="maxspeed" v="50"/>
    <tag k="motorroad" v="no"/>
    <tag k="name" v="Kriegsstraße"/>
    <tag k="oneway" v="yes"/>
    <tag k="ref" v="B 10"/>
    <tag k="tmc" v="DE:30891-30890"/>
  </way>
  <way id="33692001" version="5" timestamp="2012-07-18T13:49:28Z" uid="722137" user="OSMF Redaction Account" changeset="12283882"/>
  <way id="33692192" version="3" timestamp="2012-07-18T13:49:28Z" uid="722137" user="OSMF Redaction Account" changeset="12283882"/>
  <way id="33692201" version="3" timestamp="2012-07-18T13:49:28Z" uid="722137" user="OSMF Redaction Account" changeset="12283882"/>
  <way id="33692262" version="2" timestamp="2012-07-18T13:49:28Z" uid="722137" user="OSMF Redaction Account" changeset="12283882"/>
  <way id="33692734" version="5" timestamp="2012-07-18T13:49:36Z" uid="722137" user="OSMF Redaction Account" changeset="12283882"/>
  <way id="33692737" version="3" timestamp="2012-07-18T13:49:34Z" uid="722137" user="OSMF Redaction Account" changeset="12283882"/>
  <way id="33692994" version="17" timestamp="2012-04-15T14:33:45Z" uid="165061" user="mapper999" changeset="11310848"/>
</osm>
