<?xml version='1.0' encoding='UTF-8'?>
<osm version="0.6" generator="libosmium/2.20.0">
  <way id="33690396" version="4" timestamp="2010-04-18T14:08:03Z" uid="7617" user="Franc" changeset="4458238">
    <nd ref="385184384"/>
    <nd ref="20958857"/>
    <nd ref="20958888"/>
    <nd ref="11978217"/>
    <nd ref="8965666"/>
    <nd ref="26376075"/>
    <nd ref="26376074"/>
    <nd ref="26376070"/>
    <nd ref="11978321"/>
    <nd ref="11978548"/>
    <tag k="highway" v="secondary"/>
    <tag k="image" v="80n:dsc04042.jpg"/>
    <tag k="name" v="Harris Street"/>
    <tag k="source" v="survey"/>
  </way>
  <way id="33690396" version="5" timestamp="2010-09-13T11:06:56Z" uid="79475" user="AlexOnTheBus" changeset="5768543">
    <nd ref="385184384"/>
    <nd ref="20958857"/>
    <nd ref="20958888"/>
    <nd ref="11978217"/>
    <nd ref="8965666"/>
    <nd ref="26376075"/>
    <nd ref="26376074"/>
    <nd ref="26376070"/>
    <nd ref="11978321"/>
    <nd ref="11978548"/>
    <tag k="highway" v="primary"/>
    <tag k="image" v="80n:dsc04042.jpg"/>
    <tag k="name" v="Harris Street"/>
    <tag k="source" v="survey"/>
  </way>
  <way id="33690396" version="6" timestamp="2010-09-13T11:07:09Z" uid="79475" user="AlexOnTheBus" changeset="5768543">
    <nd ref="385184384"/>
    <nd ref="20958857"/>
    <nd ref="20958888"/>
    <nd ref="11978217"/>
    <tag k="highway" v="secondary"/>
    <tag k="image" v="80n:dsc04042.jpg"/>
    <tag k="name" v="Harris Street"/>
    <tag k="source" v="survey"/>
  </way>
  <way id="33690396" version="7" timestamp="2010-09-13T11:07:14Z" uid="79475" user="AlexOnTheBus" changeset="5768543">
    <nd ref="385184384"/>
    <nd ref="20958857"/>
    <nd ref="20958888"/>
    <nd ref="11978217"/>
    <tag k="highway" v="primary"/>
    <tag k="image" v="80n:dsc04042.jpg"/>
    <tag k="name" v="Harris Street"/>
    <tag k="source" v="survey"/>
  </way>
  <way id="33690396" version="8" timestamp="2010-09-13T11:07:38Z" uid="79475" user="AlexOnTheBus" changeset="5768543">
    <nd ref="385184384"/>
    <nd ref="20958857"/>
    <tag k="highway" v="primary"/>
    <tag k="image" v="80n:dsc04042.jpg"/>
    <tag k="name" v="Harris Street"/>
    <tag k="source" v="survey"/>
  </way>
  <way id="33690397" version="3" timestamp="2009-12-24T11:36:19Z" uid="30201" user="rrankin" changeset="3441442">
    <nd ref="12501606"/>
    <nd ref="598916850"/>
    <nd ref="12501607"/>
    <nd ref="385184384"/>
    <tag k="highway" v="secondary"/>
    <tag k="image" v="80n:dsc04042.jpg"/>
    <tag k="name" v="Harris Street"/>
    <tag k="source" v="survey"/>
  </way>
  <way id="33690397" version="4" timestamp="2010-08-20T02:58:52Z" uid="4467" user="Rosscoe" changeset="5540505">
    <nd ref="12501606"/>
    <nd ref="12501607"/>
    <nd ref="385184384"/>
    <tag k="highway" v="secondary"/>
    <tag k="image" v="80n:dsc04042.jpg"/>
    <tag k="name" v="Harris Street"/>
    <tag k="source" v="survey"/>
  </way>
  <way id="33690397" version="5" timestamp="2010-09-13T11:06:53Z" uid="79475" user="AlexOnTheBus" changeset="5768543">
    <nd ref="12501606"/>
    <nd ref="12501607"/>
    <nd ref="385184384"/>
    <tag k="highway" v="primary"/>
    <tag k="image" v="80n:dsc04042.jpg"/>
    <tag k="name" v="Harris Street"/>
    <tag k="source" v="survey"/>
  </way>
  <way id="33690397" version="6" timestamp="2011-10-25T00:06:58Z" uid="543158" user="Simon Wright" changeset="9648480">
    <nd ref="12501606"/>
    <nd ref="1479669219"/>
    <nd ref="12501607"/>
    <nd ref="385184384"/>
    <tag k="highway" v="primary"/>
    <tag k="image" v="80n:dsc04042.jpg"/>
    <tag k="name" v="Harris Street"/>
    <tag k="source" v="survey"/>
  </way>
  <way id="33690397" version="7" timestamp="2012-03-17T05:48:40Z" uid="473935" user="Scott Macpherson" changeset="11004641">
    <nd ref="12501606"/>
    <nd ref="12501607"/>
    <nd ref="385184384"/>
    <tag k="highway" v="primary"/>
    <tag k="image" v="80n:dsc04042.jpg"/>
    <tag k="name" v="Harris Street"/>
    <tag k="source" v="survey"/>
  </way>
  <way id="33690398" version="3" timestamp="2009-09-30T13:45:39Z" uid="36809" user="pfoten_weg_!_" changeset="2688655">
    <nd ref="385196470"/>
    <nd ref="385196494"/>
    <nd ref="385196504"/>
    <nd ref="385196525"/>
    <nd ref="385196532"/>
    <nd ref="385196545"/>
    <nd ref="385193676"/>
    <tag k="boat" v="no"/>
    <tag k="name" v="Lappach"/>
    <tag k="waterway" v="stream"/>
  </way>
  <way id="33690398" version="4" timestamp="2011-01-07T11:11:41Z" uid="7596" user="ck3d" changeset="6891473">
    <nd ref="385193676"/>
    <nd ref="385196545"/>
    <nd ref="385196532"/>
    <nd ref="385196525"/>
    <nd ref="385196504"/>
    <nd ref="385196494"/>
    <nd ref="385196470"/>
    <tag k="boat" v="no"/>
    <tag k="name" v="Lappach"/>
    <tag k="waterway" v="stream"/>
  </way>
  <way id="33690422" version="3" timestamp="2009-09-30T13:45:55Z" uid="36809" user="pfoten_weg_!_" changeset="2688655">
    <nd ref="370672286"/>
    <nd ref="385196470"/>
    <tag k="boat" v="no"/>
    <tag k="name" v="Lappach"/>
    <tag k="tunnel" v="yes"/>
    <tag k="waterway" v="stream"/>
  </way>
  <way id="33690422" version="4" timestamp="2011-01-07T11:12:05Z" uid="7596" user="ck3d" changeset="6891473">
    <nd ref="385196470"/>
    <nd ref="370672286"/>
    <tag k="boat" v="no"/>
    <tag k="name" v="Lappach"/>
    <tag k="tunnel" v="yes"/>
    <tag k="waterway" v="stream"/>
  </way>
  <way id="33690432" version="5" timestamp="2010-12-19T19:44:13Z" uid="9581" user="Lobelt" changeset="6709765">
    <nd ref="30558920"/>
    <nd ref="1049876830"/>
    <nd ref="36306176"/>
    <nd ref="30558960"/>
    <nd ref="262154386"/>
    <tag k="highway" v="unclassified"/>
    <tag k="lcn" v="yes"/>
    <tag k="maxspeed" v="30"/>
    <tag k="name" v="Sandtorfer Weg"/>
  </way>
  <way id="33690432" version="6" timestamp="2011-03-27T16:16:31Z" uid="9581" user="Lobelt" changeset="7687858">
    <nd ref="30558920"/>
    <nd ref="1049876830"/>
    <nd ref="36306176"/>
    <nd ref="30558960"/>
    <nd ref="1221701352"/>
    <nd ref="262154386"/>
    <tag k="highway" v="unclassified"/>
    <tag k="lcn" v="yes"/>
    <tag k="maxspeed" v="30"/>
    <tag k="name" v="Sandtorfer Weg"/>
  </way>
  <way id="33690432" version="7" timestamp="2012-02-26T13:14:09Z" uid="55687" user="dschuwa" changeset="10797963"/>
  <way id="33690481" version="5" timestamp="2010-04-06T15:32:41Z" uid="20587" user="balrog-kun" changeset="4342727">
    <nd ref="385199494"/>
    <nd ref="81512104"/>
    <nd ref="81507734"/>
    <nd ref="81517735"/>
    <tag k="embankment" v="yes"/>
    <tag k="highway" v="residential"/>
    <tag k="layer" v="1"/>
    <tag k="name" v="Crest Road"/>
    <tag k="tiger:cfcc" v="A41"/>
    <tag k="tiger:county" v="Yankton, SD"/>
    <tag k="tiger:name_base" v="Crest"/>
    <tag k="tiger:name_type" v="Rd"/>
    <tag k="tiger:reviewed" v="no"/>
    <tag k="tiger:separated" v="no"/>
    <tag k="tiger:source" v="tiger_import_dch_v0.6_20070829"/>
    <tag k="tiger:tlid" v="172839882:172843610"/>
  </way>
  <way id="33690481" version="6" timestamp="2011-07-19T23:48:04Z" uid="87823" user="jakraay" changeset="8773996">
    <nd ref="385199494"/>
    <nd ref="81512104"/>
    <nd ref="81517735"/>
    <tag k="embankment" v="yes"/>
    <tag k="highway" v="residential"/>
    <tag k="layer" v="1"/>
    <tag k="name" v="Crest Road"/>
    <tag k="tiger:cfcc" v="A41"/>
    <tag k="tiger:county" v="Yankton, SD"/>
    <tag k="tiger:name_base" v="Crest"/>
    <tag k="tiger:name_type" v="Rd"/>
    <tag k="tiger:reviewed" v="no"/>
    <tag k="tiger:separated" v="no"/>
    <tag k="tiger:source" v="tiger_import_dch_v0.6_20070829"/>
    <tag k="tiger:tlid" v="172839882:172843610"/>
  </way>
  <way id="33690481" version="7" timestamp="2011-07-20T15:19:41Z" uid="87823" user="jakraay" changeset="8779582">
    <nd ref="385199494"/>
    <nd ref="81512104"/>
    <nd ref="1367936162"/>
    <nd ref="81517735"/>
    <tag k="embankment" v="yes"/>
    <tag k="highway" v="residential"/>
    <tag k="layer" v="1"/>
    <tag k="name" v="Crest Road"/>
    <tag k="tiger:cfcc" v="A41"/>
    <tag k="tiger:county" v="Yankton, SD"/>
    <tag k="tiger:name_base" v="Crest"/>
    <tag k="tiger:name_type" v="Rd"/>
    <tag k="tiger:reviewed" v="no"/>
    <tag k="tiger:separated" v="no"/>
    <tag k="tiger:source" v="tiger_import_dch_v0.6_20070829"/>
    <tag k="tiger:tlid" v="172839882:172843610"/>
  </way>
  <way id="33690481" version="8" timestamp="2011-07-20T20:55:12Z" uid="87823" user="jakraay" changeset="8783024">
    <nd ref="385199494"/>
    <nd ref="81512104"/>
    <nd ref="1368329043"/>
    <nd ref="1368329061"/>
    <nd ref="1368329154"/>
    <nd ref="1367936162"/>
    <nd ref="81517735"/>
    <tag k="embankment" v="yes"/>
    <tag k="highway" v="residential"/>
    <tag k="layer" v="1"/>
    <tag k="name" v="Crest Road"/>
  </way>
  <way id="33690481" version="9" timestamp="2011-07-21T22:21:26Z" uid="87823" user="jakraay" changeset="8793504">
    <nd ref="385199494"/>
    <nd ref="81512104"/>
    <nd ref="1368329043"/>
    <nd ref="1368329061"/>
    <nd ref="1368329154"/>
    <nd ref="1367936162"/>
    <nd ref="81517735"/>
    <tag k="embankment" v="yes"/>
    <tag k="highway" v="tertiary"/>
    <tag k="layer" v="1"/>
    <tag k="name" v="Crest Road"/>
  </way>
  <way id="33690481" version="10" timestamp="2011-12-15T15:52:45Z" uid="28378" user="PHerison" changeset="10124998">
    <nd ref="385199494"/>
    <nd ref="81512104"/>
    <nd ref="1368329043"/>
    <nd ref="1368329061"/>
    <nd ref="1368329154"/>
    <nd ref="1367936162"/>
    <nd ref="81517735"/>
    <tag k="embankment" v="yes"/>
    <tag k="highway" v="tertiary"/>
    <tag k="name" v="Crest Road"/>
  </way>
  <way id="33690396" version="9" timestamp="2012-07-31T04:11:09Z" uid="7523" user="inas" changeset="12556353">
    <nd ref="385184384"/>
    <nd ref="20958857"/>
    <tag k="highway" v="primary"/>
    <tag k="layer" v="0"/>
    <tag k="name" v="Harris Street"/>
    <tag k="source" v="survey"/>
  </way>
  <way id="33690397" version="8" timestamp="2012-07-31T04:11:09Z" uid="7523" user="inas" changeset="12556353">
    <nd ref="12501606"/>
    <nd ref="12501607"/>
    <nd ref="385184384"/>
    <tag k="highway" v="primary"/>
    <tag k="layer" v="0"/>
    <tag k="name" v="Harris Street"/>
    <tag k="source" v="survey"/>
  </way>
</osm>
