<?xml version='1.0' encoding='UTF-8'?>
<osm version="0.6" generator="libosmium/2.20.0">
  <way id="33811019" version="2" timestamp="2010-01-26T10:20:18Z" uid="171838" user="argrath" changeset="3718121">
    <nd ref="387256270"/>
    <nd ref="196042023"/>
    <tag k="note" v="old_coastline"/>
  </way>
  <way id="33811019" version="3" timestamp="2011-09-24T15:32:49Z" uid="146930" user="Tom_G3X" changeset="9384986"/>
  <way id="33811046" version="1" timestamp="2009-04-29T10:29:58Z" uid="30632" user="antblant" changeset="1014013">
    <nd ref="31940714"/>
    <nd ref="251527180"/>
    <nd ref="31940728"/>
    <tag k="created_by" v="Potlatch alpha"/>
    <tag k="highway" v="primary"/>
    <tag k="name" v="Pabianicka"/>
    <tag k="oneway" v="yes"/>
    <tag k="ref" v="14"/>
  </way>
  <way id="33811046" version="2" timestamp="2009-04-29T10:30:05Z" uid="30632" user="antblant" changeset="1014013"/>
  <way id="33811049" version="1" timestamp="2009-04-29T10:30:30Z" uid="30632" user="antblant" changeset="1014013">
    <nd ref="31940702"/>
    <nd ref="31940681"/>
    <nd ref="31940646"/>
    <nd ref="31940556"/>
    <nd ref="31940516"/>
    <nd ref="31940457"/>
    <tag k="created_by" v="JOSM"/>
    <tag k="highway" v="primary"/>
    <tag k="int_ref" v="E75"/>
    <tag k="name" v="Jana Pawła II"/>
    <tag k="oneway" v="yes"/>
    <tag k="ref" v="1"/>
  </way>
  <way id="33811049" version="2" timestamp="2010-08-17T17:16:15Z" uid="91056" user="Yarl" changeset="5519558">
    <nd ref="31940702"/>
    <nd ref="864943441"/>
    <nd ref="31940681"/>
    <nd ref="864943594"/>
    <nd ref="31940646"/>
    <nd ref="31940556"/>
    <nd ref="864943852"/>
    <nd ref="864943517"/>
    <nd ref="31940516"/>
    <nd ref="864944072"/>
    <nd ref="31940457"/>
    <tag k="highway" v="primary"/>
    <tag k="int_ref" v="E75"/>
    <tag k="lanes" v="3"/>
    <tag k="name" v="Jana Pawła II"/>
    <tag k="oneway" v="yes"/>
    <tag k="ref" v="1"/>
  </way>
  <way id="33811049" version="3" timestamp="2010-12-03T21:54:38Z" uid="9176" user="Maarten Deen" changeset="6532037">
    <nd ref="31940702"/>
    <nd ref="864943441"/>
    <nd ref="31940681"/>
    <tag k="highway" v="primary"/>
    <tag k="int_ref" v="E75"/>
    <tag k="lanes" v="3"/>
    <tag k="name" v="Jana Pawła II"/>
    <tag k="oneway" v="yes"/>
    <tag k="ref" v="1"/>
  </way>
  <way id="33811927" version="1" timestamp="2009-04-29T10:46:39Z" uid="30632" user="antblant" changeset="1014133">
    <nd ref="81212309"/>
    <nd ref="81253646"/>
    <tag k="created_by" v="Potlatch 0.10f"/>
    <tag k="highway" v="primary"/>
    <tag k="int_ref" v="E75"/>
    <tag k="name" v="Zgierska"/>
    <tag k="oneway" v="yes"/>
    <tag k="ref" v="1"/>
  </way>
  <way id="33811927" version="2" timestamp="2009-04-29T10:46:46Z" uid="30632" user="antblant" changeset="1014133">
    <nd ref="81212309"/>
    <nd ref="81253646"/>
    <tag k="created_by" v="Potlatch 0.10f"/>
    <tag k="highway" v="secondary"/>
    <tag k="name" v="Zgierska"/>
    <tag k="oneway" v="yes"/>
  </way>
  <way id="33811927" version="3" timestamp="2011-04-20T21:09:04Z" uid="66036" user="h4v" changeset="7920438">
    <nd ref="81212309"/>
    <nd ref="1253123742"/>
    <nd ref="81253646"/>
    <tag k="highway" v="secondary"/>
    <tag k="name" v="Zgierska"/>
    <tag k="oneway" v="yes"/>
  </way>
  <way id="33811927" version="4" timestamp="2012-02-24T23:17:26Z" uid="574129" user="BB1993" changeset="10783485">
    <nd ref="81212309"/>
    <nd ref="1253123742"/>
    <nd ref="81253646"/>
    <tag k="highway" v="secondary"/>
    <tag k="name" v="Rondo mjr A.Biłyka"/>
    <tag k="oneway" v="yes"/>
  </way>
  <way id="33811927" version="5" timestamp="2012-02-26T11:42:51Z" uid="607553" user="Duke83" changeset="10796998">
    <nd ref="81212309"/>
    <nd ref="1253123742"/>
    <nd ref="81253646"/>
    <tag k="highway" v="secondary"/>
    <tag k="name" v="Rondo mjr A.Biłyka"/>
    <tag k="oneway" v="yes"/>
    <tag k="surface" v="asphalt"/>
  </way>
  <way id="33811933" version="13" timestamp="2010-12-16T11:37:48Z" uid="4467" user="Rosscoe" changeset="6675785">
    <nd ref="471259500"/>
    <nd ref="702451422"/>
    <nd ref="572004507"/>
    <nd ref="387153045"/>
    <nd ref="781093065"/>
    <nd ref="781137314"/>
    <nd ref="387153044"/>
    <nd ref="387153043"/>
    <nd ref="387153042"/>
    <nd ref="387153068"/>
    <nd ref="387153041"/>
    <nd ref="387153057"/>
    <nd ref="387153040"/>
    <nd ref="387153039"/>
    <nd ref="387153038"/>
    <nd ref="387153037"/>
    <nd ref="469750337"/>
    <nd ref="33317567"/>
    <tag k="cycleway" v="lane"/>
    <tag k="highway" v="primary"/>
    <tag k="lanes" v="2"/>
    <tag k="maxspeed" v="60"/>
    <tag k="name" v="Curzon Street"/>
    <tag k="oneway" v="yes"/>
    <tag k="source" v="nearmap"/>
  </way>
  <way id="33811986" version="2" timestamp="2011-01-03T00:14:27Z" uid="20587" user="balrog-kun" changeset="6845326">
    <nd ref="35124587"/>
    <nd ref="387262170"/>
    <nd ref="387262171"/>
    <nd ref="387262172"/>
    <nd ref="387262173"/>
    <nd ref="387262174"/>
    <nd ref="387262175"/>
    <nd ref="387262176"/>
    <nd ref="387262177"/>
    <nd ref="387262178"/>
    <nd ref="387262179"/>
    <nd ref="387262180"/>
    <nd ref="387262181"/>
    <nd ref="387262182"/>
    <nd ref="387262183"/>
    <nd ref="387262184"/>
    <nd ref="387262185"/>
    <nd ref="387262186"/>
    <nd ref="387262187"/>
    <nd ref="387262188"/>
    <nd ref="387262189"/>
    <nd ref="387262190"/>
    <nd ref="387262191"/>
    <nd ref="387262192"/>
    <nd ref="387262193"/>
    <nd ref="387262194"/>
    <nd ref="387262195"/>
    <nd ref="387262196"/>
    <nd ref="387262197"/>
    <nd ref="387262198"/>
    <nd ref="387262199"/>
    <nd ref="387262200"/>
    <nd ref="387262202"/>
    <nd ref="387262203"/>
    <nd ref="387262204"/>
    <nd ref="1079920001"/>
    <nd ref="387262206"/>
    <nd ref="1079920197"/>
    <nd ref="387262207"/>
    <nd ref="387262209"/>
    <tag k="highway" v="primary"/>
    <tag k="ref" v="62"/>
  </way>
  <way id="33811986" version="3" timestamp="2011-08-10T20:53:51Z" uid="500871" user="68arti" changeset="8980568">
    <nd ref="35124587"/>
    <nd ref="387262170"/>
    <nd ref="387262171"/>
    <nd ref="387262172"/>
    <nd ref="387262173"/>
    <nd ref="387262174"/>
    <nd ref="387262175"/>
    <nd ref="387262176"/>
    <nd ref="387262177"/>
    <nd ref="387262178"/>
    <nd ref="387262179"/>
    <nd ref="387262180"/>
    <nd ref="387262181"/>
    <nd ref="387262182"/>
    <nd ref="387262183"/>
    <nd ref="387262184"/>
    <nd ref="387262185"/>
    <nd ref="387262186"/>
    <nd ref="387262187"/>
    <nd ref="387262188"/>
    <nd ref="387262189"/>
    <nd ref="1394126439"/>
    <nd ref="387262190"/>
    <nd ref="387262191"/>
    <nd ref="387262192"/>
    <nd ref="1394126159"/>
    <nd ref="387262193"/>
    <nd ref="387262194"/>
    <nd ref="387262195"/>
    <nd ref="387262196"/>
    <nd ref="387262197"/>
    <nd ref="387262198"/>
    <nd ref="387262199"/>
    <nd ref="387262200"/>
    <nd ref="387262202"/>
    <nd ref="387262203"/>
    <nd ref="387262204"/>
    <nd ref="1079920001"/>
    <nd ref="387262206"/>
    <nd ref="1079920197"/>
    <nd ref="387262207"/>
    <nd ref="387262209"/>
    <tag k="highway" v="primary"/>
    <tag k="ref" v="62"/>
  </way>
  <way id="33811987" version="2" timestamp="2011-01-03T00:14:28Z" uid="20587" user="balrog-kun" changeset="6845326">
    <nd ref="387262209"/>
    <nd ref="1079919814"/>
    <nd ref="30776838"/>
    <tag k="bridge" v="yes"/>
    <tag k="highway" v="primary"/>
    <tag k="layer" v="1"/>
    <tag k="ref" v="62"/>
  </way>
  <way id="33811987" version="3" timestamp="2011-08-10T21:32:34Z" uid="500871" user="68arti" changeset="8980568">
    <nd ref="387262209"/>
    <nd ref="1394159723"/>
    <nd ref="1079919814"/>
    <nd ref="30776838"/>
    <tag k="bridge" v="yes"/>
    <tag k="highway" v="primary"/>
    <tag k="layer" v="1"/>
    <tag k="ref" v="62"/>
  </way>
  <way id="33811987" version="4" timestamp="2011-08-24T12:12:52Z" uid="338064" user="bombka190" changeset="9111974">
    <nd ref="1394159723"/>
    <nd ref="1079919814"/>
    <nd ref="30776838"/>
    <tag k="bridge" v="yes"/>
    <tag k="highway" v="primary"/>
    <tag k="layer" v="1"/>
    <tag k="ref" v="62"/>
  </way>
  <way id="33811987" version="5" timestamp="2011-12-21T11:07:18Z" uid="564141" user="Madmaks" changeset="10170500">
    <nd ref="387262209"/>
    <nd ref="1079919814"/>
    <nd ref="30776838"/>
    <tag k="bridge" v="yes"/>
    <tag k="highway" v="primary"/>
    <tag k="layer" v="1"/>
    <tag k="ref" v="62"/>
  </way>
  <way id="33811049" version="4" timestamp="2012-07-25T13:18:14Z" uid="607553" user="Duke83" changeset="12486802">
    <nd ref="31940702"/>
    <nd ref="864943441"/>
    <nd ref="31940681"/>
    <tag k="highway" v="primary"/>
    <tag k="int_ref" v="E75"/>
    <tag k="lanes" v="3"/>
    <tag k="name" v="Jana Pawła II"/>
    <tag k="oneway" v="yes"/>
    <tag k="ref" v="1"/>
    <tag k="source" v="GPS, survey"/>
    <tag k="surface" v="asphalt"/>
  </way>
  <way id="33811927" version="6" timestamp="2012-07-19T18:55:39Z" uid="707169" user="damndog" changeset="12343932">
    <nd ref="81212309"/>
    <nd ref="81253646"/>
    <tag k="highway" v="secondary"/>
    <tag k="name" v="Rondo mjr A.Biłyka"/>
    <tag k="oneway" v="yes"/>
    <tag k="surface" v="asphalt"/>
  </way>
  <way id="33811927" version="7" timestamp="2012-07-27T14:09:19Z" uid="607553" user="Duke83" changeset="12512010">
    <nd ref="81212309"/>
    <nd ref="81253646"/>
    <tag k="highway" v="primary"/>
    <tag k="junction" v="roundabout"/>
    <tag k="name" v="Rondo mjr A.Biłyka"/>
    <tag k="oneway" v="yes"/>
    <tag k="surface" v="asphalt"/>
  </way>
  <way id="33811933" version="14" timestamp="2012-07-31T06:40:39Z" uid="67896" user="mrpulley" changeset="12557007">
    <nd ref="471259500"/>
    <nd ref="702451422"/>
    <nd ref="572004507"/>
    <nd ref="387153045"/>
    <nd ref="781093065"/>
    <nd ref="781137314"/>
    <nd ref="387153044"/>
    <nd ref="387153043"/>
    <nd ref="387153042"/>
    <nd ref="387153068"/>
    <nd ref="387153041"/>
    <nd ref="387153057"/>
    <nd ref="387153040"/>
    <nd ref="387153039"/>
    <nd ref="387153038"/>
    <nd ref="387153037"/>
    <nd ref="469750337"/>
    <nd ref="33317567"/>
    <tag k="cycleway" v="lane"/>
    <tag k="highway" v="primary"/>
    <tag k="lanes" v="2"/>
    <tag k="maxspeed" v="60"/>
    <tag k="name" v="Curzon Street"/>
    <tag k="network" v="NR"/>
    <tag k="oneway" v="yes"/>
    <tag k="ref" v="79"/>
    <tag k="source" v="nearmap"/>
  </way>
  <way id="33811986" version="4" timestamp="2012-07-03T17:30:29Z" uid="373244" user="Tomekg" changeset="12102437">
    <nd ref="35124587"/>
    <nd ref="387262170"/>
    <nd ref="387262171"/>
    <nd ref="387262172"/>
    <nd ref="387262173"/>
    <nd ref="387262174"/>
    <nd ref="387262175"/>
    <nd ref="387262176"/>
    <nd ref="387262177"/>
    <nd ref="387262178"/>
    <nd ref="387262179"/>
    <nd ref="387262180"/>
    <nd ref="387262181"/>
    <nd ref="387262182"/>
    <nd ref="387262183"/>
    <nd ref="387262184"/>
    <nd ref="387262185"/>
    <nd ref="387262186"/>
    <nd ref="387262187"/>
    <nd ref="387262188"/>
    <nd ref="387262189"/>
    <nd ref="1394126439"/>
    <nd ref="387262190"/>
    <nd ref="387262191"/>
    <nd ref="387262192"/>
    <nd ref="1394126159"/>
    <nd ref="387262193"/>
    <nd ref="387262194"/>
    <nd ref="387262195"/>
    <nd ref="387262196"/>
    <nd ref="387262197"/>
    <nd ref="387262198"/>
    <nd ref="1811506701"/>
    <nd ref="1811506683"/>
    <nd ref="387262199"/>
    <nd ref="387262200"/>
    <nd ref="387262202"/>
    <nd ref="387262203"/>
    <nd ref="387262204"/>
    <nd ref="1079920001"/>
    <nd ref="387262206"/>
    <nd ref="1079920197"/>
    <nd ref="387262207"/>
    <nd ref="387262209"/>
    <tag k="highway" v="primary"/>
    <tag k="ref" v="62"/>
  </way>
</osm>
