<?xml version='1.0' encoding='UTF-8'?>
<osm version="0.6" generator="libosmium/2.20.0">
  <way id="33842192" version="1" timestamp="2009-04-30T11:03:37Z" uid="43863" user="Rundling" changeset="1025515">
    <nd ref="387719798"/>
    <nd ref="387719801"/>
    <nd ref="387719803"/>
    <nd ref="387719805"/>
    <tag k="highway" v="residential"/>
    <tag k="name" v="Medinger Weg"/>
    <tag k="surface" v="paved"/>
  </way>
  <way id="33842192" version="2" timestamp="2009-04-30T11:15:04Z" uid="43863" user="Rundling" changeset="1025633">
    <nd ref="387719798"/>
    <nd ref="387719801"/>
    <nd ref="387719803"/>
    <nd ref="387719805"/>
    <tag k="access" v="agricultural"/>
    <tag k="highway" v="residential"/>
    <tag k="name" v="Medinger Weg"/>
    <tag k="surface" v="paved"/>
  </way>
  <way id="33842193" version="1" timestamp="2009-04-30T11:03:37Z" uid="43863" user="Rundling" changeset="1025515">
    <nd ref="387719807"/>
    <nd ref="387719803"/>
    <nd ref="387719809"/>
    <nd ref="387719811"/>
    <nd ref="387719813"/>
    <nd ref="387719815"/>
    <tag k="highway" v="residential"/>
    <tag k="name" v="Bergstraße"/>
    <tag k="surface" v="paved"/>
  </way>
  <way id="33842209" version="3" timestamp="2010-07-08T20:16:55Z" uid="74617" user="JohnSmith" changeset="5168730">
    <nd ref="387720134"/>
    <nd ref="583091395"/>
    <nd ref="387721513"/>
    <tag k="highway" v="residential"/>
    <tag k="maxspeed" v="50"/>
    <tag k="maxspeed:source" v="default residential speed limit in Australia"/>
    <tag k="name" v="Albert Place"/>
  </way>
  <way id="33842209" version="4" timestamp="2012-01-18T20:33:11Z" uid="147510" user="woodpeck_fixbot" changeset="10429293">
    <nd ref="387720134"/>
    <nd ref="583091395"/>
    <nd ref="387721513"/>
    <tag k="highway" v="residential"/>
    <tag k="name" v="Albert Place"/>
  </way>
  <way id="33842941" version="1" timestamp="2009-04-30T11:06:19Z" uid="43863" user="Rundling" changeset="1025539">
    <nd ref="387724266"/>
    <nd ref="387724269"/>
    <nd ref="387724272"/>
    <nd ref="387724275"/>
    <nd ref="387724277"/>
    <nd ref="387719801"/>
    <tag k="highway" v="residential"/>
    <tag k="name" v="Gartenstraße"/>
    <tag k="surface" v="paved"/>
  </way>
  <way id="33842941" version="2" timestamp="2009-04-30T11:08:21Z" uid="43863" user="Rundling" changeset="1025562">
    <nd ref="387724266"/>
    <nd ref="387724269"/>
    <nd ref="387724272"/>
    <nd ref="387724275"/>
    <nd ref="387724277"/>
    <nd ref="387725135"/>
    <nd ref="387719801"/>
    <tag k="highway" v="residential"/>
    <tag k="name" v="Gartenstraße"/>
    <tag k="surface" v="paved"/>
  </way>
  <way id="33842942" version="1" timestamp="2009-04-30T11:06:19Z" uid="43863" user="Rundling" changeset="1025539">
    <nd ref="387719813"/>
    <nd ref="387724280"/>
    <nd ref="387724269"/>
    <tag k="highway" v="residential"/>
    <tag k="name" v="Hofkamp"/>
    <tag k="surface" v="cobblestone"/>
  </way>
  <way id="33842943" version="1" timestamp="2009-04-30T11:06:19Z" uid="43863" user="Rundling" changeset="1025539">
    <nd ref="387724282"/>
    <nd ref="387724280"/>
    <tag k="highway" v="residential"/>
    <tag k="name" v="Hofkamp 1-3"/>
    <tag k="surface" v="cobblestone"/>
  </way>
  <way id="33842982" version="1" timestamp="2009-04-30T11:07:27Z" uid="43863" user="Rundling" changeset="1025551">
    <nd ref="387719811"/>
    <nd ref="387724272"/>
    <tag k="highway" v="residential"/>
    <tag k="name" v="Koppelweg"/>
    <tag k="surface" v="paved"/>
  </way>
  <way id="33842983" version="1" timestamp="2009-04-30T11:07:27Z" uid="43863" user="Rundling" changeset="1025551">
    <nd ref="387719809"/>
    <nd ref="387724277"/>
    <tag k="highway" v="residential"/>
    <tag k="name" v="Kurze Straße"/>
    <tag k="surface" v="paved"/>
  </way>
  <way id="33842192" version="3" timestamp="2012-07-17T08:13:43Z" uid="722137" user="OSMF Redaction Account" changeset="12260187"/>
  <way id="33842193" version="2" timestamp="2012-04-09T13:27:25Z" uid="161619" user="FvGordon" changeset="11238455">
    <nd ref="1708477576"/>
    <nd ref="387719803"/>
    <nd ref="387719809"/>
    <nd ref="387719811"/>
    <nd ref="387719813"/>
    <nd ref="387719815"/>
    <tag k="highway" v="residential"/>
    <tag k="name" v="Bergstraße"/>
    <tag k="surface" v="paved"/>
  </way>
  <way id="33842193" version="3" timestamp="2012-07-17T08:13:43Z" uid="722137" user="OSMF Redaction Account" changeset="12260187"/>
  <way id="33842941" version="3" timestamp="2012-07-17T08:13:46Z" uid="722137" user="OSMF Redaction Account" changeset="12260207"/>
  <way id="33842942" version="2" timestamp="2012-07-17T08:13:46Z" uid="722137" user="OSMF Redaction Account" changeset="12260207"/>
  <way id="33842943" version="2" timestamp="2012-07-17T08:13:46Z" uid="722137" user="OSMF Redaction Account" changeset="12260207"/>
  <way id="33842982" version="2" timestamp="2012-07-17T08:13:45Z" uid="722137" user="OSMF Redaction Account" changeset="12260187"/>
  <way id="33842983" version="2" timestamp="2012-07-17T08:13:44Z" uid="722137" user="OSMF Redaction Account" changeset="12260187"/>
</osm>
