<?xml version='1.0' encoding='UTF-8'?>
<osm version="0.6" generator="libosmium/2.20.0">
  <way id="33888180" version="3" timestamp="2010-03-28T01:50:39Z" uid="20587" user="balrog-kun" changeset="4250871">
    <nd ref="91047746"/>
    <nd ref="91047748"/>
    <nd ref="91047751"/>
    <nd ref="91047753"/>
    <tag k="bicycle" v="yes"/>
    <tag k="created_by" v="Potlatch 0.10e"/>
    <tag k="highway" v="residential"/>
    <tag k="name" v="High Street"/>
    <tag k="tiger:cfcc" v="A41"/>
    <tag k="tiger:county" v="Santa Cruz, CA"/>
    <tag k="tiger:name_base" v="High"/>
    <tag k="tiger:name_type" v="St"/>
    <tag k="tiger:reviewed" v="no"/>
    <tag k="tiger:separated" v="no"/>
    <tag k="tiger:source" v="tiger_import_dch_v0.6_20070809"/>
    <tag k="tiger:tlid" v="125519618:125531381:125506022"/>
    <tag k="tiger:zip_left" v="95060"/>
    <tag k="tiger:zip_right" v="95060"/>
  </way>
  <way id="33888180" version="4" timestamp="2011-05-09T17:33:53Z" uid="123633" user="stevea" changeset="8094821">
    <nd ref="91047746"/>
    <nd ref="91047748"/>
    <nd ref="91047751"/>
    <tag k="bicycle" v="yes"/>
    <tag k="highway" v="residential"/>
    <tag k="name" v="High Street"/>
    <tag k="tiger:cfcc" v="A41"/>
    <tag k="tiger:county" v="Santa Cruz, CA"/>
    <tag k="tiger:name_base" v="High"/>
    <tag k="tiger:name_type" v="St"/>
    <tag k="tiger:reviewed" v="no"/>
    <tag k="tiger:separated" v="no"/>
    <tag k="tiger:source" v="tiger_import_dch_v0.6_20070809"/>
    <tag k="tiger:tlid" v="125519618:125531381:125506022"/>
    <tag k="tiger:zip_left" v="95060"/>
    <tag k="tiger:zip_right" v="95060"/>
  </way>
  <way id="33888181" version="3" timestamp="2010-03-28T01:50:39Z" uid="20587" user="balrog-kun" changeset="4250871">
    <nd ref="91047744"/>
    <nd ref="91047746"/>
    <tag k="created_by" v="Potlatch 0.10e"/>
    <tag k="highway" v="residential"/>
    <tag k="name" v="High Street"/>
    <tag k="oneway" v="yes"/>
    <tag k="tiger:cfcc" v="A41"/>
    <tag k="tiger:county" v="Santa Cruz, CA"/>
    <tag k="tiger:name_base" v="High"/>
    <tag k="tiger:name_type" v="St"/>
    <tag k="tiger:reviewed" v="no"/>
    <tag k="tiger:separated" v="no"/>
    <tag k="tiger:source" v="tiger_import_dch_v0.6_20070809"/>
    <tag k="tiger:tlid" v="125519618:125531381:125506022"/>
    <tag k="tiger:zip_left" v="95060"/>
    <tag k="tiger:zip_right" v="95060"/>
  </way>
  <way id="33888475" version="3" timestamp="2011-06-03T16:41:36Z" uid="33382" user="de_muur" changeset="8331255">
    <nd ref="388268865"/>
    <nd ref="388268855"/>
    <nd ref="388268856"/>
    <nd ref="388268857"/>
    <nd ref="388279660"/>
    <nd ref="388279661"/>
    <nd ref="388279662"/>
    <nd ref="388279664"/>
    <nd ref="478610248"/>
    <tag k="highway" v="residential"/>
    <tag k="name" v="Am Schart"/>
    <tag k="surface" v="paved"/>
  </way>
  <way id="33888476" version="3" timestamp="2011-06-03T16:41:38Z" uid="33382" user="de_muur" changeset="8331255">
    <nd ref="388279663"/>
    <nd ref="315070850"/>
    <tag k="highway" v="footway"/>
    <tag k="surface" v="paved"/>
  </way>
  <way id="33888477" version="3" timestamp="2011-06-03T16:41:36Z" uid="33382" user="de_muur" changeset="8331255">
    <nd ref="315070848"/>
    <nd ref="388279663"/>
    <tag k="bridge" v="yes"/>
    <tag k="highway" v="footway"/>
    <tag k="layer" v="1"/>
    <tag k="surface" v="wood"/>
  </way>
  <way id="33888477" version="4" timestamp="2011-09-03T13:14:44Z" uid="516457" user="SteReg" changeset="9200539">
    <nd ref="315070848"/>
    <nd ref="388279663"/>
    <tag k="bicycle" v="dismount"/>
    <tag k="bridge" v="yes"/>
    <tag k="highway" v="footway"/>
    <tag k="layer" v="1"/>
    <tag k="motor_vehicle" v="no"/>
    <tag k="name" v="Kirchsteigbrücke"/>
    <tag k="surface" v="wood"/>
  </way>
  <way id="33888529" version="5" timestamp="2009-11-02T01:30:36Z" uid="20587" user="balrog-kun" changeset="3013111">
    <nd ref="388268648"/>
    <nd ref="388268650"/>
    <nd ref="388268652"/>
    <nd ref="388268654"/>
    <nd ref="388269218"/>
    <nd ref="388268831"/>
    <nd ref="250465508"/>
    <nd ref="388280819"/>
    <nd ref="388296757"/>
    <nd ref="250465509"/>
    <nd ref="388295046"/>
    <nd ref="375978288"/>
    <nd ref="375978281"/>
    <nd ref="270670954"/>
    <nd ref="376001010"/>
    <nd ref="250465510"/>
    <nd ref="308020296"/>
    <nd ref="250465512"/>
    <nd ref="250465513"/>
    <nd ref="250465514"/>
    <tag k="highway" v="primary"/>
    <tag k="int_ref" v="E 261"/>
    <tag k="lanes" v="3"/>
    <tag k="name" v="Aleja Konstytucji 3 Maja"/>
    <tag k="oneway" v="true"/>
    <tag k="ref" v="5"/>
  </way>
  <way id="33888529" version="6" timestamp="2010-01-23T16:12:02Z" uid="113415" user="tomek-k" changeset="3692840">
    <nd ref="388268648"/>
    <nd ref="388268650"/>
    <nd ref="388268652"/>
    <nd ref="388268654"/>
    <nd ref="388269218"/>
    <nd ref="388268831"/>
    <nd ref="250465508"/>
    <nd ref="388280819"/>
    <nd ref="388296757"/>
    <nd ref="250465509"/>
    <nd ref="388295046"/>
    <nd ref="375978288"/>
    <nd ref="375978281"/>
    <nd ref="376001010"/>
    <nd ref="250465510"/>
    <nd ref="308020296"/>
    <nd ref="250465512"/>
    <nd ref="250465513"/>
    <nd ref="250465514"/>
    <tag k="highway" v="primary"/>
    <tag k="int_ref" v="E 261"/>
    <tag k="lanes" v="3"/>
    <tag k="name" v="Aleja Konstytucji 3 Maja"/>
    <tag k="oneway" v="true"/>
    <tag k="ref" v="5"/>
  </way>
  <way id="33888529" version="7" timestamp="2010-01-23T16:58:36Z" uid="113415" user="tomek-k" changeset="3693224">
    <nd ref="388268648"/>
    <nd ref="388268650"/>
    <nd ref="388268652"/>
    <nd ref="388268654"/>
    <nd ref="388269218"/>
    <nd ref="388268831"/>
    <nd ref="250465508"/>
    <nd ref="388280819"/>
    <nd ref="388296757"/>
    <nd ref="250465509"/>
    <nd ref="388295046"/>
    <nd ref="375978288"/>
    <nd ref="375978281"/>
    <nd ref="376001010"/>
    <nd ref="250465510"/>
    <nd ref="308020296"/>
    <nd ref="250465512"/>
    <nd ref="618773905"/>
    <nd ref="250465513"/>
    <nd ref="250465514"/>
    <tag k="highway" v="primary"/>
    <tag k="int_ref" v="E 261"/>
    <tag k="lanes" v="3"/>
    <tag k="name" v="Aleja Konstytucji 3 Maja"/>
    <tag k="oneway" v="true"/>
    <tag k="ref" v="5"/>
  </way>
  <way id="33888529" version="8" timestamp="2010-01-23T17:21:09Z" uid="113415" user="tomek-k" changeset="3693638">
    <nd ref="388268648"/>
    <nd ref="388268650"/>
    <nd ref="388268652"/>
    <nd ref="388268654"/>
    <nd ref="388269218"/>
    <nd ref="388268831"/>
    <nd ref="250465508"/>
    <nd ref="388280819"/>
    <nd ref="388296757"/>
    <nd ref="250465509"/>
    <nd ref="388295046"/>
    <nd ref="375978288"/>
    <nd ref="375978281"/>
    <nd ref="376001010"/>
    <nd ref="250465510"/>
    <nd ref="308020296"/>
    <nd ref="250465512"/>
    <nd ref="618773905"/>
    <nd ref="250465514"/>
    <tag k="highway" v="primary"/>
    <tag k="int_ref" v="E 261"/>
    <tag k="lanes" v="3"/>
    <tag k="name" v="Aleja Konstytucji 3 Maja"/>
    <tag k="oneway" v="true"/>
    <tag k="ref" v="5"/>
  </way>
  <way id="33888529" version="9" timestamp="2010-08-01T23:52:13Z" uid="107566" user="Yabba" changeset="5375847">
    <nd ref="388268648"/>
    <nd ref="388268650"/>
    <nd ref="388268652"/>
    <nd ref="388268654"/>
    <nd ref="388269218"/>
    <nd ref="388268831"/>
    <nd ref="250465508"/>
    <nd ref="388280819"/>
    <nd ref="388296757"/>
    <nd ref="250465509"/>
    <nd ref="388295046"/>
    <nd ref="375978288"/>
    <nd ref="375978281"/>
    <nd ref="376001010"/>
    <nd ref="250465510"/>
    <nd ref="308020296"/>
    <nd ref="250465512"/>
    <nd ref="618773905"/>
    <nd ref="250465514"/>
    <tag k="highway" v="primary"/>
    <tag k="int_ref" v="E 261"/>
    <tag k="lanes" v="3"/>
    <tag k="name" v="Aleja Konstytucji 3 Maja"/>
    <tag k="oneway" v="yes"/>
    <tag k="ref" v="5"/>
  </way>
  <way id="33888529" version="10" timestamp="2010-10-19T17:43:26Z" uid="113415" user="tomek-k" changeset="6101632">
    <nd ref="388268648"/>
    <nd ref="388268650"/>
    <nd ref="388268652"/>
    <nd ref="388268654"/>
    <nd ref="388269218"/>
    <nd ref="388268831"/>
    <nd ref="250465508"/>
    <nd ref="388280819"/>
    <nd ref="388296757"/>
    <nd ref="250465509"/>
    <nd ref="388295046"/>
    <nd ref="375978288"/>
    <nd ref="375978281"/>
    <nd ref="376001010"/>
    <nd ref="250465510"/>
    <nd ref="957226397"/>
    <nd ref="957226398"/>
    <nd ref="308020296"/>
    <nd ref="250465512"/>
    <nd ref="618773905"/>
    <nd ref="250465514"/>
    <tag k="highway" v="primary"/>
    <tag k="int_ref" v="E 261"/>
    <tag k="lanes" v="3"/>
    <tag k="name" v="Aleja Konstytucji 3 Maja"/>
    <tag k="oneway" v="yes"/>
    <tag k="ref" v="5"/>
  </way>
  <way id="33888529" version="11" timestamp="2010-10-19T18:59:27Z" uid="113415" user="tomek-k" changeset="6102311">
    <nd ref="388268648"/>
    <nd ref="388268650"/>
    <nd ref="388268652"/>
    <nd ref="957276697"/>
    <nd ref="388268654"/>
    <nd ref="957276705"/>
    <nd ref="957276706"/>
    <nd ref="388269218"/>
    <nd ref="388268831"/>
    <nd ref="250465508"/>
    <nd ref="388280819"/>
    <nd ref="388296757"/>
    <nd ref="250465509"/>
    <nd ref="388295046"/>
    <nd ref="375978288"/>
    <nd ref="375978281"/>
    <nd ref="376001010"/>
    <nd ref="250465510"/>
    <nd ref="957226397"/>
    <nd ref="957226398"/>
    <nd ref="308020296"/>
    <nd ref="250465512"/>
    <nd ref="618773905"/>
    <nd ref="250465514"/>
    <tag k="highway" v="primary"/>
    <tag k="int_ref" v="E 261"/>
    <tag k="lanes" v="3"/>
    <tag k="name" v="Aleja Konstytucji 3 Maja"/>
    <tag k="oneway" v="yes"/>
    <tag k="ref" v="5"/>
  </way>
  <way id="33888529" version="12" timestamp="2010-10-19T19:01:35Z" uid="113415" user="tomek-k" changeset="6102338">
    <nd ref="388268648"/>
    <nd ref="388268650"/>
    <nd ref="388268652"/>
    <nd ref="957276697"/>
    <nd ref="388268654"/>
    <nd ref="957276705"/>
    <nd ref="957276706"/>
    <nd ref="388269218"/>
    <nd ref="957280044"/>
    <nd ref="388268831"/>
    <nd ref="250465508"/>
    <nd ref="388280819"/>
    <nd ref="388296757"/>
    <nd ref="250465509"/>
    <nd ref="388295046"/>
    <nd ref="375978288"/>
    <nd ref="375978281"/>
    <nd ref="376001010"/>
    <nd ref="250465510"/>
    <nd ref="957226397"/>
    <nd ref="957226398"/>
    <nd ref="308020296"/>
    <nd ref="250465512"/>
    <nd ref="618773905"/>
    <nd ref="250465514"/>
    <tag k="highway" v="primary"/>
    <tag k="int_ref" v="E 261"/>
    <tag k="lanes" v="3"/>
    <tag k="name" v="Aleja Konstytucji 3 Maja"/>
    <tag k="oneway" v="yes"/>
    <tag k="ref" v="5"/>
  </way>
  <way id="33888529" version="13" timestamp="2011-01-26T18:25:45Z" uid="113415" user="tomek-k" changeset="7096195">
    <nd ref="388268648"/>
    <nd ref="388268650"/>
    <nd ref="388268652"/>
    <nd ref="957276697"/>
    <nd ref="388268654"/>
    <nd ref="957276705"/>
    <nd ref="957276706"/>
    <nd ref="388269218"/>
    <nd ref="957280044"/>
    <nd ref="388268831"/>
    <nd ref="250465508"/>
    <nd ref="388280819"/>
    <nd ref="388296757"/>
    <nd ref="250465509"/>
    <nd ref="388295046"/>
    <nd ref="1122181771"/>
    <nd ref="375978288"/>
    <nd ref="375978281"/>
    <nd ref="376001010"/>
    <nd ref="250465510"/>
    <nd ref="957226397"/>
    <nd ref="957226398"/>
    <nd ref="308020296"/>
    <nd ref="250465512"/>
    <nd ref="618773905"/>
    <nd ref="250465514"/>
    <tag k="highway" v="primary"/>
    <tag k="int_ref" v="E 261"/>
    <tag k="lanes" v="3"/>
    <tag k="name" v="Aleja Konstytucji 3 Maja"/>
    <tag k="oneway" v="yes"/>
    <tag k="ref" v="5"/>
  </way>
  <way id="33888529" version="14" timestamp="2011-07-19T08:40:04Z" uid="491788" user="emin" changeset="8766029">
    <nd ref="388268648"/>
    <nd ref="388268650"/>
    <nd ref="388268652"/>
    <nd ref="957276697"/>
    <nd ref="388268654"/>
    <nd ref="957276705"/>
    <nd ref="957276706"/>
    <nd ref="388269218"/>
    <nd ref="957280044"/>
    <nd ref="388268831"/>
    <nd ref="250465508"/>
    <nd ref="388280819"/>
    <nd ref="388296757"/>
    <nd ref="250465509"/>
    <nd ref="388295046"/>
    <nd ref="1122181771"/>
    <nd ref="375978288"/>
    <nd ref="375978281"/>
    <nd ref="376001010"/>
    <nd ref="250465510"/>
    <nd ref="957226397"/>
    <nd ref="957226398"/>
    <nd ref="308020296"/>
    <nd ref="1366406953"/>
    <nd ref="250465512"/>
    <nd ref="618773905"/>
    <nd ref="250465514"/>
    <tag k="highway" v="primary"/>
    <tag k="int_ref" v="E 261"/>
    <tag k="lanes" v="3"/>
    <tag k="name" v="Aleja Konstytucji 3 Maja"/>
    <tag k="oneway" v="yes"/>
    <tag k="ref" v="5"/>
  </way>
  <way id="33888529" version="15" timestamp="2011-08-26T16:14:59Z" uid="113415" user="tomek-k" changeset="9130914">
    <nd ref="388268648"/>
    <nd ref="388268650"/>
    <nd ref="388268652"/>
    <nd ref="957276697"/>
    <nd ref="388268654"/>
    <nd ref="957276705"/>
    <nd ref="957276706"/>
    <nd ref="388269218"/>
    <nd ref="957280044"/>
    <nd ref="388268831"/>
    <nd ref="250465508"/>
    <nd ref="388280819"/>
    <tag k="highway" v="primary"/>
    <tag k="int_ref" v="E 261"/>
    <tag k="lanes" v="3"/>
    <tag k="name" v="Aleja Konstytucji 3 Maja"/>
    <tag k="oneway" v="yes"/>
    <tag k="ref" v="5"/>
  </way>
  <way id="33888529" version="16" timestamp="2011-12-27T09:55:55Z" uid="113415" user="tomek-k" changeset="10214091"/>
  <way id="33888535" version="3" timestamp="2010-01-21T07:51:59Z" uid="27600" user="Islanit" changeset="3672636">
    <nd ref="265089197"/>
    <nd ref="257174216"/>
    <nd ref="388281113"/>
    <nd ref="285360123"/>
    <nd ref="267215740"/>
    <tag k="cycleway" v="track"/>
    <tag k="highway" v="primary"/>
    <tag k="name" v="Wentorfer Straße"/>
    <tag k="postal_code" v="21029"/>
    <tag k="ref" v="B 207"/>
  </way>
  <way id="33888535" version="4" timestamp="2010-05-16T16:55:19Z" uid="284883" user="Godbehere" changeset="4719538">
    <nd ref="265089197"/>
    <nd ref="257174216"/>
    <nd ref="388281113"/>
    <nd ref="736661015"/>
    <nd ref="285360123"/>
    <nd ref="267215740"/>
    <tag k="cycleway" v="track"/>
    <tag k="highway" v="primary"/>
    <tag k="name" v="Wentorfer Straße"/>
    <tag k="postal_code" v="21029"/>
    <tag k="ref" v="B 207"/>
  </way>
  <way id="33888535" version="5" timestamp="2010-11-28T13:33:22Z" uid="30077" user="ChristianW" changeset="6478100">
    <nd ref="265089197"/>
    <nd ref="257174216"/>
    <nd ref="388281113"/>
    <nd ref="736661015"/>
    <nd ref="285360123"/>
    <nd ref="267215740"/>
    <tag k="cycleway" v="track"/>
    <tag k="highway" v="primary"/>
    <tag k="loc_name" v="Vogelfluglinie"/>
    <tag k="name" v="Wentorfer Straße"/>
    <tag k="postal_code" v="21029"/>
    <tag k="ref" v="B 207"/>
  </way>
  <way id="33888535" version="6" timestamp="2012-03-24T10:16:22Z" uid="349191" user="Glühwürmchen" changeset="11082699">
    <nd ref="1688285970"/>
    <nd ref="257174216"/>
    <nd ref="388281113"/>
    <nd ref="1688285970"/>
    <nd ref="267215740"/>
    <tag k="cycleway" v="track"/>
    <tag k="highway" v="primary"/>
    <tag k="loc_name" v="Vogelfluglinie"/>
    <tag k="name" v="Wentorfer Straße"/>
    <tag k="postal_code" v="21029"/>
    <tag k="ref" v="B 207"/>
  </way>
  <way id="33888535" version="7" timestamp="2012-03-24T10:30:55Z" uid="349191" user="Glühwürmchen" changeset="11082699"/>
  <way id="33888670" version="3" timestamp="2010-01-27T15:40:16Z" uid="23543" user="jkjk" changeset="3729105">
    <nd ref="95950348"/>
    <nd ref="388283080"/>
    <nd ref="569958354"/>
    <nd ref="388283083"/>
    <tag k="highway" v="footway"/>
    <tag k="kct_blue" v="major"/>
    <tag k="kct_red" v="major"/>
  </way>
  <way id="33888670" version="4" timestamp="2010-06-02T19:39:39Z" uid="17615" user="Petr Dlouhý" changeset="4887074">
    <nd ref="95950348"/>
    <nd ref="388283080"/>
    <nd ref="569958354"/>
    <nd ref="388283083"/>
    <tag k="highway" v="footway"/>
    <tag k="kct_blue" v="major"/>
  </way>
  <way id="33888670" version="5" timestamp="2010-08-03T10:58:05Z" uid="181419" user="Marek Prokop" changeset="5388760">
    <nd ref="95950348"/>
    <nd ref="388283080"/>
    <nd ref="569958354"/>
    <nd ref="388283083"/>
    <tag k="highway" v="footway"/>
  </way>
  <way id="33888475" version="4" timestamp="2012-07-17T06:00:04Z" uid="722137" user="OSMF Redaction Account" changeset="12258144">
    <nd ref="388268865"/>
    <nd ref="388268855"/>
    <nd ref="388268856"/>
    <nd ref="388268857"/>
    <nd ref="388279660"/>
    <nd ref="388279661"/>
    <nd ref="388279662"/>
    <nd ref="388279664"/>
    <nd ref="478610248"/>
    <tag k="highway" v="residential"/>
    <tag k="name" v="Am Schart"/>
  </way>
  <way id="33888476" version="4" timestamp="2012-07-17T06:00:05Z" uid="722137" user="OSMF Redaction Account" changeset="12258144">
    <nd ref="388279663"/>
    <nd ref="315070850"/>
    <tag k="highway" v="footway"/>
  </way>
  <way id="33888477" version="5" timestamp="2012-07-17T06:00:04Z" uid="722137" user="OSMF Redaction Account" changeset="12258144">
    <nd ref="315070848"/>
    <nd ref="388279663"/>
    <tag k="bicycle" v="dismount"/>
    <tag k="bridge" v="yes"/>
    <tag k="highway" v="footway"/>
    <tag k="layer" v="1"/>
    <tag k="motor_vehicle" v="no"/>
    <tag k="name" v="Kirchsteigbrücke"/>
  </way>
  <way id="33888670" version="6" timestamp="2012-08-31T18:49:24Z" uid="42123" user="Ropino" changeset="12934574">
    <nd ref="95950348"/>
    <nd ref="1891990910"/>
    <nd ref="1891990903"/>
    <nd ref="388283080"/>
    <nd ref="569958354"/>
    <nd ref="388283083"/>
    <tag k="highway" v="footway"/>
  </way>
</osm>
