<?xml version='1.0' encoding='UTF-8'?>
<osm version="0.6" generator="libosmium/2.20.0">
  <way id="34131051" version="1" timestamp="2009-05-06T12:24:14Z" uid="27600" user="Islanit" changeset="1096633">
    <nd ref="309909533"/>
    <nd ref="391337494"/>
    <nd ref="391337495"/>
    <nd ref="391337496"/>
    <nd ref="391337497"/>
    <nd ref="391337498"/>
    <nd ref="391337499"/>
    <nd ref="391337500"/>
    <nd ref="391337501"/>
    <nd ref="266599297"/>
  </way>
  <way id="34131051" version="2" timestamp="2009-05-06T12:24:29Z" uid="27600" user="Islanit" changeset="1096633">
    <nd ref="309909533"/>
    <nd ref="391337494"/>
    <nd ref="391337495"/>
    <nd ref="391337496"/>
    <nd ref="391337497"/>
    <nd ref="391337498"/>
    <nd ref="391337499"/>
    <nd ref="391337500"/>
    <nd ref="391337501"/>
    <nd ref="266599297"/>
    <tag k="bicycle" v="yes"/>
    <tag k="highway" v="track"/>
  </way>
  <way id="34131051" version="3" timestamp="2009-05-06T12:24:38Z" uid="27600" user="Islanit" changeset="1096633">
    <nd ref="309909533"/>
    <nd ref="391337494"/>
    <nd ref="391337495"/>
    <nd ref="391337496"/>
    <nd ref="391337497"/>
    <nd ref="391337498"/>
    <nd ref="391337499"/>
    <nd ref="391337500"/>
    <nd ref="391337501"/>
    <nd ref="266599297"/>
    <tag k="bicycle" v="yes"/>
    <tag k="highway" v="footway"/>
  </way>
  <way id="34131051" version="4" timestamp="2011-05-26T14:27:20Z" uid="143317" user="georginakirrin" changeset="8254098"/>
  <way id="34131064" version="1" timestamp="2009-05-06T12:25:28Z" uid="27600" user="Islanit" changeset="1096633">
    <nd ref="282502307"/>
    <nd ref="391337573"/>
  </way>
  <way id="34131064" version="2" timestamp="2009-05-06T12:34:37Z" uid="27600" user="Islanit" changeset="1096633">
    <nd ref="282502307"/>
    <nd ref="391337573"/>
    <tag k="highway" v="footway"/>
  </way>
  <way id="34131064" version="3" timestamp="2012-03-07T11:36:55Z" uid="63375" user="Divjo" changeset="10898854"/>
  <way id="34131173" version="2" timestamp="2011-05-08T09:12:44Z" uid="9581" user="Lobelt" changeset="8080437">
    <nd ref="27358882"/>
    <nd ref="27358883"/>
    <nd ref="391339814"/>
    <tag k="bridge" v="yes"/>
    <tag k="highway" v="secondary"/>
    <tag k="layer" v="1"/>
    <tag k="name" v="Wilhelmstraße"/>
  </way>
  <way id="34131173" version="3" timestamp="2011-09-08T22:29:13Z" uid="440308" user="spezialist" changeset="9250241">
    <nd ref="27358882"/>
    <nd ref="391339814"/>
    <tag k="bridge" v="yes"/>
    <tag k="highway" v="secondary"/>
    <tag k="layer" v="1"/>
    <tag k="name" v="Wilhelmstraße"/>
    <tag k="oneway" v="yes"/>
    <tag k="ref" v="L 412"/>
  </way>
  <way id="34131173" version="4" timestamp="2011-11-26T23:38:26Z" uid="440308" user="spezialist" changeset="9962284">
    <nd ref="27358882"/>
    <nd ref="391339814"/>
    <tag k="bridge" v="yes"/>
    <tag k="highway" v="secondary"/>
    <tag k="lanes" v="1"/>
    <tag k="layer" v="1"/>
    <tag k="name" v="Wilhelmstraße"/>
    <tag k="oneway" v="yes"/>
    <tag k="ref" v="L 412"/>
  </way>
  <way id="34131173" version="5" timestamp="2011-12-30T23:29:46Z" uid="440308" user="spezialist" changeset="10250838">
    <nd ref="27358882"/>
    <nd ref="391339814"/>
    <tag k="bridge" v="yes"/>
    <tag k="highway" v="secondary"/>
    <tag k="lanes" v="1"/>
    <tag k="layer" v="1"/>
    <tag k="maxspeed" v="50"/>
    <tag k="name" v="Wilhelmstraße"/>
    <tag k="oneway" v="yes"/>
    <tag k="ref" v="L 412"/>
  </way>
  <way id="34131173" version="6" timestamp="2012-01-02T14:39:18Z" uid="440308" user="spezialist" changeset="10271229">
    <nd ref="27358882"/>
    <nd ref="391339814"/>
    <tag k="bridge" v="yes"/>
    <tag k="highway" v="secondary"/>
    <tag k="lanes" v="1"/>
    <tag k="layer" v="1"/>
    <tag k="lit" v="yes"/>
    <tag k="maxspeed" v="50"/>
    <tag k="name" v="Wilhelmstraße"/>
    <tag k="oneway" v="yes"/>
    <tag k="ref" v="L 412"/>
    <tag k="sidewalk" v="right"/>
  </way>
  <way id="34131174" version="2" timestamp="2011-05-08T09:13:08Z" uid="9581" user="Lobelt" changeset="8080437">
    <nd ref="391339814"/>
    <nd ref="391339823"/>
    <nd ref="391339824"/>
    <nd ref="26413054"/>
    <tag k="highway" v="secondary"/>
    <tag k="name" v="Wilhelmstraße"/>
  </way>
  <way id="34131174" version="3" timestamp="2011-09-08T22:29:13Z" uid="440308" user="spezialist" changeset="9250241">
    <nd ref="391339814"/>
    <nd ref="1427504541"/>
    <nd ref="26413054"/>
    <tag k="highway" v="secondary"/>
    <tag k="name" v="Wilhelmstraße"/>
    <tag k="oneway" v="yes"/>
    <tag k="ref" v="L 412"/>
  </way>
  <way id="34131174" version="4" timestamp="2011-11-26T23:38:29Z" uid="440308" user="spezialist" changeset="9962284">
    <nd ref="391339814"/>
    <nd ref="1427504541"/>
    <nd ref="26413054"/>
    <tag k="highway" v="secondary"/>
    <tag k="lanes" v="1"/>
    <tag k="name" v="Wilhelmstraße"/>
    <tag k="oneway" v="yes"/>
    <tag k="ref" v="L 412"/>
  </way>
  <way id="34131174" version="5" timestamp="2011-12-30T23:29:47Z" uid="440308" user="spezialist" changeset="10250838">
    <nd ref="391339814"/>
    <nd ref="1427504541"/>
    <nd ref="26413054"/>
    <tag k="highway" v="secondary"/>
    <tag k="lanes" v="1"/>
    <tag k="maxspeed" v="50"/>
    <tag k="name" v="Wilhelmstraße"/>
    <tag k="oneway" v="yes"/>
    <tag k="ref" v="L 412"/>
  </way>
  <way id="34131174" version="6" timestamp="2012-01-02T14:39:23Z" uid="440308" user="spezialist" changeset="10271229">
    <nd ref="391339814"/>
    <nd ref="1427504541"/>
    <nd ref="26413054"/>
    <tag k="highway" v="secondary"/>
    <tag k="lanes" v="1"/>
    <tag k="lit" v="yes"/>
    <tag k="maxspeed" v="50"/>
    <tag k="name" v="Wilhelmstraße"/>
    <tag k="oneway" v="yes"/>
    <tag k="ref" v="L 412"/>
    <tag k="sidewalk" v="right"/>
  </way>
  <way id="34131173" version="7" timestamp="2012-07-21T13:37:56Z" uid="440308" user="spezialist" changeset="12410353">
    <nd ref="27358882"/>
    <nd ref="391339814"/>
    <tag k="alt_name" v="Ochsenbrücke"/>
    <tag k="bridge" v="yes"/>
    <tag k="highway" v="secondary"/>
    <tag k="lanes" v="1"/>
    <tag k="layer" v="1"/>
    <tag k="lit" v="yes"/>
    <tag k="maxspeed" v="50"/>
    <tag k="name" v="Wilhelmstraße"/>
    <tag k="oneway" v="yes"/>
    <tag k="ref" v="L 412"/>
    <tag k="sidewalk" v="right"/>
  </way>
</osm>
