<?xml version='1.0' encoding='UTF-8'?>
<osm version="0.6" generator="libosmium/2.20.0">
  <way id="34130011" version="4" timestamp="2010-08-17T13:45:25Z" uid="4467" user="Rosscoe" changeset="5517958">
    <nd ref="168466484"/>
    <nd ref="864710619"/>
    <nd ref="168466522"/>
    <nd ref="168466559"/>
    <nd ref="659657695"/>
    <nd ref="168466576"/>
    <nd ref="168466592"/>
    <nd ref="168466641"/>
    <nd ref="659657715"/>
    <nd ref="168466682"/>
    <nd ref="168466701"/>
    <nd ref="168466780"/>
    <tag k="highway" v="primary"/>
    <tag k="is_in" v="Millswood,South Australia,Australia"/>
    <tag k="lanes" v="2"/>
    <tag k="maxspeed" v="60"/>
    <tag k="name" v="Goodwood Road"/>
    <tag k="oneway" v="yes"/>
    <tag k="postal_code" v="5034"/>
    <tag k="source" v="survey"/>
    <tag k="source_ref:name" v="http://osm.beldin.org/2009/03/dscf8285.jpg"/>
  </way>
  <way id="34130011" version="5" timestamp="2010-08-17T13:54:24Z" uid="4467" user="Rosscoe" changeset="5518018">
    <nd ref="168466484"/>
    <nd ref="864710619"/>
    <nd ref="168466522"/>
    <nd ref="168466559"/>
    <nd ref="659657695"/>
    <nd ref="168466576"/>
    <nd ref="168466592"/>
    <nd ref="168466641"/>
    <nd ref="659657715"/>
    <nd ref="168466682"/>
    <nd ref="168466701"/>
    <nd ref="168466780"/>
    <tag k="highway" v="primary"/>
    <tag k="is_in" v="Millswood,South Australia,Australia"/>
    <tag k="lanes" v="2"/>
    <tag k="maxspeed" v="60"/>
    <tag k="name" v="Goodwood Road"/>
    <tag k="oneway" v="yes"/>
    <tag k="postal_code" v="5034"/>
    <tag k="source" v="survey"/>
    <tag k="source_ref:name" v="http://osm.beldin.org/2009/03/dscf8285.jpg"/>
  </way>
  <way id="34130011" version="6" timestamp="2010-08-17T13:56:11Z" uid="4467" user="Rosscoe" changeset="5518018">
    <nd ref="168466484"/>
    <nd ref="864710619"/>
    <nd ref="168466522"/>
    <nd ref="168466559"/>
    <nd ref="659657695"/>
    <nd ref="168466576"/>
    <nd ref="168466592"/>
    <nd ref="168466641"/>
    <nd ref="659657715"/>
    <nd ref="168466682"/>
    <nd ref="168466701"/>
    <nd ref="168466780"/>
    <tag k="highway" v="primary"/>
    <tag k="is_in" v="Millswood,South Australia,Australia"/>
    <tag k="lanes" v="2"/>
    <tag k="maxspeed" v="60"/>
    <tag k="name" v="Goodwood Road"/>
    <tag k="oneway" v="yes"/>
    <tag k="postal_code" v="5034"/>
    <tag k="source" v="survey"/>
    <tag k="source_ref:name" v="http://osm.beldin.org/2009/03/dscf8285.jpg"/>
  </way>
  <way id="34130011" version="7" timestamp="2010-09-24T13:32:35Z" uid="79475" user="AlexOnTheBus" changeset="5862716">
    <nd ref="168466484"/>
    <nd ref="864710619"/>
    <nd ref="168466522"/>
    <nd ref="168466559"/>
    <nd ref="659657695"/>
    <nd ref="168466576"/>
    <nd ref="168466592"/>
    <nd ref="168466641"/>
    <nd ref="659657715"/>
    <nd ref="168466682"/>
    <nd ref="168466701"/>
    <nd ref="168466780"/>
    <tag k="highway" v="secondary"/>
    <tag k="is_in" v="Millswood,South Australia,Australia"/>
    <tag k="lanes" v="2"/>
    <tag k="maxspeed" v="60"/>
    <tag k="name" v="Goodwood Road"/>
    <tag k="oneway" v="yes"/>
    <tag k="postal_code" v="5034"/>
    <tag k="source" v="survey"/>
    <tag k="source_ref:name" v="http://osm.beldin.org/2009/03/dscf8285.jpg"/>
  </way>
  <way id="34130162" version="2" timestamp="2010-03-22T06:28:01Z" uid="20587" user="balrog-kun" changeset="4199043">
    <nd ref="391316154"/>
    <nd ref="35505897"/>
    <nd ref="35617503"/>
    <nd ref="35585245"/>
    <nd ref="35535802"/>
    <nd ref="35539753"/>
    <nd ref="35453031"/>
    <nd ref="35461122"/>
    <nd ref="35461693"/>
    <nd ref="35505880"/>
    <nd ref="35576391"/>
    <nd ref="35580298"/>
    <nd ref="35574141"/>
    <nd ref="35631077"/>
    <nd ref="35655929"/>
    <nd ref="35476416"/>
    <tag k="created_by" v="JOSM"/>
    <tag k="highway" v="residential"/>
    <tag k="name" v="Tolo Road"/>
    <tag k="tiger:cfcc" v="A41"/>
    <tag k="tiger:name_base" v="Tolo"/>
    <tag k="tiger:name_type" v="Rd"/>
    <tag k="tiger:reviewed" v="no"/>
    <tag k="tiger:separated" v="no"/>
    <tag k="tiger:source" v="tiger_import_dch_v0.6_20070808"/>
    <tag k="tiger:tlid" v="155533055:155533057:155532021:155510354:155510355:155510357:155595440:155595441:155595450:155581216"/>
    <tag k="tiger:zip_left" v="97502"/>
    <tag k="tiger:zip_right" v="97502"/>
  </way>
  <way id="34130163" version="3" timestamp="2010-03-22T06:28:01Z" uid="20587" user="balrog-kun" changeset="4199043">
    <nd ref="35563887"/>
    <nd ref="391316154"/>
    <tag k="bridge" v="yes"/>
    <tag k="created_by" v="JOSM"/>
    <tag k="highway" v="residential"/>
    <tag k="name" v="Tolo Road"/>
    <tag k="tiger:cfcc" v="A41"/>
    <tag k="tiger:name_base" v="Tolo"/>
    <tag k="tiger:name_type" v="Rd"/>
    <tag k="tiger:reviewed" v="no"/>
    <tag k="tiger:separated" v="no"/>
    <tag k="tiger:source" v="tiger_import_dch_v0.6_20070808"/>
    <tag k="tiger:tlid" v="155533055:155533057:155532021:155510354:155510355:155510357:155595440:155595441:155595450:155581216"/>
    <tag k="tiger:zip_left" v="97502"/>
    <tag k="tiger:zip_right" v="97502"/>
  </way>
  <way id="34130272" version="3" timestamp="2009-10-19T19:11:15Z" uid="36809" user="pfoten_weg_!_" changeset="2897478">
    <nd ref="32210134"/>
    <nd ref="305670846"/>
    <nd ref="305670850"/>
    <nd ref="305670854"/>
    <nd ref="305670858"/>
    <nd ref="305670862"/>
    <nd ref="305670865"/>
    <nd ref="305670867"/>
    <nd ref="305670870"/>
    <nd ref="305670872"/>
    <nd ref="305670877"/>
    <nd ref="305670880"/>
    <nd ref="305670884"/>
    <nd ref="305670889"/>
    <nd ref="305670893"/>
    <nd ref="305670897"/>
    <nd ref="305670901"/>
    <nd ref="305670906"/>
    <nd ref="305670908"/>
    <nd ref="305670910"/>
    <nd ref="305670912"/>
    <nd ref="305670914"/>
    <nd ref="305670918"/>
    <nd ref="305670920"/>
    <nd ref="305670922"/>
    <nd ref="305670923"/>
    <nd ref="301228771"/>
    <nd ref="301228772"/>
    <nd ref="301228773"/>
    <nd ref="301228774"/>
    <nd ref="301228781"/>
    <nd ref="301228782"/>
    <nd ref="301228783"/>
    <nd ref="301228784"/>
    <nd ref="301228416"/>
    <tag k="highway" v="secondary"/>
    <tag k="ref" v="MB 10"/>
  </way>
  <way id="34130272" version="4" timestamp="2010-05-16T13:29:32Z" uid="288323" user="Steinmarder" changeset="4717095">
    <nd ref="32210134"/>
    <nd ref="305670846"/>
    <nd ref="305670850"/>
    <nd ref="305670854"/>
    <nd ref="305670858"/>
    <nd ref="305670862"/>
    <nd ref="305670865"/>
    <nd ref="305670867"/>
    <nd ref="305670870"/>
    <nd ref="305670872"/>
    <nd ref="305670877"/>
    <nd ref="305670880"/>
    <nd ref="305670884"/>
    <nd ref="305670889"/>
    <nd ref="305670893"/>
    <nd ref="305670897"/>
    <nd ref="305670901"/>
    <nd ref="305670906"/>
    <nd ref="305670908"/>
    <nd ref="305670910"/>
    <nd ref="305670912"/>
    <nd ref="305670914"/>
    <nd ref="305670918"/>
    <nd ref="305670920"/>
    <nd ref="305670922"/>
    <nd ref="305670923"/>
    <nd ref="301228771"/>
    <nd ref="301228772"/>
    <nd ref="301228773"/>
    <nd ref="301228774"/>
    <nd ref="301228781"/>
    <nd ref="736465562"/>
    <nd ref="736465644"/>
    <nd ref="301228782"/>
    <nd ref="301228783"/>
    <nd ref="301228784"/>
    <nd ref="301228416"/>
    <tag k="highway" v="secondary"/>
    <tag k="ref" v="MB 10"/>
  </way>
  <way id="34130272" version="5" timestamp="2010-06-09T14:37:18Z" uid="16696" user="Hike39" changeset="4945760">
    <nd ref="32210134"/>
    <nd ref="305670846"/>
    <nd ref="305670850"/>
    <nd ref="305670854"/>
    <nd ref="305670858"/>
    <nd ref="305670862"/>
    <nd ref="305670865"/>
    <nd ref="305670867"/>
    <nd ref="305670870"/>
    <nd ref="305670872"/>
    <nd ref="305670877"/>
    <nd ref="305670880"/>
    <nd ref="305670884"/>
    <nd ref="305670889"/>
    <nd ref="305670893"/>
    <nd ref="305670897"/>
    <nd ref="305670901"/>
    <nd ref="305670906"/>
    <nd ref="305670908"/>
    <nd ref="305670910"/>
    <nd ref="305670912"/>
    <nd ref="305670914"/>
    <nd ref="305670918"/>
    <nd ref="305670920"/>
    <nd ref="305670922"/>
    <nd ref="305670923"/>
    <nd ref="301228771"/>
    <nd ref="301228772"/>
    <nd ref="301228773"/>
    <nd ref="301228774"/>
    <nd ref="301228781"/>
    <tag k="highway" v="secondary"/>
    <tag k="ref" v="MB 10"/>
  </way>
  <way id="34130272" version="6" timestamp="2011-01-15T08:21:49Z" uid="62236" user="Paulchen Panther" changeset="6974292">
    <nd ref="32210134"/>
    <nd ref="305670846"/>
    <nd ref="305670850"/>
    <nd ref="305670854"/>
    <nd ref="305670858"/>
    <nd ref="305670862"/>
    <nd ref="305670865"/>
    <nd ref="305670867"/>
    <nd ref="305670870"/>
    <nd ref="305670872"/>
    <nd ref="305670877"/>
    <nd ref="305670880"/>
    <nd ref="305670884"/>
    <nd ref="1104307466"/>
    <nd ref="305670889"/>
    <nd ref="305670893"/>
    <nd ref="305670897"/>
    <nd ref="305670901"/>
    <nd ref="305670906"/>
    <nd ref="305670908"/>
    <nd ref="305670910"/>
    <nd ref="305670912"/>
    <nd ref="305670914"/>
    <nd ref="305670918"/>
    <nd ref="305670920"/>
    <nd ref="305670922"/>
    <nd ref="305670923"/>
    <nd ref="301228771"/>
    <nd ref="301228772"/>
    <nd ref="301228773"/>
    <nd ref="301228774"/>
    <nd ref="301228781"/>
    <tag k="highway" v="secondary"/>
    <tag k="ref" v="MB 10"/>
  </way>
  <way id="34130272" version="7" timestamp="2011-04-30T22:55:03Z" uid="418282" user="Norbert18" changeset="8016708">
    <nd ref="32210134"/>
    <nd ref="305670846"/>
    <nd ref="305670850"/>
    <nd ref="305670854"/>
    <nd ref="305670858"/>
    <nd ref="305670862"/>
    <nd ref="305670865"/>
    <nd ref="305670867"/>
    <nd ref="305670870"/>
    <nd ref="305670872"/>
    <nd ref="305670877"/>
    <nd ref="305670880"/>
    <nd ref="305670884"/>
    <nd ref="1104307466"/>
    <nd ref="305670889"/>
    <nd ref="305670893"/>
    <nd ref="305670897"/>
    <nd ref="305670906"/>
    <nd ref="305670908"/>
    <nd ref="305670910"/>
    <nd ref="305670912"/>
    <nd ref="305670914"/>
    <nd ref="1268240464"/>
    <nd ref="305670922"/>
    <nd ref="301228771"/>
    <nd ref="301228772"/>
    <nd ref="301228781"/>
    <tag k="highway" v="secondary"/>
    <tag k="ref" v="MB 10"/>
  </way>
  <way id="34130364" version="2" timestamp="2009-10-03T13:56:10Z" uid="179968" user="Ich_hasse_doitsche_OSM-Korinthenkacker" changeset="2724114">
    <nd ref="38421135"/>
    <nd ref="38421136"/>
    <tag k="highway" v="residential"/>
    <tag k="name" v="Am Kleiberg"/>
    <tag k="postal_code" v="38154"/>
  </way>
  <way id="34130642" version="4" timestamp="2010-03-22T06:28:01Z" uid="20587" user="balrog-kun" changeset="4199043">
    <nd ref="391334294"/>
    <nd ref="391334295"/>
    <tag k="created_by" v="JOSM"/>
    <tag k="highway" v="residential"/>
    <tag k="layer" v="-1"/>
    <tag k="name" v="Old Stage Road"/>
    <tag k="tiger:cfcc" v="A41"/>
    <tag k="tiger:name_base" v="Old Stage"/>
    <tag k="tiger:name_type" v="Rd"/>
    <tag k="tiger:reviewed" v="no"/>
    <tag k="tiger:separated" v="no"/>
    <tag k="tiger:source" v="tiger_import_dch_v0.6_20070808"/>
    <tag k="tiger:tlid" v="155497713:155581756:155581757:155497695"/>
    <tag k="tiger:zip_left" v="97525"/>
    <tag k="tiger:zip_right" v="97525"/>
    <tag k="tunnel" v="yes"/>
  </way>
  <way id="34130642" version="5" timestamp="2011-01-02T20:54:54Z" uid="373763" user="ylekot" changeset="6843492"/>
  <way id="34130653" version="2" timestamp="2010-03-22T06:28:02Z" uid="20587" user="balrog-kun" changeset="4199043">
    <nd ref="391334295"/>
    <nd ref="35394252"/>
    <nd ref="35425415"/>
    <nd ref="35446173"/>
    <nd ref="35473829"/>
    <nd ref="35456221"/>
    <nd ref="35531602"/>
    <nd ref="35465934"/>
    <nd ref="35491817"/>
    <nd ref="35476006"/>
    <nd ref="35461270"/>
    <nd ref="35491396"/>
    <tag k="created_by" v="JOSM"/>
    <tag k="highway" v="residential"/>
    <tag k="name" v="Old Stage Road"/>
    <tag k="tiger:cfcc" v="A41"/>
    <tag k="tiger:name_base" v="Old Stage"/>
    <tag k="tiger:name_type" v="Rd"/>
    <tag k="tiger:reviewed" v="no"/>
    <tag k="tiger:separated" v="no"/>
    <tag k="tiger:source" v="tiger_import_dch_v0.6_20070808"/>
    <tag k="tiger:tlid" v="155497713:155581756:155581757:155497695"/>
    <tag k="tiger:zip_left" v="97525"/>
    <tag k="tiger:zip_right" v="97525"/>
  </way>
  <way id="34130653" version="3" timestamp="2011-01-02T20:54:54Z" uid="373763" user="ylekot" changeset="6843492"/>
  <way id="34130812" version="4" timestamp="2010-03-22T06:28:02Z" uid="20587" user="balrog-kun" changeset="4199043">
    <nd ref="391334433"/>
    <nd ref="35636136"/>
    <tag k="bridge" v="yes"/>
    <tag k="created_by" v="JOSM"/>
    <tag k="highway" v="residential"/>
    <tag k="name" v="Main Street"/>
    <tag k="tiger:cfcc" v="A41"/>
    <tag k="tiger:name_base" v="Main"/>
    <tag k="tiger:name_type" v="St"/>
    <tag k="tiger:reviewed" v="no"/>
    <tag k="tiger:separated" v="no"/>
    <tag k="tiger:source" v="tiger_import_dch_v0.6_20070808"/>
    <tag k="tiger:tlid" v="155497156:155581056:155581057:155497153:155608401"/>
  </way>
  <way id="34130812" version="5" timestamp="2010-12-05T19:03:53Z" uid="373763" user="ylekot" changeset="6555039">
    <nd ref="391334433"/>
    <nd ref="35636136"/>
    <tag k="bridge" v="yes"/>
    <tag k="highway" v="primary"/>
    <tag k="name" v="Main Street"/>
    <tag k="tiger:cfcc" v="A41"/>
    <tag k="tiger:name_base" v="Main"/>
    <tag k="tiger:name_type" v="St"/>
    <tag k="tiger:reviewed" v="no"/>
    <tag k="tiger:separated" v="no"/>
    <tag k="tiger:source" v="tiger_import_dch_v0.6_20070808"/>
    <tag k="tiger:tlid" v="155497156:155581056:155581057:155497153:155608401"/>
  </way>
  <way id="34130812" version="6" timestamp="2010-12-22T03:18:00Z" uid="373763" user="ylekot" changeset="6732049">
    <nd ref="391334433"/>
    <nd ref="35636136"/>
    <tag k="bridge" v="yes"/>
    <tag k="highway" v="primary"/>
    <tag k="layer" v="1"/>
    <tag k="name" v="Main Street"/>
    <tag k="ref" v="OR 234"/>
    <tag k="tiger:cfcc" v="A41"/>
    <tag k="tiger:name_base" v="Main"/>
    <tag k="tiger:name_type" v="St"/>
    <tag k="tiger:reviewed" v="no"/>
    <tag k="tiger:separated" v="no"/>
    <tag k="tiger:source" v="tiger_import_dch_v0.6_20070808"/>
    <tag k="tiger:tlid" v="155497156:155581056:155581057:155497153:155608401"/>
  </way>
  <way id="34130812" version="7" timestamp="2011-01-02T21:12:00Z" uid="373763" user="ylekot" changeset="6843694">
    <nd ref="391334433"/>
    <nd ref="35636136"/>
    <tag k="alt_name" v="Rouge River Highway #60"/>
    <tag k="bridge" v="yes"/>
    <tag k="highway" v="primary"/>
    <tag k="layer" v="1"/>
    <tag k="name" v="Rogue River Highway"/>
    <tag k="ref" v="OR 234"/>
    <tag k="tiger:cfcc" v="A41"/>
    <tag k="tiger:name_base" v="Main"/>
    <tag k="tiger:name_type" v="St"/>
    <tag k="tiger:reviewed" v="no"/>
    <tag k="tiger:separated" v="no"/>
    <tag k="tiger:source" v="tiger_import_dch_v0.6_20070808"/>
    <tag k="tiger:tlid" v="155497156:155581056:155581057:155497153:155608401"/>
  </way>
  <way id="34130812" version="8" timestamp="2011-01-02T21:32:44Z" uid="373763" user="ylekot" changeset="6843950">
    <nd ref="391334433"/>
    <nd ref="35636136"/>
    <tag k="alt_name" v="Rouge River Highway #60"/>
    <tag k="bridge" v="yes"/>
    <tag k="highway" v="primary"/>
    <tag k="layer" v="1"/>
    <tag k="name" v="Main Street"/>
    <tag k="ref" v="OR 234"/>
    <tag k="tiger:cfcc" v="A41"/>
    <tag k="tiger:name_base" v="Main"/>
    <tag k="tiger:name_type" v="St"/>
    <tag k="tiger:reviewed" v="no"/>
    <tag k="tiger:separated" v="no"/>
    <tag k="tiger:source" v="tiger_import_dch_v0.6_20070808"/>
    <tag k="tiger:tlid" v="155497156:155581056:155581057:155497153:155608401"/>
  </way>
  <way id="34130812" version="9" timestamp="2011-01-27T04:15:23Z" uid="373763" user="ylekot" changeset="7100173">
    <nd ref="391334433"/>
    <nd ref="35636136"/>
    <tag k="alt_name" v="Rouge River Highway #60 Roadway #1"/>
    <tag k="bridge" v="yes"/>
    <tag k="highway" v="primary"/>
    <tag k="layer" v="1"/>
    <tag k="name" v="Main Street"/>
    <tag k="ref" v="OR 234"/>
    <tag k="tiger:cfcc" v="A41"/>
    <tag k="tiger:name_base" v="Main"/>
    <tag k="tiger:name_type" v="St"/>
    <tag k="tiger:reviewed" v="no"/>
    <tag k="tiger:separated" v="no"/>
    <tag k="tiger:source" v="tiger_import_dch_v0.6_20070808"/>
    <tag k="tiger:tlid" v="155497156:155581056:155581057:155497153:155608401"/>
  </way>
  <way id="34130812" version="10" timestamp="2011-02-21T02:42:37Z" uid="373763" user="ylekot" changeset="7349935">
    <nd ref="391334433"/>
    <nd ref="35636136"/>
    <tag k="alt_name" v="Rouge River Highway #60 Roadway #1"/>
    <tag k="bridge" v="yes"/>
    <tag k="highway" v="primary"/>
    <tag k="layer" v="1"/>
    <tag k="name" v="Rouge River Highway"/>
    <tag k="ref" v="OR 234"/>
    <tag k="tiger:cfcc" v="A41"/>
    <tag k="tiger:name_base" v="Main"/>
    <tag k="tiger:name_type" v="St"/>
    <tag k="tiger:reviewed" v="no"/>
    <tag k="tiger:separated" v="no"/>
    <tag k="tiger:source" v="tiger_import_dch_v0.6_20070808"/>
    <tag k="tiger:tlid" v="155497156:155581056:155581057:155497153:155608401"/>
  </way>
  <way id="34130813" version="2" timestamp="2010-03-22T06:28:02Z" uid="20587" user="balrog-kun" changeset="4199043">
    <nd ref="35636136"/>
    <nd ref="35557368"/>
    <nd ref="35651210"/>
    <tag k="created_by" v="JOSM"/>
    <tag k="highway" v="residential"/>
    <tag k="name" v="Main Street"/>
    <tag k="tiger:cfcc" v="A41"/>
    <tag k="tiger:name_base" v="Main"/>
    <tag k="tiger:name_type" v="St"/>
    <tag k="tiger:reviewed" v="no"/>
    <tag k="tiger:separated" v="no"/>
    <tag k="tiger:source" v="tiger_import_dch_v0.6_20070808"/>
    <tag k="tiger:tlid" v="155497156:155581056:155581057:155497153:155608401"/>
  </way>
  <way id="34130813" version="3" timestamp="2010-12-05T19:03:54Z" uid="373763" user="ylekot" changeset="6555039">
    <nd ref="35636136"/>
    <nd ref="35557368"/>
    <tag k="highway" v="primary"/>
    <tag k="name" v="Main Street"/>
    <tag k="tiger:cfcc" v="A41"/>
    <tag k="tiger:name_base" v="Main"/>
    <tag k="tiger:name_type" v="St"/>
    <tag k="tiger:reviewed" v="no"/>
    <tag k="tiger:separated" v="no"/>
    <tag k="tiger:source" v="tiger_import_dch_v0.6_20070808"/>
    <tag k="tiger:tlid" v="155497156:155581056:155581057:155497153:155608401"/>
  </way>
  <way id="34130813" version="4" timestamp="2010-12-22T03:18:00Z" uid="373763" user="ylekot" changeset="6732049">
    <nd ref="35636136"/>
    <nd ref="35557368"/>
    <tag k="highway" v="primary"/>
    <tag k="name" v="Main Street"/>
    <tag k="ref" v="OR 234"/>
    <tag k="tiger:cfcc" v="A41"/>
    <tag k="tiger:name_base" v="Main"/>
    <tag k="tiger:name_type" v="St"/>
    <tag k="tiger:reviewed" v="no"/>
    <tag k="tiger:separated" v="no"/>
    <tag k="tiger:source" v="tiger_import_dch_v0.6_20070808"/>
    <tag k="tiger:tlid" v="155497156:155581056:155581057:155497153:155608401"/>
  </way>
  <way id="34130813" version="5" timestamp="2011-01-02T21:12:00Z" uid="373763" user="ylekot" changeset="6843694">
    <nd ref="35636136"/>
    <nd ref="35557368"/>
    <tag k="alt_name" v="Rouge River Highway #60"/>
    <tag k="highway" v="primary"/>
    <tag k="name" v="Rogue River Highway"/>
    <tag k="ref" v="OR 234"/>
    <tag k="tiger:cfcc" v="A41"/>
    <tag k="tiger:name_base" v="Main"/>
    <tag k="tiger:name_type" v="St"/>
    <tag k="tiger:reviewed" v="no"/>
    <tag k="tiger:separated" v="no"/>
    <tag k="tiger:source" v="tiger_import_dch_v0.6_20070808"/>
    <tag k="tiger:tlid" v="155497156:155581056:155581057:155497153:155608401"/>
  </way>
  <way id="34130813" version="6" timestamp="2011-01-02T21:32:43Z" uid="373763" user="ylekot" changeset="6843950">
    <nd ref="35636136"/>
    <nd ref="35557368"/>
    <tag k="alt_name" v="Rouge River Highway #60"/>
    <tag k="highway" v="primary"/>
    <tag k="name" v="Main Street"/>
    <tag k="ref" v="OR 234"/>
    <tag k="tiger:cfcc" v="A41"/>
    <tag k="tiger:name_base" v="Main"/>
    <tag k="tiger:name_type" v="St"/>
    <tag k="tiger:reviewed" v="no"/>
    <tag k="tiger:separated" v="no"/>
    <tag k="tiger:source" v="tiger_import_dch_v0.6_20070808"/>
    <tag k="tiger:tlid" v="155497156:155581056:155581057:155497153:155608401"/>
  </way>
  <way id="34130813" version="7" timestamp="2011-01-27T04:15:23Z" uid="373763" user="ylekot" changeset="7100173">
    <nd ref="35636136"/>
    <nd ref="35557368"/>
    <tag k="alt_name" v="Rouge River Highway #60 Roadway #1"/>
    <tag k="highway" v="primary"/>
    <tag k="name" v="Main Street"/>
    <tag k="ref" v="OR 234"/>
    <tag k="tiger:cfcc" v="A41"/>
    <tag k="tiger:name_base" v="Main"/>
    <tag k="tiger:name_type" v="St"/>
    <tag k="tiger:reviewed" v="no"/>
    <tag k="tiger:separated" v="no"/>
    <tag k="tiger:source" v="tiger_import_dch_v0.6_20070808"/>
    <tag k="tiger:tlid" v="155497156:155581056:155581057:155497153:155608401"/>
  </way>
  <way id="34130011" version="8" timestamp="2012-07-19T22:58:45Z" uid="722137" user="OSMF Redaction Account" changeset="12351143"/>
  <way id="34130364" version="3" timestamp="2012-08-13T21:03:15Z" uid="71226" user="Verirrt im Wald" changeset="12719764">
    <nd ref="38421135"/>
    <nd ref="1864901556"/>
    <nd ref="38421136"/>
    <tag k="highway" v="residential"/>
    <tag k="name" v="Am Kleiberg"/>
    <tag k="postal_code" v="38154"/>
  </way>
</osm>
