<?xml version='1.0' encoding='UTF-8'?>
<osm version="0.6" generator="libosmium/2.20.0">
  <way id="34157036" version="4" timestamp="2010-03-22T06:28:03Z" uid="20587" user="balrog-kun" changeset="4199043">
    <nd ref="35410374"/>
    <nd ref="35472919"/>
    <tag k="bridge" v="yes"/>
    <tag k="created_by" v="JOSM"/>
    <tag k="highway" v="residential"/>
    <tag k="name" v="Depot Street"/>
    <tag k="tiger:cfcc" v="A41"/>
    <tag k="tiger:name_base" v="Depot"/>
    <tag k="tiger:name_type" v="St"/>
    <tag k="tiger:reviewed" v="no"/>
    <tag k="tiger:separated" v="no"/>
    <tag k="tiger:source" v="tiger_import_dch_v0.6_20070808"/>
    <tag k="tiger:tlid" v="155605716"/>
  </way>
  <way id="34157036" version="5" timestamp="2011-01-02T23:21:02Z" uid="373763" user="ylekot" changeset="6844973">
    <nd ref="35410374"/>
    <nd ref="35472919"/>
    <tag k="bridge" v="yes"/>
    <tag k="highway" v="tertiary"/>
    <tag k="name" v="Depot Street"/>
    <tag k="tiger:cfcc" v="A41"/>
    <tag k="tiger:name_base" v="Depot"/>
    <tag k="tiger:name_type" v="St"/>
    <tag k="tiger:reviewed" v="no"/>
    <tag k="tiger:separated" v="no"/>
    <tag k="tiger:source" v="tiger_import_dch_v0.6_20070808"/>
    <tag k="tiger:tlid" v="155605716"/>
  </way>
  <way id="34157036" version="6" timestamp="2011-01-02T23:22:57Z" uid="373763" user="ylekot" changeset="6844973">
    <nd ref="35410374"/>
    <nd ref="35472919"/>
    <tag k="alt_name" v="DEPOT ST CONN #060AF "/>
    <tag k="bridge" v="yes"/>
    <tag k="highway" v="tertiary"/>
    <tag k="name" v="Depot Street"/>
    <tag k="tiger:cfcc" v="A41"/>
    <tag k="tiger:name_base" v="Depot"/>
    <tag k="tiger:name_type" v="St"/>
    <tag k="tiger:reviewed" v="no"/>
    <tag k="tiger:separated" v="no"/>
    <tag k="tiger:source" v="tiger_import_dch_v0.6_20070808"/>
    <tag k="tiger:tlid" v="155605716"/>
  </way>
  <way id="34157036" version="7" timestamp="2011-01-03T06:33:45Z" uid="373763" user="ylekot" changeset="6846469">
    <nd ref="35410374"/>
    <nd ref="35472919"/>
    <tag k="alt_name" v="DEPOT ST CONN #060AF "/>
    <tag k="bridge" v="yes"/>
    <tag k="highway" v="secondary"/>
    <tag k="name" v="Depot Street"/>
    <tag k="tiger:cfcc" v="A41"/>
    <tag k="tiger:name_base" v="Depot"/>
    <tag k="tiger:name_type" v="St"/>
    <tag k="tiger:reviewed" v="no"/>
    <tag k="tiger:separated" v="no"/>
    <tag k="tiger:source" v="tiger_import_dch_v0.6_20070808"/>
    <tag k="tiger:tlid" v="155605716"/>
  </way>
  <way id="34157036" version="8" timestamp="2011-01-03T23:08:47Z" uid="70696" user="xybot" changeset="6856059">
    <nd ref="35410374"/>
    <nd ref="35472919"/>
    <tag k="alt_name" v="DEPOT ST CONN #060AF"/>
    <tag k="bridge" v="yes"/>
    <tag k="highway" v="secondary"/>
    <tag k="name" v="Depot Street"/>
    <tag k="tiger:cfcc" v="A41"/>
    <tag k="tiger:name_base" v="Depot"/>
    <tag k="tiger:name_type" v="St"/>
    <tag k="tiger:reviewed" v="no"/>
    <tag k="tiger:separated" v="no"/>
    <tag k="tiger:source" v="tiger_import_dch_v0.6_20070808"/>
    <tag k="tiger:tlid" v="155605716"/>
  </way>
  <way id="34157036" version="9" timestamp="2011-01-05T03:25:31Z" uid="373763" user="ylekot" changeset="6868171">
    <nd ref="35410374"/>
    <nd ref="35472919"/>
    <tag k="alt_name" v=" 060AF DEPOT ST. CONNECTION "/>
    <tag k="bridge" v="yes"/>
    <tag k="highway" v="secondary"/>
    <tag k="name" v="Depot Street"/>
    <tag k="tiger:cfcc" v="A41"/>
    <tag k="tiger:name_base" v="Depot"/>
    <tag k="tiger:name_type" v="St"/>
    <tag k="tiger:reviewed" v="no"/>
    <tag k="tiger:separated" v="no"/>
    <tag k="tiger:source" v="tiger_import_dch_v0.6_20070808"/>
    <tag k="tiger:tlid" v="155605716"/>
  </way>
  <way id="34157036" version="10" timestamp="2011-01-05T20:52:26Z" uid="70696" user="xybot" changeset="6876069">
    <nd ref="35410374"/>
    <nd ref="35472919"/>
    <tag k="alt_name" v="060AF DEPOT ST. CONNECTION"/>
    <tag k="bridge" v="yes"/>
    <tag k="highway" v="secondary"/>
    <tag k="name" v="Depot Street"/>
    <tag k="tiger:cfcc" v="A41"/>
    <tag k="tiger:name_base" v="Depot"/>
    <tag k="tiger:name_type" v="St"/>
    <tag k="tiger:reviewed" v="no"/>
    <tag k="tiger:separated" v="no"/>
    <tag k="tiger:source" v="tiger_import_dch_v0.6_20070808"/>
    <tag k="tiger:tlid" v="155605716"/>
  </way>
  <way id="34157036" version="11" timestamp="2011-01-27T07:10:00Z" uid="373763" user="ylekot" changeset="7100677">
    <nd ref="35410374"/>
    <nd ref="35472919"/>
    <tag k="alt_name" v="Highway #060AF - Depot Street Connection"/>
    <tag k="bridge" v="yes"/>
    <tag k="highway" v="secondary"/>
    <tag k="name" v="Depot Street"/>
    <tag k="tiger:cfcc" v="A41"/>
    <tag k="tiger:name_base" v="Depot"/>
    <tag k="tiger:name_type" v="St"/>
    <tag k="tiger:reviewed" v="no"/>
    <tag k="tiger:separated" v="no"/>
    <tag k="tiger:source" v="tiger_import_dch_v0.6_20070808"/>
    <tag k="tiger:tlid" v="155605716"/>
  </way>
  <way id="34157041" version="2" timestamp="2010-03-22T06:28:03Z" uid="20587" user="balrog-kun" changeset="4199043">
    <nd ref="35472919"/>
    <nd ref="35465434"/>
    <tag k="created_by" v="JOSM"/>
    <tag k="highway" v="residential"/>
    <tag k="name" v="Depot Street"/>
    <tag k="tiger:cfcc" v="A41"/>
    <tag k="tiger:name_base" v="Depot"/>
    <tag k="tiger:name_type" v="St"/>
    <tag k="tiger:reviewed" v="no"/>
    <tag k="tiger:separated" v="no"/>
    <tag k="tiger:source" v="tiger_import_dch_v0.6_20070808"/>
    <tag k="tiger:tlid" v="155605716"/>
  </way>
  <way id="34157041" version="3" timestamp="2011-01-02T23:21:04Z" uid="373763" user="ylekot" changeset="6844973">
    <nd ref="35472919"/>
    <nd ref="35465434"/>
    <tag k="highway" v="tertiary"/>
    <tag k="name" v="Depot Street"/>
    <tag k="tiger:cfcc" v="A41"/>
    <tag k="tiger:name_base" v="Depot"/>
    <tag k="tiger:name_type" v="St"/>
    <tag k="tiger:reviewed" v="no"/>
    <tag k="tiger:separated" v="no"/>
    <tag k="tiger:source" v="tiger_import_dch_v0.6_20070808"/>
    <tag k="tiger:tlid" v="155605716"/>
  </way>
  <way id="34157041" version="4" timestamp="2011-01-02T23:22:57Z" uid="373763" user="ylekot" changeset="6844973">
    <nd ref="35472919"/>
    <nd ref="35465434"/>
    <tag k="alt_name" v="DEPOT ST CONN #060AF "/>
    <tag k="highway" v="tertiary"/>
    <tag k="name" v="Depot Street"/>
    <tag k="tiger:cfcc" v="A41"/>
    <tag k="tiger:name_base" v="Depot"/>
    <tag k="tiger:name_type" v="St"/>
    <tag k="tiger:reviewed" v="no"/>
    <tag k="tiger:separated" v="no"/>
    <tag k="tiger:source" v="tiger_import_dch_v0.6_20070808"/>
    <tag k="tiger:tlid" v="155605716"/>
  </way>
  <way id="34157041" version="5" timestamp="2011-01-03T06:33:45Z" uid="373763" user="ylekot" changeset="6846469">
    <nd ref="35472919"/>
    <nd ref="35465434"/>
    <tag k="alt_name" v="DEPOT ST CONN #060AF "/>
    <tag k="highway" v="secondary"/>
    <tag k="name" v="Depot Street"/>
    <tag k="tiger:cfcc" v="A41"/>
    <tag k="tiger:name_base" v="Depot"/>
    <tag k="tiger:name_type" v="St"/>
    <tag k="tiger:reviewed" v="no"/>
    <tag k="tiger:separated" v="no"/>
    <tag k="tiger:source" v="tiger_import_dch_v0.6_20070808"/>
    <tag k="tiger:tlid" v="155605716"/>
  </way>
  <way id="34157041" version="6" timestamp="2011-01-03T23:08:48Z" uid="70696" user="xybot" changeset="6856059">
    <nd ref="35472919"/>
    <nd ref="35465434"/>
    <tag k="alt_name" v="DEPOT ST CONN #060AF"/>
    <tag k="highway" v="secondary"/>
    <tag k="name" v="Depot Street"/>
    <tag k="tiger:cfcc" v="A41"/>
    <tag k="tiger:name_base" v="Depot"/>
    <tag k="tiger:name_type" v="St"/>
    <tag k="tiger:reviewed" v="no"/>
    <tag k="tiger:separated" v="no"/>
    <tag k="tiger:source" v="tiger_import_dch_v0.6_20070808"/>
    <tag k="tiger:tlid" v="155605716"/>
  </way>
  <way id="34157041" version="7" timestamp="2011-01-05T03:25:31Z" uid="373763" user="ylekot" changeset="6868171">
    <nd ref="35472919"/>
    <nd ref="35465434"/>
    <tag k="alt_name" v=" 060AF DEPOT ST. CONNECTION "/>
    <tag k="highway" v="secondary"/>
    <tag k="name" v="Depot Street"/>
    <tag k="tiger:cfcc" v="A41"/>
    <tag k="tiger:name_base" v="Depot"/>
    <tag k="tiger:name_type" v="St"/>
    <tag k="tiger:reviewed" v="no"/>
    <tag k="tiger:separated" v="no"/>
    <tag k="tiger:source" v="tiger_import_dch_v0.6_20070808"/>
    <tag k="tiger:tlid" v="155605716"/>
  </way>
  <way id="34157041" version="8" timestamp="2011-01-05T20:52:28Z" uid="70696" user="xybot" changeset="6876069">
    <nd ref="35472919"/>
    <nd ref="35465434"/>
    <tag k="alt_name" v="060AF DEPOT ST. CONNECTION"/>
    <tag k="highway" v="secondary"/>
    <tag k="name" v="Depot Street"/>
    <tag k="tiger:cfcc" v="A41"/>
    <tag k="tiger:name_base" v="Depot"/>
    <tag k="tiger:name_type" v="St"/>
    <tag k="tiger:reviewed" v="no"/>
    <tag k="tiger:separated" v="no"/>
    <tag k="tiger:source" v="tiger_import_dch_v0.6_20070808"/>
    <tag k="tiger:tlid" v="155605716"/>
  </way>
  <way id="34157041" version="9" timestamp="2011-01-27T07:10:00Z" uid="373763" user="ylekot" changeset="7100677">
    <nd ref="35472919"/>
    <nd ref="35465434"/>
    <tag k="alt_name" v="Highway #060AF - Depot Street Connection"/>
    <tag k="highway" v="secondary"/>
    <tag k="name" v="Depot Street"/>
    <tag k="tiger:cfcc" v="A41"/>
    <tag k="tiger:name_base" v="Depot"/>
    <tag k="tiger:name_type" v="St"/>
    <tag k="tiger:reviewed" v="no"/>
    <tag k="tiger:separated" v="no"/>
    <tag k="tiger:source" v="tiger_import_dch_v0.6_20070808"/>
    <tag k="tiger:tlid" v="155605716"/>
  </way>
  <way id="34157080" version="1" timestamp="2009-05-07T06:36:58Z" uid="27600" user="Islanit" changeset="1103958">
    <nd ref="285702222"/>
    <nd ref="285702308"/>
    <tag k="created_by" v="Potlatch 0.10b"/>
    <tag k="foot" v="yes"/>
    <tag k="highway" v="footway"/>
  </way>
  <way id="34157080" version="2" timestamp="2009-05-07T06:37:08Z" uid="27600" user="Islanit" changeset="1103958">
    <nd ref="285702222"/>
    <nd ref="285702308"/>
    <tag k="bridge" v="yes"/>
    <tag k="created_by" v="Potlatch 0.10b"/>
    <tag k="foot" v="yes"/>
    <tag k="highway" v="footway"/>
  </way>
  <way id="34157080" version="3" timestamp="2009-08-20T11:58:43Z" uid="12178" user="edwin-ldbg" changeset="2211608"/>
  <way id="34157798" version="3" timestamp="2009-08-07T22:36:13Z" uid="20587" user="balrog-kun" changeset="2070842">
    <nd ref="391782977"/>
    <nd ref="391782978"/>
    <nd ref="391782979"/>
    <nd ref="391782980"/>
    <nd ref="391782977"/>
    <tag k="addr:housename" v="35"/>
    <tag k="addr:street" v="Murawa"/>
    <tag k="building" v="yes"/>
  </way>
  <way id="34157798" version="4" timestamp="2009-08-08T01:32:35Z" uid="20587" user="balrog-kun" changeset="2071289">
    <nd ref="391782977"/>
    <nd ref="391782978"/>
    <nd ref="391782979"/>
    <nd ref="391782980"/>
    <nd ref="391782977"/>
    <tag k="addr:housenumber" v="35"/>
    <tag k="addr:street" v="Murawa"/>
    <tag k="building" v="yes"/>
  </way>
  <way id="34157807" version="3" timestamp="2009-08-07T22:36:12Z" uid="20587" user="balrog-kun" changeset="2070842">
    <nd ref="391783290"/>
    <nd ref="391783291"/>
    <nd ref="391783292"/>
    <nd ref="391783294"/>
    <nd ref="391783290"/>
    <tag k="addr:housename" v="33"/>
    <tag k="addr:street" v="Murawa"/>
    <tag k="building" v="yes"/>
  </way>
  <way id="34157807" version="4" timestamp="2009-08-08T01:32:34Z" uid="20587" user="balrog-kun" changeset="2071289">
    <nd ref="391783290"/>
    <nd ref="391783291"/>
    <nd ref="391783292"/>
    <nd ref="391783294"/>
    <nd ref="391783290"/>
    <tag k="addr:housenumber" v="33"/>
    <tag k="addr:street" v="Murawa"/>
    <tag k="building" v="yes"/>
  </way>
  <way id="34157810" version="3" timestamp="2009-08-07T22:36:11Z" uid="20587" user="balrog-kun" changeset="2070842">
    <nd ref="391783318"/>
    <nd ref="391783319"/>
    <nd ref="391783320"/>
    <nd ref="391783321"/>
    <nd ref="391783322"/>
    <nd ref="391783323"/>
    <nd ref="391783324"/>
    <nd ref="391783325"/>
    <nd ref="391783326"/>
    <nd ref="391783327"/>
    <nd ref="391783318"/>
    <tag k="addr:housename" v="37"/>
    <tag k="addr:street" v="Murawa"/>
    <tag k="building" v="yes"/>
  </way>
  <way id="34157810" version="4" timestamp="2009-08-08T01:32:34Z" uid="20587" user="balrog-kun" changeset="2071289">
    <nd ref="391783318"/>
    <nd ref="391783319"/>
    <nd ref="391783320"/>
    <nd ref="391783321"/>
    <nd ref="391783322"/>
    <nd ref="391783323"/>
    <nd ref="391783324"/>
    <nd ref="391783325"/>
    <nd ref="391783326"/>
    <nd ref="391783327"/>
    <nd ref="391783318"/>
    <tag k="addr:housenumber" v="37"/>
    <tag k="addr:street" v="Murawa"/>
    <tag k="building" v="yes"/>
  </way>
  <way id="34157823" version="3" timestamp="2009-08-07T22:36:13Z" uid="20587" user="balrog-kun" changeset="2070842">
    <nd ref="391783390"/>
    <nd ref="391783391"/>
    <nd ref="391783392"/>
    <nd ref="391783393"/>
    <nd ref="391783394"/>
    <nd ref="391783395"/>
    <nd ref="391783396"/>
    <nd ref="391783397"/>
    <nd ref="391783398"/>
    <nd ref="391783399"/>
    <nd ref="391783390"/>
    <tag k="addr:housename" v="53"/>
    <tag k="addr:street" v="Słowiańska"/>
    <tag k="building" v="yes"/>
  </way>
  <way id="34157823" version="4" timestamp="2009-08-08T01:32:35Z" uid="20587" user="balrog-kun" changeset="2071289">
    <nd ref="391783390"/>
    <nd ref="391783391"/>
    <nd ref="391783392"/>
    <nd ref="391783393"/>
    <nd ref="391783394"/>
    <nd ref="391783395"/>
    <nd ref="391783396"/>
    <nd ref="391783397"/>
    <nd ref="391783398"/>
    <nd ref="391783399"/>
    <nd ref="391783390"/>
    <tag k="addr:housenumber" v="53"/>
    <tag k="addr:street" v="Słowiańska"/>
    <tag k="building" v="yes"/>
  </way>
  <way id="34157824" version="3" timestamp="2009-08-07T22:36:12Z" uid="20587" user="balrog-kun" changeset="2070842">
    <nd ref="391783701"/>
    <nd ref="391783702"/>
    <nd ref="391783703"/>
    <nd ref="391783704"/>
    <nd ref="391783705"/>
    <nd ref="391783706"/>
    <nd ref="391783707"/>
    <nd ref="391783708"/>
    <nd ref="391783709"/>
    <nd ref="391783710"/>
    <nd ref="391783701"/>
    <tag k="addr:housename" v="55"/>
    <tag k="addr:street" v="Słowiańska"/>
    <tag k="building" v="yes"/>
  </way>
  <way id="34157824" version="4" timestamp="2009-08-08T01:32:34Z" uid="20587" user="balrog-kun" changeset="2071289">
    <nd ref="391783701"/>
    <nd ref="391783702"/>
    <nd ref="391783703"/>
    <nd ref="391783704"/>
    <nd ref="391783705"/>
    <nd ref="391783706"/>
    <nd ref="391783707"/>
    <nd ref="391783708"/>
    <nd ref="391783709"/>
    <nd ref="391783710"/>
    <nd ref="391783701"/>
    <tag k="addr:housenumber" v="55"/>
    <tag k="addr:street" v="Słowiańska"/>
    <tag k="building" v="yes"/>
  </way>
  <way id="34157951" version="4" timestamp="2010-07-09T07:38:29Z" uid="74617" user="JohnSmith" changeset="5171412">
    <nd ref="323503940"/>
    <nd ref="391784702"/>
    <nd ref="391784247"/>
    <nd ref="323506852"/>
    <nd ref="323503938"/>
    <nd ref="323503487"/>
    <nd ref="391784248"/>
    <nd ref="391784249"/>
    <nd ref="391784705"/>
    <nd ref="391784709"/>
    <nd ref="391784711"/>
    <tag k="highway" v="residential"/>
    <tag k="maxspeed" v="50"/>
    <tag k="maxspeed:source" v="default residential speed limit in Australia"/>
    <tag k="name" v="Tyres Road"/>
  </way>
  <way id="34157951" version="5" timestamp="2011-03-11T11:12:53Z" uid="4467" user="Rosscoe" changeset="7522271">
    <nd ref="323503940"/>
    <nd ref="391784702"/>
    <nd ref="391784247"/>
    <nd ref="323506852"/>
    <nd ref="323503938"/>
    <nd ref="323503487"/>
    <nd ref="391784248"/>
    <nd ref="391784249"/>
    <nd ref="391784705"/>
    <nd ref="391784709"/>
    <nd ref="391784711"/>
    <tag k="highway" v="residential"/>
    <tag k="maxspeed" v="50"/>
    <tag k="name" v="Tyres Road"/>
    <tag k="source:maxspeed" v="default residential speed limit in Australia"/>
  </way>
  <way id="34157951" version="6" timestamp="2012-01-18T20:50:51Z" uid="147510" user="woodpeck_fixbot" changeset="10431441">
    <nd ref="323503940"/>
    <nd ref="391784702"/>
    <nd ref="391784247"/>
    <nd ref="323506852"/>
    <nd ref="323503938"/>
    <nd ref="323503487"/>
    <nd ref="391784248"/>
    <nd ref="391784249"/>
    <nd ref="391784705"/>
    <nd ref="391784709"/>
    <nd ref="391784711"/>
    <tag k="highway" v="residential"/>
    <tag k="name" v="Tyres Road"/>
    <tag k="source:maxspeed" v="default residential speed limit in Australia"/>
  </way>
  <way id="34157036" version="12" timestamp="2012-09-11T04:13:46Z" uid="97431" user="Dion Dock" changeset="13064570">
    <nd ref="35410374"/>
    <nd ref="35472919"/>
    <tag k="alt_name" v="Highway #060AF - Depot Street Connection"/>
    <tag k="bridge" v="yes"/>
    <tag k="highway" v="secondary"/>
    <tag k="lanes" v="2"/>
    <tag k="layer" v="1"/>
    <tag k="name" v="Depot Street"/>
    <tag k="tiger:cfcc" v="A41"/>
    <tag k="tiger:name_base" v="Depot"/>
    <tag k="tiger:name_type" v="St"/>
    <tag k="tiger:reviewed" v="no"/>
    <tag k="tiger:separated" v="no"/>
    <tag k="tiger:source" v="tiger_import_dch_v0.6_20070808"/>
    <tag k="tiger:tlid" v="155605716"/>
  </way>
  <way id="34157041" version="10" timestamp="2012-08-04T09:49:46Z" uid="135851" user="alexz" changeset="12607334">
    <nd ref="35472919"/>
    <nd ref="35465434"/>
    <nd ref="1851281677"/>
    <tag k="alt_name" v="Highway #060AF - Depot Street Connection"/>
    <tag k="highway" v="secondary"/>
    <tag k="name" v="Depot Street"/>
    <tag k="tiger:cfcc" v="A41"/>
    <tag k="tiger:name_base" v="Depot"/>
    <tag k="tiger:name_type" v="St"/>
    <tag k="tiger:reviewed" v="no"/>
    <tag k="tiger:separated" v="no"/>
    <tag k="tiger:source" v="tiger_import_dch_v0.6_20070808"/>
    <tag k="tiger:tlid" v="155605716"/>
  </way>
  <way id="34157798" version="5" timestamp="2012-07-17T07:35:45Z" uid="722137" user="OSMF Redaction Account" changeset="12259568">
    <nd ref="391782977"/>
    <nd ref="391782978"/>
    <nd ref="391782979"/>
    <nd ref="391782980"/>
    <nd ref="391782977"/>
    <tag k="building" v="yes"/>
  </way>
  <way id="34157798" version="6" timestamp="2012-07-18T02:01:37Z" uid="740427" user="Redaction Account Bugfix" changeset="12274066">
    <nd ref="391782977"/>
    <nd ref="391782978"/>
    <nd ref="391782979"/>
    <nd ref="391782980"/>
    <nd ref="391782977"/>
    <tag k="addr:housenumber" v="35"/>
    <tag k="addr:street" v="Murawa"/>
    <tag k="building" v="yes"/>
  </way>
  <way id="34157807" version="5" timestamp="2012-07-17T07:35:45Z" uid="722137" user="OSMF Redaction Account" changeset="12259568">
    <nd ref="391783290"/>
    <nd ref="391783291"/>
    <nd ref="391783292"/>
    <nd ref="391783294"/>
    <nd ref="391783290"/>
    <tag k="building" v="yes"/>
  </way>
  <way id="34157807" version="6" timestamp="2012-07-18T02:01:37Z" uid="740427" user="Redaction Account Bugfix" changeset="12274066">
    <nd ref="391783290"/>
    <nd ref="391783291"/>
    <nd ref="391783292"/>
    <nd ref="391783294"/>
    <nd ref="391783290"/>
    <tag k="addr:housenumber" v="33"/>
    <tag k="addr:street" v="Murawa"/>
    <tag k="building" v="yes"/>
  </way>
  <way id="34157810" version="5" timestamp="2012-07-17T07:35:45Z" uid="722137" user="OSMF Redaction Account" changeset="12259568">
    <nd ref="391783318"/>
    <nd ref="391783319"/>
    <nd ref="391783320"/>
    <nd ref="391783321"/>
    <nd ref="391783322"/>
    <nd ref="391783323"/>
    <nd ref="391783324"/>
    <nd ref="391783325"/>
    <nd ref="391783326"/>
    <nd ref="391783327"/>
    <nd ref="391783318"/>
    <tag k="building" v="yes"/>
  </way>
  <way id="34157810" version="6" timestamp="2012-07-18T02:01:37Z" uid="740427" user="Redaction Account Bugfix" changeset="12274066">
    <nd ref="391783318"/>
    <nd ref="391783319"/>
    <nd ref="391783320"/>
    <nd ref="391783321"/>
    <nd ref="391783322"/>
    <nd ref="391783323"/>
    <nd ref="391783324"/>
    <nd ref="391783325"/>
    <nd ref="391783326"/>
    <nd ref="391783327"/>
    <nd ref="391783318"/>
    <tag k="addr:housenumber" v="37"/>
    <tag k="addr:street" v="Murawa"/>
    <tag k="building" v="yes"/>
  </way>
  <way id="34157823" version="5" timestamp="2012-07-17T07:35:44Z" uid="722137" user="OSMF Redaction Account" changeset="12259568">
    <nd ref="391783390"/>
    <nd ref="391783391"/>
    <nd ref="391783392"/>
    <nd ref="391783393"/>
    <nd ref="391783394"/>
    <nd ref="391783395"/>
    <nd ref="391783396"/>
    <nd ref="391783397"/>
    <nd ref="391783398"/>
    <nd ref="391783399"/>
    <nd ref="391783390"/>
    <tag k="building" v="yes"/>
  </way>
  <way id="34157823" version="6" timestamp="2012-07-18T02:01:37Z" uid="740427" user="Redaction Account Bugfix" changeset="12274066">
    <nd ref="391783390"/>
    <nd ref="391783391"/>
    <nd ref="391783392"/>
    <nd ref="391783393"/>
    <nd ref="391783394"/>
    <nd ref="391783395"/>
    <nd ref="391783396"/>
    <nd ref="391783397"/>
    <nd ref="391783398"/>
    <nd ref="391783399"/>
    <nd ref="391783390"/>
    <tag k="addr:housenumber" v="53"/>
    <tag k="addr:street" v="Słowiańska"/>
    <tag k="building" v="yes"/>
  </way>
  <way id="34157824" version="5" timestamp="2012-07-17T07:35:44Z" uid="722137" user="OSMF Redaction Account" changeset="12259568">
    <nd ref="391783701"/>
    <nd ref="391783702"/>
    <nd ref="391783703"/>
    <nd ref="391783704"/>
    <nd ref="391783705"/>
    <nd ref="391783706"/>
    <nd ref="391783707"/>
    <nd ref="391783708"/>
    <nd ref="391783709"/>
    <nd ref="391783710"/>
    <nd ref="391783701"/>
    <tag k="building" v="yes"/>
  </way>
  <way id="34157824" version="6" timestamp="2012-07-18T02:01:38Z" uid="740427" user="Redaction Account Bugfix" changeset="12274066">
    <nd ref="391783701"/>
    <nd ref="391783702"/>
    <nd ref="391783703"/>
    <nd ref="391783704"/>
    <nd ref="391783705"/>
    <nd ref="391783706"/>
    <nd ref="391783707"/>
    <nd ref="391783708"/>
    <nd ref="391783709"/>
    <nd ref="391783710"/>
    <nd ref="391783701"/>
    <tag k="addr:housenumber" v="55"/>
    <tag k="addr:street" v="Słowiańska"/>
    <tag k="building" v="yes"/>
  </way>
  <way id="34157951" version="7" timestamp="2012-07-19T13:53:17Z" uid="722137" user="OSMF Redaction Account" changeset="12330543"/>
</osm>
