<?xml version='1.0' encoding='UTF-8'?>
<osm version="0.6" generator="libosmium/2.20.0">
  <way id="34212015" version="5" timestamp="2009-10-14T00:00:40Z" uid="36809" user="pfoten_weg_!_" changeset="2841284">
    <nd ref="344531967"/>
    <nd ref="344531968"/>
    <nd ref="344531969"/>
    <nd ref="392365127"/>
    <nd ref="392365128"/>
    <nd ref="344532236"/>
    <nd ref="344532237"/>
    <nd ref="344532238"/>
    <nd ref="344532239"/>
    <nd ref="344532241"/>
    <nd ref="344532242"/>
    <nd ref="344532243"/>
    <nd ref="344532244"/>
    <tag k="highway" v="secondary"/>
    <tag k="merano:way_id" v="995"/>
    <tag k="name" v="Panoramastraße / Strada Panoramica"/>
    <tag k="name:de" v="Panoramastraße"/>
    <tag k="name:it" v="Strada Panoramica"/>
  </way>
  <way id="34212015" version="6" timestamp="2011-06-08T19:28:03Z" uid="160164" user="mahau" changeset="8382739">
    <nd ref="344531967"/>
    <nd ref="1316448435"/>
    <nd ref="344531968"/>
    <nd ref="344531969"/>
    <nd ref="392365127"/>
    <nd ref="392365128"/>
    <nd ref="344532236"/>
    <nd ref="1316448380"/>
    <nd ref="344532237"/>
    <nd ref="344532238"/>
    <nd ref="344532239"/>
    <nd ref="344532241"/>
    <nd ref="1316448458"/>
    <nd ref="344532242"/>
    <nd ref="344532243"/>
    <nd ref="1316448418"/>
    <nd ref="344532244"/>
    <tag k="highway" v="secondary"/>
    <tag k="merano:way_id" v="995"/>
    <tag k="name" v="Panoramastraße / Strada Panoramica"/>
    <tag k="name:de" v="Panoramastraße"/>
    <tag k="name:it" v="Strada Panoramica"/>
  </way>
  <way id="34212025" version="3" timestamp="2009-10-14T00:00:39Z" uid="36809" user="pfoten_weg_!_" changeset="2841284">
    <nd ref="344531924"/>
    <nd ref="344531961"/>
    <nd ref="344531962"/>
    <nd ref="344531963"/>
    <nd ref="344531964"/>
    <nd ref="344531965"/>
    <nd ref="344531966"/>
    <nd ref="344531967"/>
    <tag k="highway" v="secondary"/>
    <tag k="layer" v="-1"/>
    <tag k="merano:way_id" v="995"/>
    <tag k="name" v="Panoramastraße / Strada Panoramica"/>
    <tag k="name:de" v="Panoramastraße"/>
    <tag k="name:it" v="Strada Panoramica"/>
    <tag k="tunnel" v="yes"/>
  </way>
  <way id="34212031" version="3" timestamp="2009-10-13T23:56:56Z" uid="36809" user="pfoten_weg_!_" changeset="2841284">
    <nd ref="267310896"/>
    <nd ref="344531938"/>
    <nd ref="344531937"/>
    <nd ref="344531936"/>
    <tag k="highway" v="secondary"/>
    <tag k="layer" v="-1"/>
    <tag k="merano:way_id" v="995"/>
    <tag k="name" v="Panoramastraße / Strada Panoramica"/>
    <tag k="name:de" v="Panoramastraße"/>
    <tag k="name:it" v="Strada Panoramica"/>
    <tag k="tunnel" v="yes"/>
  </way>
  <way id="34212031" version="4" timestamp="2011-06-08T19:27:59Z" uid="160164" user="mahau" changeset="8382739">
    <nd ref="267310896"/>
    <nd ref="1316448471"/>
    <nd ref="344531938"/>
    <nd ref="344531937"/>
    <nd ref="344531936"/>
    <tag k="highway" v="secondary"/>
    <tag k="layer" v="-1"/>
    <tag k="merano:way_id" v="995"/>
    <tag k="name" v="Panoramastraße / Strada Panoramica"/>
    <tag k="name:de" v="Panoramastraße"/>
    <tag k="name:it" v="Strada Panoramica"/>
    <tag k="tunnel" v="yes"/>
  </way>
  <way id="34212033" version="3" timestamp="2009-10-13T23:56:55Z" uid="36809" user="pfoten_weg_!_" changeset="2841284">
    <nd ref="344531936"/>
    <nd ref="344531935"/>
    <nd ref="344531934"/>
    <nd ref="392570541"/>
    <nd ref="344531933"/>
    <nd ref="344531932"/>
    <nd ref="344531931"/>
    <nd ref="344531930"/>
    <nd ref="344531929"/>
    <nd ref="344531928"/>
    <tag k="highway" v="secondary"/>
    <tag k="merano:way_id" v="995"/>
    <tag k="name" v="Panoramastraße / Strada Panoramica"/>
    <tag k="name:de" v="Panoramastraße"/>
    <tag k="name:it" v="Strada Panoramica"/>
  </way>
  <way id="34212033" version="4" timestamp="2011-06-08T19:28:08Z" uid="160164" user="mahau" changeset="8382739">
    <nd ref="344531936"/>
    <nd ref="344531935"/>
    <nd ref="344531934"/>
    <nd ref="392570541"/>
    <nd ref="344531933"/>
    <nd ref="344531932"/>
    <nd ref="344531931"/>
    <nd ref="344531930"/>
    <nd ref="344531929"/>
    <nd ref="1316448430"/>
    <nd ref="344531928"/>
    <tag k="highway" v="secondary"/>
    <tag k="merano:way_id" v="995"/>
    <tag k="name" v="Panoramastraße / Strada Panoramica"/>
    <tag k="name:de" v="Panoramastraße"/>
    <tag k="name:it" v="Strada Panoramica"/>
  </way>
  <way id="34212036" version="3" timestamp="2009-10-14T00:00:46Z" uid="36809" user="pfoten_weg_!_" changeset="2841284">
    <nd ref="344531928"/>
    <nd ref="344531927"/>
    <tag k="highway" v="secondary"/>
    <tag k="layer" v="-1"/>
    <tag k="merano:way_id" v="995"/>
    <tag k="name" v="Panoramastraße / Strada Panoramica"/>
    <tag k="name:de" v="Panoramastraße"/>
    <tag k="name:it" v="Strada Panoramica"/>
    <tag k="tunnel" v="yes"/>
  </way>
  <way id="34212038" version="2" timestamp="2009-10-13T23:56:55Z" uid="36809" user="pfoten_weg_!_" changeset="2841284">
    <nd ref="344531927"/>
    <nd ref="344531926"/>
    <nd ref="344531925"/>
    <nd ref="344531924"/>
    <tag k="highway" v="secondary"/>
    <tag k="merano:way_id" v="995"/>
    <tag k="name" v="Panoramastraße / Strada Panoramica"/>
    <tag k="name:de" v="Panoramastraße"/>
    <tag k="name:it" v="Strada Panoramica"/>
  </way>
  <way id="34212040" version="2" timestamp="2009-10-14T00:04:57Z" uid="36809" user="pfoten_weg_!_" changeset="2841284">
    <nd ref="244096317"/>
    <nd ref="244096308"/>
    <nd ref="244096313"/>
    <tag k="highway" v="secondary"/>
    <tag k="merano:way_id" v="995"/>
    <tag k="name" v="Panoramastraße / Strada Panoramica"/>
    <tag k="name:de" v="Panoramastraße"/>
    <tag k="name:it" v="Strada Panoramica"/>
    <tag k="tunnel" v="yes"/>
  </way>
  <way id="34212043" version="2" timestamp="2009-10-13T23:54:36Z" uid="36809" user="pfoten_weg_!_" changeset="2841284">
    <nd ref="244096313"/>
    <nd ref="244096323"/>
    <nd ref="244096322"/>
    <nd ref="244096366"/>
    <nd ref="244096360"/>
    <nd ref="244096371"/>
    <nd ref="244096310"/>
    <nd ref="244096369"/>
    <nd ref="244096347"/>
    <nd ref="244096342"/>
    <nd ref="244096351"/>
    <nd ref="244096349"/>
    <nd ref="244096355"/>
    <nd ref="244096353"/>
    <nd ref="244096354"/>
    <nd ref="244096701"/>
    <nd ref="244095984"/>
    <nd ref="244095974"/>
    <nd ref="244095972"/>
    <nd ref="244095977"/>
    <nd ref="244095967"/>
    <nd ref="244095965"/>
    <nd ref="244095971"/>
    <nd ref="244096233"/>
    <nd ref="244095939"/>
    <nd ref="244096240"/>
    <nd ref="244096243"/>
    <nd ref="244096423"/>
    <nd ref="244095994"/>
    <nd ref="244095988"/>
    <nd ref="244095993"/>
    <nd ref="244095981"/>
    <nd ref="244096013"/>
    <nd ref="244096011"/>
    <nd ref="244096001"/>
    <nd ref="244096007"/>
    <nd ref="244096400"/>
    <tag k="highway" v="secondary"/>
    <tag k="merano:way_id" v="995"/>
    <tag k="name" v="Panoramastraße / Strada Panoramica"/>
    <tag k="name:de" v="Panoramastraße"/>
    <tag k="name:it" v="Strada Panoramica"/>
  </way>
  <way id="34212043" version="3" timestamp="2010-01-31T14:28:13Z" uid="122327" user="werthtobi" changeset="3759577">
    <nd ref="244096313"/>
    <nd ref="244096323"/>
    <nd ref="244096322"/>
    <nd ref="244096366"/>
    <nd ref="244096360"/>
    <nd ref="244096371"/>
    <nd ref="244096310"/>
    <nd ref="244096369"/>
    <nd ref="244096347"/>
    <nd ref="244096342"/>
    <nd ref="244096351"/>
    <nd ref="244096349"/>
    <nd ref="244096355"/>
    <nd ref="244096353"/>
    <nd ref="244096354"/>
    <nd ref="244096701"/>
    <nd ref="244095984"/>
    <nd ref="244095974"/>
    <nd ref="244095972"/>
    <nd ref="244095977"/>
    <nd ref="244095967"/>
    <nd ref="244095965"/>
    <nd ref="624042084"/>
    <nd ref="244095971"/>
    <nd ref="244096233"/>
    <nd ref="244095939"/>
    <nd ref="244096240"/>
    <nd ref="244096243"/>
    <nd ref="244096423"/>
    <nd ref="244095994"/>
    <nd ref="244095988"/>
    <nd ref="244095993"/>
    <nd ref="244095981"/>
    <nd ref="244096013"/>
    <nd ref="244096011"/>
    <nd ref="244096001"/>
    <nd ref="244096007"/>
    <nd ref="244096400"/>
    <tag k="highway" v="secondary"/>
    <tag k="merano:way_id" v="995"/>
    <tag k="name" v="Panoramastraße / Strada Panoramica"/>
    <tag k="name:de" v="Panoramastraße"/>
    <tag k="name:it" v="Strada Panoramica"/>
  </way>
  <way id="34212043" version="4" timestamp="2011-06-08T19:28:05Z" uid="160164" user="mahau" changeset="8382739">
    <nd ref="244096313"/>
    <nd ref="1316448403"/>
    <nd ref="244096323"/>
    <nd ref="244096322"/>
    <nd ref="244096366"/>
    <nd ref="244096360"/>
    <nd ref="244096371"/>
    <nd ref="244096310"/>
    <nd ref="244096369"/>
    <nd ref="244096347"/>
    <nd ref="244096342"/>
    <nd ref="244096351"/>
    <nd ref="244096349"/>
    <nd ref="244096355"/>
    <nd ref="244096353"/>
    <nd ref="244096354"/>
    <nd ref="244096701"/>
    <nd ref="244095984"/>
    <nd ref="244095974"/>
    <nd ref="244095972"/>
    <nd ref="244095977"/>
    <nd ref="244095967"/>
    <nd ref="244095965"/>
    <nd ref="624042084"/>
    <nd ref="244095971"/>
    <nd ref="244096233"/>
    <nd ref="244095939"/>
    <nd ref="244096240"/>
    <nd ref="244096243"/>
    <nd ref="244096423"/>
    <nd ref="244095994"/>
    <nd ref="244095988"/>
    <nd ref="244095993"/>
    <nd ref="244095981"/>
    <nd ref="244096013"/>
    <nd ref="244096011"/>
    <nd ref="244096001"/>
    <nd ref="244096007"/>
    <nd ref="244096400"/>
    <tag k="highway" v="secondary"/>
    <tag k="merano:way_id" v="995"/>
    <tag k="name" v="Panoramastraße / Strada Panoramica"/>
    <tag k="name:de" v="Panoramastraße"/>
    <tag k="name:it" v="Strada Panoramica"/>
  </way>
  <way id="34212056" version="2" timestamp="2009-11-28T16:36:35Z" uid="9581" user="Lobelt" changeset="3237686">
    <nd ref="304818158"/>
    <nd ref="304818159"/>
    <nd ref="304818160"/>
    <nd ref="304818161"/>
    <nd ref="304818307"/>
    <nd ref="304818309"/>
    <nd ref="304818310"/>
    <nd ref="304818312"/>
    <nd ref="304818313"/>
    <nd ref="304818315"/>
    <nd ref="304818316"/>
    <nd ref="573423754"/>
    <nd ref="573423753"/>
    <nd ref="573423752"/>
    <tag k="highway" v="residential"/>
    <tag k="name" v="Gneuser Straße"/>
  </way>
  <way id="34212056" version="3" timestamp="2012-02-11T09:21:01Z" uid="212079" user="atz" changeset="10650518"/>
  <way id="34212089" version="2" timestamp="2009-10-18T10:32:29Z" uid="36809" user="pfoten_weg_!_" changeset="2881738">
    <nd ref="271409940"/>
    <nd ref="392366046"/>
    <tag k="highway" v="unclassified"/>
    <tag k="width" v="4"/>
  </way>
  <way id="34212089" version="3" timestamp="2009-12-09T19:28:21Z" uid="189353" user="RettungsElch" changeset="3336264">
    <nd ref="271409940"/>
    <nd ref="392366046"/>
    <tag k="highway" v="service"/>
    <tag k="width" v="4"/>
  </way>
  <way id="34212089" version="4" timestamp="2011-01-23T17:56:40Z" uid="278964" user="locked" changeset="7064825">
    <nd ref="271409940"/>
    <nd ref="1117234905"/>
    <nd ref="1117234907"/>
    <nd ref="392366046"/>
    <tag k="highway" v="service"/>
    <tag k="width" v="4"/>
  </way>
  <way id="34212089" version="5" timestamp="2011-03-31T21:28:44Z" uid="417684" user="Maler" changeset="7728390">
    <nd ref="271409940"/>
    <nd ref="1117234903"/>
    <nd ref="1117234905"/>
    <nd ref="1117234907"/>
    <nd ref="1117234901"/>
    <nd ref="392366046"/>
    <tag k="highway" v="service"/>
    <tag k="width" v="4"/>
  </way>
  <way id="34212089" version="6" timestamp="2011-03-31T21:40:58Z" uid="417684" user="Maler" changeset="7728390">
    <nd ref="1227252664"/>
    <nd ref="1227252674"/>
    <nd ref="1227252673"/>
    <nd ref="1227252658"/>
    <nd ref="1227252643"/>
    <nd ref="271409940"/>
    <tag k="highway" v="service"/>
    <tag k="oneway" v="no"/>
    <tag k="service" v="parking_aisle"/>
  </way>
  <way id="34212089" version="7" timestamp="2011-08-21T20:00:57Z" uid="278964" user="locked" changeset="9088184">
    <nd ref="1227252664"/>
    <nd ref="1227252674"/>
    <nd ref="1227252673"/>
    <nd ref="1227252658"/>
    <tag k="highway" v="service"/>
    <tag k="oneway" v="no"/>
    <tag k="service" v="parking_aisle"/>
  </way>
  <way id="34212894" version="3" timestamp="2009-08-02T07:09:37Z" uid="9581" user="Lobelt" changeset="2010429">
    <nd ref="414084750"/>
    <nd ref="392374515"/>
    <nd ref="392374516"/>
    <nd ref="392374517"/>
    <nd ref="454094388"/>
    <tag k="bicycle" v="yes"/>
    <tag k="foot" v="yes"/>
    <tag k="highway" v="cycleway"/>
  </way>
  <way id="34212894" version="4" timestamp="2009-09-25T21:01:47Z" uid="142422" user="BIGTH" changeset="2628064">
    <nd ref="414084750"/>
    <nd ref="392374515"/>
    <nd ref="507943085"/>
    <nd ref="507943087"/>
    <nd ref="392374516"/>
    <nd ref="507943091"/>
    <nd ref="507943094"/>
    <nd ref="507943097"/>
    <nd ref="392374517"/>
    <nd ref="454094388"/>
    <tag k="bicycle" v="yes"/>
    <tag k="foot" v="yes"/>
    <tag k="highway" v="cycleway"/>
  </way>
  <way id="34212894" version="5" timestamp="2010-06-26T10:04:55Z" uid="142422" user="BIGTH" changeset="5079750">
    <nd ref="790922099"/>
    <nd ref="790922100"/>
    <nd ref="790922102"/>
    <nd ref="790922104"/>
    <nd ref="790922105"/>
    <nd ref="790922107"/>
    <nd ref="790922108"/>
    <nd ref="790922109"/>
    <nd ref="414084750"/>
    <nd ref="392374515"/>
    <nd ref="507943085"/>
    <nd ref="507943087"/>
    <nd ref="392374516"/>
    <nd ref="507943091"/>
    <nd ref="507943094"/>
    <nd ref="507943097"/>
    <nd ref="392374517"/>
    <nd ref="454094388"/>
    <tag k="bicycle" v="yes"/>
    <tag k="foot" v="yes"/>
    <tag k="highway" v="cycleway"/>
  </way>
  <way id="34212894" version="6" timestamp="2010-10-14T21:31:02Z" uid="28748" user="frief" changeset="6043285">
    <nd ref="790922099"/>
    <nd ref="790922100"/>
    <nd ref="790922102"/>
    <nd ref="790922104"/>
    <nd ref="790922105"/>
    <nd ref="790922107"/>
    <nd ref="948855401"/>
    <nd ref="790922108"/>
    <nd ref="790922109"/>
    <nd ref="414084750"/>
    <nd ref="392374515"/>
    <nd ref="507943085"/>
    <nd ref="507943087"/>
    <nd ref="392374516"/>
    <nd ref="507943091"/>
    <nd ref="507943094"/>
    <nd ref="507943097"/>
    <nd ref="392374517"/>
    <nd ref="454094388"/>
    <tag k="bicycle" v="yes"/>
    <tag k="foot" v="yes"/>
    <tag k="highway" v="cycleway"/>
  </way>
  <way id="34212015" version="7" timestamp="2012-06-09T09:30:37Z" uid="115612" user="tyr_asd" changeset="11842927">
    <nd ref="344531967"/>
    <nd ref="1316448435"/>
    <nd ref="1781382871"/>
    <nd ref="344531968"/>
    <nd ref="344531969"/>
    <nd ref="392365127"/>
    <nd ref="392365128"/>
    <nd ref="344532236"/>
    <nd ref="1316448380"/>
    <nd ref="344532237"/>
    <nd ref="344532238"/>
    <nd ref="344532239"/>
    <nd ref="344532241"/>
    <nd ref="1316448458"/>
    <nd ref="344532242"/>
    <nd ref="344532243"/>
    <nd ref="1316448418"/>
    <nd ref="1781382880"/>
    <nd ref="344532244"/>
    <tag k="highway" v="secondary"/>
    <tag k="merano:way_id" v="995"/>
    <tag k="name" v="Panoramastraße / Strada Panoramica"/>
    <tag k="name:de" v="Panoramastraße"/>
    <tag k="name:it" v="Strada Panoramica"/>
  </way>
  <way id="34212015" version="8" timestamp="2012-07-16T12:20:39Z" uid="722137" user="OSMF Redaction Account" changeset="12244035">
    <nd ref="344531967"/>
    <nd ref="1316448435"/>
    <nd ref="1781382871"/>
    <nd ref="344531968"/>
    <nd ref="392365127"/>
    <nd ref="392365128"/>
    <nd ref="344532236"/>
    <nd ref="1316448380"/>
    <nd ref="344532237"/>
    <nd ref="344532238"/>
    <nd ref="344532239"/>
    <nd ref="344532241"/>
    <nd ref="1316448458"/>
    <nd ref="344532242"/>
    <nd ref="344532243"/>
    <nd ref="1316448418"/>
    <nd ref="1781382880"/>
    <nd ref="344532244"/>
    <tag k="highway" v="secondary"/>
    <tag k="merano:way_id" v="995"/>
    <tag k="name" v="Panoramastraße / Strada Panoramica"/>
    <tag k="name:de" v="Panoramastraße"/>
    <tag k="name:it" v="Strada Panoramica"/>
  </way>
  <way id="34212025" version="4" timestamp="2012-07-16T12:20:39Z" uid="722137" user="OSMF Redaction Account" changeset="12244035">
    <nd ref="344531924"/>
    <nd ref="344531966"/>
    <nd ref="344531967"/>
    <tag k="highway" v="secondary"/>
    <tag k="layer" v="-1"/>
    <tag k="merano:way_id" v="995"/>
    <tag k="name" v="Panoramastraße / Strada Panoramica"/>
    <tag k="name:de" v="Panoramastraße"/>
    <tag k="name:it" v="Strada Panoramica"/>
    <tag k="tunnel" v="yes"/>
  </way>
  <way id="34212033" version="5" timestamp="2012-07-16T12:20:38Z" uid="722137" user="OSMF Redaction Account" changeset="12244035">
    <nd ref="344531936"/>
    <nd ref="344531935"/>
    <nd ref="344531934"/>
    <nd ref="392570541"/>
    <nd ref="344531933"/>
    <nd ref="344531932"/>
    <nd ref="344531931"/>
    <nd ref="344531930"/>
    <nd ref="1316448430"/>
    <tag k="highway" v="secondary"/>
    <tag k="merano:way_id" v="995"/>
    <tag k="name" v="Panoramastraße / Strada Panoramica"/>
    <tag k="name:de" v="Panoramastraße"/>
    <tag k="name:it" v="Strada Panoramica"/>
  </way>
  <way id="34212033" version="6" timestamp="2012-07-17T13:28:50Z" uid="115612" user="tyr_asd" changeset="12266538">
    <nd ref="344531936"/>
    <nd ref="344531935"/>
    <nd ref="344531934"/>
    <nd ref="392570541"/>
    <nd ref="344531933"/>
    <nd ref="344531932"/>
    <nd ref="344531931"/>
    <nd ref="344531930"/>
    <nd ref="1828589694"/>
    <nd ref="1316448430"/>
    <nd ref="1781382913"/>
    <tag k="highway" v="secondary"/>
    <tag k="merano:way_id" v="995"/>
    <tag k="name" v="Panoramastraße / Strada Panoramica"/>
    <tag k="name:de" v="Panoramastraße"/>
    <tag k="name:it" v="Strada Panoramica"/>
  </way>
  <way id="34212036" version="4" timestamp="2012-06-09T09:30:37Z" uid="115612" user="tyr_asd" changeset="11842927">
    <nd ref="344531928"/>
    <nd ref="1781382913"/>
    <nd ref="344531927"/>
    <tag k="highway" v="secondary"/>
    <tag k="layer" v="-1"/>
    <tag k="merano:way_id" v="995"/>
    <tag k="name" v="Panoramastraße / Strada Panoramica"/>
    <tag k="name:de" v="Panoramastraße"/>
    <tag k="name:it" v="Strada Panoramica"/>
    <tag k="tunnel" v="yes"/>
  </way>
  <way id="34212036" version="5" timestamp="2012-07-16T12:20:38Z" uid="722137" user="OSMF Redaction Account" changeset="12244035">
    <nd ref="1781382913"/>
    <nd ref="344531927"/>
    <tag k="highway" v="secondary"/>
    <tag k="layer" v="-1"/>
    <tag k="merano:way_id" v="995"/>
    <tag k="name" v="Panoramastraße / Strada Panoramica"/>
    <tag k="name:de" v="Panoramastraße"/>
    <tag k="name:it" v="Strada Panoramica"/>
    <tag k="tunnel" v="yes"/>
  </way>
  <way id="34212038" version="3" timestamp="2012-06-09T09:30:37Z" uid="115612" user="tyr_asd" changeset="11842927">
    <nd ref="344531927"/>
    <nd ref="1781382911"/>
    <nd ref="344531926"/>
    <nd ref="344531925"/>
    <nd ref="344531924"/>
    <tag k="highway" v="secondary"/>
    <tag k="merano:way_id" v="995"/>
    <tag k="name" v="Panoramastraße / Strada Panoramica"/>
    <tag k="name:de" v="Panoramastraße"/>
    <tag k="name:it" v="Strada Panoramica"/>
  </way>
  <way id="34212038" version="4" timestamp="2012-07-16T12:20:38Z" uid="722137" user="OSMF Redaction Account" changeset="12244035">
    <nd ref="344531927"/>
    <nd ref="1781382911"/>
    <nd ref="344531926"/>
    <nd ref="344531924"/>
    <tag k="highway" v="secondary"/>
    <tag k="merano:way_id" v="995"/>
    <tag k="name" v="Panoramastraße / Strada Panoramica"/>
    <tag k="name:de" v="Panoramastraße"/>
    <tag k="name:it" v="Strada Panoramica"/>
  </way>
  <way id="34212043" version="5" timestamp="2012-04-04T18:44:13Z" uid="31075" user="wieland" changeset="11180347">
    <nd ref="244096313"/>
    <nd ref="1316448403"/>
    <nd ref="244096323"/>
    <nd ref="244096322"/>
    <nd ref="244096366"/>
    <nd ref="244096360"/>
    <nd ref="244096371"/>
    <nd ref="244096310"/>
    <nd ref="244096369"/>
    <nd ref="244096347"/>
    <nd ref="244096342"/>
    <nd ref="244096351"/>
    <nd ref="244096349"/>
    <nd ref="244096355"/>
    <nd ref="244096353"/>
    <nd ref="244096354"/>
    <nd ref="244096701"/>
    <nd ref="244095984"/>
    <nd ref="244095974"/>
    <nd ref="244095972"/>
    <nd ref="244095977"/>
    <nd ref="244095967"/>
    <nd ref="244095965"/>
    <nd ref="624042084"/>
    <nd ref="244095971"/>
    <nd ref="244096233"/>
    <nd ref="244095939"/>
    <nd ref="244096240"/>
    <nd ref="244096243"/>
    <nd ref="244096423"/>
    <nd ref="1701418099"/>
    <nd ref="244095994"/>
    <nd ref="244095988"/>
    <nd ref="244095993"/>
    <nd ref="244095981"/>
    <nd ref="244096013"/>
    <nd ref="244096011"/>
    <nd ref="244096001"/>
    <nd ref="244096007"/>
    <nd ref="244096400"/>
    <tag k="highway" v="secondary"/>
    <tag k="merano:way_id" v="995"/>
    <tag k="name" v="Panoramastraße / Strada Panoramica"/>
    <tag k="name:de" v="Panoramastraße"/>
    <tag k="name:it" v="Strada Panoramica"/>
  </way>
  <way id="34212043" version="6" timestamp="2012-07-17T13:27:10Z" uid="115612" user="tyr_asd" changeset="12266505">
    <nd ref="244096313"/>
    <nd ref="1316448403"/>
    <nd ref="244096323"/>
    <nd ref="244096322"/>
    <nd ref="244096366"/>
    <nd ref="244096360"/>
    <nd ref="244096371"/>
    <nd ref="244096310"/>
    <nd ref="244096369"/>
    <nd ref="244096347"/>
    <nd ref="244096342"/>
    <nd ref="244096351"/>
    <nd ref="244096349"/>
    <nd ref="244096355"/>
    <nd ref="244096353"/>
    <nd ref="244096354"/>
    <nd ref="244096701"/>
    <nd ref="244095984"/>
    <nd ref="244095974"/>
    <nd ref="244095972"/>
    <nd ref="244095977"/>
    <nd ref="244095967"/>
    <nd ref="244095965"/>
    <nd ref="624042084"/>
    <nd ref="244095971"/>
    <nd ref="244096233"/>
    <nd ref="244095939"/>
    <nd ref="244096240"/>
    <nd ref="244096243"/>
    <nd ref="244096423"/>
    <nd ref="1701418099"/>
    <nd ref="244095994"/>
    <nd ref="244095988"/>
    <nd ref="244095993"/>
    <nd ref="244095981"/>
    <nd ref="244096013"/>
    <nd ref="244096011"/>
    <nd ref="244096001"/>
    <nd ref="244096007"/>
    <nd ref="244096400"/>
    <nd ref="392570618"/>
    <nd ref="244096395"/>
    <nd ref="244096393"/>
    <nd ref="244096391"/>
    <nd ref="244096390"/>
    <nd ref="244096115"/>
    <nd ref="244096111"/>
    <nd ref="244096107"/>
    <nd ref="244096105"/>
    <nd ref="267310834"/>
    <nd ref="267310835"/>
    <nd ref="267310836"/>
    <nd ref="267310837"/>
    <nd ref="267310838"/>
    <nd ref="267310839"/>
    <nd ref="267310840"/>
    <nd ref="267310841"/>
    <nd ref="267310842"/>
    <nd ref="267310843"/>
    <nd ref="267310844"/>
    <nd ref="267310845"/>
    <nd ref="267310846"/>
    <nd ref="267310848"/>
    <nd ref="267310849"/>
    <nd ref="267310850"/>
    <nd ref="267310851"/>
    <nd ref="267310852"/>
    <nd ref="267310853"/>
    <nd ref="267310854"/>
    <nd ref="392570598"/>
    <nd ref="267310857"/>
    <nd ref="267310859"/>
    <nd ref="267310860"/>
    <nd ref="267310861"/>
    <nd ref="267310863"/>
    <nd ref="267310864"/>
    <nd ref="267310866"/>
    <nd ref="267310867"/>
    <nd ref="267310868"/>
    <nd ref="267310869"/>
    <nd ref="267310870"/>
    <nd ref="267310871"/>
    <nd ref="267310873"/>
    <nd ref="267310874"/>
    <nd ref="267310875"/>
    <nd ref="267310876"/>
    <nd ref="267310877"/>
    <nd ref="267310878"/>
    <nd ref="267310879"/>
    <nd ref="267310880"/>
    <nd ref="267310881"/>
    <nd ref="267310882"/>
    <nd ref="267310883"/>
    <nd ref="267310884"/>
    <nd ref="267310885"/>
    <nd ref="267310886"/>
    <nd ref="267310887"/>
    <nd ref="267310889"/>
    <nd ref="267310890"/>
    <nd ref="267310891"/>
    <nd ref="267310892"/>
    <nd ref="267310894"/>
    <nd ref="267310895"/>
    <nd ref="267310896"/>
    <tag k="highway" v="secondary"/>
    <tag k="merano:way_id" v="995"/>
    <tag k="name" v="Panoramastraße / Strada Panoramica"/>
    <tag k="name:de" v="Panoramastraße"/>
    <tag k="name:it" v="Strada Panoramica"/>
  </way>
  <way id="34212894" version="7" timestamp="2012-05-02T08:29:20Z" uid="165061" user="mapper999" changeset="11477090">
    <nd ref="790922099"/>
    <nd ref="790922100"/>
    <nd ref="1738041066"/>
    <nd ref="790922102"/>
    <nd ref="790922104"/>
    <nd ref="790922105"/>
    <nd ref="790922107"/>
    <nd ref="1738040985"/>
    <nd ref="790922108"/>
    <nd ref="790922109"/>
    <nd ref="414084750"/>
    <nd ref="1738040974"/>
    <nd ref="507943085"/>
    <nd ref="507943087"/>
    <nd ref="1738041005"/>
    <nd ref="1738041012"/>
    <nd ref="392374516"/>
    <nd ref="507943091"/>
    <nd ref="507943094"/>
    <nd ref="507943097"/>
    <nd ref="392374517"/>
    <nd ref="454094388"/>
    <tag k="bicycle" v="yes"/>
    <tag k="foot" v="yes"/>
    <tag k="highway" v="cycleway"/>
  </way>
  <way id="34212894" version="8" timestamp="2012-05-03T18:01:45Z" uid="165061" user="mapper999" changeset="11491066">
    <nd ref="790922099"/>
    <nd ref="790922100"/>
    <nd ref="1738041066"/>
    <nd ref="790922102"/>
    <nd ref="1739466949"/>
    <nd ref="790922104"/>
    <nd ref="1739466937"/>
    <nd ref="1739466928"/>
    <nd ref="790922105"/>
    <nd ref="790922107"/>
    <nd ref="1738040985"/>
    <nd ref="1739466904"/>
    <nd ref="790922108"/>
    <nd ref="1739466892"/>
    <nd ref="1739466889"/>
    <nd ref="790922109"/>
    <nd ref="414084750"/>
    <nd ref="1738040974"/>
    <nd ref="507943085"/>
    <nd ref="507943087"/>
    <nd ref="1738041005"/>
    <nd ref="1738041012"/>
    <nd ref="392374516"/>
    <nd ref="507943091"/>
    <nd ref="507943094"/>
    <nd ref="507943097"/>
    <nd ref="1739466996"/>
    <nd ref="1739466999"/>
    <nd ref="392374517"/>
    <nd ref="1739467021"/>
    <nd ref="1739467032"/>
    <nd ref="1739467045"/>
    <nd ref="454094388"/>
    <tag k="bicycle" v="yes"/>
    <tag k="foot" v="yes"/>
    <tag k="highway" v="cycleway"/>
  </way>
  <way id="34212894" version="9" timestamp="2012-07-17T08:15:38Z" uid="722137" user="OSMF Redaction Account" changeset="12260244">
    <nd ref="790922099"/>
    <nd ref="790922100"/>
    <nd ref="1738041066"/>
    <nd ref="790922102"/>
    <nd ref="1739466949"/>
    <nd ref="790922104"/>
    <nd ref="1739466937"/>
    <nd ref="1739466928"/>
    <nd ref="790922105"/>
    <nd ref="790922107"/>
    <nd ref="1738040985"/>
    <nd ref="1739466904"/>
    <nd ref="790922108"/>
    <nd ref="1739466892"/>
    <nd ref="1739466889"/>
    <nd ref="790922109"/>
    <nd ref="414084750"/>
    <nd ref="1738040974"/>
    <nd ref="507943085"/>
    <nd ref="507943087"/>
    <nd ref="1738041005"/>
    <nd ref="1738041012"/>
    <nd ref="392374516"/>
    <nd ref="507943091"/>
    <nd ref="507943094"/>
    <nd ref="507943097"/>
    <nd ref="1739466996"/>
    <nd ref="1739466999"/>
    <nd ref="392374517"/>
    <nd ref="1739467021"/>
    <nd ref="1739467032"/>
    <nd ref="1739467045"/>
    <tag k="bicycle" v="yes"/>
    <tag k="foot" v="yes"/>
    <tag k="highway" v="cycleway"/>
  </way>
</osm>
