<?xml version='1.0' encoding='UTF-8'?>
<osm version="0.6" generator="libosmium/2.20.0">
  <way id="34231000" version="1" timestamp="2009-05-09T06:49:58Z" uid="7617" user="Franc" changeset="1124060">
    <nd ref="392560171"/>
    <nd ref="392560172"/>
    <nd ref="392560173"/>
    <tag k="highway" v="service"/>
    <tag k="source" v="survey"/>
  </way>
  <way id="34231000" version="2" timestamp="2009-11-14T12:04:36Z" uid="117890" user="Jonathan Trott" changeset="3112508">
    <nd ref="392560171"/>
    <nd ref="392560172"/>
    <nd ref="392560173"/>
    <tag k="highway" v="service"/>
    <tag k="source" v="survey"/>
  </way>
  <way id="34231000" version="3" timestamp="2010-11-07T10:58:55Z" uid="7617" user="Franc" changeset="6310020">
    <nd ref="392560171"/>
    <nd ref="392560172"/>
    <nd ref="392560173"/>
    <tag k="fixme:sign:no" v="2010-11-07"/>
    <tag k="highway" v="service"/>
    <tag k="source" v="survey"/>
  </way>
  <way id="34231001" version="1" timestamp="2009-05-09T06:49:58Z" uid="7617" user="Franc" changeset="1124060">
    <nd ref="392560170"/>
    <nd ref="392560171"/>
    <nd ref="253471873"/>
    <tag k="highway" v="service"/>
    <tag k="name" v="Ridge Place"/>
    <tag k="source" v="survey"/>
  </way>
  <way id="34231001" version="2" timestamp="2009-11-14T12:08:40Z" uid="117890" user="Jonathan Trott" changeset="3112508">
    <nd ref="392560170"/>
    <nd ref="392560171"/>
    <nd ref="253471873"/>
    <tag k="highway" v="service"/>
    <tag k="name" v="Ridge Place"/>
    <tag k="source" v="survey"/>
  </way>
  <way id="34231001" version="3" timestamp="2011-02-11T07:19:42Z" uid="389517" user="good2010" changeset="7252467">
    <nd ref="392560170"/>
    <nd ref="392560171"/>
    <nd ref="253471873"/>
    <tag k="highway" v="service"/>
    <tag k="maxspeed" v="40"/>
    <tag k="name" v="Ridge Place"/>
    <tag k="source" v="survey"/>
  </way>
  <way id="34231002" version="1" timestamp="2009-05-09T06:49:58Z" uid="7617" user="Franc" changeset="1124060">
    <nd ref="392560181"/>
    <nd ref="392560189"/>
    <nd ref="392560182"/>
    <nd ref="392560183"/>
    <tag k="complete" v="no"/>
    <tag k="highway" v="unclassified"/>
    <tag k="source" v="yahoo"/>
  </way>
  <way id="34231002" version="2" timestamp="2009-11-14T12:10:07Z" uid="117890" user="Jonathan Trott" changeset="3112508">
    <nd ref="392560181"/>
    <nd ref="392560189"/>
    <nd ref="392560182"/>
    <nd ref="392560183"/>
    <tag k="complete" v="no"/>
    <tag k="highway" v="unclassified"/>
    <tag k="source" v="yahoo"/>
  </way>
  <way id="34231002" version="3" timestamp="2010-04-10T12:23:11Z" uid="7617" user="Franc" changeset="4381947"/>
  <way id="34231003" version="1" timestamp="2009-05-09T06:49:58Z" uid="7617" user="Franc" changeset="1124060">
    <nd ref="392560184"/>
    <nd ref="392560185"/>
    <nd ref="392560186"/>
    <nd ref="392560187"/>
    <nd ref="392560188"/>
    <nd ref="392560189"/>
    <tag k="highway" v="service"/>
    <tag k="name" v="Hutchinson Place"/>
    <tag k="source" v="survey"/>
  </way>
  <way id="34231003" version="2" timestamp="2009-11-14T12:10:07Z" uid="117890" user="Jonathan Trott" changeset="3112508">
    <nd ref="392560184"/>
    <nd ref="392560185"/>
    <nd ref="392560186"/>
    <nd ref="392560187"/>
    <nd ref="392560188"/>
    <nd ref="392560189"/>
    <tag k="highway" v="service"/>
    <tag k="name" v="Hutchinson Place"/>
    <tag k="source" v="survey"/>
  </way>
  <way id="34231003" version="3" timestamp="2010-09-07T08:12:22Z" uid="61114" user="Trav" changeset="5705438">
    <nd ref="392560184"/>
    <nd ref="900376199"/>
    <nd ref="392560185"/>
    <nd ref="392560186"/>
    <nd ref="392560187"/>
    <nd ref="392560188"/>
    <nd ref="392560189"/>
    <tag k="highway" v="service"/>
    <tag k="name" v="Hutchinson Place"/>
    <tag k="source" v="survey"/>
  </way>
  <way id="34231003" version="4" timestamp="2011-06-11T06:45:42Z" uid="20949" user="Ebenezer" changeset="8403188">
    <nd ref="392560184"/>
    <nd ref="1319751025"/>
    <nd ref="900376199"/>
    <nd ref="392560185"/>
    <nd ref="392560186"/>
    <nd ref="392560187"/>
    <nd ref="392560188"/>
    <nd ref="392560189"/>
    <tag k="highway" v="service"/>
    <tag k="name" v="Hutchinson Place"/>
    <tag k="source" v="survey"/>
  </way>
  <way id="34231004" version="1" timestamp="2009-05-09T06:49:58Z" uid="7617" user="Franc" changeset="1124060">
    <nd ref="392560190"/>
    <nd ref="392560191"/>
    <nd ref="392560182"/>
    <tag k="highway" v="service"/>
    <tag k="name" v="Sandwell Street"/>
    <tag k="source" v="survey"/>
  </way>
  <way id="34231004" version="2" timestamp="2009-11-14T12:10:07Z" uid="117890" user="Jonathan Trott" changeset="3112508">
    <nd ref="392560190"/>
    <nd ref="392560191"/>
    <nd ref="392560182"/>
    <tag k="highway" v="service"/>
    <tag k="name" v="Sandwell Street"/>
    <tag k="source" v="survey"/>
  </way>
  <way id="34231005" version="1" timestamp="2009-05-09T06:49:59Z" uid="7617" user="Franc" changeset="1124060">
    <nd ref="392560191"/>
    <nd ref="392560192"/>
    <tag k="highway" v="service"/>
    <tag k="name" v="Farnell Street"/>
    <tag k="source" v="survey"/>
  </way>
  <way id="34231005" version="2" timestamp="2009-11-14T12:10:07Z" uid="117890" user="Jonathan Trott" changeset="3112508">
    <nd ref="392560191"/>
    <nd ref="392560192"/>
    <tag k="highway" v="service"/>
    <tag k="name" v="Farnell Street"/>
    <tag k="source" v="survey"/>
  </way>
  <way id="34231005" version="3" timestamp="2011-06-11T06:45:42Z" uid="20949" user="Ebenezer" changeset="8403188">
    <nd ref="392560191"/>
    <nd ref="1319751022"/>
    <nd ref="392560192"/>
    <tag k="highway" v="service"/>
    <tag k="name" v="Farnell Street"/>
    <tag k="source" v="survey"/>
  </way>
  <way id="34231006" version="1" timestamp="2009-05-09T06:49:59Z" uid="7617" user="Franc" changeset="1124060">
    <nd ref="392560195"/>
    <nd ref="392560196"/>
    <tag k="highway" v="residential"/>
    <tag k="name" v="Kendall Street"/>
    <tag k="source" v="survey"/>
  </way>
  <way id="34231006" version="2" timestamp="2009-11-14T12:09:53Z" uid="117890" user="Jonathan Trott" changeset="3112508">
    <nd ref="392560195"/>
    <nd ref="392560196"/>
    <tag k="highway" v="residential"/>
    <tag k="name" v="Kendall Street"/>
    <tag k="source" v="survey"/>
  </way>
  <way id="34231006" version="3" timestamp="2010-07-07T22:09:38Z" uid="74617" user="JohnSmith" changeset="5161069">
    <nd ref="392560195"/>
    <nd ref="392560196"/>
    <tag k="highway" v="residential"/>
    <tag k="maxspeed" v="50"/>
    <tag k="maxspeed:source" v="default residential speed limit in Australia"/>
    <tag k="name" v="Kendall Street"/>
    <tag k="source" v="survey"/>
  </way>
  <way id="34231006" version="4" timestamp="2012-01-18T20:54:14Z" uid="147510" user="woodpeck_fixbot" changeset="10431441">
    <nd ref="392560195"/>
    <nd ref="392560196"/>
    <tag k="highway" v="residential"/>
    <tag k="name" v="Kendall Street"/>
    <tag k="source" v="survey"/>
  </way>
  <way id="34231007" version="1" timestamp="2009-05-09T06:49:59Z" uid="7617" user="Franc" changeset="1124060">
    <nd ref="392560197"/>
    <nd ref="392560198"/>
    <tag k="highway" v="service"/>
    <tag k="name" v="Kendall Lane"/>
    <tag k="source" v="survey"/>
  </way>
  <way id="34231007" version="2" timestamp="2009-11-14T12:09:53Z" uid="117890" user="Jonathan Trott" changeset="3112508">
    <nd ref="392560197"/>
    <nd ref="392560198"/>
    <tag k="highway" v="service"/>
    <tag k="name" v="Kendall Lane"/>
    <tag k="source" v="survey"/>
  </way>
  <way id="34231008" version="1" timestamp="2009-05-09T06:49:59Z" uid="7617" user="Franc" changeset="1124060">
    <nd ref="392560199"/>
    <nd ref="392560200"/>
    <tag k="highway" v="residential"/>
    <tag k="name" v="Chapman Street"/>
    <tag k="source" v="survey"/>
  </way>
  <way id="34231008" version="2" timestamp="2009-11-14T12:09:53Z" uid="117890" user="Jonathan Trott" changeset="3112508">
    <nd ref="392560199"/>
    <nd ref="392560200"/>
    <tag k="highway" v="residential"/>
    <tag k="name" v="Chapman Street"/>
    <tag k="source" v="survey"/>
  </way>
  <way id="34231008" version="3" timestamp="2010-07-07T22:11:26Z" uid="74617" user="JohnSmith" changeset="5161069">
    <nd ref="392560199"/>
    <nd ref="392560200"/>
    <tag k="highway" v="residential"/>
    <tag k="maxspeed" v="50"/>
    <tag k="maxspeed:source" v="default residential speed limit in Australia"/>
    <tag k="name" v="Chapman Street"/>
    <tag k="source" v="survey"/>
  </way>
  <way id="34231008" version="4" timestamp="2012-01-18T20:54:15Z" uid="147510" user="woodpeck_fixbot" changeset="10431441">
    <nd ref="392560199"/>
    <nd ref="392560200"/>
    <tag k="highway" v="residential"/>
    <tag k="name" v="Chapman Street"/>
    <tag k="source" v="survey"/>
  </way>
  <way id="34231009" version="1" timestamp="2009-05-09T06:49:59Z" uid="7617" user="Franc" changeset="1124060">
    <nd ref="392560201"/>
    <nd ref="392560202"/>
    <tag k="highway" v="service"/>
    <tag k="name" v="Chapman Lane"/>
    <tag k="source" v="survey"/>
  </way>
  <way id="34231009" version="2" timestamp="2009-11-14T12:09:53Z" uid="117890" user="Jonathan Trott" changeset="3112508">
    <nd ref="392560201"/>
    <nd ref="392560202"/>
    <tag k="highway" v="service"/>
    <tag k="name" v="Chapman Lane"/>
    <tag k="source" v="survey"/>
  </way>
  <way id="34231010" version="1" timestamp="2009-05-09T06:49:59Z" uid="7617" user="Franc" changeset="1124060">
    <nd ref="392560203"/>
    <nd ref="392560204"/>
    <tag k="highway" v="service"/>
    <tag k="source" v="survey"/>
  </way>
  <way id="34231010" version="2" timestamp="2009-11-14T12:10:06Z" uid="117890" user="Jonathan Trott" changeset="3112508">
    <nd ref="392560203"/>
    <nd ref="392560204"/>
    <tag k="highway" v="service"/>
    <tag k="source" v="survey"/>
  </way>
  <way id="34231011" version="1" timestamp="2009-05-09T06:49:59Z" uid="7617" user="Franc" changeset="1124060">
    <nd ref="392560207"/>
    <nd ref="392560205"/>
    <nd ref="392560206"/>
    <tag k="highway" v="service"/>
    <tag k="name" v="Bennett Place"/>
    <tag k="source" v="survey"/>
  </way>
  <way id="34231011" version="2" timestamp="2009-11-14T12:04:37Z" uid="117890" user="Jonathan Trott" changeset="3112508">
    <nd ref="392560207"/>
    <nd ref="392560205"/>
    <nd ref="392560206"/>
    <tag k="highway" v="service"/>
    <tag k="name" v="Bennett Place"/>
    <tag k="source" v="survey"/>
  </way>
  <way id="34231012" version="1" timestamp="2009-05-09T06:49:59Z" uid="7617" user="Franc" changeset="1124060">
    <nd ref="392560204"/>
    <nd ref="392560205"/>
    <tag k="highway" v="service"/>
    <tag k="name" v="Fanny Place"/>
    <tag k="source" v="survey"/>
  </way>
  <way id="34231012" version="2" timestamp="2009-05-09T06:59:26Z" uid="7617" user="Franc" changeset="1124112">
    <nd ref="392560204"/>
    <nd ref="392560205"/>
    <nd ref="392563349"/>
    <tag k="highway" v="service"/>
    <tag k="name" v="Fanny Place"/>
    <tag k="source" v="survey"/>
  </way>
  <way id="34231012" version="3" timestamp="2009-11-14T12:10:06Z" uid="117890" user="Jonathan Trott" changeset="3112508">
    <nd ref="392560204"/>
    <nd ref="392560205"/>
    <nd ref="392563349"/>
    <tag k="highway" v="service"/>
    <tag k="name" v="Fanny Place"/>
    <tag k="source" v="survey"/>
  </way>
  <way id="34231135" version="1" timestamp="2009-05-09T06:59:25Z" uid="7617" user="Franc" changeset="1124112">
    <nd ref="392563330"/>
    <nd ref="392563333"/>
    <nd ref="392563336"/>
    <tag k="highway" v="pedestrian"/>
  </way>
  <way id="34231135" version="2" timestamp="2009-11-14T12:10:06Z" uid="117890" user="Jonathan Trott" changeset="3112508">
    <nd ref="392563330"/>
    <nd ref="392563333"/>
    <nd ref="392563336"/>
    <tag k="highway" v="pedestrian"/>
  </way>
  <way id="34231136" version="1" timestamp="2009-05-09T06:59:25Z" uid="7617" user="Franc" changeset="1124112">
    <nd ref="392563338"/>
    <nd ref="392563340"/>
    <tag k="highway" v="unclassified"/>
    <tag k="source" v="yahoo"/>
  </way>
  <way id="34231136" version="2" timestamp="2009-11-14T12:10:04Z" uid="117890" user="Jonathan Trott" changeset="3112508">
    <nd ref="392563338"/>
    <nd ref="392563340"/>
    <tag k="highway" v="unclassified"/>
    <tag k="source" v="yahoo"/>
  </way>
  <way id="34231136" version="3" timestamp="2010-09-07T08:12:21Z" uid="61114" user="Trav" changeset="5705438">
    <nd ref="392563338"/>
    <nd ref="392563340"/>
    <tag k="highway" v="unclassified"/>
    <tag k="name" v="Nichols Street"/>
    <tag k="source" v="yahoo"/>
    <tag k="source:name" v="survey"/>
  </way>
  <way id="34231136" version="4" timestamp="2011-06-11T06:45:43Z" uid="20949" user="Ebenezer" changeset="8403188">
    <nd ref="392563338"/>
    <nd ref="1319751016"/>
    <nd ref="392563340"/>
    <tag k="highway" v="unclassified"/>
    <tag k="name" v="Nichols Street"/>
    <tag k="source" v="yahoo"/>
    <tag k="source:name" v="survey"/>
  </way>
  <way id="34231137" version="1" timestamp="2009-05-09T06:59:25Z" uid="7617" user="Franc" changeset="1124112">
    <nd ref="392563343"/>
    <nd ref="392563346"/>
    <nd ref="392560181"/>
    <tag k="highway" v="unclassified"/>
    <tag k="source" v="yahoo"/>
  </way>
  <way id="34231137" version="2" timestamp="2009-11-14T12:10:04Z" uid="117890" user="Jonathan Trott" changeset="3112508">
    <nd ref="392563343"/>
    <nd ref="392563346"/>
    <nd ref="392560181"/>
    <tag k="highway" v="unclassified"/>
    <tag k="source" v="yahoo"/>
  </way>
  <way id="34231137" version="3" timestamp="2010-04-10T12:23:07Z" uid="7617" user="Franc" changeset="4381947">
    <nd ref="392563343"/>
    <nd ref="392563346"/>
    <nd ref="392560181"/>
    <nd ref="392560189"/>
    <nd ref="392560182"/>
    <nd ref="392560183"/>
    <tag k="highway" v="unclassified"/>
    <tag k="source" v="yahoo"/>
  </way>
  <way id="34231137" version="4" timestamp="2010-09-07T08:12:21Z" uid="61114" user="Trav" changeset="5705438">
    <nd ref="392563343"/>
    <nd ref="392563346"/>
    <nd ref="392560181"/>
    <nd ref="392560189"/>
    <nd ref="392560182"/>
    <nd ref="392560183"/>
    <tag k="highway" v="unclassified"/>
    <tag k="name" v="Hutchinson Street"/>
    <tag k="source" v="yahoo"/>
    <tag k="source:name" v=""/>
  </way>
  <way id="34231137" version="5" timestamp="2010-09-07T19:55:25Z" uid="70696" user="xybot" changeset="5711424">
    <nd ref="392563343"/>
    <nd ref="392563346"/>
    <nd ref="392560181"/>
    <nd ref="392560189"/>
    <nd ref="392560182"/>
    <nd ref="392560183"/>
    <tag k="highway" v="unclassified"/>
    <tag k="name" v="Hutchinson Street"/>
    <tag k="source" v="yahoo"/>
  </way>
  <way id="34231137" version="6" timestamp="2011-06-11T06:45:43Z" uid="20949" user="Ebenezer" changeset="8403188">
    <nd ref="392563343"/>
    <nd ref="392563346"/>
    <nd ref="392560181"/>
    <nd ref="392560189"/>
    <nd ref="392560182"/>
    <nd ref="1319751017"/>
    <nd ref="392560183"/>
    <tag k="highway" v="unclassified"/>
    <tag k="name" v="Hutchinson Street"/>
    <tag k="source" v="yahoo"/>
  </way>
  <way id="34231138" version="1" timestamp="2009-05-09T06:59:25Z" uid="7617" user="Franc" changeset="1124112">
    <nd ref="392563351"/>
    <nd ref="392563354"/>
    <tag k="highway" v="pedestrian"/>
    <tag k="name" v="Phelps Lane"/>
    <tag k="source" v="survey"/>
  </way>
  <way id="34231138" version="2" timestamp="2009-11-14T12:04:35Z" uid="117890" user="Jonathan Trott" changeset="3112508">
    <nd ref="392563351"/>
    <nd ref="392563354"/>
    <tag k="highway" v="pedestrian"/>
    <tag k="name" v="Phelps Lane"/>
    <tag k="source" v="survey"/>
  </way>
  <way id="34231139" version="1" timestamp="2009-05-09T06:59:25Z" uid="7617" user="Franc" changeset="1124112">
    <nd ref="392563364"/>
    <nd ref="392563366"/>
    <nd ref="392563369"/>
    <nd ref="392563373"/>
    <nd ref="392563364"/>
    <tag k="amenity" v="school"/>
    <tag k="name" v="Bourke Street Public School"/>
  </way>
  <way id="34231139" version="2" timestamp="2009-11-14T12:04:35Z" uid="117890" user="Jonathan Trott" changeset="3112508">
    <nd ref="392563364"/>
    <nd ref="392563366"/>
    <nd ref="392563369"/>
    <nd ref="392563373"/>
    <nd ref="392563364"/>
    <tag k="amenity" v="school"/>
    <tag k="name" v="Bourke Street Public School"/>
  </way>
  <way id="34231230" version="1" timestamp="2009-05-09T07:03:05Z" uid="61114" user="Trav" changeset="1124131">
    <nd ref="161585651"/>
    <nd ref="161595585"/>
    <tag k="highway" v="footway"/>
    <tag k="source" v="approximation"/>
  </way>
  <way id="34231230" version="2" timestamp="2009-10-12T18:54:33Z" uid="104101" user="swanilli" changeset="2829542">
    <nd ref="161585651"/>
    <nd ref="161595585"/>
    <tag k="highway" v="path"/>
    <tag k="source" v="approximation"/>
  </way>
  <way id="34231230" version="3" timestamp="2009-10-13T04:20:27Z" uid="104101" user="swanilli" changeset="2832319">
    <nd ref="161585651"/>
    <nd ref="161595585"/>
    <tag k="foot" v="yes"/>
    <tag k="highway" v="path"/>
    <tag k="source" v="approximation"/>
  </way>
  <way id="34231237" version="1" timestamp="2009-05-09T07:03:08Z" uid="61114" user="Trav" changeset="1124131">
    <nd ref="161573735"/>
    <nd ref="161591872"/>
    <nd ref="161569998"/>
    <nd ref="161587487"/>
    <nd ref="161594944"/>
    <tag k="highway" v="residential"/>
    <tag k="name" v="The Circle"/>
    <tag k="source:name" v="survey"/>
  </way>
  <way id="34231237" version="2" timestamp="2010-07-07T23:25:38Z" uid="74617" user="JohnSmith" changeset="5162525">
    <nd ref="161573735"/>
    <nd ref="161591872"/>
    <nd ref="161569998"/>
    <nd ref="161587487"/>
    <nd ref="161594944"/>
    <tag k="highway" v="residential"/>
    <tag k="maxspeed" v="50"/>
    <tag k="maxspeed:source" v="default residential speed limit in Australia"/>
    <tag k="name" v="The Circle"/>
    <tag k="source:name" v="survey"/>
  </way>
  <way id="34231237" version="3" timestamp="2012-01-18T20:54:17Z" uid="147510" user="woodpeck_fixbot" changeset="10431441">
    <nd ref="161573735"/>
    <nd ref="161591872"/>
    <nd ref="161569998"/>
    <nd ref="161587487"/>
    <nd ref="161594944"/>
    <tag k="highway" v="residential"/>
    <tag k="name" v="The Circle"/>
    <tag k="source:name" v="survey"/>
  </way>
  <way id="34231238" version="1" timestamp="2009-05-09T07:03:13Z" uid="61114" user="Trav" changeset="1124131">
    <nd ref="161575198"/>
    <nd ref="161569751"/>
    <nd ref="161576147"/>
    <nd ref="161592715"/>
    <nd ref="161576470"/>
    <nd ref="161587111"/>
    <nd ref="161575363"/>
    <nd ref="161593133"/>
    <nd ref="161590208"/>
    <nd ref="161576301"/>
    <tag k="highway" v="residential"/>
    <tag k="name" v="Wollombi Road"/>
    <tag k="source:name" v="survey"/>
  </way>
  <way id="34231238" version="2" timestamp="2010-07-07T23:24:45Z" uid="74617" user="JohnSmith" changeset="5162525">
    <nd ref="161575198"/>
    <nd ref="161569751"/>
    <nd ref="161576147"/>
    <nd ref="161592715"/>
    <nd ref="161576470"/>
    <nd ref="161587111"/>
    <nd ref="161575363"/>
    <nd ref="161593133"/>
    <nd ref="161590208"/>
    <nd ref="161576301"/>
    <tag k="highway" v="residential"/>
    <tag k="maxspeed" v="50"/>
    <tag k="maxspeed:source" v="default residential speed limit in Australia"/>
    <tag k="name" v="Wollombi Road"/>
    <tag k="source:name" v="survey"/>
  </way>
  <way id="34231238" version="3" timestamp="2012-01-18T20:54:18Z" uid="147510" user="woodpeck_fixbot" changeset="10431441">
    <nd ref="161575198"/>
    <nd ref="161569751"/>
    <nd ref="161576147"/>
    <nd ref="161592715"/>
    <nd ref="161576470"/>
    <nd ref="161587111"/>
    <nd ref="161575363"/>
    <nd ref="161593133"/>
    <nd ref="161590208"/>
    <nd ref="161576301"/>
    <tag k="highway" v="residential"/>
    <tag k="name" v="Wollombi Road"/>
    <tag k="source:name" v="survey"/>
  </way>
  <way id="34231240" version="3" timestamp="2011-04-12T16:24:09Z" uid="4467" user="Rosscoe" changeset="7844178">
    <nd ref="325595020"/>
    <nd ref="392565672"/>
    <nd ref="1242120732"/>
    <nd ref="392565673"/>
    <tag k="highway" v="secondary"/>
    <tag k="name" v="Station Lane"/>
    <tag k="ref" v="C507"/>
  </way>
  <way id="34231241" version="2" timestamp="2009-11-09T13:56:20Z" uid="4467" user="Rosscoe" changeset="3073572">
    <nd ref="392565673"/>
    <nd ref="392565679"/>
    <tag k="bridge" v="yes"/>
    <tag k="highway" v="tertiary"/>
    <tag k="layer" v="1"/>
  </way>
  <way id="34231241" version="3" timestamp="2010-03-20T23:35:08Z" uid="46482" user="Leon K" changeset="4186106">
    <nd ref="392565673"/>
    <nd ref="392565679"/>
    <tag k="bridge" v="yes"/>
    <tag k="highway" v="secondary"/>
    <tag k="layer" v="1"/>
    <tag k="ref" v="C507"/>
  </way>
  <way id="34231243" version="5" timestamp="2011-04-12T16:24:28Z" uid="4467" user="Rosscoe" changeset="7844178">
    <nd ref="443517466"/>
    <nd ref="392565681"/>
    <nd ref="392565682"/>
    <nd ref="392565680"/>
    <tag k="highway" v="trunk_link"/>
    <tag k="lanes" v="1"/>
    <tag k="name" v="Station Lane Offramp"/>
    <tag k="oneway" v="yes"/>
  </way>
  <way id="34231244" version="5" timestamp="2011-04-12T16:25:03Z" uid="4467" user="Rosscoe" changeset="7844178">
    <nd ref="392565672"/>
    <nd ref="1242121106"/>
    <nd ref="1242121177"/>
    <nd ref="1242121019"/>
    <nd ref="392565683"/>
    <nd ref="392565684"/>
    <nd ref="1242120948"/>
    <nd ref="1242121151"/>
    <tag k="highway" v="trunk_link"/>
    <tag k="lanes" v="1"/>
    <tag k="name" v="Bass Highway Onramp"/>
    <tag k="oneway" v="yes"/>
  </way>
  <way id="34231441" version="3" timestamp="2009-10-13T23:56:53Z" uid="36809" user="pfoten_weg_!_" changeset="2841284">
    <nd ref="344532244"/>
    <nd ref="344532245"/>
    <nd ref="344532246"/>
    <nd ref="392570537"/>
    <tag k="highway" v="secondary"/>
    <tag k="layer" v="-1"/>
    <tag k="merano:way_id" v="995"/>
    <tag k="name" v="Panoramastraße / Strada Panoramica"/>
    <tag k="name:de" v="Panoramastraße"/>
    <tag k="name:it" v="Strada Panoramica"/>
    <tag k="tunnel" v="yes"/>
  </way>
  <way id="34231441" version="4" timestamp="2010-06-12T22:25:38Z" uid="7596" user="ck3d" changeset="4974546">
    <nd ref="344532244"/>
    <nd ref="392570537"/>
    <tag k="highway" v="secondary"/>
    <tag k="layer" v="-1"/>
    <tag k="merano:way_id" v="995"/>
    <tag k="name" v="Panoramastraße / Strada Panoramica"/>
    <tag k="name:de" v="Panoramastraße"/>
    <tag k="name:it" v="Strada Panoramica"/>
    <tag k="tunnel" v="yes"/>
  </way>
  <way id="34231442" version="9" timestamp="2009-10-13T23:56:53Z" uid="36809" user="pfoten_weg_!_" changeset="2841284">
    <nd ref="392570537"/>
    <nd ref="344532249"/>
    <nd ref="344534860"/>
    <nd ref="344532251"/>
    <nd ref="344532253"/>
    <nd ref="344532255"/>
    <nd ref="344532258"/>
    <nd ref="344532260"/>
    <nd ref="344532261"/>
    <nd ref="394510062"/>
    <nd ref="344532263"/>
    <nd ref="344532265"/>
    <nd ref="344532267"/>
    <nd ref="398885930"/>
    <tag k="highway" v="secondary"/>
    <tag k="merano:way_id" v="995"/>
    <tag k="name" v="Panoramastraße / Strada Panoramica"/>
    <tag k="name:de" v="Panoramastraße"/>
    <tag k="name:it" v="Strada Panoramica"/>
  </way>
  <way id="34231442" version="10" timestamp="2010-06-12T22:25:40Z" uid="7596" user="ck3d" changeset="4974546">
    <nd ref="392570537"/>
    <nd ref="344532249"/>
    <nd ref="344534860"/>
    <nd ref="344532251"/>
    <nd ref="770687485"/>
    <nd ref="344532253"/>
    <nd ref="344532255"/>
    <nd ref="344532258"/>
    <nd ref="344532261"/>
    <nd ref="394510062"/>
    <nd ref="344532263"/>
    <nd ref="344532265"/>
    <nd ref="344532267"/>
    <nd ref="398885930"/>
    <tag k="highway" v="secondary"/>
    <tag k="merano:way_id" v="995"/>
    <tag k="name" v="Panoramastraße / Strada Panoramica"/>
    <tag k="name:de" v="Panoramastraße"/>
    <tag k="name:it" v="Strada Panoramica"/>
    <tag k="ref" v="SP98"/>
  </way>
  <way id="34231442" version="11" timestamp="2011-06-08T19:28:06Z" uid="160164" user="mahau" changeset="8382739">
    <nd ref="392570537"/>
    <nd ref="344532249"/>
    <nd ref="344534860"/>
    <nd ref="344532251"/>
    <nd ref="770687485"/>
    <nd ref="344532253"/>
    <nd ref="344532255"/>
    <nd ref="344532258"/>
    <nd ref="344532261"/>
    <nd ref="1316448397"/>
    <nd ref="394510062"/>
    <nd ref="344532263"/>
    <nd ref="344532265"/>
    <nd ref="344532267"/>
    <nd ref="398885930"/>
    <tag k="highway" v="secondary"/>
    <tag k="merano:way_id" v="995"/>
    <tag k="name" v="Panoramastraße / Strada Panoramica"/>
    <tag k="name:de" v="Panoramastraße"/>
    <tag k="name:it" v="Strada Panoramica"/>
    <tag k="ref" v="SP98"/>
  </way>
  <way id="34231442" version="12" timestamp="2011-08-15T18:17:25Z" uid="134523" user="peter_s" changeset="9029787">
    <nd ref="392570537"/>
    <nd ref="344532249"/>
    <nd ref="344534860"/>
    <nd ref="344532251"/>
    <nd ref="770687485"/>
    <nd ref="344532253"/>
    <nd ref="344532255"/>
    <nd ref="344532258"/>
    <nd ref="1400110841"/>
    <tag k="highway" v="secondary"/>
    <tag k="merano:way_id" v="995"/>
    <tag k="name" v="Panoramastraße / Strada Panoramica"/>
    <tag k="name:de" v="Panoramastraße"/>
    <tag k="name:it" v="Strada Panoramica"/>
    <tag k="ref" v="SP98"/>
  </way>
  <way id="34231513" version="1" timestamp="2009-05-09T07:18:46Z" uid="61114" user="Trav" changeset="1124238">
    <nd ref="392574558"/>
    <nd ref="392574559"/>
    <nd ref="392574560"/>
    <nd ref="392574561"/>
    <nd ref="392574562"/>
    <nd ref="392574563"/>
    <nd ref="392574564"/>
    <nd ref="392574565"/>
    <nd ref="392574566"/>
    <nd ref="392574567"/>
    <nd ref="392574572"/>
    <nd ref="392574573"/>
    <nd ref="392574574"/>
    <nd ref="392574575"/>
    <nd ref="392574576"/>
    <nd ref="392574577"/>
    <nd ref="392574578"/>
    <nd ref="392574579"/>
    <tag k="highway" v="residential"/>
    <tag k="name" v="Hansford Parade"/>
    <tag k="note" v="FIXME: Sign says &quot;Hansford Parade&quot; at one end and &quot;Hansford Road&quot; at the other, which is it? or where is the boundary"/>
    <tag k="source" v="survey"/>
    <tag k="source:name" v="survey"/>
  </way>
  <way id="34231513" version="2" timestamp="2010-03-05T08:06:42Z" uid="7617" user="Franc" changeset="4038666">
    <nd ref="392574558"/>
    <nd ref="392574559"/>
    <nd ref="392574560"/>
    <nd ref="392574561"/>
    <nd ref="392574562"/>
    <nd ref="392574563"/>
    <nd ref="392574564"/>
    <nd ref="660577603"/>
    <nd ref="660577604"/>
    <nd ref="392574565"/>
    <nd ref="392574566"/>
    <nd ref="392574567"/>
    <nd ref="392574572"/>
    <nd ref="392574573"/>
    <nd ref="660577572"/>
    <nd ref="392574574"/>
    <nd ref="392574575"/>
    <nd ref="660577570"/>
    <nd ref="392574576"/>
    <nd ref="392574577"/>
    <nd ref="392574578"/>
    <nd ref="392574579"/>
    <tag k="highway" v="residential"/>
    <tag k="name" v="Hansford Parade"/>
    <tag k="note" v="FIXME: Sign says &quot;Hansford Parade&quot; at one end and &quot;Hansford Road&quot; at the other, which is it? or where is the boundary"/>
    <tag k="source" v="survey"/>
    <tag k="source:name" v="survey"/>
  </way>
  <way id="34231513" version="3" timestamp="2010-07-07T23:26:44Z" uid="74617" user="JohnSmith" changeset="5162525">
    <nd ref="392574558"/>
    <nd ref="392574559"/>
    <nd ref="392574560"/>
    <nd ref="392574561"/>
    <nd ref="392574562"/>
    <nd ref="392574563"/>
    <nd ref="392574564"/>
    <nd ref="660577603"/>
    <nd ref="660577604"/>
    <nd ref="392574565"/>
    <nd ref="392574566"/>
    <nd ref="392574567"/>
    <nd ref="392574572"/>
    <nd ref="392574573"/>
    <nd ref="660577572"/>
    <nd ref="392574574"/>
    <nd ref="392574575"/>
    <nd ref="660577570"/>
    <nd ref="392574576"/>
    <nd ref="392574577"/>
    <nd ref="392574578"/>
    <nd ref="392574579"/>
    <tag k="highway" v="residential"/>
    <tag k="maxspeed" v="50"/>
    <tag k="maxspeed:source" v="default residential speed limit in Australia"/>
    <tag k="name" v="Hansford Parade"/>
    <tag k="note" v="FIXME: Sign says &quot;Hansford Parade&quot; at one end and &quot;Hansford Road&quot; at the other, which is it? or where is the boundary"/>
    <tag k="source" v="survey"/>
    <tag k="source:name" v="survey"/>
  </way>
  <way id="34231513" version="4" timestamp="2012-01-18T20:54:20Z" uid="147510" user="woodpeck_fixbot" changeset="10431441">
    <nd ref="392574558"/>
    <nd ref="392574559"/>
    <nd ref="392574560"/>
    <nd ref="392574561"/>
    <nd ref="392574562"/>
    <nd ref="392574563"/>
    <nd ref="392574564"/>
    <nd ref="660577603"/>
    <nd ref="660577604"/>
    <nd ref="392574565"/>
    <nd ref="392574566"/>
    <nd ref="392574567"/>
    <nd ref="392574572"/>
    <nd ref="392574573"/>
    <nd ref="660577572"/>
    <nd ref="392574574"/>
    <nd ref="392574575"/>
    <nd ref="660577570"/>
    <nd ref="392574576"/>
    <nd ref="392574577"/>
    <nd ref="392574578"/>
    <nd ref="392574579"/>
    <tag k="highway" v="residential"/>
    <tag k="name" v="Hansford Parade"/>
    <tag k="note" v="FIXME: Sign says &quot;Hansford Parade&quot; at one end and &quot;Hansford Road&quot; at the other, which is it? or where is the boundary"/>
    <tag k="source" v="survey"/>
    <tag k="source:name" v="survey"/>
  </way>
  <way id="34231916" version="1" timestamp="2009-05-09T07:29:37Z" uid="7617" user="Franc" changeset="1124329">
    <nd ref="392579430"/>
    <nd ref="392579433"/>
    <nd ref="392579439"/>
    <nd ref="392579435"/>
    <nd ref="392579437"/>
    <tag k="highway" v="service"/>
    <tag k="note" v="I can see soem street hwere on yahoo, then extrapolated"/>
    <tag k="source" v="mixed"/>
  </way>
  <way id="34231916" version="2" timestamp="2009-11-14T12:08:40Z" uid="117890" user="Jonathan Trott" changeset="3112508">
    <nd ref="392579430"/>
    <nd ref="392579433"/>
    <nd ref="392579439"/>
    <nd ref="392579435"/>
    <nd ref="392579437"/>
    <tag k="highway" v="service"/>
    <tag k="note" v="I can see soem street hwere on yahoo, then extrapolated"/>
    <tag k="source" v="mixed"/>
  </way>
  <way id="34231916" version="3" timestamp="2010-11-07T10:58:34Z" uid="7617" user="Franc" changeset="6310020">
    <nd ref="392579430"/>
    <nd ref="392579433"/>
    <nd ref="392579439"/>
    <nd ref="392579435"/>
    <nd ref="392579437"/>
    <tag k="highway" v="service"/>
    <tag k="name" v="Cartmore Lane"/>
    <tag k="source" v="nearmap"/>
    <tag k="source:name" v="survey"/>
  </way>
  <way id="34231934" version="7" timestamp="2010-01-16T19:28:08Z" uid="9581" user="Lobelt" changeset="3634785"/>
  <way id="34231000" version="4" timestamp="2012-07-20T01:04:50Z" uid="722137" user="OSMF Redaction Account" changeset="12354173"/>
  <way id="34231001" version="4" timestamp="2012-07-20T01:04:51Z" uid="722137" user="OSMF Redaction Account" changeset="12354173"/>
  <way id="34231003" version="5" timestamp="2012-07-20T01:05:20Z" uid="722137" user="OSMF Redaction Account" changeset="12354222"/>
  <way id="34231004" version="3" timestamp="2012-07-20T01:05:23Z" uid="722137" user="OSMF Redaction Account" changeset="12354222"/>
  <way id="34231005" version="4" timestamp="2012-07-20T01:05:23Z" uid="722137" user="OSMF Redaction Account" changeset="12354222"/>
  <way id="34231006" version="5" timestamp="2012-07-20T01:05:13Z" uid="722137" user="OSMF Redaction Account" changeset="12354222"/>
  <way id="34231007" version="3" timestamp="2012-07-20T01:05:13Z" uid="722137" user="OSMF Redaction Account" changeset="12354222"/>
  <way id="34231008" version="5" timestamp="2012-07-20T01:05:12Z" uid="722137" user="OSMF Redaction Account" changeset="12354222"/>
  <way id="34231009" version="3" timestamp="2012-07-20T01:05:12Z" uid="722137" user="OSMF Redaction Account" changeset="12354222"/>
  <way id="34231010" version="3" timestamp="2012-07-20T01:05:16Z" uid="722137" user="OSMF Redaction Account" changeset="12354222"/>
  <way id="34231011" version="3" timestamp="2012-07-20T01:05:20Z" uid="722137" user="OSMF Redaction Account" changeset="12354222"/>
  <way id="34231012" version="4" timestamp="2012-07-20T01:05:17Z" uid="722137" user="OSMF Redaction Account" changeset="12354222"/>
  <way id="34231135" version="3" timestamp="2012-07-20T01:05:14Z" uid="722137" user="OSMF Redaction Account" changeset="12354222"/>
  <way id="34231136" version="5" timestamp="2012-07-20T01:05:23Z" uid="722137" user="OSMF Redaction Account" changeset="12354222"/>
  <way id="34231137" version="7" timestamp="2012-07-20T01:05:28Z" uid="722137" user="OSMF Redaction Account" changeset="12354222"/>
  <way id="34231138" version="3" timestamp="2012-07-20T01:05:12Z" uid="722137" user="OSMF Redaction Account" changeset="12354222"/>
  <way id="34231139" version="3" timestamp="2012-07-20T01:04:55Z" uid="722137" user="OSMF Redaction Account" changeset="12354222"/>
  <way id="34231230" version="4" timestamp="2012-07-19T16:19:02Z" uid="722137" user="OSMF Redaction Account" changeset="12338550"/>
  <way id="34231237" version="4" timestamp="2012-07-19T16:02:38Z" uid="722137" user="OSMF Redaction Account" changeset="12337445"/>
  <way id="34231238" version="4" timestamp="2012-07-19T16:02:38Z" uid="722137" user="OSMF Redaction Account" changeset="12337445"/>
  <way id="34231240" version="4" timestamp="2012-07-19T06:48:56Z" uid="722137" user="OSMF Redaction Account" changeset="12310751">
    <nd ref="325595020"/>
    <nd ref="392565672"/>
    <nd ref="392565673"/>
    <tag k="highway" v="secondary"/>
    <tag k="name" v="Station Lane"/>
    <tag k="ref" v="C507"/>
  </way>
  <way id="34231241" version="4" timestamp="2012-07-19T06:48:57Z" uid="722137" user="OSMF Redaction Account" changeset="12310751">
    <nd ref="392565673"/>
    <nd ref="392565679"/>
    <tag k="bridge" v="yes"/>
    <tag k="highway" v="secondary"/>
    <tag k="ref" v="C507"/>
  </way>
  <way id="34231243" version="6" timestamp="2012-07-19T06:48:57Z" uid="722137" user="OSMF Redaction Account" changeset="12310751">
    <nd ref="392565681"/>
    <nd ref="392565682"/>
    <nd ref="392565680"/>
    <tag k="highway" v="trunk_link"/>
    <tag k="lanes" v="1"/>
    <tag k="name" v="Station Lane Offramp"/>
    <tag k="oneway" v="yes"/>
  </way>
  <way id="34231243" version="7" timestamp="2012-07-19T13:12:50Z" uid="46482" user="Leon K" changeset="12328314">
    <nd ref="1830848901"/>
    <nd ref="1830848899"/>
    <nd ref="392565681"/>
    <nd ref="392565682"/>
    <nd ref="392565680"/>
    <tag k="highway" v="trunk_link"/>
    <tag k="lanes" v="1"/>
    <tag k="name" v="Station Lane Offramp"/>
    <tag k="oneway" v="yes"/>
  </way>
  <way id="34231244" version="6" timestamp="2012-07-19T06:48:56Z" uid="722137" user="OSMF Redaction Account" changeset="12310751">
    <nd ref="392565672"/>
    <nd ref="392565683"/>
    <nd ref="392565684"/>
    <tag k="highway" v="trunk_link"/>
    <tag k="lanes" v="1"/>
    <tag k="name" v="Bass Highway Onramp"/>
    <tag k="oneway" v="yes"/>
  </way>
  <way id="34231244" version="7" timestamp="2012-07-19T13:12:50Z" uid="46482" user="Leon K" changeset="12328314">
    <nd ref="392565672"/>
    <nd ref="392565683"/>
    <nd ref="392565684"/>
    <nd ref="1830848904"/>
    <nd ref="443517466"/>
    <tag k="highway" v="trunk_link"/>
    <tag k="lanes" v="1"/>
    <tag k="name" v="Bass Highway Onramp"/>
    <tag k="oneway" v="yes"/>
  </way>
  <way id="34231442" version="13" timestamp="2012-04-18T09:45:58Z" uid="47802" user="gomatteo" changeset="11341920">
    <nd ref="392570537"/>
    <nd ref="344532249"/>
    <nd ref="1721616259"/>
    <nd ref="344534860"/>
    <nd ref="344532251"/>
    <nd ref="770687485"/>
    <nd ref="344532253"/>
    <nd ref="344532255"/>
    <nd ref="344532258"/>
    <nd ref="1400110841"/>
    <tag k="highway" v="secondary"/>
    <tag k="merano:way_id" v="995"/>
    <tag k="name" v="Panoramastraße / Strada Panoramica"/>
    <tag k="name:de" v="Panoramastraße"/>
    <tag k="name:it" v="Strada Panoramica"/>
    <tag k="ref" v="SP98"/>
  </way>
  <way id="34231442" version="14" timestamp="2012-06-09T09:30:36Z" uid="115612" user="tyr_asd" changeset="11842927">
    <nd ref="392570537"/>
    <nd ref="344532249"/>
    <nd ref="1721616259"/>
    <nd ref="344534860"/>
    <nd ref="1781382907"/>
    <nd ref="344532251"/>
    <nd ref="770687485"/>
    <nd ref="344532253"/>
    <nd ref="344532255"/>
    <nd ref="344532258"/>
    <nd ref="1400110841"/>
    <tag k="highway" v="secondary"/>
    <tag k="merano:way_id" v="995"/>
    <tag k="name" v="Panoramastraße / Strada Panoramica"/>
    <tag k="name:de" v="Panoramastraße"/>
    <tag k="name:it" v="Strada Panoramica"/>
    <tag k="ref" v="SP98"/>
  </way>
  <way id="34231513" version="5" timestamp="2012-07-19T16:19:02Z" uid="722137" user="OSMF Redaction Account" changeset="12338550"/>
  <way id="34231916" version="4" timestamp="2012-07-20T01:04:52Z" uid="722137" user="OSMF Redaction Account" changeset="12354173"/>
</osm>
