<?xml version='1.0' encoding='UTF-8'?>
<osm version="0.6" generator="libosmium/2.20.0">
  <way id="34240033" version="2" timestamp="2010-03-23T07:12:03Z" uid="27600" user="Islanit" changeset="4209567">
    <nd ref="392677783"/>
    <nd ref="392677784"/>
    <tag k="covered" v="yes"/>
    <tag k="highway" v="pedestrian"/>
  </way>
  <way id="34240090" version="2" timestamp="2010-10-07T19:59:34Z" uid="9581" user="Lobelt" changeset="5981056">
    <nd ref="392674311"/>
    <nd ref="392678070"/>
    <nd ref="392678071"/>
    <nd ref="392678072"/>
    <tag k="highway" v="residential"/>
    <tag k="name" v="Burgunderstraße"/>
    <tag k="surface" v="paved"/>
  </way>
  <way id="34240090" version="3" timestamp="2011-10-23T14:56:36Z" uid="60824" user="Carsten Güse" changeset="9633821">
    <nd ref="392674311"/>
    <nd ref="1477886734"/>
    <nd ref="1477886723"/>
    <nd ref="1477886719"/>
    <nd ref="1477886717"/>
    <nd ref="1477886712"/>
    <nd ref="1477886709"/>
    <nd ref="1477886706"/>
    <nd ref="1477886688"/>
    <nd ref="392678070"/>
    <nd ref="1477886680"/>
    <nd ref="1477886665"/>
    <nd ref="1477886650"/>
    <nd ref="1477886647"/>
    <nd ref="1477886643"/>
    <nd ref="392678071"/>
    <nd ref="392678072"/>
    <tag k="highway" v="residential"/>
    <tag k="maxspeed" v="30"/>
    <tag k="name" v="Burgunderstraße"/>
    <tag k="surface" v="asphalt"/>
    <tag k="zone:maxspeed" v="DE:30"/>
  </way>
  <way id="34240090" version="4" timestamp="2012-03-26T20:24:15Z" uid="60824" user="Carsten Güse" changeset="11110347">
    <nd ref="392674311"/>
    <nd ref="1477886734"/>
    <nd ref="1477886723"/>
    <nd ref="1477886719"/>
    <nd ref="1477886717"/>
    <nd ref="1477886712"/>
    <nd ref="1477886709"/>
    <nd ref="1477886706"/>
    <nd ref="1477886688"/>
    <nd ref="392678070"/>
    <nd ref="1477886680"/>
    <nd ref="1477886665"/>
    <nd ref="1477886650"/>
    <nd ref="1477886647"/>
    <nd ref="1477886643"/>
    <nd ref="392678071"/>
    <nd ref="1692377459"/>
    <nd ref="392678072"/>
    <tag k="highway" v="residential"/>
    <tag k="maxspeed" v="30"/>
    <tag k="name" v="Burgunderstraße"/>
    <tag k="surface" v="asphalt"/>
    <tag k="zone:maxspeed" v="DE:30"/>
  </way>
  <way id="34240091" version="2" timestamp="2010-02-14T14:26:45Z" uid="9581" user="Lobelt" changeset="3874186">
    <nd ref="639027853"/>
    <nd ref="392678072"/>
    <nd ref="392678073"/>
    <nd ref="392678074"/>
    <nd ref="392678075"/>
    <nd ref="392678076"/>
    <nd ref="392678077"/>
    <nd ref="392678080"/>
    <nd ref="639027854"/>
    <tag k="highway" v="residential"/>
    <tag k="layer" v="0"/>
    <tag k="name" v="Gernotstraße"/>
    <tag k="surface" v="paved"/>
  </way>
  <way id="34240091" version="3" timestamp="2010-10-07T19:59:23Z" uid="9581" user="Lobelt" changeset="5981056">
    <nd ref="639027853"/>
    <nd ref="392678072"/>
    <nd ref="392678073"/>
    <nd ref="392678074"/>
    <nd ref="392678075"/>
    <nd ref="392678076"/>
    <nd ref="392678077"/>
    <nd ref="392678080"/>
    <nd ref="639027854"/>
    <tag k="highway" v="residential"/>
    <tag k="name" v="Gernotstraße"/>
    <tag k="surface" v="paved"/>
  </way>
  <way id="34240091" version="4" timestamp="2011-07-10T20:12:07Z" uid="60824" user="Carsten Güse" changeset="8688009">
    <nd ref="639027853"/>
    <nd ref="392678072"/>
    <nd ref="392678074"/>
    <nd ref="1357034325"/>
    <nd ref="392678077"/>
    <nd ref="392678080"/>
    <nd ref="639027854"/>
    <tag k="highway" v="residential"/>
    <tag k="name" v="Gernotstraße"/>
    <tag k="surface" v="paved"/>
  </way>
  <way id="34240091" version="5" timestamp="2011-10-21T10:30:43Z" uid="60824" user="Carsten Güse" changeset="9615218"/>
  <way id="34240092" version="2" timestamp="2010-02-14T14:26:45Z" uid="9581" user="Lobelt" changeset="3874186">
    <nd ref="388264338"/>
    <nd ref="639027835"/>
    <nd ref="388264340"/>
    <tag k="highway" v="residential"/>
    <tag k="layer" v="0"/>
    <tag k="name" v="Friedensstraße"/>
    <tag k="surface" v="paved"/>
  </way>
  <way id="34240092" version="3" timestamp="2010-10-07T20:00:04Z" uid="9581" user="Lobelt" changeset="5981056">
    <nd ref="388264338"/>
    <nd ref="639027835"/>
    <nd ref="388264340"/>
    <tag k="highway" v="residential"/>
    <tag k="name" v="Friedensstraße"/>
    <tag k="surface" v="paved"/>
  </way>
  <way id="34240092" version="4" timestamp="2011-07-23T14:09:13Z" uid="60824" user="Carsten Güse" changeset="8806654">
    <nd ref="388264338"/>
    <nd ref="1371140989"/>
    <nd ref="1371140996"/>
    <nd ref="639027835"/>
    <nd ref="388264340"/>
    <tag k="highway" v="residential"/>
    <tag k="name" v="Friedensstraße"/>
    <tag k="surface" v="paved"/>
  </way>
  <way id="34240092" version="5" timestamp="2011-10-15T21:36:25Z" uid="60824" user="Carsten Güse" changeset="9567758">
    <nd ref="388264338"/>
    <nd ref="1371140989"/>
    <nd ref="1371140996"/>
    <nd ref="639027835"/>
    <tag k="highway" v="residential"/>
    <tag k="name" v="Friedensstraße"/>
    <tag k="surface" v="paved"/>
  </way>
  <way id="34240093" version="3" timestamp="2010-02-14T14:26:43Z" uid="9581" user="Lobelt" changeset="3874186">
    <nd ref="392678089"/>
    <nd ref="392678090"/>
    <nd ref="392678091"/>
    <nd ref="392678092"/>
    <nd ref="392678089"/>
    <tag k="building" v="yes"/>
  </way>
  <way id="34240093" version="4" timestamp="2011-07-10T19:34:31Z" uid="60824" user="Carsten Güse" changeset="8687643">
    <nd ref="392678089"/>
    <nd ref="392678090"/>
    <nd ref="1356999694"/>
    <nd ref="392678091"/>
    <nd ref="1356999719"/>
    <nd ref="392678092"/>
    <nd ref="392678089"/>
    <tag k="amenity" v="school"/>
    <tag k="building" v="yes"/>
    <tag k="building:levels" v="3"/>
  </way>
  <way id="34240093" version="5" timestamp="2011-07-22T19:11:18Z" uid="60824" user="Carsten Güse" changeset="8800471">
    <nd ref="392678089"/>
    <nd ref="1370375820"/>
    <nd ref="1370375810"/>
    <nd ref="1370375807"/>
    <nd ref="1370375795"/>
    <nd ref="392678090"/>
    <nd ref="1356999694"/>
    <nd ref="392678091"/>
    <nd ref="1356999719"/>
    <nd ref="392678092"/>
    <nd ref="392678089"/>
    <tag k="amenity" v="school"/>
    <tag k="building" v="yes"/>
    <tag k="building:levels" v="3"/>
  </way>
  <way id="34240094" version="3" timestamp="2010-02-14T14:26:44Z" uid="9581" user="Lobelt" changeset="3874186">
    <nd ref="392678094"/>
    <nd ref="392678095"/>
    <nd ref="392678096"/>
    <nd ref="410186278"/>
    <nd ref="392678097"/>
    <nd ref="410186277"/>
    <nd ref="410186276"/>
    <nd ref="410186275"/>
    <nd ref="392678094"/>
    <tag k="building" v="yes"/>
  </way>
  <way id="34240094" version="4" timestamp="2011-07-10T19:34:31Z" uid="60824" user="Carsten Güse" changeset="8687643">
    <nd ref="392678094"/>
    <nd ref="1356999680"/>
    <nd ref="392678095"/>
    <nd ref="1356999638"/>
    <nd ref="392678096"/>
    <nd ref="410186278"/>
    <nd ref="392678097"/>
    <nd ref="410186277"/>
    <nd ref="410186276"/>
    <nd ref="410186275"/>
    <nd ref="1356999626"/>
    <nd ref="1356999630"/>
    <nd ref="392678094"/>
    <tag k="amenity" v="school"/>
    <tag k="building" v="yes"/>
    <tag k="building:levels" v="2"/>
  </way>
  <way id="34240094" version="5" timestamp="2011-07-22T19:11:18Z" uid="60824" user="Carsten Güse" changeset="8800471">
    <nd ref="1370375758"/>
    <nd ref="1356999638"/>
    <nd ref="392678096"/>
    <nd ref="410186278"/>
    <nd ref="392678097"/>
    <nd ref="410186277"/>
    <nd ref="410186276"/>
    <nd ref="410186275"/>
    <nd ref="1356999626"/>
    <nd ref="1356999630"/>
    <nd ref="392678094"/>
    <nd ref="1356999680"/>
    <nd ref="392678095"/>
    <nd ref="1370375776"/>
    <nd ref="1370375785"/>
    <nd ref="1370375791"/>
    <nd ref="1370375798"/>
    <nd ref="1370375787"/>
    <nd ref="1370375784"/>
    <nd ref="1370375771"/>
    <nd ref="1370375774"/>
    <nd ref="1370375766"/>
    <nd ref="1370375760"/>
    <nd ref="1370375765"/>
    <nd ref="1370375758"/>
    <tag k="amenity" v="school"/>
    <tag k="building" v="yes"/>
    <tag k="building:levels" v="3"/>
  </way>
  <way id="34240116" version="3" timestamp="2009-08-31T21:38:18Z" uid="36809" user="pfoten_weg_!_" changeset="2331946">
    <nd ref="21646587"/>
    <nd ref="10258424"/>
    <tag k="highway" v="service"/>
    <tag k="lit" v="yes"/>
    <tag k="oneway" v="no"/>
    <tag k="surface" v="paved"/>
  </way>
  <way id="34240236" version="2" timestamp="2010-02-15T05:21:28Z" uid="74617" user="JohnSmith" changeset="3880269">
    <nd ref="118993082"/>
    <nd ref="392679606"/>
    <tag k="highway" v="residential"/>
    <tag k="maxspeed" v="50"/>
    <tag k="name" v="Laurina Cresent"/>
  </way>
  <way id="34240236" version="3" timestamp="2010-06-10T07:20:48Z" uid="22094" user="Chadzopkyo" changeset="4951696">
    <nd ref="118993082"/>
    <nd ref="392679606"/>
    <tag k="highway" v="residential"/>
    <tag k="maxspeed" v="50"/>
    <tag k="name" v="Laurina Cresent"/>
    <tag k="surface" v="asphalt"/>
  </way>
  <way id="34240236" version="4" timestamp="2012-01-18T20:54:37Z" uid="147510" user="woodpeck_fixbot" changeset="10431441">
    <nd ref="118993082"/>
    <nd ref="392679606"/>
    <tag k="highway" v="residential"/>
    <tag k="name" v="Laurina Cresent"/>
    <tag k="surface" v="asphalt"/>
  </way>
  <way id="34240238" version="2" timestamp="2010-02-15T05:21:26Z" uid="74617" user="JohnSmith" changeset="3880269">
    <nd ref="392679494"/>
    <nd ref="392679492"/>
    <tag k="access" v="private"/>
    <tag k="highway" v="residential"/>
    <tag k="maxspeed" v="50"/>
    <tag k="name" v="Karen Street"/>
  </way>
  <way id="34240238" version="3" timestamp="2012-01-18T20:54:41Z" uid="147510" user="woodpeck_fixbot" changeset="10431441">
    <nd ref="392679494"/>
    <nd ref="392679492"/>
    <tag k="access" v="private"/>
    <tag k="highway" v="residential"/>
    <tag k="name" v="Karen Street"/>
  </way>
  <way id="34240239" version="2" timestamp="2010-02-15T05:21:26Z" uid="74617" user="JohnSmith" changeset="3880269">
    <nd ref="392679480"/>
    <nd ref="392679481"/>
    <tag k="highway" v="residential"/>
    <tag k="maxspeed" v="50"/>
    <tag k="name" v="Leanne Close"/>
  </way>
  <way id="34240239" version="3" timestamp="2012-01-18T20:54:42Z" uid="147510" user="woodpeck_fixbot" changeset="10431441">
    <nd ref="392679480"/>
    <nd ref="392679481"/>
    <tag k="highway" v="residential"/>
    <tag k="name" v="Leanne Close"/>
  </way>
  <way id="34240240" version="2" timestamp="2010-02-15T05:21:49Z" uid="74617" user="JohnSmith" changeset="3880269">
    <nd ref="392679581"/>
    <nd ref="392679586"/>
    <tag k="highway" v="service"/>
    <tag k="maxspeed" v="50"/>
    <tag k="name" v="Woods Close"/>
  </way>
  <way id="34240240" version="3" timestamp="2010-06-10T06:31:40Z" uid="22094" user="Chadzopkyo" changeset="4951462"/>
  <way id="34240242" version="2" timestamp="2010-02-15T05:21:25Z" uid="74617" user="JohnSmith" changeset="3880269">
    <nd ref="143674351"/>
    <nd ref="392679531"/>
    <nd ref="392679529"/>
    <nd ref="392679525"/>
    <nd ref="392679527"/>
    <nd ref="392679528"/>
    <nd ref="392679536"/>
    <tag k="highway" v="residential"/>
    <tag k="maxspeed" v="50"/>
    <tag k="name" v="Bellbird Place"/>
  </way>
  <way id="34240242" version="3" timestamp="2010-06-10T07:26:59Z" uid="22094" user="Chadzopkyo" changeset="4951733">
    <nd ref="143674351"/>
    <nd ref="392679531"/>
    <nd ref="392679529"/>
    <nd ref="768354276"/>
    <nd ref="768354282"/>
    <nd ref="768354286"/>
    <nd ref="768354281"/>
    <nd ref="392679525"/>
    <nd ref="392679527"/>
    <nd ref="768354277"/>
    <nd ref="392679528"/>
    <nd ref="768354283"/>
    <nd ref="392679536"/>
    <tag k="highway" v="residential"/>
    <tag k="maxspeed" v="50"/>
    <tag k="name" v="Bellbird Place"/>
    <tag k="surface" v="asphalt"/>
  </way>
  <way id="34240242" version="4" timestamp="2012-01-18T20:54:44Z" uid="147510" user="woodpeck_fixbot" changeset="10431441">
    <nd ref="143674351"/>
    <nd ref="392679531"/>
    <nd ref="392679529"/>
    <nd ref="768354276"/>
    <nd ref="768354282"/>
    <nd ref="768354286"/>
    <nd ref="768354281"/>
    <nd ref="392679525"/>
    <nd ref="392679527"/>
    <nd ref="768354277"/>
    <nd ref="392679528"/>
    <nd ref="768354283"/>
    <nd ref="392679536"/>
    <tag k="highway" v="residential"/>
    <tag k="name" v="Bellbird Place"/>
    <tag k="surface" v="asphalt"/>
  </way>
  <way id="34240243" version="2" timestamp="2010-02-15T05:21:49Z" uid="74617" user="JohnSmith" changeset="3880269">
    <nd ref="392679602"/>
    <nd ref="392679585"/>
    <nd ref="392679581"/>
    <nd ref="392679579"/>
    <nd ref="392679582"/>
    <tag k="highway" v="residential"/>
    <tag k="maxspeed" v="50"/>
    <tag k="name" v="Woods Close"/>
    <tag k="oneway" v="yes"/>
  </way>
  <way id="34240243" version="3" timestamp="2010-06-10T06:31:39Z" uid="22094" user="Chadzopkyo" changeset="4951462">
    <nd ref="392679602"/>
    <nd ref="768276587"/>
    <nd ref="768276582"/>
    <nd ref="392679585"/>
    <nd ref="768276588"/>
    <nd ref="392679581"/>
    <nd ref="768276585"/>
    <nd ref="768276589"/>
    <nd ref="392679579"/>
    <nd ref="768276580"/>
    <nd ref="392679582"/>
    <tag k="highway" v="residential"/>
    <tag k="name" v="Woods Close"/>
    <tag k="oneway" v="yes"/>
    <tag k="surface" v="asphalt"/>
  </way>
  <way id="34240246" version="2" timestamp="2010-02-15T05:21:28Z" uid="74617" user="JohnSmith" changeset="3880269">
    <nd ref="392679549"/>
    <nd ref="392679547"/>
    <tag k="highway" v="residential"/>
    <tag k="maxspeed" v="50"/>
    <tag k="name" v="Felsche Close"/>
  </way>
  <way id="34240246" version="3" timestamp="2010-06-10T06:59:25Z" uid="22094" user="Chadzopkyo" changeset="4951592">
    <nd ref="392679549"/>
    <nd ref="392679547"/>
    <tag k="highway" v="residential"/>
    <tag k="maxspeed" v="50"/>
    <tag k="name" v="Felsche Close"/>
    <tag k="surface" v="asphalt"/>
  </way>
  <way id="34240246" version="4" timestamp="2012-01-18T20:54:46Z" uid="147510" user="woodpeck_fixbot" changeset="10431441">
    <nd ref="392679549"/>
    <nd ref="392679547"/>
    <tag k="highway" v="residential"/>
    <tag k="name" v="Felsche Close"/>
    <tag k="surface" v="asphalt"/>
  </way>
  <way id="34240247" version="2" timestamp="2010-02-15T05:21:26Z" uid="74617" user="JohnSmith" changeset="3880269">
    <nd ref="392679483"/>
    <nd ref="392679485"/>
    <tag k="access" v="private"/>
    <tag k="highway" v="residential"/>
    <tag k="maxspeed" v="50"/>
    <tag k="name" v="Amanda Street"/>
  </way>
  <way id="34240247" version="3" timestamp="2012-01-18T20:54:47Z" uid="147510" user="woodpeck_fixbot" changeset="10431441">
    <nd ref="392679483"/>
    <nd ref="392679485"/>
    <tag k="access" v="private"/>
    <tag k="highway" v="residential"/>
    <tag k="name" v="Amanda Street"/>
  </way>
  <way id="34240249" version="2" timestamp="2010-02-15T05:21:28Z" uid="74617" user="JohnSmith" changeset="3880269">
    <nd ref="392679545"/>
    <nd ref="392679544"/>
    <tag k="highway" v="residential"/>
    <tag k="maxspeed" v="50"/>
    <tag k="name" v="Derrer Street"/>
  </way>
  <way id="34240249" version="3" timestamp="2010-06-10T06:59:24Z" uid="22094" user="Chadzopkyo" changeset="4951592">
    <nd ref="392679545"/>
    <nd ref="768324930"/>
    <nd ref="392679544"/>
    <tag k="highway" v="residential"/>
    <tag k="maxspeed" v="50"/>
    <tag k="name" v="Derrer Street"/>
    <tag k="surface" v="asphalt"/>
  </way>
  <way id="34240249" version="4" timestamp="2012-01-18T20:54:48Z" uid="147510" user="woodpeck_fixbot" changeset="10431441">
    <nd ref="392679545"/>
    <nd ref="768324930"/>
    <nd ref="392679544"/>
    <tag k="highway" v="residential"/>
    <tag k="name" v="Derrer Street"/>
    <tag k="surface" v="asphalt"/>
  </way>
  <way id="34240250" version="2" timestamp="2010-02-15T05:21:49Z" uid="74617" user="JohnSmith" changeset="3880269">
    <nd ref="392679569"/>
    <nd ref="392679570"/>
    <tag k="highway" v="residential"/>
    <tag k="maxspeed" v="50"/>
    <tag k="name" v="Olive Place"/>
  </way>
  <way id="34240250" version="3" timestamp="2010-06-10T06:59:24Z" uid="22094" user="Chadzopkyo" changeset="4951592">
    <nd ref="392679569"/>
    <nd ref="392679570"/>
    <tag k="highway" v="residential"/>
    <tag k="maxspeed" v="50"/>
    <tag k="name" v="Olive Place"/>
    <tag k="surface" v="asphalt"/>
  </way>
  <way id="34240250" version="4" timestamp="2012-01-18T20:54:48Z" uid="147510" user="woodpeck_fixbot" changeset="10431441">
    <nd ref="392679569"/>
    <nd ref="392679570"/>
    <tag k="highway" v="residential"/>
    <tag k="name" v="Olive Place"/>
    <tag k="surface" v="asphalt"/>
  </way>
  <way id="34240251" version="2" timestamp="2010-02-15T05:21:28Z" uid="74617" user="JohnSmith" changeset="3880269">
    <nd ref="392679517"/>
    <nd ref="392679515"/>
    <nd ref="392679520"/>
    <tag k="highway" v="residential"/>
    <tag k="maxspeed" v="50"/>
    <tag k="name" v="Curlew Place"/>
  </way>
  <way id="34240251" version="3" timestamp="2010-06-10T07:26:59Z" uid="22094" user="Chadzopkyo" changeset="4951733">
    <nd ref="392679517"/>
    <nd ref="768354280"/>
    <nd ref="392679515"/>
    <nd ref="392679520"/>
    <tag k="highway" v="residential"/>
    <tag k="maxspeed" v="50"/>
    <tag k="name" v="Curlew Place"/>
    <tag k="surface" v="asphalt"/>
  </way>
  <way id="34240251" version="4" timestamp="2012-01-18T20:54:50Z" uid="147510" user="woodpeck_fixbot" changeset="10431441">
    <nd ref="392679517"/>
    <nd ref="768354280"/>
    <nd ref="392679515"/>
    <nd ref="392679520"/>
    <tag k="highway" v="residential"/>
    <tag k="name" v="Curlew Place"/>
    <tag k="surface" v="asphalt"/>
  </way>
  <way id="34240255" version="2" timestamp="2010-02-15T05:21:26Z" uid="74617" user="JohnSmith" changeset="3880269">
    <nd ref="126569584"/>
    <nd ref="392679483"/>
    <nd ref="392679499"/>
    <nd ref="392679494"/>
    <nd ref="392679647"/>
    <nd ref="392679495"/>
    <tag k="access" v="private"/>
    <tag k="highway" v="residential"/>
    <tag k="maxspeed" v="50"/>
    <tag k="name" v="Karen Street"/>
  </way>
  <way id="34240255" version="3" timestamp="2012-01-18T20:54:51Z" uid="147510" user="woodpeck_fixbot" changeset="10431441">
    <nd ref="126569584"/>
    <nd ref="392679483"/>
    <nd ref="392679499"/>
    <nd ref="392679494"/>
    <nd ref="392679647"/>
    <nd ref="392679495"/>
    <tag k="access" v="private"/>
    <tag k="highway" v="residential"/>
    <tag k="name" v="Karen Street"/>
  </way>
  <way id="34240258" version="2" timestamp="2010-02-15T05:21:27Z" uid="74617" user="JohnSmith" changeset="3880269">
    <nd ref="392679619"/>
    <nd ref="392679622"/>
    <nd ref="392679624"/>
    <tag k="highway" v="service"/>
    <tag k="maxspeed" v="50"/>
  </way>
  <way id="34240258" version="3" timestamp="2012-01-18T20:54:52Z" uid="147510" user="woodpeck_fixbot" changeset="10431441">
    <nd ref="392679619"/>
    <nd ref="392679622"/>
    <nd ref="392679624"/>
    <tag k="highway" v="service"/>
  </way>
  <way id="34240259" version="2" timestamp="2010-02-15T05:21:19Z" uid="74617" user="JohnSmith" changeset="3880269">
    <nd ref="392679615"/>
    <nd ref="392679617"/>
    <tag k="highway" v="service"/>
    <tag k="maxspeed" v="50"/>
  </way>
  <way id="34240259" version="3" timestamp="2012-01-18T20:54:53Z" uid="147510" user="woodpeck_fixbot" changeset="10431441">
    <nd ref="392679615"/>
    <nd ref="392679617"/>
    <tag k="highway" v="service"/>
  </way>
  <way id="34240260" version="2" timestamp="2010-02-15T05:21:27Z" uid="74617" user="JohnSmith" changeset="3880269">
    <nd ref="392679507"/>
    <nd ref="392679672"/>
    <nd ref="392679502"/>
    <tag k="highway" v="residential"/>
    <tag k="maxspeed" v="50"/>
    <tag k="name" v="Nelson Court"/>
  </way>
  <way id="34240260" version="3" timestamp="2010-06-10T07:20:50Z" uid="22094" user="Chadzopkyo" changeset="4951696">
    <nd ref="392679507"/>
    <nd ref="392679672"/>
    <nd ref="392679502"/>
    <tag k="highway" v="residential"/>
    <tag k="maxspeed" v="50"/>
    <tag k="name" v="Nelson Court"/>
    <tag k="surface" v="asphalt"/>
  </way>
  <way id="34240260" version="4" timestamp="2012-01-18T20:54:54Z" uid="147510" user="woodpeck_fixbot" changeset="10431441">
    <nd ref="392679507"/>
    <nd ref="392679672"/>
    <nd ref="392679502"/>
    <tag k="highway" v="residential"/>
    <tag k="name" v="Nelson Court"/>
    <tag k="surface" v="asphalt"/>
  </way>
  <way id="34240261" version="2" timestamp="2010-02-15T05:21:27Z" uid="74617" user="JohnSmith" changeset="3880269">
    <nd ref="392679525"/>
    <nd ref="392679535"/>
    <nd ref="392679532"/>
    <nd ref="392679534"/>
    <tag k="highway" v="residential"/>
    <tag k="maxspeed" v="50"/>
    <tag k="name" v="Kingfisher Close"/>
  </way>
  <way id="34240261" version="3" timestamp="2010-06-10T07:26:58Z" uid="22094" user="Chadzopkyo" changeset="4951733">
    <nd ref="392679525"/>
    <nd ref="392679535"/>
    <nd ref="768354278"/>
    <nd ref="768354285"/>
    <nd ref="392679532"/>
    <nd ref="392679534"/>
    <tag k="highway" v="residential"/>
    <tag k="maxspeed" v="50"/>
    <tag k="name" v="Kingfisher Close"/>
    <tag k="surface" v="asphalt"/>
  </way>
  <way id="34240261" version="4" timestamp="2012-01-18T20:54:56Z" uid="147510" user="woodpeck_fixbot" changeset="10431441">
    <nd ref="392679525"/>
    <nd ref="392679535"/>
    <nd ref="768354278"/>
    <nd ref="768354285"/>
    <nd ref="392679532"/>
    <nd ref="392679534"/>
    <tag k="highway" v="residential"/>
    <tag k="name" v="Kingfisher Close"/>
    <tag k="surface" v="asphalt"/>
  </way>
  <way id="34240264" version="2" timestamp="2010-02-15T05:21:26Z" uid="74617" user="JohnSmith" changeset="3880269">
    <nd ref="392679486"/>
    <nd ref="392679491"/>
    <tag k="access" v="private"/>
    <tag k="highway" v="residential"/>
    <tag k="maxspeed" v="50"/>
    <tag k="name" v="Lisa Street"/>
  </way>
  <way id="34240264" version="3" timestamp="2012-01-18T20:54:57Z" uid="147510" user="woodpeck_fixbot" changeset="10431441">
    <nd ref="392679486"/>
    <nd ref="392679491"/>
    <tag k="access" v="private"/>
    <tag k="highway" v="residential"/>
    <tag k="name" v="Lisa Street"/>
  </way>
  <way id="34240265" version="2" timestamp="2010-02-15T05:21:27Z" uid="74617" user="JohnSmith" changeset="3880269">
    <nd ref="392679533"/>
    <nd ref="392679532"/>
    <tag k="highway" v="residential"/>
    <tag k="maxspeed" v="50"/>
    <tag k="name" v="Kingfisher Close"/>
  </way>
  <way id="34240265" version="3" timestamp="2010-06-10T07:26:59Z" uid="22094" user="Chadzopkyo" changeset="4951733">
    <nd ref="392679533"/>
    <nd ref="392679532"/>
    <tag k="highway" v="residential"/>
    <tag k="maxspeed" v="50"/>
    <tag k="name" v="Kingfisher Close"/>
    <tag k="surface" v="asphalt"/>
  </way>
  <way id="34240265" version="4" timestamp="2012-01-18T20:54:58Z" uid="147510" user="woodpeck_fixbot" changeset="10431441">
    <nd ref="392679533"/>
    <nd ref="392679532"/>
    <tag k="highway" v="residential"/>
    <tag k="name" v="Kingfisher Close"/>
    <tag k="surface" v="asphalt"/>
  </way>
  <way id="34240267" version="2" timestamp="2010-02-15T05:21:25Z" uid="74617" user="JohnSmith" changeset="3880269">
    <nd ref="392679506"/>
    <nd ref="392679509"/>
    <tag k="highway" v="residential"/>
    <tag k="maxspeed" v="50"/>
    <tag k="name" v="Lyell Crescent"/>
  </way>
  <way id="34240267" version="3" timestamp="2010-06-10T07:20:48Z" uid="22094" user="Chadzopkyo" changeset="4951696">
    <nd ref="392679506"/>
    <nd ref="392679509"/>
    <tag k="highway" v="residential"/>
    <tag k="maxspeed" v="50"/>
    <tag k="name" v="Lyell Crescent"/>
    <tag k="surface" v="asphalt"/>
  </way>
  <way id="34240267" version="4" timestamp="2012-01-18T20:54:59Z" uid="147510" user="woodpeck_fixbot" changeset="10431441">
    <nd ref="392679506"/>
    <nd ref="392679509"/>
    <tag k="highway" v="residential"/>
    <tag k="name" v="Lyell Crescent"/>
    <tag k="surface" v="asphalt"/>
  </way>
  <way id="34240270" version="2" timestamp="2010-02-15T05:21:12Z" uid="74617" user="JohnSmith" changeset="3880269">
    <nd ref="392679599"/>
    <nd ref="392679600"/>
    <nd ref="392679582"/>
    <nd ref="392679602"/>
    <nd ref="392679569"/>
    <nd ref="392679548"/>
    <nd ref="392679549"/>
    <nd ref="392679544"/>
    <nd ref="392679562"/>
    <nd ref="392679561"/>
    <nd ref="392679565"/>
    <nd ref="126569544"/>
    <tag k="highway" v="residential"/>
    <tag k="maxspeed" v="50"/>
    <tag k="name" v="Margaret Street"/>
  </way>
  <way id="34240270" version="3" timestamp="2010-06-10T06:31:40Z" uid="22094" user="Chadzopkyo" changeset="4951462">
    <nd ref="392679599"/>
    <nd ref="392679600"/>
    <nd ref="768276586"/>
    <nd ref="392679582"/>
    <nd ref="768276581"/>
    <nd ref="392679602"/>
    <nd ref="768276579"/>
    <nd ref="392679569"/>
    <nd ref="392679548"/>
    <nd ref="392679549"/>
    <nd ref="392679544"/>
    <nd ref="392679562"/>
    <nd ref="392679561"/>
    <nd ref="392679565"/>
    <nd ref="126569544"/>
    <tag k="highway" v="residential"/>
    <tag k="maxspeed" v="50"/>
    <tag k="name" v="Margaret Street"/>
  </way>
  <way id="34240270" version="4" timestamp="2010-06-10T06:59:22Z" uid="22094" user="Chadzopkyo" changeset="4951592">
    <nd ref="768324968"/>
    <nd ref="392679599"/>
    <nd ref="768276586"/>
    <nd ref="392679582"/>
    <nd ref="768276581"/>
    <nd ref="392679602"/>
    <nd ref="768276579"/>
    <nd ref="392679569"/>
    <nd ref="768324954"/>
    <nd ref="392679548"/>
    <nd ref="768324949"/>
    <nd ref="392679549"/>
    <nd ref="768324962"/>
    <nd ref="768324938"/>
    <nd ref="768324955"/>
    <nd ref="392679544"/>
    <nd ref="768324965"/>
    <nd ref="768324926"/>
    <nd ref="768324933"/>
    <nd ref="392679562"/>
    <nd ref="392679561"/>
    <nd ref="768324942"/>
    <nd ref="126569544"/>
    <tag k="highway" v="residential"/>
    <tag k="maxspeed" v="50"/>
    <tag k="name" v="Margaret Street"/>
    <tag k="surface" v="asphalt"/>
  </way>
  <way id="34240270" version="5" timestamp="2012-01-18T20:55:01Z" uid="147510" user="woodpeck_fixbot" changeset="10431441">
    <nd ref="768324968"/>
    <nd ref="392679599"/>
    <nd ref="768276586"/>
    <nd ref="392679582"/>
    <nd ref="768276581"/>
    <nd ref="392679602"/>
    <nd ref="768276579"/>
    <nd ref="392679569"/>
    <nd ref="768324954"/>
    <nd ref="392679548"/>
    <nd ref="768324949"/>
    <nd ref="392679549"/>
    <nd ref="768324962"/>
    <nd ref="768324938"/>
    <nd ref="768324955"/>
    <nd ref="392679544"/>
    <nd ref="768324965"/>
    <nd ref="768324926"/>
    <nd ref="768324933"/>
    <nd ref="392679562"/>
    <nd ref="392679561"/>
    <nd ref="768324942"/>
    <nd ref="126569544"/>
    <tag k="highway" v="residential"/>
    <tag k="name" v="Margaret Street"/>
    <tag k="surface" v="asphalt"/>
  </way>
  <way id="34240271" version="2" timestamp="2010-02-15T05:21:12Z" uid="74617" user="JohnSmith" changeset="3880269">
    <nd ref="392679547"/>
    <nd ref="392679542"/>
    <nd ref="392679541"/>
    <nd ref="392679551"/>
    <nd ref="392679552"/>
    <nd ref="392679553"/>
    <nd ref="392679547"/>
    <tag k="highway" v="residential"/>
    <tag k="maxspeed" v="50"/>
    <tag k="name" v="Felsche Close"/>
    <tag k="oneway" v="yes"/>
  </way>
  <way id="34240271" version="3" timestamp="2010-06-10T06:59:23Z" uid="22094" user="Chadzopkyo" changeset="4951592">
    <nd ref="392679547"/>
    <nd ref="392679542"/>
    <nd ref="768324952"/>
    <nd ref="768324919"/>
    <nd ref="768324947"/>
    <nd ref="768324932"/>
    <nd ref="392679541"/>
    <nd ref="768324944"/>
    <nd ref="392679551"/>
    <nd ref="392679552"/>
    <nd ref="768324957"/>
    <nd ref="768324939"/>
    <nd ref="768324924"/>
    <nd ref="392679553"/>
    <nd ref="768324963"/>
    <nd ref="392679547"/>
    <tag k="highway" v="residential"/>
    <tag k="maxspeed" v="50"/>
    <tag k="name" v="Felsche Close"/>
    <tag k="oneway" v="yes"/>
    <tag k="surface" v="asphalt"/>
  </way>
  <way id="34240271" version="4" timestamp="2012-01-18T20:55:03Z" uid="147510" user="woodpeck_fixbot" changeset="10431441">
    <nd ref="392679547"/>
    <nd ref="392679542"/>
    <nd ref="768324952"/>
    <nd ref="768324919"/>
    <nd ref="768324947"/>
    <nd ref="768324932"/>
    <nd ref="392679541"/>
    <nd ref="768324944"/>
    <nd ref="392679551"/>
    <nd ref="392679552"/>
    <nd ref="768324957"/>
    <nd ref="768324939"/>
    <nd ref="768324924"/>
    <nd ref="392679553"/>
    <nd ref="768324963"/>
    <nd ref="392679547"/>
    <tag k="highway" v="residential"/>
    <tag k="name" v="Felsche Close"/>
    <tag k="oneway" v="yes"/>
    <tag k="surface" v="asphalt"/>
  </way>
  <way id="34240272" version="2" timestamp="2010-02-15T05:21:49Z" uid="74617" user="JohnSmith" changeset="3880269">
    <nd ref="392679548"/>
    <nd ref="392679575"/>
    <nd ref="392679560"/>
    <tag k="highway" v="residential"/>
    <tag k="maxspeed" v="50"/>
    <tag k="name" v="McLeod Court"/>
  </way>
  <way id="34240272" version="3" timestamp="2010-06-10T06:59:24Z" uid="22094" user="Chadzopkyo" changeset="4951592">
    <nd ref="392679548"/>
    <nd ref="392679575"/>
    <nd ref="392679560"/>
    <tag k="highway" v="residential"/>
    <tag k="maxspeed" v="50"/>
    <tag k="name" v="McLeod Court"/>
    <tag k="surface" v="asphalt"/>
  </way>
  <way id="34240272" version="4" timestamp="2012-01-18T20:55:05Z" uid="147510" user="woodpeck_fixbot" changeset="10431441">
    <nd ref="392679548"/>
    <nd ref="392679575"/>
    <nd ref="392679560"/>
    <tag k="highway" v="residential"/>
    <tag k="name" v="McLeod Court"/>
    <tag k="surface" v="asphalt"/>
  </way>
  <way id="34240274" version="2" timestamp="2010-02-15T05:21:49Z" uid="74617" user="JohnSmith" changeset="3880269">
    <nd ref="392679575"/>
    <nd ref="392679574"/>
    <tag k="highway" v="residential"/>
    <tag k="maxspeed" v="50"/>
    <tag k="name" v="McLeod Court"/>
  </way>
  <way id="34240274" version="3" timestamp="2010-06-10T06:59:21Z" uid="22094" user="Chadzopkyo" changeset="4951592">
    <nd ref="392679575"/>
    <nd ref="392679574"/>
    <tag k="highway" v="residential"/>
    <tag k="name" v="McLeod Court"/>
  </way>
  <way id="34240275" version="2" timestamp="2010-02-15T05:21:26Z" uid="74617" user="JohnSmith" changeset="3880269">
    <nd ref="392679483"/>
    <nd ref="392679484"/>
    <nd ref="392679487"/>
    <nd ref="392679643"/>
    <nd ref="392679488"/>
    <nd ref="392679486"/>
    <nd ref="392679644"/>
    <nd ref="392679490"/>
    <nd ref="392679489"/>
    <tag k="access" v="private"/>
    <tag k="highway" v="residential"/>
    <tag k="maxspeed" v="50"/>
    <tag k="name" v="Lisa Street"/>
  </way>
  <way id="34240275" version="3" timestamp="2010-06-10T07:20:47Z" uid="22094" user="Chadzopkyo" changeset="4951696">
    <nd ref="392679483"/>
    <nd ref="392679484"/>
    <nd ref="768352803"/>
    <nd ref="392679487"/>
    <nd ref="392679643"/>
    <nd ref="392679488"/>
    <nd ref="392679486"/>
    <nd ref="392679490"/>
    <nd ref="392679489"/>
    <tag k="access" v="private"/>
    <tag k="highway" v="residential"/>
    <tag k="maxspeed" v="50"/>
    <tag k="name" v="Lisa Street"/>
  </way>
  <way id="34240275" version="4" timestamp="2012-01-18T20:55:06Z" uid="147510" user="woodpeck_fixbot" changeset="10431441">
    <nd ref="392679483"/>
    <nd ref="392679484"/>
    <nd ref="768352803"/>
    <nd ref="392679487"/>
    <nd ref="392679643"/>
    <nd ref="392679488"/>
    <nd ref="392679486"/>
    <nd ref="392679490"/>
    <nd ref="392679489"/>
    <tag k="access" v="private"/>
    <tag k="highway" v="residential"/>
    <tag k="name" v="Lisa Street"/>
  </way>
  <way id="34240276" version="2" timestamp="2010-02-15T05:21:25Z" uid="74617" user="JohnSmith" changeset="3880269">
    <nd ref="392679503"/>
    <nd ref="392679506"/>
    <nd ref="392679505"/>
    <nd ref="392679504"/>
    <nd ref="392679673"/>
    <nd ref="392679507"/>
    <nd ref="392679500"/>
    <tag k="highway" v="residential"/>
    <tag k="maxspeed" v="50"/>
    <tag k="name" v="Lyell Crescent"/>
  </way>
  <way id="34240276" version="3" timestamp="2010-06-10T07:20:48Z" uid="22094" user="Chadzopkyo" changeset="4951696">
    <nd ref="392679503"/>
    <nd ref="392679506"/>
    <nd ref="768352820"/>
    <nd ref="768352837"/>
    <nd ref="392679505"/>
    <nd ref="392679504"/>
    <nd ref="768352841"/>
    <nd ref="392679673"/>
    <nd ref="392679507"/>
    <nd ref="392679500"/>
    <tag k="highway" v="residential"/>
    <tag k="maxspeed" v="50"/>
    <tag k="name" v="Lyell Crescent"/>
    <tag k="surface" v="asphalt"/>
  </way>
  <way id="34240276" version="4" timestamp="2012-01-18T20:55:08Z" uid="147510" user="woodpeck_fixbot" changeset="10431441">
    <nd ref="392679503"/>
    <nd ref="392679506"/>
    <nd ref="768352820"/>
    <nd ref="768352837"/>
    <nd ref="392679505"/>
    <nd ref="392679504"/>
    <nd ref="768352841"/>
    <nd ref="392679673"/>
    <nd ref="392679507"/>
    <nd ref="392679500"/>
    <tag k="highway" v="residential"/>
    <tag k="name" v="Lyell Crescent"/>
    <tag k="surface" v="asphalt"/>
  </way>
  <way id="34240277" version="3" timestamp="2010-02-15T05:21:12Z" uid="74617" user="JohnSmith" changeset="3880269">
    <nd ref="94646860"/>
    <nd ref="260098481"/>
    <nd ref="260098482"/>
    <nd ref="260098483"/>
    <nd ref="260098511"/>
    <nd ref="260098485"/>
    <tag k="highway" v="residential"/>
    <tag k="maxspeed" v="50"/>
    <tag k="name" v="Rogers Parade East"/>
    <tag k="oneway" v="yes"/>
  </way>
  <way id="34240277" version="4" timestamp="2012-01-18T20:55:14Z" uid="147510" user="woodpeck_fixbot" changeset="10431441">
    <nd ref="94646860"/>
    <nd ref="260098481"/>
    <nd ref="260098482"/>
    <nd ref="260098483"/>
    <nd ref="260098511"/>
    <nd ref="260098485"/>
    <tag k="highway" v="residential"/>
    <tag k="name" v="Rogers Parade East"/>
    <tag k="oneway" v="yes"/>
  </way>
  <way id="34240278" version="3" timestamp="2010-02-15T05:21:27Z" uid="74617" user="JohnSmith" changeset="3880269">
    <nd ref="392679632"/>
    <nd ref="392679634"/>
    <nd ref="392679636"/>
    <tag k="highway" v="residential"/>
    <tag k="maxspeed" v="50"/>
    <tag k="name" v="Wanaka Place"/>
  </way>
  <way id="34240278" version="4" timestamp="2012-01-18T20:55:15Z" uid="147510" user="woodpeck_fixbot" changeset="10431441">
    <nd ref="392679632"/>
    <nd ref="392679634"/>
    <nd ref="392679636"/>
    <tag k="highway" v="residential"/>
    <tag k="name" v="Wanaka Place"/>
  </way>
  <way id="34240279" version="3" timestamp="2010-02-15T05:21:27Z" uid="74617" user="JohnSmith" changeset="3880269">
    <nd ref="392679639"/>
    <nd ref="392679640"/>
    <tag k="highway" v="residential"/>
    <tag k="maxspeed" v="50"/>
    <tag k="name" v="Malaga Street"/>
  </way>
  <way id="34240279" version="4" timestamp="2012-01-18T20:55:16Z" uid="147510" user="woodpeck_fixbot" changeset="10431441">
    <nd ref="392679639"/>
    <nd ref="392679640"/>
    <tag k="highway" v="residential"/>
    <tag k="name" v="Malaga Street"/>
  </way>
  <way id="34240296" version="2" timestamp="2010-02-15T05:21:47Z" uid="74617" user="JohnSmith" changeset="3880269">
    <nd ref="392679596"/>
    <nd ref="260099477"/>
    <nd ref="260099478"/>
    <nd ref="260099479"/>
    <nd ref="260099404"/>
    <nd ref="260099405"/>
    <nd ref="260099406"/>
    <nd ref="260099407"/>
    <nd ref="260099408"/>
    <nd ref="260099409"/>
    <nd ref="260099410"/>
    <nd ref="260099411"/>
    <nd ref="260099412"/>
    <nd ref="260099413"/>
    <nd ref="260099414"/>
    <nd ref="260099415"/>
    <nd ref="260099416"/>
    <nd ref="260099417"/>
    <tag k="boat" v="no"/>
    <tag k="name" v="Downfall Creek"/>
    <tag k="waterway" v="drain"/>
  </way>
  <way id="34240296" version="3" timestamp="2010-06-10T07:20:52Z" uid="22094" user="Chadzopkyo" changeset="4951696"/>
  <way id="34240722" version="1" timestamp="2009-05-09T13:34:25Z" uid="20587" user="balrog-kun" changeset="1127620">
    <nd ref="392682659"/>
    <nd ref="392682660"/>
    <nd ref="392682661"/>
    <tag k="highway" v="service"/>
  </way>
  <way id="34240722" version="2" timestamp="2011-03-27T21:38:09Z" uid="338611" user="marek kleciak" changeset="7691494">
    <nd ref="392682659"/>
    <nd ref="392682660"/>
    <nd ref="392682661"/>
    <nd ref="1222351291"/>
    <tag k="highway" v="service"/>
  </way>
  <way id="34240722" version="3" timestamp="2011-09-10T11:47:29Z" uid="91056" user="Yarl" changeset="9261413">
    <nd ref="392682659"/>
    <nd ref="392682661"/>
    <nd ref="1222351291"/>
    <tag k="highway" v="service"/>
  </way>
  <way id="34240723" version="1" timestamp="2009-05-09T13:34:25Z" uid="20587" user="balrog-kun" changeset="1127620">
    <nd ref="392682666"/>
    <nd ref="392682668"/>
    <nd ref="392682669"/>
    <nd ref="392682667"/>
    <nd ref="392682666"/>
    <tag k="building" v="shops"/>
    <tag k="loc_name" v="Kulczyk Park"/>
    <tag k="name" v="Stary Browar"/>
    <tag k="note" v="TODO"/>
    <tag k="shop" v="mall"/>
  </way>
  <way id="34240723" version="2" timestamp="2011-04-26T09:22:37Z" uid="107566" user="Yabba" changeset="7972600">
    <nd ref="392682666"/>
    <nd ref="392682668"/>
    <nd ref="392682669"/>
    <nd ref="392682667"/>
    <nd ref="392682666"/>
    <tag k="building" v="yes"/>
    <tag k="loc_name" v="Kulczyk Park"/>
    <tag k="name" v="Stary Browar"/>
    <tag k="note" v="TODO"/>
    <tag k="shop" v="mall"/>
  </way>
  <way id="34240723" version="3" timestamp="2011-09-01T19:18:10Z" uid="91056" user="Yarl" changeset="9187552">
    <nd ref="392682666"/>
    <nd ref="1420360327"/>
    <nd ref="1420360325"/>
    <nd ref="1420360323"/>
    <nd ref="1420360324"/>
    <nd ref="1420360320"/>
    <nd ref="1420360318"/>
    <nd ref="392682668"/>
    <nd ref="392682669"/>
    <nd ref="1420360328"/>
    <nd ref="1420360329"/>
    <nd ref="392682667"/>
    <nd ref="1420360332"/>
    <nd ref="1420360331"/>
    <nd ref="1420360330"/>
    <nd ref="392682666"/>
    <tag k="building" v="yes"/>
    <tag k="name" v="Stary Browar"/>
    <tag k="shop" v="mall"/>
    <tag k="tourism" v="attraction"/>
    <tag k="wikipedia" v="pl:Centrum Handlu, Sztuki i Biznesu Stary Browar"/>
  </way>
  <way id="34240723" version="4" timestamp="2011-09-10T11:47:27Z" uid="91056" user="Yarl" changeset="9261413">
    <nd ref="392682666"/>
    <nd ref="1428845969"/>
    <nd ref="1428845950"/>
    <nd ref="1420360327"/>
    <nd ref="1420360325"/>
    <nd ref="1420360323"/>
    <nd ref="1420360324"/>
    <nd ref="1420360320"/>
    <nd ref="1420360318"/>
    <nd ref="392682668"/>
    <nd ref="392682669"/>
    <nd ref="1420360328"/>
    <nd ref="1420360329"/>
    <nd ref="1428845985"/>
    <nd ref="392682667"/>
    <nd ref="1420360332"/>
    <nd ref="1420360331"/>
    <nd ref="1420360330"/>
    <nd ref="392682666"/>
    <tag k="building" v="yes"/>
    <tag k="name" v="Stary Browar"/>
    <tag k="shop" v="mall"/>
    <tag k="tourism" v="attraction"/>
    <tag k="wikipedia" v="pl:Centrum Handlu, Sztuki i Biznesu Stary Browar"/>
  </way>
  <way id="34240724" version="1" timestamp="2009-05-09T13:34:25Z" uid="20587" user="balrog-kun" changeset="1127620">
    <nd ref="392682670"/>
    <nd ref="392682667"/>
    <nd ref="392682669"/>
    <nd ref="392682671"/>
    <nd ref="392682672"/>
    <nd ref="392682673"/>
    <nd ref="392682674"/>
    <nd ref="392682670"/>
    <tag k="leisure" v="park"/>
  </way>
  <way id="34240724" version="2" timestamp="2009-07-06T14:47:34Z" uid="19417" user="xjr" changeset="1753722">
    <nd ref="435315502"/>
    <nd ref="392682672"/>
    <nd ref="392682673"/>
    <nd ref="392682674"/>
    <nd ref="435315503"/>
    <nd ref="435315502"/>
    <tag k="leisure" v="park"/>
  </way>
  <way id="34240724" version="3" timestamp="2011-04-26T09:23:09Z" uid="107566" user="Yabba" changeset="7972600">
    <nd ref="435315502"/>
    <nd ref="392682672"/>
    <nd ref="392682673"/>
    <nd ref="392682674"/>
    <nd ref="435315503"/>
    <nd ref="435315502"/>
    <tag k="leisure" v="park"/>
    <tag k="name" v="Kulczyk Park"/>
  </way>
  <way id="34240724" version="4" timestamp="2011-08-15T21:55:49Z" uid="439139" user="odder" changeset="9031933">
    <nd ref="435315502"/>
    <nd ref="392682672"/>
    <nd ref="392682673"/>
    <nd ref="392682674"/>
    <nd ref="435315503"/>
    <nd ref="435315502"/>
    <tag k="leisure" v="park"/>
    <tag k="name" v="Park im. Jana H. Dąbrowskiego"/>
  </way>
  <way id="34240724" version="5" timestamp="2011-09-01T19:18:09Z" uid="91056" user="Yarl" changeset="9187552">
    <nd ref="435315502"/>
    <nd ref="392682672"/>
    <nd ref="392682673"/>
    <nd ref="1420360335"/>
    <nd ref="392682674"/>
    <nd ref="1420360334"/>
    <nd ref="1420360341"/>
    <nd ref="435315503"/>
    <nd ref="1420360333"/>
    <nd ref="435315502"/>
    <tag k="leisure" v="park"/>
    <tag k="name" v="Park generała Jana Henryka Dąbrowskiego"/>
  </way>
  <way id="34240724" version="6" timestamp="2011-09-10T11:47:40Z" uid="91056" user="Yarl" changeset="9261413"/>
  <way id="34240725" version="1" timestamp="2009-05-09T13:34:25Z" uid="20587" user="balrog-kun" changeset="1127620">
    <nd ref="392682675"/>
    <nd ref="259192856"/>
    <nd ref="259192857"/>
    <nd ref="259192858"/>
    <tag k="created_by" v="Potlatch 0.10f"/>
    <tag k="highway" v="residential"/>
    <tag k="name" v="Garncarska"/>
    <tag k="oneway" v="yes"/>
  </way>
  <way id="34240725" version="2" timestamp="2010-03-16T21:59:43Z" uid="163746" user="anti_bot-nonsense" changeset="4147354">
    <nd ref="392682675"/>
    <nd ref="259192856"/>
    <nd ref="259192857"/>
    <nd ref="259192858"/>
    <tag k="highway" v="residential"/>
    <tag k="name" v="Garncarska"/>
    <tag k="oneway" v="yes"/>
  </way>
  <way id="34240726" version="1" timestamp="2009-05-09T13:34:26Z" uid="20587" user="balrog-kun" changeset="1127620">
    <nd ref="392682679"/>
    <nd ref="392682678"/>
    <nd ref="392682680"/>
    <nd ref="392682677"/>
    <nd ref="392682681"/>
    <nd ref="392682679"/>
    <tag k="amenity" v="university"/>
    <tag k="building" v="hall"/>
    <tag k="name" v="Akademia Ekonomiczna"/>
  </way>
  <way id="34240726" version="2" timestamp="2009-05-31T19:09:16Z" uid="123700" user="Mala" changeset="1372289">
    <nd ref="392682679"/>
    <nd ref="392682678"/>
    <nd ref="392682680"/>
    <nd ref="392682677"/>
    <nd ref="392682681"/>
    <nd ref="392682679"/>
    <tag k="amenity" v="university"/>
    <tag k="building" v="hall"/>
    <tag k="name" v="Uniwersytet Ekonomiczny"/>
  </way>
  <way id="34240726" version="3" timestamp="2010-02-15T14:40:26Z" uid="123700" user="Mala" changeset="3883707">
    <nd ref="392682679"/>
    <nd ref="392682678"/>
    <nd ref="392682680"/>
    <nd ref="392682677"/>
    <nd ref="392682681"/>
    <nd ref="392682679"/>
    <tag k="amenity" v="university"/>
    <tag k="building" v="hall"/>
    <tag k="name" v="Collegium Altum"/>
    <tag k="operator" v="Uniwersytet Ekonomiczny"/>
  </way>
  <way id="34240726" version="4" timestamp="2011-09-12T13:24:27Z" uid="91056" user="Yarl" changeset="9280158">
    <nd ref="392682679"/>
    <nd ref="392682678"/>
    <nd ref="392682680"/>
    <nd ref="392682677"/>
    <nd ref="392682681"/>
    <nd ref="392682679"/>
    <tag k="building" v="hall"/>
    <tag k="name" v="Collegium Altum"/>
    <tag k="operator" v="Uniwersytet Ekonomiczny"/>
  </way>
  <way id="34240727" version="1" timestamp="2009-05-09T13:34:26Z" uid="20587" user="balrog-kun" changeset="1127620">
    <nd ref="392682685"/>
    <nd ref="392682686"/>
    <nd ref="392682688"/>
    <nd ref="392682687"/>
    <nd ref="392682685"/>
    <tag k="amenity" v="school"/>
  </way>
  <way id="34240727" version="2" timestamp="2011-09-12T13:24:29Z" uid="91056" user="Yarl" changeset="9280158">
    <nd ref="392682685"/>
    <nd ref="1430939362"/>
    <nd ref="392682686"/>
    <nd ref="392682688"/>
    <nd ref="392682687"/>
    <nd ref="392682685"/>
    <tag k="amenity" v="school"/>
    <tag k="name" v="Zespół Szkół z Oddziałami Integracyjnymi nr 3 im. Powstańców Wielkopolskich"/>
  </way>
  <way id="34240727" version="3" timestamp="2011-09-12T20:36:21Z" uid="91056" user="Yarl" changeset="9284016">
    <nd ref="392682685"/>
    <nd ref="1430939362"/>
    <nd ref="392682686"/>
    <nd ref="1431302276"/>
    <nd ref="392682688"/>
    <nd ref="392682687"/>
    <nd ref="392682685"/>
    <tag k="amenity" v="school"/>
    <tag k="name" v="Zespół Szkół z Oddziałami Integracyjnymi nr 3 im. Powstańców Wielkopolskich"/>
  </way>
  <way id="34240793" version="2" timestamp="2009-05-16T17:14:47Z" uid="34428" user="usm78-gis" changeset="1212986">
    <nd ref="401768483"/>
    <nd ref="392683181"/>
    <nd ref="29001834"/>
    <tag k="name" v="Ново-Адмиралтейский канал"/>
    <tag k="waterway" v="river"/>
  </way>
  <way id="34240793" version="3" timestamp="2009-10-25T14:50:41Z" uid="136198" user="tmprec" changeset="2946843">
    <nd ref="401768483"/>
    <nd ref="392683181"/>
    <nd ref="540201129"/>
    <nd ref="29001834"/>
    <nd ref="540201137"/>
    <tag k="name" v="Ново-Адмиралтейский канал"/>
    <tag k="waterway" v="river"/>
  </way>
  <way id="34240793" version="4" timestamp="2011-07-03T11:36:06Z" uid="95117" user="one_half_3544" changeset="8617541">
    <nd ref="401768483"/>
    <nd ref="392683181"/>
    <nd ref="540201129"/>
    <nd ref="29001834"/>
    <nd ref="540201137"/>
    <tag k="name" v="Ново-Адмиралтейский канал"/>
    <tag k="waterway" v="river"/>
    <tag k="wikipedia" v="ru:Ново-Адмиралтейский канал"/>
  </way>
  <way id="34240793" version="5" timestamp="2011-08-01T23:36:25Z" uid="437809" user="Anton Khorev" changeset="8896535">
    <nd ref="401768483"/>
    <nd ref="540201129"/>
    <nd ref="29001834"/>
    <nd ref="540201137"/>
    <tag k="name" v="Ново-Адмиралтейский канал"/>
    <tag k="waterway" v="river"/>
    <tag k="wikipedia" v="ru:Ново-Адмиралтейский канал"/>
  </way>
  <way id="34240033" version="3" timestamp="2012-07-17T13:40:53Z" uid="722137" user="OSMF Redaction Account" changeset="12266741">
    <nd ref="392677783"/>
    <nd ref="392677784"/>
    <tag k="highway" v="pedestrian"/>
    <tag k="tunnel" v="yes"/>
  </way>
  <way id="34240092" version="6" timestamp="2012-07-17T00:10:44Z" uid="722137" user="OSMF Redaction Account" changeset="12253982">
    <nd ref="388264338"/>
    <nd ref="1371140989"/>
    <nd ref="1371140996"/>
    <tag k="highway" v="residential"/>
    <tag k="name" v="Friedensstraße"/>
    <tag k="surface" v="paved"/>
  </way>
  <way id="34240092" version="7" timestamp="2012-08-16T11:18:05Z" uid="13712" user="TimG" changeset="12749324">
    <nd ref="388264338"/>
    <nd ref="1371140989"/>
    <nd ref="639027835"/>
    <tag k="highway" v="residential"/>
    <tag k="name" v="Friedensstraße"/>
    <tag k="surface" v="paved"/>
  </way>
  <way id="34240277" version="5" timestamp="2012-07-25T07:36:41Z" uid="38548" user="PesceVerde" changeset="12482619">
    <nd ref="87707421"/>
    <nd ref="94646860"/>
    <nd ref="260098481"/>
    <nd ref="260098482"/>
    <nd ref="260098483"/>
    <nd ref="260098511"/>
    <nd ref="260098485"/>
    <tag k="highway" v="residential"/>
    <tag k="name" v="Rogers Parade East"/>
    <tag k="oneway" v="yes"/>
  </way>
  <way id="34240723" version="5" timestamp="2012-04-25T12:11:22Z" uid="68670" user="Leinad_pl" changeset="11414096">
    <nd ref="392682666"/>
    <nd ref="1428845969"/>
    <nd ref="1428845950"/>
    <nd ref="1420360327"/>
    <nd ref="1420360325"/>
    <nd ref="1420360323"/>
    <nd ref="1420360324"/>
    <nd ref="1420360320"/>
    <nd ref="1420360318"/>
    <nd ref="392682668"/>
    <nd ref="392682669"/>
    <nd ref="1730470370"/>
    <nd ref="1420360328"/>
    <nd ref="1420360329"/>
    <nd ref="1428845985"/>
    <nd ref="392682667"/>
    <nd ref="1420360332"/>
    <nd ref="1420360331"/>
    <nd ref="1420360330"/>
    <nd ref="392682666"/>
    <tag k="building" v="yes"/>
    <tag k="name" v="Stary Browar"/>
    <tag k="shop" v="mall"/>
    <tag k="tourism" v="attraction"/>
    <tag k="wikipedia" v="pl:Centrum Handlu, Sztuki i Biznesu Stary Browar"/>
  </way>
  <way id="34240725" version="3" timestamp="2012-05-01T21:48:30Z" uid="88909" user="miko101" changeset="11474784">
    <nd ref="392682675"/>
    <nd ref="259192856"/>
    <nd ref="259192857"/>
    <nd ref="259192858"/>
    <tag k="highway" v="residential"/>
    <tag k="lit" v="yes"/>
    <tag k="name" v="Garncarska"/>
    <tag k="oneway" v="yes"/>
  </way>
  <way id="34240793" version="6" timestamp="2012-07-20T10:14:47Z" uid="722137" user="OSMF Redaction Account" changeset="12370848">
    <nd ref="540201129"/>
    <nd ref="29001834"/>
    <nd ref="540201137"/>
    <tag k="name" v="Ново-Адмиралтейский канал"/>
    <tag k="waterway" v="river"/>
    <tag k="wikipedia" v="ru:Ново-Адмиралтейский канал"/>
  </way>
  <way id="34240793" version="7" timestamp="2012-07-24T13:58:44Z" uid="437809" user="Anton Khorev" changeset="12467238">
    <nd ref="401768483"/>
    <nd ref="540201129"/>
    <nd ref="29001834"/>
    <nd ref="540201137"/>
    <tag k="name" v="Ново-Адмиралтейский канал"/>
    <tag k="waterway" v="river"/>
    <tag k="wikipedia" v="ru:Ново-Адмиралтейский канал"/>
  </way>
</osm>
