<?xml version='1.0' encoding='UTF-8'?>
<osm version="0.6" generator="libosmium/2.20.0">
  <way id="34259319" version="4" timestamp="2009-10-17T15:27:27Z" uid="20587" user="balrog-kun" changeset="2875188">
    <nd ref="128054287"/>
    <nd ref="128054282"/>
    <nd ref="408878606"/>
    <nd ref="410723025"/>
    <nd ref="128054260"/>
    <nd ref="128054257"/>
    <tag k="highway" v="primary"/>
    <tag k="lanes" v="2"/>
    <tag k="name" v="Świętego Krzysztofa"/>
    <tag k="oneway" v="yes"/>
    <tag k="ref" v="43;46"/>
  </way>
  <way id="34259319" version="5" timestamp="2009-11-02T00:15:33Z" uid="20587" user="balrog-kun" changeset="3012820">
    <nd ref="128054287"/>
    <nd ref="128054282"/>
    <nd ref="408878606"/>
    <nd ref="410723025"/>
    <nd ref="128054260"/>
    <tag k="highway" v="primary"/>
    <tag k="lanes" v="2"/>
    <tag k="name" v="Świętego Krzysztofa"/>
    <tag k="oneway" v="yes"/>
    <tag k="ref" v="43;46"/>
  </way>
  <way id="34259319" version="6" timestamp="2010-06-17T10:31:26Z" uid="19417" user="xjr" changeset="5007664">
    <nd ref="188665859"/>
    <nd ref="128054287"/>
    <nd ref="128054282"/>
    <nd ref="408878606"/>
    <nd ref="410723025"/>
    <nd ref="128054260"/>
    <tag k="highway" v="primary"/>
    <tag k="lanes" v="2"/>
    <tag k="name" v="Świętego Krzysztofa"/>
    <tag k="oneway" v="yes"/>
    <tag k="ref" v="43;46"/>
  </way>
  <way id="34259319" version="7" timestamp="2011-03-17T17:54:15Z" uid="108298" user="Willer" changeset="7587861">
    <nd ref="188665859"/>
    <nd ref="1205922173"/>
    <nd ref="128054287"/>
    <nd ref="128054282"/>
    <nd ref="408878606"/>
    <nd ref="1205922275"/>
    <nd ref="410723025"/>
    <nd ref="128054260"/>
    <tag k="highway" v="primary"/>
    <tag k="lanes" v="2"/>
    <tag k="name" v="Świętego Krzysztofa"/>
    <tag k="oneway" v="yes"/>
    <tag k="ref" v="43;46"/>
  </way>
  <way id="34259599" version="2" timestamp="2009-05-10T22:31:05Z" uid="26515" user="Simon Ward" changeset="1146231">
    <nd ref="388886429"/>
    <nd ref="388886431"/>
    <nd ref="388886433"/>
    <nd ref="388886435"/>
    <nd ref="21728594"/>
    <nd ref="21728598"/>
    <tag k="created_by" v="Tways 0.2"/>
    <tag k="highway" v="tertiary"/>
    <tag k="lit" v="yes"/>
    <tag k="name" v="Fulwell Road"/>
    <tag k="oneway" v="yes"/>
    <tag k="source" v="GPS Survey"/>
    <tag k="surface" v="paved"/>
  </way>
  <way id="34259599" version="3" timestamp="2012-03-02T23:23:56Z" uid="12483" user="Pete Reed" changeset="10853500"/>
  <way id="34259746" version="6" timestamp="2010-09-08T12:03:15Z" uid="115477" user="wowik" changeset="5716451">
    <nd ref="90221375"/>
    <nd ref="392921210"/>
    <tag k="highway" v="pedestrian"/>
    <tag k="name" v="Московская ул."/>
  </way>
  <way id="34259746" version="7" timestamp="2011-01-14T19:23:06Z" uid="133332" user="AMDmi3" changeset="6970305">
    <nd ref="90221375"/>
    <nd ref="392921210"/>
    <tag k="highway" v="pedestrian"/>
    <tag k="name" v="Московская улица"/>
  </way>
  <way id="34259746" version="8" timestamp="2011-07-18T11:52:09Z" uid="316868" user="LexIgnatov" changeset="8757582">
    <nd ref="392921210"/>
    <nd ref="1365339213"/>
    <tag k="highway" v="pedestrian"/>
    <tag k="name" v="Московская улица"/>
  </way>
  <way id="34259758" version="5" timestamp="2009-10-20T00:55:21Z" uid="36809" user="pfoten_weg_!_" changeset="2899059">
    <nd ref="276661562"/>
    <nd ref="393959759"/>
    <nd ref="393959747"/>
    <nd ref="276661563"/>
    <nd ref="393959748"/>
    <nd ref="393959749"/>
    <nd ref="393959750"/>
    <nd ref="276661564"/>
    <nd ref="393959751"/>
    <nd ref="276661565"/>
    <nd ref="393959752"/>
    <nd ref="393959753"/>
    <nd ref="276661566"/>
    <nd ref="276661567"/>
    <nd ref="393967656"/>
    <nd ref="393967657"/>
    <nd ref="276661568"/>
    <nd ref="393967658"/>
    <nd ref="393967659"/>
    <nd ref="276661569"/>
    <nd ref="393967660"/>
    <nd ref="393967661"/>
    <nd ref="276661570"/>
    <nd ref="393967662"/>
    <nd ref="393967663"/>
    <nd ref="276661571"/>
    <nd ref="393967664"/>
    <nd ref="393967665"/>
    <nd ref="276661572"/>
    <nd ref="393967666"/>
    <nd ref="393967667"/>
    <nd ref="276661573"/>
    <nd ref="276661574"/>
    <tag k="bicycle" v="yes"/>
    <tag k="highway" v="path"/>
    <tag k="ref" v="W 9"/>
    <tag k="sac_scale" v="hiking"/>
    <tag k="surface" v="ground"/>
    <tag k="tracktype" v="grade2"/>
  </way>
  <way id="34259758" version="6" timestamp="2009-12-15T22:50:09Z" uid="64756" user="alegria6208" changeset="3383574"/>
  <way id="34259977" version="3" timestamp="2010-04-02T17:34:15Z" uid="20587" user="balrog-kun" changeset="4304500">
    <nd ref="53138869"/>
    <nd ref="53138870"/>
    <nd ref="53138873"/>
    <nd ref="53138874"/>
    <nd ref="53138875"/>
    <nd ref="53138876"/>
    <nd ref="339063420"/>
    <nd ref="440237286"/>
    <tag k="created_by" v="Potlatch 0.10f"/>
    <tag k="highway" v="residential"/>
    <tag k="name" v="38th Avenue Southwest"/>
    <tag k="tiger:cfcc" v="A41"/>
    <tag k="tiger:county" v="King, WA"/>
    <tag k="tiger:name_base" v="38th"/>
    <tag k="tiger:name_direction_suffix" v="SW"/>
    <tag k="tiger:name_type" v="Ave"/>
    <tag k="tiger:separated" v="no"/>
    <tag k="tiger:source" v="tiger_import_dch_v0.6_20070830"/>
    <tag k="tiger:tlid" v="186669908:186661677:186661679:186661642:186661643:186661653:186661103:186661132:186661140:186661144:186661159:186661165:186661167:186661173:186661175:186661094:186661097:186670148:186669281"/>
    <tag k="tiger:zip_left" v="98126"/>
    <tag k="tiger:zip_right" v="98126"/>
  </way>
  <way id="34259319" version="8" timestamp="2012-05-03T10:06:42Z" uid="91056" user="Yarl" changeset="11487262">
    <nd ref="188665859"/>
    <nd ref="1205922173"/>
    <nd ref="128054287"/>
    <nd ref="128054282"/>
    <nd ref="408878606"/>
    <nd ref="1205922275"/>
    <nd ref="128054260"/>
    <tag k="highway" v="primary"/>
    <tag k="lanes" v="2"/>
    <tag k="name" v="Świętego Krzysztofa"/>
    <tag k="oneway" v="yes"/>
    <tag k="ref" v="43;46"/>
    <tag k="source" v="European Urban Atlas"/>
  </way>
  <way id="34259746" version="9" timestamp="2012-07-20T10:30:36Z" uid="722137" user="OSMF Redaction Account" changeset="12371257">
    <nd ref="392921210"/>
    <nd ref="1365339213"/>
    <tag k="highway" v="footway"/>
  </way>
  <way id="34259746" version="10" timestamp="2012-08-04T09:37:47Z" uid="696711" user="ad47" changeset="12607099">
    <nd ref="392921210"/>
    <nd ref="1365339213"/>
    <tag k="bicycle" v="yes"/>
    <tag k="foot" v="yes"/>
    <tag k="highway" v="footway"/>
  </way>
</osm>
