<?xml version='1.0' encoding='UTF-8'?>
<osm version="0.6" generator="libosmium/2.20.0">
  <way id="34390715" version="1" timestamp="2009-05-12T17:26:51Z" uid="9581" user="Lobelt" changeset="1166911">
    <nd ref="394849628"/>
    <nd ref="394849627"/>
    <tag k="bridge" v="yes"/>
    <tag k="created_by" v="fixbot"/>
    <tag k="highway" v="secondary"/>
    <tag k="layer" v="1"/>
    <tag k="maxspeed" v="50"/>
    <tag k="ref" v="L 1108"/>
  </way>
  <way id="34390715" version="2" timestamp="2009-10-28T22:13:42Z" uid="60345" user="Mirko Küster" changeset="2977457">
    <nd ref="394849628"/>
    <nd ref="394849627"/>
    <tag k="bridge" v="yes"/>
    <tag k="highway" v="secondary"/>
    <tag k="layer" v="1"/>
    <tag k="maxspeed" v="50"/>
    <tag k="ref" v="L 1108"/>
  </way>
  <way id="34390715" version="3" timestamp="2010-03-09T19:22:39Z" uid="118134" user="scai" changeset="4083597">
    <nd ref="394849628"/>
    <nd ref="394849627"/>
    <tag k="bridge" v="yes"/>
    <tag k="highway" v="secondary"/>
    <tag k="layer" v="1"/>
    <tag k="maxspeed" v="50"/>
    <tag k="name" v="Jenaer Straße"/>
    <tag k="ref" v="L 1108"/>
  </way>
  <way id="34390715" version="4" timestamp="2011-05-08T22:16:34Z" uid="192395" user="BBO" changeset="8088365">
    <nd ref="394849628"/>
    <nd ref="394849627"/>
    <tag k="bridge" v="yes"/>
    <tag k="highway" v="secondary"/>
    <tag k="layer" v="1"/>
    <tag k="maxspeed" v="50"/>
    <tag k="name" v="Jenaer Straße"/>
    <tag k="ref" v="L 1108"/>
    <tag k="source:maxspeed" v="DE:urban"/>
  </way>
  <way id="34390715" version="5" timestamp="2011-11-29T11:15:37Z" uid="192395" user="BBO" changeset="9986571"/>
  <way id="34390716" version="1" timestamp="2009-05-12T17:26:51Z" uid="9581" user="Lobelt" changeset="1166911">
    <nd ref="394849627"/>
    <nd ref="31866883"/>
    <nd ref="31866885"/>
    <nd ref="31866886"/>
    <tag k="created_by" v="fixbot"/>
    <tag k="highway" v="secondary"/>
    <tag k="maxspeed" v="50"/>
    <tag k="ref" v="L 1108"/>
  </way>
  <way id="34390716" version="2" timestamp="2009-05-14T20:22:02Z" uid="9581" user="Lobelt" changeset="1192624">
    <nd ref="394849627"/>
    <nd ref="31866883"/>
    <nd ref="31866885"/>
    <nd ref="399732583"/>
    <nd ref="31866886"/>
    <tag k="created_by" v="fixbot"/>
    <tag k="highway" v="secondary"/>
    <tag k="maxspeed" v="50"/>
    <tag k="ref" v="L 1108"/>
  </way>
  <way id="34390716" version="3" timestamp="2010-03-09T19:22:38Z" uid="118134" user="scai" changeset="4083597">
    <nd ref="394849627"/>
    <nd ref="31866883"/>
    <nd ref="31866885"/>
    <nd ref="399732583"/>
    <nd ref="31866886"/>
    <tag k="highway" v="secondary"/>
    <tag k="maxspeed" v="50"/>
    <tag k="name" v="Jenaer Straße"/>
    <tag k="ref" v="L 1108"/>
  </way>
  <way id="34390716" version="4" timestamp="2010-06-01T10:49:13Z" uid="34023" user="ruena" changeset="4873459">
    <nd ref="394849627"/>
    <nd ref="761159513"/>
    <nd ref="31866883"/>
    <nd ref="31866885"/>
    <nd ref="761159514"/>
    <nd ref="399732583"/>
    <nd ref="31866886"/>
    <tag k="highway" v="secondary"/>
    <tag k="maxspeed" v="50"/>
    <tag k="name" v="Jenaer Straße"/>
    <tag k="ref" v="L 1108"/>
  </way>
  <way id="34390716" version="5" timestamp="2010-06-10T11:47:21Z" uid="110639" user="aighes" changeset="4953275">
    <nd ref="394849627"/>
    <nd ref="761159513"/>
    <nd ref="31866883"/>
    <nd ref="31866885"/>
    <nd ref="761159514"/>
    <nd ref="399732583"/>
    <tag k="highway" v="secondary"/>
    <tag k="maxspeed" v="50"/>
    <tag k="name" v="Jenaer Straße"/>
    <tag k="ref" v="L 1108"/>
  </way>
  <way id="34390716" version="6" timestamp="2011-05-08T22:16:22Z" uid="192395" user="BBO" changeset="8088365">
    <nd ref="394849627"/>
    <nd ref="761159513"/>
    <nd ref="31866883"/>
    <nd ref="31866885"/>
    <nd ref="761159514"/>
    <nd ref="399732583"/>
    <tag k="highway" v="secondary"/>
    <tag k="maxspeed" v="50"/>
    <tag k="name" v="Jenaer Straße"/>
    <tag k="ref" v="L 1108"/>
    <tag k="source:maxspeed" v="DE:urban"/>
  </way>
  <way id="34390716" version="7" timestamp="2011-11-29T11:15:37Z" uid="192395" user="BBO" changeset="9986571"/>
  <way id="34390717" version="1" timestamp="2009-05-12T17:26:51Z" uid="9581" user="Lobelt" changeset="1166911">
    <nd ref="31867094"/>
    <nd ref="394849649"/>
    <nd ref="394849650"/>
    <tag k="highway" v="track"/>
  </way>
  <way id="34390717" version="2" timestamp="2011-11-29T11:14:05Z" uid="192395" user="BBO" changeset="9986571">
    <nd ref="1523020878"/>
    <nd ref="394849649"/>
    <nd ref="394849650"/>
    <tag k="highway" v="track"/>
  </way>
  <way id="34390717" version="3" timestamp="2011-12-19T12:23:49Z" uid="192395" user="BBO" changeset="10154986"/>
  <way id="34390718" version="1" timestamp="2009-05-12T17:26:51Z" uid="9581" user="Lobelt" changeset="1166911">
    <nd ref="394849650"/>
    <nd ref="394849651"/>
    <tag k="bridge" v="yes"/>
    <tag k="highway" v="track"/>
  </way>
  <way id="34390718" version="2" timestamp="2010-12-29T07:00:16Z" uid="19254" user="tito" changeset="6795214">
    <nd ref="394849650"/>
    <nd ref="394849651"/>
    <tag k="bridge" v="yes"/>
    <tag k="highway" v="track"/>
    <tag k="layer" v="1"/>
  </way>
  <way id="34390718" version="3" timestamp="2011-12-19T12:23:46Z" uid="192395" user="BBO" changeset="10154986"/>
  <way id="34390719" version="1" timestamp="2009-05-12T17:26:51Z" uid="9581" user="Lobelt" changeset="1166911">
    <nd ref="394849651"/>
    <nd ref="394849652"/>
    <nd ref="394849653"/>
    <nd ref="31866933"/>
    <tag k="highway" v="track"/>
  </way>
  <way id="34390719" version="2" timestamp="2011-06-27T12:26:52Z" uid="192395" user="BBO" changeset="8561584">
    <nd ref="394849651"/>
    <nd ref="1341043647"/>
    <nd ref="394849653"/>
    <nd ref="31866933"/>
    <tag k="highway" v="track"/>
  </way>
  <way id="34390719" version="3" timestamp="2011-11-29T11:14:08Z" uid="192395" user="BBO" changeset="9986571">
    <nd ref="394849651"/>
    <nd ref="1341043647"/>
    <nd ref="394849653"/>
    <nd ref="1523020807"/>
    <tag k="highway" v="track"/>
  </way>
  <way id="34390719" version="4" timestamp="2011-12-19T12:23:43Z" uid="192395" user="BBO" changeset="10154986"/>
</osm>
