<?xml version='1.0' encoding='UTF-8'?>
<osm version="0.6" generator="libosmium/2.20.0">
  <way id="34456559" version="2" timestamp="2010-08-13T10:47:59Z" uid="7617" user="Franc" changeset="5480723">
    <nd ref="28360441"/>
    <nd ref="28360443"/>
    <nd ref="858323848"/>
    <nd ref="28360444"/>
    <tag k="highway" v="secondary"/>
    <tag k="name" v="Harrow Road"/>
  </way>
  <way id="34456569" version="3" timestamp="2010-07-08T16:47:52Z" uid="74617" user="JohnSmith" changeset="5167338">
    <nd ref="396912187"/>
    <nd ref="397071660"/>
    <nd ref="397071665"/>
    <nd ref="397071670"/>
    <tag k="highway" v="residential"/>
    <tag k="maxspeed" v="50"/>
    <tag k="maxspeed:source" v="default residential speed limit in Australia"/>
    <tag k="name" v="Jersey Parade"/>
    <tag k="source" v="GPS"/>
    <tag k="surface" v="paved"/>
  </way>
  <way id="34456569" version="4" timestamp="2012-01-18T21:06:50Z" uid="147510" user="woodpeck_fixbot" changeset="10431441">
    <nd ref="396912187"/>
    <nd ref="397071660"/>
    <nd ref="397071665"/>
    <nd ref="397071670"/>
    <tag k="highway" v="residential"/>
    <tag k="name" v="Jersey Parade"/>
    <tag k="source" v="GPS"/>
    <tag k="surface" v="paved"/>
  </way>
  <way id="34456570" version="3" timestamp="2010-07-08T16:50:26Z" uid="74617" user="JohnSmith" changeset="5167338">
    <nd ref="397071660"/>
    <nd ref="396912194"/>
    <nd ref="397279854"/>
    <tag k="highway" v="residential"/>
    <tag k="maxspeed" v="50"/>
    <tag k="maxspeed:source" v="default residential speed limit in Australia"/>
    <tag k="name" v="Carrington Avenue"/>
    <tag k="source" v="GPS"/>
    <tag k="surface" v="paved"/>
  </way>
  <way id="34456570" version="4" timestamp="2012-01-18T21:06:52Z" uid="147510" user="woodpeck_fixbot" changeset="10431441">
    <nd ref="397071660"/>
    <nd ref="396912194"/>
    <nd ref="397279854"/>
    <tag k="highway" v="residential"/>
    <tag k="name" v="Carrington Avenue"/>
    <tag k="source" v="GPS"/>
    <tag k="surface" v="paved"/>
  </way>
  <way id="34456571" version="2" timestamp="2009-12-27T12:44:54Z" uid="30201" user="rrankin" changeset="3462292">
    <nd ref="35365827"/>
    <nd ref="30191222"/>
    <nd ref="599967805"/>
    <tag k="highway" v="residential"/>
    <tag k="name" v="Warialda Street"/>
  </way>
  <way id="34456571" version="3" timestamp="2010-07-08T02:07:18Z" uid="74617" user="JohnSmith" changeset="5162525">
    <nd ref="35365827"/>
    <nd ref="30191222"/>
    <nd ref="599967805"/>
    <tag k="highway" v="residential"/>
    <tag k="maxspeed" v="50"/>
    <tag k="maxspeed:source" v="default residential speed limit in Australia"/>
    <tag k="name" v="Warialda Street"/>
  </way>
  <way id="34456571" version="4" timestamp="2011-11-11T22:47:42Z" uid="42429" user="FK270673" changeset="9800812"/>
  <way id="34456571" version="5" timestamp="2011-11-14T00:45:59Z" uid="108295" user="OSMF Data Revert" changeset="9820866">
    <nd ref="35365827"/>
    <nd ref="30191222"/>
    <nd ref="599967805"/>
    <tag k="highway" v="residential"/>
    <tag k="maxspeed" v="50"/>
    <tag k="maxspeed:source" v="default residential speed limit in Australia"/>
    <tag k="name" v="Warialda Street"/>
  </way>
  <way id="34456571" version="6" timestamp="2012-01-18T21:06:53Z" uid="147510" user="woodpeck_fixbot" changeset="10431441">
    <nd ref="35365827"/>
    <nd ref="30191222"/>
    <nd ref="599967805"/>
    <tag k="highway" v="residential"/>
    <tag k="name" v="Warialda Street"/>
  </way>
  <way id="34456576" version="2" timestamp="2010-07-08T02:07:37Z" uid="74617" user="JohnSmith" changeset="5162525">
    <nd ref="35366185"/>
    <nd ref="35366186"/>
    <nd ref="35366187"/>
    <nd ref="35366188"/>
    <nd ref="30189317"/>
    <tag k="highway" v="residential"/>
    <tag k="maxspeed" v="50"/>
    <tag k="maxspeed:source" v="default residential speed limit in Australia"/>
    <tag k="name" v="Milsop Street"/>
    <tag k="source" v="survey"/>
  </way>
  <way id="34456576" version="3" timestamp="2012-01-18T21:06:54Z" uid="147510" user="woodpeck_fixbot" changeset="10431441">
    <nd ref="35366185"/>
    <nd ref="35366186"/>
    <nd ref="35366187"/>
    <nd ref="35366188"/>
    <nd ref="30189317"/>
    <tag k="highway" v="residential"/>
    <tag k="name" v="Milsop Street"/>
    <tag k="source" v="survey"/>
  </way>
  <way id="34456580" version="2" timestamp="2009-12-24T02:17:13Z" uid="30201" user="rrankin" changeset="3439561">
    <nd ref="60173141"/>
    <nd ref="60202554"/>
    <nd ref="60202553"/>
    <nd ref="60188934"/>
    <nd ref="35542673"/>
    <nd ref="131697179"/>
    <tag k="highway" v="secondary"/>
    <tag k="name" v="Willison Road"/>
    <tag k="source:name" v="survey"/>
  </way>
  <way id="34456580" version="3" timestamp="2011-01-04T04:58:18Z" uid="389517" user="good2010" changeset="6857371"/>
  <way id="34456594" version="3" timestamp="2010-02-23T07:39:30Z" uid="7617" user="Franc" changeset="3949884">
    <nd ref="34009171"/>
    <nd ref="131696745"/>
    <tag k="highway" v="residential"/>
    <tag k="name" v="Lily Street"/>
  </way>
  <way id="34456594" version="4" timestamp="2010-07-08T02:10:21Z" uid="74617" user="JohnSmith" changeset="5162525">
    <nd ref="34009171"/>
    <nd ref="131696745"/>
    <tag k="highway" v="residential"/>
    <tag k="maxspeed" v="50"/>
    <tag k="maxspeed:source" v="default residential speed limit in Australia"/>
    <tag k="name" v="Lily Street"/>
  </way>
  <way id="34456594" version="5" timestamp="2011-01-03T08:18:41Z" uid="389517" user="good2010" changeset="6846990">
    <nd ref="34009171"/>
    <nd ref="131696745"/>
    <tag k=" " v=" "/>
    <tag k="highway" v="residential"/>
    <tag k="maxspeed" v="60"/>
    <tag k="name" v="Lily Street"/>
  </way>
  <way id="34456594" version="6" timestamp="2011-01-03T23:12:32Z" uid="70696" user="xybot" changeset="6856059">
    <nd ref="34009171"/>
    <nd ref="131696745"/>
    <tag k="highway" v="residential"/>
    <tag k="maxspeed" v="60"/>
    <tag k="name" v="Lily Street"/>
  </way>
  <way id="34456594" version="7" timestamp="2011-01-04T05:51:37Z" uid="389517" user="good2010" changeset="6857456">
    <nd ref="34009171"/>
    <nd ref="131696745"/>
    <tag k="highway" v="secondary"/>
    <tag k="maxspeed" v="60"/>
    <tag k="name" v="Lily Street"/>
  </way>
  <way id="34456594" version="8" timestamp="2012-01-18T21:06:56Z" uid="147510" user="woodpeck_fixbot" changeset="10431441">
    <nd ref="34009171"/>
    <nd ref="131696745"/>
    <tag k="highway" v="secondary"/>
    <tag k="name" v="Lily Street"/>
  </way>
  <way id="34456613" version="1" timestamp="2009-05-14T02:43:35Z" uid="99207" user="Lar Kiesel" changeset="1182430">
    <nd ref="114073071"/>
    <nd ref="397122336"/>
    <nd ref="397122341"/>
    <nd ref="397122346"/>
    <nd ref="397122351"/>
  </way>
  <way id="34456613" version="2" timestamp="2009-05-14T02:43:44Z" uid="99207" user="Lar Kiesel" changeset="1182430">
    <nd ref="114073071"/>
    <nd ref="397122336"/>
    <nd ref="397122341"/>
    <nd ref="397122346"/>
    <nd ref="397122351"/>
    <tag k="highway" v="motorway_link"/>
  </way>
  <way id="34456613" version="3" timestamp="2009-05-19T06:12:55Z" uid="99207" user="Lar Kiesel" changeset="1245172">
    <nd ref="114073071"/>
    <nd ref="397122336"/>
    <nd ref="405123959"/>
    <nd ref="397122341"/>
    <nd ref="397122346"/>
    <nd ref="397122351"/>
    <tag k="highway" v="motorway_link"/>
  </way>
  <way id="34456613" version="4" timestamp="2010-06-10T17:49:16Z" uid="84873" user="tigers" changeset="4955817">
    <nd ref="114073071"/>
    <nd ref="397122336"/>
    <nd ref="405123959"/>
    <nd ref="397122341"/>
    <nd ref="397122346"/>
    <nd ref="397122351"/>
    <tag k="highway" v="motorway_link"/>
    <tag k="oneway" v="yes"/>
  </way>
  <way id="34456651" version="3" timestamp="2010-01-20T06:21:04Z" uid="7617" user="Franc" changeset="3664317">
    <nd ref="28375053"/>
    <nd ref="616960250"/>
    <tag k="highway" v="primary"/>
    <tag k="name" v="Bay Street"/>
  </way>
  <way id="34456651" version="4" timestamp="2010-12-28T04:50:29Z" uid="333194" user="happyOOO" changeset="6784642">
    <nd ref="32826052"/>
    <nd ref="32829746"/>
    <nd ref="28375053"/>
    <nd ref="616960250"/>
    <tag k="highway" v="primary"/>
    <tag k="maxspeed" v="60"/>
    <tag k="name" v="Bay Street"/>
  </way>
  <way id="34456651" version="5" timestamp="2011-04-18T22:26:43Z" uid="20949" user="Ebenezer" changeset="7902206">
    <nd ref="32826052"/>
    <nd ref="32829746"/>
    <nd ref="28375053"/>
    <tag k="highway" v="primary"/>
    <tag k="maxspeed" v="60"/>
    <tag k="name" v="Bay Street"/>
  </way>
  <way id="34456660" version="2" timestamp="2010-01-20T06:21:01Z" uid="7617" user="Franc" changeset="3664317">
    <nd ref="616960250"/>
    <nd ref="32826067"/>
    <nd ref="212561377"/>
    <nd ref="32829460"/>
    <nd ref="616960255"/>
    <tag k="highway" v="primary"/>
    <tag k="name" v="Bay Street"/>
    <tag k="restriction" v="school_zone"/>
  </way>
  <way id="34456660" version="3" timestamp="2010-02-21T05:31:10Z" uid="20949" user="Ebenezer" changeset="3930006">
    <nd ref="616960250"/>
    <nd ref="32826067"/>
    <tag k="highway" v="primary"/>
    <tag k="name" v="Bay Street"/>
    <tag k="restriction" v="school_zone"/>
  </way>
  <way id="34456660" version="4" timestamp="2011-02-13T03:05:31Z" uid="389517" user="good2010" changeset="7271575">
    <nd ref="616960250"/>
    <nd ref="32826067"/>
    <tag k="highway" v="primary"/>
    <tag k="maxspeed" v="60"/>
    <tag k="name" v="Bay Street"/>
    <tag k="restriction" v="school_zone"/>
  </way>
  <way id="34456559" version="3" timestamp="2012-07-20T02:48:22Z" uid="722137" user="OSMF Redaction Account" changeset="12358647"/>
  <way id="34456571" version="7" timestamp="2012-07-16T19:29:48Z" uid="713671" user="auspod" changeset="12250311">
    <nd ref="1827905444"/>
    <nd ref="1827905504"/>
    <nd ref="1827905536"/>
    <tag k="highway" v="residential"/>
    <tag k="name" v="Warialda Street"/>
  </way>
  <way id="34456576" version="4" timestamp="2012-07-20T02:43:59Z" uid="722137" user="OSMF Redaction Account" changeset="12358530">
    <nd ref="35366185"/>
    <nd ref="35366186"/>
    <nd ref="35366187"/>
    <nd ref="35366188"/>
    <tag k="highway" v="residential"/>
    <tag k="name" v="Milsop Street"/>
    <tag k="source" v="survey"/>
  </way>
  <way id="34456576" version="5" timestamp="2012-07-20T08:36:18Z" uid="722137" user="OSMF Redaction Account" changeset="12368516"/>
  <way id="34456594" version="9" timestamp="2012-07-20T08:36:18Z" uid="722137" user="OSMF Redaction Account" changeset="12368516"/>
  <way id="34456651" version="6" timestamp="2012-07-20T02:43:56Z" uid="722137" user="OSMF Redaction Account" changeset="12358530">
    <nd ref="32826052"/>
    <nd ref="28375053"/>
    <tag k="highway" v="primary"/>
    <tag k="maxspeed" v="60"/>
    <tag k="name" v="Bay Street"/>
  </way>
  <way id="34456651" version="7" timestamp="2012-08-01T22:26:09Z" uid="510836" user="Rub21" changeset="12579746">
    <nd ref="32826052"/>
    <nd ref="1847502648"/>
    <nd ref="28375053"/>
    <tag k="highway" v="primary"/>
    <tag k="maxspeed" v="60"/>
    <tag k="name" v="Bay Street"/>
  </way>
  <way id="34456651" version="8" timestamp="2012-08-07T03:07:24Z" uid="7523" user="inas" changeset="12640785">
    <nd ref="32826052"/>
    <nd ref="1847502648"/>
    <nd ref="28375053"/>
    <nd ref="1847502647"/>
    <tag k="highway" v="primary"/>
    <tag k="maxspeed" v="60"/>
    <tag k="name" v="Bay Street"/>
  </way>
  <way id="34456651" version="9" timestamp="2012-08-24T04:13:28Z" uid="7523" user="inas" changeset="12840471">
    <nd ref="32826052"/>
    <nd ref="1847502648"/>
    <nd ref="1880345820"/>
    <nd ref="28375053"/>
    <nd ref="1847502647"/>
    <tag k="highway" v="primary"/>
    <tag k="maxspeed" v="60"/>
    <tag k="name" v="Bay Street"/>
  </way>
  <way id="34456660" version="5" timestamp="2012-07-16T08:56:24Z" uid="713671" user="auspod" changeset="12241240">
    <nd ref="616960250"/>
    <nd ref="1827327053"/>
    <tag k="highway" v="primary"/>
    <tag k="maxspeed" v="60"/>
    <tag k="name" v="Bay Street"/>
    <tag k="restriction" v="school_zone"/>
  </way>
  <way id="34456660" version="6" timestamp="2012-07-20T02:48:46Z" uid="722137" user="OSMF Redaction Account" changeset="12358665"/>
</osm>
