<?xml version='1.0' encoding='UTF-8'?>
<osm version="0.6" generator="libosmium/2.20.0">
  <way id="34527874" version="3" timestamp="2010-03-31T09:35:52Z" uid="7617" user="Franc" changeset="4283761">
    <nd ref="342757518"/>
    <nd ref="400005829"/>
    <nd ref="400005830"/>
    <nd ref="679053077"/>
    <nd ref="400005832"/>
    <nd ref="400005834"/>
    <nd ref="679053076"/>
    <nd ref="400005837"/>
    <tag k="highway" v="residential"/>
    <tag k="name" v="Sutcliffe Place"/>
    <tag k="source" v="GPS"/>
    <tag k="surface" v="paved"/>
  </way>
  <way id="34527874" version="4" timestamp="2010-07-08T16:38:49Z" uid="74617" user="JohnSmith" changeset="5167338">
    <nd ref="342757518"/>
    <nd ref="400005829"/>
    <nd ref="400005830"/>
    <nd ref="679053077"/>
    <nd ref="400005832"/>
    <nd ref="400005834"/>
    <nd ref="679053076"/>
    <nd ref="400005837"/>
    <tag k="highway" v="residential"/>
    <tag k="maxspeed" v="50"/>
    <tag k="maxspeed:source" v="default residential speed limit in Australia"/>
    <tag k="name" v="Sutcliffe Place"/>
    <tag k="source" v="GPS"/>
    <tag k="surface" v="paved"/>
  </way>
  <way id="34527874" version="5" timestamp="2012-01-18T21:11:23Z" uid="147510" user="woodpeck_fixbot" changeset="10431441">
    <nd ref="342757518"/>
    <nd ref="400005829"/>
    <nd ref="400005830"/>
    <nd ref="679053077"/>
    <nd ref="400005832"/>
    <nd ref="400005834"/>
    <nd ref="679053076"/>
    <nd ref="400005837"/>
    <tag k="highway" v="residential"/>
    <tag k="name" v="Sutcliffe Place"/>
    <tag k="source" v="GPS"/>
    <tag k="surface" v="paved"/>
  </way>
  <way id="34527876" version="3" timestamp="2010-03-26T21:44:18Z" uid="30201" user="rrankin" changeset="4242252">
    <nd ref="400005837"/>
    <nd ref="675143719"/>
    <nd ref="675143720"/>
    <nd ref="400006290"/>
    <tag k="highway" v="residential"/>
    <tag k="name" v="Eunoe Street"/>
    <tag k="source" v="GPS"/>
    <tag k="surface" v="paved"/>
  </way>
  <way id="34527876" version="4" timestamp="2010-07-08T16:39:27Z" uid="74617" user="JohnSmith" changeset="5167338">
    <nd ref="400005837"/>
    <nd ref="675143719"/>
    <nd ref="675143720"/>
    <nd ref="400006290"/>
    <tag k="highway" v="residential"/>
    <tag k="maxspeed" v="50"/>
    <tag k="maxspeed:source" v="default residential speed limit in Australia"/>
    <tag k="name" v="Eunoe Street"/>
    <tag k="source" v="GPS"/>
    <tag k="surface" v="paved"/>
  </way>
  <way id="34527876" version="5" timestamp="2011-04-16T23:59:04Z" uid="7617" user="Franc" changeset="7883169">
    <nd ref="400005837"/>
    <nd ref="675143720"/>
    <nd ref="400006290"/>
    <tag k="highway" v="residential"/>
    <tag k="maxspeed" v="50"/>
    <tag k="maxspeed:source" v="default residential speed limit in Australia"/>
    <tag k="name" v="Eunoe Street"/>
    <tag k="source" v="GPS"/>
    <tag k="surface" v="paved"/>
  </way>
  <way id="34527876" version="6" timestamp="2012-01-18T21:11:24Z" uid="147510" user="woodpeck_fixbot" changeset="10431441">
    <nd ref="400005837"/>
    <nd ref="675143720"/>
    <nd ref="400006290"/>
    <tag k="highway" v="residential"/>
    <tag k="name" v="Eunoe Street"/>
    <tag k="source" v="GPS"/>
    <tag k="surface" v="paved"/>
  </way>
  <way id="34527878" version="3" timestamp="2011-04-16T23:59:30Z" uid="7617" user="Franc" changeset="7883169">
    <nd ref="1247816607"/>
    <nd ref="402507147"/>
    <nd ref="400006290"/>
    <nd ref="400006608"/>
    <tag k="highway" v="service"/>
    <tag k="name" v="Melrose Lane"/>
    <tag k="source" v="GPS"/>
    <tag k="surface" v="paved"/>
  </way>
  <way id="34527880" version="3" timestamp="2010-07-08T16:38:15Z" uid="74617" user="JohnSmith" changeset="5167338">
    <nd ref="400008692"/>
    <nd ref="400008695"/>
    <tag k="highway" v="residential"/>
    <tag k="maxspeed" v="50"/>
    <tag k="maxspeed:source" v="default residential speed limit in Australia"/>
    <tag k="name" v="Twynam Street"/>
    <tag k="source" v="GPS"/>
    <tag k="surface" v="paved"/>
  </way>
  <way id="34527880" version="4" timestamp="2011-04-16T23:58:57Z" uid="7617" user="Franc" changeset="7883169">
    <nd ref="400008692"/>
    <nd ref="1247816406"/>
    <nd ref="675143727"/>
    <tag k="highway" v="residential"/>
    <tag k="maxspeed" v="50"/>
    <tag k="maxspeed:source" v="default residential speed limit in Australia"/>
    <tag k="name" v="Twynam Street"/>
    <tag k="source" v="GPS"/>
    <tag k="surface" v="paved"/>
  </way>
  <way id="34527880" version="5" timestamp="2012-01-18T21:11:25Z" uid="147510" user="woodpeck_fixbot" changeset="10431441">
    <nd ref="400008692"/>
    <nd ref="1247816406"/>
    <nd ref="675143727"/>
    <tag k="highway" v="residential"/>
    <tag k="name" v="Twynam Street"/>
    <tag k="source" v="GPS"/>
    <tag k="surface" v="paved"/>
  </way>
  <way id="34527887" version="3" timestamp="2010-03-30T11:59:16Z" uid="7617" user="Franc" changeset="4275975">
    <nd ref="400010862"/>
    <nd ref="678448750"/>
    <nd ref="400010866"/>
    <nd ref="400010871"/>
    <nd ref="678448742"/>
    <nd ref="400010875"/>
    <nd ref="678448744"/>
    <nd ref="678448743"/>
    <nd ref="400010879"/>
    <tag k="highway" v="residential"/>
    <tag k="name" v="Sixth Avenue"/>
    <tag k="source" v="GPS"/>
    <tag k="surface" v="paved"/>
  </way>
  <way id="34527887" version="4" timestamp="2010-07-08T16:38:42Z" uid="74617" user="JohnSmith" changeset="5167338">
    <nd ref="400010862"/>
    <nd ref="678448750"/>
    <nd ref="400010866"/>
    <nd ref="400010871"/>
    <nd ref="678448742"/>
    <nd ref="400010875"/>
    <nd ref="678448744"/>
    <nd ref="678448743"/>
    <nd ref="400010879"/>
    <tag k="highway" v="residential"/>
    <tag k="maxspeed" v="50"/>
    <tag k="maxspeed:source" v="default residential speed limit in Australia"/>
    <tag k="name" v="Sixth Avenue"/>
    <tag k="source" v="GPS"/>
    <tag k="surface" v="paved"/>
  </way>
  <way id="34527887" version="5" timestamp="2012-01-18T21:11:27Z" uid="147510" user="woodpeck_fixbot" changeset="10431441">
    <nd ref="400010862"/>
    <nd ref="678448750"/>
    <nd ref="400010866"/>
    <nd ref="400010871"/>
    <nd ref="678448742"/>
    <nd ref="400010875"/>
    <nd ref="678448744"/>
    <nd ref="678448743"/>
    <nd ref="400010879"/>
    <tag k="highway" v="residential"/>
    <tag k="name" v="Sixth Avenue"/>
    <tag k="source" v="GPS"/>
    <tag k="surface" v="paved"/>
  </way>
  <way id="34527891" version="3" timestamp="2010-03-27T10:20:32Z" uid="30201" user="rrankin" changeset="4245095">
    <nd ref="400011439"/>
    <nd ref="362358108"/>
    <nd ref="400010871"/>
    <nd ref="400011442"/>
    <nd ref="400011445"/>
    <tag k="highway" v="residential"/>
    <tag k="name" v="Mimosa Road"/>
    <tag k="source" v="GPS"/>
    <tag k="surface" v="paved"/>
  </way>
  <way id="34527891" version="4" timestamp="2010-07-08T16:39:13Z" uid="74617" user="JohnSmith" changeset="5167338">
    <nd ref="400011439"/>
    <nd ref="362358108"/>
    <nd ref="400010871"/>
    <nd ref="400011442"/>
    <nd ref="400011445"/>
    <tag k="highway" v="residential"/>
    <tag k="maxspeed" v="50"/>
    <tag k="maxspeed:source" v="default residential speed limit in Australia"/>
    <tag k="name" v="Mimosa Road"/>
    <tag k="source" v="GPS"/>
    <tag k="surface" v="paved"/>
  </way>
  <way id="34527891" version="5" timestamp="2012-01-18T21:11:28Z" uid="147510" user="woodpeck_fixbot" changeset="10431441">
    <nd ref="400011439"/>
    <nd ref="362358108"/>
    <nd ref="400010871"/>
    <nd ref="400011442"/>
    <nd ref="400011445"/>
    <tag k="highway" v="residential"/>
    <tag k="name" v="Mimosa Road"/>
    <tag k="source" v="GPS"/>
    <tag k="surface" v="paved"/>
  </way>
  <way id="34527894" version="5" timestamp="2010-06-29T19:15:59Z" uid="74617" user="JohnSmith" changeset="5108182">
    <nd ref="400015146"/>
    <nd ref="583509958"/>
    <nd ref="583509959"/>
    <nd ref="583509960"/>
    <nd ref="583509961"/>
    <nd ref="400015148"/>
    <nd ref="400015150"/>
    <nd ref="400015153"/>
    <nd ref="400015146"/>
    <tag k="fixme" v="sport=football is ambiguous, see http://wiki.osm.org/wiki/Football for more details"/>
    <tag k="leisure" v="stadium"/>
    <tag k="name" v="Deva Stadium"/>
    <tag k="sport" v="football"/>
  </way>
  <way id="34527894" version="6" timestamp="2011-12-05T13:39:50Z" uid="549376" user="Delusion23" changeset="10042008">
    <nd ref="400015146"/>
    <nd ref="583509958"/>
    <nd ref="583509959"/>
    <nd ref="583509960"/>
    <nd ref="583509961"/>
    <nd ref="1532740999"/>
    <nd ref="1532740996"/>
    <nd ref="400015148"/>
    <nd ref="1532741014"/>
    <nd ref="1532740988"/>
    <nd ref="1532741003"/>
    <nd ref="1532741005"/>
    <nd ref="400015150"/>
    <nd ref="1532740998"/>
    <nd ref="1532741012"/>
    <nd ref="400015153"/>
    <nd ref="1532741001"/>
    <nd ref="1532741016"/>
    <nd ref="400015146"/>
    <tag k="building" v="yes"/>
    <tag k="leisure" v="stadium"/>
    <tag k="name" v="Deva Stadium"/>
    <tag k="sport" v="football"/>
  </way>
  <way id="34527902" version="2" timestamp="2010-07-08T16:37:48Z" uid="74617" user="JohnSmith" changeset="5167338">
    <nd ref="172629213"/>
    <nd ref="400017208"/>
    <nd ref="400017210"/>
    <tag k="highway" v="residential"/>
    <tag k="maxspeed" v="50"/>
    <tag k="maxspeed:source" v="default residential speed limit in Australia"/>
    <tag k="name" v="Valley Road"/>
    <tag k="source" v="GPS"/>
    <tag k="surface" v="paved"/>
  </way>
  <way id="34527902" version="3" timestamp="2012-01-18T21:11:29Z" uid="147510" user="woodpeck_fixbot" changeset="10431441">
    <nd ref="172629213"/>
    <nd ref="400017208"/>
    <nd ref="400017210"/>
    <tag k="highway" v="residential"/>
    <tag k="name" v="Valley Road"/>
    <tag k="source" v="GPS"/>
    <tag k="surface" v="paved"/>
  </way>
  <way id="34527904" version="3" timestamp="2010-07-08T16:38:05Z" uid="74617" user="JohnSmith" changeset="5167338">
    <nd ref="400017210"/>
    <nd ref="400017472"/>
    <nd ref="400017475"/>
    <nd ref="400017478"/>
    <tag k="highway" v="residential"/>
    <tag k="maxspeed" v="50"/>
    <tag k="maxspeed:source" v="default residential speed limit in Australia"/>
    <tag k="name" v="Victoria Street"/>
    <tag k="source" v="GPS"/>
    <tag k="surface" v="paved"/>
  </way>
  <way id="34527904" version="4" timestamp="2012-01-18T21:11:31Z" uid="147510" user="woodpeck_fixbot" changeset="10431441">
    <nd ref="400017210"/>
    <nd ref="400017472"/>
    <nd ref="400017475"/>
    <nd ref="400017478"/>
    <tag k="highway" v="residential"/>
    <tag k="name" v="Victoria Street"/>
    <tag k="source" v="GPS"/>
    <tag k="surface" v="paved"/>
  </way>
  <way id="34527874" version="6" timestamp="2012-07-22T10:38:29Z" uid="722137" user="OSMF Redaction Account" changeset="12430074">
    <nd ref="400005829"/>
    <nd ref="400005830"/>
    <nd ref="400005832"/>
    <nd ref="400005834"/>
    <nd ref="400005837"/>
    <tag k="highway" v="residential"/>
    <tag k="name" v="Sutcliffe Place"/>
    <tag k="source" v="GPS"/>
    <tag k="surface" v="paved"/>
  </way>
  <way id="34527876" version="7" timestamp="2012-07-22T10:38:28Z" uid="722137" user="OSMF Redaction Account" changeset="12430074">
    <nd ref="400005837"/>
    <nd ref="400006290"/>
    <tag k="highway" v="residential"/>
    <tag k="name" v="Eunoe Street"/>
    <tag k="source" v="GPS"/>
    <tag k="surface" v="paved"/>
  </way>
  <way id="34527878" version="4" timestamp="2012-07-22T10:38:27Z" uid="722137" user="OSMF Redaction Account" changeset="12430074">
    <nd ref="402507147"/>
    <nd ref="400006290"/>
    <nd ref="400006608"/>
    <tag k="highway" v="service"/>
    <tag k="name" v="Melrose Lane"/>
    <tag k="source" v="GPS"/>
    <tag k="surface" v="paved"/>
  </way>
  <way id="34527880" version="6" timestamp="2012-07-22T10:39:33Z" uid="722137" user="OSMF Redaction Account" changeset="12430105"/>
  <way id="34527887" version="6" timestamp="2012-07-22T10:26:21Z" uid="722137" user="OSMF Redaction Account" changeset="12429832">
    <nd ref="400010862"/>
    <nd ref="400010866"/>
    <nd ref="400010871"/>
    <nd ref="400010875"/>
    <nd ref="400010879"/>
    <tag k="highway" v="residential"/>
    <tag k="name" v="Sixth Avenue"/>
    <tag k="source" v="GPS"/>
    <tag k="surface" v="paved"/>
  </way>
  <way id="34527891" version="6" timestamp="2012-07-22T10:26:21Z" uid="722137" user="OSMF Redaction Account" changeset="12429832">
    <nd ref="400011439"/>
    <nd ref="400010871"/>
    <nd ref="400011442"/>
    <nd ref="400011445"/>
    <tag k="highway" v="residential"/>
    <tag k="name" v="Mimosa Road"/>
    <tag k="source" v="GPS"/>
    <tag k="surface" v="paved"/>
  </way>
</osm>
