<?xml version='1.0' encoding='UTF-8'?>
<osm version="0.6" generator="libosmium/2.20.0">
  <way id="34531594" version="3" timestamp="2010-03-29T11:12:52Z" uid="30201" user="rrankin" changeset="4266375">
    <nd ref="400163279"/>
    <nd ref="400163989"/>
    <nd ref="677391165"/>
    <nd ref="400163996"/>
    <tag k="highway" v="residential"/>
    <tag k="name" v="Matcham Avenue"/>
    <tag k="source" v="GPS"/>
    <tag k="surface" v="paved"/>
  </way>
  <way id="34531594" version="4" timestamp="2010-07-08T16:37:50Z" uid="74617" user="JohnSmith" changeset="5167338">
    <nd ref="400163279"/>
    <nd ref="400163989"/>
    <nd ref="677391165"/>
    <nd ref="400163996"/>
    <tag k="highway" v="residential"/>
    <tag k="maxspeed" v="50"/>
    <tag k="maxspeed:source" v="default residential speed limit in Australia"/>
    <tag k="name" v="Matcham Avenue"/>
    <tag k="source" v="GPS"/>
    <tag k="surface" v="paved"/>
  </way>
  <way id="34531594" version="5" timestamp="2012-01-18T21:11:47Z" uid="147510" user="woodpeck_fixbot" changeset="10431441">
    <nd ref="400163279"/>
    <nd ref="400163989"/>
    <nd ref="677391165"/>
    <nd ref="400163996"/>
    <tag k="highway" v="residential"/>
    <tag k="name" v="Matcham Avenue"/>
    <tag k="source" v="GPS"/>
    <tag k="surface" v="paved"/>
  </way>
  <way id="34531597" version="6" timestamp="2010-04-02T17:34:19Z" uid="20587" user="balrog-kun" changeset="4304500">
    <nd ref="385591853"/>
    <nd ref="269009497"/>
    <nd ref="53052436"/>
    <tag k="bridge" v="yes"/>
    <tag k="highway" v="secondary"/>
    <tag k="layer" v="1"/>
    <tag k="name" v="Bellevue Way Northeast"/>
    <tag k="tiger:cfcc" v="A41"/>
    <tag k="tiger:county" v="King, WA"/>
    <tag k="tiger:name_base" v="Bellevue"/>
    <tag k="tiger:name_direction_suffix" v="NE"/>
    <tag k="tiger:separated" v="no"/>
    <tag k="tiger:source" v="tiger_import_dch_v0.6_20070830"/>
    <tag k="tiger:tlid" v="186604692:186604693:186604695:186604699:186946305:186946306:186605025:186605026:186605028:186605049:186605057:186605058:186605061:186671786:186605149:186607398:186607401:186607403:186607405:186605062"/>
    <tag k="tiger:zip_left" v="98004"/>
    <tag k="tiger:zip_right" v="98004"/>
  </way>
  <way id="34531598" version="3" timestamp="2010-04-02T17:34:19Z" uid="20587" user="balrog-kun" changeset="4304500">
    <nd ref="53052436"/>
    <nd ref="385591780"/>
    <nd ref="53006752"/>
    <nd ref="53227184"/>
    <tag k="created_by" v="Potlatch 0.10f"/>
    <tag k="highway" v="secondary"/>
    <tag k="name" v="Bellevue Way Northeast"/>
    <tag k="tiger:cfcc" v="A41"/>
    <tag k="tiger:county" v="King, WA"/>
    <tag k="tiger:name_base" v="Bellevue"/>
    <tag k="tiger:name_direction_suffix" v="NE"/>
    <tag k="tiger:reviewed" v="no"/>
    <tag k="tiger:separated" v="no"/>
    <tag k="tiger:source" v="tiger_import_dch_v0.6_20070830"/>
    <tag k="tiger:tlid" v="186604692:186604693:186604695:186604699:186946305:186946306:186605025:186605026:186605028:186605049:186605057:186605058:186605061:186671786:186605149:186607398:186607401:186607403:186607405:186605062"/>
    <tag k="tiger:zip_left" v="98004"/>
    <tag k="tiger:zip_right" v="98004"/>
  </way>
  <way id="34531608" version="3" timestamp="2010-07-08T16:39:41Z" uid="74617" user="JohnSmith" changeset="5167338">
    <nd ref="400171428"/>
    <nd ref="400171432"/>
    <nd ref="400171435"/>
    <nd ref="400171438"/>
    <nd ref="400171441"/>
    <nd ref="400171443"/>
    <nd ref="400171445"/>
    <nd ref="400171447"/>
    <nd ref="400171448"/>
    <nd ref="400171450"/>
    <nd ref="400171452"/>
    <tag k="highway" v="residential"/>
    <tag k="maxspeed" v="50"/>
    <tag k="maxspeed:source" v="default residential speed limit in Australia"/>
    <tag k="name" v="Old Bathurst Road"/>
    <tag k="source" v="GPS"/>
    <tag k="surface" v="paved"/>
  </way>
  <way id="34531608" version="4" timestamp="2012-01-18T21:11:48Z" uid="147510" user="woodpeck_fixbot" changeset="10431441">
    <nd ref="400171428"/>
    <nd ref="400171432"/>
    <nd ref="400171435"/>
    <nd ref="400171438"/>
    <nd ref="400171441"/>
    <nd ref="400171443"/>
    <nd ref="400171445"/>
    <nd ref="400171447"/>
    <nd ref="400171448"/>
    <nd ref="400171450"/>
    <nd ref="400171452"/>
    <tag k="highway" v="residential"/>
    <tag k="name" v="Old Bathurst Road"/>
    <tag k="source" v="GPS"/>
    <tag k="surface" v="paved"/>
  </way>
  <way id="34531609" version="3" timestamp="2010-07-08T16:39:09Z" uid="74617" user="JohnSmith" changeset="5167338">
    <nd ref="400171435"/>
    <nd ref="400172785"/>
    <nd ref="400172788"/>
    <nd ref="400172792"/>
    <nd ref="400172795"/>
    <nd ref="400172803"/>
    <nd ref="400172806"/>
    <nd ref="400172810"/>
    <nd ref="400172813"/>
    <nd ref="400172817"/>
    <nd ref="400172820"/>
    <nd ref="400171447"/>
    <tag k="highway" v="residential"/>
    <tag k="maxspeed" v="50"/>
    <tag k="maxspeed:source" v="default residential speed limit in Australia"/>
    <tag k="name" v="Buena Vista Avenue"/>
    <tag k="source" v="GPS"/>
    <tag k="surface" v="paved"/>
  </way>
  <way id="34531609" version="4" timestamp="2012-01-18T21:11:50Z" uid="147510" user="woodpeck_fixbot" changeset="10431441">
    <nd ref="400171435"/>
    <nd ref="400172785"/>
    <nd ref="400172788"/>
    <nd ref="400172792"/>
    <nd ref="400172795"/>
    <nd ref="400172803"/>
    <nd ref="400172806"/>
    <nd ref="400172810"/>
    <nd ref="400172813"/>
    <nd ref="400172817"/>
    <nd ref="400172820"/>
    <nd ref="400171447"/>
    <tag k="highway" v="residential"/>
    <tag k="name" v="Buena Vista Avenue"/>
    <tag k="source" v="GPS"/>
    <tag k="surface" v="paved"/>
  </way>
  <way id="34531611" version="3" timestamp="2010-07-08T16:38:15Z" uid="74617" user="JohnSmith" changeset="5167338">
    <nd ref="243837828"/>
    <nd ref="400174583"/>
    <tag k="highway" v="residential"/>
    <tag k="maxspeed" v="50"/>
    <tag k="maxspeed:source" v="default residential speed limit in Australia"/>
    <tag k="name" v="John Street"/>
    <tag k="source" v="GPS"/>
    <tag k="surface" v="paved"/>
  </way>
  <way id="34531611" version="4" timestamp="2011-04-17T02:26:58Z" uid="7617" user="Franc" changeset="7883519">
    <nd ref="243837828"/>
    <nd ref="1247863440"/>
    <nd ref="400174583"/>
    <tag k="highway" v="residential"/>
    <tag k="maxspeed" v="50"/>
    <tag k="maxspeed:source" v="default residential speed limit in Australia"/>
    <tag k="name" v="John Street"/>
    <tag k="source" v="GPS"/>
    <tag k="surface" v="paved"/>
  </way>
  <way id="34531611" version="5" timestamp="2012-01-18T21:11:51Z" uid="147510" user="woodpeck_fixbot" changeset="10431441">
    <nd ref="243837828"/>
    <nd ref="1247863440"/>
    <nd ref="400174583"/>
    <tag k="highway" v="residential"/>
    <tag k="name" v="John Street"/>
    <tag k="source" v="GPS"/>
    <tag k="surface" v="paved"/>
  </way>
  <way id="34531612" version="3" timestamp="2010-07-08T16:39:18Z" uid="74617" user="JohnSmith" changeset="5167338">
    <nd ref="400175341"/>
    <nd ref="400175343"/>
    <nd ref="400175346"/>
    <tag k="highway" v="residential"/>
    <tag k="maxspeed" v="50"/>
    <tag k="maxspeed:source" v="default residential speed limit in Australia"/>
    <tag k="name" v="Miller Street"/>
    <tag k="source" v="GPS"/>
    <tag k="surface" v="paved"/>
  </way>
  <way id="34531612" version="4" timestamp="2012-01-18T21:11:52Z" uid="147510" user="woodpeck_fixbot" changeset="10431441">
    <nd ref="400175341"/>
    <nd ref="400175343"/>
    <nd ref="400175346"/>
    <tag k="highway" v="residential"/>
    <tag k="name" v="Miller Street"/>
    <tag k="source" v="GPS"/>
    <tag k="surface" v="paved"/>
  </way>
  <way id="34531614" version="3" timestamp="2010-07-08T16:38:21Z" uid="74617" user="JohnSmith" changeset="5167338">
    <nd ref="400175343"/>
    <nd ref="400175856"/>
    <tag k="highway" v="residential"/>
    <tag k="maxspeed" v="50"/>
    <tag k="maxspeed:source" v="default residential speed limit in Australia"/>
    <tag k="name" v="Daintrey Street"/>
    <tag k="source" v="GPS"/>
    <tag k="surface" v="paved"/>
  </way>
  <way id="34531614" version="4" timestamp="2012-01-18T21:11:53Z" uid="147510" user="woodpeck_fixbot" changeset="10431441">
    <nd ref="400175343"/>
    <nd ref="400175856"/>
    <tag k="highway" v="residential"/>
    <tag k="name" v="Daintrey Street"/>
    <tag k="source" v="GPS"/>
    <tag k="surface" v="paved"/>
  </way>
  <way id="34531615" version="3" timestamp="2010-07-08T16:37:55Z" uid="74617" user="JohnSmith" changeset="5167338">
    <nd ref="400176943"/>
    <nd ref="400176947"/>
    <nd ref="400176950"/>
    <nd ref="400176954"/>
    <tag k="highway" v="residential"/>
    <tag k="maxspeed" v="50"/>
    <tag k="maxspeed:source" v="default residential speed limit in Australia"/>
    <tag k="name" v="Bodington Drive"/>
    <tag k="source" v="GPS"/>
    <tag k="surface" v="paved"/>
  </way>
  <way id="34531615" version="4" timestamp="2011-04-17T02:26:52Z" uid="7617" user="Franc" changeset="7883519">
    <nd ref="400176943"/>
    <nd ref="400176947"/>
    <nd ref="1247863518"/>
    <nd ref="400176950"/>
    <nd ref="400176954"/>
    <tag k="highway" v="residential"/>
    <tag k="maxspeed" v="50"/>
    <tag k="maxspeed:source" v="default residential speed limit in Australia"/>
    <tag k="name" v="Bodington Drive"/>
    <tag k="source" v="GPS"/>
    <tag k="surface" v="paved"/>
  </way>
  <way id="34531615" version="5" timestamp="2012-01-18T21:11:54Z" uid="147510" user="woodpeck_fixbot" changeset="10431441">
    <nd ref="400176943"/>
    <nd ref="400176947"/>
    <nd ref="1247863518"/>
    <nd ref="400176950"/>
    <nd ref="400176954"/>
    <tag k="highway" v="residential"/>
    <tag k="name" v="Bodington Drive"/>
    <tag k="source" v="GPS"/>
    <tag k="surface" v="paved"/>
  </way>
  <way id="34531616" version="3" timestamp="2010-07-08T16:38:35Z" uid="74617" user="JohnSmith" changeset="5167338">
    <nd ref="400178199"/>
    <nd ref="400178201"/>
    <nd ref="400178206"/>
    <tag k="highway" v="residential"/>
    <tag k="maxspeed" v="50"/>
    <tag k="maxspeed:source" v="default residential speed limit in Australia"/>
    <tag k="name" v="Chester Road"/>
    <tag k="source" v="GPS"/>
    <tag k="surface" v="paved"/>
  </way>
  <way id="34531616" version="4" timestamp="2011-04-17T02:27:07Z" uid="7617" user="Franc" changeset="7883519">
    <nd ref="400178199"/>
    <nd ref="1247863430"/>
    <nd ref="400178201"/>
    <nd ref="400178206"/>
    <tag k="highway" v="residential"/>
    <tag k="maxspeed" v="50"/>
    <tag k="maxspeed:source" v="default residential speed limit in Australia"/>
    <tag k="name" v="Chester Road"/>
    <tag k="source" v="GPS"/>
    <tag k="surface" v="paved"/>
  </way>
  <way id="34531616" version="5" timestamp="2012-01-18T21:11:55Z" uid="147510" user="woodpeck_fixbot" changeset="10431441">
    <nd ref="400178199"/>
    <nd ref="1247863430"/>
    <nd ref="400178201"/>
    <nd ref="400178206"/>
    <tag k="highway" v="residential"/>
    <tag k="name" v="Chester Road"/>
    <tag k="source" v="GPS"/>
    <tag k="surface" v="paved"/>
  </way>
  <way id="34531594" version="6" timestamp="2012-07-22T10:26:30Z" uid="722137" user="OSMF Redaction Account" changeset="12429832">
    <nd ref="400163279"/>
    <nd ref="400163989"/>
    <nd ref="400163996"/>
    <tag k="highway" v="residential"/>
    <tag k="name" v="Matcham Avenue"/>
    <tag k="source" v="GPS"/>
    <tag k="surface" v="paved"/>
  </way>
  <way id="34531611" version="6" timestamp="2012-07-22T10:13:28Z" uid="722137" user="OSMF Redaction Account" changeset="12429619">
    <nd ref="243837828"/>
    <nd ref="400174583"/>
    <tag k="highway" v="residential"/>
    <tag k="name" v="John Street"/>
    <tag k="source" v="GPS"/>
    <tag k="surface" v="paved"/>
  </way>
  <way id="34531615" version="6" timestamp="2012-07-22T10:13:29Z" uid="722137" user="OSMF Redaction Account" changeset="12429619">
    <nd ref="400176943"/>
    <nd ref="400176947"/>
    <nd ref="400176950"/>
    <nd ref="400176954"/>
    <tag k="highway" v="residential"/>
    <tag k="name" v="Bodington Drive"/>
    <tag k="source" v="GPS"/>
    <tag k="surface" v="paved"/>
  </way>
  <way id="34531616" version="6" timestamp="2012-07-22T10:13:30Z" uid="722137" user="OSMF Redaction Account" changeset="12429619">
    <nd ref="400178199"/>
    <nd ref="400178201"/>
    <nd ref="400178206"/>
    <tag k="highway" v="residential"/>
    <tag k="name" v="Chester Road"/>
    <tag k="source" v="GPS"/>
    <tag k="surface" v="paved"/>
  </way>
</osm>
