<?xml version='1.0' encoding='UTF-8'?>
<osm version="0.6" generator="libosmium/2.20.0">
  <way id="34583077" version="2" timestamp="2009-07-23T01:32:33Z" uid="74617" user="JohnSmith" changeset="1910572">
    <nd ref="401450413"/>
    <nd ref="401450414"/>
    <nd ref="401450415"/>
    <tag k="highway" v="residential"/>
    <tag k="name" v="Liberator Drive"/>
    <tag k="source" v="survey"/>
    <tag k="source_ref:name" v="http://osm.beldin.org/2009/05/DSCF0059.JPG"/>
  </way>
  <way id="34583077" version="3" timestamp="2009-07-23T01:33:38Z" uid="74617" user="JohnSmith" changeset="1910578">
    <nd ref="401450413"/>
    <nd ref="401450414"/>
    <nd ref="401450415"/>
    <tag k="highway" v="residential"/>
    <tag k="name" v="Ribas Court"/>
    <tag k="source" v="survey"/>
    <tag k="source_ref:name" v="http://osm.beldin.org/2009/05/DSCF0059.JPG"/>
  </way>
  <way id="34583077" version="4" timestamp="2009-07-24T20:02:00Z" uid="74617" user="JohnSmith" changeset="1928898">
    <nd ref="401450413"/>
    <nd ref="401450414"/>
    <nd ref="401450415"/>
    <tag k="highway" v="residential"/>
    <tag k="name" v="Ribas Court"/>
    <tag k="source" v="survey"/>
    <tag k="source_ref:name" v="http://osm.beldin.org/2009/05/DSCF0059.JPG"/>
  </way>
  <way id="34583077" version="5" timestamp="2009-07-27T07:55:03Z" uid="26526" user="beldin" changeset="1952720">
    <nd ref="401450413"/>
    <nd ref="401450414"/>
    <nd ref="401450415"/>
    <tag k="highway" v="residential"/>
    <tag k="maxspeed" v="50"/>
    <tag k="name" v="Ribas Court"/>
    <tag k="source" v="survey"/>
    <tag k="source_ref:name" v="http://osm.beldin.org/2009/05/DSCF0059.JPG"/>
  </way>
  <way id="34583160" version="6" timestamp="2010-07-09T06:35:34Z" uid="74617" user="JohnSmith" changeset="5171134">
    <nd ref="401451353"/>
    <nd ref="736191613"/>
    <nd ref="401451356"/>
    <nd ref="736191573"/>
    <nd ref="736148980"/>
    <nd ref="30036225"/>
    <tag k="highway" v="residential"/>
    <tag k="maxspeed" v="50"/>
    <tag k="maxspeed:source" v="default residential speed limit in Australia"/>
    <tag k="name" v="Jane Street"/>
  </way>
  <way id="34583160" version="7" timestamp="2012-01-18T21:13:35Z" uid="147510" user="woodpeck_fixbot" changeset="10431441">
    <nd ref="401451353"/>
    <nd ref="736191613"/>
    <nd ref="401451356"/>
    <nd ref="736191573"/>
    <nd ref="736148980"/>
    <nd ref="30036225"/>
    <tag k="highway" v="residential"/>
    <tag k="name" v="Jane Street"/>
  </way>
  <way id="34583161" version="5" timestamp="2010-07-09T06:36:48Z" uid="74617" user="JohnSmith" changeset="5171134">
    <nd ref="401451356"/>
    <nd ref="736191759"/>
    <nd ref="736191638"/>
    <nd ref="251508522"/>
    <tag k="highway" v="residential"/>
    <tag k="maxspeed" v="50"/>
    <tag k="maxspeed:source" v="default residential speed limit in Australia"/>
    <tag k="name" v="Blanford Street"/>
  </way>
  <way id="34583161" version="6" timestamp="2012-01-18T21:13:36Z" uid="147510" user="woodpeck_fixbot" changeset="10431441">
    <nd ref="401451356"/>
    <nd ref="736191759"/>
    <nd ref="736191638"/>
    <nd ref="251508522"/>
    <tag k="highway" v="residential"/>
    <tag k="name" v="Blanford Street"/>
  </way>
  <way id="34583174" version="3" timestamp="2010-07-09T06:36:09Z" uid="74617" user="JohnSmith" changeset="5171134">
    <nd ref="401451388"/>
    <nd ref="251508524"/>
    <tag k="highway" v="residential"/>
    <tag k="maxspeed" v="50"/>
    <tag k="maxspeed:source" v="default residential speed limit in Australia"/>
    <tag k="name" v="Blanford Street"/>
  </way>
  <way id="34583174" version="4" timestamp="2012-01-18T21:13:37Z" uid="147510" user="woodpeck_fixbot" changeset="10431441">
    <nd ref="401451388"/>
    <nd ref="251508524"/>
    <tag k="highway" v="residential"/>
    <tag k="name" v="Blanford Street"/>
  </way>
  <way id="34583187" version="5" timestamp="2010-08-04T17:43:52Z" uid="9581" user="Lobelt" changeset="5401263">
    <nd ref="392546999"/>
    <nd ref="401451558"/>
    <nd ref="401451557"/>
    <nd ref="401451556"/>
    <nd ref="401451555"/>
    <nd ref="401451554"/>
    <nd ref="401451553"/>
    <nd ref="401451547"/>
    <nd ref="401451548"/>
    <nd ref="401451549"/>
    <nd ref="401451550"/>
    <nd ref="401451551"/>
    <nd ref="401451552"/>
    <nd ref="401451544"/>
    <nd ref="401451543"/>
    <nd ref="401451542"/>
    <nd ref="401451541"/>
    <nd ref="401451540"/>
    <nd ref="401451539"/>
    <nd ref="401451538"/>
    <nd ref="401451545"/>
    <nd ref="401451546"/>
    <nd ref="401451535"/>
    <nd ref="401451534"/>
    <nd ref="401451533"/>
    <nd ref="401451532"/>
    <nd ref="401451536"/>
    <nd ref="401451537"/>
    <nd ref="401451528"/>
    <nd ref="401451529"/>
    <nd ref="401451530"/>
    <nd ref="401451531"/>
    <nd ref="401451525"/>
    <nd ref="401451524"/>
    <nd ref="401451527"/>
    <nd ref="401451526"/>
    <nd ref="392547000"/>
    <nd ref="392547001"/>
    <nd ref="392547002"/>
    <nd ref="392547003"/>
    <nd ref="392547004"/>
    <nd ref="392547005"/>
    <nd ref="392547006"/>
    <nd ref="392547007"/>
    <nd ref="392547008"/>
    <nd ref="620513665"/>
    <tag k="cables" v="6"/>
    <tag k="frequency" v="50"/>
    <tag k="name" v="1043"/>
    <tag k="operator" v="EON_Netz"/>
    <tag k="power" v="line"/>
    <tag k="ref" v="1043"/>
    <tag k="voltage" v="110000"/>
    <tag k="wires" v="single"/>
  </way>
  <way id="34583187" version="6" timestamp="2011-03-31T20:50:39Z" uid="13203" user="bahnpirat" changeset="7729977">
    <nd ref="392546999"/>
    <nd ref="401451558"/>
    <nd ref="401451557"/>
    <nd ref="401451556"/>
    <nd ref="401451555"/>
    <nd ref="401451554"/>
    <nd ref="401451553"/>
    <nd ref="401451547"/>
    <nd ref="401451548"/>
    <nd ref="401451549"/>
    <nd ref="401451550"/>
    <nd ref="401451551"/>
    <nd ref="401451552"/>
    <nd ref="401451544"/>
    <nd ref="401451543"/>
    <nd ref="401451542"/>
    <nd ref="401451541"/>
    <nd ref="401451540"/>
    <nd ref="401451539"/>
    <nd ref="401451538"/>
    <nd ref="401451545"/>
    <nd ref="401451546"/>
    <nd ref="401451535"/>
    <nd ref="401451534"/>
    <nd ref="401451533"/>
    <nd ref="401451532"/>
    <nd ref="401451536"/>
    <nd ref="401451537"/>
    <nd ref="401451528"/>
    <nd ref="401451529"/>
    <nd ref="401451530"/>
    <nd ref="401451531"/>
    <nd ref="401451525"/>
    <nd ref="401451524"/>
    <nd ref="401451527"/>
    <nd ref="401451526"/>
    <nd ref="392547000"/>
    <nd ref="392547001"/>
    <nd ref="392547002"/>
    <nd ref="392547003"/>
    <nd ref="392547004"/>
    <nd ref="392547005"/>
    <nd ref="392547006"/>
    <nd ref="392547007"/>
    <nd ref="392547008"/>
    <nd ref="620513665"/>
    <nd ref="1227186066"/>
    <tag k="cables" v="6"/>
    <tag k="frequency" v="50"/>
    <tag k="name" v="1043"/>
    <tag k="operator" v="EON_Netz"/>
    <tag k="power" v="line"/>
    <tag k="ref" v="1043"/>
    <tag k="voltage" v="110000"/>
    <tag k="wires" v="single"/>
  </way>
  <way id="34583190" version="7" timestamp="2010-08-04T17:43:46Z" uid="9581" user="Lobelt" changeset="5401263">
    <nd ref="392546999"/>
    <nd ref="401451569"/>
    <nd ref="401451570"/>
    <nd ref="401451571"/>
    <nd ref="401451572"/>
    <nd ref="401451573"/>
    <nd ref="401451574"/>
    <nd ref="401451576"/>
    <nd ref="401451577"/>
    <nd ref="401451578"/>
    <nd ref="401451579"/>
    <nd ref="401451580"/>
    <nd ref="432933718"/>
    <nd ref="432933722"/>
    <nd ref="432933725"/>
    <nd ref="432933728"/>
    <nd ref="432933731"/>
    <nd ref="432933735"/>
    <nd ref="432933739"/>
    <nd ref="432933745"/>
    <nd ref="432933749"/>
    <nd ref="432933754"/>
    <nd ref="432933757"/>
    <nd ref="432933760"/>
    <nd ref="432933765"/>
    <nd ref="432933768"/>
    <nd ref="432933770"/>
    <nd ref="773550932"/>
    <nd ref="432933776"/>
    <nd ref="432933781"/>
    <nd ref="432934993"/>
    <tag k="cables" v="6"/>
    <tag k="frequency" v="50"/>
    <tag k="name" v="032"/>
    <tag k="operator" v="EON_Netz"/>
    <tag k="power" v="line"/>
    <tag k="ref" v="032"/>
    <tag k="voltage" v="110000"/>
    <tag k="wires" v="single"/>
  </way>
  <way id="34583190" version="8" timestamp="2011-04-19T20:22:26Z" uid="13203" user="bahnpirat" changeset="7910577">
    <nd ref="392546999"/>
    <nd ref="401451569"/>
    <nd ref="401451570"/>
    <nd ref="401451571"/>
    <nd ref="401451572"/>
    <nd ref="401451573"/>
    <nd ref="401451574"/>
    <nd ref="401451576"/>
    <nd ref="401451577"/>
    <nd ref="401451578"/>
    <nd ref="401451579"/>
    <nd ref="401451580"/>
    <nd ref="432933718"/>
    <nd ref="432933722"/>
    <nd ref="432933725"/>
    <nd ref="432933728"/>
    <nd ref="432933731"/>
    <nd ref="432933735"/>
    <nd ref="432933739"/>
    <nd ref="432933745"/>
    <nd ref="432933749"/>
    <nd ref="432933754"/>
    <nd ref="432933757"/>
    <nd ref="432933760"/>
    <nd ref="432933765"/>
    <nd ref="432933768"/>
    <nd ref="432933770"/>
    <nd ref="773550932"/>
    <nd ref="432933776"/>
    <nd ref="432933781"/>
    <nd ref="432934993"/>
    <tag k="cables" v="6"/>
    <tag k="frequency" v="50"/>
    <tag k="name" v="Westerstede"/>
    <tag k="operator" v="EON_Netz"/>
    <tag k="power" v="line"/>
    <tag k="ref" v="032"/>
    <tag k="voltage" v="110000"/>
    <tag k="wires" v="single"/>
  </way>
  <way id="34583621" version="2" timestamp="2009-09-18T11:45:16Z" uid="20587" user="balrog-kun" changeset="2523165"/>
  <way id="34583623" version="5" timestamp="2010-07-09T06:39:50Z" uid="74617" user="JohnSmith" changeset="5171134">
    <nd ref="401457136"/>
    <nd ref="727360477"/>
    <nd ref="727342996"/>
    <nd ref="727342997"/>
    <nd ref="727342998"/>
    <nd ref="798936291"/>
    <nd ref="401457597"/>
    <tag k="highway" v="residential"/>
    <tag k="maxspeed" v="50"/>
    <tag k="maxspeed:source" v="default residential speed limit in Australia"/>
    <tag k="name" v="Greenshield Place"/>
  </way>
  <way id="34583623" version="6" timestamp="2012-01-18T21:13:38Z" uid="147510" user="woodpeck_fixbot" changeset="10431441">
    <nd ref="401457136"/>
    <nd ref="727360477"/>
    <nd ref="727342996"/>
    <nd ref="727342997"/>
    <nd ref="727342998"/>
    <nd ref="798936291"/>
    <nd ref="401457597"/>
    <tag k="highway" v="residential"/>
    <tag k="name" v="Greenshield Place"/>
  </way>
  <way id="34583681" version="7" timestamp="2010-07-09T06:38:02Z" uid="74617" user="JohnSmith" changeset="5171134">
    <nd ref="251151851"/>
    <nd ref="755606031"/>
    <nd ref="370727059"/>
    <nd ref="467414827"/>
    <nd ref="708614543"/>
    <nd ref="708614557"/>
    <nd ref="669640025"/>
    <tag k="highway" v="residential"/>
    <tag k="maxspeed" v="50"/>
    <tag k="maxspeed:source" v="default residential speed limit in Australia"/>
    <tag k="name" v="Paget Street"/>
    <tag k="source" v="nearmap"/>
  </way>
  <way id="34583681" version="8" timestamp="2010-09-05T05:17:30Z" uid="150488" user="ralmin" changeset="5684330">
    <nd ref="251151851"/>
    <nd ref="755606031"/>
    <nd ref="370727059"/>
    <nd ref="708614543"/>
    <nd ref="708614557"/>
    <nd ref="896731786"/>
    <nd ref="669640025"/>
    <tag k="highway" v="residential"/>
    <tag k="maxspeed" v="50"/>
    <tag k="maxspeed:source" v="default residential speed limit in Australia"/>
    <tag k="name" v="Paget Street"/>
    <tag k="source" v="nearmap"/>
  </way>
  <way id="34583681" version="9" timestamp="2012-01-18T21:13:39Z" uid="147510" user="woodpeck_fixbot" changeset="10431441">
    <nd ref="251151851"/>
    <nd ref="755606031"/>
    <nd ref="370727059"/>
    <nd ref="708614543"/>
    <nd ref="708614557"/>
    <nd ref="896731786"/>
    <nd ref="669640025"/>
    <tag k="highway" v="residential"/>
    <tag k="name" v="Paget Street"/>
    <tag k="source" v="nearmap"/>
  </way>
  <way id="34583712" version="4" timestamp="2010-03-28T02:06:02Z" uid="20587" user="balrog-kun" changeset="4250871">
    <nd ref="52994857"/>
    <nd ref="53040659"/>
    <tag k="highway" v="secondary"/>
    <tag k="name" v="San Ramon Road"/>
    <tag k="oneway" v="yes"/>
    <tag k="tiger:cfcc" v="A41"/>
    <tag k="tiger:county" v="Alameda, CA"/>
    <tag k="tiger:name_base" v="San Ramon"/>
    <tag k="tiger:name_type" v="Rd"/>
    <tag k="tiger:reviewed" v="no"/>
    <tag k="tiger:separated" v="no"/>
    <tag k="tiger:source" v="tiger_import_dch_v0.6_20070809"/>
    <tag k="tiger:tlid" v="125016413"/>
  </way>
  <way id="34583713" version="5" timestamp="2010-03-28T02:06:02Z" uid="20587" user="balrog-kun" changeset="4250871">
    <nd ref="577477904"/>
    <nd ref="53040658"/>
    <tag k="bridge" v="yes"/>
    <tag k="highway" v="secondary"/>
    <tag k="layer" v="1"/>
    <tag k="name" v="Foothill Road"/>
    <tag k="oneway" v="yes"/>
    <tag k="tiger:cfcc" v="A41"/>
    <tag k="tiger:county" v="Alameda, CA"/>
    <tag k="tiger:name_base" v="Foothill"/>
    <tag k="tiger:name_type" v="Rd"/>
    <tag k="tiger:separated" v="no"/>
    <tag k="tiger:source" v="tiger_import_dch_v0.6_20070809"/>
    <tag k="tiger:tlid" v="125016730:125016731:125017149:125017150:125017151:125016742; 125031569:125084080:125079537:125079538:125044600:125053079:125082012:125084084:125079543:125044930:125043693:125064852:125047683:125032173:125032175:125032191:125063039:125032196:125052972:1250"/>
    <tag k="tiger:zip_left" v="94588"/>
    <tag k="tiger:zip_right" v="94588"/>
  </way>
  <way id="34583977" version="3" timestamp="2011-03-26T23:55:36Z" uid="4467" user="Rosscoe" changeset="7681296">
    <nd ref="401461427"/>
    <nd ref="1219987926"/>
    <nd ref="401461428"/>
    <nd ref="401461429"/>
    <nd ref="401461431"/>
    <nd ref="1219988316"/>
    <nd ref="1219987849"/>
    <nd ref="1219987699"/>
    <nd ref="1219988372"/>
    <nd ref="1219987889"/>
    <nd ref="1219987502"/>
    <nd ref="1219988129"/>
    <nd ref="1219987756"/>
    <nd ref="1219988458"/>
    <nd ref="1219987944"/>
    <nd ref="1219987790"/>
    <nd ref="1219988505"/>
    <nd ref="1219987983"/>
    <nd ref="1219987640"/>
    <nd ref="1219988560"/>
    <nd ref="1219988277"/>
    <nd ref="1219987830"/>
    <nd ref="1219988616"/>
    <nd ref="1219988043"/>
    <nd ref="1219987687"/>
    <nd ref="1219988342"/>
    <nd ref="1219987874"/>
    <nd ref="1219987484"/>
    <nd ref="1219988096"/>
    <tag k="highway" v="unclassified"/>
    <tag k="surface" v="gravel"/>
  </way>
  <way id="34583984" version="3" timestamp="2010-01-02T14:31:41Z" uid="58091" user="Andreas M" changeset="3518801">
    <nd ref="111308991"/>
    <nd ref="111308992"/>
    <tag k="highway" v="residential"/>
    <tag k="name" v="Nestroygasse"/>
  </way>
  <way id="34583077" version="6" timestamp="2012-07-19T19:15:09Z" uid="722137" user="OSMF Redaction Account" changeset="12344549">
    <nd ref="401450413"/>
    <nd ref="401450415"/>
    <tag k="highway" v="residential"/>
    <tag k="maxspeed" v="50"/>
    <tag k="name" v="Ribas Court"/>
    <tag k="source" v="survey"/>
    <tag k="source_ref:name" v="http://osm.beldin.org/2009/05/DSCF0059.JPG"/>
  </way>
  <way id="34583077" version="7" timestamp="2012-07-20T09:17:00Z" uid="722137" user="OSMF Redaction Account" changeset="12369682"/>
  <way id="34583160" version="8" timestamp="2012-07-20T11:02:57Z" uid="722137" user="OSMF Redaction Account" changeset="12372187">
    <nd ref="401451353"/>
    <nd ref="401451356"/>
    <nd ref="30036225"/>
    <tag k="highway" v="residential"/>
    <tag k="name" v="Jane Street"/>
  </way>
  <way id="34583161" version="7" timestamp="2012-07-20T11:03:02Z" uid="722137" user="OSMF Redaction Account" changeset="12372187">
    <nd ref="401451356"/>
    <nd ref="251508522"/>
    <tag k="highway" v="residential"/>
    <tag k="name" v="Blanford Street"/>
  </way>
  <way id="34583187" version="7" timestamp="2012-07-27T16:56:45Z" uid="13203" user="bahnpirat" changeset="12513997">
    <nd ref="392546999"/>
    <nd ref="401451558"/>
    <nd ref="401451557"/>
    <nd ref="401451556"/>
    <nd ref="401451555"/>
    <nd ref="401451554"/>
    <nd ref="401451553"/>
    <nd ref="401451547"/>
    <nd ref="401451548"/>
    <nd ref="401451549"/>
    <nd ref="401451550"/>
    <nd ref="401451551"/>
    <nd ref="401451552"/>
    <nd ref="401451544"/>
    <nd ref="401451543"/>
    <nd ref="401451542"/>
    <nd ref="401451541"/>
    <nd ref="401451540"/>
    <nd ref="401451539"/>
    <nd ref="401451538"/>
    <nd ref="401451545"/>
    <nd ref="401451546"/>
    <nd ref="401451535"/>
    <nd ref="401451534"/>
    <nd ref="401451533"/>
    <nd ref="401451532"/>
    <nd ref="401451536"/>
    <nd ref="401451537"/>
    <nd ref="401451528"/>
    <nd ref="401451529"/>
    <nd ref="401451530"/>
    <nd ref="401451531"/>
    <nd ref="401451525"/>
    <nd ref="401451524"/>
    <nd ref="401451527"/>
    <nd ref="401451526"/>
    <nd ref="392547000"/>
    <nd ref="392547001"/>
    <nd ref="392547002"/>
    <nd ref="392547003"/>
    <nd ref="392547004"/>
    <nd ref="392547005"/>
    <nd ref="392547006"/>
    <nd ref="392547007"/>
    <nd ref="392547008"/>
    <tag k="cables" v="6"/>
    <tag k="frequency" v="50"/>
    <tag k="name" v="1043"/>
    <tag k="operator" v="EON_Netz"/>
    <tag k="power" v="line"/>
    <tag k="ref" v="1043"/>
    <tag k="voltage" v="110000"/>
    <tag k="wires" v="single"/>
  </way>
  <way id="34583187" version="8" timestamp="2012-08-01T14:47:36Z" uid="13203" user="bahnpirat" changeset="12575288">
    <nd ref="392546999"/>
    <nd ref="401451558"/>
    <nd ref="401451557"/>
    <nd ref="401451556"/>
    <nd ref="401451555"/>
    <nd ref="401451554"/>
    <nd ref="401451553"/>
    <nd ref="401451547"/>
    <nd ref="401451548"/>
    <nd ref="401451549"/>
    <nd ref="401451550"/>
    <nd ref="401451551"/>
    <nd ref="401451552"/>
    <nd ref="401451544"/>
    <nd ref="401451543"/>
    <nd ref="401451542"/>
    <nd ref="401451541"/>
    <nd ref="401451540"/>
    <nd ref="401451539"/>
    <nd ref="401451538"/>
    <nd ref="401451545"/>
    <nd ref="401451546"/>
    <nd ref="401451535"/>
    <nd ref="401451534"/>
    <nd ref="401451533"/>
    <nd ref="401451532"/>
    <nd ref="401451536"/>
    <nd ref="401451537"/>
    <nd ref="401451528"/>
    <nd ref="401451529"/>
    <nd ref="401451530"/>
    <nd ref="401451531"/>
    <nd ref="401451525"/>
    <nd ref="401451524"/>
    <nd ref="401451527"/>
    <nd ref="401451526"/>
    <nd ref="392547000"/>
    <nd ref="392547001"/>
    <nd ref="392547002"/>
    <nd ref="392547003"/>
    <nd ref="392547004"/>
    <nd ref="392547005"/>
    <nd ref="392547006"/>
    <nd ref="392547007"/>
    <nd ref="392547008"/>
    <tag k="cables" v="6"/>
    <tag k="frequency" v="50"/>
    <tag k="name" v="1043"/>
    <tag k="note" v="west:schwarz;ost:grÃ¼n"/>
    <tag k="operator" v="EON_Netz"/>
    <tag k="power" v="line"/>
    <tag k="ref" v="1043"/>
    <tag k="voltage" v="110000"/>
    <tag k="wires" v="single"/>
  </way>
  <way id="34583190" version="9" timestamp="2012-04-28T20:59:42Z" uid="323886" user="hermann51" changeset="11444694">
    <nd ref="392546999"/>
    <nd ref="401451569"/>
    <nd ref="401451570"/>
    <nd ref="401451571"/>
    <nd ref="401451572"/>
    <nd ref="401451573"/>
    <nd ref="401451574"/>
    <nd ref="401451576"/>
    <nd ref="401451577"/>
    <nd ref="401451578"/>
    <nd ref="401451579"/>
    <nd ref="401451580"/>
    <nd ref="432933718"/>
    <nd ref="432933722"/>
    <nd ref="432933725"/>
    <nd ref="432933728"/>
    <nd ref="432933731"/>
    <nd ref="432933735"/>
    <nd ref="432933739"/>
    <nd ref="432933745"/>
    <nd ref="432933749"/>
    <nd ref="432933754"/>
    <nd ref="432933757"/>
    <nd ref="432933760"/>
    <nd ref="1734523988"/>
    <nd ref="432933765"/>
    <nd ref="432933768"/>
    <nd ref="432933770"/>
    <nd ref="773550932"/>
    <nd ref="432933776"/>
    <nd ref="432933781"/>
    <nd ref="432934993"/>
    <tag k="cables" v="6"/>
    <tag k="frequency" v="50"/>
    <tag k="name" v="Westerstede"/>
    <tag k="operator" v="EON_Netz"/>
    <tag k="power" v="line"/>
    <tag k="ref" v="032"/>
    <tag k="voltage" v="110000"/>
    <tag k="wires" v="single"/>
  </way>
  <way id="34583190" version="10" timestamp="2012-07-27T17:12:21Z" uid="13203" user="bahnpirat" changeset="12513997">
    <nd ref="392546999"/>
    <nd ref="401451569"/>
    <nd ref="401451570"/>
    <nd ref="401451571"/>
    <nd ref="401451572"/>
    <nd ref="401451573"/>
    <nd ref="401451574"/>
    <nd ref="401451576"/>
    <nd ref="401451577"/>
    <nd ref="401451578"/>
    <nd ref="401451579"/>
    <nd ref="401451580"/>
    <nd ref="432933718"/>
    <nd ref="432933722"/>
    <nd ref="432933725"/>
    <nd ref="432933728"/>
    <nd ref="432933731"/>
    <nd ref="432933735"/>
    <nd ref="432933739"/>
    <nd ref="432933745"/>
    <nd ref="432933749"/>
    <nd ref="432933754"/>
    <nd ref="432933757"/>
    <nd ref="432933760"/>
    <nd ref="1734523988"/>
    <nd ref="432933765"/>
    <nd ref="432933768"/>
    <nd ref="432933770"/>
    <nd ref="773550932"/>
    <nd ref="432933776"/>
    <nd ref="432933781"/>
    <nd ref="432934993"/>
    <tag k="cables" v="6"/>
    <tag k="frequency" v="50"/>
    <tag k="name" v="032"/>
    <tag k="operator" v="EON_Netz"/>
    <tag k="power" v="line"/>
    <tag k="ref" v="032"/>
    <tag k="voltage" v="110000"/>
    <tag k="wires" v="single"/>
  </way>
  <way id="34583190" version="11" timestamp="2012-08-01T14:47:37Z" uid="13203" user="bahnpirat" changeset="12575288">
    <nd ref="392546999"/>
    <nd ref="401451569"/>
    <nd ref="401451570"/>
    <nd ref="401451571"/>
    <nd ref="401451572"/>
    <nd ref="401451573"/>
    <nd ref="401451574"/>
    <nd ref="401451576"/>
    <nd ref="401451577"/>
    <nd ref="401451578"/>
    <nd ref="401451579"/>
    <nd ref="401451580"/>
    <nd ref="432933718"/>
    <nd ref="432933722"/>
    <nd ref="432933725"/>
    <nd ref="432933728"/>
    <nd ref="432933731"/>
    <nd ref="432933735"/>
    <nd ref="432933739"/>
    <nd ref="432933745"/>
    <nd ref="432933749"/>
    <nd ref="432933754"/>
    <nd ref="432933757"/>
    <nd ref="432933760"/>
    <nd ref="432933765"/>
    <nd ref="432933768"/>
    <nd ref="432933770"/>
    <nd ref="773550932"/>
    <nd ref="432933776"/>
    <nd ref="432933781"/>
    <nd ref="432934993"/>
    <tag k="cables" v="6"/>
    <tag k="frequency" v="50"/>
    <tag k="name" v="032"/>
    <tag k="operator" v="EON_Netz"/>
    <tag k="power" v="line"/>
    <tag k="ref" v="032"/>
    <tag k="voltage" v="110000"/>
    <tag k="wires" v="single"/>
  </way>
  <way id="34583623" version="7" timestamp="2012-07-19T22:46:10Z" uid="722137" user="OSMF Redaction Account" changeset="12350882">
    <nd ref="401457136"/>
    <nd ref="798936291"/>
    <nd ref="401457597"/>
    <tag k="highway" v="residential"/>
    <tag k="name" v="Greenshield Place"/>
  </way>
  <way id="34583681" version="10" timestamp="2012-06-28T13:01:02Z" uid="328538" user="o&apos;cholio" changeset="12046579">
    <nd ref="1805018638"/>
    <nd ref="370727059"/>
    <nd ref="708614543"/>
    <nd ref="708614557"/>
    <nd ref="896731786"/>
    <nd ref="669640025"/>
    <tag k="highway" v="residential"/>
    <tag k="name" v="Paget Street"/>
    <tag k="source" v="nearmap"/>
  </way>
  <way id="34583681" version="11" timestamp="2012-07-19T22:46:29Z" uid="722137" user="OSMF Redaction Account" changeset="12350882">
    <nd ref="1805018638"/>
    <nd ref="370727059"/>
    <nd ref="708614543"/>
    <nd ref="708614557"/>
  </way>
  <way id="34583977" version="4" timestamp="2012-05-23T11:49:42Z" uid="349913" user="Peter W34" changeset="11680155">
    <nd ref="401461427"/>
    <nd ref="401461428"/>
    <nd ref="401461429"/>
    <nd ref="401461431"/>
    <nd ref="1219988316"/>
    <nd ref="1219987849"/>
    <nd ref="1219987699"/>
    <nd ref="1219988372"/>
    <nd ref="1219987889"/>
    <nd ref="1219987502"/>
    <nd ref="1219988129"/>
    <nd ref="1219987756"/>
    <nd ref="1219988458"/>
    <nd ref="1219987944"/>
    <nd ref="1219987790"/>
    <nd ref="1219988505"/>
    <nd ref="1219987983"/>
    <nd ref="1219987640"/>
    <nd ref="1219988560"/>
    <nd ref="1219988277"/>
    <nd ref="1219987830"/>
    <nd ref="1219988616"/>
    <nd ref="1219988043"/>
    <nd ref="1219987687"/>
    <nd ref="1219988342"/>
    <nd ref="1219987874"/>
    <nd ref="1219987484"/>
    <nd ref="1219988096"/>
    <tag k="highway" v="unclassified"/>
    <tag k="surface" v="gravel"/>
  </way>
  <way id="34583977" version="5" timestamp="2012-07-19T12:53:01Z" uid="722137" user="OSMF Redaction Account" changeset="12327095">
    <nd ref="401461427"/>
    <nd ref="401461428"/>
    <nd ref="401461429"/>
    <nd ref="401461431"/>
    <tag k="highway" v="residential"/>
  </way>
</osm>
