<?xml version='1.0' encoding='UTF-8'?>
<osm version="0.6" generator="libosmium/2.20.0">
  <way id="34600326" version="4" timestamp="2009-09-29T01:35:42Z" uid="36809" user="pfoten_weg_!_" changeset="2672113">
    <nd ref="401743532"/>
    <nd ref="401743161"/>
    <nd ref="401743163"/>
    <nd ref="401743166"/>
    <nd ref="401743167"/>
    <nd ref="401743171"/>
    <tag k="foot" v="yes"/>
    <tag k="highway" v="footway"/>
  </way>
  <way id="34600326" version="5" timestamp="2010-02-08T21:06:57Z" uid="62236" user="Paulchen Panther" changeset="3827165">
    <nd ref="401743532"/>
    <nd ref="401743161"/>
    <nd ref="401743163"/>
    <nd ref="401743166"/>
    <nd ref="401743167"/>
    <nd ref="201248932"/>
    <tag k="foot" v="yes"/>
    <tag k="highway" v="footway"/>
  </way>
  <way id="34600326" version="6" timestamp="2011-08-05T20:29:27Z" uid="205377" user="geoMILLImeter" changeset="8932542">
    <nd ref="401743532"/>
    <nd ref="401743161"/>
    <nd ref="1387819366"/>
    <nd ref="401743163"/>
    <nd ref="401743166"/>
    <nd ref="1387819367"/>
    <nd ref="401743167"/>
    <nd ref="201248932"/>
    <tag k="foot" v="yes"/>
    <tag k="highway" v="footway"/>
  </way>
  <way id="34600494" version="2" timestamp="2010-12-29T20:33:12Z" uid="43863" user="Rundling" changeset="6803026"/>
  <way id="34600495" version="2" timestamp="2010-12-29T20:33:11Z" uid="43863" user="Rundling" changeset="6803026"/>
  <way id="34600496" version="2" timestamp="2010-12-29T20:33:12Z" uid="43863" user="Rundling" changeset="6803026"/>
  <way id="34600497" version="2" timestamp="2010-12-29T20:33:11Z" uid="43863" user="Rundling" changeset="6803026"/>
  <way id="34600498" version="3" timestamp="2011-01-04T22:36:55Z" uid="65847" user="LKK" changeset="6866846">
    <nd ref="401755594"/>
    <nd ref="401755599"/>
    <nd ref="401755604"/>
    <nd ref="401755608"/>
    <nd ref="401755594"/>
    <tag k="building" v="yes"/>
    <tag k="name" v="Хипермаркет Фантастико"/>
    <tag k="shop" v="supermarket"/>
  </way>
  <way id="34600498" version="4" timestamp="2012-01-20T00:06:21Z" uid="590510" user="gadgev" changeset="10442424">
    <nd ref="401755594"/>
    <nd ref="401755599"/>
    <nd ref="401755604"/>
    <nd ref="401755608"/>
    <nd ref="401755594"/>
    <tag k="building" v="yes"/>
    <tag k="name" v="Хипермаркет Фантастико 1"/>
    <tag k="shop" v="supermarket"/>
  </way>
  <way id="34600499" version="1" timestamp="2009-05-16T17:03:58Z" uid="34428" user="usm78-gis" changeset="1212853">
    <nd ref="391286402"/>
    <nd ref="391286495"/>
    <nd ref="312166288"/>
    <tag k="cladr:code" v="78000000000093800"/>
    <tag k="cladr:name" v="Новосмоленская"/>
    <tag k="cladr:suffix" v="Набережная"/>
    <tag k="created_by" v="Potlatch 0.10f"/>
    <tag k="highway" v="secondary"/>
    <tag k="name" v="Новосмоленская наб."/>
  </way>
  <way id="34600499" version="2" timestamp="2009-05-16T17:05:13Z" uid="34428" user="usm78-gis" changeset="1212870">
    <nd ref="391286402"/>
    <nd ref="391286495"/>
    <tag k="cladr:code" v="78000000000093800"/>
    <tag k="cladr:name" v="Новосмоленская"/>
    <tag k="cladr:suffix" v="Набережная"/>
    <tag k="created_by" v="Potlatch 0.10f"/>
    <tag k="highway" v="secondary"/>
    <tag k="name" v="Новосмоленская наб."/>
  </way>
  <way id="34600499" version="3" timestamp="2010-06-02T17:29:19Z" uid="290271" user="Zverik" changeset="4886068">
    <nd ref="391286402"/>
    <nd ref="391286495"/>
    <tag k="cladr:code" v="78000000000093800"/>
    <tag k="cladr:name" v="Новосмоленская"/>
    <tag k="cladr:suffix" v="Набережная"/>
    <tag k="highway" v="residential"/>
    <tag k="name" v="Новосмоленская наб."/>
  </way>
  <way id="34600499" version="4" timestamp="2010-06-26T15:54:46Z" uid="290271" user="Zverik" changeset="5082052">
    <nd ref="391286402"/>
    <nd ref="391286495"/>
    <tag k="cladr:code" v="78000000000093800"/>
    <tag k="cladr:name" v="Новосмоленская"/>
    <tag k="cladr:suffix" v="Набережная"/>
    <tag k="highway" v="residential"/>
    <tag k="name" v="Новосмоленская набережная"/>
    <tag k="name:en" v="Novosmolenskaya Embankment"/>
  </way>
  <way id="34600499" version="5" timestamp="2010-07-20T06:37:25Z" uid="54450" user="StirliZ" changeset="5267625">
    <nd ref="391286402"/>
    <nd ref="391286495"/>
    <tag k="cladr:code" v="78000000000093800"/>
    <tag k="cladr:name" v="Новосмоленская"/>
    <tag k="cladr:suffix" v="Набережная"/>
    <tag k="highway" v="residential"/>
    <tag k="lanes" v="2"/>
    <tag k="name" v="Новосмоленская набережная"/>
    <tag k="name:en" v="Novosmolenskaya Embankment"/>
  </way>
  <way id="34600499" version="6" timestamp="2010-11-07T21:41:18Z" uid="290271" user="Zverik" changeset="6316395">
    <nd ref="391286402"/>
    <nd ref="391286495"/>
    <tag k="cladr:code" v="78000000000093800"/>
    <tag k="cladr:name" v="Новосмоленская"/>
    <tag k="cladr:suffix" v="Набережная"/>
    <tag k="highway" v="residential"/>
    <tag k="lanes" v="2"/>
    <tag k="lit" v="yes"/>
    <tag k="name" v="Новосмоленская набережная"/>
    <tag k="name:en" v="Novosmolenskaya Embankment"/>
  </way>
  <way id="34600499" version="7" timestamp="2011-01-11T09:24:57Z" uid="183576" user="axline" changeset="6934639">
    <nd ref="391286402"/>
    <nd ref="391286495"/>
    <nd ref="1097766949"/>
    <tag k="cladr:code" v="78000000000093800; 78000000000093800; 78000000000093800; 78000000000016300"/>
    <tag k="cladr:name" v="Новосмоленская; Новосмоленская; Новосмоленская; Беринга"/>
    <tag k="cladr:suffix" v="Набережная; Набережная; Набережная; Улица"/>
    <tag k="highway" v="residential; residential; residential; tertiary"/>
    <tag k="lanes" v="2; 2; 2; 4"/>
    <tag k="lit" v="yes"/>
    <tag k="name" v="Новосмоленская набережная; Новосмоленская набережная; Новосмоленская набережная; улица Беринга"/>
    <tag k="name:en" v="Novosmolenskaya Embankment; Novosmolenskaya Embankment; Novosmolenskaya Embankment; Beringa Street"/>
  </way>
  <way id="34600499" version="8" timestamp="2011-01-11T09:39:41Z" uid="183576" user="axline" changeset="6934750">
    <nd ref="391286402"/>
    <nd ref="391286495"/>
    <nd ref="1097766949"/>
    <tag k="cladr:code" v="78000000000093800; 78000000000093800; 78000000000093800; 78000000000016300"/>
    <tag k="cladr:name" v="Новосмоленская; Новосмоленская; Новосмоленская; Беринга"/>
    <tag k="cladr:suffix" v="Набережная; Набережная; Набережная; Улица"/>
    <tag k="highway" v="tertiary"/>
    <tag k="lanes" v="4"/>
    <tag k="lit" v="yes"/>
    <tag k="name" v="Новосмоленская набережная; Новосмоленская набережная; Новосмоленская набережная; улица Беринга"/>
    <tag k="name:en" v="Novosmolenskaya Embankment; Novosmolenskaya Embankment; Novosmolenskaya Embankment; Beringa Street"/>
  </way>
  <way id="34600499" version="9" timestamp="2011-01-11T10:06:54Z" uid="183576" user="axline" changeset="6934971">
    <nd ref="391286402"/>
    <nd ref="391286495"/>
    <nd ref="1097766949"/>
    <tag k="cladr:code" v="78000000000093800; 78000000000093800; 78000000000093800; 78000000000016300"/>
    <tag k="cladr:name" v="Новосмоленская"/>
    <tag k="cladr:suffix" v="Набережная"/>
    <tag k="highway" v="tertiary"/>
    <tag k="lanes" v="4"/>
    <tag k="lit" v="yes"/>
    <tag k="name" v="Новосмоленская набережная"/>
    <tag k="name:en" v="Novosmolenskaya Embankment"/>
  </way>
  <way id="34600499" version="10" timestamp="2011-01-18T14:24:56Z" uid="183576" user="axline" changeset="7010904">
    <nd ref="391286402"/>
    <nd ref="391286495"/>
    <nd ref="1109048456"/>
    <nd ref="1097766949"/>
    <tag k="cladr:code" v="78000000000093800; 78000000000093800; 78000000000093800; 78000000000016300"/>
    <tag k="cladr:name" v="Новосмоленская"/>
    <tag k="cladr:suffix" v="Набережная"/>
    <tag k="highway" v="tertiary"/>
    <tag k="lanes" v="4"/>
    <tag k="lit" v="yes"/>
    <tag k="name" v="Новосмоленская набережная"/>
    <tag k="name:en" v="Novosmolenskaya Embankment"/>
  </way>
  <way id="34600499" version="11" timestamp="2011-01-19T08:12:17Z" uid="183576" user="axline" changeset="7018077">
    <nd ref="391286402"/>
    <nd ref="391286495"/>
    <nd ref="1109048456"/>
    <nd ref="1110107343"/>
    <nd ref="1097766949"/>
    <tag k="cladr:code" v="78000000000093800; 78000000000093800; 78000000000093800; 78000000000016300"/>
    <tag k="cladr:name" v="Новосмоленская"/>
    <tag k="cladr:suffix" v="Набережная"/>
    <tag k="highway" v="tertiary"/>
    <tag k="lanes" v="4"/>
    <tag k="lit" v="yes"/>
    <tag k="name" v="Новосмоленская набережная"/>
    <tag k="name:en" v="Novosmolenskaya Embankment"/>
  </way>
  <way id="34600499" version="12" timestamp="2011-06-15T16:27:33Z" uid="443175" user="zzapp" changeset="8448536">
    <nd ref="391286402"/>
    <nd ref="1326613839"/>
    <nd ref="391286495"/>
    <nd ref="1109048456"/>
    <nd ref="1110107343"/>
    <nd ref="1097766949"/>
    <tag k="cladr:code" v="78000000000093800; 78000000000093800; 78000000000093800; 78000000000016300"/>
    <tag k="cladr:name" v="Новосмоленская"/>
    <tag k="cladr:suffix" v="Набережная"/>
    <tag k="highway" v="tertiary"/>
    <tag k="lanes" v="4"/>
    <tag k="lit" v="yes"/>
    <tag k="name" v="Новосмоленская набережная"/>
    <tag k="name:en" v="Novosmolenskaya Embankment"/>
  </way>
  <way id="34600499" version="13" timestamp="2011-09-27T21:31:59Z" uid="143266" user="Sergey Astakhov" changeset="9415071">
    <nd ref="391286402"/>
    <nd ref="1326613839"/>
    <nd ref="391286495"/>
    <nd ref="1109048456"/>
    <nd ref="1110107343"/>
    <nd ref="1097766949"/>
    <tag k="highway" v="tertiary"/>
    <tag k="lanes" v="4"/>
    <tag k="lit" v="yes"/>
    <tag k="name" v="Новосмоленская набережная"/>
    <tag k="name:en" v="Novosmolenskaya Embankment"/>
  </way>
  <way id="34600499" version="14" timestamp="2011-11-05T23:17:13Z" uid="437809" user="Anton Khorev" changeset="9751518">
    <nd ref="391286402"/>
    <nd ref="1492881457"/>
    <nd ref="1492881454"/>
    <nd ref="1326613839"/>
    <nd ref="391286495"/>
    <nd ref="1109048456"/>
    <nd ref="1492881442"/>
    <nd ref="1110107343"/>
    <nd ref="1097766949"/>
    <tag k="highway" v="tertiary"/>
    <tag k="lanes" v="4"/>
    <tag k="lit" v="yes"/>
    <tag k="name" v="Новосмоленская набережная"/>
    <tag k="name:en" v="Novosmolenskaya Embankment"/>
  </way>
  <way id="34600564" version="1" timestamp="2009-05-16T17:04:45Z" uid="34428" user="usm78-gis" changeset="1212863">
    <nd ref="391286635"/>
    <nd ref="391286402"/>
    <tag k="cladr:code" v="78000000000093800"/>
    <tag k="cladr:name" v="Новосмоленская"/>
    <tag k="cladr:suffix" v="Набережная"/>
    <tag k="created_by" v="Potlatch 0.10f"/>
    <tag k="highway" v="secondary"/>
    <tag k="name" v="Новосмоленская наб."/>
  </way>
  <way id="34600564" version="2" timestamp="2010-06-02T17:29:29Z" uid="290271" user="Zverik" changeset="4886068">
    <nd ref="391286635"/>
    <nd ref="391286402"/>
    <tag k="cladr:code" v="78000000000093800"/>
    <tag k="cladr:name" v="Новосмоленская"/>
    <tag k="cladr:suffix" v="Набережная"/>
    <tag k="highway" v="residential"/>
    <tag k="name" v="Новосмоленская наб."/>
  </way>
  <way id="34600564" version="3" timestamp="2010-06-26T15:54:51Z" uid="290271" user="Zverik" changeset="5082052">
    <nd ref="391286635"/>
    <nd ref="391286402"/>
    <tag k="cladr:code" v="78000000000093800"/>
    <tag k="cladr:name" v="Новосмоленская"/>
    <tag k="cladr:suffix" v="Набережная"/>
    <tag k="highway" v="residential"/>
    <tag k="name" v="Новосмоленская набережная"/>
    <tag k="name:en" v="Novosmolenskaya Embankment"/>
  </way>
  <way id="34600564" version="4" timestamp="2010-07-20T06:37:25Z" uid="54450" user="StirliZ" changeset="5267625">
    <nd ref="391286635"/>
    <nd ref="391286402"/>
    <tag k="cladr:code" v="78000000000093800"/>
    <tag k="cladr:name" v="Новосмоленская"/>
    <tag k="cladr:suffix" v="Набережная"/>
    <tag k="highway" v="residential"/>
    <tag k="lanes" v="2"/>
    <tag k="name" v="Новосмоленская набережная"/>
    <tag k="name:en" v="Novosmolenskaya Embankment"/>
  </way>
  <way id="34600564" version="5" timestamp="2010-11-07T21:42:23Z" uid="290271" user="Zverik" changeset="6316395">
    <nd ref="391286635"/>
    <nd ref="391286402"/>
    <tag k="cladr:code" v="78000000000093800"/>
    <tag k="cladr:name" v="Новосмоленская"/>
    <tag k="cladr:suffix" v="Набережная"/>
    <tag k="highway" v="residential"/>
    <tag k="lanes" v="2"/>
    <tag k="lit" v="yes"/>
    <tag k="name" v="Новосмоленская набережная"/>
    <tag k="name:en" v="Novosmolenskaya Embankment"/>
  </way>
  <way id="34600564" version="6" timestamp="2011-01-13T07:12:44Z" uid="136198" user="tmprec" changeset="6954451">
    <nd ref="391286635"/>
    <nd ref="391286402"/>
    <tag k="cladr:code" v="78000000000093800"/>
    <tag k="cladr:name" v="Новосмоленская"/>
    <tag k="cladr:suffix" v="Набережная"/>
    <tag k="highway" v="tertiary"/>
    <tag k="lanes" v="2"/>
    <tag k="lit" v="yes"/>
    <tag k="name" v="Новосмоленская набережная"/>
    <tag k="name:en" v="Novosmolenskaya Embankment"/>
  </way>
  <way id="34600564" version="7" timestamp="2011-06-15T16:27:33Z" uid="443175" user="zzapp" changeset="8448536">
    <nd ref="391286635"/>
    <nd ref="1326613853"/>
    <nd ref="391286402"/>
    <tag k="cladr:code" v="78000000000093800"/>
    <tag k="cladr:name" v="Новосмоленская"/>
    <tag k="cladr:suffix" v="Набережная"/>
    <tag k="highway" v="tertiary"/>
    <tag k="lanes" v="2"/>
    <tag k="lit" v="yes"/>
    <tag k="name" v="Новосмоленская набережная"/>
    <tag k="name:en" v="Novosmolenskaya Embankment"/>
  </way>
  <way id="34600564" version="8" timestamp="2011-09-27T21:31:59Z" uid="143266" user="Sergey Astakhov" changeset="9415071">
    <nd ref="391286635"/>
    <nd ref="1326613853"/>
    <nd ref="391286402"/>
    <tag k="highway" v="tertiary"/>
    <tag k="lanes" v="2"/>
    <tag k="lit" v="yes"/>
    <tag k="name" v="Новосмоленская набережная"/>
    <tag k="name:en" v="Novosmolenskaya Embankment"/>
  </way>
  <way id="34600641" version="1" timestamp="2009-05-16T17:05:12Z" uid="34428" user="usm78-gis" changeset="1212870">
    <nd ref="391286495"/>
    <nd ref="312166288"/>
    <tag k="cladr:code" v="78000000000093800"/>
    <tag k="cladr:name" v="Новосмоленская"/>
    <tag k="cladr:suffix" v="Набережная"/>
    <tag k="created_by" v="Potlatch 0.10f"/>
    <tag k="highway" v="secondary"/>
    <tag k="name" v="Новосмоленская наб."/>
  </way>
  <way id="34600641" version="2" timestamp="2010-06-02T17:29:32Z" uid="290271" user="Zverik" changeset="4886068">
    <nd ref="391286495"/>
    <nd ref="312166288"/>
    <tag k="cladr:code" v="78000000000093800"/>
    <tag k="cladr:name" v="Новосмоленская"/>
    <tag k="cladr:suffix" v="Набережная"/>
    <tag k="highway" v="residential"/>
    <tag k="name" v="Новосмоленская наб."/>
  </way>
  <way id="34600641" version="3" timestamp="2010-06-26T15:55:23Z" uid="290271" user="Zverik" changeset="5082052">
    <nd ref="391286495"/>
    <nd ref="312166288"/>
    <tag k="cladr:code" v="78000000000093800"/>
    <tag k="cladr:name" v="Новосмоленская"/>
    <tag k="cladr:suffix" v="Набережная"/>
    <tag k="highway" v="residential"/>
    <tag k="name" v="Новосмоленская набережная"/>
    <tag k="name:en" v="Novosmolenskaya Embankment"/>
  </way>
  <way id="34600641" version="4" timestamp="2010-07-20T06:37:24Z" uid="54450" user="StirliZ" changeset="5267625">
    <nd ref="391286495"/>
    <nd ref="312166288"/>
    <tag k="cladr:code" v="78000000000093800"/>
    <tag k="cladr:name" v="Новосмоленская"/>
    <tag k="cladr:suffix" v="Набережная"/>
    <tag k="highway" v="residential"/>
    <tag k="lanes" v="2"/>
    <tag k="name" v="Новосмоленская набережная"/>
    <tag k="name:en" v="Novosmolenskaya Embankment"/>
  </way>
  <way id="34600641" version="5" timestamp="2010-11-07T21:42:59Z" uid="290271" user="Zverik" changeset="6316395">
    <nd ref="391286495"/>
    <nd ref="312166288"/>
    <tag k="cladr:code" v="78000000000093800"/>
    <tag k="cladr:name" v="Новосмоленская"/>
    <tag k="cladr:suffix" v="Набережная"/>
    <tag k="highway" v="residential"/>
    <tag k="lanes" v="2"/>
    <tag k="lit" v="yes"/>
    <tag k="name" v="Новосмоленская набережная"/>
    <tag k="name:en" v="Novosmolenskaya Embankment"/>
  </way>
  <way id="34600641" version="6" timestamp="2011-01-11T09:08:27Z" uid="183576" user="axline" changeset="6934298">
    <nd ref="391286495"/>
    <nd ref="1097766949"/>
    <nd ref="1097766937"/>
    <nd ref="1097767069"/>
    <nd ref="306831"/>
    <nd ref="306746"/>
    <nd ref="8084296"/>
    <nd ref="306830"/>
    <nd ref="276768"/>
    <nd ref="276769"/>
    <nd ref="415294586"/>
    <nd ref="306767"/>
    <tag k="cladr:code" v="78000000000093800; 78000000000093800; 78000000000016300"/>
    <tag k="cladr:name" v="Новосмоленская; Новосмоленская; Беринга"/>
    <tag k="cladr:suffix" v="Набережная; Набережная; Улица"/>
    <tag k="highway" v="residential; residential; tertiary"/>
    <tag k="lanes" v="2; 2; 4"/>
    <tag k="lit" v="yes"/>
    <tag k="name" v="Новосмоленская набережная; Новосмоленская набережная; улица Беринга"/>
    <tag k="name:en" v="Novosmolenskaya Embankment; Novosmolenskaya Embankment; Beringa Street"/>
  </way>
  <way id="34600641" version="7" timestamp="2011-01-11T09:25:14Z" uid="183576" user="axline" changeset="6934639"/>
  <way id="34600936" version="1" timestamp="2009-05-16T17:07:08Z" uid="34428" user="usm78-gis" changeset="1212876">
    <nd ref="151031658"/>
    <nd ref="151031656"/>
    <tag k="created_by" v="Potlatch 0.10f"/>
    <tag k="highway" v="service"/>
    <tag k="oneway" v="yes"/>
  </way>
  <way id="34600936" version="2" timestamp="2011-03-01T16:19:14Z" uid="136198" user="tmprec" changeset="7430534">
    <nd ref="151031658"/>
    <nd ref="151031656"/>
    <tag k="highway" v="service"/>
    <tag k="oneway" v="yes"/>
  </way>
  <way id="34600936" version="3" timestamp="2011-09-25T00:43:53Z" uid="39040" user="Dinamik" changeset="9388947"/>
  <way id="34600498" version="5" timestamp="2012-07-20T03:25:15Z" uid="722137" user="OSMF Redaction Account" changeset="12359345">
    <nd ref="401755594"/>
    <nd ref="401755599"/>
    <nd ref="401755604"/>
    <nd ref="401755608"/>
    <nd ref="401755594"/>
    <tag k="building" v="yes"/>
    <tag k="name" v="Хипермаркет Фантастико 1"/>
  </way>
  <way id="34600499" version="15" timestamp="2012-07-20T11:22:44Z" uid="722137" user="OSMF Redaction Account" changeset="12373013">
    <nd ref="1492881457"/>
    <nd ref="1492881454"/>
    <nd ref="1326613839"/>
    <nd ref="1109048456"/>
    <nd ref="1492881442"/>
    <nd ref="1110107343"/>
    <nd ref="1097766949"/>
    <tag k="highway" v="tertiary"/>
    <tag k="lanes" v="4"/>
    <tag k="lit" v="yes"/>
    <tag k="name" v="Новосмоленская набережная"/>
    <tag k="name:en" v="Novosmolenskaya Embankment"/>
  </way>
  <way id="34600499" version="16" timestamp="2012-08-18T05:45:00Z" uid="623185" user="coho" changeset="12769454">
    <nd ref="1492881457"/>
    <nd ref="1492881454"/>
    <nd ref="1326613839"/>
    <nd ref="391286495"/>
    <nd ref="1109048456"/>
    <nd ref="1492881442"/>
    <nd ref="1110107343"/>
    <nd ref="1097766949"/>
    <tag k="highway" v="tertiary"/>
    <tag k="lanes" v="4"/>
    <tag k="lit" v="yes"/>
    <tag k="name" v="Новосмоленская набережная"/>
    <tag k="name:en" v="Novosmolenskaya Embankment"/>
  </way>
  <way id="34600564" version="9" timestamp="2012-07-20T11:23:24Z" uid="722137" user="OSMF Redaction Account" changeset="12373013"/>
</osm>
