<?xml version='1.0' encoding='UTF-8'?>
<osm version="0.6" generator="libosmium/2.20.0">
  <way id="34676546" version="1" timestamp="2009-05-17T20:50:39Z" uid="96874" user="Quedel" changeset="1229079">
    <nd ref="300445665"/>
    <nd ref="299606119"/>
    <tag k="created_by" v="Potlatch 0.10b"/>
    <tag k="highway" v="residential"/>
    <tag k="name" v="Kornmarkt"/>
  </way>
  <way id="34676546" version="2" timestamp="2009-05-17T20:51:49Z" uid="96874" user="Quedel" changeset="1229079">
    <nd ref="300445665"/>
    <nd ref="299606119"/>
    <tag k="created_by" v="Potlatch 0.10b"/>
    <tag k="highway" v="living_street"/>
    <tag k="name" v="Kornmarkt"/>
  </way>
  <way id="34676546" version="3" timestamp="2010-03-02T10:38:29Z" uid="29055" user="derden" changeset="4015630">
    <nd ref="300445665"/>
    <nd ref="659035503"/>
    <nd ref="299606119"/>
    <tag k="highway" v="living_street"/>
    <tag k="name" v="Kornmarkt"/>
  </way>
  <way id="34676590" version="2" timestamp="2009-11-28T08:27:27Z" uid="20587" user="balrog-kun" changeset="3234082">
    <nd ref="573211474"/>
    <nd ref="573211455"/>
    <nd ref="403477166"/>
    <nd ref="403477165"/>
    <nd ref="573211474"/>
    <tag k="building" v="hall"/>
  </way>
  <way id="34676655" version="1" timestamp="2009-05-17T20:51:26Z" uid="96874" user="Quedel" changeset="1229079">
    <nd ref="403477881"/>
    <nd ref="266823246"/>
    <nd ref="287081528"/>
    <nd ref="266823301"/>
    <nd ref="266823249"/>
    <nd ref="266823296"/>
    <nd ref="266823275"/>
    <tag k="created_by" v="JOSM"/>
    <tag k="highway" v="residential"/>
    <tag k="maxspeed" v="30"/>
    <tag k="name" v="Marschlinger Hof"/>
    <tag k="surface" v="paved"/>
  </way>
  <way id="34676655" version="2" timestamp="2009-08-13T18:38:26Z" uid="52501" user="Thomas_K" changeset="2134993">
    <nd ref="403477881"/>
    <nd ref="266823246"/>
    <nd ref="287081528"/>
    <nd ref="266823296"/>
    <nd ref="266823275"/>
    <tag k="created_by" v="JOSM"/>
    <tag k="highway" v="residential"/>
    <tag k="maxspeed" v="30"/>
    <tag k="name" v="Marschlinger Hof"/>
    <tag k="surface" v="paved"/>
  </way>
  <way id="34676655" version="3" timestamp="2010-06-27T21:15:16Z" uid="34682" user="Florian_A" changeset="5093319">
    <nd ref="403477881"/>
    <nd ref="266823246"/>
    <nd ref="287081528"/>
    <nd ref="793631265"/>
    <nd ref="266823296"/>
    <nd ref="266823275"/>
    <tag k="highway" v="residential"/>
    <tag k="maxspeed" v="30"/>
    <tag k="name" v="Marschlinger Hof"/>
    <tag k="surface" v="paved"/>
  </way>
  <way id="34676655" version="4" timestamp="2010-10-04T18:04:14Z" uid="96874" user="Quedel" changeset="5955945">
    <nd ref="403477881"/>
    <nd ref="266823246"/>
    <nd ref="287081528"/>
    <nd ref="793631265"/>
    <nd ref="937878736"/>
    <tag k="highway" v="residential"/>
    <tag k="maxspeed" v="30"/>
    <tag k="name" v="Marschlinger Hof"/>
    <tag k="surface" v="paved"/>
  </way>
  <way id="34676655" version="5" timestamp="2010-10-13T16:30:05Z" uid="96874" user="Quedel" changeset="6030469">
    <nd ref="403477881"/>
    <nd ref="266823246"/>
    <nd ref="287081528"/>
    <nd ref="793631265"/>
    <tag k="highway" v="residential"/>
    <tag k="maxspeed" v="30"/>
    <tag k="name" v="Marschlinger Hof"/>
    <tag k="surface" v="paved"/>
  </way>
  <way id="34676655" version="6" timestamp="2010-10-15T20:59:10Z" uid="96874" user="Quedel" changeset="6051410">
    <nd ref="403477881"/>
    <nd ref="266823246"/>
    <nd ref="287081528"/>
    <nd ref="793631265"/>
    <tag k="highway" v="residential"/>
    <tag k="maxspeed" v="30"/>
    <tag k="name" v="Marschlinger Hof"/>
    <tag k="parking:lane:both" v="no_parking"/>
    <tag k="surface" v="paved"/>
  </way>
  <way id="34676546" version="4" timestamp="2012-07-17T08:32:15Z" uid="722137" user="OSMF Redaction Account" changeset="12260505"/>
  <way id="34676655" version="7" timestamp="2012-07-17T08:32:17Z" uid="722137" user="OSMF Redaction Account" changeset="12260505"/>
</osm>
