<?xml version='1.0' encoding='UTF-8'?>
<osm version="0.6" generator="libosmium/2.20.0">
  <way id="34710263" version="3" timestamp="2010-03-22T06:28:52Z" uid="20587" user="balrog-kun" changeset="4199043">
    <nd ref="39642108"/>
    <nd ref="39322448"/>
    <tag k="bridge" v="yes"/>
    <tag k="highway" v="residential"/>
    <tag k="name" v="Chadwick Lane"/>
    <tag k="tiger:cfcc" v="A41"/>
    <tag k="tiger:county" v="Douglas, OR"/>
    <tag k="tiger:name_base" v="Chadwick"/>
    <tag k="tiger:name_type" v="Ln"/>
    <tag k="tiger:reviewed" v="no"/>
    <tag k="tiger:separated" v="no"/>
    <tag k="tiger:source" v="tiger_import_dch_v0.6_20070808"/>
    <tag k="tiger:tlid" v="137205809:137205811:137205588:137205589:137224768:137205591:137244408:137244409"/>
    <tag k="tiger:zip_left" v="97457"/>
    <tag k="tiger:zip_right" v="97457"/>
  </way>
  <way id="34710263" version="4" timestamp="2011-01-29T22:40:13Z" uid="373763" user="ylekot" changeset="7128226">
    <nd ref="39642108"/>
    <nd ref="39322448"/>
    <tag k="bridge" v="yes"/>
    <tag k="highway" v="residential"/>
    <tag k="layer" v="1"/>
    <tag k="name" v="Chadwick Lane"/>
    <tag k="tiger:cfcc" v="A41"/>
    <tag k="tiger:county" v="Douglas, OR"/>
    <tag k="tiger:name_base" v="Chadwick"/>
    <tag k="tiger:name_type" v="Ln"/>
    <tag k="tiger:reviewed" v="no"/>
    <tag k="tiger:separated" v="no"/>
    <tag k="tiger:source" v="tiger_import_dch_v0.6_20070808"/>
    <tag k="tiger:tlid" v="137205809:137205811:137205588:137205589:137224768:137205591:137244408:137244409"/>
    <tag k="tiger:zip_left" v="97457"/>
    <tag k="tiger:zip_right" v="97457"/>
  </way>
  <way id="34710267" version="2" timestamp="2010-03-22T06:28:52Z" uid="20587" user="balrog-kun" changeset="4199043">
    <nd ref="39322448"/>
    <nd ref="39642111"/>
    <nd ref="404204681"/>
    <nd ref="39264578"/>
    <nd ref="39403587"/>
    <nd ref="39504517"/>
    <nd ref="39372185"/>
    <nd ref="39292269"/>
    <tag k="highway" v="residential"/>
    <tag k="name" v="Chadwick Lane"/>
    <tag k="tiger:cfcc" v="A41"/>
    <tag k="tiger:county" v="Douglas, OR"/>
    <tag k="tiger:name_base" v="Chadwick"/>
    <tag k="tiger:name_type" v="Ln"/>
    <tag k="tiger:reviewed" v="no"/>
    <tag k="tiger:separated" v="no"/>
    <tag k="tiger:source" v="tiger_import_dch_v0.6_20070808"/>
    <tag k="tiger:tlid" v="137205809:137205811:137205588:137205589:137224768:137205591:137244408:137244409"/>
    <tag k="tiger:zip_left" v="97457"/>
    <tag k="tiger:zip_right" v="97457"/>
  </way>
  <way id="34710272" version="1" timestamp="2009-05-18T15:08:03Z" uid="53938" user="ctheile" changeset="1237913">
    <nd ref="353636614"/>
    <nd ref="244288515"/>
    <nd ref="244288524"/>
    <nd ref="244288525"/>
    <nd ref="244288526"/>
    <nd ref="244288527"/>
    <nd ref="244288520"/>
    <nd ref="244288521"/>
    <nd ref="244288522"/>
    <nd ref="244288523"/>
    <nd ref="244288533"/>
    <nd ref="244288532"/>
    <nd ref="244288535"/>
    <nd ref="244288534"/>
    <nd ref="244288529"/>
    <nd ref="244288528"/>
    <nd ref="244288531"/>
    <nd ref="244288530"/>
    <nd ref="244288541"/>
    <nd ref="244288540"/>
    <nd ref="244288543"/>
    <nd ref="244288542"/>
    <nd ref="244288537"/>
    <nd ref="244288536"/>
    <nd ref="244288539"/>
    <nd ref="244288538"/>
    <nd ref="244288550"/>
    <nd ref="244288551"/>
    <nd ref="244288548"/>
    <nd ref="244288549"/>
    <nd ref="244288546"/>
    <nd ref="244288547"/>
    <nd ref="244288544"/>
    <nd ref="244288545"/>
    <nd ref="244288558"/>
    <nd ref="244288559"/>
    <nd ref="244288556"/>
    <nd ref="244288557"/>
    <nd ref="244288554"/>
    <nd ref="244288555"/>
    <nd ref="244288552"/>
    <nd ref="244288553"/>
    <nd ref="244288567"/>
    <nd ref="244288566"/>
    <nd ref="244288565"/>
    <nd ref="244288564"/>
    <nd ref="244288563"/>
    <nd ref="244288562"/>
    <nd ref="244288561"/>
    <nd ref="244288560"/>
    <nd ref="244288575"/>
    <nd ref="244288574"/>
    <nd ref="244288573"/>
    <nd ref="244288572"/>
    <nd ref="244288571"/>
    <nd ref="244288570"/>
    <nd ref="244288569"/>
    <nd ref="244288568"/>
    <nd ref="244288585"/>
    <nd ref="244288584"/>
    <nd ref="244288587"/>
    <nd ref="244288586"/>
    <nd ref="244288589"/>
    <nd ref="244288588"/>
    <nd ref="244288591"/>
    <nd ref="244288590"/>
    <nd ref="244288577"/>
    <nd ref="244288576"/>
    <nd ref="244288579"/>
    <nd ref="244288578"/>
    <nd ref="244288581"/>
    <nd ref="244288580"/>
    <nd ref="244288583"/>
    <nd ref="244288582"/>
    <nd ref="244288600"/>
    <nd ref="244288601"/>
    <nd ref="244288602"/>
    <nd ref="244288603"/>
    <nd ref="244288604"/>
    <nd ref="244288605"/>
    <nd ref="244288606"/>
    <nd ref="244288607"/>
    <nd ref="244288592"/>
    <nd ref="244288593"/>
    <nd ref="244288594"/>
    <nd ref="244288595"/>
    <nd ref="244288596"/>
    <nd ref="244288597"/>
    <nd ref="244288598"/>
    <nd ref="244288599"/>
    <nd ref="244288619"/>
    <nd ref="244288618"/>
    <nd ref="244288617"/>
    <nd ref="244288616"/>
    <nd ref="244288623"/>
    <nd ref="244288622"/>
    <nd ref="244288621"/>
    <nd ref="244288620"/>
    <nd ref="244288611"/>
    <nd ref="244288610"/>
    <nd ref="244288609"/>
    <nd ref="244288608"/>
    <nd ref="244288615"/>
    <nd ref="244288614"/>
    <nd ref="244288613"/>
    <nd ref="244288612"/>
    <nd ref="244288634"/>
    <nd ref="244288635"/>
    <nd ref="244288632"/>
    <nd ref="244288633"/>
    <nd ref="244288638"/>
    <nd ref="244288639"/>
    <nd ref="244288636"/>
    <nd ref="244288637"/>
    <nd ref="244288626"/>
    <nd ref="244288627"/>
    <nd ref="244288624"/>
    <nd ref="244288625"/>
    <nd ref="244288630"/>
    <nd ref="244288631"/>
    <nd ref="244288628"/>
    <nd ref="244288629"/>
    <nd ref="244288653"/>
    <nd ref="244288652"/>
    <nd ref="244288655"/>
    <nd ref="244288654"/>
    <nd ref="244288649"/>
    <nd ref="244288648"/>
    <nd ref="244288651"/>
    <nd ref="244288650"/>
    <nd ref="244288645"/>
    <nd ref="244288644"/>
    <nd ref="244288647"/>
    <nd ref="244288646"/>
    <nd ref="244288641"/>
    <nd ref="244288640"/>
    <nd ref="244288643"/>
    <nd ref="244288642"/>
    <nd ref="244288668"/>
    <nd ref="244288669"/>
    <nd ref="244288670"/>
    <nd ref="244288671"/>
    <nd ref="244288664"/>
    <nd ref="244288665"/>
    <nd ref="244288666"/>
    <nd ref="244288667"/>
    <nd ref="244288660"/>
    <nd ref="244288661"/>
    <nd ref="244288662"/>
    <nd ref="244288663"/>
    <nd ref="244288656"/>
    <nd ref="244288657"/>
    <nd ref="244288658"/>
    <nd ref="244288659"/>
    <nd ref="244288687"/>
    <nd ref="244288686"/>
    <nd ref="244288685"/>
    <nd ref="244288684"/>
    <nd ref="244288683"/>
    <nd ref="244288682"/>
    <nd ref="244288681"/>
    <nd ref="244288680"/>
    <nd ref="244288679"/>
    <nd ref="244288678"/>
    <nd ref="244288677"/>
    <nd ref="244288676"/>
    <nd ref="244288675"/>
    <nd ref="244288674"/>
    <nd ref="244288673"/>
    <nd ref="244288672"/>
    <nd ref="244288702"/>
    <nd ref="244288703"/>
    <nd ref="244288700"/>
    <nd ref="244288701"/>
    <nd ref="244288698"/>
    <nd ref="244288699"/>
    <nd ref="244288696"/>
    <nd ref="244288697"/>
    <nd ref="244288694"/>
    <nd ref="244288695"/>
    <nd ref="244288692"/>
    <nd ref="244288693"/>
    <nd ref="244288690"/>
    <nd ref="244288691"/>
    <nd ref="244288688"/>
    <nd ref="244288689"/>
    <nd ref="244288722"/>
    <nd ref="244288723"/>
    <nd ref="244288720"/>
    <nd ref="244288721"/>
    <nd ref="244288726"/>
    <nd ref="244288727"/>
    <nd ref="244288724"/>
    <nd ref="244288725"/>
    <nd ref="244288730"/>
    <nd ref="244288731"/>
    <nd ref="244288728"/>
    <nd ref="244288729"/>
    <nd ref="244288734"/>
    <nd ref="244288735"/>
    <nd ref="244288732"/>
    <nd ref="244288733"/>
    <nd ref="244288707"/>
    <nd ref="244288706"/>
    <nd ref="244288705"/>
    <nd ref="244288711"/>
    <tag k="admin_level" v="2"/>
    <tag k="border_type" v="nation"/>
    <tag k="boundary" v="administrative"/>
    <tag k="created_by" v="Potlatch 0.10b"/>
    <tag k="left:country" v="Senegal"/>
    <tag k="name" v="Border Senegal - Gambia"/>
    <tag k="right:country" v="Gambia"/>
    <tag k="source" v="CIA World database II"/>
    <tag k="wdb:source" v="CIA World database II - africa-bdy.txt - segment 34"/>
  </way>
  <way id="34710272" version="2" timestamp="2009-12-17T01:35:17Z" uid="95293" user="Nightdive" changeset="3390980">
    <nd ref="353636614"/>
    <nd ref="244288515"/>
    <nd ref="244288524"/>
    <nd ref="244288525"/>
    <nd ref="244288526"/>
    <nd ref="244288527"/>
    <nd ref="244288520"/>
    <nd ref="244288521"/>
    <nd ref="244288522"/>
    <nd ref="244288523"/>
    <nd ref="244288533"/>
    <nd ref="244288532"/>
    <nd ref="244288535"/>
    <nd ref="244288534"/>
    <nd ref="244288529"/>
    <nd ref="244288528"/>
    <nd ref="244288531"/>
    <nd ref="244288530"/>
    <nd ref="244288541"/>
    <nd ref="244288540"/>
    <nd ref="244288543"/>
    <nd ref="244288542"/>
    <nd ref="244288537"/>
    <nd ref="244288536"/>
    <nd ref="244288539"/>
    <nd ref="244288538"/>
    <nd ref="594095400"/>
    <tag k="admin_level" v="2"/>
    <tag k="border_type" v="nation"/>
    <tag k="boundary" v="administrative"/>
    <tag k="left:country" v="Senegal"/>
    <tag k="name" v="Border Senegal - Gambia"/>
    <tag k="right:country" v="Gambia"/>
    <tag k="source" v="CIA World database II"/>
    <tag k="wdb:source" v="CIA World database II - africa-bdy.txt - segment 34"/>
  </way>
  <way id="34710276" version="4" timestamp="2010-03-22T06:28:53Z" uid="20587" user="balrog-kun" changeset="4199043">
    <nd ref="39322451"/>
    <nd ref="39322454"/>
    <tag k="bridge" v="yes"/>
    <tag k="created_by" v="Potlatch 0.10f"/>
    <tag k="highway" v="motorway"/>
    <tag k="name" v="I-5"/>
    <tag k="name_1" v="State Highway 99"/>
    <tag k="name_2" v="Pacific Highway"/>
    <tag k="oneway" v="yes"/>
    <tag k="ref" v="I 5"/>
    <tag k="tiger:cfcc" v="A11"/>
    <tag k="tiger:county" v="Douglas, OR"/>
    <tag k="tiger:name_base" v="I-5"/>
    <tag k="tiger:name_base_1" v="State Highway 99"/>
    <tag k="tiger:name_base_2" v="Pacific"/>
    <tag k="tiger:name_type_2" v="Hwy"/>
    <tag k="tiger:separated" v="no"/>
    <tag k="tiger:source" v="tiger_import_dch_v0.6_20070808"/>
    <tag k="tiger:tlid" v="137198478:137228960:137242603:137200095:137200203:137200326:137225448:137198465"/>
  </way>
  <way id="34710276" version="5" timestamp="2011-01-06T17:45:03Z" uid="373763" user="ylekot" changeset="6884949">
    <nd ref="39322451"/>
    <nd ref="39322454"/>
    <tag k="alt_name" v="Pacific Highway #1"/>
    <tag k="bridge" v="yes"/>
    <tag k="highway" v="motorway"/>
    <tag k="name" v="Interstate 5"/>
    <tag k="name_1" v="State Highway 99"/>
    <tag k="name_2" v="Pacific Highway"/>
    <tag k="oneway" v="yes"/>
    <tag k="ref" v="I 5"/>
    <tag k="tiger:cfcc" v="A11"/>
    <tag k="tiger:county" v="Douglas, OR"/>
    <tag k="tiger:name_base" v="I-5"/>
    <tag k="tiger:name_base_1" v="State Highway 99"/>
    <tag k="tiger:name_base_2" v="Pacific"/>
    <tag k="tiger:name_type_2" v="Hwy"/>
    <tag k="tiger:separated" v="no"/>
    <tag k="tiger:source" v="tiger_import_dch_v0.6_20070808"/>
    <tag k="tiger:tlid" v="137198478:137228960:137242603:137200095:137200203:137200326:137225448:137198465"/>
  </way>
  <way id="34710276" version="6" timestamp="2011-03-26T01:21:14Z" uid="92286" user="Paul Johnson" changeset="7670923">
    <nd ref="39322451"/>
    <nd ref="39322454"/>
    <tag k="alt_name" v="Pacific Highway #1"/>
    <tag k="bicycle" v="yes"/>
    <tag k="bridge" v="yes"/>
    <tag k="highway" v="motorway"/>
    <tag k="name" v="Interstate 5"/>
    <tag k="name_1" v="State Highway 99"/>
    <tag k="name_2" v="Pacific Highway"/>
    <tag k="oneway" v="yes"/>
    <tag k="ref" v="I 5"/>
    <tag k="tiger:cfcc" v="A11"/>
    <tag k="tiger:county" v="Douglas, OR"/>
    <tag k="tiger:name_base" v="I-5"/>
    <tag k="tiger:name_base_1" v="State Highway 99"/>
    <tag k="tiger:name_base_2" v="Pacific"/>
    <tag k="tiger:name_type_2" v="Hwy"/>
    <tag k="tiger:separated" v="no"/>
    <tag k="tiger:source" v="tiger_import_dch_v0.6_20070808"/>
    <tag k="tiger:tlid" v="137198478:137228960:137242603:137200095:137200203:137200326:137225448:137198465"/>
  </way>
  <way id="34710276" version="7" timestamp="2011-07-16T21:20:15Z" uid="473471" user="NE3" changeset="8743071">
    <nd ref="39322451"/>
    <nd ref="39322454"/>
    <tag k="alt_name" v="Pacific Highway #1"/>
    <tag k="bicycle" v="yes"/>
    <tag k="bridge" v="yes"/>
    <tag k="highway" v="motorway"/>
    <tag k="lanes" v="2"/>
    <tag k="name" v="Pacific Highway"/>
    <tag k="oneway" v="yes"/>
    <tag k="ref" v="I 5"/>
    <tag k="tiger:cfcc" v="A11"/>
    <tag k="tiger:county" v="Douglas, OR"/>
    <tag k="tiger:name_base" v="I-5"/>
    <tag k="tiger:name_base_1" v="State Highway 99"/>
    <tag k="tiger:name_base_2" v="Pacific"/>
    <tag k="tiger:name_type_2" v="Hwy"/>
    <tag k="tiger:separated" v="no"/>
    <tag k="tiger:source" v="tiger_import_dch_v0.6_20070808"/>
    <tag k="tiger:tlid" v="137198478:137228960:137242603:137200095:137200203:137200326:137225448:137198465"/>
  </way>
  <way id="34710276" version="8" timestamp="2011-11-25T17:17:33Z" uid="207745" user="NE2" changeset="9945867">
    <nd ref="39322451"/>
    <nd ref="39322454"/>
    <tag k="alt_name" v="Pacific Highway #1"/>
    <tag k="bicycle" v="yes"/>
    <tag k="bridge" v="yes"/>
    <tag k="hgv" v="designated"/>
    <tag k="highway" v="motorway"/>
    <tag k="lanes" v="2"/>
    <tag k="name" v="Pacific Highway"/>
    <tag k="oneway" v="yes"/>
    <tag k="ref" v="I 5"/>
    <tag k="tiger:cfcc" v="A11"/>
    <tag k="tiger:county" v="Douglas, OR"/>
    <tag k="tiger:name_base" v="I-5"/>
    <tag k="tiger:name_base_1" v="State Highway 99"/>
    <tag k="tiger:name_base_2" v="Pacific"/>
    <tag k="tiger:name_type_2" v="Hwy"/>
    <tag k="tiger:separated" v="no"/>
    <tag k="tiger:source" v="tiger_import_dch_v0.6_20070808"/>
    <tag k="tiger:tlid" v="137198478:137228960:137242603:137200095:137200203:137200326:137225448:137198465"/>
  </way>
  <way id="34710280" version="8" timestamp="2010-03-22T06:28:53Z" uid="20587" user="balrog-kun" changeset="4199043">
    <nd ref="39322454"/>
    <nd ref="39322456"/>
    <nd ref="404207921"/>
    <nd ref="39322458"/>
    <nd ref="39322460"/>
    <nd ref="39322466"/>
    <nd ref="39322475"/>
    <nd ref="39322481"/>
    <nd ref="39322484"/>
    <nd ref="39322487"/>
    <nd ref="39322489"/>
    <nd ref="404216304"/>
    <nd ref="39322493"/>
    <nd ref="39322495"/>
    <tag k="created_by" v="Potlatch 0.10f"/>
    <tag k="highway" v="motorway"/>
    <tag k="name" v="I-5"/>
    <tag k="name_1" v="State Highway 99"/>
    <tag k="name_2" v="Pacific Highway"/>
    <tag k="oneway" v="yes"/>
    <tag k="ref" v="I 5"/>
    <tag k="tiger:cfcc" v="A11"/>
    <tag k="tiger:county" v="Douglas, OR"/>
    <tag k="tiger:name_base" v="I-5"/>
    <tag k="tiger:name_base_1" v="State Highway 99"/>
    <tag k="tiger:name_base_2" v="Pacific"/>
    <tag k="tiger:name_type_2" v="Hwy"/>
    <tag k="tiger:separated" v="no"/>
    <tag k="tiger:source" v="tiger_import_dch_v0.6_20070808"/>
    <tag k="tiger:tlid" v="137198478:137228960:137242603:137200095:137200203:137200326:137225448:137198465"/>
  </way>
  <way id="34710280" version="9" timestamp="2011-01-06T17:45:04Z" uid="373763" user="ylekot" changeset="6884949">
    <nd ref="39322454"/>
    <nd ref="39322456"/>
    <nd ref="404207921"/>
    <nd ref="39322458"/>
    <nd ref="39322460"/>
    <nd ref="39322466"/>
    <nd ref="39322475"/>
    <nd ref="39322481"/>
    <nd ref="39322484"/>
    <nd ref="39322487"/>
    <nd ref="39322489"/>
    <nd ref="404216304"/>
    <nd ref="39322493"/>
    <nd ref="39322495"/>
    <tag k="alt_name" v="Pacific Highway #1"/>
    <tag k="highway" v="motorway"/>
    <tag k="name" v="Interstate 5"/>
    <tag k="name_1" v="State Highway 99"/>
    <tag k="name_2" v="Pacific Highway"/>
    <tag k="oneway" v="yes"/>
    <tag k="ref" v="I 5"/>
    <tag k="tiger:cfcc" v="A11"/>
    <tag k="tiger:county" v="Douglas, OR"/>
    <tag k="tiger:name_base" v="I-5"/>
    <tag k="tiger:name_base_1" v="State Highway 99"/>
    <tag k="tiger:name_base_2" v="Pacific"/>
    <tag k="tiger:name_type_2" v="Hwy"/>
    <tag k="tiger:separated" v="no"/>
    <tag k="tiger:source" v="tiger_import_dch_v0.6_20070808"/>
    <tag k="tiger:tlid" v="137198478:137228960:137242603:137200095:137200203:137200326:137225448:137198465"/>
  </way>
  <way id="34710280" version="10" timestamp="2011-03-26T01:27:30Z" uid="92286" user="Paul Johnson" changeset="7670923">
    <nd ref="39322454"/>
    <nd ref="39322456"/>
    <nd ref="404207921"/>
    <nd ref="39322458"/>
    <nd ref="39322460"/>
    <nd ref="39322466"/>
    <nd ref="39322475"/>
    <nd ref="39322481"/>
    <nd ref="39322484"/>
    <nd ref="39322487"/>
    <nd ref="39322489"/>
    <nd ref="404216304"/>
    <nd ref="39322493"/>
    <nd ref="39322495"/>
    <tag k="alt_name" v="Pacific Highway #1"/>
    <tag k="bicycle" v="yes"/>
    <tag k="highway" v="motorway"/>
    <tag k="name" v="Interstate 5"/>
    <tag k="name_1" v="State Highway 99"/>
    <tag k="name_2" v="Pacific Highway"/>
    <tag k="oneway" v="yes"/>
    <tag k="ref" v="I 5"/>
    <tag k="tiger:cfcc" v="A11"/>
    <tag k="tiger:county" v="Douglas, OR"/>
    <tag k="tiger:name_base" v="I-5"/>
    <tag k="tiger:name_base_1" v="State Highway 99"/>
    <tag k="tiger:name_base_2" v="Pacific"/>
    <tag k="tiger:name_type_2" v="Hwy"/>
    <tag k="tiger:separated" v="no"/>
    <tag k="tiger:source" v="tiger_import_dch_v0.6_20070808"/>
    <tag k="tiger:tlid" v="137198478:137228960:137242603:137200095:137200203:137200326:137225448:137198465"/>
  </way>
  <way id="34710280" version="11" timestamp="2011-07-16T21:20:11Z" uid="473471" user="NE3" changeset="8743071">
    <nd ref="39322454"/>
    <nd ref="39322456"/>
    <nd ref="404207921"/>
    <nd ref="39322458"/>
    <nd ref="39322460"/>
    <nd ref="39322466"/>
    <nd ref="39322475"/>
    <nd ref="39322481"/>
    <nd ref="39322484"/>
    <nd ref="39322487"/>
    <nd ref="39322489"/>
    <nd ref="404216304"/>
    <nd ref="39322493"/>
    <nd ref="39322495"/>
    <tag k="alt_name" v="Pacific Highway #1"/>
    <tag k="bicycle" v="yes"/>
    <tag k="highway" v="motorway"/>
    <tag k="lanes" v="2"/>
    <tag k="name" v="Pacific Highway"/>
    <tag k="oneway" v="yes"/>
    <tag k="ref" v="I 5"/>
    <tag k="tiger:cfcc" v="A11"/>
    <tag k="tiger:county" v="Douglas, OR"/>
    <tag k="tiger:name_base" v="I-5"/>
    <tag k="tiger:name_base_1" v="State Highway 99"/>
    <tag k="tiger:name_base_2" v="Pacific"/>
    <tag k="tiger:name_type_2" v="Hwy"/>
    <tag k="tiger:separated" v="no"/>
    <tag k="tiger:source" v="tiger_import_dch_v0.6_20070808"/>
    <tag k="tiger:tlid" v="137198478:137228960:137242603:137200095:137200203:137200326:137225448:137198465"/>
  </way>
  <way id="34710280" version="12" timestamp="2011-11-25T17:16:21Z" uid="207745" user="NE2" changeset="9945867">
    <nd ref="39322454"/>
    <nd ref="39322456"/>
    <nd ref="404207921"/>
    <nd ref="39322458"/>
    <nd ref="39322460"/>
    <nd ref="39322466"/>
    <nd ref="39322475"/>
    <nd ref="39322481"/>
    <nd ref="39322484"/>
    <nd ref="39322487"/>
    <nd ref="39322489"/>
    <nd ref="404216304"/>
    <nd ref="39322493"/>
    <nd ref="39322495"/>
    <tag k="alt_name" v="Pacific Highway #1"/>
    <tag k="bicycle" v="yes"/>
    <tag k="hgv" v="designated"/>
    <tag k="highway" v="motorway"/>
    <tag k="lanes" v="2"/>
    <tag k="name" v="Pacific Highway"/>
    <tag k="oneway" v="yes"/>
    <tag k="ref" v="I 5"/>
    <tag k="tiger:cfcc" v="A11"/>
    <tag k="tiger:county" v="Douglas, OR"/>
    <tag k="tiger:name_base" v="I-5"/>
    <tag k="tiger:name_base_1" v="State Highway 99"/>
    <tag k="tiger:name_base_2" v="Pacific"/>
    <tag k="tiger:name_type_2" v="Hwy"/>
    <tag k="tiger:separated" v="no"/>
    <tag k="tiger:source" v="tiger_import_dch_v0.6_20070808"/>
    <tag k="tiger:tlid" v="137198478:137228960:137242603:137200095:137200203:137200326:137225448:137198465"/>
  </way>
  <way id="34710601" version="7" timestamp="2010-03-22T06:28:53Z" uid="20587" user="balrog-kun" changeset="4199043">
    <nd ref="39322498"/>
    <nd ref="39322501"/>
    <nd ref="39322504"/>
    <nd ref="39322507"/>
    <nd ref="404216774"/>
    <nd ref="39322510"/>
    <nd ref="39322512"/>
    <nd ref="404216777"/>
    <nd ref="404216781"/>
    <nd ref="404216785"/>
    <nd ref="39322514"/>
    <nd ref="39322516"/>
    <nd ref="39322518"/>
    <nd ref="39322521"/>
    <nd ref="39322523"/>
    <nd ref="404216800"/>
    <nd ref="404219457"/>
    <nd ref="404219460"/>
    <nd ref="404219464"/>
    <nd ref="404219469"/>
    <tag k="created_by" v="Potlatch 0.10f"/>
    <tag k="highway" v="motorway"/>
    <tag k="name" v="I-5"/>
    <tag k="name_1" v="State Highway 99"/>
    <tag k="name_2" v="Pacific Highway"/>
    <tag k="oneway" v="yes"/>
    <tag k="ref" v="I 5"/>
    <tag k="tiger:cfcc" v="A11"/>
    <tag k="tiger:county" v="Douglas, OR"/>
    <tag k="tiger:name_base" v="I-5"/>
    <tag k="tiger:name_base_1" v="State Highway 99"/>
    <tag k="tiger:name_base_2" v="Pacific"/>
    <tag k="tiger:name_type_2" v="Hwy"/>
    <tag k="tiger:separated" v="no"/>
    <tag k="tiger:source" v="tiger_import_dch_v0.6_20070808"/>
    <tag k="tiger:tlid" v="137198478:137228960:137242603:137200095:137200203:137200326:137225448:137198465"/>
  </way>
  <way id="34710601" version="8" timestamp="2011-01-06T18:48:39Z" uid="373763" user="ylekot" changeset="6885634">
    <nd ref="39322498"/>
    <nd ref="39322501"/>
    <nd ref="39322504"/>
    <nd ref="39322507"/>
    <nd ref="404216774"/>
    <nd ref="39322510"/>
    <nd ref="39322512"/>
    <nd ref="404216777"/>
    <nd ref="404216781"/>
    <nd ref="404216785"/>
    <nd ref="39322514"/>
    <nd ref="39322516"/>
    <nd ref="39322518"/>
    <nd ref="39322521"/>
    <nd ref="39322523"/>
    <nd ref="404216800"/>
    <nd ref="404219457"/>
    <nd ref="404219460"/>
    <nd ref="404219464"/>
    <nd ref="404219469"/>
    <tag k="alt_name" v="Pacific Highway #1"/>
    <tag k="highway" v="motorway"/>
    <tag k="name" v="Interstate 5"/>
    <tag k="name_1" v="State Highway 99"/>
    <tag k="name_2" v="Pacific Highway"/>
    <tag k="oneway" v="yes"/>
    <tag k="ref" v="I 5"/>
    <tag k="tiger:cfcc" v="A11"/>
    <tag k="tiger:county" v="Douglas, OR"/>
    <tag k="tiger:name_base" v="I-5"/>
    <tag k="tiger:name_base_1" v="State Highway 99"/>
    <tag k="tiger:name_base_2" v="Pacific"/>
    <tag k="tiger:name_type_2" v="Hwy"/>
    <tag k="tiger:separated" v="no"/>
    <tag k="tiger:source" v="tiger_import_dch_v0.6_20070808"/>
    <tag k="tiger:tlid" v="137198478:137228960:137242603:137200095:137200203:137200326:137225448:137198465"/>
  </way>
  <way id="34710601" version="9" timestamp="2011-03-26T01:27:51Z" uid="92286" user="Paul Johnson" changeset="7670923">
    <nd ref="39322498"/>
    <nd ref="39322501"/>
    <nd ref="39322504"/>
    <nd ref="39322507"/>
    <nd ref="404216774"/>
    <nd ref="39322510"/>
    <nd ref="39322512"/>
    <nd ref="404216777"/>
    <nd ref="404216781"/>
    <nd ref="404216785"/>
    <nd ref="39322514"/>
    <nd ref="39322516"/>
    <nd ref="39322518"/>
    <nd ref="39322521"/>
    <nd ref="39322523"/>
    <nd ref="404216800"/>
    <nd ref="404219457"/>
    <nd ref="404219460"/>
    <nd ref="404219464"/>
    <nd ref="404219469"/>
    <tag k="alt_name" v="Pacific Highway #1"/>
    <tag k="bicycle" v="yes"/>
    <tag k="highway" v="motorway"/>
    <tag k="name" v="Interstate 5"/>
    <tag k="name_1" v="State Highway 99"/>
    <tag k="name_2" v="Pacific Highway"/>
    <tag k="oneway" v="yes"/>
    <tag k="ref" v="I 5"/>
    <tag k="tiger:cfcc" v="A11"/>
    <tag k="tiger:county" v="Douglas, OR"/>
    <tag k="tiger:name_base" v="I-5"/>
    <tag k="tiger:name_base_1" v="State Highway 99"/>
    <tag k="tiger:name_base_2" v="Pacific"/>
    <tag k="tiger:name_type_2" v="Hwy"/>
    <tag k="tiger:separated" v="no"/>
    <tag k="tiger:source" v="tiger_import_dch_v0.6_20070808"/>
    <tag k="tiger:tlid" v="137198478:137228960:137242603:137200095:137200203:137200326:137225448:137198465"/>
  </way>
  <way id="34710601" version="10" timestamp="2011-07-16T21:20:22Z" uid="473471" user="NE3" changeset="8743071">
    <nd ref="39322498"/>
    <nd ref="39322501"/>
    <nd ref="39322504"/>
    <nd ref="39322507"/>
    <nd ref="404216774"/>
    <nd ref="39322510"/>
    <nd ref="39322512"/>
    <nd ref="404216777"/>
    <nd ref="404216781"/>
    <nd ref="404216785"/>
    <nd ref="39322514"/>
    <nd ref="39322516"/>
    <nd ref="39322518"/>
    <nd ref="39322521"/>
    <nd ref="39322523"/>
    <nd ref="404216800"/>
    <nd ref="404219457"/>
    <nd ref="404219460"/>
    <nd ref="404219464"/>
    <nd ref="404219469"/>
    <tag k="alt_name" v="Pacific Highway #1"/>
    <tag k="bicycle" v="yes"/>
    <tag k="highway" v="motorway"/>
    <tag k="lanes" v="2"/>
    <tag k="name" v="Pacific Highway"/>
    <tag k="oneway" v="yes"/>
    <tag k="ref" v="I 5"/>
    <tag k="tiger:cfcc" v="A11"/>
    <tag k="tiger:county" v="Douglas, OR"/>
    <tag k="tiger:name_base" v="I-5"/>
    <tag k="tiger:name_base_1" v="State Highway 99"/>
    <tag k="tiger:name_base_2" v="Pacific"/>
    <tag k="tiger:name_type_2" v="Hwy"/>
    <tag k="tiger:separated" v="no"/>
    <tag k="tiger:source" v="tiger_import_dch_v0.6_20070808"/>
    <tag k="tiger:tlid" v="137198478:137228960:137242603:137200095:137200203:137200326:137225448:137198465"/>
  </way>
  <way id="34710601" version="11" timestamp="2011-11-25T17:18:31Z" uid="207745" user="NE2" changeset="9945867">
    <nd ref="39322498"/>
    <nd ref="39322501"/>
    <nd ref="39322504"/>
    <nd ref="39322507"/>
    <nd ref="404216774"/>
    <nd ref="39322510"/>
    <nd ref="39322512"/>
    <nd ref="404216777"/>
    <nd ref="404216781"/>
    <nd ref="404216785"/>
    <nd ref="39322514"/>
    <nd ref="39322516"/>
    <nd ref="39322518"/>
    <nd ref="39322521"/>
    <nd ref="39322523"/>
    <nd ref="404216800"/>
    <nd ref="404219457"/>
    <nd ref="404219460"/>
    <nd ref="404219464"/>
    <nd ref="404219469"/>
    <tag k="alt_name" v="Pacific Highway #1"/>
    <tag k="bicycle" v="yes"/>
    <tag k="hgv" v="designated"/>
    <tag k="highway" v="motorway"/>
    <tag k="lanes" v="2"/>
    <tag k="name" v="Pacific Highway"/>
    <tag k="oneway" v="yes"/>
    <tag k="ref" v="I 5"/>
    <tag k="tiger:cfcc" v="A11"/>
    <tag k="tiger:county" v="Douglas, OR"/>
    <tag k="tiger:name_base" v="I-5"/>
    <tag k="tiger:name_base_1" v="State Highway 99"/>
    <tag k="tiger:name_base_2" v="Pacific"/>
    <tag k="tiger:name_type_2" v="Hwy"/>
    <tag k="tiger:separated" v="no"/>
    <tag k="tiger:source" v="tiger_import_dch_v0.6_20070808"/>
    <tag k="tiger:tlid" v="137198478:137228960:137242603:137200095:137200203:137200326:137225448:137198465"/>
  </way>
  <way id="34710607" version="3" timestamp="2010-03-22T06:28:54Z" uid="20587" user="balrog-kun" changeset="4199043">
    <nd ref="39322495"/>
    <nd ref="39322498"/>
    <tag k="bridge" v="yes"/>
    <tag k="created_by" v="Potlatch 0.10f"/>
    <tag k="highway" v="motorway"/>
    <tag k="name" v="I-5"/>
    <tag k="name_1" v="State Highway 99"/>
    <tag k="name_2" v="Pacific Highway"/>
    <tag k="oneway" v="yes"/>
    <tag k="ref" v="I 5"/>
    <tag k="tiger:cfcc" v="A11"/>
    <tag k="tiger:county" v="Douglas, OR"/>
    <tag k="tiger:name_base" v="I-5"/>
    <tag k="tiger:name_base_1" v="State Highway 99"/>
    <tag k="tiger:name_base_2" v="Pacific"/>
    <tag k="tiger:name_type_2" v="Hwy"/>
    <tag k="tiger:separated" v="no"/>
    <tag k="tiger:source" v="tiger_import_dch_v0.6_20070808"/>
    <tag k="tiger:tlid" v="137198478:137228960:137242603:137200095:137200203:137200326:137225448:137198465"/>
  </way>
  <way id="34710607" version="4" timestamp="2011-01-06T18:48:40Z" uid="373763" user="ylekot" changeset="6885634">
    <nd ref="39322495"/>
    <nd ref="39322498"/>
    <tag k="alt_name" v="Pacific Highway #1"/>
    <tag k="bridge" v="yes"/>
    <tag k="highway" v="motorway"/>
    <tag k="layer" v="1"/>
    <tag k="name" v="Interstate 5"/>
    <tag k="name_1" v="State Highway 99"/>
    <tag k="name_2" v="Pacific Highway"/>
    <tag k="oneway" v="yes"/>
    <tag k="ref" v="I 5"/>
    <tag k="tiger:cfcc" v="A11"/>
    <tag k="tiger:county" v="Douglas, OR"/>
    <tag k="tiger:name_base" v="I-5"/>
    <tag k="tiger:name_base_1" v="State Highway 99"/>
    <tag k="tiger:name_base_2" v="Pacific"/>
    <tag k="tiger:name_type_2" v="Hwy"/>
    <tag k="tiger:separated" v="no"/>
    <tag k="tiger:source" v="tiger_import_dch_v0.6_20070808"/>
    <tag k="tiger:tlid" v="137198478:137228960:137242603:137200095:137200203:137200326:137225448:137198465"/>
  </way>
  <way id="34710607" version="5" timestamp="2011-03-26T01:23:00Z" uid="92286" user="Paul Johnson" changeset="7670923">
    <nd ref="39322495"/>
    <nd ref="39322498"/>
    <tag k="alt_name" v="Pacific Highway #1"/>
    <tag k="bicycle" v="yes"/>
    <tag k="bridge" v="yes"/>
    <tag k="highway" v="motorway"/>
    <tag k="layer" v="1"/>
    <tag k="name" v="Interstate 5"/>
    <tag k="name_1" v="State Highway 99"/>
    <tag k="name_2" v="Pacific Highway"/>
    <tag k="oneway" v="yes"/>
    <tag k="ref" v="I 5"/>
    <tag k="tiger:cfcc" v="A11"/>
    <tag k="tiger:county" v="Douglas, OR"/>
    <tag k="tiger:name_base" v="I-5"/>
    <tag k="tiger:name_base_1" v="State Highway 99"/>
    <tag k="tiger:name_base_2" v="Pacific"/>
    <tag k="tiger:name_type_2" v="Hwy"/>
    <tag k="tiger:separated" v="no"/>
    <tag k="tiger:source" v="tiger_import_dch_v0.6_20070808"/>
    <tag k="tiger:tlid" v="137198478:137228960:137242603:137200095:137200203:137200326:137225448:137198465"/>
  </way>
  <way id="34710607" version="6" timestamp="2011-07-16T21:20:21Z" uid="473471" user="NE3" changeset="8743071">
    <nd ref="39322495"/>
    <nd ref="39322498"/>
    <tag k="alt_name" v="Pacific Highway #1"/>
    <tag k="bicycle" v="yes"/>
    <tag k="bridge" v="yes"/>
    <tag k="highway" v="motorway"/>
    <tag k="lanes" v="2"/>
    <tag k="layer" v="1"/>
    <tag k="name" v="Pacific Highway"/>
    <tag k="oneway" v="yes"/>
    <tag k="ref" v="I 5"/>
    <tag k="tiger:cfcc" v="A11"/>
    <tag k="tiger:county" v="Douglas, OR"/>
    <tag k="tiger:name_base" v="I-5"/>
    <tag k="tiger:name_base_1" v="State Highway 99"/>
    <tag k="tiger:name_base_2" v="Pacific"/>
    <tag k="tiger:name_type_2" v="Hwy"/>
    <tag k="tiger:separated" v="no"/>
    <tag k="tiger:source" v="tiger_import_dch_v0.6_20070808"/>
    <tag k="tiger:tlid" v="137198478:137228960:137242603:137200095:137200203:137200326:137225448:137198465"/>
  </way>
  <way id="34710607" version="7" timestamp="2011-11-25T17:17:40Z" uid="207745" user="NE2" changeset="9945867">
    <nd ref="39322495"/>
    <nd ref="39322498"/>
    <tag k="alt_name" v="Pacific Highway #1"/>
    <tag k="bicycle" v="yes"/>
    <tag k="bridge" v="yes"/>
    <tag k="hgv" v="designated"/>
    <tag k="highway" v="motorway"/>
    <tag k="lanes" v="2"/>
    <tag k="layer" v="1"/>
    <tag k="name" v="Pacific Highway"/>
    <tag k="oneway" v="yes"/>
    <tag k="ref" v="I 5"/>
    <tag k="tiger:cfcc" v="A11"/>
    <tag k="tiger:county" v="Douglas, OR"/>
    <tag k="tiger:name_base" v="I-5"/>
    <tag k="tiger:name_base_1" v="State Highway 99"/>
    <tag k="tiger:name_base_2" v="Pacific"/>
    <tag k="tiger:name_type_2" v="Hwy"/>
    <tag k="tiger:separated" v="no"/>
    <tag k="tiger:source" v="tiger_import_dch_v0.6_20070808"/>
    <tag k="tiger:tlid" v="137198478:137228960:137242603:137200095:137200203:137200326:137225448:137198465"/>
  </way>
  <way id="34710608" version="2" timestamp="2010-03-22T06:28:54Z" uid="20587" user="balrog-kun" changeset="4199043">
    <nd ref="39437290"/>
    <nd ref="39437293"/>
    <tag k="highway" v="residential"/>
    <tag k="name" v="North Main Street"/>
    <tag k="tiger:cfcc" v="A41"/>
    <tag k="tiger:county" v="Douglas, OR"/>
    <tag k="tiger:name_base" v="Main"/>
    <tag k="tiger:name_direction_prefix" v="N"/>
    <tag k="tiger:name_type" v="St"/>
    <tag k="tiger:reviewed" v="no"/>
    <tag k="tiger:separated" v="no"/>
    <tag k="tiger:source" v="tiger_import_dch_v0.6_20070808"/>
    <tag k="tiger:tlid" v="137233306:137233307:137191123:137233442:137233443:137191117:137191127:137191075"/>
    <tag k="tiger:zip_left" v="97457"/>
    <tag k="tiger:zip_right" v="97457"/>
  </way>
  <way id="34710608" version="3" timestamp="2010-12-10T04:54:55Z" uid="373763" user="ylekot" changeset="6602004">
    <nd ref="39437290"/>
    <nd ref="39437293"/>
    <tag k="highway" v="secondary"/>
    <tag k="name" v="North Main Street"/>
    <tag k="ref" v="OR 99"/>
    <tag k="tiger:cfcc" v="A41"/>
    <tag k="tiger:county" v="Douglas, OR"/>
    <tag k="tiger:name_base" v="Main"/>
    <tag k="tiger:name_direction_prefix" v="N"/>
    <tag k="tiger:name_type" v="St"/>
    <tag k="tiger:reviewed" v="no"/>
    <tag k="tiger:separated" v="no"/>
    <tag k="tiger:source" v="tiger_import_dch_v0.6_20070808"/>
    <tag k="tiger:tlid" v="137233306:137233307:137191123:137233442:137233443:137191117:137191127:137191075"/>
    <tag k="tiger:zip_left" v="97457"/>
    <tag k="tiger:zip_right" v="97457"/>
  </way>
  <way id="34710608" version="4" timestamp="2011-01-06T18:48:40Z" uid="373763" user="ylekot" changeset="6885634">
    <nd ref="39437290"/>
    <nd ref="39437293"/>
    <tag k="alt_name" v="County Road 386"/>
    <tag k="highway" v="tertiary"/>
    <tag k="name" v="North Main Street"/>
    <tag k="old_name" v="Myrtle Creek Highway #237; Pacific Highway"/>
    <tag k="old_ref" v="US 99"/>
    <tag k="ref" v="OR 99"/>
    <tag k="tiger:cfcc" v="A41"/>
    <tag k="tiger:county" v="Douglas, OR"/>
    <tag k="tiger:name_base" v="Main"/>
    <tag k="tiger:name_direction_prefix" v="N"/>
    <tag k="tiger:name_type" v="St"/>
    <tag k="tiger:reviewed" v="no"/>
    <tag k="tiger:separated" v="no"/>
    <tag k="tiger:source" v="tiger_import_dch_v0.6_20070808"/>
    <tag k="tiger:tlid" v="137233306:137233307:137191123:137233442:137233443:137191117:137191127:137191075"/>
    <tag k="tiger:zip_left" v="97457"/>
    <tag k="tiger:zip_right" v="97457"/>
  </way>
  <way id="34710608" version="5" timestamp="2011-01-06T18:54:04Z" uid="373763" user="ylekot" changeset="6885702"/>
  <way id="34710609" version="3" timestamp="2010-03-22T06:28:54Z" uid="20587" user="balrog-kun" changeset="4199043">
    <nd ref="39437286"/>
    <nd ref="39437290"/>
    <tag k="bridge" v="yes"/>
    <tag k="highway" v="residential"/>
    <tag k="name" v="North Main Street"/>
    <tag k="tiger:cfcc" v="A41"/>
    <tag k="tiger:county" v="Douglas, OR"/>
    <tag k="tiger:name_base" v="Main"/>
    <tag k="tiger:name_direction_prefix" v="N"/>
    <tag k="tiger:name_type" v="St"/>
    <tag k="tiger:reviewed" v="no"/>
    <tag k="tiger:separated" v="no"/>
    <tag k="tiger:source" v="tiger_import_dch_v0.6_20070808"/>
    <tag k="tiger:tlid" v="137233306:137233307:137191123:137233442:137233443:137191117:137191127:137191075"/>
    <tag k="tiger:zip_left" v="97457"/>
    <tag k="tiger:zip_right" v="97457"/>
  </way>
  <way id="34710609" version="4" timestamp="2010-12-10T04:54:56Z" uid="373763" user="ylekot" changeset="6602004">
    <nd ref="39437286"/>
    <nd ref="39437290"/>
    <tag k="bridge" v="yes"/>
    <tag k="highway" v="secondary"/>
    <tag k="name" v="North Main Street"/>
    <tag k="ref" v="OR 99"/>
    <tag k="tiger:cfcc" v="A41"/>
    <tag k="tiger:county" v="Douglas, OR"/>
    <tag k="tiger:name_base" v="Main"/>
    <tag k="tiger:name_direction_prefix" v="N"/>
    <tag k="tiger:name_type" v="St"/>
    <tag k="tiger:reviewed" v="no"/>
    <tag k="tiger:separated" v="no"/>
    <tag k="tiger:source" v="tiger_import_dch_v0.6_20070808"/>
    <tag k="tiger:tlid" v="137233306:137233307:137191123:137233442:137233443:137191117:137191127:137191075"/>
    <tag k="tiger:zip_left" v="97457"/>
    <tag k="tiger:zip_right" v="97457"/>
  </way>
  <way id="34710609" version="5" timestamp="2011-01-06T18:48:40Z" uid="373763" user="ylekot" changeset="6885634">
    <nd ref="39437286"/>
    <nd ref="39437290"/>
    <tag k="alt_name" v="County Road 386"/>
    <tag k="bridge" v="yes"/>
    <tag k="highway" v="tertiary"/>
    <tag k="name" v="North Main Street"/>
    <tag k="old_name" v="Myrtle Creek Highway #237; Pacific Highway"/>
    <tag k="old_ref" v="US 99"/>
    <tag k="ref" v="OR 99"/>
    <tag k="tiger:cfcc" v="A41"/>
    <tag k="tiger:county" v="Douglas, OR"/>
    <tag k="tiger:name_base" v="Main"/>
    <tag k="tiger:name_direction_prefix" v="N"/>
    <tag k="tiger:name_type" v="St"/>
    <tag k="tiger:reviewed" v="no"/>
    <tag k="tiger:separated" v="no"/>
    <tag k="tiger:source" v="tiger_import_dch_v0.6_20070808"/>
    <tag k="tiger:tlid" v="137233306:137233307:137191123:137233442:137233443:137191117:137191127:137191075"/>
    <tag k="tiger:zip_left" v="97457"/>
    <tag k="tiger:zip_right" v="97457"/>
  </way>
  <way id="34710609" version="6" timestamp="2011-01-06T19:03:38Z" uid="373763" user="ylekot" changeset="6885702">
    <nd ref="1086384032"/>
    <nd ref="39437290"/>
    <tag k="alt_name" v="County Road 386"/>
    <tag k="bridge" v="yes"/>
    <tag k="highway" v="tertiary"/>
    <tag k="name" v="North Main Street"/>
    <tag k="old_name" v="Myrtle Creek Highway #237; Pacific Highway"/>
    <tag k="old_ref" v="US 99"/>
    <tag k="ref" v="OR 99"/>
    <tag k="tiger:cfcc" v="A41"/>
    <tag k="tiger:county" v="Douglas, OR"/>
    <tag k="tiger:name_base" v="Main"/>
    <tag k="tiger:name_direction_prefix" v="N"/>
    <tag k="tiger:name_type" v="St"/>
    <tag k="tiger:reviewed" v="no"/>
    <tag k="tiger:separated" v="no"/>
    <tag k="tiger:source" v="tiger_import_dch_v0.6_20070808"/>
    <tag k="tiger:tlid" v="137233306:137233307:137191123:137233442:137233443:137191117:137191127:137191075"/>
    <tag k="tiger:zip_left" v="97457"/>
    <tag k="tiger:zip_right" v="97457"/>
  </way>
  <way id="34710681" version="16" timestamp="2010-03-22T06:28:54Z" uid="20587" user="balrog-kun" changeset="4199043">
    <nd ref="404221049"/>
    <nd ref="404221052"/>
    <nd ref="39322531"/>
    <nd ref="404221061"/>
    <nd ref="39322533"/>
    <nd ref="39322536"/>
    <nd ref="39322537"/>
    <nd ref="39322540"/>
    <nd ref="404224547"/>
    <nd ref="404224551"/>
    <nd ref="39322542"/>
    <nd ref="39322544"/>
    <nd ref="404228315"/>
    <nd ref="39322547"/>
    <nd ref="39322549"/>
    <nd ref="39322551"/>
    <nd ref="39322555"/>
    <nd ref="39322556"/>
    <nd ref="404228330"/>
    <nd ref="404228337"/>
    <nd ref="39322558"/>
    <nd ref="404228341"/>
    <nd ref="39322560"/>
    <nd ref="39322562"/>
    <nd ref="39322565"/>
    <nd ref="39019364"/>
    <nd ref="39322568"/>
    <nd ref="39322571"/>
    <nd ref="39322573"/>
    <nd ref="39322577"/>
    <nd ref="39322581"/>
    <nd ref="39322586"/>
    <nd ref="39322589"/>
    <nd ref="404232673"/>
    <tag k="created_by" v="Potlatch 0.10f"/>
    <tag k="highway" v="motorway"/>
    <tag k="name" v="I-5"/>
    <tag k="name_1" v="State Highway 99"/>
    <tag k="name_2" v="Pacific Highway"/>
    <tag k="oneway" v="yes"/>
    <tag k="ref" v="I 5"/>
    <tag k="tiger:cfcc" v="A11"/>
    <tag k="tiger:county" v="Douglas, OR"/>
    <tag k="tiger:name_base" v="I-5"/>
    <tag k="tiger:name_base_1" v="State Highway 99"/>
    <tag k="tiger:name_base_2" v="Pacific"/>
    <tag k="tiger:name_type_2" v="Hwy"/>
    <tag k="tiger:separated" v="no"/>
    <tag k="tiger:source" v="tiger_import_dch_v0.6_20070808"/>
    <tag k="tiger:tlid" v="137198478:137228960:137242603:137200095:137200203:137200326:137225448:137198465"/>
  </way>
  <way id="34710681" version="17" timestamp="2011-01-06T18:48:41Z" uid="373763" user="ylekot" changeset="6885634">
    <nd ref="404221049"/>
    <nd ref="404221052"/>
    <nd ref="39322531"/>
    <nd ref="404221061"/>
    <nd ref="39322533"/>
    <nd ref="39322536"/>
    <nd ref="39322537"/>
    <nd ref="39322540"/>
    <nd ref="404224547"/>
    <nd ref="404224551"/>
    <nd ref="39322542"/>
    <nd ref="39322544"/>
    <nd ref="404228315"/>
    <nd ref="39322547"/>
    <nd ref="39322549"/>
    <nd ref="39322551"/>
    <nd ref="39322555"/>
    <nd ref="39322556"/>
    <nd ref="404228330"/>
    <nd ref="404228337"/>
    <nd ref="39322558"/>
    <nd ref="404228341"/>
    <nd ref="39322560"/>
    <nd ref="39322562"/>
    <nd ref="39322565"/>
    <nd ref="39019364"/>
    <nd ref="39322568"/>
    <nd ref="39322571"/>
    <nd ref="39322573"/>
    <nd ref="39322577"/>
    <nd ref="39322581"/>
    <nd ref="39322586"/>
    <nd ref="39322589"/>
    <nd ref="404232673"/>
    <tag k="alt_name" v="Pacific Highway #1"/>
    <tag k="highway" v="motorway"/>
    <tag k="name" v="Interstate 5"/>
    <tag k="name_1" v="State Highway 99"/>
    <tag k="name_2" v="Pacific Highway"/>
    <tag k="oneway" v="yes"/>
    <tag k="ref" v="I 5"/>
    <tag k="tiger:cfcc" v="A11"/>
    <tag k="tiger:county" v="Douglas, OR"/>
    <tag k="tiger:name_base" v="I-5"/>
    <tag k="tiger:name_base_1" v="State Highway 99"/>
    <tag k="tiger:name_base_2" v="Pacific"/>
    <tag k="tiger:name_type_2" v="Hwy"/>
    <tag k="tiger:separated" v="no"/>
    <tag k="tiger:source" v="tiger_import_dch_v0.6_20070808"/>
    <tag k="tiger:tlid" v="137198478:137228960:137242603:137200095:137200203:137200326:137225448:137198465"/>
  </way>
  <way id="34710681" version="18" timestamp="2011-03-26T01:19:21Z" uid="92286" user="Paul Johnson" changeset="7670923">
    <nd ref="404221049"/>
    <nd ref="404221052"/>
    <nd ref="39322531"/>
    <nd ref="404221061"/>
    <nd ref="39322533"/>
    <nd ref="39322536"/>
    <nd ref="39322537"/>
    <nd ref="39322540"/>
    <nd ref="404224547"/>
    <nd ref="404224551"/>
    <nd ref="39322542"/>
    <nd ref="39322544"/>
    <nd ref="404228315"/>
    <nd ref="39322547"/>
    <nd ref="39322549"/>
    <nd ref="39322551"/>
    <nd ref="39322555"/>
    <nd ref="39322556"/>
    <nd ref="404228330"/>
    <nd ref="404228337"/>
    <nd ref="39322558"/>
    <nd ref="404228341"/>
    <nd ref="39322560"/>
    <nd ref="39322562"/>
    <nd ref="39322565"/>
    <nd ref="39019364"/>
    <nd ref="39322568"/>
    <nd ref="39322571"/>
    <nd ref="39322573"/>
    <nd ref="39322577"/>
    <nd ref="39322581"/>
    <nd ref="39322586"/>
    <nd ref="39322589"/>
    <nd ref="404232673"/>
    <tag k="alt_name" v="Pacific Highway #1"/>
    <tag k="bicycle" v="yes"/>
    <tag k="highway" v="motorway"/>
    <tag k="name" v="Interstate 5"/>
    <tag k="name_1" v="State Highway 99"/>
    <tag k="name_2" v="Pacific Highway"/>
    <tag k="oneway" v="yes"/>
    <tag k="ref" v="I 5"/>
    <tag k="tiger:cfcc" v="A11"/>
    <tag k="tiger:county" v="Douglas, OR"/>
    <tag k="tiger:name_base" v="I-5"/>
    <tag k="tiger:name_base_1" v="State Highway 99"/>
    <tag k="tiger:name_base_2" v="Pacific"/>
    <tag k="tiger:name_type_2" v="Hwy"/>
    <tag k="tiger:separated" v="no"/>
    <tag k="tiger:source" v="tiger_import_dch_v0.6_20070808"/>
    <tag k="tiger:tlid" v="137198478:137228960:137242603:137200095:137200203:137200326:137225448:137198465"/>
  </way>
  <way id="34710681" version="19" timestamp="2011-07-16T21:20:24Z" uid="473471" user="NE3" changeset="8743071">
    <nd ref="404221049"/>
    <nd ref="404221052"/>
    <nd ref="39322531"/>
    <nd ref="404221061"/>
    <nd ref="39322533"/>
    <nd ref="39322536"/>
    <nd ref="39322537"/>
    <nd ref="39322540"/>
    <nd ref="404224547"/>
    <nd ref="404224551"/>
    <nd ref="39322542"/>
    <nd ref="39322544"/>
    <nd ref="404228315"/>
    <nd ref="39322547"/>
    <nd ref="39322549"/>
    <nd ref="39322551"/>
    <nd ref="39322555"/>
    <nd ref="39322556"/>
    <nd ref="404228330"/>
    <nd ref="404228337"/>
    <nd ref="39322558"/>
    <nd ref="404228341"/>
    <nd ref="39322560"/>
    <nd ref="39322562"/>
    <nd ref="39322565"/>
    <nd ref="39019364"/>
    <nd ref="39322568"/>
    <nd ref="39322571"/>
    <nd ref="39322573"/>
    <nd ref="39322577"/>
    <nd ref="39322581"/>
    <nd ref="39322586"/>
    <nd ref="39322589"/>
    <nd ref="404232673"/>
    <tag k="alt_name" v="Pacific Highway #1"/>
    <tag k="bicycle" v="yes"/>
    <tag k="highway" v="motorway"/>
    <tag k="lanes" v="2"/>
    <tag k="name" v="Pacific Highway"/>
    <tag k="oneway" v="yes"/>
    <tag k="ref" v="I 5"/>
    <tag k="tiger:cfcc" v="A11"/>
    <tag k="tiger:county" v="Douglas, OR"/>
    <tag k="tiger:name_base" v="I-5"/>
    <tag k="tiger:name_base_1" v="State Highway 99"/>
    <tag k="tiger:name_base_2" v="Pacific"/>
    <tag k="tiger:name_type_2" v="Hwy"/>
    <tag k="tiger:separated" v="no"/>
    <tag k="tiger:source" v="tiger_import_dch_v0.6_20070808"/>
    <tag k="tiger:tlid" v="137198478:137228960:137242603:137200095:137200203:137200326:137225448:137198465"/>
  </way>
  <way id="34710681" version="20" timestamp="2011-11-25T17:18:51Z" uid="207745" user="NE2" changeset="9945867">
    <nd ref="404221049"/>
    <nd ref="404221052"/>
    <nd ref="39322531"/>
    <nd ref="404221061"/>
    <nd ref="39322533"/>
    <nd ref="39322536"/>
    <nd ref="39322537"/>
    <nd ref="39322540"/>
    <nd ref="404224547"/>
    <nd ref="404224551"/>
    <nd ref="39322542"/>
    <nd ref="39322544"/>
    <nd ref="404228315"/>
    <nd ref="39322547"/>
    <nd ref="39322549"/>
    <nd ref="39322551"/>
    <nd ref="39322555"/>
    <nd ref="39322556"/>
    <nd ref="404228330"/>
    <nd ref="404228337"/>
    <nd ref="39322558"/>
    <nd ref="404228341"/>
    <nd ref="39322560"/>
    <nd ref="39322562"/>
    <nd ref="39322565"/>
    <nd ref="39019364"/>
    <nd ref="39322568"/>
    <nd ref="39322571"/>
    <nd ref="39322573"/>
    <nd ref="39322577"/>
    <nd ref="39322581"/>
    <nd ref="39322586"/>
    <nd ref="39322589"/>
    <nd ref="404232673"/>
    <tag k="alt_name" v="Pacific Highway #1"/>
    <tag k="bicycle" v="yes"/>
    <tag k="hgv" v="designated"/>
    <tag k="highway" v="motorway"/>
    <tag k="lanes" v="2"/>
    <tag k="name" v="Pacific Highway"/>
    <tag k="oneway" v="yes"/>
    <tag k="ref" v="I 5"/>
    <tag k="tiger:cfcc" v="A11"/>
    <tag k="tiger:county" v="Douglas, OR"/>
    <tag k="tiger:name_base" v="I-5"/>
    <tag k="tiger:name_base_1" v="State Highway 99"/>
    <tag k="tiger:name_base_2" v="Pacific"/>
    <tag k="tiger:name_type_2" v="Hwy"/>
    <tag k="tiger:separated" v="no"/>
    <tag k="tiger:source" v="tiger_import_dch_v0.6_20070808"/>
    <tag k="tiger:tlid" v="137198478:137228960:137242603:137200095:137200203:137200326:137225448:137198465"/>
  </way>
  <way id="34710682" version="4" timestamp="2010-03-22T06:28:55Z" uid="20587" user="balrog-kun" changeset="4199043">
    <nd ref="404219469"/>
    <nd ref="404221049"/>
    <tag k="bridge" v="yes"/>
    <tag k="created_by" v="Potlatch 0.10f"/>
    <tag k="highway" v="motorway"/>
    <tag k="name" v="I-5"/>
    <tag k="name_1" v="State Highway 99"/>
    <tag k="name_2" v="Pacific Highway"/>
    <tag k="oneway" v="yes"/>
    <tag k="ref" v="I 5"/>
    <tag k="tiger:cfcc" v="A11"/>
    <tag k="tiger:county" v="Douglas, OR"/>
    <tag k="tiger:name_base" v="I-5"/>
    <tag k="tiger:name_base_1" v="State Highway 99"/>
    <tag k="tiger:name_base_2" v="Pacific"/>
    <tag k="tiger:name_type_2" v="Hwy"/>
    <tag k="tiger:separated" v="no"/>
    <tag k="tiger:source" v="tiger_import_dch_v0.6_20070808"/>
    <tag k="tiger:tlid" v="137198478:137228960:137242603:137200095:137200203:137200326:137225448:137198465"/>
  </way>
  <way id="34710682" version="5" timestamp="2011-01-06T18:48:42Z" uid="373763" user="ylekot" changeset="6885634">
    <nd ref="404219469"/>
    <nd ref="404221049"/>
    <tag k="alt_name" v="Pacific Highway #1"/>
    <tag k="bridge" v="yes"/>
    <tag k="highway" v="motorway"/>
    <tag k="name" v="Interstate 5"/>
    <tag k="name_1" v="State Highway 99"/>
    <tag k="name_2" v="Pacific Highway"/>
    <tag k="oneway" v="yes"/>
    <tag k="ref" v="I 5"/>
    <tag k="tiger:cfcc" v="A11"/>
    <tag k="tiger:county" v="Douglas, OR"/>
    <tag k="tiger:name_base" v="I-5"/>
    <tag k="tiger:name_base_1" v="State Highway 99"/>
    <tag k="tiger:name_base_2" v="Pacific"/>
    <tag k="tiger:name_type_2" v="Hwy"/>
    <tag k="tiger:separated" v="no"/>
    <tag k="tiger:source" v="tiger_import_dch_v0.6_20070808"/>
    <tag k="tiger:tlid" v="137198478:137228960:137242603:137200095:137200203:137200326:137225448:137198465"/>
  </way>
  <way id="34710682" version="6" timestamp="2011-03-26T01:21:58Z" uid="92286" user="Paul Johnson" changeset="7670923">
    <nd ref="404219469"/>
    <nd ref="404221049"/>
    <tag k="alt_name" v="Pacific Highway #1"/>
    <tag k="bicycle" v="yes"/>
    <tag k="bridge" v="yes"/>
    <tag k="highway" v="motorway"/>
    <tag k="name" v="Interstate 5"/>
    <tag k="name_1" v="State Highway 99"/>
    <tag k="name_2" v="Pacific Highway"/>
    <tag k="oneway" v="yes"/>
    <tag k="ref" v="I 5"/>
    <tag k="tiger:cfcc" v="A11"/>
    <tag k="tiger:county" v="Douglas, OR"/>
    <tag k="tiger:name_base" v="I-5"/>
    <tag k="tiger:name_base_1" v="State Highway 99"/>
    <tag k="tiger:name_base_2" v="Pacific"/>
    <tag k="tiger:name_type_2" v="Hwy"/>
    <tag k="tiger:separated" v="no"/>
    <tag k="tiger:source" v="tiger_import_dch_v0.6_20070808"/>
    <tag k="tiger:tlid" v="137198478:137228960:137242603:137200095:137200203:137200326:137225448:137198465"/>
  </way>
  <way id="34710682" version="7" timestamp="2011-07-16T21:20:14Z" uid="473471" user="NE3" changeset="8743071">
    <nd ref="404219469"/>
    <nd ref="404221049"/>
    <tag k="alt_name" v="Pacific Highway #1"/>
    <tag k="bicycle" v="yes"/>
    <tag k="bridge" v="yes"/>
    <tag k="highway" v="motorway"/>
    <tag k="lanes" v="2"/>
    <tag k="name" v="Pacific Highway"/>
    <tag k="oneway" v="yes"/>
    <tag k="ref" v="I 5"/>
    <tag k="tiger:cfcc" v="A11"/>
    <tag k="tiger:county" v="Douglas, OR"/>
    <tag k="tiger:name_base" v="I-5"/>
    <tag k="tiger:name_base_1" v="State Highway 99"/>
    <tag k="tiger:name_base_2" v="Pacific"/>
    <tag k="tiger:name_type_2" v="Hwy"/>
    <tag k="tiger:separated" v="no"/>
    <tag k="tiger:source" v="tiger_import_dch_v0.6_20070808"/>
    <tag k="tiger:tlid" v="137198478:137228960:137242603:137200095:137200203:137200326:137225448:137198465"/>
  </way>
  <way id="34710682" version="8" timestamp="2011-11-25T17:17:41Z" uid="207745" user="NE2" changeset="9945867">
    <nd ref="404219469"/>
    <nd ref="404221049"/>
    <tag k="alt_name" v="Pacific Highway #1"/>
    <tag k="bicycle" v="yes"/>
    <tag k="bridge" v="yes"/>
    <tag k="hgv" v="designated"/>
    <tag k="highway" v="motorway"/>
    <tag k="lanes" v="2"/>
    <tag k="name" v="Pacific Highway"/>
    <tag k="oneway" v="yes"/>
    <tag k="ref" v="I 5"/>
    <tag k="tiger:cfcc" v="A11"/>
    <tag k="tiger:county" v="Douglas, OR"/>
    <tag k="tiger:name_base" v="I-5"/>
    <tag k="tiger:name_base_1" v="State Highway 99"/>
    <tag k="tiger:name_base_2" v="Pacific"/>
    <tag k="tiger:name_type_2" v="Hwy"/>
    <tag k="tiger:separated" v="no"/>
    <tag k="tiger:source" v="tiger_import_dch_v0.6_20070808"/>
    <tag k="tiger:tlid" v="137198478:137228960:137242603:137200095:137200203:137200326:137225448:137198465"/>
  </way>
  <way id="34710830" version="3" timestamp="2009-11-28T14:00:13Z" uid="9581" user="Lobelt" changeset="3236302">
    <nd ref="404228343"/>
    <nd ref="256754092"/>
    <nd ref="256754093"/>
    <nd ref="256754094"/>
    <nd ref="256754095"/>
    <nd ref="256754096"/>
    <nd ref="256754097"/>
    <nd ref="256754098"/>
    <nd ref="256754099"/>
    <nd ref="256754100"/>
    <nd ref="256754101"/>
    <nd ref="256754102"/>
    <tag k="highway" v="secondary_link"/>
    <tag k="motorroad" v="yes"/>
    <tag k="ref" v="L 1095"/>
  </way>
  <way id="34710830" version="4" timestamp="2010-05-17T08:01:26Z" uid="263596" user="Oberfrster" changeset="4726429">
    <nd ref="404228343"/>
    <nd ref="256754092"/>
    <nd ref="256754093"/>
    <nd ref="256754094"/>
    <nd ref="256754095"/>
    <nd ref="256754096"/>
    <nd ref="256754097"/>
    <nd ref="256754098"/>
    <nd ref="256754099"/>
    <nd ref="256754100"/>
    <nd ref="256754101"/>
    <nd ref="256754102"/>
    <tag k="highway" v="trunk"/>
    <tag k="motorroad" v="yes"/>
    <tag k="ref" v="L 1095"/>
  </way>
  <way id="34710830" version="5" timestamp="2011-03-01T19:53:09Z" uid="9581" user="Lobelt" changeset="7432352">
    <nd ref="404228343"/>
    <nd ref="256754092"/>
    <nd ref="256754093"/>
    <nd ref="256754094"/>
    <nd ref="256754095"/>
    <nd ref="256754096"/>
    <nd ref="256754097"/>
    <nd ref="256754098"/>
    <nd ref="256754099"/>
    <nd ref="256754100"/>
    <nd ref="256754101"/>
    <nd ref="256754102"/>
    <tag k="highway" v="secondary_link"/>
    <tag k="motorroad" v="yes"/>
    <tag k="ref" v="L 1095"/>
  </way>
  <way id="34710830" version="6" timestamp="2012-02-15T20:44:04Z" uid="192395" user="BBO" changeset="10696190">
    <nd ref="256753982"/>
    <nd ref="256754092"/>
    <nd ref="256754093"/>
    <nd ref="256754094"/>
    <nd ref="256754095"/>
    <nd ref="256754096"/>
    <nd ref="256754097"/>
    <nd ref="256754098"/>
    <nd ref="256754099"/>
    <nd ref="256754100"/>
    <nd ref="256754101"/>
    <nd ref="256754102"/>
    <tag k="highway" v="secondary_link"/>
    <tag k="motorroad" v="yes"/>
    <tag k="ref" v="L 1095"/>
  </way>
  <way id="34710830" version="7" timestamp="2012-02-17T11:12:11Z" uid="192395" user="BBO" changeset="10710052"/>
  <way id="34710831" version="3" timestamp="2009-11-28T13:08:35Z" uid="9581" user="Lobelt" changeset="3235829">
    <nd ref="256621560"/>
    <nd ref="573350822"/>
    <nd ref="311588179"/>
    <nd ref="255367147"/>
    <tag k="highway" v="secondary"/>
    <tag k="ref" v="L 1099"/>
  </way>
  <way id="34710831" version="4" timestamp="2012-02-16T15:42:06Z" uid="192395" user="BBO" changeset="10702822"/>
  <way id="34710832" version="5" timestamp="2009-11-28T13:08:34Z" uid="9581" user="Lobelt" changeset="3235829">
    <nd ref="256621914"/>
    <nd ref="256621915"/>
    <nd ref="256621916"/>
    <nd ref="256621560"/>
    <tag k="highway" v="tertiary"/>
    <tag k="name" v="Dorfstrae"/>
  </way>
  <way id="34710832" version="6" timestamp="2012-02-16T15:42:04Z" uid="192395" user="BBO" changeset="10702822"/>
  <way id="34710869" version="3" timestamp="2010-03-22T06:28:55Z" uid="20587" user="balrog-kun" changeset="4199043">
    <nd ref="39190198"/>
    <nd ref="404233386"/>
    <nd ref="404233387"/>
    <nd ref="404233389"/>
    <nd ref="404233394"/>
    <nd ref="39585506"/>
    <nd ref="39585511"/>
    <nd ref="39585514"/>
    <nd ref="39585518"/>
    <nd ref="39585520"/>
    <nd ref="39585522"/>
    <nd ref="39585526"/>
    <nd ref="39585528"/>
    <nd ref="39233913"/>
    <nd ref="39585531"/>
    <tag k="highway" v="residential"/>
    <tag k="name" v="Booth Ranch Road"/>
    <tag k="tiger:cfcc" v="A41"/>
    <tag k="tiger:county" v="Douglas, OR"/>
    <tag k="tiger:name_base" v="Booth Ranch"/>
    <tag k="tiger:name_type" v="Rd"/>
    <tag k="tiger:reviewed" v="no"/>
    <tag k="tiger:separated" v="no"/>
    <tag k="tiger:source" v="tiger_import_dch_v0.6_20070808"/>
    <tag k="tiger:tlid" v="137248399:137248400"/>
  </way>
  <way id="34710869" version="4" timestamp="2011-01-06T19:15:53Z" uid="373763" user="ylekot" changeset="6885936">
    <nd ref="39190198"/>
    <nd ref="404233386"/>
    <nd ref="404233387"/>
    <nd ref="404233389"/>
    <nd ref="404233394"/>
    <nd ref="39585506"/>
    <nd ref="39585511"/>
    <nd ref="39585514"/>
    <nd ref="39585518"/>
    <nd ref="39585520"/>
    <nd ref="39585522"/>
    <nd ref="39585526"/>
    <nd ref="39585528"/>
    <tag k="highway" v="residential"/>
    <tag k="name" v="Booth Ranch Road"/>
    <tag k="tiger:cfcc" v="A41"/>
    <tag k="tiger:county" v="Douglas, OR"/>
    <tag k="tiger:name_base" v="Booth Ranch"/>
    <tag k="tiger:name_type" v="Rd"/>
    <tag k="tiger:reviewed" v="no"/>
    <tag k="tiger:separated" v="no"/>
    <tag k="tiger:source" v="tiger_import_dch_v0.6_20070808"/>
    <tag k="tiger:tlid" v="137248399:137248400"/>
  </way>
  <way id="34710276" version="9" timestamp="2012-08-03T02:33:44Z" uid="199837" user="happy5214" changeset="12593103">
    <nd ref="39322451"/>
    <nd ref="39322454"/>
    <tag k="alt_name" v="Pacific Highway #1"/>
    <tag k="bicycle" v="yes"/>
    <tag k="bridge" v="yes"/>
    <tag k="hgv" v="designated"/>
    <tag k="highway" v="motorway"/>
    <tag k="lanes" v="2"/>
    <tag k="layer" v="1"/>
    <tag k="name" v="Pacific Highway"/>
    <tag k="oneway" v="yes"/>
    <tag k="ref" v="I 5"/>
    <tag k="tiger:cfcc" v="A11"/>
    <tag k="tiger:county" v="Douglas, OR"/>
    <tag k="tiger:name_base" v="I-5"/>
    <tag k="tiger:name_base_1" v="State Highway 99"/>
    <tag k="tiger:name_base_2" v="Pacific"/>
    <tag k="tiger:name_type_2" v="Hwy"/>
    <tag k="tiger:separated" v="no"/>
    <tag k="tiger:source" v="tiger_import_dch_v0.6_20070808"/>
    <tag k="tiger:tlid" v="137198478:137228960:137242603:137200095:137200203:137200326:137225448:137198465"/>
  </way>
  <way id="34710276" version="10" timestamp="2012-08-04T18:19:39Z" uid="587790" user="JaggedMind" changeset="12612571">
    <nd ref="39322451"/>
    <nd ref="39322454"/>
    <tag k="alt_name" v="Pacific Highway #1"/>
    <tag k="bicycle" v="yes"/>
    <tag k="bridge" v="yes"/>
    <tag k="hgv" v="designated"/>
    <tag k="highway" v="motorway"/>
    <tag k="lanes" v="2"/>
    <tag k="layer" v="1"/>
    <tag k="name" v="Pacific Highway"/>
    <tag k="oneway" v="yes"/>
    <tag k="ref" v="I 5"/>
    <tag k="tiger:cfcc" v="A11"/>
    <tag k="tiger:county" v="Douglas, OR"/>
    <tag k="tiger:name_base" v="I-5"/>
    <tag k="tiger:name_base_1" v="State Highway 99"/>
    <tag k="tiger:name_base_2" v="Pacific"/>
    <tag k="tiger:name_type_2" v="Hwy"/>
  </way>
  <way id="34710280" version="13" timestamp="2012-08-04T18:19:16Z" uid="587790" user="JaggedMind" changeset="12612571">
    <nd ref="39322454"/>
    <nd ref="39322456"/>
    <nd ref="404207921"/>
    <nd ref="39322458"/>
    <nd ref="39322460"/>
    <nd ref="39322466"/>
    <nd ref="39322475"/>
    <nd ref="39322481"/>
    <nd ref="39322484"/>
    <nd ref="39322487"/>
    <nd ref="39322489"/>
    <nd ref="404216304"/>
    <nd ref="39322493"/>
    <nd ref="39322495"/>
    <tag k="alt_name" v="Pacific Highway #1"/>
    <tag k="bicycle" v="yes"/>
    <tag k="hgv" v="designated"/>
    <tag k="highway" v="motorway"/>
    <tag k="lanes" v="2"/>
    <tag k="name" v="Pacific Highway"/>
    <tag k="oneway" v="yes"/>
    <tag k="ref" v="I 5"/>
    <tag k="tiger:cfcc" v="A11"/>
    <tag k="tiger:county" v="Douglas, OR"/>
    <tag k="tiger:name_base" v="I-5"/>
    <tag k="tiger:name_base_1" v="State Highway 99"/>
    <tag k="tiger:name_base_2" v="Pacific"/>
    <tag k="tiger:name_type_2" v="Hwy"/>
  </way>
  <way id="34710601" version="12" timestamp="2012-08-04T18:20:04Z" uid="587790" user="JaggedMind" changeset="12612571">
    <nd ref="39322498"/>
    <nd ref="39322501"/>
    <nd ref="39322504"/>
    <nd ref="39322507"/>
    <nd ref="404216774"/>
    <nd ref="39322510"/>
    <nd ref="39322512"/>
    <nd ref="404216777"/>
    <nd ref="404216781"/>
    <nd ref="404216785"/>
    <nd ref="39322514"/>
    <nd ref="39322516"/>
    <nd ref="39322518"/>
    <nd ref="39322521"/>
    <nd ref="39322523"/>
    <nd ref="404216800"/>
    <nd ref="404219457"/>
    <nd ref="404219460"/>
    <nd ref="404219464"/>
    <nd ref="404219469"/>
    <tag k="alt_name" v="Pacific Highway #1"/>
    <tag k="bicycle" v="yes"/>
    <tag k="hgv" v="designated"/>
    <tag k="highway" v="motorway"/>
    <tag k="lanes" v="2"/>
    <tag k="name" v="Pacific Highway"/>
    <tag k="oneway" v="yes"/>
    <tag k="ref" v="I 5"/>
    <tag k="tiger:cfcc" v="A11"/>
    <tag k="tiger:county" v="Douglas, OR"/>
    <tag k="tiger:name_base" v="I-5"/>
    <tag k="tiger:name_base_1" v="State Highway 99"/>
    <tag k="tiger:name_base_2" v="Pacific"/>
    <tag k="tiger:name_type_2" v="Hwy"/>
  </way>
  <way id="34710607" version="8" timestamp="2012-08-04T18:19:53Z" uid="587790" user="JaggedMind" changeset="12612571">
    <nd ref="39322495"/>
    <nd ref="39322498"/>
    <tag k="alt_name" v="Pacific Highway #1"/>
    <tag k="bicycle" v="yes"/>
    <tag k="bridge" v="yes"/>
    <tag k="hgv" v="designated"/>
    <tag k="highway" v="motorway"/>
    <tag k="lanes" v="2"/>
    <tag k="layer" v="1"/>
    <tag k="name" v="Pacific Highway"/>
    <tag k="oneway" v="yes"/>
    <tag k="ref" v="I 5"/>
    <tag k="tiger:cfcc" v="A11"/>
    <tag k="tiger:county" v="Douglas, OR"/>
    <tag k="tiger:name_base" v="I-5"/>
    <tag k="tiger:name_base_1" v="State Highway 99"/>
    <tag k="tiger:name_base_2" v="Pacific"/>
    <tag k="tiger:name_type_2" v="Hwy"/>
  </way>
  <way id="34710681" version="21" timestamp="2012-08-04T18:20:09Z" uid="587790" user="JaggedMind" changeset="12612571">
    <nd ref="404221049"/>
    <nd ref="404221052"/>
    <nd ref="39322531"/>
    <nd ref="404221061"/>
    <nd ref="39322533"/>
    <nd ref="39322536"/>
    <nd ref="39322537"/>
    <nd ref="39322540"/>
    <nd ref="404224547"/>
    <nd ref="404224551"/>
    <nd ref="39322542"/>
    <nd ref="39322544"/>
    <nd ref="404228315"/>
    <nd ref="39322547"/>
    <nd ref="39322549"/>
    <nd ref="39322551"/>
    <nd ref="39322555"/>
    <nd ref="39322556"/>
    <nd ref="404228330"/>
    <nd ref="404228337"/>
    <nd ref="39322558"/>
    <nd ref="404228341"/>
    <nd ref="39322560"/>
    <nd ref="39322562"/>
    <nd ref="39322565"/>
    <nd ref="39019364"/>
    <nd ref="39322568"/>
    <nd ref="39322571"/>
    <nd ref="39322573"/>
    <nd ref="39322577"/>
    <nd ref="39322581"/>
    <nd ref="39322586"/>
    <nd ref="39322589"/>
    <nd ref="404232673"/>
    <tag k="alt_name" v="Pacific Highway #1"/>
    <tag k="bicycle" v="yes"/>
    <tag k="hgv" v="designated"/>
    <tag k="highway" v="motorway"/>
    <tag k="lanes" v="2"/>
    <tag k="name" v="Pacific Highway"/>
    <tag k="oneway" v="yes"/>
    <tag k="ref" v="I 5"/>
    <tag k="tiger:cfcc" v="A11"/>
    <tag k="tiger:county" v="Douglas, OR"/>
    <tag k="tiger:name_base" v="I-5"/>
    <tag k="tiger:name_base_1" v="State Highway 99"/>
    <tag k="tiger:name_base_2" v="Pacific"/>
    <tag k="tiger:name_type_2" v="Hwy"/>
  </way>
  <way id="34710682" version="9" timestamp="2012-08-03T02:33:42Z" uid="199837" user="happy5214" changeset="12593103">
    <nd ref="404219469"/>
    <nd ref="404221049"/>
    <tag k="alt_name" v="Pacific Highway #1"/>
    <tag k="bicycle" v="yes"/>
    <tag k="bridge" v="yes"/>
    <tag k="hgv" v="designated"/>
    <tag k="highway" v="motorway"/>
    <tag k="lanes" v="2"/>
    <tag k="layer" v="1"/>
    <tag k="name" v="Pacific Highway"/>
    <tag k="oneway" v="yes"/>
    <tag k="ref" v="I 5"/>
    <tag k="tiger:cfcc" v="A11"/>
    <tag k="tiger:county" v="Douglas, OR"/>
    <tag k="tiger:name_base" v="I-5"/>
    <tag k="tiger:name_base_1" v="State Highway 99"/>
    <tag k="tiger:name_base_2" v="Pacific"/>
    <tag k="tiger:name_type_2" v="Hwy"/>
    <tag k="tiger:separated" v="no"/>
    <tag k="tiger:source" v="tiger_import_dch_v0.6_20070808"/>
    <tag k="tiger:tlid" v="137198478:137228960:137242603:137200095:137200203:137200326:137225448:137198465"/>
  </way>
  <way id="34710682" version="10" timestamp="2012-08-04T18:20:00Z" uid="587790" user="JaggedMind" changeset="12612571">
    <nd ref="404219469"/>
    <nd ref="404221049"/>
    <tag k="alt_name" v="Pacific Highway #1"/>
    <tag k="bicycle" v="yes"/>
    <tag k="bridge" v="yes"/>
    <tag k="hgv" v="designated"/>
    <tag k="highway" v="motorway"/>
    <tag k="lanes" v="2"/>
    <tag k="layer" v="1"/>
    <tag k="name" v="Pacific Highway"/>
    <tag k="oneway" v="yes"/>
    <tag k="ref" v="I 5"/>
    <tag k="tiger:cfcc" v="A11"/>
    <tag k="tiger:county" v="Douglas, OR"/>
    <tag k="tiger:name_base" v="I-5"/>
    <tag k="tiger:name_base_1" v="State Highway 99"/>
    <tag k="tiger:name_base_2" v="Pacific"/>
    <tag k="tiger:name_type_2" v="Hwy"/>
  </way>
</osm>
