<?xml version='1.0' encoding='UTF-8'?>
<osm version="0.6" generator="libosmium/2.20.0">
  <way id="34877547" version="2" timestamp="2010-06-17T18:51:31Z" uid="43967" user="railsnail" changeset="5011253">
    <nd ref="165172377"/>
    <nd ref="775279985"/>
    <nd ref="165172371"/>
    <nd ref="165172366"/>
    <nd ref="165172359"/>
    <tag k="highway" v="secondary"/>
    <tag k="ref" v="SP5"/>
  </way>
  <way id="34877547" version="3" timestamp="2010-08-19T19:59:46Z" uid="22290" user="Ale_Zena_IT" changeset="5538508">
    <nd ref="165172377"/>
    <nd ref="869298506"/>
    <nd ref="775279985"/>
    <nd ref="165172371"/>
    <nd ref="869297890"/>
    <nd ref="165172366"/>
    <nd ref="165172359"/>
    <tag k="highway" v="secondary"/>
    <tag k="ref" v="SP5"/>
  </way>
  <way id="34877547" version="4" timestamp="2010-09-24T17:16:35Z" uid="113023" user="glaucos" changeset="5864707">
    <nd ref="165172359"/>
    <nd ref="924297178"/>
    <nd ref="165172366"/>
    <nd ref="924297207"/>
    <nd ref="165172371"/>
    <nd ref="775279985"/>
    <nd ref="869298506"/>
    <nd ref="165172377"/>
    <tag k="highway" v="secondary"/>
    <tag k="oneway" v="yes"/>
    <tag k="ref" v="SP5"/>
  </way>
  <way id="34877547" version="5" timestamp="2012-01-02T09:52:23Z" uid="354284" user="sbiribizio" changeset="10268903">
    <nd ref="165172359"/>
    <nd ref="924297178"/>
    <nd ref="165172366"/>
    <nd ref="924297207"/>
    <nd ref="165172371"/>
    <nd ref="775279985"/>
    <nd ref="869298506"/>
    <nd ref="165172377"/>
    <tag k="highway" v="secondary"/>
    <tag k="oneway" v="yes"/>
  </way>
  <way id="34877547" version="6" timestamp="2012-01-03T10:59:11Z" uid="354284" user="sbiribizio" changeset="10279971">
    <nd ref="165172359"/>
    <nd ref="924297178"/>
    <nd ref="165172366"/>
    <nd ref="924297207"/>
    <nd ref="165172371"/>
    <nd ref="775279985"/>
    <nd ref="869298506"/>
    <nd ref="165172377"/>
    <tag k="highway" v="secondary"/>
    <tag k="oneway" v="yes"/>
    <tag k="ref" v="SP422"/>
  </way>
  <way id="34877548" version="2" timestamp="2010-06-17T18:51:04Z" uid="43967" user="railsnail" changeset="5011253">
    <nd ref="165172389"/>
    <nd ref="165172383"/>
    <nd ref="165172377"/>
    <tag k="bridge" v="yes"/>
    <tag k="highway" v="secondary"/>
    <tag k="lanes" v="4"/>
    <tag k="ref" v="SP5"/>
  </way>
  <way id="34877548" version="3" timestamp="2010-08-19T20:00:42Z" uid="22290" user="Ale_Zena_IT" changeset="5538508">
    <nd ref="165172377"/>
    <nd ref="165172389"/>
    <tag k="bridge" v="yes"/>
    <tag k="highway" v="secondary"/>
    <tag k="lanes" v="2"/>
    <tag k="oneway" v="yes"/>
    <tag k="ref" v="SP5"/>
  </way>
  <way id="34877548" version="4" timestamp="2012-01-03T10:59:11Z" uid="354284" user="sbiribizio" changeset="10279971">
    <nd ref="165172377"/>
    <nd ref="165172389"/>
    <tag k="bridge" v="yes"/>
    <tag k="highway" v="secondary"/>
    <tag k="lanes" v="2"/>
    <tag k="oneway" v="yes"/>
    <tag k="ref" v="SP422"/>
  </way>
  <way id="34877552" version="2" timestamp="2010-06-17T15:22:42Z" uid="43967" user="railsnail" changeset="5009635">
    <nd ref="401240744"/>
    <nd ref="401240745"/>
    <tag k="highway" v="residential"/>
    <tag k="name" v="Pista della confluenza"/>
    <tag k="surface" v="unpaved"/>
    <tag k="width" v="3"/>
  </way>
  <way id="34877552" version="3" timestamp="2011-07-10T18:57:54Z" uid="67289" user="Gautama" changeset="8687032">
    <nd ref="401240744"/>
    <nd ref="401240745"/>
    <tag k="highway" v="service"/>
    <tag k="name" v="Pista della confluenza"/>
    <tag k="surface" v="asphalt"/>
    <tag k="width" v="3"/>
  </way>
  <way id="34877554" version="2" timestamp="2010-06-17T15:22:42Z" uid="43967" user="railsnail" changeset="5009635">
    <nd ref="401240742"/>
    <nd ref="401240744"/>
    <tag k="highway" v="residential"/>
    <tag k="name" v="Pista della confluenza"/>
    <tag k="surface" v="unpaved"/>
    <tag k="tunnel" v="yes"/>
    <tag k="width" v="3"/>
  </way>
  <way id="34877554" version="3" timestamp="2011-07-10T18:57:54Z" uid="67289" user="Gautama" changeset="8687032">
    <nd ref="401240742"/>
    <nd ref="401240744"/>
    <tag k="highway" v="service"/>
    <tag k="name" v="Pista della confluenza"/>
    <tag k="surface" v="asphalt"/>
    <tag k="tunnel" v="yes"/>
    <tag k="width" v="3"/>
  </way>
  <way id="34877547" version="7" timestamp="2012-07-16T04:48:18Z" uid="722137" user="OSMF Redaction Account" changeset="12239477">
    <nd ref="165172359"/>
    <nd ref="924297178"/>
    <nd ref="165172366"/>
    <nd ref="924297207"/>
    <nd ref="165172371"/>
    <nd ref="869298506"/>
    <nd ref="165172377"/>
    <tag k="highway" v="secondary"/>
    <tag k="oneway" v="yes"/>
    <tag k="ref" v="SP422"/>
  </way>
</osm>
