<?xml version='1.0' encoding='UTF-8'?>
<osm version="0.6" generator="libosmium/2.20.0">
  <way id="34872106" version="1" timestamp="2009-05-21T11:08:22Z" uid="7617" user="Franc" changeset="1274675">
    <nd ref="40755148"/>
    <nd ref="185922123"/>
    <nd ref="185922124"/>
    <nd ref="185925421"/>
    <nd ref="185922125"/>
    <nd ref="185919698"/>
    <tag k="created_by" v="Potlatch 0.5d"/>
    <tag k="highway" v="residential"/>
    <tag k="name" v="Surf Parade"/>
  </way>
  <way id="34872106" version="2" timestamp="2009-05-21T11:47:45Z" uid="7617" user="Franc" changeset="1275200">
    <nd ref="40755148"/>
    <nd ref="185922123"/>
    <nd ref="408905255"/>
    <nd ref="408905266"/>
    <nd ref="185925421"/>
    <nd ref="185922125"/>
    <nd ref="185919698"/>
    <tag k="created_by" v="Potlatch 0.5d"/>
    <tag k="highway" v="residential"/>
    <tag k="name" v="Surf Parade"/>
  </way>
  <way id="34872106" version="3" timestamp="2010-04-25T13:46:14Z" uid="4467" user="Rosscoe" changeset="4521575">
    <nd ref="40755148"/>
    <nd ref="185922123"/>
    <nd ref="408905255"/>
    <nd ref="706152335"/>
    <nd ref="706152352"/>
    <tag k="highway" v="residential"/>
    <tag k="name" v="Surf Parade"/>
  </way>
  <way id="34872106" version="4" timestamp="2010-07-06T17:39:25Z" uid="74617" user="JohnSmith" changeset="5152225">
    <nd ref="40755148"/>
    <nd ref="185922123"/>
    <nd ref="408905255"/>
    <nd ref="706152335"/>
    <nd ref="706152352"/>
    <tag k="highway" v="residential"/>
    <tag k="maxspeed" v="50"/>
    <tag k="maxspeed:source" v="default residential speed limit in Australia"/>
    <tag k="name" v="Surf Parade"/>
  </way>
  <way id="34872106" version="5" timestamp="2012-01-18T21:40:37Z" uid="147510" user="woodpeck_fixbot" changeset="10431441">
    <nd ref="40755148"/>
    <nd ref="185922123"/>
    <nd ref="408905255"/>
    <nd ref="706152335"/>
    <nd ref="706152352"/>
    <tag k="highway" v="residential"/>
    <tag k="name" v="Surf Parade"/>
  </way>
  <way id="34872107" version="1" timestamp="2009-05-21T11:08:22Z" uid="7617" user="Franc" changeset="1274675">
    <nd ref="40754664"/>
    <nd ref="408866150"/>
    <nd ref="408866152"/>
    <nd ref="408866153"/>
    <nd ref="408866155"/>
    <nd ref="408866157"/>
    <nd ref="408866158"/>
    <nd ref="408866161"/>
    <nd ref="40755196"/>
    <tag k="highway" v="residential"/>
    <tag k="source" v="yahoo_imagery"/>
  </way>
  <way id="34872107" version="2" timestamp="2009-07-12T12:52:34Z" uid="7617" user="Franc" changeset="1806804">
    <nd ref="40754664"/>
    <nd ref="408866150"/>
    <nd ref="408866152"/>
    <nd ref="408866153"/>
    <nd ref="408866155"/>
    <tag k="highway" v="residential"/>
    <tag k="name" v="Amrick Avenue"/>
    <tag k="source" v="survey"/>
  </way>
  <way id="34872107" version="3" timestamp="2010-04-30T00:52:46Z" uid="244897" user="M526244" changeset="4562660"/>
  <way id="34872108" version="1" timestamp="2009-05-21T11:08:22Z" uid="7617" user="Franc" changeset="1274675">
    <nd ref="40755244"/>
    <nd ref="40755216"/>
    <tag k="highway" v="residential"/>
    <tag k="source" v="yahoo_imagery"/>
  </way>
  <way id="34872108" version="2" timestamp="2009-07-12T12:52:34Z" uid="7617" user="Franc" changeset="1806804">
    <nd ref="40755319"/>
    <nd ref="40754850"/>
    <nd ref="40755244"/>
    <nd ref="40755216"/>
    <tag k="created_by" v="Potlatch 0.10f"/>
    <tag k="highway" v="residential"/>
    <tag k="name" v="Britannia Avenue"/>
    <tag k="source" v="survey"/>
  </way>
  <way id="34872108" version="3" timestamp="2010-07-06T17:44:30Z" uid="74617" user="JohnSmith" changeset="5152225">
    <nd ref="40755319"/>
    <nd ref="40754850"/>
    <nd ref="40755244"/>
    <nd ref="40755216"/>
    <tag k="highway" v="residential"/>
    <tag k="maxspeed" v="50"/>
    <tag k="maxspeed:source" v="default residential speed limit in Australia"/>
    <tag k="name" v="Britannia Avenue"/>
    <tag k="source" v="survey"/>
  </way>
  <way id="34872108" version="4" timestamp="2012-01-18T21:40:46Z" uid="147510" user="woodpeck_fixbot" changeset="10431441">
    <nd ref="40755319"/>
    <nd ref="40754850"/>
    <nd ref="40755244"/>
    <nd ref="40755216"/>
    <tag k="highway" v="residential"/>
    <tag k="name" v="Britannia Avenue"/>
    <tag k="source" v="survey"/>
  </way>
  <way id="34872109" version="1" timestamp="2009-05-21T11:08:22Z" uid="7617" user="Franc" changeset="1274675">
    <nd ref="408866168"/>
    <nd ref="408866170"/>
    <nd ref="408866172"/>
    <nd ref="408866174"/>
    <nd ref="408866176"/>
    <nd ref="408866177"/>
    <nd ref="408866179"/>
    <nd ref="408866168"/>
    <tag k="leisure" v="park"/>
    <tag k="name" v="Neddy Harper and William Duncan Park"/>
    <tag k="source" v="yahoo_imagery"/>
    <tag k="source:name" v="survey"/>
  </way>
  <way id="34872110" version="1" timestamp="2009-05-21T11:08:22Z" uid="7617" user="Franc" changeset="1274675">
    <nd ref="304715741"/>
    <nd ref="304715742"/>
    <nd ref="304715743"/>
    <nd ref="12352939"/>
    <tag k="created_by" v="Potlatch 0.10e"/>
    <tag k="highway" v="residential"/>
    <tag k="name" v="Genoa Street"/>
    <tag k="source:name" v="survey"/>
  </way>
  <way id="34872110" version="2" timestamp="2010-03-01T16:59:33Z" uid="114230" user="danerikk" changeset="4009724">
    <nd ref="304715741"/>
    <nd ref="304715742"/>
    <nd ref="304715743"/>
    <nd ref="658465508"/>
    <nd ref="12352939"/>
    <tag k="highway" v="residential"/>
    <tag k="name" v="Genoa Street"/>
    <tag k="source:name" v="survey"/>
  </way>
  <way id="34872110" version="3" timestamp="2010-03-01T16:59:55Z" uid="114230" user="danerikk" changeset="4009724">
    <nd ref="304715741"/>
    <nd ref="304715742"/>
    <nd ref="658466422"/>
    <nd ref="304715743"/>
    <nd ref="658465508"/>
    <nd ref="12352939"/>
    <tag k="highway" v="residential"/>
    <tag k="name" v="Genoa Street"/>
    <tag k="source:name" v="survey"/>
  </way>
  <way id="34872110" version="4" timestamp="2010-03-01T16:59:58Z" uid="114230" user="danerikk" changeset="4009724">
    <nd ref="304715741"/>
    <nd ref="304715742"/>
    <nd ref="658466422"/>
    <nd ref="658466615"/>
    <nd ref="304715743"/>
    <nd ref="658465508"/>
    <nd ref="12352939"/>
    <tag k="highway" v="residential"/>
    <tag k="name" v="Genoa Street"/>
    <tag k="source:name" v="survey"/>
  </way>
  <way id="34872110" version="5" timestamp="2010-07-06T17:33:07Z" uid="74617" user="JohnSmith" changeset="5152225">
    <nd ref="304715741"/>
    <nd ref="304715742"/>
    <nd ref="658466422"/>
    <nd ref="658466615"/>
    <nd ref="304715743"/>
    <nd ref="658465508"/>
    <nd ref="12352939"/>
    <tag k="highway" v="residential"/>
    <tag k="maxspeed" v="50"/>
    <tag k="maxspeed:source" v="default residential speed limit in Australia"/>
    <tag k="name" v="Genoa Street"/>
    <tag k="source:name" v="survey"/>
  </way>
  <way id="34872110" version="6" timestamp="2012-01-18T21:41:02Z" uid="147510" user="woodpeck_fixbot" changeset="10431441">
    <nd ref="304715741"/>
    <nd ref="304715742"/>
    <nd ref="658466422"/>
    <nd ref="658466615"/>
    <nd ref="304715743"/>
    <nd ref="658465508"/>
    <nd ref="12352939"/>
    <tag k="highway" v="residential"/>
    <tag k="name" v="Genoa Street"/>
    <tag k="source:name" v="survey"/>
  </way>
  <way id="34872111" version="1" timestamp="2009-05-21T11:08:22Z" uid="7617" user="Franc" changeset="1274675">
    <nd ref="408866192"/>
    <nd ref="408866194"/>
    <tag k="highway" v="residential"/>
    <tag k="name" v="Rylie Street"/>
    <tag k="source" v="yahoo_imagery"/>
    <tag k="source:name" v="survey"/>
  </way>
  <way id="34872111" version="2" timestamp="2010-07-06T17:46:29Z" uid="74617" user="JohnSmith" changeset="5152225">
    <nd ref="408866192"/>
    <nd ref="408866194"/>
    <tag k="highway" v="residential"/>
    <tag k="maxspeed" v="50"/>
    <tag k="maxspeed:source" v="default residential speed limit in Australia"/>
    <tag k="name" v="Rylie Street"/>
    <tag k="source" v="yahoo_imagery"/>
    <tag k="source:name" v="survey"/>
  </way>
  <way id="34872111" version="3" timestamp="2012-01-18T21:41:14Z" uid="147510" user="woodpeck_fixbot" changeset="10431441">
    <nd ref="408866192"/>
    <nd ref="408866194"/>
    <tag k="highway" v="residential"/>
    <tag k="name" v="Rylie Street"/>
    <tag k="source" v="yahoo_imagery"/>
    <tag k="source:name" v="survey"/>
  </way>
  <way id="34872112" version="1" timestamp="2009-05-21T11:08:23Z" uid="7617" user="Franc" changeset="1274675">
    <nd ref="39711147"/>
    <nd ref="408866164"/>
    <nd ref="39711150"/>
    <tag k="created_by" v="Potlatch 0.10f"/>
    <tag k="highway" v="residential"/>
  </way>
  <way id="34872112" version="2" timestamp="2009-07-12T12:52:34Z" uid="7617" user="Franc" changeset="1806804">
    <nd ref="39711147"/>
    <nd ref="408866164"/>
    <nd ref="39711150"/>
    <tag k="created_by" v="Potlatch 0.10f"/>
    <tag k="highway" v="residential"/>
    <tag k="name" v="First Avenue"/>
    <tag k="source" v="survey"/>
  </way>
  <way id="34872112" version="3" timestamp="2010-07-06T17:46:43Z" uid="74617" user="JohnSmith" changeset="5152225">
    <nd ref="39711147"/>
    <nd ref="408866164"/>
    <nd ref="39711150"/>
    <tag k="highway" v="residential"/>
    <tag k="maxspeed" v="50"/>
    <tag k="maxspeed:source" v="default residential speed limit in Australia"/>
    <tag k="name" v="First Avenue"/>
    <tag k="source" v="survey"/>
  </way>
  <way id="34872112" version="4" timestamp="2012-01-18T21:41:32Z" uid="147510" user="woodpeck_fixbot" changeset="10431441">
    <nd ref="39711147"/>
    <nd ref="408866164"/>
    <nd ref="39711150"/>
    <tag k="highway" v="residential"/>
    <tag k="name" v="First Avenue"/>
    <tag k="source" v="survey"/>
  </way>
  <way id="34872113" version="1" timestamp="2009-05-21T11:08:23Z" uid="99207" user="Lar Kiesel" changeset="1274673">
    <nd ref="408866227"/>
    <nd ref="408866227"/>
  </way>
  <way id="34872113" version="2" timestamp="2009-09-26T01:18:41Z" uid="166129" user="BugBuster" changeset="2632149">
    <nd ref="408866227"/>
  </way>
  <way id="34872113" version="3" timestamp="2009-11-27T10:05:11Z" uid="70696" user="xybot" changeset="3226476"/>
  <way id="34872261" version="5" timestamp="2009-10-20T00:55:35Z" uid="36809" user="pfoten_weg_!_" changeset="2899059">
    <nd ref="281808780"/>
    <nd ref="430925997"/>
    <nd ref="430925995"/>
    <nd ref="408870646"/>
    <nd ref="430925994"/>
    <nd ref="430925993"/>
    <nd ref="430925992"/>
    <nd ref="430925991"/>
    <nd ref="430925990"/>
    <nd ref="430501342"/>
    <nd ref="408870649"/>
    <tag k="highway" v="residential"/>
    <tag k="name" v="Pfirnleite"/>
  </way>
  <way id="34872266" version="4" timestamp="2009-10-20T00:56:38Z" uid="36809" user="pfoten_weg_!_" changeset="2899059">
    <nd ref="408870707"/>
    <nd ref="408870717"/>
    <nd ref="408870722"/>
    <nd ref="430925962"/>
    <nd ref="430925963"/>
    <nd ref="408870674"/>
    <tag k="highway" v="residential"/>
    <tag k="name" v="Huderstraße"/>
  </way>
  <way id="34872267" version="4" timestamp="2009-10-20T00:56:38Z" uid="36809" user="pfoten_weg_!_" changeset="2899059">
    <nd ref="408870671"/>
    <nd ref="430925960"/>
    <nd ref="430925961"/>
    <nd ref="408870734"/>
    <nd ref="408870722"/>
    <tag k="highway" v="residential"/>
    <tag k="name" v="Moosbachweg"/>
  </way>
  <way id="34872270" version="3" timestamp="2009-10-20T00:56:13Z" uid="36809" user="pfoten_weg_!_" changeset="2899059">
    <nd ref="408870765"/>
    <nd ref="430925953"/>
    <nd ref="430925954"/>
    <nd ref="430925955"/>
    <nd ref="430925956"/>
    <nd ref="408870761"/>
    <nd ref="430925957"/>
    <nd ref="408870750"/>
    <tag k="highway" v="residential"/>
    <tag k="maxspeed" v="30"/>
    <tag k="name" v="Risserkogelstraße"/>
  </way>
  <way id="34872270" version="4" timestamp="2011-01-16T16:03:36Z" uid="42393" user="mawi42" changeset="6989137">
    <nd ref="408870765"/>
    <nd ref="430925953"/>
    <nd ref="430925957"/>
    <nd ref="408870750"/>
    <tag k="highway" v="residential"/>
    <tag k="maxspeed" v="30"/>
    <tag k="name" v="Risserkogelstraße"/>
  </way>
  <way id="34872270" version="5" timestamp="2011-04-24T00:45:15Z" uid="418282" user="Norbert18" changeset="7948688">
    <nd ref="408870765"/>
    <nd ref="430925957"/>
    <nd ref="408870750"/>
    <tag k="highway" v="residential"/>
    <tag k="maxspeed" v="30"/>
    <tag k="name" v="Risserkogelstraße"/>
  </way>
  <way id="34872271" version="3" timestamp="2009-10-20T00:56:37Z" uid="36809" user="pfoten_weg_!_" changeset="2899059">
    <nd ref="408870750"/>
    <nd ref="430925958"/>
    <nd ref="408870755"/>
    <tag k="highway" v="residential"/>
    <tag k="maxspeed" v="30"/>
    <tag k="name" v="Risserkogelstraße"/>
    <tag k="surface" v="unpaved"/>
  </way>
  <way id="34872271" version="4" timestamp="2011-04-24T00:45:49Z" uid="418282" user="Norbert18" changeset="7948688">
    <nd ref="408870750"/>
    <nd ref="408870755"/>
    <tag k="highway" v="residential"/>
    <tag k="maxspeed" v="30"/>
    <tag k="name" v="Risserkogelstraße"/>
    <tag k="surface" v="unpaved"/>
  </way>
  <way id="34872276" version="3" timestamp="2009-10-20T00:56:47Z" uid="36809" user="pfoten_weg_!_" changeset="2899059">
    <nd ref="282233488"/>
    <nd ref="408870788"/>
    <tag k="highway" v="residential"/>
    <tag k="name" v="Jägerstraße"/>
  </way>
  <way id="34872278" version="5" timestamp="2009-10-20T00:55:03Z" uid="36809" user="pfoten_weg_!_" changeset="2899059">
    <nd ref="408870833"/>
    <nd ref="430501395"/>
    <nd ref="430925888"/>
    <nd ref="408870839"/>
    <nd ref="430925886"/>
    <nd ref="408870843"/>
    <nd ref="430925885"/>
    <nd ref="430925884"/>
    <nd ref="430925883"/>
    <nd ref="430925882"/>
    <nd ref="408870848"/>
    <nd ref="430925881"/>
    <nd ref="430925879"/>
    <nd ref="423743381"/>
    <tag k="highway" v="residential"/>
    <tag k="name" v="Rupertiweg"/>
  </way>
  <way id="34872278" version="6" timestamp="2011-04-24T00:45:17Z" uid="418282" user="Norbert18" changeset="7948688">
    <nd ref="408870833"/>
    <nd ref="430501395"/>
    <nd ref="408870843"/>
    <nd ref="430925883"/>
    <nd ref="408870848"/>
    <nd ref="423743381"/>
    <tag k="highway" v="residential"/>
    <tag k="name" v="Rupertiweg"/>
  </way>
  <way id="34872285" version="5" timestamp="2009-10-20T00:55:01Z" uid="36809" user="pfoten_weg_!_" changeset="2899059">
    <nd ref="276661529"/>
    <nd ref="431326339"/>
    <nd ref="431326338"/>
    <nd ref="431326337"/>
    <nd ref="431326336"/>
    <nd ref="431326335"/>
    <nd ref="431326334"/>
    <nd ref="431326333"/>
    <nd ref="431326332"/>
    <nd ref="431326331"/>
    <nd ref="431326330"/>
    <nd ref="431326329"/>
    <nd ref="431326328"/>
    <nd ref="431326327"/>
    <nd ref="431326342"/>
    <nd ref="431326326"/>
    <nd ref="431326325"/>
    <nd ref="431326324"/>
    <nd ref="431326323"/>
    <nd ref="431326322"/>
    <nd ref="431326321"/>
    <nd ref="431326320"/>
    <nd ref="431326319"/>
    <nd ref="431326318"/>
    <nd ref="431326317"/>
    <nd ref="431326316"/>
    <nd ref="431326315"/>
    <nd ref="431326314"/>
    <nd ref="431326313"/>
    <nd ref="431326312"/>
    <nd ref="431326311"/>
    <nd ref="431326310"/>
    <nd ref="431326309"/>
    <nd ref="431326308"/>
    <nd ref="431326307"/>
    <nd ref="431326306"/>
    <nd ref="431326305"/>
    <nd ref="431326304"/>
    <nd ref="408870945"/>
    <nd ref="430501162"/>
    <nd ref="430501248"/>
    <nd ref="408870944"/>
    <nd ref="408870943"/>
    <tag k="bicycle" v="yes"/>
    <tag k="highway" v="track"/>
    <tag k="hiking" v="yes"/>
    <tag k="name" v="Breitenbachtal"/>
    <tag k="ref" v="W 11"/>
    <tag k="sac_scale" v="hiking"/>
    <tag k="surface" v="unpaved"/>
    <tag k="tracktype" v="grade2"/>
  </way>
  <way id="34872285" version="6" timestamp="2010-04-18T20:49:19Z" uid="64756" user="alegria6208" changeset="4462150">
    <nd ref="276661529"/>
    <nd ref="431326339"/>
    <nd ref="431326338"/>
    <nd ref="431326337"/>
    <nd ref="431326336"/>
    <nd ref="431326335"/>
    <nd ref="431326334"/>
    <nd ref="431326333"/>
    <nd ref="431326332"/>
    <nd ref="431326331"/>
    <nd ref="431326330"/>
    <nd ref="431326329"/>
    <nd ref="431326328"/>
    <nd ref="431326327"/>
    <nd ref="431326342"/>
    <nd ref="431326326"/>
    <nd ref="431326325"/>
    <nd ref="431326324"/>
    <nd ref="431326323"/>
    <nd ref="431326322"/>
    <nd ref="431326321"/>
    <nd ref="431326320"/>
    <nd ref="431326319"/>
    <nd ref="431326318"/>
    <nd ref="431326317"/>
    <nd ref="431326316"/>
    <nd ref="431326315"/>
    <nd ref="431326314"/>
    <nd ref="431326313"/>
    <nd ref="431326312"/>
    <nd ref="431326311"/>
    <nd ref="431326310"/>
    <nd ref="431326309"/>
    <nd ref="431326308"/>
    <nd ref="431326307"/>
    <nd ref="431326306"/>
    <nd ref="431326305"/>
    <nd ref="431326304"/>
    <nd ref="408870945"/>
    <nd ref="430501162"/>
    <nd ref="430501248"/>
    <nd ref="408870944"/>
    <nd ref="408870943"/>
    <tag k="access" v="agricultural"/>
    <tag k="bicycle" v="yes"/>
    <tag k="highway" v="track"/>
    <tag k="hiking" v="yes"/>
    <tag k="name" v="Breitenbachtal"/>
    <tag k="ref" v="W 11"/>
    <tag k="sac_scale" v="hiking"/>
    <tag k="surface" v="unpaved"/>
    <tag k="tracktype" v="grade2"/>
  </way>
  <way id="34872285" version="7" timestamp="2011-04-24T00:45:47Z" uid="418282" user="Norbert18" changeset="7948688">
    <nd ref="276661529"/>
    <nd ref="431326339"/>
    <nd ref="431326338"/>
    <nd ref="431326337"/>
    <nd ref="431326336"/>
    <nd ref="431326335"/>
    <nd ref="431326334"/>
    <nd ref="431326333"/>
    <nd ref="431326332"/>
    <nd ref="431326331"/>
    <nd ref="431326330"/>
    <nd ref="431326329"/>
    <nd ref="431326328"/>
    <nd ref="431326327"/>
    <nd ref="431326342"/>
    <nd ref="431326326"/>
    <nd ref="431326325"/>
    <nd ref="431326324"/>
    <nd ref="431326323"/>
    <nd ref="431326322"/>
    <nd ref="431326321"/>
    <nd ref="431326320"/>
    <nd ref="431326319"/>
    <nd ref="431326318"/>
    <nd ref="431326317"/>
    <nd ref="431326316"/>
    <nd ref="431326315"/>
    <nd ref="431326314"/>
    <nd ref="431326313"/>
    <nd ref="431326312"/>
    <nd ref="431326311"/>
    <nd ref="431326310"/>
    <nd ref="431326309"/>
    <nd ref="431326308"/>
    <nd ref="431326307"/>
    <nd ref="431326306"/>
    <nd ref="431326305"/>
    <nd ref="431326304"/>
    <nd ref="408870945"/>
    <nd ref="430501162"/>
    <nd ref="408870943"/>
    <tag k="access" v="agricultural"/>
    <tag k="bicycle" v="yes"/>
    <tag k="highway" v="track"/>
    <tag k="hiking" v="yes"/>
    <tag k="name" v="Breitenbachtal"/>
    <tag k="ref" v="W 11"/>
    <tag k="sac_scale" v="hiking"/>
    <tag k="surface" v="unpaved"/>
    <tag k="tracktype" v="grade2"/>
  </way>
  <way id="34872287" version="3" timestamp="2009-10-20T00:56:02Z" uid="36809" user="pfoten_weg_!_" changeset="2899059">
    <nd ref="408870880"/>
    <nd ref="430925848"/>
    <nd ref="430925847"/>
    <nd ref="430925846"/>
    <nd ref="430925845"/>
    <nd ref="408870926"/>
    <nd ref="430925844"/>
    <nd ref="430925842"/>
    <nd ref="430925840"/>
    <nd ref="430925838"/>
    <nd ref="282233487"/>
    <tag k="highway" v="residential"/>
    <tag k="name" v="Riehlstraße"/>
  </way>
  <way id="34872287" version="4" timestamp="2010-01-10T18:35:19Z" uid="72235" user="Basstoelpel" changeset="3590141">
    <nd ref="408870880"/>
    <nd ref="430925848"/>
    <nd ref="430925847"/>
    <nd ref="430925846"/>
    <nd ref="430925845"/>
    <nd ref="408870926"/>
    <nd ref="430925844"/>
    <nd ref="430925842"/>
    <nd ref="430925840"/>
    <nd ref="430925838"/>
    <nd ref="282233487"/>
    <tag k="highway" v="residential"/>
    <tag k="maxspeed" v="30"/>
    <tag k="name" v="Riehlstraße"/>
  </way>
  <way id="34872287" version="5" timestamp="2011-01-16T16:00:36Z" uid="42393" user="mawi42" changeset="6989137">
    <nd ref="408870880"/>
    <nd ref="408870926"/>
    <nd ref="282233487"/>
    <tag k="highway" v="residential"/>
    <tag k="maxspeed" v="30"/>
    <tag k="name" v="Riehlstraße"/>
  </way>
  <way id="34872288" version="4" timestamp="2009-10-20T00:56:46Z" uid="36809" user="pfoten_weg_!_" changeset="2899059">
    <nd ref="408870926"/>
    <nd ref="430925849"/>
    <nd ref="430925850"/>
    <nd ref="430925851"/>
    <nd ref="430932371"/>
    <nd ref="430925852"/>
    <nd ref="430925853"/>
    <nd ref="393903057"/>
    <tag k="highway" v="residential"/>
    <tag k="maxspeed" v="30"/>
    <tag k="name" v="Asamstraße"/>
  </way>
  <way id="34872288" version="5" timestamp="2011-04-24T00:45:50Z" uid="418282" user="Norbert18" changeset="7948688">
    <nd ref="408870926"/>
    <nd ref="430932371"/>
    <nd ref="393903057"/>
    <tag k="highway" v="residential"/>
    <tag k="maxspeed" v="30"/>
    <tag k="name" v="Asamstraße"/>
  </way>
  <way id="34872293" version="4" timestamp="2009-10-20T00:56:00Z" uid="36809" user="pfoten_weg_!_" changeset="2899059">
    <nd ref="408870930"/>
    <nd ref="408870931"/>
    <nd ref="430925866"/>
    <nd ref="430925865"/>
    <nd ref="430925864"/>
    <nd ref="430925863"/>
    <nd ref="408870777"/>
    <nd ref="430925862"/>
    <nd ref="430925861"/>
    <nd ref="430925860"/>
    <nd ref="282233488"/>
    <tag k="highway" v="residential"/>
    <tag k="name" v="Breitenanger"/>
  </way>
  <way id="34872293" version="5" timestamp="2011-04-24T00:45:49Z" uid="418282" user="Norbert18" changeset="7948688">
    <nd ref="408870930"/>
    <nd ref="408870777"/>
    <nd ref="282233488"/>
    <tag k="highway" v="residential"/>
    <tag k="name" v="Breitenanger"/>
  </way>
  <way id="34872294" version="3" timestamp="2009-10-20T00:56:45Z" uid="36809" user="pfoten_weg_!_" changeset="2899059">
    <nd ref="393903057"/>
    <nd ref="408870933"/>
    <nd ref="430925854"/>
    <nd ref="430925855"/>
    <nd ref="430925856"/>
    <nd ref="430925858"/>
    <nd ref="430925859"/>
    <nd ref="408870777"/>
    <tag k="highway" v="residential"/>
    <tag k="maxspeed" v="30"/>
    <tag k="name" v="Luckenkopfstraße"/>
  </way>
  <way id="34872294" version="4" timestamp="2011-04-24T00:45:12Z" uid="418282" user="Norbert18" changeset="7948688">
    <nd ref="393903057"/>
    <nd ref="408870933"/>
    <nd ref="408870777"/>
    <tag k="highway" v="residential"/>
    <tag k="maxspeed" v="30"/>
    <tag k="name" v="Luckenkopfstraße"/>
  </way>
  <way id="34872295" version="4" timestamp="2009-10-20T00:54:19Z" uid="36809" user="pfoten_weg_!_" changeset="2899059">
    <nd ref="408870943"/>
    <nd ref="430501247"/>
    <nd ref="430501246"/>
    <nd ref="408870942"/>
    <nd ref="430501245"/>
    <nd ref="430501244"/>
    <nd ref="408870941"/>
    <nd ref="408870940"/>
    <nd ref="408870939"/>
    <nd ref="408870938"/>
    <nd ref="430501243"/>
    <nd ref="408870937"/>
    <nd ref="430925878"/>
    <nd ref="408870936"/>
    <nd ref="408870935"/>
    <nd ref="408870828"/>
    <nd ref="408870870"/>
    <nd ref="408870874"/>
    <nd ref="430501241"/>
    <nd ref="408870878"/>
    <nd ref="430501239"/>
    <nd ref="430501238"/>
    <nd ref="408870880"/>
    <nd ref="430501237"/>
    <nd ref="430501236"/>
    <nd ref="408870884"/>
    <nd ref="430501235"/>
    <nd ref="282233473"/>
    <tag k="highway" v="residential"/>
    <tag k="maxspeed" v="30"/>
    <tag k="name" v="Breitenbachtalstraße"/>
  </way>
  <way id="34872295" version="5" timestamp="2011-01-16T16:00:36Z" uid="42393" user="mawi42" changeset="6989137">
    <nd ref="408870943"/>
    <nd ref="430501247"/>
    <nd ref="430501246"/>
    <nd ref="408870942"/>
    <nd ref="430501245"/>
    <nd ref="430501244"/>
    <nd ref="408870941"/>
    <nd ref="408870940"/>
    <nd ref="408870939"/>
    <nd ref="408870938"/>
    <nd ref="430501243"/>
    <nd ref="408870937"/>
    <nd ref="430925878"/>
    <nd ref="408870936"/>
    <nd ref="408870935"/>
    <nd ref="408870828"/>
    <nd ref="408870870"/>
    <nd ref="408870874"/>
    <nd ref="408870878"/>
    <nd ref="408870880"/>
    <nd ref="430501237"/>
    <nd ref="430501236"/>
    <nd ref="408870884"/>
    <nd ref="430501235"/>
    <nd ref="282233473"/>
    <tag k="highway" v="residential"/>
    <tag k="maxspeed" v="30"/>
    <tag k="name" v="Breitenbachtalstraße"/>
  </way>
  <way id="34872295" version="6" timestamp="2011-04-24T00:45:21Z" uid="418282" user="Norbert18" changeset="7948688">
    <nd ref="408870943"/>
    <nd ref="430501245"/>
    <nd ref="408870940"/>
    <nd ref="408870937"/>
    <nd ref="430925878"/>
    <nd ref="408870935"/>
    <nd ref="408870828"/>
    <nd ref="408870874"/>
    <nd ref="408870878"/>
    <nd ref="408870880"/>
    <nd ref="408870884"/>
    <nd ref="282233473"/>
    <tag k="highway" v="residential"/>
    <tag k="maxspeed" v="30"/>
    <tag k="name" v="Breitenbachtalstraße"/>
  </way>
  <way id="34872297" version="4" timestamp="2009-10-20T00:54:18Z" uid="36809" user="pfoten_weg_!_" changeset="2899059">
    <nd ref="408870811"/>
    <nd ref="430921424"/>
    <nd ref="408870946"/>
    <nd ref="430921423"/>
    <nd ref="430921425"/>
    <nd ref="430921426"/>
    <nd ref="430921427"/>
    <nd ref="430921428"/>
    <nd ref="430921429"/>
    <nd ref="408870947"/>
    <nd ref="430921430"/>
    <nd ref="430921431"/>
    <nd ref="408870948"/>
    <nd ref="430921433"/>
    <nd ref="408870966"/>
    <nd ref="430921434"/>
    <nd ref="408870962"/>
    <nd ref="430925834"/>
    <nd ref="430925835"/>
    <tag k="highway" v="residential"/>
    <tag k="name" v="Schmerbachgrund"/>
  </way>
  <way id="34872297" version="5" timestamp="2010-01-10T18:35:16Z" uid="72235" user="Basstoelpel" changeset="3590141">
    <nd ref="408870811"/>
    <nd ref="430921424"/>
    <nd ref="408870946"/>
    <nd ref="430921423"/>
    <nd ref="430921425"/>
    <nd ref="430921426"/>
    <nd ref="430921427"/>
    <nd ref="430921428"/>
    <nd ref="430921429"/>
    <nd ref="408870947"/>
    <nd ref="430921430"/>
    <nd ref="430921431"/>
    <nd ref="408870948"/>
    <nd ref="430921433"/>
    <nd ref="408870966"/>
    <nd ref="430921434"/>
    <nd ref="611106585"/>
    <nd ref="408870962"/>
    <nd ref="430925834"/>
    <nd ref="430925835"/>
    <tag k="highway" v="residential"/>
    <tag k="name" v="Schmerbachgrund"/>
  </way>
  <way id="34872297" version="6" timestamp="2011-04-24T00:45:13Z" uid="418282" user="Norbert18" changeset="7948688">
    <nd ref="408870811"/>
    <nd ref="408870946"/>
    <nd ref="408870947"/>
    <nd ref="408870948"/>
    <nd ref="408870966"/>
    <nd ref="430921434"/>
    <nd ref="611106585"/>
    <nd ref="408870962"/>
    <nd ref="430925835"/>
    <tag k="highway" v="residential"/>
    <tag k="name" v="Schmerbachgrund"/>
  </way>
  <way id="34872301" version="3" timestamp="2009-10-20T00:56:52Z" uid="36809" user="pfoten_weg_!_" changeset="2899059">
    <nd ref="408870966"/>
    <nd ref="430501188"/>
    <nd ref="408870949"/>
    <tag k="highway" v="track"/>
  </way>
  <way id="34872301" version="4" timestamp="2011-04-24T00:45:17Z" uid="418282" user="Norbert18" changeset="7948688">
    <nd ref="408870966"/>
    <nd ref="408870949"/>
    <tag k="highway" v="track"/>
  </way>
  <way id="34872384" version="6" timestamp="2010-03-22T06:29:50Z" uid="20587" user="balrog-kun" changeset="4199043">
    <nd ref="408875047"/>
    <nd ref="408875048"/>
    <nd ref="409683708"/>
    <tag k="comment" v="Named after Sam Baldock."/>
    <tag k="highway" v="motorway"/>
    <tag k="name" v="Baldock Freeway"/>
    <tag k="name_1" v="Pacific Highway"/>
    <tag k="oneway" v="yes"/>
    <tag k="ref" v="I 5"/>
    <tag k="source:name" v="ODOT"/>
    <tag k="tiger:cfcc" v="A15"/>
    <tag k="tiger:county" v="Lane, OR"/>
    <tag k="tiger:name_base" v="I-5"/>
    <tag k="tiger:name_base_1" v="Pacific"/>
    <tag k="tiger:name_type_1" v="Hwy"/>
    <tag k="tiger:separated" v="yes"/>
    <tag k="tiger:source" v="tiger_import_dch_v0.6_20070808"/>
    <tag k="tiger:tlid" v="178145613:178145614:178211492:178145737"/>
  </way>
  <way id="34872384" version="7" timestamp="2011-01-31T05:20:42Z" uid="373763" user="ylekot" changeset="7142126">
    <nd ref="408875047"/>
    <nd ref="408875048"/>
    <nd ref="409683708"/>
    <tag k="alt_name" v="Pacific Highway #1"/>
    <tag k="comment" v="Named after Sam Baldock."/>
    <tag k="highway" v="motorway"/>
    <tag k="name" v="Interstate 5"/>
    <tag k="name_1" v="Pacific Highway"/>
    <tag k="oneway" v="yes"/>
    <tag k="ref" v="I 5"/>
    <tag k="source:name" v="ODOT"/>
    <tag k="tiger:cfcc" v="A15"/>
    <tag k="tiger:county" v="Lane, OR"/>
    <tag k="tiger:name_base" v="I-5"/>
    <tag k="tiger:name_base_1" v="Pacific"/>
    <tag k="tiger:name_type_1" v="Hwy"/>
    <tag k="tiger:separated" v="yes"/>
    <tag k="tiger:source" v="tiger_import_dch_v0.6_20070808"/>
    <tag k="tiger:tlid" v="178145613:178145614:178211492:178145737"/>
  </way>
  <way id="34872384" version="8" timestamp="2011-03-26T01:26:39Z" uid="92286" user="Paul Johnson" changeset="7670923">
    <nd ref="408875047"/>
    <nd ref="408875048"/>
    <nd ref="409683708"/>
    <tag k="alt_name" v="Pacific Highway #1"/>
    <tag k="bicycle" v="yes"/>
    <tag k="comment" v="Named after Sam Baldock."/>
    <tag k="highway" v="motorway"/>
    <tag k="name" v="Interstate 5"/>
    <tag k="name_1" v="Pacific Highway"/>
    <tag k="oneway" v="yes"/>
    <tag k="ref" v="I 5"/>
    <tag k="source:name" v="ODOT"/>
    <tag k="tiger:cfcc" v="A15"/>
    <tag k="tiger:county" v="Lane, OR"/>
    <tag k="tiger:name_base" v="I-5"/>
    <tag k="tiger:name_base_1" v="Pacific"/>
    <tag k="tiger:name_type_1" v="Hwy"/>
    <tag k="tiger:separated" v="yes"/>
    <tag k="tiger:source" v="tiger_import_dch_v0.6_20070808"/>
    <tag k="tiger:tlid" v="178145613:178145614:178211492:178145737"/>
  </way>
  <way id="34872384" version="9" timestamp="2011-07-31T13:39:28Z" uid="207745" user="NE2" changeset="8880952">
    <nd ref="408875047"/>
    <nd ref="408875048"/>
    <nd ref="409683708"/>
    <tag k="alt_name" v="Pacific Highway #1"/>
    <tag k="bicycle" v="yes"/>
    <tag k="comment" v="Named after Sam Baldock."/>
    <tag k="highway" v="motorway"/>
    <tag k="name" v="Pacific Highway"/>
    <tag k="oneway" v="yes"/>
    <tag k="ref" v="I 5"/>
    <tag k="source:name" v="ODOT"/>
    <tag k="tiger:cfcc" v="A15"/>
    <tag k="tiger:county" v="Lane, OR"/>
    <tag k="tiger:name_base" v="I-5"/>
    <tag k="tiger:name_base_1" v="Pacific"/>
    <tag k="tiger:name_type_1" v="Hwy"/>
    <tag k="tiger:separated" v="yes"/>
    <tag k="tiger:source" v="tiger_import_dch_v0.6_20070808"/>
    <tag k="tiger:tlid" v="178145613:178145614:178211492:178145737"/>
  </way>
  <way id="34872384" version="10" timestamp="2011-08-02T22:20:17Z" uid="207745" user="NE2" changeset="8905725">
    <nd ref="408875047"/>
    <nd ref="408875048"/>
    <nd ref="409683708"/>
    <tag k="alt_name" v="Pacific Highway #1"/>
    <tag k="bicycle" v="yes"/>
    <tag k="comment" v="Named after Sam Baldock."/>
    <tag k="highway" v="motorway"/>
    <tag k="lanes" v="2"/>
    <tag k="name" v="Pacific Highway"/>
    <tag k="oneway" v="yes"/>
    <tag k="ref" v="I 5"/>
    <tag k="source:name" v="ODOT"/>
    <tag k="tiger:cfcc" v="A15"/>
    <tag k="tiger:county" v="Lane, OR"/>
    <tag k="tiger:name_base" v="I-5"/>
    <tag k="tiger:name_base_1" v="Pacific"/>
    <tag k="tiger:name_type_1" v="Hwy"/>
    <tag k="tiger:separated" v="yes"/>
    <tag k="tiger:source" v="tiger_import_dch_v0.6_20070808"/>
    <tag k="tiger:tlid" v="178145613:178145614:178211492:178145737"/>
  </way>
  <way id="34872384" version="11" timestamp="2011-11-25T17:18:44Z" uid="207745" user="NE2" changeset="9945867">
    <nd ref="408875047"/>
    <nd ref="408875048"/>
    <nd ref="409683708"/>
    <tag k="alt_name" v="Pacific Highway #1"/>
    <tag k="bicycle" v="yes"/>
    <tag k="comment" v="Named after Sam Baldock."/>
    <tag k="hgv" v="designated"/>
    <tag k="highway" v="motorway"/>
    <tag k="lanes" v="2"/>
    <tag k="name" v="Pacific Highway"/>
    <tag k="oneway" v="yes"/>
    <tag k="ref" v="I 5"/>
    <tag k="source:name" v="ODOT"/>
    <tag k="tiger:cfcc" v="A15"/>
    <tag k="tiger:county" v="Lane, OR"/>
    <tag k="tiger:name_base" v="I-5"/>
    <tag k="tiger:name_base_1" v="Pacific"/>
    <tag k="tiger:name_type_1" v="Hwy"/>
    <tag k="tiger:separated" v="yes"/>
    <tag k="tiger:source" v="tiger_import_dch_v0.6_20070808"/>
    <tag k="tiger:tlid" v="178145613:178145614:178211492:178145737"/>
  </way>
  <way id="34872385" version="5" timestamp="2010-03-22T06:29:51Z" uid="20587" user="balrog-kun" changeset="4199043">
    <nd ref="408867100"/>
    <nd ref="408875047"/>
    <tag k="bridge" v="yes"/>
    <tag k="comment" v="Named after Sam Baldock."/>
    <tag k="highway" v="motorway"/>
    <tag k="layer" v="1"/>
    <tag k="name" v="Baldock Freeway"/>
    <tag k="name_1" v="Pacific Highway"/>
    <tag k="oneway" v="yes"/>
    <tag k="ref" v="I 5"/>
    <tag k="source:name" v="ODOT"/>
    <tag k="tiger:cfcc" v="A15"/>
    <tag k="tiger:county" v="Lane, OR"/>
    <tag k="tiger:name_base" v="I-5"/>
    <tag k="tiger:name_base_1" v="Pacific"/>
    <tag k="tiger:name_type_1" v="Hwy"/>
    <tag k="tiger:separated" v="yes"/>
    <tag k="tiger:source" v="tiger_import_dch_v0.6_20070808"/>
    <tag k="tiger:tlid" v="178145613:178145614:178211492:178145737"/>
  </way>
  <way id="34872385" version="6" timestamp="2010-03-29T18:15:19Z" uid="92286" user="Paul Johnson" changeset="4269960">
    <nd ref="408867100"/>
    <nd ref="408875047"/>
    <tag k="bridge" v="yes"/>
    <tag k="comment" v="Named after Sam Baldock."/>
    <tag k="highway" v="motorway"/>
    <tag k="name" v="Baldock Freeway"/>
    <tag k="name_1" v="Pacific Highway"/>
    <tag k="oneway" v="yes"/>
    <tag k="ref" v="I 5"/>
    <tag k="source:name" v="ODOT"/>
    <tag k="tiger:cfcc" v="A15"/>
    <tag k="tiger:county" v="Lane, OR"/>
    <tag k="tiger:name_base" v="I-5"/>
    <tag k="tiger:name_base_1" v="Pacific"/>
    <tag k="tiger:name_type_1" v="Hwy"/>
    <tag k="tiger:separated" v="yes"/>
    <tag k="tiger:source" v="tiger_import_dch_v0.6_20070808"/>
    <tag k="tiger:tlid" v="178145613:178145614:178211492:178145737"/>
  </way>
  <way id="34872385" version="7" timestamp="2010-12-09T02:43:29Z" uid="97431" user="Dion Dock" changeset="6591626">
    <nd ref="408867100"/>
    <nd ref="408875047"/>
    <tag k="bridge" v="yes"/>
    <tag k="comment" v="Named after Sam Baldock."/>
    <tag k="highway" v="motorway"/>
    <tag k="layer" v="1"/>
    <tag k="name" v="Baldock Freeway"/>
    <tag k="name_1" v="Pacific Highway"/>
    <tag k="oneway" v="yes"/>
    <tag k="ref" v="I 5"/>
    <tag k="source:name" v="ODOT"/>
    <tag k="tiger:cfcc" v="A15"/>
    <tag k="tiger:county" v="Lane, OR"/>
    <tag k="tiger:name_base" v="I-5"/>
    <tag k="tiger:name_base_1" v="Pacific"/>
    <tag k="tiger:name_type_1" v="Hwy"/>
    <tag k="tiger:separated" v="yes"/>
    <tag k="tiger:source" v="tiger_import_dch_v0.6_20070808"/>
    <tag k="tiger:tlid" v="178145613:178145614:178211492:178145737"/>
  </way>
  <way id="34872385" version="8" timestamp="2011-01-31T05:20:42Z" uid="373763" user="ylekot" changeset="7142126">
    <nd ref="408867100"/>
    <nd ref="408875047"/>
    <tag k="alt_name" v="Pacific Highway #1"/>
    <tag k="bridge" v="yes"/>
    <tag k="comment" v="Named after Sam Baldock."/>
    <tag k="highway" v="motorway"/>
    <tag k="layer" v="1"/>
    <tag k="name" v="Interstate 5"/>
    <tag k="name_1" v="Pacific Highway"/>
    <tag k="oneway" v="yes"/>
    <tag k="ref" v="I 5"/>
    <tag k="source:name" v="ODOT"/>
    <tag k="tiger:cfcc" v="A15"/>
    <tag k="tiger:county" v="Lane, OR"/>
    <tag k="tiger:name_base" v="I-5"/>
    <tag k="tiger:name_base_1" v="Pacific"/>
    <tag k="tiger:name_type_1" v="Hwy"/>
    <tag k="tiger:separated" v="yes"/>
    <tag k="tiger:source" v="tiger_import_dch_v0.6_20070808"/>
    <tag k="tiger:tlid" v="178145613:178145614:178211492:178145737"/>
  </way>
  <way id="34872385" version="9" timestamp="2011-03-26T01:28:48Z" uid="92286" user="Paul Johnson" changeset="7670923">
    <nd ref="408867100"/>
    <nd ref="408875047"/>
    <tag k="alt_name" v="Pacific Highway #1"/>
    <tag k="bicycle" v="yes"/>
    <tag k="bridge" v="yes"/>
    <tag k="comment" v="Named after Sam Baldock."/>
    <tag k="highway" v="motorway"/>
    <tag k="layer" v="1"/>
    <tag k="name" v="Interstate 5"/>
    <tag k="name_1" v="Pacific Highway"/>
    <tag k="oneway" v="yes"/>
    <tag k="ref" v="I 5"/>
    <tag k="source:name" v="ODOT"/>
    <tag k="tiger:cfcc" v="A15"/>
    <tag k="tiger:county" v="Lane, OR"/>
    <tag k="tiger:name_base" v="I-5"/>
    <tag k="tiger:name_base_1" v="Pacific"/>
    <tag k="tiger:name_type_1" v="Hwy"/>
    <tag k="tiger:separated" v="yes"/>
    <tag k="tiger:source" v="tiger_import_dch_v0.6_20070808"/>
    <tag k="tiger:tlid" v="178145613:178145614:178211492:178145737"/>
  </way>
  <way id="34872385" version="10" timestamp="2011-07-31T13:38:41Z" uid="207745" user="NE2" changeset="8880952">
    <nd ref="408867100"/>
    <nd ref="408875047"/>
    <tag k="alt_name" v="Pacific Highway #1"/>
    <tag k="bicycle" v="yes"/>
    <tag k="bridge" v="yes"/>
    <tag k="comment" v="Named after Sam Baldock."/>
    <tag k="highway" v="motorway"/>
    <tag k="layer" v="1"/>
    <tag k="name" v="Pacific Highway"/>
    <tag k="oneway" v="yes"/>
    <tag k="ref" v="I 5"/>
    <tag k="source:name" v="ODOT"/>
    <tag k="tiger:cfcc" v="A15"/>
    <tag k="tiger:county" v="Lane, OR"/>
    <tag k="tiger:name_base" v="I-5"/>
    <tag k="tiger:name_base_1" v="Pacific"/>
    <tag k="tiger:name_type_1" v="Hwy"/>
    <tag k="tiger:separated" v="yes"/>
    <tag k="tiger:source" v="tiger_import_dch_v0.6_20070808"/>
    <tag k="tiger:tlid" v="178145613:178145614:178211492:178145737"/>
  </way>
  <way id="34872385" version="11" timestamp="2011-08-02T22:19:54Z" uid="207745" user="NE2" changeset="8905725">
    <nd ref="408867100"/>
    <nd ref="408875047"/>
    <tag k="alt_name" v="Pacific Highway #1"/>
    <tag k="bicycle" v="yes"/>
    <tag k="bridge" v="yes"/>
    <tag k="comment" v="Named after Sam Baldock."/>
    <tag k="highway" v="motorway"/>
    <tag k="lanes" v="2"/>
    <tag k="layer" v="1"/>
    <tag k="name" v="Pacific Highway"/>
    <tag k="oneway" v="yes"/>
    <tag k="ref" v="I 5"/>
    <tag k="source:name" v="ODOT"/>
    <tag k="tiger:cfcc" v="A15"/>
    <tag k="tiger:county" v="Lane, OR"/>
    <tag k="tiger:name_base" v="I-5"/>
    <tag k="tiger:name_base_1" v="Pacific"/>
    <tag k="tiger:name_type_1" v="Hwy"/>
    <tag k="tiger:separated" v="yes"/>
    <tag k="tiger:source" v="tiger_import_dch_v0.6_20070808"/>
    <tag k="tiger:tlid" v="178145613:178145614:178211492:178145737"/>
  </way>
  <way id="34872385" version="12" timestamp="2011-11-25T17:18:23Z" uid="207745" user="NE2" changeset="9945867">
    <nd ref="408867100"/>
    <nd ref="408875047"/>
    <tag k="alt_name" v="Pacific Highway #1"/>
    <tag k="bicycle" v="yes"/>
    <tag k="bridge" v="yes"/>
    <tag k="comment" v="Named after Sam Baldock."/>
    <tag k="hgv" v="designated"/>
    <tag k="highway" v="motorway"/>
    <tag k="lanes" v="2"/>
    <tag k="layer" v="1"/>
    <tag k="name" v="Pacific Highway"/>
    <tag k="oneway" v="yes"/>
    <tag k="ref" v="I 5"/>
    <tag k="source:name" v="ODOT"/>
    <tag k="tiger:cfcc" v="A15"/>
    <tag k="tiger:county" v="Lane, OR"/>
    <tag k="tiger:name_base" v="I-5"/>
    <tag k="tiger:name_base_1" v="Pacific"/>
    <tag k="tiger:name_type_1" v="Hwy"/>
    <tag k="tiger:separated" v="yes"/>
    <tag k="tiger:source" v="tiger_import_dch_v0.6_20070808"/>
    <tag k="tiger:tlid" v="178145613:178145614:178211492:178145737"/>
  </way>
  <way id="34872391" version="10" timestamp="2010-03-22T06:29:51Z" uid="20587" user="balrog-kun" changeset="4199043">
    <nd ref="408875208"/>
    <nd ref="408875210"/>
    <nd ref="408888700"/>
    <nd ref="408890422"/>
    <nd ref="408890424"/>
    <nd ref="408890425"/>
    <nd ref="408890426"/>
    <nd ref="408890427"/>
    <nd ref="408890429"/>
    <nd ref="408892576"/>
    <nd ref="408892577"/>
    <tag k="comment" v="Named after Sam Baldock."/>
    <tag k="highway" v="motorway"/>
    <tag k="name" v="Baldock Freeway"/>
    <tag k="name_1" v="Pacific Highway"/>
    <tag k="oneway" v="yes"/>
    <tag k="ref" v="I 5"/>
    <tag k="source:name" v="ODOT"/>
    <tag k="tiger:cfcc" v="A15"/>
    <tag k="tiger:county" v="Lane, OR"/>
    <tag k="tiger:name_base" v="I-5"/>
    <tag k="tiger:name_base_1" v="Pacific"/>
    <tag k="tiger:name_type_1" v="Hwy"/>
    <tag k="tiger:separated" v="yes"/>
    <tag k="tiger:source" v="tiger_import_dch_v0.6_20070808"/>
    <tag k="tiger:tlid" v="178145613:178145614:178211492:178145737"/>
  </way>
  <way id="34872391" version="11" timestamp="2011-01-31T05:44:13Z" uid="373763" user="ylekot" changeset="7142189">
    <nd ref="408875208"/>
    <nd ref="408875210"/>
    <nd ref="408888700"/>
    <nd ref="408890422"/>
    <nd ref="408890424"/>
    <nd ref="408890425"/>
    <nd ref="408890426"/>
    <nd ref="408890427"/>
    <nd ref="408890429"/>
    <nd ref="408892576"/>
    <nd ref="408892577"/>
    <tag k="alt_name" v="Pacific Highway #1"/>
    <tag k="comment" v="Named after Sam Baldock."/>
    <tag k="highway" v="motorway"/>
    <tag k="name" v="Interstate 5"/>
    <tag k="name_1" v="Pacific Highway"/>
    <tag k="oneway" v="yes"/>
    <tag k="ref" v="I 5"/>
    <tag k="source:name" v="ODOT"/>
    <tag k="tiger:cfcc" v="A15"/>
    <tag k="tiger:county" v="Lane, OR"/>
    <tag k="tiger:name_base" v="I-5"/>
    <tag k="tiger:name_base_1" v="Pacific"/>
    <tag k="tiger:name_type_1" v="Hwy"/>
    <tag k="tiger:separated" v="yes"/>
    <tag k="tiger:source" v="tiger_import_dch_v0.6_20070808"/>
    <tag k="tiger:tlid" v="178145613:178145614:178211492:178145737"/>
  </way>
  <way id="34872391" version="12" timestamp="2011-03-26T01:23:54Z" uid="92286" user="Paul Johnson" changeset="7670923">
    <nd ref="408875208"/>
    <nd ref="408875210"/>
    <nd ref="408888700"/>
    <nd ref="408890422"/>
    <nd ref="408890424"/>
    <nd ref="408890425"/>
    <nd ref="408890426"/>
    <nd ref="408890427"/>
    <nd ref="408890429"/>
    <nd ref="408892576"/>
    <nd ref="408892577"/>
    <tag k="alt_name" v="Pacific Highway #1"/>
    <tag k="bicycle" v="yes"/>
    <tag k="comment" v="Named after Sam Baldock."/>
    <tag k="highway" v="motorway"/>
    <tag k="name" v="Interstate 5"/>
    <tag k="name_1" v="Pacific Highway"/>
    <tag k="oneway" v="yes"/>
    <tag k="ref" v="I 5"/>
    <tag k="source:name" v="ODOT"/>
    <tag k="tiger:cfcc" v="A15"/>
    <tag k="tiger:county" v="Lane, OR"/>
    <tag k="tiger:name_base" v="I-5"/>
    <tag k="tiger:name_base_1" v="Pacific"/>
    <tag k="tiger:name_type_1" v="Hwy"/>
    <tag k="tiger:separated" v="yes"/>
    <tag k="tiger:source" v="tiger_import_dch_v0.6_20070808"/>
    <tag k="tiger:tlid" v="178145613:178145614:178211492:178145737"/>
  </way>
  <way id="34872391" version="13" timestamp="2011-07-31T13:38:30Z" uid="207745" user="NE2" changeset="8880952">
    <nd ref="408875208"/>
    <nd ref="408875210"/>
    <nd ref="408888700"/>
    <nd ref="408890422"/>
    <nd ref="408890424"/>
    <nd ref="408890425"/>
    <nd ref="408890426"/>
    <nd ref="408890427"/>
    <nd ref="408890429"/>
    <nd ref="408892576"/>
    <nd ref="408892577"/>
    <tag k="alt_name" v="Pacific Highway #1"/>
    <tag k="bicycle" v="yes"/>
    <tag k="comment" v="Named after Sam Baldock."/>
    <tag k="highway" v="motorway"/>
    <tag k="name" v="Pacific Highway"/>
    <tag k="oneway" v="yes"/>
    <tag k="ref" v="I 5"/>
    <tag k="source:name" v="ODOT"/>
    <tag k="tiger:cfcc" v="A15"/>
    <tag k="tiger:county" v="Lane, OR"/>
    <tag k="tiger:name_base" v="I-5"/>
    <tag k="tiger:name_base_1" v="Pacific"/>
    <tag k="tiger:name_type_1" v="Hwy"/>
    <tag k="tiger:separated" v="yes"/>
    <tag k="tiger:source" v="tiger_import_dch_v0.6_20070808"/>
    <tag k="tiger:tlid" v="178145613:178145614:178211492:178145737"/>
  </way>
  <way id="34872391" version="14" timestamp="2011-08-02T22:19:23Z" uid="207745" user="NE2" changeset="8905725">
    <nd ref="408875208"/>
    <nd ref="408875210"/>
    <nd ref="408888700"/>
    <nd ref="408890422"/>
    <nd ref="408890424"/>
    <nd ref="408890425"/>
    <nd ref="408890426"/>
    <nd ref="408890427"/>
    <nd ref="408890429"/>
    <nd ref="408892576"/>
    <nd ref="408892577"/>
    <tag k="alt_name" v="Pacific Highway #1"/>
    <tag k="bicycle" v="yes"/>
    <tag k="comment" v="Named after Sam Baldock."/>
    <tag k="highway" v="motorway"/>
    <tag k="lanes" v="2"/>
    <tag k="name" v="Pacific Highway"/>
    <tag k="oneway" v="yes"/>
    <tag k="ref" v="I 5"/>
    <tag k="source:name" v="ODOT"/>
    <tag k="tiger:cfcc" v="A15"/>
    <tag k="tiger:county" v="Lane, OR"/>
    <tag k="tiger:name_base" v="I-5"/>
    <tag k="tiger:name_base_1" v="Pacific"/>
    <tag k="tiger:name_type_1" v="Hwy"/>
    <tag k="tiger:separated" v="yes"/>
    <tag k="tiger:source" v="tiger_import_dch_v0.6_20070808"/>
    <tag k="tiger:tlid" v="178145613:178145614:178211492:178145737"/>
  </way>
  <way id="34872391" version="15" timestamp="2011-11-25T17:16:00Z" uid="207745" user="NE2" changeset="9945867">
    <nd ref="408875208"/>
    <nd ref="408875210"/>
    <nd ref="408888700"/>
    <nd ref="408890422"/>
    <nd ref="408890424"/>
    <nd ref="408890425"/>
    <nd ref="408890426"/>
    <nd ref="408890427"/>
    <nd ref="408890429"/>
    <nd ref="408892576"/>
    <nd ref="408892577"/>
    <tag k="alt_name" v="Pacific Highway #1"/>
    <tag k="bicycle" v="yes"/>
    <tag k="comment" v="Named after Sam Baldock."/>
    <tag k="hgv" v="designated"/>
    <tag k="highway" v="motorway"/>
    <tag k="lanes" v="2"/>
    <tag k="name" v="Pacific Highway"/>
    <tag k="oneway" v="yes"/>
    <tag k="ref" v="I 5"/>
    <tag k="source:name" v="ODOT"/>
    <tag k="tiger:cfcc" v="A15"/>
    <tag k="tiger:county" v="Lane, OR"/>
    <tag k="tiger:name_base" v="I-5"/>
    <tag k="tiger:name_base_1" v="Pacific"/>
    <tag k="tiger:name_type_1" v="Hwy"/>
    <tag k="tiger:separated" v="yes"/>
    <tag k="tiger:source" v="tiger_import_dch_v0.6_20070808"/>
    <tag k="tiger:tlid" v="178145613:178145614:178211492:178145737"/>
  </way>
  <way id="34872392" version="6" timestamp="2010-03-22T06:29:51Z" uid="20587" user="balrog-kun" changeset="4199043">
    <nd ref="408875065"/>
    <nd ref="408875208"/>
    <tag k="alt_name" v="Spores Bridge"/>
    <tag k="bridge" v="yes"/>
    <tag k="comment" v="Named after Sam Baldock."/>
    <tag k="highway" v="motorway"/>
    <tag k="layer" v="1"/>
    <tag k="name" v="Baldock Freeway"/>
    <tag k="name_1" v="Pacific Highway"/>
    <tag k="oneway" v="yes"/>
    <tag k="ref" v="I 5"/>
    <tag k="source:name" v="ODOT"/>
    <tag k="tiger:cfcc" v="A15"/>
    <tag k="tiger:county" v="Lane, OR"/>
    <tag k="tiger:name_base" v="I-5"/>
    <tag k="tiger:name_base_1" v="Pacific"/>
    <tag k="tiger:name_type_1" v="Hwy"/>
    <tag k="tiger:separated" v="yes"/>
    <tag k="tiger:source" v="tiger_import_dch_v0.6_20070808"/>
    <tag k="tiger:tlid" v="178145613:178145614:178211492:178145737"/>
  </way>
  <way id="34872392" version="7" timestamp="2010-03-29T18:15:22Z" uid="92286" user="Paul Johnson" changeset="4269960">
    <nd ref="408875065"/>
    <nd ref="408875208"/>
    <tag k="alt_name" v="Spores Bridge"/>
    <tag k="bridge" v="yes"/>
    <tag k="comment" v="Named after Sam Baldock."/>
    <tag k="highway" v="motorway"/>
    <tag k="name" v="Baldock Freeway"/>
    <tag k="name_1" v="Pacific Highway"/>
    <tag k="oneway" v="yes"/>
    <tag k="ref" v="I 5"/>
    <tag k="source:name" v="ODOT"/>
    <tag k="tiger:cfcc" v="A15"/>
    <tag k="tiger:county" v="Lane, OR"/>
    <tag k="tiger:name_base" v="I-5"/>
    <tag k="tiger:name_base_1" v="Pacific"/>
    <tag k="tiger:name_type_1" v="Hwy"/>
    <tag k="tiger:separated" v="yes"/>
    <tag k="tiger:source" v="tiger_import_dch_v0.6_20070808"/>
    <tag k="tiger:tlid" v="178145613:178145614:178211492:178145737"/>
  </way>
  <way id="34872392" version="8" timestamp="2011-01-31T05:44:12Z" uid="373763" user="ylekot" changeset="7142189">
    <nd ref="408875065"/>
    <nd ref="408875208"/>
    <tag k="alt_name" v="Pacific Highway #1"/>
    <tag k="bridge" v="yes"/>
    <tag k="comment" v="Named after Sam Baldock."/>
    <tag k="highway" v="motorway"/>
    <tag k="name" v="Interstate 5"/>
    <tag k="name_1" v="Pacific Highway"/>
    <tag k="oneway" v="yes"/>
    <tag k="ref" v="I 5"/>
    <tag k="source:name" v="ODOT"/>
    <tag k="tiger:cfcc" v="A15"/>
    <tag k="tiger:county" v="Lane, OR"/>
    <tag k="tiger:name_base" v="I-5"/>
    <tag k="tiger:name_base_1" v="Pacific"/>
    <tag k="tiger:name_type_1" v="Hwy"/>
    <tag k="tiger:separated" v="yes"/>
    <tag k="tiger:source" v="tiger_import_dch_v0.6_20070808"/>
    <tag k="tiger:tlid" v="178145613:178145614:178211492:178145737"/>
  </way>
  <way id="34872392" version="9" timestamp="2011-03-26T01:22:59Z" uid="92286" user="Paul Johnson" changeset="7670923">
    <nd ref="408875065"/>
    <nd ref="408875208"/>
    <tag k="alt_name" v="Pacific Highway #1"/>
    <tag k="bicycle" v="yes"/>
    <tag k="bridge" v="yes"/>
    <tag k="comment" v="Named after Sam Baldock."/>
    <tag k="highway" v="motorway"/>
    <tag k="name" v="Interstate 5"/>
    <tag k="name_1" v="Pacific Highway"/>
    <tag k="oneway" v="yes"/>
    <tag k="ref" v="I 5"/>
    <tag k="source:name" v="ODOT"/>
    <tag k="tiger:cfcc" v="A15"/>
    <tag k="tiger:county" v="Lane, OR"/>
    <tag k="tiger:name_base" v="I-5"/>
    <tag k="tiger:name_base_1" v="Pacific"/>
    <tag k="tiger:name_type_1" v="Hwy"/>
    <tag k="tiger:separated" v="yes"/>
    <tag k="tiger:source" v="tiger_import_dch_v0.6_20070808"/>
    <tag k="tiger:tlid" v="178145613:178145614:178211492:178145737"/>
  </way>
  <way id="34872392" version="10" timestamp="2011-07-31T13:39:03Z" uid="207745" user="NE2" changeset="8880952">
    <nd ref="408875065"/>
    <nd ref="408875208"/>
    <tag k="alt_name" v="Pacific Highway #1"/>
    <tag k="bicycle" v="yes"/>
    <tag k="bridge" v="yes"/>
    <tag k="comment" v="Named after Sam Baldock."/>
    <tag k="highway" v="motorway"/>
    <tag k="name" v="Pacific Highway"/>
    <tag k="oneway" v="yes"/>
    <tag k="ref" v="I 5"/>
    <tag k="source:name" v="ODOT"/>
    <tag k="tiger:cfcc" v="A15"/>
    <tag k="tiger:county" v="Lane, OR"/>
    <tag k="tiger:name_base" v="I-5"/>
    <tag k="tiger:name_base_1" v="Pacific"/>
    <tag k="tiger:name_type_1" v="Hwy"/>
    <tag k="tiger:separated" v="yes"/>
    <tag k="tiger:source" v="tiger_import_dch_v0.6_20070808"/>
    <tag k="tiger:tlid" v="178145613:178145614:178211492:178145737"/>
  </way>
  <way id="34872392" version="11" timestamp="2011-08-02T22:19:58Z" uid="207745" user="NE2" changeset="8905725">
    <nd ref="408875065"/>
    <nd ref="408875208"/>
    <tag k="alt_name" v="Pacific Highway #1"/>
    <tag k="bicycle" v="yes"/>
    <tag k="bridge" v="yes"/>
    <tag k="comment" v="Named after Sam Baldock."/>
    <tag k="highway" v="motorway"/>
    <tag k="lanes" v="2"/>
    <tag k="name" v="Pacific Highway"/>
    <tag k="oneway" v="yes"/>
    <tag k="ref" v="I 5"/>
    <tag k="source:name" v="ODOT"/>
    <tag k="tiger:cfcc" v="A15"/>
    <tag k="tiger:county" v="Lane, OR"/>
    <tag k="tiger:name_base" v="I-5"/>
    <tag k="tiger:name_base_1" v="Pacific"/>
    <tag k="tiger:name_type_1" v="Hwy"/>
    <tag k="tiger:separated" v="yes"/>
    <tag k="tiger:source" v="tiger_import_dch_v0.6_20070808"/>
    <tag k="tiger:tlid" v="178145613:178145614:178211492:178145737"/>
  </way>
  <way id="34872392" version="12" timestamp="2011-11-25T17:17:00Z" uid="207745" user="NE2" changeset="9945867">
    <nd ref="408875065"/>
    <nd ref="408875208"/>
    <tag k="alt_name" v="Pacific Highway #1"/>
    <tag k="bicycle" v="yes"/>
    <tag k="bridge" v="yes"/>
    <tag k="comment" v="Named after Sam Baldock."/>
    <tag k="hgv" v="designated"/>
    <tag k="highway" v="motorway"/>
    <tag k="lanes" v="2"/>
    <tag k="name" v="Pacific Highway"/>
    <tag k="oneway" v="yes"/>
    <tag k="ref" v="I 5"/>
    <tag k="source:name" v="ODOT"/>
    <tag k="tiger:cfcc" v="A15"/>
    <tag k="tiger:county" v="Lane, OR"/>
    <tag k="tiger:name_base" v="I-5"/>
    <tag k="tiger:name_base_1" v="Pacific"/>
    <tag k="tiger:name_type_1" v="Hwy"/>
    <tag k="tiger:separated" v="yes"/>
    <tag k="tiger:source" v="tiger_import_dch_v0.6_20070808"/>
    <tag k="tiger:tlid" v="178145613:178145614:178211492:178145737"/>
  </way>
  <way id="34872479" version="4" timestamp="2009-10-01T16:30:36Z" uid="86259" user="hasse_osm_korinthenkacker" changeset="2702067">
    <nd ref="408879261"/>
    <nd ref="408879259"/>
    <nd ref="408879255"/>
    <nd ref="281808784"/>
    <tag k="highway" v="residential"/>
    <tag k="name" v="Freihauswinkl"/>
  </way>
  <way id="34872480" version="4" timestamp="2009-10-20T00:54:26Z" uid="36809" user="pfoten_weg_!_" changeset="2899059">
    <nd ref="281808785"/>
    <nd ref="430926038"/>
    <nd ref="430926037"/>
    <nd ref="430926036"/>
    <nd ref="408879267"/>
    <nd ref="430926034"/>
    <nd ref="430926032"/>
    <nd ref="430926031"/>
    <nd ref="408879270"/>
    <nd ref="430926030"/>
    <nd ref="408879273"/>
    <tag k="highway" v="residential"/>
    <tag k="maxspeed" v="30"/>
    <tag k="name" v="Ludwig-Thoma-Straße"/>
  </way>
  <way id="34872481" version="3" timestamp="2009-10-20T00:55:21Z" uid="36809" user="pfoten_weg_!_" changeset="2899059">
    <nd ref="408879267"/>
    <nd ref="430926026"/>
    <nd ref="430926027"/>
    <nd ref="408879276"/>
    <nd ref="430926028"/>
    <nd ref="430926029"/>
    <nd ref="408879279"/>
    <tag k="highway" v="residential"/>
    <tag k="name" v="Johann-Steinberger-Weg"/>
  </way>
  <way id="34872655" version="4" timestamp="2009-10-20T00:56:41Z" uid="36809" user="pfoten_weg_!_" changeset="2899059">
    <nd ref="408870968"/>
    <nd ref="430926056"/>
    <nd ref="430501224"/>
    <nd ref="430501250"/>
    <nd ref="408870970"/>
    <nd ref="430925922"/>
    <nd ref="430925924"/>
    <nd ref="408886574"/>
    <nd ref="430925921"/>
    <nd ref="408886570"/>
    <nd ref="408886566"/>
    <nd ref="408886567"/>
    <tag k="highway" v="residential"/>
    <tag k="name" v="Zilcherstraße"/>
  </way>
  <way id="34872655" version="5" timestamp="2011-04-24T00:45:21Z" uid="418282" user="Norbert18" changeset="7948688">
    <nd ref="408870968"/>
    <nd ref="430501250"/>
    <nd ref="408870970"/>
    <nd ref="408886574"/>
    <nd ref="408886570"/>
    <nd ref="408886567"/>
    <tag k="highway" v="residential"/>
    <tag k="name" v="Zilcherstraße"/>
  </way>
  <way id="34872656" version="3" timestamp="2009-10-20T00:56:40Z" uid="36809" user="pfoten_weg_!_" changeset="2899059">
    <nd ref="408886570"/>
    <nd ref="408886571"/>
    <nd ref="408886573"/>
    <nd ref="408886574"/>
    <nd ref="430925921"/>
    <nd ref="408886570"/>
    <tag k="amenity" v="parking"/>
  </way>
  <way id="34872656" version="4" timestamp="2011-04-24T00:45:12Z" uid="418282" user="Norbert18" changeset="7948688">
    <nd ref="408886570"/>
    <nd ref="408886571"/>
    <nd ref="408886573"/>
    <nd ref="408886574"/>
    <nd ref="408886570"/>
    <tag k="amenity" v="parking"/>
  </way>
  <way id="34872771" version="4" timestamp="2009-10-20T00:54:27Z" uid="36809" user="pfoten_weg_!_" changeset="2899059">
    <nd ref="393903065"/>
    <nd ref="430501378"/>
    <nd ref="430501380"/>
    <nd ref="408891435"/>
    <nd ref="408891436"/>
    <nd ref="408891437"/>
    <nd ref="408891439"/>
    <nd ref="408891440"/>
    <nd ref="408891441"/>
    <nd ref="408891442"/>
    <nd ref="408891443"/>
    <nd ref="408891444"/>
    <nd ref="408891445"/>
    <nd ref="408891446"/>
    <nd ref="408891447"/>
    <nd ref="408891448"/>
    <nd ref="408891449"/>
    <nd ref="408891450"/>
    <nd ref="408891451"/>
    <nd ref="408891452"/>
    <nd ref="408891455"/>
    <nd ref="408891456"/>
    <nd ref="408891457"/>
    <nd ref="408891458"/>
    <nd ref="408891460"/>
    <nd ref="408891461"/>
    <nd ref="408891463"/>
    <nd ref="408891464"/>
    <nd ref="408891465"/>
    <nd ref="408891466"/>
    <nd ref="408891467"/>
    <nd ref="408891468"/>
    <nd ref="408891470"/>
    <nd ref="408891471"/>
    <nd ref="408891472"/>
    <nd ref="408891473"/>
    <nd ref="408891474"/>
    <nd ref="408891475"/>
    <nd ref="408891439"/>
    <tag k="highway" v="residential"/>
    <tag k="name" v="Im Quercherfeld"/>
  </way>
  <way id="34872771" version="5" timestamp="2012-01-22T12:44:36Z" uid="290723" user="sulagaloh" changeset="10464266">
    <nd ref="393903065"/>
    <nd ref="430501378"/>
    <nd ref="430501380"/>
    <nd ref="408891435"/>
    <nd ref="408891436"/>
    <nd ref="408891437"/>
    <nd ref="408891439"/>
    <tag k="highway" v="residential"/>
    <tag k="name" v="Im Quercherfeld"/>
  </way>
  <way id="34872772" version="3" timestamp="2009-10-20T00:54:28Z" uid="36809" user="pfoten_weg_!_" changeset="2899059">
    <nd ref="408891451"/>
    <nd ref="430925889"/>
    <nd ref="430925890"/>
    <nd ref="430925891"/>
    <nd ref="430925892"/>
    <nd ref="408891478"/>
    <nd ref="430925893"/>
    <nd ref="430925895"/>
    <nd ref="430925896"/>
    <nd ref="408891479"/>
    <nd ref="430925898"/>
    <nd ref="430925899"/>
    <nd ref="430925901"/>
    <nd ref="408891480"/>
    <nd ref="430925902"/>
    <nd ref="430925903"/>
    <nd ref="282233471"/>
    <tag k="highway" v="residential"/>
    <tag k="name" v="Semmelbergstraße"/>
  </way>
  <way id="34872772" version="4" timestamp="2011-04-24T00:45:17Z" uid="418282" user="Norbert18" changeset="7948688">
    <nd ref="408891451"/>
    <nd ref="430925892"/>
    <nd ref="408891478"/>
    <nd ref="408891479"/>
    <nd ref="408891480"/>
    <nd ref="282233471"/>
    <tag k="highway" v="residential"/>
    <tag k="name" v="Semmelbergstraße"/>
  </way>
  <way id="34872773" version="4" timestamp="2009-10-20T00:56:36Z" uid="36809" user="pfoten_weg_!_" changeset="2899059">
    <nd ref="393903062"/>
    <nd ref="430501232"/>
    <nd ref="408891482"/>
    <nd ref="430501231"/>
    <nd ref="408891483"/>
    <tag k="highway" v="residential"/>
    <tag k="name" v="Auer Straße"/>
  </way>
  <way id="34872773" version="5" timestamp="2011-04-24T00:45:51Z" uid="418282" user="Norbert18" changeset="7948688">
    <nd ref="393903062"/>
    <nd ref="408891482"/>
    <nd ref="430501231"/>
    <tag k="highway" v="residential"/>
    <tag k="name" v="Auer Straße"/>
  </way>
  <way id="34872787" version="1" timestamp="2009-05-21T11:34:06Z" uid="20587" user="balrog-kun" changeset="1274999">
    <nd ref="408892115"/>
    <nd ref="408892116"/>
    <tag k="highway" v="residential"/>
    <tag k="name" v="Zalew"/>
  </way>
  <way id="34872788" version="1" timestamp="2009-05-21T11:34:06Z" uid="20587" user="balrog-kun" changeset="1274999">
    <nd ref="408892121"/>
    <nd ref="408892123"/>
    <nd ref="408892125"/>
    <nd ref="408892127"/>
    <nd ref="408892128"/>
    <nd ref="408892130"/>
    <nd ref="408892132"/>
    <nd ref="408892133"/>
    <nd ref="408892135"/>
    <nd ref="322654605"/>
    <tag k="highway" v="living_street"/>
    <tag k="name" v="Batalionu Oaza"/>
  </way>
  <way id="34872789" version="1" timestamp="2009-05-21T11:34:06Z" uid="20587" user="balrog-kun" changeset="1274999">
    <nd ref="408892149"/>
    <nd ref="408892156"/>
    <nd ref="408892145"/>
    <nd ref="408892157"/>
    <nd ref="408892150"/>
    <nd ref="408892158"/>
    <nd ref="408892140"/>
    <nd ref="408892161"/>
    <nd ref="408892148"/>
    <nd ref="408892165"/>
    <nd ref="408892136"/>
    <nd ref="408892163"/>
    <nd ref="408892169"/>
    <nd ref="408892172"/>
    <nd ref="408892152"/>
    <nd ref="408892139"/>
    <nd ref="408892153"/>
    <nd ref="408892149"/>
    <tag k="addr:housenumber" v="16"/>
    <tag k="addr:street" v="Góraszewska"/>
    <tag k="building" v="church"/>
    <tag k="name" v="Kościół świętego Tadeusza Apostoła"/>
    <tag k="source:addr" v="msi"/>
  </way>
  <way id="34872789" version="2" timestamp="2011-12-09T14:54:54Z" uid="441027" user="muzzy" changeset="10073605">
    <nd ref="408892149"/>
    <nd ref="408892156"/>
    <nd ref="408892145"/>
    <nd ref="408892157"/>
    <nd ref="408892150"/>
    <nd ref="408892158"/>
    <nd ref="408892140"/>
    <nd ref="408892161"/>
    <nd ref="408892148"/>
    <nd ref="408892165"/>
    <nd ref="408892136"/>
    <nd ref="408892163"/>
    <nd ref="408892169"/>
    <nd ref="408892172"/>
    <nd ref="408892152"/>
    <nd ref="408892139"/>
    <nd ref="408892153"/>
    <nd ref="408892149"/>
    <tag k="addr:housenumber" v="16"/>
    <tag k="addr:street" v="Goraszewska"/>
    <tag k="building" v="church"/>
    <tag k="name" v="Kościół świętego Tadeusza Apostoła"/>
    <tag k="source:addr" v="msi"/>
  </way>
  <way id="34872790" version="1" timestamp="2009-05-21T11:34:07Z" uid="20587" user="balrog-kun" changeset="1274999">
    <nd ref="408892174"/>
    <nd ref="408892177"/>
    <nd ref="408892178"/>
    <tag k="highway" v="living_street"/>
    <tag k="name" v="Juraty"/>
  </way>
  <way id="34872791" version="1" timestamp="2009-05-21T11:34:07Z" uid="20587" user="balrog-kun" changeset="1274999">
    <nd ref="408892184"/>
    <nd ref="408892186"/>
    <tag k="highway" v="living_street"/>
  </way>
  <way id="34872792" version="1" timestamp="2009-05-21T11:34:07Z" uid="20587" user="balrog-kun" changeset="1274999">
    <nd ref="408892187"/>
    <nd ref="408892192"/>
    <nd ref="408892194"/>
    <nd ref="408892196"/>
    <nd ref="408892198"/>
    <nd ref="408892200"/>
    <nd ref="408892202"/>
    <nd ref="408892205"/>
    <nd ref="408892187"/>
    <tag k="leisure" v="sports_centre"/>
    <tag k="sport" v="tennis"/>
  </way>
  <way id="34872793" version="1" timestamp="2009-05-21T11:34:07Z" uid="20587" user="balrog-kun" changeset="1274999">
    <nd ref="32676786"/>
    <nd ref="288738453"/>
    <nd ref="288738463"/>
    <nd ref="340564926"/>
    <nd ref="340565150"/>
    <nd ref="288738462"/>
    <nd ref="288738461"/>
    <nd ref="288738460"/>
    <nd ref="288738459"/>
    <nd ref="322653331"/>
    <nd ref="288738458"/>
    <nd ref="288738457"/>
    <nd ref="288738456"/>
    <nd ref="288738454"/>
    <nd ref="322653347"/>
    <nd ref="340565207"/>
    <nd ref="262769684"/>
    <nd ref="340565210"/>
    <nd ref="262770532"/>
    <nd ref="262770533"/>
    <nd ref="262770534"/>
    <nd ref="322655169"/>
    <nd ref="280377564"/>
    <tag k="created_by" v="Potlatch 0.10b"/>
    <tag k="highway" v="residential"/>
    <tag k="name" v="Królowej Marysieńki"/>
  </way>
  <way id="34872795" version="1" timestamp="2009-05-21T11:34:08Z" uid="20587" user="balrog-kun" changeset="1274999">
    <nd ref="408892228"/>
    <nd ref="408892229"/>
    <nd ref="408892230"/>
    <nd ref="408892232"/>
    <nd ref="408892233"/>
    <nd ref="408892234"/>
    <nd ref="408892228"/>
    <tag k="landuse" v="construction"/>
  </way>
  <way id="34872795" version="2" timestamp="2010-06-21T01:58:05Z" uid="20587" user="balrog-kun" changeset="5038879">
    <nd ref="408892228"/>
    <nd ref="408892229"/>
    <nd ref="408892230"/>
    <nd ref="408892232"/>
    <nd ref="408892233"/>
    <nd ref="778785624"/>
    <nd ref="778785444"/>
    <nd ref="408892234"/>
    <nd ref="778785901"/>
    <nd ref="408892228"/>
    <tag k="landuse" v="construction"/>
  </way>
  <way id="34872796" version="1" timestamp="2009-05-21T11:34:08Z" uid="20587" user="balrog-kun" changeset="1274999">
    <nd ref="408892244"/>
    <nd ref="408892245"/>
    <tag k="highway" v="living_street"/>
    <tag k="name" v="Królewicza Aleksandra"/>
  </way>
  <way id="34872845" version="5" timestamp="2010-03-22T06:29:51Z" uid="20587" user="balrog-kun" changeset="4199043">
    <nd ref="408893787"/>
    <nd ref="408893814"/>
    <tag k="bridge" v="yes"/>
    <tag k="comment" v="Named after Sam Baldock."/>
    <tag k="highway" v="motorway"/>
    <tag k="layer" v="1"/>
    <tag k="name" v="Baldock Freeway"/>
    <tag k="name_1" v="Pacific Highway"/>
    <tag k="oneway" v="yes"/>
    <tag k="ref" v="I 5"/>
    <tag k="source:name" v="ODOT"/>
    <tag k="tiger:cfcc" v="A15"/>
    <tag k="tiger:county" v="Lane, OR"/>
    <tag k="tiger:name_base" v="I-5"/>
    <tag k="tiger:name_base_1" v="Pacific"/>
    <tag k="tiger:name_type_1" v="Hwy"/>
    <tag k="tiger:separated" v="yes"/>
    <tag k="tiger:source" v="tiger_import_dch_v0.6_20070808"/>
    <tag k="tiger:tlid" v="178145613:178145614:178211492:178145737"/>
  </way>
  <way id="34872845" version="6" timestamp="2011-02-01T05:15:58Z" uid="373763" user="ylekot" changeset="7151640">
    <nd ref="408893787"/>
    <nd ref="408893814"/>
    <tag k="alt_name" v="Pacific Highway #1"/>
    <tag k="bridge" v="yes"/>
    <tag k="comment" v="Named after Sam Baldock."/>
    <tag k="highway" v="motorway"/>
    <tag k="layer" v="1"/>
    <tag k="name" v="Interstate 5"/>
    <tag k="name_1" v="Pacific Highway"/>
    <tag k="oneway" v="yes"/>
    <tag k="ref" v="I 5"/>
    <tag k="source:name" v="ODOT"/>
    <tag k="tiger:cfcc" v="A15"/>
    <tag k="tiger:county" v="Lane, OR"/>
    <tag k="tiger:name_base" v="I-5"/>
    <tag k="tiger:name_base_1" v="Pacific"/>
    <tag k="tiger:name_type_1" v="Hwy"/>
    <tag k="tiger:separated" v="yes"/>
    <tag k="tiger:source" v="tiger_import_dch_v0.6_20070808"/>
    <tag k="tiger:tlid" v="178145613:178145614:178211492:178145737"/>
  </way>
  <way id="34872845" version="7" timestamp="2011-03-26T01:29:14Z" uid="92286" user="Paul Johnson" changeset="7670923">
    <nd ref="408893787"/>
    <nd ref="408893814"/>
    <tag k="alt_name" v="Pacific Highway #1"/>
    <tag k="bicycle" v="yes"/>
    <tag k="bridge" v="yes"/>
    <tag k="comment" v="Named after Sam Baldock."/>
    <tag k="highway" v="motorway"/>
    <tag k="layer" v="1"/>
    <tag k="name" v="Interstate 5"/>
    <tag k="name_1" v="Pacific Highway"/>
    <tag k="oneway" v="yes"/>
    <tag k="ref" v="I 5"/>
    <tag k="source:name" v="ODOT"/>
    <tag k="tiger:cfcc" v="A15"/>
    <tag k="tiger:county" v="Lane, OR"/>
    <tag k="tiger:name_base" v="I-5"/>
    <tag k="tiger:name_base_1" v="Pacific"/>
    <tag k="tiger:name_type_1" v="Hwy"/>
    <tag k="tiger:separated" v="yes"/>
    <tag k="tiger:source" v="tiger_import_dch_v0.6_20070808"/>
    <tag k="tiger:tlid" v="178145613:178145614:178211492:178145737"/>
  </way>
  <way id="34872845" version="8" timestamp="2011-07-31T13:39:07Z" uid="207745" user="NE2" changeset="8880952">
    <nd ref="408893787"/>
    <nd ref="408893814"/>
    <tag k="alt_name" v="Pacific Highway #1"/>
    <tag k="bicycle" v="yes"/>
    <tag k="bridge" v="yes"/>
    <tag k="comment" v="Named after Sam Baldock."/>
    <tag k="highway" v="motorway"/>
    <tag k="layer" v="1"/>
    <tag k="name" v="Pacific Highway"/>
    <tag k="oneway" v="yes"/>
    <tag k="ref" v="I 5"/>
    <tag k="source:name" v="ODOT"/>
    <tag k="tiger:cfcc" v="A15"/>
    <tag k="tiger:county" v="Lane, OR"/>
    <tag k="tiger:name_base" v="I-5"/>
    <tag k="tiger:name_base_1" v="Pacific"/>
    <tag k="tiger:name_type_1" v="Hwy"/>
    <tag k="tiger:separated" v="yes"/>
    <tag k="tiger:source" v="tiger_import_dch_v0.6_20070808"/>
    <tag k="tiger:tlid" v="178145613:178145614:178211492:178145737"/>
  </way>
  <way id="34872845" version="9" timestamp="2011-08-02T22:20:09Z" uid="207745" user="NE2" changeset="8905725">
    <nd ref="408893787"/>
    <nd ref="408893814"/>
    <tag k="alt_name" v="Pacific Highway #1"/>
    <tag k="bicycle" v="yes"/>
    <tag k="bridge" v="yes"/>
    <tag k="comment" v="Named after Sam Baldock."/>
    <tag k="highway" v="motorway"/>
    <tag k="lanes" v="2"/>
    <tag k="layer" v="1"/>
    <tag k="name" v="Pacific Highway"/>
    <tag k="oneway" v="yes"/>
    <tag k="ref" v="I 5"/>
    <tag k="source:name" v="ODOT"/>
    <tag k="tiger:cfcc" v="A15"/>
    <tag k="tiger:county" v="Lane, OR"/>
    <tag k="tiger:name_base" v="I-5"/>
    <tag k="tiger:name_base_1" v="Pacific"/>
    <tag k="tiger:name_type_1" v="Hwy"/>
    <tag k="tiger:separated" v="yes"/>
    <tag k="tiger:source" v="tiger_import_dch_v0.6_20070808"/>
    <tag k="tiger:tlid" v="178145613:178145614:178211492:178145737"/>
  </way>
  <way id="34872845" version="10" timestamp="2011-11-25T17:17:54Z" uid="207745" user="NE2" changeset="9945867">
    <nd ref="408893787"/>
    <nd ref="408893814"/>
    <tag k="alt_name" v="Pacific Highway #1"/>
    <tag k="bicycle" v="yes"/>
    <tag k="bridge" v="yes"/>
    <tag k="comment" v="Named after Sam Baldock."/>
    <tag k="hgv" v="designated"/>
    <tag k="highway" v="motorway"/>
    <tag k="lanes" v="2"/>
    <tag k="layer" v="1"/>
    <tag k="name" v="Pacific Highway"/>
    <tag k="oneway" v="yes"/>
    <tag k="ref" v="I 5"/>
    <tag k="source:name" v="ODOT"/>
    <tag k="tiger:cfcc" v="A15"/>
    <tag k="tiger:county" v="Lane, OR"/>
    <tag k="tiger:name_base" v="I-5"/>
    <tag k="tiger:name_base_1" v="Pacific"/>
    <tag k="tiger:name_type_1" v="Hwy"/>
    <tag k="tiger:separated" v="yes"/>
    <tag k="tiger:source" v="tiger_import_dch_v0.6_20070808"/>
    <tag k="tiger:tlid" v="178145613:178145614:178211492:178145737"/>
  </way>
  <way id="34872847" version="7" timestamp="2010-03-22T06:29:52Z" uid="20587" user="balrog-kun" changeset="4199043">
    <nd ref="408893814"/>
    <nd ref="408893820"/>
    <nd ref="408896459"/>
    <nd ref="408896463"/>
    <nd ref="408896466"/>
    <nd ref="408902764"/>
    <nd ref="408902766"/>
    <nd ref="408902768"/>
    <nd ref="408902769"/>
    <nd ref="408902771"/>
    <tag k="comment" v="Named after Sam Baldock."/>
    <tag k="highway" v="motorway"/>
    <tag k="name" v="Baldock Freeway"/>
    <tag k="name_1" v="Pacific Highway"/>
    <tag k="oneway" v="yes"/>
    <tag k="ref" v="I 5"/>
    <tag k="source:name" v="ODOT"/>
    <tag k="tiger:cfcc" v="A15"/>
    <tag k="tiger:county" v="Lane, OR"/>
    <tag k="tiger:name_base" v="I-5"/>
    <tag k="tiger:name_base_1" v="Pacific"/>
    <tag k="tiger:name_type_1" v="Hwy"/>
    <tag k="tiger:separated" v="yes"/>
    <tag k="tiger:source" v="tiger_import_dch_v0.6_20070808"/>
    <tag k="tiger:tlid" v="178145613:178145614:178211492:178145737"/>
  </way>
  <way id="34872847" version="8" timestamp="2011-01-05T19:23:50Z" uid="129255" user="Binary Alchemy" changeset="6875286">
    <nd ref="408893814"/>
    <nd ref="408893820"/>
    <nd ref="408896459"/>
    <nd ref="1084009723"/>
    <nd ref="408896463"/>
    <nd ref="408896466"/>
    <nd ref="408902764"/>
    <nd ref="408902766"/>
    <nd ref="408902768"/>
    <nd ref="408902769"/>
    <nd ref="408902771"/>
    <tag k="comment" v="Named after Sam Baldock."/>
    <tag k="highway" v="motorway"/>
    <tag k="name" v="Baldock Freeway"/>
    <tag k="name_1" v="Pacific Highway"/>
    <tag k="oneway" v="yes"/>
    <tag k="ref" v="I 5"/>
    <tag k="source:name" v="ODOT"/>
    <tag k="tiger:cfcc" v="A15"/>
    <tag k="tiger:county" v="Lane, OR"/>
    <tag k="tiger:name_base" v="I-5"/>
    <tag k="tiger:name_base_1" v="Pacific"/>
    <tag k="tiger:name_type_1" v="Hwy"/>
    <tag k="tiger:separated" v="yes"/>
    <tag k="tiger:source" v="tiger_import_dch_v0.6_20070808"/>
    <tag k="tiger:tlid" v="178145613:178145614:178211492:178145737"/>
  </way>
  <way id="34872847" version="9" timestamp="2011-02-01T05:15:59Z" uid="373763" user="ylekot" changeset="7151640">
    <nd ref="408893814"/>
    <nd ref="408893820"/>
    <nd ref="408896459"/>
    <nd ref="1084009723"/>
    <nd ref="408896463"/>
    <nd ref="408896466"/>
    <nd ref="408902764"/>
    <nd ref="408902766"/>
    <nd ref="408902768"/>
    <nd ref="408902769"/>
    <nd ref="408902771"/>
    <tag k="alt_name" v="Pacific Highway #1"/>
    <tag k="comment" v="Named after Sam Baldock."/>
    <tag k="highway" v="motorway"/>
    <tag k="name" v="Interstate 5"/>
    <tag k="name_1" v="Pacific Highway"/>
    <tag k="oneway" v="yes"/>
    <tag k="ref" v="I 5"/>
    <tag k="source:name" v="ODOT"/>
    <tag k="tiger:cfcc" v="A15"/>
    <tag k="tiger:county" v="Lane, OR"/>
    <tag k="tiger:name_base" v="I-5"/>
    <tag k="tiger:name_base_1" v="Pacific"/>
    <tag k="tiger:name_type_1" v="Hwy"/>
    <tag k="tiger:separated" v="yes"/>
    <tag k="tiger:source" v="tiger_import_dch_v0.6_20070808"/>
    <tag k="tiger:tlid" v="178145613:178145614:178211492:178145737"/>
  </way>
  <way id="34872847" version="10" timestamp="2011-03-26T01:22:28Z" uid="92286" user="Paul Johnson" changeset="7670923">
    <nd ref="408893814"/>
    <nd ref="408893820"/>
    <nd ref="408896459"/>
    <nd ref="1084009723"/>
    <nd ref="408896463"/>
    <nd ref="408896466"/>
    <nd ref="408902764"/>
    <nd ref="408902766"/>
    <nd ref="408902768"/>
    <nd ref="408902769"/>
    <nd ref="408902771"/>
    <tag k="alt_name" v="Pacific Highway #1"/>
    <tag k="bicycle" v="yes"/>
    <tag k="comment" v="Named after Sam Baldock."/>
    <tag k="highway" v="motorway"/>
    <tag k="name" v="Interstate 5"/>
    <tag k="name_1" v="Pacific Highway"/>
    <tag k="oneway" v="yes"/>
    <tag k="ref" v="I 5"/>
    <tag k="source:name" v="ODOT"/>
    <tag k="tiger:cfcc" v="A15"/>
    <tag k="tiger:county" v="Lane, OR"/>
    <tag k="tiger:name_base" v="I-5"/>
    <tag k="tiger:name_base_1" v="Pacific"/>
    <tag k="tiger:name_type_1" v="Hwy"/>
    <tag k="tiger:separated" v="yes"/>
    <tag k="tiger:source" v="tiger_import_dch_v0.6_20070808"/>
    <tag k="tiger:tlid" v="178145613:178145614:178211492:178145737"/>
  </way>
  <way id="34872847" version="11" timestamp="2011-07-31T13:38:28Z" uid="207745" user="NE2" changeset="8880952">
    <nd ref="408893814"/>
    <nd ref="408893820"/>
    <nd ref="408896459"/>
    <nd ref="1084009723"/>
    <nd ref="408896463"/>
    <nd ref="408896466"/>
    <nd ref="408902764"/>
    <nd ref="408902766"/>
    <nd ref="408902768"/>
    <nd ref="408902769"/>
    <nd ref="408902771"/>
    <tag k="alt_name" v="Pacific Highway #1"/>
    <tag k="bicycle" v="yes"/>
    <tag k="comment" v="Named after Sam Baldock."/>
    <tag k="highway" v="motorway"/>
    <tag k="name" v="Pacific Highway"/>
    <tag k="oneway" v="yes"/>
    <tag k="ref" v="I 5"/>
    <tag k="source:name" v="ODOT"/>
    <tag k="tiger:cfcc" v="A15"/>
    <tag k="tiger:county" v="Lane, OR"/>
    <tag k="tiger:name_base" v="I-5"/>
    <tag k="tiger:name_base_1" v="Pacific"/>
    <tag k="tiger:name_type_1" v="Hwy"/>
    <tag k="tiger:separated" v="yes"/>
    <tag k="tiger:source" v="tiger_import_dch_v0.6_20070808"/>
    <tag k="tiger:tlid" v="178145613:178145614:178211492:178145737"/>
  </way>
  <way id="34872847" version="12" timestamp="2011-08-02T22:19:23Z" uid="207745" user="NE2" changeset="8905725">
    <nd ref="408893814"/>
    <nd ref="408893820"/>
    <nd ref="408896459"/>
    <nd ref="1084009723"/>
    <nd ref="408896463"/>
    <nd ref="408896466"/>
    <nd ref="408902764"/>
    <nd ref="408902766"/>
    <nd ref="408902768"/>
    <nd ref="408902769"/>
    <nd ref="408902771"/>
    <tag k="alt_name" v="Pacific Highway #1"/>
    <tag k="bicycle" v="yes"/>
    <tag k="comment" v="Named after Sam Baldock."/>
    <tag k="highway" v="motorway"/>
    <tag k="lanes" v="2"/>
    <tag k="name" v="Pacific Highway"/>
    <tag k="oneway" v="yes"/>
    <tag k="ref" v="I 5"/>
    <tag k="source:name" v="ODOT"/>
    <tag k="tiger:cfcc" v="A15"/>
    <tag k="tiger:county" v="Lane, OR"/>
    <tag k="tiger:name_base" v="I-5"/>
    <tag k="tiger:name_base_1" v="Pacific"/>
    <tag k="tiger:name_type_1" v="Hwy"/>
    <tag k="tiger:separated" v="yes"/>
    <tag k="tiger:source" v="tiger_import_dch_v0.6_20070808"/>
    <tag k="tiger:tlid" v="178145613:178145614:178211492:178145737"/>
  </way>
  <way id="34872847" version="13" timestamp="2011-11-25T17:15:58Z" uid="207745" user="NE2" changeset="9945867">
    <nd ref="408893814"/>
    <nd ref="408893820"/>
    <nd ref="408896459"/>
    <nd ref="1084009723"/>
    <nd ref="408896463"/>
    <nd ref="408896466"/>
    <nd ref="408902764"/>
    <nd ref="408902766"/>
    <nd ref="408902768"/>
    <nd ref="408902769"/>
    <nd ref="408902771"/>
    <tag k="alt_name" v="Pacific Highway #1"/>
    <tag k="bicycle" v="yes"/>
    <tag k="comment" v="Named after Sam Baldock."/>
    <tag k="hgv" v="designated"/>
    <tag k="highway" v="motorway"/>
    <tag k="lanes" v="2"/>
    <tag k="name" v="Pacific Highway"/>
    <tag k="oneway" v="yes"/>
    <tag k="ref" v="I 5"/>
    <tag k="source:name" v="ODOT"/>
    <tag k="tiger:cfcc" v="A15"/>
    <tag k="tiger:county" v="Lane, OR"/>
    <tag k="tiger:name_base" v="I-5"/>
    <tag k="tiger:name_base_1" v="Pacific"/>
    <tag k="tiger:name_type_1" v="Hwy"/>
    <tag k="tiger:separated" v="yes"/>
    <tag k="tiger:source" v="tiger_import_dch_v0.6_20070808"/>
    <tag k="tiger:tlid" v="178145613:178145614:178211492:178145737"/>
  </way>
  <way id="34872867" version="2" timestamp="2010-06-29T20:49:02Z" uid="74617" user="JohnSmith" changeset="5109183">
    <nd ref="408894500"/>
    <nd ref="408894503"/>
    <nd ref="408894505"/>
    <nd ref="408894506"/>
    <nd ref="408894508"/>
    <nd ref="408894510"/>
    <nd ref="408894511"/>
    <nd ref="408894513"/>
    <nd ref="408894514"/>
    <nd ref="408894500"/>
    <tag k="area" v="yes"/>
    <tag k="fixme" v="sport=rugby is ambiguous, see http://wiki.osm.org/wiki/Tag:sport%3Drugby for more details"/>
    <tag k="leisure" v="pitch"/>
    <tag k="sport" v="rugby"/>
  </way>
  <way id="34872881" version="1" timestamp="2009-05-21T11:37:49Z" uid="99207" user="Lar Kiesel" changeset="1274673">
    <nd ref="408865960"/>
    <nd ref="408865962"/>
    <tag k="bridge" v="yes"/>
    <tag k="highway" v="motorway"/>
    <tag k="layer" v="1"/>
    <tag k="name" v="I-95"/>
    <tag k="oneway" v="yes"/>
    <tag k="ref" v="I 95"/>
    <tag k="tiger:cfcc" v="A11"/>
    <tag k="tiger:county" v="Clarendon, SC"/>
    <tag k="tiger:name_base" v="I-95"/>
    <tag k="tiger:reviewed" v="no"/>
    <tag k="tiger:separated" v="no"/>
    <tag k="tiger:source" v="tiger_import_dch_v0.6_20070829"/>
    <tag k="tiger:tlid" v="71429592:71429570:71433208:71438801:71438802:71429653:71432475:71429361; 71429956:71429954:71429955:71429957:71430106:71429417:71429180"/>
    <tag k="tiger:upload_uuid" v="bulk_upload.pl-6ae77073-d2b8-4c03-9064-4544bdf53c0b"/>
  </way>
  <way id="34872881" version="2" timestamp="2009-06-25T22:58:56Z" uid="99207" user="Lar Kiesel" changeset="1627028">
    <nd ref="408865960"/>
    <nd ref="408865962"/>
    <tag k="bridge" v="yes"/>
    <tag k="highway" v="motorway"/>
    <tag k="layer" v="1"/>
    <tag k="name" v="Interstate Highway 95"/>
    <tag k="oneway" v="yes"/>
    <tag k="ref" v="I 95"/>
    <tag k="tiger:cfcc" v="A11"/>
    <tag k="tiger:county" v="Clarendon, SC"/>
    <tag k="tiger:name_base" v="I-95"/>
    <tag k="tiger:reviewed" v="no"/>
    <tag k="tiger:separated" v="no"/>
    <tag k="tiger:source" v="tiger_import_dch_v0.6_20070829"/>
    <tag k="tiger:tlid" v="71429592:71429570:71433208:71438801:71438802:71429653:71432475:71429361; 71429956:71429954:71429955:71429957:71430106:71429417:71429180"/>
    <tag k="tiger:upload_uuid" v="bulk_upload.pl-6ae77073-d2b8-4c03-9064-4544bdf53c0b"/>
  </way>
  <way id="34872881" version="3" timestamp="2010-01-28T21:24:14Z" uid="207745" user="NE2" changeset="3739126">
    <nd ref="408865960"/>
    <nd ref="408865962"/>
    <tag k="bridge" v="yes"/>
    <tag k="highway" v="motorway"/>
    <tag k="layer" v="1"/>
    <tag k="oneway" v="yes"/>
    <tag k="ref" v="I 95"/>
    <tag k="tiger:cfcc" v="A11"/>
    <tag k="tiger:county" v="Clarendon, SC"/>
    <tag k="tiger:name_base" v="I-95"/>
    <tag k="tiger:reviewed" v="no"/>
    <tag k="tiger:separated" v="no"/>
    <tag k="tiger:source" v="tiger_import_dch_v0.6_20070829"/>
    <tag k="tiger:tlid" v="71429592:71429570:71433208:71438801:71438802:71429653:71432475:71429361; 71429956:71429954:71429955:71429957:71430106:71429417:71429180"/>
    <tag k="tiger:upload_uuid" v="bulk_upload.pl-6ae77073-d2b8-4c03-9064-4544bdf53c0b"/>
  </way>
  <way id="34872881" version="4" timestamp="2011-07-10T08:29:38Z" uid="473471" user="NE3" changeset="8680912">
    <nd ref="408865960"/>
    <nd ref="408865962"/>
    <tag k="bridge" v="yes"/>
    <tag k="highway" v="motorway"/>
    <tag k="lanes" v="2"/>
    <tag k="layer" v="1"/>
    <tag k="oneway" v="yes"/>
    <tag k="ref" v="I 95"/>
    <tag k="tiger:cfcc" v="A11"/>
    <tag k="tiger:county" v="Clarendon, SC"/>
    <tag k="tiger:name_base" v="I-95"/>
    <tag k="tiger:reviewed" v="no"/>
    <tag k="tiger:separated" v="no"/>
    <tag k="tiger:source" v="tiger_import_dch_v0.6_20070829"/>
    <tag k="tiger:tlid" v="71429592:71429570:71433208:71438801:71438802:71429653:71432475:71429361; 71429956:71429954:71429955:71429957:71430106:71429417:71429180"/>
    <tag k="tiger:upload_uuid" v="bulk_upload.pl-6ae77073-d2b8-4c03-9064-4544bdf53c0b"/>
  </way>
  <way id="34872881" version="5" timestamp="2011-11-24T21:56:32Z" uid="207745" user="NE2" changeset="9937881">
    <nd ref="408865960"/>
    <nd ref="408865962"/>
    <tag k="bicycle" v="no"/>
    <tag k="bridge" v="yes"/>
    <tag k="foot" v="no"/>
    <tag k="hgv" v="designated"/>
    <tag k="highway" v="motorway"/>
    <tag k="horse" v="no"/>
    <tag k="lanes" v="2"/>
    <tag k="layer" v="1"/>
    <tag k="oneway" v="yes"/>
    <tag k="ref" v="I 95"/>
    <tag k="sidewalk" v="none"/>
    <tag k="tiger:cfcc" v="A11"/>
    <tag k="tiger:county" v="Clarendon, SC"/>
    <tag k="tiger:name_base" v="I-95"/>
    <tag k="tiger:reviewed" v="no"/>
    <tag k="tiger:separated" v="no"/>
    <tag k="tiger:source" v="tiger_import_dch_v0.6_20070829"/>
    <tag k="tiger:tlid" v="71429592:71429570:71433208:71438801:71438802:71429653:71432475:71429361; 71429956:71429954:71429955:71429957:71430106:71429417:71429180"/>
    <tag k="tiger:upload_uuid" v="bulk_upload.pl-6ae77073-d2b8-4c03-9064-4544bdf53c0b"/>
  </way>
  <way id="34872882" version="1" timestamp="2009-05-21T11:37:51Z" uid="99207" user="Lar Kiesel" changeset="1274673">
    <nd ref="408865962"/>
    <nd ref="408865964"/>
    <nd ref="408865965"/>
    <nd ref="408865967"/>
    <nd ref="408865968"/>
    <nd ref="408865970"/>
    <nd ref="408865972"/>
    <nd ref="408895442"/>
    <nd ref="408895445"/>
    <nd ref="408895449"/>
    <nd ref="408895454"/>
    <nd ref="408895459"/>
    <nd ref="408895463"/>
    <nd ref="408895467"/>
    <nd ref="408895470"/>
    <nd ref="408895473"/>
    <nd ref="408895477"/>
    <nd ref="408895479"/>
    <nd ref="408895483"/>
    <nd ref="408895485"/>
    <nd ref="408895489"/>
    <nd ref="408895491"/>
    <nd ref="408895493"/>
    <nd ref="408895496"/>
    <nd ref="408895499"/>
    <nd ref="408895501"/>
    <nd ref="408895505"/>
    <nd ref="408895507"/>
    <nd ref="408895511"/>
    <nd ref="408895513"/>
    <nd ref="408895521"/>
    <nd ref="408895523"/>
    <nd ref="408895527"/>
    <nd ref="408895529"/>
    <nd ref="408895530"/>
    <nd ref="408895315"/>
    <nd ref="408895532"/>
    <nd ref="408895533"/>
    <nd ref="408895535"/>
    <nd ref="408895536"/>
    <nd ref="408895538"/>
    <nd ref="408895540"/>
    <nd ref="408895544"/>
    <nd ref="408895372"/>
    <nd ref="408895546"/>
    <nd ref="408895549"/>
    <tag k="highway" v="motorway"/>
    <tag k="name" v="I-95"/>
    <tag k="oneway" v="yes"/>
    <tag k="ref" v="I 95"/>
    <tag k="tiger:cfcc" v="A11"/>
    <tag k="tiger:county" v="Clarendon, SC"/>
    <tag k="tiger:name_base" v="I-95"/>
    <tag k="tiger:reviewed" v="no"/>
    <tag k="tiger:separated" v="no"/>
    <tag k="tiger:source" v="tiger_import_dch_v0.6_20070829"/>
    <tag k="tiger:tlid" v="71429592:71429570:71433208:71438801:71438802:71429653:71432475:71429361; 71429956:71429954:71429955:71429957:71430106:71429417:71429180"/>
    <tag k="tiger:upload_uuid" v="bulk_upload.pl-6ae77073-d2b8-4c03-9064-4544bdf53c0b"/>
  </way>
  <way id="34872882" version="2" timestamp="2009-05-21T12:03:19Z" uid="99207" user="Lar Kiesel" changeset="1274673">
    <nd ref="408865962"/>
    <nd ref="408865964"/>
    <nd ref="408865965"/>
    <nd ref="408865967"/>
    <nd ref="408865968"/>
    <nd ref="408865970"/>
    <nd ref="408865972"/>
    <nd ref="408895442"/>
    <nd ref="408895445"/>
    <nd ref="408895449"/>
    <nd ref="408895454"/>
    <nd ref="408895459"/>
    <nd ref="408895463"/>
    <nd ref="408895467"/>
    <nd ref="408895470"/>
    <nd ref="408895473"/>
    <nd ref="408895477"/>
    <nd ref="408895479"/>
    <nd ref="408895483"/>
    <nd ref="408895485"/>
    <nd ref="408895489"/>
    <nd ref="408895491"/>
    <nd ref="408895493"/>
    <nd ref="408895496"/>
    <nd ref="408895499"/>
    <nd ref="408895501"/>
    <nd ref="408895505"/>
    <nd ref="408895507"/>
    <nd ref="408895511"/>
    <nd ref="408895513"/>
    <nd ref="408895521"/>
    <nd ref="408895523"/>
    <nd ref="408895527"/>
    <nd ref="408895529"/>
    <nd ref="408895530"/>
    <nd ref="408895315"/>
    <nd ref="408895532"/>
    <nd ref="408895533"/>
    <nd ref="408895535"/>
    <nd ref="408895536"/>
    <nd ref="408895538"/>
    <nd ref="408895540"/>
    <nd ref="408895544"/>
    <nd ref="408895372"/>
    <nd ref="408895546"/>
    <nd ref="408895549"/>
    <nd ref="408922762"/>
    <nd ref="408922769"/>
    <nd ref="408922775"/>
    <nd ref="408922781"/>
    <nd ref="408922788"/>
    <nd ref="408922796"/>
    <nd ref="408922802"/>
    <nd ref="408922807"/>
    <nd ref="408922812"/>
    <nd ref="408922815"/>
    <nd ref="408922820"/>
    <nd ref="408922823"/>
    <nd ref="408922825"/>
    <nd ref="408922836"/>
    <nd ref="408922840"/>
    <nd ref="408922844"/>
    <nd ref="408922848"/>
    <nd ref="408922852"/>
    <nd ref="408922856"/>
    <nd ref="408922859"/>
    <nd ref="408922863"/>
    <nd ref="408922867"/>
    <nd ref="408922871"/>
    <nd ref="408922878"/>
    <nd ref="408922883"/>
    <nd ref="408922887"/>
    <nd ref="408922890"/>
    <nd ref="408922893"/>
    <nd ref="408922897"/>
    <nd ref="408922900"/>
    <nd ref="408922902"/>
    <nd ref="408922904"/>
    <nd ref="408922907"/>
    <nd ref="408922909"/>
    <nd ref="408922912"/>
    <tag k="highway" v="motorway"/>
    <tag k="name" v="I-95"/>
    <tag k="oneway" v="yes"/>
    <tag k="ref" v="I 95"/>
    <tag k="tiger:cfcc" v="A11"/>
    <tag k="tiger:county" v="Clarendon, SC"/>
    <tag k="tiger:name_base" v="I-95"/>
    <tag k="tiger:reviewed" v="no"/>
    <tag k="tiger:separated" v="no"/>
    <tag k="tiger:source" v="tiger_import_dch_v0.6_20070829"/>
    <tag k="tiger:tlid" v="71429592:71429570:71433208:71438801:71438802:71429653:71432475:71429361; 71429956:71429954:71429955:71429957:71430106:71429417:71429180"/>
    <tag k="tiger:upload_uuid" v="bulk_upload.pl-6ae77073-d2b8-4c03-9064-4544bdf53c0b"/>
  </way>
  <way id="34872882" version="3" timestamp="2009-06-25T22:58:52Z" uid="99207" user="Lar Kiesel" changeset="1627028">
    <nd ref="408865962"/>
    <nd ref="408865964"/>
    <nd ref="408865965"/>
    <nd ref="408865967"/>
    <nd ref="408865968"/>
    <nd ref="408865970"/>
    <nd ref="408865972"/>
    <nd ref="408895442"/>
    <nd ref="408895445"/>
    <nd ref="408895449"/>
    <nd ref="408895454"/>
    <nd ref="408895459"/>
    <nd ref="408895463"/>
    <nd ref="408895467"/>
    <nd ref="408895470"/>
    <nd ref="408895473"/>
    <nd ref="408895477"/>
    <nd ref="408895479"/>
    <nd ref="408895483"/>
    <nd ref="408895485"/>
    <nd ref="408895489"/>
    <nd ref="408895491"/>
    <nd ref="408895493"/>
    <nd ref="408895496"/>
    <nd ref="408895499"/>
    <nd ref="408895501"/>
    <nd ref="408895505"/>
    <nd ref="408895507"/>
    <nd ref="408895511"/>
    <nd ref="408895513"/>
    <nd ref="408895521"/>
    <nd ref="408895523"/>
    <nd ref="408895527"/>
    <nd ref="408895529"/>
    <nd ref="408895530"/>
    <nd ref="408895315"/>
    <nd ref="408895532"/>
    <nd ref="408895533"/>
    <nd ref="408895535"/>
    <nd ref="408895536"/>
    <nd ref="408895538"/>
    <nd ref="408895540"/>
    <nd ref="408895544"/>
    <nd ref="408895372"/>
    <nd ref="408895546"/>
    <nd ref="408895549"/>
    <nd ref="408922762"/>
    <nd ref="408922769"/>
    <nd ref="408922775"/>
    <nd ref="408922781"/>
    <nd ref="408922788"/>
    <nd ref="408922796"/>
    <nd ref="408922802"/>
    <nd ref="408922807"/>
    <nd ref="408922812"/>
    <nd ref="408922815"/>
    <nd ref="408922820"/>
    <nd ref="408922823"/>
    <nd ref="408922825"/>
    <nd ref="408922836"/>
    <nd ref="408922840"/>
    <nd ref="408922844"/>
    <nd ref="408922848"/>
    <nd ref="408922852"/>
    <nd ref="408922856"/>
    <nd ref="408922859"/>
    <nd ref="408922863"/>
    <nd ref="408922867"/>
    <nd ref="408922871"/>
    <nd ref="408922878"/>
    <nd ref="408922883"/>
    <nd ref="408922887"/>
    <nd ref="408922890"/>
    <nd ref="408922893"/>
    <nd ref="408922897"/>
    <nd ref="408922900"/>
    <nd ref="408922902"/>
    <nd ref="408922904"/>
    <nd ref="408922907"/>
    <nd ref="408922909"/>
    <nd ref="408922912"/>
    <tag k="highway" v="motorway"/>
    <tag k="name" v="Interstate Highway 95"/>
    <tag k="oneway" v="yes"/>
    <tag k="ref" v="I 95"/>
    <tag k="tiger:cfcc" v="A11"/>
    <tag k="tiger:county" v="Clarendon, SC"/>
    <tag k="tiger:name_base" v="I-95"/>
    <tag k="tiger:reviewed" v="no"/>
    <tag k="tiger:separated" v="no"/>
    <tag k="tiger:source" v="tiger_import_dch_v0.6_20070829"/>
    <tag k="tiger:tlid" v="71429592:71429570:71433208:71438801:71438802:71429653:71432475:71429361; 71429956:71429954:71429955:71429957:71430106:71429417:71429180"/>
    <tag k="tiger:upload_uuid" v="bulk_upload.pl-6ae77073-d2b8-4c03-9064-4544bdf53c0b"/>
  </way>
  <way id="34872882" version="4" timestamp="2009-09-07T21:24:00Z" uid="99207" user="Lar Kiesel" changeset="2408432">
    <nd ref="408865962"/>
    <nd ref="408865964"/>
    <nd ref="408865965"/>
    <nd ref="408865967"/>
    <nd ref="408865968"/>
    <nd ref="408865970"/>
    <nd ref="408865972"/>
    <nd ref="408895442"/>
    <nd ref="408895445"/>
    <nd ref="408895449"/>
    <nd ref="408895454"/>
    <nd ref="408895459"/>
    <nd ref="408895463"/>
    <nd ref="408895467"/>
    <nd ref="408895470"/>
    <nd ref="408895473"/>
    <nd ref="408895477"/>
    <nd ref="408895479"/>
    <nd ref="408895483"/>
    <nd ref="408895485"/>
    <nd ref="408895489"/>
    <nd ref="408895491"/>
    <nd ref="408895493"/>
    <nd ref="408895496"/>
    <nd ref="408895499"/>
    <nd ref="408895501"/>
    <nd ref="408895505"/>
    <nd ref="408895507"/>
    <nd ref="408895511"/>
    <nd ref="408895513"/>
    <nd ref="408895521"/>
    <nd ref="408895523"/>
    <nd ref="408895527"/>
    <nd ref="408895529"/>
    <nd ref="408895530"/>
    <nd ref="408895315"/>
    <nd ref="408895532"/>
    <nd ref="408895533"/>
    <nd ref="408895535"/>
    <nd ref="408895536"/>
    <nd ref="408895538"/>
    <nd ref="408895540"/>
    <nd ref="408895544"/>
    <nd ref="408895372"/>
    <nd ref="408895546"/>
    <nd ref="408895549"/>
    <nd ref="408922762"/>
    <nd ref="408922769"/>
    <nd ref="408922775"/>
    <nd ref="408922781"/>
    <nd ref="408922788"/>
    <nd ref="408922796"/>
    <nd ref="408922802"/>
    <nd ref="408922807"/>
    <nd ref="408922812"/>
    <nd ref="408922815"/>
    <nd ref="408922820"/>
    <nd ref="408922823"/>
    <nd ref="408922825"/>
    <nd ref="408922836"/>
    <nd ref="408922840"/>
    <nd ref="408922844"/>
    <nd ref="408922848"/>
    <nd ref="408922852"/>
    <nd ref="408922856"/>
    <nd ref="408922859"/>
    <nd ref="408922863"/>
    <nd ref="408922867"/>
    <nd ref="408922871"/>
    <nd ref="408922878"/>
    <nd ref="408922883"/>
    <nd ref="408922887"/>
    <nd ref="488635874"/>
    <tag k="highway" v="motorway"/>
    <tag k="name" v="Interstate Highway 95"/>
    <tag k="oneway" v="yes"/>
    <tag k="ref" v="I 95"/>
    <tag k="tiger:cfcc" v="A11"/>
    <tag k="tiger:county" v="Clarendon, SC"/>
    <tag k="tiger:name_base" v="I-95"/>
    <tag k="tiger:reviewed" v="no"/>
    <tag k="tiger:separated" v="no"/>
    <tag k="tiger:source" v="tiger_import_dch_v0.6_20070829"/>
    <tag k="tiger:tlid" v="71429592:71429570:71433208:71438801:71438802:71429653:71432475:71429361; 71429956:71429954:71429955:71429957:71430106:71429417:71429180"/>
    <tag k="tiger:upload_uuid" v="bulk_upload.pl-6ae77073-d2b8-4c03-9064-4544bdf53c0b"/>
  </way>
  <way id="34872882" version="5" timestamp="2009-09-07T23:01:26Z" uid="99207" user="Lar Kiesel" changeset="2409013">
    <nd ref="408865962"/>
    <nd ref="408865964"/>
    <nd ref="408865965"/>
    <nd ref="408865967"/>
    <nd ref="408865968"/>
    <nd ref="408865970"/>
    <nd ref="408865972"/>
    <nd ref="408895442"/>
    <nd ref="408895445"/>
    <nd ref="408895449"/>
    <nd ref="408895454"/>
    <nd ref="408895459"/>
    <nd ref="408895463"/>
    <nd ref="408895467"/>
    <nd ref="408895470"/>
    <nd ref="408895473"/>
    <nd ref="408895477"/>
    <nd ref="408895479"/>
    <nd ref="408895483"/>
    <nd ref="408895485"/>
    <nd ref="408895489"/>
    <nd ref="408895491"/>
    <nd ref="408895493"/>
    <nd ref="408895496"/>
    <nd ref="408895499"/>
    <nd ref="408895501"/>
    <nd ref="408895505"/>
    <nd ref="408895507"/>
    <nd ref="408895511"/>
    <tag k="highway" v="motorway"/>
    <tag k="name" v="Interstate Highway 95"/>
    <tag k="oneway" v="yes"/>
    <tag k="ref" v="I 95"/>
    <tag k="tiger:cfcc" v="A11"/>
    <tag k="tiger:county" v="Clarendon, SC"/>
    <tag k="tiger:name_base" v="I-95"/>
    <tag k="tiger:reviewed" v="no"/>
    <tag k="tiger:separated" v="no"/>
    <tag k="tiger:source" v="tiger_import_dch_v0.6_20070829"/>
    <tag k="tiger:tlid" v="71429592:71429570:71433208:71438801:71438802:71429653:71432475:71429361; 71429956:71429954:71429955:71429957:71430106:71429417:71429180"/>
    <tag k="tiger:upload_uuid" v="bulk_upload.pl-6ae77073-d2b8-4c03-9064-4544bdf53c0b"/>
  </way>
  <way id="34872882" version="6" timestamp="2010-01-28T21:24:13Z" uid="207745" user="NE2" changeset="3739126">
    <nd ref="408865962"/>
    <nd ref="408865964"/>
    <nd ref="408865965"/>
    <nd ref="408865967"/>
    <nd ref="408865968"/>
    <nd ref="408865970"/>
    <nd ref="408865972"/>
    <nd ref="408895442"/>
    <nd ref="408895445"/>
    <nd ref="408895449"/>
    <nd ref="408895454"/>
    <nd ref="408895459"/>
    <nd ref="408895463"/>
    <nd ref="408895467"/>
    <nd ref="408895470"/>
    <nd ref="408895473"/>
    <nd ref="408895477"/>
    <nd ref="408895479"/>
    <nd ref="408895483"/>
    <nd ref="408895485"/>
    <nd ref="408895489"/>
    <nd ref="408895491"/>
    <nd ref="408895493"/>
    <nd ref="408895496"/>
    <nd ref="408895499"/>
    <nd ref="408895501"/>
    <nd ref="408895505"/>
    <nd ref="408895507"/>
    <nd ref="408895511"/>
    <tag k="highway" v="motorway"/>
    <tag k="oneway" v="yes"/>
    <tag k="ref" v="I 95"/>
    <tag k="tiger:cfcc" v="A11"/>
    <tag k="tiger:county" v="Clarendon, SC"/>
    <tag k="tiger:name_base" v="I-95"/>
    <tag k="tiger:reviewed" v="no"/>
    <tag k="tiger:separated" v="no"/>
    <tag k="tiger:source" v="tiger_import_dch_v0.6_20070829"/>
    <tag k="tiger:tlid" v="71429592:71429570:71433208:71438801:71438802:71429653:71432475:71429361; 71429956:71429954:71429955:71429957:71430106:71429417:71429180"/>
    <tag k="tiger:upload_uuid" v="bulk_upload.pl-6ae77073-d2b8-4c03-9064-4544bdf53c0b"/>
  </way>
  <way id="34872882" version="7" timestamp="2011-07-10T08:31:13Z" uid="473471" user="NE3" changeset="8680912">
    <nd ref="408865962"/>
    <nd ref="408865964"/>
    <nd ref="408865965"/>
    <nd ref="408865967"/>
    <nd ref="408865968"/>
    <nd ref="408865970"/>
    <nd ref="408865972"/>
    <nd ref="408895442"/>
    <nd ref="408895445"/>
    <nd ref="408895449"/>
    <nd ref="408895454"/>
    <nd ref="408895459"/>
    <nd ref="408895463"/>
    <nd ref="408895467"/>
    <nd ref="408895470"/>
    <nd ref="408895473"/>
    <nd ref="408895477"/>
    <nd ref="408895479"/>
    <nd ref="408895483"/>
    <nd ref="408895485"/>
    <nd ref="408895489"/>
    <nd ref="408895491"/>
    <nd ref="408895493"/>
    <nd ref="408895496"/>
    <nd ref="408895499"/>
    <nd ref="408895501"/>
    <nd ref="408895505"/>
    <nd ref="408895507"/>
    <nd ref="408895511"/>
    <tag k="highway" v="motorway"/>
    <tag k="lanes" v="2"/>
    <tag k="oneway" v="yes"/>
    <tag k="ref" v="I 95"/>
    <tag k="tiger:cfcc" v="A11"/>
    <tag k="tiger:county" v="Clarendon, SC"/>
    <tag k="tiger:name_base" v="I-95"/>
    <tag k="tiger:reviewed" v="no"/>
    <tag k="tiger:separated" v="no"/>
    <tag k="tiger:source" v="tiger_import_dch_v0.6_20070829"/>
    <tag k="tiger:tlid" v="71429592:71429570:71433208:71438801:71438802:71429653:71432475:71429361; 71429956:71429954:71429955:71429957:71430106:71429417:71429180"/>
    <tag k="tiger:upload_uuid" v="bulk_upload.pl-6ae77073-d2b8-4c03-9064-4544bdf53c0b"/>
  </way>
  <way id="34872882" version="8" timestamp="2011-11-24T21:57:39Z" uid="207745" user="NE2" changeset="9937881">
    <nd ref="408865962"/>
    <nd ref="408865964"/>
    <nd ref="408865965"/>
    <nd ref="408865967"/>
    <nd ref="408865968"/>
    <nd ref="408865970"/>
    <nd ref="408865972"/>
    <nd ref="408895442"/>
    <nd ref="408895445"/>
    <nd ref="408895449"/>
    <nd ref="408895454"/>
    <nd ref="408895459"/>
    <nd ref="408895463"/>
    <nd ref="408895467"/>
    <nd ref="408895470"/>
    <nd ref="408895473"/>
    <nd ref="408895477"/>
    <nd ref="408895479"/>
    <nd ref="408895483"/>
    <nd ref="408895485"/>
    <nd ref="408895489"/>
    <nd ref="408895491"/>
    <nd ref="408895493"/>
    <nd ref="408895496"/>
    <nd ref="408895499"/>
    <nd ref="408895501"/>
    <nd ref="408895505"/>
    <nd ref="408895507"/>
    <nd ref="408895511"/>
    <tag k="bicycle" v="no"/>
    <tag k="foot" v="no"/>
    <tag k="hgv" v="designated"/>
    <tag k="highway" v="motorway"/>
    <tag k="horse" v="no"/>
    <tag k="lanes" v="2"/>
    <tag k="oneway" v="yes"/>
    <tag k="ref" v="I 95"/>
    <tag k="sidewalk" v="none"/>
    <tag k="tiger:cfcc" v="A11"/>
    <tag k="tiger:county" v="Clarendon, SC"/>
    <tag k="tiger:name_base" v="I-95"/>
    <tag k="tiger:reviewed" v="no"/>
    <tag k="tiger:separated" v="no"/>
    <tag k="tiger:source" v="tiger_import_dch_v0.6_20070829"/>
    <tag k="tiger:tlid" v="71429592:71429570:71433208:71438801:71438802:71429653:71432475:71429361; 71429956:71429954:71429955:71429957:71430106:71429417:71429180"/>
    <tag k="tiger:upload_uuid" v="bulk_upload.pl-6ae77073-d2b8-4c03-9064-4544bdf53c0b"/>
  </way>
  <way id="34872883" version="1" timestamp="2009-05-21T11:37:52Z" uid="99207" user="Lar Kiesel" changeset="1274673">
    <nd ref="111628836"/>
    <nd ref="111628877"/>
    <nd ref="111683403"/>
    <nd ref="111683406"/>
    <nd ref="111683409"/>
    <nd ref="408866014"/>
    <nd ref="111683412"/>
    <nd ref="408747946"/>
    <nd ref="111683419"/>
    <nd ref="408747949"/>
    <nd ref="111683422"/>
    <nd ref="408747952"/>
    <nd ref="408747953"/>
    <nd ref="111683425"/>
    <nd ref="408866023"/>
    <nd ref="111683429"/>
    <nd ref="111683432"/>
    <nd ref="408747963"/>
    <nd ref="111683437"/>
    <nd ref="111683438"/>
    <nd ref="111683439"/>
    <nd ref="111683442"/>
    <nd ref="111683445"/>
    <nd ref="111683449"/>
    <nd ref="111683451"/>
    <nd ref="408746239"/>
    <tag k="highway" v="motorway"/>
    <tag k="name" v="I-95"/>
    <tag k="oneway" v="yes"/>
    <tag k="ref" v="I 95"/>
    <tag k="tiger:cfcc" v="A11"/>
    <tag k="tiger:county" v="Clarendon, SC"/>
    <tag k="tiger:name_base" v="I-95"/>
    <tag k="tiger:reviewed" v="no"/>
    <tag k="tiger:separated" v="no"/>
    <tag k="tiger:source" v="tiger_import_dch_v0.6_20070829"/>
    <tag k="tiger:tlid" v="71429592:71429570:71433208:71438801:71438802:71429653:71432475:71429361; 71429956:71429954:71429955:71429957:71430106:71429417:71429180"/>
    <tag k="tiger:upload_uuid" v="bulk_upload.pl-6ae77073-d2b8-4c03-9064-4544bdf53c0b"/>
  </way>
  <way id="34872883" version="2" timestamp="2009-06-25T22:58:59Z" uid="99207" user="Lar Kiesel" changeset="1627028">
    <nd ref="111628836"/>
    <nd ref="111628877"/>
    <nd ref="111683403"/>
    <nd ref="111683406"/>
    <nd ref="111683409"/>
    <nd ref="408866014"/>
    <nd ref="111683412"/>
    <nd ref="408747946"/>
    <nd ref="111683419"/>
    <nd ref="408747949"/>
    <nd ref="111683422"/>
    <nd ref="408747952"/>
    <nd ref="408747953"/>
    <nd ref="111683425"/>
    <nd ref="408866023"/>
    <nd ref="111683429"/>
    <nd ref="111683432"/>
    <nd ref="408747963"/>
    <nd ref="111683437"/>
    <nd ref="111683438"/>
    <nd ref="111683439"/>
    <nd ref="111683442"/>
    <nd ref="111683445"/>
    <nd ref="111683449"/>
    <nd ref="111683451"/>
    <nd ref="408746239"/>
    <tag k="highway" v="motorway"/>
    <tag k="name" v="Interstate Highway 95"/>
    <tag k="oneway" v="yes"/>
    <tag k="ref" v="I 95"/>
    <tag k="tiger:cfcc" v="A11"/>
    <tag k="tiger:county" v="Clarendon, SC"/>
    <tag k="tiger:name_base" v="I-95"/>
    <tag k="tiger:reviewed" v="no"/>
    <tag k="tiger:separated" v="no"/>
    <tag k="tiger:source" v="tiger_import_dch_v0.6_20070829"/>
    <tag k="tiger:tlid" v="71429592:71429570:71433208:71438801:71438802:71429653:71432475:71429361; 71429956:71429954:71429955:71429957:71430106:71429417:71429180"/>
    <tag k="tiger:upload_uuid" v="bulk_upload.pl-6ae77073-d2b8-4c03-9064-4544bdf53c0b"/>
  </way>
  <way id="34872883" version="3" timestamp="2010-01-28T21:24:13Z" uid="207745" user="NE2" changeset="3739126">
    <nd ref="111628836"/>
    <nd ref="111628877"/>
    <nd ref="111683403"/>
    <nd ref="111683406"/>
    <nd ref="111683409"/>
    <nd ref="408866014"/>
    <nd ref="111683412"/>
    <nd ref="408747946"/>
    <nd ref="111683419"/>
    <nd ref="408747949"/>
    <nd ref="111683422"/>
    <nd ref="408747952"/>
    <nd ref="408747953"/>
    <nd ref="111683425"/>
    <nd ref="408866023"/>
    <nd ref="111683429"/>
    <nd ref="111683432"/>
    <nd ref="408747963"/>
    <nd ref="111683437"/>
    <nd ref="111683438"/>
    <nd ref="111683439"/>
    <nd ref="111683442"/>
    <nd ref="111683445"/>
    <nd ref="111683449"/>
    <nd ref="111683451"/>
    <nd ref="408746239"/>
    <tag k="highway" v="motorway"/>
    <tag k="oneway" v="yes"/>
    <tag k="ref" v="I 95"/>
    <tag k="tiger:cfcc" v="A11"/>
    <tag k="tiger:county" v="Clarendon, SC"/>
    <tag k="tiger:name_base" v="I-95"/>
    <tag k="tiger:reviewed" v="no"/>
    <tag k="tiger:separated" v="no"/>
    <tag k="tiger:source" v="tiger_import_dch_v0.6_20070829"/>
    <tag k="tiger:tlid" v="71429592:71429570:71433208:71438801:71438802:71429653:71432475:71429361; 71429956:71429954:71429955:71429957:71430106:71429417:71429180"/>
    <tag k="tiger:upload_uuid" v="bulk_upload.pl-6ae77073-d2b8-4c03-9064-4544bdf53c0b"/>
  </way>
  <way id="34872883" version="4" timestamp="2011-07-10T08:31:03Z" uid="473471" user="NE3" changeset="8680912">
    <nd ref="111628836"/>
    <nd ref="111628877"/>
    <nd ref="111683403"/>
    <nd ref="111683406"/>
    <nd ref="111683409"/>
    <nd ref="408866014"/>
    <nd ref="111683412"/>
    <nd ref="408747946"/>
    <nd ref="111683419"/>
    <nd ref="408747949"/>
    <nd ref="111683422"/>
    <nd ref="408747952"/>
    <nd ref="408747953"/>
    <nd ref="111683425"/>
    <nd ref="408866023"/>
    <nd ref="111683429"/>
    <nd ref="111683432"/>
    <nd ref="408747963"/>
    <nd ref="111683437"/>
    <nd ref="111683438"/>
    <nd ref="111683439"/>
    <nd ref="111683442"/>
    <nd ref="111683445"/>
    <nd ref="111683449"/>
    <nd ref="111683451"/>
    <nd ref="408746239"/>
    <tag k="highway" v="motorway"/>
    <tag k="lanes" v="2"/>
    <tag k="oneway" v="yes"/>
    <tag k="ref" v="I 95"/>
    <tag k="tiger:cfcc" v="A11"/>
    <tag k="tiger:county" v="Clarendon, SC"/>
    <tag k="tiger:name_base" v="I-95"/>
    <tag k="tiger:reviewed" v="no"/>
    <tag k="tiger:separated" v="no"/>
    <tag k="tiger:source" v="tiger_import_dch_v0.6_20070829"/>
    <tag k="tiger:tlid" v="71429592:71429570:71433208:71438801:71438802:71429653:71432475:71429361; 71429956:71429954:71429955:71429957:71430106:71429417:71429180"/>
    <tag k="tiger:upload_uuid" v="bulk_upload.pl-6ae77073-d2b8-4c03-9064-4544bdf53c0b"/>
  </way>
  <way id="34872883" version="5" timestamp="2011-11-24T21:57:31Z" uid="207745" user="NE2" changeset="9937881">
    <nd ref="111628836"/>
    <nd ref="111628877"/>
    <nd ref="111683403"/>
    <nd ref="111683406"/>
    <nd ref="111683409"/>
    <nd ref="408866014"/>
    <nd ref="111683412"/>
    <nd ref="408747946"/>
    <nd ref="111683419"/>
    <nd ref="408747949"/>
    <nd ref="111683422"/>
    <nd ref="408747952"/>
    <nd ref="408747953"/>
    <nd ref="111683425"/>
    <nd ref="408866023"/>
    <nd ref="111683429"/>
    <nd ref="111683432"/>
    <nd ref="408747963"/>
    <nd ref="111683437"/>
    <nd ref="111683438"/>
    <nd ref="111683439"/>
    <nd ref="111683442"/>
    <nd ref="111683445"/>
    <nd ref="111683449"/>
    <nd ref="111683451"/>
    <nd ref="408746239"/>
    <tag k="bicycle" v="no"/>
    <tag k="foot" v="no"/>
    <tag k="hgv" v="designated"/>
    <tag k="highway" v="motorway"/>
    <tag k="horse" v="no"/>
    <tag k="lanes" v="2"/>
    <tag k="oneway" v="yes"/>
    <tag k="ref" v="I 95"/>
    <tag k="sidewalk" v="none"/>
    <tag k="tiger:cfcc" v="A11"/>
    <tag k="tiger:county" v="Clarendon, SC"/>
    <tag k="tiger:name_base" v="I-95"/>
    <tag k="tiger:reviewed" v="no"/>
    <tag k="tiger:separated" v="no"/>
    <tag k="tiger:source" v="tiger_import_dch_v0.6_20070829"/>
    <tag k="tiger:tlid" v="71429592:71429570:71433208:71438801:71438802:71429653:71432475:71429361; 71429956:71429954:71429955:71429957:71430106:71429417:71429180"/>
    <tag k="tiger:upload_uuid" v="bulk_upload.pl-6ae77073-d2b8-4c03-9064-4544bdf53c0b"/>
  </way>
  <way id="34872884" version="1" timestamp="2009-05-21T11:37:52Z" uid="99207" user="Lar Kiesel" changeset="1274673">
    <nd ref="111629015"/>
    <nd ref="111628836"/>
    <tag k="bridge" v="yes"/>
    <tag k="highway" v="motorway"/>
    <tag k="layer" v="1"/>
    <tag k="name" v="I-95"/>
    <tag k="oneway" v="yes"/>
    <tag k="ref" v="I 95"/>
    <tag k="tiger:cfcc" v="A11"/>
    <tag k="tiger:county" v="Clarendon, SC"/>
    <tag k="tiger:name_base" v="I-95"/>
    <tag k="tiger:reviewed" v="no"/>
    <tag k="tiger:separated" v="no"/>
    <tag k="tiger:source" v="tiger_import_dch_v0.6_20070829"/>
    <tag k="tiger:tlid" v="71429592:71429570:71433208:71438801:71438802:71429653:71432475:71429361; 71429956:71429954:71429955:71429957:71430106:71429417:71429180"/>
    <tag k="tiger:upload_uuid" v="bulk_upload.pl-6ae77073-d2b8-4c03-9064-4544bdf53c0b"/>
  </way>
  <way id="34872884" version="2" timestamp="2009-06-25T22:58:55Z" uid="99207" user="Lar Kiesel" changeset="1627028">
    <nd ref="111629015"/>
    <nd ref="111628836"/>
    <tag k="bridge" v="yes"/>
    <tag k="highway" v="motorway"/>
    <tag k="layer" v="1"/>
    <tag k="name" v="Interstate Highway 95"/>
    <tag k="oneway" v="yes"/>
    <tag k="ref" v="I 95"/>
    <tag k="tiger:cfcc" v="A11"/>
    <tag k="tiger:county" v="Clarendon, SC"/>
    <tag k="tiger:name_base" v="I-95"/>
    <tag k="tiger:reviewed" v="no"/>
    <tag k="tiger:separated" v="no"/>
    <tag k="tiger:source" v="tiger_import_dch_v0.6_20070829"/>
    <tag k="tiger:tlid" v="71429592:71429570:71433208:71438801:71438802:71429653:71432475:71429361; 71429956:71429954:71429955:71429957:71430106:71429417:71429180"/>
    <tag k="tiger:upload_uuid" v="bulk_upload.pl-6ae77073-d2b8-4c03-9064-4544bdf53c0b"/>
  </way>
  <way id="34872884" version="3" timestamp="2010-01-28T21:24:14Z" uid="207745" user="NE2" changeset="3739126">
    <nd ref="111629015"/>
    <nd ref="111628836"/>
    <tag k="bridge" v="yes"/>
    <tag k="highway" v="motorway"/>
    <tag k="layer" v="1"/>
    <tag k="oneway" v="yes"/>
    <tag k="ref" v="I 95"/>
    <tag k="tiger:cfcc" v="A11"/>
    <tag k="tiger:county" v="Clarendon, SC"/>
    <tag k="tiger:name_base" v="I-95"/>
    <tag k="tiger:reviewed" v="no"/>
    <tag k="tiger:separated" v="no"/>
    <tag k="tiger:source" v="tiger_import_dch_v0.6_20070829"/>
    <tag k="tiger:tlid" v="71429592:71429570:71433208:71438801:71438802:71429653:71432475:71429361; 71429956:71429954:71429955:71429957:71430106:71429417:71429180"/>
    <tag k="tiger:upload_uuid" v="bulk_upload.pl-6ae77073-d2b8-4c03-9064-4544bdf53c0b"/>
  </way>
  <way id="34872884" version="4" timestamp="2011-07-10T08:30:07Z" uid="473471" user="NE3" changeset="8680912">
    <nd ref="111629015"/>
    <nd ref="111628836"/>
    <tag k="bridge" v="yes"/>
    <tag k="highway" v="motorway"/>
    <tag k="lanes" v="2"/>
    <tag k="layer" v="1"/>
    <tag k="oneway" v="yes"/>
    <tag k="ref" v="I 95"/>
    <tag k="tiger:cfcc" v="A11"/>
    <tag k="tiger:county" v="Clarendon, SC"/>
    <tag k="tiger:name_base" v="I-95"/>
    <tag k="tiger:reviewed" v="no"/>
    <tag k="tiger:separated" v="no"/>
    <tag k="tiger:source" v="tiger_import_dch_v0.6_20070829"/>
    <tag k="tiger:tlid" v="71429592:71429570:71433208:71438801:71438802:71429653:71432475:71429361; 71429956:71429954:71429955:71429957:71430106:71429417:71429180"/>
    <tag k="tiger:upload_uuid" v="bulk_upload.pl-6ae77073-d2b8-4c03-9064-4544bdf53c0b"/>
  </way>
  <way id="34872884" version="5" timestamp="2011-11-24T21:56:30Z" uid="207745" user="NE2" changeset="9937881">
    <nd ref="111629015"/>
    <nd ref="111628836"/>
    <tag k="bicycle" v="no"/>
    <tag k="bridge" v="yes"/>
    <tag k="foot" v="no"/>
    <tag k="hgv" v="designated"/>
    <tag k="highway" v="motorway"/>
    <tag k="horse" v="no"/>
    <tag k="lanes" v="2"/>
    <tag k="layer" v="1"/>
    <tag k="oneway" v="yes"/>
    <tag k="ref" v="I 95"/>
    <tag k="sidewalk" v="none"/>
    <tag k="tiger:cfcc" v="A11"/>
    <tag k="tiger:county" v="Clarendon, SC"/>
    <tag k="tiger:name_base" v="I-95"/>
    <tag k="tiger:reviewed" v="no"/>
    <tag k="tiger:separated" v="no"/>
    <tag k="tiger:source" v="tiger_import_dch_v0.6_20070829"/>
    <tag k="tiger:tlid" v="71429592:71429570:71433208:71438801:71438802:71429653:71432475:71429361; 71429956:71429954:71429955:71429957:71430106:71429417:71429180"/>
    <tag k="tiger:upload_uuid" v="bulk_upload.pl-6ae77073-d2b8-4c03-9064-4544bdf53c0b"/>
  </way>
  <way id="34872885" version="1" timestamp="2009-05-21T11:37:53Z" uid="99207" user="Lar Kiesel" changeset="1274673">
    <nd ref="111607769"/>
    <nd ref="408895607"/>
    <nd ref="408895616"/>
    <nd ref="408895353"/>
    <tag k="highway" v="motorway_link"/>
  </way>
  <way id="34872885" version="2" timestamp="2009-06-14T19:58:57Z" uid="99207" user="Lar Kiesel" changeset="1519066">
    <nd ref="111607769"/>
    <nd ref="408895607"/>
    <nd ref="408895616"/>
    <nd ref="408895353"/>
    <tag k="highway" v="motorway_link"/>
    <tag k="oneway" v="yes"/>
  </way>
  <way id="34872886" version="1" timestamp="2009-05-21T11:37:53Z" uid="99207" user="Lar Kiesel" changeset="1274673">
    <nd ref="111607813"/>
    <nd ref="408895623"/>
    <nd ref="408895293"/>
    <tag k="highway" v="motorway_link"/>
  </way>
  <way id="34872886" version="2" timestamp="2009-09-07T22:58:33Z" uid="99207" user="Lar Kiesel" changeset="2409013">
    <nd ref="111607813"/>
    <nd ref="408895623"/>
    <nd ref="408895293"/>
    <tag k="highway" v="motorway_link"/>
    <tag k="oneway" v="yes"/>
  </way>
  <way id="34872893" version="2" timestamp="2010-03-22T06:29:52Z" uid="20587" user="balrog-kun" changeset="4199043">
    <nd ref="408896547"/>
    <nd ref="40390375"/>
    <nd ref="40390377"/>
    <nd ref="40390380"/>
    <nd ref="40390383"/>
    <nd ref="40063433"/>
    <tag k="highway" v="residential"/>
    <tag k="name" v="Priceboro Drive"/>
    <tag k="name_1" v="Priceboro Road"/>
    <tag k="tiger:cfcc" v="A41"/>
    <tag k="tiger:county" v="Linn, OR"/>
    <tag k="tiger:name_base" v="Priceboro"/>
    <tag k="tiger:name_base_1" v="Priceboro"/>
    <tag k="tiger:reviewed" v="no"/>
    <tag k="tiger:separated" v="no"/>
    <tag k="tiger:source" v="tiger_import_dch_v0.6_20070808"/>
    <tag k="tiger:tlid" v="156077516:156087457:156077167:156077169"/>
    <tag k="tiger:zip_left" v="97446"/>
    <tag k="tiger:zip_right" v="97446"/>
  </way>
  <way id="34872894" version="2" timestamp="2010-03-22T06:29:52Z" uid="20587" user="balrog-kun" changeset="4199043">
    <nd ref="40296549"/>
    <nd ref="408896547"/>
    <tag k="bridge" v="yes"/>
    <tag k="highway" v="residential"/>
    <tag k="layer" v="1"/>
    <tag k="name" v="Priceboro Drive"/>
    <tag k="name_1" v="Priceboro Road"/>
    <tag k="tiger:cfcc" v="A41"/>
    <tag k="tiger:county" v="Linn, OR"/>
    <tag k="tiger:name_base" v="Priceboro"/>
    <tag k="tiger:name_base_1" v="Priceboro"/>
    <tag k="tiger:reviewed" v="no"/>
    <tag k="tiger:separated" v="no"/>
    <tag k="tiger:source" v="tiger_import_dch_v0.6_20070808"/>
    <tag k="tiger:tlid" v="156077516:156087457:156077167:156077169"/>
    <tag k="tiger:zip_left" v="97446"/>
    <tag k="tiger:zip_right" v="97446"/>
  </way>
  <way id="34872106" version="6" timestamp="2012-07-19T14:22:19Z" uid="722137" user="OSMF Redaction Account" changeset="12331236"/>
  <way id="34872108" version="5" timestamp="2012-07-19T14:22:20Z" uid="722137" user="OSMF Redaction Account" changeset="12331236"/>
  <way id="34872109" version="2" timestamp="2012-07-19T14:22:27Z" uid="722137" user="OSMF Redaction Account" changeset="12331253"/>
  <way id="34872110" version="7" timestamp="2012-07-19T14:16:47Z" uid="722137" user="OSMF Redaction Account" changeset="12331124">
    <nd ref="658466422"/>
    <nd ref="658466615"/>
    <nd ref="658465508"/>
  </way>
  <way id="34872110" version="8" timestamp="2012-09-08T14:22:31Z" uid="38548" user="PesceVerde" changeset="13034124"/>
  <way id="34872111" version="4" timestamp="2012-07-19T14:22:26Z" uid="722137" user="OSMF Redaction Account" changeset="12331253"/>
  <way id="34872112" version="5" timestamp="2012-07-19T14:22:25Z" uid="722137" user="OSMF Redaction Account" changeset="12331253"/>
  <way id="34872384" version="12" timestamp="2012-05-02T22:48:30Z" uid="362111" user="Mele Sax-Barnett" changeset="11484415">
    <nd ref="408875047"/>
    <nd ref="408875048"/>
    <nd ref="409683708"/>
    <tag k="alt_name" v="Pacific Highway"/>
    <tag k="bicycle" v="yes"/>
    <tag k="comment" v="Named after Sam Baldock."/>
    <tag k="hgv" v="designated"/>
    <tag k="highway" v="motorway"/>
    <tag k="lanes" v="2"/>
    <tag k="name" v="Robert Hugh Baldock Freeway"/>
    <tag k="oneway" v="yes"/>
    <tag k="ref" v="I 5"/>
    <tag k="source:name" v="ODOT"/>
    <tag k="tiger:cfcc" v="A15"/>
    <tag k="tiger:county" v="Lane, OR"/>
    <tag k="tiger:name_base" v="I-5"/>
    <tag k="tiger:name_base_1" v="Pacific"/>
    <tag k="tiger:name_type_1" v="Hwy"/>
    <tag k="tiger:separated" v="yes"/>
    <tag k="tiger:source" v="tiger_import_dch_v0.6_20070808"/>
    <tag k="tiger:tlid" v="178145613:178145614:178211492:178145737"/>
  </way>
  <way id="34872384" version="13" timestamp="2012-08-04T18:22:06Z" uid="587790" user="JaggedMind" changeset="12612571">
    <nd ref="408875047"/>
    <nd ref="408875048"/>
    <nd ref="409683708"/>
    <tag k="alt_name" v="Pacific Highway"/>
    <tag k="bicycle" v="yes"/>
    <tag k="comment" v="Named after Sam Baldock."/>
    <tag k="hgv" v="designated"/>
    <tag k="highway" v="motorway"/>
    <tag k="lanes" v="2"/>
    <tag k="name" v="Robert Hugh Baldock Freeway"/>
    <tag k="oneway" v="yes"/>
    <tag k="ref" v="I 5"/>
    <tag k="source:name" v="ODOT"/>
    <tag k="tiger:cfcc" v="A15"/>
    <tag k="tiger:county" v="Lane, OR"/>
    <tag k="tiger:name_base" v="I-5"/>
    <tag k="tiger:name_base_1" v="Pacific"/>
    <tag k="tiger:name_type_1" v="Hwy"/>
  </way>
  <way id="34872385" version="13" timestamp="2012-05-02T22:48:19Z" uid="362111" user="Mele Sax-Barnett" changeset="11484415">
    <nd ref="408867100"/>
    <nd ref="408875047"/>
    <tag k="alt_name" v="Pacific Highway"/>
    <tag k="bicycle" v="yes"/>
    <tag k="bridge" v="yes"/>
    <tag k="comment" v="Named after Sam Baldock."/>
    <tag k="hgv" v="designated"/>
    <tag k="highway" v="motorway"/>
    <tag k="lanes" v="2"/>
    <tag k="layer" v="1"/>
    <tag k="name" v="Robert Hugh Baldock Freeway"/>
    <tag k="oneway" v="yes"/>
    <tag k="ref" v="I 5"/>
    <tag k="source:name" v="ODOT"/>
    <tag k="tiger:cfcc" v="A15"/>
    <tag k="tiger:county" v="Lane, OR"/>
    <tag k="tiger:name_base" v="I-5"/>
    <tag k="tiger:name_base_1" v="Pacific"/>
    <tag k="tiger:name_type_1" v="Hwy"/>
    <tag k="tiger:separated" v="yes"/>
    <tag k="tiger:source" v="tiger_import_dch_v0.6_20070808"/>
    <tag k="tiger:tlid" v="178145613:178145614:178211492:178145737"/>
  </way>
  <way id="34872385" version="14" timestamp="2012-08-04T18:21:48Z" uid="587790" user="JaggedMind" changeset="12612571">
    <nd ref="408867100"/>
    <nd ref="408875047"/>
    <tag k="alt_name" v="Pacific Highway"/>
    <tag k="bicycle" v="yes"/>
    <tag k="bridge" v="yes"/>
    <tag k="comment" v="Named after Sam Baldock."/>
    <tag k="hgv" v="designated"/>
    <tag k="highway" v="motorway"/>
    <tag k="lanes" v="2"/>
    <tag k="layer" v="1"/>
    <tag k="name" v="Robert Hugh Baldock Freeway"/>
    <tag k="oneway" v="yes"/>
    <tag k="ref" v="I 5"/>
    <tag k="source:name" v="ODOT"/>
    <tag k="tiger:cfcc" v="A15"/>
    <tag k="tiger:county" v="Lane, OR"/>
    <tag k="tiger:name_base" v="I-5"/>
    <tag k="tiger:name_base_1" v="Pacific"/>
    <tag k="tiger:name_type_1" v="Hwy"/>
  </way>
  <way id="34872391" version="16" timestamp="2012-05-02T22:48:03Z" uid="362111" user="Mele Sax-Barnett" changeset="11484415">
    <nd ref="408875208"/>
    <nd ref="408875210"/>
    <nd ref="408888700"/>
    <nd ref="408890422"/>
    <nd ref="408890424"/>
    <nd ref="408890425"/>
    <nd ref="408890426"/>
    <nd ref="408890427"/>
    <nd ref="408890429"/>
    <nd ref="408892576"/>
    <nd ref="408892577"/>
    <tag k="alt_name" v="Pacific Highway"/>
    <tag k="bicycle" v="yes"/>
    <tag k="comment" v="Named after Sam Baldock."/>
    <tag k="hgv" v="designated"/>
    <tag k="highway" v="motorway"/>
    <tag k="lanes" v="2"/>
    <tag k="name" v="Robert Hugh Baldock Freeway"/>
    <tag k="oneway" v="yes"/>
    <tag k="ref" v="I 5"/>
    <tag k="source:name" v="ODOT"/>
    <tag k="tiger:cfcc" v="A15"/>
    <tag k="tiger:county" v="Lane, OR"/>
    <tag k="tiger:name_base" v="I-5"/>
    <tag k="tiger:name_base_1" v="Pacific"/>
    <tag k="tiger:name_type_1" v="Hwy"/>
    <tag k="tiger:separated" v="yes"/>
    <tag k="tiger:source" v="tiger_import_dch_v0.6_20070808"/>
    <tag k="tiger:tlid" v="178145613:178145614:178211492:178145737"/>
  </way>
  <way id="34872391" version="17" timestamp="2012-08-04T18:20:35Z" uid="587790" user="JaggedMind" changeset="12612571">
    <nd ref="408875208"/>
    <nd ref="408875210"/>
    <nd ref="408888700"/>
    <nd ref="408890422"/>
    <nd ref="408890424"/>
    <nd ref="408890425"/>
    <nd ref="408890426"/>
    <nd ref="408890427"/>
    <nd ref="408890429"/>
    <nd ref="408892576"/>
    <nd ref="408892577"/>
    <tag k="alt_name" v="Pacific Highway"/>
    <tag k="bicycle" v="yes"/>
    <tag k="comment" v="Named after Sam Baldock."/>
    <tag k="hgv" v="designated"/>
    <tag k="highway" v="motorway"/>
    <tag k="lanes" v="2"/>
    <tag k="name" v="Robert Hugh Baldock Freeway"/>
    <tag k="oneway" v="yes"/>
    <tag k="ref" v="I 5"/>
    <tag k="source:name" v="ODOT"/>
    <tag k="tiger:cfcc" v="A15"/>
    <tag k="tiger:county" v="Lane, OR"/>
    <tag k="tiger:name_base" v="I-5"/>
    <tag k="tiger:name_base_1" v="Pacific"/>
    <tag k="tiger:name_type_1" v="Hwy"/>
  </way>
  <way id="34872392" version="13" timestamp="2012-05-02T22:48:24Z" uid="362111" user="Mele Sax-Barnett" changeset="11484415">
    <nd ref="408875065"/>
    <nd ref="408875208"/>
    <tag k="alt_name" v="Pacific Highway"/>
    <tag k="bicycle" v="yes"/>
    <tag k="bridge" v="yes"/>
    <tag k="comment" v="Named after Sam Baldock."/>
    <tag k="hgv" v="designated"/>
    <tag k="highway" v="motorway"/>
    <tag k="lanes" v="2"/>
    <tag k="name" v="Robert Hugh Baldock Freeway"/>
    <tag k="oneway" v="yes"/>
    <tag k="ref" v="I 5"/>
    <tag k="source:name" v="ODOT"/>
    <tag k="tiger:cfcc" v="A15"/>
    <tag k="tiger:county" v="Lane, OR"/>
    <tag k="tiger:name_base" v="I-5"/>
    <tag k="tiger:name_base_1" v="Pacific"/>
    <tag k="tiger:name_type_1" v="Hwy"/>
    <tag k="tiger:separated" v="yes"/>
    <tag k="tiger:source" v="tiger_import_dch_v0.6_20070808"/>
    <tag k="tiger:tlid" v="178145613:178145614:178211492:178145737"/>
  </way>
  <way id="34872392" version="14" timestamp="2012-08-04T05:29:33Z" uid="199837" user="happy5214" changeset="12605272">
    <nd ref="408875065"/>
    <nd ref="408875208"/>
    <tag k="alt_name" v="Pacific Highway"/>
    <tag k="bicycle" v="yes"/>
    <tag k="bridge" v="yes"/>
    <tag k="comment" v="Named after Sam Baldock."/>
    <tag k="hgv" v="designated"/>
    <tag k="highway" v="motorway"/>
    <tag k="lanes" v="2"/>
    <tag k="layer" v="1"/>
    <tag k="name" v="Robert Hugh Baldock Freeway"/>
    <tag k="oneway" v="yes"/>
    <tag k="ref" v="I 5"/>
    <tag k="source:name" v="ODOT"/>
    <tag k="tiger:cfcc" v="A15"/>
    <tag k="tiger:county" v="Lane, OR"/>
    <tag k="tiger:name_base" v="I-5"/>
    <tag k="tiger:name_base_1" v="Pacific"/>
    <tag k="tiger:name_type_1" v="Hwy"/>
    <tag k="tiger:separated" v="yes"/>
    <tag k="tiger:source" v="tiger_import_dch_v0.6_20070808"/>
    <tag k="tiger:tlid" v="178145613:178145614:178211492:178145737"/>
  </way>
  <way id="34872392" version="15" timestamp="2012-08-04T18:21:54Z" uid="587790" user="JaggedMind" changeset="12612571">
    <nd ref="408875065"/>
    <nd ref="408875208"/>
    <tag k="alt_name" v="Pacific Highway"/>
    <tag k="bicycle" v="yes"/>
    <tag k="bridge" v="yes"/>
    <tag k="comment" v="Named after Sam Baldock."/>
    <tag k="hgv" v="designated"/>
    <tag k="highway" v="motorway"/>
    <tag k="lanes" v="2"/>
    <tag k="layer" v="1"/>
    <tag k="name" v="Robert Hugh Baldock Freeway"/>
    <tag k="oneway" v="yes"/>
    <tag k="ref" v="I 5"/>
    <tag k="source:name" v="ODOT"/>
    <tag k="tiger:cfcc" v="A15"/>
    <tag k="tiger:county" v="Lane, OR"/>
    <tag k="tiger:name_base" v="I-5"/>
    <tag k="tiger:name_base_1" v="Pacific"/>
    <tag k="tiger:name_type_1" v="Hwy"/>
  </way>
  <way id="34872793" version="2" timestamp="2012-07-24T19:48:13Z" uid="722137" user="OSMF Redaction Account" changeset="12474994">
    <nd ref="32676786"/>
    <nd ref="288738453"/>
    <nd ref="288738463"/>
    <nd ref="340564926"/>
    <nd ref="340565150"/>
    <nd ref="288738462"/>
    <nd ref="322653331"/>
    <nd ref="322653347"/>
    <nd ref="340565207"/>
    <nd ref="262769684"/>
    <nd ref="340565210"/>
    <nd ref="262770532"/>
    <nd ref="262770533"/>
    <nd ref="262770534"/>
    <nd ref="322655169"/>
    <nd ref="280377564"/>
    <tag k="created_by" v="Potlatch 0.10b"/>
    <tag k="highway" v="residential"/>
    <tag k="name" v="Królowej Marysieńki"/>
  </way>
  <way id="34872845" version="11" timestamp="2012-05-02T22:48:10Z" uid="362111" user="Mele Sax-Barnett" changeset="11484415">
    <nd ref="408893787"/>
    <nd ref="408893814"/>
    <tag k="alt_name" v="Pacific Highway"/>
    <tag k="bicycle" v="yes"/>
    <tag k="bridge" v="yes"/>
    <tag k="comment" v="Named after Sam Baldock."/>
    <tag k="hgv" v="designated"/>
    <tag k="highway" v="motorway"/>
    <tag k="lanes" v="2"/>
    <tag k="layer" v="1"/>
    <tag k="name" v="Robert Hugh Baldock Freeway"/>
    <tag k="oneway" v="yes"/>
    <tag k="ref" v="I 5"/>
    <tag k="source:name" v="ODOT"/>
    <tag k="tiger:cfcc" v="A15"/>
    <tag k="tiger:county" v="Lane, OR"/>
    <tag k="tiger:name_base" v="I-5"/>
    <tag k="tiger:name_base_1" v="Pacific"/>
    <tag k="tiger:name_type_1" v="Hwy"/>
    <tag k="tiger:separated" v="yes"/>
    <tag k="tiger:source" v="tiger_import_dch_v0.6_20070808"/>
    <tag k="tiger:tlid" v="178145613:178145614:178211492:178145737"/>
  </way>
  <way id="34872845" version="12" timestamp="2012-08-04T18:20:54Z" uid="587790" user="JaggedMind" changeset="12612571">
    <nd ref="408893787"/>
    <nd ref="408893814"/>
    <tag k="alt_name" v="Pacific Highway"/>
    <tag k="bicycle" v="yes"/>
    <tag k="bridge" v="yes"/>
    <tag k="comment" v="Named after Sam Baldock."/>
    <tag k="hgv" v="designated"/>
    <tag k="highway" v="motorway"/>
    <tag k="lanes" v="2"/>
    <tag k="layer" v="1"/>
    <tag k="name" v="Robert Hugh Baldock Freeway"/>
    <tag k="oneway" v="yes"/>
    <tag k="ref" v="I 5"/>
    <tag k="source:name" v="ODOT"/>
    <tag k="tiger:cfcc" v="A15"/>
    <tag k="tiger:county" v="Lane, OR"/>
    <tag k="tiger:name_base" v="I-5"/>
    <tag k="tiger:name_base_1" v="Pacific"/>
    <tag k="tiger:name_type_1" v="Hwy"/>
  </way>
  <way id="34872847" version="14" timestamp="2012-05-02T22:48:04Z" uid="362111" user="Mele Sax-Barnett" changeset="11484415">
    <nd ref="408893814"/>
    <nd ref="408893820"/>
    <nd ref="408896459"/>
    <nd ref="1084009723"/>
    <nd ref="408896463"/>
    <nd ref="408896466"/>
    <nd ref="408902764"/>
    <nd ref="408902766"/>
    <nd ref="408902768"/>
    <nd ref="408902769"/>
    <nd ref="408902771"/>
    <tag k="alt_name" v="Pacific Highway"/>
    <tag k="bicycle" v="yes"/>
    <tag k="comment" v="Named after Sam Baldock."/>
    <tag k="hgv" v="designated"/>
    <tag k="highway" v="motorway"/>
    <tag k="lanes" v="2"/>
    <tag k="name" v="Robert Hugh Baldock Freeway"/>
    <tag k="oneway" v="yes"/>
    <tag k="ref" v="I 5"/>
    <tag k="source:name" v="ODOT"/>
    <tag k="tiger:cfcc" v="A15"/>
    <tag k="tiger:county" v="Lane, OR"/>
    <tag k="tiger:name_base" v="I-5"/>
    <tag k="tiger:name_base_1" v="Pacific"/>
    <tag k="tiger:name_type_1" v="Hwy"/>
    <tag k="tiger:separated" v="yes"/>
    <tag k="tiger:source" v="tiger_import_dch_v0.6_20070808"/>
    <tag k="tiger:tlid" v="178145613:178145614:178211492:178145737"/>
  </way>
  <way id="34872847" version="15" timestamp="2012-08-04T18:20:37Z" uid="587790" user="JaggedMind" changeset="12612571">
    <nd ref="408893814"/>
    <nd ref="408893820"/>
    <nd ref="408896459"/>
    <nd ref="1084009723"/>
    <nd ref="408896463"/>
    <nd ref="408896466"/>
    <nd ref="408902764"/>
    <nd ref="408902766"/>
    <nd ref="408902768"/>
    <nd ref="408902769"/>
    <nd ref="408902771"/>
    <tag k="alt_name" v="Pacific Highway"/>
    <tag k="bicycle" v="yes"/>
    <tag k="comment" v="Named after Sam Baldock."/>
    <tag k="hgv" v="designated"/>
    <tag k="highway" v="motorway"/>
    <tag k="lanes" v="2"/>
    <tag k="name" v="Robert Hugh Baldock Freeway"/>
    <tag k="oneway" v="yes"/>
    <tag k="ref" v="I 5"/>
    <tag k="source:name" v="ODOT"/>
    <tag k="tiger:cfcc" v="A15"/>
    <tag k="tiger:county" v="Lane, OR"/>
    <tag k="tiger:name_base" v="I-5"/>
    <tag k="tiger:name_base_1" v="Pacific"/>
    <tag k="tiger:name_type_1" v="Hwy"/>
  </way>
  <way id="34872867" version="3" timestamp="2012-06-13T11:46:03Z" uid="24572" user="sly" changeset="11883989">
    <nd ref="408894500"/>
    <nd ref="408894503"/>
    <nd ref="408894505"/>
    <nd ref="408894506"/>
    <nd ref="408894508"/>
    <nd ref="408894510"/>
    <nd ref="408894511"/>
    <nd ref="408894513"/>
    <nd ref="408894514"/>
    <nd ref="408894500"/>
    <tag k="area" v="yes"/>
    <tag k="leisure" v="pitch"/>
    <tag k="sport" v="rugby"/>
  </way>
  <way id="34872867" version="4" timestamp="2012-06-13T15:52:34Z" uid="8235" user="chriscf" changeset="11886459">
    <nd ref="408894500"/>
    <nd ref="408894503"/>
    <nd ref="408894505"/>
    <nd ref="408894506"/>
    <nd ref="408894508"/>
    <nd ref="408894510"/>
    <nd ref="408894511"/>
    <nd ref="408894513"/>
    <nd ref="408894514"/>
    <nd ref="408894500"/>
    <tag k="area" v="yes"/>
    <tag k="fixme" v="sport=rugby is ambiguous, see http://wiki.osm.org/wiki/Tag:sport%3Drugby for more details"/>
    <tag k="leisure" v="pitch"/>
    <tag k="sport" v="rugby"/>
  </way>
  <way id="34872867" version="5" timestamp="2012-07-13T15:42:46Z" uid="722137" user="OSMF Redaction Account" changeset="12208073">
    <nd ref="408894500"/>
    <nd ref="408894503"/>
    <nd ref="408894505"/>
    <nd ref="408894506"/>
    <nd ref="408894508"/>
    <nd ref="408894510"/>
    <nd ref="408894511"/>
    <nd ref="408894513"/>
    <nd ref="408894514"/>
    <nd ref="408894500"/>
    <tag k="area" v="yes"/>
    <tag k="leisure" v="pitch"/>
    <tag k="sport" v="rugby"/>
  </way>
  <way id="34872893" version="3" timestamp="2012-09-04T00:56:58Z" uid="97431" user="Dion Dock" changeset="12975514">
    <nd ref="408896547"/>
    <nd ref="40390375"/>
    <nd ref="40390377"/>
    <nd ref="40390380"/>
    <nd ref="40390383"/>
    <nd ref="40063433"/>
    <tag k="highway" v="tertiary"/>
    <tag k="lanes" v="2"/>
    <tag k="name" v="Priceboro Drive"/>
    <tag k="name_1" v="Priceboro Road"/>
    <tag k="tiger:cfcc" v="A41"/>
    <tag k="tiger:county" v="Linn, OR"/>
    <tag k="tiger:name_base" v="Priceboro"/>
    <tag k="tiger:name_base_1" v="Priceboro"/>
    <tag k="tiger:reviewed" v="no"/>
    <tag k="tiger:separated" v="no"/>
    <tag k="tiger:source" v="tiger_import_dch_v0.6_20070808"/>
    <tag k="tiger:tlid" v="156077516:156087457:156077167:156077169"/>
    <tag k="tiger:zip_left" v="97446"/>
    <tag k="tiger:zip_right" v="97446"/>
  </way>
  <way id="34872894" version="3" timestamp="2012-09-04T00:56:59Z" uid="97431" user="Dion Dock" changeset="12975514">
    <nd ref="40296549"/>
    <nd ref="408896547"/>
    <tag k="bridge" v="yes"/>
    <tag k="highway" v="tertiary"/>
    <tag k="lanes" v="2"/>
    <tag k="layer" v="1"/>
    <tag k="name" v="Priceboro Drive"/>
    <tag k="name_1" v="Priceboro Road"/>
    <tag k="tiger:cfcc" v="A41"/>
    <tag k="tiger:county" v="Linn, OR"/>
    <tag k="tiger:name_base" v="Priceboro"/>
    <tag k="tiger:name_base_1" v="Priceboro"/>
    <tag k="tiger:reviewed" v="no"/>
    <tag k="tiger:separated" v="no"/>
    <tag k="tiger:source" v="tiger_import_dch_v0.6_20070808"/>
    <tag k="tiger:tlid" v="156077516:156087457:156077167:156077169"/>
    <tag k="tiger:zip_left" v="97446"/>
    <tag k="tiger:zip_right" v="97446"/>
  </way>
</osm>
