<?xml version='1.0' encoding='UTF-8'?>
<osm version="0.6" generator="libosmium/2.20.0">
  <way id="3491320" version="1" timestamp="2007-07-11T22:30:31Z" uid="8328" user="benpre" changeset="141044">
    <nd ref="16573472"/>
    <nd ref="3411660"/>
    <tag k="highway" v="residential"/>
    <tag k="name" v="Conradstraße"/>
  </way>
  <way id="3491320" version="2" timestamp="2007-10-11T23:07:46Z" changeset="129791">
    <nd ref="16573472"/>
    <nd ref="3411660"/>
    <tag k="created_by" v="Potlatch alpha"/>
    <tag k="highway" v="residential"/>
    <tag k="name" v="Conradstraße"/>
    <tag k="oneway" v="yes"/>
  </way>
  <way id="3491320" version="3" timestamp="2007-10-11T23:14:08Z" changeset="129791">
    <nd ref="16573472"/>
    <nd ref="3411660"/>
    <tag k="created_by" v="Potlatch alpha"/>
    <tag k="highway" v="residential"/>
    <tag k="name" v="Conradstraße"/>
    <tag k="oneway" v="yes"/>
  </way>
  <way id="3491320" version="4" timestamp="2008-07-04T19:29:25Z" uid="36815" user="railrun" changeset="392648">
    <nd ref="16573472"/>
    <nd ref="3411660"/>
    <tag k="created_by" v="Potlatch 0.9c"/>
    <tag k="highway" v="residential"/>
    <tag k="name" v="Conradstraße"/>
    <tag k="oneway" v="yes"/>
    <tag k="postal_code" v="01097"/>
  </way>
  <way id="3491320" version="5" timestamp="2010-01-03T17:06:09Z" uid="5735" user="ColinMarquardt" changeset="3530244">
    <nd ref="16573472"/>
    <nd ref="603756245"/>
    <nd ref="603756191"/>
    <nd ref="603756163"/>
    <nd ref="3411660"/>
    <tag k="highway" v="residential"/>
    <tag k="name" v="Conradstraße"/>
    <tag k="oneway" v="yes"/>
    <tag k="postal_code" v="01097"/>
  </way>
  <way id="3491320" version="6" timestamp="2011-11-27T21:45:16Z" uid="204738" user="viw" changeset="9972433">
    <nd ref="16573472"/>
    <nd ref="603756245"/>
    <nd ref="603756191"/>
    <nd ref="603756163"/>
    <nd ref="1520303537"/>
    <nd ref="3411660"/>
    <tag k="highway" v="residential"/>
    <tag k="name" v="Conradstraße"/>
    <tag k="oneway" v="yes"/>
    <tag k="postal_code" v="01097"/>
  </way>
  <way id="3491320" version="7" timestamp="2012-01-09T22:48:47Z" uid="5735" user="ColinMarquardt" changeset="10347104"/>
</osm>
