<?xml version='1.0' encoding='UTF-8'?>
<osm version="0.6" generator="libosmium/2.20.0">
  <way id="34951104" version="2" timestamp="2009-08-10T01:39:24Z" uid="4467" user="Rosscoe" changeset="2092274">
    <nd ref="295231957"/>
    <nd ref="295232060"/>
    <nd ref="295232002"/>
    <nd ref="295231960"/>
    <nd ref="295231961"/>
    <nd ref="295232003"/>
    <nd ref="295231964"/>
    <nd ref="295232061"/>
    <nd ref="295232005"/>
    <nd ref="295231967"/>
    <nd ref="295231968"/>
    <nd ref="295232006"/>
    <nd ref="295231970"/>
    <nd ref="295231971"/>
    <nd ref="295232007"/>
    <nd ref="295232062"/>
    <nd ref="295231974"/>
    <nd ref="295232009"/>
    <nd ref="295231976"/>
    <nd ref="295231977"/>
    <nd ref="295232010"/>
    <nd ref="295232063"/>
    <nd ref="295231980"/>
    <nd ref="295232012"/>
    <nd ref="295232064"/>
    <nd ref="295231983"/>
    <nd ref="295231984"/>
    <nd ref="295232065"/>
    <nd ref="295231986"/>
    <tag k="highway" v="primary"/>
    <tag k="name" v="Old Pacific Highway"/>
    <tag k="surface" v="paved"/>
  </way>
  <way id="34951110" version="4" timestamp="2009-08-10T01:39:27Z" uid="4467" user="Rosscoe" changeset="2092274">
    <nd ref="310493150"/>
    <nd ref="423579833"/>
    <nd ref="423587891"/>
    <nd ref="295231957"/>
    <tag k="highway" v="primary"/>
    <tag k="lanes" v="1"/>
    <tag k="name" v="Waterfall Way"/>
    <tag k="ref" v="T18"/>
    <tag k="source" v="survey"/>
    <tag k="surface" v="paved"/>
  </way>
  <way id="34951110" version="5" timestamp="2009-12-30T11:31:15Z" uid="74617" user="JohnSmith" changeset="3488943">
    <nd ref="310493150"/>
    <nd ref="423579833"/>
    <nd ref="423587891"/>
    <nd ref="295231957"/>
    <tag k="highway" v="primary"/>
    <tag k="lanes" v="1"/>
    <tag k="ref" v="T18"/>
    <tag k="source" v="survey"/>
  </way>
  <way id="34951110" version="6" timestamp="2009-12-30T11:37:17Z" uid="74617" user="JohnSmith" changeset="3488985">
    <nd ref="310493150"/>
    <nd ref="423579833"/>
    <nd ref="423587891"/>
    <nd ref="295231957"/>
    <tag k="highway" v="primary"/>
    <tag k="lanes" v="1"/>
    <tag k="source" v="survey"/>
  </way>
  <way id="34951110" version="7" timestamp="2010-01-20T12:16:49Z" uid="67896" user="mrpulley" changeset="3665774">
    <nd ref="310493150"/>
    <nd ref="423579833"/>
    <nd ref="423587891"/>
    <nd ref="295231957"/>
    <tag k="highway" v="primary"/>
    <tag k="source" v="survey"/>
  </way>
  <way id="34951110" version="8" timestamp="2010-11-06T11:13:28Z" uid="67896" user="mrpulley" changeset="6301406">
    <nd ref="310493150"/>
    <nd ref="423579833"/>
    <nd ref="423587891"/>
    <nd ref="295231957"/>
    <tag k="highway" v="primary"/>
    <tag k="name" v="Waterfall Way"/>
    <tag k="source" v="survey"/>
    <tag k="surface" v="asphalt"/>
  </way>
  <way id="34951110" version="9" timestamp="2011-01-27T08:04:39Z" uid="4467" user="Rosscoe" changeset="7100928">
    <nd ref="310493150"/>
    <nd ref="1123131555"/>
    <nd ref="295231957"/>
    <tag k="highway" v="primary"/>
    <tag k="name" v="Waterfall Way"/>
    <tag k="source" v="survey"/>
    <tag k="surface" v="asphalt"/>
  </way>
  <way id="34951111" version="2" timestamp="2009-08-10T01:39:28Z" uid="4467" user="Rosscoe" changeset="2092274">
    <nd ref="310493143"/>
    <nd ref="310493513"/>
    <tag k="highway" v="primary"/>
    <tag k="lanes" v="1"/>
    <tag k="name" v="Waterfall Way"/>
    <tag k="ref" v="S78"/>
    <tag k="source" v="survey"/>
    <tag k="surface" v="paved"/>
  </way>
  <way id="34951111" version="3" timestamp="2009-12-30T11:31:15Z" uid="74617" user="JohnSmith" changeset="3488943">
    <nd ref="310493143"/>
    <nd ref="310493513"/>
    <tag k="highway" v="primary"/>
    <tag k="lanes" v="1"/>
    <tag k="ref" v="S78"/>
    <tag k="source" v="survey"/>
  </way>
  <way id="34951111" version="4" timestamp="2009-12-30T11:37:20Z" uid="74617" user="JohnSmith" changeset="3488985">
    <nd ref="310493143"/>
    <nd ref="310493513"/>
    <tag k="highway" v="primary"/>
    <tag k="lanes" v="1"/>
    <tag k="source" v="survey"/>
  </way>
  <way id="34951111" version="5" timestamp="2010-01-20T12:16:50Z" uid="67896" user="mrpulley" changeset="3665774">
    <nd ref="310493143"/>
    <nd ref="310493513"/>
    <tag k="highway" v="primary"/>
    <tag k="source" v="survey"/>
  </way>
  <way id="34951111" version="6" timestamp="2010-11-06T11:13:29Z" uid="67896" user="mrpulley" changeset="6301406">
    <nd ref="310493143"/>
    <nd ref="310493513"/>
    <tag k="highway" v="primary"/>
    <tag k="source" v="survey"/>
    <tag k="surface" v="asphalt"/>
  </way>
  <way id="34951111" version="7" timestamp="2011-01-27T08:04:43Z" uid="4467" user="Rosscoe" changeset="7100928">
    <nd ref="820098595"/>
    <nd ref="310493143"/>
    <nd ref="310493513"/>
    <tag k="highway" v="primary"/>
    <tag k="source" v="survey"/>
    <tag k="surface" v="asphalt"/>
  </way>
  <way id="34951113" version="3" timestamp="2009-08-10T01:39:27Z" uid="4467" user="Rosscoe" changeset="2092274">
    <nd ref="207681795"/>
    <nd ref="207681800"/>
    <nd ref="207681813"/>
    <nd ref="423577732"/>
    <nd ref="130032097"/>
    <tag k="highway" v="motorway_link"/>
    <tag k="lanes" v="1"/>
    <tag k="name" v="Waterfall Way"/>
    <tag k="oneway" v="no"/>
    <tag k="ref" v="S78"/>
    <tag k="source" v="survey"/>
    <tag k="surface" v="paved"/>
  </way>
  <way id="34951113" version="4" timestamp="2010-09-01T09:20:25Z" uid="299678" user="peteramjet" changeset="5652363">
    <nd ref="207681795"/>
    <nd ref="207681800"/>
    <nd ref="207681813"/>
    <nd ref="423577732"/>
    <nd ref="130032097"/>
    <tag k="highway" v="motorway_link"/>
    <tag k="lanes" v="1"/>
    <tag k="name" v="Waterfall Way"/>
    <tag k="oneway" v="no"/>
    <tag k="source" v="survey"/>
    <tag k="surface" v="paved"/>
  </way>
  <way id="34951113" version="5" timestamp="2011-01-27T08:04:44Z" uid="4467" user="Rosscoe" changeset="7100928">
    <nd ref="207681795"/>
    <nd ref="130032097"/>
    <tag k="highway" v="motorway_link"/>
    <tag k="lanes" v="1"/>
    <tag k="name" v="Waterfall Way"/>
    <tag k="oneway" v="no"/>
    <tag k="source" v="survey"/>
    <tag k="surface" v="paved"/>
  </way>
  <way id="34951113" version="6" timestamp="2011-01-27T08:05:06Z" uid="4467" user="Rosscoe" changeset="7100932">
    <nd ref="310493139"/>
    <nd ref="207681795"/>
    <nd ref="130032097"/>
    <nd ref="207681818"/>
    <nd ref="207681823"/>
    <nd ref="1123131558"/>
    <nd ref="207681828"/>
    <nd ref="207681835"/>
    <nd ref="207681844"/>
    <tag k="highway" v="motorway_link"/>
    <tag k="lanes" v="1"/>
    <tag k="name" v="Waterfall Way"/>
    <tag k="oneway" v="yes"/>
    <tag k="source" v="survey"/>
    <tag k="surface" v="paved"/>
  </way>
  <way id="34951114" version="3" timestamp="2009-07-26T09:13:05Z" uid="74617" user="JohnSmith" changeset="1942309">
    <nd ref="130032097"/>
    <nd ref="423578863"/>
    <nd ref="207681818"/>
    <nd ref="207681823"/>
    <nd ref="207681828"/>
    <nd ref="207681835"/>
    <nd ref="207681840"/>
    <nd ref="207681844"/>
    <tag k="highway" v="motorway_link"/>
    <tag k="lanes" v="1"/>
    <tag k="name" v="Waterfall Way"/>
    <tag k="oneway" v="yes"/>
    <tag k="ref" v="S78"/>
    <tag k="source" v="survey"/>
    <tag k="surface" v="paved"/>
  </way>
  <way id="34951114" version="4" timestamp="2009-07-27T03:56:55Z" uid="67896" user="mrpulley" changeset="1951114"/>
  <way id="34951115" version="3" timestamp="2009-07-26T09:13:58Z" uid="74617" user="JohnSmith" changeset="1942315">
    <nd ref="310493156"/>
    <nd ref="310493168"/>
    <nd ref="310493170"/>
    <nd ref="310493171"/>
    <nd ref="310493172"/>
    <nd ref="423628472"/>
    <tag k="highway" v="motorway_link"/>
    <tag k="lanes" v="1"/>
    <tag k="name" v="Waterfall Way"/>
    <tag k="oneway" v="yes"/>
    <tag k="ref" v="S78"/>
    <tag k="source" v="survey"/>
    <tag k="surface" v="paved"/>
  </way>
  <way id="34951115" version="4" timestamp="2010-07-16T05:58:58Z" uid="4467" user="Rosscoe" changeset="5232168">
    <nd ref="310493156"/>
    <nd ref="310493168"/>
    <nd ref="310493171"/>
    <nd ref="423628472"/>
    <tag k="highway" v="motorway_link"/>
    <tag k="lanes" v="1"/>
    <tag k="name" v="Waterfall Way"/>
    <tag k="oneway" v="yes"/>
    <tag k="ref" v="S78"/>
    <tag k="source" v="survey"/>
    <tag k="surface" v="paved"/>
  </way>
  <way id="34951115" version="5" timestamp="2010-09-01T09:20:26Z" uid="299678" user="peteramjet" changeset="5652363">
    <nd ref="310493156"/>
    <nd ref="310493168"/>
    <nd ref="310493171"/>
    <nd ref="423628472"/>
    <tag k="highway" v="motorway_link"/>
    <tag k="lanes" v="1"/>
    <tag k="name" v="Waterfall Way"/>
    <tag k="oneway" v="yes"/>
    <tag k="source" v="survey"/>
    <tag k="surface" v="paved"/>
  </way>
  <way id="34951115" version="6" timestamp="2011-01-27T08:04:45Z" uid="4467" user="Rosscoe" changeset="7100928"/>
  <way id="34951116" version="2" timestamp="2009-08-08T23:58:57Z" uid="4467" user="Rosscoe" changeset="2080580"/>
  <way id="34951118" version="2" timestamp="2009-08-08T23:58:57Z" uid="4467" user="Rosscoe" changeset="2080580"/>
  <way id="34951119" version="3" timestamp="2009-08-10T01:39:27Z" uid="4467" user="Rosscoe" changeset="2092274">
    <nd ref="295230155"/>
    <nd ref="410166648"/>
    <nd ref="410166649"/>
    <nd ref="410166650"/>
    <nd ref="410166651"/>
    <tag k="highway" v="residential"/>
    <tag k="maxspeed" v="50"/>
    <tag k="name" v="Walter Street"/>
    <tag k="source" v="survey"/>
    <tag k="surface" v="paved"/>
  </way>
  <way id="34951168" version="2" timestamp="2009-08-09T12:46:23Z" uid="4467" user="Rosscoe" changeset="2085146">
    <nd ref="410167090"/>
    <nd ref="410167091"/>
    <nd ref="410167092"/>
    <nd ref="410167093"/>
    <nd ref="410167094"/>
    <nd ref="410167095"/>
    <nd ref="410167096"/>
    <nd ref="410167097"/>
    <nd ref="410167099"/>
    <nd ref="410167100"/>
    <tag k="highway" v="track"/>
    <tag k="name" v="Old Ferry Road"/>
    <tag k="source" v="survey"/>
    <tag k="surface" v="unpaved"/>
    <tag k="tracktype" v="grade2"/>
  </way>
  <way id="34951235" version="2" timestamp="2009-08-08T23:58:45Z" uid="4467" user="Rosscoe" changeset="2080580">
    <nd ref="410167604"/>
    <nd ref="410167605"/>
    <nd ref="410167606"/>
    <tag k="railway" v="rail"/>
    <tag k="source" v="extrapolation"/>
  </way>
  <way id="34951299" version="4" timestamp="2009-08-10T01:39:24Z" uid="4467" user="Rosscoe" changeset="2092274">
    <nd ref="295228566"/>
    <nd ref="410168311"/>
    <nd ref="410168314"/>
    <nd ref="410168317"/>
    <nd ref="410168333"/>
    <nd ref="410168336"/>
    <nd ref="410168341"/>
    <nd ref="410168344"/>
    <nd ref="410168347"/>
    <nd ref="410168352"/>
    <nd ref="410167605"/>
    <nd ref="410168356"/>
    <nd ref="410168360"/>
    <nd ref="410168365"/>
    <nd ref="410168372"/>
    <tag k="highway" v="residential"/>
    <tag k="maxspeed" v="50"/>
    <tag k="name" v="Gurney Street"/>
    <tag k="source" v="survey"/>
    <tag k="surface" v="paved"/>
  </way>
  <way id="34951316" version="4" timestamp="2010-03-22T06:30:30Z" uid="20587" user="balrog-kun" changeset="4199043">
    <nd ref="410168927"/>
    <nd ref="39950468"/>
    <tag k="bridge" v="yes"/>
    <tag k="created_by" v="Potlatch 0.10b"/>
    <tag k="highway" v="primary"/>
    <tag k="layer" v="1"/>
    <tag k="name" v="Southwest Pacific Coast Highway"/>
    <tag k="name_1" v="United States Highway 101"/>
    <tag k="name_2" v="United States Highway 101  North"/>
    <tag k="name_3" v="Oregon Coast Highway"/>
    <tag k="ref" v="US 101"/>
    <tag k="tiger:cfcc" v="A21"/>
    <tag k="tiger:county" v="Lincoln, OR"/>
    <tag k="tiger:name_base" v="Pacific Coast"/>
    <tag k="tiger:name_base_1" v="United States Highway 101"/>
    <tag k="tiger:name_base_2" v="United States Highway 101"/>
    <tag k="tiger:name_base_3" v="Oregon Coast"/>
    <tag k="tiger:name_direction_prefix" v="SW"/>
    <tag k="tiger:name_direction_suffix_2" v="N"/>
    <tag k="tiger:name_type" v="Hwy"/>
    <tag k="tiger:name_type_3" v="Hwy"/>
    <tag k="tiger:reviewed" v="no"/>
    <tag k="tiger:separated" v="no"/>
    <tag k="tiger:source" v="tiger_import_dch_v0.6_20070808"/>
    <tag k="tiger:tlid" v="155934012"/>
  </way>
  <way id="34951316" version="5" timestamp="2011-06-15T12:34:51Z" uid="207745" user="NE2" changeset="8446347">
    <nd ref="410168927"/>
    <nd ref="39950468"/>
    <tag k="bridge" v="yes"/>
    <tag k="highway" v="primary"/>
    <tag k="layer" v="1"/>
    <tag k="name" v="Southwest Pacific Coast Highway"/>
    <tag k="name_1" v="Oregon Coast Highway"/>
    <tag k="ref" v="US 101"/>
    <tag k="tiger:cfcc" v="A21"/>
    <tag k="tiger:county" v="Lincoln, OR"/>
    <tag k="tiger:name_base" v="Pacific Coast"/>
    <tag k="tiger:name_base_1" v="United States Highway 101"/>
    <tag k="tiger:name_base_2" v="United States Highway 101"/>
    <tag k="tiger:name_base_3" v="Oregon Coast"/>
    <tag k="tiger:name_direction_prefix" v="SW"/>
    <tag k="tiger:name_direction_suffix_2" v="N"/>
    <tag k="tiger:name_type" v="Hwy"/>
    <tag k="tiger:name_type_3" v="Hwy"/>
    <tag k="tiger:reviewed" v="no"/>
    <tag k="tiger:separated" v="no"/>
    <tag k="tiger:source" v="tiger_import_dch_v0.6_20070808"/>
    <tag k="tiger:tlid" v="155934012"/>
  </way>
  <way id="34951316" version="6" timestamp="2011-06-26T17:22:26Z" uid="473471" user="NE3" changeset="8553918">
    <nd ref="410168927"/>
    <nd ref="39950468"/>
    <tag k="bridge" v="yes"/>
    <tag k="highway" v="primary"/>
    <tag k="lanes" v="2"/>
    <tag k="layer" v="1"/>
    <tag k="name" v="Southwest Pacific Coast Highway"/>
    <tag k="name_1" v="Oregon Coast Highway"/>
    <tag k="ref" v="US 101"/>
    <tag k="tiger:cfcc" v="A21"/>
    <tag k="tiger:county" v="Lincoln, OR"/>
    <tag k="tiger:name_base" v="Pacific Coast"/>
    <tag k="tiger:name_base_1" v="United States Highway 101"/>
    <tag k="tiger:name_base_2" v="United States Highway 101"/>
    <tag k="tiger:name_base_3" v="Oregon Coast"/>
    <tag k="tiger:name_direction_prefix" v="SW"/>
    <tag k="tiger:name_direction_suffix_2" v="N"/>
    <tag k="tiger:name_type" v="Hwy"/>
    <tag k="tiger:name_type_3" v="Hwy"/>
    <tag k="tiger:reviewed" v="no"/>
    <tag k="tiger:separated" v="no"/>
    <tag k="tiger:source" v="tiger_import_dch_v0.6_20070808"/>
    <tag k="tiger:tlid" v="155934012"/>
  </way>
  <way id="34951316" version="7" timestamp="2011-07-06T23:36:19Z" uid="473471" user="NE3" changeset="8653193">
    <nd ref="410168927"/>
    <nd ref="39950468"/>
    <tag k="NHS" v="STRAHNET"/>
    <tag k="bridge" v="yes"/>
    <tag k="highway" v="primary"/>
    <tag k="lanes" v="2"/>
    <tag k="layer" v="1"/>
    <tag k="name" v="Southwest Pacific Coast Highway"/>
    <tag k="name_1" v="Oregon Coast Highway"/>
    <tag k="ref" v="US 101"/>
    <tag k="tiger:cfcc" v="A21"/>
    <tag k="tiger:county" v="Lincoln, OR"/>
    <tag k="tiger:name_base" v="Pacific Coast"/>
    <tag k="tiger:name_base_1" v="United States Highway 101"/>
    <tag k="tiger:name_base_2" v="United States Highway 101"/>
    <tag k="tiger:name_base_3" v="Oregon Coast"/>
    <tag k="tiger:name_direction_prefix" v="SW"/>
    <tag k="tiger:name_direction_suffix_2" v="N"/>
    <tag k="tiger:name_type" v="Hwy"/>
    <tag k="tiger:name_type_3" v="Hwy"/>
    <tag k="tiger:reviewed" v="no"/>
    <tag k="tiger:separated" v="no"/>
    <tag k="tiger:source" v="tiger_import_dch_v0.6_20070808"/>
    <tag k="tiger:tlid" v="155934012"/>
  </way>
  <way id="34951322" version="2" timestamp="2009-08-08T23:58:43Z" uid="4467" user="Rosscoe" changeset="2080580">
    <nd ref="295232069"/>
    <nd ref="295228626"/>
    <tag k="highway" v="primary"/>
    <tag k="name" v="Keevers Drive"/>
    <tag k="ref" v="T18"/>
    <tag k="source" v="survey"/>
  </way>
  <way id="34951322" version="3" timestamp="2010-07-21T02:18:24Z" uid="299678" user="peteramjet" changeset="5275613">
    <nd ref="295232069"/>
    <nd ref="827102869"/>
    <nd ref="295228626"/>
    <tag k="highway" v="primary"/>
    <tag k="name" v="Keevers Drive"/>
    <tag k="source" v="survey"/>
  </way>
  <way id="34951327" version="2" timestamp="2009-06-01T22:36:55Z" uid="34428" user="usm78-gis" changeset="1399520">
    <nd ref="409515282"/>
    <nd ref="410169219"/>
    <nd ref="410169220"/>
    <nd ref="410169221"/>
    <nd ref="410169222"/>
    <nd ref="410169223"/>
    <nd ref="410169224"/>
    <nd ref="410169225"/>
    <nd ref="410169226"/>
    <nd ref="410169227"/>
    <tag k="highway" v="service"/>
  </way>
  <way id="34951327" version="3" timestamp="2009-06-01T22:37:04Z" uid="34428" user="usm78-gis" changeset="1399520">
    <nd ref="409515282"/>
    <nd ref="410169219"/>
    <nd ref="410169220"/>
    <nd ref="410169221"/>
    <nd ref="410169222"/>
    <tag k="highway" v="service"/>
  </way>
  <way id="34951331" version="2" timestamp="2009-06-01T22:36:34Z" uid="34428" user="usm78-gis" changeset="1399520">
    <nd ref="414267546"/>
    <nd ref="410169233"/>
    <nd ref="410169234"/>
    <nd ref="409701240"/>
    <tag k="highway" v="residential"/>
  </way>
  <way id="34951331" version="3" timestamp="2009-06-05T00:36:24Z" uid="126902" user="garniv" changeset="1425515">
    <nd ref="414267546"/>
    <nd ref="410169233"/>
    <nd ref="410169234"/>
    <nd ref="409701240"/>
    <tag k="highway" v="residential"/>
    <tag k="name" v="Детская"/>
  </way>
  <way id="34951331" version="4" timestamp="2009-10-24T16:59:28Z" uid="30590" user="KekcuHa" changeset="2939775">
    <nd ref="414267546"/>
    <nd ref="410169233"/>
    <nd ref="410169234"/>
    <nd ref="409701240"/>
    <tag k="addr:postcode" v="188517"/>
    <tag k="cladr:code" v="47012000011000100"/>
    <tag k="cladr:name" v="Детская"/>
    <tag k="cladr:suffix" v="Улица"/>
    <tag k="highway" v="residential"/>
    <tag k="name" v="Детская"/>
  </way>
  <way id="34951331" version="5" timestamp="2011-06-15T01:27:15Z" uid="133332" user="AMDmi3" changeset="8443485">
    <nd ref="414267546"/>
    <nd ref="410169233"/>
    <nd ref="410169234"/>
    <nd ref="409701240"/>
    <tag k="addr:postcode" v="188517"/>
    <tag k="cladr:code" v="47012000011000100"/>
    <tag k="cladr:name" v="Детская"/>
    <tag k="cladr:suffix" v="Улица"/>
    <tag k="highway" v="residential"/>
    <tag k="name" v="Детская улица"/>
  </way>
  <way id="34951331" version="6" timestamp="2011-09-27T21:42:54Z" uid="143266" user="Sergey Astakhov" changeset="9415123">
    <nd ref="414267546"/>
    <nd ref="410169233"/>
    <nd ref="410169234"/>
    <nd ref="409701240"/>
    <tag k="addr:postcode" v="188517"/>
    <tag k="highway" v="residential"/>
    <tag k="name" v="Детская улица"/>
  </way>
  <way id="34951424" version="2" timestamp="2009-08-10T01:39:56Z" uid="4467" user="Rosscoe" changeset="2092274"/>
  <way id="34951443" version="3" timestamp="2009-08-10T01:39:56Z" uid="4467" user="Rosscoe" changeset="2092274"/>
  <way id="34951448" version="2" timestamp="2009-07-26T09:13:58Z" uid="74617" user="JohnSmith" changeset="1942315">
    <nd ref="295231957"/>
    <nd ref="295232060"/>
    <nd ref="295232002"/>
    <nd ref="295231960"/>
    <nd ref="295231961"/>
    <nd ref="295232003"/>
    <nd ref="295231964"/>
    <nd ref="295232061"/>
    <nd ref="295232005"/>
    <nd ref="295231967"/>
    <nd ref="295231968"/>
    <nd ref="295232006"/>
    <nd ref="295231970"/>
    <nd ref="295231971"/>
    <nd ref="295232007"/>
    <nd ref="295232062"/>
    <nd ref="295231974"/>
    <nd ref="295232009"/>
    <nd ref="295231976"/>
    <nd ref="295231977"/>
    <nd ref="295232010"/>
    <nd ref="295232063"/>
    <nd ref="295231980"/>
    <nd ref="295232012"/>
    <nd ref="295232064"/>
    <nd ref="295231983"/>
    <nd ref="295231984"/>
    <nd ref="295232065"/>
    <nd ref="295231986"/>
    <tag k="highway" v="primary"/>
    <tag k="name" v="Old Pacific Highway"/>
    <tag k="oneway" v="no"/>
    <tag k="surface" v="paved"/>
  </way>
  <way id="34951448" version="3" timestamp="2009-08-10T01:39:56Z" uid="4467" user="Rosscoe" changeset="2092274"/>
  <way id="34951463" version="5" timestamp="2009-08-10T02:12:56Z" uid="4467" user="Rosscoe" changeset="2092346"/>
  <way id="34951486" version="6" timestamp="2011-01-27T08:04:44Z" uid="4467" user="Rosscoe" changeset="7100928">
    <nd ref="130032097"/>
    <nd ref="207681818"/>
    <nd ref="207681823"/>
    <nd ref="1123131558"/>
    <nd ref="207681828"/>
    <nd ref="207681835"/>
    <nd ref="207681844"/>
    <tag k="highway" v="motorway_link"/>
    <tag k="lanes" v="1"/>
    <tag k="name" v="Waterfall Way"/>
    <tag k="oneway" v="yes"/>
    <tag k="source" v="survey"/>
    <tag k="surface" v="paved"/>
  </way>
  <way id="34951486" version="7" timestamp="2011-01-27T08:05:06Z" uid="4467" user="Rosscoe" changeset="7100932"/>
  <way id="34951488" version="3" timestamp="2010-03-22T06:30:30Z" uid="20587" user="balrog-kun" changeset="4199043">
    <nd ref="410170625"/>
    <nd ref="39919559"/>
    <tag k="bridge" v="yes"/>
    <tag k="created_by" v="Potlatch 0.10b"/>
    <tag k="highway" v="primary"/>
    <tag k="layer" v="1"/>
    <tag k="name" v="United States Highway 101  South"/>
    <tag k="name_1" v="Oregon Coast Highway"/>
    <tag k="ref" v="US 101"/>
    <tag k="tiger:cfcc" v="A21"/>
    <tag k="tiger:county" v="Lincoln, OR"/>
    <tag k="tiger:name_base" v="United States Highway 101"/>
    <tag k="tiger:name_base_1" v="Oregon Coast"/>
    <tag k="tiger:name_direction_suffix" v="S"/>
    <tag k="tiger:name_type_1" v="Hwy"/>
    <tag k="tiger:reviewed" v="no"/>
    <tag k="tiger:separated" v="no"/>
    <tag k="tiger:source" v="tiger_import_dch_v0.6_20070808"/>
    <tag k="tiger:tlid" v="155934135:155953860:155953859:155954908:155953491:155934477:155953492:155958637:155958638:155934219:155958606:155958607:155953497"/>
  </way>
  <way id="34951488" version="4" timestamp="2011-06-15T12:14:25Z" uid="207745" user="NE2" changeset="8446347">
    <nd ref="410170625"/>
    <nd ref="39919559"/>
    <tag k="bridge" v="yes"/>
    <tag k="highway" v="primary"/>
    <tag k="layer" v="1"/>
    <tag k="name" v="Oregon Coast Highway"/>
    <tag k="ref" v="US 101"/>
    <tag k="tiger:cfcc" v="A21"/>
    <tag k="tiger:county" v="Lincoln, OR"/>
    <tag k="tiger:name_base" v="United States Highway 101"/>
    <tag k="tiger:name_base_1" v="Oregon Coast"/>
    <tag k="tiger:name_direction_suffix" v="S"/>
    <tag k="tiger:name_type_1" v="Hwy"/>
    <tag k="tiger:reviewed" v="no"/>
    <tag k="tiger:separated" v="no"/>
    <tag k="tiger:source" v="tiger_import_dch_v0.6_20070808"/>
    <tag k="tiger:tlid" v="155934135:155953860:155953859:155954908:155953491:155934477:155953492:155958637:155958638:155934219:155958606:155958607:155953497"/>
  </way>
  <way id="34951488" version="5" timestamp="2011-06-26T17:24:07Z" uid="473471" user="NE3" changeset="8553918">
    <nd ref="410170625"/>
    <nd ref="39919559"/>
    <tag k="bridge" v="yes"/>
    <tag k="highway" v="primary"/>
    <tag k="lanes" v="2"/>
    <tag k="layer" v="1"/>
    <tag k="name" v="Oregon Coast Highway"/>
    <tag k="ref" v="US 101"/>
    <tag k="tiger:cfcc" v="A21"/>
    <tag k="tiger:county" v="Lincoln, OR"/>
    <tag k="tiger:name_base" v="United States Highway 101"/>
    <tag k="tiger:name_base_1" v="Oregon Coast"/>
    <tag k="tiger:name_direction_suffix" v="S"/>
    <tag k="tiger:name_type_1" v="Hwy"/>
    <tag k="tiger:reviewed" v="no"/>
    <tag k="tiger:separated" v="no"/>
    <tag k="tiger:source" v="tiger_import_dch_v0.6_20070808"/>
    <tag k="tiger:tlid" v="155934135:155953860:155953859:155954908:155953491:155934477:155953492:155958637:155958638:155934219:155958606:155958607:155953497"/>
  </way>
  <way id="34951488" version="6" timestamp="2011-07-06T23:22:56Z" uid="473471" user="NE3" changeset="8653193">
    <nd ref="410170625"/>
    <nd ref="39919559"/>
    <tag k="NHS" v="STRAHNET"/>
    <tag k="bridge" v="yes"/>
    <tag k="highway" v="primary"/>
    <tag k="lanes" v="2"/>
    <tag k="layer" v="1"/>
    <tag k="name" v="Oregon Coast Highway"/>
    <tag k="ref" v="US 101"/>
    <tag k="tiger:cfcc" v="A21"/>
    <tag k="tiger:county" v="Lincoln, OR"/>
    <tag k="tiger:name_base" v="United States Highway 101"/>
    <tag k="tiger:name_base_1" v="Oregon Coast"/>
    <tag k="tiger:name_direction_suffix" v="S"/>
    <tag k="tiger:name_type_1" v="Hwy"/>
    <tag k="tiger:reviewed" v="no"/>
    <tag k="tiger:separated" v="no"/>
    <tag k="tiger:source" v="tiger_import_dch_v0.6_20070808"/>
    <tag k="tiger:tlid" v="155934135:155953860:155953859:155954908:155953491:155934477:155953492:155958637:155958638:155934219:155958606:155958607:155953497"/>
  </way>
  <way id="34951611" version="5" timestamp="2011-05-11T23:54:54Z" uid="20587" user="balrog-kun" changeset="8117662">
    <nd ref="410172759"/>
    <nd ref="701582945"/>
    <nd ref="410172760"/>
    <nd ref="410172761"/>
    <nd ref="410172762"/>
    <nd ref="410172763"/>
    <nd ref="701584122"/>
    <nd ref="410172764"/>
    <nd ref="410172765"/>
    <nd ref="410172766"/>
    <nd ref="410172767"/>
    <nd ref="410172768"/>
    <nd ref="410172769"/>
    <nd ref="410172770"/>
    <nd ref="410172771"/>
    <nd ref="410172772"/>
    <nd ref="410172773"/>
    <nd ref="410172774"/>
    <nd ref="410172775"/>
    <nd ref="410172776"/>
    <nd ref="410172777"/>
    <nd ref="410172778"/>
    <nd ref="410172779"/>
    <nd ref="410172780"/>
    <nd ref="410172781"/>
    <nd ref="410172782"/>
    <nd ref="410172783"/>
    <nd ref="410172784"/>
    <nd ref="410172785"/>
    <nd ref="410172786"/>
    <nd ref="410172787"/>
    <nd ref="410172788"/>
    <nd ref="410172789"/>
    <nd ref="410172790"/>
    <tag k="highway" v="residential"/>
  </way>
  <way id="34951110" version="10" timestamp="2012-07-19T14:45:49Z" uid="722137" user="OSMF Redaction Account" changeset="12331963">
    <nd ref="310493150"/>
    <nd ref="295231957"/>
    <tag k="highway" v="primary"/>
    <tag k="name" v="Waterfall Way"/>
    <tag k="source" v="survey"/>
    <tag k="surface" v="asphalt"/>
  </way>
  <way id="34951110" version="11" timestamp="2012-07-22T07:39:15Z" uid="67896" user="mrpulley" changeset="12427269">
    <nd ref="310493150"/>
    <nd ref="1833862504"/>
    <nd ref="295231957"/>
    <tag k="highway" v="primary"/>
    <tag k="name" v="Waterfall Way"/>
    <tag k="ref" v="S78"/>
    <tag k="source" v="survey"/>
    <tag k="surface" v="asphalt"/>
  </way>
  <way id="34951110" version="12" timestamp="2012-07-31T10:47:16Z" uid="67896" user="mrpulley" changeset="12559203">
    <nd ref="310493150"/>
    <nd ref="1833862504"/>
    <nd ref="295231957"/>
    <tag k="highway" v="primary"/>
    <tag k="name" v="Waterfall Way"/>
    <tag k="network" v="S"/>
    <tag k="ref" v="78"/>
    <tag k="source" v="survey"/>
    <tag k="surface" v="asphalt"/>
  </way>
  <way id="34951111" version="8" timestamp="2012-07-19T14:45:50Z" uid="722137" user="OSMF Redaction Account" changeset="12331963">
    <nd ref="310493143"/>
    <nd ref="310493513"/>
    <tag k="highway" v="primary"/>
    <tag k="source" v="survey"/>
    <tag k="surface" v="asphalt"/>
  </way>
  <way id="34951111" version="9" timestamp="2012-07-22T07:39:02Z" uid="67896" user="mrpulley" changeset="12427269">
    <nd ref="310493143"/>
    <nd ref="310493513"/>
    <tag k="highway" v="primary"/>
    <tag k="name" v="Waterfall Way"/>
    <tag k="ref" v="S78"/>
    <tag k="source" v="survey"/>
    <tag k="surface" v="asphalt"/>
  </way>
  <way id="34951111" version="10" timestamp="2012-07-31T10:47:08Z" uid="67896" user="mrpulley" changeset="12559203">
    <nd ref="310493143"/>
    <nd ref="310493513"/>
    <tag k="highway" v="primary"/>
    <tag k="name" v="Waterfall Way"/>
    <tag k="network" v="S"/>
    <tag k="ref" v="78"/>
    <tag k="source" v="survey"/>
    <tag k="surface" v="asphalt"/>
  </way>
  <way id="34951113" version="7" timestamp="2012-07-19T14:45:51Z" uid="722137" user="OSMF Redaction Account" changeset="12331963">
    <nd ref="207681795"/>
    <nd ref="130032097"/>
    <tag k="highway" v="motorway_link"/>
    <tag k="lanes" v="1"/>
    <tag k="name" v="Waterfall Way"/>
    <tag k="oneway" v="no"/>
    <tag k="source" v="survey"/>
    <tag k="surface" v="paved"/>
  </way>
  <way id="34951113" version="8" timestamp="2012-07-22T07:39:32Z" uid="67896" user="mrpulley" changeset="12427269">
    <nd ref="310493139"/>
    <nd ref="207681795"/>
    <nd ref="130032097"/>
    <nd ref="207681818"/>
    <nd ref="207681823"/>
    <nd ref="1833862525"/>
    <nd ref="1833862523"/>
    <nd ref="207681828"/>
    <nd ref="207681835"/>
    <nd ref="1833862514"/>
    <tag k="highway" v="motorway_link"/>
    <tag k="lanes" v="1"/>
    <tag k="oneway" v="yes"/>
    <tag k="source" v="Bing"/>
    <tag k="surface" v="asphalt"/>
  </way>
  <way id="34951119" version="4" timestamp="2012-07-19T14:46:00Z" uid="722137" user="OSMF Redaction Account" changeset="12331963">
    <nd ref="295230155"/>
    <nd ref="410166648"/>
    <nd ref="410166649"/>
    <nd ref="410166650"/>
    <nd ref="410166651"/>
    <tag k="highway" v="residential"/>
    <tag k="maxspeed" v="50"/>
    <tag k="name" v="Walter Street"/>
    <tag k="source" v="GPS"/>
    <tag k="surface" v="paved"/>
  </way>
  <way id="34951168" version="3" timestamp="2012-07-19T14:46:00Z" uid="722137" user="OSMF Redaction Account" changeset="12331963">
    <nd ref="410167090"/>
    <nd ref="410167091"/>
    <nd ref="410167092"/>
    <nd ref="410167093"/>
    <nd ref="410167094"/>
    <nd ref="410167095"/>
    <nd ref="410167096"/>
    <nd ref="410167097"/>
    <nd ref="410167099"/>
    <nd ref="410167100"/>
    <tag k="highway" v="track"/>
    <tag k="name" v="Old Ferry Road"/>
    <tag k="source" v="GPS"/>
    <tag k="surface" v="unpaved"/>
    <tag k="tracktype" v="grade2"/>
  </way>
  <way id="34951299" version="5" timestamp="2012-07-19T14:45:57Z" uid="722137" user="OSMF Redaction Account" changeset="12331963">
    <nd ref="295228566"/>
    <nd ref="410168311"/>
    <nd ref="410168314"/>
    <nd ref="410168317"/>
    <nd ref="410168333"/>
    <nd ref="410168336"/>
    <nd ref="410168341"/>
    <nd ref="410168344"/>
    <nd ref="410168347"/>
    <nd ref="410168352"/>
    <nd ref="410167605"/>
    <nd ref="410168356"/>
    <nd ref="410168360"/>
    <nd ref="410168365"/>
    <nd ref="410168372"/>
    <tag k="highway" v="residential"/>
    <tag k="maxspeed" v="50"/>
    <tag k="name" v="Gurney Street"/>
    <tag k="source" v="GPS"/>
    <tag k="surface" v="paved"/>
  </way>
  <way id="34951327" version="4" timestamp="2012-07-23T13:55:34Z" uid="700550" user="EIjas" changeset="12450943">
    <nd ref="409701238"/>
    <nd ref="409515282"/>
    <nd ref="410169219"/>
    <nd ref="410169220"/>
    <nd ref="410169221"/>
    <nd ref="410169222"/>
    <tag k="highway" v="service"/>
  </way>
  <way id="34951331" version="7" timestamp="2012-06-25T12:54:29Z" uid="700550" user="EIjas" changeset="12011102">
    <nd ref="414267546"/>
    <nd ref="410169233"/>
    <nd ref="410169234"/>
    <nd ref="409701240"/>
    <tag k="highway" v="service"/>
    <tag k="living_street" v="yes"/>
  </way>
  <way id="34951331" version="8" timestamp="2012-07-20T11:57:59Z" uid="722137" user="OSMF Redaction Account" changeset="12374618">
    <nd ref="410169233"/>
    <nd ref="410169234"/>
    <nd ref="409701240"/>
    <tag k="highway" v="service"/>
    <tag k="living_street" v="yes"/>
  </way>
  <way id="34951331" version="9" timestamp="2012-07-24T14:49:33Z" uid="539987" user="Cd_spb" changeset="12468380">
    <nd ref="409701238"/>
    <nd ref="414267546"/>
    <nd ref="410169233"/>
    <nd ref="410169234"/>
    <nd ref="409701240"/>
    <tag k="highway" v="service"/>
    <tag k="living_street" v="yes"/>
  </way>
</osm>
