<?xml version='1.0' encoding='UTF-8'?>
<osm version="0.6" generator="libosmium/2.20.0">
  <way id="35017119" version="3" timestamp="2009-12-09T02:06:28Z" uid="200463" user="harmagedon" changeset="3330540">
    <nd ref="326119318"/>
    <nd ref="326119360"/>
    <nd ref="326119365"/>
    <nd ref="326119287"/>
    <nd ref="326119373"/>
    <nd ref="326119381"/>
    <nd ref="326119389"/>
    <nd ref="326119396"/>
    <nd ref="326119402"/>
    <nd ref="326119409"/>
    <tag k="addr:postcode" v="5280"/>
    <tag k="at:maxspeed" v="Ortsgebiet"/>
    <tag k="fixme" v="check import"/>
    <tag k="highway" v="residential"/>
    <tag k="is_in" v="...,Bezirk Braunau,Oberösterreich,Österreich,Europa"/>
    <tag k="name" v="Pfalzstraße"/>
    <tag k="note" v="imported from plan.at; (C)=CC-by-sa or oDBL; feel free to change if necessary"/>
    <tag k="plan_at:acad_id" v="br1531B"/>
    <tag k="source" v="plan.at 2009"/>
  </way>
  <way id="35017119" version="4" timestamp="2010-04-25T20:18:11Z" uid="274952" user="marvin_s" changeset="4526073">
    <nd ref="326119318"/>
    <nd ref="326119360"/>
    <nd ref="326119365"/>
    <nd ref="326119287"/>
    <nd ref="326119373"/>
    <nd ref="326119381"/>
    <nd ref="326119389"/>
    <nd ref="326119396"/>
    <nd ref="326119402"/>
    <nd ref="326119409"/>
    <tag k="addr:postcode" v="5280"/>
    <tag k="at:maxspeed" v="30"/>
    <tag k="fixme" v="check import"/>
    <tag k="highway" v="residential"/>
    <tag k="is_in" v="...,Bezirk Braunau,Oberösterreich,Österreich,Europa"/>
    <tag k="name" v="Pfalzstraße"/>
    <tag k="note" v="imported from plan.at; (C)=CC-by-sa or oDBL; feel free to change if necessary"/>
    <tag k="plan_at:acad_id" v="br1531B"/>
    <tag k="source" v="plan.at 2009"/>
  </way>
  <way id="35017119" version="5" timestamp="2011-03-19T13:04:53Z" uid="99800" user="wolfbert" changeset="7604605">
    <nd ref="326119318"/>
    <nd ref="326119360"/>
    <nd ref="326119365"/>
    <nd ref="326119287"/>
    <nd ref="326119373"/>
    <nd ref="326119381"/>
    <nd ref="326119389"/>
    <nd ref="326119396"/>
    <nd ref="326119402"/>
    <nd ref="326119409"/>
    <tag k="addr:postcode" v="5280"/>
    <tag k="fixme" v="check import"/>
    <tag k="highway" v="residential"/>
    <tag k="is_in" v="...,Bezirk Braunau,Oberösterreich,Österreich,Europa"/>
    <tag k="maxspeed" v="30"/>
    <tag k="name" v="Pfalzstraße"/>
    <tag k="source" v="plan.at 2009"/>
  </way>
  <way id="35017119" version="6" timestamp="2011-03-21T19:06:03Z" uid="234764" user="m5st" changeset="7630637">
    <nd ref="326119318"/>
    <nd ref="326119360"/>
    <nd ref="326119365"/>
    <nd ref="326119287"/>
    <nd ref="326119373"/>
    <nd ref="326119381"/>
    <nd ref="326119389"/>
    <nd ref="326119396"/>
    <nd ref="326119402"/>
    <nd ref="326119409"/>
    <tag k="addr:postcode" v="5280"/>
    <tag k="highway" v="residential"/>
    <tag k="is_in" v="...,Bezirk Braunau,Oberösterreich,Österreich,Europa"/>
    <tag k="maxspeed" v="30"/>
    <tag k="name" v="Pfalzstraße"/>
    <tag k="source" v="plan.at 2009"/>
  </way>
  <way id="35017119" version="7" timestamp="2011-04-20T18:43:21Z" uid="45347" user="eriosw" changeset="7918926">
    <nd ref="326119318"/>
    <nd ref="326119360"/>
    <nd ref="326119365"/>
    <nd ref="326119287"/>
    <nd ref="326119373"/>
    <nd ref="326119381"/>
    <nd ref="326119389"/>
    <nd ref="326119396"/>
    <nd ref="326119402"/>
    <nd ref="326119409"/>
    <tag k="addr:postcode" v="5280"/>
    <tag k="highway" v="residential"/>
    <tag k="is_in" v="Braunau am Inn,Braunau am Inn,Oberösterreich,Österreich,Europe"/>
    <tag k="maxspeed" v="30"/>
    <tag k="name" v="Pfalzstraße"/>
    <tag k="source" v="plan.at 2009"/>
  </way>
  <way id="35017119" version="8" timestamp="2011-07-28T06:14:29Z" uid="491845" user="data_at" changeset="8851221">
    <nd ref="326119318"/>
    <nd ref="326119360"/>
    <nd ref="326119365"/>
    <nd ref="326119287"/>
    <nd ref="326119373"/>
    <nd ref="326119381"/>
    <nd ref="326119389"/>
    <nd ref="326119396"/>
    <nd ref="326119402"/>
    <nd ref="326119409"/>
    <tag k="highway" v="residential"/>
    <tag k="is_in" v="Braunau am Inn,Braunau am Inn,Oberösterreich,Österreich,Europe"/>
    <tag k="maxspeed" v="30"/>
    <tag k="name" v="Pfalzstraße"/>
    <tag k="source" v="plan.at 2009"/>
  </way>
  <way id="35017119" version="9" timestamp="2011-09-05T12:37:36Z" uid="443072" user="louis14" changeset="9217329">
    <nd ref="326119318"/>
    <nd ref="326119360"/>
    <nd ref="326119287"/>
    <nd ref="326119381"/>
    <nd ref="326119396"/>
    <nd ref="326119409"/>
    <tag k="highway" v="residential"/>
    <tag k="maxspeed" v="30"/>
    <tag k="name" v="Pfalzstraße"/>
    <tag k="source" v="plan.at 2009"/>
  </way>
  <way id="35017119" version="10" timestamp="2011-09-05T12:48:39Z" uid="443072" user="louis14" changeset="9217419">
    <nd ref="326119318"/>
    <nd ref="326119360"/>
    <nd ref="326119287"/>
    <nd ref="1424006906"/>
    <nd ref="326119381"/>
    <nd ref="1424006904"/>
    <nd ref="326119396"/>
    <nd ref="326119409"/>
    <tag k="highway" v="residential"/>
    <tag k="maxspeed" v="30"/>
    <tag k="name" v="Pfalzstraße"/>
    <tag k="source" v="plan.at 2009"/>
  </way>
  <way id="35017135" version="2" timestamp="2010-04-05T15:55:22Z" uid="20587" user="balrog-kun" changeset="4334369">
    <nd ref="51193618"/>
    <nd ref="51193619"/>
    <nd ref="51193620"/>
    <nd ref="51193621"/>
    <nd ref="51193622"/>
    <nd ref="51193623"/>
    <nd ref="51193624"/>
    <nd ref="51193625"/>
    <nd ref="51193626"/>
    <nd ref="51193627"/>
    <nd ref="51193628"/>
    <nd ref="51183441"/>
    <tag k="highway" v="residential"/>
    <tag k="name" v="Weist Drive"/>
    <tag k="tiger:cfcc" v="A41"/>
    <tag k="tiger:county" v="Larimer, CO"/>
    <tag k="tiger:name_base" v="Weist"/>
    <tag k="tiger:name_type" v="Dr"/>
    <tag k="tiger:reviewed" v="no"/>
    <tag k="tiger:separated" v="no"/>
    <tag k="tiger:source" v="tiger_import_dch_v0.6_20070809"/>
    <tag k="tiger:tlid" v="188618101:188572901:188586448"/>
    <tag k="tiger:zip_left" v="80517"/>
  </way>
  <way id="35017236" version="1" timestamp="2009-05-24T19:56:50Z" uid="55964" user="Evan Sebire" changeset="1310651">
    <nd ref="410736004"/>
    <nd ref="410736013"/>
    <nd ref="410736015"/>
    <nd ref="410736017"/>
    <nd ref="410736019"/>
    <nd ref="410736021"/>
    <nd ref="410736023"/>
    <nd ref="410736025"/>
    <nd ref="410736027"/>
    <tag k="highway" v="footway"/>
  </way>
  <way id="35017236" version="2" timestamp="2009-08-23T20:38:56Z" uid="152809" user="GP4Flo" changeset="2236355">
    <nd ref="410736004"/>
    <nd ref="410736015"/>
    <nd ref="410736021"/>
    <nd ref="410736027"/>
    <tag k="highway" v="footway"/>
  </way>
  <way id="35017236" version="3" timestamp="2012-02-10T14:20:56Z" uid="125339" user="efred" changeset="10643780"/>
  <way id="35017237" version="1" timestamp="2009-05-24T19:56:50Z" uid="55964" user="Evan Sebire" changeset="1310651">
    <nd ref="410736027"/>
    <nd ref="410736031"/>
    <nd ref="410736033"/>
    <nd ref="410736035"/>
    <nd ref="410736037"/>
    <tag k="highway" v="service"/>
  </way>
  <way id="35017237" version="2" timestamp="2009-08-23T20:41:42Z" uid="152809" user="GP4Flo" changeset="2236355">
    <nd ref="410736027"/>
    <nd ref="410736033"/>
    <nd ref="410736037"/>
    <tag k="highway" v="service"/>
  </way>
  <way id="35017237" version="3" timestamp="2012-02-10T14:20:55Z" uid="125339" user="efred" changeset="10643780"/>
  <way id="35017595" version="4" timestamp="2010-01-22T21:24:04Z" uid="9581" user="Lobelt" changeset="3687155">
    <nd ref="410740204"/>
    <nd ref="410740205"/>
    <nd ref="410740207"/>
    <nd ref="410740209"/>
    <nd ref="410740211"/>
    <nd ref="410740204"/>
    <tag k="note" v="unvollständig"/>
    <tag k="source" v="landsat"/>
  </way>
  <way id="35017595" version="5" timestamp="2011-03-05T16:11:32Z" uid="184838" user="kg340" changeset="7464720">
    <nd ref="410740204"/>
    <nd ref="1187429000"/>
    <nd ref="410740205"/>
    <nd ref="410740207"/>
    <nd ref="410740209"/>
    <nd ref="410740211"/>
    <nd ref="410740204"/>
    <tag k="note" v="unvollständig"/>
    <tag k="source" v="landsat"/>
  </way>
  <way id="35017595" version="6" timestamp="2011-06-07T19:25:16Z" uid="313675" user="alphax" changeset="8373220">
    <nd ref="1315427844"/>
    <nd ref="1315427791"/>
    <nd ref="410740204"/>
    <nd ref="1315427903"/>
    <nd ref="1315427848"/>
    <nd ref="1315427796"/>
    <nd ref="1315427881"/>
    <nd ref="1315427827"/>
    <nd ref="1315427772"/>
    <nd ref="1315427857"/>
    <nd ref="1315427804"/>
    <nd ref="1315427889"/>
    <nd ref="1315427835"/>
    <nd ref="1315427779"/>
    <nd ref="1315427788"/>
    <nd ref="1315427789"/>
    <nd ref="1315427874"/>
    <nd ref="1315427821"/>
    <nd ref="1315427908"/>
    <nd ref="1315427853"/>
    <nd ref="1315427800"/>
    <nd ref="1315427885"/>
    <nd ref="1315427831"/>
    <nd ref="1315427775"/>
    <nd ref="1315427860"/>
    <nd ref="1315427807"/>
    <nd ref="1315427894"/>
    <nd ref="1315427839"/>
    <nd ref="1315427784"/>
    <nd ref="1315427868"/>
    <nd ref="1315427816"/>
    <nd ref="1315427847"/>
    <nd ref="1315427795"/>
    <nd ref="1315427879"/>
    <nd ref="1315427826"/>
    <nd ref="1315427770"/>
    <nd ref="1315427856"/>
    <nd ref="1315427803"/>
    <nd ref="1315427888"/>
    <nd ref="1315427834"/>
    <nd ref="1315427778"/>
    <nd ref="1315427863"/>
    <nd ref="1315427810"/>
    <nd ref="1315427896"/>
    <nd ref="1315427842"/>
    <nd ref="1315427787"/>
    <nd ref="1315427872"/>
    <nd ref="1315427873"/>
    <nd ref="1315427820"/>
    <nd ref="1315427907"/>
    <nd ref="1315427852"/>
    <nd ref="1315427799"/>
    <nd ref="1315427884"/>
    <nd ref="1315427830"/>
    <nd ref="1315427774"/>
    <nd ref="1315427859"/>
    <nd ref="1315427806"/>
    <nd ref="1315427893"/>
    <nd ref="1315427838"/>
    <nd ref="1315427783"/>
    <nd ref="1315427867"/>
    <nd ref="1315427815"/>
    <nd ref="1315427902"/>
    <nd ref="1315427870"/>
    <nd ref="1315427818"/>
    <nd ref="1315427905"/>
    <nd ref="1315427850"/>
    <nd ref="1315427798"/>
    <nd ref="1315427883"/>
    <nd ref="1315427829"/>
    <nd ref="1315427773"/>
    <nd ref="1315427858"/>
    <nd ref="1315427805"/>
    <nd ref="1315427891"/>
    <nd ref="1315427836"/>
    <nd ref="1315427781"/>
    <nd ref="1315427865"/>
    <nd ref="1315427811"/>
    <nd ref="1315427897"/>
    <nd ref="1315427900"/>
    <nd ref="1315427845"/>
    <nd ref="1315427792"/>
    <nd ref="1315427876"/>
    <nd ref="1315427823"/>
    <nd ref="1315427768"/>
    <nd ref="410740209"/>
    <nd ref="1315427782"/>
    <tag k="source" v="bing"/>
  </way>
  <way id="35017595" version="7" timestamp="2011-08-04T07:07:07Z" uid="195713" user="_torsten_" changeset="8916573"/>
  <way id="35017767" version="6" timestamp="2010-04-07T18:30:57Z" uid="20587" user="balrog-kun" changeset="4355872">
    <nd ref="134168124"/>
    <nd ref="134114850"/>
    <nd ref="134038088"/>
    <nd ref="134177214"/>
    <nd ref="134177217"/>
    <nd ref="134177221"/>
    <nd ref="134177224"/>
    <nd ref="134177227"/>
    <nd ref="133907360"/>
    <nd ref="133913521"/>
    <nd ref="133937284"/>
    <tag k="highway" v="primary"/>
    <tag k="name" v="L Street"/>
    <tag k="name_1" v="State Highway 92"/>
    <tag k="name_2" v="United States Highway 275"/>
    <tag k="ref" v="US 275"/>
    <tag k="tiger:cfcc" v="A21"/>
    <tag k="tiger:county" v="Douglas, NE"/>
    <tag k="tiger:name_base" v="L"/>
    <tag k="tiger:name_base_1" v="State Highway 92"/>
    <tag k="tiger:name_base_2" v="United States Highway 275"/>
    <tag k="tiger:name_type" v="St"/>
    <tag k="tiger:reviewed" v="no"/>
    <tag k="tiger:separated" v="no"/>
    <tag k="tiger:source" v="tiger_import_dch_v0.6_20070813"/>
    <tag k="tiger:tlid" v="117022789:117022792:116986551:117022795"/>
    <tag k="tiger:zip_left" v="68107"/>
    <tag k="tiger:zip_right" v="68107"/>
  </way>
  <way id="35017767" version="7" timestamp="2011-06-16T16:52:00Z" uid="207745" user="NE2" changeset="8457565">
    <nd ref="134168124"/>
    <nd ref="134114850"/>
    <nd ref="134038088"/>
    <nd ref="134177214"/>
    <nd ref="134177217"/>
    <nd ref="134177221"/>
    <nd ref="134177224"/>
    <nd ref="134177227"/>
    <nd ref="133907360"/>
    <nd ref="133913521"/>
    <nd ref="133937284"/>
    <tag k="highway" v="primary"/>
    <tag k="name" v="L Street"/>
    <tag k="ref" v="US 275"/>
    <tag k="tiger:cfcc" v="A21"/>
    <tag k="tiger:county" v="Douglas, NE"/>
    <tag k="tiger:name_base" v="L"/>
    <tag k="tiger:name_base_1" v="State Highway 92"/>
    <tag k="tiger:name_base_2" v="United States Highway 275"/>
    <tag k="tiger:name_type" v="St"/>
    <tag k="tiger:reviewed" v="no"/>
    <tag k="tiger:separated" v="no"/>
    <tag k="tiger:source" v="tiger_import_dch_v0.6_20070813"/>
    <tag k="tiger:tlid" v="117022789:117022792:116986551:117022795"/>
    <tag k="tiger:zip_left" v="68107"/>
    <tag k="tiger:zip_right" v="68107"/>
  </way>
  <way id="35017767" version="8" timestamp="2011-06-20T14:44:47Z" uid="473471" user="NE3" changeset="8495070">
    <nd ref="134168124"/>
    <nd ref="134114850"/>
    <nd ref="134038088"/>
    <nd ref="134177214"/>
    <nd ref="134177217"/>
    <nd ref="134177221"/>
    <nd ref="134177224"/>
    <nd ref="134177227"/>
    <nd ref="133907360"/>
    <nd ref="133913521"/>
    <nd ref="133937284"/>
    <tag k="highway" v="primary"/>
    <tag k="lanes" v="4"/>
    <tag k="name" v="L Street"/>
    <tag k="ref" v="US 275"/>
    <tag k="tiger:cfcc" v="A21"/>
    <tag k="tiger:county" v="Douglas, NE"/>
    <tag k="tiger:name_base" v="L"/>
    <tag k="tiger:name_base_1" v="State Highway 92"/>
    <tag k="tiger:name_base_2" v="United States Highway 275"/>
    <tag k="tiger:name_type" v="St"/>
    <tag k="tiger:reviewed" v="no"/>
    <tag k="tiger:separated" v="no"/>
    <tag k="tiger:source" v="tiger_import_dch_v0.6_20070813"/>
    <tag k="tiger:tlid" v="117022789:117022792:116986551:117022795"/>
    <tag k="tiger:zip_left" v="68107"/>
    <tag k="tiger:zip_right" v="68107"/>
  </way>
  <way id="35017767" version="9" timestamp="2011-07-06T20:46:06Z" uid="473471" user="NE3" changeset="8652165">
    <nd ref="134168124"/>
    <nd ref="134114850"/>
    <nd ref="134038088"/>
    <nd ref="134177214"/>
    <nd ref="134177217"/>
    <nd ref="134177221"/>
    <nd ref="134177224"/>
    <nd ref="134177227"/>
    <nd ref="133907360"/>
    <nd ref="133913521"/>
    <nd ref="133937284"/>
    <tag k="NHS" v="yes"/>
    <tag k="highway" v="primary"/>
    <tag k="lanes" v="4"/>
    <tag k="name" v="L Street"/>
    <tag k="ref" v="US 275"/>
    <tag k="tiger:cfcc" v="A21"/>
    <tag k="tiger:county" v="Douglas, NE"/>
    <tag k="tiger:name_base" v="L"/>
    <tag k="tiger:name_base_1" v="State Highway 92"/>
    <tag k="tiger:name_base_2" v="United States Highway 275"/>
    <tag k="tiger:name_type" v="St"/>
    <tag k="tiger:reviewed" v="no"/>
    <tag k="tiger:separated" v="no"/>
    <tag k="tiger:source" v="tiger_import_dch_v0.6_20070813"/>
    <tag k="tiger:tlid" v="117022789:117022792:116986551:117022795"/>
    <tag k="tiger:zip_left" v="68107"/>
    <tag k="tiger:zip_right" v="68107"/>
  </way>
  <way id="35017767" version="10" timestamp="2011-08-28T16:07:36Z" uid="28378" user="PHerison" changeset="9148605">
    <nd ref="134168124"/>
    <nd ref="134114850"/>
    <nd ref="134038088"/>
    <nd ref="134177214"/>
    <nd ref="134177224"/>
    <tag k="NHS" v="yes"/>
    <tag k="highway" v="primary"/>
    <tag k="lanes" v="4"/>
    <tag k="name" v="L Street"/>
    <tag k="ref" v="US 275"/>
    <tag k="tiger:cfcc" v="A21"/>
    <tag k="tiger:county" v="Douglas, NE"/>
    <tag k="tiger:name_base" v="L"/>
    <tag k="tiger:name_base_1" v="State Highway 92"/>
    <tag k="tiger:name_base_2" v="United States Highway 275"/>
    <tag k="tiger:name_type" v="St"/>
    <tag k="tiger:reviewed" v="no"/>
    <tag k="tiger:separated" v="no"/>
    <tag k="tiger:source" v="tiger_import_dch_v0.6_20070813"/>
    <tag k="tiger:tlid" v="117022789:117022792:116986551:117022795"/>
    <tag k="tiger:zip_left" v="68107"/>
    <tag k="tiger:zip_right" v="68107"/>
  </way>
  <way id="35017780" version="7" timestamp="2010-04-07T18:30:58Z" uid="20587" user="balrog-kun" changeset="4355872">
    <nd ref="133920669"/>
    <nd ref="134177233"/>
    <nd ref="133920202"/>
    <nd ref="134177235"/>
    <nd ref="134177240"/>
    <nd ref="134177244"/>
    <nd ref="133980761"/>
    <nd ref="411680637"/>
    <tag k="highway" v="primary"/>
    <tag k="name" v="L Street"/>
    <tag k="name_1" v="State Highway 92"/>
    <tag k="name_2" v="United States Highway 275"/>
    <tag k="ref" v="US 275"/>
    <tag k="tiger:cfcc" v="A21"/>
    <tag k="tiger:county" v="Douglas, NE"/>
    <tag k="tiger:name_base" v="L"/>
    <tag k="tiger:name_base_1" v="State Highway 92"/>
    <tag k="tiger:name_base_2" v="United States Highway 275"/>
    <tag k="tiger:name_type" v="St"/>
    <tag k="tiger:reviewed" v="no"/>
    <tag k="tiger:separated" v="no"/>
    <tag k="tiger:source" v="tiger_import_dch_v0.6_20070813"/>
    <tag k="tiger:tlid" v="117022789:117022792:116986551:117022795"/>
    <tag k="tiger:zip_left" v="68107"/>
    <tag k="tiger:zip_right" v="68107"/>
  </way>
  <way id="35017780" version="8" timestamp="2011-06-16T16:36:33Z" uid="207745" user="NE2" changeset="8457565">
    <nd ref="133920669"/>
    <nd ref="134177233"/>
    <nd ref="133920202"/>
    <nd ref="134177235"/>
    <nd ref="134177240"/>
    <nd ref="134177244"/>
    <nd ref="133980761"/>
    <nd ref="411680637"/>
    <tag k="highway" v="primary"/>
    <tag k="name" v="L Street"/>
    <tag k="ref" v="US 275"/>
    <tag k="tiger:cfcc" v="A21"/>
    <tag k="tiger:county" v="Douglas, NE"/>
    <tag k="tiger:name_base" v="L"/>
    <tag k="tiger:name_base_1" v="State Highway 92"/>
    <tag k="tiger:name_base_2" v="United States Highway 275"/>
    <tag k="tiger:name_type" v="St"/>
    <tag k="tiger:reviewed" v="no"/>
    <tag k="tiger:separated" v="no"/>
    <tag k="tiger:source" v="tiger_import_dch_v0.6_20070813"/>
    <tag k="tiger:tlid" v="117022789:117022792:116986551:117022795"/>
    <tag k="tiger:zip_left" v="68107"/>
    <tag k="tiger:zip_right" v="68107"/>
  </way>
  <way id="35017780" version="9" timestamp="2011-06-20T14:44:28Z" uid="473471" user="NE3" changeset="8495070">
    <nd ref="133920669"/>
    <nd ref="134177233"/>
    <nd ref="133920202"/>
    <nd ref="134177235"/>
    <nd ref="134177240"/>
    <nd ref="134177244"/>
    <nd ref="133980761"/>
    <nd ref="411680637"/>
    <tag k="highway" v="primary"/>
    <tag k="lanes" v="4"/>
    <tag k="name" v="L Street"/>
    <tag k="ref" v="US 275"/>
    <tag k="tiger:cfcc" v="A21"/>
    <tag k="tiger:county" v="Douglas, NE"/>
    <tag k="tiger:name_base" v="L"/>
    <tag k="tiger:name_base_1" v="State Highway 92"/>
    <tag k="tiger:name_base_2" v="United States Highway 275"/>
    <tag k="tiger:name_type" v="St"/>
    <tag k="tiger:reviewed" v="no"/>
    <tag k="tiger:separated" v="no"/>
    <tag k="tiger:source" v="tiger_import_dch_v0.6_20070813"/>
    <tag k="tiger:tlid" v="117022789:117022792:116986551:117022795"/>
    <tag k="tiger:zip_left" v="68107"/>
    <tag k="tiger:zip_right" v="68107"/>
  </way>
  <way id="35017780" version="10" timestamp="2011-07-06T20:46:21Z" uid="473471" user="NE3" changeset="8652165">
    <nd ref="133920669"/>
    <nd ref="134177233"/>
    <nd ref="133920202"/>
    <nd ref="134177235"/>
    <nd ref="134177240"/>
    <nd ref="134177244"/>
    <nd ref="133980761"/>
    <nd ref="411680637"/>
    <tag k="NHS" v="yes"/>
    <tag k="highway" v="primary"/>
    <tag k="lanes" v="4"/>
    <tag k="name" v="L Street"/>
    <tag k="ref" v="US 275"/>
    <tag k="tiger:cfcc" v="A21"/>
    <tag k="tiger:county" v="Douglas, NE"/>
    <tag k="tiger:name_base" v="L"/>
    <tag k="tiger:name_base_1" v="State Highway 92"/>
    <tag k="tiger:name_base_2" v="United States Highway 275"/>
    <tag k="tiger:name_type" v="St"/>
    <tag k="tiger:reviewed" v="no"/>
    <tag k="tiger:separated" v="no"/>
    <tag k="tiger:source" v="tiger_import_dch_v0.6_20070813"/>
    <tag k="tiger:tlid" v="117022789:117022792:116986551:117022795"/>
    <tag k="tiger:zip_left" v="68107"/>
    <tag k="tiger:zip_right" v="68107"/>
  </way>
  <way id="35017780" version="11" timestamp="2011-08-28T16:07:34Z" uid="28378" user="PHerison" changeset="9148605">
    <nd ref="1416273724"/>
    <nd ref="133920669"/>
    <tag k="NHS" v="yes"/>
    <tag k="highway" v="primary"/>
    <tag k="lanes" v="4"/>
    <tag k="name" v="L Street"/>
    <tag k="oneway" v="yes"/>
    <tag k="ref" v="US 275"/>
    <tag k="tiger:cfcc" v="A21"/>
    <tag k="tiger:county" v="Douglas, NE"/>
    <tag k="tiger:name_base" v="L"/>
    <tag k="tiger:name_base_1" v="State Highway 92"/>
    <tag k="tiger:name_base_2" v="United States Highway 275"/>
    <tag k="tiger:name_type" v="St"/>
    <tag k="tiger:reviewed" v="aerial"/>
    <tag k="tiger:separated" v="no"/>
    <tag k="tiger:source" v="tiger_import_dch_v0.6_20070813"/>
    <tag k="tiger:tlid" v="117022789:117022792:116986551:117022795"/>
    <tag k="tiger:zip_left" v="68107"/>
    <tag k="tiger:zip_right" v="68107"/>
  </way>
  <way id="35017780" version="12" timestamp="2011-12-10T08:01:58Z" uid="207745" user="NE2" changeset="10078827">
    <nd ref="1416273724"/>
    <nd ref="133920669"/>
    <tag k="NHS" v="yes"/>
    <tag k="highway" v="primary"/>
    <tag k="lanes" v="2"/>
    <tag k="name" v="L Street"/>
    <tag k="oneway" v="yes"/>
    <tag k="ref" v="US 275"/>
    <tag k="tiger:cfcc" v="A21"/>
    <tag k="tiger:county" v="Douglas, NE"/>
    <tag k="tiger:name_base" v="L"/>
    <tag k="tiger:name_base_1" v="State Highway 92"/>
    <tag k="tiger:name_base_2" v="United States Highway 275"/>
    <tag k="tiger:name_type" v="St"/>
    <tag k="tiger:reviewed" v="aerial"/>
    <tag k="tiger:separated" v="no"/>
    <tag k="tiger:source" v="tiger_import_dch_v0.6_20070813"/>
    <tag k="tiger:tlid" v="117022789:117022792:116986551:117022795"/>
    <tag k="tiger:zip_left" v="68107"/>
    <tag k="tiger:zip_right" v="68107"/>
  </way>
  <way id="35017909" version="1" timestamp="2009-05-24T20:16:08Z" uid="20587" user="balrog-kun" changeset="1310894">
    <nd ref="410742313"/>
    <nd ref="410742314"/>
    <nd ref="410742315"/>
    <nd ref="410742316"/>
    <nd ref="410742329"/>
    <nd ref="410742307"/>
    <nd ref="410742300"/>
    <nd ref="410742298"/>
    <nd ref="410742299"/>
    <nd ref="410742301"/>
    <nd ref="410742306"/>
    <nd ref="410742326"/>
    <nd ref="410742320"/>
    <nd ref="410742319"/>
    <nd ref="410742323"/>
    <nd ref="410742322"/>
    <nd ref="410742318"/>
    <nd ref="410742324"/>
    <nd ref="410742317"/>
    <nd ref="410742321"/>
    <nd ref="410742325"/>
    <nd ref="410742327"/>
    <nd ref="410742303"/>
    <nd ref="410742305"/>
    <nd ref="410742304"/>
    <nd ref="410742302"/>
    <nd ref="410742328"/>
    <nd ref="410742308"/>
    <nd ref="410742309"/>
    <nd ref="410742310"/>
    <nd ref="410742311"/>
    <nd ref="410742312"/>
    <nd ref="410742313"/>
    <tag k="building" v="offices"/>
    <tag k="name" v="Stołeczna Kolumna Transportu Sanitarnego"/>
  </way>
  <way id="35017910" version="1" timestamp="2009-05-24T20:16:08Z" uid="20587" user="balrog-kun" changeset="1310894">
    <nd ref="410742330"/>
    <nd ref="410742332"/>
    <nd ref="410742334"/>
    <nd ref="410742335"/>
    <nd ref="410742336"/>
    <nd ref="410742333"/>
    <nd ref="410742331"/>
    <nd ref="410742330"/>
    <tag k="landuse" v="industrial"/>
  </way>
  <way id="35017911" version="1" timestamp="2009-05-24T20:16:08Z" uid="20587" user="balrog-kun" changeset="1310894">
    <nd ref="410742344"/>
    <nd ref="410742347"/>
    <nd ref="410742349"/>
    <nd ref="410742346"/>
    <nd ref="410742344"/>
    <tag k="amenity" v="school"/>
  </way>
  <way id="35017911" version="2" timestamp="2009-12-13T03:21:56Z" uid="52087" user="kocio" changeset="3360298">
    <nd ref="410742344"/>
    <nd ref="410742347"/>
    <nd ref="410742349"/>
    <nd ref="410742346"/>
    <nd ref="410742344"/>
    <tag k="addr:housenumber" v="13"/>
    <tag k="addr:street" v="Fryderyka Joliot-Curie"/>
    <tag k="amenity" v="school"/>
    <tag k="name" v="Zespół Szkół nr 3 im. 2 Armii Wojska Polskiego"/>
  </way>
  <way id="35017911" version="3" timestamp="2009-12-13T22:46:22Z" uid="52087" user="kocio" changeset="3368108">
    <nd ref="410742344"/>
    <nd ref="410742347"/>
    <nd ref="410742349"/>
    <nd ref="410742346"/>
    <nd ref="410742344"/>
    <tag k="addr:housenumber" v="13"/>
    <tag k="addr:street" v="Joliot-Curie"/>
    <tag k="amenity" v="school"/>
    <tag k="name" v="Zespół Szkół nr 3 im. 2 Armii Wojska Polskiego"/>
  </way>
  <way id="35017911" version="4" timestamp="2010-04-26T00:16:43Z" uid="20587" user="balrog-kun" changeset="4527756">
    <nd ref="410742344"/>
    <nd ref="410742347"/>
    <nd ref="410742349"/>
    <nd ref="410742346"/>
    <nd ref="410742344"/>
    <tag k="addr:housenumber" v="13"/>
    <tag k="addr:street" v="Joliot-Curie"/>
    <tag k="amenity" v="school"/>
    <tag k="name" v="Zespół Szkół nr 3 imienia 2 Armii Wojska Polskiego"/>
  </way>
  <way id="35017911" version="5" timestamp="2011-06-17T10:12:36Z" uid="52087" user="kocio" changeset="8463209">
    <nd ref="410742344"/>
    <nd ref="410742347"/>
    <nd ref="410742349"/>
    <nd ref="410742346"/>
    <nd ref="410742344"/>
    <tag k="addr:housenumber" v="13"/>
    <tag k="addr:street" v="Joliot-Curie"/>
    <tag k="amenity" v="school"/>
    <tag k="name" v="Zespół Szkół nr 3 im. 2 Armii Wojska Polskiego"/>
  </way>
  <way id="35017911" version="6" timestamp="2011-06-17T13:38:22Z" uid="20587" user="balrog-kun" changeset="8465063">
    <nd ref="410742344"/>
    <nd ref="410742347"/>
    <nd ref="410742349"/>
    <nd ref="410742346"/>
    <nd ref="410742344"/>
    <tag k="addr:housenumber" v="13"/>
    <tag k="addr:street" v="Joliot-Curie"/>
    <tag k="amenity" v="school"/>
    <tag k="name" v="Zespół Szkół nr 3 imienia 2 Armii Wojska Polskiego"/>
  </way>
  <way id="35017911" version="7" timestamp="2011-12-09T09:52:19Z" uid="441027" user="muzzy" changeset="10071664">
    <nd ref="410742344"/>
    <nd ref="410742347"/>
    <nd ref="410742349"/>
    <nd ref="410742346"/>
    <nd ref="410742344"/>
    <tag k="addr:housenumber" v="13"/>
    <tag k="addr:street" v="Fryderyka Joliot-Curie"/>
    <tag k="amenity" v="school"/>
    <tag k="name" v="Zespół Szkół nr 3 imienia 2 Armii Wojska Polskiego"/>
  </way>
  <way id="35017912" version="1" timestamp="2009-05-24T20:16:08Z" uid="20587" user="balrog-kun" changeset="1310894">
    <nd ref="410742350"/>
    <nd ref="33739737"/>
    <tag k="highway" v="service"/>
  </way>
  <way id="35017912" version="2" timestamp="2011-05-17T09:26:52Z" uid="52087" user="kocio" changeset="8169742">
    <nd ref="1288840214"/>
    <nd ref="410742350"/>
    <nd ref="33739737"/>
    <tag k="highway" v="service"/>
  </way>
  <way id="35017912" version="3" timestamp="2011-05-17T09:38:55Z" uid="52087" user="kocio" changeset="8169742">
    <nd ref="1288840214"/>
    <nd ref="33739737"/>
    <tag k="highway" v="service"/>
  </way>
  <way id="35017912" version="4" timestamp="2011-05-17T09:46:35Z" uid="52087" user="kocio" changeset="8169742"/>
  <way id="35017913" version="1" timestamp="2009-05-24T20:16:08Z" uid="20587" user="balrog-kun" changeset="1310894">
    <nd ref="410742352"/>
    <nd ref="410742353"/>
    <nd ref="410742354"/>
    <nd ref="410742355"/>
    <nd ref="410742357"/>
    <nd ref="410742359"/>
    <nd ref="410742360"/>
    <nd ref="410742362"/>
    <nd ref="410742363"/>
    <nd ref="410742352"/>
    <tag k="leisure" v="park"/>
    <tag k="name" v="Ogród Jordanowski"/>
  </way>
  <way id="35017914" version="1" timestamp="2009-05-24T20:16:09Z" uid="20587" user="balrog-kun" changeset="1310894">
    <nd ref="410742369"/>
    <nd ref="410742370"/>
    <nd ref="410742371"/>
    <nd ref="410742372"/>
    <nd ref="410742373"/>
    <nd ref="410742369"/>
    <tag k="amenity" v="school"/>
  </way>
  <way id="35017914" version="2" timestamp="2009-12-13T03:52:54Z" uid="52087" user="kocio" changeset="3360364">
    <nd ref="410742369"/>
    <nd ref="410742370"/>
    <nd ref="410742371"/>
    <nd ref="410742372"/>
    <nd ref="410742373"/>
    <nd ref="410742369"/>
    <tag k="addr:housenumber" v="3"/>
    <tag k="addr:street" v="Pułku Baszta"/>
    <tag k="amenity" v="school"/>
    <tag k="name" v="Szkoła Podstawowa nr 119"/>
  </way>
  <way id="35017914" version="3" timestamp="2011-05-17T00:40:41Z" uid="52087" user="kocio" changeset="8167626">
    <nd ref="410742369"/>
    <nd ref="1288400244"/>
    <nd ref="1288400233"/>
    <nd ref="410742370"/>
    <nd ref="410742371"/>
    <nd ref="410742372"/>
    <nd ref="410742373"/>
    <nd ref="410742369"/>
    <tag k="addr:housenumber" v="3"/>
    <tag k="addr:street" v="Pułku Baszta"/>
    <tag k="amenity" v="school"/>
    <tag k="name" v="Szkoła Podstawowa nr 119"/>
  </way>
  <way id="35017915" version="1" timestamp="2009-05-24T20:16:09Z" uid="20587" user="balrog-kun" changeset="1310894">
    <nd ref="410742388"/>
    <nd ref="410742390"/>
    <nd ref="410742391"/>
    <nd ref="410742389"/>
    <nd ref="410742420"/>
    <nd ref="410742388"/>
    <tag k="landuse" v="allotments"/>
  </way>
  <way id="35017915" version="2" timestamp="2010-07-06T09:55:08Z" uid="91056" user="Yarl" changeset="5148943">
    <nd ref="410742388"/>
    <nd ref="410742390"/>
    <nd ref="410742391"/>
    <nd ref="410742389"/>
    <nd ref="410742388"/>
    <tag k="landuse" v="allotments"/>
  </way>
  <way id="35017916" version="1" timestamp="2009-05-24T20:16:09Z" uid="20587" user="balrog-kun" changeset="1310894">
    <nd ref="410742392"/>
    <nd ref="410742394"/>
    <nd ref="410742395"/>
    <nd ref="410742393"/>
    <nd ref="410742392"/>
    <tag k="amenity" v="school"/>
  </way>
  <way id="35017916" version="2" timestamp="2009-12-13T02:40:02Z" uid="52087" user="kocio" changeset="3360192">
    <nd ref="410742392"/>
    <nd ref="410742394"/>
    <nd ref="410742395"/>
    <nd ref="410742393"/>
    <nd ref="410742392"/>
    <tag k="addr:housenumber" v="19"/>
    <tag k="addr:street" v="Janka Bytnara Rudego"/>
    <tag k="amenity" v="school"/>
    <tag k="name" v="Szkoła Podstawowa nr 202"/>
  </way>
  <way id="35017917" version="1" timestamp="2009-05-24T20:16:09Z" uid="20587" user="balrog-kun" changeset="1310894">
    <nd ref="410742401"/>
    <nd ref="410742403"/>
    <nd ref="410742404"/>
    <nd ref="410742402"/>
    <nd ref="410742401"/>
    <tag k="amenity" v="school"/>
  </way>
  <way id="35017917" version="2" timestamp="2010-07-06T09:55:22Z" uid="91056" user="Yarl" changeset="5148943">
    <nd ref="410742401"/>
    <nd ref="410742403"/>
    <nd ref="410742404"/>
    <nd ref="410742402"/>
    <nd ref="410742401"/>
    <tag k="leisure" v="pitch"/>
    <tag k="sport" v="baseball"/>
  </way>
  <way id="35017918" version="1" timestamp="2009-05-24T20:16:09Z" uid="20587" user="balrog-kun" changeset="1310894">
    <nd ref="410742405"/>
    <nd ref="410742406"/>
    <nd ref="410742407"/>
    <nd ref="410742408"/>
    <nd ref="388811466"/>
    <nd ref="410742409"/>
    <nd ref="410742410"/>
    <nd ref="410742411"/>
    <nd ref="410742405"/>
    <tag k="amenity" v="school"/>
  </way>
  <way id="35017918" version="2" timestamp="2010-07-06T09:55:15Z" uid="91056" user="Yarl" changeset="5148943">
    <nd ref="410742405"/>
    <nd ref="410742406"/>
    <nd ref="410742407"/>
    <nd ref="410742408"/>
    <nd ref="388811466"/>
    <nd ref="410742409"/>
    <nd ref="410742410"/>
    <nd ref="410742411"/>
    <nd ref="410742405"/>
    <tag k="amenity" v="school"/>
    <tag k="name" v="Ośrodek Wychowawczy nr 12"/>
  </way>
  <way id="35017919" version="1" timestamp="2009-05-24T20:16:09Z" uid="20587" user="balrog-kun" changeset="1310894">
    <nd ref="410742412"/>
    <nd ref="410742414"/>
    <nd ref="410742415"/>
    <nd ref="410742413"/>
    <nd ref="410742412"/>
    <tag k="amenity" v="school"/>
  </way>
  <way id="35017919" version="2" timestamp="2010-07-06T09:55:10Z" uid="91056" user="Yarl" changeset="5148943">
    <nd ref="410742412"/>
    <nd ref="410742414"/>
    <nd ref="410742415"/>
    <nd ref="410742413"/>
    <nd ref="410742412"/>
    <tag k="leisure" v="pitch"/>
    <tag k="sport" v="multi"/>
  </way>
  <way id="35017920" version="1" timestamp="2009-05-24T20:16:09Z" uid="20587" user="balrog-kun" changeset="1310894">
    <nd ref="410742416"/>
    <nd ref="410742417"/>
    <nd ref="410742418"/>
    <nd ref="410742419"/>
    <nd ref="410742420"/>
    <nd ref="410742389"/>
    <nd ref="410742416"/>
    <tag k="amenity" v="school"/>
  </way>
  <way id="35017920" version="2" timestamp="2010-07-06T09:55:13Z" uid="91056" user="Yarl" changeset="5148943">
    <nd ref="410742411"/>
    <nd ref="410742410"/>
    <nd ref="410742409"/>
    <nd ref="388811466"/>
    <nd ref="803526166"/>
    <nd ref="388811467"/>
    <nd ref="410742388"/>
    <nd ref="410742389"/>
    <nd ref="410742411"/>
    <tag k="amenity" v="school"/>
    <tag k="name" v="Zespół Szkół nr 39 im. prof. Edmunda Jankowskiego"/>
  </way>
  <way id="35017920" version="3" timestamp="2011-06-17T13:38:09Z" uid="20587" user="balrog-kun" changeset="8465063">
    <nd ref="410742411"/>
    <nd ref="410742410"/>
    <nd ref="410742409"/>
    <nd ref="388811466"/>
    <nd ref="803526166"/>
    <nd ref="388811467"/>
    <nd ref="410742388"/>
    <nd ref="410742389"/>
    <nd ref="410742411"/>
    <tag k="amenity" v="school"/>
    <tag k="name" v="Zespół Szkół nr 39 imienia prof. Edmunda Jankowskiego"/>
  </way>
  <way id="35017921" version="1" timestamp="2009-05-24T20:16:09Z" uid="20587" user="balrog-kun" changeset="1310894">
    <nd ref="410742424"/>
    <nd ref="410742426"/>
    <nd ref="410742427"/>
    <nd ref="410742430"/>
    <nd ref="410742432"/>
    <nd ref="410742433"/>
    <nd ref="410742428"/>
    <nd ref="410742425"/>
    <nd ref="410742424"/>
    <tag k="building" v="hall"/>
    <tag k="name" v="Centrum Medyczne Uniwersytetu Medycznego"/>
  </way>
  <way id="35017921" version="2" timestamp="2009-06-21T10:00:37Z" uid="20587" user="balrog-kun" changeset="1581238">
    <nd ref="410742424"/>
    <nd ref="410742426"/>
    <nd ref="410742427"/>
    <nd ref="410742430"/>
    <nd ref="410742432"/>
    <nd ref="410742433"/>
    <nd ref="410742428"/>
    <nd ref="410742425"/>
    <nd ref="410742424"/>
    <tag k="addr:housenumber" v="7"/>
    <tag k="addr:street" v="Wołoska"/>
    <tag k="building" v="hall"/>
    <tag k="name" v="Centrum Medyczne Uniwersytetu Medycznego"/>
  </way>
  <way id="35017921" version="3" timestamp="2009-11-25T09:01:56Z" uid="201489" user="jackal" changeset="3210419">
    <nd ref="410742424"/>
    <nd ref="410742426"/>
    <nd ref="410742427"/>
    <nd ref="410742430"/>
    <nd ref="410742432"/>
    <nd ref="410742433"/>
    <nd ref="410742428"/>
    <nd ref="410742425"/>
    <nd ref="410742424"/>
    <tag k="addr:housenumber" v="7"/>
    <tag k="addr:street" v="Wołoska"/>
    <tag k="building" v="hall"/>
    <tag k="name" v="Mars Office Building"/>
  </way>
  <way id="35017922" version="1" timestamp="2009-05-24T20:16:10Z" uid="20587" user="balrog-kun" changeset="1310894">
    <nd ref="410742447"/>
    <nd ref="410742449"/>
    <nd ref="410742452"/>
    <nd ref="410742450"/>
    <nd ref="410742447"/>
    <tag k="building" v="offices"/>
    <tag k="name" v="Galaxy"/>
  </way>
  <way id="35017922" version="2" timestamp="2009-06-21T10:00:37Z" uid="20587" user="balrog-kun" changeset="1581238">
    <nd ref="410742447"/>
    <nd ref="410742449"/>
    <nd ref="410742452"/>
    <nd ref="410742450"/>
    <nd ref="410742447"/>
    <tag k="addr:housenumber" v="41"/>
    <tag k="addr:street" v="Domaniewska"/>
    <tag k="building" v="offices"/>
    <tag k="name" v="Galaxy"/>
  </way>
  <way id="35017923" version="1" timestamp="2009-05-24T20:16:10Z" uid="20587" user="balrog-kun" changeset="1310894">
    <nd ref="410742453"/>
    <nd ref="410742454"/>
    <nd ref="410742456"/>
    <nd ref="410742455"/>
    <nd ref="410742453"/>
    <tag k="building" v="offices"/>
    <tag k="name" v="Jupiter"/>
  </way>
  <way id="35017924" version="1" timestamp="2009-05-24T20:16:10Z" uid="20587" user="balrog-kun" changeset="1310894">
    <nd ref="410742459"/>
    <nd ref="410742461"/>
    <nd ref="410742463"/>
    <nd ref="410742458"/>
    <nd ref="410742459"/>
    <tag k="building" v="offices"/>
    <tag k="name" v="Orion"/>
  </way>
  <way id="35017925" version="1" timestamp="2009-05-24T20:16:10Z" uid="20587" user="balrog-kun" changeset="1310894">
    <nd ref="410742468"/>
    <nd ref="410742467"/>
    <nd ref="410742465"/>
    <nd ref="410742470"/>
    <nd ref="410742468"/>
    <tag k="building" v="offices"/>
    <tag k="name" v="Saturn"/>
  </way>
  <way id="35017926" version="1" timestamp="2009-05-24T20:16:10Z" uid="20587" user="balrog-kun" changeset="1310894">
    <nd ref="410742475"/>
    <nd ref="410742478"/>
    <nd ref="410742473"/>
    <nd ref="410742471"/>
    <nd ref="410742475"/>
    <tag k="building" v="offices"/>
    <tag k="name" v="Neptun"/>
  </way>
  <way id="35017927" version="1" timestamp="2009-05-24T20:16:10Z" uid="20587" user="balrog-kun" changeset="1310894">
    <nd ref="410742479"/>
    <nd ref="396396700"/>
    <nd ref="410742496"/>
    <nd ref="410742491"/>
    <nd ref="396396694"/>
    <nd ref="410742480"/>
    <tag k="highway" v="service"/>
    <tag k="service" v="parking_aisle"/>
  </way>
  <way id="35017927" version="2" timestamp="2011-10-05T11:13:06Z" uid="37370" user="amateja" changeset="9477153">
    <nd ref="410742479"/>
    <nd ref="396396700"/>
    <nd ref="410742496"/>
    <nd ref="1455819471"/>
    <nd ref="1455819472"/>
    <nd ref="1455819473"/>
    <nd ref="410742480"/>
    <tag k="highway" v="service"/>
    <tag k="service" v="parking_aisle"/>
  </way>
  <way id="35017928" version="1" timestamp="2009-05-24T20:16:10Z" uid="20587" user="balrog-kun" changeset="1310894">
    <nd ref="410742481"/>
    <nd ref="410742490"/>
    <nd ref="410742483"/>
    <nd ref="410742484"/>
    <nd ref="410742485"/>
    <nd ref="410742486"/>
    <nd ref="410742487"/>
    <nd ref="410742480"/>
    <nd ref="410742488"/>
    <tag k="highway" v="service"/>
    <tag k="service" v="parking_aisle"/>
  </way>
  <way id="35017928" version="2" timestamp="2011-10-05T11:16:03Z" uid="37370" user="amateja" changeset="9477153"/>
  <way id="35017929" version="1" timestamp="2009-05-24T20:16:10Z" uid="20587" user="balrog-kun" changeset="1310894">
    <nd ref="410742489"/>
    <nd ref="410742490"/>
    <nd ref="410742498"/>
    <nd ref="410742501"/>
    <nd ref="410742491"/>
    <nd ref="410742493"/>
    <tag k="highway" v="service"/>
    <tag k="service" v="parking_aisle"/>
  </way>
  <way id="35017929" version="2" timestamp="2011-10-05T11:13:04Z" uid="37370" user="amateja" changeset="9477153">
    <nd ref="410742489"/>
    <nd ref="410742498"/>
    <nd ref="410742501"/>
    <nd ref="1455819472"/>
    <tag k="highway" v="service"/>
    <tag k="service" v="parking_aisle"/>
  </way>
  <way id="35017930" version="1" timestamp="2009-05-24T20:16:10Z" uid="20587" user="balrog-kun" changeset="1310894">
    <nd ref="410742494"/>
    <nd ref="410742481"/>
    <nd ref="410742497"/>
    <nd ref="410742500"/>
    <nd ref="410742496"/>
    <tag k="highway" v="service"/>
    <tag k="service" v="parking_aisle"/>
  </way>
  <way id="35017930" version="2" timestamp="2011-10-05T11:13:05Z" uid="37370" user="amateja" changeset="9477153">
    <nd ref="410742494"/>
    <nd ref="410742497"/>
    <nd ref="410742500"/>
    <nd ref="410742496"/>
    <tag k="highway" v="service"/>
    <tag k="service" v="parking_aisle"/>
  </way>
  <way id="35017931" version="1" timestamp="2009-05-24T20:16:10Z" uid="20587" user="balrog-kun" changeset="1310894">
    <nd ref="410742497"/>
    <nd ref="410742498"/>
    <nd ref="410742499"/>
    <tag k="highway" v="service"/>
    <tag k="service" v="parking_aisle"/>
  </way>
  <way id="35017932" version="1" timestamp="2009-05-24T20:16:10Z" uid="20587" user="balrog-kun" changeset="1310894">
    <nd ref="410742500"/>
    <nd ref="410742501"/>
    <nd ref="410742502"/>
    <tag k="highway" v="service"/>
    <tag k="service" v="parking_aisle"/>
  </way>
  <way id="35017932" version="2" timestamp="2011-10-05T11:12:57Z" uid="37370" user="amateja" changeset="9477153">
    <nd ref="1455819470"/>
    <nd ref="410742501"/>
    <tag k="highway" v="service"/>
    <tag k="service" v="parking_aisle"/>
  </way>
  <way id="35017933" version="1" timestamp="2009-05-24T20:16:10Z" uid="20587" user="balrog-kun" changeset="1310894">
    <nd ref="410742504"/>
    <nd ref="410742506"/>
    <nd ref="410742508"/>
    <nd ref="410742505"/>
    <nd ref="410742504"/>
    <tag k="amenity" v="parking"/>
  </way>
  <way id="35017934" version="1" timestamp="2009-05-24T20:16:11Z" uid="20587" user="balrog-kun" changeset="1310894">
    <nd ref="410742511"/>
    <nd ref="410742512"/>
    <nd ref="410742513"/>
    <tag k="highway" v="service"/>
  </way>
  <way id="35017934" version="2" timestamp="2011-03-06T14:20:13Z" uid="165509" user="koszatek" changeset="7473637">
    <nd ref="1189300244"/>
    <nd ref="410742512"/>
    <nd ref="410742513"/>
    <tag k="highway" v="service"/>
  </way>
  <way id="35017935" version="1" timestamp="2009-05-24T20:16:11Z" uid="20587" user="balrog-kun" changeset="1310894">
    <nd ref="410742525"/>
    <nd ref="410742529"/>
    <nd ref="410742530"/>
    <nd ref="410742526"/>
    <nd ref="410742528"/>
    <nd ref="410742527"/>
    <nd ref="410742525"/>
    <tag k="addr:housenumber" v="370"/>
    <tag k="addr:street" v="Aleja Wilanowska"/>
    <tag k="building" v="industrial"/>
    <tag k="name" v="Drukarnia Skarbowa"/>
  </way>
  <way id="35017936" version="1" timestamp="2009-05-24T20:16:11Z" uid="20587" user="balrog-kun" changeset="1310894">
    <nd ref="410742531"/>
    <nd ref="410742533"/>
    <nd ref="410742534"/>
    <nd ref="410742532"/>
    <nd ref="410742535"/>
    <nd ref="410742537"/>
    <nd ref="410742538"/>
    <nd ref="410742536"/>
    <nd ref="410742531"/>
  </way>
  <way id="35017937" version="1" timestamp="2009-05-24T20:16:11Z" uid="20587" user="balrog-kun" changeset="1310894">
    <nd ref="410742543"/>
    <nd ref="410742545"/>
    <nd ref="410742546"/>
    <nd ref="410742544"/>
    <nd ref="410742543"/>
    <tag k="landuse" v="commercial"/>
    <tag k="name" v="Curtis Plaza"/>
  </way>
  <way id="35017938" version="1" timestamp="2009-05-24T20:16:11Z" uid="20587" user="balrog-kun" changeset="1310894">
    <nd ref="410742547"/>
    <nd ref="410742549"/>
    <nd ref="410742550"/>
    <nd ref="410742548"/>
    <nd ref="410742547"/>
    <tag k="amenity" v="university"/>
    <tag k="name" v="Wyższa Szkoła Zarządzania"/>
  </way>
  <way id="35017939" version="1" timestamp="2009-05-24T20:16:11Z" uid="20587" user="balrog-kun" changeset="1310894">
    <nd ref="410742552"/>
    <nd ref="410742553"/>
    <nd ref="410742554"/>
    <nd ref="410742555"/>
    <nd ref="410742556"/>
    <nd ref="410742557"/>
    <nd ref="410742552"/>
    <tag k="amenity" v="fire_station"/>
  </way>
  <way id="35017939" version="2" timestamp="2009-06-21T10:00:37Z" uid="20587" user="balrog-kun" changeset="1581238">
    <nd ref="410742552"/>
    <nd ref="410742553"/>
    <nd ref="410742554"/>
    <nd ref="410742555"/>
    <nd ref="427529232"/>
    <nd ref="410742556"/>
    <nd ref="427529227"/>
    <nd ref="410742557"/>
    <nd ref="410742552"/>
    <tag k="addr:housenumber" v="40"/>
    <tag k="addr:street" v="Domaniewska"/>
    <tag k="amenity" v="fire_station"/>
  </way>
  <way id="35017946" version="10" timestamp="2011-02-06T16:33:54Z" uid="49111" user="Markus B" changeset="7205110">
    <nd ref="561575132"/>
    <nd ref="561575203"/>
    <nd ref="561575199"/>
    <nd ref="561575197"/>
    <tag k="highway" v="tertiary"/>
    <tag k="name" v="דרך לסקוב"/>
    <tag k="name:en" v="Derech Laskov"/>
  </way>
  <way id="35017946" version="11" timestamp="2011-02-19T08:11:21Z" uid="22684" user="Mr_Israel" changeset="7329133">
    <nd ref="561575203"/>
    <nd ref="561575132"/>
    <tag k="highway" v="tertiary"/>
    <tag k="name" v="דרך לסקוב"/>
    <tag k="name:en" v="Derech Laskov"/>
    <tag k="oneway" v="yes"/>
  </way>
  <way id="35017984" version="8" timestamp="2010-04-07T18:30:59Z" uid="20587" user="balrog-kun" changeset="4355872">
    <nd ref="660951075"/>
    <nd ref="410743224"/>
    <nd ref="134148851"/>
    <nd ref="134148854"/>
    <nd ref="134022780"/>
    <nd ref="134023152"/>
    <nd ref="134148857"/>
    <nd ref="134148859"/>
    <nd ref="134134539"/>
    <nd ref="133947880"/>
    <tag k="highway" v="primary"/>
    <tag k="name" v="West Dodge Road"/>
    <tag k="name_1" v="United States Highway 6"/>
    <tag k="oneway" v="yes"/>
    <tag k="ref" v="US 6"/>
    <tag k="tiger:cfcc" v="A21"/>
    <tag k="tiger:county" v="Douglas, NE"/>
    <tag k="tiger:name_base" v="Dodge"/>
    <tag k="tiger:name_base_1" v="United States Highway 6"/>
    <tag k="tiger:name_direction_prefix" v="W"/>
    <tag k="tiger:name_type" v="Rd"/>
    <tag k="tiger:reviewed" v="no"/>
    <tag k="tiger:separated" v="no"/>
    <tag k="tiger:source" v="tiger_import_dch_v0.6_20070813"/>
  </way>
  <way id="35017984" version="9" timestamp="2010-12-24T09:55:33Z" uid="207745" user="NE2" changeset="6753031">
    <nd ref="660951075"/>
    <nd ref="134148851"/>
    <nd ref="134148854"/>
    <nd ref="134022780"/>
    <nd ref="134023152"/>
    <nd ref="134148857"/>
    <nd ref="134148859"/>
    <nd ref="134134539"/>
    <nd ref="133947880"/>
    <tag k="highway" v="primary"/>
    <tag k="name" v="West Dodge Road"/>
    <tag k="name_1" v="United States Highway 6"/>
    <tag k="oneway" v="yes"/>
    <tag k="ref" v="US 6"/>
    <tag k="tiger:cfcc" v="A21"/>
    <tag k="tiger:county" v="Douglas, NE"/>
    <tag k="tiger:name_base" v="Dodge"/>
    <tag k="tiger:name_base_1" v="United States Highway 6"/>
    <tag k="tiger:name_direction_prefix" v="W"/>
    <tag k="tiger:name_type" v="Rd"/>
    <tag k="tiger:reviewed" v="no"/>
    <tag k="tiger:separated" v="no"/>
    <tag k="tiger:source" v="tiger_import_dch_v0.6_20070813"/>
  </way>
  <way id="35017984" version="10" timestamp="2011-06-10T10:11:41Z" uid="207745" user="NE2" changeset="8395789">
    <nd ref="660951075"/>
    <nd ref="134148851"/>
    <nd ref="134148854"/>
    <nd ref="134022780"/>
    <nd ref="134023152"/>
    <nd ref="134148857"/>
    <nd ref="134148859"/>
    <nd ref="134134539"/>
    <nd ref="133947880"/>
    <tag k="highway" v="primary"/>
    <tag k="name" v="West Dodge Road"/>
    <tag k="oneway" v="yes"/>
    <tag k="ref" v="US 6"/>
    <tag k="tiger:cfcc" v="A21"/>
    <tag k="tiger:county" v="Douglas, NE"/>
    <tag k="tiger:name_base" v="Dodge"/>
    <tag k="tiger:name_base_1" v="United States Highway 6"/>
    <tag k="tiger:name_direction_prefix" v="W"/>
    <tag k="tiger:name_type" v="Rd"/>
    <tag k="tiger:reviewed" v="no"/>
    <tag k="tiger:separated" v="no"/>
    <tag k="tiger:source" v="tiger_import_dch_v0.6_20070813"/>
  </way>
  <way id="35017984" version="11" timestamp="2011-06-21T00:00:53Z" uid="473471" user="NE3" changeset="8500323">
    <nd ref="660951075"/>
    <nd ref="134148851"/>
    <nd ref="134148854"/>
    <nd ref="134022780"/>
    <nd ref="134023152"/>
    <nd ref="134148857"/>
    <nd ref="134148859"/>
    <nd ref="134134539"/>
    <nd ref="133947880"/>
    <tag k="highway" v="primary"/>
    <tag k="lanes" v="4"/>
    <tag k="name" v="West Dodge Road"/>
    <tag k="oneway" v="yes"/>
    <tag k="ref" v="US 6"/>
    <tag k="tiger:cfcc" v="A21"/>
    <tag k="tiger:county" v="Douglas, NE"/>
    <tag k="tiger:name_base" v="Dodge"/>
    <tag k="tiger:name_base_1" v="United States Highway 6"/>
    <tag k="tiger:name_direction_prefix" v="W"/>
    <tag k="tiger:name_type" v="Rd"/>
    <tag k="tiger:reviewed" v="no"/>
    <tag k="tiger:separated" v="no"/>
    <tag k="tiger:source" v="tiger_import_dch_v0.6_20070813"/>
  </way>
  <way id="35017984" version="12" timestamp="2011-07-07T02:13:06Z" uid="473471" user="NE3" changeset="8653554">
    <nd ref="660951075"/>
    <nd ref="134148851"/>
    <nd ref="134148854"/>
    <nd ref="134022780"/>
    <nd ref="134023152"/>
    <nd ref="134148857"/>
    <nd ref="134148859"/>
    <nd ref="134134539"/>
    <nd ref="133947880"/>
    <tag k="NHS" v="yes"/>
    <tag k="highway" v="primary"/>
    <tag k="lanes" v="4"/>
    <tag k="name" v="West Dodge Road"/>
    <tag k="oneway" v="yes"/>
    <tag k="ref" v="US 6"/>
    <tag k="tiger:cfcc" v="A21"/>
    <tag k="tiger:county" v="Douglas, NE"/>
    <tag k="tiger:name_base" v="Dodge"/>
    <tag k="tiger:name_base_1" v="United States Highway 6"/>
    <tag k="tiger:name_direction_prefix" v="W"/>
    <tag k="tiger:name_type" v="Rd"/>
    <tag k="tiger:reviewed" v="no"/>
    <tag k="tiger:separated" v="no"/>
    <tag k="tiger:source" v="tiger_import_dch_v0.6_20070813"/>
  </way>
  <way id="35017984" version="13" timestamp="2011-08-30T18:31:12Z" uid="28378" user="PHerison" changeset="9169879">
    <nd ref="660951075"/>
    <nd ref="134148851"/>
    <nd ref="134148854"/>
    <nd ref="134022780"/>
    <nd ref="1418409002"/>
    <nd ref="134023152"/>
    <nd ref="134148859"/>
    <nd ref="1418408986"/>
    <nd ref="134134539"/>
    <nd ref="133947880"/>
    <tag k="NHS" v="yes"/>
    <tag k="highway" v="primary"/>
    <tag k="lanes" v="4"/>
    <tag k="name" v="West Dodge Road"/>
    <tag k="oneway" v="yes"/>
    <tag k="ref" v="US 6"/>
    <tag k="tiger:cfcc" v="A21"/>
    <tag k="tiger:county" v="Douglas, NE"/>
    <tag k="tiger:name_base" v="Dodge"/>
    <tag k="tiger:name_base_1" v="United States Highway 6"/>
    <tag k="tiger:name_direction_prefix" v="W"/>
    <tag k="tiger:name_type" v="Rd"/>
    <tag k="tiger:reviewed" v="no"/>
    <tag k="tiger:separated" v="no"/>
    <tag k="tiger:source" v="tiger_import_dch_v0.6_20070813"/>
  </way>
  <way id="35017921" version="4" timestamp="2012-08-14T14:41:40Z" uid="163575" user="JeV" changeset="12727806">
    <nd ref="410742424"/>
    <nd ref="410742426"/>
    <nd ref="410742427"/>
    <nd ref="410742430"/>
    <nd ref="410742432"/>
    <nd ref="410742433"/>
    <nd ref="410742428"/>
    <nd ref="410742425"/>
    <nd ref="410742424"/>
    <tag k="addr:housenumber" v="7"/>
    <tag k="addr:street" v="Wołoska"/>
    <tag k="building" v="office"/>
    <tag k="name" v="Mars"/>
  </way>
  <way id="35017922" version="3" timestamp="2012-08-14T09:03:56Z" uid="163575" user="JeV" changeset="12724245">
    <nd ref="410742447"/>
    <nd ref="410742449"/>
    <nd ref="410742452"/>
    <nd ref="410742450"/>
    <nd ref="410742447"/>
    <tag k="addr:housenumber" v="41"/>
    <tag k="addr:street" v="Domaniewska"/>
    <tag k="building" v="office"/>
    <tag k="name" v="Saturn"/>
  </way>
  <way id="35017922" version="4" timestamp="2012-08-14T13:21:43Z" uid="163575" user="JeV" changeset="12726868">
    <nd ref="410742447"/>
    <nd ref="410742449"/>
    <nd ref="410742452"/>
    <nd ref="410742450"/>
    <nd ref="410742447"/>
    <tag k="addr:housenumber" v="41"/>
    <tag k="addr:street" v="Domaniewska"/>
    <tag k="building" v="office"/>
    <tag k="name" v="Saturn"/>
  </way>
  <way id="35017924" version="2" timestamp="2012-08-14T14:41:40Z" uid="163575" user="JeV" changeset="12727806">
    <nd ref="410742459"/>
    <nd ref="410742461"/>
    <nd ref="410742463"/>
    <nd ref="410742458"/>
    <nd ref="410742459"/>
    <tag k="building" v="office"/>
    <tag k="name" v="Orion"/>
  </way>
  <way id="35017925" version="2" timestamp="2012-08-14T08:08:36Z" uid="163575" user="JeV" changeset="12723687">
    <nd ref="410742468"/>
    <nd ref="410742467"/>
    <nd ref="410742465"/>
    <nd ref="410742470"/>
    <nd ref="410742468"/>
    <tag k="building" v="office"/>
    <tag k="name" v="Sirius"/>
  </way>
  <way id="35017926" version="2" timestamp="2012-08-14T14:41:41Z" uid="163575" user="JeV" changeset="12727806">
    <nd ref="410742475"/>
    <nd ref="410742478"/>
    <nd ref="410742473"/>
    <nd ref="410742471"/>
    <nd ref="410742475"/>
    <tag k="building" v="office"/>
    <tag k="name" v="Neptun"/>
  </way>
  <way id="35017933" version="2" timestamp="2012-07-09T05:55:22Z" uid="163575" user="JeV" changeset="12157972">
    <nd ref="410742504"/>
    <nd ref="410742506"/>
    <nd ref="410742508"/>
    <nd ref="410742505"/>
    <nd ref="410742504"/>
    <tag k="landuse" v="construction"/>
    <tag k="name" v="Vega"/>
    <tag k="operator" v="Empark"/>
  </way>
  <way id="35017937" version="2" timestamp="2012-08-13T19:46:40Z" uid="163575" user="JeV" changeset="12718747"/>
  <way id="35017946" version="12" timestamp="2012-08-29T10:45:52Z" uid="22684" user="Mr_Israel" changeset="12903474">
    <nd ref="561575203"/>
    <nd ref="561575132"/>
    <tag k="highway" v="tertiary"/>
    <tag k="name" v="דרך לסקוב"/>
    <tag k="name:en" v="Derech Laskov"/>
    <tag k="name:he" v="דרך לסקוב"/>
    <tag k="oneway" v="yes"/>
  </way>
  <way id="35017984" version="14" timestamp="2012-06-01T00:41:47Z" uid="227972" user="Your Village Maps" changeset="11763095">
    <nd ref="660951075"/>
    <nd ref="1772045074"/>
    <nd ref="1772044893"/>
    <tag k="highway" v="motorway"/>
    <tag k="lanes" v="4"/>
    <tag k="name" v="West Dodge Road"/>
    <tag k="NHS" v="yes"/>
    <tag k="oneway" v="yes"/>
    <tag k="ref" v="US 6"/>
    <tag k="tiger:cfcc" v="A21"/>
    <tag k="tiger:county" v="Douglas, NE"/>
    <tag k="tiger:name_base" v="Dodge"/>
    <tag k="tiger:name_base_1" v="United States Highway 6"/>
    <tag k="tiger:name_direction_prefix" v="W"/>
    <tag k="tiger:name_type" v="Rd"/>
    <tag k="tiger:reviewed" v="no"/>
    <tag k="tiger:separated" v="no"/>
    <tag k="tiger:source" v="tiger_import_dch_v0.6_20070813"/>
  </way>
</osm>
