<?xml version='1.0' encoding='UTF-8'?>
<osm version="0.6" generator="libosmium/2.20.0">
  <way id="35023004" version="1" timestamp="2009-05-24T23:49:07Z" uid="110593" user="esetzer" changeset="1312189">
    <nd ref="376148254"/>
    <nd ref="376148250"/>
    <nd ref="410789321"/>
    <tag k="created_by" v="Merkaartor 0.11"/>
    <tag k="highway" v="service"/>
  </way>
  <way id="35023004" version="2" timestamp="2011-03-31T11:26:28Z" uid="207745" user="NE2" changeset="7725188">
    <nd ref="376148254"/>
    <nd ref="376148250"/>
    <nd ref="1226595779"/>
    <tag k="highway" v="service"/>
  </way>
  <way id="35023146" version="1" timestamp="2009-05-24T23:57:04Z" uid="110593" user="esetzer" changeset="1312213">
    <nd ref="410791804"/>
    <nd ref="410791805"/>
    <nd ref="410791806"/>
    <nd ref="410791807"/>
    <nd ref="410791808"/>
    <tag k="created_by" v="Merkaartor 0.11"/>
    <tag k="power" v="line"/>
  </way>
  <way id="35023158" version="1" timestamp="2009-05-25T00:02:54Z" uid="110593" user="esetzer" changeset="1312223">
    <nd ref="410791882"/>
    <nd ref="410791883"/>
    <nd ref="410791884"/>
    <nd ref="410791885"/>
    <nd ref="410791886"/>
    <nd ref="410791887"/>
    <tag k="created_by" v="Merkaartor 0.11"/>
    <tag k="power" v="line"/>
  </way>
  <way id="35023158" version="2" timestamp="2009-06-14T18:02:29Z" uid="104930" user="butlerm" changeset="1517424">
    <nd ref="420348811"/>
    <nd ref="420348812"/>
    <nd ref="420348813"/>
    <nd ref="420348814"/>
    <nd ref="420348815"/>
    <nd ref="420348816"/>
    <nd ref="410791882"/>
    <nd ref="410791883"/>
    <nd ref="410791884"/>
    <nd ref="410791885"/>
    <nd ref="410791886"/>
    <nd ref="410791887"/>
    <tag k="created_by" v="Merkaartor 0.11"/>
    <tag k="power" v="line"/>
  </way>
  <way id="35023159" version="1" timestamp="2009-05-25T00:02:55Z" uid="110593" user="esetzer" changeset="1312223">
    <nd ref="83633279"/>
    <nd ref="83641867"/>
    <nd ref="83597961"/>
    <nd ref="83580244"/>
    <nd ref="83641870"/>
    <nd ref="365496498"/>
    <nd ref="366497253"/>
    <nd ref="83576335"/>
    <nd ref="83545317"/>
    <nd ref="83641876"/>
    <nd ref="83549420"/>
    <nd ref="83641878"/>
    <nd ref="83585399"/>
    <tag k="created_by" v="Potlatch 0.10f"/>
    <tag k="cycleway" v="lane"/>
    <tag k="highway" v="tertiary"/>
    <tag k="name" v="West 800 South"/>
    <tag k="name_1" v="W 8th South"/>
    <tag k="tiger:cfcc" v="A41"/>
    <tag k="tiger:county" v="Salt Lake, UT"/>
    <tag k="tiger:name_base" v="800"/>
    <tag k="tiger:name_base_1" v="8th South"/>
    <tag k="tiger:name_direction_prefix" v="W"/>
    <tag k="tiger:name_direction_prefix_1" v="W"/>
    <tag k="tiger:name_direction_suffix" v="S"/>
    <tag k="tiger:reviewed" v="no"/>
    <tag k="tiger:separated" v="no"/>
    <tag k="tiger:source" v="tiger_import_dch_v0.6_20070830"/>
    <tag k="tiger:tlid" v="176077067:176077105:176077111:176077242:176077244:176077118:176077070:176077251"/>
    <tag k="tiger:upload_uuid" v="bulk_upload.pl-a2da7ec1-da05-434f-a535-e5cc3da32f27"/>
    <tag k="tiger:zip_left" v="84104"/>
    <tag k="tiger:zip_right" v="84104"/>
  </way>
  <way id="35023159" version="2" timestamp="2009-06-14T18:49:04Z" uid="104930" user="butlerm" changeset="1517424">
    <nd ref="83633279"/>
    <nd ref="83641867"/>
    <nd ref="83597961"/>
    <nd ref="83641870"/>
    <nd ref="366497253"/>
    <nd ref="83576335"/>
    <nd ref="83545317"/>
    <nd ref="83641876"/>
    <nd ref="83549420"/>
    <nd ref="83641878"/>
    <nd ref="83585399"/>
    <tag k="created_by" v="Potlatch 0.10f"/>
    <tag k="cycleway" v="lane"/>
    <tag k="highway" v="tertiary"/>
    <tag k="name" v="West 800 South"/>
    <tag k="name_1" v="W 8th South"/>
    <tag k="tiger:cfcc" v="A41"/>
    <tag k="tiger:county" v="Salt Lake, UT"/>
    <tag k="tiger:name_base" v="800"/>
    <tag k="tiger:name_base_1" v="8th South"/>
    <tag k="tiger:name_direction_prefix" v="W"/>
    <tag k="tiger:name_direction_prefix_1" v="W"/>
    <tag k="tiger:name_direction_suffix" v="S"/>
    <tag k="tiger:reviewed" v="no"/>
    <tag k="tiger:separated" v="no"/>
    <tag k="tiger:source" v="tiger_import_dch_v0.6_20070830"/>
    <tag k="tiger:tlid" v="176077067:176077105:176077111:176077242:176077244:176077118:176077070:176077251"/>
    <tag k="tiger:upload_uuid" v="bulk_upload.pl-a2da7ec1-da05-434f-a535-e5cc3da32f27"/>
    <tag k="tiger:zip_left" v="84104"/>
    <tag k="tiger:zip_right" v="84104"/>
  </way>
  <way id="35023159" version="3" timestamp="2009-07-03T10:58:20Z" uid="44659" user="Phil Shipley" changeset="1718965">
    <nd ref="83633279"/>
    <nd ref="83641867"/>
    <nd ref="83597961"/>
    <nd ref="83641870"/>
    <nd ref="432835331"/>
    <nd ref="432835330"/>
    <nd ref="366497253"/>
    <nd ref="83576335"/>
    <nd ref="83545317"/>
    <nd ref="83641876"/>
    <nd ref="83549420"/>
    <nd ref="83641878"/>
    <nd ref="83585399"/>
    <tag k="created_by" v="Potlatch 0.10f"/>
    <tag k="cycleway" v="lane"/>
    <tag k="highway" v="tertiary"/>
    <tag k="name" v="West 800 South"/>
    <tag k="name_1" v="W 8th South"/>
    <tag k="tiger:cfcc" v="A41"/>
    <tag k="tiger:county" v="Salt Lake, UT"/>
    <tag k="tiger:name_base" v="800"/>
    <tag k="tiger:name_base_1" v="8th South"/>
    <tag k="tiger:name_direction_prefix" v="W"/>
    <tag k="tiger:name_direction_prefix_1" v="W"/>
    <tag k="tiger:name_direction_suffix" v="S"/>
    <tag k="tiger:reviewed" v="no"/>
    <tag k="tiger:separated" v="no"/>
    <tag k="tiger:source" v="tiger_import_dch_v0.6_20070830"/>
    <tag k="tiger:tlid" v="176077067:176077105:176077111:176077242:176077244:176077118:176077070:176077251"/>
    <tag k="tiger:upload_uuid" v="bulk_upload.pl-a2da7ec1-da05-434f-a535-e5cc3da32f27"/>
    <tag k="tiger:zip_left" v="84104"/>
    <tag k="tiger:zip_right" v="84104"/>
  </way>
  <way id="35023159" version="4" timestamp="2009-08-19T02:10:36Z" uid="104930" user="butlerm" changeset="2196469">
    <nd ref="83633279"/>
    <nd ref="83641867"/>
    <nd ref="83597961"/>
    <nd ref="83641870"/>
    <nd ref="432835331"/>
    <nd ref="432835330"/>
    <nd ref="366497253"/>
    <nd ref="83576335"/>
    <nd ref="470781758"/>
    <nd ref="83545317"/>
    <nd ref="83641876"/>
    <nd ref="83549420"/>
    <nd ref="83641878"/>
    <nd ref="83585399"/>
    <tag k="created_by" v="Potlatch 0.10f"/>
    <tag k="cycleway" v="lane"/>
    <tag k="highway" v="tertiary"/>
    <tag k="name" v="West 800 South"/>
    <tag k="name_1" v="W 8th South"/>
    <tag k="tiger:cfcc" v="A41"/>
    <tag k="tiger:county" v="Salt Lake, UT"/>
    <tag k="tiger:name_base" v="800"/>
    <tag k="tiger:name_base_1" v="8th South"/>
    <tag k="tiger:name_direction_prefix" v="W"/>
    <tag k="tiger:name_direction_prefix_1" v="W"/>
    <tag k="tiger:name_direction_suffix" v="S"/>
    <tag k="tiger:reviewed" v="no"/>
    <tag k="tiger:separated" v="no"/>
    <tag k="tiger:source" v="tiger_import_dch_v0.6_20070830"/>
    <tag k="tiger:tlid" v="176077067:176077105:176077111:176077242:176077244:176077118:176077070:176077251"/>
    <tag k="tiger:upload_uuid" v="bulk_upload.pl-a2da7ec1-da05-434f-a535-e5cc3da32f27"/>
    <tag k="tiger:zip_left" v="84104"/>
    <tag k="tiger:zip_right" v="84104"/>
  </way>
  <way id="35023159" version="5" timestamp="2009-08-19T02:10:47Z" uid="104930" user="butlerm" changeset="2196469">
    <nd ref="83633279"/>
    <nd ref="83641867"/>
    <nd ref="83597961"/>
    <nd ref="83641870"/>
    <nd ref="432835331"/>
    <nd ref="432835330"/>
    <nd ref="366497253"/>
    <nd ref="83576335"/>
    <nd ref="470781763"/>
    <nd ref="470781758"/>
    <nd ref="83545317"/>
    <nd ref="83641876"/>
    <nd ref="83549420"/>
    <nd ref="83641878"/>
    <nd ref="83585399"/>
    <tag k="created_by" v="Potlatch 0.10f"/>
    <tag k="cycleway" v="lane"/>
    <tag k="highway" v="tertiary"/>
    <tag k="name" v="West 800 South"/>
    <tag k="name_1" v="W 8th South"/>
    <tag k="tiger:cfcc" v="A41"/>
    <tag k="tiger:county" v="Salt Lake, UT"/>
    <tag k="tiger:name_base" v="800"/>
    <tag k="tiger:name_base_1" v="8th South"/>
    <tag k="tiger:name_direction_prefix" v="W"/>
    <tag k="tiger:name_direction_prefix_1" v="W"/>
    <tag k="tiger:name_direction_suffix" v="S"/>
    <tag k="tiger:reviewed" v="no"/>
    <tag k="tiger:separated" v="no"/>
    <tag k="tiger:source" v="tiger_import_dch_v0.6_20070830"/>
    <tag k="tiger:tlid" v="176077067:176077105:176077111:176077242:176077244:176077118:176077070:176077251"/>
    <tag k="tiger:upload_uuid" v="bulk_upload.pl-a2da7ec1-da05-434f-a535-e5cc3da32f27"/>
    <tag k="tiger:zip_left" v="84104"/>
    <tag k="tiger:zip_right" v="84104"/>
  </way>
  <way id="35023159" version="6" timestamp="2009-08-19T02:12:51Z" uid="104930" user="butlerm" changeset="2196469">
    <nd ref="83633279"/>
    <nd ref="83641867"/>
    <nd ref="83597961"/>
    <nd ref="83641870"/>
    <nd ref="432835331"/>
    <nd ref="432835330"/>
    <nd ref="366497253"/>
    <nd ref="83576335"/>
    <nd ref="470781763"/>
    <nd ref="470781758"/>
    <nd ref="83545317"/>
    <nd ref="83641876"/>
    <nd ref="83549420"/>
    <nd ref="470781837"/>
    <nd ref="83641878"/>
    <nd ref="83585399"/>
    <tag k="created_by" v="Potlatch 0.10f"/>
    <tag k="cycleway" v="lane"/>
    <tag k="highway" v="tertiary"/>
    <tag k="name" v="West 800 South"/>
    <tag k="name_1" v="W 8th South"/>
    <tag k="tiger:cfcc" v="A41"/>
    <tag k="tiger:county" v="Salt Lake, UT"/>
    <tag k="tiger:name_base" v="800"/>
    <tag k="tiger:name_base_1" v="8th South"/>
    <tag k="tiger:name_direction_prefix" v="W"/>
    <tag k="tiger:name_direction_prefix_1" v="W"/>
    <tag k="tiger:name_direction_suffix" v="S"/>
    <tag k="tiger:reviewed" v="no"/>
    <tag k="tiger:separated" v="no"/>
    <tag k="tiger:source" v="tiger_import_dch_v0.6_20070830"/>
    <tag k="tiger:tlid" v="176077067:176077105:176077111:176077242:176077244:176077118:176077070:176077251"/>
    <tag k="tiger:upload_uuid" v="bulk_upload.pl-a2da7ec1-da05-434f-a535-e5cc3da32f27"/>
    <tag k="tiger:zip_left" v="84104"/>
    <tag k="tiger:zip_right" v="84104"/>
  </way>
  <way id="35023159" version="7" timestamp="2010-04-03T13:49:02Z" uid="20587" user="balrog-kun" changeset="4312927">
    <nd ref="83633279"/>
    <nd ref="83641867"/>
    <nd ref="83597961"/>
    <nd ref="83641870"/>
    <nd ref="432835331"/>
    <nd ref="432835330"/>
    <nd ref="366497253"/>
    <nd ref="83576335"/>
    <nd ref="470781763"/>
    <nd ref="470781758"/>
    <nd ref="83545317"/>
    <nd ref="83641876"/>
    <nd ref="83549420"/>
    <nd ref="470781837"/>
    <nd ref="83641878"/>
    <nd ref="83585399"/>
    <tag k="created_by" v="Potlatch 0.10f"/>
    <tag k="cycleway" v="lane"/>
    <tag k="highway" v="tertiary"/>
    <tag k="name" v="West 800 South"/>
    <tag k="name_1" v="West 8th South"/>
    <tag k="tiger:cfcc" v="A41"/>
    <tag k="tiger:county" v="Salt Lake, UT"/>
    <tag k="tiger:name_base" v="800"/>
    <tag k="tiger:name_base_1" v="8th South"/>
    <tag k="tiger:name_direction_prefix" v="W"/>
    <tag k="tiger:name_direction_prefix_1" v="W"/>
    <tag k="tiger:name_direction_suffix" v="S"/>
    <tag k="tiger:reviewed" v="no"/>
    <tag k="tiger:separated" v="no"/>
    <tag k="tiger:source" v="tiger_import_dch_v0.6_20070830"/>
    <tag k="tiger:tlid" v="176077067:176077105:176077111:176077242:176077244:176077118:176077070:176077251"/>
    <tag k="tiger:zip_left" v="84104"/>
    <tag k="tiger:zip_right" v="84104"/>
  </way>
  <way id="35023159" version="8" timestamp="2010-08-05T07:10:04Z" uid="321736" user="Kevin Atkinson" changeset="5405091">
    <nd ref="83633279"/>
    <nd ref="83641867"/>
    <nd ref="83597961"/>
    <nd ref="83641870"/>
    <nd ref="432835331"/>
    <nd ref="432835330"/>
    <nd ref="366497253"/>
    <nd ref="83576335"/>
    <nd ref="470781763"/>
    <nd ref="470781758"/>
    <nd ref="83545317"/>
    <nd ref="83641876"/>
    <nd ref="83549420"/>
    <nd ref="470781837"/>
    <nd ref="83641878"/>
    <nd ref="83585399"/>
    <tag k="cycleway" v="lane"/>
    <tag k="highway" v="tertiary"/>
    <tag k="loc_name" v="8th South"/>
    <tag k="name" v="800 South"/>
    <tag k="name:full" v="West 800 South"/>
    <tag k="name:prefix" v="W"/>
    <tag k="tiger:cfcc" v="A41"/>
    <tag k="tiger:county" v="Salt Lake, UT"/>
    <tag k="tiger:name_base" v="800"/>
    <tag k="tiger:name_base_1" v="8th South"/>
    <tag k="tiger:name_direction_prefix" v="W"/>
    <tag k="tiger:name_direction_prefix_1" v="W"/>
    <tag k="tiger:name_direction_suffix" v="S"/>
    <tag k="tiger:reviewed" v="no"/>
    <tag k="tiger:separated" v="no"/>
    <tag k="tiger:source" v="tiger_import_dch_v0.6_20070830"/>
    <tag k="tiger:tlid" v="176077067:176077105:176077111:176077242:176077244:176077118:176077070:176077251"/>
    <tag k="tiger:zip_left" v="84104"/>
    <tag k="tiger:zip_right" v="84104"/>
  </way>
  <way id="35023159" version="9" timestamp="2012-01-18T01:42:11Z" uid="8909" user="mvexel" changeset="10423956"/>
  <way id="35023162" version="1" timestamp="2009-05-25T00:03:13Z" uid="110593" user="esetzer" changeset="1312225">
    <nd ref="83615476"/>
    <nd ref="410791888"/>
    <nd ref="410791889"/>
    <nd ref="410791890"/>
    <nd ref="410791891"/>
    <nd ref="410791892"/>
    <nd ref="83615476"/>
    <tag k="created_by" v="Merkaartor 0.11"/>
    <tag k="landuse" v="commercial"/>
  </way>
  <way id="35023162" version="2" timestamp="2011-03-28T23:44:55Z" uid="207745" user="NE2" changeset="7702646">
    <nd ref="1223826114"/>
    <nd ref="1223826039"/>
    <nd ref="410791889"/>
    <nd ref="410791892"/>
    <nd ref="1223826114"/>
    <tag k="landuse" v="commercial"/>
  </way>
  <way id="35023163" version="1" timestamp="2009-05-25T00:03:14Z" uid="110593" user="esetzer" changeset="1312225">
    <nd ref="410791891"/>
    <nd ref="410791890"/>
    <nd ref="410791922"/>
    <nd ref="410791923"/>
    <nd ref="410791891"/>
    <tag k="building" v="yes"/>
    <tag k="created_by" v="Merkaartor 0.11"/>
  </way>
  <way id="35023169" version="2" timestamp="2010-03-28T02:07:11Z" uid="20587" user="balrog-kun" changeset="4250871">
    <nd ref="122641976"/>
    <nd ref="122641979"/>
    <nd ref="122641981"/>
    <nd ref="122641982"/>
    <tag k="highway" v="residential"/>
    <tag k="name" v="West 6th Street"/>
    <tag k="tiger:cfcc" v="A41"/>
    <tag k="tiger:county" v="Los Angeles, CA"/>
    <tag k="tiger:name_base" v="6th"/>
    <tag k="tiger:name_direction_prefix" v="W"/>
    <tag k="tiger:name_type" v="St"/>
    <tag k="tiger:separated" v="no"/>
    <tag k="tiger:source" v="tiger_import_dch_v0.6_20070809"/>
    <tag k="tiger:tlid" v="141730219:141730221:141730223:141730300:141730289"/>
    <tag k="tiger:zip_left" v="91766"/>
    <tag k="tiger:zip_right" v="91766"/>
  </way>
  <way id="35023183" version="1" timestamp="2009-05-25T00:06:25Z" uid="110593" user="esetzer" changeset="1312234">
    <nd ref="410792196"/>
    <nd ref="410791804"/>
    <tag k="created_by" v="Merkaartor 0.11"/>
    <tag k="power" v="line"/>
  </way>
  <way id="35023203" version="1" timestamp="2009-05-25T00:11:40Z" uid="110593" user="esetzer" changeset="1312243">
    <nd ref="83582435"/>
    <nd ref="83582433"/>
    <nd ref="83582430"/>
    <nd ref="83650645"/>
    <nd ref="83609778"/>
    <nd ref="410792473"/>
    <nd ref="83582435"/>
    <tag k="created_by" v="Merkaartor 0.11"/>
    <tag k="landuse" v="retail"/>
  </way>
  <way id="35023203" version="2" timestamp="2009-10-03T15:16:11Z" uid="104930" user="butlerm" changeset="2725175">
    <nd ref="83582435"/>
    <nd ref="83582433"/>
    <nd ref="83582430"/>
    <nd ref="83650645"/>
    <nd ref="83609778"/>
    <nd ref="410792473"/>
    <nd ref="83582435"/>
    <tag k="landuse" v="retail"/>
  </way>
  <way id="35023203" version="3" timestamp="2009-10-03T15:16:24Z" uid="104930" user="butlerm" changeset="2725175">
    <nd ref="83582435"/>
    <nd ref="83582433"/>
    <nd ref="83582430"/>
    <nd ref="83650645"/>
    <nd ref="83609778"/>
    <nd ref="518998210"/>
    <nd ref="410792473"/>
    <nd ref="83582435"/>
    <tag k="landuse" v="retail"/>
  </way>
  <way id="35023203" version="4" timestamp="2010-02-22T03:23:28Z" uid="110593" user="esetzer" changeset="3940682">
    <nd ref="83582435"/>
    <nd ref="83582433"/>
    <nd ref="83582430"/>
    <nd ref="83650645"/>
    <nd ref="83609778"/>
    <nd ref="518998210"/>
    <nd ref="410792473"/>
    <nd ref="649989336"/>
    <nd ref="649989337"/>
    <nd ref="649989338"/>
    <nd ref="649989339"/>
    <nd ref="83582435"/>
    <tag k="landuse" v="retail"/>
  </way>
  <way id="35023225" version="1" timestamp="2009-05-25T00:14:38Z" uid="110593" user="esetzer" changeset="1312254">
    <nd ref="83582425"/>
    <nd ref="410792684"/>
    <nd ref="410792685"/>
    <nd ref="410792686"/>
    <tag k="created_by" v="Merkaartor 0.11"/>
    <tag k="name" v="Union Pacific Railroad"/>
    <tag k="railway" v="rail"/>
    <tag k="service" v="spur"/>
    <tag k="tracks" v="1"/>
  </way>
  <way id="35023225" version="2" timestamp="2009-09-06T03:23:31Z" uid="157189" user="wrk3" changeset="2386616">
    <nd ref="83582425"/>
    <nd ref="410792684"/>
    <nd ref="410792685"/>
    <nd ref="410792686"/>
    <tag k="name" v="Union Pacific Railroad"/>
    <tag k="railway" v="rail"/>
    <tag k="service" v="spur"/>
    <tag k="tracks" v="1"/>
  </way>
  <way id="35023225" version="3" timestamp="2009-09-18T18:53:19Z" uid="110593" user="esetzer" changeset="2527357">
    <nd ref="83582425"/>
    <nd ref="410792684"/>
    <nd ref="410792685"/>
    <nd ref="410792686"/>
    <tag k="name" v="Salt Lake City Southern Railroad"/>
    <tag k="note" v="Genesee and Wyoming owns Utah Railway, which owns Salt Lake City Southern"/>
    <tag k="old_name" v="Union Pacific Railroad"/>
    <tag k="operator" v="Genesee and Wyoming Railroad"/>
    <tag k="railway" v="rail"/>
    <tag k="service" v="spur"/>
    <tag k="tracks" v="1"/>
  </way>
  <way id="35023225" version="4" timestamp="2011-03-29T00:06:59Z" uid="207745" user="NE2" changeset="7702646">
    <nd ref="83582425"/>
    <nd ref="410792684"/>
    <nd ref="410792685"/>
    <nd ref="410792686"/>
    <tag k="name" v="Salt Lake City Southern Railroad"/>
    <tag k="note" v="Genesee and Wyoming owns Utah Railway, which owns Salt Lake City Southern"/>
    <tag k="operator" v="Genesee and Wyoming Railroad"/>
    <tag k="railway" v="rail"/>
    <tag k="service" v="spur"/>
    <tag k="tracks" v="1"/>
  </way>
  <way id="35023225" version="5" timestamp="2011-03-29T00:18:29Z" uid="207745" user="NE2" changeset="7702646">
    <nd ref="83582425"/>
    <nd ref="410792684"/>
    <nd ref="410792685"/>
    <nd ref="410792686"/>
    <tag k="operator" v="Salt Lake City Southern Railroad"/>
    <tag k="railway" v="rail"/>
    <tag k="service" v="spur"/>
    <tag k="tracks" v="1"/>
  </way>
  <way id="35023227" version="1" timestamp="2009-05-25T00:15:44Z" uid="110593" user="esetzer" changeset="1312257">
    <nd ref="410792691"/>
    <nd ref="410792692"/>
    <nd ref="410792693"/>
    <nd ref="410792694"/>
    <nd ref="410792691"/>
    <tag k="building" v="yes"/>
    <tag k="created_by" v="Merkaartor 0.11"/>
    <tag k="name" v="R C Wiley Warehouse"/>
  </way>
  <way id="35023227" version="2" timestamp="2009-06-17T01:27:28Z" uid="110593" user="esetzer" changeset="1540987">
    <nd ref="410792691"/>
    <nd ref="410792692"/>
    <nd ref="410792693"/>
    <nd ref="410792694"/>
    <nd ref="410792691"/>
    <tag k="building" v="yes"/>
    <tag k="created_by" v="Merkaartor 0.11"/>
    <tag k="name" v="R C Wiley Showroom"/>
  </way>
  <way id="35023227" version="3" timestamp="2009-10-03T15:11:36Z" uid="104930" user="butlerm" changeset="2725041">
    <nd ref="410792691"/>
    <nd ref="410792692"/>
    <nd ref="410792693"/>
    <nd ref="410792694"/>
    <nd ref="410792691"/>
    <tag k="building" v="yes"/>
    <tag k="name" v="R C Wiley Showroom"/>
  </way>
  <way id="35023229" version="1" timestamp="2009-05-25T00:16:24Z" uid="110593" user="esetzer" changeset="1312261">
    <nd ref="410792693"/>
    <nd ref="410792747"/>
    <nd ref="410792748"/>
    <nd ref="410792692"/>
    <nd ref="410792693"/>
    <tag k="created_by" v="Merkaartor 0.11"/>
    <tag k="natural" v="scrub"/>
  </way>
  <way id="35023229" version="2" timestamp="2009-06-17T01:27:29Z" uid="110593" user="esetzer" changeset="1540987"/>
  <way id="35023240" version="1" timestamp="2009-05-25T00:21:20Z" uid="110593" user="esetzer" changeset="1312272">
    <nd ref="410792854"/>
    <nd ref="410792855"/>
    <tag k="created_by" v="Merkaartor 0.11"/>
    <tag k="power" v="line"/>
  </way>
  <way id="35023244" version="1" timestamp="2009-05-25T00:24:52Z" uid="110593" user="esetzer" changeset="1312280">
    <nd ref="83541826"/>
    <nd ref="410792905"/>
    <nd ref="410792906"/>
    <tag k="created_by" v="Merkaartor 0.11"/>
    <tag k="foot" v="yes"/>
    <tag k="highway" v="cycleway"/>
    <tag k="lit" v="yes"/>
  </way>
  <way id="35023244" version="2" timestamp="2010-04-19T06:27:20Z" uid="110593" user="esetzer" changeset="4465097">
    <nd ref="83541826"/>
    <nd ref="410792905"/>
    <nd ref="410792906"/>
    <tag k="bicycle" v="designated"/>
    <tag k="created_by" v="Merkaartor 0.11"/>
    <tag k="foot" v="designated"/>
    <tag k="highway" v="path"/>
    <tag k="lit" v="yes"/>
  </way>
  <way id="35023245" version="1" timestamp="2009-05-25T00:24:53Z" uid="110593" user="esetzer" changeset="1312280">
    <nd ref="410792906"/>
    <nd ref="410792907"/>
    <tag k="bridge" v="yes"/>
    <tag k="created_by" v="Merkaartor 0.11"/>
    <tag k="foot" v="yes"/>
    <tag k="highway" v="cycleway"/>
    <tag k="layer" v="1"/>
  </way>
  <way id="35023245" version="2" timestamp="2010-04-19T06:27:19Z" uid="110593" user="esetzer" changeset="4465097">
    <nd ref="410792906"/>
    <nd ref="410792907"/>
    <tag k="bicycle" v="designated"/>
    <tag k="bridge" v="yes"/>
    <tag k="created_by" v="Merkaartor 0.11"/>
    <tag k="foot" v="designated"/>
    <tag k="highway" v="path"/>
    <tag k="layer" v="1"/>
  </way>
  <way id="35023251" version="3" timestamp="2010-04-02T17:34:58Z" uid="20587" user="balrog-kun" changeset="4304500">
    <nd ref="50765777"/>
    <nd ref="50765779"/>
    <nd ref="50685601"/>
    <tag k="highway" v="secondary"/>
    <tag k="name" v="Main Street"/>
    <tag k="ref" v="WA 524"/>
    <tag k="tiger:cfcc" v="A41"/>
    <tag k="tiger:county" v="Snohomish, WA"/>
    <tag k="tiger:name_base" v="Main"/>
    <tag k="tiger:name_type" v="St"/>
    <tag k="tiger:reviewed" v="no"/>
    <tag k="tiger:separated" v="no"/>
    <tag k="tiger:source" v="tiger_import_dch_v0.6_20070830"/>
    <tag k="tiger:tlid" v="187754661:187754662:187754611:187751022:187754590:187750998:187751000"/>
    <tag k="tiger:zip_left" v="98020"/>
    <tag k="tiger:zip_right" v="98020"/>
  </way>
  <way id="35023251" version="4" timestamp="2010-05-08T03:49:32Z" uid="282329" user="compdude" changeset="4635584">
    <nd ref="50765777"/>
    <nd ref="50765779"/>
    <nd ref="50685601"/>
    <tag k="highway" v="primary"/>
    <tag k="name" v="Main Street"/>
    <tag k="ref" v="WA 524"/>
    <tag k="tiger:cfcc" v="A41"/>
    <tag k="tiger:county" v="Snohomish, WA"/>
    <tag k="tiger:name_base" v="Main"/>
    <tag k="tiger:name_type" v="St"/>
    <tag k="tiger:reviewed" v="no"/>
    <tag k="tiger:separated" v="no"/>
    <tag k="tiger:source" v="tiger_import_dch_v0.6_20070830"/>
    <tag k="tiger:tlid" v="187754661:187754662:187754611:187751022:187754590:187750998:187751000"/>
    <tag k="tiger:zip_left" v="98020"/>
    <tag k="tiger:zip_right" v="98020"/>
  </way>
  <way id="35023252" version="1" timestamp="2009-05-25T00:27:32Z" uid="110593" user="esetzer" changeset="1312286">
    <nd ref="410793927"/>
    <nd ref="410793940"/>
    <nd ref="410793948"/>
    <nd ref="410793958"/>
    <nd ref="410793977"/>
    <nd ref="410793991"/>
    <tag k="created_by" v="Merkaartor 0.11"/>
    <tag k="power" v="line"/>
  </way>
  <way id="35023252" version="2" timestamp="2009-08-17T03:32:23Z" uid="104930" user="butlerm" changeset="2172942">
    <nd ref="410793927"/>
    <nd ref="410793940"/>
    <nd ref="410793948"/>
    <nd ref="410793958"/>
    <nd ref="410793977"/>
    <nd ref="469578730"/>
    <nd ref="410793991"/>
    <tag k="created_by" v="Merkaartor 0.11"/>
    <tag k="power" v="line"/>
  </way>
  <way id="35023252" version="3" timestamp="2009-09-28T20:34:17Z" uid="110593" user="esetzer" changeset="2670470">
    <nd ref="410793927"/>
    <nd ref="410793940"/>
    <nd ref="410793948"/>
    <nd ref="410793958"/>
    <nd ref="410793977"/>
    <nd ref="469578730"/>
    <nd ref="512693155"/>
    <nd ref="410793991"/>
    <tag k="created_by" v="Merkaartor 0.11"/>
    <tag k="power" v="line"/>
  </way>
  <way id="35023253" version="1" timestamp="2009-05-25T00:27:35Z" uid="110593" user="esetzer" changeset="1312286">
    <nd ref="410793958"/>
    <nd ref="410794050"/>
    <nd ref="410794062"/>
    <nd ref="410794066"/>
    <nd ref="410793940"/>
    <nd ref="410793948"/>
    <nd ref="410793958"/>
    <tag k="amenity" v="college"/>
    <tag k="created_by" v="Merkaartor 0.11"/>
    <tag k="name" v="Salt Lake Community College Meadowbrook Campus"/>
  </way>
  <way id="35023253" version="2" timestamp="2009-08-17T03:32:42Z" uid="104930" user="butlerm" changeset="2172942">
    <nd ref="410793958"/>
    <nd ref="410794050"/>
    <nd ref="410794062"/>
    <nd ref="410794066"/>
    <nd ref="469578733"/>
    <nd ref="410793940"/>
    <nd ref="410793948"/>
    <nd ref="410793958"/>
    <tag k="amenity" v="college"/>
    <tag k="created_by" v="Merkaartor 0.11"/>
    <tag k="name" v="Salt Lake Community College Meadowbrook Campus"/>
  </way>
  <way id="35023253" version="3" timestamp="2009-08-17T03:34:01Z" uid="104930" user="butlerm" changeset="2172942">
    <nd ref="410793958"/>
    <nd ref="410794050"/>
    <nd ref="469579081"/>
    <nd ref="469579082"/>
    <nd ref="410794062"/>
    <nd ref="469579083"/>
    <nd ref="410794066"/>
    <nd ref="469579084"/>
    <nd ref="469578733"/>
    <nd ref="410793940"/>
    <nd ref="410793948"/>
    <nd ref="410793958"/>
    <tag k="amenity" v="college"/>
    <tag k="created_by" v="Merkaartor 0.11"/>
    <tag k="name" v="Salt Lake Community College Meadowbrook Campus"/>
  </way>
  <way id="35023298" version="1" timestamp="2009-05-25T00:28:54Z" uid="110593" user="esetzer" changeset="1312290">
    <nd ref="410794511"/>
    <nd ref="410794512"/>
    <nd ref="410794513"/>
    <nd ref="410794514"/>
    <tag k="created_by" v="Merkaartor 0.11"/>
    <tag k="foot" v="yes"/>
    <tag k="highway" v="cycleway"/>
  </way>
  <way id="35023298" version="2" timestamp="2009-09-12T14:20:09Z" uid="104930" user="butlerm" changeset="2458448">
    <nd ref="410794511"/>
    <nd ref="494215923"/>
    <nd ref="410794512"/>
    <nd ref="410794513"/>
    <nd ref="410794514"/>
    <tag k="foot" v="yes"/>
    <tag k="highway" v="cycleway"/>
  </way>
  <way id="35023298" version="3" timestamp="2009-09-13T02:25:45Z" uid="110593" user="esetzer" changeset="2464470">
    <nd ref="410794511"/>
    <nd ref="494215923"/>
    <nd ref="410794512"/>
    <tag k="foot" v="yes"/>
    <tag k="highway" v="cycleway"/>
  </way>
  <way id="35023299" version="3" timestamp="2010-07-09T05:44:24Z" uid="74617" user="JohnSmith" changeset="5170986">
    <nd ref="391896576"/>
    <nd ref="410794515"/>
    <nd ref="410794516"/>
    <nd ref="410794517"/>
    <nd ref="410794518"/>
    <tag k="highway" v="residential"/>
    <tag k="maxspeed" v="50"/>
    <tag k="maxspeed:source" v="default residential speed limit in Australia"/>
    <tag k="name" v="Lyttleton Street"/>
    <tag k="surface" v="gravel"/>
  </way>
  <way id="35023299" version="4" timestamp="2011-04-12T16:25:44Z" uid="4467" user="Rosscoe" changeset="7844178">
    <nd ref="391896576"/>
    <nd ref="410794515"/>
    <nd ref="410794516"/>
    <nd ref="410794517"/>
    <nd ref="410794518"/>
    <tag k="highway" v="residential"/>
    <tag k="maxspeed" v="50"/>
    <tag k="name" v="Lyttleton Street"/>
    <tag k="source:maxspeed" v="default residential speed limit in Australia"/>
    <tag k="surface" v="gravel"/>
  </way>
  <way id="35023299" version="5" timestamp="2011-11-19T21:42:58Z" uid="46482" user="Leon K" changeset="9878027">
    <nd ref="1509165315"/>
    <nd ref="1509165317"/>
    <nd ref="1509165319"/>
    <nd ref="410794517"/>
    <nd ref="410794518"/>
    <tag k="highway" v="residential"/>
    <tag k="name" v="Lyttleton Street"/>
    <tag k="surface" v="gravel"/>
  </way>
  <way id="35023304" version="3" timestamp="2009-12-22T02:20:40Z" uid="4467" user="Rosscoe" changeset="3424504">
    <nd ref="410794524"/>
    <nd ref="410794525"/>
    <tag k="bridge" v="yes"/>
    <tag k="highway" v="trunk"/>
    <tag k="layer" v="1"/>
    <tag k="maxspeed" v="110"/>
    <tag k="name" v="Bass Highway"/>
    <tag k="oneway" v="yes"/>
  </way>
  <way id="35023304" version="4" timestamp="2011-04-12T16:24:59Z" uid="4467" user="Rosscoe" changeset="7844178">
    <nd ref="410794524"/>
    <nd ref="410794525"/>
    <tag k="bridge" v="yes"/>
    <tag k="highway" v="trunk"/>
    <tag k="layer" v="1"/>
    <tag k="maxspeed" v="110"/>
    <tag k="name" v="Bass Highway"/>
    <tag k="oneway" v="yes"/>
    <tag k="source" v="survey"/>
  </way>
  <way id="35023307" version="14" timestamp="2011-04-12T16:25:18Z" uid="4467" user="Rosscoe" changeset="7844178">
    <nd ref="410794551"/>
    <nd ref="1227830259"/>
    <nd ref="1227830261"/>
    <nd ref="391917739"/>
    <nd ref="1227830263"/>
    <nd ref="391917756"/>
    <nd ref="1227830265"/>
    <nd ref="391917771"/>
    <nd ref="1226489906"/>
    <nd ref="391917779"/>
    <nd ref="598304027"/>
    <nd ref="391917808"/>
    <nd ref="1242121169"/>
    <nd ref="391917825"/>
    <nd ref="1242120678"/>
    <nd ref="391917853"/>
    <nd ref="1242121194"/>
    <nd ref="391917886"/>
    <nd ref="391917913"/>
    <nd ref="391917931"/>
    <nd ref="391917948"/>
    <nd ref="598304028"/>
    <nd ref="391917962"/>
    <nd ref="391917973"/>
    <nd ref="1242121065"/>
    <nd ref="391918003"/>
    <nd ref="1242121082"/>
    <nd ref="1242121157"/>
    <nd ref="391918021"/>
    <nd ref="391918040"/>
    <nd ref="436124543"/>
    <nd ref="1242120601"/>
    <nd ref="391918056"/>
    <nd ref="441047099"/>
    <nd ref="436124542"/>
    <nd ref="391918057"/>
    <nd ref="391918061"/>
    <nd ref="391918065"/>
    <nd ref="1242121195"/>
    <nd ref="1242120525"/>
    <nd ref="391918066"/>
    <nd ref="1242120986"/>
    <nd ref="391918067"/>
    <nd ref="1242121158"/>
    <nd ref="1242121187"/>
    <nd ref="391918068"/>
    <nd ref="1242121211"/>
    <nd ref="1242121064"/>
    <nd ref="391918069"/>
    <nd ref="1242120709"/>
    <nd ref="391918070"/>
    <nd ref="391918071"/>
    <nd ref="391918072"/>
    <nd ref="1242120788"/>
    <nd ref="1014101879"/>
    <nd ref="391918073"/>
    <nd ref="1242120764"/>
    <nd ref="1014101880"/>
    <nd ref="391918074"/>
    <nd ref="1242120603"/>
    <nd ref="1014101889"/>
    <nd ref="1242120891"/>
    <nd ref="1242121193"/>
    <nd ref="391918075"/>
    <nd ref="1242121122"/>
    <nd ref="391918076"/>
    <nd ref="1242120544"/>
    <nd ref="528642748"/>
    <nd ref="1242120836"/>
    <nd ref="391918077"/>
    <nd ref="1242121088"/>
    <nd ref="391918078"/>
    <nd ref="1242121093"/>
    <nd ref="391918079"/>
    <nd ref="1242120490"/>
    <nd ref="528642795"/>
    <nd ref="1242120780"/>
    <nd ref="528642706"/>
    <nd ref="391918080"/>
    <nd ref="391918081"/>
    <nd ref="600647982"/>
    <nd ref="600647966"/>
    <nd ref="1226536708"/>
    <nd ref="600647967"/>
    <nd ref="600647968"/>
    <nd ref="1025774315"/>
    <nd ref="400695987"/>
    <tag k="name" v="Western Line"/>
    <tag k="railway" v="rail"/>
    <tag k="source" v="nearmap"/>
  </way>
  <way id="35023307" version="15" timestamp="2011-04-21T23:15:59Z" uid="46482" user="Leon K" changeset="7930106">
    <nd ref="410794551"/>
    <nd ref="1227830259"/>
    <nd ref="1227830261"/>
    <nd ref="391917739"/>
    <nd ref="1227830263"/>
    <nd ref="391917756"/>
    <nd ref="1227830265"/>
    <nd ref="391917771"/>
    <nd ref="1226489906"/>
    <nd ref="391917779"/>
    <nd ref="598304027"/>
    <nd ref="391917808"/>
    <nd ref="1242121169"/>
    <nd ref="391917825"/>
    <nd ref="1242120678"/>
    <nd ref="391917853"/>
    <nd ref="1242121194"/>
    <nd ref="391917886"/>
    <nd ref="391917913"/>
    <nd ref="391917931"/>
    <nd ref="391917948"/>
    <nd ref="1254696905"/>
    <nd ref="598304028"/>
    <nd ref="391917962"/>
    <nd ref="391917973"/>
    <nd ref="1242121065"/>
    <nd ref="391918003"/>
    <nd ref="1242121082"/>
    <nd ref="1242121157"/>
    <nd ref="391918021"/>
    <nd ref="391918040"/>
    <nd ref="436124543"/>
    <nd ref="1242120601"/>
    <nd ref="391918056"/>
    <nd ref="441047099"/>
    <nd ref="436124542"/>
    <nd ref="391918057"/>
    <nd ref="391918061"/>
    <nd ref="391918065"/>
    <nd ref="1242121195"/>
    <nd ref="1242120525"/>
    <nd ref="391918066"/>
    <nd ref="1242120986"/>
    <nd ref="391918067"/>
    <nd ref="1242121158"/>
    <nd ref="1242121187"/>
    <nd ref="391918068"/>
    <nd ref="1242121211"/>
    <nd ref="1242121064"/>
    <nd ref="391918069"/>
    <nd ref="1242120709"/>
    <nd ref="391918070"/>
    <nd ref="391918071"/>
    <nd ref="391918072"/>
    <nd ref="1242120788"/>
    <nd ref="1014101879"/>
    <nd ref="391918073"/>
    <nd ref="1242120764"/>
    <nd ref="1014101880"/>
    <nd ref="391918074"/>
    <nd ref="1242120603"/>
    <nd ref="1014101889"/>
    <nd ref="1242120891"/>
    <nd ref="1242121193"/>
    <nd ref="391918075"/>
    <nd ref="1242121122"/>
    <nd ref="391918076"/>
    <nd ref="1242120544"/>
    <nd ref="528642748"/>
    <nd ref="1242120836"/>
    <nd ref="391918077"/>
    <nd ref="1242121088"/>
    <nd ref="391918078"/>
    <nd ref="1242121093"/>
    <nd ref="391918079"/>
    <nd ref="1242120490"/>
    <nd ref="528642795"/>
    <nd ref="1242120780"/>
    <nd ref="528642706"/>
    <nd ref="391918080"/>
    <nd ref="391918081"/>
    <nd ref="600647982"/>
    <nd ref="600647966"/>
    <nd ref="1226536708"/>
    <nd ref="600647967"/>
    <nd ref="600647968"/>
    <nd ref="1025774315"/>
    <nd ref="400695987"/>
    <tag k="name" v="Western Line"/>
    <tag k="railway" v="rail"/>
    <tag k="source" v="nearmap"/>
  </way>
  <way id="35023307" version="16" timestamp="2011-06-18T09:29:26Z" uid="46482" user="Leon K" changeset="8471381">
    <nd ref="410794551"/>
    <nd ref="1227830259"/>
    <nd ref="1227830261"/>
    <nd ref="391917739"/>
    <nd ref="1227830263"/>
    <nd ref="391917756"/>
    <nd ref="1227830265"/>
    <nd ref="391917771"/>
    <nd ref="1226489906"/>
    <nd ref="391917779"/>
    <nd ref="598304027"/>
    <nd ref="391917808"/>
    <nd ref="1242121169"/>
    <nd ref="391917825"/>
    <nd ref="1242120678"/>
    <nd ref="391917853"/>
    <nd ref="1242121194"/>
    <nd ref="391917886"/>
    <nd ref="391917913"/>
    <nd ref="391917931"/>
    <nd ref="391917948"/>
    <nd ref="1254696905"/>
    <nd ref="598304028"/>
    <nd ref="391917962"/>
    <nd ref="391917973"/>
    <nd ref="1242121065"/>
    <nd ref="391918003"/>
    <nd ref="1242121082"/>
    <nd ref="1242121157"/>
    <nd ref="391918021"/>
    <nd ref="391918040"/>
    <nd ref="436124543"/>
    <nd ref="1242120601"/>
    <nd ref="391918056"/>
    <nd ref="441047099"/>
    <nd ref="436124542"/>
    <nd ref="391918057"/>
    <nd ref="391918061"/>
    <nd ref="391918065"/>
    <nd ref="1242121195"/>
    <nd ref="1242120525"/>
    <nd ref="391918066"/>
    <nd ref="1242120986"/>
    <nd ref="391918067"/>
    <nd ref="1242121158"/>
    <nd ref="1242121187"/>
    <nd ref="391918068"/>
    <nd ref="1242121211"/>
    <nd ref="1242121064"/>
    <nd ref="391918069"/>
    <nd ref="1242120709"/>
    <nd ref="391918070"/>
    <nd ref="391918071"/>
    <nd ref="391918072"/>
    <nd ref="1242120788"/>
    <nd ref="1014101879"/>
    <nd ref="391918073"/>
    <nd ref="1242120764"/>
    <nd ref="1014101880"/>
    <nd ref="391918074"/>
    <nd ref="1242120603"/>
    <nd ref="1014101889"/>
    <nd ref="1242120891"/>
    <nd ref="1242121193"/>
    <nd ref="391918075"/>
    <nd ref="1242121122"/>
    <nd ref="391918076"/>
    <nd ref="1242120544"/>
    <nd ref="528642748"/>
    <nd ref="1242120836"/>
    <nd ref="391918077"/>
    <nd ref="1242121088"/>
    <nd ref="391918078"/>
    <nd ref="1242121093"/>
    <nd ref="391918079"/>
    <nd ref="1242120490"/>
    <nd ref="528642795"/>
    <nd ref="1242120780"/>
    <nd ref="528642706"/>
    <nd ref="391918080"/>
    <nd ref="391918081"/>
    <nd ref="600647982"/>
    <nd ref="600647966"/>
    <nd ref="1226536708"/>
    <nd ref="600647967"/>
    <nd ref="600647968"/>
    <nd ref="1025774315"/>
    <nd ref="400695987"/>
    <tag k="name" v="Western Line"/>
    <tag k="railway" v="rail"/>
    <tag k="source" v="nearmap"/>
    <tag k="usage" v="main"/>
  </way>
  <way id="35023307" version="17" timestamp="2012-01-12T12:08:59Z" uid="46482" user="Leon K" changeset="10368840"/>
  <way id="35023308" version="2" timestamp="2009-12-22T02:20:39Z" uid="4467" user="Rosscoe" changeset="3424504">
    <nd ref="391917704"/>
    <nd ref="410794551"/>
    <tag k="bridge" v="yes"/>
    <tag k="layer" v="1"/>
    <tag k="name" v="Western Line"/>
    <tag k="railway" v="rail"/>
  </way>
  <way id="35023308" version="3" timestamp="2011-06-18T09:29:27Z" uid="46482" user="Leon K" changeset="8471381">
    <nd ref="391917704"/>
    <nd ref="410794551"/>
    <tag k="bridge" v="yes"/>
    <tag k="layer" v="1"/>
    <tag k="name" v="Western Line"/>
    <tag k="railway" v="rail"/>
    <tag k="usage" v="main"/>
  </way>
  <way id="35023308" version="4" timestamp="2012-01-12T12:08:58Z" uid="46482" user="Leon K" changeset="10368840">
    <nd ref="391917704"/>
    <nd ref="410794551"/>
    <tag k="bridge" v="yes"/>
    <tag k="layer" v="1"/>
    <tag k="name" v="Western Line"/>
    <tag k="railway" v="rail"/>
    <tag k="usage" v="main"/>
  </way>
  <way id="35023309" version="2" timestamp="2009-12-22T02:20:39Z" uid="4467" user="Rosscoe" changeset="3424504">
    <nd ref="410794552"/>
    <nd ref="313129399"/>
    <tag k="bridge" v="yes"/>
    <tag k="highway" v="primary"/>
    <tag k="layer" v="1"/>
    <tag k="maxspeed" v="60"/>
    <tag k="name" v="Meander Valley Road"/>
    <tag k="ref" v="B54"/>
  </way>
  <way id="35023313" version="1" timestamp="2009-05-25T00:31:55Z" uid="110593" user="esetzer" changeset="1312298">
    <nd ref="83657332"/>
    <nd ref="410794590"/>
    <nd ref="410794591"/>
    <nd ref="410794592"/>
    <nd ref="410794593"/>
    <tag k="created_by" v="Merkaartor 0.11"/>
    <tag k="name" v="Union Pacific Railroad"/>
    <tag k="railway" v="rail"/>
    <tag k="service" v="spur"/>
  </way>
  <way id="35023313" version="2" timestamp="2009-08-17T03:27:50Z" uid="104930" user="butlerm" changeset="2172913">
    <nd ref="83657332"/>
    <nd ref="410794590"/>
    <nd ref="469577262"/>
    <tag k="created_by" v="Merkaartor 0.11"/>
    <tag k="name" v="Union Pacific Railroad"/>
    <tag k="railway" v="rail"/>
    <tag k="service" v="spur"/>
  </way>
  <way id="35023313" version="3" timestamp="2009-09-12T14:40:57Z" uid="104930" user="butlerm" changeset="2458563">
    <nd ref="83657332"/>
    <nd ref="410794590"/>
    <nd ref="469577262"/>
    <tag k="name" v="Union Pacific Railroad"/>
    <tag k="railway" v="rail"/>
    <tag k="service" v="spur"/>
  </way>
  <way id="35023313" version="4" timestamp="2009-09-12T14:41:27Z" uid="104930" user="butlerm" changeset="2458563">
    <nd ref="83657332"/>
    <nd ref="410794590"/>
    <nd ref="494227302"/>
    <tag k="name" v="Union Pacific Railroad"/>
    <tag k="railway" v="rail"/>
    <tag k="service" v="spur"/>
  </way>
  <way id="35023313" version="5" timestamp="2009-09-18T19:03:05Z" uid="110593" user="esetzer" changeset="2527460">
    <nd ref="83657332"/>
    <nd ref="410794590"/>
    <nd ref="494227302"/>
    <tag k="name" v="Salt Lake City Southern Railroad"/>
    <tag k="note" v="Genesee and Wyoming owns Utah Railway, which owns Salt Lake City Southern"/>
    <tag k="operator" v="Genesse and Wyoming Railroad"/>
    <tag k="railway" v="rail"/>
    <tag k="service" v="spur"/>
  </way>
  <way id="35023313" version="6" timestamp="2011-03-29T00:18:28Z" uid="207745" user="NE2" changeset="7702646">
    <nd ref="83657332"/>
    <nd ref="410794590"/>
    <nd ref="494227302"/>
    <tag k="operator" v="Salt Lake City Southern Railroad"/>
    <tag k="railway" v="rail"/>
    <tag k="service" v="spur"/>
  </way>
  <way id="35023314" version="1" timestamp="2009-05-25T00:31:55Z" uid="110593" user="esetzer" changeset="1312298">
    <nd ref="83628208"/>
    <nd ref="410794593"/>
    <nd ref="83627510"/>
    <nd ref="83657332"/>
    <nd ref="83628208"/>
    <tag k="created_by" v="Merkaartor 0.11"/>
    <tag k="landuse" v="industrial"/>
  </way>
  <way id="35023314" version="2" timestamp="2009-08-17T03:28:00Z" uid="104930" user="butlerm" changeset="2172913">
    <nd ref="83628208"/>
    <nd ref="469577276"/>
    <nd ref="410794593"/>
    <nd ref="83627510"/>
    <nd ref="83657332"/>
    <nd ref="83628208"/>
    <tag k="created_by" v="Merkaartor 0.11"/>
    <tag k="landuse" v="industrial"/>
  </way>
  <way id="35023314" version="3" timestamp="2009-08-17T03:28:31Z" uid="104930" user="butlerm" changeset="2172913">
    <nd ref="469577276"/>
    <nd ref="410794593"/>
    <nd ref="469577586"/>
    <nd ref="83627510"/>
    <tag k="created_by" v="Merkaartor 0.11"/>
    <tag k="landuse" v="industrial"/>
  </way>
  <way id="35023314" version="4" timestamp="2009-08-17T03:28:47Z" uid="104930" user="butlerm" changeset="2172913"/>
  <way id="35023315" version="1" timestamp="2009-05-25T00:33:06Z" uid="110593" user="esetzer" changeset="1312301">
    <nd ref="83627510"/>
    <nd ref="83627508"/>
    <nd ref="410794597"/>
    <nd ref="410794598"/>
    <nd ref="83582209"/>
    <nd ref="370965031"/>
    <nd ref="410794593"/>
    <nd ref="83627510"/>
    <tag k="created_by" v="Merkaartor 0.11"/>
    <tag k="landuse" v="forest"/>
  </way>
  <way id="35023315" version="2" timestamp="2009-08-17T03:27:09Z" uid="104930" user="butlerm" changeset="2172913">
    <nd ref="83627510"/>
    <nd ref="83627508"/>
    <nd ref="410794597"/>
    <nd ref="410794598"/>
    <nd ref="83582209"/>
    <nd ref="469577257"/>
    <nd ref="83627510"/>
    <tag k="created_by" v="Merkaartor 0.11"/>
    <tag k="landuse" v="forest"/>
  </way>
  <way id="35023315" version="3" timestamp="2009-08-17T03:27:42Z" uid="104930" user="butlerm" changeset="2172913">
    <nd ref="83627510"/>
    <nd ref="83627508"/>
    <nd ref="410794597"/>
    <nd ref="469577260"/>
    <nd ref="410794598"/>
    <nd ref="83582209"/>
    <nd ref="469577261"/>
    <nd ref="469577257"/>
    <nd ref="83627510"/>
    <tag k="created_by" v="Merkaartor 0.11"/>
    <tag k="landuse" v="forest"/>
  </way>
  <way id="35023315" version="4" timestamp="2009-09-12T14:44:39Z" uid="104930" user="butlerm" changeset="2458563">
    <nd ref="83627510"/>
    <nd ref="494228275"/>
    <nd ref="83627508"/>
    <nd ref="410794597"/>
    <nd ref="469577260"/>
    <nd ref="410794598"/>
    <nd ref="83582209"/>
    <nd ref="469577261"/>
    <nd ref="469577257"/>
    <nd ref="83627510"/>
    <tag k="landuse" v="forest"/>
  </way>
  <way id="35023315" version="5" timestamp="2009-09-21T04:35:17Z" uid="104930" user="butlerm" changeset="2553631">
    <nd ref="83627510"/>
    <nd ref="494228275"/>
    <nd ref="83627508"/>
    <nd ref="410794597"/>
    <nd ref="503840921"/>
    <nd ref="469577260"/>
    <nd ref="503840920"/>
    <nd ref="410794598"/>
    <nd ref="83582209"/>
    <nd ref="469577261"/>
    <nd ref="469577257"/>
    <nd ref="83627510"/>
    <tag k="landuse" v="forest"/>
  </way>
  <way id="35023315" version="6" timestamp="2009-10-03T08:26:10Z" uid="104930" user="butlerm" changeset="2720634">
    <nd ref="83627510"/>
    <nd ref="83627508"/>
    <nd ref="410794597"/>
    <nd ref="503840921"/>
    <nd ref="469577260"/>
    <nd ref="503840920"/>
    <nd ref="410794598"/>
    <nd ref="83582209"/>
    <nd ref="469577261"/>
    <nd ref="469577257"/>
    <nd ref="83627510"/>
    <tag k="landuse" v="forest"/>
  </way>
  <way id="35023315" version="7" timestamp="2009-10-03T08:26:38Z" uid="104930" user="butlerm" changeset="2720634">
    <nd ref="83627510"/>
    <nd ref="518475972"/>
    <nd ref="503840921"/>
    <nd ref="469577260"/>
    <nd ref="503840920"/>
    <nd ref="410794598"/>
    <nd ref="83582209"/>
    <nd ref="469577261"/>
    <nd ref="469577257"/>
    <nd ref="83627510"/>
    <tag k="landuse" v="forest"/>
  </way>
  <way id="35023340" version="1" timestamp="2009-05-25T00:37:06Z" uid="110593" user="esetzer" changeset="1312311">
    <nd ref="410794673"/>
    <nd ref="410794674"/>
    <nd ref="410794675"/>
    <nd ref="410794676"/>
    <nd ref="410794677"/>
    <nd ref="410794678"/>
    <tag k="created_by" v="Merkaartor 0.11"/>
    <tag k="highway" v="unclassified"/>
  </way>
  <way id="35023340" version="2" timestamp="2009-08-17T03:29:00Z" uid="104930" user="butlerm" changeset="2172913">
    <nd ref="410794673"/>
    <nd ref="410794674"/>
    <nd ref="410794675"/>
    <nd ref="410794678"/>
    <tag k="created_by" v="Merkaartor 0.11"/>
    <tag k="highway" v="unclassified"/>
  </way>
  <way id="35023340" version="3" timestamp="2009-09-21T04:34:51Z" uid="104930" user="butlerm" changeset="2553631">
    <nd ref="410794673"/>
    <nd ref="410794674"/>
    <nd ref="410794675"/>
    <nd ref="410794678"/>
    <tag k="highway" v="service"/>
  </way>
  <way id="35023383" version="1" timestamp="2009-05-25T00:41:02Z" uid="110593" user="esetzer" changeset="1312328">
    <nd ref="410795282"/>
    <nd ref="410795283"/>
    <nd ref="410795284"/>
    <nd ref="410795285"/>
    <nd ref="410795282"/>
    <tag k="created_by" v="Merkaartor 0.11"/>
    <tag k="power" v="station"/>
  </way>
  <way id="35023383" version="2" timestamp="2009-08-17T03:08:19Z" uid="104930" user="butlerm" changeset="2172812"/>
  <way id="35023385" version="1" timestamp="2009-05-25T00:42:58Z" uid="110593" user="esetzer" changeset="1312333">
    <nd ref="410795365"/>
    <nd ref="410795415"/>
    <nd ref="410795431"/>
    <nd ref="410795440"/>
    <tag k="created_by" v="Merkaartor 0.11"/>
    <tag k="operator" v="Union Pacific Railroad"/>
    <tag k="railway" v="rail"/>
    <tag k="service" v="spur"/>
    <tag k="tracks" v="1"/>
  </way>
  <way id="35023385" version="2" timestamp="2010-10-04T02:49:28Z" uid="120468" user="Nakor" changeset="5950039">
    <nd ref="410795365"/>
    <nd ref="410795415"/>
    <nd ref="410795431"/>
    <nd ref="410795440"/>
    <tag k="operator" v="Union Pacific Railroad"/>
    <tag k="railway" v="rail"/>
    <tag k="service" v="spur"/>
    <tag k="tracks" v="1"/>
  </way>
  <way id="35023386" version="1" timestamp="2009-05-25T00:43:21Z" uid="20587" user="balrog-kun" changeset="1312332">
    <nd ref="410769386"/>
    <nd ref="410795336"/>
    <nd ref="410795337"/>
    <nd ref="410795338"/>
    <nd ref="410795339"/>
    <nd ref="410795340"/>
    <nd ref="410795341"/>
    <nd ref="410795342"/>
    <nd ref="410795343"/>
    <nd ref="410795344"/>
    <nd ref="410795345"/>
    <nd ref="410795346"/>
    <nd ref="410795347"/>
    <nd ref="410795348"/>
    <nd ref="410795349"/>
    <nd ref="410795350"/>
    <nd ref="410795351"/>
    <nd ref="410795352"/>
    <nd ref="410795353"/>
    <nd ref="410795354"/>
    <nd ref="410795355"/>
    <tag k="railway" v="rail"/>
    <tag k="service" v="spur"/>
  </way>
  <way id="35023386" version="2" timestamp="2011-02-09T01:54:49Z" uid="165509" user="koszatek" changeset="7232505"/>
  <way id="35023387" version="1" timestamp="2009-05-25T00:43:21Z" uid="20587" user="balrog-kun" changeset="1312332">
    <nd ref="410795351"/>
    <nd ref="410795363"/>
    <nd ref="410795356"/>
    <nd ref="410795357"/>
    <nd ref="410795358"/>
    <nd ref="410795359"/>
    <nd ref="410795360"/>
    <nd ref="410795361"/>
    <tag k="railway" v="rail"/>
    <tag k="service" v="spur"/>
  </way>
  <way id="35023388" version="1" timestamp="2009-05-25T00:43:21Z" uid="20587" user="balrog-kun" changeset="1312332">
    <nd ref="410795357"/>
    <nd ref="410795362"/>
    <nd ref="410795364"/>
    <nd ref="410795366"/>
    <nd ref="410795367"/>
    <nd ref="410795368"/>
    <nd ref="410795369"/>
    <nd ref="410795370"/>
    <nd ref="410795371"/>
    <nd ref="410795372"/>
    <nd ref="410795373"/>
    <nd ref="410795374"/>
    <nd ref="410795375"/>
    <nd ref="410795376"/>
    <nd ref="410795377"/>
    <tag k="railway" v="rail"/>
    <tag k="service" v="spur"/>
  </way>
  <way id="35023389" version="1" timestamp="2009-05-25T00:43:21Z" uid="20587" user="balrog-kun" changeset="1312332">
    <nd ref="410795378"/>
    <nd ref="410795379"/>
    <nd ref="410795380"/>
    <nd ref="410795381"/>
    <nd ref="410795382"/>
    <nd ref="410795383"/>
    <nd ref="410795384"/>
    <nd ref="410795378"/>
    <tag k="landuse" v="industrial"/>
  </way>
  <way id="35023390" version="1" timestamp="2009-05-25T00:43:21Z" uid="20587" user="balrog-kun" changeset="1312332">
    <nd ref="410769377"/>
    <nd ref="410769378"/>
    <nd ref="410769383"/>
    <nd ref="410795385"/>
    <nd ref="410795388"/>
    <nd ref="410795389"/>
    <nd ref="410795390"/>
    <nd ref="410795391"/>
    <nd ref="410769377"/>
    <tag k="landuse" v="industrial"/>
  </way>
  <way id="35023391" version="1" timestamp="2009-05-25T00:43:21Z" uid="20587" user="balrog-kun" changeset="1312332">
    <nd ref="410795386"/>
    <nd ref="410795387"/>
    <tag k="highway" v="service"/>
  </way>
  <way id="35023392" version="1" timestamp="2009-05-25T00:43:21Z" uid="20587" user="balrog-kun" changeset="1312332">
    <nd ref="410795385"/>
    <nd ref="410795392"/>
    <nd ref="410795393"/>
    <nd ref="410795394"/>
    <nd ref="410795395"/>
    <nd ref="410795388"/>
    <nd ref="410795385"/>
    <tag k="landuse" v="industrial"/>
  </way>
  <way id="35023393" version="1" timestamp="2009-05-25T00:43:22Z" uid="20587" user="balrog-kun" changeset="1312332">
    <nd ref="410795397"/>
    <nd ref="410795398"/>
    <nd ref="410795406"/>
    <nd ref="410795399"/>
    <nd ref="410795400"/>
    <nd ref="410795401"/>
    <nd ref="410795402"/>
    <nd ref="410795403"/>
    <nd ref="410795404"/>
    <nd ref="410795405"/>
    <nd ref="410795406"/>
    <tag k="highway" v="service"/>
  </way>
  <way id="35023393" version="2" timestamp="2011-06-15T06:44:17Z" uid="37370" user="amateja" changeset="8444293">
    <nd ref="410795400"/>
    <nd ref="410795399"/>
    <nd ref="410795406"/>
    <nd ref="410795398"/>
    <nd ref="410795397"/>
    <tag k="highway" v="service"/>
    <tag k="oneway" v="yes"/>
  </way>
  <way id="35023394" version="1" timestamp="2009-05-25T00:43:22Z" uid="20587" user="balrog-kun" changeset="1312332">
    <nd ref="410795420"/>
    <nd ref="410795421"/>
    <nd ref="410795422"/>
    <nd ref="410795423"/>
    <tag k="access" v="designated"/>
    <tag k="highway" v="service"/>
  </way>
  <way id="35023395" version="1" timestamp="2009-05-25T00:43:22Z" uid="20587" user="balrog-kun" changeset="1312332">
    <nd ref="410795424"/>
    <nd ref="410795427"/>
    <nd ref="410795425"/>
    <tag k="highway" v="service"/>
  </way>
  <way id="35023396" version="1" timestamp="2009-05-25T00:43:22Z" uid="20587" user="balrog-kun" changeset="1312332">
    <nd ref="410795425"/>
    <nd ref="410795426"/>
    <nd ref="410795558"/>
    <nd ref="410795547"/>
    <tag k="highway" v="service"/>
  </way>
  <way id="35023397" version="1" timestamp="2009-05-25T00:43:22Z" uid="20587" user="balrog-kun" changeset="1312332">
    <nd ref="410795427"/>
    <nd ref="410795423"/>
    <nd ref="410795428"/>
    <tag k="access" v="designated"/>
    <tag k="highway" v="service"/>
  </way>
  <way id="35023398" version="1" timestamp="2009-05-25T00:43:22Z" uid="20587" user="balrog-kun" changeset="1312332">
    <nd ref="410795429"/>
    <nd ref="410795430"/>
    <nd ref="410795432"/>
    <nd ref="410795433"/>
    <nd ref="410795434"/>
    <nd ref="410795435"/>
    <nd ref="410795436"/>
    <nd ref="410795437"/>
    <nd ref="410795438"/>
    <nd ref="410795439"/>
    <nd ref="410795441"/>
    <nd ref="410795429"/>
    <tag k="landuse" v="industrial"/>
  </way>
  <way id="35023399" version="1" timestamp="2009-05-25T00:43:22Z" uid="20587" user="balrog-kun" changeset="1312332">
    <nd ref="410795444"/>
    <nd ref="410795445"/>
    <tag k="highway" v="residential"/>
    <tag k="name" v="Nadzei"/>
  </way>
  <way id="35023400" version="1" timestamp="2009-05-25T00:43:22Z" uid="20587" user="balrog-kun" changeset="1312332">
    <nd ref="410795446"/>
    <nd ref="410795447"/>
    <tag k="highway" v="residential"/>
    <tag k="name" v="Głuszycka"/>
  </way>
  <way id="35023401" version="1" timestamp="2009-05-25T00:43:22Z" uid="20587" user="balrog-kun" changeset="1312332">
    <nd ref="410795447"/>
    <nd ref="410795448"/>
    <nd ref="410795449"/>
    <tag k="highway" v="residential"/>
    <tag k="name" v="Analityczna"/>
  </way>
  <way id="35023401" version="2" timestamp="2011-12-07T10:29:19Z" uid="37370" user="amateja" changeset="10056481">
    <nd ref="410795447"/>
    <nd ref="410795448"/>
    <tag k="highway" v="residential"/>
    <tag k="name" v="Analityczna"/>
  </way>
  <way id="35023402" version="1" timestamp="2009-05-25T00:43:22Z" uid="20587" user="balrog-kun" changeset="1312332">
    <nd ref="410795450"/>
    <nd ref="410795451"/>
    <nd ref="410795452"/>
    <nd ref="410795453"/>
    <nd ref="410795454"/>
    <nd ref="410795455"/>
    <nd ref="410795456"/>
    <nd ref="410795450"/>
    <tag k="landuse" v="industrial"/>
  </way>
  <way id="35023402" version="2" timestamp="2011-12-05T10:54:03Z" uid="37370" user="amateja" changeset="10040772">
    <nd ref="410795450"/>
    <nd ref="410795451"/>
    <nd ref="410795453"/>
    <nd ref="410795454"/>
    <nd ref="410795455"/>
    <nd ref="410795456"/>
    <nd ref="410795450"/>
    <tag k="landuse" v="industrial"/>
  </way>
  <way id="35023403" version="1" timestamp="2009-05-25T00:43:22Z" uid="20587" user="balrog-kun" changeset="1312332">
    <nd ref="410795457"/>
    <nd ref="410795458"/>
    <tag k="highway" v="service"/>
  </way>
  <way id="35023403" version="2" timestamp="2011-09-25T22:37:50Z" uid="477744" user="hormel" changeset="9397688">
    <nd ref="410795457"/>
    <nd ref="410795458"/>
    <nd ref="1445853672"/>
    <nd ref="410795478"/>
    <tag k="highway" v="service"/>
  </way>
  <way id="35023404" version="1" timestamp="2009-05-25T00:43:22Z" uid="20587" user="balrog-kun" changeset="1312332">
    <nd ref="410795459"/>
    <nd ref="410795460"/>
    <nd ref="410795461"/>
    <nd ref="410795462"/>
    <nd ref="410795463"/>
    <nd ref="410795464"/>
    <nd ref="410795465"/>
    <nd ref="410795466"/>
    <nd ref="410795467"/>
    <nd ref="410795468"/>
    <nd ref="410795469"/>
    <nd ref="410795470"/>
    <nd ref="410795471"/>
    <nd ref="410795459"/>
    <tag k="landuse" v="reservoir"/>
  </way>
  <way id="35023404" version="2" timestamp="2011-09-24T10:03:01Z" uid="477744" user="hormel" changeset="9382853"/>
  <way id="35023405" version="1" timestamp="2009-05-25T00:43:22Z" uid="20587" user="balrog-kun" changeset="1312332">
    <nd ref="410795472"/>
    <nd ref="410795473"/>
    <nd ref="410795474"/>
    <nd ref="410795481"/>
    <nd ref="410795475"/>
    <nd ref="410795476"/>
    <nd ref="410795458"/>
    <nd ref="410795477"/>
    <nd ref="410795478"/>
    <nd ref="410795479"/>
    <nd ref="410795480"/>
    <nd ref="410795481"/>
    <tag k="highway" v="track"/>
  </way>
  <way id="35023405" version="2" timestamp="2011-09-24T10:03:01Z" uid="477744" user="hormel" changeset="9382853">
    <nd ref="410795472"/>
    <nd ref="410795473"/>
    <nd ref="410795474"/>
    <nd ref="410795481"/>
    <nd ref="1444339928"/>
    <nd ref="410795475"/>
    <nd ref="1444339927"/>
    <nd ref="410795476"/>
    <nd ref="410795458"/>
    <nd ref="410795477"/>
    <nd ref="1444339910"/>
    <nd ref="410795478"/>
    <nd ref="410795479"/>
    <nd ref="410795480"/>
    <nd ref="410795481"/>
    <tag k="highway" v="track"/>
  </way>
  <way id="35023405" version="3" timestamp="2011-09-25T22:37:50Z" uid="477744" user="hormel" changeset="9397688">
    <nd ref="410795472"/>
    <nd ref="410795473"/>
    <nd ref="410795474"/>
    <nd ref="410795481"/>
    <nd ref="1444339928"/>
    <nd ref="410795475"/>
    <nd ref="1444339927"/>
    <nd ref="410795476"/>
    <nd ref="410795458"/>
    <nd ref="410795477"/>
    <nd ref="1444339910"/>
    <nd ref="410795478"/>
    <nd ref="410795479"/>
    <nd ref="410795480"/>
    <nd ref="410795481"/>
    <tag k="highway" v="service"/>
  </way>
  <way id="35023406" version="1" timestamp="2009-05-25T00:43:22Z" uid="20587" user="balrog-kun" changeset="1312332">
    <nd ref="410795482"/>
    <nd ref="410795483"/>
    <nd ref="410795484"/>
    <nd ref="410795485"/>
    <nd ref="410795486"/>
    <nd ref="410795487"/>
    <nd ref="410795488"/>
    <nd ref="410795489"/>
    <nd ref="410795490"/>
    <nd ref="410795491"/>
    <nd ref="410795492"/>
    <nd ref="410795493"/>
    <nd ref="410795494"/>
    <nd ref="410795495"/>
    <nd ref="410795482"/>
    <tag k="landuse" v="industrial"/>
  </way>
  <way id="35023406" version="2" timestamp="2011-12-05T10:54:02Z" uid="37370" user="amateja" changeset="10040772">
    <nd ref="410795482"/>
    <nd ref="410795483"/>
    <nd ref="410795484"/>
    <nd ref="1532622326"/>
    <nd ref="410795485"/>
    <nd ref="410795486"/>
    <nd ref="410795487"/>
    <nd ref="410795488"/>
    <nd ref="410795489"/>
    <nd ref="410795490"/>
    <nd ref="410795491"/>
    <nd ref="410795492"/>
    <nd ref="410795493"/>
    <nd ref="410795494"/>
    <nd ref="410795495"/>
    <nd ref="410795482"/>
    <tag k="landuse" v="industrial"/>
  </way>
  <way id="35023407" version="1" timestamp="2009-05-25T00:43:23Z" uid="20587" user="balrog-kun" changeset="1312332">
    <nd ref="410795496"/>
    <nd ref="410795497"/>
    <nd ref="410795498"/>
    <nd ref="410795499"/>
    <nd ref="410795500"/>
    <nd ref="410795501"/>
    <nd ref="410795502"/>
    <nd ref="410795503"/>
    <nd ref="410795504"/>
    <nd ref="410795505"/>
    <nd ref="410795506"/>
    <nd ref="410795507"/>
    <nd ref="410795508"/>
    <nd ref="410795496"/>
    <tag k="highway" v="service"/>
  </way>
  <way id="35023407" version="2" timestamp="2009-05-25T10:20:58Z" uid="20587" user="balrog-kun" changeset="1315020">
    <nd ref="410795496"/>
    <nd ref="410795497"/>
    <nd ref="410795498"/>
    <nd ref="410795499"/>
    <nd ref="410795500"/>
    <nd ref="410795501"/>
    <nd ref="410795502"/>
    <nd ref="410795503"/>
    <nd ref="410795504"/>
    <nd ref="410795505"/>
    <nd ref="410795506"/>
    <nd ref="410795507"/>
    <nd ref="410795508"/>
    <nd ref="410795496"/>
    <tag k="highway" v="service"/>
    <tag k="junction" v="roundabout"/>
  </way>
  <way id="35023408" version="1" timestamp="2009-05-25T00:43:23Z" uid="20587" user="balrog-kun" changeset="1312332">
    <nd ref="410795515"/>
    <nd ref="410795516"/>
    <tag k="highway" v="service"/>
  </way>
  <way id="35023409" version="1" timestamp="2009-05-25T00:43:23Z" uid="20587" user="balrog-kun" changeset="1312332">
    <nd ref="410795517"/>
    <nd ref="410795518"/>
    <nd ref="410795519"/>
    <tag k="highway" v="service"/>
  </way>
  <way id="35023410" version="1" timestamp="2009-05-25T00:43:23Z" uid="20587" user="balrog-kun" changeset="1312332">
    <nd ref="410795520"/>
    <nd ref="410795521"/>
    <nd ref="410795522"/>
    <nd ref="410795523"/>
    <nd ref="410795546"/>
    <nd ref="410795524"/>
    <nd ref="410795525"/>
    <nd ref="410795526"/>
    <nd ref="410795527"/>
    <nd ref="410795528"/>
    <nd ref="410795529"/>
    <nd ref="410795530"/>
    <nd ref="410795531"/>
    <nd ref="410795532"/>
    <nd ref="410795533"/>
    <nd ref="410795534"/>
    <nd ref="410795535"/>
    <nd ref="410795536"/>
    <nd ref="410795537"/>
    <nd ref="410795538"/>
    <nd ref="410795539"/>
    <nd ref="410795540"/>
    <nd ref="410795541"/>
    <nd ref="410795542"/>
    <nd ref="410795543"/>
    <nd ref="410795544"/>
    <nd ref="410795545"/>
    <nd ref="410795520"/>
    <tag k="landuse" v="reservoir"/>
  </way>
  <way id="35023411" version="1" timestamp="2009-05-25T00:43:23Z" uid="20587" user="balrog-kun" changeset="1312332">
    <nd ref="312988682"/>
    <nd ref="410795548"/>
    <nd ref="410795549"/>
    <nd ref="410795550"/>
    <nd ref="410795551"/>
    <nd ref="410795552"/>
    <nd ref="410795553"/>
    <nd ref="410795554"/>
    <nd ref="410795555"/>
    <nd ref="410795556"/>
    <nd ref="410795557"/>
    <tag k="highway" v="service"/>
  </way>
  <way id="35023411" version="2" timestamp="2011-05-17T09:33:38Z" uid="37370" user="amateja" changeset="8169803">
    <nd ref="312988682"/>
    <nd ref="410795550"/>
    <nd ref="410795551"/>
    <nd ref="410795552"/>
    <nd ref="410795553"/>
    <nd ref="410795554"/>
    <nd ref="410795555"/>
    <nd ref="410795556"/>
    <nd ref="410795557"/>
    <tag k="highway" v="service"/>
  </way>
  <way id="35023412" version="1" timestamp="2009-05-25T00:43:24Z" uid="20587" user="balrog-kun" changeset="1312332">
    <nd ref="410795552"/>
    <nd ref="410795558"/>
    <tag k="highway" v="service"/>
  </way>
  <way id="35023413" version="1" timestamp="2009-05-25T00:43:24Z" uid="20587" user="balrog-kun" changeset="1312332">
    <nd ref="410795560"/>
    <nd ref="410795561"/>
    <nd ref="410795562"/>
    <nd ref="410795563"/>
    <nd ref="410795564"/>
    <nd ref="410795560"/>
    <tag k="landuse" v="industrial"/>
  </way>
  <way id="35023413" version="2" timestamp="2011-12-07T10:29:33Z" uid="37370" user="amateja" changeset="10056481">
    <nd ref="410795560"/>
    <nd ref="410795561"/>
    <nd ref="410795563"/>
    <nd ref="410795564"/>
    <nd ref="410795560"/>
    <tag k="landuse" v="industrial"/>
  </way>
  <way id="35023414" version="1" timestamp="2009-05-25T00:43:24Z" uid="20587" user="balrog-kun" changeset="1312332">
    <nd ref="312982828"/>
    <nd ref="312982832"/>
    <tag k="highway" v="residential"/>
    <tag k="name" v="Fajansowa"/>
  </way>
  <way id="35023414" version="2" timestamp="2011-12-07T10:31:50Z" uid="37370" user="amateja" changeset="10056481"/>
  <way id="35023415" version="1" timestamp="2009-05-25T00:43:24Z" uid="20587" user="balrog-kun" changeset="1312332">
    <nd ref="312986078"/>
    <nd ref="410795565"/>
    <tag k="highway" v="track"/>
    <tag k="name" v="Bakalarska"/>
  </way>
  <way id="35023416" version="1" timestamp="2009-05-25T00:43:24Z" uid="20587" user="balrog-kun" changeset="1312332">
    <nd ref="410795571"/>
    <nd ref="410795572"/>
    <nd ref="410795573"/>
    <nd ref="410795574"/>
    <nd ref="410795575"/>
    <nd ref="410795576"/>
    <nd ref="410795577"/>
    <nd ref="410795578"/>
    <nd ref="410795571"/>
    <tag k="landuse" v="retail"/>
    <tag k="name" v="Targowisko"/>
  </way>
  <way id="35023416" version="2" timestamp="2011-04-04T13:11:26Z" uid="37370" user="amateja" changeset="7764847"/>
  <way id="35023417" version="1" timestamp="2009-05-25T00:43:24Z" uid="20587" user="balrog-kun" changeset="1312332">
    <nd ref="410795580"/>
    <nd ref="410795581"/>
    <nd ref="410795582"/>
    <nd ref="410795583"/>
    <nd ref="410795584"/>
    <nd ref="410795585"/>
    <tag k="highway" v="service"/>
    <tag k="oneway" v="yes"/>
  </way>
  <way id="35023417" version="2" timestamp="2011-03-10T09:58:21Z" uid="37370" user="amateja" changeset="7512301">
    <nd ref="410795580"/>
    <nd ref="410795581"/>
    <nd ref="410795584"/>
    <nd ref="410795585"/>
    <tag k="highway" v="service"/>
    <tag k="oneway" v="yes"/>
  </way>
  <way id="35023418" version="1" timestamp="2009-05-25T00:43:24Z" uid="20587" user="balrog-kun" changeset="1312332">
    <nd ref="410795596"/>
    <nd ref="410795597"/>
    <nd ref="410795598"/>
    <nd ref="410795599"/>
    <nd ref="410795600"/>
    <nd ref="410795601"/>
    <nd ref="410795602"/>
    <nd ref="410795603"/>
    <nd ref="410795604"/>
    <nd ref="410795605"/>
    <tag k="highway" v="service"/>
    <tag k="oneway" v="yes"/>
  </way>
  <way id="35023419" version="1" timestamp="2009-05-25T00:43:24Z" uid="20587" user="balrog-kun" changeset="1312332">
    <nd ref="410795599"/>
    <nd ref="410795606"/>
    <nd ref="410795607"/>
    <nd ref="410795608"/>
    <nd ref="410795602"/>
    <tag k="highway" v="service"/>
  </way>
  <way id="35023420" version="1" timestamp="2009-05-25T00:43:24Z" uid="20587" user="balrog-kun" changeset="1312332">
    <nd ref="410795631"/>
    <nd ref="410795632"/>
    <nd ref="410795633"/>
    <nd ref="410795634"/>
    <tag k="highway" v="living_street"/>
  </way>
  <way id="35023420" version="2" timestamp="2011-06-15T12:13:27Z" uid="37370" user="amateja" changeset="8446565">
    <nd ref="410795631"/>
    <nd ref="1326311154"/>
    <nd ref="1290121326"/>
    <nd ref="1326311219"/>
    <nd ref="1326311135"/>
    <nd ref="1326311196"/>
    <nd ref="1326310395"/>
    <nd ref="410795632"/>
    <nd ref="410795633"/>
    <nd ref="1326311174"/>
    <nd ref="1326310101"/>
    <tag k="highway" v="service"/>
  </way>
  <way id="35023421" version="1" timestamp="2009-05-25T00:43:24Z" uid="20587" user="balrog-kun" changeset="1312332">
    <nd ref="410795639"/>
    <nd ref="410795644"/>
    <nd ref="410795649"/>
    <nd ref="410795650"/>
    <nd ref="410795640"/>
    <nd ref="410795643"/>
    <nd ref="410795647"/>
    <nd ref="410795648"/>
    <nd ref="410795642"/>
    <nd ref="410795646"/>
    <nd ref="410795653"/>
    <nd ref="410795654"/>
    <nd ref="410795641"/>
    <nd ref="410795645"/>
    <nd ref="410795651"/>
    <nd ref="410795652"/>
    <nd ref="410795639"/>
    <tag k="addr:housenumber" v="174"/>
    <tag k="addr:street" v="Aleja Krakowska"/>
    <tag k="building" v="shops"/>
  </way>
  <way id="35023421" version="2" timestamp="2009-06-02T09:49:28Z" uid="20587" user="balrog-kun" changeset="1402520">
    <nd ref="410795639"/>
    <nd ref="410795644"/>
    <nd ref="410795649"/>
    <nd ref="410795650"/>
    <nd ref="410795640"/>
    <nd ref="410795643"/>
    <nd ref="410795647"/>
    <nd ref="410795648"/>
    <nd ref="410795642"/>
    <nd ref="410795646"/>
    <nd ref="410795653"/>
    <nd ref="410795654"/>
    <nd ref="410795641"/>
    <nd ref="410795645"/>
    <nd ref="410795651"/>
    <nd ref="410795652"/>
    <nd ref="410795639"/>
    <tag k="addr:housenumber" v="274"/>
    <tag k="addr:street" v="Aleja Krakowska"/>
    <tag k="building" v="shops"/>
  </way>
  <way id="35023421" version="3" timestamp="2011-03-08T09:53:38Z" uid="37370" user="amateja" changeset="7492473">
    <nd ref="410795639"/>
    <nd ref="410795644"/>
    <nd ref="410795649"/>
    <nd ref="410795650"/>
    <nd ref="410795640"/>
    <nd ref="410795643"/>
    <nd ref="410795647"/>
    <nd ref="410795648"/>
    <nd ref="410795642"/>
    <nd ref="410795646"/>
    <nd ref="410795653"/>
    <nd ref="410795654"/>
    <nd ref="410795645"/>
    <nd ref="410795651"/>
    <nd ref="410795652"/>
    <nd ref="410795639"/>
    <tag k="addr:housenumber" v="274"/>
    <tag k="addr:street" v="Aleja Krakowska"/>
    <tag k="building" v="shops"/>
  </way>
  <way id="35023421" version="4" timestamp="2011-03-14T08:42:55Z" uid="37370" user="amateja" changeset="7553865">
    <nd ref="410795639"/>
    <nd ref="410795644"/>
    <nd ref="410795649"/>
    <nd ref="410795650"/>
    <nd ref="410795640"/>
    <nd ref="410795643"/>
    <nd ref="410795647"/>
    <nd ref="410795648"/>
    <nd ref="410795642"/>
    <nd ref="410795646"/>
    <nd ref="410795653"/>
    <nd ref="410795654"/>
    <nd ref="410795645"/>
    <nd ref="410795651"/>
    <nd ref="410795652"/>
    <nd ref="410795639"/>
    <tag k="addr:city" v="Warszawa"/>
    <tag k="addr:country" v="PL"/>
    <tag k="addr:housenumber" v="274"/>
    <tag k="addr:postcode" v="02-210"/>
    <tag k="addr:street" v="Aleja Krakowska"/>
    <tag k="building" v="shops"/>
  </way>
  <way id="35023421" version="5" timestamp="2011-04-04T13:10:07Z" uid="37370" user="amateja" changeset="7764847">
    <nd ref="410795646"/>
    <nd ref="410795653"/>
    <nd ref="410795654"/>
    <nd ref="410795645"/>
    <nd ref="410795651"/>
    <nd ref="410795652"/>
    <nd ref="1232314355"/>
    <nd ref="1232314557"/>
    <nd ref="410795649"/>
    <nd ref="410795650"/>
    <nd ref="1232315181"/>
    <nd ref="1232314539"/>
    <nd ref="410795647"/>
    <nd ref="410795648"/>
    <nd ref="1232314673"/>
    <nd ref="1232314899"/>
    <nd ref="1232314571"/>
    <nd ref="410795646"/>
    <tag k="addr:city" v="Warszawa"/>
    <tag k="addr:country" v="PL"/>
    <tag k="addr:housenumber" v="274"/>
    <tag k="addr:postcode" v="02-210"/>
    <tag k="addr:street" v="Aleja Krakowska"/>
    <tag k="building" v="shops"/>
  </way>
  <way id="35023422" version="1" timestamp="2009-05-25T00:43:24Z" uid="20587" user="balrog-kun" changeset="1312332">
    <nd ref="410795656"/>
    <nd ref="410795661"/>
    <nd ref="410795662"/>
    <nd ref="410795663"/>
    <nd ref="410795660"/>
    <nd ref="410795658"/>
    <nd ref="410795659"/>
    <nd ref="410795665"/>
    <nd ref="410795667"/>
    <nd ref="410795668"/>
    <nd ref="410795669"/>
    <nd ref="410795666"/>
    <nd ref="410795664"/>
    <nd ref="410795657"/>
    <nd ref="410795656"/>
    <tag k="addr:housenumber" v="20"/>
    <tag k="addr:street" v="Aleja Dwudziestolatków"/>
    <tag k="building" v="residential"/>
  </way>
  <way id="35023422" version="2" timestamp="2011-03-14T08:07:40Z" uid="37370" user="amateja" changeset="7553614">
    <nd ref="410795656"/>
    <nd ref="410795661"/>
    <nd ref="410795662"/>
    <nd ref="410795663"/>
    <nd ref="410795660"/>
    <nd ref="410795658"/>
    <nd ref="410795659"/>
    <nd ref="410795665"/>
    <nd ref="410795667"/>
    <nd ref="410795668"/>
    <nd ref="410795669"/>
    <nd ref="410795666"/>
    <nd ref="410795664"/>
    <nd ref="410795657"/>
    <nd ref="410795656"/>
    <tag k="addr:city" v="Warszawa"/>
    <tag k="addr:country" v="PL"/>
    <tag k="addr:housenumber" v="20"/>
    <tag k="addr:postcode" v="02-157"/>
    <tag k="addr:street" v="Aleja Dwudziestolatków"/>
    <tag k="building" v="residential"/>
  </way>
  <way id="35023422" version="3" timestamp="2011-04-04T13:11:01Z" uid="37370" user="amateja" changeset="7764847">
    <nd ref="410795656"/>
    <nd ref="410795661"/>
    <nd ref="410795662"/>
    <nd ref="410795663"/>
    <nd ref="410795660"/>
    <nd ref="410795658"/>
    <nd ref="1232314581"/>
    <nd ref="1232314480"/>
    <nd ref="1232314592"/>
    <nd ref="410795659"/>
    <nd ref="410795665"/>
    <nd ref="410795667"/>
    <nd ref="410795668"/>
    <nd ref="410795669"/>
    <nd ref="410795664"/>
    <nd ref="410795657"/>
    <nd ref="1232314633"/>
    <nd ref="1232315056"/>
    <nd ref="1232314410"/>
    <nd ref="1232314857"/>
    <nd ref="410795656"/>
    <tag k="addr:city" v="Warszawa"/>
    <tag k="addr:country" v="PL"/>
    <tag k="addr:housenumber" v="20"/>
    <tag k="addr:postcode" v="02-157"/>
    <tag k="addr:street" v="Aleja Dwudziestolatków"/>
    <tag k="building" v="residential"/>
  </way>
  <way id="35023423" version="1" timestamp="2009-05-25T00:43:24Z" uid="20587" user="balrog-kun" changeset="1312332">
    <nd ref="410795680"/>
    <nd ref="410795671"/>
    <nd ref="410795678"/>
    <nd ref="410795672"/>
    <nd ref="410795675"/>
    <nd ref="410795677"/>
    <nd ref="410795673"/>
    <nd ref="410795670"/>
    <nd ref="410795682"/>
    <nd ref="410795674"/>
    <nd ref="410795683"/>
    <nd ref="410795676"/>
    <nd ref="410795681"/>
    <nd ref="410795679"/>
    <nd ref="410795680"/>
    <tag k="addr:housenumber" v="8"/>
    <tag k="addr:street" v="Strubiczów"/>
    <tag k="building" v="residential"/>
  </way>
  <way id="35023423" version="2" timestamp="2011-03-31T11:54:26Z" uid="37370" user="amateja" changeset="7725384">
    <nd ref="410795680"/>
    <nd ref="410795671"/>
    <nd ref="410795678"/>
    <nd ref="410795672"/>
    <nd ref="410795675"/>
    <nd ref="410795677"/>
    <nd ref="1226624669"/>
    <nd ref="1226624582"/>
    <nd ref="1226624731"/>
    <nd ref="410795673"/>
    <nd ref="410795670"/>
    <nd ref="410795682"/>
    <nd ref="410795674"/>
    <nd ref="410795683"/>
    <nd ref="410795676"/>
    <nd ref="410795681"/>
    <nd ref="1226624557"/>
    <nd ref="410795679"/>
    <nd ref="1226624647"/>
    <nd ref="1226624715"/>
    <nd ref="410795680"/>
    <tag k="addr:housenumber" v="8"/>
    <tag k="addr:street" v="Strubiczów"/>
    <tag k="building" v="residential"/>
  </way>
  <way id="35023424" version="1" timestamp="2009-05-25T00:43:25Z" uid="20587" user="balrog-kun" changeset="1312332">
    <nd ref="410795694"/>
    <nd ref="410795685"/>
    <nd ref="410795690"/>
    <nd ref="410795688"/>
    <nd ref="410795689"/>
    <nd ref="410795686"/>
    <nd ref="410795684"/>
    <nd ref="410795691"/>
    <nd ref="410795687"/>
    <nd ref="410795692"/>
    <nd ref="410795693"/>
    <nd ref="410795696"/>
    <nd ref="410795697"/>
    <nd ref="410795695"/>
    <nd ref="410795694"/>
    <tag k="addr:housenumber" v="18"/>
    <tag k="addr:street" v="Aleja Dwudziestolatków"/>
    <tag k="building" v="residential"/>
  </way>
  <way id="35023424" version="2" timestamp="2011-03-14T08:08:07Z" uid="37370" user="amateja" changeset="7553614">
    <nd ref="410795694"/>
    <nd ref="410795685"/>
    <nd ref="410795690"/>
    <nd ref="410795688"/>
    <nd ref="410795689"/>
    <nd ref="410795686"/>
    <nd ref="410795684"/>
    <nd ref="410795691"/>
    <nd ref="410795687"/>
    <nd ref="410795692"/>
    <nd ref="410795693"/>
    <nd ref="410795696"/>
    <nd ref="410795697"/>
    <nd ref="410795695"/>
    <nd ref="410795694"/>
    <tag k="addr:city" v="Warszawa"/>
    <tag k="addr:country" v="PL"/>
    <tag k="addr:housenumber" v="18"/>
    <tag k="addr:postcode" v="02-157"/>
    <tag k="addr:street" v="Aleja Dwudziestolatków"/>
    <tag k="building" v="residential"/>
  </way>
  <way id="35023424" version="3" timestamp="2011-04-06T08:10:54Z" uid="37370" user="amateja" changeset="7782284">
    <nd ref="410795694"/>
    <nd ref="1234501192"/>
    <nd ref="1234502723"/>
    <nd ref="1234502108"/>
    <nd ref="410795685"/>
    <nd ref="410795690"/>
    <nd ref="410795688"/>
    <nd ref="410795689"/>
    <nd ref="410795686"/>
    <nd ref="410795684"/>
    <nd ref="410795691"/>
    <nd ref="1234501855"/>
    <nd ref="1234501438"/>
    <nd ref="1234502936"/>
    <nd ref="410795687"/>
    <nd ref="410795692"/>
    <nd ref="410795693"/>
    <nd ref="410795696"/>
    <nd ref="410795697"/>
    <nd ref="410795695"/>
    <nd ref="410795694"/>
    <tag k="addr:city" v="Warszawa"/>
    <tag k="addr:country" v="PL"/>
    <tag k="addr:housenumber" v="18"/>
    <tag k="addr:postcode" v="02-157"/>
    <tag k="addr:street" v="Aleja Dwudziestolatków"/>
    <tag k="building" v="residential"/>
  </way>
  <way id="35023425" version="1" timestamp="2009-05-25T00:43:25Z" uid="20587" user="balrog-kun" changeset="1312332">
    <nd ref="410795698"/>
    <nd ref="410795711"/>
    <nd ref="410795702"/>
    <nd ref="410795708"/>
    <nd ref="410795700"/>
    <nd ref="410795705"/>
    <nd ref="410795709"/>
    <nd ref="410795707"/>
    <nd ref="410795699"/>
    <nd ref="410795710"/>
    <nd ref="410795704"/>
    <nd ref="410795701"/>
    <nd ref="410795706"/>
    <nd ref="410795703"/>
    <nd ref="410795698"/>
    <tag k="addr:housenumber" v="53"/>
    <tag k="addr:street" v="1 Sierpnia"/>
    <tag k="building" v="residential"/>
  </way>
  <way id="35023425" version="2" timestamp="2011-03-14T08:42:56Z" uid="37370" user="amateja" changeset="7553865">
    <nd ref="410795698"/>
    <nd ref="410795711"/>
    <nd ref="410795702"/>
    <nd ref="410795708"/>
    <nd ref="410795700"/>
    <nd ref="410795705"/>
    <nd ref="410795709"/>
    <nd ref="410795707"/>
    <nd ref="410795699"/>
    <nd ref="410795710"/>
    <nd ref="410795704"/>
    <nd ref="410795701"/>
    <nd ref="410795706"/>
    <nd ref="410795703"/>
    <nd ref="410795698"/>
    <tag k="addr:city" v="Warszawa"/>
    <tag k="addr:country" v="PL"/>
    <tag k="addr:housenumber" v="53"/>
    <tag k="addr:postcode" v="02-134"/>
    <tag k="addr:street" v="1 Sierpnia"/>
    <tag k="building" v="residential"/>
  </way>
  <way id="35023425" version="3" timestamp="2011-04-06T08:11:09Z" uid="37370" user="amateja" changeset="7782284">
    <nd ref="410795698"/>
    <nd ref="1234501921"/>
    <nd ref="1234501271"/>
    <nd ref="1234502543"/>
    <nd ref="410795711"/>
    <nd ref="410795702"/>
    <nd ref="410795708"/>
    <nd ref="410795700"/>
    <nd ref="410795705"/>
    <nd ref="410795709"/>
    <nd ref="410795707"/>
    <nd ref="1234501761"/>
    <nd ref="1234501008"/>
    <nd ref="1234502578"/>
    <nd ref="410795699"/>
    <nd ref="410795710"/>
    <nd ref="410795704"/>
    <nd ref="410795701"/>
    <nd ref="410795706"/>
    <nd ref="410795703"/>
    <nd ref="410795698"/>
    <tag k="addr:city" v="Warszawa"/>
    <tag k="addr:country" v="PL"/>
    <tag k="addr:housenumber" v="53"/>
    <tag k="addr:postcode" v="02-134"/>
    <tag k="addr:street" v="1 Sierpnia"/>
    <tag k="building" v="residential"/>
  </way>
  <way id="35023426" version="1" timestamp="2009-05-25T00:43:25Z" uid="20587" user="balrog-kun" changeset="1312332">
    <nd ref="410795712"/>
    <nd ref="395614254"/>
    <nd ref="410795713"/>
    <nd ref="410795714"/>
    <nd ref="410795618"/>
    <tag k="highway" v="pedestrian"/>
    <tag k="name" v="Aleja Dwudziestolatków"/>
  </way>
  <way id="35023426" version="2" timestamp="2011-03-31T11:54:55Z" uid="37370" user="amateja" changeset="7725384">
    <nd ref="410795712"/>
    <nd ref="1226624656"/>
    <nd ref="395614254"/>
    <nd ref="410795713"/>
    <nd ref="410795714"/>
    <nd ref="410795618"/>
    <tag k="highway" v="pedestrian"/>
    <tag k="name" v="Aleja Dwudziestolatków"/>
  </way>
  <way id="35023426" version="3" timestamp="2011-04-04T13:11:08Z" uid="37370" user="amateja" changeset="7764847">
    <nd ref="410795712"/>
    <nd ref="1226624656"/>
    <nd ref="1232314586"/>
    <nd ref="395614254"/>
    <nd ref="1232315158"/>
    <nd ref="410795713"/>
    <nd ref="410795714"/>
    <nd ref="410795618"/>
    <tag k="highway" v="pedestrian"/>
    <tag k="name" v="Aleja Dwudziestolatków"/>
  </way>
  <way id="35023426" version="4" timestamp="2011-04-07T08:03:24Z" uid="37370" user="amateja" changeset="7792045">
    <nd ref="410795712"/>
    <nd ref="1226624656"/>
    <nd ref="1232314586"/>
    <nd ref="395614254"/>
    <nd ref="1232315158"/>
    <nd ref="410795713"/>
    <nd ref="410795714"/>
    <nd ref="1235713174"/>
    <nd ref="1235714503"/>
    <nd ref="410795618"/>
    <tag k="highway" v="pedestrian"/>
    <tag k="name" v="Aleja Dwudziestolatków"/>
  </way>
  <way id="35023426" version="5" timestamp="2011-04-13T07:17:33Z" uid="37370" user="amateja" changeset="7849229">
    <nd ref="410795712"/>
    <nd ref="1226624656"/>
    <nd ref="1232314586"/>
    <nd ref="395614254"/>
    <nd ref="1232315158"/>
    <nd ref="410795713"/>
    <nd ref="1242877617"/>
    <nd ref="410795714"/>
    <nd ref="1242877664"/>
    <nd ref="1242877707"/>
    <nd ref="1242877733"/>
    <nd ref="1235713174"/>
    <nd ref="1242877684"/>
    <nd ref="1235714503"/>
    <nd ref="410795618"/>
    <tag k="highway" v="pedestrian"/>
    <tag k="name" v="Aleja Dwudziestolatków"/>
  </way>
  <way id="35023426" version="6" timestamp="2011-04-14T09:25:56Z" uid="37370" user="amateja" changeset="7858982">
    <nd ref="410795712"/>
    <nd ref="1226624656"/>
    <nd ref="1232314586"/>
    <nd ref="395614254"/>
    <nd ref="1232315158"/>
    <nd ref="1244184532"/>
    <nd ref="410795713"/>
    <nd ref="1242877617"/>
    <nd ref="410795714"/>
    <nd ref="1242877664"/>
    <nd ref="1242877707"/>
    <nd ref="1242877733"/>
    <nd ref="1235713174"/>
    <nd ref="1242877684"/>
    <nd ref="1235714503"/>
    <nd ref="410795618"/>
    <tag k="highway" v="pedestrian"/>
    <tag k="name" v="Aleja Dwudziestolatków"/>
  </way>
  <way id="35023426" version="7" timestamp="2011-04-15T09:29:54Z" uid="37370" user="amateja" changeset="7867934">
    <nd ref="410795712"/>
    <nd ref="1245319230"/>
    <nd ref="1226624656"/>
    <nd ref="1245319881"/>
    <nd ref="1245319639"/>
    <nd ref="1245320424"/>
    <nd ref="1232314586"/>
    <nd ref="395614254"/>
    <nd ref="1232315158"/>
    <nd ref="1245320566"/>
    <nd ref="1245320235"/>
    <nd ref="1244184532"/>
    <nd ref="410795713"/>
    <nd ref="1242877617"/>
    <nd ref="410795714"/>
    <nd ref="1242877664"/>
    <nd ref="1242877707"/>
    <nd ref="1242877733"/>
    <nd ref="1235713174"/>
    <nd ref="1242877684"/>
    <nd ref="1235714503"/>
    <nd ref="410795618"/>
    <tag k="highway" v="pedestrian"/>
    <tag k="name" v="Aleja Dwudziestolatków"/>
  </way>
  <way id="35023426" version="8" timestamp="2011-05-18T10:02:32Z" uid="37370" user="amateja" changeset="8179452">
    <nd ref="410795712"/>
    <nd ref="1245319230"/>
    <nd ref="1226624656"/>
    <nd ref="1245319881"/>
    <nd ref="1245319639"/>
    <nd ref="1245320424"/>
    <nd ref="1232314586"/>
    <nd ref="395614254"/>
    <nd ref="1232315158"/>
    <nd ref="1245320566"/>
    <nd ref="1245320235"/>
    <nd ref="1244184532"/>
    <nd ref="410795713"/>
    <nd ref="1242877617"/>
    <nd ref="410795714"/>
    <nd ref="1242877664"/>
    <nd ref="1242877707"/>
    <nd ref="1242877733"/>
    <nd ref="1235713174"/>
    <nd ref="1242877684"/>
    <nd ref="1235714503"/>
    <tag k="highway" v="pedestrian"/>
    <tag k="name" v="Aleja Dwudziestolatków"/>
  </way>
  <way id="35023427" version="1" timestamp="2009-05-25T00:43:25Z" uid="20587" user="balrog-kun" changeset="1312332">
    <nd ref="410795715"/>
    <nd ref="410795716"/>
    <nd ref="410795718"/>
    <nd ref="410795717"/>
    <nd ref="410795715"/>
    <tag k="addr:housenumber" v="42a"/>
    <tag k="addr:street" v="1 Sierpnia"/>
    <tag k="building" v="residential"/>
  </way>
  <way id="35023427" version="2" timestamp="2011-03-14T08:08:28Z" uid="37370" user="amateja" changeset="7553614">
    <nd ref="410795715"/>
    <nd ref="410795716"/>
    <nd ref="410795718"/>
    <nd ref="410795717"/>
    <nd ref="410795715"/>
    <tag k="addr:city" v="Warszawa"/>
    <tag k="addr:country" v="PL"/>
    <tag k="addr:housenumber" v="42a"/>
    <tag k="addr:postcode" v="02-134"/>
    <tag k="addr:street" v="1 Sierpnia"/>
    <tag k="building" v="residential"/>
  </way>
  <way id="35023428" version="1" timestamp="2009-05-25T00:43:25Z" uid="20587" user="balrog-kun" changeset="1312332">
    <nd ref="410795722"/>
    <nd ref="410795720"/>
    <nd ref="410795719"/>
    <nd ref="410795721"/>
    <nd ref="410795722"/>
    <tag k="addr:housenumber" v="43a"/>
    <tag k="addr:street" v="1 Sierpnia"/>
    <tag k="building" v="residential"/>
  </way>
  <way id="35023428" version="2" timestamp="2011-03-14T08:08:24Z" uid="37370" user="amateja" changeset="7553614">
    <nd ref="410795722"/>
    <nd ref="410795720"/>
    <nd ref="410795719"/>
    <nd ref="410795721"/>
    <nd ref="410795722"/>
    <tag k="addr:city" v="Warszawa"/>
    <tag k="addr:country" v="PL"/>
    <tag k="addr:housenumber" v="43a"/>
    <tag k="addr:postcode" v="02-134"/>
    <tag k="addr:street" v="1 Sierpnia"/>
    <tag k="building" v="residential"/>
  </way>
  <way id="35023429" version="1" timestamp="2009-05-25T00:43:25Z" uid="20587" user="balrog-kun" changeset="1312332">
    <nd ref="410795726"/>
    <nd ref="410795723"/>
    <nd ref="410795725"/>
    <nd ref="410795724"/>
    <nd ref="410795726"/>
    <tag k="addr:housenumber" v="40b"/>
    <tag k="addr:street" v="1 Sierpnia"/>
    <tag k="building" v="residential"/>
  </way>
  <way id="35023429" version="2" timestamp="2011-03-14T08:08:02Z" uid="37370" user="amateja" changeset="7553614">
    <nd ref="410795726"/>
    <nd ref="410795723"/>
    <nd ref="410795725"/>
    <nd ref="410795724"/>
    <nd ref="410795726"/>
    <tag k="addr:city" v="Warszawa"/>
    <tag k="addr:country" v="PL"/>
    <tag k="addr:housenumber" v="40b"/>
    <tag k="addr:postcode" v="02-134"/>
    <tag k="addr:street" v="1 Sierpnia"/>
    <tag k="building" v="residential"/>
  </way>
  <way id="35023430" version="1" timestamp="2009-05-25T00:43:25Z" uid="20587" user="balrog-kun" changeset="1312332">
    <nd ref="410795729"/>
    <nd ref="410795728"/>
    <nd ref="410795730"/>
    <nd ref="410795727"/>
    <nd ref="410795729"/>
    <tag k="addr:housenumber" v="38a"/>
    <tag k="addr:street" v="1 Sierpnia"/>
    <tag k="building" v="residential"/>
  </way>
  <way id="35023430" version="2" timestamp="2011-03-14T08:07:59Z" uid="37370" user="amateja" changeset="7553614">
    <nd ref="410795729"/>
    <nd ref="410795728"/>
    <nd ref="410795730"/>
    <nd ref="410795727"/>
    <nd ref="410795729"/>
    <tag k="addr:city" v="Warszawa"/>
    <tag k="addr:country" v="PL"/>
    <tag k="addr:housenumber" v="38a"/>
    <tag k="addr:postcode" v="02-134"/>
    <tag k="addr:street" v="1 Sierpnia"/>
    <tag k="building" v="residential"/>
  </way>
  <way id="35023431" version="1" timestamp="2009-05-25T00:43:25Z" uid="20587" user="balrog-kun" changeset="1312332">
    <nd ref="410795731"/>
    <nd ref="410795733"/>
    <nd ref="410795734"/>
    <nd ref="410795732"/>
    <nd ref="410795731"/>
    <tag k="addr:housenumber" v="38"/>
    <tag k="addr:street" v="1 Sierpnia"/>
    <tag k="building" v="residential"/>
  </way>
  <way id="35023431" version="2" timestamp="2011-03-14T08:07:45Z" uid="37370" user="amateja" changeset="7553614">
    <nd ref="410795731"/>
    <nd ref="410795733"/>
    <nd ref="410795734"/>
    <nd ref="410795732"/>
    <nd ref="410795731"/>
    <tag k="addr:city" v="Warszawa"/>
    <tag k="addr:country" v="PL"/>
    <tag k="addr:housenumber" v="38"/>
    <tag k="addr:postcode" v="02-134"/>
    <tag k="addr:street" v="1 Sierpnia"/>
    <tag k="building" v="residential"/>
  </way>
  <way id="35023432" version="1" timestamp="2009-05-25T00:43:25Z" uid="20587" user="balrog-kun" changeset="1312332">
    <nd ref="410795738"/>
    <nd ref="410795737"/>
    <nd ref="410795736"/>
    <nd ref="410795735"/>
    <nd ref="410795738"/>
    <tag k="addr:housenumber" v="40"/>
    <tag k="addr:street" v="1 Sierpnia"/>
    <tag k="building" v="residential"/>
  </way>
  <way id="35023432" version="2" timestamp="2011-03-14T08:07:47Z" uid="37370" user="amateja" changeset="7553614">
    <nd ref="410795738"/>
    <nd ref="410795737"/>
    <nd ref="410795736"/>
    <nd ref="410795735"/>
    <nd ref="410795738"/>
    <tag k="addr:city" v="Warszawa"/>
    <tag k="addr:country" v="PL"/>
    <tag k="addr:housenumber" v="40"/>
    <tag k="addr:postcode" v="02-134"/>
    <tag k="addr:street" v="1 Sierpnia"/>
    <tag k="building" v="residential"/>
  </way>
  <way id="35023433" version="1" timestamp="2009-05-25T00:43:25Z" uid="20587" user="balrog-kun" changeset="1312332">
    <nd ref="410795741"/>
    <nd ref="410795739"/>
    <nd ref="410795740"/>
    <nd ref="410795742"/>
    <nd ref="410795741"/>
    <tag k="addr:housenumber" v="40a"/>
    <tag k="addr:street" v="1 Sierpnia"/>
    <tag k="building" v="residential"/>
  </way>
  <way id="35023433" version="2" timestamp="2011-03-14T08:08:25Z" uid="37370" user="amateja" changeset="7553614">
    <nd ref="410795741"/>
    <nd ref="410795739"/>
    <nd ref="410795740"/>
    <nd ref="410795742"/>
    <nd ref="410795741"/>
    <tag k="addr:city" v="Warszawa"/>
    <tag k="addr:country" v="PL"/>
    <tag k="addr:housenumber" v="40a"/>
    <tag k="addr:postcode" v="02-134"/>
    <tag k="addr:street" v="1 Sierpnia"/>
    <tag k="building" v="residential"/>
  </way>
  <way id="35023434" version="1" timestamp="2009-05-25T00:43:25Z" uid="20587" user="balrog-kun" changeset="1312332">
    <nd ref="410795745"/>
    <nd ref="410795743"/>
    <nd ref="410795746"/>
    <nd ref="410795744"/>
    <nd ref="410795745"/>
    <tag k="addr:housenumber" v="44"/>
    <tag k="addr:street" v="1 Sierpnia"/>
    <tag k="building" v="residential"/>
  </way>
  <way id="35023434" version="2" timestamp="2011-03-14T08:08:19Z" uid="37370" user="amateja" changeset="7553614">
    <nd ref="410795745"/>
    <nd ref="410795743"/>
    <nd ref="410795746"/>
    <nd ref="410795744"/>
    <nd ref="410795745"/>
    <tag k="addr:city" v="Warszawa"/>
    <tag k="addr:country" v="PL"/>
    <tag k="addr:housenumber" v="44"/>
    <tag k="addr:postcode" v="02-134"/>
    <tag k="addr:street" v="1 Sierpnia"/>
    <tag k="building" v="residential"/>
  </way>
  <way id="35023435" version="1" timestamp="2009-05-25T00:43:25Z" uid="20587" user="balrog-kun" changeset="1312332">
    <nd ref="410795748"/>
    <nd ref="410795749"/>
    <nd ref="410795750"/>
    <nd ref="410795747"/>
    <nd ref="410795748"/>
    <tag k="addr:housenumber" v="42a"/>
    <tag k="addr:street" v="1 Sierpnia"/>
    <tag k="building" v="residential"/>
  </way>
  <way id="35023435" version="2" timestamp="2011-03-14T08:08:00Z" uid="37370" user="amateja" changeset="7553614">
    <nd ref="410795748"/>
    <nd ref="410795749"/>
    <nd ref="410795750"/>
    <nd ref="410795747"/>
    <nd ref="410795748"/>
    <tag k="addr:city" v="Warszawa"/>
    <tag k="addr:country" v="PL"/>
    <tag k="addr:housenumber" v="42a"/>
    <tag k="addr:postcode" v="02-134"/>
    <tag k="addr:street" v="1 Sierpnia"/>
    <tag k="building" v="residential"/>
  </way>
  <way id="35023436" version="1" timestamp="2009-05-25T00:43:25Z" uid="20587" user="balrog-kun" changeset="1312332">
    <nd ref="410795752"/>
    <nd ref="410795751"/>
    <nd ref="410795754"/>
    <nd ref="410795753"/>
    <nd ref="410795752"/>
    <tag k="addr:housenumber" v="46"/>
    <tag k="addr:street" v="1 Sierpnia"/>
    <tag k="building" v="residential"/>
  </way>
  <way id="35023436" version="2" timestamp="2011-03-14T08:07:58Z" uid="37370" user="amateja" changeset="7553614">
    <nd ref="410795752"/>
    <nd ref="410795751"/>
    <nd ref="410795754"/>
    <nd ref="410795753"/>
    <nd ref="410795752"/>
    <tag k="addr:city" v="Warszawa"/>
    <tag k="addr:country" v="PL"/>
    <tag k="addr:housenumber" v="46"/>
    <tag k="addr:postcode" v="02-134"/>
    <tag k="addr:street" v="1 Sierpnia"/>
    <tag k="building" v="residential"/>
  </way>
  <way id="35023436" version="3" timestamp="2011-04-06T08:11:12Z" uid="37370" user="amateja" changeset="7782284">
    <nd ref="410795752"/>
    <nd ref="410795751"/>
    <nd ref="1234502050"/>
    <nd ref="1234502826"/>
    <nd ref="1234501297"/>
    <nd ref="1234501319"/>
    <nd ref="410795754"/>
    <nd ref="410795753"/>
    <nd ref="1234502637"/>
    <nd ref="1234502179"/>
    <nd ref="1234501588"/>
    <nd ref="1234501061"/>
    <nd ref="410795752"/>
    <tag k="addr:city" v="Warszawa"/>
    <tag k="addr:country" v="PL"/>
    <tag k="addr:housenumber" v="46"/>
    <tag k="addr:postcode" v="02-134"/>
    <tag k="addr:street" v="1 Sierpnia"/>
    <tag k="building" v="yes"/>
  </way>
  <way id="35023437" version="1" timestamp="2009-05-25T00:43:26Z" uid="20587" user="balrog-kun" changeset="1312332">
    <nd ref="410795767"/>
    <nd ref="410795768"/>
    <nd ref="410795769"/>
    <nd ref="410795770"/>
    <nd ref="410795771"/>
    <nd ref="410795756"/>
    <nd ref="410795763"/>
    <nd ref="410795765"/>
    <nd ref="410795766"/>
    <nd ref="410795764"/>
    <nd ref="410795757"/>
    <nd ref="410795759"/>
    <nd ref="410795760"/>
    <nd ref="410795762"/>
    <nd ref="410795761"/>
    <nd ref="410795758"/>
    <nd ref="410795767"/>
    <tag k="addr:housenumber" v="36a"/>
    <tag k="addr:street" v="1 Sierpnia"/>
    <tag k="building" v="offices"/>
    <tag k="name" v="Dom Kultury"/>
  </way>
  <way id="35023437" version="2" timestamp="2011-03-14T08:07:39Z" uid="37370" user="amateja" changeset="7553614">
    <nd ref="410795767"/>
    <nd ref="410795768"/>
    <nd ref="410795769"/>
    <nd ref="410795770"/>
    <nd ref="410795771"/>
    <nd ref="410795756"/>
    <nd ref="410795763"/>
    <nd ref="410795765"/>
    <nd ref="410795766"/>
    <nd ref="410795764"/>
    <nd ref="410795757"/>
    <nd ref="410795759"/>
    <nd ref="410795760"/>
    <nd ref="410795762"/>
    <nd ref="410795761"/>
    <nd ref="410795758"/>
    <nd ref="410795767"/>
    <tag k="addr:city" v="Warszawa"/>
    <tag k="addr:country" v="PL"/>
    <tag k="addr:housenumber" v="36a"/>
    <tag k="addr:postcode" v="02-134"/>
    <tag k="addr:street" v="1 Sierpnia"/>
    <tag k="building" v="offices"/>
    <tag k="name" v="Dom Kultury"/>
  </way>
  <way id="35023437" version="3" timestamp="2011-04-06T08:12:19Z" uid="37370" user="amateja" changeset="7782284"/>
  <way id="35023438" version="1" timestamp="2009-05-25T00:43:26Z" uid="20587" user="balrog-kun" changeset="1312332">
    <nd ref="410795774"/>
    <nd ref="410795775"/>
    <nd ref="410795777"/>
    <nd ref="410795785"/>
    <nd ref="410795784"/>
    <nd ref="410795778"/>
    <nd ref="410795779"/>
    <nd ref="410795787"/>
    <nd ref="410795789"/>
    <nd ref="410795791"/>
    <nd ref="410795793"/>
    <nd ref="410795795"/>
    <nd ref="410795794"/>
    <nd ref="410795792"/>
    <nd ref="410795790"/>
    <nd ref="410795788"/>
    <nd ref="410795786"/>
    <nd ref="410795780"/>
    <nd ref="410795781"/>
    <nd ref="410795783"/>
    <nd ref="410795782"/>
    <nd ref="410795776"/>
    <nd ref="410795774"/>
    <tag k="addr:housenumber" v="36b"/>
    <tag k="addr:street" v="1 Sierpnia"/>
    <tag k="building" v="residential"/>
  </way>
  <way id="35023438" version="2" timestamp="2011-03-14T08:08:35Z" uid="37370" user="amateja" changeset="7553614">
    <nd ref="410795774"/>
    <nd ref="410795775"/>
    <nd ref="410795777"/>
    <nd ref="410795785"/>
    <nd ref="410795784"/>
    <nd ref="410795778"/>
    <nd ref="410795779"/>
    <nd ref="410795787"/>
    <nd ref="410795789"/>
    <nd ref="410795791"/>
    <nd ref="410795793"/>
    <nd ref="410795795"/>
    <nd ref="410795794"/>
    <nd ref="410795792"/>
    <nd ref="410795790"/>
    <nd ref="410795788"/>
    <nd ref="410795786"/>
    <nd ref="410795780"/>
    <nd ref="410795781"/>
    <nd ref="410795783"/>
    <nd ref="410795782"/>
    <nd ref="410795776"/>
    <nd ref="410795774"/>
    <tag k="addr:city" v="Warszawa"/>
    <tag k="addr:country" v="PL"/>
    <tag k="addr:housenumber" v="36b"/>
    <tag k="addr:postcode" v="02-134"/>
    <tag k="addr:street" v="1 Sierpnia"/>
    <tag k="building" v="residential"/>
  </way>
  <way id="35023439" version="1" timestamp="2009-05-25T00:43:26Z" uid="20587" user="balrog-kun" changeset="1312332">
    <nd ref="410795796"/>
    <nd ref="410795797"/>
    <nd ref="410795798"/>
    <nd ref="410795799"/>
    <tag k="highway" v="track"/>
  </way>
  <way id="35023439" version="2" timestamp="2011-06-09T09:38:35Z" uid="37370" user="amateja" changeset="8386722">
    <nd ref="1316992521"/>
    <nd ref="410795796"/>
    <nd ref="410795797"/>
    <nd ref="410795798"/>
    <nd ref="410795799"/>
    <tag k="access" v="private"/>
    <tag k="highway" v="service"/>
  </way>
  <way id="35023440" version="1" timestamp="2009-05-25T00:43:26Z" uid="20587" user="balrog-kun" changeset="1312332">
    <nd ref="410795800"/>
    <nd ref="410795803"/>
    <nd ref="410795802"/>
    <nd ref="410795801"/>
    <nd ref="410795800"/>
    <tag k="leisure" v="pitch"/>
  </way>
  <way id="35023441" version="1" timestamp="2009-05-25T00:43:26Z" uid="20587" user="balrog-kun" changeset="1312332">
    <nd ref="410795807"/>
    <nd ref="410795805"/>
    <nd ref="410795804"/>
    <nd ref="410795806"/>
    <nd ref="410795807"/>
    <tag k="leisure" v="pitch"/>
  </way>
  <way id="35023442" version="1" timestamp="2009-05-25T00:43:26Z" uid="20587" user="balrog-kun" changeset="1312332">
    <nd ref="410795810"/>
    <nd ref="410795811"/>
    <nd ref="410795808"/>
    <nd ref="410795809"/>
    <nd ref="410795810"/>
    <tag k="leisure" v="pitch"/>
  </way>
  <way id="35023443" version="1" timestamp="2009-05-25T00:43:26Z" uid="20587" user="balrog-kun" changeset="1312332">
    <nd ref="410795812"/>
    <nd ref="410795814"/>
    <nd ref="410795815"/>
    <nd ref="410795813"/>
    <nd ref="410795812"/>
    <tag k="addr:housenumber" v="272"/>
    <tag k="addr:street" v="Aleja Krakowska"/>
    <tag k="building" v="residential"/>
  </way>
  <way id="35023443" version="2" timestamp="2011-03-14T08:42:53Z" uid="37370" user="amateja" changeset="7553865">
    <nd ref="410795812"/>
    <nd ref="410795814"/>
    <nd ref="410795815"/>
    <nd ref="410795813"/>
    <nd ref="410795812"/>
    <tag k="addr:city" v="Warszawa"/>
    <tag k="addr:country" v="PL"/>
    <tag k="addr:housenumber" v="272"/>
    <tag k="addr:postcode" v="02-210"/>
    <tag k="addr:street" v="Aleja Krakowska"/>
    <tag k="building" v="residential"/>
  </way>
  <way id="35023444" version="1" timestamp="2009-05-25T00:43:26Z" uid="20587" user="balrog-kun" changeset="1312332">
    <nd ref="410795817"/>
    <nd ref="410795819"/>
    <nd ref="410795816"/>
    <nd ref="410795818"/>
    <nd ref="410795817"/>
    <tag k="addr:housenumber" v="270"/>
    <tag k="addr:street" v="Aleja Krakowska"/>
    <tag k="building" v="residential"/>
  </way>
  <way id="35023444" version="2" timestamp="2011-03-14T08:42:53Z" uid="37370" user="amateja" changeset="7553865">
    <nd ref="410795817"/>
    <nd ref="410795819"/>
    <nd ref="410795816"/>
    <nd ref="410795818"/>
    <nd ref="410795817"/>
    <tag k="addr:city" v="Warszawa"/>
    <tag k="addr:country" v="PL"/>
    <tag k="addr:housenumber" v="270"/>
    <tag k="addr:postcode" v="02-210"/>
    <tag k="addr:street" v="Aleja Krakowska"/>
    <tag k="building" v="residential"/>
  </way>
  <way id="35023445" version="1" timestamp="2009-05-25T00:43:26Z" uid="20587" user="balrog-kun" changeset="1312332">
    <nd ref="410795822"/>
    <nd ref="410795820"/>
    <nd ref="410795821"/>
    <nd ref="410795823"/>
    <nd ref="410795822"/>
    <tag k="addr:housenumber" v="268"/>
    <tag k="addr:street" v="Aleja Krakowska"/>
    <tag k="building" v="residential"/>
  </way>
  <way id="35023445" version="2" timestamp="2011-03-14T08:42:54Z" uid="37370" user="amateja" changeset="7553865">
    <nd ref="410795822"/>
    <nd ref="410795820"/>
    <nd ref="410795821"/>
    <nd ref="410795823"/>
    <nd ref="410795822"/>
    <tag k="addr:city" v="Warszawa"/>
    <tag k="addr:country" v="PL"/>
    <tag k="addr:housenumber" v="268"/>
    <tag k="addr:postcode" v="02-210"/>
    <tag k="addr:street" v="Aleja Krakowska"/>
    <tag k="building" v="residential"/>
  </way>
  <way id="35023446" version="1" timestamp="2009-05-25T00:43:26Z" uid="20587" user="balrog-kun" changeset="1312332">
    <nd ref="410795824"/>
    <nd ref="410795825"/>
    <nd ref="410795827"/>
    <nd ref="410795826"/>
    <nd ref="410795824"/>
    <tag k="addr:housenumber" v="3"/>
    <tag k="addr:street" v="Strubiczów"/>
    <tag k="building" v="residential"/>
  </way>
  <way id="35023447" version="1" timestamp="2009-05-25T00:43:26Z" uid="20587" user="balrog-kun" changeset="1312332">
    <nd ref="410795829"/>
    <nd ref="410795828"/>
    <nd ref="410795830"/>
    <nd ref="410795831"/>
    <nd ref="410795829"/>
    <tag k="addr:housenumber" v="5"/>
    <tag k="addr:street" v="Strubiczów"/>
    <tag k="building" v="residential"/>
  </way>
  <way id="35023448" version="1" timestamp="2009-05-25T00:43:26Z" uid="20587" user="balrog-kun" changeset="1312332">
    <nd ref="410795834"/>
    <nd ref="410795835"/>
    <nd ref="410795833"/>
    <nd ref="410795832"/>
    <nd ref="410795834"/>
    <tag k="addr:housenumber" v="1"/>
    <tag k="addr:street" v="Strubiczów"/>
    <tag k="building" v="residential"/>
  </way>
  <way id="35023449" version="1" timestamp="2009-05-25T00:43:26Z" uid="20587" user="balrog-kun" changeset="1312332">
    <nd ref="410795836"/>
    <nd ref="410795838"/>
    <nd ref="410795837"/>
    <nd ref="410795839"/>
    <nd ref="410795836"/>
    <tag k="addr:housenumber" v="4"/>
    <tag k="addr:street" v="Strubiczów"/>
    <tag k="building" v="residential"/>
  </way>
  <way id="35023450" version="1" timestamp="2009-05-25T00:43:26Z" uid="20587" user="balrog-kun" changeset="1312332">
    <nd ref="410795843"/>
    <nd ref="410795840"/>
    <nd ref="410795841"/>
    <nd ref="410795842"/>
    <nd ref="410795843"/>
    <tag k="addr:housenumber" v="6"/>
    <tag k="addr:street" v="Strubiczów"/>
    <tag k="building" v="residential"/>
  </way>
  <way id="35023451" version="1" timestamp="2009-05-25T00:43:27Z" uid="20587" user="balrog-kun" changeset="1312332">
    <nd ref="410795847"/>
    <nd ref="410795846"/>
    <nd ref="410795845"/>
    <nd ref="410795844"/>
    <nd ref="410795847"/>
    <tag k="addr:housenumber" v="15"/>
    <tag k="addr:street" v="Aleja Dwudziestolatków"/>
    <tag k="building" v="residential"/>
  </way>
  <way id="35023451" version="2" timestamp="2011-04-06T08:10:31Z" uid="37370" user="amateja" changeset="7782284">
    <nd ref="410795847"/>
    <nd ref="410795846"/>
    <nd ref="410795845"/>
    <nd ref="410795844"/>
    <nd ref="410795847"/>
    <tag k="addr:city" v="Warszawa"/>
    <tag k="addr:country" v="PL"/>
    <tag k="addr:housenumber" v="15"/>
    <tag k="addr:postcode" v="02-157"/>
    <tag k="addr:street" v="Aleja Dwudziestolatków"/>
    <tag k="building" v="residential"/>
  </way>
  <way id="35023452" version="1" timestamp="2009-05-25T00:43:27Z" uid="20587" user="balrog-kun" changeset="1312332">
    <nd ref="410795854"/>
    <nd ref="410795855"/>
    <nd ref="410795853"/>
    <nd ref="410795852"/>
    <nd ref="410795854"/>
    <tag k="addr:housenumber" v="16"/>
    <tag k="addr:street" v="Aleja Dwudziestolatków"/>
    <tag k="building" v="residential"/>
  </way>
  <way id="35023452" version="2" timestamp="2011-03-14T08:07:51Z" uid="37370" user="amateja" changeset="7553614">
    <nd ref="410795854"/>
    <nd ref="410795855"/>
    <nd ref="410795853"/>
    <nd ref="410795852"/>
    <nd ref="410795854"/>
    <tag k="addr:city" v="Warszawa"/>
    <tag k="addr:country" v="PL"/>
    <tag k="addr:housenumber" v="16"/>
    <tag k="addr:postcode" v="02-157"/>
    <tag k="addr:street" v="Aleja Dwudziestolatków"/>
    <tag k="building" v="residential"/>
  </way>
  <way id="35023453" version="1" timestamp="2009-05-25T00:43:27Z" uid="20587" user="balrog-kun" changeset="1312332">
    <nd ref="410795848"/>
    <nd ref="410795850"/>
    <nd ref="410795851"/>
    <nd ref="410795849"/>
    <nd ref="410795848"/>
    <tag k="addr:housenumber" v="14"/>
    <tag k="addr:street" v="Aleja Dwudziestolatków"/>
    <tag k="building" v="residential"/>
  </way>
  <way id="35023453" version="2" timestamp="2011-03-14T08:08:34Z" uid="37370" user="amateja" changeset="7553614">
    <nd ref="410795848"/>
    <nd ref="410795850"/>
    <nd ref="410795851"/>
    <nd ref="410795849"/>
    <nd ref="410795848"/>
    <tag k="addr:city" v="Warszawa"/>
    <tag k="addr:country" v="PL"/>
    <tag k="addr:housenumber" v="14"/>
    <tag k="addr:postcode" v="02-157"/>
    <tag k="addr:street" v="Aleja Dwudziestolatków"/>
    <tag k="building" v="residential"/>
  </way>
  <way id="35023454" version="1" timestamp="2009-05-25T00:43:27Z" uid="20587" user="balrog-kun" changeset="1312332">
    <nd ref="410795856"/>
    <nd ref="410795858"/>
    <nd ref="410795859"/>
    <nd ref="410795857"/>
    <nd ref="410795856"/>
    <tag k="addr:housenumber" v="49b"/>
    <tag k="addr:street" v="1 Sierpnia"/>
    <tag k="building" v="residential"/>
  </way>
  <way id="35023454" version="2" timestamp="2011-03-14T08:42:52Z" uid="37370" user="amateja" changeset="7553865">
    <nd ref="410795856"/>
    <nd ref="410795858"/>
    <nd ref="410795859"/>
    <nd ref="410795857"/>
    <nd ref="410795856"/>
    <tag k="addr:city" v="Warszawa"/>
    <tag k="addr:country" v="PL"/>
    <tag k="addr:housenumber" v="49b"/>
    <tag k="addr:postcode" v="02-134"/>
    <tag k="addr:street" v="1 Sierpnia"/>
    <tag k="building" v="residential"/>
  </way>
  <way id="35023455" version="1" timestamp="2009-05-25T00:43:27Z" uid="20587" user="balrog-kun" changeset="1312332">
    <nd ref="410795860"/>
    <nd ref="410795862"/>
    <nd ref="410795863"/>
    <nd ref="410795861"/>
    <nd ref="410795860"/>
    <tag k="addr:housenumber" v="51a"/>
    <tag k="addr:street" v="1 Sierpnia"/>
    <tag k="building" v="garages"/>
    <tag k="building:levels" v="1"/>
  </way>
  <way id="35023455" version="2" timestamp="2011-03-14T08:42:54Z" uid="37370" user="amateja" changeset="7553865">
    <nd ref="410795860"/>
    <nd ref="410795862"/>
    <nd ref="410795863"/>
    <nd ref="410795861"/>
    <nd ref="410795860"/>
    <tag k="addr:city" v="Warszawa"/>
    <tag k="addr:country" v="PL"/>
    <tag k="addr:housenumber" v="51a"/>
    <tag k="addr:postcode" v="02-134"/>
    <tag k="addr:street" v="1 Sierpnia"/>
    <tag k="building" v="garages"/>
    <tag k="building:levels" v="1"/>
  </way>
  <way id="35023455" version="3" timestamp="2011-04-13T07:17:35Z" uid="37370" user="amateja" changeset="7849229">
    <nd ref="410795860"/>
    <nd ref="410795862"/>
    <nd ref="1242877709"/>
    <nd ref="410795863"/>
    <nd ref="410795861"/>
    <nd ref="410795860"/>
    <tag k="addr:city" v="Warszawa"/>
    <tag k="addr:country" v="PL"/>
    <tag k="addr:housenumber" v="51a"/>
    <tag k="addr:postcode" v="02-134"/>
    <tag k="addr:street" v="1 Sierpnia"/>
    <tag k="building" v="garages"/>
    <tag k="building:levels" v="1"/>
  </way>
  <way id="35023456" version="1" timestamp="2009-05-25T00:43:27Z" uid="20587" user="balrog-kun" changeset="1312332">
    <nd ref="410795865"/>
    <nd ref="410795866"/>
    <nd ref="410795864"/>
    <nd ref="410795867"/>
    <nd ref="410795865"/>
    <tag k="addr:housenumber" v="51"/>
    <tag k="addr:street" v="1 Sierpnia"/>
    <tag k="building" v="garages"/>
    <tag k="building:levels" v="1"/>
  </way>
  <way id="35023456" version="2" timestamp="2011-03-14T08:42:55Z" uid="37370" user="amateja" changeset="7553865">
    <nd ref="410795865"/>
    <nd ref="410795866"/>
    <nd ref="410795864"/>
    <nd ref="410795867"/>
    <nd ref="410795865"/>
    <tag k="addr:city" v="Warszawa"/>
    <tag k="addr:country" v="PL"/>
    <tag k="addr:housenumber" v="51"/>
    <tag k="addr:postcode" v="02-134"/>
    <tag k="addr:street" v="1 Sierpnia"/>
    <tag k="building" v="garages"/>
    <tag k="building:levels" v="1"/>
  </way>
  <way id="35023457" version="1" timestamp="2009-05-25T00:43:27Z" uid="20587" user="balrog-kun" changeset="1312332">
    <nd ref="410795868"/>
    <nd ref="410795870"/>
    <nd ref="410795871"/>
    <nd ref="410795869"/>
    <nd ref="410795868"/>
    <tag k="amenity" v="parking"/>
  </way>
  <way id="35023457" version="2" timestamp="2011-05-18T10:02:04Z" uid="37370" user="amateja" changeset="8179452">
    <nd ref="410795868"/>
    <nd ref="410795870"/>
    <nd ref="1290121281"/>
    <nd ref="410795871"/>
    <nd ref="1290125567"/>
    <nd ref="1290124926"/>
    <nd ref="410795869"/>
    <nd ref="410795868"/>
    <tag k="amenity" v="parking"/>
  </way>
  <way id="35023457" version="3" timestamp="2011-06-15T12:13:25Z" uid="37370" user="amateja" changeset="8446565">
    <nd ref="410795868"/>
    <nd ref="410795870"/>
    <nd ref="1290121281"/>
    <nd ref="410795871"/>
    <nd ref="1290125567"/>
    <nd ref="1290124926"/>
    <nd ref="410795869"/>
    <nd ref="1326310370"/>
    <nd ref="1326310261"/>
    <nd ref="410795868"/>
    <tag k="amenity" v="parking"/>
  </way>
  <way id="35023458" version="1" timestamp="2009-05-25T00:43:27Z" uid="20587" user="balrog-kun" changeset="1312332">
    <nd ref="410795874"/>
    <nd ref="410795881"/>
    <nd ref="410795879"/>
    <nd ref="410795882"/>
    <nd ref="410795877"/>
    <nd ref="410795875"/>
    <nd ref="410795873"/>
    <nd ref="410795872"/>
    <nd ref="410795884"/>
    <nd ref="410795876"/>
    <nd ref="410795883"/>
    <nd ref="410795880"/>
    <nd ref="410795885"/>
    <nd ref="410795878"/>
    <nd ref="410795874"/>
    <tag k="addr:housenumber" v="49"/>
    <tag k="addr:street" v="1 Sierpnia"/>
    <tag k="building" v="residential"/>
  </way>
  <way id="35023458" version="2" timestamp="2011-04-06T08:11:43Z" uid="37370" user="amateja" changeset="7782284">
    <nd ref="410795874"/>
    <nd ref="410795881"/>
    <nd ref="410795879"/>
    <nd ref="410795882"/>
    <nd ref="410795877"/>
    <nd ref="410795875"/>
    <nd ref="1234500879"/>
    <nd ref="1234502405"/>
    <nd ref="410795873"/>
    <nd ref="410795872"/>
    <nd ref="410795884"/>
    <nd ref="410795876"/>
    <nd ref="410795883"/>
    <nd ref="410795880"/>
    <nd ref="410795885"/>
    <nd ref="410795878"/>
    <nd ref="1234500987"/>
    <nd ref="1234502558"/>
    <nd ref="1234501871"/>
    <nd ref="1234501737"/>
    <nd ref="410795874"/>
    <tag k="addr:housenumber" v="49"/>
    <tag k="addr:street" v="1 Sierpnia"/>
    <tag k="building" v="residential"/>
  </way>
  <way id="35023458" version="3" timestamp="2011-07-06T05:54:22Z" uid="37370" user="amateja" changeset="8645197">
    <nd ref="410795874"/>
    <nd ref="410795881"/>
    <nd ref="410795879"/>
    <nd ref="410795882"/>
    <nd ref="410795877"/>
    <nd ref="410795875"/>
    <nd ref="1234500879"/>
    <nd ref="1234502405"/>
    <nd ref="410795873"/>
    <nd ref="410795872"/>
    <nd ref="410795884"/>
    <nd ref="410795876"/>
    <nd ref="410795883"/>
    <nd ref="410795880"/>
    <nd ref="410795885"/>
    <nd ref="410795878"/>
    <nd ref="1234500987"/>
    <nd ref="1234502558"/>
    <nd ref="1234501871"/>
    <nd ref="1234501737"/>
    <nd ref="410795874"/>
    <tag k="addr:city" v="Warszawa"/>
    <tag k="addr:country" v="PL"/>
    <tag k="addr:housenumber" v="49"/>
    <tag k="addr:street" v="1 Sierpnia"/>
    <tag k="building" v="residential"/>
  </way>
  <way id="35023459" version="1" timestamp="2009-05-25T00:43:27Z" uid="20587" user="balrog-kun" changeset="1312332">
    <nd ref="410795886"/>
    <nd ref="410795898"/>
    <nd ref="410795896"/>
    <nd ref="410795894"/>
    <nd ref="410795887"/>
    <nd ref="410795895"/>
    <nd ref="410795891"/>
    <nd ref="410795889"/>
    <nd ref="410795892"/>
    <nd ref="410795897"/>
    <nd ref="410795899"/>
    <nd ref="410795888"/>
    <nd ref="410795890"/>
    <nd ref="410795893"/>
    <nd ref="410795886"/>
    <tag k="addr:housenumber" v="47"/>
    <tag k="addr:street" v="1 Sierpnia"/>
    <tag k="building" v="residential"/>
  </way>
  <way id="35023459" version="2" timestamp="2011-04-07T08:03:20Z" uid="37370" user="amateja" changeset="7792045">
    <nd ref="410795886"/>
    <nd ref="410795898"/>
    <nd ref="410795896"/>
    <nd ref="410795894"/>
    <nd ref="410795887"/>
    <nd ref="410795895"/>
    <nd ref="1235714300"/>
    <nd ref="1235713280"/>
    <nd ref="410795891"/>
    <nd ref="410795889"/>
    <nd ref="410795892"/>
    <nd ref="410795897"/>
    <nd ref="410795899"/>
    <nd ref="410795888"/>
    <nd ref="410795890"/>
    <nd ref="410795893"/>
    <nd ref="1235712717"/>
    <nd ref="1235714425"/>
    <nd ref="1235712787"/>
    <nd ref="1235714307"/>
    <nd ref="410795886"/>
    <tag k="addr:housenumber" v="47"/>
    <tag k="addr:street" v="1 Sierpnia"/>
    <tag k="building" v="residential"/>
  </way>
  <way id="35023459" version="3" timestamp="2011-07-06T05:54:20Z" uid="37370" user="amateja" changeset="8645197">
    <nd ref="410795886"/>
    <nd ref="410795898"/>
    <nd ref="410795896"/>
    <nd ref="410795894"/>
    <nd ref="410795887"/>
    <nd ref="410795895"/>
    <nd ref="1235714300"/>
    <nd ref="1235713280"/>
    <nd ref="410795891"/>
    <nd ref="410795889"/>
    <nd ref="410795892"/>
    <nd ref="410795897"/>
    <nd ref="410795899"/>
    <nd ref="410795888"/>
    <nd ref="410795890"/>
    <nd ref="410795893"/>
    <nd ref="1235712717"/>
    <nd ref="1235714425"/>
    <nd ref="1235712787"/>
    <nd ref="1235714307"/>
    <nd ref="410795886"/>
    <tag k="addr:city" v="Warszawa"/>
    <tag k="addr:country" v="PL"/>
    <tag k="addr:housenumber" v="47"/>
    <tag k="addr:street" v="1 Sierpnia"/>
    <tag k="building" v="residential"/>
  </way>
  <way id="35023460" version="1" timestamp="2009-05-25T00:43:27Z" uid="20587" user="balrog-kun" changeset="1312332">
    <nd ref="410795910"/>
    <nd ref="410795902"/>
    <nd ref="410795912"/>
    <nd ref="410795905"/>
    <nd ref="410795901"/>
    <nd ref="410795907"/>
    <nd ref="410795908"/>
    <nd ref="410795909"/>
    <nd ref="410795903"/>
    <nd ref="410795900"/>
    <nd ref="410795906"/>
    <nd ref="410795911"/>
    <nd ref="410795904"/>
    <nd ref="410795913"/>
    <nd ref="410795910"/>
    <tag k="addr:housenumber" v="12"/>
    <tag k="addr:street" v="Aleja Dwudziestolatków"/>
    <tag k="building" v="residential"/>
  </way>
  <way id="35023460" version="2" timestamp="2011-04-06T08:11:53Z" uid="37370" user="amateja" changeset="7782284">
    <nd ref="410795910"/>
    <nd ref="410795902"/>
    <nd ref="410795912"/>
    <nd ref="410795905"/>
    <nd ref="410795901"/>
    <nd ref="410795907"/>
    <nd ref="1234501344"/>
    <nd ref="1234502906"/>
    <nd ref="410795908"/>
    <nd ref="410795909"/>
    <nd ref="410795903"/>
    <nd ref="410795900"/>
    <nd ref="410795906"/>
    <nd ref="410795911"/>
    <nd ref="410795904"/>
    <nd ref="410795913"/>
    <nd ref="1234501331"/>
    <nd ref="1234502218"/>
    <nd ref="1234502870"/>
    <nd ref="1234502064"/>
    <nd ref="410795910"/>
    <tag k="addr:city" v="Warszawa"/>
    <tag k="addr:country" v="PL"/>
    <tag k="addr:housenumber" v="12"/>
    <tag k="addr:postcode" v="02-157"/>
    <tag k="addr:street" v="Aleja Dwudziestolatków"/>
    <tag k="building" v="residential"/>
  </way>
  <way id="35023461" version="1" timestamp="2009-05-25T00:43:27Z" uid="20587" user="balrog-kun" changeset="1312332">
    <nd ref="410795918"/>
    <nd ref="410795914"/>
    <nd ref="410795919"/>
    <nd ref="410795915"/>
    <nd ref="410795926"/>
    <nd ref="410795921"/>
    <nd ref="410795927"/>
    <nd ref="410795925"/>
    <nd ref="410795916"/>
    <nd ref="410795917"/>
    <nd ref="410795924"/>
    <nd ref="410795920"/>
    <nd ref="410795923"/>
    <nd ref="410795922"/>
    <nd ref="410795918"/>
    <tag k="addr:housenumber" v="10"/>
    <tag k="addr:street" v="Aleja Dwudziestolatków"/>
    <tag k="building" v="residential"/>
  </way>
  <way id="35023461" version="2" timestamp="2011-04-06T08:12:13Z" uid="37370" user="amateja" changeset="7782284">
    <nd ref="410795918"/>
    <nd ref="410795914"/>
    <nd ref="410795919"/>
    <nd ref="410795915"/>
    <nd ref="410795926"/>
    <nd ref="410795921"/>
    <nd ref="1234501677"/>
    <nd ref="1234500924"/>
    <nd ref="410795927"/>
    <nd ref="410795925"/>
    <nd ref="410795916"/>
    <nd ref="410795917"/>
    <nd ref="410795924"/>
    <nd ref="410795920"/>
    <nd ref="410795923"/>
    <nd ref="410795922"/>
    <nd ref="1234501731"/>
    <nd ref="1234502993"/>
    <nd ref="1234502311"/>
    <nd ref="1234502380"/>
    <nd ref="410795918"/>
    <tag k="addr:city" v="Warszawa"/>
    <tag k="addr:country" v="PL"/>
    <tag k="addr:housenumber" v="10"/>
    <tag k="addr:postcode" v="02-157"/>
    <tag k="addr:street" v="Aleja Dwudziestolatków"/>
    <tag k="building" v="residential"/>
  </way>
  <way id="35023462" version="1" timestamp="2009-05-25T00:43:27Z" uid="20587" user="balrog-kun" changeset="1312332">
    <nd ref="410795930"/>
    <nd ref="410795937"/>
    <nd ref="410795932"/>
    <nd ref="410795941"/>
    <nd ref="410795934"/>
    <nd ref="410795940"/>
    <nd ref="410795938"/>
    <nd ref="410795933"/>
    <nd ref="410795931"/>
    <nd ref="410795929"/>
    <nd ref="410795936"/>
    <nd ref="410795935"/>
    <nd ref="410795939"/>
    <nd ref="410795928"/>
    <nd ref="410795930"/>
    <tag k="addr:housenumber" v="49a"/>
    <tag k="addr:street" v="1 Sierpnia"/>
    <tag k="building" v="residential"/>
  </way>
  <way id="35023462" version="2" timestamp="2011-04-07T08:02:51Z" uid="37370" user="amateja" changeset="7792045">
    <nd ref="410795930"/>
    <nd ref="410795940"/>
    <nd ref="1235713207"/>
    <nd ref="1235712730"/>
    <nd ref="1235714317"/>
    <nd ref="1235713308"/>
    <nd ref="1235713508"/>
    <nd ref="410795938"/>
    <nd ref="410795933"/>
    <nd ref="410795931"/>
    <nd ref="410795929"/>
    <nd ref="410795936"/>
    <nd ref="410795939"/>
    <nd ref="410795928"/>
    <nd ref="1235714524"/>
    <nd ref="1235713904"/>
    <nd ref="1235714272"/>
    <nd ref="1235712870"/>
    <nd ref="410795930"/>
    <tag k="addr:housenumber" v="49a"/>
    <tag k="addr:street" v="1 Sierpnia"/>
    <tag k="building" v="residential"/>
  </way>
  <way id="35023462" version="3" timestamp="2011-07-06T05:54:22Z" uid="37370" user="amateja" changeset="8645197">
    <nd ref="410795930"/>
    <nd ref="410795940"/>
    <nd ref="1235713207"/>
    <nd ref="1235712730"/>
    <nd ref="1235714317"/>
    <nd ref="1235713308"/>
    <nd ref="1235713508"/>
    <nd ref="410795938"/>
    <nd ref="410795933"/>
    <nd ref="410795931"/>
    <nd ref="410795929"/>
    <nd ref="410795936"/>
    <nd ref="410795939"/>
    <nd ref="410795928"/>
    <nd ref="1235714524"/>
    <nd ref="1235713904"/>
    <nd ref="1235714272"/>
    <nd ref="1235712870"/>
    <nd ref="410795930"/>
    <tag k="addr:city" v="Warszawa"/>
    <tag k="addr:country" v="PL"/>
    <tag k="addr:housenumber" v="49a"/>
    <tag k="addr:street" v="1 Sierpnia"/>
    <tag k="building" v="residential"/>
  </way>
  <way id="35023463" version="1" timestamp="2009-05-25T00:43:28Z" uid="20587" user="balrog-kun" changeset="1312332">
    <nd ref="410795952"/>
    <nd ref="410795953"/>
    <nd ref="410795946"/>
    <nd ref="410795949"/>
    <nd ref="410795948"/>
    <nd ref="410795945"/>
    <nd ref="410795955"/>
    <nd ref="410795947"/>
    <nd ref="410795950"/>
    <nd ref="410795951"/>
    <nd ref="410795954"/>
    <nd ref="410795944"/>
    <nd ref="410795942"/>
    <nd ref="410795943"/>
    <nd ref="410795952"/>
    <tag k="addr:housenumber" v="2a"/>
    <tag k="addr:street" v="Radarowa"/>
    <tag k="building" v="residential"/>
  </way>
  <way id="35023463" version="2" timestamp="2011-04-07T08:02:27Z" uid="37370" user="amateja" changeset="7792045">
    <nd ref="410795952"/>
    <nd ref="1235714019"/>
    <nd ref="1235714622"/>
    <nd ref="1235714026"/>
    <nd ref="410795953"/>
    <nd ref="410795946"/>
    <nd ref="410795949"/>
    <nd ref="410795948"/>
    <nd ref="410795945"/>
    <nd ref="410795955"/>
    <nd ref="410795947"/>
    <nd ref="1235713129"/>
    <nd ref="1235712670"/>
    <nd ref="1235713001"/>
    <nd ref="410795950"/>
    <nd ref="410795951"/>
    <nd ref="410795954"/>
    <nd ref="410795944"/>
    <nd ref="410795942"/>
    <nd ref="410795943"/>
    <nd ref="410795952"/>
    <tag k="addr:housenumber" v="2a"/>
    <tag k="addr:street" v="Radarowa"/>
    <tag k="building" v="residential"/>
  </way>
  <way id="35023463" version="3" timestamp="2011-07-06T05:53:47Z" uid="37370" user="amateja" changeset="8645197">
    <nd ref="410795952"/>
    <nd ref="1235714019"/>
    <nd ref="1235714622"/>
    <nd ref="1235714026"/>
    <nd ref="410795953"/>
    <nd ref="410795946"/>
    <nd ref="410795949"/>
    <nd ref="410795948"/>
    <nd ref="410795945"/>
    <nd ref="410795955"/>
    <nd ref="410795947"/>
    <nd ref="1235713129"/>
    <nd ref="1235712670"/>
    <nd ref="1235713001"/>
    <nd ref="410795950"/>
    <nd ref="410795951"/>
    <nd ref="410795954"/>
    <nd ref="410795944"/>
    <nd ref="410795942"/>
    <nd ref="410795943"/>
    <nd ref="410795952"/>
    <tag k="addr:city" v="Warszawa"/>
    <tag k="addr:country" v="PL"/>
    <tag k="addr:housenumber" v="2a"/>
    <tag k="addr:street" v="Radarowa"/>
    <tag k="building" v="residential"/>
  </way>
  <way id="35023464" version="1" timestamp="2009-05-25T00:43:28Z" uid="20587" user="balrog-kun" changeset="1312332">
    <nd ref="410795968"/>
    <nd ref="410795960"/>
    <nd ref="410795956"/>
    <nd ref="410795962"/>
    <nd ref="410795965"/>
    <nd ref="410795958"/>
    <nd ref="410795957"/>
    <nd ref="410795967"/>
    <nd ref="410795959"/>
    <nd ref="410795969"/>
    <nd ref="410795961"/>
    <nd ref="410795966"/>
    <nd ref="410795963"/>
    <nd ref="410795964"/>
    <nd ref="410795968"/>
    <tag k="addr:housenumber" v="45"/>
    <tag k="addr:street" v="1 Sierpnia"/>
    <tag k="building" v="residential"/>
  </way>
  <way id="35023464" version="2" timestamp="2011-04-07T08:01:01Z" uid="37370" user="amateja" changeset="7792045">
    <nd ref="410795968"/>
    <nd ref="410795960"/>
    <nd ref="1235713889"/>
    <nd ref="1235714513"/>
    <nd ref="1235714265"/>
    <nd ref="410795956"/>
    <nd ref="410795962"/>
    <nd ref="410795965"/>
    <nd ref="410795958"/>
    <nd ref="410795957"/>
    <nd ref="410795967"/>
    <nd ref="1235713232"/>
    <nd ref="1235712776"/>
    <nd ref="1235714390"/>
    <nd ref="410795959"/>
    <nd ref="410795969"/>
    <nd ref="410795961"/>
    <nd ref="410795966"/>
    <nd ref="410795963"/>
    <nd ref="410795964"/>
    <nd ref="410795968"/>
    <tag k="addr:housenumber" v="45"/>
    <tag k="addr:street" v="1 Sierpnia"/>
    <tag k="building" v="residential"/>
  </way>
  <way id="35023464" version="3" timestamp="2011-07-06T05:53:49Z" uid="37370" user="amateja" changeset="8645197">
    <nd ref="410795968"/>
    <nd ref="410795960"/>
    <nd ref="1235713889"/>
    <nd ref="1235714513"/>
    <nd ref="1235714265"/>
    <nd ref="410795956"/>
    <nd ref="410795962"/>
    <nd ref="410795965"/>
    <nd ref="410795958"/>
    <nd ref="410795957"/>
    <nd ref="410795967"/>
    <nd ref="1235713232"/>
    <nd ref="1235712776"/>
    <nd ref="1235714390"/>
    <nd ref="410795959"/>
    <nd ref="410795969"/>
    <nd ref="410795961"/>
    <nd ref="410795966"/>
    <nd ref="410795963"/>
    <nd ref="410795964"/>
    <nd ref="410795968"/>
    <tag k="addr:city" v="Warszawa"/>
    <tag k="addr:country" v="PL"/>
    <tag k="addr:housenumber" v="45"/>
    <tag k="addr:street" v="1 Sierpnia"/>
    <tag k="building" v="residential"/>
  </way>
  <way id="35023465" version="1" timestamp="2009-05-25T00:43:28Z" uid="20587" user="balrog-kun" changeset="1312332">
    <nd ref="410795980"/>
    <nd ref="410795971"/>
    <nd ref="410795983"/>
    <nd ref="410795972"/>
    <nd ref="410795970"/>
    <nd ref="410795976"/>
    <nd ref="410795981"/>
    <nd ref="410795975"/>
    <nd ref="410795974"/>
    <nd ref="410795978"/>
    <nd ref="410795973"/>
    <nd ref="410795979"/>
    <nd ref="410795977"/>
    <nd ref="410795982"/>
    <nd ref="410795980"/>
    <tag k="addr:housenumber" v="47a"/>
    <tag k="addr:street" v="1 Sierpnia"/>
    <tag k="building" v="residential"/>
  </way>
  <way id="35023465" version="2" timestamp="2011-04-07T08:00:28Z" uid="37370" user="amateja" changeset="7792045">
    <nd ref="410795980"/>
    <nd ref="1235714536"/>
    <nd ref="410795971"/>
    <nd ref="1235712786"/>
    <nd ref="1235714693"/>
    <nd ref="1235713608"/>
    <nd ref="1235714398"/>
    <nd ref="410795983"/>
    <nd ref="410795975"/>
    <nd ref="1235713925"/>
    <nd ref="1235713048"/>
    <nd ref="1235713272"/>
    <nd ref="410795974"/>
    <nd ref="410795978"/>
    <nd ref="410795973"/>
    <nd ref="410795979"/>
    <nd ref="410795977"/>
    <nd ref="410795982"/>
    <nd ref="410795980"/>
    <tag k="addr:housenumber" v="47a"/>
    <tag k="addr:street" v="1 Sierpnia"/>
    <tag k="building" v="residential"/>
  </way>
  <way id="35023465" version="3" timestamp="2011-07-06T05:54:21Z" uid="37370" user="amateja" changeset="8645197">
    <nd ref="410795980"/>
    <nd ref="1235714536"/>
    <nd ref="410795971"/>
    <nd ref="1235712786"/>
    <nd ref="1235714693"/>
    <nd ref="1235713608"/>
    <nd ref="1235714398"/>
    <nd ref="410795983"/>
    <nd ref="410795975"/>
    <nd ref="1235713925"/>
    <nd ref="1235713048"/>
    <nd ref="1235713272"/>
    <nd ref="410795974"/>
    <nd ref="410795978"/>
    <nd ref="410795973"/>
    <nd ref="410795979"/>
    <nd ref="410795977"/>
    <nd ref="410795982"/>
    <nd ref="410795980"/>
    <tag k="addr:city" v="Warszawa"/>
    <tag k="addr:country" v="PL"/>
    <tag k="addr:housenumber" v="47a"/>
    <tag k="addr:street" v="1 Sierpnia"/>
    <tag k="building" v="residential"/>
  </way>
  <way id="35023466" version="1" timestamp="2009-05-25T00:43:28Z" uid="20587" user="balrog-kun" changeset="1312332">
    <nd ref="410795986"/>
    <nd ref="410795990"/>
    <nd ref="410795991"/>
    <nd ref="410795992"/>
    <nd ref="410795996"/>
    <nd ref="410795989"/>
    <nd ref="410795984"/>
    <nd ref="410795993"/>
    <nd ref="410795997"/>
    <nd ref="410795985"/>
    <nd ref="410795988"/>
    <nd ref="410795987"/>
    <nd ref="410795994"/>
    <nd ref="410795995"/>
    <nd ref="410795986"/>
    <tag k="addr:housenumber" v="2"/>
    <tag k="addr:street" v="Radarowa"/>
    <tag k="building" v="residential"/>
  </way>
  <way id="35023466" version="2" timestamp="2011-04-07T08:03:10Z" uid="37370" user="amateja" changeset="7792045">
    <nd ref="410795986"/>
    <nd ref="1235714189"/>
    <nd ref="1235713214"/>
    <nd ref="410795990"/>
    <nd ref="410795991"/>
    <nd ref="410795992"/>
    <nd ref="410795996"/>
    <nd ref="410795989"/>
    <nd ref="410795984"/>
    <nd ref="410795993"/>
    <nd ref="1235712736"/>
    <nd ref="1235714003"/>
    <nd ref="1235714605"/>
    <nd ref="1235714362"/>
    <nd ref="410795997"/>
    <nd ref="410795985"/>
    <nd ref="410795988"/>
    <nd ref="410795987"/>
    <nd ref="410795994"/>
    <nd ref="410795995"/>
    <nd ref="410795986"/>
    <tag k="addr:housenumber" v="2"/>
    <tag k="addr:street" v="Radarowa"/>
    <tag k="building" v="residential"/>
  </way>
  <way id="35023466" version="3" timestamp="2011-07-06T05:53:46Z" uid="37370" user="amateja" changeset="8645197">
    <nd ref="410795986"/>
    <nd ref="1235714189"/>
    <nd ref="1235713214"/>
    <nd ref="410795990"/>
    <nd ref="410795991"/>
    <nd ref="410795992"/>
    <nd ref="410795996"/>
    <nd ref="410795989"/>
    <nd ref="410795984"/>
    <nd ref="410795993"/>
    <nd ref="1235712736"/>
    <nd ref="1235714003"/>
    <nd ref="1235714605"/>
    <nd ref="1235714362"/>
    <nd ref="410795997"/>
    <nd ref="410795985"/>
    <nd ref="410795988"/>
    <nd ref="410795987"/>
    <nd ref="410795994"/>
    <nd ref="410795995"/>
    <nd ref="410795986"/>
    <tag k="addr:city" v="Warszawa"/>
    <tag k="addr:country" v="PL"/>
    <tag k="addr:housenumber" v="2"/>
    <tag k="addr:street" v="Radarowa"/>
    <tag k="building" v="residential"/>
  </way>
  <way id="35023467" version="1" timestamp="2009-05-25T00:43:28Z" uid="20587" user="balrog-kun" changeset="1312332">
    <nd ref="410796000"/>
    <nd ref="410796001"/>
    <nd ref="410796002"/>
    <nd ref="410796003"/>
    <nd ref="410796004"/>
    <nd ref="410796005"/>
    <nd ref="410796000"/>
    <tag k="amenity" v="school"/>
  </way>
  <way id="35023467" version="2" timestamp="2011-04-14T09:25:58Z" uid="37370" user="amateja" changeset="7858982">
    <nd ref="410796000"/>
    <nd ref="1244184537"/>
    <nd ref="1244184531"/>
    <nd ref="410796001"/>
    <nd ref="410796002"/>
    <nd ref="410796003"/>
    <nd ref="410796004"/>
    <nd ref="410796005"/>
    <nd ref="1244184509"/>
    <nd ref="1244184588"/>
    <nd ref="410796000"/>
    <tag k="amenity" v="school"/>
  </way>
  <way id="35023467" version="3" timestamp="2011-05-18T10:02:14Z" uid="37370" user="amateja" changeset="8179452">
    <nd ref="410796000"/>
    <nd ref="1244184537"/>
    <nd ref="1244184531"/>
    <nd ref="410796001"/>
    <nd ref="410796002"/>
    <nd ref="410796003"/>
    <nd ref="410796004"/>
    <nd ref="1290121350"/>
    <nd ref="410796005"/>
    <nd ref="1244184509"/>
    <nd ref="1244184588"/>
    <nd ref="410796000"/>
    <tag k="amenity" v="school"/>
  </way>
  <way id="35023468" version="1" timestamp="2009-05-25T00:43:28Z" uid="20587" user="balrog-kun" changeset="1312332">
    <nd ref="410796006"/>
    <nd ref="410796008"/>
    <nd ref="410796009"/>
    <nd ref="410796007"/>
    <nd ref="410796006"/>
    <tag k="leisure" v="pitch"/>
  </way>
  <way id="35023468" version="2" timestamp="2011-04-06T08:11:27Z" uid="37370" user="amateja" changeset="7782284">
    <nd ref="410796006"/>
    <nd ref="410796008"/>
    <nd ref="1234502352"/>
    <nd ref="410796009"/>
    <nd ref="410796007"/>
    <nd ref="1234502033"/>
    <nd ref="410796006"/>
    <tag k="leisure" v="pitch"/>
    <tag k="sport" v="football"/>
  </way>
  <way id="35023469" version="1" timestamp="2009-05-25T00:43:28Z" uid="20587" user="balrog-kun" changeset="1312332">
    <nd ref="410796010"/>
    <nd ref="410796011"/>
    <nd ref="410796013"/>
    <nd ref="410796014"/>
    <nd ref="410796016"/>
    <nd ref="410796019"/>
    <nd ref="410796020"/>
    <nd ref="410796021"/>
    <nd ref="410796022"/>
    <nd ref="410796023"/>
    <nd ref="410796024"/>
    <nd ref="410796018"/>
    <nd ref="410796026"/>
    <nd ref="410796027"/>
    <nd ref="410796028"/>
    <nd ref="410796029"/>
    <nd ref="410796030"/>
    <nd ref="410796031"/>
    <nd ref="410796025"/>
    <nd ref="410796017"/>
    <nd ref="410796015"/>
    <nd ref="410796012"/>
    <nd ref="410796010"/>
    <tag k="addr:housenumber" v="10"/>
    <tag k="addr:street" v="Lechicka"/>
    <tag k="building" v="hall"/>
  </way>
  <way id="35023469" version="2" timestamp="2011-04-04T09:58:10Z" uid="37370" user="amateja" changeset="7762845">
    <nd ref="410796010"/>
    <nd ref="410796011"/>
    <nd ref="410796013"/>
    <nd ref="410796014"/>
    <nd ref="410796016"/>
    <nd ref="410796019"/>
    <nd ref="410796021"/>
    <nd ref="410796023"/>
    <nd ref="410796024"/>
    <nd ref="410796018"/>
    <nd ref="410796026"/>
    <nd ref="410796027"/>
    <nd ref="410796028"/>
    <nd ref="410796029"/>
    <nd ref="410796030"/>
    <nd ref="410796031"/>
    <nd ref="410796025"/>
    <nd ref="410796017"/>
    <nd ref="410796015"/>
    <nd ref="410796012"/>
    <nd ref="410796010"/>
    <tag k="addr:housenumber" v="10"/>
    <tag k="addr:street" v="Lechicka"/>
    <tag k="building" v="hall"/>
  </way>
  <way id="35023469" version="3" timestamp="2011-06-17T09:59:41Z" uid="37370" user="amateja" changeset="8463024">
    <nd ref="410796015"/>
    <nd ref="410796012"/>
    <nd ref="410796010"/>
    <nd ref="410796011"/>
    <nd ref="410796013"/>
    <nd ref="410796014"/>
    <nd ref="410796015"/>
    <tag k="addr:housenumber" v="10"/>
    <tag k="addr:street" v="Lechicka"/>
    <tag k="building" v="yes"/>
  </way>
  <way id="35023470" version="1" timestamp="2009-05-25T00:43:28Z" uid="20587" user="balrog-kun" changeset="1312332">
    <nd ref="32329924"/>
    <nd ref="410795411"/>
    <nd ref="32329925"/>
    <nd ref="395614254"/>
    <nd ref="32329926"/>
    <nd ref="32329927"/>
    <tag k="created_by" v="Potlatch 0.7b"/>
    <tag k="highway" v="residential"/>
    <tag k="name" v="Strubiczów"/>
  </way>
  <way id="35023470" version="2" timestamp="2011-03-09T08:09:16Z" uid="37370" user="amateja" changeset="7501441">
    <nd ref="32329924"/>
    <nd ref="410795411"/>
    <nd ref="395614254"/>
    <nd ref="32329927"/>
    <tag k="highway" v="residential"/>
    <tag k="name" v="Strubiczów"/>
  </way>
  <way id="35023470" version="3" timestamp="2011-03-31T11:55:35Z" uid="37370" user="amateja" changeset="7725384">
    <nd ref="32329924"/>
    <nd ref="410795411"/>
    <nd ref="395614254"/>
    <nd ref="1226624692"/>
    <nd ref="32329927"/>
    <tag k="highway" v="residential"/>
    <tag k="name" v="Strubiczów"/>
  </way>
  <way id="35023470" version="4" timestamp="2011-04-13T07:17:45Z" uid="37370" user="amateja" changeset="7849229">
    <nd ref="32329924"/>
    <nd ref="410795411"/>
    <nd ref="395614254"/>
    <nd ref="1242877590"/>
    <nd ref="1226624692"/>
    <nd ref="32329927"/>
    <tag k="highway" v="residential"/>
    <tag k="name" v="Strubiczów"/>
  </way>
  <way id="35023470" version="5" timestamp="2011-04-15T09:30:10Z" uid="37370" user="amateja" changeset="7867934">
    <nd ref="32329924"/>
    <nd ref="410795411"/>
    <nd ref="1245320376"/>
    <nd ref="1245317722"/>
    <nd ref="1245317883"/>
    <nd ref="1245320058"/>
    <nd ref="1245318851"/>
    <nd ref="395614254"/>
    <nd ref="1242877590"/>
    <nd ref="1226624692"/>
    <nd ref="32329927"/>
    <tag k="highway" v="residential"/>
    <tag k="name" v="Strubiczów"/>
  </way>
  <way id="35023470" version="6" timestamp="2011-06-10T08:46:04Z" uid="37370" user="amateja" changeset="8395249">
    <nd ref="32329924"/>
    <nd ref="410795411"/>
    <nd ref="1245320376"/>
    <nd ref="1318576317"/>
    <nd ref="1245317722"/>
    <nd ref="1245317883"/>
    <nd ref="1245320058"/>
    <nd ref="1245318851"/>
    <nd ref="395614254"/>
    <nd ref="1242877590"/>
    <nd ref="1318576421"/>
    <nd ref="1226624692"/>
    <nd ref="32329927"/>
    <tag k="highway" v="residential"/>
    <tag k="name" v="Strubiczów"/>
  </way>
  <way id="35023471" version="1" timestamp="2009-05-25T00:43:28Z" uid="20587" user="balrog-kun" changeset="1312332">
    <nd ref="410796033"/>
    <nd ref="410796032"/>
    <tag k="highway" v="residential"/>
    <tag k="name" v="Węgorzewska"/>
  </way>
  <way id="35023472" version="1" timestamp="2009-05-25T00:43:28Z" uid="20587" user="balrog-kun" changeset="1312332">
    <nd ref="410796032"/>
    <nd ref="312982932"/>
    <nd ref="312982934"/>
    <tag k="highway" v="residential"/>
    <tag k="name" v="Czardasza"/>
  </way>
  <way id="35023472" version="2" timestamp="2011-03-09T13:47:23Z" uid="37370" user="amateja" changeset="7504197">
    <nd ref="410796032"/>
    <nd ref="312982932"/>
    <nd ref="1194138375"/>
    <nd ref="312982934"/>
    <tag k="highway" v="residential"/>
    <tag k="name" v="Czardasza"/>
  </way>
  <way id="35023473" version="1" timestamp="2009-05-25T00:43:28Z" uid="20587" user="balrog-kun" changeset="1312332">
    <nd ref="410796036"/>
    <nd ref="410796037"/>
    <nd ref="410796039"/>
    <nd ref="410796043"/>
    <nd ref="410796042"/>
    <nd ref="410796041"/>
    <nd ref="410796040"/>
    <nd ref="410796038"/>
    <nd ref="410796036"/>
    <tag k="leisure" v="pitch"/>
    <tag k="sport" v="tennis"/>
  </way>
  <way id="35023473" version="2" timestamp="2011-03-10T11:24:14Z" uid="37370" user="amateja" changeset="7513015"/>
  <way id="35023474" version="1" timestamp="2009-05-25T00:43:28Z" uid="20587" user="balrog-kun" changeset="1312332">
    <nd ref="410796050"/>
    <nd ref="410796051"/>
    <nd ref="410796052"/>
    <nd ref="410796060"/>
    <nd ref="410796056"/>
    <nd ref="410796055"/>
    <nd ref="410796058"/>
    <nd ref="410796044"/>
    <nd ref="410796045"/>
    <nd ref="410796046"/>
    <nd ref="410796047"/>
    <nd ref="410796057"/>
    <nd ref="410796053"/>
    <nd ref="410796054"/>
    <nd ref="410796059"/>
    <nd ref="410796048"/>
    <nd ref="410796049"/>
    <nd ref="410796050"/>
    <tag k="building" v="church"/>
  </way>
  <way id="35023474" version="2" timestamp="2012-01-18T09:56:21Z" uid="98542" user="wajak" changeset="10425804">
    <nd ref="410796050"/>
    <nd ref="410796051"/>
    <nd ref="410796052"/>
    <nd ref="410796060"/>
    <nd ref="410796056"/>
    <nd ref="410796055"/>
    <nd ref="410796058"/>
    <nd ref="410796044"/>
    <nd ref="410796045"/>
    <nd ref="410796046"/>
    <nd ref="410796047"/>
    <nd ref="410796057"/>
    <nd ref="410796053"/>
    <nd ref="1596036916"/>
    <nd ref="410796054"/>
    <nd ref="410796059"/>
    <nd ref="410796048"/>
    <nd ref="410796049"/>
    <nd ref="410796050"/>
    <tag k="amenity" v="place_of_worship"/>
    <tag k="building" v="church"/>
    <tag k="denomination" v="catholic"/>
    <tag k="name" v="Kościół świętego Franciszka z Asyżu"/>
    <tag k="religion" v="christian"/>
  </way>
  <way id="35023474" version="3" timestamp="2012-01-27T11:12:37Z" uid="37370" user="amateja" changeset="10511253">
    <nd ref="410796050"/>
    <nd ref="410796051"/>
    <nd ref="410796052"/>
    <nd ref="410796060"/>
    <nd ref="1607399051"/>
    <nd ref="1607399053"/>
    <nd ref="1607399049"/>
    <nd ref="1607399050"/>
    <nd ref="410796056"/>
    <nd ref="1607399058"/>
    <nd ref="1607399052"/>
    <nd ref="410796055"/>
    <nd ref="1607399106"/>
    <nd ref="1607399093"/>
    <nd ref="1607399132"/>
    <nd ref="410796058"/>
    <nd ref="410796044"/>
    <nd ref="1607399160"/>
    <nd ref="1607399145"/>
    <nd ref="410796045"/>
    <nd ref="410796046"/>
    <nd ref="410796047"/>
    <nd ref="410796057"/>
    <nd ref="410796053"/>
    <nd ref="1596036916"/>
    <nd ref="410796054"/>
    <nd ref="410796059"/>
    <nd ref="410796048"/>
    <nd ref="410796049"/>
    <nd ref="410796050"/>
    <tag k="amenity" v="place_of_worship"/>
    <tag k="building" v="church"/>
    <tag k="denomination" v="catholic"/>
    <tag k="name" v="Kościół świętego Franciszka z Asyżu"/>
    <tag k="religion" v="christian"/>
  </way>
  <way id="35023475" version="1" timestamp="2009-05-25T00:43:29Z" uid="20587" user="balrog-kun" changeset="1312332">
    <nd ref="410796074"/>
    <nd ref="410796071"/>
    <nd ref="410796070"/>
    <nd ref="410796077"/>
    <nd ref="410796074"/>
    <tag k="addr:housenumber" v="15"/>
    <tag k="addr:street" v="Lechicka"/>
    <tag k="building" v="residential"/>
  </way>
  <way id="35023475" version="2" timestamp="2011-06-16T11:23:02Z" uid="37370" user="amateja" changeset="8454911">
    <nd ref="1327300235"/>
    <nd ref="410796074"/>
    <nd ref="410796077"/>
    <nd ref="410796070"/>
    <nd ref="1327300338"/>
    <nd ref="1327302437"/>
    <nd ref="1327299704"/>
    <nd ref="1327299938"/>
    <nd ref="1327300235"/>
    <tag k="addr:housenumber" v="15"/>
    <tag k="addr:street" v="Lechicka"/>
    <tag k="building" v="residential"/>
  </way>
  <way id="35023475" version="3" timestamp="2011-07-08T08:24:37Z" uid="37370" user="amateja" changeset="8663928">
    <nd ref="1327300235"/>
    <nd ref="410796074"/>
    <nd ref="410796077"/>
    <nd ref="1353529594"/>
    <nd ref="1353529595"/>
    <nd ref="1353529592"/>
    <nd ref="1353529591"/>
    <nd ref="410796070"/>
    <nd ref="1327300338"/>
    <nd ref="1327302437"/>
    <nd ref="1327299704"/>
    <nd ref="1327299938"/>
    <nd ref="1327300235"/>
    <tag k="addr:housenumber" v="15"/>
    <tag k="addr:street" v="Lechicka"/>
    <tag k="building" v="residential"/>
  </way>
  <way id="35023476" version="1" timestamp="2009-05-25T00:43:29Z" uid="20587" user="balrog-kun" changeset="1312332">
    <nd ref="410796076"/>
    <nd ref="410796066"/>
    <nd ref="410796067"/>
    <nd ref="410796073"/>
    <nd ref="410796076"/>
    <tag k="addr:housenumber" v="9"/>
    <tag k="addr:street" v="Radarowa"/>
    <tag k="building" v="residential"/>
  </way>
  <way id="35023476" version="2" timestamp="2011-06-16T10:53:42Z" uid="37370" user="amateja" changeset="8454911">
    <nd ref="1327302178"/>
    <nd ref="1327300282"/>
    <nd ref="410796066"/>
    <nd ref="410796076"/>
    <nd ref="410796073"/>
    <nd ref="1327302082"/>
    <nd ref="1327299759"/>
    <nd ref="1327302488"/>
    <nd ref="1327302178"/>
    <tag k="addr:housenumber" v="9"/>
    <tag k="addr:street" v="Radarowa"/>
    <tag k="building" v="residential"/>
  </way>
  <way id="35023476" version="3" timestamp="2011-07-08T08:24:43Z" uid="37370" user="amateja" changeset="8663928">
    <nd ref="1327302178"/>
    <nd ref="1327300282"/>
    <nd ref="410796066"/>
    <nd ref="410796076"/>
    <nd ref="410796073"/>
    <nd ref="1327302082"/>
    <nd ref="1327299759"/>
    <nd ref="1327302488"/>
    <nd ref="1353529449"/>
    <nd ref="1327302178"/>
    <tag k="addr:housenumber" v="9"/>
    <tag k="addr:street" v="Radarowa"/>
    <tag k="building" v="residential"/>
  </way>
  <way id="35023477" version="1" timestamp="2009-05-25T00:43:29Z" uid="20587" user="balrog-kun" changeset="1312332">
    <nd ref="410796077"/>
    <nd ref="410796069"/>
    <nd ref="410796075"/>
    <nd ref="410796062"/>
    <nd ref="410796063"/>
    <nd ref="410796072"/>
    <nd ref="410796068"/>
    <nd ref="410796076"/>
    <nd ref="410796073"/>
    <nd ref="410796065"/>
    <nd ref="410796064"/>
    <nd ref="410796074"/>
    <nd ref="410796077"/>
    <tag k="building" v="residential"/>
    <tag k="name" v="Urząd Dozoru Technicznego"/>
    <tag k="source" v="msi"/>
  </way>
  <way id="35023477" version="2" timestamp="2011-06-16T10:59:30Z" uid="37370" user="amateja" changeset="8454911">
    <nd ref="1327300218"/>
    <nd ref="410796074"/>
    <nd ref="410796077"/>
    <nd ref="1327302859"/>
    <nd ref="410796069"/>
    <nd ref="410796075"/>
    <nd ref="410796062"/>
    <nd ref="410796063"/>
    <nd ref="410796072"/>
    <nd ref="410796068"/>
    <nd ref="1327300228"/>
    <nd ref="410796076"/>
    <nd ref="410796073"/>
    <nd ref="1327302127"/>
    <nd ref="410796065"/>
    <nd ref="410796064"/>
    <nd ref="1327300218"/>
    <tag k="building" v="residential"/>
    <tag k="name" v="Urząd Dozoru Technicznego"/>
    <tag k="source" v="msi"/>
  </way>
  <way id="35023478" version="1" timestamp="2009-05-25T00:43:29Z" uid="20587" user="balrog-kun" changeset="1312332">
    <nd ref="410796078"/>
    <nd ref="410796079"/>
    <nd ref="410796080"/>
    <nd ref="410796081"/>
    <nd ref="410796082"/>
    <nd ref="410796083"/>
    <nd ref="410796084"/>
    <nd ref="410796085"/>
    <nd ref="410796086"/>
    <nd ref="410796087"/>
    <nd ref="410796088"/>
    <nd ref="410796089"/>
    <nd ref="410796090"/>
    <nd ref="410796091"/>
    <nd ref="410796092"/>
    <nd ref="410796078"/>
    <tag k="leisure" v="common"/>
  </way>
  <way id="35023478" version="2" timestamp="2011-06-16T11:37:09Z" uid="37370" user="amateja" changeset="8454911"/>
  <way id="35023479" version="1" timestamp="2009-05-25T00:43:29Z" uid="20587" user="balrog-kun" changeset="1312332">
    <nd ref="410796093"/>
    <nd ref="410796095"/>
    <nd ref="410796096"/>
    <nd ref="410796094"/>
    <nd ref="410796093"/>
    <tag k="addr:housenumber" v="21"/>
    <tag k="addr:street" v="Lechicka"/>
    <tag k="name" v="Wojewódzki Inspektorat Weterynarii; Zakład Higieny Weterynaryjnej"/>
  </way>
  <way id="35023479" version="2" timestamp="2011-03-08T09:53:28Z" uid="37370" user="amateja" changeset="7492473">
    <nd ref="410796093"/>
    <nd ref="410796095"/>
    <nd ref="410796096"/>
    <nd ref="410796094"/>
    <nd ref="410796093"/>
    <tag k="addr:housenumber" v="21"/>
    <tag k="addr:street" v="Lechicka"/>
    <tag k="building" v="yes"/>
    <tag k="name" v="Wojewódzki Inspektorat Weterynarii; Zakład Higieny Weterynaryjnej"/>
  </way>
  <way id="35023480" version="1" timestamp="2009-05-25T00:43:29Z" uid="20587" user="balrog-kun" changeset="1312332">
    <nd ref="410796097"/>
    <nd ref="410796099"/>
    <nd ref="410796100"/>
    <nd ref="410796098"/>
    <nd ref="410796097"/>
    <tag k="leisure" v="stadium"/>
    <tag k="name" v="RKS Okęcie"/>
  </way>
  <way id="35023480" version="2" timestamp="2011-03-10T11:24:13Z" uid="37370" user="amateja" changeset="7513015">
    <nd ref="410796097"/>
    <nd ref="410796099"/>
    <nd ref="410796100"/>
    <nd ref="410796098"/>
    <nd ref="410796097"/>
    <tag k="leisure" v="stadium"/>
    <tag k="name" v="RKS Okęcie"/>
    <tag k="sport" v="football"/>
  </way>
  <way id="35023481" version="1" timestamp="2009-05-25T00:43:29Z" uid="20587" user="balrog-kun" changeset="1312332">
    <nd ref="410796101"/>
    <nd ref="410796102"/>
    <nd ref="410796104"/>
    <nd ref="410796103"/>
    <nd ref="410796101"/>
    <tag k="amenity" v="parking"/>
  </way>
  <way id="35023481" version="2" timestamp="2011-07-11T09:12:48Z" uid="37370" user="amateja" changeset="8691784">
    <nd ref="1357494953"/>
    <nd ref="1357494943"/>
    <nd ref="1357494865"/>
    <nd ref="1357494885"/>
    <nd ref="410796104"/>
    <nd ref="1357494906"/>
    <nd ref="1357494900"/>
    <nd ref="410796102"/>
    <nd ref="1357494961"/>
    <nd ref="410796101"/>
    <nd ref="410796103"/>
    <nd ref="1357494953"/>
    <tag k="amenity" v="parking"/>
  </way>
  <way id="35023482" version="1" timestamp="2009-05-25T00:43:29Z" uid="20587" user="balrog-kun" changeset="1312332">
    <nd ref="410796105"/>
    <nd ref="410796106"/>
    <nd ref="410796108"/>
    <nd ref="410796110"/>
    <nd ref="410796112"/>
    <nd ref="410796115"/>
    <nd ref="410796114"/>
    <nd ref="410796113"/>
    <nd ref="410796111"/>
    <nd ref="410796109"/>
    <nd ref="410796117"/>
    <nd ref="410796116"/>
    <nd ref="410796107"/>
    <nd ref="410796105"/>
    <tag k="addr:housenumber" v="16"/>
    <tag k="addr:street" v="Gładka"/>
    <tag k="building" v="hall"/>
  </way>
  <way id="35023482" version="2" timestamp="2011-07-11T09:11:52Z" uid="37370" user="amateja" changeset="8691784">
    <nd ref="1357494374"/>
    <nd ref="410796109"/>
    <nd ref="410796117"/>
    <nd ref="410796116"/>
    <nd ref="410796107"/>
    <nd ref="410796105"/>
    <nd ref="410796106"/>
    <nd ref="410796112"/>
    <nd ref="1357494374"/>
    <tag k="addr:housenumber" v="16"/>
    <tag k="addr:street" v="Gładka"/>
    <tag k="building" v="hall"/>
  </way>
  <way id="35023483" version="1" timestamp="2009-05-25T00:43:29Z" uid="20587" user="balrog-kun" changeset="1312332">
    <nd ref="410796118"/>
    <nd ref="410796120"/>
    <nd ref="410796121"/>
    <nd ref="410796119"/>
    <nd ref="410796118"/>
    <tag k="addr:housenumber" v="32"/>
    <tag k="addr:street" v="Sabały"/>
    <tag k="building" v="apartments"/>
  </way>
  <way id="35023483" version="2" timestamp="2011-03-10T09:58:13Z" uid="37370" user="amateja" changeset="7512301">
    <nd ref="410796118"/>
    <nd ref="410796120"/>
    <nd ref="410796121"/>
    <nd ref="410796119"/>
    <nd ref="410796118"/>
    <tag k="addr:housenumber" v="32"/>
    <tag k="addr:street" v="Jana Sabały"/>
    <tag k="building" v="apartments"/>
  </way>
  <way id="35023484" version="1" timestamp="2009-05-25T00:43:29Z" uid="20587" user="balrog-kun" changeset="1312332">
    <nd ref="410796123"/>
    <nd ref="410796124"/>
    <nd ref="410796125"/>
    <nd ref="410796126"/>
    <nd ref="410796127"/>
    <nd ref="410796128"/>
    <nd ref="410796129"/>
    <nd ref="410796130"/>
    <nd ref="410796131"/>
    <nd ref="410796132"/>
    <nd ref="410796133"/>
    <nd ref="410796134"/>
    <nd ref="410796135"/>
    <nd ref="410796136"/>
    <nd ref="410796137"/>
    <nd ref="410796138"/>
    <nd ref="410796139"/>
    <nd ref="410796140"/>
    <nd ref="410796141"/>
    <nd ref="410796142"/>
    <nd ref="410796123"/>
    <tag k="natural" v="water"/>
  </way>
  <way id="35023485" version="1" timestamp="2009-05-25T00:43:29Z" uid="20587" user="balrog-kun" changeset="1312332">
    <nd ref="27167617"/>
    <nd ref="410796143"/>
    <tag k="highway" v="service"/>
  </way>
  <way id="35023486" version="1" timestamp="2009-05-25T00:43:29Z" uid="20587" user="balrog-kun" changeset="1312332">
    <nd ref="410796144"/>
    <nd ref="410796145"/>
    <tag k="highway" v="service"/>
  </way>
  <way id="35023487" version="1" timestamp="2009-05-25T00:43:30Z" uid="20587" user="balrog-kun" changeset="1312332">
    <nd ref="410796146"/>
    <nd ref="410796147"/>
    <nd ref="410796148"/>
    <nd ref="410796149"/>
    <nd ref="410796150"/>
    <nd ref="410796151"/>
    <nd ref="410796152"/>
    <nd ref="410796153"/>
    <nd ref="410796154"/>
    <nd ref="410796146"/>
    <tag k="addr:housenumber" v="205/211"/>
    <tag k="addr:street" v="Aleja Krakowska"/>
    <tag k="landuse" v="farm"/>
  </way>
  <way id="35023521" version="1" timestamp="2009-05-25T00:48:58Z" uid="110593" user="esetzer" changeset="1312344">
    <nd ref="410796343"/>
    <nd ref="410796344"/>
    <nd ref="410796347"/>
    <nd ref="410796348"/>
    <nd ref="410796359"/>
    <nd ref="410796343"/>
    <tag k="created_by" v="Merkaartor 0.11"/>
    <tag k="natural" v="scrub"/>
  </way>
  <way id="35023523" version="1" timestamp="2009-05-25T00:49:01Z" uid="110593" user="esetzer" changeset="1312344">
    <nd ref="366746366"/>
    <nd ref="359276747"/>
    <nd ref="83544514"/>
    <tag k="access" v="no"/>
    <tag k="created_by" v="Potlatch 0.10f"/>
    <tag k="highway" v="residential"/>
    <tag k="name" v="South 300 West"/>
    <tag k="name_1" v="S 300  E"/>
    <tag k="old_name" v="Cottonwood St"/>
    <tag k="tiger:cfcc" v="A41"/>
    <tag k="tiger:county" v="Salt Lake, UT"/>
    <tag k="tiger:name_base" v="300 West"/>
    <tag k="tiger:name_base_1" v="300"/>
    <tag k="tiger:name_direction_prefix" v="S"/>
    <tag k="tiger:name_direction_prefix_1" v="S"/>
    <tag k="tiger:name_direction_suffix_1" v="E"/>
    <tag k="tiger:reviewed" v="no"/>
    <tag k="tiger:separated" v="no"/>
    <tag k="tiger:source" v="tiger_import_dch_v0.6_20070830"/>
    <tag k="tiger:tlid" v="176084930:176084951:176145569:176145572:176145573:176120627:176084821:176120615:176120616"/>
    <tag k="tiger:upload_uuid" v="bulk_upload.pl-a2da7ec1-da05-434f-a535-e5cc3da32f27"/>
    <tag k="tiger:zip_left" v="84107"/>
    <tag k="tiger:zip_right" v="84107"/>
  </way>
  <way id="35023523" version="2" timestamp="2009-06-14T00:39:06Z" uid="110593" user="esetzer" changeset="1509829"/>
  <way id="35023530" version="1" timestamp="2009-05-25T00:50:38Z" uid="20587" user="balrog-kun" changeset="1312345">
    <nd ref="410796476"/>
    <nd ref="410796477"/>
    <nd ref="410796491"/>
    <nd ref="410796478"/>
    <nd ref="410796479"/>
    <nd ref="410796480"/>
    <nd ref="410796481"/>
    <nd ref="410796482"/>
    <nd ref="410796483"/>
    <nd ref="410796484"/>
    <tag k="highway" v="service"/>
  </way>
  <way id="35023530" version="2" timestamp="2011-08-31T07:08:15Z" uid="37370" user="amateja" changeset="9173626">
    <nd ref="410796476"/>
    <nd ref="410796491"/>
    <nd ref="410796478"/>
    <nd ref="410796479"/>
    <nd ref="410796480"/>
    <nd ref="410796481"/>
    <nd ref="1418937016"/>
    <tag k="highway" v="service"/>
  </way>
  <way id="35023531" version="1" timestamp="2009-05-25T00:50:38Z" uid="20587" user="balrog-kun" changeset="1312345">
    <nd ref="410796485"/>
    <nd ref="410796486"/>
    <nd ref="410796488"/>
    <nd ref="410796487"/>
    <nd ref="410796485"/>
    <tag k="amenity" v="parking"/>
  </way>
  <way id="35023532" version="1" timestamp="2009-05-25T00:50:38Z" uid="20587" user="balrog-kun" changeset="1312345">
    <nd ref="410796489"/>
    <nd ref="410796483"/>
    <nd ref="410796490"/>
    <nd ref="410796491"/>
    <tag k="highway" v="service"/>
  </way>
  <way id="35023532" version="2" timestamp="2011-08-31T07:08:16Z" uid="37370" user="amateja" changeset="9173626">
    <nd ref="416537297"/>
    <nd ref="1418937109"/>
    <nd ref="1418937067"/>
    <nd ref="1418937028"/>
    <nd ref="410796483"/>
    <nd ref="1418937016"/>
    <nd ref="410796490"/>
    <nd ref="410796491"/>
    <tag k="highway" v="service"/>
  </way>
  <way id="35023533" version="1" timestamp="2009-05-25T00:50:38Z" uid="20587" user="balrog-kun" changeset="1312345">
    <nd ref="410796492"/>
    <nd ref="410796493"/>
    <nd ref="410796494"/>
    <nd ref="410796495"/>
    <nd ref="410796497"/>
    <nd ref="410796496"/>
    <tag k="highway" v="service"/>
  </way>
  <way id="35023533" version="2" timestamp="2011-08-31T07:08:15Z" uid="37370" user="amateja" changeset="9173626">
    <nd ref="410796492"/>
    <nd ref="410796495"/>
    <nd ref="410796497"/>
    <nd ref="410796496"/>
    <nd ref="1418937405"/>
    <nd ref="1418937415"/>
    <tag k="highway" v="service"/>
  </way>
  <way id="35023534" version="1" timestamp="2009-05-25T00:50:38Z" uid="20587" user="balrog-kun" changeset="1312345">
    <nd ref="410796497"/>
    <nd ref="410796498"/>
    <nd ref="410796499"/>
    <tag k="highway" v="service"/>
  </way>
  <way id="35023534" version="2" timestamp="2009-07-13T05:50:11Z" uid="22840" user="Slawek Janukowicz" changeset="1813528">
    <nd ref="410796497"/>
    <nd ref="410796498"/>
    <nd ref="410796499"/>
    <nd ref="441052647"/>
    <nd ref="410796501"/>
    <nd ref="441052648"/>
    <nd ref="441052650"/>
    <nd ref="410796505"/>
    <tag k="highway" v="service"/>
  </way>
  <way id="35023534" version="3" timestamp="2011-08-31T07:08:14Z" uid="37370" user="amateja" changeset="9173626">
    <nd ref="410796497"/>
    <nd ref="410796498"/>
    <nd ref="410796499"/>
    <tag k="highway" v="service"/>
  </way>
  <way id="35023535" version="1" timestamp="2009-05-25T00:50:38Z" uid="20587" user="balrog-kun" changeset="1312345">
    <nd ref="410796495"/>
    <nd ref="410796500"/>
    <nd ref="410796501"/>
    <nd ref="410796502"/>
    <nd ref="410796503"/>
    <nd ref="410796504"/>
    <nd ref="410796505"/>
    <nd ref="27167672"/>
    <tag k="highway" v="service"/>
  </way>
  <way id="35023535" version="2" timestamp="2011-08-31T07:08:17Z" uid="37370" user="amateja" changeset="9173626">
    <nd ref="410796495"/>
    <nd ref="410796500"/>
    <nd ref="1418937319"/>
    <nd ref="410796501"/>
    <nd ref="410796502"/>
    <nd ref="1418937453"/>
    <nd ref="410796505"/>
    <nd ref="27167672"/>
    <tag k="highway" v="service"/>
  </way>
  <way id="35023545" version="1" timestamp="2009-05-25T00:52:41Z" uid="110593" user="esetzer" changeset="1312350">
    <nd ref="83583713"/>
    <nd ref="410797365"/>
    <nd ref="83555170"/>
    <nd ref="83696463"/>
    <nd ref="83630022"/>
    <nd ref="83688684"/>
    <nd ref="83623014"/>
    <nd ref="83714573"/>
    <nd ref="83676686"/>
    <nd ref="410797366"/>
    <nd ref="368046110"/>
    <nd ref="368046119"/>
    <nd ref="83583746"/>
    <nd ref="83583741"/>
    <nd ref="83583739"/>
    <nd ref="83583736"/>
    <nd ref="83583731"/>
    <nd ref="83583728"/>
    <nd ref="83563951"/>
    <nd ref="83555531"/>
    <nd ref="83583720"/>
    <nd ref="83583719"/>
    <nd ref="83583718"/>
    <nd ref="83583715"/>
    <nd ref="83583714"/>
    <nd ref="83583713"/>
    <tag k="created_by" v="Merkaartor 0.11"/>
    <tag k="landuse" v="residential"/>
  </way>
  <way id="35023545" version="2" timestamp="2009-08-16T20:10:33Z" uid="104930" user="butlerm" changeset="2170473">
    <nd ref="83583713"/>
    <nd ref="469409236"/>
    <nd ref="83696463"/>
    <nd ref="83630022"/>
    <nd ref="83688684"/>
    <nd ref="83623014"/>
    <nd ref="83714573"/>
    <nd ref="83676686"/>
    <nd ref="410797366"/>
    <nd ref="368046110"/>
    <nd ref="368046119"/>
    <nd ref="83583746"/>
    <nd ref="83583741"/>
    <nd ref="83583739"/>
    <nd ref="83583736"/>
    <nd ref="83583731"/>
    <nd ref="83583728"/>
    <nd ref="83563951"/>
    <nd ref="83555531"/>
    <nd ref="83583720"/>
    <nd ref="83583719"/>
    <nd ref="83583718"/>
    <nd ref="83583715"/>
    <nd ref="83583714"/>
    <nd ref="83583713"/>
    <tag k="created_by" v="Merkaartor 0.11"/>
    <tag k="landuse" v="residential"/>
  </way>
  <way id="35023545" version="3" timestamp="2009-08-16T20:11:08Z" uid="104930" user="butlerm" changeset="2170473">
    <nd ref="469409375"/>
    <nd ref="469409236"/>
    <nd ref="83696463"/>
    <nd ref="83630022"/>
    <nd ref="83688684"/>
    <nd ref="83623014"/>
    <nd ref="83714573"/>
    <nd ref="83676686"/>
    <nd ref="410797366"/>
    <nd ref="368046110"/>
    <nd ref="368046119"/>
    <nd ref="83583746"/>
    <nd ref="83583741"/>
    <nd ref="83583739"/>
    <nd ref="83583736"/>
    <nd ref="83583731"/>
    <nd ref="83583728"/>
    <nd ref="83563951"/>
    <nd ref="83555531"/>
    <nd ref="83583720"/>
    <nd ref="83583719"/>
    <nd ref="83583718"/>
    <nd ref="83583715"/>
    <nd ref="83583714"/>
    <nd ref="469409375"/>
    <tag k="created_by" v="Merkaartor 0.11"/>
    <tag k="landuse" v="residential"/>
  </way>
  <way id="35023545" version="4" timestamp="2009-08-16T20:11:20Z" uid="104930" user="butlerm" changeset="2170473">
    <nd ref="469409375"/>
    <nd ref="469409236"/>
    <nd ref="83696463"/>
    <nd ref="83630022"/>
    <nd ref="83688684"/>
    <nd ref="83623014"/>
    <nd ref="83714573"/>
    <nd ref="83676686"/>
    <nd ref="410797366"/>
    <nd ref="368046110"/>
    <nd ref="469409378"/>
    <nd ref="83583739"/>
    <nd ref="83583736"/>
    <nd ref="83583731"/>
    <nd ref="83583728"/>
    <nd ref="83563951"/>
    <nd ref="83555531"/>
    <nd ref="83583720"/>
    <nd ref="83583719"/>
    <nd ref="83583718"/>
    <nd ref="83583715"/>
    <nd ref="83583714"/>
    <nd ref="469409375"/>
    <tag k="created_by" v="Merkaartor 0.11"/>
    <tag k="landuse" v="residential"/>
  </way>
  <way id="35023545" version="5" timestamp="2009-08-16T20:11:32Z" uid="104930" user="butlerm" changeset="2170473">
    <nd ref="469409375"/>
    <nd ref="469409236"/>
    <nd ref="83696463"/>
    <nd ref="83630022"/>
    <nd ref="83688684"/>
    <nd ref="83623014"/>
    <nd ref="83714573"/>
    <nd ref="83676686"/>
    <nd ref="410797366"/>
    <nd ref="368046110"/>
    <nd ref="469409378"/>
    <nd ref="83555531"/>
    <nd ref="83583720"/>
    <nd ref="83583719"/>
    <nd ref="83583718"/>
    <nd ref="83583715"/>
    <nd ref="83583714"/>
    <nd ref="469409375"/>
    <tag k="created_by" v="Merkaartor 0.11"/>
    <tag k="landuse" v="residential"/>
  </way>
  <way id="35023545" version="6" timestamp="2009-08-16T20:11:47Z" uid="104930" user="butlerm" changeset="2170473">
    <nd ref="469409375"/>
    <nd ref="469409236"/>
    <nd ref="83696463"/>
    <nd ref="83630022"/>
    <nd ref="83688684"/>
    <nd ref="83623014"/>
    <nd ref="83714573"/>
    <nd ref="83676686"/>
    <nd ref="410797366"/>
    <nd ref="368046110"/>
    <nd ref="469409378"/>
    <nd ref="469409375"/>
    <tag k="created_by" v="Merkaartor 0.11"/>
    <tag k="landuse" v="residential"/>
  </way>
  <way id="35023545" version="7" timestamp="2009-08-16T20:53:11Z" uid="104930" user="butlerm" changeset="2171278">
    <nd ref="469409375"/>
    <nd ref="469409236"/>
    <nd ref="83696463"/>
    <nd ref="83630022"/>
    <nd ref="83688684"/>
    <nd ref="83623014"/>
    <nd ref="83714573"/>
    <nd ref="469422067"/>
    <nd ref="83676686"/>
    <nd ref="410797366"/>
    <nd ref="368046110"/>
    <nd ref="469409378"/>
    <nd ref="469409375"/>
    <tag k="created_by" v="Merkaartor 0.11"/>
    <tag k="landuse" v="residential"/>
  </way>
  <way id="35023545" version="8" timestamp="2009-08-16T20:54:31Z" uid="104930" user="butlerm" changeset="2171278">
    <nd ref="469409375"/>
    <nd ref="469409236"/>
    <nd ref="83688684"/>
    <nd ref="83623014"/>
    <nd ref="469422067"/>
    <nd ref="83676686"/>
    <nd ref="410797366"/>
    <nd ref="368046110"/>
    <nd ref="469409378"/>
    <nd ref="469409375"/>
    <tag k="created_by" v="Merkaartor 0.11"/>
    <tag k="landuse" v="residential"/>
  </way>
  <way id="35023545" version="9" timestamp="2012-03-16T01:23:38Z" uid="348149" user="viana" changeset="10993778"/>
  <way id="35023551" version="1" timestamp="2009-05-25T00:56:46Z" uid="110593" user="esetzer" changeset="1312363">
    <nd ref="83518735"/>
    <nd ref="83518727"/>
    <nd ref="410797408"/>
    <nd ref="410797409"/>
    <nd ref="83518735"/>
    <tag k="created_by" v="Merkaartor 0.11"/>
    <tag k="landuse" v="industrial"/>
  </way>
  <way id="35023552" version="1" timestamp="2009-05-25T00:56:48Z" uid="110593" user="esetzer" changeset="1312363">
    <nd ref="83704176"/>
    <nd ref="83652399"/>
    <nd ref="368345451"/>
    <nd ref="83619493"/>
    <nd ref="83619492"/>
    <nd ref="83704176"/>
    <tag k="created_by" v="Merkaartor 0.11"/>
    <tag k="landuse" v="residential"/>
  </way>
  <way id="35023552" version="2" timestamp="2011-03-28T23:44:54Z" uid="207745" user="NE2" changeset="7702646">
    <nd ref="1223826092"/>
    <nd ref="1223826182"/>
    <nd ref="1223826209"/>
    <nd ref="1223826138"/>
    <nd ref="1223826092"/>
    <tag k="landuse" v="residential"/>
  </way>
  <way id="35023554" version="1" timestamp="2009-05-25T00:59:01Z" uid="20587" user="balrog-kun" changeset="1312365">
    <nd ref="410797671"/>
    <nd ref="410797672"/>
    <nd ref="410797674"/>
    <nd ref="410797673"/>
    <nd ref="410797671"/>
    <tag k="amenity" v="school"/>
    <tag k="name" v="Mazowieckie Samorządowe Centrum Doskonalenia Nauczycieli"/>
    <tag k="source" v="msi"/>
  </way>
  <way id="35023557" version="2" timestamp="2010-07-25T23:28:47Z" uid="4467" user="Rosscoe" changeset="5317533">
    <nd ref="410797775"/>
    <nd ref="410797783"/>
    <tag k="bridge" v="yes"/>
    <tag k="layer" v="1"/>
    <tag k="name" v="Fingal Line"/>
    <tag k="railway" v="rail"/>
  </way>
  <way id="35023710" version="3" timestamp="2010-04-03T04:14:56Z" uid="20587" user="balrog-kun" changeset="4309442">
    <nd ref="175492294"/>
    <nd ref="410784494"/>
    <nd ref="410785489"/>
    <nd ref="410784489"/>
    <nd ref="410784490"/>
    <nd ref="410784491"/>
    <nd ref="410784492"/>
    <nd ref="175454294"/>
    <nd ref="410784525"/>
    <nd ref="410785430"/>
    <nd ref="410785431"/>
    <nd ref="410785432"/>
    <nd ref="175397634"/>
    <tag k="highway" v="service"/>
    <tag k="name" v="South Coleta Avenue"/>
    <tag k="service" v="alley"/>
    <tag k="tiger:cfcc" v="A41"/>
    <tag k="tiger:county" v="Pima, AZ"/>
    <tag k="tiger:name_base" v="Coleta"/>
    <tag k="tiger:name_direction_prefix" v="S"/>
    <tag k="tiger:name_type" v="Ave"/>
    <tag k="tiger:reviewed" v="no"/>
    <tag k="tiger:separated" v="no"/>
    <tag k="tiger:source" v="tiger_import_dch_v0.6_20070809"/>
    <tag k="tiger:tlid" v="121170973:121195010:121195012"/>
    <tag k="tiger:zip_left" v="85701"/>
    <tag k="tiger:zip_right" v="85701"/>
  </way>
  <way id="35023004" version="3" timestamp="2012-07-18T18:38:28Z" uid="722137" user="OSMF Redaction Account" changeset="12292918"/>
  <way id="35023146" version="2" timestamp="2012-07-18T18:38:18Z" uid="722137" user="OSMF Redaction Account" changeset="12292918"/>
  <way id="35023158" version="3" timestamp="2012-07-18T18:37:16Z" uid="722137" user="OSMF Redaction Account" changeset="12292918">
    <nd ref="420348811"/>
    <nd ref="420348812"/>
    <nd ref="420348813"/>
    <nd ref="420348814"/>
    <nd ref="420348815"/>
    <nd ref="420348816"/>
  </way>
  <way id="35023162" version="3" timestamp="2012-07-18T18:37:20Z" uid="722137" user="OSMF Redaction Account" changeset="12292918">
    <nd ref="1223826114"/>
    <nd ref="1223826039"/>
    <nd ref="1223826114"/>
  </way>
  <way id="35023163" version="2" timestamp="2012-07-18T18:38:17Z" uid="722137" user="OSMF Redaction Account" changeset="12292918"/>
  <way id="35023169" version="3" timestamp="2012-07-19T16:06:41Z" uid="722137" user="OSMF Redaction Account" changeset="12337731"/>
  <way id="35023183" version="2" timestamp="2012-07-18T18:38:18Z" uid="722137" user="OSMF Redaction Account" changeset="12292918"/>
  <way id="35023203" version="5" timestamp="2012-07-18T19:27:17Z" uid="722137" user="OSMF Redaction Account" changeset="12294723"/>
  <way id="35023225" version="6" timestamp="2012-07-10T07:40:11Z" uid="207745" user="NE2" changeset="12170085"/>
  <way id="35023227" version="4" timestamp="2012-07-18T19:27:16Z" uid="722137" user="OSMF Redaction Account" changeset="12294723"/>
  <way id="35023240" version="2" timestamp="2012-07-18T19:27:14Z" uid="722137" user="OSMF Redaction Account" changeset="12294723"/>
  <way id="35023244" version="3" timestamp="2012-07-18T19:27:10Z" uid="722137" user="OSMF Redaction Account" changeset="12294723"/>
  <way id="35023245" version="3" timestamp="2012-07-18T19:27:09Z" uid="722137" user="OSMF Redaction Account" changeset="12294723"/>
  <way id="35023252" version="4" timestamp="2012-07-18T19:27:10Z" uid="722137" user="OSMF Redaction Account" changeset="12294723"/>
  <way id="35023253" version="4" timestamp="2012-07-18T19:26:11Z" uid="722137" user="OSMF Redaction Account" changeset="12294723">
    <nd ref="469579081"/>
    <nd ref="469579082"/>
    <nd ref="469579083"/>
    <nd ref="469579084"/>
    <nd ref="469578733"/>
  </way>
  <way id="35023298" version="4" timestamp="2012-07-18T19:27:10Z" uid="722137" user="OSMF Redaction Account" changeset="12294723"/>
  <way id="35023299" version="6" timestamp="2012-07-19T09:15:20Z" uid="46482" user="Leon K" changeset="12315611">
    <nd ref="361575789"/>
    <nd ref="1509165319"/>
    <nd ref="410794517"/>
    <nd ref="410794518"/>
    <tag k="highway" v="residential"/>
    <tag k="name" v="Lyttleton Street"/>
    <tag k="surface" v="gravel"/>
  </way>
  <way id="35023304" version="5" timestamp="2012-07-19T06:51:54Z" uid="722137" user="OSMF Redaction Account" changeset="12310810">
    <nd ref="410794524"/>
    <nd ref="410794525"/>
    <tag k="bridge" v="yes"/>
    <tag k="highway" v="trunk"/>
    <tag k="maxspeed" v="110"/>
    <tag k="name" v="Bass Highway"/>
    <tag k="oneway" v="yes"/>
  </way>
  <way id="35023308" version="5" timestamp="2012-07-19T06:51:52Z" uid="722137" user="OSMF Redaction Account" changeset="12310810">
    <nd ref="391917704"/>
    <nd ref="410794551"/>
    <tag k="bridge" v="yes"/>
    <tag k="name" v="Western Line"/>
    <tag k="railway" v="rail"/>
    <tag k="usage" v="main"/>
  </way>
  <way id="35023309" version="3" timestamp="2012-07-19T06:51:51Z" uid="722137" user="OSMF Redaction Account" changeset="12310810">
    <nd ref="410794552"/>
    <nd ref="313129399"/>
    <tag k="bridge" v="yes"/>
    <tag k="highway" v="primary"/>
    <tag k="maxspeed" v="60"/>
    <tag k="name" v="Meander Valley Road"/>
    <tag k="ref" v="B54"/>
  </way>
  <way id="35023313" version="7" timestamp="2012-07-10T07:40:18Z" uid="207745" user="NE2" changeset="12170085"/>
  <way id="35023315" version="8" timestamp="2012-07-18T19:26:03Z" uid="722137" user="OSMF Redaction Account" changeset="12294723">
    <nd ref="518475972"/>
    <nd ref="503840921"/>
    <nd ref="469577260"/>
    <nd ref="503840920"/>
    <nd ref="469577261"/>
    <nd ref="469577257"/>
  </way>
  <way id="35023315" version="9" timestamp="2012-08-11T16:07:45Z" uid="315015" user="WernerP" changeset="12692869"/>
  <way id="35023340" version="4" timestamp="2012-07-18T19:27:07Z" uid="722137" user="OSMF Redaction Account" changeset="12294723"/>
  <way id="35023385" version="3" timestamp="2012-07-10T07:40:19Z" uid="207745" user="NE2" changeset="12170085"/>
  <way id="35023413" version="3" timestamp="2012-09-11T23:15:56Z" uid="834706" user="kswdlp" changeset="13076510">
    <nd ref="410795560"/>
    <nd ref="410795561"/>
    <nd ref="410795563"/>
    <nd ref="410795564"/>
    <nd ref="410795560"/>
    <tag k="amenity" v="marketplace"/>
  </way>
  <way id="35023421" version="6" timestamp="2012-06-11T17:19:46Z" uid="99386" user="masti" changeset="11866765">
    <nd ref="410795646"/>
    <nd ref="410795653"/>
    <nd ref="410795654"/>
    <nd ref="410795645"/>
    <nd ref="410795651"/>
    <nd ref="410795652"/>
    <nd ref="1232314355"/>
    <nd ref="1232314557"/>
    <nd ref="410795649"/>
    <nd ref="410795650"/>
    <nd ref="1232315181"/>
    <nd ref="1232314539"/>
    <nd ref="410795647"/>
    <nd ref="410795648"/>
    <nd ref="1232314673"/>
    <nd ref="1232314899"/>
    <nd ref="1232314571"/>
    <nd ref="410795646"/>
    <tag k="addr:city" v="Warszawa"/>
    <tag k="addr:country" v="PL"/>
    <tag k="addr:housenumber" v="274"/>
    <tag k="addr:postcode" v="02-210"/>
    <tag k="addr:street" v="Aleja Krakowska"/>
    <tag k="building" v="shops"/>
    <tag k="name" v="Kanwa"/>
    <tag k="shop" v="convenience"/>
  </way>
  <way id="35023521" version="2" timestamp="2012-07-18T19:26:54Z" uid="722137" user="OSMF Redaction Account" changeset="12294723"/>
  <way id="35023551" version="2" timestamp="2012-07-18T19:27:22Z" uid="722137" user="OSMF Redaction Account" changeset="12294813"/>
  <way id="35023552" version="3" timestamp="2012-07-18T19:26:38Z" uid="722137" user="OSMF Redaction Account" changeset="12294723">
    <nd ref="1223826092"/>
    <nd ref="1223826182"/>
    <nd ref="1223826209"/>
    <nd ref="1223826138"/>
    <nd ref="1223826092"/>
  </way>
  <way id="35023557" version="3" timestamp="2012-07-19T09:16:19Z" uid="722137" user="OSMF Redaction Account" changeset="12315651">
    <nd ref="410797775"/>
    <nd ref="410797783"/>
    <tag k="bridge" v="yes"/>
    <tag k="name" v="Fingal Line"/>
    <tag k="railway" v="rail"/>
  </way>
</osm>
