<?xml version='1.0' encoding='UTF-8'?>
<osm version="0.6" generator="libosmium/2.20.0">
  <way id="35106554" version="3" timestamp="2010-04-07T16:47:06Z" uid="20587" user="balrog-kun" changeset="4355544">
    <nd ref="411850873"/>
    <nd ref="65904879"/>
    <nd ref="411850869"/>
    <nd ref="411850871"/>
    <nd ref="65888799"/>
    <tag k="highway" v="primary"/>
    <tag k="name" v="Edgerton Highway"/>
    <tag k="ref" v="AK 10"/>
    <tag k="tiger:cfcc" v="A31"/>
    <tag k="tiger:county" v="Valdez-Cordova, AK"/>
    <tag k="tiger:name_base" v="Edgerton"/>
    <tag k="tiger:name_type" v="Hwy"/>
    <tag k="tiger:reviewed" v="no"/>
    <tag k="tiger:separated" v="no"/>
    <tag k="tiger:source" v="tiger_import_dch_v0.6_20070809"/>
    <tag k="tiger:tlid" v="191120744:191144530:191144533:191144534"/>
  </way>
  <way id="35106904" version="3" timestamp="2010-03-28T02:08:50Z" uid="20587" user="balrog-kun" changeset="4250871">
    <nd ref="56064273"/>
    <nd ref="411854421"/>
    <nd ref="56064275"/>
    <nd ref="56064277"/>
    <tag k="highway" v="residential"/>
    <tag k="name" v="Daniel Drive"/>
    <tag k="tiger:cfcc" v="A41"/>
    <tag k="tiger:county" v="Sonoma, CA"/>
    <tag k="tiger:name_base" v="Daniel"/>
    <tag k="tiger:name_type" v="Dr"/>
    <tag k="tiger:reviewed" v="no"/>
    <tag k="tiger:separated" v="no"/>
    <tag k="tiger:source" v="tiger_import_dch_v0.6_20070809"/>
    <tag k="tiger:tlid" v="67472145:67472135"/>
    <tag k="tiger:zip_left" v="94928"/>
    <tag k="tiger:zip_right" v="94928"/>
  </way>
  <way id="35106554" version="4" timestamp="2012-04-06T15:38:50Z" uid="47681" user="jot" changeset="11203318">
    <nd ref="411850873"/>
    <nd ref="65904879"/>
    <nd ref="411850869"/>
    <nd ref="411850871"/>
    <nd ref="65888799"/>
    <tag k="highway" v="primary"/>
    <tag k="name" v="Edgerton Highway"/>
    <tag k="ref" v="AK 10"/>
    <tag k="tiger:cfcc" v="A31"/>
    <tag k="tiger:county" v="Valdez-Cordova, AK"/>
    <tag k="tiger:name_base" v="Edgerton"/>
    <tag k="tiger:name_type" v="Hwy"/>
    <tag k="tiger:separated" v="no"/>
    <tag k="tiger:source" v="tiger_import_dch_v0.6_20070809"/>
    <tag k="tiger:tlid" v="191120744:191144530:191144533:191144534"/>
  </way>
</osm>
