<?xml version='1.0' encoding='UTF-8'?>
<osm version="0.6" generator="libosmium/2.20.0">
  <way id="35139153" version="5" timestamp="2010-06-29T20:48:45Z" uid="74617" user="JohnSmith" changeset="5109183">
    <nd ref="412182252"/>
    <nd ref="412182254"/>
    <nd ref="412182255"/>
    <nd ref="412182256"/>
    <nd ref="412182252"/>
    <tag k="fixme" v="sport=rugby is ambiguous, see http://wiki.osm.org/wiki/Tag:sport%3Drugby for more details"/>
    <tag k="leisure" v="pitch"/>
    <tag k="name" v="Butts Park Arena (Coventry RFC)"/>
    <tag k="sport" v="rugby"/>
  </way>
  <way id="35139153" version="6" timestamp="2012-03-17T00:18:57Z" uid="411244" user="RobJN" changeset="11003902">
    <nd ref="412182252"/>
    <nd ref="412182254"/>
    <nd ref="412182255"/>
    <nd ref="412182256"/>
    <nd ref="412182252"/>
    <tag k="fixme" v="sport=rugby is ambiguous, see http://wiki.osm.org/wiki/Tag:sport%3Drugby for more details"/>
    <tag k="leisure" v="pitch"/>
    <tag k="name" v="Butts Park Arena (Coventry RFC)"/>
    <tag k="odbl" v="clean"/>
    <tag k="source" v="Bing; local knowledge"/>
    <tag k="sport" v="rugby"/>
  </way>
  <way id="35139158" version="4" timestamp="2010-07-03T23:58:50Z" uid="7617" user="Franc" changeset="5129036">
    <nd ref="291440008"/>
    <nd ref="412181950"/>
    <tag k="highway" v="residential"/>
    <tag k="name" v="Euclase Place"/>
  </way>
  <way id="35139158" version="5" timestamp="2010-07-07T20:30:22Z" uid="74617" user="JohnSmith" changeset="5161069">
    <nd ref="291440008"/>
    <nd ref="412181950"/>
    <tag k="highway" v="residential"/>
    <tag k="maxspeed" v="50"/>
    <tag k="maxspeed:source" v="default residential speed limit in Australia"/>
    <tag k="name" v="Euclase Place"/>
  </way>
  <way id="35139158" version="6" timestamp="2012-01-18T22:04:53Z" uid="147510" user="woodpeck_fixbot" changeset="10431441">
    <nd ref="291440008"/>
    <nd ref="412181950"/>
    <tag k="highway" v="residential"/>
    <tag k="name" v="Euclase Place"/>
  </way>
  <way id="35139190" version="3" timestamp="2010-07-07T20:35:27Z" uid="74617" user="JohnSmith" changeset="5161069">
    <nd ref="412182733"/>
    <nd ref="412182667"/>
    <tag k="highway" v="residential"/>
    <tag k="maxspeed" v="50"/>
    <tag k="maxspeed:source" v="default residential speed limit in Australia"/>
    <tag k="name" v="Quartz Place"/>
  </way>
  <way id="35139190" version="4" timestamp="2012-01-18T22:04:54Z" uid="147510" user="woodpeck_fixbot" changeset="10431441">
    <nd ref="412182733"/>
    <nd ref="412182667"/>
    <tag k="highway" v="residential"/>
    <tag k="name" v="Quartz Place"/>
  </way>
  <way id="35139232" version="2" timestamp="2010-07-07T20:38:03Z" uid="74617" user="JohnSmith" changeset="5161069">
    <nd ref="412183258"/>
    <nd ref="412183197"/>
    <tag k="highway" v="residential"/>
    <tag k="maxspeed" v="50"/>
    <tag k="maxspeed:source" v="default residential speed limit in Australia"/>
    <tag k="name" v="Axinite Place"/>
  </way>
  <way id="35139232" version="3" timestamp="2012-01-18T22:04:55Z" uid="147510" user="woodpeck_fixbot" changeset="10431441">
    <nd ref="412183258"/>
    <nd ref="412183197"/>
    <tag k="highway" v="residential"/>
    <tag k="name" v="Axinite Place"/>
  </way>
  <way id="35139243" version="3" timestamp="2010-07-03T23:58:50Z" uid="7617" user="Franc" changeset="5129036">
    <nd ref="412183482"/>
    <nd ref="799884999"/>
    <nd ref="412183264"/>
    <tag k="highway" v="residential"/>
    <tag k="name" v="Cipolin Close"/>
  </way>
  <way id="35139243" version="4" timestamp="2010-07-07T20:36:29Z" uid="74617" user="JohnSmith" changeset="5161069">
    <nd ref="412183482"/>
    <nd ref="799884999"/>
    <nd ref="412183264"/>
    <tag k="highway" v="residential"/>
    <tag k="maxspeed" v="50"/>
    <tag k="maxspeed:source" v="default residential speed limit in Australia"/>
    <tag k="name" v="Cipolin Close"/>
  </way>
  <way id="35139243" version="5" timestamp="2012-01-18T22:04:57Z" uid="147510" user="woodpeck_fixbot" changeset="10431441">
    <nd ref="412183482"/>
    <nd ref="799884999"/>
    <nd ref="412183264"/>
    <tag k="highway" v="residential"/>
    <tag k="name" v="Cipolin Close"/>
  </way>
  <way id="35139272" version="2" timestamp="2010-07-03T23:58:48Z" uid="7617" user="Franc" changeset="5129036">
    <nd ref="412183888"/>
    <nd ref="799884985"/>
    <nd ref="291440107"/>
    <nd ref="799884988"/>
    <nd ref="799884994"/>
    <nd ref="412183889"/>
    <tag k="highway" v="service"/>
    <tag k="name" v="Epidote Close"/>
    <tag k="service" v="driveway"/>
  </way>
  <way id="35139281" version="3" timestamp="2010-07-03T23:58:48Z" uid="7617" user="Franc" changeset="5129036">
    <nd ref="412183961"/>
    <nd ref="799884996"/>
    <nd ref="412183258"/>
    <nd ref="799884997"/>
    <nd ref="412183962"/>
    <tag k="highway" v="service"/>
    <tag k="name" v="Axinite Place"/>
    <tag k="service" v="driveway"/>
  </way>
  <way id="35139313" version="2" timestamp="2010-07-07T20:37:11Z" uid="74617" user="JohnSmith" changeset="5161069">
    <nd ref="412184160"/>
    <nd ref="412184092"/>
    <tag k="highway" v="residential"/>
    <tag k="maxspeed" v="50"/>
    <tag k="maxspeed:source" v="default residential speed limit in Australia"/>
    <tag k="name" v="Jet Place"/>
  </way>
  <way id="35139313" version="3" timestamp="2012-01-18T22:04:58Z" uid="147510" user="woodpeck_fixbot" changeset="10431441">
    <nd ref="412184160"/>
    <nd ref="412184092"/>
    <tag k="highway" v="residential"/>
    <tag k="name" v="Jet Place"/>
  </way>
  <way id="35139334" version="4" timestamp="2010-07-07T20:33:18Z" uid="74617" user="JohnSmith" changeset="5161069">
    <nd ref="412184280"/>
    <nd ref="178558679"/>
    <tag k="highway" v="residential"/>
    <tag k="maxspeed" v="50"/>
    <tag k="maxspeed:source" v="default residential speed limit in Australia"/>
    <tag k="name" v="Beryl Close"/>
  </way>
  <way id="35139334" version="5" timestamp="2012-01-18T22:04:59Z" uid="147510" user="woodpeck_fixbot" changeset="10431441">
    <nd ref="412184280"/>
    <nd ref="178558679"/>
    <tag k="highway" v="residential"/>
    <tag k="name" v="Beryl Close"/>
  </way>
  <way id="35139153" version="7" timestamp="2012-04-09T16:39:13Z" uid="154484" user="PeterP" changeset="11241237"/>
  <way id="35139158" version="7" timestamp="2012-07-21T14:14:19Z" uid="722137" user="OSMF Redaction Account" changeset="12411447"/>
  <way id="35139190" version="5" timestamp="2012-07-21T14:14:19Z" uid="722137" user="OSMF Redaction Account" changeset="12411447"/>
  <way id="35139232" version="4" timestamp="2012-07-21T14:14:18Z" uid="722137" user="OSMF Redaction Account" changeset="12411447"/>
  <way id="35139243" version="6" timestamp="2012-07-21T14:14:18Z" uid="722137" user="OSMF Redaction Account" changeset="12411447"/>
  <way id="35139272" version="3" timestamp="2012-07-21T14:14:17Z" uid="722137" user="OSMF Redaction Account" changeset="12411447"/>
  <way id="35139281" version="4" timestamp="2012-07-21T14:14:17Z" uid="722137" user="OSMF Redaction Account" changeset="12411447"/>
  <way id="35139313" version="4" timestamp="2012-07-21T14:14:18Z" uid="722137" user="OSMF Redaction Account" changeset="12411447"/>
  <way id="35139334" version="6" timestamp="2012-07-21T14:14:16Z" uid="722137" user="OSMF Redaction Account" changeset="12411447"/>
</osm>
