<?xml version='1.0' encoding='UTF-8'?>
<osm version="0.6" generator="libosmium/2.20.0">
  <way id="35134109" version="2" timestamp="2010-01-29T20:19:11Z" uid="151899" user="Bikeman2000" changeset="3746067">
    <nd ref="412123148"/>
    <nd ref="412123149"/>
    <nd ref="412123151"/>
    <nd ref="412123143"/>
    <tag k="bicycle" v="yes"/>
    <tag k="highway" v="footway"/>
  </way>
  <way id="35134109" version="3" timestamp="2011-01-01T10:27:03Z" uid="60744" user="motlib" changeset="6826387">
    <nd ref="412123148"/>
    <nd ref="412123149"/>
    <nd ref="412123151"/>
    <nd ref="1076676776"/>
    <nd ref="34914529"/>
    <tag k="bicycle" v="yes"/>
    <tag k="highway" v="footway"/>
  </way>
  <way id="35134109" version="4" timestamp="2011-12-26T04:43:56Z" uid="173844" user="Antikalk" changeset="10204522"/>
  <way id="35134142" version="6" timestamp="2010-11-01T17:23:14Z" uid="57645" user="KartoGrapHiti" changeset="6257938">
    <nd ref="35146925"/>
    <nd ref="32013237"/>
    <nd ref="38904496"/>
    <nd ref="357539392"/>
    <nd ref="424142329"/>
    <nd ref="32013241"/>
    <nd ref="171491371"/>
    <nd ref="38664662"/>
    <nd ref="411691656"/>
    <nd ref="411687845"/>
    <nd ref="411687848"/>
    <nd ref="314000166"/>
    <nd ref="171491412"/>
    <nd ref="411685811"/>
    <nd ref="411687612"/>
    <nd ref="171491422"/>
    <nd ref="38664704"/>
    <nd ref="171491434"/>
    <nd ref="171491575"/>
    <nd ref="407830014"/>
    <nd ref="411683776"/>
    <tag k="highway" v="secondary"/>
    <tag k="maxspeed" v="50"/>
    <tag k="name" v="Lindhooper Straße"/>
    <tag k="ref" v="L 171"/>
  </way>
  <way id="35134142" version="7" timestamp="2010-11-04T09:39:23Z" uid="33382" user="de_muur" changeset="6286911">
    <nd ref="35146925"/>
    <nd ref="32013237"/>
    <nd ref="38904496"/>
    <nd ref="357539392"/>
    <nd ref="424142329"/>
    <nd ref="32013241"/>
    <nd ref="171491371"/>
    <nd ref="38664662"/>
    <nd ref="411691656"/>
    <nd ref="411687845"/>
    <nd ref="411687848"/>
    <nd ref="314000166"/>
    <nd ref="171491412"/>
    <nd ref="411685811"/>
    <nd ref="411687612"/>
    <nd ref="171491422"/>
    <nd ref="38664704"/>
    <nd ref="171491434"/>
    <nd ref="171491575"/>
    <nd ref="407830014"/>
    <nd ref="411683776"/>
    <tag k="cycleway" v="track"/>
    <tag k="highway" v="secondary"/>
    <tag k="maxspeed" v="50"/>
    <tag k="name" v="Lindhooper Straße"/>
    <tag k="ref" v="L 171"/>
  </way>
  <way id="35134142" version="8" timestamp="2011-12-26T23:29:03Z" uid="57645" user="KartoGrapHiti" changeset="10211891">
    <nd ref="35146925"/>
    <nd ref="32013237"/>
    <nd ref="38904496"/>
    <nd ref="357539392"/>
    <nd ref="424142329"/>
    <nd ref="32013241"/>
    <nd ref="171491371"/>
    <nd ref="38664662"/>
    <nd ref="411691656"/>
    <nd ref="411687845"/>
    <nd ref="411687848"/>
    <nd ref="314000166"/>
    <nd ref="171491412"/>
    <nd ref="411685811"/>
    <nd ref="411687612"/>
    <nd ref="171491422"/>
    <nd ref="38664704"/>
    <nd ref="171491434"/>
    <nd ref="171491575"/>
    <nd ref="407830014"/>
    <nd ref="411683776"/>
    <tag k="cycleway" v="track"/>
    <tag k="highway" v="secondary"/>
    <tag k="lit" v="limited"/>
    <tag k="maxspeed" v="50"/>
    <tag k="name" v="Lindhooper Straße"/>
    <tag k="ref" v="L 171"/>
  </way>
  <way id="35134142" version="9" timestamp="2011-12-27T14:01:11Z" uid="57645" user="KartoGrapHiti" changeset="10215948">
    <nd ref="35146925"/>
    <nd ref="1563579695"/>
    <nd ref="32013237"/>
    <nd ref="38904496"/>
    <nd ref="357539392"/>
    <nd ref="424142329"/>
    <nd ref="32013241"/>
    <nd ref="171491371"/>
    <nd ref="38664662"/>
    <nd ref="411691656"/>
    <nd ref="411687845"/>
    <nd ref="411687848"/>
    <nd ref="314000166"/>
    <nd ref="171491412"/>
    <nd ref="411685811"/>
    <nd ref="411687612"/>
    <nd ref="171491422"/>
    <nd ref="38664704"/>
    <nd ref="171491434"/>
    <nd ref="171491575"/>
    <nd ref="407830014"/>
    <nd ref="411683776"/>
    <tag k="cycleway" v="track"/>
    <tag k="highway" v="secondary"/>
    <tag k="lit" v="limited"/>
    <tag k="maxspeed" v="50"/>
    <tag k="name" v="Lindhooper Straße"/>
    <tag k="ref" v="L 171"/>
  </way>
  <way id="35134142" version="10" timestamp="2012-02-26T15:01:00Z" uid="45882" user="smarties" changeset="10799187">
    <nd ref="35146925"/>
    <nd ref="1563579695"/>
    <nd ref="32013237"/>
    <nd ref="38904496"/>
    <nd ref="357539392"/>
    <nd ref="424142329"/>
    <nd ref="32013241"/>
    <nd ref="171491371"/>
    <nd ref="38664662"/>
    <nd ref="411691656"/>
    <nd ref="411687845"/>
    <nd ref="411687848"/>
    <nd ref="314000166"/>
    <nd ref="171491412"/>
    <nd ref="411685811"/>
    <nd ref="411687612"/>
    <nd ref="171491422"/>
    <nd ref="38664704"/>
    <nd ref="171491434"/>
    <nd ref="171491575"/>
    <nd ref="407830014"/>
    <nd ref="1648673512"/>
    <tag k="cycleway" v="track"/>
    <tag k="highway" v="secondary"/>
    <tag k="lit" v="limited"/>
    <tag k="maxspeed" v="50"/>
    <tag k="name" v="Lindhooper Straße"/>
    <tag k="ref" v="L 171"/>
  </way>
  <way id="35134143" version="4" timestamp="2010-11-01T17:23:10Z" uid="57645" user="KartoGrapHiti" changeset="6257938">
    <nd ref="32013246"/>
    <nd ref="253945656"/>
    <tag k="highway" v="secondary"/>
    <tag k="ref" v="L 171"/>
  </way>
  <way id="35134143" version="5" timestamp="2010-11-04T09:39:25Z" uid="33382" user="de_muur" changeset="6286911">
    <nd ref="32013246"/>
    <nd ref="253945656"/>
    <tag k="cycleway" v="track"/>
    <tag k="highway" v="secondary"/>
    <tag k="ref" v="L 171"/>
  </way>
  <way id="35134143" version="6" timestamp="2012-02-26T15:01:32Z" uid="45882" user="smarties" changeset="10799187"/>
  <way id="35134144" version="5" timestamp="2010-10-30T06:29:50Z" uid="33382" user="de_muur" changeset="6224101">
    <nd ref="34937504"/>
    <nd ref="476020309"/>
    <tag k="cycleway" v="track"/>
    <tag k="highway" v="secondary"/>
    <tag k="maxspeed" v="50"/>
    <tag k="name" v="Eitzer Straße"/>
    <tag k="ref" v="L 160"/>
    <tag k="surface" v="paved"/>
  </way>
  <way id="35134144" version="6" timestamp="2012-02-08T15:22:07Z" uid="45882" user="smarties" changeset="10625539">
    <nd ref="1623963395"/>
    <nd ref="1623963391"/>
    <tag k="cycleway" v="track"/>
    <tag k="highway" v="secondary"/>
    <tag k="maxspeed" v="50"/>
    <tag k="name" v="Eitzer Straße"/>
    <tag k="ref" v="L 160"/>
    <tag k="surface" v="paved"/>
  </way>
  <way id="35134144" version="7" timestamp="2012-03-18T17:13:10Z" uid="45882" user="smarties" changeset="11021411"/>
  <way id="35134152" version="4" timestamp="2010-11-01T17:23:12Z" uid="57645" user="KartoGrapHiti" changeset="6257938">
    <nd ref="411683775"/>
    <nd ref="411683777"/>
    <nd ref="411683778"/>
    <nd ref="411683785"/>
    <nd ref="411683779"/>
    <nd ref="411683780"/>
    <nd ref="411683776"/>
    <nd ref="411683781"/>
    <nd ref="411683786"/>
    <nd ref="411683782"/>
    <nd ref="33641894"/>
    <nd ref="411683783"/>
    <nd ref="411683784"/>
    <nd ref="411683775"/>
    <tag k="highway" v="secondary"/>
    <tag k="junction" v="roundabout"/>
    <tag k="ref" v="L 171"/>
  </way>
  <way id="35134152" version="5" timestamp="2010-11-04T09:39:22Z" uid="33382" user="de_muur" changeset="6286911">
    <nd ref="411683775"/>
    <nd ref="411683777"/>
    <nd ref="411683778"/>
    <nd ref="411683785"/>
    <nd ref="411683779"/>
    <nd ref="411683780"/>
    <nd ref="411683776"/>
    <nd ref="411683781"/>
    <nd ref="411683786"/>
    <nd ref="411683782"/>
    <nd ref="33641894"/>
    <nd ref="411683783"/>
    <nd ref="411683784"/>
    <nd ref="411683775"/>
    <tag k="cycleway" v="track"/>
    <tag k="highway" v="secondary"/>
    <tag k="junction" v="roundabout"/>
    <tag k="ref" v="L 171"/>
    <tag k="surface" v="paved"/>
  </way>
  <way id="35134152" version="6" timestamp="2011-10-14T23:41:11Z" uid="29975" user="OxKing" changeset="9560087">
    <nd ref="411683775"/>
    <nd ref="1467727065"/>
    <nd ref="411683777"/>
    <nd ref="411683778"/>
    <nd ref="1467727044"/>
    <nd ref="411683785"/>
    <nd ref="411683779"/>
    <nd ref="411683780"/>
    <nd ref="411683776"/>
    <nd ref="411683781"/>
    <nd ref="411683786"/>
    <nd ref="411683782"/>
    <nd ref="33641894"/>
    <nd ref="1467727088"/>
    <nd ref="411683783"/>
    <nd ref="411683784"/>
    <nd ref="411683775"/>
    <tag k="cycleway" v="track"/>
    <tag k="highway" v="secondary"/>
    <tag k="junction" v="roundabout"/>
    <tag k="oneway" v="yes"/>
    <tag k="ref" v="L 171"/>
    <tag k="surface" v="paved"/>
  </way>
  <way id="35134152" version="7" timestamp="2012-02-26T15:01:32Z" uid="45882" user="smarties" changeset="10799187"/>
  <way id="35134161" version="7" timestamp="2009-10-01T15:23:59Z" uid="86259" user="hasse_osm_korinthenkacker" changeset="2701530">
    <nd ref="412123515"/>
    <nd ref="412123516"/>
    <nd ref="412123517"/>
    <nd ref="412123518"/>
    <nd ref="412123515"/>
    <tag k="addr:housenumber" v="69"/>
    <tag k="addr:street" v="Hauptstraße"/>
    <tag k="building" v="commercial"/>
    <tag k="name" v="Rewe Nahkauf"/>
    <tag k="shop" v="supermarket"/>
  </way>
  <way id="35134165" version="5" timestamp="2009-10-01T15:23:59Z" uid="86259" user="hasse_osm_korinthenkacker" changeset="2701530">
    <nd ref="412123562"/>
    <nd ref="412123563"/>
    <nd ref="412123564"/>
    <nd ref="412123565"/>
    <nd ref="412123562"/>
    <tag k="addr:housenumber" v="73"/>
    <tag k="addr:street" v="Hauptstraße"/>
    <tag k="building" v="private"/>
  </way>
  <way id="35134225" version="3" timestamp="2010-04-02T17:35:07Z" uid="20587" user="balrog-kun" changeset="4304500">
    <nd ref="434937479"/>
    <nd ref="50689521"/>
    <nd ref="281355227"/>
    <nd ref="281355228"/>
    <nd ref="281355229"/>
    <nd ref="50786736"/>
    <nd ref="281355230"/>
    <nd ref="50786739"/>
    <tag k="highway" v="residential"/>
    <tag k="name" v="75th Street Southeast"/>
    <tag k="tiger:cfcc" v="A41"/>
    <tag k="tiger:county" v="Snohomish, WA"/>
    <tag k="tiger:name_base" v="75th"/>
    <tag k="tiger:name_direction_suffix" v="SE"/>
    <tag k="tiger:reviewed" v="no"/>
    <tag k="tiger:separated" v="no"/>
    <tag k="tiger:source" v="tiger_import_dch_v0.6_20070830"/>
    <tag k="tiger:tlid" v="187747008:187797076:187746994"/>
    <tag k="tiger:zip_left" v="98203"/>
    <tag k="tiger:zip_right" v="98203"/>
  </way>
  <way id="35134269" version="2" timestamp="2009-11-15T15:31:06Z" uid="33382" user="de_muur" changeset="3122269">
    <nd ref="32925142"/>
    <nd ref="38664622"/>
    <nd ref="32013248"/>
    <nd ref="33649569"/>
    <nd ref="33649570"/>
    <nd ref="33649571"/>
    <nd ref="33649572"/>
    <nd ref="33649573"/>
    <nd ref="365462790"/>
    <nd ref="33649574"/>
    <nd ref="33649575"/>
    <nd ref="33649576"/>
    <nd ref="33649577"/>
    <nd ref="33649578"/>
    <nd ref="267690964"/>
    <nd ref="33649579"/>
    <nd ref="564769757"/>
    <tag k="cycleway" v="track"/>
    <tag k="highway" v="secondary"/>
    <tag k="ref" v="L 171"/>
    <tag k="surface" v="paved"/>
  </way>
  <way id="35134269" version="3" timestamp="2010-01-03T13:46:57Z" uid="11486" user="akemnade" changeset="3527992">
    <nd ref="32925142"/>
    <nd ref="38664622"/>
    <nd ref="38664622"/>
    <nd ref="33649569"/>
    <nd ref="33649570"/>
    <nd ref="33649571"/>
    <nd ref="33649572"/>
    <nd ref="33649573"/>
    <nd ref="365462790"/>
    <nd ref="33649574"/>
    <nd ref="33649575"/>
    <nd ref="33649576"/>
    <nd ref="33649577"/>
    <nd ref="33649578"/>
    <nd ref="267690964"/>
    <nd ref="33649579"/>
    <nd ref="564769757"/>
    <tag k="cycleway" v="track"/>
    <tag k="highway" v="secondary"/>
    <tag k="ref" v="L 171"/>
    <tag k="surface" v="paved"/>
  </way>
  <way id="35134269" version="4" timestamp="2010-01-04T20:32:58Z" uid="70696" user="xybot" changeset="3540354">
    <nd ref="32925142"/>
    <nd ref="38664622"/>
    <nd ref="33649569"/>
    <nd ref="33649570"/>
    <nd ref="33649571"/>
    <nd ref="33649572"/>
    <nd ref="33649573"/>
    <nd ref="365462790"/>
    <nd ref="33649574"/>
    <nd ref="33649575"/>
    <nd ref="33649576"/>
    <nd ref="33649577"/>
    <nd ref="33649578"/>
    <nd ref="267690964"/>
    <nd ref="33649579"/>
    <nd ref="564769757"/>
    <tag k="cycleway" v="track"/>
    <tag k="highway" v="secondary"/>
    <tag k="ref" v="L 171"/>
    <tag k="surface" v="paved"/>
  </way>
  <way id="35134269" version="5" timestamp="2010-03-01T17:23:29Z" uid="161619" user="FvGordon" changeset="4010222">
    <nd ref="32925142"/>
    <nd ref="38664622"/>
    <nd ref="33649569"/>
    <nd ref="33649570"/>
    <nd ref="33649571"/>
    <nd ref="33649572"/>
    <nd ref="33649573"/>
    <nd ref="365462790"/>
    <nd ref="33649574"/>
    <nd ref="33649576"/>
    <nd ref="33649577"/>
    <nd ref="33649578"/>
    <nd ref="267690964"/>
    <nd ref="33649579"/>
    <nd ref="564769757"/>
    <tag k="cycleway" v="track"/>
    <tag k="highway" v="secondary"/>
    <tag k="ref" v="L 171"/>
    <tag k="surface" v="paved"/>
  </way>
  <way id="35134269" version="6" timestamp="2010-04-05T07:04:22Z" uid="33382" user="de_muur" changeset="4329746">
    <nd ref="32925142"/>
    <nd ref="38664622"/>
    <nd ref="33649569"/>
    <nd ref="33649570"/>
    <nd ref="33649571"/>
    <nd ref="33649572"/>
    <nd ref="33649573"/>
    <nd ref="365462790"/>
    <nd ref="33649574"/>
    <nd ref="33649576"/>
    <nd ref="33649577"/>
    <nd ref="33649578"/>
    <nd ref="267690964"/>
    <tag k="cycleway" v="track"/>
    <tag k="highway" v="secondary"/>
    <tag k="ref" v="L 171"/>
    <tag k="surface" v="paved"/>
  </way>
  <way id="35134269" version="7" timestamp="2010-04-20T17:42:22Z" uid="57645" user="KartoGrapHiti" changeset="4479576">
    <nd ref="32925142"/>
    <nd ref="38664622"/>
    <nd ref="33649569"/>
    <nd ref="33649570"/>
    <nd ref="33649571"/>
    <nd ref="33649572"/>
    <nd ref="33649573"/>
    <nd ref="365462790"/>
    <nd ref="33649574"/>
    <nd ref="33649576"/>
    <nd ref="33649578"/>
    <nd ref="267690964"/>
    <tag k="highway" v="secondary"/>
    <tag k="ref" v="L 171"/>
    <tag k="surface" v="asphalt"/>
  </way>
  <way id="35134269" version="8" timestamp="2010-08-26T05:41:41Z" uid="28783" user="mey2008" changeset="5595824">
    <nd ref="32925142"/>
    <nd ref="38664622"/>
    <nd ref="33649569"/>
    <nd ref="33649570"/>
    <nd ref="33649571"/>
    <nd ref="33649572"/>
    <nd ref="33649573"/>
    <nd ref="365462790"/>
    <nd ref="33649574"/>
    <nd ref="33649576"/>
    <nd ref="880143586"/>
    <nd ref="33649578"/>
    <nd ref="267690964"/>
    <tag k="highway" v="secondary"/>
    <tag k="ref" v="L 171"/>
    <tag k="surface" v="asphalt"/>
  </way>
  <way id="35134269" version="9" timestamp="2010-09-13T16:19:00Z" uid="45882" user="smarties" changeset="5771018">
    <nd ref="32925142"/>
    <nd ref="38664622"/>
    <nd ref="33649569"/>
    <nd ref="33649570"/>
    <nd ref="33649571"/>
    <nd ref="910824722"/>
    <tag k="cycleway" v="track"/>
    <tag k="highway" v="secondary"/>
    <tag k="ref" v="L 171"/>
    <tag k="surface" v="asphalt"/>
  </way>
  <way id="35134269" version="10" timestamp="2010-11-01T17:23:18Z" uid="57645" user="KartoGrapHiti" changeset="6257938">
    <nd ref="32925142"/>
    <nd ref="38664622"/>
    <nd ref="33649569"/>
    <nd ref="33649570"/>
    <nd ref="33649571"/>
    <nd ref="910824722"/>
    <tag k="highway" v="secondary"/>
    <tag k="ref" v="L 171"/>
    <tag k="surface" v="asphalt"/>
  </way>
  <way id="35134269" version="11" timestamp="2010-11-04T09:30:49Z" uid="33382" user="de_muur" changeset="6286863">
    <nd ref="32925142"/>
    <nd ref="38664622"/>
    <tag k="highway" v="secondary"/>
    <tag k="ref" v="L 171"/>
    <tag k="surface" v="asphalt"/>
  </way>
  <way id="35134269" version="12" timestamp="2010-11-04T09:39:25Z" uid="33382" user="de_muur" changeset="6286911">
    <nd ref="296247891"/>
    <nd ref="38664622"/>
    <tag k="cycleway" v="track"/>
    <tag k="highway" v="secondary"/>
    <tag k="ref" v="L 171"/>
    <tag k="surface" v="asphalt"/>
  </way>
  <way id="35134269" version="13" timestamp="2011-12-26T23:19:26Z" uid="57645" user="KartoGrapHiti" changeset="10211847">
    <nd ref="296247891"/>
    <nd ref="1563050195"/>
    <tag k="cycleway" v="track"/>
    <tag k="highway" v="secondary"/>
    <tag k="lit" v="no"/>
    <tag k="ref" v="L 171"/>
    <tag k="surface" v="asphalt"/>
  </way>
  <way id="35134269" version="14" timestamp="2012-02-05T13:33:57Z" uid="14002" user="Gehrke" changeset="10593512">
    <nd ref="296247891"/>
    <nd ref="1563050195"/>
    <tag k="cycleway" v="track"/>
    <tag k="highway" v="secondary"/>
    <tag k="lit" v="no"/>
    <tag k="name" v="Osterkrug"/>
    <tag k="ref" v="L 171"/>
    <tag k="surface" v="asphalt"/>
  </way>
  <way id="35134269" version="15" timestamp="2012-02-08T15:22:15Z" uid="45882" user="smarties" changeset="10625539">
    <nd ref="296247891"/>
    <nd ref="1623963436"/>
    <tag k="cycleway" v="track"/>
    <tag k="highway" v="secondary"/>
    <tag k="lit" v="no"/>
    <tag k="name" v="Osterkrug"/>
    <tag k="ref" v="L 171"/>
    <tag k="surface" v="asphalt"/>
  </way>
  <way id="35134269" version="16" timestamp="2012-02-26T15:01:34Z" uid="45882" user="smarties" changeset="10799187"/>
  <way id="35134328" version="1" timestamp="2009-05-28T11:09:58Z" uid="20587" user="balrog-kun" changeset="1341741">
    <nd ref="170660833"/>
    <nd ref="170660828"/>
    <tag k="created_by" v="JOSM"/>
    <tag k="highway" v="residential"/>
    <tag k="name" v="Baltazara"/>
  </way>
  <way id="35134328" version="2" timestamp="2012-03-18T09:19:30Z" uid="631877" user="ThomasBou" changeset="11016301">
    <nd ref="170660833"/>
    <nd ref="170660828"/>
    <tag k="highway" v="residential"/>
    <tag k="layer" v="-3"/>
    <tag k="name" v="Baltazara"/>
    <tag k="oneway" v="no"/>
    <tag k="surface" v="paving_stones"/>
  </way>
  <way id="35134329" version="1" timestamp="2009-05-28T11:09:58Z" uid="20587" user="balrog-kun" changeset="1341741">
    <nd ref="412124617"/>
    <nd ref="412124514"/>
    <nd ref="412124582"/>
    <nd ref="412124577"/>
    <nd ref="412124458"/>
    <nd ref="412124588"/>
    <tag k="addr:interpolation" v="odd"/>
    <tag k="source" v="http://ump.waw.pl/ retrieved 11:07:14 02/24/09 (UMP-Warszawa/src/WARSZAWA_BEMOWO.ulice.txt)"/>
  </way>
  <way id="35134330" version="1" timestamp="2009-05-28T11:09:58Z" uid="20587" user="balrog-kun" changeset="1341741">
    <nd ref="412124534"/>
    <nd ref="412124606"/>
    <tag k="addr:interpolation" v="odd"/>
    <tag k="source" v="http://ump.waw.pl/ retrieved 11:07:14 02/24/09 (UMP-Warszawa/src/WARSZAWA_BEMOWO.ulice.txt)"/>
  </way>
  <way id="35134331" version="1" timestamp="2009-05-28T11:09:58Z" uid="20587" user="balrog-kun" changeset="1341741">
    <nd ref="412124584"/>
    <nd ref="412124616"/>
    <tag k="addr:interpolation" v="odd"/>
    <tag k="source" v="http://ump.waw.pl/ retrieved 11:07:14 02/24/09 (UMP-Warszawa/src/WARSZAWA_BEMOWO.ulice.txt)"/>
  </way>
  <way id="35134331" version="2" timestamp="2012-01-11T12:00:15Z" uid="530934" user="Talib79" changeset="10359928"/>
  <way id="35134332" version="1" timestamp="2009-05-28T11:09:58Z" uid="20587" user="balrog-kun" changeset="1341741">
    <nd ref="412124575"/>
    <nd ref="412124498"/>
    <tag k="addr:interpolation" v="odd"/>
    <tag k="source" v="http://ump.waw.pl/ retrieved 11:07:14 02/24/09 (UMP-Warszawa/src/WARSZAWA_BEMOWO.ulice.txt)"/>
  </way>
  <way id="35134332" version="2" timestamp="2009-12-01T19:08:16Z" uid="203836" user="pcserwis" changeset="3266545"/>
  <way id="35134333" version="1" timestamp="2009-05-28T11:09:58Z" uid="20587" user="balrog-kun" changeset="1341741">
    <nd ref="412124508"/>
    <nd ref="412124587"/>
    <tag k="addr:interpolation" v="odd"/>
    <tag k="source" v="http://ump.waw.pl/ retrieved 11:07:14 02/24/09 (UMP-Warszawa/src/WARSZAWA_BEMOWO.ulice.txt)"/>
  </way>
  <way id="35134333" version="2" timestamp="2009-12-01T19:08:15Z" uid="203836" user="pcserwis" changeset="3266545"/>
  <way id="35134334" version="1" timestamp="2009-05-28T11:09:59Z" uid="20587" user="balrog-kun" changeset="1341741">
    <nd ref="412124566"/>
    <nd ref="412124592"/>
    <tag k="addr:interpolation" v="odd"/>
    <tag k="source" v="http://ump.waw.pl/ retrieved 11:07:14 02/24/09 (UMP-Warszawa/src/WARSZAWA_BEMOWO.ulice.txt)"/>
  </way>
  <way id="35134335" version="1" timestamp="2009-05-28T11:09:59Z" uid="20587" user="balrog-kun" changeset="1341741">
    <nd ref="412124503"/>
    <nd ref="412124493"/>
    <tag k="addr:interpolation" v="odd"/>
    <tag k="source" v="http://ump.waw.pl/ retrieved 11:07:14 02/24/09 (UMP-Warszawa/src/WARSZAWA_WOLA.ulice.txt)"/>
  </way>
  <way id="35134336" version="1" timestamp="2009-05-28T11:09:59Z" uid="20587" user="balrog-kun" changeset="1341741">
    <nd ref="412124595"/>
    <nd ref="412124618"/>
    <tag k="addr:interpolation" v="even"/>
    <tag k="source" v="http://ump.waw.pl/ retrieved 11:07:14 02/24/09 (UMP-Warszawa/src/WARSZAWA_WOLA.ulice.txt)"/>
  </way>
  <way id="35134336" version="2" timestamp="2012-03-18T09:19:30Z" uid="631877" user="ThomasBou" changeset="11016301">
    <nd ref="412124595"/>
    <nd ref="1679456866"/>
    <nd ref="412124618"/>
    <nd ref="1679456866"/>
    <tag k="addr:interpolation" v="even"/>
    <tag k="source" v="http://ump.waw.pl/ retrieved 11:07:14 02/24/09 (UMP-Warszawa/src/WARSZAWA_WOLA.ulice.txt)"/>
  </way>
  <way id="35134337" version="1" timestamp="2009-05-28T11:09:59Z" uid="20587" user="balrog-kun" changeset="1341741">
    <nd ref="412124579"/>
    <nd ref="412124569"/>
    <tag k="addr:interpolation" v="even"/>
    <tag k="source" v="http://ump.waw.pl/ retrieved 11:07:14 02/24/09 (UMP-Warszawa/src/WARSZAWA_BEMOWO.ulice.txt)"/>
  </way>
  <way id="35134338" version="1" timestamp="2009-05-28T11:09:59Z" uid="20587" user="balrog-kun" changeset="1341741">
    <nd ref="412124481"/>
    <nd ref="412124578"/>
    <nd ref="412124601"/>
    <tag k="addr:interpolation" v="even"/>
    <tag k="source" v="http://ump.waw.pl/ retrieved 11:07:14 02/24/09 (UMP-Warszawa/src/WARSZAWA_BEMOWO.ulice.txt)"/>
  </way>
  <way id="35134338" version="2" timestamp="2012-03-04T21:28:17Z" uid="393644" user="shympek" changeset="10874267"/>
  <way id="35134339" version="1" timestamp="2009-05-28T11:09:59Z" uid="20587" user="balrog-kun" changeset="1341741">
    <nd ref="412124492"/>
    <nd ref="412124611"/>
    <tag k="addr:interpolation" v="even"/>
    <tag k="source" v="http://ump.waw.pl/ retrieved 11:07:14 02/24/09 (UMP-Warszawa/src/WARSZAWA_BEMOWO.ulice.txt)"/>
  </way>
  <way id="35134340" version="1" timestamp="2009-05-28T11:09:59Z" uid="20587" user="balrog-kun" changeset="1341741">
    <nd ref="412124593"/>
    <nd ref="412124560"/>
    <tag k="addr:interpolation" v="odd"/>
    <tag k="source" v="http://ump.waw.pl/ retrieved 11:07:14 02/24/09 (UMP-Warszawa/src/WARSZAWA_BEMOWO.ulice.txt)"/>
  </way>
  <way id="35134341" version="1" timestamp="2009-05-28T11:09:59Z" uid="20587" user="balrog-kun" changeset="1341741">
    <nd ref="412124500"/>
    <nd ref="412124551"/>
    <tag k="addr:interpolation" v="even"/>
    <tag k="source" v="http://ump.waw.pl/ retrieved 11:07:14 02/24/09 (UMP-Warszawa/src/WARSZAWA_BEMOWO.ulice.txt)"/>
  </way>
  <way id="35134342" version="1" timestamp="2009-05-28T11:09:59Z" uid="20587" user="balrog-kun" changeset="1341741">
    <nd ref="412124567"/>
    <nd ref="412124558"/>
    <tag k="addr:interpolation" v="odd"/>
    <tag k="source" v="http://ump.waw.pl/ retrieved 11:07:14 02/24/09 (UMP-Warszawa/src/WARSZAWA_BEMOWO.ulice.txt)"/>
  </way>
  <way id="35134343" version="1" timestamp="2009-05-28T11:09:59Z" uid="20587" user="balrog-kun" changeset="1341741">
    <nd ref="412124463"/>
    <nd ref="412124590"/>
    <tag k="addr:interpolation" v="even"/>
    <tag k="source" v="http://ump.waw.pl/ retrieved 11:07:14 02/24/09 (UMP-Warszawa/src/WARSZAWA_BEMOWO.ulice.txt)"/>
  </way>
  <way id="35134344" version="1" timestamp="2009-05-28T11:09:59Z" uid="20587" user="balrog-kun" changeset="1341741">
    <nd ref="412124570"/>
    <nd ref="412124466"/>
    <tag k="addr:interpolation" v="odd"/>
    <tag k="source" v="http://ump.waw.pl/ retrieved 11:07:14 02/24/09 (UMP-Warszawa/src/WARSZAWA_BEMOWO.ulice.txt)"/>
  </way>
  <way id="35134345" version="1" timestamp="2009-05-28T11:09:59Z" uid="20587" user="balrog-kun" changeset="1341741">
    <nd ref="412124585"/>
    <nd ref="412124583"/>
    <tag k="addr:interpolation" v="odd"/>
    <tag k="source" v="http://ump.waw.pl/ retrieved 11:07:14 02/24/09 (UMP-Warszawa/src/WARSZAWA_WOLA.ulice.txt)"/>
  </way>
  <way id="35134346" version="1" timestamp="2009-05-28T11:10:00Z" uid="20587" user="balrog-kun" changeset="1341741">
    <nd ref="412124619"/>
    <nd ref="412124531"/>
    <tag k="addr:interpolation" v="odd"/>
    <tag k="source" v="http://ump.waw.pl/ retrieved 11:07:14 02/24/09 (UMP-Warszawa/src/WARSZAWA_WOLA.ulice.txt)"/>
  </way>
  <way id="35134347" version="1" timestamp="2009-05-28T11:10:00Z" uid="20587" user="balrog-kun" changeset="1341741">
    <nd ref="412124485"/>
    <nd ref="412124536"/>
    <tag k="addr:interpolation" v="odd"/>
    <tag k="source" v="http://ump.waw.pl/ retrieved 11:07:14 02/24/09 (UMP-Warszawa/src/WARSZAWA_BEMOWO.ulice.txt)"/>
  </way>
  <way id="35134348" version="1" timestamp="2009-05-28T11:10:00Z" uid="20587" user="balrog-kun" changeset="1341741">
    <nd ref="412124562"/>
    <nd ref="412124581"/>
    <tag k="addr:interpolation" v="even"/>
    <tag k="source" v="http://ump.waw.pl/ retrieved 11:07:14 02/24/09 (UMP-Warszawa/src/WARSZAWA_BEMOWO.ulice.txt)"/>
  </way>
  <way id="35134348" version="2" timestamp="2012-01-10T20:03:18Z" uid="530934" user="Talib79" changeset="10353799"/>
  <way id="35134349" version="1" timestamp="2009-05-28T11:10:00Z" uid="20587" user="balrog-kun" changeset="1341741">
    <nd ref="412124615"/>
    <nd ref="412124515"/>
    <tag k="addr:interpolation" v="even"/>
    <tag k="source" v="http://ump.waw.pl/ retrieved 11:07:14 02/24/09 (UMP-Warszawa/src/WARSZAWA_WOLA.ulice.txt)"/>
  </way>
  <way id="35134350" version="1" timestamp="2009-05-28T11:10:00Z" uid="20587" user="balrog-kun" changeset="1341741">
    <nd ref="412124510"/>
    <nd ref="412124506"/>
    <tag k="addr:interpolation" v="odd"/>
    <tag k="source" v="http://ump.waw.pl/ retrieved 11:07:14 02/24/09 (UMP-Warszawa/src/WARSZAWA_BEMOWO.ulice.txt)"/>
  </way>
  <way id="35134351" version="1" timestamp="2009-05-28T11:10:00Z" uid="20587" user="balrog-kun" changeset="1341741">
    <nd ref="412124468"/>
    <nd ref="412124554"/>
    <tag k="addr:interpolation" v="even"/>
    <tag k="source" v="http://ump.waw.pl/ retrieved 11:07:14 02/24/09 (UMP-Warszawa/src/WARSZAWA_BEMOWO.ulice.txt)"/>
  </way>
  <way id="35134352" version="1" timestamp="2009-05-28T11:10:00Z" uid="20587" user="balrog-kun" changeset="1341741">
    <nd ref="412124488"/>
    <nd ref="412124597"/>
    <tag k="addr:interpolation" v="even"/>
    <tag k="source" v="http://ump.waw.pl/ retrieved 11:07:14 02/24/09 (UMP-Warszawa/src/WARSZAWA_BEMOWO.ulice.txt)"/>
  </way>
  <way id="35134353" version="1" timestamp="2009-05-28T11:10:00Z" uid="20587" user="balrog-kun" changeset="1341741">
    <nd ref="412124599"/>
    <nd ref="412124512"/>
    <tag k="addr:interpolation" v="odd"/>
    <tag k="source" v="http://ump.waw.pl/ retrieved 11:07:14 02/24/09 (UMP-Warszawa/src/WARSZAWA_BEMOWO.ulice.txt)"/>
  </way>
  <way id="35134354" version="1" timestamp="2009-05-28T11:10:00Z" uid="20587" user="balrog-kun" changeset="1341741">
    <nd ref="412124544"/>
    <nd ref="412124589"/>
    <tag k="addr:interpolation" v="even"/>
    <tag k="source" v="http://ump.waw.pl/ retrieved 11:07:14 02/24/09 (UMP-Warszawa/src/WARSZAWA_BEMOWO.ulice.txt)"/>
  </way>
  <way id="35134354" version="2" timestamp="2011-06-13T19:41:19Z" uid="98542" user="wajak" changeset="8430715"/>
  <way id="35134402" version="1" timestamp="2009-05-28T11:13:46Z" uid="30632" user="antblant" changeset="1341767">
    <nd ref="412125035"/>
    <nd ref="412125036"/>
    <nd ref="412125037"/>
  </way>
  <way id="35134402" version="2" timestamp="2009-05-28T11:15:07Z" uid="30632" user="antblant" changeset="1341767">
    <nd ref="412125035"/>
    <nd ref="412125036"/>
    <nd ref="412125037"/>
    <nd ref="412125145"/>
    <nd ref="412125147"/>
    <nd ref="412125148"/>
    <nd ref="306869833"/>
    <nd ref="306869959"/>
    <nd ref="411010001"/>
    <nd ref="411010003"/>
    <nd ref="306869643"/>
    <nd ref="411010002"/>
    <nd ref="392705113"/>
    <nd ref="306869665"/>
    <nd ref="410373398"/>
    <nd ref="306869766"/>
    <nd ref="306869712"/>
    <nd ref="410383167"/>
    <nd ref="410366154"/>
    <nd ref="306870061"/>
    <nd ref="412125035"/>
  </way>
  <way id="35134402" version="3" timestamp="2009-05-28T11:17:55Z" uid="30632" user="antblant" changeset="1341767">
    <nd ref="412125035"/>
    <nd ref="412125036"/>
    <nd ref="412125037"/>
    <nd ref="412125145"/>
    <nd ref="412125147"/>
    <nd ref="412125148"/>
    <nd ref="306869833"/>
    <nd ref="306869959"/>
    <nd ref="411010001"/>
    <nd ref="411010003"/>
    <nd ref="306869643"/>
    <nd ref="411010002"/>
    <nd ref="392705113"/>
    <nd ref="306869665"/>
    <nd ref="410373398"/>
    <nd ref="306869766"/>
    <nd ref="306869712"/>
    <nd ref="410383167"/>
    <nd ref="410366154"/>
    <nd ref="306870061"/>
    <nd ref="412125035"/>
    <tag k="admin_level" v="10"/>
    <tag k="border_type" v="village"/>
    <tag k="boundary" v="administrative"/>
    <tag k="place" v="village"/>
    <tag k="place_name" v="Bezrzecze"/>
  </way>
  <way id="35134657" version="3" timestamp="2010-08-17T21:27:20Z" uid="9581" user="Lobelt" changeset="5521988">
    <nd ref="27175615"/>
    <nd ref="27175616"/>
    <nd ref="865284431"/>
    <nd ref="27175617"/>
    <nd ref="865284434"/>
    <nd ref="865284418"/>
    <nd ref="27175618"/>
    <nd ref="27175619"/>
    <nd ref="27175620"/>
    <nd ref="27175621"/>
    <nd ref="356974556"/>
    <nd ref="356974553"/>
    <nd ref="27175622"/>
    <nd ref="27175623"/>
    <nd ref="28295885"/>
    <nd ref="27175624"/>
    <nd ref="27175625"/>
    <nd ref="865284422"/>
    <tag k="railway" v="rail"/>
  </way>
  <way id="35134657" version="4" timestamp="2011-07-29T10:00:15Z" uid="118006" user="vwistuttgart" changeset="8861782">
    <nd ref="27175615"/>
    <nd ref="27175616"/>
    <nd ref="865284431"/>
    <nd ref="27175617"/>
    <nd ref="865284434"/>
    <nd ref="865284418"/>
    <nd ref="27175618"/>
    <nd ref="27175619"/>
    <nd ref="27175620"/>
    <nd ref="27175621"/>
    <nd ref="356974556"/>
    <nd ref="356974553"/>
    <nd ref="27175622"/>
    <nd ref="27175623"/>
    <nd ref="28295885"/>
    <nd ref="27175624"/>
    <nd ref="27175625"/>
    <nd ref="865284422"/>
    <tag k="electrified" v="no"/>
    <tag k="railway" v="rail"/>
    <tag k="tracks" v="1"/>
  </way>
  <way id="35134657" version="5" timestamp="2011-11-30T09:38:31Z" uid="42429" user="FK270673" changeset="9997155">
    <nd ref="27175615"/>
    <nd ref="27175616"/>
    <nd ref="865284431"/>
    <nd ref="27175617"/>
    <nd ref="865284434"/>
    <nd ref="865284418"/>
    <nd ref="27175618"/>
    <nd ref="27175619"/>
    <nd ref="27175620"/>
    <nd ref="27175621"/>
    <nd ref="356974556"/>
    <nd ref="356974553"/>
    <nd ref="27175622"/>
    <nd ref="27175623"/>
    <nd ref="28295885"/>
    <nd ref="27175624"/>
    <nd ref="27175625"/>
    <nd ref="865284422"/>
    <tag k="electrified" v="no"/>
    <tag k="gauge" v="1435"/>
    <tag k="railway" v="rail"/>
    <tag k="tracks" v="1"/>
  </way>
  <way id="35134657" version="6" timestamp="2012-03-24T17:34:11Z" uid="123364" user="Tronikon" changeset="11086891">
    <nd ref="27175615"/>
    <nd ref="1688905668"/>
    <nd ref="27175616"/>
    <nd ref="1688905672"/>
    <nd ref="1688905681"/>
    <nd ref="27175617"/>
    <nd ref="1688905689"/>
    <nd ref="1688905691"/>
    <nd ref="1688905705"/>
    <nd ref="1688905706"/>
    <nd ref="1688905707"/>
    <nd ref="1688905709"/>
    <nd ref="1688905710"/>
    <nd ref="1688905713"/>
    <nd ref="27175618"/>
    <nd ref="1688905717"/>
    <nd ref="27175619"/>
    <nd ref="1688905723"/>
    <nd ref="27175620"/>
    <nd ref="27175621"/>
    <nd ref="1688905720"/>
    <nd ref="356974556"/>
    <nd ref="356974553"/>
    <nd ref="27175622"/>
    <nd ref="27175623"/>
    <nd ref="28295885"/>
    <nd ref="27175624"/>
    <nd ref="27175625"/>
    <nd ref="1688905596"/>
    <tag k="electrified" v="no"/>
    <tag k="gauge" v="1435"/>
    <tag k="railway" v="rail"/>
    <tag k="tracks" v="1"/>
  </way>
  <way id="35134672" version="4" timestamp="2011-01-11T04:33:13Z" uid="4467" user="Rosscoe" changeset="6933404">
    <nd ref="412127358"/>
    <nd ref="412127367"/>
    <nd ref="1097676470"/>
    <nd ref="412127365"/>
    <nd ref="1097676472"/>
    <nd ref="1097676474"/>
    <nd ref="298625158"/>
    <tag k="highway" v="unclassified"/>
    <tag k="maxspeed" v="100"/>
    <tag k="name" v="Menowie Road"/>
    <tag k="source" v="landsat"/>
    <tag k="source_ref" v="http://osm.beldin.org/2009/06/DSCF1347.JPG;DSCF1348.JPG"/>
    <tag k="source_ref:name" v="http://osm.beldin.org/2009/05/DSCF0402.JPG"/>
    <tag k="surface" v="unpaved"/>
  </way>
  <way id="35134142" version="11" timestamp="2012-04-07T14:32:01Z" uid="162414" user="Rainermr" changeset="11214667"/>
  <way id="35134161" version="8" timestamp="2012-05-19T02:52:18Z" uid="129349" user="thomas_kregelin" changeset="11638893">
    <nd ref="412123515"/>
    <nd ref="412123516"/>
    <nd ref="412123517"/>
    <nd ref="412123518"/>
    <nd ref="412123515"/>
    <tag k="addr:housenumber" v="69"/>
    <tag k="addr:postcode" v="17375"/>
    <tag k="addr:street" v="Hauptstraße"/>
    <tag k="building" v="commercial"/>
    <tag k="name" v="Rewe Nahkauf"/>
    <tag k="shop" v="supermarket"/>
  </way>
  <way id="35134161" version="9" timestamp="2012-06-06T10:55:44Z" uid="129349" user="thomas_kregelin" changeset="11814634">
    <nd ref="412123515"/>
    <nd ref="412123516"/>
    <nd ref="412123517"/>
    <nd ref="412123518"/>
    <nd ref="412123515"/>
    <tag k="addr:housenumber" v="69"/>
    <tag k="addr:postcode" v="17375"/>
    <tag k="addr:street" v="Hauptstraße"/>
    <tag k="brand" v="REWE"/>
    <tag k="building" v="commercial"/>
    <tag k="name" v="Rewe Nahkauf"/>
    <tag k="operator" v="Monika Kregelin"/>
    <tag k="phone" v="+493977429000"/>
    <tag k="shop" v="supermarket"/>
  </way>
  <way id="35134165" version="6" timestamp="2012-05-19T02:52:18Z" uid="129349" user="thomas_kregelin" changeset="11638893">
    <nd ref="412123562"/>
    <nd ref="412123563"/>
    <nd ref="1757978124"/>
    <nd ref="1757978203"/>
    <nd ref="1757978216"/>
    <nd ref="1757978212"/>
    <nd ref="412123564"/>
    <nd ref="412123565"/>
    <nd ref="412123562"/>
    <tag k="addr:housenumber" v="73"/>
    <tag k="addr:street" v="Hauptstraße"/>
    <tag k="building" v="private"/>
  </way>
  <way id="35134329" version="2" timestamp="2012-07-24T21:58:59Z" uid="722137" user="OSMF Redaction Account" changeset="12477436"/>
  <way id="35134330" version="2" timestamp="2012-07-24T21:58:59Z" uid="722137" user="OSMF Redaction Account" changeset="12477436"/>
  <way id="35134334" version="2" timestamp="2012-07-24T21:58:59Z" uid="722137" user="OSMF Redaction Account" changeset="12477436"/>
  <way id="35134335" version="2" timestamp="2012-07-24T21:58:58Z" uid="722137" user="OSMF Redaction Account" changeset="12477436"/>
  <way id="35134336" version="3" timestamp="2012-05-12T16:37:45Z" uid="679792" user="winmar7" changeset="11578314"/>
  <way id="35134337" version="2" timestamp="2012-07-24T21:58:58Z" uid="722137" user="OSMF Redaction Account" changeset="12477436"/>
  <way id="35134339" version="2" timestamp="2012-07-24T21:58:59Z" uid="722137" user="OSMF Redaction Account" changeset="12477436"/>
  <way id="35134340" version="2" timestamp="2012-07-24T21:58:58Z" uid="722137" user="OSMF Redaction Account" changeset="12477436"/>
  <way id="35134341" version="2" timestamp="2012-07-24T21:59:03Z" uid="722137" user="OSMF Redaction Account" changeset="12477436"/>
  <way id="35134342" version="2" timestamp="2012-07-24T21:58:59Z" uid="722137" user="OSMF Redaction Account" changeset="12477436"/>
  <way id="35134343" version="2" timestamp="2012-07-24T21:58:58Z" uid="722137" user="OSMF Redaction Account" changeset="12477436"/>
  <way id="35134344" version="2" timestamp="2012-07-24T21:58:58Z" uid="722137" user="OSMF Redaction Account" changeset="12477436"/>
  <way id="35134345" version="2" timestamp="2012-07-24T21:59:03Z" uid="722137" user="OSMF Redaction Account" changeset="12477436"/>
  <way id="35134346" version="2" timestamp="2012-07-24T21:59:03Z" uid="722137" user="OSMF Redaction Account" changeset="12477436"/>
  <way id="35134347" version="2" timestamp="2012-06-05T08:10:36Z" uid="379590" user="Jakwak" changeset="11803656"/>
  <way id="35134349" version="2" timestamp="2012-07-24T21:58:59Z" uid="722137" user="OSMF Redaction Account" changeset="12477436"/>
  <way id="35134350" version="2" timestamp="2012-07-24T21:58:57Z" uid="722137" user="OSMF Redaction Account" changeset="12477436"/>
  <way id="35134351" version="2" timestamp="2012-07-24T21:58:57Z" uid="722137" user="OSMF Redaction Account" changeset="12477436"/>
  <way id="35134352" version="2" timestamp="2012-07-24T21:59:03Z" uid="722137" user="OSMF Redaction Account" changeset="12477436"/>
  <way id="35134353" version="2" timestamp="2012-07-24T21:58:57Z" uid="722137" user="OSMF Redaction Account" changeset="12477436"/>
  <way id="35134672" version="5" timestamp="2012-07-19T11:08:56Z" uid="722137" user="OSMF Redaction Account" changeset="12320680"/>
</osm>
