<?xml version='1.0' encoding='UTF-8'?>
<osm version="0.6" generator="libosmium/2.20.0">
  <way id="35217166" version="3" timestamp="2010-03-08T07:45:13Z" uid="27600" user="Islanit" changeset="4069234">
    <nd ref="178339"/>
    <nd ref="629315917"/>
    <nd ref="662756594"/>
    <nd ref="190064594"/>
    <tag k="cycleway" v="track"/>
    <tag k="highway" v="secondary"/>
    <tag k="maxspeed" v="50"/>
    <tag k="name" v="Sander Damm"/>
  </way>
  <way id="35217166" version="4" timestamp="2012-03-10T10:18:15Z" uid="63375" user="Divjo" changeset="10929821">
    <nd ref="178339"/>
    <nd ref="629315917"/>
    <nd ref="190064594"/>
    <tag k="cycleway" v="track"/>
    <tag k="highway" v="secondary"/>
    <tag k="maxspeed" v="50"/>
    <tag k="name" v="Sander Damm"/>
  </way>
  <way id="35217180" version="6" timestamp="2010-02-23T07:56:20Z" uid="27600" user="Islanit" changeset="3949951">
    <nd ref="266135173"/>
    <nd ref="629315892"/>
    <nd ref="600978845"/>
    <nd ref="282928778"/>
    <tag k="cycleway" v="track"/>
    <tag k="highway" v="primary"/>
    <tag k="maxspeed" v="50"/>
    <tag k="name" v="Bergedorfer Straße"/>
    <tag k="ref" v="B 5"/>
  </way>
  <way id="35217180" version="7" timestamp="2010-04-21T10:52:59Z" uid="63375" user="Divjo" changeset="4485341">
    <nd ref="266135173"/>
    <nd ref="629315892"/>
    <nd ref="600978845"/>
    <nd ref="282928778"/>
    <tag k="cycleway" v="track"/>
    <tag k="highway" v="primary"/>
    <tag k="lcn_ref" v="9"/>
    <tag k="maxspeed" v="50"/>
    <tag k="name" v="Bergedorfer Straße"/>
    <tag k="ref" v="B 5"/>
  </way>
  <way id="35217180" version="8" timestamp="2010-10-16T08:13:37Z" uid="42429" user="FK270673" changeset="6055511">
    <nd ref="266135173"/>
    <nd ref="629315892"/>
    <nd ref="600978845"/>
    <nd ref="282928778"/>
    <tag k="cycleway" v="track"/>
    <tag k="highway" v="primary"/>
    <tag k="maxspeed" v="50"/>
    <tag k="name" v="Bergedorfer Straße"/>
    <tag k="ref" v="B 5"/>
  </way>
  <way id="35217180" version="9" timestamp="2011-09-19T13:25:30Z" uid="524401" user="toddy21" changeset="9342494">
    <nd ref="266135173"/>
    <nd ref="629315892"/>
    <nd ref="600978845"/>
    <nd ref="1437445096"/>
    <nd ref="282928778"/>
    <tag k="cycleway" v="track"/>
    <tag k="highway" v="primary"/>
    <tag k="maxspeed" v="50"/>
    <tag k="name" v="Bergedorfer Straße"/>
    <tag k="ref" v="B 5"/>
  </way>
  <way id="35217188" version="3" timestamp="2009-06-05T06:29:52Z" uid="8931" user="bluepup" changeset="1426654">
    <nd ref="412975353"/>
    <nd ref="223561417"/>
    <tag k="highway" v="residential"/>
    <tag k="name" v="Schloß Hamborn"/>
  </way>
  <way id="35217188" version="4" timestamp="2009-07-01T19:31:44Z" uid="127999" user="kaihs" changeset="1704106">
    <nd ref="412975353"/>
    <nd ref="431793267"/>
    <nd ref="223561417"/>
    <tag k="highway" v="residential"/>
    <tag k="name" v="Schloß Hamborn"/>
  </way>
  <way id="35217188" version="5" timestamp="2011-05-24T00:01:37Z" uid="29639" user="bielebog" changeset="8231412">
    <nd ref="412975353"/>
    <nd ref="431793267"/>
    <nd ref="1297877775"/>
    <nd ref="1297877746"/>
    <nd ref="223561417"/>
    <tag k="highway" v="residential"/>
    <tag k="motorcar" v="agricultural;forestry"/>
    <tag k="name" v="Schloß Hamborn"/>
  </way>
  <way id="35217188" version="6" timestamp="2011-12-12T18:07:43Z" uid="29639" user="bielebog" changeset="10101344">
    <nd ref="412975353"/>
    <nd ref="1542927030"/>
    <nd ref="1542927023"/>
    <nd ref="1542927020"/>
    <nd ref="1542927007"/>
    <nd ref="431793267"/>
    <nd ref="1297877775"/>
    <nd ref="1542926922"/>
    <nd ref="1297877746"/>
    <nd ref="223561417"/>
    <tag k="highway" v="residential"/>
    <tag k="motorcar" v="agricultural;forestry"/>
    <tag k="name" v="Schloß Hamborn"/>
  </way>
  <way id="35217195" version="8" timestamp="2010-03-08T07:45:24Z" uid="27600" user="Islanit" changeset="4069234">
    <nd ref="178339"/>
    <nd ref="629315926"/>
    <nd ref="471769484"/>
    <nd ref="662756595"/>
    <nd ref="267217861"/>
    <nd ref="293581966"/>
    <nd ref="88219846"/>
    <nd ref="291860285"/>
    <nd ref="294977592"/>
    <nd ref="461743540"/>
    <nd ref="256822432"/>
    <nd ref="178337"/>
    <nd ref="311472367"/>
    <nd ref="266598593"/>
    <nd ref="395222485"/>
    <nd ref="178342"/>
    <nd ref="267089357"/>
    <nd ref="392351742"/>
    <nd ref="178340"/>
    <nd ref="414922622"/>
    <nd ref="267089358"/>
    <nd ref="274261705"/>
    <nd ref="88214629"/>
    <nd ref="88214628"/>
    <tag k="cycleway" v="track"/>
    <tag k="highway" v="primary"/>
    <tag k="lanes" v="4"/>
    <tag k="name" v="Bergedorfer Straße"/>
    <tag k="ref" v="B 5"/>
  </way>
  <way id="35217195" version="9" timestamp="2010-03-22T07:11:56Z" uid="27600" user="Islanit" changeset="4199549">
    <nd ref="178339"/>
    <nd ref="629315926"/>
    <nd ref="471769484"/>
    <nd ref="662756595"/>
    <nd ref="267217861"/>
    <nd ref="293581966"/>
    <nd ref="88219846"/>
    <nd ref="291860285"/>
    <nd ref="294977592"/>
    <nd ref="461743540"/>
    <nd ref="256822432"/>
    <tag k="cycleway" v="track"/>
    <tag k="highway" v="primary"/>
    <tag k="lanes" v="4"/>
    <tag k="name" v="Bergedorfer Straße"/>
    <tag k="ref" v="B 5"/>
  </way>
  <way id="35217195" version="10" timestamp="2010-04-29T06:30:52Z" uid="27600" user="Islanit" changeset="4555409">
    <nd ref="178339"/>
    <nd ref="629315926"/>
    <nd ref="471769484"/>
    <nd ref="662756595"/>
    <nd ref="267217861"/>
    <nd ref="293581966"/>
    <nd ref="88219846"/>
    <nd ref="291860285"/>
    <nd ref="294977592"/>
    <nd ref="461743540"/>
    <nd ref="256822432"/>
    <nd ref="256822432"/>
    <nd ref="256822432"/>
    <nd ref="256822432"/>
    <tag k="cycleway" v="track"/>
    <tag k="highway" v="primary"/>
    <tag k="lanes" v="4"/>
    <tag k="name" v="Bergedorfer Straße"/>
    <tag k="ref" v="B 5"/>
  </way>
  <way id="35217195" version="11" timestamp="2010-04-29T18:44:09Z" uid="70696" user="xybot" changeset="4560054">
    <nd ref="178339"/>
    <nd ref="629315926"/>
    <nd ref="471769484"/>
    <nd ref="662756595"/>
    <nd ref="267217861"/>
    <nd ref="293581966"/>
    <nd ref="88219846"/>
    <nd ref="291860285"/>
    <nd ref="294977592"/>
    <nd ref="461743540"/>
    <nd ref="256822432"/>
    <tag k="cycleway" v="track"/>
    <tag k="highway" v="primary"/>
    <tag k="lanes" v="4"/>
    <tag k="name" v="Bergedorfer Straße"/>
    <tag k="ref" v="B 5"/>
  </way>
  <way id="35217195" version="12" timestamp="2010-11-15T19:59:57Z" uid="58434" user="tomek11" changeset="6380116">
    <nd ref="178339"/>
    <nd ref="629315926"/>
    <nd ref="471769484"/>
    <nd ref="662756595"/>
    <nd ref="267217861"/>
    <nd ref="293581966"/>
    <nd ref="88219846"/>
    <tag k="cycleway" v="track"/>
    <tag k="highway" v="primary"/>
    <tag k="lanes" v="4"/>
    <tag k="name" v="Bergedorfer Straße"/>
    <tag k="ref" v="B 5"/>
  </way>
  <way id="35217195" version="13" timestamp="2012-03-07T15:40:00Z" uid="63375" user="Divjo" changeset="10900827">
    <nd ref="178339"/>
    <nd ref="629315926"/>
    <nd ref="471769484"/>
    <nd ref="662756595"/>
    <nd ref="267217861"/>
    <nd ref="293581966"/>
    <nd ref="1664478626"/>
    <tag k="cycleway" v="track"/>
    <tag k="highway" v="primary"/>
    <tag k="lanes" v="4"/>
    <tag k="name" v="Bergedorfer Straße"/>
    <tag k="ref" v="B 5"/>
  </way>
  <way id="35217195" version="14" timestamp="2012-03-26T11:36:23Z" uid="349191" user="Glühwürmchen" changeset="11104932"/>
  <way id="35217470" version="2" timestamp="2009-10-02T19:52:56Z" uid="86259" user="hasse_osm_korinthenkacker" changeset="2716821">
    <nd ref="412971986"/>
    <nd ref="412971988"/>
    <nd ref="412971989"/>
    <nd ref="330402802"/>
    <nd ref="330402803"/>
    <nd ref="330402804"/>
    <nd ref="330402805"/>
    <nd ref="330402806"/>
    <nd ref="330400533"/>
    <tag k="highway" v="service"/>
    <tag k="name" v="Heigenkam"/>
    <tag k="postal_code" v="83624"/>
  </way>
  <way id="35217470" version="3" timestamp="2011-01-16T15:07:57Z" uid="8748" user="ToniE" changeset="6988621">
    <nd ref="412971986"/>
    <nd ref="412971988"/>
    <nd ref="412971989"/>
    <nd ref="330402802"/>
    <nd ref="330402803"/>
    <nd ref="330402804"/>
    <nd ref="330402805"/>
    <nd ref="330402806"/>
    <nd ref="330400533"/>
    <tag k="highway" v="service"/>
    <tag k="name" v="Heigenkam"/>
    <tag k="postal_code" v="83624"/>
  </way>
  <way id="35217607" version="1" timestamp="2009-05-30T18:20:27Z" uid="30632" user="antblant" changeset="1361937">
    <nd ref="412985119"/>
    <nd ref="353104963"/>
    <nd ref="364858371"/>
    <tag k="power" v="line"/>
  </way>
  <way id="35217607" version="2" timestamp="2009-06-07T21:38:37Z" uid="30632" user="antblant" changeset="1454089">
    <nd ref="412985119"/>
    <nd ref="353104963"/>
    <nd ref="364858371"/>
    <tag k="power" v="line"/>
    <tag k="voltage" v="110000"/>
  </way>
  <way id="35217607" version="3" timestamp="2009-10-21T20:40:14Z" uid="30632" user="antblant" changeset="2916799">
    <nd ref="412985119"/>
    <nd ref="353104963"/>
    <nd ref="364858371"/>
    <tag k="cables" v="6"/>
    <tag k="power" v="line"/>
    <tag k="ref" v="1-5-24"/>
    <tag k="voltage" v="110000"/>
    <tag k="wires" v="single"/>
  </way>
  <way id="35217607" version="4" timestamp="2009-12-07T23:23:41Z" uid="30632" user="antblant" changeset="3320860">
    <nd ref="412985119"/>
    <nd ref="353104963"/>
    <nd ref="583038592"/>
    <nd ref="583038583"/>
    <nd ref="364858371"/>
    <tag k="cables" v="6"/>
    <tag k="power" v="line"/>
    <tag k="ref" v="1-5-24"/>
    <tag k="voltage" v="110000"/>
    <tag k="wires" v="single"/>
  </way>
  <way id="35217608" version="1" timestamp="2009-05-30T18:20:28Z" uid="30632" user="antblant" changeset="1361937">
    <nd ref="412985123"/>
    <nd ref="260886368"/>
    <tag k="bridge" v="yes"/>
    <tag k="created_by" v="Potlatch 0.10f"/>
    <tag k="layer" v="1"/>
    <tag k="railway" v="rail"/>
  </way>
  <way id="35217608" version="2" timestamp="2009-11-03T01:41:51Z" uid="36809" user="pfoten_weg_!_" changeset="3021530">
    <nd ref="412985123"/>
    <nd ref="260886368"/>
    <tag k="bridge" v="yes"/>
    <tag k="layer" v="1"/>
    <tag k="railway" v="rail"/>
  </way>
  <way id="35217609" version="1" timestamp="2009-05-30T18:20:28Z" uid="30632" user="antblant" changeset="1361937">
    <nd ref="260886368"/>
    <nd ref="260886369"/>
    <nd ref="260886370"/>
    <nd ref="260886848"/>
    <nd ref="260886371"/>
    <nd ref="260886372"/>
    <nd ref="260886373"/>
    <nd ref="260886413"/>
    <nd ref="260346449"/>
    <nd ref="260886414"/>
    <nd ref="260886537"/>
    <nd ref="260886416"/>
    <tag k="created_by" v="Potlatch 0.10f"/>
    <tag k="railway" v="rail"/>
  </way>
  <way id="35217609" version="2" timestamp="2009-11-03T01:38:46Z" uid="36809" user="pfoten_weg_!_" changeset="3021530">
    <nd ref="260886368"/>
    <nd ref="260886369"/>
    <nd ref="260886370"/>
    <nd ref="260886848"/>
    <nd ref="260886371"/>
    <nd ref="260886372"/>
    <nd ref="260886373"/>
    <nd ref="260886413"/>
    <nd ref="260346449"/>
    <nd ref="260886414"/>
    <nd ref="260886537"/>
    <nd ref="260886416"/>
    <tag k="railway" v="rail"/>
  </way>
  <way id="35217609" version="3" timestamp="2009-11-23T14:42:48Z" uid="30632" user="antblant" changeset="3196184">
    <nd ref="260886368"/>
    <nd ref="260886369"/>
    <nd ref="260886370"/>
    <nd ref="260886848"/>
    <nd ref="260886371"/>
    <nd ref="260886372"/>
    <nd ref="260886373"/>
    <nd ref="260886413"/>
    <nd ref="569219805"/>
    <tag k="railway" v="rail"/>
  </way>
  <way id="35217180" version="10" timestamp="2012-04-19T13:06:03Z" uid="349191" user="Glühwürmchen" changeset="11353733"/>
  <way id="35217607" version="5" timestamp="2012-08-22T11:07:43Z" uid="717069" user="Ventlan" changeset="12819007">
    <nd ref="412985119"/>
    <nd ref="353104963"/>
    <nd ref="583038592"/>
    <nd ref="583038583"/>
    <nd ref="364858371"/>
    <nd ref="425906247"/>
    <nd ref="425906245"/>
    <nd ref="412985141"/>
    <nd ref="412985136"/>
    <nd ref="412985139"/>
    <nd ref="412985128"/>
    <nd ref="412985131"/>
    <nd ref="425906271"/>
    <tag k="cables" v="6"/>
    <tag k="power" v="line"/>
    <tag k="ref" v="1-5-24"/>
    <tag k="voltage" v="110000"/>
    <tag k="wires" v="single"/>
  </way>
  <way id="35217609" version="4" timestamp="2012-09-10T12:18:18Z" uid="338611" user="marek kleciak" changeset="13056180">
    <nd ref="260886368"/>
    <nd ref="1908269018"/>
    <nd ref="260886369"/>
    <nd ref="260886370"/>
    <nd ref="260886848"/>
    <nd ref="260886371"/>
    <nd ref="260886372"/>
    <nd ref="260886373"/>
    <nd ref="260886413"/>
    <nd ref="569219805"/>
    <tag k="railway" v="rail"/>
  </way>
</osm>
