<?xml version='1.0' encoding='UTF-8'?>
<osm version="0.6" generator="libosmium/2.20.0">
  <way id="3526642" version="6" timestamp="2009-07-27T16:52:29Z" uid="9581" user="Lobelt" changeset="1957286">
    <nd ref="17474254"/>
    <nd ref="17474255"/>
    <nd ref="17474256"/>
    <nd ref="17474259"/>
    <nd ref="17474262"/>
    <nd ref="17474351"/>
    <nd ref="17804947"/>
    <nd ref="17474353"/>
    <nd ref="412951466"/>
    <nd ref="17474356"/>
    <nd ref="17474357"/>
    <nd ref="17474361"/>
    <nd ref="17474362"/>
    <nd ref="42341537"/>
    <nd ref="17474363"/>
    <nd ref="17474365"/>
    <tag k="bicycle" v="yes"/>
    <tag k="created_by" v="Potlatch alpha"/>
    <tag k="highway" v="secondary"/>
    <tag k="name" v="Rue de Rhin"/>
    <tag k="ref" v="D429"/>
    <tag k="route_ref" v="Veloroute de Rhin"/>
  </way>
  <way id="3526642" version="7" timestamp="2009-08-05T19:03:16Z" uid="101371" user="kapplerseits" changeset="2049215">
    <nd ref="17474254"/>
    <nd ref="17474255"/>
    <nd ref="17474256"/>
    <nd ref="17474259"/>
    <nd ref="17474262"/>
    <nd ref="457092118"/>
    <nd ref="17474351"/>
    <nd ref="17804947"/>
    <tag k="bicycle" v="yes"/>
    <tag k="highway" v="secondary"/>
    <tag k="name" v="Rue de Rhin"/>
    <tag k="ref" v="D429"/>
    <tag k="route_ref" v="Veloroute de Rhin"/>
  </way>
  <way id="3526642" version="8" timestamp="2009-09-28T17:37:59Z" uid="29717" user="eumiro" changeset="2667987">
    <nd ref="17474254"/>
    <nd ref="17474255"/>
    <nd ref="17474256"/>
    <nd ref="17474259"/>
    <nd ref="17474262"/>
    <nd ref="457092118"/>
    <nd ref="17474351"/>
    <nd ref="17804947"/>
    <tag k="bicycle" v="yes"/>
    <tag k="highway" v="secondary"/>
    <tag k="name" v="Rue de Rhin"/>
    <tag k="ref" v="D 429"/>
    <tag k="route_ref" v="Veloroute de Rhin"/>
  </way>
  <way id="3526642" version="9" timestamp="2010-06-11T09:14:15Z" uid="22165" user="Denis_Helfer" changeset="4960886">
    <nd ref="17474254"/>
    <nd ref="17474255"/>
    <nd ref="769077826"/>
    <nd ref="17474256"/>
    <nd ref="17474259"/>
    <nd ref="17474262"/>
    <nd ref="457092118"/>
    <nd ref="17474351"/>
    <nd ref="17804947"/>
    <tag k="bicycle" v="yes"/>
    <tag k="highway" v="secondary"/>
    <tag k="name" v="Rue de Rhin"/>
    <tag k="ref" v="D 429"/>
    <tag k="route_ref" v="Veloroute de Rhin"/>
    <tag k="source" v="Direction Générale des Finances Publiques - Cadastre ; mise à jour : 2010"/>
  </way>
  <way id="3526642" version="10" timestamp="2011-02-21T15:30:07Z" uid="172867" user="AmiFritz" changeset="7354054">
    <nd ref="17474254"/>
    <nd ref="17474255"/>
    <nd ref="769077826"/>
    <nd ref="17474256"/>
    <nd ref="17474259"/>
    <nd ref="17474262"/>
    <nd ref="457092118"/>
    <nd ref="17474351"/>
    <nd ref="17804947"/>
    <tag k="bicycle" v="yes"/>
    <tag k="highway" v="secondary"/>
    <tag k="name" v="Rue du Rhin"/>
    <tag k="ref" v="D 429"/>
    <tag k="route_ref" v="Veloroute de Rhin"/>
    <tag k="source" v="Direction Générale des Finances Publiques - Cadastre ; mise à jour : 2010"/>
  </way>
</osm>
