<?xml version='1.0' encoding='UTF-8'?>
<osm version="0.6" generator="libosmium/2.20.0">
  <way id="3533017" version="8" timestamp="2011-01-29T22:24:07Z" uid="6269" user="Mueck" changeset="7128139">
    <nd ref="14962598"/>
    <nd ref="1126996255"/>
    <nd ref="14962619"/>
    <nd ref="17716719"/>
    <nd ref="15520030"/>
    <nd ref="264971999"/>
    <nd ref="15520028"/>
    <tag k="highway" v="residential"/>
    <tag k="maxspeed" v="30"/>
    <tag k="name" v="Lessingstraße"/>
    <tag k="postal_code" v="76135"/>
  </way>
  <way id="3533017" version="9" timestamp="2011-01-30T12:34:33Z" uid="6269" user="Mueck" changeset="7133406">
    <nd ref="14962598"/>
    <nd ref="1127842988"/>
    <nd ref="1126996255"/>
    <nd ref="14962619"/>
    <nd ref="17716719"/>
    <nd ref="15520030"/>
    <nd ref="264971999"/>
    <nd ref="15520028"/>
    <tag k="highway" v="residential"/>
    <tag k="maxspeed" v="30"/>
    <tag k="name" v="Lessingstraße"/>
    <tag k="postal_code" v="76135"/>
  </way>
  <way id="3533017" version="10" timestamp="2011-03-30T22:13:57Z" uid="6269" user="Mueck" changeset="7720894">
    <nd ref="14962598"/>
    <nd ref="1127842988"/>
    <nd ref="1126996255"/>
    <nd ref="14962619"/>
    <nd ref="17716719"/>
    <nd ref="1226055971"/>
    <nd ref="15520030"/>
    <nd ref="264971999"/>
    <nd ref="15520028"/>
    <tag k="highway" v="residential"/>
    <tag k="maxspeed" v="30"/>
    <tag k="name" v="Lessingstraße"/>
    <tag k="postal_code" v="76135"/>
  </way>
  <way id="3533018" version="3" timestamp="2008-07-30T10:52:27Z" uid="6269" user="Mueck" changeset="628766">
    <nd ref="14962614"/>
    <nd ref="14962615"/>
    <nd ref="30023726"/>
    <nd ref="135838484"/>
    <nd ref="15357693"/>
    <tag k="created_by" v="Potlatch 0.10a"/>
    <tag k="highway" v="tertiary"/>
  </way>
  <way id="3533018" version="4" timestamp="2008-12-28T11:07:10Z" uid="16330" user="aluka" changeset="648651">
    <nd ref="14962614"/>
    <nd ref="14962615"/>
    <nd ref="30023726"/>
    <nd ref="135838484"/>
    <nd ref="15357693"/>
    <tag k="created_by" v="Potlatch 0.10a"/>
    <tag k="highway" v="tertiary"/>
    <tag k="name" v="Steinhäuserstraße"/>
  </way>
  <way id="3533018" version="5" timestamp="2009-06-21T15:34:41Z" uid="85761" user="klausis" changeset="1584316">
    <nd ref="14962614"/>
    <nd ref="14962615"/>
    <nd ref="30023726"/>
    <nd ref="135838484"/>
    <nd ref="15357693"/>
    <tag k="highway" v="tertiary"/>
    <tag k="name" v="Steinhäuserstraße"/>
  </way>
  <way id="3533018" version="6" timestamp="2011-01-30T12:34:34Z" uid="6269" user="Mueck" changeset="7133406">
    <nd ref="14962614"/>
    <nd ref="1127842839"/>
    <nd ref="1127842980"/>
    <nd ref="14962615"/>
    <nd ref="30023726"/>
    <nd ref="135838484"/>
    <nd ref="15357693"/>
    <tag k="highway" v="tertiary"/>
    <tag k="name" v="Steinhäuserstraße"/>
  </way>
  <way id="3533018" version="7" timestamp="2011-03-30T22:13:58Z" uid="6269" user="Mueck" changeset="7720894">
    <nd ref="14962614"/>
    <nd ref="1127842839"/>
    <nd ref="1127842980"/>
    <nd ref="1226055889"/>
    <nd ref="30023726"/>
    <nd ref="135838484"/>
    <nd ref="15357693"/>
    <tag k="highway" v="tertiary"/>
    <tag k="name" v="Steinhäuserstraße"/>
  </way>
  <way id="3533019" version="5" timestamp="2011-03-26T21:21:11Z" uid="6269" user="Mueck" changeset="7680050">
    <nd ref="15357693"/>
    <nd ref="264972011"/>
    <nd ref="1219711607"/>
    <nd ref="15357694"/>
    <nd ref="1126437955"/>
    <tag k="highway" v="residential"/>
    <tag k="maxspeed" v="30"/>
    <tag k="name" v="Scheffelstraße"/>
  </way>
  <way id="3533019" version="6" timestamp="2012-03-29T18:39:14Z" uid="35468" user="Blunauer" changeset="11142140">
    <nd ref="15357693"/>
    <nd ref="264972011"/>
    <nd ref="1219711607"/>
    <nd ref="15357694"/>
    <nd ref="1126437955"/>
    <tag k="highway" v="residential"/>
    <tag k="maxspeed" v="30"/>
    <tag k="name" v="Scheffelstraße"/>
  </way>
  <way id="3533020" version="3" timestamp="2010-06-03T05:38:02Z" uid="6269" user="Mueck" changeset="4889501">
    <nd ref="412413"/>
    <nd ref="17716640"/>
    <nd ref="25173691"/>
    <nd ref="17716594"/>
    <nd ref="25173699"/>
    <nd ref="15503681"/>
    <tag k="bicycle" v="no"/>
    <tag k="highway" v="footway"/>
    <tag k="name" v="Nottinghamanlage"/>
  </way>
  <way id="3533020" version="4" timestamp="2010-07-14T20:27:31Z" uid="6269" user="Mueck" changeset="5221493">
    <nd ref="412413"/>
    <nd ref="17716640"/>
    <nd ref="25173691"/>
    <nd ref="17716594"/>
    <nd ref="25173699"/>
    <nd ref="15503681"/>
    <tag k="bicycle" v="yes"/>
    <tag k="highway" v="footway"/>
    <tag k="name" v="Nottinghamanlage"/>
  </way>
  <way id="3533020" version="5" timestamp="2010-11-15T14:13:44Z" uid="25720" user="!i!" changeset="6377698">
    <nd ref="412413"/>
    <nd ref="990057504"/>
    <nd ref="17716640"/>
    <nd ref="25173691"/>
    <nd ref="17716594"/>
    <nd ref="25173699"/>
    <nd ref="15503681"/>
    <tag k="bicycle" v="yes"/>
    <tag k="highway" v="footway"/>
    <tag k="name" v="Nottinghamanlage"/>
  </way>
  <way id="3533020" version="6" timestamp="2011-04-25T20:54:04Z" uid="212553" user="ARWIE" changeset="7968817">
    <nd ref="412413"/>
    <nd ref="990057504"/>
    <nd ref="1260179285"/>
    <nd ref="17716640"/>
    <nd ref="25173691"/>
    <nd ref="17716594"/>
    <nd ref="25173699"/>
    <nd ref="15503681"/>
    <tag k="bicycle" v="yes"/>
    <tag k="highway" v="footway"/>
    <tag k="name" v="Nottinghamanlage"/>
  </way>
  <way id="3533022" version="4" timestamp="2011-04-07T14:35:44Z" uid="6269" user="Mueck" changeset="7795160">
    <nd ref="16082741"/>
    <nd ref="16082742"/>
    <tag k="highway" v="living_street"/>
    <tag k="name" v="Nelkenstraße"/>
  </way>
  <way id="3533022" version="5" timestamp="2012-02-18T18:21:05Z" uid="60137" user="michael2402" changeset="10722878">
    <nd ref="16082741"/>
    <nd ref="16082742"/>
    <tag k="highway" v="living_street"/>
    <tag k="name" v="Nelkenstraße"/>
  </way>
  <way id="3533022" version="6" timestamp="2012-03-29T18:39:14Z" uid="35468" user="Blunauer" changeset="11142140">
    <nd ref="16082741"/>
    <nd ref="16082742"/>
    <tag k="highway" v="living_street"/>
    <tag k="name" v="Nelkenstraße"/>
  </way>
  <way id="3533022" version="7" timestamp="2012-03-30T06:49:53Z" uid="35468" user="Blunauer" changeset="11147681">
    <nd ref="16082741"/>
    <nd ref="16082742"/>
    <tag k="highway" v="living_street"/>
    <tag k="name" v="Nelkenstraße"/>
  </way>
  <way id="3533138" version="4" timestamp="2011-04-01T15:38:36Z" uid="6269" user="Mueck" changeset="7736182">
    <nd ref="14962624"/>
    <nd ref="430718137"/>
    <nd ref="29371132"/>
    <nd ref="1228013862"/>
    <nd ref="14962578"/>
    <nd ref="14962620"/>
    <tag k="highway" v="residential"/>
    <tag k="name" v="Sachsenstraße"/>
  </way>
  <way id="3533138" version="5" timestamp="2012-01-06T20:51:07Z" uid="5164" user="woodpeck" changeset="10315868">
    <nd ref="14962624"/>
    <nd ref="430718137"/>
    <nd ref="29371132"/>
    <nd ref="1228013862"/>
    <nd ref="14962578"/>
    <nd ref="1580030106"/>
    <tag k="highway" v="residential"/>
    <tag k="name" v="Sachsenstraße"/>
    <tag k="odbl" v="clean"/>
  </way>
  <way id="3533138" version="6" timestamp="2012-01-09T01:13:41Z" uid="5164" user="woodpeck" changeset="10338409">
    <nd ref="14962624"/>
    <nd ref="430718137"/>
    <nd ref="1583423139"/>
    <nd ref="1583423140"/>
    <nd ref="14962578"/>
    <nd ref="1580030106"/>
    <tag k="highway" v="residential"/>
    <tag k="name" v="Sachsenstraße"/>
    <tag k="odbl" v="clean"/>
  </way>
  <way id="3533238" version="6" timestamp="2011-04-01T18:04:41Z" uid="6269" user="Mueck" changeset="7737379">
    <nd ref="14482126"/>
    <nd ref="1228131565"/>
    <nd ref="14959959"/>
    <nd ref="1228131622"/>
    <nd ref="14959863"/>
    <nd ref="1228131684"/>
    <nd ref="14581144"/>
    <tag k="highway" v="residential"/>
    <tag k="name" v="Klosestraße"/>
    <tag k="oneway" v="yes"/>
  </way>
  <way id="3533238" version="7" timestamp="2011-07-17T22:47:44Z" uid="212553" user="ARWIE" changeset="8753393">
    <nd ref="14482126"/>
    <nd ref="1228131565"/>
    <nd ref="14959959"/>
    <nd ref="1228131622"/>
    <nd ref="14959863"/>
    <nd ref="14581144"/>
    <tag k="highway" v="residential"/>
    <tag k="name" v="Klosestraße"/>
    <tag k="oneway" v="yes"/>
  </way>
  <way id="3533238" version="8" timestamp="2012-01-26T23:47:57Z" uid="5164" user="woodpeck" changeset="10508413">
    <nd ref="14482126"/>
    <nd ref="1607068520"/>
    <nd ref="14959959"/>
    <nd ref="1607068543"/>
    <nd ref="14959863"/>
    <nd ref="14581144"/>
    <tag k="highway" v="residential"/>
    <tag k="name" v="Klosestraße"/>
    <tag k="oneway" v="yes"/>
  </way>
  <way id="3533239" version="4" timestamp="2011-04-01T17:32:46Z" uid="6269" user="Mueck" changeset="7737379">
    <nd ref="14482126"/>
    <nd ref="14959958"/>
    <nd ref="1228104697"/>
    <nd ref="14482127"/>
    <tag k="highway" v="residential"/>
    <tag k="name" v="Klosestraße"/>
    <tag k="oneway" v="yes"/>
  </way>
  <way id="3533239" version="5" timestamp="2011-04-01T18:04:42Z" uid="6269" user="Mueck" changeset="7737379">
    <nd ref="14482126"/>
    <nd ref="1228131517"/>
    <nd ref="14959958"/>
    <nd ref="1228131682"/>
    <nd ref="1228131531"/>
    <nd ref="1228131582"/>
    <nd ref="1228104697"/>
    <nd ref="14482127"/>
    <tag k="highway" v="residential"/>
    <tag k="name" v="Klosestraße"/>
    <tag k="oneway" v="yes"/>
  </way>
  <way id="3533239" version="6" timestamp="2012-01-22T02:22:16Z" uid="5164" user="woodpeck" changeset="10461485">
    <nd ref="14482126"/>
    <nd ref="1228131517"/>
    <nd ref="14959958"/>
    <nd ref="1228131682"/>
    <nd ref="1228131531"/>
    <nd ref="1228131582"/>
    <nd ref="14482127"/>
    <tag k="highway" v="residential"/>
    <tag k="name" v="Klosestraße"/>
    <tag k="oneway" v="yes"/>
  </way>
  <way id="3533239" version="7" timestamp="2012-01-24T22:40:25Z" uid="165061" user="keinname" changeset="10489274">
    <nd ref="14482126"/>
    <nd ref="1228131517"/>
    <nd ref="14959958"/>
    <nd ref="1228131682"/>
    <nd ref="1228131531"/>
    <nd ref="1228131582"/>
    <nd ref="14482127"/>
    <tag k="highway" v="residential"/>
    <tag k="maxspeed" v="30"/>
    <tag k="name" v="Klosestraße"/>
    <tag k="oneway" v="yes"/>
  </way>
  <way id="3533240" version="3" timestamp="2008-02-12T23:49:39Z" uid="6269" user="Mueck" changeset="111430">
    <nd ref="247391478"/>
    <nd ref="14911354"/>
    <nd ref="14911356"/>
    <nd ref="245364299"/>
    <nd ref="14911349"/>
    <tag k="created_by" v="Potlatch 0.7a"/>
    <tag k="highway" v="primary"/>
    <tag k="name" v="Poststraße"/>
    <tag k="oneway" v="true"/>
  </way>
  <way id="3533240" version="4" timestamp="2008-06-15T18:53:02Z" uid="16922" user="amai" changeset="171531">
    <nd ref="247391478"/>
    <nd ref="14911354"/>
    <nd ref="14911356"/>
    <nd ref="245364299"/>
    <nd ref="14911349"/>
    <tag k="created_by" v="Potlatch 0.9c"/>
    <tag k="highway" v="primary"/>
    <tag k="name" v="Poststraße"/>
    <tag k="oneway" v="true"/>
  </way>
  <way id="3533240" version="5" timestamp="2008-07-30T10:34:05Z" uid="6269" user="Mueck" changeset="628766">
    <nd ref="247391478"/>
    <nd ref="14911354"/>
    <nd ref="14911356"/>
    <nd ref="245364299"/>
    <nd ref="14911349"/>
    <tag k="created_by" v="Potlatch 0.10a"/>
    <tag k="highway" v="tertiary"/>
    <tag k="name" v="Poststraße"/>
    <tag k="note" v="im SHP des NVK: III"/>
    <tag k="oneway" v="true"/>
  </way>
  <way id="3533240" version="6" timestamp="2009-04-16T17:12:37Z" uid="103885" user="logicbot" changeset="603450">
    <nd ref="247391478"/>
    <nd ref="14911354"/>
    <nd ref="14911356"/>
    <nd ref="245364299"/>
    <nd ref="14911349"/>
    <tag k="created_by" v="Potlatch 0.10a"/>
    <tag k="highway" v="tertiary"/>
    <tag k="name" v="Poststraße"/>
    <tag k="note" v="im SHP des NVK: III"/>
    <tag k="oneway" v="yes"/>
  </way>
  <way id="3533240" version="7" timestamp="2009-06-21T18:27:04Z" uid="85761" user="klausis" changeset="1586628">
    <nd ref="247391478"/>
    <nd ref="14911354"/>
    <nd ref="14911356"/>
    <nd ref="245364299"/>
    <nd ref="14911349"/>
    <tag k="highway" v="tertiary"/>
    <tag k="name" v="Poststraße"/>
    <tag k="note" v="im SHP des NVK: III"/>
    <tag k="oneway" v="yes"/>
  </way>
  <way id="3533240" version="8" timestamp="2009-08-14T09:58:00Z" uid="151735" user="Sophie Werner" changeset="2140808">
    <nd ref="247391478"/>
    <nd ref="14911354"/>
    <nd ref="465238642"/>
    <nd ref="14911356"/>
    <nd ref="245364299"/>
    <nd ref="14911349"/>
    <tag k="highway" v="tertiary"/>
    <tag k="name" v="Poststraße"/>
    <tag k="note" v="im SHP des NVK: III"/>
    <tag k="oneway" v="yes"/>
  </way>
  <way id="3533240" version="9" timestamp="2009-08-17T07:31:16Z" uid="151735" user="Sophie Werner" changeset="2174404">
    <nd ref="247391478"/>
    <nd ref="14911354"/>
    <nd ref="465238642"/>
    <nd ref="14911356"/>
    <nd ref="245364299"/>
    <nd ref="469670328"/>
    <nd ref="14911349"/>
    <tag k="highway" v="tertiary"/>
    <tag k="name" v="Poststraße"/>
    <tag k="note" v="im SHP des NVK: III"/>
    <tag k="oneway" v="yes"/>
  </way>
  <way id="3533240" version="10" timestamp="2009-09-23T15:50:04Z" uid="6269" user="Mueck" changeset="2596838">
    <nd ref="247391478"/>
    <nd ref="14911354"/>
    <nd ref="506253023"/>
    <nd ref="465238642"/>
    <nd ref="14911356"/>
    <nd ref="245364299"/>
    <nd ref="469670328"/>
    <nd ref="14911349"/>
    <tag k="highway" v="tertiary"/>
    <tag k="name" v="Poststraße"/>
    <tag k="note" v="im SHP des NVK: III"/>
    <tag k="oneway" v="yes"/>
  </way>
  <way id="3533240" version="11" timestamp="2011-01-24T18:49:57Z" uid="6269" user="Mueck" changeset="7076352">
    <nd ref="247391478"/>
    <nd ref="1119072590"/>
    <nd ref="1119073010"/>
    <nd ref="14911354"/>
    <nd ref="506253023"/>
    <nd ref="465238642"/>
    <nd ref="14911356"/>
    <nd ref="245364299"/>
    <nd ref="1119072782"/>
    <nd ref="469670328"/>
    <nd ref="14911349"/>
    <tag k="highway" v="tertiary"/>
    <tag k="name" v="Poststraße"/>
    <tag k="note" v="im SHP des NVK: III"/>
    <tag k="oneway" v="yes"/>
  </way>
  <way id="3533240" version="12" timestamp="2011-02-04T22:48:00Z" uid="165061" user="keinname" changeset="7187914">
    <nd ref="528849342"/>
    <nd ref="1136507062"/>
    <nd ref="1136507067"/>
    <nd ref="1119072790"/>
    <nd ref="1136507066"/>
    <nd ref="1136507053"/>
    <nd ref="1136507057"/>
    <nd ref="506253023"/>
    <nd ref="465238642"/>
    <nd ref="14911356"/>
    <nd ref="245364299"/>
    <nd ref="1119072782"/>
    <nd ref="469670328"/>
    <nd ref="14911349"/>
    <tag k="highway" v="tertiary"/>
    <tag k="name" v="Poststraße"/>
    <tag k="note" v="im SHP des NVK: III"/>
    <tag k="oneway" v="yes"/>
  </way>
  <way id="3533240" version="13" timestamp="2011-02-17T10:14:31Z" uid="165061" user="keinname" changeset="7311606">
    <nd ref="528849342"/>
    <nd ref="1136507062"/>
    <nd ref="1136507067"/>
    <nd ref="1119072790"/>
    <nd ref="1136507066"/>
    <nd ref="1136507053"/>
    <nd ref="1136507057"/>
    <nd ref="506253023"/>
    <nd ref="465238642"/>
    <nd ref="14911356"/>
    <nd ref="245364299"/>
    <nd ref="1119072782"/>
    <nd ref="469670328"/>
    <nd ref="1157366203"/>
    <nd ref="14911349"/>
    <tag k="highway" v="tertiary"/>
    <tag k="name" v="Poststraße"/>
    <tag k="note" v="im SHP des NVK: III"/>
    <tag k="oneway" v="yes"/>
  </way>
  <way id="3533240" version="14" timestamp="2011-09-02T15:28:46Z" uid="60137" user="michael2402" changeset="9193877">
    <nd ref="528849342"/>
    <nd ref="1136507062"/>
    <nd ref="1136507067"/>
    <nd ref="1119072790"/>
    <nd ref="1136507066"/>
    <nd ref="1136507053"/>
    <nd ref="1136507057"/>
    <nd ref="506253023"/>
    <nd ref="465238642"/>
    <nd ref="14911356"/>
    <nd ref="245364299"/>
    <nd ref="1119072782"/>
    <nd ref="469670328"/>
    <nd ref="1157366203"/>
    <nd ref="14911349"/>
    <tag k="bicycle" v="yes"/>
    <tag k="highway" v="tertiary"/>
    <tag k="name" v="Poststraße"/>
    <tag k="note" v="im SHP des NVK: III"/>
    <tag k="oneway" v="yes"/>
  </way>
  <way id="3533240" version="15" timestamp="2011-10-24T21:34:53Z" uid="165061" user="keinname" changeset="9647879">
    <nd ref="528849342"/>
    <nd ref="1136507062"/>
    <nd ref="1136507067"/>
    <nd ref="1119072790"/>
    <nd ref="1136507066"/>
    <nd ref="1136507053"/>
    <nd ref="1136507057"/>
    <nd ref="506253023"/>
    <nd ref="465238642"/>
    <nd ref="14911356"/>
    <nd ref="245364299"/>
    <tag k="bicycle" v="yes"/>
    <tag k="highway" v="tertiary"/>
    <tag k="lanes" v="1"/>
    <tag k="name" v="Poststraße"/>
    <tag k="note" v="im SHP des NVK: III"/>
    <tag k="oneway" v="yes"/>
    <tag k="zone:traffic" v="DE:urban"/>
  </way>
  <way id="3533240" version="16" timestamp="2012-01-23T18:46:06Z" uid="165061" user="keinname" changeset="10477941">
    <nd ref="528849342"/>
    <nd ref="1136507062"/>
    <nd ref="1136507067"/>
    <nd ref="1119072790"/>
    <nd ref="1136507066"/>
    <nd ref="1136507053"/>
    <nd ref="1136507057"/>
    <nd ref="506253023"/>
    <tag k="bicycle" v="yes"/>
    <tag k="highway" v="tertiary"/>
    <tag k="lanes" v="1"/>
    <tag k="maxspeed" v="50"/>
    <tag k="name" v="Poststraße"/>
    <tag k="note" v="im SHP des NVK: III"/>
    <tag k="oneway" v="yes"/>
    <tag k="source:maxspeed" v="DE:urban"/>
    <tag k="zone:traffic" v="DE:urban"/>
  </way>
  <way id="3533240" version="17" timestamp="2012-02-14T22:46:02Z" uid="60137" user="michael2402" changeset="10688136">
    <nd ref="1633309838"/>
    <nd ref="1633309844"/>
    <nd ref="1633309832"/>
    <nd ref="528849342"/>
    <nd ref="1633309829"/>
    <nd ref="1633309864"/>
    <nd ref="1136507062"/>
    <nd ref="1633309856"/>
    <nd ref="1119072790"/>
    <nd ref="1136507066"/>
    <nd ref="1136507053"/>
    <nd ref="1136507057"/>
    <nd ref="506253023"/>
    <tag k="bicycle" v="yes"/>
    <tag k="highway" v="tertiary"/>
    <tag k="lanes" v="1"/>
    <tag k="maxspeed" v="50"/>
    <tag k="name" v="Poststraße"/>
    <tag k="note" v="im SHP des NVK: III"/>
    <tag k="oneway" v="yes"/>
    <tag k="source:maxspeed" v="DE:urban"/>
    <tag k="zone:traffic" v="DE:urban"/>
  </way>
  <way id="3533241" version="2" timestamp="2008-07-30T10:34:14Z" uid="6269" user="Mueck" changeset="628766">
    <nd ref="14911348"/>
    <nd ref="16726020"/>
    <nd ref="14911353"/>
    <nd ref="526091"/>
    <tag k="created_by" v="Potlatch 0.10a"/>
    <tag k="highway" v="tertiary"/>
    <tag k="name" v="Poststraße"/>
    <tag k="note" v="im SHP des NVK: III"/>
    <tag k="oneway" v="true"/>
  </way>
  <way id="3533241" version="3" timestamp="2009-04-16T17:12:40Z" uid="103885" user="logicbot" changeset="603450">
    <nd ref="14911348"/>
    <nd ref="16726020"/>
    <nd ref="14911353"/>
    <nd ref="526091"/>
    <tag k="created_by" v="Potlatch 0.10a"/>
    <tag k="highway" v="tertiary"/>
    <tag k="name" v="Poststraße"/>
    <tag k="note" v="im SHP des NVK: III"/>
    <tag k="oneway" v="yes"/>
  </way>
  <way id="3533241" version="4" timestamp="2009-06-21T18:27:05Z" uid="85761" user="klausis" changeset="1586628">
    <nd ref="14911348"/>
    <nd ref="16726020"/>
    <nd ref="14911353"/>
    <nd ref="526091"/>
    <tag k="highway" v="tertiary"/>
    <tag k="name" v="Poststraße"/>
    <tag k="note" v="im SHP des NVK: III"/>
    <tag k="oneway" v="yes"/>
  </way>
  <way id="3533241" version="5" timestamp="2009-08-14T09:58:01Z" uid="151735" user="Sophie Werner" changeset="2140808">
    <nd ref="14911348"/>
    <nd ref="16726020"/>
    <nd ref="465238649"/>
    <nd ref="14911353"/>
    <nd ref="526091"/>
    <tag k="highway" v="tertiary"/>
    <tag k="name" v="Poststraße"/>
    <tag k="note" v="im SHP des NVK: III"/>
    <tag k="oneway" v="yes"/>
  </way>
  <way id="3533241" version="6" timestamp="2009-09-23T15:50:03Z" uid="6269" user="Mueck" changeset="2596838">
    <nd ref="14911348"/>
    <nd ref="16726020"/>
    <nd ref="465238649"/>
    <nd ref="506253020"/>
    <nd ref="14911353"/>
    <nd ref="526091"/>
    <tag k="highway" v="tertiary"/>
    <tag k="name" v="Poststraße"/>
    <tag k="note" v="im SHP des NVK: III"/>
    <tag k="oneway" v="yes"/>
  </way>
  <way id="3533241" version="7" timestamp="2009-09-23T15:50:21Z" uid="6269" user="Mueck" changeset="2596838">
    <nd ref="14911348"/>
    <nd ref="16726020"/>
    <nd ref="506253020"/>
    <nd ref="14911353"/>
    <nd ref="526091"/>
    <tag k="highway" v="tertiary"/>
    <tag k="name" v="Poststraße"/>
    <tag k="note" v="im SHP des NVK: III"/>
    <tag k="oneway" v="yes"/>
  </way>
  <way id="3533241" version="8" timestamp="2010-02-27T17:10:21Z" uid="6893" user="[HEK]the_other" changeset="3990392">
    <nd ref="14911348"/>
    <nd ref="655291827"/>
    <nd ref="16726020"/>
    <nd ref="506253020"/>
    <nd ref="14911353"/>
    <nd ref="526091"/>
    <tag k="highway" v="tertiary"/>
    <tag k="name" v="Poststraße"/>
    <tag k="note" v="im SHP des NVK: III"/>
    <tag k="oneway" v="yes"/>
  </way>
  <way id="3533241" version="9" timestamp="2010-12-01T17:31:58Z" uid="6269" user="Mueck" changeset="6505965">
    <nd ref="14911348"/>
    <nd ref="655291827"/>
    <nd ref="1014800771"/>
    <nd ref="16726020"/>
    <nd ref="506253020"/>
    <nd ref="14911353"/>
    <nd ref="526091"/>
    <tag k="highway" v="tertiary"/>
    <tag k="name" v="Poststraße"/>
    <tag k="note" v="im SHP des NVK: III"/>
    <tag k="oneway" v="yes"/>
  </way>
  <way id="3533241" version="10" timestamp="2011-01-24T16:35:10Z" uid="6269" user="Mueck" changeset="7073890">
    <nd ref="14911348"/>
    <nd ref="1118886396"/>
    <nd ref="655291827"/>
    <nd ref="1014800771"/>
    <nd ref="16726020"/>
    <nd ref="506253020"/>
    <nd ref="14911353"/>
    <nd ref="526091"/>
    <tag k="highway" v="tertiary"/>
    <tag k="name" v="Poststraße"/>
    <tag k="note" v="im SHP des NVK: III"/>
    <tag k="oneway" v="yes"/>
  </way>
  <way id="3533241" version="11" timestamp="2011-01-24T18:49:58Z" uid="6269" user="Mueck" changeset="7076352">
    <nd ref="14911348"/>
    <nd ref="1118886396"/>
    <nd ref="655291827"/>
    <nd ref="1014800771"/>
    <nd ref="16726020"/>
    <nd ref="1119073226"/>
    <nd ref="1119072875"/>
    <nd ref="1119072764"/>
    <nd ref="1119073160"/>
    <nd ref="506253020"/>
    <nd ref="14911353"/>
    <nd ref="526091"/>
    <tag k="highway" v="tertiary"/>
    <tag k="name" v="Poststraße"/>
    <tag k="note" v="im SHP des NVK: III"/>
    <tag k="oneway" v="yes"/>
  </way>
  <way id="3533241" version="12" timestamp="2011-01-24T19:02:06Z" uid="6269" user="Mueck" changeset="7076352">
    <nd ref="14911348"/>
    <nd ref="1118886396"/>
    <nd ref="655291827"/>
    <nd ref="1014800771"/>
    <nd ref="16726020"/>
    <nd ref="1119073226"/>
    <nd ref="1119072875"/>
    <nd ref="1119072764"/>
    <nd ref="1119073160"/>
    <nd ref="1119097321"/>
    <nd ref="1119097326"/>
    <nd ref="506253020"/>
    <nd ref="14911353"/>
    <nd ref="526091"/>
    <tag k="highway" v="tertiary"/>
    <tag k="name" v="Poststraße"/>
    <tag k="note" v="im SHP des NVK: III"/>
    <tag k="oneway" v="yes"/>
  </way>
  <way id="3533241" version="13" timestamp="2011-02-04T22:48:01Z" uid="165061" user="keinname" changeset="7187914">
    <nd ref="14911348"/>
    <nd ref="1118886396"/>
    <nd ref="655291827"/>
    <nd ref="1014800771"/>
    <nd ref="16726020"/>
    <nd ref="1136507065"/>
    <nd ref="1119073226"/>
    <nd ref="1119072875"/>
    <nd ref="1136507056"/>
    <nd ref="1119072764"/>
    <nd ref="1119073160"/>
    <nd ref="1119097321"/>
    <nd ref="1119097326"/>
    <nd ref="506253020"/>
    <nd ref="14911353"/>
    <nd ref="1136507062"/>
    <nd ref="1136507073"/>
    <nd ref="1136507050"/>
    <tag k="highway" v="tertiary"/>
    <tag k="name" v="Poststraße"/>
    <tag k="note" v="im SHP des NVK: III"/>
    <tag k="oneway" v="yes"/>
  </way>
  <way id="3533241" version="14" timestamp="2011-02-16T22:50:02Z" uid="165061" user="keinname" changeset="7308551">
    <nd ref="14911348"/>
    <nd ref="1118886396"/>
    <nd ref="655291827"/>
    <nd ref="1014800771"/>
    <nd ref="16726020"/>
    <nd ref="1136507065"/>
    <nd ref="1119073226"/>
    <nd ref="1119072875"/>
    <nd ref="1136507056"/>
    <nd ref="1119072764"/>
    <nd ref="1119073160"/>
    <nd ref="1119097321"/>
    <nd ref="1156915841"/>
    <nd ref="1119097326"/>
    <nd ref="506253020"/>
    <nd ref="14911353"/>
    <nd ref="1136507062"/>
    <nd ref="1136507073"/>
    <nd ref="1136507050"/>
    <tag k="highway" v="tertiary"/>
    <tag k="name" v="Poststraße"/>
    <tag k="note" v="im SHP des NVK: III"/>
    <tag k="oneway" v="yes"/>
  </way>
  <way id="3533241" version="15" timestamp="2011-05-06T18:35:39Z" uid="165061" user="keinname" changeset="8067404">
    <nd ref="14911348"/>
    <nd ref="1118886396"/>
    <nd ref="655291827"/>
    <nd ref="1014800771"/>
    <nd ref="16726020"/>
    <nd ref="1136507065"/>
    <nd ref="1274627015"/>
    <nd ref="1119073226"/>
    <nd ref="1119072875"/>
    <nd ref="1136507056"/>
    <nd ref="1119072764"/>
    <nd ref="1119073160"/>
    <nd ref="1119097321"/>
    <nd ref="1156915841"/>
    <nd ref="1119097326"/>
    <nd ref="506253020"/>
    <nd ref="14911353"/>
    <nd ref="1136507062"/>
    <nd ref="1136507073"/>
    <nd ref="1136507050"/>
    <tag k="highway" v="tertiary"/>
    <tag k="name" v="Poststraße"/>
    <tag k="note" v="im SHP des NVK: III"/>
    <tag k="oneway" v="yes"/>
  </way>
  <way id="3533241" version="16" timestamp="2011-06-07T17:11:12Z" uid="165061" user="keinname" changeset="8371682">
    <nd ref="14911348"/>
    <nd ref="1118886396"/>
    <nd ref="1315256610"/>
    <nd ref="655291827"/>
    <nd ref="1014800771"/>
    <nd ref="16726020"/>
    <nd ref="1136507065"/>
    <nd ref="1274627015"/>
    <nd ref="1119073226"/>
    <nd ref="1119072875"/>
    <nd ref="1136507056"/>
    <nd ref="1119072764"/>
    <nd ref="1119073160"/>
    <nd ref="1119097321"/>
    <nd ref="1156915841"/>
    <nd ref="1119097326"/>
    <nd ref="506253020"/>
    <nd ref="14911353"/>
    <nd ref="1136507062"/>
    <nd ref="1136507073"/>
    <nd ref="1136507050"/>
    <tag k="highway" v="tertiary"/>
    <tag k="name" v="Poststraße"/>
    <tag k="note" v="im SHP des NVK: III"/>
    <tag k="oneway" v="yes"/>
  </way>
  <way id="3533241" version="17" timestamp="2011-09-02T15:28:47Z" uid="60137" user="michael2402" changeset="9193877">
    <nd ref="14911348"/>
    <nd ref="1118886396"/>
    <nd ref="1315256610"/>
    <nd ref="655291827"/>
    <nd ref="1014800771"/>
    <nd ref="16726020"/>
    <nd ref="1136507065"/>
    <nd ref="1274627015"/>
    <nd ref="1119073226"/>
    <nd ref="1119072875"/>
    <nd ref="1136507056"/>
    <nd ref="1119072764"/>
    <nd ref="1119073160"/>
    <nd ref="1119097321"/>
    <tag k="bicycle" v="yes"/>
    <tag k="highway" v="tertiary"/>
    <tag k="name" v="Poststraße"/>
    <tag k="note" v="im SHP des NVK: III"/>
    <tag k="oneway" v="yes"/>
  </way>
  <way id="3533241" version="18" timestamp="2011-10-24T21:35:23Z" uid="165061" user="keinname" changeset="9647879">
    <nd ref="14911348"/>
    <nd ref="1118886396"/>
    <nd ref="1315256610"/>
    <nd ref="655291827"/>
    <nd ref="1014800771"/>
    <nd ref="16726020"/>
    <nd ref="1136507065"/>
    <nd ref="1274627015"/>
    <nd ref="1119073226"/>
    <nd ref="1119072875"/>
    <nd ref="1136507056"/>
    <tag k="bicycle" v="yes"/>
    <tag k="highway" v="tertiary"/>
    <tag k="name" v="Poststraße"/>
    <tag k="note" v="im SHP des NVK: III"/>
    <tag k="oneway" v="yes"/>
    <tag k="zone:traffic" v="DE:urban"/>
  </way>
  <way id="3533241" version="19" timestamp="2012-01-16T18:33:44Z" uid="165061" user="keinname" changeset="10410364">
    <nd ref="14911348"/>
    <nd ref="1118886396"/>
    <nd ref="1315256610"/>
    <nd ref="655291827"/>
    <nd ref="1014800771"/>
    <nd ref="16726020"/>
    <nd ref="1136507065"/>
    <nd ref="1274627015"/>
    <nd ref="1119073226"/>
    <nd ref="1119072875"/>
    <nd ref="1136507056"/>
    <tag k="bicycle" v="yes"/>
    <tag k="highway" v="tertiary"/>
    <tag k="lanes" v="1"/>
    <tag k="name" v="Poststraße"/>
    <tag k="note" v="im SHP des NVK: III"/>
    <tag k="oneway" v="yes"/>
    <tag k="zone:traffic" v="DE:urban"/>
  </way>
  <way id="3533241" version="20" timestamp="2012-01-23T18:46:03Z" uid="165061" user="keinname" changeset="10477941">
    <nd ref="14911348"/>
    <nd ref="1118886396"/>
    <nd ref="1315256610"/>
    <nd ref="655291827"/>
    <nd ref="1014800771"/>
    <nd ref="16726020"/>
    <nd ref="1136507065"/>
    <nd ref="1274627015"/>
    <nd ref="1119073226"/>
    <nd ref="1119072875"/>
    <nd ref="1136507056"/>
    <tag k="bicycle" v="yes"/>
    <tag k="highway" v="tertiary"/>
    <tag k="lanes" v="1"/>
    <tag k="maxspeed" v="30"/>
    <tag k="name" v="Poststraße"/>
    <tag k="note" v="im SHP des NVK: III"/>
    <tag k="oneway" v="yes"/>
    <tag k="zone:traffic" v="DE:urban"/>
  </way>
  <way id="3533244" version="9" timestamp="2011-01-25T12:21:34Z" uid="6269" user="Mueck" changeset="7082885">
    <nd ref="14915635"/>
    <nd ref="502904933"/>
    <nd ref="26520159"/>
    <nd ref="28901000"/>
    <nd ref="14580905"/>
    <nd ref="14580902"/>
    <nd ref="14580900"/>
    <nd ref="27474386"/>
    <nd ref="278856883"/>
    <nd ref="28412244"/>
    <nd ref="278856881"/>
    <nd ref="15754136"/>
    <nd ref="16816728"/>
    <nd ref="14479247"/>
    <nd ref="28412243"/>
    <nd ref="17763337"/>
    <nd ref="14962626"/>
    <nd ref="14962627"/>
    <nd ref="14769666"/>
    <nd ref="14962624"/>
    <nd ref="14963183"/>
    <nd ref="18176800"/>
    <nd ref="1119832237"/>
    <nd ref="14962629"/>
    <nd ref="1119832241"/>
    <nd ref="14479327"/>
    <nd ref="14479332"/>
    <tag k="highway" v="residential"/>
    <tag k="maxspeed" v="30"/>
    <tag k="name" v="Welfenstraße"/>
  </way>
  <way id="3533244" version="10" timestamp="2011-04-01T15:38:36Z" uid="6269" user="Mueck" changeset="7736182">
    <nd ref="14915635"/>
    <nd ref="502904933"/>
    <nd ref="26520159"/>
    <nd ref="28901000"/>
    <nd ref="14580905"/>
    <nd ref="1228013873"/>
    <nd ref="1228013876"/>
    <nd ref="1228013845"/>
    <nd ref="14580902"/>
    <nd ref="1228013847"/>
    <nd ref="1228013822"/>
    <nd ref="14580900"/>
    <nd ref="27474386"/>
    <nd ref="278856883"/>
    <nd ref="28412244"/>
    <nd ref="278856881"/>
    <nd ref="15754136"/>
    <nd ref="16816728"/>
    <nd ref="14479247"/>
    <nd ref="28412243"/>
    <nd ref="1228013834"/>
    <nd ref="17763337"/>
    <nd ref="14962626"/>
    <nd ref="14962627"/>
    <nd ref="14769666"/>
    <nd ref="14962624"/>
    <nd ref="14963183"/>
    <nd ref="18176800"/>
    <nd ref="1119832237"/>
    <nd ref="14962629"/>
    <nd ref="1119832241"/>
    <nd ref="14479327"/>
    <nd ref="14479332"/>
    <tag k="highway" v="residential"/>
    <tag k="maxspeed" v="30"/>
    <tag k="name" v="Welfenstraße"/>
  </way>
  <way id="3533244" version="11" timestamp="2011-04-01T15:58:25Z" uid="6269" user="Mueck" changeset="7736182">
    <nd ref="14915635"/>
    <nd ref="502904933"/>
    <nd ref="26520159"/>
    <nd ref="28901000"/>
    <nd ref="14580905"/>
    <nd ref="1228013873"/>
    <nd ref="1228013876"/>
    <nd ref="1228013845"/>
    <nd ref="14580902"/>
    <nd ref="1228013847"/>
    <nd ref="1228013822"/>
    <nd ref="14580900"/>
    <nd ref="27474386"/>
    <nd ref="278856883"/>
    <nd ref="28412244"/>
    <nd ref="278856881"/>
    <nd ref="15754136"/>
    <nd ref="16816728"/>
    <nd ref="14479247"/>
    <nd ref="28412243"/>
    <nd ref="1228013834"/>
    <nd ref="17763337"/>
    <nd ref="14962626"/>
    <nd ref="14962627"/>
    <nd ref="1228027555"/>
    <nd ref="14769666"/>
    <nd ref="1228027567"/>
    <nd ref="14962624"/>
    <nd ref="14963183"/>
    <nd ref="18176800"/>
    <nd ref="1119832237"/>
    <nd ref="14962629"/>
    <nd ref="1119832241"/>
    <nd ref="14479327"/>
    <nd ref="14479332"/>
    <tag k="highway" v="residential"/>
    <tag k="maxspeed" v="30"/>
    <tag k="name" v="Welfenstraße"/>
  </way>
  <way id="3533244" version="12" timestamp="2011-04-01T17:32:45Z" uid="6269" user="Mueck" changeset="7737379">
    <nd ref="14915635"/>
    <nd ref="502904933"/>
    <nd ref="26520159"/>
    <nd ref="28901000"/>
    <nd ref="14580905"/>
    <nd ref="1228013873"/>
    <nd ref="1228013876"/>
    <nd ref="1228013845"/>
    <nd ref="14580902"/>
    <nd ref="1228013847"/>
    <nd ref="1228013822"/>
    <nd ref="14580900"/>
    <nd ref="27474386"/>
    <nd ref="278856883"/>
    <nd ref="28412244"/>
    <nd ref="278856881"/>
    <nd ref="15754136"/>
    <nd ref="16816728"/>
    <nd ref="14479247"/>
    <nd ref="28412243"/>
    <nd ref="1228013834"/>
    <nd ref="17763337"/>
    <nd ref="14962626"/>
    <nd ref="14962627"/>
    <nd ref="1228027555"/>
    <nd ref="14769666"/>
    <nd ref="1228027567"/>
    <nd ref="14962624"/>
    <nd ref="14963183"/>
    <nd ref="18176800"/>
    <nd ref="1119832237"/>
    <nd ref="14962629"/>
    <nd ref="1119832241"/>
    <nd ref="14479327"/>
    <nd ref="1228105028"/>
    <nd ref="1228104932"/>
    <nd ref="1228104758"/>
    <nd ref="1228105039"/>
    <nd ref="14479332"/>
    <tag k="highway" v="residential"/>
    <tag k="maxspeed" v="30"/>
    <tag k="name" v="Welfenstraße"/>
  </way>
  <way id="3533244" version="13" timestamp="2011-07-16T22:35:11Z" uid="212553" user="ARWIE" changeset="8743604">
    <nd ref="14915635"/>
    <nd ref="502904933"/>
    <nd ref="26520159"/>
    <nd ref="28901000"/>
    <nd ref="14580905"/>
    <nd ref="1228013873"/>
    <nd ref="1228013876"/>
    <nd ref="1228013845"/>
    <nd ref="14580902"/>
    <nd ref="1228013847"/>
    <nd ref="1228013822"/>
    <nd ref="14580900"/>
    <nd ref="27474386"/>
    <nd ref="278856883"/>
    <nd ref="28412244"/>
    <nd ref="278856881"/>
    <nd ref="15754136"/>
    <nd ref="16816728"/>
    <nd ref="14479247"/>
    <nd ref="28412243"/>
    <nd ref="1228013834"/>
    <nd ref="17763337"/>
    <nd ref="14962626"/>
    <nd ref="14962627"/>
    <nd ref="1228027555"/>
    <nd ref="14769666"/>
    <nd ref="1228027567"/>
    <nd ref="14962624"/>
    <nd ref="14963183"/>
    <nd ref="18176800"/>
    <nd ref="1119832237"/>
    <nd ref="14962629"/>
    <nd ref="1119832241"/>
    <nd ref="14479327"/>
    <nd ref="1228105028"/>
    <nd ref="1363911110"/>
    <nd ref="1228104932"/>
    <nd ref="1228104758"/>
    <nd ref="1228105039"/>
    <nd ref="14479332"/>
    <tag k="highway" v="residential"/>
    <tag k="maxspeed" v="30"/>
    <tag k="name" v="Welfenstraße"/>
  </way>
  <way id="3533244" version="14" timestamp="2012-01-09T01:13:41Z" uid="5164" user="woodpeck" changeset="10338409">
    <nd ref="1583423101"/>
    <nd ref="1583423102"/>
    <nd ref="1583423104"/>
    <nd ref="1583423105"/>
    <nd ref="1583423111"/>
    <nd ref="1583423118"/>
    <nd ref="1583423124"/>
    <nd ref="1583423131"/>
    <nd ref="1583423133"/>
    <nd ref="14580902"/>
    <nd ref="1583423137"/>
    <nd ref="1583423138"/>
    <nd ref="1583423136"/>
    <nd ref="1583423135"/>
    <nd ref="28412244"/>
    <nd ref="1583423134"/>
    <nd ref="15754136"/>
    <nd ref="16816728"/>
    <nd ref="14479247"/>
    <nd ref="28412243"/>
    <nd ref="1583423132"/>
    <nd ref="1583423130"/>
    <nd ref="1583423128"/>
    <nd ref="1583423127"/>
    <nd ref="1583423126"/>
    <nd ref="14769666"/>
    <nd ref="1583423125"/>
    <nd ref="14962624"/>
    <nd ref="1583423120"/>
    <nd ref="18176800"/>
    <nd ref="1583423119"/>
    <nd ref="14962629"/>
    <nd ref="1583423117"/>
    <nd ref="1583423114"/>
    <nd ref="1583423112"/>
    <nd ref="1363911110"/>
    <nd ref="1228104932"/>
    <nd ref="1583423115"/>
    <nd ref="1583423116"/>
    <nd ref="14479332"/>
    <tag k="highway" v="residential"/>
    <tag k="maxspeed" v="30"/>
    <tag k="name" v="Welfenstraße"/>
    <tag k="odbl" v="clean"/>
  </way>
  <way id="3533245" version="2" timestamp="2008-08-11T10:43:07Z" uid="6269" user="Mueck" changeset="188275"/>
  <way id="3533311" version="2" timestamp="2008-08-11T10:40:27Z" uid="6269" user="Mueck" changeset="188275">
    <nd ref="14851992"/>
    <nd ref="14851993"/>
    <nd ref="14851994"/>
    <nd ref="14851995"/>
    <tag k="created_by" v="Potlatch 0.10b"/>
    <tag k="highway" v="residential"/>
    <tag k="name" v="Breite Straße"/>
  </way>
  <way id="3533311" version="3" timestamp="2009-06-21T18:16:57Z" uid="85761" user="klausis" changeset="1586504">
    <nd ref="14851992"/>
    <nd ref="14851993"/>
    <nd ref="14851994"/>
    <nd ref="14851995"/>
    <tag k="highway" v="residential"/>
    <tag k="name" v="Breite Straße"/>
  </way>
  <way id="3533311" version="4" timestamp="2011-03-12T12:41:12Z" uid="6269" user="Mueck" changeset="7532714">
    <nd ref="14851992"/>
    <nd ref="14851993"/>
    <nd ref="14851994"/>
    <nd ref="1198283418"/>
    <nd ref="14851995"/>
    <tag k="highway" v="residential"/>
    <tag k="name" v="Breite Straße"/>
  </way>
  <way id="3533311" version="5" timestamp="2011-03-31T00:31:23Z" uid="6269" user="Mueck" changeset="7721806">
    <nd ref="14851992"/>
    <nd ref="1226195856"/>
    <nd ref="14851993"/>
    <nd ref="14851994"/>
    <nd ref="1198283418"/>
    <nd ref="14851995"/>
    <tag k="highway" v="residential"/>
    <tag k="name" v="Breite Straße"/>
  </way>
  <way id="3533311" version="6" timestamp="2011-07-18T17:55:02Z" uid="212553" user="ARWIE" changeset="8760967">
    <nd ref="14851992"/>
    <nd ref="1365674628"/>
    <nd ref="1365674625"/>
    <nd ref="1365674621"/>
    <nd ref="1226195856"/>
    <nd ref="14851993"/>
    <nd ref="14851994"/>
    <nd ref="1198283418"/>
    <nd ref="14851995"/>
    <tag k="highway" v="residential"/>
    <tag k="name" v="Breite Straße"/>
  </way>
  <way id="3533312" version="2" timestamp="2008-07-30T10:43:35Z" uid="6269" user="Mueck" changeset="628766">
    <nd ref="16809391"/>
    <nd ref="25278261"/>
    <nd ref="16816730"/>
    <tag k="created_by" v="Potlatch 0.10a"/>
    <tag k="highway" v="tertiary"/>
    <tag k="name" v="Breite Straße"/>
    <tag k="note" v="im SHP des NVK: III"/>
  </way>
  <way id="3533312" version="3" timestamp="2009-06-21T18:16:27Z" uid="85761" user="klausis" changeset="1586504">
    <nd ref="16809391"/>
    <nd ref="25278261"/>
    <nd ref="16816730"/>
    <tag k="highway" v="tertiary"/>
    <tag k="name" v="Breite Straße"/>
    <tag k="note" v="im SHP des NVK: III"/>
  </way>
  <way id="3533312" version="4" timestamp="2011-03-12T12:41:11Z" uid="6269" user="Mueck" changeset="7532714">
    <nd ref="16809391"/>
    <nd ref="1198283528"/>
    <nd ref="1198283392"/>
    <nd ref="25278261"/>
    <nd ref="1198283542"/>
    <nd ref="16816730"/>
    <tag k="highway" v="tertiary"/>
    <tag k="name" v="Breite Straße"/>
    <tag k="note" v="im SHP des NVK: III"/>
  </way>
  <way id="3533313" version="4" timestamp="2008-08-11T10:42:48Z" uid="6269" user="Mueck" changeset="188275">
    <nd ref="14580908"/>
    <nd ref="29026479"/>
    <nd ref="14849534"/>
    <tag k="created_by" v="Potlatch 0.10b"/>
    <tag k="name" v="Wartburgstraße"/>
  </way>
  <way id="3533313" version="5" timestamp="2008-08-11T10:42:53Z" uid="6269" user="Mueck" changeset="188275"/>
  <way id="3533350" version="2" timestamp="2008-08-11T10:42:41Z" uid="6269" user="Mueck" changeset="188275">
    <nd ref="14849534"/>
    <nd ref="16816759"/>
    <nd ref="14851990"/>
    <nd ref="14851995"/>
    <tag k="created_by" v="Potlatch 0.10b"/>
    <tag k="highway" v="tertiary"/>
    <tag k="name" v="Wartburgstraße"/>
    <tag k="note" v="im SHP des NVK: III"/>
  </way>
  <way id="3533350" version="3" timestamp="2008-08-11T10:42:52Z" uid="6269" user="Mueck" changeset="188275">
    <nd ref="14580908"/>
    <nd ref="29026479"/>
    <nd ref="14849534"/>
    <nd ref="16816759"/>
    <nd ref="14851990"/>
    <nd ref="14851995"/>
    <tag k="created_by" v="Potlatch 0.10b"/>
    <tag k="highway" v="tertiary"/>
    <tag k="name" v="Wartburgstraße"/>
    <tag k="note" v="im SHP des NVK: III"/>
  </way>
  <way id="3533350" version="4" timestamp="2008-08-11T10:43:06Z" uid="6269" user="Mueck" changeset="188275">
    <nd ref="14915635"/>
    <nd ref="14580908"/>
    <nd ref="29026479"/>
    <nd ref="14849534"/>
    <nd ref="16816759"/>
    <nd ref="14851990"/>
    <nd ref="14851995"/>
    <tag k="created_by" v="Potlatch 0.10b"/>
    <tag k="highway" v="tertiary"/>
    <tag k="name" v="Wartburgstraße"/>
    <tag k="note" v="im SHP des NVK: III"/>
  </way>
  <way id="3533350" version="5" timestamp="2009-06-21T18:16:30Z" uid="85761" user="klausis" changeset="1586504">
    <nd ref="14915635"/>
    <nd ref="14580908"/>
    <nd ref="29026479"/>
    <nd ref="14849534"/>
    <nd ref="16816759"/>
    <nd ref="14851990"/>
    <nd ref="14851995"/>
    <tag k="highway" v="tertiary"/>
    <tag k="name" v="Wartburgstraße"/>
    <tag k="note" v="im SHP des NVK: III"/>
  </way>
  <way id="3533350" version="6" timestamp="2010-02-09T01:05:05Z" uid="6893" user="[HEK]the_other" changeset="3828568">
    <nd ref="14915635"/>
    <nd ref="14580908"/>
    <nd ref="29026479"/>
    <nd ref="14849534"/>
    <nd ref="16816759"/>
    <nd ref="14851990"/>
    <tag k="highway" v="tertiary"/>
    <tag k="name" v="Wartburgstraße"/>
    <tag k="note" v="im SHP des NVK: III"/>
  </way>
  <way id="3533350" version="7" timestamp="2010-10-31T17:49:38Z" uid="118352" user="kamarc" changeset="6243636">
    <nd ref="14915635"/>
    <nd ref="14580908"/>
    <nd ref="29026479"/>
    <nd ref="14849534"/>
    <nd ref="16816759"/>
    <nd ref="972509337"/>
    <nd ref="14851990"/>
    <tag k="highway" v="tertiary"/>
    <tag k="name" v="Wartburgstraße"/>
    <tag k="note" v="im SHP des NVK: III"/>
  </way>
  <way id="3533350" version="8" timestamp="2010-11-04T11:49:20Z" uid="6269" user="Mueck" changeset="6287805">
    <nd ref="14580908"/>
    <nd ref="29026479"/>
    <nd ref="14849534"/>
    <nd ref="16816759"/>
    <nd ref="972509337"/>
    <nd ref="14851990"/>
    <tag k="highway" v="tertiary"/>
    <tag k="name" v="Wartburgstraße"/>
    <tag k="note" v="im SHP des NVK: III"/>
  </way>
  <way id="3533350" version="9" timestamp="2011-03-06T10:04:59Z" uid="118352" user="kamarc" changeset="7471324">
    <nd ref="14580908"/>
    <nd ref="29026479"/>
    <nd ref="14849534"/>
    <nd ref="16816759"/>
    <nd ref="972509337"/>
    <nd ref="1188913550"/>
    <nd ref="14851990"/>
    <tag k="highway" v="tertiary"/>
    <tag k="name" v="Wartburgstraße"/>
    <tag k="note" v="im SHP des NVK: III"/>
  </way>
  <way id="3533350" version="10" timestamp="2012-01-24T23:01:02Z" uid="5164" user="woodpeck" changeset="10489399">
    <nd ref="14580908"/>
    <nd ref="1604255252"/>
    <nd ref="14849534"/>
    <nd ref="16816759"/>
    <nd ref="972509337"/>
    <nd ref="1188913550"/>
    <nd ref="14851990"/>
    <tag k="highway" v="tertiary"/>
    <tag k="name" v="Wartburgstraße"/>
    <tag k="note" v="im SHP des NVK: III"/>
  </way>
  <way id="3533402" version="4" timestamp="2011-01-30T18:29:53Z" uid="6269" user="Mueck" changeset="7137541">
    <nd ref="1128311438"/>
    <nd ref="16082668"/>
    <nd ref="16082664"/>
    <nd ref="1125495835"/>
    <nd ref="1125496124"/>
    <nd ref="1125496297"/>
    <nd ref="16082665"/>
    <nd ref="16082666"/>
    <tag k="highway" v="cycleway"/>
  </way>
  <way id="3533402" version="5" timestamp="2011-01-30T18:31:08Z" uid="6269" user="Mueck" changeset="7137541">
    <nd ref="1128311438"/>
    <nd ref="1128313022"/>
    <nd ref="16082668"/>
    <nd ref="16082664"/>
    <nd ref="1125495835"/>
    <nd ref="1125496124"/>
    <nd ref="1125496297"/>
    <nd ref="16082665"/>
    <nd ref="16082666"/>
    <tag k="highway" v="cycleway"/>
  </way>
  <way id="3533402" version="6" timestamp="2011-07-18T21:49:24Z" uid="212553" user="ARWIE" changeset="8763472">
    <nd ref="1128311438"/>
    <nd ref="1128313022"/>
    <nd ref="16082668"/>
    <nd ref="16082664"/>
    <nd ref="1366143695"/>
    <nd ref="1125495835"/>
    <nd ref="1366143697"/>
    <nd ref="1125496124"/>
    <nd ref="1366143696"/>
    <nd ref="1125496297"/>
    <nd ref="16082665"/>
    <nd ref="16082666"/>
    <tag k="highway" v="cycleway"/>
  </way>
  <way id="3533482" version="1" timestamp="2007-10-03T21:31:01Z" uid="13367" user="nubok" changeset="29139">
    <nd ref="17503728"/>
    <nd ref="17503727"/>
    <nd ref="17503725"/>
    <nd ref="17503724"/>
    <nd ref="17503723"/>
    <nd ref="17503721"/>
    <nd ref="60638094"/>
    <nd ref="17503720"/>
    <nd ref="17503719"/>
    <nd ref="17503717"/>
    <nd ref="17503715"/>
    <nd ref="17503714"/>
    <nd ref="17503712"/>
    <nd ref="17503711"/>
    <nd ref="17503710"/>
    <tag k="created_by" v="Potlatch alpha"/>
    <tag k="highway" v="residential"/>
  </way>
  <way id="3533482" version="2" timestamp="2007-11-23T20:07:58Z" uid="4276" user="robneild" changeset="601098">
    <nd ref="17503728"/>
    <nd ref="17503727"/>
    <nd ref="17503725"/>
    <nd ref="17503724"/>
    <nd ref="17503723"/>
    <nd ref="17503721"/>
    <nd ref="60638094"/>
    <nd ref="17503720"/>
    <nd ref="17503719"/>
    <nd ref="17503717"/>
    <nd ref="17503715"/>
    <nd ref="17503714"/>
    <nd ref="17503712"/>
    <nd ref="17503711"/>
    <nd ref="17503710"/>
    <tag k="created_by" v="Potlatch 0.5c"/>
    <tag k="highway" v="residential"/>
    <tag k="name" v="Headington Road"/>
  </way>
  <way id="3533482" version="3" timestamp="2008-02-25T22:51:27Z" uid="12483" user="Pete Reed" changeset="207748">
    <nd ref="17503728"/>
    <nd ref="17503727"/>
    <nd ref="17503725"/>
    <nd ref="17503724"/>
    <nd ref="17503723"/>
    <nd ref="17503721"/>
    <nd ref="60638094"/>
    <nd ref="17503720"/>
    <nd ref="17503719"/>
    <nd ref="17503717"/>
    <nd ref="17503715"/>
    <nd ref="17503714"/>
    <nd ref="17503712"/>
    <nd ref="17503711"/>
    <nd ref="17503710"/>
    <tag k="created_by" v="Potlatch 0.7b"/>
    <tag k="highway" v="residential"/>
    <tag k="name" v="Highway Avenue"/>
  </way>
  <way id="3533482" version="4" timestamp="2008-05-06T19:13:09Z" uid="12483" user="Pete Reed" changeset="350358">
    <nd ref="17503728"/>
    <nd ref="262519272"/>
    <nd ref="17503727"/>
    <nd ref="17503725"/>
    <nd ref="17503724"/>
    <nd ref="17503723"/>
    <nd ref="17503721"/>
    <nd ref="60638094"/>
    <nd ref="17503720"/>
    <nd ref="17503719"/>
    <nd ref="17503717"/>
    <nd ref="17503715"/>
    <nd ref="17503714"/>
    <nd ref="17503712"/>
    <nd ref="17503711"/>
    <nd ref="17503710"/>
    <tag k="created_by" v="Potlatch 0.8c"/>
    <tag k="highway" v="residential"/>
    <tag k="name" v="Highway Avenue"/>
  </way>
  <way id="3533482" version="5" timestamp="2009-12-19T19:19:50Z" uid="161206" user="SK53_bulk" changeset="3409166">
    <nd ref="17503728"/>
    <nd ref="262519272"/>
    <nd ref="17503727"/>
    <nd ref="17503725"/>
    <nd ref="17503724"/>
    <nd ref="17503723"/>
    <nd ref="17503721"/>
    <nd ref="60638094"/>
    <nd ref="17503720"/>
    <nd ref="17503719"/>
    <nd ref="17503717"/>
    <nd ref="17503715"/>
    <nd ref="17503714"/>
    <nd ref="17503712"/>
    <nd ref="596583851"/>
    <nd ref="17503711"/>
    <nd ref="596583849"/>
    <nd ref="17503710"/>
    <tag k="highway" v="residential"/>
    <tag k="name" v="Highway Avenue"/>
  </way>
  <way id="3533482" version="6" timestamp="2009-12-20T17:36:28Z" uid="84681" user="SK53" changeset="3415484">
    <nd ref="17503728"/>
    <nd ref="262519272"/>
    <nd ref="17503727"/>
    <nd ref="17503725"/>
    <nd ref="17503724"/>
    <nd ref="17503723"/>
    <nd ref="17503721"/>
    <nd ref="60638094"/>
    <nd ref="17503720"/>
    <nd ref="17503719"/>
    <nd ref="17503717"/>
    <nd ref="17503715"/>
    <nd ref="17503714"/>
    <nd ref="17503712"/>
    <nd ref="596583851"/>
    <nd ref="596583849"/>
    <nd ref="17503710"/>
    <tag k="highway" v="residential"/>
    <tag k="name" v="Highway Avenue"/>
  </way>
  <way id="3533482" version="7" timestamp="2010-02-17T21:03:31Z" uid="212546" user="pendle" changeset="3904487">
    <nd ref="17503728"/>
    <nd ref="262519272"/>
    <nd ref="17503727"/>
    <nd ref="17503725"/>
    <nd ref="17503724"/>
    <nd ref="17503723"/>
    <nd ref="17503721"/>
    <nd ref="60638094"/>
    <nd ref="17503720"/>
    <nd ref="17503719"/>
    <nd ref="17503717"/>
    <nd ref="17503715"/>
    <nd ref="17503714"/>
    <nd ref="17503712"/>
    <nd ref="643821468"/>
    <nd ref="643821442"/>
    <nd ref="17503710"/>
    <tag k="highway" v="residential"/>
    <tag k="name" v="Highway Avenue"/>
  </way>
  <way id="3533482" version="8" timestamp="2011-06-23T21:21:26Z" uid="12483" user="Pete Reed" changeset="8527052">
    <nd ref="1336069561"/>
    <nd ref="1336069518"/>
    <nd ref="1336069585"/>
    <nd ref="1336069559"/>
    <nd ref="1336069538"/>
    <nd ref="1336069541"/>
    <nd ref="1336069609"/>
    <nd ref="1336069565"/>
    <nd ref="1336069605"/>
    <nd ref="17503720"/>
    <nd ref="17503719"/>
    <nd ref="1336069607"/>
    <nd ref="1336069551"/>
    <nd ref="17503714"/>
    <nd ref="17503712"/>
    <nd ref="643821468"/>
    <nd ref="643821442"/>
    <nd ref="17503710"/>
    <tag k="highway" v="residential"/>
    <tag k="name" v="Highway Avenue"/>
  </way>
  <way id="3533482" version="9" timestamp="2011-07-22T07:18:48Z" uid="12483" user="Pete Reed" changeset="8795093"/>
  <way id="3533497" version="5" timestamp="2010-09-04T11:49:19Z" uid="6269" user="Mueck" changeset="5677823">
    <nd ref="14963264"/>
    <nd ref="14963308"/>
    <nd ref="15848801"/>
    <nd ref="14963306"/>
    <nd ref="14963303"/>
    <nd ref="14963299"/>
    <nd ref="14963296"/>
    <nd ref="14963297"/>
    <nd ref="14963298"/>
    <tag k="highway" v="residential"/>
    <tag k="maxspeed" v="30"/>
    <tag k="name" v="Weltzienstraße"/>
    <tag k="oneway" v="true&quot;"/>
  </way>
  <way id="3533497" version="6" timestamp="2010-09-13T10:13:36Z" uid="78850" user="hth52249" changeset="5768230">
    <nd ref="14963264"/>
    <nd ref="14963308"/>
    <nd ref="15848801"/>
    <nd ref="14963306"/>
    <nd ref="14963303"/>
    <nd ref="14963299"/>
    <nd ref="14963296"/>
    <nd ref="14963297"/>
    <nd ref="14963298"/>
    <tag k="highway" v="residential"/>
    <tag k="maxspeed" v="30"/>
    <tag k="name" v="Weltzienstraße"/>
    <tag k="oneway" v="yes"/>
  </way>
  <way id="3533497" version="7" timestamp="2011-01-30T13:50:26Z" uid="6269" user="Mueck" changeset="7133406">
    <nd ref="14963264"/>
    <nd ref="14963308"/>
    <nd ref="1127942962"/>
    <nd ref="15848801"/>
    <nd ref="14963306"/>
    <nd ref="1127943062"/>
    <nd ref="14963303"/>
    <nd ref="14963299"/>
    <nd ref="14963296"/>
    <nd ref="14963297"/>
    <nd ref="14963298"/>
    <tag k="highway" v="residential"/>
    <tag k="maxspeed" v="30"/>
    <tag k="name" v="Weltzienstraße"/>
    <tag k="oneway" v="yes"/>
  </way>
  <way id="3533497" version="8" timestamp="2011-03-29T23:06:33Z" uid="6269" user="Mueck" changeset="7711468">
    <nd ref="1224777631"/>
    <nd ref="14963308"/>
    <nd ref="1127942962"/>
    <nd ref="15848801"/>
    <nd ref="14963306"/>
    <nd ref="1127943062"/>
    <nd ref="14963303"/>
    <nd ref="14963299"/>
    <nd ref="14963296"/>
    <nd ref="14963297"/>
    <nd ref="14963298"/>
    <tag k="highway" v="residential"/>
    <tag k="maxspeed" v="30"/>
    <tag k="name" v="Weltzienstraße"/>
    <tag k="oneway" v="yes"/>
  </way>
  <way id="3533497" version="9" timestamp="2011-03-30T21:26:11Z" uid="6269" user="Mueck" changeset="7720894">
    <nd ref="1224777631"/>
    <nd ref="14963308"/>
    <nd ref="1127942962"/>
    <nd ref="15848801"/>
    <nd ref="14963306"/>
    <nd ref="1127943062"/>
    <nd ref="14963303"/>
    <nd ref="1225981786"/>
    <nd ref="1225981805"/>
    <nd ref="14963299"/>
    <nd ref="1225981588"/>
    <nd ref="14963296"/>
    <nd ref="1225981705"/>
    <nd ref="14963297"/>
    <nd ref="1225981624"/>
    <tag k="highway" v="residential"/>
    <tag k="maxspeed" v="30"/>
    <tag k="name" v="Weltzienstraße"/>
    <tag k="oneway" v="yes"/>
  </way>
  <way id="3533497" version="10" timestamp="2012-01-17T18:28:54Z" uid="16330" user="aluka" changeset="10420428">
    <nd ref="14963308"/>
    <nd ref="1127942962"/>
    <nd ref="15848801"/>
    <nd ref="14963306"/>
    <nd ref="1127943062"/>
    <nd ref="14963303"/>
    <nd ref="1225981786"/>
    <nd ref="1225981805"/>
    <nd ref="14963299"/>
    <nd ref="1225981588"/>
    <nd ref="14963296"/>
    <nd ref="1225981705"/>
    <nd ref="14963297"/>
    <nd ref="1225981624"/>
    <tag k="highway" v="residential"/>
    <tag k="maxspeed" v="30"/>
    <tag k="name" v="Weltzienstraße"/>
    <tag k="oneway" v="yes"/>
  </way>
  <way id="3533497" version="11" timestamp="2012-02-03T09:11:14Z" uid="165061" user="keinname" changeset="10574354">
    <nd ref="14963308"/>
    <nd ref="1127942962"/>
    <nd ref="15848801"/>
    <nd ref="14963306"/>
    <tag k="highway" v="residential"/>
    <tag k="maxspeed" v="30"/>
    <tag k="name" v="Weltzienstraße"/>
    <tag k="oneway" v="yes"/>
  </way>
  <way id="3533497" version="12" timestamp="2012-02-14T08:33:21Z" uid="165061" user="keinname" changeset="10680616">
    <nd ref="1632373173"/>
    <nd ref="14963308"/>
    <nd ref="1127942962"/>
    <nd ref="15848801"/>
    <nd ref="14963306"/>
    <tag k="highway" v="residential"/>
    <tag k="maxspeed" v="30"/>
    <tag k="name" v="Weltzienstraße"/>
    <tag k="oneway" v="yes"/>
  </way>
  <way id="3533498" version="5" timestamp="2010-09-04T11:49:13Z" uid="6269" user="Mueck" changeset="5677823">
    <nd ref="14963292"/>
    <nd ref="14963293"/>
    <nd ref="14963294"/>
    <nd ref="14963295"/>
    <nd ref="14963302"/>
    <nd ref="14963304"/>
    <nd ref="15848802"/>
    <nd ref="14963307"/>
    <nd ref="14963264"/>
    <tag k="highway" v="residential"/>
    <tag k="maxspeed" v="30"/>
    <tag k="name" v="Weltzienstraße"/>
    <tag k="oneway" v="true"/>
  </way>
  <way id="3533498" version="6" timestamp="2011-01-30T13:50:26Z" uid="6269" user="Mueck" changeset="7133406">
    <nd ref="14963292"/>
    <nd ref="14963293"/>
    <nd ref="14963294"/>
    <nd ref="14963295"/>
    <nd ref="14963302"/>
    <nd ref="1127942983"/>
    <nd ref="14963304"/>
    <nd ref="15848802"/>
    <nd ref="1127942971"/>
    <nd ref="14963307"/>
    <nd ref="14963264"/>
    <tag k="highway" v="residential"/>
    <tag k="maxspeed" v="30"/>
    <tag k="name" v="Weltzienstraße"/>
    <tag k="oneway" v="true"/>
  </way>
  <way id="3533498" version="7" timestamp="2011-03-30T21:26:11Z" uid="6269" user="Mueck" changeset="7720894">
    <nd ref="1225981811"/>
    <nd ref="14963293"/>
    <nd ref="1225981702"/>
    <nd ref="14963294"/>
    <nd ref="1225981758"/>
    <nd ref="14963295"/>
    <nd ref="1225981693"/>
    <nd ref="1225981670"/>
    <nd ref="14963302"/>
    <nd ref="1127942983"/>
    <nd ref="14963304"/>
    <nd ref="15848802"/>
    <nd ref="1127942971"/>
    <nd ref="14963307"/>
    <nd ref="14963264"/>
    <tag k="highway" v="residential"/>
    <tag k="maxspeed" v="30"/>
    <tag k="name" v="Weltzienstraße"/>
    <tag k="oneway" v="true"/>
  </way>
  <way id="3533498" version="8" timestamp="2012-02-03T09:11:14Z" uid="165061" user="keinname" changeset="10574354">
    <nd ref="1225981811"/>
    <nd ref="14963293"/>
    <nd ref="1225981702"/>
    <nd ref="14963294"/>
    <nd ref="1225981758"/>
    <nd ref="14963295"/>
    <nd ref="1225981693"/>
    <nd ref="1225981670"/>
    <nd ref="14963302"/>
    <nd ref="1127942983"/>
    <nd ref="14963304"/>
    <tag k="highway" v="residential"/>
    <tag k="maxspeed" v="30"/>
    <tag k="name" v="Weltzienstraße"/>
    <tag k="oneway" v="true"/>
    <tag k="parking:lane:left" v="diagonal"/>
    <tag k="parking:lane:right" v="inline"/>
  </way>
  <way id="3533498" version="9" timestamp="2012-02-15T16:06:35Z" uid="231047" user="masch" changeset="10693531">
    <nd ref="1225981811"/>
    <nd ref="14963293"/>
    <nd ref="1225981702"/>
    <nd ref="14963294"/>
    <nd ref="1225981758"/>
    <nd ref="14963295"/>
    <nd ref="1634196307"/>
    <nd ref="1225981693"/>
    <nd ref="1225981670"/>
    <nd ref="14963302"/>
    <nd ref="1127942983"/>
    <nd ref="14963304"/>
    <tag k="highway" v="residential"/>
    <tag k="maxspeed" v="30"/>
    <tag k="name" v="Weltzienstraße"/>
    <tag k="oneway" v="true"/>
    <tag k="parking:lane:left" v="diagonal"/>
    <tag k="parking:lane:right" v="inline"/>
  </way>
  <way id="3533563" version="4" timestamp="2011-04-01T15:38:37Z" uid="6269" user="Mueck" changeset="7736182">
    <nd ref="14482890"/>
    <nd ref="28249790"/>
    <nd ref="14482404"/>
    <nd ref="28249785"/>
    <nd ref="28249779"/>
    <nd ref="28249782"/>
    <nd ref="15754135"/>
    <nd ref="14797115"/>
    <nd ref="25623486"/>
    <nd ref="28249801"/>
    <nd ref="14962625"/>
    <nd ref="14797063"/>
    <nd ref="14962577"/>
    <nd ref="14962578"/>
    <nd ref="274118727"/>
    <tag k="highway" v="residential"/>
    <tag k="name" v="Graf-Rhena-Straße"/>
  </way>
  <way id="3533563" version="5" timestamp="2012-01-11T23:13:03Z" uid="5164" user="woodpeck" changeset="10365648">
    <nd ref="14482890"/>
    <nd ref="1586371548"/>
    <nd ref="1586371547"/>
    <nd ref="1586371546"/>
    <nd ref="1586371545"/>
    <nd ref="15754135"/>
    <nd ref="14797115"/>
    <nd ref="1586371543"/>
    <nd ref="28249801"/>
    <nd ref="14962625"/>
    <nd ref="14797063"/>
    <nd ref="14962577"/>
    <nd ref="14962578"/>
    <nd ref="274118727"/>
    <tag k="highway" v="residential"/>
    <tag k="name" v="Graf-Rhena-Straße"/>
  </way>
  <way id="3533563" version="6" timestamp="2012-01-27T14:18:06Z" uid="165061" user="keinname" changeset="10512739">
    <nd ref="14482890"/>
    <nd ref="1586371548"/>
    <nd ref="1586371547"/>
    <nd ref="1586371546"/>
    <nd ref="1586371545"/>
    <nd ref="15754135"/>
    <nd ref="14797115"/>
    <nd ref="1586371543"/>
    <nd ref="28249801"/>
    <nd ref="14962625"/>
    <nd ref="14797063"/>
    <nd ref="14962577"/>
    <nd ref="14962578"/>
    <nd ref="274118727"/>
    <tag k="highway" v="residential"/>
    <tag k="maxspeed" v="30"/>
    <tag k="name" v="Graf-Rhena-Straße"/>
  </way>
  <way id="3533563" version="7" timestamp="2012-02-01T22:00:53Z" uid="38515" user="Sören" changeset="10563053">
    <nd ref="14482890"/>
    <nd ref="1614903790"/>
    <nd ref="1586371548"/>
    <nd ref="1586371547"/>
    <nd ref="1586371546"/>
    <nd ref="1586371545"/>
    <nd ref="15754135"/>
    <nd ref="14797115"/>
    <nd ref="1586371543"/>
    <nd ref="28249801"/>
    <nd ref="14962625"/>
    <nd ref="14797063"/>
    <nd ref="14962577"/>
    <nd ref="14962578"/>
    <nd ref="274118727"/>
    <tag k="highway" v="residential"/>
    <tag k="maxspeed" v="30"/>
    <tag k="name" v="Graf-Rhena-Straße"/>
  </way>
  <way id="3533582" version="3" timestamp="2011-04-01T15:38:37Z" uid="6269" user="Mueck" changeset="7736182">
    <nd ref="14954769"/>
    <nd ref="1228013840"/>
    <nd ref="14954767"/>
    <nd ref="1228013849"/>
    <nd ref="14954768"/>
    <nd ref="15015713"/>
    <tag k="highway" v="residential"/>
    <tag k="name" v="Nokkstraße"/>
  </way>
  <way id="3533582" version="4" timestamp="2011-06-11T17:11:42Z" uid="212553" user="ARWIE" changeset="8407799">
    <nd ref="14954769"/>
    <nd ref="1228013840"/>
    <nd ref="14954767"/>
    <nd ref="1228013849"/>
    <nd ref="15015713"/>
    <tag k="highway" v="residential"/>
    <tag k="name" v="Nokkstraße"/>
  </way>
  <way id="3533582" version="5" timestamp="2012-01-03T01:13:00Z" uid="5164" user="woodpeck" changeset="10277901">
    <nd ref="14954769"/>
    <nd ref="1228013840"/>
    <nd ref="14954767"/>
    <nd ref="1228013849"/>
    <nd ref="1574896885"/>
    <tag k="highway" v="residential"/>
    <tag k="name" v="Nokkstraße"/>
  </way>
  <way id="3533582" version="6" timestamp="2012-01-09T01:13:40Z" uid="5164" user="woodpeck" changeset="10338409">
    <nd ref="1583423165"/>
    <nd ref="1583423175"/>
    <nd ref="14954767"/>
    <nd ref="1583423176"/>
    <nd ref="1574896885"/>
    <tag k="highway" v="residential"/>
    <tag k="name" v="Nokkstraße"/>
  </way>
  <way id="3533582" version="7" timestamp="2012-02-07T14:30:37Z" uid="38515" user="Sören" changeset="10612650">
    <nd ref="1583423165"/>
    <nd ref="1583423175"/>
    <nd ref="14954767"/>
    <nd ref="1583423176"/>
    <nd ref="1621669234"/>
    <nd ref="1574896885"/>
    <tag k="highway" v="residential"/>
    <tag k="name" v="Nokkstraße"/>
  </way>
  <way id="3533583" version="7" timestamp="2011-01-29T21:14:03Z" uid="6269" user="Mueck" changeset="7127449">
    <nd ref="14962587"/>
    <nd ref="30023720"/>
    <nd ref="15015713"/>
    <nd ref="14954764"/>
    <nd ref="15015690"/>
    <nd ref="15015691"/>
    <nd ref="429634478"/>
    <nd ref="320238321"/>
    <nd ref="1126865406"/>
    <nd ref="1126865360"/>
    <nd ref="15015692"/>
    <tag k="highway" v="residential"/>
    <tag k="maxspeed" v="30"/>
    <tag k="name" v="Roonstraße"/>
  </way>
  <way id="3533583" version="8" timestamp="2011-04-20T17:34:34Z" uid="38515" user="Sören" changeset="7918256">
    <nd ref="14962587"/>
    <nd ref="30023720"/>
    <nd ref="15015713"/>
    <nd ref="1252656179"/>
    <nd ref="1252655948"/>
    <nd ref="14954764"/>
    <nd ref="15015690"/>
    <nd ref="15015691"/>
    <nd ref="429634478"/>
    <nd ref="320238321"/>
    <nd ref="1126865406"/>
    <nd ref="1126865360"/>
    <nd ref="15015692"/>
    <tag k="highway" v="residential"/>
    <tag k="maxspeed" v="30"/>
    <tag k="name" v="Roonstraße"/>
  </way>
  <way id="3533583" version="9" timestamp="2012-01-03T01:13:02Z" uid="5164" user="woodpeck" changeset="10277901">
    <nd ref="1574896901"/>
    <nd ref="1574896899"/>
    <nd ref="1574896885"/>
    <nd ref="1252656179"/>
    <nd ref="1252655948"/>
    <nd ref="1574896879"/>
    <nd ref="1574896875"/>
    <nd ref="15015691"/>
    <nd ref="429634478"/>
    <nd ref="1574896867"/>
    <nd ref="1574896869"/>
    <nd ref="1574896870"/>
    <nd ref="1574896876"/>
    <tag k="highway" v="residential"/>
    <tag k="maxspeed" v="30"/>
    <tag k="name" v="Roonstraße"/>
  </way>
  <way id="3533583" version="10" timestamp="2012-02-07T14:30:37Z" uid="38515" user="Sören" changeset="10612650">
    <nd ref="1574896901"/>
    <nd ref="1574896899"/>
    <nd ref="1574896885"/>
    <nd ref="1252656179"/>
    <nd ref="1252655948"/>
    <nd ref="1621669265"/>
    <nd ref="1574896879"/>
    <nd ref="1574896875"/>
    <nd ref="15015691"/>
    <nd ref="429634478"/>
    <nd ref="1574896867"/>
    <nd ref="1574896869"/>
    <nd ref="1574896870"/>
    <nd ref="1574896876"/>
    <tag k="highway" v="residential"/>
    <tag k="maxspeed" v="30"/>
    <tag k="name" v="Roonstraße"/>
  </way>
  <way id="3533583" version="11" timestamp="2012-02-10T09:01:46Z" uid="165061" user="keinname" changeset="10641442">
    <nd ref="1574896901"/>
    <nd ref="1574896899"/>
    <nd ref="1626568810"/>
    <nd ref="1574896885"/>
    <nd ref="1252656179"/>
    <nd ref="1252655948"/>
    <nd ref="1621669265"/>
    <nd ref="1574896879"/>
    <nd ref="1574896875"/>
    <nd ref="15015691"/>
    <nd ref="429634478"/>
    <nd ref="1574896867"/>
    <nd ref="1574896869"/>
    <nd ref="1574896870"/>
    <nd ref="1574896876"/>
    <tag k="highway" v="residential"/>
    <tag k="maxspeed" v="30"/>
    <tag k="name" v="Roonstraße"/>
  </way>
  <way id="3533602" version="6" timestamp="2011-01-29T21:14:05Z" uid="6269" user="Mueck" changeset="7127449">
    <nd ref="15015707"/>
    <nd ref="1126865278"/>
    <nd ref="378995305"/>
    <nd ref="378995306"/>
    <nd ref="378995307"/>
    <nd ref="378995308"/>
    <nd ref="378995309"/>
    <nd ref="15015698"/>
    <tag k="highway" v="residential"/>
    <tag k="name" v="Friedenstraße"/>
  </way>
  <way id="3533602" version="7" timestamp="2012-01-15T15:06:31Z" uid="5164" user="woodpeck" changeset="10398925">
    <nd ref="15015707"/>
    <nd ref="1590912147"/>
    <nd ref="378995305"/>
    <nd ref="378995306"/>
    <nd ref="378995307"/>
    <nd ref="378995308"/>
    <nd ref="378995309"/>
    <nd ref="15015698"/>
    <tag k="highway" v="residential"/>
    <tag k="name" v="Friedenstraße"/>
  </way>
  <way id="3533903" version="2" timestamp="2008-02-12T19:40:41Z" uid="6269" user="Mueck" changeset="111430">
    <nd ref="14954722"/>
    <nd ref="29920288"/>
    <tag k="created_by" v="Potlatch 0.7a"/>
    <tag k="highway" v="residential"/>
    <tag k="name" v="Neuer Zirkel"/>
  </way>
  <way id="3533903" version="3" timestamp="2008-02-12T19:41:02Z" uid="6269" user="Mueck" changeset="111430">
    <nd ref="14954722"/>
    <nd ref="29920288"/>
    <tag k="created_by" v="Potlatch 0.7a"/>
    <tag k="highway" v="residential"/>
    <tag k="motorcar" v="private"/>
    <tag k="name" v="Neuer Zirkel"/>
  </way>
  <way id="3533903" version="4" timestamp="2008-02-12T19:59:43Z" uid="6269" user="Mueck" changeset="111430"/>
  <way id="3533904" version="2" timestamp="2008-02-12T19:35:03Z" uid="6269" user="Mueck" changeset="111430">
    <nd ref="14890762"/>
    <nd ref="14890761"/>
    <tag k="abutters" v="retail"/>
    <tag k="created_by" v="Potlatch 0.7a"/>
    <tag k="cycleway" v="opposite"/>
    <tag k="highway" v="residential"/>
    <tag k="name" v="Erbprinzenstraße"/>
    <tag k="oneway" v="yes"/>
  </way>
  <way id="3533904" version="3" timestamp="2008-02-12T20:12:51Z" uid="6269" user="Mueck" changeset="111430">
    <nd ref="14890762"/>
    <nd ref="247371274"/>
    <tag k="abutters" v="retail"/>
    <tag k="created_by" v="Potlatch 0.7a"/>
    <tag k="cycleway" v="opposite"/>
    <tag k="highway" v="residential"/>
    <tag k="name" v="Erbprinzenstraße"/>
    <tag k="oneway" v="yes"/>
  </way>
  <way id="3533904" version="4" timestamp="2008-02-12T20:13:16Z" uid="6269" user="Mueck" changeset="111430">
    <nd ref="14890762"/>
    <nd ref="247371274"/>
    <tag k="abutters" v="retail"/>
    <tag k="created_by" v="Potlatch 0.7a"/>
    <tag k="highway" v="residential"/>
    <tag k="name" v="Erbprinzenstraße"/>
  </way>
  <way id="3533904" version="5" timestamp="2008-04-06T15:39:19Z" uid="3585" user="SlowRider" changeset="65407">
    <nd ref="14890762"/>
    <nd ref="14890761"/>
    <tag k="abutters" v="retail"/>
    <tag k="created_by" v="Potlatch 0.7a"/>
    <tag k="cycleway" v="opposite"/>
    <tag k="highway" v="residential"/>
    <tag k="name" v="Erbprinzenstraße"/>
    <tag k="oneway" v="yes"/>
  </way>
  <way id="3533904" version="6" timestamp="2008-07-08T21:43:25Z" uid="10897" user="Jens Müller" changeset="434423">
    <nd ref="14890762"/>
    <nd ref="277301602"/>
    <tag k="abutters" v="retail"/>
    <tag k="created_by" v="Potlatch 0.7a"/>
    <tag k="cycleway" v="opposite"/>
    <tag k="highway" v="residential"/>
    <tag k="name" v="Erbprinzenstraße"/>
  </way>
  <way id="3533904" version="7" timestamp="2008-07-09T22:37:34Z" uid="10897" user="Jens Müller" changeset="451822">
    <nd ref="14890762"/>
    <nd ref="277301602"/>
    <tag k="abutters" v="retail"/>
    <tag k="created_by" v="Potlatch 0.7a"/>
    <tag k="highway" v="residential"/>
    <tag k="name" v="Erbprinzenstraße"/>
  </way>
  <way id="3533904" version="8" timestamp="2009-06-19T13:03:24Z" uid="85761" user="klausis" changeset="1564619">
    <nd ref="14890762"/>
    <nd ref="277301602"/>
    <tag k="abutters" v="retail"/>
    <tag k="highway" v="residential"/>
    <tag k="name" v="Erbprinzenstraße"/>
  </way>
  <way id="3533904" version="9" timestamp="2010-05-30T09:44:31Z" uid="6893" user="[HEK]the_other" changeset="4849983">
    <nd ref="14890762"/>
    <nd ref="277301602"/>
    <tag k="highway" v="residential"/>
    <tag k="name" v="Erbprinzenstraße"/>
  </way>
  <way id="3533904" version="10" timestamp="2011-10-24T21:34:57Z" uid="165061" user="keinname" changeset="9647879">
    <nd ref="14890762"/>
    <nd ref="277301602"/>
    <tag k="highway" v="residential"/>
    <tag k="name" v="Erbprinzenstraße"/>
    <tag k="zone:traffic" v="DE:urban"/>
  </way>
  <way id="3533904" version="11" timestamp="2012-01-24T22:40:10Z" uid="165061" user="keinname" changeset="10489274">
    <nd ref="14890762"/>
    <nd ref="277301602"/>
    <tag k="highway" v="residential"/>
    <tag k="maxspeed" v="30"/>
    <tag k="name" v="Erbprinzenstraße"/>
    <tag k="zone:traffic" v="DE:urban"/>
  </way>
  <way id="3533905" version="2" timestamp="2008-03-19T14:17:26Z" uid="6269" user="Mueck" changeset="352316">
    <nd ref="14890762"/>
    <nd ref="21492842"/>
    <nd ref="252901167"/>
    <tag k="abutters" v="retail"/>
    <tag k="created_by" v="Potlatch 0.7b"/>
    <tag k="highway" v="unclassified"/>
    <tag k="name" v="Lammstraße"/>
  </way>
  <way id="3533905" version="3" timestamp="2008-03-19T14:18:24Z" uid="6269" user="Mueck" changeset="352316">
    <nd ref="14890762"/>
    <nd ref="21492842"/>
    <nd ref="252901167"/>
    <tag k="abutters" v="retail"/>
    <tag k="created_by" v="Potlatch 0.7b"/>
    <tag k="highway" v="residential"/>
    <tag k="name" v="Lammstraße"/>
  </way>
  <way id="3533905" version="4" timestamp="2008-06-14T17:11:52Z" uid="6269" user="Mueck" changeset="159610">
    <nd ref="14890762"/>
    <nd ref="270328200"/>
    <nd ref="21492842"/>
    <nd ref="252901167"/>
    <tag k="abutters" v="retail"/>
    <tag k="created_by" v="Potlatch 0.9c"/>
    <tag k="highway" v="residential"/>
    <tag k="name" v="Lammstraße"/>
  </way>
  <way id="3533905" version="5" timestamp="2008-08-15T19:07:57Z" uid="10897" user="Jens Müller" changeset="265886">
    <nd ref="14890762"/>
    <nd ref="288276050"/>
    <nd ref="270328200"/>
    <nd ref="21492842"/>
    <nd ref="252901167"/>
    <tag k="abutters" v="retail"/>
    <tag k="created_by" v="Potlatch 0.9c"/>
    <tag k="highway" v="residential"/>
    <tag k="name" v="Lammstraße"/>
  </way>
  <way id="3533905" version="6" timestamp="2009-06-19T13:03:22Z" uid="85761" user="klausis" changeset="1564619">
    <nd ref="14890762"/>
    <nd ref="288276050"/>
    <nd ref="270328200"/>
    <nd ref="21492842"/>
    <nd ref="252901167"/>
    <tag k="abutters" v="retail"/>
    <tag k="highway" v="residential"/>
    <tag k="name" v="Lammstraße"/>
  </way>
  <way id="3533905" version="7" timestamp="2010-05-30T09:44:35Z" uid="6893" user="[HEK]the_other" changeset="4849983">
    <nd ref="14890762"/>
    <nd ref="288276050"/>
    <nd ref="270328200"/>
    <nd ref="21492842"/>
    <nd ref="252901167"/>
    <tag k="highway" v="residential"/>
    <tag k="name" v="Lammstraße"/>
  </way>
  <way id="3533907" version="2" timestamp="2008-02-10T02:01:34Z" uid="6269" user="Mueck" changeset="88956">
    <nd ref="14911309"/>
    <nd ref="14911308"/>
    <nd ref="14954728"/>
    <nd ref="14911307"/>
    <tag k="bicycle" v="yes"/>
    <tag k="created_by" v="Potlatch 0.7"/>
    <tag k="highway" v="pedestrian"/>
    <tag k="name" v="Karl-Friedrich-Straße"/>
  </way>
  <way id="3533907" version="3" timestamp="2009-06-19T13:03:22Z" uid="85761" user="klausis" changeset="1564619">
    <nd ref="14911309"/>
    <nd ref="14911308"/>
    <nd ref="14954728"/>
    <nd ref="14911307"/>
    <tag k="bicycle" v="yes"/>
    <tag k="highway" v="pedestrian"/>
    <tag k="name" v="Karl-Friedrich-Straße"/>
  </way>
  <way id="3533907" version="4" timestamp="2009-10-11T14:14:24Z" uid="149205" user="Anubis" changeset="2814913">
    <nd ref="14911309"/>
    <nd ref="528870298"/>
    <nd ref="14911308"/>
    <nd ref="14954728"/>
    <nd ref="528870305"/>
    <nd ref="14911307"/>
    <tag k="bicycle" v="yes"/>
    <tag k="highway" v="pedestrian"/>
    <tag k="name" v="Karl-Friedrich-Straße"/>
  </way>
  <way id="3533907" version="5" timestamp="2010-09-12T08:53:58Z" uid="165061" user="keinname" changeset="5756937">
    <nd ref="14911309"/>
    <nd ref="528870298"/>
    <nd ref="14911308"/>
    <nd ref="907899653"/>
    <nd ref="14954728"/>
    <nd ref="528870305"/>
    <nd ref="14911307"/>
    <tag k="bicycle" v="yes"/>
    <tag k="highway" v="pedestrian"/>
    <tag k="name" v="Karl-Friedrich-Straße"/>
  </way>
  <way id="3533907" version="6" timestamp="2010-12-17T19:42:31Z" uid="29717" user="eumiro" changeset="6689817">
    <nd ref="14911309"/>
    <nd ref="528870298"/>
    <nd ref="14911308"/>
    <nd ref="1043567443"/>
    <nd ref="1043567387"/>
    <nd ref="1043567457"/>
    <nd ref="907899653"/>
    <nd ref="14954728"/>
    <nd ref="528870305"/>
    <nd ref="14911307"/>
    <tag k="bicycle" v="yes"/>
    <tag k="highway" v="pedestrian"/>
    <tag k="name" v="Karl-Friedrich-Straße"/>
  </way>
  <way id="3533907" version="7" timestamp="2010-12-21T05:21:10Z" uid="13436" user="hkucharek" changeset="6722316">
    <nd ref="14911309"/>
    <nd ref="14911308"/>
    <nd ref="1043567443"/>
    <nd ref="1043567387"/>
    <nd ref="1043567457"/>
    <nd ref="907899653"/>
    <nd ref="14954728"/>
    <nd ref="528870305"/>
    <nd ref="14911307"/>
    <tag k="bicycle" v="yes"/>
    <tag k="highway" v="pedestrian"/>
    <tag k="name" v="Karl-Friedrich-Straße"/>
  </way>
  <way id="3533907" version="8" timestamp="2011-01-28T15:24:35Z" uid="6269" user="Mueck" changeset="7113586">
    <nd ref="14911309"/>
    <nd ref="14911308"/>
    <nd ref="1043567443"/>
    <nd ref="1043567387"/>
    <nd ref="1043567457"/>
    <nd ref="907899653"/>
    <nd ref="1124932946"/>
    <nd ref="1124932964"/>
    <nd ref="528870305"/>
    <nd ref="14911307"/>
    <tag k="bicycle" v="yes"/>
    <tag k="highway" v="pedestrian"/>
    <tag k="name" v="Karl-Friedrich-Straße"/>
  </way>
  <way id="3533907" version="9" timestamp="2011-11-18T11:06:04Z" uid="165061" user="keinname" changeset="9862687">
    <nd ref="14911309"/>
    <nd ref="1507192928"/>
    <nd ref="14911308"/>
    <nd ref="1043567443"/>
    <nd ref="1043567387"/>
    <nd ref="1043567457"/>
    <nd ref="907899653"/>
    <nd ref="1124932946"/>
    <nd ref="1124932964"/>
    <nd ref="528870305"/>
    <nd ref="14911307"/>
    <tag k="bicycle" v="yes"/>
    <tag k="highway" v="pedestrian"/>
    <tag k="name" v="Karl-Friedrich-Straße"/>
  </way>
  <way id="3533954" version="3" timestamp="2010-02-26T16:03:26Z" uid="6269" user="Mueck" changeset="3981443">
    <nd ref="412397"/>
    <nd ref="26027117"/>
    <nd ref="25505450"/>
    <nd ref="14963480"/>
    <tag k="abutters" v="retail"/>
    <tag k="highway" v="residential"/>
    <tag k="name" v="Karl-Friedrich-Straße"/>
  </way>
  <way id="3533954" version="4" timestamp="2010-05-30T09:44:37Z" uid="6893" user="[HEK]the_other" changeset="4849983">
    <nd ref="412397"/>
    <nd ref="26027117"/>
    <nd ref="25505450"/>
    <nd ref="14963480"/>
    <tag k="highway" v="residential"/>
    <tag k="name" v="Karl-Friedrich-Straße"/>
  </way>
  <way id="3533954" version="5" timestamp="2011-01-28T13:09:06Z" uid="6269" user="Mueck" changeset="7112784">
    <nd ref="1124828662"/>
    <nd ref="25505450"/>
    <nd ref="14963480"/>
    <tag k="highway" v="residential"/>
    <tag k="name" v="Karl-Friedrich-Straße"/>
  </way>
  <way id="3533954" version="6" timestamp="2011-01-28T15:24:35Z" uid="6269" user="Mueck" changeset="7113586">
    <nd ref="1124828662"/>
    <nd ref="25505450"/>
    <nd ref="14963480"/>
    <tag k="highway" v="residential"/>
    <tag k="name" v="Karl-Friedrich-Straße"/>
  </way>
  <way id="3533954" version="7" timestamp="2011-10-24T21:35:03Z" uid="165061" user="keinname" changeset="9647879">
    <nd ref="1124828662"/>
    <nd ref="25505450"/>
    <nd ref="14963480"/>
    <tag k="highway" v="residential"/>
    <tag k="maxspeed" v="30"/>
    <tag k="name" v="Karl-Friedrich-Straße"/>
    <tag k="zone:traffic" v="DE:urban"/>
  </way>
  <way id="3533954" version="8" timestamp="2011-12-22T12:35:05Z" uid="165061" user="keinname" changeset="10179222">
    <nd ref="1124828662"/>
    <nd ref="25505450"/>
    <nd ref="14963480"/>
    <tag k="access" v="destination"/>
    <tag k="highway" v="residential"/>
    <tag k="maxspeed" v="30"/>
    <tag k="name" v="Karl-Friedrich-Straße"/>
    <tag k="zone:traffic" v="DE:urban"/>
  </way>
  <way id="3533955" version="2" timestamp="2008-02-13T00:49:14Z" uid="6269" user="Mueck" changeset="111430">
    <nd ref="14963479"/>
    <nd ref="25505449"/>
    <nd ref="14911309"/>
    <tag k="abutters" v="retail"/>
    <tag k="created_by" v="Potlatch 0.7a"/>
    <tag k="highway" v="residential"/>
    <tag k="name" v="Karl-Friedrich-Straße"/>
  </way>
  <way id="3533955" version="3" timestamp="2009-06-19T13:04:34Z" uid="85761" user="klausis" changeset="1564619">
    <nd ref="14963479"/>
    <nd ref="25505449"/>
    <nd ref="14911309"/>
    <tag k="abutters" v="retail"/>
    <tag k="highway" v="residential"/>
    <tag k="name" v="Karl-Friedrich-Straße"/>
  </way>
  <way id="3533955" version="4" timestamp="2010-05-30T09:44:40Z" uid="6893" user="[HEK]the_other" changeset="4849983">
    <nd ref="14963479"/>
    <nd ref="25505449"/>
    <nd ref="14911309"/>
    <tag k="highway" v="residential"/>
    <tag k="name" v="Karl-Friedrich-Straße"/>
  </way>
  <way id="3533955" version="5" timestamp="2010-12-18T17:06:25Z" uid="29717" user="eumiro" changeset="6697336">
    <nd ref="14963479"/>
    <nd ref="25505449"/>
    <nd ref="1045525203"/>
    <nd ref="14911309"/>
    <tag k="highway" v="residential"/>
    <tag k="name" v="Karl-Friedrich-Straße"/>
  </way>
  <way id="3533955" version="6" timestamp="2011-10-24T21:35:30Z" uid="165061" user="keinname" changeset="9647879">
    <nd ref="14963479"/>
    <nd ref="25505449"/>
    <nd ref="1045525203"/>
    <nd ref="14911309"/>
    <tag k="highway" v="residential"/>
    <tag k="name" v="Karl-Friedrich-Straße"/>
    <tag k="zone:traffic" v="DE:urban"/>
  </way>
  <way id="3533955" version="7" timestamp="2012-01-24T22:40:17Z" uid="165061" user="keinname" changeset="10489274">
    <nd ref="14963479"/>
    <nd ref="25505449"/>
    <nd ref="1045525203"/>
    <nd ref="14911309"/>
    <tag k="highway" v="residential"/>
    <tag k="maxspeed" v="30"/>
    <tag k="name" v="Karl-Friedrich-Straße"/>
    <tag k="zone:traffic" v="DE:urban"/>
  </way>
  <way id="3533995" version="2" timestamp="2008-02-12T19:33:40Z" uid="6269" user="Mueck" changeset="111430">
    <nd ref="21493240"/>
    <nd ref="15506987"/>
    <tag k="created_by" v="Potlatch 0.7a"/>
    <tag k="highway" v="residential"/>
    <tag k="name" v="Waldstraße"/>
    <tag k="oneway" v="true"/>
  </way>
  <way id="3533995" version="3" timestamp="2008-02-12T19:33:50Z" uid="6269" user="Mueck" changeset="111430">
    <nd ref="21493240"/>
    <nd ref="15506987"/>
    <tag k="created_by" v="Potlatch 0.7a"/>
    <tag k="highway" v="residential"/>
    <tag k="name" v="Waldstraße"/>
  </way>
  <way id="3533995" version="4" timestamp="2009-06-19T13:04:22Z" uid="85761" user="klausis" changeset="1564619">
    <nd ref="21493240"/>
    <nd ref="15506987"/>
    <tag k="highway" v="residential"/>
    <tag k="name" v="Waldstraße"/>
  </way>
  <way id="3533996" version="2" timestamp="2008-02-10T01:58:34Z" uid="6269" user="Mueck" changeset="88956">
    <nd ref="14890764"/>
    <nd ref="14913725"/>
    <nd ref="14913722"/>
    <nd ref="14789976"/>
    <nd ref="21493241"/>
    <nd ref="14911300"/>
    <nd ref="26574827"/>
    <tag k="abutters" v="retail"/>
    <tag k="bicycle" v="yes"/>
    <tag k="created_by" v="Potlatch 0.7"/>
    <tag k="highway" v="pedestrian"/>
    <tag k="name" v="Herrenstraße"/>
  </way>
  <way id="3533996" version="3" timestamp="2008-02-10T02:08:16Z" uid="6269" user="Mueck" changeset="88956">
    <nd ref="14890764"/>
    <nd ref="14913725"/>
    <nd ref="14913722"/>
    <nd ref="14789976"/>
    <nd ref="21493241"/>
    <tag k="abutters" v="retail"/>
    <tag k="bicycle" v="yes"/>
    <tag k="created_by" v="Potlatch 0.7"/>
    <tag k="highway" v="pedestrian"/>
    <tag k="name" v="Herrenstraße"/>
  </way>
  <way id="3533996" version="4" timestamp="2008-11-30T15:07:02Z" uid="59242" user="tgoti" changeset="813526">
    <nd ref="303058630"/>
    <nd ref="14913725"/>
    <nd ref="14913722"/>
    <nd ref="14789976"/>
    <nd ref="21493241"/>
    <tag k="abutters" v="retail"/>
    <tag k="bicycle" v="yes"/>
    <tag k="created_by" v="Potlatch 0.7"/>
    <tag k="highway" v="pedestrian"/>
    <tag k="name" v="Herrenstraße"/>
  </way>
  <way id="3533996" version="5" timestamp="2008-12-25T13:48:35Z" uid="16330" user="aluka" changeset="600802">
    <nd ref="14890764"/>
    <nd ref="14913725"/>
    <nd ref="14913722"/>
    <nd ref="14789976"/>
    <nd ref="21493241"/>
    <tag k="abutters" v="retail"/>
    <tag k="bicycle" v="yes"/>
    <tag k="created_by" v="Potlatch 0.7"/>
    <tag k="highway" v="pedestrian"/>
    <tag k="name" v="Herrenstraße"/>
  </way>
  <way id="3533996" version="6" timestamp="2009-06-19T13:04:21Z" uid="85761" user="klausis" changeset="1564619">
    <nd ref="14890764"/>
    <nd ref="14913725"/>
    <nd ref="14913722"/>
    <nd ref="14789976"/>
    <nd ref="21493241"/>
    <tag k="abutters" v="retail"/>
    <tag k="bicycle" v="yes"/>
    <tag k="highway" v="pedestrian"/>
    <tag k="name" v="Herrenstraße"/>
  </way>
  <way id="3533996" version="7" timestamp="2010-05-30T09:44:41Z" uid="6893" user="[HEK]the_other" changeset="4849983">
    <nd ref="14890764"/>
    <nd ref="14913725"/>
    <nd ref="14913722"/>
    <nd ref="14789976"/>
    <nd ref="21493241"/>
    <tag k="bicycle" v="yes"/>
    <tag k="highway" v="pedestrian"/>
    <tag k="name" v="Herrenstraße"/>
  </way>
  <way id="3533996" version="8" timestamp="2011-01-28T22:15:20Z" uid="6269" user="Mueck" changeset="7117779">
    <nd ref="14890764"/>
    <nd ref="14913725"/>
    <nd ref="14913722"/>
    <nd ref="1125509939"/>
    <nd ref="14789976"/>
    <nd ref="1125509930"/>
    <nd ref="21493241"/>
    <tag k="bicycle" v="yes"/>
    <tag k="highway" v="pedestrian"/>
    <tag k="name" v="Herrenstraße"/>
  </way>
  <way id="3533996" version="9" timestamp="2012-01-31T11:53:19Z" uid="151736" user="Jennifer Neubauer" changeset="10548489">
    <nd ref="14890764"/>
    <nd ref="14913725"/>
    <nd ref="14913722"/>
    <nd ref="1612952337"/>
    <nd ref="1125509939"/>
    <nd ref="14789976"/>
    <nd ref="1125509930"/>
    <nd ref="21493241"/>
    <tag k="bicycle" v="yes"/>
    <tag k="highway" v="pedestrian"/>
    <tag k="name" v="Herrenstraße"/>
  </way>
  <way id="3533997" version="2" timestamp="2008-02-10T02:00:07Z" uid="6269" user="Mueck" changeset="88956">
    <nd ref="15254829"/>
    <nd ref="15254831"/>
    <nd ref="14911302"/>
    <nd ref="26574828"/>
    <tag k="bicycle" v="yes"/>
    <tag k="created_by" v="Potlatch 0.7"/>
    <tag k="highway" v="pedestrian"/>
    <tag k="name" v="Ritterstraße"/>
  </way>
  <way id="3533997" version="3" timestamp="2009-06-19T13:04:20Z" uid="85761" user="klausis" changeset="1564619">
    <nd ref="15254829"/>
    <nd ref="15254831"/>
    <nd ref="14911302"/>
    <nd ref="26574828"/>
    <tag k="bicycle" v="yes"/>
    <tag k="highway" v="pedestrian"/>
    <tag k="name" v="Ritterstraße"/>
  </way>
  <way id="3533997" version="4" timestamp="2011-01-28T22:15:20Z" uid="6269" user="Mueck" changeset="7117779">
    <nd ref="15254829"/>
    <nd ref="1125509943"/>
    <nd ref="15254831"/>
    <nd ref="1125509948"/>
    <nd ref="14911302"/>
    <nd ref="26574828"/>
    <tag k="bicycle" v="yes"/>
    <tag k="highway" v="pedestrian"/>
    <tag k="name" v="Ritterstraße"/>
  </way>
  <way id="3533997" version="5" timestamp="2011-05-19T17:14:57Z" uid="6893" user="[HEK]the_other" changeset="8191506">
    <nd ref="15254829"/>
    <nd ref="15254831"/>
    <nd ref="1291810645"/>
    <nd ref="1125509948"/>
    <nd ref="14911302"/>
    <nd ref="26574828"/>
    <tag k="bicycle" v="yes"/>
    <tag k="highway" v="pedestrian"/>
    <tag k="name" v="Ritterstraße"/>
  </way>
  <way id="3533997" version="6" timestamp="2012-03-10T16:54:49Z" uid="11374" user="q_un_go" changeset="10934107">
    <nd ref="15254829"/>
    <nd ref="15254831"/>
    <nd ref="1291810645"/>
    <nd ref="1125509948"/>
    <nd ref="1668901675"/>
    <nd ref="26574828"/>
    <tag k="bicycle" v="yes"/>
    <tag k="highway" v="pedestrian"/>
    <tag k="name" v="Ritterstraße"/>
  </way>
  <way id="3533017" version="11" timestamp="2012-04-15T16:52:37Z" uid="35468" user="Blunauer" changeset="11312861">
    <nd ref="14962598"/>
    <nd ref="1127842988"/>
    <nd ref="1126996255"/>
    <nd ref="14962619"/>
    <nd ref="17716719"/>
    <nd ref="1226055971"/>
    <nd ref="15520030"/>
    <nd ref="264971999"/>
    <nd ref="1718084081"/>
    <tag k="highway" v="residential"/>
    <tag k="maxspeed" v="30"/>
    <tag k="name" v="Lessingstraße"/>
    <tag k="postal_code" v="76135"/>
  </way>
  <way id="3533017" version="12" timestamp="2012-04-17T18:45:58Z" uid="35468" user="Blunauer" changeset="11336375">
    <nd ref="14962598"/>
    <nd ref="1127842988"/>
    <nd ref="1126996255"/>
    <nd ref="14962619"/>
    <nd ref="17716719"/>
    <nd ref="1720944234"/>
    <nd ref="15520030"/>
    <nd ref="264971999"/>
    <nd ref="1718084081"/>
    <tag k="highway" v="residential"/>
    <tag k="maxspeed" v="30"/>
    <tag k="name" v="Lessingstraße"/>
    <tag k="postal_code" v="76135"/>
  </way>
  <way id="3533017" version="13" timestamp="2012-06-04T13:08:37Z" uid="38515" user="soeren_gasch" changeset="11796433">
    <nd ref="14962598"/>
    <nd ref="1127842988"/>
    <nd ref="1776022804"/>
    <nd ref="17716719"/>
    <nd ref="1776022854"/>
    <nd ref="1720944234"/>
    <nd ref="15520030"/>
    <nd ref="264971999"/>
    <nd ref="1718084081"/>
    <tag k="highway" v="residential"/>
    <tag k="maxspeed" v="30"/>
    <tag k="name" v="Lessingstraße"/>
    <tag k="postal_code" v="76135"/>
  </way>
  <way id="3533017" version="14" timestamp="2012-07-14T19:32:43Z" uid="659944" user="Pandabärchen" changeset="12220868">
    <nd ref="14962598"/>
    <nd ref="1127842988"/>
    <nd ref="17716719"/>
    <nd ref="1776022854"/>
    <nd ref="1720944234"/>
    <nd ref="15520030"/>
    <nd ref="264971999"/>
    <nd ref="1718084081"/>
    <tag k="highway" v="residential"/>
    <tag k="maxspeed" v="30"/>
    <tag k="name" v="Lessingstraße"/>
    <tag k="postal_code" v="76135"/>
  </way>
  <way id="3533017" version="15" timestamp="2012-07-17T13:31:17Z" uid="722137" user="OSMF Redaction Account" changeset="12266545">
    <nd ref="14962598"/>
    <nd ref="17716719"/>
    <nd ref="1776022854"/>
    <nd ref="1720944234"/>
    <nd ref="15520030"/>
    <nd ref="264971999"/>
    <nd ref="1718084081"/>
    <tag k="highway" v="residential"/>
    <tag k="maxspeed" v="30"/>
    <tag k="name" v="Lessingstraße"/>
    <tag k="postal_code" v="76135"/>
  </way>
  <way id="3533017" version="16" timestamp="2012-07-17T18:22:59Z" uid="38515" user="soeren_gasch" changeset="12270173">
    <nd ref="14962598"/>
    <nd ref="1828924649"/>
    <nd ref="1828924652"/>
    <nd ref="17716719"/>
    <nd ref="1776022854"/>
    <nd ref="1720944234"/>
    <nd ref="15520030"/>
    <nd ref="264971999"/>
    <nd ref="1718084081"/>
    <tag k="highway" v="residential"/>
    <tag k="maxspeed" v="30"/>
    <tag k="name" v="Lessingstraße"/>
    <tag k="postal_code" v="76135"/>
  </way>
  <way id="3533018" version="8" timestamp="2012-04-15T14:14:28Z" uid="35468" user="Blunauer" changeset="11310822">
    <nd ref="14962614"/>
    <nd ref="1127842839"/>
    <nd ref="1717901836"/>
    <nd ref="1226055889"/>
    <nd ref="1717901884"/>
    <nd ref="1717901897"/>
    <nd ref="15357693"/>
    <tag k="highway" v="tertiary"/>
    <tag k="name" v="Steinhäuserstraße"/>
  </way>
  <way id="3533018" version="9" timestamp="2012-04-17T18:50:40Z" uid="35468" user="Blunauer" changeset="11336440">
    <nd ref="14962614"/>
    <nd ref="1127842839"/>
    <nd ref="1717901836"/>
    <nd ref="1720950713"/>
    <nd ref="1717901884"/>
    <nd ref="1717901897"/>
    <nd ref="15357693"/>
    <tag k="highway" v="tertiary"/>
    <tag k="name" v="Steinhäuserstraße"/>
  </way>
  <way id="3533018" version="10" timestamp="2012-04-23T17:37:56Z" uid="659944" user="Pandabärchen" changeset="11397731"/>
  <way id="3533019" version="7" timestamp="2012-06-05T12:18:19Z" uid="659944" user="Pandabärchen" changeset="11805464"/>
  <way id="3533020" version="7" timestamp="2012-04-09T11:30:46Z" uid="165061" user="mapper999" changeset="11236090">
    <nd ref="412413"/>
    <nd ref="990057504"/>
    <nd ref="1260179285"/>
    <nd ref="17716640"/>
    <nd ref="1708328393"/>
    <nd ref="25173691"/>
    <nd ref="17716594"/>
    <nd ref="1708328365"/>
    <nd ref="1708328290"/>
    <nd ref="25173699"/>
    <nd ref="15503681"/>
    <tag k="bicycle" v="yes"/>
    <tag k="highway" v="footway"/>
    <tag k="name" v="Nottinghamanlage"/>
  </way>
  <way id="3533020" version="8" timestamp="2012-07-17T13:31:53Z" uid="722137" user="OSMF Redaction Account" changeset="12266591">
    <nd ref="412413"/>
    <nd ref="990057504"/>
    <nd ref="1260179285"/>
    <nd ref="17716640"/>
    <nd ref="1708328393"/>
    <nd ref="25173691"/>
    <nd ref="17716594"/>
    <nd ref="1708328365"/>
    <nd ref="1708328290"/>
    <nd ref="25173699"/>
    <nd ref="15503681"/>
    <tag k="highway" v="cycleway"/>
    <tag k="name" v="Nottinghamanlage"/>
  </way>
  <way id="3533022" version="8" timestamp="2012-07-17T13:31:40Z" uid="722137" user="OSMF Redaction Account" changeset="12266591">
    <nd ref="16082741"/>
    <nd ref="16082742"/>
    <tag k="highway" v="residential"/>
    <tag k="name" v="Nelkenstraße"/>
  </way>
  <way id="3533239" version="8" timestamp="2012-07-19T19:38:14Z" uid="722137" user="OSMF Redaction Account" changeset="12345081">
    <nd ref="14482126"/>
    <nd ref="14959958"/>
    <nd ref="14482127"/>
    <tag k="highway" v="residential"/>
    <tag k="maxspeed" v="30"/>
    <tag k="name" v="Klosestraße"/>
    <tag k="oneway" v="yes"/>
  </way>
  <way id="3533240" version="18" timestamp="2012-04-12T20:27:09Z" uid="442210" user="dwausr" changeset="11280929"/>
  <way id="3533241" version="21" timestamp="2012-04-23T14:39:33Z" uid="35468" user="Blunauer" changeset="11395924">
    <nd ref="14911348"/>
    <nd ref="1118886396"/>
    <nd ref="1315256610"/>
    <nd ref="655291827"/>
    <nd ref="1727955812"/>
    <nd ref="16726020"/>
    <nd ref="1136507065"/>
    <nd ref="1274627015"/>
    <nd ref="1119073226"/>
    <nd ref="1119072875"/>
    <nd ref="1136507056"/>
    <tag k="bicycle" v="yes"/>
    <tag k="highway" v="tertiary"/>
    <tag k="lanes" v="1"/>
    <tag k="maxspeed" v="30"/>
    <tag k="name" v="Poststraße"/>
    <tag k="note" v="im SHP des NVK: III"/>
    <tag k="oneway" v="yes"/>
    <tag k="zone:traffic" v="DE:urban"/>
  </way>
  <way id="3533241" version="22" timestamp="2012-07-19T19:38:24Z" uid="722137" user="OSMF Redaction Account" changeset="12345081">
    <nd ref="14911348"/>
    <nd ref="1315256610"/>
    <nd ref="655291827"/>
    <nd ref="1727955812"/>
    <nd ref="16726020"/>
    <nd ref="1136507065"/>
    <nd ref="1274627015"/>
    <nd ref="1136507056"/>
    <tag k="bicycle" v="yes"/>
    <tag k="highway" v="primary"/>
    <tag k="lanes" v="1"/>
    <tag k="maxspeed" v="30"/>
    <tag k="name" v="Poststraße"/>
    <tag k="oneway" v="yes"/>
    <tag k="zone:traffic" v="DE:urban"/>
  </way>
  <way id="3533241" version="23" timestamp="2012-07-20T15:29:58Z" uid="42208" user="JanTH" changeset="12377388">
    <nd ref="14911348"/>
    <nd ref="1832146194"/>
    <nd ref="1118886396"/>
    <nd ref="1315256610"/>
    <nd ref="655291827"/>
    <nd ref="1727955812"/>
    <nd ref="16726020"/>
    <nd ref="1136507065"/>
    <nd ref="1274627015"/>
    <nd ref="1136507056"/>
    <tag k="bicycle" v="yes"/>
    <tag k="highway" v="tertiary"/>
    <tag k="lanes" v="1"/>
    <tag k="maxspeed" v="30"/>
    <tag k="name" v="Poststraße"/>
    <tag k="oneway" v="yes"/>
    <tag k="zone:traffic" v="DE:urban"/>
  </way>
  <way id="3533244" version="15" timestamp="2012-09-03T18:26:08Z" uid="189170" user="Videoüberwachter" changeset="12971276">
    <nd ref="1583423101"/>
    <nd ref="1583423102"/>
    <nd ref="1583423104"/>
    <nd ref="1583423105"/>
    <nd ref="1583423111"/>
    <nd ref="1583423118"/>
    <nd ref="1583423124"/>
    <nd ref="1583423131"/>
    <nd ref="1583423133"/>
    <nd ref="14580902"/>
    <nd ref="1583423137"/>
    <nd ref="1583423138"/>
    <nd ref="1583423136"/>
    <nd ref="1583423135"/>
    <nd ref="28412244"/>
    <nd ref="1583423134"/>
    <nd ref="15754136"/>
    <nd ref="16816728"/>
    <nd ref="14479247"/>
    <nd ref="28412243"/>
    <nd ref="1583423132"/>
    <nd ref="1583423130"/>
    <nd ref="1583423128"/>
    <nd ref="1583423127"/>
    <nd ref="1583423126"/>
    <tag k="highway" v="residential"/>
    <tag k="maxspeed" v="30"/>
    <tag k="name" v="Welfenstraße"/>
    <tag k="odbl" v="clean"/>
  </way>
  <way id="3533311" version="7" timestamp="2012-04-13T11:37:22Z" uid="35468" user="Blunauer" changeset="11286615">
    <nd ref="14851992"/>
    <nd ref="1365674628"/>
    <nd ref="1365674625"/>
    <nd ref="1365674621"/>
    <nd ref="1226195856"/>
    <nd ref="14851993"/>
    <nd ref="14851994"/>
    <nd ref="1198283418"/>
    <nd ref="14851995"/>
    <tag k="highway" v="residential"/>
    <tag k="name" v="Breite Straße"/>
  </way>
  <way id="3533311" version="8" timestamp="2012-07-19T19:39:18Z" uid="722137" user="OSMF Redaction Account" changeset="12345081">
    <nd ref="14851992"/>
    <nd ref="1365674628"/>
    <nd ref="1365674625"/>
    <nd ref="1365674621"/>
    <nd ref="14851993"/>
    <nd ref="14851994"/>
    <nd ref="14851995"/>
    <tag k="highway" v="residential"/>
    <tag k="name" v="Breite Straße"/>
  </way>
  <way id="3533312" version="5" timestamp="2012-04-20T13:21:03Z" uid="593007" user="Trailhunter" changeset="11364022">
    <nd ref="16809391"/>
    <nd ref="1198283528"/>
    <nd ref="1198283392"/>
    <nd ref="1724107250"/>
    <nd ref="25278261"/>
    <nd ref="1198283542"/>
    <nd ref="16816730"/>
    <tag k="highway" v="tertiary"/>
    <tag k="name" v="Breite Straße"/>
    <tag k="note" v="im SHP des NVK: III"/>
  </way>
  <way id="3533312" version="6" timestamp="2012-07-19T19:39:37Z" uid="722137" user="OSMF Redaction Account" changeset="12345081">
    <nd ref="16809391"/>
    <nd ref="1724107250"/>
    <nd ref="25278261"/>
    <nd ref="16816730"/>
    <tag k="highway" v="secondary"/>
    <tag k="name" v="Breite Straße"/>
  </way>
  <way id="3533312" version="7" timestamp="2012-07-20T09:45:25Z" uid="165061" user="mapper999" changeset="12369801">
    <nd ref="16809391"/>
    <nd ref="1724107250"/>
    <nd ref="25278261"/>
    <nd ref="16816730"/>
    <tag k="highway" v="tertiary"/>
    <tag k="name" v="Breite Straße"/>
  </way>
  <way id="3533312" version="8" timestamp="2012-07-20T10:07:02Z" uid="722137" user="OSMF Redaction Account" changeset="12370690">
    <nd ref="16809391"/>
    <nd ref="1724107250"/>
    <nd ref="25278261"/>
    <nd ref="16816730"/>
    <tag k="name" v="Breite Straße"/>
  </way>
  <way id="3533312" version="9" timestamp="2012-07-20T13:41:42Z" uid="42208" user="JanTH" changeset="12377388">
    <nd ref="16809391"/>
    <nd ref="1198283528"/>
    <nd ref="1832051562"/>
    <nd ref="1724107250"/>
    <nd ref="25278261"/>
    <nd ref="16816730"/>
    <tag k="highway" v="tertiary"/>
    <tag k="name" v="Breite Straße"/>
  </way>
  <way id="3533350" version="11" timestamp="2012-07-20T09:35:17Z" uid="722137" user="OSMF Redaction Account" changeset="12370034">
    <nd ref="1604255252"/>
    <nd ref="14849534"/>
    <nd ref="16816759"/>
    <nd ref="972509337"/>
    <nd ref="1188913550"/>
    <nd ref="14851990"/>
    <tag k="highway" v="residential"/>
    <tag k="name" v="Wartburgstraße"/>
  </way>
  <way id="3533350" version="12" timestamp="2012-07-20T13:28:51Z" uid="42208" user="JanTH" changeset="12377388">
    <nd ref="14580908"/>
    <nd ref="1604255252"/>
    <nd ref="14849534"/>
    <nd ref="16816759"/>
    <nd ref="972509337"/>
    <nd ref="1188913550"/>
    <nd ref="14851990"/>
    <tag k="highway" v="residential"/>
    <tag k="name" v="Wartburgstraße"/>
  </way>
  <way id="3533350" version="13" timestamp="2012-07-20T13:49:58Z" uid="42208" user="JanTH" changeset="12377388">
    <nd ref="14580908"/>
    <nd ref="1604255252"/>
    <nd ref="14849534"/>
    <nd ref="16816759"/>
    <nd ref="972509337"/>
    <nd ref="1188913550"/>
    <nd ref="14851990"/>
    <tag k="highway" v="tertiary"/>
    <tag k="name" v="Wartburgstraße"/>
  </way>
  <way id="3533350" version="14" timestamp="2012-07-21T16:15:34Z" uid="38515" user="soeren_gasch" changeset="12414430">
    <nd ref="14580908"/>
    <nd ref="1604255252"/>
    <nd ref="1833307136"/>
    <nd ref="1833307047"/>
    <nd ref="16816759"/>
    <nd ref="972509337"/>
    <nd ref="1188913550"/>
    <nd ref="14851990"/>
    <tag k="highway" v="tertiary"/>
    <tag k="name" v="Wartburgstraße"/>
  </way>
  <way id="3533402" version="7" timestamp="2012-04-13T21:26:29Z" uid="35468" user="Blunauer" changeset="11292754">
    <nd ref="1715210812"/>
    <nd ref="1128313022"/>
    <nd ref="16082668"/>
    <nd ref="16082664"/>
    <nd ref="1366143695"/>
    <nd ref="1125495835"/>
    <nd ref="1366143697"/>
    <nd ref="1125496124"/>
    <nd ref="1366143696"/>
    <nd ref="1125496297"/>
    <nd ref="16082665"/>
    <nd ref="16082666"/>
    <tag k="highway" v="cycleway"/>
  </way>
  <way id="3533402" version="8" timestamp="2012-07-17T14:52:16Z" uid="722137" user="OSMF Redaction Account" changeset="12267763">
    <nd ref="1715210812"/>
    <nd ref="16082668"/>
    <nd ref="16082664"/>
    <nd ref="1366143695"/>
    <nd ref="1125495835"/>
    <nd ref="1366143697"/>
    <nd ref="1125496124"/>
    <nd ref="1366143696"/>
    <nd ref="1125496297"/>
    <nd ref="16082665"/>
    <nd ref="16082666"/>
    <tag k="highway" v="cycleway"/>
  </way>
  <way id="3533497" version="13" timestamp="2012-07-17T14:52:11Z" uid="722137" user="OSMF Redaction Account" changeset="12267763">
    <nd ref="1632373173"/>
    <nd ref="14963308"/>
    <nd ref="15848801"/>
    <nd ref="14963306"/>
    <tag k="highway" v="residential"/>
    <tag k="maxspeed" v="30"/>
    <tag k="name" v="Weltzienstraße"/>
    <tag k="oneway" v="yes"/>
  </way>
  <way id="3533498" version="10" timestamp="2012-07-17T14:52:13Z" uid="722137" user="OSMF Redaction Account" changeset="12267763">
    <nd ref="14963293"/>
    <nd ref="14963294"/>
    <nd ref="14963295"/>
    <nd ref="1634196307"/>
    <nd ref="14963302"/>
    <nd ref="14963304"/>
    <tag k="highway" v="residential"/>
    <tag k="maxspeed" v="30"/>
    <tag k="name" v="Weltzienstraße"/>
    <tag k="oneway" v="true"/>
    <tag k="parking:lane:left" v="diagonal"/>
    <tag k="parking:lane:right" v="inline"/>
  </way>
  <way id="3533498" version="11" timestamp="2012-07-20T18:55:57Z" uid="63969" user="olvagor" changeset="12387744">
    <nd ref="1832341801"/>
    <nd ref="14963293"/>
    <nd ref="14963294"/>
    <nd ref="14963295"/>
    <nd ref="1634196307"/>
    <nd ref="14963302"/>
    <nd ref="14963304"/>
    <tag k="highway" v="residential"/>
    <tag k="maxspeed" v="30"/>
    <tag k="name" v="Weltzienstraße"/>
    <tag k="oneway" v="true"/>
    <tag k="parking:lane:left" v="diagonal"/>
    <tag k="parking:lane:right" v="inline"/>
  </way>
  <way id="3533498" version="12" timestamp="2012-07-26T13:46:55Z" uid="118352" user="kamarc" changeset="12499572">
    <nd ref="1832341801"/>
    <nd ref="14963294"/>
    <nd ref="14963295"/>
    <nd ref="1634196307"/>
    <nd ref="1838772403"/>
    <nd ref="14963302"/>
    <nd ref="14963304"/>
    <tag k="highway" v="residential"/>
    <tag k="maxspeed" v="30"/>
    <tag k="name" v="Weltzienstraße"/>
    <tag k="oneway" v="true"/>
    <tag k="parking:lane:left" v="diagonal"/>
    <tag k="parking:lane:right" v="inline"/>
  </way>
  <way id="3533582" version="8" timestamp="2012-07-18T02:43:04Z" uid="38515" user="soeren_gasch" changeset="12274230">
    <nd ref="1583423165"/>
    <nd ref="1829332403"/>
    <nd ref="1583423175"/>
    <tag k="highway" v="residential"/>
    <tag k="name" v="Nokkstraße"/>
  </way>
  <way id="3533602" version="8" timestamp="2012-05-31T20:27:13Z" uid="659944" user="Pandabärchen" changeset="11761831">
    <nd ref="15015707"/>
    <nd ref="1590912147"/>
    <nd ref="378995305"/>
    <nd ref="378995306"/>
    <nd ref="378995307"/>
    <nd ref="378995308"/>
    <nd ref="378995309"/>
    <nd ref="15015698"/>
    <tag k="highway" v="residential"/>
    <tag k="maxspeed" v="30"/>
    <tag k="name" v="Friedenstraße"/>
  </way>
  <way id="3533602" version="9" timestamp="2012-07-17T18:22:57Z" uid="38515" user="soeren_gasch" changeset="12270173">
    <nd ref="15015707"/>
    <nd ref="1590912147"/>
    <nd ref="378995305"/>
    <nd ref="378995306"/>
    <nd ref="378995307"/>
    <nd ref="378995308"/>
    <nd ref="378995309"/>
    <nd ref="1587602288"/>
    <tag k="highway" v="residential"/>
    <tag k="maxspeed" v="30"/>
    <tag k="name" v="Friedenstraße"/>
  </way>
  <way id="3533904" version="12" timestamp="2012-04-22T14:53:27Z" uid="35468" user="Blunauer" changeset="11385163">
    <nd ref="1726625454"/>
    <nd ref="277301602"/>
    <tag k="highway" v="residential"/>
    <tag k="maxspeed" v="30"/>
    <tag k="name" v="Erbprinzenstraße"/>
    <tag k="zone:traffic" v="DE:urban"/>
  </way>
  <way id="3533904" version="13" timestamp="2012-07-17T13:31:37Z" uid="722137" user="OSMF Redaction Account" changeset="12266591">
    <nd ref="1726625454"/>
    <nd ref="277301602"/>
    <tag k="highway" v="unclassified"/>
    <tag k="maxspeed" v="30"/>
    <tag k="name" v="Erbprinzenstraße"/>
    <tag k="zone:traffic" v="DE:urban"/>
  </way>
  <way id="3533905" version="8" timestamp="2012-04-21T14:01:37Z" uid="35468" user="Blunauer" changeset="11374024">
    <nd ref="14890762"/>
    <nd ref="1725394231"/>
    <nd ref="270328200"/>
    <nd ref="21492842"/>
    <nd ref="1725394267"/>
    <tag k="highway" v="residential"/>
    <tag k="name" v="Lammstraße"/>
  </way>
  <way id="3533905" version="9" timestamp="2012-04-22T14:53:28Z" uid="35468" user="Blunauer" changeset="11385163">
    <nd ref="1726625454"/>
    <nd ref="1725394231"/>
    <nd ref="270328200"/>
    <nd ref="21492842"/>
    <nd ref="1725394267"/>
    <tag k="highway" v="residential"/>
    <tag k="name" v="Lammstraße"/>
  </way>
  <way id="3533905" version="10" timestamp="2012-07-17T13:31:37Z" uid="722137" user="OSMF Redaction Account" changeset="12266591">
    <nd ref="1726625454"/>
    <nd ref="1725394231"/>
    <nd ref="21492842"/>
    <nd ref="1725394267"/>
    <tag k="highway" v="unclassified"/>
    <tag k="name" v="Lammstraße"/>
  </way>
  <way id="3533907" version="10" timestamp="2012-04-19T18:34:45Z" uid="35468" user="Blunauer" changeset="11356821">
    <nd ref="1723166349"/>
    <nd ref="1507192928"/>
    <nd ref="14911308"/>
    <nd ref="1043567443"/>
    <nd ref="1043567387"/>
    <nd ref="1043567457"/>
    <nd ref="907899653"/>
    <nd ref="1124932946"/>
    <nd ref="1124932964"/>
    <nd ref="528870305"/>
    <nd ref="14911307"/>
    <tag k="bicycle" v="yes"/>
    <tag k="highway" v="pedestrian"/>
    <tag k="name" v="Karl-Friedrich-Straße"/>
  </way>
  <way id="3533907" version="11" timestamp="2012-05-12T14:17:31Z" uid="35468" user="Blunauer" changeset="11576957">
    <nd ref="1723166349"/>
    <nd ref="1507192928"/>
    <nd ref="14911308"/>
    <nd ref="1043567443"/>
    <nd ref="1043567387"/>
    <nd ref="1043567457"/>
    <nd ref="907899653"/>
    <nd ref="1124932946"/>
    <nd ref="1124932964"/>
    <nd ref="1749701272"/>
    <nd ref="14911307"/>
    <tag k="bicycle" v="yes"/>
    <tag k="highway" v="pedestrian"/>
    <tag k="name" v="Karl-Friedrich-Straße"/>
  </way>
  <way id="3533907" version="12" timestamp="2012-06-14T16:27:01Z" uid="165061" user="mapper999" changeset="11896734"/>
  <way id="3533954" version="9" timestamp="2012-07-17T13:30:02Z" uid="722137" user="OSMF Redaction Account" changeset="12266545">
    <nd ref="25505450"/>
    <nd ref="14963480"/>
    <tag k="access" v="destination"/>
    <tag k="highway" v="unclassified"/>
    <tag k="maxspeed" v="30"/>
    <tag k="name" v="Karl-Friedrich-Straße"/>
    <tag k="zone:traffic" v="DE:urban"/>
  </way>
  <way id="3533954" version="10" timestamp="2012-08-16T18:07:47Z" uid="810517" user="Thomas Pajor" changeset="12753692">
    <nd ref="1868897653"/>
    <nd ref="25505450"/>
    <nd ref="14963480"/>
    <tag k="access" v="destination"/>
    <tag k="highway" v="unclassified"/>
    <tag k="maxspeed" v="30"/>
    <tag k="name" v="Karl-Friedrich-Straße"/>
    <tag k="zone:traffic" v="DE:urban"/>
  </way>
  <way id="3533955" version="8" timestamp="2012-04-19T18:34:46Z" uid="35468" user="Blunauer" changeset="11356821">
    <nd ref="14963479"/>
    <nd ref="25505449"/>
    <nd ref="1045525203"/>
    <nd ref="1723166346"/>
    <nd ref="1723166349"/>
    <tag k="highway" v="residential"/>
    <tag k="maxspeed" v="30"/>
    <tag k="name" v="Karl-Friedrich-Straße"/>
    <tag k="zone:traffic" v="DE:urban"/>
  </way>
  <way id="3533955" version="9" timestamp="2012-04-24T22:17:45Z" uid="165061" user="mapper999" changeset="11409981">
    <nd ref="14963479"/>
    <nd ref="25505449"/>
    <nd ref="1729642860"/>
    <nd ref="1045525203"/>
    <nd ref="1723166346"/>
    <nd ref="1723166349"/>
    <tag k="highway" v="residential"/>
    <tag k="maxspeed" v="30"/>
    <tag k="name" v="Karl-Friedrich-Straße"/>
    <tag k="zone:traffic" v="DE:urban"/>
  </way>
  <way id="3533955" version="10" timestamp="2012-07-17T13:31:35Z" uid="722137" user="OSMF Redaction Account" changeset="12266591">
    <nd ref="14963479"/>
    <nd ref="25505449"/>
    <nd ref="1729642860"/>
    <nd ref="1045525203"/>
    <nd ref="1723166346"/>
    <nd ref="1723166349"/>
    <tag k="highway" v="unclassified"/>
    <tag k="maxspeed" v="30"/>
    <tag k="name" v="Karl-Friedrich-Straße"/>
    <tag k="zone:traffic" v="DE:urban"/>
  </way>
  <way id="3533995" version="5" timestamp="2012-04-16T20:07:43Z" uid="35468" user="Blunauer" changeset="11326532">
    <nd ref="1719733157"/>
    <nd ref="15506987"/>
    <tag k="highway" v="residential"/>
    <tag k="name" v="Waldstraße"/>
  </way>
  <way id="3533995" version="6" timestamp="2012-04-17T18:36:37Z" uid="35468" user="Blunauer" changeset="11336256">
    <nd ref="1719733157"/>
    <nd ref="1720933513"/>
    <tag k="highway" v="residential"/>
    <tag k="name" v="Waldstraße"/>
  </way>
  <way id="3533996" version="10" timestamp="2012-04-16T20:07:41Z" uid="35468" user="Blunauer" changeset="11326532">
    <nd ref="14890764"/>
    <nd ref="14913725"/>
    <nd ref="14913722"/>
    <nd ref="1612952337"/>
    <nd ref="1125509939"/>
    <nd ref="14789976"/>
    <nd ref="1125509930"/>
    <nd ref="1719733148"/>
    <tag k="bicycle" v="yes"/>
    <tag k="highway" v="pedestrian"/>
    <tag k="name" v="Herrenstraße"/>
  </way>
  <way id="3533996" version="11" timestamp="2012-04-21T14:01:35Z" uid="35468" user="Blunauer" changeset="11374024">
    <nd ref="1725394302"/>
    <nd ref="14913725"/>
    <nd ref="14913722"/>
    <nd ref="1612952337"/>
    <nd ref="1125509939"/>
    <nd ref="14789976"/>
    <nd ref="1125509930"/>
    <nd ref="1719733148"/>
    <tag k="bicycle" v="yes"/>
    <tag k="highway" v="pedestrian"/>
    <tag k="name" v="Herrenstraße"/>
  </way>
  <way id="3533996" version="12" timestamp="2012-06-20T11:40:06Z" uid="165061" user="mapper999" changeset="11957772">
    <nd ref="1725394302"/>
    <nd ref="14913725"/>
    <nd ref="14913722"/>
    <nd ref="1612952337"/>
    <nd ref="1125509939"/>
    <nd ref="14789976"/>
    <nd ref="1125509930"/>
    <nd ref="1795574213"/>
    <nd ref="1719733148"/>
    <tag k="bicycle" v="yes"/>
    <tag k="highway" v="pedestrian"/>
    <tag k="name" v="Herrenstraße"/>
  </way>
  <way id="3533996" version="13" timestamp="2012-07-12T17:14:04Z" uid="165061" user="mapper999" changeset="12197443">
    <nd ref="1725394302"/>
    <nd ref="14913725"/>
    <nd ref="14913722"/>
    <nd ref="1612952337"/>
    <nd ref="1125509939"/>
    <nd ref="14789976"/>
    <nd ref="1125509930"/>
    <nd ref="1795574213"/>
    <nd ref="1823133961"/>
    <nd ref="1719733148"/>
    <tag k="bicycle" v="yes"/>
    <tag k="highway" v="pedestrian"/>
    <tag k="name" v="Herrenstraße"/>
  </way>
  <way id="3533996" version="14" timestamp="2012-07-17T13:29:17Z" uid="722137" user="OSMF Redaction Account" changeset="12266545">
    <nd ref="1725394302"/>
    <nd ref="14913725"/>
    <nd ref="14913722"/>
    <nd ref="1612952337"/>
    <nd ref="14789976"/>
    <nd ref="1795574213"/>
    <nd ref="1823133961"/>
    <nd ref="1719733148"/>
    <tag k="highway" v="pedestrian"/>
    <tag k="name" v="Herrenstraße"/>
  </way>
  <way id="3533997" version="7" timestamp="2012-04-16T20:38:58Z" uid="35468" user="Blunauer" changeset="11326965">
    <nd ref="15254829"/>
    <nd ref="15254831"/>
    <nd ref="1291810645"/>
    <nd ref="1125509948"/>
    <nd ref="1668901675"/>
    <nd ref="1719786879"/>
    <tag k="bicycle" v="yes"/>
    <tag k="highway" v="pedestrian"/>
    <tag k="name" v="Ritterstraße"/>
  </way>
  <way id="3533997" version="8" timestamp="2012-04-22T14:53:29Z" uid="35468" user="Blunauer" changeset="11385163">
    <nd ref="1726625507"/>
    <nd ref="15254831"/>
    <nd ref="1291810645"/>
    <nd ref="1125509948"/>
    <nd ref="1668901675"/>
    <nd ref="1719786879"/>
    <tag k="bicycle" v="yes"/>
    <tag k="highway" v="pedestrian"/>
    <tag k="name" v="Ritterstraße"/>
  </way>
  <way id="3533997" version="9" timestamp="2012-06-14T16:26:52Z" uid="165061" user="mapper999" changeset="11896734">
    <nd ref="1726625507"/>
    <nd ref="15254831"/>
    <nd ref="1668901675"/>
    <nd ref="1719786879"/>
    <tag k="bicycle" v="yes"/>
    <tag k="highway" v="pedestrian"/>
    <tag k="name" v="Ritterstraße"/>
  </way>
  <way id="3533997" version="10" timestamp="2012-06-20T11:40:11Z" uid="165061" user="mapper999" changeset="11957772">
    <nd ref="1726625507"/>
    <nd ref="15254831"/>
    <nd ref="1795574231"/>
    <nd ref="1668901675"/>
    <nd ref="1719786879"/>
    <tag k="bicycle" v="yes"/>
    <tag k="highway" v="pedestrian"/>
    <tag k="name" v="Ritterstraße"/>
  </way>
  <way id="3533997" version="11" timestamp="2012-07-17T13:31:46Z" uid="722137" user="OSMF Redaction Account" changeset="12266591">
    <nd ref="1726625507"/>
    <nd ref="15254831"/>
    <nd ref="1795574231"/>
    <nd ref="1668901675"/>
    <nd ref="1719786879"/>
    <tag k="highway" v="pedestrian"/>
    <tag k="name" v="Ritterstraße"/>
  </way>
</osm>
