<?xml version='1.0' encoding='UTF-8'?>
<osm version="0.6" generator="libosmium/2.20.0">
  <way id="35345149" version="3" timestamp="2010-04-03T04:15:10Z" uid="20587" user="balrog-kun" changeset="4309442">
    <nd ref="41601114"/>
    <nd ref="414461875"/>
    <nd ref="414461268"/>
    <nd ref="414461271"/>
    <nd ref="414461273"/>
    <nd ref="41739552"/>
    <nd ref="41739555"/>
    <nd ref="41739559"/>
    <tag k="created_by" v="Potlatch 0.10f"/>
    <tag k="highway" v="residential"/>
    <tag k="name" v="West Holly Street"/>
    <tag k="tiger:cfcc" v="A41"/>
    <tag k="tiger:county" v="Maricopa, AZ"/>
    <tag k="tiger:name_base" v="Holly"/>
    <tag k="tiger:name_direction_prefix" v="W"/>
    <tag k="tiger:name_type" v="St"/>
    <tag k="tiger:reviewed" v="no"/>
    <tag k="tiger:separated" v="no"/>
    <tag k="tiger:source" v="tiger_import_dch_v0.6_20070809"/>
    <tag k="tiger:tlid" v="128211405:128211425:128323710:128323711"/>
    <tag k="tiger:zip_left" v="85003"/>
    <tag k="tiger:zip_right" v="85003"/>
  </way>
  <way id="35345149" version="4" timestamp="2011-09-28T01:29:39Z" uid="292665" user="Dr Kludge" changeset="9415868">
    <nd ref="41601114"/>
    <nd ref="414461875"/>
    <nd ref="414461268"/>
    <nd ref="414461271"/>
    <nd ref="414461273"/>
    <nd ref="41739552"/>
    <nd ref="41739555"/>
    <nd ref="41739559"/>
    <tag k="highway" v="residential"/>
    <tag k="name" v="West Holly Street"/>
    <tag k="tiger:cfcc" v="A41"/>
    <tag k="tiger:county" v="Maricopa, AZ"/>
    <tag k="tiger:name_base" v="Holly"/>
    <tag k="tiger:name_direction_prefix" v="W"/>
    <tag k="tiger:name_type" v="St"/>
    <tag k="tiger:reviewed" v="no"/>
    <tag k="tiger:separated" v="no"/>
    <tag k="tiger:source" v="tiger_import_dch_v0.6_20070809"/>
    <tag k="tiger:tlid" v="128211405:128211425:128323710:128323711"/>
    <tag k="tiger:zip_left" v="85003"/>
    <tag k="tiger:zip_right" v="85003"/>
  </way>
  <way id="35345149" version="5" timestamp="2011-11-24T21:54:52Z" uid="292665" user="Dr Kludge" changeset="9938105">
    <nd ref="41601114"/>
    <nd ref="414461875"/>
    <nd ref="414461268"/>
    <nd ref="414461271"/>
    <nd ref="414461273"/>
    <nd ref="41739552"/>
    <nd ref="41739555"/>
    <nd ref="41739559"/>
    <tag k="highway" v="residential"/>
    <tag k="name" v="West Holly Street"/>
    <tag k="tiger:cfcc" v="A41"/>
    <tag k="tiger:county" v="Maricopa, AZ"/>
    <tag k="tiger:name_base" v="Holly"/>
    <tag k="tiger:name_direction_prefix" v="W"/>
    <tag k="tiger:name_type" v="St"/>
    <tag k="tiger:reviewed" v="yes"/>
    <tag k="tiger:separated" v="no"/>
    <tag k="tiger:source" v="tiger_import_dch_v0.6_20070809"/>
    <tag k="tiger:tlid" v="128211405:128211425:128323710:128323711"/>
    <tag k="tiger:zip_left" v="85003"/>
    <tag k="tiger:zip_right" v="85003"/>
  </way>
  <way id="35345151" version="3" timestamp="2010-04-03T04:15:11Z" uid="20587" user="balrog-kun" changeset="4309442">
    <nd ref="414461268"/>
    <nd ref="414460649"/>
    <tag k="highway" v="residential"/>
    <tag k="name" v="West Holly Street"/>
  </way>
  <way id="35345151" version="4" timestamp="2011-11-24T21:54:52Z" uid="292665" user="Dr Kludge" changeset="9938105">
    <nd ref="414461268"/>
    <nd ref="1515962589"/>
    <nd ref="414460649"/>
    <tag k="highway" v="residential"/>
    <tag k="name" v="West Holly Street"/>
  </way>
  <way id="35345153" version="6" timestamp="2010-03-28T02:13:52Z" uid="20587" user="balrog-kun" changeset="4250871">
    <nd ref="414462596"/>
    <nd ref="59664356"/>
    <nd ref="414462496"/>
    <tag k="highway" v="motorway"/>
    <tag k="lanes" v="4"/>
    <tag k="layer" v="1"/>
    <tag k="maxspeed" v="65 mph"/>
    <tag k="name" v="Congressman George E. Brown, Jr. Mem. Highway"/>
    <tag k="name_1" v="Foothill Freeway"/>
    <tag k="oneway" v="yes"/>
    <tag k="ref" v="CA 210"/>
    <tag k="source" v="yahoo_imagry;CDOT"/>
  </way>
  <way id="35345153" version="7" timestamp="2011-07-03T22:06:56Z" uid="4951" user="PeterIto" changeset="8624573">
    <nd ref="414462596"/>
    <nd ref="59664356"/>
    <nd ref="414462496"/>
    <tag k="highway" v="motorway"/>
    <tag k="lanes" v="4"/>
    <tag k="maxspeed" v="65 mph"/>
    <tag k="name" v="Congressman George E. Brown, Jr. Mem. Highway"/>
    <tag k="name_1" v="Foothill Freeway"/>
    <tag k="oneway" v="yes"/>
    <tag k="ref" v="CA 210"/>
    <tag k="source" v="yahoo_imagry;CDOT"/>
  </way>
  <way id="35345153" version="8" timestamp="2011-07-29T14:31:06Z" uid="207745" user="NE2" changeset="8863873">
    <nd ref="414462596"/>
    <nd ref="59664356"/>
    <nd ref="414462496"/>
    <tag k="highway" v="motorway"/>
    <tag k="hov" v="lane"/>
    <tag k="lanes" v="4"/>
    <tag k="maxspeed" v="65 mph"/>
    <tag k="name" v="Congressman George E. Brown, Jr. Mem. Highway"/>
    <tag k="name_1" v="Foothill Freeway"/>
    <tag k="note:lanes" v="left lane is hov"/>
    <tag k="oneway" v="yes"/>
    <tag k="ref" v="CA 210"/>
    <tag k="source" v="yahoo_imagry;CDOT"/>
  </way>
  <way id="35345153" version="9" timestamp="2011-12-01T02:10:23Z" uid="92286" user="Paul Johnson" changeset="10004810">
    <nd ref="414462596"/>
    <nd ref="59664356"/>
    <nd ref="414462496"/>
    <tag k="highway" v="motorway"/>
    <tag k="hov" v="lane"/>
    <tag k="lanes" v="4"/>
    <tag k="maxspeed" v="65 mph"/>
    <tag k="name" v="Congressman George Edward Brown, Junior Mememorial Highway"/>
    <tag k="name_1" v="Foothill Freeway"/>
    <tag k="note:lanes" v="left lane is hov"/>
    <tag k="oneway" v="yes"/>
    <tag k="ref" v="CA 210"/>
    <tag k="source" v="yahoo_imagry;CDOT"/>
  </way>
  <way id="35345154" version="9" timestamp="2010-03-28T02:13:52Z" uid="20587" user="balrog-kun" changeset="4250871">
    <nd ref="414462496"/>
    <nd ref="414462500"/>
    <tag k="bridge" v="yes"/>
    <tag k="highway" v="motorway"/>
    <tag k="lanes" v="4"/>
    <tag k="layer" v="1"/>
    <tag k="maxspeed" v="65 mph"/>
    <tag k="name" v="Congressman George E. Brown, Jr. Mem. Highway"/>
    <tag k="name_1" v="Foothill Freeway"/>
    <tag k="oneway" v="yes"/>
    <tag k="ref" v="CA 210"/>
    <tag k="source" v="yahoo_imagry;CDOT"/>
  </way>
  <way id="35345154" version="10" timestamp="2011-07-29T14:30:52Z" uid="207745" user="NE2" changeset="8863873">
    <nd ref="414462496"/>
    <nd ref="414462500"/>
    <tag k="bridge" v="yes"/>
    <tag k="highway" v="motorway"/>
    <tag k="hov" v="lane"/>
    <tag k="lanes" v="4"/>
    <tag k="layer" v="1"/>
    <tag k="maxspeed" v="65 mph"/>
    <tag k="name" v="Congressman George E. Brown, Jr. Mem. Highway"/>
    <tag k="name_1" v="Foothill Freeway"/>
    <tag k="note:lanes" v="left lane is hov"/>
    <tag k="oneway" v="yes"/>
    <tag k="ref" v="CA 210"/>
    <tag k="source" v="yahoo_imagry;CDOT"/>
  </way>
  <way id="35345154" version="11" timestamp="2011-12-01T02:10:10Z" uid="92286" user="Paul Johnson" changeset="10004810">
    <nd ref="414462496"/>
    <nd ref="414462500"/>
    <tag k="bridge" v="yes"/>
    <tag k="highway" v="motorway"/>
    <tag k="hov" v="lane"/>
    <tag k="lanes" v="4"/>
    <tag k="layer" v="1"/>
    <tag k="maxspeed" v="65 mph"/>
    <tag k="name" v="Congressman George Edward Brown, Junior Mememorial Highway"/>
    <tag k="name_1" v="Foothill Freeway"/>
    <tag k="note:lanes" v="left lane is hov"/>
    <tag k="oneway" v="yes"/>
    <tag k="ref" v="CA 210"/>
    <tag k="source" v="yahoo_imagry;CDOT"/>
  </way>
  <way id="35345155" version="7" timestamp="2010-03-28T02:13:53Z" uid="20587" user="balrog-kun" changeset="4250871">
    <nd ref="418624790"/>
    <nd ref="299207826"/>
    <nd ref="299207429"/>
    <tag k="highway" v="motorway"/>
    <tag k="lanes" v="4"/>
    <tag k="layer" v="1"/>
    <tag k="maxspeed" v="105"/>
    <tag k="name" v="Congressman George E. Brown, Jr. Mem. Highway"/>
    <tag k="name_1" v="Foothill Freeway"/>
    <tag k="oneway" v="yes"/>
    <tag k="ref" v="CA 210"/>
    <tag k="source" v="yahoo_imagery;CDOT"/>
  </way>
  <way id="35345155" version="8" timestamp="2010-07-15T01:04:50Z" uid="82317" user="AM909" changeset="5223033">
    <nd ref="418624790"/>
    <nd ref="299207826"/>
    <nd ref="299207429"/>
    <tag k="highway" v="motorway"/>
    <tag k="lanes" v="4"/>
    <tag k="layer" v="1"/>
    <tag k="maxspeed" v="65 mph"/>
    <tag k="name" v="Congressman George E. Brown, Jr. Mem. Highway"/>
    <tag k="name_1" v="Foothill Freeway"/>
    <tag k="oneway" v="yes"/>
    <tag k="ref" v="CA 210"/>
    <tag k="source" v="yahoo_imagery;CDOT"/>
  </way>
  <way id="35345155" version="9" timestamp="2011-06-27T05:45:10Z" uid="351693" user="ctr112280" changeset="8558517">
    <nd ref="418624790"/>
    <nd ref="1340806176"/>
    <nd ref="299207826"/>
    <nd ref="299207429"/>
    <tag k="highway" v="motorway"/>
    <tag k="lanes" v="4"/>
    <tag k="layer" v="1"/>
    <tag k="maxspeed" v="65 mph"/>
    <tag k="name" v="Congressman George E. Brown, Jr. Mem. Highway"/>
    <tag k="name_1" v="Foothill Freeway"/>
    <tag k="oneway" v="yes"/>
    <tag k="ref" v="CA 210"/>
    <tag k="source" v="yahoo_imagery;CDOT"/>
  </way>
  <way id="35345155" version="10" timestamp="2011-07-03T22:06:56Z" uid="4951" user="PeterIto" changeset="8624573">
    <nd ref="418624790"/>
    <nd ref="1340806176"/>
    <nd ref="299207826"/>
    <nd ref="299207429"/>
    <tag k="highway" v="motorway"/>
    <tag k="lanes" v="4"/>
    <tag k="maxspeed" v="65 mph"/>
    <tag k="name" v="Congressman George E. Brown, Jr. Mem. Highway"/>
    <tag k="name_1" v="Foothill Freeway"/>
    <tag k="oneway" v="yes"/>
    <tag k="ref" v="CA 210"/>
    <tag k="source" v="yahoo_imagery;CDOT"/>
  </way>
  <way id="35345155" version="11" timestamp="2011-07-29T14:31:08Z" uid="207745" user="NE2" changeset="8863873">
    <nd ref="418624790"/>
    <nd ref="1340806176"/>
    <nd ref="299207826"/>
    <nd ref="299207429"/>
    <tag k="highway" v="motorway"/>
    <tag k="hov" v="lane"/>
    <tag k="lanes" v="4"/>
    <tag k="maxspeed" v="65 mph"/>
    <tag k="name" v="Congressman George E. Brown, Jr. Mem. Highway"/>
    <tag k="name_1" v="Foothill Freeway"/>
    <tag k="note:lanes" v="left lane is hov"/>
    <tag k="oneway" v="yes"/>
    <tag k="ref" v="CA 210"/>
    <tag k="source" v="yahoo_imagery;CDOT"/>
  </way>
  <way id="35345155" version="12" timestamp="2011-12-01T02:10:31Z" uid="92286" user="Paul Johnson" changeset="10004810">
    <nd ref="418624790"/>
    <nd ref="1340806176"/>
    <nd ref="299207826"/>
    <nd ref="299207429"/>
    <tag k="highway" v="motorway"/>
    <tag k="hov" v="lane"/>
    <tag k="lanes" v="4"/>
    <tag k="maxspeed" v="65 mph"/>
    <tag k="name" v="Congressman George Edward Brown, Junior Mememorial Highway"/>
    <tag k="name_1" v="Foothill Freeway"/>
    <tag k="note:lanes" v="left lane is hov"/>
    <tag k="oneway" v="yes"/>
    <tag k="ref" v="CA 210"/>
    <tag k="source" v="yahoo_imagery;CDOT"/>
  </way>
  <way id="35345156" version="6" timestamp="2010-03-28T02:13:53Z" uid="20587" user="balrog-kun" changeset="4250871">
    <nd ref="392519966"/>
    <nd ref="414462548"/>
    <tag k="bridge" v="yes"/>
    <tag k="highway" v="motorway"/>
    <tag k="lanes" v="4"/>
    <tag k="layer" v="1"/>
    <tag k="maxspeed" v="65 mph"/>
    <tag k="name" v="Congressman George E. Brown, Jr. Mem. Highway"/>
    <tag k="name_1" v="Foothill Freeway"/>
    <tag k="oneway" v="yes"/>
    <tag k="ref" v="CA 210"/>
    <tag k="source" v="yahoo_imagry;CDOT"/>
  </way>
  <way id="35345156" version="7" timestamp="2011-07-29T14:30:57Z" uid="207745" user="NE2" changeset="8863873">
    <nd ref="392519966"/>
    <nd ref="414462548"/>
    <tag k="bridge" v="yes"/>
    <tag k="highway" v="motorway"/>
    <tag k="hov" v="lane"/>
    <tag k="lanes" v="4"/>
    <tag k="layer" v="1"/>
    <tag k="maxspeed" v="65 mph"/>
    <tag k="name" v="Congressman George E. Brown, Jr. Mem. Highway"/>
    <tag k="name_1" v="Foothill Freeway"/>
    <tag k="note:lanes" v="left lane is hov"/>
    <tag k="oneway" v="yes"/>
    <tag k="ref" v="CA 210"/>
    <tag k="source" v="yahoo_imagry;CDOT"/>
  </way>
  <way id="35345156" version="8" timestamp="2011-12-01T02:09:55Z" uid="92286" user="Paul Johnson" changeset="10004810">
    <nd ref="392519966"/>
    <nd ref="414462548"/>
    <tag k="bridge" v="yes"/>
    <tag k="highway" v="motorway"/>
    <tag k="hov" v="lane"/>
    <tag k="lanes" v="4"/>
    <tag k="layer" v="1"/>
    <tag k="maxspeed" v="65 mph"/>
    <tag k="name" v="Congressman George Edward Brown, Junior Mememorial Highway"/>
    <tag k="name_1" v="Foothill Freeway"/>
    <tag k="note:lanes" v="left lane is hov"/>
    <tag k="oneway" v="yes"/>
    <tag k="ref" v="CA 210"/>
    <tag k="source" v="yahoo_imagry;CDOT"/>
  </way>
  <way id="35345157" version="6" timestamp="2010-03-28T02:13:53Z" uid="20587" user="balrog-kun" changeset="4250871">
    <nd ref="414462548"/>
    <nd ref="299207830"/>
    <tag k="highway" v="motorway"/>
    <tag k="lanes" v="4"/>
    <tag k="layer" v="1"/>
    <tag k="maxspeed" v="65 mph"/>
    <tag k="name" v="Congressman George E. Brown, Jr. Mem. Highway"/>
    <tag k="name_1" v="Foothill Freeway"/>
    <tag k="oneway" v="yes"/>
    <tag k="ref" v="CA 210"/>
    <tag k="source" v="yahoo_imagry;CDOT"/>
  </way>
  <way id="35345157" version="7" timestamp="2011-07-03T22:06:56Z" uid="4951" user="PeterIto" changeset="8624573">
    <nd ref="414462548"/>
    <nd ref="299207830"/>
    <tag k="highway" v="motorway"/>
    <tag k="lanes" v="4"/>
    <tag k="maxspeed" v="65 mph"/>
    <tag k="name" v="Congressman George E. Brown, Jr. Mem. Highway"/>
    <tag k="name_1" v="Foothill Freeway"/>
    <tag k="oneway" v="yes"/>
    <tag k="ref" v="CA 210"/>
    <tag k="source" v="yahoo_imagry;CDOT"/>
  </way>
  <way id="35345157" version="8" timestamp="2011-07-29T14:30:53Z" uid="207745" user="NE2" changeset="8863873">
    <nd ref="414462548"/>
    <nd ref="299207830"/>
    <tag k="highway" v="motorway"/>
    <tag k="hov" v="lane"/>
    <tag k="lanes" v="4"/>
    <tag k="maxspeed" v="65 mph"/>
    <tag k="name" v="Congressman George E. Brown, Jr. Mem. Highway"/>
    <tag k="name_1" v="Foothill Freeway"/>
    <tag k="note:lanes" v="left lane is hov"/>
    <tag k="oneway" v="yes"/>
    <tag k="ref" v="CA 210"/>
    <tag k="source" v="yahoo_imagry;CDOT"/>
  </way>
  <way id="35345157" version="9" timestamp="2011-12-01T02:10:13Z" uid="92286" user="Paul Johnson" changeset="10004810">
    <nd ref="414462548"/>
    <nd ref="299207830"/>
    <tag k="highway" v="motorway"/>
    <tag k="hov" v="lane"/>
    <tag k="lanes" v="4"/>
    <tag k="maxspeed" v="65 mph"/>
    <tag k="name" v="Congressman George Edward Brown, Junior Mememorial Highway"/>
    <tag k="name_1" v="Foothill Freeway"/>
    <tag k="note:lanes" v="left lane is hov"/>
    <tag k="oneway" v="yes"/>
    <tag k="ref" v="CA 210"/>
    <tag k="source" v="yahoo_imagry;CDOT"/>
  </way>
  <way id="35345186" version="2" timestamp="2010-07-25T23:11:46Z" uid="4467" user="Rosscoe" changeset="5317477">
    <nd ref="414398750"/>
    <nd ref="414473720"/>
    <tag k="bridge" v="yes"/>
    <tag k="highway" v="unclassified"/>
    <tag k="layer" v="1"/>
    <tag k="name" v="Bathampton Road"/>
    <tag k="source" v="GPS"/>
    <tag k="surface" v="paved"/>
  </way>
  <way id="35345190" version="3" timestamp="2010-04-03T04:15:11Z" uid="20587" user="balrog-kun" changeset="4309442">
    <nd ref="41533905"/>
    <nd ref="414475759"/>
    <nd ref="414475768"/>
    <nd ref="414475773"/>
    <nd ref="414475779"/>
    <nd ref="414475785"/>
    <tag k="highway" v="residential"/>
    <tag k="name" v="North 8th Avenue"/>
    <tag k="tiger:cfcc" v="A41"/>
    <tag k="tiger:county" v="Maricopa, AZ"/>
    <tag k="tiger:name_base" v="8th"/>
    <tag k="tiger:name_direction_prefix" v="N"/>
    <tag k="tiger:name_type" v="Ave"/>
    <tag k="tiger:reviewed" v="no"/>
    <tag k="tiger:separated" v="no"/>
    <tag k="tiger:source" v="tiger_import_dch_v0.6_20070809"/>
    <tag k="tiger:tlid" v="128211214"/>
    <tag k="tiger:zip_left" v="85013"/>
    <tag k="tiger:zip_left_1" v="85013"/>
    <tag k="tiger:zip_right" v="85013"/>
  </way>
  <way id="35345190" version="4" timestamp="2011-12-01T07:45:54Z" uid="292665" user="Dr Kludge" changeset="10005789"/>
  <way id="35345153" version="10" timestamp="2012-08-05T03:55:48Z" uid="587790" user="JaggedMind" changeset="12616328">
    <nd ref="414462596"/>
    <nd ref="59664356"/>
    <nd ref="414462496"/>
    <tag k="alt_name" v="Foothill Freeway"/>
    <tag k="highway" v="motorway"/>
    <tag k="hov" v="lane"/>
    <tag k="lanes" v="4"/>
    <tag k="maxspeed" v="65 mph"/>
    <tag k="name" v="Congressman George Edward Brown, Junior Memorial Highway"/>
    <tag k="note:lanes" v="left lane is hov"/>
    <tag k="oneway" v="yes"/>
    <tag k="ref" v="CA 210"/>
    <tag k="source" v="yahoo_imagry;CDOT"/>
  </way>
  <way id="35345153" version="11" timestamp="2012-09-01T07:03:01Z" uid="207745" user="NE2" changeset="12939017">
    <nd ref="414462596"/>
    <nd ref="59664356"/>
    <nd ref="414462496"/>
    <tag k="alt_name" v="Foothill Freeway"/>
    <tag k="bicycle" v="no"/>
    <tag k="highway" v="motorway"/>
    <tag k="hov" v="lane"/>
    <tag k="lanes" v="4"/>
    <tag k="maxspeed" v="65 mph"/>
    <tag k="name" v="Congressman George Edward Brown, Junior Memorial Highway"/>
    <tag k="note:lanes" v="left lane is hov"/>
    <tag k="oneway" v="yes"/>
    <tag k="ref" v="CA 210"/>
    <tag k="source" v="yahoo_imagry;CDOT"/>
  </way>
  <way id="35345154" version="12" timestamp="2012-08-05T03:55:43Z" uid="587790" user="JaggedMind" changeset="12616328">
    <nd ref="414462496"/>
    <nd ref="414462500"/>
    <tag k="alt_name" v="Foothill Freeway"/>
    <tag k="bridge" v="yes"/>
    <tag k="highway" v="motorway"/>
    <tag k="hov" v="lane"/>
    <tag k="lanes" v="4"/>
    <tag k="layer" v="1"/>
    <tag k="maxspeed" v="65 mph"/>
    <tag k="name" v="Congressman George Edward Brown, Junior Memorial Highway"/>
    <tag k="note:lanes" v="left lane is hov"/>
    <tag k="oneway" v="yes"/>
    <tag k="ref" v="CA 210"/>
    <tag k="source" v="yahoo_imagry;CDOT"/>
  </way>
  <way id="35345154" version="13" timestamp="2012-09-01T07:02:44Z" uid="207745" user="NE2" changeset="12939017">
    <nd ref="414462496"/>
    <nd ref="414462500"/>
    <tag k="alt_name" v="Foothill Freeway"/>
    <tag k="bicycle" v="no"/>
    <tag k="bridge" v="yes"/>
    <tag k="highway" v="motorway"/>
    <tag k="hov" v="lane"/>
    <tag k="lanes" v="4"/>
    <tag k="layer" v="1"/>
    <tag k="maxspeed" v="65 mph"/>
    <tag k="name" v="Congressman George Edward Brown, Junior Memorial Highway"/>
    <tag k="note:lanes" v="left lane is hov"/>
    <tag k="oneway" v="yes"/>
    <tag k="ref" v="CA 210"/>
    <tag k="source" v="yahoo_imagry;CDOT"/>
  </way>
  <way id="35345155" version="13" timestamp="2012-08-05T03:55:50Z" uid="587790" user="JaggedMind" changeset="12616328">
    <nd ref="418624790"/>
    <nd ref="1340806176"/>
    <nd ref="299207826"/>
    <nd ref="299207429"/>
    <tag k="alt_name" v="Foothill Freeway"/>
    <tag k="highway" v="motorway"/>
    <tag k="hov" v="lane"/>
    <tag k="lanes" v="4"/>
    <tag k="maxspeed" v="65 mph"/>
    <tag k="name" v="Congressman George Edward Brown, Junior Memorial Highway"/>
    <tag k="note:lanes" v="left lane is hov"/>
    <tag k="oneway" v="yes"/>
    <tag k="ref" v="CA 210"/>
    <tag k="source" v="yahoo_imagery;CDOT"/>
  </way>
  <way id="35345155" version="14" timestamp="2012-09-01T07:03:08Z" uid="207745" user="NE2" changeset="12939017">
    <nd ref="418624790"/>
    <nd ref="1340806176"/>
    <nd ref="299207826"/>
    <nd ref="299207429"/>
    <tag k="alt_name" v="Foothill Freeway"/>
    <tag k="bicycle" v="no"/>
    <tag k="highway" v="motorway"/>
    <tag k="hov" v="lane"/>
    <tag k="lanes" v="4"/>
    <tag k="maxspeed" v="65 mph"/>
    <tag k="name" v="Congressman George Edward Brown, Junior Memorial Highway"/>
    <tag k="note:lanes" v="left lane is hov"/>
    <tag k="oneway" v="yes"/>
    <tag k="ref" v="CA 210"/>
    <tag k="source" v="yahoo_imagery;CDOT"/>
  </way>
  <way id="35345156" version="9" timestamp="2012-08-05T03:55:34Z" uid="587790" user="JaggedMind" changeset="12616328">
    <nd ref="392519966"/>
    <nd ref="414462548"/>
    <tag k="alt_name" v="Foothill Freeway"/>
    <tag k="bridge" v="yes"/>
    <tag k="highway" v="motorway"/>
    <tag k="hov" v="lane"/>
    <tag k="lanes" v="4"/>
    <tag k="layer" v="1"/>
    <tag k="maxspeed" v="65 mph"/>
    <tag k="name" v="Congressman George Edward Brown, Junior Memorial Highway"/>
    <tag k="note:lanes" v="left lane is hov"/>
    <tag k="oneway" v="yes"/>
    <tag k="ref" v="CA 210"/>
    <tag k="source" v="yahoo_imagry;CDOT"/>
  </way>
  <way id="35345156" version="10" timestamp="2012-09-01T07:02:54Z" uid="207745" user="NE2" changeset="12939017">
    <nd ref="392519966"/>
    <nd ref="414462548"/>
    <tag k="alt_name" v="Foothill Freeway"/>
    <tag k="bicycle" v="no"/>
    <tag k="bridge" v="yes"/>
    <tag k="highway" v="motorway"/>
    <tag k="hov" v="lane"/>
    <tag k="lanes" v="4"/>
    <tag k="layer" v="1"/>
    <tag k="maxspeed" v="65 mph"/>
    <tag k="name" v="Congressman George Edward Brown, Junior Memorial Highway"/>
    <tag k="note:lanes" v="left lane is hov"/>
    <tag k="oneway" v="yes"/>
    <tag k="ref" v="CA 210"/>
    <tag k="source" v="yahoo_imagry;CDOT"/>
  </way>
  <way id="35345157" version="10" timestamp="2012-08-05T03:55:39Z" uid="587790" user="JaggedMind" changeset="12616328">
    <nd ref="414462548"/>
    <nd ref="299207830"/>
    <tag k="alt_name" v="Foothill Freeway"/>
    <tag k="highway" v="motorway"/>
    <tag k="hov" v="lane"/>
    <tag k="lanes" v="4"/>
    <tag k="maxspeed" v="65 mph"/>
    <tag k="name" v="Congressman George Edward Brown, Junior Memorial Highway"/>
    <tag k="note:lanes" v="left lane is hov"/>
    <tag k="oneway" v="yes"/>
    <tag k="ref" v="CA 210"/>
    <tag k="source" v="yahoo_imagry;CDOT"/>
  </way>
  <way id="35345157" version="11" timestamp="2012-09-01T07:02:58Z" uid="207745" user="NE2" changeset="12939017">
    <nd ref="414462548"/>
    <nd ref="299207830"/>
    <tag k="alt_name" v="Foothill Freeway"/>
    <tag k="bicycle" v="no"/>
    <tag k="highway" v="motorway"/>
    <tag k="hov" v="lane"/>
    <tag k="lanes" v="4"/>
    <tag k="maxspeed" v="65 mph"/>
    <tag k="name" v="Congressman George Edward Brown, Junior Memorial Highway"/>
    <tag k="note:lanes" v="left lane is hov"/>
    <tag k="oneway" v="yes"/>
    <tag k="ref" v="CA 210"/>
    <tag k="source" v="yahoo_imagry;CDOT"/>
  </way>
  <way id="35345186" version="3" timestamp="2012-07-19T14:54:08Z" uid="722137" user="OSMF Redaction Account" changeset="12332307">
    <nd ref="414398750"/>
    <nd ref="414473720"/>
    <tag k="bridge" v="yes"/>
    <tag k="highway" v="unclassified"/>
    <tag k="name" v="Bathampton Road"/>
    <tag k="source" v="GPS"/>
    <tag k="surface" v="paved"/>
  </way>
  <way id="35345186" version="4" timestamp="2012-08-15T13:18:40Z" uid="67896" user="mrpulley" changeset="12738963">
    <nd ref="414398750"/>
    <nd ref="414473720"/>
    <tag k="bridge" v="yes"/>
    <tag k="highway" v="unclassified"/>
    <tag k="layer" v="1"/>
    <tag k="name" v="Bathampton Road"/>
    <tag k="source" v="GPS"/>
    <tag k="surface" v="paved"/>
  </way>
</osm>
