<?xml version='1.0' encoding='UTF-8'?>
<osm version="0.6" generator="libosmium/2.20.0">
  <way id="35406242" version="1" timestamp="2009-06-03T13:57:48Z" uid="49111" user="Markus B" changeset="1413355">
    <nd ref="46909310"/>
    <nd ref="415343028"/>
    <nd ref="415343029"/>
    <nd ref="415343030"/>
  </way>
  <way id="35406242" version="2" timestamp="2009-06-03T13:58:01Z" uid="49111" user="Markus B" changeset="1413355">
    <nd ref="46909310"/>
    <nd ref="415343028"/>
    <nd ref="415343029"/>
    <nd ref="415343030"/>
    <tag k="highway" v="unclassified"/>
  </way>
  <way id="35406242" version="3" timestamp="2009-06-03T13:58:27Z" uid="49111" user="Markus B" changeset="1413355">
    <nd ref="46909310"/>
    <nd ref="415343028"/>
    <nd ref="415343029"/>
    <nd ref="415343030"/>
    <tag k="highway" v="unclassified"/>
    <tag k="note" v="FIXME"/>
  </way>
  <way id="35406242" version="4" timestamp="2010-11-09T13:59:18Z" uid="65845" user="Christian Wirth" changeset="6328263">
    <nd ref="46909310"/>
    <nd ref="983381593"/>
    <nd ref="983381903"/>
    <nd ref="983380962"/>
    <nd ref="983382172"/>
    <nd ref="983381190"/>
    <nd ref="983381301"/>
    <nd ref="983381998"/>
    <nd ref="983381577"/>
    <nd ref="983381854"/>
    <nd ref="983381830"/>
    <nd ref="983382191"/>
    <nd ref="983381921"/>
    <nd ref="983381760"/>
    <nd ref="983381452"/>
    <nd ref="983381011"/>
    <nd ref="983382023"/>
    <nd ref="983382147"/>
    <nd ref="983381872"/>
    <nd ref="983381445"/>
    <nd ref="983381165"/>
    <nd ref="983382244"/>
    <nd ref="983381983"/>
    <nd ref="983381559"/>
    <nd ref="983381286"/>
    <nd ref="983381133"/>
    <nd ref="983382105"/>
    <nd ref="983381686"/>
    <nd ref="983381405"/>
    <nd ref="983381252"/>
    <nd ref="983382218"/>
    <nd ref="983381838"/>
    <nd ref="983381526"/>
    <nd ref="983381090"/>
    <nd ref="983382078"/>
    <nd ref="983381657"/>
    <nd ref="983381381"/>
    <nd ref="983381229"/>
    <nd ref="983382202"/>
    <nd ref="983381819"/>
    <nd ref="983381503"/>
    <nd ref="983381350"/>
    <nd ref="983381034"/>
    <nd ref="983381933"/>
    <nd ref="983381624"/>
    <nd ref="983381472"/>
    <nd ref="983381191"/>
    <nd ref="983382041"/>
    <nd ref="983381780"/>
    <nd ref="983381578"/>
    <nd ref="983381175"/>
    <nd ref="983381888"/>
    <nd ref="983381303"/>
    <nd ref="983381996"/>
    <nd ref="983381576"/>
    <nd ref="983381298"/>
    <nd ref="983382082"/>
    <nd ref="983381734"/>
    <nd ref="983381821"/>
    <nd ref="983381508"/>
    <nd ref="983381660"/>
    <nd ref="983381967"/>
    <nd ref="983381094"/>
    <nd ref="983381382"/>
    <nd ref="983381629"/>
    <nd ref="983381115"/>
    <nd ref="983381736"/>
    <nd ref="983381440"/>
    <nd ref="983381277"/>
    <nd ref="983382238"/>
    <nd ref="983381865"/>
    <nd ref="983381552"/>
    <nd ref="983381394"/>
    <nd ref="983381139"/>
    <nd ref="983382112"/>
    <nd ref="983381959"/>
    <nd ref="983381813"/>
    <nd ref="983381652"/>
    <nd ref="983381259"/>
    <nd ref="983381844"/>
    <nd ref="983382225"/>
    <nd ref="983382067"/>
    <nd ref="983381808"/>
    <nd ref="983381564"/>
    <nd ref="983381371"/>
    <nd ref="983381072"/>
    <nd ref="983381203"/>
    <nd ref="983381681"/>
    <nd ref="983381973"/>
    <nd ref="983381781"/>
    <nd ref="983381936"/>
    <tag k="highway" v="tertiary"/>
    <tag k="source" v="geoimage.at"/>
  </way>
  <way id="35406242" version="5" timestamp="2011-02-13T10:22:59Z" uid="78656" user="Walter Schlögl" changeset="7273483"/>
  <way id="35406391" version="2" timestamp="2009-09-29T19:15:51Z" uid="33382" user="de_muur" changeset="2681285">
    <nd ref="324740020"/>
    <nd ref="199599101"/>
    <nd ref="266670295"/>
    <nd ref="199599102"/>
    <nd ref="199600282"/>
    <tag k="highway" v="secondary"/>
    <tag k="maxspeed" v="50"/>
    <tag k="name" v="Sachsenwaldstraße"/>
    <tag k="ref" v="L 314"/>
    <tag k="surface" v="paved"/>
  </way>
  <way id="35406391" version="3" timestamp="2010-10-03T06:49:58Z" uid="33382" user="de_muur" changeset="5941344">
    <nd ref="324740020"/>
    <nd ref="199599101"/>
    <nd ref="266670295"/>
    <tag k="cycleway" v="track"/>
    <tag k="highway" v="secondary"/>
    <tag k="maxspeed" v="50"/>
    <tag k="name" v="Sachsenwaldstraße"/>
    <tag k="ref" v="L 314"/>
    <tag k="surface" v="paved"/>
  </way>
  <way id="35406391" version="4" timestamp="2011-06-01T17:25:13Z" uid="451041" user="GPSfriend" changeset="8312140">
    <nd ref="324740020"/>
    <nd ref="199599101"/>
    <nd ref="266670295"/>
    <tag k="highway" v="secondary"/>
    <tag k="maxspeed" v="50"/>
    <tag k="name" v="Sachsenwaldstraße"/>
    <tag k="ref" v="L 314"/>
    <tag k="surface" v="paved"/>
  </way>
  <way id="35406391" version="5" timestamp="2012-03-30T11:59:21Z" uid="349191" user="Glühwürmchen" changeset="11151317"/>
  <way id="35406393" version="2" timestamp="2009-09-29T19:15:51Z" uid="33382" user="de_muur" changeset="2681285">
    <nd ref="266729657"/>
    <nd ref="199573063"/>
    <nd ref="199573069"/>
    <nd ref="199573071"/>
    <nd ref="324740020"/>
    <tag k="highway" v="secondary"/>
    <tag k="maxspeed" v="80"/>
    <tag k="name" v="Sachsenwaldstraße"/>
    <tag k="ref" v="L 314"/>
    <tag k="surface" v="paved"/>
  </way>
  <way id="35406393" version="3" timestamp="2010-10-03T06:49:59Z" uid="33382" user="de_muur" changeset="5941344">
    <nd ref="936131958"/>
    <nd ref="199573057"/>
    <nd ref="199573060"/>
    <nd ref="199573062"/>
    <nd ref="266729657"/>
    <nd ref="199573063"/>
    <nd ref="199573069"/>
    <nd ref="199573071"/>
    <nd ref="324740020"/>
    <tag k="cycleway" v="track"/>
    <tag k="highway" v="secondary"/>
    <tag k="maxspeed" v="80"/>
    <tag k="name" v="Sachsenwaldstraße"/>
    <tag k="ref" v="L 314"/>
    <tag k="surface" v="paved"/>
  </way>
  <way id="35406393" version="4" timestamp="2011-06-01T17:25:15Z" uid="451041" user="GPSfriend" changeset="8312140">
    <nd ref="936131958"/>
    <nd ref="199573057"/>
    <nd ref="199573060"/>
    <nd ref="199573062"/>
    <nd ref="266729657"/>
    <nd ref="199573063"/>
    <nd ref="199573069"/>
    <nd ref="199573071"/>
    <nd ref="324740020"/>
    <tag k="highway" v="secondary"/>
    <tag k="maxspeed" v="80"/>
    <tag k="name" v="Sachsenwaldstraße"/>
    <tag k="ref" v="L 314"/>
    <tag k="surface" v="paved"/>
  </way>
  <way id="35406393" version="5" timestamp="2012-03-26T08:49:53Z" uid="349191" user="Glühwürmchen" changeset="11103118"/>
  <way id="35406445" version="1" timestamp="2009-06-03T14:12:17Z" uid="43863" user="Rundling" changeset="1413467">
    <nd ref="359940369"/>
    <nd ref="415344345"/>
    <nd ref="415344342"/>
    <nd ref="415344346"/>
    <nd ref="415344343"/>
    <nd ref="415344344"/>
    <tag k="access" v="agricultural"/>
    <tag k="highway" v="track"/>
    <tag k="motorcar" v="no"/>
    <tag k="motorcycle" v="no"/>
    <tag k="surface" v="ground"/>
    <tag k="tracktype" v="grade3"/>
  </way>
  <way id="35406445" version="2" timestamp="2009-12-31T17:56:22Z" uid="43863" user="Rundling" changeset="3503139">
    <nd ref="602271564"/>
    <nd ref="415344345"/>
    <nd ref="415344342"/>
    <nd ref="415344346"/>
    <nd ref="415344343"/>
    <nd ref="415344344"/>
    <tag k="access" v="agricultural"/>
    <tag k="highway" v="track"/>
    <tag k="motorcar" v="no"/>
    <tag k="motorcycle" v="no"/>
    <tag k="surface" v="ground"/>
    <tag k="tracktype" v="grade3"/>
  </way>
  <way id="35406445" version="3" timestamp="2011-02-25T17:35:07Z" uid="43863" user="Rundling" changeset="7392466">
    <nd ref="602271564"/>
    <nd ref="415344345"/>
    <nd ref="415344342"/>
    <nd ref="1172628914"/>
    <nd ref="415344346"/>
    <nd ref="415344343"/>
    <nd ref="415344344"/>
    <tag k="access" v="forestry"/>
    <tag k="highway" v="track"/>
    <tag k="motorcar" v="no"/>
    <tag k="motorcycle" v="no"/>
    <tag k="surface" v="ground"/>
    <tag k="tracktype" v="grade3"/>
  </way>
  <way id="35406446" version="1" timestamp="2009-06-03T14:12:17Z" uid="43863" user="Rundling" changeset="1413467">
    <nd ref="415344347"/>
    <nd ref="415344348"/>
    <nd ref="415344349"/>
    <nd ref="415344350"/>
    <nd ref="415344351"/>
    <nd ref="415344352"/>
    <nd ref="415344353"/>
    <nd ref="274287695"/>
    <tag k="access" v="agricultural"/>
    <tag k="highway" v="track"/>
    <tag k="motorcar" v="no"/>
    <tag k="motorcycle" v="no"/>
    <tag k="surface" v="ground"/>
    <tag k="tracktype" v="grade3"/>
  </way>
  <way id="35406677" version="3" timestamp="2010-03-05T22:11:11Z" uid="27600" user="Islanit" changeset="4045335">
    <nd ref="264504518"/>
    <nd ref="264504519"/>
    <nd ref="264504520"/>
    <nd ref="266669923"/>
    <nd ref="266670283"/>
    <nd ref="266670284"/>
    <nd ref="266670285"/>
    <nd ref="266670286"/>
    <nd ref="266670287"/>
    <nd ref="266670288"/>
    <nd ref="266670289"/>
    <nd ref="266670290"/>
    <nd ref="266670292"/>
    <nd ref="660849491"/>
    <nd ref="266670293"/>
    <nd ref="266670295"/>
    <tag k="highway" v="tertiary"/>
    <tag k="maxspeed" v="30"/>
    <tag k="name" v="Oher Straße"/>
    <tag k="ref" v="K 26"/>
  </way>
  <way id="35406677" version="4" timestamp="2011-06-01T17:25:15Z" uid="451041" user="GPSfriend" changeset="8312140">
    <nd ref="264504518"/>
    <nd ref="264504519"/>
    <nd ref="264504520"/>
    <nd ref="266669923"/>
    <nd ref="266670283"/>
    <nd ref="266670284"/>
    <nd ref="266670285"/>
    <nd ref="266670286"/>
    <nd ref="266670287"/>
    <nd ref="266670288"/>
    <nd ref="266670289"/>
    <nd ref="266670290"/>
    <nd ref="266670292"/>
    <nd ref="660849491"/>
    <nd ref="266670293"/>
    <nd ref="1307933892"/>
    <nd ref="266670295"/>
    <tag k="highway" v="tertiary"/>
    <tag k="maxspeed" v="30"/>
    <tag k="name" v="Oher Straße"/>
    <tag k="ref" v="K 26"/>
  </way>
  <way id="35406677" version="5" timestamp="2011-09-18T09:05:36Z" uid="58434" user="tomek11" changeset="9330433">
    <nd ref="264504518"/>
    <nd ref="264504519"/>
    <nd ref="264504520"/>
    <nd ref="266669923"/>
    <nd ref="266670283"/>
    <nd ref="266670284"/>
    <nd ref="266670285"/>
    <nd ref="266670286"/>
    <nd ref="266670287"/>
    <nd ref="266670288"/>
    <nd ref="266670289"/>
    <nd ref="266670290"/>
    <nd ref="266670292"/>
    <tag k="highway" v="tertiary"/>
    <tag k="maxspeed" v="30"/>
    <tag k="name" v="Oher Straße"/>
    <tag k="ref" v="K 26"/>
  </way>
  <way id="35406678" version="3" timestamp="2009-09-29T19:15:48Z" uid="33382" user="de_muur" changeset="2681285">
    <nd ref="264504585"/>
    <nd ref="264504586"/>
    <nd ref="311342349"/>
    <nd ref="264504612"/>
    <tag k="highway" v="tertiary"/>
    <tag k="maxspeed" v="30"/>
    <tag k="ref" v="K 26"/>
    <tag k="surface" v="paved"/>
  </way>
  <way id="35406678" version="4" timestamp="2011-09-17T20:32:13Z" uid="451041" user="GPSfriend" changeset="9327393">
    <nd ref="264504585"/>
    <nd ref="264504586"/>
    <nd ref="311342349"/>
    <nd ref="264504612"/>
    <tag k="highway" v="tertiary"/>
    <tag k="maxspeed" v="30"/>
    <tag k="ref" v="K 26"/>
    <tag k="surface" v="asphalt"/>
  </way>
  <way id="35406678" version="5" timestamp="2012-03-22T13:34:10Z" uid="349191" user="Glühwürmchen" changeset="11061000">
    <nd ref="264504585"/>
    <nd ref="264504586"/>
    <nd ref="311342349"/>
    <nd ref="1685902974"/>
    <tag k="highway" v="tertiary"/>
    <tag k="maxspeed" v="30"/>
    <tag k="ref" v="K 26"/>
    <tag k="surface" v="asphalt"/>
  </way>
  <way id="35406678" version="6" timestamp="2012-03-29T14:44:29Z" uid="349191" user="Glühwürmchen" changeset="11139329">
    <nd ref="1696237550"/>
    <nd ref="1696237537"/>
    <nd ref="264504586"/>
    <nd ref="311342349"/>
    <nd ref="1685902974"/>
    <tag k="highway" v="tertiary"/>
    <tag k="maxspeed" v="30"/>
    <tag k="ref" v="K 26"/>
    <tag k="surface" v="asphalt"/>
  </way>
  <way id="35406678" version="7" timestamp="2012-03-29T16:00:36Z" uid="349191" user="Glühwürmchen" changeset="11139329">
    <nd ref="1696237550"/>
    <nd ref="1696237537"/>
    <nd ref="1696344451"/>
    <nd ref="311342349"/>
    <nd ref="1685902974"/>
    <tag k="highway" v="tertiary"/>
    <tag k="maxspeed" v="30"/>
    <tag k="ref" v="K 26"/>
    <tag k="surface" v="asphalt"/>
  </way>
  <way id="35406679" version="2" timestamp="2009-09-29T19:15:50Z" uid="33382" user="de_muur" changeset="2681285">
    <nd ref="264497727"/>
    <nd ref="513808395"/>
    <nd ref="311268054"/>
    <tag k="highway" v="tertiary"/>
    <tag k="maxspeed" v="30"/>
    <tag k="name" v="Oher Weg"/>
    <tag k="surface" v="paved"/>
  </way>
  <way id="35406679" version="3" timestamp="2012-03-29T14:37:11Z" uid="349191" user="Glühwürmchen" changeset="11139329"/>
  <way id="35406680" version="4" timestamp="2009-09-29T19:15:46Z" uid="33382" user="de_muur" changeset="2681285">
    <nd ref="264504576"/>
    <nd ref="305432166"/>
    <nd ref="311921247"/>
    <nd ref="265594206"/>
    <tag k="highway" v="tertiary"/>
    <tag k="maxspeed" v="30"/>
    <tag k="name" v="Große Straße"/>
    <tag k="ref" v="K 26"/>
    <tag k="surface" v="paved"/>
  </way>
  <way id="35406680" version="5" timestamp="2012-03-29T14:31:02Z" uid="349191" user="Glühwürmchen" changeset="11139329">
    <nd ref="264504576"/>
    <nd ref="1696217922"/>
    <nd ref="1696217980"/>
    <nd ref="265594206"/>
    <tag k="highway" v="tertiary"/>
    <tag k="maxspeed" v="30"/>
    <tag k="name" v="Große Straße"/>
    <tag k="ref" v="K 26"/>
    <tag k="surface" v="paved"/>
  </way>
  <way id="35406681" version="2" timestamp="2009-06-14T05:37:00Z" uid="33382" user="de_muur" changeset="1510474">
    <nd ref="264497728"/>
    <nd ref="294720940"/>
    <nd ref="47545122"/>
    <nd ref="294720866"/>
    <nd ref="294726100"/>
    <nd ref="294720842"/>
    <nd ref="294726137"/>
    <nd ref="280026057"/>
    <nd ref="294709634"/>
    <nd ref="294726088"/>
    <nd ref="375869613"/>
    <nd ref="280026062"/>
    <nd ref="305918396"/>
    <tag k="created_by" v="Potlatch 0.10f"/>
    <tag k="highway" v="tertiary"/>
    <tag k="maxspeed" v="50"/>
    <tag k="name" v="Oher Weg"/>
  </way>
  <way id="35406681" version="3" timestamp="2009-07-20T09:43:38Z" uid="27600" user="Islanit" changeset="1882805">
    <nd ref="264497728"/>
    <nd ref="294720940"/>
    <nd ref="47545122"/>
    <nd ref="294720866"/>
    <nd ref="294726100"/>
    <nd ref="294720842"/>
    <nd ref="294726137"/>
    <nd ref="280026057"/>
    <nd ref="294709634"/>
    <nd ref="294726088"/>
    <nd ref="375869613"/>
    <nd ref="280026062"/>
    <nd ref="444352007"/>
    <nd ref="305918396"/>
    <tag k="created_by" v="Potlatch 0.10f"/>
    <tag k="highway" v="tertiary"/>
    <tag k="maxspeed" v="50"/>
    <tag k="name" v="Oher Weg"/>
  </way>
  <way id="35406681" version="4" timestamp="2009-09-29T19:15:47Z" uid="33382" user="de_muur" changeset="2681285">
    <nd ref="264497728"/>
    <nd ref="294720940"/>
    <nd ref="47545122"/>
    <nd ref="294720866"/>
    <nd ref="294726100"/>
    <nd ref="294720842"/>
    <nd ref="294726137"/>
    <nd ref="280026057"/>
    <nd ref="294709634"/>
    <nd ref="294726088"/>
    <nd ref="375869613"/>
    <nd ref="280026062"/>
    <nd ref="444352007"/>
    <nd ref="305918396"/>
    <tag k="highway" v="tertiary"/>
    <tag k="maxspeed" v="50"/>
    <tag k="name" v="Oher Weg"/>
    <tag k="surface" v="paved"/>
  </way>
  <way id="35406681" version="5" timestamp="2009-12-19T17:51:48Z" uid="51916" user="Max B" changeset="3408607">
    <nd ref="264497728"/>
    <nd ref="294720940"/>
    <nd ref="47545122"/>
    <tag k="highway" v="tertiary"/>
    <tag k="maxspeed" v="50"/>
    <tag k="name" v="Oher Weg"/>
    <tag k="surface" v="paved"/>
  </way>
  <way id="35406681" version="6" timestamp="2011-04-26T18:33:39Z" uid="445070" user="Kartenluchs" changeset="7977948">
    <nd ref="264497728"/>
    <nd ref="294720940"/>
    <nd ref="47545122"/>
    <tag k="highway" v="tertiary"/>
    <tag k="maxspeed" v="50"/>
    <tag k="name" v="Oher Weg"/>
    <tag k="surface" v="paved"/>
  </way>
  <way id="35406681" version="7" timestamp="2011-05-22T22:16:20Z" uid="451041" user="GPSfriend" changeset="8221910">
    <nd ref="264497728"/>
    <nd ref="1296779457"/>
    <nd ref="294720940"/>
    <nd ref="47545122"/>
    <tag k="highway" v="tertiary"/>
    <tag k="maxspeed" v="50"/>
    <tag k="name" v="Oher Weg"/>
    <tag k="surface" v="paved"/>
  </way>
  <way id="35406681" version="8" timestamp="2011-06-07T21:45:42Z" uid="451041" user="GPSfriend" changeset="8374657">
    <nd ref="264497728"/>
    <nd ref="1296779457"/>
    <nd ref="294720940"/>
    <nd ref="47545122"/>
    <tag k="highway" v="tertiary"/>
    <tag k="maxspeed" v="50"/>
    <tag k="name" v="Oher Weg"/>
    <tag k="source" v="Bing Sat mit GPX-Track Shift"/>
    <tag k="surface" v="paved"/>
  </way>
  <way id="35406681" version="9" timestamp="2012-03-29T16:13:44Z" uid="349191" user="Glühwürmchen" changeset="11139329"/>
  <way id="35406682" version="2" timestamp="2009-09-29T19:15:49Z" uid="33382" user="de_muur" changeset="2681285">
    <nd ref="311268054"/>
    <nd ref="311268084"/>
    <nd ref="305429925"/>
    <nd ref="513808394"/>
    <tag k="highway" v="tertiary"/>
    <tag k="name" v="Oher Weg"/>
    <tag k="surface" v="paved"/>
  </way>
  <way id="35406682" version="3" timestamp="2011-05-11T20:54:27Z" uid="451041" user="GPSfriend" changeset="8116510">
    <nd ref="311268054"/>
    <nd ref="311268084"/>
    <nd ref="1280711727"/>
    <nd ref="305429925"/>
    <nd ref="513808394"/>
    <tag k="highway" v="tertiary"/>
    <tag k="name" v="Oher Weg"/>
    <tag k="surface" v="paved"/>
  </way>
  <way id="35406682" version="4" timestamp="2012-03-26T12:37:53Z" uid="349191" user="Glühwürmchen" changeset="11104932"/>
  <way id="35406690" version="4" timestamp="2011-02-07T21:56:42Z" uid="9581" user="Lobelt" changeset="7221516">
    <nd ref="415346558"/>
    <nd ref="415346559"/>
    <nd ref="415344679"/>
    <nd ref="415344678"/>
    <nd ref="1141374830"/>
    <tag k="highway" v="track"/>
    <tag k="tracktype" v="grade3"/>
  </way>
  <way id="35406445" version="4" timestamp="2012-07-18T15:39:18Z" uid="722137" user="OSMF Redaction Account" changeset="12287313"/>
  <way id="35406446" version="2" timestamp="2012-07-18T15:39:17Z" uid="722137" user="OSMF Redaction Account" changeset="12287313"/>
  <way id="35406677" version="6" timestamp="2012-07-17T10:19:01Z" uid="722137" user="OSMF Redaction Account" changeset="12262818">
    <nd ref="264504518"/>
    <nd ref="264504520"/>
    <nd ref="266669923"/>
    <nd ref="266670283"/>
    <nd ref="266670284"/>
    <nd ref="266670285"/>
    <nd ref="266670286"/>
    <nd ref="266670287"/>
    <nd ref="266670288"/>
    <nd ref="266670289"/>
    <nd ref="266670290"/>
    <nd ref="266670292"/>
    <tag k="highway" v="tertiary"/>
    <tag k="maxspeed" v="30"/>
    <tag k="name" v="Oher Straße"/>
    <tag k="ref" v="K 26"/>
  </way>
  <way id="35406677" version="7" timestamp="2012-08-30T10:59:32Z" uid="64255" user="look4book" changeset="12916345">
    <nd ref="264504518"/>
    <nd ref="264504520"/>
    <nd ref="266669923"/>
    <nd ref="266670283"/>
    <nd ref="266670284"/>
    <nd ref="266670285"/>
    <nd ref="266670286"/>
    <nd ref="266670287"/>
    <nd ref="266670288"/>
    <nd ref="1889651131"/>
    <nd ref="266670289"/>
    <nd ref="266670290"/>
    <nd ref="266670292"/>
    <tag k="highway" v="tertiary"/>
    <tag k="maxspeed" v="30"/>
    <tag k="name" v="Oher Straße"/>
    <tag k="ref" v="K 26"/>
  </way>
  <way id="35406677" version="8" timestamp="2012-09-01T22:19:52Z" uid="161619" user="FvGordon" changeset="12947780">
    <nd ref="264504518"/>
    <nd ref="264504520"/>
    <nd ref="266669923"/>
    <nd ref="266670283"/>
    <nd ref="266670284"/>
    <nd ref="266670285"/>
    <nd ref="266670286"/>
    <nd ref="266670287"/>
    <nd ref="1893928341"/>
    <nd ref="1889651131"/>
    <nd ref="266670289"/>
    <nd ref="266670292"/>
    <tag k="highway" v="tertiary"/>
    <tag k="maxspeed" v="30"/>
    <tag k="name" v="Oher Straße"/>
    <tag k="ref" v="K 26"/>
  </way>
  <way id="35406677" version="9" timestamp="2012-09-01T23:36:50Z" uid="349191" user="Glühwürmchen" changeset="12948177">
    <nd ref="264504518"/>
    <nd ref="1893970146"/>
    <nd ref="1893976342"/>
    <nd ref="1893976341"/>
    <nd ref="1893976340"/>
    <nd ref="1893976339"/>
    <nd ref="266670284"/>
    <nd ref="266670286"/>
    <nd ref="1893976338"/>
    <nd ref="1889651131"/>
    <nd ref="266670292"/>
    <tag k="highway" v="tertiary"/>
    <tag k="maxspeed" v="30"/>
    <tag k="name" v="Oher Straße"/>
    <tag k="ref" v="K 26"/>
  </way>
  <way id="35406677" version="10" timestamp="2012-09-02T06:39:42Z" uid="64255" user="look4book" changeset="12949547">
    <nd ref="264504518"/>
    <nd ref="1893970146"/>
    <nd ref="1893976342"/>
    <nd ref="1893976341"/>
    <nd ref="1893976340"/>
    <nd ref="1893976339"/>
    <nd ref="266670284"/>
    <nd ref="266670286"/>
    <nd ref="1893976338"/>
    <nd ref="1889651131"/>
    <nd ref="266670292"/>
    <tag k="cycleway" v="track"/>
    <tag k="highway" v="tertiary"/>
    <tag k="maxspeed" v="30"/>
    <tag k="name" v="Oher Straße"/>
    <tag k="ref" v="K 26"/>
  </way>
  <way id="35406678" version="8" timestamp="2012-04-09T14:05:55Z" uid="349191" user="Glühwürmchen" changeset="11236595">
    <nd ref="1696237550"/>
    <nd ref="1696237537"/>
    <nd ref="1696344451"/>
    <nd ref="1685902974"/>
    <tag k="highway" v="tertiary"/>
    <tag k="maxspeed" v="30"/>
    <tag k="ref" v="K 26"/>
    <tag k="surface" v="asphalt"/>
  </way>
  <way id="35406678" version="9" timestamp="2012-08-29T02:33:51Z" uid="760215" user="pnorman redaction revert" changeset="12900053"/>
  <way id="35406680" version="6" timestamp="2012-08-29T02:33:51Z" uid="760215" user="pnorman redaction revert" changeset="12900053">
    <nd ref="264504576"/>
    <nd ref="265594206"/>
    <tag k="highway" v="tertiary"/>
    <tag k="maxspeed" v="30"/>
    <tag k="name" v="Große Straße"/>
    <tag k="ref" v="K 26"/>
    <tag k="surface" v="paved"/>
  </way>
  <way id="35406680" version="7" timestamp="2012-08-29T21:39:09Z" uid="63107" user="brogo" changeset="12911167">
    <nd ref="264504578"/>
    <nd ref="1889003502"/>
    <nd ref="1889003504"/>
    <nd ref="1696217937"/>
    <nd ref="1889003506"/>
    <nd ref="1889003508"/>
    <nd ref="264504576"/>
    <nd ref="265594206"/>
    <tag k="highway" v="tertiary"/>
    <tag k="maxspeed" v="30"/>
    <tag k="name" v="Große Straße"/>
    <tag k="ref" v="K 26"/>
    <tag k="surface" v="paved"/>
  </way>
  <way id="35406680" version="8" timestamp="2012-09-01T23:20:04Z" uid="349191" user="Glühwürmchen" changeset="12948177">
    <nd ref="264504578"/>
    <nd ref="1889003502"/>
    <nd ref="1889003504"/>
    <nd ref="1696217937"/>
    <nd ref="1889003506"/>
    <nd ref="1889003508"/>
    <nd ref="264504576"/>
    <nd ref="1893970264"/>
    <nd ref="1893970270"/>
    <nd ref="265594206"/>
    <tag k="highway" v="tertiary"/>
    <tag k="maxspeed" v="30"/>
    <tag k="name" v="Große Straße"/>
    <tag k="ref" v="K 26"/>
    <tag k="surface" v="paved"/>
  </way>
  <way id="35406690" version="5" timestamp="2012-04-29T08:12:49Z" uid="121365" user="AKletti" changeset="11447153">
    <nd ref="415346558"/>
    <nd ref="415346559"/>
    <nd ref="415344679"/>
    <nd ref="415344678"/>
    <nd ref="1734945679"/>
    <tag k="highway" v="track"/>
    <tag k="tracktype" v="grade3"/>
  </way>
</osm>
