<?xml version='1.0' encoding='UTF-8'?>
<osm version="0.6" generator="libosmium/2.20.0">
  <way id="35405006" version="2" timestamp="2009-09-22T05:59:32Z" uid="4467" user="Rosscoe" changeset="2565302">
    <nd ref="415330672"/>
    <nd ref="415330952"/>
    <nd ref="415330953"/>
    <nd ref="415330954"/>
    <tag k="highway" v="residential"/>
    <tag k="name" v="Kalkadoon Place"/>
    <tag k="source" v="survey"/>
    <tag k="surface" v="asphalt"/>
  </way>
  <way id="35405006" version="3" timestamp="2010-07-08T16:21:59Z" uid="74617" user="JohnSmith" changeset="5167338">
    <nd ref="415330672"/>
    <nd ref="415330952"/>
    <nd ref="415330953"/>
    <nd ref="415330954"/>
    <tag k="highway" v="residential"/>
    <tag k="maxspeed" v="50"/>
    <tag k="maxspeed:source" v="default residential speed limit in Australia"/>
    <tag k="name" v="Kalkadoon Place"/>
    <tag k="source" v="survey"/>
    <tag k="surface" v="asphalt"/>
  </way>
  <way id="35405006" version="4" timestamp="2012-01-18T22:16:32Z" uid="147510" user="woodpeck_fixbot" changeset="10431441">
    <nd ref="415330672"/>
    <nd ref="415330952"/>
    <nd ref="415330953"/>
    <nd ref="415330954"/>
    <tag k="highway" v="residential"/>
    <tag k="name" v="Kalkadoon Place"/>
    <tag k="source" v="survey"/>
    <tag k="surface" v="asphalt"/>
  </way>
  <way id="35405007" version="2" timestamp="2009-09-22T05:59:33Z" uid="4467" user="Rosscoe" changeset="2565302">
    <nd ref="415330671"/>
    <nd ref="415330955"/>
    <nd ref="415330956"/>
    <tag k="highway" v="residential"/>
    <tag k="name" v="Kengdelt Place"/>
    <tag k="source" v="survey"/>
    <tag k="surface" v="asphalt"/>
  </way>
  <way id="35405007" version="3" timestamp="2010-07-08T16:19:39Z" uid="74617" user="JohnSmith" changeset="5167338">
    <nd ref="415330671"/>
    <nd ref="415330955"/>
    <nd ref="415330956"/>
    <tag k="highway" v="residential"/>
    <tag k="maxspeed" v="50"/>
    <tag k="maxspeed:source" v="default residential speed limit in Australia"/>
    <tag k="name" v="Kengdelt Place"/>
    <tag k="source" v="survey"/>
    <tag k="surface" v="asphalt"/>
  </way>
  <way id="35405007" version="4" timestamp="2012-01-18T22:16:33Z" uid="147510" user="woodpeck_fixbot" changeset="10431441">
    <nd ref="415330671"/>
    <nd ref="415330955"/>
    <nd ref="415330956"/>
    <tag k="highway" v="residential"/>
    <tag k="name" v="Kengdelt Place"/>
    <tag k="source" v="survey"/>
    <tag k="surface" v="asphalt"/>
  </way>
  <way id="35405028" version="2" timestamp="2009-09-22T05:59:29Z" uid="4467" user="Rosscoe" changeset="2565302">
    <nd ref="415330683"/>
    <nd ref="415331075"/>
    <tag k="highway" v="residential"/>
    <tag k="name" v="Acacia Drive"/>
    <tag k="source" v="survey"/>
    <tag k="surface" v="asphalt"/>
  </way>
  <way id="35405028" version="3" timestamp="2010-07-08T16:21:12Z" uid="74617" user="JohnSmith" changeset="5167338">
    <nd ref="415330683"/>
    <nd ref="415331075"/>
    <tag k="highway" v="residential"/>
    <tag k="maxspeed" v="50"/>
    <tag k="maxspeed:source" v="default residential speed limit in Australia"/>
    <tag k="name" v="Acacia Drive"/>
    <tag k="source" v="survey"/>
    <tag k="surface" v="asphalt"/>
  </way>
  <way id="35405028" version="4" timestamp="2012-01-18T22:16:33Z" uid="147510" user="woodpeck_fixbot" changeset="10431441">
    <nd ref="415330683"/>
    <nd ref="415331075"/>
    <tag k="highway" v="residential"/>
    <tag k="name" v="Acacia Drive"/>
    <tag k="source" v="survey"/>
    <tag k="surface" v="asphalt"/>
  </way>
  <way id="35405029" version="2" timestamp="2009-09-22T05:59:34Z" uid="4467" user="Rosscoe" changeset="2565302">
    <nd ref="415331076"/>
    <nd ref="415331077"/>
    <nd ref="415331075"/>
    <nd ref="415331078"/>
    <tag k="highway" v="residential"/>
    <tag k="name" v="Melaleuca Way"/>
    <tag k="source" v="survey"/>
    <tag k="surface" v="asphalt"/>
  </way>
  <way id="35405029" version="3" timestamp="2010-07-08T16:22:13Z" uid="74617" user="JohnSmith" changeset="5167338">
    <nd ref="415331076"/>
    <nd ref="415331077"/>
    <nd ref="415331075"/>
    <nd ref="415331078"/>
    <tag k="highway" v="residential"/>
    <tag k="maxspeed" v="50"/>
    <tag k="maxspeed:source" v="default residential speed limit in Australia"/>
    <tag k="name" v="Melaleuca Way"/>
    <tag k="source" v="survey"/>
    <tag k="surface" v="asphalt"/>
  </way>
  <way id="35405029" version="4" timestamp="2011-06-15T13:10:32Z" uid="67896" user="mrpulley" changeset="8447144">
    <nd ref="1022570320"/>
    <nd ref="1022570305"/>
    <nd ref="1022570317"/>
    <nd ref="415331077"/>
    <nd ref="415331075"/>
    <nd ref="415331078"/>
    <tag k="highway" v="residential"/>
    <tag k="maxspeed" v="50"/>
    <tag k="maxspeed:source" v="default residential speed limit in Australia"/>
    <tag k="name" v="Melaleuca Way"/>
    <tag k="source" v="survey"/>
    <tag k="surface" v="asphalt"/>
  </way>
  <way id="35405029" version="5" timestamp="2012-01-18T22:16:34Z" uid="147510" user="woodpeck_fixbot" changeset="10431441">
    <nd ref="1022570320"/>
    <nd ref="1022570305"/>
    <nd ref="1022570317"/>
    <nd ref="415331077"/>
    <nd ref="415331075"/>
    <nd ref="415331078"/>
    <tag k="highway" v="residential"/>
    <tag k="name" v="Melaleuca Way"/>
    <tag k="source" v="survey"/>
    <tag k="surface" v="asphalt"/>
  </way>
  <way id="35405030" version="2" timestamp="2009-09-22T05:59:33Z" uid="4467" user="Rosscoe" changeset="2565302">
    <nd ref="415331077"/>
    <nd ref="415331079"/>
    <tag k="highway" v="residential"/>
    <tag k="name" v="Karri Close"/>
    <tag k="source" v="survey"/>
    <tag k="surface" v="asphalt"/>
  </way>
  <way id="35405030" version="3" timestamp="2010-07-08T16:19:49Z" uid="74617" user="JohnSmith" changeset="5167338">
    <nd ref="415331077"/>
    <nd ref="415331079"/>
    <tag k="highway" v="residential"/>
    <tag k="maxspeed" v="50"/>
    <tag k="maxspeed:source" v="default residential speed limit in Australia"/>
    <tag k="name" v="Karri Close"/>
    <tag k="source" v="survey"/>
    <tag k="surface" v="asphalt"/>
  </way>
  <way id="35405030" version="4" timestamp="2012-01-18T22:16:36Z" uid="147510" user="woodpeck_fixbot" changeset="10431441">
    <nd ref="415331077"/>
    <nd ref="415331079"/>
    <tag k="highway" v="residential"/>
    <tag k="name" v="Karri Close"/>
    <tag k="source" v="survey"/>
    <tag k="surface" v="asphalt"/>
  </way>
  <way id="35405048" version="2" timestamp="2009-09-22T05:59:30Z" uid="4467" user="Rosscoe" changeset="2565302">
    <nd ref="415330669"/>
    <nd ref="415330673"/>
    <tag k="highway" v="residential"/>
    <tag k="name" v="Lilac Avenue"/>
    <tag k="source" v="survey"/>
    <tag k="surface" v="paved"/>
  </way>
  <way id="35405048" version="3" timestamp="2010-07-08T16:20:29Z" uid="74617" user="JohnSmith" changeset="5167338">
    <nd ref="415330669"/>
    <nd ref="415330673"/>
    <tag k="highway" v="residential"/>
    <tag k="maxspeed" v="50"/>
    <tag k="maxspeed:source" v="default residential speed limit in Australia"/>
    <tag k="name" v="Lilac Avenue"/>
    <tag k="source" v="survey"/>
    <tag k="surface" v="paved"/>
  </way>
  <way id="35405048" version="4" timestamp="2012-01-18T22:16:37Z" uid="147510" user="woodpeck_fixbot" changeset="10431441">
    <nd ref="415330669"/>
    <nd ref="415330673"/>
    <tag k="highway" v="residential"/>
    <tag k="name" v="Lilac Avenue"/>
    <tag k="source" v="survey"/>
    <tag k="surface" v="paved"/>
  </way>
  <way id="35405062" version="2" timestamp="2009-09-22T05:59:34Z" uid="4467" user="Rosscoe" changeset="2565302">
    <nd ref="415330681"/>
    <nd ref="415331530"/>
    <nd ref="415331531"/>
    <nd ref="415331532"/>
    <nd ref="415331533"/>
    <nd ref="415331534"/>
    <nd ref="415331535"/>
    <nd ref="415331536"/>
    <nd ref="415331537"/>
    <nd ref="415331538"/>
    <nd ref="415331539"/>
    <tag k="highway" v="residential"/>
    <tag k="name" v="Casuarina Drive"/>
    <tag k="source" v="survey"/>
    <tag k="surface" v="paved"/>
  </way>
  <way id="35405062" version="3" timestamp="2010-07-08T16:19:39Z" uid="74617" user="JohnSmith" changeset="5167338">
    <nd ref="415330681"/>
    <nd ref="415331530"/>
    <nd ref="415331531"/>
    <nd ref="415331532"/>
    <nd ref="415331533"/>
    <nd ref="415331534"/>
    <nd ref="415331535"/>
    <nd ref="415331536"/>
    <nd ref="415331537"/>
    <nd ref="415331538"/>
    <nd ref="415331539"/>
    <tag k="highway" v="residential"/>
    <tag k="maxspeed" v="50"/>
    <tag k="maxspeed:source" v="default residential speed limit in Australia"/>
    <tag k="name" v="Casuarina Drive"/>
    <tag k="source" v="survey"/>
    <tag k="surface" v="paved"/>
  </way>
  <way id="35405062" version="4" timestamp="2012-01-18T22:16:38Z" uid="147510" user="woodpeck_fixbot" changeset="10431441">
    <nd ref="415330681"/>
    <nd ref="415331530"/>
    <nd ref="415331531"/>
    <nd ref="415331532"/>
    <nd ref="415331533"/>
    <nd ref="415331534"/>
    <nd ref="415331535"/>
    <nd ref="415331536"/>
    <nd ref="415331537"/>
    <nd ref="415331538"/>
    <nd ref="415331539"/>
    <tag k="highway" v="residential"/>
    <tag k="name" v="Casuarina Drive"/>
    <tag k="source" v="survey"/>
    <tag k="surface" v="paved"/>
  </way>
  <way id="35405072" version="2" timestamp="2009-09-22T05:59:29Z" uid="4467" user="Rosscoe" changeset="2565302">
    <nd ref="415330679"/>
    <nd ref="415331582"/>
    <nd ref="415331583"/>
    <nd ref="415331584"/>
    <nd ref="415331585"/>
    <tag k="highway" v="residential"/>
    <tag k="name" v="Jarrah Place"/>
    <tag k="source" v="survey"/>
    <tag k="surface" v="paved"/>
  </way>
  <way id="35405072" version="3" timestamp="2010-07-08T16:22:03Z" uid="74617" user="JohnSmith" changeset="5167338">
    <nd ref="415330679"/>
    <nd ref="415331582"/>
    <nd ref="415331583"/>
    <nd ref="415331584"/>
    <nd ref="415331585"/>
    <tag k="highway" v="residential"/>
    <tag k="maxspeed" v="50"/>
    <tag k="maxspeed:source" v="default residential speed limit in Australia"/>
    <tag k="name" v="Jarrah Place"/>
    <tag k="source" v="survey"/>
    <tag k="surface" v="paved"/>
  </way>
  <way id="35405072" version="4" timestamp="2012-01-18T22:16:39Z" uid="147510" user="woodpeck_fixbot" changeset="10431441">
    <nd ref="415330679"/>
    <nd ref="415331582"/>
    <nd ref="415331583"/>
    <nd ref="415331584"/>
    <nd ref="415331585"/>
    <tag k="highway" v="residential"/>
    <tag k="name" v="Jarrah Place"/>
    <tag k="source" v="survey"/>
    <tag k="surface" v="paved"/>
  </way>
  <way id="35405096" version="2" timestamp="2009-09-22T05:59:33Z" uid="4467" user="Rosscoe" changeset="2565302">
    <nd ref="304221905"/>
    <nd ref="415331912"/>
    <nd ref="415331913"/>
    <tag k="highway" v="residential"/>
    <tag k="name" v="Mallee Place"/>
    <tag k="source" v="survey"/>
    <tag k="surface" v="paved"/>
  </way>
  <way id="35405096" version="3" timestamp="2010-07-08T16:19:08Z" uid="74617" user="JohnSmith" changeset="5167338">
    <nd ref="304221905"/>
    <nd ref="415331912"/>
    <nd ref="415331913"/>
    <tag k="highway" v="residential"/>
    <tag k="maxspeed" v="50"/>
    <tag k="maxspeed:source" v="default residential speed limit in Australia"/>
    <tag k="name" v="Mallee Place"/>
    <tag k="source" v="survey"/>
    <tag k="surface" v="paved"/>
  </way>
  <way id="35405096" version="4" timestamp="2012-01-18T22:16:40Z" uid="147510" user="woodpeck_fixbot" changeset="10431441">
    <nd ref="304221905"/>
    <nd ref="415331912"/>
    <nd ref="415331913"/>
    <tag k="highway" v="residential"/>
    <tag k="name" v="Mallee Place"/>
    <tag k="source" v="survey"/>
    <tag k="surface" v="paved"/>
  </way>
  <way id="35405097" version="2" timestamp="2009-09-22T05:59:32Z" uid="4467" user="Rosscoe" changeset="2565302">
    <nd ref="415330677"/>
    <nd ref="415331914"/>
    <nd ref="415331915"/>
    <nd ref="415331916"/>
    <nd ref="415331917"/>
    <tag k="highway" v="residential"/>
    <tag k="name" v="Juniper Place"/>
    <tag k="source" v="survey"/>
    <tag k="surface" v="paved"/>
  </way>
  <way id="35405097" version="3" timestamp="2010-07-08T16:20:18Z" uid="74617" user="JohnSmith" changeset="5167338">
    <nd ref="415330677"/>
    <nd ref="415331914"/>
    <nd ref="415331915"/>
    <nd ref="415331916"/>
    <nd ref="415331917"/>
    <tag k="highway" v="residential"/>
    <tag k="maxspeed" v="50"/>
    <tag k="maxspeed:source" v="default residential speed limit in Australia"/>
    <tag k="name" v="Juniper Place"/>
    <tag k="source" v="survey"/>
    <tag k="surface" v="paved"/>
  </way>
  <way id="35405097" version="4" timestamp="2012-01-18T22:16:41Z" uid="147510" user="woodpeck_fixbot" changeset="10431441">
    <nd ref="415330677"/>
    <nd ref="415331914"/>
    <nd ref="415331915"/>
    <nd ref="415331916"/>
    <nd ref="415331917"/>
    <tag k="highway" v="residential"/>
    <tag k="name" v="Juniper Place"/>
    <tag k="source" v="survey"/>
    <tag k="surface" v="paved"/>
  </way>
  <way id="35405161" version="2" timestamp="2009-09-22T05:59:34Z" uid="4467" user="Rosscoe" changeset="2565302">
    <nd ref="415332617"/>
    <nd ref="415332618"/>
    <tag k="highway" v="residential"/>
    <tag k="name" v="Valerie Place"/>
    <tag k="source" v="survey"/>
    <tag k="surface" v="paved"/>
  </way>
  <way id="35405161" version="3" timestamp="2010-07-08T16:22:25Z" uid="74617" user="JohnSmith" changeset="5167338">
    <nd ref="415332617"/>
    <nd ref="415332618"/>
    <tag k="highway" v="residential"/>
    <tag k="maxspeed" v="50"/>
    <tag k="maxspeed:source" v="default residential speed limit in Australia"/>
    <tag k="name" v="Valerie Place"/>
    <tag k="source" v="survey"/>
    <tag k="surface" v="paved"/>
  </way>
  <way id="35405161" version="4" timestamp="2012-01-18T22:16:41Z" uid="147510" user="woodpeck_fixbot" changeset="10431441">
    <nd ref="415332617"/>
    <nd ref="415332618"/>
    <tag k="highway" v="residential"/>
    <tag k="name" v="Valerie Place"/>
    <tag k="source" v="survey"/>
    <tag k="surface" v="paved"/>
  </way>
  <way id="35405162" version="2" timestamp="2009-09-22T05:59:35Z" uid="4467" user="Rosscoe" changeset="2565302">
    <nd ref="80746819"/>
    <nd ref="415332619"/>
    <nd ref="415332620"/>
    <nd ref="415332621"/>
    <nd ref="415332622"/>
    <nd ref="415332623"/>
    <nd ref="415332624"/>
    <nd ref="415332625"/>
    <nd ref="415332626"/>
    <nd ref="415332617"/>
    <nd ref="415332627"/>
    <nd ref="415332628"/>
    <nd ref="415332629"/>
    <nd ref="415332630"/>
    <nd ref="415332631"/>
    <nd ref="415332632"/>
    <nd ref="415332633"/>
    <nd ref="415332634"/>
    <nd ref="415332635"/>
    <nd ref="415332636"/>
    <tag k="highway" v="residential"/>
    <tag k="name" v="Laurel Avenue"/>
    <tag k="source" v="survey"/>
    <tag k="surface" v="paved"/>
  </way>
  <way id="35405162" version="3" timestamp="2010-07-08T16:19:58Z" uid="74617" user="JohnSmith" changeset="5167338">
    <nd ref="80746819"/>
    <nd ref="415332619"/>
    <nd ref="415332620"/>
    <nd ref="415332621"/>
    <nd ref="415332622"/>
    <nd ref="415332623"/>
    <nd ref="415332624"/>
    <nd ref="415332625"/>
    <nd ref="415332626"/>
    <nd ref="415332617"/>
    <nd ref="415332627"/>
    <nd ref="415332628"/>
    <nd ref="415332629"/>
    <nd ref="415332630"/>
    <nd ref="415332631"/>
    <nd ref="415332632"/>
    <nd ref="415332633"/>
    <nd ref="415332634"/>
    <nd ref="415332635"/>
    <nd ref="415332636"/>
    <tag k="highway" v="residential"/>
    <tag k="maxspeed" v="50"/>
    <tag k="maxspeed:source" v="default residential speed limit in Australia"/>
    <tag k="name" v="Laurel Avenue"/>
    <tag k="source" v="survey"/>
    <tag k="surface" v="paved"/>
  </way>
  <way id="35405162" version="4" timestamp="2012-01-18T22:16:43Z" uid="147510" user="woodpeck_fixbot" changeset="10431441">
    <nd ref="80746819"/>
    <nd ref="415332619"/>
    <nd ref="415332620"/>
    <nd ref="415332621"/>
    <nd ref="415332622"/>
    <nd ref="415332623"/>
    <nd ref="415332624"/>
    <nd ref="415332625"/>
    <nd ref="415332626"/>
    <nd ref="415332617"/>
    <nd ref="415332627"/>
    <nd ref="415332628"/>
    <nd ref="415332629"/>
    <nd ref="415332630"/>
    <nd ref="415332631"/>
    <nd ref="415332632"/>
    <nd ref="415332633"/>
    <nd ref="415332634"/>
    <nd ref="415332635"/>
    <nd ref="415332636"/>
    <tag k="highway" v="residential"/>
    <tag k="name" v="Laurel Avenue"/>
    <tag k="source" v="survey"/>
    <tag k="surface" v="paved"/>
  </way>
  <way id="35405165" version="2" timestamp="2009-09-22T05:59:29Z" uid="4467" user="Rosscoe" changeset="2565302">
    <nd ref="415332620"/>
    <nd ref="415332640"/>
    <nd ref="415332642"/>
    <nd ref="415332643"/>
    <nd ref="415332644"/>
    <nd ref="415332645"/>
    <nd ref="415332646"/>
    <tag k="highway" v="service"/>
    <tag k="name" v="Laurel Avenue"/>
    <tag k="source" v="survey"/>
    <tag k="surface" v="paved"/>
  </way>
  <way id="35405471" version="6" timestamp="2010-10-03T06:50:33Z" uid="33382" user="de_muur" changeset="5941344"/>
  <way id="35405480" version="6" timestamp="2010-10-03T06:49:58Z" uid="33382" user="de_muur" changeset="5941344">
    <nd ref="21652057"/>
    <nd ref="21652056"/>
    <nd ref="369297450"/>
    <nd ref="21652055"/>
    <nd ref="369297455"/>
    <nd ref="363477362"/>
    <nd ref="21652052"/>
    <tag k="highway" v="secondary"/>
    <tag k="maxspeed" v="50"/>
    <tag k="name" v="Sachsenwaldstraße"/>
    <tag k="ref" v="K 26; L 314"/>
    <tag k="surface" v="paved"/>
  </way>
  <way id="35405579" version="2" timestamp="2010-07-06T17:25:57Z" uid="74617" user="JohnSmith" changeset="5152225">
    <nd ref="415336823"/>
    <nd ref="415336824"/>
    <nd ref="415336823"/>
    <tag k="highway" v="residential"/>
    <tag k="maxspeed" v="50"/>
    <tag k="maxspeed:source" v="default residential speed limit in Australia"/>
    <tag k="name" v="Devco"/>
  </way>
  <way id="35405579" version="3" timestamp="2011-01-06T01:34:52Z" uid="4467" user="Rosscoe" changeset="6878261"/>
  <way id="35405877" version="4" timestamp="2010-12-12T08:15:00Z" uid="33382" user="de_muur" changeset="6632992">
    <nd ref="415340484"/>
    <nd ref="415340485"/>
    <nd ref="415340486"/>
    <nd ref="415340487"/>
    <nd ref="415340488"/>
    <nd ref="415340489"/>
    <nd ref="415340484"/>
    <tag k="access" v="no"/>
    <tag k="addr:city" v="Achim"/>
    <tag k="addr:housenumber" v="9"/>
    <tag k="addr:postcode" v="28832"/>
    <tag k="addr:street" v="Gaswerkstraße"/>
    <tag k="fenced" v="yes"/>
    <tag k="name" v="Umspannwerk Achim"/>
    <tag k="operator" v="EON_Netz"/>
    <tag k="power" v="station"/>
    <tag k="voltage" v="110000"/>
  </way>
  <way id="35405877" version="5" timestamp="2011-05-16T06:42:47Z" uid="13203" user="bahnpirat" changeset="8159423">
    <nd ref="415340484"/>
    <nd ref="415340485"/>
    <nd ref="415340486"/>
    <nd ref="415340487"/>
    <nd ref="415340488"/>
    <nd ref="415340489"/>
    <nd ref="415340484"/>
    <tag k="access" v="no"/>
    <tag k="addr:city" v="Achim"/>
    <tag k="addr:housenumber" v="9"/>
    <tag k="addr:postcode" v="28832"/>
    <tag k="addr:street" v="Gaswerkstraße"/>
    <tag k="fenced" v="yes"/>
    <tag k="frequency" v="50"/>
    <tag k="name" v="Achim"/>
    <tag k="operator" v="EON_Netz"/>
    <tag k="power" v="sub_station"/>
    <tag k="voltage" v="110000"/>
  </way>
  <way id="35405877" version="6" timestamp="2011-05-16T06:51:48Z" uid="13203" user="bahnpirat" changeset="8159423">
    <nd ref="415340484"/>
    <nd ref="415340485"/>
    <nd ref="415340486"/>
    <nd ref="415340487"/>
    <nd ref="415340488"/>
    <nd ref="415340489"/>
    <nd ref="415340484"/>
    <tag k="access" v="no"/>
    <tag k="addr:city" v="Achim"/>
    <tag k="addr:housenumber" v="9"/>
    <tag k="addr:postcode" v="28832"/>
    <tag k="addr:street" v="Gaswerkstraße"/>
    <tag k="fenced" v="yes"/>
    <tag k="frequency" v="50"/>
    <tag k="name" v="Etelsen"/>
    <tag k="operator" v="EON_Netz"/>
    <tag k="power" v="line"/>
    <tag k="ref" v="1193"/>
    <tag k="voltage" v="110000"/>
  </way>
  <way id="35405877" version="7" timestamp="2011-10-22T15:01:58Z" uid="42429" user="FK270673" changeset="9624843">
    <nd ref="415340484"/>
    <nd ref="415340485"/>
    <nd ref="415340486"/>
    <nd ref="415340487"/>
    <nd ref="415340488"/>
    <nd ref="415340489"/>
    <nd ref="415340484"/>
    <tag k="access" v="no"/>
    <tag k="addr:city" v="Achim"/>
    <tag k="addr:housenumber" v="9"/>
    <tag k="addr:postcode" v="28832"/>
    <tag k="addr:street" v="Gaswerkstraße"/>
    <tag k="fenced" v="yes"/>
    <tag k="frequency" v="50"/>
    <tag k="name" v="Umspannwerk Etelsen"/>
    <tag k="operator" v="EON_Netz"/>
    <tag k="power" v="station"/>
    <tag k="ref" v="1193"/>
    <tag k="voltage" v="110000"/>
  </way>
  <way id="35405006" version="5" timestamp="2012-07-19T14:46:51Z" uid="722137" user="OSMF Redaction Account" changeset="12331990">
    <nd ref="415330672"/>
    <nd ref="415330952"/>
    <nd ref="415330953"/>
    <nd ref="415330954"/>
    <tag k="highway" v="residential"/>
    <tag k="name" v="Kalkadoon Place"/>
    <tag k="source" v="GPS"/>
    <tag k="surface" v="asphalt"/>
  </way>
  <way id="35405007" version="5" timestamp="2012-07-19T14:46:51Z" uid="722137" user="OSMF Redaction Account" changeset="12331990">
    <nd ref="415330671"/>
    <nd ref="415330955"/>
    <nd ref="415330956"/>
    <tag k="highway" v="residential"/>
    <tag k="name" v="Kengdelt Place"/>
    <tag k="source" v="GPS"/>
    <tag k="surface" v="asphalt"/>
  </way>
  <way id="35405028" version="5" timestamp="2012-07-19T14:46:49Z" uid="722137" user="OSMF Redaction Account" changeset="12331990">
    <nd ref="415330683"/>
    <nd ref="415331075"/>
    <tag k="highway" v="residential"/>
    <tag k="name" v="Acacia Drive"/>
    <tag k="source" v="GPS"/>
    <tag k="surface" v="asphalt"/>
  </way>
  <way id="35405029" version="6" timestamp="2012-07-19T14:46:48Z" uid="722137" user="OSMF Redaction Account" changeset="12331990">
    <nd ref="1022570320"/>
    <nd ref="1022570305"/>
    <nd ref="1022570317"/>
    <nd ref="415331077"/>
    <nd ref="415331075"/>
    <nd ref="415331078"/>
    <tag k="highway" v="residential"/>
    <tag k="name" v="Melaleuca Way"/>
    <tag k="source" v="GPS"/>
    <tag k="surface" v="asphalt"/>
  </way>
  <way id="35405030" version="5" timestamp="2012-07-19T14:46:49Z" uid="722137" user="OSMF Redaction Account" changeset="12331990">
    <nd ref="415331077"/>
    <nd ref="415331079"/>
    <tag k="highway" v="residential"/>
    <tag k="name" v="Karri Close"/>
    <tag k="source" v="GPS"/>
    <tag k="surface" v="asphalt"/>
  </way>
  <way id="35405048" version="5" timestamp="2012-07-19T14:46:48Z" uid="722137" user="OSMF Redaction Account" changeset="12331990">
    <nd ref="415330669"/>
    <nd ref="415330673"/>
    <tag k="highway" v="residential"/>
    <tag k="name" v="Lilac Avenue"/>
    <tag k="source" v="GPS"/>
    <tag k="surface" v="paved"/>
  </way>
  <way id="35405062" version="5" timestamp="2012-07-19T14:46:46Z" uid="722137" user="OSMF Redaction Account" changeset="12331990">
    <nd ref="415330681"/>
    <nd ref="415331530"/>
    <nd ref="415331531"/>
    <nd ref="415331532"/>
    <nd ref="415331533"/>
    <nd ref="415331534"/>
    <nd ref="415331535"/>
    <nd ref="415331536"/>
    <nd ref="415331537"/>
    <nd ref="415331538"/>
    <nd ref="415331539"/>
    <tag k="highway" v="residential"/>
    <tag k="name" v="Casuarina Drive"/>
    <tag k="source" v="GPS"/>
    <tag k="surface" v="paved"/>
  </way>
  <way id="35405072" version="5" timestamp="2012-07-19T14:46:45Z" uid="722137" user="OSMF Redaction Account" changeset="12331990">
    <nd ref="415330679"/>
    <nd ref="415331582"/>
    <nd ref="415331583"/>
    <nd ref="415331584"/>
    <nd ref="415331585"/>
    <tag k="highway" v="residential"/>
    <tag k="name" v="Jarrah Place"/>
    <tag k="source" v="GPS"/>
    <tag k="surface" v="paved"/>
  </way>
  <way id="35405096" version="5" timestamp="2012-07-19T14:46:44Z" uid="722137" user="OSMF Redaction Account" changeset="12331990">
    <nd ref="304221905"/>
    <nd ref="415331912"/>
    <nd ref="415331913"/>
    <tag k="highway" v="residential"/>
    <tag k="name" v="Mallee Place"/>
    <tag k="source" v="GPS"/>
    <tag k="surface" v="paved"/>
  </way>
  <way id="35405097" version="5" timestamp="2012-07-19T14:46:44Z" uid="722137" user="OSMF Redaction Account" changeset="12331990">
    <nd ref="415330677"/>
    <nd ref="415331914"/>
    <nd ref="415331915"/>
    <nd ref="415331916"/>
    <nd ref="415331917"/>
    <tag k="highway" v="residential"/>
    <tag k="name" v="Juniper Place"/>
    <tag k="source" v="GPS"/>
    <tag k="surface" v="paved"/>
  </way>
  <way id="35405161" version="5" timestamp="2012-07-19T14:46:43Z" uid="722137" user="OSMF Redaction Account" changeset="12331990">
    <nd ref="415332617"/>
    <nd ref="415332618"/>
    <tag k="highway" v="residential"/>
    <tag k="name" v="Valerie Place"/>
    <tag k="source" v="GPS"/>
    <tag k="surface" v="paved"/>
  </way>
  <way id="35405162" version="5" timestamp="2012-07-19T14:46:47Z" uid="722137" user="OSMF Redaction Account" changeset="12331990">
    <nd ref="80746819"/>
    <nd ref="415332619"/>
    <nd ref="415332620"/>
    <nd ref="415332621"/>
    <nd ref="415332622"/>
    <nd ref="415332623"/>
    <nd ref="415332624"/>
    <nd ref="415332625"/>
    <nd ref="415332626"/>
    <nd ref="415332617"/>
    <nd ref="415332627"/>
    <nd ref="415332628"/>
    <nd ref="415332629"/>
    <nd ref="415332630"/>
    <nd ref="415332631"/>
    <nd ref="415332632"/>
    <nd ref="415332633"/>
    <nd ref="415332634"/>
    <nd ref="415332635"/>
    <nd ref="415332636"/>
    <tag k="highway" v="residential"/>
    <tag k="name" v="Laurel Avenue"/>
    <tag k="source" v="GPS"/>
    <tag k="surface" v="paved"/>
  </way>
  <way id="35405165" version="3" timestamp="2012-07-19T14:46:45Z" uid="722137" user="OSMF Redaction Account" changeset="12331990">
    <nd ref="415332620"/>
    <nd ref="415332640"/>
    <nd ref="415332642"/>
    <nd ref="415332643"/>
    <nd ref="415332644"/>
    <nd ref="415332645"/>
    <nd ref="415332646"/>
    <tag k="highway" v="service"/>
    <tag k="name" v="Laurel Avenue"/>
    <tag k="source" v="GPS"/>
    <tag k="surface" v="paved"/>
  </way>
  <way id="35405480" version="7" timestamp="2012-07-17T10:57:22Z" uid="722137" user="OSMF Redaction Account" changeset="12263570">
    <nd ref="21652057"/>
    <nd ref="21652056"/>
    <nd ref="369297450"/>
    <nd ref="21652055"/>
    <nd ref="369297455"/>
    <nd ref="363477362"/>
    <nd ref="21652052"/>
    <tag k="highway" v="secondary"/>
    <tag k="maxspeed" v="50"/>
    <tag k="name" v="Sachsenwaldstraße"/>
    <tag k="ref" v="K 26; L 314"/>
  </way>
  <way id="35405877" version="8" timestamp="2012-07-19T02:26:09Z" uid="722137" user="OSMF Redaction Account" changeset="12305054">
    <nd ref="415340484"/>
    <nd ref="415340485"/>
    <nd ref="415340486"/>
    <nd ref="415340487"/>
    <nd ref="415340488"/>
    <nd ref="415340489"/>
    <nd ref="415340484"/>
    <tag k="access" v="no"/>
    <tag k="addr:city" v="Achim"/>
    <tag k="addr:housenumber" v="9"/>
    <tag k="addr:postcode" v="28832"/>
    <tag k="addr:street" v="Gaswerkstraße"/>
    <tag k="frequency" v="50"/>
    <tag k="name" v="Umspannwerk Etelsen"/>
    <tag k="operator" v="EON_Netz"/>
    <tag k="power" v="station"/>
    <tag k="ref" v="1193"/>
    <tag k="voltage" v="110000"/>
  </way>
</osm>
