<?xml version='1.0' encoding='UTF-8'?>
<osm version="0.6" generator="libosmium/2.20.0">
  <way id="35780520" version="1" timestamp="2009-06-10T17:56:04Z" uid="43863" user="Rundling" changeset="1480012">
    <nd ref="418361325"/>
    <nd ref="418361327"/>
    <nd ref="418361328"/>
    <nd ref="418361326"/>
    <nd ref="418361325"/>
    <tag k="building" v="yes"/>
  </way>
  <way id="35780931" version="5" timestamp="2010-03-28T02:17:38Z" uid="20587" user="balrog-kun" changeset="4250871">
    <nd ref="268901075"/>
    <nd ref="268901087"/>
    <nd ref="268901088"/>
    <nd ref="268901089"/>
    <nd ref="268901090"/>
    <nd ref="268901058"/>
    <tag k="bridge" v="yes"/>
    <tag k="highway" v="motorway"/>
    <tag k="layer" v="1"/>
    <tag k="name" v="Pomona Freeway"/>
    <tag k="oneway" v="yes"/>
    <tag k="ref" v="CA 60"/>
  </way>
  <way id="35780931" version="6" timestamp="2011-01-19T22:13:24Z" uid="82317" user="AM909" changeset="7025519">
    <nd ref="1110946202"/>
    <nd ref="268901087"/>
    <tag k="highway" v="motorway"/>
    <tag k="layer" v="1"/>
    <tag k="name" v="Pomona Freeway"/>
    <tag k="oneway" v="yes"/>
    <tag k="ref" v="CA 60"/>
  </way>
  <way id="35780931" version="7" timestamp="2011-06-30T05:58:13Z" uid="4951" user="PeterIto" changeset="8587165">
    <nd ref="1110946202"/>
    <nd ref="268901087"/>
    <tag k="highway" v="motorway"/>
    <tag k="name" v="Pomona Freeway"/>
    <tag k="oneway" v="yes"/>
    <tag k="ref" v="CA 60"/>
  </way>
  <way id="35780931" version="8" timestamp="2011-07-29T05:23:21Z" uid="207745" user="NE2" changeset="8860294">
    <nd ref="1110946202"/>
    <nd ref="268901087"/>
    <tag k="highway" v="motorway"/>
    <tag k="lanes" v="5"/>
    <tag k="name" v="Pomona Freeway"/>
    <tag k="oneway" v="yes"/>
    <tag k="ref" v="CA 60"/>
  </way>
  <way id="35780931" version="9" timestamp="2011-11-25T14:50:25Z" uid="207745" user="NE2" changeset="9943893">
    <nd ref="1110946202"/>
    <nd ref="268901087"/>
    <tag k="hgv:national_network" v="yes"/>
    <tag k="highway" v="motorway"/>
    <tag k="lanes" v="5"/>
    <tag k="name" v="Pomona Freeway"/>
    <tag k="oneway" v="yes"/>
    <tag k="ref" v="CA 60"/>
    <tag k="source:hgv:national_network" v="Title 23: Highways Part 658 http://ecfr.gpoaccess.gov/cgi/t/text/text-idx?c=ecfr&amp;rgn=div5&amp;view=text&amp;node=23:1.0.1.7.33&amp;idno=23"/>
  </way>
  <way id="35780931" version="10" timestamp="2011-11-25T17:18:39Z" uid="207745" user="NE2" changeset="9945963">
    <nd ref="1110946202"/>
    <nd ref="268901087"/>
    <tag k="hgv" v="designated"/>
    <tag k="hgv:national_network" v="yes"/>
    <tag k="highway" v="motorway"/>
    <tag k="lanes" v="5"/>
    <tag k="name" v="Pomona Freeway"/>
    <tag k="oneway" v="yes"/>
    <tag k="ref" v="CA 60"/>
    <tag k="source:hgv:national_network" v="Title 23: Highways Part 658 http://ecfr.gpoaccess.gov/cgi/t/text/text-idx?c=ecfr&amp;rgn=div5&amp;view=text&amp;node=23:1.0.1.7.33&amp;idno=23"/>
  </way>
  <way id="35780520" version="2" timestamp="2012-07-17T08:13:24Z" uid="722137" user="OSMF Redaction Account" changeset="12260187"/>
  <way id="35780931" version="11" timestamp="2012-09-01T07:07:17Z" uid="207745" user="NE2" changeset="12939017">
    <nd ref="1110946202"/>
    <nd ref="268901087"/>
    <tag k="bicycle" v="no"/>
    <tag k="hgv" v="designated"/>
    <tag k="hgv:national_network" v="yes"/>
    <tag k="highway" v="motorway"/>
    <tag k="lanes" v="5"/>
    <tag k="name" v="Pomona Freeway"/>
    <tag k="oneway" v="yes"/>
    <tag k="ref" v="CA 60"/>
    <tag k="source:hgv:national_network" v="Title 23: Highways Part 658 http://ecfr.gpoaccess.gov/cgi/t/text/text-idx?c=ecfr&amp;rgn=div5&amp;view=text&amp;node=23:1.0.1.7.33&amp;idno=23"/>
  </way>
</osm>
