<?xml version='1.0' encoding='UTF-8'?>
<osm version="0.6" generator="libosmium/2.20.0">
  <way id="35804005" version="2" timestamp="2010-03-28T02:17:47Z" uid="20587" user="balrog-kun" changeset="4250871">
    <nd ref="418625283"/>
    <nd ref="418625281"/>
    <nd ref="418625286"/>
    <tag k="highway" v="residential"/>
    <tag k="name" v="Falconview Court"/>
    <tag k="source" v="survey;image;yahoo_imagry"/>
    <tag k="source_ref" v="AM909_DSCN0890"/>
  </way>
  <way id="35804009" version="3" timestamp="2010-03-28T02:17:47Z" uid="20587" user="balrog-kun" changeset="4250871">
    <nd ref="418625607"/>
    <nd ref="418625610"/>
    <tag k="highway" v="residential"/>
    <tag k="name" v="Caribou Lane"/>
    <tag k="source" v="survey;image;yahoo_imagry"/>
    <tag k="source_ref" v="AM909_DSCN1037"/>
  </way>
  <way id="35804010" version="3" timestamp="2010-03-28T02:17:48Z" uid="20587" user="balrog-kun" changeset="4250871">
    <nd ref="418625613"/>
    <nd ref="418625615"/>
    <tag k="highway" v="residential"/>
    <tag k="name" v="Elk Court"/>
    <tag k="source" v="survey;image;yahoo_imagry"/>
    <tag k="source_ref" v="AM909_DSCN1038"/>
  </way>
  <way id="35804011" version="3" timestamp="2010-03-28T02:17:48Z" uid="20587" user="balrog-kun" changeset="4250871">
    <nd ref="418625616"/>
    <nd ref="418625620"/>
    <tag k="highway" v="residential"/>
    <tag k="name" v="Trailhawk Avenue"/>
    <tag k="source" v="survey;image;yahoo_imagry"/>
    <tag k="source_ref" v="AM909_DSCN1039"/>
  </way>
  <way id="35804012" version="3" timestamp="2010-03-28T02:17:48Z" uid="20587" user="balrog-kun" changeset="4250871">
    <nd ref="418625618"/>
    <nd ref="418625624"/>
    <nd ref="418625622"/>
    <tag k="highway" v="residential"/>
    <tag k="name" v="Fox Hunt Place"/>
    <tag k="source" v="survey;image;yahoo_imagry"/>
    <tag k="source_ref" v="AM909_DSCN1040"/>
  </way>
  <way id="35804013" version="3" timestamp="2010-03-28T02:17:48Z" uid="20587" user="balrog-kun" changeset="4250871">
    <nd ref="418625500"/>
    <nd ref="418625511"/>
    <tag k="highway" v="residential"/>
    <tag k="name" v="Archery Court"/>
    <tag k="source" v="survey;image;yahoo_imagry"/>
    <tag k="source_ref" v="AM909_DSCN1032"/>
  </way>
  <way id="35804014" version="3" timestamp="2010-03-28T02:17:48Z" uid="20587" user="balrog-kun" changeset="4250871">
    <nd ref="418625515"/>
    <nd ref="418625504"/>
    <tag k="highway" v="residential"/>
    <tag k="name" v="Wildlife Court"/>
    <tag k="source" v="survey;image;yahoo_imagry"/>
    <tag k="source_ref" v="AM909_DSCN1031"/>
  </way>
  <way id="35804019" version="3" timestamp="2010-03-28T02:17:48Z" uid="20587" user="balrog-kun" changeset="4250871">
    <nd ref="418625595"/>
    <nd ref="419479081"/>
    <nd ref="418625594"/>
    <nd ref="54681447"/>
    <nd ref="54879829"/>
    <nd ref="54932420"/>
    <nd ref="54622601"/>
    <tag k="highway" v="residential"/>
    <tag k="name" v="Sorrel Lane"/>
    <tag k="tiger:cfcc" v="A41"/>
    <tag k="tiger:county" v="San Bernardino, CA"/>
    <tag k="tiger:name_base" v="Sorrel"/>
    <tag k="tiger:name_type" v="Ln"/>
    <tag k="tiger:separated" v="no"/>
    <tag k="tiger:source" v="tiger_import_dch_v0.6_20070809"/>
    <tag k="tiger:tlid" v="144983710:144989451"/>
    <tag k="tiger:zip_left" v="92336"/>
    <tag k="tiger:zip_right" v="92336"/>
  </way>
  <way id="35804019" version="4" timestamp="2011-01-25T08:04:08Z" uid="82317" user="AM909" changeset="7081074">
    <nd ref="418625595"/>
    <nd ref="419479081"/>
    <nd ref="418625594"/>
    <nd ref="54681447"/>
    <nd ref="54879829"/>
    <nd ref="54622601"/>
    <tag k="highway" v="residential"/>
    <tag k="name" v="Sorrel Lane"/>
    <tag k="source" v="bing_imagery_0.25m_200601"/>
    <tag k="tiger:cfcc" v="A41"/>
    <tag k="tiger:county" v="San Bernardino, CA"/>
    <tag k="tiger:name_base" v="Sorrel"/>
    <tag k="tiger:name_type" v="Ln"/>
    <tag k="tiger:separated" v="no"/>
    <tag k="tiger:source" v="tiger_import_dch_v0.6_20070809"/>
    <tag k="tiger:tlid" v="144983710:144989451"/>
    <tag k="tiger:zip_left" v="92336"/>
    <tag k="tiger:zip_right" v="92336"/>
  </way>
  <way id="35804019" version="5" timestamp="2011-10-14T22:47:11Z" uid="82317" user="AM909" changeset="9559923">
    <nd ref="418625595"/>
    <nd ref="419479081"/>
    <nd ref="418625594"/>
    <nd ref="1467714286"/>
    <nd ref="54681447"/>
    <nd ref="1467713996"/>
    <nd ref="54879829"/>
    <nd ref="54622601"/>
    <tag k="highway" v="residential"/>
    <tag k="name" v="Sorrel Lane"/>
    <tag k="source" v="bing_imagery_0.25m_200601"/>
    <tag k="tiger:cfcc" v="A41"/>
    <tag k="tiger:county" v="San Bernardino, CA"/>
    <tag k="tiger:name_base" v="Sorrel"/>
    <tag k="tiger:name_type" v="Ln"/>
    <tag k="tiger:separated" v="no"/>
    <tag k="tiger:source" v="tiger_import_dch_v0.6_20070809"/>
    <tag k="tiger:tlid" v="144983710:144989451"/>
    <tag k="tiger:zip_left" v="92336"/>
    <tag k="tiger:zip_right" v="92336"/>
  </way>
  <way id="35804020" version="4" timestamp="2010-03-28T02:17:48Z" uid="20587" user="balrog-kun" changeset="4250871">
    <nd ref="572598831"/>
    <nd ref="418625600"/>
    <nd ref="418625622"/>
    <nd ref="418625620"/>
    <nd ref="418625615"/>
    <nd ref="418625610"/>
    <nd ref="418625603"/>
    <nd ref="418625605"/>
    <nd ref="418625595"/>
    <tag k="highway" v="residential"/>
    <tag k="name" v="Deer Drive"/>
    <tag k="source" v="survey;image;yahoo_imagry"/>
    <tag k="source_ref" v="AM909_DSCN1036"/>
  </way>
  <way id="35804032" version="3" timestamp="2010-03-28T02:17:48Z" uid="20587" user="balrog-kun" changeset="4250871">
    <nd ref="418625551"/>
    <nd ref="418625553"/>
    <nd ref="418625557"/>
    <tag k="highway" v="residential"/>
    <tag k="name" v="Crane Street"/>
    <tag k="source" v="survey;image;yahoo_imagry"/>
    <tag k="source_ref" v="AM909_DSCN1025"/>
  </way>
  <way id="35804033" version="2" timestamp="2010-03-28T02:17:48Z" uid="20587" user="balrog-kun" changeset="4250871">
    <nd ref="418625923"/>
    <nd ref="418625925"/>
    <nd ref="418625926"/>
    <nd ref="418625872"/>
    <nd ref="418625928"/>
    <nd ref="418625929"/>
    <nd ref="418625841"/>
    <nd ref="418625930"/>
    <nd ref="418625931"/>
    <nd ref="418625908"/>
    <nd ref="418625910"/>
    <nd ref="418625912"/>
    <nd ref="418625914"/>
    <nd ref="418625915"/>
    <nd ref="418625916"/>
    <nd ref="418625852"/>
    <tag k="highway" v="residential"/>
    <tag k="name" v="Roosevelt Drive"/>
    <tag k="source" v="survey;image;yahoo_imagry"/>
    <tag k="source_ref" v="AM909_DSCN0922"/>
  </way>
  <way id="35804033" version="3" timestamp="2011-10-22T21:24:19Z" uid="82317" user="AM909" changeset="9628080">
    <nd ref="418625923"/>
    <nd ref="418625925"/>
    <nd ref="418625926"/>
    <nd ref="418625872"/>
    <nd ref="418625928"/>
    <nd ref="418625929"/>
    <nd ref="418625841"/>
    <nd ref="418625930"/>
    <nd ref="418625931"/>
    <nd ref="418625908"/>
    <nd ref="418625910"/>
    <nd ref="418625912"/>
    <nd ref="1477088979"/>
    <nd ref="418625914"/>
    <nd ref="1477088974"/>
    <nd ref="418625915"/>
    <nd ref="418625916"/>
    <nd ref="418625852"/>
    <nd ref="418625919"/>
    <tag k="highway" v="residential"/>
    <tag k="name" v="Roosevelt Drive"/>
    <tag k="note" v="Mis-signed Pl at American and Arlington. All other sources, signs show Dr."/>
    <tag k="source" v="bing_imagery_0.25m_201005;survey;image;USPS;SBCA;TIGER09"/>
    <tag k="source_ref" v="AM909_DSCY2556;AM909_DSCY2557;AM909_DSCY2558;AM909_DSCY2559;AM909_DSCY2560;AM909_DSCY2561;AM909_DSCY2562;AM0226-84"/>
  </way>
  <way id="35804036" version="2" timestamp="2010-03-28T02:17:49Z" uid="20587" user="balrog-kun" changeset="4250871">
    <nd ref="392519864"/>
    <nd ref="418625923"/>
    <nd ref="418625887"/>
    <nd ref="418625885"/>
    <nd ref="418625883"/>
    <tag k="highway" v="residential"/>
    <tag k="name" v="Reagan Drive"/>
    <tag k="source" v="survey;image;yahoo_imagry"/>
    <tag k="source_ref" v="AM909_DSCN0921"/>
  </way>
  <way id="35804036" version="3" timestamp="2011-10-22T21:24:20Z" uid="82317" user="AM909" changeset="9628080">
    <nd ref="392519864"/>
    <nd ref="418625923"/>
    <nd ref="418625887"/>
    <nd ref="418625885"/>
    <nd ref="418625883"/>
    <tag k="highway" v="residential"/>
    <tag k="image_direction" v="NW"/>
    <tag k="name" v="Reagan Drive"/>
    <tag k="source" v="bing_imagery_0.25m_201005;survey;image"/>
    <tag k="source_ref" v="AM909_DSCY2562"/>
  </way>
  <way id="35804036" version="4" timestamp="2012-03-26T01:24:04Z" uid="28775" user="StellanL" changeset="11101445">
    <nd ref="392519864"/>
    <nd ref="1475531111"/>
    <nd ref="418625923"/>
    <nd ref="418625887"/>
    <nd ref="418625885"/>
    <nd ref="418625883"/>
    <tag k="highway" v="residential"/>
    <tag k="image_direction" v="NW"/>
    <tag k="name" v="Reagan Drive"/>
    <tag k="source" v="bing_imagery_0.25m_201005;survey;image"/>
    <tag k="source_ref" v="AM909_DSCY2562"/>
  </way>
  <way id="35804038" version="2" timestamp="2010-03-28T02:17:49Z" uid="20587" user="balrog-kun" changeset="4250871">
    <nd ref="418625887"/>
    <nd ref="418625886"/>
    <nd ref="418625890"/>
    <nd ref="418625888"/>
    <nd ref="418625893"/>
    <nd ref="418625891"/>
    <nd ref="418625857"/>
    <nd ref="418625921"/>
    <tag k="highway" v="residential"/>
    <tag k="name" v="Madison Lane"/>
    <tag k="source" v="survey;image;yahoo_imagry"/>
    <tag k="source_ref" v="AM909_DSCN0920"/>
  </way>
  <way id="35804038" version="3" timestamp="2011-10-22T21:24:19Z" uid="82317" user="AM909" changeset="9628080">
    <nd ref="418625887"/>
    <nd ref="418625886"/>
    <nd ref="418625890"/>
    <nd ref="418625888"/>
    <nd ref="418625893"/>
    <nd ref="418625857"/>
    <nd ref="418625921"/>
    <tag k="highway" v="residential"/>
    <tag k="name" v="Madison Lane"/>
    <tag k="source" v="survey;image;yahoo_imagry"/>
    <tag k="source_ref" v="AM909_DSCN0920"/>
  </way>
  <way id="35804043" version="2" timestamp="2010-03-28T02:17:49Z" uid="20587" user="balrog-kun" changeset="4250871">
    <nd ref="418625881"/>
    <nd ref="418625877"/>
    <tag k="highway" v="residential"/>
    <tag k="name" v="Jefferson Court"/>
    <tag k="source" v="survey;image;yahoo_imagry"/>
    <tag k="source_ref" v="AM909_DSCN0925"/>
  </way>
  <way id="35804044" version="2" timestamp="2010-03-28T02:17:49Z" uid="20587" user="balrog-kun" changeset="4250871">
    <nd ref="418625872"/>
    <nd ref="418625879"/>
    <nd ref="418625881"/>
    <nd ref="418625876"/>
    <nd ref="418625859"/>
    <nd ref="418625921"/>
    <tag k="highway" v="residential"/>
    <tag k="name" v="Hoover Lane"/>
    <tag k="source" v="survey;image;yahoo_imagry"/>
    <tag k="source_ref" v="AM909_DSCN0924"/>
  </way>
  <way id="35804044" version="3" timestamp="2011-10-22T21:24:18Z" uid="82317" user="AM909" changeset="9628080">
    <nd ref="418625872"/>
    <nd ref="418625879"/>
    <nd ref="1477088975"/>
    <nd ref="418625881"/>
    <nd ref="418625876"/>
    <nd ref="418625859"/>
    <nd ref="418625921"/>
    <tag k="highway" v="residential"/>
    <tag k="image_direction" v="NW"/>
    <tag k="name" v="Hoover Lane"/>
    <tag k="source" v="bing_imagery_0.25m_201005;survey;image"/>
    <tag k="source_ref" v="AM909_DSCY2561"/>
  </way>
  <way id="35804047" version="2" timestamp="2010-03-28T02:17:49Z" uid="20587" user="balrog-kun" changeset="4250871">
    <nd ref="418625841"/>
    <nd ref="418625839"/>
    <nd ref="418625837"/>
    <nd ref="418625873"/>
    <tag k="highway" v="residential"/>
    <tag k="name" v="Hamilton Lane"/>
    <tag k="source" v="survey;image;yahoo_imagry"/>
    <tag k="source_ref" v="AM909_DSCN0929"/>
  </way>
  <way id="35804047" version="3" timestamp="2011-10-22T21:24:20Z" uid="82317" user="AM909" changeset="9628080">
    <nd ref="418625841"/>
    <nd ref="418625839"/>
    <nd ref="1477088962"/>
    <nd ref="418625837"/>
    <nd ref="418625873"/>
    <tag k="highway" v="residential"/>
    <tag k="name" v="Hamilton Lane"/>
    <tag k="source" v="bing_imagery_0.25m_201005;survey;image"/>
    <tag k="source_ref" v="AM909_DSCY2560"/>
  </way>
  <way id="35804048" version="2" timestamp="2010-03-28T02:17:49Z" uid="20587" user="balrog-kun" changeset="4250871">
    <nd ref="418625914"/>
    <nd ref="418625843"/>
    <tag k="highway" v="residential"/>
    <tag k="name" v="Buchanan Lane"/>
    <tag k="source" v="survey;image;yahoo_imagry"/>
    <tag k="source_ref" v="AM909_DSCN0932"/>
  </way>
  <way id="35804048" version="3" timestamp="2011-10-22T21:24:22Z" uid="82317" user="AM909" changeset="9628080">
    <nd ref="418625914"/>
    <nd ref="1477088980"/>
    <nd ref="418625843"/>
    <tag k="highway" v="residential"/>
    <tag k="name" v="Buchanan Lane"/>
    <tag k="source" v="bing_imagery_0.25m_201005;survey;image"/>
    <tag k="source_ref" v="AM909_DSCY2558"/>
  </way>
  <way id="35804050" version="4" timestamp="2010-03-28T02:17:50Z" uid="20587" user="balrog-kun" changeset="4250871">
    <nd ref="418625853"/>
    <nd ref="418625848"/>
    <tag k="highway" v="residential"/>
    <tag k="name" v="Andrews Court"/>
    <tag k="source" v="survey;image;yahoo_imagry"/>
    <tag k="source_ref" v="AM909_DSCN1074"/>
  </way>
  <way id="35804051" version="3" timestamp="2010-03-28T02:17:50Z" uid="20587" user="balrog-kun" changeset="4250871">
    <nd ref="418625948"/>
    <nd ref="418625952"/>
    <nd ref="418625979"/>
    <tag k="highway" v="residential"/>
    <tag k="name" v="Brianne Lane"/>
    <tag k="source" v="survey;image;yahoo_imagery"/>
    <tag k="source_ref" v="AM909_DSCN0940"/>
  </way>
  <way id="35804053" version="3" timestamp="2010-03-28T02:17:50Z" uid="20587" user="balrog-kun" changeset="4250871">
    <nd ref="418625999"/>
    <nd ref="418625966"/>
    <nd ref="418625968"/>
    <nd ref="418625970"/>
    <nd ref="418625965"/>
    <nd ref="418625972"/>
    <nd ref="418625959"/>
    <tag k="highway" v="residential"/>
    <tag k="name" v="Rochelle Street"/>
    <tag k="source" v="survey;image;yahoo_imagery"/>
    <tag k="source_ref" v="AM909_DSCN0936"/>
  </way>
  <way id="35804053" version="4" timestamp="2011-10-20T05:17:37Z" uid="82317" user="AM909" changeset="9605350">
    <nd ref="418625999"/>
    <nd ref="418625966"/>
    <nd ref="418625968"/>
    <nd ref="418625970"/>
    <nd ref="418625965"/>
    <nd ref="1473987992"/>
    <nd ref="418625972"/>
    <nd ref="1473987598"/>
    <nd ref="418625959"/>
    <tag k="highway" v="residential"/>
    <tag k="name" v="Rochelle Street"/>
    <tag k="source" v="survey;image;yahoo_imagery"/>
    <tag k="source_ref" v="AM909_DSCN0936"/>
  </way>
  <way id="35804054" version="4" timestamp="2010-03-28T02:17:50Z" uid="20587" user="balrog-kun" changeset="4250871">
    <nd ref="418626001"/>
    <nd ref="418626002"/>
    <nd ref="418626003"/>
    <nd ref="418626004"/>
    <nd ref="418626006"/>
    <nd ref="418626008"/>
    <nd ref="418626010"/>
    <nd ref="419479090"/>
    <nd ref="418625986"/>
    <nd ref="418625987"/>
    <nd ref="418625988"/>
    <nd ref="418625990"/>
    <nd ref="418625991"/>
    <nd ref="418625993"/>
    <nd ref="418625995"/>
    <tag k="highway" v="residential"/>
    <tag k="name" v="Forest Glen Drive"/>
    <tag k="source" v="survey;image;yahoo_imagry"/>
    <tag k="source_ref" v="AM909_DSCN1058"/>
  </way>
  <way id="35804055" version="4" timestamp="2010-03-28T02:17:50Z" uid="20587" user="balrog-kun" changeset="4250871">
    <nd ref="418626029"/>
    <nd ref="418626023"/>
    <nd ref="418626025"/>
    <nd ref="418625997"/>
    <tag k="highway" v="residential"/>
    <tag k="name" v="Clearspring Lane"/>
    <tag k="source" v="survey;image;yahoo_imagry"/>
    <tag k="source_ref" v="AM909_DSCN1060"/>
  </way>
  <way id="35804056" version="4" timestamp="2010-03-28T02:17:50Z" uid="20587" user="balrog-kun" changeset="4250871">
    <nd ref="418626015"/>
    <nd ref="418626016"/>
    <nd ref="418626012"/>
    <nd ref="418626014"/>
    <nd ref="418626032"/>
    <nd ref="418626033"/>
    <nd ref="418626029"/>
    <nd ref="418626030"/>
    <nd ref="418626031"/>
    <nd ref="418626027"/>
    <nd ref="418626018"/>
    <tag k="highway" v="residential"/>
    <tag k="name" v="Cold Creek Court"/>
    <tag k="source" v="survey;image;yahoo_imagry"/>
    <tag k="source_ref" v="AM909_DSCN1061"/>
  </way>
  <way id="35804058" version="2" timestamp="2010-03-28T02:17:50Z" uid="20587" user="balrog-kun" changeset="4250871">
    <nd ref="418625859"/>
    <nd ref="418625861"/>
    <tag k="highway" v="residential"/>
    <tag k="name" v="Monroe Court"/>
    <tag k="source" v="survey;image;yahoo_imagry"/>
    <tag k="source_ref" v="AM909_DSCN0926"/>
  </way>
  <way id="35804058" version="3" timestamp="2011-10-22T21:24:20Z" uid="82317" user="AM909" changeset="9628080">
    <nd ref="418625859"/>
    <nd ref="1477088977"/>
    <nd ref="418625861"/>
    <tag k="highway" v="residential"/>
    <tag k="name" v="Monroe Court"/>
    <tag k="source" v="survey;image;yahoo_imagry"/>
    <tag k="source_ref" v="AM909_DSCN0926"/>
  </way>
  <way id="35804059" version="3" timestamp="2010-03-28T02:17:50Z" uid="20587" user="balrog-kun" changeset="4250871">
    <nd ref="418625937"/>
    <nd ref="418625956"/>
    <nd ref="418625954"/>
    <tag k="highway" v="residential"/>
    <tag k="name" v="Kirsten Court"/>
    <tag k="source" v="survey;image;yahoo_imagery"/>
    <tag k="source_ref" v="AM909_DSCN0944"/>
  </way>
  <way id="35804060" version="3" timestamp="2010-03-28T02:17:50Z" uid="20587" user="balrog-kun" changeset="4250871">
    <nd ref="418625958"/>
    <nd ref="418625957"/>
    <tag k="highway" v="residential"/>
    <tag k="name" v="Isabel Lane"/>
    <tag k="source" v="survey;image;yahoo_imagery"/>
    <tag k="source_ref" v="AM909_DSCN0939"/>
  </way>
  <way id="35804063" version="3" timestamp="2010-03-28T02:17:50Z" uid="20587" user="balrog-kun" changeset="4250871">
    <nd ref="418626130"/>
    <nd ref="418626132"/>
    <nd ref="418625973"/>
    <tag k="highway" v="residential"/>
    <tag k="name" v="Dulcinea Lane"/>
    <tag k="source" v="survey;image;yahoo_imagery"/>
    <tag k="source_ref" v="AM909_DSCN0948"/>
  </way>
  <way id="35804065" version="3" timestamp="2010-03-28T02:17:50Z" uid="20587" user="balrog-kun" changeset="4250871">
    <nd ref="418625943"/>
    <nd ref="418625954"/>
    <nd ref="418625941"/>
    <nd ref="418625945"/>
    <nd ref="418625939"/>
    <nd ref="418625944"/>
    <tag k="highway" v="residential"/>
    <tag k="name" v="Jeanette Drive"/>
    <tag k="source" v="survey;image;yahoo_imagery"/>
    <tag k="source_ref" v="AM909_DSCN0938"/>
  </way>
  <way id="35804066" version="3" timestamp="2010-03-28T02:17:51Z" uid="20587" user="balrog-kun" changeset="4250871">
    <nd ref="418625935"/>
    <nd ref="418625933"/>
    <nd ref="418625939"/>
    <tag k="highway" v="residential"/>
    <tag k="name" v="Newell Court"/>
    <tag k="source" v="survey;image;yahoo_imagery"/>
    <tag k="source_ref" v="AM909_DSCN0945"/>
  </way>
  <way id="35804067" version="4" timestamp="2010-03-28T02:17:51Z" uid="20587" user="balrog-kun" changeset="4250871">
    <nd ref="418626152"/>
    <nd ref="418626147"/>
    <tag k="highway" v="residential"/>
    <tag k="name" v="Camp Rock Court"/>
    <tag k="source" v="survey;image;yahoo_imagry"/>
    <tag k="source_ref" v="AM909_DSCN1053"/>
  </way>
  <way id="35804069" version="2" timestamp="2010-03-28T02:17:51Z" uid="20587" user="balrog-kun" changeset="4250871">
    <nd ref="418626091"/>
    <nd ref="418626090"/>
    <nd ref="418626149"/>
    <tag k="highway" v="residential"/>
    <tag k="name" v="Opal Court"/>
    <tag k="source" v="survey;image;yahoo_imagry"/>
    <tag k="source_ref" v="AM909_DSCN0997"/>
  </way>
  <way id="35804069" version="3" timestamp="2011-10-14T22:46:25Z" uid="82317" user="AM909" changeset="9559923">
    <nd ref="418626091"/>
    <nd ref="418626090"/>
    <nd ref="1467713842"/>
    <nd ref="418626149"/>
    <tag k="highway" v="residential"/>
    <tag k="name" v="Opal Court"/>
    <tag k="source" v="survey;image;yahoo_imagry"/>
    <tag k="source_ref" v="AM909_DSCN0997"/>
  </way>
  <way id="35804070" version="2" timestamp="2010-03-28T02:17:51Z" uid="20587" user="balrog-kun" changeset="4250871">
    <nd ref="418626090"/>
    <nd ref="418626088"/>
    <nd ref="418626126"/>
    <nd ref="418626093"/>
    <nd ref="418626089"/>
    <tag k="highway" v="residential"/>
    <tag k="name" v="Crazy Horse Avenue"/>
    <tag k="source" v="survey;image;yahoo_imagry"/>
    <tag k="source_ref" v="AM909_DSCN0991"/>
  </way>
  <way id="35804071" version="3" timestamp="2010-03-28T02:17:51Z" uid="20587" user="balrog-kun" changeset="4250871">
    <nd ref="418625950"/>
    <nd ref="418626130"/>
    <tag k="highway" v="residential"/>
    <tag k="name" v="Gretchen Court"/>
    <tag k="source" v="survey;image;yahoo_imagery"/>
    <tag k="source_ref" v="AM909_DSCN0950"/>
  </way>
  <way id="35804073" version="4" timestamp="2010-03-28T02:17:51Z" uid="20587" user="balrog-kun" changeset="4250871">
    <nd ref="418626129"/>
    <nd ref="418626138"/>
    <nd ref="418626139"/>
    <nd ref="418626134"/>
    <nd ref="418626136"/>
    <nd ref="418626144"/>
    <nd ref="418626145"/>
    <nd ref="418626140"/>
    <tag k="highway" v="residential"/>
    <tag k="name" v="River Rock Drive"/>
    <tag k="source" v="survey;image;yahoo_imagry"/>
    <tag k="source_ref" v="AM909_DSCN1054"/>
  </way>
  <way id="35804073" version="5" timestamp="2011-10-14T22:45:58Z" uid="82317" user="AM909" changeset="9559923">
    <nd ref="418626129"/>
    <nd ref="1467714380"/>
    <nd ref="418626138"/>
    <nd ref="418626139"/>
    <nd ref="418626134"/>
    <nd ref="1467714009"/>
    <nd ref="418626136"/>
    <nd ref="418626144"/>
    <nd ref="418626145"/>
    <nd ref="1467714102"/>
    <nd ref="418626140"/>
    <tag k="highway" v="residential"/>
    <tag k="name" v="River Rock Drive"/>
    <tag k="source" v="survey;image;yahoo_imagry"/>
    <tag k="source_ref" v="AM909_DSCN1054"/>
  </way>
  <way id="35804074" version="4" timestamp="2010-03-28T02:17:51Z" uid="20587" user="balrog-kun" changeset="4250871">
    <nd ref="418626142"/>
    <nd ref="418626152"/>
    <nd ref="418626151"/>
    <nd ref="418626140"/>
    <tag k="highway" v="residential"/>
    <tag k="name" v="Shady Rock Lane"/>
    <tag k="source" v="survey;image;yahoo_imagry"/>
    <tag k="source_ref" v="AM909_DSCN1052"/>
  </way>
  <way id="35804074" version="5" timestamp="2011-10-14T22:46:08Z" uid="82317" user="AM909" changeset="9559923">
    <nd ref="418626142"/>
    <nd ref="418626152"/>
    <nd ref="1467713640"/>
    <nd ref="418626151"/>
    <nd ref="1467713295"/>
    <nd ref="418626140"/>
    <tag k="highway" v="residential"/>
    <tag k="name" v="Shady Rock Lane"/>
    <tag k="source" v="survey;image;yahoo_imagry"/>
    <tag k="source_ref" v="AM909_DSCN1052"/>
  </way>
  <way id="35804076" version="2" timestamp="2010-03-28T02:17:51Z" uid="20587" user="balrog-kun" changeset="4250871">
    <nd ref="418626120"/>
    <nd ref="418626066"/>
    <nd ref="418626068"/>
    <tag k="highway" v="residential"/>
    <tag k="name" v="Badger Lane"/>
    <tag k="source" v="survey;image;yahoo_imagry"/>
    <tag k="source_ref" v="AM909_DSCN0979"/>
  </way>
  <way id="35804076" version="3" timestamp="2011-10-14T22:46:36Z" uid="82317" user="AM909" changeset="9559923">
    <nd ref="418626120"/>
    <nd ref="418626068"/>
    <tag k="highway" v="residential"/>
    <tag k="name" v="Badger Lane"/>
    <tag k="source" v="survey;image;yahoo_imagry"/>
    <tag k="source_ref" v="AM909_DSCN0979"/>
  </way>
  <way id="35804077" version="2" timestamp="2010-03-28T02:17:51Z" uid="20587" user="balrog-kun" changeset="4250871">
    <nd ref="418626125"/>
    <nd ref="418626074"/>
    <nd ref="418626075"/>
    <tag k="highway" v="residential"/>
    <tag k="name" v="Mount Palomar Lane"/>
    <tag k="source" v="survey;image;yahoo_imagry"/>
    <tag k="source_ref" v="AM909_DSCN0977"/>
  </way>
  <way id="35804077" version="3" timestamp="2011-10-14T22:46:49Z" uid="82317" user="AM909" changeset="9559923">
    <nd ref="418626125"/>
    <nd ref="418626075"/>
    <tag k="highway" v="residential"/>
    <tag k="name" v="Mount Palomar Lane"/>
    <tag k="source" v="survey;image;yahoo_imagry"/>
    <tag k="source_ref" v="AM909_DSCN0977"/>
  </way>
  <way id="35804078" version="2" timestamp="2010-03-28T02:17:51Z" uid="20587" user="balrog-kun" changeset="4250871">
    <nd ref="418626072"/>
    <nd ref="418626070"/>
    <tag k="highway" v="residential"/>
    <tag k="name" v="Coyote Court"/>
    <tag k="source" v="survey;image;yahoo_imagry"/>
    <tag k="source_ref" v="AM909_DSCN0981"/>
  </way>
  <way id="35804079" version="2" timestamp="2010-03-28T02:17:51Z" uid="20587" user="balrog-kun" changeset="4250871">
    <nd ref="418626097"/>
    <nd ref="418626095"/>
    <nd ref="418626098"/>
    <tag k="highway" v="residential"/>
    <tag k="name" v="Quietstream Lane"/>
    <tag k="source" v="survey;image;yahoo_imagry"/>
    <tag k="source_ref" v="AM909_DSCN0993"/>
  </way>
  <way id="35804079" version="3" timestamp="2011-10-14T22:47:09Z" uid="82317" user="AM909" changeset="9559923">
    <nd ref="418626097"/>
    <nd ref="1467713303"/>
    <nd ref="418626095"/>
    <nd ref="1467714110"/>
    <nd ref="418626098"/>
    <tag k="highway" v="residential"/>
    <tag k="name" v="Quietstream Lane"/>
    <tag k="source" v="survey;image;yahoo_imagry"/>
    <tag k="source_ref" v="AM909_DSCN0993"/>
  </way>
  <way id="35804081" version="2" timestamp="2010-03-28T02:17:51Z" uid="20587" user="balrog-kun" changeset="4250871">
    <nd ref="54579446"/>
    <nd ref="418626125"/>
    <nd ref="418626123"/>
    <nd ref="418626120"/>
    <nd ref="418626061"/>
    <nd ref="418626062"/>
    <nd ref="418626064"/>
    <nd ref="418626048"/>
    <tag k="highway" v="residential"/>
    <tag k="name" v="Antelope Lane"/>
    <tag k="source" v="survey;image;yahoo_imagry"/>
    <tag k="source_ref" v="AM909_DSCN0978"/>
  </way>
  <way id="35804081" version="3" timestamp="2011-10-14T22:46:15Z" uid="82317" user="AM909" changeset="9559923">
    <nd ref="54579446"/>
    <nd ref="418626125"/>
    <nd ref="418626123"/>
    <nd ref="1467714390"/>
    <nd ref="418626120"/>
    <nd ref="418626061"/>
    <nd ref="1467714021"/>
    <nd ref="418626062"/>
    <nd ref="418626064"/>
    <nd ref="1467713551"/>
    <nd ref="418626048"/>
    <tag k="highway" v="residential"/>
    <tag k="name" v="Antelope Lane"/>
    <tag k="source" v="survey;image;yahoo_imagry"/>
    <tag k="source_ref" v="AM909_DSCN0978"/>
  </way>
  <way id="35804081" version="4" timestamp="2012-03-26T01:45:45Z" uid="28775" user="StellanL" changeset="11101445">
    <nd ref="54579446"/>
    <nd ref="1469848935"/>
    <nd ref="418626125"/>
    <nd ref="418626123"/>
    <nd ref="1467714390"/>
    <nd ref="418626120"/>
    <nd ref="418626061"/>
    <nd ref="1467714021"/>
    <nd ref="418626062"/>
    <nd ref="418626064"/>
    <nd ref="1467713551"/>
    <nd ref="418626048"/>
    <tag k="highway" v="residential"/>
    <tag k="name" v="Antelope Lane"/>
    <tag k="source" v="survey;image;yahoo_imagry"/>
    <tag k="source_ref" v="AM909_DSCN0978"/>
  </way>
  <way id="35804082" version="2" timestamp="2010-03-28T02:17:52Z" uid="20587" user="balrog-kun" changeset="4250871">
    <nd ref="418626093"/>
    <nd ref="418626104"/>
    <nd ref="418626103"/>
    <nd ref="418626102"/>
    <nd ref="418626100"/>
    <nd ref="418626097"/>
    <tag k="highway" v="residential"/>
    <tag k="name" v="Flying Arrow Lane"/>
    <tag k="source" v="survey;image;yahoo_imagry"/>
    <tag k="source_ref" v="AM909_DSCN0992"/>
  </way>
  <way id="35804083" version="2" timestamp="2010-03-28T02:17:52Z" uid="20587" user="balrog-kun" changeset="4250871">
    <nd ref="418626053"/>
    <nd ref="418626051"/>
    <nd ref="418626057"/>
    <nd ref="418626055"/>
    <tag k="highway" v="residential"/>
    <tag k="name" v="Fawn Court"/>
    <tag k="source" v="survey;image;yahoo_imagry"/>
    <tag k="source_ref" v="AM909_DSCN0989"/>
  </way>
  <way id="35804084" version="2" timestamp="2010-03-28T02:17:52Z" uid="20587" user="balrog-kun" changeset="4250871">
    <nd ref="418626045"/>
    <nd ref="418626043"/>
    <nd ref="418626047"/>
    <nd ref="418626046"/>
    <nd ref="418626249"/>
    <nd ref="418626048"/>
    <nd ref="418626050"/>
    <nd ref="418626060"/>
    <tag k="highway" v="residential"/>
    <tag k="name" v="Grays Peak Avenue"/>
    <tag k="source" v="survey;image;yahoo_imagry"/>
    <tag k="source_ref" v="AM909_DSCN0986"/>
  </way>
  <way id="35804084" version="3" timestamp="2011-10-14T22:46:54Z" uid="82317" user="AM909" changeset="9559923">
    <nd ref="418626045"/>
    <nd ref="418626043"/>
    <nd ref="1467713435"/>
    <nd ref="418626047"/>
    <nd ref="1467714270"/>
    <nd ref="418626046"/>
    <nd ref="418626249"/>
    <nd ref="418626048"/>
    <nd ref="418626050"/>
    <nd ref="418626060"/>
    <tag k="highway" v="residential"/>
    <tag k="name" v="Grays Peak Avenue"/>
    <tag k="source" v="survey;image;yahoo_imagry"/>
    <tag k="source_ref" v="AM909_DSCN0986"/>
  </way>
  <way id="35804085" version="3" timestamp="2010-03-28T02:17:52Z" uid="20587" user="balrog-kun" changeset="4250871">
    <nd ref="418626059"/>
    <nd ref="418626255"/>
    <nd ref="418626253"/>
    <nd ref="418626252"/>
    <nd ref="418626251"/>
    <tag k="highway" v="residential"/>
    <tag k="name" v="Granite Pk Avenue"/>
    <tag k="source" v="survey;image;yahoo_imagery"/>
    <tag k="source_ref" v="AM909_DSCN1000"/>
  </way>
  <way id="35804088" version="3" timestamp="2010-03-28T02:17:52Z" uid="20587" user="balrog-kun" changeset="4250871">
    <nd ref="418626075"/>
    <nd ref="418626080"/>
    <nd ref="418626079"/>
    <nd ref="418626086"/>
    <nd ref="418626045"/>
    <nd ref="418626059"/>
    <nd ref="418626076"/>
    <tag k="highway" v="residential"/>
    <tag k="name" v="Half Dome Drive"/>
    <tag k="source" v="survey;image;yahoo_imagery"/>
    <tag k="source_ref" v="AM909_DSCN0975"/>
  </way>
  <way id="35804089" version="2" timestamp="2010-03-28T02:17:52Z" uid="20587" user="balrog-kun" changeset="4250871">
    <nd ref="418626086"/>
    <nd ref="418626037"/>
    <nd ref="418626035"/>
    <nd ref="418626041"/>
    <nd ref="418626039"/>
    <nd ref="418626062"/>
    <tag k="highway" v="residential"/>
    <tag k="name" v="Mount Wilson Lane"/>
    <tag k="source" v="survey;image;yahoo_imagry"/>
    <tag k="source_ref" v="AM909_DSCN0982"/>
  </way>
  <way id="35804089" version="3" timestamp="2011-10-14T22:46:36Z" uid="82317" user="AM909" changeset="9559923">
    <nd ref="418626086"/>
    <nd ref="418626037"/>
    <nd ref="418626035"/>
    <nd ref="1467713673"/>
    <nd ref="418626041"/>
    <nd ref="418626039"/>
    <nd ref="418626062"/>
    <tag k="highway" v="residential"/>
    <tag k="name" v="Mount Wilson Lane"/>
    <tag k="source" v="survey;image;yahoo_imagry"/>
    <tag k="source_ref" v="AM909_DSCN0982"/>
  </way>
  <way id="35804090" version="2" timestamp="2010-03-28T02:17:52Z" uid="20587" user="balrog-kun" changeset="4250871">
    <nd ref="418626080"/>
    <nd ref="418626082"/>
    <nd ref="418626084"/>
    <tag k="highway" v="residential"/>
    <tag k="name" v="Mammoth Place"/>
    <tag k="source" v="survey;image;yahoo_imagry"/>
    <tag k="source_ref" v="AM909_DSCN0976"/>
  </way>
  <way id="35804092" version="3" timestamp="2010-03-28T02:17:52Z" uid="20587" user="balrog-kun" changeset="4250871">
    <nd ref="418626239"/>
    <nd ref="418626293"/>
    <nd ref="418626238"/>
    <tag k="highway" v="residential"/>
    <tag k="name" v="Genoa Drive"/>
    <tag k="source" v="survey;image;yahoo_imagery"/>
    <tag k="source_ref" v="AM909_DSCN1005"/>
  </way>
  <way id="35804094" version="3" timestamp="2010-03-28T02:17:52Z" uid="20587" user="balrog-kun" changeset="4250871">
    <nd ref="418626247"/>
    <nd ref="418626245"/>
    <nd ref="418626239"/>
    <nd ref="418626236"/>
    <nd ref="418626243"/>
    <tag k="highway" v="residential"/>
    <tag k="name" v="Trappeto Drive"/>
    <tag k="source" v="survey;image;yahoo_imagery"/>
    <tag k="source_ref" v="AM909_DSCN1003"/>
  </way>
  <way id="35804095" version="3" timestamp="2010-03-28T02:17:53Z" uid="20587" user="balrog-kun" changeset="4250871">
    <nd ref="418625979"/>
    <nd ref="418625958"/>
    <nd ref="418625943"/>
    <nd ref="418625981"/>
    <nd ref="418625983"/>
    <nd ref="418625984"/>
    <nd ref="418625959"/>
    <tag k="highway" v="residential"/>
    <tag k="name" v="Chantel Drive"/>
    <tag k="source" v="survey;image;yahoo_imagery"/>
    <tag k="source_ref" v="AM909_DSCN0937"/>
  </way>
  <way id="35804095" version="4" timestamp="2011-10-20T05:17:34Z" uid="82317" user="AM909" changeset="9605350">
    <nd ref="418625979"/>
    <nd ref="418625958"/>
    <nd ref="418625943"/>
    <nd ref="418625981"/>
    <nd ref="418625983"/>
    <nd ref="1473987496"/>
    <nd ref="418625984"/>
    <nd ref="418625959"/>
    <tag k="highway" v="residential"/>
    <tag k="name" v="Chantel Drive"/>
    <tag k="source" v="survey;image;yahoo_imagery"/>
    <tag k="source_ref" v="AM909_DSCN0937"/>
  </way>
  <way id="35804096" version="3" timestamp="2010-03-28T02:17:53Z" uid="20587" user="balrog-kun" changeset="4250871">
    <nd ref="418625973"/>
    <nd ref="418625977"/>
    <nd ref="418625944"/>
    <nd ref="418625974"/>
    <nd ref="418625976"/>
    <nd ref="418625999"/>
    <tag k="highway" v="residential"/>
    <tag k="name" v="Hetty Street"/>
    <tag k="source" v="survey;image;yahoo_imagery"/>
    <tag k="source_ref" v="AM909_DSCN0946"/>
  </way>
  <way id="35804099" version="3" timestamp="2010-03-28T02:17:53Z" uid="20587" user="balrog-kun" changeset="4250871">
    <nd ref="418626226"/>
    <nd ref="418626228"/>
    <nd ref="418626234"/>
    <tag k="highway" v="residential"/>
    <tag k="name" v="Palladio Lane"/>
    <tag k="source" v="survey;image;yahoo_imagery"/>
    <tag k="source_ref" v="AM909_DSCN0961"/>
  </way>
  <way id="35804100" version="3" timestamp="2010-03-28T02:17:53Z" uid="20587" user="balrog-kun" changeset="4250871">
    <nd ref="418626228"/>
    <nd ref="418626230"/>
    <tag k="highway" v="residential"/>
    <tag k="name" v="Pine Bluff Lane"/>
    <tag k="source" v="survey;image;yahoo_imagery"/>
    <tag k="source_ref" v="AM909_DSCN0962"/>
  </way>
  <way id="35804101" version="3" timestamp="2010-03-28T02:17:53Z" uid="20587" user="balrog-kun" changeset="4250871">
    <nd ref="418626234"/>
    <nd ref="418626232"/>
    <tag k="highway" v="residential"/>
    <tag k="name" v="Portico Lane"/>
    <tag k="source" v="survey;image;yahoo_imagery"/>
    <tag k="source_ref" v="AM909_DSCN0963"/>
  </way>
  <way id="35804102" version="3" timestamp="2010-03-28T02:17:53Z" uid="20587" user="balrog-kun" changeset="4250871">
    <nd ref="418626230"/>
    <nd ref="418626199"/>
    <nd ref="418626232"/>
    <tag k="highway" v="residential"/>
    <tag k="name" v="Skyline Lane"/>
    <tag k="source" v="survey;image;yahoo_imagery"/>
    <tag k="source_ref" v="AM909_DSCN0964"/>
  </way>
  <way id="35804103" version="3" timestamp="2010-03-28T02:17:53Z" uid="20587" user="balrog-kun" changeset="4250871">
    <nd ref="418626218"/>
    <nd ref="418626220"/>
    <nd ref="418626223"/>
    <tag k="highway" v="residential"/>
    <tag k="name" v="Granite Court"/>
    <tag k="source" v="survey;image;yahoo_imagery"/>
    <tag k="source_ref" v="AM909_DSCN0957"/>
  </way>
  <way id="35804104" version="3" timestamp="2010-03-28T02:17:53Z" uid="20587" user="balrog-kun" changeset="4250871">
    <nd ref="418626214"/>
    <nd ref="418626221"/>
    <tag k="highway" v="residential"/>
    <tag k="name" v="Pointe Court"/>
    <tag k="source" v="survey;image;yahoo_imagery"/>
    <tag k="source_ref" v="AM909_DSCN0958"/>
  </way>
  <way id="35804105" version="3" timestamp="2010-03-28T02:17:53Z" uid="20587" user="balrog-kun" changeset="4250871">
    <nd ref="418626224"/>
    <nd ref="418626225"/>
    <nd ref="418626216"/>
    <nd ref="418626226"/>
    <tag k="highway" v="residential"/>
    <tag k="name" v="Overlook Place"/>
    <tag k="source" v="survey;image;yahoo_imagery"/>
    <tag k="source_ref" v="AM909_DSCN0960"/>
  </way>
  <way id="35804106" version="3" timestamp="2010-03-28T02:17:54Z" uid="20587" user="balrog-kun" changeset="4250871">
    <nd ref="418626221"/>
    <nd ref="418626212"/>
    <nd ref="418626211"/>
    <nd ref="418626223"/>
    <tag k="highway" v="residential"/>
    <tag k="name" v="Planger Lane"/>
    <tag k="source" v="survey;image;yahoo_imagery"/>
    <tag k="source_ref" v="AM909_DSCN0956"/>
  </way>
  <way id="35804107" version="3" timestamp="2010-03-28T02:17:54Z" uid="20587" user="balrog-kun" changeset="4250871">
    <nd ref="418626199"/>
    <nd ref="418626198"/>
    <tag k="highway" v="residential"/>
    <tag k="name" v="Alpen Lane"/>
    <tag k="source" v="survey;image;yahoo_imagery"/>
    <tag k="source_ref" v="AM909_DSCN0965"/>
  </way>
  <way id="35804110" version="3" timestamp="2010-03-28T02:17:54Z" uid="20587" user="balrog-kun" changeset="4250871">
    <nd ref="418626216"/>
    <nd ref="418626211"/>
    <tag k="highway" v="residential"/>
    <tag k="name" v="High Cliff Lane"/>
    <tag k="source" v="survey;image;yahoo_imagery"/>
    <tag k="source_ref" v="AM909_DSCN0956"/>
  </way>
  <way id="35804111" version="2" timestamp="2010-03-28T02:17:54Z" uid="20587" user="balrog-kun" changeset="4250871">
    <nd ref="54579447"/>
    <nd ref="54579446"/>
    <nd ref="54579444"/>
    <nd ref="54579441"/>
    <nd ref="54579440"/>
    <nd ref="54579438"/>
    <nd ref="54579437"/>
    <nd ref="54579436"/>
    <nd ref="54579434"/>
    <nd ref="54579432"/>
    <tag k="highway" v="secondary"/>
    <tag k="name" v="Summit Avenue"/>
    <tag k="source" v="survey;image;yahoo_imagry"/>
    <tag k="source_ref" v="AM909_DSCN0973"/>
    <tag k="tiger:cfcc" v="A63; A41"/>
    <tag k="tiger:county" v="San Bernardino, CA"/>
    <tag k="tiger:name_base" v="East Frontage"/>
    <tag k="tiger:name_type" v="Rd"/>
    <tag k="tiger:separated" v="no"/>
    <tag k="tiger:source" v="tiger_import_dch_v0.6_20070809"/>
    <tag k="tiger:tlid" v="144997793; 145229424:145229440:145229441:145229403"/>
  </way>
  <way id="35804111" version="3" timestamp="2011-10-16T19:40:37Z" uid="82317" user="AM909" changeset="9576252">
    <nd ref="54579447"/>
    <nd ref="1469849560"/>
    <nd ref="1469849269"/>
    <nd ref="54579446"/>
    <nd ref="1469848935"/>
    <nd ref="54579444"/>
    <nd ref="54579441"/>
    <nd ref="54579440"/>
    <nd ref="1469849603"/>
    <nd ref="54579438"/>
    <nd ref="54579437"/>
    <nd ref="54579436"/>
    <nd ref="1469849361"/>
    <nd ref="54579434"/>
    <nd ref="54579432"/>
    <tag k="highway" v="secondary"/>
    <tag k="name" v="Summit Avenue"/>
    <tag k="oneway" v="yes"/>
    <tag k="source" v="survey;image;yahoo_imagry"/>
    <tag k="source_ref" v="AM909_DSCN0973"/>
    <tag k="tiger:cfcc" v="A63; A41"/>
    <tag k="tiger:county" v="San Bernardino, CA"/>
    <tag k="tiger:name_base" v="East Frontage"/>
    <tag k="tiger:name_type" v="Rd"/>
    <tag k="tiger:separated" v="no"/>
    <tag k="tiger:source" v="tiger_import_dch_v0.6_20070809"/>
    <tag k="tiger:tlid" v="144997793; 145229424:145229440:145229441:145229403"/>
  </way>
  <way id="35804111" version="4" timestamp="2011-10-19T07:17:45Z" uid="82317" user="AM909" changeset="9597120">
    <nd ref="54579432"/>
    <nd ref="1472889138"/>
    <nd ref="1472886474"/>
    <nd ref="1472887218"/>
    <nd ref="1472887691"/>
    <nd ref="1472888033"/>
    <nd ref="1472888571"/>
    <nd ref="1472888747"/>
    <nd ref="1472889085"/>
    <nd ref="1472886418"/>
    <nd ref="1472887982"/>
    <nd ref="54579446"/>
    <nd ref="1472888929"/>
    <nd ref="1472886263"/>
    <nd ref="54579447"/>
    <tag k="highway" v="secondary"/>
    <tag k="name" v="Summit Avenue"/>
    <tag k="oneway" v="yes"/>
    <tag k="source" v="survey;image;yahoo_imagry"/>
    <tag k="source_ref" v="AM909_DSCN0973"/>
    <tag k="tiger:cfcc" v="A63; A41"/>
    <tag k="tiger:county" v="San Bernardino, CA"/>
    <tag k="tiger:name_base" v="East Frontage"/>
    <tag k="tiger:name_type" v="Rd"/>
    <tag k="tiger:separated" v="no"/>
    <tag k="tiger:source" v="tiger_import_dch_v0.6_20070809"/>
    <tag k="tiger:tlid" v="144997793; 145229424:145229440:145229441:145229403"/>
  </way>
  <way id="35804111" version="5" timestamp="2012-03-26T01:45:45Z" uid="28775" user="StellanL" changeset="11101445">
    <nd ref="54579432"/>
    <nd ref="1472889138"/>
    <nd ref="1472886474"/>
    <nd ref="1472887218"/>
    <nd ref="1472887691"/>
    <nd ref="1472888033"/>
    <nd ref="1472888571"/>
    <nd ref="1472888747"/>
    <nd ref="1472889085"/>
    <nd ref="1472886418"/>
    <nd ref="54579446"/>
    <nd ref="1472886263"/>
    <nd ref="54579447"/>
    <tag k="highway" v="secondary"/>
    <tag k="name" v="Summit Avenue"/>
    <tag k="oneway" v="yes"/>
    <tag k="source" v="survey;image;yahoo_imagry"/>
    <tag k="source_ref" v="AM909_DSCN0973"/>
    <tag k="tiger:cfcc" v="A63; A41"/>
    <tag k="tiger:county" v="San Bernardino, CA"/>
    <tag k="tiger:name_base" v="East Frontage"/>
    <tag k="tiger:name_type" v="Rd"/>
    <tag k="tiger:separated" v="no"/>
    <tag k="tiger:source" v="tiger_import_dch_v0.6_20070809"/>
    <tag k="tiger:tlid" v="144997793; 145229424:145229440:145229441:145229403"/>
  </way>
  <way id="35804113" version="3" timestamp="2010-03-28T02:17:54Z" uid="20587" user="balrog-kun" changeset="4250871">
    <nd ref="54795327"/>
    <nd ref="417836632"/>
    <nd ref="417836629"/>
    <nd ref="417836627"/>
    <nd ref="417836625"/>
    <nd ref="417836623"/>
    <nd ref="417836621"/>
    <nd ref="417836619"/>
    <nd ref="417836617"/>
    <nd ref="417836615"/>
    <nd ref="417836613"/>
    <nd ref="417836611"/>
    <nd ref="667242515"/>
    <nd ref="417836609"/>
    <nd ref="392519851"/>
    <nd ref="418625947"/>
    <nd ref="418626127"/>
    <nd ref="54775869"/>
    <tag k="highway" v="tertiary"/>
    <tag k="maxspeed" v="35 mph"/>
    <tag k="name" v="Sierra Lakes Parkway"/>
    <tag k="source" v="survey;image;yahoo_imagery"/>
    <tag k="source:maxspeed" v="survey;image"/>
    <tag k="source_ref" v="AM909_DSCU0273"/>
    <tag k="source_ref:maxspeed" v="AM909_DSCU0275"/>
  </way>
  <way id="35804113" version="4" timestamp="2011-10-20T05:17:45Z" uid="82317" user="AM909" changeset="9605350">
    <nd ref="54795327"/>
    <nd ref="417836632"/>
    <nd ref="417836629"/>
    <nd ref="417836627"/>
    <nd ref="417836625"/>
    <nd ref="417836623"/>
    <nd ref="417836621"/>
    <nd ref="417836619"/>
    <nd ref="417836617"/>
    <nd ref="417836615"/>
    <nd ref="417836613"/>
    <nd ref="417836611"/>
    <nd ref="667242515"/>
    <nd ref="417836609"/>
    <nd ref="392519851"/>
    <tag k="highway" v="tertiary"/>
    <tag k="maxspeed" v="35 mph"/>
    <tag k="name" v="Sierra Lakes Parkway"/>
    <tag k="source" v="survey;image;yahoo_imagery"/>
    <tag k="source:maxspeed" v="survey;image"/>
    <tag k="source_ref" v="AM909_DSCU0273"/>
    <tag k="source_ref:maxspeed" v="AM909_DSCU0275"/>
  </way>
  <way id="35804114" version="2" timestamp="2010-03-28T02:17:54Z" uid="20587" user="balrog-kun" changeset="4250871">
    <nd ref="418625852"/>
    <nd ref="418625917"/>
    <nd ref="418625919"/>
    <tag k="highway" v="residential"/>
    <tag k="name" v="Roosevelt Place"/>
    <tag k="note" v="FIXME: ? Only two signs (at each end of this segment) say Pl instead of Dr"/>
    <tag k="source" v="survey;image;yahoo_imagry"/>
    <tag k="source_ref" v="AM909_DSCN0933;AM909_DSCN0934"/>
  </way>
  <way id="35804114" version="3" timestamp="2011-10-22T21:24:22Z" uid="82317" user="AM909" changeset="9628080"/>
  <way id="35804115" version="2" timestamp="2010-03-28T02:17:54Z" uid="20587" user="balrog-kun" changeset="4250871">
    <nd ref="418625908"/>
    <nd ref="418626203"/>
    <tag k="highway" v="residential"/>
    <tag k="name" v="Coolidge Court"/>
    <tag k="source" v="survey;image;yahoo_imagry"/>
    <tag k="source_ref" v="AM909_DSCN0931"/>
  </way>
  <way id="35804115" version="3" timestamp="2011-10-22T21:24:19Z" uid="82317" user="AM909" changeset="9628080">
    <nd ref="418625908"/>
    <nd ref="418626203"/>
    <tag k="highway" v="residential"/>
    <tag k="name" v="Coolidge Court"/>
    <tag k="source" v="bing_imagery_0.25m_201005;survey;image"/>
    <tag k="source_ref" v="AM909_DSCY2559"/>
  </way>
  <way id="35804117" version="4" timestamp="2010-03-28T02:17:54Z" uid="20587" user="balrog-kun" changeset="4250871">
    <nd ref="392519850"/>
    <nd ref="418626189"/>
    <nd ref="418626181"/>
    <nd ref="418626182"/>
    <nd ref="418626185"/>
    <tag k="highway" v="residential"/>
    <tag k="name" v="Brant Drive"/>
    <tag k="source" v="survey;image;yahoo_imagery"/>
    <tag k="source_ref" v="AM909_DSCN1081"/>
  </way>
  <way id="35804117" version="5" timestamp="2012-03-26T01:24:04Z" uid="28775" user="StellanL" changeset="11101445">
    <nd ref="392519850"/>
    <nd ref="1475530964"/>
    <nd ref="418626189"/>
    <nd ref="418626181"/>
    <nd ref="418626182"/>
    <nd ref="418626185"/>
    <tag k="highway" v="residential"/>
    <tag k="name" v="Brant Drive"/>
    <tag k="source" v="survey;image;yahoo_imagery"/>
    <tag k="source_ref" v="AM909_DSCN1081"/>
  </way>
  <way id="35804119" version="4" timestamp="2010-03-28T02:17:54Z" uid="20587" user="balrog-kun" changeset="4250871">
    <nd ref="418626196"/>
    <nd ref="418626173"/>
    <nd ref="418626187"/>
    <tag k="highway" v="residential"/>
    <tag k="name" v="Wood Duck Street"/>
    <tag k="source" v="survey;image;yahoo_imagery"/>
    <tag k="source_ref" v="AM909_DSCN1079"/>
  </way>
  <way id="35804121" version="4" timestamp="2010-03-28T02:17:54Z" uid="20587" user="balrog-kun" changeset="4250871">
    <nd ref="418626183"/>
    <nd ref="418626180"/>
    <tag k="highway" v="residential"/>
    <tag k="name" v="Mallard Lane"/>
    <tag k="source" v="survey;image;yahoo_imagery"/>
    <tag k="source_ref" v="AM909_DSCN1083"/>
  </way>
  <way id="35804125" version="2" timestamp="2010-03-28T02:17:55Z" uid="20587" user="balrog-kun" changeset="4250871">
    <nd ref="418626177"/>
    <nd ref="418626175"/>
    <tag k="highway" v="residential"/>
    <tag k="name" v="Zion Court"/>
    <tag k="source" v="survey;image;yahoo_imagry"/>
    <tag k="source_ref" v="AM909_DSCN0984"/>
  </way>
  <way id="35804128" version="2" timestamp="2010-03-28T02:17:55Z" uid="20587" user="balrog-kun" changeset="4250871">
    <nd ref="418626294"/>
    <nd ref="418626126"/>
    <tag k="highway" v="residential"/>
    <tag k="name" v="Topaz Court"/>
    <tag k="source" v="survey;image;yahoo_imagry"/>
    <tag k="source_ref" v="AM909_DSCN0999"/>
  </way>
  <way id="35804131" version="2" timestamp="2010-03-28T02:17:55Z" uid="20587" user="balrog-kun" changeset="4250871">
    <nd ref="418625028"/>
    <nd ref="418625034"/>
    <nd ref="418625032"/>
    <nd ref="418625038"/>
    <nd ref="418625035"/>
    <nd ref="418625030"/>
    <tag k="highway" v="residential"/>
    <tag k="name" v="Wisteria Lane"/>
    <tag k="source" v="survey;image;yahoo_imagry"/>
    <tag k="source_ref" v="AM909_DSCN0839"/>
  </way>
  <way id="35804131" version="3" timestamp="2011-10-16T05:39:25Z" uid="82317" user="AM909" changeset="9569183">
    <nd ref="418625028"/>
    <nd ref="418625032"/>
    <nd ref="418625030"/>
    <tag k="highway" v="residential"/>
    <tag k="name" v="Wisteria Lane"/>
    <tag k="source" v="bing_imagery_0.25m_201005;survey;image"/>
    <tag k="source_ref" v="AM909_DSCN0839"/>
  </way>
  <way id="35804132" version="2" timestamp="2010-03-28T02:17:55Z" uid="20587" user="balrog-kun" changeset="4250871">
    <nd ref="418624992"/>
    <nd ref="418624991"/>
    <nd ref="418624997"/>
    <nd ref="418624994"/>
    <nd ref="418625004"/>
    <nd ref="418625000"/>
    <nd ref="418625025"/>
    <nd ref="418625022"/>
    <nd ref="418625030"/>
    <tag k="highway" v="residential"/>
    <tag k="name" v="Thistle Street"/>
    <tag k="source" v="survey;image;yahoo_imagry"/>
    <tag k="source_ref" v="AM909_DSCN0837"/>
  </way>
  <way id="35804132" version="3" timestamp="2011-10-16T05:39:11Z" uid="82317" user="AM909" changeset="9569183">
    <nd ref="418624992"/>
    <nd ref="1468911421"/>
    <nd ref="1468911455"/>
    <nd ref="1468911463"/>
    <nd ref="418625004"/>
    <nd ref="418625030"/>
    <tag k="highway" v="residential"/>
    <tag k="name" v="Thistle Street"/>
    <tag k="source" v="bing_imagery_0.25m_201005;survey;image"/>
    <tag k="source_ref" v="AM909_DSCN0837"/>
  </way>
  <way id="35804133" version="2" timestamp="2010-03-28T02:17:55Z" uid="20587" user="balrog-kun" changeset="4250871">
    <nd ref="418625004"/>
    <nd ref="418625065"/>
    <nd ref="418625070"/>
    <tag k="highway" v="residential"/>
    <tag k="name" v="Gladiola Lane"/>
    <tag k="source" v="survey;image;yahoo_imagry"/>
    <tag k="source_ref" v="AM909_DSCN0838"/>
  </way>
  <way id="35804133" version="3" timestamp="2011-10-16T05:39:15Z" uid="82317" user="AM909" changeset="9569183">
    <nd ref="418625004"/>
    <nd ref="418625065"/>
    <nd ref="418625070"/>
    <tag k="highway" v="residential"/>
    <tag k="name" v="Gladiola Lane"/>
    <tag k="source" v="bing_imagery_0.25m_201005;survey;image"/>
    <tag k="source_ref" v="AM909_DSCN0838"/>
  </way>
  <way id="35804134" version="2" timestamp="2010-03-28T02:17:55Z" uid="20587" user="balrog-kun" changeset="4250871">
    <nd ref="418625028"/>
    <nd ref="418625067"/>
    <nd ref="418625060"/>
    <nd ref="418625062"/>
    <nd ref="418625070"/>
    <nd ref="418625076"/>
    <nd ref="418625056"/>
    <nd ref="418625058"/>
    <nd ref="418625053"/>
    <nd ref="418625043"/>
    <nd ref="418625040"/>
    <nd ref="418625049"/>
    <nd ref="418625046"/>
    <nd ref="418625051"/>
    <nd ref="418625050"/>
    <nd ref="418625054"/>
    <nd ref="418624992"/>
    <tag k="highway" v="residential"/>
    <tag k="name" v="Petunia Street"/>
    <tag k="source" v="survey;image;yahoo_imagry"/>
    <tag k="source_ref" v="AM909_DSCN0835;AM909_DSCN0841"/>
  </way>
  <way id="35804134" version="3" timestamp="2011-10-16T05:39:17Z" uid="82317" user="AM909" changeset="9569183">
    <nd ref="418625028"/>
    <nd ref="418625070"/>
    <nd ref="418625076"/>
    <nd ref="1468911428"/>
    <nd ref="418625056"/>
    <nd ref="418625058"/>
    <nd ref="418625053"/>
    <nd ref="418625043"/>
    <nd ref="418625040"/>
    <nd ref="418625049"/>
    <nd ref="418625046"/>
    <nd ref="1468911440"/>
    <nd ref="1468911434"/>
    <nd ref="1468911400"/>
    <nd ref="418624992"/>
    <tag k="highway" v="residential"/>
    <tag k="name" v="Petunia Street"/>
    <tag k="source" v="bing_imagery_0.25m_201005;survey;image"/>
    <tag k="source_ref" v="AM909_DSCN0835;AM909_DSCN0841"/>
  </way>
  <way id="35804135" version="2" timestamp="2010-03-28T02:17:55Z" uid="20587" user="balrog-kun" changeset="4250871">
    <nd ref="418624989"/>
    <nd ref="418625076"/>
    <tag k="highway" v="residential"/>
    <tag k="name" v="Bramble Lane"/>
    <tag k="source" v="survey;image;yahoo_imagry"/>
    <tag k="source_ref" v="AM909_DSCN0834"/>
  </way>
  <way id="35804135" version="3" timestamp="2011-10-16T05:39:18Z" uid="82317" user="AM909" changeset="9569183">
    <nd ref="418624989"/>
    <nd ref="418625076"/>
    <tag k="highway" v="residential"/>
    <tag k="name" v="Bramble Lane"/>
    <tag k="source" v="bing_imagery_0.25m_201005;survey;image"/>
    <tag k="source_ref" v="AM909_DSCN0834"/>
  </way>
  <way id="35804136" version="2" timestamp="2010-03-28T02:17:55Z" uid="20587" user="balrog-kun" changeset="4250871">
    <nd ref="418625065"/>
    <nd ref="418625078"/>
    <nd ref="418625072"/>
    <nd ref="418625075"/>
    <nd ref="418625068"/>
    <nd ref="418625043"/>
    <tag k="highway" v="residential"/>
    <tag k="name" v="Hydrangea Lane"/>
    <tag k="source" v="survey;image;yahoo_imagry"/>
    <tag k="source_ref" v="AM909_DSCN0843;AM909_DSCN0844"/>
  </way>
  <way id="35804136" version="3" timestamp="2011-10-16T05:39:21Z" uid="82317" user="AM909" changeset="9569183">
    <nd ref="418625065"/>
    <nd ref="1468911403"/>
    <nd ref="418625072"/>
    <nd ref="418625043"/>
    <tag k="highway" v="residential"/>
    <tag k="name" v="Hydrangea Lane"/>
    <tag k="source" v="bing_imagery_0.25m_201005;survey;image"/>
    <tag k="source_ref" v="AM909_DSCN0843;AM909_DSCN0844"/>
  </way>
  <way id="35804137" version="2" timestamp="2010-03-28T02:17:55Z" uid="20587" user="balrog-kun" changeset="4250871">
    <nd ref="418625032"/>
    <nd ref="418625093"/>
    <tag k="highway" v="residential"/>
    <tag k="name" v="Rockrose Lane"/>
    <tag k="source" v="survey;image;yahoo_imagry"/>
    <tag k="source_ref" v="AM909_DSCN0840"/>
  </way>
  <way id="35804137" version="3" timestamp="2011-10-16T05:39:24Z" uid="82317" user="AM909" changeset="9569183">
    <nd ref="418625032"/>
    <nd ref="418625093"/>
    <tag k="highway" v="residential"/>
    <tag k="name" v="Rockrose Lane"/>
    <tag k="source" v="bing_imagery_0.25m_201005;survey;image"/>
    <tag k="source_ref" v="AM909_DSCN0840"/>
  </way>
  <way id="35804138" version="2" timestamp="2010-03-28T02:17:55Z" uid="20587" user="balrog-kun" changeset="4250871">
    <nd ref="418624981"/>
    <nd ref="418625093"/>
    <nd ref="418625091"/>
    <nd ref="418625082"/>
    <nd ref="418625088"/>
    <nd ref="418625080"/>
    <nd ref="418625086"/>
    <nd ref="418625085"/>
    <nd ref="418625089"/>
    <tag k="highway" v="residential"/>
    <tag k="name" v="Roadrunner Road"/>
    <tag k="source" v="survey;image;yahoo_imagry"/>
    <tag k="source_ref" v="AM909_DSCN0849"/>
  </way>
  <way id="35804138" version="3" timestamp="2011-10-16T02:18:43Z" uid="82317" user="AM909" changeset="9568827">
    <nd ref="418624981"/>
    <nd ref="418625093"/>
    <nd ref="418625091"/>
    <nd ref="1468865488"/>
    <nd ref="418625082"/>
    <nd ref="1468865320"/>
    <nd ref="418625088"/>
    <nd ref="1468865776"/>
    <nd ref="418625080"/>
    <nd ref="418625086"/>
    <nd ref="418625085"/>
    <nd ref="418625089"/>
    <tag k="highway" v="residential"/>
    <tag k="name" v="Roadrunner Road"/>
    <tag k="source" v="survey;image;yahoo_imagry"/>
    <tag k="source_ref" v="AM909_DSCN0849"/>
  </way>
  <way id="35804138" version="4" timestamp="2011-10-16T05:39:26Z" uid="82317" user="AM909" changeset="9569183">
    <nd ref="418624981"/>
    <nd ref="418625093"/>
    <nd ref="418625091"/>
    <nd ref="1468865488"/>
    <nd ref="418625082"/>
    <nd ref="1468865320"/>
    <nd ref="418625088"/>
    <nd ref="1468865776"/>
    <nd ref="418625080"/>
    <nd ref="1468911413"/>
    <nd ref="1468911435"/>
    <nd ref="418625086"/>
    <nd ref="1468911456"/>
    <nd ref="1468911404"/>
    <nd ref="418625085"/>
    <nd ref="418625089"/>
    <tag k="highway" v="residential"/>
    <tag k="name" v="Roadrunner Road"/>
    <tag k="source" v="survey;image;yahoo_imagry"/>
    <tag k="source_ref" v="AM909_DSCN0849"/>
  </way>
  <way id="35804139" version="2" timestamp="2010-03-28T02:17:55Z" uid="20587" user="balrog-kun" changeset="4250871">
    <nd ref="418625100"/>
    <nd ref="418625107"/>
    <nd ref="418625105"/>
    <nd ref="418625111"/>
    <nd ref="418625109"/>
    <nd ref="418625121"/>
    <tag k="highway" v="residential"/>
    <tag k="name" v="Starling Street"/>
    <tag k="source" v="survey;image;yahoo_imagry"/>
    <tag k="source_ref" v="AM909_DSCN0853"/>
  </way>
  <way id="35804139" version="3" timestamp="2011-10-16T02:18:10Z" uid="82317" user="AM909" changeset="9568827">
    <nd ref="418625100"/>
    <nd ref="1468865504"/>
    <nd ref="418625107"/>
    <nd ref="418625105"/>
    <nd ref="418625111"/>
    <nd ref="418625109"/>
    <nd ref="418625121"/>
    <tag k="highway" v="residential"/>
    <tag k="name" v="Starling Street"/>
    <tag k="source" v="survey;image;yahoo_imagry"/>
    <tag k="source_ref" v="AM909_DSCN0853"/>
  </way>
  <way id="35804139" version="4" timestamp="2011-10-16T05:39:12Z" uid="82317" user="AM909" changeset="9569183">
    <nd ref="418625100"/>
    <nd ref="1468865504"/>
    <nd ref="418625107"/>
    <nd ref="418625105"/>
    <nd ref="418625111"/>
    <nd ref="418625109"/>
    <nd ref="418625121"/>
    <tag k="highway" v="residential"/>
    <tag k="name" v="Starling Street"/>
    <tag k="source" v="bing_imagery_0.25m_201005;survey;image"/>
    <tag k="source_ref" v="AM909_DSCN0853"/>
  </way>
  <way id="35804140" version="2" timestamp="2010-03-28T02:17:56Z" uid="20587" user="balrog-kun" changeset="4250871">
    <nd ref="418625091"/>
    <nd ref="418625097"/>
    <nd ref="418625128"/>
    <nd ref="418625095"/>
    <nd ref="418625102"/>
    <tag k="highway" v="residential"/>
    <tag k="name" v="Hawk Street"/>
    <tag k="source" v="survey;image;yahoo_imagry"/>
    <tag k="source_ref" v="AM909_DSCN0850"/>
  </way>
  <way id="35804140" version="3" timestamp="2011-10-16T02:18:14Z" uid="82317" user="AM909" changeset="9568827">
    <nd ref="418625091"/>
    <nd ref="1468865736"/>
    <nd ref="418625097"/>
    <nd ref="418625128"/>
    <nd ref="418625095"/>
    <nd ref="418625102"/>
    <tag k="highway" v="residential"/>
    <tag k="name" v="Hawk Street"/>
    <tag k="source" v="survey;image;yahoo_imagry"/>
    <tag k="source_ref" v="AM909_DSCN0850"/>
  </way>
  <way id="35804140" version="4" timestamp="2011-10-16T05:39:16Z" uid="82317" user="AM909" changeset="9569183">
    <nd ref="418625091"/>
    <nd ref="1468865736"/>
    <nd ref="418625097"/>
    <nd ref="418625128"/>
    <nd ref="418625095"/>
    <nd ref="418625102"/>
    <tag k="highway" v="residential"/>
    <tag k="name" v="Hawk Street"/>
    <tag k="source" v="bing_imagery_0.25m_201005;survey;image"/>
    <tag k="source_ref" v="AM909_DSCN0850"/>
  </way>
  <way id="35804141" version="2" timestamp="2010-03-28T02:17:56Z" uid="20587" user="balrog-kun" changeset="4250871">
    <nd ref="418625123"/>
    <nd ref="418625117"/>
    <tag k="highway" v="residential"/>
    <tag k="name" v="Stork Court"/>
    <tag k="source" v="survey;image;yahoo_imagry"/>
    <tag k="source_ref" v="AM909_DSCN0854"/>
  </way>
  <way id="35804141" version="3" timestamp="2011-10-16T05:39:17Z" uid="82317" user="AM909" changeset="9569183">
    <nd ref="418625123"/>
    <nd ref="418625117"/>
    <tag k="highway" v="residential"/>
    <tag k="name" v="Stork Court"/>
    <tag k="source" v="bing_imagery_0.25m_201005;survey;image"/>
    <tag k="source_ref" v="AM909_DSCN0854"/>
  </way>
  <way id="35804142" version="2" timestamp="2010-03-28T02:17:56Z" uid="20587" user="balrog-kun" changeset="4250871">
    <nd ref="418625114"/>
    <nd ref="418625112"/>
    <nd ref="418625118"/>
    <nd ref="418625121"/>
    <nd ref="418625117"/>
    <tag k="highway" v="residential"/>
    <tag k="name" v="Wren Street"/>
    <tag k="source" v="survey;image;yahoo_imagry"/>
    <tag k="source_ref" v="AM909_DSCN0852"/>
  </way>
  <way id="35804142" version="3" timestamp="2011-10-16T02:18:27Z" uid="82317" user="AM909" changeset="9568827">
    <nd ref="418625114"/>
    <nd ref="418625112"/>
    <nd ref="418625118"/>
    <nd ref="1468865440"/>
    <nd ref="418625121"/>
    <nd ref="418625117"/>
    <tag k="highway" v="residential"/>
    <tag k="name" v="Wren Street"/>
    <tag k="source" v="survey;image;yahoo_imagry"/>
    <tag k="source_ref" v="AM909_DSCN0852"/>
  </way>
  <way id="35804142" version="4" timestamp="2011-10-16T05:39:20Z" uid="82317" user="AM909" changeset="9569183">
    <nd ref="418625114"/>
    <nd ref="418625112"/>
    <nd ref="418625118"/>
    <nd ref="1468865440"/>
    <nd ref="418625121"/>
    <nd ref="418625117"/>
    <tag k="highway" v="residential"/>
    <tag k="name" v="Wren Street"/>
    <tag k="source" v="bing_imagery_0.25m_201005;survey;image"/>
    <tag k="source_ref" v="AM909_DSCN0852"/>
  </way>
  <way id="35804144" version="2" timestamp="2010-03-28T02:17:56Z" uid="20587" user="balrog-kun" changeset="4250871">
    <nd ref="418625321"/>
    <nd ref="418625317"/>
    <tag k="highway" v="residential"/>
    <tag k="name" v="Bobcat Lane"/>
    <tag k="source" v="survey;image;yahoo_imagry"/>
    <tag k="source_ref" v="AM909_DSCN0901"/>
  </way>
  <way id="35804146" version="2" timestamp="2010-03-28T02:17:56Z" uid="20587" user="balrog-kun" changeset="4250871">
    <nd ref="418625140"/>
    <nd ref="418625137"/>
    <nd ref="418625146"/>
    <nd ref="418625144"/>
    <nd ref="418625165"/>
    <nd ref="418625150"/>
    <nd ref="418625148"/>
    <nd ref="418625157"/>
    <nd ref="418625154"/>
    <nd ref="418625131"/>
    <tag k="highway" v="residential"/>
    <tag k="name" v="Snowberry Lane"/>
    <tag k="source" v="survey;image;yahoo_imagry"/>
    <tag k="source_ref" v="AM909_DSCN0863"/>
  </way>
  <way id="35804146" version="3" timestamp="2011-10-16T05:39:15Z" uid="82317" user="AM909" changeset="9569183">
    <nd ref="418625140"/>
    <nd ref="1468911453"/>
    <nd ref="418625137"/>
    <nd ref="1468911431"/>
    <nd ref="418625146"/>
    <nd ref="1468911422"/>
    <nd ref="418625165"/>
    <nd ref="418625150"/>
    <nd ref="418625148"/>
    <nd ref="418625157"/>
    <nd ref="418625154"/>
    <nd ref="418625131"/>
    <tag k="highway" v="residential"/>
    <tag k="name" v="Snowberry Lane"/>
    <tag k="source" v="bing_imagery_0.25m_201005;survey;image"/>
    <tag k="source_ref" v="AM909_DSCN0863"/>
  </way>
  <way id="35804147" version="2" timestamp="2010-03-28T02:17:56Z" uid="20587" user="balrog-kun" changeset="4250871">
    <nd ref="418625131"/>
    <nd ref="418625136"/>
    <nd ref="418625134"/>
    <nd ref="418625181"/>
    <nd ref="418625132"/>
    <tag k="highway" v="residential"/>
    <tag k="name" v="Jackrabbit Street"/>
    <tag k="source" v="survey;image;yahoo_imagry"/>
    <tag k="source_ref" v="AM909_DSCN0861"/>
  </way>
  <way id="35804147" version="3" timestamp="2011-10-16T05:39:16Z" uid="82317" user="AM909" changeset="9569183">
    <nd ref="418625131"/>
    <nd ref="418625136"/>
    <nd ref="418625134"/>
    <nd ref="418625181"/>
    <nd ref="418625132"/>
    <tag k="highway" v="residential"/>
    <tag k="name" v="Jackrabbit Street"/>
    <tag k="source" v="bing_imagery_0.25m_201005;survey;image"/>
    <tag k="source_ref" v="AM909_DSCN0861"/>
  </way>
  <way id="35804148" version="2" timestamp="2010-03-28T02:17:56Z" uid="20587" user="balrog-kun" changeset="4250871">
    <nd ref="418625171"/>
    <nd ref="418625140"/>
    <tag k="highway" v="residential"/>
    <tag k="name" v="Maplewood Lane"/>
    <tag k="source" v="survey;image;yahoo_imagry"/>
    <tag k="source_ref" v="AM909_DSCN0866"/>
  </way>
  <way id="35804148" version="3" timestamp="2011-10-16T05:39:18Z" uid="82317" user="AM909" changeset="9569183">
    <nd ref="418625171"/>
    <nd ref="418625140"/>
    <tag k="highway" v="residential"/>
    <tag k="name" v="Maplewood Lane"/>
    <tag k="source" v="bing_imagery_0.25m_201005;survey;image"/>
    <tag k="source_ref" v="AM909_DSCN0866"/>
  </way>
  <way id="35804149" version="2" timestamp="2010-03-28T02:17:57Z" uid="20587" user="balrog-kun" changeset="4250871">
    <nd ref="418625165"/>
    <nd ref="418625161"/>
    <nd ref="418625170"/>
    <nd ref="418625167"/>
    <nd ref="418625176"/>
    <nd ref="418625172"/>
    <tag k="highway" v="residential"/>
    <tag k="name" v="Honey Pine Lane"/>
    <tag k="source" v="survey;image;yahoo_imagry"/>
    <tag k="source_ref" v="AM909_DSCN0860;AM909_DSCN0864"/>
  </way>
  <way id="35804149" version="3" timestamp="2011-10-16T05:39:20Z" uid="82317" user="AM909" changeset="9569183">
    <nd ref="418625165"/>
    <nd ref="418625161"/>
    <nd ref="418625170"/>
    <nd ref="1468911402"/>
    <nd ref="418625167"/>
    <nd ref="418625176"/>
    <nd ref="418625172"/>
    <tag k="highway" v="residential"/>
    <tag k="name" v="Honey Pine Lane"/>
    <tag k="source" v="bing_imagery_0.25m_201005;survey;image"/>
    <tag k="source_ref" v="AM909_DSCN0860;AM909_DSCN0864"/>
  </way>
  <way id="35804150" version="2" timestamp="2010-03-28T02:17:57Z" uid="20587" user="balrog-kun" changeset="4250871">
    <nd ref="418625191"/>
    <nd ref="418625196"/>
    <nd ref="418625205"/>
    <nd ref="418625194"/>
    <nd ref="418625189"/>
    <tag k="highway" v="residential"/>
    <tag k="name" v="Crimson Street"/>
    <tag k="source" v="survey;image;yahoo_imagry"/>
    <tag k="source_ref" v="AM909_DSCN0875"/>
  </way>
  <way id="35804150" version="3" timestamp="2011-10-16T05:39:23Z" uid="82317" user="AM909" changeset="9569183">
    <nd ref="1468911439"/>
    <nd ref="418625191"/>
    <nd ref="418625196"/>
    <nd ref="418625205"/>
    <nd ref="418625194"/>
    <nd ref="1468911437"/>
    <nd ref="418625189"/>
    <tag k="highway" v="residential"/>
    <tag k="name" v="Crimson Street"/>
    <tag k="source" v="bing_imagery_0.25m_201005;survey;image"/>
    <tag k="source_ref" v="AM909_DSCN0875"/>
  </way>
  <way id="35804155" version="2" timestamp="2010-03-28T02:17:57Z" uid="20587" user="balrog-kun" changeset="4250871">
    <nd ref="418625205"/>
    <nd ref="418625204"/>
    <tag k="highway" v="residential"/>
    <tag k="name" v="Dove Valley Court"/>
    <tag k="source" v="survey;image;yahoo_imagry"/>
    <tag k="source_ref" v="AM909_DSCN0876"/>
  </way>
  <way id="35804155" version="3" timestamp="2011-10-16T05:39:19Z" uid="82317" user="AM909" changeset="9569183">
    <nd ref="418625205"/>
    <nd ref="418625204"/>
    <tag k="highway" v="residential"/>
    <tag k="name" v="Dove Valley Court"/>
    <tag k="source" v="bing_imagery_0.25m_201005;survey;image"/>
    <tag k="source_ref" v="AM909_DSCN0876"/>
  </way>
  <way id="35804156" version="2" timestamp="2010-03-28T02:17:57Z" uid="20587" user="balrog-kun" changeset="4250871">
    <nd ref="418625201"/>
    <nd ref="418625214"/>
    <nd ref="418625221"/>
    <tag k="highway" v="residential"/>
    <tag k="name" v="Deerwood Lane"/>
    <tag k="source" v="survey;image;yahoo_imagry"/>
    <tag k="source_ref" v="AM909_DSCN0874"/>
  </way>
  <way id="35804156" version="3" timestamp="2011-10-16T05:39:21Z" uid="82317" user="AM909" changeset="9569183">
    <nd ref="418625201"/>
    <nd ref="1468911418"/>
    <nd ref="418625085"/>
    <tag k="highway" v="residential"/>
    <tag k="name" v="Deerwood Lane"/>
    <tag k="source" v="bing_imagery_0.25m_201005;survey;image"/>
    <tag k="source_ref" v="AM909_DSCN0874"/>
  </way>
  <way id="35804157" version="2" timestamp="2010-03-28T02:17:57Z" uid="20587" user="balrog-kun" changeset="4250871">
    <nd ref="418625185"/>
    <nd ref="418625199"/>
    <nd ref="418625183"/>
    <nd ref="418625188"/>
    <nd ref="418625187"/>
    <nd ref="418625196"/>
    <tag k="highway" v="residential"/>
    <tag k="name" v="Pepperwood Lane"/>
    <tag k="source" v="survey;image;yahoo_imagry"/>
    <tag k="source_ref" v="AM909_DSCN0870"/>
  </way>
  <way id="35804157" version="3" timestamp="2011-10-16T05:39:24Z" uid="82317" user="AM909" changeset="9569183">
    <nd ref="418625185"/>
    <nd ref="418625199"/>
    <nd ref="418625183"/>
    <nd ref="418625196"/>
    <tag k="highway" v="residential"/>
    <tag k="name" v="Pepperwood Lane"/>
    <tag k="source" v="bing_imagery_0.25m_201005;survey;image"/>
    <tag k="source_ref" v="AM909_DSCN0870"/>
  </way>
  <way id="35804160" version="2" timestamp="2010-03-28T02:17:57Z" uid="20587" user="balrog-kun" changeset="4250871">
    <nd ref="54744148"/>
    <nd ref="392519614"/>
    <nd ref="392519615"/>
    <nd ref="392519616"/>
    <nd ref="392519617"/>
    <nd ref="54986216"/>
    <nd ref="54986218"/>
    <nd ref="418624988"/>
    <nd ref="418624989"/>
    <nd ref="418624981"/>
    <nd ref="418625100"/>
    <nd ref="418625564"/>
    <nd ref="54986220"/>
    <nd ref="54858359"/>
    <nd ref="418625587"/>
    <nd ref="418625563"/>
    <nd ref="418625589"/>
    <nd ref="54681511"/>
    <tag k="highway" v="tertiary"/>
    <tag k="name" v="Coyote Canyon Road"/>
    <tag k="note" v="Incorrect name in tiger_2007"/>
    <tag k="source" v="survey;image;yahoo_imagry"/>
    <tag k="source_ref" v="AM909_DSCN0834"/>
    <tag k="tiger:cfcc" v="A41"/>
    <tag k="tiger:county" v="San Bernardino, CA"/>
    <tag k="tiger:name_base" v="Duncan Canyon"/>
    <tag k="tiger:name_type" v="Rd"/>
    <tag k="tiger:separated" v="no"/>
    <tag k="tiger:source" v="tiger_import_dch_v0.6_20070809"/>
    <tag k="tiger:tlid" v="144972795:144967278:145219351:144982959:144982960"/>
  </way>
  <way id="35804160" version="3" timestamp="2011-10-14T22:46:42Z" uid="82317" user="AM909" changeset="9559923">
    <nd ref="54744148"/>
    <nd ref="1467713453"/>
    <nd ref="1467714287"/>
    <nd ref="392519614"/>
    <nd ref="392519615"/>
    <nd ref="1467713917"/>
    <nd ref="392519616"/>
    <nd ref="1467713553"/>
    <nd ref="392519617"/>
    <nd ref="1467714374"/>
    <nd ref="1467714004"/>
    <nd ref="54986216"/>
    <nd ref="1467713642"/>
    <nd ref="54986218"/>
    <nd ref="1467713297"/>
    <nd ref="418624988"/>
    <nd ref="1467714104"/>
    <nd ref="418624989"/>
    <nd ref="418624981"/>
    <nd ref="418625100"/>
    <nd ref="1467714224"/>
    <nd ref="418625564"/>
    <nd ref="54986220"/>
    <nd ref="54858359"/>
    <nd ref="418625587"/>
    <nd ref="418625563"/>
    <nd ref="418625589"/>
    <nd ref="54681511"/>
    <tag k="highway" v="tertiary"/>
    <tag k="name" v="Coyote Canyon Road"/>
    <tag k="note" v="Incorrect name in tiger_2007"/>
    <tag k="source" v="survey;image;yahoo_imagry"/>
    <tag k="source_ref" v="AM909_DSCN0834"/>
    <tag k="tiger:cfcc" v="A41"/>
    <tag k="tiger:county" v="San Bernardino, CA"/>
    <tag k="tiger:name_base" v="Duncan Canyon"/>
    <tag k="tiger:name_type" v="Rd"/>
    <tag k="tiger:separated" v="no"/>
    <tag k="tiger:source" v="tiger_import_dch_v0.6_20070809"/>
    <tag k="tiger:tlid" v="144972795:144967278:145219351:144982959:144982960"/>
  </way>
  <way id="35804160" version="4" timestamp="2011-10-16T02:18:25Z" uid="82317" user="AM909" changeset="9568827">
    <nd ref="54744148"/>
    <nd ref="1467713453"/>
    <nd ref="1467714287"/>
    <nd ref="392519614"/>
    <nd ref="392519615"/>
    <nd ref="1467713917"/>
    <nd ref="392519616"/>
    <nd ref="1467713553"/>
    <nd ref="392519617"/>
    <nd ref="1467714374"/>
    <nd ref="1467714004"/>
    <nd ref="54986216"/>
    <nd ref="1467713642"/>
    <nd ref="54986218"/>
    <nd ref="1467713297"/>
    <nd ref="418624988"/>
    <nd ref="1467714104"/>
    <nd ref="418624989"/>
    <nd ref="418624981"/>
    <nd ref="418625100"/>
    <nd ref="1467714224"/>
    <nd ref="418625564"/>
    <nd ref="54986220"/>
    <nd ref="54858359"/>
    <nd ref="418625587"/>
    <nd ref="418625563"/>
    <nd ref="418625589"/>
    <nd ref="1468865752"/>
    <nd ref="1468865273"/>
    <nd ref="54681511"/>
    <tag k="highway" v="tertiary"/>
    <tag k="name" v="Coyote Canyon Road"/>
    <tag k="note" v="Incorrect name in tiger_2007"/>
    <tag k="source" v="survey;image;yahoo_imagry"/>
    <tag k="source_ref" v="AM909_DSCN0834"/>
    <tag k="tiger:cfcc" v="A41"/>
    <tag k="tiger:county" v="San Bernardino, CA"/>
    <tag k="tiger:name_base" v="Duncan Canyon"/>
    <tag k="tiger:name_type" v="Rd"/>
    <tag k="tiger:separated" v="no"/>
    <tag k="tiger:source" v="tiger_import_dch_v0.6_20070809"/>
    <tag k="tiger:tlid" v="144972795:144967278:145219351:144982959:144982960"/>
  </way>
  <way id="35804162" version="2" timestamp="2010-03-28T02:17:57Z" uid="20587" user="balrog-kun" changeset="4250871">
    <nd ref="418624754"/>
    <nd ref="418624706"/>
    <tag k="access" v="private"/>
    <tag k="highway" v="residential"/>
    <tag k="name" v="Warlow Place"/>
    <tag k="source" v="survey;image;yahoo_imagry"/>
    <tag k="source_ref" v="AM909_DSCN0768"/>
  </way>
  <way id="35804163" version="11" timestamp="2010-03-28T02:17:57Z" uid="20587" user="balrog-kun" changeset="4250871">
    <nd ref="414462500"/>
    <nd ref="513053859"/>
    <tag k="highway" v="motorway"/>
    <tag k="lanes" v="4"/>
    <tag k="layer" v="1"/>
    <tag k="maxspeed" v="65 mph"/>
    <tag k="name" v="Congressman George E. Brown, Jr. Mem. Highway"/>
    <tag k="name_1" v="Foothill Freeway"/>
    <tag k="oneway" v="yes"/>
    <tag k="ref" v="CA 210"/>
    <tag k="source" v="yahoo_imagery;CDOT"/>
  </way>
  <way id="35804163" version="12" timestamp="2011-07-03T22:06:58Z" uid="4951" user="PeterIto" changeset="8624573">
    <nd ref="414462500"/>
    <nd ref="513053859"/>
    <tag k="highway" v="motorway"/>
    <tag k="lanes" v="4"/>
    <tag k="maxspeed" v="65 mph"/>
    <tag k="name" v="Congressman George E. Brown, Jr. Mem. Highway"/>
    <tag k="name_1" v="Foothill Freeway"/>
    <tag k="oneway" v="yes"/>
    <tag k="ref" v="CA 210"/>
    <tag k="source" v="yahoo_imagery;CDOT"/>
  </way>
  <way id="35804163" version="13" timestamp="2011-07-29T14:30:59Z" uid="207745" user="NE2" changeset="8863873">
    <nd ref="414462500"/>
    <nd ref="513053859"/>
    <tag k="highway" v="motorway"/>
    <tag k="hov" v="lane"/>
    <tag k="lanes" v="4"/>
    <tag k="maxspeed" v="65 mph"/>
    <tag k="name" v="Congressman George E. Brown, Jr. Mem. Highway"/>
    <tag k="name_1" v="Foothill Freeway"/>
    <tag k="note:lanes" v="left lane is hov"/>
    <tag k="oneway" v="yes"/>
    <tag k="ref" v="CA 210"/>
    <tag k="source" v="yahoo_imagery;CDOT"/>
  </way>
  <way id="35804163" version="14" timestamp="2011-12-01T02:10:18Z" uid="92286" user="Paul Johnson" changeset="10004810">
    <nd ref="414462500"/>
    <nd ref="513053859"/>
    <tag k="highway" v="motorway"/>
    <tag k="hov" v="lane"/>
    <tag k="lanes" v="4"/>
    <tag k="maxspeed" v="65 mph"/>
    <tag k="name" v="Congressman George Edward Brown, Junior Mememorial Highway"/>
    <tag k="name_1" v="Foothill Freeway"/>
    <tag k="note:lanes" v="left lane is hov"/>
    <tag k="oneway" v="yes"/>
    <tag k="ref" v="CA 210"/>
    <tag k="source" v="yahoo_imagery;CDOT"/>
  </way>
  <way id="35804164" version="3" timestamp="2010-03-28T02:17:58Z" uid="20587" user="balrog-kun" changeset="4250871">
    <nd ref="418624780"/>
    <nd ref="418624802"/>
    <nd ref="418624805"/>
    <nd ref="418624770"/>
    <tag k="highway" v="residential"/>
    <tag k="name" v="Glen Abbey Place"/>
    <tag k="source" v="survey;image;yahoo_imagery"/>
    <tag k="source_ref" v="AM909_DSCN0789"/>
  </way>
  <way id="35804165" version="11" timestamp="2010-03-28T02:17:58Z" uid="20587" user="balrog-kun" changeset="4250871">
    <nd ref="299206593"/>
    <nd ref="299206844"/>
    <nd ref="299206595"/>
    <nd ref="539321195"/>
    <tag k="highway" v="motorway"/>
    <tag k="lanes" v="4"/>
    <tag k="maxspeed" v="105"/>
    <tag k="name" v="Congressman George E. Brown, Jr. Mem. Highway"/>
    <tag k="name_1" v="Foothill Freeway"/>
    <tag k="oneway" v="yes"/>
    <tag k="ref" v="CA 210"/>
    <tag k="source" v="yahoo_imagry;CDOT"/>
  </way>
  <way id="35804165" version="12" timestamp="2010-07-15T01:05:52Z" uid="82317" user="AM909" changeset="5223033">
    <nd ref="299206593"/>
    <nd ref="299206844"/>
    <nd ref="299206595"/>
    <nd ref="539321195"/>
    <tag k="highway" v="motorway"/>
    <tag k="lanes" v="4"/>
    <tag k="maxspeed" v="65 mph"/>
    <tag k="name" v="Congressman George E. Brown, Jr. Mem. Highway"/>
    <tag k="name_1" v="Foothill Freeway"/>
    <tag k="oneway" v="yes"/>
    <tag k="ref" v="CA 210"/>
    <tag k="source" v="yahoo_imagry;CDOT"/>
  </way>
  <way id="35804165" version="13" timestamp="2011-07-29T14:31:08Z" uid="207745" user="NE2" changeset="8863873">
    <nd ref="299206593"/>
    <nd ref="299206844"/>
    <nd ref="299206595"/>
    <nd ref="539321195"/>
    <tag k="highway" v="motorway"/>
    <tag k="hov" v="lane"/>
    <tag k="lanes" v="4"/>
    <tag k="maxspeed" v="65 mph"/>
    <tag k="name" v="Congressman George E. Brown, Jr. Mem. Highway"/>
    <tag k="name_1" v="Foothill Freeway"/>
    <tag k="note:lanes" v="left lane is hov"/>
    <tag k="oneway" v="yes"/>
    <tag k="ref" v="CA 210"/>
    <tag k="source" v="yahoo_imagry;CDOT"/>
  </way>
  <way id="35804165" version="14" timestamp="2011-12-01T02:10:33Z" uid="92286" user="Paul Johnson" changeset="10004810">
    <nd ref="299206593"/>
    <nd ref="299206844"/>
    <nd ref="299206595"/>
    <nd ref="539321195"/>
    <tag k="highway" v="motorway"/>
    <tag k="hov" v="lane"/>
    <tag k="lanes" v="4"/>
    <tag k="maxspeed" v="65 mph"/>
    <tag k="name" v="Congressman George Edward Brown, Junior Mememorial Highway"/>
    <tag k="name_1" v="Foothill Freeway"/>
    <tag k="note:lanes" v="left lane is hov"/>
    <tag k="oneway" v="yes"/>
    <tag k="ref" v="CA 210"/>
    <tag k="source" v="yahoo_imagry;CDOT"/>
  </way>
  <way id="35804166" version="2" timestamp="2010-03-28T02:17:58Z" uid="20587" user="balrog-kun" changeset="4250871">
    <nd ref="418624704"/>
    <nd ref="418624714"/>
    <nd ref="418624722"/>
    <nd ref="418624705"/>
    <nd ref="418624725"/>
    <nd ref="418624724"/>
    <tag k="access" v="private"/>
    <tag k="highway" v="residential"/>
    <tag k="name" v="Iron Spring Lane"/>
    <tag k="source" v="survey;image;yahoo_imagry"/>
    <tag k="source_ref" v="AM909_DSCN0768"/>
  </way>
  <way id="35804168" version="7" timestamp="2010-03-28T02:17:58Z" uid="20587" user="balrog-kun" changeset="4250871">
    <nd ref="299207427"/>
    <nd ref="418624790"/>
    <tag k="bridge" v="yes"/>
    <tag k="highway" v="motorway"/>
    <tag k="lanes" v="4"/>
    <tag k="layer" v="1"/>
    <tag k="maxspeed" v="105"/>
    <tag k="name" v="Congressman George E. Brown, Jr. Mem. Highway"/>
    <tag k="name_1" v="Foothill Freeway"/>
    <tag k="oneway" v="yes"/>
    <tag k="ref" v="CA 210"/>
    <tag k="source" v="yahoo_imagery;CDOT"/>
  </way>
  <way id="35804168" version="8" timestamp="2010-07-15T01:05:36Z" uid="82317" user="AM909" changeset="5223033">
    <nd ref="299207427"/>
    <nd ref="418624790"/>
    <tag k="bridge" v="yes"/>
    <tag k="highway" v="motorway"/>
    <tag k="lanes" v="4"/>
    <tag k="layer" v="1"/>
    <tag k="maxspeed" v="65 mph"/>
    <tag k="name" v="Congressman George E. Brown, Jr. Mem. Highway"/>
    <tag k="name_1" v="Foothill Freeway"/>
    <tag k="oneway" v="yes"/>
    <tag k="ref" v="CA 210"/>
    <tag k="source" v="yahoo_imagery;CDOT"/>
  </way>
  <way id="35804168" version="9" timestamp="2011-07-29T14:30:48Z" uid="207745" user="NE2" changeset="8863873">
    <nd ref="299207427"/>
    <nd ref="418624790"/>
    <tag k="bridge" v="yes"/>
    <tag k="highway" v="motorway"/>
    <tag k="hov" v="lane"/>
    <tag k="lanes" v="4"/>
    <tag k="layer" v="1"/>
    <tag k="maxspeed" v="65 mph"/>
    <tag k="name" v="Congressman George E. Brown, Jr. Mem. Highway"/>
    <tag k="name_1" v="Foothill Freeway"/>
    <tag k="note:lanes" v="left lane is hov"/>
    <tag k="oneway" v="yes"/>
    <tag k="ref" v="CA 210"/>
    <tag k="source" v="yahoo_imagery;CDOT"/>
  </way>
  <way id="35804168" version="10" timestamp="2011-12-01T02:10:09Z" uid="92286" user="Paul Johnson" changeset="10004810">
    <nd ref="299207427"/>
    <nd ref="418624790"/>
    <tag k="bridge" v="yes"/>
    <tag k="highway" v="motorway"/>
    <tag k="hov" v="lane"/>
    <tag k="lanes" v="4"/>
    <tag k="layer" v="1"/>
    <tag k="maxspeed" v="65 mph"/>
    <tag k="name" v="Congressman George Edward Brown, Junior Mememorial Highway"/>
    <tag k="name_1" v="Foothill Freeway"/>
    <tag k="note:lanes" v="left lane is hov"/>
    <tag k="oneway" v="yes"/>
    <tag k="ref" v="CA 210"/>
    <tag k="source" v="yahoo_imagery;CDOT"/>
  </way>
  <way id="35804170" version="3" timestamp="2010-03-28T02:17:58Z" uid="20587" user="balrog-kun" changeset="4250871">
    <nd ref="418624773"/>
    <nd ref="418624803"/>
    <nd ref="418624775"/>
    <tag k="highway" v="residential"/>
    <tag k="name" v="Ludlow Lane"/>
    <tag k="source" v="survey;image;yahoo_imagery"/>
    <tag k="source_ref" v="AM909_DSCN0792"/>
  </way>
  <way id="35804172" version="2" timestamp="2010-03-28T02:17:58Z" uid="20587" user="balrog-kun" changeset="4250871">
    <nd ref="418624724"/>
    <nd ref="418624729"/>
    <tag k="access" v="private"/>
    <tag k="highway" v="residential"/>
    <tag k="name" v="Big Pine Drive"/>
    <tag k="source" v="survey;image;yahoo_imagry"/>
    <tag k="source_ref" v="AM909_DSCN0768"/>
  </way>
  <way id="35804173" version="3" timestamp="2010-03-28T02:17:58Z" uid="20587" user="balrog-kun" changeset="4250871">
    <nd ref="418624810"/>
    <nd ref="418624807"/>
    <nd ref="418624773"/>
    <tag k="highway" v="residential"/>
    <tag k="name" v="Lytham Lane"/>
    <tag k="source" v="survey;image;yahoo_imagery"/>
    <tag k="source_ref" v="AM909_DSCN0793;AM909_DSCN0794"/>
  </way>
  <way id="35804174" version="2" timestamp="2010-03-28T02:17:58Z" uid="20587" user="balrog-kun" changeset="4250871">
    <nd ref="418625080"/>
    <nd ref="418625130"/>
    <nd ref="418625129"/>
    <tag k="highway" v="residential"/>
    <tag k="name" v="Wildwood Lane"/>
    <tag k="source" v="survey;image;yahoo_imagry"/>
    <tag k="source_ref" v="AM909_DSCN0858"/>
  </way>
  <way id="35804174" version="3" timestamp="2011-10-16T05:39:21Z" uid="82317" user="AM909" changeset="9569183">
    <nd ref="418625080"/>
    <nd ref="418625130"/>
    <nd ref="418625129"/>
    <tag k="highway" v="residential"/>
    <tag k="name" v="Wildwood Lane"/>
    <tag k="source" v="bing_imagery_0.25m_201005;survey;image"/>
    <tag k="source_ref" v="AM909_DSCN0858"/>
  </way>
  <way id="35804175" version="2" timestamp="2010-03-28T02:17:58Z" uid="20587" user="balrog-kun" changeset="4250871">
    <nd ref="418625132"/>
    <nd ref="418625172"/>
    <nd ref="418625129"/>
    <tag k="highway" v="residential"/>
    <tag k="name" v="Glenwood Avenue"/>
    <tag k="source" v="survey;image;yahoo_imagry"/>
    <tag k="source_ref" v="AM909_DSCN0859"/>
  </way>
  <way id="35804175" version="3" timestamp="2011-10-16T05:39:24Z" uid="82317" user="AM909" changeset="9569183">
    <nd ref="418625132"/>
    <nd ref="418625172"/>
    <nd ref="418625129"/>
    <tag k="highway" v="residential"/>
    <tag k="name" v="Glenwood Avenue"/>
    <tag k="source" v="bing_imagery_0.25m_201005;survey;image"/>
    <tag k="source_ref" v="AM909_DSCN0859"/>
  </way>
  <way id="35804176" version="3" timestamp="2010-03-28T02:17:58Z" uid="20587" user="balrog-kun" changeset="4250871">
    <nd ref="418624809"/>
    <nd ref="418624810"/>
    <tag k="highway" v="residential"/>
    <tag k="name" v="Turtle Bay Place"/>
    <tag k="source" v="survey;image;yahoo_imagery"/>
    <tag k="source_ref" v="AM909_DSCN0794"/>
  </way>
  <way id="35804178" version="2" timestamp="2010-03-28T02:17:58Z" uid="20587" user="balrog-kun" changeset="4250871">
    <nd ref="418624714"/>
    <nd ref="418624749"/>
    <nd ref="418624721"/>
    <nd ref="418624720"/>
    <nd ref="418624728"/>
    <nd ref="418624719"/>
    <tag k="access" v="private"/>
    <tag k="highway" v="residential"/>
    <tag k="name" v="Lost Horse Drive"/>
    <tag k="source" v="survey;image;yahoo_imagry"/>
    <tag k="source_ref" v="AM909_DSCN0768"/>
  </way>
  <way id="35804179" version="2" timestamp="2010-03-28T02:17:59Z" uid="20587" user="balrog-kun" changeset="4250871">
    <nd ref="418624728"/>
    <nd ref="418624715"/>
    <nd ref="418624727"/>
    <nd ref="418624726"/>
    <nd ref="418624729"/>
    <tag k="access" v="private"/>
    <tag k="highway" v="residential"/>
    <tag k="name" v="Dobbs Peak Lane"/>
    <tag k="source" v="survey;image;yahoo_imagry"/>
    <tag k="source_ref" v="AM909_DSCN0768"/>
  </way>
  <way id="35804180" version="2" timestamp="2010-03-28T02:17:59Z" uid="20587" user="balrog-kun" changeset="4250871">
    <nd ref="418624717"/>
    <nd ref="418624726"/>
    <tag k="access" v="private"/>
    <tag k="highway" v="residential"/>
    <tag k="name" v="Cleghorn Court"/>
    <tag k="source" v="survey;image;yahoo_imagry"/>
    <tag k="source_ref" v="AM909_DSCN0768"/>
  </way>
  <way id="35804181" version="2" timestamp="2010-03-28T02:17:59Z" uid="20587" user="balrog-kun" changeset="4250871">
    <nd ref="418624745"/>
    <nd ref="418624674"/>
    <nd ref="418624746"/>
    <nd ref="418624732"/>
    <nd ref="418624733"/>
    <nd ref="418624750"/>
    <tag k="access" v="private"/>
    <tag k="highway" v="residential"/>
    <tag k="name" v="Mount Lewis Lane"/>
    <tag k="source" v="survey;image;yahoo_imagry"/>
    <tag k="source_ref" v="AM909_DSCN0768"/>
  </way>
  <way id="35804185" version="2" timestamp="2010-03-28T02:17:59Z" uid="20587" user="balrog-kun" changeset="4250871">
    <nd ref="418624716"/>
    <nd ref="418624715"/>
    <tag k="access" v="private"/>
    <tag k="highway" v="residential"/>
    <tag k="name" v="Mount Islip Place"/>
    <tag k="source" v="survey;image;yahoo_imagry"/>
    <tag k="source_ref" v="AM909_DSCN0768"/>
  </way>
  <way id="35804186" version="2" timestamp="2010-03-28T02:17:59Z" uid="20587" user="balrog-kun" changeset="4250871">
    <nd ref="418624758"/>
    <nd ref="418624766"/>
    <tag k="access" v="private"/>
    <tag k="highway" v="residential"/>
    <tag k="name" v="Cone Peak Place"/>
    <tag k="source" v="survey;image;yahoo_imagry"/>
    <tag k="source_ref" v="AM909_DSCN0768"/>
  </way>
  <way id="35804187" version="2" timestamp="2010-03-28T02:17:59Z" uid="20587" user="balrog-kun" changeset="4250871">
    <nd ref="418624736"/>
    <nd ref="418624757"/>
    <nd ref="418624764"/>
    <nd ref="418624760"/>
    <tag k="access" v="private"/>
    <tag k="highway" v="residential"/>
    <tag k="name" v="Bald Eagle Drive"/>
    <tag k="source" v="survey;image;yahoo_imagry"/>
    <tag k="source_ref" v="AM909_DSCN0768"/>
  </way>
  <way id="35804188" version="2" timestamp="2010-03-28T02:17:59Z" uid="20587" user="balrog-kun" changeset="4250871">
    <nd ref="418624764"/>
    <nd ref="418624763"/>
    <tag k="access" v="private"/>
    <tag k="highway" v="residential"/>
    <tag k="name" v="Marnie Place"/>
    <tag k="source" v="survey;image;yahoo_imagry"/>
    <tag k="source_ref" v="AM909_DSCN0768"/>
  </way>
  <way id="35804191" version="6" timestamp="2010-03-28T02:17:59Z" uid="20587" user="balrog-kun" changeset="4250871">
    <nd ref="418624791"/>
    <nd ref="418624782"/>
    <tag k="bridge" v="yes"/>
    <tag k="highway" v="motorway"/>
    <tag k="lanes" v="4"/>
    <tag k="layer" v="1"/>
    <tag k="maxspeed" v="105"/>
    <tag k="name" v="Congressman George E. Brown, Jr. Mem. Highway"/>
    <tag k="name_1" v="Foothill Freeway"/>
    <tag k="oneway" v="yes"/>
    <tag k="ref" v="CA 210"/>
    <tag k="source" v="yahoo_imagery;CDOT"/>
  </way>
  <way id="35804191" version="7" timestamp="2010-07-15T01:07:14Z" uid="82317" user="AM909" changeset="5223033">
    <nd ref="418624791"/>
    <nd ref="418624782"/>
    <tag k="bridge" v="yes"/>
    <tag k="highway" v="motorway"/>
    <tag k="lanes" v="4"/>
    <tag k="layer" v="1"/>
    <tag k="maxspeed" v="65 mph"/>
    <tag k="name" v="Congressman George E. Brown, Jr. Mem. Highway"/>
    <tag k="name_1" v="Foothill Freeway"/>
    <tag k="oneway" v="yes"/>
    <tag k="ref" v="CA 210"/>
    <tag k="source" v="yahoo_imagery;CDOT"/>
  </way>
  <way id="35804191" version="8" timestamp="2011-07-29T14:31:02Z" uid="207745" user="NE2" changeset="8863873">
    <nd ref="418624791"/>
    <nd ref="418624782"/>
    <tag k="bridge" v="yes"/>
    <tag k="highway" v="motorway"/>
    <tag k="hov" v="lane"/>
    <tag k="lanes" v="4"/>
    <tag k="layer" v="1"/>
    <tag k="maxspeed" v="65 mph"/>
    <tag k="name" v="Congressman George E. Brown, Jr. Mem. Highway"/>
    <tag k="name_1" v="Foothill Freeway"/>
    <tag k="note:lanes" v="left lane is hov"/>
    <tag k="oneway" v="yes"/>
    <tag k="ref" v="CA 210"/>
    <tag k="source" v="yahoo_imagery;CDOT"/>
  </way>
  <way id="35804191" version="9" timestamp="2011-12-01T02:10:15Z" uid="92286" user="Paul Johnson" changeset="10004810">
    <nd ref="418624791"/>
    <nd ref="418624782"/>
    <tag k="bridge" v="yes"/>
    <tag k="highway" v="motorway"/>
    <tag k="hov" v="lane"/>
    <tag k="lanes" v="4"/>
    <tag k="layer" v="1"/>
    <tag k="maxspeed" v="65 mph"/>
    <tag k="name" v="Congressman George Edward Brown, Junior Mememorial Highway"/>
    <tag k="name_1" v="Foothill Freeway"/>
    <tag k="note:lanes" v="left lane is hov"/>
    <tag k="oneway" v="yes"/>
    <tag k="ref" v="CA 210"/>
    <tag k="source" v="yahoo_imagery;CDOT"/>
  </way>
  <way id="35804193" version="2" timestamp="2010-03-28T02:17:59Z" uid="20587" user="balrog-kun" changeset="4250871">
    <nd ref="418624757"/>
    <nd ref="418624756"/>
    <nd ref="418624759"/>
    <tag k="access" v="private"/>
    <tag k="highway" v="residential"/>
    <tag k="name" v="Morgan Hill Court"/>
    <tag k="source" v="survey;image;yahoo_imagry"/>
    <tag k="source_ref" v="AM909_DSCN0768"/>
  </way>
  <way id="35804198" version="2" timestamp="2010-03-28T02:18:00Z" uid="20587" user="balrog-kun" changeset="4250871">
    <nd ref="418624689"/>
    <nd ref="418624688"/>
    <tag k="access" v="private"/>
    <tag k="highway" v="residential"/>
    <tag k="name" v="Newcomb Court"/>
    <tag k="source" v="survey;image;yahoo_imagry"/>
    <tag k="source_ref" v="AM909_DSCN0768"/>
  </way>
  <way id="35804203" version="2" timestamp="2010-03-28T02:18:00Z" uid="20587" user="balrog-kun" changeset="4250871">
    <nd ref="418624738"/>
    <nd ref="418624740"/>
    <nd ref="418624743"/>
    <tag k="access" v="private"/>
    <tag k="highway" v="residential"/>
    <tag k="name" v="Red Spur Court"/>
    <tag k="source" v="survey;image;yahoo_imagry"/>
    <tag k="source_ref" v="AM909_DSCN0768"/>
  </way>
  <way id="35804204" version="3" timestamp="2010-03-28T02:18:00Z" uid="20587" user="balrog-kun" changeset="4250871">
    <nd ref="418624718"/>
    <nd ref="418624742"/>
    <nd ref="418624719"/>
    <nd ref="418624743"/>
    <tag k="access" v="private"/>
    <tag k="highway" v="residential"/>
    <tag k="name" v="Cole Point Lane"/>
    <tag k="source" v="survey;image;yahoo_imagery"/>
    <tag k="source_ref" v="AM909_DSCN0768"/>
  </way>
  <way id="35804205" version="2" timestamp="2010-03-28T02:18:00Z" uid="20587" user="balrog-kun" changeset="4250871">
    <nd ref="418624760"/>
    <nd ref="418624761"/>
    <tag k="access" v="private"/>
    <tag k="highway" v="residential"/>
    <tag k="name" v="North Peak Lane"/>
    <tag k="source" v="survey;image;yahoo_imagry"/>
    <tag k="source_ref" v="AM909_DSCN0768"/>
  </way>
  <way id="35804207" version="2" timestamp="2010-03-28T02:18:00Z" uid="20587" user="balrog-kun" changeset="4250871">
    <nd ref="418624709"/>
    <nd ref="418624710"/>
    <nd ref="418624713"/>
    <nd ref="418624699"/>
    <nd ref="418624711"/>
    <tag k="access" v="private"/>
    <tag k="highway" v="residential"/>
    <tag k="name" v="Snowy Peak Lane"/>
    <tag k="source" v="survey;image;yahoo_imagry"/>
    <tag k="source_ref" v="AM909_DSCN0768"/>
  </way>
  <way id="35804208" version="2" timestamp="2010-03-28T02:18:00Z" uid="20587" user="balrog-kun" changeset="4250871">
    <nd ref="418624708"/>
    <nd ref="418624712"/>
    <nd ref="418624707"/>
    <tag k="access" v="private"/>
    <tag k="highway" v="residential"/>
    <tag k="name" v="Buck Point Lane"/>
    <tag k="source" v="survey;image;yahoo_imagry"/>
    <tag k="source_ref" v="AM909_DSCN0768"/>
  </way>
  <way id="35804210" version="2" timestamp="2010-03-28T02:18:00Z" uid="20587" user="balrog-kun" changeset="4250871">
    <nd ref="418624766"/>
    <nd ref="418624765"/>
    <nd ref="418624769"/>
    <nd ref="418624767"/>
    <nd ref="418624667"/>
    <nd ref="418624761"/>
    <tag k="access" v="private"/>
    <tag k="highway" v="residential"/>
    <tag k="name" v="Lily Rock Drive"/>
    <tag k="source" v="survey;image;yahoo_imagry"/>
    <tag k="source_ref" v="AM909_DSCN0768"/>
  </way>
  <way id="35804212" version="2" timestamp="2010-03-28T02:18:00Z" uid="20587" user="balrog-kun" changeset="4250871">
    <nd ref="418624751"/>
    <nd ref="418624750"/>
    <tag k="access" v="private"/>
    <tag k="highway" v="residential"/>
    <tag k="name" v="Jepson Court"/>
    <tag k="source" v="survey;image;yahoo_imagry"/>
    <tag k="source_ref" v="AM909_DSCN0768"/>
  </way>
  <way id="35804213" version="2" timestamp="2010-03-28T02:18:00Z" uid="20587" user="balrog-kun" changeset="4250871">
    <nd ref="418624697"/>
    <nd ref="418624696"/>
    <nd ref="418624683"/>
    <nd ref="418624682"/>
    <nd ref="418624685"/>
    <nd ref="418624723"/>
    <nd ref="418624698"/>
    <nd ref="418624684"/>
    <tag k="access" v="private"/>
    <tag k="highway" v="residential"/>
    <tag k="name" v="Rock Point Lane"/>
    <tag k="source" v="survey;image;yahoo_imagry"/>
    <tag k="source_ref" v="AM909_DSCN0768"/>
  </way>
  <way id="35804218" version="2" timestamp="2010-03-28T02:18:01Z" uid="20587" user="balrog-kun" changeset="4250871">
    <nd ref="418624687"/>
    <nd ref="418624688"/>
    <nd ref="418624661"/>
    <nd ref="418624686"/>
    <tag k="access" v="private"/>
    <tag k="highway" v="residential"/>
    <tag k="name" v="Square Top Lane"/>
    <tag k="source" v="survey;image;yahoo_imagry"/>
    <tag k="source_ref" v="AM909_DSCN0768"/>
  </way>
  <way id="35804220" version="2" timestamp="2010-03-28T02:18:01Z" uid="20587" user="balrog-kun" changeset="4250871">
    <nd ref="418624706"/>
    <nd ref="418624686"/>
    <nd ref="418624707"/>
    <tag k="access" v="private"/>
    <tag k="highway" v="residential"/>
    <tag k="name" v="Little Shay Drive"/>
    <tag k="source" v="survey;image;yahoo_imagry"/>
    <tag k="source_ref" v="AM909_DSCN0768"/>
  </way>
  <way id="35804221" version="2" timestamp="2010-03-28T02:18:01Z" uid="20587" user="balrog-kun" changeset="4250871">
    <nd ref="418624692"/>
    <nd ref="418624687"/>
    <nd ref="418624671"/>
    <nd ref="418624695"/>
    <nd ref="418624694"/>
    <nd ref="418624697"/>
    <tag k="access" v="private"/>
    <tag k="highway" v="residential"/>
    <tag k="name" v="Delamar Drive"/>
    <tag k="source" v="survey;image;yahoo_imagry"/>
    <tag k="source_ref" v="AM909_DSCN0768"/>
  </way>
  <way id="35804223" version="3" timestamp="2010-03-28T02:18:01Z" uid="20587" user="balrog-kun" changeset="4250871">
    <nd ref="418624750"/>
    <nd ref="418624730"/>
    <nd ref="418624731"/>
    <nd ref="418624736"/>
    <nd ref="418624737"/>
    <nd ref="418624734"/>
    <nd ref="418624735"/>
    <nd ref="418624766"/>
    <tag k="access" v="private"/>
    <tag k="highway" v="residential"/>
    <tag k="name" v="Brewer Lane"/>
    <tag k="source" v="survey;image;yahoo_imagery"/>
    <tag k="source_ref" v="AM909_DSCN0768"/>
  </way>
  <way id="35804230" version="2" timestamp="2010-03-28T02:18:01Z" uid="20587" user="balrog-kun" changeset="4250871">
    <nd ref="418624919"/>
    <nd ref="418624901"/>
    <nd ref="418624917"/>
    <nd ref="418624924"/>
    <nd ref="418624922"/>
    <nd ref="418624929"/>
    <nd ref="418624927"/>
    <tag k="access" v="private"/>
    <tag k="highway" v="residential"/>
    <tag k="name" v="Sicily Lane"/>
    <tag k="source" v="survey;image;yahoo_imagry"/>
    <tag k="source_ref" v="AM909_DSCN0815"/>
  </way>
  <way id="35804231" version="2" timestamp="2010-03-28T02:18:01Z" uid="20587" user="balrog-kun" changeset="4250871">
    <nd ref="418624943"/>
    <nd ref="418624939"/>
    <tag k="access" v="private"/>
    <tag k="highway" v="residential"/>
    <tag k="name" v="Biella Court"/>
    <tag k="source" v="survey;image;yahoo_imagry"/>
    <tag k="source_ref" v="AM909_DSCN0815"/>
  </way>
  <way id="35804232" version="3" timestamp="2010-03-28T02:18:01Z" uid="20587" user="balrog-kun" changeset="4250871">
    <nd ref="418624627"/>
    <nd ref="418624628"/>
    <nd ref="418624629"/>
    <nd ref="418624639"/>
    <nd ref="418624638"/>
    <nd ref="418624641"/>
    <nd ref="418624814"/>
    <nd ref="418624640"/>
    <nd ref="418624635"/>
    <nd ref="418624634"/>
    <nd ref="418624637"/>
    <nd ref="418624636"/>
    <nd ref="418624647"/>
    <nd ref="418624646"/>
    <nd ref="418624649"/>
    <nd ref="418624648"/>
    <nd ref="418624643"/>
    <nd ref="418624642"/>
    <nd ref="418624645"/>
    <nd ref="418624644"/>
    <nd ref="418624660"/>
    <nd ref="418624672"/>
    <nd ref="418624666"/>
    <nd ref="54495057"/>
    <tag k="highway" v="tertiary"/>
    <tag k="name" v="Knox Avenue"/>
    <tag k="source" v="survey;image;yahoo_imagery"/>
    <tag k="source_ref" v="AM909_DSCN0767;AM909_DSCN0801"/>
  </way>
  <way id="35804232" version="4" timestamp="2011-10-16T19:40:31Z" uid="82317" user="AM909" changeset="9576252">
    <nd ref="418624627"/>
    <nd ref="1469849227"/>
    <nd ref="418624628"/>
    <nd ref="1469849340"/>
    <nd ref="418624629"/>
    <nd ref="418624639"/>
    <nd ref="418624638"/>
    <nd ref="418624641"/>
    <nd ref="418624814"/>
    <nd ref="418624640"/>
    <nd ref="418624635"/>
    <nd ref="1469849597"/>
    <nd ref="418624634"/>
    <nd ref="1469848915"/>
    <nd ref="418624637"/>
    <nd ref="1469849250"/>
    <nd ref="418624636"/>
    <nd ref="1469849541"/>
    <nd ref="418624647"/>
    <nd ref="1469848800"/>
    <nd ref="418624646"/>
    <nd ref="1469849172"/>
    <nd ref="1469849451"/>
    <nd ref="418624649"/>
    <nd ref="1469849056"/>
    <nd ref="418624648"/>
    <nd ref="418624643"/>
    <nd ref="418624642"/>
    <nd ref="418624645"/>
    <nd ref="418624644"/>
    <nd ref="418624660"/>
    <nd ref="418624672"/>
    <nd ref="418624666"/>
    <nd ref="54495057"/>
    <tag k="highway" v="tertiary"/>
    <tag k="name" v="Knox Avenue"/>
    <tag k="source" v="survey;image;yahoo_imagery"/>
    <tag k="source_ref" v="AM909_DSCN0767;AM909_DSCN0801"/>
  </way>
  <way id="35804232" version="5" timestamp="2011-10-19T07:17:03Z" uid="82317" user="AM909" changeset="9597120">
    <nd ref="418624627"/>
    <nd ref="1469849227"/>
    <nd ref="418624628"/>
    <nd ref="1469849340"/>
    <nd ref="418624629"/>
    <nd ref="418624639"/>
    <nd ref="418624638"/>
    <nd ref="418624641"/>
    <nd ref="418624814"/>
    <nd ref="418624640"/>
    <nd ref="1472886407"/>
    <nd ref="418624635"/>
    <nd ref="1469849597"/>
    <nd ref="418624634"/>
    <nd ref="1472888116"/>
    <nd ref="1469848915"/>
    <nd ref="418624637"/>
    <nd ref="1469849250"/>
    <nd ref="418624636"/>
    <nd ref="1469849541"/>
    <nd ref="418624647"/>
    <nd ref="1469848800"/>
    <nd ref="418624646"/>
    <nd ref="1469849172"/>
    <nd ref="1469849451"/>
    <nd ref="418624649"/>
    <nd ref="1469849056"/>
    <nd ref="418624648"/>
    <nd ref="418624643"/>
    <nd ref="418624642"/>
    <nd ref="418624645"/>
    <nd ref="418624644"/>
    <nd ref="418624660"/>
    <nd ref="418624672"/>
    <nd ref="418624666"/>
    <nd ref="54495057"/>
    <tag k="highway" v="tertiary"/>
    <tag k="name" v="Knox Avenue"/>
    <tag k="source" v="survey;image;yahoo_imagery"/>
    <tag k="source_ref" v="AM909_DSCN0767;AM909_DSCN0801"/>
  </way>
  <way id="35804232" version="6" timestamp="2011-10-20T05:17:53Z" uid="82317" user="AM909" changeset="9605350">
    <nd ref="418624627"/>
    <nd ref="1473987547"/>
    <nd ref="1469849227"/>
    <nd ref="418624628"/>
    <nd ref="1469849340"/>
    <nd ref="1473987596"/>
    <nd ref="418624639"/>
    <nd ref="418624638"/>
    <nd ref="418624641"/>
    <nd ref="418624814"/>
    <nd ref="418624640"/>
    <nd ref="1472886407"/>
    <nd ref="418624635"/>
    <nd ref="1469849597"/>
    <nd ref="418624634"/>
    <nd ref="1472888116"/>
    <nd ref="1469848915"/>
    <nd ref="418624637"/>
    <nd ref="1469849250"/>
    <nd ref="418624636"/>
    <nd ref="1469849541"/>
    <nd ref="418624647"/>
    <nd ref="1469848800"/>
    <nd ref="418624646"/>
    <nd ref="1469849172"/>
    <nd ref="1469849451"/>
    <nd ref="418624649"/>
    <nd ref="1469849056"/>
    <nd ref="418624648"/>
    <nd ref="418624643"/>
    <nd ref="418624642"/>
    <nd ref="418624645"/>
    <nd ref="418624644"/>
    <nd ref="418624660"/>
    <nd ref="418624672"/>
    <nd ref="418624666"/>
    <nd ref="54495057"/>
    <tag k="highway" v="tertiary"/>
    <tag k="maxspeed" v="35 mph"/>
    <tag k="name" v="Knox Avenue"/>
    <tag k="source" v="bing_imagery_0.25m_201005;survey;image"/>
    <tag k="source:maxspeed" v="survey;image"/>
    <tag k="source_ref" v="AM909_DSCN0767;AM909_DSCN0801"/>
    <tag k="source_ref:maxspeed" v="AM909_DSCY2406"/>
  </way>
  <way id="35804238" version="4" timestamp="2010-03-28T02:18:01Z" uid="20587" user="balrog-kun" changeset="4250871">
    <nd ref="418624797"/>
    <nd ref="421262374"/>
    <tag k="access" v="no"/>
    <tag k="highway" v="residential"/>
    <tag k="name" v="Casa Grande Avenue"/>
    <tag k="note" v="Length approximate"/>
    <tag k="source" v="survey;image;yahoo_imagry"/>
    <tag k="source_ref" v="AM909_DSCN0800;AM909_DSCN1254"/>
  </way>
  <way id="35804240" version="2" timestamp="2010-03-28T02:18:01Z" uid="20587" user="balrog-kun" changeset="4250871">
    <nd ref="418624910"/>
    <nd ref="418624911"/>
    <tag k="highway" v="residential"/>
    <tag k="name" v="Toscana Lane"/>
    <tag k="source" v="survey;image;yahoo_imagry"/>
    <tag k="source_ref" v="AM909_DSCN0827"/>
  </way>
  <way id="35804240" version="3" timestamp="2011-10-19T07:17:44Z" uid="82317" user="AM909" changeset="9597120">
    <nd ref="1472887701"/>
    <nd ref="1472888036"/>
    <nd ref="418624910"/>
    <tag k="highway" v="residential"/>
    <tag k="name" v="Toscana Lane"/>
    <tag k="oneway" v="yes"/>
    <tag k="source" v="survey;image;yahoo_imagry"/>
    <tag k="source_ref" v="AM909_DSCN0827"/>
  </way>
  <way id="35804242" version="2" timestamp="2010-03-28T02:18:02Z" uid="20587" user="balrog-kun" changeset="4250871">
    <nd ref="418624911"/>
    <nd ref="418624904"/>
    <tag k="access" v="private"/>
    <tag k="highway" v="residential"/>
    <tag k="name" v="Toscana Lane"/>
  </way>
  <way id="35804242" version="3" timestamp="2011-10-19T07:16:39Z" uid="82317" user="AM909" changeset="9597120">
    <nd ref="418624911"/>
    <nd ref="1472888709"/>
    <nd ref="418624904"/>
    <tag k="access" v="private"/>
    <tag k="highway" v="residential"/>
    <tag k="name" v="Toscana Lane"/>
    <tag k="oneway" v="yes"/>
  </way>
  <way id="35804247" version="3" timestamp="2010-03-28T02:18:02Z" uid="20587" user="balrog-kun" changeset="4250871">
    <nd ref="418624804"/>
    <nd ref="418624803"/>
    <tag k="highway" v="residential"/>
    <tag k="name" v="Royal Troon Lane"/>
    <tag k="source" v="survey;image;yahoo_imagery"/>
    <tag k="source_ref" v="AM909_DSCN0791"/>
  </way>
  <way id="35804248" version="3" timestamp="2010-03-28T02:18:02Z" uid="20587" user="balrog-kun" changeset="4250871">
    <nd ref="418624802"/>
    <nd ref="418624801"/>
    <tag k="highway" v="residential"/>
    <tag k="name" v="Oyster Bay Lane"/>
    <tag k="source" v="survey;image;yahoo_imagery"/>
    <tag k="source_ref" v="AM909_DSCN0795"/>
  </way>
  <way id="35804249" version="3" timestamp="2010-03-28T02:18:02Z" uid="20587" user="balrog-kun" changeset="4250871">
    <nd ref="418624800"/>
    <nd ref="418624801"/>
    <tag k="highway" v="residential"/>
    <tag k="name" v="Brookhaven Court"/>
    <tag k="source" v="survey;image;yahoo_imagery"/>
    <tag k="source_ref" v="AM909_DSCN0796"/>
  </way>
  <way id="35804250" version="3" timestamp="2010-03-28T02:18:02Z" uid="20587" user="balrog-kun" changeset="4250871">
    <nd ref="418625547"/>
    <nd ref="418625548"/>
    <nd ref="418625556"/>
    <nd ref="418625542"/>
    <nd ref="418625545"/>
    <tag k="highway" v="residential"/>
    <tag k="name" v="Osprey Court"/>
    <tag k="source" v="survey;image;yahoo_imagry"/>
    <tag k="source_ref" v="AM909_DSCN1026"/>
  </way>
  <way id="35804252" version="2" timestamp="2010-03-28T02:18:02Z" uid="20587" user="balrog-kun" changeset="4250871">
    <nd ref="418624875"/>
    <nd ref="418624893"/>
    <tag k="access" v="private"/>
    <tag k="highway" v="residential"/>
    <tag k="name" v="Vienna Lane"/>
    <tag k="source" v="survey;image;yahoo_imagry"/>
    <tag k="source_ref" v="AM909_DSCN0810"/>
  </way>
  <way id="35804252" version="3" timestamp="2011-10-20T05:17:47Z" uid="82317" user="AM909" changeset="9605350">
    <nd ref="418624893"/>
    <nd ref="1473987531"/>
    <nd ref="418624875"/>
    <nd ref="1473987509"/>
    <nd ref="1473987609"/>
    <tag k="access" v="private"/>
    <tag k="highway" v="residential"/>
    <tag k="name" v="Vienna Lane"/>
    <tag k="source" v="survey;image;yahoo_imagry"/>
    <tag k="source_ref" v="AM909_DSCN0810"/>
  </way>
  <way id="35804255" version="2" timestamp="2010-03-28T02:18:02Z" uid="20587" user="balrog-kun" changeset="4250871">
    <nd ref="418624893"/>
    <nd ref="418624814"/>
    <nd ref="418624815"/>
    <nd ref="418624811"/>
    <nd ref="418624813"/>
    <nd ref="418624871"/>
    <tag k="highway" v="residential"/>
    <tag k="name" v="Vienna Lane"/>
    <tag k="source" v="survey;image;yahoo_imagry"/>
    <tag k="source_ref" v="AM909_DSCN0810"/>
  </way>
  <way id="35804255" version="3" timestamp="2011-10-19T07:17:24Z" uid="82317" user="AM909" changeset="9597120">
    <nd ref="418624893"/>
    <nd ref="1472888887"/>
    <nd ref="418624814"/>
    <nd ref="418624815"/>
    <nd ref="418624811"/>
    <nd ref="418624813"/>
    <nd ref="418624871"/>
    <tag k="highway" v="residential"/>
    <tag k="name" v="Vienna Lane"/>
    <tag k="source" v="survey;image;yahoo_imagry"/>
    <tag k="source_ref" v="AM909_DSCN0810"/>
  </way>
  <way id="35804255" version="4" timestamp="2011-10-20T05:17:29Z" uid="82317" user="AM909" changeset="9605350">
    <nd ref="1473987609"/>
    <nd ref="1473988062"/>
    <nd ref="1473987867"/>
    <nd ref="1473987763"/>
    <nd ref="1473988073"/>
    <nd ref="1473987839"/>
    <nd ref="1473987741"/>
    <nd ref="1473987725"/>
    <nd ref="418624893"/>
    <tag k="highway" v="residential"/>
    <tag k="name" v="Vienna Lane"/>
    <tag k="oneway" v="yes"/>
    <tag k="source" v="GPS;bing_imagery_0.25m_201005;survey;image"/>
    <tag k="source_ref" v="AM909_DSCY2401"/>
  </way>
  <way id="35804256" version="2" timestamp="2010-03-28T02:18:02Z" uid="20587" user="balrog-kun" changeset="4250871">
    <nd ref="418624882"/>
    <nd ref="418624888"/>
    <nd ref="418624897"/>
    <nd ref="418624866"/>
    <nd ref="418624895"/>
    <tag k="access" v="private"/>
    <tag k="highway" v="residential"/>
    <tag k="name" v="Portenza Drive"/>
    <tag k="source" v="survey;image;yahoo_imagry"/>
    <tag k="source_ref" v="AM909_DSCN0815"/>
  </way>
  <way id="35804366" version="6" timestamp="2009-10-14T00:01:31Z" uid="36809" user="pfoten_weg_!_" changeset="2841284">
    <nd ref="305506222"/>
    <nd ref="298072673"/>
    <nd ref="298072674"/>
    <nd ref="420359303"/>
    <nd ref="298072675"/>
    <nd ref="305499179"/>
    <nd ref="298072676"/>
    <nd ref="305499186"/>
    <nd ref="305499187"/>
    <nd ref="305499189"/>
    <nd ref="305499191"/>
    <nd ref="305499192"/>
    <nd ref="305499193"/>
    <nd ref="305499195"/>
    <nd ref="298072677"/>
    <nd ref="305499181"/>
    <nd ref="423464456"/>
    <nd ref="298072678"/>
    <nd ref="298072679"/>
    <nd ref="298072680"/>
    <nd ref="305506269"/>
    <nd ref="418765404"/>
    <nd ref="298072681"/>
    <nd ref="418765405"/>
    <nd ref="298072682"/>
    <nd ref="298072683"/>
    <nd ref="298072684"/>
    <nd ref="305499182"/>
    <nd ref="298072686"/>
    <tag k="highway" v="residential"/>
    <tag k="name" v="Haslachstraße"/>
  </way>
  <way id="35804366" version="7" timestamp="2010-05-16T20:00:10Z" uid="50629" user="reimarh" changeset="4721900">
    <nd ref="305506222"/>
    <nd ref="298072673"/>
    <nd ref="298072674"/>
    <nd ref="420359303"/>
    <nd ref="298072675"/>
    <nd ref="305499179"/>
    <nd ref="298072676"/>
    <nd ref="305499186"/>
    <nd ref="305499187"/>
    <nd ref="305499189"/>
    <nd ref="305499191"/>
    <nd ref="305499192"/>
    <nd ref="305499193"/>
    <nd ref="305499195"/>
    <nd ref="298072677"/>
    <nd ref="305499181"/>
    <nd ref="423464456"/>
    <nd ref="298072678"/>
    <nd ref="298072679"/>
    <nd ref="298072680"/>
    <nd ref="305506269"/>
    <nd ref="418765404"/>
    <nd ref="298072681"/>
    <nd ref="736875060"/>
    <nd ref="736875098"/>
    <nd ref="418765405"/>
    <nd ref="298072682"/>
    <nd ref="736875130"/>
    <nd ref="298072683"/>
    <nd ref="298072684"/>
    <nd ref="736875132"/>
    <nd ref="305499182"/>
    <nd ref="298072686"/>
    <tag k="highway" v="residential"/>
    <tag k="name" v="Haslachstraße"/>
  </way>
  <way id="35804366" version="8" timestamp="2010-05-16T20:14:15Z" uid="50629" user="reimarh" changeset="4722108">
    <nd ref="305506222"/>
    <nd ref="298072673"/>
    <nd ref="298072674"/>
    <nd ref="420359303"/>
    <nd ref="298072675"/>
    <nd ref="305499179"/>
    <nd ref="298072676"/>
    <nd ref="305499186"/>
    <nd ref="305499187"/>
    <nd ref="305499189"/>
    <nd ref="305499191"/>
    <nd ref="305499192"/>
    <nd ref="305499193"/>
    <nd ref="305499195"/>
    <nd ref="298072677"/>
    <nd ref="305499181"/>
    <nd ref="423464456"/>
    <nd ref="298072678"/>
    <nd ref="298072679"/>
    <nd ref="298072680"/>
    <nd ref="305506269"/>
    <nd ref="418765404"/>
    <nd ref="298072681"/>
    <nd ref="736875060"/>
    <nd ref="736875098"/>
    <nd ref="418765405"/>
    <nd ref="298072682"/>
    <nd ref="736875130"/>
    <nd ref="298072683"/>
    <nd ref="298072684"/>
    <nd ref="736875132"/>
    <nd ref="305499182"/>
    <nd ref="736899619"/>
    <nd ref="736899614"/>
    <nd ref="298072686"/>
    <tag k="highway" v="residential"/>
    <tag k="name" v="Haslachstraße"/>
  </way>
  <way id="35804366" version="9" timestamp="2011-08-12T16:19:15Z" uid="238720" user="mimeheispa" changeset="8997494">
    <nd ref="305506222"/>
    <nd ref="298072673"/>
    <nd ref="298072674"/>
    <nd ref="420359303"/>
    <nd ref="298072675"/>
    <nd ref="305499179"/>
    <nd ref="298072676"/>
    <nd ref="305499186"/>
    <nd ref="305499187"/>
    <nd ref="305499189"/>
    <nd ref="305499191"/>
    <nd ref="305499192"/>
    <nd ref="305499193"/>
    <nd ref="298072677"/>
    <nd ref="305499181"/>
    <nd ref="423464456"/>
    <nd ref="298072678"/>
    <nd ref="298072679"/>
    <nd ref="298072680"/>
    <nd ref="305506269"/>
    <nd ref="418765404"/>
    <nd ref="298072681"/>
    <nd ref="736875060"/>
    <nd ref="736875098"/>
    <nd ref="418765405"/>
    <nd ref="298072682"/>
    <nd ref="736875130"/>
    <nd ref="298072683"/>
    <nd ref="298072684"/>
    <nd ref="736875132"/>
    <nd ref="305499182"/>
    <nd ref="736899619"/>
    <nd ref="736899614"/>
    <nd ref="298072686"/>
    <tag k="highway" v="residential"/>
    <tag k="name" v="Haslachstraße"/>
  </way>
  <way id="35804111" version="6" timestamp="2012-04-20T14:49:54Z" uid="602634" user="matx17" changeset="11364321">
    <nd ref="54579432"/>
    <nd ref="1472889138"/>
    <nd ref="1472886474"/>
    <nd ref="1472887218"/>
    <nd ref="1472887691"/>
    <nd ref="1472888033"/>
    <nd ref="1472888571"/>
    <nd ref="1472888747"/>
    <nd ref="1472889085"/>
    <nd ref="1472886418"/>
    <nd ref="1724223082"/>
    <nd ref="54579446"/>
    <nd ref="1724223273"/>
    <nd ref="1472886263"/>
    <nd ref="54579447"/>
    <tag k="highway" v="secondary"/>
    <tag k="name" v="Summit Avenue"/>
    <tag k="oneway" v="yes"/>
    <tag k="source" v="survey;image;yahoo_imagry"/>
    <tag k="source_ref" v="AM909_DSCN0973"/>
    <tag k="tiger:cfcc" v="A63; A41"/>
    <tag k="tiger:county" v="San Bernardino, CA"/>
    <tag k="tiger:name_base" v="East Frontage"/>
    <tag k="tiger:name_type" v="Rd"/>
    <tag k="tiger:separated" v="no"/>
    <tag k="tiger:source" v="tiger_import_dch_v0.6_20070809"/>
    <tag k="tiger:tlid" v="144997793; 145229424:145229440:145229441:145229403"/>
  </way>
  <way id="35804163" version="15" timestamp="2012-08-05T03:55:29Z" uid="587790" user="JaggedMind" changeset="12616328">
    <nd ref="414462500"/>
    <nd ref="513053859"/>
    <tag k="alt_name" v="Foothill Freeway"/>
    <tag k="highway" v="motorway"/>
    <tag k="hov" v="lane"/>
    <tag k="lanes" v="4"/>
    <tag k="maxspeed" v="65 mph"/>
    <tag k="name" v="Congressman George Edward Brown, Junior Memorial Highway"/>
    <tag k="note:lanes" v="left lane is hov"/>
    <tag k="oneway" v="yes"/>
    <tag k="ref" v="CA 210"/>
    <tag k="source" v="yahoo_imagery;CDOT"/>
  </way>
  <way id="35804163" version="16" timestamp="2012-09-01T07:02:49Z" uid="207745" user="NE2" changeset="12939017">
    <nd ref="414462500"/>
    <nd ref="513053859"/>
    <tag k="alt_name" v="Foothill Freeway"/>
    <tag k="bicycle" v="no"/>
    <tag k="highway" v="motorway"/>
    <tag k="hov" v="lane"/>
    <tag k="lanes" v="4"/>
    <tag k="maxspeed" v="65 mph"/>
    <tag k="name" v="Congressman George Edward Brown, Junior Memorial Highway"/>
    <tag k="note:lanes" v="left lane is hov"/>
    <tag k="oneway" v="yes"/>
    <tag k="ref" v="CA 210"/>
    <tag k="source" v="yahoo_imagery;CDOT"/>
  </way>
  <way id="35804165" version="15" timestamp="2012-08-05T03:55:51Z" uid="587790" user="JaggedMind" changeset="12616328">
    <nd ref="299206593"/>
    <nd ref="299206844"/>
    <nd ref="299206595"/>
    <nd ref="539321195"/>
    <tag k="alt_name" v="Foothill Freeway"/>
    <tag k="highway" v="motorway"/>
    <tag k="hov" v="lane"/>
    <tag k="lanes" v="4"/>
    <tag k="maxspeed" v="65 mph"/>
    <tag k="name" v="Congressman George Edward Brown, Junior Memorial Highway"/>
    <tag k="note:lanes" v="left lane is hov"/>
    <tag k="oneway" v="yes"/>
    <tag k="ref" v="CA 210"/>
    <tag k="source" v="yahoo_imagry;CDOT"/>
  </way>
  <way id="35804165" version="16" timestamp="2012-09-01T07:03:11Z" uid="207745" user="NE2" changeset="12939017">
    <nd ref="299206593"/>
    <nd ref="299206844"/>
    <nd ref="299206595"/>
    <nd ref="539321195"/>
    <tag k="alt_name" v="Foothill Freeway"/>
    <tag k="bicycle" v="no"/>
    <tag k="highway" v="motorway"/>
    <tag k="hov" v="lane"/>
    <tag k="lanes" v="4"/>
    <tag k="maxspeed" v="65 mph"/>
    <tag k="name" v="Congressman George Edward Brown, Junior Memorial Highway"/>
    <tag k="note:lanes" v="left lane is hov"/>
    <tag k="oneway" v="yes"/>
    <tag k="ref" v="CA 210"/>
    <tag k="source" v="yahoo_imagry;CDOT"/>
  </way>
  <way id="35804168" version="11" timestamp="2012-08-05T03:55:25Z" uid="587790" user="JaggedMind" changeset="12616328">
    <nd ref="299207427"/>
    <nd ref="418624790"/>
    <tag k="alt_name" v="Foothill Freeway"/>
    <tag k="bridge" v="yes"/>
    <tag k="highway" v="motorway"/>
    <tag k="hov" v="lane"/>
    <tag k="lanes" v="4"/>
    <tag k="layer" v="1"/>
    <tag k="maxspeed" v="65 mph"/>
    <tag k="name" v="Congressman George Edward Brown, Junior Memorial Highway"/>
    <tag k="note:lanes" v="left lane is hov"/>
    <tag k="oneway" v="yes"/>
    <tag k="ref" v="CA 210"/>
    <tag k="source" v="yahoo_imagery;CDOT"/>
  </way>
  <way id="35804168" version="12" timestamp="2012-09-01T07:02:48Z" uid="207745" user="NE2" changeset="12939017">
    <nd ref="299207427"/>
    <nd ref="418624790"/>
    <tag k="alt_name" v="Foothill Freeway"/>
    <tag k="bicycle" v="no"/>
    <tag k="bridge" v="yes"/>
    <tag k="highway" v="motorway"/>
    <tag k="hov" v="lane"/>
    <tag k="lanes" v="4"/>
    <tag k="layer" v="1"/>
    <tag k="maxspeed" v="65 mph"/>
    <tag k="name" v="Congressman George Edward Brown, Junior Memorial Highway"/>
    <tag k="note:lanes" v="left lane is hov"/>
    <tag k="oneway" v="yes"/>
    <tag k="ref" v="CA 210"/>
    <tag k="source" v="yahoo_imagery;CDOT"/>
  </way>
  <way id="35804191" version="10" timestamp="2012-08-05T03:55:35Z" uid="587790" user="JaggedMind" changeset="12616328">
    <nd ref="418624791"/>
    <nd ref="418624782"/>
    <tag k="alt_name" v="Foothill Freeway"/>
    <tag k="bridge" v="yes"/>
    <tag k="highway" v="motorway"/>
    <tag k="hov" v="lane"/>
    <tag k="lanes" v="4"/>
    <tag k="layer" v="1"/>
    <tag k="maxspeed" v="65 mph"/>
    <tag k="name" v="Congressman George Edward Brown, Junior Memorial Highway"/>
    <tag k="note:lanes" v="left lane is hov"/>
    <tag k="oneway" v="yes"/>
    <tag k="ref" v="CA 210"/>
    <tag k="source" v="yahoo_imagery;CDOT"/>
  </way>
  <way id="35804191" version="11" timestamp="2012-09-01T07:02:55Z" uid="207745" user="NE2" changeset="12939017">
    <nd ref="418624791"/>
    <nd ref="418624782"/>
    <tag k="alt_name" v="Foothill Freeway"/>
    <tag k="bicycle" v="no"/>
    <tag k="bridge" v="yes"/>
    <tag k="highway" v="motorway"/>
    <tag k="hov" v="lane"/>
    <tag k="lanes" v="4"/>
    <tag k="layer" v="1"/>
    <tag k="maxspeed" v="65 mph"/>
    <tag k="name" v="Congressman George Edward Brown, Junior Memorial Highway"/>
    <tag k="note:lanes" v="left lane is hov"/>
    <tag k="oneway" v="yes"/>
    <tag k="ref" v="CA 210"/>
    <tag k="source" v="yahoo_imagery;CDOT"/>
  </way>
</osm>
