<?xml version='1.0' encoding='UTF-8'?>
<osm version="0.6" generator="libosmium/2.20.0">
  <way id="35946513" version="3" timestamp="2010-07-09T18:24:45Z" uid="74617" user="JohnSmith" changeset="5175636">
    <nd ref="359698432"/>
    <nd ref="359698522"/>
    <nd ref="359698529"/>
    <nd ref="359698534"/>
    <nd ref="359698539"/>
    <nd ref="359698547"/>
    <nd ref="359698555"/>
    <nd ref="359698566"/>
    <tag k="highway" v="residential"/>
    <tag k="maxspeed" v="50"/>
    <tag k="maxspeed:source" v="default residential speed limit in Australia"/>
    <tag k="name" v="Brendon Way"/>
    <tag k="source:name" v="survey"/>
  </way>
  <way id="35946513" version="4" timestamp="2012-01-18T23:09:33Z" uid="147510" user="woodpeck_fixbot" changeset="10431441">
    <nd ref="359698432"/>
    <nd ref="359698522"/>
    <nd ref="359698529"/>
    <nd ref="359698534"/>
    <nd ref="359698539"/>
    <nd ref="359698547"/>
    <nd ref="359698555"/>
    <nd ref="359698566"/>
    <tag k="highway" v="residential"/>
    <tag k="name" v="Brendon Way"/>
    <tag k="source:name" v="survey"/>
  </way>
  <way id="35946514" version="4" timestamp="2010-07-09T18:17:48Z" uid="74617" user="JohnSmith" changeset="5175636">
    <nd ref="420218770"/>
    <nd ref="420218773"/>
    <nd ref="420218775"/>
    <nd ref="431592465"/>
    <nd ref="420218776"/>
    <nd ref="420218778"/>
    <nd ref="564146898"/>
    <nd ref="420218780"/>
    <tag k="highway" v="residential"/>
    <tag k="maxspeed" v="50"/>
    <tag k="maxspeed:source" v="default residential speed limit in Australia"/>
    <tag k="name" v="Clark Place"/>
    <tag k="source:name" v="photograph"/>
  </way>
  <way id="35946514" version="5" timestamp="2012-01-18T23:09:34Z" uid="147510" user="woodpeck_fixbot" changeset="10431441">
    <nd ref="420218770"/>
    <nd ref="420218773"/>
    <nd ref="420218775"/>
    <nd ref="431592465"/>
    <nd ref="420218776"/>
    <nd ref="420218778"/>
    <nd ref="564146898"/>
    <nd ref="420218780"/>
    <tag k="highway" v="residential"/>
    <tag k="name" v="Clark Place"/>
    <tag k="source:name" v="photograph"/>
  </way>
  <way id="35946515" version="4" timestamp="2010-07-09T18:27:43Z" uid="74617" user="JohnSmith" changeset="5175636">
    <nd ref="693994157"/>
    <nd ref="359709396"/>
    <nd ref="359709419"/>
    <tag k="highway" v="residential"/>
    <tag k="maxspeed" v="50"/>
    <tag k="maxspeed:source" v="default residential speed limit in Australia"/>
    <tag k="name" v="Dwyer Street"/>
    <tag k="source:name" v="survey"/>
  </way>
  <way id="35946515" version="5" timestamp="2012-01-18T23:09:37Z" uid="147510" user="woodpeck_fixbot" changeset="10431441">
    <nd ref="693994157"/>
    <nd ref="359709396"/>
    <nd ref="359709419"/>
    <tag k="highway" v="residential"/>
    <tag k="name" v="Dwyer Street"/>
    <tag k="source:name" v="survey"/>
  </way>
  <way id="35946516" version="3" timestamp="2010-07-09T18:21:56Z" uid="74617" user="JohnSmith" changeset="5175636">
    <nd ref="420218783"/>
    <nd ref="420218785"/>
    <nd ref="420218787"/>
    <nd ref="420218788"/>
    <tag k="highway" v="residential"/>
    <tag k="maxspeed" v="50"/>
    <tag k="maxspeed:source" v="default residential speed limit in Australia"/>
    <tag k="name" v="Mellor Court"/>
    <tag k="source:name" v="survey"/>
  </way>
  <way id="35946516" version="4" timestamp="2012-01-18T23:09:37Z" uid="147510" user="woodpeck_fixbot" changeset="10431441">
    <nd ref="420218783"/>
    <nd ref="420218785"/>
    <nd ref="420218787"/>
    <nd ref="420218788"/>
    <tag k="highway" v="residential"/>
    <tag k="name" v="Mellor Court"/>
    <tag k="source:name" v="survey"/>
  </way>
  <way id="35946517" version="3" timestamp="2010-07-09T18:31:25Z" uid="74617" user="JohnSmith" changeset="5175636">
    <nd ref="359709664"/>
    <nd ref="359709667"/>
    <nd ref="359709670"/>
    <nd ref="359709660"/>
    <nd ref="359709686"/>
    <nd ref="359709674"/>
    <nd ref="359709677"/>
    <nd ref="420218791"/>
    <nd ref="359709681"/>
    <tag k="highway" v="residential"/>
    <tag k="maxspeed" v="50"/>
    <tag k="maxspeed:source" v="default residential speed limit in Australia"/>
    <tag k="name" v="Ambergate Street"/>
    <tag k="source:name" v="survey"/>
  </way>
  <way id="35946517" version="4" timestamp="2012-01-18T23:09:39Z" uid="147510" user="woodpeck_fixbot" changeset="10431441">
    <nd ref="359709664"/>
    <nd ref="359709667"/>
    <nd ref="359709670"/>
    <nd ref="359709660"/>
    <nd ref="359709686"/>
    <nd ref="359709674"/>
    <nd ref="359709677"/>
    <nd ref="420218791"/>
    <nd ref="359709681"/>
    <tag k="highway" v="residential"/>
    <tag k="name" v="Ambergate Street"/>
    <tag k="source:name" v="survey"/>
  </way>
  <way id="35946518" version="3" timestamp="2010-07-09T18:25:33Z" uid="74617" user="JohnSmith" changeset="5175636">
    <nd ref="420218791"/>
    <nd ref="420218793"/>
    <nd ref="420218797"/>
    <nd ref="420218799"/>
    <nd ref="420218801"/>
    <nd ref="420218795"/>
    <nd ref="359709681"/>
    <tag k="highway" v="residential"/>
    <tag k="maxspeed" v="50"/>
    <tag k="maxspeed:source" v="default residential speed limit in Australia"/>
    <tag k="name" v="Tanami Way"/>
    <tag k="source:name" v="survey"/>
  </way>
  <way id="35946518" version="4" timestamp="2012-01-18T23:09:40Z" uid="147510" user="woodpeck_fixbot" changeset="10431441">
    <nd ref="420218791"/>
    <nd ref="420218793"/>
    <nd ref="420218797"/>
    <nd ref="420218799"/>
    <nd ref="420218801"/>
    <nd ref="420218795"/>
    <nd ref="359709681"/>
    <tag k="highway" v="residential"/>
    <tag k="name" v="Tanami Way"/>
    <tag k="source:name" v="survey"/>
  </way>
  <way id="35946520" version="3" timestamp="2010-07-09T18:23:55Z" uid="74617" user="JohnSmith" changeset="5175636">
    <nd ref="359705569"/>
    <nd ref="359705602"/>
    <nd ref="359705573"/>
    <nd ref="359705581"/>
    <nd ref="359705588"/>
    <tag k="highway" v="residential"/>
    <tag k="maxspeed" v="50"/>
    <tag k="maxspeed:source" v="default residential speed limit in Australia"/>
    <tag k="name" v="Wincanton Road"/>
    <tag k="source:name" v="survey"/>
  </way>
  <way id="35946520" version="4" timestamp="2012-01-18T23:09:41Z" uid="147510" user="woodpeck_fixbot" changeset="10431441">
    <nd ref="359705569"/>
    <nd ref="359705602"/>
    <nd ref="359705573"/>
    <nd ref="359705581"/>
    <nd ref="359705588"/>
    <tag k="highway" v="residential"/>
    <tag k="name" v="Wincanton Road"/>
    <tag k="source:name" v="survey"/>
  </way>
  <way id="35946840" version="2" timestamp="2010-03-28T02:18:47Z" uid="20587" user="balrog-kun" changeset="4250871">
    <nd ref="420220409"/>
    <nd ref="420220408"/>
    <tag k="highway" v="tertiary"/>
    <tag k="name" v="Pershing Drive"/>
    <tag k="oneway" v="yes"/>
  </way>
  <way id="35946964" version="2" timestamp="2009-06-17T21:28:59Z" uid="6269" user="Mueck" changeset="1549517">
    <nd ref="420221252"/>
    <nd ref="420221253"/>
    <tag k="access" v="private"/>
    <tag k="created_by" v="Potlatch 0.7"/>
    <tag k="highway" v="service"/>
    <tag k="layer" v="-1"/>
    <tag k="tunnel" v="yes"/>
  </way>
  <way id="35946964" version="3" timestamp="2010-04-12T23:23:37Z" uid="6893" user="[HEK]the_other" changeset="4409886">
    <nd ref="420221252"/>
    <nd ref="420221253"/>
    <tag k="access" v="private"/>
    <tag k="highway" v="service"/>
    <tag k="layer" v="-1"/>
    <tag k="tunnel" v="yes"/>
  </way>
  <way id="35946964" version="4" timestamp="2011-11-03T17:16:20Z" uid="165061" user="keinname" changeset="9731149">
    <nd ref="1490549099"/>
    <nd ref="1490549114"/>
    <tag k="access" v="private"/>
    <tag k="highway" v="service"/>
    <tag k="layer" v="-1"/>
    <tag k="tunnel" v="yes"/>
  </way>
  <way id="35946965" version="2" timestamp="2009-06-22T14:18:08Z" uid="6269" user="Mueck" changeset="1594100">
    <nd ref="420221258"/>
    <nd ref="420221257"/>
    <nd ref="25096003"/>
    <tag k="created_by" v="JOSM"/>
    <tag k="layer" v="-1"/>
    <tag k="name" v="Petergraben"/>
    <tag k="tunnel" v="yes"/>
    <tag k="waterway" v="drain"/>
  </way>
  <way id="35946965" version="3" timestamp="2009-09-29T19:25:03Z" uid="41553" user="tippfeler" changeset="2681406">
    <nd ref="420221258"/>
    <nd ref="420221257"/>
    <nd ref="25096003"/>
    <tag k="layer" v="-2"/>
    <tag k="name" v="Petergraben"/>
    <tag k="tunnel" v="yes"/>
    <tag k="waterway" v="drain"/>
  </way>
  <way id="35946965" version="4" timestamp="2009-11-20T10:05:34Z" uid="27531" user="hirnfred" changeset="3167071">
    <nd ref="420221258"/>
    <nd ref="420221257"/>
    <nd ref="567334340"/>
    <tag k="layer" v="-2"/>
    <tag k="name" v="Petergraben"/>
    <tag k="tunnel" v="yes"/>
    <tag k="waterway" v="drain"/>
  </way>
  <way id="35946965" version="5" timestamp="2010-05-17T13:29:00Z" uid="6269" user="Mueck" changeset="4728792">
    <nd ref="420221258"/>
    <nd ref="420221257"/>
    <nd ref="567334340"/>
    <tag k="layer" v="-2"/>
    <tag k="name" v="Petergraben"/>
    <tag k="tunnel" v="yes"/>
    <tag k="waterway" v="stream"/>
  </way>
  <way id="35946965" version="6" timestamp="2011-11-03T17:16:19Z" uid="165061" user="keinname" changeset="9731149">
    <nd ref="1490549100"/>
    <nd ref="1490549111"/>
    <tag k="layer" v="-2"/>
    <tag k="name" v="Petergraben"/>
    <tag k="tunnel" v="yes"/>
    <tag k="waterway" v="stream"/>
  </way>
  <way id="35946997" version="3" timestamp="2010-03-19T22:04:33Z" uid="9581" user="Lobelt" changeset="4174890">
    <nd ref="316555623"/>
    <nd ref="534331899"/>
    <nd ref="316806785"/>
    <nd ref="669989441"/>
    <nd ref="270321792"/>
    <tag k="highway" v="residential"/>
    <tag k="name" v="Andersenstraße"/>
  </way>
  <way id="35946997" version="4" timestamp="2010-10-10T13:14:59Z" uid="9581" user="Lobelt" changeset="6001924">
    <nd ref="316555623"/>
    <nd ref="534331899"/>
    <nd ref="316806785"/>
    <nd ref="669989441"/>
    <nd ref="270321792"/>
    <tag k="highway" v="residential"/>
    <tag k="maxspeed" v="30"/>
    <tag k="name" v="Andersenstraße"/>
  </way>
  <way id="35946997" version="5" timestamp="2012-03-28T20:17:53Z" uid="110838" user="Bernhard W" changeset="11130920">
    <nd ref="316555623"/>
    <nd ref="534331899"/>
    <nd ref="316806785"/>
    <nd ref="669989441"/>
    <nd ref="270321792"/>
    <tag k="highway" v="residential"/>
    <tag k="maxspeed" v="30"/>
    <tag k="name" v="Andersenstraße"/>
    <tag k="odbl" v="clear"/>
  </way>
  <way id="35946997" version="6" timestamp="2012-03-29T00:13:08Z" uid="110838" user="Bernhard W" changeset="11132529">
    <nd ref="316555623"/>
    <nd ref="534331899"/>
    <nd ref="316806785"/>
    <nd ref="669989441"/>
    <nd ref="270321792"/>
    <tag k="highway" v="residential"/>
    <tag k="maxspeed" v="30"/>
    <tag k="name" v="Andersenstraße"/>
    <tag k="odbl" v="clean"/>
  </way>
  <way id="35946997" version="7" timestamp="2012-03-30T22:29:44Z" uid="110838" user="Bernhard W" changeset="11160827">
    <nd ref="316555623"/>
    <nd ref="534331899"/>
    <nd ref="316806785"/>
    <nd ref="669989441"/>
    <nd ref="270321792"/>
    <tag k="highway" v="residential"/>
    <tag k="maxspeed" v="30"/>
    <tag k="name" v="Andersenstraße"/>
  </way>
  <way id="35946999" version="4" timestamp="2010-03-19T22:04:36Z" uid="9581" user="Lobelt" changeset="4174890">
    <nd ref="420221701"/>
    <nd ref="420221699"/>
    <nd ref="534331898"/>
    <nd ref="316555623"/>
    <tag k="highway" v="residential"/>
    <tag k="surface" v="paved"/>
  </way>
  <way id="35946964" version="5" timestamp="2012-07-20T09:34:55Z" uid="722137" user="OSMF Redaction Account" changeset="12370034">
    <nd ref="1490549099"/>
    <nd ref="1490549114"/>
    <tag k="highway" v="service"/>
    <tag k="layer" v="-1"/>
    <tag k="tunnel" v="yes"/>
  </way>
  <way id="35946965" version="7" timestamp="2012-07-20T09:34:55Z" uid="722137" user="OSMF Redaction Account" changeset="12370034">
    <nd ref="1490549100"/>
    <nd ref="1490549111"/>
    <tag k="layer" v="-2"/>
    <tag k="tunnel" v="yes"/>
    <tag k="waterway" v="drain"/>
  </way>
  <way id="35946997" version="8" timestamp="2012-04-17T13:56:07Z" uid="136321" user="Teddy73" changeset="11332755">
    <nd ref="316555623"/>
    <nd ref="534331899"/>
    <nd ref="316806785"/>
    <nd ref="1720565656"/>
    <nd ref="270321792"/>
    <tag k="highway" v="residential"/>
    <tag k="maxspeed" v="30"/>
    <tag k="name" v="Andersenstraße"/>
  </way>
  <way id="35946997" version="9" timestamp="2012-07-17T02:17:17Z" uid="722137" user="OSMF Redaction Account" changeset="12255273">
    <nd ref="316555623"/>
    <nd ref="534331899"/>
    <nd ref="316806785"/>
    <nd ref="1720565656"/>
    <nd ref="270321792"/>
    <tag k="highway" v="residential"/>
    <tag k="name" v="Andersenstraße"/>
  </way>
  <way id="35946997" version="10" timestamp="2012-08-19T01:00:32Z" uid="680576" user="mushroommapper" changeset="12778759">
    <nd ref="316555623"/>
    <nd ref="534331899"/>
    <nd ref="316806785"/>
    <nd ref="1720565656"/>
    <nd ref="270321792"/>
    <tag k="highway" v="residential"/>
    <tag k="lit" v="yes"/>
    <tag k="name" v="Andersenstraße"/>
  </way>
  <way id="35946999" version="5" timestamp="2012-06-01T03:22:34Z" uid="680576" user="mushroommapper" changeset="11763532">
    <nd ref="420221701"/>
    <nd ref="420221699"/>
    <nd ref="534331898"/>
    <nd ref="316555623"/>
    <tag k="highway" v="residential"/>
    <tag k="lit" v="yes"/>
    <tag k="surface" v="paved"/>
  </way>
</osm>
