<?xml version='1.0' encoding='UTF-8'?>
<osm version="0.6" generator="libosmium/2.20.0">
  <way id="35971325" version="2" timestamp="2009-06-29T16:54:08Z" uid="59758" user="rendle" changeset="1679579">
    <nd ref="420447662"/>
    <nd ref="420447663"/>
    <nd ref="420447664"/>
    <nd ref="420447665"/>
    <nd ref="420447666"/>
    <nd ref="420447667"/>
    <nd ref="420447668"/>
    <nd ref="420447669"/>
    <nd ref="420447670"/>
    <nd ref="420447671"/>
    <nd ref="420447672"/>
    <nd ref="420447673"/>
    <nd ref="420447674"/>
    <nd ref="420447675"/>
    <nd ref="420447676"/>
    <nd ref="420447677"/>
    <nd ref="430836332"/>
    <nd ref="420447678"/>
    <nd ref="420447679"/>
    <nd ref="420447680"/>
    <nd ref="420447681"/>
    <nd ref="420447682"/>
    <tag k="highway" v="road"/>
    <tag k="source" v="Landsat"/>
  </way>
  <way id="35971325" version="3" timestamp="2010-07-28T13:49:35Z" uid="294227" user="Nima Farid" changeset="5338039">
    <nd ref="420447662"/>
    <nd ref="420447663"/>
    <nd ref="420447664"/>
    <nd ref="420447665"/>
    <nd ref="420447666"/>
    <nd ref="420447667"/>
    <nd ref="420447668"/>
    <nd ref="420447669"/>
    <nd ref="420447670"/>
    <nd ref="420447671"/>
    <nd ref="420447672"/>
    <nd ref="420447673"/>
    <nd ref="420447674"/>
    <nd ref="420447675"/>
    <nd ref="420447676"/>
    <nd ref="420447677"/>
    <nd ref="430836332"/>
    <nd ref="420447678"/>
    <nd ref="420447679"/>
    <nd ref="420447680"/>
    <nd ref="420447681"/>
    <nd ref="420447682"/>
    <tag k="highway" v="trunk"/>
    <tag k="ref" v="22"/>
    <tag k="source" v="Landsat"/>
  </way>
  <way id="35971325" version="4" timestamp="2011-07-16T19:11:53Z" uid="17497" user="katpatuka" changeset="8742141">
    <nd ref="420447662"/>
    <nd ref="420447663"/>
    <nd ref="420447664"/>
    <nd ref="420447665"/>
    <nd ref="420447666"/>
    <nd ref="420447667"/>
    <nd ref="1363752385"/>
    <nd ref="420447668"/>
    <nd ref="420447669"/>
    <nd ref="420447670"/>
    <nd ref="420447671"/>
    <nd ref="420447672"/>
    <nd ref="420447673"/>
    <nd ref="420447674"/>
    <nd ref="420447675"/>
    <nd ref="420447676"/>
    <nd ref="420447677"/>
    <nd ref="430836332"/>
    <nd ref="420447678"/>
    <nd ref="420447679"/>
    <nd ref="420447680"/>
    <nd ref="420447681"/>
    <nd ref="420447682"/>
    <tag k="highway" v="trunk"/>
    <tag k="ref" v="22"/>
    <tag k="source" v="Landsat"/>
  </way>
  <way id="35971325" version="5" timestamp="2011-11-30T21:50:09Z" uid="13908" user="kesler" changeset="10003617">
    <nd ref="420447662"/>
    <nd ref="420447663"/>
    <nd ref="420447664"/>
    <nd ref="420447665"/>
    <nd ref="420447666"/>
    <nd ref="420447667"/>
    <nd ref="1525359650"/>
    <tag k="highway" v="trunk"/>
    <tag k="ref" v="22"/>
    <tag k="source" v="Landsat"/>
  </way>
  <way id="35971336" version="2" timestamp="2009-06-29T16:53:07Z" uid="59758" user="rendle" changeset="1679579">
    <nd ref="420447875"/>
    <nd ref="420447876"/>
    <nd ref="420447877"/>
    <nd ref="420447872"/>
    <nd ref="420447887"/>
    <nd ref="420447878"/>
    <nd ref="420447879"/>
    <nd ref="420447880"/>
    <nd ref="420447881"/>
    <nd ref="430835944"/>
    <nd ref="430835945"/>
    <nd ref="430835946"/>
    <tag k="highway" v="road"/>
    <tag k="source" v="Landsat"/>
  </way>
  <way id="35971336" version="3" timestamp="2009-06-29T16:54:10Z" uid="59758" user="rendle" changeset="1679579">
    <nd ref="430836334"/>
    <nd ref="430836332"/>
    <nd ref="430836335"/>
    <nd ref="430836337"/>
    <nd ref="430836338"/>
    <nd ref="430836339"/>
    <nd ref="430836340"/>
    <nd ref="430836341"/>
    <nd ref="430836342"/>
    <nd ref="430836343"/>
    <nd ref="430836345"/>
    <nd ref="430836346"/>
    <nd ref="430836347"/>
    <nd ref="420447875"/>
    <nd ref="420447876"/>
    <nd ref="420447877"/>
    <nd ref="420447872"/>
    <nd ref="420447887"/>
    <nd ref="420447878"/>
    <nd ref="420447879"/>
    <nd ref="420447880"/>
    <nd ref="420447881"/>
    <nd ref="430835944"/>
    <nd ref="430835945"/>
    <nd ref="430835946"/>
    <tag k="highway" v="road"/>
    <tag k="source" v="Landsat"/>
  </way>
  <way id="35971336" version="4" timestamp="2010-04-07T10:34:32Z" uid="18069" user="Claudius Henrichs" changeset="4353404"/>
  <way id="35971539" version="3" timestamp="2010-08-04T17:43:00Z" uid="9581" user="Lobelt" changeset="5401263">
    <nd ref="312486958"/>
    <nd ref="420450407"/>
    <nd ref="717844094"/>
    <nd ref="717844100"/>
    <tag k="cables" v="6"/>
    <tag k="frequency" v="50"/>
    <tag k="name" v="110 kV Grefrath Ost|West"/>
    <tag k="operator" v="RWE"/>
    <tag k="power" v="line"/>
    <tag k="ref" v="0083"/>
    <tag k="source" v="survey"/>
    <tag k="voltage" v="110000"/>
    <tag k="wires" v="single"/>
  </way>
  <way id="35971539" version="4" timestamp="2010-12-06T01:19:10Z" uid="92274" user="adjuva" changeset="6558919">
    <nd ref="312486958"/>
    <nd ref="420450407"/>
    <nd ref="717844094"/>
    <nd ref="1024196096"/>
    <nd ref="1024196079"/>
    <nd ref="717844100"/>
    <nd ref="1024196061"/>
    <nd ref="1024196051"/>
    <nd ref="1024196068"/>
    <nd ref="1024196045"/>
    <nd ref="1024196078"/>
    <nd ref="1024196035"/>
    <nd ref="1024196076"/>
    <nd ref="1024196015"/>
    <nd ref="1024196048"/>
    <nd ref="1024196037"/>
    <nd ref="1024196064"/>
    <nd ref="1024196094"/>
    <nd ref="1024196043"/>
    <nd ref="1024196086"/>
    <nd ref="1024196041"/>
    <nd ref="1024196082"/>
    <nd ref="1024196039"/>
    <nd ref="1024196066"/>
    <nd ref="1024196053"/>
    <tag k="cables" v="6"/>
    <tag k="frequency" v="50"/>
    <tag k="name" v="110 kV Grefrath Ost|West"/>
    <tag k="operator" v="RWE"/>
    <tag k="power" v="line"/>
    <tag k="ref" v="0083"/>
    <tag k="source" v="survey;bing"/>
    <tag k="voltage" v="110000"/>
    <tag k="wires" v="single"/>
  </way>
  <way id="35971539" version="5" timestamp="2011-01-16T05:35:26Z" uid="92274" user="adjuva" changeset="6984320">
    <nd ref="312486958"/>
    <nd ref="420450407"/>
    <nd ref="717844094"/>
    <nd ref="1024196096"/>
    <nd ref="1024196079"/>
    <nd ref="717844100"/>
    <nd ref="1024196061"/>
    <nd ref="1024196051"/>
    <nd ref="1024196068"/>
    <nd ref="1024196045"/>
    <nd ref="1024196078"/>
    <nd ref="1024196035"/>
    <nd ref="1024196076"/>
    <nd ref="1024196015"/>
    <nd ref="1024196048"/>
    <nd ref="1024196037"/>
    <nd ref="1024196064"/>
    <nd ref="1024196094"/>
    <nd ref="1024196043"/>
    <nd ref="1024196086"/>
    <nd ref="1024196041"/>
    <nd ref="1024196082"/>
    <nd ref="1024196039"/>
    <nd ref="1024196066"/>
    <nd ref="1105781291"/>
    <nd ref="1024196053"/>
    <tag k="cables" v="6"/>
    <tag k="frequency" v="50"/>
    <tag k="name" v="110 kV Grefrath Ost|West"/>
    <tag k="operator" v="RWE"/>
    <tag k="power" v="line"/>
    <tag k="ref" v="0083"/>
    <tag k="source" v="survey;bing"/>
    <tag k="voltage" v="110000"/>
    <tag k="wires" v="single"/>
  </way>
  <way id="35971543" version="2" timestamp="2010-01-18T06:37:58Z" uid="7617" user="Franc" changeset="3647994">
    <nd ref="420450428"/>
    <nd ref="616087099"/>
    <nd ref="420450432"/>
    <nd ref="420450433"/>
    <nd ref="420450429"/>
    <tag k="highway" v="residential"/>
    <tag k="name" v="Broughton Street"/>
    <tag k="source" v="gps"/>
  </way>
  <way id="35971544" version="2" timestamp="2010-01-18T06:37:58Z" uid="7617" user="Franc" changeset="3647994">
    <nd ref="420450430"/>
    <nd ref="420450431"/>
    <nd ref="616087081"/>
    <nd ref="420450432"/>
    <tag k="highway" v="residential"/>
    <tag k="name" v="Tyson Road"/>
    <tag k="source" v="gps"/>
  </way>
  <way id="35971545" version="2" timestamp="2010-01-18T06:37:59Z" uid="7617" user="Franc" changeset="3647994">
    <nd ref="420450433"/>
    <nd ref="420450434"/>
    <nd ref="420450446"/>
    <nd ref="420450436"/>
    <nd ref="616087087"/>
    <nd ref="420450438"/>
    <nd ref="616087083"/>
    <nd ref="420450435"/>
    <tag k="highway" v="residential"/>
    <tag k="name" v="Campsie street"/>
    <tag k="source" v="gps"/>
  </way>
  <way id="35971546" version="2" timestamp="2009-08-10T09:30:19Z" uid="7617" user="Franc" changeset="2095102">
    <nd ref="420450436"/>
    <nd ref="420450448"/>
    <nd ref="420450442"/>
    <nd ref="420450444"/>
    <nd ref="460386038"/>
    <nd ref="420450437"/>
    <tag k="highway" v="residential"/>
    <tag k="name" v="Camden Street"/>
    <tag k="source" v="gps"/>
  </way>
  <way id="35971546" version="3" timestamp="2010-01-18T06:37:59Z" uid="7617" user="Franc" changeset="3647994">
    <nd ref="420450442"/>
    <nd ref="420450448"/>
    <nd ref="420450436"/>
    <tag k="highway" v="residential"/>
    <tag k="name" v="Camden Street"/>
    <tag k="oneway" v="yes"/>
    <tag k="source" v="gps"/>
  </way>
  <way id="35971548" version="2" timestamp="2010-01-18T06:37:59Z" uid="7617" user="Franc" changeset="3647994">
    <nd ref="420450441"/>
    <nd ref="420450451"/>
    <nd ref="616087058"/>
    <nd ref="420450442"/>
    <tag k="highway" v="residential"/>
    <tag k="name" v="Wilton Street"/>
    <tag k="source" v="gps"/>
  </way>
  <way id="35971549" version="2" timestamp="2010-01-18T06:37:59Z" uid="7617" user="Franc" changeset="3647994">
    <nd ref="420450443"/>
    <nd ref="616087056"/>
    <nd ref="420450444"/>
    <nd ref="420450439"/>
    <nd ref="420450445"/>
    <tag k="highway" v="residential"/>
    <tag k="name" v="Wonson Street"/>
    <tag k="source" v="gps"/>
  </way>
  <way id="35971551" version="2" timestamp="2009-08-10T09:30:20Z" uid="7617" user="Franc" changeset="2095102">
    <nd ref="420450435"/>
    <nd ref="420450441"/>
    <nd ref="420450445"/>
    <nd ref="460386034"/>
    <nd ref="420450440"/>
    <tag k="highway" v="residential"/>
    <tag k="name" v="Peel street"/>
    <tag k="source" v="gps"/>
  </way>
  <way id="35971551" version="3" timestamp="2010-01-18T06:37:59Z" uid="7617" user="Franc" changeset="3647994">
    <nd ref="420450435"/>
    <nd ref="616087085"/>
    <nd ref="420450441"/>
    <nd ref="420450445"/>
    <nd ref="460386034"/>
    <nd ref="420450440"/>
    <tag k="highway" v="residential"/>
    <tag k="name" v="Peel street"/>
    <tag k="source" v="gps"/>
  </way>
  <way id="35971927" version="2" timestamp="2010-03-28T02:18:52Z" uid="20587" user="balrog-kun" changeset="4250871">
    <nd ref="420453624"/>
    <nd ref="57819507"/>
    <tag k="created_by" v="Potlatch 0.10f"/>
    <tag k="highway" v="tertiary"/>
    <tag k="name" v="North Parkside Drive"/>
    <tag k="tiger:cfcc" v="A41"/>
    <tag k="tiger:county" v="Contra Costa, CA"/>
    <tag k="tiger:name_base" v="Parkside"/>
    <tag k="tiger:name_direction_prefix" v="N"/>
    <tag k="tiger:name_type" v="Dr"/>
    <tag k="tiger:reviewed" v="no"/>
    <tag k="tiger:separated" v="no"/>
    <tag k="tiger:source" v="tiger_import_dch_v0.6_20070809"/>
    <tag k="tiger:tlid" v="192060108:192101112:192109435:192109436:192060434:192060440:192060657:192060661:192060665:192060683:192060442:192060687:192035479"/>
    <tag k="tiger:zip_left" v="94565"/>
    <tag k="tiger:zip_right" v="94565"/>
  </way>
  <way id="35971928" version="3" timestamp="2010-03-28T02:18:52Z" uid="20587" user="balrog-kun" changeset="4250871">
    <nd ref="420453625"/>
    <nd ref="420453624"/>
    <tag k="bridge" v="yes"/>
    <tag k="created_by" v="Potlatch 0.10f"/>
    <tag k="highway" v="tertiary"/>
    <tag k="layer" v="1"/>
    <tag k="name" v="North Parkside Drive"/>
    <tag k="tiger:cfcc" v="A41"/>
    <tag k="tiger:county" v="Contra Costa, CA"/>
    <tag k="tiger:name_base" v="Parkside"/>
    <tag k="tiger:name_direction_prefix" v="N"/>
    <tag k="tiger:name_type" v="Dr"/>
    <tag k="tiger:reviewed" v="no"/>
    <tag k="tiger:separated" v="no"/>
    <tag k="tiger:source" v="tiger_import_dch_v0.6_20070809"/>
    <tag k="tiger:tlid" v="192060108:192101112:192109435:192109436:192060434:192060440:192060657:192060661:192060665:192060683:192060442:192060687:192035479"/>
    <tag k="tiger:zip_left" v="94565"/>
    <tag k="tiger:zip_right" v="94565"/>
  </way>
  <way id="35971543" version="3" timestamp="2012-07-21T18:14:56Z" uid="722137" user="OSMF Redaction Account" changeset="12416939">
    <nd ref="420450428"/>
    <nd ref="420450432"/>
    <nd ref="420450433"/>
    <nd ref="420450429"/>
    <tag k="highway" v="residential"/>
    <tag k="name" v="Broughton Street"/>
    <tag k="source" v="gps"/>
  </way>
  <way id="35971544" version="3" timestamp="2012-07-21T18:14:57Z" uid="722137" user="OSMF Redaction Account" changeset="12416939">
    <nd ref="420450430"/>
    <nd ref="420450431"/>
    <nd ref="420450432"/>
    <tag k="highway" v="residential"/>
    <tag k="name" v="Tyson Road"/>
    <tag k="source" v="gps"/>
  </way>
  <way id="35971545" version="3" timestamp="2012-07-21T18:14:57Z" uid="722137" user="OSMF Redaction Account" changeset="12416939">
    <nd ref="420450433"/>
    <nd ref="420450434"/>
    <nd ref="420450446"/>
    <nd ref="420450436"/>
    <nd ref="420450438"/>
    <nd ref="420450435"/>
    <tag k="highway" v="residential"/>
    <tag k="name" v="Campsie street"/>
    <tag k="source" v="gps"/>
  </way>
  <way id="35971546" version="4" timestamp="2012-07-21T18:15:00Z" uid="722137" user="OSMF Redaction Account" changeset="12416939">
    <nd ref="420450436"/>
    <nd ref="420450448"/>
    <nd ref="420450442"/>
    <tag k="highway" v="residential"/>
    <tag k="name" v="Camden Street"/>
    <tag k="source" v="gps"/>
  </way>
  <way id="35971548" version="3" timestamp="2012-07-21T18:14:58Z" uid="722137" user="OSMF Redaction Account" changeset="12416939">
    <nd ref="420450441"/>
    <nd ref="420450451"/>
    <nd ref="420450442"/>
    <tag k="highway" v="residential"/>
    <tag k="name" v="Wilton Street"/>
    <tag k="source" v="gps"/>
  </way>
  <way id="35971549" version="3" timestamp="2012-07-21T18:14:59Z" uid="722137" user="OSMF Redaction Account" changeset="12416939">
    <nd ref="420450443"/>
    <nd ref="420450444"/>
    <nd ref="420450439"/>
    <nd ref="420450445"/>
    <tag k="highway" v="residential"/>
    <tag k="name" v="Wonson Street"/>
    <tag k="source" v="gps"/>
  </way>
  <way id="35971551" version="4" timestamp="2012-07-21T18:14:57Z" uid="722137" user="OSMF Redaction Account" changeset="12416939">
    <nd ref="420450435"/>
    <nd ref="420450441"/>
    <nd ref="420450445"/>
    <nd ref="420450440"/>
    <tag k="highway" v="residential"/>
    <tag k="name" v="Peel street"/>
    <tag k="source" v="gps"/>
  </way>
</osm>
