<?xml version='1.0' encoding='UTF-8'?>
<osm version="0.6" generator="libosmium/2.20.0">
  <way id="35987340" version="2" timestamp="2010-04-23T06:03:12Z" uid="4467" user="Rosscoe" changeset="4500761">
    <nd ref="267608391"/>
    <nd ref="420615818"/>
    <tag k="highway" v="residential"/>
    <tag k="name" v="Hertford Place"/>
  </way>
  <way id="35987340" version="3" timestamp="2010-07-09T18:20:20Z" uid="74617" user="JohnSmith" changeset="5175333">
    <nd ref="267608391"/>
    <nd ref="420615818"/>
    <tag k="highway" v="residential"/>
    <tag k="maxspeed" v="50"/>
    <tag k="maxspeed:source" v="default residential speed limit in Australia"/>
    <tag k="name" v="Hertford Place"/>
  </way>
  <way id="35987340" version="4" timestamp="2012-01-18T23:13:31Z" uid="147510" user="woodpeck_fixbot" changeset="10431441">
    <nd ref="267608391"/>
    <nd ref="420615818"/>
    <tag k="highway" v="residential"/>
    <tag k="name" v="Hertford Place"/>
  </way>
  <way id="35987656" version="2" timestamp="2011-04-28T18:41:05Z" uid="43967" user="railsnail" changeset="7997352">
    <nd ref="420617613"/>
    <nd ref="420617614"/>
    <nd ref="420617615"/>
    <nd ref="420617616"/>
    <nd ref="420617613"/>
    <tag k="building" v="yes"/>
    <tag k="height" v="2 m"/>
    <tag k="it:fvg:ctrn:code" v="4AED"/>
    <tag k="it:fvg:ctrn:revision" v="000"/>
    <tag k="name" v="Malga DÃ¡uda"/>
  </way>
  <way id="35987656" version="3" timestamp="2012-07-17T03:32:56Z" uid="722137" user="OSMF Redaction Account" changeset="12256189">
    <nd ref="420617613"/>
    <nd ref="420617614"/>
    <nd ref="420617615"/>
    <nd ref="420617616"/>
    <nd ref="420617613"/>
    <tag k="building" v="yes"/>
    <tag k="height" v="2 m"/>
    <tag k="it:fvg:ctrn:code" v="4AED"/>
    <tag k="it:fvg:ctrn:revision" v="000"/>
  </way>
</osm>
