<?xml version='1.0' encoding='UTF-8'?>
<osm version="0.6" generator="libosmium/2.20.0">
  <way id="35982013" version="1" timestamp="2009-06-15T12:14:45Z" uid="74617" user="JohnSmith" changeset="1524425">
    <nd ref="420563237"/>
    <nd ref="420563243"/>
    <nd ref="420563238"/>
    <nd ref="420563239"/>
    <nd ref="420563240"/>
    <nd ref="420563241"/>
    <nd ref="420563242"/>
    <nd ref="420563237"/>
    <tag k="landuse" v="residential"/>
    <tag k="name" v="Pittsworth Township"/>
    <tag k="source" v="yahoo"/>
  </way>
  <way id="35982013" version="2" timestamp="2009-07-29T11:28:34Z" uid="4467" user="Rosscoe" changeset="1974740">
    <nd ref="420563237"/>
    <nd ref="450635408"/>
    <nd ref="450635409"/>
    <nd ref="420563243"/>
    <nd ref="420563238"/>
    <nd ref="420563239"/>
    <nd ref="420563240"/>
    <nd ref="420563241"/>
    <nd ref="450635410"/>
    <nd ref="420563242"/>
    <nd ref="450635411"/>
    <nd ref="420563237"/>
    <tag k="landuse" v="residential"/>
    <tag k="name" v="Pittsworth Township"/>
    <tag k="source" v="yahoo"/>
  </way>
  <way id="35982013" version="3" timestamp="2009-07-29T11:29:07Z" uid="4467" user="Rosscoe" changeset="1974740">
    <nd ref="420563237"/>
    <nd ref="450635408"/>
    <nd ref="450635409"/>
    <nd ref="450635816"/>
    <nd ref="420563243"/>
    <nd ref="420563238"/>
    <nd ref="420563239"/>
    <nd ref="420563240"/>
    <nd ref="420563241"/>
    <nd ref="450635410"/>
    <nd ref="420563242"/>
    <nd ref="450635411"/>
    <nd ref="420563237"/>
    <tag k="landuse" v="residential"/>
    <tag k="name" v="Pittsworth"/>
    <tag k="source" v="yahoo"/>
  </way>
  <way id="35982013" version="4" timestamp="2009-09-21T01:25:17Z" uid="30201" user="rrankin" changeset="2553085">
    <nd ref="420563237"/>
    <nd ref="503799483"/>
    <nd ref="503799479"/>
    <nd ref="450635408"/>
    <nd ref="450635409"/>
    <nd ref="450635816"/>
    <nd ref="420563243"/>
    <nd ref="420563238"/>
    <nd ref="420563239"/>
    <nd ref="420563240"/>
    <nd ref="503799472"/>
    <nd ref="420563241"/>
    <nd ref="450635410"/>
    <nd ref="420563242"/>
    <nd ref="450635411"/>
    <nd ref="503799480"/>
    <nd ref="503799481"/>
    <nd ref="503799482"/>
    <nd ref="420563237"/>
    <tag k="landuse" v="residential"/>
    <tag k="name" v="Pittsworth"/>
    <tag k="source" v="yahoo"/>
  </way>
  <way id="35982103" version="3" timestamp="2010-05-21T15:58:57Z" uid="256927" user="Timo Müller" changeset="4767287">
    <nd ref="420564583"/>
    <nd ref="420564585"/>
    <nd ref="420564587"/>
    <nd ref="420564599"/>
    <nd ref="420564583"/>
    <tag k="addr:city" v="Heidelberg"/>
    <tag k="addr:country" v="DE"/>
    <tag k="addr:housenumber" v="48"/>
    <tag k="addr:street" v="Bergheimer Straße"/>
    <tag k="amenity" v="university"/>
    <tag k="building" v="yes"/>
  </way>
  <way id="35982104" version="2" timestamp="2010-05-21T15:58:56Z" uid="256927" user="Timo Müller" changeset="4767287">
    <nd ref="420564595"/>
    <nd ref="420564593"/>
    <nd ref="420564592"/>
    <nd ref="420564606"/>
    <nd ref="420564607"/>
    <nd ref="420564608"/>
    <nd ref="420564595"/>
    <tag k="addr:city" v="Heidelberg"/>
    <tag k="addr:housenumber" v="2"/>
    <tag k="addr:street" v="Gartenstraße"/>
    <tag k="amenity" v="university"/>
    <tag k="building" v="yes"/>
    <tag k="name" v="Psychotherapeutische Beratungsstelle des Studentenwerks"/>
  </way>
  <way id="35982104" version="3" timestamp="2011-12-07T11:51:30Z" uid="426119" user="Fürst Oslek" changeset="10057126">
    <nd ref="420564595"/>
    <nd ref="420564593"/>
    <nd ref="420564592"/>
    <nd ref="420564606"/>
    <nd ref="420564607"/>
    <nd ref="420564608"/>
    <nd ref="420564595"/>
    <tag k="addr:city" v="Heidelberg"/>
    <tag k="addr:housenumber" v="2"/>
    <tag k="addr:street" v="Gartenstraße"/>
    <tag k="amenity" v="university"/>
    <tag k="building" v="yes"/>
    <tag k="building:roof" v="crosspitched"/>
    <tag k="name" v="Psychotherapeutische Beratungsstelle des Studentenwerks"/>
  </way>
  <way id="35982104" version="4" timestamp="2012-03-15T21:02:51Z" uid="136321" user="Teddy73" changeset="10992640"/>
  <way id="35982106" version="3" timestamp="2010-05-21T15:58:58Z" uid="256927" user="Timo Müller" changeset="4767287">
    <nd ref="420564572"/>
    <nd ref="420564590"/>
    <nd ref="420564587"/>
    <nd ref="420564585"/>
    <nd ref="420564572"/>
    <tag k="addr:city" v="Heidelberg"/>
    <tag k="addr:country" v="DE"/>
    <tag k="addr:housenumber" v="50"/>
    <tag k="addr:street" v="Bergheimer Straße"/>
    <tag k="amenity" v="university"/>
    <tag k="building" v="yes"/>
  </way>
  <way id="35982111" version="2" timestamp="2010-05-21T15:58:58Z" uid="256927" user="Timo Müller" changeset="4767287"/>
  <way id="35982112" version="4" timestamp="2010-05-21T15:58:51Z" uid="256927" user="Timo Müller" changeset="4767287">
    <nd ref="420564707"/>
    <nd ref="420564759"/>
    <nd ref="420564709"/>
    <nd ref="420564721"/>
    <nd ref="420564766"/>
    <nd ref="420564712"/>
    <nd ref="420564715"/>
    <nd ref="571122203"/>
    <nd ref="420564746"/>
    <nd ref="420564716"/>
    <nd ref="742682582"/>
    <tag k="access" v="private"/>
    <tag k="highway" v="service"/>
  </way>
  <way id="35982112" version="5" timestamp="2012-03-15T21:02:52Z" uid="136321" user="Teddy73" changeset="10992640"/>
  <way id="35982121" version="5" timestamp="2010-05-21T15:58:51Z" uid="256927" user="Timo Müller" changeset="4767287">
    <nd ref="420564768"/>
    <nd ref="420564769"/>
    <nd ref="420564770"/>
    <nd ref="420564771"/>
    <nd ref="420564772"/>
    <nd ref="420564773"/>
    <nd ref="420564774"/>
    <nd ref="420564775"/>
    <nd ref="420564776"/>
    <nd ref="420564777"/>
    <nd ref="420564778"/>
    <nd ref="420564779"/>
    <nd ref="420564780"/>
    <nd ref="420564781"/>
    <nd ref="420564782"/>
    <nd ref="420564783"/>
    <nd ref="742682601"/>
    <nd ref="420564768"/>
    <tag k="addr:city" v="Heidelberg"/>
    <tag k="addr:housenumber" v="11"/>
    <tag k="addr:street" v="Voßstraße"/>
    <tag k="amenity" v="university"/>
    <tag k="building" v="yes"/>
    <tag k="name" v="Betriebsärztlicher Dienst"/>
  </way>
  <way id="35982121" version="6" timestamp="2011-12-07T11:51:28Z" uid="426119" user="Fürst Oslek" changeset="10057126">
    <nd ref="420564768"/>
    <nd ref="420564769"/>
    <nd ref="420564770"/>
    <nd ref="420564771"/>
    <nd ref="420564772"/>
    <nd ref="420564773"/>
    <nd ref="420564774"/>
    <nd ref="420564775"/>
    <nd ref="420564776"/>
    <nd ref="420564777"/>
    <nd ref="420564778"/>
    <nd ref="420564779"/>
    <nd ref="420564780"/>
    <nd ref="420564781"/>
    <nd ref="420564782"/>
    <nd ref="420564783"/>
    <nd ref="742682601"/>
    <nd ref="420564768"/>
    <tag k="addr:city" v="Heidelberg"/>
    <tag k="addr:housenumber" v="11"/>
    <tag k="addr:street" v="Voßstraße"/>
    <tag k="amenity" v="university"/>
    <tag k="building" v="yes"/>
    <tag k="building:roof" v="flat"/>
    <tag k="name" v="Betriebsärztlicher Dienst"/>
  </way>
  <way id="35982121" version="7" timestamp="2012-03-15T21:02:51Z" uid="136321" user="Teddy73" changeset="10992640"/>
  <way id="35982013" version="5" timestamp="2012-07-19T15:12:51Z" uid="722137" user="OSMF Redaction Account" changeset="12333691"/>
  <way id="35982103" version="4" timestamp="2012-07-17T05:24:57Z" uid="722137" user="OSMF Redaction Account" changeset="12257655">
    <nd ref="420564583"/>
    <nd ref="420564585"/>
    <nd ref="420564587"/>
    <nd ref="420564599"/>
    <nd ref="420564583"/>
    <tag k="addr:city" v="Heidelberg"/>
    <tag k="addr:housenumber" v="48"/>
    <tag k="addr:street" v="Bergheimer Straße"/>
    <tag k="amenity" v="university"/>
    <tag k="building" v="yes"/>
  </way>
  <way id="35982106" version="4" timestamp="2012-07-17T05:24:56Z" uid="722137" user="OSMF Redaction Account" changeset="12257655">
    <nd ref="420564572"/>
    <nd ref="420564590"/>
    <nd ref="420564587"/>
    <nd ref="420564585"/>
    <nd ref="420564572"/>
    <tag k="addr:city" v="Heidelberg"/>
    <tag k="addr:housenumber" v="Bergheimer Straße 50"/>
    <tag k="amenity" v="university"/>
    <tag k="building" v="yes"/>
  </way>
</osm>
