<?xml version='1.0' encoding='UTF-8'?>
<osm version="0.6" generator="libosmium/2.20.0">
  <way id="36034915" version="3" timestamp="2010-04-03T13:49:54Z" uid="20587" user="balrog-kun" changeset="4312927">
    <nd ref="83667293"/>
    <nd ref="83667295"/>
    <nd ref="83667297"/>
    <nd ref="83667299"/>
    <tag k="highway" v="residential"/>
    <tag k="name" v="South 1800 East"/>
    <tag k="name_1" v="South 1800 East"/>
    <tag k="name_2" v="South 18th East Street"/>
    <tag k="tiger:cfcc" v="A41"/>
    <tag k="tiger:county" v="Salt Lake, UT"/>
    <tag k="tiger:name_base" v="1800"/>
    <tag k="tiger:name_base_1" v="1800 East"/>
    <tag k="tiger:name_base_2" v="18th East"/>
    <tag k="tiger:name_direction_prefix" v="S"/>
    <tag k="tiger:name_direction_prefix_1" v="S"/>
    <tag k="tiger:name_direction_prefix_2" v="S"/>
    <tag k="tiger:name_direction_suffix" v="E"/>
    <tag k="tiger:name_type_2" v="St"/>
    <tag k="tiger:reviewed" v="no"/>
    <tag k="tiger:separated" v="no"/>
    <tag k="tiger:source" v="tiger_import_dch_v0.6_20070830"/>
    <tag k="tiger:tlid" v="176081928"/>
  </way>
  <way id="36034915" version="4" timestamp="2010-08-05T07:51:27Z" uid="321736" user="Kevin Atkinson" changeset="5405091">
    <nd ref="83667293"/>
    <nd ref="83667295"/>
    <nd ref="83667297"/>
    <nd ref="83667299"/>
    <tag k="highway" v="residential"/>
    <tag k="loc_name" v="18th East"/>
    <tag k="name" v="1800 East"/>
    <tag k="name:full" v="South 1800 East"/>
    <tag k="name:prefix" v="S"/>
    <tag k="tiger:cfcc" v="A41"/>
    <tag k="tiger:county" v="Salt Lake, UT"/>
    <tag k="tiger:name_base" v="1800"/>
    <tag k="tiger:name_base_1" v="1800 East"/>
    <tag k="tiger:name_base_2" v="18th East"/>
    <tag k="tiger:name_direction_prefix" v="S"/>
    <tag k="tiger:name_direction_prefix_1" v="S"/>
    <tag k="tiger:name_direction_prefix_2" v="S"/>
    <tag k="tiger:name_direction_suffix" v="E"/>
    <tag k="tiger:name_type_2" v="St"/>
    <tag k="tiger:reviewed" v="no"/>
    <tag k="tiger:separated" v="no"/>
    <tag k="tiger:source" v="tiger_import_dch_v0.6_20070830"/>
    <tag k="tiger:tlid" v="176081928"/>
  </way>
  <way id="36034915" version="5" timestamp="2012-07-23T18:36:58Z" uid="8909" user="mvexel" changeset="12454803">
    <nd ref="83667293"/>
    <nd ref="1835641666"/>
    <nd ref="83667295"/>
    <nd ref="83667297"/>
    <nd ref="83667299"/>
    <tag k="highway" v="residential"/>
    <tag k="loc_name" v="18th East"/>
    <tag k="name" v="1800 East"/>
    <tag k="name:full" v="South 1800 East"/>
    <tag k="name:prefix" v="S"/>
    <tag k="tiger:cfcc" v="A41"/>
    <tag k="tiger:county" v="Salt Lake, UT"/>
    <tag k="tiger:name_base" v="1800"/>
    <tag k="tiger:name_base_1" v="1800 East"/>
    <tag k="tiger:name_base_2" v="18th East"/>
    <tag k="tiger:name_direction_prefix" v="S"/>
    <tag k="tiger:name_direction_prefix_1" v="S"/>
    <tag k="tiger:name_direction_prefix_2" v="S"/>
    <tag k="tiger:name_direction_suffix" v="E"/>
    <tag k="tiger:name_type_2" v="St"/>
    <tag k="tiger:reviewed" v="no"/>
    <tag k="tiger:separated" v="no"/>
    <tag k="tiger:source" v="tiger_import_dch_v0.6_20070830"/>
    <tag k="tiger:tlid" v="176081928"/>
  </way>
</osm>
