<?xml version='1.0' encoding='UTF-8'?>
<osm version="0.6" generator="libosmium/2.20.0">
  <way id="36105868" version="4" timestamp="2010-07-09T07:49:17Z" uid="74617" user="JohnSmith" changeset="5171569">
    <nd ref="315197617"/>
    <nd ref="421708796"/>
    <nd ref="421708799"/>
    <nd ref="421708804"/>
    <nd ref="421708805"/>
    <nd ref="421708806"/>
    <nd ref="421708807"/>
    <nd ref="421708808"/>
    <nd ref="421708809"/>
    <nd ref="421708811"/>
    <nd ref="315197616"/>
    <tag k="highway" v="residential"/>
    <tag k="maxspeed" v="50"/>
    <tag k="maxspeed:source" v="default residential speed limit in Australia"/>
    <tag k="name" v="Cutter Crescent"/>
    <tag k="source" v="survey"/>
  </way>
  <way id="36105868" version="5" timestamp="2012-01-18T23:17:13Z" uid="147510" user="woodpeck_fixbot" changeset="10431441">
    <nd ref="315197617"/>
    <nd ref="421708796"/>
    <nd ref="421708799"/>
    <nd ref="421708804"/>
    <nd ref="421708805"/>
    <nd ref="421708806"/>
    <nd ref="421708807"/>
    <nd ref="421708808"/>
    <nd ref="421708809"/>
    <nd ref="421708811"/>
    <nd ref="315197616"/>
    <tag k="highway" v="residential"/>
    <tag k="name" v="Cutter Crescent"/>
    <tag k="source" v="survey"/>
  </way>
  <way id="36105870" version="5" timestamp="2010-07-09T07:53:36Z" uid="74617" user="JohnSmith" changeset="5171569">
    <nd ref="315197611"/>
    <nd ref="766700755"/>
    <nd ref="766701348"/>
    <nd ref="766701199"/>
    <nd ref="360077780"/>
    <nd ref="766701265"/>
    <nd ref="421708760"/>
    <nd ref="421708668"/>
    <tag k="highway" v="residential"/>
    <tag k="maxspeed" v="50"/>
    <tag k="maxspeed:source" v="default residential speed limit in Australia"/>
    <tag k="name" v="Gunter Grove"/>
    <tag k="source" v="survey"/>
  </way>
  <way id="36105870" version="6" timestamp="2012-01-18T23:17:15Z" uid="147510" user="woodpeck_fixbot" changeset="10431441">
    <nd ref="315197611"/>
    <nd ref="766700755"/>
    <nd ref="766701348"/>
    <nd ref="766701199"/>
    <nd ref="360077780"/>
    <nd ref="766701265"/>
    <nd ref="421708760"/>
    <nd ref="421708668"/>
    <tag k="highway" v="residential"/>
    <tag k="name" v="Gunter Grove"/>
    <tag k="source" v="survey"/>
  </way>
  <way id="36105871" version="4" timestamp="2010-07-09T07:51:33Z" uid="74617" user="JohnSmith" changeset="5171569">
    <nd ref="360077769"/>
    <nd ref="421708821"/>
    <nd ref="421708824"/>
    <tag k="highway" v="residential"/>
    <tag k="maxspeed" v="50"/>
    <tag k="maxspeed:source" v="default residential speed limit in Australia"/>
    <tag k="name" v="Prism Place"/>
    <tag k="source" v="survey"/>
  </way>
  <way id="36105871" version="5" timestamp="2012-01-18T23:17:17Z" uid="147510" user="woodpeck_fixbot" changeset="10431441">
    <nd ref="360077769"/>
    <nd ref="421708821"/>
    <nd ref="421708824"/>
    <tag k="highway" v="residential"/>
    <tag k="name" v="Prism Place"/>
    <tag k="source" v="survey"/>
  </way>
  <way id="36105872" version="4" timestamp="2010-07-09T07:48:31Z" uid="74617" user="JohnSmith" changeset="5171569">
    <nd ref="421708647"/>
    <nd ref="421708829"/>
    <nd ref="421708720"/>
    <tag k="highway" v="residential"/>
    <tag k="maxspeed" v="50"/>
    <tag k="maxspeed:source" v="default residential speed limit in Australia"/>
    <tag k="name" v="Abney Street"/>
    <tag k="source" v="survey"/>
  </way>
  <way id="36105872" version="5" timestamp="2012-01-18T23:17:20Z" uid="147510" user="woodpeck_fixbot" changeset="10431441">
    <nd ref="421708647"/>
    <nd ref="421708829"/>
    <nd ref="421708720"/>
    <tag k="highway" v="residential"/>
    <tag k="name" v="Abney Street"/>
    <tag k="source" v="survey"/>
  </way>
  <way id="36105873" version="4" timestamp="2010-07-09T07:45:56Z" uid="74617" user="JohnSmith" changeset="5171569">
    <nd ref="421708829"/>
    <nd ref="421708833"/>
    <tag k="highway" v="residential"/>
    <tag k="maxspeed" v="50"/>
    <tag k="maxspeed:source" v="default residential speed limit in Australia"/>
    <tag k="name" v="Stadia Court"/>
    <tag k="source" v="survey"/>
  </way>
  <way id="36105873" version="5" timestamp="2012-01-18T23:17:27Z" uid="147510" user="woodpeck_fixbot" changeset="10431441">
    <nd ref="421708829"/>
    <nd ref="421708833"/>
    <tag k="highway" v="residential"/>
    <tag k="name" v="Stadia Court"/>
    <tag k="source" v="survey"/>
  </way>
  <way id="36105874" version="4" timestamp="2010-07-09T07:53:01Z" uid="74617" user="JohnSmith" changeset="5171569">
    <nd ref="360077765"/>
    <nd ref="421708836"/>
    <tag k="highway" v="residential"/>
    <tag k="maxspeed" v="50"/>
    <tag k="maxspeed:source" v="default residential speed limit in Australia"/>
    <tag k="name" v="Euclid Court"/>
    <tag k="source" v="survey"/>
  </way>
  <way id="36105874" version="5" timestamp="2012-01-18T23:17:37Z" uid="147510" user="woodpeck_fixbot" changeset="10431441">
    <nd ref="360077765"/>
    <nd ref="421708836"/>
    <tag k="highway" v="residential"/>
    <tag k="name" v="Euclid Court"/>
    <tag k="source" v="survey"/>
  </way>
  <way id="36105875" version="4" timestamp="2010-07-09T07:50:57Z" uid="74617" user="JohnSmith" changeset="5171569">
    <nd ref="421708728"/>
    <nd ref="421708840"/>
    <nd ref="421708843"/>
    <tag k="highway" v="residential"/>
    <tag k="maxspeed" v="50"/>
    <tag k="maxspeed:source" v="default residential speed limit in Australia"/>
    <tag k="name" v="Marlin Place"/>
    <tag k="source" v="survey"/>
  </way>
  <way id="36105875" version="5" timestamp="2012-01-18T23:17:41Z" uid="147510" user="woodpeck_fixbot" changeset="10431441">
    <nd ref="421708728"/>
    <nd ref="421708840"/>
    <nd ref="421708843"/>
    <tag k="highway" v="residential"/>
    <tag k="name" v="Marlin Place"/>
    <tag k="source" v="survey"/>
  </way>
  <way id="36105876" version="4" timestamp="2010-07-09T07:50:17Z" uid="74617" user="JohnSmith" changeset="5171569">
    <nd ref="421708725"/>
    <nd ref="421708847"/>
    <nd ref="421708848"/>
    <nd ref="421708849"/>
    <nd ref="421708850"/>
    <nd ref="556653742"/>
    <nd ref="421708851"/>
    <nd ref="421708854"/>
    <nd ref="421708857"/>
    <nd ref="421708861"/>
    <nd ref="421708864"/>
    <nd ref="421708735"/>
    <tag k="highway" v="residential"/>
    <tag k="maxspeed" v="50"/>
    <tag k="maxspeed:source" v="default residential speed limit in Australia"/>
    <tag k="name" v="Emperor Avenue"/>
    <tag k="source" v="survey"/>
  </way>
  <way id="36105876" version="5" timestamp="2012-01-18T23:17:49Z" uid="147510" user="woodpeck_fixbot" changeset="10431441">
    <nd ref="421708725"/>
    <nd ref="421708847"/>
    <nd ref="421708848"/>
    <nd ref="421708849"/>
    <nd ref="421708850"/>
    <nd ref="556653742"/>
    <nd ref="421708851"/>
    <nd ref="421708854"/>
    <nd ref="421708857"/>
    <nd ref="421708861"/>
    <nd ref="421708864"/>
    <nd ref="421708735"/>
    <tag k="highway" v="residential"/>
    <tag k="name" v="Emperor Avenue"/>
    <tag k="source" v="survey"/>
  </way>
  <way id="36105877" version="4" timestamp="2010-07-09T07:47:52Z" uid="74617" user="JohnSmith" changeset="5171569">
    <nd ref="421708848"/>
    <nd ref="421708866"/>
    <nd ref="421708869"/>
    <nd ref="421708871"/>
    <nd ref="421708873"/>
    <tag k="highway" v="residential"/>
    <tag k="maxspeed" v="50"/>
    <tag k="maxspeed:source" v="default residential speed limit in Australia"/>
    <tag k="name" v="Success Street"/>
    <tag k="source" v="survey"/>
  </way>
  <way id="36105877" version="5" timestamp="2012-01-18T23:18:00Z" uid="147510" user="woodpeck_fixbot" changeset="10431441">
    <nd ref="421708848"/>
    <nd ref="421708866"/>
    <nd ref="421708869"/>
    <nd ref="421708871"/>
    <nd ref="421708873"/>
    <tag k="highway" v="residential"/>
    <tag k="name" v="Success Street"/>
    <tag k="source" v="survey"/>
  </way>
  <way id="36105878" version="4" timestamp="2010-07-09T07:43:10Z" uid="74617" user="JohnSmith" changeset="5171569">
    <nd ref="421708653"/>
    <nd ref="421708879"/>
    <nd ref="421708880"/>
    <nd ref="421708882"/>
    <nd ref="556653747"/>
    <nd ref="421708883"/>
    <nd ref="421708887"/>
    <nd ref="421708891"/>
    <nd ref="421708894"/>
    <nd ref="421708897"/>
    <nd ref="315197619"/>
    <tag k="highway" v="residential"/>
    <tag k="maxspeed" v="50"/>
    <tag k="maxspeed:source" v="default residential speed limit in Australia"/>
    <tag k="name" v="Haddington Street"/>
    <tag k="source" v="survey"/>
  </way>
  <way id="36105878" version="5" timestamp="2012-01-18T23:18:08Z" uid="147510" user="woodpeck_fixbot" changeset="10431441">
    <nd ref="421708653"/>
    <nd ref="421708879"/>
    <nd ref="421708880"/>
    <nd ref="421708882"/>
    <nd ref="556653747"/>
    <nd ref="421708883"/>
    <nd ref="421708887"/>
    <nd ref="421708891"/>
    <nd ref="421708894"/>
    <nd ref="421708897"/>
    <nd ref="315197619"/>
    <tag k="highway" v="residential"/>
    <tag k="name" v="Haddington Street"/>
    <tag k="source" v="survey"/>
  </way>
  <way id="36105879" version="4" timestamp="2010-07-09T07:52:21Z" uid="74617" user="JohnSmith" changeset="5171569">
    <nd ref="421708880"/>
    <nd ref="421708900"/>
    <nd ref="421708902"/>
    <nd ref="421708903"/>
    <tag k="highway" v="residential"/>
    <tag k="maxspeed" v="50"/>
    <tag k="maxspeed:source" v="default residential speed limit in Australia"/>
    <tag k="name" v="Geelong Close"/>
    <tag k="source" v="survey"/>
  </way>
  <way id="36105879" version="5" timestamp="2012-01-18T23:18:13Z" uid="147510" user="woodpeck_fixbot" changeset="10431441">
    <nd ref="421708880"/>
    <nd ref="421708900"/>
    <nd ref="421708902"/>
    <nd ref="421708903"/>
    <tag k="highway" v="residential"/>
    <tag k="name" v="Geelong Close"/>
    <tag k="source" v="survey"/>
  </way>
  <way id="36105880" version="4" timestamp="2010-07-09T07:51:45Z" uid="74617" user="JohnSmith" changeset="5171569">
    <nd ref="421708902"/>
    <nd ref="421708913"/>
    <nd ref="421708915"/>
    <tag k="highway" v="residential"/>
    <tag k="maxspeed" v="50"/>
    <tag k="maxspeed:source" v="default residential speed limit in Australia"/>
    <tag k="name" v="Ajax Place"/>
    <tag k="source" v="survey"/>
  </way>
  <way id="36105880" version="5" timestamp="2012-01-18T23:18:16Z" uid="147510" user="woodpeck_fixbot" changeset="10431441">
    <nd ref="421708902"/>
    <nd ref="421708913"/>
    <nd ref="421708915"/>
    <tag k="highway" v="residential"/>
    <tag k="name" v="Ajax Place"/>
    <tag k="source" v="survey"/>
  </way>
  <way id="36105881" version="4" timestamp="2010-07-09T07:49:32Z" uid="74617" user="JohnSmith" changeset="5171569">
    <nd ref="421708919"/>
    <nd ref="421708903"/>
    <nd ref="421708921"/>
    <tag k="highway" v="residential"/>
    <tag k="maxspeed" v="50"/>
    <tag k="maxspeed:source" v="default residential speed limit in Australia"/>
    <tag k="name" v="Lillian Court"/>
    <tag k="source" v="survey"/>
  </way>
  <way id="36105881" version="5" timestamp="2012-01-18T23:18:25Z" uid="147510" user="woodpeck_fixbot" changeset="10431441">
    <nd ref="421708919"/>
    <nd ref="421708903"/>
    <nd ref="421708921"/>
    <tag k="highway" v="residential"/>
    <tag k="name" v="Lillian Court"/>
    <tag k="source" v="survey"/>
  </way>
  <way id="36105882" version="4" timestamp="2010-07-09T07:45:14Z" uid="74617" user="JohnSmith" changeset="5171569">
    <nd ref="421708883"/>
    <nd ref="421708923"/>
    <nd ref="421708924"/>
    <nd ref="421708929"/>
    <nd ref="421708932"/>
    <nd ref="421708935"/>
    <nd ref="421708873"/>
    <nd ref="421708938"/>
    <nd ref="421708940"/>
    <tag k="highway" v="residential"/>
    <tag k="maxspeed" v="50"/>
    <tag k="maxspeed:source" v="default residential speed limit in Australia"/>
    <tag k="name" v="Berkshire Drive"/>
    <tag k="source" v="survey"/>
  </way>
  <way id="36105882" version="5" timestamp="2012-01-18T23:18:30Z" uid="147510" user="woodpeck_fixbot" changeset="10431441">
    <nd ref="421708883"/>
    <nd ref="421708923"/>
    <nd ref="421708924"/>
    <nd ref="421708929"/>
    <nd ref="421708932"/>
    <nd ref="421708935"/>
    <nd ref="421708873"/>
    <nd ref="421708938"/>
    <nd ref="421708940"/>
    <tag k="highway" v="residential"/>
    <tag k="name" v="Berkshire Drive"/>
    <tag k="source" v="survey"/>
  </way>
  <way id="36105883" version="5" timestamp="2010-07-09T07:53:47Z" uid="74617" user="JohnSmith" changeset="5171569">
    <nd ref="421708929"/>
    <nd ref="421708943"/>
    <nd ref="421708948"/>
    <nd ref="421708952"/>
    <tag k="highway" v="residential"/>
    <tag k="maxspeed" v="50"/>
    <tag k="maxspeed:source" v="default residential speed limit in Australia"/>
    <tag k="name" v="Rebecca Court"/>
    <tag k="source" v="survey"/>
  </way>
  <way id="36105883" version="6" timestamp="2012-01-18T23:18:34Z" uid="147510" user="woodpeck_fixbot" changeset="10431441">
    <nd ref="421708929"/>
    <nd ref="421708943"/>
    <nd ref="421708948"/>
    <nd ref="421708952"/>
    <tag k="highway" v="residential"/>
    <tag k="name" v="Rebecca Court"/>
    <tag k="source" v="survey"/>
  </way>
  <way id="36105884" version="4" timestamp="2010-07-09T07:53:19Z" uid="74617" user="JohnSmith" changeset="5171569">
    <nd ref="421708943"/>
    <nd ref="421708959"/>
    <nd ref="421708960"/>
    <nd ref="421708962"/>
    <tag k="highway" v="residential"/>
    <tag k="maxspeed" v="50"/>
    <tag k="maxspeed:source" v="default residential speed limit in Australia"/>
    <tag k="name" v="Nelson Place"/>
    <tag k="source" v="survey"/>
  </way>
  <way id="36105884" version="5" timestamp="2012-01-18T23:18:37Z" uid="147510" user="woodpeck_fixbot" changeset="10431441">
    <nd ref="421708943"/>
    <nd ref="421708959"/>
    <nd ref="421708960"/>
    <nd ref="421708962"/>
    <tag k="highway" v="residential"/>
    <tag k="name" v="Nelson Place"/>
    <tag k="source" v="survey"/>
  </way>
  <way id="36105885" version="4" timestamp="2010-07-09T07:51:14Z" uid="74617" user="JohnSmith" changeset="5171569">
    <nd ref="421708935"/>
    <nd ref="421708964"/>
    <tag k="highway" v="residential"/>
    <tag k="maxspeed" v="50"/>
    <tag k="maxspeed:source" v="default residential speed limit in Australia"/>
    <tag k="name" v="Nina Grove"/>
    <tag k="source" v="survey"/>
  </way>
  <way id="36105885" version="5" timestamp="2012-01-18T23:18:40Z" uid="147510" user="woodpeck_fixbot" changeset="10431441">
    <nd ref="421708935"/>
    <nd ref="421708964"/>
    <tag k="highway" v="residential"/>
    <tag k="name" v="Nina Grove"/>
    <tag k="source" v="survey"/>
  </way>
  <way id="36105886" version="4" timestamp="2010-07-09T07:47:16Z" uid="74617" user="JohnSmith" changeset="5171569">
    <nd ref="421708942"/>
    <nd ref="421708940"/>
    <nd ref="421708970"/>
    <nd ref="421708974"/>
    <nd ref="556653771"/>
    <nd ref="421708978"/>
    <tag k="highway" v="residential"/>
    <tag k="maxspeed" v="50"/>
    <tag k="maxspeed:source" v="default residential speed limit in Australia"/>
    <tag k="name" v="Petrel Close"/>
    <tag k="source" v="survey"/>
  </way>
  <way id="36105886" version="5" timestamp="2012-01-18T23:18:42Z" uid="147510" user="woodpeck_fixbot" changeset="10431441">
    <nd ref="421708942"/>
    <nd ref="421708940"/>
    <nd ref="421708970"/>
    <nd ref="421708974"/>
    <nd ref="556653771"/>
    <nd ref="421708978"/>
    <tag k="highway" v="residential"/>
    <tag k="name" v="Petrel Close"/>
    <tag k="source" v="survey"/>
  </way>
  <way id="36105887" version="4" timestamp="2010-07-09T07:44:28Z" uid="74617" user="JohnSmith" changeset="5171569">
    <nd ref="421708938"/>
    <nd ref="421708981"/>
    <tag k="highway" v="residential"/>
    <tag k="maxspeed" v="50"/>
    <tag k="maxspeed:source" v="default residential speed limit in Australia"/>
    <tag k="name" v="Pera Mews"/>
    <tag k="source" v="survey"/>
  </way>
  <way id="36105887" version="5" timestamp="2012-01-18T23:18:43Z" uid="147510" user="woodpeck_fixbot" changeset="10431441">
    <nd ref="421708938"/>
    <nd ref="421708981"/>
    <tag k="highway" v="residential"/>
    <tag k="name" v="Pera Mews"/>
    <tag k="source" v="survey"/>
  </way>
  <way id="36105888" version="4" timestamp="2010-07-09T07:46:33Z" uid="74617" user="JohnSmith" changeset="5171569">
    <nd ref="421708932"/>
    <nd ref="421708982"/>
    <nd ref="421708983"/>
    <nd ref="421708992"/>
    <tag k="highway" v="residential"/>
    <tag k="maxspeed" v="50"/>
    <tag k="maxspeed:source" v="default residential speed limit in Australia"/>
    <tag k="name" v="Albany Court"/>
    <tag k="source" v="survey"/>
  </way>
  <way id="36105888" version="5" timestamp="2012-01-18T23:18:44Z" uid="147510" user="woodpeck_fixbot" changeset="10431441">
    <nd ref="421708932"/>
    <nd ref="421708982"/>
    <nd ref="421708983"/>
    <nd ref="421708992"/>
    <tag k="highway" v="residential"/>
    <tag k="name" v="Albany Court"/>
    <tag k="source" v="survey"/>
  </way>
  <way id="36105889" version="4" timestamp="2010-07-09T07:43:51Z" uid="74617" user="JohnSmith" changeset="5171569">
    <nd ref="421708983"/>
    <nd ref="421708996"/>
    <nd ref="421708998"/>
    <nd ref="556653745"/>
    <nd ref="421708999"/>
    <nd ref="421709000"/>
    <tag k="highway" v="residential"/>
    <tag k="maxspeed" v="50"/>
    <tag k="maxspeed:source" v="default residential speed limit in Australia"/>
    <tag k="name" v="Nolan Place"/>
    <tag k="source" v="survey"/>
  </way>
  <way id="36105889" version="5" timestamp="2012-01-18T23:18:46Z" uid="147510" user="woodpeck_fixbot" changeset="10431441">
    <nd ref="421708983"/>
    <nd ref="421708996"/>
    <nd ref="421708998"/>
    <nd ref="556653745"/>
    <nd ref="421708999"/>
    <nd ref="421709000"/>
    <tag k="highway" v="residential"/>
    <tag k="name" v="Nolan Place"/>
    <tag k="source" v="survey"/>
  </way>
  <way id="36105890" version="4" timestamp="2010-07-09T07:51:21Z" uid="74617" user="JohnSmith" changeset="5171569">
    <nd ref="421708924"/>
    <nd ref="421709002"/>
    <tag k="highway" v="residential"/>
    <tag k="maxspeed" v="50"/>
    <tag k="maxspeed:source" v="default residential speed limit in Australia"/>
    <tag k="name" v="Alan Court"/>
    <tag k="source" v="survey"/>
  </way>
  <way id="36105890" version="5" timestamp="2012-01-18T23:18:48Z" uid="147510" user="woodpeck_fixbot" changeset="10431441">
    <nd ref="421708924"/>
    <nd ref="421709002"/>
    <tag k="highway" v="residential"/>
    <tag k="name" v="Alan Court"/>
    <tag k="source" v="survey"/>
  </way>
  <way id="36105892" version="4" timestamp="2010-07-09T07:48:25Z" uid="74617" user="JohnSmith" changeset="5171569">
    <nd ref="421708887"/>
    <nd ref="421709022"/>
    <nd ref="421709023"/>
    <nd ref="421709026"/>
    <tag k="highway" v="residential"/>
    <tag k="maxspeed" v="50"/>
    <tag k="maxspeed:source" v="default residential speed limit in Australia"/>
    <tag k="name" v="Neptune Gardens"/>
    <tag k="source" v="survey"/>
  </way>
  <way id="36105892" version="5" timestamp="2012-01-18T23:18:48Z" uid="147510" user="woodpeck_fixbot" changeset="10431441">
    <nd ref="421708887"/>
    <nd ref="421709022"/>
    <nd ref="421709023"/>
    <nd ref="421709026"/>
    <tag k="highway" v="residential"/>
    <tag k="name" v="Neptune Gardens"/>
    <tag k="source" v="survey"/>
  </way>
  <way id="36105893" version="4" timestamp="2010-07-09T07:45:50Z" uid="74617" user="JohnSmith" changeset="5171569">
    <nd ref="421708891"/>
    <nd ref="421709033"/>
    <nd ref="421709035"/>
    <tag k="highway" v="residential"/>
    <tag k="maxspeed" v="50"/>
    <tag k="maxspeed:source" v="default residential speed limit in Australia"/>
    <tag k="name" v="Savaris Court"/>
    <tag k="source" v="survey"/>
  </way>
  <way id="36105893" version="5" timestamp="2012-01-18T23:18:49Z" uid="147510" user="woodpeck_fixbot" changeset="10431441">
    <nd ref="421708891"/>
    <nd ref="421709033"/>
    <nd ref="421709035"/>
    <tag k="highway" v="residential"/>
    <tag k="name" v="Savaris Court"/>
    <tag k="source" v="survey"/>
  </way>
  <way id="36105894" version="4" timestamp="2010-07-09T07:52:55Z" uid="74617" user="JohnSmith" changeset="5171569">
    <nd ref="421708861"/>
    <nd ref="421709039"/>
    <nd ref="421709040"/>
    <nd ref="421709041"/>
    <nd ref="421709044"/>
    <nd ref="421709045"/>
    <nd ref="421709049"/>
    <nd ref="421709051"/>
    <nd ref="421709053"/>
    <nd ref="421708850"/>
    <tag k="highway" v="residential"/>
    <tag k="maxspeed" v="50"/>
    <tag k="maxspeed:source" v="default residential speed limit in Australia"/>
    <tag k="name" v="Redfin Crescent"/>
    <tag k="source" v="survey"/>
  </way>
  <way id="36105894" version="5" timestamp="2012-01-18T23:18:50Z" uid="147510" user="woodpeck_fixbot" changeset="10431441">
    <nd ref="421708861"/>
    <nd ref="421709039"/>
    <nd ref="421709040"/>
    <nd ref="421709041"/>
    <nd ref="421709044"/>
    <nd ref="421709045"/>
    <nd ref="421709049"/>
    <nd ref="421709051"/>
    <nd ref="421709053"/>
    <nd ref="421708850"/>
    <tag k="highway" v="residential"/>
    <tag k="name" v="Redfin Crescent"/>
    <tag k="source" v="survey"/>
  </way>
  <way id="36105895" version="4" timestamp="2010-07-09T07:50:53Z" uid="74617" user="JohnSmith" changeset="5171569">
    <nd ref="421709039"/>
    <nd ref="421709059"/>
    <nd ref="421709060"/>
    <tag k="highway" v="residential"/>
    <tag k="maxspeed" v="50"/>
    <tag k="maxspeed:source" v="default residential speed limit in Australia"/>
    <tag k="name" v="Sailfish Close"/>
    <tag k="source" v="survey"/>
  </way>
  <way id="36105895" version="5" timestamp="2012-01-18T23:18:51Z" uid="147510" user="woodpeck_fixbot" changeset="10431441">
    <nd ref="421709039"/>
    <nd ref="421709059"/>
    <nd ref="421709060"/>
    <tag k="highway" v="residential"/>
    <tag k="name" v="Sailfish Close"/>
    <tag k="source" v="survey"/>
  </way>
  <way id="36105896" version="4" timestamp="2010-07-09T07:50:11Z" uid="74617" user="JohnSmith" changeset="5171569">
    <nd ref="421708882"/>
    <nd ref="421709064"/>
    <nd ref="421709070"/>
    <nd ref="421709073"/>
    <nd ref="421709079"/>
    <nd ref="421709081"/>
    <nd ref="421709140"/>
    <nd ref="421709143"/>
    <nd ref="421709147"/>
    <nd ref="421708879"/>
    <tag k="highway" v="residential"/>
    <tag k="maxspeed" v="50"/>
    <tag k="maxspeed:source" v="default residential speed limit in Australia"/>
    <tag k="name" v="Altair Way"/>
    <tag k="source" v="Yahoo"/>
  </way>
  <way id="36105896" version="5" timestamp="2012-01-18T23:18:52Z" uid="147510" user="woodpeck_fixbot" changeset="10431441">
    <nd ref="421708882"/>
    <nd ref="421709064"/>
    <nd ref="421709070"/>
    <nd ref="421709073"/>
    <nd ref="421709079"/>
    <nd ref="421709081"/>
    <nd ref="421709140"/>
    <nd ref="421709143"/>
    <nd ref="421709147"/>
    <nd ref="421708879"/>
    <tag k="highway" v="residential"/>
    <tag k="name" v="Altair Way"/>
    <tag k="source" v="Yahoo"/>
  </way>
  <way id="36105898" version="4" timestamp="2010-07-09T07:43:03Z" uid="74617" user="JohnSmith" changeset="5171569">
    <nd ref="421709070"/>
    <nd ref="421709086"/>
    <nd ref="421709091"/>
    <nd ref="421709103"/>
    <nd ref="421709105"/>
    <nd ref="421709106"/>
    <nd ref="421709107"/>
    <nd ref="421709108"/>
    <nd ref="421709111"/>
    <tag k="highway" v="residential"/>
    <tag k="maxspeed" v="50"/>
    <tag k="maxspeed:source" v="default residential speed limit in Australia"/>
    <tag k="name" v="Dawson Street"/>
    <tag k="source" v="survey"/>
  </way>
  <way id="36105898" version="5" timestamp="2012-01-18T23:18:53Z" uid="147510" user="woodpeck_fixbot" changeset="10431441">
    <nd ref="421709070"/>
    <nd ref="421709086"/>
    <nd ref="421709091"/>
    <nd ref="421709103"/>
    <nd ref="421709105"/>
    <nd ref="421709106"/>
    <nd ref="421709107"/>
    <nd ref="421709108"/>
    <nd ref="421709111"/>
    <tag k="highway" v="residential"/>
    <tag k="name" v="Dawson Street"/>
    <tag k="source" v="survey"/>
  </way>
  <way id="36105899" version="4" timestamp="2010-07-09T07:52:16Z" uid="74617" user="JohnSmith" changeset="5171569">
    <nd ref="421709107"/>
    <nd ref="421709119"/>
    <tag k="highway" v="residential"/>
    <tag k="maxspeed" v="50"/>
    <tag k="maxspeed:source" v="default residential speed limit in Australia"/>
    <tag k="name" v="Millbrook Grove"/>
    <tag k="source" v="survey"/>
  </way>
  <way id="36105899" version="5" timestamp="2012-01-18T23:18:53Z" uid="147510" user="woodpeck_fixbot" changeset="10431441">
    <nd ref="421709107"/>
    <nd ref="421709119"/>
    <tag k="highway" v="residential"/>
    <tag k="name" v="Millbrook Grove"/>
    <tag k="source" v="survey"/>
  </way>
  <way id="36105900" version="4" timestamp="2010-07-09T07:51:41Z" uid="74617" user="JohnSmith" changeset="5171569">
    <nd ref="421709105"/>
    <nd ref="421709121"/>
    <nd ref="421709125"/>
    <tag k="highway" v="residential"/>
    <tag k="maxspeed" v="50"/>
    <tag k="maxspeed:source" v="default residential speed limit in Australia"/>
    <tag k="name" v="Cupar Close"/>
    <tag k="source" v="survey"/>
  </way>
  <way id="36105900" version="5" timestamp="2012-01-18T23:18:54Z" uid="147510" user="woodpeck_fixbot" changeset="10431441">
    <nd ref="421709105"/>
    <nd ref="421709121"/>
    <nd ref="421709125"/>
    <tag k="highway" v="residential"/>
    <tag k="name" v="Cupar Close"/>
    <tag k="source" v="survey"/>
  </way>
  <way id="36105901" version="4" timestamp="2010-07-09T07:49:27Z" uid="74617" user="JohnSmith" changeset="5171569">
    <nd ref="421709091"/>
    <nd ref="421709131"/>
    <nd ref="421709132"/>
    <nd ref="421709133"/>
    <tag k="highway" v="residential"/>
    <tag k="maxspeed" v="50"/>
    <tag k="maxspeed:source" v="default residential speed limit in Australia"/>
    <tag k="name" v="Irene Place"/>
    <tag k="source" v="survey"/>
  </way>
  <way id="36105901" version="5" timestamp="2012-01-18T23:18:55Z" uid="147510" user="woodpeck_fixbot" changeset="10431441">
    <nd ref="421709091"/>
    <nd ref="421709131"/>
    <nd ref="421709132"/>
    <nd ref="421709133"/>
    <tag k="highway" v="residential"/>
    <tag k="name" v="Irene Place"/>
    <tag k="source" v="survey"/>
  </way>
  <way id="36105902" version="4" timestamp="2010-07-09T07:45:06Z" uid="74617" user="JohnSmith" changeset="5171569">
    <nd ref="421709134"/>
    <nd ref="421709081"/>
    <tag k="highway" v="residential"/>
    <tag k="maxspeed" v="50"/>
    <tag k="maxspeed:source" v="default residential speed limit in Australia"/>
    <tag k="name" v="Abel Court"/>
    <tag k="source" v="survey"/>
  </way>
  <way id="36105902" version="5" timestamp="2012-01-18T23:18:56Z" uid="147510" user="woodpeck_fixbot" changeset="10431441">
    <nd ref="421709134"/>
    <nd ref="421709081"/>
    <tag k="highway" v="residential"/>
    <tag k="name" v="Abel Court"/>
    <tag k="source" v="survey"/>
  </way>
  <way id="36105903" version="4" timestamp="2010-07-09T07:53:41Z" uid="74617" user="JohnSmith" changeset="5171569">
    <nd ref="421709147"/>
    <nd ref="421709150"/>
    <tag k="highway" v="residential"/>
    <tag k="maxspeed" v="50"/>
    <tag k="maxspeed:source" v="default residential speed limit in Australia"/>
    <tag k="name" v="Kildare Place"/>
    <tag k="source" v="survey"/>
  </way>
  <way id="36105903" version="5" timestamp="2012-01-18T23:18:57Z" uid="147510" user="woodpeck_fixbot" changeset="10431441">
    <nd ref="421709147"/>
    <nd ref="421709150"/>
    <tag k="highway" v="residential"/>
    <tag k="name" v="Kildare Place"/>
    <tag k="source" v="survey"/>
  </way>
  <way id="36105906" version="4" timestamp="2010-07-09T07:44:10Z" uid="74617" user="JohnSmith" changeset="5171569">
    <nd ref="421709106"/>
    <nd ref="421709157"/>
    <nd ref="421709165"/>
    <nd ref="421709162"/>
    <nd ref="421709160"/>
    <tag k="highway" v="residential"/>
    <tag k="maxspeed" v="50"/>
    <tag k="maxspeed:source" v="default residential speed limit in Australia"/>
    <tag k="name" v="Bangor Place"/>
    <tag k="source" v="survey"/>
  </way>
  <way id="36105906" version="5" timestamp="2012-01-18T23:18:58Z" uid="147510" user="woodpeck_fixbot" changeset="10431441">
    <nd ref="421709106"/>
    <nd ref="421709157"/>
    <nd ref="421709165"/>
    <nd ref="421709162"/>
    <nd ref="421709160"/>
    <tag k="highway" v="residential"/>
    <tag k="name" v="Bangor Place"/>
    <tag k="source" v="survey"/>
  </way>
  <way id="36105907" version="4" timestamp="2010-07-09T07:53:08Z" uid="74617" user="JohnSmith" changeset="5171569">
    <nd ref="421709165"/>
    <nd ref="421709175"/>
    <tag k="highway" v="residential"/>
    <tag k="maxspeed" v="50"/>
    <tag k="maxspeed:source" v="default residential speed limit in Australia"/>
    <tag k="name" v="Bangor Place"/>
    <tag k="source" v="survey"/>
  </way>
  <way id="36105907" version="5" timestamp="2012-01-18T23:18:59Z" uid="147510" user="woodpeck_fixbot" changeset="10431441">
    <nd ref="421709165"/>
    <nd ref="421709175"/>
    <tag k="highway" v="residential"/>
    <tag k="name" v="Bangor Place"/>
    <tag k="source" v="survey"/>
  </way>
  <way id="36105908" version="4" timestamp="2010-07-09T07:52:30Z" uid="74617" user="JohnSmith" changeset="5171569">
    <nd ref="46616984"/>
    <nd ref="421709180"/>
    <nd ref="421709182"/>
    <nd ref="421709185"/>
    <nd ref="421709111"/>
    <nd ref="421709188"/>
    <nd ref="421709189"/>
    <nd ref="421708742"/>
    <tag k="highway" v="residential"/>
    <tag k="maxspeed" v="50"/>
    <tag k="maxspeed:source" v="default residential speed limit in Australia"/>
    <tag k="name" v="Priscilla Avenue"/>
    <tag k="source" v="survey"/>
  </way>
  <way id="36105908" version="5" timestamp="2012-01-18T23:19:00Z" uid="147510" user="woodpeck_fixbot" changeset="10431441">
    <nd ref="46616984"/>
    <nd ref="421709180"/>
    <nd ref="421709182"/>
    <nd ref="421709185"/>
    <nd ref="421709111"/>
    <nd ref="421709188"/>
    <nd ref="421709189"/>
    <nd ref="421708742"/>
    <tag k="highway" v="residential"/>
    <tag k="name" v="Priscilla Avenue"/>
    <tag k="source" v="survey"/>
  </way>
  <way id="36105909" version="4" timestamp="2010-07-09T07:50:25Z" uid="74617" user="JohnSmith" changeset="5171569">
    <nd ref="421709185"/>
    <nd ref="421709190"/>
    <tag k="highway" v="residential"/>
    <tag k="maxspeed" v="50"/>
    <tag k="maxspeed:source" v="default residential speed limit in Australia"/>
    <tag k="name" v="Priscilla Avenue"/>
    <tag k="source" v="survey"/>
  </way>
  <way id="36105909" version="5" timestamp="2012-01-18T23:19:01Z" uid="147510" user="woodpeck_fixbot" changeset="10431441">
    <nd ref="421709185"/>
    <nd ref="421709190"/>
    <tag k="highway" v="residential"/>
    <tag k="name" v="Priscilla Avenue"/>
    <tag k="source" v="survey"/>
  </way>
  <way id="36105910" version="4" timestamp="2010-07-09T07:46:03Z" uid="74617" user="JohnSmith" changeset="5171569">
    <nd ref="421709189"/>
    <nd ref="421709200"/>
    <nd ref="421709201"/>
    <nd ref="556653637"/>
    <nd ref="421709202"/>
    <tag k="highway" v="residential"/>
    <tag k="maxspeed" v="50"/>
    <tag k="maxspeed:source" v="default residential speed limit in Australia"/>
    <tag k="name" v="Bridgedale Close"/>
    <tag k="source" v="survey"/>
  </way>
  <way id="36105910" version="5" timestamp="2012-01-18T23:19:02Z" uid="147510" user="woodpeck_fixbot" changeset="10431441">
    <nd ref="421709189"/>
    <nd ref="421709200"/>
    <nd ref="421709201"/>
    <nd ref="556653637"/>
    <nd ref="421709202"/>
    <tag k="highway" v="residential"/>
    <tag k="name" v="Bridgedale Close"/>
    <tag k="source" v="survey"/>
  </way>
  <way id="36105912" version="4" timestamp="2010-07-09T07:53:55Z" uid="74617" user="JohnSmith" changeset="5171569">
    <nd ref="421709208"/>
    <nd ref="421709220"/>
    <nd ref="421709222"/>
    <nd ref="421709224"/>
    <nd ref="421709226"/>
    <nd ref="421709229"/>
    <nd ref="421709231"/>
    <nd ref="421709233"/>
    <nd ref="421709235"/>
    <nd ref="556653916"/>
    <nd ref="421709236"/>
    <nd ref="421709237"/>
    <nd ref="421709238"/>
    <nd ref="421709220"/>
    <tag k="highway" v="residential"/>
    <tag k="maxspeed" v="50"/>
    <tag k="maxspeed:source" v="default residential speed limit in Australia"/>
    <tag k="name" v="Nautical Grove"/>
    <tag k="source" v="survey"/>
  </way>
  <way id="36105912" version="5" timestamp="2012-01-18T23:19:03Z" uid="147510" user="woodpeck_fixbot" changeset="10431441">
    <nd ref="421709208"/>
    <nd ref="421709220"/>
    <nd ref="421709222"/>
    <nd ref="421709224"/>
    <nd ref="421709226"/>
    <nd ref="421709229"/>
    <nd ref="421709231"/>
    <nd ref="421709233"/>
    <nd ref="421709235"/>
    <nd ref="556653916"/>
    <nd ref="421709236"/>
    <nd ref="421709237"/>
    <nd ref="421709238"/>
    <nd ref="421709220"/>
    <tag k="highway" v="residential"/>
    <tag k="name" v="Nautical Grove"/>
    <tag k="source" v="survey"/>
  </way>
  <way id="36105913" version="4" timestamp="2010-07-09T07:51:51Z" uid="74617" user="JohnSmith" changeset="5171569">
    <nd ref="421709229"/>
    <nd ref="421709240"/>
    <tag k="highway" v="residential"/>
    <tag k="maxspeed" v="50"/>
    <tag k="maxspeed:source" v="default residential speed limit in Australia"/>
    <tag k="name" v="Dory Road"/>
    <tag k="source" v="survey"/>
  </way>
  <way id="36105913" version="5" timestamp="2012-01-18T23:19:04Z" uid="147510" user="woodpeck_fixbot" changeset="10431441">
    <nd ref="421709229"/>
    <nd ref="421709240"/>
    <tag k="highway" v="residential"/>
    <tag k="name" v="Dory Road"/>
    <tag k="source" v="survey"/>
  </way>
  <way id="36105914" version="5" timestamp="2010-07-09T07:47:59Z" uid="74617" user="JohnSmith" changeset="5171569">
    <nd ref="421709214"/>
    <nd ref="421709248"/>
    <nd ref="556653925"/>
    <nd ref="421709250"/>
    <nd ref="421709251"/>
    <nd ref="421709252"/>
    <nd ref="358685444"/>
    <nd ref="276374856"/>
    <tag k="highway" v="residential"/>
    <tag k="maxspeed" v="50"/>
    <tag k="maxspeed:source" v="default residential speed limit in Australia"/>
    <tag k="name" v="Ensign Way"/>
    <tag k="source" v="survey"/>
  </way>
  <way id="36105914" version="6" timestamp="2012-01-18T23:19:05Z" uid="147510" user="woodpeck_fixbot" changeset="10431441">
    <nd ref="421709214"/>
    <nd ref="421709248"/>
    <nd ref="556653925"/>
    <nd ref="421709250"/>
    <nd ref="421709251"/>
    <nd ref="421709252"/>
    <nd ref="358685444"/>
    <nd ref="276374856"/>
    <tag k="highway" v="residential"/>
    <tag k="name" v="Ensign Way"/>
    <tag k="source" v="survey"/>
  </way>
  <way id="36105915" version="4" timestamp="2010-07-09T07:45:23Z" uid="74617" user="JohnSmith" changeset="5171569">
    <nd ref="421709252"/>
    <nd ref="421709254"/>
    <nd ref="421709257"/>
    <nd ref="421709240"/>
    <nd ref="421709259"/>
    <tag k="highway" v="residential"/>
    <tag k="maxspeed" v="50"/>
    <tag k="maxspeed:source" v="default residential speed limit in Australia"/>
    <tag k="name" v="Fleet Way"/>
    <tag k="source" v="survey"/>
  </way>
  <way id="36105915" version="5" timestamp="2012-01-18T23:19:07Z" uid="147510" user="woodpeck_fixbot" changeset="10431441">
    <nd ref="421709252"/>
    <nd ref="421709254"/>
    <nd ref="421709257"/>
    <nd ref="421709240"/>
    <nd ref="421709259"/>
    <tag k="highway" v="residential"/>
    <tag k="name" v="Fleet Way"/>
    <tag k="source" v="survey"/>
  </way>
  <way id="36105916" version="4" timestamp="2010-07-09T07:44:39Z" uid="74617" user="JohnSmith" changeset="5171569">
    <nd ref="421709251"/>
    <nd ref="421709265"/>
    <nd ref="421709266"/>
    <nd ref="421709267"/>
    <nd ref="421709268"/>
    <nd ref="421709269"/>
    <nd ref="421709270"/>
    <nd ref="421709271"/>
    <tag k="highway" v="residential"/>
    <tag k="maxspeed" v="50"/>
    <tag k="maxspeed:source" v="default residential speed limit in Australia"/>
    <tag k="name" v="Galleon Road"/>
    <tag k="source" v="survey"/>
  </way>
  <way id="36105916" version="5" timestamp="2012-01-18T23:19:08Z" uid="147510" user="woodpeck_fixbot" changeset="10431441">
    <nd ref="421709251"/>
    <nd ref="421709265"/>
    <nd ref="421709266"/>
    <nd ref="421709267"/>
    <nd ref="421709268"/>
    <nd ref="421709269"/>
    <nd ref="421709270"/>
    <nd ref="421709271"/>
    <tag k="highway" v="residential"/>
    <tag k="name" v="Galleon Road"/>
    <tag k="source" v="survey"/>
  </way>
  <way id="36105917" version="4" timestamp="2010-07-09T07:53:27Z" uid="74617" user="JohnSmith" changeset="5171569">
    <nd ref="421709269"/>
    <nd ref="421709279"/>
    <tag k="highway" v="residential"/>
    <tag k="maxspeed" v="50"/>
    <tag k="maxspeed:source" v="default residential speed limit in Australia"/>
    <tag k="name" v="Cove Court"/>
    <tag k="source" v="survey"/>
  </way>
  <way id="36105917" version="5" timestamp="2012-01-18T23:19:09Z" uid="147510" user="woodpeck_fixbot" changeset="10431441">
    <nd ref="421709269"/>
    <nd ref="421709279"/>
    <tag k="highway" v="residential"/>
    <tag k="name" v="Cove Court"/>
    <tag k="source" v="survey"/>
  </way>
  <way id="36105918" version="4" timestamp="2010-07-09T07:49:42Z" uid="74617" user="JohnSmith" changeset="5171569">
    <nd ref="421709248"/>
    <nd ref="421709282"/>
    <nd ref="421709283"/>
    <nd ref="421709284"/>
    <nd ref="421709285"/>
    <nd ref="421709296"/>
    <nd ref="421709298"/>
    <nd ref="421709300"/>
    <nd ref="421709301"/>
    <nd ref="421709271"/>
    <nd ref="421709302"/>
    <tag k="highway" v="residential"/>
    <tag k="maxspeed" v="50"/>
    <tag k="maxspeed:source" v="default residential speed limit in Australia"/>
    <tag k="name" v="Dolphin Way"/>
    <tag k="source" v="survey"/>
  </way>
  <way id="36105918" version="5" timestamp="2012-01-18T23:19:10Z" uid="147510" user="woodpeck_fixbot" changeset="10431441">
    <nd ref="421709248"/>
    <nd ref="421709282"/>
    <nd ref="421709283"/>
    <nd ref="421709284"/>
    <nd ref="421709285"/>
    <nd ref="421709296"/>
    <nd ref="421709298"/>
    <nd ref="421709300"/>
    <nd ref="421709301"/>
    <nd ref="421709271"/>
    <nd ref="421709302"/>
    <tag k="highway" v="residential"/>
    <tag k="name" v="Dolphin Way"/>
    <tag k="source" v="survey"/>
  </way>
  <way id="36105919" version="4" timestamp="2010-07-09T07:47:26Z" uid="74617" user="JohnSmith" changeset="5171569">
    <nd ref="421709286"/>
    <nd ref="421709291"/>
    <nd ref="421709293"/>
    <nd ref="421709285"/>
    <tag k="highway" v="residential"/>
    <tag k="maxspeed" v="50"/>
    <tag k="maxspeed:source" v="default residential speed limit in Australia"/>
    <tag k="name" v="Tide Place"/>
    <tag k="source" v="survey"/>
  </way>
  <way id="36105919" version="5" timestamp="2012-01-18T23:19:11Z" uid="147510" user="woodpeck_fixbot" changeset="10431441">
    <nd ref="421709286"/>
    <nd ref="421709291"/>
    <nd ref="421709293"/>
    <nd ref="421709285"/>
    <tag k="highway" v="residential"/>
    <tag k="name" v="Tide Place"/>
    <tag k="source" v="survey"/>
  </way>
  <way id="36105921" version="4" timestamp="2010-07-09T07:46:46Z" uid="74617" user="JohnSmith" changeset="5171569">
    <nd ref="315197618"/>
    <nd ref="421709305"/>
    <nd ref="421709311"/>
    <nd ref="421709314"/>
    <nd ref="421709317"/>
    <nd ref="556653910"/>
    <nd ref="421709319"/>
    <nd ref="421709320"/>
    <nd ref="421709321"/>
    <nd ref="421709322"/>
    <nd ref="421709216"/>
    <tag k="highway" v="residential"/>
    <tag k="maxspeed" v="50"/>
    <tag k="maxspeed:source" v="default residential speed limit in Australia"/>
    <tag k="name" v="Tasman Road"/>
    <tag k="source" v="survey"/>
  </way>
  <way id="36105921" version="5" timestamp="2012-01-18T23:19:12Z" uid="147510" user="woodpeck_fixbot" changeset="10431441">
    <nd ref="315197618"/>
    <nd ref="421709305"/>
    <nd ref="421709311"/>
    <nd ref="421709314"/>
    <nd ref="421709317"/>
    <nd ref="556653910"/>
    <nd ref="421709319"/>
    <nd ref="421709320"/>
    <nd ref="421709321"/>
    <nd ref="421709322"/>
    <nd ref="421709216"/>
    <tag k="highway" v="residential"/>
    <tag k="name" v="Tasman Road"/>
    <tag k="source" v="survey"/>
  </way>
  <way id="36105922" version="4" timestamp="2010-07-09T07:53:32Z" uid="74617" user="JohnSmith" changeset="5171569">
    <nd ref="421709322"/>
    <nd ref="421709329"/>
    <nd ref="421709332"/>
    <nd ref="556653902"/>
    <nd ref="421709334"/>
    <tag k="highway" v="residential"/>
    <tag k="maxspeed" v="50"/>
    <tag k="maxspeed:source" v="default residential speed limit in Australia"/>
    <tag k="name" v="Lagoon Place"/>
    <tag k="source" v="survey"/>
  </way>
  <way id="36105922" version="5" timestamp="2012-01-18T23:19:13Z" uid="147510" user="woodpeck_fixbot" changeset="10431441">
    <nd ref="421709322"/>
    <nd ref="421709329"/>
    <nd ref="421709332"/>
    <nd ref="556653902"/>
    <nd ref="421709334"/>
    <tag k="highway" v="residential"/>
    <tag k="name" v="Lagoon Place"/>
    <tag k="source" v="survey"/>
  </way>
  <way id="36105923" version="4" timestamp="2010-07-09T07:51:28Z" uid="74617" user="JohnSmith" changeset="5171569">
    <nd ref="421709321"/>
    <nd ref="421709335"/>
    <nd ref="421709336"/>
    <tag k="highway" v="residential"/>
    <tag k="maxspeed" v="50"/>
    <tag k="maxspeed:source" v="default residential speed limit in Australia"/>
    <tag k="name" v="Shell Court"/>
    <tag k="source" v="survey"/>
  </way>
  <way id="36105923" version="5" timestamp="2012-01-18T23:19:14Z" uid="147510" user="woodpeck_fixbot" changeset="10431441">
    <nd ref="421709321"/>
    <nd ref="421709335"/>
    <nd ref="421709336"/>
    <tag k="highway" v="residential"/>
    <tag k="name" v="Shell Court"/>
    <tag k="source" v="survey"/>
  </way>
  <way id="36105924" version="4" timestamp="2010-07-09T07:50:59Z" uid="74617" user="JohnSmith" changeset="5171569">
    <nd ref="421709320"/>
    <nd ref="421709339"/>
    <nd ref="421709342"/>
    <nd ref="421709347"/>
    <nd ref="421709349"/>
    <nd ref="421709350"/>
    <tag k="highway" v="residential"/>
    <tag k="maxspeed" v="50"/>
    <tag k="maxspeed:source" v="default residential speed limit in Australia"/>
    <tag k="name" v="Radian Road"/>
    <tag k="source" v="survey"/>
  </way>
  <way id="36105924" version="5" timestamp="2012-01-18T23:19:15Z" uid="147510" user="woodpeck_fixbot" changeset="10431441">
    <nd ref="421709320"/>
    <nd ref="421709339"/>
    <nd ref="421709342"/>
    <nd ref="421709347"/>
    <nd ref="421709349"/>
    <nd ref="421709350"/>
    <tag k="highway" v="residential"/>
    <tag k="name" v="Radian Road"/>
    <tag k="source" v="survey"/>
  </way>
  <way id="36105925" version="4" timestamp="2010-07-09T07:48:35Z" uid="74617" user="JohnSmith" changeset="5171569">
    <nd ref="421709349"/>
    <nd ref="421709381"/>
    <nd ref="421709382"/>
    <nd ref="421709383"/>
    <nd ref="421709384"/>
    <nd ref="421709385"/>
    <nd ref="421709350"/>
    <nd ref="421709367"/>
    <nd ref="421709366"/>
    <nd ref="421709365"/>
    <nd ref="421709359"/>
    <nd ref="421709356"/>
    <nd ref="421709354"/>
    <nd ref="421709352"/>
    <nd ref="421709351"/>
    <nd ref="421709217"/>
    <tag k="highway" v="residential"/>
    <tag k="maxspeed" v="50"/>
    <tag k="maxspeed:source" v="default residential speed limit in Australia"/>
    <tag k="name" v="Monument Drive"/>
    <tag k="source" v="survey"/>
  </way>
  <way id="36105925" version="5" timestamp="2012-01-18T23:19:16Z" uid="147510" user="woodpeck_fixbot" changeset="10431441">
    <nd ref="421709349"/>
    <nd ref="421709381"/>
    <nd ref="421709382"/>
    <nd ref="421709383"/>
    <nd ref="421709384"/>
    <nd ref="421709385"/>
    <nd ref="421709350"/>
    <nd ref="421709367"/>
    <nd ref="421709366"/>
    <nd ref="421709365"/>
    <nd ref="421709359"/>
    <nd ref="421709356"/>
    <nd ref="421709354"/>
    <nd ref="421709352"/>
    <nd ref="421709351"/>
    <nd ref="421709217"/>
    <tag k="highway" v="residential"/>
    <tag k="name" v="Monument Drive"/>
    <tag k="source" v="survey"/>
  </way>
  <way id="36105926" version="4" timestamp="2010-07-09T07:44:02Z" uid="74617" user="JohnSmith" changeset="5171569">
    <nd ref="421709366"/>
    <nd ref="421709368"/>
    <tag k="highway" v="residential"/>
    <tag k="maxspeed" v="50"/>
    <tag k="maxspeed:source" v="default residential speed limit in Australia"/>
    <tag k="name" v="Arc Place"/>
    <tag k="source" v="survey"/>
  </way>
  <way id="36105926" version="5" timestamp="2012-01-18T23:19:18Z" uid="147510" user="woodpeck_fixbot" changeset="10431441">
    <nd ref="421709366"/>
    <nd ref="421709368"/>
    <tag k="highway" v="residential"/>
    <tag k="name" v="Arc Place"/>
    <tag k="source" v="survey"/>
  </way>
  <way id="36105927" version="4" timestamp="2010-07-09T07:53:05Z" uid="74617" user="JohnSmith" changeset="5171569">
    <nd ref="421709352"/>
    <nd ref="421709369"/>
    <tag k="highway" v="residential"/>
    <tag k="maxspeed" v="50"/>
    <tag k="maxspeed:source" v="default residential speed limit in Australia"/>
    <tag k="name" v="Graphic Court"/>
    <tag k="source" v="survey"/>
  </way>
  <way id="36105927" version="5" timestamp="2012-01-18T23:19:19Z" uid="147510" user="woodpeck_fixbot" changeset="10431441">
    <nd ref="421709352"/>
    <nd ref="421709369"/>
    <tag k="highway" v="residential"/>
    <tag k="name" v="Graphic Court"/>
    <tag k="source" v="survey"/>
  </way>
  <way id="36105928" version="4" timestamp="2010-07-09T07:52:25Z" uid="74617" user="JohnSmith" changeset="5171569">
    <nd ref="421709347"/>
    <nd ref="421709377"/>
    <tag k="highway" v="residential"/>
    <tag k="maxspeed" v="50"/>
    <tag k="maxspeed:source" v="default residential speed limit in Australia"/>
    <tag k="name" v="Staff Court"/>
    <tag k="source" v="survey"/>
  </way>
  <way id="36105928" version="5" timestamp="2012-01-18T23:19:21Z" uid="147510" user="woodpeck_fixbot" changeset="10431441">
    <nd ref="421709347"/>
    <nd ref="421709377"/>
    <tag k="highway" v="residential"/>
    <tag k="name" v="Staff Court"/>
    <tag k="source" v="survey"/>
  </way>
  <way id="36105930" version="4" timestamp="2010-07-09T07:46:00Z" uid="74617" user="JohnSmith" changeset="5171569">
    <nd ref="421709383"/>
    <nd ref="421709389"/>
    <tag k="highway" v="residential"/>
    <tag k="maxspeed" v="50"/>
    <tag k="maxspeed:source" v="default residential speed limit in Australia"/>
    <tag k="name" v="Plane Court"/>
    <tag k="source" v="survey"/>
  </way>
  <way id="36105930" version="5" timestamp="2012-01-18T23:19:21Z" uid="147510" user="woodpeck_fixbot" changeset="10431441">
    <nd ref="421709383"/>
    <nd ref="421709389"/>
    <tag k="highway" v="residential"/>
    <tag k="name" v="Plane Court"/>
    <tag k="source" v="survey"/>
  </way>
  <way id="36105931" version="4" timestamp="2010-07-09T07:43:16Z" uid="74617" user="JohnSmith" changeset="5171569">
    <nd ref="421709314"/>
    <nd ref="421709394"/>
    <nd ref="421709396"/>
    <tag k="highway" v="residential"/>
    <tag k="maxspeed" v="50"/>
    <tag k="maxspeed:source" v="default residential speed limit in Australia"/>
    <tag k="name" v="Coma Place"/>
    <tag k="source" v="survey"/>
  </way>
  <way id="36105931" version="5" timestamp="2012-01-18T23:19:23Z" uid="147510" user="woodpeck_fixbot" changeset="10431441">
    <nd ref="421709314"/>
    <nd ref="421709394"/>
    <nd ref="421709396"/>
    <tag k="highway" v="residential"/>
    <tag k="name" v="Coma Place"/>
    <tag k="source" v="survey"/>
  </way>
  <way id="36105932" version="4" timestamp="2010-07-09T07:53:50Z" uid="74617" user="JohnSmith" changeset="5171569">
    <nd ref="421709319"/>
    <nd ref="421709398"/>
    <nd ref="421709399"/>
    <nd ref="421709400"/>
    <nd ref="421709401"/>
    <nd ref="421709403"/>
    <nd ref="421709405"/>
    <nd ref="421709408"/>
    <nd ref="421709410"/>
    <nd ref="421709413"/>
    <nd ref="421709305"/>
    <tag k="highway" v="residential"/>
    <tag k="maxspeed" v="50"/>
    <tag k="maxspeed:source" v="default residential speed limit in Australia"/>
    <tag k="name" v="Lateral Loop"/>
    <tag k="surface" v="paved"/>
  </way>
  <way id="36105932" version="5" timestamp="2012-01-18T23:19:24Z" uid="147510" user="woodpeck_fixbot" changeset="10431441">
    <nd ref="421709319"/>
    <nd ref="421709398"/>
    <nd ref="421709399"/>
    <nd ref="421709400"/>
    <nd ref="421709401"/>
    <nd ref="421709403"/>
    <nd ref="421709405"/>
    <nd ref="421709408"/>
    <nd ref="421709410"/>
    <nd ref="421709413"/>
    <nd ref="421709305"/>
    <tag k="highway" v="residential"/>
    <tag k="name" v="Lateral Loop"/>
    <tag k="surface" v="paved"/>
  </way>
  <way id="36105933" version="4" timestamp="2010-07-09T07:51:48Z" uid="74617" user="JohnSmith" changeset="5171569">
    <nd ref="421709401"/>
    <nd ref="421709416"/>
    <tag k="highway" v="residential"/>
    <tag k="maxspeed" v="50"/>
    <tag k="maxspeed:source" v="default residential speed limit in Australia"/>
    <tag k="name" v="Grid Court"/>
    <tag k="source" v="survey"/>
  </way>
  <way id="36105933" version="5" timestamp="2012-01-18T23:19:25Z" uid="147510" user="woodpeck_fixbot" changeset="10431441">
    <nd ref="421709401"/>
    <nd ref="421709416"/>
    <tag k="highway" v="residential"/>
    <tag k="name" v="Grid Court"/>
    <tag k="source" v="survey"/>
  </way>
  <way id="36105934" version="4" timestamp="2010-07-09T07:47:55Z" uid="74617" user="JohnSmith" changeset="5171569">
    <nd ref="421708740"/>
    <nd ref="421709417"/>
    <tag k="highway" v="residential"/>
    <tag k="maxspeed" v="50"/>
    <tag k="maxspeed:source" v="default residential speed limit in Australia"/>
    <tag k="name" v="Odessa Place"/>
    <tag k="source" v="survey"/>
  </way>
  <way id="36105934" version="5" timestamp="2012-01-18T23:19:25Z" uid="147510" user="woodpeck_fixbot" changeset="10431441">
    <nd ref="421708740"/>
    <nd ref="421709417"/>
    <tag k="highway" v="residential"/>
    <tag k="name" v="Odessa Place"/>
    <tag k="source" v="survey"/>
  </way>
  <way id="36105936" version="4" timestamp="2010-07-09T07:53:14Z" uid="74617" user="JohnSmith" changeset="5171569">
    <nd ref="421709425"/>
    <nd ref="421709449"/>
    <tag k="highway" v="residential"/>
    <tag k="maxspeed" v="50"/>
    <tag k="maxspeed:source" v="default residential speed limit in Australia"/>
    <tag k="name" v="Milton Court"/>
    <tag k="source" v="survey"/>
  </way>
  <way id="36105936" version="5" timestamp="2012-01-18T23:19:26Z" uid="147510" user="woodpeck_fixbot" changeset="10431441">
    <nd ref="421709425"/>
    <nd ref="421709449"/>
    <tag k="highway" v="residential"/>
    <tag k="name" v="Milton Court"/>
    <tag k="source" v="survey"/>
  </way>
  <way id="36105937" version="4" timestamp="2010-07-09T07:51:09Z" uid="74617" user="JohnSmith" changeset="5171569">
    <nd ref="421709429"/>
    <nd ref="421709451"/>
    <tag k="highway" v="residential"/>
    <tag k="maxspeed" v="50"/>
    <tag k="maxspeed:source" v="default residential speed limit in Australia"/>
    <tag k="name" v="Margery Close"/>
    <tag k="source" v="survey"/>
  </way>
  <way id="36105937" version="5" timestamp="2012-01-18T23:19:27Z" uid="147510" user="woodpeck_fixbot" changeset="10431441">
    <nd ref="421709429"/>
    <nd ref="421709451"/>
    <tag k="highway" v="residential"/>
    <tag k="name" v="Margery Close"/>
    <tag k="source" v="survey"/>
  </way>
  <way id="36105939" version="4" timestamp="2010-07-09T07:44:19Z" uid="74617" user="JohnSmith" changeset="5171569">
    <nd ref="315197622"/>
    <nd ref="421709458"/>
    <nd ref="421709460"/>
    <nd ref="421709463"/>
    <nd ref="421709465"/>
    <nd ref="421709468"/>
    <nd ref="421709470"/>
    <nd ref="421709471"/>
    <nd ref="421709433"/>
    <tag k="highway" v="residential"/>
    <tag k="maxspeed" v="50"/>
    <tag k="maxspeed:source" v="default residential speed limit in Australia"/>
    <tag k="name" v="Cumberland Way"/>
    <tag k="source" v="survey"/>
  </way>
  <way id="36105939" version="5" timestamp="2012-01-18T23:19:28Z" uid="147510" user="woodpeck_fixbot" changeset="10431441">
    <nd ref="315197622"/>
    <nd ref="421709458"/>
    <nd ref="421709460"/>
    <nd ref="421709463"/>
    <nd ref="421709465"/>
    <nd ref="421709468"/>
    <nd ref="421709470"/>
    <nd ref="421709471"/>
    <nd ref="421709433"/>
    <tag k="highway" v="residential"/>
    <tag k="name" v="Cumberland Way"/>
    <tag k="source" v="survey"/>
  </way>
  <way id="36105940" version="4" timestamp="2010-07-09T07:43:32Z" uid="74617" user="JohnSmith" changeset="5171569">
    <nd ref="421709463"/>
    <nd ref="421709473"/>
    <tag k="highway" v="residential"/>
    <tag k="maxspeed" v="50"/>
    <tag k="maxspeed:source" v="default residential speed limit in Australia"/>
    <tag k="name" v="Ham Close"/>
    <tag k="source" v="survey"/>
  </way>
  <way id="36105940" version="5" timestamp="2012-01-18T23:19:30Z" uid="147510" user="woodpeck_fixbot" changeset="10431441">
    <nd ref="421709463"/>
    <nd ref="421709473"/>
    <tag k="highway" v="residential"/>
    <tag k="name" v="Ham Close"/>
    <tag k="source" v="survey"/>
  </way>
  <way id="36105941" version="4" timestamp="2010-07-09T07:52:40Z" uid="74617" user="JohnSmith" changeset="5171569">
    <nd ref="421709470"/>
    <nd ref="421709478"/>
    <tag k="highway" v="residential"/>
    <tag k="maxspeed" v="50"/>
    <tag k="maxspeed:source" v="default residential speed limit in Australia"/>
    <tag k="name" v="Greengate Court"/>
    <tag k="source" v="survey"/>
  </way>
  <way id="36105941" version="5" timestamp="2012-01-18T23:19:30Z" uid="147510" user="woodpeck_fixbot" changeset="10431441">
    <nd ref="421709470"/>
    <nd ref="421709478"/>
    <tag k="highway" v="residential"/>
    <tag k="name" v="Greengate Court"/>
    <tag k="source" v="survey"/>
  </way>
  <way id="36105908" version="6" timestamp="2012-07-19T12:15:10Z" uid="722137" user="OSMF Redaction Account" changeset="12324118">
    <nd ref="421709180"/>
    <nd ref="421709182"/>
    <nd ref="421709185"/>
    <nd ref="421709111"/>
    <nd ref="421709188"/>
    <nd ref="421709189"/>
    <nd ref="421708742"/>
    <tag k="highway" v="residential"/>
    <tag k="name" v="Priscilla Avenue"/>
    <tag k="source" v="survey"/>
  </way>
  <way id="36105908" version="7" timestamp="2012-07-27T04:51:27Z" uid="134344" user="Andrew Gregory" changeset="12506728">
    <nd ref="1839440441"/>
    <nd ref="421709180"/>
    <nd ref="421709182"/>
    <nd ref="421709185"/>
    <nd ref="421709111"/>
    <nd ref="421709188"/>
    <nd ref="421709189"/>
    <nd ref="421708742"/>
    <tag k="highway" v="residential"/>
    <tag k="name" v="Priscilla Avenue"/>
    <tag k="source" v="survey"/>
  </way>
  <way id="36105932" version="6" timestamp="2012-07-19T12:16:25Z" uid="722137" user="OSMF Redaction Account" changeset="12324118">
    <nd ref="421709319"/>
    <nd ref="421709398"/>
    <nd ref="421709399"/>
    <nd ref="421709400"/>
    <nd ref="421709401"/>
    <nd ref="421709403"/>
    <nd ref="421709405"/>
    <nd ref="421709408"/>
    <nd ref="421709410"/>
    <nd ref="421709413"/>
    <nd ref="421709305"/>
    <tag k="highway" v="road"/>
  </way>
  <way id="36105932" version="7" timestamp="2012-07-22T17:10:35Z" uid="134344" user="Andrew Gregory" changeset="12436006">
    <nd ref="421709319"/>
    <nd ref="421709398"/>
    <nd ref="421709399"/>
    <nd ref="421709400"/>
    <nd ref="421709401"/>
    <nd ref="421709403"/>
    <nd ref="421709405"/>
    <nd ref="421709408"/>
    <nd ref="421709410"/>
    <nd ref="421709413"/>
    <nd ref="421709305"/>
    <tag k="highway" v="residential"/>
    <tag k="name" v="Lateral Loop"/>
    <tag k="source" v="Bing"/>
    <tag k="source:name" v="survey"/>
  </way>
</osm>
