<?xml version='1.0' encoding='UTF-8'?>
<osm version="0.6" generator="libosmium/2.20.0">
  <way id="36119182" version="1" timestamp="2009-06-16T16:56:43Z" uid="58091" user="Andreas M" changeset="1536834">
    <nd ref="76462908"/>
    <nd ref="421827450"/>
    <tag k="highway" v="residential"/>
    <tag k="name" v="Am Kanal"/>
  </way>
  <way id="36119182" version="2" timestamp="2012-03-05T14:36:57Z" uid="54806" user="_al" changeset="10880089">
    <nd ref="76462908"/>
    <nd ref="421827450"/>
    <tag k="highway" v="residential"/>
    <tag k="name" v="Am Kanal"/>
    <tag k="odbl" v="clean"/>
  </way>
  <way id="36119457" version="1" timestamp="2009-06-16T16:58:37Z" uid="36809" user="pfoten_weg_!_" changeset="1536851">
    <nd ref="421829156"/>
    <nd ref="421829158"/>
    <nd ref="421829159"/>
    <nd ref="421829161"/>
    <nd ref="421829156"/>
    <tag k="amenity" v="public_building"/>
    <tag k="created_by" v="RambaZamba"/>
    <tag k="layer" v="1"/>
    <tag k="leisure" v="sports_centre"/>
    <tag k="name" v="Golfclub Achensee"/>
    <tag k="source" v="survey"/>
    <tag k="sport" v="golf"/>
  </way>
  <way id="36119457" version="2" timestamp="2009-08-28T20:12:20Z" uid="156995" user="HampelZamba" changeset="2294580">
    <nd ref="421829156"/>
    <nd ref="421829158"/>
    <nd ref="421829159"/>
    <nd ref="421829161"/>
    <nd ref="421829156"/>
    <tag k="amenity" v="public_building"/>
    <tag k="layer" v="1"/>
    <tag k="leisure" v="sports_centre"/>
    <tag k="name" v="Golfclub Achensee"/>
    <tag k="source" v="survey"/>
    <tag k="sport" v="golf"/>
  </way>
  <way id="36119457" version="3" timestamp="2009-08-28T22:39:04Z" uid="36809" user="pfoten_weg_!_" changeset="2295972">
    <nd ref="421829156"/>
    <nd ref="421829158"/>
    <nd ref="421829159"/>
    <nd ref="421829161"/>
    <nd ref="421829156"/>
    <tag k="amenity" v="public_building"/>
    <tag k="discovered_by" v="RambaZamba"/>
    <tag k="layer" v="1"/>
    <tag k="leisure" v="sports_centre"/>
    <tag k="name" v="Golfclub Achensee"/>
    <tag k="source" v="survey"/>
    <tag k="sport" v="golf"/>
  </way>
  <way id="36119457" version="4" timestamp="2009-08-30T09:37:27Z" uid="156995" user="HampelZamba" changeset="2310659">
    <nd ref="421829156"/>
    <nd ref="421829158"/>
    <nd ref="421829159"/>
    <nd ref="421829161"/>
    <nd ref="421829156"/>
    <tag k="amenity" v="public_building"/>
    <tag k="layer" v="1"/>
    <tag k="leisure" v="sports_centre"/>
    <tag k="name" v="Golfclub Achensee"/>
    <tag k="source" v="survey"/>
    <tag k="sport" v="golf"/>
  </way>
  <way id="36119457" version="5" timestamp="2009-08-31T12:04:11Z" uid="64924" user="leck_mich_alle_am_arsch" changeset="2325486">
    <nd ref="421829156"/>
    <nd ref="421829158"/>
    <nd ref="421829159"/>
    <nd ref="421829161"/>
    <nd ref="421829156"/>
    <tag k="amenity" v="public_building"/>
    <tag k="layer" v="1"/>
    <tag k="leisure" v="sports_centre"/>
    <tag k="name" v="Golfclub Achensee"/>
    <tag k="source" v="survey"/>
    <tag k="sport" v="golf"/>
  </way>
  <way id="36119457" version="6" timestamp="2009-10-15T18:07:43Z" uid="36809" user="pfoten_weg_!_" changeset="2857512">
    <nd ref="421829156"/>
    <nd ref="421829158"/>
    <nd ref="421829159"/>
    <nd ref="421829161"/>
    <nd ref="421829156"/>
    <tag k="amenity" v="public_building"/>
    <tag k="layer" v="1"/>
    <tag k="leisure" v="sports_centre"/>
    <tag k="name" v="Golfclub Achensee"/>
    <tag k="sport" v="golf"/>
  </way>
  <way id="36119457" version="7" timestamp="2011-08-27T17:10:08Z" uid="417684" user="Maler" changeset="9136986">
    <nd ref="421829156"/>
    <nd ref="421829158"/>
    <nd ref="1415028136"/>
    <nd ref="1415028145"/>
    <nd ref="1415028114"/>
    <nd ref="1415028110"/>
    <nd ref="421829159"/>
    <nd ref="421829161"/>
    <nd ref="421829156"/>
    <tag k="addr:city" v="Pertisau"/>
    <tag k="addr:country" v="AT"/>
    <tag k="addr:housename" v="Halle"/>
    <tag k="addr:housenumber" v="35C"/>
    <tag k="addr:postcode" v="6213"/>
    <tag k="addr:street" v="Eben/Pertisau"/>
    <tag k="amenity" v="public_building"/>
    <tag k="building" v="yes"/>
    <tag k="layer" v="1"/>
    <tag k="leisure" v="sports_centre"/>
    <tag k="name" v="Golfclub Achensee"/>
    <tag k="sport" v="golf"/>
  </way>
  <way id="36119457" version="8" timestamp="2011-10-09T12:05:28Z" uid="78656" user="Walter SchlÃ¶gl" changeset="9511331">
    <nd ref="421829156"/>
    <nd ref="421829158"/>
    <nd ref="1415028136"/>
    <nd ref="1415028145"/>
    <nd ref="1415028114"/>
    <nd ref="1415028110"/>
    <nd ref="421829159"/>
    <nd ref="421829161"/>
    <nd ref="421829156"/>
    <tag k="addr:city" v="Pertisau"/>
    <tag k="addr:country" v="AT"/>
    <tag k="addr:housename" v="Halle"/>
    <tag k="addr:housenumber" v="35C"/>
    <tag k="addr:postcode" v="6213"/>
    <tag k="addr:street" v="Eben/Pertisau"/>
    <tag k="amenity" v="public_building"/>
    <tag k="building" v="yes"/>
    <tag k="layer" v="1"/>
    <tag k="leisure" v="sports_centre"/>
    <tag k="name" v="Golfclub Achensee"/>
    <tag k="sport" v="multi"/>
  </way>
  <way id="36119457" version="9" timestamp="2012-02-01T23:33:43Z" uid="596973" user="korinthenfresser" changeset="10563625"/>
</osm>
