<?xml version='1.0' encoding='UTF-8'?>
<osm version="0.6" generator="libosmium/2.20.0">
  <way id="36233000" version="3" timestamp="2010-07-08T03:18:48Z" uid="74617" user="JohnSmith" changeset="5163091">
    <nd ref="422864295"/>
    <nd ref="422864280"/>
    <tag k="highway" v="residential"/>
    <tag k="maxspeed" v="50"/>
    <tag k="maxspeed:source" v="default residential speed limit in Australia"/>
    <tag k="name" v="John Tebbutt Place"/>
    <tag k="oneway" v="yes"/>
  </way>
  <way id="36233000" version="4" timestamp="2012-01-18T23:22:09Z" uid="147510" user="woodpeck_fixbot" changeset="10431441">
    <nd ref="422864295"/>
    <nd ref="422864280"/>
    <tag k="highway" v="residential"/>
    <tag k="name" v="John Tebbutt Place"/>
    <tag k="oneway" v="yes"/>
  </way>
  <way id="36233610" version="6" timestamp="2010-07-09T07:51:18Z" uid="74617" user="JohnSmith" changeset="5171569">
    <nd ref="33699486"/>
    <nd ref="422869823"/>
    <nd ref="422869824"/>
    <nd ref="422869826"/>
    <nd ref="422869827"/>
    <nd ref="422869828"/>
    <nd ref="422869829"/>
    <nd ref="422869830"/>
    <nd ref="422869832"/>
    <nd ref="422869833"/>
    <nd ref="422869834"/>
    <nd ref="422869836"/>
    <nd ref="422869837"/>
    <nd ref="422869818"/>
    <nd ref="695215070"/>
    <tag k="highway" v="residential"/>
    <tag k="maxspeed" v="50"/>
    <tag k="maxspeed:source" v="default residential speed limit in Australia"/>
    <tag k="name" v="Tiller Road"/>
    <tag k="source" v="survey"/>
  </way>
  <way id="36233610" version="7" timestamp="2012-01-18T23:22:11Z" uid="147510" user="woodpeck_fixbot" changeset="10431441">
    <nd ref="33699486"/>
    <nd ref="422869823"/>
    <nd ref="422869824"/>
    <nd ref="422869826"/>
    <nd ref="422869827"/>
    <nd ref="422869828"/>
    <nd ref="422869829"/>
    <nd ref="422869830"/>
    <nd ref="422869832"/>
    <nd ref="422869833"/>
    <nd ref="422869834"/>
    <nd ref="422869836"/>
    <nd ref="422869837"/>
    <nd ref="422869818"/>
    <nd ref="695215070"/>
    <tag k="highway" v="residential"/>
    <tag k="name" v="Tiller Road"/>
    <tag k="source" v="survey"/>
  </way>
  <way id="36233613" version="5" timestamp="2010-07-09T07:45:47Z" uid="74617" user="JohnSmith" changeset="5171569">
    <nd ref="422869826"/>
    <nd ref="422869841"/>
    <nd ref="422869843"/>
    <nd ref="614165112"/>
    <nd ref="422869844"/>
    <tag k="highway" v="residential"/>
    <tag k="maxspeed" v="50"/>
    <tag k="maxspeed:source" v="default residential speed limit in Australia"/>
    <tag k="name" v="Palari Road"/>
    <tag k="source" v="survey"/>
  </way>
  <way id="36233613" version="6" timestamp="2012-01-18T23:22:11Z" uid="147510" user="woodpeck_fixbot" changeset="10431441">
    <nd ref="422869826"/>
    <nd ref="422869841"/>
    <nd ref="422869843"/>
    <nd ref="614165112"/>
    <nd ref="422869844"/>
    <tag k="highway" v="residential"/>
    <tag k="name" v="Palari Road"/>
    <tag k="source" v="survey"/>
  </way>
  <way id="36233615" version="4" timestamp="2010-07-09T07:50:50Z" uid="74617" user="JohnSmith" changeset="5171569">
    <nd ref="422869827"/>
    <nd ref="422869846"/>
    <nd ref="422869848"/>
    <tag k="highway" v="residential"/>
    <tag k="maxspeed" v="50"/>
    <tag k="maxspeed:source" v="default residential speed limit in Australia"/>
    <tag k="name" v="Beam Road"/>
    <tag k="source" v="survey"/>
  </way>
  <way id="36233615" version="5" timestamp="2012-01-18T23:22:12Z" uid="147510" user="woodpeck_fixbot" changeset="10431441">
    <nd ref="422869827"/>
    <nd ref="422869846"/>
    <nd ref="422869848"/>
    <tag k="highway" v="residential"/>
    <tag k="name" v="Beam Road"/>
    <tag k="source" v="survey"/>
  </way>
  <way id="36233616" version="4" timestamp="2010-07-09T07:47:37Z" uid="74617" user="JohnSmith" changeset="5171569">
    <nd ref="422869829"/>
    <nd ref="422869849"/>
    <tag k="highway" v="residential"/>
    <tag k="maxspeed" v="50"/>
    <tag k="maxspeed:source" v="default residential speed limit in Australia"/>
    <tag k="name" v="Gemini Rise"/>
    <tag k="source" v="survey"/>
  </way>
  <way id="36233616" version="5" timestamp="2012-01-18T23:22:13Z" uid="147510" user="woodpeck_fixbot" changeset="10431441">
    <nd ref="422869829"/>
    <nd ref="422869849"/>
    <tag k="highway" v="residential"/>
    <tag k="name" v="Gemini Rise"/>
    <tag k="source" v="survey"/>
  </way>
  <way id="36233618" version="5" timestamp="2010-07-09T07:52:02Z" uid="74617" user="JohnSmith" changeset="5171569">
    <nd ref="422869850"/>
    <nd ref="614165115"/>
    <nd ref="422869849"/>
    <nd ref="422869851"/>
    <tag k="highway" v="residential"/>
    <tag k="maxspeed" v="50"/>
    <tag k="maxspeed:source" v="default residential speed limit in Australia"/>
    <tag k="name" v="Gemini Rise"/>
    <tag k="source" v="survey"/>
  </way>
  <way id="36233618" version="6" timestamp="2012-01-18T23:22:14Z" uid="147510" user="woodpeck_fixbot" changeset="10431441">
    <nd ref="422869850"/>
    <nd ref="614165115"/>
    <nd ref="422869849"/>
    <nd ref="422869851"/>
    <tag k="highway" v="residential"/>
    <tag k="name" v="Gemini Rise"/>
    <tag k="source" v="survey"/>
  </way>
  <way id="36233621" version="5" timestamp="2010-07-09T07:46:49Z" uid="74617" user="JohnSmith" changeset="5171569">
    <nd ref="422869833"/>
    <nd ref="614165117"/>
    <nd ref="422869852"/>
    <tag k="highway" v="residential"/>
    <tag k="maxspeed" v="50"/>
    <tag k="maxspeed:source" v="default residential speed limit in Australia"/>
    <tag k="name" v="Trapeze Court"/>
    <tag k="source" v="survey"/>
  </way>
  <way id="36233621" version="6" timestamp="2012-01-18T23:22:15Z" uid="147510" user="woodpeck_fixbot" changeset="10431441">
    <nd ref="422869833"/>
    <nd ref="614165117"/>
    <nd ref="422869852"/>
    <tag k="highway" v="residential"/>
    <tag k="name" v="Trapeze Court"/>
    <tag k="source" v="survey"/>
  </way>
  <way id="36233623" version="5" timestamp="2010-07-09T07:51:31Z" uid="74617" user="JohnSmith" changeset="5171569">
    <nd ref="422869834"/>
    <nd ref="422869854"/>
    <nd ref="614162520"/>
    <nd ref="422869855"/>
    <tag k="highway" v="residential"/>
    <tag k="maxspeed" v="50"/>
    <tag k="maxspeed:source" v="default residential speed limit in Australia"/>
    <tag k="name" v="Mizzen Place"/>
    <tag k="source" v="survey"/>
  </way>
  <way id="36233623" version="6" timestamp="2012-01-18T23:22:16Z" uid="147510" user="woodpeck_fixbot" changeset="10431441">
    <nd ref="422869834"/>
    <nd ref="422869854"/>
    <nd ref="614162520"/>
    <nd ref="422869855"/>
    <tag k="highway" v="residential"/>
    <tag k="name" v="Mizzen Place"/>
    <tag k="source" v="survey"/>
  </way>
  <way id="36233627" version="4" timestamp="2010-07-09T07:53:06Z" uid="74617" user="JohnSmith" changeset="5171569">
    <nd ref="422869836"/>
    <nd ref="422869857"/>
    <nd ref="422869859"/>
    <nd ref="422869860"/>
    <nd ref="422869862"/>
    <nd ref="422869863"/>
    <nd ref="422869865"/>
    <nd ref="422869866"/>
    <nd ref="422869869"/>
    <nd ref="422869870"/>
    <nd ref="422869769"/>
    <tag k="highway" v="residential"/>
    <tag k="maxspeed" v="50"/>
    <tag k="maxspeed:source" v="default residential speed limit in Australia"/>
    <tag k="name" v="Weldwood Road"/>
    <tag k="source" v="survey"/>
  </way>
  <way id="36233627" version="5" timestamp="2012-01-18T23:22:17Z" uid="147510" user="woodpeck_fixbot" changeset="10431441">
    <nd ref="422869836"/>
    <nd ref="422869857"/>
    <nd ref="422869859"/>
    <nd ref="422869860"/>
    <nd ref="422869862"/>
    <nd ref="422869863"/>
    <nd ref="422869865"/>
    <nd ref="422869866"/>
    <nd ref="422869869"/>
    <nd ref="422869870"/>
    <nd ref="422869769"/>
    <tag k="highway" v="residential"/>
    <tag k="name" v="Weldwood Road"/>
    <tag k="source" v="survey"/>
  </way>
  <way id="36233629" version="4" timestamp="2010-07-09T07:50:22Z" uid="74617" user="JohnSmith" changeset="5171569">
    <nd ref="422869869"/>
    <nd ref="422869872"/>
    <nd ref="422869874"/>
    <tag k="highway" v="residential"/>
    <tag k="maxspeed" v="50"/>
    <tag k="maxspeed:source" v="default residential speed limit in Australia"/>
    <tag k="name" v="Thimble Court"/>
    <tag k="source" v="survey"/>
  </way>
  <way id="36233629" version="5" timestamp="2012-01-18T23:22:18Z" uid="147510" user="woodpeck_fixbot" changeset="10431441">
    <nd ref="422869869"/>
    <nd ref="422869872"/>
    <nd ref="422869874"/>
    <tag k="highway" v="residential"/>
    <tag k="name" v="Thimble Court"/>
    <tag k="source" v="survey"/>
  </way>
  <way id="36233631" version="4" timestamp="2010-07-09T07:43:18Z" uid="74617" user="JohnSmith" changeset="5171569">
    <nd ref="422869870"/>
    <nd ref="422869876"/>
    <tag k="highway" v="residential"/>
    <tag k="maxspeed" v="50"/>
    <tag k="maxspeed:source" v="default residential speed limit in Australia"/>
    <tag k="name" v="Dowel Court"/>
    <tag k="source" v="survey"/>
  </way>
  <way id="36233631" version="5" timestamp="2012-01-18T23:22:19Z" uid="147510" user="woodpeck_fixbot" changeset="10431441">
    <nd ref="422869870"/>
    <nd ref="422869876"/>
    <tag k="highway" v="residential"/>
    <tag k="name" v="Dowel Court"/>
    <tag k="source" v="survey"/>
  </way>
  <way id="36233635" version="4" timestamp="2010-07-09T07:48:05Z" uid="74617" user="JohnSmith" changeset="5171569">
    <nd ref="422869865"/>
    <nd ref="422869878"/>
    <nd ref="422869880"/>
    <nd ref="422869881"/>
    <nd ref="422869883"/>
    <nd ref="422869884"/>
    <nd ref="422869886"/>
    <nd ref="422869887"/>
    <nd ref="33699492"/>
    <tag k="highway" v="residential"/>
    <tag k="maxspeed" v="50"/>
    <tag k="maxspeed:source" v="default residential speed limit in Australia"/>
    <tag k="name" v="Clinker Road"/>
    <tag k="source" v="survey"/>
  </way>
  <way id="36233635" version="5" timestamp="2012-01-18T23:22:19Z" uid="147510" user="woodpeck_fixbot" changeset="10431441">
    <nd ref="422869865"/>
    <nd ref="422869878"/>
    <nd ref="422869880"/>
    <nd ref="422869881"/>
    <nd ref="422869883"/>
    <nd ref="422869884"/>
    <nd ref="422869886"/>
    <nd ref="422869887"/>
    <nd ref="33699492"/>
    <tag k="highway" v="residential"/>
    <tag k="name" v="Clinker Road"/>
    <tag k="source" v="survey"/>
  </way>
  <way id="36233637" version="4" timestamp="2010-07-09T07:44:45Z" uid="74617" user="JohnSmith" changeset="5171569">
    <nd ref="422869878"/>
    <nd ref="422869889"/>
    <nd ref="422869890"/>
    <tag k="highway" v="residential"/>
    <tag k="maxspeed" v="50"/>
    <tag k="maxspeed:source" v="default residential speed limit in Australia"/>
    <tag k="name" v="Carvel Place"/>
    <tag k="source" v="survey"/>
  </way>
  <way id="36233637" version="5" timestamp="2012-01-18T23:22:20Z" uid="147510" user="woodpeck_fixbot" changeset="10431441">
    <nd ref="422869878"/>
    <nd ref="422869889"/>
    <nd ref="422869890"/>
    <tag k="highway" v="residential"/>
    <tag k="name" v="Carvel Place"/>
    <tag k="source" v="survey"/>
  </way>
  <way id="36233639" version="4" timestamp="2010-07-09T07:49:49Z" uid="74617" user="JohnSmith" changeset="5171569">
    <nd ref="422869889"/>
    <nd ref="422869892"/>
    <tag k="highway" v="residential"/>
    <tag k="maxspeed" v="50"/>
    <tag k="maxspeed:source" v="default residential speed limit in Australia"/>
    <tag k="name" v="Crew Court"/>
    <tag k="source" v="survey"/>
  </way>
  <way id="36233639" version="5" timestamp="2012-01-18T23:22:21Z" uid="147510" user="woodpeck_fixbot" changeset="10431441">
    <nd ref="422869889"/>
    <nd ref="422869892"/>
    <tag k="highway" v="residential"/>
    <tag k="name" v="Crew Court"/>
    <tag k="source" v="survey"/>
  </way>
  <way id="36233642" version="4" timestamp="2010-07-09T07:53:31Z" uid="74617" user="JohnSmith" changeset="5171569">
    <nd ref="422869859"/>
    <nd ref="422869894"/>
    <nd ref="422869896"/>
    <tag k="highway" v="residential"/>
    <tag k="maxspeed" v="50"/>
    <tag k="maxspeed:source" v="default residential speed limit in Australia"/>
    <tag k="name" v="Sunbird Place"/>
    <tag k="source" v="survey"/>
  </way>
  <way id="36233642" version="5" timestamp="2012-01-18T23:22:22Z" uid="147510" user="woodpeck_fixbot" changeset="10431441">
    <nd ref="422869859"/>
    <nd ref="422869894"/>
    <nd ref="422869896"/>
    <tag k="highway" v="residential"/>
    <tag k="name" v="Sunbird Place"/>
    <tag k="source" v="survey"/>
  </way>
  <way id="36233643" version="4" timestamp="2010-07-09T07:51:25Z" uid="74617" user="JohnSmith" changeset="5171569">
    <nd ref="422869881"/>
    <nd ref="422869898"/>
    <tag k="highway" v="residential"/>
    <tag k="maxspeed" v="50"/>
    <tag k="maxspeed:source" v="default residential speed limit in Australia"/>
    <tag k="name" v="Furl Court"/>
    <tag k="source" v="survey"/>
  </way>
  <way id="36233643" version="5" timestamp="2012-01-18T23:22:23Z" uid="147510" user="woodpeck_fixbot" changeset="10431441">
    <nd ref="422869881"/>
    <nd ref="422869898"/>
    <tag k="highway" v="residential"/>
    <tag k="name" v="Furl Court"/>
    <tag k="source" v="survey"/>
  </way>
  <way id="36233646" version="5" timestamp="2010-07-09T07:43:58Z" uid="74617" user="JohnSmith" changeset="5171569">
    <nd ref="422869884"/>
    <nd ref="422869900"/>
    <nd ref="422869901"/>
    <tag k="highway" v="residential"/>
    <tag k="maxspeed" v="50"/>
    <tag k="maxspeed:source" v="default residential speed limit in Australia"/>
    <tag k="name" v="Rig Court"/>
    <tag k="source" v="survey"/>
  </way>
  <way id="36233646" version="6" timestamp="2012-01-18T23:22:23Z" uid="147510" user="woodpeck_fixbot" changeset="10431441">
    <nd ref="422869884"/>
    <nd ref="422869900"/>
    <nd ref="422869901"/>
    <tag k="highway" v="residential"/>
    <tag k="name" v="Rig Court"/>
    <tag k="source" v="survey"/>
  </way>
  <way id="36233648" version="4" timestamp="2010-07-09T07:50:09Z" uid="74617" user="JohnSmith" changeset="5171569">
    <nd ref="422869887"/>
    <nd ref="422869903"/>
    <nd ref="422869904"/>
    <tag k="highway" v="residential"/>
    <tag k="maxspeed" v="50"/>
    <tag k="maxspeed:source" v="default residential speed limit in Australia"/>
    <tag k="name" v="Keel Place"/>
    <tag k="source" v="survey"/>
  </way>
  <way id="36233648" version="5" timestamp="2012-01-18T23:22:24Z" uid="147510" user="woodpeck_fixbot" changeset="10431441">
    <nd ref="422869887"/>
    <nd ref="422869903"/>
    <nd ref="422869904"/>
    <tag k="highway" v="residential"/>
    <tag k="name" v="Keel Place"/>
    <tag k="source" v="survey"/>
  </way>
  <way id="36233654" version="4" timestamp="2010-07-09T07:45:03Z" uid="74617" user="JohnSmith" changeset="5171569">
    <nd ref="422869832"/>
    <nd ref="422869908"/>
    <nd ref="422869909"/>
    <nd ref="422869910"/>
    <nd ref="422869911"/>
    <nd ref="422869912"/>
    <nd ref="422869913"/>
    <nd ref="422869815"/>
    <tag k="highway" v="residential"/>
    <tag k="maxspeed" v="50"/>
    <tag k="maxspeed:source" v="default residential speed limit in Australia"/>
    <tag k="name" v="Spinnaker Drive"/>
    <tag k="source" v="survey"/>
  </way>
  <way id="36233654" version="5" timestamp="2012-01-18T23:22:25Z" uid="147510" user="woodpeck_fixbot" changeset="10431441">
    <nd ref="422869832"/>
    <nd ref="422869908"/>
    <nd ref="422869909"/>
    <nd ref="422869910"/>
    <nd ref="422869911"/>
    <nd ref="422869912"/>
    <nd ref="422869913"/>
    <nd ref="422869815"/>
    <tag k="highway" v="residential"/>
    <tag k="name" v="Spinnaker Drive"/>
    <tag k="source" v="survey"/>
  </way>
  <way id="36233658" version="5" timestamp="2010-07-09T07:47:02Z" uid="74617" user="JohnSmith" changeset="5171569">
    <nd ref="422869909"/>
    <nd ref="422869914"/>
    <nd ref="614162527"/>
    <nd ref="422869915"/>
    <nd ref="422869916"/>
    <nd ref="422869917"/>
    <nd ref="422869918"/>
    <nd ref="614162582"/>
    <nd ref="422869920"/>
    <nd ref="422869921"/>
    <nd ref="422869923"/>
    <nd ref="422869912"/>
    <tag k="highway" v="residential"/>
    <tag k="maxspeed" v="50"/>
    <tag k="maxspeed:source" v="default residential speed limit in Australia"/>
    <tag k="name" v="Windward Loop"/>
    <tag k="source" v="survey"/>
  </way>
  <way id="36233658" version="6" timestamp="2012-01-18T23:22:26Z" uid="147510" user="woodpeck_fixbot" changeset="10431441">
    <nd ref="422869909"/>
    <nd ref="422869914"/>
    <nd ref="614162527"/>
    <nd ref="422869915"/>
    <nd ref="422869916"/>
    <nd ref="422869917"/>
    <nd ref="422869918"/>
    <nd ref="614162582"/>
    <nd ref="422869920"/>
    <nd ref="422869921"/>
    <nd ref="422869923"/>
    <nd ref="422869912"/>
    <tag k="highway" v="residential"/>
    <tag k="name" v="Windward Loop"/>
    <tag k="source" v="survey"/>
  </way>
  <way id="36233660" version="4" timestamp="2010-07-09T07:43:28Z" uid="74617" user="JohnSmith" changeset="5171569">
    <nd ref="422869921"/>
    <nd ref="422869924"/>
    <nd ref="422869926"/>
    <tag k="highway" v="residential"/>
    <tag k="maxspeed" v="50"/>
    <tag k="maxspeed:source" v="default residential speed limit in Australia"/>
    <tag k="name" v="Galley Place"/>
    <tag k="source" v="survey"/>
  </way>
  <way id="36233660" version="5" timestamp="2012-01-18T23:22:28Z" uid="147510" user="woodpeck_fixbot" changeset="10431441">
    <nd ref="422869921"/>
    <nd ref="422869924"/>
    <nd ref="422869926"/>
    <tag k="highway" v="residential"/>
    <tag k="name" v="Galley Place"/>
    <tag k="source" v="survey"/>
  </way>
  <way id="36233661" version="5" timestamp="2010-07-09T07:52:38Z" uid="74617" user="JohnSmith" changeset="5171569">
    <nd ref="422869911"/>
    <nd ref="422869928"/>
    <nd ref="614162590"/>
    <nd ref="422869929"/>
    <tag k="highway" v="residential"/>
    <tag k="maxspeed" v="50"/>
    <tag k="maxspeed:source" v="default residential speed limit in Australia"/>
    <tag k="name" v="Yardarm Court"/>
    <tag k="source" v="survey"/>
  </way>
  <way id="36233661" version="6" timestamp="2012-01-18T23:22:28Z" uid="147510" user="woodpeck_fixbot" changeset="10431441">
    <nd ref="422869911"/>
    <nd ref="422869928"/>
    <nd ref="614162590"/>
    <nd ref="422869929"/>
    <tag k="highway" v="residential"/>
    <tag k="name" v="Yardarm Court"/>
    <tag k="source" v="survey"/>
  </way>
  <way id="36233662" version="4" timestamp="2010-07-09T07:48:46Z" uid="74617" user="JohnSmith" changeset="5171569">
    <nd ref="422869910"/>
    <nd ref="422869931"/>
    <nd ref="422869932"/>
    <nd ref="422869934"/>
    <nd ref="422869936"/>
    <nd ref="422869848"/>
    <nd ref="422869937"/>
    <nd ref="422869938"/>
    <nd ref="422869813"/>
    <tag k="highway" v="residential"/>
    <tag k="maxspeed" v="50"/>
    <tag k="maxspeed:source" v="default residential speed limit in Australia"/>
    <tag k="name" v="Cockpit Way"/>
    <tag k="source" v="survey"/>
  </way>
  <way id="36233662" version="5" timestamp="2012-01-18T23:22:29Z" uid="147510" user="woodpeck_fixbot" changeset="10431441">
    <nd ref="422869910"/>
    <nd ref="422869931"/>
    <nd ref="422869932"/>
    <nd ref="422869934"/>
    <nd ref="422869936"/>
    <nd ref="422869848"/>
    <nd ref="422869937"/>
    <nd ref="422869938"/>
    <nd ref="422869813"/>
    <tag k="highway" v="residential"/>
    <tag k="name" v="Cockpit Way"/>
    <tag k="source" v="survey"/>
  </way>
  <way id="36233663" version="4" timestamp="2010-07-09T07:46:12Z" uid="74617" user="JohnSmith" changeset="5171569">
    <nd ref="422869932"/>
    <nd ref="422869940"/>
    <tag k="highway" v="residential"/>
    <tag k="maxspeed" v="50"/>
    <tag k="maxspeed:source" v="default residential speed limit in Australia"/>
    <tag k="name" v="Job Court"/>
    <tag k="source" v="survey"/>
  </way>
  <way id="36233663" version="5" timestamp="2012-01-18T23:22:30Z" uid="147510" user="woodpeck_fixbot" changeset="10431441">
    <nd ref="422869932"/>
    <nd ref="422869940"/>
    <tag k="highway" v="residential"/>
    <tag k="name" v="Job Court"/>
    <tag k="source" v="survey"/>
  </way>
  <way id="36233664" version="4" timestamp="2010-07-09T07:48:17Z" uid="74617" user="JohnSmith" changeset="5171569">
    <nd ref="422869938"/>
    <nd ref="422869942"/>
    <nd ref="422869943"/>
    <tag k="highway" v="residential"/>
    <tag k="maxspeed" v="50"/>
    <tag k="maxspeed:source" v="default residential speed limit in Australia"/>
    <tag k="name" v="Mast Place"/>
    <tag k="source" v="survey"/>
  </way>
  <way id="36233664" version="5" timestamp="2012-01-18T23:22:31Z" uid="147510" user="woodpeck_fixbot" changeset="10431441">
    <nd ref="422869938"/>
    <nd ref="422869942"/>
    <nd ref="422869943"/>
    <tag k="highway" v="residential"/>
    <tag k="name" v="Mast Place"/>
    <tag k="source" v="survey"/>
  </way>
  <way id="36233665" version="3" timestamp="2010-07-09T07:45:43Z" uid="74617" user="JohnSmith" changeset="5171569">
    <nd ref="33699442"/>
    <nd ref="422869944"/>
    <nd ref="422869946"/>
    <tag k="highway" v="residential"/>
    <tag k="maxspeed" v="50"/>
    <tag k="maxspeed:source" v="default residential speed limit in Australia"/>
    <tag k="name" v="Sabot Place"/>
    <tag k="source" v="survey"/>
  </way>
  <way id="36233665" version="4" timestamp="2012-01-18T23:22:31Z" uid="147510" user="woodpeck_fixbot" changeset="10431441">
    <nd ref="33699442"/>
    <nd ref="422869944"/>
    <nd ref="422869946"/>
    <tag k="highway" v="residential"/>
    <tag k="name" v="Sabot Place"/>
    <tag k="source" v="survey"/>
  </way>
  <way id="36233667" version="5" timestamp="2010-07-09T07:50:43Z" uid="74617" user="JohnSmith" changeset="5171569">
    <nd ref="422869780"/>
    <nd ref="422869948"/>
    <nd ref="614162659"/>
    <nd ref="422869949"/>
    <nd ref="422869950"/>
    <tag k="highway" v="residential"/>
    <tag k="maxspeed" v="50"/>
    <tag k="maxspeed:source" v="default residential speed limit in Australia"/>
    <tag k="name" v="Dinghy Place"/>
    <tag k="source" v="survey"/>
  </way>
  <way id="36233667" version="6" timestamp="2012-01-18T23:22:32Z" uid="147510" user="woodpeck_fixbot" changeset="10431441">
    <nd ref="422869780"/>
    <nd ref="422869948"/>
    <nd ref="614162659"/>
    <nd ref="422869949"/>
    <nd ref="422869950"/>
    <tag k="highway" v="residential"/>
    <tag k="name" v="Dinghy Place"/>
    <tag k="source" v="survey"/>
  </way>
  <way id="36233668" version="4" timestamp="2010-07-09T07:50:02Z" uid="74617" user="JohnSmith" changeset="5171569">
    <nd ref="33699435"/>
    <nd ref="422869952"/>
    <tag k="highway" v="residential"/>
    <tag k="maxspeed" v="50"/>
    <tag k="maxspeed:source" v="default residential speed limit in Australia"/>
    <tag k="name" v="Ketch Close"/>
    <tag k="source" v="survey"/>
  </way>
  <way id="36233668" version="5" timestamp="2012-01-18T23:22:33Z" uid="147510" user="woodpeck_fixbot" changeset="10431441">
    <nd ref="33699435"/>
    <nd ref="422869952"/>
    <tag k="highway" v="residential"/>
    <tag k="name" v="Ketch Close"/>
    <tag k="source" v="survey"/>
  </way>
  <way id="36233670" version="4" timestamp="2010-07-09T07:42:52Z" uid="74617" user="JohnSmith" changeset="5171569">
    <nd ref="33699436"/>
    <nd ref="422869954"/>
    <nd ref="422869955"/>
    <tag k="highway" v="residential"/>
    <tag k="maxspeed" v="50"/>
    <tag k="maxspeed:source" v="default residential speed limit in Australia"/>
    <tag k="name" v="Moth Court"/>
    <tag k="source" v="survey"/>
  </way>
  <way id="36233670" version="5" timestamp="2012-01-18T23:22:34Z" uid="147510" user="woodpeck_fixbot" changeset="10431441">
    <nd ref="33699436"/>
    <nd ref="422869954"/>
    <nd ref="422869955"/>
    <tag k="highway" v="residential"/>
    <tag k="name" v="Moth Court"/>
    <tag k="source" v="survey"/>
  </way>
  <way id="36233673" version="4" timestamp="2010-07-09T07:49:18Z" uid="74617" user="JohnSmith" changeset="5171569">
    <nd ref="33699437"/>
    <nd ref="422869957"/>
    <nd ref="422869958"/>
    <tag k="highway" v="residential"/>
    <tag k="maxspeed" v="50"/>
    <tag k="maxspeed:source" v="default residential speed limit in Australia"/>
    <tag k="name" v="Hobie Place"/>
    <tag k="source" v="survey"/>
  </way>
  <way id="36233673" version="5" timestamp="2012-01-18T23:22:34Z" uid="147510" user="woodpeck_fixbot" changeset="10431441">
    <nd ref="33699437"/>
    <nd ref="422869957"/>
    <nd ref="422869958"/>
    <tag k="highway" v="residential"/>
    <tag k="name" v="Hobie Place"/>
    <tag k="source" v="survey"/>
  </way>
  <way id="36233676" version="5" timestamp="2010-07-09T07:53:08Z" uid="74617" user="JohnSmith" changeset="5171569">
    <nd ref="33699439"/>
    <nd ref="422869960"/>
    <nd ref="614162570"/>
    <nd ref="422869961"/>
    <nd ref="422869962"/>
    <nd ref="422869963"/>
    <tag k="highway" v="residential"/>
    <tag k="maxspeed" v="50"/>
    <tag k="maxspeed:source" v="default residential speed limit in Australia"/>
    <tag k="name" v="Etchell Court"/>
    <tag k="source" v="survey"/>
  </way>
  <way id="36233676" version="6" timestamp="2012-01-18T23:22:35Z" uid="147510" user="woodpeck_fixbot" changeset="10431441">
    <nd ref="33699439"/>
    <nd ref="422869960"/>
    <nd ref="614162570"/>
    <nd ref="422869961"/>
    <nd ref="422869962"/>
    <nd ref="422869963"/>
    <tag k="highway" v="residential"/>
    <tag k="name" v="Etchell Court"/>
    <tag k="source" v="survey"/>
  </way>
  <way id="36233679" version="5" timestamp="2010-07-09T07:44:10Z" uid="74617" user="JohnSmith" changeset="5171569">
    <nd ref="33699440"/>
    <nd ref="422869965"/>
    <nd ref="614162650"/>
    <nd ref="422869967"/>
    <nd ref="614162653"/>
    <nd ref="422869968"/>
    <tag k="highway" v="residential"/>
    <tag k="maxspeed" v="50"/>
    <tag k="maxspeed:source" v="default residential speed limit in Australia"/>
    <tag k="name" v="Mirror Place"/>
    <tag k="source" v="survey"/>
  </way>
  <way id="36233679" version="6" timestamp="2012-01-18T23:22:35Z" uid="147510" user="woodpeck_fixbot" changeset="10431441">
    <nd ref="33699440"/>
    <nd ref="422869965"/>
    <nd ref="614162650"/>
    <nd ref="422869967"/>
    <nd ref="614162653"/>
    <nd ref="422869968"/>
    <tag k="highway" v="residential"/>
    <tag k="name" v="Mirror Place"/>
    <tag k="source" v="survey"/>
  </way>
  <way id="36233683" version="5" timestamp="2010-07-09T07:43:11Z" uid="74617" user="JohnSmith" changeset="5171569">
    <nd ref="422869777"/>
    <nd ref="422869971"/>
    <nd ref="614162711"/>
    <nd ref="422869975"/>
    <nd ref="422869976"/>
    <nd ref="422869977"/>
    <nd ref="422869978"/>
    <nd ref="422869979"/>
    <nd ref="422869791"/>
    <tag k="highway" v="residential"/>
    <tag k="maxspeed" v="50"/>
    <tag k="maxspeed:source" v="default residential speed limit in Australia"/>
    <tag k="name" v="Fireball Way"/>
    <tag k="source" v="survey"/>
  </way>
  <way id="36233683" version="6" timestamp="2012-01-18T23:22:36Z" uid="147510" user="woodpeck_fixbot" changeset="10431441">
    <nd ref="422869777"/>
    <nd ref="422869971"/>
    <nd ref="614162711"/>
    <nd ref="422869975"/>
    <nd ref="422869976"/>
    <nd ref="422869977"/>
    <nd ref="422869978"/>
    <nd ref="422869979"/>
    <nd ref="422869791"/>
    <tag k="highway" v="residential"/>
    <tag k="name" v="Fireball Way"/>
    <tag k="source" v="survey"/>
  </way>
  <way id="36233685" version="3" timestamp="2010-07-09T07:51:45Z" uid="74617" user="JohnSmith" changeset="5171569">
    <nd ref="422869978"/>
    <nd ref="422869980"/>
    <tag k="highway" v="residential"/>
    <tag k="maxspeed" v="50"/>
    <tag k="maxspeed:source" v="default residential speed limit in Australia"/>
    <tag k="name" v="Atkin Place"/>
    <tag k="source" v="survey"/>
  </way>
  <way id="36233685" version="4" timestamp="2012-01-18T23:22:38Z" uid="147510" user="woodpeck_fixbot" changeset="10431441">
    <nd ref="422869978"/>
    <nd ref="422869980"/>
    <tag k="highway" v="residential"/>
    <tag k="name" v="Atkin Place"/>
    <tag k="source" v="survey"/>
  </way>
  <way id="36233687" version="5" timestamp="2010-07-09T07:45:15Z" uid="74617" user="JohnSmith" changeset="5171569">
    <nd ref="422869977"/>
    <nd ref="422869981"/>
    <nd ref="422869983"/>
    <tag k="highway" v="residential"/>
    <tag k="maxspeed" v="50"/>
    <tag k="maxspeed:source" v="default residential speed limit in Australia"/>
    <tag k="name" v="Williams Place"/>
    <tag k="source" v="survey"/>
  </way>
  <way id="36233687" version="6" timestamp="2012-01-18T23:22:39Z" uid="147510" user="woodpeck_fixbot" changeset="10431441">
    <nd ref="422869977"/>
    <nd ref="422869981"/>
    <nd ref="422869983"/>
    <tag k="highway" v="residential"/>
    <tag k="name" v="Williams Place"/>
    <tag k="source" v="survey"/>
  </way>
  <way id="36233689" version="4" timestamp="2010-07-09T07:53:20Z" uid="74617" user="JohnSmith" changeset="5171569">
    <nd ref="422869771"/>
    <nd ref="614162638"/>
    <nd ref="422869986"/>
    <tag k="highway" v="residential"/>
    <tag k="maxspeed" v="50"/>
    <tag k="maxspeed:source" v="default residential speed limit in Australia"/>
    <tag k="name" v="Yawl Court"/>
    <tag k="source" v="survey"/>
  </way>
  <way id="36233689" version="5" timestamp="2012-01-18T23:22:40Z" uid="147510" user="woodpeck_fixbot" changeset="10431441">
    <nd ref="422869771"/>
    <nd ref="614162638"/>
    <nd ref="422869986"/>
    <tag k="highway" v="residential"/>
    <tag k="name" v="Yawl Court"/>
    <tag k="source" v="survey"/>
  </way>
  <way id="36233691" version="4" timestamp="2010-07-09T07:47:16Z" uid="74617" user="JohnSmith" changeset="5171569">
    <nd ref="33699433"/>
    <nd ref="422869988"/>
    <nd ref="422869989"/>
    <tag k="highway" v="residential"/>
    <tag k="maxspeed" v="50"/>
    <tag k="maxspeed:source" v="default residential speed limit in Australia"/>
    <tag k="name" v="Payne Hill"/>
    <tag k="source" v="survey"/>
  </way>
  <way id="36233691" version="5" timestamp="2012-01-18T23:22:41Z" uid="147510" user="woodpeck_fixbot" changeset="10431441">
    <nd ref="33699433"/>
    <nd ref="422869988"/>
    <nd ref="422869989"/>
    <tag k="highway" v="residential"/>
    <tag k="name" v="Payne Hill"/>
    <tag k="source" v="survey"/>
  </way>
  <way id="36233692" version="6" timestamp="2010-07-09T07:46:21Z" uid="74617" user="JohnSmith" changeset="5171569">
    <nd ref="422869988"/>
    <nd ref="422869992"/>
    <nd ref="614154759"/>
    <nd ref="422869993"/>
    <nd ref="422869994"/>
    <tag k="highway" v="residential"/>
    <tag k="maxspeed" v="50"/>
    <tag k="maxspeed:source" v="default residential speed limit in Australia"/>
    <tag k="name" v="Crowther Elbow"/>
    <tag k="source" v="survey"/>
  </way>
  <way id="36233692" version="7" timestamp="2012-01-18T23:22:42Z" uid="147510" user="woodpeck_fixbot" changeset="10431441">
    <nd ref="422869988"/>
    <nd ref="422869992"/>
    <nd ref="614154759"/>
    <nd ref="422869993"/>
    <nd ref="422869994"/>
    <tag k="highway" v="residential"/>
    <tag k="name" v="Crowther Elbow"/>
    <tag k="source" v="survey"/>
  </way>
  <way id="36233693" version="4" timestamp="2010-07-09T07:43:39Z" uid="74617" user="JohnSmith" changeset="5171569">
    <nd ref="422869789"/>
    <nd ref="422869997"/>
    <nd ref="422869998"/>
    <nd ref="422870000"/>
    <nd ref="422870001"/>
    <nd ref="422870004"/>
    <nd ref="422870005"/>
    <nd ref="422870006"/>
    <nd ref="422870008"/>
    <nd ref="422870009"/>
    <nd ref="422870011"/>
    <nd ref="422870012"/>
    <tag k="highway" v="residential"/>
    <tag k="maxspeed" v="50"/>
    <tag k="maxspeed:source" v="default residential speed limit in Australia"/>
    <tag k="name" v="Mainsail Drive"/>
    <tag k="source" v="survey"/>
  </way>
  <way id="36233693" version="5" timestamp="2012-01-18T23:22:43Z" uid="147510" user="woodpeck_fixbot" changeset="10431441">
    <nd ref="422869789"/>
    <nd ref="422869997"/>
    <nd ref="422869998"/>
    <nd ref="422870000"/>
    <nd ref="422870001"/>
    <nd ref="422870004"/>
    <nd ref="422870005"/>
    <nd ref="422870006"/>
    <nd ref="422870008"/>
    <nd ref="422870009"/>
    <nd ref="422870011"/>
    <nd ref="422870012"/>
    <tag k="highway" v="residential"/>
    <tag k="name" v="Mainsail Drive"/>
    <tag k="source" v="survey"/>
  </way>
  <way id="36233694" version="4" timestamp="2010-07-09T07:51:14Z" uid="74617" user="JohnSmith" changeset="5171569">
    <nd ref="422869998"/>
    <nd ref="422870014"/>
    <nd ref="422870016"/>
    <tag k="highway" v="residential"/>
    <tag k="maxspeed" v="50"/>
    <tag k="maxspeed:source" v="default residential speed limit in Australia"/>
    <tag k="name" v="Topmast Place"/>
    <tag k="source" v="survey"/>
  </way>
  <way id="36233694" version="5" timestamp="2012-01-18T23:22:44Z" uid="147510" user="woodpeck_fixbot" changeset="10431441">
    <nd ref="422869998"/>
    <nd ref="422870014"/>
    <nd ref="422870016"/>
    <tag k="highway" v="residential"/>
    <tag k="name" v="Topmast Place"/>
    <tag k="source" v="survey"/>
  </way>
  <way id="36233695" version="4" timestamp="2010-07-09T07:48:54Z" uid="74617" user="JohnSmith" changeset="5171569">
    <nd ref="422869997"/>
    <nd ref="422870020"/>
    <tag k="highway" v="residential"/>
    <tag k="maxspeed" v="50"/>
    <tag k="maxspeed:source" v="default residential speed limit in Australia"/>
    <tag k="name" v="Stay Court"/>
    <tag k="source" v="survey"/>
  </way>
  <way id="36233695" version="5" timestamp="2012-01-18T23:22:45Z" uid="147510" user="woodpeck_fixbot" changeset="10431441">
    <nd ref="422869997"/>
    <nd ref="422870020"/>
    <tag k="highway" v="residential"/>
    <tag k="name" v="Stay Court"/>
    <tag k="source" v="survey"/>
  </way>
  <way id="36233696" version="4" timestamp="2010-07-09T07:50:54Z" uid="74617" user="JohnSmith" changeset="5171569">
    <nd ref="422870004"/>
    <nd ref="422870022"/>
    <tag k="highway" v="residential"/>
    <tag k="maxspeed" v="50"/>
    <tag k="maxspeed:source" v="default residential speed limit in Australia"/>
    <tag k="name" v="Reacher Place"/>
    <tag k="source" v="survey"/>
  </way>
  <way id="36233696" version="5" timestamp="2012-01-18T23:22:46Z" uid="147510" user="woodpeck_fixbot" changeset="10431441">
    <nd ref="422870004"/>
    <nd ref="422870022"/>
    <tag k="highway" v="residential"/>
    <tag k="name" v="Reacher Place"/>
    <tag k="source" v="survey"/>
  </way>
  <way id="36233697" version="4" timestamp="2010-07-09T07:48:26Z" uid="74617" user="JohnSmith" changeset="5171569">
    <nd ref="422870024"/>
    <nd ref="422870022"/>
    <nd ref="422870025"/>
    <tag k="highway" v="residential"/>
    <tag k="maxspeed" v="50"/>
    <tag k="maxspeed:source" v="default residential speed limit in Australia"/>
    <tag k="name" v="Reacher Place"/>
    <tag k="source" v="survey"/>
  </way>
  <way id="36233697" version="5" timestamp="2012-01-18T23:22:47Z" uid="147510" user="woodpeck_fixbot" changeset="10431441">
    <nd ref="422870024"/>
    <nd ref="422870022"/>
    <nd ref="422870025"/>
    <tag k="highway" v="residential"/>
    <tag k="name" v="Reacher Place"/>
    <tag k="source" v="survey"/>
  </way>
  <way id="36233698" version="4" timestamp="2010-07-09T07:43:52Z" uid="74617" user="JohnSmith" changeset="5171569">
    <nd ref="33699431"/>
    <nd ref="422870028"/>
    <nd ref="422870029"/>
    <nd ref="422870031"/>
    <nd ref="422870032"/>
    <nd ref="422870012"/>
    <nd ref="422870033"/>
    <nd ref="422870034"/>
    <nd ref="422869809"/>
    <tag k="highway" v="residential"/>
    <tag k="maxspeed" v="50"/>
    <tag k="maxspeed:source" v="default residential speed limit in Australia"/>
    <tag k="name" v="Randell Crescent"/>
    <tag k="source" v="survey"/>
  </way>
  <way id="36233698" version="5" timestamp="2012-01-18T23:22:48Z" uid="147510" user="woodpeck_fixbot" changeset="10431441">
    <nd ref="33699431"/>
    <nd ref="422870028"/>
    <nd ref="422870029"/>
    <nd ref="422870031"/>
    <nd ref="422870032"/>
    <nd ref="422870012"/>
    <nd ref="422870033"/>
    <nd ref="422870034"/>
    <nd ref="422869809"/>
    <tag k="highway" v="residential"/>
    <tag k="name" v="Randell Crescent"/>
    <tag k="source" v="survey"/>
  </way>
  <way id="36233699" version="5" timestamp="2010-07-09T07:52:56Z" uid="74617" user="JohnSmith" changeset="5171569">
    <nd ref="422870031"/>
    <nd ref="422870035"/>
    <nd ref="422869989"/>
    <nd ref="422870036"/>
    <nd ref="614154662"/>
    <nd ref="422870038"/>
    <nd ref="422870039"/>
    <nd ref="422870041"/>
    <nd ref="422870042"/>
    <nd ref="33699401"/>
    <tag k="highway" v="residential"/>
    <tag k="maxspeed" v="50"/>
    <tag k="maxspeed:source" v="default residential speed limit in Australia"/>
    <tag k="name" v="Lexcen Crescent"/>
    <tag k="source" v="survey"/>
  </way>
  <way id="36233699" version="6" timestamp="2012-01-18T23:22:49Z" uid="147510" user="woodpeck_fixbot" changeset="10431441">
    <nd ref="422870031"/>
    <nd ref="422870035"/>
    <nd ref="422869989"/>
    <nd ref="422870036"/>
    <nd ref="614154662"/>
    <nd ref="422870038"/>
    <nd ref="422870039"/>
    <nd ref="422870041"/>
    <nd ref="422870042"/>
    <nd ref="33699401"/>
    <tag k="highway" v="residential"/>
    <tag k="name" v="Lexcen Crescent"/>
    <tag k="source" v="survey"/>
  </way>
  <way id="36233700" version="4" timestamp="2010-07-09T07:52:16Z" uid="74617" user="JohnSmith" changeset="5171569">
    <nd ref="422870041"/>
    <nd ref="422870046"/>
    <nd ref="422870049"/>
    <nd ref="422870051"/>
    <tag k="highway" v="residential"/>
    <tag k="maxspeed" v="50"/>
    <tag k="maxspeed:source" v="default residential speed limit in Australia"/>
    <tag k="name" v="Piver Corner"/>
    <tag k="source" v="survey"/>
  </way>
  <way id="36233700" version="5" timestamp="2012-01-18T23:22:50Z" uid="147510" user="woodpeck_fixbot" changeset="10431441">
    <nd ref="422870041"/>
    <nd ref="422870046"/>
    <nd ref="422870049"/>
    <nd ref="422870051"/>
    <tag k="highway" v="residential"/>
    <tag k="name" v="Piver Corner"/>
    <tag k="source" v="survey"/>
  </way>
  <way id="36233702" version="4" timestamp="2010-07-09T07:45:50Z" uid="74617" user="JohnSmith" changeset="5171569">
    <nd ref="422870006"/>
    <nd ref="422870064"/>
    <nd ref="422870066"/>
    <nd ref="422870068"/>
    <tag k="highway" v="residential"/>
    <tag k="maxspeed" v="50"/>
    <tag k="maxspeed:source" v="default residential speed limit in Australia"/>
    <tag k="name" v="Block Place"/>
    <tag k="source" v="survey"/>
  </way>
  <way id="36233702" version="5" timestamp="2012-01-18T23:22:51Z" uid="147510" user="woodpeck_fixbot" changeset="10431441">
    <nd ref="422870006"/>
    <nd ref="422870064"/>
    <nd ref="422870066"/>
    <nd ref="422870068"/>
    <tag k="highway" v="residential"/>
    <tag k="name" v="Block Place"/>
    <tag k="source" v="survey"/>
  </way>
  <way id="36233703" version="4" timestamp="2010-07-09T07:43:03Z" uid="74617" user="JohnSmith" changeset="5171569">
    <nd ref="422870011"/>
    <nd ref="422870071"/>
    <nd ref="422870072"/>
    <nd ref="422870074"/>
    <tag k="highway" v="residential"/>
    <tag k="maxspeed" v="50"/>
    <tag k="maxspeed:source" v="default residential speed limit in Australia"/>
    <tag k="name" v="Rake Court"/>
    <tag k="source" v="survey"/>
  </way>
  <way id="36233703" version="5" timestamp="2012-01-18T23:22:52Z" uid="147510" user="woodpeck_fixbot" changeset="10431441">
    <nd ref="422870011"/>
    <nd ref="422870071"/>
    <nd ref="422870072"/>
    <nd ref="422870074"/>
    <tag k="highway" v="residential"/>
    <tag k="name" v="Rake Court"/>
    <tag k="source" v="survey"/>
  </way>
  <way id="36233704" version="4" timestamp="2010-07-09T07:53:41Z" uid="74617" user="JohnSmith" changeset="5171569">
    <nd ref="422870034"/>
    <nd ref="422870076"/>
    <nd ref="422870078"/>
    <tag k="highway" v="residential"/>
    <tag k="maxspeed" v="50"/>
    <tag k="maxspeed:source" v="default residential speed limit in Australia"/>
    <tag k="name" v="Winch Place"/>
    <tag k="source" v="survey"/>
  </way>
  <way id="36233704" version="5" timestamp="2012-01-18T23:22:52Z" uid="147510" user="woodpeck_fixbot" changeset="10431441">
    <nd ref="422870034"/>
    <nd ref="422870076"/>
    <nd ref="422870078"/>
    <tag k="highway" v="residential"/>
    <tag k="name" v="Winch Place"/>
    <tag k="source" v="survey"/>
  </way>
  <way id="36233705" version="4" timestamp="2010-07-09T07:51:41Z" uid="74617" user="JohnSmith" changeset="5171569">
    <nd ref="422870035"/>
    <nd ref="422870079"/>
    <tag k="highway" v="residential"/>
    <tag k="maxspeed" v="50"/>
    <tag k="maxspeed:source" v="default residential speed limit in Australia"/>
    <tag k="name" v="Adams Crest"/>
    <tag k="source" v="survey"/>
  </way>
  <way id="36233705" version="5" timestamp="2012-01-18T23:22:53Z" uid="147510" user="woodpeck_fixbot" changeset="10431441">
    <nd ref="422870035"/>
    <nd ref="422870079"/>
    <tag k="highway" v="residential"/>
    <tag k="name" v="Adams Crest"/>
    <tag k="source" v="survey"/>
  </way>
  <way id="36233706" version="5" timestamp="2010-07-09T07:47:47Z" uid="74617" user="JohnSmith" changeset="5171569">
    <nd ref="422869763"/>
    <nd ref="422870080"/>
    <nd ref="422870082"/>
    <nd ref="422870083"/>
    <nd ref="422870085"/>
    <nd ref="614153917"/>
    <nd ref="422870086"/>
    <nd ref="422869812"/>
    <tag k="highway" v="residential"/>
    <tag k="maxspeed" v="50"/>
    <tag k="maxspeed:source" v="default residential speed limit in Australia"/>
    <tag k="name" v="Cringle Street"/>
    <tag k="source" v="survey"/>
  </way>
  <way id="36233706" version="6" timestamp="2012-01-18T23:22:55Z" uid="147510" user="woodpeck_fixbot" changeset="10431441">
    <nd ref="422869763"/>
    <nd ref="422870080"/>
    <nd ref="422870082"/>
    <nd ref="422870083"/>
    <nd ref="422870085"/>
    <nd ref="614153917"/>
    <nd ref="422870086"/>
    <nd ref="422869812"/>
    <tag k="highway" v="residential"/>
    <tag k="name" v="Cringle Street"/>
    <tag k="source" v="survey"/>
  </way>
  <way id="36233707" version="4" timestamp="2010-07-09T07:45:07Z" uid="74617" user="JohnSmith" changeset="5171569">
    <nd ref="422870082"/>
    <nd ref="422870089"/>
    <tag k="highway" v="residential"/>
    <tag k="maxspeed" v="50"/>
    <tag k="maxspeed:source" v="default residential speed limit in Australia"/>
    <tag k="name" v="Chine Court"/>
    <tag k="source" v="survey"/>
  </way>
  <way id="36233707" version="5" timestamp="2012-01-18T23:22:56Z" uid="147510" user="woodpeck_fixbot" changeset="10431441">
    <nd ref="422870082"/>
    <nd ref="422870089"/>
    <tag k="highway" v="residential"/>
    <tag k="name" v="Chine Court"/>
    <tag k="source" v="survey"/>
  </way>
  <way id="36233708" version="5" timestamp="2010-07-09T07:44:20Z" uid="74617" user="JohnSmith" changeset="5171569">
    <nd ref="422870080"/>
    <nd ref="422870093"/>
    <nd ref="422870101"/>
    <nd ref="422870104"/>
    <nd ref="422870105"/>
    <nd ref="614165123"/>
    <nd ref="422870107"/>
    <nd ref="422870108"/>
    <nd ref="614165198"/>
    <nd ref="422869796"/>
    <tag k="highway" v="residential"/>
    <tag k="maxspeed" v="50"/>
    <tag k="maxspeed:source" v="default residential speed limit in Australia"/>
    <tag k="name" v="Marker Road"/>
    <tag k="source" v="survey"/>
  </way>
  <way id="36233708" version="6" timestamp="2012-01-18T23:22:57Z" uid="147510" user="woodpeck_fixbot" changeset="10431441">
    <nd ref="422870080"/>
    <nd ref="422870093"/>
    <nd ref="422870101"/>
    <nd ref="422870104"/>
    <nd ref="422870105"/>
    <nd ref="614165123"/>
    <nd ref="422870107"/>
    <nd ref="422870108"/>
    <nd ref="614165198"/>
    <nd ref="422869796"/>
    <tag k="highway" v="residential"/>
    <tag k="name" v="Marker Road"/>
    <tag k="source" v="survey"/>
  </way>
  <way id="36233709" version="4" timestamp="2010-07-09T07:53:14Z" uid="74617" user="JohnSmith" changeset="5171569">
    <nd ref="422870101"/>
    <nd ref="422870115"/>
    <nd ref="422870119"/>
    <nd ref="422870122"/>
    <nd ref="422870124"/>
    <nd ref="422870128"/>
    <nd ref="422870130"/>
    <nd ref="422870133"/>
    <nd ref="422870142"/>
    <nd ref="422870146"/>
    <nd ref="422869797"/>
    <tag k="highway" v="residential"/>
    <tag k="maxspeed" v="50"/>
    <tag k="maxspeed:source" v="default residential speed limit in Australia"/>
    <tag k="name" v="Transom Way"/>
    <tag k="source" v="survey"/>
  </way>
  <way id="36233709" version="5" timestamp="2012-01-18T23:22:59Z" uid="147510" user="woodpeck_fixbot" changeset="10431441">
    <nd ref="422870101"/>
    <nd ref="422870115"/>
    <nd ref="422870119"/>
    <nd ref="422870122"/>
    <nd ref="422870124"/>
    <nd ref="422870128"/>
    <nd ref="422870130"/>
    <nd ref="422870133"/>
    <nd ref="422870142"/>
    <nd ref="422870146"/>
    <nd ref="422869797"/>
    <tag k="highway" v="residential"/>
    <tag k="name" v="Transom Way"/>
    <tag k="source" v="survey"/>
  </way>
  <way id="36233710" version="4" timestamp="2010-07-09T07:49:28Z" uid="74617" user="JohnSmith" changeset="5171569">
    <nd ref="422870142"/>
    <nd ref="422870158"/>
    <tag k="highway" v="residential"/>
    <tag k="maxspeed" v="50"/>
    <tag k="maxspeed:source" v="default residential speed limit in Australia"/>
    <tag k="name" v="Stem Place"/>
    <tag k="source" v="survey"/>
  </way>
  <way id="36233710" version="5" timestamp="2012-01-18T23:23:00Z" uid="147510" user="woodpeck_fixbot" changeset="10431441">
    <nd ref="422870142"/>
    <nd ref="422870158"/>
    <tag k="highway" v="residential"/>
    <tag k="name" v="Stem Place"/>
    <tag k="source" v="survey"/>
  </way>
  <way id="36233711" version="4" timestamp="2010-07-09T07:47:08Z" uid="74617" user="JohnSmith" changeset="5171569">
    <nd ref="422870128"/>
    <nd ref="422869811"/>
    <tag k="highway" v="residential"/>
    <tag k="maxspeed" v="50"/>
    <tag k="maxspeed:source" v="default residential speed limit in Australia"/>
    <tag k="name" v="Buoy Street"/>
    <tag k="source" v="survey"/>
  </way>
  <way id="36233711" version="5" timestamp="2012-01-18T23:23:01Z" uid="147510" user="woodpeck_fixbot" changeset="10431441">
    <nd ref="422870128"/>
    <nd ref="422869811"/>
    <tag k="highway" v="residential"/>
    <tag k="name" v="Buoy Street"/>
    <tag k="source" v="survey"/>
  </way>
  <way id="36233712" version="4" timestamp="2010-07-09T07:43:21Z" uid="74617" user="JohnSmith" changeset="5171569">
    <nd ref="422870105"/>
    <nd ref="422870173"/>
    <nd ref="422870175"/>
    <nd ref="422870177"/>
    <tag k="highway" v="residential"/>
    <tag k="maxspeed" v="50"/>
    <tag k="maxspeed:source" v="default residential speed limit in Australia"/>
    <tag k="name" v="Cleat Place"/>
    <tag k="source" v="survey"/>
  </way>
  <way id="36233712" version="5" timestamp="2012-01-18T23:23:02Z" uid="147510" user="woodpeck_fixbot" changeset="10431441">
    <nd ref="422870105"/>
    <nd ref="422870173"/>
    <nd ref="422870175"/>
    <nd ref="422870177"/>
    <tag k="highway" v="residential"/>
    <tag k="name" v="Cleat Place"/>
    <tag k="source" v="survey"/>
  </way>
  <way id="36233713" version="4" timestamp="2010-07-09T07:52:31Z" uid="74617" user="JohnSmith" changeset="5171569">
    <nd ref="422870108"/>
    <nd ref="422870189"/>
    <tag k="highway" v="residential"/>
    <tag k="maxspeed" v="50"/>
    <tag k="maxspeed:source" v="default residential speed limit in Australia"/>
    <tag k="name" v="Tack Place"/>
    <tag k="source" v="survey"/>
  </way>
  <way id="36233713" version="5" timestamp="2012-01-18T23:23:03Z" uid="147510" user="woodpeck_fixbot" changeset="10431441">
    <nd ref="422870108"/>
    <nd ref="422870189"/>
    <tag k="highway" v="residential"/>
    <tag k="name" v="Tack Place"/>
    <tag k="source" v="survey"/>
  </way>
  <way id="36233714" version="5" timestamp="2010-07-09T07:48:40Z" uid="74617" user="JohnSmith" changeset="5171569">
    <nd ref="422869768"/>
    <nd ref="422870197"/>
    <nd ref="422870204"/>
    <nd ref="422870209"/>
    <nd ref="422870215"/>
    <nd ref="422870221"/>
    <nd ref="422870227"/>
    <nd ref="422870230"/>
    <nd ref="614179773"/>
    <nd ref="422870233"/>
    <nd ref="422870237"/>
    <nd ref="618040007"/>
    <tag k="highway" v="residential"/>
    <tag k="maxspeed" v="50"/>
    <tag k="maxspeed:source" v="default residential speed limit in Australia"/>
    <tag k="name" v="Binnacle Road"/>
    <tag k="source" v="survey"/>
  </way>
  <way id="36233714" version="6" timestamp="2012-01-18T23:23:04Z" uid="147510" user="woodpeck_fixbot" changeset="10431441">
    <nd ref="422869768"/>
    <nd ref="422870197"/>
    <nd ref="422870204"/>
    <nd ref="422870209"/>
    <nd ref="422870215"/>
    <nd ref="422870221"/>
    <nd ref="422870227"/>
    <nd ref="422870230"/>
    <nd ref="614179773"/>
    <nd ref="422870233"/>
    <nd ref="422870237"/>
    <nd ref="618040007"/>
    <tag k="highway" v="residential"/>
    <tag k="name" v="Binnacle Road"/>
    <tag k="source" v="survey"/>
  </way>
  <way id="36233715" version="4" timestamp="2010-07-09T07:46:04Z" uid="74617" user="JohnSmith" changeset="5171569">
    <nd ref="422870233"/>
    <nd ref="422870318"/>
    <tag k="highway" v="residential"/>
    <tag k="maxspeed" v="50"/>
    <tag k="maxspeed:source" v="default residential speed limit in Australia"/>
    <tag k="name" v="Delta Court"/>
    <tag k="source" v="survey"/>
  </way>
  <way id="36233715" version="5" timestamp="2012-01-18T23:23:05Z" uid="147510" user="woodpeck_fixbot" changeset="10431441">
    <nd ref="422870233"/>
    <nd ref="422870318"/>
    <tag k="highway" v="residential"/>
    <tag k="name" v="Delta Court"/>
    <tag k="source" v="survey"/>
  </way>
  <way id="36233716" version="3" timestamp="2010-07-09T07:45:24Z" uid="74617" user="JohnSmith" changeset="5171569">
    <nd ref="422870288"/>
    <nd ref="422870332"/>
    <nd ref="422870337"/>
    <tag k="highway" v="residential"/>
    <tag k="maxspeed" v="50"/>
    <tag k="maxspeed:source" v="default residential speed limit in Australia"/>
    <tag k="name" v="Davit Place"/>
    <tag k="source" v="survey"/>
  </way>
  <way id="36233716" version="4" timestamp="2012-01-18T23:23:06Z" uid="147510" user="woodpeck_fixbot" changeset="10431441">
    <nd ref="422870288"/>
    <nd ref="422870332"/>
    <nd ref="422870337"/>
    <tag k="highway" v="residential"/>
    <tag k="name" v="Davit Place"/>
    <tag k="source" v="survey"/>
  </way>
  <way id="36233717" version="4" timestamp="2010-07-09T07:53:56Z" uid="74617" user="JohnSmith" changeset="5171569">
    <nd ref="422870215"/>
    <nd ref="422870359"/>
    <tag k="highway" v="residential"/>
    <tag k="maxspeed" v="50"/>
    <tag k="maxspeed:source" v="default residential speed limit in Australia"/>
    <tag k="name" v="Bounty Place"/>
    <tag k="source" v="survey"/>
  </way>
  <way id="36233717" version="5" timestamp="2012-01-18T23:23:07Z" uid="147510" user="woodpeck_fixbot" changeset="10431441">
    <nd ref="422870215"/>
    <nd ref="422870359"/>
    <tag k="highway" v="residential"/>
    <tag k="name" v="Bounty Place"/>
    <tag k="source" v="survey"/>
  </way>
  <way id="36233718" version="4" timestamp="2010-07-09T07:50:26Z" uid="74617" user="JohnSmith" changeset="5171569">
    <nd ref="422870227"/>
    <nd ref="422870374"/>
    <nd ref="422870381"/>
    <tag k="highway" v="residential"/>
    <tag k="maxspeed" v="50"/>
    <tag k="maxspeed:source" v="default residential speed limit in Australia"/>
    <tag k="name" v="Shoran Court"/>
    <tag k="source" v="survey"/>
  </way>
  <way id="36233718" version="5" timestamp="2012-01-18T23:23:07Z" uid="147510" user="woodpeck_fixbot" changeset="10431441">
    <nd ref="422870227"/>
    <nd ref="422870374"/>
    <nd ref="422870381"/>
    <tag k="highway" v="residential"/>
    <tag k="name" v="Shoran Court"/>
    <tag k="source" v="survey"/>
  </way>
  <way id="36233721" version="4" timestamp="2010-07-09T07:44:39Z" uid="74617" user="JohnSmith" changeset="5171569">
    <nd ref="315193840"/>
    <nd ref="422870397"/>
    <nd ref="422870403"/>
    <nd ref="422870410"/>
    <nd ref="422870416"/>
    <nd ref="422870423"/>
    <nd ref="422870428"/>
    <nd ref="422870442"/>
    <nd ref="422870446"/>
    <nd ref="422870451"/>
    <nd ref="422870457"/>
    <nd ref="422870461"/>
    <nd ref="422870466"/>
    <nd ref="422869764"/>
    <tag k="highway" v="residential"/>
    <tag k="maxspeed" v="50"/>
    <tag k="maxspeed:source" v="default residential speed limit in Australia"/>
    <tag k="name" v="Mooring Crescent"/>
    <tag k="source" v="survey"/>
  </way>
  <way id="36233721" version="5" timestamp="2012-01-18T23:23:08Z" uid="147510" user="woodpeck_fixbot" changeset="10431441">
    <nd ref="315193840"/>
    <nd ref="422870397"/>
    <nd ref="422870403"/>
    <nd ref="422870410"/>
    <nd ref="422870416"/>
    <nd ref="422870423"/>
    <nd ref="422870428"/>
    <nd ref="422870442"/>
    <nd ref="422870446"/>
    <nd ref="422870451"/>
    <nd ref="422870457"/>
    <nd ref="422870461"/>
    <nd ref="422870466"/>
    <nd ref="422869764"/>
    <tag k="highway" v="residential"/>
    <tag k="name" v="Mooring Crescent"/>
    <tag k="source" v="survey"/>
  </way>
  <way id="36233722" version="5" timestamp="2010-07-09T07:51:52Z" uid="74617" user="JohnSmith" changeset="5171569">
    <nd ref="422870466"/>
    <nd ref="614165126"/>
    <nd ref="422870481"/>
    <tag k="highway" v="residential"/>
    <tag k="maxspeed" v="50"/>
    <tag k="maxspeed:source" v="default residential speed limit in Australia"/>
    <tag k="name" v="Jury Close"/>
    <tag k="source" v="survey"/>
  </way>
  <way id="36233722" version="6" timestamp="2012-01-18T23:23:09Z" uid="147510" user="woodpeck_fixbot" changeset="10431441">
    <nd ref="422870466"/>
    <nd ref="614165126"/>
    <nd ref="422870481"/>
    <tag k="highway" v="residential"/>
    <tag k="name" v="Jury Close"/>
    <tag k="source" v="survey"/>
  </way>
  <way id="36233723" version="4" timestamp="2010-07-09T07:49:43Z" uid="74617" user="JohnSmith" changeset="5171569">
    <nd ref="422870397"/>
    <nd ref="422870494"/>
    <tag k="highway" v="residential"/>
    <tag k="maxspeed" v="50"/>
    <tag k="maxspeed:source" v="default residential speed limit in Australia"/>
    <tag k="name" v="Foam Place"/>
    <tag k="source" v="survey"/>
  </way>
  <way id="36233723" version="5" timestamp="2012-01-18T23:23:10Z" uid="147510" user="woodpeck_fixbot" changeset="10431441">
    <nd ref="422870397"/>
    <nd ref="422870494"/>
    <tag k="highway" v="residential"/>
    <tag k="name" v="Foam Place"/>
    <tag k="source" v="survey"/>
  </way>
  <way id="36233725" version="4" timestamp="2010-07-09T07:46:34Z" uid="74617" user="JohnSmith" changeset="5171569">
    <nd ref="422870442"/>
    <nd ref="422870514"/>
    <nd ref="422870517"/>
    <nd ref="422870520"/>
    <tag k="highway" v="residential"/>
    <tag k="maxspeed" v="50"/>
    <tag k="maxspeed:source" v="default residential speed limit in Australia"/>
    <tag k="name" v="Spur Court"/>
    <tag k="source" v="survey"/>
  </way>
  <way id="36233725" version="5" timestamp="2012-01-18T23:23:11Z" uid="147510" user="woodpeck_fixbot" changeset="10431441">
    <nd ref="422870442"/>
    <nd ref="422870514"/>
    <nd ref="422870517"/>
    <nd ref="422870520"/>
    <tag k="highway" v="residential"/>
    <tag k="name" v="Spur Court"/>
    <tag k="source" v="survey"/>
  </way>
  <way id="36233728" version="4" timestamp="2010-07-09T07:46:18Z" uid="74617" user="JohnSmith" changeset="5171569">
    <nd ref="315193774"/>
    <nd ref="422870529"/>
    <nd ref="422870533"/>
    <nd ref="422870538"/>
    <nd ref="422870541"/>
    <nd ref="422870546"/>
    <nd ref="422870551"/>
    <nd ref="422870553"/>
    <nd ref="422870557"/>
    <nd ref="422870560"/>
    <nd ref="422870572"/>
    <nd ref="422870576"/>
    <nd ref="422870578"/>
    <nd ref="422870446"/>
    <tag k="highway" v="residential"/>
    <tag k="maxspeed" v="50"/>
    <tag k="maxspeed:source" v="default residential speed limit in Australia"/>
    <tag k="name" v="Leeway Drive"/>
    <tag k="source" v="survey"/>
  </way>
  <way id="36233728" version="5" timestamp="2012-01-18T23:23:11Z" uid="147510" user="woodpeck_fixbot" changeset="10431441">
    <nd ref="315193774"/>
    <nd ref="422870529"/>
    <nd ref="422870533"/>
    <nd ref="422870538"/>
    <nd ref="422870541"/>
    <nd ref="422870546"/>
    <nd ref="422870551"/>
    <nd ref="422870553"/>
    <nd ref="422870557"/>
    <nd ref="422870560"/>
    <nd ref="422870572"/>
    <nd ref="422870576"/>
    <nd ref="422870578"/>
    <nd ref="422870446"/>
    <tag k="highway" v="residential"/>
    <tag k="name" v="Leeway Drive"/>
    <tag k="source" v="survey"/>
  </way>
  <way id="36233729" version="4" timestamp="2010-07-09T07:43:38Z" uid="74617" user="JohnSmith" changeset="5171569">
    <nd ref="422870557"/>
    <nd ref="422870593"/>
    <tag k="highway" v="residential"/>
    <tag k="maxspeed" v="50"/>
    <tag k="maxspeed:source" v="default residential speed limit in Australia"/>
    <tag k="name" v="Veer Court"/>
    <tag k="source" v="survey"/>
  </way>
  <way id="36233729" version="5" timestamp="2012-01-18T23:23:13Z" uid="147510" user="woodpeck_fixbot" changeset="10431441">
    <nd ref="422870557"/>
    <nd ref="422870593"/>
    <tag k="highway" v="residential"/>
    <tag k="name" v="Veer Court"/>
    <tag k="source" v="survey"/>
  </way>
  <way id="36233730" version="4" timestamp="2010-07-09T07:51:13Z" uid="74617" user="JohnSmith" changeset="5171569">
    <nd ref="422870461"/>
    <nd ref="422870608"/>
    <nd ref="422870609"/>
    <tag k="highway" v="residential"/>
    <tag k="maxspeed" v="50"/>
    <tag k="maxspeed:source" v="default residential speed limit in Australia"/>
    <tag k="name" v="Kaba Court"/>
    <tag k="source" v="survey"/>
  </way>
  <way id="36233730" version="5" timestamp="2012-01-18T23:23:13Z" uid="147510" user="woodpeck_fixbot" changeset="10431441">
    <nd ref="422870461"/>
    <nd ref="422870608"/>
    <nd ref="422870609"/>
    <tag k="highway" v="residential"/>
    <tag k="name" v="Kaba Court"/>
    <tag k="source" v="survey"/>
  </way>
  <way id="36233732" version="5" timestamp="2010-07-09T07:48:15Z" uid="74617" user="JohnSmith" changeset="5171569">
    <nd ref="422869799"/>
    <nd ref="422870612"/>
    <nd ref="422870615"/>
    <nd ref="614165134"/>
    <nd ref="422870626"/>
    <tag k="highway" v="residential"/>
    <tag k="maxspeed" v="50"/>
    <tag k="maxspeed:source" v="default residential speed limit in Australia"/>
    <tag k="name" v="Mead Cove"/>
    <tag k="source" v="survey"/>
  </way>
  <way id="36233732" version="6" timestamp="2012-01-18T23:23:14Z" uid="147510" user="woodpeck_fixbot" changeset="10431441">
    <nd ref="422869799"/>
    <nd ref="422870612"/>
    <nd ref="422870615"/>
    <nd ref="614165134"/>
    <nd ref="422870626"/>
    <tag k="highway" v="residential"/>
    <tag k="name" v="Mead Cove"/>
    <tag k="source" v="survey"/>
  </way>
  <way id="36233733" version="4" timestamp="2010-07-09T07:45:41Z" uid="74617" user="JohnSmith" changeset="5171569">
    <nd ref="315193606"/>
    <nd ref="422870634"/>
    <nd ref="422870638"/>
    <tag k="highway" v="residential"/>
    <tag k="maxspeed" v="50"/>
    <tag k="maxspeed:source" v="default residential speed limit in Australia"/>
    <tag k="name" v="Fife Gardens"/>
    <tag k="source" v="survey"/>
  </way>
  <way id="36233733" version="5" timestamp="2012-01-18T23:23:15Z" uid="147510" user="woodpeck_fixbot" changeset="10431441">
    <nd ref="315193606"/>
    <nd ref="422870634"/>
    <nd ref="422870638"/>
    <tag k="highway" v="residential"/>
    <tag k="name" v="Fife Gardens"/>
    <tag k="source" v="survey"/>
  </way>
  <way id="36233734" version="4" timestamp="2010-07-09T07:52:46Z" uid="74617" user="JohnSmith" changeset="5171569">
    <nd ref="315193625"/>
    <nd ref="422870646"/>
    <nd ref="422870649"/>
    <tag k="highway" v="residential"/>
    <tag k="maxspeed" v="50"/>
    <tag k="maxspeed:source" v="default residential speed limit in Australia"/>
    <tag k="name" v="Crane Close"/>
    <tag k="source" v="survey"/>
  </way>
  <way id="36233734" version="5" timestamp="2012-01-18T23:23:16Z" uid="147510" user="woodpeck_fixbot" changeset="10431441">
    <nd ref="315193625"/>
    <nd ref="422870646"/>
    <nd ref="422870649"/>
    <tag k="highway" v="residential"/>
    <tag k="name" v="Crane Close"/>
    <tag k="source" v="survey"/>
  </way>
  <way id="36233735" version="4" timestamp="2010-07-09T07:50:42Z" uid="74617" user="JohnSmith" changeset="5171569">
    <nd ref="422869807"/>
    <nd ref="422870658"/>
    <nd ref="422870659"/>
    <nd ref="422870661"/>
    <tag k="highway" v="residential"/>
    <tag k="maxspeed" v="50"/>
    <tag k="maxspeed:source" v="default residential speed limit in Australia"/>
    <tag k="name" v="Mull Grove"/>
    <tag k="source" v="survey"/>
  </way>
  <way id="36233735" version="5" timestamp="2012-01-18T23:23:17Z" uid="147510" user="woodpeck_fixbot" changeset="10431441">
    <nd ref="422869807"/>
    <nd ref="422870658"/>
    <nd ref="422870659"/>
    <nd ref="422870661"/>
    <tag k="highway" v="residential"/>
    <tag k="name" v="Mull Grove"/>
    <tag k="source" v="survey"/>
  </way>
  <way id="36233738" version="4" timestamp="2010-07-09T07:42:50Z" uid="74617" user="JohnSmith" changeset="5171569">
    <nd ref="422869801"/>
    <nd ref="422870691"/>
    <nd ref="422870696"/>
    <nd ref="422870698"/>
    <tag k="highway" v="residential"/>
    <tag k="maxspeed" v="50"/>
    <tag k="maxspeed:source" v="default residential speed limit in Australia"/>
    <tag k="name" v="Watson Place"/>
    <tag k="source" v="survey"/>
  </way>
  <way id="36233738" version="5" timestamp="2012-01-18T23:23:17Z" uid="147510" user="woodpeck_fixbot" changeset="10431441">
    <nd ref="422869801"/>
    <nd ref="422870691"/>
    <nd ref="422870696"/>
    <nd ref="422870698"/>
    <tag k="highway" v="residential"/>
    <tag k="name" v="Watson Place"/>
    <tag k="source" v="survey"/>
  </way>
  <way id="36233739" version="4" timestamp="2010-07-09T07:52:04Z" uid="74617" user="JohnSmith" changeset="5171569">
    <nd ref="315193623"/>
    <nd ref="422870710"/>
    <nd ref="422870714"/>
    <tag k="highway" v="residential"/>
    <tag k="maxspeed" v="50"/>
    <tag k="maxspeed:source" v="default residential speed limit in Australia"/>
    <tag k="name" v="Monk Glade"/>
    <tag k="source" v="survey"/>
  </way>
  <way id="36233739" version="5" timestamp="2012-01-18T23:23:18Z" uid="147510" user="woodpeck_fixbot" changeset="10431441">
    <nd ref="315193623"/>
    <nd ref="422870710"/>
    <nd ref="422870714"/>
    <tag k="highway" v="residential"/>
    <tag k="name" v="Monk Glade"/>
    <tag k="source" v="survey"/>
  </way>
  <way id="36233740" version="4" timestamp="2010-07-09T07:51:33Z" uid="74617" user="JohnSmith" changeset="5171569">
    <nd ref="315193622"/>
    <nd ref="422870721"/>
    <nd ref="315193612"/>
    <tag k="highway" v="residential"/>
    <tag k="maxspeed" v="50"/>
    <tag k="maxspeed:source" v="default residential speed limit in Australia"/>
    <tag k="name" v="Stephens Street"/>
    <tag k="source" v="survey"/>
  </way>
  <way id="36233740" version="5" timestamp="2012-01-18T23:23:19Z" uid="147510" user="woodpeck_fixbot" changeset="10431441">
    <nd ref="315193622"/>
    <nd ref="422870721"/>
    <nd ref="315193612"/>
    <tag k="highway" v="residential"/>
    <tag k="name" v="Stephens Street"/>
    <tag k="source" v="survey"/>
  </way>
  <way id="36233742" version="4" timestamp="2010-07-09T07:44:55Z" uid="74617" user="JohnSmith" changeset="5171569">
    <nd ref="422869802"/>
    <nd ref="422870738"/>
    <nd ref="422870741"/>
    <nd ref="422870745"/>
    <tag k="highway" v="residential"/>
    <tag k="maxspeed" v="50"/>
    <tag k="maxspeed:source" v="default residential speed limit in Australia"/>
    <tag k="name" v="Milne Court"/>
    <tag k="source" v="survey"/>
  </way>
  <way id="36233742" version="5" timestamp="2012-01-18T23:23:20Z" uid="147510" user="woodpeck_fixbot" changeset="10431441">
    <nd ref="422869802"/>
    <nd ref="422870738"/>
    <nd ref="422870741"/>
    <nd ref="422870745"/>
    <tag k="highway" v="residential"/>
    <tag k="name" v="Milne Court"/>
    <tag k="source" v="survey"/>
  </way>
  <way id="36233000" version="5" timestamp="2012-07-24T11:22:57Z" uid="47167" user="MCH" changeset="12464223">
    <nd ref="1836437995"/>
    <nd ref="1836438074"/>
    <tag k="highway" v="residential"/>
    <tag k="name" v="John Tebbutt Place"/>
    <tag k="oneway" v="yes"/>
  </way>
  <way id="36233610" version="8" timestamp="2012-07-30T04:19:06Z" uid="134344" user="Andrew Gregory" changeset="12542991">
    <nd ref="33699486"/>
    <nd ref="422869823"/>
    <nd ref="422869824"/>
    <nd ref="422869826"/>
    <nd ref="422869827"/>
    <nd ref="422869828"/>
    <nd ref="422869829"/>
    <nd ref="422869830"/>
    <nd ref="422869832"/>
    <nd ref="422869833"/>
    <nd ref="422869834"/>
    <nd ref="422869836"/>
    <nd ref="422869837"/>
    <nd ref="422869818"/>
    <tag k="highway" v="residential"/>
    <tag k="name" v="Tiller Road"/>
    <tag k="source" v="survey"/>
  </way>
</osm>
