<?xml version='1.0' encoding='UTF-8'?>
<osm version="0.6" generator="libosmium/2.20.0">
  <way id="36242323" version="1" timestamp="2009-06-17T14:12:49Z" uid="43863" user="Rundling" changeset="1545675">
    <nd ref="422950487"/>
    <nd ref="422950489"/>
    <nd ref="422950492"/>
    <tag k="highway" v="residential"/>
    <tag k="name" v="Moorweg"/>
    <tag k="noexit" v="yes"/>
    <tag k="surface" v="paved"/>
  </way>
  <way id="36242530" version="5" timestamp="2010-07-09T07:51:02Z" uid="74617" user="JohnSmith" changeset="5171569">
    <nd ref="422942453"/>
    <nd ref="422952600"/>
    <nd ref="422952602"/>
    <nd ref="422952603"/>
    <nd ref="422952605"/>
    <nd ref="422952607"/>
    <nd ref="422952609"/>
    <nd ref="422952610"/>
    <nd ref="746028325"/>
    <nd ref="746028347"/>
    <nd ref="422952612"/>
    <nd ref="422952614"/>
    <nd ref="422952620"/>
    <nd ref="422952622"/>
    <nd ref="422952623"/>
    <tag k="highway" v="residential"/>
    <tag k="maxspeed" v="50"/>
    <tag k="maxspeed:source" v="default residential speed limit in Australia"/>
    <tag k="name" v="Christmas Avenue"/>
    <tag k="source" v="survey"/>
  </way>
  <way id="36242530" version="6" timestamp="2012-01-18T23:25:51Z" uid="147510" user="woodpeck_fixbot" changeset="10432847">
    <nd ref="422942453"/>
    <nd ref="422952600"/>
    <nd ref="422952602"/>
    <nd ref="422952603"/>
    <nd ref="422952605"/>
    <nd ref="422952607"/>
    <nd ref="422952609"/>
    <nd ref="422952610"/>
    <nd ref="746028325"/>
    <nd ref="746028347"/>
    <nd ref="422952612"/>
    <nd ref="422952614"/>
    <nd ref="422952620"/>
    <nd ref="422952622"/>
    <nd ref="422952623"/>
    <tag k="highway" v="residential"/>
    <tag k="name" v="Christmas Avenue"/>
    <tag k="source" v="survey"/>
  </way>
  <way id="36242531" version="4" timestamp="2010-07-09T07:48:40Z" uid="74617" user="JohnSmith" changeset="5171569">
    <nd ref="422952607"/>
    <nd ref="422952627"/>
    <tag k="highway" v="residential"/>
    <tag k="maxspeed" v="50"/>
    <tag k="maxspeed:source" v="default residential speed limit in Australia"/>
    <tag k="name" v="Christmas Avenue"/>
    <tag k="source" v="survey"/>
  </way>
  <way id="36242531" version="5" timestamp="2012-01-18T23:25:53Z" uid="147510" user="woodpeck_fixbot" changeset="10432847">
    <nd ref="422952607"/>
    <nd ref="422952627"/>
    <tag k="highway" v="residential"/>
    <tag k="name" v="Christmas Avenue"/>
    <tag k="source" v="survey"/>
  </way>
  <way id="36242532" version="5" timestamp="2010-07-09T07:48:00Z" uid="74617" user="JohnSmith" changeset="5171569">
    <nd ref="422952610"/>
    <nd ref="746028328"/>
    <nd ref="315197458"/>
    <tag k="highway" v="residential"/>
    <tag k="maxspeed" v="50"/>
    <tag k="maxspeed:source" v="default residential speed limit in Australia"/>
    <tag k="name" v="Ord Road"/>
    <tag k="source" v="survey"/>
  </way>
  <way id="36242532" version="6" timestamp="2012-01-18T23:25:54Z" uid="147510" user="woodpeck_fixbot" changeset="10432847">
    <nd ref="422952610"/>
    <nd ref="746028328"/>
    <nd ref="315197458"/>
    <tag k="highway" v="residential"/>
    <tag k="name" v="Ord Road"/>
    <tag k="source" v="survey"/>
  </way>
  <way id="36242533" version="4" timestamp="2010-07-09T07:45:24Z" uid="74617" user="JohnSmith" changeset="5171569">
    <nd ref="422952600"/>
    <nd ref="422952633"/>
    <nd ref="422952634"/>
    <nd ref="422952635"/>
    <tag k="highway" v="residential"/>
    <tag k="maxspeed" v="50"/>
    <tag k="maxspeed:source" v="default residential speed limit in Australia"/>
    <tag k="name" v="Chamberlain Place"/>
    <tag k="source" v="survey"/>
  </way>
  <way id="36242533" version="5" timestamp="2012-01-18T23:25:55Z" uid="147510" user="woodpeck_fixbot" changeset="10432847">
    <nd ref="422952600"/>
    <nd ref="422952633"/>
    <nd ref="422952634"/>
    <nd ref="422952635"/>
    <tag k="highway" v="residential"/>
    <tag k="name" v="Chamberlain Place"/>
    <tag k="source" v="survey"/>
  </way>
  <way id="36242534" version="4" timestamp="2010-07-09T07:52:30Z" uid="74617" user="JohnSmith" changeset="5171569">
    <nd ref="422952633"/>
    <nd ref="422952636"/>
    <nd ref="422952637"/>
    <tag k="highway" v="residential"/>
    <tag k="maxspeed" v="50"/>
    <tag k="maxspeed:source" v="default residential speed limit in Australia"/>
    <tag k="name" v="Carson Place"/>
    <tag k="source" v="survey"/>
  </way>
  <way id="36242534" version="5" timestamp="2012-01-18T23:25:56Z" uid="147510" user="woodpeck_fixbot" changeset="10432847">
    <nd ref="422952633"/>
    <nd ref="422952636"/>
    <nd ref="422952637"/>
    <tag k="highway" v="residential"/>
    <tag k="name" v="Carson Place"/>
    <tag k="source" v="survey"/>
  </way>
  <way id="36242535" version="4" timestamp="2010-07-09T07:50:26Z" uid="74617" user="JohnSmith" changeset="5171569">
    <nd ref="422952603"/>
    <nd ref="422952638"/>
    <nd ref="422952623"/>
    <nd ref="422952640"/>
    <nd ref="422952645"/>
    <nd ref="422952646"/>
    <nd ref="422952648"/>
    <nd ref="422952651"/>
    <nd ref="422952653"/>
    <nd ref="422952656"/>
    <nd ref="422952590"/>
    <tag k="highway" v="residential"/>
    <tag k="maxspeed" v="50"/>
    <tag k="maxspeed:source" v="default residential speed limit in Australia"/>
    <tag k="name" v="King Edward Drive"/>
    <tag k="source" v="survey"/>
  </way>
  <way id="36242535" version="5" timestamp="2012-01-18T23:25:58Z" uid="147510" user="woodpeck_fixbot" changeset="10432847">
    <nd ref="422952603"/>
    <nd ref="422952638"/>
    <nd ref="422952623"/>
    <nd ref="422952640"/>
    <nd ref="422952645"/>
    <nd ref="422952646"/>
    <nd ref="422952648"/>
    <nd ref="422952651"/>
    <nd ref="422952653"/>
    <nd ref="422952656"/>
    <nd ref="422952590"/>
    <tag k="highway" v="residential"/>
    <tag k="name" v="King Edward Drive"/>
    <tag k="source" v="survey"/>
  </way>
  <way id="36242536" version="4" timestamp="2010-07-09T07:49:42Z" uid="74617" user="JohnSmith" changeset="5171569">
    <nd ref="422952646"/>
    <nd ref="422952662"/>
    <nd ref="422952667"/>
    <nd ref="422952669"/>
    <nd ref="422952671"/>
    <nd ref="315193834"/>
    <tag k="highway" v="residential"/>
    <tag k="maxspeed" v="50"/>
    <tag k="maxspeed:source" v="default residential speed limit in Australia"/>
    <tag k="name" v="Berkeley Street"/>
    <tag k="source" v="survey"/>
  </way>
  <way id="36242536" version="5" timestamp="2012-01-18T23:25:59Z" uid="147510" user="woodpeck_fixbot" changeset="10432847">
    <nd ref="422952646"/>
    <nd ref="422952662"/>
    <nd ref="422952667"/>
    <nd ref="422952669"/>
    <nd ref="422952671"/>
    <nd ref="315193834"/>
    <tag k="highway" v="residential"/>
    <tag k="name" v="Berkeley Street"/>
    <tag k="source" v="survey"/>
  </way>
  <way id="36242537" version="4" timestamp="2010-07-09T07:47:27Z" uid="74617" user="JohnSmith" changeset="5171569">
    <nd ref="422952662"/>
    <nd ref="422952676"/>
    <nd ref="422952678"/>
    <nd ref="422952680"/>
    <nd ref="422952587"/>
    <tag k="highway" v="residential"/>
    <tag k="maxspeed" v="50"/>
    <tag k="maxspeed:source" v="default residential speed limit in Australia"/>
    <tag k="name" v="Wooramel Street"/>
    <tag k="source" v="survey"/>
  </way>
  <way id="36242537" version="5" timestamp="2012-01-18T23:26:00Z" uid="147510" user="woodpeck_fixbot" changeset="10432847">
    <nd ref="422952662"/>
    <nd ref="422952676"/>
    <nd ref="422952678"/>
    <nd ref="422952680"/>
    <nd ref="422952587"/>
    <tag k="highway" v="residential"/>
    <tag k="name" v="Wooramel Street"/>
    <tag k="source" v="survey"/>
  </way>
  <way id="36242538" version="4" timestamp="2010-07-09T07:53:55Z" uid="74617" user="JohnSmith" changeset="5171569">
    <nd ref="422952680"/>
    <nd ref="422952685"/>
    <nd ref="422952691"/>
    <tag k="highway" v="residential"/>
    <tag k="maxspeed" v="50"/>
    <tag k="maxspeed:source" v="default residential speed limit in Australia"/>
    <tag k="name" v="Traine Court"/>
    <tag k="source" v="survey"/>
  </way>
  <way id="36242538" version="5" timestamp="2012-01-18T23:26:02Z" uid="147510" user="woodpeck_fixbot" changeset="10432847">
    <nd ref="422952680"/>
    <nd ref="422952685"/>
    <nd ref="422952691"/>
    <tag k="highway" v="residential"/>
    <tag k="name" v="Traine Court"/>
    <tag k="source" v="survey"/>
  </way>
  <way id="36242539" version="4" timestamp="2010-07-09T07:51:52Z" uid="74617" user="JohnSmith" changeset="5171569">
    <nd ref="422952678"/>
    <nd ref="422952695"/>
    <nd ref="422952698"/>
    <tag k="highway" v="residential"/>
    <tag k="maxspeed" v="50"/>
    <tag k="maxspeed:source" v="default residential speed limit in Australia"/>
    <tag k="name" v="Sanford Court"/>
    <tag k="source" v="survey"/>
  </way>
  <way id="36242539" version="5" timestamp="2012-01-18T23:26:02Z" uid="147510" user="woodpeck_fixbot" changeset="10432847">
    <nd ref="422952678"/>
    <nd ref="422952695"/>
    <nd ref="422952698"/>
    <tag k="highway" v="residential"/>
    <tag k="name" v="Sanford Court"/>
    <tag k="source" v="survey"/>
  </way>
  <way id="36242540" version="4" timestamp="2010-07-09T07:51:21Z" uid="74617" user="JohnSmith" changeset="5171569">
    <nd ref="422952667"/>
    <nd ref="422952703"/>
    <nd ref="422952706"/>
    <nd ref="422952708"/>
    <tag k="highway" v="residential"/>
    <tag k="maxspeed" v="50"/>
    <tag k="maxspeed:source" v="default residential speed limit in Australia"/>
    <tag k="name" v="De Grey Court"/>
    <tag k="source" v="survey"/>
  </way>
  <way id="36242540" version="5" timestamp="2012-01-18T23:26:03Z" uid="147510" user="woodpeck_fixbot" changeset="10432847">
    <nd ref="422952667"/>
    <nd ref="422952703"/>
    <nd ref="422952706"/>
    <nd ref="422952708"/>
    <tag k="highway" v="residential"/>
    <tag k="name" v="De Grey Court"/>
    <tag k="source" v="survey"/>
  </way>
  <way id="36242541" version="4" timestamp="2010-07-09T07:49:04Z" uid="74617" user="JohnSmith" changeset="5171569">
    <nd ref="422952671"/>
    <nd ref="422952718"/>
    <nd ref="422952719"/>
    <nd ref="422952721"/>
    <tag k="highway" v="residential"/>
    <tag k="maxspeed" v="50"/>
    <tag k="maxspeed:source" v="default residential speed limit in Australia"/>
    <tag k="name" v="Fitzroy Place"/>
    <tag k="source" v="survey"/>
  </way>
  <way id="36242541" version="5" timestamp="2012-01-18T23:26:04Z" uid="147510" user="woodpeck_fixbot" changeset="10432847">
    <nd ref="422952671"/>
    <nd ref="422952718"/>
    <nd ref="422952719"/>
    <nd ref="422952721"/>
    <tag k="highway" v="residential"/>
    <tag k="name" v="Fitzroy Place"/>
    <tag k="source" v="survey"/>
  </way>
  <way id="36242544" version="4" timestamp="2010-07-09T07:50:43Z" uid="74617" user="JohnSmith" changeset="5171569">
    <nd ref="422952648"/>
    <nd ref="422952729"/>
    <nd ref="422952735"/>
    <nd ref="422952737"/>
    <nd ref="422952739"/>
    <nd ref="422952741"/>
    <nd ref="422952743"/>
    <nd ref="422952645"/>
    <tag k="highway" v="residential"/>
    <tag k="maxspeed" v="50"/>
    <tag k="maxspeed:source" v="default residential speed limit in Australia"/>
    <tag k="name" v="Dunham Way"/>
    <tag k="source" v="survey"/>
  </way>
  <way id="36242544" version="5" timestamp="2012-01-18T23:26:05Z" uid="147510" user="woodpeck_fixbot" changeset="10432847">
    <nd ref="422952648"/>
    <nd ref="422952729"/>
    <nd ref="422952735"/>
    <nd ref="422952737"/>
    <nd ref="422952739"/>
    <nd ref="422952741"/>
    <nd ref="422952743"/>
    <nd ref="422952645"/>
    <tag k="highway" v="residential"/>
    <tag k="name" v="Dunham Way"/>
    <tag k="source" v="survey"/>
  </way>
  <way id="36242545" version="4" timestamp="2010-07-09T07:48:16Z" uid="74617" user="JohnSmith" changeset="5171569">
    <nd ref="422952638"/>
    <nd ref="422952748"/>
    <nd ref="422952749"/>
    <tag k="highway" v="residential"/>
    <tag k="maxspeed" v="50"/>
    <tag k="maxspeed:source" v="default residential speed limit in Australia"/>
    <tag k="name" v="Coongan Court"/>
    <tag k="source" v="survey"/>
  </way>
  <way id="36242545" version="5" timestamp="2012-01-18T23:26:06Z" uid="147510" user="woodpeck_fixbot" changeset="10432847">
    <nd ref="422952638"/>
    <nd ref="422952748"/>
    <nd ref="422952749"/>
    <tag k="highway" v="residential"/>
    <tag k="name" v="Coongan Court"/>
    <tag k="source" v="survey"/>
  </way>
  <way id="36242546" version="4" timestamp="2010-07-09T07:43:39Z" uid="74617" user="JohnSmith" changeset="5171569">
    <nd ref="422952614"/>
    <nd ref="422952753"/>
    <tag k="highway" v="residential"/>
    <tag k="maxspeed" v="50"/>
    <tag k="maxspeed:source" v="default residential speed limit in Australia"/>
    <tag k="name" v="Margaret Place"/>
    <tag k="source" v="survey"/>
  </way>
  <way id="36242546" version="5" timestamp="2012-01-18T23:26:07Z" uid="147510" user="woodpeck_fixbot" changeset="10432847">
    <nd ref="422952614"/>
    <nd ref="422952753"/>
    <tag k="highway" v="residential"/>
    <tag k="name" v="Margaret Place"/>
    <tag k="source" v="survey"/>
  </way>
  <way id="36242548" version="4" timestamp="2010-07-09T07:52:05Z" uid="74617" user="JohnSmith" changeset="5171569">
    <nd ref="422952741"/>
    <nd ref="422952758"/>
    <tag k="highway" v="residential"/>
    <tag k="maxspeed" v="50"/>
    <tag k="maxspeed:source" v="default residential speed limit in Australia"/>
    <tag k="name" v="Lyons Place"/>
    <tag k="source" v="survey"/>
  </way>
  <way id="36242548" version="5" timestamp="2012-01-18T23:26:08Z" uid="147510" user="woodpeck_fixbot" changeset="10432847">
    <nd ref="422952741"/>
    <nd ref="422952758"/>
    <tag k="highway" v="residential"/>
    <tag k="name" v="Lyons Place"/>
    <tag k="source" v="survey"/>
  </way>
  <way id="36242549" version="4" timestamp="2010-07-09T07:50:01Z" uid="74617" user="JohnSmith" changeset="5171569">
    <nd ref="422952739"/>
    <nd ref="422952762"/>
    <tag k="highway" v="residential"/>
    <tag k="maxspeed" v="50"/>
    <tag k="maxspeed:source" v="default residential speed limit in Australia"/>
    <tag k="name" v="Logue Court"/>
    <tag k="source" v="survey"/>
  </way>
  <way id="36242549" version="5" timestamp="2012-01-18T23:26:08Z" uid="147510" user="woodpeck_fixbot" changeset="10432847">
    <nd ref="422952739"/>
    <nd ref="422952762"/>
    <tag k="highway" v="residential"/>
    <tag k="name" v="Logue Court"/>
    <tag k="source" v="survey"/>
  </way>
  <way id="36242550" version="4" timestamp="2010-07-09T07:45:43Z" uid="74617" user="JohnSmith" changeset="5171569">
    <nd ref="315193838"/>
    <nd ref="422952765"/>
    <tag k="highway" v="residential"/>
    <tag k="maxspeed" v="50"/>
    <tag k="maxspeed:source" v="default residential speed limit in Australia"/>
    <tag k="name" v="Minilya Street"/>
    <tag k="source" v="survey"/>
  </way>
  <way id="36242550" version="5" timestamp="2012-01-18T23:26:09Z" uid="147510" user="woodpeck_fixbot" changeset="10432847">
    <nd ref="315193838"/>
    <nd ref="422952765"/>
    <tag k="highway" v="residential"/>
    <tag k="name" v="Minilya Street"/>
    <tag k="source" v="survey"/>
  </way>
  <way id="36242551" version="4" timestamp="2010-07-09T07:42:52Z" uid="74617" user="JohnSmith" changeset="5171569">
    <nd ref="422952651"/>
    <nd ref="422952771"/>
    <tag k="highway" v="residential"/>
    <tag k="maxspeed" v="50"/>
    <tag k="maxspeed:source" v="default residential speed limit in Australia"/>
    <tag k="name" v="Lyndon Court"/>
    <tag k="source" v="survey"/>
  </way>
  <way id="36242551" version="5" timestamp="2012-01-18T23:26:10Z" uid="147510" user="woodpeck_fixbot" changeset="10432847">
    <nd ref="422952651"/>
    <nd ref="422952771"/>
    <tag k="highway" v="residential"/>
    <tag k="name" v="Lyndon Court"/>
    <tag k="source" v="survey"/>
  </way>
  <way id="36242553" version="4" timestamp="2010-07-09T07:51:33Z" uid="74617" user="JohnSmith" changeset="5171569">
    <nd ref="422952653"/>
    <nd ref="422952775"/>
    <nd ref="422952776"/>
    <nd ref="422952777"/>
    <nd ref="422952778"/>
    <nd ref="422952779"/>
    <nd ref="422952780"/>
    <nd ref="422952781"/>
    <nd ref="422952782"/>
    <nd ref="422952783"/>
    <nd ref="422952785"/>
    <nd ref="422952787"/>
    <nd ref="422952790"/>
    <nd ref="422952793"/>
    <nd ref="422952795"/>
    <nd ref="422952765"/>
    <nd ref="422952797"/>
    <nd ref="422952802"/>
    <nd ref="422952803"/>
    <nd ref="422952776"/>
    <tag k="highway" v="residential"/>
    <tag k="maxspeed" v="50"/>
    <tag k="maxspeed:source" v="default residential speed limit in Australia"/>
    <tag k="name" v="Oakover Way"/>
    <tag k="source" v="survey"/>
  </way>
  <way id="36242553" version="5" timestamp="2012-01-18T23:26:11Z" uid="147510" user="woodpeck_fixbot" changeset="10432847">
    <nd ref="422952653"/>
    <nd ref="422952775"/>
    <nd ref="422952776"/>
    <nd ref="422952777"/>
    <nd ref="422952778"/>
    <nd ref="422952779"/>
    <nd ref="422952780"/>
    <nd ref="422952781"/>
    <nd ref="422952782"/>
    <nd ref="422952783"/>
    <nd ref="422952785"/>
    <nd ref="422952787"/>
    <nd ref="422952790"/>
    <nd ref="422952793"/>
    <nd ref="422952795"/>
    <nd ref="422952765"/>
    <nd ref="422952797"/>
    <nd ref="422952802"/>
    <nd ref="422952803"/>
    <nd ref="422952776"/>
    <tag k="highway" v="residential"/>
    <tag k="name" v="Oakover Way"/>
    <tag k="source" v="survey"/>
  </way>
  <way id="36242554" version="4" timestamp="2010-07-09T07:47:40Z" uid="74617" user="JohnSmith" changeset="5171569">
    <nd ref="422952802"/>
    <nd ref="422952808"/>
    <tag k="highway" v="residential"/>
    <tag k="maxspeed" v="50"/>
    <tag k="maxspeed:source" v="default residential speed limit in Australia"/>
    <tag k="name" v="Oakover Way"/>
    <tag k="source" v="survey"/>
  </way>
  <way id="36242554" version="5" timestamp="2012-01-18T23:26:12Z" uid="147510" user="woodpeck_fixbot" changeset="10432847">
    <nd ref="422952802"/>
    <nd ref="422952808"/>
    <tag k="highway" v="residential"/>
    <tag k="name" v="Oakover Way"/>
    <tag k="source" v="survey"/>
  </way>
  <way id="36242555" version="4" timestamp="2010-07-09T07:44:56Z" uid="74617" user="JohnSmith" changeset="5171569">
    <nd ref="422952780"/>
    <nd ref="422952812"/>
    <nd ref="422952813"/>
    <tag k="highway" v="residential"/>
    <tag k="maxspeed" v="50"/>
    <tag k="maxspeed:source" v="default residential speed limit in Australia"/>
    <tag k="name" v="Isdell Place"/>
    <tag k="source" v="survey"/>
  </way>
  <way id="36242555" version="5" timestamp="2012-01-18T23:26:14Z" uid="147510" user="woodpeck_fixbot" changeset="10432847">
    <nd ref="422952780"/>
    <nd ref="422952812"/>
    <nd ref="422952813"/>
    <tag k="highway" v="residential"/>
    <tag k="name" v="Isdell Place"/>
    <tag k="source" v="survey"/>
  </way>
  <way id="36242557" version="4" timestamp="2010-07-09T07:53:08Z" uid="74617" user="JohnSmith" changeset="5171569">
    <nd ref="422952779"/>
    <nd ref="422952825"/>
    <tag k="highway" v="residential"/>
    <tag k="maxspeed" v="50"/>
    <tag k="maxspeed:source" v="default residential speed limit in Australia"/>
    <tag k="name" v="Robe Court"/>
    <tag k="source" v="survey"/>
  </way>
  <way id="36242557" version="5" timestamp="2012-01-18T23:26:14Z" uid="147510" user="woodpeck_fixbot" changeset="10432847">
    <nd ref="422952779"/>
    <nd ref="422952825"/>
    <tag k="highway" v="residential"/>
    <tag k="name" v="Robe Court"/>
    <tag k="source" v="survey"/>
  </way>
  <way id="36242323" version="2" timestamp="2012-04-09T15:00:57Z" uid="161619" user="FvGordon" changeset="11239630">
    <nd ref="422950487"/>
    <nd ref="422950489"/>
    <nd ref="1708649003"/>
    <tag k="highway" v="residential"/>
    <tag k="name" v="Moorweg"/>
    <tag k="noexit" v="yes"/>
    <tag k="surface" v="paved"/>
  </way>
  <way id="36242323" version="3" timestamp="2012-07-17T08:13:25Z" uid="722137" user="OSMF Redaction Account" changeset="12260187"/>
</osm>
