<?xml version='1.0' encoding='UTF-8'?>
<osm version="0.6" generator="libosmium/2.20.0">
  <way id="36287005" version="1" timestamp="2009-06-17T20:43:25Z" uid="6269" user="Mueck" changeset="1549517">
    <nd ref="27234274"/>
    <nd ref="27234278"/>
    <nd ref="27234279"/>
    <nd ref="27234280"/>
    <nd ref="27234281"/>
    <nd ref="27234282"/>
    <nd ref="27234283"/>
    <nd ref="27234284"/>
    <nd ref="27234285"/>
    <nd ref="27234286"/>
    <nd ref="29013530"/>
    <nd ref="27234289"/>
    <tag k="created_by" v="JOSM"/>
    <tag k="highway" v="service"/>
    <tag k="name" v="Zur Allmend"/>
  </way>
  <way id="36287005" version="2" timestamp="2009-06-17T20:44:11Z" uid="6269" user="Mueck" changeset="1549517">
    <nd ref="27234274"/>
    <nd ref="27234278"/>
    <nd ref="27234279"/>
    <nd ref="27234280"/>
    <nd ref="27234281"/>
    <nd ref="27234282"/>
    <nd ref="27234283"/>
    <nd ref="27234284"/>
    <nd ref="27234285"/>
    <nd ref="27234286"/>
    <nd ref="29013530"/>
    <nd ref="27234289"/>
    <tag k="created_by" v="JOSM"/>
    <tag k="foot" v="yes"/>
    <tag k="highway" v="cycleway"/>
    <tag k="name" v="Zur Allmend"/>
    <tag k="smoothness" v="good"/>
    <tag k="surface" v="asphalt"/>
  </way>
  <way id="36287005" version="4" timestamp="2011-09-07T19:07:49Z" uid="212553" user="ARWIE" changeset="9239761">
    <nd ref="27234274"/>
    <nd ref="27234278"/>
    <nd ref="1426415720"/>
    <nd ref="1426415718"/>
    <nd ref="1426415715"/>
    <nd ref="1426415711"/>
    <nd ref="27234279"/>
    <nd ref="1426415704"/>
    <nd ref="1426415701"/>
    <nd ref="27234280"/>
    <nd ref="1426415695"/>
    <nd ref="27234281"/>
    <nd ref="1426415692"/>
    <nd ref="1426415691"/>
    <nd ref="27234282"/>
    <nd ref="1426415689"/>
    <nd ref="1426415682"/>
    <nd ref="27234283"/>
    <nd ref="1426415677"/>
    <nd ref="1426415674"/>
    <nd ref="27234284"/>
    <nd ref="1426415666"/>
    <nd ref="1426415671"/>
    <nd ref="27234285"/>
    <nd ref="27234286"/>
    <nd ref="1426415670"/>
    <nd ref="29013530"/>
    <nd ref="27234289"/>
    <tag k="foot" v="yes"/>
    <tag k="highway" v="cycleway"/>
    <tag k="name" v="Zur Allmend"/>
    <tag k="smoothness" v="good"/>
    <tag k="surface" v="asphalt"/>
  </way>
  <way id="36287181" version="1" timestamp="2009-06-17T20:44:49Z" uid="6269" user="Mueck" changeset="1549517">
    <nd ref="27234298"/>
    <nd ref="27234297"/>
    <nd ref="27234296"/>
    <nd ref="27234292"/>
    <nd ref="27234290"/>
    <tag k="created_by" v="JOSM"/>
    <tag k="highway" v="service"/>
  </way>
  <way id="36287181" version="2" timestamp="2009-06-17T20:45:09Z" uid="6269" user="Mueck" changeset="1549517">
    <nd ref="27234298"/>
    <nd ref="27234297"/>
    <nd ref="27234296"/>
    <nd ref="27234292"/>
    <nd ref="27234290"/>
    <tag k="created_by" v="JOSM"/>
    <tag k="highway" v="service"/>
    <tag k="smoothness" v="good"/>
    <tag k="surface" v="asphalt"/>
  </way>
  <way id="36287181" version="4" timestamp="2012-01-21T22:08:36Z" uid="165061" user="keinname" changeset="10460308">
    <nd ref="27234298"/>
    <nd ref="1600560856"/>
    <nd ref="1600560857"/>
    <nd ref="1600560859"/>
    <nd ref="27234297"/>
    <nd ref="27234296"/>
    <nd ref="27234292"/>
    <nd ref="27234290"/>
    <tag k="highway" v="service"/>
    <tag k="smoothness" v="good"/>
    <tag k="surface" v="asphalt"/>
  </way>
  <way id="36287236" version="2" timestamp="2010-03-28T02:20:00Z" uid="20587" user="balrog-kun" changeset="4250871">
    <nd ref="90848443"/>
    <nd ref="90819225"/>
    <nd ref="90848447"/>
    <nd ref="90848449"/>
    <nd ref="90848451"/>
    <nd ref="90848453"/>
    <nd ref="90848189"/>
    <tag k="created_by" v="Potlatch 0.9c"/>
    <tag k="highway" v="tertiary"/>
    <tag k="name" v="Davis Road"/>
    <tag k="tiger:cfcc" v="A45"/>
    <tag k="tiger:county" v="San Joaquin, CA"/>
    <tag k="tiger:name_base" v="Davis"/>
    <tag k="tiger:name_type" v="Rd"/>
    <tag k="tiger:separated" v="yes"/>
    <tag k="tiger:source" v="tiger_import_dch_v0.6_20070809"/>
    <tag k="tiger:tlid" v="133885359"/>
    <tag k="tiger:zip_left" v="95242"/>
  </way>
  <way id="36287238" version="3" timestamp="2010-03-28T02:20:01Z" uid="20587" user="balrog-kun" changeset="4250871">
    <nd ref="90848189"/>
    <nd ref="90848190"/>
    <nd ref="90848192"/>
    <nd ref="90848194"/>
    <nd ref="90848196"/>
    <nd ref="90848198"/>
    <nd ref="90848200"/>
    <nd ref="90848202"/>
    <nd ref="90848205"/>
    <nd ref="90848207"/>
    <nd ref="90848209"/>
    <nd ref="90848211"/>
    <nd ref="90848214"/>
    <nd ref="90848216"/>
    <nd ref="90848218"/>
    <nd ref="90848220"/>
    <nd ref="90848222"/>
    <nd ref="90848224"/>
    <nd ref="90848226"/>
    <nd ref="90848228"/>
    <nd ref="90848231"/>
    <nd ref="90848233"/>
    <nd ref="90848237"/>
    <nd ref="90848239"/>
    <nd ref="90848241"/>
    <nd ref="90848242"/>
    <nd ref="90848243"/>
    <nd ref="90848245"/>
    <nd ref="90848247"/>
    <nd ref="90848249"/>
    <nd ref="90848251"/>
    <nd ref="90848253"/>
    <nd ref="90848255"/>
    <nd ref="90848257"/>
    <nd ref="90848258"/>
    <nd ref="90848259"/>
    <nd ref="90848260"/>
    <nd ref="90848261"/>
    <nd ref="90848262"/>
    <nd ref="90848263"/>
    <nd ref="90848264"/>
    <nd ref="90848266"/>
    <nd ref="90848267"/>
    <nd ref="90848269"/>
    <nd ref="90848271"/>
    <nd ref="90848273"/>
    <nd ref="90848274"/>
    <nd ref="90848275"/>
    <nd ref="90848277"/>
    <nd ref="90848279"/>
    <nd ref="90848280"/>
    <nd ref="90848281"/>
    <nd ref="90848283"/>
    <nd ref="90848285"/>
    <nd ref="90848287"/>
    <nd ref="90848288"/>
    <nd ref="90848289"/>
    <nd ref="90848291"/>
    <nd ref="90848293"/>
    <nd ref="90848295"/>
    <nd ref="90848298"/>
    <nd ref="90848300"/>
    <nd ref="90848302"/>
    <nd ref="90848304"/>
    <nd ref="90848306"/>
    <nd ref="90848308"/>
    <nd ref="90848310"/>
    <nd ref="90848311"/>
    <nd ref="90848312"/>
    <nd ref="90848314"/>
    <nd ref="90848316"/>
    <nd ref="90848317"/>
    <nd ref="90848319"/>
    <nd ref="90848321"/>
    <nd ref="90848322"/>
    <nd ref="90848324"/>
    <nd ref="90848326"/>
    <nd ref="90848328"/>
    <nd ref="90848330"/>
    <nd ref="90848332"/>
    <tag k="created_by" v="Potlatch 0.9c"/>
    <tag k="highway" v="tertiary"/>
    <tag k="name" v="Davis Road"/>
    <tag k="tiger:cfcc" v="A41"/>
    <tag k="tiger:county" v="San Joaquin, CA"/>
    <tag k="tiger:name_base" v="Davis"/>
    <tag k="tiger:name_type" v="Rd"/>
    <tag k="tiger:reviewed" v="no"/>
    <tag k="tiger:separated" v="no"/>
    <tag k="tiger:source" v="tiger_import_dch_v0.6_20070809"/>
    <tag k="tiger:tlid" v="133930489:133860384:133860388:133902730:133902731:133932796:133932799:133905931:133868842:133897266:133897267:133932807:133932808:133870300:133932815"/>
    <tag k="tiger:zip_left" v="95242"/>
    <tag k="tiger:zip_right" v="95242"/>
  </way>
  <way id="36287248" version="2" timestamp="2010-01-03T21:25:41Z" uid="23543" user="jkjk" changeset="3532785">
    <nd ref="25986159"/>
    <nd ref="25986157"/>
    <nd ref="25986116"/>
    <nd ref="25986111"/>
    <nd ref="346927775"/>
    <nd ref="25986107"/>
    <nd ref="25986099"/>
    <tag k="highway" v="tertiary"/>
    <tag k="oneway" v="yes"/>
  </way>
  <way id="36287248" version="3" timestamp="2010-05-05T22:26:34Z" uid="3516" user="BiIbo" changeset="4617497">
    <nd ref="25986159"/>
    <nd ref="25986157"/>
    <nd ref="723197283"/>
    <nd ref="25986116"/>
    <nd ref="723197251"/>
    <nd ref="723197355"/>
    <nd ref="25986111"/>
    <nd ref="346927775"/>
    <nd ref="25986107"/>
    <nd ref="723197372"/>
    <nd ref="25986099"/>
    <tag k="highway" v="tertiary"/>
    <tag k="oneway" v="yes"/>
  </way>
  <way id="36287248" version="4" timestamp="2010-09-23T20:25:52Z" uid="348887" user="Johny31" changeset="5857608">
    <nd ref="25986159"/>
    <nd ref="25986157"/>
    <nd ref="723197283"/>
    <nd ref="25986116"/>
    <nd ref="723197251"/>
    <nd ref="723197355"/>
    <nd ref="25986111"/>
    <nd ref="346927775"/>
    <nd ref="25986107"/>
    <nd ref="723197372"/>
    <nd ref="25986099"/>
    <tag k="highway" v="tertiary"/>
    <tag k="maxspeed" v="50"/>
    <tag k="oneway" v="yes"/>
  </way>
  <way id="36287248" version="5" timestamp="2010-09-25T20:07:43Z" uid="17615" user="Petr Dlouhý" changeset="5874158">
    <nd ref="25986159"/>
    <nd ref="25986157"/>
    <nd ref="723197283"/>
    <nd ref="25986116"/>
    <nd ref="723197251"/>
    <nd ref="723197355"/>
    <nd ref="25986111"/>
    <nd ref="346927775"/>
    <nd ref="25986107"/>
    <nd ref="723197372"/>
    <nd ref="25986099"/>
    <tag k="highway" v="tertiary"/>
    <tag k="maxspeed" v="50"/>
    <tag k="name" v="K Pazderkám"/>
    <tag k="oneway" v="yes"/>
  </way>
  <way id="36287248" version="6" timestamp="2010-09-29T21:37:39Z" uid="348887" user="Johny31" changeset="5915833">
    <nd ref="25986159"/>
    <nd ref="25986157"/>
    <nd ref="723197283"/>
    <nd ref="25986116"/>
    <nd ref="723197251"/>
    <nd ref="723197355"/>
    <nd ref="25986111"/>
    <nd ref="346927775"/>
    <nd ref="25986107"/>
    <nd ref="930936801"/>
    <nd ref="723197372"/>
    <nd ref="25986099"/>
    <tag k="highway" v="tertiary"/>
    <tag k="maxspeed" v="50"/>
    <tag k="name" v="K Pazderkám"/>
    <tag k="oneway" v="yes"/>
  </way>
  <way id="36287248" version="7" timestamp="2010-12-02T21:24:52Z" uid="17615" user="Petr Dlouhý" changeset="6519711">
    <nd ref="25986159"/>
    <nd ref="25986157"/>
    <nd ref="723197283"/>
    <nd ref="25986116"/>
    <nd ref="723197251"/>
    <nd ref="723197355"/>
    <nd ref="25986111"/>
    <nd ref="346927775"/>
    <nd ref="1016635294"/>
    <nd ref="25986107"/>
    <nd ref="930936801"/>
    <nd ref="723197372"/>
    <nd ref="25986099"/>
    <tag k="highway" v="tertiary"/>
    <tag k="maxspeed" v="50"/>
    <tag k="name" v="K Pazderkám"/>
    <tag k="oneway" v="yes"/>
  </way>
  <way id="36287248" version="8" timestamp="2011-01-02T19:34:31Z" uid="17615" user="Petr Dlouhý" changeset="6842498">
    <nd ref="25986159"/>
    <nd ref="25986157"/>
    <nd ref="723197283"/>
    <nd ref="25986116"/>
    <nd ref="723197251"/>
    <nd ref="1079334257"/>
    <nd ref="723197355"/>
    <nd ref="1079334260"/>
    <nd ref="25986111"/>
    <nd ref="1079334252"/>
    <nd ref="346927775"/>
    <nd ref="1016635294"/>
    <nd ref="25986107"/>
    <nd ref="930936801"/>
    <nd ref="723197372"/>
    <nd ref="25986099"/>
    <tag k="highway" v="tertiary"/>
    <tag k="maxspeed" v="50"/>
    <tag k="name" v="K Pazderkám"/>
    <tag k="oneway" v="yes"/>
  </way>
  <way id="36287248" version="9" timestamp="2011-01-02T19:36:34Z" uid="17615" user="Petr Dlouhý" changeset="6842532">
    <nd ref="25986159"/>
    <nd ref="25986157"/>
    <nd ref="1079339551"/>
    <nd ref="723197283"/>
    <nd ref="25986116"/>
    <nd ref="723197251"/>
    <nd ref="1079334257"/>
    <nd ref="723197355"/>
    <nd ref="1079334260"/>
    <nd ref="25986111"/>
    <nd ref="1079334252"/>
    <nd ref="346927775"/>
    <nd ref="1016635294"/>
    <nd ref="25986107"/>
    <nd ref="930936801"/>
    <nd ref="723197372"/>
    <nd ref="25986099"/>
    <tag k="highway" v="tertiary"/>
    <tag k="maxspeed" v="50"/>
    <tag k="name" v="K Pazderkám"/>
    <tag k="oneway" v="yes"/>
  </way>
  <way id="36287248" version="10" timestamp="2011-02-19T08:57:54Z" uid="348887" user="Johny31" changeset="7329441">
    <nd ref="25986172"/>
    <nd ref="25986170"/>
    <nd ref="723197253"/>
    <nd ref="1034514431"/>
    <nd ref="1034514386"/>
    <nd ref="25986161"/>
    <nd ref="25986159"/>
    <nd ref="25986157"/>
    <nd ref="1079339551"/>
    <nd ref="723197283"/>
    <nd ref="25986116"/>
    <nd ref="723197251"/>
    <nd ref="1079334257"/>
    <nd ref="723197355"/>
    <nd ref="1079334260"/>
    <nd ref="25986111"/>
    <nd ref="1079334252"/>
    <nd ref="346927775"/>
    <nd ref="1016635294"/>
    <nd ref="25986107"/>
    <nd ref="930936801"/>
    <nd ref="723197372"/>
    <nd ref="25986099"/>
    <tag k="highway" v="tertiary"/>
    <tag k="lanes" v="2"/>
    <tag k="maxspeed" v="50"/>
    <tag k="name" v="K Pazderkám"/>
    <tag k="oneway" v="yes"/>
  </way>
  <way id="36287248" version="11" timestamp="2011-03-24T10:52:59Z" uid="5748" user="fatbozz" changeset="7654738">
    <nd ref="25986172"/>
    <nd ref="25986170"/>
    <nd ref="723197253"/>
    <nd ref="1034514431"/>
    <nd ref="1034514386"/>
    <nd ref="25986161"/>
    <nd ref="25986159"/>
    <nd ref="25986157"/>
    <nd ref="1079339551"/>
    <nd ref="723197283"/>
    <nd ref="25986116"/>
    <nd ref="723197251"/>
    <nd ref="1079334257"/>
    <nd ref="723197355"/>
    <nd ref="1079334260"/>
    <nd ref="25986111"/>
    <nd ref="1079334252"/>
    <nd ref="346927775"/>
    <nd ref="1016635294"/>
    <nd ref="25986107"/>
    <nd ref="930936801"/>
    <nd ref="723197372"/>
    <nd ref="1215818675"/>
    <nd ref="25986099"/>
    <tag k="highway" v="tertiary"/>
    <tag k="lanes" v="2"/>
    <tag k="maxspeed" v="50"/>
    <tag k="name" v="K Pazderkám"/>
    <tag k="oneway" v="yes"/>
  </way>
  <way id="36287248" version="12" timestamp="2011-05-15T18:31:40Z" uid="3516" user="BiIbo" changeset="8151921">
    <nd ref="25986172"/>
    <nd ref="25986170"/>
    <nd ref="723197253"/>
    <nd ref="1034514431"/>
    <nd ref="1034514386"/>
    <nd ref="25986161"/>
    <nd ref="25986159"/>
    <nd ref="25986157"/>
    <nd ref="1079339551"/>
    <nd ref="723197283"/>
    <nd ref="25986116"/>
    <nd ref="723197251"/>
    <nd ref="1079334257"/>
    <nd ref="723197355"/>
    <nd ref="1079334260"/>
    <nd ref="25986111"/>
    <nd ref="1079334252"/>
    <nd ref="346927775"/>
    <nd ref="1016635294"/>
    <nd ref="25986107"/>
    <nd ref="930936801"/>
    <nd ref="723197372"/>
    <nd ref="25986099"/>
    <tag k="highway" v="tertiary"/>
    <tag k="lanes" v="2"/>
    <tag k="maxspeed" v="50"/>
    <tag k="name" v="K Pazderkám"/>
    <tag k="oneway" v="yes"/>
  </way>
  <way id="36287248" version="13" timestamp="2011-05-20T14:44:19Z" uid="25867" user="adamos" changeset="8199300">
    <nd ref="25986172"/>
    <nd ref="25986170"/>
    <nd ref="723197253"/>
    <nd ref="1034514431"/>
    <nd ref="1034514386"/>
    <nd ref="25986161"/>
    <nd ref="25986159"/>
    <nd ref="25986157"/>
    <nd ref="1079339551"/>
    <nd ref="723197283"/>
    <nd ref="25986116"/>
    <nd ref="1293282083"/>
    <nd ref="723197251"/>
    <nd ref="1079334257"/>
    <nd ref="723197355"/>
    <nd ref="1079334260"/>
    <nd ref="25986111"/>
    <nd ref="1079334252"/>
    <nd ref="346927775"/>
    <nd ref="1016635294"/>
    <nd ref="25986107"/>
    <nd ref="930936801"/>
    <nd ref="723197372"/>
    <nd ref="25986099"/>
    <tag k="highway" v="tertiary"/>
    <tag k="lanes" v="2"/>
    <tag k="maxspeed" v="50"/>
    <tag k="name" v="K Pazderkám"/>
    <tag k="oneway" v="yes"/>
  </way>
  <way id="36287248" version="14" timestamp="2011-05-26T09:36:49Z" uid="17615" user="Petr Dlouhý" changeset="8251852">
    <nd ref="25986172"/>
    <nd ref="25986170"/>
    <nd ref="723197253"/>
    <nd ref="1034514431"/>
    <nd ref="1034514386"/>
    <nd ref="25986161"/>
    <nd ref="25986159"/>
    <tag k="highway" v="tertiary"/>
    <tag k="lanes" v="2"/>
    <tag k="maxspeed" v="50"/>
    <tag k="name" v="K Pazderkám"/>
    <tag k="oneway" v="yes"/>
  </way>
  <way id="36287248" version="15" timestamp="2011-09-30T18:54:30Z" uid="527259" user="Vratislav Filler" changeset="9437770">
    <nd ref="25986172"/>
    <nd ref="25986170"/>
    <nd ref="723197253"/>
    <nd ref="1034514431"/>
    <nd ref="1034514386"/>
    <nd ref="25986161"/>
    <nd ref="25986159"/>
    <tag k="highway" v="secondary"/>
    <tag k="lanes" v="2"/>
    <tag k="maxspeed" v="50"/>
    <tag k="name" v="K Pazderkám"/>
    <tag k="oneway" v="yes"/>
  </way>
  <way id="36287467" version="2" timestamp="2010-03-22T06:32:40Z" uid="20587" user="balrog-kun" changeset="4199043">
    <nd ref="50544708"/>
    <nd ref="50544709"/>
    <nd ref="50518910"/>
    <tag k="access" v="private"/>
    <tag k="created_by" v="Potlatch 0.10f"/>
    <tag k="highway" v="service"/>
    <tag k="name" v="Newport Drive"/>
    <tag k="tiger:cfcc" v="A74"/>
    <tag k="tiger:county" v="Skamania, WA"/>
    <tag k="tiger:name_base" v="Newport"/>
    <tag k="tiger:name_type" v="Dr"/>
    <tag k="tiger:reviewed" v="no"/>
    <tag k="tiger:source" v="tiger_import_dch_v0.6_20070830"/>
    <tag k="tiger:tlid" v="158452197:158452198"/>
    <tag k="tiger:zip_left" v="98610"/>
  </way>
  <way id="36287467" version="3" timestamp="2010-10-23T14:38:36Z" uid="91568" user="noliver" changeset="6145786">
    <nd ref="50544708"/>
    <nd ref="50544709"/>
    <nd ref="50518910"/>
    <tag k="access" v="private"/>
    <tag k="highway" v="service"/>
    <tag k="name" v="Newport Drive"/>
    <tag k="tiger:cfcc" v="A74"/>
    <tag k="tiger:county" v="Skamania, WA"/>
    <tag k="tiger:name_base" v="Newport"/>
    <tag k="tiger:name_type" v="Dr"/>
    <tag k="tiger:source" v="tiger_import_dch_v0.6_20070830"/>
    <tag k="tiger:tlid" v="158452197:158452198"/>
    <tag k="tiger:zip_left" v="98610"/>
  </way>
  <way id="36287596" version="1" timestamp="2009-06-17T20:47:37Z" uid="36809" user="pfoten_weg_!_" changeset="1549602">
    <nd ref="387995266"/>
    <nd ref="423361915"/>
    <nd ref="423361918"/>
    <nd ref="423361911"/>
    <nd ref="423361912"/>
    <nd ref="423361908"/>
    <nd ref="423361909"/>
    <nd ref="423361906"/>
    <nd ref="423361907"/>
    <nd ref="423361914"/>
    <nd ref="280626358"/>
    <nd ref="423361917"/>
    <nd ref="280626472"/>
    <nd ref="423361910"/>
    <nd ref="280626520"/>
    <nd ref="280626568"/>
    <nd ref="280626643"/>
    <nd ref="280626618"/>
    <nd ref="278847819"/>
    <tag k="created_by" v="Potlatch 0.10f"/>
    <tag k="highway" v="tertiary"/>
    <tag k="name" v="Talstraße"/>
    <tag k="oneway" v="no"/>
    <tag k="ref" v="WM 5"/>
  </way>
  <way id="36287596" version="2" timestamp="2009-06-17T22:02:29Z" uid="36809" user="pfoten_weg_!_" changeset="1550007">
    <nd ref="387995266"/>
    <nd ref="423361915"/>
    <nd ref="423361918"/>
    <nd ref="423361911"/>
    <nd ref="423361912"/>
    <nd ref="423361908"/>
    <nd ref="423361909"/>
    <nd ref="423361906"/>
    <nd ref="423361907"/>
    <nd ref="423361914"/>
    <nd ref="280626358"/>
    <nd ref="423361917"/>
    <nd ref="280626472"/>
    <nd ref="423361910"/>
    <nd ref="280626520"/>
    <nd ref="280626568"/>
    <nd ref="280626643"/>
    <nd ref="280626618"/>
    <nd ref="278847819"/>
    <tag k="created_by" v="RambaZamba"/>
    <tag k="highway" v="tertiary"/>
    <tag k="name" v="Talstraße"/>
    <tag k="oneway" v="no"/>
    <tag k="ref" v="WM 5"/>
  </way>
  <way id="36287596" version="3" timestamp="2009-07-28T15:28:49Z" uid="67931" user="theonlytruth" changeset="1966415">
    <nd ref="387995266"/>
    <nd ref="423361915"/>
    <nd ref="423361918"/>
    <nd ref="450103393"/>
    <nd ref="423361911"/>
    <nd ref="423361912"/>
    <nd ref="423361908"/>
    <nd ref="423361909"/>
    <nd ref="423361906"/>
    <nd ref="423361907"/>
    <nd ref="423361914"/>
    <tag k="highway" v="tertiary"/>
    <tag k="name" v="Talstraße"/>
    <tag k="oneway" v="no"/>
    <tag k="ref" v="WM 5"/>
  </way>
  <way id="36287596" version="4" timestamp="2009-08-24T23:44:05Z" uid="36809" user="pfoten_weg_!_" changeset="2251146">
    <nd ref="387995266"/>
    <nd ref="423361915"/>
    <nd ref="423361918"/>
    <nd ref="450103393"/>
    <nd ref="423361911"/>
    <nd ref="423361912"/>
    <nd ref="423361908"/>
    <nd ref="423361909"/>
    <nd ref="423361906"/>
    <nd ref="423361907"/>
    <nd ref="423361914"/>
    <tag k="discovered_by" v="RambaZamba"/>
    <tag k="highway" v="tertiary"/>
    <tag k="name" v="Talstraße"/>
    <tag k="oneway" v="no"/>
    <tag k="ref" v="WM 5"/>
  </way>
  <way id="36287596" version="5" timestamp="2009-08-28T20:12:29Z" uid="156995" user="HampelZamba" changeset="2294580">
    <nd ref="387995266"/>
    <nd ref="423361915"/>
    <nd ref="423361918"/>
    <nd ref="450103393"/>
    <nd ref="423361911"/>
    <nd ref="423361912"/>
    <nd ref="423361908"/>
    <nd ref="423361909"/>
    <nd ref="423361906"/>
    <nd ref="423361907"/>
    <nd ref="423361914"/>
    <tag k="highway" v="tertiary"/>
    <tag k="name" v="Talstraße"/>
    <tag k="oneway" v="no"/>
    <tag k="ref" v="WM 5"/>
  </way>
  <way id="36287596" version="6" timestamp="2009-08-28T22:04:49Z" uid="36809" user="pfoten_weg_!_" changeset="2295791">
    <nd ref="387995266"/>
    <nd ref="423361915"/>
    <nd ref="423361918"/>
    <nd ref="450103393"/>
    <nd ref="423361911"/>
    <nd ref="423361912"/>
    <nd ref="423361908"/>
    <nd ref="423361909"/>
    <nd ref="423361906"/>
    <nd ref="423361907"/>
    <nd ref="423361914"/>
    <tag k="discovered_by" v="RambaZamba"/>
    <tag k="highway" v="tertiary"/>
    <tag k="name" v="Talstraße"/>
    <tag k="oneway" v="no"/>
    <tag k="ref" v="WM 5"/>
    <tag k="source" v="survey"/>
  </way>
  <way id="36287596" version="7" timestamp="2009-08-30T09:37:38Z" uid="156995" user="HampelZamba" changeset="2310659">
    <nd ref="387995266"/>
    <nd ref="423361915"/>
    <nd ref="423361918"/>
    <nd ref="450103393"/>
    <nd ref="423361911"/>
    <nd ref="423361912"/>
    <nd ref="423361908"/>
    <nd ref="423361909"/>
    <nd ref="423361906"/>
    <nd ref="423361907"/>
    <nd ref="423361914"/>
    <tag k="highway" v="tertiary"/>
    <tag k="name" v="Talstraße"/>
    <tag k="oneway" v="no"/>
    <tag k="ref" v="WM 5"/>
    <tag k="source" v="survey"/>
  </way>
  <way id="36287596" version="8" timestamp="2009-08-30T11:30:30Z" uid="36809" user="pfoten_weg_!_" changeset="2311952">
    <nd ref="387995266"/>
    <nd ref="423361915"/>
    <nd ref="423361918"/>
    <nd ref="450103393"/>
    <nd ref="423361911"/>
    <nd ref="423361912"/>
    <nd ref="423361908"/>
    <nd ref="423361909"/>
    <nd ref="423361906"/>
    <nd ref="423361907"/>
    <nd ref="423361914"/>
    <tag k="highway" v="tertiary"/>
    <tag k="name" v="Talstraße"/>
    <tag k="oneway" v="no"/>
    <tag k="ref" v="WM 5"/>
    <tag k="source" v="survey"/>
  </way>
  <way id="36287596" version="9" timestamp="2009-10-28T07:21:01Z" uid="36809" user="pfoten_weg_!_" changeset="2971189">
    <nd ref="387995266"/>
    <nd ref="423361915"/>
    <nd ref="423361918"/>
    <nd ref="450103393"/>
    <nd ref="423361911"/>
    <nd ref="423361912"/>
    <nd ref="423361908"/>
    <nd ref="423361909"/>
    <nd ref="423361906"/>
    <nd ref="423361907"/>
    <nd ref="423361914"/>
    <tag k="highway" v="tertiary"/>
    <tag k="name" v="Talstraße"/>
    <tag k="oneway" v="no"/>
    <tag k="ref" v="WM 5"/>
  </way>
  <way id="36287599" version="1" timestamp="2009-06-17T20:47:38Z" uid="36809" user="pfoten_weg_!_" changeset="1549602">
    <nd ref="423361958"/>
    <nd ref="423361929"/>
    <nd ref="423361934"/>
    <nd ref="423361931"/>
    <nd ref="423361922"/>
    <tag k="created_by" v="RambaZamba"/>
    <tag k="highway" v="residential"/>
    <tag k="name" v="Am Oberholz"/>
    <tag k="oneway" v="no"/>
  </way>
  <way id="36287599" version="2" timestamp="2009-08-24T23:51:11Z" uid="36809" user="pfoten_weg_!_" changeset="2251146">
    <nd ref="423361958"/>
    <nd ref="423361929"/>
    <nd ref="423361934"/>
    <nd ref="423361931"/>
    <nd ref="423361922"/>
    <tag k="discovered_by" v="RambaZamba"/>
    <tag k="highway" v="residential"/>
    <tag k="name" v="Am Oberholz"/>
    <tag k="oneway" v="no"/>
  </way>
  <way id="36287599" version="3" timestamp="2009-08-28T20:12:30Z" uid="156995" user="HampelZamba" changeset="2294580">
    <nd ref="423361958"/>
    <nd ref="423361929"/>
    <nd ref="423361934"/>
    <nd ref="423361931"/>
    <nd ref="423361922"/>
    <tag k="highway" v="residential"/>
    <tag k="name" v="Am Oberholz"/>
    <tag k="oneway" v="no"/>
  </way>
  <way id="36287599" version="4" timestamp="2009-08-28T22:08:53Z" uid="36809" user="pfoten_weg_!_" changeset="2295791">
    <nd ref="423361958"/>
    <nd ref="423361929"/>
    <nd ref="423361934"/>
    <nd ref="423361931"/>
    <nd ref="423361922"/>
    <tag k="discovered_by" v="RambaZamba"/>
    <tag k="highway" v="residential"/>
    <tag k="name" v="Am Oberholz"/>
    <tag k="oneway" v="no"/>
    <tag k="source" v="survey"/>
  </way>
  <way id="36287599" version="5" timestamp="2009-08-30T09:37:38Z" uid="156995" user="HampelZamba" changeset="2310659">
    <nd ref="423361958"/>
    <nd ref="423361929"/>
    <nd ref="423361934"/>
    <nd ref="423361931"/>
    <nd ref="423361922"/>
    <tag k="highway" v="residential"/>
    <tag k="name" v="Am Oberholz"/>
    <tag k="oneway" v="no"/>
    <tag k="source" v="survey"/>
  </way>
  <way id="36287599" version="6" timestamp="2009-08-30T11:29:47Z" uid="36809" user="pfoten_weg_!_" changeset="2311952">
    <nd ref="423361958"/>
    <nd ref="423361929"/>
    <nd ref="423361934"/>
    <nd ref="423361931"/>
    <nd ref="423361922"/>
    <tag k="highway" v="residential"/>
    <tag k="name" v="Am Oberholz"/>
    <tag k="oneway" v="no"/>
    <tag k="source" v="survey"/>
  </way>
  <way id="36287599" version="7" timestamp="2009-10-12T23:55:42Z" uid="36809" user="pfoten_weg_!_" changeset="2831782">
    <nd ref="423361958"/>
    <nd ref="423361929"/>
    <nd ref="423361934"/>
    <nd ref="423361931"/>
    <nd ref="423361922"/>
    <tag k="highway" v="residential"/>
    <tag k="name" v="Am Oberholz"/>
    <tag k="oneway" v="no"/>
  </way>
  <way id="36287599" version="8" timestamp="2012-02-16T23:24:00Z" uid="342705" user="KLMB" changeset="10706900">
    <nd ref="423361958"/>
    <nd ref="423361931"/>
    <nd ref="423361922"/>
    <tag k="fixme" v="löschen, sobald der Name (CT-kompatibel) an der neu eingezeichneten Straße getaggt ist"/>
    <tag k="name" v="Am Oberholz"/>
    <tag k="oneway" v="no"/>
  </way>
  <way id="36287601" version="1" timestamp="2009-06-17T20:47:38Z" uid="36809" user="pfoten_weg_!_" changeset="1549602">
    <nd ref="423361958"/>
    <nd ref="423361956"/>
    <tag k="created_by" v="RambaZamba"/>
    <tag k="highway" v="residential"/>
    <tag k="name" v="Jochbergstraße"/>
    <tag k="oneway" v="no"/>
  </way>
  <way id="36287601" version="2" timestamp="2009-08-24T23:47:17Z" uid="36809" user="pfoten_weg_!_" changeset="2251146">
    <nd ref="423361958"/>
    <nd ref="423361956"/>
    <tag k="discovered_by" v="RambaZamba"/>
    <tag k="highway" v="residential"/>
    <tag k="name" v="Jochbergstraße"/>
    <tag k="oneway" v="no"/>
  </way>
  <way id="36287601" version="3" timestamp="2009-08-28T20:12:30Z" uid="156995" user="HampelZamba" changeset="2294580">
    <nd ref="423361958"/>
    <nd ref="423361956"/>
    <tag k="highway" v="residential"/>
    <tag k="name" v="Jochbergstraße"/>
    <tag k="oneway" v="no"/>
  </way>
  <way id="36287601" version="4" timestamp="2009-08-28T22:07:59Z" uid="36809" user="pfoten_weg_!_" changeset="2295791">
    <nd ref="423361958"/>
    <nd ref="423361956"/>
    <tag k="discovered_by" v="RambaZamba"/>
    <tag k="highway" v="residential"/>
    <tag k="name" v="Jochbergstraße"/>
    <tag k="oneway" v="no"/>
    <tag k="source" v="survey"/>
  </way>
  <way id="36287601" version="5" timestamp="2009-08-30T09:37:38Z" uid="156995" user="HampelZamba" changeset="2310659">
    <nd ref="423361958"/>
    <nd ref="423361956"/>
    <tag k="highway" v="residential"/>
    <tag k="name" v="Jochbergstraße"/>
    <tag k="oneway" v="no"/>
    <tag k="source" v="survey"/>
  </way>
  <way id="36287601" version="6" timestamp="2009-08-30T11:29:55Z" uid="36809" user="pfoten_weg_!_" changeset="2311952">
    <nd ref="423361958"/>
    <nd ref="423361956"/>
    <tag k="highway" v="residential"/>
    <tag k="name" v="Jochbergstraße"/>
    <tag k="oneway" v="no"/>
    <tag k="source" v="survey"/>
  </way>
  <way id="36287601" version="7" timestamp="2009-10-12T23:55:40Z" uid="36809" user="pfoten_weg_!_" changeset="2831782">
    <nd ref="423361958"/>
    <nd ref="423361956"/>
    <tag k="highway" v="residential"/>
    <tag k="name" v="Jochbergstraße"/>
    <tag k="oneway" v="no"/>
  </way>
  <way id="36287601" version="8" timestamp="2012-02-16T23:24:06Z" uid="342705" user="KLMB" changeset="10706900">
    <nd ref="423361958"/>
    <nd ref="423361956"/>
    <tag k="fixme" v="löschen, sobald der Name (CT-kompatibel) an der neu eingezeichneten Straße getaggt ist"/>
    <tag k="name" v="Jochbergstraße"/>
    <tag k="oneway" v="no"/>
  </way>
  <way id="36287602" version="1" timestamp="2009-06-17T20:47:38Z" uid="36809" user="pfoten_weg_!_" changeset="1549602">
    <nd ref="423361959"/>
    <nd ref="423361932"/>
    <nd ref="423361942"/>
    <nd ref="423361922"/>
    <nd ref="423361939"/>
    <nd ref="423361946"/>
    <nd ref="387994342"/>
    <tag k="created_by" v="xybot"/>
    <tag k="highway" v="residential"/>
    <tag k="name" v="Alpenstraße"/>
    <tag k="oneway" v="no"/>
  </way>
  <way id="36287602" version="2" timestamp="2009-06-17T22:02:26Z" uid="36809" user="pfoten_weg_!_" changeset="1550007">
    <nd ref="423361959"/>
    <nd ref="423361932"/>
    <nd ref="423361942"/>
    <nd ref="423361922"/>
    <nd ref="423361939"/>
    <nd ref="423361946"/>
    <nd ref="387994342"/>
    <tag k="created_by" v="RambaZamba"/>
    <tag k="highway" v="residential"/>
    <tag k="name" v="Alpenstraße"/>
    <tag k="oneway" v="no"/>
  </way>
  <way id="36287602" version="3" timestamp="2009-08-24T23:47:32Z" uid="36809" user="pfoten_weg_!_" changeset="2251146">
    <nd ref="423361959"/>
    <nd ref="423361932"/>
    <nd ref="423361942"/>
    <nd ref="423361922"/>
    <nd ref="423361939"/>
    <nd ref="423361946"/>
    <nd ref="387994342"/>
    <tag k="discovered_by" v="RambaZamba"/>
    <tag k="highway" v="residential"/>
    <tag k="name" v="Alpenstraße"/>
    <tag k="oneway" v="no"/>
  </way>
  <way id="36287602" version="4" timestamp="2009-08-28T20:12:30Z" uid="156995" user="HampelZamba" changeset="2294580">
    <nd ref="423361959"/>
    <nd ref="423361932"/>
    <nd ref="423361942"/>
    <nd ref="423361922"/>
    <nd ref="423361939"/>
    <nd ref="423361946"/>
    <nd ref="387994342"/>
    <tag k="highway" v="residential"/>
    <tag k="name" v="Alpenstraße"/>
    <tag k="oneway" v="no"/>
  </way>
  <way id="36287602" version="5" timestamp="2009-08-28T21:58:21Z" uid="36809" user="pfoten_weg_!_" changeset="2295791">
    <nd ref="423361959"/>
    <nd ref="423361932"/>
    <nd ref="423361942"/>
    <nd ref="423361922"/>
    <nd ref="423361939"/>
    <nd ref="423361946"/>
    <nd ref="387994342"/>
    <tag k="discovered_by" v="RambaZamba"/>
    <tag k="highway" v="residential"/>
    <tag k="name" v="Alpenstraße"/>
    <tag k="oneway" v="no"/>
    <tag k="source" v="survey"/>
  </way>
  <way id="36287602" version="6" timestamp="2009-08-30T09:37:38Z" uid="156995" user="HampelZamba" changeset="2310659">
    <nd ref="423361959"/>
    <nd ref="423361932"/>
    <nd ref="423361942"/>
    <nd ref="423361922"/>
    <nd ref="423361939"/>
    <nd ref="423361946"/>
    <nd ref="387994342"/>
    <tag k="highway" v="residential"/>
    <tag k="name" v="Alpenstraße"/>
    <tag k="oneway" v="no"/>
    <tag k="source" v="survey"/>
  </way>
  <way id="36287602" version="7" timestamp="2009-08-30T11:29:23Z" uid="36809" user="pfoten_weg_!_" changeset="2311952">
    <nd ref="423361959"/>
    <nd ref="423361932"/>
    <nd ref="423361942"/>
    <nd ref="423361922"/>
    <nd ref="423361939"/>
    <nd ref="423361946"/>
    <nd ref="387994342"/>
    <tag k="highway" v="residential"/>
    <tag k="name" v="Alpenstraße"/>
    <tag k="oneway" v="no"/>
    <tag k="source" v="survey"/>
  </way>
  <way id="36287602" version="8" timestamp="2009-10-12T23:55:41Z" uid="36809" user="pfoten_weg_!_" changeset="2831782">
    <nd ref="423361959"/>
    <nd ref="423361932"/>
    <nd ref="423361942"/>
    <nd ref="423361922"/>
    <nd ref="423361939"/>
    <nd ref="423361946"/>
    <nd ref="387994342"/>
    <tag k="highway" v="residential"/>
    <tag k="name" v="Alpenstraße"/>
    <tag k="oneway" v="no"/>
  </way>
  <way id="36287602" version="9" timestamp="2011-07-23T16:18:53Z" uid="342705" user="KLMB" changeset="8807722">
    <nd ref="423361959"/>
    <nd ref="423361932"/>
    <nd ref="423361922"/>
    <nd ref="423361939"/>
    <nd ref="423361946"/>
    <nd ref="387994342"/>
    <tag k="highway" v="residential"/>
    <tag k="name" v="Alpenstraße"/>
    <tag k="oneway" v="no"/>
  </way>
  <way id="36287602" version="10" timestamp="2012-02-16T23:23:58Z" uid="342705" user="KLMB" changeset="10706900">
    <nd ref="423361959"/>
    <nd ref="423361922"/>
    <nd ref="423361939"/>
    <nd ref="423361946"/>
    <nd ref="387994342"/>
    <tag k="fixme" v="löschen, sobald der Name (CT-kompatibel) an der neu eingezeichneten Straße getaggt ist"/>
    <tag k="name" v="Alpenstraße"/>
    <tag k="oneway" v="no"/>
  </way>
  <way id="36287604" version="1" timestamp="2009-06-17T20:47:38Z" uid="36809" user="pfoten_weg_!_" changeset="1549602">
    <nd ref="423361951"/>
    <nd ref="423361941"/>
    <nd ref="423361928"/>
    <nd ref="423361939"/>
    <tag k="created_by" v="RambaZamba"/>
    <tag k="highway" v="residential"/>
    <tag k="name" v="Herzogstandstraße"/>
    <tag k="oneway" v="no"/>
  </way>
  <way id="36287604" version="2" timestamp="2009-08-24T23:52:01Z" uid="36809" user="pfoten_weg_!_" changeset="2251146">
    <nd ref="423361951"/>
    <nd ref="423361941"/>
    <nd ref="423361928"/>
    <nd ref="423361939"/>
    <tag k="discovered_by" v="RambaZamba"/>
    <tag k="highway" v="residential"/>
    <tag k="name" v="Herzogstandstraße"/>
    <tag k="oneway" v="no"/>
  </way>
  <way id="36287604" version="3" timestamp="2009-08-28T20:12:30Z" uid="156995" user="HampelZamba" changeset="2294580">
    <nd ref="423361951"/>
    <nd ref="423361941"/>
    <nd ref="423361928"/>
    <nd ref="423361939"/>
    <tag k="highway" v="residential"/>
    <tag k="name" v="Herzogstandstraße"/>
    <tag k="oneway" v="no"/>
  </way>
  <way id="36287604" version="4" timestamp="2009-08-28T22:08:10Z" uid="36809" user="pfoten_weg_!_" changeset="2295791">
    <nd ref="423361951"/>
    <nd ref="423361941"/>
    <nd ref="423361928"/>
    <nd ref="423361939"/>
    <tag k="discovered_by" v="RambaZamba"/>
    <tag k="highway" v="residential"/>
    <tag k="name" v="Herzogstandstraße"/>
    <tag k="oneway" v="no"/>
    <tag k="source" v="survey"/>
  </way>
  <way id="36287604" version="5" timestamp="2009-08-30T09:37:39Z" uid="156995" user="HampelZamba" changeset="2310659">
    <nd ref="423361951"/>
    <nd ref="423361941"/>
    <nd ref="423361928"/>
    <nd ref="423361939"/>
    <tag k="highway" v="residential"/>
    <tag k="name" v="Herzogstandstraße"/>
    <tag k="oneway" v="no"/>
    <tag k="source" v="survey"/>
  </way>
  <way id="36287604" version="6" timestamp="2009-08-30T11:27:57Z" uid="36809" user="pfoten_weg_!_" changeset="2311952">
    <nd ref="423361951"/>
    <nd ref="423361941"/>
    <nd ref="423361928"/>
    <nd ref="423361939"/>
    <tag k="highway" v="residential"/>
    <tag k="name" v="Herzogstandstraße"/>
    <tag k="oneway" v="no"/>
    <tag k="source" v="survey"/>
  </way>
  <way id="36287604" version="7" timestamp="2009-10-12T23:55:44Z" uid="36809" user="pfoten_weg_!_" changeset="2831782">
    <nd ref="423361951"/>
    <nd ref="423361941"/>
    <nd ref="423361928"/>
    <nd ref="423361939"/>
    <tag k="highway" v="residential"/>
    <tag k="name" v="Herzogstandstraße"/>
    <tag k="oneway" v="no"/>
  </way>
  <way id="36287604" version="8" timestamp="2012-02-16T23:24:06Z" uid="342705" user="KLMB" changeset="10706900">
    <nd ref="423361951"/>
    <nd ref="423361928"/>
    <nd ref="423361939"/>
    <tag k="fixme" v="löschen, sobald der Name (CT-kompatibel) an der neu eingezeichneten Straße getaggt ist"/>
    <tag k="name" v="Herzogstandstraße"/>
    <tag k="oneway" v="no"/>
  </way>
  <way id="36287605" version="1" timestamp="2009-06-17T20:47:38Z" uid="36809" user="pfoten_weg_!_" changeset="1549602">
    <nd ref="423361946"/>
    <nd ref="423361948"/>
    <nd ref="423361931"/>
    <tag k="created_by" v="RambaZamba"/>
    <tag k="highway" v="residential"/>
    <tag k="name" v="Am Oberholz"/>
    <tag k="oneway" v="no"/>
  </way>
  <way id="36287605" version="4" timestamp="2009-08-24T23:45:47Z" uid="36809" user="pfoten_weg_!_" changeset="2251146">
    <nd ref="423361946"/>
    <nd ref="423361948"/>
    <nd ref="423361931"/>
    <tag k="discovered_by" v="RambaZamba"/>
    <tag k="highway" v="residential"/>
    <tag k="name" v="Am Oberholz"/>
    <tag k="oneway" v="no"/>
  </way>
  <way id="36287605" version="5" timestamp="2009-08-28T20:12:30Z" uid="156995" user="HampelZamba" changeset="2294580">
    <nd ref="423361946"/>
    <nd ref="423361948"/>
    <nd ref="423361931"/>
    <tag k="highway" v="residential"/>
    <tag k="name" v="Am Oberholz"/>
    <tag k="oneway" v="no"/>
  </way>
  <way id="36287605" version="6" timestamp="2009-08-28T22:05:23Z" uid="36809" user="pfoten_weg_!_" changeset="2295791">
    <nd ref="423361946"/>
    <nd ref="423361948"/>
    <nd ref="423361931"/>
    <tag k="discovered_by" v="RambaZamba"/>
    <tag k="highway" v="residential"/>
    <tag k="name" v="Am Oberholz"/>
    <tag k="oneway" v="no"/>
    <tag k="source" v="survey"/>
  </way>
  <way id="36287605" version="7" timestamp="2009-08-30T09:37:39Z" uid="156995" user="HampelZamba" changeset="2310659">
    <nd ref="423361946"/>
    <nd ref="423361948"/>
    <nd ref="423361931"/>
    <tag k="highway" v="residential"/>
    <tag k="name" v="Am Oberholz"/>
    <tag k="oneway" v="no"/>
    <tag k="source" v="survey"/>
  </way>
  <way id="36287605" version="8" timestamp="2009-08-30T11:25:45Z" uid="36809" user="pfoten_weg_!_" changeset="2311952">
    <nd ref="423361946"/>
    <nd ref="423361948"/>
    <nd ref="423361931"/>
    <tag k="highway" v="residential"/>
    <tag k="name" v="Am Oberholz"/>
    <tag k="oneway" v="no"/>
    <tag k="source" v="survey"/>
  </way>
  <way id="36287605" version="9" timestamp="2009-10-12T23:55:41Z" uid="36809" user="pfoten_weg_!_" changeset="2831782">
    <nd ref="423361946"/>
    <nd ref="423361948"/>
    <nd ref="423361931"/>
    <tag k="highway" v="residential"/>
    <tag k="name" v="Am Oberholz"/>
    <tag k="oneway" v="no"/>
  </way>
  <way id="36287607" version="1" timestamp="2009-06-17T20:47:38Z" uid="36809" user="pfoten_weg_!_" changeset="1549602">
    <nd ref="423361938"/>
    <nd ref="423361948"/>
    <tag k="created_by" v="RambaZamba"/>
    <tag k="highway" v="residential"/>
    <tag k="name" v="Am Oberholz"/>
    <tag k="oneway" v="no"/>
  </way>
  <way id="36287607" version="2" timestamp="2009-08-24T23:50:26Z" uid="36809" user="pfoten_weg_!_" changeset="2251146">
    <nd ref="423361938"/>
    <nd ref="423361948"/>
    <tag k="discovered_by" v="RambaZamba"/>
    <tag k="highway" v="residential"/>
    <tag k="name" v="Am Oberholz"/>
    <tag k="oneway" v="no"/>
  </way>
  <way id="36287607" version="3" timestamp="2009-08-28T20:12:30Z" uid="156995" user="HampelZamba" changeset="2294580">
    <nd ref="423361938"/>
    <nd ref="423361948"/>
    <tag k="highway" v="residential"/>
    <tag k="name" v="Am Oberholz"/>
    <tag k="oneway" v="no"/>
  </way>
  <way id="36287607" version="4" timestamp="2009-08-28T22:12:36Z" uid="36809" user="pfoten_weg_!_" changeset="2295791">
    <nd ref="423361938"/>
    <nd ref="423361948"/>
    <tag k="discovered_by" v="RambaZamba"/>
    <tag k="highway" v="residential"/>
    <tag k="name" v="Am Oberholz"/>
    <tag k="oneway" v="no"/>
    <tag k="source" v="survey"/>
  </way>
  <way id="36287607" version="5" timestamp="2009-08-30T09:37:39Z" uid="156995" user="HampelZamba" changeset="2310659">
    <nd ref="423361938"/>
    <nd ref="423361948"/>
    <tag k="highway" v="residential"/>
    <tag k="name" v="Am Oberholz"/>
    <tag k="oneway" v="no"/>
    <tag k="source" v="survey"/>
  </way>
  <way id="36287607" version="6" timestamp="2009-08-30T11:21:56Z" uid="36809" user="pfoten_weg_!_" changeset="2311952">
    <nd ref="423361938"/>
    <nd ref="423361948"/>
    <tag k="highway" v="residential"/>
    <tag k="name" v="Am Oberholz"/>
    <tag k="oneway" v="no"/>
    <tag k="source" v="survey"/>
  </way>
  <way id="36287607" version="7" timestamp="2009-10-12T23:55:45Z" uid="36809" user="pfoten_weg_!_" changeset="2831782">
    <nd ref="423361938"/>
    <nd ref="423361948"/>
    <tag k="highway" v="residential"/>
    <tag k="name" v="Am Oberholz"/>
    <tag k="oneway" v="no"/>
  </way>
  <way id="36287608" version="1" timestamp="2009-06-17T20:47:38Z" uid="36809" user="pfoten_weg_!_" changeset="1549602">
    <nd ref="423361954"/>
    <nd ref="423361949"/>
    <nd ref="423361958"/>
    <nd ref="423361962"/>
    <nd ref="387994341"/>
    <tag k="created_by" v="RambaZamba"/>
    <tag k="highway" v="residential"/>
    <tag k="name" v="Jochbergstraße"/>
    <tag k="oneway" v="no"/>
  </way>
  <way id="36287608" version="2" timestamp="2009-08-24T23:44:36Z" uid="36809" user="pfoten_weg_!_" changeset="2251146">
    <nd ref="423361954"/>
    <nd ref="423361949"/>
    <nd ref="423361958"/>
    <nd ref="423361962"/>
    <nd ref="387994341"/>
    <tag k="discovered_by" v="RambaZamba"/>
    <tag k="highway" v="residential"/>
    <tag k="name" v="Jochbergstraße"/>
    <tag k="oneway" v="no"/>
  </way>
  <way id="36287608" version="3" timestamp="2009-08-28T20:12:30Z" uid="156995" user="HampelZamba" changeset="2294580">
    <nd ref="423361954"/>
    <nd ref="423361949"/>
    <nd ref="423361958"/>
    <nd ref="423361962"/>
    <nd ref="387994341"/>
    <tag k="highway" v="residential"/>
    <tag k="name" v="Jochbergstraße"/>
    <tag k="oneway" v="no"/>
  </way>
  <way id="36287608" version="4" timestamp="2009-08-28T22:12:42Z" uid="36809" user="pfoten_weg_!_" changeset="2295791">
    <nd ref="423361954"/>
    <nd ref="423361949"/>
    <nd ref="423361958"/>
    <nd ref="423361962"/>
    <nd ref="387994341"/>
    <tag k="discovered_by" v="RambaZamba"/>
    <tag k="highway" v="residential"/>
    <tag k="name" v="Jochbergstraße"/>
    <tag k="oneway" v="no"/>
    <tag k="source" v="survey"/>
  </way>
  <way id="36287608" version="5" timestamp="2009-08-30T09:37:39Z" uid="156995" user="HampelZamba" changeset="2310659">
    <nd ref="423361954"/>
    <nd ref="423361949"/>
    <nd ref="423361958"/>
    <nd ref="423361962"/>
    <nd ref="387994341"/>
    <tag k="highway" v="residential"/>
    <tag k="name" v="Jochbergstraße"/>
    <tag k="oneway" v="no"/>
    <tag k="source" v="survey"/>
  </way>
  <way id="36287608" version="6" timestamp="2009-08-30T11:23:56Z" uid="36809" user="pfoten_weg_!_" changeset="2311952">
    <nd ref="423361954"/>
    <nd ref="423361949"/>
    <nd ref="423361958"/>
    <nd ref="423361962"/>
    <nd ref="387994341"/>
    <tag k="highway" v="residential"/>
    <tag k="name" v="Jochbergstraße"/>
    <tag k="oneway" v="no"/>
    <tag k="source" v="survey"/>
  </way>
  <way id="36287608" version="7" timestamp="2009-10-12T23:55:40Z" uid="36809" user="pfoten_weg_!_" changeset="2831782">
    <nd ref="423361954"/>
    <nd ref="423361949"/>
    <nd ref="423361958"/>
    <nd ref="423361962"/>
    <nd ref="387994341"/>
    <tag k="highway" v="residential"/>
    <tag k="name" v="Jochbergstraße"/>
    <tag k="oneway" v="no"/>
  </way>
  <way id="36287608" version="8" timestamp="2012-02-16T23:24:07Z" uid="342705" user="KLMB" changeset="10706900">
    <nd ref="423361954"/>
    <nd ref="423361958"/>
    <nd ref="387994341"/>
    <tag k="fixme" v="löschen, sobald der Name (CT-kompatibel) an der neu eingezeichneten Straße getaggt ist"/>
    <tag k="name" v="Jochbergstraße"/>
    <tag k="oneway" v="no"/>
  </way>
  <way id="36287610" version="1" timestamp="2009-06-17T20:47:38Z" uid="36809" user="pfoten_weg_!_" changeset="1549602">
    <nd ref="423361926"/>
    <nd ref="423361951"/>
    <nd ref="423361935"/>
    <nd ref="423361955"/>
    <nd ref="423361961"/>
    <nd ref="423361959"/>
    <tag k="created_by" v="xybot"/>
    <tag k="highway" v="residential"/>
    <tag k="name" v="Heimgartenstraße"/>
    <tag k="oneway" v="no"/>
  </way>
  <way id="36287610" version="2" timestamp="2009-06-17T22:02:21Z" uid="36809" user="pfoten_weg_!_" changeset="1550007">
    <nd ref="423361926"/>
    <nd ref="423361951"/>
    <nd ref="423361935"/>
    <nd ref="423361955"/>
    <nd ref="423361961"/>
    <nd ref="423361959"/>
    <tag k="created_by" v="RambaZamba"/>
    <tag k="highway" v="residential"/>
    <tag k="name" v="Heimgartenstraße"/>
    <tag k="oneway" v="no"/>
  </way>
  <way id="36287610" version="3" timestamp="2009-08-24T23:45:13Z" uid="36809" user="pfoten_weg_!_" changeset="2251146">
    <nd ref="423361926"/>
    <nd ref="423361951"/>
    <nd ref="423361935"/>
    <nd ref="423361955"/>
    <nd ref="423361961"/>
    <nd ref="423361959"/>
    <tag k="discovered_by" v="RambaZamba"/>
    <tag k="highway" v="residential"/>
    <tag k="name" v="Heimgartenstraße"/>
    <tag k="oneway" v="no"/>
  </way>
  <way id="36287610" version="4" timestamp="2009-08-25T17:09:16Z" uid="85761" user="klausis" changeset="2258884">
    <nd ref="473707129"/>
    <nd ref="423361951"/>
    <nd ref="423361935"/>
    <nd ref="423361955"/>
    <nd ref="423361961"/>
    <nd ref="423361959"/>
    <tag k="discovered_by" v="RambaZamba"/>
    <tag k="highway" v="residential"/>
    <tag k="name" v="Heimgartenstraße"/>
    <tag k="oneway" v="no"/>
  </way>
  <way id="36287610" version="5" timestamp="2009-08-28T20:12:30Z" uid="156995" user="HampelZamba" changeset="2294580">
    <nd ref="473707129"/>
    <nd ref="423361951"/>
    <nd ref="423361935"/>
    <nd ref="423361955"/>
    <nd ref="423361961"/>
    <nd ref="423361959"/>
    <tag k="highway" v="residential"/>
    <tag k="name" v="Heimgartenstraße"/>
    <tag k="oneway" v="no"/>
  </way>
  <way id="36287610" version="6" timestamp="2009-08-28T22:11:56Z" uid="36809" user="pfoten_weg_!_" changeset="2295791">
    <nd ref="473707129"/>
    <nd ref="423361951"/>
    <nd ref="423361935"/>
    <nd ref="423361955"/>
    <nd ref="423361961"/>
    <nd ref="423361959"/>
    <tag k="discovered_by" v="RambaZamba"/>
    <tag k="highway" v="residential"/>
    <tag k="name" v="Heimgartenstraße"/>
    <tag k="oneway" v="no"/>
    <tag k="source" v="survey"/>
  </way>
  <way id="36287610" version="7" timestamp="2009-08-30T09:37:39Z" uid="156995" user="HampelZamba" changeset="2310659">
    <nd ref="473707129"/>
    <nd ref="423361951"/>
    <nd ref="423361935"/>
    <nd ref="423361955"/>
    <nd ref="423361961"/>
    <nd ref="423361959"/>
    <tag k="highway" v="residential"/>
    <tag k="name" v="Heimgartenstraße"/>
    <tag k="oneway" v="no"/>
    <tag k="source" v="survey"/>
  </way>
  <way id="36287610" version="8" timestamp="2009-08-30T11:31:01Z" uid="36809" user="pfoten_weg_!_" changeset="2311952">
    <nd ref="473707129"/>
    <nd ref="423361951"/>
    <nd ref="423361935"/>
    <nd ref="423361955"/>
    <nd ref="423361961"/>
    <nd ref="423361959"/>
    <tag k="highway" v="residential"/>
    <tag k="name" v="Heimgartenstraße"/>
    <tag k="oneway" v="no"/>
    <tag k="source" v="survey"/>
  </way>
  <way id="36287610" version="9" timestamp="2009-10-12T23:55:44Z" uid="36809" user="pfoten_weg_!_" changeset="2831782">
    <nd ref="473707129"/>
    <nd ref="423361951"/>
    <nd ref="423361935"/>
    <nd ref="423361955"/>
    <nd ref="423361961"/>
    <nd ref="423361959"/>
    <tag k="highway" v="residential"/>
    <tag k="name" v="Heimgartenstraße"/>
    <tag k="oneway" v="no"/>
  </way>
  <way id="36287610" version="10" timestamp="2012-02-16T23:24:06Z" uid="342705" user="KLMB" changeset="10706900">
    <nd ref="473707129"/>
    <nd ref="423361951"/>
    <nd ref="423361959"/>
    <tag k="fixme" v="löschen, sobald der Name (CT-kompatibel) an der neu eingezeichneten Straße getaggt ist"/>
    <tag k="name" v="Heimgartenstraße"/>
    <tag k="oneway" v="no"/>
  </way>
  <way id="36287615" version="1" timestamp="2009-06-17T20:47:39Z" uid="36809" user="pfoten_weg_!_" changeset="1549602">
    <nd ref="423361924"/>
    <nd ref="423361935"/>
    <tag k="created_by" v="xybot"/>
    <tag k="highway" v="residential"/>
    <tag k="name" v="Heimgartenstraße"/>
    <tag k="oneway" v="no"/>
  </way>
  <way id="36287615" version="2" timestamp="2009-06-17T22:02:26Z" uid="36809" user="pfoten_weg_!_" changeset="1550007">
    <nd ref="423361924"/>
    <nd ref="423361935"/>
    <tag k="created_by" v="RambaZamba"/>
    <tag k="highway" v="residential"/>
    <tag k="name" v="Heimgartenstraße"/>
    <tag k="oneway" v="no"/>
  </way>
  <way id="36287615" version="3" timestamp="2009-08-24T23:48:19Z" uid="36809" user="pfoten_weg_!_" changeset="2251146">
    <nd ref="423361924"/>
    <nd ref="423361935"/>
    <tag k="discovered_by" v="RambaZamba"/>
    <tag k="highway" v="residential"/>
    <tag k="name" v="Heimgartenstraße"/>
    <tag k="oneway" v="no"/>
  </way>
  <way id="36287615" version="4" timestamp="2009-08-28T20:12:30Z" uid="156995" user="HampelZamba" changeset="2294580">
    <nd ref="423361924"/>
    <nd ref="423361935"/>
    <tag k="highway" v="residential"/>
    <tag k="name" v="Heimgartenstraße"/>
    <tag k="oneway" v="no"/>
  </way>
  <way id="36287615" version="5" timestamp="2009-08-28T22:03:52Z" uid="36809" user="pfoten_weg_!_" changeset="2295791">
    <nd ref="423361924"/>
    <nd ref="423361935"/>
    <tag k="discovered_by" v="RambaZamba"/>
    <tag k="highway" v="residential"/>
    <tag k="name" v="Heimgartenstraße"/>
    <tag k="oneway" v="no"/>
    <tag k="source" v="survey"/>
  </way>
  <way id="36287615" version="6" timestamp="2009-08-30T09:37:39Z" uid="156995" user="HampelZamba" changeset="2310659">
    <nd ref="423361924"/>
    <nd ref="423361935"/>
    <tag k="highway" v="residential"/>
    <tag k="name" v="Heimgartenstraße"/>
    <tag k="oneway" v="no"/>
    <tag k="source" v="survey"/>
  </way>
  <way id="36287615" version="7" timestamp="2009-08-30T11:28:44Z" uid="36809" user="pfoten_weg_!_" changeset="2311952">
    <nd ref="423361924"/>
    <nd ref="423361935"/>
    <tag k="highway" v="residential"/>
    <tag k="name" v="Heimgartenstraße"/>
    <tag k="oneway" v="no"/>
    <tag k="source" v="survey"/>
  </way>
  <way id="36287615" version="8" timestamp="2009-10-12T23:55:44Z" uid="36809" user="pfoten_weg_!_" changeset="2831782">
    <nd ref="423361924"/>
    <nd ref="423361935"/>
    <tag k="highway" v="residential"/>
    <tag k="name" v="Heimgartenstraße"/>
    <tag k="oneway" v="no"/>
  </way>
  <way id="36287615" version="9" timestamp="2012-02-16T23:24:35Z" uid="342705" user="KLMB" changeset="10706900"/>
  <way id="36287617" version="1" timestamp="2009-06-17T20:47:39Z" uid="36809" user="pfoten_weg_!_" changeset="1549602">
    <nd ref="423361960"/>
    <nd ref="423361957"/>
    <nd ref="423361953"/>
    <nd ref="423361940"/>
    <nd ref="423361944"/>
    <nd ref="423361937"/>
    <nd ref="423361925"/>
    <nd ref="417942098"/>
    <tag k="highway" v="footway"/>
    <tag k="name" v="Schulweg"/>
  </way>
  <way id="36287617" version="2" timestamp="2009-06-17T22:02:18Z" uid="36809" user="pfoten_weg_!_" changeset="1550007">
    <nd ref="423361960"/>
    <nd ref="423361957"/>
    <nd ref="423361953"/>
    <nd ref="423361940"/>
    <nd ref="423361944"/>
    <nd ref="423361937"/>
    <nd ref="423361925"/>
    <nd ref="417942098"/>
    <tag k="created_by" v="RambaZamba"/>
    <tag k="highway" v="footway"/>
    <tag k="name" v="Schulweg"/>
  </way>
  <way id="36287617" version="3" timestamp="2009-08-24T23:52:20Z" uid="36809" user="pfoten_weg_!_" changeset="2251146">
    <nd ref="423361960"/>
    <nd ref="423361957"/>
    <nd ref="423361953"/>
    <nd ref="423361940"/>
    <nd ref="423361944"/>
    <nd ref="423361937"/>
    <nd ref="423361925"/>
    <nd ref="417942098"/>
    <tag k="discovered_by" v="RambaZamba"/>
    <tag k="highway" v="footway"/>
    <tag k="name" v="Schulweg"/>
  </way>
  <way id="36287617" version="4" timestamp="2009-08-25T17:09:17Z" uid="85761" user="klausis" changeset="2258884">
    <nd ref="473707131"/>
    <nd ref="423361957"/>
    <nd ref="473707129"/>
    <nd ref="423361953"/>
    <nd ref="423361940"/>
    <nd ref="423361944"/>
    <nd ref="423361937"/>
    <nd ref="423361925"/>
    <nd ref="417942098"/>
    <tag k="discovered_by" v="RambaZamba"/>
    <tag k="highway" v="footway"/>
    <tag k="name" v="Schulweg"/>
  </way>
  <way id="36287617" version="5" timestamp="2009-08-28T20:12:31Z" uid="156995" user="HampelZamba" changeset="2294580">
    <nd ref="473707131"/>
    <nd ref="423361957"/>
    <nd ref="473707129"/>
    <nd ref="423361953"/>
    <nd ref="423361940"/>
    <nd ref="423361944"/>
    <nd ref="423361937"/>
    <nd ref="423361925"/>
    <nd ref="417942098"/>
    <tag k="highway" v="footway"/>
    <tag k="name" v="Schulweg"/>
  </way>
  <way id="36287617" version="6" timestamp="2009-08-28T22:09:55Z" uid="36809" user="pfoten_weg_!_" changeset="2295791">
    <nd ref="473707131"/>
    <nd ref="423361957"/>
    <nd ref="473707129"/>
    <nd ref="423361953"/>
    <nd ref="423361940"/>
    <nd ref="423361944"/>
    <nd ref="423361937"/>
    <nd ref="423361925"/>
    <nd ref="417942098"/>
    <tag k="discovered_by" v="RambaZamba"/>
    <tag k="highway" v="footway"/>
    <tag k="name" v="Schulweg"/>
    <tag k="source" v="survey"/>
  </way>
  <way id="36287617" version="7" timestamp="2009-08-30T09:37:40Z" uid="156995" user="HampelZamba" changeset="2310659">
    <nd ref="473707131"/>
    <nd ref="423361957"/>
    <nd ref="473707129"/>
    <nd ref="423361953"/>
    <nd ref="423361940"/>
    <nd ref="423361944"/>
    <nd ref="423361937"/>
    <nd ref="423361925"/>
    <nd ref="417942098"/>
    <tag k="highway" v="footway"/>
    <tag k="name" v="Schulweg"/>
    <tag k="source" v="survey"/>
  </way>
  <way id="36287617" version="8" timestamp="2009-08-30T11:25:26Z" uid="36809" user="pfoten_weg_!_" changeset="2311952">
    <nd ref="473707131"/>
    <nd ref="423361957"/>
    <nd ref="473707129"/>
    <nd ref="423361953"/>
    <nd ref="423361940"/>
    <nd ref="423361944"/>
    <nd ref="423361937"/>
    <nd ref="423361925"/>
    <nd ref="417942098"/>
    <tag k="highway" v="footway"/>
    <tag k="name" v="Schulweg"/>
    <tag k="source" v="survey"/>
  </way>
  <way id="36287617" version="9" timestamp="2009-10-12T23:55:43Z" uid="36809" user="pfoten_weg_!_" changeset="2831782">
    <nd ref="473707131"/>
    <nd ref="423361957"/>
    <nd ref="473707129"/>
    <nd ref="423361953"/>
    <nd ref="423361940"/>
    <nd ref="423361944"/>
    <nd ref="423361937"/>
    <nd ref="423361925"/>
    <nd ref="417942098"/>
    <tag k="highway" v="footway"/>
    <tag k="name" v="Schulweg"/>
  </way>
  <way id="36287617" version="10" timestamp="2012-02-16T23:24:14Z" uid="342705" user="KLMB" changeset="10706900">
    <nd ref="473707131"/>
    <nd ref="423361957"/>
    <nd ref="1635867207"/>
    <nd ref="473707129"/>
    <nd ref="423361953"/>
    <nd ref="423361940"/>
    <nd ref="423361944"/>
    <nd ref="423361937"/>
    <nd ref="423361925"/>
    <nd ref="417942098"/>
    <tag k="highway" v="footway"/>
    <tag k="name" v="Schulweg"/>
  </way>
  <way id="36287617" version="11" timestamp="2012-03-04T20:04:43Z" uid="342705" user="KLMB" changeset="10873249"/>
  <way id="36287778" version="1" timestamp="2009-06-17T20:48:45Z" uid="6269" user="Mueck" changeset="1549517">
    <nd ref="385460906"/>
    <nd ref="21434611"/>
    <nd ref="30949816"/>
    <nd ref="26974369"/>
    <nd ref="26974370"/>
    <nd ref="26974371"/>
    <nd ref="16261959"/>
    <nd ref="275971241"/>
    <nd ref="248220054"/>
    <tag k="created_by" v="Potlatch 0.9c"/>
    <tag k="highway" v="residential"/>
    <tag k="name" v="Frauenhäusleweg"/>
  </way>
  <way id="36287778" version="2" timestamp="2009-06-17T20:49:44Z" uid="6269" user="Mueck" changeset="1549517">
    <nd ref="385460906"/>
    <nd ref="30949816"/>
    <nd ref="26974369"/>
    <nd ref="26974370"/>
    <nd ref="26974371"/>
    <nd ref="16261959"/>
    <nd ref="275971241"/>
    <nd ref="248220054"/>
    <tag k="created_by" v="Potlatch 0.9c"/>
    <tag k="highway" v="residential"/>
    <tag k="name" v="Frauenhäusleweg"/>
  </way>
  <way id="36287778" version="4" timestamp="2011-02-19T12:42:06Z" uid="6269" user="Mueck" changeset="7331340">
    <nd ref="385460906"/>
    <nd ref="30949816"/>
    <nd ref="26974369"/>
    <nd ref="1161214227"/>
    <nd ref="1161214413"/>
    <nd ref="26974370"/>
    <nd ref="1161214365"/>
    <nd ref="1161214565"/>
    <nd ref="26974371"/>
    <nd ref="16261959"/>
    <nd ref="1161214472"/>
    <nd ref="275971241"/>
    <nd ref="248220054"/>
    <tag k="highway" v="residential"/>
    <tag k="name" v="Frauenhäusleweg"/>
  </way>
  <way id="36287778" version="5" timestamp="2011-08-06T19:38:59Z" uid="165061" user="keinname" changeset="8940658">
    <nd ref="385460906"/>
    <nd ref="1388772794"/>
    <nd ref="30949816"/>
    <nd ref="26974369"/>
    <nd ref="1161214227"/>
    <nd ref="1161214413"/>
    <nd ref="26974370"/>
    <nd ref="1161214365"/>
    <nd ref="1161214565"/>
    <nd ref="26974371"/>
    <nd ref="16261959"/>
    <nd ref="1161214472"/>
    <nd ref="275971241"/>
    <nd ref="248220054"/>
    <tag k="highway" v="residential"/>
    <tag k="name" v="Frauenhäusleweg"/>
  </way>
  <way id="36287778" version="6" timestamp="2011-09-21T20:12:33Z" uid="212553" user="ARWIE" changeset="9363571">
    <nd ref="385460906"/>
    <nd ref="1388772794"/>
    <nd ref="30949816"/>
    <nd ref="1439642370"/>
    <nd ref="26974369"/>
    <nd ref="1439642372"/>
    <nd ref="1161214227"/>
    <nd ref="1439642374"/>
    <nd ref="1161214413"/>
    <nd ref="1439642377"/>
    <nd ref="26974370"/>
    <nd ref="1439642378"/>
    <nd ref="1161214365"/>
    <nd ref="1161214565"/>
    <nd ref="26974371"/>
    <nd ref="16261959"/>
    <nd ref="1161214472"/>
    <nd ref="275971241"/>
    <nd ref="248220054"/>
    <tag k="highway" v="residential"/>
    <tag k="name" v="Frauenhäusleweg"/>
  </way>
  <way id="36287778" version="7" timestamp="2012-03-06T20:17:16Z" uid="16330" user="aluka" changeset="10894095">
    <nd ref="385460906"/>
    <nd ref="1388772794"/>
    <nd ref="30949816"/>
    <nd ref="1439642370"/>
    <nd ref="26974369"/>
    <nd ref="1439642372"/>
    <nd ref="1161214227"/>
    <nd ref="1439642374"/>
    <nd ref="1161214413"/>
    <nd ref="1439642377"/>
    <nd ref="26974370"/>
    <nd ref="1439642378"/>
    <nd ref="1161214365"/>
    <nd ref="1161214565"/>
    <nd ref="26974371"/>
    <nd ref="16261959"/>
    <nd ref="275971241"/>
    <nd ref="248220054"/>
    <tag k="highway" v="residential"/>
    <tag k="name" v="Frauenhäusleweg"/>
  </way>
  <way id="36287969" version="1" timestamp="2009-06-17T20:50:55Z" uid="6269" user="Mueck" changeset="1549517">
    <nd ref="30950807"/>
    <nd ref="412306"/>
    <tag k="agricultural" v="yes"/>
    <tag k="created_by" v="JOSM"/>
    <tag k="cycleway" v="track"/>
    <tag k="highway" v="trunk_link"/>
    <tag k="motorroad" v="no"/>
  </way>
  <way id="36287969" version="2" timestamp="2009-06-17T20:51:04Z" uid="6269" user="Mueck" changeset="1549517">
    <nd ref="30950807"/>
    <nd ref="412306"/>
    <tag k="agricultural" v="yes"/>
    <tag k="created_by" v="JOSM"/>
    <tag k="cycleway" v="track"/>
    <tag k="highway" v="trunk_link"/>
    <tag k="motorroad" v="no"/>
    <tag k="oneway" v="yes"/>
  </way>
  <way id="36287969" version="4" timestamp="2011-01-30T17:29:35Z" uid="236221" user="deocka" changeset="7136875">
    <nd ref="30950807"/>
    <nd ref="412306"/>
    <tag k="agricultural" v="yes"/>
    <tag k="cycleway" v="right"/>
    <tag k="highway" v="trunk_link"/>
    <tag k="motorroad" v="no"/>
    <tag k="oneway" v="yes"/>
  </way>
  <way id="36287969" version="5" timestamp="2011-03-13T00:00:38Z" uid="6269" user="Mueck" changeset="7539621">
    <nd ref="30950807"/>
    <nd ref="412306"/>
    <tag k="agricultural" v="yes"/>
    <tag k="cycleway" v="right"/>
    <tag k="highway" v="trunk_link"/>
    <tag k="motorroad" v="no"/>
    <tag k="note" v="ca. auf alter Trasse der Maxaubahn"/>
    <tag k="oneway" v="yes"/>
    <tag k="railway" v="razed"/>
  </way>
  <way id="36287969" version="6" timestamp="2011-05-19T14:17:07Z" uid="32952" user="DennisL" changeset="8190223">
    <nd ref="30950807"/>
    <nd ref="412306"/>
    <tag k="agricultural" v="yes"/>
    <tag k="cycleway" v="right"/>
    <tag k="highway" v="trunk_link"/>
    <tag k="motorroad" v="no"/>
    <tag k="note" v="ca. auf alter Trasse der Maxaubahn"/>
    <tag k="oneway" v="yes"/>
    <tag k="railway" v="razed"/>
    <tag k="ref" v="B 10"/>
  </way>
  <way id="36287969" version="7" timestamp="2011-08-06T19:38:59Z" uid="165061" user="keinname" changeset="8940658">
    <nd ref="30950807"/>
    <nd ref="1388773411"/>
    <nd ref="1388773068"/>
    <nd ref="412306"/>
    <tag k="agricultural" v="yes"/>
    <tag k="cycleway" v="right"/>
    <tag k="highway" v="trunk_link"/>
    <tag k="motorroad" v="no"/>
    <tag k="note" v="ca. auf alter Trasse der Maxaubahn"/>
    <tag k="oneway" v="yes"/>
    <tag k="railway" v="razed"/>
    <tag k="ref" v="B 10"/>
  </way>
  <way id="36287969" version="8" timestamp="2011-08-06T19:49:55Z" uid="165061" user="keinname" changeset="8940658">
    <nd ref="30950807"/>
    <nd ref="1388773411"/>
    <nd ref="1388773068"/>
    <nd ref="412306"/>
    <tag k="agricultural" v="yes"/>
    <tag k="highway" v="trunk_link"/>
    <tag k="motorroad" v="no"/>
    <tag k="note" v="ca. auf alter Trasse der Maxaubahn"/>
    <tag k="oneway" v="yes"/>
    <tag k="railway" v="razed"/>
    <tag k="ref" v="B 10"/>
  </way>
  <way id="36287969" version="9" timestamp="2012-02-03T23:24:07Z" uid="165061" user="keinname" changeset="10580210">
    <nd ref="30950807"/>
    <nd ref="1388773411"/>
    <nd ref="1617159665"/>
    <nd ref="1388773068"/>
    <nd ref="412306"/>
    <tag k="agricultural" v="yes"/>
    <tag k="highway" v="trunk_link"/>
    <tag k="lanes" v="1"/>
    <tag k="motorroad" v="no"/>
    <tag k="note" v="ca. auf alter Trasse der Maxaubahn"/>
    <tag k="oneway" v="yes"/>
    <tag k="railway" v="razed"/>
    <tag k="ref" v="B 10"/>
  </way>
  <way id="36287969" version="10" timestamp="2012-02-21T20:43:33Z" uid="16330" user="aluka" changeset="10753703"/>
  <way id="36287005" version="5" timestamp="2012-04-23T19:12:35Z" uid="35468" user="Blunauer" changeset="11398745"/>
  <way id="36287181" version="5" timestamp="2012-04-23T19:36:02Z" uid="35468" user="Blunauer" changeset="11399019"/>
  <way id="36287596" version="10" timestamp="2012-04-13T21:53:09Z" uid="148776" user="meridianeum" changeset="11293028"/>
  <way id="36287599" version="9" timestamp="2012-07-17T10:46:19Z" uid="722137" user="OSMF Redaction Account" changeset="12263385"/>
  <way id="36287601" version="9" timestamp="2012-07-17T10:46:19Z" uid="722137" user="OSMF Redaction Account" changeset="12263385"/>
  <way id="36287602" version="11" timestamp="2012-07-17T10:46:19Z" uid="722137" user="OSMF Redaction Account" changeset="12263385"/>
  <way id="36287604" version="9" timestamp="2012-07-17T10:46:19Z" uid="722137" user="OSMF Redaction Account" changeset="12263385"/>
  <way id="36287605" version="10" timestamp="2012-07-17T10:46:20Z" uid="722137" user="OSMF Redaction Account" changeset="12263385"/>
  <way id="36287607" version="8" timestamp="2012-07-17T10:46:20Z" uid="722137" user="OSMF Redaction Account" changeset="12263385"/>
  <way id="36287608" version="9" timestamp="2012-07-17T10:46:19Z" uid="722137" user="OSMF Redaction Account" changeset="12263385"/>
  <way id="36287610" version="11" timestamp="2012-07-17T10:46:19Z" uid="722137" user="OSMF Redaction Account" changeset="12263385"/>
  <way id="36287778" version="8" timestamp="2012-04-18T08:16:33Z" uid="32952" user="DennisL" changeset="11341197"/>
</osm>
