<?xml version='1.0' encoding='UTF-8'?>
<osm version="0.6" generator="libosmium/2.20.0">
  <way id="36372116" version="3" timestamp="2009-10-02T19:26:02Z" uid="86259" user="hasse_osm_korinthenkacker" changeset="2716617">
    <nd ref="424199311"/>
    <nd ref="424199314"/>
    <nd ref="424199317"/>
    <nd ref="424199320"/>
    <nd ref="424199323"/>
    <nd ref="424199325"/>
    <nd ref="424199328"/>
    <nd ref="424199333"/>
    <nd ref="424199340"/>
    <nd ref="424199342"/>
    <nd ref="424199311"/>
    <tag k="tourism" v="camp_site"/>
  </way>
  <way id="36372436" version="7" timestamp="2010-06-29T20:51:08Z" uid="74617" user="JohnSmith" changeset="5109183">
    <nd ref="424203525"/>
    <nd ref="424203527"/>
    <nd ref="424203530"/>
    <nd ref="424203533"/>
    <nd ref="424203525"/>
    <tag k="fixme" v="sport=rugby is ambiguous, see http://wiki.osm.org/wiki/Tag:sport%3Drugby for more details"/>
    <tag k="leisure" v="pitch"/>
    <tag k="name" v="Cancha Rugby"/>
    <tag k="sport" v="rugby"/>
  </way>
  <way id="36372116" version="4" timestamp="2012-06-08T09:30:36Z" uid="62236" user="Paulchen Panther" changeset="11833399">
    <nd ref="424199311"/>
    <nd ref="424199314"/>
    <nd ref="424199317"/>
    <nd ref="424199320"/>
    <nd ref="424199323"/>
    <nd ref="424199325"/>
    <nd ref="424199328"/>
    <nd ref="424199333"/>
    <nd ref="424199340"/>
    <nd ref="424199342"/>
    <nd ref="424199311"/>
    <tag k="addr:city" v="Seefeld"/>
    <tag k="addr:country" v="DE"/>
    <tag k="addr:housenumber" v="29"/>
    <tag k="addr:postcode" v="82229"/>
    <tag k="addr:street" v="Wörthseestraße"/>
    <tag k="name" v="Campingplatz am Wörthsee"/>
    <tag k="phone" v="+49 8152 3962586"/>
    <tag k="tourism" v="camp_site"/>
    <tag k="website" v="http://www.campingplatz-am-woerthsee.de"/>
  </way>
  <way id="36372116" version="5" timestamp="2012-06-26T20:37:09Z" uid="545896" user="s-o-f" changeset="12030674">
    <nd ref="424199314"/>
    <nd ref="424199317"/>
    <nd ref="424199320"/>
    <nd ref="424199323"/>
    <nd ref="424199325"/>
    <nd ref="424199328"/>
    <nd ref="424199333"/>
    <nd ref="424199340"/>
    <nd ref="424199314"/>
    <tag k="addr:city" v="Seefeld"/>
    <tag k="addr:country" v="DE"/>
    <tag k="addr:housenumber" v="29"/>
    <tag k="addr:postcode" v="82229"/>
    <tag k="addr:street" v="Wörthseestraße"/>
    <tag k="name" v="Campingplatz am Wörthsee"/>
    <tag k="phone" v="+49 8152 3962586"/>
    <tag k="tourism" v="camp_site"/>
    <tag k="website" v="http://www.campingplatz-am-woerthsee.de"/>
  </way>
  <way id="36372116" version="6" timestamp="2012-06-30T03:55:11Z" uid="545896" user="s-o-f" changeset="12062435">
    <nd ref="424199314"/>
    <nd ref="424199317"/>
    <nd ref="1806805414"/>
    <nd ref="424199320"/>
    <nd ref="424199323"/>
    <nd ref="424199325"/>
    <nd ref="424199328"/>
    <nd ref="424199333"/>
    <nd ref="1806805417"/>
    <nd ref="1806805418"/>
    <nd ref="424199340"/>
    <nd ref="424199314"/>
    <tag k="addr:city" v="Seefeld"/>
    <tag k="addr:country" v="DE"/>
    <tag k="addr:housenumber" v="29"/>
    <tag k="addr:postcode" v="82229"/>
    <tag k="addr:street" v="Wörthseestraße"/>
    <tag k="name" v="Campingplatz am Wörthsee"/>
    <tag k="phone" v="+49 8152 3962586"/>
    <tag k="tourism" v="camp_site"/>
    <tag k="website" v="http://www.campingplatz-am-woerthsee.de"/>
  </way>
  <way id="36372436" version="8" timestamp="2012-06-13T11:44:39Z" uid="24572" user="sly" changeset="11883989">
    <nd ref="424203525"/>
    <nd ref="424203527"/>
    <nd ref="424203530"/>
    <nd ref="424203533"/>
    <nd ref="424203525"/>
    <tag k="leisure" v="pitch"/>
    <tag k="name" v="Cancha Rugby"/>
    <tag k="sport" v="rugby"/>
  </way>
  <way id="36372436" version="9" timestamp="2012-06-13T15:55:29Z" uid="8235" user="chriscf" changeset="11886459">
    <nd ref="424203525"/>
    <nd ref="424203527"/>
    <nd ref="424203530"/>
    <nd ref="424203533"/>
    <nd ref="424203525"/>
    <tag k="fixme" v="sport=rugby is ambiguous, see http://wiki.osm.org/wiki/Tag:sport%3Drugby for more details"/>
    <tag k="leisure" v="pitch"/>
    <tag k="name" v="Cancha Rugby"/>
    <tag k="sport" v="rugby"/>
  </way>
  <way id="36372436" version="10" timestamp="2012-07-19T21:30:21Z" uid="722137" user="OSMF Redaction Account" changeset="12348287">
    <nd ref="424203525"/>
    <nd ref="424203527"/>
    <nd ref="424203530"/>
    <nd ref="424203533"/>
    <nd ref="424203525"/>
    <tag k="leisure" v="pitch"/>
    <tag k="name" v="Cancha Rugby"/>
    <tag k="sport" v="rugby"/>
  </way>
</osm>
