<?xml version='1.0' encoding='UTF-8'?>
<osm version="0.6" generator="libosmium/2.20.0">
  <way id="3638091" version="3" timestamp="2007-10-23T10:40:10Z" uid="8975" user="magkes" changeset="296475">
    <nd ref="18031427"/>
    <nd ref="2110172"/>
    <nd ref="2110178"/>
    <nd ref="2110179"/>
    <nd ref="18031431"/>
    <nd ref="2110184"/>
    <nd ref="18031445"/>
    <nd ref="18031452"/>
    <nd ref="18031457"/>
    <nd ref="2110192"/>
    <nd ref="2110195"/>
    <nd ref="18031465"/>
    <nd ref="18031467"/>
    <nd ref="2110200"/>
    <nd ref="2110202"/>
    <nd ref="76480381"/>
    <tag k="created_by" v="JOSM"/>
    <tag k="highway" v="primary"/>
    <tag k="oneway" v="yes"/>
    <tag k="ref" v="B18"/>
  </way>
  <way id="3638091" version="4" timestamp="2008-04-06T20:43:40Z" uid="21675" user="Romanesen" changeset="67443">
    <nd ref="18031427"/>
    <nd ref="2110172"/>
    <nd ref="2110178"/>
    <nd ref="2110179"/>
    <nd ref="18031431"/>
    <nd ref="2110184"/>
    <nd ref="18031445"/>
    <nd ref="18031452"/>
    <nd ref="18031457"/>
    <nd ref="2110192"/>
    <nd ref="2110195"/>
    <nd ref="18031465"/>
    <nd ref="18031467"/>
    <nd ref="2110200"/>
    <tag k="created_by" v="JOSM"/>
    <tag k="highway" v="motorway"/>
    <tag k="oneway" v="yes"/>
    <tag k="ref" v="A96"/>
  </way>
  <way id="3638091" version="5" timestamp="2008-04-06T20:44:53Z" uid="21675" user="Romanesen" changeset="67443"/>
  <way id="3638092" version="3" timestamp="2007-10-23T10:36:07Z" uid="8975" user="magkes" changeset="296475">
    <nd ref="18031493"/>
    <nd ref="18031491"/>
    <nd ref="18031489"/>
    <nd ref="18031401"/>
    <nd ref="18031400"/>
    <nd ref="18031399"/>
    <nd ref="18031398"/>
    <nd ref="18031397"/>
    <nd ref="18031394"/>
    <nd ref="18031391"/>
    <nd ref="18031389"/>
    <nd ref="76480379"/>
    <tag k="created_by" v="JOSM"/>
    <tag k="highway" v="primary"/>
    <tag k="oneway" v="yes"/>
    <tag k="ref" v="B18"/>
  </way>
  <way id="3638092" version="4" timestamp="2008-06-02T10:24:55Z" uid="24920" user="Schusch" changeset="18480">
    <nd ref="18031493"/>
    <nd ref="18031491"/>
    <nd ref="18031489"/>
    <nd ref="18031401"/>
    <nd ref="18031400"/>
    <nd ref="18031399"/>
    <nd ref="18031398"/>
    <nd ref="18031397"/>
    <nd ref="18031394"/>
    <nd ref="18031391"/>
    <nd ref="18031389"/>
    <nd ref="76480379"/>
    <tag k="created_by" v="Potlatch 0.9c"/>
    <tag k="highway" v="primary"/>
    <tag k="oneway" v="yes"/>
    <tag k="ref" v="B 18"/>
  </way>
  <way id="3638092" version="5" timestamp="2008-07-10T22:11:15Z" uid="16268" user="MasterMG" changeset="460300">
    <nd ref="18031405"/>
    <nd ref="18031404"/>
    <nd ref="18031493"/>
    <nd ref="18031491"/>
    <tag k="created_by" v="Potlatch 0.9c"/>
    <tag k="highway" v="motorway"/>
    <tag k="oneway" v="yes"/>
    <tag k="ref" v="A 96"/>
  </way>
  <way id="3638092" version="6" timestamp="2008-09-21T09:16:14Z" uid="48283" user="zarquon" changeset="672560">
    <nd ref="18031405"/>
    <nd ref="18031404"/>
    <nd ref="18031493"/>
    <nd ref="18031491"/>
    <tag k="created_by" v="Potlatch 0.10b"/>
    <tag k="highway" v="motorway"/>
    <tag k="oneway" v="yes"/>
    <tag k="ref" v="A 96"/>
  </way>
  <way id="3638092" version="7" timestamp="2008-10-26T20:55:17Z" uid="71782" user="mikado" changeset="590168">
    <nd ref="18031405"/>
    <nd ref="18031404"/>
    <nd ref="18031493"/>
    <nd ref="18031491"/>
    <tag k="created_by" v="Potlatch 0.10e"/>
    <tag k="highway" v="motorway"/>
    <tag k="oneway" v="yes"/>
    <tag k="ref" v="A 96"/>
  </way>
  <way id="3638092" version="8" timestamp="2008-12-28T15:22:14Z" uid="48283" user="zarquon" changeset="651165">
    <nd ref="18031405"/>
    <nd ref="322552306"/>
    <tag k="created_by" v="Potlatch 0.10e"/>
    <tag k="highway" v="motorway"/>
    <tag k="maxspeed" v="120"/>
    <tag k="oneway" v="yes"/>
    <tag k="ref" v="A 96"/>
  </way>
  <way id="3638092" version="9" timestamp="2009-03-15T12:59:04Z" uid="9176" user="Maarten Deen" changeset="812049">
    <nd ref="18031405"/>
    <nd ref="322552306"/>
    <tag k="highway" v="motorway"/>
    <tag k="int_ref" v="E 54"/>
    <tag k="maxspeed" v="120"/>
    <tag k="oneway" v="yes"/>
    <tag k="ref" v="A 96"/>
  </way>
  <way id="3638092" version="10" timestamp="2010-04-20T16:42:48Z" uid="19664" user="Jenes" changeset="4478954">
    <nd ref="18031405"/>
    <nd ref="702663141"/>
    <tag k="highway" v="motorway"/>
    <tag k="int_ref" v="E 54"/>
    <tag k="maxspeed" v="120"/>
    <tag k="oneway" v="yes"/>
    <tag k="ref" v="A 96"/>
  </way>
  <way id="3638092" version="11" timestamp="2010-12-05T13:29:55Z" uid="30077" user="ChristianW" changeset="6549197">
    <nd ref="18031405"/>
    <nd ref="702663141"/>
    <tag k="highway" v="motorway"/>
    <tag k="int_ref" v="E 54"/>
    <tag k="maxspeed" v="120"/>
    <tag k="note:name" v="Der reg_name, sowie ggf. der loc_name sind dem zugehÃ¶rigen Wikipediaartikel entnommen."/>
    <tag k="oneway" v="yes"/>
    <tag k="ref" v="A 96"/>
    <tag k="reg_name" v="Ammerseeautobahn"/>
  </way>
  <way id="3638092" version="12" timestamp="2012-04-07T06:50:49Z" uid="90689" user="HansJ" changeset="11209952"/>
</osm>
