<?xml version='1.0' encoding='UTF-8'?>
<osm version="0.6" generator="libosmium/2.20.0">
  <way id="36394098" version="1" timestamp="2009-06-18T21:13:12Z" uid="36809" user="pfoten_weg_!_" changeset="1558932">
    <nd ref="286076887"/>
    <nd ref="424432918"/>
    <nd ref="424432925"/>
    <nd ref="424432913"/>
    <nd ref="268378246"/>
    <nd ref="424432923"/>
    <nd ref="269493551"/>
    <nd ref="424432921"/>
    <nd ref="424432916"/>
    <nd ref="286076898"/>
    <tag k="access" v="no"/>
    <tag k="created_by" v="RambaZamba"/>
    <tag k="highway" v="service"/>
    <tag k="oneway" v="yes"/>
    <tag k="psv" v="yes"/>
    <tag k="source" v="survey"/>
  </way>
  <way id="36394098" version="2" timestamp="2009-08-28T20:12:37Z" uid="156995" user="HampelZamba" changeset="2294580">
    <nd ref="286076887"/>
    <nd ref="424432918"/>
    <nd ref="424432925"/>
    <nd ref="424432913"/>
    <nd ref="268378246"/>
    <nd ref="424432923"/>
    <nd ref="269493551"/>
    <nd ref="424432921"/>
    <nd ref="424432916"/>
    <nd ref="286076898"/>
    <tag k="access" v="no"/>
    <tag k="highway" v="service"/>
    <tag k="oneway" v="yes"/>
    <tag k="psv" v="yes"/>
    <tag k="source" v="survey"/>
  </way>
  <way id="36394098" version="3" timestamp="2009-08-28T21:08:12Z" uid="36809" user="pfoten_weg_!_" changeset="2295155">
    <nd ref="286076887"/>
    <nd ref="424432918"/>
    <nd ref="424432925"/>
    <nd ref="424432913"/>
    <nd ref="268378246"/>
    <nd ref="424432923"/>
    <nd ref="269493551"/>
    <nd ref="424432921"/>
    <nd ref="424432916"/>
    <nd ref="286076898"/>
    <tag k="access" v="no"/>
    <tag k="discovered_by" v="RambaZamba"/>
    <tag k="highway" v="service"/>
    <tag k="oneway" v="yes"/>
    <tag k="psv" v="yes"/>
    <tag k="source" v="survey"/>
  </way>
  <way id="36394098" version="4" timestamp="2009-08-30T09:37:48Z" uid="156995" user="HampelZamba" changeset="2310659">
    <nd ref="286076887"/>
    <nd ref="424432918"/>
    <nd ref="424432925"/>
    <nd ref="424432913"/>
    <nd ref="268378246"/>
    <nd ref="424432923"/>
    <nd ref="269493551"/>
    <nd ref="424432921"/>
    <nd ref="424432916"/>
    <nd ref="286076898"/>
    <tag k="access" v="no"/>
    <tag k="highway" v="service"/>
    <tag k="oneway" v="yes"/>
    <tag k="psv" v="yes"/>
    <tag k="source" v="survey"/>
  </way>
  <way id="36394098" version="5" timestamp="2009-09-01T11:08:30Z" uid="36809" user="pfoten_weg_!_" changeset="2335754">
    <nd ref="286076887"/>
    <nd ref="424432918"/>
    <nd ref="424432925"/>
    <nd ref="424432913"/>
    <nd ref="268378246"/>
    <nd ref="424432923"/>
    <nd ref="269493551"/>
    <nd ref="424432921"/>
    <nd ref="424432916"/>
    <nd ref="286076898"/>
    <tag k="access" v="no"/>
    <tag k="highway" v="service"/>
    <tag k="oneway" v="yes"/>
    <tag k="psv" v="yes"/>
    <tag k="source" v="survey"/>
  </way>
  <way id="36394098" version="6" timestamp="2009-10-02T18:02:58Z" uid="86259" user="hasse_osm_korinthenkacker" changeset="2715119">
    <nd ref="286076887"/>
    <nd ref="424432918"/>
    <nd ref="424432925"/>
    <nd ref="424432913"/>
    <nd ref="268378246"/>
    <nd ref="424432923"/>
    <nd ref="269493551"/>
    <nd ref="424432921"/>
    <nd ref="424432916"/>
    <nd ref="286076898"/>
    <tag k="access" v="no"/>
    <tag k="highway" v="service"/>
    <tag k="oneway" v="yes"/>
    <tag k="psv" v="yes"/>
  </way>
  <way id="36394209" version="1" timestamp="2009-06-18T21:14:15Z" uid="36809" user="pfoten_weg_!_" changeset="1558944">
    <nd ref="297068909"/>
    <nd ref="424434636"/>
    <nd ref="424434639"/>
    <nd ref="424434642"/>
    <tag k="created_by" v="RambaZamba"/>
    <tag k="highway" v="service"/>
    <tag k="service" v="parking_aisle"/>
    <tag k="source" v="survey"/>
    <tag k="surface" v="unpaved"/>
    <tag k="width" v="3"/>
  </way>
  <way id="36394209" version="2" timestamp="2009-08-28T20:12:37Z" uid="156995" user="HampelZamba" changeset="2294580">
    <nd ref="297068909"/>
    <nd ref="424434636"/>
    <nd ref="424434639"/>
    <nd ref="424434642"/>
    <tag k="highway" v="service"/>
    <tag k="service" v="parking_aisle"/>
    <tag k="source" v="survey"/>
    <tag k="surface" v="unpaved"/>
    <tag k="width" v="3"/>
  </way>
  <way id="36394209" version="3" timestamp="2009-08-28T21:00:44Z" uid="36809" user="pfoten_weg_!_" changeset="2295155">
    <nd ref="297068909"/>
    <nd ref="424434636"/>
    <nd ref="424434639"/>
    <nd ref="424434642"/>
    <tag k="discovered_by" v="RambaZamba"/>
    <tag k="highway" v="service"/>
    <tag k="service" v="parking_aisle"/>
    <tag k="source" v="survey"/>
    <tag k="surface" v="unpaved"/>
    <tag k="width" v="3"/>
  </way>
  <way id="36394209" version="4" timestamp="2009-08-30T09:37:49Z" uid="156995" user="HampelZamba" changeset="2310659">
    <nd ref="297068909"/>
    <nd ref="424434636"/>
    <nd ref="424434639"/>
    <nd ref="424434642"/>
    <tag k="highway" v="service"/>
    <tag k="service" v="parking_aisle"/>
    <tag k="source" v="survey"/>
    <tag k="surface" v="unpaved"/>
    <tag k="width" v="3"/>
  </way>
  <way id="36394209" version="5" timestamp="2009-09-01T10:52:35Z" uid="36809" user="pfoten_weg_!_" changeset="2335754">
    <nd ref="297068909"/>
    <nd ref="424434636"/>
    <nd ref="424434639"/>
    <nd ref="424434642"/>
    <tag k="highway" v="service"/>
    <tag k="service" v="parking_aisle"/>
    <tag k="source" v="survey"/>
    <tag k="surface" v="unpaved"/>
    <tag k="width" v="3"/>
  </way>
  <way id="36394209" version="6" timestamp="2009-10-02T18:03:48Z" uid="86259" user="hasse_osm_korinthenkacker" changeset="2715119">
    <nd ref="297068909"/>
    <nd ref="424434636"/>
    <nd ref="424434639"/>
    <nd ref="424434642"/>
    <tag k="highway" v="service"/>
    <tag k="service" v="parking_aisle"/>
    <tag k="surface" v="unpaved"/>
    <tag k="width" v="3"/>
  </way>
  <way id="36394860" version="2" timestamp="2009-10-29T08:49:54Z" uid="115477" user="wowik" changeset="2979413">
    <nd ref="424441749"/>
    <nd ref="424441751"/>
    <nd ref="424441754"/>
    <nd ref="424441756"/>
    <nd ref="424441749"/>
    <tag k="building" v="yes"/>
    <tag k="name" v="Merto Cach &amp; Cary"/>
  </way>
  <way id="36394860" version="3" timestamp="2009-12-06T11:45:32Z" uid="167946" user="YuriZ" changeset="3303886">
    <nd ref="424441749"/>
    <nd ref="424441751"/>
    <nd ref="424441754"/>
    <nd ref="424441756"/>
    <nd ref="424441749"/>
    <tag k="building" v="yes"/>
    <tag k="name" v="Metro Cash &amp; Carry"/>
  </way>
  <way id="36394860" version="4" timestamp="2009-12-31T07:21:02Z" uid="70742" user="Ezhick" changeset="3494475">
    <nd ref="424441749"/>
    <nd ref="424441751"/>
    <nd ref="424441754"/>
    <nd ref="424441756"/>
    <nd ref="424441749"/>
    <tag k="building" v="yes"/>
    <tag k="cladr:code" v="77000000000168600"/>
    <tag k="name" v="Metro Cash &amp; Carry"/>
  </way>
  <way id="36394860" version="5" timestamp="2010-01-10T11:52:54Z" uid="217192" user="pogankin" changeset="3586186">
    <nd ref="424441749"/>
    <nd ref="424441751"/>
    <nd ref="424441754"/>
    <nd ref="424441756"/>
    <nd ref="424441749"/>
    <tag k="building" v="yes"/>
    <tag k="cladr:code" v="77000000000168600"/>
    <tag k="name" v="Metro Cash &amp; Carry"/>
    <tag k="shop" v="supermarket"/>
  </way>
  <way id="36394860" version="6" timestamp="2010-02-02T20:13:36Z" uid="206282" user="Amigo" changeset="3778576">
    <nd ref="424441749"/>
    <nd ref="424441751"/>
    <nd ref="626941001"/>
    <nd ref="626941002"/>
    <nd ref="626941003"/>
    <nd ref="626941004"/>
    <nd ref="424441754"/>
    <nd ref="626941006"/>
    <nd ref="626941008"/>
    <nd ref="626941010"/>
    <nd ref="424441756"/>
    <nd ref="424441749"/>
    <tag k="addr:housenumber" v="71Г"/>
    <tag k="addr:postcode" v="125445"/>
    <tag k="addr:street" v="Ленинградское шоссе"/>
    <tag k="alt_name" v="METRO Cash &amp; Carry Russia"/>
    <tag k="building" v="yes"/>
    <tag k="cladr:code" v="77000000000168600"/>
    <tag k="name" v="ТЦ МЕТРО"/>
    <tag k="name:en" v="METRO"/>
    <tag k="name:ru" v="МЕТРО"/>
    <tag k="shop" v="supermarket"/>
  </way>
  <way id="36394860" version="7" timestamp="2010-06-04T22:49:42Z" uid="94786" user="glebius" changeset="4905013">
    <nd ref="424441749"/>
    <nd ref="424441751"/>
    <nd ref="626941001"/>
    <nd ref="626941002"/>
    <nd ref="626941003"/>
    <nd ref="626941004"/>
    <nd ref="424441754"/>
    <nd ref="626941006"/>
    <nd ref="626941008"/>
    <nd ref="626941010"/>
    <nd ref="424441756"/>
    <nd ref="424441749"/>
    <tag k="addr:housenumber" v="71Г"/>
    <tag k="addr:postcode" v="125445"/>
    <tag k="addr:street" v="Ленинградское шоссе"/>
    <tag k="alt_name" v="METRO Cash &amp; Carry Russia"/>
    <tag k="building" v="yes"/>
    <tag k="cladr:code" v="77000000000168600"/>
    <tag k="name" v="ТЦ МЕТРО"/>
    <tag k="name:en" v="METRO"/>
    <tag k="name:ru" v="ТЦ МЕТРО"/>
    <tag k="shop" v="supermarket"/>
  </way>
  <way id="36394860" version="8" timestamp="2010-11-22T12:05:31Z" uid="316868" user="LexIgnatov" changeset="6430803">
    <nd ref="626941004"/>
    <nd ref="424441754"/>
    <nd ref="999295240"/>
    <nd ref="999294752"/>
    <nd ref="999294957"/>
    <nd ref="999295175"/>
    <nd ref="999294871"/>
    <nd ref="424441756"/>
    <nd ref="999294945"/>
    <nd ref="999295055"/>
    <nd ref="999295217"/>
    <nd ref="424441749"/>
    <nd ref="424441751"/>
    <nd ref="626941001"/>
    <nd ref="999294828"/>
    <nd ref="999294786"/>
    <nd ref="626941004"/>
    <tag k="addr:housenumber" v="71Г"/>
    <tag k="addr:postcode" v="125445"/>
    <tag k="addr:street" v="Ленинградское шоссе"/>
    <tag k="alt_name" v="METRO Cash &amp; Carry Russia"/>
    <tag k="building" v="yes"/>
    <tag k="building:levels" v="3"/>
    <tag k="cladr:code" v="77000000000168600"/>
    <tag k="name" v="ТЦ МЕТРО"/>
    <tag k="name:en" v="METRO"/>
    <tag k="name:ru" v="ТЦ МЕТРО"/>
  </way>
  <way id="36394860" version="9" timestamp="2011-03-28T17:31:34Z" uid="115477" user="wowik" changeset="7697837">
    <nd ref="626941004"/>
    <nd ref="424441754"/>
    <nd ref="999295240"/>
    <nd ref="999294752"/>
    <nd ref="999294957"/>
    <nd ref="999295175"/>
    <nd ref="999294871"/>
    <nd ref="424441756"/>
    <nd ref="999294945"/>
    <nd ref="999295055"/>
    <nd ref="999295217"/>
    <nd ref="424441749"/>
    <nd ref="424441751"/>
    <nd ref="626941001"/>
    <nd ref="999294828"/>
    <nd ref="999294786"/>
    <nd ref="626941004"/>
    <tag k="addr:housenumber" v="71Г"/>
    <tag k="addr:postcode" v="125445"/>
    <tag k="addr:street" v="Ленинградское шоссе"/>
    <tag k="alt_name" v="METRO Cash &amp; Carry Russia"/>
    <tag k="building" v="yes"/>
    <tag k="building:levels" v="3"/>
    <tag k="cladr:code" v="77000000000168600"/>
    <tag k="name" v="ТЦ МЕТРО"/>
    <tag k="name:en" v="METRO"/>
    <tag k="name:ru" v="ТЦ МЕТРО"/>
    <tag k="shop" v="supermarket"/>
  </way>
  <way id="36394860" version="10" timestamp="2011-05-12T09:26:10Z" uid="115477" user="wowik" changeset="8120079">
    <nd ref="626941004"/>
    <nd ref="1281224679"/>
    <nd ref="1281224706"/>
    <nd ref="1281224746"/>
    <nd ref="1281224631"/>
    <nd ref="424441754"/>
    <nd ref="999295240"/>
    <nd ref="1281224755"/>
    <nd ref="1281224799"/>
    <nd ref="999294752"/>
    <nd ref="999294957"/>
    <nd ref="999295175"/>
    <nd ref="999294871"/>
    <nd ref="424441756"/>
    <nd ref="999294945"/>
    <nd ref="999295055"/>
    <nd ref="999295217"/>
    <nd ref="424441749"/>
    <nd ref="1281224773"/>
    <nd ref="1281224726"/>
    <nd ref="1281224826"/>
    <nd ref="1281224751"/>
    <nd ref="1281224805"/>
    <nd ref="1281224649"/>
    <nd ref="424441751"/>
    <nd ref="626941001"/>
    <nd ref="999294828"/>
    <nd ref="999294786"/>
    <nd ref="626941004"/>
    <tag k="addr:housenumber" v="71Г"/>
    <tag k="addr:postcode" v="125445"/>
    <tag k="addr:street" v="Ленинградское шоссе"/>
    <tag k="alt_name" v="METRO Cash &amp; Carry Russia"/>
    <tag k="building" v="yes"/>
    <tag k="building:levels" v="3"/>
    <tag k="cladr:code" v="77000000000168600"/>
    <tag k="name" v="ТЦ МЕТРО"/>
    <tag k="name:en" v="METRO"/>
    <tag k="name:ru" v="ТЦ МЕТРО"/>
    <tag k="shop" v="supermarket"/>
  </way>
  <way id="36394860" version="11" timestamp="2011-12-12T20:54:16Z" uid="126304" user="TarzanASG" changeset="10101987">
    <nd ref="626941004"/>
    <nd ref="1281224679"/>
    <nd ref="1281224706"/>
    <nd ref="1281224746"/>
    <nd ref="1281224631"/>
    <nd ref="424441754"/>
    <nd ref="999295240"/>
    <nd ref="1281224755"/>
    <nd ref="1281224799"/>
    <nd ref="999294752"/>
    <nd ref="999294957"/>
    <nd ref="999295175"/>
    <nd ref="999294871"/>
    <nd ref="424441756"/>
    <nd ref="999294945"/>
    <nd ref="999295055"/>
    <nd ref="999295217"/>
    <nd ref="424441749"/>
    <nd ref="1281224773"/>
    <nd ref="1281224726"/>
    <nd ref="1281224826"/>
    <nd ref="1281224751"/>
    <nd ref="1281224805"/>
    <nd ref="1281224649"/>
    <nd ref="424441751"/>
    <nd ref="626941001"/>
    <nd ref="999294828"/>
    <nd ref="999294786"/>
    <nd ref="626941004"/>
    <tag k="addr:housenumber" v="71Г"/>
    <tag k="addr:postcode" v="125445"/>
    <tag k="addr:street" v="Ленинградское шоссе"/>
    <tag k="alt_name" v="METRO Cash &amp; Carry Russia"/>
    <tag k="building" v="retail"/>
    <tag k="building:levels" v="3"/>
    <tag k="cladr:code" v="77000000000168600"/>
    <tag k="name" v="ТЦ МЕТРО"/>
    <tag k="name:en" v="METRO"/>
    <tag k="name:ru" v="ТЦ МЕТРО"/>
    <tag k="shop" v="supermarket"/>
  </way>
  <way id="36394860" version="12" timestamp="2011-12-14T11:27:42Z" uid="143266" user="Sergey Astakhov" changeset="10114234">
    <nd ref="626941004"/>
    <nd ref="1281224679"/>
    <nd ref="1281224706"/>
    <nd ref="1281224746"/>
    <nd ref="1281224631"/>
    <nd ref="424441754"/>
    <nd ref="999295240"/>
    <nd ref="1281224755"/>
    <nd ref="1281224799"/>
    <nd ref="999294752"/>
    <nd ref="999294957"/>
    <nd ref="999295175"/>
    <nd ref="999294871"/>
    <nd ref="424441756"/>
    <nd ref="999294945"/>
    <nd ref="999295055"/>
    <nd ref="999295217"/>
    <nd ref="424441749"/>
    <nd ref="1281224773"/>
    <nd ref="1281224726"/>
    <nd ref="1281224826"/>
    <nd ref="1281224751"/>
    <nd ref="1281224805"/>
    <nd ref="1281224649"/>
    <nd ref="424441751"/>
    <nd ref="626941001"/>
    <nd ref="999294828"/>
    <nd ref="999294786"/>
    <nd ref="626941004"/>
    <tag k="addr:housenumber" v="71Г"/>
    <tag k="addr:postcode" v="125445"/>
    <tag k="addr:street" v="Ленинградское шоссе"/>
    <tag k="alt_name" v="METRO Cash &amp; Carry Russia"/>
    <tag k="building" v="yes"/>
    <tag k="building:levels" v="3"/>
    <tag k="cladr:code" v="77000000000168600"/>
    <tag k="name" v="ТЦ МЕТРО"/>
    <tag k="name:en" v="METRO"/>
    <tag k="name:ru" v="ТЦ МЕТРО"/>
    <tag k="shop" v="supermarket"/>
  </way>
  <way id="36394860" version="13" timestamp="2012-03-28T06:21:24Z" uid="481934" user="iWowik" changeset="11123401">
    <nd ref="626941004"/>
    <nd ref="1281224679"/>
    <nd ref="1281224706"/>
    <nd ref="1281224746"/>
    <nd ref="1281224631"/>
    <nd ref="424441754"/>
    <nd ref="999295240"/>
    <nd ref="1281224755"/>
    <nd ref="1281224799"/>
    <nd ref="999294752"/>
    <nd ref="999294957"/>
    <nd ref="999295175"/>
    <nd ref="999294871"/>
    <nd ref="424441756"/>
    <nd ref="999294945"/>
    <nd ref="999295055"/>
    <nd ref="999295217"/>
    <nd ref="424441749"/>
    <nd ref="1281224773"/>
    <nd ref="1281224726"/>
    <nd ref="1281224826"/>
    <nd ref="1281224751"/>
    <nd ref="1281224805"/>
    <nd ref="1281224649"/>
    <nd ref="424441751"/>
    <nd ref="626941001"/>
    <nd ref="999294828"/>
    <nd ref="999294786"/>
    <nd ref="626941004"/>
    <tag k="addr:city" v="Москва"/>
    <tag k="addr:country" v="RU"/>
    <tag k="addr:housenumber" v="71Г"/>
    <tag k="addr:postcode" v="125445"/>
    <tag k="addr:street" v="Ленинградское шоссе"/>
    <tag k="alt_name" v="METRO Cash &amp; Carry Russia"/>
    <tag k="building" v="yes"/>
    <tag k="building:levels" v="3"/>
    <tag k="cladr:code" v="77000000000168600"/>
    <tag k="name" v="ТЦ МЕТРО"/>
    <tag k="name:en" v="METRO"/>
    <tag k="name:ru" v="ТЦ МЕТРО"/>
    <tag k="shop" v="supermarket"/>
  </way>
  <way id="36394864" version="8" timestamp="2011-05-19T13:59:25Z" uid="115477" user="wowik" changeset="8189887">
    <nd ref="424441830"/>
    <nd ref="424441832"/>
    <nd ref="424441841"/>
    <nd ref="424441844"/>
    <nd ref="424441848"/>
    <nd ref="424441851"/>
    <nd ref="424441853"/>
    <nd ref="1291618282"/>
    <nd ref="424441830"/>
    <tag k="addr:housenumber" v="63Б"/>
    <tag k="addr:street" v="Ленинградское шоссе"/>
    <tag k="brand" v="Audi"/>
    <tag k="building" v="yes"/>
    <tag k="cladr:code" v="77000000000168600"/>
    <tag k="name" v="Ауди Центр Север"/>
    <tag k="operator" v="Рольф"/>
    <tag k="service" v="dealer;tyres;repair;parts"/>
    <tag k="shop" v="car"/>
  </way>
  <way id="36394864" version="9" timestamp="2011-12-12T17:38:33Z" uid="126304" user="TarzanASG" changeset="10100388">
    <nd ref="424441830"/>
    <nd ref="424441832"/>
    <nd ref="424441841"/>
    <nd ref="424441844"/>
    <nd ref="424441848"/>
    <nd ref="424441851"/>
    <nd ref="424441853"/>
    <nd ref="1291618282"/>
    <nd ref="424441830"/>
    <tag k="addr:housenumber" v="63Б"/>
    <tag k="addr:street" v="Ленинградское шоссе"/>
    <tag k="brand" v="Audi"/>
    <tag k="building" v="retail"/>
    <tag k="cladr:code" v="77000000000168600"/>
    <tag k="name" v="Ауди Центр Север"/>
    <tag k="operator" v="Рольф"/>
    <tag k="service" v="dealer;tyres;repair;parts"/>
    <tag k="shop" v="car"/>
  </way>
  <way id="36394864" version="10" timestamp="2011-12-14T12:58:34Z" uid="143266" user="Sergey Astakhov" changeset="10115724">
    <nd ref="424441830"/>
    <nd ref="424441832"/>
    <nd ref="424441841"/>
    <nd ref="424441844"/>
    <nd ref="424441848"/>
    <nd ref="424441851"/>
    <nd ref="424441853"/>
    <nd ref="1291618282"/>
    <nd ref="424441830"/>
    <tag k="addr:housenumber" v="63Б"/>
    <tag k="addr:street" v="Ленинградское шоссе"/>
    <tag k="brand" v="Audi"/>
    <tag k="building" v="yes"/>
    <tag k="cladr:code" v="77000000000168600"/>
    <tag k="name" v="Ауди Центр Север"/>
    <tag k="operator" v="Рольф"/>
    <tag k="service" v="dealer;tyres;repair;parts"/>
    <tag k="shop" v="car"/>
  </way>
  <way id="36394864" version="11" timestamp="2012-03-27T08:23:42Z" uid="481934" user="iWowik" changeset="11113698">
    <nd ref="424441830"/>
    <nd ref="424441832"/>
    <nd ref="424441841"/>
    <nd ref="424441844"/>
    <nd ref="424441848"/>
    <nd ref="424441851"/>
    <nd ref="424441853"/>
    <nd ref="1291618282"/>
    <nd ref="424441830"/>
    <tag k="addr:city" v="Москва"/>
    <tag k="addr:country" v="RU"/>
    <tag k="addr:housenumber" v="63Б"/>
    <tag k="addr:street" v="Ленинградское шоссе"/>
    <tag k="brand" v="Audi"/>
    <tag k="building" v="yes"/>
    <tag k="cladr:code" v="77000000000168600"/>
    <tag k="name" v="Ауди Центр Север"/>
    <tag k="operator" v="Рольф"/>
    <tag k="service" v="dealer;tyres;repair;parts"/>
    <tag k="shop" v="car"/>
  </way>
  <way id="36394098" version="7" timestamp="2012-04-06T06:53:16Z" uid="290723" user="sulagaloh" changeset="11197330"/>
  <way id="36394209" version="7" timestamp="2012-06-04T20:14:51Z" uid="8703" user="rolandg" changeset="11800431"/>
  <way id="36394860" version="14" timestamp="2012-07-20T13:21:21Z" uid="722137" user="OSMF Redaction Account" changeset="12377482">
    <nd ref="626941004"/>
    <nd ref="424441754"/>
    <nd ref="999295240"/>
    <nd ref="999294752"/>
    <nd ref="999294957"/>
    <nd ref="999295175"/>
    <nd ref="999294871"/>
    <nd ref="424441756"/>
    <nd ref="999294945"/>
    <nd ref="999295055"/>
    <nd ref="999295217"/>
    <nd ref="424441749"/>
    <nd ref="424441751"/>
    <nd ref="626941001"/>
    <nd ref="999294828"/>
    <nd ref="999294786"/>
    <nd ref="626941004"/>
    <tag k="addr:city" v="Москва"/>
    <tag k="addr:country" v="RU"/>
    <tag k="addr:housenumber" v="71Г"/>
    <tag k="addr:postcode" v="125445"/>
    <tag k="addr:street" v="Ленинградское шоссе"/>
    <tag k="alt_name" v="METRO Cash &amp; Carry Russia"/>
    <tag k="building" v="yes"/>
    <tag k="building:levels" v="3"/>
    <tag k="cladr:code" v="77000000000168600"/>
    <tag k="name" v="ТЦ МЕТРО"/>
    <tag k="name:en" v="METRO"/>
    <tag k="name:ru" v="ТЦ МЕТРО"/>
  </way>
  <way id="36394860" version="15" timestamp="2012-08-25T19:49:13Z" uid="206282" user="Amigo" changeset="12859493">
    <nd ref="626941004"/>
    <nd ref="424441754"/>
    <nd ref="999295240"/>
    <nd ref="999294752"/>
    <nd ref="999294957"/>
    <nd ref="999295175"/>
    <nd ref="999294871"/>
    <nd ref="424441756"/>
    <nd ref="999294945"/>
    <nd ref="999295055"/>
    <nd ref="999295217"/>
    <nd ref="424441749"/>
    <nd ref="424441751"/>
    <nd ref="626941001"/>
    <nd ref="999294828"/>
    <nd ref="999294786"/>
    <nd ref="626941004"/>
    <tag k="addr:city" v="Москва"/>
    <tag k="addr:country" v="RU"/>
    <tag k="addr:housenumber" v="71Г"/>
    <tag k="addr:postcode" v="125445"/>
    <tag k="addr:street" v="Ленинградское шоссе"/>
    <tag k="alt_name" v="METRO Cash &amp; Carry Russia"/>
    <tag k="building" v="yes"/>
    <tag k="building:levels" v="3"/>
    <tag k="name" v="ТЦ МЕТРО"/>
    <tag k="name:en" v="METRO"/>
    <tag k="name:ru" v="ТЦ МЕТРО"/>
    <tag k="shop" v="mall"/>
  </way>
  <way id="36394864" version="12" timestamp="2012-07-21T06:47:56Z" uid="722137" user="OSMF Redaction Account" changeset="12401780">
    <nd ref="424441830"/>
    <nd ref="424441832"/>
    <nd ref="424441841"/>
    <nd ref="424441844"/>
    <nd ref="424441848"/>
    <nd ref="424441851"/>
    <nd ref="424441853"/>
    <nd ref="424441830"/>
    <tag k="addr:city" v="Москва"/>
    <tag k="addr:country" v="RU"/>
    <tag k="addr:housenumber" v="63Б"/>
    <tag k="addr:street" v="Ленинградское шоссе"/>
    <tag k="brand" v="Audi"/>
    <tag k="building" v="yes"/>
    <tag k="cladr:code" v="77000000000168600"/>
    <tag k="name" v="Ауди Центр Север"/>
    <tag k="operator" v="Рольф"/>
    <tag k="service" v="dealer;tyres;repair;parts"/>
    <tag k="shop" v="car"/>
  </way>
</osm>
