<?xml version='1.0' encoding='UTF-8'?>
<osm version="0.6" generator="libosmium/2.20.0">
  <way id="36511841" version="1" timestamp="2009-06-19T12:33:07Z" uid="30632" user="antblant" changeset="1564447">
    <nd ref="416770245"/>
    <nd ref="416770246"/>
    <nd ref="299974634"/>
    <tag k="highway" v="primary"/>
    <tag k="oneway" v="yes"/>
    <tag k="ref" v="11"/>
  </way>
  <way id="36511842" version="1" timestamp="2009-06-19T12:33:07Z" uid="30632" user="antblant" changeset="1564447">
    <nd ref="416767391"/>
    <nd ref="416767399"/>
    <tag k="created_by" v="Potlatch 0.10c"/>
    <tag k="highway" v="primary"/>
    <tag k="name" v="Zwycięstwa"/>
    <tag k="oneway" v="yes"/>
    <tag k="ref" v="11"/>
    <tag k="source" v="UMP-PL, ./UMP-Opole/src/OLESNO.ulice.txt"/>
  </way>
  <way id="36511842" version="2" timestamp="2009-11-25T11:25:06Z" uid="91056" user="Yarl" changeset="3211298">
    <nd ref="416767391"/>
    <nd ref="416767399"/>
    <tag k="highway" v="primary"/>
    <tag k="name" v="Zwycięstwa"/>
    <tag k="oneway" v="yes"/>
    <tag k="ref" v="11; 494"/>
    <tag k="source" v="UMP-PL, ./UMP-Opole/src/OLESNO.ulice.txt"/>
  </way>
  <way id="36511842" version="3" timestamp="2012-02-19T06:45:20Z" uid="467703" user="Zbigniew Czernik" changeset="10726741">
    <nd ref="416767391"/>
    <nd ref="1638692333"/>
    <nd ref="416767399"/>
    <tag k="highway" v="primary"/>
    <tag k="name" v="Zwycięstwa"/>
    <tag k="oneway" v="yes"/>
    <tag k="ref" v="11; 494"/>
  </way>
  <way id="36511842" version="4" timestamp="2012-09-03T06:03:18Z" uid="147230" user="SQ9NIT" changeset="12962981">
    <nd ref="416767391"/>
    <nd ref="1638692333"/>
    <nd ref="416767399"/>
    <tag k="highway" v="primary"/>
    <tag k="name" v="Wielkie Przedmieście"/>
    <tag k="oneway" v="yes"/>
    <tag k="ref" v="11; 494"/>
    <tag k="source" v="Bing; knowledge"/>
  </way>
</osm>
