<?xml version='1.0' encoding='UTF-8'?>
<osm version="0.6" generator="libosmium/2.20.0">
  <way id="36519448" version="6" timestamp="2010-08-04T17:39:06Z" uid="9581" user="Lobelt" changeset="5401263">
    <nd ref="425445990"/>
    <nd ref="425445992"/>
    <nd ref="425445994"/>
    <nd ref="425445996"/>
    <nd ref="425445998"/>
    <tag k="cables" v="6"/>
    <tag k="fixme" v="Leitungsnummer fehlt"/>
    <tag k="frequency" v="50"/>
    <tag k="operator" v="EON_Netz"/>
    <tag k="power" v="line"/>
    <tag k="voltage" v="110000"/>
    <tag k="wires" v="single"/>
  </way>
  <way id="36519462" version="7" timestamp="2010-08-04T17:46:44Z" uid="9581" user="Lobelt" changeset="5401263">
    <nd ref="425446034"/>
    <nd ref="425446037"/>
    <nd ref="425445998"/>
    <tag k="cables" v="6"/>
    <tag k="fixme" v="Leitungsnummer fehlt"/>
    <tag k="frequency" v="50"/>
    <tag k="operator" v="EON_Netz"/>
    <tag k="power" v="line"/>
    <tag k="voltage" v="110000"/>
    <tag k="wires" v="single"/>
  </way>
  <way id="36519480" version="5" timestamp="2010-08-04T17:48:08Z" uid="9581" user="Lobelt" changeset="5401263">
    <nd ref="425445998"/>
    <nd ref="425446015"/>
    <nd ref="425446011"/>
    <nd ref="425446022"/>
    <nd ref="425446019"/>
    <nd ref="425446026"/>
    <nd ref="425446029"/>
    <nd ref="425446038"/>
    <nd ref="425446040"/>
    <nd ref="425446043"/>
    <nd ref="425446047"/>
    <nd ref="425446051"/>
    <nd ref="425446057"/>
    <nd ref="425446061"/>
    <nd ref="425446065"/>
    <nd ref="425446070"/>
    <nd ref="425446075"/>
    <nd ref="425446079"/>
    <nd ref="425446008"/>
    <tag k="cables" v="3"/>
    <tag k="frequency" v="50"/>
    <tag k="operator" v="EON_Netz"/>
    <tag k="power" v="line"/>
    <tag k="voltage" v="110000"/>
    <tag k="wires" v="single"/>
  </way>
  <way id="36519480" version="6" timestamp="2010-08-07T17:39:13Z" uid="194743" user="Lomonossof" changeset="5426406">
    <nd ref="425445998"/>
    <nd ref="425446015"/>
    <nd ref="425446011"/>
    <nd ref="425446022"/>
    <nd ref="425446019"/>
    <nd ref="425446026"/>
    <nd ref="425446029"/>
    <nd ref="425446038"/>
    <nd ref="425446040"/>
    <nd ref="425446043"/>
    <nd ref="425446047"/>
    <nd ref="425446051"/>
    <nd ref="425446057"/>
    <nd ref="425446061"/>
    <nd ref="425446065"/>
    <nd ref="425446070"/>
    <nd ref="425446075"/>
    <nd ref="425446079"/>
    <nd ref="425446008"/>
    <tag k="cables" v="3"/>
    <tag k="frequency" v="50"/>
    <tag k="name" v="116"/>
    <tag k="operator" v="EON_Netz"/>
    <tag k="power" v="line"/>
    <tag k="voltage" v="110000"/>
    <tag k="wires" v="single"/>
  </way>
  <way id="36519480" version="7" timestamp="2010-08-18T13:24:03Z" uid="13203" user="bahnpirat" changeset="5526705">
    <nd ref="425445998"/>
    <nd ref="425446015"/>
    <nd ref="425446011"/>
    <nd ref="425446022"/>
    <nd ref="425446019"/>
    <nd ref="425446026"/>
    <nd ref="425446029"/>
    <nd ref="425446038"/>
    <nd ref="425446040"/>
    <nd ref="425446043"/>
    <nd ref="425446047"/>
    <nd ref="425446051"/>
    <nd ref="425446057"/>
    <nd ref="425446061"/>
    <nd ref="425446065"/>
    <nd ref="425446070"/>
    <nd ref="425446075"/>
    <nd ref="425446079"/>
    <nd ref="425446008"/>
    <tag k="cables" v="3"/>
    <tag k="frequency" v="50"/>
    <tag k="name" v="116"/>
    <tag k="operator" v="EON_Netz"/>
    <tag k="power" v="line"/>
    <tag k="ref" v="116"/>
    <tag k="voltage" v="110000"/>
    <tag k="wires" v="single"/>
  </way>
  <way id="36519480" version="8" timestamp="2011-03-19T01:01:49Z" uid="13203" user="bahnpirat" changeset="7600888">
    <nd ref="425445998"/>
    <nd ref="425446015"/>
    <nd ref="425446011"/>
    <nd ref="425446022"/>
    <nd ref="425446019"/>
    <nd ref="425446026"/>
    <nd ref="425446029"/>
    <nd ref="425446038"/>
    <nd ref="425446040"/>
    <nd ref="425446043"/>
    <nd ref="425446047"/>
    <nd ref="425446051"/>
    <nd ref="425446057"/>
    <nd ref="425446061"/>
    <nd ref="425446065"/>
    <nd ref="425446070"/>
    <nd ref="425446075"/>
    <nd ref="425446079"/>
    <nd ref="425446008"/>
    <nd ref="1208067469"/>
    <tag k="cables" v="3"/>
    <tag k="frequency" v="50"/>
    <tag k="name" v="116"/>
    <tag k="operator" v="EON_Netz"/>
    <tag k="power" v="line"/>
    <tag k="ref" v="116"/>
    <tag k="voltage" v="110000"/>
    <tag k="wires" v="single"/>
  </way>
  <way id="36519535" version="1" timestamp="2009-06-19T13:24:37Z" uid="43863" user="Rundling" changeset="1564916">
    <nd ref="425446228"/>
    <nd ref="425446230"/>
    <nd ref="425446232"/>
    <nd ref="425446234"/>
    <nd ref="425446235"/>
    <nd ref="425446237"/>
    <nd ref="425446240"/>
    <nd ref="425446242"/>
    <nd ref="425446247"/>
    <nd ref="425446248"/>
    <nd ref="425446249"/>
    <nd ref="425446250"/>
    <nd ref="425446251"/>
    <nd ref="425446252"/>
    <nd ref="425446253"/>
    <nd ref="425446254"/>
    <nd ref="425446256"/>
    <nd ref="425446258"/>
    <nd ref="425446259"/>
    <nd ref="425446261"/>
    <nd ref="425446263"/>
    <nd ref="425446265"/>
    <nd ref="425446267"/>
    <nd ref="425446269"/>
    <nd ref="425446272"/>
    <nd ref="425446273"/>
    <nd ref="425446275"/>
    <nd ref="425446277"/>
    <nd ref="425446279"/>
    <nd ref="425446281"/>
    <nd ref="425446283"/>
    <nd ref="425446285"/>
    <nd ref="425446287"/>
    <nd ref="425446289"/>
    <nd ref="425446291"/>
    <nd ref="425446293"/>
    <nd ref="425446295"/>
    <nd ref="425446297"/>
    <nd ref="425446228"/>
    <tag k="landuse" v="forest"/>
  </way>
  <way id="36519535" version="2" timestamp="2009-06-19T13:24:52Z" uid="43863" user="Rundling" changeset="1564920">
    <nd ref="425446228"/>
    <nd ref="425446230"/>
    <nd ref="425446232"/>
    <nd ref="425446234"/>
    <nd ref="425446235"/>
    <nd ref="425446237"/>
    <nd ref="425446240"/>
    <nd ref="425446242"/>
    <nd ref="425446247"/>
    <nd ref="425446248"/>
    <nd ref="425446249"/>
    <nd ref="425446250"/>
    <nd ref="425446541"/>
    <nd ref="425446538"/>
    <nd ref="425446540"/>
    <nd ref="425446251"/>
    <nd ref="425446252"/>
    <nd ref="425446253"/>
    <nd ref="425446254"/>
    <nd ref="425446256"/>
    <nd ref="425446258"/>
    <nd ref="425446259"/>
    <nd ref="425446261"/>
    <nd ref="425446263"/>
    <nd ref="425446265"/>
    <nd ref="425446267"/>
    <nd ref="425446269"/>
    <nd ref="425446272"/>
    <nd ref="425446273"/>
    <nd ref="425446275"/>
    <nd ref="425446277"/>
    <nd ref="425446279"/>
    <nd ref="425446281"/>
    <nd ref="425446283"/>
    <nd ref="425446285"/>
    <nd ref="425446287"/>
    <nd ref="425446289"/>
    <nd ref="425446291"/>
    <nd ref="425446293"/>
    <nd ref="425446295"/>
    <nd ref="425446297"/>
    <nd ref="425446228"/>
    <tag k="landuse" v="forest"/>
  </way>
  <way id="36519883" version="3" timestamp="2010-07-09T22:49:13Z" uid="74617" user="JohnSmith" changeset="5176956">
    <nd ref="425448548"/>
    <nd ref="425448550"/>
    <nd ref="425448552"/>
    <nd ref="425448554"/>
    <nd ref="425448498"/>
    <tag k="highway" v="unclassified"/>
    <tag k="maxspeed" v="50"/>
    <tag k="maxspeed:source" v="default residential speed limit in Australia"/>
    <tag k="name" v="Hill Road"/>
  </way>
  <way id="36519883" version="4" timestamp="2012-01-18T23:39:42Z" uid="147510" user="woodpeck_fixbot" changeset="10432847">
    <nd ref="425448548"/>
    <nd ref="425448550"/>
    <nd ref="425448552"/>
    <nd ref="425448554"/>
    <nd ref="425448498"/>
    <tag k="highway" v="unclassified"/>
    <tag k="name" v="Hill Road"/>
  </way>
  <way id="36519886" version="3" timestamp="2010-07-09T22:48:04Z" uid="74617" user="JohnSmith" changeset="5176956">
    <nd ref="424552209"/>
    <nd ref="425448612"/>
    <nd ref="425448560"/>
    <nd ref="425448562"/>
    <nd ref="425448566"/>
    <nd ref="425448570"/>
    <nd ref="425448574"/>
    <nd ref="425448578"/>
    <nd ref="425448594"/>
    <tag k="highway" v="unclassified"/>
    <tag k="maxspeed" v="50"/>
    <tag k="maxspeed:source" v="default residential speed limit in Australia"/>
    <tag k="name" v="Dartnall Road"/>
  </way>
  <way id="36519886" version="4" timestamp="2012-01-18T23:39:43Z" uid="147510" user="woodpeck_fixbot" changeset="10432847">
    <nd ref="424552209"/>
    <nd ref="425448612"/>
    <nd ref="425448560"/>
    <nd ref="425448562"/>
    <nd ref="425448566"/>
    <nd ref="425448570"/>
    <nd ref="425448574"/>
    <nd ref="425448578"/>
    <nd ref="425448594"/>
    <tag k="highway" v="unclassified"/>
    <tag k="name" v="Dartnall Road"/>
  </way>
  <way id="36519886" version="5" timestamp="2012-03-18T11:22:27Z" uid="18174" user="browny_au" changeset="11017474">
    <nd ref="424552209"/>
    <nd ref="425448612"/>
    <nd ref="425448560"/>
    <nd ref="425448562"/>
    <tag k="highway" v="unclassified"/>
    <tag k="name" v="Dartnall Road"/>
  </way>
  <way id="36519888" version="3" timestamp="2010-07-09T22:49:51Z" uid="74617" user="JohnSmith" changeset="5176956">
    <nd ref="425448609"/>
    <nd ref="425448612"/>
    <tag k="highway" v="unclassified"/>
    <tag k="maxspeed" v="50"/>
    <tag k="maxspeed:source" v="default residential speed limit in Australia"/>
  </way>
  <way id="36519888" version="4" timestamp="2012-01-18T23:39:44Z" uid="147510" user="woodpeck_fixbot" changeset="10432847">
    <nd ref="425448609"/>
    <nd ref="425448612"/>
    <tag k="highway" v="unclassified"/>
  </way>
  <way id="36519890" version="3" timestamp="2010-07-09T22:46:39Z" uid="74617" user="JohnSmith" changeset="5176956">
    <nd ref="425448594"/>
    <nd ref="425448623"/>
    <nd ref="425448628"/>
    <nd ref="425448632"/>
    <nd ref="457878626"/>
    <tag k="highway" v="unclassified"/>
    <tag k="maxspeed" v="50"/>
    <tag k="maxspeed:source" v="default residential speed limit in Australia"/>
    <tag k="name" v="Kintore Road"/>
  </way>
  <way id="36519890" version="4" timestamp="2010-07-25T14:01:33Z" uid="18174" user="browny_au" changeset="5312157">
    <nd ref="425448594"/>
    <nd ref="425448623"/>
    <nd ref="425448628"/>
    <tag k="highway" v="unclassified"/>
    <tag k="maxspeed" v="50"/>
    <tag k="maxspeed:source" v="default residential speed limit in Australia"/>
    <tag k="name" v="Kintore Road"/>
  </way>
  <way id="36519890" version="5" timestamp="2012-01-18T23:39:44Z" uid="147510" user="woodpeck_fixbot" changeset="10432847">
    <nd ref="425448594"/>
    <nd ref="425448623"/>
    <nd ref="425448628"/>
    <tag k="highway" v="unclassified"/>
    <tag k="name" v="Kintore Road"/>
  </way>
  <way id="36519896" version="4" timestamp="2010-07-09T22:50:31Z" uid="74617" user="JohnSmith" changeset="5176956">
    <nd ref="425448594"/>
    <nd ref="425448642"/>
    <nd ref="425448645"/>
    <nd ref="425448646"/>
    <nd ref="652397472"/>
    <nd ref="425448663"/>
    <tag k="highway" v="unclassified"/>
    <tag k="maxspeed" v="50"/>
    <tag k="maxspeed:source" v="default residential speed limit in Australia"/>
    <tag k="name" v="Kintore Road"/>
  </way>
  <way id="36519896" version="5" timestamp="2012-01-18T23:39:45Z" uid="147510" user="woodpeck_fixbot" changeset="10432847">
    <nd ref="425448594"/>
    <nd ref="425448642"/>
    <nd ref="425448645"/>
    <nd ref="425448646"/>
    <nd ref="652397472"/>
    <nd ref="425448663"/>
    <tag k="highway" v="unclassified"/>
    <tag k="name" v="Kintore Road"/>
  </way>
  <way id="36519896" version="6" timestamp="2012-03-18T11:22:37Z" uid="18174" user="browny_au" changeset="11017474">
    <nd ref="425448594"/>
    <nd ref="425448642"/>
    <nd ref="1679633661"/>
    <nd ref="1679633659"/>
    <nd ref="425448645"/>
    <nd ref="425448646"/>
    <nd ref="652397472"/>
    <nd ref="1679633413"/>
    <nd ref="1679633411"/>
    <nd ref="425448663"/>
    <tag k="highway" v="unclassified"/>
    <tag k="name" v="Kintore Road"/>
  </way>
  <way id="36519910" version="3" timestamp="2010-07-09T22:47:32Z" uid="74617" user="JohnSmith" changeset="5176956">
    <nd ref="425448737"/>
    <nd ref="425448739"/>
    <nd ref="425448740"/>
    <nd ref="425448741"/>
    <nd ref="425448751"/>
    <nd ref="425448767"/>
    <nd ref="425448488"/>
    <tag k="highway" v="unclassified"/>
    <tag k="maxspeed" v="50"/>
    <tag k="maxspeed:source" v="default residential speed limit in Australia"/>
    <tag k="name" v="Riley Road"/>
  </way>
  <way id="36519910" version="4" timestamp="2012-01-18T23:39:46Z" uid="147510" user="woodpeck_fixbot" changeset="10432847">
    <nd ref="425448737"/>
    <nd ref="425448739"/>
    <nd ref="425448740"/>
    <nd ref="425448741"/>
    <nd ref="425448751"/>
    <nd ref="425448767"/>
    <nd ref="425448488"/>
    <tag k="highway" v="unclassified"/>
    <tag k="name" v="Riley Road"/>
  </way>
  <way id="36519910" version="5" timestamp="2012-03-16T17:19:29Z" uid="18174" user="browny_au" changeset="11000427">
    <nd ref="425448737"/>
    <nd ref="1677054278"/>
    <nd ref="1677054277"/>
    <nd ref="425448739"/>
    <nd ref="425448740"/>
    <nd ref="425448741"/>
    <nd ref="425448751"/>
    <nd ref="425448767"/>
    <nd ref="425448488"/>
    <tag k="highway" v="unclassified"/>
    <tag k="name" v="Riley Road"/>
  </way>
  <way id="36519910" version="6" timestamp="2012-03-18T11:22:45Z" uid="18174" user="browny_au" changeset="11017474">
    <nd ref="425448737"/>
    <nd ref="1677054278"/>
    <nd ref="1677054277"/>
    <nd ref="425448739"/>
    <nd ref="1679633351"/>
    <nd ref="1679633349"/>
    <nd ref="425448740"/>
    <nd ref="1679633343"/>
    <nd ref="425448741"/>
    <nd ref="425448751"/>
    <nd ref="425448767"/>
    <nd ref="425448488"/>
    <tag k="highway" v="unclassified"/>
    <tag k="name" v="Riley Road"/>
  </way>
  <way id="36519912" version="3" timestamp="2010-07-09T22:48:59Z" uid="74617" user="JohnSmith" changeset="5176956">
    <nd ref="425448767"/>
    <nd ref="425448833"/>
    <nd ref="425448797"/>
    <tag k="highway" v="residential"/>
    <tag k="maxspeed" v="50"/>
    <tag k="maxspeed:source" v="default residential speed limit in Australia"/>
    <tag k="name" v="Windoo Road"/>
  </way>
  <way id="36519912" version="4" timestamp="2012-01-18T23:39:47Z" uid="147510" user="woodpeck_fixbot" changeset="10432847">
    <nd ref="425448767"/>
    <nd ref="425448833"/>
    <nd ref="425448797"/>
    <tag k="highway" v="residential"/>
    <tag k="name" v="Windoo Road"/>
  </way>
  <way id="36519916" version="3" timestamp="2010-07-09T22:47:07Z" uid="74617" user="JohnSmith" changeset="5176956">
    <nd ref="424552228"/>
    <nd ref="425448823"/>
    <nd ref="425448833"/>
    <nd ref="425448861"/>
    <tag k="highway" v="residential"/>
    <tag k="maxspeed" v="50"/>
    <tag k="maxspeed:source" v="default residential speed limit in Australia"/>
    <tag k="name" v="Carawatha Road"/>
  </way>
  <way id="36519916" version="4" timestamp="2012-01-18T23:39:48Z" uid="147510" user="woodpeck_fixbot" changeset="10432847">
    <nd ref="424552228"/>
    <nd ref="425448823"/>
    <nd ref="425448833"/>
    <nd ref="425448861"/>
    <tag k="highway" v="residential"/>
    <tag k="name" v="Carawatha Road"/>
  </way>
  <way id="36519448" version="7" timestamp="2012-04-16T09:24:09Z" uid="13203" user="bahnpirat" changeset="11319524">
    <nd ref="1719101349"/>
    <nd ref="1719101344"/>
    <nd ref="425445990"/>
    <nd ref="1719101268"/>
    <nd ref="425445992"/>
    <tag k="cables" v="3"/>
    <tag k="frequency" v="50"/>
    <tag k="operator" v="EON_Netz"/>
    <tag k="power" v="line"/>
    <tag k="voltage" v="110000"/>
    <tag k="wires" v="single"/>
  </way>
  <way id="36519462" version="8" timestamp="2012-04-16T15:00:41Z" uid="13203" user="bahnpirat" changeset="11322937">
    <nd ref="1719349160"/>
    <nd ref="1719349172"/>
    <nd ref="1719349173"/>
    <nd ref="425446034"/>
    <nd ref="425446037"/>
    <tag k="cables" v="3"/>
    <tag k="frequency" v="50"/>
    <tag k="operator" v="EON_Netz"/>
    <tag k="power" v="line"/>
    <tag k="voltage" v="110000"/>
    <tag k="wires" v="single"/>
  </way>
  <way id="36519462" version="9" timestamp="2012-07-27T10:07:12Z" uid="13203" user="bahnpirat" changeset="12509364">
    <nd ref="1719349160"/>
    <nd ref="1719349172"/>
    <nd ref="1719349173"/>
    <nd ref="425446034"/>
    <nd ref="425446037"/>
    <tag k="cables" v="3"/>
    <tag k="color" v="black"/>
    <tag k="frequency" v="50"/>
    <tag k="operator" v="EON_Netz"/>
    <tag k="power" v="line"/>
    <tag k="voltage" v="110000"/>
    <tag k="wires" v="single"/>
  </way>
  <way id="36519480" version="9" timestamp="2012-07-27T10:07:12Z" uid="13203" user="bahnpirat" changeset="12509364">
    <nd ref="425445998"/>
    <nd ref="425446015"/>
    <nd ref="425446011"/>
    <nd ref="425446022"/>
    <nd ref="425446019"/>
    <nd ref="425446026"/>
    <nd ref="425446029"/>
    <nd ref="425446038"/>
    <nd ref="425446040"/>
    <nd ref="425446043"/>
    <nd ref="425446047"/>
    <nd ref="425446051"/>
    <nd ref="425446057"/>
    <nd ref="425446061"/>
    <nd ref="425446065"/>
    <nd ref="425446070"/>
    <nd ref="425446075"/>
    <nd ref="425446079"/>
    <nd ref="425446008"/>
    <nd ref="1208067469"/>
    <tag k="cables" v="3"/>
    <tag k="color" v="red"/>
    <tag k="frequency" v="50"/>
    <tag k="name" v="116"/>
    <tag k="operator" v="EON_Netz"/>
    <tag k="power" v="line"/>
    <tag k="ref" v="116"/>
    <tag k="voltage" v="110000"/>
    <tag k="wires" v="single"/>
  </way>
  <way id="36519535" version="3" timestamp="2012-07-18T17:13:33Z" uid="722137" user="OSMF Redaction Account" changeset="12290188"/>
  <way id="36519910" version="7" timestamp="2012-04-21T03:15:18Z" uid="192584" user="ORYX" changeset="11370146">
    <nd ref="425448737"/>
    <nd ref="1677054278"/>
    <nd ref="1677054277"/>
    <nd ref="425448739"/>
    <nd ref="1679633351"/>
    <nd ref="1679633349"/>
    <nd ref="425448740"/>
    <nd ref="1679633343"/>
    <nd ref="425448741"/>
    <nd ref="425448751"/>
    <nd ref="1724850432"/>
    <nd ref="1724850433"/>
    <nd ref="425448767"/>
    <nd ref="425448488"/>
    <tag k="highway" v="unclassified"/>
    <tag k="name" v="Riley Road"/>
  </way>
</osm>
