<?xml version='1.0' encoding='UTF-8'?>
<osm version="0.6" generator="libosmium/2.20.0">
  <way id="36554217" version="3" timestamp="2010-03-28T02:20:44Z" uid="20587" user="balrog-kun" changeset="4250871">
    <nd ref="90883385"/>
    <nd ref="90883387"/>
    <nd ref="90883389"/>
    <nd ref="90883391"/>
    <nd ref="90883393"/>
    <nd ref="90883395"/>
    <nd ref="90883397"/>
    <nd ref="90883399"/>
    <nd ref="90883401"/>
    <nd ref="90883403"/>
    <nd ref="90883405"/>
    <nd ref="90883406"/>
    <nd ref="90883408"/>
    <tag k="created_by" v="Potlatch 0.9c"/>
    <tag k="cycleway" v="lane_right"/>
    <tag k="highway" v="residential"/>
    <tag k="lcn" v="yes"/>
    <tag k="name" v="Alexandria Place"/>
    <tag k="tiger:cfcc" v="A41"/>
    <tag k="tiger:county" v="San Joaquin, CA"/>
    <tag k="tiger:name_base" v="Alexandria"/>
    <tag k="tiger:name_type" v="Pl"/>
    <tag k="tiger:separated" v="no"/>
    <tag k="tiger:source" v="tiger_import_dch_v0.6_20070809"/>
    <tag k="tiger:tlid" v="133917824"/>
    <tag k="tiger:zip_left" v="95207"/>
    <tag k="tiger:zip_right" v="95207"/>
  </way>
  <way id="36554217" version="4" timestamp="2012-01-05T17:10:47Z" uid="7037" user="Gregory Williams" changeset="10303097">
    <nd ref="90883385"/>
    <nd ref="90883387"/>
    <nd ref="90883389"/>
    <nd ref="90883391"/>
    <nd ref="90883393"/>
    <nd ref="90883395"/>
    <nd ref="90883397"/>
    <nd ref="90883399"/>
    <nd ref="90883401"/>
    <nd ref="90883403"/>
    <nd ref="90883405"/>
    <nd ref="90883406"/>
    <nd ref="90883408"/>
    <tag k="cycleway:right" v="lane"/>
    <tag k="highway" v="residential"/>
    <tag k="lcn" v="yes"/>
    <tag k="name" v="Alexandria Place"/>
    <tag k="tiger:cfcc" v="A41"/>
    <tag k="tiger:county" v="San Joaquin, CA"/>
    <tag k="tiger:name_base" v="Alexandria"/>
    <tag k="tiger:name_type" v="Pl"/>
    <tag k="tiger:separated" v="no"/>
    <tag k="tiger:source" v="tiger_import_dch_v0.6_20070809"/>
    <tag k="tiger:tlid" v="133917824"/>
    <tag k="tiger:zip_left" v="95207"/>
    <tag k="tiger:zip_right" v="95207"/>
  </way>
  <way id="36554761" version="1" timestamp="2009-06-19T16:57:03Z" uid="43863" user="Rundling" changeset="1566795">
    <nd ref="425683947"/>
    <nd ref="425683949"/>
    <tag k="highway" v="steps"/>
    <tag k="surface" v="cobblestone"/>
  </way>
  <way id="36554876" version="2" timestamp="2009-08-16T07:16:30Z" uid="4467" user="Rosscoe" changeset="2160849">
    <nd ref="313582429"/>
    <nd ref="15406815"/>
    <nd ref="15406814"/>
    <tag k="abutters" v="mixed"/>
    <tag k="highway" v="primary"/>
    <tag k="name" v="Grosvenor Street"/>
  </way>
  <way id="36554876" version="3" timestamp="2009-11-14T12:14:13Z" uid="117890" user="Jonathan Trott" changeset="3112508">
    <nd ref="313582429"/>
    <nd ref="15406815"/>
    <nd ref="15406814"/>
    <tag k="abutters" v="mixed"/>
    <tag k="highway" v="primary"/>
    <tag k="name" v="Grosvenor Street"/>
  </way>
  <way id="36554876" version="4" timestamp="2010-01-06T00:58:05Z" uid="30201" user="rrankin" changeset="3550442">
    <nd ref="313582429"/>
    <nd ref="15406815"/>
    <nd ref="15406814"/>
    <tag k="highway" v="primary"/>
    <tag k="name" v="Grosvenor Street"/>
  </way>
  <way id="36554876" version="5" timestamp="2010-01-19T08:25:39Z" uid="20949" user="Ebenezer" changeset="3656769">
    <nd ref="313582429"/>
    <nd ref="15406815"/>
    <nd ref="616584779"/>
    <nd ref="15406814"/>
    <tag k="highway" v="primary"/>
    <tag k="name" v="Grosvenor Street"/>
  </way>
  <way id="36554876" version="6" timestamp="2010-09-13T11:13:37Z" uid="79475" user="AlexOnTheBus" changeset="5768677">
    <nd ref="313582429"/>
    <nd ref="15406815"/>
    <nd ref="616584779"/>
    <nd ref="15406814"/>
    <tag k="highway" v="secondary"/>
    <tag k="name" v="Grosvenor Street"/>
  </way>
  <way id="36554876" version="7" timestamp="2010-09-13T11:13:48Z" uid="79475" user="AlexOnTheBus" changeset="5768677">
    <nd ref="313582429"/>
    <nd ref="15406815"/>
    <nd ref="616584779"/>
    <nd ref="15406814"/>
    <tag k="highway" v="tertiary"/>
    <tag k="name" v="Grosvenor Street"/>
  </way>
  <way id="36554876" version="8" timestamp="2010-10-27T06:35:47Z" uid="12203" user="brainwad" changeset="6191580">
    <nd ref="313582429"/>
    <nd ref="15406815"/>
    <nd ref="616584779"/>
    <nd ref="15406814"/>
    <tag k="highway" v="secondary"/>
    <tag k="maxspeed" v="50"/>
    <tag k="name" v="Grosvenor Street"/>
  </way>
  <way id="36554877" version="6" timestamp="2010-04-01T17:25:24Z" uid="74617" user="JohnSmith" changeset="4295913">
    <nd ref="12228159"/>
    <nd ref="515857669"/>
    <nd ref="638151177"/>
    <nd ref="10285159"/>
    <nd ref="8965936"/>
    <tag k="highway" v="primary"/>
    <tag k="maxspeed" v="60"/>
    <tag k="name" v="Parramatta Road"/>
    <tag k="oneway" v="yes"/>
  </way>
  <way id="36554877" version="7" timestamp="2011-06-19T12:27:37Z" uid="7617" user="Franc" changeset="8483425">
    <nd ref="12228159"/>
    <nd ref="515857669"/>
    <nd ref="638151177"/>
    <nd ref="10285159"/>
    <tag k="highway" v="primary"/>
    <tag k="maxspeed" v="60"/>
    <tag k="name" v="Parramatta Road"/>
    <tag k="oneway" v="yes"/>
  </way>
  <way id="36554877" version="8" timestamp="2012-02-02T05:54:51Z" uid="54784" user="Tom Hollander" changeset="10564724">
    <nd ref="12228159"/>
    <nd ref="515857669"/>
    <nd ref="638151177"/>
    <nd ref="10285159"/>
    <tag k="highway" v="primary"/>
    <tag k="maxspeed" v="60"/>
    <tag k="name" v="Parramatta Road"/>
    <tag k="oneway" v="yes"/>
    <tag k="ref" v="SH31"/>
  </way>
  <way id="36554878" version="3" timestamp="2009-12-24T10:27:51Z" uid="30201" user="rrankin" changeset="3440994">
    <nd ref="15157045"/>
    <nd ref="15157043"/>
    <tag k="highway" v="tertiary"/>
    <tag k="name" v="Abercrombie Street"/>
  </way>
  <way id="36554879" version="5" timestamp="2010-04-01T17:25:24Z" uid="74617" user="JohnSmith" changeset="4295913">
    <nd ref="8965937"/>
    <nd ref="8109388"/>
    <nd ref="32901241"/>
    <nd ref="300503023"/>
    <nd ref="26526861"/>
    <nd ref="8109387"/>
    <tag k="bus_lane" v="Mo-Fr 06:00-10:00,15:00-19:00"/>
    <tag k="bus_lane:bicycle" v="yes"/>
    <tag k="highway" v="primary"/>
    <tag k="image" v="80n:dsc04342.jpg"/>
    <tag k="maxspeed" v="50"/>
    <tag k="name" v="Broadway"/>
  </way>
  <way id="36554879" version="6" timestamp="2010-04-14T09:08:33Z" uid="7617" user="Franc" changeset="4420660">
    <nd ref="8965937"/>
    <nd ref="8109388"/>
    <nd ref="32901241"/>
    <nd ref="696520114"/>
    <nd ref="300503023"/>
    <nd ref="26526861"/>
    <nd ref="8109387"/>
    <tag k="bus_lane" v="Mo-Fr 06:00-10:00,15:00-19:00"/>
    <tag k="bus_lane:bicycle" v="yes"/>
    <tag k="highway" v="primary"/>
    <tag k="image" v="80n:dsc04342.jpg"/>
    <tag k="maxspeed" v="50"/>
    <tag k="name" v="Broadway"/>
  </way>
  <way id="36554879" version="7" timestamp="2010-09-13T11:05:28Z" uid="79475" user="AlexOnTheBus" changeset="5768543">
    <nd ref="8965937"/>
    <nd ref="8109388"/>
    <nd ref="32901241"/>
    <nd ref="696520114"/>
    <nd ref="300503023"/>
    <nd ref="26526861"/>
    <nd ref="8109387"/>
    <tag k="bus_lane" v="Mo-Fr 06:00-10:00,15:00-19:00"/>
    <tag k="bus_lane:bicycle" v="yes"/>
    <tag k="highway" v="secondary"/>
    <tag k="image" v="80n:dsc04342.jpg"/>
    <tag k="maxspeed" v="50"/>
    <tag k="name" v="Broadway"/>
  </way>
  <way id="36554879" version="8" timestamp="2010-09-13T11:05:43Z" uid="79475" user="AlexOnTheBus" changeset="5768543">
    <nd ref="8965937"/>
    <nd ref="8109388"/>
    <nd ref="32901241"/>
    <nd ref="696520114"/>
    <nd ref="300503023"/>
    <nd ref="26526861"/>
    <nd ref="8109387"/>
    <tag k="bus_lane" v="Mo-Fr 06:00-10:00,15:00-19:00"/>
    <tag k="bus_lane:bicycle" v="yes"/>
    <tag k="highway" v="secondary"/>
    <tag k="image" v="80n:dsc04342.jpg"/>
    <tag k="maxspeed" v="50"/>
    <tag k="name" v="Broadway"/>
    <tag k="oneway" v="yes"/>
  </way>
  <way id="36554879" version="9" timestamp="2011-01-07T00:42:31Z" uid="389517" user="good2010" changeset="6888740">
    <nd ref="8965937"/>
    <nd ref="32901241"/>
    <nd ref="696520114"/>
    <nd ref="300503023"/>
    <nd ref="26526861"/>
    <nd ref="1087215356"/>
    <nd ref="8109387"/>
    <tag k="bus_lane" v="Mo-Fr 06:00-10:00,15:00-19:00"/>
    <tag k="bus_lane:bicycle" v="yes"/>
    <tag k="highway" v="secondary"/>
    <tag k="image" v="80n:dsc04342.jpg"/>
    <tag k="maxspeed" v="50"/>
    <tag k="name" v="Broadway"/>
    <tag k="oneway" v="yes"/>
  </way>
  <way id="36554879" version="10" timestamp="2012-02-02T05:54:51Z" uid="54784" user="Tom Hollander" changeset="10564724">
    <nd ref="8965937"/>
    <nd ref="32901241"/>
    <nd ref="696520114"/>
    <nd ref="300503023"/>
    <nd ref="26526861"/>
    <nd ref="1087215356"/>
    <nd ref="8109387"/>
    <tag k="bus_lane" v="Mo-Fr 06:00-10:00,15:00-19:00"/>
    <tag k="bus_lane:bicycle" v="yes"/>
    <tag k="highway" v="secondary"/>
    <tag k="image" v="80n:dsc04342.jpg"/>
    <tag k="maxspeed" v="50"/>
    <tag k="name" v="Broadway"/>
    <tag k="oneway" v="yes"/>
    <tag k="ref" v="SH31"/>
  </way>
  <way id="36554761" version="2" timestamp="2012-07-18T18:17:58Z" uid="722137" user="OSMF Redaction Account" changeset="12291953"/>
  <way id="36554876" version="9" timestamp="2012-07-03T00:43:44Z" uid="20949" user="Ebenezer" changeset="12095308">
    <nd ref="313582429"/>
    <nd ref="15406815"/>
    <nd ref="616584779"/>
    <nd ref="1810716965"/>
    <tag k="highway" v="secondary"/>
    <tag k="maxspeed" v="50"/>
    <tag k="name" v="Grosvenor Street"/>
  </way>
  <way id="36554876" version="10" timestamp="2012-07-20T19:34:46Z" uid="211154" user="ËdzëronK" changeset="12387408">
    <nd ref="20959245"/>
    <nd ref="313582429"/>
    <nd ref="15406815"/>
    <nd ref="616584779"/>
    <nd ref="1810716965"/>
    <tag k="highway" v="secondary"/>
    <tag k="maxspeed" v="50"/>
    <tag k="name" v="Grosvenor Street"/>
  </way>
  <way id="36554877" version="9" timestamp="2012-07-03T00:10:40Z" uid="20949" user="Ebenezer" changeset="12095308">
    <nd ref="1810702879"/>
    <nd ref="1810702882"/>
    <nd ref="1810702883"/>
    <nd ref="1810702890"/>
    <nd ref="1810702899"/>
    <nd ref="1810702896"/>
    <nd ref="1810702873"/>
    <nd ref="1810702881"/>
    <nd ref="1810702874"/>
    <nd ref="1810702891"/>
    <nd ref="1810702869"/>
    <nd ref="1810702894"/>
    <nd ref="1810702878"/>
    <nd ref="1810702898"/>
    <nd ref="1810702876"/>
    <nd ref="1677855014"/>
    <nd ref="1810702889"/>
    <nd ref="1810702900"/>
    <nd ref="1810702895"/>
    <nd ref="1810702880"/>
    <nd ref="1810702901"/>
    <nd ref="1810702902"/>
    <nd ref="1810702872"/>
    <nd ref="1810702903"/>
    <nd ref="1810702871"/>
    <nd ref="1810702884"/>
    <nd ref="1810702887"/>
    <tag k="highway" v="primary"/>
    <tag k="maxspeed" v="60"/>
    <tag k="name" v="Parramatta Road"/>
    <tag k="oneway" v="yes"/>
    <tag k="ref" v="31"/>
    <tag k="source" v="Bing"/>
  </way>
  <way id="36554877" version="10" timestamp="2012-07-20T06:31:34Z" uid="746737" user="lexii" changeset="12364034">
    <nd ref="1810702879"/>
    <nd ref="1810702882"/>
    <nd ref="1810702883"/>
    <nd ref="1810702890"/>
    <nd ref="1810702899"/>
    <nd ref="1810702896"/>
    <nd ref="1810702873"/>
    <nd ref="1810702881"/>
    <nd ref="1810702874"/>
    <nd ref="1810702891"/>
    <nd ref="1810702869"/>
    <nd ref="1810702894"/>
    <nd ref="1810702878"/>
    <nd ref="1810702898"/>
    <nd ref="1810702876"/>
    <nd ref="1677855014"/>
    <nd ref="1810702889"/>
    <nd ref="1810702900"/>
    <nd ref="1810702895"/>
    <nd ref="1810702880"/>
    <nd ref="1810702901"/>
    <nd ref="1810702902"/>
    <nd ref="1810702872"/>
    <nd ref="1810702903"/>
    <nd ref="1810702871"/>
    <nd ref="1810702884"/>
    <tag k="highway" v="primary"/>
    <tag k="maxspeed" v="60"/>
    <tag k="name" v="Parramatta Road"/>
    <tag k="oneway" v="yes"/>
    <tag k="ref" v="31"/>
    <tag k="source" v="Bing"/>
  </way>
  <way id="36554877" version="11" timestamp="2012-07-20T09:13:15Z" uid="47167" user="MCH" changeset="12369623">
    <nd ref="1810702879"/>
    <nd ref="1810702882"/>
    <nd ref="1810702883"/>
    <nd ref="1810702890"/>
    <nd ref="1810702899"/>
    <nd ref="1810702896"/>
    <nd ref="1810702873"/>
    <nd ref="1810702881"/>
    <nd ref="1810702874"/>
    <nd ref="1810702891"/>
    <nd ref="1810702869"/>
    <nd ref="1810702894"/>
    <nd ref="1810702878"/>
    <nd ref="1810702898"/>
    <nd ref="1810702876"/>
    <nd ref="1677855014"/>
    <nd ref="1810702889"/>
    <nd ref="1810702900"/>
    <nd ref="1810702895"/>
    <nd ref="1810702880"/>
    <nd ref="1810702901"/>
    <nd ref="1810702902"/>
    <nd ref="1810702872"/>
    <nd ref="1810702903"/>
    <nd ref="1810702871"/>
    <nd ref="1810702884"/>
    <nd ref="1831853948"/>
    <nd ref="1831853952"/>
    <tag k="highway" v="primary"/>
    <tag k="maxspeed" v="60"/>
    <tag k="name" v="Parramatta Road"/>
    <tag k="oneway" v="yes"/>
    <tag k="ref" v="31"/>
    <tag k="source" v="Bing"/>
  </way>
  <way id="36554877" version="12" timestamp="2012-07-20T16:30:56Z" uid="708295" user="numbfew" changeset="12383443">
    <nd ref="1810702879"/>
    <nd ref="1810702882"/>
    <nd ref="1810702883"/>
    <nd ref="1810702890"/>
    <nd ref="1810702899"/>
    <nd ref="1810702896"/>
    <nd ref="1810702873"/>
    <nd ref="1810702881"/>
    <nd ref="1810702874"/>
    <nd ref="1810702891"/>
    <nd ref="1832199240"/>
    <nd ref="1810702869"/>
    <nd ref="1810702894"/>
    <nd ref="1810702878"/>
    <nd ref="1810702898"/>
    <nd ref="1810702876"/>
    <nd ref="1677855014"/>
    <nd ref="1810702889"/>
    <nd ref="1810702900"/>
    <nd ref="1810702895"/>
    <nd ref="1810702880"/>
    <nd ref="1810702901"/>
    <nd ref="1810702902"/>
    <nd ref="1810702872"/>
    <nd ref="1810702903"/>
    <nd ref="1810702871"/>
    <nd ref="1810702884"/>
    <nd ref="1831853948"/>
    <nd ref="1831853952"/>
    <tag k="highway" v="primary"/>
    <tag k="maxspeed" v="60"/>
    <tag k="name" v="Parramatta Road"/>
    <tag k="oneway" v="yes"/>
    <tag k="ref" v="31"/>
    <tag k="source" v="Bing"/>
  </way>
  <way id="36554877" version="13" timestamp="2012-07-20T19:35:01Z" uid="211154" user="ËdzëronK" changeset="12387408">
    <nd ref="1810702879"/>
    <nd ref="1810702882"/>
    <nd ref="1810702883"/>
    <nd ref="1810702890"/>
    <nd ref="1810702899"/>
    <nd ref="1810702896"/>
    <nd ref="1810702873"/>
    <nd ref="1810702881"/>
    <nd ref="1810702874"/>
    <nd ref="1810702891"/>
    <nd ref="1810702869"/>
    <nd ref="1810702894"/>
    <nd ref="1810702878"/>
    <nd ref="1810702898"/>
    <nd ref="1810702876"/>
    <nd ref="1677855014"/>
    <nd ref="1810702889"/>
    <nd ref="1810702900"/>
    <nd ref="1832330275"/>
    <nd ref="1810702895"/>
    <nd ref="1810702880"/>
    <nd ref="1810702901"/>
    <nd ref="1810702902"/>
    <nd ref="1810702872"/>
    <nd ref="1810702903"/>
    <nd ref="1810702871"/>
    <nd ref="1810702884"/>
    <nd ref="1831853948"/>
    <nd ref="1831853952"/>
    <tag k="highway" v="primary"/>
    <tag k="maxspeed" v="60"/>
    <tag k="name" v="Parramatta Road"/>
    <tag k="oneway" v="yes"/>
    <tag k="ref" v="31"/>
    <tag k="source" v="Bing"/>
  </way>
  <way id="36554878" version="4" timestamp="2012-07-23T02:20:33Z" uid="717576" user="samuelrussell" changeset="12443242">
    <nd ref="1826240935"/>
    <nd ref="464776469"/>
    <nd ref="15158952"/>
    <nd ref="15157045"/>
    <nd ref="15157043"/>
    <tag k="highway" v="tertiary"/>
    <tag k="name" v="Abercrombie Street"/>
  </way>
  <way id="36554878" version="5" timestamp="2012-07-31T22:02:38Z" uid="717576" user="samuelrussell" changeset="12567883">
    <nd ref="1826240935"/>
    <nd ref="464776469"/>
    <nd ref="15158952"/>
    <nd ref="1846203920"/>
    <nd ref="15157045"/>
    <nd ref="15157043"/>
    <tag k="highway" v="tertiary"/>
    <tag k="name" v="Abercrombie Street"/>
  </way>
  <way id="36554878" version="6" timestamp="2012-08-14T08:15:05Z" uid="58305" user="fiveisalive" changeset="12723695">
    <nd ref="1826240935"/>
    <nd ref="464776469"/>
    <nd ref="15158952"/>
    <tag k="highway" v="tertiary"/>
    <tag k="name" v="Abercrombie Street"/>
  </way>
  <way id="36554879" version="11" timestamp="2012-07-03T00:17:02Z" uid="20949" user="Ebenezer" changeset="12095308">
    <nd ref="1810704590"/>
    <nd ref="32901241"/>
    <nd ref="696520114"/>
    <nd ref="300503023"/>
    <nd ref="26526861"/>
    <nd ref="1087215356"/>
    <nd ref="8109387"/>
    <tag k="bus_lane" v="Mo-Fr 06:00-10:00,15:00-19:00"/>
    <tag k="bus_lane:bicycle" v="yes"/>
    <tag k="highway" v="secondary"/>
    <tag k="image" v="80n:dsc04342.jpg"/>
    <tag k="maxspeed" v="50"/>
    <tag k="name" v="Broadway"/>
    <tag k="oneway" v="yes"/>
    <tag k="ref" v="SH31"/>
  </way>
  <way id="36554879" version="12" timestamp="2012-07-03T00:21:07Z" uid="20949" user="Ebenezer" changeset="12095308"/>
</osm>
