<?xml version='1.0' encoding='UTF-8'?>
<osm version="0.6" generator="libosmium/2.20.0">
  <way id="36660433" version="3" timestamp="2010-07-09T20:53:32Z" uid="74617" user="JohnSmith" changeset="5176956">
    <nd ref="598435046"/>
    <nd ref="346659782"/>
    <nd ref="31003531"/>
    <tag k="highway" v="residential"/>
    <tag k="maxspeed" v="50"/>
    <tag k="maxspeed:source" v="default residential speed limit in Australia"/>
    <tag k="name" v="Howlett Street"/>
    <tag k="source" v="Yahoo Imagery"/>
  </way>
  <way id="36660433" version="4" timestamp="2012-01-18T23:40:15Z" uid="147510" user="woodpeck_fixbot" changeset="10432847">
    <nd ref="598435046"/>
    <nd ref="346659782"/>
    <nd ref="31003531"/>
    <tag k="highway" v="residential"/>
    <tag k="name" v="Howlett Street"/>
    <tag k="source" v="Yahoo Imagery"/>
  </way>
  <way id="36660433" version="5" timestamp="2012-03-21T13:22:46Z" uid="142807" user="SDavies" changeset="11051993">
    <nd ref="598435046"/>
    <nd ref="1684646205"/>
    <nd ref="346659782"/>
    <nd ref="1684646211"/>
    <nd ref="1684646259"/>
    <nd ref="31003531"/>
    <tag k="highway" v="residential"/>
    <tag k="name" v="Howlett Street"/>
    <tag k="source" v="Yahoo Imagery"/>
  </way>
  <way id="36660434" version="4" timestamp="2010-07-09T21:02:00Z" uid="74617" user="JohnSmith" changeset="5176956">
    <nd ref="346656446"/>
    <nd ref="346656465"/>
    <nd ref="346656448"/>
    <nd ref="790770846"/>
    <nd ref="276565798"/>
    <tag k="highway" v="residential"/>
    <tag k="maxspeed" v="50"/>
    <tag k="maxspeed:source" v="default residential speed limit in Australia"/>
    <tag k="name" v="Albert Street"/>
    <tag k="source" v="Yahoo Imagery"/>
  </way>
  <way id="36660434" version="5" timestamp="2012-01-18T23:40:16Z" uid="147510" user="woodpeck_fixbot" changeset="10432847">
    <nd ref="346656446"/>
    <nd ref="346656465"/>
    <nd ref="346656448"/>
    <nd ref="790770846"/>
    <nd ref="276565798"/>
    <tag k="highway" v="residential"/>
    <tag k="name" v="Albert Street"/>
    <tag k="source" v="Yahoo Imagery"/>
  </way>
  <way id="36660434" version="6" timestamp="2012-03-06T13:20:20Z" uid="142807" user="SDavies" changeset="10889948">
    <nd ref="346656446"/>
    <nd ref="346656465"/>
    <nd ref="346656448"/>
    <nd ref="1662351171"/>
    <nd ref="790770846"/>
    <nd ref="276565798"/>
    <tag k="highway" v="residential"/>
    <tag k="name" v="Albert Street"/>
    <tag k="source" v="Yahoo Imagery"/>
  </way>
  <way id="36660435" version="3" timestamp="2010-07-09T21:06:49Z" uid="74617" user="JohnSmith" changeset="5176956">
    <nd ref="346658727"/>
    <nd ref="346658728"/>
    <nd ref="346658724"/>
    <nd ref="33498676"/>
    <tag k="highway" v="residential"/>
    <tag k="maxspeed" v="50"/>
    <tag k="maxspeed:source" v="default residential speed limit in Australia"/>
    <tag k="name" v="Farr Avenue"/>
    <tag k="source" v="Yahoo Imagery"/>
  </way>
  <way id="36660435" version="4" timestamp="2012-01-18T23:40:18Z" uid="147510" user="woodpeck_fixbot" changeset="10432847">
    <nd ref="346658727"/>
    <nd ref="346658728"/>
    <nd ref="346658724"/>
    <nd ref="33498676"/>
    <tag k="highway" v="residential"/>
    <tag k="name" v="Farr Avenue"/>
    <tag k="source" v="Yahoo Imagery"/>
  </way>
  <way id="36660435" version="5" timestamp="2012-03-03T18:50:47Z" uid="142807" user="SDavies" changeset="10860935">
    <nd ref="346658727"/>
    <nd ref="1657884110"/>
    <nd ref="346658728"/>
    <nd ref="1657884120"/>
    <nd ref="1657884117"/>
    <nd ref="346658724"/>
    <nd ref="33498676"/>
    <tag k="highway" v="residential"/>
    <tag k="name" v="Farr Avenue"/>
    <tag k="source" v="Yahoo Imagery"/>
  </way>
</osm>
