<?xml version='1.0' encoding='UTF-8'?>
<osm version="0.6" generator="libosmium/2.20.0">
  <way id="36690091" version="3" timestamp="2010-07-08T19:17:32Z" uid="74617" user="JohnSmith" changeset="5168688">
    <nd ref="354386979"/>
    <nd ref="354386986"/>
    <nd ref="354397016"/>
    <nd ref="354386991"/>
    <tag k="highway" v="residential"/>
    <tag k="maxspeed" v="50"/>
    <tag k="maxspeed:source" v="default residential speed limit in Australia"/>
    <tag k="name" v="Whitlam Green"/>
  </way>
  <way id="36690091" version="4" timestamp="2010-11-13T05:21:25Z" uid="84937" user="Neil Penman" changeset="6355894">
    <nd ref="354386979"/>
    <nd ref="987373203"/>
    <nd ref="354386986"/>
    <nd ref="354397016"/>
    <nd ref="354386991"/>
    <tag k="highway" v="residential"/>
    <tag k="maxspeed" v="50"/>
    <tag k="maxspeed:source" v="default residential speed limit in Australia"/>
    <tag k="name" v="Whitlam Green"/>
  </way>
  <way id="36690091" version="5" timestamp="2012-01-18T23:42:41Z" uid="147510" user="woodpeck_fixbot" changeset="10432847">
    <nd ref="354386979"/>
    <nd ref="987373203"/>
    <nd ref="354386986"/>
    <nd ref="354397016"/>
    <nd ref="354386991"/>
    <tag k="highway" v="residential"/>
    <tag k="name" v="Whitlam Green"/>
  </way>
  <way id="36690210" version="3" timestamp="2010-07-08T19:19:49Z" uid="74617" user="JohnSmith" changeset="5168688">
    <nd ref="354398402"/>
    <nd ref="354398414"/>
    <nd ref="354398352"/>
    <nd ref="354398446"/>
    <nd ref="354398460"/>
    <nd ref="354398474"/>
    <nd ref="354398478"/>
    <nd ref="354386979"/>
    <tag k="highway" v="residential"/>
    <tag k="maxspeed" v="50"/>
    <tag k="maxspeed:source" v="default residential speed limit in Australia"/>
    <tag k="name" v="Mowbray Drive"/>
  </way>
  <way id="36690210" version="4" timestamp="2012-01-18T23:42:42Z" uid="147510" user="woodpeck_fixbot" changeset="10432847">
    <nd ref="354398402"/>
    <nd ref="354398414"/>
    <nd ref="354398352"/>
    <nd ref="354398446"/>
    <nd ref="354398460"/>
    <nd ref="354398474"/>
    <nd ref="354398478"/>
    <nd ref="354386979"/>
    <tag k="highway" v="residential"/>
    <tag k="name" v="Mowbray Drive"/>
  </way>
  <way id="36690523" version="5" timestamp="2010-07-09T20:55:17Z" uid="74617" user="JohnSmith" changeset="5176956">
    <nd ref="470526826"/>
    <nd ref="600328605"/>
    <nd ref="260889243"/>
    <nd ref="260889211"/>
    <nd ref="600328591"/>
    <nd ref="34646323"/>
    <tag k="highway" v="residential"/>
    <tag k="maxspeed" v="50"/>
    <tag k="maxspeed:source" v="default residential speed limit in Australia"/>
    <tag k="name" v="Chatsworth Road"/>
  </way>
  <way id="36690523" version="6" timestamp="2012-01-18T23:42:43Z" uid="147510" user="woodpeck_fixbot" changeset="10432847">
    <nd ref="470526826"/>
    <nd ref="600328605"/>
    <nd ref="260889243"/>
    <nd ref="260889211"/>
    <nd ref="600328591"/>
    <nd ref="34646323"/>
    <tag k="highway" v="residential"/>
    <tag k="name" v="Chatsworth Road"/>
  </way>
  <way id="36690523" version="7" timestamp="2012-01-25T12:31:28Z" uid="142807" user="SDavies" changeset="10493181">
    <nd ref="470526826"/>
    <nd ref="1604834806"/>
    <nd ref="600328605"/>
    <nd ref="260889243"/>
    <nd ref="260889211"/>
    <nd ref="600328591"/>
    <nd ref="34646323"/>
    <tag k="highway" v="residential"/>
    <tag k="name" v="Chatsworth Road"/>
  </way>
  <way id="36690523" version="8" timestamp="2012-01-25T12:51:20Z" uid="142807" user="SDavies" changeset="10493181">
    <nd ref="470526826"/>
    <nd ref="1604834806"/>
    <nd ref="600328605"/>
    <nd ref="260889243"/>
    <nd ref="260889211"/>
    <nd ref="600328591"/>
    <nd ref="1604856375"/>
    <nd ref="34646323"/>
    <tag k="highway" v="residential"/>
    <tag k="name" v="Chatsworth Road"/>
  </way>
  <way id="36690524" version="4" timestamp="2010-07-09T21:03:42Z" uid="74617" user="JohnSmith" changeset="5176956">
    <nd ref="426521250"/>
    <nd ref="261004140"/>
    <nd ref="426521120"/>
    <tag k="highway" v="unclassified"/>
    <tag k="maxspeed" v="50"/>
    <tag k="maxspeed:source" v="default residential speed limit in Australia"/>
    <tag k="name" v="Matson Lane"/>
  </way>
  <way id="36690524" version="5" timestamp="2012-01-18T23:42:44Z" uid="147510" user="woodpeck_fixbot" changeset="10432847">
    <nd ref="426521250"/>
    <nd ref="261004140"/>
    <nd ref="426521120"/>
    <tag k="highway" v="unclassified"/>
    <tag k="name" v="Matson Lane"/>
  </way>
  <way id="36690757" version="1" timestamp="2009-06-20T07:02:19Z" uid="4467" user="Rosscoe" changeset="1571530">
    <nd ref="93133029"/>
    <nd ref="93133038"/>
    <tag k="highway" v="trunk"/>
    <tag k="name" v="Newell Highway"/>
    <tag k="ref" v="39"/>
    <tag k="source" v="survey"/>
    <tag k="surface" v="paved"/>
  </way>
  <way id="36690757" version="2" timestamp="2009-08-05T14:12:11Z" uid="74617" user="JohnSmith" changeset="2046621">
    <nd ref="93133029"/>
    <nd ref="93133038"/>
    <tag k="highway" v="trunk"/>
    <tag k="name" v="Newell Highway"/>
    <tag k="ref" v="NH39"/>
    <tag k="source" v="survey"/>
    <tag k="surface" v="paved"/>
  </way>
  <way id="36690757" version="3" timestamp="2009-08-19T09:06:56Z" uid="74617" user="JohnSmith" changeset="2198790">
    <nd ref="93133029"/>
    <nd ref="93133038"/>
    <tag k="highway" v="trunk"/>
    <tag k="source" v="survey"/>
  </way>
  <way id="36690757" version="4" timestamp="2011-12-14T13:07:41Z" uid="67896" user="mrpulley" changeset="10115863">
    <nd ref="93133029"/>
    <nd ref="93133038"/>
    <tag k="highway" v="trunk"/>
    <tag k="maxspeed" v="50"/>
    <tag k="ref" v="NR39"/>
    <tag k="source" v="survey"/>
    <tag k="source:maxspeed" v="sign"/>
    <tag k="surface" v="asphalt"/>
  </way>
  <way id="36690760" version="4" timestamp="2010-03-28T02:20:53Z" uid="20587" user="balrog-kun" changeset="4250871">
    <nd ref="423739725"/>
    <nd ref="439179327"/>
    <nd ref="87485691"/>
    <nd ref="439179328"/>
    <nd ref="87514613"/>
    <nd ref="87514615"/>
    <nd ref="87514618"/>
    <nd ref="87514620"/>
    <nd ref="87514622"/>
    <nd ref="87514626"/>
    <nd ref="87514628"/>
    <nd ref="87514630"/>
    <nd ref="87514633"/>
    <nd ref="87514600"/>
    <nd ref="87514635"/>
    <nd ref="87514638"/>
    <nd ref="87514640"/>
    <nd ref="87514643"/>
    <nd ref="87514645"/>
    <nd ref="87514647"/>
    <nd ref="87514649"/>
    <nd ref="423744932"/>
    <nd ref="87514651"/>
    <nd ref="87514581"/>
    <tag k="highway" v="tertiary"/>
    <tag k="name" v="North Weber Avenue"/>
    <tag k="tiger:cfcc" v="A45"/>
    <tag k="tiger:county" v="Fresno, CA"/>
    <tag k="tiger:name_base" v="Weber"/>
    <tag k="tiger:name_direction_prefix" v="N"/>
    <tag k="tiger:name_type" v="Ave"/>
    <tag k="tiger:reviewed" v="no"/>
    <tag k="tiger:separated" v="yes"/>
    <tag k="tiger:source" v="tiger_import_dch_v0.6_20070809"/>
    <tag k="tiger:tlid" v="197570443:197570449:197570454:197570486:197570487:197570546:197570553:197570564:197570490"/>
  </way>
  <way id="36690762" version="6" timestamp="2010-03-28T02:20:53Z" uid="20587" user="balrog-kun" changeset="4250871">
    <nd ref="426523512"/>
    <nd ref="426523665"/>
    <nd ref="426523668"/>
    <nd ref="426523673"/>
    <nd ref="87514667"/>
    <nd ref="426523677"/>
    <nd ref="426523679"/>
    <nd ref="426523681"/>
    <nd ref="426523684"/>
    <nd ref="523765009"/>
    <nd ref="523764975"/>
    <nd ref="523764955"/>
    <nd ref="426523697"/>
    <nd ref="426523700"/>
    <nd ref="426523702"/>
    <nd ref="426523706"/>
    <nd ref="426523711"/>
    <nd ref="523765051"/>
    <nd ref="426523715"/>
    <nd ref="426523721"/>
    <nd ref="426523723"/>
    <nd ref="426523725"/>
    <nd ref="426523728"/>
    <nd ref="506031422"/>
    <nd ref="506031423"/>
    <nd ref="426523732"/>
    <nd ref="506031837"/>
    <nd ref="506031840"/>
    <nd ref="426523738"/>
    <nd ref="506032136"/>
    <nd ref="426523739"/>
    <nd ref="506032145"/>
    <nd ref="426523740"/>
    <tag k="highway" v="residential"/>
    <tag k="name" v="North Weber Avenue"/>
    <tag k="tiger:cfcc" v="A45"/>
    <tag k="tiger:county" v="Fresno, CA"/>
    <tag k="tiger:name_base" v="Weber"/>
    <tag k="tiger:name_direction_prefix" v="N"/>
    <tag k="tiger:name_type" v="Ave"/>
    <tag k="tiger:reviewed" v="no"/>
    <tag k="tiger:separated" v="yes"/>
    <tag k="tiger:source" v="tiger_import_dch_v0.6_20070809"/>
    <tag k="tiger:tlid" v="197565986:197565996:197567808:197567814:197567816:197613658"/>
    <tag k="tiger:zip_left" v="93722"/>
    <tag k="tiger:zip_right" v="93722"/>
  </way>
  <way id="36690853" version="1" timestamp="2009-06-20T07:02:52Z" uid="4467" user="Rosscoe" changeset="1571530">
    <nd ref="93132926"/>
    <nd ref="93132958"/>
    <tag k="highway" v="trunk"/>
    <tag k="name" v="Newell Highway"/>
    <tag k="ref" v="39"/>
    <tag k="source" v="survey"/>
    <tag k="surface" v="paved"/>
  </way>
  <way id="36690853" version="2" timestamp="2009-06-20T07:03:02Z" uid="4467" user="Rosscoe" changeset="1571530">
    <nd ref="93132926"/>
    <nd ref="93132958"/>
    <tag k="highway" v="trunk"/>
    <tag k="name" v="Newell Highway"/>
    <tag k="oneway" v="yes"/>
    <tag k="ref" v="39"/>
    <tag k="source" v="survey"/>
    <tag k="surface" v="paved"/>
  </way>
  <way id="36690853" version="3" timestamp="2009-08-05T14:12:12Z" uid="74617" user="JohnSmith" changeset="2046621">
    <nd ref="93132958"/>
    <nd ref="93132926"/>
    <tag k="highway" v="trunk"/>
    <tag k="name" v="Newell Highway"/>
    <tag k="oneway" v="yes"/>
    <tag k="ref" v="NH39"/>
    <tag k="source" v="survey"/>
    <tag k="surface" v="paved"/>
  </way>
  <way id="36690853" version="4" timestamp="2009-08-19T09:06:56Z" uid="74617" user="JohnSmith" changeset="2198790">
    <nd ref="93132958"/>
    <nd ref="93132926"/>
    <tag k="highway" v="trunk"/>
    <tag k="oneway" v="yes"/>
    <tag k="source" v="survey"/>
  </way>
  <way id="36690853" version="5" timestamp="2011-12-14T13:07:41Z" uid="67896" user="mrpulley" changeset="10115863">
    <nd ref="93132958"/>
    <nd ref="93132926"/>
    <tag k="highway" v="trunk"/>
    <tag k="maxspeed" v="50"/>
    <tag k="oneway" v="yes"/>
    <tag k="ref" v="NR39"/>
    <tag k="source" v="survey"/>
    <tag k="source:maxspeed" v="sign"/>
    <tag k="surface" v="asphalt"/>
  </way>
  <way id="36690866" version="1" timestamp="2009-06-20T07:03:30Z" uid="4467" user="Rosscoe" changeset="1571530">
    <nd ref="417253350"/>
    <nd ref="417253354"/>
    <tag k="created_by" v="Potlatch 0.10f"/>
    <tag k="highway" v="residential"/>
    <tag k="name" v="Mooloobar Street"/>
  </way>
  <way id="36690866" version="2" timestamp="2009-06-20T07:03:39Z" uid="4467" user="Rosscoe" changeset="1571530">
    <nd ref="417253350"/>
    <nd ref="417253354"/>
    <tag k="created_by" v="Potlatch 0.10f"/>
    <tag k="highway" v="residential"/>
    <tag k="name" v="Mooloobar Street"/>
    <tag k="oneway" v="yes"/>
  </way>
  <way id="36690943" version="1" timestamp="2009-06-20T07:04:00Z" uid="4467" user="Rosscoe" changeset="1571530">
    <nd ref="205495253"/>
    <nd ref="205495256"/>
    <nd ref="417253532"/>
    <nd ref="416448797"/>
    <nd ref="93132926"/>
    <tag k="highway" v="trunk"/>
    <tag k="name" v="Newell Highway"/>
    <tag k="ref" v="39"/>
    <tag k="source" v="survey"/>
    <tag k="surface" v="paved"/>
  </way>
  <way id="36690943" version="2" timestamp="2009-08-05T14:12:12Z" uid="74617" user="JohnSmith" changeset="2046621">
    <nd ref="205495253"/>
    <nd ref="205495256"/>
    <nd ref="417253532"/>
    <nd ref="416448797"/>
    <nd ref="93132926"/>
    <tag k="highway" v="trunk"/>
    <tag k="name" v="Newell Highway"/>
    <tag k="ref" v="NH39"/>
    <tag k="source" v="survey"/>
    <tag k="surface" v="paved"/>
  </way>
  <way id="36690943" version="3" timestamp="2009-08-19T09:06:56Z" uid="74617" user="JohnSmith" changeset="2198790">
    <nd ref="205495253"/>
    <nd ref="205495256"/>
    <nd ref="417253532"/>
    <nd ref="416448797"/>
    <nd ref="93132926"/>
    <tag k="highway" v="trunk"/>
    <tag k="source" v="survey"/>
  </way>
  <way id="36690943" version="4" timestamp="2011-12-14T13:07:42Z" uid="67896" user="mrpulley" changeset="10115863">
    <nd ref="205495253"/>
    <nd ref="205495256"/>
    <nd ref="417253532"/>
    <nd ref="416448797"/>
    <nd ref="93132926"/>
    <tag k="highway" v="trunk"/>
    <tag k="maxspeed" v="50"/>
    <tag k="ref" v="NR39"/>
    <tag k="source" v="survey"/>
    <tag k="source:maxspeed" v="sign"/>
    <tag k="surface" v="asphalt"/>
  </way>
  <way id="36690951" version="1" timestamp="2009-06-20T07:04:19Z" uid="4467" user="Rosscoe" changeset="1571530">
    <nd ref="93518495"/>
    <nd ref="93518513"/>
    <nd ref="93518516"/>
    <nd ref="93518535"/>
    <nd ref="93518545"/>
    <nd ref="93518566"/>
    <nd ref="417254469"/>
    <nd ref="93518802"/>
    <nd ref="93518815"/>
    <nd ref="417254468"/>
    <nd ref="93518856"/>
    <nd ref="417254470"/>
    <nd ref="93518878"/>
    <nd ref="93518896"/>
    <nd ref="417254463"/>
    <nd ref="93518925"/>
    <tag k="highway" v="trunk"/>
    <tag k="name" v="Kamilaroi Highway"/>
    <tag k="note" v="was trunk; should not be under australian tagging guidelines"/>
    <tag k="ref" v="NR37"/>
    <tag k="source" v="survey"/>
  </way>
  <way id="36690951" version="2" timestamp="2011-12-14T13:07:32Z" uid="67896" user="mrpulley" changeset="10115863">
    <nd ref="93518495"/>
    <nd ref="93518513"/>
    <nd ref="93518516"/>
    <tag k="highway" v="trunk"/>
    <tag k="maxspeed" v="50"/>
    <tag k="name" v="Kamilaroi Highway"/>
    <tag k="note" v=" should not be under australian tagging guidelines;was trunk"/>
    <tag k="ref" v="NR37"/>
    <tag k="source" v="survey"/>
    <tag k="source:maxspeed" v="sign"/>
    <tag k="surface" v="asphalt"/>
  </way>
  <way id="36690951" version="3" timestamp="2011-12-14T18:46:59Z" uid="70696" user="xybot" changeset="10118261">
    <nd ref="93518495"/>
    <nd ref="93518513"/>
    <nd ref="93518516"/>
    <tag k="highway" v="trunk"/>
    <tag k="maxspeed" v="50"/>
    <tag k="name" v="Kamilaroi Highway"/>
    <tag k="note" v="should not be under australian tagging guidelines;was trunk"/>
    <tag k="ref" v="NR37"/>
    <tag k="source" v="survey"/>
    <tag k="source:maxspeed" v="sign"/>
    <tag k="surface" v="asphalt"/>
  </way>
  <way id="36690757" version="5" timestamp="2012-07-17T14:20:27Z" uid="67896" user="mrpulley" changeset="12267290"/>
  <way id="36690762" version="7" timestamp="2012-07-11T03:06:21Z" uid="169004" user="oldtopos" changeset="12181378">
    <nd ref="426523512"/>
    <nd ref="426523665"/>
    <nd ref="426523668"/>
    <nd ref="426523673"/>
    <nd ref="87514667"/>
    <nd ref="426523677"/>
    <nd ref="426523679"/>
    <nd ref="426523681"/>
    <nd ref="426523684"/>
    <nd ref="523765009"/>
    <nd ref="523764975"/>
    <nd ref="523764955"/>
    <nd ref="426523697"/>
    <nd ref="426523700"/>
    <nd ref="426523702"/>
    <nd ref="426523706"/>
    <nd ref="426523711"/>
    <nd ref="523765051"/>
    <nd ref="426523715"/>
    <nd ref="426523721"/>
    <nd ref="426523723"/>
    <nd ref="426523725"/>
    <nd ref="426523728"/>
    <nd ref="87364710"/>
    <nd ref="506031422"/>
    <nd ref="506031423"/>
    <nd ref="426523732"/>
    <nd ref="506031837"/>
    <nd ref="506031840"/>
    <nd ref="426523738"/>
    <nd ref="506032136"/>
    <nd ref="426523739"/>
    <nd ref="506032145"/>
    <nd ref="426523740"/>
    <tag k="highway" v="residential"/>
    <tag k="name" v="North Weber Avenue"/>
    <tag k="tiger:cfcc" v="A45"/>
    <tag k="tiger:county" v="Fresno, CA"/>
    <tag k="tiger:name_base" v="Weber"/>
    <tag k="tiger:name_direction_prefix" v="N"/>
    <tag k="tiger:name_type" v="Ave"/>
    <tag k="tiger:reviewed" v="no"/>
    <tag k="tiger:separated" v="yes"/>
    <tag k="tiger:source" v="tiger_import_dch_v0.6_20070809"/>
    <tag k="tiger:tlid" v="197565986:197565996:197567808:197567814:197567816:197613658"/>
    <tag k="tiger:zip_left" v="93722"/>
    <tag k="tiger:zip_right" v="93722"/>
  </way>
  <way id="36690853" version="6" timestamp="2012-07-17T14:20:28Z" uid="67896" user="mrpulley" changeset="12267290"/>
  <way id="36690866" version="3" timestamp="2012-07-17T14:20:24Z" uid="67896" user="mrpulley" changeset="12267290"/>
  <way id="36690943" version="5" timestamp="2012-07-17T14:20:28Z" uid="67896" user="mrpulley" changeset="12267290"/>
  <way id="36690951" version="4" timestamp="2012-07-17T14:20:24Z" uid="67896" user="mrpulley" changeset="12267290"/>
</osm>
