<?xml version='1.0' encoding='UTF-8'?>
<osm version="0.6" generator="libosmium/2.20.0">
  <way id="36705421" version="3" timestamp="2010-07-09T18:01:08Z" uid="74617" user="JohnSmith" changeset="5175636">
    <nd ref="276562014"/>
    <nd ref="426675287"/>
    <tag k="highway" v="residential"/>
    <tag k="maxspeed" v="50"/>
    <tag k="maxspeed:source" v="default residential speed limit in Australia"/>
    <tag k="name" v="Yandina Close"/>
    <tag k="source" v="Yahoo"/>
    <tag k="source:name" v="photograph"/>
  </way>
  <way id="36705421" version="4" timestamp="2012-01-18T23:42:59Z" uid="147510" user="woodpeck_fixbot" changeset="10432847">
    <nd ref="276562014"/>
    <nd ref="426675287"/>
    <tag k="highway" v="residential"/>
    <tag k="name" v="Yandina Close"/>
    <tag k="source" v="Yahoo"/>
    <tag k="source:name" v="photograph"/>
  </way>
  <way id="36705567" version="2" timestamp="2009-12-09T18:23:24Z" uid="205264" user="Sterol Andro" changeset="3335668">
    <nd ref="426677128"/>
    <nd ref="583755654"/>
    <nd ref="426677130"/>
    <tag k="highway" v="unclassified"/>
    <tag k="name" v="Via Friuli"/>
  </way>
  <way id="36705567" version="3" timestamp="2012-04-06T20:11:58Z" uid="211665" user="Silviopen" changeset="11206496">
    <nd ref="426677128"/>
    <nd ref="1705012824"/>
    <nd ref="426677130"/>
    <tag k="highway" v="unclassified"/>
    <tag k="name" v="Via Friuli"/>
  </way>
</osm>
