<?xml version='1.0' encoding='UTF-8'?>
<osm version="0.6" generator="libosmium/2.20.0">
  <way id="36709311" version="2" timestamp="2010-07-08T04:59:52Z" uid="74617" user="JohnSmith" changeset="5163091">
    <nd ref="61098376"/>
    <nd ref="426716312"/>
    <tag k="highway" v="residential"/>
    <tag k="maxspeed" v="50"/>
    <tag k="maxspeed:source" v="default residential speed limit in Australia"/>
    <tag k="name" v="Macbel Court"/>
  </way>
  <way id="36709311" version="3" timestamp="2012-01-18T23:43:21Z" uid="147510" user="woodpeck_fixbot" changeset="10432847">
    <nd ref="61098376"/>
    <nd ref="426716312"/>
    <tag k="highway" v="residential"/>
    <tag k="name" v="Macbel Court"/>
  </way>
  <way id="36709312" version="2" timestamp="2010-07-08T04:59:16Z" uid="74617" user="JohnSmith" changeset="5163091">
    <nd ref="426716315"/>
    <nd ref="426716317"/>
    <tag k="highway" v="residential"/>
    <tag k="maxspeed" v="50"/>
    <tag k="maxspeed:source" v="default residential speed limit in Australia"/>
    <tag k="name" v="West Street"/>
  </way>
  <way id="36709312" version="3" timestamp="2012-01-18T23:43:22Z" uid="147510" user="woodpeck_fixbot" changeset="10432847">
    <nd ref="426716315"/>
    <nd ref="426716317"/>
    <tag k="highway" v="residential"/>
    <tag k="name" v="West Street"/>
  </way>
  <way id="36709391" version="2" timestamp="2010-03-15T23:40:45Z" uid="163746" user="anti_bot-nonsense" changeset="4139871">
    <nd ref="255235418"/>
    <nd ref="255235429"/>
    <nd ref="365964783"/>
    <tag k="highway" v="primary_link"/>
    <tag k="name" v="Krucza"/>
  </way>
  <way id="36709423" version="3" timestamp="2010-03-15T23:40:39Z" uid="163746" user="anti_bot-nonsense" changeset="4139871">
    <nd ref="255235419"/>
    <nd ref="262599396"/>
    <nd ref="255235420"/>
    <tag k="highway" v="residential"/>
    <tag k="name" v="Krucza"/>
  </way>
  <way id="36709391" version="3" timestamp="2012-06-03T21:35:58Z" uid="318486" user="tomaszko90" changeset="11791248">
    <nd ref="255235418"/>
    <nd ref="255235429"/>
    <nd ref="365964783"/>
    <tag k="highway" v="tertiary"/>
    <tag k="name" v="Krucza"/>
  </way>
  <way id="36709391" version="4" timestamp="2012-06-09T15:34:33Z" uid="641600" user="piottr" changeset="11846164">
    <nd ref="255235418"/>
    <nd ref="1781676452"/>
    <nd ref="255235429"/>
    <nd ref="365964783"/>
    <tag k="highway" v="tertiary"/>
    <tag k="name" v="Krucza"/>
  </way>
  <way id="36709391" version="5" timestamp="2012-08-04T16:47:54Z" uid="641600" user="piottr" changeset="12611488">
    <nd ref="255235418"/>
    <nd ref="1781676452"/>
    <nd ref="255235429"/>
    <nd ref="365964783"/>
    <tag k="highway" v="tertiary"/>
    <tag k="name" v="Krucza"/>
    <tag k="oneway" v="yes"/>
  </way>
  <way id="36709423" version="4" timestamp="2012-05-15T15:17:27Z" uid="641600" user="piottr" changeset="11605908">
    <nd ref="255235419"/>
    <nd ref="1753959806"/>
    <nd ref="262599396"/>
    <nd ref="255235420"/>
    <tag k="highway" v="residential"/>
    <tag k="name" v="Krucza"/>
  </way>
  <way id="36709423" version="5" timestamp="2012-08-15T18:16:08Z" uid="808143" user="Sylwira" changeset="12741859">
    <nd ref="255235419"/>
    <nd ref="1753959806"/>
    <nd ref="1867674239"/>
    <nd ref="1867674235"/>
    <nd ref="262599396"/>
    <nd ref="255235420"/>
    <tag k="highway" v="residential"/>
    <tag k="name" v="Krucza"/>
  </way>
  <way id="36709423" version="6" timestamp="2012-08-15T18:53:39Z" uid="808143" user="Sylwira" changeset="12741859">
    <nd ref="255235419"/>
    <nd ref="1753959806"/>
    <nd ref="1867702556"/>
    <nd ref="1867674239"/>
    <nd ref="1867674235"/>
    <nd ref="262599396"/>
    <nd ref="255235420"/>
    <tag k="highway" v="residential"/>
    <tag k="name" v="Krucza"/>
  </way>
  <way id="36709423" version="7" timestamp="2012-08-15T19:09:18Z" uid="808143" user="Sylwira" changeset="12741859">
    <nd ref="255235419"/>
    <nd ref="1753959806"/>
    <nd ref="1867702556"/>
    <nd ref="1867674239"/>
    <nd ref="1867719578"/>
    <nd ref="1867674235"/>
    <nd ref="262599396"/>
    <nd ref="255235420"/>
    <tag k="highway" v="residential"/>
    <tag k="name" v="Krucza"/>
  </way>
</osm>
