<?xml version='1.0' encoding='UTF-8'?>
<osm version="0.6" generator="libosmium/2.20.0">
  <way id="36877106" version="3" timestamp="2010-07-09T18:20:24Z" uid="74617" user="JohnSmith" changeset="5175333">
    <nd ref="428777348"/>
    <nd ref="428777343"/>
    <tag k="highway" v="residential"/>
    <tag k="maxspeed" v="50"/>
    <tag k="maxspeed:source" v="default residential speed limit in Australia"/>
    <tag k="name" v="Annie Street"/>
  </way>
  <way id="36877106" version="4" timestamp="2012-01-19T00:10:39Z" uid="147510" user="woodpeck_fixbot" changeset="10432847">
    <nd ref="428777348"/>
    <nd ref="428777343"/>
    <tag k="highway" v="residential"/>
    <tag k="name" v="Annie Street"/>
  </way>
  <way id="36877108" version="4" timestamp="2010-07-09T18:16:36Z" uid="74617" user="JohnSmith" changeset="5175333">
    <nd ref="428777349"/>
    <nd ref="437517228"/>
    <nd ref="428777347"/>
    <tag k="highway" v="residential"/>
    <tag k="maxspeed" v="50"/>
    <tag k="maxspeed:source" v="default residential speed limit in Australia"/>
    <tag k="name" v="Mars Street"/>
  </way>
  <way id="36877108" version="5" timestamp="2012-01-19T00:10:40Z" uid="147510" user="woodpeck_fixbot" changeset="10432847">
    <nd ref="428777349"/>
    <nd ref="437517228"/>
    <nd ref="428777347"/>
    <tag k="highway" v="residential"/>
    <tag k="name" v="Mars Street"/>
  </way>
  <way id="36877109" version="3" timestamp="2010-07-09T18:18:01Z" uid="74617" user="JohnSmith" changeset="5175333">
    <nd ref="428777350"/>
    <nd ref="428777346"/>
    <tag k="highway" v="residential"/>
    <tag k="maxspeed" v="50"/>
    <tag k="maxspeed:source" v="default residential speed limit in Australia"/>
    <tag k="name" v="Bishopsgate Street"/>
  </way>
  <way id="36877109" version="4" timestamp="2012-01-19T00:10:41Z" uid="147510" user="woodpeck_fixbot" changeset="10432847">
    <nd ref="428777350"/>
    <nd ref="428777346"/>
    <tag k="highway" v="residential"/>
    <tag k="name" v="Bishopsgate Street"/>
  </way>
  <way id="36877110" version="3" timestamp="2010-07-09T18:19:28Z" uid="74617" user="JohnSmith" changeset="5175333">
    <nd ref="428777341"/>
    <nd ref="428777351"/>
    <nd ref="428777345"/>
    <tag k="highway" v="residential"/>
    <tag k="maxspeed" v="50"/>
    <tag k="maxspeed:source" v="default residential speed limit in Australia"/>
    <tag k="name" v="Downing Street"/>
  </way>
  <way id="36877110" version="4" timestamp="2012-01-19T00:10:42Z" uid="147510" user="woodpeck_fixbot" changeset="10432847">
    <nd ref="428777341"/>
    <nd ref="428777351"/>
    <nd ref="428777345"/>
    <tag k="highway" v="residential"/>
    <tag k="name" v="Downing Street"/>
  </way>
  <way id="36877475" version="2" timestamp="2010-06-26T09:30:22Z" uid="49111" user="Markus B" changeset="5079533">
    <nd ref="248853805"/>
    <nd ref="790874336"/>
    <nd ref="122198885"/>
    <tag k="highway" v="pedestrian"/>
    <tag k="name" v="Rudolf-Breitscheid-Straße"/>
  </way>
  <way id="36877475" version="3" timestamp="2011-08-13T09:50:38Z" uid="61165" user="gnu1742" changeset="9003735">
    <nd ref="248853805"/>
    <nd ref="790874336"/>
    <nd ref="122198885"/>
    <tag k="bicycle" v="dismount"/>
    <tag k="cycleway" v="no"/>
    <tag k="highway" v="pedestrian"/>
    <tag k="name" v="Rudolf-Breitscheid-Straße"/>
  </way>
  <way id="36877475" version="4" timestamp="2012-06-17T20:41:06Z" uid="346758" user="kukuk" changeset="11930445">
    <nd ref="248853805"/>
    <nd ref="122198885"/>
    <tag k="bicycle" v="dismount"/>
    <tag k="cycleway" v="no"/>
    <tag k="highway" v="pedestrian"/>
    <tag k="name" v="Rudolf-Breitscheid-Straße"/>
  </way>
</osm>
