<?xml version='1.0' encoding='UTF-8'?>
<osm version="0.6" generator="libosmium/2.20.0">
  <way id="36900270" version="1" timestamp="2009-06-25T06:24:35Z" uid="110593" user="esetzer" changeset="1618650">
    <nd ref="83551227"/>
    <nd ref="429132400"/>
    <nd ref="429132412"/>
    <nd ref="429132424"/>
    <nd ref="83551229"/>
    <nd ref="83551227"/>
    <tag k="amenity" v="school"/>
    <tag k="created_by" v="Merkaartor 0.11"/>
    <tag k="ele" v="1353"/>
    <tag k="name" v="Juan Diego Catholic High School and Saint John the Baptist School"/>
  </way>
  <way id="36900270" version="2" timestamp="2009-09-01T23:12:21Z" uid="104930" user="butlerm" changeset="2343837">
    <nd ref="83551227"/>
    <nd ref="429132400"/>
    <nd ref="429132412"/>
    <nd ref="480493697"/>
    <nd ref="429132424"/>
    <nd ref="83551229"/>
    <nd ref="83551227"/>
    <tag k="amenity" v="school"/>
    <tag k="ele" v="1353"/>
    <tag k="name" v="Juan Diego Catholic High School and Saint John the Baptist School"/>
  </way>
  <way id="36900270" version="3" timestamp="2009-09-01T23:12:33Z" uid="104930" user="butlerm" changeset="2343837">
    <nd ref="83551227"/>
    <nd ref="429132400"/>
    <nd ref="429132412"/>
    <nd ref="480493726"/>
    <nd ref="480493728"/>
    <nd ref="480493729"/>
    <nd ref="480493697"/>
    <nd ref="429132424"/>
    <nd ref="83551229"/>
    <nd ref="83551227"/>
    <tag k="amenity" v="school"/>
    <tag k="ele" v="1353"/>
    <tag k="name" v="Juan Diego Catholic High School and Saint John the Baptist School"/>
  </way>
  <way id="36900270" version="4" timestamp="2009-09-01T23:13:11Z" uid="104930" user="butlerm" changeset="2343837">
    <nd ref="83551227"/>
    <nd ref="429132400"/>
    <nd ref="429132412"/>
    <nd ref="480493726"/>
    <nd ref="480493728"/>
    <nd ref="480493729"/>
    <nd ref="480493697"/>
    <nd ref="429132424"/>
    <nd ref="480493834"/>
    <nd ref="83551229"/>
    <nd ref="83551227"/>
    <tag k="amenity" v="school"/>
    <tag k="ele" v="1353"/>
    <tag k="name" v="Juan Diego Catholic High School and Saint John the Baptist School"/>
  </way>
  <way id="36900270" version="5" timestamp="2009-09-01T23:13:40Z" uid="104930" user="butlerm" changeset="2343837">
    <nd ref="83551227"/>
    <nd ref="429132400"/>
    <nd ref="429132412"/>
    <nd ref="480493726"/>
    <nd ref="480493728"/>
    <nd ref="480493729"/>
    <nd ref="480493697"/>
    <nd ref="429132424"/>
    <nd ref="480493834"/>
    <nd ref="83551229"/>
    <nd ref="480493906"/>
    <nd ref="83551227"/>
    <tag k="amenity" v="school"/>
    <tag k="ele" v="1353"/>
    <tag k="name" v="Juan Diego Catholic High School and Saint John the Baptist School"/>
  </way>
  <way id="36900270" version="6" timestamp="2009-09-01T23:19:57Z" uid="104930" user="butlerm" changeset="2343892">
    <nd ref="83551227"/>
    <nd ref="429132400"/>
    <nd ref="429132412"/>
    <nd ref="480493726"/>
    <nd ref="480493728"/>
    <nd ref="480493729"/>
    <nd ref="480493697"/>
    <nd ref="429132424"/>
    <nd ref="480493834"/>
    <nd ref="480494958"/>
    <nd ref="83551229"/>
    <nd ref="480494960"/>
    <nd ref="480493906"/>
    <nd ref="83551227"/>
    <tag k="amenity" v="school"/>
    <tag k="ele" v="1353"/>
    <tag k="name" v="Juan Diego Catholic High School and Saint John the Baptist School"/>
  </way>
  <way id="36900270" version="7" timestamp="2012-03-19T22:08:04Z" uid="348149" user="viana" changeset="11035247">
    <nd ref="83551227"/>
    <nd ref="429132400"/>
    <nd ref="429132412"/>
    <nd ref="480493726"/>
    <nd ref="480493728"/>
    <nd ref="480493729"/>
    <nd ref="480493697"/>
    <nd ref="429132424"/>
    <nd ref="480493834"/>
    <nd ref="480494958"/>
    <nd ref="83551229"/>
    <nd ref="480494960"/>
    <nd ref="480493906"/>
    <nd ref="1682362958"/>
    <nd ref="83551227"/>
    <tag k="amenity" v="school"/>
    <tag k="ele" v="1353"/>
    <tag k="name" v="Juan Diego Catholic High School and Saint John the Baptist School"/>
  </way>
  <way id="36900392" version="1" timestamp="2009-06-25T06:27:15Z" uid="49111" user="Markus B" changeset="1618666">
    <nd ref="429135134"/>
    <nd ref="429135136"/>
    <nd ref="429135140"/>
    <nd ref="429135141"/>
    <nd ref="429135134"/>
    <tag k="building" v="yes"/>
  </way>
  <way id="36900392" version="2" timestamp="2009-06-25T06:40:54Z" uid="49111" user="Markus B" changeset="1618741">
    <nd ref="429135134"/>
    <nd ref="429148668"/>
    <nd ref="429148667"/>
    <nd ref="429148666"/>
    <nd ref="429148669"/>
    <nd ref="429135136"/>
    <nd ref="429135140"/>
    <nd ref="429148672"/>
    <nd ref="429148674"/>
    <nd ref="429148676"/>
    <nd ref="429148671"/>
    <nd ref="429135141"/>
    <nd ref="429135134"/>
    <tag k="addr:city" v="Lauf"/>
    <tag k="addr:country" v="DE"/>
    <tag k="addr:housenumber" v="22"/>
    <tag k="addr:postcode" v="91207"/>
    <tag k="addr:street" v="Urlasstraße"/>
    <tag k="amenity" v="townhall"/>
    <tag k="building" v="yes"/>
    <tag k="name" v="Rathaus"/>
  </way>
  <way id="36900392" version="3" timestamp="2009-12-24T09:32:12Z" uid="63375" user="Divjo" changeset="3440685">
    <nd ref="429135134"/>
    <nd ref="429148668"/>
    <nd ref="429148667"/>
    <nd ref="429148666"/>
    <nd ref="429148669"/>
    <nd ref="429135136"/>
    <nd ref="429135140"/>
    <nd ref="429148672"/>
    <nd ref="429148674"/>
    <nd ref="429148676"/>
    <nd ref="429148671"/>
    <nd ref="429135141"/>
    <nd ref="598841900"/>
    <nd ref="598841898"/>
    <nd ref="429135134"/>
    <tag k="addr:city" v="Lauf"/>
    <tag k="addr:country" v="DE"/>
    <tag k="addr:housenumber" v="22"/>
    <tag k="addr:postcode" v="91207"/>
    <tag k="addr:street" v="Urlasstraße"/>
    <tag k="amenity" v="townhall"/>
    <tag k="building" v="yes"/>
    <tag k="name" v="Rathaus"/>
  </way>
  <way id="36900392" version="4" timestamp="2010-11-02T18:31:26Z" uid="202858" user="kellerma" changeset="6270117">
    <nd ref="429135134"/>
    <nd ref="429148668"/>
    <nd ref="429148667"/>
    <nd ref="429148666"/>
    <nd ref="429148669"/>
    <nd ref="429135136"/>
    <nd ref="429135140"/>
    <nd ref="429148672"/>
    <nd ref="429148674"/>
    <nd ref="429148676"/>
    <nd ref="429148671"/>
    <nd ref="429135141"/>
    <nd ref="598841900"/>
    <nd ref="598841898"/>
    <nd ref="429135134"/>
    <tag k="addr:city" v="Lauf a.d.Pegnitz"/>
    <tag k="addr:country" v="DE"/>
    <tag k="addr:housenumber" v="22"/>
    <tag k="addr:postcode" v="91207"/>
    <tag k="addr:street" v="Urlasstraße"/>
    <tag k="amenity" v="townhall"/>
    <tag k="building" v="yes"/>
    <tag k="name" v="Rathaus"/>
  </way>
  <way id="36900557" version="1" timestamp="2009-06-25T06:33:25Z" uid="110593" user="esetzer" changeset="1618697">
    <nd ref="83595556"/>
    <nd ref="429141383"/>
    <nd ref="83574836"/>
    <nd ref="83574834"/>
    <nd ref="83595556"/>
    <tag k="created_by" v="Merkaartor 0.11"/>
    <tag k="landuse" v="retail"/>
  </way>
  <way id="36900557" version="2" timestamp="2009-09-01T07:00:48Z" uid="104930" user="butlerm" changeset="2333940">
    <nd ref="83595556"/>
    <nd ref="429141383"/>
    <nd ref="83574836"/>
    <nd ref="83574834"/>
    <nd ref="83595556"/>
    <tag k="landuse" v="retail"/>
  </way>
  <way id="36900558" version="1" timestamp="2009-06-25T06:33:27Z" uid="110593" user="esetzer" changeset="1618697">
    <nd ref="83574804"/>
    <nd ref="429141448"/>
    <nd ref="83643824"/>
    <nd ref="83643822"/>
    <nd ref="83643820"/>
    <nd ref="83643818"/>
    <nd ref="83643815"/>
    <nd ref="83643813"/>
    <nd ref="83574834"/>
    <nd ref="83574829"/>
    <nd ref="83574816"/>
    <nd ref="83574804"/>
    <tag k="created_by" v="Merkaartor 0.11"/>
    <tag k="landuse" v="retail"/>
  </way>
  <way id="36900558" version="2" timestamp="2010-04-17T18:27:55Z" uid="110593" user="esetzer" changeset="4450510">
    <nd ref="83574804"/>
    <nd ref="700109291"/>
    <nd ref="700109311"/>
    <nd ref="429141448"/>
    <nd ref="83643824"/>
    <nd ref="83643822"/>
    <nd ref="83643820"/>
    <nd ref="83643818"/>
    <nd ref="83643815"/>
    <nd ref="83643813"/>
    <nd ref="83574834"/>
    <nd ref="83574829"/>
    <nd ref="83574816"/>
    <nd ref="83574804"/>
    <tag k="created_by" v="Merkaartor 0.11"/>
    <tag k="landuse" v="retail"/>
    <tag k="name" v="7th Street Grocery"/>
    <tag k="note" v="Contains non-grocery (non-supermarket) stores despite its name"/>
  </way>
  <way id="36900639" version="2" timestamp="2010-03-28T02:25:21Z" uid="20587" user="balrog-kun" changeset="4250871">
    <nd ref="65522069"/>
    <nd ref="65390129"/>
    <tag k="created_by" v="Potlatch 0.10b; Potlatch 0.9c; Potlatch 0.10b"/>
    <tag k="highway" v="residential"/>
    <tag k="name" v="Arcade Way"/>
    <tag k="tiger:cfcc" v="A41"/>
    <tag k="tiger:county" v="San Mateo, CA"/>
    <tag k="tiger:name_base" v="Arc"/>
    <tag k="tiger:name_type" v="Way"/>
    <tag k="tiger:separated" v="no"/>
    <tag k="tiger:source" v="tiger_import_dch_v0.6_20070809"/>
    <tag k="tiger:tlid" v="192390620:192410971; 192390929; 192390620:192410971"/>
    <tag k="tiger:zip_left" v="94010"/>
    <tag k="tiger:zip_right" v="94010"/>
  </way>
  <way id="36900639" version="3" timestamp="2010-04-27T21:27:24Z" uid="28775" user="StellanL" changeset="4545257">
    <nd ref="65522069"/>
    <nd ref="65390129"/>
    <tag k="highway" v="residential"/>
    <tag k="history" v="Retrieved from v1"/>
    <tag k="name" v="Arc Way"/>
    <tag k="tiger:cfcc" v="A41"/>
    <tag k="tiger:county" v="San Mateo, CA"/>
    <tag k="tiger:name_base" v="Arc"/>
    <tag k="tiger:name_type" v="Way"/>
    <tag k="tiger:separated" v="no"/>
    <tag k="tiger:source" v="tiger_import_dch_v0.6_20070809"/>
    <tag k="tiger:tlid" v="192390620:192410971; 192390929; 192390620:192410971"/>
    <tag k="tiger:upload_uuid" v="bulk_upload.pl-d97fd377-1e9a-43c8-95c3-d44458aacd54"/>
    <tag k="tiger:zip_left" v="94010"/>
    <tag k="tiger:zip_right" v="94010"/>
  </way>
  <way id="36900772" version="1" timestamp="2009-06-25T06:40:06Z" uid="110593" user="esetzer" changeset="1618731">
    <nd ref="429147750"/>
    <nd ref="429147774"/>
    <nd ref="429147789"/>
    <nd ref="429147797"/>
    <nd ref="429147750"/>
    <tag k="created_by" v="Merkaartor 0.11"/>
    <tag k="leisure" v="pitch"/>
  </way>
  <way id="36900772" version="2" timestamp="2009-09-01T22:21:24Z" uid="104930" user="butlerm" changeset="2343603">
    <nd ref="429147750"/>
    <nd ref="429147774"/>
    <nd ref="429147789"/>
    <nd ref="429147797"/>
    <nd ref="429147750"/>
    <tag k="leisure" v="pitch"/>
  </way>
  <way id="36900772" version="3" timestamp="2009-09-01T22:35:43Z" uid="104930" user="butlerm" changeset="2343706">
    <nd ref="429147750"/>
    <nd ref="429147774"/>
    <nd ref="480484821"/>
    <nd ref="429147789"/>
    <nd ref="429147797"/>
    <nd ref="429147750"/>
    <tag k="leisure" v="pitch"/>
  </way>
  <way id="36900800" version="1" timestamp="2009-06-25T06:40:53Z" uid="49111" user="Markus B" changeset="1618741">
    <nd ref="429148685"/>
    <nd ref="429148686"/>
    <nd ref="429148688"/>
    <nd ref="429148690"/>
    <nd ref="429148691"/>
    <nd ref="429148693"/>
    <nd ref="429148694"/>
    <nd ref="429148696"/>
    <nd ref="429148697"/>
    <nd ref="429148698"/>
    <nd ref="429148699"/>
    <nd ref="429148700"/>
    <nd ref="429148701"/>
    <nd ref="429148702"/>
    <nd ref="429148704"/>
    <nd ref="429148706"/>
    <nd ref="429148685"/>
    <tag k="building" v="yes"/>
  </way>
  <way id="36900800" version="2" timestamp="2009-12-03T15:29:02Z" uid="13192" user="delphiN" changeset="3281480">
    <nd ref="429148690"/>
    <nd ref="579733745"/>
    <nd ref="429148691"/>
    <nd ref="429148693"/>
    <nd ref="429148694"/>
    <nd ref="429148696"/>
    <nd ref="429148697"/>
    <nd ref="429148698"/>
    <nd ref="429148699"/>
    <nd ref="429148700"/>
    <nd ref="429148704"/>
    <nd ref="429148706"/>
    <nd ref="429148690"/>
    <tag k="amenity" v="hospital"/>
    <tag k="building" v="yes"/>
    <tag k="source" v="Luftbilder Stadt Lauf"/>
  </way>
  <way id="36900800" version="3" timestamp="2009-12-07T08:08:44Z" uid="63375" user="Divjo" changeset="3313999">
    <nd ref="429148690"/>
    <nd ref="579733745"/>
    <nd ref="429148691"/>
    <nd ref="429148693"/>
    <nd ref="429148694"/>
    <nd ref="582813801"/>
    <nd ref="582813802"/>
    <nd ref="582813803"/>
    <nd ref="429148696"/>
    <nd ref="429148697"/>
    <nd ref="429148698"/>
    <nd ref="429148699"/>
    <nd ref="429148700"/>
    <nd ref="582813808"/>
    <nd ref="429148704"/>
    <nd ref="582813765"/>
    <nd ref="582813762"/>
    <nd ref="582813776"/>
    <nd ref="582813751"/>
    <nd ref="582813752"/>
    <nd ref="582813783"/>
    <nd ref="582813775"/>
    <nd ref="429148690"/>
    <tag k="amenity" v="hospital"/>
    <tag k="building" v="yes"/>
  </way>
  <way id="36900800" version="4" timestamp="2009-12-07T08:10:49Z" uid="63375" user="Divjo" changeset="3314006">
    <nd ref="429148690"/>
    <nd ref="579733745"/>
    <nd ref="429148691"/>
    <nd ref="429148693"/>
    <nd ref="429148694"/>
    <nd ref="582813801"/>
    <nd ref="582813802"/>
    <nd ref="582813803"/>
    <nd ref="429148696"/>
    <nd ref="429148697"/>
    <nd ref="429148698"/>
    <nd ref="429148699"/>
    <nd ref="429148700"/>
    <nd ref="582813808"/>
    <nd ref="429148704"/>
    <nd ref="582813765"/>
    <nd ref="582813762"/>
    <nd ref="582813776"/>
    <nd ref="582813751"/>
    <nd ref="582813752"/>
    <nd ref="582813783"/>
    <nd ref="582813775"/>
    <nd ref="429148690"/>
    <tag k="amenity" v="hospital"/>
    <tag k="building" v="yes"/>
    <tag k="note" v="Umbau/Nuebau"/>
  </way>
  <way id="36900800" version="5" timestamp="2009-12-07T11:36:03Z" uid="63375" user="Divjo" changeset="3315072">
    <nd ref="429148690"/>
    <nd ref="579733745"/>
    <nd ref="429148691"/>
    <nd ref="429148693"/>
    <nd ref="429148694"/>
    <nd ref="582813801"/>
    <nd ref="582813802"/>
    <nd ref="582813803"/>
    <nd ref="429148696"/>
    <nd ref="429148697"/>
    <nd ref="429148698"/>
    <nd ref="429148699"/>
    <nd ref="429148700"/>
    <nd ref="582813808"/>
    <nd ref="429148704"/>
    <nd ref="582813765"/>
    <nd ref="582813762"/>
    <nd ref="582813776"/>
    <nd ref="582852008"/>
    <nd ref="582813751"/>
    <nd ref="582813752"/>
    <nd ref="582813783"/>
    <nd ref="582813775"/>
    <nd ref="429148690"/>
    <tag k="amenity" v="hospital"/>
    <tag k="building" v="yes"/>
    <tag k="note" v="Umbau/Nuebau"/>
  </way>
  <way id="36900800" version="6" timestamp="2010-02-20T02:10:14Z" uid="128287" user="cMartin" changeset="3920274">
    <nd ref="429148690"/>
    <nd ref="579733745"/>
    <nd ref="429148691"/>
    <nd ref="429148693"/>
    <nd ref="429148694"/>
    <nd ref="582813801"/>
    <nd ref="582813802"/>
    <nd ref="582813803"/>
    <nd ref="429148696"/>
    <nd ref="429148697"/>
    <nd ref="429148698"/>
    <nd ref="429148699"/>
    <nd ref="429148700"/>
    <nd ref="582813808"/>
    <nd ref="429148704"/>
    <nd ref="582813765"/>
    <nd ref="582813762"/>
    <nd ref="582813776"/>
    <nd ref="582852008"/>
    <nd ref="582813751"/>
    <nd ref="582813752"/>
    <nd ref="582813783"/>
    <nd ref="582813775"/>
    <nd ref="429148690"/>
    <tag k="addr:city" v="Lauf an der Pegnitz"/>
    <tag k="addr:country" v="DE"/>
    <tag k="addr:housenumber" v="55"/>
    <tag k="addr:postcode" v="91207"/>
    <tag k="addr:street" v="Simonshofer Straße"/>
    <tag k="amenity" v="hospital"/>
    <tag k="building" v="yes"/>
    <tag k="fax" v="09123 180-288"/>
    <tag k="name" v="Krankenhaus Lauf"/>
    <tag k="note" v="Umbau/Nuebau"/>
    <tag k="phone" v="09123 180-0"/>
    <tag k="website" v="http://www.kh-nuernberger-land.de"/>
  </way>
  <way id="36900800" version="7" timestamp="2010-11-02T18:36:29Z" uid="202858" user="kellerma" changeset="6270154">
    <nd ref="429148690"/>
    <nd ref="579733745"/>
    <nd ref="429148691"/>
    <nd ref="429148693"/>
    <nd ref="429148694"/>
    <nd ref="582813801"/>
    <nd ref="582813802"/>
    <nd ref="582813803"/>
    <nd ref="429148696"/>
    <nd ref="429148697"/>
    <nd ref="429148698"/>
    <nd ref="429148699"/>
    <nd ref="429148700"/>
    <nd ref="582813808"/>
    <nd ref="429148704"/>
    <nd ref="582813765"/>
    <nd ref="582813762"/>
    <nd ref="582813776"/>
    <nd ref="582852008"/>
    <nd ref="582813751"/>
    <nd ref="582813752"/>
    <nd ref="582813783"/>
    <nd ref="582813775"/>
    <nd ref="429148690"/>
    <tag k="addr:city" v="Lauf a.d.Pegnitz"/>
    <tag k="addr:country" v="DE"/>
    <tag k="addr:housenumber" v="55"/>
    <tag k="addr:postcode" v="91207"/>
    <tag k="addr:street" v="Simonshofer Straße"/>
    <tag k="amenity" v="hospital"/>
    <tag k="building" v="yes"/>
    <tag k="fax" v="09123 180-288"/>
    <tag k="name" v="Krankenhaus Lauf"/>
    <tag k="note" v="Umbau/Nuebau"/>
    <tag k="phone" v="09123 180-0"/>
    <tag k="website" v="http://www.kh-nuernberger-land.de"/>
  </way>
  <way id="36900800" version="8" timestamp="2011-08-06T15:57:31Z" uid="479256" user="geodreieck4711" changeset="8939384">
    <nd ref="582813808"/>
    <nd ref="429148704"/>
    <nd ref="582813765"/>
    <nd ref="582813762"/>
    <nd ref="582813776"/>
    <nd ref="582852008"/>
    <nd ref="582813751"/>
    <nd ref="582813752"/>
    <nd ref="582813783"/>
    <nd ref="582813775"/>
    <nd ref="429148690"/>
    <nd ref="579733745"/>
    <nd ref="429148691"/>
    <nd ref="429148693"/>
    <nd ref="429148694"/>
    <nd ref="582813801"/>
    <nd ref="582813802"/>
    <nd ref="582813803"/>
    <nd ref="429148696"/>
    <nd ref="429148697"/>
    <nd ref="429148698"/>
    <nd ref="1388550560"/>
    <nd ref="1388550651"/>
    <nd ref="1388550644"/>
    <nd ref="1388550636"/>
    <nd ref="582813800"/>
    <nd ref="1388550558"/>
    <nd ref="582813799"/>
    <nd ref="582813808"/>
    <tag k="addr:city" v="Lauf a.d.Pegnitz"/>
    <tag k="addr:country" v="DE"/>
    <tag k="addr:housenumber" v="55"/>
    <tag k="addr:postcode" v="91207"/>
    <tag k="addr:street" v="Simonshofer Straße"/>
    <tag k="amenity" v="hospital"/>
    <tag k="building" v="yes"/>
    <tag k="fax" v="09123 180-288"/>
    <tag k="name" v="Krankenhaus Lauf"/>
    <tag k="note" v="Gebäudeumriss noch nicht optimal"/>
    <tag k="phone" v="09123 180-0"/>
    <tag k="website" v="http://www.kh-nuernberger-land.de"/>
  </way>
  <way id="36900800" version="9" timestamp="2011-08-07T22:21:06Z" uid="479256" user="geodreieck4711" changeset="8952608">
    <nd ref="1390251021"/>
    <nd ref="429148691"/>
    <nd ref="429148693"/>
    <nd ref="429148694"/>
    <nd ref="582813801"/>
    <nd ref="582813802"/>
    <nd ref="582813803"/>
    <nd ref="429148696"/>
    <nd ref="429148697"/>
    <nd ref="429148698"/>
    <nd ref="1388550560"/>
    <nd ref="1388550651"/>
    <nd ref="1388550644"/>
    <nd ref="1388550636"/>
    <nd ref="1390250990"/>
    <nd ref="1388550558"/>
    <nd ref="582813799"/>
    <nd ref="1390250991"/>
    <nd ref="1390250992"/>
    <nd ref="582813808"/>
    <nd ref="429148704"/>
    <nd ref="582813765"/>
    <nd ref="582813762"/>
    <nd ref="582813776"/>
    <nd ref="582852008"/>
    <nd ref="582813751"/>
    <nd ref="582813752"/>
    <nd ref="582813783"/>
    <nd ref="582813775"/>
    <nd ref="429148690"/>
    <nd ref="579733745"/>
    <nd ref="1390251020"/>
    <nd ref="1390251024"/>
    <nd ref="1390251025"/>
    <nd ref="1390251021"/>
    <tag k="addr:city" v="Lauf a.d.Pegnitz"/>
    <tag k="addr:country" v="DE"/>
    <tag k="addr:housenumber" v="55"/>
    <tag k="addr:postcode" v="91207"/>
    <tag k="addr:street" v="Simonshofer Straße"/>
    <tag k="amenity" v="hospital"/>
    <tag k="building" v="yes"/>
    <tag k="fax" v="09123 180-288"/>
    <tag k="name" v="Krankenhaus Lauf"/>
    <tag k="note" v="Gebäudeumriss noch nicht optimal"/>
    <tag k="phone" v="09123 180-0"/>
    <tag k="website" v="http://www.kh-nuernberger-land.de"/>
  </way>
  <way id="36900270" version="8" timestamp="2012-07-18T19:44:36Z" uid="722137" user="OSMF Redaction Account" changeset="12295454">
    <nd ref="480493726"/>
    <nd ref="480493728"/>
    <nd ref="480493729"/>
    <nd ref="480493697"/>
    <nd ref="480493834"/>
    <nd ref="480494958"/>
    <nd ref="480494960"/>
    <nd ref="480493906"/>
    <nd ref="1682362958"/>
  </way>
  <way id="36900557" version="3" timestamp="2012-07-18T19:17:02Z" uid="722137" user="OSMF Redaction Account" changeset="12294386"/>
  <way id="36900558" version="3" timestamp="2012-06-06T06:14:15Z" uid="45263" user="Noframe" changeset="11812562">
    <nd ref="83574804"/>
    <nd ref="1777742485"/>
    <nd ref="700109291"/>
    <nd ref="700109311"/>
    <nd ref="429141448"/>
    <nd ref="83643820"/>
    <nd ref="83643818"/>
    <nd ref="83643815"/>
    <nd ref="83643813"/>
    <nd ref="83574834"/>
    <nd ref="83574829"/>
    <nd ref="83574816"/>
    <nd ref="83574804"/>
    <tag k="landuse" v="retail"/>
    <tag k="name" v="7th Street Grocery"/>
    <tag k="note" v="Contains non-grocery (non-supermarket) stores despite its name"/>
  </way>
  <way id="36900558" version="4" timestamp="2012-07-18T19:17:04Z" uid="722137" user="OSMF Redaction Account" changeset="12294386"/>
  <way id="36900772" version="4" timestamp="2012-07-18T19:45:15Z" uid="722137" user="OSMF Redaction Account" changeset="12295454"/>
</osm>
