<?xml version='1.0' encoding='UTF-8'?>
<osm version="0.6" generator="libosmium/2.20.0">
  <way id="36912000" version="3" timestamp="2009-12-24T17:31:00Z" uid="115477" user="wowik" changeset="3444263">
    <nd ref="429283255"/>
    <nd ref="429283399"/>
    <nd ref="429283191"/>
    <nd ref="429283045"/>
    <nd ref="429283255"/>
    <tag k="addr:city" v="Зеленоград"/>
    <tag k="addr:housenumber" v="224"/>
    <tag k="addr:street" v="2-й Микрорайон"/>
    <tag k="building" v="no"/>
    <tag k="comment" v="Запланирован к сносу"/>
    <tag k="is_in" v="Russia"/>
  </way>
  <way id="36912000" version="4" timestamp="2010-01-11T11:50:19Z" uid="115477" user="wowik" changeset="3595229"/>
  <way id="36912001" version="3" timestamp="2011-01-12T11:24:14Z" uid="115477" user="wowik" changeset="6946074">
    <nd ref="429283195"/>
    <nd ref="429283145"/>
    <nd ref="429283351"/>
    <nd ref="429283148"/>
    <nd ref="1099617754"/>
    <nd ref="429283195"/>
    <tag k="addr:city" v="Зеленоград"/>
    <tag k="addr:housenumber" v="234"/>
    <tag k="addr:street" v="2-й Микрорайон"/>
    <tag k="building" v="yes"/>
    <tag k="is_in" v="Russia"/>
  </way>
  <way id="36912001" version="4" timestamp="2011-06-07T20:49:51Z" uid="133332" user="AMDmi3" changeset="8374030">
    <nd ref="429283195"/>
    <nd ref="429283145"/>
    <nd ref="429283351"/>
    <nd ref="429283148"/>
    <nd ref="1099617754"/>
    <nd ref="429283195"/>
    <tag k="addr:city" v="Зеленоград"/>
    <tag k="addr:housenumber" v="234"/>
    <tag k="addr:street" v="2-й микрорайон"/>
    <tag k="building" v="yes"/>
    <tag k="is_in" v="Russia"/>
  </way>
  <way id="36912001" version="5" timestamp="2011-09-13T10:24:55Z" uid="29320" user="Komяpa" changeset="9288237">
    <nd ref="429283195"/>
    <nd ref="429283145"/>
    <nd ref="429283351"/>
    <nd ref="429283148"/>
    <nd ref="1099617754"/>
    <nd ref="429283195"/>
    <tag k="addr:city" v="Зеленоград"/>
    <tag k="addr:country" v="RU"/>
    <tag k="addr:housenumber" v="234"/>
    <tag k="addr:street" v="2-й микрорайон"/>
    <tag k="building" v="yes"/>
  </way>
  <way id="36912001" version="6" timestamp="2011-10-28T10:34:46Z" uid="481934" user="iWowik" changeset="9675276">
    <nd ref="429283195"/>
    <nd ref="429283145"/>
    <nd ref="429283351"/>
    <nd ref="429283148"/>
    <nd ref="1099617754"/>
    <nd ref="429283195"/>
    <tag k="addr:city" v="Зеленоград"/>
    <tag k="addr:country" v="RU"/>
    <tag k="addr:housenumber" v="234"/>
    <tag k="addr:street" v="2-й Микрорайон"/>
    <tag k="building" v="yes"/>
  </way>
  <way id="36912001" version="7" timestamp="2011-11-14T20:32:04Z" uid="133332" user="AMDmi3" changeset="9828527">
    <nd ref="429283195"/>
    <nd ref="429283145"/>
    <nd ref="429283351"/>
    <nd ref="429283148"/>
    <nd ref="1099617754"/>
    <nd ref="429283195"/>
    <tag k="addr:city" v="Зеленоград"/>
    <tag k="addr:country" v="RU"/>
    <tag k="addr:housenumber" v="234"/>
    <tag k="addr:street" v="2-й микрорайон"/>
    <tag k="building" v="yes"/>
  </way>
  <way id="36912001" version="8" timestamp="2012-03-27T11:40:00Z" uid="481934" user="iWowik" changeset="11115472">
    <nd ref="429283195"/>
    <nd ref="429283145"/>
    <nd ref="429283351"/>
    <nd ref="429283148"/>
    <nd ref="1099617754"/>
    <nd ref="429283195"/>
    <tag k="addr:city" v="Зеленоград"/>
    <tag k="addr:country" v="RU"/>
    <tag k="addr:housenumber" v="234"/>
    <tag k="addr:region" v="Москва"/>
    <tag k="addr:street" v="2-й микрорайон"/>
    <tag k="building" v="yes"/>
  </way>
  <way id="36912002" version="3" timestamp="2009-12-24T17:31:01Z" uid="115477" user="wowik" changeset="3444263"/>
  <way id="36912003" version="3" timestamp="2010-11-09T15:58:00Z" uid="115477" user="wowik" changeset="6327211">
    <nd ref="429283333"/>
    <nd ref="429283105"/>
    <nd ref="429283122"/>
    <nd ref="429283096"/>
    <nd ref="429283333"/>
    <tag k="addr:city" v="Зеленоград"/>
    <tag k="addr:housenumber" v="233"/>
    <tag k="addr:street" v="2-й Микрорайон"/>
    <tag k="building" v="yes"/>
    <tag k="is_in" v="Russia"/>
  </way>
  <way id="36912003" version="4" timestamp="2010-11-09T15:58:20Z" uid="115477" user="wowik" changeset="6327211">
    <nd ref="429283333"/>
    <nd ref="429283105"/>
    <nd ref="429283122"/>
    <nd ref="429283096"/>
    <nd ref="429283333"/>
    <tag k="addr:city" v="Зеленоград"/>
    <tag k="addr:housenumber" v="233"/>
    <tag k="addr:street" v="2-й Микрорайон"/>
    <tag k="building" v="yes"/>
    <tag k="is_in" v="Russia"/>
    <tag k="name" v="клуб Заря"/>
  </way>
  <way id="36912003" version="5" timestamp="2011-06-07T20:49:52Z" uid="133332" user="AMDmi3" changeset="8374030">
    <nd ref="429283333"/>
    <nd ref="429283105"/>
    <nd ref="429283122"/>
    <nd ref="429283096"/>
    <nd ref="429283333"/>
    <tag k="addr:city" v="Зеленоград"/>
    <tag k="addr:housenumber" v="233"/>
    <tag k="addr:street" v="2-й микрорайон"/>
    <tag k="building" v="yes"/>
    <tag k="is_in" v="Russia"/>
    <tag k="name" v="клуб Заря"/>
  </way>
  <way id="36912003" version="6" timestamp="2011-09-13T10:32:05Z" uid="29320" user="Komяpa" changeset="9288237">
    <nd ref="429283333"/>
    <nd ref="429283105"/>
    <nd ref="429283122"/>
    <nd ref="429283096"/>
    <nd ref="429283333"/>
    <tag k="addr:city" v="Зеленоград"/>
    <tag k="addr:country" v="RU"/>
    <tag k="addr:housenumber" v="233"/>
    <tag k="addr:street" v="2-й микрорайон"/>
    <tag k="building" v="yes"/>
    <tag k="name" v="клуб Заря"/>
  </way>
  <way id="36912003" version="7" timestamp="2011-10-28T10:34:52Z" uid="481934" user="iWowik" changeset="9675276">
    <nd ref="429283333"/>
    <nd ref="429283105"/>
    <nd ref="429283122"/>
    <nd ref="429283096"/>
    <nd ref="429283333"/>
    <tag k="addr:city" v="Зеленоград"/>
    <tag k="addr:country" v="RU"/>
    <tag k="addr:housenumber" v="233"/>
    <tag k="addr:street" v="2-й Микрорайон"/>
    <tag k="building" v="yes"/>
    <tag k="name" v="клуб Заря"/>
  </way>
  <way id="36912003" version="8" timestamp="2011-11-14T20:35:14Z" uid="133332" user="AMDmi3" changeset="9828527">
    <nd ref="429283333"/>
    <nd ref="429283105"/>
    <nd ref="429283122"/>
    <nd ref="429283096"/>
    <nd ref="429283333"/>
    <tag k="addr:city" v="Зеленоград"/>
    <tag k="addr:country" v="RU"/>
    <tag k="addr:housenumber" v="233"/>
    <tag k="addr:street" v="2-й микрорайон"/>
    <tag k="building" v="yes"/>
    <tag k="name" v="клуб Заря"/>
  </way>
  <way id="36912003" version="9" timestamp="2012-03-27T11:56:16Z" uid="481934" user="iWowik" changeset="11115472">
    <nd ref="429283333"/>
    <nd ref="429283105"/>
    <nd ref="429283122"/>
    <nd ref="429283096"/>
    <nd ref="429283333"/>
    <tag k="addr:city" v="Зеленоград"/>
    <tag k="addr:country" v="RU"/>
    <tag k="addr:housenumber" v="233"/>
    <tag k="addr:region" v="Москва"/>
    <tag k="addr:street" v="2-й микрорайон"/>
    <tag k="building" v="yes"/>
    <tag k="name" v="клуб Заря"/>
  </way>
  <way id="36912004" version="3" timestamp="2010-11-09T07:39:30Z" uid="115477" user="wowik" changeset="6325744">
    <nd ref="429283147"/>
    <nd ref="983089309"/>
    <nd ref="429283301"/>
    <nd ref="983089288"/>
    <nd ref="429283294"/>
    <nd ref="983089227"/>
    <nd ref="983089314"/>
    <nd ref="983089259"/>
    <nd ref="983089331"/>
    <nd ref="429283058"/>
    <nd ref="983089235"/>
    <nd ref="429283065"/>
    <nd ref="983089336"/>
    <nd ref="429283059"/>
    <nd ref="429283068"/>
    <nd ref="429283459"/>
    <nd ref="429283099"/>
    <nd ref="429283139"/>
    <nd ref="429283192"/>
    <nd ref="429283204"/>
    <nd ref="429283147"/>
    <tag k="addr:city" v="Зеленоград"/>
    <tag k="addr:housenumber" v="235"/>
    <tag k="addr:street" v="2-й Микрорайон"/>
    <tag k="building" v="yes"/>
    <tag k="is_in" v="Russia"/>
  </way>
  <way id="36912004" version="4" timestamp="2011-06-07T20:49:53Z" uid="133332" user="AMDmi3" changeset="8374030">
    <nd ref="429283147"/>
    <nd ref="983089309"/>
    <nd ref="429283301"/>
    <nd ref="983089288"/>
    <nd ref="429283294"/>
    <nd ref="983089227"/>
    <nd ref="983089314"/>
    <nd ref="983089259"/>
    <nd ref="983089331"/>
    <nd ref="429283058"/>
    <nd ref="983089235"/>
    <nd ref="429283065"/>
    <nd ref="983089336"/>
    <nd ref="429283059"/>
    <nd ref="429283068"/>
    <nd ref="429283459"/>
    <nd ref="429283099"/>
    <nd ref="429283139"/>
    <nd ref="429283192"/>
    <nd ref="429283204"/>
    <nd ref="429283147"/>
    <tag k="addr:city" v="Зеленоград"/>
    <tag k="addr:housenumber" v="235"/>
    <tag k="addr:street" v="2-й микрорайон"/>
    <tag k="building" v="yes"/>
    <tag k="is_in" v="Russia"/>
  </way>
  <way id="36912004" version="5" timestamp="2011-09-13T10:24:55Z" uid="29320" user="Komяpa" changeset="9288237">
    <nd ref="429283147"/>
    <nd ref="983089309"/>
    <nd ref="429283301"/>
    <nd ref="983089288"/>
    <nd ref="429283294"/>
    <nd ref="983089227"/>
    <nd ref="983089314"/>
    <nd ref="983089259"/>
    <nd ref="983089331"/>
    <nd ref="429283058"/>
    <nd ref="983089235"/>
    <nd ref="429283065"/>
    <nd ref="983089336"/>
    <nd ref="429283059"/>
    <nd ref="429283068"/>
    <nd ref="429283459"/>
    <nd ref="429283099"/>
    <nd ref="429283139"/>
    <nd ref="429283192"/>
    <nd ref="429283204"/>
    <nd ref="429283147"/>
    <tag k="addr:city" v="Зеленоград"/>
    <tag k="addr:country" v="RU"/>
    <tag k="addr:housenumber" v="235"/>
    <tag k="addr:street" v="2-й микрорайон"/>
    <tag k="building" v="yes"/>
  </way>
  <way id="36912004" version="6" timestamp="2011-10-28T10:34:46Z" uid="481934" user="iWowik" changeset="9675276">
    <nd ref="429283147"/>
    <nd ref="983089309"/>
    <nd ref="429283301"/>
    <nd ref="983089288"/>
    <nd ref="429283294"/>
    <nd ref="983089227"/>
    <nd ref="983089314"/>
    <nd ref="983089259"/>
    <nd ref="983089331"/>
    <nd ref="429283058"/>
    <nd ref="983089235"/>
    <nd ref="429283065"/>
    <nd ref="983089336"/>
    <nd ref="429283059"/>
    <nd ref="429283068"/>
    <nd ref="429283459"/>
    <nd ref="429283099"/>
    <nd ref="429283139"/>
    <nd ref="429283192"/>
    <nd ref="429283204"/>
    <nd ref="429283147"/>
    <tag k="addr:city" v="Зеленоград"/>
    <tag k="addr:country" v="RU"/>
    <tag k="addr:housenumber" v="235"/>
    <tag k="addr:street" v="2-й Микрорайон"/>
    <tag k="building" v="yes"/>
  </way>
  <way id="36912004" version="7" timestamp="2011-11-14T20:32:04Z" uid="133332" user="AMDmi3" changeset="9828527">
    <nd ref="429283147"/>
    <nd ref="983089309"/>
    <nd ref="429283301"/>
    <nd ref="983089288"/>
    <nd ref="429283294"/>
    <nd ref="983089227"/>
    <nd ref="983089314"/>
    <nd ref="983089259"/>
    <nd ref="983089331"/>
    <nd ref="429283058"/>
    <nd ref="983089235"/>
    <nd ref="429283065"/>
    <nd ref="983089336"/>
    <nd ref="429283059"/>
    <nd ref="429283068"/>
    <nd ref="429283459"/>
    <nd ref="429283099"/>
    <nd ref="429283139"/>
    <nd ref="429283192"/>
    <nd ref="429283204"/>
    <nd ref="429283147"/>
    <tag k="addr:city" v="Зеленоград"/>
    <tag k="addr:country" v="RU"/>
    <tag k="addr:housenumber" v="235"/>
    <tag k="addr:street" v="2-й микрорайон"/>
    <tag k="building" v="yes"/>
  </way>
  <way id="36912004" version="8" timestamp="2012-03-27T11:40:00Z" uid="481934" user="iWowik" changeset="11115472">
    <nd ref="429283147"/>
    <nd ref="983089309"/>
    <nd ref="429283301"/>
    <nd ref="983089288"/>
    <nd ref="429283294"/>
    <nd ref="983089227"/>
    <nd ref="983089314"/>
    <nd ref="983089259"/>
    <nd ref="983089331"/>
    <nd ref="429283058"/>
    <nd ref="983089235"/>
    <nd ref="429283065"/>
    <nd ref="983089336"/>
    <nd ref="429283059"/>
    <nd ref="429283068"/>
    <nd ref="429283459"/>
    <nd ref="429283099"/>
    <nd ref="429283139"/>
    <nd ref="429283192"/>
    <nd ref="429283204"/>
    <nd ref="429283147"/>
    <tag k="addr:city" v="Зеленоград"/>
    <tag k="addr:country" v="RU"/>
    <tag k="addr:housenumber" v="235"/>
    <tag k="addr:region" v="Москва"/>
    <tag k="addr:street" v="2-й микрорайон"/>
    <tag k="building" v="yes"/>
  </way>
  <way id="36912005" version="3" timestamp="2010-11-09T08:24:44Z" uid="115477" user="wowik" changeset="6325744">
    <nd ref="429283127"/>
    <nd ref="429283194"/>
    <nd ref="983105025"/>
    <nd ref="429283168"/>
    <nd ref="983105308"/>
    <nd ref="429283380"/>
    <nd ref="429283132"/>
    <nd ref="429283135"/>
    <nd ref="429283175"/>
    <nd ref="429283180"/>
    <nd ref="429283127"/>
    <tag k="addr:city" v="Зеленоград"/>
    <tag k="addr:housenumber" v="247"/>
    <tag k="addr:street" v="2-й Микрорайон"/>
    <tag k="building" v="yes"/>
    <tag k="is_in" v="Russia"/>
  </way>
  <way id="36912005" version="5" timestamp="2011-06-07T20:49:54Z" uid="133332" user="AMDmi3" changeset="8374030">
    <nd ref="429283175"/>
    <nd ref="429283180"/>
    <nd ref="429283127"/>
    <nd ref="429283194"/>
    <nd ref="983105025"/>
    <nd ref="429283175"/>
    <tag k="addr:city" v="Зеленоград"/>
    <tag k="addr:housenumber" v="247"/>
    <tag k="addr:street" v="2-й микрорайон"/>
    <tag k="building" v="yes"/>
    <tag k="is_in" v="Russia"/>
  </way>
  <way id="36912005" version="6" timestamp="2011-09-10T09:40:29Z" uid="518169" user="kosatov" changeset="9260125"/>
  <way id="36912008" version="5" timestamp="2010-11-09T07:39:39Z" uid="115477" user="wowik" changeset="6325744">
    <nd ref="429283061"/>
    <nd ref="429283314"/>
    <nd ref="429283040"/>
    <nd ref="429283093"/>
    <nd ref="429283144"/>
    <nd ref="429283146"/>
    <nd ref="429283363"/>
    <nd ref="429283353"/>
    <nd ref="429283078"/>
    <nd ref="429283404"/>
    <nd ref="429283071"/>
    <nd ref="983089326"/>
    <nd ref="983089249"/>
    <nd ref="429283116"/>
    <nd ref="983089298"/>
    <nd ref="983089321"/>
    <nd ref="429283061"/>
    <tag k="addr:city" v="Зеленоград"/>
    <tag k="addr:housenumber" v="222Б"/>
    <tag k="addr:street" v="2-й Микрорайон"/>
    <tag k="amenity" v="kindergarten"/>
    <tag k="building" v="yes"/>
    <tag k="comment" v="Детский сад №322"/>
    <tag k="is_in" v="Russia"/>
    <tag k="name" v="Детский сад №322"/>
  </way>
  <way id="36912008" version="6" timestamp="2011-06-07T20:49:47Z" uid="133332" user="AMDmi3" changeset="8374030">
    <nd ref="429283061"/>
    <nd ref="429283314"/>
    <nd ref="429283040"/>
    <nd ref="429283093"/>
    <nd ref="429283144"/>
    <nd ref="429283146"/>
    <nd ref="429283363"/>
    <nd ref="429283353"/>
    <nd ref="429283078"/>
    <nd ref="429283404"/>
    <nd ref="429283071"/>
    <nd ref="983089326"/>
    <nd ref="983089249"/>
    <nd ref="429283116"/>
    <nd ref="983089298"/>
    <nd ref="983089321"/>
    <nd ref="429283061"/>
    <tag k="addr:city" v="Зеленоград"/>
    <tag k="addr:housenumber" v="222Б"/>
    <tag k="addr:street" v="2-й микрорайон"/>
    <tag k="amenity" v="kindergarten"/>
    <tag k="building" v="yes"/>
    <tag k="comment" v="Детский сад №322"/>
    <tag k="is_in" v="Russia"/>
    <tag k="name" v="Детский сад №322"/>
  </way>
  <way id="36912008" version="7" timestamp="2011-09-11T19:17:01Z" uid="518169" user="kosatov" changeset="9274152">
    <nd ref="429283061"/>
    <nd ref="429283314"/>
    <nd ref="429283040"/>
    <nd ref="429283093"/>
    <nd ref="429283144"/>
    <nd ref="429283146"/>
    <nd ref="429283363"/>
    <nd ref="429283353"/>
    <nd ref="429283078"/>
    <nd ref="429283404"/>
    <nd ref="429283071"/>
    <nd ref="983089326"/>
    <nd ref="983089249"/>
    <nd ref="429283116"/>
    <nd ref="1430425760"/>
    <nd ref="1430425761"/>
    <nd ref="1430425767"/>
    <nd ref="1430425766"/>
    <nd ref="1430425764"/>
    <nd ref="1430425763"/>
    <nd ref="1430425765"/>
    <nd ref="1430425762"/>
    <nd ref="983089298"/>
    <nd ref="983089321"/>
    <nd ref="429283061"/>
    <tag k="addr:city" v="Зеленоград"/>
    <tag k="addr:housenumber" v="222Б"/>
    <tag k="addr:street" v="2-й микрорайон"/>
    <tag k="amenity" v="kindergarten"/>
    <tag k="building" v="yes"/>
    <tag k="comment" v="Детский сад №322"/>
    <tag k="is_in" v="Russia"/>
    <tag k="name" v="Детский сад №322"/>
  </way>
  <way id="36912008" version="8" timestamp="2011-09-13T10:30:13Z" uid="29320" user="Komяpa" changeset="9288237">
    <nd ref="429283061"/>
    <nd ref="429283314"/>
    <nd ref="429283040"/>
    <nd ref="429283093"/>
    <nd ref="429283144"/>
    <nd ref="429283146"/>
    <nd ref="429283363"/>
    <nd ref="429283353"/>
    <nd ref="429283078"/>
    <nd ref="429283404"/>
    <nd ref="429283071"/>
    <nd ref="983089326"/>
    <nd ref="983089249"/>
    <nd ref="429283116"/>
    <nd ref="1430425760"/>
    <nd ref="1430425761"/>
    <nd ref="1430425767"/>
    <nd ref="1430425766"/>
    <nd ref="1430425764"/>
    <nd ref="1430425763"/>
    <nd ref="1430425765"/>
    <nd ref="1430425762"/>
    <nd ref="983089298"/>
    <nd ref="983089321"/>
    <nd ref="429283061"/>
    <tag k="addr:city" v="Зеленоград"/>
    <tag k="addr:country" v="RU"/>
    <tag k="addr:housenumber" v="222Б"/>
    <tag k="addr:street" v="2-й микрорайон"/>
    <tag k="amenity" v="kindergarten"/>
    <tag k="building" v="yes"/>
    <tag k="comment" v="Детский сад №322"/>
    <tag k="name" v="Детский сад №322"/>
  </way>
  <way id="36912008" version="9" timestamp="2011-10-28T10:34:43Z" uid="481934" user="iWowik" changeset="9675276">
    <nd ref="429283061"/>
    <nd ref="429283314"/>
    <nd ref="429283040"/>
    <nd ref="429283093"/>
    <nd ref="429283144"/>
    <nd ref="429283146"/>
    <nd ref="429283363"/>
    <nd ref="429283353"/>
    <nd ref="429283078"/>
    <nd ref="429283404"/>
    <nd ref="429283071"/>
    <nd ref="983089326"/>
    <nd ref="983089249"/>
    <nd ref="429283116"/>
    <nd ref="1430425760"/>
    <nd ref="1430425761"/>
    <nd ref="1430425767"/>
    <nd ref="1430425766"/>
    <nd ref="1430425764"/>
    <nd ref="1430425763"/>
    <nd ref="1430425765"/>
    <nd ref="1430425762"/>
    <nd ref="983089298"/>
    <nd ref="983089321"/>
    <nd ref="429283061"/>
    <tag k="addr:city" v="Зеленоград"/>
    <tag k="addr:country" v="RU"/>
    <tag k="addr:housenumber" v="222Б"/>
    <tag k="addr:street" v="2-й Микрорайон"/>
    <tag k="amenity" v="kindergarten"/>
    <tag k="building" v="yes"/>
    <tag k="comment" v="Детский сад №322"/>
    <tag k="name" v="Детский сад №322"/>
  </way>
  <way id="36912008" version="10" timestamp="2011-11-14T20:34:15Z" uid="133332" user="AMDmi3" changeset="9828527">
    <nd ref="429283061"/>
    <nd ref="429283314"/>
    <nd ref="429283040"/>
    <nd ref="429283093"/>
    <nd ref="429283144"/>
    <nd ref="429283146"/>
    <nd ref="429283363"/>
    <nd ref="429283353"/>
    <nd ref="429283078"/>
    <nd ref="429283404"/>
    <nd ref="429283071"/>
    <nd ref="983089326"/>
    <nd ref="983089249"/>
    <nd ref="429283116"/>
    <nd ref="1430425760"/>
    <nd ref="1430425761"/>
    <nd ref="1430425767"/>
    <nd ref="1430425766"/>
    <nd ref="1430425764"/>
    <nd ref="1430425763"/>
    <nd ref="1430425765"/>
    <nd ref="1430425762"/>
    <nd ref="983089298"/>
    <nd ref="983089321"/>
    <nd ref="429283061"/>
    <tag k="addr:city" v="Зеленоград"/>
    <tag k="addr:country" v="RU"/>
    <tag k="addr:housenumber" v="222Б"/>
    <tag k="addr:street" v="2-й микрорайон"/>
    <tag k="amenity" v="kindergarten"/>
    <tag k="building" v="yes"/>
    <tag k="comment" v="Детский сад №322"/>
    <tag k="name" v="Детский сад №322"/>
  </way>
  <way id="36912008" version="11" timestamp="2012-03-27T11:32:26Z" uid="481934" user="iWowik" changeset="11115472">
    <nd ref="429283061"/>
    <nd ref="429283314"/>
    <nd ref="429283040"/>
    <nd ref="429283093"/>
    <nd ref="429283144"/>
    <nd ref="429283146"/>
    <nd ref="429283363"/>
    <nd ref="429283353"/>
    <nd ref="429283078"/>
    <nd ref="429283404"/>
    <nd ref="429283071"/>
    <nd ref="983089326"/>
    <nd ref="983089249"/>
    <nd ref="429283116"/>
    <nd ref="1430425760"/>
    <nd ref="1430425761"/>
    <nd ref="1430425767"/>
    <nd ref="1430425766"/>
    <nd ref="1430425764"/>
    <nd ref="1430425763"/>
    <nd ref="1430425765"/>
    <nd ref="1430425762"/>
    <nd ref="983089298"/>
    <nd ref="983089321"/>
    <nd ref="429283061"/>
    <tag k="addr:city" v="Зеленоград"/>
    <tag k="addr:country" v="RU"/>
    <tag k="addr:housenumber" v="222Б"/>
    <tag k="addr:region" v="Москва"/>
    <tag k="addr:street" v="2-й микрорайон"/>
    <tag k="amenity" v="kindergarten"/>
    <tag k="building" v="yes"/>
    <tag k="comment" v="Детский сад №322"/>
    <tag k="name" v="Детский сад №322"/>
  </way>
  <way id="36912009" version="3" timestamp="2010-09-11T22:19:29Z" uid="115477" user="wowik" changeset="5754466">
    <nd ref="429283183"/>
    <nd ref="429283386"/>
    <nd ref="429283102"/>
    <nd ref="429283355"/>
    <nd ref="429283183"/>
    <tag k="addr:city" v="Зеленоград"/>
    <tag k="addr:housenumber" v="224с1"/>
    <tag k="addr:street" v="2-й Микрорайон"/>
    <tag k="building" v="yes"/>
    <tag k="is_in" v="Zelenograd,Moscow,Russia"/>
    <tag k="landuse" v="service"/>
  </way>
  <way id="36912009" version="4" timestamp="2011-01-12T16:31:10Z" uid="115477" user="wowik" changeset="6948828">
    <nd ref="429283183"/>
    <nd ref="429283386"/>
    <nd ref="429283102"/>
    <nd ref="429283355"/>
    <nd ref="429283183"/>
    <tag k="addr:city" v="Зеленоград"/>
    <tag k="addr:housenumber" v="224с1"/>
    <tag k="addr:street" v="2-й Микрорайон"/>
    <tag k="building" v="yes"/>
    <tag k="is_in" v="Russia"/>
    <tag k="landuse" v="service"/>
  </way>
  <way id="36912009" version="5" timestamp="2011-01-19T15:45:14Z" uid="70696" user="xybot" changeset="7021015">
    <nd ref="429283183"/>
    <nd ref="429283386"/>
    <nd ref="429283102"/>
    <nd ref="429283355"/>
    <nd ref="429283183"/>
    <tag k="addr:city" v="Зеленоград"/>
    <tag k="addr:housenumber" v="224 с1"/>
    <tag k="addr:street" v="2-й Микрорайон"/>
    <tag k="building" v="yes"/>
    <tag k="is_in" v="Russia"/>
    <tag k="landuse" v="service"/>
  </way>
  <way id="36912009" version="6" timestamp="2011-01-25T16:23:23Z" uid="115477" user="wowik" changeset="7085120">
    <nd ref="429283183"/>
    <nd ref="429283386"/>
    <nd ref="429283102"/>
    <nd ref="429283355"/>
    <nd ref="429283183"/>
    <tag k="addr:city" v="Зеленоград"/>
    <tag k="addr:housenumber" v="224 с1"/>
    <tag k="addr:street" v="2-й Микрорайон"/>
    <tag k="building" v="yes"/>
    <tag k="building:levels" v="1"/>
    <tag k="is_in" v="Russia"/>
    <tag k="landuse" v="service"/>
  </way>
  <way id="36912009" version="7" timestamp="2011-06-07T20:49:48Z" uid="133332" user="AMDmi3" changeset="8374030">
    <nd ref="429283183"/>
    <nd ref="429283386"/>
    <nd ref="429283102"/>
    <nd ref="429283355"/>
    <nd ref="429283183"/>
    <tag k="addr:city" v="Зеленоград"/>
    <tag k="addr:housenumber" v="224 с1"/>
    <tag k="addr:street" v="2-й микрорайон"/>
    <tag k="building" v="yes"/>
    <tag k="building:levels" v="1"/>
    <tag k="is_in" v="Russia"/>
    <tag k="landuse" v="service"/>
  </way>
  <way id="36912009" version="8" timestamp="2011-09-13T10:24:50Z" uid="29320" user="Komяpa" changeset="9288237">
    <nd ref="429283183"/>
    <nd ref="429283386"/>
    <nd ref="429283102"/>
    <nd ref="429283355"/>
    <nd ref="429283183"/>
    <tag k="addr:city" v="Зеленоград"/>
    <tag k="addr:country" v="RU"/>
    <tag k="addr:housenumber" v="224 с1"/>
    <tag k="addr:street" v="2-й микрорайон"/>
    <tag k="building" v="service"/>
    <tag k="building:levels" v="1"/>
  </way>
  <way id="36912009" version="9" timestamp="2011-10-28T10:34:45Z" uid="481934" user="iWowik" changeset="9675276">
    <nd ref="429283183"/>
    <nd ref="429283386"/>
    <nd ref="429283102"/>
    <nd ref="429283355"/>
    <nd ref="429283183"/>
    <tag k="addr:city" v="Зеленоград"/>
    <tag k="addr:country" v="RU"/>
    <tag k="addr:housenumber" v="224 с1"/>
    <tag k="addr:street" v="2-й Микрорайон"/>
    <tag k="building" v="service"/>
    <tag k="building:levels" v="1"/>
  </way>
  <way id="36912009" version="10" timestamp="2011-11-14T20:32:00Z" uid="133332" user="AMDmi3" changeset="9828527">
    <nd ref="429283183"/>
    <nd ref="429283386"/>
    <nd ref="429283102"/>
    <nd ref="429283355"/>
    <nd ref="429283183"/>
    <tag k="addr:city" v="Зеленоград"/>
    <tag k="addr:country" v="RU"/>
    <tag k="addr:housenumber" v="224 с1"/>
    <tag k="addr:street" v="2-й микрорайон"/>
    <tag k="building" v="service"/>
    <tag k="building:levels" v="1"/>
  </way>
  <way id="36912009" version="11" timestamp="2012-03-27T11:39:50Z" uid="481934" user="iWowik" changeset="11115472">
    <nd ref="429283183"/>
    <nd ref="429283386"/>
    <nd ref="429283102"/>
    <nd ref="429283355"/>
    <nd ref="429283183"/>
    <tag k="addr:city" v="Зеленоград"/>
    <tag k="addr:country" v="RU"/>
    <tag k="addr:housenumber" v="224 с1"/>
    <tag k="addr:region" v="Москва"/>
    <tag k="addr:street" v="2-й микрорайон"/>
    <tag k="building" v="service"/>
    <tag k="building:levels" v="1"/>
  </way>
  <way id="36912011" version="3" timestamp="2010-11-09T08:24:38Z" uid="115477" user="wowik" changeset="6325744">
    <nd ref="429283451"/>
    <nd ref="429283207"/>
    <nd ref="429283308"/>
    <nd ref="429283092"/>
    <nd ref="429283086"/>
    <nd ref="429283304"/>
    <nd ref="429283451"/>
    <tag k="addr:city" v="Зеленоград"/>
    <tag k="addr:housenumber" v="248"/>
    <tag k="addr:street" v="2-й Микрорайон"/>
    <tag k="building" v="yes"/>
    <tag k="is_in" v="Russia"/>
  </way>
  <way id="36912011" version="5" timestamp="2011-09-10T09:23:25Z" uid="518169" user="kosatov" changeset="9260125"/>
  <way id="36912012" version="4" timestamp="2010-11-09T08:24:09Z" uid="115477" user="wowik" changeset="6325744">
    <nd ref="429283202"/>
    <nd ref="429283455"/>
    <nd ref="429283457"/>
    <nd ref="429283125"/>
    <nd ref="429283284"/>
    <nd ref="429283126"/>
    <nd ref="429283422"/>
    <nd ref="429283198"/>
    <nd ref="429283069"/>
    <nd ref="429283447"/>
    <nd ref="429283220"/>
    <nd ref="429283339"/>
    <nd ref="429283209"/>
    <nd ref="429283316"/>
    <nd ref="983105137"/>
    <nd ref="983105275"/>
    <nd ref="429283202"/>
    <tag k="addr:city" v="Зеленоград"/>
    <tag k="addr:housenumber" v="205А"/>
    <tag k="addr:street" v="2-й Микрорайон"/>
    <tag k="amenity" v="public_building"/>
    <tag k="building" v="yes"/>
    <tag k="is_in" v="Russia"/>
    <tag k="name" v="ЦСО"/>
  </way>
  <way id="36912012" version="5" timestamp="2011-06-07T20:49:49Z" uid="133332" user="AMDmi3" changeset="8374030">
    <nd ref="429283202"/>
    <nd ref="429283455"/>
    <nd ref="429283457"/>
    <nd ref="429283125"/>
    <nd ref="429283284"/>
    <nd ref="429283126"/>
    <nd ref="429283422"/>
    <nd ref="429283198"/>
    <nd ref="429283069"/>
    <nd ref="429283447"/>
    <nd ref="429283220"/>
    <nd ref="429283339"/>
    <nd ref="429283209"/>
    <nd ref="429283316"/>
    <nd ref="983105137"/>
    <nd ref="983105275"/>
    <nd ref="429283202"/>
    <tag k="addr:city" v="Зеленоград"/>
    <tag k="addr:housenumber" v="205А"/>
    <tag k="addr:street" v="2-й микрорайон"/>
    <tag k="amenity" v="public_building"/>
    <tag k="building" v="yes"/>
    <tag k="is_in" v="Russia"/>
    <tag k="name" v="ЦСО"/>
  </way>
  <way id="36912012" version="6" timestamp="2011-09-11T19:12:43Z" uid="518169" user="kosatov" changeset="9274152">
    <nd ref="429283202"/>
    <nd ref="429283455"/>
    <nd ref="429283457"/>
    <nd ref="429283125"/>
    <nd ref="429283284"/>
    <nd ref="429283126"/>
    <nd ref="429283422"/>
    <nd ref="429283198"/>
    <nd ref="429283069"/>
    <nd ref="429283447"/>
    <nd ref="429283220"/>
    <nd ref="429283339"/>
    <nd ref="429283209"/>
    <nd ref="429283316"/>
    <nd ref="1430422477"/>
    <nd ref="1430422478"/>
    <nd ref="1430422473"/>
    <nd ref="1430422476"/>
    <nd ref="1430422479"/>
    <nd ref="1430422474"/>
    <nd ref="1430422472"/>
    <nd ref="1430422475"/>
    <nd ref="983105137"/>
    <nd ref="983105275"/>
    <nd ref="429283202"/>
    <tag k="addr:city" v="Зеленоград"/>
    <tag k="addr:housenumber" v="205А"/>
    <tag k="addr:street" v="2-й микрорайон"/>
    <tag k="amenity" v="public_building"/>
    <tag k="building" v="yes"/>
    <tag k="is_in" v="Russia"/>
    <tag k="name" v="ЦСО"/>
  </way>
  <way id="36912012" version="7" timestamp="2011-09-13T10:31:39Z" uid="29320" user="Komяpa" changeset="9288237">
    <nd ref="429283202"/>
    <nd ref="429283455"/>
    <nd ref="429283457"/>
    <nd ref="429283125"/>
    <nd ref="429283284"/>
    <nd ref="429283126"/>
    <nd ref="429283422"/>
    <nd ref="429283198"/>
    <nd ref="429283069"/>
    <nd ref="429283447"/>
    <nd ref="429283220"/>
    <nd ref="429283339"/>
    <nd ref="429283209"/>
    <nd ref="429283316"/>
    <nd ref="1430422477"/>
    <nd ref="1430422478"/>
    <nd ref="1430422473"/>
    <nd ref="1430422476"/>
    <nd ref="1430422479"/>
    <nd ref="1430422474"/>
    <nd ref="1430422472"/>
    <nd ref="1430422475"/>
    <nd ref="983105137"/>
    <nd ref="983105275"/>
    <nd ref="429283202"/>
    <tag k="addr:city" v="Зеленоград"/>
    <tag k="addr:country" v="RU"/>
    <tag k="addr:housenumber" v="205А"/>
    <tag k="addr:street" v="2-й микрорайон"/>
    <tag k="amenity" v="public_building"/>
    <tag k="building" v="yes"/>
    <tag k="name" v="ЦСО"/>
  </way>
  <way id="36912012" version="8" timestamp="2011-10-28T10:34:51Z" uid="481934" user="iWowik" changeset="9675276">
    <nd ref="429283202"/>
    <nd ref="429283455"/>
    <nd ref="429283457"/>
    <nd ref="429283125"/>
    <nd ref="429283284"/>
    <nd ref="429283126"/>
    <nd ref="429283422"/>
    <nd ref="429283198"/>
    <nd ref="429283069"/>
    <nd ref="429283447"/>
    <nd ref="429283220"/>
    <nd ref="429283339"/>
    <nd ref="429283209"/>
    <nd ref="429283316"/>
    <nd ref="1430422477"/>
    <nd ref="1430422478"/>
    <nd ref="1430422473"/>
    <nd ref="1430422476"/>
    <nd ref="1430422479"/>
    <nd ref="1430422474"/>
    <nd ref="1430422472"/>
    <nd ref="1430422475"/>
    <nd ref="983105137"/>
    <nd ref="983105275"/>
    <nd ref="429283202"/>
    <tag k="addr:city" v="Зеленоград"/>
    <tag k="addr:country" v="RU"/>
    <tag k="addr:housenumber" v="205А"/>
    <tag k="addr:street" v="2-й Микрорайон"/>
    <tag k="amenity" v="public_building"/>
    <tag k="building" v="yes"/>
    <tag k="name" v="ЦСО"/>
  </way>
  <way id="36912012" version="9" timestamp="2011-11-14T20:34:59Z" uid="133332" user="AMDmi3" changeset="9828527">
    <nd ref="429283202"/>
    <nd ref="429283455"/>
    <nd ref="429283457"/>
    <nd ref="429283125"/>
    <nd ref="429283284"/>
    <nd ref="429283126"/>
    <nd ref="429283422"/>
    <nd ref="429283198"/>
    <nd ref="429283069"/>
    <nd ref="429283447"/>
    <nd ref="429283220"/>
    <nd ref="429283339"/>
    <nd ref="429283209"/>
    <nd ref="429283316"/>
    <nd ref="1430422477"/>
    <nd ref="1430422478"/>
    <nd ref="1430422473"/>
    <nd ref="1430422476"/>
    <nd ref="1430422479"/>
    <nd ref="1430422474"/>
    <nd ref="1430422472"/>
    <nd ref="1430422475"/>
    <nd ref="983105137"/>
    <nd ref="983105275"/>
    <nd ref="429283202"/>
    <tag k="addr:city" v="Зеленоград"/>
    <tag k="addr:country" v="RU"/>
    <tag k="addr:housenumber" v="205А"/>
    <tag k="addr:street" v="2-й микрорайон"/>
    <tag k="amenity" v="public_building"/>
    <tag k="building" v="yes"/>
    <tag k="name" v="ЦСО"/>
  </way>
  <way id="36912012" version="10" timestamp="2011-11-16T06:56:25Z" uid="481934" user="iWowik" changeset="9841495">
    <nd ref="429283202"/>
    <nd ref="429283455"/>
    <nd ref="429283457"/>
    <nd ref="429283125"/>
    <nd ref="429283284"/>
    <nd ref="429283126"/>
    <nd ref="429283422"/>
    <nd ref="429283198"/>
    <nd ref="429283069"/>
    <nd ref="429283447"/>
    <nd ref="429283220"/>
    <nd ref="429283339"/>
    <nd ref="429283209"/>
    <nd ref="429283316"/>
    <nd ref="1430422477"/>
    <nd ref="983105137"/>
    <nd ref="983105275"/>
    <nd ref="429283202"/>
    <tag k="addr:city" v="Зеленоград"/>
    <tag k="addr:country" v="RU"/>
    <tag k="addr:housenumber" v="205А"/>
    <tag k="addr:street" v="2-й микрорайон"/>
    <tag k="amenity" v="public_building"/>
    <tag k="building" v="yes"/>
    <tag k="name" v="ЦСО"/>
    <tag k="note" v="не надо тень обрисовывать!"/>
  </way>
  <way id="36912012" version="11" timestamp="2011-11-16T08:23:11Z" uid="481934" user="iWowik" changeset="9841495">
    <nd ref="429283202"/>
    <nd ref="429283455"/>
    <nd ref="429283457"/>
    <nd ref="429283125"/>
    <nd ref="429283284"/>
    <nd ref="429283126"/>
    <nd ref="429283422"/>
    <nd ref="429283198"/>
    <nd ref="429283069"/>
    <nd ref="429283447"/>
    <nd ref="429283220"/>
    <nd ref="429283339"/>
    <nd ref="429283209"/>
    <nd ref="429283316"/>
    <nd ref="983105137"/>
    <nd ref="983105275"/>
    <nd ref="429283202"/>
    <tag k="addr:city" v="Зеленоград"/>
    <tag k="addr:country" v="RU"/>
    <tag k="addr:housenumber" v="205А"/>
    <tag k="addr:street" v="2-й микрорайон"/>
    <tag k="amenity" v="public_building"/>
    <tag k="building" v="yes"/>
    <tag k="name" v="ЦСО"/>
    <tag k="note" v="не надо тень обрисовывать!"/>
  </way>
  <way id="36912012" version="12" timestamp="2012-03-27T11:48:12Z" uid="481934" user="iWowik" changeset="11115472">
    <nd ref="429283202"/>
    <nd ref="429283455"/>
    <nd ref="429283457"/>
    <nd ref="429283125"/>
    <nd ref="429283284"/>
    <nd ref="429283126"/>
    <nd ref="429283422"/>
    <nd ref="429283198"/>
    <nd ref="429283069"/>
    <nd ref="429283447"/>
    <nd ref="429283220"/>
    <nd ref="429283339"/>
    <nd ref="429283209"/>
    <nd ref="429283316"/>
    <nd ref="983105137"/>
    <nd ref="983105275"/>
    <nd ref="429283202"/>
    <tag k="addr:city" v="Зеленоград"/>
    <tag k="addr:country" v="RU"/>
    <tag k="addr:housenumber" v="205А"/>
    <tag k="addr:region" v="Москва"/>
    <tag k="addr:street" v="2-й микрорайон"/>
    <tag k="amenity" v="public_building"/>
    <tag k="building" v="yes"/>
    <tag k="name" v="ЦСО"/>
    <tag k="note" v="не надо тень обрисовывать!"/>
  </way>
  <way id="36912013" version="3" timestamp="2010-05-30T05:13:51Z" uid="115477" user="wowik" changeset="4848540">
    <nd ref="429283384"/>
    <nd ref="429283409"/>
    <nd ref="429283048"/>
    <nd ref="429283407"/>
    <nd ref="429283066"/>
    <nd ref="429283306"/>
    <nd ref="429283098"/>
    <nd ref="429283035"/>
    <nd ref="429283384"/>
    <tag k="addr:city" v="Зеленоград"/>
    <tag k="addr:housenumber" v="225А"/>
    <tag k="addr:street" v="2-й Микрорайон"/>
    <tag k="amenity" v="hospital"/>
    <tag k="building" v="yes"/>
    <tag k="is_in" v="Russia"/>
    <tag k="name" v="Д/п-ка №90"/>
  </way>
  <way id="36912013" version="4" timestamp="2010-11-09T07:39:34Z" uid="115477" user="wowik" changeset="6325744">
    <nd ref="429283384"/>
    <nd ref="983089254"/>
    <nd ref="983089329"/>
    <nd ref="983089284"/>
    <nd ref="983089221"/>
    <nd ref="429283409"/>
    <nd ref="429283048"/>
    <nd ref="429283407"/>
    <nd ref="983089342"/>
    <nd ref="983089296"/>
    <nd ref="983089240"/>
    <nd ref="429283066"/>
    <nd ref="983089215"/>
    <nd ref="983089301"/>
    <nd ref="429283306"/>
    <nd ref="429283098"/>
    <nd ref="429283035"/>
    <nd ref="429283384"/>
    <tag k="addr:city" v="Зеленоград"/>
    <tag k="addr:housenumber" v="225А"/>
    <tag k="addr:street" v="2-й Микрорайон"/>
    <tag k="amenity" v="hospital"/>
    <tag k="building" v="yes"/>
    <tag k="is_in" v="Russia"/>
    <tag k="name" v="Д/п-ка №90"/>
  </way>
  <way id="36912013" version="5" timestamp="2011-01-12T11:23:36Z" uid="115477" user="wowik" changeset="6946069">
    <nd ref="429283384"/>
    <nd ref="983089254"/>
    <nd ref="983089329"/>
    <nd ref="983089284"/>
    <nd ref="983089221"/>
    <nd ref="429283409"/>
    <nd ref="429283048"/>
    <nd ref="1099616914"/>
    <nd ref="429283407"/>
    <nd ref="983089342"/>
    <nd ref="983089296"/>
    <nd ref="983089240"/>
    <nd ref="429283066"/>
    <nd ref="983089215"/>
    <nd ref="983089301"/>
    <nd ref="429283306"/>
    <nd ref="429283098"/>
    <nd ref="429283035"/>
    <nd ref="429283384"/>
    <tag k="addr:city" v="Зеленоград"/>
    <tag k="addr:housenumber" v="225А"/>
    <tag k="addr:street" v="2-й Микрорайон"/>
    <tag k="amenity" v="hospital"/>
    <tag k="building" v="yes"/>
    <tag k="is_in" v="Russia"/>
    <tag k="name" v="Д/п-ка №90"/>
  </way>
  <way id="36912013" version="6" timestamp="2011-02-18T21:09:21Z" uid="206282" user="Amigo" changeset="7326520">
    <nd ref="429283384"/>
    <nd ref="983089254"/>
    <nd ref="983089329"/>
    <nd ref="983089284"/>
    <nd ref="983089221"/>
    <nd ref="429283409"/>
    <nd ref="429283048"/>
    <nd ref="1099616914"/>
    <nd ref="429283407"/>
    <nd ref="983089342"/>
    <nd ref="983089296"/>
    <nd ref="983089240"/>
    <nd ref="429283066"/>
    <nd ref="983089215"/>
    <nd ref="983089301"/>
    <nd ref="429283306"/>
    <nd ref="429283098"/>
    <nd ref="429283035"/>
    <nd ref="429283384"/>
    <tag k="addr:city" v="Зеленоград"/>
    <tag k="addr:housenumber" v="225А"/>
    <tag k="addr:street" v="2-й Микрорайон"/>
    <tag k="building" v="yes"/>
    <tag k="healthcare" v="clinic"/>
    <tag k="is_in" v="Russia"/>
    <tag k="name" v="Детская поликлиника №90"/>
  </way>
  <way id="36912013" version="7" timestamp="2011-06-07T20:49:49Z" uid="133332" user="AMDmi3" changeset="8374030">
    <nd ref="429283384"/>
    <nd ref="983089254"/>
    <nd ref="983089329"/>
    <nd ref="983089284"/>
    <nd ref="983089221"/>
    <nd ref="429283409"/>
    <nd ref="429283048"/>
    <nd ref="1099616914"/>
    <nd ref="429283407"/>
    <nd ref="983089342"/>
    <nd ref="983089296"/>
    <nd ref="983089240"/>
    <nd ref="429283066"/>
    <nd ref="983089215"/>
    <nd ref="983089301"/>
    <nd ref="429283306"/>
    <nd ref="429283098"/>
    <nd ref="429283035"/>
    <nd ref="429283384"/>
    <tag k="addr:city" v="Зеленоград"/>
    <tag k="addr:housenumber" v="225А"/>
    <tag k="addr:street" v="2-й микрорайон"/>
    <tag k="building" v="yes"/>
    <tag k="healthcare" v="clinic"/>
    <tag k="is_in" v="Russia"/>
    <tag k="name" v="Детская поликлиника №90"/>
  </way>
  <way id="36912013" version="8" timestamp="2011-09-13T10:30:02Z" uid="29320" user="Komяpa" changeset="9288237">
    <nd ref="429283384"/>
    <nd ref="983089254"/>
    <nd ref="983089329"/>
    <nd ref="983089284"/>
    <nd ref="983089221"/>
    <nd ref="429283409"/>
    <nd ref="429283048"/>
    <nd ref="1099616914"/>
    <nd ref="429283407"/>
    <nd ref="983089342"/>
    <nd ref="983089296"/>
    <nd ref="983089240"/>
    <nd ref="429283066"/>
    <nd ref="983089215"/>
    <nd ref="983089301"/>
    <nd ref="429283306"/>
    <nd ref="429283098"/>
    <nd ref="429283035"/>
    <nd ref="429283384"/>
    <tag k="addr:city" v="Зеленоград"/>
    <tag k="addr:country" v="RU"/>
    <tag k="addr:housenumber" v="225А"/>
    <tag k="addr:street" v="2-й микрорайон"/>
    <tag k="building" v="yes"/>
    <tag k="healthcare" v="clinic"/>
    <tag k="name" v="Детская поликлиника №90"/>
  </way>
  <way id="36912013" version="9" timestamp="2011-10-28T10:34:42Z" uid="481934" user="iWowik" changeset="9675276">
    <nd ref="429283384"/>
    <nd ref="983089254"/>
    <nd ref="983089329"/>
    <nd ref="983089284"/>
    <nd ref="983089221"/>
    <nd ref="429283409"/>
    <nd ref="429283048"/>
    <nd ref="1099616914"/>
    <nd ref="429283407"/>
    <nd ref="983089342"/>
    <nd ref="983089296"/>
    <nd ref="983089240"/>
    <nd ref="429283066"/>
    <nd ref="983089215"/>
    <nd ref="983089301"/>
    <nd ref="429283306"/>
    <nd ref="429283098"/>
    <nd ref="429283035"/>
    <nd ref="429283384"/>
    <tag k="addr:city" v="Зеленоград"/>
    <tag k="addr:country" v="RU"/>
    <tag k="addr:housenumber" v="225А"/>
    <tag k="addr:street" v="2-й Микрорайон"/>
    <tag k="building" v="yes"/>
    <tag k="healthcare" v="clinic"/>
    <tag k="name" v="Детская поликлиника №90"/>
  </way>
  <way id="36912013" version="10" timestamp="2011-11-14T20:34:12Z" uid="133332" user="AMDmi3" changeset="9828527">
    <nd ref="429283384"/>
    <nd ref="983089254"/>
    <nd ref="983089329"/>
    <nd ref="983089284"/>
    <nd ref="983089221"/>
    <nd ref="429283409"/>
    <nd ref="429283048"/>
    <nd ref="1099616914"/>
    <nd ref="429283407"/>
    <nd ref="983089342"/>
    <nd ref="983089296"/>
    <nd ref="983089240"/>
    <nd ref="429283066"/>
    <nd ref="983089215"/>
    <nd ref="983089301"/>
    <nd ref="429283306"/>
    <nd ref="429283098"/>
    <nd ref="429283035"/>
    <nd ref="429283384"/>
    <tag k="addr:city" v="Зеленоград"/>
    <tag k="addr:country" v="RU"/>
    <tag k="addr:housenumber" v="225А"/>
    <tag k="addr:street" v="2-й микрорайон"/>
    <tag k="building" v="yes"/>
    <tag k="healthcare" v="clinic"/>
    <tag k="name" v="Детская поликлиника №90"/>
  </way>
  <way id="36912013" version="11" timestamp="2012-03-27T11:32:02Z" uid="481934" user="iWowik" changeset="11115472">
    <nd ref="429283384"/>
    <nd ref="983089254"/>
    <nd ref="983089329"/>
    <nd ref="983089284"/>
    <nd ref="983089221"/>
    <nd ref="429283409"/>
    <nd ref="429283048"/>
    <nd ref="1099616914"/>
    <nd ref="429283407"/>
    <nd ref="983089342"/>
    <nd ref="983089296"/>
    <nd ref="983089240"/>
    <nd ref="429283066"/>
    <nd ref="983089215"/>
    <nd ref="983089301"/>
    <nd ref="429283306"/>
    <nd ref="429283098"/>
    <nd ref="429283035"/>
    <nd ref="429283384"/>
    <tag k="addr:city" v="Зеленоград"/>
    <tag k="addr:country" v="RU"/>
    <tag k="addr:housenumber" v="225А"/>
    <tag k="addr:region" v="Москва"/>
    <tag k="addr:street" v="2-й микрорайон"/>
    <tag k="building" v="yes"/>
    <tag k="healthcare" v="clinic"/>
    <tag k="name" v="Детская поликлиника №90"/>
  </way>
  <way id="36912016" version="3" timestamp="2010-11-09T07:39:23Z" uid="115477" user="wowik" changeset="6325744">
    <nd ref="429283265"/>
    <nd ref="429283436"/>
    <nd ref="429283218"/>
    <nd ref="429283214"/>
    <nd ref="429283265"/>
    <tag k="addr:city" v="Зеленоград"/>
    <tag k="addr:street" v="2-й Микрорайон"/>
    <tag k="building" v="yes"/>
    <tag k="is_in" v="Russia"/>
    <tag k="shop" v="convenience"/>
  </way>
  <way id="36912016" version="4" timestamp="2011-06-07T20:50:00Z" uid="133332" user="AMDmi3" changeset="8374030">
    <nd ref="429283265"/>
    <nd ref="429283436"/>
    <nd ref="429283218"/>
    <nd ref="429283214"/>
    <nd ref="429283265"/>
    <tag k="addr:city" v="Зеленоград"/>
    <tag k="addr:street" v="2-й микрорайон"/>
    <tag k="building" v="yes"/>
    <tag k="is_in" v="Russia"/>
    <tag k="shop" v="convenience"/>
  </way>
  <way id="36912016" version="5" timestamp="2011-09-13T10:35:30Z" uid="29320" user="Komяpa" changeset="9288237">
    <nd ref="429283265"/>
    <nd ref="429283436"/>
    <nd ref="429283218"/>
    <nd ref="429283214"/>
    <nd ref="429283265"/>
    <tag k="addr:city" v="Зеленоград"/>
    <tag k="addr:country" v="RU"/>
    <tag k="addr:street" v="2-й микрорайон"/>
    <tag k="building" v="yes"/>
    <tag k="shop" v="convenience"/>
  </way>
  <way id="36912016" version="6" timestamp="2011-10-28T10:34:52Z" uid="481934" user="iWowik" changeset="9675276">
    <nd ref="429283265"/>
    <nd ref="429283436"/>
    <nd ref="429283218"/>
    <nd ref="429283214"/>
    <nd ref="429283265"/>
    <tag k="addr:city" v="Зеленоград"/>
    <tag k="addr:country" v="RU"/>
    <tag k="addr:street" v="2-й Микрорайон"/>
    <tag k="building" v="yes"/>
    <tag k="shop" v="convenience"/>
  </way>
  <way id="36912016" version="7" timestamp="2011-11-14T20:35:49Z" uid="133332" user="AMDmi3" changeset="9828527">
    <nd ref="429283265"/>
    <nd ref="429283436"/>
    <nd ref="429283218"/>
    <nd ref="429283214"/>
    <nd ref="429283265"/>
    <tag k="addr:city" v="Зеленоград"/>
    <tag k="addr:country" v="RU"/>
    <tag k="addr:street" v="2-й микрорайон"/>
    <tag k="building" v="yes"/>
    <tag k="shop" v="convenience"/>
  </way>
  <way id="36912016" version="8" timestamp="2011-12-13T07:16:08Z" uid="126304" user="TarzanASG" changeset="10105192">
    <nd ref="429283265"/>
    <nd ref="429283436"/>
    <nd ref="429283218"/>
    <nd ref="429283214"/>
    <nd ref="429283265"/>
    <tag k="addr:city" v="Зеленоград"/>
    <tag k="addr:country" v="RU"/>
    <tag k="addr:street" v="2-й микрорайон"/>
    <tag k="building" v="retail"/>
    <tag k="shop" v="convenience"/>
  </way>
  <way id="36912016" version="9" timestamp="2011-12-14T07:07:17Z" uid="143266" user="Sergey Astakhov" changeset="10113313">
    <nd ref="429283265"/>
    <nd ref="429283436"/>
    <nd ref="429283218"/>
    <nd ref="429283214"/>
    <nd ref="429283265"/>
    <tag k="addr:city" v="Зеленоград"/>
    <tag k="addr:country" v="RU"/>
    <tag k="addr:street" v="2-й микрорайон"/>
    <tag k="building" v="yes"/>
    <tag k="shop" v="convenience"/>
  </way>
  <way id="36912016" version="10" timestamp="2012-03-27T11:52:52Z" uid="481934" user="iWowik" changeset="11115472">
    <nd ref="429283265"/>
    <nd ref="429283436"/>
    <nd ref="429283218"/>
    <nd ref="429283214"/>
    <nd ref="429283265"/>
    <tag k="addr:city" v="Зеленоград"/>
    <tag k="addr:country" v="RU"/>
    <tag k="addr:region" v="Москва"/>
    <tag k="addr:street" v="2-й микрорайон"/>
    <tag k="building" v="yes"/>
    <tag k="shop" v="convenience"/>
  </way>
  <way id="36912017" version="3" timestamp="2010-11-09T07:39:16Z" uid="115477" user="wowik" changeset="6325744">
    <nd ref="429283253"/>
    <nd ref="429283461"/>
    <nd ref="429283376"/>
    <nd ref="983089224"/>
    <nd ref="983089265"/>
    <nd ref="429283121"/>
    <nd ref="429283253"/>
    <tag k="addr:city" v="Зеленоград"/>
    <tag k="addr:housenumber" v="233А"/>
    <tag k="addr:street" v="2-й Микрорайон"/>
    <tag k="building" v="yes"/>
    <tag k="is_in" v="Russia"/>
    <tag k="landuse" v="service"/>
  </way>
  <way id="36912017" version="4" timestamp="2011-06-07T20:49:59Z" uid="133332" user="AMDmi3" changeset="8374030">
    <nd ref="429283253"/>
    <nd ref="429283461"/>
    <nd ref="429283376"/>
    <nd ref="983089224"/>
    <nd ref="983089265"/>
    <nd ref="429283121"/>
    <nd ref="429283253"/>
    <tag k="addr:city" v="Зеленоград"/>
    <tag k="addr:housenumber" v="233А"/>
    <tag k="addr:street" v="2-й микрорайон"/>
    <tag k="building" v="yes"/>
    <tag k="is_in" v="Russia"/>
    <tag k="landuse" v="service"/>
  </way>
  <way id="36912017" version="5" timestamp="2011-09-13T10:24:54Z" uid="29320" user="Komяpa" changeset="9288237">
    <nd ref="429283253"/>
    <nd ref="429283461"/>
    <nd ref="429283376"/>
    <nd ref="983089224"/>
    <nd ref="983089265"/>
    <nd ref="429283121"/>
    <nd ref="429283253"/>
    <tag k="addr:city" v="Зеленоград"/>
    <tag k="addr:country" v="RU"/>
    <tag k="addr:housenumber" v="233А"/>
    <tag k="addr:street" v="2-й микрорайон"/>
    <tag k="building" v="service"/>
  </way>
  <way id="36912017" version="6" timestamp="2011-10-28T10:34:46Z" uid="481934" user="iWowik" changeset="9675276">
    <nd ref="429283253"/>
    <nd ref="429283461"/>
    <nd ref="429283376"/>
    <nd ref="983089224"/>
    <nd ref="983089265"/>
    <nd ref="429283121"/>
    <nd ref="429283253"/>
    <tag k="addr:city" v="Зеленоград"/>
    <tag k="addr:country" v="RU"/>
    <tag k="addr:housenumber" v="233А"/>
    <tag k="addr:street" v="2-й Микрорайон"/>
    <tag k="building" v="service"/>
  </way>
  <way id="36912017" version="7" timestamp="2011-11-14T20:32:03Z" uid="133332" user="AMDmi3" changeset="9828527">
    <nd ref="429283253"/>
    <nd ref="429283461"/>
    <nd ref="429283376"/>
    <nd ref="983089224"/>
    <nd ref="983089265"/>
    <nd ref="429283121"/>
    <nd ref="429283253"/>
    <tag k="addr:city" v="Зеленоград"/>
    <tag k="addr:country" v="RU"/>
    <tag k="addr:housenumber" v="233А"/>
    <tag k="addr:street" v="2-й микрорайон"/>
    <tag k="building" v="service"/>
  </way>
  <way id="36912017" version="8" timestamp="2012-03-27T11:39:59Z" uid="481934" user="iWowik" changeset="11115472">
    <nd ref="429283253"/>
    <nd ref="429283461"/>
    <nd ref="429283376"/>
    <nd ref="983089224"/>
    <nd ref="983089265"/>
    <nd ref="429283121"/>
    <nd ref="429283253"/>
    <tag k="addr:city" v="Зеленоград"/>
    <tag k="addr:country" v="RU"/>
    <tag k="addr:housenumber" v="233А"/>
    <tag k="addr:region" v="Москва"/>
    <tag k="addr:street" v="2-й микрорайон"/>
    <tag k="building" v="service"/>
  </way>
  <way id="36912018" version="3" timestamp="2010-07-09T11:21:49Z" uid="115477" user="wowik" changeset="5172763">
    <nd ref="429283043"/>
    <nd ref="429283466"/>
    <nd ref="429283133"/>
    <nd ref="429283200"/>
    <nd ref="807798339"/>
    <nd ref="807798340"/>
    <nd ref="807798341"/>
    <nd ref="807798342"/>
    <nd ref="807798343"/>
    <nd ref="807798344"/>
    <nd ref="429283117"/>
    <nd ref="429283181"/>
    <nd ref="429283149"/>
    <nd ref="429283151"/>
    <nd ref="429283043"/>
    <tag k="addr:city" v="Зеленоград"/>
    <tag k="addr:housenumber" v="222А"/>
    <tag k="addr:street" v="2-й Микрорайон"/>
    <tag k="amenity" v="school"/>
    <tag k="building" v="yes"/>
    <tag k="is_in" v="Russia"/>
    <tag k="name" v="Школа №604"/>
  </way>
  <way id="36912018" version="4" timestamp="2010-08-05T11:28:56Z" uid="200618" user="gps-Max" changeset="5407197">
    <nd ref="429283043"/>
    <nd ref="429283466"/>
    <nd ref="429283133"/>
    <nd ref="429283200"/>
    <nd ref="807798339"/>
    <nd ref="807798340"/>
    <nd ref="807798341"/>
    <nd ref="807798342"/>
    <nd ref="807798343"/>
    <nd ref="807798344"/>
    <nd ref="429283117"/>
    <nd ref="429283181"/>
    <nd ref="429283149"/>
    <nd ref="429283151"/>
    <nd ref="429283043"/>
    <tag k="addr:city" v="Зеленоград"/>
    <tag k="addr:housenumber" v="222А"/>
    <tag k="addr:street" v="2-й Микрорайон"/>
    <tag k="amenity" v="school"/>
    <tag k="building" v="yes"/>
    <tag k="is_in" v="Russia"/>
    <tag k="name" v="школа №604"/>
  </way>
  <way id="36912018" version="5" timestamp="2010-08-19T16:09:03Z" uid="200618" user="gps-Max" changeset="5536730">
    <nd ref="429283043"/>
    <nd ref="429283466"/>
    <nd ref="429283133"/>
    <nd ref="429283200"/>
    <nd ref="807798339"/>
    <nd ref="807798340"/>
    <nd ref="807798341"/>
    <nd ref="807798342"/>
    <nd ref="807798343"/>
    <nd ref="807798344"/>
    <nd ref="429283117"/>
    <nd ref="429283181"/>
    <nd ref="429283149"/>
    <nd ref="429283151"/>
    <nd ref="429283043"/>
    <tag k="addr:city" v="Зеленоград"/>
    <tag k="addr:housenumber" v="222А"/>
    <tag k="addr:street" v="2-й Микрорайон"/>
    <tag k="amenity" v="school"/>
    <tag k="building" v="yes"/>
    <tag k="is_in" v="Russia"/>
    <tag k="name" v="Школа №604"/>
  </way>
  <way id="36912018" version="6" timestamp="2010-11-09T08:24:05Z" uid="115477" user="wowik" changeset="6325744">
    <nd ref="429283043"/>
    <nd ref="429283466"/>
    <nd ref="429283133"/>
    <nd ref="429283200"/>
    <nd ref="807798339"/>
    <nd ref="807798340"/>
    <nd ref="807798341"/>
    <nd ref="983105144"/>
    <nd ref="983105280"/>
    <nd ref="807798342"/>
    <nd ref="807798343"/>
    <nd ref="983105024"/>
    <nd ref="983105315"/>
    <nd ref="983105174"/>
    <nd ref="983105030"/>
    <nd ref="807798344"/>
    <nd ref="429283117"/>
    <nd ref="983105307"/>
    <nd ref="983105171"/>
    <nd ref="429283181"/>
    <nd ref="983105062"/>
    <nd ref="983105345"/>
    <nd ref="983105086"/>
    <nd ref="983105218"/>
    <nd ref="429283149"/>
    <nd ref="983105206"/>
    <nd ref="983104973"/>
    <nd ref="429283151"/>
    <nd ref="429283043"/>
    <tag k="addr:city" v="Зеленоград"/>
    <tag k="addr:housenumber" v="222А"/>
    <tag k="addr:street" v="2-й Микрорайон"/>
    <tag k="amenity" v="school"/>
    <tag k="building" v="yes"/>
    <tag k="is_in" v="Russia"/>
    <tag k="name" v="Школа №604"/>
  </way>
  <way id="36912018" version="7" timestamp="2011-06-07T20:50:01Z" uid="133332" user="AMDmi3" changeset="8374030">
    <nd ref="429283043"/>
    <nd ref="429283466"/>
    <nd ref="429283133"/>
    <nd ref="429283200"/>
    <nd ref="807798339"/>
    <nd ref="807798340"/>
    <nd ref="807798341"/>
    <nd ref="983105144"/>
    <nd ref="983105280"/>
    <nd ref="807798342"/>
    <nd ref="807798343"/>
    <nd ref="983105024"/>
    <nd ref="983105315"/>
    <nd ref="983105174"/>
    <nd ref="983105030"/>
    <nd ref="807798344"/>
    <nd ref="429283117"/>
    <nd ref="983105307"/>
    <nd ref="983105171"/>
    <nd ref="429283181"/>
    <nd ref="983105062"/>
    <nd ref="983105345"/>
    <nd ref="983105086"/>
    <nd ref="983105218"/>
    <nd ref="429283149"/>
    <nd ref="983105206"/>
    <nd ref="983104973"/>
    <nd ref="429283151"/>
    <nd ref="429283043"/>
    <tag k="addr:city" v="Зеленоград"/>
    <tag k="addr:housenumber" v="222А"/>
    <tag k="addr:street" v="2-й микрорайон"/>
    <tag k="amenity" v="school"/>
    <tag k="building" v="yes"/>
    <tag k="is_in" v="Russia"/>
    <tag k="name" v="Школа №604"/>
  </way>
  <way id="36912018" version="8" timestamp="2011-09-13T10:31:53Z" uid="29320" user="Komяpa" changeset="9288237">
    <nd ref="429283043"/>
    <nd ref="429283466"/>
    <nd ref="429283133"/>
    <nd ref="429283200"/>
    <nd ref="807798339"/>
    <nd ref="807798340"/>
    <nd ref="807798341"/>
    <nd ref="983105144"/>
    <nd ref="983105280"/>
    <nd ref="807798342"/>
    <nd ref="807798343"/>
    <nd ref="983105024"/>
    <nd ref="983105315"/>
    <nd ref="983105174"/>
    <nd ref="983105030"/>
    <nd ref="807798344"/>
    <nd ref="429283117"/>
    <nd ref="983105307"/>
    <nd ref="983105171"/>
    <nd ref="429283181"/>
    <nd ref="983105062"/>
    <nd ref="983105345"/>
    <nd ref="983105086"/>
    <nd ref="983105218"/>
    <nd ref="429283149"/>
    <nd ref="983105206"/>
    <nd ref="983104973"/>
    <nd ref="429283151"/>
    <nd ref="429283043"/>
    <tag k="addr:city" v="Зеленоград"/>
    <tag k="addr:country" v="RU"/>
    <tag k="addr:housenumber" v="222А"/>
    <tag k="addr:street" v="2-й микрорайон"/>
    <tag k="amenity" v="school"/>
    <tag k="building" v="yes"/>
    <tag k="name" v="Школа №604"/>
  </way>
  <way id="36912018" version="9" timestamp="2011-10-28T10:34:51Z" uid="481934" user="iWowik" changeset="9675276">
    <nd ref="429283043"/>
    <nd ref="429283466"/>
    <nd ref="429283133"/>
    <nd ref="429283200"/>
    <nd ref="807798339"/>
    <nd ref="807798340"/>
    <nd ref="807798341"/>
    <nd ref="983105144"/>
    <nd ref="983105280"/>
    <nd ref="807798342"/>
    <nd ref="807798343"/>
    <nd ref="983105024"/>
    <nd ref="983105315"/>
    <nd ref="983105174"/>
    <nd ref="983105030"/>
    <nd ref="807798344"/>
    <nd ref="429283117"/>
    <nd ref="983105307"/>
    <nd ref="983105171"/>
    <nd ref="429283181"/>
    <nd ref="983105062"/>
    <nd ref="983105345"/>
    <nd ref="983105086"/>
    <nd ref="983105218"/>
    <nd ref="429283149"/>
    <nd ref="983105206"/>
    <nd ref="983104973"/>
    <nd ref="429283151"/>
    <nd ref="429283043"/>
    <tag k="addr:city" v="Зеленоград"/>
    <tag k="addr:country" v="RU"/>
    <tag k="addr:housenumber" v="222А"/>
    <tag k="addr:street" v="2-й Микрорайон"/>
    <tag k="amenity" v="school"/>
    <tag k="building" v="yes"/>
    <tag k="name" v="Школа №604"/>
  </way>
  <way id="36912018" version="10" timestamp="2011-11-14T20:35:06Z" uid="133332" user="AMDmi3" changeset="9828527">
    <nd ref="429283043"/>
    <nd ref="429283466"/>
    <nd ref="429283133"/>
    <nd ref="429283200"/>
    <nd ref="807798339"/>
    <nd ref="807798340"/>
    <nd ref="807798341"/>
    <nd ref="983105144"/>
    <nd ref="983105280"/>
    <nd ref="807798342"/>
    <nd ref="807798343"/>
    <nd ref="983105024"/>
    <nd ref="983105315"/>
    <nd ref="983105174"/>
    <nd ref="983105030"/>
    <nd ref="807798344"/>
    <nd ref="429283117"/>
    <nd ref="983105307"/>
    <nd ref="983105171"/>
    <nd ref="429283181"/>
    <nd ref="983105062"/>
    <nd ref="983105345"/>
    <nd ref="983105086"/>
    <nd ref="983105218"/>
    <nd ref="429283149"/>
    <nd ref="983105206"/>
    <nd ref="983104973"/>
    <nd ref="429283151"/>
    <nd ref="429283043"/>
    <tag k="addr:city" v="Зеленоград"/>
    <tag k="addr:country" v="RU"/>
    <tag k="addr:housenumber" v="222А"/>
    <tag k="addr:street" v="2-й микрорайон"/>
    <tag k="amenity" v="school"/>
    <tag k="building" v="yes"/>
    <tag k="name" v="Школа №604"/>
  </way>
  <way id="36912018" version="11" timestamp="2012-03-27T11:48:26Z" uid="481934" user="iWowik" changeset="11115472">
    <nd ref="429283043"/>
    <nd ref="429283466"/>
    <nd ref="429283133"/>
    <nd ref="429283200"/>
    <nd ref="807798339"/>
    <nd ref="807798340"/>
    <nd ref="807798341"/>
    <nd ref="983105144"/>
    <nd ref="983105280"/>
    <nd ref="807798342"/>
    <nd ref="807798343"/>
    <nd ref="983105024"/>
    <nd ref="983105315"/>
    <nd ref="983105174"/>
    <nd ref="983105030"/>
    <nd ref="807798344"/>
    <nd ref="429283117"/>
    <nd ref="983105307"/>
    <nd ref="983105171"/>
    <nd ref="429283181"/>
    <nd ref="983105062"/>
    <nd ref="983105345"/>
    <nd ref="983105086"/>
    <nd ref="983105218"/>
    <nd ref="429283149"/>
    <nd ref="983105206"/>
    <nd ref="983104973"/>
    <nd ref="429283151"/>
    <nd ref="429283043"/>
    <tag k="addr:city" v="Зеленоград"/>
    <tag k="addr:country" v="RU"/>
    <tag k="addr:housenumber" v="222А"/>
    <tag k="addr:region" v="Москва"/>
    <tag k="addr:street" v="2-й микрорайон"/>
    <tag k="amenity" v="school"/>
    <tag k="building" v="yes"/>
    <tag k="name" v="Школа №604"/>
  </way>
  <way id="36912020" version="3" timestamp="2010-03-01T16:17:13Z" uid="115477" user="wowik" changeset="4009716"/>
  <way id="36912022" version="3" timestamp="2010-11-09T08:24:36Z" uid="115477" user="wowik" changeset="6325744">
    <nd ref="429283361"/>
    <nd ref="983105119"/>
    <nd ref="983105264"/>
    <nd ref="429283095"/>
    <nd ref="983105017"/>
    <nd ref="429283051"/>
    <nd ref="429283197"/>
    <nd ref="983105128"/>
    <nd ref="983105268"/>
    <nd ref="429283426"/>
    <nd ref="429283104"/>
    <nd ref="983105150"/>
    <nd ref="429283412"/>
    <nd ref="429283431"/>
    <nd ref="983105286"/>
    <nd ref="429283174"/>
    <nd ref="429283038"/>
    <nd ref="429283046"/>
    <nd ref="983105004"/>
    <nd ref="429283182"/>
    <nd ref="429283037"/>
    <nd ref="983105318"/>
    <nd ref="429283089"/>
    <nd ref="429283244"/>
    <nd ref="983105033"/>
    <nd ref="429283076"/>
    <nd ref="983105189"/>
    <nd ref="429283359"/>
    <nd ref="429283052"/>
    <nd ref="429283318"/>
    <nd ref="429283082"/>
    <nd ref="429283114"/>
    <nd ref="429283347"/>
    <nd ref="983105327"/>
    <nd ref="983105044"/>
    <nd ref="429283212"/>
    <nd ref="429283039"/>
    <nd ref="429283210"/>
    <nd ref="983105152"/>
    <nd ref="983105346"/>
    <nd ref="983105220"/>
    <nd ref="983105065"/>
    <nd ref="983105091"/>
    <nd ref="983104980"/>
    <nd ref="983105290"/>
    <nd ref="983105010"/>
    <nd ref="429283361"/>
    <tag k="addr:city" v="Зеленоград"/>
    <tag k="addr:housenumber" v="250"/>
    <tag k="addr:street" v="2-й Микрорайон"/>
    <tag k="building" v="yes"/>
    <tag k="is_in" v="Russia"/>
  </way>
  <way id="36912022" version="4" timestamp="2011-06-07T20:50:04Z" uid="133332" user="AMDmi3" changeset="8374030">
    <nd ref="429283361"/>
    <nd ref="983105119"/>
    <nd ref="983105264"/>
    <nd ref="429283095"/>
    <nd ref="983105017"/>
    <nd ref="429283051"/>
    <nd ref="429283197"/>
    <nd ref="983105128"/>
    <nd ref="983105268"/>
    <nd ref="429283426"/>
    <nd ref="429283104"/>
    <nd ref="983105150"/>
    <nd ref="429283412"/>
    <nd ref="429283431"/>
    <nd ref="983105286"/>
    <nd ref="429283174"/>
    <nd ref="429283038"/>
    <nd ref="429283046"/>
    <nd ref="983105004"/>
    <nd ref="429283182"/>
    <nd ref="429283037"/>
    <nd ref="983105318"/>
    <nd ref="429283089"/>
    <nd ref="429283244"/>
    <nd ref="983105033"/>
    <nd ref="429283076"/>
    <nd ref="983105189"/>
    <nd ref="429283359"/>
    <nd ref="429283052"/>
    <nd ref="429283318"/>
    <nd ref="429283082"/>
    <nd ref="429283114"/>
    <nd ref="429283347"/>
    <nd ref="983105327"/>
    <nd ref="983105044"/>
    <nd ref="429283212"/>
    <nd ref="429283039"/>
    <nd ref="429283210"/>
    <nd ref="983105152"/>
    <nd ref="983105346"/>
    <nd ref="983105220"/>
    <nd ref="983105065"/>
    <nd ref="983105091"/>
    <nd ref="983104980"/>
    <nd ref="983105290"/>
    <nd ref="983105010"/>
    <nd ref="429283361"/>
    <tag k="addr:city" v="Зеленоград"/>
    <tag k="addr:housenumber" v="250"/>
    <tag k="addr:street" v="2-й микрорайон"/>
    <tag k="building" v="yes"/>
    <tag k="is_in" v="Russia"/>
  </way>
  <way id="36912022" version="5" timestamp="2011-09-13T10:25:04Z" uid="29320" user="Komяpa" changeset="9288237">
    <nd ref="429283361"/>
    <nd ref="983105119"/>
    <nd ref="983105264"/>
    <nd ref="429283095"/>
    <nd ref="983105017"/>
    <nd ref="429283051"/>
    <nd ref="429283197"/>
    <nd ref="983105128"/>
    <nd ref="983105268"/>
    <nd ref="429283426"/>
    <nd ref="429283104"/>
    <nd ref="983105150"/>
    <nd ref="429283412"/>
    <nd ref="429283431"/>
    <nd ref="983105286"/>
    <nd ref="429283174"/>
    <nd ref="429283038"/>
    <nd ref="429283046"/>
    <nd ref="983105004"/>
    <nd ref="429283182"/>
    <nd ref="429283037"/>
    <nd ref="983105318"/>
    <nd ref="429283089"/>
    <nd ref="429283244"/>
    <nd ref="983105033"/>
    <nd ref="429283076"/>
    <nd ref="983105189"/>
    <nd ref="429283359"/>
    <nd ref="429283052"/>
    <nd ref="429283318"/>
    <nd ref="429283082"/>
    <nd ref="429283114"/>
    <nd ref="429283347"/>
    <nd ref="983105327"/>
    <nd ref="983105044"/>
    <nd ref="429283212"/>
    <nd ref="429283039"/>
    <nd ref="429283210"/>
    <nd ref="983105152"/>
    <nd ref="983105346"/>
    <nd ref="983105220"/>
    <nd ref="983105065"/>
    <nd ref="983105091"/>
    <nd ref="983104980"/>
    <nd ref="983105290"/>
    <nd ref="983105010"/>
    <nd ref="429283361"/>
    <tag k="addr:city" v="Зеленоград"/>
    <tag k="addr:country" v="RU"/>
    <tag k="addr:housenumber" v="250"/>
    <tag k="addr:street" v="2-й микрорайон"/>
    <tag k="building" v="yes"/>
  </way>
  <way id="36912022" version="6" timestamp="2011-10-28T10:34:50Z" uid="481934" user="iWowik" changeset="9675276">
    <nd ref="429283361"/>
    <nd ref="983105119"/>
    <nd ref="983105264"/>
    <nd ref="429283095"/>
    <nd ref="983105017"/>
    <nd ref="429283051"/>
    <nd ref="429283197"/>
    <nd ref="983105128"/>
    <nd ref="983105268"/>
    <nd ref="429283426"/>
    <nd ref="429283104"/>
    <nd ref="983105150"/>
    <nd ref="429283412"/>
    <nd ref="429283431"/>
    <nd ref="983105286"/>
    <nd ref="429283174"/>
    <nd ref="429283038"/>
    <nd ref="429283046"/>
    <nd ref="983105004"/>
    <nd ref="429283182"/>
    <nd ref="429283037"/>
    <nd ref="983105318"/>
    <nd ref="429283089"/>
    <nd ref="429283244"/>
    <nd ref="983105033"/>
    <nd ref="429283076"/>
    <nd ref="983105189"/>
    <nd ref="429283359"/>
    <nd ref="429283052"/>
    <nd ref="429283318"/>
    <nd ref="429283082"/>
    <nd ref="429283114"/>
    <nd ref="429283347"/>
    <nd ref="983105327"/>
    <nd ref="983105044"/>
    <nd ref="429283212"/>
    <nd ref="429283039"/>
    <nd ref="429283210"/>
    <nd ref="983105152"/>
    <nd ref="983105346"/>
    <nd ref="983105220"/>
    <nd ref="983105065"/>
    <nd ref="983105091"/>
    <nd ref="983104980"/>
    <nd ref="983105290"/>
    <nd ref="983105010"/>
    <nd ref="429283361"/>
    <tag k="addr:city" v="Зеленоград"/>
    <tag k="addr:country" v="RU"/>
    <tag k="addr:housenumber" v="250"/>
    <tag k="addr:street" v="2-й Микрорайон"/>
    <tag k="building" v="yes"/>
  </way>
  <way id="36912022" version="7" timestamp="2011-11-14T20:32:11Z" uid="133332" user="AMDmi3" changeset="9828527">
    <nd ref="429283361"/>
    <nd ref="983105119"/>
    <nd ref="983105264"/>
    <nd ref="429283095"/>
    <nd ref="983105017"/>
    <nd ref="429283051"/>
    <nd ref="429283197"/>
    <nd ref="983105128"/>
    <nd ref="983105268"/>
    <nd ref="429283426"/>
    <nd ref="429283104"/>
    <nd ref="983105150"/>
    <nd ref="429283412"/>
    <nd ref="429283431"/>
    <nd ref="983105286"/>
    <nd ref="429283174"/>
    <nd ref="429283038"/>
    <nd ref="429283046"/>
    <nd ref="983105004"/>
    <nd ref="429283182"/>
    <nd ref="429283037"/>
    <nd ref="983105318"/>
    <nd ref="429283089"/>
    <nd ref="429283244"/>
    <nd ref="983105033"/>
    <nd ref="429283076"/>
    <nd ref="983105189"/>
    <nd ref="429283359"/>
    <nd ref="429283052"/>
    <nd ref="429283318"/>
    <nd ref="429283082"/>
    <nd ref="429283114"/>
    <nd ref="429283347"/>
    <nd ref="983105327"/>
    <nd ref="983105044"/>
    <nd ref="429283212"/>
    <nd ref="429283039"/>
    <nd ref="429283210"/>
    <nd ref="983105152"/>
    <nd ref="983105346"/>
    <nd ref="983105220"/>
    <nd ref="983105065"/>
    <nd ref="983105091"/>
    <nd ref="983104980"/>
    <nd ref="983105290"/>
    <nd ref="983105010"/>
    <nd ref="429283361"/>
    <tag k="addr:city" v="Зеленоград"/>
    <tag k="addr:country" v="RU"/>
    <tag k="addr:housenumber" v="250"/>
    <tag k="addr:street" v="2-й микрорайон"/>
    <tag k="building" v="yes"/>
  </way>
  <way id="36912022" version="8" timestamp="2012-03-27T11:40:17Z" uid="481934" user="iWowik" changeset="11115472">
    <nd ref="429283361"/>
    <nd ref="983105119"/>
    <nd ref="983105264"/>
    <nd ref="429283095"/>
    <nd ref="983105017"/>
    <nd ref="429283051"/>
    <nd ref="429283197"/>
    <nd ref="983105128"/>
    <nd ref="983105268"/>
    <nd ref="429283426"/>
    <nd ref="429283104"/>
    <nd ref="983105150"/>
    <nd ref="429283412"/>
    <nd ref="429283431"/>
    <nd ref="983105286"/>
    <nd ref="429283174"/>
    <nd ref="429283038"/>
    <nd ref="429283046"/>
    <nd ref="983105004"/>
    <nd ref="429283182"/>
    <nd ref="429283037"/>
    <nd ref="983105318"/>
    <nd ref="429283089"/>
    <nd ref="429283244"/>
    <nd ref="983105033"/>
    <nd ref="429283076"/>
    <nd ref="983105189"/>
    <nd ref="429283359"/>
    <nd ref="429283052"/>
    <nd ref="429283318"/>
    <nd ref="429283082"/>
    <nd ref="429283114"/>
    <nd ref="429283347"/>
    <nd ref="983105327"/>
    <nd ref="983105044"/>
    <nd ref="429283212"/>
    <nd ref="429283039"/>
    <nd ref="429283210"/>
    <nd ref="983105152"/>
    <nd ref="983105346"/>
    <nd ref="983105220"/>
    <nd ref="983105065"/>
    <nd ref="983105091"/>
    <nd ref="983104980"/>
    <nd ref="983105290"/>
    <nd ref="983105010"/>
    <nd ref="429283361"/>
    <tag k="addr:city" v="Зеленоград"/>
    <tag k="addr:country" v="RU"/>
    <tag k="addr:housenumber" v="250"/>
    <tag k="addr:region" v="Москва"/>
    <tag k="addr:street" v="2-й микрорайон"/>
    <tag k="building" v="yes"/>
  </way>
  <way id="36912023" version="3" timestamp="2010-11-09T07:39:36Z" uid="115477" user="wowik" changeset="6325744">
    <nd ref="429283158"/>
    <nd ref="429283176"/>
    <nd ref="429283119"/>
    <nd ref="429283392"/>
    <nd ref="429283152"/>
    <nd ref="429283150"/>
    <nd ref="429283141"/>
    <nd ref="983089219"/>
    <nd ref="429283094"/>
    <nd ref="983089282"/>
    <nd ref="983089211"/>
    <nd ref="983089299"/>
    <nd ref="983089251"/>
    <nd ref="983089327"/>
    <nd ref="983089272"/>
    <nd ref="983089340"/>
    <nd ref="983089238"/>
    <nd ref="983089294"/>
    <nd ref="983089289"/>
    <nd ref="983089228"/>
    <nd ref="983089315"/>
    <nd ref="429283179"/>
    <nd ref="429283325"/>
    <nd ref="429283272"/>
    <nd ref="429283158"/>
    <tag k="addr:city" v="Зеленоград"/>
    <tag k="addr:housenumber" v="238"/>
    <tag k="addr:street" v="2-й Микрорайон"/>
    <tag k="building" v="yes"/>
    <tag k="is_in" v="Russia"/>
  </way>
  <way id="36912023" version="4" timestamp="2011-06-07T20:50:03Z" uid="133332" user="AMDmi3" changeset="8374030">
    <nd ref="429283158"/>
    <nd ref="429283176"/>
    <nd ref="429283119"/>
    <nd ref="429283392"/>
    <nd ref="429283152"/>
    <nd ref="429283150"/>
    <nd ref="429283141"/>
    <nd ref="983089219"/>
    <nd ref="429283094"/>
    <nd ref="983089282"/>
    <nd ref="983089211"/>
    <nd ref="983089299"/>
    <nd ref="983089251"/>
    <nd ref="983089327"/>
    <nd ref="983089272"/>
    <nd ref="983089340"/>
    <nd ref="983089238"/>
    <nd ref="983089294"/>
    <nd ref="983089289"/>
    <nd ref="983089228"/>
    <nd ref="983089315"/>
    <nd ref="429283179"/>
    <nd ref="429283325"/>
    <nd ref="429283272"/>
    <nd ref="429283158"/>
    <tag k="addr:city" v="Зеленоград"/>
    <tag k="addr:housenumber" v="238"/>
    <tag k="addr:street" v="2-й микрорайон"/>
    <tag k="building" v="yes"/>
    <tag k="is_in" v="Russia"/>
  </way>
  <way id="36912023" version="5" timestamp="2011-09-13T10:24:57Z" uid="29320" user="Komяpa" changeset="9288237">
    <nd ref="429283158"/>
    <nd ref="429283176"/>
    <nd ref="429283119"/>
    <nd ref="429283392"/>
    <nd ref="429283152"/>
    <nd ref="429283150"/>
    <nd ref="429283141"/>
    <nd ref="983089219"/>
    <nd ref="429283094"/>
    <nd ref="983089282"/>
    <nd ref="983089211"/>
    <nd ref="983089299"/>
    <nd ref="983089251"/>
    <nd ref="983089327"/>
    <nd ref="983089272"/>
    <nd ref="983089340"/>
    <nd ref="983089238"/>
    <nd ref="983089294"/>
    <nd ref="983089289"/>
    <nd ref="983089228"/>
    <nd ref="983089315"/>
    <nd ref="429283179"/>
    <nd ref="429283325"/>
    <nd ref="429283272"/>
    <nd ref="429283158"/>
    <tag k="addr:city" v="Зеленоград"/>
    <tag k="addr:country" v="RU"/>
    <tag k="addr:housenumber" v="238"/>
    <tag k="addr:street" v="2-й микрорайон"/>
    <tag k="building" v="yes"/>
  </way>
  <way id="36912023" version="6" timestamp="2011-10-28T10:34:47Z" uid="481934" user="iWowik" changeset="9675276">
    <nd ref="429283158"/>
    <nd ref="429283176"/>
    <nd ref="429283119"/>
    <nd ref="429283392"/>
    <nd ref="429283152"/>
    <nd ref="429283150"/>
    <nd ref="429283141"/>
    <nd ref="983089219"/>
    <nd ref="429283094"/>
    <nd ref="983089282"/>
    <nd ref="983089211"/>
    <nd ref="983089299"/>
    <nd ref="983089251"/>
    <nd ref="983089327"/>
    <nd ref="983089272"/>
    <nd ref="983089340"/>
    <nd ref="983089238"/>
    <nd ref="983089294"/>
    <nd ref="983089289"/>
    <nd ref="983089228"/>
    <nd ref="983089315"/>
    <nd ref="429283179"/>
    <nd ref="429283325"/>
    <nd ref="429283272"/>
    <nd ref="429283158"/>
    <tag k="addr:city" v="Зеленоград"/>
    <tag k="addr:country" v="RU"/>
    <tag k="addr:housenumber" v="238"/>
    <tag k="addr:street" v="2-й Микрорайон"/>
    <tag k="building" v="yes"/>
  </way>
  <way id="36912023" version="7" timestamp="2011-11-14T20:32:05Z" uid="133332" user="AMDmi3" changeset="9828527">
    <nd ref="429283158"/>
    <nd ref="429283176"/>
    <nd ref="429283119"/>
    <nd ref="429283392"/>
    <nd ref="429283152"/>
    <nd ref="429283150"/>
    <nd ref="429283141"/>
    <nd ref="983089219"/>
    <nd ref="429283094"/>
    <nd ref="983089282"/>
    <nd ref="983089211"/>
    <nd ref="983089299"/>
    <nd ref="983089251"/>
    <nd ref="983089327"/>
    <nd ref="983089272"/>
    <nd ref="983089340"/>
    <nd ref="983089238"/>
    <nd ref="983089294"/>
    <nd ref="983089289"/>
    <nd ref="983089228"/>
    <nd ref="983089315"/>
    <nd ref="429283179"/>
    <nd ref="429283325"/>
    <nd ref="429283272"/>
    <nd ref="429283158"/>
    <tag k="addr:city" v="Зеленоград"/>
    <tag k="addr:country" v="RU"/>
    <tag k="addr:housenumber" v="238"/>
    <tag k="addr:street" v="2-й микрорайон"/>
    <tag k="building" v="yes"/>
  </way>
  <way id="36912023" version="8" timestamp="2012-03-27T11:40:02Z" uid="481934" user="iWowik" changeset="11115472">
    <nd ref="429283158"/>
    <nd ref="429283176"/>
    <nd ref="429283119"/>
    <nd ref="429283392"/>
    <nd ref="429283152"/>
    <nd ref="429283150"/>
    <nd ref="429283141"/>
    <nd ref="983089219"/>
    <nd ref="429283094"/>
    <nd ref="983089282"/>
    <nd ref="983089211"/>
    <nd ref="983089299"/>
    <nd ref="983089251"/>
    <nd ref="983089327"/>
    <nd ref="983089272"/>
    <nd ref="983089340"/>
    <nd ref="983089238"/>
    <nd ref="983089294"/>
    <nd ref="983089289"/>
    <nd ref="983089228"/>
    <nd ref="983089315"/>
    <nd ref="429283179"/>
    <nd ref="429283325"/>
    <nd ref="429283272"/>
    <nd ref="429283158"/>
    <tag k="addr:city" v="Зеленоград"/>
    <tag k="addr:country" v="RU"/>
    <tag k="addr:housenumber" v="238"/>
    <tag k="addr:region" v="Москва"/>
    <tag k="addr:street" v="2-й микрорайон"/>
    <tag k="building" v="yes"/>
  </way>
  <way id="36912024" version="3" timestamp="2010-02-11T11:51:54Z" uid="115477" user="wowik" changeset="3847607"/>
  <way id="36912026" version="3" timestamp="2010-01-11T11:50:19Z" uid="115477" user="wowik" changeset="3595229"/>
  <way id="36912027" version="3" timestamp="2010-11-09T07:39:17Z" uid="115477" user="wowik" changeset="6325744">
    <nd ref="429283184"/>
    <nd ref="429283403"/>
    <nd ref="983089291"/>
    <nd ref="983089233"/>
    <nd ref="983089344"/>
    <nd ref="983089338"/>
    <nd ref="983089243"/>
    <nd ref="983089323"/>
    <nd ref="983089280"/>
    <nd ref="983089297"/>
    <nd ref="429283378"/>
    <nd ref="429283128"/>
    <nd ref="429283184"/>
    <tag k="addr:city" v="Зеленоград"/>
    <tag k="addr:housenumber" v="236"/>
    <tag k="addr:street" v="2-й Микрорайон"/>
    <tag k="building" v="yes"/>
    <tag k="is_in" v="Russia"/>
  </way>
  <way id="36912027" version="4" timestamp="2011-06-07T20:49:56Z" uid="133332" user="AMDmi3" changeset="8374030">
    <nd ref="429283184"/>
    <nd ref="429283403"/>
    <nd ref="983089291"/>
    <nd ref="983089233"/>
    <nd ref="983089344"/>
    <nd ref="983089338"/>
    <nd ref="983089243"/>
    <nd ref="983089323"/>
    <nd ref="983089280"/>
    <nd ref="983089297"/>
    <nd ref="429283378"/>
    <nd ref="429283128"/>
    <nd ref="429283184"/>
    <tag k="addr:city" v="Зеленоград"/>
    <tag k="addr:housenumber" v="236"/>
    <tag k="addr:street" v="2-й микрорайон"/>
    <tag k="building" v="yes"/>
    <tag k="is_in" v="Russia"/>
  </way>
  <way id="36912027" version="5" timestamp="2011-09-13T10:24:56Z" uid="29320" user="Komяpa" changeset="9288237">
    <nd ref="429283184"/>
    <nd ref="429283403"/>
    <nd ref="983089291"/>
    <nd ref="983089233"/>
    <nd ref="983089344"/>
    <nd ref="983089338"/>
    <nd ref="983089243"/>
    <nd ref="983089323"/>
    <nd ref="983089280"/>
    <nd ref="983089297"/>
    <nd ref="429283378"/>
    <nd ref="429283128"/>
    <nd ref="429283184"/>
    <tag k="addr:city" v="Зеленоград"/>
    <tag k="addr:country" v="RU"/>
    <tag k="addr:housenumber" v="236"/>
    <tag k="addr:street" v="2-й микрорайон"/>
    <tag k="building" v="yes"/>
  </way>
  <way id="36912027" version="6" timestamp="2011-10-28T10:34:47Z" uid="481934" user="iWowik" changeset="9675276">
    <nd ref="429283184"/>
    <nd ref="429283403"/>
    <nd ref="983089291"/>
    <nd ref="983089233"/>
    <nd ref="983089344"/>
    <nd ref="983089338"/>
    <nd ref="983089243"/>
    <nd ref="983089323"/>
    <nd ref="983089280"/>
    <nd ref="983089297"/>
    <nd ref="429283378"/>
    <nd ref="429283128"/>
    <nd ref="429283184"/>
    <tag k="addr:city" v="Зеленоград"/>
    <tag k="addr:country" v="RU"/>
    <tag k="addr:housenumber" v="236"/>
    <tag k="addr:street" v="2-й Микрорайон"/>
    <tag k="building" v="yes"/>
  </way>
  <way id="36912027" version="7" timestamp="2011-11-14T20:32:04Z" uid="133332" user="AMDmi3" changeset="9828527">
    <nd ref="429283184"/>
    <nd ref="429283403"/>
    <nd ref="983089291"/>
    <nd ref="983089233"/>
    <nd ref="983089344"/>
    <nd ref="983089338"/>
    <nd ref="983089243"/>
    <nd ref="983089323"/>
    <nd ref="983089280"/>
    <nd ref="983089297"/>
    <nd ref="429283378"/>
    <nd ref="429283128"/>
    <nd ref="429283184"/>
    <tag k="addr:city" v="Зеленоград"/>
    <tag k="addr:country" v="RU"/>
    <tag k="addr:housenumber" v="236"/>
    <tag k="addr:street" v="2-й микрорайон"/>
    <tag k="building" v="yes"/>
  </way>
  <way id="36912027" version="8" timestamp="2012-03-27T11:40:00Z" uid="481934" user="iWowik" changeset="11115472">
    <nd ref="429283184"/>
    <nd ref="429283403"/>
    <nd ref="983089291"/>
    <nd ref="983089233"/>
    <nd ref="983089344"/>
    <nd ref="983089338"/>
    <nd ref="983089243"/>
    <nd ref="983089323"/>
    <nd ref="983089280"/>
    <nd ref="983089297"/>
    <nd ref="429283378"/>
    <nd ref="429283128"/>
    <nd ref="429283184"/>
    <tag k="addr:city" v="Зеленоград"/>
    <tag k="addr:country" v="RU"/>
    <tag k="addr:housenumber" v="236"/>
    <tag k="addr:region" v="Москва"/>
    <tag k="addr:street" v="2-й микрорайон"/>
    <tag k="building" v="yes"/>
  </way>
  <way id="36912028" version="3" timestamp="2010-11-09T07:39:14Z" uid="115477" user="wowik" changeset="6325744">
    <nd ref="429283074"/>
    <nd ref="429283155"/>
    <nd ref="983089264"/>
    <nd ref="983089307"/>
    <nd ref="983089281"/>
    <nd ref="983089217"/>
    <nd ref="429283049"/>
    <nd ref="429283169"/>
    <nd ref="429283074"/>
    <tag k="addr:city" v="Зеленоград"/>
    <tag k="addr:housenumber" v="232"/>
    <tag k="addr:street" v="2-й Микрорайон"/>
    <tag k="building" v="yes"/>
    <tag k="is_in" v="Russia"/>
  </way>
  <way id="36912028" version="4" timestamp="2011-06-07T20:49:58Z" uid="133332" user="AMDmi3" changeset="8374030">
    <nd ref="429283074"/>
    <nd ref="429283155"/>
    <nd ref="983089264"/>
    <nd ref="983089307"/>
    <nd ref="983089281"/>
    <nd ref="983089217"/>
    <nd ref="429283049"/>
    <nd ref="429283169"/>
    <nd ref="429283074"/>
    <tag k="addr:city" v="Зеленоград"/>
    <tag k="addr:housenumber" v="232"/>
    <tag k="addr:street" v="2-й микрорайон"/>
    <tag k="building" v="yes"/>
    <tag k="is_in" v="Russia"/>
  </way>
  <way id="36912028" version="5" timestamp="2011-09-13T10:24:54Z" uid="29320" user="Komяpa" changeset="9288237">
    <nd ref="429283074"/>
    <nd ref="429283155"/>
    <nd ref="983089264"/>
    <nd ref="983089307"/>
    <nd ref="983089281"/>
    <nd ref="983089217"/>
    <nd ref="429283049"/>
    <nd ref="429283169"/>
    <nd ref="429283074"/>
    <tag k="addr:city" v="Зеленоград"/>
    <tag k="addr:country" v="RU"/>
    <tag k="addr:housenumber" v="232"/>
    <tag k="addr:street" v="2-й микрорайон"/>
    <tag k="building" v="yes"/>
  </way>
  <way id="36912028" version="6" timestamp="2011-10-28T10:34:46Z" uid="481934" user="iWowik" changeset="9675276">
    <nd ref="429283074"/>
    <nd ref="429283155"/>
    <nd ref="983089264"/>
    <nd ref="983089307"/>
    <nd ref="983089281"/>
    <nd ref="983089217"/>
    <nd ref="429283049"/>
    <nd ref="429283169"/>
    <nd ref="429283074"/>
    <tag k="addr:city" v="Зеленоград"/>
    <tag k="addr:country" v="RU"/>
    <tag k="addr:housenumber" v="232"/>
    <tag k="addr:street" v="2-й Микрорайон"/>
    <tag k="building" v="yes"/>
  </way>
  <way id="36912028" version="7" timestamp="2011-11-14T20:32:03Z" uid="133332" user="AMDmi3" changeset="9828527">
    <nd ref="429283074"/>
    <nd ref="429283155"/>
    <nd ref="983089264"/>
    <nd ref="983089307"/>
    <nd ref="983089281"/>
    <nd ref="983089217"/>
    <nd ref="429283049"/>
    <nd ref="429283169"/>
    <nd ref="429283074"/>
    <tag k="addr:city" v="Зеленоград"/>
    <tag k="addr:country" v="RU"/>
    <tag k="addr:housenumber" v="232"/>
    <tag k="addr:street" v="2-й микрорайон"/>
    <tag k="building" v="yes"/>
  </way>
  <way id="36912028" version="8" timestamp="2012-03-27T11:39:59Z" uid="481934" user="iWowik" changeset="11115472">
    <nd ref="429283074"/>
    <nd ref="429283155"/>
    <nd ref="983089264"/>
    <nd ref="983089307"/>
    <nd ref="983089281"/>
    <nd ref="983089217"/>
    <nd ref="429283049"/>
    <nd ref="429283169"/>
    <nd ref="429283074"/>
    <tag k="addr:city" v="Зеленоград"/>
    <tag k="addr:country" v="RU"/>
    <tag k="addr:housenumber" v="232"/>
    <tag k="addr:region" v="Москва"/>
    <tag k="addr:street" v="2-й микрорайон"/>
    <tag k="building" v="yes"/>
  </way>
  <way id="36912030" version="3" timestamp="2010-11-09T07:39:29Z" uid="115477" user="wowik" changeset="6325744">
    <nd ref="429283406"/>
    <nd ref="429283234"/>
    <nd ref="983089337"/>
    <nd ref="983089267"/>
    <nd ref="983089310"/>
    <nd ref="983089335"/>
    <nd ref="429283113"/>
    <nd ref="983089274"/>
    <nd ref="429283106"/>
    <nd ref="983089318"/>
    <nd ref="983089231"/>
    <nd ref="983089290"/>
    <nd ref="429283406"/>
    <tag k="addr:city" v="Зеленоград"/>
    <tag k="addr:housenumber" v="231"/>
    <tag k="addr:street" v="2-й Микрорайон"/>
    <tag k="building" v="yes"/>
    <tag k="is_in" v="Russia"/>
  </way>
  <way id="36912030" version="4" timestamp="2011-06-07T20:49:59Z" uid="133332" user="AMDmi3" changeset="8374030">
    <nd ref="429283406"/>
    <nd ref="429283234"/>
    <nd ref="983089337"/>
    <nd ref="983089267"/>
    <nd ref="983089310"/>
    <nd ref="983089335"/>
    <nd ref="429283113"/>
    <nd ref="983089274"/>
    <nd ref="429283106"/>
    <nd ref="983089318"/>
    <nd ref="983089231"/>
    <nd ref="983089290"/>
    <nd ref="429283406"/>
    <tag k="addr:city" v="Зеленоград"/>
    <tag k="addr:housenumber" v="231"/>
    <tag k="addr:street" v="2-й микрорайон"/>
    <tag k="building" v="yes"/>
    <tag k="is_in" v="Russia"/>
  </way>
  <way id="36912030" version="5" timestamp="2011-09-13T10:24:54Z" uid="29320" user="Komяpa" changeset="9288237">
    <nd ref="429283406"/>
    <nd ref="429283234"/>
    <nd ref="983089337"/>
    <nd ref="983089267"/>
    <nd ref="983089310"/>
    <nd ref="983089335"/>
    <nd ref="429283113"/>
    <nd ref="983089274"/>
    <nd ref="429283106"/>
    <nd ref="983089318"/>
    <nd ref="983089231"/>
    <nd ref="983089290"/>
    <nd ref="429283406"/>
    <tag k="addr:city" v="Зеленоград"/>
    <tag k="addr:country" v="RU"/>
    <tag k="addr:housenumber" v="231"/>
    <tag k="addr:street" v="2-й микрорайон"/>
    <tag k="building" v="yes"/>
  </way>
  <way id="36912030" version="6" timestamp="2011-10-28T10:34:45Z" uid="481934" user="iWowik" changeset="9675276">
    <nd ref="429283406"/>
    <nd ref="429283234"/>
    <nd ref="983089337"/>
    <nd ref="983089267"/>
    <nd ref="983089310"/>
    <nd ref="983089335"/>
    <nd ref="429283113"/>
    <nd ref="983089274"/>
    <nd ref="429283106"/>
    <nd ref="983089318"/>
    <nd ref="983089231"/>
    <nd ref="983089290"/>
    <nd ref="429283406"/>
    <tag k="addr:city" v="Зеленоград"/>
    <tag k="addr:country" v="RU"/>
    <tag k="addr:housenumber" v="231"/>
    <tag k="addr:street" v="2-й Микрорайон"/>
    <tag k="building" v="yes"/>
  </way>
  <way id="36912030" version="7" timestamp="2011-11-14T20:32:03Z" uid="133332" user="AMDmi3" changeset="9828527">
    <nd ref="429283406"/>
    <nd ref="429283234"/>
    <nd ref="983089337"/>
    <nd ref="983089267"/>
    <nd ref="983089310"/>
    <nd ref="983089335"/>
    <nd ref="429283113"/>
    <nd ref="983089274"/>
    <nd ref="429283106"/>
    <nd ref="983089318"/>
    <nd ref="983089231"/>
    <nd ref="983089290"/>
    <nd ref="429283406"/>
    <tag k="addr:city" v="Зеленоград"/>
    <tag k="addr:country" v="RU"/>
    <tag k="addr:housenumber" v="231"/>
    <tag k="addr:street" v="2-й микрорайон"/>
    <tag k="building" v="yes"/>
  </way>
  <way id="36912030" version="8" timestamp="2012-03-27T11:39:58Z" uid="481934" user="iWowik" changeset="11115472">
    <nd ref="429283406"/>
    <nd ref="429283234"/>
    <nd ref="983089337"/>
    <nd ref="983089267"/>
    <nd ref="983089310"/>
    <nd ref="983089335"/>
    <nd ref="429283113"/>
    <nd ref="983089274"/>
    <nd ref="429283106"/>
    <nd ref="983089318"/>
    <nd ref="983089231"/>
    <nd ref="983089290"/>
    <nd ref="429283406"/>
    <tag k="addr:city" v="Зеленоград"/>
    <tag k="addr:country" v="RU"/>
    <tag k="addr:housenumber" v="231"/>
    <tag k="addr:region" v="Москва"/>
    <tag k="addr:street" v="2-й микрорайон"/>
    <tag k="building" v="yes"/>
  </way>
  <way id="36912031" version="3" timestamp="2010-01-11T11:50:20Z" uid="115477" user="wowik" changeset="3595229"/>
  <way id="36912032" version="4" timestamp="2010-11-09T07:39:20Z" uid="115477" user="wowik" changeset="6325744">
    <nd ref="429283057"/>
    <nd ref="429283167"/>
    <nd ref="429283289"/>
    <nd ref="429283050"/>
    <nd ref="429283247"/>
    <nd ref="983089263"/>
    <nd ref="983089223"/>
    <nd ref="429283312"/>
    <nd ref="429283402"/>
    <nd ref="429283137"/>
    <nd ref="429283171"/>
    <nd ref="429283062"/>
    <nd ref="429283057"/>
    <tag k="addr:city" v="Зеленоград"/>
    <tag k="addr:housenumber" v="234А"/>
    <tag k="addr:street" v="2-й Микрорайон"/>
    <tag k="building" v="yes"/>
    <tag k="is_in" v="Russia"/>
    <tag k="name" v="2-й ТЦ"/>
    <tag k="shop" v="mall"/>
  </way>
  <way id="36912032" version="5" timestamp="2011-06-07T20:49:40Z" uid="133332" user="AMDmi3" changeset="8374030">
    <nd ref="429283057"/>
    <nd ref="429283167"/>
    <nd ref="429283289"/>
    <nd ref="429283050"/>
    <nd ref="429283247"/>
    <nd ref="983089263"/>
    <nd ref="983089223"/>
    <nd ref="429283312"/>
    <nd ref="429283402"/>
    <nd ref="429283137"/>
    <nd ref="429283171"/>
    <nd ref="429283062"/>
    <nd ref="429283057"/>
    <tag k="addr:city" v="Зеленоград"/>
    <tag k="addr:housenumber" v="234А"/>
    <tag k="addr:street" v="2-й микрорайон"/>
    <tag k="building" v="yes"/>
    <tag k="is_in" v="Russia"/>
    <tag k="name" v="2-й ТЦ"/>
    <tag k="shop" v="mall"/>
  </way>
  <way id="36912032" version="6" timestamp="2011-09-13T10:32:39Z" uid="29320" user="Komяpa" changeset="9288237">
    <nd ref="429283057"/>
    <nd ref="429283167"/>
    <nd ref="429283289"/>
    <nd ref="429283050"/>
    <nd ref="429283247"/>
    <nd ref="983089263"/>
    <nd ref="983089223"/>
    <nd ref="429283312"/>
    <nd ref="429283402"/>
    <nd ref="429283137"/>
    <nd ref="429283171"/>
    <nd ref="429283062"/>
    <nd ref="429283057"/>
    <tag k="addr:city" v="Зеленоград"/>
    <tag k="addr:country" v="RU"/>
    <tag k="addr:housenumber" v="234А"/>
    <tag k="addr:street" v="2-й микрорайон"/>
    <tag k="building" v="yes"/>
    <tag k="name" v="2-й ТЦ"/>
    <tag k="shop" v="mall"/>
  </way>
  <way id="36912032" version="7" timestamp="2011-10-28T10:34:52Z" uid="481934" user="iWowik" changeset="9675276">
    <nd ref="429283057"/>
    <nd ref="429283167"/>
    <nd ref="429283289"/>
    <nd ref="429283050"/>
    <nd ref="429283247"/>
    <nd ref="983089263"/>
    <nd ref="983089223"/>
    <nd ref="429283312"/>
    <nd ref="429283402"/>
    <nd ref="429283137"/>
    <nd ref="429283171"/>
    <nd ref="429283062"/>
    <nd ref="429283057"/>
    <tag k="addr:city" v="Зеленоград"/>
    <tag k="addr:country" v="RU"/>
    <tag k="addr:housenumber" v="234А"/>
    <tag k="addr:street" v="2-й Микрорайон"/>
    <tag k="building" v="yes"/>
    <tag k="name" v="2-й ТЦ"/>
    <tag k="shop" v="mall"/>
  </way>
  <way id="36912032" version="8" timestamp="2011-11-14T20:35:45Z" uid="133332" user="AMDmi3" changeset="9828527">
    <nd ref="429283057"/>
    <nd ref="429283167"/>
    <nd ref="429283289"/>
    <nd ref="429283050"/>
    <nd ref="429283247"/>
    <nd ref="983089263"/>
    <nd ref="983089223"/>
    <nd ref="429283312"/>
    <nd ref="429283402"/>
    <nd ref="429283137"/>
    <nd ref="429283171"/>
    <nd ref="429283062"/>
    <nd ref="429283057"/>
    <tag k="addr:city" v="Зеленоград"/>
    <tag k="addr:country" v="RU"/>
    <tag k="addr:housenumber" v="234А"/>
    <tag k="addr:street" v="2-й микрорайон"/>
    <tag k="building" v="yes"/>
    <tag k="name" v="2-й ТЦ"/>
    <tag k="shop" v="mall"/>
  </way>
  <way id="36912032" version="9" timestamp="2011-12-13T07:15:31Z" uid="126304" user="TarzanASG" changeset="10105192">
    <nd ref="429283057"/>
    <nd ref="429283167"/>
    <nd ref="429283289"/>
    <nd ref="429283050"/>
    <nd ref="429283247"/>
    <nd ref="983089263"/>
    <nd ref="983089223"/>
    <nd ref="429283312"/>
    <nd ref="429283402"/>
    <nd ref="429283137"/>
    <nd ref="429283171"/>
    <nd ref="429283062"/>
    <nd ref="429283057"/>
    <tag k="addr:city" v="Зеленоград"/>
    <tag k="addr:country" v="RU"/>
    <tag k="addr:housenumber" v="234А"/>
    <tag k="addr:street" v="2-й микрорайон"/>
    <tag k="building" v="retail"/>
    <tag k="name" v="2-й ТЦ"/>
    <tag k="shop" v="mall"/>
  </way>
  <way id="36912032" version="10" timestamp="2011-12-14T07:05:31Z" uid="143266" user="Sergey Astakhov" changeset="10113313">
    <nd ref="429283057"/>
    <nd ref="429283167"/>
    <nd ref="429283289"/>
    <nd ref="429283050"/>
    <nd ref="429283247"/>
    <nd ref="983089263"/>
    <nd ref="983089223"/>
    <nd ref="429283312"/>
    <nd ref="429283402"/>
    <nd ref="429283137"/>
    <nd ref="429283171"/>
    <nd ref="429283062"/>
    <nd ref="429283057"/>
    <tag k="addr:city" v="Зеленоград"/>
    <tag k="addr:country" v="RU"/>
    <tag k="addr:housenumber" v="234А"/>
    <tag k="addr:street" v="2-й микрорайон"/>
    <tag k="building" v="yes"/>
    <tag k="name" v="2-й ТЦ"/>
    <tag k="shop" v="mall"/>
  </way>
  <way id="36912032" version="11" timestamp="2012-03-27T11:56:37Z" uid="481934" user="iWowik" changeset="11115472">
    <nd ref="429283057"/>
    <nd ref="429283167"/>
    <nd ref="429283289"/>
    <nd ref="429283050"/>
    <nd ref="429283247"/>
    <nd ref="983089263"/>
    <nd ref="983089223"/>
    <nd ref="429283312"/>
    <nd ref="429283402"/>
    <nd ref="429283137"/>
    <nd ref="429283171"/>
    <nd ref="429283062"/>
    <nd ref="429283057"/>
    <tag k="addr:city" v="Зеленоград"/>
    <tag k="addr:country" v="RU"/>
    <tag k="addr:housenumber" v="234А"/>
    <tag k="addr:region" v="Москва"/>
    <tag k="addr:street" v="2-й микрорайон"/>
    <tag k="building" v="yes"/>
    <tag k="name" v="2-й ТЦ"/>
    <tag k="shop" v="mall"/>
  </way>
  <way id="36912726" version="10" timestamp="2010-04-04T01:12:24Z" uid="20587" user="balrog-kun" changeset="4318136">
    <nd ref="429277083"/>
    <nd ref="429272413"/>
    <tag k="bridge" v="yes"/>
    <tag k="highway" v="primary"/>
    <tag k="layer" v="1"/>
    <tag k="name" v="North Powers Boulevard"/>
    <tag k="oneway" v="yes"/>
  </way>
  <way id="36912726" version="11" timestamp="2010-06-02T22:25:06Z" uid="131218" user="Chris CA" changeset="4888352">
    <nd ref="429277083"/>
    <nd ref="429272413"/>
    <tag k="bridge" v="yes"/>
    <tag k="highway" v="primary"/>
    <tag k="layer" v="1"/>
    <tag k="name" v="Powers Boulevard"/>
    <tag k="oneway" v="yes"/>
  </way>
  <way id="36912726" version="12" timestamp="2011-02-10T18:56:30Z" uid="207745" user="NE2" changeset="7248075">
    <nd ref="429277083"/>
    <nd ref="429272413"/>
    <tag k="bridge" v="yes"/>
    <tag k="highway" v="trunk"/>
    <tag k="layer" v="1"/>
    <tag k="name" v="Powers Boulevard"/>
    <tag k="oneway" v="yes"/>
  </way>
  <way id="36912726" version="13" timestamp="2011-03-28T02:49:01Z" uid="207745" user="NE2" changeset="7692640">
    <nd ref="429277083"/>
    <nd ref="429272413"/>
    <tag k="bridge" v="yes"/>
    <tag k="highway" v="trunk"/>
    <tag k="layer" v="1"/>
    <tag k="name" v="Powers Boulevard"/>
    <tag k="oneway" v="yes"/>
    <tag k="ref" v="SH 21"/>
  </way>
  <way id="36912726" version="14" timestamp="2011-06-17T11:39:07Z" uid="207745" user="NE2" changeset="8463816">
    <nd ref="429277083"/>
    <nd ref="429272413"/>
    <tag k="bridge" v="yes"/>
    <tag k="highway" v="trunk"/>
    <tag k="lanes" v="3"/>
    <tag k="layer" v="1"/>
    <tag k="name" v="Powers Boulevard"/>
    <tag k="oneway" v="yes"/>
    <tag k="ref" v="SH 21"/>
  </way>
  <way id="36912001" version="9" timestamp="2012-07-20T15:46:14Z" uid="722137" user="OSMF Redaction Account" changeset="12381662">
    <nd ref="429283195"/>
    <nd ref="429283145"/>
    <nd ref="429283351"/>
    <nd ref="429283148"/>
    <nd ref="429283195"/>
    <tag k="addr:city" v="Зеленоград"/>
    <tag k="addr:country" v="RU"/>
    <tag k="addr:housenumber" v="234"/>
    <tag k="addr:region" v="Москва"/>
    <tag k="addr:street" v="2-й микрорайон"/>
    <tag k="building" v="yes"/>
  </way>
  <way id="36912001" version="10" timestamp="2012-08-28T21:03:20Z" uid="109327" user="OverQuantum" changeset="12898197">
    <nd ref="429283195"/>
    <nd ref="429283145"/>
    <nd ref="429283351"/>
    <nd ref="429283148"/>
    <nd ref="429283195"/>
    <tag k="addr:city" v="Зеленоград"/>
    <tag k="addr:country" v="RU"/>
    <tag k="addr:housenumber" v="234"/>
    <tag k="addr:region" v="Москва"/>
    <tag k="addr:street" v="2-й микрорайон"/>
    <tag k="building" v="yes"/>
    <tag k="building:levels" v="14"/>
  </way>
  <way id="36912003" version="10" timestamp="2012-07-20T15:46:33Z" uid="722137" user="OSMF Redaction Account" changeset="12381662">
    <nd ref="429283333"/>
    <nd ref="429283105"/>
    <nd ref="429283122"/>
    <nd ref="429283096"/>
    <nd ref="429283333"/>
    <tag k="addr:city" v="Зеленоград"/>
    <tag k="addr:country" v="RU"/>
    <tag k="addr:region" v="Москва"/>
    <tag k="addr:street" v="2-й микрорайон"/>
    <tag k="building" v="yes"/>
  </way>
  <way id="36912004" version="9" timestamp="2012-07-20T15:46:09Z" uid="722137" user="OSMF Redaction Account" changeset="12381662">
    <nd ref="429283147"/>
    <nd ref="429283301"/>
    <nd ref="429283294"/>
    <nd ref="429283058"/>
    <nd ref="429283065"/>
    <nd ref="429283059"/>
    <nd ref="429283068"/>
    <nd ref="429283459"/>
    <nd ref="429283099"/>
    <nd ref="429283139"/>
    <nd ref="429283192"/>
    <nd ref="429283204"/>
    <nd ref="429283147"/>
    <tag k="addr:city" v="Зеленоград"/>
    <tag k="addr:country" v="RU"/>
    <tag k="addr:housenumber" v="235"/>
    <tag k="addr:region" v="Москва"/>
    <tag k="addr:street" v="2-й микрорайон"/>
    <tag k="building" v="yes"/>
  </way>
  <way id="36912004" version="10" timestamp="2012-08-06T22:41:59Z" uid="109327" user="OverQuantum" changeset="12639881">
    <nd ref="429283147"/>
    <nd ref="1855059385"/>
    <nd ref="429283301"/>
    <nd ref="1855059334"/>
    <nd ref="429283294"/>
    <nd ref="429283058"/>
    <nd ref="1855059242"/>
    <nd ref="429283065"/>
    <nd ref="1855059239"/>
    <nd ref="429283059"/>
    <nd ref="429283068"/>
    <nd ref="429283459"/>
    <nd ref="429283099"/>
    <nd ref="429283139"/>
    <nd ref="429283192"/>
    <nd ref="429283204"/>
    <nd ref="429283147"/>
    <tag k="addr:city" v="Зеленоград"/>
    <tag k="addr:country" v="RU"/>
    <tag k="addr:housenumber" v="235"/>
    <tag k="addr:region" v="Москва"/>
    <tag k="addr:street" v="2-й микрорайон"/>
    <tag k="building" v="yes"/>
  </way>
  <way id="36912004" version="11" timestamp="2012-08-11T21:48:08Z" uid="109327" user="OverQuantum" changeset="12696290">
    <nd ref="429283147"/>
    <nd ref="1855059385"/>
    <nd ref="429283301"/>
    <nd ref="1855059334"/>
    <nd ref="429283294"/>
    <nd ref="429283058"/>
    <nd ref="1855059242"/>
    <nd ref="429283065"/>
    <nd ref="1855059239"/>
    <nd ref="429283059"/>
    <nd ref="429283068"/>
    <nd ref="429283459"/>
    <nd ref="429283099"/>
    <nd ref="429283139"/>
    <nd ref="429283192"/>
    <nd ref="429283204"/>
    <nd ref="429283147"/>
    <tag k="addr:city" v="Зеленоград"/>
    <tag k="addr:country" v="RU"/>
    <tag k="addr:housenumber" v="235"/>
    <tag k="addr:region" v="Москва"/>
    <tag k="addr:street" v="2-й микрорайон"/>
    <tag k="building" v="yes"/>
    <tag k="building:use" v="residential"/>
  </way>
  <way id="36912008" version="12" timestamp="2012-07-20T15:46:13Z" uid="722137" user="OSMF Redaction Account" changeset="12381662">
    <nd ref="429283061"/>
    <nd ref="429283314"/>
    <nd ref="429283040"/>
    <nd ref="429283093"/>
    <nd ref="429283144"/>
    <nd ref="429283146"/>
    <nd ref="429283363"/>
    <nd ref="429283353"/>
    <nd ref="429283078"/>
    <nd ref="429283404"/>
    <nd ref="429283071"/>
    <nd ref="429283116"/>
    <nd ref="1430425760"/>
    <nd ref="1430425761"/>
    <nd ref="1430425767"/>
    <nd ref="1430425766"/>
    <nd ref="1430425764"/>
    <nd ref="1430425763"/>
    <nd ref="1430425765"/>
    <nd ref="1430425762"/>
    <nd ref="429283061"/>
    <tag k="addr:city" v="Зеленоград"/>
    <tag k="addr:country" v="RU"/>
    <tag k="addr:housenumber" v="222Б"/>
    <tag k="addr:region" v="Москва"/>
    <tag k="addr:street" v="2-й микрорайон"/>
    <tag k="amenity" v="kindergarten"/>
    <tag k="building" v="yes"/>
    <tag k="comment" v="Детский сад №322"/>
    <tag k="name" v="Детский сад №322"/>
  </way>
  <way id="36912008" version="13" timestamp="2012-08-06T22:42:05Z" uid="109327" user="OverQuantum" changeset="12639881">
    <nd ref="429283061"/>
    <nd ref="429283314"/>
    <nd ref="429283040"/>
    <nd ref="429283093"/>
    <nd ref="429283144"/>
    <nd ref="429283146"/>
    <nd ref="429283363"/>
    <nd ref="429283353"/>
    <nd ref="429283078"/>
    <nd ref="429283404"/>
    <nd ref="429283071"/>
    <nd ref="1855059222"/>
    <nd ref="983089249"/>
    <nd ref="429283116"/>
    <nd ref="983089298"/>
    <nd ref="983089321"/>
    <nd ref="429283061"/>
    <tag k="addr:city" v="Зеленоград"/>
    <tag k="addr:country" v="RU"/>
    <tag k="addr:housenumber" v="222Б"/>
    <tag k="addr:region" v="Москва"/>
    <tag k="addr:street" v="2-й микрорайон"/>
    <tag k="amenity" v="kindergarten"/>
    <tag k="building" v="yes"/>
    <tag k="comment" v="Детский сад №322"/>
    <tag k="name" v="Детский сад №322"/>
  </way>
  <way id="36912009" version="12" timestamp="2012-07-20T15:46:30Z" uid="722137" user="OSMF Redaction Account" changeset="12381662">
    <nd ref="429283183"/>
    <nd ref="429283386"/>
    <nd ref="429283102"/>
    <nd ref="429283355"/>
    <nd ref="429283183"/>
    <tag k="addr:city" v="Зеленоград"/>
    <tag k="addr:country" v="RU"/>
    <tag k="addr:housenumber" v="224 с1"/>
    <tag k="addr:region" v="Москва"/>
    <tag k="addr:street" v="2-й микрорайон"/>
    <tag k="building" v="service"/>
  </way>
  <way id="36912012" version="13" timestamp="2012-07-20T15:46:39Z" uid="722137" user="OSMF Redaction Account" changeset="12381662">
    <nd ref="429283202"/>
    <nd ref="429283455"/>
    <nd ref="429283457"/>
    <nd ref="429283125"/>
    <nd ref="429283284"/>
    <nd ref="429283126"/>
    <nd ref="429283422"/>
    <nd ref="429283198"/>
    <nd ref="429283069"/>
    <nd ref="429283447"/>
    <nd ref="429283220"/>
    <nd ref="429283339"/>
    <nd ref="429283209"/>
    <nd ref="429283316"/>
    <nd ref="429283202"/>
    <tag k="addr:city" v="Зеленоград"/>
    <tag k="addr:country" v="RU"/>
    <tag k="addr:housenumber" v="205А"/>
    <tag k="addr:region" v="Москва"/>
    <tag k="addr:street" v="2-й микрорайон"/>
    <tag k="amenity" v="public_building"/>
    <tag k="building" v="yes"/>
    <tag k="name" v="ЦСО"/>
    <tag k="note" v="не надо тень обрисовывать!"/>
  </way>
  <way id="36912012" version="14" timestamp="2012-08-06T22:42:06Z" uid="109327" user="OverQuantum" changeset="12639881">
    <nd ref="429283202"/>
    <nd ref="429283455"/>
    <nd ref="429283457"/>
    <nd ref="429283125"/>
    <nd ref="429283284"/>
    <nd ref="429283126"/>
    <nd ref="429283422"/>
    <nd ref="429283198"/>
    <nd ref="429283069"/>
    <nd ref="429283447"/>
    <nd ref="429283220"/>
    <nd ref="429283339"/>
    <nd ref="429283209"/>
    <nd ref="429283316"/>
    <nd ref="983105137"/>
    <nd ref="983105275"/>
    <nd ref="429283202"/>
    <tag k="addr:city" v="Зеленоград"/>
    <tag k="addr:country" v="RU"/>
    <tag k="addr:housenumber" v="205А"/>
    <tag k="addr:region" v="Москва"/>
    <tag k="addr:street" v="2-й микрорайон"/>
    <tag k="amenity" v="public_building"/>
    <tag k="building" v="yes"/>
    <tag k="name" v="ЦСО"/>
    <tag k="note" v="не надо тень обрисовывать!"/>
  </way>
  <way id="36912013" version="12" timestamp="2012-07-20T15:46:12Z" uid="722137" user="OSMF Redaction Account" changeset="12381662">
    <nd ref="429283384"/>
    <nd ref="429283409"/>
    <nd ref="429283048"/>
    <nd ref="429283407"/>
    <nd ref="429283066"/>
    <nd ref="429283306"/>
    <nd ref="429283098"/>
    <nd ref="429283035"/>
    <nd ref="429283384"/>
    <tag k="addr:city" v="Зеленоград"/>
    <tag k="addr:country" v="RU"/>
    <tag k="addr:housenumber" v="225А"/>
    <tag k="addr:region" v="Москва"/>
    <tag k="addr:street" v="2-й микрорайон"/>
    <tag k="building" v="yes"/>
    <tag k="comment" v="Д/п-ка №90"/>
    <tag k="healthcare" v="clinic"/>
    <tag k="name" v="Детская поликлиника №90"/>
  </way>
  <way id="36912013" version="13" timestamp="2012-08-11T21:48:29Z" uid="109327" user="OverQuantum" changeset="12696290">
    <nd ref="429283384"/>
    <nd ref="429283409"/>
    <nd ref="429283048"/>
    <nd ref="429283407"/>
    <nd ref="429283066"/>
    <nd ref="429283306"/>
    <nd ref="429283098"/>
    <nd ref="429283035"/>
    <nd ref="429283384"/>
    <tag k="addr:city" v="Зеленоград"/>
    <tag k="addr:country" v="RU"/>
    <tag k="addr:housenumber" v="225А"/>
    <tag k="addr:region" v="Москва"/>
    <tag k="addr:street" v="2-й микрорайон"/>
    <tag k="amenity" v="doctors"/>
    <tag k="building" v="yes"/>
    <tag k="comment" v="Д/п-ка №90"/>
    <tag k="healthcare" v="clinic"/>
    <tag k="name" v="Детская поликлиника №90"/>
  </way>
  <way id="36912013" version="14" timestamp="2012-08-23T21:28:25Z" uid="109327" user="OverQuantum" changeset="12838449">
    <nd ref="429283384"/>
    <nd ref="1880038918"/>
    <nd ref="1504105999"/>
    <nd ref="1504105996"/>
    <nd ref="1880038905"/>
    <nd ref="429283409"/>
    <nd ref="429283048"/>
    <nd ref="429283407"/>
    <nd ref="1880038910"/>
    <nd ref="429283066"/>
    <nd ref="1880038911"/>
    <nd ref="1880038916"/>
    <nd ref="429283306"/>
    <nd ref="429283098"/>
    <nd ref="429283035"/>
    <nd ref="429283384"/>
    <tag k="addr:city" v="Зеленоград"/>
    <tag k="addr:country" v="RU"/>
    <tag k="addr:housenumber" v="225А"/>
    <tag k="addr:region" v="Москва"/>
    <tag k="addr:street" v="2-й микрорайон"/>
    <tag k="amenity" v="doctors"/>
    <tag k="building" v="yes"/>
    <tag k="comment" v="Д/п-ка №90"/>
    <tag k="healthcare" v="clinic"/>
    <tag k="name" v="Детская поликлиника №90"/>
  </way>
  <way id="36912013" version="15" timestamp="2012-08-28T21:03:56Z" uid="109327" user="OverQuantum" changeset="12898197">
    <nd ref="429283384"/>
    <nd ref="1880038918"/>
    <nd ref="1504105999"/>
    <nd ref="1504105996"/>
    <nd ref="1880038905"/>
    <nd ref="429283409"/>
    <nd ref="429283048"/>
    <nd ref="429283407"/>
    <nd ref="1880038910"/>
    <nd ref="429283066"/>
    <nd ref="1880038911"/>
    <nd ref="1880038916"/>
    <nd ref="429283306"/>
    <nd ref="429283098"/>
    <nd ref="429283035"/>
    <nd ref="429283384"/>
    <tag k="addr:city" v="Зеленоград"/>
    <tag k="addr:country" v="RU"/>
    <tag k="addr:housenumber" v="225А"/>
    <tag k="addr:region" v="Москва"/>
    <tag k="addr:street" v="2-й микрорайон"/>
    <tag k="amenity" v="doctors"/>
    <tag k="building" v="yes"/>
    <tag k="building:levels" v="3"/>
    <tag k="comment" v="Д/п-ка №90"/>
    <tag k="healthcare" v="clinic"/>
    <tag k="name" v="Детская поликлиника №90"/>
  </way>
  <way id="36912016" version="11" timestamp="2012-07-20T15:46:32Z" uid="722137" user="OSMF Redaction Account" changeset="12381662">
    <nd ref="429283265"/>
    <nd ref="429283436"/>
    <nd ref="429283218"/>
    <nd ref="429283214"/>
    <nd ref="429283265"/>
    <tag k="addr:city" v="Зеленоград"/>
    <tag k="addr:country" v="RU"/>
    <tag k="addr:region" v="Москва"/>
    <tag k="addr:street" v="2-й микрорайон"/>
    <tag k="building" v="yes"/>
  </way>
  <way id="36912016" version="12" timestamp="2012-08-06T22:42:01Z" uid="109327" user="OverQuantum" changeset="12639881">
    <nd ref="429283265"/>
    <nd ref="429283436"/>
    <nd ref="429283218"/>
    <nd ref="429283214"/>
    <nd ref="429283265"/>
    <tag k="addr:city" v="Зеленоград"/>
    <tag k="addr:country" v="RU"/>
    <tag k="addr:region" v="Москва"/>
    <tag k="addr:street" v="2-й микрорайон"/>
    <tag k="building" v="yes"/>
  </way>
  <way id="36912017" version="9" timestamp="2012-07-20T15:46:33Z" uid="722137" user="OSMF Redaction Account" changeset="12381662">
    <nd ref="429283253"/>
    <nd ref="429283461"/>
    <nd ref="429283376"/>
    <nd ref="429283121"/>
    <nd ref="429283253"/>
    <tag k="addr:city" v="Зеленоград"/>
    <tag k="addr:country" v="RU"/>
    <tag k="addr:housenumber" v="233А"/>
    <tag k="addr:region" v="Москва"/>
    <tag k="addr:street" v="2-й микрорайон"/>
    <tag k="building" v="service"/>
  </way>
  <way id="36912017" version="10" timestamp="2012-08-06T22:41:59Z" uid="109327" user="OverQuantum" changeset="12639881">
    <nd ref="429283253"/>
    <nd ref="429283461"/>
    <nd ref="429283376"/>
    <nd ref="429283121"/>
    <nd ref="429283253"/>
    <tag k="addr:city" v="Зеленоград"/>
    <tag k="addr:country" v="RU"/>
    <tag k="addr:housenumber" v="233А"/>
    <tag k="addr:region" v="Москва"/>
    <tag k="addr:street" v="2-й микрорайон"/>
    <tag k="building" v="service"/>
  </way>
  <way id="36912018" version="12" timestamp="2012-07-20T15:46:06Z" uid="722137" user="OSMF Redaction Account" changeset="12381662">
    <nd ref="429283043"/>
    <nd ref="429283466"/>
    <nd ref="429283133"/>
    <nd ref="429283200"/>
    <nd ref="429283117"/>
    <nd ref="429283181"/>
    <nd ref="429283149"/>
    <nd ref="429283151"/>
    <nd ref="429283043"/>
    <tag k="addr:city" v="Зеленоград"/>
    <tag k="addr:country" v="RU"/>
    <tag k="addr:housenumber" v="222А"/>
    <tag k="addr:region" v="Москва"/>
    <tag k="addr:street" v="2-й микрорайон"/>
    <tag k="amenity" v="school"/>
    <tag k="building" v="yes"/>
    <tag k="name" v="Школа №604"/>
  </way>
  <way id="36912018" version="13" timestamp="2012-08-06T22:42:07Z" uid="109327" user="OverQuantum" changeset="12639881">
    <nd ref="429283043"/>
    <nd ref="429283466"/>
    <nd ref="429283133"/>
    <nd ref="1855059320"/>
    <nd ref="1855059295"/>
    <nd ref="429283200"/>
    <nd ref="1855059438"/>
    <nd ref="1855059444"/>
    <nd ref="1855059450"/>
    <nd ref="1855059465"/>
    <nd ref="1855059466"/>
    <nd ref="1855059397"/>
    <nd ref="1855059396"/>
    <nd ref="1855059393"/>
    <nd ref="1855059383"/>
    <nd ref="1855059346"/>
    <nd ref="429283117"/>
    <nd ref="1855059403"/>
    <nd ref="1855059399"/>
    <nd ref="429283181"/>
    <nd ref="429283149"/>
    <nd ref="1855059431"/>
    <nd ref="1855059428"/>
    <nd ref="429283151"/>
    <nd ref="429283043"/>
    <tag k="addr:city" v="Зеленоград"/>
    <tag k="addr:country" v="RU"/>
    <tag k="addr:housenumber" v="222А"/>
    <tag k="addr:region" v="Москва"/>
    <tag k="addr:street" v="2-й микрорайон"/>
    <tag k="amenity" v="school"/>
    <tag k="building" v="yes"/>
    <tag k="name" v="Школа №604"/>
  </way>
  <way id="36912022" version="9" timestamp="2012-07-20T15:45:58Z" uid="722137" user="OSMF Redaction Account" changeset="12381662">
    <nd ref="429283361"/>
    <nd ref="429283095"/>
    <nd ref="429283051"/>
    <nd ref="429283197"/>
    <nd ref="429283426"/>
    <nd ref="429283104"/>
    <nd ref="429283412"/>
    <nd ref="429283431"/>
    <nd ref="429283174"/>
    <nd ref="429283038"/>
    <nd ref="429283046"/>
    <nd ref="429283182"/>
    <nd ref="429283037"/>
    <nd ref="429283089"/>
    <nd ref="429283244"/>
    <nd ref="429283076"/>
    <nd ref="429283359"/>
    <nd ref="429283052"/>
    <nd ref="429283318"/>
    <nd ref="429283082"/>
    <nd ref="429283114"/>
    <nd ref="429283347"/>
    <nd ref="429283212"/>
    <nd ref="429283039"/>
    <nd ref="429283210"/>
    <nd ref="429283361"/>
    <tag k="addr:city" v="Зеленоград"/>
    <tag k="addr:country" v="RU"/>
    <tag k="addr:housenumber" v="250"/>
    <tag k="addr:region" v="Москва"/>
    <tag k="addr:street" v="2-й микрорайон"/>
    <tag k="building" v="yes"/>
  </way>
  <way id="36912022" version="10" timestamp="2012-08-06T22:42:00Z" uid="109327" user="OverQuantum" changeset="12639881">
    <nd ref="429283361"/>
    <nd ref="1855059608"/>
    <nd ref="1855059606"/>
    <nd ref="1855059599"/>
    <nd ref="1855059603"/>
    <nd ref="429283095"/>
    <nd ref="429283051"/>
    <nd ref="429283197"/>
    <nd ref="429283426"/>
    <nd ref="1855059588"/>
    <nd ref="1855059589"/>
    <nd ref="429283104"/>
    <nd ref="1855059587"/>
    <nd ref="1855059586"/>
    <nd ref="429283412"/>
    <nd ref="429283431"/>
    <nd ref="429283174"/>
    <nd ref="1855059583"/>
    <nd ref="1855059581"/>
    <nd ref="1855059580"/>
    <nd ref="1855059579"/>
    <nd ref="429283038"/>
    <nd ref="429283046"/>
    <nd ref="1855059577"/>
    <nd ref="429283182"/>
    <nd ref="429283037"/>
    <nd ref="429283089"/>
    <nd ref="429283244"/>
    <nd ref="1855059574"/>
    <nd ref="429283076"/>
    <nd ref="1855059575"/>
    <nd ref="429283359"/>
    <nd ref="1855059578"/>
    <nd ref="429283052"/>
    <nd ref="429283318"/>
    <nd ref="429283082"/>
    <nd ref="429283114"/>
    <nd ref="429283347"/>
    <nd ref="429283212"/>
    <nd ref="429283039"/>
    <nd ref="429283210"/>
    <nd ref="1855059605"/>
    <nd ref="1855059595"/>
    <nd ref="1855059604"/>
    <nd ref="1855059607"/>
    <nd ref="429283361"/>
    <tag k="addr:city" v="Зеленоград"/>
    <tag k="addr:country" v="RU"/>
    <tag k="addr:housenumber" v="250"/>
    <tag k="addr:region" v="Москва"/>
    <tag k="addr:street" v="2-й микрорайон"/>
    <tag k="building" v="yes"/>
  </way>
  <way id="36912022" version="11" timestamp="2012-08-11T21:48:11Z" uid="109327" user="OverQuantum" changeset="12696290">
    <nd ref="429283361"/>
    <nd ref="1855059608"/>
    <nd ref="1855059606"/>
    <nd ref="1855059599"/>
    <nd ref="1855059603"/>
    <nd ref="429283095"/>
    <nd ref="429283051"/>
    <nd ref="429283197"/>
    <nd ref="429283426"/>
    <nd ref="1855059588"/>
    <nd ref="1855059589"/>
    <nd ref="429283104"/>
    <nd ref="1855059587"/>
    <nd ref="1855059586"/>
    <nd ref="429283412"/>
    <nd ref="429283431"/>
    <nd ref="429283174"/>
    <nd ref="1855059583"/>
    <nd ref="1855059581"/>
    <nd ref="1855059580"/>
    <nd ref="1855059579"/>
    <nd ref="429283038"/>
    <nd ref="429283046"/>
    <nd ref="1855059577"/>
    <nd ref="429283182"/>
    <nd ref="429283037"/>
    <nd ref="429283089"/>
    <nd ref="429283244"/>
    <nd ref="1855059574"/>
    <nd ref="429283076"/>
    <nd ref="1855059575"/>
    <nd ref="429283359"/>
    <nd ref="1855059578"/>
    <nd ref="429283052"/>
    <nd ref="429283318"/>
    <nd ref="429283082"/>
    <nd ref="429283114"/>
    <nd ref="429283347"/>
    <nd ref="429283212"/>
    <nd ref="429283039"/>
    <nd ref="429283210"/>
    <nd ref="1855059605"/>
    <nd ref="1855059595"/>
    <nd ref="1855059604"/>
    <nd ref="1855059607"/>
    <nd ref="429283361"/>
    <tag k="addr:city" v="Зеленоград"/>
    <tag k="addr:country" v="RU"/>
    <tag k="addr:housenumber" v="250"/>
    <tag k="addr:region" v="Москва"/>
    <tag k="addr:street" v="2-й микрорайон"/>
    <tag k="building" v="yes"/>
    <tag k="building:use" v="residential"/>
  </way>
  <way id="36912022" version="12" timestamp="2012-08-17T21:46:08Z" uid="109327" user="OverQuantum" changeset="12767747">
    <nd ref="429283361"/>
    <nd ref="1855059608"/>
    <nd ref="1855059606"/>
    <nd ref="1855059599"/>
    <nd ref="1855059603"/>
    <nd ref="429283095"/>
    <nd ref="429283051"/>
    <nd ref="429283197"/>
    <nd ref="429283426"/>
    <nd ref="1855059588"/>
    <nd ref="1855059589"/>
    <nd ref="429283104"/>
    <nd ref="1855059587"/>
    <nd ref="1855059586"/>
    <nd ref="429283412"/>
    <nd ref="429283431"/>
    <nd ref="429283174"/>
    <nd ref="1855059583"/>
    <nd ref="1855059581"/>
    <nd ref="1855059580"/>
    <nd ref="1855059579"/>
    <nd ref="429283038"/>
    <nd ref="429283046"/>
    <nd ref="1855059577"/>
    <nd ref="429283182"/>
    <nd ref="429283037"/>
    <nd ref="429283089"/>
    <nd ref="429283244"/>
    <nd ref="1855059574"/>
    <nd ref="429283076"/>
    <nd ref="1855059575"/>
    <nd ref="429283359"/>
    <nd ref="1855059578"/>
    <nd ref="429283052"/>
    <nd ref="429283318"/>
    <nd ref="429283082"/>
    <nd ref="429283114"/>
    <nd ref="429283347"/>
    <nd ref="429283212"/>
    <nd ref="429283039"/>
    <nd ref="429283210"/>
    <nd ref="1855059605"/>
    <nd ref="1855059595"/>
    <nd ref="1855059604"/>
    <nd ref="1855059607"/>
    <nd ref="429283361"/>
    <tag k="addr:city" v="Зеленоград"/>
    <tag k="addr:country" v="RU"/>
    <tag k="addr:housenumber" v="250"/>
    <tag k="addr:region" v="Москва"/>
    <tag k="addr:street" v="2-й микрорайон"/>
    <tag k="building" v="yes"/>
    <tag k="building:levels" v="10"/>
    <tag k="building:use" v="residential"/>
  </way>
  <way id="36912023" version="9" timestamp="2012-07-20T15:46:07Z" uid="722137" user="OSMF Redaction Account" changeset="12381662">
    <nd ref="429283158"/>
    <nd ref="429283176"/>
    <nd ref="429283119"/>
    <nd ref="429283392"/>
    <nd ref="429283152"/>
    <nd ref="429283150"/>
    <nd ref="429283141"/>
    <nd ref="429283094"/>
    <nd ref="429283179"/>
    <nd ref="429283325"/>
    <nd ref="429283272"/>
    <nd ref="429283158"/>
    <tag k="addr:city" v="Зеленоград"/>
    <tag k="addr:country" v="RU"/>
    <tag k="addr:housenumber" v="238"/>
    <tag k="addr:region" v="Москва"/>
    <tag k="addr:street" v="2-й микрорайон"/>
    <tag k="building" v="yes"/>
  </way>
  <way id="36912023" version="10" timestamp="2012-08-06T22:41:59Z" uid="109327" user="OverQuantum" changeset="12639881">
    <nd ref="429283158"/>
    <nd ref="429283176"/>
    <nd ref="429283119"/>
    <nd ref="429283392"/>
    <nd ref="429283152"/>
    <nd ref="429283150"/>
    <nd ref="429283141"/>
    <nd ref="1855059446"/>
    <nd ref="1855059464"/>
    <nd ref="1855059448"/>
    <nd ref="1855059442"/>
    <nd ref="1855059452"/>
    <nd ref="1855059440"/>
    <nd ref="429283094"/>
    <nd ref="429283179"/>
    <nd ref="1855059286"/>
    <nd ref="1855059280"/>
    <nd ref="1855059274"/>
    <nd ref="429283325"/>
    <nd ref="1855059272"/>
    <nd ref="429283272"/>
    <nd ref="429283158"/>
    <tag k="addr:city" v="Зеленоград"/>
    <tag k="addr:country" v="RU"/>
    <tag k="addr:housenumber" v="238"/>
    <tag k="addr:region" v="Москва"/>
    <tag k="addr:street" v="2-й микрорайон"/>
    <tag k="building" v="yes"/>
  </way>
  <way id="36912023" version="11" timestamp="2012-08-11T21:48:09Z" uid="109327" user="OverQuantum" changeset="12696290">
    <nd ref="429283158"/>
    <nd ref="429283176"/>
    <nd ref="429283119"/>
    <nd ref="429283392"/>
    <nd ref="429283152"/>
    <nd ref="429283150"/>
    <nd ref="429283141"/>
    <nd ref="1855059446"/>
    <nd ref="1855059464"/>
    <nd ref="1855059448"/>
    <nd ref="1855059442"/>
    <nd ref="1855059452"/>
    <nd ref="1855059440"/>
    <nd ref="429283094"/>
    <nd ref="429283179"/>
    <nd ref="1855059286"/>
    <nd ref="1855059280"/>
    <nd ref="1855059274"/>
    <nd ref="429283325"/>
    <nd ref="1855059272"/>
    <nd ref="429283272"/>
    <nd ref="429283158"/>
    <tag k="addr:city" v="Зеленоград"/>
    <tag k="addr:country" v="RU"/>
    <tag k="addr:housenumber" v="238"/>
    <tag k="addr:region" v="Москва"/>
    <tag k="addr:street" v="2-й микрорайон"/>
    <tag k="building" v="yes"/>
    <tag k="building:use" v="residential"/>
  </way>
  <way id="36912027" version="9" timestamp="2012-07-20T15:46:11Z" uid="722137" user="OSMF Redaction Account" changeset="12381662">
    <nd ref="429283184"/>
    <nd ref="429283403"/>
    <nd ref="429283378"/>
    <nd ref="429283128"/>
    <nd ref="429283184"/>
    <tag k="addr:city" v="Зеленоград"/>
    <tag k="addr:country" v="RU"/>
    <tag k="addr:housenumber" v="236"/>
    <tag k="addr:region" v="Москва"/>
    <tag k="addr:street" v="2-й микрорайон"/>
    <tag k="building" v="yes"/>
  </way>
  <way id="36912027" version="10" timestamp="2012-08-11T21:48:09Z" uid="109327" user="OverQuantum" changeset="12696290">
    <nd ref="429283184"/>
    <nd ref="429283403"/>
    <nd ref="429283378"/>
    <nd ref="429283128"/>
    <nd ref="429283184"/>
    <tag k="addr:city" v="Зеленоград"/>
    <tag k="addr:country" v="RU"/>
    <tag k="addr:housenumber" v="236"/>
    <tag k="addr:region" v="Москва"/>
    <tag k="addr:street" v="2-й микрорайон"/>
    <tag k="building" v="yes"/>
    <tag k="building:use" v="residential"/>
  </way>
  <way id="36912027" version="11" timestamp="2012-08-28T21:03:21Z" uid="109327" user="OverQuantum" changeset="12898197">
    <nd ref="429283184"/>
    <nd ref="429283403"/>
    <nd ref="429283378"/>
    <nd ref="429283128"/>
    <nd ref="429283184"/>
    <tag k="addr:city" v="Зеленоград"/>
    <tag k="addr:country" v="RU"/>
    <tag k="addr:housenumber" v="236"/>
    <tag k="addr:region" v="Москва"/>
    <tag k="addr:street" v="2-й микрорайон"/>
    <tag k="building" v="yes"/>
    <tag k="building:levels" v="10"/>
    <tag k="building:use" v="residential"/>
  </way>
  <way id="36912028" version="9" timestamp="2012-07-20T15:46:08Z" uid="722137" user="OSMF Redaction Account" changeset="12381662">
    <nd ref="429283074"/>
    <nd ref="429283155"/>
    <nd ref="429283049"/>
    <nd ref="429283169"/>
    <nd ref="429283074"/>
    <tag k="addr:city" v="Зеленоград"/>
    <tag k="addr:country" v="RU"/>
    <tag k="addr:housenumber" v="232"/>
    <tag k="addr:region" v="Москва"/>
    <tag k="addr:street" v="2-й микрорайон"/>
    <tag k="building" v="yes"/>
  </way>
  <way id="36912028" version="10" timestamp="2012-08-06T22:41:58Z" uid="109327" user="OverQuantum" changeset="12639881">
    <nd ref="429283074"/>
    <nd ref="429283155"/>
    <nd ref="429283049"/>
    <nd ref="429283169"/>
    <nd ref="429283074"/>
    <tag k="addr:city" v="Зеленоград"/>
    <tag k="addr:country" v="RU"/>
    <tag k="addr:housenumber" v="232"/>
    <tag k="addr:region" v="Москва"/>
    <tag k="addr:street" v="2-й микрорайон"/>
    <tag k="building" v="yes"/>
  </way>
  <way id="36912028" version="11" timestamp="2012-08-11T21:48:08Z" uid="109327" user="OverQuantum" changeset="12696290">
    <nd ref="429283074"/>
    <nd ref="429283155"/>
    <nd ref="429283049"/>
    <nd ref="429283169"/>
    <nd ref="429283074"/>
    <tag k="addr:city" v="Зеленоград"/>
    <tag k="addr:country" v="RU"/>
    <tag k="addr:housenumber" v="232"/>
    <tag k="addr:region" v="Москва"/>
    <tag k="addr:street" v="2-й микрорайон"/>
    <tag k="building" v="yes"/>
    <tag k="building:use" v="residential"/>
  </way>
  <way id="36912028" version="12" timestamp="2012-08-17T21:46:07Z" uid="109327" user="OverQuantum" changeset="12767747">
    <nd ref="429283074"/>
    <nd ref="429283155"/>
    <nd ref="429283049"/>
    <nd ref="429283169"/>
    <nd ref="429283074"/>
    <tag k="addr:city" v="Зеленоград"/>
    <tag k="addr:country" v="RU"/>
    <tag k="addr:housenumber" v="232"/>
    <tag k="addr:region" v="Москва"/>
    <tag k="addr:street" v="2-й микрорайон"/>
    <tag k="building" v="yes"/>
    <tag k="building:levels" v="9"/>
    <tag k="building:use" v="residential"/>
  </way>
  <way id="36912030" version="9" timestamp="2012-07-20T15:46:05Z" uid="722137" user="OSMF Redaction Account" changeset="12381662">
    <nd ref="429283406"/>
    <nd ref="429283234"/>
    <nd ref="429283113"/>
    <nd ref="429283106"/>
    <nd ref="429283406"/>
    <tag k="addr:city" v="Зеленоград"/>
    <tag k="addr:country" v="RU"/>
    <tag k="addr:housenumber" v="231"/>
    <tag k="addr:region" v="Москва"/>
    <tag k="addr:street" v="2-й микрорайон"/>
    <tag k="building" v="yes"/>
  </way>
  <way id="36912030" version="10" timestamp="2012-08-11T21:48:08Z" uid="109327" user="OverQuantum" changeset="12696290">
    <nd ref="429283406"/>
    <nd ref="429283234"/>
    <nd ref="429283113"/>
    <nd ref="429283106"/>
    <nd ref="429283406"/>
    <tag k="addr:city" v="Зеленоград"/>
    <tag k="addr:country" v="RU"/>
    <tag k="addr:housenumber" v="231"/>
    <tag k="addr:region" v="Москва"/>
    <tag k="addr:street" v="2-й микрорайон"/>
    <tag k="building" v="yes"/>
    <tag k="building:use" v="residential"/>
  </way>
  <way id="36912030" version="11" timestamp="2012-08-17T21:46:07Z" uid="109327" user="OverQuantum" changeset="12767747">
    <nd ref="429283406"/>
    <nd ref="429283234"/>
    <nd ref="429283113"/>
    <nd ref="429283106"/>
    <nd ref="429283406"/>
    <tag k="addr:city" v="Зеленоград"/>
    <tag k="addr:country" v="RU"/>
    <tag k="addr:housenumber" v="231"/>
    <tag k="addr:region" v="Москва"/>
    <tag k="addr:street" v="2-й микрорайон"/>
    <tag k="building" v="yes"/>
    <tag k="building:levels" v="9"/>
    <tag k="building:use" v="residential"/>
  </way>
  <way id="36912032" version="12" timestamp="2012-07-20T15:46:07Z" uid="722137" user="OSMF Redaction Account" changeset="12381662">
    <nd ref="429283057"/>
    <nd ref="429283167"/>
    <nd ref="429283289"/>
    <nd ref="429283050"/>
    <nd ref="429283247"/>
    <nd ref="429283312"/>
    <nd ref="429283402"/>
    <nd ref="429283137"/>
    <nd ref="429283171"/>
    <nd ref="429283062"/>
    <nd ref="429283057"/>
    <tag k="addr:city" v="Зеленоград"/>
    <tag k="addr:country" v="RU"/>
    <tag k="addr:housenumber" v="234А"/>
    <tag k="addr:region" v="Москва"/>
    <tag k="addr:street" v="2-й микрорайон"/>
    <tag k="building" v="yes"/>
    <tag k="name" v="2-й ТЦ"/>
    <tag k="shop" v="mall"/>
  </way>
  <way id="36912032" version="13" timestamp="2012-08-06T22:42:07Z" uid="109327" user="OverQuantum" changeset="12639881">
    <nd ref="429283057"/>
    <nd ref="429283167"/>
    <nd ref="1855059395"/>
    <nd ref="1855059401"/>
    <nd ref="429283289"/>
    <nd ref="429283050"/>
    <nd ref="429283247"/>
    <nd ref="1855059427"/>
    <nd ref="1855059425"/>
    <nd ref="429283312"/>
    <nd ref="429283402"/>
    <nd ref="429283137"/>
    <nd ref="429283171"/>
    <nd ref="429283062"/>
    <nd ref="429283057"/>
    <tag k="addr:city" v="Зеленоград"/>
    <tag k="addr:country" v="RU"/>
    <tag k="addr:housenumber" v="234А"/>
    <tag k="addr:region" v="Москва"/>
    <tag k="addr:street" v="2-й микрорайон"/>
    <tag k="building" v="yes"/>
    <tag k="name" v="2-й ТЦ"/>
    <tag k="shop" v="mall"/>
  </way>
  <way id="36912032" version="14" timestamp="2012-08-28T21:04:01Z" uid="109327" user="OverQuantum" changeset="12898197">
    <nd ref="429283057"/>
    <nd ref="429283167"/>
    <nd ref="1855059395"/>
    <nd ref="1855059401"/>
    <nd ref="429283289"/>
    <nd ref="429283050"/>
    <nd ref="429283247"/>
    <nd ref="1855059427"/>
    <nd ref="1855059425"/>
    <nd ref="429283312"/>
    <nd ref="429283402"/>
    <nd ref="429283137"/>
    <nd ref="429283171"/>
    <nd ref="429283062"/>
    <nd ref="429283057"/>
    <tag k="addr:city" v="Зеленоград"/>
    <tag k="addr:country" v="RU"/>
    <tag k="addr:housenumber" v="234А"/>
    <tag k="addr:region" v="Москва"/>
    <tag k="addr:street" v="2-й микрорайон"/>
    <tag k="building" v="yes"/>
    <tag k="building:levels" v="1"/>
    <tag k="name" v="2-й ТЦ"/>
    <tag k="shop" v="mall"/>
  </way>
</osm>
