<?xml version='1.0' encoding='UTF-8'?>
<osm version="0.6" generator="libosmium/2.20.0">
  <way id="36919178" version="3" timestamp="2009-08-24T14:36:31Z" uid="66036" user="h4v" changeset="2245094">
    <nd ref="306227904"/>
    <nd ref="472912906"/>
    <nd ref="29908577"/>
    <nd ref="432555388"/>
    <nd ref="348116482"/>
    <nd ref="81321202"/>
    <nd ref="283382973"/>
    <nd ref="81321203"/>
    <nd ref="81321204"/>
    <tag k="highway" v="secondary"/>
    <tag k="name" v="Zachodnia"/>
    <tag k="oneway" v="yes"/>
  </way>
  <way id="36919178" version="4" timestamp="2010-01-29T22:40:21Z" uid="66036" user="h4v" changeset="3747254">
    <nd ref="306227904"/>
    <nd ref="472912906"/>
    <nd ref="29908577"/>
    <nd ref="348116482"/>
    <nd ref="81321202"/>
    <nd ref="283382973"/>
    <nd ref="81321203"/>
    <nd ref="81321204"/>
    <tag k="highway" v="secondary"/>
    <tag k="name" v="Zachodnia"/>
    <tag k="oneway" v="yes"/>
  </way>
  <way id="36919178" version="5" timestamp="2010-03-12T07:40:24Z" uid="30632" user="antblant" changeset="4104030">
    <nd ref="439845485"/>
    <nd ref="472912906"/>
    <nd ref="29908577"/>
    <nd ref="348116482"/>
    <nd ref="81321202"/>
    <nd ref="283383037"/>
    <nd ref="81321203"/>
    <nd ref="81321204"/>
    <tag k="highway" v="secondary"/>
    <tag k="name" v="Zachodnia"/>
    <tag k="oneway" v="yes"/>
  </way>
  <way id="36919178" version="6" timestamp="2010-03-30T19:28:24Z" uid="66036" user="h4v" changeset="4279928">
    <nd ref="439845485"/>
    <nd ref="472912906"/>
    <nd ref="29908577"/>
    <nd ref="348116482"/>
    <nd ref="81321202"/>
    <nd ref="283383037"/>
    <nd ref="81321203"/>
    <nd ref="678855775"/>
    <tag k="highway" v="secondary"/>
    <tag k="name" v="Zachodnia"/>
    <tag k="oneway" v="yes"/>
  </way>
  <way id="36919178" version="7" timestamp="2010-06-10T23:35:48Z" uid="66036" user="h4v" changeset="4959113">
    <nd ref="439845485"/>
    <nd ref="472912906"/>
    <nd ref="29908577"/>
    <nd ref="348116482"/>
    <nd ref="81321202"/>
    <nd ref="283383037"/>
    <nd ref="768945493"/>
    <nd ref="678855775"/>
    <tag k="highway" v="secondary"/>
    <tag k="name" v="Zachodnia"/>
    <tag k="oneway" v="yes"/>
  </way>
  <way id="36919178" version="8" timestamp="2010-06-11T00:17:11Z" uid="66036" user="h4v" changeset="4959243">
    <nd ref="439845485"/>
    <nd ref="472912906"/>
    <nd ref="29908577"/>
    <nd ref="348116482"/>
    <nd ref="81321202"/>
    <nd ref="768953408"/>
    <nd ref="768953402"/>
    <nd ref="283383037"/>
    <nd ref="768945493"/>
    <nd ref="678855775"/>
    <tag k="highway" v="secondary"/>
    <tag k="name" v="Zachodnia"/>
    <tag k="oneway" v="yes"/>
  </way>
  <way id="36919178" version="9" timestamp="2011-03-04T18:43:12Z" uid="66036" user="h4v" changeset="7456827">
    <nd ref="439845485"/>
    <nd ref="472912906"/>
    <nd ref="29908577"/>
    <nd ref="348116482"/>
    <nd ref="768953408"/>
    <nd ref="283383037"/>
    <nd ref="768945493"/>
    <nd ref="678855775"/>
    <tag k="highway" v="secondary"/>
    <tag k="name" v="Zachodnia"/>
    <tag k="oneway" v="yes"/>
  </way>
  <way id="36919178" version="10" timestamp="2011-03-26T06:17:30Z" uid="338611" user="marek kleciak" changeset="7672306">
    <nd ref="439845485"/>
    <nd ref="472912906"/>
    <nd ref="29908577"/>
    <nd ref="348116482"/>
    <nd ref="768953408"/>
    <nd ref="283383037"/>
    <nd ref="768945493"/>
    <nd ref="1218571974"/>
    <nd ref="678855775"/>
    <tag k="highway" v="secondary"/>
    <tag k="name" v="Zachodnia"/>
    <tag k="oneway" v="yes"/>
  </way>
  <way id="36919178" version="11" timestamp="2011-04-19T16:49:59Z" uid="66036" user="h4v" changeset="7908276">
    <nd ref="472912906"/>
    <nd ref="29908577"/>
    <nd ref="348116482"/>
    <nd ref="768953408"/>
    <nd ref="283383037"/>
    <nd ref="768945493"/>
    <nd ref="1218571974"/>
    <nd ref="678855775"/>
    <tag k="highway" v="secondary"/>
    <tag k="name" v="Zachodnia"/>
    <tag k="oneway" v="yes"/>
  </way>
  <way id="36919178" version="12" timestamp="2011-05-22T17:50:22Z" uid="66036" user="h4v" changeset="8218992">
    <nd ref="472912906"/>
    <nd ref="1296411497"/>
    <nd ref="29908577"/>
    <nd ref="348116482"/>
    <nd ref="1296411438"/>
    <nd ref="768953408"/>
    <nd ref="283383037"/>
    <nd ref="768945493"/>
    <nd ref="1218571974"/>
    <nd ref="678855775"/>
    <tag k="highway" v="secondary"/>
    <tag k="name" v="Zachodnia"/>
    <tag k="oneway" v="yes"/>
  </way>
  <way id="36919178" version="13" timestamp="2011-06-03T23:08:08Z" uid="66036" user="h4v" changeset="8334996">
    <nd ref="472912906"/>
    <nd ref="1296411497"/>
    <nd ref="29908577"/>
    <nd ref="348116482"/>
    <nd ref="1311276351"/>
    <nd ref="1296411438"/>
    <nd ref="768953408"/>
    <nd ref="283383037"/>
    <nd ref="768945493"/>
    <nd ref="1218571974"/>
    <nd ref="678855775"/>
    <tag k="highway" v="secondary"/>
    <tag k="name" v="Zachodnia"/>
    <tag k="oneway" v="yes"/>
  </way>
  <way id="36919178" version="14" timestamp="2011-11-07T10:59:58Z" uid="550531" user="kolodziej" changeset="9763532">
    <nd ref="472912906"/>
    <nd ref="1296411497"/>
    <nd ref="29908577"/>
    <nd ref="348116482"/>
    <nd ref="1311276351"/>
    <nd ref="1296411438"/>
    <nd ref="768953408"/>
    <nd ref="283383037"/>
    <nd ref="768945493"/>
    <nd ref="1218571974"/>
    <nd ref="678855775"/>
    <tag k="highway" v="secondary"/>
    <tag k="name" v="Zachodnia"/>
    <tag k="oneway" v="yes"/>
    <tag k="ref" v="57"/>
  </way>
  <way id="36919178" version="15" timestamp="2011-12-23T22:00:42Z" uid="467703" user="Zbigniew Czernik" changeset="10189871">
    <nd ref="472912906"/>
    <nd ref="1296411497"/>
    <nd ref="29908577"/>
    <nd ref="348116482"/>
    <nd ref="1311276351"/>
    <nd ref="1296411438"/>
    <nd ref="1494115804"/>
    <nd ref="768953408"/>
    <nd ref="283383037"/>
    <nd ref="768945493"/>
    <nd ref="1218571974"/>
    <nd ref="678855775"/>
    <tag k="highway" v="secondary"/>
    <tag k="name" v="Zachodnia"/>
    <tag k="oneway" v="yes"/>
    <tag k="ref" v="57"/>
  </way>
  <way id="36919178" version="16" timestamp="2012-01-02T22:25:26Z" uid="57752" user="Viol8or" changeset="10277029">
    <nd ref="472912906"/>
    <nd ref="1296411497"/>
    <nd ref="29908577"/>
    <nd ref="348116482"/>
    <nd ref="1311276351"/>
    <nd ref="1296411438"/>
    <nd ref="1494115804"/>
    <nd ref="768953408"/>
    <tag k="highway" v="secondary"/>
    <tag k="name" v="Zachodnia"/>
    <tag k="oneway" v="yes"/>
    <tag k="ref" v="57"/>
  </way>
  <way id="36919178" version="17" timestamp="2012-02-22T10:59:56Z" uid="607553" user="Duke83" changeset="10758069">
    <nd ref="472912906"/>
    <nd ref="1296411497"/>
    <nd ref="29908577"/>
    <nd ref="348116482"/>
    <nd ref="1311276351"/>
    <nd ref="1296411438"/>
    <nd ref="1494115804"/>
    <nd ref="1642951607"/>
    <nd ref="768953408"/>
    <tag k="highway" v="secondary"/>
    <tag k="name" v="Zachodnia"/>
    <tag k="oneway" v="yes"/>
    <tag k="ref" v="57"/>
  </way>
  <way id="36919178" version="18" timestamp="2012-02-22T11:02:50Z" uid="607553" user="Duke83" changeset="10758083">
    <nd ref="472912906"/>
    <nd ref="1296411497"/>
    <nd ref="29908577"/>
    <nd ref="348116482"/>
    <nd ref="1311276351"/>
    <nd ref="1296411438"/>
    <nd ref="1494115804"/>
    <nd ref="768953408"/>
    <tag k="highway" v="secondary"/>
    <tag k="name" v="Zachodnia"/>
    <tag k="oneway" v="yes"/>
    <tag k="ref" v="57"/>
  </way>
  <way id="36919178" version="19" timestamp="2012-02-25T11:56:24Z" uid="607553" user="Duke83" changeset="10786841">
    <nd ref="472912906"/>
    <nd ref="1296411497"/>
    <nd ref="29908577"/>
    <nd ref="348116482"/>
    <nd ref="1311276351"/>
    <nd ref="1296411438"/>
    <nd ref="1494115804"/>
    <nd ref="768953408"/>
    <tag k="highway" v="secondary"/>
    <tag k="lanes" v="2"/>
    <tag k="name" v="Zachodnia"/>
    <tag k="oneway" v="yes"/>
    <tag k="ref" v="57"/>
    <tag k="surface" v="asphalt"/>
  </way>
  <way id="36919178" version="20" timestamp="2012-02-25T11:57:36Z" uid="607553" user="Duke83" changeset="10786841">
    <nd ref="472912906"/>
    <nd ref="1296411497"/>
    <nd ref="29908577"/>
    <nd ref="348116482"/>
    <nd ref="1311276351"/>
    <nd ref="1296411438"/>
    <nd ref="1494115804"/>
    <nd ref="768953408"/>
    <tag k="highway" v="secondary"/>
    <tag k="lanes" v="2"/>
    <tag k="maxspeed" v="50"/>
    <tag k="name" v="Zachodnia"/>
    <tag k="oneway" v="yes"/>
    <tag k="ref" v="57"/>
    <tag k="surface" v="asphalt"/>
  </way>
  <way id="36919179" version="4" timestamp="2011-06-10T15:32:35Z" uid="66036" user="h4v" changeset="8398258">
    <nd ref="429353334"/>
    <nd ref="429353335"/>
    <nd ref="429353337"/>
    <nd ref="429353340"/>
    <nd ref="429353334"/>
    <tag k="addr:housenumber" v="49"/>
    <tag k="building" v="yes"/>
  </way>
  <way id="36919180" version="2" timestamp="2011-06-10T15:32:33Z" uid="66036" user="h4v" changeset="8398258">
    <nd ref="429353346"/>
    <nd ref="429353351"/>
    <nd ref="429353352"/>
    <nd ref="429353357"/>
    <nd ref="429353346"/>
    <tag k="addr:housenumber" v="47"/>
    <tag k="building" v="yes"/>
  </way>
  <way id="36919181" version="2" timestamp="2011-06-10T15:50:24Z" uid="66036" user="h4v" changeset="8398402">
    <nd ref="429353362"/>
    <nd ref="429353363"/>
    <nd ref="429353364"/>
    <nd ref="429353365"/>
    <nd ref="429353362"/>
    <tag k="addr:housenumber" v="45"/>
    <tag k="building" v="yes"/>
  </way>
  <way id="36919182" version="3" timestamp="2011-06-10T15:50:25Z" uid="66036" user="h4v" changeset="8398402">
    <nd ref="429353366"/>
    <nd ref="429353367"/>
    <nd ref="1178931627"/>
    <nd ref="1178931635"/>
    <nd ref="429353368"/>
    <nd ref="429353369"/>
    <nd ref="1178931648"/>
    <nd ref="1178931202"/>
    <nd ref="429353366"/>
    <tag k="addr:housenumber" v="12a"/>
    <tag k="building" v="yes"/>
  </way>
  <way id="36919185" version="2" timestamp="2011-06-10T15:50:27Z" uid="66036" user="h4v" changeset="8398402">
    <nd ref="429353378"/>
    <nd ref="429353379"/>
    <nd ref="429353380"/>
    <nd ref="1319044450"/>
    <nd ref="429353381"/>
    <nd ref="429353378"/>
    <tag k="addr:housenumber" v="16"/>
    <tag k="building" v="yes"/>
  </way>
  <way id="36919187" version="2" timestamp="2011-06-10T15:50:23Z" uid="66036" user="h4v" changeset="8398402">
    <nd ref="429353382"/>
    <nd ref="429353383"/>
    <nd ref="429353384"/>
    <nd ref="429353385"/>
    <nd ref="429353382"/>
    <tag k="addr:housenumber" v="2"/>
    <tag k="building" v="yes"/>
  </way>
  <way id="36919188" version="2" timestamp="2011-04-19T16:49:55Z" uid="66036" user="h4v" changeset="7908276">
    <nd ref="429353386"/>
    <nd ref="429353387"/>
    <nd ref="429353388"/>
    <nd ref="429353389"/>
    <nd ref="429353386"/>
    <tag k="addr:housenumber" v="3"/>
    <tag k="building" v="yes"/>
  </way>
  <way id="36919188" version="3" timestamp="2011-06-10T15:32:36Z" uid="66036" user="h4v" changeset="8398258">
    <nd ref="429353386"/>
    <nd ref="429353387"/>
    <nd ref="429353388"/>
    <nd ref="429353389"/>
    <nd ref="429353386"/>
    <tag k="addr:housenumber" v="10"/>
    <tag k="building" v="yes"/>
  </way>
  <way id="36919188" version="4" timestamp="2011-09-15T09:30:30Z" uid="203436" user="rewelator" changeset="9306302">
    <nd ref="429353386"/>
    <nd ref="429353387"/>
    <nd ref="1433282177"/>
    <nd ref="1433282176"/>
    <nd ref="1433282175"/>
    <nd ref="1433282173"/>
    <nd ref="1433282172"/>
    <nd ref="429353388"/>
    <nd ref="429353389"/>
    <nd ref="429353386"/>
    <tag k="addr:housenumber" v="10"/>
    <tag k="building" v="yes"/>
  </way>
  <way id="36919189" version="2" timestamp="2011-06-10T15:32:34Z" uid="66036" user="h4v" changeset="8398258">
    <nd ref="429353390"/>
    <nd ref="429353391"/>
    <nd ref="429353392"/>
    <nd ref="429353393"/>
    <nd ref="429353390"/>
    <tag k="addr:housenumber" v="8"/>
    <tag k="building" v="yes"/>
  </way>
  <way id="36919190" version="2" timestamp="2011-06-10T15:32:33Z" uid="66036" user="h4v" changeset="8398258">
    <nd ref="429353394"/>
    <nd ref="429353395"/>
    <nd ref="429353396"/>
    <nd ref="429353397"/>
    <nd ref="429353394"/>
    <tag k="addr:housenumber" v="6"/>
    <tag k="building" v="yes"/>
  </way>
  <way id="36919191" version="2" timestamp="2011-06-10T15:32:31Z" uid="66036" user="h4v" changeset="8398258">
    <nd ref="429353398"/>
    <nd ref="429353399"/>
    <nd ref="429353400"/>
    <nd ref="429353401"/>
    <nd ref="429353398"/>
    <tag k="addr:housenumber" v="4"/>
    <tag k="building" v="yes"/>
  </way>
  <way id="36919270" version="1" timestamp="2009-06-25T20:29:25Z" uid="24920" user="Schusch" changeset="1626315">
    <nd ref="429354153"/>
    <nd ref="429354149"/>
    <tag k="cables" v="12"/>
    <tag k="name" v="Bürstadt Ltg."/>
    <tag k="note" v="6 x 380 kV, 6 x 220 kV"/>
    <tag k="operator" v="RWE"/>
    <tag k="power" v="line"/>
    <tag k="voltage" v="380000; 220000"/>
  </way>
  <way id="36919270" version="2" timestamp="2009-06-26T19:36:47Z" uid="9581" user="Lobelt" changeset="1644131">
    <nd ref="429354149"/>
    <nd ref="429354153"/>
    <nd ref="429621763"/>
    <nd ref="429621764"/>
    <nd ref="429621765"/>
    <nd ref="429621766"/>
    <nd ref="429621767"/>
    <nd ref="429621768"/>
    <nd ref="429621769"/>
    <nd ref="429621770"/>
    <nd ref="429621771"/>
    <nd ref="429621772"/>
    <nd ref="429621773"/>
    <nd ref="429621774"/>
    <nd ref="429621775"/>
    <nd ref="429621776"/>
    <nd ref="429621777"/>
    <nd ref="429621779"/>
    <nd ref="429621780"/>
    <nd ref="429621782"/>
    <nd ref="429621786"/>
    <nd ref="429621784"/>
    <nd ref="429621785"/>
    <tag k="cables" v="12"/>
    <tag k="name" v="Bürstadt Ltg."/>
    <tag k="note" v="6 x 380 kV, 6 x 220 kV"/>
    <tag k="operator" v="RWE"/>
    <tag k="power" v="line"/>
    <tag k="voltage" v="380000; 220000"/>
  </way>
  <way id="36919270" version="3" timestamp="2010-01-22T00:49:59Z" uid="92274" user="adjuva" changeset="3679725">
    <nd ref="429354149"/>
    <nd ref="429354153"/>
    <nd ref="429621763"/>
    <nd ref="429621764"/>
    <nd ref="429621765"/>
    <nd ref="429621766"/>
    <nd ref="429621767"/>
    <nd ref="429621768"/>
    <nd ref="429621769"/>
    <nd ref="429621770"/>
    <nd ref="429621771"/>
    <nd ref="429621772"/>
    <nd ref="429621773"/>
    <nd ref="429621774"/>
    <nd ref="429621775"/>
    <nd ref="429621776"/>
    <nd ref="429621777"/>
    <nd ref="429621779"/>
    <nd ref="429621780"/>
    <nd ref="429621782"/>
    <nd ref="429621786"/>
    <nd ref="429621784"/>
    <nd ref="429621785"/>
    <tag k="cables" v="12"/>
    <tag k="name" v="Bürstadt Ltg."/>
    <tag k="note" v="6 x 380 kV, 6 x 220 kV"/>
    <tag k="operator" v="RWE"/>
    <tag k="power" v="line"/>
    <tag k="voltage" v="380000;220000"/>
  </way>
  <way id="36919270" version="4" timestamp="2010-04-25T02:06:19Z" uid="248142" user="Bahnpirat" changeset="4517316">
    <nd ref="429354149"/>
    <nd ref="429354153"/>
    <nd ref="429621763"/>
    <nd ref="429621764"/>
    <nd ref="429621765"/>
    <nd ref="429621766"/>
    <nd ref="429621767"/>
    <nd ref="429621768"/>
    <nd ref="429621769"/>
    <nd ref="429621770"/>
    <nd ref="429621771"/>
    <nd ref="429621772"/>
    <nd ref="429621773"/>
    <nd ref="429621774"/>
    <nd ref="429621775"/>
    <nd ref="429621776"/>
    <nd ref="429621777"/>
    <nd ref="429621779"/>
    <nd ref="429621780"/>
    <nd ref="429621782"/>
    <nd ref="429621786"/>
    <tag k="cables" v="12"/>
    <tag k="name" v="Bürstadt Ltg."/>
    <tag k="note" v="6 x 380 kV, 6 x 220 kV"/>
    <tag k="operator" v="RWE"/>
    <tag k="power" v="line"/>
    <tag k="voltage" v="380000;220000"/>
  </way>
  <way id="36919270" version="5" timestamp="2011-07-04T01:52:28Z" uid="92274" user="adjuva" changeset="8625327">
    <nd ref="429354149"/>
    <nd ref="429354153"/>
    <nd ref="429621763"/>
    <nd ref="429621764"/>
    <nd ref="429621765"/>
    <nd ref="429621766"/>
    <nd ref="429621767"/>
    <nd ref="429621768"/>
    <nd ref="429621769"/>
    <nd ref="429621770"/>
    <nd ref="429621771"/>
    <nd ref="429621772"/>
    <nd ref="429621773"/>
    <nd ref="429621774"/>
    <nd ref="429621775"/>
    <nd ref="429621776"/>
    <nd ref="429621777"/>
    <nd ref="429621779"/>
    <nd ref="429621780"/>
    <nd ref="429621782"/>
    <nd ref="429621786"/>
    <tag k="cables" v="12"/>
    <tag k="frequency" v="50"/>
    <tag k="name" v="Bürstadt Ltg."/>
    <tag k="note" v="6 x 380 kV, 6 x 220 kV"/>
    <tag k="operator" v="RWE"/>
    <tag k="power" v="line"/>
    <tag k="voltage" v="380000;220000"/>
    <tag k="wires" v="quad;double"/>
  </way>
  <way id="36919270" version="6" timestamp="2011-09-03T06:23:35Z" uid="92274" user="adjuva" changeset="9198186">
    <nd ref="429354149"/>
    <nd ref="429354153"/>
    <nd ref="429621763"/>
    <nd ref="429621764"/>
    <nd ref="429621765"/>
    <nd ref="429621766"/>
    <nd ref="429621767"/>
    <nd ref="429621768"/>
    <nd ref="429621769"/>
    <nd ref="429621770"/>
    <nd ref="429621771"/>
    <nd ref="429621772"/>
    <nd ref="429621773"/>
    <nd ref="429621774"/>
    <nd ref="429621775"/>
    <nd ref="429621776"/>
    <nd ref="429621777"/>
    <nd ref="429621779"/>
    <nd ref="429621780"/>
    <nd ref="429621782"/>
    <nd ref="429621786"/>
    <tag k="cables" v="12"/>
    <tag k="frequency" v="50"/>
    <tag k="name" v="380 kV Bürstadt Ltg.; 220 kV Anilin 3c|4d; Roxheim Nord"/>
    <tag k="note" v="3*quad*380 kV; 3*quad*220 kV;6*double*220 kV"/>
    <tag k="operator" v="RWE"/>
    <tag k="power" v="line"/>
    <tag k="ref" v="4542"/>
    <tag k="voltage" v="380000;220000"/>
    <tag k="wires" v="quad;double"/>
  </way>
  <way id="36919270" version="7" timestamp="2012-02-12T06:17:01Z" uid="92274" user="adjuva" changeset="10659867">
    <nd ref="429354149"/>
    <nd ref="429354153"/>
    <nd ref="429621763"/>
    <nd ref="429621764"/>
    <nd ref="429621765"/>
    <nd ref="429621766"/>
    <nd ref="429621767"/>
    <nd ref="429621768"/>
    <nd ref="429621769"/>
    <nd ref="429621770"/>
    <nd ref="429621771"/>
    <nd ref="429621772"/>
    <nd ref="429621773"/>
    <nd ref="429621774"/>
    <nd ref="429621775"/>
    <nd ref="429621776"/>
    <nd ref="429621777"/>
    <nd ref="429621779"/>
    <nd ref="429621780"/>
    <nd ref="429621782"/>
    <nd ref="1629272856"/>
    <tag k="cables" v="12"/>
    <tag k="frequency" v="50"/>
    <tag k="name" v="380 kV Bürstadt Ltg.; 220 kV Anilin 3c|4d; Roxheim Nord"/>
    <tag k="note" v="3*quad*380 kV; 3*quad*220 kV;6*double*220 kV"/>
    <tag k="operator" v="RWE"/>
    <tag k="power" v="line"/>
    <tag k="ref" v="4542"/>
    <tag k="voltage" v="380000;220000"/>
    <tag k="wires" v="quad;double"/>
  </way>
  <way id="36919270" version="8" timestamp="2012-03-03T00:03:36Z" uid="92274" user="adjuva" changeset="10853697"/>
  <way id="36919271" version="1" timestamp="2009-06-25T20:29:25Z" uid="24920" user="Schusch" changeset="1626315">
    <nd ref="429354149"/>
    <nd ref="429354152"/>
    <tag k="cables" v="12"/>
    <tag k="operator" v="RWE"/>
    <tag k="power" v="line"/>
    <tag k="voltage" v="220000"/>
  </way>
  <way id="36919271" version="2" timestamp="2009-06-26T19:36:47Z" uid="9581" user="Lobelt" changeset="1644131">
    <nd ref="429354149"/>
    <nd ref="429354152"/>
    <nd ref="429621840"/>
    <nd ref="429621842"/>
    <nd ref="429621843"/>
    <nd ref="429621844"/>
    <nd ref="429621845"/>
    <nd ref="429621846"/>
    <nd ref="429621847"/>
    <nd ref="429621848"/>
    <nd ref="429621849"/>
    <nd ref="429621850"/>
    <nd ref="429621851"/>
    <nd ref="429621852"/>
    <nd ref="429621853"/>
    <nd ref="429621854"/>
    <nd ref="429621855"/>
    <nd ref="429621856"/>
    <tag k="cables" v="12"/>
    <tag k="operator" v="RWE"/>
    <tag k="power" v="line"/>
    <tag k="voltage" v="220000"/>
  </way>
  <way id="36919271" version="3" timestamp="2010-06-02T20:38:52Z" uid="263596" user="Oberförster" changeset="4887613">
    <nd ref="429354149"/>
    <nd ref="429354152"/>
    <nd ref="429621840"/>
    <nd ref="429621842"/>
    <nd ref="429621843"/>
    <nd ref="429621844"/>
    <nd ref="429621845"/>
    <nd ref="429621846"/>
    <nd ref="429621847"/>
    <nd ref="429621848"/>
    <nd ref="429621849"/>
    <nd ref="429621850"/>
    <nd ref="429621851"/>
    <nd ref="429621852"/>
    <nd ref="429621853"/>
    <nd ref="429621854"/>
    <nd ref="429621855"/>
    <nd ref="429621856"/>
    <tag k="cables" v="12"/>
    <tag k="name" v="220 kV (380 kV)"/>
    <tag k="operator" v="RWE"/>
    <tag k="power" v="line"/>
    <tag k="voltage" v="220000"/>
  </way>
  <way id="36919271" version="4" timestamp="2011-05-04T19:51:30Z" uid="239033" user="fabian18" changeset="8052071">
    <nd ref="429354149"/>
    <nd ref="429354152"/>
    <nd ref="429621840"/>
    <nd ref="429621842"/>
    <nd ref="429621843"/>
    <nd ref="429621844"/>
    <nd ref="429621845"/>
    <nd ref="429621846"/>
    <nd ref="429621847"/>
    <nd ref="429621848"/>
    <nd ref="429621849"/>
    <nd ref="429621850"/>
    <nd ref="429621851"/>
    <nd ref="429621852"/>
    <nd ref="429621853"/>
    <nd ref="429621854"/>
    <nd ref="429621855"/>
    <nd ref="429621856"/>
    <tag k="cables" v="12"/>
    <tag k="name" v="220 kV (380 kV)"/>
    <tag k="operator" v="RWE"/>
    <tag k="power" v="line"/>
    <tag k="voltage" v="220000"/>
    <tag k="wires" v="double"/>
  </way>
  <way id="36919271" version="5" timestamp="2011-07-04T01:52:25Z" uid="92274" user="adjuva" changeset="8625327">
    <nd ref="429354149"/>
    <nd ref="429354152"/>
    <nd ref="429621840"/>
    <nd ref="429621842"/>
    <nd ref="429621843"/>
    <nd ref="429621844"/>
    <nd ref="429621845"/>
    <nd ref="429621846"/>
    <nd ref="429621847"/>
    <nd ref="429621848"/>
    <nd ref="429621849"/>
    <nd ref="429621850"/>
    <nd ref="429621851"/>
    <nd ref="429621852"/>
    <nd ref="429621853"/>
    <nd ref="429621854"/>
    <tag k="cables" v="12"/>
    <tag k="frequency" v="50"/>
    <tag k="operator" v="RWE"/>
    <tag k="power" v="line"/>
    <tag k="voltage" v="220000"/>
    <tag k="wires" v="double"/>
  </way>
  <way id="36919271" version="6" timestamp="2012-03-03T00:03:36Z" uid="92274" user="adjuva" changeset="10853697"/>
  <way id="36919272" version="1" timestamp="2009-06-25T20:29:26Z" uid="24920" user="Schusch" changeset="1626315">
    <nd ref="429354159"/>
    <nd ref="429354155"/>
    <nd ref="429354157"/>
    <tag k="cables" v="6"/>
    <tag k="name" v="Anilin 1A; Anilin 2B"/>
    <tag k="operator" v="RWE"/>
    <tag k="power" v="line"/>
    <tag k="voltage" v="220000"/>
  </way>
  <way id="36919272" version="2" timestamp="2009-06-26T19:36:47Z" uid="9581" user="Lobelt" changeset="1644131">
    <nd ref="429621791"/>
    <nd ref="429621792"/>
    <nd ref="429621793"/>
    <nd ref="429621794"/>
    <nd ref="429621795"/>
    <nd ref="429621796"/>
    <nd ref="429621797"/>
    <nd ref="429621798"/>
    <nd ref="429621799"/>
    <nd ref="429621800"/>
    <nd ref="429621801"/>
    <nd ref="429621802"/>
    <nd ref="429621803"/>
    <nd ref="429621804"/>
    <nd ref="429621805"/>
    <nd ref="429621806"/>
    <nd ref="429621807"/>
    <nd ref="429621808"/>
    <nd ref="429621809"/>
    <nd ref="429621810"/>
    <nd ref="429621811"/>
    <nd ref="429621812"/>
    <nd ref="429621813"/>
    <nd ref="429621814"/>
    <nd ref="429621815"/>
    <nd ref="429621816"/>
    <nd ref="429621817"/>
    <nd ref="429621818"/>
    <nd ref="429621819"/>
    <nd ref="429354159"/>
    <nd ref="429354155"/>
    <nd ref="429354157"/>
    <nd ref="429621820"/>
    <nd ref="429621821"/>
    <nd ref="429621822"/>
    <nd ref="429621823"/>
    <nd ref="429621824"/>
    <nd ref="429621825"/>
    <nd ref="429621826"/>
    <nd ref="429621827"/>
    <nd ref="429621828"/>
    <nd ref="429621829"/>
    <nd ref="429621830"/>
    <nd ref="429621831"/>
    <nd ref="429621832"/>
    <nd ref="429621833"/>
    <nd ref="429621834"/>
    <nd ref="429621835"/>
    <nd ref="429621836"/>
    <nd ref="429621838"/>
    <nd ref="429621839"/>
    <tag k="cables" v="6"/>
    <tag k="name" v="Anilin 1A; Anilin 2B"/>
    <tag k="operator" v="RWE"/>
    <tag k="power" v="line"/>
    <tag k="voltage" v="220000"/>
  </way>
  <way id="36919272" version="3" timestamp="2010-04-25T02:06:36Z" uid="248142" user="Bahnpirat" changeset="4517316">
    <nd ref="429621791"/>
    <nd ref="705706657"/>
    <nd ref="429621792"/>
    <nd ref="429621793"/>
    <nd ref="429621794"/>
    <nd ref="429621795"/>
    <nd ref="429621796"/>
    <nd ref="429621797"/>
    <nd ref="429621798"/>
    <nd ref="429621799"/>
    <nd ref="429621800"/>
    <nd ref="429621801"/>
    <nd ref="429621802"/>
    <nd ref="429621803"/>
    <nd ref="429621804"/>
    <nd ref="429621805"/>
    <nd ref="429621806"/>
    <nd ref="429621807"/>
    <nd ref="429621808"/>
    <nd ref="429621809"/>
    <nd ref="429621810"/>
    <nd ref="429621811"/>
    <nd ref="429621812"/>
    <nd ref="429621813"/>
    <nd ref="429621814"/>
    <nd ref="429621815"/>
    <nd ref="429621816"/>
    <nd ref="429621817"/>
    <nd ref="429621818"/>
    <nd ref="429621819"/>
    <nd ref="429354159"/>
    <nd ref="429354155"/>
    <nd ref="429354157"/>
    <nd ref="429621820"/>
    <nd ref="429621821"/>
    <nd ref="429621822"/>
    <nd ref="429621823"/>
    <nd ref="429621824"/>
    <nd ref="429621825"/>
    <nd ref="429621826"/>
    <nd ref="429621827"/>
    <nd ref="429621828"/>
    <nd ref="429621829"/>
    <nd ref="429621830"/>
    <nd ref="429621831"/>
    <nd ref="429621832"/>
    <nd ref="429621833"/>
    <nd ref="429621834"/>
    <nd ref="429621835"/>
    <nd ref="429621836"/>
    <nd ref="429621838"/>
    <nd ref="429621839"/>
    <tag k="cables" v="6"/>
    <tag k="frequency" v="50"/>
    <tag k="name" v="Anilin 1A; Anilin 2B"/>
    <tag k="operator" v="RWE"/>
    <tag k="power" v="line"/>
    <tag k="voltage" v="220000"/>
  </way>
  <way id="36919272" version="4" timestamp="2010-04-25T02:42:25Z" uid="13203" user="bahnpirat" changeset="4517363">
    <nd ref="429621791"/>
    <nd ref="705718126"/>
    <nd ref="705706657"/>
    <nd ref="429621792"/>
    <nd ref="429621793"/>
    <nd ref="429621794"/>
    <nd ref="429621795"/>
    <nd ref="429621796"/>
    <nd ref="429621797"/>
    <nd ref="429621798"/>
    <nd ref="429621799"/>
    <nd ref="429621800"/>
    <nd ref="429621801"/>
    <nd ref="429621802"/>
    <nd ref="429621803"/>
    <nd ref="429621804"/>
    <nd ref="429621805"/>
    <nd ref="429621806"/>
    <nd ref="429621807"/>
    <nd ref="429621808"/>
    <nd ref="429621809"/>
    <nd ref="429621810"/>
    <nd ref="429621811"/>
    <nd ref="429621812"/>
    <nd ref="429621813"/>
    <nd ref="429621814"/>
    <nd ref="429621815"/>
    <nd ref="429621816"/>
    <nd ref="429621817"/>
    <nd ref="429621818"/>
    <nd ref="429621819"/>
    <nd ref="429354159"/>
    <nd ref="429354155"/>
    <nd ref="429354157"/>
    <nd ref="429621820"/>
    <nd ref="429621821"/>
    <nd ref="429621822"/>
    <nd ref="429621823"/>
    <nd ref="429621824"/>
    <nd ref="429621825"/>
    <nd ref="429621826"/>
    <nd ref="429621827"/>
    <nd ref="429621828"/>
    <nd ref="429621829"/>
    <nd ref="429621830"/>
    <nd ref="429621831"/>
    <nd ref="429621832"/>
    <nd ref="429621833"/>
    <nd ref="429621834"/>
    <nd ref="429621835"/>
    <nd ref="429621836"/>
    <nd ref="429621838"/>
    <nd ref="429621839"/>
    <tag k="cables" v="6"/>
    <tag k="frequency" v="50"/>
    <tag k="name" v="Anilin 1A; Anilin 2B"/>
    <tag k="operator" v="RWE"/>
    <tag k="power" v="line"/>
    <tag k="voltage" v="220000"/>
  </way>
  <way id="36919272" version="5" timestamp="2011-05-04T19:51:31Z" uid="239033" user="fabian18" changeset="8052071">
    <nd ref="429621791"/>
    <nd ref="705718126"/>
    <nd ref="705706657"/>
    <nd ref="429621792"/>
    <nd ref="429621793"/>
    <nd ref="429621794"/>
    <nd ref="429621795"/>
    <nd ref="429621796"/>
    <nd ref="429621797"/>
    <nd ref="429621798"/>
    <nd ref="429621799"/>
    <nd ref="429621800"/>
    <nd ref="429621801"/>
    <nd ref="429621802"/>
    <nd ref="429621803"/>
    <nd ref="429621804"/>
    <nd ref="429621805"/>
    <nd ref="429621806"/>
    <nd ref="429621807"/>
    <nd ref="429621808"/>
    <nd ref="429621809"/>
    <nd ref="429621810"/>
    <nd ref="429621811"/>
    <nd ref="429621812"/>
    <nd ref="429621813"/>
    <nd ref="429621814"/>
    <nd ref="429621815"/>
    <nd ref="429621816"/>
    <nd ref="429621817"/>
    <nd ref="429621818"/>
    <nd ref="429621819"/>
    <nd ref="429354159"/>
    <nd ref="429354155"/>
    <nd ref="429354157"/>
    <nd ref="429621820"/>
    <nd ref="429621821"/>
    <nd ref="429621822"/>
    <nd ref="429621823"/>
    <nd ref="429621824"/>
    <nd ref="429621825"/>
    <nd ref="429621826"/>
    <nd ref="429621827"/>
    <nd ref="429621828"/>
    <nd ref="429621829"/>
    <nd ref="429621830"/>
    <nd ref="429621831"/>
    <nd ref="429621832"/>
    <nd ref="429621833"/>
    <nd ref="429621834"/>
    <nd ref="429621835"/>
    <nd ref="429621836"/>
    <nd ref="429621838"/>
    <nd ref="429621839"/>
    <tag k="cables" v="6"/>
    <tag k="frequency" v="50"/>
    <tag k="name" v="Anilin 1A; Anilin 2B"/>
    <tag k="operator" v="RWE"/>
    <tag k="power" v="line"/>
    <tag k="voltage" v="220000"/>
    <tag k="wires" v="double"/>
  </way>
  <way id="36919272" version="6" timestamp="2011-07-04T01:52:30Z" uid="92274" user="adjuva" changeset="8625327">
    <nd ref="429621791"/>
    <nd ref="705718126"/>
    <nd ref="705706657"/>
    <nd ref="429621792"/>
    <nd ref="429621793"/>
    <nd ref="429621794"/>
    <nd ref="429621795"/>
    <nd ref="429621796"/>
    <nd ref="429621797"/>
    <nd ref="429621798"/>
    <nd ref="429621799"/>
    <nd ref="429621800"/>
    <nd ref="429621801"/>
    <nd ref="429621802"/>
    <nd ref="429621803"/>
    <nd ref="429621804"/>
    <nd ref="429621805"/>
    <nd ref="429621806"/>
    <nd ref="429621807"/>
    <nd ref="429621808"/>
    <nd ref="429621809"/>
    <nd ref="429621810"/>
    <nd ref="429621811"/>
    <nd ref="429621812"/>
    <nd ref="429621813"/>
    <nd ref="429621814"/>
    <nd ref="429621815"/>
    <nd ref="429621816"/>
    <nd ref="429621817"/>
    <nd ref="429621818"/>
    <nd ref="429621819"/>
    <nd ref="429354159"/>
    <nd ref="429354155"/>
    <nd ref="429354157"/>
    <nd ref="429621820"/>
    <nd ref="429621821"/>
    <nd ref="429621822"/>
    <nd ref="429621823"/>
    <nd ref="429621824"/>
    <nd ref="429621825"/>
    <nd ref="429621826"/>
    <nd ref="429621827"/>
    <nd ref="429621828"/>
    <nd ref="429621829"/>
    <nd ref="429621830"/>
    <nd ref="429621831"/>
    <nd ref="429621832"/>
    <nd ref="429621833"/>
    <nd ref="429621834"/>
    <nd ref="429621835"/>
    <nd ref="1348829702"/>
    <nd ref="429621836"/>
    <nd ref="429621838"/>
    <nd ref="429621839"/>
    <tag k="cables" v="6"/>
    <tag k="frequency" v="50"/>
    <tag k="name" v="Anilin 1A; Anilin 2B"/>
    <tag k="operator" v="RWE"/>
    <tag k="power" v="line"/>
    <tag k="ref" v="2328"/>
    <tag k="voltage" v="220000"/>
    <tag k="wires" v="double"/>
  </way>
  <way id="36919272" version="7" timestamp="2011-09-03T06:23:31Z" uid="92274" user="adjuva" changeset="9198186">
    <nd ref="429621792"/>
    <nd ref="429621793"/>
    <nd ref="429621794"/>
    <nd ref="429621795"/>
    <nd ref="429621796"/>
    <nd ref="429621797"/>
    <nd ref="429621798"/>
    <nd ref="429621799"/>
    <nd ref="429621800"/>
    <nd ref="429621801"/>
    <nd ref="429621802"/>
    <nd ref="429621803"/>
    <nd ref="429621804"/>
    <nd ref="429621805"/>
    <nd ref="429621806"/>
    <nd ref="429621807"/>
    <nd ref="429621808"/>
    <nd ref="429621809"/>
    <nd ref="429621810"/>
    <nd ref="429621811"/>
    <nd ref="429621812"/>
    <nd ref="429621813"/>
    <nd ref="429621814"/>
    <nd ref="429621815"/>
    <nd ref="429621816"/>
    <nd ref="429621817"/>
    <nd ref="429621818"/>
    <nd ref="429621819"/>
    <nd ref="429354159"/>
    <nd ref="429354155"/>
    <nd ref="429354157"/>
    <nd ref="429621820"/>
    <nd ref="429621821"/>
    <nd ref="429621822"/>
    <nd ref="429621823"/>
    <nd ref="429621824"/>
    <nd ref="429621825"/>
    <nd ref="429621826"/>
    <nd ref="429621827"/>
    <nd ref="429621828"/>
    <nd ref="429621829"/>
    <nd ref="429621830"/>
    <nd ref="429621831"/>
    <nd ref="429621832"/>
    <nd ref="429621833"/>
    <nd ref="429621834"/>
    <nd ref="429621835"/>
    <nd ref="1348829702"/>
    <nd ref="429621836"/>
    <nd ref="429621838"/>
    <nd ref="429621839"/>
    <tag k="cables" v="6"/>
    <tag k="frequency" v="50"/>
    <tag k="name" v="220 kV Anilin 1A|2B"/>
    <tag k="operator" v="RWE"/>
    <tag k="power" v="line"/>
    <tag k="ref" v="2328"/>
    <tag k="voltage" v="220000"/>
    <tag k="wires" v="double"/>
  </way>
  <way id="36919272" version="8" timestamp="2012-02-12T06:16:52Z" uid="92274" user="adjuva" changeset="10659867">
    <nd ref="1629272948"/>
    <nd ref="1629272924"/>
    <nd ref="1629272880"/>
    <nd ref="1629272858"/>
    <nd ref="429621796"/>
    <nd ref="429621797"/>
    <nd ref="429621798"/>
    <nd ref="429621799"/>
    <nd ref="429621800"/>
    <nd ref="429621801"/>
    <nd ref="429621802"/>
    <nd ref="429621803"/>
    <nd ref="429621804"/>
    <nd ref="429621805"/>
    <nd ref="429621806"/>
    <nd ref="429621807"/>
    <nd ref="429621808"/>
    <nd ref="429621809"/>
    <nd ref="429621810"/>
    <nd ref="429621811"/>
    <nd ref="429621812"/>
    <nd ref="429621813"/>
    <nd ref="429621814"/>
    <nd ref="429621815"/>
    <nd ref="429621816"/>
    <nd ref="429621817"/>
    <nd ref="429621818"/>
    <nd ref="429621819"/>
    <nd ref="429354159"/>
    <nd ref="429354155"/>
    <nd ref="429354157"/>
    <nd ref="429621820"/>
    <nd ref="429621821"/>
    <nd ref="429621822"/>
    <nd ref="429621823"/>
    <nd ref="429621824"/>
    <nd ref="429621825"/>
    <nd ref="429621826"/>
    <nd ref="429621827"/>
    <nd ref="429621828"/>
    <nd ref="429621829"/>
    <nd ref="429621830"/>
    <nd ref="429621831"/>
    <nd ref="429621832"/>
    <nd ref="429621833"/>
    <nd ref="429621834"/>
    <nd ref="429621835"/>
    <nd ref="1348829702"/>
    <nd ref="429621836"/>
    <nd ref="429621838"/>
    <nd ref="429621839"/>
    <tag k="cables" v="6"/>
    <tag k="frequency" v="50"/>
    <tag k="name" v="220 kV Anilin 1A|2B"/>
    <tag k="operator" v="RWE"/>
    <tag k="power" v="line"/>
    <tag k="ref" v="2328"/>
    <tag k="voltage" v="220000"/>
    <tag k="wires" v="double"/>
  </way>
  <way id="36919272" version="9" timestamp="2012-03-03T00:03:34Z" uid="92274" user="adjuva" changeset="10853697"/>
  <way id="36919273" version="1" timestamp="2009-06-25T20:29:26Z" uid="24920" user="Schusch" changeset="1626315">
    <nd ref="429354149"/>
    <nd ref="429354162"/>
    <tag k="cables" v="12"/>
    <tag k="note" v="6 x 380 kV, 6 x 220 kV"/>
    <tag k="operator" v="RWE"/>
    <tag k="power" v="line"/>
    <tag k="voltage" v="380000; 220000"/>
  </way>
  <way id="36919273" version="2" timestamp="2009-06-26T19:36:48Z" uid="9581" user="Lobelt" changeset="1644131"/>
  <way id="36919497" version="2" timestamp="2010-03-28T02:25:31Z" uid="20587" user="balrog-kun" changeset="4250871">
    <nd ref="91068877"/>
    <nd ref="91068925"/>
    <nd ref="91068927"/>
    <nd ref="91068929"/>
    <tag k="created_by" v="Potlatch 0.10f"/>
    <tag k="highway" v="residential"/>
    <tag k="name" v="Larkin Valley Road"/>
    <tag k="tiger:cfcc" v="A41"/>
    <tag k="tiger:county" v="Santa Cruz, CA"/>
    <tag k="tiger:name_base" v="Larkin Valley"/>
    <tag k="tiger:name_type" v="Rd"/>
    <tag k="tiger:reviewed" v="no"/>
    <tag k="tiger:separated" v="no"/>
    <tag k="tiger:source" v="tiger_import_dch_v0.6_20070809"/>
    <tag k="tiger:tlid" v="125512124:125512532:125512542:125512544:125512545:125529964:125529965"/>
  </way>
  <way id="36919523" version="3" timestamp="2010-08-19T20:38:16Z" uid="164966" user="linuss1" changeset="5538843">
    <nd ref="68830096"/>
    <nd ref="68830097"/>
    <nd ref="68830525"/>
    <nd ref="68830099"/>
    <nd ref="335536239"/>
    <nd ref="70662517"/>
    <nd ref="68830102"/>
    <nd ref="70662518"/>
    <nd ref="335875936"/>
    <nd ref="68827612"/>
    <nd ref="68827614"/>
    <nd ref="68827615"/>
    <nd ref="150408250"/>
    <nd ref="68827619"/>
    <tag k="highway" v="residential"/>
    <tag k="maxspeed" v="30"/>
    <tag k="name" v="Heinrich-Schacht-Straße"/>
  </way>
  <way id="36919523" version="4" timestamp="2012-01-02T16:42:01Z" uid="208474" user="Joke123" changeset="10271780">
    <nd ref="68830096"/>
    <nd ref="68830097"/>
    <nd ref="68830525"/>
    <nd ref="1574273051"/>
    <nd ref="68830099"/>
    <nd ref="335536239"/>
    <nd ref="70662517"/>
    <nd ref="68830102"/>
    <nd ref="70662518"/>
    <nd ref="335875936"/>
    <nd ref="68827612"/>
    <nd ref="68827614"/>
    <nd ref="68827615"/>
    <nd ref="150408250"/>
    <nd ref="68827619"/>
    <tag k="highway" v="residential"/>
    <tag k="maxspeed" v="30"/>
    <tag k="name" v="Heinrich-Schacht-Straße"/>
  </way>
  <way id="36919590" version="2" timestamp="2010-06-04T20:43:20Z" uid="107674" user="GeoCounter" changeset="4904363">
    <nd ref="429358067"/>
    <nd ref="429358075"/>
    <nd ref="429358081"/>
    <nd ref="429358083"/>
    <nd ref="429358076"/>
    <nd ref="261632882"/>
    <tag k="highway" v="residential"/>
  </way>
  <way id="36919591" version="2" timestamp="2010-02-13T20:09:11Z" uid="107674" user="GeoCounter" changeset="3868121">
    <nd ref="429358083"/>
    <nd ref="429358084"/>
    <tag k="highway" v="service"/>
    <tag k="service" v="parking_aisle"/>
  </way>
  <way id="36919592" version="2" timestamp="2010-02-13T20:08:53Z" uid="107674" user="GeoCounter" changeset="3868121">
    <nd ref="429358081"/>
    <nd ref="429358086"/>
    <tag k="highway" v="service"/>
    <tag k="service" v="parking_aisle"/>
  </way>
  <way id="36919593" version="2" timestamp="2010-02-13T20:08:59Z" uid="107674" user="GeoCounter" changeset="3868121">
    <nd ref="429358075"/>
    <nd ref="429358088"/>
    <tag k="highway" v="service"/>
    <tag k="service" v="parking_aisle"/>
  </way>
  <way id="36919594" version="2" timestamp="2010-02-13T20:08:40Z" uid="107674" user="GeoCounter" changeset="3868121">
    <nd ref="288470696"/>
    <nd ref="429358093"/>
    <tag k="highway" v="service"/>
    <tag k="service" v="parking_aisle"/>
  </way>
  <way id="36919750" version="2" timestamp="2009-08-05T11:50:50Z" uid="4467" user="Rosscoe" changeset="2045434"/>
  <way id="36919871" version="2" timestamp="2009-08-05T11:50:50Z" uid="4467" user="Rosscoe" changeset="2045434"/>
  <way id="36919178" version="21" timestamp="2012-05-22T21:38:55Z" uid="537860" user="awulkiew" changeset="11676176">
    <nd ref="472912906"/>
    <nd ref="1296411497"/>
    <nd ref="29908577"/>
    <nd ref="348116482"/>
    <nd ref="1311276351"/>
    <nd ref="1296411438"/>
    <nd ref="1494115804"/>
    <nd ref="1762573660"/>
    <nd ref="768953408"/>
    <tag k="highway" v="secondary"/>
    <tag k="lanes" v="2"/>
    <tag k="maxspeed" v="50"/>
    <tag k="name" v="Zachodnia"/>
    <tag k="oneway" v="yes"/>
    <tag k="ref" v="57"/>
    <tag k="surface" v="asphalt"/>
  </way>
  <way id="36919178" version="22" timestamp="2012-07-10T16:24:24Z" uid="664988" user="kamll" changeset="12175660">
    <nd ref="472912906"/>
    <nd ref="1820497609"/>
    <nd ref="1820497594"/>
    <nd ref="1296411497"/>
    <nd ref="29908577"/>
    <nd ref="348116482"/>
    <nd ref="1311276351"/>
    <nd ref="1296411438"/>
    <nd ref="1494115804"/>
    <nd ref="1820497460"/>
    <nd ref="1820497438"/>
    <nd ref="1762573660"/>
    <nd ref="768953408"/>
    <tag k="highway" v="secondary"/>
    <tag k="lanes" v="2"/>
    <tag k="maxspeed" v="50"/>
    <tag k="name" v="Zachodnia"/>
    <tag k="oneway" v="yes"/>
    <tag k="ref" v="57"/>
    <tag k="surface" v="asphalt"/>
  </way>
  <way id="36919178" version="23" timestamp="2012-07-23T17:23:48Z" uid="607553" user="Duke83" changeset="12453806">
    <nd ref="472912906"/>
    <nd ref="1820497609"/>
    <nd ref="1820497594"/>
    <nd ref="1296411497"/>
    <nd ref="29908577"/>
    <nd ref="348116482"/>
    <tag k="highway" v="secondary"/>
    <tag k="lanes" v="2"/>
    <tag k="maxspeed" v="50"/>
    <tag k="name" v="Zachodnia"/>
    <tag k="oneway" v="yes"/>
    <tag k="ref" v="57"/>
    <tag k="surface" v="asphalt"/>
  </way>
  <way id="36919178" version="24" timestamp="2012-07-24T13:31:44Z" uid="722137" user="OSMF Redaction Account" changeset="12466681">
    <nd ref="1820497609"/>
    <nd ref="1820497594"/>
    <nd ref="29908577"/>
    <nd ref="348116482"/>
    <tag k="highway" v="secondary"/>
    <tag k="lanes" v="2"/>
    <tag k="maxspeed" v="50"/>
    <tag k="name" v="Zachodnia"/>
    <tag k="oneway" v="yes"/>
    <tag k="ref" v="57"/>
    <tag k="surface" v="asphalt"/>
  </way>
  <way id="36919178" version="25" timestamp="2012-07-25T08:24:53Z" uid="607553" user="Duke83" changeset="12483080">
    <nd ref="1820497609"/>
    <nd ref="1820497594"/>
    <nd ref="29908577"/>
    <nd ref="348116482"/>
    <tag k="highway" v="secondary"/>
    <tag k="lanes" v="2"/>
    <tag k="maxspeed" v="50"/>
    <tag k="name" v="Zachodnia"/>
    <tag k="oneway" v="yes"/>
    <tag k="ref" v="57"/>
    <tag k="source" v="GPS, survey"/>
    <tag k="surface" v="asphalt"/>
  </way>
  <way id="36919178" version="26" timestamp="2012-08-09T20:32:42Z" uid="707169" user="damndog" changeset="12673445">
    <nd ref="1820497609"/>
    <nd ref="1820497594"/>
    <nd ref="29908577"/>
    <nd ref="348116482"/>
    <tag k="highway" v="tertiary"/>
    <tag k="lanes" v="2"/>
    <tag k="maxspeed" v="50"/>
    <tag k="name" v="Zachodnia"/>
    <tag k="oneway" v="yes"/>
    <tag k="ref" v="57"/>
    <tag k="source" v="GPS, survey"/>
    <tag k="surface" v="asphalt"/>
  </way>
  <way id="36919178" version="27" timestamp="2012-09-09T19:33:53Z" uid="123364" user="Tronikon" changeset="13048891">
    <nd ref="1820497609"/>
    <nd ref="1820497594"/>
    <nd ref="29908577"/>
    <nd ref="348116482"/>
    <tag k="highway" v="tertiary"/>
    <tag k="lanes" v="2"/>
    <tag k="maxspeed" v="50"/>
    <tag k="name" v="Zachodnia"/>
    <tag k="oneway" v="yes"/>
    <tag k="source" v="GPS, survey"/>
    <tag k="surface" v="asphalt"/>
  </way>
  <way id="36919179" version="5" timestamp="2012-07-24T14:10:45Z" uid="722137" user="OSMF Redaction Account" changeset="12467476">
    <nd ref="429353334"/>
    <nd ref="429353335"/>
    <nd ref="429353337"/>
    <nd ref="429353340"/>
    <nd ref="429353334"/>
    <tag k="building" v="yes"/>
  </way>
  <way id="36919180" version="3" timestamp="2012-07-24T14:10:45Z" uid="722137" user="OSMF Redaction Account" changeset="12467476">
    <nd ref="429353346"/>
    <nd ref="429353351"/>
    <nd ref="429353352"/>
    <nd ref="429353357"/>
    <nd ref="429353346"/>
    <tag k="building" v="yes"/>
  </way>
  <way id="36919181" version="3" timestamp="2012-07-24T14:10:45Z" uid="722137" user="OSMF Redaction Account" changeset="12467476">
    <nd ref="429353362"/>
    <nd ref="429353363"/>
    <nd ref="429353364"/>
    <nd ref="429353365"/>
    <nd ref="429353362"/>
    <tag k="building" v="yes"/>
  </way>
  <way id="36919182" version="4" timestamp="2012-07-24T14:10:46Z" uid="722137" user="OSMF Redaction Account" changeset="12467476">
    <nd ref="429353366"/>
    <nd ref="429353367"/>
    <nd ref="1178931627"/>
    <nd ref="1178931635"/>
    <nd ref="429353368"/>
    <nd ref="429353369"/>
    <nd ref="1178931648"/>
    <nd ref="1178931202"/>
    <nd ref="429353366"/>
    <tag k="building" v="yes"/>
  </way>
  <way id="36919185" version="3" timestamp="2012-07-24T14:09:37Z" uid="722137" user="OSMF Redaction Account" changeset="12467414">
    <nd ref="429353378"/>
    <nd ref="429353379"/>
    <nd ref="429353380"/>
    <nd ref="429353381"/>
    <nd ref="429353378"/>
    <tag k="building" v="yes"/>
  </way>
  <way id="36919187" version="3" timestamp="2012-07-24T14:10:49Z" uid="722137" user="OSMF Redaction Account" changeset="12467476">
    <nd ref="429353382"/>
    <nd ref="429353383"/>
    <nd ref="429353384"/>
    <nd ref="429353385"/>
    <nd ref="429353382"/>
    <tag k="building" v="yes"/>
  </way>
  <way id="36919188" version="5" timestamp="2012-07-24T14:10:49Z" uid="722137" user="OSMF Redaction Account" changeset="12467476">
    <nd ref="429353386"/>
    <nd ref="429353387"/>
    <nd ref="1433282177"/>
    <nd ref="1433282176"/>
    <nd ref="1433282175"/>
    <nd ref="1433282173"/>
    <nd ref="1433282172"/>
    <nd ref="429353388"/>
    <nd ref="429353389"/>
    <nd ref="429353386"/>
    <tag k="building" v="yes"/>
  </way>
  <way id="36919189" version="3" timestamp="2012-07-24T14:10:49Z" uid="722137" user="OSMF Redaction Account" changeset="12467476">
    <nd ref="429353390"/>
    <nd ref="429353391"/>
    <nd ref="429353392"/>
    <nd ref="429353393"/>
    <nd ref="429353390"/>
    <tag k="building" v="yes"/>
  </way>
  <way id="36919190" version="3" timestamp="2012-07-24T14:10:48Z" uid="722137" user="OSMF Redaction Account" changeset="12467476">
    <nd ref="429353394"/>
    <nd ref="429353395"/>
    <nd ref="429353396"/>
    <nd ref="429353397"/>
    <nd ref="429353394"/>
    <tag k="building" v="yes"/>
  </way>
  <way id="36919191" version="3" timestamp="2012-07-24T14:10:48Z" uid="722137" user="OSMF Redaction Account" changeset="12467476">
    <nd ref="429353398"/>
    <nd ref="429353399"/>
    <nd ref="429353400"/>
    <nd ref="429353401"/>
    <nd ref="429353398"/>
    <tag k="building" v="yes"/>
  </way>
  <way id="36919590" version="3" timestamp="2012-05-27T15:19:17Z" uid="8464" user="MichaH" changeset="11716724">
    <nd ref="429358067"/>
    <nd ref="1767681026"/>
    <tag k="highway" v="residential"/>
  </way>
  <way id="36919591" version="3" timestamp="2012-07-19T04:53:31Z" uid="722137" user="OSMF Redaction Account" changeset="12308583">
    <nd ref="429358083"/>
    <nd ref="429358084"/>
    <tag k="highway" v="service"/>
  </way>
  <way id="36919591" version="4" timestamp="2012-08-06T14:12:06Z" uid="8464" user="MichaH" changeset="12633766">
    <nd ref="429358083"/>
    <nd ref="429358084"/>
    <tag k="highway" v="service"/>
    <tag k="service" v="parking_aisle"/>
  </way>
  <way id="36919592" version="3" timestamp="2012-07-19T04:53:32Z" uid="722137" user="OSMF Redaction Account" changeset="12308583">
    <nd ref="429358081"/>
    <nd ref="429358086"/>
    <tag k="highway" v="service"/>
  </way>
  <way id="36919592" version="4" timestamp="2012-08-06T14:12:06Z" uid="8464" user="MichaH" changeset="12633766">
    <nd ref="429358081"/>
    <nd ref="429358086"/>
    <tag k="highway" v="service"/>
    <tag k="service" v="parking_aisle"/>
  </way>
  <way id="36919593" version="3" timestamp="2012-07-19T04:53:32Z" uid="722137" user="OSMF Redaction Account" changeset="12308583">
    <nd ref="429358075"/>
    <nd ref="429358088"/>
    <tag k="highway" v="service"/>
  </way>
  <way id="36919593" version="4" timestamp="2012-08-06T14:12:06Z" uid="8464" user="MichaH" changeset="12633766">
    <nd ref="429358075"/>
    <nd ref="429358088"/>
    <tag k="highway" v="service"/>
    <tag k="service" v="parking_aisle"/>
  </way>
  <way id="36919594" version="3" timestamp="2012-07-19T04:53:31Z" uid="722137" user="OSMF Redaction Account" changeset="12308583">
    <nd ref="288470696"/>
    <nd ref="429358093"/>
    <tag k="highway" v="service"/>
  </way>
  <way id="36919594" version="4" timestamp="2012-07-26T07:59:20Z" uid="8464" user="MichaH" changeset="12495647">
    <nd ref="2472134"/>
    <nd ref="288470696"/>
    <nd ref="429358093"/>
    <tag k="highway" v="service"/>
  </way>
</osm>
